[{"icaoId":"KSUN","receiptTime":"2026-04-17T03:01:46.464Z","obsTime":1776394740,"reportTime":"2026-04-17T03:00:00.000Z","temp":-1,"dewp":-12,"wdir":310,"wspd":9,"visib":"10+","altim":1017.4,"qcField":0,"metarType":"METAR","rawOb":"METAR KSUN 170259Z 31009KT 10SM CLR M01/M12 A3004","lat":43.4969,"lon":-114.2923,"elev":1619,"name":"Hailey/Friedman Mem, ID, US","cover":"CLR","clouds":[],"fltCat":"VFR"},{"icaoId":"KJAC","receiptTime":"2026-04-17T03:02:14.073Z","obsTime":1776394740,"reportTime":"2026-04-17T02:59:00.000Z","temp":-6,"dewp":-7,"wdir":210,"wspd":10,"visib":2,"altim":1013.3,"qcField":4,"wxString":"-SN BR","precip":0.005,"metarType":"SPECI","rawOb":"SPECI KJAC 170259Z 21010KT 2SM -SN BR SCT011 OVC019 M06/M07 A2992 RMK AO2 P0000","lat":43.6129,"lon":-110.7366,"elev":1967,"name":"Jackson Hole Arpt, WY, US","cover":"OVC","clouds":[{"cover":"SCT","base":1100},{"cover":"OVC","base":1900}],"fltCat":"IFR"},{"icaoId":"KFLG","receiptTime":"2026-04-17T03:01:44.030Z","obsTime":1776394620,"reportTime":"2026-04-17T03:00:00.000Z","temp":8.9,"dewp":-10,"wdir":210,"wspd":11,"wgst":20,"visib":"10+","altim":1014.3,"slp":1008.2,"qcField":6,"presTend":-0.7,"metarType":"METAR","rawOb":"METAR KFLG 170257Z AUTO 21011G20KT 10SM CLR 09/M10 A2995 RMK AO2 SLP082 T00891100 56007","lat":35.1443,"lon":-111.6664,"elev":2134,"name":"Flagstaff/Pulliam Arpt, AZ, US","cover":"CLR","clouds":[],"fltCat":"VFR"},{"icaoId":"KNYL","receiptTime":"2026-04-17T03:00:07.572Z","obsTime":1776394620,"reportTime":"2026-04-17T03:00:00.000Z","temp":25.6,"dewp":2.2,"wdir":190,"wspd":7,"visib":"10+","altim":1006.9,"slp":1006.4,"qcField":4,"presTend":-0.2,"metarType":"METAR","rawOb":"METAR KNYL 170257Z 19007KT 10SM CLR 26/02 A2973 RMK AO2 SLP064 T02560022 55002","lat":32.66,"lon":-114.6078,"elev":58,"name":"Yuma , AZ, US","cover":"CLR","clouds":[],"fltCat":"VFR"},{"icaoId":"KUKI","receiptTime":"2026-04-17T03:01:43.969Z","obsTime":1776394560,"reportTime":"2026-04-17T03:00:00.000Z","temp":14.4,"dewp":3.3,"wdir":0,"wspd":0,"visib":"10+","altim":1018.4,"slp":1017.9,"qcField":6,"presTend":0.6,"metarType":"METAR","rawOb":"METAR KUKI 170256Z AUTO 00000KT 10SM CLR 14/03 A3007 RMK AO2 SLP179 T01440033 53006","lat":39.1278,"lon":-123.2001,"elev":183,"name":"Ukiah Muni, CA, US","cover":"CLR","clouds":[],"fltCat":"VFR"},{"icaoId":"KCEC","receiptTime":"2026-04-17T03:01:43.993Z","obsTime":1776394560,"reportTime":"2026-04-17T03:00:00.000Z","temp":10.6,"dewp":7.2,"wdir":340,"wspd":14,"wgst":26,"visib":9,"altim":1023.8,"slp":1023.7,"qcField":6,"presTend":-1,"metarType":"METAR","rawOb":"METAR KCEC 170256Z AUTO 34014G26KT 9SM CLR 11/07 A3023 RMK AO2 PK WND 34033/0204 SLP237 T01060072 56010","lat":41.7836,"lon":-124.238,"elev":17,"name":"Crescent City/McNama, CA, US","cover":"CLR","clouds":[],"fltCat":"VFR"},{"icaoId":"KEKO","receiptTime":"2026-04-17T03:01:44.004Z","obsTime":1776394560,"reportTime":"2026-04-17T03:00:00.000Z","temp":-2.8,"dewp":-8.3,"wdir":200,"wspd":5,"visib":"10+","altim":1020.7,"slp":1023.1,"qcField":6,"presTend":2.1,"precip":0.005,"pcp3hr":0.005,"metarType":"METAR","rawOb":"METAR KEKO 170256Z AUTO 20005KT 10SM CLR M03/M08 A3014 RMK AO2 SNE11 SLP231 P0000 60000 T10281083 53021","lat":40.824,"lon":-115.7863,"elev":1541,"name":"Elko Rgnl, NV, US","cover":"CLR","clouds":[],"fltCat":"VFR"},{"icaoId":"KPWT","receiptTime":"2026-04-17T03:01:27.580Z","obsTime":1776394560,"reportTime":"2026-04-17T03:00:00.000Z","temp":9.4,"dewp":1.7,"wdir":240,"wspd":10,"visib":"10+","altim":1024.5,"slp":1025,"qcField":6,"presTend":0.1,"metarType":"METAR","rawOb":"METAR KPWT 170256Z AUTO 24010KT 10SM CLR 09/02 A3025 RMK AO2 SLP250 T00940017 53001","lat":47.4942,"lon":-122.7594,"elev":143,"name":"Bremerton Arpt, WA, US","cover":"CLR","clouds":[],"fltCat":"VFR"},{"icaoId":"KJAX","receiptTime":"2026-04-17T03:01:44.945Z","obsTime":1776394560,"reportTime":"2026-04-17T03:00:00.000Z","temp":21.1,"dewp":13.3,"wdir":150,"wspd":3,"visib":"10+","altim":1017.7,"slp":1017.8,"qcField":4,"presTend":1,"metarType":"METAR","rawOb":"METAR KJAX 170256Z 15003KT 10SM CLR 21/13 A3005 RMK AO2 SLP178 T02110133 53010","lat":30.4953,"lon":-81.6937,"elev":8,"name":"Jacksonville Intl, FL, US","cover":"CLR","clouds":[],"fltCat":"VFR"},{"icaoId":"KBZN","receiptTime":"2026-04-17T03:01:45.466Z","obsTime":1776394560,"reportTime":"2026-04-17T03:00:00.000Z","temp":-3.9,"dewp":-5.6,"wdir":130,"wspd":6,"visib":"10+","altim":1015.3,"slp":1019.4,"qcField":4,"presTend":2.5,"precip":0.04,"pcp3hr":0.04,"metarType":"METAR","rawOb":"METAR KBZN 170256Z 13006KT 10SM SCT070 SCT085 M04/M06 A2998 RMK AO2 SNB08E30 SLP194 P0004 60004 T10391056 53025","lat":45.7876,"lon":-111.1615,"elev":1349,"name":"Bozeman/Gallatin Fld, MT, US","cover":"SCT","clouds":[{"cover":"SCT","base":7000},{"cover":"SCT","base":8500}],"fltCat":"VFR"},{"icaoId":"KPVU","receiptTime":"2026-04-17T03:01:27.478Z","obsTime":1776394560,"reportTime":"2026-04-17T03:00:00.000Z","temp":2.8,"dewp":-8.3,"wdir":320,"wspd":13,"visib":"10+","altim":1017.4,"slp":1015.9,"qcField":4,"presTend":0.9,"pcp3hr":0.005,"metarType":"METAR","rawOb":"METAR KPVU 170256Z 32013KT 10SM SCT085 BKN120 03/M08 A3004 RMK AO2 SLP159 60000 T00281083 53009","lat":40.224,"lon":-111.7252,"elev":1370,"name":"Provo Muni, UT, US","cover":"BKN","clouds":[{"cover":"SCT","base":8500},{"cover":"BKN","base":12000}],"fltCat":"VFR"},{"icaoId":"KRDM","receiptTime":"2026-04-17T03:01:43.919Z","obsTime":1776394560,"reportTime":"2026-04-17T03:00:00.000Z","temp":3.9,"dewp":-6.7,"wdir":280,"wspd":11,"visib":"10+","altim":1023.8,"slp":1025.1,"qcField":4,"presTend":1.1,"metarType":"METAR","rawOb":"METAR KRDM 170256Z 28011KT 10SM FEW055 04/M07 A3023 RMK AO2 SLP251 T00391067 53011","lat":44.2558,"lon":-121.1407,"elev":930,"name":"Redmond Muni, OR, US","cover":"FEW","clouds":[{"cover":"FEW","base":5500}],"fltCat":"VFR"},{"icaoId":"KSLE","receiptTime":"2026-04-17T03:01:43.946Z","obsTime":1776394560,"reportTime":"2026-04-17T03:00:00.000Z","temp":9.4,"dewp":2.8,"wdir":300,"wspd":6,"visib":"10+","altim":1026.2,"slp":1026.1,"qcField":4,"presTend":0.1,"metarType":"METAR","rawOb":"METAR KSLE 170256Z 30006KT 10SM SCT060 09/03 A3030 RMK AO2 SLP261 T00940028 53001","lat":44.9049,"lon":-123.001,"elev":63,"name":"Salem Muni, OR, US","cover":"SCT","clouds":[{"cover":"SCT","base":6000}],"fltCat":"VFR"},{"icaoId":"KTPH","receiptTime":"2026-04-17T03:01:43.958Z","obsTime":1776394560,"reportTime":"2026-04-17T03:00:00.000Z","temp":7.8,"dewp":-22.2,"wdir":350,"wspd":21,"wgst":29,"visib":"10+","altim":1016,"slp":1013.4,"qcField":6,"presTend":2.5,"metarType":"METAR","rawOb":"METAR KTPH 170256Z AUTO 35021G29KT 10SM FEW120 08/M22 A3000 RMK AO2 PK WND 36034/0236 SLP134 T00781222 53025","lat":38.0505,"lon":-117.0906,"elev":1647,"name":"Tonopah Arpt, NV, US","cover":"FEW","clouds":[{"cover":"FEW","base":12000}],"fltCat":"VFR"},{"icaoId":"KSGU","receiptTime":"2026-04-17T03:01:27.502Z","obsTime":1776394560,"reportTime":"2026-04-17T03:00:00.000Z","temp":21.7,"dewp":-5,"wdir":220,"wspd":21,"wgst":28,"visib":"10+","altim":1005.5,"slp":1003,"qcField":6,"presTend":-0.6,"metarType":"METAR","rawOb":"METAR KSGU 170256Z AUTO 22021G28KT 10SM CLR 22/M05 A2969 RMK AO2 PK WND 21028/0249 SLP030 T02171050 55006","lat":37.0444,"lon":-113.5034,"elev":877,"name":"Saint George Muni, UT, US","cover":"CLR","clouds":[],"fltCat":"VFR"},{"icaoId":"KFNL","receiptTime":"2026-04-17T03:01:15.932Z","obsTime":1776394560,"reportTime":"2026-04-17T03:00:00.000Z","temp":18.3,"dewp":-8.3,"wdir":290,"wspd":11,"visib":"10+","altim":1003.1,"slp":997.5,"qcField":14,"presTend":0.1,"metarType":"METAR","rawOb":"METAR KFNL 170256Z AUTO 29011KT 10SM CLR 18/M08 A2962 RMK AO2 SLP975 T01831083 53001 $","lat":40.4427,"lon":-105.0097,"elev":1529,"name":"Fort Collins/N Colorado Rgnl, CO, US","cover":"CLR","clouds":[],"fltCat":"VFR"},{"icaoId":"KCHS","receiptTime":"2026-04-17T03:01:42.423Z","obsTime":1776394560,"reportTime":"2026-04-17T03:00:00.000Z","temp":20,"dewp":16.7,"wdir":200,"wspd":6,"visib":"10+","altim":1017,"slp":1016.7,"qcField":4,"presTend":1,"metarType":"METAR","rawOb":"METAR KCHS 170256Z 20006KT 10SM FEW250 20/17 A3003 RMK AO2 SLP167 T02000167 52010","lat":32.8995,"lon":-80.0407,"elev":12,"name":"Charleston Intl, SC, US","cover":"FEW","clouds":[{"cover":"FEW","base":25000}],"fltCat":"VFR"},{"icaoId":"KENV","receiptTime":"2026-04-17T03:01:15.552Z","obsTime":1776394560,"reportTime":"2026-04-17T03:00:00.000Z","temp":2.2,"dewp":-11.7,"wdir":330,"wspd":17,"wgst":22,"visib":"10+","altim":1020.1,"slp":1021.1,"qcField":70,"presTend":2.7,"metarType":"METAR","rawOb":"METAR KENV 170256Z AUTO 33017G22KT 10SM CLR 02/M12 A3012 RMK AO2 PK WND 32026/0205 SLP211 T00221117 53027 FZRANO","lat":40.7211,"lon":-114.0312,"elev":1291,"name":"Wendover Arpt, UT, US","cover":"CLR","clouds":[],"fltCat":"VFR"},{"icaoId":"KLWS","receiptTime":"2026-04-17T03:01:45.707Z","obsTime":1776394560,"reportTime":"2026-04-17T03:00:00.000Z","temp":8.9,"dewp":-4.4,"wdir":260,"wspd":7,"visib":"10+","altim":1020.4,"slp":1021.2,"qcField":4,"presTend":1.1,"metarType":"METAR","rawOb":"METAR KLWS 170256Z 26007KT 10SM OVC095 09/M04 A3013 RMK AO2 SLP212 T00891044 51011","lat":46.3746,"lon":-117.0153,"elev":435,"name":"Lewiston/Nez Perce Cnty, ID, US","cover":"OVC","clouds":[{"cover":"OVC","base":9500}],"fltCat":"VFR"},{"icaoId":"KEGE","receiptTime":"2026-04-17T03:01:27.685Z","obsTime":1776394560,"reportTime":"2026-04-17T03:00:00.000Z","temp":13.9,"dewp":-11.7,"wdir":230,"wspd":13,"wgst":24,"visib":"10+","altim":1008.5,"slp":1003.9,"qcField":6,"presTend":0.2,"metarType":"METAR","rawOb":"METAR KEGE 170256Z AUTO 23013G24KT 10SM CLR 14/M12 A2978 RMK AO2 SLP039 T01391117 53002","lat":39.6448,"lon":-106.9176,"elev":1993,"name":"Eagle Cnty Rgnl, CO, US","cover":"CLR","clouds":[],"fltCat":"VFR"},{"icaoId":"KCGZ","receiptTime":"2026-04-17T03:01:23.244Z","obsTime":1776394560,"reportTime":"2026-04-17T03:00:00.000Z","temp":24.4,"dewp":-8.9,"wdir":260,"wspd":6,"visib":"10+","altim":1008.5,"slp":1007.5,"qcField":14,"presTend":0.3,"metarType":"METAR","rawOb":"METAR KCGZ 170256Z AUTO 26006KT 10SM CLR 24/M09 A2978 RMK AO2 SLP075 6//// T02441089 53003 $","lat":32.9531,"lon":-111.7725,"elev":444,"name":"Casa Granda Muni, AZ, US","cover":"CLR","clouds":[],"fltCat":"VFR"},{"icaoId":"KVIS","receiptTime":"2026-04-17T03:01:27.530Z","obsTime":1776394560,"reportTime":"2026-04-17T03:00:00.000Z","temp":18.3,"dewp":6.1,"wdir":310,"wspd":13,"visib":"10+","altim":1013.6,"slp":1013.7,"qcField":14,"metarType":"METAR","rawOb":"METAR KVIS 170256Z AUTO 31013KT 10SM CLR 18/06 A2993 RMK AO2 SLP137 6//// T01830061 55000 PNO $","lat":36.3135,"lon":-119.3884,"elev":92,"name":"Visalia Muni, CA, US","cover":"CLR","clouds":[],"fltCat":"VFR"},{"icaoId":"KSFO","receiptTime":"2026-04-17T03:01:43.932Z","obsTime":1776394560,"reportTime":"2026-04-17T03:00:00.000Z","temp":15,"dewp":6.7,"wdir":290,"wspd":16,"visib":"10+","altim":1016.7,"slp":1016.5,"qcField":12,"presTend":-0.2,"metarType":"METAR","rawOb":"METAR KSFO 170256Z 29016KT 10SM FEW200 15/07 A3002 RMK AO2 SLP165 T01500067 55002 $","lat":37.6196,"lon":-122.3656,"elev":2,"name":"San Francisco Intl, CA, US","cover":"FEW","clouds":[{"cover":"FEW","base":20000}],"fltCat":"VFR"},{"icaoId":"KDUG","receiptTime":"2026-04-17T03:02:14.379Z","obsTime":1776394560,"reportTime":"2026-04-17T03:00:00.000Z","temp":20.6,"dewp":-8.3,"wdir":230,"wspd":11,"visib":"10+","altim":1013.6,"slp":1008.8,"qcField":38,"presTend":0.6,"metarType":"METAR","rawOb":"METAR KDUG 170256Z AUTO 23011KT 10SM CLR 21/M08 A2993 RMK AO2 SLP088 T02061083 53006 TSNO","lat":31.4725,"lon":-109.6022,"elev":1260,"name":"Douglas/Bisbee Intl, AZ, US","cover":"CLR","clouds":[],"fltCat":"VFR"},{"icaoId":"KGUC","receiptTime":"2026-04-17T03:01:27.663Z","obsTime":1776394560,"reportTime":"2026-04-17T03:00:00.000Z","temp":9.4,"dewp":-10.6,"wdir":240,"wspd":6,"visib":"10+","altim":1011.3,"slp":1008.2,"qcField":14,"metarType":"METAR","rawOb":"METAR KGUC 170256Z AUTO 24006KT 10SM CLR 09/M11 A2986 RMK AO2 SLP082 T00941106 55000 $","lat":38.5322,"lon":-106.9419,"elev":2337,"name":"Gunnison Arpt, CO, US","cover":"CLR","clouds":[],"fltCat":"VFR"},{"icaoId":"KCOE","receiptTime":"2026-04-17T03:01:27.556Z","obsTime":1776394560,"reportTime":"2026-04-17T03:00:00.000Z","temp":6.1,"dewp":-3.9,"wdir":180,"wspd":4,"visib":"10+","altim":1018.7,"slp":1021.9,"qcField":14,"presTend":1,"metarType":"METAR","rawOb":"METAR KCOE 170256Z AUTO 18004KT 10SM OVC090 06/M04 A3008 RMK AO2 SLP219 6//// T00611039 53010 PNO $","lat":47.7719,"lon":-116.8332,"elev":693,"name":"Coeur DAlene Arpt, ID, US","cover":"OVC","clouds":[{"cover":"OVC","base":9000}],"fltCat":"VFR"},{"icaoId":"KHDN","receiptTime":"2026-04-17T03:01:27.675Z","obsTime":1776394560,"reportTime":"2026-04-17T03:00:00.000Z","temp":5.6,"dewp":-3.9,"wdir":240,"wspd":11,"wgst":18,"visib":"10+","altim":1010.6,"slp":1006.4,"qcField":6,"presTend":3.7,"metarType":"METAR","rawOb":"METAR KHDN 170256Z AUTO 24011G18KT 10SM OVC095 06/M04 A2984 RMK AO2 PK WND 31029/0224 WSHFT 0143 PRESRR SLP064 T00561039 53037","lat":40.4842,"lon":-107.2296,"elev":2012,"name":"Hayden/Yampa Valley Arpt, CO, US","cover":"OVC","clouds":[{"cover":"OVC","base":9500}],"fltCat":"VFR"},{"icaoId":"KSBP","receiptTime":"2026-04-17T03:01:45.637Z","obsTime":1776394560,"reportTime":"2026-04-17T03:00:00.000Z","temp":14.4,"dewp":8.9,"wdir":320,"wspd":9,"visib":"10+","altim":1012.6,"slp":1012.4,"qcField":4,"presTend":0.1,"metarType":"METAR","rawOb":"METAR KSBP 170256Z 32009KT 10SM CLR 14/09 A2990 RMK AO2 SLP124 T01440089 53001","lat":35.2381,"lon":-120.644,"elev":52,"name":"San Luis Obispo/San Luis Cnty, CA, US","cover":"CLR","clouds":[],"fltCat":"VFR"},{"icaoId":"KCOD","receiptTime":"2026-04-17T03:01:28.586Z","obsTime":1776394560,"reportTime":"2026-04-17T03:00:00.000Z","temp":-0.6,"dewp":-7.2,"wdir":350,"wspd":8,"visib":"10+","altim":1013,"slp":1014.7,"qcField":78,"presTend":2.8,"metarType":"METAR","rawOb":"METAR KCOD 170256Z AUTO 35008KT 10SM SCT048 OVC065 M01/M07 A2991 RMK AO2 SLP147 T10061072 53028 FZRANO $","lat":44.52,"lon":-109.0268,"elev":1550,"name":"Cody/Yellowstone Rgnl, WY, US","cover":"OVC","clouds":[{"cover":"SCT","base":4800},{"cover":"OVC","base":6500}],"fltCat":"VFR"},{"icaoId":"KSDF","receiptTime":"2026-04-17T03:01:45.338Z","obsTime":1776394560,"reportTime":"2026-04-17T03:00:00.000Z","temp":22.8,"dewp":10.6,"wdir":230,"wspd":11,"wgst":21,"visib":"10+","altim":1015,"slp":1014.2,"qcField":4,"presTend":1.4,"metarType":"METAR","rawOb":"METAR KSDF 170256Z 23011G21KT 10SM FEW070 OVC200 23/11 A2997 RMK AO2 SLP142 T02280106 53014","lat":38.1774,"lon":-85.7308,"elev":146,"name":"Louisville Intl, KY, US","cover":"OVC","clouds":[{"cover":"FEW","base":7000},{"cover":"OVC","base":20000}],"fltCat":"VFR"},{"icaoId":"KLAS","receiptTime":"2026-04-17T03:01:45.550Z","obsTime":1776394560,"reportTime":"2026-04-17T03:00:00.000Z","temp":23.9,"dewp":-2.8,"wdir":220,"wspd":13,"visib":"10+","altim":1006.5,"slp":1004.6,"qcField":12,"presTend":0.4,"metarType":"METAR","rawOb":"METAR KLAS 170256Z 22013KT 10SM FEW170 SCT250 24/M03 A2972 RMK AO2 SLP046 T02391028 53004 $","lat":36.0719,"lon":-115.1634,"elev":662,"name":"Las Vegas/Reid Intl, NV, US","cover":"SCT","clouds":[{"cover":"FEW","base":17000},{"cover":"SCT","base":25000}],"fltCat":"VFR"},{"icaoId":"KINW","receiptTime":"2026-04-17T03:01:45.535Z","obsTime":1776394560,"reportTime":"2026-04-17T03:00:00.000Z","temp":16.1,"dewp":-11.1,"wdir":210,"wspd":9,"visib":"10+","altim":1012.3,"slp":1008.2,"qcField":6,"presTend":-0.1,"metarType":"METAR","rawOb":"METAR KINW 170256Z AUTO 21009KT 10SM CLR 16/M11 A2989 RMK AO2 SLP082 T01611111 58001","lat":35.0279,"lon":-110.7221,"elev":1492,"name":"Winslow/Lindberg Rgnl, AZ, US","cover":"CLR","clouds":[],"fltCat":"VFR"},{"icaoId":"KSDY","receiptTime":"2026-04-17T03:01:27.489Z","obsTime":1776394560,"reportTime":"2026-04-17T03:00:00.000Z","temp":-0.6,"dewp":-6.1,"wdir":340,"wspd":15,"visib":"10+","altim":1013.6,"slp":1016,"qcField":78,"presTend":2.7,"metarType":"METAR","rawOb":"METAR KSDY 170256Z AUTO 34015KT 10SM FEW029 M01/M06 A2993 RMK AO2 SLP160 T10061061 53027 FZRANO $","lat":47.7029,"lon":-104.1951,"elev":600,"name":"Sidney/Richland Muni, MT, US","cover":"FEW","clouds":[{"cover":"FEW","base":2900}],"fltCat":"VFR"},{"icaoId":"KHND","receiptTime":"2026-04-17T03:01:27.431Z","obsTime":1776394560,"reportTime":"2026-04-17T03:00:00.000Z","temp":22.8,"dewp":-2.8,"wdir":210,"wspd":9,"visib":"10+","altim":1007.9,"slp":1007.3,"qcField":12,"presTend":0.2,"metarType":"METAR","rawOb":"METAR KHND 170256Z 21009KT 10SM CLR 23/M03 A2976 RMK AO2 SLP073 T02281028 53002 $","lat":35.9657,"lon":-115.1343,"elev":740,"name":"Henderson Exec, NV, US","cover":"CLR","clouds":[],"fltCat":"VFR"},{"icaoId":"KMEV","receiptTime":"2026-04-17T03:01:45.594Z","obsTime":1776394500,"reportTime":"2026-04-17T03:00:00.000Z","temp":6,"dewp":-15,"wdir":350,"wspd":19,"wgst":26,"visib":"10+","altim":1019.7,"qcField":6,"metarType":"METAR","rawOb":"METAR KMEV 170255Z AUTO 35019G26KT 10SM CLR 06/M15 A3011 RMK AO2","lat":38.9963,"lon":-119.75,"elev":1437,"name":"Minden-Tahoe Arpt, NV, US","cover":"CLR","clouds":[],"fltCat":"VFR"},{"icaoId":"KSEZ","receiptTime":"2026-04-17T03:01:27.620Z","obsTime":1776394500,"reportTime":"2026-04-17T03:00:00.000Z","temp":16,"dewp":-10,"wdir":150,"wspd":10,"wgst":19,"visib":"10+","altim":1012.6,"qcField":6,"metarType":"METAR","rawOb":"METAR KSEZ 170255Z AUTO 15010G19KT 110V180 10SM CLR 16/M10 A2990 RMK AO2","lat":34.8467,"lon":-111.7884,"elev":1455,"name":"Sedona Arpt, AZ, US","cover":"CLR","clouds":[],"fltCat":"VFR"},{"icaoId":"KAST","receiptTime":"2026-04-17T03:01:27.544Z","obsTime":1776394500,"reportTime":"2026-04-17T03:00:00.000Z","temp":8.9,"dewp":4.4,"wdir":290,"wspd":5,"visib":"10+","altim":1027.2,"slp":1026.9,"qcField":6,"presTend":-0.1,"metarType":"METAR","rawOb":"METAR KAST 170255Z AUTO 29005KT 10SM OVC043 09/04 A3033 RMK AO2 SLP269 T00890044 56001","lat":46.157,"lon":-123.8833,"elev":3,"name":"Astoria Rgnl, OR, US","cover":"OVC","clouds":[{"cover":"OVC","base":4300}],"fltCat":"VFR"},{"icaoId":"KHII","receiptTime":"2026-04-17T03:01:41.501Z","obsTime":1776394500,"reportTime":"2026-04-17T03:00:00.000Z","temp":26,"dewp":-3,"wdir":150,"wspd":8,"visib":"10+","altim":1005.8,"qcField":6,"metarType":"METAR","rawOb":"METAR KHII 170255Z AUTO 15008KT 10SM CLR 26/M03 A2970 RMK AO2","lat":34.5659,"lon":-114.3522,"elev":241,"name":"Lake Havasu City Arpt, AZ, US","cover":"CLR","clouds":[],"fltCat":"VFR"},{"icaoId":"KBJC","receiptTime":"2026-04-17T03:01:45.254Z","obsTime":1776394500,"reportTime":"2026-04-17T03:00:00.000Z","temp":17,"dewp":-11,"wdir":220,"wspd":7,"visib":"10+","altim":1004.5,"qcField":6,"metarType":"METAR","rawOb":"METAR KBJC 170255Z AUTO 22007KT 10SM CLR 17/M11 A2966 RMK AO2","lat":39.9008,"lon":-105.1042,"elev":1694,"name":"Rocky Mtn Metro, CO, US","cover":"CLR","clouds":[],"fltCat":"VFR"},{"icaoId":"KIFP","receiptTime":"2026-04-17T03:01:45.522Z","obsTime":1776394500,"reportTime":"2026-04-17T03:00:00.000Z","temp":27,"dewp":-6,"wdir":180,"wspd":14,"visib":"10+","altim":1004.8,"qcField":6,"metarType":"METAR","rawOb":"METAR KIFP 170255Z AUTO 18014KT 10SM CLR 27/M06 A2967 RMK AO2","lat":35.1487,"lon":-114.5611,"elev":210,"name":"Bullhead City Intl, AZ, US","cover":"CLR","clouds":[],"fltCat":"VFR"},{"icaoId":"KRTS","receiptTime":"2026-04-17T03:01:43.848Z","obsTime":1776394500,"reportTime":"2026-04-17T03:00:00.000Z","temp":2,"dewp":-16,"wdir":50,"wspd":4,"visib":"10+","altim":1021.8,"qcField":6,"metarType":"METAR","rawOb":"METAR KRTS 170255Z AUTO 05004KT 10SM CLR 02/M16 A3017 RMK AO2","lat":39.6658,"lon":-119.8731,"elev":1537,"name":"Reno/Stead Arpt, NV, US","cover":"CLR","clouds":[],"fltCat":"VFR"},{"icaoId":"KBVU","receiptTime":"2026-04-17T02:54:09.640Z","obsTime":1776394500,"reportTime":"2026-04-17T03:00:00.000Z","temp":23,"dewp":-5,"wdir":220,"wspd":12,"visib":"10+","altim":1006.2,"qcField":6,"metarType":"METAR","rawOb":"METAR KBVU 170255Z AUTO 22012KT 10SM CLR 23/M05 A2971 RMK AO2","lat":35.9489,"lon":-114.8633,"elev":654,"name":"Boulder City Muni, NV, US","cover":"CLR","clouds":[],"fltCat":"VFR"},{"icaoId":"KCXP","receiptTime":"2026-04-17T03:01:45.419Z","obsTime":1776394500,"reportTime":"2026-04-17T03:00:00.000Z","temp":6,"dewp":-15,"wdir":20,"wspd":10,"wgst":20,"visib":"10+","altim":1021.1,"qcField":6,"metarType":"METAR","rawOb":"METAR KCXP 170255Z AUTO 02010G20KT 10SM CLR 06/M15 A3015 RMK AO2","lat":39.1905,"lon":-119.7319,"elev":1431,"name":"Carson City Arpt, NV, US","cover":"CLR","clouds":[],"fltCat":"VFR"},{"icaoId":"KLRU","receiptTime":"2026-04-17T03:01:27.844Z","obsTime":1776394500,"reportTime":"2026-04-17T03:00:00.000Z","temp":19.6,"dewp":-15.7,"wdir":270,"wspd":8,"visib":"10+","altim":1013,"qcField":6,"metarType":"METAR","rawOb":"METAR KLRU 170255Z AUTO 27008KT 10SM CLR 20/M16 A2991 RMK AO2 T01961157","lat":32.2884,"lon":-106.9131,"elev":1355,"name":"Las Cruces Intl, NM, US","cover":"CLR","clouds":[],"fltCat":"VFR"},{"icaoId":"KHCR","receiptTime":"2026-04-17T03:01:15.399Z","obsTime":1776394500,"reportTime":"2026-04-17T03:00:00.000Z","temp":-3.5,"dewp":-7.9,"wdir":130,"wspd":7,"visib":"10+","altim":1016,"qcField":14,"presTend":2,"pcp3hr":0.04,"metarType":"METAR","rawOb":"METAR KHCR 170255Z AUTO 13007KT 10SM FEW075 SCT110 M03/M08 A3000 RMK AO2 60004 T10351079 51020 $","lat":40.4774,"lon":-111.4329,"elev":1708,"name":"Heber City Muni, UT, US","cover":"SCT","clouds":[{"cover":"FEW","base":7500},{"cover":"SCT","base":11000}],"fltCat":"VFR"},{"icaoId":"KHOB","receiptTime":"2026-04-17T03:01:27.903Z","obsTime":1776394500,"reportTime":"2026-04-17T03:00:00.000Z","temp":21,"dewp":2,"wdir":160,"wspd":14,"visib":"10+","altim":1011.3,"qcField":6,"metarType":"METAR","rawOb":"METAR KHOB 170255Z AUTO 16014KT 10SM CLR 21/02 A2986 RMK AO2","lat":32.6797,"lon":-103.2222,"elev":1112,"name":"Hobbs Arpt, NM, US","cover":"CLR","clouds":[],"fltCat":"VFR"},{"icaoId":"KHTH","receiptTime":"2026-04-17T03:01:42.529Z","obsTime":1776394500,"reportTime":"2026-04-17T03:00:00.000Z","temp":8,"dewp":-19,"wdir":350,"wspd":18,"wgst":26,"visib":"10+","altim":1019.4,"qcField":6,"metarType":"METAR","rawOb":"METAR KHTH 170255Z AUTO 35018G26KT 10SM CLR 08/M19 A3010 RMK A01","lat":38.5448,"lon":-118.6314,"elev":1281,"name":"Hawthorne Muni, NV, US","cover":"CLR","clouds":[],"fltCat":"VFR"},{"icaoId":"KMHR","receiptTime":"2026-04-17T03:01:45.625Z","obsTime":1776394500,"reportTime":"2026-04-17T03:00:00.000Z","temp":18,"dewp":-3,"wdir":340,"wspd":16,"visib":"10+","altim":1015.3,"qcField":6,"metarType":"METAR","rawOb":"METAR KMHR 170255Z AUTO 34016KT 310V010 10SM CLR 18/M03 A2998 RMK AO2","lat":38.56,"lon":-121.284,"elev":30,"name":"Sacramento/Mather Fld, CA, US","cover":"CLR","clouds":[],"fltCat":"VFR"},{"icaoId":"KGPI","receiptTime":"2026-04-17T03:01:18.968Z","obsTime":1776394500,"reportTime":"2026-04-17T03:00:00.000Z","temp":-0.6,"dewp":-1.7,"wdir":180,"wspd":6,"visib":"10+","altim":1017,"slp":1019.3,"qcField":4,"presTend":1.2,"pcp3hr":0.005,"metarType":"METAR","rawOb":"METAR KGPI 170255Z 18006KT 10SM SCT005 BKN065 OVC085 M01/M02 A3003 RMK AO2 SLP193 60000 T10061017 53012","lat":48.3041,"lon":-114.2643,"elev":903,"name":"Kalispell/Glacier Park Intl, MT, US","cover":"OVC","clouds":[{"cover":"SCT","base":500},{"cover":"BKN","base":6500},{"cover":"OVC","base":8500}],"fltCat":"VFR"},{"icaoId":"KRNO","receiptTime":"2026-04-17T03:01:27.591Z","obsTime":1776394500,"reportTime":"2026-04-17T03:00:00.000Z","temp":6.1,"dewp":-15,"wdir":10,"wspd":13,"wgst":24,"visib":"10+","altim":1021.1,"slp":1020.5,"qcField":4,"presTend":3.2,"metarType":"METAR","rawOb":"METAR KRNO 170255Z 01013G24KT 10SM CLR 06/M15 A3015 RMK AO2 PK WND 36027/0204 SLP205 T00611150 53032","lat":39.5077,"lon":-119.7683,"elev":1344,"name":"Reno/Tahoe Intl, NV, US","cover":"CLR","clouds":[],"fltCat":"VFR"},{"icaoId":"KHAF","receiptTime":"2026-04-17T03:01:25.696Z","obsTime":1776394500,"reportTime":"2026-04-17T03:00:00.000Z","temp":13,"dewp":8,"wdir":340,"wspd":16,"visib":8,"altim":1017,"qcField":6,"metarType":"METAR","rawOb":"METAR KHAF 170255Z AUTO 34016KT 8SM CLR 13/08 A3003 RMK AO2","lat":37.5136,"lon":-122.4996,"elev":11,"name":"Half Moon Bay Arpt, CA, US","cover":"CLR","clouds":[],"fltCat":"VFR"},{"icaoId":"KCMA","receiptTime":"2026-04-17T03:01:22.332Z","obsTime":1776394500,"reportTime":"2026-04-17T03:00:00.000Z","temp":15,"dewp":11.7,"wdir":210,"wspd":3,"visib":"10+","altim":1011.6,"slp":1012.2,"qcField":6,"presTend":-0.2,"metarType":"METAR","rawOb":"METAR KCMA 170255Z AUTO 21003KT 10SM CLR 15/12 A2987 RMK AO2 SLP122 T01500117 55002","lat":34.2114,"lon":-119.0876,"elev":20,"name":"Camarillo Arpt, CA, US","cover":"CLR","clouds":[],"fltCat":"VFR"},{"icaoId":"KCOS","receiptTime":"2026-04-17T03:01:16.765Z","obsTime":1776394440,"reportTime":"2026-04-17T03:00:00.000Z","temp":16.1,"dewp":-12.2,"wdir":210,"wspd":14,"visib":"10+","altim":1007.2,"slp":1001.1,"qcField":4,"presTend":0.9,"metarType":"METAR","rawOb":"METAR KCOS 170254Z 21014KT 10SM FEW120 SCT180 BKN220 16/M12 A2974 RMK AO2 SLP011 T01611122 53009","lat":38.8095,"lon":-104.6887,"elev":1886,"name":"Colorado Spring Arpt, CO, US","cover":"BKN","clouds":[{"cover":"FEW","base":12000},{"cover":"SCT","base":18000},{"cover":"BKN","base":22000}],"fltCat":"VFR"},{"icaoId":"KSYR","receiptTime":"2026-04-17T03:01:28.135Z","obsTime":1776394440,"reportTime":"2026-04-17T03:00:00.000Z","temp":16.1,"dewp":15,"wdir":270,"wspd":4,"visib":9,"altim":1009.6,"slp":1009,"qcField":12,"wxString":"-RA","presTend":-0.5,"precip":0.01,"pcp3hr":0.3,"metarType":"METAR","rawOb":"METAR KSYR 170254Z 27004KT 9SM -RA FEW024 SCT049 OVC095 16/15 A2981 RMK AO2 SLP090 P0001 60030 T01610150 56005 $","lat":43.1111,"lon":-76.1038,"elev":125,"name":"Syracuse/Hancock Intl, NY, US","cover":"OVC","clouds":[{"cover":"FEW","base":2400},{"cover":"SCT","base":4900},{"cover":"OVC","base":9500}],"fltCat":"VFR"},{"icaoId":"KGSO","receiptTime":"2026-04-17T03:01:28.812Z","obsTime":1776394440,"reportTime":"2026-04-17T03:00:00.000Z","temp":23.3,"dewp":10,"wdir":230,"wspd":8,"visib":"10+","altim":1014,"slp":1012.6,"qcField":4,"presTend":1.4,"metarType":"METAR","rawOb":"METAR KGSO 170254Z 23008KT 10SM FEW100 FEW250 23/10 A2994 RMK AO2 SLP126 T02330100 51014","lat":36.0969,"lon":-79.9432,"elev":275,"name":"Greensboro Intl, NC, US","cover":"FEW","clouds":[{"cover":"FEW","base":10000},{"cover":"FEW","base":25000}],"fltCat":"VFR"},{"icaoId":"KSJN","receiptTime":"2026-04-17T03:01:24.061Z","obsTime":1776394440,"reportTime":"2026-04-17T03:00:00.000Z","temp":13.9,"dewp":-12.8,"wdir":250,"wspd":10,"visib":"10+","altim":1013.3,"slp":1008,"qcField":6,"presTend":0.3,"metarType":"METAR","rawOb":"METAR KSJN 170254Z AUTO 25010KT 10SM CLR 14/M13 A2992 RMK AO2 SLP080 T01391128 53003","lat":34.5184,"lon":-109.3801,"elev":1747,"name":"St Johns Ind Arpt, AZ, US","cover":"CLR","clouds":[],"fltCat":"VFR"},{"icaoId":"KSLC","receiptTime":"2026-04-17T03:01:24.075Z","obsTime":1776394440,"reportTime":"2026-04-17T03:00:00.000Z","temp":2.8,"dewp":-5,"wdir":"VRB","wspd":3,"visib":9,"altim":1017.7,"slp":1017.2,"qcField":12,"wxString":"-SN","presTend":1.3,"precip":0.005,"pcp3hr":0.005,"metarType":"METAR","rawOb":"METAR KSLC 170254Z VRB03KT 9SM -SN FEW030 BKN049 BKN075 03/M05 A3005 RMK AO2 SNB46 SLP172 P0000 60000 T00281050 53013 $","lat":40.7707,"lon":-111.965,"elev":1286,"name":"Salt Lake City Intl, UT, US","cover":"BKN","clouds":[{"cover":"FEW","base":3000},{"cover":"BKN","base":4900},{"cover":"BKN","base":7500}],"fltCat":"VFR"},{"icaoId":"KGCN","receiptTime":"2026-04-17T03:01:25.618Z","obsTime":1776394440,"reportTime":"2026-04-17T03:00:00.000Z","temp":10.6,"dewp":-7.8,"wdir":240,"wspd":11,"wgst":20,"visib":"10+","altim":1013.3,"slp":1007.3,"qcField":6,"presTend":-0.7,"metarType":"METAR","rawOb":"METAR KGCN 170254Z AUTO 24011G20KT 10SM CLR 11/M08 A2992 RMK AO2 SLP073 T01061078 55007","lat":35.9458,"lon":-112.1554,"elev":1993,"name":"Grand Canyon Park Arpt, AZ, US","cover":"CLR","clouds":[],"fltCat":"VFR"},{"icaoId":"KBTV","receiptTime":"2026-04-17T03:01:28.736Z","obsTime":1776394440,"reportTime":"2026-04-17T03:00:00.000Z","temp":17.2,"dewp":14.4,"wdir":170,"wspd":3,"visib":"10+","altim":1007.5,"slp":1007.5,"qcField":12,"presTend":2.9,"precip":0.005,"pcp3hr":0.31,"metarType":"METAR","rawOb":"METAR KBTV 170254Z 17003KT 10SM FEW037 BKN055 OVC100 17/14 A2975 RMK AO2 RAE02 SLP075 P0000 60031 T01720144 51029 $","lat":44.4682,"lon":-73.1499,"elev":101,"name":"Burlington Intl, VT, US","cover":"OVC","clouds":[{"cover":"FEW","base":3700},{"cover":"BKN","base":5500},{"cover":"OVC","base":10000}],"fltCat":"VFR"},{"icaoId":"KOLM","receiptTime":"2026-04-17T03:01:21.614Z","obsTime":1776394440,"reportTime":"2026-04-17T03:00:00.000Z","temp":8.9,"dewp":0.6,"wdir":250,"wspd":8,"visib":"10+","altim":1025.1,"slp":1025.3,"qcField":4,"presTend":0.4,"metarType":"METAR","rawOb":"METAR KOLM 170254Z 25008KT 10SM CLR 09/01 A3027 RMK AO2 SLP253 T00890006 51004","lat":46.9737,"lon":-122.9049,"elev":58,"name":"Olympia Rgnl, WA, US","cover":"CLR","clouds":[],"fltCat":"VFR"},{"icaoId":"KROC","receiptTime":"2026-04-17T03:01:28.232Z","obsTime":1776394440,"reportTime":"2026-04-17T03:00:00.000Z","temp":16.1,"dewp":16.1,"wdir":260,"wspd":5,"visib":"10+","altim":1010.2,"slp":1010.2,"qcField":12,"presTend":0.8,"pcp3hr":0.005,"metarType":"METAR","rawOb":"METAR KROC 170254Z 26005KT 10SM OVC017 16/16 A2983 RMK AO2 SLP102 60000 T01610161 51008 $","lat":43.1172,"lon":-77.6754,"elev":166,"name":"Rochester Intl Arpt, NY, US","cover":"OVC","clouds":[{"cover":"OVC","base":1700}],"fltCat":"MVFR"},{"icaoId":"KMEM","receiptTime":"2026-04-17T03:01:27.857Z","obsTime":1776394440,"reportTime":"2026-04-17T03:00:00.000Z","temp":25,"dewp":14.4,"wdir":170,"wspd":7,"visib":"10+","altim":1016,"slp":1015.5,"qcField":12,"presTend":1.6,"metarType":"METAR","rawOb":"METAR KMEM 170254Z 17007KT 10SM BKN055 BKN080 25/14 A3000 RMK AO2 SLP155 T02500144 53016 $","lat":35.0564,"lon":-89.9864,"elev":78,"name":"Memphis Intl, TN, US","cover":"BKN","clouds":[{"cover":"BKN","base":5500},{"cover":"BKN","base":8000}],"fltCat":"VFR"},{"icaoId":"KPHL","receiptTime":"2026-04-17T03:01:28.053Z","obsTime":1776394440,"reportTime":"2026-04-17T03:00:00.000Z","temp":26.1,"dewp":13.9,"wdir":210,"wspd":8,"visib":"10+","altim":1007.2,"slp":1006.9,"qcField":12,"metarType":"METAR","rawOb":"METAR KPHL 170254Z 21008KT 10SM FEW220 SCT280 26/14 A2974 RMK AO2 SLP069 T02610139 58000 $","lat":39.8733,"lon":-75.2268,"elev":2,"name":"Philadelphia Intl, PA, US","cover":"SCT","clouds":[{"cover":"FEW","base":22000},{"cover":"SCT","base":28000}],"fltCat":"VFR"},{"icaoId":"KRKS","receiptTime":"2026-04-17T03:01:28.467Z","obsTime":1776394440,"reportTime":"2026-04-17T03:00:00.000Z","temp":-5,"dewp":-7.2,"wdir":250,"wspd":13,"visib":9,"altim":1014,"slp":1013.3,"qcField":6,"presTend":2,"precip":0.005,"pcp3hr":0.005,"metarType":"METAR","rawOb":"METAR KRKS 170254Z AUTO 25013KT 9SM FEW021 BKN037 OVC070 M05/M07 A2994 RMK AO2 PK WND 27027/0229 SNE52 SLP133 P0000 60000 T10501072 51020","lat":41.5947,"lon":-109.0529,"elev":2062,"name":"Rock Springs/SW Wyoming Rgnl, WY, US","cover":"OVC","clouds":[{"cover":"FEW","base":2100},{"cover":"BKN","base":3700},{"cover":"OVC","base":7000}],"fltCat":"VFR"},{"icaoId":"KBWI","receiptTime":"2026-04-17T03:01:28.752Z","obsTime":1776394440,"reportTime":"2026-04-17T03:00:00.000Z","temp":25.6,"dewp":12.2,"wdir":240,"wspd":6,"visib":"10+","altim":1008.2,"slp":1007.8,"qcField":4,"presTend":1.2,"metarType":"METAR","rawOb":"METAR KBWI 170254Z 24006KT 10SM FEW110 SCT250 26/12 A2977 RMK AO2 SLP078 T02560122 53012","lat":39.1733,"lon":-76.684,"elev":42,"name":"Baltimore-Washington Intl, MD, US","cover":"SCT","clouds":[{"cover":"FEW","base":11000},{"cover":"SCT","base":25000}],"fltCat":"VFR"},{"icaoId":"KEUG","receiptTime":"2026-04-17T03:01:24.784Z","obsTime":1776394440,"reportTime":"2026-04-17T03:00:00.000Z","temp":8.3,"dewp":3.9,"wdir":60,"wspd":3,"visib":"10+","altim":1026.5,"slp":1026.5,"qcField":4,"presTend":-0.3,"metarType":"METAR","rawOb":"METAR KEUG 170254Z 06003KT 10SM FEW060 08/04 A3031 RMK AO2 SLP265 T00830039 58003","lat":44.1331,"lon":-123.2156,"elev":109,"name":"Eugene/Mahlon Sweet Fld, OR, US","cover":"FEW","clouds":[{"cover":"FEW","base":6000}],"fltCat":"VFR"},{"icaoId":"KOLS","receiptTime":"2026-04-17T03:01:25.070Z","obsTime":1776394440,"reportTime":"2026-04-17T03:00:00.000Z","temp":19.4,"dewp":-11.1,"wdir":220,"wspd":6,"visib":"10+","altim":1013.3,"slp":1008.3,"qcField":6,"presTend":0.3,"metarType":"METAR","rawOb":"METAR KOLS 170254Z AUTO 22006KT 10SM CLR 19/M11 A2992 RMK AO2 SLP083 T01941111 53003","lat":31.4208,"lon":-110.8465,"elev":1194,"name":"Nogales Intl, AZ, US","cover":"CLR","clouds":[],"fltCat":"VFR"},{"icaoId":"KBOS","receiptTime":"2026-04-17T03:01:28.719Z","obsTime":1776394440,"reportTime":"2026-04-17T03:00:00.000Z","temp":7.2,"dewp":7.2,"wdir":0,"wspd":0,"visib":1,"altim":1006.5,"slp":1006.4,"qcField":4,"wxString":"BR","presTend":-1.7,"metarType":"METAR","rawOb":"METAR KBOS 170254Z 00000KT 1SM R04R/4500VP6000FT BR BKN002 07/07 A2972 RMK AO2 SFC VIS 2 SLP064 VIS E 1 T00720072 58017","lat":42.3606,"lon":-71.0097,"elev":4,"name":"Boston/Logan Intl, MA, US","cover":"BKN","clouds":[{"cover":"BKN","base":200}],"fltCat":"LIFR"},{"icaoId":"KBUF","receiptTime":"2026-04-17T03:01:28.178Z","obsTime":1776394440,"reportTime":"2026-04-17T03:00:00.000Z","temp":14.4,"dewp":13.9,"wdir":220,"wspd":5,"visib":4,"altim":1010.2,"slp":1009.8,"qcField":4,"wxString":"BR","presTend":0.6,"precip":0.005,"pcp3hr":0.005,"metarType":"METAR","rawOb":"METAR KBUF 170254Z 22005KT 4SM BR BKN003 OVC011 14/14 A2983 RMK AO2 RAB0155E04 SLP098 P0000 60000 T01440139 50006","lat":42.94,"lon":-78.7361,"elev":217,"name":"Buffalo-Niagara Intl, NY, US","cover":"OVC","clouds":[{"cover":"BKN","base":300},{"cover":"OVC","base":1100}],"fltCat":"LIFR"},{"icaoId":"KBFL","receiptTime":"2026-04-17T03:01:26.723Z","obsTime":1776394440,"reportTime":"2026-04-17T03:00:00.000Z","temp":18.3,"dewp":7.2,"wdir":310,"wspd":7,"visib":9,"altim":1013,"slp":1012.5,"qcField":4,"presTend":0.2,"metarType":"METAR","rawOb":"METAR KBFL 170254Z 31007KT 9SM CLR 18/07 A2991 RMK AO2 SLP125 T01830072 53002","lat":35.4342,"lon":-119.0552,"elev":146,"name":"Bakersfield/Meadows Arpt, CA, US","cover":"CLR","clouds":[],"fltCat":"VFR"},{"icaoId":"KIND","receiptTime":"2026-04-17T03:01:25.873Z","obsTime":1776394440,"reportTime":"2026-04-17T03:00:00.000Z","temp":18.9,"dewp":11.1,"wdir":230,"wspd":5,"visib":"10+","altim":1014,"slp":1013.4,"qcField":4,"presTend":1.6,"metarType":"METAR","rawOb":"METAR KIND 170254Z 23005KT 10SM BKN250 19/11 A2994 RMK AO2 SLP134 T01890111 52016","lat":39.7252,"lon":-86.2816,"elev":242,"name":"Indianapolis Intl, IN, US","cover":"BKN","clouds":[{"cover":"BKN","base":25000}],"fltCat":"VFR"},{"icaoId":"KFFZ","receiptTime":"2026-04-17T03:01:25.525Z","obsTime":1776394440,"reportTime":"2026-04-17T03:00:00.000Z","temp":26.1,"dewp":-5,"wdir":290,"wspd":3,"visib":"10+","altim":1007.5,"slp":1005.4,"qcField":4,"presTend":-0.4,"metarType":"METAR","rawOb":"METAR KFFZ 170254Z 29003KT 10SM CLR 26/M05 A2975 RMK AO2 SLP054 T02611050 55004","lat":33.4659,"lon":-111.7212,"elev":420,"name":"Mesa/Falcon Fld, AZ, US","cover":"CLR","clouds":[],"fltCat":"VFR"},{"icaoId":"KAPC","receiptTime":"2026-04-17T03:01:24.559Z","obsTime":1776394440,"reportTime":"2026-04-17T03:00:00.000Z","temp":17.2,"dewp":-8.3,"wdir":360,"wspd":13,"wgst":21,"visib":"10+","altim":1016.7,"slp":1015.5,"qcField":6,"presTend":0.1,"metarType":"METAR","rawOb":"METAR KAPC 170254Z AUTO 36013G21KT 10SM CLR 17/M08 A3002 RMK AO2 SLP155 T01721083 52001","lat":38.2075,"lon":-122.2804,"elev":5,"name":"Napa Cnty Arpt, CA, US","cover":"CLR","clouds":[],"fltCat":"VFR"},{"icaoId":"KRIC","receiptTime":"2026-04-17T03:01:28.096Z","obsTime":1776394440,"reportTime":"2026-04-17T03:00:00.000Z","temp":26.1,"dewp":10,"wdir":220,"wspd":9,"visib":"10+","altim":1010.6,"slp":1010.7,"qcField":4,"presTend":1.1,"metarType":"METAR","rawOb":"METAR KRIC 170254Z 22009KT 10SM CLR 26/10 A2984 RMK AO2 SLP107 T02610100 51011","lat":37.5115,"lon":-77.3234,"elev":51,"name":"Richmond Intl, VA, US","cover":"CLR","clouds":[],"fltCat":"VFR"},{"icaoId":"KDSM","receiptTime":"2026-04-17T03:01:16.805Z","obsTime":1776394440,"reportTime":"2026-04-17T03:00:00.000Z","temp":20.6,"dewp":8.9,"wdir":160,"wspd":7,"visib":"10+","altim":1008.9,"slp":1008.4,"qcField":4,"presTend":0.9,"metarType":"METAR","rawOb":"METAR KDSM 170254Z 16007KT 10SM FEW250 21/09 A2979 RMK AO2 SLP084 T02060089 53009","lat":41.5339,"lon":-93.6531,"elev":286,"name":"Des Moines Intl, IA, US","cover":"FEW","clouds":[{"cover":"FEW","base":25000}],"fltCat":"VFR"},{"icaoId":"KHLN","receiptTime":"2026-04-17T02:56:27.378Z","obsTime":1776394380,"reportTime":"2026-04-17T03:00:00.000Z","temp":2.2,"dewp":-8.9,"wdir":260,"wspd":12,"wgst":19,"visib":"10+","altim":1014.6,"slp":1018.2,"qcField":4,"presTend":2.5,"metarType":"METAR","rawOb":"METAR KHLN 170253Z 26012G19KT 10SM CLR 02/M09 A2996 RMK AO2 SLP182 T00221089 51025","lat":46.6045,"lon":-111.9892,"elev":1178,"name":"Helena Rgnl, MT, US","cover":"CLR","clouds":[],"fltCat":"VFR"},{"icaoId":"KGSP","receiptTime":"2026-04-17T02:56:25.303Z","obsTime":1776394380,"reportTime":"2026-04-17T03:00:00.000Z","temp":22.2,"dewp":8.9,"wdir":230,"wspd":7,"visib":"10+","altim":1015.7,"slp":1014.4,"qcField":4,"presTend":1.2,"metarType":"METAR","rawOb":"METAR KGSP 170253Z 23007KT 10SM CLR 22/09 A2999 RMK AO2 SLP144 T02220089 53012","lat":34.8842,"lon":-82.2209,"elev":285,"name":"Greenville-Spartanburg Intl, SC, US","cover":"CLR","clouds":[],"fltCat":"VFR"},{"icaoId":"KSAF","receiptTime":"2026-04-17T02:56:26.907Z","obsTime":1776394380,"reportTime":"2026-04-17T03:00:00.000Z","temp":11.7,"dewp":-17.8,"wdir":130,"wspd":6,"visib":"10+","altim":1013,"slp":1006.6,"qcField":4,"presTend":0.3,"metarType":"METAR","rawOb":"METAR KSAF 170253Z 13006KT 10SM CLR 12/M18 A2991 RMK AO2 SLP066 T01171178 53003","lat":35.611,"lon":-106.0957,"elev":1918,"name":"Santa Fe Cnty Muni, NM, US","cover":"CLR","clouds":[],"fltCat":"VFR"},{"icaoId":"KLAX","receiptTime":"2026-04-17T02:56:27.906Z","obsTime":1776394380,"reportTime":"2026-04-17T03:00:00.000Z","temp":16.7,"dewp":13.9,"wdir":240,"wspd":8,"visib":"10+","altim":1011.6,"slp":1011.5,"qcField":4,"presTend":-0.2,"metarType":"METAR","rawOb":"METAR KLAX 170253Z 24008KT 10SM FEW015 FEW250 17/14 A2987 RMK AO2 SLP115 T01670139 55002","lat":33.9382,"lon":-118.3866,"elev":30,"name":"Los Angeles Intl, CA, US","cover":"FEW","clouds":[{"cover":"FEW","base":1500},{"cover":"FEW","base":25000}],"fltCat":"VFR"},{"icaoId":"KDTW","receiptTime":"2026-04-17T02:56:25.141Z","obsTime":1776394380,"reportTime":"2026-04-17T03:00:00.000Z","temp":13.9,"dewp":12.8,"wdir":290,"wspd":5,"visib":"10+","altim":1012.6,"slp":1012.5,"qcField":12,"presTend":2,"pcp3hr":0.01,"metarType":"METAR","rawOb":"METAR KDTW 170253Z 29005KT 10SM FEW090 14/13 A2990 RMK AO2 SLP125 60001 T01390128 51020 $","lat":42.2311,"lon":-83.3312,"elev":192,"name":"Detroit/Metro Wayne Cnty, MI, US","cover":"FEW","clouds":[{"cover":"FEW","base":9000}],"fltCat":"VFR"},{"icaoId":"KBHM","receiptTime":"2026-04-17T02:56:23.542Z","obsTime":1776394380,"reportTime":"2026-04-17T03:00:00.000Z","temp":23.9,"dewp":15.6,"wdir":250,"wspd":5,"visib":"10+","altim":1018.4,"slp":1017.6,"qcField":4,"presTend":1.5,"metarType":"METAR","rawOb":"METAR KBHM 170253Z 25005KT 10SM CLR 24/16 A3007 RMK AO2 SLP176 T02390156 53015","lat":33.5655,"lon":-86.7449,"elev":191,"name":"Birmingham Intl, AL, US","cover":"CLR","clouds":[],"fltCat":"VFR"},{"icaoId":"KBNA","receiptTime":"2026-04-17T02:56:23.554Z","obsTime":1776394380,"reportTime":"2026-04-17T03:00:00.000Z","temp":16.1,"dewp":12.2,"wdir":"VRB","wspd":5,"visib":"10+","altim":1019,"slp":1018.5,"qcField":4,"presTend":3.4,"precip":0.02,"pcp3hr":0.63,"metarType":"METAR","rawOb":"METAR KBNA 170253Z VRB05KT 10SM SCT055 SCT080 OVC110 16/12 A3009 RMK AO2 RAE01 SLP185 P0002 60063 T01610122 51034","lat":36.1105,"lon":-86.6881,"elev":168,"name":"Nashville Intl, TN, US","cover":"OVC","clouds":[{"cover":"SCT","base":5500},{"cover":"SCT","base":8000},{"cover":"OVC","base":11000}],"fltCat":"VFR"},{"icaoId":"KDMN","receiptTime":"2026-04-17T02:56:23.693Z","obsTime":1776394380,"reportTime":"2026-04-17T03:00:00.000Z","temp":21.7,"dewp":-12.2,"wdir":260,"wspd":10,"visib":"10+","altim":1012.6,"slp":1007.1,"qcField":6,"presTend":0.3,"metarType":"METAR","rawOb":"METAR KDMN 170253Z AUTO 26010KT 10SM CLR 22/M12 A2990 RMK AO2 SLP071 T02171122 53003","lat":32.2592,"lon":-107.7206,"elev":1310,"name":"Deming Muni, NM, US","cover":"CLR","clouds":[],"fltCat":"VFR"},{"icaoId":"KAPA","receiptTime":"2026-04-17T02:56:24.254Z","obsTime":1776394380,"reportTime":"2026-04-17T03:00:00.000Z","temp":16.1,"dewp":-10.6,"wdir":210,"wspd":8,"visib":"10+","altim":1004.8,"slp":999.4,"qcField":4,"presTend":1.3,"metarType":"METAR","rawOb":"METAR KAPA 170253Z 21008KT 10SM FEW100 SCT140 BKN220 16/M11 A2967 RMK AO2 SLP994 T01611106 53013","lat":39.5599,"lon":-104.8484,"elev":1791,"name":"Denver/Centennial Arpt, CO, US","cover":"BKN","clouds":[{"cover":"FEW","base":10000},{"cover":"SCT","base":14000},{"cover":"BKN","base":22000}],"fltCat":"VFR"},{"icaoId":"KMSP","receiptTime":"2026-04-17T02:56:24.395Z","obsTime":1776394380,"reportTime":"2026-04-17T03:00:00.000Z","temp":20.6,"dewp":7.8,"wdir":150,"wspd":11,"visib":"10+","altim":1006.2,"slp":1005.6,"qcField":4,"presTend":-0.1,"metarType":"METAR","rawOb":"METAR KMSP 170253Z 15011KT 10SM CLR 21/08 A2971 RMK AO2 SLP056 T02060078 55001","lat":44.8852,"lon":-93.2313,"elev":255,"name":"Minneapolis-St Paul Intl, MN, US","cover":"CLR","clouds":[],"fltCat":"VFR"},{"icaoId":"KMTJ","receiptTime":"2026-04-17T02:56:24.405Z","obsTime":1776394380,"reportTime":"2026-04-17T03:00:00.000Z","temp":16.7,"dewp":-13.9,"wdir":240,"wspd":15,"wgst":26,"visib":"10+","altim":1008.9,"slp":1003.2,"qcField":6,"presTend":0.1,"metarType":"METAR","rawOb":"METAR KMTJ 170253Z AUTO 24015G26KT 10SM CLR 17/M14 A2979 RMK AO2 PK WND 19028/0216 SLP032 T01671139 51001","lat":38.5054,"lon":-107.8981,"elev":1755,"name":"Montrose Rgnl, CO, US","cover":"CLR","clouds":[],"fltCat":"VFR"},{"icaoId":"KVEL","receiptTime":"2026-04-17T02:56:24.431Z","obsTime":1776394380,"reportTime":"2026-04-17T03:00:00.000Z","temp":3.3,"dewp":-8.3,"wdir":60,"wspd":20,"wgst":29,"visib":"10+","altim":1009.9,"slp":1008,"qcField":6,"presTend":4.3,"pcp3hr":0.005,"metarType":"METAR","rawOb":"METAR KVEL 170253Z AUTO 06020G29KT 10SM OVC090 03/M08 A2982 RMK AO2 PK WND 06029/0250 WSHFT 0140 SLP080 60000 T00331083 53043","lat":40.4429,"lon":-109.5128,"elev":1604,"name":"Vernal Rgnl, UT, US","cover":"OVC","clouds":[{"cover":"OVC","base":9000}],"fltCat":"VFR"},{"icaoId":"KLAR","receiptTime":"2026-04-17T02:56:24.694Z","obsTime":1776394380,"reportTime":"2026-04-17T03:00:00.000Z","temp":4.4,"dewp":-1.1,"wdir":350,"wspd":15,"wgst":24,"visib":"10+","altim":1007.9,"slp":1001.9,"qcField":6,"presTend":2.3,"metarType":"METAR","rawOb":"METAR KLAR 170253Z AUTO 35015G24KT 10SM CLR 04/M01 A2976 RMK AO2 PK WND 24031/0210 WSHFT 0217 SLP019 T00441011 53023","lat":41.3165,"lon":-105.6729,"elev":2217,"name":"Laramie Rgnl, WY, US","cover":"CLR","clouds":[],"fltCat":"VFR"},{"icaoId":"KMLS","receiptTime":"2026-04-17T02:56:24.941Z","obsTime":1776394380,"reportTime":"2026-04-17T03:00:00.000Z","temp":1.7,"dewp":-3.9,"wdir":10,"wspd":8,"visib":"10+","altim":1013,"slp":1014.2,"qcField":6,"presTend":1.8,"metarType":"METAR","rawOb":"METAR KMLS 170253Z AUTO 01008KT 10SM CLR 02/M04 A2991 RMK AO2 SLP142 T00171039 51018","lat":46.4265,"lon":-105.8834,"elev":800,"name":"Miles City/Wiley Fld, MT, US","cover":"CLR","clouds":[],"fltCat":"VFR"},{"icaoId":"KMOD","receiptTime":"2026-04-17T02:56:24.952Z","obsTime":1776394380,"reportTime":"2026-04-17T03:00:00.000Z","temp":17.2,"dewp":-2.8,"wdir":320,"wspd":11,"visib":"10+","altim":1015,"slp":1015,"qcField":4,"presTend":0.3,"metarType":"METAR","rawOb":"METAR KMOD 170253Z 32011KT 10SM CLR 17/M03 A2997 RMK AO2 SLP150 T01721028 53003","lat":37.6254,"lon":-120.9549,"elev":25,"name":"Modesto/Sham Fld, CA, US","cover":"CLR","clouds":[],"fltCat":"VFR"},{"icaoId":"KGJT","receiptTime":"2026-04-17T02:56:25.523Z","obsTime":1776394380,"reportTime":"2026-04-17T03:00:00.000Z","temp":17.2,"dewp":-11.1,"wdir":110,"wspd":11,"visib":"10+","altim":1005.5,"slp":1000.6,"qcField":4,"presTend":0.1,"metarType":"METAR","rawOb":"METAR KGJT 170253Z 11011KT 10SM CLR 17/M11 A2969 RMK AO2 SLP006 T01721111 53001","lat":39.1344,"lon":-108.5408,"elev":1475,"name":"Grand Junction Rgnl, CO, US","cover":"CLR","clouds":[],"fltCat":"VFR"},{"icaoId":"KACV","receiptTime":"2026-04-17T02:56:25.809Z","obsTime":1776394380,"reportTime":"2026-04-17T03:00:00.000Z","temp":10,"dewp":5,"wdir":360,"wspd":10,"visib":"10+","altim":1023.1,"slp":1023.7,"qcField":6,"presTend":-0.7,"metarType":"METAR","rawOb":"METAR KACV 170253Z AUTO 36010KT 10SM CLR 10/05 A3021 RMK AO2 SLP237 T01000050 58007","lat":40.9784,"lon":-124.1048,"elev":63,"name":"Arcata Arpt, CA, US","cover":"CLR","clouds":[],"fltCat":"VFR"},{"icaoId":"KBFI","receiptTime":"2026-04-17T02:56:25.911Z","obsTime":1776394380,"reportTime":"2026-04-17T03:00:00.000Z","temp":11.7,"dewp":0,"wdir":230,"wspd":8,"wgst":15,"visib":"10+","altim":1024.1,"slp":1023.9,"qcField":12,"presTend":-0.7,"metarType":"METAR","rawOb":"METAR KBFI 170253Z 23008G15KT 10SM OVC080 12/00 A3024 RMK AO2 SLP239 T01170000 56007 $","lat":47.5455,"lon":-122.3148,"elev":7,"name":"Seattle/Boeing Fld, WA, US","cover":"OVC","clouds":[{"cover":"OVC","base":8000}],"fltCat":"VFR"},{"icaoId":"KBIL","receiptTime":"2026-04-17T02:56:25.925Z","obsTime":1776394380,"reportTime":"2026-04-17T03:00:00.000Z","temp":1.1,"dewp":-1.1,"wdir":200,"wspd":7,"visib":6,"altim":1013.3,"slp":1015.2,"qcField":12,"wxString":"-SN BR","presTend":2,"precip":0.005,"pcp3hr":0.005,"metarType":"METAR","rawOb":"METAR KBIL 170253Z 20007KT 6SM -SN BR BKN029 OVC035 01/M01 A2992 RMK AO2 SNB13E35B47 SLP152 P0000 60000 T00111011 53020 $","lat":45.8072,"lon":-108.5462,"elev":1089,"name":"Billings/Logan Intl, MT, US","cover":"OVC","clouds":[{"cover":"BKN","base":2900},{"cover":"OVC","base":3500}],"fltCat":"MVFR"},{"icaoId":"KSHR","receiptTime":"2026-04-17T02:56:26.060Z","obsTime":1776394380,"reportTime":"2026-04-17T03:00:00.000Z","temp":-1.7,"dewp":-1.7,"wdir":270,"wspd":4,"visib":4,"altim":1013,"slp":1015.5,"qcField":6,"wxString":"-SN BR","presTend":0.6,"precip":0.01,"pcp3hr":0.13,"metarType":"METAR","rawOb":"METAR KSHR 170253Z AUTO 27004KT 4SM -SN BR FEW018 BKN035 OVC044 M02/M02 A2991 RMK AO2 SLP155 P0001 60013 T10171017 53006","lat":44.7603,"lon":-106.9741,"elev":1212,"name":"Sheridan Cnty Arpt, WY, US","cover":"OVC","clouds":[{"cover":"FEW","base":1800},{"cover":"BKN","base":3500},{"cover":"OVC","base":4400}],"fltCat":"MVFR"},{"icaoId":"KSMF","receiptTime":"2026-04-17T02:56:26.087Z","obsTime":1776394380,"reportTime":"2026-04-17T03:00:00.000Z","temp":16.1,"dewp":-3.3,"wdir":330,"wspd":15,"visib":"10+","altim":1016,"slp":1015.6,"qcField":4,"presTend":-0.3,"metarType":"METAR","rawOb":"METAR KSMF 170253Z 33015KT 10SM CLR 16/M03 A3000 RMK AO2 PK WND 34027/0210 SLP156 T01611033 58003","lat":38.7007,"lon":-121.5948,"elev":7,"name":"Sacramento Intl, CA, US","cover":"CLR","clouds":[],"fltCat":"VFR"},{"icaoId":"KSNA","receiptTime":"2026-04-17T02:56:26.100Z","obsTime":1776394380,"reportTime":"2026-04-17T03:00:00.000Z","temp":17.2,"dewp":13.3,"wdir":180,"wspd":8,"visib":"10+","altim":1011.9,"slp":1011.6,"qcField":4,"presTend":0.1,"metarType":"METAR","rawOb":"METAR KSNA 170253Z 18008KT 10SM FEW020 SCT200 17/13 A2988 RMK AO2 SLP116 T01720133 53001","lat":33.6798,"lon":-117.8675,"elev":14,"name":"Santa Ana/Wayne Arpt, CA, US","cover":"SCT","clouds":[{"cover":"FEW","base":2000},{"cover":"SCT","base":20000}],"fltCat":"VFR"},{"icaoId":"KSTS","receiptTime":"2026-04-17T02:56:27.190Z","obsTime":1776394380,"reportTime":"2026-04-17T03:00:00.000Z","temp":16.1,"dewp":-6.1,"wdir":290,"wspd":5,"visib":"10+","altim":1017.4,"slp":1016.5,"qcField":4,"presTend":0.4,"metarType":"METAR","rawOb":"METAR KSTS 170253Z 29005KT 10SM CLR 16/M06 A3004 RMK AO2 SLP165 T01611061 53004","lat":38.5037,"lon":-122.811,"elev":35,"name":"Santa Rosa/Schulz Arpt, CA, US","cover":"CLR","clouds":[],"fltCat":"VFR"},{"icaoId":"KFAT","receiptTime":"2026-04-17T02:56:26.419Z","obsTime":1776394380,"reportTime":"2026-04-17T03:00:00.000Z","temp":18.9,"dewp":0.6,"wdir":310,"wspd":14,"wgst":23,"visib":"10+","altim":1013.6,"slp":1013.5,"qcField":12,"metarType":"METAR","rawOb":"METAR KFAT 170253Z 31014G23KT 10SM FEW040 FEW110 19/01 A2993 RMK AO2 SLP135 T01890006 55000 $","lat":36.78,"lon":-119.7202,"elev":102,"name":"Fresno/Yosemite Intl, CA, US","cover":"FEW","clouds":[{"cover":"FEW","base":4000},{"cover":"FEW","base":11000}],"fltCat":"VFR"},{"icaoId":"KRDD","receiptTime":"2026-04-17T02:56:26.719Z","obsTime":1776394380,"reportTime":"2026-04-17T03:00:00.000Z","temp":16.1,"dewp":-7.2,"wdir":350,"wspd":8,"visib":"10+","altim":1020.1,"slp":1019.6,"qcField":4,"presTend":0.7,"metarType":"METAR","rawOb":"METAR KRDD 170253Z 35008KT 10SM CLR 16/M07 A3012 RMK AO2 SLP196 T01611072 53007","lat":40.5146,"lon":-122.2977,"elev":152,"name":"Redding Muni, CA, US","cover":"CLR","clouds":[],"fltCat":"VFR"},{"icaoId":"KRTN","receiptTime":"2026-04-17T02:56:26.815Z","obsTime":1776394380,"reportTime":"2026-04-17T03:00:00.000Z","temp":10.6,"dewp":-12.2,"wdir":270,"wspd":7,"visib":"10+","altim":1010.6,"slp":1005.5,"qcField":6,"presTend":0.6,"metarType":"METAR","rawOb":"METAR KRTN 170253Z AUTO 27007KT 10SM CLR 11/M12 A2984 RMK AO2 SLP055 T01061122 53006","lat":36.7418,"lon":-104.5076,"elev":1939,"name":"Raton/Crews Fld, NM, US","cover":"CLR","clouds":[],"fltCat":"VFR"},{"icaoId":"KTUL","receiptTime":"2026-04-17T02:56:27.086Z","obsTime":1776394380,"reportTime":"2026-04-17T03:00:00.000Z","temp":24.4,"dewp":20,"wdir":170,"wspd":16,"visib":"10+","altim":1010.6,"slp":1009.7,"qcField":4,"presTend":0.7,"metarType":"METAR","rawOb":"METAR KTUL 170253Z 17016KT 10SM BKN250 24/20 A2984 RMK AO2 SLP097 T02440200 53007","lat":36.1985,"lon":-95.8782,"elev":196,"name":"Tulsa Intl Arpt, OK, US","cover":"BKN","clouds":[{"cover":"BKN","base":25000}],"fltCat":"VFR"},{"icaoId":"KSWO","receiptTime":"2026-04-17T02:56:27.201Z","obsTime":1776394380,"reportTime":"2026-04-17T03:00:00.000Z","temp":24.4,"dewp":17.8,"wdir":170,"wspd":13,"visib":"10+","altim":1008.5,"slp":1007.4,"qcField":4,"presTend":0.2,"metarType":"METAR","rawOb":"METAR KSWO 170253Z 17013KT 10SM CLR 24/18 A2978 RMK AO2 SLP074 T02440178 53002","lat":36.1624,"lon":-97.0832,"elev":293,"name":"Stillwater Muni, OK, US","cover":"CLR","clouds":[],"fltCat":"VFR"},{"icaoId":"KHOU","receiptTime":"2026-04-17T02:56:27.402Z","obsTime":1776394380,"reportTime":"2026-04-17T03:00:00.000Z","temp":23.3,"dewp":20.6,"wdir":150,"wspd":6,"visib":"10+","altim":1015.7,"slp":1015.9,"qcField":12,"presTend":1,"metarType":"METAR","rawOb":"METAR KHOU 170253Z 15006KT 10SM FEW250 23/21 A2999 RMK AO2 SLP159 T02330206 53010 $","lat":29.6458,"lon":-95.2821,"elev":13,"name":"Houston/Hobby Arpt, TX, US","cover":"FEW","clouds":[{"cover":"FEW","base":25000}],"fltCat":"VFR"},{"icaoId":"KIAH","receiptTime":"2026-04-17T02:56:27.533Z","obsTime":1776394380,"reportTime":"2026-04-17T03:00:00.000Z","temp":23.9,"dewp":20,"wdir":160,"wspd":8,"visib":"10+","altim":1015.7,"slp":1015.4,"qcField":4,"presTend":1.2,"metarType":"METAR","rawOb":"METAR KIAH 170253Z 16008KT 10SM FEW250 24/20 A2999 RMK AO2 SLP154 T02390200 53012","lat":29.9844,"lon":-95.3607,"elev":27,"name":"Houston/Bush Intl, TX, US","cover":"FEW","clouds":[{"cover":"FEW","base":25000}],"fltCat":"VFR"},{"icaoId":"KIDA","receiptTime":"2026-04-17T02:56:27.569Z","obsTime":1776394380,"reportTime":"2026-04-17T03:00:00.000Z","temp":-1.7,"dewp":-3.3,"wdir":170,"wspd":6,"visib":"10+","altim":1017,"slp":1019.3,"qcField":6,"presTend":2.9,"pcp3hr":0.01,"metarType":"METAR","rawOb":"METAR KIDA 170253Z AUTO 17006KT 10SM BKN055 OVC075 M02/M03 A3003 RMK AO2 SLP193 60001 T10171033 51029","lat":43.5204,"lon":-112.0675,"elev":1444,"name":"Idaho Falls Rgnl, ID, US","cover":"OVC","clouds":[{"cover":"BKN","base":5500},{"cover":"OVC","base":7500}],"fltCat":"VFR"},{"icaoId":"KGEG","receiptTime":"2026-04-17T02:56:27.727Z","obsTime":1776394380,"reportTime":"2026-04-17T03:00:00.000Z","temp":7.2,"dewp":-6.7,"wdir":260,"wspd":4,"visib":"10+","altim":1018.7,"slp":1019.9,"qcField":4,"presTend":0.6,"metarType":"METAR","rawOb":"METAR KGEG 170253Z 26004KT 10SM SCT080 07/M07 A3008 RMK AO2 SLP199 T00721067 51006","lat":47.6217,"lon":-117.528,"elev":718,"name":"Spokane Intl, WA, US","cover":"SCT","clouds":[{"cover":"SCT","base":8000}],"fltCat":"VFR"},{"icaoId":"KPDX","receiptTime":"2026-04-17T02:56:27.751Z","obsTime":1776394380,"reportTime":"2026-04-17T03:00:00.000Z","temp":11.1,"dewp":2.8,"wdir":340,"wspd":5,"visib":"10+","altim":1025.8,"slp":1025.7,"qcField":4,"presTend":-0.2,"metarType":"METAR","rawOb":"METAR KPDX 170253Z 34005KT 10SM FEW045 BKN060 11/03 A3029 RMK AO2 SLP257 T01110028 55002","lat":45.5958,"lon":-122.6092,"elev":7,"name":"Portland Intl, OR, US","cover":"BKN","clouds":[{"cover":"FEW","base":4500},{"cover":"BKN","base":6000}],"fltCat":"VFR"},{"icaoId":"KRIW","receiptTime":"2026-04-17T02:56:28.102Z","obsTime":1776394380,"reportTime":"2026-04-17T03:00:00.000Z","temp":2.8,"dewp":-4.4,"wdir":10,"wspd":7,"visib":"10+","altim":1010.6,"slp":1008.2,"qcField":6,"presTend":3.9,"metarType":"METAR","rawOb":"METAR KRIW 170253Z AUTO 01007KT 10SM FEW100 SCT120 03/M04 A2984 RMK AO2 SLP082 T00281044 53039","lat":43.0622,"lon":-108.4471,"elev":1662,"name":"Riverton Rgnl, WY, US","cover":"SCT","clouds":[{"cover":"FEW","base":10000},{"cover":"SCT","base":12000}],"fltCat":"VFR"},{"icaoId":"KBTM","receiptTime":"2026-04-17T02:56:25.833Z","obsTime":1776394380,"reportTime":"2026-04-17T03:00:00.000Z","temp":-1.1,"dewp":-11.7,"wdir":300,"wspd":15,"visib":"10+","altim":1014.6,"slp":1017.9,"qcField":6,"presTend":2.3,"pcp3hr":0.005,"metarType":"METAR","rawOb":"METAR KBTM 170253Z AUTO 30015KT 10SM FEW060 M01/M12 A2996 RMK AO2 SLP179 60000 T10111117 53023","lat":45.9644,"lon":-112.5015,"elev":1680,"name":"Butte/Mooney Arpt, MT, US","cover":"FEW","clouds":[{"cover":"FEW","base":6000}],"fltCat":"VFR"},{"icaoId":"KCDC","receiptTime":"2026-04-17T02:56:25.871Z","obsTime":1776394380,"reportTime":"2026-04-17T03:00:00.000Z","temp":6.1,"dewp":-4.4,"wdir":300,"wspd":5,"visib":"10+","altim":1013.3,"slp":1010,"qcField":6,"presTend":3.4,"metarType":"METAR","rawOb":"METAR KCDC 170253Z AUTO 30005KT 10SM OVC100 06/M04 A2992 RMK AO2 SLP100 T00611044 53034","lat":37.7067,"lon":-113.097,"elev":1703,"name":"Cedar City Muni, UT, US","cover":"OVC","clouds":[{"cover":"OVC","base":10000}],"fltCat":"VFR"},{"icaoId":"KCNM","receiptTime":"2026-04-17T02:56:23.517Z","obsTime":1776394380,"reportTime":"2026-04-17T03:00:00.000Z","temp":25,"dewp":-6.7,"wdir":170,"wspd":10,"visib":"10+","altim":1010.2,"slp":1005.2,"qcField":6,"presTend":0.6,"metarType":"METAR","rawOb":"METAR KCNM 170253Z AUTO 17010KT 10SM CLR 25/M07 A2983 RMK AO2 SLP052 T02501067 53006","lat":32.3336,"lon":-104.2584,"elev":993,"name":"Carlsbad/Cavern City Air Term, NM, US","cover":"CLR","clouds":[],"fltCat":"VFR"},{"icaoId":"KBLI","receiptTime":"2026-04-17T02:56:16.011Z","obsTime":1776394380,"reportTime":"2026-04-17T03:00:00.000Z","temp":10,"dewp":0.6,"wdir":180,"wspd":7,"visib":"10+","altim":1024.1,"slp":1025,"qcField":4,"presTend":-0.3,"metarType":"METAR","rawOb":"METAR KBLI 170253Z 18007KT 10SM FEW065 OVC085 10/01 A3024 RMK AO2 SLP250 T01000006 58003","lat":48.7991,"lon":-122.5407,"elev":46,"name":"Bellingham Intl, WA, US","cover":"OVC","clouds":[{"cover":"FEW","base":6500},{"cover":"OVC","base":8500}],"fltCat":"VFR"},{"icaoId":"KBOI","receiptTime":"2026-04-17T02:56:25.768Z","obsTime":1776394380,"reportTime":"2026-04-17T03:00:00.000Z","temp":5,"dewp":-5,"wdir":340,"wspd":10,"visib":"10+","altim":1021.4,"slp":1022.5,"qcField":4,"presTend":1.7,"pcp3hr":0.005,"metarType":"METAR","rawOb":"METAR KBOI 170253Z 34010KT 10SM BKN055 BKN075 BKN085 05/M05 A3016 RMK AO2 SLP225 60000 T00501050 53017","lat":43.567,"lon":-116.2406,"elev":860,"name":"Boise Arpt, ID, US","cover":"BKN","clouds":[{"cover":"BKN","base":5500},{"cover":"BKN","base":7500},{"cover":"BKN","base":8500}],"fltCat":"VFR"},{"icaoId":"KCPR","receiptTime":"2026-04-17T02:56:25.060Z","obsTime":1776394380,"reportTime":"2026-04-17T03:00:00.000Z","temp":-1.1,"dewp":-2.2,"wdir":30,"wspd":8,"visib":1,"altim":1010.6,"slp":1009.3,"qcField":4,"wxString":"-SN BR","presTend":1.9,"precip":0.04,"pcp3hr":0.09,"metarType":"METAR","rawOb":"METAR KCPR 170253Z 03008KT 1SM R03/P6000FT -SN BR FEW007 OVC011 M01/M02 A2984 RMK AO2 SLP093 P0004 60009 T10111022 53019","lat":42.8978,"lon":-106.4736,"elev":1623,"name":"Casper/Natrona Cnty, WY, US","cover":"OVC","clouds":[{"cover":"FEW","base":700},{"cover":"OVC","base":1100}],"fltCat":"IFR"},{"icaoId":"KELY","receiptTime":"2026-04-17T02:56:26.537Z","obsTime":1776394380,"reportTime":"2026-04-17T03:00:00.000Z","temp":-1.1,"dewp":-13.9,"wdir":340,"wspd":15,"visib":"10+","altim":1018,"slp":1015.3,"qcField":6,"presTend":3.9,"metarType":"METAR","rawOb":"METAR KELY 170253Z AUTO 34015KT 10SM CLR M01/M14 A3006 RMK AO2 SLP153 T10111139 51039","lat":39.2954,"lon":-114.8466,"elev":1906,"name":"Ely/Yelland Fld, NV, US","cover":"CLR","clouds":[],"fltCat":"VFR"},{"icaoId":"KLBB","receiptTime":"2026-04-17T02:56:27.916Z","obsTime":1776394380,"reportTime":"2026-04-17T03:00:00.000Z","temp":25,"dewp":8.3,"wdir":180,"wspd":14,"visib":"10+","altim":1010.9,"slp":1006.2,"qcField":4,"presTend":0.6,"metarType":"METAR","rawOb":"METAR KLBB 170253Z 18014KT 10SM FEW110 25/08 A2985 RMK AO2 SLP062 T02500083 53006","lat":33.6658,"lon":-101.8233,"elev":996,"name":"Lubbock Intl Arpt, TX, US","cover":"FEW","clouds":[{"cover":"FEW","base":11000}],"fltCat":"VFR"},{"icaoId":"KLGB","receiptTime":"2026-04-17T02:56:24.877Z","obsTime":1776394380,"reportTime":"2026-04-17T03:00:00.000Z","temp":18.3,"dewp":10.6,"wdir":290,"wspd":5,"visib":"10+","altim":1011.6,"slp":1011.3,"qcField":4,"presTend":0.3,"metarType":"METAR","rawOb":"METAR KLGB 170253Z 29005KT 10SM CLR 18/11 A2987 RMK AO2 SLP113 T01830106 53003","lat":33.8118,"lon":-118.1472,"elev":10,"name":"Long Beach Arpt, CA, US","cover":"CLR","clouds":[],"fltCat":"VFR"},{"icaoId":"KPBI","receiptTime":"2026-04-17T02:56:19.596Z","obsTime":1776394380,"reportTime":"2026-04-17T03:00:00.000Z","temp":24.4,"dewp":18.9,"wdir":70,"wspd":8,"visib":"10+","altim":1018.7,"slp":1018.7,"qcField":12,"presTend":0.1,"metarType":"METAR","rawOb":"METAR KPBI 170253Z 07008KT 10SM SCT028 BKN041 24/19 A3008 RMK AO2 SLP187 T02440189 50001 $","lat":26.6851,"lon":-80.0992,"elev":4,"name":"Palm Beach Intl, FL, US","cover":"BKN","clouds":[{"cover":"SCT","base":2800},{"cover":"BKN","base":4100}],"fltCat":"VFR"},{"icaoId":"KPGA","receiptTime":"2026-04-17T02:56:27.762Z","obsTime":1776394380,"reportTime":"2026-04-17T03:00:00.000Z","temp":19.4,"dewp":-9.4,"wdir":240,"wspd":6,"visib":"10+","altim":1007.9,"slp":1002.9,"qcField":14,"presTend":0.7,"metarType":"METAR","rawOb":"METAR KPGA 170253Z AUTO 24006KT 10SM CLR 19/M09 A2976 RMK AO2 SLP029 T01941094 51007 $","lat":36.9211,"lon":-111.4487,"elev":1310,"name":"Page Muni, AZ, US","cover":"CLR","clouds":[],"fltCat":"VFR"},{"icaoId":"KPSC","receiptTime":"2026-04-17T02:56:25.966Z","obsTime":1776394380,"reportTime":"2026-04-17T03:00:00.000Z","temp":10,"dewp":-5,"wdir":310,"wspd":14,"visib":"10+","altim":1021.4,"slp":1021.5,"qcField":4,"presTend":1,"metarType":"METAR","rawOb":"METAR KPSC 170253Z 31014KT 10SM CLR 10/M05 A3016 RMK AO2 SLP215 T01001050 53010","lat":46.2695,"lon":-119.1182,"elev":121,"name":"Pasco/Tri Cities Arpt, WA, US","cover":"CLR","clouds":[],"fltCat":"VFR"},{"icaoId":"KPSP","receiptTime":"2026-04-17T02:56:25.978Z","obsTime":1776394380,"reportTime":"2026-04-17T03:00:00.000Z","temp":25.6,"dewp":3.9,"wdir":320,"wspd":18,"wgst":28,"visib":"10+","altim":1007.2,"slp":1006.7,"qcField":12,"presTend":-0.1,"metarType":"METAR","rawOb":"METAR KPSP 170253Z 32018G28KT 10SM CLR 26/04 A2974 RMK AO2 PK WND 31027/0201 SLP067 T02560039 55001 $","lat":33.8222,"lon":-116.5043,"elev":123,"name":"Palm Springs Intl, CA, US","cover":"CLR","clouds":[],"fltCat":"VFR"},{"icaoId":"KDFW","receiptTime":"2026-04-17T02:56:23.658Z","obsTime":1776394380,"reportTime":"2026-04-17T03:00:00.000Z","temp":25,"dewp":17.8,"wdir":160,"wspd":8,"visib":"10+","altim":1011.3,"slp":1010.5,"qcField":12,"presTend":0.1,"metarType":"METAR","rawOb":"METAR KDFW 170253Z 16008KT 10SM SCT250 25/18 A2986 RMK AO2 SLP105 T02500178 53001 $","lat":32.8974,"lon":-97.022,"elev":168,"name":"Dallas-Ft Worth Intl, TX, US","cover":"SCT","clouds":[{"cover":"SCT","base":25000}],"fltCat":"VFR"},{"icaoId":"KDLN","receiptTime":"2026-04-17T02:56:15.233Z","obsTime":1776394380,"reportTime":"2026-04-17T03:00:00.000Z","temp":-2.2,"dewp":-10.6,"wdir":340,"wspd":5,"visib":"10+","altim":1014.6,"slp":1017.9,"qcField":6,"presTend":2.4,"metarType":"METAR","rawOb":"METAR KDLN 170253Z AUTO 34005KT 10SM CLR M02/M11 A2996 RMK AO2 SLP179 T10221106 53024","lat":45.2584,"lon":-112.5546,"elev":1586,"name":"Dillon Arpt, MT, US","cover":"CLR","clouds":[],"fltCat":"VFR"},{"icaoId":"KTPA","receiptTime":"2026-04-17T02:56:27.036Z","obsTime":1776394380,"reportTime":"2026-04-17T03:00:00.000Z","temp":21.7,"dewp":17.2,"wdir":10,"wspd":3,"visib":"10+","altim":1019,"slp":1018.8,"qcField":4,"presTend":1.2,"metarType":"METAR","rawOb":"METAR KTPA 170253Z 01003KT 10SM CLR 22/17 A3009 RMK AO2 SLP188 T02170172 53012","lat":27.9633,"lon":-82.54,"elev":2,"name":"Tampa Intl Arpt, FL, US","cover":"CLR","clouds":[],"fltCat":"VFR"},{"icaoId":"KMYF","receiptTime":"2026-04-17T02:56:16.890Z","obsTime":1776394380,"reportTime":"2026-04-17T03:00:00.000Z","temp":16.1,"dewp":12.2,"wdir":200,"wspd":5,"visib":"10+","altim":1012.6,"slp":1012.3,"qcField":4,"presTend":-0.1,"metarType":"METAR","rawOb":"METAR KMYF 170253Z 20005KT 10SM CLR 16/12 A2990 RMK AO2 SLP123 T01610122 55001","lat":32.8145,"lon":-117.1375,"elev":128,"name":"San Diego/Montgomery Arpt, CA, US","cover":"CLR","clouds":[],"fltCat":"VFR"},{"icaoId":"KLOL","receiptTime":"2026-04-17T02:56:17.662Z","obsTime":1776394380,"reportTime":"2026-04-17T03:00:00.000Z","temp":4.4,"dewp":-12.2,"wdir":360,"wspd":14,"wgst":20,"visib":"10+","altim":1022.4,"slp":1023.1,"qcField":6,"presTend":3,"metarType":"METAR","rawOb":"METAR KLOL 170253Z AUTO 36014G20KT 10SM CLR 04/M12 A3019 RMK AO2 PK WND 02028/0154 SLP231 T00441122 53030","lat":40.0684,"lon":-118.5702,"elev":1191,"name":"Lovelock/Derby Fld, NV, US","cover":"CLR","clouds":[],"fltCat":"VFR"},{"icaoId":"KAUS","receiptTime":"2026-04-17T02:56:23.412Z","obsTime":1776394380,"reportTime":"2026-04-17T03:00:00.000Z","temp":25,"dewp":18.9,"wdir":160,"wspd":12,"wgst":19,"visib":"10+","altim":1013.3,"slp":1012.3,"qcField":4,"presTend":1.6,"metarType":"METAR","rawOb":"METAR KAUS 170253Z 16012G19KT 10SM FEW250 25/19 A2992 RMK AO2 SLP123 T02500189 53016","lat":30.1831,"lon":-97.6806,"elev":148,"name":"Austin/Bergstrom Intl, TX, US","cover":"FEW","clouds":[{"cover":"FEW","base":25000}],"fltCat":"VFR"},{"icaoId":"KFMN","receiptTime":"2026-04-17T02:56:20.814Z","obsTime":1776394380,"reportTime":"2026-04-17T03:00:00.000Z","temp":15.6,"dewp":-15,"wdir":260,"wspd":7,"visib":"10+","altim":1010.9,"slp":1007.6,"qcField":4,"presTend":-0.2,"metarType":"METAR","rawOb":"METAR KFMN 170253Z 26007KT 10SM FEW120 16/M15 A2985 RMK AO2 SLP076 T01561150 55002","lat":36.7435,"lon":-108.2293,"elev":1677,"name":"Farmington/Four Corners Rgnl, NM, US","cover":"FEW","clouds":[{"cover":"FEW","base":12000}],"fltCat":"VFR"},{"icaoId":"KVGT","receiptTime":"2026-04-17T02:56:17.173Z","obsTime":1776394380,"reportTime":"2026-04-17T03:00:00.000Z","temp":23.9,"dewp":-2.8,"wdir":230,"wspd":13,"visib":"10+","altim":1005.5,"slp":1005.1,"qcField":4,"presTend":0.1,"metarType":"METAR","rawOb":"METAR KVGT 170253Z 23013KT 10SM CLR 24/M03 A2969 RMK AO2 SLP051 T02391028 53001","lat":36.212,"lon":-115.194,"elev":664,"name":"Las Vegas/North Arpt, NV, US","cover":"CLR","clouds":[],"fltCat":"VFR"},{"icaoId":"KTUS","receiptTime":"2026-04-17T02:56:28.188Z","obsTime":1776394380,"reportTime":"2026-04-17T03:00:00.000Z","temp":23.9,"dewp":-13.9,"wdir":250,"wspd":5,"visib":"10+","altim":1010.6,"slp":1007.1,"qcField":12,"metarType":"METAR","rawOb":"METAR KTUS 170253Z 25005KT 10SM CLR 24/M14 A2984 RMK AO2 SLP071 T02391139 53000 $","lat":32.1315,"lon":-110.9564,"elev":776,"name":"Tucson Intl Arpt, AZ, US","cover":"CLR","clouds":[],"fltCat":"VFR"},{"icaoId":"KDEN","receiptTime":"2026-04-17T02:56:25.106Z","obsTime":1776394380,"reportTime":"2026-04-17T03:00:00.000Z","temp":19.4,"dewp":-10.6,"wdir":220,"wspd":15,"visib":"10+","altim":1003.1,"slp":996.3,"qcField":12,"presTend":0.8,"metarType":"METAR","rawOb":"METAR KDEN 170253Z 22015KT 10SM FEW100 BKN130 BKN200 19/M11 A2962 RMK AO2 SLP963 T01941106 53008 $","lat":39.8466,"lon":-104.6562,"elev":1656,"name":"Denver Intl, CO, US","cover":"BKN","clouds":[{"cover":"FEW","base":10000},{"cover":"BKN","base":13000},{"cover":"BKN","base":20000}],"fltCat":"VFR"},{"icaoId":"KMIA","receiptTime":"2026-04-17T02:56:21.681Z","obsTime":1776394380,"reportTime":"2026-04-17T03:00:00.000Z","temp":23.9,"dewp":18.3,"wdir":40,"wspd":6,"visib":"10+","altim":1018.4,"qcField":0,"metarType":"METAR","rawOb":"METAR KMIA 170253Z 04006KT 10SM BKN028 24/18 A3007 RMK T02390183","lat":25.7881,"lon":-80.3169,"elev":1,"name":"Miami Intl, FL, US","cover":"BKN","clouds":[{"cover":"BKN","base":2800}],"fltCat":"MVFR"},{"icaoId":"KEVW","receiptTime":"2026-04-17T02:56:18.797Z","obsTime":1776394380,"reportTime":"2026-04-17T03:00:00.000Z","temp":-7.2,"dewp":-8.9,"wdir":230,"wspd":7,"visib":"10+","altim":1015.3,"slp":1015.2,"qcField":14,"presTend":1,"pcp3hr":0.01,"metarType":"METAR","rawOb":"METAR KEVW 170253Z AUTO 23007KT 10SM FEW026 BKN041 OVC060 M07/M09 A2998 RMK AO2 SLP152 60001 T10721089 53010 $","lat":41.2727,"lon":-111.0305,"elev":2178,"name":"Evanston/Uinta Cnty, WY, US","cover":"OVC","clouds":[{"cover":"FEW","base":2600},{"cover":"BKN","base":4100},{"cover":"OVC","base":6000}],"fltCat":"VFR"},{"icaoId":"KGTF","receiptTime":"2026-04-17T02:56:19.371Z","obsTime":1776394380,"reportTime":"2026-04-17T03:00:00.000Z","temp":-3.9,"dewp":-6.1,"wdir":350,"wspd":9,"visib":"10+","altim":1016,"slp":1021.6,"qcField":4,"presTend":1.9,"precip":0.005,"pcp3hr":0.005,"metarType":"METAR","rawOb":"METAR KGTF 170253Z 35009KT 10SM BKN021 OVC034 M04/M06 A3000 RMK AO2 SNE00 SLP216 P0000 60000 T10391061 51019","lat":47.4733,"lon":-111.3828,"elev":1117,"name":"Great Falls Intl, MT, US","cover":"OVC","clouds":[{"cover":"BKN","base":2100},{"cover":"OVC","base":3400}],"fltCat":"MVFR"},{"icaoId":"KMCI","receiptTime":"2026-04-17T02:56:24.780Z","obsTime":1776394380,"reportTime":"2026-04-17T03:00:00.000Z","temp":21.7,"dewp":16.1,"wdir":170,"wspd":12,"visib":"10+","altim":1009.9,"slp":1009,"qcField":4,"presTend":1,"metarType":"METAR","rawOb":"METAR KMCI 170253Z 17012KT 10SM CLR 22/16 A2982 RMK AO2 SLP090 T02170161 52010","lat":39.2975,"lon":-94.7309,"elev":308,"name":"Kansas City Intl, MO, US","cover":"CLR","clouds":[],"fltCat":"VFR"},{"icaoId":"KMDW","receiptTime":"2026-04-17T02:56:24.366Z","obsTime":1776394380,"reportTime":"2026-04-17T03:00:00.000Z","temp":10.6,"dewp":9.4,"wdir":110,"wspd":5,"visib":5,"altim":1014,"slp":1013.8,"qcField":4,"wxString":"BR","presTend":2.5,"metarType":"METAR","rawOb":"METAR KMDW 170253Z 11005KT 5SM BR OVC004 11/09 A2994 RMK AO2 SLP138 T01060094 53025","lat":41.7841,"lon":-87.7552,"elev":186,"name":"Chicago/Midway Intl, IL, US","cover":"OVC","clouds":[{"cover":"OVC","base":400}],"fltCat":"LIFR"},{"icaoId":"KOAK","receiptTime":"2026-04-17T02:56:16.923Z","obsTime":1776394380,"reportTime":"2026-04-17T03:00:00.000Z","temp":17.2,"dewp":3.3,"wdir":310,"wspd":8,"wgst":16,"visib":"10+","altim":1016.7,"slp":1016.6,"qcField":12,"metarType":"METAR","rawOb":"METAR KOAK 170253Z 31008G16KT 10SM FEW250 17/03 A3002 RMK AO2 SLP166 T01720033 53000 $","lat":37.7178,"lon":-122.233,"elev":3,"name":"Oakland Intl, CA, US","cover":"FEW","clouds":[{"cover":"FEW","base":25000}],"fltCat":"VFR"},{"icaoId":"KONT","receiptTime":"2026-04-17T02:56:17.020Z","obsTime":1776394380,"reportTime":"2026-04-17T03:00:00.000Z","temp":18.3,"dewp":7.8,"wdir":240,"wspd":7,"visib":"10+","altim":1011.6,"slp":1010.8,"qcField":12,"presTend":0.4,"metarType":"METAR","rawOb":"METAR KONT 170253Z 24007KT 10SM FEW060 SCT270 18/08 A2987 RMK AO2 SLP108 T01830078 53004 $","lat":34.0531,"lon":-117.5769,"elev":279,"name":"Ontario Intl, CA, US","cover":"SCT","clouds":[{"cover":"FEW","base":6000},{"cover":"SCT","base":27000}],"fltCat":"VFR"},{"icaoId":"KPUB","receiptTime":"2026-04-17T02:56:24.469Z","obsTime":1776394380,"reportTime":"2026-04-17T03:00:00.000Z","temp":18.9,"dewp":-11.7,"wdir":200,"wspd":8,"visib":"10+","altim":1004.5,"slp":999,"qcField":12,"presTend":0.4,"metarType":"METAR","rawOb":"METAR KPUB 170253Z 20008KT 10SM CLR 19/M12 A2966 RMK AO2 SLP990 T01891117 53004 $","lat":38.2887,"lon":-104.5057,"elev":1441,"name":"Pueblo Mem Arpt, CO, US","cover":"CLR","clouds":[],"fltCat":"VFR"},{"icaoId":"KLVS","receiptTime":"2026-04-17T02:56:18.320Z","obsTime":1776394380,"reportTime":"2026-04-17T03:00:00.000Z","temp":10.6,"dewp":-13.3,"wdir":160,"wspd":11,"visib":"10+","altim":1013.3,"slp":1005.4,"qcField":6,"presTend":-0.1,"metarType":"METAR","rawOb":"METAR KLVS 170253Z AUTO 16011KT 10SM CLR 11/M13 A2992 RMK AO2 SLP054 T01061133 55001","lat":35.6558,"lon":-105.1385,"elev":2095,"name":"Las Vegas Muni, NM, US","cover":"CLR","clouds":[],"fltCat":"VFR"},{"icaoId":"KMAF","receiptTime":"2026-04-17T02:56:18.333Z","obsTime":1776394380,"reportTime":"2026-04-17T03:00:00.000Z","temp":22.8,"dewp":16.7,"wdir":150,"wspd":19,"visib":9,"altim":1011.9,"slp":1007.5,"qcField":6,"presTend":1.1,"metarType":"METAR","rawOb":"METAR KMAF 170253Z AUTO 15019KT 9SM CLR 23/17 A2988 RMK AO2 PK WND 16027/0240 SLP075 T02280167 53011","lat":31.9475,"lon":-102.2086,"elev":874,"name":"Midland Intl, TX, US","cover":"CLR","clouds":[],"fltCat":"VFR"},{"icaoId":"KMFE","receiptTime":"2026-04-17T02:56:18.404Z","obsTime":1776394380,"reportTime":"2026-04-17T03:00:00.000Z","temp":25,"dewp":20.6,"wdir":130,"wspd":13,"visib":"10+","altim":1013.3,"slp":1013.1,"qcField":4,"presTend":1.6,"metarType":"METAR","rawOb":"METAR KMFE 170253Z 13013KT 10SM CLR 25/21 A2992 RMK AO2 SLP131 T02500206 53016","lat":26.1791,"lon":-98.2445,"elev":29,"name":"McAllen/Miller Intl, TX, US","cover":"CLR","clouds":[],"fltCat":"VFR"},{"icaoId":"KMLC","receiptTime":"2026-04-17T02:56:18.459Z","obsTime":1776394380,"reportTime":"2026-04-17T03:00:00.000Z","temp":23.3,"dewp":19.4,"wdir":"VRB","wspd":6,"visib":"10+","altim":1012.3,"slp":1011.3,"qcField":6,"presTend":1.1,"metarType":"METAR","rawOb":"METAR KMLC 170253Z AUTO VRB06KT 10SM CLR 23/19 A2989 RMK AO2 SLP113 T02330194 53011","lat":34.8824,"lon":-95.7815,"elev":231,"name":"McAlester Rgnl, OK, US","cover":"CLR","clouds":[],"fltCat":"VFR"},{"icaoId":"KMSY","receiptTime":"2026-04-17T02:56:18.485Z","obsTime":1776394380,"reportTime":"2026-04-17T03:00:00.000Z","temp":22.2,"dewp":17.8,"wdir":190,"wspd":4,"visib":"10+","altim":1017.7,"slp":1017.9,"qcField":4,"presTend":0.6,"metarType":"METAR","rawOb":"METAR KMSY 170253Z 19004KT 10SM FEW070 22/18 A3005 RMK AO2 SLP179 T02220178 53006","lat":29.9974,"lon":-90.2777,"elev":0,"name":"New Orleans/Armstrong Intl, LA, US","cover":"FEW","clouds":[{"cover":"FEW","base":7000}],"fltCat":"VFR"},{"icaoId":"KFUL","receiptTime":"2026-04-17T02:56:19.048Z","obsTime":1776394380,"reportTime":"2026-04-17T03:00:00.000Z","temp":18.3,"dewp":10.6,"wdir":180,"wspd":6,"visib":"10+","altim":1011.3,"slp":1011.2,"qcField":6,"presTend":0.3,"metarType":"METAR","rawOb":"METAR KFUL 170253Z AUTO 18006KT 10SM CLR 18/11 A2986 RMK AO2 SLP112 T01830106 53003","lat":33.8715,"lon":-117.9856,"elev":23,"name":"Fullerton Muni, CA, US","cover":"CLR","clouds":[],"fltCat":"VFR"},{"icaoId":"KPAE","receiptTime":"2026-04-17T02:56:19.449Z","obsTime":1776394380,"reportTime":"2026-04-17T03:00:00.000Z","temp":9.4,"dewp":0,"wdir":60,"wspd":5,"visib":"10+","altim":1024.5,"slp":1024.6,"qcField":4,"presTend":-0.6,"metarType":"METAR","rawOb":"METAR KPAE 170253Z 06005KT 10SM FEW060 OVC080 09/00 A3025 RMK AO2 SLP246 T00940000 56006","lat":47.9232,"lon":-122.2831,"elev":166,"name":"Everett/Paine Fld, WA, US","cover":"OVC","clouds":[{"cover":"FEW","base":6000},{"cover":"OVC","base":8000}],"fltCat":"VFR"},{"icaoId":"KCLL","receiptTime":"2026-04-17T02:56:23.506Z","obsTime":1776394380,"reportTime":"2026-04-17T03:00:00.000Z","temp":24.4,"dewp":19.4,"wdir":160,"wspd":12,"visib":"10+","altim":1014.3,"slp":1013.8,"qcField":6,"presTend":1.4,"metarType":"METAR","rawOb":"METAR KCLL 170253Z AUTO 16012KT 10SM CLR 24/19 A2995 RMK AO2 SLP138 T02440194 53014","lat":30.5912,"lon":-96.3631,"elev":96,"name":"College Station/Easterwood Arpt, TX, US","cover":"CLR","clouds":[],"fltCat":"VFR"},{"icaoId":"KCNY","receiptTime":"2026-04-17T02:56:25.050Z","obsTime":1776394380,"reportTime":"2026-04-17T03:00:00.000Z","temp":15,"dewp":-2.2,"wdir":300,"wspd":20,"wgst":31,"visib":"10+","altim":1004.8,"slp":1001.1,"qcField":6,"presTend":0.9,"metarType":"METAR","rawOb":"METAR KCNY 170253Z AUTO 30020G31KT 10SM CLR 15/M02 A2967 RMK AO2 PK WND 31033/0242 WSHFT 0231 SLP011 T01501022 53009","lat":38.7501,"lon":-109.7627,"elev":1392,"name":"Moab/Canyonland Fld, UT, US","cover":"CLR","clouds":[],"fltCat":"VFR"},{"icaoId":"KCRQ","receiptTime":"2026-04-17T02:56:20.103Z","obsTime":1776394380,"reportTime":"2026-04-17T03:00:00.000Z","temp":16.7,"dewp":12.8,"wdir":250,"wspd":5,"visib":"10+","altim":1012.3,"slp":1012,"qcField":4,"presTend":0.1,"metarType":"METAR","rawOb":"METAR KCRQ 170253Z 25005KT 10SM CLR 17/13 A2989 RMK AO2 SLP120 T01670128 53001","lat":33.1299,"lon":-117.2765,"elev":96,"name":"Carlsbad/Palomar Arpt, CA, US","cover":"CLR","clouds":[],"fltCat":"VFR"},{"icaoId":"KDAL","receiptTime":"2026-04-17T02:56:23.646Z","obsTime":1776394380,"reportTime":"2026-04-17T03:00:00.000Z","temp":26.1,"dewp":18.3,"wdir":170,"wspd":9,"wgst":17,"visib":"10+","altim":1011.9,"slp":1011.1,"qcField":4,"presTend":0.3,"metarType":"METAR","rawOb":"METAR KDAL 170253Z 17009G17KT 10SM SCT250 26/18 A2988 RMK AO2 SLP111 T02610183 53003","lat":32.8384,"lon":-96.8358,"elev":148,"name":"Dallas/Love Fld, TX, US","cover":"SCT","clouds":[{"cover":"SCT","base":25000}],"fltCat":"VFR"},{"icaoId":"KBUR","receiptTime":"2026-04-17T02:56:25.846Z","obsTime":1776394380,"reportTime":"2026-04-17T03:00:00.000Z","temp":17.2,"dewp":8.9,"wdir":180,"wspd":5,"visib":"10+","altim":1011.6,"slp":1010.7,"qcField":4,"presTend":0.2,"metarType":"METAR","rawOb":"METAR KBUR 170253Z 18005KT 10SM CLR 17/09 A2987 RMK AO2 SLP107 T01720089 53002","lat":34.1996,"lon":-118.3654,"elev":221,"name":"Burbank/Bob Hope Arpt, CA, US","cover":"CLR","clouds":[],"fltCat":"VFR"},{"icaoId":"KPNC","receiptTime":"2026-04-17T02:56:21.514Z","obsTime":1776394380,"reportTime":"2026-04-17T03:00:00.000Z","temp":23.9,"dewp":16.7,"wdir":160,"wspd":18,"wgst":26,"visib":"10+","altim":1007.9,"slp":1006.6,"qcField":6,"presTend":0.2,"metarType":"METAR","rawOb":"METAR KPNC 170253Z AUTO 16018G26KT 10SM CLR 24/17 A2976 RMK AO2 PK WND 16026/0248 SLP066 T02390167 53002","lat":36.7369,"lon":-97.1024,"elev":304,"name":"Ponca City Rgnl, OK, US","cover":"CLR","clouds":[],"fltCat":"VFR"},{"icaoId":"KBRO","receiptTime":"2026-04-17T02:56:23.448Z","obsTime":1776394380,"reportTime":"2026-04-17T03:00:00.000Z","temp":25.6,"dewp":22.2,"wdir":140,"wspd":10,"visib":"10+","altim":1014,"slp":1013.7,"qcField":4,"presTend":1,"metarType":"METAR","rawOb":"METAR KBRO 170253Z 14010KT 10SM BKN016 OVC021 26/22 A2994 RMK AO2 SLP137 T02560222 53010","lat":25.9146,"lon":-97.4231,"elev":6,"name":"Brownsville Intl, TX, US","cover":"OVC","clouds":[{"cover":"BKN","base":1600},{"cover":"OVC","base":2100}],"fltCat":"MVFR"},{"icaoId":"KPIH","receiptTime":"2026-04-17T02:56:25.780Z","obsTime":1776394380,"reportTime":"2026-04-17T03:00:00.000Z","temp":0.6,"dewp":-7.2,"wdir":80,"wspd":7,"visib":"10+","altim":1017,"slp":1018.8,"qcField":4,"presTend":2.8,"metarType":"METAR","rawOb":"METAR KPIH 170253Z 08007KT 10SM OVC055 01/M07 A3003 RMK AO2 SLP188 T00061072 53028","lat":42.9197,"lon":-112.5723,"elev":1357,"name":"Pocatello Rgnl, ID, US","cover":"OVC","clouds":[{"cover":"OVC","base":5500}],"fltCat":"VFR"},{"icaoId":"PANC","receiptTime":"2026-04-17T02:56:22.438Z","obsTime":1776394380,"reportTime":"2026-04-17T03:00:00.000Z","temp":3.3,"dewp":-0.6,"wdir":150,"wspd":14,"wgst":32,"visib":"10+","altim":1009.6,"slp":1009.7,"qcField":4,"wxString":"-RA","presTend":-0.5,"precip":0.005,"pcp3hr":0.005,"metarType":"METAR","rawOb":"METAR PANC 170253Z 15014G32KT 10SM -RA OVC024 03/M01 A2981 RMK AO2 PK WND 16033/0237 RAB14 SLP097 P0000 60000 T00331006 56005","lat":61.1691,"lon":-150.0277,"elev":39,"name":"Anchorage Intl, AK, US","cover":"OVC","clouds":[{"cover":"OVC","base":2400}],"fltCat":"MVFR"},{"icaoId":"KMYR","receiptTime":"2026-04-17T02:56:23.029Z","obsTime":1776394380,"reportTime":"2026-04-17T03:00:00.000Z","temp":20,"dewp":17.2,"wdir":210,"wspd":6,"visib":"10+","altim":1016.7,"slp":1016.6,"qcField":12,"presTend":0.8,"metarType":"METAR","rawOb":"METAR KMYR 170253Z 21006KT 10SM CLR 20/17 A3002 RMK AO2 SLP166 T02000172 53008 $","lat":33.6769,"lon":-78.9325,"elev":7,"name":"Myrtle Beach Intl, SC, US","cover":"CLR","clouds":[],"fltCat":"VFR"},{"icaoId":"KLAW","receiptTime":"2026-04-17T02:56:23.214Z","obsTime":1776394380,"reportTime":"2026-04-17T03:00:00.000Z","temp":23.9,"dewp":18.9,"wdir":170,"wspd":13,"visib":"10+","altim":1009.2,"slp":1008.2,"qcField":6,"presTend":0.3,"metarType":"METAR","rawOb":"METAR KLAW 170253Z AUTO 17013KT 10SM CLR 24/19 A2980 RMK AO2 SLP082 T02390189 53003","lat":34.5577,"lon":-98.4172,"elev":328,"name":"Lawton-Fort Sill Rgnl, OK, US","cover":"CLR","clouds":[],"fltCat":"VFR"},{"icaoId":"KTWF","receiptTime":"2026-04-17T02:56:27.603Z","obsTime":1776394380,"reportTime":"2026-04-17T03:00:00.000Z","temp":-0.6,"dewp":-6.1,"wdir":260,"wspd":13,"visib":"10+","altim":1019.4,"slp":1020.4,"qcField":4,"presTend":2,"pcp3hr":0.005,"metarType":"METAR","rawOb":"METAR KTWF 170253Z 26013KT 10SM CLR M01/M06 A3010 RMK AO2 SLP204 60000 T10061061 53020","lat":42.4785,"lon":-114.4775,"elev":1269,"name":"Twin Falls/Joslin Fld, ID, US","cover":"CLR","clouds":[],"fltCat":"VFR"},{"icaoId":"KMSO","receiptTime":"2026-04-17T02:56:28.017Z","obsTime":1776394380,"reportTime":"2026-04-17T03:00:00.000Z","temp":1.7,"dewp":-2.8,"wdir":0,"wspd":0,"visib":"10+","altim":1017.4,"slp":1019.8,"qcField":4,"presTend":1.8,"precip":0.005,"pcp3hr":0.005,"metarType":"METAR","rawOb":"METAR KMSO 170253Z 00000KT 10SM SCT055 OVC070 02/M03 A3004 RMK AO2 SNE0155 SLP198 P0000 60000 T00171028 51018","lat":46.9208,"lon":-114.0938,"elev":974,"name":"Missoula Intl, MT, US","cover":"OVC","clouds":[{"cover":"SCT","base":5500},{"cover":"OVC","base":7000}],"fltCat":"VFR"},{"icaoId":"KOGD","receiptTime":"2026-04-17T02:56:16.960Z","obsTime":1776394380,"reportTime":"2026-04-17T03:00:00.000Z","temp":2.8,"dewp":-7.8,"wdir":0,"wspd":0,"visib":"10+","altim":1017.4,"slp":1016.7,"qcField":6,"presTend":1.5,"metarType":"METAR","rawOb":"METAR KOGD 170253Z AUTO 00000KT 10SM OVC090 03/M08 A3004 RMK AO2 SLP167 T00281078 51015","lat":41.1941,"lon":-112.0168,"elev":1356,"name":"Ogden/Hinckley Arpt, UT, US","cover":"OVC","clouds":[{"cover":"OVC","base":9000}],"fltCat":"VFR"},{"icaoId":"KCYS","receiptTime":"2026-04-17T02:56:25.083Z","obsTime":1776394380,"reportTime":"2026-04-17T03:00:00.000Z","temp":16.1,"dewp":-16.1,"wdir":250,"wspd":19,"wgst":28,"visib":"10+","altim":1004.5,"slp":997.6,"qcField":4,"presTend":0.4,"metarType":"METAR","rawOb":"METAR KCYS 170253Z 25019G28KT 10SM CLR 16/M16 A2966 RMK AO2 PK WND 25028/0245 SLP976 T01611161 53004","lat":41.1579,"lon":-104.8081,"elev":1868,"name":"Cheyenne Rgnl, WY, US","cover":"CLR","clouds":[],"fltCat":"VFR"},{"icaoId":"KHIO","receiptTime":"2026-04-17T02:56:27.312Z","obsTime":1776394380,"reportTime":"2026-04-17T03:00:00.000Z","temp":10,"dewp":2.2,"wdir":320,"wspd":7,"visib":"10+","altim":1025.8,"slp":1025.9,"qcField":4,"presTend":0.2,"metarType":"METAR","rawOb":"METAR KHIO 170253Z 32007KT 10SM FEW055 10/02 A3029 RMK AO2 SLP259 T01000022 52002","lat":45.5476,"lon":-122.9557,"elev":62,"name":"Portland/Hillsboro Arpt, OR, US","cover":"FEW","clouds":[{"cover":"FEW","base":5500}],"fltCat":"VFR"},{"icaoId":"KPRC","receiptTime":"2026-04-17T02:56:25.951Z","obsTime":1776394380,"reportTime":"2026-04-17T03:00:00.000Z","temp":15,"dewp":-10,"wdir":200,"wspd":7,"visib":"10+","altim":1013,"slp":1007.6,"qcField":4,"presTend":-0.4,"metarType":"METAR","rawOb":"METAR KPRC 170253Z 20007KT 10SM CLR 15/M10 A2991 RMK AO2 SLP076 T01501100 55004","lat":34.6491,"lon":-112.4223,"elev":1528,"name":"Prescott/Love Fld, AZ, US","cover":"CLR","clouds":[],"fltCat":"VFR"},{"icaoId":"KSBA","receiptTime":"2026-04-17T02:56:25.990Z","obsTime":1776394380,"reportTime":"2026-04-17T03:00:00.000Z","temp":15.6,"dewp":12.8,"wdir":130,"wspd":7,"visib":"10+","altim":1010.6,"slp":1010.5,"qcField":12,"presTend":-0.4,"metarType":"METAR","rawOb":"METAR KSBA 170253Z 13007KT 10SM CLR 16/13 A2984 RMK AO2 SLP105 T01560128 56004 $","lat":34.4241,"lon":-119.8425,"elev":2,"name":"Santa Barbara Muni, CA, US","cover":"CLR","clouds":[],"fltCat":"VFR"},{"icaoId":"KSDL","receiptTime":"2026-04-17T02:56:26.003Z","obsTime":1776394380,"reportTime":"2026-04-17T03:00:00.000Z","temp":26.1,"dewp":-7.2,"wdir":240,"wspd":6,"visib":"10+","altim":1008.2,"slp":1006.1,"qcField":4,"presTend":-0.7,"metarType":"METAR","rawOb":"METAR KSDL 170253Z 24006KT 10SM CLR 26/M07 A2977 RMK AO2 SLP061 T02611072 55007","lat":33.6123,"lon":-111.9232,"elev":438,"name":"Scottsdale Muni, AZ, US","cover":"CLR","clouds":[],"fltCat":"VFR"},{"icaoId":"KSEA","receiptTime":"2026-04-17T02:56:27.809Z","obsTime":1776394380,"reportTime":"2026-04-17T03:00:00.000Z","temp":10.6,"dewp":0,"wdir":240,"wspd":9,"visib":"10+","altim":1024.1,"slp":1024.9,"qcField":4,"presTend":-0.4,"metarType":"METAR","rawOb":"METAR KSEA 170253Z 24009KT 10SM FEW050 SCT080 SCT200 11/00 A3024 RMK AO2 SLP249 T01060000 56004","lat":47.4447,"lon":-122.3144,"elev":115,"name":"Seattle-Tacoma Intl, WA, US","cover":"SCT","clouds":[{"cover":"FEW","base":5000},{"cover":"SCT","base":8000},{"cover":"SCT","base":20000}],"fltCat":"VFR"},{"icaoId":"KSJC","receiptTime":"2026-04-17T02:56:26.075Z","obsTime":1776394380,"reportTime":"2026-04-17T03:00:00.000Z","temp":17.2,"dewp":4.4,"wdir":340,"wspd":10,"visib":"10+","altim":1016,"slp":1015.9,"qcField":4,"presTend":0.4,"metarType":"METAR","rawOb":"METAR KSJC 170253Z 34010KT 10SM FEW070 17/04 A3000 RMK AO2 SLP159 T01720044 53004","lat":37.3594,"lon":-121.9244,"elev":13,"name":"San Jose Intl Arpt, CA, US","cover":"FEW","clouds":[{"cover":"FEW","base":7000}],"fltCat":"VFR"},{"icaoId":"KMCO","receiptTime":"2026-04-17T02:56:18.392Z","obsTime":1776394380,"reportTime":"2026-04-17T03:00:00.000Z","temp":21.1,"dewp":16.1,"wdir":120,"wspd":7,"visib":"10+","altim":1019.7,"slp":1019.4,"qcField":4,"presTend":0.9,"metarType":"METAR","rawOb":"METAR KMCO 170253Z 12007KT 10SM CLR 21/16 A3011 RMK AO2 SLP194 T02110161 51009","lat":28.4182,"lon":-81.3241,"elev":27,"name":"Orlando Intl, FL, US","cover":"CLR","clouds":[],"fltCat":"VFR"},{"icaoId":"KMFR","receiptTime":"2026-04-17T02:56:24.930Z","obsTime":1776394380,"reportTime":"2026-04-17T03:00:00.000Z","temp":8.9,"dewp":-2.2,"wdir":350,"wspd":7,"visib":"10+","altim":1024.8,"slp":1025.2,"qcField":4,"presTend":0.3,"pcp3hr":0.005,"metarType":"METAR","rawOb":"METAR KMFR 170253Z 35007KT 10SM CLR 09/M02 A3026 RMK AO2 SLP252 60000 T00891022 53003","lat":42.375,"lon":-122.877,"elev":397,"name":"Medford/Rogue Valley Intl, OR, US","cover":"CLR","clouds":[],"fltCat":"VFR"},{"icaoId":"KDRO","receiptTime":"2026-04-17T02:56:25.127Z","obsTime":1776394380,"reportTime":"2026-04-17T03:00:00.000Z","temp":10,"dewp":-7.2,"wdir":10,"wspd":5,"visib":"10+","altim":1012.6,"slp":1009.4,"qcField":6,"presTend":-0.4,"metarType":"METAR","rawOb":"METAR KDRO 170253Z AUTO 01005KT 10SM CLR 10/M07 A2990 RMK AO2 SLP094 T01001072 55004","lat":37.1431,"lon":-107.7602,"elev":2021,"name":"Durango/La Plata Cnty, CO, US","cover":"CLR","clouds":[],"fltCat":"VFR"},{"icaoId":"KPUW","receiptTime":"2026-04-17T02:56:17.371Z","obsTime":1776394380,"reportTime":"2026-04-17T03:00:00.000Z","temp":5.6,"dewp":-3.3,"wdir":240,"wspd":7,"visib":"10+","altim":1020.1,"slp":1021.7,"qcField":6,"presTend":0.8,"metarType":"METAR","rawOb":"METAR KPUW 170253Z AUTO 24007KT 10SM OVC085 06/M03 A3012 RMK AO2 SLP217 T00561033 53008","lat":46.7438,"lon":-117.1158,"elev":774,"name":"Pullman/Moscow Rgnl, WA, US","cover":"OVC","clouds":[{"cover":"OVC","base":8500}],"fltCat":"VFR"},{"icaoId":"KBCE","receiptTime":"2026-04-17T02:56:25.896Z","obsTime":1776394380,"reportTime":"2026-04-17T03:00:00.000Z","temp":7.8,"dewp":-6.7,"wdir":250,"wspd":13,"wgst":21,"visib":"10+","altim":1011.3,"slp":1003.4,"qcField":6,"presTend":-0.6,"metarType":"METAR","rawOb":"METAR KBCE 170253Z AUTO 25013G21KT 10SM CLR 08/M07 A2986 RMK AO2 PK WND 22028/0200 SLP034 T00781067 55006","lat":37.7013,"lon":-112.149,"elev":2311,"name":"Bryce Canyon Arpt, UT, US","cover":"CLR","clouds":[],"fltCat":"VFR"},{"icaoId":"KYKM","receiptTime":"2026-04-17T02:56:28.039Z","obsTime":1776394380,"reportTime":"2026-04-17T03:00:00.000Z","temp":8.9,"dewp":-5,"wdir":280,"wspd":8,"visib":"10+","altim":1021.8,"slp":1022.3,"qcField":4,"presTend":1.2,"metarType":"METAR","rawOb":"METAR KYKM 170253Z 28008KT 10SM CLR 09/M05 A3017 RMK AO2 SLP223 T00891050 53012","lat":46.564,"lon":-120.5349,"elev":319,"name":"Yakima/McAllister Fld, WA, US","cover":"CLR","clouds":[],"fltCat":"VFR"},{"icaoId":"KDVT","receiptTime":"2026-04-17T02:56:18.649Z","obsTime":1776394380,"reportTime":"2026-04-17T03:00:00.000Z","temp":26.1,"dewp":-8.9,"wdir":240,"wspd":10,"visib":"10+","altim":1007.9,"slp":1005.7,"qcField":12,"presTend":-0.8,"metarType":"METAR","rawOb":"METAR KDVT 170253Z 24010KT 10SM CLR 26/M09 A2976 RMK AO2 SLP057 T02611089 55008 $","lat":33.6902,"lon":-112.0662,"elev":454,"name":"Phoenix/Deer Valley Arpt, AZ, US","cover":"CLR","clouds":[],"fltCat":"VFR"},{"icaoId":"KAMA","receiptTime":"2026-04-17T02:56:23.357Z","obsTime":1776394380,"reportTime":"2026-04-17T03:00:00.000Z","temp":19.4,"dewp":-11.7,"wdir":200,"wspd":11,"visib":"10+","altim":1010.2,"slp":1005.5,"qcField":4,"presTend":0.3,"metarType":"METAR","rawOb":"METAR KAMA 170253Z 20011KT 10SM CLR 19/M12 A2983 RMK AO2 SLP055 T01941117 53003","lat":35.2203,"lon":-101.7173,"elev":1102,"name":"Amarillo Intl Arpt, TX, US","cover":"CLR","clouds":[],"fltCat":"VFR"},{"icaoId":"KIAD","receiptTime":"2026-04-17T02:56:22.964Z","obsTime":1776394320,"reportTime":"2026-04-17T03:00:00.000Z","temp":24.4,"dewp":9.4,"wdir":230,"wspd":5,"visib":"10+","altim":1009.6,"slp":1009,"qcField":4,"presTend":2.2,"metarType":"METAR","rawOb":"METAR KIAD 170252Z 23005KT 10SM SCT130 24/09 A2981 RMK AO2 SLP090 T02440094 53022","lat":38.9348,"lon":-77.4473,"elev":90,"name":"Washington/Dulles Intl, VA, US","cover":"SCT","clouds":[{"cover":"SCT","base":13000}],"fltCat":"VFR"},{"icaoId":"KCVG","receiptTime":"2026-04-17T02:56:22.919Z","obsTime":1776394320,"reportTime":"2026-04-17T03:00:00.000Z","temp":18.9,"dewp":10,"wdir":240,"wspd":3,"visib":"10+","altim":1014.3,"slp":1013.6,"qcField":4,"presTend":1.5,"metarType":"METAR","rawOb":"METAR KCVG 170252Z 24003KT 10SM BKN250 19/10 A2995 RMK AO2 SLP136 T01890100 53015","lat":39.0444,"lon":-84.6724,"elev":264,"name":"Cincinnati Intl, KY, US","cover":"BKN","clouds":[{"cover":"BKN","base":25000}],"fltCat":"VFR"},{"icaoId":"KHRL","receiptTime":"2026-04-17T02:56:22.286Z","obsTime":1776394320,"reportTime":"2026-04-17T03:00:00.000Z","temp":23.9,"dewp":21.7,"wdir":140,"wspd":9,"visib":"10+","altim":1013.6,"slp":1013.5,"qcField":4,"presTend":1.3,"metarType":"METAR","rawOb":"METAR KHRL 170252Z 14009KT 10SM BKN021 24/22 A2993 RMK AO2 SLP135 T02390217 53013","lat":26.2303,"lon":-97.6556,"elev":9,"name":"Harlingen/Valley Intl, TX, US","cover":"BKN","clouds":[{"cover":"BKN","base":2100}],"fltCat":"MVFR"},{"icaoId":"KDCA","receiptTime":"2026-04-17T02:56:22.934Z","obsTime":1776394320,"reportTime":"2026-04-17T03:00:00.000Z","temp":26.1,"dewp":12.8,"wdir":250,"wspd":7,"visib":"10+","altim":1008.9,"slp":1008.9,"qcField":4,"presTend":2,"metarType":"METAR","rawOb":"METAR KDCA 170252Z 25007KT 10SM FEW130 FEW250 26/13 A2979 RMK AO2 PRESRR SLP089 T02610128 53020","lat":38.8472,"lon":-77.0345,"elev":4,"name":"Washington/Reagan-National Arpt, VA, US","cover":"FEW","clouds":[{"cover":"FEW","base":13000},{"cover":"FEW","base":25000}],"fltCat":"VFR"},{"icaoId":"KATL","receiptTime":"2026-04-17T02:56:21.974Z","obsTime":1776394320,"reportTime":"2026-04-17T03:00:00.000Z","temp":22.8,"dewp":9.4,"wdir":240,"wspd":5,"visib":"10+","altim":1017.7,"slp":1016.8,"qcField":12,"presTend":1.3,"metarType":"METAR","rawOb":"METAR KATL 170252Z 24005KT 10SM FEW080 23/09 A3005 RMK AO2 SLP168 T02280094 53013 $","lat":33.6297,"lon":-84.4422,"elev":309,"name":"Atlanta/Hartsfield-Jackson Intl, GA, US","cover":"FEW","clouds":[{"cover":"FEW","base":8000}],"fltCat":"VFR"},{"icaoId":"KMKE","receiptTime":"2026-04-17T02:56:22.427Z","obsTime":1776394320,"reportTime":"2026-04-17T03:00:00.000Z","temp":6.7,"dewp":6.7,"wdir":110,"wspd":3,"visib":0.5,"altim":1013.6,"slp":1013.9,"qcField":12,"wxString":"FG","presTend":1.8,"vertVis":2,"metarType":"METAR","rawOb":"METAR KMKE 170252Z 11003KT 1/2SM R01L/2200V3000FT FG VV002 07/07 A2993 RMK AO2 TWR VIS 1 SLP139 T00670067 51018 $","lat":42.9549,"lon":-87.9045,"elev":203,"name":"Milwaukee/Mitchell Intl, WI, US","cover":"OVX","clouds":[{"cover":"OVX","base":200}],"fltCat":"LIFR"},{"icaoId":"KOKC","receiptTime":"2026-04-17T02:56:21.473Z","obsTime":1776394320,"reportTime":"2026-04-17T03:00:00.000Z","temp":23.3,"dewp":18.3,"wdir":160,"wspd":13,"visib":"10+","altim":1009.6,"slp":1008,"qcField":4,"presTend":0.1,"metarType":"METAR","rawOb":"METAR KOKC 170252Z 16013KT 10SM BKN250 23/18 A2981 RMK AO2 SLP080 T02330183 53001","lat":35.3843,"lon":-97.6003,"elev":391,"name":"Oklahoma City/Will Rogers Intl, OK, US","cover":"BKN","clouds":[{"cover":"BKN","base":25000}],"fltCat":"VFR"},{"icaoId":"KMLF","receiptTime":"2026-04-17T02:56:26.291Z","obsTime":1776394320,"reportTime":"2026-04-17T03:00:00.000Z","temp":4.4,"dewp":-10.6,"wdir":10,"wspd":23,"wgst":33,"visib":"10+","altim":1015.3,"slp":1013,"qcField":6,"presTend":3.6,"metarType":"METAR","rawOb":"METAR KMLF 170252Z AUTO 01023G33KT 10SM BKN110 04/M11 A2998 RMK AO2 PK WND 01036/0220 SLP130 T00441106 53036","lat":38.4225,"lon":-113.0109,"elev":1537,"name":"Milford Muni, UT, US","cover":"BKN","clouds":[{"cover":"BKN","base":11000}],"fltCat":"VFR"},{"icaoId":"KABQ","receiptTime":"2026-04-17T02:56:26.183Z","obsTime":1776394320,"reportTime":"2026-04-17T03:00:00.000Z","temp":21.1,"dewp":-17.8,"wdir":230,"wspd":10,"visib":"10+","altim":1011.3,"slp":1005.2,"qcField":4,"presTend":0.2,"metarType":"METAR","rawOb":"METAR KABQ 170252Z 23010KT 10SM BKN150 BKN250 21/M18 A2986 RMK AO2 SLP052 T02111178 53002","lat":35.0419,"lon":-106.6154,"elev":1620,"name":"Albuquerque Intl, NM, US","cover":"BKN","clouds":[{"cover":"BKN","base":15000},{"cover":"BKN","base":25000}],"fltCat":"VFR"},{"icaoId":"KABI","receiptTime":"2026-04-17T02:56:26.172Z","obsTime":1776394320,"reportTime":"2026-04-17T03:00:00.000Z","temp":23.3,"dewp":17.8,"wdir":160,"wspd":11,"visib":"10+","altim":1011.3,"slp":1008.8,"qcField":4,"presTend":-0.1,"metarType":"METAR","rawOb":"METAR KABI 170252Z 16011KT 10SM CLR 23/18 A2986 RMK AO2 SLP088 T02330178 55001","lat":32.4106,"lon":-99.6821,"elev":543,"name":"Abilene Rgnl, TX, US","cover":"CLR","clouds":[],"fltCat":"VFR"},{"icaoId":"KSPS","receiptTime":"2026-04-17T02:56:26.302Z","obsTime":1776394320,"reportTime":"2026-04-17T03:00:00.000Z","temp":24.4,"dewp":17.8,"wdir":180,"wspd":14,"visib":"10+","altim":1009.6,"slp":1008.2,"qcField":4,"presTend":0.2,"metarType":"METAR","rawOb":"METAR KSPS 170252Z 18014KT 10SM CLR 24/18 A2981 RMK AO2 SLP082 T02440178 53002","lat":33.9785,"lon":-98.493,"elev":310,"name":"Wichita Falls Rgnl, TX, US","cover":"CLR","clouds":[],"fltCat":"VFR"},{"icaoId":"KCLT","receiptTime":"2026-04-17T02:56:22.905Z","obsTime":1776394320,"reportTime":"2026-04-17T03:00:00.000Z","temp":23.3,"dewp":8.9,"wdir":210,"wspd":6,"visib":"10+","altim":1015,"slp":1015.4,"qcField":4,"presTend":1.2,"metarType":"METAR","rawOb":"METAR KCLT 170252Z 21006KT 10SM CLR 23/09 A2997 RMK AO2 SLP154 T02330089 53012","lat":35.2225,"lon":-80.9543,"elev":223,"name":"Charlotte/Douglas Intl, NC, US","cover":"CLR","clouds":[],"fltCat":"VFR"},{"icaoId":"KIGM","receiptTime":"2026-04-17T02:54:10.190Z","obsTime":1776394260,"reportTime":"2026-04-17T03:00:00.000Z","temp":17.8,"dewp":-8.9,"wdir":200,"wspd":8,"visib":"10+","altim":1009.9,"slp":1004.6,"qcField":6,"presTend":-0.6,"metarType":"METAR","rawOb":"METAR KIGM 170251Z AUTO 20008KT 10SM CLR 18/M09 A2982 RMK AO2 SLP046 T01781089 56006","lat":35.2575,"lon":-113.9341,"elev":1045,"name":"Kingman Arpt, AZ, US","cover":"CLR","clouds":[],"fltCat":"VFR"},{"icaoId":"KCLE","receiptTime":"2026-04-17T02:54:09.663Z","obsTime":1776394260,"reportTime":"2026-04-17T03:00:00.000Z","temp":15,"dewp":10.6,"wdir":250,"wspd":7,"visib":"10+","altim":1011.9,"slp":1013,"qcField":12,"presTend":2.1,"metarType":"METAR","rawOb":"METAR KCLE 170251Z 25007KT 10SM SCT050 15/11 A2988 RMK AO2 SLP130 T01500106 51021 $","lat":41.4057,"lon":-81.8519,"elev":237,"name":"Cleveland/Hopkins Intl, OH, US","cover":"SCT","clouds":[{"cover":"SCT","base":5000}],"fltCat":"VFR"},{"icaoId":"KCRP","receiptTime":"2026-04-17T02:54:11.099Z","obsTime":1776394260,"reportTime":"2026-04-17T03:00:00.000Z","temp":23.9,"dewp":21.7,"wdir":150,"wspd":14,"visib":"10+","altim":1014,"slp":1013.6,"qcField":12,"presTend":1,"metarType":"METAR","rawOb":"METAR KCRP 170251Z 15014KT 10SM FEW013 SCT017 24/22 A2994 RMK AO2 SLP136 T02390217 53010 $","lat":27.7734,"lon":-97.513,"elev":11,"name":"Corpus Christi Intl, TX, US","cover":"SCT","clouds":[{"cover":"FEW","base":1300},{"cover":"SCT","base":1700}],"fltCat":"VFR"},{"icaoId":"KVNY","receiptTime":"2026-04-17T02:54:10.167Z","obsTime":1776394260,"reportTime":"2026-04-17T03:00:00.000Z","temp":17.2,"dewp":9.4,"wdir":130,"wspd":5,"visib":"10+","altim":1011.3,"slp":1010.5,"qcField":12,"presTend":0.4,"metarType":"METAR","rawOb":"METAR KVNY 170251Z 13005KT 10SM CLR 17/09 A2986 RMK AO2 SLP105 T01720094 53004 $","lat":34.2121,"lon":-118.4915,"elev":241,"name":"Van Nuys Arpt, CA, US","cover":"CLR","clouds":[],"fltCat":"VFR"},{"icaoId":"KPIT","receiptTime":"2026-04-17T02:54:10.716Z","obsTime":1776394260,"reportTime":"2026-04-17T03:00:00.000Z","temp":17.8,"dewp":16.1,"wdir":210,"wspd":4,"visib":"10+","altim":1012.3,"slp":1012.1,"qcField":4,"presTend":0.9,"precip":0.01,"pcp3hr":0.01,"metarType":"METAR","rawOb":"METAR KPIT 170251Z 21004KT 10SM FEW043 18/16 A2989 RMK AO2 RAB0155E27 TSB20E37 SLP121 OCNL LTG DSNT E P0001 60001 T01780161 50009","lat":40.4814,"lon":-80.2083,"elev":339,"name":"Pittsburgh Intl, PA, US","cover":"FEW","clouds":[{"cover":"FEW","base":4300}],"fltCat":"VFR"},{"icaoId":"KELP","receiptTime":"2026-04-17T02:54:10.086Z","obsTime":1776394260,"reportTime":"2026-04-17T03:00:00.000Z","temp":25,"dewp":-10,"wdir":260,"wspd":10,"visib":"10+","altim":1011.6,"slp":1005.2,"qcField":12,"presTend":0.1,"metarType":"METAR","rawOb":"METAR KELP 170251Z 26010KT 10SM FEW250 25/M10 A2987 RMK AO2 SLP052 T02501100 53001 $","lat":31.8123,"lon":-106.3774,"elev":1205,"name":"El Paso Intl, TX, US","cover":"FEW","clouds":[{"cover":"FEW","base":25000}],"fltCat":"VFR"},{"icaoId":"KOXR","receiptTime":"2026-04-17T02:54:10.327Z","obsTime":1776394260,"reportTime":"2026-04-17T03:00:00.000Z","temp":15,"dewp":12.2,"wdir":230,"wspd":4,"visib":9,"altim":1011.3,"slp":1011.2,"qcField":12,"presTend":-0.4,"metarType":"METAR","rawOb":"METAR KOXR 170251Z 23004KT 9SM CLR 15/12 A2986 RMK AO2 SLP112 T01500122 56004 $","lat":34.2001,"lon":-119.2042,"elev":12,"name":"Oxnard Arpt, CA, US","cover":"CLR","clouds":[],"fltCat":"VFR"},{"icaoId":"KPHX","receiptTime":"2026-04-17T02:54:10.341Z","obsTime":1776394260,"reportTime":"2026-04-17T03:00:00.000Z","temp":27.2,"dewp":-12.2,"wdir":260,"wspd":9,"visib":"10+","altim":1006.9,"slp":1005.4,"qcField":12,"presTend":-0.4,"metarType":"METAR","rawOb":"METAR KPHX 170251Z 26009KT 10SM FEW140 FEW200 BKN250 27/M12 A2973 RMK AO2 SLP054 T02721122 55004 $","lat":33.4278,"lon":-112.0037,"elev":338,"name":"Phoenix/Sky Harbor Intl, AZ, US","cover":"BKN","clouds":[{"cover":"FEW","base":14000},{"cover":"FEW","base":20000},{"cover":"BKN","base":25000}],"fltCat":"VFR"},{"icaoId":"KROW","receiptTime":"2026-04-17T02:54:10.447Z","obsTime":1776394260,"reportTime":"2026-04-17T03:00:00.000Z","temp":19.4,"dewp":-7.8,"wdir":250,"wspd":8,"visib":"10+","altim":1010.2,"slp":1005.5,"qcField":14,"presTend":0.4,"metarType":"METAR","rawOb":"METAR KROW 170251Z AUTO 25008KT 10SM CLR 19/M08 A2983 RMK AO2 SLP055 T01941078 53004 $","lat":33.3074,"lon":-104.5082,"elev":1105,"name":"Roswell/Ind Arpt, NM, US","cover":"CLR","clouds":[],"fltCat":"VFR"},{"icaoId":"KSAT","receiptTime":"2026-04-17T02:54:10.766Z","obsTime":1776394260,"reportTime":"2026-04-17T03:00:00.000Z","temp":25,"dewp":18.9,"wdir":140,"wspd":12,"wgst":23,"visib":"10+","altim":1014,"slp":1011.9,"qcField":4,"presTend":1.7,"metarType":"METAR","rawOb":"METAR KSAT 170251Z 14012G23KT 10SM FEW060 SCT250 25/19 A2994 RMK AO2 PK WND 13027/0157 SLP119 T02500189 53017","lat":29.5443,"lon":-98.4839,"elev":246,"name":"San Antonio Intl, TX, US","cover":"SCT","clouds":[{"cover":"FEW","base":6000},{"cover":"SCT","base":25000}],"fltCat":"VFR"},{"icaoId":"KSTL","receiptTime":"2026-04-17T02:54:10.567Z","obsTime":1776394260,"reportTime":"2026-04-17T03:00:00.000Z","temp":22.2,"dewp":15.6,"wdir":200,"wspd":7,"visib":"10+","altim":1013.6,"slp":1012.7,"qcField":12,"presTend":1.7,"metarType":"METAR","rawOb":"METAR KSTL 170251Z 20007KT 10SM CLR 22/16 A2993 RMK AO2 SLP127 T02220156 53017 $","lat":38.7525,"lon":-90.3734,"elev":163,"name":"St Louis/Lambert Intl, MO, US","cover":"CLR","clouds":[],"fltCat":"VFR"},{"icaoId":"KACT","receiptTime":"2026-04-17T02:54:10.871Z","obsTime":1776394260,"reportTime":"2026-04-17T03:00:00.000Z","temp":26.1,"dewp":17.8,"wdir":160,"wspd":14,"visib":"10+","altim":1011.9,"slp":1011.2,"qcField":4,"presTend":0.1,"metarType":"METAR","rawOb":"METAR KACT 170251Z 16014KT 10SM CLR 26/18 A2988 RMK AO2 SLP112 T02610178 53001","lat":31.618,"lon":-97.2283,"elev":150,"name":"Waco Rgnl, TX, US","cover":"CLR","clouds":[],"fltCat":"VFR"},{"icaoId":"KORF","receiptTime":"2026-04-17T02:54:10.315Z","obsTime":1776394260,"reportTime":"2026-04-17T03:00:00.000Z","temp":24.4,"dewp":16.7,"wdir":210,"wspd":14,"visib":"10+","altim":1011.3,"slp":1011.1,"qcField":4,"presTend":0.9,"metarType":"METAR","rawOb":"METAR KORF 170251Z 21014KT 10SM CLR 24/17 A2986 RMK AO2 SLP111 T02440167 51009","lat":36.9037,"lon":-76.1927,"elev":5,"name":"Norfolk Intl, VA, US","cover":"CLR","clouds":[],"fltCat":"VFR"},{"icaoId":"KMYL","receiptTime":"2026-04-17T02:54:10.292Z","obsTime":1776394260,"reportTime":"2026-04-17T03:00:00.000Z","temp":-2.2,"dewp":-5.6,"wdir":40,"wspd":5,"visib":"10+","altim":1019.7,"slp":1023.2,"qcField":6,"presTend":2,"precip":0.005,"pcp3hr":0.005,"metarType":"METAR","rawOb":"METAR KMYL 170251Z AUTO 04005KT 10SM SCT045 SCT055 M02/M06 A3011 RMK AO2 SNB18E27 SLP232 P0000 60000 T10221056 53020","lat":44.8943,"lon":-116.0998,"elev":1532,"name":"McCall Muni, ID, US","cover":"SCT","clouds":[{"cover":"SCT","base":4500},{"cover":"SCT","base":5500}],"fltCat":"VFR"},{"icaoId":"KJFK","receiptTime":"2026-04-17T02:54:10.231Z","obsTime":1776394260,"reportTime":"2026-04-17T03:00:00.000Z","temp":14.4,"dewp":12.2,"wdir":190,"wspd":8,"visib":"10+","altim":1007.2,"slp":1007,"qcField":4,"presTend":-0.2,"metarType":"METAR","rawOb":"METAR KJFK 170251Z 19008KT 10SM SCT250 14/12 A2974 RMK AO2 SLP070 T01440122 58002","lat":40.6392,"lon":-73.7639,"elev":3,"name":"New York/JF Kennedy Intl, NY, US","cover":"SCT","clouds":[{"cover":"SCT","base":25000}],"fltCat":"VFR"},{"icaoId":"KLGU","receiptTime":"2026-04-17T02:54:10.242Z","obsTime":1776394260,"reportTime":"2026-04-17T03:00:00.000Z","temp":0,"dewp":-5,"wdir":190,"wspd":4,"visib":"10+","altim":1017.4,"slp":1018.1,"qcField":6,"presTend":1.3,"metarType":"METAR","rawOb":"METAR KLGU 170251Z AUTO 19004KT 10SM BKN075 00/M05 A3004 RMK AO2 SLP181 T00001050 53013","lat":41.7865,"lon":-111.8519,"elev":1359,"name":"Logan/Cache Arpt, UT, US","cover":"BKN","clouds":[{"cover":"BKN","base":7500}],"fltCat":"VFR"},{"icaoId":"KEWR","receiptTime":"2026-04-17T02:54:10.097Z","obsTime":1776394260,"reportTime":"2026-04-17T03:00:00.000Z","temp":25.6,"dewp":13.3,"wdir":200,"wspd":10,"visib":"10+","altim":1006.2,"slp":1006,"qcField":4,"metarType":"METAR","rawOb":"METAR KEWR 170251Z 20010KT 10SM SCT250 26/13 A2971 RMK AO2 SLP060 T02560133 50000","lat":40.6828,"lon":-74.1692,"elev":2,"name":"Newark Intl, NJ, US","cover":"SCT","clouds":[{"cover":"SCT","base":25000}],"fltCat":"VFR"},{"icaoId":"KPVD","receiptTime":"2026-04-17T02:54:10.408Z","obsTime":1776394260,"reportTime":"2026-04-17T03:00:00.000Z","temp":11.7,"dewp":10,"wdir":160,"wspd":5,"visib":8,"altim":1007.2,"slp":1007.2,"qcField":12,"presTend":-0.2,"metarType":"METAR","rawOb":"METAR KPVD 170251Z 16005KT 8SM CLR 12/10 A2974 RMK AO2 SLP072 T01170100 58002 $","lat":41.7225,"lon":-71.4325,"elev":15,"name":"Providence/Green Mem, RI, US","cover":"CLR","clouds":[],"fltCat":"VFR"},{"icaoId":"KGEU","receiptTime":"2026-04-17T02:53:15.187Z","obsTime":1776394260,"reportTime":"2026-04-17T03:00:00.000Z","temp":27,"dewp":-13,"wdir":210,"wspd":10,"visib":"10+","altim":1006.2,"qcField":0,"metarType":"METAR","rawOb":"METAR KGEU 170251Z 21010KT 10SM OVC230 27/M13 A2971","lat":33.528,"lon":-112.293,"elev":319,"name":"Glendale Muni, AZ, US","cover":"OVC","clouds":[{"cover":"OVC","base":23000}],"fltCat":"VFR"},{"icaoId":"KSAN","receiptTime":"2026-04-17T02:54:10.470Z","obsTime":1776394260,"reportTime":"2026-04-17T03:00:00.000Z","temp":17.2,"dewp":12.8,"wdir":"VRB","wspd":5,"visib":"10+","altim":1013,"slp":1012.9,"qcField":12,"presTend":-0.2,"metarType":"METAR","rawOb":"METAR KSAN 170251Z VRB05KT 10SM SCT017 SCT250 17/13 A2991 RMK AO2 SLP129 T01720128 55002 $","lat":32.7364,"lon":-117.1973,"elev":3,"name":"San Diego Intl Arpt, CA, US","cover":"SCT","clouds":[{"cover":"SCT","base":1700},{"cover":"SCT","base":25000}],"fltCat":"VFR"},{"icaoId":"KORD","receiptTime":"2026-04-17T02:54:10.304Z","obsTime":1776394260,"reportTime":"2026-04-17T03:00:00.000Z","temp":10.6,"dewp":9.4,"wdir":110,"wspd":5,"visib":"10+","altim":1013.6,"slp":1013.5,"qcField":12,"presTend":2,"metarType":"METAR","rawOb":"METAR KORD 170251Z 11005KT 10SM FEW005 11/09 A2993 RMK AO2 SLP135 T01060094 53020 $","lat":41.9602,"lon":-87.9316,"elev":202,"name":"Chicago/O'Hare Intl, IL, US","cover":"FEW","clouds":[{"cover":"FEW","base":500}],"fltCat":"VFR"},{"icaoId":"KBDL","receiptTime":"2026-04-17T02:54:10.937Z","obsTime":1776394260,"reportTime":"2026-04-17T03:00:00.000Z","temp":21.1,"dewp":13.3,"wdir":170,"wspd":7,"visib":"10+","altim":1005.5,"slp":1005.3,"qcField":4,"presTend":-0.4,"metarType":"METAR","rawOb":"METAR KBDL 170251Z 17007KT 10SM SCT250 21/13 A2969 RMK AO2 SLP053 T02110133 58004","lat":41.9374,"lon":-72.682,"elev":52,"name":"Hartford/Bradley Intl, CT, US","cover":"SCT","clouds":[{"cover":"SCT","base":25000}],"fltCat":"VFR"},{"icaoId":"KCMH","receiptTime":"2026-04-17T02:54:11.056Z","obsTime":1776394260,"reportTime":"2026-04-17T03:00:00.000Z","temp":18.3,"dewp":11.7,"wdir":350,"wspd":7,"visib":"10+","altim":1013.6,"slp":1012.9,"qcField":4,"presTend":2,"precip":0.005,"pcp3hr":0.005,"metarType":"METAR","rawOb":"METAR KCMH 170251Z 35007KT 10SM FEW080 BKN100 18/12 A2993 RMK AO2 RAB21E41 SLP129 P0000 60000 T01830117 53020","lat":39.9907,"lon":-82.877,"elev":257,"name":"Columbus/Glenn Intl, OH, US","cover":"BKN","clouds":[{"cover":"FEW","base":8000},{"cover":"BKN","base":10000}],"fltCat":"VFR"},{"icaoId":"KLGA","receiptTime":"2026-04-17T02:56:22.980Z","obsTime":1776394260,"reportTime":"2026-04-17T03:00:00.000Z","temp":22.2,"dewp":12.2,"wdir":190,"wspd":10,"visib":"10+","altim":1006.2,"slp":1006,"qcField":4,"presTend":-0.2,"metarType":"METAR","rawOb":"METAR KLGA 170251Z 19010KT 10SM SCT250 22/12 A2971 RMK AO2 SLP060 T02220122 58002","lat":40.7794,"lon":-73.8803,"elev":9,"name":"New York/La Guardia Arpt, NY, US","cover":"SCT","clouds":[{"cover":"SCT","base":25000}],"fltCat":"VFR"},{"icaoId":"KRDU","receiptTime":"2026-04-17T02:54:10.436Z","obsTime":1776394260,"reportTime":"2026-04-17T03:00:00.000Z","temp":23.9,"dewp":10.6,"wdir":220,"wspd":9,"visib":"10+","altim":1013.6,"slp":1013.1,"qcField":4,"presTend":1.5,"metarType":"METAR","rawOb":"METAR KRDU 170251Z 22009KT 10SM FEW250 24/11 A2993 RMK AO2 SLP131 T02390106 51015","lat":35.8923,"lon":-78.782,"elev":121,"name":"Raleigh-Durham Intl, NC, US","cover":"FEW","clouds":[{"cover":"FEW","base":25000}],"fltCat":"VFR"},{"icaoId":"KSAD","receiptTime":"2026-04-17T02:54:10.457Z","obsTime":1776394260,"reportTime":"2026-04-17T03:00:00.000Z","temp":24.4,"dewp":-13.9,"wdir":270,"wspd":12,"visib":"10+","altim":1009.2,"slp":1005.2,"qcField":6,"metarType":"METAR","rawOb":"METAR KSAD 170251Z AUTO 27012KT 10SM CLR 24/M14 A2980 RMK AO2 SLP052 T02441139 55000","lat":32.8565,"lon":-109.636,"elev":937,"name":"Safford Rgnl, AZ, US","cover":"CLR","clouds":[],"fltCat":"VFR"},{"icaoId":"KADM","receiptTime":"2026-04-17T02:55:50.541Z","obsTime":1776394200,"reportTime":"2026-04-17T03:00:00.000Z","temp":24,"dewp":19,"wdir":160,"wspd":6,"visib":"10+","altim":1010.9,"qcField":0,"metarType":"METAR","rawOb":"METAR KADM 170250Z 16006KT 10SM CLR 24/19 A2985","lat":34.3007,"lon":-97.0089,"elev":223,"name":"Ardmore Muni, OK, US","cover":"CLR","clouds":[],"fltCat":"VFR"},{"icaoId":"KNFL","receiptTime":"2026-04-17T02:53:04.972Z","obsTime":1776394200,"reportTime":"2026-04-17T02:50:00.000Z","temp":5,"dewp":-11.7,"wdir":20,"wspd":21,"wgst":35,"visib":3,"altim":1020.7,"qcField":4,"wxString":"BLDU","metarType":"SPECI","rawOb":"SPECI KNFL 170250Z 02021G35KT 3SM BLDU CLR 05/M12 A3014 RMK AO2 PK WND 01035/0250 VIS S-SE 2 T00501117 ","lat":39.417,"lon":-118.705,"elev":1199,"name":"Fallon , NV, US","cover":"CLR","clouds":[],"fltCat":"MVFR"},{"icaoId":"KIWA","receiptTime":"2026-04-17T02:51:39.153Z","obsTime":1776394200,"reportTime":"2026-04-17T03:00:00.000Z","temp":27,"dewp":-5,"wdir":290,"wspd":6,"visib":"10+","altim":1008.2,"qcField":0,"metarType":"METAR","rawOb":"METAR KIWA 170250Z 29006KT 10SM CLR 27/M05 A2977","lat":33.3008,"lon":-111.6437,"elev":420,"name":"Phoenix/Mesa Gateway Arpt, AZ, US","cover":"CLR","clouds":[],"fltCat":"VFR"},{"icaoId":"KAEG","receiptTime":"2026-04-17T02:54:39.777Z","obsTime":1776394200,"reportTime":"2026-04-17T03:00:00.000Z","temp":16,"dewp":-19,"wdir":270,"wspd":7,"visib":"10+","altim":1012.6,"qcField":0,"metarType":"METAR","rawOb":"METAR KAEG 170250Z 27007KT 10SM CLR 16/M19 A2990","lat":35.15,"lon":-106.7929,"elev":1771,"name":"Albuquerque/Double Eagle Arpt, NM, US","cover":"CLR","clouds":[],"fltCat":"VFR"},{"icaoId":"KGYR","receiptTime":"2026-04-17T02:40:20.039Z","obsTime":1776394020,"reportTime":"2026-04-17T03:00:00.000Z","temp":26,"dewp":-9,"wdir":220,"wspd":7,"visib":"10+","altim":1007.2,"qcField":0,"metarType":"METAR","rawOb":"METAR KGYR 170247Z 22007KT 10SM BKN250 26/M09 A2974","lat":33.428,"lon":-112.368,"elev":292,"name":"Phoenix/Goodyear Muni, AZ, US","cover":"BKN","clouds":[{"cover":"BKN","base":25000}],"fltCat":"VFR"},{"icaoId":"KCHD","receiptTime":"2026-04-17T02:50:18.964Z","obsTime":1776394020,"reportTime":"2026-04-17T03:00:00.000Z","temp":27,"dewp":-5,"wdir":270,"wspd":10,"visib":"10+","altim":1007.9,"qcField":0,"metarType":"METAR","rawOb":"METAR KCHD 170247Z 27010KT 10SM CLR 27/M05 A2976","lat":33.2669,"lon":-111.8086,"elev":378,"name":"Chandler Muni, AZ, US","cover":"CLR","clouds":[],"fltCat":"VFR"},{"icaoId":"KRYN","receiptTime":"2026-04-17T02:45:50.689Z","obsTime":1776393900,"reportTime":"2026-04-17T03:00:00.000Z","temp":22,"dewp":-18,"wdir":240,"wspd":6,"visib":"10+","altim":1009.6,"qcField":0,"metarType":"METAR","rawOb":"METAR KRYN 170245Z 24006KT 10SM CLR 22/M18 A2981","lat":32.1418,"lon":-111.1767,"elev":731,"name":"Tucson/Ryan Fld, AZ, US","cover":"CLR","clouds":[],"fltCat":"VFR"},{"icaoId":"KSOW","receiptTime":"2026-04-17T02:38:22.429Z","obsTime":1776393300,"reportTime":"2026-04-17T02:35:00.000Z","temp":13,"dewp":-14,"wdir":210,"wspd":14,"visib":"10+","altim":1015.3,"qcField":6,"metarType":"METAR","rawOb":"METAR KSOW 170235Z AUTO 21014KT 10SM CLR 13/M14 A2998 RMK AO2","lat":34.2686,"lon":-110.0019,"elev":1954,"name":"Show Low Muni, AZ, US","cover":"CLR","clouds":[],"fltCat":"VFR"},{"icaoId":"KLUF","receiptTime":"2026-04-17T02:08:17.370Z","obsTime":1776390900,"reportTime":"2026-04-17T02:00:00.000Z","temp":28.8,"dewp":-14.6,"wdir":220,"wspd":10,"visib":"10+","altim":1006.5,"slp":1005.4,"qcField":14,"metarType":"METAR","rawOb":"METAR KLUF 170155Z AUTO 22010KT 10SM CLR 29/M15 A2972 RMK AO2 SLP054 T02881146 $","lat":33.538,"lon":-112.38,"elev":333,"name":"Phoenix/Luke AFB, AZ, US","cover":"CLR","clouds":[],"fltCat":"VFR"},{"icaoId":"KEND","receiptTime":"2026-04-17T02:16:04.724Z","obsTime":1776390900,"reportTime":"2026-04-17T02:00:00.000Z","temp":24.6,"dewp":10.1,"wdir":150,"wspd":14,"visib":"10+","altim":1005.8,"slp":1004.8,"qcField":14,"metarType":"METAR","rawOb":"METAR KEND 170155Z AUTO 15014KT 10SM CLR 25/10 A2970 RMK AO2 SLP048 T02460101 $","lat":36.338,"lon":-97.919,"elev":392,"name":"Enid/Vance AFB, OK, US","cover":"CLR","clouds":[],"fltCat":"VFR"},{"icaoId":"KASE","receiptTime":"2026-04-17T01:56:25.020Z","obsTime":1776390780,"reportTime":"2026-04-17T02:00:00.000Z","temp":11.7,"dewp":-14.4,"wdir":0,"wspd":0,"visib":"10+","altim":1009.2,"slp":1000.8,"qcField":6,"metarType":"METAR","rawOb":"METAR KASE 170153Z AUTO 00000KT 10SM CLR 12/M14 A2980 RMK AO2 SLP008 T01171144","lat":39.2299,"lon":-106.8705,"elev":2384,"name":"Aspen/Pitkin Cnty, CO, US","cover":"CLR","clouds":[],"fltCat":"VFR"}]