[{"icaoId":"KCHD","receiptTime":"2026-04-07T07:38:15.025Z","obsTime":1775547300,"reportTime":"2026-04-07T07:35:00.000Z","temp":21.5,"dewp":7,"wdir":0,"wspd":0,"visib":"10+","altim":1013.3,"qcField":6,"metarType":"METAR","rawOb":"METAR KCHD 070735Z AUTO 00000KT 10SM CLR 21/07 A2992 RMK AO2 T02150070","lat":33.2669,"lon":-111.8086,"elev":378,"name":"Chandler Muni, AZ, US","cover":"CLR","clouds":[],"fltCat":"VFR"},{"icaoId":"KSOW","receiptTime":"2026-04-07T07:38:18.588Z","obsTime":1775547300,"reportTime":"2026-04-07T07:35:00.000Z","temp":7,"dewp":6,"wdir":0,"wspd":0,"visib":"10+","altim":1021.1,"qcField":6,"metarType":"METAR","rawOb":"METAR KSOW 070735Z AUTO 00000KT 10SM FEW014 SCT023 OVC038 07/06 A3015 RMK AO2","lat":34.2686,"lon":-110.0019,"elev":1954,"name":"Show Low Muni, AZ, US","cover":"OVC","clouds":[{"cover":"FEW","base":1400},{"cover":"SCT","base":2300},{"cover":"OVC","base":3800}],"fltCat":"VFR"},{"icaoId":"KHII","receiptTime":"2026-04-07T07:42:06.151Z","obsTime":1775547300,"reportTime":"2026-04-07T07:35:00.000Z","temp":23,"dewp":-6,"wdir":140,"wspd":4,"visib":"10+","altim":1011.6,"qcField":6,"metarType":"METAR","rawOb":"METAR KHII 070735Z AUTO 14004KT 10SM CLR 23/M06 A2987 RMK AO2","lat":34.5659,"lon":-114.3522,"elev":241,"name":"Lake Havasu City Arpt, AZ, US","cover":"CLR","clouds":[],"fltCat":"VFR"},{"icaoId":"KIFP","receiptTime":"2026-04-07T07:40:18.634Z","obsTime":1775547300,"reportTime":"2026-04-07T07:35:00.000Z","temp":21,"dewp":-6,"wdir":0,"wspd":0,"visib":"10+","altim":1010.9,"qcField":6,"metarType":"METAR","rawOb":"METAR KIFP 070735Z AUTO 00000KT 10SM CLR 21/M06 A2985 RMK AO2","lat":35.1487,"lon":-114.5611,"elev":210,"name":"Bullhead City Intl, AZ, US","cover":"CLR","clouds":[],"fltCat":"VFR"},{"icaoId":"KSEZ","receiptTime":"2026-04-07T07:40:22.494Z","obsTime":1775547300,"reportTime":"2026-04-07T07:35:00.000Z","temp":12,"dewp":5,"wdir":50,"wspd":7,"visib":"10+","altim":1019,"qcField":6,"metarType":"METAR","rawOb":"METAR KSEZ 070735Z AUTO 05007KT 10SM CLR 12/05 A3009 RMK AO2","lat":34.8467,"lon":-111.7884,"elev":1455,"name":"Sedona Arpt, AZ, US","cover":"CLR","clouds":[],"fltCat":"VFR"},{"icaoId":"KIWA","receiptTime":"2026-04-07T07:40:18.703Z","obsTime":1775547300,"reportTime":"2026-04-07T07:35:00.000Z","temp":21,"dewp":7,"wdir":300,"wspd":3,"visib":"10+","altim":1013.6,"qcField":6,"metarType":"METAR","rawOb":"METAR KIWA 070735Z AUTO 30003KT 10SM CLR 21/07 A2993 RMK AO2 T02100070","lat":33.3008,"lon":-111.6437,"elev":420,"name":"Phoenix/Mesa Gateway Arpt, AZ, US","cover":"CLR","clouds":[],"fltCat":"VFR"},{"icaoId":"KSJN","receiptTime":"2026-04-07T07:20:14.567Z","obsTime":1775546160,"reportTime":"2026-04-07T07:16:00.000Z","temp":8.3,"dewp":6.7,"wdir":0,"wspd":0,"visib":"10+","altim":1020.1,"qcField":6,"wxString":"-RA","precip":0.005,"metarType":"SPECI","rawOb":"SPECI KSJN 070716Z AUTO 00000KT 10SM -RA BKN016 OVC033 08/07 A3012 RMK AO2 RAB06 P0000 T00830067","lat":34.5184,"lon":-109.3801,"elev":1747,"name":"St Johns Ind Arpt, AZ, US","cover":"OVC","clouds":[{"cover":"BKN","base":1600},{"cover":"OVC","base":3300}],"fltCat":"MVFR"},{"icaoId":"KINW","receiptTime":"2026-04-07T07:10:04.845Z","obsTime":1775545560,"reportTime":"2026-04-07T07:06:00.000Z","temp":10.6,"dewp":8.9,"wdir":0,"wspd":0,"visib":"10+","altim":1020.1,"qcField":6,"metarType":"SPECI","rawOb":"SPECI KINW 070706Z AUTO 00000KT 10SM FEW006 SCT070 OVC090 11/09 A3012 RMK AO2 T01060089","lat":35.0279,"lon":-110.7221,"elev":1492,"name":"Winslow/Lindberg Rgnl, AZ, US","cover":"OVC","clouds":[{"cover":"FEW","base":600},{"cover":"SCT","base":7000},{"cover":"OVC","base":9000}],"fltCat":"VFR"},{"icaoId":"KFLG","receiptTime":"2026-04-07T07:00:22.454Z","obsTime":1775545020,"reportTime":"2026-04-07T07:00:00.000Z","temp":5,"dewp":3.9,"wdir":0,"wspd":0,"visib":"10+","altim":1021.4,"slp":1015.1,"qcField":6,"maxT24":13.9,"minT24":3.9,"metarType":"METAR","rawOb":"METAR KFLG 070657Z AUTO 00000KT 10SM OVC100 05/04 A3016 RMK AO2 SLP151 T00500039 401390039","lat":35.1443,"lon":-111.6664,"elev":2134,"name":"Flagstaff/Pulliam Arpt, AZ, US","cover":"OVC","clouds":[{"cover":"OVC","base":10000}],"fltCat":"VFR"},{"icaoId":"KNYL","receiptTime":"2026-04-07T07:00:26.504Z","obsTime":1775545020,"reportTime":"2026-04-07T07:00:00.000Z","temp":23.9,"dewp":6.1,"wdir":310,"wspd":7,"visib":"10+","altim":1011.3,"slp":1010.8,"qcField":6,"maxT24":33.3,"minT24":19.4,"metarType":"METAR","rawOb":"METAR KNYL 070657Z AUTO 31007KT 10SM CLR 24/06 A2986 RMK AO2 SLP108 T02390061 403330194","lat":32.66,"lon":-114.6078,"elev":58,"name":"Yuma , AZ, US","cover":"CLR","clouds":[],"fltCat":"VFR"},{"icaoId":"KDUG","receiptTime":"2026-04-07T07:02:12.428Z","obsTime":1775544960,"reportTime":"2026-04-07T07:00:00.000Z","temp":14.4,"dewp":5,"wdir":150,"wspd":5,"visib":"10+","altim":1016.3,"slp":1011.4,"qcField":38,"maxT24":22.2,"minT24":13.3,"metarType":"METAR","rawOb":"METAR KDUG 070656Z AUTO 15005KT 10SM CLR 14/05 A3001 RMK AO2 SLP114 T01440050 402220133 TSNO","lat":31.4725,"lon":-109.6022,"elev":1260,"name":"Douglas/Bisbee Intl, AZ, US","cover":"CLR","clouds":[],"fltCat":"VFR"},{"icaoId":"KCGZ","receiptTime":"2026-04-07T06:58:35.707Z","obsTime":1775544960,"reportTime":"2026-04-07T07:00:00.000Z","temp":21.1,"dewp":6.1,"wdir":50,"wspd":5,"visib":"10+","altim":1013.6,"slp":1012.1,"qcField":14,"maxT24":28.3,"minT24":21.1,"metarType":"METAR","rawOb":"METAR KCGZ 070656Z AUTO 05005KT 10SM CLR 21/06 A2993 RMK AO2 SLP121 T02110061 402830211 $","lat":32.9531,"lon":-111.7725,"elev":444,"name":"Casa Granda Muni, AZ, US","cover":"CLR","clouds":[],"fltCat":"VFR"},{"icaoId":"KLUF","receiptTime":"2026-04-07T07:04:03.225Z","obsTime":1775544900,"reportTime":"2026-04-07T07:00:00.000Z","temp":22.4,"dewp":4.9,"wdir":0,"wspd":0,"visib":"10+","altim":1012.6,"slp":1011.4,"qcField":12,"maxT24":30.7,"minT24":22.1,"metarType":"METAR","rawOb":"METAR KLUF 070655Z 00000KT 10SM SCT140 22/05 A2990 RMK AO2A SLP114 T02240049 403070221 $","lat":33.538,"lon":-112.38,"elev":333,"name":"Phoenix/Luke AFB, AZ, US","cover":"SCT","clouds":[{"cover":"SCT","base":14000}],"fltCat":"VFR"},{"icaoId":"KFFZ","receiptTime":"2026-04-07T06:58:26.769Z","obsTime":1775544840,"reportTime":"2026-04-07T07:00:00.000Z","temp":21.1,"dewp":7.8,"wdir":70,"wspd":4,"visib":"10+","altim":1013,"slp":1010.8,"qcField":4,"maxT24":28.3,"minT24":21.1,"metarType":"METAR","rawOb":"METAR KFFZ 070654Z 07004KT 10SM CLR 21/08 A2991 RMK AO2 SLP108 T02110078 402830211","lat":33.4659,"lon":-111.7212,"elev":420,"name":"Mesa/Falcon Fld, AZ, US","cover":"CLR","clouds":[],"fltCat":"VFR"},{"icaoId":"KGCN","receiptTime":"2026-04-07T06:58:07.333Z","obsTime":1775544840,"reportTime":"2026-04-07T07:00:00.000Z","temp":2.8,"dewp":2.8,"wdir":0,"wspd":0,"visib":9,"altim":1021.4,"slp":1016.8,"qcField":6,"maxT24":16.7,"minT24":1.7,"metarType":"METAR","rawOb":"METAR KGCN 070654Z AUTO 00000KT 9SM FEW100 03/03 A3016 RMK AO2 SLP168 T00280028 401670017","lat":35.9458,"lon":-112.1554,"elev":1993,"name":"Grand Canyon Park Arpt, AZ, US","cover":"FEW","clouds":[{"cover":"FEW","base":10000}],"fltCat":"VFR"},{"icaoId":"KOLS","receiptTime":"2026-04-07T06:58:08.927Z","obsTime":1775544840,"reportTime":"2026-04-07T07:00:00.000Z","temp":15,"dewp":0.6,"wdir":90,"wspd":5,"visib":"10+","altim":1016,"slp":1010.6,"qcField":6,"maxT24":25,"minT24":15,"metarType":"METAR","rawOb":"METAR KOLS 070654Z AUTO 09005KT 10SM CLR 15/01 A3000 RMK AO2 SLP106 T01500006 402500150","lat":31.4208,"lon":-110.8465,"elev":1194,"name":"Nogales Intl, AZ, US","cover":"CLR","clouds":[],"fltCat":"VFR"},{"icaoId":"KPRC","receiptTime":"2026-04-07T06:56:32.933Z","obsTime":1775544780,"reportTime":"2026-04-07T07:00:00.000Z","temp":8.9,"dewp":2.2,"wdir":180,"wspd":5,"visib":"10+","altim":1019,"slp":1013.5,"qcField":6,"maxT24":20,"minT24":8.9,"metarType":"METAR","rawOb":"METAR KPRC 070653Z AUTO 18005KT 10SM CLR 09/02 A3009 RMK AO2 SLP135 T00890022 402000089","lat":34.6491,"lon":-112.4223,"elev":1528,"name":"Prescott/Love Fld, AZ, US","cover":"CLR","clouds":[],"fltCat":"VFR"},{"icaoId":"KPGA","receiptTime":"2026-04-07T06:56:31.588Z","obsTime":1775544780,"reportTime":"2026-04-07T07:00:00.000Z","temp":15.6,"dewp":2.2,"wdir":0,"wspd":0,"visib":"10+","altim":1016.7,"slp":1012.4,"qcField":14,"maxT24":21.7,"minT24":11.1,"metarType":"METAR","rawOb":"METAR KPGA 070653Z AUTO 00000KT 10SM CLR 16/02 A3002 RMK AO2 SLP124 T01560022 402170111 $","lat":36.9211,"lon":-111.4487,"elev":1310,"name":"Page Muni, AZ, US","cover":"CLR","clouds":[],"fltCat":"VFR"},{"icaoId":"KSDL","receiptTime":"2026-04-07T06:56:35.252Z","obsTime":1775544780,"reportTime":"2026-04-07T07:00:00.000Z","temp":22.2,"dewp":6.1,"wdir":230,"wspd":3,"visib":"10+","altim":1013.3,"slp":1011.1,"qcField":6,"maxT24":28.3,"minT24":21.7,"metarType":"METAR","rawOb":"METAR KSDL 070653Z AUTO 23003KT 10SM FEW120 22/06 A2992 RMK AO2 SLP111 T02220061 402830217","lat":33.6123,"lon":-111.9232,"elev":438,"name":"Scottsdale Muni, AZ, US","cover":"FEW","clouds":[{"cover":"FEW","base":12000}],"fltCat":"VFR"},{"icaoId":"KDVT","receiptTime":"2026-04-07T06:56:35.620Z","obsTime":1775544780,"reportTime":"2026-04-07T07:00:00.000Z","temp":21.1,"dewp":6.1,"wdir":20,"wspd":3,"visib":"10+","altim":1013.3,"slp":1011.3,"qcField":6,"maxT24":29.4,"minT24":21.1,"metarType":"METAR","rawOb":"METAR KDVT 070653Z AUTO 02003KT 10SM CLR 21/06 A2992 RMK AO2 SLP113 T02110061 402940211","lat":33.6902,"lon":-112.0662,"elev":454,"name":"Phoenix/Deer Valley Arpt, AZ, US","cover":"CLR","clouds":[],"fltCat":"VFR"},{"icaoId":"KTUS","receiptTime":"2026-04-07T06:56:32.669Z","obsTime":1775544780,"reportTime":"2026-04-07T07:00:00.000Z","temp":19.4,"dewp":5.6,"wdir":310,"wspd":6,"visib":"10+","altim":1015,"slp":1011,"qcField":4,"maxT24":27.2,"minT24":19.4,"metarType":"METAR","rawOb":"METAR KTUS 070653Z 31006KT 10SM CLR 19/06 A2997 RMK AO2 SLP110 T01940056 402720194","lat":32.1315,"lon":-110.9564,"elev":776,"name":"Tucson Intl Arpt, AZ, US","cover":"CLR","clouds":[],"fltCat":"VFR"},{"icaoId":"KSAD","receiptTime":"2026-04-07T06:54:08.820Z","obsTime":1775544660,"reportTime":"2026-04-07T07:00:00.000Z","temp":16.7,"dewp":6.7,"wdir":0,"wspd":0,"visib":"10+","altim":1016,"slp":1012.3,"qcField":6,"maxT24":21.1,"minT24":14.4,"metarType":"METAR","rawOb":"METAR KSAD 070651Z AUTO 00000KT 10SM OVC110 17/07 A3000 RMK AO2 SLP123 T01670067 402110144","lat":32.8565,"lon":-109.636,"elev":937,"name":"Safford Rgnl, AZ, US","cover":"OVC","clouds":[{"cover":"OVC","base":11000}],"fltCat":"VFR"},{"icaoId":"KPHX","receiptTime":"2026-04-07T06:54:08.673Z","obsTime":1775544660,"reportTime":"2026-04-07T07:00:00.000Z","temp":22.8,"dewp":6.7,"wdir":100,"wspd":5,"visib":"10+","altim":1012.6,"slp":1010.9,"qcField":4,"maxT24":30.6,"minT24":22.8,"metarType":"METAR","rawOb":"METAR KPHX 070651Z 10005KT 10SM FEW120 FEW150 FEW200 23/07 A2990 RMK AO2 SLP109 T02280067 403060228","lat":33.4278,"lon":-112.0037,"elev":338,"name":"Phoenix/Sky Harbor Intl, AZ, US","cover":"FEW","clouds":[{"cover":"FEW","base":12000},{"cover":"FEW","base":15000},{"cover":"FEW","base":20000}],"fltCat":"VFR"},{"icaoId":"KIGM","receiptTime":"2026-04-07T06:54:08.516Z","obsTime":1775544660,"reportTime":"2026-04-07T07:00:00.000Z","temp":15.6,"dewp":-1.1,"wdir":130,"wspd":12,"visib":"10+","altim":1016,"slp":1010,"qcField":6,"maxT24":27.2,"minT24":12.8,"metarType":"METAR","rawOb":"METAR KIGM 070651Z AUTO 13012KT 10SM CLR 16/M01 A3000 RMK AO2 SLP100 T01561011 402720128","lat":35.2575,"lon":-113.9341,"elev":1045,"name":"Kingman Arpt, AZ, US","cover":"CLR","clouds":[],"fltCat":"VFR"}]