[{"icaoId":"KBOI","receiptTime":"2026-04-14T19:06:06.342Z","obsTime":1776193320,"reportTime":"2026-04-14T19:02:00.000Z","temp":11.1,"dewp":1.1,"visib":"10+","altim":1017,"qcField":4,"metarType":"SPECI","rawOb":"SPECI KBOI 141902Z 10SM FEW046 11/01 A3003 RMK AO2 T01110011","lat":43.567,"lon":-116.2406,"elev":860,"name":"Boise Arpt, ID, US","cover":"FEW","clouds":[{"cover":"FEW","base":4600}],"fltCat":"VFR"},{"icaoId":"KIFP","receiptTime":"2026-04-14T19:03:44.338Z","obsTime":1776193200,"reportTime":"2026-04-14T19:00:00.000Z","temp":22,"dewp":1,"wdir":230,"wspd":4,"visib":"10+","altim":1016.3,"qcField":0,"metarType":"METAR","rawOb":"METAR KIFP 141900Z 23004KT 10SM CLR 22/01 A3001","lat":35.1487,"lon":-114.5611,"elev":210,"name":"Bullhead City Intl, AZ, US","cover":"CLR","clouds":[],"fltCat":"VFR"},{"icaoId":"KNYL","receiptTime":"2026-04-14T19:00:25.604Z","obsTime":1776193020,"reportTime":"2026-04-14T19:00:00.000Z","temp":22.8,"dewp":2.8,"wdir":270,"wspd":10,"wgst":14,"visib":"10+","altim":1017,"slp":1016.8,"qcField":4,"metarType":"METAR","rawOb":"METAR KNYL 141857Z 27010G14KT 10SM CLR 23/03 A3003 RMK AO2 SLP168 T02280028","lat":32.66,"lon":-114.6078,"elev":58,"name":"Yuma , AZ, US","cover":"CLR","clouds":[],"fltCat":"VFR"},{"icaoId":"KNFL","receiptTime":"2026-04-14T19:00:25.443Z","obsTime":1776193020,"reportTime":"2026-04-14T19:00:00.000Z","temp":14.4,"dewp":-3.9,"wdir":230,"wspd":6,"visib":"10+","altim":1019,"slp":1015.7,"qcField":4,"metarType":"METAR","rawOb":"METAR KNFL 141857Z 23006KT 10SM SCT055 SCT150 SCT200 BKN240 14/M04 A3009 RMK AO2 SLP157 T01441039","lat":39.417,"lon":-118.705,"elev":1199,"name":"Fallon , NV, US","cover":"BKN","clouds":[{"cover":"SCT","base":5500},{"cover":"SCT","base":15000},{"cover":"SCT","base":20000},{"cover":"BKN","base":24000}],"fltCat":"VFR"},{"icaoId":"KFLG","receiptTime":"2026-04-14T19:00:25.461Z","obsTime":1776193020,"reportTime":"2026-04-14T19:00:00.000Z","temp":6.1,"dewp":-2.8,"wdir":"VRB","wspd":5,"visib":"10+","altim":1019.4,"slp":1015.9,"qcField":12,"metarType":"METAR","rawOb":"METAR KFLG 141857Z VRB05KT 10SM SCT036 OVC048 06/M03 A3010 RMK AO2 SLP159 T00611028 $","lat":35.1443,"lon":-111.6664,"elev":2134,"name":"Flagstaff/Pulliam Arpt, AZ, US","cover":"OVC","clouds":[{"cover":"SCT","base":3600},{"cover":"OVC","base":4800}],"fltCat":"VFR"},{"icaoId":"KFNL","receiptTime":"2026-04-14T18:59:24.180Z","obsTime":1776192960,"reportTime":"2026-04-14T19:00:00.000Z","temp":12.8,"dewp":-2.2,"wdir":250,"wspd":13,"visib":"10+","altim":1011.3,"slp":1007.4,"qcField":12,"metarType":"METAR","rawOb":"METAR KFNL 141856Z 25013KT 10SM CLR 13/M02 A2986 RMK AO2 SLP074 T01281022 $","lat":40.4427,"lon":-105.0097,"elev":1529,"name":"Fort Collins/N Colorado Rgnl, CO, US","cover":"CLR","clouds":[],"fltCat":"VFR"},{"icaoId":"KJAC","receiptTime":"2026-04-14T18:59:14.406Z","obsTime":1776192960,"reportTime":"2026-04-14T19:00:00.000Z","temp":5.6,"dewp":-1.1,"wdir":220,"wspd":5,"visib":"10+","altim":1014.3,"slp":1015.3,"qcField":4,"metarType":"METAR","rawOb":"METAR KJAC 141856Z 22005KT 10SM OVC050 06/M01 A2995 RMK AO2 SLP153 T00561011","lat":43.6129,"lon":-110.7366,"elev":1967,"name":"Jackson Hole Arpt, WY, US","cover":"OVC","clouds":[{"cover":"OVC","base":5000}],"fltCat":"VFR"},{"icaoId":"KRDM","receiptTime":"2026-04-14T19:00:15.972Z","obsTime":1776192960,"reportTime":"2026-04-14T19:00:00.000Z","temp":7.8,"dewp":-3.3,"wdir":350,"wspd":10,"visib":"10+","altim":1016.3,"slp":1017.1,"qcField":4,"metarType":"METAR","rawOb":"METAR KRDM 141856Z 35010KT 10SM BKN100 08/M03 A3001 RMK AO2 SLP171 T00781033","lat":44.2558,"lon":-121.1407,"elev":930,"name":"Redmond Muni, OR, US","cover":"BKN","clouds":[{"cover":"BKN","base":10000}],"fltCat":"VFR"},{"icaoId":"KCHS","receiptTime":"2026-04-14T19:00:14.137Z","obsTime":1776192960,"reportTime":"2026-04-14T19:00:00.000Z","temp":27.8,"dewp":13.3,"wdir":280,"wspd":3,"wgst":15,"visib":"10+","altim":1022.1,"slp":1021.8,"qcField":4,"metarType":"METAR","rawOb":"METAR KCHS 141856Z 28003G15KT 10SM SCT060 SCT250 28/13 A3018 RMK AO2 SLP218 T02780133","lat":32.8995,"lon":-80.0407,"elev":12,"name":"Charleston Intl, SC, US","cover":"SCT","clouds":[{"cover":"SCT","base":6000},{"cover":"SCT","base":25000}],"fltCat":"VFR"},{"icaoId":"KPWT","receiptTime":"2026-04-14T18:59:22.151Z","obsTime":1776192960,"reportTime":"2026-04-14T19:00:00.000Z","temp":7.2,"dewp":7.2,"wdir":190,"wspd":15,"wgst":20,"visib":"10+","altim":1013.3,"slp":1013.8,"qcField":14,"wxString":"-RA","metarType":"METAR","rawOb":"METAR KPWT 141856Z AUTO 19015G20KT 10SM -RA FEW006 BKN009 OVC014 07/07 A2992 RMK AO2 CIG 008V012 SLP138 T00720072 PNO $","lat":47.4942,"lon":-122.7594,"elev":143,"name":"Bremerton Arpt, WA, US","cover":"OVC","clouds":[{"cover":"FEW","base":600},{"cover":"BKN","base":900},{"cover":"OVC","base":1400}],"fltCat":"IFR"},{"icaoId":"KLAS","receiptTime":"2026-04-14T19:00:08.020Z","obsTime":1776192960,"reportTime":"2026-04-14T19:00:00.000Z","temp":19.4,"dewp":-1.7,"wdir":0,"wspd":0,"visib":"10+","altim":1017.4,"slp":1016.1,"qcField":12,"metarType":"METAR","rawOb":"METAR KLAS 141856Z 00000KT 10SM FEW085 19/M02 A3004 RMK AO2 SLP161 T01941017 PNO $","lat":36.0719,"lon":-115.1634,"elev":662,"name":"Las Vegas/Reid Intl, NV, US","cover":"FEW","clouds":[{"cover":"FEW","base":8500}],"fltCat":"VFR"},{"icaoId":"KCOD","receiptTime":"2026-04-14T18:59:07.677Z","obsTime":1776192960,"reportTime":"2026-04-14T19:00:00.000Z","temp":13.9,"dewp":-8.3,"wdir":250,"wspd":8,"visib":"10+","altim":1009.9,"slp":1007.8,"qcField":14,"metarType":"METAR","rawOb":"METAR KCOD 141856Z AUTO 25008KT 10SM CLR 14/M08 A2982 RMK AO2 SLP078 T01391083 $","lat":44.52,"lon":-109.0268,"elev":1550,"name":"Cody/Yellowstone Rgnl, WY, US","cover":"CLR","clouds":[],"fltCat":"VFR"},{"icaoId":"KINW","receiptTime":"2026-04-14T19:00:14.281Z","obsTime":1776192960,"reportTime":"2026-04-14T19:00:00.000Z","temp":14.4,"dewp":-3.3,"wdir":250,"wspd":11,"wgst":18,"visib":"10+","altim":1017.7,"slp":1014.4,"qcField":6,"metarType":"METAR","rawOb":"METAR KINW 141856Z AUTO 25011G18KT 220V280 10SM BKN065 14/M03 A3005 RMK AO2 SLP144 T01441033","lat":35.0279,"lon":-110.7221,"elev":1492,"name":"Winslow/Lindberg Rgnl, AZ, US","cover":"BKN","clouds":[{"cover":"BKN","base":6500}],"fltCat":"VFR"},{"icaoId":"KSGU","receiptTime":"2026-04-14T18:59:19.774Z","obsTime":1776192960,"reportTime":"2026-04-14T19:00:00.000Z","temp":13.3,"dewp":6.1,"wdir":140,"wspd":4,"visib":"10+","altim":1017.7,"slp":1017,"qcField":6,"metarType":"METAR","rawOb":"METAR KSGU 141856Z AUTO 14004KT 10SM FEW029 13/06 A3005 RMK AO2 SLP170 T01330061","lat":37.0444,"lon":-113.5034,"elev":877,"name":"Saint George Muni, UT, US","cover":"FEW","clouds":[{"cover":"FEW","base":2900}],"fltCat":"VFR"},{"icaoId":"KEGE","receiptTime":"2026-04-14T18:59:02.593Z","obsTime":1776192960,"reportTime":"2026-04-14T19:00:00.000Z","temp":9.4,"dewp":-1.1,"wdir":270,"wspd":13,"wgst":26,"visib":"10+","altim":1013.3,"slp":1009.9,"qcField":4,"metarType":"METAR","rawOb":"METAR KEGE 141856Z 27013G26KT 230V300 10SM FEW120 09/M01 A2992 RMK AO2 PK WND 24026/1854 SLP099 T00941011","lat":39.6448,"lon":-106.9176,"elev":1993,"name":"Eagle Cnty Rgnl, CO, US","cover":"FEW","clouds":[{"cover":"FEW","base":12000}],"fltCat":"VFR"},{"icaoId":"KBZN","receiptTime":"2026-04-14T19:00:14.110Z","obsTime":1776192960,"reportTime":"2026-04-14T19:00:00.000Z","temp":11.1,"dewp":-1.7,"wdir":"VRB","wspd":4,"visib":"10+","altim":1010.6,"slp":1010.5,"qcField":4,"metarType":"METAR","rawOb":"METAR KBZN 141856Z VRB04KT 10SM OVC070 11/M02 A2984 RMK AO2 SLP105 T01111017","lat":45.7876,"lon":-111.1615,"elev":1349,"name":"Bozeman/Gallatin Fld, MT, US","cover":"OVC","clouds":[{"cover":"OVC","base":7000}],"fltCat":"VFR"},{"icaoId":"KTPH","receiptTime":"2026-04-14T19:00:09.007Z","obsTime":1776192960,"reportTime":"2026-04-14T19:00:00.000Z","temp":11.7,"dewp":-7.2,"wdir":290,"wspd":11,"wgst":18,"visib":"10+","altim":1019.4,"slp":1017.4,"qcField":6,"metarType":"METAR","rawOb":"METAR KTPH 141856Z AUTO 29011G18KT 10SM CLR 12/M07 A3010 RMK AO2 SLP174 T01171072","lat":38.0505,"lon":-117.0906,"elev":1647,"name":"Tonopah Arpt, NV, US","cover":"CLR","clouds":[],"fltCat":"VFR"},{"icaoId":"KCGZ","receiptTime":"2026-04-14T18:59:23.420Z","obsTime":1776192960,"reportTime":"2026-04-14T19:00:00.000Z","temp":21.7,"dewp":-1.1,"wdir":"VRB","wspd":4,"visib":"10+","altim":1017.4,"slp":1016.3,"qcField":14,"metarType":"METAR","rawOb":"METAR KCGZ 141856Z AUTO VRB04KT 10SM CLR 22/M01 A3004 RMK AO2 SLP163 T02171011 $","lat":32.9531,"lon":-111.7725,"elev":444,"name":"Casa Granda Muni, AZ, US","cover":"CLR","clouds":[],"fltCat":"VFR"},{"icaoId":"KJAX","receiptTime":"2026-04-14T19:00:14.302Z","obsTime":1776192960,"reportTime":"2026-04-14T19:00:00.000Z","temp":28.3,"dewp":13.9,"wdir":70,"wspd":10,"wgst":16,"visib":"10+","altim":1022.1,"slp":1022.1,"qcField":12,"metarType":"METAR","rawOb":"METAR KJAX 141856Z 07010G16KT 10SM SCT055 SCT250 28/14 A3018 RMK AO2 SLP221 T02830139 $","lat":30.4953,"lon":-81.6937,"elev":8,"name":"Jacksonville Intl, FL, US","cover":"SCT","clouds":[{"cover":"SCT","base":5500},{"cover":"SCT","base":25000}],"fltCat":"VFR"},{"icaoId":"KCEC","receiptTime":"2026-04-14T19:00:06.524Z","obsTime":1776192960,"reportTime":"2026-04-14T19:00:00.000Z","temp":13.3,"dewp":3.9,"wdir":290,"wspd":6,"visib":"10+","altim":1024.5,"slp":1024.6,"qcField":6,"metarType":"METAR","rawOb":"METAR KCEC 141856Z AUTO 29006KT 10SM OVC046 13/04 A3025 RMK AO2 SLP246 T01330039","lat":41.7836,"lon":-124.238,"elev":17,"name":"Crescent City/McNama, CA, US","cover":"OVC","clouds":[{"cover":"OVC","base":4600}],"fltCat":"VFR"},{"icaoId":"KSDY","receiptTime":"2026-04-14T18:59:22.867Z","obsTime":1776192960,"reportTime":"2026-04-14T19:00:00.000Z","temp":16.1,"dewp":6.1,"wdir":170,"wspd":8,"visib":"10+","altim":1006.2,"slp":1006.9,"qcField":14,"metarType":"METAR","rawOb":"METAR KSDY 141856Z AUTO 17008KT 10SM CLR 16/06 A2971 RMK AO2 SLP069 T01610061 $","lat":47.7029,"lon":-104.1951,"elev":600,"name":"Sidney/Richland Muni, MT, US","cover":"CLR","clouds":[],"fltCat":"VFR"},{"icaoId":"KDUG","receiptTime":"2026-04-14T19:04:05.124Z","obsTime":1776192960,"reportTime":"2026-04-14T19:00:00.000Z","temp":22.8,"dewp":-2.2,"wdir":210,"wspd":17,"wgst":26,"visib":"10+","altim":1016.7,"slp":1010.9,"qcField":38,"metarType":"METAR","rawOb":"METAR KDUG 141856Z AUTO 21017G26KT 10SM CLR 23/M02 A3002 RMK AO2 PK WND 21026/1854 SLP109 T02281022 TSNO","lat":31.4725,"lon":-109.6022,"elev":1260,"name":"Douglas/Bisbee Intl, AZ, US","cover":"CLR","clouds":[],"fltCat":"VFR"},{"icaoId":"KPVU","receiptTime":"2026-04-14T18:59:22.092Z","obsTime":1776192960,"reportTime":"2026-04-14T19:00:00.000Z","temp":12.2,"dewp":-0.6,"wdir":320,"wspd":17,"wgst":21,"visib":"10+","altim":1016,"slp":1014.4,"qcField":4,"metarType":"METAR","rawOb":"METAR KPVU 141856Z 32017G21KT 10SM SCT060 SCT200 12/M01 A3000 RMK AO2 SLP144 T01221006","lat":40.224,"lon":-111.7252,"elev":1370,"name":"Provo Muni, UT, US","cover":"SCT","clouds":[{"cover":"SCT","base":6000},{"cover":"SCT","base":20000}],"fltCat":"VFR"},{"icaoId":"KSDF","receiptTime":"2026-04-14T19:00:16.286Z","obsTime":1776192960,"reportTime":"2026-04-14T19:00:00.000Z","temp":28.3,"dewp":16.7,"wdir":210,"wspd":17,"wgst":23,"visib":"10+","altim":1016,"slp":1015.5,"qcField":4,"metarType":"METAR","rawOb":"METAR KSDF 141856Z 21017G23KT 10SM SCT047 BKN055 28/17 A3000 RMK AO2 PK WND 21026/1830 SLP155 T02830167","lat":38.1774,"lon":-85.7308,"elev":146,"name":"Louisville Intl, KY, US","cover":"BKN","clouds":[{"cover":"SCT","base":4700},{"cover":"BKN","base":5500}],"fltCat":"VFR"},{"icaoId":"KVIS","receiptTime":"2026-04-14T18:59:21.024Z","obsTime":1776192960,"reportTime":"2026-04-14T19:00:00.000Z","temp":18.9,"dewp":8.3,"wdir":290,"wspd":7,"visib":"10+","altim":1021.8,"slp":1021.7,"qcField":14,"metarType":"METAR","rawOb":"METAR KVIS 141856Z AUTO 29007KT 10SM CLR 19/08 A3017 RMK AO2 SLP217 T01890083 PNO $","lat":36.3135,"lon":-119.3884,"elev":92,"name":"Visalia Muni, CA, US","cover":"CLR","clouds":[],"fltCat":"VFR"},{"icaoId":"KEKO","receiptTime":"2026-04-14T19:00:07.385Z","obsTime":1776192960,"reportTime":"2026-04-14T19:00:00.000Z","temp":12.2,"dewp":-2.8,"wdir":260,"wspd":11,"visib":"10+","altim":1017.7,"slp":1016.8,"qcField":6,"metarType":"METAR","rawOb":"METAR KEKO 141856Z AUTO 26011KT 10SM SCT070 12/M03 A3005 RMK AO2 SLP168 T01221028","lat":40.824,"lon":-115.7863,"elev":1541,"name":"Elko Rgnl, NV, US","cover":"SCT","clouds":[{"cover":"SCT","base":7000}],"fltCat":"VFR"},{"icaoId":"KHND","receiptTime":"2026-04-14T18:59:13.648Z","obsTime":1776192960,"reportTime":"2026-04-14T19:00:00.000Z","temp":19.4,"dewp":0,"wdir":"VRB","wspd":4,"visib":9,"altim":1018.4,"slp":1018.7,"qcField":12,"metarType":"METAR","rawOb":"METAR KHND 141856Z VRB04KT 9SM CLR 19/00 A3007 RMK AO2 SLP187 T01940000 $","lat":35.9657,"lon":-115.1343,"elev":740,"name":"Henderson Exec, NV, US","cover":"CLR","clouds":[],"fltCat":"VFR"},{"icaoId":"KUKI","receiptTime":"2026-04-14T19:00:09.165Z","obsTime":1776192960,"reportTime":"2026-04-14T19:00:00.000Z","temp":12.8,"dewp":7.2,"wdir":250,"wspd":3,"visib":"10+","altim":1022.4,"slp":1021.9,"qcField":6,"metarType":"METAR","rawOb":"METAR KUKI 141856Z AUTO 25003KT 10SM SCT020 13/07 A3019 RMK AO2 SLP219 T01280072","lat":39.1278,"lon":-123.2001,"elev":183,"name":"Ukiah Muni, CA, US","cover":"SCT","clouds":[{"cover":"SCT","base":2000}],"fltCat":"VFR"},{"icaoId":"KSLE","receiptTime":"2026-04-14T19:00:16.326Z","obsTime":1776192960,"reportTime":"2026-04-14T19:00:00.000Z","temp":10,"dewp":4.4,"wdir":190,"wspd":14,"wgst":23,"visib":"10+","altim":1019.4,"slp":1019.4,"qcField":4,"metarType":"METAR","rawOb":"METAR KSLE 141856Z 19014G23KT 10SM SCT030 OVC039 10/04 A3010 RMK AO2 SLP194 T01000044","lat":44.9049,"lon":-123.001,"elev":63,"name":"Salem Muni, OR, US","cover":"OVC","clouds":[{"cover":"SCT","base":3000},{"cover":"OVC","base":3900}],"fltCat":"VFR"},{"icaoId":"KLWS","receiptTime":"2026-04-14T19:00:14.321Z","obsTime":1776192960,"reportTime":"2026-04-14T19:00:00.000Z","temp":12.8,"dewp":1.1,"wdir":90,"wspd":6,"visib":"10+","altim":1014.3,"slp":1014.3,"qcField":4,"metarType":"METAR","rawOb":"METAR KLWS 141856Z 09006KT 10SM CLR 13/01 A2995 RMK AO2 SLP143 T01280011","lat":46.3746,"lon":-117.0153,"elev":435,"name":"Lewiston/Nez Perce Cnty, ID, US","cover":"CLR","clouds":[],"fltCat":"VFR"},{"icaoId":"KHDN","receiptTime":"2026-04-14T18:59:24.964Z","obsTime":1776192960,"reportTime":"2026-04-14T19:00:00.000Z","temp":5.6,"dewp":1.1,"wdir":230,"wspd":7,"visib":"10+","altim":1013.6,"slp":1012.3,"qcField":6,"precip":0.01,"metarType":"METAR","rawOb":"METAR KHDN 141856Z AUTO 23007KT 10SM BKN020 BKN028 BKN110 06/01 A2993 RMK AO2 RAE22 SLP123 P0001 T00560011","lat":40.4842,"lon":-107.2296,"elev":2012,"name":"Hayden/Yampa Valley Arpt, CO, US","cover":"BKN","clouds":[{"cover":"BKN","base":2000},{"cover":"BKN","base":2800},{"cover":"BKN","base":11000}],"fltCat":"MVFR"},{"icaoId":"KSFO","receiptTime":"2026-04-14T19:00:14.478Z","obsTime":1776192960,"reportTime":"2026-04-14T19:00:00.000Z","temp":14.4,"dewp":6.7,"wdir":260,"wspd":11,"visib":"10+","altim":1023.5,"slp":1023.3,"qcField":12,"metarType":"METAR","rawOb":"METAR KSFO 141856Z 26011KT 10SM BKN029 14/07 A3022 RMK AO2 SLP233 T01440067 $","lat":37.6196,"lon":-122.3656,"elev":2,"name":"San Francisco Intl, CA, US","cover":"BKN","clouds":[{"cover":"BKN","base":2900}],"fltCat":"MVFR"},{"icaoId":"KSBP","receiptTime":"2026-04-14T19:00:16.246Z","obsTime":1776192960,"reportTime":"2026-04-14T19:00:00.000Z","temp":20,"dewp":6.1,"wdir":330,"wspd":9,"visib":"10+","altim":1020.4,"slp":1020.2,"qcField":4,"metarType":"METAR","rawOb":"METAR KSBP 141856Z 33009KT 10SM CLR 20/06 A3013 RMK AO2 SLP202 T02000061","lat":35.2381,"lon":-120.644,"elev":52,"name":"San Luis Obispo/San Luis Cnty, CA, US","cover":"CLR","clouds":[],"fltCat":"VFR"},{"icaoId":"KGUC","receiptTime":"2026-04-14T18:59:24.687Z","obsTime":1776192960,"reportTime":"2026-04-14T19:00:00.000Z","temp":4.4,"dewp":0,"wdir":"VRB","wspd":6,"visib":"10+","altim":1014.3,"slp":1011.4,"qcField":14,"precip":0.005,"metarType":"METAR","rawOb":"METAR KGUC 141856Z AUTO VRB06KT 10SM FEW028 SCT060 SCT090 04/00 A2995 RMK AO2 UPE01RAB24E46 SLP114 P0000 T00440000 $","lat":38.5322,"lon":-106.9419,"elev":2337,"name":"Gunnison Arpt, CO, US","cover":"SCT","clouds":[{"cover":"FEW","base":2800},{"cover":"SCT","base":6000},{"cover":"SCT","base":9000}],"fltCat":"VFR"},{"icaoId":"KENV","receiptTime":"2026-04-14T18:59:03.209Z","obsTime":1776192960,"reportTime":"2026-04-14T19:00:00.000Z","temp":12.8,"dewp":-2.8,"wdir":130,"wspd":8,"visib":"10+","altim":1017.4,"slp":1016.6,"qcField":6,"metarType":"METAR","rawOb":"METAR KENV 141856Z AUTO 13008KT 10SM BKN070 OVC090 13/M03 A3004 RMK AO2 SLP166 T01281028","lat":40.7211,"lon":-114.0312,"elev":1291,"name":"Wendover Arpt, UT, US","cover":"OVC","clouds":[{"cover":"BKN","base":7000},{"cover":"OVC","base":9000}],"fltCat":"VFR"},{"icaoId":"KCOE","receiptTime":"2026-04-14T18:59:07.723Z","obsTime":1776192960,"reportTime":"2026-04-14T19:00:00.000Z","temp":8.3,"dewp":0.6,"wdir":200,"wspd":15,"visib":"10+","altim":1013.6,"slp":1015.8,"qcField":14,"metarType":"METAR","rawOb":"METAR KCOE 141856Z AUTO 20015KT 10SM OVC040 08/01 A2993 RMK AO2 SLP158 T00830006 PNO $","lat":47.7719,"lon":-116.8332,"elev":693,"name":"Coeur DAlene Arpt, ID, US","cover":"OVC","clouds":[{"cover":"OVC","base":4000}],"fltCat":"VFR"},{"icaoId":"KRNO","receiptTime":"2026-04-14T18:59:22.317Z","obsTime":1776192900,"reportTime":"2026-04-14T19:00:00.000Z","temp":13.9,"dewp":-6.7,"wdir":"VRB","wspd":6,"visib":"10+","altim":1019.4,"slp":1017.3,"qcField":4,"metarType":"METAR","rawOb":"METAR KRNO 141855Z VRB06KT 10SM FEW045 FEW250 14/M07 A3010 RMK AO2 SLP173 T01391067","lat":39.5077,"lon":-119.7683,"elev":1344,"name":"Reno/Tahoe Intl, NV, US","cover":"FEW","clouds":[{"cover":"FEW","base":4500},{"cover":"FEW","base":25000}],"fltCat":"VFR"},{"icaoId":"KLRU","receiptTime":"2026-04-14T18:58:42.232Z","obsTime":1776192900,"reportTime":"2026-04-14T19:00:00.000Z","temp":22,"dewp":0,"wdir":240,"wspd":17,"wgst":25,"visib":"10+","altim":1016.3,"qcField":6,"metarType":"METAR","rawOb":"METAR KLRU 141855Z AUTO 24017G25KT 10SM CLR 22/00 A3001 RMK AO2 T02200000","lat":32.2884,"lon":-106.9131,"elev":1355,"name":"Las Cruces Intl, NM, US","cover":"CLR","clouds":[],"fltCat":"VFR"},{"icaoId":"KBVU","receiptTime":"2026-04-14T18:56:10.599Z","obsTime":1776192900,"reportTime":"2026-04-14T19:00:00.000Z","temp":19,"dewp":-1,"wdir":"VRB","wspd":5,"wgst":10,"visib":"10+","altim":1017,"qcField":6,"metarType":"METAR","rawOb":"METAR KBVU 141855Z AUTO VRB05G10KT 10SM CLR 19/M01 A3003 RMK AO2","lat":35.9489,"lon":-114.8633,"elev":654,"name":"Boulder City Muni, NV, US","cover":"CLR","clouds":[],"fltCat":"VFR"},{"icaoId":"KGPI","receiptTime":"2026-04-14T18:59:24.617Z","obsTime":1776192900,"reportTime":"2026-04-14T19:00:00.000Z","temp":8.9,"dewp":-1.1,"wdir":240,"wspd":11,"visib":"10+","altim":1010.6,"slp":1011.1,"qcField":4,"metarType":"METAR","rawOb":"METAR KGPI 141855Z 24011KT 10SM BKN049 OVC060 09/M01 A2984 RMK AO2 SLP111 T00891011","lat":48.3041,"lon":-114.2643,"elev":903,"name":"Kalispell/Glacier Park Intl, MT, US","cover":"OVC","clouds":[{"cover":"BKN","base":4900},{"cover":"OVC","base":6000}],"fltCat":"VFR"},{"icaoId":"KHAF","receiptTime":"2026-04-14T18:58:30.976Z","obsTime":1776192900,"reportTime":"2026-04-14T19:00:00.000Z","temp":15,"dewp":10,"wdir":320,"wspd":9,"visib":9,"altim":1023.8,"qcField":6,"metarType":"METAR","rawOb":"METAR KHAF 141855Z AUTO 32009KT 9SM FEW024 SCT034 15/10 A3023 RMK AO2","lat":37.5136,"lon":-122.4996,"elev":11,"name":"Half Moon Bay Arpt, CA, US","cover":"SCT","clouds":[{"cover":"FEW","base":2400},{"cover":"SCT","base":3400}],"fltCat":"VFR"},{"icaoId":"KSEZ","receiptTime":"2026-04-14T19:00:13.192Z","obsTime":1776192900,"reportTime":"2026-04-14T19:00:00.000Z","temp":12,"dewp":-1,"wdir":"VRB","wspd":3,"visib":"10+","altim":1019,"qcField":6,"metarType":"METAR","rawOb":"METAR KSEZ 141855Z AUTO VRB03KT 10SM FEW050 BKN060 BKN070 12/M01 A3009 RMK AO2","lat":34.8467,"lon":-111.7884,"elev":1455,"name":"Sedona Arpt, AZ, US","cover":"BKN","clouds":[{"cover":"FEW","base":5000},{"cover":"BKN","base":6000},{"cover":"BKN","base":7000}],"fltCat":"VFR"},{"icaoId":"KCXP","receiptTime":"2026-04-14T19:00:06.916Z","obsTime":1776192900,"reportTime":"2026-04-14T19:00:00.000Z","temp":13,"dewp":-4,"wdir":"VRB","wspd":5,"visib":"10+","altim":1020.1,"qcField":6,"metarType":"METAR","rawOb":"METAR KCXP 141855Z AUTO VRB05KT 10SM CLR 13/M04 A3012 RMK AO2","lat":39.1905,"lon":-119.7319,"elev":1431,"name":"Carson City Arpt, NV, US","cover":"CLR","clouds":[],"fltCat":"VFR"},{"icaoId":"KMHR","receiptTime":"2026-04-14T19:00:15.042Z","obsTime":1776192900,"reportTime":"2026-04-14T19:00:00.000Z","temp":17,"dewp":12,"wdir":"VRB","wspd":5,"wgst":10,"visib":"10+","altim":1021.8,"qcField":6,"metarType":"METAR","rawOb":"METAR KMHR 141855Z AUTO VRB05G10KT 10SM FEW027 17/12 A3017 RMK AO2","lat":38.56,"lon":-121.284,"elev":30,"name":"Sacramento/Mather Fld, CA, US","cover":"FEW","clouds":[{"cover":"FEW","base":2700}],"fltCat":"VFR"},{"icaoId":"KHTH","receiptTime":"2026-04-14T19:00:14.240Z","obsTime":1776192900,"reportTime":"2026-04-14T19:00:00.000Z","temp":13,"dewp":-4,"wdir":0,"wspd":0,"visib":"10+","altim":1019.4,"qcField":6,"metarType":"METAR","rawOb":"METAR KHTH 141855Z AUTO 00000KT 10SM CLR 13/M04 A3010 RMK A01","lat":38.5448,"lon":-118.6314,"elev":1281,"name":"Hawthorne Muni, NV, US","cover":"CLR","clouds":[],"fltCat":"VFR"},{"icaoId":"KSOW","receiptTime":"2026-04-14T18:58:45.415Z","obsTime":1776192900,"reportTime":"2026-04-14T19:00:00.000Z","temp":11,"dewp":0,"wdir":250,"wspd":15,"visib":"10+","altim":1019.4,"qcField":6,"metarType":"METAR","rawOb":"METAR KSOW 141855Z AUTO 25015KT 10SM BKN047 BKN055 BKN120 11/M00 A3010 RMK AO2","lat":34.2686,"lon":-110.0019,"elev":1954,"name":"Show Low Muni, AZ, US","cover":"BKN","clouds":[{"cover":"BKN","base":4700},{"cover":"BKN","base":5500},{"cover":"BKN","base":12000}],"fltCat":"VFR"},{"icaoId":"KAST","receiptTime":"2026-04-14T18:59:07.421Z","obsTime":1776192900,"reportTime":"2026-04-14T19:00:00.000Z","temp":8.9,"dewp":6.7,"wdir":210,"wspd":16,"wgst":26,"visib":5,"altim":1016,"slp":1015.9,"qcField":6,"wxString":"-RA BR","precip":0.07,"metarType":"METAR","rawOb":"METAR KAST 141855Z AUTO 21016G26KT 5SM -RA BR FEW017 BKN044 OVC050 09/07 A3000 RMK AO2 PK WND 20028/1827 SLP159 P0007 T00890067","lat":46.157,"lon":-123.8833,"elev":3,"name":"Astoria Rgnl, OR, US","cover":"OVC","clouds":[{"cover":"FEW","base":1700},{"cover":"BKN","base":4400},{"cover":"OVC","base":5000}],"fltCat":"MVFR"},{"icaoId":"KMEV","receiptTime":"2026-04-14T19:00:08.643Z","obsTime":1776192900,"reportTime":"2026-04-14T19:00:00.000Z","temp":12,"dewp":-4,"wdir":300,"wspd":4,"visib":"10+","altim":1020.1,"qcField":6,"metarType":"METAR","rawOb":"METAR KMEV 141855Z AUTO 30004KT 10SM CLR 12/M04 A3012 RMK AO2","lat":38.9963,"lon":-119.75,"elev":1437,"name":"Minden-Tahoe Arpt, NV, US","cover":"CLR","clouds":[],"fltCat":"VFR"},{"icaoId":"KHCR","receiptTime":"2026-04-14T18:59:24.927Z","obsTime":1776192900,"reportTime":"2026-04-14T19:00:00.000Z","temp":11.1,"dewp":-2.2,"wdir":"VRB","wspd":4,"visib":"10+","altim":1014,"qcField":14,"metarType":"METAR","rawOb":"METAR KHCR 141855Z AUTO VRB04KT 10SM FEW065 11/M02 A2994 RMK AO2 T01111022 $","lat":40.4774,"lon":-111.4329,"elev":1708,"name":"Heber City Muni, UT, US","cover":"FEW","clouds":[{"cover":"FEW","base":6500}],"fltCat":"VFR"},{"icaoId":"KRTS","receiptTime":"2026-04-14T19:00:16.160Z","obsTime":1776192900,"reportTime":"2026-04-14T19:00:00.000Z","temp":12,"dewp":-6,"wdir":290,"wspd":17,"visib":"10+","altim":1020.4,"qcField":6,"metarType":"METAR","rawOb":"METAR KRTS 141855Z AUTO 29017KT 10SM CLR 12/M06 A3013 RMK AO2","lat":39.6658,"lon":-119.8731,"elev":1537,"name":"Reno/Stead Arpt, NV, US","cover":"CLR","clouds":[],"fltCat":"VFR"},{"icaoId":"KCMA","receiptTime":"2026-04-14T18:59:23.599Z","obsTime":1776192900,"reportTime":"2026-04-14T19:00:00.000Z","temp":18.9,"dewp":10.6,"wdir":230,"wspd":7,"visib":"10+","altim":1019.7,"slp":1020.4,"qcField":4,"metarType":"METAR","rawOb":"METAR KCMA 141855Z 23007KT 10SM CLR 19/11 A3011 RMK AO2 SLP204 T01890106","lat":34.2114,"lon":-119.0876,"elev":20,"name":"Camarillo Arpt, CA, US","cover":"CLR","clouds":[],"fltCat":"VFR"},{"icaoId":"KHII","receiptTime":"2026-04-14T19:02:08.616Z","obsTime":1776192900,"reportTime":"2026-04-14T19:00:00.000Z","temp":22,"dewp":1,"wdir":360,"wspd":6,"visib":"10+","altim":1017,"qcField":6,"metarType":"METAR","rawOb":"METAR KHII 141855Z AUTO 36006KT 10SM CLR 22/01 A3003 RMK AO2","lat":34.5659,"lon":-114.3522,"elev":241,"name":"Lake Havasu City Arpt, AZ, US","cover":"CLR","clouds":[],"fltCat":"VFR"},{"icaoId":"KLUF","receiptTime":"2026-04-14T19:06:08.268Z","obsTime":1776192900,"reportTime":"2026-04-14T19:00:00.000Z","temp":22.1,"dewp":0,"wdir":140,"wspd":8,"visib":"10+","altim":1016,"slp":1015.1,"qcField":12,"metarType":"METAR","rawOb":"METAR KLUF 141855Z 14008KT 10SM FEW100 22/00 A3000 RMK AO2A SLP151 T02210000 $","lat":33.538,"lon":-112.38,"elev":333,"name":"Phoenix/Luke AFB, AZ, US","cover":"FEW","clouds":[{"cover":"FEW","base":10000}],"fltCat":"VFR"},{"icaoId":"KRKS","receiptTime":"2026-04-14T18:58:36.862Z","obsTime":1776192840,"reportTime":"2026-04-14T19:00:00.000Z","temp":8.3,"dewp":-7.8,"wdir":290,"wspd":10,"wgst":20,"visib":"10+","altim":1013.3,"slp":1010.6,"qcField":6,"metarType":"METAR","rawOb":"METAR KRKS 141854Z AUTO 29010G20KT 10SM CLR 08/M08 A2992 RMK AO2 SLP106 T00831078","lat":41.5947,"lon":-109.0529,"elev":2062,"name":"Rock Springs/SW Wyoming Rgnl, WY, US","cover":"CLR","clouds":[],"fltCat":"VFR"},{"icaoId":"KGSO","receiptTime":"2026-04-14T18:58:44.608Z","obsTime":1776192840,"reportTime":"2026-04-14T19:00:00.000Z","temp":27.8,"dewp":9.4,"wdir":250,"wspd":9,"visib":"10+","altim":1019.7,"slp":1018.6,"qcField":4,"metarType":"METAR","rawOb":"METAR KGSO 141854Z 25009KT 10SM FEW075 BKN130 BKN250 28/09 A3011 RMK AO2 SLP186 T02780094","lat":36.0969,"lon":-79.9432,"elev":275,"name":"Greensboro Intl, NC, US","cover":"BKN","clouds":[{"cover":"FEW","base":7500},{"cover":"BKN","base":13000},{"cover":"BKN","base":25000}],"fltCat":"VFR"},{"icaoId":"KDSM","receiptTime":"2026-04-14T18:58:47.185Z","obsTime":1776192840,"reportTime":"2026-04-14T19:00:00.000Z","temp":28.3,"dewp":17.2,"wdir":210,"wspd":16,"wgst":23,"visib":"10+","altim":1004.1,"slp":1003.1,"qcField":4,"metarType":"METAR","rawOb":"METAR KDSM 141854Z 21016G23KT 10SM SCT047 28/17 A2965 RMK AO2 SLP031 T02830172","lat":41.5339,"lon":-93.6531,"elev":286,"name":"Des Moines Intl, IA, US","cover":"SCT","clouds":[{"cover":"SCT","base":4700}],"fltCat":"VFR"},{"icaoId":"KSLC","receiptTime":"2026-04-14T18:58:10.945Z","obsTime":1776192840,"reportTime":"2026-04-14T19:00:00.000Z","temp":12.2,"dewp":-1.7,"wdir":330,"wspd":8,"wgst":18,"visib":"10+","altim":1016.3,"slp":1014.5,"qcField":12,"metarType":"METAR","rawOb":"METAR KSLC 141854Z 33008G18KT 10SM SCT049 SCT060 SCT200 12/M02 A3001 RMK AO2 SLP145 T01221017 $","lat":40.7707,"lon":-111.965,"elev":1286,"name":"Salt Lake City Intl, UT, US","cover":"SCT","clouds":[{"cover":"SCT","base":4900},{"cover":"SCT","base":6000},{"cover":"SCT","base":20000}],"fltCat":"VFR"},{"icaoId":"KSYR","receiptTime":"2026-04-14T18:58:45.577Z","obsTime":1776192840,"reportTime":"2026-04-14T19:00:00.000Z","temp":27.2,"dewp":13.9,"wdir":240,"wspd":21,"wgst":30,"visib":"10+","altim":1007.5,"slp":1006.9,"qcField":4,"metarType":"METAR","rawOb":"METAR KSYR 141854Z 24021G30KT 10SM BKN065 BKN170 27/14 A2975 RMK AO2 PK WND 23031/1841 SLP069 T02720139","lat":43.1111,"lon":-76.1038,"elev":125,"name":"Syracuse/Hancock Intl, NY, US","cover":"BKN","clouds":[{"cover":"BKN","base":6500},{"cover":"BKN","base":17000}],"fltCat":"VFR"},{"icaoId":"KBWI","receiptTime":"2026-04-14T18:58:24.848Z","obsTime":1776192840,"reportTime":"2026-04-14T19:00:00.000Z","temp":30,"dewp":11.1,"wdir":230,"wspd":12,"visib":"10+","altim":1014.3,"slp":1014.1,"qcField":4,"metarType":"METAR","rawOb":"METAR KBWI 141854Z 23012KT 10SM FEW100 SCT250 30/11 A2995 RMK AO2 SLP141 T03000111","lat":39.1733,"lon":-76.684,"elev":42,"name":"Baltimore-Washington Intl, MD, US","cover":"SCT","clouds":[{"cover":"FEW","base":10000},{"cover":"SCT","base":25000}],"fltCat":"VFR"},{"icaoId":"KIND","receiptTime":"2026-04-14T18:58:32.752Z","obsTime":1776192840,"reportTime":"2026-04-14T19:00:00.000Z","temp":27.8,"dewp":17.8,"wdir":210,"wspd":14,"wgst":23,"visib":"10+","altim":1013.3,"slp":1012.3,"qcField":4,"metarType":"METAR","rawOb":"METAR KIND 141854Z 21014G23KT 10SM SCT041 BKN060 28/18 A2992 RMK AO2 SLP123 T02780178","lat":39.7252,"lon":-86.2816,"elev":242,"name":"Indianapolis Intl, IN, US","cover":"BKN","clouds":[{"cover":"SCT","base":4100},{"cover":"BKN","base":6000}],"fltCat":"VFR"},{"icaoId":"KRIC","receiptTime":"2026-04-14T18:58:44.866Z","obsTime":1776192840,"reportTime":"2026-04-14T19:00:00.000Z","temp":31.1,"dewp":9.4,"wdir":250,"wspd":12,"visib":"10+","altim":1016.7,"slp":1016.9,"qcField":4,"metarType":"METAR","rawOb":"METAR KRIC 141854Z 25012KT 10SM FEW100 FEW130 SCT270 31/09 A3002 RMK AO2 SLP169 T03110094","lat":37.5115,"lon":-77.3234,"elev":51,"name":"Richmond Intl, VA, US","cover":"SCT","clouds":[{"cover":"FEW","base":10000},{"cover":"FEW","base":13000},{"cover":"SCT","base":27000}],"fltCat":"VFR"},{"icaoId":"KOLS","receiptTime":"2026-04-14T18:58:10.996Z","obsTime":1776192840,"reportTime":"2026-04-14T19:00:00.000Z","temp":20,"dewp":0.6,"visib":"10+","altim":1017.4,"slp":1012.6,"qcField":6,"metarType":"METAR","rawOb":"METAR KOLS 141854Z AUTO 10SM FEW060 20/01 A3004 RMK AO2 SLP126 T02000006","lat":31.4208,"lon":-110.8465,"elev":1194,"name":"Nogales Intl, AZ, US","cover":"FEW","clouds":[{"cover":"FEW","base":6000}],"fltCat":"VFR"},{"icaoId":"KROC","receiptTime":"2026-04-14T18:58:11.789Z","obsTime":1776192840,"reportTime":"2026-04-14T19:00:00.000Z","temp":22.8,"dewp":16.1,"wdir":260,"wspd":20,"wgst":36,"visib":"10+","altim":1008.9,"slp":1008.9,"qcField":12,"precip":0.005,"metarType":"METAR","rawOb":"METAR KROC 141854Z 26020G36KT 10SM FEW039 BKN085 BKN250 23/16 A2979 RMK AO2 PK WND 28036/1835 RAB12E41 SLP089 P0000 T02280161 $","lat":43.1172,"lon":-77.6754,"elev":166,"name":"Rochester Intl Arpt, NY, US","cover":"BKN","clouds":[{"cover":"FEW","base":3900},{"cover":"BKN","base":8500},{"cover":"BKN","base":25000}],"fltCat":"VFR"},{"icaoId":"KBOS","receiptTime":"2026-04-14T18:58:24.366Z","obsTime":1776192840,"reportTime":"2026-04-14T19:00:00.000Z","temp":17.8,"dewp":11.7,"wdir":110,"wspd":22,"visib":"10+","altim":1011.3,"slp":1011.1,"qcField":4,"metarType":"METAR","rawOb":"METAR KBOS 141854Z 11022KT 10SM SCT065 BKN080 18/12 A2986 RMK AO2 PK WND 11028/1843 SLP111 T01780117","lat":42.3606,"lon":-71.0097,"elev":4,"name":"Boston/Logan Intl, MA, US","cover":"BKN","clouds":[{"cover":"SCT","base":6500},{"cover":"BKN","base":8000}],"fltCat":"VFR"},{"icaoId":"KMEM","receiptTime":"2026-04-14T18:58:42.302Z","obsTime":1776192840,"reportTime":"2026-04-14T19:00:00.000Z","temp":27.2,"dewp":16.7,"wdir":190,"wspd":12,"wgst":22,"visib":"10+","altim":1018.4,"slp":1017.7,"qcField":12,"metarType":"METAR","rawOb":"METAR KMEM 141854Z 19012G22KT 10SM BKN045 BKN250 27/17 A3007 RMK AO2 SLP177 T02720167 $","lat":35.0564,"lon":-89.9864,"elev":78,"name":"Memphis Intl, TN, US","cover":"BKN","clouds":[{"cover":"BKN","base":4500},{"cover":"BKN","base":25000}],"fltCat":"VFR"},{"icaoId":"KBFL","receiptTime":"2026-04-14T18:58:39.357Z","obsTime":1776192840,"reportTime":"2026-04-14T19:00:00.000Z","temp":18.3,"dewp":6.7,"wdir":"VRB","wspd":4,"visib":"10+","altim":1021.1,"slp":1020.7,"qcField":4,"metarType":"METAR","rawOb":"METAR KBFL 141854Z VRB04KT 10SM FEW045 18/07 A3015 RMK AO2 SLP207 T01830067","lat":35.4342,"lon":-119.0552,"elev":146,"name":"Bakersfield/Meadows Arpt, CA, US","cover":"FEW","clouds":[{"cover":"FEW","base":4500}],"fltCat":"VFR"},{"icaoId":"KOLM","receiptTime":"2026-04-14T18:58:40.774Z","obsTime":1776192840,"reportTime":"2026-04-14T19:00:00.000Z","temp":7.8,"dewp":6.7,"wdir":180,"wspd":14,"wgst":21,"visib":5,"altim":1014.6,"slp":1014.5,"qcField":4,"wxString":"-RA BR","precip":0.06,"metarType":"METAR","rawOb":"METAR KOLM 141854Z 18014G21KT 5SM -RA BR FEW026 BKN032 OVC046 08/07 A2996 RMK AO2 SLP145 P0006 T00780067","lat":46.9737,"lon":-122.9049,"elev":58,"name":"Olympia Rgnl, WA, US","cover":"OVC","clouds":[{"cover":"FEW","base":2600},{"cover":"BKN","base":3200},{"cover":"OVC","base":4600}],"fltCat":"MVFR"},{"icaoId":"KAPC","receiptTime":"2026-04-14T18:58:39.164Z","obsTime":1776192840,"reportTime":"2026-04-14T19:00:00.000Z","temp":15.6,"dewp":9.4,"wdir":200,"wspd":7,"visib":"10+","altim":1022.8,"slp":1021.7,"qcField":4,"metarType":"METAR","rawOb":"METAR KAPC 141854Z 20007KT 10SM BKN024 16/09 A3020 RMK AO2 SLP217 T01560094","lat":38.2075,"lon":-122.2804,"elev":5,"name":"Napa Cnty Arpt, CA, US","cover":"BKN","clouds":[{"cover":"BKN","base":2400}],"fltCat":"MVFR"},{"icaoId":"KEUG","receiptTime":"2026-04-14T18:58:39.634Z","obsTime":1776192840,"reportTime":"2026-04-14T19:00:00.000Z","temp":10.6,"dewp":3.9,"wdir":180,"wspd":8,"visib":"10+","altim":1021.1,"slp":1021.2,"qcField":4,"metarType":"METAR","rawOb":"METAR KEUG 141854Z 18008KT 10SM OVC035 11/04 A3015 RMK AO2 SLP212 T01060039","lat":44.1331,"lon":-123.2156,"elev":109,"name":"Eugene/Mahlon Sweet Fld, OR, US","cover":"OVC","clouds":[{"cover":"OVC","base":3500}],"fltCat":"VFR"},{"icaoId":"KBTV","receiptTime":"2026-04-14T18:58:44.080Z","obsTime":1776192840,"reportTime":"2026-04-14T19:00:00.000Z","temp":10.6,"dewp":8.9,"wdir":0,"wspd":0,"visib":"10+","altim":1010.2,"slp":1010.1,"qcField":4,"wxString":"-RA","precip":0.19,"metarType":"METAR","rawOb":"METAR KBTV 141854Z 00000KT 10SM -RA FEW026 BKN060 OVC070 11/09 A2983 RMK AO2 RAB1758 SLP101 P0019 T01060089","lat":44.4682,"lon":-73.1499,"elev":101,"name":"Burlington Intl, VT, US","cover":"OVC","clouds":[{"cover":"FEW","base":2600},{"cover":"BKN","base":6000},{"cover":"OVC","base":7000}],"fltCat":"VFR"},{"icaoId":"KGCN","receiptTime":"2026-04-14T18:58:39.906Z","obsTime":1776192840,"reportTime":"2026-04-14T19:00:00.000Z","temp":7.8,"dewp":-1.1,"wdir":280,"wspd":5,"visib":"10+","altim":1019,"slp":1016.3,"qcField":4,"metarType":"METAR","rawOb":"METAR KGCN 141854Z 28005KT 10SM FEW030 BKN035 08/M01 A3009 RMK AO2 SLP163 T00781011","lat":35.9458,"lon":-112.1554,"elev":1993,"name":"Grand Canyon Park Arpt, AZ, US","cover":"BKN","clouds":[{"cover":"FEW","base":3000},{"cover":"BKN","base":3500}],"fltCat":"VFR"},{"icaoId":"KFFZ","receiptTime":"2026-04-14T18:58:29.135Z","obsTime":1776192840,"reportTime":"2026-04-14T19:00:00.000Z","temp":21.1,"dewp":-2.8,"visib":"10+","altim":1016.7,"slp":1014.7,"qcField":4,"metarType":"METAR","rawOb":"METAR KFFZ 141854Z 10SM CLR 21/M03 A3002 RMK AO2 SLP147 T02111028","lat":33.4659,"lon":-111.7212,"elev":420,"name":"Mesa/Falcon Fld, AZ, US","cover":"CLR","clouds":[],"fltCat":"VFR"},{"icaoId":"KCOS","receiptTime":"2026-04-14T18:58:44.263Z","obsTime":1776192840,"reportTime":"2026-04-14T19:00:00.000Z","temp":15.6,"dewp":-5,"wdir":190,"wspd":14,"wgst":21,"visib":"10+","altim":1011.6,"slp":1006.4,"qcField":4,"metarType":"METAR","rawOb":"METAR KCOS 141854Z 19014G21KT 10SM BKN070 BKN100 16/M05 A2987 RMK AO2 SLP064 T01561050","lat":38.8095,"lon":-104.6887,"elev":1886,"name":"Colorado Spring Arpt, CO, US","cover":"BKN","clouds":[{"cover":"BKN","base":7000},{"cover":"BKN","base":10000}],"fltCat":"VFR"},{"icaoId":"KSJN","receiptTime":"2026-04-14T18:58:09.457Z","obsTime":1776192840,"reportTime":"2026-04-14T19:00:00.000Z","temp":13.3,"dewp":-2.8,"wdir":290,"wspd":20,"wgst":27,"visib":"10+","altim":1017.4,"slp":1011.9,"qcField":6,"metarType":"METAR","rawOb":"METAR KSJN 141854Z AUTO 29020G27KT 10SM CLR 13/M03 A3004 RMK AO2 PK WND 29030/1815 SLP119 T01331028","lat":34.5184,"lon":-109.3801,"elev":1747,"name":"St Johns Ind Arpt, AZ, US","cover":"CLR","clouds":[],"fltCat":"VFR"},{"icaoId":"KBUF","receiptTime":"2026-04-14T18:58:47.106Z","obsTime":1776192840,"reportTime":"2026-04-14T19:00:00.000Z","temp":20.6,"dewp":15.6,"wdir":240,"wspd":25,"wgst":42,"visib":"10+","altim":1009.9,"slp":1009.7,"qcField":4,"metarType":"METAR","rawOb":"METAR KBUF 141854Z 24025G42KT 10SM FEW025 FEW045 BKN070 BKN200 BKN250 21/16 A2982 RMK AO2 PK WND 24045/1820 SLP097 TCU DSNT SE-SW MDT CU DSNT NW T02060156","lat":42.94,"lon":-78.7361,"elev":217,"name":"Buffalo-Niagara Intl, NY, US","cover":"BKN","clouds":[{"cover":"FEW","base":2500},{"cover":"FEW","base":4500},{"cover":"BKN","base":7000},{"cover":"BKN","base":20000}],"fltCat":"VFR"},{"icaoId":"KPHL","receiptTime":"2026-04-14T18:58:11.656Z","obsTime":1776192840,"reportTime":"2026-04-14T19:00:00.000Z","temp":30,"dewp":12.8,"wdir":220,"wspd":12,"visib":"10+","altim":1013.6,"slp":1013.3,"qcField":12,"metarType":"METAR","rawOb":"METAR KPHL 141854Z 22012KT 10SM FEW065 FEW100 SCT240 BKN330 30/13 A2993 RMK AO2 SLP133 T03000128 $","lat":39.8733,"lon":-75.2268,"elev":2,"name":"Philadelphia Intl, PA, US","cover":"BKN","clouds":[{"cover":"FEW","base":6500},{"cover":"FEW","base":10000},{"cover":"SCT","base":24000},{"cover":"BKN","base":33000}],"fltCat":"VFR"},{"icaoId":"KTWF","receiptTime":"2026-04-14T18:56:25.736Z","obsTime":1776192780,"reportTime":"2026-04-14T19:00:00.000Z","temp":11.7,"dewp":1.1,"wdir":300,"wspd":8,"wgst":15,"visib":"10+","altim":1016.3,"slp":1014.5,"qcField":4,"metarType":"METAR","rawOb":"METAR KTWF 141853Z 30008G15KT 10SM FEW042 SCT050 SCT075 12/01 A3001 RMK AO2 SLP145 T01170011","lat":42.4785,"lon":-114.4775,"elev":1269,"name":"Twin Falls/Joslin Fld, ID, US","cover":"SCT","clouds":[{"cover":"FEW","base":4200},{"cover":"SCT","base":5000},{"cover":"SCT","base":7500}],"fltCat":"VFR"},{"icaoId":"KMSP","receiptTime":"2026-04-14T18:56:26.054Z","obsTime":1776192780,"reportTime":"2026-04-14T19:00:00.000Z","temp":16.7,"dewp":9.4,"wdir":330,"wspd":9,"visib":"10+","altim":1005.5,"slp":1005.6,"qcField":4,"metarType":"METAR","rawOb":"METAR KMSP 141853Z 33009KT 10SM BKN250 17/09 A2969 RMK AO2 SLP056 T01670094","lat":44.8852,"lon":-93.2313,"elev":255,"name":"Minneapolis-St Paul Intl, MN, US","cover":"BKN","clouds":[{"cover":"BKN","base":25000}],"fltCat":"VFR"},{"icaoId":"KPSP","receiptTime":"2026-04-14T18:56:24.334Z","obsTime":1776192780,"reportTime":"2026-04-14T19:00:00.000Z","temp":22.2,"dewp":4.4,"wdir":0,"wspd":0,"visib":"10+","altim":1017.7,"slp":1017.5,"qcField":12,"metarType":"METAR","rawOb":"METAR KPSP 141853Z 00000KT 10SM CLR 22/04 A3005 RMK AO2 SLP175 T02220044 $","lat":33.8222,"lon":-116.5043,"elev":123,"name":"Palm Springs Intl, CA, US","cover":"CLR","clouds":[],"fltCat":"VFR"},{"icaoId":"KEVW","receiptTime":"2026-04-14T18:56:30.396Z","obsTime":1776192780,"reportTime":"2026-04-14T19:00:00.000Z","temp":6.1,"dewp":-4.4,"wdir":310,"wspd":8,"wgst":17,"visib":"10+","altim":1015,"slp":1012.4,"qcField":14,"metarType":"METAR","rawOb":"METAR KEVW 141853Z AUTO 31008G17KT 270V360 10SM BKN040 BKN048 06/M04 A2997 RMK AO2 SLP124 T00611044 $","lat":41.2727,"lon":-111.0305,"elev":2178,"name":"Evanston/Uinta Cnty, WY, US","cover":"BKN","clouds":[{"cover":"BKN","base":4000},{"cover":"BKN","base":4800}],"fltCat":"VFR"},{"icaoId":"KSHR","receiptTime":"2026-04-14T18:56:22.320Z","obsTime":1776192780,"reportTime":"2026-04-14T19:00:00.000Z","temp":14.4,"dewp":-1.7,"wdir":120,"wspd":7,"visib":"10+","altim":1008.9,"slp":1009.1,"qcField":6,"metarType":"METAR","rawOb":"METAR KSHR 141853Z AUTO 12007KT 10SM CLR 14/M02 A2979 RMK AO2 SLP091 T01441017","lat":44.7603,"lon":-106.9741,"elev":1212,"name":"Sheridan Cnty Arpt, WY, US","cover":"CLR","clouds":[],"fltCat":"VFR"},{"icaoId":"KOAK","receiptTime":"2026-04-14T18:56:26.209Z","obsTime":1776192780,"reportTime":"2026-04-14T19:00:00.000Z","temp":15,"dewp":7.2,"wdir":230,"wspd":10,"visib":"10+","altim":1023.8,"slp":1023.7,"qcField":12,"metarType":"METAR","rawOb":"METAR KOAK 141853Z 23010KT 10SM BKN030 15/07 A3023 RMK AO2 SLP237 T01500072 $","lat":37.7178,"lon":-122.233,"elev":3,"name":"Oakland Intl, CA, US","cover":"BKN","clouds":[{"cover":"BKN","base":3000}],"fltCat":"MVFR"},{"icaoId":"KTUL","receiptTime":"2026-04-14T18:56:25.635Z","obsTime":1776192780,"reportTime":"2026-04-14T19:00:00.000Z","temp":27.8,"dewp":20.6,"wdir":180,"wspd":17,"wgst":25,"visib":"10+","altim":1011.3,"slp":1010.4,"qcField":4,"metarType":"METAR","rawOb":"METAR KTUL 141853Z 18017G25KT 10SM BKN030 BKN045 BKN200 28/21 A2986 RMK AO2 PK WND 18026/1841 SLP104 T02780206","lat":36.1985,"lon":-95.8782,"elev":196,"name":"Tulsa Intl Arpt, OK, US","cover":"BKN","clouds":[{"cover":"BKN","base":3000},{"cover":"BKN","base":4500},{"cover":"BKN","base":20000}],"fltCat":"MVFR"},{"icaoId":"KMDW","receiptTime":"2026-04-14T18:56:23.021Z","obsTime":1776192780,"reportTime":"2026-04-14T19:00:00.000Z","temp":26.1,"dewp":17.8,"wdir":210,"wspd":16,"wgst":25,"visib":"10+","altim":1008.5,"slp":1007.7,"qcField":4,"metarType":"METAR","rawOb":"METAR KMDW 141853Z 21016G25KT 10SM FEW037 BKN200 BKN250 26/18 A2978 RMK AO2 PK WND 18026/1758 SLP077 T02610178","lat":41.7841,"lon":-87.7552,"elev":186,"name":"Chicago/Midway Intl, IL, US","cover":"BKN","clouds":[{"cover":"FEW","base":3700},{"cover":"BKN","base":20000},{"cover":"BKN","base":25000}],"fltCat":"VFR"},{"icaoId":"KDLN","receiptTime":"2026-04-14T18:56:23.564Z","obsTime":1776192780,"reportTime":"2026-04-14T19:00:00.000Z","temp":10,"dewp":-6.1,"wdir":240,"wspd":13,"wgst":23,"visib":"10+","altim":1011.3,"slp":1009.6,"qcField":6,"metarType":"METAR","rawOb":"METAR KDLN 141853Z AUTO 24013G23KT 10SM OVC065 10/M06 A2986 RMK AO2 PK WND 24027/1759 SLP096 T01001061","lat":45.2584,"lon":-112.5546,"elev":1586,"name":"Dillon Arpt, MT, US","cover":"OVC","clouds":[{"cover":"OVC","base":6500}],"fltCat":"VFR"},{"icaoId":"KELY","receiptTime":"2026-04-14T18:56:23.860Z","obsTime":1776192780,"reportTime":"2026-04-14T19:00:00.000Z","temp":8.3,"dewp":-4.4,"wdir":310,"wspd":8,"visib":"10+","altim":1018.7,"slp":1016.4,"qcField":6,"metarType":"METAR","rawOb":"METAR KELY 141853Z AUTO 31008KT 10SM OVC060 08/M04 A3008 RMK AO2 SLP164 T00831044","lat":39.2954,"lon":-114.8466,"elev":1906,"name":"Ely/Yelland Fld, NV, US","cover":"OVC","clouds":[{"cover":"OVC","base":6000}],"fltCat":"VFR"},{"icaoId":"KPRC","receiptTime":"2026-04-14T18:56:24.309Z","obsTime":1776192780,"reportTime":"2026-04-14T19:00:00.000Z","temp":11.1,"dewp":-2.8,"wdir":0,"wspd":0,"visib":"10+","altim":1019,"slp":1015.5,"qcField":4,"metarType":"METAR","rawOb":"METAR KPRC 141853Z 00000KT 10SM BKN060 11/M03 A3009 RMK AO2 SLP155 T01111028","lat":34.6491,"lon":-112.4223,"elev":1528,"name":"Prescott/Love Fld, AZ, US","cover":"BKN","clouds":[{"cover":"BKN","base":6000}],"fltCat":"VFR"},{"icaoId":"KVGT","receiptTime":"2026-04-14T18:56:25.855Z","obsTime":1776192780,"reportTime":"2026-04-14T19:00:00.000Z","temp":19.4,"dewp":-0.6,"wdir":110,"wspd":7,"visib":"10+","altim":1017,"slp":1017.6,"qcField":4,"metarType":"METAR","rawOb":"METAR KVGT 141853Z 11007KT 10SM CLR 19/M01 A3003 RMK AO2 SLP176 T01941006","lat":36.212,"lon":-115.194,"elev":664,"name":"Las Vegas/North Arpt, NV, US","cover":"CLR","clouds":[],"fltCat":"VFR"},{"icaoId":"KMTJ","receiptTime":"2026-04-14T18:56:26.116Z","obsTime":1776192780,"reportTime":"2026-04-14T19:00:00.000Z","temp":7.8,"dewp":-2.2,"wdir":"VRB","wspd":6,"visib":9,"altim":1015.3,"slp":1011.8,"qcField":6,"wxString":"-RA","precip":0.005,"metarType":"METAR","rawOb":"METAR KMTJ 141853Z AUTO VRB06KT 9SM -RA FEW043 BKN070 OVC095 08/M02 A2998 RMK AO2 PK WND 24036/1809 RAB52 SLP118 P0000 T00781022","lat":38.5054,"lon":-107.8981,"elev":1755,"name":"Montrose Rgnl, CO, US","cover":"OVC","clouds":[{"cover":"FEW","base":4300},{"cover":"BKN","base":7000},{"cover":"OVC","base":9500}],"fltCat":"VFR"},{"icaoId":"KBUR","receiptTime":"2026-04-14T18:56:26.722Z","obsTime":1776192780,"reportTime":"2026-04-14T19:00:00.000Z","temp":18.9,"dewp":5.6,"wdir":"VRB","wspd":3,"visib":"10+","altim":1019.7,"slp":1018.6,"qcField":4,"metarType":"METAR","rawOb":"METAR KBUR 141853Z VRB03KT 10SM CLR 19/06 A3011 RMK AO2 SLP186 T01890056","lat":34.1996,"lon":-118.3654,"elev":221,"name":"Burbank/Bob Hope Arpt, CA, US","cover":"CLR","clouds":[],"fltCat":"VFR"},{"icaoId":"KGSP","receiptTime":"2026-04-14T18:56:27.362Z","obsTime":1776192780,"reportTime":"2026-04-14T19:00:00.000Z","temp":28.3,"dewp":12.8,"wdir":240,"wspd":10,"wgst":24,"visib":"10+","altim":1021.1,"slp":1019.8,"qcField":4,"metarType":"METAR","rawOb":"METAR KGSP 141853Z 24010G24KT 10SM CLR 28/13 A3015 RMK AO2 SLP198 T02830128","lat":34.8842,"lon":-82.2209,"elev":285,"name":"Greenville-Spartanburg Intl, SC, US","cover":"CLR","clouds":[],"fltCat":"VFR"},{"icaoId":"KAMA","receiptTime":"2026-04-14T18:56:28.469Z","obsTime":1776192780,"reportTime":"2026-04-14T19:00:00.000Z","temp":25,"dewp":1.7,"wdir":220,"wspd":20,"wgst":33,"visib":"10+","altim":1012.6,"slp":1008.1,"qcField":4,"metarType":"METAR","rawOb":"METAR KAMA 141853Z 22020G33KT 10SM CLR 25/02 A2990 RMK AO2 PK WND 21033/1803 SLP081 T02500017","lat":35.2203,"lon":-101.7173,"elev":1102,"name":"Amarillo Intl Arpt, TX, US","cover":"CLR","clouds":[],"fltCat":"VFR"},{"icaoId":"KBIL","receiptTime":"2026-04-14T18:56:29.041Z","obsTime":1776192780,"reportTime":"2026-04-14T19:00:00.000Z","temp":15.6,"dewp":-1.1,"wdir":210,"wspd":9,"wgst":17,"visib":"10+","altim":1008.2,"slp":1007.2,"qcField":4,"metarType":"METAR","rawOb":"METAR KBIL 141853Z 21009G17KT 10SM SCT065 16/M01 A2977 RMK AO2 SLP072 T01561011","lat":45.8072,"lon":-108.5462,"elev":1089,"name":"Billings/Logan Intl, MT, US","cover":"SCT","clouds":[{"cover":"SCT","base":6500}],"fltCat":"VFR"},{"icaoId":"KLOL","receiptTime":"2026-04-14T18:56:31.533Z","obsTime":1776192780,"reportTime":"2026-04-14T19:00:00.000Z","temp":13.9,"dewp":-3.3,"wdir":"VRB","wspd":6,"visib":"10+","altim":1018.7,"slp":1018.1,"qcField":6,"metarType":"METAR","rawOb":"METAR KLOL 141853Z AUTO VRB06KT 10SM CLR 14/M03 A3008 RMK AO2 SLP181 T01391033","lat":40.0684,"lon":-118.5702,"elev":1191,"name":"Lovelock/Derby Fld, NV, US","cover":"CLR","clouds":[],"fltCat":"VFR"},{"icaoId":"KGTF","receiptTime":"2026-04-14T18:56:27.377Z","obsTime":1776192780,"reportTime":"2026-04-14T19:00:00.000Z","temp":13.9,"dewp":-3.3,"wdir":260,"wspd":24,"wgst":32,"visib":"10+","altim":1006.9,"slp":1007.1,"qcField":4,"metarType":"METAR","rawOb":"METAR KGTF 141853Z 26024G32KT 10SM CLR 14/M03 A2973 RMK AO2 PK WND 24036/1833 SLP071 T01391033","lat":47.4733,"lon":-111.3828,"elev":1117,"name":"Great Falls Intl, MT, US","cover":"CLR","clouds":[],"fltCat":"VFR"},{"icaoId":"KHLN","receiptTime":"2026-04-14T18:56:27.663Z","obsTime":1776192780,"reportTime":"2026-04-14T19:00:00.000Z","temp":12.8,"dewp":-2.2,"wdir":270,"wspd":15,"wgst":22,"visib":"10+","altim":1009.6,"slp":1010.2,"qcField":4,"metarType":"METAR","rawOb":"METAR KHLN 141853Z 27015G22KT 10SM FEW065 BKN080 13/M02 A2981 RMK AO2 SLP102 T01281022","lat":46.6045,"lon":-111.9892,"elev":1178,"name":"Helena Rgnl, MT, US","cover":"BKN","clouds":[{"cover":"FEW","base":6500},{"cover":"BKN","base":8000}],"fltCat":"VFR"},{"icaoId":"KTPA","receiptTime":"2026-04-14T18:56:25.572Z","obsTime":1776192780,"reportTime":"2026-04-14T19:00:00.000Z","temp":28.9,"dewp":15,"wdir":"VRB","wspd":6,"visib":"10+","altim":1021.8,"slp":1021.4,"qcField":4,"metarType":"METAR","rawOb":"METAR KTPA 141853Z VRB06KT 10SM BKN060 BKN250 29/15 A3017 RMK AO2 SLP214 T02890150","lat":27.9633,"lon":-82.54,"elev":2,"name":"Tampa Intl Arpt, FL, US","cover":"BKN","clouds":[{"cover":"BKN","base":6000},{"cover":"BKN","base":25000}],"fltCat":"VFR"},{"icaoId":"KTUS","receiptTime":"2026-04-14T18:56:25.664Z","obsTime":1776192780,"reportTime":"2026-04-14T19:00:00.000Z","temp":20.6,"dewp":2.8,"wdir":0,"wspd":0,"visib":"10+","altim":1017.4,"slp":1014,"qcField":12,"metarType":"METAR","rawOb":"METAR KTUS 141853Z 00000KT 10SM CLR 21/03 A3004 RMK AO2 SLP140 T02060028 $","lat":32.1315,"lon":-110.9564,"elev":776,"name":"Tucson Intl Arpt, AZ, US","cover":"CLR","clouds":[],"fltCat":"VFR"},{"icaoId":"KBFI","receiptTime":"2026-04-14T18:56:28.957Z","obsTime":1776192780,"reportTime":"2026-04-14T19:00:00.000Z","temp":9.4,"dewp":5.6,"wdir":190,"wspd":13,"wgst":24,"visib":"10+","altim":1014.3,"slp":1014.1,"qcField":4,"wxString":"-RA","precip":0.005,"metarType":"METAR","rawOb":"METAR KBFI 141853Z 19013G24KT 10SM -RA SCT025 BKN030 OVC043 09/06 A2995 RMK AO2 SLP141 P0000 T00940056","lat":47.5455,"lon":-122.3148,"elev":7,"name":"Seattle/Boeing Fld, WA, US","cover":"OVC","clouds":[{"cover":"SCT","base":2500},{"cover":"BKN","base":3000},{"cover":"OVC","base":4300}],"fltCat":"MVFR"},{"icaoId":"KGEG","receiptTime":"2026-04-14T18:56:21.836Z","obsTime":1776192780,"reportTime":"2026-04-14T19:00:00.000Z","temp":7.2,"dewp":0,"wdir":200,"wspd":16,"wgst":23,"visib":"10+","altim":1013.3,"slp":1014,"qcField":4,"metarType":"METAR","rawOb":"METAR KGEG 141853Z 20016G23KT 10SM BKN025 OVC100 07/00 A2992 RMK AO2 SLP140 T00720000","lat":47.6217,"lon":-117.528,"elev":718,"name":"Spokane Intl, WA, US","cover":"OVC","clouds":[{"cover":"BKN","base":2500},{"cover":"OVC","base":10000}],"fltCat":"MVFR"},{"icaoId":"KSJC","receiptTime":"2026-04-14T18:56:22.346Z","obsTime":1776192780,"reportTime":"2026-04-14T19:00:00.000Z","temp":16.7,"dewp":7.8,"wdir":0,"wspd":0,"visib":"10+","altim":1023.1,"slp":1023,"qcField":12,"metarType":"METAR","rawOb":"METAR KSJC 141853Z 00000KT 10SM FEW025 SCT035 BKN038 17/08 A3021 RMK AO2 SLP230 T01670078 $","lat":37.3594,"lon":-121.9244,"elev":13,"name":"San Jose Intl Arpt, CA, US","cover":"BKN","clouds":[{"cover":"FEW","base":2500},{"cover":"SCT","base":3500},{"cover":"BKN","base":3800}],"fltCat":"VFR"},{"icaoId":"KSAF","receiptTime":"2026-04-14T18:56:22.136Z","obsTime":1776192780,"reportTime":"2026-04-14T19:00:00.000Z","temp":15,"dewp":-5.6,"wdir":240,"wspd":18,"wgst":35,"visib":"10+","altim":1016,"slp":1009.3,"qcField":12,"metarType":"METAR","rawOb":"METAR KSAF 141853Z 24018G35KT 10SM SCT075 BKN095 15/M06 A3000 RMK AO2 PK WND 24035/1846 SLP093 T01501056 $","lat":35.611,"lon":-106.0957,"elev":1918,"name":"Santa Fe Cnty Muni, NM, US","cover":"BKN","clouds":[{"cover":"SCT","base":7500},{"cover":"BKN","base":9500}],"fltCat":"VFR"},{"icaoId":"KSDL","receiptTime":"2026-04-14T18:56:22.194Z","obsTime":1776192780,"reportTime":"2026-04-14T19:00:00.000Z","temp":21.7,"dewp":-1.1,"wdir":250,"wspd":6,"visib":"10+","altim":1017,"slp":1015.2,"qcField":4,"metarType":"METAR","rawOb":"METAR KSDL 141853Z 25006KT 10SM CLR 22/M01 A3003 RMK AO2 SLP152 T02171011","lat":33.6123,"lon":-111.9232,"elev":438,"name":"Scottsdale Muni, AZ, US","cover":"CLR","clouds":[],"fltCat":"VFR"},{"icaoId":"KSTS","receiptTime":"2026-04-14T18:56:22.557Z","obsTime":1776192780,"reportTime":"2026-04-14T19:00:00.000Z","temp":15,"dewp":8.9,"wdir":190,"wspd":7,"visib":"10+","altim":1022.4,"slp":1021.6,"qcField":4,"metarType":"METAR","rawOb":"METAR KSTS 141853Z 19007KT 10SM SCT017 BKN025 15/09 A3019 RMK AO2 SLP216 T01500089","lat":38.5037,"lon":-122.811,"elev":35,"name":"Santa Rosa/Schulz Arpt, CA, US","cover":"BKN","clouds":[{"cover":"SCT","base":1700},{"cover":"BKN","base":2500}],"fltCat":"MVFR"},{"icaoId":"KMCO","receiptTime":"2026-04-14T18:56:22.983Z","obsTime":1776192780,"reportTime":"2026-04-14T19:00:00.000Z","temp":28.3,"dewp":13.9,"wdir":110,"wspd":10,"wgst":20,"visib":"10+","altim":1022.8,"slp":1022.4,"qcField":4,"metarType":"METAR","rawOb":"METAR KMCO 141853Z 11010G20KT 10SM SCT060 SCT080 SCT250 28/14 A3020 RMK AO2 SLP224 T02830139","lat":28.4182,"lon":-81.3241,"elev":27,"name":"Orlando Intl, FL, US","cover":"SCT","clouds":[{"cover":"SCT","base":6000},{"cover":"SCT","base":8000},{"cover":"SCT","base":25000}],"fltCat":"VFR"},{"icaoId":"KMFE","receiptTime":"2026-04-14T18:56:23.038Z","obsTime":1776192780,"reportTime":"2026-04-14T19:00:00.000Z","temp":31.7,"dewp":20.6,"wdir":150,"wspd":20,"wgst":28,"visib":"10+","altim":1014,"slp":1013.5,"qcField":4,"metarType":"METAR","rawOb":"METAR KMFE 141853Z 15020G28KT 10SM SCT042 32/21 A2994 RMK AO2 PK WND 14029/1754 SLP135 T03170206","lat":26.1791,"lon":-98.2445,"elev":29,"name":"McAllen/Miller Intl, TX, US","cover":"SCT","clouds":[{"cover":"SCT","base":4200}],"fltCat":"VFR"},{"icaoId":"KMFR","receiptTime":"2026-04-14T18:56:23.055Z","obsTime":1776192780,"reportTime":"2026-04-14T19:00:00.000Z","temp":12.8,"dewp":3.3,"wdir":300,"wspd":5,"visib":"10+","altim":1020.7,"slp":1020.8,"qcField":4,"metarType":"METAR","rawOb":"METAR KMFR 141853Z 30005KT 10SM CLR 13/03 A3014 RMK AO2 SLP208 T01280033","lat":42.375,"lon":-122.877,"elev":397,"name":"Medford/Rogue Valley Intl, OR, US","cover":"CLR","clouds":[],"fltCat":"VFR"},{"icaoId":"KMIA","receiptTime":"2026-04-14T18:56:23.154Z","obsTime":1776192780,"reportTime":"2026-04-14T19:00:00.000Z","temp":26.1,"dewp":16.7,"wdir":100,"wspd":17,"wgst":25,"visib":"10+","altim":1021.1,"slp":1021,"qcField":0,"metarType":"METAR","rawOb":"METAR KMIA 141853Z 10017G25KT 10SM SCT035 SCT060 BKN250 26/17 A3015 RMK SLP210 T02610167","lat":25.7881,"lon":-80.3169,"elev":1,"name":"Miami Intl, FL, US","cover":"BKN","clouds":[{"cover":"SCT","base":3500},{"cover":"SCT","base":6000},{"cover":"BKN","base":25000}],"fltCat":"VFR"},{"icaoId":"KMLS","receiptTime":"2026-04-14T18:56:23.286Z","obsTime":1776192780,"reportTime":"2026-04-14T19:00:00.000Z","temp":16.1,"dewp":2.8,"wdir":260,"wspd":10,"visib":"10+","altim":1007.5,"slp":1007.3,"qcField":6,"metarType":"METAR","rawOb":"METAR KMLS 141853Z AUTO 26010KT 10SM CLR 16/03 A2975 RMK AO2 SLP073 T01610028","lat":46.4265,"lon":-105.8834,"elev":800,"name":"Miles City/Wiley Fld, MT, US","cover":"CLR","clouds":[],"fltCat":"VFR"},{"icaoId":"KMOD","receiptTime":"2026-04-14T18:56:23.348Z","obsTime":1776192780,"reportTime":"2026-04-14T19:00:00.000Z","temp":17.8,"dewp":7.2,"wdir":0,"wspd":0,"visib":"10+","altim":1021.8,"slp":1021.6,"qcField":4,"metarType":"METAR","rawOb":"METAR KMOD 141853Z 00000KT 10SM CLR 18/07 A3017 RMK AO2 SLP216 T01780072","lat":37.6254,"lon":-120.9549,"elev":25,"name":"Modesto/Sham Fld, CA, US","cover":"CLR","clouds":[],"fltCat":"VFR"},{"icaoId":"KDEN","receiptTime":"2026-04-14T18:56:23.447Z","obsTime":1776192780,"reportTime":"2026-04-14T19:00:00.000Z","temp":13.9,"dewp":-7.2,"wdir":0,"wspd":0,"visib":"10+","altim":1010.6,"slp":1006.1,"qcField":4,"metarType":"METAR","rawOb":"METAR KDEN 141853Z 00000KT 10SM FEW070 BKN090 BKN110 14/M07 A2984 RMK AO2 SLP061 VIRGA T01391072","lat":39.8466,"lon":-104.6562,"elev":1656,"name":"Denver Intl, CO, US","cover":"BKN","clouds":[{"cover":"FEW","base":7000},{"cover":"BKN","base":9000},{"cover":"BKN","base":11000}],"fltCat":"VFR"},{"icaoId":"KDMN","receiptTime":"2026-04-14T18:56:23.592Z","obsTime":1776192780,"reportTime":"2026-04-14T19:00:00.000Z","temp":21.1,"dewp":3.3,"wdir":250,"wspd":17,"wgst":29,"visib":"10+","altim":1016.3,"slp":1010.5,"qcField":6,"metarType":"METAR","rawOb":"METAR KDMN 141853Z AUTO 25017G29KT 10SM CLR 21/03 A3001 RMK AO2 PK WND 27031/1823 SLP105 T02110033","lat":32.2592,"lon":-107.7206,"elev":1310,"name":"Deming Muni, NM, US","cover":"CLR","clouds":[],"fltCat":"VFR"},{"icaoId":"KDVT","receiptTime":"2026-04-14T18:56:23.719Z","obsTime":1776192780,"reportTime":"2026-04-14T19:00:00.000Z","temp":22.2,"dewp":0,"wdir":250,"wspd":10,"wgst":14,"visib":"10+","altim":1016.7,"slp":1015,"qcField":4,"metarType":"METAR","rawOb":"METAR KDVT 141853Z 25010G14KT 10SM CLR 22/00 A3002 RMK AO2 SLP150 T02220000","lat":33.6902,"lon":-112.0662,"elev":454,"name":"Phoenix/Deer Valley Arpt, AZ, US","cover":"CLR","clouds":[],"fltCat":"VFR"},{"icaoId":"KPSC","receiptTime":"2026-04-14T18:56:24.322Z","obsTime":1776192780,"reportTime":"2026-04-14T19:00:00.000Z","temp":12.8,"dewp":1.1,"wdir":230,"wspd":18,"visib":"10+","altim":1015.7,"slp":1015.4,"qcField":4,"metarType":"METAR","rawOb":"METAR KPSC 141853Z 23018KT 10SM OVC120 13/01 A2999 RMK AO2 PK WND 25028/1843 SLP154 T01280011","lat":46.2695,"lon":-119.1182,"elev":121,"name":"Pasco/Tri Cities Arpt, WA, US","cover":"OVC","clouds":[{"cover":"OVC","base":12000}],"fltCat":"VFR"},{"icaoId":"KIAH","receiptTime":"2026-04-14T18:56:24.690Z","obsTime":1776192780,"reportTime":"2026-04-14T19:00:00.000Z","temp":27.2,"dewp":20,"wdir":150,"wspd":11,"visib":"10+","altim":1017.7,"slp":1017.5,"qcField":4,"metarType":"METAR","rawOb":"METAR KIAH 141853Z 15011KT 10SM BKN060 27/20 A3005 RMK AO2 SLP175 T02720200","lat":29.9844,"lon":-95.3607,"elev":27,"name":"Houston/Bush Intl, TX, US","cover":"BKN","clouds":[{"cover":"BKN","base":6000}],"fltCat":"VFR"},{"icaoId":"KIDA","receiptTime":"2026-04-14T18:56:24.741Z","obsTime":1776192780,"reportTime":"2026-04-14T19:00:00.000Z","temp":7.8,"dewp":0.6,"wdir":210,"wspd":11,"visib":"10+","altim":1016,"slp":1016.1,"qcField":4,"metarType":"METAR","rawOb":"METAR KIDA 141853Z 21011KT 10SM BKN025 OVC030 08/01 A3000 RMK AO2 SLP161 T00780006","lat":43.5204,"lon":-112.0675,"elev":1444,"name":"Idaho Falls Rgnl, ID, US","cover":"OVC","clouds":[{"cover":"BKN","base":2500},{"cover":"OVC","base":3000}],"fltCat":"MVFR"},{"icaoId":"KLAX","receiptTime":"2026-04-14T18:56:24.995Z","obsTime":1776192780,"reportTime":"2026-04-14T19:00:00.000Z","temp":19.4,"dewp":10,"wdir":240,"wspd":7,"visib":"10+","altim":1019.7,"slp":1019.6,"qcField":4,"metarType":"METAR","rawOb":"METAR KLAX 141853Z 24007KT 210V290 10SM FEW010 FEW030 19/10 A3011 RMK AO2 SLP196 T01940100","lat":33.9382,"lon":-118.3866,"elev":30,"name":"Los Angeles Intl, CA, US","cover":"FEW","clouds":[{"cover":"FEW","base":1000},{"cover":"FEW","base":3000}],"fltCat":"VFR"},{"icaoId":"KYKM","receiptTime":"2026-04-14T18:56:25.390Z","obsTime":1776192780,"reportTime":"2026-04-14T19:00:00.000Z","temp":10,"dewp":0.6,"wdir":"VRB","wspd":4,"visib":"10+","altim":1013.6,"slp":1014,"qcField":4,"metarType":"METAR","rawOb":"METAR KYKM 141853Z VRB04KT 10SM BKN120 10/01 A2993 RMK AO2 SLP140 T01000006","lat":46.564,"lon":-120.5349,"elev":319,"name":"Yakima/McAllister Fld, WA, US","cover":"BKN","clouds":[{"cover":"BKN","base":12000}],"fltCat":"VFR"},{"icaoId":"KVEL","receiptTime":"2026-04-14T18:56:25.842Z","obsTime":1776192780,"reportTime":"2026-04-14T19:00:00.000Z","temp":7.2,"dewp":1.7,"wdir":220,"wspd":13,"visib":"10+","altim":1014.3,"slp":1012.6,"qcField":6,"metarType":"METAR","rawOb":"METAR KVEL 141853Z AUTO 22013KT 10SM FEW019 OVC035 07/02 A2995 RMK AO2 SLP126 T00720017","lat":40.4429,"lon":-109.5128,"elev":1604,"name":"Vernal Rgnl, UT, US","cover":"OVC","clouds":[{"cover":"FEW","base":1900},{"cover":"OVC","base":3500}],"fltCat":"VFR"},{"icaoId":"KPAE","receiptTime":"2026-04-14T18:56:26.503Z","obsTime":1776192780,"reportTime":"2026-04-14T19:00:00.000Z","temp":7.2,"dewp":5.6,"wdir":180,"wspd":19,"visib":7,"altim":1013,"slp":1013.2,"qcField":4,"wxString":"-RA","precip":0.01,"metarType":"METAR","rawOb":"METAR KPAE 141853Z 18019KT 7SM -RA BKN009 BKN015 OVC035 07/06 A2991 RMK AO2 PK WND 16026/1842 SLP132 P0001 T00720056","lat":47.9232,"lon":-122.2831,"elev":166,"name":"Everett/Paine Fld, WA, US","cover":"OVC","clouds":[{"cover":"BKN","base":900},{"cover":"BKN","base":1500},{"cover":"OVC","base":3500}],"fltCat":"IFR"},{"icaoId":"KBTM","receiptTime":"2026-04-14T18:56:26.690Z","obsTime":1776192780,"reportTime":"2026-04-14T19:00:00.000Z","temp":8.3,"dewp":-6.1,"wdir":270,"wspd":14,"wgst":21,"visib":"10+","altim":1011.3,"slp":1010.1,"qcField":6,"metarType":"METAR","rawOb":"METAR KBTM 141853Z AUTO 27014G21KT 10SM OVC065 08/M06 A2986 RMK AO2 SLP101 T00831061","lat":45.9644,"lon":-112.5015,"elev":1680,"name":"Butte/Mooney Arpt, MT, US","cover":"OVC","clouds":[{"cover":"OVC","base":6500}],"fltCat":"VFR"},{"icaoId":"KCDC","receiptTime":"2026-04-14T18:56:26.848Z","obsTime":1776192780,"reportTime":"2026-04-14T19:00:00.000Z","temp":8.9,"dewp":0.6,"wdir":60,"wspd":8,"visib":"10+","altim":1018,"slp":1016.3,"qcField":6,"metarType":"METAR","rawOb":"METAR KCDC 141853Z AUTO 06008KT 10SM SCT055 BKN070 09/01 A3006 RMK AO2 SLP163 T00890006","lat":37.7067,"lon":-113.097,"elev":1703,"name":"Cedar City Muni, UT, US","cover":"BKN","clouds":[{"cover":"SCT","base":5500},{"cover":"BKN","base":7000}],"fltCat":"VFR"},{"icaoId":"KCLL","receiptTime":"2026-04-14T18:56:27.016Z","obsTime":1776192780,"reportTime":"2026-04-14T19:00:00.000Z","temp":27.8,"dewp":19.4,"wdir":160,"wspd":15,"visib":"10+","altim":1016.7,"slp":1016,"qcField":4,"metarType":"METAR","rawOb":"METAR KCLL 141853Z 16015KT 10SM SCT037 SCT046 BKN055 28/19 A3002 RMK AO2 SLP160 T02780194","lat":30.5912,"lon":-96.3631,"elev":96,"name":"College Station/Easterwood Arpt, TX, US","cover":"BKN","clouds":[{"cover":"SCT","base":3700},{"cover":"SCT","base":4600},{"cover":"BKN","base":5500}],"fltCat":"VFR"},{"icaoId":"KCNM","receiptTime":"2026-04-14T18:56:27.086Z","obsTime":1776192780,"reportTime":"2026-04-14T19:00:00.000Z","temp":28.9,"dewp":0,"wdir":250,"wspd":15,"wgst":26,"visib":"10+","altim":1013,"slp":1007.4,"qcField":6,"metarType":"METAR","rawOb":"METAR KCNM 141853Z AUTO 25015G26KT 10SM CLR 29/00 A2991 RMK AO2 PK WND 27027/1801 SLP074 T02890000","lat":32.3336,"lon":-104.2584,"elev":993,"name":"Carlsbad/Cavern City Air Term, NM, US","cover":"CLR","clouds":[],"fltCat":"VFR"},{"icaoId":"KCNY","receiptTime":"2026-04-14T18:56:27.113Z","obsTime":1776192780,"reportTime":"2026-04-14T19:00:00.000Z","temp":7.8,"dewp":5.6,"wdir":90,"wspd":5,"visib":"10+","altim":1014.6,"slp":1013.2,"qcField":14,"precip":0.04,"metarType":"METAR","rawOb":"METAR KCNY 141853Z AUTO 09005KT 10SM FEW033 SCT046 OVC060 08/06 A2996 RMK AO2 RAE51 SLP132 P0004 T00780056 $","lat":38.7501,"lon":-109.7627,"elev":1392,"name":"Moab/Canyonland Fld, UT, US","cover":"OVC","clouds":[{"cover":"FEW","base":3300},{"cover":"SCT","base":4600},{"cover":"OVC","base":6000}],"fltCat":"VFR"},{"icaoId":"KHIO","receiptTime":"2026-04-14T18:56:27.575Z","obsTime":1776192780,"reportTime":"2026-04-14T19:00:00.000Z","temp":9.4,"dewp":4.4,"wdir":190,"wspd":14,"wgst":20,"visib":"10+","altim":1018,"slp":1018,"qcField":4,"metarType":"METAR","rawOb":"METAR KHIO 141853Z 19014G20KT 10SM BKN026 OVC032 09/04 A3006 RMK AO2 SLP180 T00940044","lat":45.5476,"lon":-122.9557,"elev":62,"name":"Portland/Hillsboro Arpt, OR, US","cover":"OVC","clouds":[{"cover":"BKN","base":2600},{"cover":"OVC","base":3200}],"fltCat":"MVFR"},{"icaoId":"KHOU","receiptTime":"2026-04-14T18:56:27.692Z","obsTime":1776192780,"reportTime":"2026-04-14T19:00:00.000Z","temp":27.2,"dewp":20,"wdir":170,"wspd":14,"visib":9,"altim":1017.7,"slp":1017.9,"qcField":12,"metarType":"METAR","rawOb":"METAR KHOU 141853Z 17014KT 9SM SCT030 BKN055 27/20 A3005 RMK AO2 SLP179 T02720200 $","lat":29.6458,"lon":-95.2821,"elev":13,"name":"Houston/Hobby Arpt, TX, US","cover":"BKN","clouds":[{"cover":"SCT","base":3000},{"cover":"BKN","base":5500}],"fltCat":"VFR"},{"icaoId":"KACV","receiptTime":"2026-04-14T18:56:28.318Z","obsTime":1776192780,"reportTime":"2026-04-14T19:00:00.000Z","temp":12.2,"dewp":5.6,"wdir":310,"wspd":10,"visib":"10+","altim":1024.1,"slp":1024.7,"qcField":6,"metarType":"METAR","rawOb":"METAR KACV 141853Z AUTO 31010KT 10SM CLR 12/06 A3024 RMK AO2 SLP247 T01220056","lat":40.9784,"lon":-124.1048,"elev":63,"name":"Arcata Arpt, CA, US","cover":"CLR","clouds":[],"fltCat":"VFR"},{"icaoId":"KASE","receiptTime":"2026-04-14T18:56:28.669Z","obsTime":1776192780,"reportTime":"2026-04-14T19:00:00.000Z","temp":6.1,"dewp":-3.9,"wdir":350,"wspd":10,"visib":"10+","altim":1013,"slp":1006.3,"qcField":4,"metarType":"METAR","rawOb":"METAR KASE 141853Z 35010KT 10SM FEW045 BKN055 OVC090 06/M04 A2991 RMK AO2 SLP063 T00611039","lat":39.2299,"lon":-106.8705,"elev":2384,"name":"Aspen/Pitkin Cnty, CO, US","cover":"OVC","clouds":[{"cover":"FEW","base":4500},{"cover":"BKN","base":5500},{"cover":"OVC","base":9000}],"fltCat":"VFR"},{"icaoId":"PANC","receiptTime":"2026-04-14T18:58:46.555Z","obsTime":1776192780,"reportTime":"2026-04-14T19:00:00.000Z","temp":1.7,"dewp":-6.7,"wdir":340,"wspd":4,"visib":"10+","altim":1011.3,"slp":1011.5,"qcField":5,"metarType":"METAR","rawOb":"METAR PANC 141853Z COR 34004KT 10SM FEW100 FEW200 02/M07 A2986 RMK AO2 SLP115 T00171067","lat":61.1691,"lon":-150.0277,"elev":39,"name":"Anchorage Intl, AK, US","cover":"FEW","clouds":[{"cover":"FEW","base":10000},{"cover":"FEW","base":20000}],"fltCat":"VFR"},{"icaoId":"KGJT","receiptTime":"2026-04-14T18:56:30.943Z","obsTime":1776192780,"reportTime":"2026-04-14T19:00:00.000Z","temp":10.6,"dewp":0.6,"wdir":60,"wspd":4,"visib":"10+","altim":1013.6,"slp":1010.8,"qcField":4,"metarType":"METAR","rawOb":"METAR KGJT 141853Z 06004KT 10SM CLR 11/01 A2993 RMK AO2 LTG DSNT NW SLP108 T01060006","lat":39.1344,"lon":-108.5408,"elev":1475,"name":"Grand Junction Rgnl, CO, US","cover":"CLR","clouds":[],"fltCat":"VFR"},{"icaoId":"KLAR","receiptTime":"2026-04-14T18:56:31.269Z","obsTime":1776192780,"reportTime":"2026-04-14T19:00:00.000Z","temp":3.9,"dewp":1.7,"wdir":360,"wspd":5,"visib":"10+","altim":1011.9,"slp":1009.7,"qcField":6,"precip":0.01,"metarType":"METAR","rawOb":"METAR KLAR 141853Z AUTO 36005KT 10SM FEW015 BKN065 OVC080 04/02 A2988 RMK AO2 RAE1756B13E51 SLP097 P0001 T00390017","lat":41.3165,"lon":-105.6729,"elev":2217,"name":"Laramie Rgnl, WY, US","cover":"OVC","clouds":[{"cover":"FEW","base":1500},{"cover":"BKN","base":6500},{"cover":"OVC","base":8000}],"fltCat":"VFR"},{"icaoId":"KLGB","receiptTime":"2026-04-14T18:56:31.428Z","obsTime":1776192780,"reportTime":"2026-04-14T19:00:00.000Z","temp":19.4,"dewp":11.1,"wdir":"VRB","wspd":5,"visib":"10+","altim":1019.7,"slp":1019.4,"qcField":12,"metarType":"METAR","rawOb":"METAR KLGB 141853Z VRB05KT 10SM SCT032 19/11 A3011 RMK AO2 SLP194 T01940111 $","lat":33.8118,"lon":-118.1472,"elev":10,"name":"Long Beach Arpt, CA, US","cover":"SCT","clouds":[{"cover":"SCT","base":3200}],"fltCat":"VFR"},{"icaoId":"KLVS","receiptTime":"2026-04-14T18:56:31.681Z","obsTime":1776192780,"reportTime":"2026-04-14T19:00:00.000Z","temp":15,"dewp":-4.4,"wdir":200,"wspd":18,"wgst":32,"visib":"10+","altim":1014.6,"slp":1006.5,"qcField":14,"metarType":"METAR","rawOb":"METAR KLVS 141853Z AUTO 20018G32KT 10SM CLR 15/M04 A2996 RMK AO2 PK WND 20038/1802 SLP065 T01501044 PNO $","lat":35.6558,"lon":-105.1385,"elev":2095,"name":"Las Vegas Muni, NM, US","cover":"CLR","clouds":[],"fltCat":"VFR"},{"icaoId":"KMCI","receiptTime":"2026-04-14T18:56:31.794Z","obsTime":1776192780,"reportTime":"2026-04-14T19:00:00.000Z","temp":28.9,"dewp":18.3,"wdir":200,"wspd":19,"wgst":30,"visib":"10+","altim":1006.2,"slp":1004.9,"qcField":4,"metarType":"METAR","rawOb":"METAR KMCI 141853Z 20019G30KT 10SM FEW036 BKN250 29/18 A2971 RMK AO2 PK WND 18032/1837 SLP049 T02890183","lat":39.2975,"lon":-94.7309,"elev":308,"name":"Kansas City Intl, MO, US","cover":"BKN","clouds":[{"cover":"FEW","base":3600},{"cover":"BKN","base":25000}],"fltCat":"VFR"},{"icaoId":"KIWA","receiptTime":"2026-04-14T18:54:43.921Z","obsTime":1776192780,"reportTime":"2026-04-14T19:00:00.000Z","temp":22,"dewp":0,"wdir":290,"wspd":7,"wgst":14,"visib":"10+","altim":1017.4,"qcField":0,"metarType":"METAR","rawOb":"METAR KIWA 141853Z 29007G14KT 10SM CLR 22/00 A3004","lat":33.3008,"lon":-111.6437,"elev":420,"name":"Phoenix/Mesa Gateway Arpt, AZ, US","cover":"CLR","clouds":[],"fltCat":"VFR"},{"icaoId":"KBRO","receiptTime":"2026-04-14T18:56:26.659Z","obsTime":1776192780,"reportTime":"2026-04-14T19:00:00.000Z","temp":30.6,"dewp":21.1,"wdir":160,"wspd":20,"wgst":28,"visib":"10+","altim":1015,"slp":1014.7,"qcField":4,"metarType":"METAR","rawOb":"METAR KBRO 141853Z 16020G28KT 10SM SCT027 BKN036 31/21 A2997 RMK AO2 PK WND 16030/1817 SLP147 T03060211","lat":25.9146,"lon":-97.4231,"elev":6,"name":"Brownsville Intl, TX, US","cover":"BKN","clouds":[{"cover":"SCT","base":2700},{"cover":"BKN","base":3600}],"fltCat":"VFR"},{"icaoId":"KFUL","receiptTime":"2026-04-14T18:56:30.752Z","obsTime":1776192780,"reportTime":"2026-04-14T19:00:00.000Z","temp":20,"dewp":8.9,"wdir":"VRB","wspd":4,"visib":"10+","altim":1019.4,"slp":1019.1,"qcField":4,"metarType":"METAR","rawOb":"METAR KFUL 141853Z VRB04KT 10SM FEW040 20/09 A3010 RMK AO2 SLP191 T02000089","lat":33.8715,"lon":-117.9856,"elev":23,"name":"Fullerton Muni, CA, US","cover":"FEW","clouds":[{"cover":"FEW","base":4000}],"fltCat":"VFR"},{"icaoId":"KDRO","receiptTime":"2026-04-14T18:56:23.635Z","obsTime":1776192780,"reportTime":"2026-04-14T19:00:00.000Z","temp":7.8,"dewp":-1.7,"wdir":200,"wspd":9,"visib":"10+","altim":1017,"slp":1014.4,"qcField":6,"metarType":"METAR","rawOb":"METAR KDRO 141853Z AUTO 20009KT 10SM FEW065 FEW080 08/M02 A3003 RMK AO2 SLP144 T00781017","lat":37.1431,"lon":-107.7602,"elev":2021,"name":"Durango/La Plata Cnty, CO, US","cover":"FEW","clouds":[{"cover":"FEW","base":6500},{"cover":"FEW","base":8000}],"fltCat":"VFR"},{"icaoId":"KBNA","receiptTime":"2026-04-14T18:56:29.179Z","obsTime":1776192780,"reportTime":"2026-04-14T19:00:00.000Z","temp":28.3,"dewp":14.4,"wdir":200,"wspd":11,"wgst":20,"visib":"10+","altim":1019.4,"slp":1018.6,"qcField":12,"metarType":"METAR","rawOb":"METAR KBNA 141853Z 20011G20KT 10SM BKN048 28/14 A3010 RMK AO2 SLP186 T02830144 $","lat":36.1105,"lon":-86.6881,"elev":168,"name":"Nashville Intl, TN, US","cover":"BKN","clouds":[{"cover":"BKN","base":4800}],"fltCat":"VFR"},{"icaoId":"KSBA","receiptTime":"2026-04-14T18:56:22.164Z","obsTime":1776192780,"reportTime":"2026-04-14T19:00:00.000Z","temp":17.8,"dewp":11.7,"wdir":160,"wspd":8,"visib":"10+","altim":1020.1,"slp":1019.8,"qcField":12,"metarType":"METAR","rawOb":"METAR KSBA 141853Z 16008KT 10SM CLR 18/12 A3012 RMK AO2 SLP198 T01780117 $","lat":34.4241,"lon":-119.8425,"elev":2,"name":"Santa Barbara Muni, CA, US","cover":"CLR","clouds":[],"fltCat":"VFR"},{"icaoId":"KSMF","receiptTime":"2026-04-14T18:56:22.374Z","obsTime":1776192780,"reportTime":"2026-04-14T19:00:00.000Z","temp":17.2,"dewp":9.4,"wdir":180,"wspd":11,"visib":"10+","altim":1021.8,"slp":1021.7,"qcField":4,"metarType":"METAR","rawOb":"METAR KSMF 141853Z 18011KT 10SM FEW250 17/09 A3017 RMK AO2 SLP217 T01720094","lat":38.7007,"lon":-121.5948,"elev":7,"name":"Sacramento Intl, CA, US","cover":"FEW","clouds":[{"cover":"FEW","base":25000}],"fltCat":"VFR"},{"icaoId":"KOGD","receiptTime":"2026-04-14T18:56:26.259Z","obsTime":1776192780,"reportTime":"2026-04-14T19:00:00.000Z","temp":11.1,"dewp":-0.6,"wdir":310,"wspd":7,"visib":"10+","altim":1016,"slp":1013.7,"qcField":4,"metarType":"METAR","rawOb":"METAR KOGD 141853Z 31007KT 10SM CLR 11/M01 A3000 RMK AO2 SLP137 T01111006","lat":41.1941,"lon":-112.0168,"elev":1356,"name":"Ogden/Hinckley Arpt, UT, US","cover":"CLR","clouds":[],"fltCat":"VFR"},{"icaoId":"KPBI","receiptTime":"2026-04-14T18:56:26.560Z","obsTime":1776192780,"reportTime":"2026-04-14T19:00:00.000Z","temp":27.2,"dewp":16.7,"wdir":80,"wspd":12,"wgst":21,"visib":"10+","altim":1021.8,"slp":1021.6,"qcField":12,"metarType":"METAR","rawOb":"METAR KPBI 141853Z 08012G21KT 10SM SCT036 SCT055 BKN250 27/17 A3017 RMK AO2 SLP216 T02720167 $","lat":26.6851,"lon":-80.0992,"elev":4,"name":"Palm Beach Intl, FL, US","cover":"BKN","clouds":[{"cover":"SCT","base":3600},{"cover":"SCT","base":5500},{"cover":"BKN","base":25000}],"fltCat":"VFR"},{"icaoId":"KPNC","receiptTime":"2026-04-14T18:56:24.218Z","obsTime":1776192780,"reportTime":"2026-04-14T19:00:00.000Z","temp":27.8,"dewp":19.4,"wdir":210,"wspd":10,"wgst":21,"visib":"10+","altim":1009.6,"slp":1008.1,"qcField":6,"metarType":"METAR","rawOb":"METAR KPNC 141853Z AUTO 21010G21KT 10SM FEW034 28/19 A2981 RMK AO2 PK WND 19027/1817 SLP081 T02780194","lat":36.7369,"lon":-97.1024,"elev":304,"name":"Ponca City Rgnl, OK, US","cover":"FEW","clouds":[{"cover":"FEW","base":3400}],"fltCat":"VFR"},{"icaoId":"KMYR","receiptTime":"2026-04-14T18:56:10.202Z","obsTime":1776192780,"reportTime":"2026-04-14T19:00:00.000Z","temp":24.4,"dewp":17.8,"wdir":190,"wspd":14,"visib":"10+","altim":1022.4,"slp":1022.2,"qcField":12,"metarType":"METAR","rawOb":"METAR KMYR 141853Z 19014KT 10SM CLR 24/18 A3019 RMK AO2 SLP222 T02440178 $","lat":33.6769,"lon":-78.9325,"elev":7,"name":"Myrtle Beach Intl, SC, US","cover":"CLR","clouds":[],"fltCat":"VFR"},{"icaoId":"KPIH","receiptTime":"2026-04-14T18:56:24.088Z","obsTime":1776192780,"reportTime":"2026-04-14T19:00:00.000Z","temp":10.6,"dewp":0.6,"wdir":240,"wspd":17,"wgst":26,"visib":"10+","altim":1015.7,"slp":1014.9,"qcField":4,"metarType":"METAR","rawOb":"METAR KPIH 141853Z 24017G26KT 10SM BKN034 11/01 A2999 RMK AO2 PK WND 23028/1820 SLP149 T01060006","lat":42.9197,"lon":-112.5723,"elev":1357,"name":"Pocatello Rgnl, ID, US","cover":"BKN","clouds":[{"cover":"BKN","base":3400}],"fltCat":"VFR"},{"icaoId":"KFAT","receiptTime":"2026-04-14T18:56:24.028Z","obsTime":1776192780,"reportTime":"2026-04-14T19:00:00.000Z","temp":18.9,"dewp":7.2,"wdir":300,"wspd":3,"visib":"10+","altim":1021.8,"slp":1021.5,"qcField":12,"metarType":"METAR","rawOb":"METAR KFAT 141853Z 30003KT 10SM SCT050 BKN200 19/07 A3017 RMK AO2 SLP215 T01890072 $","lat":36.78,"lon":-119.7202,"elev":102,"name":"Fresno/Yosemite Intl, CA, US","cover":"BKN","clouds":[{"cover":"SCT","base":5000},{"cover":"BKN","base":20000}],"fltCat":"VFR"},{"icaoId":"KFMN","receiptTime":"2026-04-14T18:56:21.536Z","obsTime":1776192780,"reportTime":"2026-04-14T19:00:00.000Z","temp":11.7,"dewp":-4.4,"wdir":250,"wspd":9,"visib":"10+","altim":1016.3,"slp":1013.7,"qcField":4,"metarType":"METAR","rawOb":"METAR KFMN 141853Z 25009KT 10SM BKN090 12/M04 A3001 RMK AO2 SLP137 T01171044","lat":36.7435,"lon":-108.2293,"elev":1677,"name":"Farmington/Four Corners Rgnl, NM, US","cover":"BKN","clouds":[{"cover":"BKN","base":9000}],"fltCat":"VFR"},{"icaoId":"KCPR","receiptTime":"2026-04-14T18:56:27.140Z","obsTime":1776192780,"reportTime":"2026-04-14T19:00:00.000Z","temp":13.9,"dewp":-8.9,"wdir":220,"wspd":12,"wgst":20,"visib":"10+","altim":1009.6,"slp":1007.1,"qcField":4,"metarType":"METAR","rawOb":"METAR KCPR 141853Z 22012G20KT 10SM CLR 14/M09 A2981 RMK AO2 SLP071 T01391089","lat":42.8978,"lon":-106.4736,"elev":1623,"name":"Casper/Natrona Cnty, WY, US","cover":"CLR","clouds":[],"fltCat":"VFR"},{"icaoId":"KCRQ","receiptTime":"2026-04-14T18:56:27.202Z","obsTime":1776192780,"reportTime":"2026-04-14T19:00:00.000Z","temp":17.8,"dewp":10,"wdir":260,"wspd":8,"visib":"10+","altim":1019.7,"slp":1019.3,"qcField":4,"metarType":"METAR","rawOb":"METAR KCRQ 141853Z 26008KT 10SM CLR 18/10 A3011 RMK AO2 SLP193 T01780100","lat":33.1299,"lon":-117.2765,"elev":96,"name":"Carlsbad/Palomar Arpt, CA, US","cover":"CLR","clouds":[],"fltCat":"VFR"},{"icaoId":"KCYS","receiptTime":"2026-04-14T18:56:27.280Z","obsTime":1776192780,"reportTime":"2026-04-14T19:00:00.000Z","temp":12.2,"dewp":-6.7,"wdir":170,"wspd":16,"wgst":25,"visib":"10+","altim":1010.6,"slp":1005.6,"qcField":4,"metarType":"METAR","rawOb":"METAR KCYS 141853Z 17016G25KT 10SM SCT075 BKN095 12/M07 A2984 RMK AO2 PK WND 18031/1840 SLP056 T01221067","lat":41.1579,"lon":-104.8081,"elev":1868,"name":"Cheyenne Rgnl, WY, US","cover":"BKN","clouds":[{"cover":"SCT","base":7500},{"cover":"BKN","base":9500}],"fltCat":"VFR"},{"icaoId":"KDTW","receiptTime":"2026-04-14T18:56:23.685Z","obsTime":1776192780,"reportTime":"2026-04-14T19:00:00.000Z","temp":25,"dewp":15,"wdir":230,"wspd":10,"wgst":18,"visib":"10+","altim":1010.9,"slp":1010.5,"qcField":12,"metarType":"METAR","rawOb":"METAR KDTW 141853Z 23010G18KT 10SM SCT035 BKN180 25/15 A2985 RMK AO2 SLP105 T02500150 $","lat":42.2311,"lon":-83.3312,"elev":192,"name":"Detroit/Metro Wayne Cnty, MI, US","cover":"BKN","clouds":[{"cover":"SCT","base":3500},{"cover":"BKN","base":18000}],"fltCat":"VFR"},{"icaoId":"KBCE","receiptTime":"2026-04-14T18:56:28.843Z","obsTime":1776192780,"reportTime":"2026-04-14T19:00:00.000Z","temp":3.9,"dewp":-1.1,"wdir":300,"wspd":16,"wgst":27,"visib":"10+","altim":1017.7,"slp":1012.7,"qcField":6,"precip":0.005,"metarType":"METAR","rawOb":"METAR KBCE 141853Z AUTO 30016G27KT 10SM FEW023 BKN055 04/M01 A3005 RMK AO2 PK WND 32027/1846 UPE1754 SLP127 P0000 T00391011","lat":37.7013,"lon":-112.149,"elev":2311,"name":"Bryce Canyon Arpt, UT, US","cover":"BKN","clouds":[{"cover":"FEW","base":2300},{"cover":"BKN","base":5500}],"fltCat":"VFR"},{"icaoId":"KBHM","receiptTime":"2026-04-14T18:56:29.024Z","obsTime":1776192780,"reportTime":"2026-04-14T19:00:00.000Z","temp":28.3,"dewp":-1.1,"wdir":240,"wspd":12,"wgst":17,"visib":"10+","altim":1022.4,"slp":1021.7,"qcField":4,"metarType":"METAR","rawOb":"METAR KBHM 141853Z 24012G17KT 10SM SCT250 28/M01 A3019 RMK AO2 SLP217 T02831011","lat":33.5655,"lon":-86.7449,"elev":191,"name":"Birmingham Intl, AL, US","cover":"SCT","clouds":[{"cover":"SCT","base":25000}],"fltCat":"VFR"},{"icaoId":"KBLI","receiptTime":"2026-04-14T18:56:29.125Z","obsTime":1776192780,"reportTime":"2026-04-14T19:00:00.000Z","temp":7.8,"dewp":5.6,"wdir":170,"wspd":17,"wgst":30,"visib":"10+","altim":1010.6,"slp":1011.4,"qcField":4,"wxString":"-RA","precip":0.02,"metarType":"METAR","rawOb":"METAR KBLI 141853Z 17017G30KT 10SM -RA FEW016 BKN022 OVC060 08/06 A2984 RMK AO2 PK WND 16030/1848 SLP114 P0002 T00780056","lat":48.7991,"lon":-122.5407,"elev":46,"name":"Bellingham Intl, WA, US","cover":"OVC","clouds":[{"cover":"FEW","base":1600},{"cover":"BKN","base":2200},{"cover":"OVC","base":6000}],"fltCat":"MVFR"},{"icaoId":"KAPA","receiptTime":"2026-04-14T18:56:28.577Z","obsTime":1776192780,"reportTime":"2026-04-14T19:00:00.000Z","temp":12.8,"dewp":-6.1,"wdir":130,"wspd":10,"wgst":20,"visib":"10+","altim":1011.3,"slp":1007.5,"qcField":4,"metarType":"METAR","rawOb":"METAR KAPA 141853Z 13010G20KT 10SM FEW070 BKN085 BKN120 BKN200 13/M06 A2986 RMK AO2 SLP075 VIRGA DSNT S T01281061","lat":39.5599,"lon":-104.8484,"elev":1791,"name":"Denver/Centennial Arpt, CO, US","cover":"BKN","clouds":[{"cover":"FEW","base":7000},{"cover":"BKN","base":8500},{"cover":"BKN","base":12000},{"cover":"BKN","base":20000}],"fltCat":"VFR"},{"icaoId":"KAUS","receiptTime":"2026-04-14T18:56:28.738Z","obsTime":1776192780,"reportTime":"2026-04-14T19:00:00.000Z","temp":28.3,"dewp":18.9,"wdir":180,"wspd":14,"wgst":23,"visib":"10+","altim":1015.3,"slp":1014.2,"qcField":4,"metarType":"METAR","rawOb":"METAR KAUS 141853Z 18014G23KT 10SM FEW037 OVC050 28/19 A2998 RMK AO2 SLP142 T02830189","lat":30.1831,"lon":-97.6806,"elev":148,"name":"Austin/Bergstrom Intl, TX, US","cover":"OVC","clouds":[{"cover":"FEW","base":3700},{"cover":"OVC","base":5000}],"fltCat":"VFR"},{"icaoId":"KPUW","receiptTime":"2026-04-14T18:56:24.393Z","obsTime":1776192780,"reportTime":"2026-04-14T19:00:00.000Z","temp":7.8,"dewp":-0.6,"wdir":260,"wspd":14,"wgst":20,"visib":"10+","altim":1014.6,"slp":1015.5,"qcField":6,"metarType":"METAR","rawOb":"METAR KPUW 141853Z AUTO 26014G20KT 10SM OVC040 08/M01 A2996 RMK AO2 SLP155 T00781006","lat":46.7438,"lon":-117.1158,"elev":774,"name":"Pullman/Moscow Rgnl, WA, US","cover":"OVC","clouds":[{"cover":"OVC","base":4000}],"fltCat":"VFR"},{"icaoId":"KRDD","receiptTime":"2026-04-14T18:56:24.454Z","obsTime":1776192780,"reportTime":"2026-04-14T19:00:00.000Z","temp":16.7,"dewp":7.2,"wdir":"VRB","wspd":3,"visib":"10+","altim":1021.1,"slp":1021,"qcField":4,"metarType":"METAR","rawOb":"METAR KRDD 141853Z VRB03KT 10SM CLR 17/07 A3015 RMK AO2 SLP210 T01670072","lat":40.5146,"lon":-122.2977,"elev":152,"name":"Redding Muni, CA, US","cover":"CLR","clouds":[],"fltCat":"VFR"},{"icaoId":"KRIW","receiptTime":"2026-04-14T18:56:24.496Z","obsTime":1776192780,"reportTime":"2026-04-14T19:00:00.000Z","temp":12.2,"dewp":-8.9,"wdir":"VRB","wspd":5,"visib":"10+","altim":1010.2,"slp":1007.7,"qcField":6,"metarType":"METAR","rawOb":"METAR KRIW 141853Z AUTO VRB05KT 10SM CLR 12/M09 A2983 RMK AO2 SLP077 T01221089","lat":43.0622,"lon":-108.4471,"elev":1662,"name":"Riverton Rgnl, WY, US","cover":"CLR","clouds":[],"fltCat":"VFR"},{"icaoId":"KRTN","receiptTime":"2026-04-14T18:56:24.630Z","obsTime":1776192780,"reportTime":"2026-04-14T19:00:00.000Z","temp":17.8,"dewp":-6.7,"wdir":270,"wspd":21,"wgst":30,"visib":"10+","altim":1011.9,"slp":1005.8,"qcField":14,"metarType":"METAR","rawOb":"METAR KRTN 141853Z AUTO 27021G30KT 10SM 18/M07 A2988 RMK AO2 PK WND 25032/1820 SLP058 T01781067 $","lat":36.7418,"lon":-104.5076,"elev":1939,"name":"Raton/Crews Fld, NM, US"},{"icaoId":"KSEA","receiptTime":"2026-04-14T18:56:22.224Z","obsTime":1776192780,"reportTime":"2026-04-14T19:00:00.000Z","temp":7.8,"dewp":5.6,"wdir":190,"wspd":12,"wgst":24,"visib":9,"altim":1014,"slp":1014.7,"qcField":4,"wxString":"-RA","precip":0.01,"metarType":"METAR","rawOb":"METAR KSEA 141853Z 19012G24KT 9SM -RA SCT018 BKN024 OVC035 08/06 A2994 RMK AO2 PK WND 18027/1757 SLP147 P0001 T00780056","lat":47.4447,"lon":-122.3144,"elev":115,"name":"Seattle-Tacoma Intl, WA, US","cover":"OVC","clouds":[{"cover":"SCT","base":1800},{"cover":"BKN","base":2400},{"cover":"OVC","base":3500}],"fltCat":"MVFR"},{"icaoId":"KSNA","receiptTime":"2026-04-14T18:56:22.406Z","obsTime":1776192780,"reportTime":"2026-04-14T19:00:00.000Z","temp":19.4,"dewp":10.6,"wdir":200,"wspd":6,"visib":"10+","altim":1019.7,"slp":1019.6,"qcField":12,"metarType":"METAR","rawOb":"METAR KSNA 141853Z 20006KT 10SM SCT039 19/11 A3011 RMK AO2 SLP196 T01940106 $","lat":33.6798,"lon":-117.8675,"elev":14,"name":"Santa Ana/Wayne Arpt, CA, US","cover":"SCT","clouds":[{"cover":"SCT","base":3900}],"fltCat":"VFR"},{"icaoId":"KSWO","receiptTime":"2026-04-14T18:56:22.570Z","obsTime":1776192780,"reportTime":"2026-04-14T19:00:00.000Z","temp":27.8,"dewp":20,"wdir":210,"wspd":15,"wgst":24,"visib":"10+","altim":1010.6,"slp":1009.2,"qcField":4,"metarType":"METAR","rawOb":"METAR KSWO 141853Z 21015G24KT 10SM FEW034 28/20 A2984 RMK AO2 SLP092 T02780200","lat":36.1624,"lon":-97.0832,"elev":293,"name":"Stillwater Muni, OK, US","cover":"FEW","clouds":[{"cover":"FEW","base":3400}],"fltCat":"VFR"},{"icaoId":"KMSO","receiptTime":"2026-04-14T18:56:26.036Z","obsTime":1776192780,"reportTime":"2026-04-14T19:00:00.000Z","temp":12.2,"dewp":-1.1,"wdir":220,"wspd":8,"visib":"10+","altim":1011.3,"slp":1011.3,"qcField":4,"metarType":"METAR","rawOb":"METAR KMSO 141853Z 22008KT 10SM FEW055 OVC070 12/M01 A2986 RMK AO2 SLP113 T01221011","lat":46.9208,"lon":-114.0938,"elev":974,"name":"Missoula Intl, MT, US","cover":"OVC","clouds":[{"cover":"FEW","base":5500},{"cover":"OVC","base":7000}],"fltCat":"VFR"},{"icaoId":"KMSY","receiptTime":"2026-04-14T18:56:26.087Z","obsTime":1776192780,"reportTime":"2026-04-14T19:00:00.000Z","temp":26.7,"dewp":16.7,"wdir":190,"wspd":10,"visib":"10+","altim":1020.7,"slp":1021,"qcField":4,"metarType":"METAR","rawOb":"METAR KMSY 141853Z 19010KT 10SM SCT039 27/17 A3014 RMK AO2 SLP210 T02670167","lat":29.9974,"lon":-90.2777,"elev":0,"name":"New Orleans/Armstrong Intl, LA, US","cover":"SCT","clouds":[{"cover":"SCT","base":3900}],"fltCat":"VFR"},{"icaoId":"KMYF","receiptTime":"2026-04-14T18:56:26.170Z","obsTime":1776192780,"reportTime":"2026-04-14T19:00:00.000Z","temp":18.9,"dewp":9.4,"wdir":250,"wspd":7,"visib":"10+","altim":1019.7,"slp":1019.4,"qcField":4,"metarType":"METAR","rawOb":"METAR KMYF 141853Z 25007KT 220V280 10SM CLR 19/09 A3011 RMK AO2 SLP194 T01890094","lat":32.8145,"lon":-117.1375,"elev":128,"name":"San Diego/Montgomery Arpt, CA, US","cover":"CLR","clouds":[],"fltCat":"VFR"},{"icaoId":"KONT","receiptTime":"2026-04-14T18:56:26.342Z","obsTime":1776192780,"reportTime":"2026-04-14T19:00:00.000Z","temp":17.8,"dewp":6.7,"wdir":"VRB","wspd":5,"visib":"10+","altim":1019.7,"slp":1019,"qcField":12,"metarType":"METAR","rawOb":"METAR KONT 141853Z VRB05KT 10SM FEW044 18/07 A3011 RMK AO2 SLP190 T01780067 $","lat":34.0531,"lon":-117.5769,"elev":279,"name":"Ontario Intl, CA, US","cover":"FEW","clouds":[{"cover":"FEW","base":4400}],"fltCat":"VFR"},{"icaoId":"KPDX","receiptTime":"2026-04-14T18:56:26.600Z","obsTime":1776192780,"reportTime":"2026-04-14T19:00:00.000Z","temp":10,"dewp":3.9,"wdir":200,"wspd":14,"wgst":23,"visib":"10+","altim":1018.7,"slp":1018.6,"qcField":12,"precip":0.005,"metarType":"METAR","rawOb":"METAR KPDX 141853Z 20014G23KT 10SM BKN032 BKN055 OVC070 10/04 A3008 RMK AO2 PK WND 20032/1817 RAB31E40 SLP186 P0000 T01000039 $","lat":45.5958,"lon":-122.6092,"elev":7,"name":"Portland Intl, OR, US","cover":"OVC","clouds":[{"cover":"BKN","base":3200},{"cover":"BKN","base":5500},{"cover":"OVC","base":7000}],"fltCat":"VFR"},{"icaoId":"KPGA","receiptTime":"2026-04-14T18:56:26.627Z","obsTime":1776192780,"reportTime":"2026-04-14T19:00:00.000Z","temp":12.2,"dewp":1.1,"wdir":0,"wspd":0,"visib":"10+","altim":1015.7,"slp":1013.2,"qcField":6,"metarType":"METAR","rawOb":"METAR KPGA 141853Z AUTO 00000KT 10SM BKN055 OVC075 12/01 A2999 RMK AO2 SLP132 T01220011","lat":36.9211,"lon":-111.4487,"elev":1310,"name":"Page Muni, AZ, US","cover":"OVC","clouds":[{"cover":"BKN","base":5500},{"cover":"OVC","base":7500}],"fltCat":"VFR"},{"icaoId":"KPUB","receiptTime":"2026-04-14T18:56:24.364Z","obsTime":1776192780,"reportTime":"2026-04-14T19:00:00.000Z","temp":19.4,"dewp":-4.4,"wdir":140,"wspd":8,"visib":"10+","altim":1008.5,"slp":1003.8,"qcField":12,"metarType":"METAR","rawOb":"METAR KPUB 141853Z 14008KT 10SM BKN110 19/M04 A2978 RMK AO2 SLP038 T01941044 $","lat":38.2887,"lon":-104.5057,"elev":1441,"name":"Pueblo Mem Arpt, CO, US","cover":"BKN","clouds":[{"cover":"BKN","base":11000}],"fltCat":"VFR"},{"icaoId":"KMLF","receiptTime":"2026-04-14T18:56:17.160Z","obsTime":1776192720,"reportTime":"2026-04-14T19:00:00.000Z","temp":11.1,"dewp":-1.7,"wdir":30,"wspd":11,"wgst":19,"visib":"10+","altim":1017,"slp":1015.1,"qcField":6,"metarType":"METAR","rawOb":"METAR KMLF 141852Z AUTO 03011G19KT 10SM BKN060 11/M02 A3003 RMK AO2 SLP151 T01111017","lat":38.4225,"lon":-113.0109,"elev":1537,"name":"Milford Muni, UT, US","cover":"BKN","clouds":[{"cover":"BKN","base":6000}],"fltCat":"VFR"},{"icaoId":"KCVG","receiptTime":"2026-04-14T18:56:14.924Z","obsTime":1776192720,"reportTime":"2026-04-14T19:00:00.000Z","temp":26.7,"dewp":16.1,"wdir":220,"wspd":13,"wgst":23,"visib":"10+","altim":1015.3,"slp":1014.3,"qcField":4,"metarType":"METAR","rawOb":"METAR KCVG 141852Z 22013G23KT 10SM SCT046 BKN250 27/16 A2998 RMK AO2 PK WND 21026/1823 SLP143 T02670161","lat":39.0444,"lon":-84.6724,"elev":264,"name":"Cincinnati Intl, KY, US","cover":"BKN","clouds":[{"cover":"SCT","base":4600},{"cover":"BKN","base":25000}],"fltCat":"VFR"},{"icaoId":"KDCA","receiptTime":"2026-04-14T18:56:14.939Z","obsTime":1776192720,"reportTime":"2026-04-14T19:00:00.000Z","temp":28.3,"dewp":13.9,"wdir":170,"wspd":12,"visib":"10+","altim":1014.6,"slp":1014.6,"qcField":4,"metarType":"METAR","rawOb":"METAR KDCA 141852Z 17012KT 10SM FEW100 SCT250 28/14 A2996 RMK AO2 SLP146 T02830139","lat":38.8472,"lon":-77.0345,"elev":4,"name":"Washington/Reagan-National Arpt, VA, US","cover":"SCT","clouds":[{"cover":"FEW","base":10000},{"cover":"SCT","base":25000}],"fltCat":"VFR"},{"icaoId":"KCLT","receiptTime":"2026-04-14T18:56:14.889Z","obsTime":1776192720,"reportTime":"2026-04-14T19:00:00.000Z","temp":28.9,"dewp":11.7,"wdir":210,"wspd":8,"wgst":17,"visib":"10+","altim":1020.4,"slp":1020.8,"qcField":4,"metarType":"METAR","rawOb":"METAR KCLT 141852Z 21008G17KT 10SM FEW070 FEW120 FEW250 29/12 A3013 RMK AO2 SLP208 T02890117","lat":35.2225,"lon":-80.9543,"elev":223,"name":"Charlotte/Douglas Intl, NC, US","cover":"FEW","clouds":[{"cover":"FEW","base":7000},{"cover":"FEW","base":12000},{"cover":"FEW","base":25000}],"fltCat":"VFR"},{"icaoId":"KABI","receiptTime":"2026-04-14T18:56:17.005Z","obsTime":1776192720,"reportTime":"2026-04-14T19:00:00.000Z","temp":26.7,"dewp":20,"wdir":180,"wspd":17,"wgst":29,"visib":"10+","altim":1013.6,"slp":1011,"qcField":4,"metarType":"METAR","rawOb":"METAR KABI 141852Z 18017G29KT 10SM SCT027 27/20 A2993 RMK AO2 PK WND 19033/1835 SLP110 T02670200","lat":32.4106,"lon":-99.6821,"elev":543,"name":"Abilene Rgnl, TX, US","cover":"SCT","clouds":[{"cover":"SCT","base":2700}],"fltCat":"VFR"},{"icaoId":"KHRL","receiptTime":"2026-04-14T18:56:15.092Z","obsTime":1776192720,"reportTime":"2026-04-14T19:00:00.000Z","temp":29.4,"dewp":21.1,"wdir":150,"wspd":17,"wgst":26,"visib":"10+","altim":1014.3,"slp":1014.2,"qcField":4,"metarType":"METAR","rawOb":"METAR KHRL 141852Z 15017G26KT 10SM SCT034 BKN044 OVC055 29/21 A2995 RMK AO2 PK WND 17030/1817 SLP142 T02940211","lat":26.2303,"lon":-97.6556,"elev":9,"name":"Harlingen/Valley Intl, TX, US","cover":"OVC","clouds":[{"cover":"SCT","base":3400},{"cover":"BKN","base":4400},{"cover":"OVC","base":5500}],"fltCat":"VFR"},{"icaoId":"KSPS","receiptTime":"2026-04-14T18:56:17.176Z","obsTime":1776192720,"reportTime":"2026-04-14T19:00:00.000Z","temp":27.8,"dewp":19.4,"wdir":190,"wspd":18,"wgst":24,"visib":"10+","altim":1011.9,"slp":1010.6,"qcField":14,"metarType":"METAR","rawOb":"METAR KSPS 141852Z AUTO 19018G24KT 10SM 28/19 A2988 RMK AO2 SLP106 T02780194 $","lat":33.9785,"lon":-98.493,"elev":310,"name":"Wichita Falls Rgnl, TX, US"},{"icaoId":"KATL","receiptTime":"2026-04-14T18:56:14.757Z","obsTime":1776192720,"reportTime":"2026-04-14T19:00:00.000Z","temp":28.3,"dewp":8.9,"wdir":230,"wspd":8,"wgst":17,"visib":"10+","altim":1022.4,"slp":1021.5,"qcField":12,"metarType":"METAR","rawOb":"METAR KATL 141852Z 23008G17KT 10SM FEW055 FEW250 28/09 A3019 RMK AO2 SLP215 T02830089 $","lat":33.6297,"lon":-84.4422,"elev":309,"name":"Atlanta/Hartsfield-Jackson Intl, GA, US","cover":"FEW","clouds":[{"cover":"FEW","base":5500},{"cover":"FEW","base":25000}],"fltCat":"VFR"},{"icaoId":"KMKE","receiptTime":"2026-04-14T18:56:10.138Z","obsTime":1776192720,"reportTime":"2026-04-14T19:00:00.000Z","temp":25,"dewp":16.7,"wdir":230,"wspd":8,"visib":"10+","altim":1007.2,"slp":1006.8,"qcField":4,"metarType":"METAR","rawOb":"METAR KMKE 141852Z 23008KT 10SM SCT035 BKN250 25/17 A2974 RMK AO2 SLP068 T02500167","lat":42.9549,"lon":-87.9045,"elev":203,"name":"Milwaukee/Mitchell Intl, WI, US","cover":"BKN","clouds":[{"cover":"SCT","base":3500},{"cover":"BKN","base":25000}],"fltCat":"VFR"},{"icaoId":"KOKC","receiptTime":"2026-04-14T18:56:10.232Z","obsTime":1776192720,"reportTime":"2026-04-14T19:00:00.000Z","temp":26.7,"dewp":20,"wdir":180,"wspd":15,"wgst":23,"visib":"10+","altim":1011.9,"slp":1010.1,"qcField":4,"metarType":"METAR","rawOb":"METAR KOKC 141852Z 18015G23KT 10SM SCT027 BKN040 27/20 A2988 RMK AO2 SLP101 T02670200","lat":35.3843,"lon":-97.6003,"elev":391,"name":"Oklahoma City/Will Rogers Intl, OK, US","cover":"BKN","clouds":[{"cover":"SCT","base":2700},{"cover":"BKN","base":4000}],"fltCat":"VFR"},{"icaoId":"KABQ","receiptTime":"2026-04-14T18:56:17.017Z","obsTime":1776192720,"reportTime":"2026-04-14T19:00:00.000Z","temp":17.2,"dewp":-3.3,"wdir":240,"wspd":13,"visib":"10+","altim":1015,"slp":1009,"qcField":4,"metarType":"METAR","rawOb":"METAR KABQ 141852Z 24013KT 10SM BKN100 BKN250 17/M03 A2997 RMK AO2 SLP090 T01721033","lat":35.0419,"lon":-106.6154,"elev":1620,"name":"Albuquerque Intl, NM, US","cover":"BKN","clouds":[{"cover":"BKN","base":10000},{"cover":"BKN","base":25000}],"fltCat":"VFR"},{"icaoId":"KIAD","receiptTime":"2026-04-14T18:56:15.132Z","obsTime":1776192720,"reportTime":"2026-04-14T19:00:00.000Z","temp":30,"dewp":12.2,"wdir":210,"wspd":10,"wgst":16,"visib":"10+","altim":1015,"slp":1014.6,"qcField":4,"metarType":"METAR","rawOb":"METAR KIAD 141852Z 21010G16KT 10SM FEW060 SCT180 SCT250 30/12 A2997 RMK AO2 SLP146 T03000122","lat":38.9348,"lon":-77.4473,"elev":90,"name":"Washington/Dulles Intl, VA, US","cover":"SCT","clouds":[{"cover":"FEW","base":6000},{"cover":"SCT","base":18000},{"cover":"SCT","base":25000}],"fltCat":"VFR"},{"icaoId":"KSAT","receiptTime":"2026-04-14T18:54:16.272Z","obsTime":1776192660,"reportTime":"2026-04-14T19:00:00.000Z","temp":27.2,"dewp":18.9,"wdir":180,"wspd":11,"visib":"10+","altim":1015.7,"slp":1013.7,"qcField":4,"metarType":"METAR","rawOb":"METAR KSAT 141851Z 18011KT 10SM SCT034 BKN046 BKN250 27/19 A2999 RMK AO2 SLP137 T02720189","lat":29.5443,"lon":-98.4839,"elev":246,"name":"San Antonio Intl, TX, US","cover":"BKN","clouds":[{"cover":"SCT","base":3400},{"cover":"BKN","base":4600},{"cover":"BKN","base":25000}],"fltCat":"VFR"},{"icaoId":"KCLE","receiptTime":"2026-04-14T18:54:14.507Z","obsTime":1776192660,"reportTime":"2026-04-14T19:00:00.000Z","temp":22.8,"dewp":17.2,"wdir":210,"wspd":12,"wgst":19,"visib":9,"altim":1011.9,"slp":1012.8,"qcField":12,"wxString":"-TSRA","precip":0.005,"metarType":"METAR","rawOb":"METAR KCLE 141851Z 21012G19KT 9SM -TSRA SCT025CB BKN110 OVC200 23/17 A2988 RMK AO2 PK WND 21026/1800 RAB39 TSB51 SLP128 CONS LTGCGICCC S-W TS S-W MOV E P0000 T02280172 $","lat":41.4057,"lon":-81.8519,"elev":237,"name":"Cleveland/Hopkins Intl, OH, US","cover":"OVC","clouds":[{"cover":"SCT","base":2500},{"cover":"BKN","base":11000},{"cover":"OVC","base":20000}],"fltCat":"VFR"},{"icaoId":"KCRP","receiptTime":"2026-04-14T18:54:14.727Z","obsTime":1776192660,"reportTime":"2026-04-14T19:00:00.000Z","temp":29.4,"dewp":21.1,"wdir":140,"wspd":20,"wgst":29,"visib":"10+","altim":1015.3,"slp":1015.1,"qcField":4,"metarType":"METAR","rawOb":"METAR KCRP 141851Z 14020G29KT 10SM SCT022 BKN031 BKN040 BKN250 29/21 A2998 RMK AO2 PK WND 15029/1839 SLP151 T02940211","lat":27.7734,"lon":-97.513,"elev":11,"name":"Corpus Christi Intl, TX, US","cover":"BKN","clouds":[{"cover":"SCT","base":2200},{"cover":"BKN","base":3100},{"cover":"BKN","base":4000},{"cover":"BKN","base":25000}],"fltCat":"VFR"},{"icaoId":"KEWR","receiptTime":"2026-04-14T18:54:15.082Z","obsTime":1776192660,"reportTime":"2026-04-14T19:00:00.000Z","temp":30.6,"dewp":12.8,"wdir":220,"wspd":12,"wgst":23,"visib":"10+","altim":1012.3,"slp":1012,"qcField":4,"metarType":"METAR","rawOb":"METAR KEWR 141851Z 22012G23KT 10SM FEW060 FEW180 BKN250 31/13 A2989 RMK AO2 PK WND 23029/1818 SLP120 T03060128","lat":40.6828,"lon":-74.1692,"elev":2,"name":"Newark Intl, NJ, US","cover":"BKN","clouds":[{"cover":"FEW","base":6000},{"cover":"FEW","base":18000},{"cover":"BKN","base":25000}],"fltCat":"VFR"},{"icaoId":"KIGM","receiptTime":"2026-04-14T18:54:15.480Z","obsTime":1776192660,"reportTime":"2026-04-14T19:00:00.000Z","temp":15.6,"dewp":-0.6,"wdir":350,"wspd":6,"visib":"10+","altim":1018.4,"slp":1014.5,"qcField":6,"metarType":"METAR","rawOb":"METAR KIGM 141851Z AUTO 35006KT 10SM CLR 16/M01 A3007 RMK AO2 SLP145 T01561006","lat":35.2575,"lon":-113.9341,"elev":1045,"name":"Kingman Arpt, AZ, US","cover":"CLR","clouds":[],"fltCat":"VFR"},{"icaoId":"KORD","receiptTime":"2026-04-14T18:54:15.786Z","obsTime":1776192660,"reportTime":"2026-04-14T19:00:00.000Z","temp":26.7,"dewp":17.2,"wdir":240,"wspd":14,"wgst":23,"visib":"10+","altim":1008.2,"slp":1007.7,"qcField":4,"metarType":"METAR","rawOb":"METAR KORD 141851Z 24014G23KT 10SM SCT036 BKN250 27/17 A2977 RMK AO2 PK WND 23026/1759 SLP077 T02670172","lat":41.9602,"lon":-87.9316,"elev":202,"name":"Chicago/O'Hare Intl, IL, US","cover":"BKN","clouds":[{"cover":"SCT","base":3600},{"cover":"BKN","base":25000}],"fltCat":"VFR"},{"icaoId":"KPHX","receiptTime":"2026-04-14T18:54:15.927Z","obsTime":1776192660,"reportTime":"2026-04-14T19:00:00.000Z","temp":21.1,"dewp":-1.7,"wdir":80,"wspd":3,"visib":"10+","altim":1016.3,"slp":1015,"qcField":12,"metarType":"METAR","rawOb":"METAR KPHX 141851Z 08003KT 10SM FEW070 FEW100 FEW230 21/M01 A3001 RMK AO2 SLP150 T02111017 $","lat":33.4278,"lon":-112.0037,"elev":338,"name":"Phoenix/Sky Harbor Intl, AZ, US","cover":"FEW","clouds":[{"cover":"FEW","base":7000},{"cover":"FEW","base":10000},{"cover":"FEW","base":23000}],"fltCat":"VFR"},{"icaoId":"KPVD","receiptTime":"2026-04-14T18:54:16.080Z","obsTime":1776192660,"reportTime":"2026-04-14T19:00:00.000Z","temp":22.2,"dewp":13.3,"wdir":150,"wspd":14,"visib":"10+","altim":1012.6,"slp":1012.6,"qcField":4,"metarType":"METAR","rawOb":"METAR KPVD 141851Z 15014KT 10SM FEW040 FEW080 BKN250 22/13 A2990 RMK AO2 PK WND 15027/1759 SLP126 T02220133","lat":41.7225,"lon":-71.4325,"elev":15,"name":"Providence/Green Mem, RI, US","cover":"BKN","clouds":[{"cover":"FEW","base":4000},{"cover":"FEW","base":8000},{"cover":"BKN","base":25000}],"fltCat":"VFR"},{"icaoId":"KROW","receiptTime":"2026-04-14T18:54:16.169Z","obsTime":1776192660,"reportTime":"2026-04-14T19:00:00.000Z","temp":26.1,"dewp":0,"wdir":210,"wspd":23,"wgst":32,"visib":"10+","altim":1012.3,"slp":1006.8,"qcField":4,"metarType":"METAR","rawOb":"METAR KROW 141851Z 21023G32KT 10SM CLR 26/00 A2989 RMK AO2 PK WND 21036/1836 SLP068 T02610000","lat":33.3074,"lon":-104.5082,"elev":1105,"name":"Roswell/Ind Arpt, NM, US","cover":"CLR","clouds":[],"fltCat":"VFR"},{"icaoId":"KSTL","receiptTime":"2026-04-14T18:54:16.400Z","obsTime":1776192660,"reportTime":"2026-04-14T19:00:00.000Z","temp":30,"dewp":18.3,"wdir":220,"wspd":12,"wgst":21,"visib":"10+","altim":1010.9,"slp":1009.6,"qcField":12,"metarType":"METAR","rawOb":"METAR KSTL 141851Z 22012G21KT 10SM FEW048 BKN160 BKN250 30/18 A2985 RMK AO2 SLP096 T03000183 $","lat":38.7525,"lon":-90.3734,"elev":163,"name":"St Louis/Lambert Intl, MO, US","cover":"BKN","clouds":[{"cover":"FEW","base":4800},{"cover":"BKN","base":16000},{"cover":"BKN","base":25000}],"fltCat":"VFR"},{"icaoId":"KLGU","receiptTime":"2026-04-14T18:54:15.666Z","obsTime":1776192660,"reportTime":"2026-04-14T19:00:00.000Z","temp":10,"dewp":0,"wdir":"VRB","wspd":3,"visib":"10+","altim":1016,"slp":1014.6,"qcField":6,"metarType":"METAR","rawOb":"METAR KLGU 141851Z AUTO VRB03KT 10SM CLR 10/00 A3000 RMK AO2 SLP146 T01000000","lat":41.7865,"lon":-111.8519,"elev":1359,"name":"Logan/Cache Arpt, UT, US","cover":"CLR","clouds":[],"fltCat":"VFR"},{"icaoId":"KBDL","receiptTime":"2026-04-14T18:54:13.793Z","obsTime":1776192660,"reportTime":"2026-04-14T19:00:00.000Z","temp":28.9,"dewp":13.3,"wdir":190,"wspd":18,"wgst":26,"visib":"10+","altim":1010.6,"slp":1010.3,"qcField":4,"metarType":"METAR","rawOb":"METAR KBDL 141851Z 19018G26KT 10SM SCT070 BKN100 BKN250 29/13 A2984 RMK AO2 PK WND 17029/1821 SLP103 T02890133","lat":41.9374,"lon":-72.682,"elev":52,"name":"Hartford/Bradley Intl, CT, US","cover":"BKN","clouds":[{"cover":"SCT","base":7000},{"cover":"BKN","base":10000},{"cover":"BKN","base":25000}],"fltCat":"VFR"},{"icaoId":"KCMH","receiptTime":"2026-04-14T18:54:14.555Z","obsTime":1776192660,"reportTime":"2026-04-14T19:00:00.000Z","temp":27.2,"dewp":15,"wdir":260,"wspd":14,"wgst":26,"visib":"10+","altim":1014,"slp":1013.2,"qcField":4,"metarType":"METAR","rawOb":"METAR KCMH 141851Z 26014G26KT 10SM SCT050 BKN250 27/15 A2994 RMK AO2 PK WND 25026/1849 SLP132 T02720150","lat":39.9907,"lon":-82.877,"elev":257,"name":"Columbus/Glenn Intl, OH, US","cover":"BKN","clouds":[{"cover":"SCT","base":5000},{"cover":"BKN","base":25000}],"fltCat":"VFR"},{"icaoId":"KVNY","receiptTime":"2026-04-14T18:54:16.493Z","obsTime":1776192660,"reportTime":"2026-04-14T19:00:00.000Z","temp":18.9,"dewp":5,"wdir":0,"wspd":0,"visib":"10+","altim":1019.4,"slp":1018.6,"qcField":12,"metarType":"METAR","rawOb":"METAR KVNY 141851Z 00000KT 10SM CLR 19/05 A3010 RMK AO2 SLP186 T01890050 $","lat":34.2121,"lon":-118.4915,"elev":241,"name":"Van Nuys Arpt, CA, US","cover":"CLR","clouds":[],"fltCat":"VFR"},{"icaoId":"KELP","receiptTime":"2026-04-14T18:54:14.941Z","obsTime":1776192660,"reportTime":"2026-04-14T19:00:00.000Z","temp":23.9,"dewp":0.6,"wdir":240,"wspd":28,"wgst":36,"visib":"10+","altim":1015,"slp":1008.5,"qcField":4,"metarType":"METAR","rawOb":"METAR KELP 141851Z 24028G36KT 10SM FEW090 SCT140 SCT180 BKN250 24/01 A2997 RMK AO2 PK WND 22036/1848 SLP085 ACSL NE T02390006","lat":31.8123,"lon":-106.3774,"elev":1205,"name":"El Paso Intl, TX, US","cover":"BKN","clouds":[{"cover":"FEW","base":9000},{"cover":"SCT","base":14000},{"cover":"SCT","base":18000},{"cover":"BKN","base":25000}],"fltCat":"VFR"},{"icaoId":"KJFK","receiptTime":"2026-04-14T18:54:15.637Z","obsTime":1776192660,"reportTime":"2026-04-14T19:00:00.000Z","temp":21.7,"dewp":12.8,"wdir":180,"wspd":16,"visib":"10+","altim":1013.6,"slp":1013.3,"qcField":4,"metarType":"METAR","rawOb":"METAR KJFK 141851Z 18016KT 10SM FEW060 BKN250 22/13 A2993 RMK AO2 SLP133 T02170128","lat":40.6392,"lon":-73.7639,"elev":3,"name":"New York/JF Kennedy Intl, NY, US","cover":"BKN","clouds":[{"cover":"FEW","base":6000},{"cover":"BKN","base":25000}],"fltCat":"VFR"},{"icaoId":"KMYL","receiptTime":"2026-04-14T18:54:15.740Z","obsTime":1776192660,"reportTime":"2026-04-14T19:00:00.000Z","temp":5,"dewp":-2.8,"wdir":250,"wspd":8,"visib":"10+","altim":1015.7,"slp":1016.3,"qcField":6,"metarType":"METAR","rawOb":"METAR KMYL 141851Z AUTO 25008KT 10SM SCT033 OVC043 05/M03 A2999 RMK AO2 SLP163 T00501028","lat":44.8943,"lon":-116.0998,"elev":1532,"name":"McCall Muni, ID, US","cover":"OVC","clouds":[{"cover":"SCT","base":3300},{"cover":"OVC","base":4300}],"fltCat":"VFR"},{"icaoId":"KORF","receiptTime":"2026-04-14T18:54:15.818Z","obsTime":1776192660,"reportTime":"2026-04-14T19:00:00.000Z","temp":30.6,"dewp":12.8,"wdir":240,"wspd":10,"wgst":15,"visib":"10+","altim":1017.4,"slp":1017.2,"qcField":4,"metarType":"METAR","rawOb":"METAR KORF 141851Z 24010G15KT 220V280 10SM CLR 31/13 A3004 RMK AO2 SLP172 T03060128","lat":36.9037,"lon":-76.1927,"elev":5,"name":"Norfolk Intl, VA, US","cover":"CLR","clouds":[],"fltCat":"VFR"},{"icaoId":"KPIT","receiptTime":"2026-04-14T18:54:15.997Z","obsTime":1776192660,"reportTime":"2026-04-14T19:00:00.000Z","temp":23.9,"dewp":15,"wdir":260,"wspd":8,"visib":"10+","altim":1014.6,"slp":1014.5,"qcField":4,"wxString":"-RA","precip":0.005,"metarType":"METAR","rawOb":"METAR KPIT 141851Z 26008KT 10SM -RA BKN043 BKN075 BKN100 24/15 A2996 RMK AO2 RAB50 SLP145 OCNL LTG DSNT N P0000 T02390150","lat":40.4814,"lon":-80.2083,"elev":339,"name":"Pittsburgh Intl, PA, US","cover":"BKN","clouds":[{"cover":"BKN","base":4300},{"cover":"BKN","base":7500},{"cover":"BKN","base":10000}],"fltCat":"VFR"},{"icaoId":"KRDU","receiptTime":"2026-04-14T18:54:16.149Z","obsTime":1776192660,"reportTime":"2026-04-14T19:00:00.000Z","temp":31.1,"dewp":12.2,"wdir":210,"wspd":9,"wgst":20,"visib":"10+","altim":1019.4,"slp":1018.9,"qcField":4,"metarType":"METAR","rawOb":"METAR KRDU 141851Z 21009G20KT 10SM FEW070 FEW180 SCT250 31/12 A3010 RMK AO2 SLP189 T03110122","lat":35.8923,"lon":-78.782,"elev":121,"name":"Raleigh-Durham Intl, NC, US","cover":"SCT","clouds":[{"cover":"FEW","base":7000},{"cover":"FEW","base":18000},{"cover":"SCT","base":25000}],"fltCat":"VFR"},{"icaoId":"KSAD","receiptTime":"2026-04-14T18:54:16.201Z","obsTime":1776192660,"reportTime":"2026-04-14T19:00:00.000Z","temp":21.1,"dewp":0.6,"visib":"10+","altim":1015.7,"slp":1011.9,"qcField":6,"metarType":"METAR","rawOb":"METAR KSAD 141851Z AUTO 10SM FEW075 21/01 A2999 RMK AO2 SLP119 T02110006","lat":32.8565,"lon":-109.636,"elev":937,"name":"Safford Rgnl, AZ, US","cover":"FEW","clouds":[{"cover":"FEW","base":7500}],"fltCat":"VFR"},{"icaoId":"KSAN","receiptTime":"2026-04-14T18:54:16.234Z","obsTime":1776192660,"reportTime":"2026-04-14T19:00:00.000Z","temp":20,"dewp":10,"wdir":290,"wspd":8,"visib":"10+","altim":1020.4,"slp":1020.3,"qcField":12,"metarType":"METAR","rawOb":"METAR KSAN 141851Z 29008KT 270V330 10SM SCT035 20/10 A3013 RMK AO2 SLP203 T02000100 $","lat":32.7364,"lon":-117.1973,"elev":3,"name":"San Diego Intl Arpt, CA, US","cover":"SCT","clouds":[{"cover":"SCT","base":3500}],"fltCat":"VFR"},{"icaoId":"KLGA","receiptTime":"2026-04-14T18:56:15.214Z","obsTime":1776192660,"reportTime":"2026-04-14T19:00:00.000Z","temp":28.3,"dewp":13.9,"wdir":170,"wspd":18,"wgst":26,"visib":"10+","altim":1012.3,"slp":1012,"qcField":12,"metarType":"METAR","rawOb":"METAR KLGA 141851Z 17018G26KT 10SM FEW060 BKN250 28/14 A2989 RMK AO2 PK WND 17026/1842 SLP120 T02830139 $","lat":40.7794,"lon":-73.8803,"elev":9,"name":"New York/La Guardia Arpt, NY, US","cover":"BKN","clouds":[{"cover":"FEW","base":6000},{"cover":"BKN","base":25000}],"fltCat":"VFR"},{"icaoId":"KOXR","receiptTime":"2026-04-14T18:54:15.867Z","obsTime":1776192660,"reportTime":"2026-04-14T19:00:00.000Z","temp":18.9,"dewp":11.1,"wdir":230,"wspd":7,"visib":"10+","altim":1020.1,"slp":1019.7,"qcField":12,"metarType":"METAR","rawOb":"METAR KOXR 141851Z 23007KT 10SM CLR 19/11 A3012 RMK AO2 SLP197 T01890111 $","lat":34.2001,"lon":-119.2042,"elev":12,"name":"Oxnard Arpt, CA, US","cover":"CLR","clouds":[],"fltCat":"VFR"},{"icaoId":"KACT","receiptTime":"2026-04-14T18:54:13.478Z","obsTime":1776192660,"reportTime":"2026-04-14T19:00:00.000Z","temp":26.1,"dewp":20,"wdir":170,"wspd":13,"visib":"10+","altim":1015.7,"slp":1015,"qcField":4,"metarType":"METAR","rawOb":"METAR KACT 141851Z 17013KT 10SM FEW032 OVC046 26/20 A2999 RMK AO2 SLP150 T02610200","lat":31.618,"lon":-97.2283,"elev":150,"name":"Waco Rgnl, TX, US","cover":"OVC","clouds":[{"cover":"FEW","base":3200},{"cover":"OVC","base":4600}],"fltCat":"VFR"},{"icaoId":"KBJC","receiptTime":"2026-04-14T18:54:14.068Z","obsTime":1776192600,"reportTime":"2026-04-14T19:00:00.000Z","temp":12,"dewp":-3,"wdir":290,"wspd":10,"visib":"10+","altim":1011.9,"qcField":0,"wxString":"VCSH","metarType":"METAR","rawOb":"METAR KBJC 141850Z 29010KT 10SM VCSH SCT050 BKN070 OVC080 12/M03 A2988 RMK VRGA W-N","lat":39.9008,"lon":-105.1042,"elev":1694,"name":"Rocky Mtn Metro, CO, US","cover":"OVC","clouds":[{"cover":"SCT","base":5000},{"cover":"BKN","base":7000},{"cover":"OVC","base":8000}],"fltCat":"VFR"},{"icaoId":"KHOB","receiptTime":"2026-04-14T18:52:05.308Z","obsTime":1776192600,"reportTime":"2026-04-14T19:00:00.000Z","temp":27,"dewp":-2,"wdir":220,"wspd":14,"wgst":20,"visib":"10+","altim":1014,"qcField":0,"metarType":"METAR","rawOb":"METAR KHOB 141850Z 22014G20KT 10SM CLR 27/M02 A2994","lat":32.6797,"lon":-103.2222,"elev":1112,"name":"Hobbs Arpt, NM, US","cover":"CLR","clouds":[],"fltCat":"VFR"},{"icaoId":"KADM","receiptTime":"2026-04-14T19:00:03.199Z","obsTime":1776192600,"reportTime":"2026-04-14T19:00:00.000Z","temp":26,"dewp":21,"wdir":190,"wspd":13,"wgst":19,"visib":"10+","altim":1013.3,"qcField":0,"metarType":"METAR","rawOb":"METAR KADM 141850Z 19013G19KT 10SM SCT025 OVC029 26/21 A2992","lat":34.3007,"lon":-97.0089,"elev":223,"name":"Ardmore Muni, OK, US","cover":"OVC","clouds":[{"cover":"SCT","base":2500},{"cover":"OVC","base":2900}],"fltCat":"MVFR"},{"icaoId":"KSUN","receiptTime":"2026-04-14T18:45:45.546Z","obsTime":1776192600,"reportTime":"2026-04-14T19:00:00.000Z","temp":10,"dewp":-6,"wdir":180,"wspd":10,"visib":"10+","altim":1015.3,"qcField":0,"metarType":"METAR","rawOb":"METAR KSUN 141850Z 18010KT 10SM BKN 055 10/M06 A2998","lat":43.4969,"lon":-114.2923,"elev":1619,"name":"Hailey/Friedman Mem, ID, US","cover":"BKN","clouds":[{"cover":"BKN","base":5500}],"fltCat":"VFR"},{"icaoId":"KGEU","receiptTime":"2026-04-14T18:48:55.459Z","obsTime":1776192480,"reportTime":"2026-04-14T19:00:00.000Z","temp":22,"dewp":-1,"wdir":"VRB","wspd":5,"visib":"10+","altim":1016,"qcField":0,"metarType":"METAR","rawOb":"METAR KGEU 141848Z VRB05KT 10SM CLR 22/M01 A3000","lat":33.528,"lon":-112.293,"elev":319,"name":"Glendale Muni, AZ, US","cover":"CLR","clouds":[],"fltCat":"VFR"},{"icaoId":"KCHD","receiptTime":"2026-04-14T18:47:48.145Z","obsTime":1776192420,"reportTime":"2026-04-14T19:00:00.000Z","temp":22,"dewp":-1,"wdir":220,"wspd":8,"visib":"10+","altim":1017,"qcField":0,"metarType":"METAR","rawOb":"METAR KCHD 141847Z 22008KT 10SM FEW100 22/M01 A3003","lat":33.2669,"lon":-111.8086,"elev":378,"name":"Chandler Muni, AZ, US","cover":"FEW","clouds":[{"cover":"FEW","base":10000}],"fltCat":"VFR"},{"icaoId":"KGYR","receiptTime":"2026-04-14T18:48:55.542Z","obsTime":1776192420,"reportTime":"2026-04-14T19:00:00.000Z","temp":21,"dewp":2,"wdir":"VRB","wspd":3,"visib":"10+","altim":1017,"qcField":0,"metarType":"METAR","rawOb":"METAR KGYR 141847Z VRB03KT 10SM FEW070 FEW150 21/02 A3003","lat":33.428,"lon":-112.368,"elev":292,"name":"Phoenix/Goodyear Muni, AZ, US","cover":"FEW","clouds":[{"cover":"FEW","base":7000},{"cover":"FEW","base":15000}],"fltCat":"VFR"},{"icaoId":"KAEG","receiptTime":"2026-04-14T18:50:45.494Z","obsTime":1776192420,"reportTime":"2026-04-14T19:00:00.000Z","temp":18,"dewp":-2,"wdir":230,"wspd":16,"wgst":25,"visib":"10+","altim":1016,"qcField":0,"metarType":"METAR","rawOb":"METAR KAEG 141847Z 23016G25KT 10SM SCT100 18/M02 A3000","lat":35.15,"lon":-106.7929,"elev":1771,"name":"Albuquerque/Double Eagle Arpt, NM, US","cover":"SCT","clouds":[{"cover":"SCT","base":10000}],"fltCat":"VFR"},{"icaoId":"KRYN","receiptTime":"2026-04-14T18:46:24.186Z","obsTime":1776192300,"reportTime":"2026-04-14T19:00:00.000Z","temp":23,"dewp":1,"wdir":290,"wspd":3,"wgst":13,"visib":"10+","altim":1016.7,"qcField":0,"metarType":"METAR","rawOb":"METAR KRYN 141845Z 29003G13KT 10SM CLR 23/01 A3002","lat":32.1418,"lon":-111.1767,"elev":731,"name":"Tucson/Ryan Fld, AZ, US","cover":"CLR","clouds":[],"fltCat":"VFR"},{"icaoId":"KMLC","receiptTime":"2026-04-14T18:38:09.685Z","obsTime":1776191700,"reportTime":"2026-04-14T18:35:00.000Z","temp":26.1,"dewp":20,"wdir":190,"wspd":11,"wgst":19,"visib":"10+","altim":1014.3,"qcField":6,"metarType":"SPECI","rawOb":"SPECI KMLC 141835Z AUTO 19011G19KT 150V210 10SM SCT024 OVC036 26/20 A2995 RMK AO2 PK WND 20027/1821 T02610200","lat":34.8824,"lon":-95.7815,"elev":231,"name":"McAlester Rgnl, OK, US","cover":"OVC","clouds":[{"cover":"SCT","base":2400},{"cover":"OVC","base":3600}],"fltCat":"VFR"},{"icaoId":"KLAW","receiptTime":"2026-04-14T18:34:04.338Z","obsTime":1776191400,"reportTime":"2026-04-14T18:30:00.000Z","temp":26.7,"dewp":20,"wdir":180,"wspd":16,"wgst":23,"visib":"10+","altim":1012.3,"qcField":4,"metarType":"SPECI","rawOb":"SPECI KLAW 141830Z 18016G23KT 10SM BKN028 BKN034 27/20 A2989 RMK AO2 T02670200","lat":34.5577,"lon":-98.4172,"elev":328,"name":"Lawton-Fort Sill Rgnl, OK, US","cover":"BKN","clouds":[{"cover":"BKN","base":2800},{"cover":"BKN","base":3400}],"fltCat":"MVFR"},{"icaoId":"KDFW","receiptTime":"2026-04-14T18:06:07.105Z","obsTime":1776189780,"reportTime":"2026-04-14T18:03:00.000Z","temp":23.9,"dewp":18.9,"wdir":180,"wspd":10,"visib":"10+","altim":1015.3,"qcField":4,"metarType":"SPECI","rawOb":"SPECI KDFW 141803Z 18010KT 10SM BKN023 OVC031 24/19 A2998 RMK AO2 T02390189","lat":32.8974,"lon":-97.022,"elev":168,"name":"Dallas-Ft Worth Intl, TX, US","cover":"OVC","clouds":[{"cover":"BKN","base":2300},{"cover":"OVC","base":3100}],"fltCat":"MVFR"},{"icaoId":"KOTH","receiptTime":"2026-04-14T17:57:18.500Z","obsTime":1776189300,"reportTime":"2026-04-14T18:00:00.000Z","temp":9,"dewp":8,"wdir":170,"wspd":7,"visib":9,"altim":1023.1,"qcField":0,"wxString":"-RA","metarType":"METAR","rawOb":"METAR KOTH 141755Z 17007KT 9SM -RA FEW007 BKN027 OVC037 09/08 A3021","lat":43.4194,"lon":-124.2438,"elev":3,"name":"North Bend/SW Oregon Rgnl, OR, US","cover":"OVC","clouds":[{"cover":"FEW","base":700},{"cover":"BKN","base":2700},{"cover":"OVC","base":3700}],"fltCat":"MVFR"},{"icaoId":"KMAF","receiptTime":"2026-04-14T17:56:33.858Z","obsTime":1776189180,"reportTime":"2026-04-14T18:00:00.000Z","temp":28.9,"dewp":7.8,"wdir":230,"wspd":7,"wgst":24,"visib":"10+","altim":1014.3,"slp":1009.7,"qcField":4,"presTend":-1.3,"maxT":29.4,"minT":19.4,"metarType":"METAR","rawOb":"METAR KMAF 141753Z 23007G24KT 10SM CLR 29/08 A2995 RMK AO2 SLP097 T02890078 10294 20194 58013","lat":31.9475,"lon":-102.2086,"elev":874,"name":"Midland Intl, TX, US","cover":"CLR","clouds":[],"fltCat":"VFR"},{"icaoId":"KDAL","receiptTime":"2026-04-14T17:56:31.420Z","obsTime":1776189180,"reportTime":"2026-04-14T18:00:00.000Z","temp":24.4,"dewp":19.4,"wdir":180,"wspd":11,"wgst":18,"visib":"10+","altim":1016,"slp":1015.1,"qcField":4,"presTend":-0.8,"maxT":24.4,"minT":22.2,"metarType":"METAR","rawOb":"METAR KDAL 141753Z 18011G18KT 10SM SCT022 BKN029 OVC040 24/19 A3000 RMK AO2 SLP151 T02440194 10244 20222 58008","lat":32.8384,"lon":-96.8358,"elev":148,"name":"Dallas/Love Fld, TX, US","cover":"OVC","clouds":[{"cover":"SCT","base":2200},{"cover":"BKN","base":2900},{"cover":"OVC","base":4000}],"fltCat":"MVFR"},{"icaoId":"KLBB","receiptTime":"2026-04-14T17:56:35.660Z","obsTime":1776189180,"reportTime":"2026-04-14T18:00:00.000Z","temp":26.7,"dewp":7.8,"wdir":190,"wspd":15,"wgst":26,"visib":"10+","altim":1013.6,"slp":1008.6,"qcField":4,"presTend":-1,"maxT":26.7,"minT":20,"metarType":"METAR","rawOb":"METAR KLBB 141753Z 19015G26KT 10SM FEW060 SCT130 BKN160 BKN250 27/08 A2993 RMK AO2 PK WND 21026/1748 SLP086 VIRGA DSNT SW-NW T02670078 10267 20200 58010","lat":33.6658,"lon":-101.8233,"elev":996,"name":"Lubbock Intl Arpt, TX, US","cover":"BKN","clouds":[{"cover":"FEW","base":6000},{"cover":"SCT","base":13000},{"cover":"BKN","base":16000},{"cover":"BKN","base":25000}],"fltCat":"VFR"}]