[{"icaoId":"KHAF","receiptTime":"2026-04-14T09:16:11.178Z","obsTime":1776158100,"reportTime":"2026-04-14T09:15:00.000Z","temp":12,"dewp":11,"wdir":340,"wspd":11,"wgst":17,"visib":9,"altim":1021.1,"qcField":6,"metarType":"METAR","rawOb":"METAR KHAF 140915Z AUTO 34011G17KT 9SM OVC019 12/11 A3015 RMK AO2","lat":37.5136,"lon":-122.4996,"elev":11,"name":"Half Moon Bay Arpt, CA, US","cover":"OVC","clouds":[{"cover":"OVC","base":1900}],"fltCat":"MVFR"},{"icaoId":"KBVU","receiptTime":"2026-04-14T09:16:08.732Z","obsTime":1776158100,"reportTime":"2026-04-14T09:15:00.000Z","temp":11,"dewp":3,"wdir":360,"wspd":5,"visib":"10+","altim":1014,"qcField":6,"metarType":"METAR","rawOb":"METAR KBVU 140915Z AUTO 36005KT 10SM CLR 11/03 A2994 RMK AO2","lat":35.9489,"lon":-114.8633,"elev":654,"name":"Boulder City Muni, NV, US","cover":"CLR","clouds":[],"fltCat":"VFR"},{"icaoId":"KACV","receiptTime":"2026-04-14T09:16:37.812Z","obsTime":1776158040,"reportTime":"2026-04-14T09:14:00.000Z","temp":5.6,"dewp":4.4,"wdir":60,"wspd":4,"visib":"10+","altim":1023.1,"qcField":6,"metarType":"SPECI","rawOb":"SPECI KACV 140914Z AUTO 06004KT 10SM SCT027 06/04 A3021 RMK AO2 T00560044","lat":40.9784,"lon":-124.1048,"elev":63,"name":"Arcata Arpt, CA, US","cover":"SCT","clouds":[{"cover":"SCT","base":2700}],"fltCat":"VFR"},{"icaoId":"KMDW","receiptTime":"2026-04-14T09:16:10.429Z","obsTime":1776157980,"reportTime":"2026-04-14T09:13:00.000Z","temp":17.8,"dewp":12.8,"wdir":10,"wspd":13,"visib":"10+","altim":1010.6,"qcField":4,"wxString":"TS","metarType":"SPECI","rawOb":"SPECI KMDW 140913Z 01013KT 10SM TS FEW018 BKN025 OVC039CB 18/13 A2984 RMK AO2 TSB10 FRQ LTGIC N TS N MOV E T01780128","lat":41.7841,"lon":-87.7552,"elev":186,"name":"Chicago/Midway Intl, IL, US","cover":"OVC","clouds":[{"cover":"FEW","base":1800},{"cover":"BKN","base":2500},{"cover":"OVC","base":3900}],"fltCat":"MVFR"},{"icaoId":"KBCE","receiptTime":"2026-04-14T09:14:17.585Z","obsTime":1776157860,"reportTime":"2026-04-14T09:11:00.000Z","temp":-0.6,"dewp":-1.1,"wdir":150,"wspd":4,"visib":"10+","altim":1012.6,"qcField":6,"metarType":"SPECI","rawOb":"SPECI KBCE 140911Z AUTO 15004KT 10SM SCT007 BKN060 M01/M01 A2990 RMK AO2 T10061011","lat":37.7013,"lon":-112.149,"elev":2311,"name":"Bryce Canyon Arpt, UT, US","cover":"BKN","clouds":[{"cover":"SCT","base":700},{"cover":"BKN","base":6000}],"fltCat":"VFR"},{"icaoId":"KCDC","receiptTime":"2026-04-14T09:14:17.342Z","obsTime":1776157800,"reportTime":"2026-04-14T09:10:00.000Z","temp":0.6,"dewp":0,"wdir":270,"wspd":5,"visib":5,"altim":1013.6,"qcField":6,"wxString":"-SN BR","precip":0.01,"metarType":"SPECI","rawOb":"SPECI KCDC 140910Z AUTO 27005KT 5SM -SN BR BKN004 BKN010 OVC020 01/00 A2993 RMK AO2 P0001 T00060000","lat":37.7067,"lon":-113.097,"elev":1703,"name":"Cedar City Muni, UT, US","cover":"OVC","clouds":[{"cover":"BKN","base":400},{"cover":"BKN","base":1000},{"cover":"OVC","base":2000}],"fltCat":"LIFR"},{"icaoId":"KIDA","receiptTime":"2026-04-14T09:12:07.089Z","obsTime":1776157740,"reportTime":"2026-04-14T09:09:00.000Z","temp":2.8,"dewp":1.1,"wdir":210,"wspd":10,"visib":"10+","altim":1014.6,"qcField":6,"metarType":"SPECI","rawOb":"SPECI KIDA 140909Z AUTO 21010KT 10SM OVC009 03/01 A2996 RMK AO2 T00280011","lat":43.5204,"lon":-112.0675,"elev":1444,"name":"Idaho Falls Rgnl, ID, US","cover":"OVC","clouds":[{"cover":"OVC","base":900}],"fltCat":"IFR"},{"icaoId":"KVEL","receiptTime":"2026-04-14T09:12:04.914Z","obsTime":1776157680,"reportTime":"2026-04-14T09:08:00.000Z","temp":5,"dewp":1.7,"wdir":50,"wspd":8,"visib":"10+","altim":1013.3,"qcField":6,"wxString":"-RA","precip":0.01,"metarType":"SPECI","rawOb":"SPECI KVEL 140908Z AUTO 05008KT 10SM -RA OVC028 05/02 A2992 RMK AO2 P0001 T00500017","lat":40.4429,"lon":-109.5128,"elev":1604,"name":"Vernal Rgnl, UT, US","cover":"OVC","clouds":[{"cover":"OVC","base":2800}],"fltCat":"MVFR"},{"icaoId":"KMFE","receiptTime":"2026-04-14T09:10:08.998Z","obsTime":1776157620,"reportTime":"2026-04-14T09:07:00.000Z","temp":23.3,"dewp":22.2,"wdir":150,"wspd":8,"visib":9,"altim":1015,"qcField":6,"metarType":"SPECI","rawOb":"SPECI KMFE 140907Z AUTO 15008KT 9SM SCT009 SCT017 OVC023 23/22 A2997 RMK AO2 T02330222","lat":26.1791,"lon":-98.2445,"elev":29,"name":"McAllen/Miller Intl, TX, US","cover":"OVC","clouds":[{"cover":"SCT","base":900},{"cover":"SCT","base":1700},{"cover":"OVC","base":2300}],"fltCat":"MVFR"},{"icaoId":"KAST","receiptTime":"2026-04-14T09:08:40.946Z","obsTime":1776157500,"reportTime":"2026-04-14T09:05:00.000Z","temp":7.8,"dewp":6.7,"wdir":180,"wspd":3,"visib":"10+","altim":1020.1,"qcField":6,"metarType":"SPECI","rawOb":"SPECI KAST 140905Z AUTO 18003KT 10SM FEW013 BKN027 OVC039 08/07 A3012 RMK AO2 T00780067","lat":46.157,"lon":-123.8833,"elev":3,"name":"Astoria Rgnl, OR, US","cover":"OVC","clouds":[{"cover":"FEW","base":1300},{"cover":"BKN","base":2700},{"cover":"OVC","base":3900}],"fltCat":"MVFR"},{"icaoId":"KBUF","receiptTime":"2026-04-14T09:08:42.218Z","obsTime":1776157440,"reportTime":"2026-04-14T09:04:00.000Z","temp":13.9,"dewp":12.8,"wdir":170,"wspd":7,"visib":5,"altim":1013,"qcField":12,"wxString":"BR","metarType":"SPECI","rawOb":"SPECI KBUF 140904Z 17007KT 5SM BR OVC100 14/13 A2991 RMK AO2 T01390128 $","lat":42.94,"lon":-78.7361,"elev":217,"name":"Buffalo-Niagara Intl, NY, US","cover":"OVC","clouds":[{"cover":"OVC","base":10000}],"fltCat":"MVFR"},{"icaoId":"KCLL","receiptTime":"2026-04-14T09:06:06.884Z","obsTime":1776157380,"reportTime":"2026-04-14T09:03:00.000Z","temp":21.7,"dewp":20,"wdir":170,"wspd":8,"visib":"10+","altim":1017,"qcField":6,"metarType":"SPECI","rawOb":"SPECI KCLL 140903Z AUTO 17008KT 10SM SCT015 OVC030 22/20 A3003 RMK AO2 T02170200","lat":30.5912,"lon":-96.3631,"elev":96,"name":"College Station/Easterwood Arpt, TX, US","cover":"OVC","clouds":[{"cover":"SCT","base":1500},{"cover":"OVC","base":3000}],"fltCat":"MVFR"},{"icaoId":"KASE","receiptTime":"2026-04-14T09:06:06.864Z","obsTime":1776157380,"reportTime":"2026-04-14T09:03:00.000Z","temp":2.2,"dewp":1.1,"wdir":200,"wspd":7,"visib":"10+","altim":1013.3,"qcField":6,"wxString":"-RA","precip":0.005,"metarType":"SPECI","rawOb":"SPECI KASE 140903Z AUTO 20007KT 10SM -RA BKN029 BKN045 02/01 A2992 RMK AO2 P0000 T00220011","lat":39.2299,"lon":-106.8705,"elev":2384,"name":"Aspen/Pitkin Cnty, CO, US","cover":"BKN","clouds":[{"cover":"BKN","base":2900},{"cover":"BKN","base":4500}],"fltCat":"MVFR"},{"icaoId":"KMKE","receiptTime":"2026-04-14T09:06:05.671Z","obsTime":1776157320,"reportTime":"2026-04-14T09:02:00.000Z","temp":11.7,"dewp":11.1,"wdir":10,"wspd":7,"visib":"10+","altim":1008.9,"qcField":4,"wxString":"-RA","precip":0.02,"metarType":"SPECI","rawOb":"SPECI KMKE 140902Z 01007KT 10SM -RA BKN003 BKN060 OVC090 12/11 A2979 RMK AO2 P0002 T01170111","lat":42.9549,"lon":-87.9045,"elev":203,"name":"Milwaukee/Mitchell Intl, WI, US","cover":"OVC","clouds":[{"cover":"BKN","base":300},{"cover":"BKN","base":6000},{"cover":"OVC","base":9000}],"fltCat":"LIFR"},{"icaoId":"KNFL","receiptTime":"2026-04-14T09:00:32.787Z","obsTime":1776157020,"reportTime":"2026-04-14T09:00:00.000Z","temp":3.9,"dewp":-3.3,"wdir":230,"wspd":4,"visib":"10+","altim":1017.4,"slp":1014.1,"qcField":6,"presTend":0.4,"metarType":"METAR","rawOb":"METAR KNFL 140857Z AUTO 23004KT 10SM CLR 04/M03 A3004 RMK AO2 SLP141 T00391033 50004","lat":39.417,"lon":-118.705,"elev":1199,"name":"Fallon , NV, US","cover":"CLR","clouds":[],"fltCat":"VFR"},{"icaoId":"KNYL","receiptTime":"2026-04-14T09:00:32.768Z","obsTime":1776157020,"reportTime":"2026-04-14T09:00:00.000Z","temp":13.9,"dewp":2.8,"wdir":280,"wspd":7,"visib":"10+","altim":1015.7,"slp":1015.4,"qcField":6,"presTend":0.1,"metarType":"METAR","rawOb":"METAR KNYL 140857Z AUTO 28007KT 10SM CLR 14/03 A2999 RMK AO2 SLP154 T01390028 50001","lat":32.66,"lon":-114.6078,"elev":58,"name":"Yuma , AZ, US","cover":"CLR","clouds":[],"fltCat":"VFR"},{"icaoId":"KFLG","receiptTime":"2026-04-14T09:00:33.308Z","obsTime":1776157020,"reportTime":"2026-04-14T09:00:00.000Z","temp":0.6,"dewp":-1.1,"wdir":240,"wspd":8,"visib":"10+","altim":1016,"slp":1010.9,"qcField":14,"presTend":-0.1,"pcp3hr":0.005,"metarType":"METAR","rawOb":"METAR KFLG 140857Z AUTO 24008KT 10SM SCT018 01/M01 A3000 RMK AO2 SLP109 60000 T00061011 58001 $","lat":35.1443,"lon":-111.6664,"elev":2134,"name":"Flagstaff/Pulliam Arpt, AZ, US","cover":"SCT","clouds":[{"cover":"SCT","base":1800}],"fltCat":"VFR"},{"icaoId":"KLWS","receiptTime":"2026-04-14T09:00:23.451Z","obsTime":1776156960,"reportTime":"2026-04-14T09:00:00.000Z","temp":7.2,"dewp":2.8,"wdir":180,"wspd":4,"visib":"10+","altim":1016,"slp":1016.2,"qcField":14,"presTend":0.9,"metarType":"METAR","rawOb":"METAR KLWS 140856Z AUTO 18004KT 10SM CLR 07/03 A3000 RMK AO2 SLP162 T00720028 51009 $","lat":46.3746,"lon":-117.0153,"elev":435,"name":"Lewiston/Nez Perce Cnty, ID, US","cover":"CLR","clouds":[],"fltCat":"VFR"},{"icaoId":"KSFO","receiptTime":"2026-04-14T09:00:23.763Z","obsTime":1776156960,"reportTime":"2026-04-14T09:00:00.000Z","temp":12.2,"dewp":8.9,"wdir":280,"wspd":14,"visib":"10+","altim":1020.4,"slp":1020.3,"qcField":12,"presTend":-0.1,"metarType":"METAR","rawOb":"METAR KSFO 140856Z 28014KT 10SM FEW012 12/09 A3013 RMK AO2 SLP203 T01220089 56001 $","lat":37.6196,"lon":-122.3656,"elev":2,"name":"San Francisco Intl, CA, US","cover":"FEW","clouds":[{"cover":"FEW","base":1200}],"fltCat":"VFR"},{"icaoId":"KJAX","receiptTime":"2026-04-14T09:00:24.690Z","obsTime":1776156960,"reportTime":"2026-04-14T09:00:00.000Z","temp":13.9,"dewp":12.8,"wdir":0,"wspd":0,"visib":4,"altim":1022.8,"slp":1022.7,"qcField":12,"wxString":"BR","presTend":-0.9,"metarType":"METAR","rawOb":"METAR KJAX 140856Z 00000KT 4SM BR SCT002 14/13 A3020 RMK AO2 SLP227 T01390128 56009 $","lat":30.4953,"lon":-81.6937,"elev":8,"name":"Jacksonville Intl, FL, US","cover":"SCT","clouds":[{"cover":"SCT","base":200}],"fltCat":"MVFR"},{"icaoId":"KTPH","receiptTime":"2026-04-14T09:00:17.506Z","obsTime":1776156960,"reportTime":"2026-04-14T09:00:00.000Z","temp":0.6,"dewp":-3.3,"wdir":320,"wspd":5,"visib":"10+","altim":1017,"slp":1015.5,"qcField":6,"presTend":0.6,"metarType":"METAR","rawOb":"METAR KTPH 140856Z AUTO 32005KT 10SM CLR 01/M03 A3003 RMK AO2 SLP155 T00061033 51006","lat":38.0505,"lon":-117.0906,"elev":1647,"name":"Tonopah Arpt, NV, US","cover":"CLR","clouds":[],"fltCat":"VFR"},{"icaoId":"KSBP","receiptTime":"2026-04-14T09:00:22.822Z","obsTime":1776156960,"reportTime":"2026-04-14T09:00:00.000Z","temp":10.6,"dewp":8.9,"wdir":290,"wspd":6,"visib":"10+","altim":1020.1,"slp":1020,"qcField":6,"presTend":0.2,"metarType":"METAR","rawOb":"METAR KSBP 140856Z AUTO 29006KT 10SM CLR 11/09 A3012 RMK AO2 SLP200 T01060089 50002","lat":35.2381,"lon":-120.644,"elev":52,"name":"San Luis Obispo/San Luis Cnty, CA, US","cover":"CLR","clouds":[],"fltCat":"VFR"},{"icaoId":"KINW","receiptTime":"2026-04-14T09:00:23.419Z","obsTime":1776156960,"reportTime":"2026-04-14T09:00:00.000Z","temp":6.7,"dewp":3.3,"wdir":0,"wspd":0,"visib":"10+","altim":1016,"slp":1011.8,"qcField":6,"presTend":0.7,"precip":0.005,"pcp3hr":0.005,"metarType":"METAR","rawOb":"METAR KINW 140856Z AUTO 00000KT 10SM BKN039 BKN047 OVC060 07/03 A3000 RMK AO2 RAB0758E24 SLP118 P0000 60000 T00670033 50007","lat":35.0279,"lon":-110.7221,"elev":1492,"name":"Winslow/Lindberg Rgnl, AZ, US","cover":"OVC","clouds":[{"cover":"BKN","base":3900},{"cover":"BKN","base":4700},{"cover":"OVC","base":6000}],"fltCat":"VFR"},{"icaoId":"KFNL","receiptTime":"2026-04-14T08:58:35.525Z","obsTime":1776156960,"reportTime":"2026-04-14T09:00:00.000Z","temp":10,"dewp":-6.1,"wdir":160,"wspd":5,"visib":"10+","altim":1010.9,"slp":1005.9,"qcField":12,"presTend":0.4,"metarType":"METAR","rawOb":"METAR KFNL 140856Z 16005KT 10SM SCT120 10/M06 A2985 RMK AO2 SLP059 T01001061 51004 $","lat":40.4427,"lon":-105.0097,"elev":1529,"name":"Fort Collins/N Colorado Rgnl, CO, US","cover":"SCT","clouds":[{"cover":"SCT","base":12000}],"fltCat":"VFR"},{"icaoId":"KSDF","receiptTime":"2026-04-14T09:00:22.871Z","obsTime":1776156960,"reportTime":"2026-04-14T09:00:00.000Z","temp":21.1,"dewp":14.4,"wdir":210,"wspd":9,"visib":"10+","altim":1016.7,"slp":1015.9,"qcField":4,"presTend":-0.5,"metarType":"METAR","rawOb":"METAR KSDF 140856Z 21009KT 10SM SCT300 21/14 A3002 RMK AO2 SLP159 T02110144 57005","lat":38.1774,"lon":-85.7308,"elev":146,"name":"Louisville Intl, KY, US","cover":"SCT","clouds":[{"cover":"SCT","base":30000}],"fltCat":"VFR"},{"icaoId":"KCOE","receiptTime":"2026-04-14T08:58:35.137Z","obsTime":1776156960,"reportTime":"2026-04-14T09:00:00.000Z","temp":6.1,"dewp":1.7,"wdir":180,"wspd":13,"visib":"10+","altim":1014,"slp":1016.5,"qcField":14,"presTend":0.4,"metarType":"METAR","rawOb":"METAR KCOE 140856Z AUTO 18013KT 10SM OVC070 06/02 A2994 RMK AO2 SLP165 6//// T00610017 50004 PNO $","lat":47.7719,"lon":-116.8332,"elev":693,"name":"Coeur DAlene Arpt, ID, US","cover":"OVC","clouds":[{"cover":"OVC","base":7000}],"fltCat":"VFR"},{"icaoId":"KHND","receiptTime":"2026-04-14T08:58:31.126Z","obsTime":1776156960,"reportTime":"2026-04-14T09:00:00.000Z","temp":12.2,"dewp":0,"wdir":130,"wspd":4,"visib":"10+","altim":1015,"slp":1015.5,"qcField":14,"presTend":0.8,"metarType":"METAR","rawOb":"METAR KHND 140856Z AUTO 13004KT 10SM SCT110 12/00 A2997 RMK AO2 SLP155 T01220000 50008 $","lat":35.9657,"lon":-115.1343,"elev":740,"name":"Henderson Exec, NV, US","cover":"SCT","clouds":[{"cover":"SCT","base":11000}],"fltCat":"VFR"},{"icaoId":"KHDN","receiptTime":"2026-04-14T08:58:30.907Z","obsTime":1776156960,"reportTime":"2026-04-14T09:00:00.000Z","temp":3.9,"dewp":0.6,"wdir":240,"wspd":4,"visib":"10+","altim":1014,"slp":1010.5,"qcField":6,"wxString":"-RA","precip":0.005,"pcp3hr":0.005,"metarType":"METAR","rawOb":"METAR KHDN 140856Z AUTO 24004KT 10SM -RA SCT022 BKN026 OVC033 04/01 A2994 RMK AO2 RAB21 SLP105 P0000 60000 T00390006 55000","lat":40.4842,"lon":-107.2296,"elev":2012,"name":"Hayden/Yampa Valley Arpt, CO, US","cover":"OVC","clouds":[{"cover":"SCT","base":2200},{"cover":"BKN","base":2600},{"cover":"OVC","base":3300}],"fltCat":"MVFR"},{"icaoId":"KPVU","receiptTime":"2026-04-14T08:58:34.357Z","obsTime":1776156960,"reportTime":"2026-04-14T09:00:00.000Z","temp":6.1,"dewp":2.2,"wdir":0,"wspd":0,"visib":"10+","altim":1013,"slp":1010.9,"qcField":6,"presTend":-0.6,"metarType":"METAR","rawOb":"METAR KPVU 140856Z AUTO 00000KT 10SM CLR 06/02 A2991 RMK AO2 SLP109 T00610022 56006","lat":40.224,"lon":-111.7252,"elev":1370,"name":"Provo Muni, UT, US","cover":"CLR","clouds":[],"fltCat":"VFR"},{"icaoId":"KCOD","receiptTime":"2026-04-14T08:58:35.117Z","obsTime":1776156960,"reportTime":"2026-04-14T09:00:00.000Z","temp":5.6,"dewp":-6.1,"wdir":260,"wspd":6,"visib":"10+","altim":1011.6,"slp":1010.1,"qcField":14,"presTend":-0.6,"metarType":"METAR","rawOb":"METAR KCOD 140856Z AUTO 26006KT 10SM CLR 06/M06 A2987 RMK AO2 SLP101 T00561061 58006 $","lat":44.52,"lon":-109.0268,"elev":1550,"name":"Cody/Yellowstone Rgnl, WY, US","cover":"CLR","clouds":[],"fltCat":"VFR"},{"icaoId":"KRDM","receiptTime":"2026-04-14T09:00:22.513Z","obsTime":1776156960,"reportTime":"2026-04-14T09:00:00.000Z","temp":-2.8,"dewp":-3.9,"wdir":130,"wspd":4,"visib":"10+","altim":1018,"slp":1018.6,"qcField":6,"presTend":-0.3,"metarType":"METAR","rawOb":"METAR KRDM 140856Z AUTO 13004KT 10SM CLR M03/M04 A3006 RMK AO2 SLP186 T10281039 58003","lat":44.2558,"lon":-121.1407,"elev":930,"name":"Redmond Muni, OR, US","cover":"CLR","clouds":[],"fltCat":"VFR"},{"icaoId":"KUKI","receiptTime":"2026-04-14T09:00:11.497Z","obsTime":1776156960,"reportTime":"2026-04-14T09:00:00.000Z","temp":8.3,"dewp":6.7,"wdir":320,"wspd":3,"visib":"10+","altim":1021.1,"slp":1020.5,"qcField":6,"presTend":-0.1,"metarType":"METAR","rawOb":"METAR KUKI 140856Z AUTO 32003KT 10SM OVC019 08/07 A3015 RMK AO2 SLP205 T00830067 56001","lat":39.1278,"lon":-123.2001,"elev":183,"name":"Ukiah Muni, CA, US","cover":"OVC","clouds":[{"cover":"OVC","base":1900}],"fltCat":"MVFR"},{"icaoId":"KSLE","receiptTime":"2026-04-14T09:00:11.613Z","obsTime":1776156960,"reportTime":"2026-04-14T09:00:00.000Z","temp":6.1,"dewp":3.3,"wdir":150,"wspd":4,"visib":"10+","altim":1022.1,"slp":1021.9,"qcField":6,"presTend":-0.5,"metarType":"METAR","rawOb":"METAR KSLE 140856Z AUTO 15004KT 10SM SCT050 BKN060 06/03 A3018 RMK AO2 SLP219 T00610033 57005","lat":44.9049,"lon":-123.001,"elev":63,"name":"Salem Muni, OR, US","cover":"BKN","clouds":[{"cover":"SCT","base":5000},{"cover":"BKN","base":6000}],"fltCat":"VFR"},{"icaoId":"KENV","receiptTime":"2026-04-14T08:58:35.353Z","obsTime":1776156960,"reportTime":"2026-04-14T09:00:00.000Z","temp":7.2,"dewp":-1.7,"wdir":0,"wspd":0,"visib":"10+","altim":1015,"slp":1014.4,"qcField":6,"presTend":0.2,"metarType":"METAR","rawOb":"METAR KENV 140856Z AUTO 00000KT 10SM CLR 07/M02 A2997 RMK AO2 SLP144 T00721017 50002","lat":40.7211,"lon":-114.0312,"elev":1291,"name":"Wendover Arpt, UT, US","cover":"CLR","clouds":[],"fltCat":"VFR"},{"icaoId":"KSGU","receiptTime":"2026-04-14T08:58:34.535Z","obsTime":1776156960,"reportTime":"2026-04-14T09:00:00.000Z","temp":7.8,"dewp":6.7,"wdir":90,"wspd":3,"visib":"10+","altim":1014.3,"slp":1013.3,"qcField":6,"wxString":"-RA","presTend":-0.1,"precip":0.02,"pcp3hr":0.1,"metarType":"METAR","rawOb":"METAR KSGU 140856Z AUTO 09003KT 10SM -RA FEW011 OVC045 08/07 A2995 RMK AO2 SLP133 P0002 60010 T00780067 58001","lat":37.0444,"lon":-113.5034,"elev":877,"name":"Saint George Muni, UT, US","cover":"OVC","clouds":[{"cover":"FEW","base":1100},{"cover":"OVC","base":4500}],"fltCat":"VFR"},{"icaoId":"KGUC","receiptTime":"2026-04-14T08:58:30.743Z","obsTime":1776156960,"reportTime":"2026-04-14T09:00:00.000Z","temp":3.9,"dewp":-1.1,"wdir":340,"wspd":5,"visib":"10+","altim":1014,"slp":1009.1,"qcField":14,"presTend":-0.9,"metarType":"METAR","rawOb":"METAR KGUC 140856Z AUTO 34005KT 10SM BKN060 OVC090 04/M01 A2994 RMK AO2 SLP091 T00391011 56009 $","lat":38.5322,"lon":-106.9419,"elev":2337,"name":"Gunnison Arpt, CO, US","cover":"OVC","clouds":[{"cover":"BKN","base":6000},{"cover":"OVC","base":9000}],"fltCat":"VFR"},{"icaoId":"KJAC","receiptTime":"2026-04-14T08:58:23.393Z","obsTime":1776156960,"reportTime":"2026-04-14T09:00:00.000Z","temp":-0.6,"dewp":-1.7,"wdir":0,"wspd":0,"visib":3,"altim":1014,"slp":1016.2,"qcField":6,"wxString":"-SN BR","presTend":-0.5,"precip":0.005,"pcp3hr":0.005,"metarType":"METAR","rawOb":"METAR KJAC 140856Z AUTO 00000KT 3SM -SN BR OVC004 M01/M02 A2994 RMK AO2 SLP162 P0000 60000 T10061017 55005","lat":43.6129,"lon":-110.7366,"elev":1967,"name":"Jackson Hole Arpt, WY, US","cover":"OVC","clouds":[{"cover":"OVC","base":400}],"fltCat":"LIFR"},{"icaoId":"KPWT","receiptTime":"2026-04-14T08:58:34.390Z","obsTime":1776156960,"reportTime":"2026-04-14T09:00:00.000Z","temp":6.1,"dewp":5,"wdir":200,"wspd":15,"wgst":26,"visib":"10+","altim":1018,"slp":1018.3,"qcField":6,"presTend":-0.9,"metarType":"METAR","rawOb":"METAR KPWT 140856Z AUTO 20015G26KT 10SM BKN120 06/05 A3006 RMK AO2 PK WND 19026/0847 SLP183 T00610050 58009","lat":47.4942,"lon":-122.7594,"elev":143,"name":"Bremerton Arpt, WA, US","cover":"BKN","clouds":[{"cover":"BKN","base":12000}],"fltCat":"VFR"},{"icaoId":"KSDY","receiptTime":"2026-04-14T08:58:34.439Z","obsTime":1776156960,"reportTime":"2026-04-14T09:00:00.000Z","temp":5.6,"dewp":5,"wdir":300,"wspd":8,"visib":7,"altim":1006.9,"slp":1007.9,"qcField":14,"presTend":0.9,"metarType":"METAR","rawOb":"METAR KSDY 140856Z AUTO 30008KT 7SM OVC005 06/05 A2973 RMK AO2 SLP079 T00560050 51009 $","lat":47.7029,"lon":-104.1951,"elev":600,"name":"Sidney/Richland Muni, MT, US","cover":"OVC","clouds":[{"cover":"OVC","base":500}],"fltCat":"IFR"},{"icaoId":"KVIS","receiptTime":"2026-04-14T08:58:34.701Z","obsTime":1776156960,"reportTime":"2026-04-14T09:00:00.000Z","temp":9.4,"dewp":7.8,"wdir":0,"wspd":0,"visib":"10+","altim":1020.4,"slp":1020.4,"qcField":14,"presTend":0.7,"metarType":"METAR","rawOb":"METAR KVIS 140856Z AUTO 00000KT 10SM CLR 09/08 A3013 RMK AO2 SLP204 6//// T00940078 52007 PNO $","lat":36.3135,"lon":-119.3884,"elev":92,"name":"Visalia Muni, CA, US","cover":"CLR","clouds":[],"fltCat":"VFR"},{"icaoId":"KCGZ","receiptTime":"2026-04-14T08:58:35.049Z","obsTime":1776156960,"reportTime":"2026-04-14T09:00:00.000Z","temp":17.2,"dewp":1.1,"wdir":270,"wspd":9,"visib":"10+","altim":1015.3,"slp":1014.3,"qcField":14,"presTend":0.3,"metarType":"METAR","rawOb":"METAR KCGZ 140856Z AUTO 27009KT 10SM FEW095 17/01 A2998 RMK AO2 SLP143 6//// T01720011 50003 $","lat":32.9531,"lon":-111.7725,"elev":444,"name":"Casa Granda Muni, AZ, US","cover":"FEW","clouds":[{"cover":"FEW","base":9500}],"fltCat":"VFR"},{"icaoId":"KEGE","receiptTime":"2026-04-14T08:58:35.269Z","obsTime":1776156960,"reportTime":"2026-04-14T09:00:00.000Z","temp":3.9,"dewp":2.2,"wdir":70,"wspd":3,"visib":9,"altim":1014.3,"slp":1010.1,"qcField":6,"wxString":"-RA","presTend":-0.1,"precip":0.03,"pcp3hr":0.08,"metarType":"METAR","rawOb":"METAR KEGE 140856Z AUTO 07003KT 9SM -RA BKN025 OVC032 04/02 A2995 RMK AO2 RAE19B37 SLP101 P0003 60008 T00390022 58001","lat":39.6448,"lon":-106.9176,"elev":1993,"name":"Eagle Cnty Rgnl, CO, US","cover":"OVC","clouds":[{"cover":"BKN","base":2500},{"cover":"OVC","base":3200}],"fltCat":"MVFR"},{"icaoId":"KCHS","receiptTime":"2026-04-14T09:00:24.457Z","obsTime":1776156960,"reportTime":"2026-04-14T09:00:00.000Z","temp":13.9,"dewp":13.9,"wdir":0,"wspd":0,"visib":5,"altim":1023.1,"slp":1023.1,"qcField":4,"wxString":"BR","presTend":-0.7,"metarType":"METAR","rawOb":"METAR KCHS 140856Z 00000KT 5SM BR FEW200 14/14 A3021 RMK AO2 SLP231 T01390139 55007","lat":32.8995,"lon":-80.0407,"elev":12,"name":"Charleston Intl, SC, US","cover":"FEW","clouds":[{"cover":"FEW","base":20000}],"fltCat":"MVFR"},{"icaoId":"KEKO","receiptTime":"2026-04-14T09:00:16.001Z","obsTime":1776156960,"reportTime":"2026-04-14T09:00:00.000Z","temp":-1.1,"dewp":-4.4,"wdir":0,"wspd":0,"visib":"10+","altim":1016,"slp":1015.7,"qcField":6,"presTend":0.1,"metarType":"METAR","rawOb":"METAR KEKO 140856Z AUTO 00000KT 10SM CLR M01/M04 A3000 RMK AO2 SLP157 T10111044 51001","lat":40.824,"lon":-115.7863,"elev":1541,"name":"Elko Rgnl, NV, US","cover":"CLR","clouds":[],"fltCat":"VFR"},{"icaoId":"KDUG","receiptTime":"2026-04-14T09:02:36.810Z","obsTime":1776156960,"reportTime":"2026-04-14T09:00:00.000Z","temp":16.7,"dewp":0.6,"wdir":240,"wspd":11,"visib":"10+","altim":1016.3,"slp":1010.6,"qcField":38,"presTend":-1,"metarType":"METAR","rawOb":"METAR KDUG 140856Z AUTO 24011KT 10SM SCT095 17/01 A3001 RMK AO2 SLP106 T01670006 58010 TSNO","lat":31.4725,"lon":-109.6022,"elev":1260,"name":"Douglas/Bisbee Intl, AZ, US","cover":"SCT","clouds":[{"cover":"SCT","base":9500}],"fltCat":"VFR"},{"icaoId":"KCEC","receiptTime":"2026-04-14T09:00:11.054Z","obsTime":1776156960,"reportTime":"2026-04-14T09:00:00.000Z","temp":7.8,"dewp":5.6,"wdir":0,"wspd":0,"visib":"10+","altim":1023.8,"slp":1023.8,"qcField":14,"presTend":0.1,"metarType":"METAR","rawOb":"METAR KCEC 140856Z AUTO 00000KT 10SM CLR 08/06 A3023 RMK AO2 SLP238 T00780056 53001 $","lat":41.7836,"lon":-124.238,"elev":17,"name":"Crescent City/McNama, CA, US","cover":"CLR","clouds":[],"fltCat":"VFR"},{"icaoId":"KLAS","receiptTime":"2026-04-14T09:00:11.194Z","obsTime":1776156960,"reportTime":"2026-04-14T09:00:00.000Z","temp":13.9,"dewp":0.6,"wdir":150,"wspd":4,"visib":"10+","altim":1014.6,"slp":1013.3,"qcField":4,"presTend":1,"metarType":"METAR","rawOb":"METAR KLAS 140856Z 15004KT 10SM FEW120 14/01 A2996 RMK AO2 SLP133 T01390006 51010","lat":36.0719,"lon":-115.1634,"elev":662,"name":"Las Vegas/Reid Intl, NV, US","cover":"FEW","clouds":[{"cover":"FEW","base":12000}],"fltCat":"VFR"},{"icaoId":"KHCR","receiptTime":"2026-04-14T08:58:06.691Z","obsTime":1776156900,"reportTime":"2026-04-14T09:00:00.000Z","temp":0.3,"dewp":-1.7,"wdir":0,"wspd":0,"visib":"10+","altim":1013,"qcField":14,"presTend":-0.2,"metarType":"METAR","rawOb":"METAR KHCR 140855Z AUTO 00000KT 10SM CLR 00/M02 A2991 RMK AO2 T00031017 57002 $","lat":40.4774,"lon":-111.4329,"elev":1708,"name":"Heber City Muni, UT, US","cover":"CLR","clouds":[],"fltCat":"VFR"},{"icaoId":"KCMA","receiptTime":"2026-04-14T08:58:35.099Z","obsTime":1776156900,"reportTime":"2026-04-14T09:00:00.000Z","temp":10.6,"dewp":8.9,"wdir":0,"wspd":0,"visib":"10+","altim":1018.4,"slp":1018.9,"qcField":6,"presTend":0.3,"metarType":"METAR","rawOb":"METAR KCMA 140855Z AUTO 00000KT 10SM CLR 11/09 A3007 RMK AO2 SLP189 T01060089 50003","lat":34.2114,"lon":-119.0876,"elev":20,"name":"Camarillo Arpt, CA, US","cover":"CLR","clouds":[],"fltCat":"VFR"},{"icaoId":"KCXP","receiptTime":"2026-04-14T09:00:10.864Z","obsTime":1776156900,"reportTime":"2026-04-14T09:00:00.000Z","temp":3,"dewp":-1,"wdir":0,"wspd":0,"visib":"10+","altim":1019.4,"qcField":6,"metarType":"METAR","rawOb":"METAR KCXP 140855Z AUTO 00000KT 10SM CLR 03/M01 A3010 RMK AO2","lat":39.1905,"lon":-119.7319,"elev":1431,"name":"Carson City Arpt, NV, US","cover":"CLR","clouds":[],"fltCat":"VFR"},{"icaoId":"KAEG","receiptTime":"2026-04-14T09:02:36.119Z","obsTime":1776156900,"reportTime":"2026-04-14T09:00:00.000Z","temp":7.7,"dewp":0,"wdir":210,"wspd":6,"visib":"10+","altim":1015.7,"qcField":6,"metarType":"METAR","rawOb":"METAR KAEG 140855Z AUTO 21006KT 10SM SCT070 08/00 A2999 RMK AO2 LTG DSNT N T00770000","lat":35.15,"lon":-106.7929,"elev":1771,"name":"Albuquerque/Double Eagle Arpt, NM, US","cover":"SCT","clouds":[{"cover":"SCT","base":7000}],"fltCat":"VFR"},{"icaoId":"KADM","receiptTime":"2026-04-14T09:02:36.076Z","obsTime":1776156900,"reportTime":"2026-04-14T09:00:00.000Z","temp":23,"dewp":21,"wdir":170,"wspd":7,"visib":"10+","altim":1013.3,"qcField":6,"metarType":"METAR","rawOb":"METAR KADM 140855Z AUTO 17007KT 10SM BKN019 BKN024 OVC041 23/21 A2992 RMK AO2","lat":34.3007,"lon":-97.0089,"elev":223,"name":"Ardmore Muni, OK, US","cover":"OVC","clouds":[{"cover":"BKN","base":1900},{"cover":"BKN","base":2400},{"cover":"OVC","base":4100}],"fltCat":"MVFR"},{"icaoId":"KSEZ","receiptTime":"2026-04-14T09:00:18.050Z","obsTime":1776156900,"reportTime":"2026-04-14T09:00:00.000Z","temp":6,"dewp":4,"wdir":0,"wspd":0,"visib":"10+","altim":1016.3,"qcField":6,"metarType":"METAR","rawOb":"METAR KSEZ 140855Z AUTO 00000KT 10SM BKN035 OVC049 06/04 A3001 RMK AO2","lat":34.8467,"lon":-111.7884,"elev":1455,"name":"Sedona Arpt, AZ, US","cover":"OVC","clouds":[{"cover":"BKN","base":3500},{"cover":"OVC","base":4900}],"fltCat":"VFR"},{"icaoId":"KSOW","receiptTime":"2026-04-14T08:58:39.759Z","obsTime":1776156900,"reportTime":"2026-04-14T09:00:00.000Z","temp":7,"dewp":3,"wdir":220,"wspd":18,"wgst":24,"visib":"10+","altim":1016.7,"qcField":6,"metarType":"METAR","rawOb":"METAR KSOW 140855Z AUTO 22018G24KT 10SM SCT021 BKN032 BKN055 07/03 A3002 RMK AO2","lat":34.2686,"lon":-110.0019,"elev":1954,"name":"Show Low Muni, AZ, US","cover":"BKN","clouds":[{"cover":"SCT","base":2100},{"cover":"BKN","base":3200},{"cover":"BKN","base":5500}],"fltCat":"VFR"},{"icaoId":"KRNO","receiptTime":"2026-04-14T08:58:40.259Z","obsTime":1776156900,"reportTime":"2026-04-14T09:00:00.000Z","temp":5.6,"dewp":-1.1,"wdir":290,"wspd":4,"visib":"10+","altim":1018.7,"slp":1017.1,"qcField":4,"presTend":0.4,"metarType":"METAR","rawOb":"METAR KRNO 140855Z 29004KT 10SM CLR 06/M01 A3008 RMK AO2 SLP171 T00561011 50004","lat":39.5077,"lon":-119.7683,"elev":1344,"name":"Reno/Tahoe Intl, NV, US","cover":"CLR","clouds":[],"fltCat":"VFR"},{"icaoId":"KHII","receiptTime":"2026-04-14T09:02:33.227Z","obsTime":1776156900,"reportTime":"2026-04-14T09:00:00.000Z","temp":15,"dewp":1,"wdir":120,"wspd":7,"visib":"10+","altim":1014.6,"qcField":6,"metarType":"METAR","rawOb":"METAR KHII 140855Z AUTO 12007KT 10SM CLR 15/01 A2996 RMK AO2","lat":34.5659,"lon":-114.3522,"elev":241,"name":"Lake Havasu City Arpt, AZ, US","cover":"CLR","clouds":[],"fltCat":"VFR"},{"icaoId":"KIFP","receiptTime":"2026-04-14T09:00:15.271Z","obsTime":1776156900,"reportTime":"2026-04-14T09:00:00.000Z","temp":16,"dewp":2,"wdir":200,"wspd":6,"visib":"10+","altim":1014,"qcField":6,"metarType":"METAR","rawOb":"METAR KIFP 140855Z AUTO 20006KT 10SM CLR 16/02 A2994 RMK AO2","lat":35.1487,"lon":-114.5611,"elev":210,"name":"Bullhead City Intl, AZ, US","cover":"CLR","clouds":[],"fltCat":"VFR"},{"icaoId":"KIWA","receiptTime":"2026-04-14T09:00:15.496Z","obsTime":1776156900,"reportTime":"2026-04-14T09:00:00.000Z","temp":18,"dewp":2,"wdir":260,"wspd":6,"visib":"10+","altim":1015.3,"qcField":6,"metarType":"METAR","rawOb":"METAR KIWA 140855Z AUTO 26006KT 10SM BKN065 BKN085 OVC110 18/02 A2998 RMK AO2 T01800020","lat":33.3008,"lon":-111.6437,"elev":420,"name":"Phoenix/Mesa Gateway Arpt, AZ, US","cover":"OVC","clouds":[{"cover":"BKN","base":6500},{"cover":"BKN","base":8500},{"cover":"OVC","base":11000}],"fltCat":"VFR"},{"icaoId":"KHOB","receiptTime":"2026-04-14T09:00:33.766Z","obsTime":1776156900,"reportTime":"2026-04-14T09:00:00.000Z","temp":18,"dewp":14,"wdir":200,"wspd":8,"visib":"10+","altim":1015.7,"qcField":6,"metarType":"METAR","rawOb":"METAR KHOB 140855Z AUTO 20008KT 10SM FEW044 OVC050 18/14 A2999 RMK AO2","lat":32.6797,"lon":-103.2222,"elev":1112,"name":"Hobbs Arpt, NM, US","cover":"OVC","clouds":[{"cover":"FEW","base":4400},{"cover":"OVC","base":5000}],"fltCat":"VFR"},{"icaoId":"KSUN","receiptTime":"2026-04-14T09:00:11.644Z","obsTime":1776156900,"reportTime":"2026-04-14T09:00:00.000Z","wdir":300,"wspd":10,"visib":"10+","altim":1015,"qcField":6,"metarType":"METAR","rawOb":"METAR KSUN 140855Z AUTO 30010KT 10SM CLR A2997 RMK AO2","lat":43.4969,"lon":-114.2923,"elev":1619,"name":"Hailey/Friedman Mem, ID, US","cover":"CLR","clouds":[],"fltCat":"VFR"},{"icaoId":"KRTS","receiptTime":"2026-04-14T09:00:22.715Z","obsTime":1776156900,"reportTime":"2026-04-14T09:00:00.000Z","temp":1,"dewp":-3,"wdir":340,"wspd":5,"visib":"10+","altim":1019,"qcField":6,"metarType":"METAR","rawOb":"METAR KRTS 140855Z AUTO 34005KT 10SM CLR 01/M03 A3009 RMK AO2","lat":39.6658,"lon":-119.8731,"elev":1537,"name":"Reno/Stead Arpt, NV, US","cover":"CLR","clouds":[],"fltCat":"VFR"},{"icaoId":"KHTH","receiptTime":"2026-04-14T09:00:23.269Z","obsTime":1776156900,"reportTime":"2026-04-14T09:00:00.000Z","temp":6,"dewp":-4,"wdir":260,"wspd":5,"visib":"10+","altim":1018,"qcField":6,"metarType":"METAR","rawOb":"METAR KHTH 140855Z AUTO 26005KT 10SM CLR 06/M04 A3006 RMK A01","lat":38.5448,"lon":-118.6314,"elev":1281,"name":"Hawthorne Muni, NV, US","cover":"CLR","clouds":[],"fltCat":"VFR"},{"icaoId":"KGPI","receiptTime":"2026-04-14T08:58:40.085Z","obsTime":1776156900,"reportTime":"2026-04-14T09:00:00.000Z","temp":7.2,"dewp":3.9,"wdir":170,"wspd":9,"visib":"10+","altim":1010.9,"slp":1011.6,"qcField":4,"presTend":-0.1,"metarType":"METAR","rawOb":"METAR KGPI 140855Z 17009KT 10SM BKN050 OVC100 07/04 A2985 RMK AO2 SLP116 T00720039 58001","lat":48.3041,"lon":-114.2643,"elev":903,"name":"Kalispell/Glacier Park Intl, MT, US","cover":"OVC","clouds":[{"cover":"BKN","base":5000},{"cover":"OVC","base":10000}],"fltCat":"VFR"},{"icaoId":"KBJC","receiptTime":"2026-04-14T09:00:35.065Z","obsTime":1776156900,"reportTime":"2026-04-14T09:00:00.000Z","temp":11,"dewp":-7,"wdir":0,"wspd":0,"visib":"10+","altim":1012.3,"qcField":6,"metarType":"METAR","rawOb":"METAR KBJC 140855Z AUTO 00000KT 10SM OVC100 11/M07 A2989 RMK AO2","lat":39.9008,"lon":-105.1042,"elev":1694,"name":"Rocky Mtn Metro, CO, US","cover":"OVC","clouds":[{"cover":"OVC","base":10000}],"fltCat":"VFR"},{"icaoId":"KMEV","receiptTime":"2026-04-14T09:00:11.288Z","obsTime":1776156900,"reportTime":"2026-04-14T09:00:00.000Z","temp":-1,"dewp":-2,"wdir":90,"wspd":3,"visib":"10+","altim":1019,"qcField":6,"metarType":"METAR","rawOb":"METAR KMEV 140855Z AUTO 09003KT 10SM CLR M01/M02 A3009 RMK AO2","lat":38.9963,"lon":-119.75,"elev":1437,"name":"Minden-Tahoe Arpt, NV, US","cover":"CLR","clouds":[],"fltCat":"VFR"},{"icaoId":"KLRU","receiptTime":"2026-04-14T08:58:05.946Z","obsTime":1776156900,"reportTime":"2026-04-14T09:00:00.000Z","temp":15.5,"dewp":0,"wdir":210,"wspd":8,"visib":"10+","altim":1016.3,"qcField":6,"metarType":"METAR","rawOb":"METAR KLRU 140855Z AUTO 21008KT 10SM CLR 16/00 A3001 RMK AO2 T01550000","lat":32.2884,"lon":-106.9131,"elev":1355,"name":"Las Cruces Intl, NM, US","cover":"CLR","clouds":[],"fltCat":"VFR"},{"icaoId":"KCHD","receiptTime":"2026-04-14T08:58:09.124Z","obsTime":1776156900,"reportTime":"2026-04-14T09:00:00.000Z","temp":17.9,"dewp":2.2,"wdir":220,"wspd":6,"visib":"10+","altim":1015,"qcField":14,"metarType":"METAR","rawOb":"METAR KCHD 140855Z AUTO 22006KT 10SM BKN070 BKN085 OVC110 18/02 A2997 RMK AO2 T01790022 $","lat":33.2669,"lon":-111.8086,"elev":378,"name":"Chandler Muni, AZ, US","cover":"OVC","clouds":[{"cover":"BKN","base":7000},{"cover":"BKN","base":8500},{"cover":"OVC","base":11000}],"fltCat":"VFR"},{"icaoId":"KEUG","receiptTime":"2026-04-14T08:58:08.154Z","obsTime":1776156840,"reportTime":"2026-04-14T09:00:00.000Z","temp":5.6,"dewp":4.4,"wdir":210,"wspd":4,"visib":"10+","altim":1022.8,"slp":1022.9,"qcField":6,"presTend":-0.2,"metarType":"METAR","rawOb":"METAR KEUG 140854Z AUTO 21004KT 10SM OVC046 06/04 A3020 RMK AO2 SLP229 T00560044 58002","lat":44.1331,"lon":-123.2156,"elev":109,"name":"Eugene/Mahlon Sweet Fld, OR, US","cover":"OVC","clouds":[{"cover":"OVC","base":4600}],"fltCat":"VFR"},{"icaoId":"KIND","receiptTime":"2026-04-14T08:58:08.409Z","obsTime":1776156840,"reportTime":"2026-04-14T09:00:00.000Z","temp":21.7,"dewp":16.7,"wdir":220,"wspd":17,"wgst":24,"visib":"10+","altim":1013.3,"slp":1012.6,"qcField":4,"presTend":-0.4,"metarType":"METAR","rawOb":"METAR KIND 140854Z 22017G24KT 10SM BKN032 22/17 A2992 RMK AO2 PK WND 20030/0808 SLP126 T02170167 56004","lat":39.7252,"lon":-86.2816,"elev":242,"name":"Indianapolis Intl, IN, US","cover":"BKN","clouds":[{"cover":"BKN","base":3200}],"fltCat":"VFR"},{"icaoId":"KMEM","receiptTime":"2026-04-14T08:58:04.463Z","obsTime":1776156840,"reportTime":"2026-04-14T09:00:00.000Z","temp":21.1,"dewp":15,"wdir":200,"wspd":10,"visib":"10+","altim":1017.4,"slp":1016.9,"qcField":12,"presTend":-1.3,"metarType":"METAR","rawOb":"METAR KMEM 140854Z 20010KT 10SM BKN250 21/15 A3004 RMK AO2 SLP169 T02110150 56013 $","lat":35.0564,"lon":-89.9864,"elev":78,"name":"Memphis Intl, TN, US","cover":"BKN","clouds":[{"cover":"BKN","base":25000}],"fltCat":"VFR"},{"icaoId":"KDSM","receiptTime":"2026-04-14T08:58:07.208Z","obsTime":1776156840,"reportTime":"2026-04-14T09:00:00.000Z","temp":19.4,"dewp":16.1,"wdir":160,"wspd":5,"visib":"10+","altim":1006.2,"slp":1005.4,"qcField":12,"presTend":0.6,"metarType":"METAR","rawOb":"METAR KDSM 140854Z 16005KT 10SM FEW023 19/16 A2971 RMK AO2 SLP054 T01940161 50006 $","lat":41.5339,"lon":-93.6531,"elev":286,"name":"Des Moines Intl, IA, US","cover":"FEW","clouds":[{"cover":"FEW","base":2300}],"fltCat":"VFR"},{"icaoId":"KBOS","receiptTime":"2026-04-14T08:58:07.843Z","obsTime":1776156840,"reportTime":"2026-04-14T09:00:00.000Z","temp":18.3,"dewp":12.8,"wdir":270,"wspd":10,"visib":"10+","altim":1013.6,"slp":1013.3,"qcField":4,"presTend":0.4,"metarType":"METAR","rawOb":"METAR KBOS 140854Z 27010KT 10SM FEW120 BKN250 18/13 A2993 RMK AO2 SLP133 T01830128 53004","lat":42.3606,"lon":-71.0097,"elev":4,"name":"Boston/Logan Intl, MA, US","cover":"BKN","clouds":[{"cover":"FEW","base":12000},{"cover":"BKN","base":25000}],"fltCat":"VFR"},{"icaoId":"KSLC","receiptTime":"2026-04-14T08:58:06.657Z","obsTime":1776156840,"reportTime":"2026-04-14T09:00:00.000Z","temp":5.6,"dewp":1.7,"wdir":320,"wspd":4,"visib":"10+","altim":1013,"slp":1011,"qcField":12,"presTend":-0.2,"metarType":"METAR","rawOb":"METAR KSLC 140854Z 32004KT 10SM FEW080 FEW250 06/02 A2991 RMK AO2 SLP110 T00560017 58002 $","lat":40.7707,"lon":-111.965,"elev":1286,"name":"Salt Lake City Intl, UT, US","cover":"FEW","clouds":[{"cover":"FEW","base":8000},{"cover":"FEW","base":25000}],"fltCat":"VFR"},{"icaoId":"KFFZ","receiptTime":"2026-04-14T08:58:08.217Z","obsTime":1776156840,"reportTime":"2026-04-14T09:00:00.000Z","temp":18.3,"dewp":1.7,"wdir":270,"wspd":8,"visib":"10+","altim":1014.6,"slp":1012.6,"qcField":6,"presTend":0.3,"pcp3hr":0.005,"metarType":"METAR","rawOb":"METAR KFFZ 140854Z AUTO 27008KT 10SM FEW055 BKN080 OVC100 18/02 A2996 RMK AO2 SLP126 60000 T01830017 50003","lat":33.4659,"lon":-111.7212,"elev":420,"name":"Mesa/Falcon Fld, AZ, US","cover":"OVC","clouds":[{"cover":"FEW","base":5500},{"cover":"BKN","base":8000},{"cover":"OVC","base":10000}],"fltCat":"VFR"},{"icaoId":"KGSO","receiptTime":"2026-04-14T08:58:07.251Z","obsTime":1776156840,"reportTime":"2026-04-14T09:00:00.000Z","temp":16.7,"dewp":12.2,"wdir":210,"wspd":4,"visib":"10+","altim":1020.7,"slp":1019.8,"qcField":4,"presTend":-0.7,"metarType":"METAR","rawOb":"METAR KGSO 140854Z 21004KT 10SM BKN110 OVC250 17/12 A3014 RMK AO2 SLP198 T01670122 58007","lat":36.0969,"lon":-79.9432,"elev":275,"name":"Greensboro Intl, NC, US","cover":"OVC","clouds":[{"cover":"BKN","base":11000},{"cover":"OVC","base":25000}],"fltCat":"VFR"},{"icaoId":"KSJN","receiptTime":"2026-04-14T08:58:02.876Z","obsTime":1776156840,"reportTime":"2026-04-14T09:00:00.000Z","temp":9.4,"dewp":1.7,"wdir":290,"wspd":8,"wgst":15,"visib":"10+","altim":1015.7,"slp":1009.4,"qcField":6,"presTend":0.7,"metarType":"METAR","rawOb":"METAR KSJN 140854Z AUTO 29008G15KT 10SM FEW060 BKN080 09/02 A2999 RMK AO2 SLP094 T00940017 50007","lat":34.5184,"lon":-109.3801,"elev":1747,"name":"St Johns Ind Arpt, AZ, US","cover":"BKN","clouds":[{"cover":"FEW","base":6000},{"cover":"BKN","base":8000}],"fltCat":"VFR"},{"icaoId":"KRIC","receiptTime":"2026-04-14T08:58:07.423Z","obsTime":1776156840,"reportTime":"2026-04-14T09:00:00.000Z","temp":16.7,"dewp":11.7,"wdir":190,"wspd":5,"visib":"10+","altim":1018.7,"slp":1018.9,"qcField":4,"presTend":-0.7,"metarType":"METAR","rawOb":"METAR KRIC 140854Z 19005KT 10SM BKN140 BKN300 17/12 A3008 RMK AO2 SLP189 T01670117 56007","lat":37.5115,"lon":-77.3234,"elev":51,"name":"Richmond Intl, VA, US","cover":"BKN","clouds":[{"cover":"BKN","base":14000},{"cover":"BKN","base":30000}],"fltCat":"VFR"},{"icaoId":"KROC","receiptTime":"2026-04-14T08:58:07.457Z","obsTime":1776156840,"reportTime":"2026-04-14T09:00:00.000Z","temp":13.3,"dewp":12.8,"wdir":120,"wspd":3,"visib":"10+","altim":1014,"slp":1014.1,"qcField":4,"presTend":-1.3,"metarType":"METAR","rawOb":"METAR KROC 140854Z 12003KT 10SM FEW039 BKN085 OVC100 13/13 A2994 RMK AO2 SLP141 T01330128 56013","lat":43.1172,"lon":-77.6754,"elev":166,"name":"Rochester Intl Arpt, NY, US","cover":"OVC","clouds":[{"cover":"FEW","base":3900},{"cover":"BKN","base":8500},{"cover":"OVC","base":10000}],"fltCat":"VFR"},{"icaoId":"KGCN","receiptTime":"2026-04-14T08:58:08.260Z","obsTime":1776156840,"reportTime":"2026-04-14T09:00:00.000Z","temp":-0.6,"dewp":-1.1,"wdir":0,"wspd":0,"visib":"10+","altim":1015.7,"slp":1011.4,"qcField":6,"presTend":-0.4,"pcp3hr":0.01,"metarType":"METAR","rawOb":"METAR KGCN 140854Z AUTO 00000KT 10SM CLR M01/M01 A2999 RMK AO2 SLP114 60001 T10061011 58004","lat":35.9458,"lon":-112.1554,"elev":1993,"name":"Grand Canyon Park Arpt, AZ, US","cover":"CLR","clouds":[],"fltCat":"VFR"},{"icaoId":"KOLM","receiptTime":"2026-04-14T08:58:06.629Z","obsTime":1776156840,"reportTime":"2026-04-14T09:00:00.000Z","temp":6.7,"dewp":4.4,"wdir":200,"wspd":5,"visib":"10+","altim":1019.7,"slp":1019.8,"qcField":6,"presTend":-0.4,"metarType":"METAR","rawOb":"METAR KOLM 140854Z AUTO 20005KT 10SM SCT021 BKN030 OVC037 07/04 A3011 RMK AO2 SLP198 T00670044 58004","lat":46.9737,"lon":-122.9049,"elev":58,"name":"Olympia Rgnl, WA, US","cover":"OVC","clouds":[{"cover":"SCT","base":2100},{"cover":"BKN","base":3000},{"cover":"OVC","base":3700}],"fltCat":"MVFR"},{"icaoId":"KCOS","receiptTime":"2026-04-14T08:58:07.177Z","obsTime":1776156840,"reportTime":"2026-04-14T09:00:00.000Z","temp":8.3,"dewp":-9.4,"wdir":10,"wspd":12,"wgst":17,"visib":"10+","altim":1011.9,"slp":1006,"qcField":4,"presTend":0.3,"metarType":"METAR","rawOb":"METAR KCOS 140854Z 01012G17KT 10SM SCT200 08/M09 A2988 RMK AO2 SLP060 T00831094 50003","lat":38.8095,"lon":-104.6887,"elev":1886,"name":"Colorado Spring Arpt, CO, US","cover":"SCT","clouds":[{"cover":"SCT","base":20000}],"fltCat":"VFR"},{"icaoId":"KBWI","receiptTime":"2026-04-14T08:58:07.873Z","obsTime":1776156840,"reportTime":"2026-04-14T09:00:00.000Z","temp":15.6,"dewp":11.1,"wdir":210,"wspd":4,"visib":"10+","altim":1017.4,"slp":1017,"qcField":4,"presTend":0.5,"metarType":"METAR","rawOb":"METAR KBWI 140854Z 21004KT 10SM FEW110 BKN250 16/11 A3004 RMK AO2 SLP170 T01560111 53005","lat":39.1733,"lon":-76.684,"elev":42,"name":"Baltimore-Washington Intl, MD, US","cover":"BKN","clouds":[{"cover":"FEW","base":11000},{"cover":"BKN","base":25000}],"fltCat":"VFR"},{"icaoId":"KBTV","receiptTime":"2026-04-14T08:58:07.121Z","obsTime":1776156840,"reportTime":"2026-04-14T09:00:00.000Z","temp":11.1,"dewp":7.8,"wdir":10,"wspd":9,"visib":"10+","altim":1014.6,"slp":1014.6,"qcField":6,"presTend":1,"metarType":"METAR","rawOb":"METAR KBTV 140854Z AUTO 01009KT 10SM FEW013 OVC022 11/08 A2996 RMK AO2 SLP146 T01110078 53010","lat":44.4682,"lon":-73.1499,"elev":101,"name":"Burlington Intl, VT, US","cover":"OVC","clouds":[{"cover":"FEW","base":1300},{"cover":"OVC","base":2200}],"fltCat":"MVFR"},{"icaoId":"KOLS","receiptTime":"2026-04-14T08:58:06.643Z","obsTime":1776156840,"reportTime":"2026-04-14T09:00:00.000Z","temp":10,"dewp":5,"wdir":90,"wspd":4,"visib":"10+","altim":1017.4,"slp":1013.2,"qcField":6,"presTend":-0.3,"metarType":"METAR","rawOb":"METAR KOLS 140854Z AUTO 09004KT 10SM CLR 10/05 A3004 RMK AO2 SLP132 T01000050 58003","lat":31.4208,"lon":-110.8465,"elev":1194,"name":"Nogales Intl, AZ, US","cover":"CLR","clouds":[],"fltCat":"VFR"},{"icaoId":"KPHL","receiptTime":"2026-04-14T08:58:03.195Z","obsTime":1776156840,"reportTime":"2026-04-14T09:00:00.000Z","temp":16.1,"dewp":11.1,"wdir":240,"wspd":6,"visib":"10+","altim":1016,"slp":1015.9,"qcField":12,"presTend":-0.5,"metarType":"METAR","rawOb":"METAR KPHL 140854Z 24006KT 10SM FEW250 16/11 A3000 RMK AO2 SLP159 T01610111 56005 $","lat":39.8733,"lon":-75.2268,"elev":2,"name":"Philadelphia Intl, PA, US","cover":"FEW","clouds":[{"cover":"FEW","base":25000}],"fltCat":"VFR"},{"icaoId":"KRKS","receiptTime":"2026-04-14T08:58:03.537Z","obsTime":1776156840,"reportTime":"2026-04-14T09:00:00.000Z","temp":0,"dewp":-7.8,"wdir":270,"wspd":7,"visib":"10+","altim":1013.3,"slp":1010.8,"qcField":6,"presTend":-0.7,"metarType":"METAR","rawOb":"METAR KRKS 140854Z AUTO 27007KT 10SM CLR 00/M08 A2992 RMK AO2 SLP108 T00001078 58007","lat":41.5947,"lon":-109.0529,"elev":2062,"name":"Rock Springs/SW Wyoming Rgnl, WY, US","cover":"CLR","clouds":[],"fltCat":"VFR"},{"icaoId":"KBFL","receiptTime":"2026-04-14T08:58:07.828Z","obsTime":1776156840,"reportTime":"2026-04-14T09:00:00.000Z","temp":12.2,"dewp":7.2,"wdir":100,"wspd":4,"visib":"10+","altim":1019.7,"slp":1019.5,"qcField":6,"presTend":0.5,"metarType":"METAR","rawOb":"METAR KBFL 140854Z AUTO 10004KT 10SM CLR 12/07 A3011 RMK AO2 SLP195 T01220072 50005","lat":35.4342,"lon":-119.0552,"elev":146,"name":"Bakersfield/Meadows Arpt, CA, US","cover":"CLR","clouds":[],"fltCat":"VFR"},{"icaoId":"KAPC","receiptTime":"2026-04-14T08:58:07.775Z","obsTime":1776156840,"reportTime":"2026-04-14T09:00:00.000Z","temp":7.2,"dewp":7.2,"wdir":0,"wspd":0,"visib":"10+","altim":1020.1,"slp":1019.1,"qcField":6,"presTend":0.1,"metarType":"METAR","rawOb":"METAR KAPC 140854Z AUTO 00000KT 10SM CLR 07/07 A3012 RMK AO2 SLP191 T00720072 53001","lat":38.2075,"lon":-122.2804,"elev":5,"name":"Napa Cnty Arpt, CA, US","cover":"CLR","clouds":[],"fltCat":"VFR"},{"icaoId":"KSYR","receiptTime":"2026-04-14T08:58:07.544Z","obsTime":1776156840,"reportTime":"2026-04-14T09:00:00.000Z","temp":12.2,"dewp":12.2,"wdir":0,"wspd":0,"visib":5,"altim":1015,"slp":1014.4,"qcField":4,"wxString":"BR BCFG","presTend":-0.2,"metarType":"METAR","rawOb":"METAR KSYR 140854Z 00000KT 5SM BR BCFG SCT022 BKN034 BKN042 12/12 A2997 RMK AO2 SLP144 T01220122 55002","lat":43.1111,"lon":-76.1038,"elev":125,"name":"Syracuse/Hancock Intl, NY, US","cover":"BKN","clouds":[{"cover":"SCT","base":2200},{"cover":"BKN","base":3400},{"cover":"BKN","base":4200}],"fltCat":"MVFR"},{"icaoId":"KPRC","receiptTime":"2026-04-14T08:56:32.624Z","obsTime":1776156780,"reportTime":"2026-04-14T09:00:00.000Z","temp":5,"dewp":1.7,"wdir":130,"wspd":4,"visib":"10+","altim":1016.3,"slp":1011.8,"qcField":6,"presTend":0.4,"metarType":"METAR","rawOb":"METAR KPRC 140853Z AUTO 13004KT 10SM CLR 05/02 A3001 RMK AO2 SLP118 T00500017 50004","lat":34.6491,"lon":-112.4223,"elev":1528,"name":"Prescott/Love Fld, AZ, US","cover":"CLR","clouds":[],"fltCat":"VFR"},{"icaoId":"KPIH","receiptTime":"2026-04-14T08:56:32.793Z","obsTime":1776156780,"reportTime":"2026-04-14T09:00:00.000Z","temp":3.3,"dewp":0.6,"wdir":220,"wspd":9,"visib":"10+","altim":1015,"slp":1013.9,"qcField":6,"presTend":-0.3,"metarType":"METAR","rawOb":"METAR KPIH 140853Z AUTO 22009KT 10SM OVC017 03/01 A2997 RMK AO2 SLP139 T00330006 58003","lat":42.9197,"lon":-112.5723,"elev":1357,"name":"Pocatello Rgnl, ID, US","cover":"OVC","clouds":[{"cover":"OVC","base":1700}],"fltCat":"MVFR"},{"icaoId":"KMLC","receiptTime":"2026-04-14T08:56:31.495Z","obsTime":1776156780,"reportTime":"2026-04-14T09:00:00.000Z","temp":23.3,"dewp":20,"wdir":190,"wspd":8,"wgst":18,"visib":"10+","altim":1013.6,"slp":1012.6,"qcField":6,"presTend":-0.4,"metarType":"METAR","rawOb":"METAR KMLC 140853Z AUTO 19008G18KT 10SM BKN019 OVC026 23/20 A2993 RMK AO2 SLP126 T02330200 58004","lat":34.8824,"lon":-95.7815,"elev":231,"name":"McAlester Rgnl, OK, US","cover":"OVC","clouds":[{"cover":"BKN","base":1900},{"cover":"OVC","base":2600}],"fltCat":"MVFR"},{"icaoId":"KBUR","receiptTime":"2026-04-14T08:56:33.774Z","obsTime":1776156780,"reportTime":"2026-04-14T09:00:00.000Z","temp":11.7,"dewp":7.8,"wdir":0,"wspd":0,"visib":"10+","altim":1018.7,"slp":1017.8,"qcField":4,"presTend":0.5,"metarType":"METAR","rawOb":"METAR KBUR 140853Z 00000KT 10SM CLR 12/08 A3008 RMK AO2 SLP178 T01170078 50005","lat":34.1996,"lon":-118.3654,"elev":221,"name":"Burbank/Bob Hope Arpt, CA, US","cover":"CLR","clouds":[],"fltCat":"VFR"},{"icaoId":"KDMN","receiptTime":"2026-04-14T08:56:31.050Z","obsTime":1776156780,"reportTime":"2026-04-14T09:00:00.000Z","temp":17.2,"dewp":1.7,"wdir":210,"wspd":8,"visib":"10+","altim":1016,"slp":1009.2,"qcField":6,"presTend":-1.1,"metarType":"METAR","rawOb":"METAR KDMN 140853Z AUTO 21008KT 10SM FEW110 17/02 A3000 RMK AO2 SLP092 T01720017 58011","lat":32.2592,"lon":-107.7206,"elev":1310,"name":"Deming Muni, NM, US","cover":"FEW","clouds":[{"cover":"FEW","base":11000}],"fltCat":"VFR"},{"icaoId":"KLAX","receiptTime":"2026-04-14T08:56:30.496Z","obsTime":1776156780,"reportTime":"2026-04-14T09:00:00.000Z","temp":15,"dewp":11.1,"wdir":270,"wspd":4,"visib":"10+","altim":1018.7,"slp":1018.3,"qcField":12,"presTend":0.3,"metarType":"METAR","rawOb":"METAR KLAX 140853Z 27004KT 10SM FEW015 15/11 A3008 RMK AO2 SLP183 T01500111 51003 $","lat":33.9382,"lon":-118.3866,"elev":30,"name":"Los Angeles Intl, CA, US","cover":"FEW","clouds":[{"cover":"FEW","base":1500}],"fltCat":"VFR"},{"icaoId":"KCYS","receiptTime":"2026-04-14T08:56:34.353Z","obsTime":1776156780,"reportTime":"2026-04-14T09:00:00.000Z","temp":7.8,"dewp":-6.1,"wdir":330,"wspd":20,"wgst":26,"visib":"10+","altim":1010.6,"slp":1004.4,"qcField":6,"presTend":-1.3,"metarType":"METAR","rawOb":"METAR KCYS 140853Z AUTO 33020G26KT 10SM BKN095 08/M06 A2984 RMK AO2 PK WND 34031/0758 SLP044 T00781061 57013","lat":41.1579,"lon":-104.8081,"elev":1868,"name":"Cheyenne Rgnl, WY, US","cover":"BKN","clouds":[{"cover":"BKN","base":9500}],"fltCat":"VFR"},{"icaoId":"KSWO","receiptTime":"2026-04-14T08:56:30.093Z","obsTime":1776156780,"reportTime":"2026-04-14T09:00:00.000Z","temp":22.8,"dewp":19.4,"wdir":210,"wspd":12,"wgst":20,"visib":"10+","altim":1010.2,"slp":1008.9,"qcField":6,"presTend":-0.1,"metarType":"METAR","rawOb":"METAR KSWO 140853Z AUTO 21012G20KT 10SM CLR 23/19 A2983 RMK AO2 PK WND 22028/0759 SLP089 T02280194 58001","lat":36.1624,"lon":-97.0832,"elev":293,"name":"Stillwater Muni, OK, US","cover":"CLR","clouds":[],"fltCat":"VFR"},{"icaoId":"KMTJ","receiptTime":"2026-04-14T08:56:24.636Z","obsTime":1776156780,"reportTime":"2026-04-14T09:00:00.000Z","temp":6.7,"dewp":2.2,"wdir":80,"wspd":7,"visib":"10+","altim":1012.6,"slp":1007.2,"qcField":6,"presTend":-0.6,"precip":0.005,"pcp3hr":0.005,"metarType":"METAR","rawOb":"METAR KMTJ 140853Z AUTO 08007KT 10SM FEW090 07/02 A2990 RMK AO2 RAE14 SLP072 P0000 60000 T00670022 58006","lat":38.5054,"lon":-107.8981,"elev":1755,"name":"Montrose Rgnl, CO, US","cover":"FEW","clouds":[{"cover":"FEW","base":9000}],"fltCat":"VFR"},{"icaoId":"KSMF","receiptTime":"2026-04-14T08:56:32.579Z","obsTime":1776156780,"reportTime":"2026-04-14T09:00:00.000Z","temp":9.4,"dewp":8.3,"wdir":110,"wspd":5,"visib":"10+","altim":1019,"slp":1018.9,"qcField":12,"presTend":0.2,"metarType":"METAR","rawOb":"METAR KSMF 140853Z 11005KT 10SM CLR 09/08 A3009 RMK AO2 SLP189 T00940083 53002 $","lat":38.7007,"lon":-121.5948,"elev":7,"name":"Sacramento Intl, CA, US","cover":"CLR","clouds":[],"fltCat":"VFR"},{"icaoId":"KPSP","receiptTime":"2026-04-14T08:56:32.651Z","obsTime":1776156780,"reportTime":"2026-04-14T09:00:00.000Z","temp":15,"dewp":5,"wdir":330,"wspd":4,"visib":"10+","altim":1016.7,"slp":1016.4,"qcField":4,"presTend":0.8,"metarType":"METAR","rawOb":"METAR KPSP 140853Z 33004KT 10SM CLR 15/05 A3002 RMK AO2 SLP164 T01500050 52008","lat":33.8222,"lon":-116.5043,"elev":123,"name":"Palm Springs Intl, CA, US","cover":"CLR","clouds":[],"fltCat":"VFR"},{"icaoId":"KMSY","receiptTime":"2026-04-14T08:56:25.253Z","obsTime":1776156780,"reportTime":"2026-04-14T09:00:00.000Z","temp":20,"dewp":18.3,"wdir":140,"wspd":5,"visib":"10+","altim":1020.1,"slp":1020.3,"qcField":4,"presTend":-1.9,"metarType":"METAR","rawOb":"METAR KMSY 140853Z 14005KT 10SM FEW023 20/18 A3012 RMK AO2 SLP203 T02000183 56019","lat":29.9974,"lon":-90.2777,"elev":0,"name":"New Orleans/Armstrong Intl, LA, US","cover":"FEW","clouds":[{"cover":"FEW","base":2300}],"fltCat":"VFR"},{"icaoId":"KBHM","receiptTime":"2026-04-14T08:56:26.397Z","obsTime":1776156780,"reportTime":"2026-04-14T09:00:00.000Z","temp":18.3,"dewp":12.8,"wdir":200,"wspd":5,"visib":"10+","altim":1022.1,"slp":1021.3,"qcField":4,"presTend":-0.7,"metarType":"METAR","rawOb":"METAR KBHM 140853Z 20005KT 10SM CLR 18/13 A3018 RMK AO2 SLP213 T01830128 56007","lat":33.5655,"lon":-86.7449,"elev":191,"name":"Birmingham Intl, AL, US","cover":"CLR","clouds":[],"fltCat":"VFR"},{"icaoId":"KYKM","receiptTime":"2026-04-14T08:56:33.519Z","obsTime":1776156780,"reportTime":"2026-04-14T09:00:00.000Z","temp":2.2,"dewp":-2.2,"wdir":200,"wspd":3,"visib":"10+","altim":1015.3,"slp":1015.5,"qcField":14,"presTend":0.2,"metarType":"METAR","rawOb":"METAR KYKM 140853Z AUTO 20003KT 10SM CLR 02/M02 A2998 RMK AO2 SLP155 T00221022 50002 $","lat":46.564,"lon":-120.5349,"elev":319,"name":"Yakima/McAllister Fld, WA, US","cover":"CLR","clouds":[],"fltCat":"VFR"},{"icaoId":"KSAF","receiptTime":"2026-04-14T08:56:31.693Z","obsTime":1776156780,"reportTime":"2026-04-14T09:00:00.000Z","temp":8.3,"dewp":1.1,"wdir":220,"wspd":7,"visib":"","altim":1016.3,"slp":1009,"qcField":14,"presTend":-0.9,"metarType":"METAR","rawOb":"METAR KSAF 140853Z AUTO 22007KT CLR 08/01 A3001 RMK AO2 SLP090 T00830011 58009 $","lat":35.611,"lon":-106.0957,"elev":1918,"name":"Santa Fe Cnty Muni, NM, US","cover":"CLR","clouds":[]},{"icaoId":"PANC","receiptTime":"2026-04-14T08:56:24.296Z","obsTime":1776156780,"reportTime":"2026-04-14T09:00:00.000Z","temp":1.7,"dewp":-6.7,"wdir":300,"wspd":4,"visib":"10+","altim":1008.5,"slp":1008.6,"qcField":4,"presTend":1.6,"maxT24":5.6,"minT24":-0.6,"metarType":"METAR","rawOb":"METAR PANC 140853Z 30004KT 10SM CLR 02/M07 A2978 RMK AO2 SLP086 T00171067 400561006 51016","lat":61.1691,"lon":-150.0277,"elev":39,"name":"Anchorage Intl, AK, US","cover":"CLR","clouds":[],"fltCat":"VFR"},{"icaoId":"KGEG","receiptTime":"2026-04-14T08:56:30.880Z","obsTime":1776156780,"reportTime":"2026-04-14T09:00:00.000Z","temp":4.4,"dewp":1.1,"wdir":180,"wspd":10,"visib":"10+","altim":1013.3,"slp":1013.7,"qcField":12,"presTend":0.7,"metarType":"METAR","rawOb":"METAR KGEG 140853Z 18010KT 10SM FEW080 SCT220 04/01 A2992 RMK AO2 SLP137 T00440011 51007 $","lat":47.6217,"lon":-117.528,"elev":718,"name":"Spokane Intl, WA, US","cover":"SCT","clouds":[{"cover":"FEW","base":8000},{"cover":"SCT","base":22000}],"fltCat":"VFR"},{"icaoId":"KBRO","receiptTime":"2026-04-14T08:56:33.719Z","obsTime":1776156780,"reportTime":"2026-04-14T09:00:00.000Z","temp":25,"dewp":22.8,"wdir":140,"wspd":12,"visib":"10+","altim":1015.7,"slp":1015.4,"qcField":6,"presTend":-1,"metarType":"METAR","rawOb":"METAR KBRO 140853Z AUTO 14012KT 10SM BKN010 OVC017 25/23 A2999 RMK AO2 SLP154 T02500228 58010","lat":25.9146,"lon":-97.4231,"elev":6,"name":"Brownsville Intl, TX, US","cover":"OVC","clouds":[{"cover":"BKN","base":1000},{"cover":"OVC","base":1700}],"fltCat":"MVFR"},{"icaoId":"KTWF","receiptTime":"2026-04-14T08:56:33.472Z","obsTime":1776156780,"reportTime":"2026-04-14T09:00:00.000Z","temp":2.2,"dewp":0,"wdir":200,"wspd":9,"visib":"10+","altim":1015,"slp":1013.8,"qcField":6,"presTend":-0.4,"metarType":"METAR","rawOb":"METAR KTWF 140853Z AUTO 20009KT 10SM CLR 02/00 A2997 RMK AO2 SLP138 T00220000 56004","lat":42.4785,"lon":-114.4775,"elev":1269,"name":"Twin Falls/Joslin Fld, ID, US","cover":"CLR","clouds":[],"fltCat":"VFR"},{"icaoId":"KPAE","receiptTime":"2026-04-14T08:56:32.735Z","obsTime":1776156780,"reportTime":"2026-04-14T09:00:00.000Z","temp":7.2,"dewp":4.4,"wdir":180,"wspd":9,"visib":"10+","altim":1018,"slp":1018,"qcField":6,"presTend":-1.1,"metarType":"METAR","rawOb":"METAR KPAE 140853Z AUTO 18009KT 10SM OVC017 07/04 A3006 RMK AO2 SLP180 T00720044 56011","lat":47.9232,"lon":-122.2831,"elev":166,"name":"Everett/Paine Fld, WA, US","cover":"OVC","clouds":[{"cover":"OVC","base":1700}],"fltCat":"MVFR"},{"icaoId":"KPSC","receiptTime":"2026-04-14T08:56:32.637Z","obsTime":1776156780,"reportTime":"2026-04-14T09:00:00.000Z","temp":8.3,"dewp":2.2,"wdir":220,"wspd":12,"visib":"10+","altim":1016.3,"slp":1016,"qcField":6,"presTend":0.6,"metarType":"METAR","rawOb":"METAR KPSC 140853Z AUTO 22012KT 10SM CLR 08/02 A3001 RMK AO2 SLP160 T00830022 50006","lat":46.2695,"lon":-119.1182,"elev":121,"name":"Pasco/Tri Cities Arpt, WA, US","cover":"CLR","clouds":[],"fltCat":"VFR"},{"icaoId":"KLAW","receiptTime":"2026-04-14T08:56:24.794Z","obsTime":1776156780,"reportTime":"2026-04-14T09:00:00.000Z","temp":21.1,"dewp":18.9,"wdir":160,"wspd":7,"visib":"10+","altim":1011.9,"slp":1010.6,"qcField":6,"presTend":-0.1,"metarType":"METAR","rawOb":"METAR KLAW 140853Z AUTO 16007KT 10SM CLR 21/19 A2988 RMK AO2 SLP106 T02110189 58001","lat":34.5577,"lon":-98.4172,"elev":328,"name":"Lawton-Fort Sill Rgnl, OK, US","cover":"CLR","clouds":[],"fltCat":"VFR"},{"icaoId":"KBOI","receiptTime":"2026-04-14T08:56:25.710Z","obsTime":1776156780,"reportTime":"2026-04-14T09:00:00.000Z","temp":5.6,"dewp":3.3,"wdir":10,"wspd":7,"visib":"10+","altim":1016.3,"slp":1016.5,"qcField":4,"presTend":0.2,"metarType":"METAR","rawOb":"METAR KBOI 140853Z 01007KT 10SM SCT037 BKN050 OVC090 06/03 A3001 RMK AO2 SLP165 T00560033 53002","lat":43.567,"lon":-116.2406,"elev":860,"name":"Boise Arpt, ID, US","cover":"OVC","clouds":[{"cover":"SCT","base":3700},{"cover":"BKN","base":5000},{"cover":"OVC","base":9000}],"fltCat":"VFR"},{"icaoId":"KHOU","receiptTime":"2026-04-14T08:56:25.758Z","obsTime":1776156780,"reportTime":"2026-04-14T09:00:00.000Z","temp":21.7,"dewp":20.6,"wdir":160,"wspd":6,"visib":8,"altim":1017.4,"slp":1017.8,"qcField":12,"presTend":-1.6,"metarType":"METAR","rawOb":"METAR KHOU 140853Z 16006KT 8SM FEW017 SCT030 22/21 A3004 RMK AO2 SLP178 T02170206 56016 $","lat":29.6458,"lon":-95.2821,"elev":13,"name":"Houston/Hobby Arpt, TX, US","cover":"SCT","clouds":[{"cover":"FEW","base":1700},{"cover":"SCT","base":3000}],"fltCat":"VFR"},{"icaoId":"KLVS","receiptTime":"2026-04-14T08:56:26.003Z","obsTime":1776156780,"reportTime":"2026-04-14T09:00:00.000Z","temp":7.8,"dewp":0.6,"wdir":170,"wspd":15,"visib":"10+","altim":1015.7,"slp":1007.3,"qcField":14,"presTend":-1,"metarType":"METAR","rawOb":"METAR KLVS 140853Z AUTO 17015KT 10SM CLR 08/01 A2999 RMK AO2 PK WND 19027/0803 SLP073 6//// T00780006 58010 PNO $","lat":35.6558,"lon":-105.1385,"elev":2095,"name":"Las Vegas Muni, NM, US","cover":"CLR","clouds":[],"fltCat":"VFR"},{"icaoId":"KAUS","receiptTime":"2026-04-14T08:56:26.363Z","obsTime":1776156780,"reportTime":"2026-04-14T09:00:00.000Z","temp":22.2,"dewp":19.4,"wdir":180,"wspd":12,"wgst":20,"visib":"10+","altim":1016.3,"slp":1015.2,"qcField":4,"presTend":-1.2,"metarType":"METAR","rawOb":"METAR KAUS 140853Z 18012G20KT 10SM OVC020 22/19 A3001 RMK AO2 SLP152 T02220194 58012","lat":30.1831,"lon":-97.6806,"elev":148,"name":"Austin/Bergstrom Intl, TX, US","cover":"OVC","clouds":[{"cover":"OVC","base":2000}],"fltCat":"MVFR"},{"icaoId":"KBNA","receiptTime":"2026-04-14T08:56:26.413Z","obsTime":1776156780,"reportTime":"2026-04-14T09:00:00.000Z","temp":17.8,"dewp":12.2,"wdir":180,"wspd":5,"visib":"10+","altim":1019.4,"slp":1018.7,"qcField":12,"presTend":-0.6,"metarType":"METAR","rawOb":"METAR KBNA 140853Z 18005KT 10SM SCT150 18/12 A3010 RMK AO2 SLP187 T01780122 56006 $","lat":36.1105,"lon":-86.6881,"elev":168,"name":"Nashville Intl, TN, US","cover":"SCT","clouds":[{"cover":"SCT","base":15000}],"fltCat":"VFR"},{"icaoId":"KDAL","receiptTime":"2026-04-14T08:56:26.951Z","obsTime":1776156780,"reportTime":"2026-04-14T09:00:00.000Z","temp":22.8,"dewp":18.9,"wdir":170,"wspd":17,"wgst":26,"visib":"10+","altim":1014.6,"slp":1014,"qcField":4,"presTend":-0.7,"metarType":"METAR","rawOb":"METAR KDAL 140853Z 17017G26KT 10SM OVC019 23/19 A2996 RMK AO2 PK WND 19027/0811 SLP140 T02280189 58007","lat":32.8384,"lon":-96.8358,"elev":148,"name":"Dallas/Love Fld, TX, US","cover":"OVC","clouds":[{"cover":"OVC","base":1900}],"fltCat":"MVFR"},{"icaoId":"KFMN","receiptTime":"2026-04-14T08:56:27.036Z","obsTime":1776156780,"reportTime":"2026-04-14T09:00:00.000Z","temp":7.2,"dewp":4.4,"wdir":250,"wspd":9,"visib":"10+","altim":1014.6,"slp":1011.5,"qcField":6,"wxString":"-RA","presTend":0.7,"precip":0.005,"pcp3hr":0.05,"metarType":"METAR","rawOb":"METAR KFMN 140853Z AUTO 25009KT 10SM -RA SCT042 OVC055 07/04 A2996 RMK AO2 LTG DSNT E RAB53 SLP115 P0000 60005 T00720044 50007","lat":36.7435,"lon":-108.2293,"elev":1677,"name":"Farmington/Four Corners Rgnl, NM, US","cover":"OVC","clouds":[{"cover":"SCT","base":4200},{"cover":"OVC","base":5500}],"fltCat":"VFR"},{"icaoId":"KMYR","receiptTime":"2026-04-14T08:56:27.764Z","obsTime":1776156780,"reportTime":"2026-04-14T09:00:00.000Z","temp":16.7,"dewp":15.6,"wdir":250,"wspd":4,"visib":"10+","altim":1023.5,"slp":1023.3,"qcField":14,"presTend":-0.4,"metarType":"METAR","rawOb":"METAR KMYR 140853Z AUTO 25004KT 10SM CLR 17/16 A3022 RMK AO2 SLP233 T01670156 55004 $","lat":33.6769,"lon":-78.9325,"elev":7,"name":"Myrtle Beach Intl, SC, US","cover":"CLR","clouds":[],"fltCat":"VFR"},{"icaoId":"KMSP","receiptTime":"2026-04-14T08:56:28.152Z","obsTime":1776156780,"reportTime":"2026-04-14T09:00:00.000Z","temp":10,"dewp":7.2,"wdir":70,"wspd":5,"visib":"10+","altim":1005.8,"slp":1005.7,"qcField":4,"metarType":"METAR","rawOb":"METAR KMSP 140853Z 07005KT 10SM OVC008 10/07 A2970 RMK AO2 SLP057 T01000072 50000","lat":44.8852,"lon":-93.2313,"elev":255,"name":"Minneapolis-St Paul Intl, MN, US","cover":"OVC","clouds":[{"cover":"OVC","base":800}],"fltCat":"IFR"},{"icaoId":"KPBI","receiptTime":"2026-04-14T08:56:30.000Z","obsTime":1776156780,"reportTime":"2026-04-14T09:00:00.000Z","temp":23.3,"dewp":14.4,"wdir":90,"wspd":13,"visib":"10+","altim":1021.4,"slp":1021.2,"qcField":12,"presTend":-0.6,"metarType":"METAR","rawOb":"METAR KPBI 140853Z 09013KT 10SM SCT041 23/14 A3016 RMK AO2 SLP212 T02330144 56006 $","lat":26.6851,"lon":-80.0992,"elev":4,"name":"Palm Beach Intl, FL, US","cover":"SCT","clouds":[{"cover":"SCT","base":4100}],"fltCat":"VFR"},{"icaoId":"KSEA","receiptTime":"2026-04-14T08:56:30.643Z","obsTime":1776156780,"reportTime":"2026-04-14T09:00:00.000Z","temp":7.2,"dewp":3.9,"wdir":190,"wspd":11,"wgst":20,"visib":"10+","altim":1018.7,"slp":1019.4,"qcField":4,"presTend":-0.6,"metarType":"METAR","rawOb":"METAR KSEA 140853Z 19011G20KT 10SM BKN020 BKN120 07/04 A3008 RMK AO2 SLP194 T00720039 58006","lat":47.4447,"lon":-122.3144,"elev":115,"name":"Seattle-Tacoma Intl, WA, US","cover":"BKN","clouds":[{"cover":"BKN","base":2000},{"cover":"BKN","base":12000}],"fltCat":"MVFR"},{"icaoId":"KCRQ","receiptTime":"2026-04-14T08:56:30.732Z","obsTime":1776156780,"reportTime":"2026-04-14T09:00:00.000Z","temp":12.8,"dewp":10.6,"wdir":80,"wspd":3,"visib":"10+","altim":1018.7,"slp":1018.5,"qcField":6,"metarType":"METAR","rawOb":"METAR KCRQ 140853Z AUTO 08003KT 10SM CLR 13/11 A3008 RMK AO2 SLP185 T01280106 50000","lat":33.1299,"lon":-117.2765,"elev":96,"name":"Carlsbad/Palomar Arpt, CA, US","cover":"CLR","clouds":[],"fltCat":"VFR"},{"icaoId":"KDVT","receiptTime":"2026-04-14T08:56:30.772Z","obsTime":1776156780,"reportTime":"2026-04-14T09:00:00.000Z","temp":17.2,"dewp":1.7,"wdir":290,"wspd":4,"visib":"10+","altim":1014.6,"slp":1013,"qcField":14,"presTend":0.7,"metarType":"METAR","rawOb":"METAR KDVT 140853Z AUTO 29004KT 10SM 17/02 A2996 RMK AO2 SLP130 T01720017 50007 $","lat":33.6902,"lon":-112.0662,"elev":454,"name":"Phoenix/Deer Valley Arpt, AZ, US"},{"icaoId":"KEVW","receiptTime":"2026-04-14T08:56:30.802Z","obsTime":1776156780,"reportTime":"2026-04-14T09:00:00.000Z","temp":-0.6,"dewp":-4.4,"wdir":20,"wspd":4,"visib":"10+","altim":1014,"slp":1011.3,"qcField":6,"presTend":-0.8,"metarType":"METAR","rawOb":"METAR KEVW 140853Z AUTO 02004KT 10SM CLR M01/M04 A2994 RMK AO2 SLP113 T10061044 58008","lat":41.2727,"lon":-111.0305,"elev":2178,"name":"Evanston/Uinta Cnty, WY, US","cover":"CLR","clouds":[],"fltCat":"VFR"},{"icaoId":"KHIO","receiptTime":"2026-04-14T08:56:30.816Z","obsTime":1776156780,"reportTime":"2026-04-14T09:00:00.000Z","temp":4.4,"dewp":3.3,"wdir":0,"wspd":0,"visib":"10+","altim":1021.4,"slp":1021.3,"qcField":6,"presTend":-0.8,"metarType":"METAR","rawOb":"METAR KHIO 140853Z AUTO 00000KT 10SM FEW040 04/03 A3016 RMK AO2 SLP213 T00440033 56008","lat":45.5476,"lon":-122.9557,"elev":62,"name":"Portland/Hillsboro Arpt, OR, US","cover":"FEW","clouds":[{"cover":"FEW","base":4000}],"fltCat":"VFR"},{"icaoId":"KMCI","receiptTime":"2026-04-14T08:56:31.188Z","obsTime":1776156780,"reportTime":"2026-04-14T09:00:00.000Z","temp":22.8,"dewp":19.4,"wdir":200,"wspd":17,"wgst":26,"visib":"10+","altim":1007.2,"slp":1005.9,"qcField":4,"presTend":-0.8,"metarType":"METAR","rawOb":"METAR KMCI 140853Z 20017G26KT 10SM OVC022 23/19 A2974 RMK AO2 PK WND 20031/0804 SLP059 T02280194 58008","lat":39.2975,"lon":-94.7309,"elev":308,"name":"Kansas City Intl, MO, US","cover":"OVC","clouds":[{"cover":"OVC","base":2200}],"fltCat":"MVFR"},{"icaoId":"KMCO","receiptTime":"2026-04-14T08:56:31.219Z","obsTime":1776156780,"reportTime":"2026-04-14T09:00:00.000Z","temp":18.3,"dewp":16.1,"wdir":0,"wspd":0,"visib":"10+","altim":1022.8,"slp":1022.4,"qcField":4,"presTend":-1.4,"metarType":"METAR","rawOb":"METAR KMCO 140853Z 00000KT 10SM FEW035 BKN250 18/16 A3020 RMK AO2 SLP224 T01830161 56014","lat":28.4182,"lon":-81.3241,"elev":27,"name":"Orlando Intl, FL, US","cover":"BKN","clouds":[{"cover":"FEW","base":3500},{"cover":"BKN","base":25000}],"fltCat":"VFR"},{"icaoId":"KMFR","receiptTime":"2026-04-14T08:56:31.287Z","obsTime":1776156780,"reportTime":"2026-04-14T09:00:00.000Z","temp":7.8,"dewp":3.9,"wdir":20,"wspd":5,"visib":"10+","altim":1021.8,"slp":1021.5,"qcField":14,"presTend":0.3,"metarType":"METAR","rawOb":"METAR KMFR 140853Z AUTO 02005KT 10SM OVC034 08/04 A3017 RMK AO2 SLP215 T00780039 51003 $","lat":42.375,"lon":-122.877,"elev":397,"name":"Medford/Rogue Valley Intl, OR, US","cover":"OVC","clouds":[{"cover":"OVC","base":3400}],"fltCat":"VFR"},{"icaoId":"KMLS","receiptTime":"2026-04-14T08:56:31.537Z","obsTime":1776156780,"reportTime":"2026-04-14T09:00:00.000Z","temp":6.1,"dewp":3.9,"wdir":200,"wspd":4,"visib":"10+","altim":1006.9,"slp":1007,"qcField":6,"presTend":-0.1,"metarType":"METAR","rawOb":"METAR KMLS 140853Z AUTO 20004KT 10SM CLR 06/04 A2973 RMK AO2 SLP070 T00610039 58001","lat":46.4265,"lon":-105.8834,"elev":800,"name":"Miles City/Wiley Fld, MT, US","cover":"CLR","clouds":[],"fltCat":"VFR"},{"icaoId":"KMOD","receiptTime":"2026-04-14T08:56:31.619Z","obsTime":1776156780,"reportTime":"2026-04-14T09:00:00.000Z","temp":8.9,"dewp":7.2,"wdir":110,"wspd":3,"visib":"10+","altim":1019.4,"slp":1019.3,"qcField":6,"presTend":0.3,"metarType":"METAR","rawOb":"METAR KMOD 140853Z AUTO 11003KT 10SM CLR 09/07 A3010 RMK AO2 SLP193 T00890072 53003","lat":37.6254,"lon":-120.9549,"elev":25,"name":"Modesto/Sham Fld, CA, US","cover":"CLR","clouds":[],"fltCat":"VFR"},{"icaoId":"KSBA","receiptTime":"2026-04-14T08:56:31.715Z","obsTime":1776156780,"reportTime":"2026-04-14T09:00:00.000Z","temp":12.8,"dewp":7.8,"wdir":0,"wspd":0,"visib":"10+","altim":1018.4,"slp":1018.2,"qcField":14,"presTend":0.5,"metarType":"METAR","rawOb":"METAR KSBA 140853Z AUTO 00000KT 10SM CLR 13/08 A3007 RMK AO2 SLP182 T01280078 50005 $","lat":34.4241,"lon":-119.8425,"elev":2,"name":"Santa Barbara Muni, CA, US","cover":"CLR","clouds":[],"fltCat":"VFR"},{"icaoId":"KSDL","receiptTime":"2026-04-14T08:56:31.751Z","obsTime":1776156780,"reportTime":"2026-04-14T09:00:00.000Z","temp":17.8,"dewp":2.2,"wdir":240,"wspd":4,"visib":"10+","altim":1015,"slp":1013.1,"qcField":6,"presTend":0.6,"metarType":"METAR","rawOb":"METAR KSDL 140853Z AUTO 24004KT 10SM BKN120 18/02 A2997 RMK AO2 SLP131 T01780022 50006","lat":33.6123,"lon":-111.9232,"elev":438,"name":"Scottsdale Muni, AZ, US","cover":"BKN","clouds":[{"cover":"BKN","base":12000}],"fltCat":"VFR"},{"icaoId":"KGJT","receiptTime":"2026-04-14T08:56:32.029Z","obsTime":1776156780,"reportTime":"2026-04-14T09:00:00.000Z","temp":6.7,"dewp":4.4,"wdir":0,"wspd":0,"visib":"10+","altim":1011.3,"slp":1007.5,"qcField":6,"presTend":-0.7,"precip":0.005,"pcp3hr":0.08,"metarType":"METAR","rawOb":"METAR KGJT 140853Z AUTO 00000KT 10SM FEW029 07/04 A2986 RMK AO2 RAB18E40 SLP075 P0000 60008 T00670044 58007","lat":39.1344,"lon":-108.5408,"elev":1475,"name":"Grand Junction Rgnl, CO, US","cover":"FEW","clouds":[{"cover":"FEW","base":2900}],"fltCat":"VFR"},{"icaoId":"KGSP","receiptTime":"2026-04-14T08:56:32.275Z","obsTime":1776156780,"reportTime":"2026-04-14T09:00:00.000Z","temp":14.4,"dewp":11.1,"wdir":200,"wspd":6,"visib":"10+","altim":1022.1,"slp":1021.1,"qcField":14,"presTend":-0.8,"metarType":"METAR","rawOb":"METAR KGSP 140853Z AUTO 20006KT 10SM CLR 14/11 A3018 RMK AO2 SLP211 T01440111 56008 $","lat":34.8842,"lon":-82.2209,"elev":285,"name":"Greenville-Spartanburg Intl, SC, US","cover":"CLR","clouds":[],"fltCat":"VFR"},{"icaoId":"KGTF","receiptTime":"2026-04-14T08:56:32.296Z","obsTime":1776156780,"reportTime":"2026-04-14T09:00:00.000Z","temp":6.1,"dewp":0.6,"wdir":220,"wspd":15,"visib":"10+","altim":1008.2,"slp":1007.9,"qcField":4,"metarType":"METAR","rawOb":"METAR KGTF 140853Z 22015KT 10SM CLR 06/01 A2977 RMK AO2 SLP079 T00610006 53000","lat":47.4733,"lon":-111.3828,"elev":1117,"name":"Great Falls Intl, MT, US","cover":"CLR","clouds":[],"fltCat":"VFR"},{"icaoId":"KLGB","receiptTime":"2026-04-14T08:56:32.416Z","obsTime":1776156780,"reportTime":"2026-04-14T09:00:00.000Z","temp":13.9,"dewp":10.6,"wdir":0,"wspd":0,"visib":"10+","altim":1018.4,"slp":1018.2,"qcField":14,"presTend":0.4,"metarType":"METAR","rawOb":"METAR KLGB 140853Z AUTO 00000KT 10SM CLR 14/11 A3007 RMK AO2 SLP182 T01390106 50004 $","lat":33.8118,"lon":-118.1472,"elev":10,"name":"Long Beach Arpt, CA, US","cover":"CLR","clouds":[],"fltCat":"VFR"},{"icaoId":"KPUW","receiptTime":"2026-04-14T08:56:32.669Z","obsTime":1776156780,"reportTime":"2026-04-14T09:00:00.000Z","temp":4.4,"dewp":0.6,"wdir":250,"wspd":3,"visib":"10+","altim":1015.7,"slp":1016.5,"qcField":6,"presTend":0.6,"metarType":"METAR","rawOb":"METAR KPUW 140853Z AUTO 25003KT 10SM CLR 04/01 A2999 RMK AO2 SLP165 T00440006 50006","lat":46.7438,"lon":-117.1158,"elev":774,"name":"Pullman/Moscow Rgnl, WA, US","cover":"CLR","clouds":[],"fltCat":"VFR"},{"icaoId":"KRDD","receiptTime":"2026-04-14T08:56:32.702Z","obsTime":1776156780,"reportTime":"2026-04-14T09:00:00.000Z","temp":8.3,"dewp":6.7,"wdir":10,"wspd":4,"visib":"10+","altim":1018.7,"slp":1018.3,"qcField":6,"presTend":0.4,"metarType":"METAR","rawOb":"METAR KRDD 140853Z AUTO 01004KT 10SM CLR 08/07 A3008 RMK AO2 SLP183 T00830067 52004","lat":40.5146,"lon":-122.2977,"elev":152,"name":"Redding Muni, CA, US","cover":"CLR","clouds":[],"fltCat":"VFR"},{"icaoId":"KPGA","receiptTime":"2026-04-14T08:56:32.779Z","obsTime":1776156780,"reportTime":"2026-04-14T09:00:00.000Z","temp":8.3,"dewp":4.4,"wdir":0,"wspd":0,"visib":"10+","altim":1013,"slp":1009.4,"qcField":6,"presTend":-0.7,"pcp3hr":0.03,"metarType":"METAR","rawOb":"METAR KPGA 140853Z AUTO 00000KT 10SM SCT042 BKN065 OVC085 08/04 A2991 RMK AO2 SLP094 60003 T00830044 58007","lat":36.9211,"lon":-111.4487,"elev":1310,"name":"Page Muni, AZ, US","cover":"OVC","clouds":[{"cover":"SCT","base":4200},{"cover":"BKN","base":6500},{"cover":"OVC","base":8500}],"fltCat":"VFR"},{"icaoId":"KPUB","receiptTime":"2026-04-14T08:56:33.158Z","obsTime":1776156780,"reportTime":"2026-04-14T09:00:00.000Z","temp":12.2,"dewp":-2.2,"wdir":230,"wspd":4,"visib":"10+","altim":1009.6,"slp":1004.1,"qcField":14,"presTend":-0.3,"metarType":"METAR","rawOb":"METAR KPUB 140853Z AUTO 23004KT 10SM CLR 12/M02 A2981 RMK AO2 SLP041 T01221022 57003 $","lat":38.2887,"lon":-104.5057,"elev":1441,"name":"Pueblo Mem Arpt, CO, US","cover":"CLR","clouds":[],"fltCat":"VFR"},{"icaoId":"KRIW","receiptTime":"2026-04-14T08:56:33.205Z","obsTime":1776156780,"reportTime":"2026-04-14T09:00:00.000Z","temp":1.1,"dewp":-8.3,"wdir":280,"wspd":9,"visib":"10+","altim":1010.6,"slp":1008.7,"qcField":6,"presTend":-0.3,"metarType":"METAR","rawOb":"METAR KRIW 140853Z AUTO 28009KT 10SM CLR 01/M08 A2984 RMK AO2 SLP087 T00111083 58003","lat":43.0622,"lon":-108.4471,"elev":1662,"name":"Riverton Rgnl, WY, US","cover":"CLR","clouds":[],"fltCat":"VFR"},{"icaoId":"KSTS","receiptTime":"2026-04-14T08:56:33.405Z","obsTime":1776156780,"reportTime":"2026-04-14T09:00:00.000Z","temp":7.8,"dewp":7.2,"wdir":180,"wspd":3,"visib":"10+","altim":1020.4,"slp":1019.6,"qcField":6,"presTend":0.2,"metarType":"METAR","rawOb":"METAR KSTS 140853Z AUTO 18003KT 10SM CLR 08/07 A3013 RMK AO2 SLP196 T00780072 53002","lat":38.5037,"lon":-122.811,"elev":35,"name":"Santa Rosa/Schulz Arpt, CA, US","cover":"CLR","clouds":[],"fltCat":"VFR"},{"icaoId":"KTUS","receiptTime":"2026-04-14T08:56:33.438Z","obsTime":1776156780,"reportTime":"2026-04-14T09:00:00.000Z","temp":16.7,"dewp":6.7,"wdir":260,"wspd":4,"visib":"10+","altim":1016.7,"slp":1013,"qcField":12,"presTend":-0.4,"metarType":"METAR","rawOb":"METAR KTUS 140853Z 26004KT 10SM OVC060 17/07 A3002 RMK AO2 SLP130 T01670067 58004 $","lat":32.1315,"lon":-110.9564,"elev":776,"name":"Tucson Intl Arpt, AZ, US","cover":"OVC","clouds":[{"cover":"OVC","base":6000}],"fltCat":"VFR"},{"icaoId":"KVGT","receiptTime":"2026-04-14T08:56:33.503Z","obsTime":1776156780,"reportTime":"2026-04-14T09:00:00.000Z","temp":13.9,"dewp":1.7,"wdir":180,"wspd":4,"visib":"10+","altim":1014.3,"slp":1014.8,"qcField":4,"presTend":0.8,"metarType":"METAR","rawOb":"METAR KVGT 140853Z 18004KT 10SM SCT110 14/02 A2995 RMK AO2 SLP148 T01390017 51008","lat":36.212,"lon":-115.194,"elev":664,"name":"Las Vegas/North Arpt, NV, US","cover":"SCT","clouds":[{"cover":"SCT","base":11000}],"fltCat":"VFR"},{"icaoId":"KOAK","receiptTime":"2026-04-14T08:56:33.550Z","obsTime":1776156780,"reportTime":"2026-04-14T09:00:00.000Z","temp":12.2,"dewp":10,"wdir":230,"wspd":6,"visib":"10+","altim":1021.1,"slp":1020.8,"qcField":12,"metarType":"METAR","rawOb":"METAR KOAK 140853Z 23006KT 10SM SCT010 12/10 A3015 RMK AO2 SLP208 T01220100 56000 $","lat":37.7178,"lon":-122.233,"elev":3,"name":"Oakland Intl, CA, US","cover":"SCT","clouds":[{"cover":"SCT","base":1000}],"fltCat":"VFR"},{"icaoId":"KOGD","receiptTime":"2026-04-14T08:56:33.567Z","obsTime":1776156780,"reportTime":"2026-04-14T09:00:00.000Z","temp":6.1,"dewp":0.6,"wdir":330,"wspd":8,"visib":"10+","altim":1013,"slp":1010.7,"qcField":6,"presTend":-0.6,"metarType":"METAR","rawOb":"METAR KOGD 140853Z AUTO 33008KT 10SM CLR 06/01 A2991 RMK AO2 SLP107 T00610006 58006","lat":41.1941,"lon":-112.0168,"elev":1356,"name":"Ogden/Hinckley Arpt, UT, US","cover":"CLR","clouds":[],"fltCat":"VFR"},{"icaoId":"KONT","receiptTime":"2026-04-14T08:56:33.617Z","obsTime":1776156780,"reportTime":"2026-04-14T09:00:00.000Z","temp":12.2,"dewp":7.2,"wdir":20,"wspd":4,"visib":"10+","altim":1018.7,"slp":1018.2,"qcField":12,"presTend":0.4,"metarType":"METAR","rawOb":"METAR KONT 140853Z 02004KT 10SM FEW022 SCT045 12/07 A3008 RMK AO2 SLP182 T01220072 50004 $","lat":34.0531,"lon":-117.5769,"elev":279,"name":"Ontario Intl, CA, US","cover":"SCT","clouds":[{"cover":"FEW","base":2200},{"cover":"SCT","base":4500}],"fltCat":"VFR"},{"icaoId":"KBTM","receiptTime":"2026-04-14T08:56:33.753Z","obsTime":1776156780,"reportTime":"2026-04-14T09:00:00.000Z","temp":2.2,"dewp":-1.7,"wdir":10,"wspd":4,"visib":"10+","altim":1013,"slp":1012.5,"qcField":6,"presTend":0.3,"metarType":"METAR","rawOb":"METAR KBTM 140853Z AUTO 01004KT 10SM SCT035 BKN060 02/M02 A2991 RMK AO2 SLP125 T00221017 51003","lat":45.9644,"lon":-112.5015,"elev":1680,"name":"Butte/Mooney Arpt, MT, US","cover":"BKN","clouds":[{"cover":"SCT","base":3500},{"cover":"BKN","base":6000}],"fltCat":"VFR"},{"icaoId":"KCPR","receiptTime":"2026-04-14T08:56:34.208Z","obsTime":1776156780,"reportTime":"2026-04-14T09:00:00.000Z","temp":2.2,"dewp":-10,"wdir":230,"wspd":8,"visib":"10+","altim":1010.2,"slp":1007.8,"qcField":6,"presTend":-0.6,"metarType":"METAR","rawOb":"METAR KCPR 140853Z AUTO 23008KT 10SM CLR 02/M10 A2983 RMK AO2 SLP078 T00221100 55006","lat":42.8978,"lon":-106.4736,"elev":1623,"name":"Casper/Natrona Cnty, WY, US","cover":"CLR","clouds":[],"fltCat":"VFR"},{"icaoId":"KFAT","receiptTime":"2026-04-14T08:56:30.747Z","obsTime":1776156780,"reportTime":"2026-04-14T09:00:00.000Z","temp":11.7,"dewp":7.2,"wdir":300,"wspd":5,"visib":"10+","altim":1020.1,"slp":1019.9,"qcField":4,"presTend":0.8,"metarType":"METAR","rawOb":"METAR KFAT 140853Z 30005KT 10SM FEW090 12/07 A3012 RMK AO2 SLP199 T01170072 51008","lat":36.78,"lon":-119.7202,"elev":102,"name":"Fresno/Yosemite Intl, CA, US","cover":"FEW","clouds":[{"cover":"FEW","base":9000}],"fltCat":"VFR"},{"icaoId":"KHLN","receiptTime":"2026-04-14T08:56:30.831Z","obsTime":1776156780,"reportTime":"2026-04-14T09:00:00.000Z","temp":7.2,"dewp":-0.6,"wdir":270,"wspd":4,"visib":"10+","altim":1011.3,"slp":1012.2,"qcField":6,"presTend":0.4,"metarType":"METAR","rawOb":"METAR KHLN 140853Z AUTO 27004KT 10SM BKN045 07/M01 A2986 RMK AO2 SLP122 T00721006 51004","lat":46.6045,"lon":-111.9892,"elev":1178,"name":"Helena Rgnl, MT, US","cover":"BKN","clouds":[{"cover":"BKN","base":4500}],"fltCat":"VFR"},{"icaoId":"KDLN","receiptTime":"2026-04-14T08:56:21.430Z","obsTime":1776156780,"reportTime":"2026-04-14T09:00:00.000Z","temp":1.1,"dewp":-3.3,"wdir":220,"wspd":8,"visib":"10+","altim":1012.3,"slp":1011.1,"qcField":6,"presTend":0.1,"metarType":"METAR","rawOb":"METAR KDLN 140853Z AUTO 22008KT 10SM SCT060 01/M03 A2989 RMK AO2 SLP111 T00111033 53001","lat":45.2584,"lon":-112.5546,"elev":1586,"name":"Dillon Arpt, MT, US","cover":"SCT","clouds":[{"cover":"SCT","base":6000}],"fltCat":"VFR"},{"icaoId":"KDTW","receiptTime":"2026-04-14T08:56:25.283Z","obsTime":1776156780,"reportTime":"2026-04-14T09:00:00.000Z","temp":18.9,"dewp":15.6,"wdir":200,"wspd":15,"wgst":23,"visib":9,"altim":1009.9,"slp":1009.4,"qcField":12,"presTend":-1.6,"metarType":"METAR","rawOb":"METAR KDTW 140853Z 20015G23KT 9SM BKN035 OVC060 19/16 A2982 RMK AO2 SLP094 T01890156 56016 $","lat":42.2311,"lon":-83.3312,"elev":192,"name":"Detroit/Metro Wayne Cnty, MI, US","cover":"OVC","clouds":[{"cover":"BKN","base":3500},{"cover":"OVC","base":6000}],"fltCat":"VFR"},{"icaoId":"KLBB","receiptTime":"2026-04-14T08:56:24.810Z","obsTime":1776156780,"reportTime":"2026-04-14T09:00:00.000Z","temp":20,"dewp":15,"wdir":220,"wspd":15,"visib":"10+","altim":1014.3,"slp":1008.9,"qcField":4,"presTend":-0.7,"metarType":"METAR","rawOb":"METAR KLBB 140853Z 22015KT 10SM BKN180 20/15 A2995 RMK AO2 PK WND 21028/0757 SLP089 T02000150 58007","lat":33.6658,"lon":-101.8233,"elev":996,"name":"Lubbock Intl Arpt, TX, US","cover":"BKN","clouds":[{"cover":"BKN","base":18000}],"fltCat":"VFR"},{"icaoId":"KAMA","receiptTime":"2026-04-14T08:56:26.291Z","obsTime":1776156780,"reportTime":"2026-04-14T09:00:00.000Z","temp":13.9,"dewp":1.1,"wdir":210,"wspd":10,"visib":"10+","altim":1013.3,"slp":1008.2,"qcField":6,"presTend":-0.1,"metarType":"METAR","rawOb":"METAR KAMA 140853Z AUTO 21010KT 10SM CLR 14/01 A2992 RMK AO2 SLP082 T01390011 58001","lat":35.2203,"lon":-101.7173,"elev":1102,"name":"Amarillo Intl Arpt, TX, US","cover":"CLR","clouds":[],"fltCat":"VFR"},{"icaoId":"KAPA","receiptTime":"2026-04-14T08:56:28.221Z","obsTime":1776156780,"reportTime":"2026-04-14T09:00:00.000Z","temp":8.3,"dewp":-7.8,"wdir":200,"wspd":3,"visib":"10+","altim":1011.9,"slp":1007.1,"qcField":4,"presTend":0.1,"metarType":"METAR","rawOb":"METAR KAPA 140853Z 20003KT 10SM SCT110 BKN220 08/M08 A2988 RMK AO2 SLP071 T00831078 50001","lat":39.5599,"lon":-104.8484,"elev":1791,"name":"Denver/Centennial Arpt, CO, US","cover":"BKN","clouds":[{"cover":"SCT","base":11000},{"cover":"BKN","base":22000}],"fltCat":"VFR"},{"icaoId":"KTPA","receiptTime":"2026-04-14T08:56:25.070Z","obsTime":1776156780,"reportTime":"2026-04-14T09:00:00.000Z","temp":20,"dewp":15.6,"wdir":40,"wspd":3,"visib":"10+","altim":1022.4,"slp":1022.2,"qcField":4,"presTend":-1,"metarType":"METAR","rawOb":"METAR KTPA 140853Z 04003KT 10SM BKN250 20/16 A3019 RMK AO2 SLP222 T02000156 56010","lat":27.9633,"lon":-82.54,"elev":2,"name":"Tampa Intl Arpt, FL, US","cover":"BKN","clouds":[{"cover":"BKN","base":25000}],"fltCat":"VFR"},{"icaoId":"KPDX","receiptTime":"2026-04-14T08:56:32.765Z","obsTime":1776156780,"reportTime":"2026-04-14T09:00:00.000Z","temp":7.2,"dewp":3.9,"wdir":210,"wspd":5,"visib":"10+","altim":1021.8,"slp":1021.6,"qcField":12,"presTend":-0.7,"metarType":"METAR","rawOb":"METAR KPDX 140853Z 21005KT 10SM BKN050 07/04 A3017 RMK AO2 SLP216 T00720039 56007 $","lat":45.5958,"lon":-122.6092,"elev":7,"name":"Portland Intl, OR, US","cover":"BKN","clouds":[{"cover":"BKN","base":5000}],"fltCat":"VFR"},{"icaoId":"KMSO","receiptTime":"2026-04-14T08:56:33.535Z","obsTime":1776156780,"reportTime":"2026-04-14T09:00:00.000Z","temp":4.4,"dewp":1.7,"wdir":310,"wspd":3,"visib":"10+","altim":1013.6,"slp":1014.4,"qcField":14,"metarType":"METAR","rawOb":"METAR KMSO 140853Z AUTO 31003KT 10SM BKN047 04/02 A2993 RMK AO2 SLP144 T00440017 55000 $","lat":46.9208,"lon":-114.0938,"elev":974,"name":"Missoula Intl, MT, US","cover":"BKN","clouds":[{"cover":"BKN","base":4700}],"fltCat":"VFR"},{"icaoId":"KMYF","receiptTime":"2026-04-14T08:56:29.360Z","obsTime":1776156780,"reportTime":"2026-04-14T09:00:00.000Z","temp":11.7,"dewp":8.9,"wdir":110,"wspd":3,"visib":"10+","altim":1019.4,"slp":1019,"qcField":6,"presTend":0.1,"metarType":"METAR","rawOb":"METAR KMYF 140853Z AUTO 11003KT 10SM BKN028 12/09 A3010 RMK AO2 SLP190 T01170089 50001","lat":32.8145,"lon":-117.1375,"elev":128,"name":"San Diego/Montgomery Arpt, CA, US","cover":"BKN","clouds":[{"cover":"BKN","base":2800}],"fltCat":"MVFR"},{"icaoId":"KSHR","receiptTime":"2026-04-14T08:56:32.549Z","obsTime":1776156780,"reportTime":"2026-04-14T09:00:00.000Z","temp":2.8,"dewp":-4.4,"wdir":180,"wspd":5,"visib":"10+","altim":1009.6,"slp":1009.9,"qcField":14,"metarType":"METAR","rawOb":"METAR KSHR 140853Z AUTO 18005KT 10SM CLR 03/M04 A2981 RMK AO2 SLP099 T00281044 $","lat":44.7603,"lon":-106.9741,"elev":1212,"name":"Sheridan Cnty Arpt, WY, US","cover":"CLR","clouds":[],"fltCat":"VFR"},{"icaoId":"KLAR","receiptTime":"2026-04-14T08:56:29.758Z","obsTime":1776156780,"reportTime":"2026-04-14T09:00:00.000Z","temp":2.2,"dewp":-5,"wdir":40,"wspd":7,"visib":"10+","altim":1012.3,"slp":1006.6,"qcField":6,"presTend":-0.5,"metarType":"METAR","rawOb":"METAR KLAR 140853Z AUTO 04007KT 10SM BKN060 OVC085 02/M05 A2989 RMK AO2 SLP066 T00221050 58005","lat":41.3165,"lon":-105.6729,"elev":2217,"name":"Laramie Rgnl, WY, US","cover":"OVC","clouds":[{"cover":"BKN","base":6000},{"cover":"OVC","base":8500}],"fltCat":"VFR"},{"icaoId":"KSNA","receiptTime":"2026-04-14T08:56:32.593Z","obsTime":1776156780,"reportTime":"2026-04-14T09:00:00.000Z","temp":13.9,"dewp":8.9,"wdir":120,"wspd":6,"visib":"10+","altim":1018.7,"slp":1018.6,"qcField":14,"presTend":0.1,"metarType":"METAR","rawOb":"METAR KSNA 140853Z AUTO 12006KT 10SM CLR 14/09 A3008 RMK AO2 SLP186 T01390089 50001 $","lat":33.6798,"lon":-117.8675,"elev":14,"name":"Santa Ana/Wayne Arpt, CA, US","cover":"CLR","clouds":[],"fltCat":"VFR"},{"icaoId":"KRTN","receiptTime":"2026-04-14T08:56:18.952Z","obsTime":1776156780,"reportTime":"2026-04-14T09:00:00.000Z","temp":5.6,"dewp":0,"wdir":230,"wspd":5,"visib":"10+","altim":1013.6,"slp":1007.3,"qcField":6,"presTend":-1.2,"metarType":"METAR","rawOb":"METAR KRTN 140853Z AUTO 23005KT 10SM CLR 06/00 A2993 RMK AO2 SLP073 T00560000 57012","lat":36.7418,"lon":-104.5076,"elev":1939,"name":"Raton/Crews Fld, NM, US","cover":"CLR","clouds":[],"fltCat":"VFR"},{"icaoId":"KLOL","receiptTime":"2026-04-14T08:56:32.518Z","obsTime":1776156780,"reportTime":"2026-04-14T09:00:00.000Z","temp":3.3,"dewp":-4.4,"wdir":0,"wspd":0,"visib":"10+","altim":1016.7,"slp":1016.3,"qcField":14,"presTend":0.4,"metarType":"METAR","rawOb":"METAR KLOL 140853Z AUTO 00000KT 10SM CLR 03/M04 A3002 RMK AO2 SLP163 T00331044 50004 $","lat":40.0684,"lon":-118.5702,"elev":1191,"name":"Lovelock/Derby Fld, NV, US","cover":"CLR","clouds":[],"fltCat":"VFR"},{"icaoId":"KDRO","receiptTime":"2026-04-14T08:56:25.267Z","obsTime":1776156780,"reportTime":"2026-04-14T09:00:00.000Z","temp":4.4,"dewp":3.3,"wdir":230,"wspd":8,"wgst":16,"visib":7,"altim":1015.3,"slp":1011.6,"qcField":6,"wxString":"-RA","presTend":-0.3,"precip":0.09,"pcp3hr":0.17,"metarType":"METAR","rawOb":"METAR KDRO 140853Z AUTO 23008G16KT 7SM -RA FEW009 SCT018 OVC027 04/03 A2998 RMK AO2 RAB04 SLP116 P0009 60017 T00440033 58003","lat":37.1431,"lon":-107.7602,"elev":2021,"name":"Durango/La Plata Cnty, CO, US","cover":"OVC","clouds":[{"cover":"FEW","base":900},{"cover":"SCT","base":1800},{"cover":"OVC","base":2700}],"fltCat":"MVFR"},{"icaoId":"KELY","receiptTime":"2026-04-14T08:56:30.786Z","obsTime":1776156780,"reportTime":"2026-04-14T09:00:00.000Z","temp":-2.2,"dewp":-3.3,"wdir":150,"wspd":4,"visib":"10+","altim":1015.3,"slp":1014,"qcField":14,"presTend":0.4,"metarType":"METAR","rawOb":"METAR KELY 140853Z AUTO 15004KT 10SM CLR M02/M03 A2998 RMK AO2 SLP140 T10221033 51004 $","lat":39.2954,"lon":-114.8466,"elev":1906,"name":"Ely/Yelland Fld, NV, US","cover":"CLR","clouds":[],"fltCat":"VFR"},{"icaoId":"KBIL","receiptTime":"2026-04-14T08:56:25.644Z","obsTime":1776156780,"reportTime":"2026-04-14T09:00:00.000Z","temp":6.1,"dewp":-5,"wdir":250,"wspd":12,"visib":"10+","altim":1009.2,"slp":1008.9,"qcField":4,"metarType":"METAR","rawOb":"METAR KBIL 140853Z 25012KT 10SM FEW230 06/M05 A2980 RMK AO2 SLP089 T00611050 58000","lat":45.8072,"lon":-108.5462,"elev":1089,"name":"Billings/Logan Intl, MT, US","cover":"FEW","clouds":[{"cover":"FEW","base":23000}],"fltCat":"VFR"},{"icaoId":"KCNM","receiptTime":"2026-04-14T08:56:34.145Z","obsTime":1776156780,"reportTime":"2026-04-14T09:00:00.000Z","temp":18.3,"dewp":2.2,"wdir":"VRB","wspd":3,"visib":"10+","altim":1014.3,"slp":1008.9,"qcField":6,"presTend":-1.4,"metarType":"METAR","rawOb":"METAR KCNM 140853Z AUTO VRB03KT 10SM CLR 18/02 A2995 RMK AO2 SLP089 T01830022 58014","lat":32.3336,"lon":-104.2584,"elev":993,"name":"Carlsbad/Cavern City Air Term, NM, US","cover":"CLR","clouds":[],"fltCat":"VFR"},{"icaoId":"KDEN","receiptTime":"2026-04-14T08:56:26.210Z","obsTime":1776156780,"reportTime":"2026-04-14T09:00:00.000Z","temp":10,"dewp":-8.3,"wdir":240,"wspd":3,"visib":"10+","altim":1011.3,"slp":1005.2,"qcField":4,"presTend":0.7,"metarType":"METAR","rawOb":"METAR KDEN 140853Z 24003KT 10SM SCT180 BKN250 10/M08 A2986 RMK AO2 SLP052 T01001083 51007","lat":39.8466,"lon":-104.6562,"elev":1656,"name":"Denver Intl, CO, US","cover":"BKN","clouds":[{"cover":"SCT","base":18000},{"cover":"BKN","base":25000}],"fltCat":"VFR"},{"icaoId":"KPNC","receiptTime":"2026-04-14T08:56:30.063Z","obsTime":1776156780,"reportTime":"2026-04-14T09:00:00.000Z","temp":23.3,"dewp":19.4,"wdir":180,"wspd":10,"wgst":21,"visib":"10+","altim":1009.2,"slp":1007.6,"qcField":6,"presTend":-0.5,"metarType":"METAR","rawOb":"METAR KPNC 140853Z AUTO 18010G21KT 10SM CLR 23/19 A2980 RMK AO2 SLP076 T02330194 58005","lat":36.7369,"lon":-97.1024,"elev":304,"name":"Ponca City Rgnl, OK, US","cover":"CLR","clouds":[],"fltCat":"VFR"},{"icaoId":"KSJC","receiptTime":"2026-04-14T08:56:32.564Z","obsTime":1776156780,"reportTime":"2026-04-14T09:00:00.000Z","temp":10,"dewp":6.7,"wdir":150,"wspd":3,"visib":"10+","altim":1021.1,"slp":1020.8,"qcField":14,"metarType":"METAR","rawOb":"METAR KSJC 140853Z AUTO 15003KT 10SM CLR 10/07 A3015 RMK AO2 SLP208 T01000067 50000 $","lat":37.3594,"lon":-121.9244,"elev":13,"name":"San Jose Intl Arpt, CA, US","cover":"CLR","clouds":[],"fltCat":"VFR"},{"icaoId":"KIAH","receiptTime":"2026-04-14T08:56:24.765Z","obsTime":1776156780,"reportTime":"2026-04-14T09:00:00.000Z","temp":21.7,"dewp":20.6,"wdir":170,"wspd":5,"visib":7,"altim":1017.7,"slp":1017.5,"qcField":4,"presTend":-1.4,"metarType":"METAR","rawOb":"METAR KIAH 140853Z 17005KT 7SM FEW012 SCT030 22/21 A3005 RMK AO2 SLP175 T02170206 58014","lat":29.9844,"lon":-95.3607,"elev":27,"name":"Houston/Bush Intl, TX, US","cover":"SCT","clouds":[{"cover":"FEW","base":1200},{"cover":"SCT","base":3000}],"fltCat":"VFR"},{"icaoId":"KCNY","receiptTime":"2026-04-14T08:56:26.153Z","obsTime":1776156780,"reportTime":"2026-04-14T09:00:00.000Z","temp":7.2,"dewp":5,"wdir":290,"wspd":6,"visib":"10+","altim":1010.6,"slp":1007.7,"qcField":14,"presTend":-0.2,"precip":0.005,"pcp3hr":0.02,"metarType":"METAR","rawOb":"METAR KCNY 140853Z AUTO 29006KT 10SM BKN080 BKN100 07/05 A2984 RMK AO2 RAE11 SLP077 P0000 60002 T00720050 56002 $","lat":38.7501,"lon":-109.7627,"elev":1392,"name":"Moab/Canyonland Fld, UT, US","cover":"BKN","clouds":[{"cover":"BKN","base":8000},{"cover":"BKN","base":10000}],"fltCat":"VFR"},{"icaoId":"KDFW","receiptTime":"2026-04-14T08:56:26.965Z","obsTime":1776156780,"reportTime":"2026-04-14T09:00:00.000Z","temp":22.8,"dewp":18.9,"wdir":190,"wspd":17,"wgst":27,"visib":"10+","altim":1014.3,"slp":1013.4,"qcField":4,"presTend":-0.6,"metarType":"METAR","rawOb":"METAR KDFW 140853Z 19017G27KT 10SM OVC018 23/19 A2995 RMK AO2 PK WND 18032/0823 SLP134 T02280189 56006","lat":32.8974,"lon":-97.022,"elev":168,"name":"Dallas-Ft Worth Intl, TX, US","cover":"OVC","clouds":[{"cover":"OVC","base":1800}],"fltCat":"MVFR"},{"icaoId":"KFUL","receiptTime":"2026-04-14T08:56:21.324Z","obsTime":1776156780,"reportTime":"2026-04-14T09:00:00.000Z","temp":13.9,"dewp":10,"wdir":70,"wspd":4,"visib":"10+","altim":1018.4,"slp":1018.3,"qcField":6,"presTend":0.4,"metarType":"METAR","rawOb":"METAR KFUL 140853Z AUTO 07004KT 10SM CLR 14/10 A3007 RMK AO2 SLP183 T01390100 50004","lat":33.8715,"lon":-117.9856,"elev":23,"name":"Fullerton Muni, CA, US","cover":"CLR","clouds":[],"fltCat":"VFR"},{"icaoId":"KMAF","receiptTime":"2026-04-14T08:56:24.736Z","obsTime":1776156780,"reportTime":"2026-04-14T09:00:00.000Z","temp":20,"dewp":16.1,"wdir":170,"wspd":8,"visib":"10+","altim":1014.6,"slp":1009.7,"qcField":6,"presTend":-1.3,"metarType":"METAR","rawOb":"METAR KMAF 140853Z AUTO 17008KT 10SM CLR 20/16 A2996 RMK AO2 SLP097 T02000161 58013","lat":31.9475,"lon":-102.2086,"elev":874,"name":"Midland Intl, TX, US","cover":"CLR","clouds":[],"fltCat":"VFR"},{"icaoId":"KMIA","receiptTime":"2026-04-14T08:56:31.380Z","obsTime":1776156780,"reportTime":"2026-04-14T09:00:00.000Z","temp":22.8,"dewp":14.4,"wdir":80,"wspd":9,"visib":"10+","altim":1020.7,"slp":1020.5,"qcField":0,"presTend":-0.6,"metarType":"METAR","rawOb":"METAR KMIA 140853Z 08009KT 10SM FEW035 23/14 A3014 RMK SLP205 T02280144 55006","lat":25.7881,"lon":-80.3169,"elev":1,"name":"Miami Intl, FL, US","cover":"FEW","clouds":[{"cover":"FEW","base":3500}],"fltCat":"VFR"},{"icaoId":"KTUL","receiptTime":"2026-04-14T08:56:25.099Z","obsTime":1776156780,"reportTime":"2026-04-14T09:00:00.000Z","temp":23.3,"dewp":20,"wdir":180,"wspd":17,"wgst":24,"visib":"10+","altim":1011.6,"slp":1010.5,"qcField":4,"presTend":-0.7,"metarType":"METAR","rawOb":"METAR KTUL 140853Z 18017G24KT 10SM BKN022 BKN032 BKN220 23/20 A2987 RMK AO2 PK WND 18027/0813 SLP105 T02330200 56007","lat":36.1985,"lon":-95.8782,"elev":196,"name":"Tulsa Intl Arpt, OK, US","cover":"BKN","clouds":[{"cover":"BKN","base":2200},{"cover":"BKN","base":3200},{"cover":"BKN","base":22000}],"fltCat":"MVFR"},{"icaoId":"KBFI","receiptTime":"2026-04-14T08:56:25.630Z","obsTime":1776156780,"reportTime":"2026-04-14T09:00:00.000Z","temp":8.3,"dewp":3.9,"wdir":170,"wspd":12,"wgst":19,"visib":"10+","altim":1018.7,"slp":1018.6,"qcField":4,"presTend":-0.8,"metarType":"METAR","rawOb":"METAR KBFI 140853Z 17012G19KT 10SM SCT025 08/04 A3008 RMK AO2 SLP186 T00830039 56008","lat":47.5455,"lon":-122.3148,"elev":7,"name":"Seattle/Boeing Fld, WA, US","cover":"SCT","clouds":[{"cover":"SCT","base":2500}],"fltCat":"VFR"},{"icaoId":"KBLI","receiptTime":"2026-04-14T08:56:25.678Z","obsTime":1776156780,"reportTime":"2026-04-14T09:00:00.000Z","temp":7.8,"dewp":5,"wdir":190,"wspd":8,"wgst":15,"visib":"10+","altim":1017,"slp":1017.7,"qcField":6,"wxString":"-RA","presTend":-0.2,"precip":0.005,"pcp3hr":0.005,"metarType":"METAR","rawOb":"METAR KBLI 140853Z AUTO 19008G15KT 10SM -RA FEW023 BKN037 OVC045 08/05 A3003 RMK AO2 RAB31 SLP177 P0000 60000 T00780050 58002","lat":48.7991,"lon":-122.5407,"elev":46,"name":"Bellingham Intl, WA, US","cover":"OVC","clouds":[{"cover":"FEW","base":2300},{"cover":"BKN","base":3700},{"cover":"OVC","base":4500}],"fltCat":"VFR"},{"icaoId":"KDCA","receiptTime":"2026-04-14T08:56:28.887Z","obsTime":1776156720,"reportTime":"2026-04-14T09:00:00.000Z","temp":16.7,"dewp":13.3,"wdir":200,"wspd":4,"visib":"10+","altim":1017.7,"slp":1017.4,"qcField":4,"presTend":0.3,"metarType":"METAR","rawOb":"METAR KDCA 140852Z 20004KT 10SM SCT110 BKN250 17/13 A3005 RMK AO2 SLP174 T01670133 53003","lat":38.8472,"lon":-77.0345,"elev":4,"name":"Washington/Reagan-National Arpt, VA, US","cover":"BKN","clouds":[{"cover":"SCT","base":11000},{"cover":"BKN","base":25000}],"fltCat":"VFR"},{"icaoId":"KIAD","receiptTime":"2026-04-14T08:56:29.109Z","obsTime":1776156720,"reportTime":"2026-04-14T09:00:00.000Z","temp":15,"dewp":11.1,"wdir":230,"wspd":5,"visib":"10+","altim":1017.7,"slp":1017.5,"qcField":4,"presTend":0.2,"metarType":"METAR","rawOb":"METAR KIAD 140852Z 23005KT 10SM SCT100 15/11 A3005 RMK AO2 SLP175 T01500111 53002","lat":38.9348,"lon":-77.4473,"elev":90,"name":"Washington/Dulles Intl, VA, US","cover":"SCT","clouds":[{"cover":"SCT","base":10000}],"fltCat":"VFR"},{"icaoId":"KOKC","receiptTime":"2026-04-14T08:56:27.161Z","obsTime":1776156720,"reportTime":"2026-04-14T09:00:00.000Z","temp":21.7,"dewp":18.9,"wdir":190,"wspd":12,"visib":"10+","altim":1011.9,"slp":1010.1,"qcField":4,"presTend":-0.3,"metarType":"METAR","rawOb":"METAR KOKC 140852Z 19012KT 10SM FEW250 22/19 A2988 RMK AO2 SLP101 T02170189 56003","lat":35.3843,"lon":-97.6003,"elev":391,"name":"Oklahoma City/Will Rogers Intl, OK, US","cover":"FEW","clouds":[{"cover":"FEW","base":25000}],"fltCat":"VFR"},{"icaoId":"KCLT","receiptTime":"2026-04-14T08:56:28.824Z","obsTime":1776156720,"reportTime":"2026-04-14T09:00:00.000Z","temp":16.1,"dewp":12.2,"wdir":210,"wspd":5,"visib":"10+","altim":1021.8,"slp":1022.3,"qcField":4,"presTend":-0.4,"metarType":"METAR","rawOb":"METAR KCLT 140852Z 21005KT 10SM CLR 16/12 A3017 RMK AO2 SLP223 T01610122 56004","lat":35.2225,"lon":-80.9543,"elev":223,"name":"Charlotte/Douglas Intl, NC, US","cover":"CLR","clouds":[],"fltCat":"VFR"},{"icaoId":"KABI","receiptTime":"2026-04-14T08:56:27.064Z","obsTime":1776156720,"reportTime":"2026-04-14T09:00:00.000Z","temp":21.7,"dewp":18.3,"wdir":170,"wspd":11,"visib":"10+","altim":1014.3,"slp":1011.4,"qcField":4,"presTend":-0.7,"metarType":"METAR","rawOb":"METAR KABI 140852Z 17011KT 10SM CLR 22/18 A2995 RMK AO2 SLP114 T02170183 56007","lat":32.4106,"lon":-99.6821,"elev":543,"name":"Abilene Rgnl, TX, US","cover":"CLR","clouds":[],"fltCat":"VFR"},{"icaoId":"KABQ","receiptTime":"2026-04-14T08:56:27.080Z","obsTime":1776156720,"reportTime":"2026-04-14T09:00:00.000Z","temp":12.8,"dewp":1.1,"wdir":210,"wspd":7,"visib":"10+","altim":1015.3,"slp":1009.3,"qcField":4,"presTend":-0.9,"metarType":"METAR","rawOb":"METAR KABQ 140852Z 21007KT 10SM SCT075 SCT140 13/01 A2998 RMK AO2 SLP093 T01280011 58009","lat":35.0419,"lon":-106.6154,"elev":1620,"name":"Albuquerque Intl, NM, US","cover":"SCT","clouds":[{"cover":"SCT","base":7500},{"cover":"SCT","base":14000}],"fltCat":"VFR"},{"icaoId":"KSPS","receiptTime":"2026-04-14T08:56:27.197Z","obsTime":1776156720,"reportTime":"2026-04-14T09:00:00.000Z","temp":21.7,"dewp":18.9,"wdir":190,"wspd":10,"visib":"10+","altim":1012.3,"slp":1010.6,"qcField":6,"presTend":-0.1,"metarType":"METAR","rawOb":"METAR KSPS 140852Z AUTO 19010KT 10SM CLR 22/19 A2989 RMK AO2 SLP106 T02170189 58001","lat":33.9785,"lon":-98.493,"elev":310,"name":"Wichita Falls Rgnl, TX, US","cover":"CLR","clouds":[],"fltCat":"VFR"},{"icaoId":"KHRL","receiptTime":"2026-04-14T08:56:29.072Z","obsTime":1776156720,"reportTime":"2026-04-14T09:00:00.000Z","temp":23.3,"dewp":22.2,"wdir":150,"wspd":11,"visib":9,"altim":1015.3,"slp":1015.1,"qcField":6,"presTend":-1.4,"metarType":"METAR","rawOb":"METAR KHRL 140852Z AUTO 15011KT 9SM BKN017 OVC022 23/22 A2998 RMK AO2 SLP151 T02330222 58014","lat":26.2303,"lon":-97.6556,"elev":9,"name":"Harlingen/Valley Intl, TX, US","cover":"OVC","clouds":[{"cover":"BKN","base":1700},{"cover":"OVC","base":2200}],"fltCat":"MVFR"},{"icaoId":"KMLF","receiptTime":"2026-04-14T08:56:22.858Z","obsTime":1776156720,"reportTime":"2026-04-14T09:00:00.000Z","temp":2.8,"dewp":1.7,"wdir":210,"wspd":8,"visib":"10+","altim":1013,"slp":1011.9,"qcField":6,"presTend":-0.3,"pcp3hr":0.005,"metarType":"METAR","rawOb":"METAR KMLF 140852Z AUTO 21008KT 10SM FEW005 OVC100 03/02 A2991 RMK AO2 SLP119 60000 T00280017 58003","lat":38.4225,"lon":-113.0109,"elev":1537,"name":"Milford Muni, UT, US","cover":"OVC","clouds":[{"cover":"FEW","base":500},{"cover":"OVC","base":10000}],"fltCat":"VFR"},{"icaoId":"KCVG","receiptTime":"2026-04-14T08:56:28.871Z","obsTime":1776156720,"reportTime":"2026-04-14T09:00:00.000Z","temp":18.9,"dewp":13.9,"wdir":210,"wspd":13,"wgst":21,"visib":"10+","altim":1015.7,"slp":1014.7,"qcField":4,"presTend":-1.2,"metarType":"METAR","rawOb":"METAR KCVG 140852Z 21013G21KT 10SM BKN250 19/14 A2999 RMK AO2 SLP147 T01890139 56012","lat":39.0444,"lon":-84.6724,"elev":264,"name":"Cincinnati Intl, KY, US","cover":"BKN","clouds":[{"cover":"BKN","base":25000}],"fltCat":"VFR"},{"icaoId":"KATL","receiptTime":"2026-04-14T08:56:28.684Z","obsTime":1776156720,"reportTime":"2026-04-14T09:00:00.000Z","temp":16.7,"dewp":11.1,"wdir":0,"wspd":0,"visib":"10+","altim":1022.4,"slp":1021.4,"qcField":12,"presTend":-1.4,"metarType":"METAR","rawOb":"METAR KATL 140852Z 00000KT 10SM FEW200 17/11 A3019 RMK AO2 SLP214 T01670111 56014 $","lat":33.6297,"lon":-84.4422,"elev":309,"name":"Atlanta/Hartsfield-Jackson Intl, GA, US","cover":"FEW","clouds":[{"cover":"FEW","base":20000}],"fltCat":"VFR"},{"icaoId":"KOXR","receiptTime":"2026-04-14T08:54:11.374Z","obsTime":1776156660,"reportTime":"2026-04-14T09:00:00.000Z","temp":12.2,"dewp":8.9,"wdir":0,"wspd":0,"visib":"10+","altim":1018.4,"slp":1018.2,"qcField":14,"presTend":0.6,"metarType":"METAR","rawOb":"METAR KOXR 140851Z AUTO 00000KT 10SM CLR 12/09 A3007 RMK AO2 SLP182 T01220089 50006 $","lat":34.2001,"lon":-119.2042,"elev":12,"name":"Oxnard Arpt, CA, US","cover":"CLR","clouds":[],"fltCat":"VFR"},{"icaoId":"KORD","receiptTime":"2026-04-14T08:54:11.296Z","obsTime":1776156660,"reportTime":"2026-04-14T09:00:00.000Z","temp":16.7,"dewp":13.3,"wdir":340,"wspd":10,"visib":"10+","altim":1009.9,"slp":1009.6,"qcField":4,"wxString":"TS","presTend":2.4,"precip":0.005,"pcp3hr":0.005,"metarType":"METAR","rawOb":"METAR KORD 140851Z 34010KT 10SM TS SCT023 BKN031CB OVC040 17/13 A2982 RMK AO2 PK WND 01031/0821 WSHFT 0756 RAB46E50 TSB24 SLP096 FRQ LTGICCG OHD TS OHD MOV SE P0000 60000 T01670133 53024","lat":41.9602,"lon":-87.9316,"elev":202,"name":"Chicago/O'Hare Intl, IL, US","cover":"OVC","clouds":[{"cover":"SCT","base":2300},{"cover":"BKN","base":3100},{"cover":"OVC","base":4000}],"fltCat":"VFR"},{"icaoId":"KLGU","receiptTime":"2026-04-14T08:54:11.133Z","obsTime":1776156660,"reportTime":"2026-04-14T09:00:00.000Z","temp":2.8,"dewp":0.6,"wdir":330,"wspd":6,"visib":"10+","altim":1014.3,"slp":1013,"qcField":6,"presTend":-0.4,"metarType":"METAR","rawOb":"METAR KLGU 140851Z AUTO 33006KT 10SM BKN042 03/01 A2995 RMK AO2 SLP130 T00280006 58004","lat":41.7865,"lon":-111.8519,"elev":1359,"name":"Logan/Cache Arpt, UT, US","cover":"BKN","clouds":[{"cover":"BKN","base":4200}],"fltCat":"VFR"},{"icaoId":"KBDL","receiptTime":"2026-04-14T08:54:09.728Z","obsTime":1776156660,"reportTime":"2026-04-14T09:00:00.000Z","temp":12.8,"dewp":11.7,"wdir":170,"wspd":5,"visib":"10+","altim":1015,"slp":1014.9,"qcField":4,"presTend":0.4,"metarType":"METAR","rawOb":"METAR KBDL 140851Z 17005KT 10SM SCT250 13/12 A2997 RMK AO2 VIS 1 1/2 RWY 6-24 SLP149 T01280117 53004","lat":41.9374,"lon":-72.682,"elev":52,"name":"Hartford/Bradley Intl, CT, US","cover":"SCT","clouds":[{"cover":"SCT","base":25000}],"fltCat":"VFR"},{"icaoId":"KACT","receiptTime":"2026-04-14T08:54:09.509Z","obsTime":1776156660,"reportTime":"2026-04-14T09:00:00.000Z","temp":22.8,"dewp":18.9,"wdir":190,"wspd":16,"visib":"10+","altim":1015.7,"slp":1014.9,"qcField":6,"presTend":-0.7,"metarType":"METAR","rawOb":"METAR KACT 140851Z AUTO 19016KT 10SM OVC025 23/19 A2999 RMK AO2 SLP149 T02280189 58007","lat":31.618,"lon":-97.2283,"elev":150,"name":"Waco Rgnl, TX, US","cover":"OVC","clouds":[{"cover":"OVC","base":2500}],"fltCat":"MVFR"},{"icaoId":"KPIT","receiptTime":"2026-04-14T08:54:09.294Z","obsTime":1776156660,"reportTime":"2026-04-14T09:00:00.000Z","temp":17.8,"dewp":8.9,"wdir":180,"wspd":4,"visib":"10+","altim":1016.7,"slp":1016.6,"qcField":4,"presTend":-0.8,"metarType":"METAR","rawOb":"METAR KPIT 140851Z 18004KT 10SM OVC046 18/09 A3002 RMK AO2 SLP166 T01780089 56008","lat":40.4814,"lon":-80.2083,"elev":339,"name":"Pittsburgh Intl, PA, US","cover":"OVC","clouds":[{"cover":"OVC","base":4600}],"fltCat":"VFR"},{"icaoId":"KCLE","receiptTime":"2026-04-14T08:54:09.188Z","obsTime":1776156660,"reportTime":"2026-04-14T09:00:00.000Z","temp":18.9,"dewp":12.8,"wdir":200,"wspd":13,"visib":"10+","altim":1013,"slp":1014,"qcField":12,"presTend":-1.3,"metarType":"METAR","rawOb":"METAR KCLE 140851Z 20013KT 10SM OVC060 19/13 A2991 RMK AO2 SLP140 T01890128 55013 $","lat":41.4057,"lon":-81.8519,"elev":237,"name":"Cleveland/Hopkins Intl, OH, US","cover":"OVC","clouds":[{"cover":"OVC","base":6000}],"fltCat":"VFR"},{"icaoId":"KCMH","receiptTime":"2026-04-14T08:54:10.214Z","obsTime":1776156660,"reportTime":"2026-04-14T09:00:00.000Z","temp":20,"dewp":11.1,"wdir":190,"wspd":12,"visib":"10+","altim":1016,"slp":1015.1,"qcField":4,"presTend":-1,"metarType":"METAR","rawOb":"METAR KCMH 140851Z 19012KT 10SM SCT043 OVC055 20/11 A3000 RMK AO2 SLP151 T02000111 55010","lat":39.9907,"lon":-82.877,"elev":257,"name":"Columbus/Glenn Intl, OH, US","cover":"OVC","clouds":[{"cover":"SCT","base":4300},{"cover":"OVC","base":5500}],"fltCat":"VFR"},{"icaoId":"KROW","receiptTime":"2026-04-14T08:54:08.618Z","obsTime":1776156660,"reportTime":"2026-04-14T09:00:00.000Z","temp":16.1,"dewp":1.7,"wdir":180,"wspd":11,"visib":"10+","altim":1013.6,"slp":1007.8,"qcField":6,"presTend":-1.5,"metarType":"METAR","rawOb":"METAR KROW 140851Z AUTO 18011KT 10SM CLR 16/02 A2993 RMK AO2 SLP078 T01610017 58015","lat":33.3074,"lon":-104.5082,"elev":1105,"name":"Roswell/Ind Arpt, NM, US","cover":"CLR","clouds":[],"fltCat":"VFR"},{"icaoId":"KMYL","receiptTime":"2026-04-14T08:54:11.273Z","obsTime":1776156660,"reportTime":"2026-04-14T09:00:00.000Z","temp":1.1,"dewp":1.1,"wdir":130,"wspd":3,"visib":"10+","altim":1015.7,"slp":1016.7,"qcField":6,"presTend":-0.2,"metarType":"METAR","rawOb":"METAR KMYL 140851Z AUTO 13003KT 10SM BKN003 OVC008 01/01 A2999 RMK AO2 CIG 001V005 SLP167 T00110011 56002","lat":44.8943,"lon":-116.0998,"elev":1532,"name":"McCall Muni, ID, US","cover":"OVC","clouds":[{"cover":"BKN","base":300},{"cover":"OVC","base":800}],"fltCat":"LIFR"},{"icaoId":"KJFK","receiptTime":"2026-04-14T08:54:11.096Z","obsTime":1776156660,"reportTime":"2026-04-14T09:00:00.000Z","temp":14.4,"dewp":11.7,"wdir":0,"wspd":0,"visib":"10+","altim":1015.3,"slp":1015.2,"qcField":4,"presTend":-0.2,"metarType":"METAR","rawOb":"METAR KJFK 140851Z 00000KT 10SM FEW180 SCT250 14/12 A2998 RMK AO2 SLP152 T01440117 55002","lat":40.6392,"lon":-73.7639,"elev":3,"name":"New York/JF Kennedy Intl, NY, US","cover":"SCT","clouds":[{"cover":"FEW","base":18000},{"cover":"SCT","base":25000}],"fltCat":"VFR"},{"icaoId":"KORF","receiptTime":"2026-04-14T08:54:11.339Z","obsTime":1776156660,"reportTime":"2026-04-14T09:00:00.000Z","temp":19.4,"dewp":12.2,"wdir":230,"wspd":10,"visib":"10+","altim":1019.4,"slp":1019.3,"qcField":4,"presTend":-0.5,"metarType":"METAR","rawOb":"METAR KORF 140851Z 23010KT 10SM BKN110 19/12 A3010 RMK AO2 SLP193 T01940122 55005","lat":36.9037,"lon":-76.1927,"elev":5,"name":"Norfolk Intl, VA, US","cover":"BKN","clouds":[{"cover":"BKN","base":11000}],"fltCat":"VFR"},{"icaoId":"KIGM","receiptTime":"2026-04-14T08:54:10.933Z","obsTime":1776156660,"reportTime":"2026-04-14T09:00:00.000Z","temp":6.1,"dewp":1.7,"wdir":340,"wspd":8,"visib":"10+","altim":1015.7,"slp":1011.5,"qcField":6,"presTend":0.4,"metarType":"METAR","rawOb":"METAR KIGM 140851Z AUTO 34008KT 10SM CLR 06/02 A2999 RMK AO2 SLP115 T00610017 53004","lat":35.2575,"lon":-113.9341,"elev":1045,"name":"Kingman Arpt, AZ, US","cover":"CLR","clouds":[],"fltCat":"VFR"},{"icaoId":"KEWR","receiptTime":"2026-04-14T08:54:10.640Z","obsTime":1776156660,"reportTime":"2026-04-14T09:00:00.000Z","temp":19.4,"dewp":13.3,"wdir":0,"wspd":0,"visib":"10+","altim":1015,"slp":1014.8,"qcField":4,"presTend":-0.4,"metarType":"METAR","rawOb":"METAR KEWR 140851Z 00000KT 10SM FEW100 SCT250 19/13 A2997 RMK AO2 SLP148 T01940133 55004","lat":40.6828,"lon":-74.1692,"elev":2,"name":"Newark Intl, NJ, US","cover":"SCT","clouds":[{"cover":"FEW","base":10000},{"cover":"SCT","base":25000}],"fltCat":"VFR"},{"icaoId":"KELP","receiptTime":"2026-04-14T08:54:10.599Z","obsTime":1776156660,"reportTime":"2026-04-14T09:00:00.000Z","temp":21.1,"dewp":1.7,"wdir":180,"wspd":9,"visib":"10+","altim":1015.7,"slp":1008.9,"qcField":4,"presTend":-1.2,"metarType":"METAR","rawOb":"METAR KELP 140851Z 18009KT 10SM FEW120 BKN150 BKN200 OVC250 21/02 A2999 RMK AO2 SLP089 VIRGA S-SW T02110017 58012","lat":31.8123,"lon":-106.3774,"elev":1205,"name":"El Paso Intl, TX, US","cover":"OVC","clouds":[{"cover":"FEW","base":12000},{"cover":"BKN","base":15000},{"cover":"BKN","base":20000},{"cover":"OVC","base":25000}],"fltCat":"VFR"},{"icaoId":"KCRP","receiptTime":"2026-04-14T08:54:10.355Z","obsTime":1776156660,"reportTime":"2026-04-14T09:00:00.000Z","temp":23.3,"dewp":21.7,"wdir":150,"wspd":15,"visib":"10+","altim":1015.7,"slp":1015.4,"qcField":4,"presTend":-1.8,"metarType":"METAR","rawOb":"METAR KCRP 140851Z 15015KT 10SM FEW014 BKN021 23/22 A2999 RMK AO2 SLP154 T02330217 58018","lat":27.7734,"lon":-97.513,"elev":11,"name":"Corpus Christi Intl, TX, US","cover":"BKN","clouds":[{"cover":"FEW","base":1400},{"cover":"BKN","base":2100}],"fltCat":"MVFR"},{"icaoId":"KLGA","receiptTime":"2026-04-14T08:56:29.186Z","obsTime":1776156660,"reportTime":"2026-04-14T09:00:00.000Z","temp":18.9,"dewp":12.8,"wdir":0,"wspd":0,"visib":"10+","altim":1015,"slp":1014.7,"qcField":12,"presTend":-0.2,"metarType":"METAR","rawOb":"METAR KLGA 140851Z 00000KT 10SM FEW200 FEW250 19/13 A2997 RMK AO2 SLP147 T01890128 55002 $","lat":40.7794,"lon":-73.8803,"elev":9,"name":"New York/La Guardia Arpt, NY, US","cover":"FEW","clouds":[{"cover":"FEW","base":20000},{"cover":"FEW","base":25000}],"fltCat":"VFR"},{"icaoId":"KPVD","receiptTime":"2026-04-14T08:54:08.510Z","obsTime":1776156660,"reportTime":"2026-04-14T09:00:00.000Z","temp":10.6,"dewp":8.9,"wdir":220,"wspd":4,"visib":"10+","altim":1014.6,"slp":1014.5,"qcField":4,"presTend":0.1,"metarType":"METAR","rawOb":"METAR KPVD 140851Z 22004KT 10SM CLR 11/09 A2996 RMK AO2 SLP145 T01060089 53001","lat":41.7225,"lon":-71.4325,"elev":15,"name":"Providence/Green Mem, RI, US","cover":"CLR","clouds":[],"fltCat":"VFR"},{"icaoId":"KPHX","receiptTime":"2026-04-14T08:54:08.413Z","obsTime":1776156660,"reportTime":"2026-04-14T09:00:00.000Z","temp":18.9,"dewp":1.1,"wdir":270,"wspd":9,"visib":"10+","altim":1014.3,"slp":1012.8,"qcField":4,"presTend":0.4,"metarType":"METAR","rawOb":"METAR KPHX 140851Z 27009KT 10SM FEW090 BKN110 19/01 A2995 RMK AO2 SLP128 T01890011 50004","lat":33.4278,"lon":-112.0037,"elev":338,"name":"Phoenix/Sky Harbor Intl, AZ, US","cover":"BKN","clouds":[{"cover":"FEW","base":9000},{"cover":"BKN","base":11000}],"fltCat":"VFR"},{"icaoId":"KRDU","receiptTime":"2026-04-14T08:54:08.589Z","obsTime":1776156660,"reportTime":"2026-04-14T09:00:00.000Z","temp":16.7,"dewp":13.9,"wdir":210,"wspd":7,"visib":"10+","altim":1021.4,"slp":1020.8,"qcField":4,"presTend":-0.6,"metarType":"METAR","rawOb":"METAR KRDU 140851Z 21007KT 10SM FEW120 FEW250 17/14 A3016 RMK AO2 SLP208 T01670139 56006","lat":35.8923,"lon":-78.782,"elev":121,"name":"Raleigh-Durham Intl, NC, US","cover":"FEW","clouds":[{"cover":"FEW","base":12000},{"cover":"FEW","base":25000}],"fltCat":"VFR"},{"icaoId":"KSAT","receiptTime":"2026-04-14T08:54:08.761Z","obsTime":1776156660,"reportTime":"2026-04-14T09:00:00.000Z","temp":22.2,"dewp":18.9,"wdir":150,"wspd":8,"visib":"10+","altim":1016.3,"slp":1014.5,"qcField":12,"presTend":-1.8,"metarType":"METAR","rawOb":"METAR KSAT 140851Z 15008KT 10SM OVC025 22/19 A3001 RMK AO2 SLP145 T02220189 58018 $","lat":29.5443,"lon":-98.4839,"elev":246,"name":"San Antonio Intl, TX, US","cover":"OVC","clouds":[{"cover":"OVC","base":2500}],"fltCat":"MVFR"},{"icaoId":"KSAN","receiptTime":"2026-04-14T08:54:08.673Z","obsTime":1776156660,"reportTime":"2026-04-14T09:00:00.000Z","temp":15,"dewp":9.4,"wdir":0,"wspd":0,"visib":"10+","altim":1020.1,"slp":1019.7,"qcField":12,"presTend":0.1,"metarType":"METAR","rawOb":"METAR KSAN 140851Z 00000KT 10SM SCT034 15/09 A3012 RMK AO2 SLP197 T01500094 50001 $","lat":32.7364,"lon":-117.1973,"elev":3,"name":"San Diego Intl Arpt, CA, US","cover":"SCT","clouds":[{"cover":"SCT","base":3400}],"fltCat":"VFR"},{"icaoId":"KSAD","receiptTime":"2026-04-14T08:54:08.641Z","obsTime":1776156660,"reportTime":"2026-04-14T09:00:00.000Z","temp":16.1,"dewp":3.9,"wdir":320,"wspd":11,"visib":"10+","altim":1014.3,"slp":1010.2,"qcField":6,"presTend":0.4,"metarType":"METAR","rawOb":"METAR KSAD 140851Z AUTO 32011KT 10SM CLR 16/04 A2995 RMK AO2 SLP102 T01610039 50004","lat":32.8565,"lon":-109.636,"elev":937,"name":"Safford Rgnl, AZ, US","cover":"CLR","clouds":[],"fltCat":"VFR"},{"icaoId":"KVNY","receiptTime":"2026-04-14T08:54:09.076Z","obsTime":1776156660,"reportTime":"2026-04-14T09:00:00.000Z","temp":11.1,"dewp":7.2,"wdir":40,"wspd":5,"visib":"10+","altim":1018.4,"slp":1017.9,"qcField":14,"presTend":0.5,"metarType":"METAR","rawOb":"METAR KVNY 140851Z AUTO 04005KT 10SM CLR 11/07 A3007 RMK AO2 SLP179 T01110072 50005 $","lat":34.2121,"lon":-118.4915,"elev":241,"name":"Van Nuys Arpt, CA, US","cover":"CLR","clouds":[],"fltCat":"VFR"},{"icaoId":"KSTL","receiptTime":"2026-04-14T08:54:08.927Z","obsTime":1776156660,"reportTime":"2026-04-14T09:00:00.000Z","temp":20.6,"dewp":14.4,"wdir":220,"wspd":13,"visib":"10+","altim":1011.9,"slp":1010.6,"qcField":12,"presTend":-0.8,"precip":0.005,"pcp3hr":0.005,"metarType":"METAR","rawOb":"METAR KSTL 140851Z 22013KT 10SM FEW100 BKN150 BKN250 21/14 A2988 RMK AO2 RAE05 SLP106 P0000 60000 T02060144 58008 $","lat":38.7525,"lon":-90.3734,"elev":163,"name":"St Louis/Lambert Intl, MO, US","cover":"BKN","clouds":[{"cover":"FEW","base":10000},{"cover":"BKN","base":15000},{"cover":"BKN","base":25000}],"fltCat":"VFR"},{"icaoId":"KMHR","receiptTime":"2026-04-14T09:00:12.027Z","obsTime":1776156600,"reportTime":"2026-04-14T09:00:00.000Z","temp":7,"dewp":7,"wdir":120,"wspd":5,"visib":"10+","altim":1019,"qcField":6,"metarType":"METAR","rawOb":"METAR KMHR 140850Z AUTO 12005KT 10SM CLR 07/07 A3009 RMK AO2","lat":38.56,"lon":-121.284,"elev":30,"name":"Sacramento/Mather Fld, CA, US","cover":"CLR","clouds":[],"fltCat":"VFR"},{"icaoId":"KLUF","receiptTime":"2026-04-14T08:50:08.349Z","obsTime":1776154320,"reportTime":"2026-04-14T08:12:00.000Z","temp":19,"dewp":1,"wdir":240,"wspd":6,"visib":"10+","altim":1014.3,"slp":1013.3,"qcField":14,"metarType":"SPECI","rawOb":"SPECI KLUF 140812Z AUTO 24006KT 10SM FEW065 SCT080 BKN110 19/01 A2995 RMK AO2 DZB0755E02 SLP133 $","lat":33.538,"lon":-112.38,"elev":333,"name":"Phoenix/Luke AFB, AZ, US","cover":"BKN","clouds":[{"cover":"FEW","base":6500},{"cover":"SCT","base":8000},{"cover":"BKN","base":11000}],"fltCat":"VFR"},{"icaoId":"KEND","receiptTime":"2026-04-14T08:02:05.985Z","obsTime":1776153300,"reportTime":"2026-04-14T08:00:00.000Z","temp":22.5,"dewp":19.2,"wdir":180,"wspd":16,"visib":"10+","altim":1008.2,"slp":1006.7,"qcField":12,"metarType":"METAR","rawOb":"METAR KEND 140755Z 18016KT 10SM FEW250 23/19 A2977 RMK AO2A SLP067 T02250192 $","lat":36.338,"lon":-97.919,"elev":392,"name":"Enid/Vance AFB, OK, US","cover":"FEW","clouds":[{"cover":"FEW","base":25000}],"fltCat":"VFR"}]