[{"icaoId":"KFLG","receiptTime":"2026-04-06T12:00:16.688Z","obsTime":1775476620,"reportTime":"2026-04-06T12:00:00.000Z","temp":4.4,"dewp":-3.3,"wdir":0,"wspd":0,"visib":"10+","altim":1023.5,"slp":1016.2,"qcField":6,"presTend":-0.6,"maxT":6.7,"minT":3.9,"metarType":"METAR","rawOb":"METAR KFLG 061157Z AUTO 00000KT 10SM OVC090 04/M03 A3022 RMK AO2 SLP162 T00441033 10067 20039 58006","lat":35.1443,"lon":-111.6664,"elev":2134,"name":"Flagstaff/Pulliam Arpt, AZ, US","cover":"OVC","clouds":[{"cover":"OVC","base":9000}],"fltCat":"VFR"},{"icaoId":"KINW","receiptTime":"2026-04-06T12:00:07.340Z","obsTime":1775476560,"reportTime":"2026-04-06T12:00:00.000Z","temp":13.9,"dewp":-1.1,"wdir":80,"wspd":5,"visib":"10+","altim":1021.4,"slp":1015.3,"qcField":6,"presTend":0.1,"maxT":15,"minT":11.7,"metarType":"METAR","rawOb":"METAR KINW 061156Z AUTO 08005KT 10SM FEW120 14/M01 A3016 RMK AO2 SLP153 T01391011 10150 20117 53001","lat":35.0279,"lon":-110.7221,"elev":1492,"name":"Winslow/Lindberg Rgnl, AZ, US","cover":"FEW","clouds":[{"cover":"FEW","base":12000}],"fltCat":"VFR"},{"icaoId":"KDUG","receiptTime":"2026-04-06T12:02:08.127Z","obsTime":1775476560,"reportTime":"2026-04-06T12:00:00.000Z","temp":14.4,"dewp":5,"wdir":80,"wspd":8,"visib":"10+","altim":1020.7,"slp":1015,"qcField":38,"presTend":-1.2,"maxT":17.2,"minT":14.4,"metarType":"METAR","rawOb":"METAR KDUG 061156Z AUTO 08008KT 10SM CLR 14/05 A3014 RMK AO2 SLP150 T01440050 10172 20144 56012 TSNO","lat":31.4725,"lon":-109.6022,"elev":1260,"name":"Douglas/Bisbee Intl, AZ, US","cover":"CLR","clouds":[],"fltCat":"VFR"},{"icaoId":"KCGZ","receiptTime":"2026-04-06T11:58:03.597Z","obsTime":1775476560,"reportTime":"2026-04-06T12:00:00.000Z","temp":24.4,"dewp":3.9,"wdir":70,"wspd":14,"visib":"10+","altim":1013.6,"slp":1011.7,"qcField":14,"presTend":-0.2,"maxT":27.8,"minT":23.9,"metarType":"METAR","rawOb":"METAR KCGZ 061156Z AUTO 07014KT 10SM CLR 24/04 A2993 RMK AO2 SLP117 6//// 7//// T02440039 10278 20239 58002 $","lat":32.9531,"lon":-111.7725,"elev":444,"name":"Casa Granda Muni, AZ, US","cover":"CLR","clouds":[],"fltCat":"VFR"},{"icaoId":"KLUF","receiptTime":"2026-04-06T12:04:12.865Z","obsTime":1775476500,"reportTime":"2026-04-06T12:00:00.000Z","temp":26.5,"dewp":1,"wdir":0,"wspd":0,"visib":"10+","altim":1012.3,"slp":1010.6,"qcField":12,"presTend":0.2,"maxT":27.4,"minT":22.7,"metarType":"METAR","rawOb":"METAR KLUF 061155Z 00000KT 10SM SCT150 BKN180 27/01 A2989 RMK AO2A SLP106 T02650010 10274 20227 53002 $","lat":33.538,"lon":-112.38,"elev":333,"name":"Phoenix/Luke AFB, AZ, US","cover":"BKN","clouds":[{"cover":"SCT","base":15000},{"cover":"BKN","base":18000}],"fltCat":"VFR"},{"icaoId":"KCHD","receiptTime":"2026-04-06T11:58:16.234Z","obsTime":1775476500,"reportTime":"2026-04-06T12:00:00.000Z","temp":24.9,"dewp":4.2,"wdir":110,"wspd":11,"visib":"10+","altim":1013.3,"qcField":6,"metarType":"METAR","rawOb":"METAR KCHD 061155Z AUTO 11011KT 10SM OVC210 25/04 A2992 RMK AO2 T02490042","lat":33.2669,"lon":-111.8086,"elev":378,"name":"Chandler Muni, AZ, US","cover":"OVC","clouds":[{"cover":"OVC","base":21000}],"fltCat":"VFR"},{"icaoId":"KHII","receiptTime":"2026-04-06T12:02:10.251Z","obsTime":1775476500,"reportTime":"2026-04-06T12:00:00.000Z","temp":21,"dewp":-12,"wdir":0,"wspd":0,"visib":"10+","altim":1011.3,"qcField":6,"metarType":"METAR","rawOb":"METAR KHII 061155Z AUTO 00000KT 10SM CLR 21/M12 A2986 RMK AO2","lat":34.5659,"lon":-114.3522,"elev":241,"name":"Lake Havasu City Arpt, AZ, US","cover":"CLR","clouds":[],"fltCat":"VFR"},{"icaoId":"KIFP","receiptTime":"2026-04-06T12:00:09.258Z","obsTime":1775476500,"reportTime":"2026-04-06T12:00:00.000Z","temp":20,"dewp":-8,"wdir":0,"wspd":0,"visib":"10+","altim":1011.3,"qcField":6,"metarType":"METAR","rawOb":"METAR KIFP 061155Z AUTO 00000KT 10SM CLR 20/M08 A2986 RMK AO2","lat":35.1487,"lon":-114.5611,"elev":210,"name":"Bullhead City Intl, AZ, US","cover":"CLR","clouds":[],"fltCat":"VFR"},{"icaoId":"KSEZ","receiptTime":"2026-04-06T12:00:11.191Z","obsTime":1775476500,"reportTime":"2026-04-06T12:00:00.000Z","temp":16,"dewp":-1,"wdir":60,"wspd":3,"visib":"10+","altim":1020.1,"qcField":6,"metarType":"METAR","rawOb":"METAR KSEZ 061155Z AUTO 06003KT 10SM CLR 16/M01 A3012 RMK AO2","lat":34.8467,"lon":-111.7884,"elev":1455,"name":"Sedona Arpt, AZ, US","cover":"CLR","clouds":[],"fltCat":"VFR"},{"icaoId":"KSOW","receiptTime":"2026-04-06T11:57:16.154Z","obsTime":1775476500,"reportTime":"2026-04-06T12:00:00.000Z","temp":9,"dewp":-3,"wdir":200,"wspd":10,"visib":"10+","altim":1023.5,"qcField":6,"metarType":"METAR","rawOb":"METAR KSOW 061155Z AUTO 20010KT 10SM CLR 09/M03 A3022 RMK AO2","lat":34.2686,"lon":-110.0019,"elev":1954,"name":"Show Low Muni, AZ, US","cover":"CLR","clouds":[],"fltCat":"VFR"},{"icaoId":"KOLS","receiptTime":"2026-04-06T11:58:14.729Z","obsTime":1775476440,"reportTime":"2026-04-06T12:00:00.000Z","temp":18.3,"dewp":4.4,"wdir":0,"wspd":0,"visib":"10+","altim":1018,"slp":1011.4,"qcField":6,"presTend":-0.8,"maxT":21.7,"minT":18.3,"metarType":"METAR","rawOb":"METAR KOLS 061154Z AUTO 00000KT 10SM CLR 18/04 A3006 RMK AO2 SLP114 T01830044 10217 20183 56008","lat":31.4208,"lon":-110.8465,"elev":1194,"name":"Nogales Intl, AZ, US","cover":"CLR","clouds":[],"fltCat":"VFR"},{"icaoId":"KSJN","receiptTime":"2026-04-06T11:58:14.436Z","obsTime":1775476440,"reportTime":"2026-04-06T12:00:00.000Z","temp":11.1,"dewp":-3.9,"wdir":100,"wspd":7,"visib":"10+","altim":1022.4,"slp":1014.8,"qcField":6,"presTend":-0.4,"maxT":15.6,"minT":11.1,"metarType":"METAR","rawOb":"METAR KSJN 061154Z AUTO 10007KT 10SM CLR 11/M04 A3019 RMK AO2 SLP148 T01111039 10156 20111 56004","lat":34.5184,"lon":-109.3801,"elev":1747,"name":"St Johns Ind Arpt, AZ, US","cover":"CLR","clouds":[],"fltCat":"VFR"},{"icaoId":"KFFZ","receiptTime":"2026-04-06T11:58:11.320Z","obsTime":1775476440,"reportTime":"2026-04-06T12:00:00.000Z","temp":25,"dewp":2.8,"wdir":100,"wspd":3,"visib":9,"altim":1013,"slp":1010.6,"qcField":38,"presTend":0.4,"maxT":27.8,"minT":25,"metarType":"METAR","rawOb":"METAR KFFZ 061154Z AUTO 10003KT 9SM CLR 25/03 A2991 RMK AO2 SLP106 T02500028 10278 20250 51004 TSNO","lat":33.4659,"lon":-111.7212,"elev":420,"name":"Mesa/Falcon Fld, AZ, US","cover":"CLR","clouds":[],"fltCat":"VFR"},{"icaoId":"KGCN","receiptTime":"2026-04-06T11:58:09.921Z","obsTime":1775476440,"reportTime":"2026-04-06T12:00:00.000Z","temp":3.9,"dewp":-2.2,"wdir":0,"wspd":0,"visib":"10+","altim":1022.8,"slp":1016.2,"qcField":6,"presTend":-0.8,"maxT":3.9,"minT":1.7,"metarType":"METAR","rawOb":"METAR KGCN 061154Z AUTO 00000KT 10SM SCT095 04/M02 A3020 RMK AO2 SLP162 T00391022 10039 20017 56008","lat":35.9458,"lon":-112.1554,"elev":1993,"name":"Grand Canyon Park Arpt, AZ, US","cover":"SCT","clouds":[{"cover":"SCT","base":9500}],"fltCat":"VFR"},{"icaoId":"KPRC","receiptTime":"2026-04-06T11:56:25.814Z","obsTime":1775476380,"reportTime":"2026-04-06T12:00:00.000Z","temp":13.3,"dewp":-1.1,"wdir":210,"wspd":5,"visib":"10+","altim":1019.7,"slp":1012.7,"qcField":4,"presTend":-0.6,"maxT":15.6,"minT":10.6,"metarType":"METAR","rawOb":"METAR KPRC 061153Z 21005KT 10SM CLR 13/M01 A3011 RMK AO2 SLP127 T01331011 10156 20106 56006","lat":34.6491,"lon":-112.4223,"elev":1528,"name":"Prescott/Love Fld, AZ, US","cover":"CLR","clouds":[],"fltCat":"VFR"},{"icaoId":"KDVT","receiptTime":"2026-04-06T11:56:29.553Z","obsTime":1775476380,"reportTime":"2026-04-06T12:00:00.000Z","temp":25,"dewp":1.1,"wdir":110,"wspd":4,"visib":"10+","altim":1013.3,"slp":1010.9,"qcField":14,"presTend":0.2,"maxT":26.1,"minT":23.3,"metarType":"METAR","rawOb":"METAR KDVT 061153Z AUTO 11004KT 10SM CLR 25/01 A2992 RMK AO2 SLP109 T02500011 10261 20233 53002 $","lat":33.6902,"lon":-112.0662,"elev":454,"name":"Phoenix/Deer Valley Arpt, AZ, US","cover":"CLR","clouds":[],"fltCat":"VFR"},{"icaoId":"KPGA","receiptTime":"2026-04-06T11:56:25.582Z","obsTime":1775476380,"reportTime":"2026-04-06T12:00:00.000Z","temp":11.7,"dewp":-8.9,"wdir":0,"wspd":0,"visib":"10+","altim":1019.7,"slp":1014.9,"qcField":14,"presTend":-0.5,"maxT":16.1,"minT":11.1,"metarType":"METAR","rawOb":"METAR KPGA 061153Z AUTO 00000KT 10SM CLR 12/M09 A3011 RMK AO2 SLP149 T01171089 10161 20111 58005 $","lat":36.9211,"lon":-111.4487,"elev":1310,"name":"Page Muni, AZ, US","cover":"CLR","clouds":[],"fltCat":"VFR"},{"icaoId":"KSDL","receiptTime":"2026-04-06T11:56:25.280Z","obsTime":1775476380,"reportTime":"2026-04-06T12:00:00.000Z","temp":26.1,"dewp":2.8,"wdir":100,"wspd":11,"visib":"10+","altim":1013.6,"slp":1010.7,"qcField":6,"presTend":0.3,"maxT":29.4,"minT":26.1,"metarType":"METAR","rawOb":"METAR KSDL 061153Z AUTO 10011KT 10SM CLR 26/03 A2993 RMK AO2 SLP107 T02610028 10294 20261 53003","lat":33.6123,"lon":-111.9232,"elev":438,"name":"Scottsdale Muni, AZ, US","cover":"CLR","clouds":[],"fltCat":"VFR"},{"icaoId":"KTUS","receiptTime":"2026-04-06T11:56:24.117Z","obsTime":1775476380,"reportTime":"2026-04-06T12:00:00.000Z","temp":21.7,"dewp":3.9,"wdir":110,"wspd":18,"wgst":26,"visib":"10+","altim":1016.3,"slp":1011.6,"qcField":12,"presTend":-0.6,"maxT":25.6,"minT":21.7,"metarType":"METAR","rawOb":"METAR KTUS 061153Z 11018G26KT 10SM CLR 22/04 A3001 RMK AO2 PK WND 09027/1140 SLP116 T02170039 10256 20217 58006 $","lat":32.1315,"lon":-110.9564,"elev":776,"name":"Tucson Intl Arpt, AZ, US","cover":"CLR","clouds":[],"fltCat":"VFR"},{"icaoId":"KIGM","receiptTime":"2026-04-06T11:54:11.100Z","obsTime":1775476260,"reportTime":"2026-04-06T12:00:00.000Z","temp":12.8,"dewp":-7.2,"wdir":160,"wspd":4,"visib":"10+","altim":1016,"slp":1009.9,"qcField":6,"presTend":-1.2,"maxT":17.2,"minT":12.8,"metarType":"METAR","rawOb":"METAR KIGM 061151Z AUTO 16004KT 10SM CLR 13/M07 A3000 RMK AO2 SLP099 T01281072 10172 20128 56012","lat":35.2575,"lon":-113.9341,"elev":1045,"name":"Kingman Arpt, AZ, US","cover":"CLR","clouds":[],"fltCat":"VFR"},{"icaoId":"KPHX","receiptTime":"2026-04-06T11:54:10.102Z","obsTime":1775476260,"reportTime":"2026-04-06T12:00:00.000Z","temp":26.7,"dewp":2.8,"wdir":120,"wspd":11,"wgst":18,"visib":"10+","altim":1012.3,"slp":1010.4,"qcField":4,"presTend":0.1,"maxT":28.9,"minT":26.1,"metarType":"METAR","rawOb":"METAR KPHX 061151Z 12011G18KT 10SM FEW120 BKN210 BKN230 27/03 A2989 RMK AO2 SLP104 T02670028 10289 20261 51001","lat":33.4278,"lon":-112.0037,"elev":338,"name":"Phoenix/Sky Harbor Intl, AZ, US","cover":"BKN","clouds":[{"cover":"FEW","base":12000},{"cover":"BKN","base":21000},{"cover":"BKN","base":23000}],"fltCat":"VFR"},{"icaoId":"KSAD","receiptTime":"2026-04-06T11:54:10.211Z","obsTime":1775476260,"reportTime":"2026-04-06T12:00:00.000Z","temp":15,"dewp":0,"wdir":110,"wspd":7,"visib":"10+","altim":1021.8,"slp":1017.5,"qcField":6,"presTend":-0.9,"maxT":19.4,"minT":15,"metarType":"METAR","rawOb":"METAR KSAD 061151Z AUTO 11007KT 10SM CLR 15/00 A3017 RMK AO2 SLP175 T01500000 10194 20150 56009","lat":32.8565,"lon":-109.636,"elev":937,"name":"Safford Rgnl, AZ, US","cover":"CLR","clouds":[],"fltCat":"VFR"},{"icaoId":"KIWA","receiptTime":"2026-04-06T11:51:36.457Z","obsTime":1775476080,"reportTime":"2026-04-06T12:00:00.000Z","temp":25,"dewp":3,"wdir":90,"wspd":14,"wgst":20,"visib":"10+","altim":1014,"qcField":0,"metarType":"METAR","rawOb":"METAR KIWA 061148Z 09014G20KT 10SM CLR 25/03 A2994","lat":33.3008,"lon":-111.6437,"elev":420,"name":"Phoenix/Mesa Gateway Arpt, AZ, US","cover":"CLR","clouds":[],"fltCat":"VFR"},{"icaoId":"KNYL","receiptTime":"2026-04-06T11:00:23.402Z","obsTime":1775473020,"reportTime":"2026-04-06T11:00:00.000Z","temp":20.6,"dewp":1.1,"wdir":160,"wspd":7,"visib":"10+","altim":1011.3,"slp":1010.8,"qcField":14,"metarType":"METAR","rawOb":"METAR KNYL 061057Z AUTO 16007KT 10SM CLR 21/01 A2986 RMK AO2 SLP108 T02060011 $","lat":32.66,"lon":-114.6078,"elev":58,"name":"Yuma , AZ, US","cover":"CLR","clouds":[],"fltCat":"VFR"}]