[{"icaoId":"KSEZ","receiptTime":"2026-04-10T16:40:45.616Z","obsTime":1775838900,"reportTime":"2026-04-10T16:35:00.000Z","temp":20,"dewp":-2,"wdir":"VRB","wspd":4,"visib":"10+","altim":1019.4,"qcField":6,"metarType":"METAR","rawOb":"METAR KSEZ 101635Z AUTO VRB04KT 10SM CLR 20/M02 A3010 RMK AO2","lat":34.8467,"lon":-111.7884,"elev":1455,"name":"Sedona Arpt, AZ, US","cover":"CLR","clouds":[],"fltCat":"VFR"},{"icaoId":"KHII","receiptTime":"2026-04-10T16:42:05.146Z","obsTime":1775838900,"reportTime":"2026-04-10T16:35:00.000Z","temp":27,"dewp":7,"wdir":230,"wspd":4,"visib":"10+","altim":1012.3,"qcField":6,"metarType":"METAR","rawOb":"METAR KHII 101635Z AUTO 23004KT 10SM CLR 27/07 A2989 RMK AO2","lat":34.5659,"lon":-114.3522,"elev":241,"name":"Lake Havasu City Arpt, AZ, US","cover":"CLR","clouds":[],"fltCat":"VFR"},{"icaoId":"KSOW","receiptTime":"2026-04-10T16:38:22.596Z","obsTime":1775838900,"reportTime":"2026-04-10T16:35:00.000Z","temp":17,"dewp":-3,"wdir":180,"wspd":6,"visib":8,"altim":1022.4,"qcField":6,"metarType":"METAR","rawOb":"METAR KSOW 101635Z AUTO 18006KT 8SM CLR 17/M03 A3019 RMK AO2","lat":34.2686,"lon":-110.0019,"elev":1954,"name":"Show Low Muni, AZ, US","cover":"CLR","clouds":[],"fltCat":"VFR"},{"icaoId":"KGEU","receiptTime":"2026-04-10T15:59:08.200Z","obsTime":1775836740,"reportTime":"2026-04-10T16:00:00.000Z","temp":24,"dewp":0,"wdir":0,"wspd":0,"visib":"10+","altim":1012.6,"qcField":0,"metarType":"METAR","rawOb":"METAR KGEU 101559Z 00000KT 10SM CLR 24/00 A2990","lat":33.528,"lon":-112.293,"elev":319,"name":"Glendale Muni, AZ, US","cover":"CLR","clouds":[],"fltCat":"VFR"},{"icaoId":"KNYL","receiptTime":"2026-04-10T16:00:50.663Z","obsTime":1775836620,"reportTime":"2026-04-10T16:00:00.000Z","temp":25.6,"dewp":7.2,"wdir":290,"wspd":10,"visib":"10+","altim":1012.6,"slp":1012.1,"qcField":4,"metarType":"METAR","rawOb":"METAR KNYL 101557Z 29010KT 10SM SCT100 BKN170 26/07 A2990 RMK AO2 SLP121 T02560072","lat":32.66,"lon":-114.6078,"elev":58,"name":"Yuma , AZ, US","cover":"BKN","clouds":[{"cover":"SCT","base":10000},{"cover":"BKN","base":17000}],"fltCat":"VFR"},{"icaoId":"KFLG","receiptTime":"2026-04-10T16:00:50.713Z","obsTime":1775836620,"reportTime":"2026-04-10T16:00:00.000Z","temp":10,"dewp":-2.8,"wdir":0,"wspd":0,"visib":"10+","altim":1021.8,"slp":1015.7,"qcField":12,"metarType":"METAR","rawOb":"METAR KFLG 101557Z 00000KT 10SM CLR 10/M03 A3017 RMK AO2 SLP157 T01001028 $","lat":35.1443,"lon":-111.6664,"elev":2134,"name":"Flagstaff/Pulliam Arpt, AZ, US","cover":"CLR","clouds":[],"fltCat":"VFR"},{"icaoId":"KCGZ","receiptTime":"2026-04-10T15:58:24.004Z","obsTime":1775836560,"reportTime":"2026-04-10T16:00:00.000Z","temp":25,"dewp":0.6,"wdir":0,"wspd":0,"visib":"10+","altim":1014.3,"slp":1013,"qcField":14,"metarType":"METAR","rawOb":"METAR KCGZ 101556Z AUTO 00000KT 10SM CLR 25/01 A2995 RMK AO2 SLP130 T02500006 $","lat":32.9531,"lon":-111.7725,"elev":444,"name":"Casa Granda Muni, AZ, US","cover":"CLR","clouds":[],"fltCat":"VFR"},{"icaoId":"KDUG","receiptTime":"2026-04-10T16:02:43.784Z","obsTime":1775836560,"reportTime":"2026-04-10T16:00:00.000Z","temp":19.4,"dewp":-1.1,"wdir":0,"wspd":0,"visib":"10+","altim":1019,"slp":1013.4,"qcField":38,"metarType":"METAR","rawOb":"METAR KDUG 101556Z AUTO 00000KT 10SM CLR 19/M01 A3009 RMK AO2 SLP134 T01941011 TSNO","lat":31.4725,"lon":-109.6022,"elev":1260,"name":"Douglas/Bisbee Intl, AZ, US","cover":"CLR","clouds":[],"fltCat":"VFR"},{"icaoId":"KINW","receiptTime":"2026-04-10T16:00:20.656Z","obsTime":1775836560,"reportTime":"2026-04-10T16:00:00.000Z","temp":15.6,"dewp":0,"wdir":130,"wspd":9,"visib":"10+","altim":1019.7,"slp":1014.8,"qcField":6,"metarType":"METAR","rawOb":"METAR KINW 101556Z AUTO 13009KT 10SM CLR 16/00 A3011 RMK AO2 SLP148 T01560000","lat":35.0279,"lon":-110.7221,"elev":1492,"name":"Winslow/Lindberg Rgnl, AZ, US","cover":"CLR","clouds":[],"fltCat":"VFR"},{"icaoId":"KLUF","receiptTime":"2026-04-10T16:02:08.356Z","obsTime":1775836500,"reportTime":"2026-04-10T16:00:00.000Z","temp":24.3,"dewp":1.8,"wdir":0,"wspd":0,"visib":"10+","altim":1012.6,"slp":1011.3,"qcField":12,"metarType":"METAR","rawOb":"METAR KLUF 101555Z 00000KT 10SM FEW140 SCT180 BKN200 24/02 A2990 RMK AO2A SLP113 T02430018 $","lat":33.538,"lon":-112.38,"elev":333,"name":"Phoenix/Luke AFB, AZ, US","cover":"BKN","clouds":[{"cover":"FEW","base":14000},{"cover":"SCT","base":18000},{"cover":"BKN","base":20000}],"fltCat":"VFR"},{"icaoId":"KOLS","receiptTime":"2026-04-10T15:58:14.045Z","obsTime":1775836440,"reportTime":"2026-04-10T16:00:00.000Z","temp":20.6,"dewp":1.1,"wdir":0,"wspd":0,"visib":"10+","altim":1018.4,"slp":1012.3,"qcField":6,"metarType":"METAR","rawOb":"METAR KOLS 101554Z AUTO 00000KT 10SM CLR 21/01 A3007 RMK AO2 SLP123 T02060011","lat":31.4208,"lon":-110.8465,"elev":1194,"name":"Nogales Intl, AZ, US","cover":"CLR","clouds":[],"fltCat":"VFR"},{"icaoId":"KGCN","receiptTime":"2026-04-10T15:58:21.330Z","obsTime":1775836440,"reportTime":"2026-04-10T16:00:00.000Z","temp":12.8,"dewp":-2.2,"wdir":180,"wspd":7,"visib":"10+","altim":1020.7,"slp":1013.8,"qcField":4,"metarType":"METAR","rawOb":"METAR KGCN 101554Z 18007KT 10SM CLR 13/M02 A3014 RMK AO2 SLP138 T01281022","lat":35.9458,"lon":-112.1554,"elev":1993,"name":"Grand Canyon Park Arpt, AZ, US","cover":"CLR","clouds":[],"fltCat":"VFR"},{"icaoId":"KFFZ","receiptTime":"2026-04-10T15:58:21.304Z","obsTime":1775836440,"reportTime":"2026-04-10T16:00:00.000Z","temp":25.6,"dewp":-0.6,"wdir":130,"wspd":6,"visib":"10+","altim":1013.6,"slp":1011.2,"qcField":4,"metarType":"METAR","rawOb":"METAR KFFZ 101554Z 13006KT 10SM CLR 26/M01 A2993 RMK AO2 SLP112 T02561006","lat":33.4659,"lon":-111.7212,"elev":420,"name":"Mesa/Falcon Fld, AZ, US","cover":"CLR","clouds":[],"fltCat":"VFR"},{"icaoId":"KSJN","receiptTime":"2026-04-10T15:58:14.234Z","obsTime":1775836440,"reportTime":"2026-04-10T16:00:00.000Z","temp":15,"dewp":-2.2,"wdir":0,"wspd":0,"visib":"10+","altim":1020.7,"slp":1013.9,"qcField":6,"metarType":"METAR","rawOb":"METAR KSJN 101554Z AUTO 00000KT 10SM FEW100 15/M02 A3014 RMK AO2 SLP139 T01501022","lat":34.5184,"lon":-109.3801,"elev":1747,"name":"St Johns Ind Arpt, AZ, US","cover":"FEW","clouds":[{"cover":"FEW","base":10000}],"fltCat":"VFR"},{"icaoId":"KPRC","receiptTime":"2026-04-10T15:56:33.207Z","obsTime":1775836380,"reportTime":"2026-04-10T16:00:00.000Z","temp":18.3,"dewp":1.1,"wdir":200,"wspd":6,"visib":"10+","altim":1018.7,"slp":1012.2,"qcField":4,"metarType":"METAR","rawOb":"METAR KPRC 101553Z 20006KT 10SM CLR 18/01 A3008 RMK AO2 SLP122 T01830011","lat":34.6491,"lon":-112.4223,"elev":1528,"name":"Prescott/Love Fld, AZ, US","cover":"CLR","clouds":[],"fltCat":"VFR"},{"icaoId":"KDVT","receiptTime":"2026-04-10T15:56:34.426Z","obsTime":1775836380,"reportTime":"2026-04-10T16:00:00.000Z","temp":24.4,"dewp":-0.6,"wdir":140,"wspd":6,"visib":"10+","altim":1014,"slp":1011.5,"qcField":4,"metarType":"METAR","rawOb":"METAR KDVT 101553Z 14006KT 10SM CLR 24/M01 A2994 RMK AO2 SLP115 T02441006","lat":33.6902,"lon":-112.0662,"elev":454,"name":"Phoenix/Deer Valley Arpt, AZ, US","cover":"CLR","clouds":[],"fltCat":"VFR"},{"icaoId":"KSDL","receiptTime":"2026-04-10T15:56:28.924Z","obsTime":1775836380,"reportTime":"2026-04-10T16:00:00.000Z","temp":24.4,"dewp":1.7,"wdir":170,"wspd":4,"visib":"10+","altim":1014.3,"slp":1011.8,"qcField":4,"metarType":"METAR","rawOb":"METAR KSDL 101553Z 17004KT 10SM CLR 24/02 A2995 RMK AO2 SLP118 T02440017","lat":33.6123,"lon":-111.9232,"elev":438,"name":"Scottsdale Muni, AZ, US","cover":"CLR","clouds":[],"fltCat":"VFR"},{"icaoId":"KTUS","receiptTime":"2026-04-10T15:56:31.506Z","obsTime":1775836380,"reportTime":"2026-04-10T16:00:00.000Z","temp":23.3,"dewp":1.1,"wdir":270,"wspd":6,"visib":"10+","altim":1016.7,"slp":1012.3,"qcField":4,"metarType":"METAR","rawOb":"METAR KTUS 101553Z 27006KT 10SM CLR 23/01 A3002 RMK AO2 SLP123 T02330011","lat":32.1315,"lon":-110.9564,"elev":776,"name":"Tucson Intl Arpt, AZ, US","cover":"CLR","clouds":[],"fltCat":"VFR"},{"icaoId":"KPGA","receiptTime":"2026-04-10T15:56:33.020Z","obsTime":1775836380,"reportTime":"2026-04-10T16:00:00.000Z","temp":21.1,"dewp":-3.9,"wdir":200,"wspd":6,"wgst":16,"visib":"10+","altim":1016.3,"slp":1010.4,"qcField":6,"metarType":"METAR","rawOb":"METAR KPGA 101553Z AUTO 20006G16KT 10SM CLR 21/M04 A3001 RMK AO2 SLP104 T02111039","lat":36.9211,"lon":-111.4487,"elev":1310,"name":"Page Muni, AZ, US","cover":"CLR","clouds":[],"fltCat":"VFR"},{"icaoId":"KSAD","receiptTime":"2026-04-10T15:54:08.573Z","obsTime":1775836260,"reportTime":"2026-04-10T16:00:00.000Z","temp":21.1,"dewp":-3.9,"wdir":110,"wspd":4,"visib":"10+","altim":1016.3,"slp":1012,"qcField":6,"metarType":"METAR","rawOb":"METAR KSAD 101551Z AUTO 11004KT 10SM CLR 21/M04 A3001 RMK AO2 SLP120 T02111039","lat":32.8565,"lon":-109.636,"elev":937,"name":"Safford Rgnl, AZ, US","cover":"CLR","clouds":[],"fltCat":"VFR"},{"icaoId":"KIGM","receiptTime":"2026-04-10T15:54:10.225Z","obsTime":1775836260,"reportTime":"2026-04-10T16:00:00.000Z","temp":21.1,"dewp":3.9,"wdir":240,"wspd":12,"visib":"10+","altim":1015,"slp":1009,"qcField":6,"metarType":"METAR","rawOb":"METAR KIGM 101551Z AUTO 24012KT 10SM CLR 21/04 A2997 RMK AO2 SLP090 T02110039","lat":35.2575,"lon":-113.9341,"elev":1045,"name":"Kingman Arpt, AZ, US","cover":"CLR","clouds":[],"fltCat":"VFR"},{"icaoId":"KPHX","receiptTime":"2026-04-10T15:54:08.396Z","obsTime":1775836260,"reportTime":"2026-04-10T16:00:00.000Z","temp":25,"dewp":2.2,"wdir":140,"wspd":7,"visib":"10+","altim":1013,"slp":1011,"qcField":4,"metarType":"METAR","rawOb":"METAR KPHX 101551Z 14007KT 10SM FEW210 BKN250 BKN290 25/02 A2991 RMK AO2 SLP110 T02500022","lat":33.4278,"lon":-112.0037,"elev":338,"name":"Phoenix/Sky Harbor Intl, AZ, US","cover":"BKN","clouds":[{"cover":"FEW","base":21000},{"cover":"BKN","base":25000},{"cover":"BKN","base":29000}],"fltCat":"VFR"},{"icaoId":"KIWA","receiptTime":"2026-04-10T15:53:19.763Z","obsTime":1775836200,"reportTime":"2026-04-10T16:00:00.000Z","temp":25,"dewp":0,"wdir":140,"wspd":5,"visib":"10+","altim":1014.3,"qcField":0,"metarType":"METAR","rawOb":"METAR KIWA 101550Z 14005KT 10SM CLR 25/00 A2995","lat":33.3008,"lon":-111.6437,"elev":420,"name":"Phoenix/Mesa Gateway Arpt, AZ, US","cover":"CLR","clouds":[],"fltCat":"VFR"},{"icaoId":"KIFP","receiptTime":"2026-04-10T15:51:10.158Z","obsTime":1775836140,"reportTime":"2026-04-10T16:00:00.000Z","temp":25,"dewp":6,"wdir":180,"wspd":9,"visib":20,"altim":1010.9,"qcField":0,"metarType":"METAR","rawOb":"METAR KIFP 101549Z 18009KT 20SM BKN100 25/06 A2985","lat":35.1487,"lon":-114.5611,"elev":210,"name":"Bullhead City Intl, AZ, US","cover":"BKN","clouds":[{"cover":"BKN","base":10000}],"fltCat":"VFR"},{"icaoId":"KCHD","receiptTime":"2026-04-10T15:51:36.992Z","obsTime":1775836020,"reportTime":"2026-04-10T16:00:00.000Z","temp":26,"dewp":3,"wdir":190,"wspd":7,"visib":"10+","altim":1013.6,"qcField":0,"metarType":"METAR","rawOb":"METAR KCHD 101547Z 19007KT 10SM FEW250 26/03 A2993","lat":33.2669,"lon":-111.8086,"elev":378,"name":"Chandler Muni, AZ, US","cover":"FEW","clouds":[{"cover":"FEW","base":25000}],"fltCat":"VFR"},{"icaoId":"KGYR","receiptTime":"2026-04-10T15:48:56.141Z","obsTime":1775836020,"reportTime":"2026-04-10T16:00:00.000Z","temp":25,"dewp":3,"wdir":0,"wspd":0,"visib":"10+","altim":1013.3,"qcField":0,"metarType":"METAR","rawOb":"METAR KGYR 101547Z 00000KT 10SM BKN250 25/03 A2992","lat":33.428,"lon":-112.368,"elev":292,"name":"Phoenix/Goodyear Muni, AZ, US","cover":"BKN","clouds":[{"cover":"BKN","base":25000}],"fltCat":"VFR"},{"icaoId":"KRYN","receiptTime":"2026-04-10T15:46:47.359Z","obsTime":1775835900,"reportTime":"2026-04-10T16:00:00.000Z","temp":24,"dewp":-2,"wdir":0,"wspd":0,"visib":"10+","altim":1015.7,"qcField":0,"metarType":"METAR","rawOb":"METAR KRYN 101545Z 00000KT 10SM CLR 24/M02 A2999","lat":32.1418,"lon":-111.1767,"elev":731,"name":"Tucson/Ryan Fld, AZ, US","cover":"CLR","clouds":[],"fltCat":"VFR"}]