[{"icaoId":"KHII","receiptTime":"2026-04-06T11:22:07.227Z","obsTime":1775474100,"reportTime":"2026-04-06T11:15:00.000Z","temp":22,"dewp":-11,"wdir":0,"wspd":0,"visib":"10+","altim":1011.6,"qcField":6,"metarType":"METAR","rawOb":"METAR KHII 061115Z AUTO 00000KT 10SM CLR 22/M11 A2987 RMK AO2","lat":34.5659,"lon":-114.3522,"elev":241,"name":"Lake Havasu City Arpt, AZ, US","cover":"CLR","clouds":[],"fltCat":"VFR"},{"icaoId":"KIWA","receiptTime":"2026-04-06T11:20:24.731Z","obsTime":1775474100,"reportTime":"2026-04-06T11:15:00.000Z","temp":25.2,"dewp":2.7,"wdir":110,"wspd":17,"wgst":21,"visib":"10+","altim":1013.6,"qcField":6,"metarType":"METAR","rawOb":"METAR KIWA 061115Z AUTO 11017G21KT 10SM CLR 25/03 A2993 RMK AO2 T02520027","lat":33.3008,"lon":-111.6437,"elev":420,"name":"Phoenix/Mesa Gateway Arpt, AZ, US","cover":"CLR","clouds":[],"fltCat":"VFR"},{"icaoId":"KCHD","receiptTime":"2026-04-06T11:18:32.244Z","obsTime":1775474100,"reportTime":"2026-04-06T11:15:00.000Z","temp":25.3,"dewp":3.9,"wdir":100,"wspd":13,"visib":"10+","altim":1013.3,"qcField":6,"metarType":"METAR","rawOb":"METAR KCHD 061115Z AUTO 10013KT 10SM OVC210 25/04 A2992 RMK AO2 T02530039","lat":33.2669,"lon":-111.8086,"elev":378,"name":"Chandler Muni, AZ, US","cover":"OVC","clouds":[{"cover":"OVC","base":21000}],"fltCat":"VFR"},{"icaoId":"KSOW","receiptTime":"2026-04-06T11:18:34.738Z","obsTime":1775474100,"reportTime":"2026-04-06T11:15:00.000Z","temp":10,"dewp":-3,"wdir":200,"wspd":9,"visib":"10+","altim":1023.8,"qcField":6,"metarType":"METAR","rawOb":"METAR KSOW 061115Z AUTO 20009KT 10SM FEW100 10/M03 A3023 RMK AO2","lat":34.2686,"lon":-110.0019,"elev":1954,"name":"Show Low Muni, AZ, US","cover":"FEW","clouds":[{"cover":"FEW","base":10000}],"fltCat":"VFR"},{"icaoId":"KSEZ","receiptTime":"2026-04-06T11:20:25.644Z","obsTime":1775474100,"reportTime":"2026-04-06T11:15:00.000Z","temp":17,"dewp":-1,"wdir":70,"wspd":5,"visib":"10+","altim":1020.1,"qcField":6,"metarType":"METAR","rawOb":"METAR KSEZ 061115Z AUTO 07005KT 10SM CLR 17/M01 A3012 RMK AO2","lat":34.8467,"lon":-111.7884,"elev":1455,"name":"Sedona Arpt, AZ, US","cover":"CLR","clouds":[],"fltCat":"VFR"},{"icaoId":"KIFP","receiptTime":"2026-04-06T11:20:24.501Z","obsTime":1775474100,"reportTime":"2026-04-06T11:15:00.000Z","temp":20,"dewp":-7,"wdir":0,"wspd":0,"visib":"10+","altim":1011.3,"qcField":6,"metarType":"METAR","rawOb":"METAR KIFP 061115Z AUTO 00000KT 10SM CLR 20/M07 A2986 RMK AO2","lat":35.1487,"lon":-114.5611,"elev":210,"name":"Bullhead City Intl, AZ, US","cover":"CLR","clouds":[],"fltCat":"VFR"},{"icaoId":"KNYL","receiptTime":"2026-04-06T11:00:23.402Z","obsTime":1775473020,"reportTime":"2026-04-06T11:00:00.000Z","temp":20.6,"dewp":1.1,"wdir":160,"wspd":7,"visib":"10+","altim":1011.3,"slp":1010.8,"qcField":14,"metarType":"METAR","rawOb":"METAR KNYL 061057Z AUTO 16007KT 10SM CLR 21/01 A2986 RMK AO2 SLP108 T02060011 $","lat":32.66,"lon":-114.6078,"elev":58,"name":"Yuma , AZ, US","cover":"CLR","clouds":[],"fltCat":"VFR"},{"icaoId":"KFLG","receiptTime":"2026-04-06T11:00:24.692Z","obsTime":1775473020,"reportTime":"2026-04-06T11:00:00.000Z","temp":3.9,"dewp":-3.9,"wdir":0,"wspd":0,"visib":"10+","altim":1023.8,"slp":1016.3,"qcField":6,"metarType":"METAR","rawOb":"METAR KFLG 061057Z AUTO 00000KT 10SM FEW090 04/M04 A3023 RMK AO2 SLP163 T00391039","lat":35.1443,"lon":-111.6664,"elev":2134,"name":"Flagstaff/Pulliam Arpt, AZ, US","cover":"FEW","clouds":[{"cover":"FEW","base":9000}],"fltCat":"VFR"},{"icaoId":"KCGZ","receiptTime":"2026-04-06T10:58:19.704Z","obsTime":1775472960,"reportTime":"2026-04-06T11:00:00.000Z","temp":24.4,"dewp":3.3,"wdir":70,"wspd":13,"visib":"10+","altim":1013.6,"slp":1011.8,"qcField":14,"metarType":"METAR","rawOb":"METAR KCGZ 061056Z AUTO 07013KT 10SM CLR 24/03 A2993 RMK AO2 SLP118 T02440033 $","lat":32.9531,"lon":-111.7725,"elev":444,"name":"Casa Granda Muni, AZ, US","cover":"CLR","clouds":[],"fltCat":"VFR"},{"icaoId":"KDUG","receiptTime":"2026-04-06T11:02:09.399Z","obsTime":1775472960,"reportTime":"2026-04-06T11:00:00.000Z","temp":14.4,"dewp":5,"wdir":80,"wspd":10,"visib":"10+","altim":1020.7,"slp":1014.9,"qcField":38,"metarType":"METAR","rawOb":"METAR KDUG 061056Z AUTO 08010KT 10SM CLR 14/05 A3014 RMK AO2 SLP149 T01440050 TSNO","lat":31.4725,"lon":-109.6022,"elev":1260,"name":"Douglas/Bisbee Intl, AZ, US","cover":"CLR","clouds":[],"fltCat":"VFR"},{"icaoId":"KINW","receiptTime":"2026-04-06T11:00:21.500Z","obsTime":1775472960,"reportTime":"2026-04-06T11:00:00.000Z","temp":13.3,"dewp":-1.7,"wdir":70,"wspd":5,"visib":"10+","altim":1021.4,"slp":1015.6,"qcField":6,"metarType":"METAR","rawOb":"METAR KINW 061056Z AUTO 07005KT 10SM SCT120 13/M02 A3016 RMK AO2 SLP156 T01331017","lat":35.0279,"lon":-110.7221,"elev":1492,"name":"Winslow/Lindberg Rgnl, AZ, US","cover":"SCT","clouds":[{"cover":"SCT","base":12000}],"fltCat":"VFR"},{"icaoId":"KFFZ","receiptTime":"2026-04-06T10:58:21.607Z","obsTime":1775472840,"reportTime":"2026-04-06T11:00:00.000Z","temp":26.1,"dewp":1.7,"wdir":100,"wspd":5,"visib":"10+","altim":1013,"slp":1010.3,"qcField":38,"metarType":"METAR","rawOb":"METAR KFFZ 061054Z AUTO 10005KT 10SM CLR 26/02 A2991 RMK AO2 SLP103 T02610017 TSNO","lat":33.4659,"lon":-111.7212,"elev":420,"name":"Mesa/Falcon Fld, AZ, US","cover":"CLR","clouds":[],"fltCat":"VFR"},{"icaoId":"KGCN","receiptTime":"2026-04-06T10:58:10.909Z","obsTime":1775472840,"reportTime":"2026-04-06T11:00:00.000Z","temp":3.3,"dewp":-3.3,"wdir":0,"wspd":0,"visib":"10+","altim":1022.8,"slp":1016.4,"qcField":6,"metarType":"METAR","rawOb":"METAR KGCN 061054Z AUTO 00000KT 10SM BKN100 03/M03 A3020 RMK AO2 SLP164 T00331033","lat":35.9458,"lon":-112.1554,"elev":1993,"name":"Grand Canyon Park Arpt, AZ, US","cover":"BKN","clouds":[{"cover":"BKN","base":10000}],"fltCat":"VFR"},{"icaoId":"KOLS","receiptTime":"2026-04-06T10:58:10.968Z","obsTime":1775472840,"reportTime":"2026-04-06T11:00:00.000Z","temp":18.9,"dewp":3.9,"wdir":360,"wspd":3,"visib":"10+","altim":1018,"slp":1011.5,"qcField":6,"metarType":"METAR","rawOb":"METAR KOLS 061054Z AUTO 36003KT 10SM CLR 19/04 A3006 RMK AO2 SLP115 T01890039","lat":31.4208,"lon":-110.8465,"elev":1194,"name":"Nogales Intl, AZ, US","cover":"CLR","clouds":[],"fltCat":"VFR"},{"icaoId":"KSJN","receiptTime":"2026-04-06T10:58:09.041Z","obsTime":1775472840,"reportTime":"2026-04-06T11:00:00.000Z","temp":12.2,"dewp":-3.3,"wdir":90,"wspd":5,"visib":"10+","altim":1022.4,"slp":1014.8,"qcField":6,"metarType":"METAR","rawOb":"METAR KSJN 061054Z AUTO 09005KT 10SM CLR 12/M03 A3019 RMK AO2 SLP148 T01221033","lat":34.5184,"lon":-109.3801,"elev":1747,"name":"St Johns Ind Arpt, AZ, US","cover":"CLR","clouds":[],"fltCat":"VFR"},{"icaoId":"KSDL","receiptTime":"2026-04-06T10:56:29.124Z","obsTime":1775472780,"reportTime":"2026-04-06T11:00:00.000Z","temp":26.1,"dewp":1.7,"wdir":90,"wspd":10,"wgst":21,"visib":"10+","altim":1013.3,"slp":1010.5,"qcField":6,"metarType":"METAR","rawOb":"METAR KSDL 061053Z AUTO 09010G21KT 10SM CLR 26/02 A2992 RMK AO2 SLP105 T02610017","lat":33.6123,"lon":-111.9232,"elev":438,"name":"Scottsdale Muni, AZ, US","cover":"CLR","clouds":[],"fltCat":"VFR"},{"icaoId":"KPRC","receiptTime":"2026-04-06T10:56:27.420Z","obsTime":1775472780,"reportTime":"2026-04-06T11:00:00.000Z","temp":12.2,"dewp":-1.1,"wdir":200,"wspd":4,"visib":"10+","altim":1019.7,"slp":1012.6,"qcField":4,"metarType":"METAR","rawOb":"METAR KPRC 061053Z 20004KT 10SM CLR 12/M01 A3011 RMK AO2 SLP126 T01221011","lat":34.6491,"lon":-112.4223,"elev":1528,"name":"Prescott/Love Fld, AZ, US","cover":"CLR","clouds":[],"fltCat":"VFR"},{"icaoId":"KDVT","receiptTime":"2026-04-06T10:56:22.227Z","obsTime":1775472780,"reportTime":"2026-04-06T11:00:00.000Z","temp":25.6,"dewp":0.6,"wdir":110,"wspd":4,"visib":"10+","altim":1013.3,"slp":1010.6,"qcField":14,"metarType":"METAR","rawOb":"METAR KDVT 061053Z AUTO 11004KT 10SM CLR 26/01 A2992 RMK AO2 SLP106 T02560006 $","lat":33.6902,"lon":-112.0662,"elev":454,"name":"Phoenix/Deer Valley Arpt, AZ, US","cover":"CLR","clouds":[],"fltCat":"VFR"},{"icaoId":"KTUS","receiptTime":"2026-04-06T10:56:28.234Z","obsTime":1775472780,"reportTime":"2026-04-06T11:00:00.000Z","temp":22.2,"dewp":4.4,"wdir":130,"wspd":16,"wgst":27,"visib":"10+","altim":1016.7,"slp":1012.1,"qcField":12,"metarType":"METAR","rawOb":"METAR KTUS 061053Z 13016G27KT 10SM CLR 22/04 A3002 RMK AO2 PK WND 13031/1035 SLP121 T02220044 $","lat":32.1315,"lon":-110.9564,"elev":776,"name":"Tucson Intl Arpt, AZ, US","cover":"CLR","clouds":[],"fltCat":"VFR"},{"icaoId":"KPGA","receiptTime":"2026-04-06T10:56:23.649Z","obsTime":1775472780,"reportTime":"2026-04-06T11:00:00.000Z","temp":11.7,"dewp":-10,"wdir":170,"wspd":5,"visib":"10+","altim":1020.1,"slp":1015.5,"qcField":14,"metarType":"METAR","rawOb":"METAR KPGA 061053Z AUTO 17005KT 10SM CLR 12/M10 A3012 RMK AO2 SLP155 T01171100 $","lat":36.9211,"lon":-111.4487,"elev":1310,"name":"Page Muni, AZ, US","cover":"CLR","clouds":[],"fltCat":"VFR"},{"icaoId":"KSAD","receiptTime":"2026-04-06T10:54:07.953Z","obsTime":1775472660,"reportTime":"2026-04-06T11:00:00.000Z","temp":16.1,"dewp":0.6,"wdir":110,"wspd":14,"wgst":27,"visib":"10+","altim":1022.1,"slp":1017.9,"qcField":6,"metarType":"METAR","rawOb":"METAR KSAD 061051Z AUTO 11014G27KT 10SM CLR 16/01 A3018 RMK AO2 PK WND 11027/1042 SLP179 T01610006","lat":32.8565,"lon":-109.636,"elev":937,"name":"Safford Rgnl, AZ, US","cover":"CLR","clouds":[],"fltCat":"VFR"},{"icaoId":"KPHX","receiptTime":"2026-04-06T10:54:07.809Z","obsTime":1775472660,"reportTime":"2026-04-06T11:00:00.000Z","temp":26.7,"dewp":2.2,"wdir":120,"wspd":10,"visib":"10+","altim":1012.3,"slp":1010.2,"qcField":4,"metarType":"METAR","rawOb":"METAR KPHX 061051Z 12010KT 10SM FEW120 BKN210 BKN230 27/02 A2989 RMK AO2 SLP102 T02670022","lat":33.4278,"lon":-112.0037,"elev":338,"name":"Phoenix/Sky Harbor Intl, AZ, US","cover":"BKN","clouds":[{"cover":"FEW","base":12000},{"cover":"BKN","base":21000},{"cover":"BKN","base":23000}],"fltCat":"VFR"},{"icaoId":"KIGM","receiptTime":"2026-04-06T10:54:09.123Z","obsTime":1775472660,"reportTime":"2026-04-06T11:00:00.000Z","temp":15,"dewp":-7.2,"wdir":0,"wspd":0,"visib":"10+","altim":1016.3,"slp":1010,"qcField":6,"metarType":"METAR","rawOb":"METAR KIGM 061051Z AUTO 00000KT 10SM CLR 15/M07 A3001 RMK AO2 SLP100 T01501072","lat":35.2575,"lon":-113.9341,"elev":1045,"name":"Kingman Arpt, AZ, US","cover":"CLR","clouds":[],"fltCat":"VFR"}]