[{"icaoId":"KRYN","receiptTime":"2026-04-08T17:46:22.202Z","obsTime":1775670300,"reportTime":"2026-04-08T18:00:00.000Z","temp":30,"dewp":-1,"wdir":"VRB","wspd":5,"visib":"10+","altim":1014,"qcField":0,"metarType":"METAR","rawOb":"METAR KRYN 081745Z VRB05KT 10SM CLR 30/M01 A2994","lat":32.1418,"lon":-111.1767,"elev":731,"name":"Tucson/Ryan Fld, AZ, US","cover":"CLR","clouds":[],"fltCat":"VFR"},{"icaoId":"KHII","receiptTime":"2026-04-08T17:40:28.678Z","obsTime":1775669700,"reportTime":"2026-04-08T17:35:00.000Z","temp":28,"dewp":-2,"wdir":0,"wspd":0,"visib":"10+","altim":1011.6,"qcField":6,"metarType":"METAR","rawOb":"METAR KHII 081735Z AUTO 00000KT 10SM CLR 28/M02 A2987 RMK AO2","lat":34.5659,"lon":-114.3522,"elev":241,"name":"Lake Havasu City Arpt, AZ, US","cover":"CLR","clouds":[],"fltCat":"VFR"},{"icaoId":"KSOW","receiptTime":"2026-04-08T17:38:15.906Z","obsTime":1775669700,"reportTime":"2026-04-08T17:35:00.000Z","temp":20,"dewp":-7,"wdir":90,"wspd":6,"visib":"10+","altim":1022.1,"qcField":6,"metarType":"METAR","rawOb":"METAR KSOW 081735Z AUTO 09006KT 10SM CLR 20/M07 A3018 RMK AO2","lat":34.2686,"lon":-110.0019,"elev":1954,"name":"Show Low Muni, AZ, US","cover":"CLR","clouds":[],"fltCat":"VFR"},{"icaoId":"KSEZ","receiptTime":"2026-04-08T17:38:19.293Z","obsTime":1775669700,"reportTime":"2026-04-08T17:35:00.000Z","temp":23,"dewp":-6,"wdir":"VRB","wspd":3,"visib":"10+","altim":1019,"qcField":6,"metarType":"METAR","rawOb":"METAR KSEZ 081735Z AUTO VRB03KT 10SM CLR 23/M06 A3009 RMK AO2","lat":34.8467,"lon":-111.7884,"elev":1455,"name":"Sedona Arpt, AZ, US","cover":"CLR","clouds":[],"fltCat":"VFR"},{"icaoId":"KIWA","receiptTime":"2026-04-08T17:06:03.758Z","obsTime":1775667480,"reportTime":"2026-04-08T17:00:00.000Z","temp":28,"dewp":2,"wdir":170,"wspd":5,"visib":"10+","altim":1013.3,"qcField":1,"metarType":"METAR","rawOb":"METAR KIWA 081658Z COR 17005KT 10SM CLR 28/02 A2992","lat":33.3008,"lon":-111.6437,"elev":420,"name":"Phoenix/Mesa Gateway Arpt, AZ, US","cover":"CLR","clouds":[],"fltCat":"VFR"},{"icaoId":"KFLG","receiptTime":"2026-04-08T17:00:19.822Z","obsTime":1775667420,"reportTime":"2026-04-08T17:00:00.000Z","temp":17.2,"dewp":-11.1,"visib":"10+","altim":1022.1,"slp":1015,"qcField":4,"metarType":"METAR","rawOb":"METAR KFLG 081657Z 10SM CLR 17/M11 A3018 RMK AO2 SLP150 T01721111","lat":35.1443,"lon":-111.6664,"elev":2134,"name":"Flagstaff/Pulliam Arpt, AZ, US","cover":"CLR","clouds":[],"fltCat":"VFR"},{"icaoId":"KINW","receiptTime":"2026-04-08T17:00:17.567Z","obsTime":1775667360,"reportTime":"2026-04-08T17:00:00.000Z","temp":17.8,"dewp":2.8,"wdir":110,"wspd":3,"visib":"10+","altim":1019.4,"slp":1014.4,"qcField":6,"metarType":"METAR","rawOb":"METAR KINW 081656Z AUTO 11003KT 10SM CLR 18/03 A3010 RMK AO2 SLP144 T01780028","lat":35.0279,"lon":-110.7221,"elev":1492,"name":"Winslow/Lindberg Rgnl, AZ, US","cover":"CLR","clouds":[],"fltCat":"VFR"},{"icaoId":"KCGZ","receiptTime":"2026-04-08T16:58:36.857Z","obsTime":1775667360,"reportTime":"2026-04-08T17:00:00.000Z","temp":26.7,"dewp":0,"wdir":0,"wspd":0,"visib":"10+","altim":1013.3,"slp":1012,"qcField":14,"metarType":"METAR","rawOb":"METAR KCGZ 081656Z AUTO 00000KT 10SM CLR 27/00 A2992 RMK AO2 SLP120 T02670000 $","lat":32.9531,"lon":-111.7725,"elev":444,"name":"Casa Granda Muni, AZ, US","cover":"CLR","clouds":[],"fltCat":"VFR"},{"icaoId":"KDUG","receiptTime":"2026-04-08T17:02:10.720Z","obsTime":1775667360,"reportTime":"2026-04-08T17:00:00.000Z","temp":22.8,"dewp":2.8,"wdir":"VRB","wspd":3,"visib":"10+","altim":1018,"slp":1012.4,"qcField":38,"metarType":"METAR","rawOb":"METAR KDUG 081656Z AUTO VRB03KT 10SM CLR 23/03 A3006 RMK AO2 SLP124 T02280028 TSNO","lat":31.4725,"lon":-109.6022,"elev":1260,"name":"Douglas/Bisbee Intl, AZ, US","cover":"CLR","clouds":[],"fltCat":"VFR"},{"icaoId":"KLUF","receiptTime":"2026-04-08T17:04:09.604Z","obsTime":1775667300,"reportTime":"2026-04-08T17:00:00.000Z","temp":27.6,"dewp":-0.5,"wdir":60,"wspd":4,"visib":"10+","altim":1011.9,"slp":1010.4,"qcField":14,"metarType":"METAR","rawOb":"METAR KLUF 081655Z AUTO 06004KT 10SM CLR 28/M00 A2988 RMK AO2 SLP104 T02761005 $","lat":33.538,"lon":-112.38,"elev":333,"name":"Phoenix/Luke AFB, AZ, US","cover":"CLR","clouds":[],"fltCat":"VFR"},{"icaoId":"KOLS","receiptTime":"2026-04-08T16:58:10.108Z","obsTime":1775667240,"reportTime":"2026-04-08T17:00:00.000Z","temp":25,"dewp":2.2,"wdir":200,"wspd":4,"visib":"10+","altim":1016.7,"slp":1011,"qcField":6,"precip":0.005,"metarType":"METAR","rawOb":"METAR KOLS 081654Z AUTO 20004KT 10SM CLR 25/02 A3002 RMK AO2 RAE03 SLP110 P0000 T02500022","lat":31.4208,"lon":-110.8465,"elev":1194,"name":"Nogales Intl, AZ, US","cover":"CLR","clouds":[],"fltCat":"VFR"},{"icaoId":"KFFZ","receiptTime":"2026-04-08T16:58:11.884Z","obsTime":1775667240,"reportTime":"2026-04-08T17:00:00.000Z","temp":27.2,"dewp":1.1,"wdir":100,"wspd":3,"visib":"10+","altim":1012.6,"slp":1010.3,"qcField":4,"metarType":"METAR","rawOb":"METAR KFFZ 081654Z 10003KT 10SM CLR 27/01 A2990 RMK AO2 SLP103 T02720011","lat":33.4659,"lon":-111.7212,"elev":420,"name":"Mesa/Falcon Fld, AZ, US","cover":"CLR","clouds":[],"fltCat":"VFR"},{"icaoId":"KGCN","receiptTime":"2026-04-08T16:58:19.423Z","obsTime":1775667240,"reportTime":"2026-04-08T17:00:00.000Z","temp":17.8,"dewp":-6.1,"wdir":230,"wspd":8,"visib":"10+","altim":1021.8,"slp":1015.7,"qcField":4,"metarType":"METAR","rawOb":"METAR KGCN 081654Z 23008KT 180V280 10SM CLR 18/M06 A3017 RMK AO2 SLP157 T01781061","lat":35.9458,"lon":-112.1554,"elev":1993,"name":"Grand Canyon Park Arpt, AZ, US","cover":"CLR","clouds":[],"fltCat":"VFR"},{"icaoId":"KSJN","receiptTime":"2026-04-08T16:58:11.549Z","obsTime":1775667240,"reportTime":"2026-04-08T17:00:00.000Z","temp":17.8,"dewp":0,"wdir":"VRB","wspd":3,"visib":"10+","altim":1020.1,"slp":1013.5,"qcField":6,"metarType":"METAR","rawOb":"METAR KSJN 081654Z AUTO VRB03KT 10SM CLR 18/00 A3012 RMK AO2 SLP135 T01780000","lat":34.5184,"lon":-109.3801,"elev":1747,"name":"St Johns Ind Arpt, AZ, US","cover":"CLR","clouds":[],"fltCat":"VFR"},{"icaoId":"KSDL","receiptTime":"2026-04-08T16:57:02.558Z","obsTime":1775667180,"reportTime":"2026-04-08T17:00:00.000Z","temp":27.8,"dewp":1.1,"wdir":"VRB","wspd":3,"visib":"10+","altim":1013.3,"slp":1010.6,"qcField":4,"metarType":"METAR","rawOb":"METAR KSDL 081653Z VRB03KT 10SM CLR 28/01 A2992 RMK AO2 SLP106 T02780011","lat":33.6123,"lon":-111.9232,"elev":438,"name":"Scottsdale Muni, AZ, US","cover":"CLR","clouds":[],"fltCat":"VFR"},{"icaoId":"KDVT","receiptTime":"2026-04-08T16:57:02.763Z","obsTime":1775667180,"reportTime":"2026-04-08T17:00:00.000Z","temp":27.8,"dewp":-0.6,"wdir":"VRB","wspd":5,"visib":"10+","altim":1013,"slp":1010.6,"qcField":4,"metarType":"METAR","rawOb":"METAR KDVT 081653Z VRB05KT 10SM CLR 28/M01 A2991 RMK AO2 SLP106 T02781006","lat":33.6902,"lon":-112.0662,"elev":454,"name":"Phoenix/Deer Valley Arpt, AZ, US","cover":"CLR","clouds":[],"fltCat":"VFR"},{"icaoId":"KTUS","receiptTime":"2026-04-08T16:57:02.609Z","obsTime":1775667180,"reportTime":"2026-04-08T17:00:00.000Z","temp":26.1,"dewp":1.7,"wdir":180,"wspd":3,"visib":"10+","altim":1015.3,"slp":1011.1,"qcField":4,"metarType":"METAR","rawOb":"METAR KTUS 081653Z 18003KT 10SM CLR 26/02 A2998 RMK AO2 SLP111 T02610017","lat":32.1315,"lon":-110.9564,"elev":776,"name":"Tucson Intl Arpt, AZ, US","cover":"CLR","clouds":[],"fltCat":"VFR"},{"icaoId":"KPRC","receiptTime":"2026-04-08T16:57:05.598Z","obsTime":1775667180,"reportTime":"2026-04-08T17:00:00.000Z","temp":21.7,"dewp":-5.6,"wdir":330,"wspd":7,"visib":"10+","altim":1019.4,"slp":1011.8,"qcField":4,"metarType":"METAR","rawOb":"METAR KPRC 081653Z 33007KT 10SM CLR 22/M06 A3010 RMK AO2 SLP118 T02171056","lat":34.6491,"lon":-112.4223,"elev":1528,"name":"Prescott/Love Fld, AZ, US","cover":"CLR","clouds":[],"fltCat":"VFR"},{"icaoId":"KPGA","receiptTime":"2026-04-08T16:57:05.505Z","obsTime":1775667180,"reportTime":"2026-04-08T17:00:00.000Z","temp":20.6,"dewp":-9.4,"wdir":"VRB","wspd":4,"visib":"10+","altim":1017,"slp":1011.2,"qcField":14,"metarType":"METAR","rawOb":"METAR KPGA 081653Z AUTO VRB04KT 10SM CLR 21/M09 A3003 RMK AO2 SLP112 T02061094 $","lat":36.9211,"lon":-111.4487,"elev":1310,"name":"Page Muni, AZ, US","cover":"CLR","clouds":[],"fltCat":"VFR"},{"icaoId":"KPHX","receiptTime":"2026-04-08T16:54:10.644Z","obsTime":1775667060,"reportTime":"2026-04-08T17:00:00.000Z","temp":28.3,"dewp":1.1,"wdir":150,"wspd":6,"visib":"10+","altim":1011.9,"slp":1010.1,"qcField":4,"metarType":"METAR","rawOb":"METAR KPHX 081651Z 15006KT 10SM CLR 28/01 A2988 RMK AO2 SLP101 T02830011","lat":33.4278,"lon":-112.0037,"elev":338,"name":"Phoenix/Sky Harbor Intl, AZ, US","cover":"CLR","clouds":[],"fltCat":"VFR"},{"icaoId":"KSAD","receiptTime":"2026-04-08T16:54:10.738Z","obsTime":1775667060,"reportTime":"2026-04-08T17:00:00.000Z","temp":22.8,"dewp":3.3,"wdir":120,"wspd":7,"visib":"10+","altim":1016.3,"slp":1012,"qcField":6,"metarType":"METAR","rawOb":"METAR KSAD 081651Z AUTO 12007KT 10SM CLR 23/03 A3001 RMK AO2 SLP120 T02280033","lat":32.8565,"lon":-109.636,"elev":937,"name":"Safford Rgnl, AZ, US","cover":"CLR","clouds":[],"fltCat":"VFR"},{"icaoId":"KIGM","receiptTime":"2026-04-08T16:54:10.475Z","obsTime":1775667060,"reportTime":"2026-04-08T17:00:00.000Z","temp":25.6,"dewp":-6.7,"wdir":80,"wspd":3,"visib":"10+","altim":1015.7,"slp":1009.1,"qcField":6,"metarType":"METAR","rawOb":"METAR KIGM 081651Z AUTO 08003KT 10SM CLR 26/M07 A2999 RMK AO2 SLP091 T02561067","lat":35.2575,"lon":-113.9341,"elev":1045,"name":"Kingman Arpt, AZ, US","cover":"CLR","clouds":[],"fltCat":"VFR"},{"icaoId":"KGEU","receiptTime":"2026-04-08T16:50:18.775Z","obsTime":1775666940,"reportTime":"2026-04-08T17:00:00.000Z","temp":27,"dewp":0,"wdir":90,"wspd":5,"visib":"10+","altim":1011.6,"qcField":0,"metarType":"METAR","rawOb":"METAR KGEU 081649Z 09005KT 10SM CLR 27/M00 A2987","lat":33.528,"lon":-112.293,"elev":319,"name":"Glendale Muni, AZ, US","cover":"CLR","clouds":[],"fltCat":"VFR"},{"icaoId":"KGYR","receiptTime":"2026-04-08T16:47:58.756Z","obsTime":1775666820,"reportTime":"2026-04-08T17:00:00.000Z","temp":27,"dewp":3,"wdir":"VRB","wspd":6,"visib":"10+","altim":1012.6,"qcField":0,"metarType":"METAR","rawOb":"METAR KGYR 081647Z VRB06KT 10SM SKC 27/03 A2990","lat":33.428,"lon":-112.368,"elev":292,"name":"Phoenix/Goodyear Muni, AZ, US","cover":"SKC","clouds":[],"fltCat":"VFR"},{"icaoId":"KCHD","receiptTime":"2026-04-08T16:47:58.661Z","obsTime":1775666820,"reportTime":"2026-04-08T17:00:00.000Z","temp":27,"dewp":2,"wdir":0,"wspd":0,"visib":"10+","altim":1012.6,"qcField":0,"metarType":"METAR","rawOb":"METAR KCHD 081647Z 00000KT 10SM CLR 27/02 A2990","lat":33.2669,"lon":-111.8086,"elev":378,"name":"Chandler Muni, AZ, US","cover":"CLR","clouds":[],"fltCat":"VFR"},{"icaoId":"KIFP","receiptTime":"2026-04-08T16:47:58.921Z","obsTime":1775666820,"reportTime":"2026-04-08T17:00:00.000Z","temp":26,"dewp":-5,"wdir":210,"wspd":6,"visib":"10+","altim":1011.3,"qcField":0,"metarType":"METAR","rawOb":"METAR KIFP 081647Z 21006KT 10SM CLR 26/M05 A2986","lat":35.1487,"lon":-114.5611,"elev":210,"name":"Bullhead City Intl, AZ, US","cover":"CLR","clouds":[],"fltCat":"VFR"}]