[{"icaoId":"KIWA","receiptTime":"2026-04-17T06:48:17.088Z","obsTime":1776408420,"reportTime":"2026-04-17T07:00:00.000Z","temp":22,"dewp":-3,"wdir":250,"wspd":5,"visib":"10+","altim":1009.2,"qcField":0,"metarType":"METAR","rawOb":"METAR KIWA 170647Z 25005KT 10SM CLR 22/M03 A2980","lat":33.3008,"lon":-111.6437,"elev":420,"name":"Phoenix/Mesa Gateway Arpt, AZ, US","cover":"CLR","clouds":[],"fltCat":"VFR"},{"icaoId":"KVEL","receiptTime":"2026-04-17T06:50:29.234Z","obsTime":1776408360,"reportTime":"2026-04-17T06:46:00.000Z","temp":-1.7,"dewp":-3.9,"wdir":100,"wspd":9,"visib":1.5,"altim":1015.3,"qcField":6,"wxString":"-SN BR","precip":0.005,"metarType":"SPECI","rawOb":"SPECI KVEL 170646Z AUTO 10009KT 1 1/2SM -SN BR OVC014 M02/M04 A2998 RMK AO2 P0000 T10171039","lat":40.4429,"lon":-109.5128,"elev":1604,"name":"Vernal Rgnl, UT, US","cover":"OVC","clouds":[{"cover":"OVC","base":1400}],"fltCat":"IFR"},{"icaoId":"KBTV","receiptTime":"2026-04-17T06:48:09.552Z","obsTime":1776408240,"reportTime":"2026-04-17T06:44:00.000Z","temp":12.8,"wdir":330,"wspd":11,"visib":1.75,"altim":1008.5,"qcField":12,"wxString":"BR","metarType":"SPECI","rawOb":"SPECI KBTV 170644Z 33011KT 1 3/4SM R15/3500VP6000FT BR OVC002 13/ A2978 RMK AO2 T0128 $","lat":44.4682,"lon":-73.1499,"elev":101,"name":"Burlington Intl, VT, US","cover":"OVC","clouds":[{"cover":"OVC","base":200}],"fltCat":"LIFR"},{"icaoId":"KDTW","receiptTime":"2026-04-17T06:46:06.188Z","obsTime":1776408180,"reportTime":"2026-04-17T06:43:00.000Z","temp":12.2,"dewp":11.7,"wdir":0,"wspd":0,"visib":3,"altim":1014,"qcField":12,"wxString":"MIFG BR","metarType":"SPECI","rawOb":"SPECI KDTW 170643Z 00000KT 3SM R03R/1400V2000FT MIFG BR BKN004 BKN045 OVC080 12/12 A2994 RMK AO2 TWR VIS 4 VIS SE-SW 1 1/2 T01220117 $","lat":42.2311,"lon":-83.3312,"elev":192,"name":"Detroit/Metro Wayne Cnty, MI, US","cover":"OVC","clouds":[{"cover":"BKN","base":400},{"cover":"BKN","base":4500},{"cover":"OVC","base":8000}],"fltCat":"LIFR"},{"icaoId":"KBUF","receiptTime":"2026-04-17T06:46:06.175Z","obsTime":1776408180,"reportTime":"2026-04-17T06:43:00.000Z","temp":11.7,"dewp":11.1,"wdir":220,"wspd":5,"visib":2.5,"altim":1010.9,"qcField":4,"wxString":"BR","metarType":"SPECI","rawOb":"SPECI KBUF 170643Z 22005KT 2 1/2SM BR OVC003 12/11 A2985 RMK AO2 CIG 002V007 T01170111","lat":42.94,"lon":-78.7361,"elev":217,"name":"Buffalo-Niagara Intl, NY, US","cover":"OVC","clouds":[{"cover":"OVC","base":300}],"fltCat":"LIFR"},{"icaoId":"KCPR","receiptTime":"2026-04-17T06:44:17.121Z","obsTime":1776408060,"reportTime":"2026-04-17T06:41:00.000Z","temp":-2.8,"dewp":-2.8,"wdir":80,"wspd":5,"visib":3,"altim":1011.9,"qcField":6,"wxString":"-SN BR","precip":0.04,"metarType":"SPECI","rawOb":"SPECI KCPR 170641Z AUTO 08005KT 3SM -SN BR BKN010 OVC080 M03/M03 A2988 RMK AO2 P0004 T10281028","lat":42.8978,"lon":-106.4736,"elev":1623,"name":"Casper/Natrona Cnty, WY, US","cover":"OVC","clouds":[{"cover":"BKN","base":1000},{"cover":"OVC","base":8000}],"fltCat":"MVFR"},{"icaoId":"KDEN","receiptTime":"2026-04-17T06:42:10.452Z","obsTime":1776407940,"reportTime":"2026-04-17T06:39:00.000Z","temp":7.2,"dewp":-2.2,"wdir":30,"wspd":30,"wgst":40,"visib":"10+","altim":1005.8,"qcField":12,"metarType":"SPECI","rawOb":"SPECI KDEN 170639Z 03030G40KT 10SM SCT250 07/M02 A2970 RMK AO2 PK WND 02040/0636 T00721022 $","lat":39.8466,"lon":-104.6562,"elev":1656,"name":"Denver Intl, CO, US","cover":"SCT","clouds":[{"cover":"SCT","base":25000}],"fltCat":"VFR"},{"icaoId":"KROC","receiptTime":"2026-04-17T06:40:16.053Z","obsTime":1776407820,"reportTime":"2026-04-17T06:37:00.000Z","temp":14.4,"dewp":13.9,"wdir":330,"wspd":6,"visib":3,"altim":1010.2,"qcField":12,"wxString":"BR","precip":0.005,"metarType":"SPECI","rawOb":"SPECI KROC 170637Z 33006KT 3SM BR BKN004 OVC017 14/14 A2983 RMK AO2 RAE0558 CIG 002V007 P0000 T01440139 $","lat":43.1172,"lon":-77.6754,"elev":166,"name":"Rochester Intl Arpt, NY, US","cover":"OVC","clouds":[{"cover":"BKN","base":400},{"cover":"OVC","base":1700}],"fltCat":"LIFR"},{"icaoId":"KHOB","receiptTime":"2026-04-17T06:38:45.004Z","obsTime":1776407700,"reportTime":"2026-04-17T06:35:00.000Z","temp":19,"dewp":16,"wdir":190,"wspd":10,"visib":"10+","altim":1011.3,"qcField":6,"metarType":"METAR","rawOb":"METAR KHOB 170635Z AUTO 19010KT 10SM CLR 19/16 A2986 RMK AO2","lat":32.6797,"lon":-103.2222,"elev":1112,"name":"Hobbs Arpt, NM, US","cover":"CLR","clouds":[],"fltCat":"VFR"},{"icaoId":"KHCR","receiptTime":"2026-04-17T06:38:44.875Z","obsTime":1776407700,"reportTime":"2026-04-17T06:35:00.000Z","temp":-2.3,"dewp":-7.9,"wdir":30,"wspd":5,"visib":"10+","altim":1017.4,"qcField":14,"metarType":"METAR","rawOb":"METAR KHCR 170635Z AUTO 03005KT 10SM BKN046 OVC065 M02/M08 A3004 RMK AO2 T10231079 $","lat":40.4774,"lon":-111.4329,"elev":1708,"name":"Heber City Muni, UT, US","cover":"OVC","clouds":[{"cover":"BKN","base":4600},{"cover":"OVC","base":6500}],"fltCat":"VFR"},{"icaoId":"KSUN","receiptTime":"2026-04-17T06:38:46.145Z","obsTime":1776407700,"reportTime":"2026-04-17T06:35:00.000Z","wdir":280,"wspd":7,"visib":"10+","altim":1019.4,"qcField":6,"metarType":"METAR","rawOb":"METAR KSUN 170635Z AUTO 28007KT 10SM CLR A3010 RMK AO2","lat":43.4969,"lon":-114.2923,"elev":1619,"name":"Hailey/Friedman Mem, ID, US","cover":"CLR","clouds":[],"fltCat":"VFR"},{"icaoId":"KSOW","receiptTime":"2026-04-17T06:38:46.053Z","obsTime":1776407700,"reportTime":"2026-04-17T06:35:00.000Z","temp":10,"dewp":-12,"wdir":190,"wspd":17,"visib":"10+","altim":1014.6,"qcField":6,"metarType":"METAR","rawOb":"METAR KSOW 170635Z AUTO 19017KT 10SM CLR 10/M12 A2996 RMK AO2","lat":34.2686,"lon":-110.0019,"elev":1954,"name":"Show Low Muni, AZ, US","cover":"CLR","clouds":[],"fltCat":"VFR"},{"icaoId":"KHII","receiptTime":"2026-04-17T06:42:06.754Z","obsTime":1776407700,"reportTime":"2026-04-17T06:35:00.000Z","temp":23,"dewp":-10,"wdir":110,"wspd":4,"visib":"10+","altim":1007.2,"qcField":6,"metarType":"METAR","rawOb":"METAR KHII 170635Z AUTO 11004KT 10SM CLR 23/M10 A2974 RMK AO2","lat":34.5659,"lon":-114.3522,"elev":241,"name":"Lake Havasu City Arpt, AZ, US","cover":"CLR","clouds":[],"fltCat":"VFR"},{"icaoId":"KHTH","receiptTime":"2026-04-17T06:40:05.927Z","obsTime":1776407700,"reportTime":"2026-04-17T06:35:00.000Z","temp":3,"dewp":-13,"wdir":340,"wspd":11,"visib":"10+","altim":1024.1,"qcField":6,"metarType":"METAR","rawOb":"METAR KHTH 170635Z AUTO 34011KT 10SM CLR 03/M13 A3024 RMK A01","lat":38.5448,"lon":-118.6314,"elev":1281,"name":"Hawthorne Muni, NV, US","cover":"CLR","clouds":[],"fltCat":"VFR"},{"icaoId":"KHAF","receiptTime":"2026-04-17T06:38:41.264Z","obsTime":1776407700,"reportTime":"2026-04-17T06:35:00.000Z","temp":11,"dewp":11,"wdir":330,"wspd":10,"visib":5,"altim":1017.4,"qcField":6,"wxString":"BR","metarType":"METAR","rawOb":"METAR KHAF 170635Z AUTO 33010KT 5SM BR CLR 11/11 A3004 RMK AO2","lat":37.5136,"lon":-122.4996,"elev":11,"name":"Half Moon Bay Arpt, CA, US","cover":"CLR","clouds":[],"fltCat":"MVFR"},{"icaoId":"KADM","receiptTime":"2026-04-17T06:40:14.739Z","obsTime":1776407700,"reportTime":"2026-04-17T06:35:00.000Z","temp":19,"dewp":19,"wdir":0,"wspd":0,"visib":"10+","altim":1010.6,"qcField":6,"metarType":"METAR","rawOb":"METAR KADM 170635Z AUTO 00000KT 10SM SCT050 SCT055 19/19 A2984 RMK AO2","lat":34.3007,"lon":-97.0089,"elev":223,"name":"Ardmore Muni, OK, US","cover":"SCT","clouds":[{"cover":"SCT","base":5000},{"cover":"SCT","base":5500}],"fltCat":"VFR"},{"icaoId":"KAEG","receiptTime":"2026-04-17T06:40:14.770Z","obsTime":1776407700,"reportTime":"2026-04-17T06:35:00.000Z","temp":11.3,"dewp":-15.2,"wdir":260,"wspd":3,"visib":"10+","altim":1013,"qcField":6,"metarType":"METAR","rawOb":"METAR KAEG 170635Z AUTO 26003KT 10SM CLR 11/M15 A2991 RMK AO2 T01131152","lat":35.15,"lon":-106.7929,"elev":1771,"name":"Albuquerque/Double Eagle Arpt, NM, US","cover":"CLR","clouds":[],"fltCat":"VFR"},{"icaoId":"KBJC","receiptTime":"2026-04-17T06:40:13.969Z","obsTime":1776407700,"reportTime":"2026-04-17T06:35:00.000Z","temp":12,"dewp":-12,"wdir":220,"wspd":3,"visib":"10+","altim":1004.8,"qcField":6,"metarType":"METAR","rawOb":"METAR KBJC 170635Z AUTO 22003KT 10SM CLR 12/M12 A2967 RMK AO2","lat":39.9008,"lon":-105.1042,"elev":1694,"name":"Rocky Mtn Metro, CO, US","cover":"CLR","clouds":[],"fltCat":"VFR"},{"icaoId":"KMEV","receiptTime":"2026-04-17T06:40:13.872Z","obsTime":1776407700,"reportTime":"2026-04-17T06:35:00.000Z","temp":-2,"dewp":-10,"wdir":0,"wspd":0,"visib":"10+","altim":1023.8,"qcField":6,"metarType":"METAR","rawOb":"METAR KMEV 170635Z AUTO 00000KT 10SM CLR M02/M10 A3023 RMK AO2","lat":38.9963,"lon":-119.75,"elev":1437,"name":"Minden-Tahoe Arpt, NV, US","cover":"CLR","clouds":[],"fltCat":"VFR"},{"icaoId":"KCXP","receiptTime":"2026-04-17T06:40:13.738Z","obsTime":1776407700,"reportTime":"2026-04-17T06:35:00.000Z","temp":2,"dewp":-12,"wdir":50,"wspd":13,"wgst":18,"visib":"10+","altim":1024.1,"qcField":6,"metarType":"METAR","rawOb":"METAR KCXP 170635Z AUTO 05013G18KT 10SM CLR 02/M12 A3024 RMK AO2","lat":39.1905,"lon":-119.7319,"elev":1431,"name":"Carson City Arpt, NV, US","cover":"CLR","clouds":[],"fltCat":"VFR"},{"icaoId":"KLRU","receiptTime":"2026-04-17T06:38:51.617Z","obsTime":1776407700,"reportTime":"2026-04-17T06:35:00.000Z","temp":16,"dewp":-14.4,"wdir":260,"wspd":13,"visib":"10+","altim":1013,"qcField":6,"metarType":"METAR","rawOb":"METAR KLRU 170635Z AUTO 26013KT 10SM CLR 16/M14 A2991 RMK AO2 T01601144","lat":32.2884,"lon":-106.9131,"elev":1355,"name":"Las Cruces Intl, NM, US","cover":"CLR","clouds":[],"fltCat":"VFR"},{"icaoId":"KMHR","receiptTime":"2026-04-17T06:40:13.897Z","obsTime":1776407700,"reportTime":"2026-04-17T06:35:00.000Z","temp":15,"dewp":-5,"wdir":340,"wspd":14,"visib":"10+","altim":1014.6,"qcField":6,"metarType":"METAR","rawOb":"METAR KMHR 170635Z AUTO 34014KT 10SM CLR 15/M05 A2996 RMK AO2","lat":38.56,"lon":-121.284,"elev":30,"name":"Sacramento/Mather Fld, CA, US","cover":"CLR","clouds":[],"fltCat":"VFR"},{"icaoId":"KSEZ","receiptTime":"2026-04-17T06:40:13.922Z","obsTime":1776407700,"reportTime":"2026-04-17T06:35:00.000Z","temp":14,"dewp":-9,"wdir":"VRB","wspd":5,"visib":"10+","altim":1013,"qcField":6,"metarType":"METAR","rawOb":"METAR KSEZ 170635Z AUTO VRB05KT 10SM CLR 14/M09 A2991 RMK AO2","lat":34.8467,"lon":-111.7884,"elev":1455,"name":"Sedona Arpt, AZ, US","cover":"CLR","clouds":[],"fltCat":"VFR"},{"icaoId":"KBVU","receiptTime":"2026-04-17T06:36:10.385Z","obsTime":1776407700,"reportTime":"2026-04-17T06:35:00.000Z","temp":21,"dewp":-10,"wdir":310,"wspd":11,"wgst":18,"visib":"10+","altim":1008.5,"qcField":6,"metarType":"METAR","rawOb":"METAR KBVU 170635Z AUTO 31011G18KT 10SM CLR 21/M10 A2978 RMK AO2","lat":35.9489,"lon":-114.8633,"elev":654,"name":"Boulder City Muni, NV, US","cover":"CLR","clouds":[],"fltCat":"VFR"},{"icaoId":"KRTS","receiptTime":"2026-04-17T06:40:08.270Z","obsTime":1776407700,"reportTime":"2026-04-17T06:35:00.000Z","temp":-2,"dewp":-14,"wdir":50,"wspd":9,"visib":"10+","altim":1023.8,"qcField":6,"metarType":"METAR","rawOb":"METAR KRTS 170635Z AUTO 05009KT 10SM CLR M02/M14 A3023 RMK AO2","lat":39.6658,"lon":-119.8731,"elev":1537,"name":"Reno/Stead Arpt, NV, US","cover":"CLR","clouds":[],"fltCat":"VFR"},{"icaoId":"KCHD","receiptTime":"2026-04-17T06:38:47.862Z","obsTime":1776407700,"reportTime":"2026-04-17T06:35:00.000Z","temp":22.7,"dewp":-1.8,"wdir":210,"wspd":4,"visib":"10+","altim":1008.9,"qcField":14,"metarType":"METAR","rawOb":"METAR KCHD 170635Z AUTO 21004KT 10SM SCT180 23/M02 A2979 RMK AO2 T02271018 $","lat":33.2669,"lon":-111.8086,"elev":378,"name":"Chandler Muni, AZ, US","cover":"SCT","clouds":[{"cover":"SCT","base":18000}],"fltCat":"VFR"},{"icaoId":"KSYR","receiptTime":"2026-04-17T06:36:07.028Z","obsTime":1776407580,"reportTime":"2026-04-17T06:33:00.000Z","temp":15.6,"dewp":14.4,"wdir":310,"wspd":6,"visib":"10+","altim":1009.6,"qcField":12,"metarType":"SPECI","rawOb":"SPECI KSYR 170633Z 31006KT 10SM BKN007 BKN038 OVC055 16/14 A2981 RMK AO2 T01560144 $","lat":43.1111,"lon":-76.1038,"elev":125,"name":"Syracuse/Hancock Intl, NY, US","cover":"OVC","clouds":[{"cover":"BKN","base":700},{"cover":"BKN","base":3800},{"cover":"OVC","base":5500}],"fltCat":"IFR"},{"icaoId":"KCRQ","receiptTime":"2026-04-17T06:36:04.718Z","obsTime":1776407520,"reportTime":"2026-04-17T06:32:00.000Z","temp":15,"dewp":11.7,"wdir":140,"wspd":5,"visib":"10+","altim":1013.3,"qcField":6,"metarType":"SPECI","rawOb":"SPECI KCRQ 170632Z AUTO 14005KT 10SM BKN020 15/12 A2992 RMK AO2 T01500117","lat":33.1299,"lon":-117.2765,"elev":96,"name":"Carlsbad/Palomar Arpt, CA, US","cover":"BKN","clouds":[{"cover":"BKN","base":2000}],"fltCat":"MVFR"},{"icaoId":"KIFP","receiptTime":"2026-04-17T06:40:13.819Z","obsTime":1776407400,"reportTime":"2026-04-17T06:30:00.000Z","temp":21,"dewp":-4,"wdir":100,"wspd":3,"visib":"10+","altim":1006.5,"qcField":6,"metarType":"METAR","rawOb":"METAR KIFP 170630Z AUTO 10003KT 10SM CLR 21/M04 A2972 RMK AO2","lat":35.1487,"lon":-114.5611,"elev":210,"name":"Bullhead City Intl, AZ, US","cover":"CLR","clouds":[],"fltCat":"VFR"},{"icaoId":"KSAT","receiptTime":"2026-04-17T06:28:04.925Z","obsTime":1776407040,"reportTime":"2026-04-17T06:24:00.000Z","temp":21.7,"dewp":18.9,"wdir":160,"wspd":14,"visib":"10+","altim":1013.6,"qcField":4,"metarType":"SPECI","rawOb":"SPECI KSAT 170624Z 16014KT 10SM BKN015 BKN250 22/19 A2993 RMK AO2 T02170189","lat":29.5443,"lon":-98.4839,"elev":246,"name":"San Antonio Intl, TX, US","cover":"BKN","clouds":[{"cover":"BKN","base":1500},{"cover":"BKN","base":25000}],"fltCat":"MVFR"},{"icaoId":"KMIA","receiptTime":"2026-04-17T06:14:10.919Z","obsTime":1776406260,"reportTime":"2026-04-17T06:11:00.000Z","temp":23.9,"dewp":21.1,"wdir":60,"wspd":4,"visib":9,"altim":1017,"qcField":0,"metarType":"SPECI","rawOb":"SPECI KMIA 170611Z 06004KT 9SM SCT017 BKN024 BKN035 24/21 A3003 RMK T02390211","lat":25.7881,"lon":-80.3169,"elev":1,"name":"Miami Intl, FL, US","cover":"BKN","clouds":[{"cover":"SCT","base":1700},{"cover":"BKN","base":2400},{"cover":"BKN","base":3500}],"fltCat":"MVFR"},{"icaoId":"KORD","receiptTime":"2026-04-17T06:12:06.709Z","obsTime":1776406080,"reportTime":"2026-04-17T06:08:00.000Z","temp":9.4,"dewp":8.9,"wdir":90,"wspd":5,"visib":0.13,"altim":1014,"qcField":12,"wxString":"FG","vertVis":1,"metarType":"SPECI","rawOb":"SPECI KORD 170608Z 09005KT 1/8SM R10L/1600VP6000FT FG VV001 09/09 A2994 RMK AO2 T00940089 $","lat":41.9602,"lon":-87.9316,"elev":202,"name":"Chicago/O'Hare Intl, IL, US","cover":"OVX","clouds":[{"cover":"OVX","base":100}],"fltCat":"LIFR"},{"icaoId":"KBCE","receiptTime":"2026-04-17T06:10:08.175Z","obsTime":1776406020,"reportTime":"2026-04-17T06:07:00.000Z","temp":-2.2,"dewp":-4.4,"wdir":10,"wspd":13,"visib":"10+","altim":1014.6,"qcField":6,"metarType":"SPECI","rawOb":"SPECI KBCE 170607Z AUTO 01013KT 10SM SCT007 OVC014 M02/M04 A2996 RMK AO2 T10221044","lat":37.7013,"lon":-112.149,"elev":2311,"name":"Bryce Canyon Arpt, UT, US","cover":"OVC","clouds":[{"cover":"SCT","base":700},{"cover":"OVC","base":1400}],"fltCat":"MVFR"},{"icaoId":"KMDW","receiptTime":"2026-04-17T06:06:06.414Z","obsTime":1776405780,"reportTime":"2026-04-17T06:03:00.000Z","temp":10,"dewp":9.4,"wdir":80,"wspd":4,"visib":0.5,"altim":1014,"qcField":4,"wxString":"FG","vertVis":2,"metarType":"SPECI","rawOb":"SPECI KMDW 170603Z 08004KT 1/2SM R04R/4000FT FG VV002 10/09 A2994 RMK AO2 T01000094","lat":41.7841,"lon":-87.7552,"elev":186,"name":"Chicago/Midway Intl, IL, US","cover":"OVX","clouds":[{"cover":"OVX","base":200}],"fltCat":"LIFR"},{"icaoId":"KNYL","receiptTime":"2026-04-17T06:12:04.740Z","obsTime":1776405420,"reportTime":"2026-04-17T06:00:00.000Z","temp":21.7,"dewp":5.6,"wdir":300,"wspd":5,"visib":"10+","altim":1008.2,"slp":1008,"qcField":5,"presTend":1.6,"maxT":31.1,"minT":21.1,"metarType":"METAR","rawOb":"METAR KNYL 170557Z COR 30005KT 10SM CLR 22/06 A2977 RMK AO2 SLP080 LAST T02170056 10311 20211 51016","lat":32.66,"lon":-114.6078,"elev":58,"name":"Yuma , AZ, US","cover":"CLR","clouds":[],"fltCat":"VFR"},{"icaoId":"KNFL","receiptTime":"2026-04-17T06:00:18.124Z","obsTime":1776405420,"reportTime":"2026-04-17T06:00:00.000Z","temp":0.6,"dewp":-11.7,"wdir":10,"wspd":9,"visib":"10+","altim":1023.8,"slp":1020,"qcField":4,"presTend":2.5,"maxT":11.7,"minT":0.6,"metarType":"METAR","rawOb":"METAR KNFL 170557Z 01009KT 10SM CLR 01/M12 A3023 RMK AO2 SLP200 T00061117 10117 20006 51025","lat":39.417,"lon":-118.705,"elev":1199,"name":"Fallon , NV, US","cover":"CLR","clouds":[],"fltCat":"VFR"},{"icaoId":"KFLG","receiptTime":"2026-04-17T06:00:19.407Z","obsTime":1776405420,"reportTime":"2026-04-17T06:00:00.000Z","temp":7.2,"dewp":-11.7,"wdir":260,"wspd":6,"visib":"10+","altim":1015,"slp":1007.9,"qcField":6,"presTend":0.5,"maxT":13.9,"minT":7.2,"metarType":"METAR","rawOb":"METAR KFLG 170557Z AUTO 26006KT 10SM CLR 07/M12 A2997 RMK AO2 SLP079 T00721117 10139 20072 51005","lat":35.1443,"lon":-111.6664,"elev":2134,"name":"Flagstaff/Pulliam Arpt, AZ, US","cover":"CLR","clouds":[],"fltCat":"VFR"},{"icaoId":"KCOD","receiptTime":"2026-04-17T05:59:08.420Z","obsTime":1776405360,"reportTime":"2026-04-17T06:00:00.000Z","temp":-1.7,"dewp":-7.2,"wdir":0,"wspd":0,"visib":"10+","altim":1014.6,"slp":1016.5,"qcField":78,"presTend":1.3,"maxT":1.7,"minT":-1.7,"metarType":"METAR","rawOb":"METAR KCOD 170556Z AUTO 00000KT 10SM CLR M02/M07 A2996 RMK AO2 SLP165 T10171072 10017 21017 51013 FZRANO $","lat":44.52,"lon":-109.0268,"elev":1550,"name":"Cody/Yellowstone Rgnl, WY, US","cover":"CLR","clouds":[],"fltCat":"VFR"},{"icaoId":"KPWT","receiptTime":"2026-04-17T05:59:05.136Z","obsTime":1776405360,"reportTime":"2026-04-17T06:00:00.000Z","temp":2.8,"dewp":1.7,"wdir":0,"wspd":0,"visib":"10+","altim":1025.5,"slp":1026.2,"qcField":6,"presTend":1.2,"maxT":13.9,"minT":2.8,"metarType":"METAR","rawOb":"METAR KPWT 170556Z AUTO 00000KT 10SM CLR 03/02 A3028 RMK AO2 SLP262 6//// T00280017 10139 20028 51012","lat":47.4942,"lon":-122.7594,"elev":143,"name":"Bremerton Arpt, WA, US","cover":"CLR","clouds":[],"fltCat":"VFR"},{"icaoId":"KVIS","receiptTime":"2026-04-17T05:59:05.851Z","obsTime":1776405360,"reportTime":"2026-04-17T06:00:00.000Z","temp":13.9,"dewp":2.8,"wdir":290,"wspd":6,"visib":"10+","altim":1015.3,"slp":1015.2,"qcField":14,"presTend":1.6,"maxT":23.3,"minT":13.9,"metarType":"METAR","rawOb":"METAR KVIS 170556Z AUTO 29006KT 10SM CLR 14/03 A2998 RMK AO2 SLP152 6//// T01390028 10233 20139 51016 PNO $","lat":36.3135,"lon":-119.3884,"elev":92,"name":"Visalia Muni, CA, US","cover":"CLR","clouds":[],"fltCat":"VFR"},{"icaoId":"KLAS","receiptTime":"2026-04-17T06:00:13.940Z","obsTime":1776405360,"reportTime":"2026-04-17T06:00:00.000Z","temp":21.7,"dewp":-15,"wdir":320,"wspd":16,"wgst":26,"visib":"10+","altim":1008.9,"slp":1007,"qcField":12,"presTend":2.3,"maxT":26.1,"minT":21.7,"metarType":"METAR","rawOb":"METAR KLAS 170556Z 32016G26KT 10SM FEW250 22/M15 A2979 RMK AO2 SLP070 T02171150 10261 20217 53023 $","lat":36.0719,"lon":-115.1634,"elev":662,"name":"Las Vegas/Reid Intl, NV, US","cover":"FEW","clouds":[{"cover":"FEW","base":25000}],"fltCat":"VFR"},{"icaoId":"KSBP","receiptTime":"2026-04-17T06:00:13.275Z","obsTime":1776405360,"reportTime":"2026-04-17T06:00:00.000Z","temp":12.2,"dewp":8.9,"wdir":0,"wspd":0,"visib":"10+","altim":1014.3,"slp":1013.9,"qcField":6,"presTend":1.6,"maxT":18.9,"minT":11.7,"metarType":"METAR","rawOb":"METAR KSBP 170556Z AUTO 00000KT 10SM CLR 12/09 A2995 RMK AO2 SLP139 T01220089 10189 20117 51016","lat":35.2381,"lon":-120.644,"elev":52,"name":"San Luis Obispo/San Luis Cnty, CA, US","cover":"CLR","clouds":[],"fltCat":"VFR"},{"icaoId":"KPVU","receiptTime":"2026-04-17T05:59:06.643Z","obsTime":1776405360,"reportTime":"2026-04-17T06:00:00.000Z","temp":1.7,"dewp":-6.1,"wdir":350,"wspd":6,"visib":"10+","altim":1018.7,"slp":1017.9,"qcField":68,"presTend":1.1,"maxT":3.9,"minT":1.7,"maxT24":18.3,"minT24":1.7,"pcp6hr":0.005,"metarType":"METAR","rawOb":"METAR KPVU 170556Z 35006KT 10SM OVC120 02/M06 A3008 RMK AO2 SLP179 60000 T00171061 10039 20017 401830017 50011 FZRANO","lat":40.224,"lon":-111.7252,"elev":1370,"name":"Provo Muni, UT, US","cover":"OVC","clouds":[{"cover":"OVC","base":12000}],"fltCat":"VFR"},{"icaoId":"KSLE","receiptTime":"2026-04-17T06:00:13.333Z","obsTime":1776405360,"reportTime":"2026-04-17T06:00:00.000Z","temp":6.7,"dewp":3.3,"wdir":290,"wspd":6,"visib":"10+","altim":1027.5,"slp":1027.4,"qcField":6,"presTend":1.2,"maxT":13.9,"minT":6.7,"metarType":"METAR","rawOb":"METAR KSLE 170556Z AUTO 29006KT 10SM FEW046 07/03 A3034 RMK AO2 SLP274 T00670033 10139 20067 51012","lat":44.9049,"lon":-123.001,"elev":63,"name":"Salem Muni, OR, US","cover":"FEW","clouds":[{"cover":"FEW","base":4600}],"fltCat":"VFR"},{"icaoId":"KINW","receiptTime":"2026-04-17T06:00:09.546Z","obsTime":1776405360,"reportTime":"2026-04-17T06:00:00.000Z","temp":12.8,"dewp":-8.3,"wdir":230,"wspd":6,"visib":"10+","altim":1013,"slp":1007.5,"qcField":6,"presTend":0.5,"maxT":20,"minT":12.8,"metarType":"METAR","rawOb":"METAR KINW 170556Z AUTO 23006KT 10SM CLR 13/M08 A2991 RMK AO2 SLP075 T01281083 10200 20128 51005","lat":35.0279,"lon":-110.7221,"elev":1492,"name":"Winslow/Lindberg Rgnl, AZ, US","cover":"CLR","clouds":[],"fltCat":"VFR"},{"icaoId":"KCGZ","receiptTime":"2026-04-17T05:59:08.246Z","obsTime":1776405360,"reportTime":"2026-04-17T06:00:00.000Z","temp":22.2,"dewp":-6.7,"wdir":280,"wspd":6,"visib":"10+","altim":1009.2,"slp":1008,"qcField":14,"presTend":0.7,"maxT":30.6,"minT":21.1,"metarType":"METAR","rawOb":"METAR KCGZ 170556Z AUTO 28006KT 10SM CLR 22/M07 A2980 RMK AO2 SLP080 6//// T02221067 10306 20211 51007 $","lat":32.9531,"lon":-111.7725,"elev":444,"name":"Casa Granda Muni, AZ, US","cover":"CLR","clouds":[],"fltCat":"VFR"},{"icaoId":"KHDN","receiptTime":"2026-04-17T05:59:10.056Z","obsTime":1776405360,"reportTime":"2026-04-17T06:00:00.000Z","temp":-2.2,"dewp":-5.6,"wdir":260,"wspd":15,"wgst":19,"visib":"10+","altim":1014.6,"slp":1012.3,"qcField":70,"presTend":3.3,"maxT":15,"minT":-2.2,"maxT24":17.8,"minT24":-2.2,"metarType":"METAR","rawOb":"METAR KHDN 170556Z AUTO 26015G19KT 10SM FEW034 OVC043 M02/M06 A2996 RMK AO2 SLP123 T10221056 10150 21022 401781022 51033 FZRANO","lat":40.4842,"lon":-107.2296,"elev":2012,"name":"Hayden/Yampa Valley Arpt, CO, US","cover":"OVC","clouds":[{"cover":"FEW","base":3400},{"cover":"OVC","base":4300}],"fltCat":"VFR"},{"icaoId":"KUKI","receiptTime":"2026-04-17T06:00:13.593Z","obsTime":1776405360,"reportTime":"2026-04-17T06:00:00.000Z","temp":9.4,"dewp":5,"wdir":0,"wspd":0,"visib":"10+","altim":1020.1,"slp":1019.4,"qcField":6,"presTend":1.6,"maxT":20,"minT":8.9,"metarType":"METAR","rawOb":"METAR KUKI 170556Z AUTO 00000KT 10SM CLR 09/05 A3012 RMK AO2 SLP194 T00940050 10200 20089 50016","lat":39.1278,"lon":-123.2001,"elev":183,"name":"Ukiah Muni, CA, US","cover":"CLR","clouds":[],"fltCat":"VFR"},{"icaoId":"KSFO","receiptTime":"2026-04-17T06:00:11.213Z","obsTime":1776405360,"reportTime":"2026-04-17T06:00:00.000Z","temp":12.8,"dewp":6.7,"wdir":290,"wspd":11,"visib":"10+","altim":1017.4,"slp":1017.3,"qcField":12,"presTend":0.8,"maxT":18.3,"minT":12.8,"metarType":"METAR","rawOb":"METAR KSFO 170556Z 29011KT 10SM CLR 13/07 A3004 RMK AO2 SLP173 T01280067 10183 20128 50008 $","lat":37.6196,"lon":-122.3656,"elev":2,"name":"San Francisco Intl, CA, US","cover":"CLR","clouds":[],"fltCat":"VFR"},{"icaoId":"KCHS","receiptTime":"2026-04-17T06:00:11.003Z","obsTime":1776405360,"reportTime":"2026-04-17T06:00:00.000Z","temp":19.4,"dewp":17.2,"wdir":230,"wspd":6,"visib":"10+","altim":1017,"slp":1016.9,"qcField":4,"presTend":0.2,"maxT":21.7,"minT":18.9,"metarType":"METAR","rawOb":"METAR KCHS 170556Z 23006KT 10SM FEW250 19/17 A3003 RMK AO2 SLP169 T01940172 10217 20189 53002","lat":32.8995,"lon":-80.0407,"elev":12,"name":"Charleston Intl, SC, US","cover":"FEW","clouds":[{"cover":"FEW","base":25000}],"fltCat":"VFR"},{"icaoId":"KSDY","receiptTime":"2026-04-17T05:59:03.566Z","obsTime":1776405360,"reportTime":"2026-04-17T06:00:00.000Z","temp":-3.3,"dewp":-8.3,"wdir":310,"wspd":6,"visib":"10+","altim":1014.3,"slp":1016.3,"qcField":78,"presTend":0.4,"maxT":1.7,"minT":-3.3,"metarType":"METAR","rawOb":"METAR KSDY 170556Z AUTO 31006KT 10SM CLR M03/M08 A2995 RMK AO2 SLP163 T10331083 10017 21033 50004 FZRANO $","lat":47.7029,"lon":-104.1951,"elev":600,"name":"Sidney/Richland Muni, MT, US","cover":"CLR","clouds":[],"fltCat":"VFR"},{"icaoId":"KCOE","receiptTime":"2026-04-17T05:59:04.938Z","obsTime":1776405360,"reportTime":"2026-04-17T06:00:00.000Z","temp":3.3,"dewp":-2.8,"wdir":170,"wspd":6,"visib":"10+","altim":1019.4,"slp":1022.5,"qcField":14,"presTend":0.6,"maxT":7.8,"minT":2.2,"metarType":"METAR","rawOb":"METAR KCOE 170556Z AUTO 17006KT 10SM BKN090 03/M03 A3010 RMK AO2 SLP225 6//// T00331028 10078 20022 51006 PNO $","lat":47.7719,"lon":-116.8332,"elev":693,"name":"Coeur DAlene Arpt, ID, US","cover":"BKN","clouds":[{"cover":"BKN","base":9000}],"fltCat":"VFR"},{"icaoId":"KBZN","receiptTime":"2026-04-17T06:00:09.346Z","obsTime":1776405360,"reportTime":"2026-04-17T06:00:00.000Z","temp":-3.3,"dewp":-7.8,"wdir":210,"wspd":4,"visib":"10+","altim":1016.7,"slp":1019.9,"qcField":4,"presTend":1.2,"maxT":0,"minT":-6.7,"pcp6hr":0.04,"metarType":"METAR","rawOb":"METAR KBZN 170556Z 21004KT 10SM SCT070 BKN085 M03/M08 A3002 RMK AO2 SLP199 60004 T10331078 10000 21067 51012","lat":45.7876,"lon":-111.1615,"elev":1349,"name":"Bozeman/Gallatin Fld, MT, US","cover":"BKN","clouds":[{"cover":"SCT","base":7000},{"cover":"BKN","base":8500}],"fltCat":"VFR"},{"icaoId":"KDUG","receiptTime":"2026-04-17T06:02:10.111Z","obsTime":1776405360,"reportTime":"2026-04-17T06:00:00.000Z","temp":15,"dewp":-7.2,"wdir":280,"wspd":5,"visib":"10+","altim":1014,"slp":1008.4,"qcField":38,"presTend":0.3,"maxT":26.1,"minT":15,"metarType":"METAR","rawOb":"METAR KDUG 170556Z AUTO 28005KT 10SM CLR 15/M07 A2994 RMK AO2 SLP084 T01501072 10261 20150 50003 TSNO","lat":31.4725,"lon":-109.6022,"elev":1260,"name":"Douglas/Bisbee Intl, AZ, US","cover":"CLR","clouds":[],"fltCat":"VFR"},{"icaoId":"KJAX","receiptTime":"2026-04-17T06:00:15.509Z","obsTime":1776405360,"reportTime":"2026-04-17T06:00:00.000Z","temp":17.8,"dewp":13.9,"wdir":190,"wspd":5,"visib":"10+","altim":1018,"slp":1017.9,"qcField":4,"presTend":0.1,"maxT":25,"minT":17.8,"metarType":"METAR","rawOb":"METAR KJAX 170556Z 19005KT 10SM CLR 18/14 A3006 RMK AO2 SLP179 T01780139 10250 20178 51001","lat":30.4953,"lon":-81.6937,"elev":8,"name":"Jacksonville Intl, FL, US","cover":"CLR","clouds":[],"fltCat":"VFR"},{"icaoId":"KHND","receiptTime":"2026-04-17T05:59:10.156Z","obsTime":1776405360,"reportTime":"2026-04-17T06:00:00.000Z","temp":20,"dewp":-5.6,"wdir":10,"wspd":6,"visib":"10+","altim":1009.9,"slp":1009.6,"qcField":14,"presTend":2.2,"maxT":25,"minT":19.4,"metarType":"METAR","rawOb":"METAR KHND 170556Z AUTO 01006KT 10SM CLR 20/M06 A2982 RMK AO2 SLP096 T02001056 10250 20194 53022 $","lat":35.9657,"lon":-115.1343,"elev":740,"name":"Henderson Exec, NV, US","cover":"CLR","clouds":[],"fltCat":"VFR"},{"icaoId":"KSDF","receiptTime":"2026-04-17T06:00:16.040Z","obsTime":1776405360,"reportTime":"2026-04-17T06:00:00.000Z","temp":19.4,"dewp":9.4,"wdir":250,"wspd":7,"visib":"10+","altim":1015.7,"slp":1015.3,"qcField":4,"presTend":0.9,"maxT":25,"minT":18.9,"metarType":"METAR","rawOb":"METAR KSDF 170556Z 25007KT 10SM BKN190 19/09 A2999 RMK AO2 SLP153 T01940094 10250 20189 51009","lat":38.1774,"lon":-85.7308,"elev":146,"name":"Louisville Intl, KY, US","cover":"BKN","clouds":[{"cover":"BKN","base":19000}],"fltCat":"VFR"},{"icaoId":"KCEC","receiptTime":"2026-04-17T06:00:14.994Z","obsTime":1776405360,"reportTime":"2026-04-17T06:00:00.000Z","temp":8.9,"dewp":2.8,"wdir":10,"wspd":6,"visib":"10+","altim":1023.8,"slp":1023.9,"qcField":6,"presTend":0.2,"maxT":12.2,"minT":8.9,"metarType":"METAR","rawOb":"METAR KCEC 170556Z AUTO 01006KT 10SM CLR 09/03 A3023 RMK AO2 SLP239 T00890028 10122 20089 50002","lat":41.7836,"lon":-124.238,"elev":17,"name":"Crescent City/McNama, CA, US","cover":"CLR","clouds":[],"fltCat":"VFR"},{"icaoId":"KTPH","receiptTime":"2026-04-17T06:00:13.545Z","obsTime":1776405360,"reportTime":"2026-04-17T06:00:00.000Z","temp":2.2,"dewp":-15.6,"wdir":360,"wspd":14,"wgst":24,"visib":"10+","altim":1020.4,"slp":1018.6,"qcField":6,"presTend":3.8,"maxT":12.8,"minT":2.2,"metarType":"METAR","rawOb":"METAR KTPH 170556Z AUTO 36014G24KT 10SM CLR 02/M16 A3013 RMK AO2 PK WND 35027/0509 SLP186 T00221156 10128 20022 53038","lat":38.0505,"lon":-117.0906,"elev":1647,"name":"Tonopah Arpt, NV, US","cover":"CLR","clouds":[],"fltCat":"VFR"},{"icaoId":"KRDM","receiptTime":"2026-04-17T06:00:13.160Z","obsTime":1776405360,"reportTime":"2026-04-17T06:00:00.000Z","temp":-3.9,"dewp":-7.2,"wdir":150,"wspd":5,"visib":"10+","altim":1024.5,"slp":1026.3,"qcField":6,"presTend":0.4,"maxT":8.9,"minT":-3.9,"metarType":"METAR","rawOb":"METAR KRDM 170556Z AUTO 15005KT 10SM CLR M04/M07 A3025 RMK AO2 SLP263 T10391072 10089 21039 51004","lat":44.2558,"lon":-121.1407,"elev":930,"name":"Redmond Muni, OR, US","cover":"CLR","clouds":[],"fltCat":"VFR"},{"icaoId":"KEKO","receiptTime":"2026-04-17T06:00:12.440Z","obsTime":1776405360,"reportTime":"2026-04-17T06:00:00.000Z","temp":-5,"dewp":-10,"wdir":200,"wspd":3,"visib":"10+","altim":1022.4,"slp":1025.3,"qcField":6,"presTend":1.6,"maxT":2.2,"minT":-5.6,"pcp6hr":0.005,"metarType":"METAR","rawOb":"METAR KEKO 170556Z AUTO 20003KT 10SM FEW045 M05/M10 A3019 RMK AO2 SLP253 60000 T10501100 10022 21056 51016","lat":40.824,"lon":-115.7863,"elev":1541,"name":"Elko Rgnl, NV, US","cover":"FEW","clouds":[{"cover":"FEW","base":4500}],"fltCat":"VFR"},{"icaoId":"KLWS","receiptTime":"2026-04-17T06:00:09.570Z","obsTime":1776405360,"reportTime":"2026-04-17T06:00:00.000Z","temp":8.9,"dewp":-4.4,"wdir":0,"wspd":0,"visib":"10+","altim":1021.1,"slp":1021.5,"qcField":6,"presTend":0.6,"maxT":11.7,"minT":7.8,"metarType":"METAR","rawOb":"METAR KLWS 170556Z AUTO 00000KT 10SM OVC100 09/M04 A3015 RMK AO2 SLP215 T00891044 10117 20078 50006","lat":46.3746,"lon":-117.0153,"elev":435,"name":"Lewiston/Nez Perce Cnty, ID, US","cover":"OVC","clouds":[{"cover":"OVC","base":10000}],"fltCat":"VFR"},{"icaoId":"KENV","receiptTime":"2026-04-17T05:58:57.297Z","obsTime":1776405360,"reportTime":"2026-04-17T06:00:00.000Z","temp":0.6,"dewp":-12.2,"wdir":330,"wspd":14,"wgst":20,"visib":"10+","altim":1021.8,"slp":1023.1,"qcField":70,"presTend":1.5,"maxT":5.6,"minT":0,"maxT24":15.6,"metarType":"METAR","rawOb":"METAR KENV 170556Z AUTO 33014G20KT 10SM CLR 01/M12 A3017 RMK AO2 SLP231 T00061122 10056 20000 401560000 50015 FZRANO","lat":40.7211,"lon":-114.0312,"elev":1291,"name":"Wendover Arpt, UT, US","cover":"CLR","clouds":[],"fltCat":"VFR"},{"icaoId":"KEGE","receiptTime":"2026-04-17T05:58:57.172Z","obsTime":1776405360,"reportTime":"2026-04-17T06:00:00.000Z","temp":11.7,"dewp":-12.2,"wdir":260,"wspd":5,"visib":"10+","altim":1007.9,"slp":1001.2,"qcField":6,"presTend":-0.5,"maxT":15.6,"minT":11.1,"maxT24":18.3,"minT24":-1.7,"metarType":"METAR","rawOb":"METAR KEGE 170556Z AUTO 26005KT 10SM OVC120 12/M12 A2976 RMK AO2 SLP012 T01171122 10156 20111 401831017 58005","lat":39.6448,"lon":-106.9176,"elev":1993,"name":"Eagle Cnty Rgnl, CO, US","cover":"OVC","clouds":[{"cover":"OVC","base":12000}],"fltCat":"VFR"},{"icaoId":"KJAC","receiptTime":"2026-04-17T05:58:58.952Z","obsTime":1776405360,"reportTime":"2026-04-17T06:00:00.000Z","temp":-7.2,"dewp":-8.3,"wdir":240,"wspd":5,"visib":"10+","altim":1015,"slp":1019.8,"qcField":70,"wxString":"-SN","presTend":1.5,"maxT":-3.9,"minT":-7.2,"precip":0.005,"pcp6hr":0.005,"metarType":"METAR","rawOb":"METAR KJAC 170556Z AUTO 24005KT 10SM -SN OVC050 M07/M08 A2997 RMK AO2 SNB52 SLP198 P0000 60000 T10721083 11039 21072 51015 FZRANO","lat":43.6129,"lon":-110.7366,"elev":1967,"name":"Jackson Hole Arpt, WY, US","cover":"OVC","clouds":[{"cover":"OVC","base":5000}],"fltCat":"VFR"},{"icaoId":"KFNL","receiptTime":"2026-04-17T05:58:57.710Z","obsTime":1776405360,"reportTime":"2026-04-17T06:00:00.000Z","temp":11.7,"dewp":-2.8,"wdir":20,"wspd":22,"wgst":25,"visib":"10+","altim":1004.1,"slp":998.5,"qcField":14,"presTend":0.8,"maxT":22.2,"minT":11.7,"metarType":"METAR","rawOb":"METAR KFNL 170556Z AUTO 02022G25KT 10SM CLR 12/M03 A2965 RMK AO2 PK WND 03027/0542 SLP985 T01171028 10222 20117 51008 $","lat":40.4427,"lon":-105.0097,"elev":1529,"name":"Fort Collins/N Colorado Rgnl, CO, US","cover":"CLR","clouds":[],"fltCat":"VFR"},{"icaoId":"KGUC","receiptTime":"2026-04-17T05:58:58.124Z","obsTime":1776405360,"reportTime":"2026-04-17T06:00:00.000Z","temp":5.6,"dewp":-9.4,"wdir":"VRB","wspd":5,"visib":"10+","altim":1010.6,"slp":1005.6,"qcField":14,"presTend":-0.5,"maxT":12.8,"minT":5.6,"maxT24":16.7,"minT24":-5.6,"metarType":"METAR","rawOb":"METAR KGUC 170556Z AUTO VRB05KT 10SM CLR 06/M09 A2984 RMK AO2 SLP056 T00561094 10128 20056 401671056 58005 $","lat":38.5322,"lon":-106.9419,"elev":2337,"name":"Gunnison Arpt, CO, US","cover":"CLR","clouds":[],"fltCat":"VFR"},{"icaoId":"KSGU","receiptTime":"2026-04-17T05:59:03.761Z","obsTime":1776405360,"reportTime":"2026-04-17T06:00:00.000Z","temp":13.3,"dewp":-8.3,"wdir":60,"wspd":12,"wgst":25,"visib":"10+","altim":1010.9,"slp":1008.9,"qcField":6,"presTend":4.9,"maxT":25,"minT":13.3,"metarType":"METAR","rawOb":"METAR KSGU 170556Z AUTO 06012G25KT 10SM OVC110 13/M08 A2985 RMK AO2 PK WND 05038/0459 SLP089 T01331083 10250 20133 53049","lat":37.0444,"lon":-113.5034,"elev":877,"name":"Saint George Muni, UT, US","cover":"OVC","clouds":[{"cover":"OVC","base":11000}],"fltCat":"VFR"},{"icaoId":"KCMA","receiptTime":"2026-04-17T05:59:08.367Z","obsTime":1776405300,"reportTime":"2026-04-17T06:00:00.000Z","temp":13.9,"dewp":11.7,"wdir":0,"wspd":0,"visib":"10+","altim":1012.3,"slp":1013.1,"qcField":6,"presTend":0.9,"maxT":19.4,"minT":13.9,"metarType":"METAR","rawOb":"METAR KCMA 170555Z AUTO 00000KT 10SM CLR 14/12 A2989 RMK AO2 SLP131 T01390117 10194 20139 51009","lat":34.2114,"lon":-119.0876,"elev":20,"name":"Camarillo Arpt, CA, US","cover":"CLR","clouds":[],"fltCat":"VFR"},{"icaoId":"KEND","receiptTime":"2026-04-17T06:16:05.535Z","obsTime":1776405300,"reportTime":"2026-04-17T06:00:00.000Z","temp":23.1,"dewp":18.8,"wdir":170,"wspd":16,"visib":"10+","altim":1006.9,"slp":1005.5,"qcField":14,"presTend":0.5,"maxT":27.6,"minT":23.1,"maxT24":31.6,"minT24":14.2,"metarType":"METAR","rawOb":"METAR KEND 170555Z AUTO 17016KT 10SM CLR 23/19 A2973 RMK AO2 SLP055 T02310188 10276 20231 403160142 52005 $","lat":36.338,"lon":-97.919,"elev":392,"name":"Enid/Vance AFB, OK, US","cover":"CLR","clouds":[],"fltCat":"VFR"},{"icaoId":"KAST","receiptTime":"2026-04-17T05:59:04.871Z","obsTime":1776405300,"reportTime":"2026-04-17T06:00:00.000Z","temp":7.2,"dewp":5,"wdir":260,"wspd":4,"visib":"10+","altim":1027.9,"slp":1027.6,"qcField":6,"wxString":"-RA","presTend":0.6,"maxT":11.1,"minT":6.1,"precip":0.01,"pcp6hr":0.01,"metarType":"METAR","rawOb":"METAR KAST 170555Z AUTO 26004KT 10SM -RA OVC035 07/05 A3035 RMK AO2 RAB21 SLP276 P0001 60001 T00720050 10111 20061 51006","lat":46.157,"lon":-123.8833,"elev":3,"name":"Astoria Rgnl, OR, US","cover":"OVC","clouds":[{"cover":"OVC","base":3500}],"fltCat":"VFR"},{"icaoId":"KGPI","receiptTime":"2026-04-17T05:58:58.069Z","obsTime":1776405300,"reportTime":"2026-04-17T06:00:00.000Z","temp":0,"dewp":-1.7,"wdir":160,"wspd":4,"visib":"10+","altim":1017.4,"slp":1020,"qcField":4,"presTend":0.4,"maxT":0.6,"minT":-0.6,"precip":0.005,"pcp6hr":0.005,"metarType":"METAR","rawOb":"METAR KGPI 170555Z 16004KT 10SM SCT040 BKN048 OVC060 00/M02 A3004 RMK AO2 SNB30E44 SLP200 P0000 60000 T00001017 10006 21006 50004","lat":48.3041,"lon":-114.2643,"elev":903,"name":"Kalispell/Glacier Park Intl, MT, US","cover":"OVC","clouds":[{"cover":"SCT","base":4000},{"cover":"BKN","base":4800},{"cover":"OVC","base":6000}],"fltCat":"VFR"},{"icaoId":"KLUF","receiptTime":"2026-04-17T06:12:07.026Z","obsTime":1776405300,"reportTime":"2026-04-17T06:00:00.000Z","temp":22.9,"dewp":-2.7,"wdir":210,"wspd":8,"visib":"10+","altim":1007.9,"slp":1006.7,"qcField":14,"presTend":1.2,"maxT":31.1,"minT":22.9,"metarType":"METAR","rawOb":"METAR KLUF 170555Z AUTO 21008KT 10SM BKN200 23/M03 A2976 RMK AO2 SLP067 T02291027 10311 20229 51012 $","lat":33.538,"lon":-112.38,"elev":333,"name":"Phoenix/Luke AFB, AZ, US","cover":"BKN","clouds":[{"cover":"BKN","base":20000}],"fltCat":"VFR"},{"icaoId":"KRNO","receiptTime":"2026-04-17T05:59:01.958Z","obsTime":1776405300,"reportTime":"2026-04-17T06:00:00.000Z","temp":2.8,"dewp":-11.7,"wdir":80,"wspd":9,"visib":"10+","altim":1023.8,"slp":1023,"qcField":4,"presTend":2.2,"maxT":12.8,"minT":2.8,"metarType":"METAR","rawOb":"METAR KRNO 170555Z 08009KT 10SM CLR 03/M12 A3023 RMK AO2 SLP230 T00281117 10128 20028 51022","lat":39.5077,"lon":-119.7683,"elev":1344,"name":"Reno/Tahoe Intl, NV, US","cover":"CLR","clouds":[],"fltCat":"VFR"},{"icaoId":"KIND","receiptTime":"2026-04-17T05:58:36.624Z","obsTime":1776405240,"reportTime":"2026-04-17T06:00:00.000Z","temp":17.2,"dewp":10.6,"wdir":0,"wspd":0,"visib":"10+","altim":1014.6,"slp":1014.1,"qcField":4,"presTend":0.6,"maxT":22.8,"minT":16.7,"metarType":"METAR","rawOb":"METAR KIND 170554Z 00000KT 10SM SCT250 17/11 A2996 RMK AO2 SLP141 T01720106 10228 20167 50006","lat":39.7252,"lon":-86.2816,"elev":242,"name":"Indianapolis Intl, IN, US","cover":"SCT","clouds":[{"cover":"SCT","base":25000}],"fltCat":"VFR"},{"icaoId":"KMEM","receiptTime":"2026-04-17T05:58:42.640Z","obsTime":1776405240,"reportTime":"2026-04-17T06:00:00.000Z","temp":21.7,"dewp":15,"wdir":100,"wspd":9,"visib":"10+","altim":1016,"slp":1015.6,"qcField":12,"presTend":0.2,"maxT":27.2,"minT":21.7,"maxT24":28.9,"minT24":18.3,"metarType":"METAR","rawOb":"METAR KMEM 170554Z 10009KT 10SM CLR 22/15 A3000 RMK AO2 SLP156 T02170150 10272 20217 402890183 50002 $","lat":35.0564,"lon":-89.9864,"elev":78,"name":"Memphis Intl, TN, US","cover":"CLR","clouds":[],"fltCat":"VFR"},{"icaoId":"KSJN","receiptTime":"2026-04-17T05:58:53.505Z","obsTime":1776405240,"reportTime":"2026-04-17T06:00:00.000Z","temp":11.7,"dewp":-11.1,"wdir":0,"wspd":0,"visib":"10+","altim":1013.6,"slp":1006.2,"qcField":6,"presTend":0.1,"maxT":20,"minT":11.1,"metarType":"METAR","rawOb":"METAR KSJN 170554Z AUTO 00000KT 10SM CLR 12/M11 A2993 RMK AO2 SLP062 T01171111 10200 20111 50001","lat":34.5184,"lon":-109.3801,"elev":1747,"name":"St Johns Ind Arpt, AZ, US","cover":"CLR","clouds":[],"fltCat":"VFR"},{"icaoId":"KRIC","receiptTime":"2026-04-17T05:58:31.222Z","obsTime":1776405240,"reportTime":"2026-04-17T06:00:00.000Z","temp":24.4,"dewp":8.9,"wdir":270,"wspd":10,"visib":"10+","altim":1010.6,"slp":1010.6,"qcField":4,"presTend":-0.1,"maxT":26.1,"minT":23.9,"metarType":"METAR","rawOb":"METAR KRIC 170554Z 27010KT 10SM CLR 24/09 A2984 RMK AO2 SLP106 T02440089 10261 20239 55001","lat":37.5115,"lon":-77.3234,"elev":51,"name":"Richmond Intl, VA, US","cover":"CLR","clouds":[],"fltCat":"VFR"},{"icaoId":"KFFZ","receiptTime":"2026-04-17T05:58:34.146Z","obsTime":1776405240,"reportTime":"2026-04-17T06:00:00.000Z","temp":23.3,"dewp":-1.7,"wdir":270,"wspd":6,"visib":"10+","altim":1008.5,"slp":1006.2,"qcField":4,"presTend":0.9,"maxT":30,"minT":23.3,"metarType":"METAR","rawOb":"METAR KFFZ 170554Z 27006KT 10SM CLR 23/M02 A2978 RMK AO2 SLP062 T02331017 10300 20233 50009","lat":33.4659,"lon":-111.7212,"elev":420,"name":"Mesa/Falcon Fld, AZ, US","cover":"CLR","clouds":[],"fltCat":"VFR"},{"icaoId":"KCOS","receiptTime":"2026-04-17T05:58:36.429Z","obsTime":1776405240,"reportTime":"2026-04-17T06:00:00.000Z","temp":13.9,"dewp":-14.4,"wdir":200,"wspd":8,"visib":"10+","altim":1007.2,"slp":1000.2,"qcField":4,"maxT":21.7,"minT":13.9,"metarType":"METAR","rawOb":"METAR KCOS 170554Z 20008KT 10SM FEW130 SCT200 14/M14 A2974 RMK AO2 PK WND 23031/0539 SLP002 T01391144 10217 20139 55000","lat":38.8095,"lon":-104.6887,"elev":1886,"name":"Colorado Spring Arpt, CO, US","cover":"SCT","clouds":[{"cover":"FEW","base":13000},{"cover":"SCT","base":20000}],"fltCat":"VFR"},{"icaoId":"KOLM","receiptTime":"2026-04-17T05:58:42.790Z","obsTime":1776405240,"reportTime":"2026-04-17T06:00:00.000Z","temp":6.1,"dewp":2.8,"wdir":210,"wspd":8,"visib":"10+","altim":1026.5,"slp":1026.4,"qcField":4,"presTend":1.1,"maxT":13.3,"minT":5.6,"metarType":"METAR","rawOb":"METAR KOLM 170554Z 21008KT 10SM CLR 06/03 A3031 RMK AO2 SLP264 T00610028 10133 20056 51011","lat":46.9737,"lon":-122.9049,"elev":58,"name":"Olympia Rgnl, WA, US","cover":"CLR","clouds":[],"fltCat":"VFR"},{"icaoId":"KRKS","receiptTime":"2026-04-17T05:58:42.864Z","obsTime":1776405240,"reportTime":"2026-04-17T06:00:00.000Z","temp":-5.6,"dewp":-10,"wdir":260,"wspd":17,"visib":"10+","altim":1015,"slp":1014.1,"qcField":6,"presTend":0.9,"maxT":-2.2,"minT":-6.1,"pcp6hr":0.005,"metarType":"METAR","rawOb":"METAR KRKS 170554Z AUTO 26017KT 10SM BKN110 M06/M10 A2997 RMK AO2 SLP141 60000 T10561100 11022 21061 51009","lat":41.5947,"lon":-109.0529,"elev":2062,"name":"Rock Springs/SW Wyoming Rgnl, WY, US","cover":"BKN","clouds":[{"cover":"BKN","base":11000}],"fltCat":"VFR"},{"icaoId":"KGSO","receiptTime":"2026-04-17T05:58:50.590Z","obsTime":1776405240,"reportTime":"2026-04-17T06:00:00.000Z","temp":20.6,"dewp":10,"wdir":260,"wspd":5,"visib":"10+","altim":1014,"slp":1012.9,"qcField":4,"presTend":0.2,"maxT":25.6,"minT":20.6,"metarType":"METAR","rawOb":"METAR KGSO 170554Z 26005KT 10SM FEW110 FEW250 21/10 A2994 RMK AO2 SLP129 T02060100 10256 20206 50002","lat":36.0969,"lon":-79.9432,"elev":275,"name":"Greensboro Intl, NC, US","cover":"FEW","clouds":[{"cover":"FEW","base":11000},{"cover":"FEW","base":25000}],"fltCat":"VFR"},{"icaoId":"KBFL","receiptTime":"2026-04-17T05:58:53.865Z","obsTime":1776405240,"reportTime":"2026-04-17T06:00:00.000Z","temp":11.7,"dewp":4.4,"wdir":340,"wspd":7,"visib":"10+","altim":1015.3,"slp":1015,"qcField":4,"presTend":2.4,"maxT":23.3,"minT":11.7,"metarType":"METAR","rawOb":"METAR KBFL 170554Z 34007KT 10SM CLR 12/04 A2998 RMK AO2 SLP150 T01170044 10233 20117 51024","lat":35.4342,"lon":-119.0552,"elev":146,"name":"Bakersfield/Meadows Arpt, CA, US","cover":"CLR","clouds":[],"fltCat":"VFR"},{"icaoId":"KEUG","receiptTime":"2026-04-17T05:58:53.945Z","obsTime":1776405240,"reportTime":"2026-04-17T06:00:00.000Z","temp":3.9,"dewp":2.2,"wdir":30,"wspd":5,"visib":"10+","altim":1027.5,"slp":1027.7,"qcField":4,"presTend":1.2,"maxT":13.3,"minT":3.9,"metarType":"METAR","rawOb":"METAR KEUG 170554Z 03005KT 10SM CLR 04/02 A3034 RMK AO2 SLP277 T00390022 10133 20039 51012","lat":44.1331,"lon":-123.2156,"elev":109,"name":"Eugene/Mahlon Sweet Fld, OR, US","cover":"CLR","clouds":[],"fltCat":"VFR"},{"icaoId":"KDSM","receiptTime":"2026-04-17T05:58:36.378Z","obsTime":1776405240,"reportTime":"2026-04-17T06:00:00.000Z","temp":18.3,"dewp":11.1,"wdir":140,"wspd":12,"visib":"10+","altim":1008.2,"slp":1007.6,"qcField":4,"presTend":-0.7,"maxT":26.7,"minT":18.3,"maxT24":27.8,"minT24":10,"metarType":"METAR","rawOb":"METAR KDSM 170554Z 14012KT 10SM FEW250 18/11 A2977 RMK AO2 SLP076 T01830111 10267 20183 402780100 58007","lat":41.5339,"lon":-93.6531,"elev":286,"name":"Des Moines Intl, IA, US","cover":"FEW","clouds":[{"cover":"FEW","base":25000}],"fltCat":"VFR"},{"icaoId":"KPHL","receiptTime":"2026-04-17T05:58:42.802Z","obsTime":1776405240,"reportTime":"2026-04-17T06:00:00.000Z","temp":24.4,"dewp":13.3,"wdir":340,"wspd":10,"visib":"10+","altim":1008.5,"slp":1008.3,"qcField":12,"presTend":1.4,"maxT":28.9,"minT":23.9,"metarType":"METAR","rawOb":"METAR KPHL 170554Z 34010KT 10SM FEW060 BKN130 24/13 A2978 RMK AO2 PK WND 33026/0507 SLP083 T02440133 10289 20239 50014 $","lat":39.8733,"lon":-75.2268,"elev":2,"name":"Philadelphia Intl, PA, US","cover":"BKN","clouds":[{"cover":"FEW","base":6000},{"cover":"BKN","base":13000}],"fltCat":"VFR"},{"icaoId":"KSLC","receiptTime":"2026-04-17T05:58:42.888Z","obsTime":1776405240,"reportTime":"2026-04-17T06:00:00.000Z","temp":1.7,"dewp":-7.8,"wdir":10,"wspd":10,"visib":"10+","altim":1019.4,"slp":1018.9,"qcField":12,"presTend":0.9,"maxT":3.3,"minT":1.7,"precip":0.005,"pcp6hr":0.005,"metarType":"METAR","rawOb":"METAR KSLC 170554Z 01010KT 10SM FEW035 BKN060 BKN090 02/M08 A3010 RMK AO2 SNE0456 SLP189 P0000 60000 T00171078 10033 20017 51009 $","lat":40.7707,"lon":-111.965,"elev":1286,"name":"Salt Lake City Intl, UT, US","cover":"BKN","clouds":[{"cover":"FEW","base":3500},{"cover":"BKN","base":6000},{"cover":"BKN","base":9000}],"fltCat":"VFR"},{"icaoId":"KAPC","receiptTime":"2026-04-17T05:58:53.842Z","obsTime":1776405240,"reportTime":"2026-04-17T06:00:00.000Z","temp":15,"dewp":-5,"wdir":350,"wspd":14,"wgst":23,"visib":"10+","altim":1017,"slp":1015.9,"qcField":6,"presTend":0.4,"maxT":21.7,"minT":12.8,"metarType":"METAR","rawOb":"METAR KAPC 170554Z AUTO 35014G23KT 10SM CLR 15/M05 A3003 RMK AO2 SLP159 T01501050 10217 20128 50004","lat":38.2075,"lon":-122.2804,"elev":5,"name":"Napa Cnty Arpt, CA, US","cover":"CLR","clouds":[],"fltCat":"VFR"},{"icaoId":"KGCN","receiptTime":"2026-04-17T05:58:53.989Z","obsTime":1776405240,"reportTime":"2026-04-17T06:00:00.000Z","temp":7.8,"dewp":-9.4,"wdir":240,"wspd":8,"visib":"10+","altim":1014,"slp":1007.6,"qcField":6,"presTend":0.6,"maxT":14.4,"minT":6.1,"metarType":"METAR","rawOb":"METAR KGCN 170554Z AUTO 24008KT 10SM CLR 08/M09 A2994 RMK AO2 SLP076 T00781094 10144 20061 50006","lat":35.9458,"lon":-112.1554,"elev":1993,"name":"Grand Canyon Park Arpt, AZ, US","cover":"CLR","clouds":[],"fltCat":"VFR"},{"icaoId":"KOLS","receiptTime":"2026-04-17T05:58:38.906Z","obsTime":1776405240,"reportTime":"2026-04-17T06:00:00.000Z","temp":13.9,"dewp":-8.9,"wdir":90,"wspd":4,"visib":"10+","altim":1013.6,"slp":1008.2,"qcField":6,"presTend":0.4,"maxT":26.1,"minT":13.9,"metarType":"METAR","rawOb":"METAR KOLS 170554Z AUTO 09004KT 10SM CLR 14/M09 A2993 RMK AO2 SLP082 T01391089 10261 20139 50004","lat":31.4208,"lon":-110.8465,"elev":1194,"name":"Nogales Intl, AZ, US","cover":"CLR","clouds":[],"fltCat":"VFR"},{"icaoId":"KBOS","receiptTime":"2026-04-17T05:58:50.511Z","obsTime":1776405240,"reportTime":"2026-04-17T06:00:00.000Z","temp":11.1,"dewp":8.9,"wdir":140,"wspd":4,"visib":6,"altim":1007.9,"slp":1007.6,"qcField":4,"wxString":"BR","presTend":1.3,"maxT":12.8,"minT":7.2,"metarType":"METAR","rawOb":"METAR KBOS 170554Z 14004KT 6SM BR FEW003 FEW120 11/09 A2976 RMK AO2 SLP076 T01110089 10128 20072 53013","lat":42.3606,"lon":-71.0097,"elev":4,"name":"Boston/Logan Intl, MA, US","cover":"FEW","clouds":[{"cover":"FEW","base":300},{"cover":"FEW","base":12000}],"fltCat":"VFR"},{"icaoId":"KBWI","receiptTime":"2026-04-17T05:58:50.539Z","obsTime":1776405240,"reportTime":"2026-04-17T06:00:00.000Z","temp":23.9,"dewp":13.9,"wdir":290,"wspd":14,"visib":"10+","altim":1009.6,"slp":1009.4,"qcField":4,"presTend":1.7,"maxT":27.8,"minT":23.9,"metarType":"METAR","rawOb":"METAR KBWI 170554Z 29014KT 10SM BKN110 BKN250 24/14 A2981 RMK AO2 SLP094 T02390139 10278 20239 51017","lat":39.1733,"lon":-76.684,"elev":42,"name":"Baltimore-Washington Intl, MD, US","cover":"BKN","clouds":[{"cover":"BKN","base":11000},{"cover":"BKN","base":25000}],"fltCat":"VFR"},{"icaoId":"KRDD","receiptTime":"2026-04-17T05:56:21.260Z","obsTime":1776405180,"reportTime":"2026-04-17T06:00:00.000Z","temp":12.8,"dewp":-5.6,"wdir":350,"wspd":7,"visib":"10+","altim":1021.8,"slp":1021.3,"qcField":6,"presTend":1.7,"maxT":18.9,"minT":12.8,"metarType":"METAR","rawOb":"METAR KRDD 170553Z AUTO 35007KT 10SM CLR 13/M06 A3017 RMK AO2 SLP213 T01281056 10189 20128 51017","lat":40.5146,"lon":-122.2977,"elev":152,"name":"Redding Muni, CA, US","cover":"CLR","clouds":[],"fltCat":"VFR"},{"icaoId":"KCYS","receiptTime":"2026-04-17T05:56:23.708Z","obsTime":1776405180,"reportTime":"2026-04-17T06:00:00.000Z","temp":2.8,"dewp":-6.1,"wdir":340,"wspd":23,"wgst":43,"visib":"10+","altim":1007.9,"slp":1003.1,"qcField":6,"presTend":2.8,"maxT":18.3,"minT":2.8,"metarType":"METAR","rawOb":"METAR KCYS 170553Z AUTO 34023G43KT 10SM CLR 03/M06 A2976 RMK AO2 PK WND 34043/0550 SLP031 T00281061 10183 20028 51028","lat":41.1579,"lon":-104.8081,"elev":1868,"name":"Cheyenne Rgnl, WY, US","cover":"CLR","clouds":[],"fltCat":"VFR"},{"icaoId":"KFUL","receiptTime":"2026-04-17T05:56:18.668Z","obsTime":1776405180,"reportTime":"2026-04-17T06:00:00.000Z","temp":16.1,"dewp":12.2,"wdir":0,"wspd":0,"visib":"10+","altim":1012.6,"slp":1012.3,"qcField":6,"presTend":1.1,"maxT":22.2,"minT":16.1,"metarType":"METAR","rawOb":"METAR KFUL 170553Z AUTO 00000KT 10SM CLR 16/12 A2990 RMK AO2 SLP123 T01610122 10222 20161 51011","lat":33.8715,"lon":-117.9856,"elev":23,"name":"Fullerton Muni, CA, US","cover":"CLR","clouds":[],"fltCat":"VFR"},{"icaoId":"KSDL","receiptTime":"2026-04-17T05:56:21.304Z","obsTime":1776405180,"reportTime":"2026-04-17T06:00:00.000Z","temp":23.9,"dewp":-1.1,"wdir":250,"wspd":9,"visib":"10+","altim":1009.2,"slp":1006.9,"qcField":6,"presTend":1,"maxT":29.4,"minT":23.3,"metarType":"METAR","rawOb":"METAR KSDL 170553Z AUTO 25009KT 10SM CLR 24/M01 A2980 RMK AO2 SLP069 T02391011 10294 20233 51010","lat":33.6123,"lon":-111.9232,"elev":438,"name":"Scottsdale Muni, AZ, US","cover":"CLR","clouds":[],"fltCat":"VFR"},{"icaoId":"KASE","receiptTime":"2026-04-17T05:56:22.504Z","obsTime":1776405180,"reportTime":"2026-04-17T06:00:00.000Z","temp":9.4,"dewp":-14.4,"wdir":190,"wspd":4,"visib":"10+","altim":1009.2,"slp":999.5,"qcField":14,"maxT":15.6,"minT":9.4,"metarType":"METAR","rawOb":"METAR KASE 170553Z AUTO 19004KT 10SM CLR 09/M14 A2980 RMK AO2 SLP995 6//// T00941144 10156 20094 $","lat":39.2299,"lon":-106.8705,"elev":2384,"name":"Aspen/Pitkin Cnty, CO, US","cover":"CLR","clouds":[],"fltCat":"VFR"},{"icaoId":"KTUL","receiptTime":"2026-04-17T05:56:21.953Z","obsTime":1776405180,"reportTime":"2026-04-17T06:00:00.000Z","temp":22.8,"dewp":19.4,"wdir":170,"wspd":9,"visib":"10+","altim":1010.2,"slp":1009.3,"qcField":4,"presTend":-0.3,"maxT":27.2,"minT":22.8,"maxT24":27.8,"minT24":17.2,"metarType":"METAR","rawOb":"METAR KTUL 170553Z 17009KT 10SM SCT150 SCT250 23/19 A2983 RMK AO2 SLP093 T02280194 10272 20228 402780172 58003","lat":36.1985,"lon":-95.8782,"elev":196,"name":"Tulsa Intl Arpt, OK, US","cover":"SCT","clouds":[{"cover":"SCT","base":15000},{"cover":"SCT","base":25000}],"fltCat":"VFR"},{"icaoId":"KTWF","receiptTime":"2026-04-17T05:56:22.001Z","obsTime":1776405180,"reportTime":"2026-04-17T06:00:00.000Z","temp":-2.2,"dewp":-5.6,"wdir":230,"wspd":11,"visib":"10+","altim":1021.4,"slp":1022,"qcField":6,"presTend":1.5,"maxT":2.2,"minT":-2.2,"pcp6hr":0.005,"metarType":"METAR","rawOb":"METAR KTWF 170553Z AUTO 23011KT 10SM CLR M02/M06 A3016 RMK AO2 SLP220 60000 T10221056 10022 21022 51015","lat":42.4785,"lon":-114.4775,"elev":1269,"name":"Twin Falls/Joslin Fld, ID, US","cover":"CLR","clouds":[],"fltCat":"VFR"},{"icaoId":"KHLN","receiptTime":"2026-04-17T05:56:21.787Z","obsTime":1776405180,"reportTime":"2026-04-17T06:00:00.000Z","temp":1.1,"dewp":-7.2,"wdir":280,"wspd":8,"wgst":19,"visib":"10+","altim":1016,"slp":1019.4,"qcField":6,"presTend":1.2,"maxT":3.9,"minT":1.1,"metarType":"METAR","rawOb":"METAR KHLN 170553Z AUTO 28008G19KT 10SM BKN120 01/M07 A3000 RMK AO2 SLP194 T00111072 10039 20011 50012","lat":46.6045,"lon":-111.9892,"elev":1178,"name":"Helena Rgnl, MT, US","cover":"BKN","clouds":[{"cover":"BKN","base":12000}],"fltCat":"VFR"},{"icaoId":"KIDA","receiptTime":"2026-04-17T05:56:21.821Z","obsTime":1776405180,"reportTime":"2026-04-17T06:00:00.000Z","temp":-2.2,"dewp":-4.4,"wdir":190,"wspd":8,"visib":"10+","altim":1018.4,"slp":1020.5,"qcField":6,"presTend":1,"maxT":0,"minT":-2.2,"precip":0.005,"pcp6hr":0.01,"metarType":"METAR","rawOb":"METAR KIDA 170553Z AUTO 19008KT 10SM FEW100 M02/M04 A3007 RMK AO2 SNE0454 SLP205 P0000 60001 T10221044 10000 21022 51010","lat":43.5204,"lon":-112.0675,"elev":1444,"name":"Idaho Falls Rgnl, ID, US","cover":"FEW","clouds":[{"cover":"FEW","base":10000}],"fltCat":"VFR"},{"icaoId":"KMFR","receiptTime":"2026-04-17T05:56:21.876Z","obsTime":1776405180,"reportTime":"2026-04-17T06:00:00.000Z","temp":5.6,"dewp":-1.7,"wdir":130,"wspd":3,"visib":"10+","altim":1025.5,"slp":1025.9,"qcField":6,"presTend":0.7,"maxT":13.3,"minT":3.3,"pcp6hr":0.005,"metarType":"METAR","rawOb":"METAR KMFR 170553Z AUTO 13003KT 10SM CLR 06/M02 A3028 RMK AO2 SLP259 60000 T00561017 10133 20033 51007","lat":42.375,"lon":-122.877,"elev":397,"name":"Medford/Rogue Valley Intl, OR, US","cover":"CLR","clouds":[],"fltCat":"VFR"},{"icaoId":"KVGT","receiptTime":"2026-04-17T05:56:22.097Z","obsTime":1776405180,"reportTime":"2026-04-17T06:00:00.000Z","temp":21.1,"dewp":-16.1,"wdir":310,"wspd":19,"visib":"10+","altim":1008.2,"slp":1008.2,"qcField":6,"presTend":2.7,"maxT":27.2,"minT":21.1,"metarType":"METAR","rawOb":"METAR KVGT 170553Z AUTO 31019KT 10SM CLR 21/M16 A2977 RMK AO2 PK WND 30028/0539 SLP082 T02111161 10272 20211 53027","lat":36.212,"lon":-115.194,"elev":664,"name":"Las Vegas/North Arpt, NV, US","cover":"CLR","clouds":[],"fltCat":"VFR"},{"icaoId":"KACV","receiptTime":"2026-04-17T05:56:22.318Z","obsTime":1776405180,"reportTime":"2026-04-17T06:00:00.000Z","temp":5,"dewp":3.9,"wdir":100,"wspd":3,"visib":"10+","altim":1023.5,"slp":1023.9,"qcField":6,"presTend":0.3,"maxT":12.8,"minT":5,"metarType":"METAR","rawOb":"METAR KACV 170553Z AUTO 10003KT 10SM CLR 05/04 A3022 RMK AO2 SLP239 T00500039 10128 20050 50003","lat":40.9784,"lon":-124.1048,"elev":63,"name":"Arcata Arpt, CA, US","cover":"CLR","clouds":[],"fltCat":"VFR"},{"icaoId":"KAPA","receiptTime":"2026-04-17T05:56:22.470Z","obsTime":1776405180,"reportTime":"2026-04-17T06:00:00.000Z","temp":12.8,"dewp":-11.7,"wdir":240,"wspd":7,"visib":"10+","altim":1005.5,"slp":999.6,"qcField":4,"presTend":0.3,"maxT":22.2,"minT":12.2,"metarType":"METAR","rawOb":"METAR KAPA 170553Z 24007KT 10SM SCT140 BKN220 13/M12 A2969 RMK AO2 SLP996 T01281117 10222 20122 51003","lat":39.5599,"lon":-104.8484,"elev":1791,"name":"Denver/Centennial Arpt, CO, US","cover":"BKN","clouds":[{"cover":"SCT","base":14000},{"cover":"BKN","base":22000}],"fltCat":"VFR"},{"icaoId":"KBFI","receiptTime":"2026-04-17T05:56:22.661Z","obsTime":1776405180,"reportTime":"2026-04-17T06:00:00.000Z","temp":8.3,"dewp":2.8,"wdir":160,"wspd":5,"visib":"10+","altim":1025.8,"slp":1025.5,"qcField":12,"presTend":1.6,"maxT":13.9,"minT":8.3,"metarType":"METAR","rawOb":"METAR KBFI 170553Z 16005KT 10SM SCT085 08/03 A3029 RMK AO2 SLP255 T00830028 10139 20083 51016 $","lat":47.5455,"lon":-122.3148,"elev":7,"name":"Seattle/Boeing Fld, WA, US","cover":"SCT","clouds":[{"cover":"SCT","base":8500}],"fltCat":"VFR"},{"icaoId":"KSHR","receiptTime":"2026-04-17T05:56:22.718Z","obsTime":1776405180,"reportTime":"2026-04-17T06:00:00.000Z","temp":-0.6,"dewp":-2.8,"wdir":220,"wspd":4,"visib":"10+","altim":1014.3,"slp":1016.1,"qcField":6,"presTend":1,"maxT":-0.6,"minT":-1.7,"pcp6hr":0.14,"metarType":"METAR","rawOb":"METAR KSHR 170553Z AUTO 22004KT 10SM OVC044 M01/M03 A2995 RMK AO2 SLP161 60014 T10061028 11006 21017 51010","lat":44.7603,"lon":-106.9741,"elev":1212,"name":"Sheridan Cnty Arpt, WY, US","cover":"OVC","clouds":[{"cover":"OVC","base":4400}],"fltCat":"VFR"},{"icaoId":"KSMF","receiptTime":"2026-04-17T05:56:22.766Z","obsTime":1776405180,"reportTime":"2026-04-17T06:00:00.000Z","temp":12.8,"dewp":-1.7,"wdir":330,"wspd":15,"visib":"10+","altim":1016.7,"slp":1016.4,"qcField":4,"presTend":0.8,"maxT":20.6,"minT":12.8,"metarType":"METAR","rawOb":"METAR KSMF 170553Z 33015KT 10SM CLR 13/M02 A3002 RMK AO2 PK WND 33026/0515 SLP164 T01281017 10206 20128 50008","lat":38.7007,"lon":-121.5948,"elev":7,"name":"Sacramento Intl, CA, US","cover":"CLR","clouds":[],"fltCat":"VFR"},{"icaoId":"KSNA","receiptTime":"2026-04-17T05:56:22.796Z","obsTime":1776405180,"reportTime":"2026-04-17T06:00:00.000Z","temp":16.7,"dewp":12.8,"wdir":130,"wspd":5,"visib":"10+","altim":1013,"slp":1012.7,"qcField":4,"presTend":1,"maxT":20.6,"minT":16.7,"metarType":"METAR","rawOb":"METAR KSNA 170553Z 13005KT 10SM CLR 17/13 A2991 RMK AO2 SLP127 LAST T01670128 10206 20167 51010","lat":33.6798,"lon":-117.8675,"elev":14,"name":"Santa Ana/Wayne Arpt, CA, US","cover":"CLR","clouds":[],"fltCat":"VFR"},{"icaoId":"KELY","receiptTime":"2026-04-17T05:56:23.109Z","obsTime":1776405180,"reportTime":"2026-04-17T06:00:00.000Z","temp":-3.9,"dewp":-14.4,"wdir":350,"wspd":7,"visib":"10+","altim":1020.4,"slp":1017.9,"qcField":14,"presTend":1.9,"maxT":7.8,"minT":-4.4,"metarType":"METAR","rawOb":"METAR KELY 170553Z AUTO 35007KT 10SM CLR M04/M14 A3013 RMK AO2 SLP179 T10391144 10078 21044 51019 $","lat":39.2954,"lon":-114.8466,"elev":1906,"name":"Ely/Yelland Fld, NV, US","cover":"CLR","clouds":[],"fltCat":"VFR"},{"icaoId":"KLBB","receiptTime":"2026-04-17T05:56:23.235Z","obsTime":1776405180,"reportTime":"2026-04-17T06:00:00.000Z","temp":21.1,"dewp":15.6,"wdir":180,"wspd":18,"wgst":26,"visib":"10+","altim":1010.9,"slp":1005.5,"qcField":4,"presTend":0.1,"maxT":29.4,"minT":21.1,"maxT24":31.1,"minT24":6.1,"metarType":"METAR","rawOb":"METAR KLBB 170553Z 18018G26KT 10SM CLR 21/16 A2985 RMK AO2 PK WND 18032/0459 SLP055 T02110156 10294 20211 403110061 50001","lat":33.6658,"lon":-101.8233,"elev":996,"name":"Lubbock Intl Arpt, TX, US","cover":"CLR","clouds":[],"fltCat":"VFR"},{"icaoId":"KPDX","receiptTime":"2026-04-17T05:56:23.344Z","obsTime":1776405180,"reportTime":"2026-04-17T06:00:00.000Z","temp":8.3,"dewp":3.3,"wdir":330,"wspd":6,"visib":"10+","altim":1027.5,"slp":1027.3,"qcField":4,"presTend":1.6,"maxT":13.3,"minT":8.3,"metarType":"METAR","rawOb":"METAR KPDX 170553Z 33006KT 10SM FEW055 SCT065 08/03 A3034 RMK AO2 SLP273 T00830033 10133 20083 51016","lat":45.5958,"lon":-122.6092,"elev":7,"name":"Portland Intl, OR, US","cover":"SCT","clouds":[{"cover":"FEW","base":5500},{"cover":"SCT","base":6500}],"fltCat":"VFR"},{"icaoId":"KPGA","receiptTime":"2026-04-17T05:56:23.354Z","obsTime":1776405180,"reportTime":"2026-04-17T06:00:00.000Z","temp":16.7,"dewp":-8.3,"wdir":210,"wspd":10,"wgst":17,"visib":"10+","altim":1007.9,"slp":1003,"qcField":14,"presTend":0.2,"maxT":22.8,"minT":16.7,"metarType":"METAR","rawOb":"METAR KPGA 170553Z AUTO 21010G17KT 10SM CLR 17/M08 A2976 RMK AO2 SLP030 T01671083 10228 20167 50002 $","lat":36.9211,"lon":-111.4487,"elev":1310,"name":"Page Muni, AZ, US","cover":"CLR","clouds":[],"fltCat":"VFR"},{"icaoId":"KMSO","receiptTime":"2026-04-17T05:56:23.388Z","obsTime":1776405180,"reportTime":"2026-04-17T06:00:00.000Z","temp":1.1,"dewp":-5,"wdir":60,"wspd":3,"visib":"10+","altim":1018.7,"slp":1020.6,"qcField":6,"presTend":1.2,"maxT":5,"minT":0.6,"pcp6hr":0.005,"metarType":"METAR","rawOb":"METAR KMSO 170553Z AUTO 06003KT 10SM BKN050 01/M05 A3008 RMK AO2 SLP206 60000 T00111050 10050 20006 51012","lat":46.9208,"lon":-114.0938,"elev":974,"name":"Missoula Intl, MT, US","cover":"BKN","clouds":[{"cover":"BKN","base":5000}],"fltCat":"VFR"},{"icaoId":"KBLI","receiptTime":"2026-04-17T05:56:23.515Z","obsTime":1776405180,"reportTime":"2026-04-17T06:00:00.000Z","temp":8.9,"dewp":-0.6,"wdir":180,"wspd":7,"visib":"10+","altim":1024.8,"slp":1025.5,"qcField":6,"presTend":0.5,"maxT":11.1,"minT":8.3,"metarType":"METAR","rawOb":"METAR KBLI 170553Z AUTO 18007KT 10SM SCT085 09/M01 A3026 RMK AO2 SLP255 T00891006 10111 20083 50005","lat":48.7991,"lon":-122.5407,"elev":46,"name":"Bellingham Intl, WA, US","cover":"SCT","clouds":[{"cover":"SCT","base":8500}],"fltCat":"VFR"},{"icaoId":"KBNA","receiptTime":"2026-04-17T05:56:23.537Z","obsTime":1776405180,"reportTime":"2026-04-17T06:00:00.000Z","temp":16.1,"dewp":12.8,"wdir":10,"wspd":6,"visib":"10+","altim":1017.7,"slp":1016.9,"qcField":4,"presTend":-1.5,"maxT":25.6,"minT":15,"maxT24":28.9,"minT24":15,"pcp6hr":0.67,"metarType":"METAR","rawOb":"METAR KBNA 170553Z 01006KT 10SM SCT170 16/13 A3005 RMK AO2 SLP169 60067 T01610128 10256 20150 402890150 55015","lat":36.1105,"lon":-86.6881,"elev":168,"name":"Nashville Intl, TN, US","cover":"SCT","clouds":[{"cover":"SCT","base":17000}],"fltCat":"VFR"},{"icaoId":"KBOI","receiptTime":"2026-04-17T05:56:23.894Z","obsTime":1776405180,"reportTime":"2026-04-17T06:00:00.000Z","temp":1.1,"dewp":-3.3,"wdir":0,"wspd":0,"visib":"10+","altim":1022.8,"slp":1024.1,"qcField":4,"presTend":1.2,"maxT":6.7,"minT":1.1,"pcp6hr":0.005,"metarType":"METAR","rawOb":"METAR KBOI 170553Z 00000KT 10SM CLR 01/M03 A3020 RMK AO2 SLP241 60000 T00111033 10067 20011 51012","lat":43.567,"lon":-116.2406,"elev":860,"name":"Boise Arpt, ID, US","cover":"CLR","clouds":[],"fltCat":"VFR"},{"icaoId":"KMSP","receiptTime":"2026-04-17T05:56:23.905Z","obsTime":1776405180,"reportTime":"2026-04-17T06:00:00.000Z","temp":18.9,"dewp":8.9,"wdir":160,"wspd":13,"wgst":22,"visib":"10+","altim":1005.5,"slp":1004.9,"qcField":4,"presTend":-0.5,"maxT":25,"minT":18.9,"maxT24":26.1,"minT24":8.3,"metarType":"METAR","rawOb":"METAR KMSP 170553Z 16013G22KT 10SM FEW250 19/09 A2969 RMK AO2 SLP049 T01890089 10250 20189 402610083 58005","lat":44.8852,"lon":-93.2313,"elev":255,"name":"Minneapolis-St Paul Intl, MN, US","cover":"FEW","clouds":[{"cover":"FEW","base":25000}],"fltCat":"VFR"},{"icaoId":"KONT","receiptTime":"2026-04-17T05:56:21.210Z","obsTime":1776405180,"reportTime":"2026-04-17T06:00:00.000Z","temp":15,"dewp":11.1,"wdir":240,"wspd":7,"visib":"10+","altim":1013,"slp":1012,"qcField":12,"presTend":1.3,"maxT":22.2,"minT":15,"metarType":"METAR","rawOb":"METAR KONT 170553Z 24007KT 10SM FEW270 15/11 A2991 RMK AO2 SLP120 T01500111 10222 20150 51013 $","lat":34.0531,"lon":-117.5769,"elev":279,"name":"Ontario Intl, CA, US","cover":"FEW","clouds":[{"cover":"FEW","base":27000}],"fltCat":"VFR"},{"icaoId":"KHOU","receiptTime":"2026-04-17T05:58:39.797Z","obsTime":1776405180,"reportTime":"2026-04-17T06:00:00.000Z","temp":22.2,"dewp":20,"wdir":170,"wspd":6,"visib":"10+","altim":1015.3,"slp":1015.5,"qcField":12,"presTend":-0.4,"maxT":26.1,"minT":22.2,"maxT24":29.4,"minT24":21.7,"metarType":"METAR","rawOb":"METAR KHOU 170553Z 17006KT 10SM CLR 22/20 A2998 RMK AO2 SLP155 T02220200 10261 20222 402940217 57004 $","lat":29.6458,"lon":-95.2821,"elev":13,"name":"Houston/Hobby Arpt, TX, US","cover":"CLR","clouds":[],"fltCat":"VFR"},{"icaoId":"KMSY","receiptTime":"2026-04-17T05:58:39.887Z","obsTime":1776405180,"reportTime":"2026-04-17T06:00:00.000Z","temp":21.1,"dewp":17.8,"wdir":180,"wspd":4,"visib":"10+","altim":1017.4,"slp":1017.7,"qcField":4,"presTend":-0.2,"maxT":24.4,"minT":21.1,"maxT24":28.3,"minT24":20.6,"metarType":"METAR","rawOb":"METAR KMSY 170553Z 18004KT 10SM FEW070 21/18 A3004 RMK AO2 SLP177 T02110178 10244 20211 402830206 58002","lat":29.9974,"lon":-90.2777,"elev":0,"name":"New Orleans/Armstrong Intl, LA, US","cover":"FEW","clouds":[{"cover":"FEW","base":7000}],"fltCat":"VFR"},{"icaoId":"KBRO","receiptTime":"2026-04-17T05:58:46.816Z","obsTime":1776405180,"reportTime":"2026-04-17T06:00:00.000Z","temp":25.6,"dewp":22.8,"wdir":140,"wspd":10,"visib":"10+","altim":1013.6,"slp":1013.3,"qcField":6,"presTend":-0.4,"maxT":27.2,"minT":25,"maxT24":31.1,"minT24":24.4,"metarType":"METAR","rawOb":"METAR KBRO 170553Z AUTO 14010KT 10SM BKN012 OVC018 26/23 A2993 RMK AO2 SLP133 T02560228 10272 20250 403110244 58004","lat":25.9146,"lon":-97.4231,"elev":6,"name":"Brownsville Intl, TX, US","cover":"OVC","clouds":[{"cover":"BKN","base":1200},{"cover":"OVC","base":1800}],"fltCat":"MVFR"},{"icaoId":"KMFE","receiptTime":"2026-04-17T05:58:39.875Z","obsTime":1776405180,"reportTime":"2026-04-17T06:00:00.000Z","temp":24.4,"dewp":22.2,"wdir":130,"wspd":14,"visib":"10+","altim":1013,"slp":1012.7,"qcField":6,"presTend":-0.4,"maxT":28.9,"minT":23.9,"maxT24":32.8,"minT24":23.9,"metarType":"METAR","rawOb":"METAR KMFE 170553Z AUTO 13014KT 10SM OVC010 24/22 A2991 RMK AO2 SLP127 T02440222 10289 20239 403280239 58004","lat":26.1791,"lon":-98.2445,"elev":29,"name":"McAllen/Miller Intl, TX, US","cover":"OVC","clouds":[{"cover":"OVC","base":1000}],"fltCat":"MVFR"},{"icaoId":"KAUS","receiptTime":"2026-04-17T05:58:46.579Z","obsTime":1776405180,"reportTime":"2026-04-17T06:00:00.000Z","temp":22.2,"dewp":19.4,"wdir":180,"wspd":12,"wgst":17,"visib":"10+","altim":1013.6,"slp":1012.5,"qcField":4,"presTend":0.1,"maxT":30,"minT":22.2,"maxT24":31.7,"minT24":18.9,"metarType":"METAR","rawOb":"METAR KAUS 170553Z 18012G17KT 10SM OVC017 22/19 A2993 RMK AO2 SLP125 T02220194 10300 20222 403170189 51001","lat":30.1831,"lon":-97.6806,"elev":148,"name":"Austin/Bergstrom Intl, TX, US","cover":"OVC","clouds":[{"cover":"OVC","base":1700}],"fltCat":"MVFR"},{"icaoId":"KIAH","receiptTime":"2026-04-17T05:58:39.810Z","obsTime":1776405180,"reportTime":"2026-04-17T06:00:00.000Z","temp":21.7,"dewp":20,"wdir":170,"wspd":5,"visib":"10+","altim":1015,"slp":1015,"qcField":4,"presTend":-0.4,"maxT":27.2,"minT":21.7,"maxT24":30,"minT24":21.7,"metarType":"METAR","rawOb":"METAR KIAH 170553Z 17005KT 10SM CLR 22/20 A2997 RMK AO2 SLP150 T02170200 10272 20217 403000217 58004","lat":29.9844,"lon":-95.3607,"elev":27,"name":"Houston/Bush Intl, TX, US","cover":"CLR","clouds":[],"fltCat":"VFR"},{"icaoId":"KCLL","receiptTime":"2026-04-17T05:58:37.579Z","obsTime":1776405180,"reportTime":"2026-04-17T06:00:00.000Z","temp":21.7,"dewp":18.9,"wdir":160,"wspd":11,"visib":"10+","altim":1014,"slp":1013.4,"qcField":6,"presTend":-0.4,"maxT":28.9,"minT":21.7,"maxT24":30.6,"minT24":20.6,"metarType":"METAR","rawOb":"METAR KCLL 170553Z AUTO 16011KT 10SM CLR 22/19 A2994 RMK AO2 SLP134 T02170189 10289 20217 403060206 58004","lat":30.5912,"lon":-96.3631,"elev":96,"name":"College Station/Easterwood Arpt, TX, US","cover":"CLR","clouds":[],"fltCat":"VFR"},{"icaoId":"KPIH","receiptTime":"2026-04-17T05:56:23.836Z","obsTime":1776405180,"reportTime":"2026-04-17T06:00:00.000Z","temp":-1.7,"dewp":-6.7,"wdir":220,"wspd":11,"visib":"10+","altim":1018.7,"slp":1020.7,"qcField":6,"presTend":1.3,"maxT":2.2,"minT":-1.7,"pcp6hr":0.005,"metarType":"METAR","rawOb":"METAR KPIH 170553Z AUTO 22011KT 10SM FEW080 M02/M07 A3008 RMK AO2 SLP207 60000 T10171067 10022 21017 51013","lat":42.9197,"lon":-112.5723,"elev":1357,"name":"Pocatello Rgnl, ID, US","cover":"FEW","clouds":[{"cover":"FEW","base":8000}],"fltCat":"VFR"},{"icaoId":"KDFW","receiptTime":"2026-04-17T05:56:15.600Z","obsTime":1776405180,"reportTime":"2026-04-17T06:00:00.000Z","temp":24.4,"dewp":17.2,"wdir":170,"wspd":14,"wgst":25,"visib":"10+","altim":1011.3,"slp":1010.2,"qcField":12,"presTend":-0.2,"maxT":27.8,"minT":24.4,"maxT24":30,"minT24":20,"metarType":"METAR","rawOb":"METAR KDFW 170553Z 17014G25KT 10SM SCT250 24/17 A2986 RMK AO2 SLP102 T02440172 10278 20244 403000200 55002 $","lat":32.8974,"lon":-97.022,"elev":168,"name":"Dallas-Ft Worth Intl, TX, US","cover":"SCT","clouds":[{"cover":"SCT","base":25000}],"fltCat":"VFR"},{"icaoId":"KSTS","receiptTime":"2026-04-17T05:56:22.894Z","obsTime":1776405180,"reportTime":"2026-04-17T06:00:00.000Z","temp":10,"dewp":3.3,"wdir":330,"wspd":8,"visib":"10+","altim":1018.4,"slp":1017.7,"qcField":6,"presTend":1.2,"maxT":22.2,"minT":8.9,"metarType":"METAR","rawOb":"METAR KSTS 170553Z AUTO 33008KT 10SM CLR 10/03 A3007 RMK AO2 SLP177 T01000033 10222 20089 50012","lat":38.5037,"lon":-122.811,"elev":35,"name":"Santa Rosa/Schulz Arpt, CA, US","cover":"CLR","clouds":[],"fltCat":"VFR"},{"icaoId":"KBHM","receiptTime":"2026-04-17T05:56:23.453Z","obsTime":1776405180,"reportTime":"2026-04-17T06:00:00.000Z","temp":18.9,"dewp":16.1,"wdir":0,"wspd":0,"visib":"10+","altim":1019,"slp":1018.1,"qcField":4,"presTend":0.5,"maxT":27.2,"minT":18.9,"maxT24":30.6,"minT24":16.7,"metarType":"METAR","rawOb":"METAR KBHM 170553Z 00000KT 10SM SCT065 19/16 A3009 RMK AO2 SLP181 T01890161 10272 20189 403060167 50005","lat":33.5655,"lon":-86.7449,"elev":191,"name":"Birmingham Intl, AL, US","cover":"SCT","clouds":[{"cover":"SCT","base":6500}],"fltCat":"VFR"},{"icaoId":"KSBA","receiptTime":"2026-04-17T05:56:21.294Z","obsTime":1776405180,"reportTime":"2026-04-17T06:00:00.000Z","temp":13.9,"dewp":12.2,"wdir":90,"wspd":3,"visib":8,"altim":1012.3,"slp":1012,"qcField":14,"presTend":1.5,"maxT":17.8,"minT":13.3,"metarType":"METAR","rawOb":"METAR KSBA 170553Z AUTO 09003KT 8SM CLR 14/12 A2989 RMK AO2 SLP120 T01390122 10178 20133 51015 $","lat":34.4241,"lon":-119.8425,"elev":2,"name":"Santa Barbara Muni, CA, US","cover":"CLR","clouds":[],"fltCat":"VFR"},{"icaoId":"KLAX","receiptTime":"2026-04-17T05:56:23.225Z","obsTime":1776405180,"reportTime":"2026-04-17T06:00:00.000Z","temp":16.7,"dewp":13.3,"wdir":180,"wspd":4,"visib":"10+","altim":1012.6,"slp":1012.2,"qcField":4,"presTend":0.8,"maxT":19.4,"minT":16.1,"metarType":"METAR","rawOb":"METAR KLAX 170553Z 18004KT 10SM FEW014 FEW250 17/13 A2990 RMK AO2 SLP122 T01670133 10194 20161 50008","lat":33.9382,"lon":-118.3866,"elev":30,"name":"Los Angeles Intl, CA, US","cover":"FEW","clouds":[{"cover":"FEW","base":1400},{"cover":"FEW","base":25000}],"fltCat":"VFR"},{"icaoId":"KPAE","receiptTime":"2026-04-17T05:56:21.224Z","obsTime":1776405180,"reportTime":"2026-04-17T06:00:00.000Z","temp":6.7,"dewp":3.3,"wdir":360,"wspd":7,"visib":"10+","altim":1025.5,"slp":1025.8,"qcField":4,"presTend":1.2,"maxT":11.1,"minT":6.7,"metarType":"METAR","rawOb":"METAR KPAE 170553Z 36007KT 10SM BKN080 07/03 A3028 RMK AO2 SLP258 T00670033 10111 20067 51012","lat":47.9232,"lon":-122.2831,"elev":166,"name":"Everett/Paine Fld, WA, US","cover":"BKN","clouds":[{"cover":"BKN","base":8000}],"fltCat":"VFR"},{"icaoId":"KDMN","receiptTime":"2026-04-17T05:56:23.099Z","obsTime":1776405180,"reportTime":"2026-04-17T06:00:00.000Z","temp":19.4,"dewp":-8.3,"wdir":260,"wspd":13,"visib":"10+","altim":1013.3,"slp":1006.4,"qcField":6,"presTend":0.5,"maxT":27.2,"minT":18.9,"metarType":"METAR","rawOb":"METAR KDMN 170553Z AUTO 26013KT 10SM CLR 19/M08 A2992 RMK AO2 SLP064 T01941083 10272 20189 50005","lat":32.2592,"lon":-107.7206,"elev":1310,"name":"Deming Muni, NM, US","cover":"CLR","clouds":[],"fltCat":"VFR"},{"icaoId":"KAMA","receiptTime":"2026-04-17T05:56:22.406Z","obsTime":1776405180,"reportTime":"2026-04-17T06:00:00.000Z","temp":16.7,"dewp":-7.8,"wdir":190,"wspd":12,"visib":"10+","altim":1009.6,"slp":1004.6,"qcField":4,"presTend":-0.3,"maxT":26.7,"minT":13.9,"maxT24":29.4,"minT24":6.7,"metarType":"METAR","rawOb":"METAR KAMA 170553Z 19012KT 10SM CLR 17/M08 A2981 RMK AO2 SLP046 T01671078 10267 20139 402940067 58003","lat":35.2203,"lon":-101.7173,"elev":1102,"name":"Amarillo Intl Arpt, TX, US","cover":"CLR","clouds":[],"fltCat":"VFR"},{"icaoId":"KCNM","receiptTime":"2026-04-17T05:56:23.596Z","obsTime":1776405180,"reportTime":"2026-04-17T06:00:00.000Z","temp":21.1,"dewp":12.2,"wdir":170,"wspd":8,"visib":"10+","altim":1010.9,"slp":1005.3,"qcField":6,"presTend":0.6,"maxT":31.1,"minT":20.6,"metarType":"METAR","rawOb":"METAR KCNM 170553Z AUTO 17008KT 10SM CLR 21/12 A2985 RMK AO2 SLP053 T02110122 10311 20206 50006","lat":32.3336,"lon":-104.2584,"elev":993,"name":"Carlsbad/Cavern City Air Term, NM, US","cover":"CLR","clouds":[],"fltCat":"VFR"},{"icaoId":"KSAF","receiptTime":"2026-04-17T05:56:19.747Z","obsTime":1776405180,"reportTime":"2026-04-17T06:00:00.000Z","temp":6.7,"dewp":-14.4,"wdir":0,"wspd":0,"visib":"10+","altim":1013.3,"slp":1006.6,"qcField":6,"presTend":0.3,"maxT":20.6,"minT":4.4,"metarType":"METAR","rawOb":"METAR KSAF 170553Z AUTO 00000KT 10SM CLR 07/M14 A2992 RMK AO2 SLP066 T00671144 10206 20044 51003","lat":35.611,"lon":-106.0957,"elev":1918,"name":"Santa Fe Cnty Muni, NM, US","cover":"CLR","clouds":[],"fltCat":"VFR"},{"icaoId":"KSWO","receiptTime":"2026-04-17T05:56:22.905Z","obsTime":1776405180,"reportTime":"2026-04-17T06:00:00.000Z","temp":23.3,"dewp":18.3,"wdir":180,"wspd":14,"wgst":21,"visib":"10+","altim":1008.5,"slp":1007.3,"qcField":6,"maxT":27.2,"minT":23.3,"maxT24":30,"minT24":17.2,"metarType":"METAR","rawOb":"METAR KSWO 170553Z AUTO 18014G21KT 10SM CLR 23/18 A2978 RMK AO2 SLP073 T02330183 10272 20233 403000172 58000","lat":36.1624,"lon":-97.0832,"elev":293,"name":"Stillwater Muni, OK, US","cover":"CLR","clouds":[],"fltCat":"VFR"},{"icaoId":"KTPA","receiptTime":"2026-04-17T05:56:23.032Z","obsTime":1776405180,"reportTime":"2026-04-17T06:00:00.000Z","temp":21.7,"dewp":16.7,"wdir":0,"wspd":0,"visib":"10+","altim":1018,"slp":1017.9,"qcField":4,"presTend":-0.9,"maxT":25,"minT":21.1,"metarType":"METAR","rawOb":"METAR KTPA 170553Z 00000KT 10SM SCT250 22/17 A3006 RMK AO2 SLP179 T02170167 10250 20211 58009","lat":27.9633,"lon":-82.54,"elev":2,"name":"Tampa Intl Arpt, FL, US","cover":"SCT","clouds":[{"cover":"SCT","base":25000}],"fltCat":"VFR"},{"icaoId":"KLOL","receiptTime":"2026-04-17T05:56:14.501Z","obsTime":1776405180,"reportTime":"2026-04-17T06:00:00.000Z","temp":-1.1,"dewp":-11.7,"wdir":80,"wspd":4,"visib":"10+","altim":1024.5,"slp":1025.4,"qcField":6,"presTend":1.8,"maxT":10,"minT":-1.1,"metarType":"METAR","rawOb":"METAR KLOL 170553Z AUTO 08004KT 10SM CLR M01/M12 A3025 RMK AO2 SLP254 T10111117 10100 21011 51018","lat":40.0684,"lon":-118.5702,"elev":1191,"name":"Lovelock/Derby Fld, NV, US","cover":"CLR","clouds":[],"fltCat":"VFR"},{"icaoId":"KMYR","receiptTime":"2026-04-17T05:56:06.900Z","obsTime":1776405180,"reportTime":"2026-04-17T06:00:00.000Z","temp":20,"dewp":16.7,"wdir":230,"wspd":6,"visib":"10+","altim":1017,"slp":1016.7,"qcField":14,"presTend":0.2,"maxT":20.6,"minT":20,"metarType":"METAR","rawOb":"METAR KMYR 170553Z AUTO 23006KT 10SM CLR 20/17 A3003 RMK AO2 SLP167 T02000167 10206 20200 52002 $","lat":33.6769,"lon":-78.9325,"elev":7,"name":"Myrtle Beach Intl, SC, US","cover":"CLR","clouds":[],"fltCat":"VFR"},{"icaoId":"KGSP","receiptTime":"2026-04-17T05:56:14.631Z","obsTime":1776405180,"reportTime":"2026-04-17T06:00:00.000Z","temp":19.4,"dewp":9.4,"wdir":0,"wspd":0,"visib":"10+","altim":1016.7,"slp":1015.4,"qcField":6,"presTend":0.9,"maxT":26.1,"minT":19.4,"metarType":"METAR","rawOb":"METAR KGSP 170553Z AUTO 00000KT 10SM SCT085 19/09 A3002 RMK AO2 SLP154 T01940094 10261 20194 50009","lat":34.8842,"lon":-82.2209,"elev":285,"name":"Greenville-Spartanburg Intl, SC, US","cover":"SCT","clouds":[{"cover":"SCT","base":8500}],"fltCat":"VFR"},{"icaoId":"KDAL","receiptTime":"2026-04-17T05:56:16.423Z","obsTime":1776405180,"reportTime":"2026-04-17T06:00:00.000Z","temp":24.4,"dewp":17.8,"wdir":170,"wspd":11,"wgst":19,"visib":"10+","altim":1011.9,"slp":1011.1,"qcField":4,"maxT":28.9,"minT":24.4,"maxT24":30,"minT24":20,"metarType":"METAR","rawOb":"METAR KDAL 170553Z 17011G19KT 10SM FEW250 24/18 A2988 RMK AO2 SLP111 T02440178 10289 20244 403000200 55000","lat":32.8384,"lon":-96.8358,"elev":148,"name":"Dallas/Love Fld, TX, US","cover":"FEW","clouds":[{"cover":"FEW","base":25000}],"fltCat":"VFR"},{"icaoId":"KTUS","receiptTime":"2026-04-17T05:56:20.974Z","obsTime":1776405180,"reportTime":"2026-04-17T06:00:00.000Z","temp":20,"dewp":-7.8,"wdir":0,"wspd":0,"visib":"10+","altim":1011.9,"slp":1008.1,"qcField":12,"presTend":1.3,"maxT":28.9,"minT":19.4,"metarType":"METAR","rawOb":"METAR KTUS 170553Z 00000KT 10SM CLR 20/M08 A2988 RMK AO2 SLP081 T02001078 10289 20194 50013 $","lat":32.1315,"lon":-110.9564,"elev":776,"name":"Tucson Intl Arpt, AZ, US","cover":"CLR","clouds":[],"fltCat":"VFR"},{"icaoId":"KLAR","receiptTime":"2026-04-17T05:56:20.858Z","obsTime":1776405180,"reportTime":"2026-04-17T06:00:00.000Z","temp":-1.7,"dewp":-6.7,"wdir":330,"wspd":20,"wgst":32,"visib":"10+","altim":1009.6,"slp":1004,"qcField":6,"presTend":1.4,"maxT":14.4,"minT":-2.2,"metarType":"METAR","rawOb":"METAR KLAR 170553Z AUTO 33020G32KT 10SM SCT043 M02/M07 A2981 RMK AO2 PK WND 33037/0514 SLP040 T10171067 10144 21022 50014","lat":41.3165,"lon":-105.6729,"elev":2217,"name":"Laramie Rgnl, WY, US","cover":"SCT","clouds":[{"cover":"SCT","base":4300}],"fltCat":"VFR"},{"icaoId":"KLAW","receiptTime":"2026-04-17T05:56:14.331Z","obsTime":1776405180,"reportTime":"2026-04-17T06:00:00.000Z","temp":21.1,"dewp":18.3,"wdir":160,"wspd":10,"visib":"10+","altim":1009.6,"slp":1008.3,"qcField":6,"presTend":0.3,"maxT":27.8,"minT":21.1,"maxT24":31.1,"minT24":16.1,"metarType":"METAR","rawOb":"METAR KLAW 170553Z AUTO 16010KT 10SM CLR 21/18 A2981 RMK AO2 SLP083 T02110183 10278 20211 403110161 50003","lat":34.5577,"lon":-98.4172,"elev":328,"name":"Lawton-Fort Sill Rgnl, OK, US","cover":"CLR","clouds":[],"fltCat":"VFR"},{"icaoId":"KSEA","receiptTime":"2026-04-17T05:56:21.328Z","obsTime":1776405180,"reportTime":"2026-04-17T06:00:00.000Z","temp":7.8,"dewp":2.8,"wdir":200,"wspd":11,"visib":"10+","altim":1025.5,"slp":1026.1,"qcField":4,"presTend":1.2,"maxT":13.3,"minT":7.8,"metarType":"METAR","rawOb":"METAR KSEA 170553Z 20011KT 10SM FEW070 FEW200 08/03 A3028 RMK AO2 SLP261 T00780028 10133 20078 51012","lat":47.4447,"lon":-122.3144,"elev":115,"name":"Seattle-Tacoma Intl, WA, US","cover":"FEW","clouds":[{"cover":"FEW","base":7000},{"cover":"FEW","base":20000}],"fltCat":"VFR"},{"icaoId":"KSJC","receiptTime":"2026-04-17T05:56:22.743Z","obsTime":1776405180,"reportTime":"2026-04-17T06:00:00.000Z","temp":14.4,"dewp":4.4,"wdir":310,"wspd":6,"visib":"10+","altim":1017,"slp":1016.8,"qcField":4,"presTend":0.9,"maxT":21.1,"minT":13.9,"metarType":"METAR","rawOb":"METAR KSJC 170553Z 31006KT 10SM CLR 14/04 A3003 RMK AO2 SLP168 T01440044 10211 20139 50009","lat":37.3594,"lon":-121.9244,"elev":13,"name":"San Jose Intl Arpt, CA, US","cover":"CLR","clouds":[],"fltCat":"VFR"},{"icaoId":"KRIW","receiptTime":"2026-04-17T05:56:23.408Z","obsTime":1776405180,"reportTime":"2026-04-17T06:00:00.000Z","temp":-1.7,"dewp":-6.1,"wdir":350,"wspd":13,"wgst":22,"visib":"10+","altim":1011.9,"slp":1010,"qcField":6,"presTend":1.1,"maxT":7.2,"minT":-1.7,"metarType":"METAR","rawOb":"METAR KRIW 170553Z AUTO 35013G22KT 10SM CLR M02/M06 A2988 RMK AO2 PK WND 31027/0457 SLP100 T10171061 10072 21017 51011","lat":43.0622,"lon":-108.4471,"elev":1662,"name":"Riverton Rgnl, WY, US","cover":"CLR","clouds":[],"fltCat":"VFR"},{"icaoId":"KRTN","receiptTime":"2026-04-17T05:56:19.668Z","obsTime":1776405180,"reportTime":"2026-04-17T06:00:00.000Z","temp":5,"dewp":-13.3,"wdir":200,"wspd":10,"visib":"10+","altim":1010.2,"slp":1004,"qcField":6,"presTend":-0.2,"maxT":18.9,"minT":3.9,"metarType":"METAR","rawOb":"METAR KRTN 170553Z AUTO 20010KT 10SM CLR 05/M13 A2983 RMK AO2 SLP040 T00501133 10189 20039 58002","lat":36.7418,"lon":-104.5076,"elev":1939,"name":"Raton/Crews Fld, NM, US","cover":"CLR","clouds":[],"fltCat":"VFR"},{"icaoId":"KPNC","receiptTime":"2026-04-17T05:56:13.233Z","obsTime":1776405180,"reportTime":"2026-04-17T06:00:00.000Z","temp":22.8,"dewp":18.9,"wdir":180,"wspd":12,"wgst":21,"visib":"10+","altim":1007.9,"slp":1006.6,"qcField":6,"presTend":0.1,"maxT":27.8,"minT":22.8,"maxT24":28.3,"minT24":15,"metarType":"METAR","rawOb":"METAR KPNC 170553Z AUTO 18012G21KT 10SM CLR 23/19 A2976 RMK AO2 PK WND 17028/0532 SLP066 T02280189 10278 20228 402830150 50001","lat":36.7369,"lon":-97.1024,"elev":304,"name":"Ponca City Rgnl, OK, US","cover":"CLR","clouds":[],"fltCat":"VFR"},{"icaoId":"KPRC","receiptTime":"2026-04-17T05:56:13.281Z","obsTime":1776405180,"reportTime":"2026-04-17T06:00:00.000Z","temp":13.3,"dewp":-8.3,"wdir":"VRB","wspd":3,"visib":"10+","altim":1013,"slp":1006.9,"qcField":6,"presTend":-0.1,"maxT":18.3,"minT":12.2,"metarType":"METAR","rawOb":"METAR KPRC 170553Z AUTO VRB03KT 10SM CLR 13/M08 A2991 RMK AO2 SLP069 T01331083 10183 20122 58001","lat":34.6491,"lon":-112.4223,"elev":1528,"name":"Prescott/Love Fld, AZ, US","cover":"CLR","clouds":[],"fltCat":"VFR"},{"icaoId":"KPSC","receiptTime":"2026-04-17T05:56:13.291Z","obsTime":1776405180,"reportTime":"2026-04-17T06:00:00.000Z","temp":6.1,"dewp":-4.4,"wdir":220,"wspd":5,"visib":"10+","altim":1023.1,"slp":1023.1,"qcField":6,"presTend":1.5,"maxT":15.6,"minT":6.1,"metarType":"METAR","rawOb":"METAR KPSC 170553Z AUTO 22005KT 10SM CLR 06/M04 A3021 RMK AO2 SLP231 T00611044 10156 20061 51015","lat":46.2695,"lon":-119.1182,"elev":121,"name":"Pasco/Tri Cities Arpt, WA, US","cover":"CLR","clouds":[],"fltCat":"VFR"},{"icaoId":"KPSP","receiptTime":"2026-04-17T05:56:13.302Z","obsTime":1776405180,"reportTime":"2026-04-17T06:00:00.000Z","temp":22.2,"dewp":5.6,"wdir":320,"wspd":12,"wgst":22,"visib":"10+","altim":1008.2,"slp":1007.9,"qcField":12,"presTend":1.3,"maxT":29.4,"minT":22.2,"metarType":"METAR","rawOb":"METAR KPSP 170553Z 32012G22KT 10SM CLR 22/06 A2977 RMK AO2 SLP079 T02220056 10294 20222 51013 $","lat":33.8222,"lon":-116.5043,"elev":123,"name":"Palm Springs Intl, CA, US","cover":"CLR","clouds":[],"fltCat":"VFR"},{"icaoId":"KPUB","receiptTime":"2026-04-17T05:56:13.313Z","obsTime":1776405180,"reportTime":"2026-04-17T06:00:00.000Z","temp":14.4,"dewp":-12.2,"wdir":240,"wspd":8,"visib":"10+","altim":1004.5,"slp":999.1,"qcField":14,"presTend":0.1,"maxT":23.9,"minT":12.8,"metarType":"METAR","rawOb":"METAR KPUB 170553Z AUTO 24008KT 10SM CLR 14/M12 A2966 RMK AO2 SLP991 T01441122 10239 20128 53001 $","lat":38.2887,"lon":-104.5057,"elev":1441,"name":"Pueblo Mem Arpt, CO, US","cover":"CLR","clouds":[],"fltCat":"VFR"},{"icaoId":"KMCI","receiptTime":"2026-04-17T05:56:23.847Z","obsTime":1776405180,"reportTime":"2026-04-17T06:00:00.000Z","temp":21.1,"dewp":17.8,"wdir":170,"wspd":13,"wgst":23,"visib":"10+","altim":1008.5,"slp":1007.4,"qcField":4,"presTend":-1.4,"maxT":25,"minT":20.6,"maxT24":27.8,"minT24":11.1,"metarType":"METAR","rawOb":"METAR KMCI 170553Z 17013G23KT 10SM BKN250 21/18 A2978 RMK AO2 SLP074 T02110178 10250 20206 402780111 58014","lat":39.2975,"lon":-94.7309,"elev":308,"name":"Kansas City Intl, MO, US","cover":"BKN","clouds":[{"cover":"BKN","base":25000}],"fltCat":"VFR"},{"icaoId":"KMCO","receiptTime":"2026-04-17T05:56:14.124Z","obsTime":1776405180,"reportTime":"2026-04-17T06:00:00.000Z","temp":18.3,"dewp":15.6,"wdir":160,"wspd":4,"visib":"10+","altim":1019,"slp":1018.6,"qcField":4,"presTend":-0.8,"maxT":24.4,"minT":17.8,"metarType":"METAR","rawOb":"METAR KMCO 170553Z 16004KT 10SM CLR 18/16 A3009 RMK AO2 SLP186 T01830156 10244 20178 58008","lat":28.4182,"lon":-81.3241,"elev":27,"name":"Orlando Intl, FL, US","cover":"CLR","clouds":[],"fltCat":"VFR"},{"icaoId":"KPBI","receiptTime":"2026-04-17T05:56:14.243Z","obsTime":1776405180,"reportTime":"2026-04-17T06:00:00.000Z","temp":24.4,"dewp":20.6,"wdir":70,"wspd":8,"visib":"10+","altim":1017.7,"slp":1017.7,"qcField":12,"presTend":-1,"maxT":24.4,"minT":23.3,"metarType":"METAR","rawOb":"METAR KPBI 170553Z 07008KT 10SM SCT019 SCT048 24/21 A3005 RMK AO2 SLP177 T02440206 10244 20233 58010 $","lat":26.6851,"lon":-80.0992,"elev":4,"name":"Palm Beach Intl, FL, US","cover":"SCT","clouds":[{"cover":"SCT","base":1900},{"cover":"SCT","base":4800}],"fltCat":"VFR"},{"icaoId":"KGTF","receiptTime":"2026-04-17T05:56:21.767Z","obsTime":1776405180,"reportTime":"2026-04-17T06:00:00.000Z","temp":-3.9,"dewp":-6.7,"wdir":310,"wspd":4,"visib":"10+","altim":1016.7,"slp":1021.8,"qcField":4,"presTend":0.5,"maxT":1.7,"minT":-4.4,"precip":0.005,"pcp6hr":0.005,"metarType":"METAR","rawOb":"METAR KGTF 170553Z 31004KT 10SM OVC037 M04/M07 A3002 RMK AO2 SNB09E44 SLP218 P0000 60000 T10391067 10017 21044 50005","lat":47.4733,"lon":-111.3828,"elev":1117,"name":"Great Falls Intl, MT, US","cover":"OVC","clouds":[{"cover":"OVC","base":3700}],"fltCat":"VFR"},{"icaoId":"KFMN","receiptTime":"2026-04-17T05:56:23.154Z","obsTime":1776405180,"reportTime":"2026-04-17T06:00:00.000Z","temp":14.4,"dewp":-11.1,"wdir":220,"wspd":5,"visib":"10+","altim":1010.9,"slp":1006.5,"qcField":6,"presTend":0.1,"maxT":18.9,"minT":14.4,"metarType":"METAR","rawOb":"METAR KFMN 170553Z AUTO 22005KT 10SM OVC110 14/M11 A2985 RMK AO2 SLP065 T01441111 10189 20144 50001","lat":36.7435,"lon":-108.2293,"elev":1677,"name":"Farmington/Four Corners Rgnl, NM, US","cover":"OVC","clouds":[{"cover":"OVC","base":11000}],"fltCat":"VFR"},{"icaoId":"KBIL","receiptTime":"2026-04-17T05:56:15.351Z","obsTime":1776405180,"reportTime":"2026-04-17T06:00:00.000Z","temp":-2.2,"dewp":-2.8,"wdir":310,"wspd":3,"visib":"10+","altim":1014.3,"slp":1016.8,"qcField":4,"presTend":-0.2,"maxT":2.2,"minT":-2.2,"pcp6hr":0.005,"metarType":"METAR","rawOb":"METAR KBIL 170553Z 31003KT 10SM FEW060 SCT095 M02/M03 A2995 RMK AO2 SLP168 60000 T10221028 10022 21022 58002","lat":45.8072,"lon":-108.5462,"elev":1089,"name":"Billings/Logan Intl, MT, US","cover":"SCT","clouds":[{"cover":"FEW","base":6000},{"cover":"SCT","base":9500}],"fltCat":"VFR"},{"icaoId":"KDLN","receiptTime":"2026-04-17T05:56:15.658Z","obsTime":1776405180,"reportTime":"2026-04-17T06:00:00.000Z","temp":-2.2,"dewp":-10.6,"wdir":320,"wspd":6,"visib":"10+","altim":1016.3,"slp":1019.6,"qcField":6,"presTend":1.4,"maxT":0,"minT":-3.3,"metarType":"METAR","rawOb":"METAR KDLN 170553Z AUTO 32006KT 10SM FEW070 SCT120 M02/M11 A3001 RMK AO2 SLP196 T10221106 10000 21033 51014","lat":45.2584,"lon":-112.5546,"elev":1586,"name":"Dillon Arpt, MT, US","cover":"SCT","clouds":[{"cover":"FEW","base":7000},{"cover":"SCT","base":12000}],"fltCat":"VFR"},{"icaoId":"KGEG","receiptTime":"2026-04-17T05:56:23.088Z","obsTime":1776405180,"reportTime":"2026-04-17T06:00:00.000Z","temp":4.4,"dewp":-4.4,"wdir":220,"wspd":11,"visib":"10+","altim":1018.7,"slp":1019.9,"qcField":4,"presTend":0.2,"maxT":8.3,"minT":3.9,"metarType":"METAR","rawOb":"METAR KGEG 170553Z 22011KT 10SM FEW085 04/M04 A3008 RMK AO2 SLP199 T00441044 10083 20039 50002","lat":47.6217,"lon":-117.528,"elev":718,"name":"Spokane Intl, WA, US","cover":"FEW","clouds":[{"cover":"FEW","base":8500}],"fltCat":"VFR"},{"icaoId":"KCNY","receiptTime":"2026-04-17T05:56:16.270Z","obsTime":1776405180,"reportTime":"2026-04-17T06:00:00.000Z","temp":7.8,"dewp":-6.7,"wdir":300,"wspd":18,"wgst":26,"visib":"10+","altim":1009.6,"slp":1006.5,"qcField":14,"presTend":4.1,"maxT":21.1,"minT":7.8,"metarType":"METAR","rawOb":"METAR KCNY 170553Z AUTO 30018G26KT 10SM CLR 08/M07 A2981 RMK AO2 PK WND 30028/0532 SLP065 T00781067 10211 20078 51041 $","lat":38.7501,"lon":-109.7627,"elev":1392,"name":"Moab/Canyonland Fld, UT, US","cover":"CLR","clouds":[],"fltCat":"VFR"},{"icaoId":"PANC","receiptTime":"2026-04-17T05:56:16.913Z","obsTime":1776405180,"reportTime":"2026-04-17T06:00:00.000Z","temp":1.7,"dewp":0.6,"wdir":0,"wspd":0,"visib":"10+","altim":1009.6,"slp":1009.7,"qcField":4,"wxString":"-RA","maxT":4.4,"minT":1.7,"precip":0.01,"pcp6hr":0.05,"snow":12000,"metarType":"METAR","rawOb":"METAR PANC 170553Z 00000KT 10SM -RA FEW020 OVC033 02/01 A2981 RMK AO2 SLP097 4/012 P0001 60005 T00170006 10044 20017 51000","lat":61.1691,"lon":-150.0277,"elev":39,"name":"Anchorage Intl, AK, US","cover":"OVC","clouds":[{"cover":"FEW","base":2000},{"cover":"OVC","base":3300}],"fltCat":"VFR"},{"icaoId":"KMLC","receiptTime":"2026-04-17T05:56:17.625Z","obsTime":1776405180,"reportTime":"2026-04-17T06:00:00.000Z","temp":22.8,"dewp":18.9,"wdir":160,"wspd":4,"visib":"10+","altim":1011.6,"slp":1010.7,"qcField":6,"presTend":-0.5,"maxT":26.7,"minT":22.8,"maxT24":28.9,"minT24":16.7,"metarType":"METAR","rawOb":"METAR KMLC 170553Z AUTO 16004KT 10SM CLR 23/19 A2987 RMK AO2 SLP107 T02280189 10267 20228 402890167 57005","lat":34.8824,"lon":-95.7815,"elev":231,"name":"McAlester Rgnl, OK, US","cover":"CLR","clouds":[],"fltCat":"VFR"},{"icaoId":"KMLS","receiptTime":"2026-04-17T05:56:17.658Z","obsTime":1776405180,"reportTime":"2026-04-17T06:00:00.000Z","temp":-0.6,"dewp":-5,"wdir":0,"wspd":0,"visib":"10+","altim":1014,"slp":1015.5,"qcField":6,"presTend":1,"maxT":4.4,"minT":-0.6,"metarType":"METAR","rawOb":"METAR KMLS 170553Z AUTO 00000KT 10SM FEW090 SCT120 M01/M05 A2994 RMK AO2 SLP155 T10061050 10044 21006 50010","lat":46.4265,"lon":-105.8834,"elev":800,"name":"Miles City/Wiley Fld, MT, US","cover":"SCT","clouds":[{"cover":"FEW","base":9000},{"cover":"SCT","base":12000}],"fltCat":"VFR"},{"icaoId":"KMOD","receiptTime":"2026-04-17T05:56:17.720Z","obsTime":1776405180,"reportTime":"2026-04-17T06:00:00.000Z","temp":14.4,"dewp":-2.2,"wdir":300,"wspd":14,"visib":"10+","altim":1015.3,"slp":1015.1,"qcField":14,"maxT":21.7,"minT":13.9,"metarType":"METAR","rawOb":"METAR KMOD 170553Z AUTO 30014KT 10SM CLR 14/M02 A2998 RMK AO2 SLP151 T01441022 10217 20139 $","lat":37.6254,"lon":-120.9549,"elev":25,"name":"Modesto/Sham Fld, CA, US","cover":"CLR","clouds":[],"fltCat":"VFR"},{"icaoId":"KMTJ","receiptTime":"2026-04-17T05:56:17.799Z","obsTime":1776405180,"reportTime":"2026-04-17T06:00:00.000Z","temp":14.4,"dewp":-12.8,"wdir":160,"wspd":9,"wgst":18,"visib":"10+","altim":1008.5,"slp":1001.4,"qcField":6,"presTend":-0.4,"maxT":18.3,"minT":14.4,"metarType":"METAR","rawOb":"METAR KMTJ 170553Z AUTO 16009G18KT 10SM CLR 14/M13 A2978 RMK AO2 SLP014 T01441128 10183 20144 55004","lat":38.5054,"lon":-107.8981,"elev":1755,"name":"Montrose Rgnl, CO, US","cover":"CLR","clouds":[],"fltCat":"VFR"},{"icaoId":"KMYF","receiptTime":"2026-04-17T05:56:17.842Z","obsTime":1776405180,"reportTime":"2026-04-17T06:00:00.000Z","temp":15.6,"dewp":11.1,"wdir":160,"wspd":3,"visib":"10+","altim":1013.6,"slp":1013.2,"qcField":6,"presTend":0.9,"maxT":18.9,"minT":15,"metarType":"METAR","rawOb":"METAR KMYF 170553Z AUTO 16003KT 10SM SCT019 16/11 A2993 RMK AO2 SLP132 T01560111 10189 20150 51009","lat":32.8145,"lon":-117.1375,"elev":128,"name":"San Diego/Montgomery Arpt, CA, US","cover":"SCT","clouds":[{"cover":"SCT","base":1900}],"fltCat":"VFR"},{"icaoId":"KOAK","receiptTime":"2026-04-17T05:56:17.863Z","obsTime":1776405180,"reportTime":"2026-04-17T06:00:00.000Z","temp":13.9,"dewp":4.4,"wdir":280,"wspd":7,"visib":"10+","altim":1017.7,"slp":1017.5,"qcField":12,"presTend":0.8,"maxT":21.1,"minT":13.9,"metarType":"METAR","rawOb":"METAR KOAK 170553Z 28007KT 10SM CLR 14/04 A3005 RMK AO2 SLP175 T01390044 10211 20139 50008 $","lat":37.7178,"lon":-122.233,"elev":3,"name":"Oakland Intl, CA, US","cover":"CLR","clouds":[],"fltCat":"VFR"},{"icaoId":"KOGD","receiptTime":"2026-04-17T05:56:17.901Z","obsTime":1776405180,"reportTime":"2026-04-17T06:00:00.000Z","temp":0,"dewp":-8.9,"wdir":340,"wspd":8,"visib":"10+","altim":1019,"slp":1019.5,"qcField":6,"presTend":1.5,"maxT":3.9,"minT":0,"metarType":"METAR","rawOb":"METAR KOGD 170553Z AUTO 34008KT 10SM CLR 00/M09 A3009 RMK AO2 SLP195 T00001089 10039 20000 51015","lat":41.1941,"lon":-112.0168,"elev":1356,"name":"Ogden/Hinckley Arpt, UT, US","cover":"CLR","clouds":[],"fltCat":"VFR"},{"icaoId":"KCDC","receiptTime":"2026-04-17T05:56:20.657Z","obsTime":1776405180,"reportTime":"2026-04-17T06:00:00.000Z","temp":1.7,"dewp":-8.9,"wdir":10,"wspd":17,"wgst":30,"visib":"10+","altim":1017.7,"slp":1014.5,"qcField":6,"presTend":3.7,"maxT":17.2,"minT":1.7,"metarType":"METAR","rawOb":"METAR KCDC 170553Z AUTO 01017G30KT 10SM BKN050 BKN070 OVC085 02/M09 A3005 RMK AO2 PK WND 01030/0550 SLP145 T00171089 10172 20017 51037","lat":37.7067,"lon":-113.097,"elev":1703,"name":"Cedar City Muni, UT, US","cover":"OVC","clouds":[{"cover":"BKN","base":5000},{"cover":"BKN","base":7000},{"cover":"OVC","base":8500}],"fltCat":"VFR"},{"icaoId":"KLVS","receiptTime":"2026-04-17T05:56:20.437Z","obsTime":1776405180,"reportTime":"2026-04-17T06:00:00.000Z","temp":7.8,"dewp":-10,"wdir":170,"wspd":12,"visib":"10+","altim":1013,"slp":1004.6,"qcField":6,"presTend":-0.4,"maxT":18.9,"minT":7.8,"metarType":"METAR","rawOb":"METAR KLVS 170553Z AUTO 17012KT 10SM CLR 08/M10 A2991 RMK AO2 SLP046 T00781100 10189 20078 58004","lat":35.6558,"lon":-105.1385,"elev":2095,"name":"Las Vegas Muni, NM, US","cover":"CLR","clouds":[],"fltCat":"VFR"},{"icaoId":"KMAF","receiptTime":"2026-04-17T05:56:20.448Z","obsTime":1776405180,"reportTime":"2026-04-17T06:00:00.000Z","temp":21.1,"dewp":17.8,"wdir":150,"wspd":8,"visib":8,"altim":1011.3,"slp":1006.6,"qcField":6,"presTend":-0.6,"maxT":28.9,"minT":21.1,"maxT24":30.6,"minT24":15,"metarType":"METAR","rawOb":"METAR KMAF 170553Z AUTO 15008KT 8SM CLR 21/18 A2986 RMK AO2 SLP066 T02110178 10289 20211 403060150 58006","lat":31.9475,"lon":-102.2086,"elev":874,"name":"Midland Intl, TX, US","cover":"CLR","clouds":[],"fltCat":"VFR"},{"icaoId":"KGJT","receiptTime":"2026-04-17T05:56:20.556Z","obsTime":1776405180,"reportTime":"2026-04-17T06:00:00.000Z","temp":9.4,"dewp":-4.4,"wdir":250,"wspd":19,"visib":"10+","altim":1007.5,"slp":1002.8,"qcField":6,"presTend":1.8,"maxT":21.1,"minT":9.4,"metarType":"METAR","rawOb":"METAR KGJT 170553Z AUTO 25019KT 10SM CLR 09/M04 A2975 RMK AO2 PK WND 24027/0543 WSHFT 0504 SLP028 T00941044 10211 20094 53018","lat":39.1344,"lon":-108.5408,"elev":1475,"name":"Grand Junction Rgnl, CO, US","cover":"CLR","clouds":[],"fltCat":"VFR"},{"icaoId":"KDRO","receiptTime":"2026-04-17T05:56:20.578Z","obsTime":1776405180,"reportTime":"2026-04-17T06:00:00.000Z","temp":10,"dewp":-8.9,"wdir":"VRB","wspd":3,"visib":"10+","altim":1012.6,"slp":1007.2,"qcField":6,"presTend":0.1,"maxT":15.6,"minT":6.1,"metarType":"METAR","rawOb":"METAR KDRO 170553Z AUTO VRB03KT 10SM FEW120 10/M09 A2990 RMK AO2 SLP072 T01001089 10156 20061 50001","lat":37.1431,"lon":-107.7602,"elev":2021,"name":"Durango/La Plata Cnty, CO, US","cover":"FEW","clouds":[{"cover":"FEW","base":12000}],"fltCat":"VFR"},{"icaoId":"KBTM","receiptTime":"2026-04-17T05:56:20.624Z","obsTime":1776405180,"reportTime":"2026-04-17T06:00:00.000Z","temp":-2.8,"dewp":-8.9,"wdir":340,"wspd":6,"visib":"10+","altim":1016.3,"slp":1019.7,"qcField":6,"presTend":1.4,"maxT":0.6,"minT":-2.8,"pcp6hr":0.005,"metarType":"METAR","rawOb":"METAR KBTM 170553Z AUTO 34006KT 10SM BKN060 M03/M09 A3001 RMK AO2 SLP197 60000 T10281089 10006 21028 51014","lat":45.9644,"lon":-112.5015,"elev":1680,"name":"Butte/Mooney Arpt, MT, US","cover":"BKN","clouds":[{"cover":"BKN","base":6000}],"fltCat":"VFR"},{"icaoId":"KBUR","receiptTime":"2026-04-17T05:56:20.635Z","obsTime":1776405180,"reportTime":"2026-04-17T06:00:00.000Z","temp":16.1,"dewp":8.9,"wdir":110,"wspd":4,"visib":"10+","altim":1012.6,"slp":1011.6,"qcField":4,"presTend":0.9,"maxT":21.7,"minT":16.1,"metarType":"METAR","rawOb":"METAR KBUR 170553Z 11004KT 10SM CLR 16/09 A2990 RMK AO2 SLP116 T01610089 10217 20161 50009","lat":34.1996,"lon":-118.3654,"elev":221,"name":"Burbank/Bob Hope Arpt, CA, US","cover":"CLR","clouds":[],"fltCat":"VFR"},{"icaoId":"KDVT","receiptTime":"2026-04-17T05:56:20.707Z","obsTime":1776405180,"reportTime":"2026-04-17T06:00:00.000Z","temp":22.8,"dewp":-3.3,"wdir":250,"wspd":6,"visib":"10+","altim":1008.9,"slp":1006.8,"qcField":14,"presTend":1.2,"maxT":29.4,"minT":22.8,"metarType":"METAR","rawOb":"METAR KDVT 170553Z AUTO 25006KT 10SM CLR 23/M03 A2979 RMK AO2 SLP068 T02281033 10294 20228 51012 $","lat":33.6902,"lon":-112.0662,"elev":454,"name":"Phoenix/Deer Valley Arpt, AZ, US","cover":"CLR","clouds":[],"fltCat":"VFR"},{"icaoId":"KEVW","receiptTime":"2026-04-17T05:56:20.730Z","obsTime":1776405180,"reportTime":"2026-04-17T06:00:00.000Z","temp":-10,"dewp":-11.1,"wdir":250,"wspd":7,"visib":"10+","altim":1016.7,"slp":1016.3,"qcField":14,"presTend":0.8,"maxT":-5.6,"minT":-10.6,"pcp6hr":0.01,"metarType":"METAR","rawOb":"METAR KEVW 170553Z AUTO 25007KT 10SM FEW036 M10/M11 A3002 RMK AO2 SLP163 60001 T11001111 11056 21106 51008 $","lat":41.2727,"lon":-111.0305,"elev":2178,"name":"Evanston/Uinta Cnty, WY, US","cover":"FEW","clouds":[{"cover":"FEW","base":3600}],"fltCat":"VFR"},{"icaoId":"KFAT","receiptTime":"2026-04-17T05:56:23.143Z","obsTime":1776405180,"reportTime":"2026-04-17T06:00:00.000Z","temp":15,"dewp":-0.6,"wdir":290,"wspd":9,"visib":"10+","altim":1014.6,"slp":1014.4,"qcField":12,"presTend":0.9,"maxT":22.2,"minT":15,"metarType":"METAR","rawOb":"METAR KFAT 170553Z 29009KT 10SM CLR 15/M01 A2996 RMK AO2 SLP144 T01501006 10222 20150 51009 $","lat":36.78,"lon":-119.7202,"elev":102,"name":"Fresno/Yosemite Intl, CA, US","cover":"CLR","clouds":[],"fltCat":"VFR"},{"icaoId":"KYKM","receiptTime":"2026-04-17T05:56:21.026Z","obsTime":1776405180,"reportTime":"2026-04-17T06:00:00.000Z","temp":3.9,"dewp":-3.9,"wdir":320,"wspd":6,"visib":"10+","altim":1022.8,"slp":1023,"qcField":6,"presTend":0.7,"maxT":13.9,"minT":2.8,"metarType":"METAR","rawOb":"METAR KYKM 170553Z AUTO 32006KT 10SM CLR 04/M04 A3020 RMK AO2 SLP230 T00391039 10139 20028 53007","lat":46.564,"lon":-120.5349,"elev":319,"name":"Yakima/McAllister Fld, WA, US","cover":"CLR","clouds":[],"fltCat":"VFR"},{"icaoId":"KPUW","receiptTime":"2026-04-17T05:56:21.236Z","obsTime":1776405180,"reportTime":"2026-04-17T06:00:00.000Z","temp":4.4,"dewp":-2.8,"wdir":240,"wspd":8,"visib":"10+","altim":1020.7,"slp":1022,"qcField":6,"presTend":0.5,"maxT":6.1,"minT":4.4,"metarType":"METAR","rawOb":"METAR KPUW 170553Z AUTO 24008KT 10SM OVC090 04/M03 A3014 RMK AO2 SLP220 T00441028 10061 20044 50005","lat":46.7438,"lon":-117.1158,"elev":774,"name":"Pullman/Moscow Rgnl, WA, US","cover":"OVC","clouds":[{"cover":"OVC","base":9000}],"fltCat":"VFR"},{"icaoId":"KLGB","receiptTime":"2026-04-17T05:56:21.744Z","obsTime":1776405180,"reportTime":"2026-04-17T06:00:00.000Z","temp":16.7,"dewp":13.3,"wdir":0,"wspd":0,"visib":"10+","altim":1012.6,"slp":1012.3,"qcField":4,"presTend":1,"maxT":21.7,"minT":16.1,"metarType":"METAR","rawOb":"METAR KLGB 170553Z 00000KT 10SM CLR 17/13 A2990 RMK AO2 SLP123 T01670133 10217 20161 50010","lat":33.8118,"lon":-118.1472,"elev":10,"name":"Long Beach Arpt, CA, US","cover":"CLR","clouds":[],"fltCat":"VFR"},{"icaoId":"KHIO","receiptTime":"2026-04-17T05:56:21.777Z","obsTime":1776405180,"reportTime":"2026-04-17T06:00:00.000Z","temp":5.6,"dewp":2.8,"wdir":300,"wspd":3,"visib":"10+","altim":1027.2,"slp":1027.2,"qcField":6,"presTend":1.3,"maxT":13.9,"minT":5.6,"metarType":"METAR","rawOb":"METAR KHIO 170553Z AUTO 30003KT 10SM CLR 06/03 A3033 RMK AO2 SLP272 T00560028 10139 20056 51013","lat":45.5476,"lon":-122.9557,"elev":62,"name":"Portland/Hillsboro Arpt, OR, US","cover":"CLR","clouds":[],"fltCat":"VFR"},{"icaoId":"KDCA","receiptTime":"2026-04-17T05:56:24.190Z","obsTime":1776405120,"reportTime":"2026-04-17T06:00:00.000Z","temp":24.4,"dewp":13.3,"wdir":310,"wspd":7,"visib":"10+","altim":1010.2,"slp":1010.1,"qcField":4,"presTend":1.3,"maxT":27.2,"minT":24.4,"metarType":"METAR","rawOb":"METAR KDCA 170552Z 31007KT 10SM FEW120 SCT140 OVC250 24/13 A2983 RMK AO2 SLP101 T02440133 10272 20244 51013","lat":38.8472,"lon":-77.0345,"elev":4,"name":"Washington/Reagan-National Arpt, VA, US","cover":"OVC","clouds":[{"cover":"FEW","base":12000},{"cover":"SCT","base":14000},{"cover":"OVC","base":25000}],"fltCat":"VFR"},{"icaoId":"KHRL","receiptTime":"2026-04-17T05:56:06.726Z","obsTime":1776405120,"reportTime":"2026-04-17T06:00:00.000Z","temp":23.3,"dewp":22.2,"wdir":140,"wspd":12,"visib":"10+","altim":1013.3,"slp":1013,"qcField":6,"presTend":-0.6,"maxT":27.2,"minT":23.3,"maxT24":31.1,"minT24":22.2,"metarType":"METAR","rawOb":"METAR KHRL 170552Z AUTO 14012KT 10SM FEW017 23/22 A2992 RMK AO2 SLP130 T02330222 10272 20233 403110222 58006","lat":26.2303,"lon":-97.6556,"elev":9,"name":"Harlingen/Valley Intl, TX, US","cover":"FEW","clouds":[{"cover":"FEW","base":1700}],"fltCat":"VFR"},{"icaoId":"KIAD","receiptTime":"2026-04-17T05:56:06.752Z","obsTime":1776405120,"reportTime":"2026-04-17T06:00:00.000Z","temp":22.8,"dewp":14.4,"wdir":320,"wspd":7,"visib":"10+","altim":1010.9,"slp":1010.4,"qcField":4,"presTend":1.4,"maxT":28.9,"minT":22.8,"metarType":"METAR","rawOb":"METAR KIAD 170552Z 32007KT 10SM FEW060 FEW080 BKN110 23/14 A2985 RMK AO2 SLP104 T02280144 10289 20228 50014","lat":38.9348,"lon":-77.4473,"elev":90,"name":"Washington/Dulles Intl, VA, US","cover":"BKN","clouds":[{"cover":"FEW","base":6000},{"cover":"FEW","base":8000},{"cover":"BKN","base":11000}],"fltCat":"VFR"},{"icaoId":"KOKC","receiptTime":"2026-04-17T05:56:06.927Z","obsTime":1776405120,"reportTime":"2026-04-17T06:00:00.000Z","temp":21.7,"dewp":17.8,"wdir":170,"wspd":12,"visib":"10+","altim":1009.9,"slp":1008.1,"qcField":4,"presTend":0.3,"maxT":26.7,"minT":21.7,"maxT24":29.4,"minT24":15,"metarType":"METAR","rawOb":"METAR KOKC 170552Z 17012KT 10SM FEW120 FEW250 22/18 A2982 RMK AO2 SLP081 T02170178 10267 20217 402940150 51003","lat":35.3843,"lon":-97.6003,"elev":391,"name":"Oklahoma City/Will Rogers Intl, OK, US","cover":"FEW","clouds":[{"cover":"FEW","base":12000},{"cover":"FEW","base":25000}],"fltCat":"VFR"},{"icaoId":"KATL","receiptTime":"2026-04-17T05:56:06.995Z","obsTime":1776405120,"reportTime":"2026-04-17T06:00:00.000Z","temp":21.1,"dewp":10.6,"wdir":270,"wspd":8,"visib":"10+","altim":1018,"slp":1016.8,"qcField":12,"presTend":0.1,"maxT":26.7,"minT":21.1,"metarType":"METAR","rawOb":"METAR KATL 170552Z 27008KT 10SM BKN060 21/11 A3006 RMK AO2 SLP168 T02110106 10267 20211 50001 $","lat":33.6297,"lon":-84.4422,"elev":309,"name":"Atlanta/Hartsfield-Jackson Intl, GA, US","cover":"BKN","clouds":[{"cover":"BKN","base":6000}],"fltCat":"VFR"},{"icaoId":"KCLT","receiptTime":"2026-04-17T05:56:07.104Z","obsTime":1776405120,"reportTime":"2026-04-17T06:00:00.000Z","temp":21.7,"dewp":10,"wdir":260,"wspd":5,"visib":"10+","altim":1015.7,"slp":1015.9,"qcField":4,"presTend":0.5,"maxT":26.7,"minT":21.7,"metarType":"METAR","rawOb":"METAR KCLT 170552Z 26005KT 10SM FEW100 FEW250 22/10 A2999 RMK AO2 SLP159 T02170100 10267 20217 51005","lat":35.2225,"lon":-80.9543,"elev":223,"name":"Charlotte/Douglas Intl, NC, US","cover":"FEW","clouds":[{"cover":"FEW","base":10000},{"cover":"FEW","base":25000}],"fltCat":"VFR"},{"icaoId":"KABI","receiptTime":"2026-04-17T05:56:07.850Z","obsTime":1776405120,"reportTime":"2026-04-17T06:00:00.000Z","temp":22.8,"dewp":17.8,"visib":"10+","altim":1010.6,"slp":1008,"qcField":4,"presTend":-0.6,"maxT":26.7,"minT":22.8,"maxT24":29.4,"minT24":18.9,"metarType":"METAR","rawOb":"METAR KABI 170552Z 10SM CLR 23/18 A2984 RMK AO2 SLP080 T02280178 10267 20228 402940189 58006","lat":32.4106,"lon":-99.6821,"elev":543,"name":"Abilene Rgnl, TX, US","cover":"CLR","clouds":[],"fltCat":"VFR"},{"icaoId":"KABQ","receiptTime":"2026-04-17T05:56:07.863Z","obsTime":1776405120,"reportTime":"2026-04-17T06:00:00.000Z","temp":18.3,"dewp":-14.4,"wdir":290,"wspd":6,"visib":"10+","altim":1012.6,"slp":1005.7,"qcField":4,"presTend":1,"maxT":23.9,"minT":17.8,"metarType":"METAR","rawOb":"METAR KABQ 170552Z 29006KT 10SM BKN170 18/M14 A2990 RMK AO2 SLP057 T01831144 10239 20178 50010","lat":35.0419,"lon":-106.6154,"elev":1620,"name":"Albuquerque Intl, NM, US","cover":"BKN","clouds":[{"cover":"BKN","base":17000}],"fltCat":"VFR"},{"icaoId":"KSPS","receiptTime":"2026-04-17T05:56:07.931Z","obsTime":1776405120,"reportTime":"2026-04-17T06:00:00.000Z","temp":21.7,"dewp":17.8,"wdir":180,"wspd":12,"wgst":17,"visib":"10+","altim":1009.6,"slp":1008.2,"qcField":4,"presTend":0.1,"maxT":28.3,"minT":21.1,"maxT24":32.2,"minT24":18.3,"metarType":"METAR","rawOb":"METAR KSPS 170552Z 18012G17KT 10SM CLR 22/18 A2981 RMK AO2 SLP082 T02170178 10283 20211 403220183 50001","lat":33.9785,"lon":-98.493,"elev":310,"name":"Wichita Falls Rgnl, TX, US","cover":"CLR","clouds":[],"fltCat":"VFR"},{"icaoId":"KCVG","receiptTime":"2026-04-17T05:56:24.178Z","obsTime":1776405120,"reportTime":"2026-04-17T06:00:00.000Z","temp":16.7,"dewp":10,"wdir":250,"wspd":3,"visib":"10+","altim":1015,"slp":1014,"qcField":4,"presTend":0.4,"maxT":22.8,"minT":16.7,"metarType":"METAR","rawOb":"METAR KCVG 170552Z 25003KT 10SM SCT250 17/10 A2997 RMK AO2 SLP140 T01670100 10228 20167 52004","lat":39.0444,"lon":-84.6724,"elev":264,"name":"Cincinnati Intl, KY, US","cover":"SCT","clouds":[{"cover":"SCT","base":25000}],"fltCat":"VFR"},{"icaoId":"KMLF","receiptTime":"2026-04-17T05:56:07.835Z","obsTime":1776405120,"reportTime":"2026-04-17T06:00:00.000Z","temp":1.1,"dewp":-8.3,"wdir":30,"wspd":18,"wgst":31,"visib":"10+","altim":1019,"slp":1016.6,"qcField":6,"presTend":3.4,"maxT":8.3,"minT":1.1,"metarType":"METAR","rawOb":"METAR KMLF 170552Z AUTO 03018G31KT 10SM OVC044 01/M08 A3009 RMK AO2 PK WND 02035/0506 SLP166 T00111083 10083 20011 51034","lat":38.4225,"lon":-113.0109,"elev":1537,"name":"Milford Muni, UT, US","cover":"OVC","clouds":[{"cover":"OVC","base":4400}],"fltCat":"VFR"},{"icaoId":"KMKE","receiptTime":"2026-04-17T05:56:06.865Z","obsTime":1776405120,"reportTime":"2026-04-17T06:00:00.000Z","temp":7.8,"dewp":7.8,"wdir":0,"wspd":0,"visib":0.25,"altim":1014.3,"slp":1014.6,"qcField":12,"wxString":"FG","presTend":0.2,"maxT":10,"minT":6.7,"maxT24":17.2,"minT24":6.7,"vertVis":2,"metarType":"METAR","rawOb":"METAR KMKE 170552Z 00000KT 1/4SM R01L/1600V2000FT FG VV002 08/08 A2995 RMK AO2 SLP146 T00780078 10100 20067 401720067 50002 $","lat":42.9549,"lon":-87.9045,"elev":203,"name":"Milwaukee/Mitchell Intl, WI, US","cover":"OVX","clouds":[{"cover":"OVX","base":200}],"fltCat":"LIFR"},{"icaoId":"KCMH","receiptTime":"2026-04-17T05:54:10.253Z","obsTime":1776405060,"reportTime":"2026-04-17T06:00:00.000Z","temp":16.7,"dewp":12.2,"wdir":0,"wspd":0,"visib":"10+","altim":1014.3,"slp":1013.6,"qcField":4,"presTend":0.6,"maxT":23.3,"minT":16.1,"pcp6hr":0.005,"metarType":"METAR","rawOb":"METAR KCMH 170551Z 00000KT 10SM SCT250 17/12 A2995 RMK AO2 SLP136 60000 T01670122 10233 20161 53006","lat":39.9907,"lon":-82.877,"elev":257,"name":"Columbus/Glenn Intl, OH, US","cover":"SCT","clouds":[{"cover":"SCT","base":25000}],"fltCat":"VFR"},{"icaoId":"KSAD","receiptTime":"2026-04-17T05:54:09.642Z","obsTime":1776405060,"reportTime":"2026-04-17T06:00:00.000Z","temp":19.4,"dewp":-10.6,"wdir":290,"wspd":10,"visib":"10+","altim":1010.9,"slp":1006.5,"qcField":6,"presTend":1.4,"maxT":28.3,"minT":19.4,"metarType":"METAR","rawOb":"METAR KSAD 170551Z AUTO 29010KT 10SM CLR 19/M11 A2985 RMK AO2 SLP065 T01941106 10283 20194 51014","lat":32.8565,"lon":-109.636,"elev":937,"name":"Safford Rgnl, AZ, US","cover":"CLR","clouds":[],"fltCat":"VFR"},{"icaoId":"KRDU","receiptTime":"2026-04-17T05:54:09.617Z","obsTime":1776405060,"reportTime":"2026-04-17T06:00:00.000Z","temp":20.6,"dewp":9.4,"wdir":230,"wspd":7,"visib":"10+","altim":1013.6,"slp":1013,"qcField":4,"maxT":28.3,"minT":20.6,"metarType":"METAR","rawOb":"METAR KRDU 170551Z 23007KT 10SM FEW110 FEW250 21/09 A2993 RMK AO2 SLP130 T02060094 10283 20206 50000","lat":35.8923,"lon":-78.782,"elev":121,"name":"Raleigh-Durham Intl, NC, US","cover":"FEW","clouds":[{"cover":"FEW","base":11000},{"cover":"FEW","base":25000}],"fltCat":"VFR"},{"icaoId":"KORF","receiptTime":"2026-04-17T05:54:09.528Z","obsTime":1776405060,"reportTime":"2026-04-17T06:00:00.000Z","temp":21.7,"dewp":16.7,"wdir":210,"wspd":13,"visib":"10+","altim":1011.3,"slp":1011.1,"qcField":4,"maxT":28.3,"minT":21.7,"metarType":"METAR","rawOb":"METAR KORF 170551Z 21013KT 10SM CLR 22/17 A2986 RMK AO2 SLP111 T02170167 10283 20217 58000","lat":36.9037,"lon":-76.1927,"elev":5,"name":"Norfolk Intl, VA, US","cover":"CLR","clouds":[],"fltCat":"VFR"},{"icaoId":"KLGU","receiptTime":"2026-04-17T05:54:09.431Z","obsTime":1776405060,"reportTime":"2026-04-17T06:00:00.000Z","temp":-2.2,"dewp":-4.4,"wdir":240,"wspd":4,"visib":"10+","altim":1019,"slp":1021.2,"qcField":6,"presTend":1.6,"maxT":1.7,"minT":-2.8,"metarType":"METAR","rawOb":"METAR KLGU 170551Z AUTO 24004KT 10SM BKN060 M02/M04 A3009 RMK AO2 SLP212 T10221044 10017 21028 51016","lat":41.7865,"lon":-111.8519,"elev":1359,"name":"Logan/Cache Arpt, UT, US","cover":"BKN","clouds":[{"cover":"BKN","base":6000}],"fltCat":"VFR"},{"icaoId":"KACT","receiptTime":"2026-04-17T05:54:10.039Z","obsTime":1776405060,"reportTime":"2026-04-17T06:00:00.000Z","temp":22.8,"dewp":18.3,"wdir":180,"wspd":11,"visib":"10+","altim":1013,"slp":1012.3,"qcField":4,"presTend":1,"maxT":27.8,"minT":22.8,"maxT24":30,"minT24":20,"metarType":"METAR","rawOb":"METAR KACT 170551Z 18011KT 10SM CLR 23/18 A2991 RMK AO2 SLP123 T02280183 10278 20228 403000200 53010","lat":31.618,"lon":-97.2283,"elev":150,"name":"Waco Rgnl, TX, US","cover":"CLR","clouds":[],"fltCat":"VFR"},{"icaoId":"KMYL","receiptTime":"2026-04-17T05:54:09.501Z","obsTime":1776405060,"reportTime":"2026-04-17T06:00:00.000Z","temp":-3.3,"dewp":-6.1,"wdir":0,"wspd":0,"visib":"10+","altim":1020.7,"slp":1024.1,"qcField":6,"presTend":1,"maxT":1.7,"minT":-3.9,"pcp6hr":0.005,"metarType":"METAR","rawOb":"METAR KMYL 170551Z AUTO 00000KT 10SM CLR M03/M06 A3014 RMK AO2 SLP241 60000 T10331061 10017 21039 51010","lat":44.8943,"lon":-116.0998,"elev":1532,"name":"McCall Muni, ID, US","cover":"CLR","clouds":[],"fltCat":"VFR"},{"icaoId":"KPIT","receiptTime":"2026-04-17T05:54:09.971Z","obsTime":1776405060,"reportTime":"2026-04-17T06:00:00.000Z","temp":16.7,"dewp":12.8,"wdir":300,"wspd":10,"visib":"10+","altim":1012.6,"slp":1012.5,"qcField":4,"presTend":0.5,"maxT":19.4,"minT":15.6,"pcp6hr":0.01,"metarType":"METAR","rawOb":"METAR KPIT 170551Z 30010KT 10SM SCT075 SCT100 17/13 A2990 RMK AO2 SLP125 60001 T01670128 10194 20156 53005","lat":40.4814,"lon":-80.2083,"elev":339,"name":"Pittsburgh Intl, PA, US","cover":"SCT","clouds":[{"cover":"SCT","base":7500},{"cover":"SCT","base":10000}],"fltCat":"VFR"},{"icaoId":"KJFK","receiptTime":"2026-04-17T06:00:11.125Z","obsTime":1776405060,"reportTime":"2026-04-17T06:00:00.000Z","temp":16.7,"dewp":12.8,"wdir":340,"wspd":10,"visib":"10+","altim":1007.5,"slp":1007.2,"qcField":5,"presTend":0.2,"maxT":16.7,"minT":13.9,"metarType":"METAR","rawOb":"METAR KJFK 170551Z COR 34010KT 10SM FEW065 BKN110 BKN250 17/13 A2975 RMK AO2 SLP072 T01670128 10167 20139 50002","lat":40.6392,"lon":-73.7639,"elev":3,"name":"New York/JF Kennedy Intl, NY, US","cover":"BKN","clouds":[{"cover":"FEW","base":6500},{"cover":"BKN","base":11000},{"cover":"BKN","base":25000}],"fltCat":"VFR"},{"icaoId":"KPVD","receiptTime":"2026-04-17T05:54:09.589Z","obsTime":1776405060,"reportTime":"2026-04-17T06:00:00.000Z","temp":13.3,"dewp":11.1,"wdir":100,"wspd":3,"visib":9,"altim":1007.5,"slp":1007.2,"qcField":14,"presTend":0.1,"maxT":15,"minT":11.7,"metarType":"METAR","rawOb":"METAR KPVD 170551Z AUTO 10003KT 9SM OVC085 13/11 A2975 RMK AO2 SLP072 T01330111 10150 20117 53001 $","lat":41.7225,"lon":-71.4325,"elev":15,"name":"Providence/Green Mem, RI, US","cover":"OVC","clouds":[{"cover":"OVC","base":8500}],"fltCat":"VFR"},{"icaoId":"KPHX","receiptTime":"2026-04-17T05:54:09.553Z","obsTime":1776405060,"reportTime":"2026-04-17T06:00:00.000Z","temp":25,"dewp":-1.1,"wdir":270,"wspd":12,"visib":"10+","altim":1008.2,"slp":1006.4,"qcField":12,"presTend":1,"maxT":30.6,"minT":25,"metarType":"METAR","rawOb":"METAR KPHX 170551Z 27012KT 10SM FEW200 SCT250 25/M01 A2977 RMK AO2 SLP064 T02501011 10306 20250 51010 $","lat":33.4278,"lon":-112.0037,"elev":338,"name":"Phoenix/Sky Harbor Intl, AZ, US","cover":"SCT","clouds":[{"cover":"FEW","base":20000},{"cover":"SCT","base":25000}],"fltCat":"VFR"},{"icaoId":"KOXR","receiptTime":"2026-04-17T05:54:09.541Z","obsTime":1776405060,"reportTime":"2026-04-17T06:00:00.000Z","temp":14.4,"dewp":11.7,"wdir":60,"wspd":3,"visib":9,"altim":1012.3,"slp":1012.1,"qcField":14,"presTend":1,"maxT":18.3,"minT":13.9,"metarType":"METAR","rawOb":"METAR KOXR 170551Z AUTO 06003KT 9SM CLR 14/12 A2989 RMK AO2 SLP121 T01440117 10183 20139 51010 $","lat":34.2001,"lon":-119.2042,"elev":12,"name":"Oxnard Arpt, CA, US","cover":"CLR","clouds":[],"fltCat":"VFR"},{"icaoId":"KVNY","receiptTime":"2026-04-17T05:54:08.888Z","obsTime":1776405060,"reportTime":"2026-04-17T06:00:00.000Z","temp":15,"dewp":8.9,"wdir":0,"wspd":0,"visib":"10+","altim":1012.3,"slp":1011.6,"qcField":14,"presTend":1.2,"maxT":22.8,"minT":15,"metarType":"METAR","rawOb":"METAR KVNY 170551Z AUTO 00000KT 10SM CLR 15/09 A2989 RMK AO2 SLP116 T01500089 10228 20150 50012 $","lat":34.2121,"lon":-118.4915,"elev":241,"name":"Van Nuys Arpt, CA, US","cover":"CLR","clouds":[],"fltCat":"VFR"},{"icaoId":"KSAN","receiptTime":"2026-04-17T05:54:09.653Z","obsTime":1776405060,"reportTime":"2026-04-17T06:00:00.000Z","temp":16.7,"dewp":11.1,"wdir":160,"wspd":6,"visib":"10+","altim":1014,"slp":1013.9,"qcField":12,"presTend":0.9,"maxT":20,"minT":16.7,"metarType":"METAR","rawOb":"METAR KSAN 170551Z 16006KT 10SM BKN021 BKN250 17/11 A2994 RMK AO2 SLP139 T01670111 10200 20167 51009 $","lat":32.7364,"lon":-117.1973,"elev":3,"name":"San Diego Intl Arpt, CA, US","cover":"BKN","clouds":[{"cover":"BKN","base":2100},{"cover":"BKN","base":25000}],"fltCat":"MVFR"},{"icaoId":"KIGM","receiptTime":"2026-04-17T05:54:09.368Z","obsTime":1776405060,"reportTime":"2026-04-17T06:00:00.000Z","temp":12.2,"dewp":-4.4,"wdir":150,"wspd":5,"visib":"10+","altim":1010.6,"slp":1005,"qcField":6,"presTend":0.5,"maxT":21.7,"minT":12.2,"metarType":"METAR","rawOb":"METAR KIGM 170551Z AUTO 15005KT 10SM CLR 12/M04 A2984 RMK AO2 SLP050 T01221044 10217 20122 50005","lat":35.2575,"lon":-113.9341,"elev":1045,"name":"Kingman Arpt, AZ, US","cover":"CLR","clouds":[],"fltCat":"VFR"},{"icaoId":"KEWR","receiptTime":"2026-04-17T05:54:09.280Z","obsTime":1776405060,"reportTime":"2026-04-17T06:00:00.000Z","temp":22.8,"dewp":13.9,"wdir":330,"wspd":10,"visib":"10+","altim":1007.9,"slp":1007.6,"qcField":4,"presTend":1.6,"maxT":28.3,"minT":22.8,"metarType":"METAR","rawOb":"METAR KEWR 170551Z 33010KT 10SM FEW060 SCT100 SCT250 23/14 A2976 RMK AO2 PK WND 30028/0503 SLP076 T02280139 10283 20228 53016","lat":40.6828,"lon":-74.1692,"elev":2,"name":"Newark Intl, NJ, US","cover":"SCT","clouds":[{"cover":"FEW","base":6000},{"cover":"SCT","base":10000},{"cover":"SCT","base":25000}],"fltCat":"VFR"},{"icaoId":"KROW","receiptTime":"2026-04-17T05:54:09.632Z","obsTime":1776405060,"reportTime":"2026-04-17T06:00:00.000Z","temp":16.1,"dewp":-7.2,"wdir":140,"wspd":8,"visib":"10+","altim":1009.9,"slp":1004.4,"qcField":14,"presTend":-0.1,"maxT":28.3,"minT":16.1,"metarType":"METAR","rawOb":"METAR KROW 170551Z AUTO 14008KT 10SM CLR 16/M07 A2982 RMK AO2 SLP044 T01611072 10283 20161 58001 $","lat":33.3074,"lon":-104.5082,"elev":1105,"name":"Roswell/Ind Arpt, NM, US","cover":"CLR","clouds":[],"fltCat":"VFR"},{"icaoId":"KSTL","receiptTime":"2026-04-17T05:54:08.808Z","obsTime":1776405060,"reportTime":"2026-04-17T06:00:00.000Z","temp":20,"dewp":16.7,"wdir":200,"wspd":5,"visib":"10+","altim":1014,"slp":1012.9,"qcField":12,"presTend":0.3,"maxT":26.1,"minT":20,"maxT24":28.3,"minT24":15,"metarType":"METAR","rawOb":"METAR KSTL 170551Z 20005KT 10SM FEW250 20/17 A2994 RMK AO2 SLP129 T02000167 10261 20200 402830150 50003 $","lat":38.7525,"lon":-90.3734,"elev":163,"name":"St Louis/Lambert Intl, MO, US","cover":"FEW","clouds":[{"cover":"FEW","base":25000}],"fltCat":"VFR"},{"icaoId":"KCLE","receiptTime":"2026-04-17T05:54:08.982Z","obsTime":1776405060,"reportTime":"2026-04-17T06:00:00.000Z","temp":12.2,"dewp":11.1,"wdir":280,"wspd":4,"visib":"10+","altim":1013,"slp":1014.2,"qcField":12,"presTend":1,"maxT":20,"minT":11.7,"metarType":"METAR","rawOb":"METAR KCLE 170551Z 28004KT 10SM CLR 12/11 A2991 RMK AO2 SLP142 T01220111 10200 20117 53010 $","lat":41.4057,"lon":-81.8519,"elev":237,"name":"Cleveland/Hopkins Intl, OH, US","cover":"CLR","clouds":[],"fltCat":"VFR"},{"icaoId":"KELP","receiptTime":"2026-04-17T05:54:09.267Z","obsTime":1776405060,"reportTime":"2026-04-17T06:00:00.000Z","temp":23.3,"dewp":-11.7,"wdir":270,"wspd":7,"visib":"10+","altim":1012.3,"slp":1005.2,"qcField":12,"presTend":0.7,"maxT":27.8,"minT":21.7,"metarType":"METAR","rawOb":"METAR KELP 170551Z 27007KT 10SM FEW180 FEW250 23/M12 A2989 RMK AO2 SLP052 T02331117 10278 20217 50007 $","lat":31.8123,"lon":-106.3774,"elev":1205,"name":"El Paso Intl, TX, US","cover":"FEW","clouds":[{"cover":"FEW","base":18000},{"cover":"FEW","base":25000}],"fltCat":"VFR"},{"icaoId":"KLGA","receiptTime":"2026-04-17T05:56:06.802Z","obsTime":1776405060,"reportTime":"2026-04-17T06:00:00.000Z","temp":21.7,"dewp":13.3,"wdir":330,"wspd":13,"wgst":20,"visib":"10+","altim":1007.5,"slp":1007.2,"qcField":4,"presTend":1.2,"maxT":26.7,"minT":21.1,"metarType":"METAR","rawOb":"METAR KLGA 170551Z 33013G20KT 10SM FEW060 BKN100 BKN250 22/13 A2975 RMK AO2 SLP072 T02170133 10267 20211 53012","lat":40.7794,"lon":-73.8803,"elev":9,"name":"New York/La Guardia Arpt, NY, US","cover":"BKN","clouds":[{"cover":"FEW","base":6000},{"cover":"BKN","base":10000},{"cover":"BKN","base":25000}],"fltCat":"VFR"},{"icaoId":"KBDL","receiptTime":"2026-04-17T05:54:10.119Z","obsTime":1776405060,"reportTime":"2026-04-17T06:00:00.000Z","temp":17.8,"dewp":15.6,"wdir":360,"wspd":9,"visib":8,"altim":1007.5,"slp":1007.3,"qcField":4,"wxString":"-RA","presTend":2,"maxT":26.7,"minT":17.8,"precip":0.03,"pcp6hr":0.03,"metarType":"METAR","rawOb":"METAR KBDL 170551Z 36009KT 8SM -RA FEW070 BKN085 OVC110 18/16 A2975 RMK AO2 RAB19 TSB0457E38 SLP073 P0003 60003 T01780156 10267 20178 51020","lat":41.9374,"lon":-72.682,"elev":52,"name":"Hartford/Bradley Intl, CT, US","cover":"OVC","clouds":[{"cover":"FEW","base":7000},{"cover":"BKN","base":8500},{"cover":"OVC","base":11000}],"fltCat":"VFR"},{"icaoId":"KCRP","receiptTime":"2026-04-17T05:54:09.199Z","obsTime":1776405060,"reportTime":"2026-04-17T06:00:00.000Z","temp":23.9,"dewp":21.7,"wdir":150,"wspd":15,"visib":"10+","altim":1013.3,"slp":1013.1,"qcField":12,"presTend":-0.6,"maxT":26.7,"minT":23.3,"maxT24":30.6,"minT24":22.8,"metarType":"METAR","rawOb":"METAR KCRP 170551Z 15015KT 10SM SCT014 BKN018 OVC250 24/22 A2992 RMK AO2 SLP131 T02390217 10267 20233 403060228 58006 $","lat":27.7734,"lon":-97.513,"elev":11,"name":"Corpus Christi Intl, TX, US","cover":"OVC","clouds":[{"cover":"SCT","base":1400},{"cover":"BKN","base":1800},{"cover":"OVC","base":25000}],"fltCat":"MVFR"}]