[{"icaoId":"KSOW","receiptTime":"2026-04-07T14:17:25.486Z","obsTime":1775571300,"reportTime":"2026-04-07T14:15:00.000Z","temp":7,"dewp":7,"wdir":10,"wspd":8,"visib":"10+","altim":1021.1,"qcField":6,"metarType":"METAR","rawOb":"METAR KSOW 071415Z AUTO 01008KT 10SM FEW006 BKN021 OVC026 07/07 A3015 RMK AO2","lat":34.2686,"lon":-110.0019,"elev":1954,"name":"Show Low Muni, AZ, US","cover":"OVC","clouds":[{"cover":"FEW","base":600},{"cover":"BKN","base":2100},{"cover":"OVC","base":2600}],"fltCat":"MVFR"},{"icaoId":"KINW","receiptTime":"2026-04-07T14:04:09.092Z","obsTime":1775570460,"reportTime":"2026-04-07T14:01:00.000Z","temp":7.2,"dewp":7.2,"wdir":0,"wspd":0,"visib":0.75,"altim":1019.7,"qcField":6,"wxString":"BR","vertVis":1,"metarType":"SPECI","rawOb":"SPECI KINW 071401Z AUTO 00000KT 3/4SM BR VV001 07/07 A3011 RMK AO2 T00720072","lat":35.0279,"lon":-110.7221,"elev":1492,"name":"Winslow/Lindberg Rgnl, AZ, US","cover":"OVX","clouds":[{"cover":"OVX","base":100}],"fltCat":"LIFR"},{"icaoId":"KFLG","receiptTime":"2026-04-07T14:00:26.755Z","obsTime":1775570220,"reportTime":"2026-04-07T14:00:00.000Z","temp":1.1,"dewp":0,"wdir":0,"wspd":0,"visib":"10+","altim":1021.4,"slp":1018,"qcField":4,"metarType":"METAR","rawOb":"METAR KFLG 071357Z 00000KT 10SM FEW002 01/00 A3016 RMK AO2 SLP180 T00110000","lat":35.1443,"lon":-111.6664,"elev":2134,"name":"Flagstaff/Pulliam Arpt, AZ, US","cover":"FEW","clouds":[{"cover":"FEW","base":200}],"fltCat":"VFR"},{"icaoId":"KNYL","receiptTime":"2026-04-07T14:00:09.878Z","obsTime":1775570220,"reportTime":"2026-04-07T14:00:00.000Z","temp":18.3,"dewp":6.1,"wdir":0,"wspd":0,"visib":"10+","altim":1011.9,"slp":1011.5,"qcField":4,"metarType":"METAR","rawOb":"METAR KNYL 071357Z 00000KT 10SM CLR 18/06 A2988 RMK AO2 SLP115 T01830061","lat":32.66,"lon":-114.6078,"elev":58,"name":"Yuma , AZ, US","cover":"CLR","clouds":[],"fltCat":"VFR"},{"icaoId":"KDUG","receiptTime":"2026-04-07T14:02:07.258Z","obsTime":1775570160,"reportTime":"2026-04-07T14:00:00.000Z","temp":9.4,"dewp":4.4,"wdir":0,"wspd":0,"visib":"10+","altim":1017,"slp":1012.4,"qcField":38,"metarType":"METAR","rawOb":"METAR KDUG 071356Z AUTO 00000KT 10SM CLR 09/04 A3003 RMK AO2 SLP124 T00940044 TSNO","lat":31.4725,"lon":-109.6022,"elev":1260,"name":"Douglas/Bisbee Intl, AZ, US","cover":"CLR","clouds":[],"fltCat":"VFR"},{"icaoId":"KCGZ","receiptTime":"2026-04-07T13:58:28.806Z","obsTime":1775570160,"reportTime":"2026-04-07T14:00:00.000Z","temp":17.2,"dewp":7.2,"wdir":360,"wspd":6,"visib":"10+","altim":1014,"slp":1013,"qcField":14,"metarType":"METAR","rawOb":"METAR KCGZ 071356Z AUTO 36006KT 10SM CLR 17/07 A2994 RMK AO2 SLP130 T01720072 $","lat":32.9531,"lon":-111.7725,"elev":444,"name":"Casa Granda Muni, AZ, US","cover":"CLR","clouds":[],"fltCat":"VFR"},{"icaoId":"KLUF","receiptTime":"2026-04-07T14:04:06.458Z","obsTime":1775570100,"reportTime":"2026-04-07T14:00:00.000Z","temp":17.6,"dewp":4.2,"wdir":340,"wspd":6,"visib":"10+","altim":1013,"slp":1011.9,"qcField":12,"metarType":"METAR","rawOb":"METAR KLUF 071355Z 34006KT 10SM CLR 18/04 A2991 RMK AO2A SLP119 T01760042 $","lat":33.538,"lon":-112.38,"elev":333,"name":"Phoenix/Luke AFB, AZ, US","cover":"CLR","clouds":[],"fltCat":"VFR"},{"icaoId":"KHII","receiptTime":"2026-04-07T14:00:14.602Z","obsTime":1775570100,"reportTime":"2026-04-07T14:00:00.000Z","temp":18,"dewp":-3,"wdir":10,"wspd":3,"visib":"10+","altim":1013,"qcField":6,"metarType":"METAR","rawOb":"METAR KHII 071355Z AUTO 01003KT 10SM CLR 18/M03 A2991 RMK AO2","lat":34.5659,"lon":-114.3522,"elev":241,"name":"Lake Havasu City Arpt, AZ, US","cover":"CLR","clouds":[],"fltCat":"VFR"},{"icaoId":"KSEZ","receiptTime":"2026-04-07T14:00:27.388Z","obsTime":1775570100,"reportTime":"2026-04-07T14:00:00.000Z","temp":12,"dewp":2,"wdir":30,"wspd":8,"wgst":13,"visib":"10+","altim":1018.7,"qcField":6,"metarType":"METAR","rawOb":"METAR KSEZ 071355Z AUTO 03008G13KT 10SM CLR 12/02 A3008 RMK AO2","lat":34.8467,"lon":-111.7884,"elev":1455,"name":"Sedona Arpt, AZ, US","cover":"CLR","clouds":[],"fltCat":"VFR"},{"icaoId":"KIFP","receiptTime":"2026-04-07T14:00:27.234Z","obsTime":1775570100,"reportTime":"2026-04-07T14:00:00.000Z","temp":17,"dewp":-5,"wdir":0,"wspd":0,"visib":"10+","altim":1012.6,"qcField":6,"metarType":"METAR","rawOb":"METAR KIFP 071355Z AUTO 00000KT 10SM CLR 17/M05 A2990 RMK AO2","lat":35.1487,"lon":-114.5611,"elev":210,"name":"Bullhead City Intl, AZ, US","cover":"CLR","clouds":[],"fltCat":"VFR"},{"icaoId":"KOLS","receiptTime":"2026-04-07T13:58:09.349Z","obsTime":1775570040,"reportTime":"2026-04-07T14:00:00.000Z","temp":10.6,"dewp":1.1,"wdir":0,"wspd":0,"visib":"10+","altim":1016.7,"slp":1011.8,"qcField":6,"metarType":"METAR","rawOb":"METAR KOLS 071354Z AUTO 00000KT 10SM CLR 11/01 A3002 RMK AO2 SLP118 T01060011","lat":31.4208,"lon":-110.8465,"elev":1194,"name":"Nogales Intl, AZ, US","cover":"CLR","clouds":[],"fltCat":"VFR"},{"icaoId":"KFFZ","receiptTime":"2026-04-07T13:58:05.656Z","obsTime":1775570040,"reportTime":"2026-04-07T14:00:00.000Z","temp":18.9,"dewp":7.8,"wdir":10,"wspd":5,"visib":"10+","altim":1013.6,"slp":1011.7,"qcField":4,"metarType":"METAR","rawOb":"METAR KFFZ 071354Z 01005KT 10SM CLR 19/08 A2993 RMK AO2 SLP117 T01890078","lat":33.4659,"lon":-111.7212,"elev":420,"name":"Mesa/Falcon Fld, AZ, US","cover":"CLR","clouds":[],"fltCat":"VFR"},{"icaoId":"KGEU","receiptTime":"2026-04-07T13:55:43.787Z","obsTime":1775570040,"reportTime":"2026-04-07T14:00:00.000Z","temp":18,"dewp":6,"wdir":330,"wspd":5,"visib":"10+","altim":1013,"qcField":0,"metarType":"METAR","rawOb":"METAR KGEU 071354Z 33005KT 10SM CLR 18/06 A2991","lat":33.528,"lon":-112.293,"elev":319,"name":"Glendale Muni, AZ, US","cover":"CLR","clouds":[],"fltCat":"VFR"},{"icaoId":"KSJN","receiptTime":"2026-04-07T13:58:10.051Z","obsTime":1775570040,"reportTime":"2026-04-07T14:00:00.000Z","temp":8.3,"dewp":6.1,"wdir":100,"wspd":3,"visib":"10+","altim":1019.7,"slp":1015.3,"qcField":6,"metarType":"METAR","rawOb":"METAR KSJN 071354Z AUTO 10003KT 10SM FEW027 BKN038 08/06 A3011 RMK AO2 SLP153 T00830061","lat":34.5184,"lon":-109.3801,"elev":1747,"name":"St Johns Ind Arpt, AZ, US","cover":"BKN","clouds":[{"cover":"FEW","base":2700},{"cover":"BKN","base":3800}],"fltCat":"VFR"},{"icaoId":"KGCN","receiptTime":"2026-04-07T13:58:11.892Z","obsTime":1775570040,"reportTime":"2026-04-07T14:00:00.000Z","temp":0,"dewp":-0.6,"wdir":0,"wspd":0,"visib":"10+","altim":1021.1,"slp":1018.5,"qcField":4,"metarType":"METAR","rawOb":"METAR KGCN 071354Z 00000KT 10SM CLR 00/M01 A3015 RMK AO2 SLP185 T00001006","lat":35.9458,"lon":-112.1554,"elev":1993,"name":"Grand Canyon Park Arpt, AZ, US","cover":"CLR","clouds":[],"fltCat":"VFR"},{"icaoId":"KDVT","receiptTime":"2026-04-07T13:56:31.220Z","obsTime":1775569980,"reportTime":"2026-04-07T14:00:00.000Z","temp":16.1,"dewp":5.6,"wdir":130,"wspd":3,"visib":"10+","altim":1014,"slp":1012.3,"qcField":4,"metarType":"METAR","rawOb":"METAR KDVT 071353Z 13003KT 10SM CLR 16/06 A2994 RMK AO2 SLP123 T01610056","lat":33.6902,"lon":-112.0662,"elev":454,"name":"Phoenix/Deer Valley Arpt, AZ, US","cover":"CLR","clouds":[],"fltCat":"VFR"},{"icaoId":"KTUS","receiptTime":"2026-04-07T13:56:28.687Z","obsTime":1775569980,"reportTime":"2026-04-07T14:00:00.000Z","temp":14.4,"dewp":3.3,"wdir":180,"wspd":4,"visib":"10+","altim":1015.7,"slp":1012.1,"qcField":4,"metarType":"METAR","rawOb":"METAR KTUS 071353Z 18004KT 10SM CLR 14/03 A2999 RMK AO2 SLP121 T01440033","lat":32.1315,"lon":-110.9564,"elev":776,"name":"Tucson Intl Arpt, AZ, US","cover":"CLR","clouds":[],"fltCat":"VFR"},{"icaoId":"KPRC","receiptTime":"2026-04-07T13:56:28.481Z","obsTime":1775569980,"reportTime":"2026-04-07T14:00:00.000Z","temp":5.6,"dewp":1.7,"wdir":190,"wspd":3,"visib":"10+","altim":1019.4,"slp":1014.9,"qcField":4,"metarType":"METAR","rawOb":"METAR KPRC 071353Z 19003KT 10SM CLR 06/02 A3010 RMK AO2 SLP149 T00560017","lat":34.6491,"lon":-112.4223,"elev":1528,"name":"Prescott/Love Fld, AZ, US","cover":"CLR","clouds":[],"fltCat":"VFR"},{"icaoId":"KPGA","receiptTime":"2026-04-07T13:56:28.232Z","obsTime":1775569980,"reportTime":"2026-04-07T14:00:00.000Z","temp":12.8,"dewp":4.4,"wdir":0,"wspd":0,"visib":"10+","altim":1017.7,"slp":1013.3,"qcField":14,"metarType":"METAR","rawOb":"METAR KPGA 071353Z AUTO 00000KT 10SM CLR 13/04 A3005 RMK AO2 SLP133 T01280044 $","lat":36.9211,"lon":-111.4487,"elev":1310,"name":"Page Muni, AZ, US","cover":"CLR","clouds":[],"fltCat":"VFR"},{"icaoId":"KSDL","receiptTime":"2026-04-07T13:56:36.500Z","obsTime":1775569980,"reportTime":"2026-04-07T14:00:00.000Z","temp":17.2,"dewp":7.2,"wdir":0,"wspd":0,"visib":"10+","altim":1014.3,"slp":1012.4,"qcField":4,"metarType":"METAR","rawOb":"METAR KSDL 071353Z 00000KT 10SM CLR 17/07 A2995 RMK AO2 SLP124 T01720072","lat":33.6123,"lon":-111.9232,"elev":438,"name":"Scottsdale Muni, AZ, US","cover":"CLR","clouds":[],"fltCat":"VFR"},{"icaoId":"KSAD","receiptTime":"2026-04-07T13:54:09.622Z","obsTime":1775569860,"reportTime":"2026-04-07T14:00:00.000Z","temp":12.8,"dewp":5.6,"wdir":300,"wspd":4,"visib":"10+","altim":1015.7,"slp":1012.4,"qcField":6,"metarType":"METAR","rawOb":"METAR KSAD 071351Z AUTO 30004KT 10SM CLR 13/06 A2999 RMK AO2 SLP124 T01280056","lat":32.8565,"lon":-109.636,"elev":937,"name":"Safford Rgnl, AZ, US","cover":"CLR","clouds":[],"fltCat":"VFR"},{"icaoId":"KIGM","receiptTime":"2026-04-07T13:54:09.244Z","obsTime":1775569860,"reportTime":"2026-04-07T14:00:00.000Z","temp":12.8,"dewp":-5,"wdir":150,"wspd":6,"visib":"10+","altim":1016.3,"slp":1011,"qcField":6,"metarType":"METAR","rawOb":"METAR KIGM 071351Z AUTO 15006KT 10SM CLR 13/M05 A3001 RMK AO2 SLP110 T01281050","lat":35.2575,"lon":-113.9341,"elev":1045,"name":"Kingman Arpt, AZ, US","cover":"CLR","clouds":[],"fltCat":"VFR"},{"icaoId":"KPHX","receiptTime":"2026-04-07T13:54:09.439Z","obsTime":1775569860,"reportTime":"2026-04-07T14:00:00.000Z","temp":19.4,"dewp":7.8,"wdir":0,"wspd":0,"visib":"10+","altim":1013.3,"slp":1011.7,"qcField":4,"metarType":"METAR","rawOb":"METAR KPHX 071351Z 00000KT 10SM FEW210 19/08 A2992 RMK AO2 SLP117 T01940078","lat":33.4278,"lon":-112.0037,"elev":338,"name":"Phoenix/Sky Harbor Intl, AZ, US","cover":"FEW","clouds":[{"cover":"FEW","base":21000}],"fltCat":"VFR"},{"icaoId":"KIWA","receiptTime":"2026-04-07T13:51:44.048Z","obsTime":1775569800,"reportTime":"2026-04-07T14:00:00.000Z","temp":16,"dewp":7,"wdir":"VRB","wspd":5,"visib":"10+","altim":1014.3,"qcField":0,"metarType":"METAR","rawOb":"METAR KIWA 071350Z VRB05KT 10SM CLR 16/07 A2995","lat":33.3008,"lon":-111.6437,"elev":420,"name":"Phoenix/Mesa Gateway Arpt, AZ, US","cover":"CLR","clouds":[],"fltCat":"VFR"},{"icaoId":"KGYR","receiptTime":"2026-04-07T13:47:38.128Z","obsTime":1775569620,"reportTime":"2026-04-07T14:00:00.000Z","temp":20,"dewp":7,"wdir":"VRB","wspd":3,"visib":"10+","altim":1013.6,"qcField":0,"metarType":"METAR","rawOb":"METAR KGYR 071347Z VRB03KT 10SM FEW250 20/07 A2993","lat":33.428,"lon":-112.368,"elev":292,"name":"Phoenix/Goodyear Muni, AZ, US","cover":"FEW","clouds":[{"cover":"FEW","base":25000}],"fltCat":"VFR"},{"icaoId":"KCHD","receiptTime":"2026-04-07T13:50:35.665Z","obsTime":1775569620,"reportTime":"2026-04-07T14:00:00.000Z","temp":19,"dewp":8,"wdir":350,"wspd":5,"visib":"10+","altim":1013.6,"qcField":0,"metarType":"METAR","rawOb":"METAR KCHD 071347Z 35005KT 10SM CLR 19/08 A2993","lat":33.2669,"lon":-111.8086,"elev":378,"name":"Chandler Muni, AZ, US","cover":"CLR","clouds":[],"fltCat":"VFR"},{"icaoId":"KRYN","receiptTime":"2026-04-07T13:48:08.279Z","obsTime":1775569500,"reportTime":"2026-04-07T14:00:00.000Z","temp":14,"dewp":3,"wdir":0,"wspd":0,"visib":"10+","altim":1014.6,"qcField":1,"metarType":"METAR","rawOb":"METAR KRYN 071345Z COR 00000KT 10SM CLR 14/03 A2996","lat":32.1418,"lon":-111.1767,"elev":731,"name":"Tucson/Ryan Fld, AZ, US","cover":"CLR","clouds":[],"fltCat":"VFR"}]