[{"icaoId":"KNYL","receiptTime":"2026-04-07T06:00:27.606Z","obsTime":1775541420,"reportTime":"2026-04-07T06:00:00.000Z","temp":23.3,"dewp":2.2,"wdir":300,"wspd":7,"visib":"10+","altim":1010.9,"slp":1010.7,"qcField":4,"presTend":1.5,"maxT":32.8,"minT":23.3,"metarType":"METAR","rawOb":"METAR KNYL 070557Z 30007KT 10SM CLR 23/02 A2985 RMK AO2 SLP107 LAST T02330022 10328 20233 51015","lat":32.66,"lon":-114.6078,"elev":58,"name":"Yuma , AZ, US","cover":"CLR","clouds":[],"fltCat":"VFR"},{"icaoId":"KFLG","receiptTime":"2026-04-07T06:00:24.563Z","obsTime":1775541420,"reportTime":"2026-04-07T06:00:00.000Z","temp":5.6,"dewp":4.4,"wdir":290,"wspd":3,"visib":"10+","altim":1021.4,"slp":1014.9,"qcField":6,"presTend":0.3,"maxT":8.3,"minT":5.6,"pcp6hr":0.06,"metarType":"METAR","rawOb":"METAR KFLG 070557Z AUTO 29003KT 10SM OVC095 06/04 A3016 RMK AO2 SLP149 60006 T00560044 10083 20056 51003","lat":35.1443,"lon":-111.6664,"elev":2134,"name":"Flagstaff/Pulliam Arpt, AZ, US","cover":"OVC","clouds":[{"cover":"OVC","base":9500}],"fltCat":"VFR"},{"icaoId":"KINW","receiptTime":"2026-04-07T06:00:22.291Z","obsTime":1775541360,"reportTime":"2026-04-07T06:00:00.000Z","temp":10,"dewp":8.9,"wdir":0,"wspd":0,"visib":"10+","altim":1019.7,"slp":1015.1,"qcField":6,"wxString":"-RA","presTend":-0.2,"maxT":12.2,"minT":10,"precip":0.005,"pcp6hr":0.27,"metarType":"METAR","rawOb":"METAR KINW 070556Z AUTO 00000KT 10SM -RA FEW044 BKN070 OVC110 10/09 A3011 RMK AO2 RAB28 SLP151 P0000 60027 T01000089 10122 20100 58002","lat":35.0279,"lon":-110.7221,"elev":1492,"name":"Winslow/Lindberg Rgnl, AZ, US","cover":"OVC","clouds":[{"cover":"FEW","base":4400},{"cover":"BKN","base":7000},{"cover":"OVC","base":11000}],"fltCat":"VFR"},{"icaoId":"KCGZ","receiptTime":"2026-04-07T05:58:17.021Z","obsTime":1775541360,"reportTime":"2026-04-07T06:00:00.000Z","temp":23.3,"dewp":6.7,"wdir":40,"wspd":7,"visib":"10+","altim":1013.6,"slp":1012.2,"qcField":14,"presTend":0.9,"maxT":27.8,"minT":23.3,"metarType":"METAR","rawOb":"METAR KCGZ 070556Z AUTO 04007KT 10SM CLR 23/07 A2993 RMK AO2 SLP122 6//// T02330067 10278 20233 50009 $","lat":32.9531,"lon":-111.7725,"elev":444,"name":"Casa Granda Muni, AZ, US","cover":"CLR","clouds":[],"fltCat":"VFR"},{"icaoId":"KDUG","receiptTime":"2026-04-07T06:02:25.099Z","obsTime":1775541360,"reportTime":"2026-04-07T06:00:00.000Z","temp":16.1,"dewp":5,"wdir":30,"wspd":6,"visib":"10+","altim":1016.7,"slp":1011.6,"qcField":38,"presTend":0.9,"maxT":21.7,"minT":16.1,"metarType":"METAR","rawOb":"METAR KDUG 070556Z AUTO 03006KT 10SM CLR 16/05 A3002 RMK AO2 SLP116 T01610050 10217 20161 51009 TSNO","lat":31.4725,"lon":-109.6022,"elev":1260,"name":"Douglas/Bisbee Intl, AZ, US","cover":"CLR","clouds":[],"fltCat":"VFR"},{"icaoId":"KCHD","receiptTime":"2026-04-07T05:56:35.919Z","obsTime":1775541300,"reportTime":"2026-04-07T06:00:00.000Z","temp":23.6,"dewp":6.9,"wdir":50,"wspd":7,"visib":"10+","altim":1013,"qcField":6,"metarType":"METAR","rawOb":"METAR KCHD 070555Z AUTO 05007KT 10SM OVC140 24/07 A2991 RMK AO2 T02360069","lat":33.2669,"lon":-111.8086,"elev":378,"name":"Chandler Muni, AZ, US","cover":"OVC","clouds":[{"cover":"OVC","base":14000}],"fltCat":"VFR"},{"icaoId":"KIFP","receiptTime":"2026-04-07T06:00:21.984Z","obsTime":1775541300,"reportTime":"2026-04-07T06:00:00.000Z","temp":23,"dewp":-8,"wdir":0,"wspd":0,"visib":"10+","altim":1010.6,"qcField":6,"metarType":"METAR","rawOb":"METAR KIFP 070555Z AUTO 00000KT 10SM CLR 23/M08 A2984 RMK AO2","lat":35.1487,"lon":-114.5611,"elev":210,"name":"Bullhead City Intl, AZ, US","cover":"CLR","clouds":[],"fltCat":"VFR"},{"icaoId":"KSEZ","receiptTime":"2026-04-07T06:00:22.097Z","obsTime":1775541300,"reportTime":"2026-04-07T06:00:00.000Z","temp":12,"dewp":8,"wdir":300,"wspd":6,"visib":"10+","altim":1019,"qcField":6,"metarType":"METAR","rawOb":"METAR KSEZ 070555Z AUTO 30006KT 10SM SCT080 OVC095 12/08 A3009 RMK AO2","lat":34.8467,"lon":-111.7884,"elev":1455,"name":"Sedona Arpt, AZ, US","cover":"OVC","clouds":[{"cover":"SCT","base":8000},{"cover":"OVC","base":9500}],"fltCat":"VFR"},{"icaoId":"KLUF","receiptTime":"2026-04-07T06:04:03.090Z","obsTime":1775541300,"reportTime":"2026-04-07T06:00:00.000Z","temp":24.3,"dewp":5.1,"wdir":0,"wspd":0,"visib":"10+","altim":1012.3,"slp":1011,"qcField":12,"presTend":1.2,"maxT":29.7,"minT":23.6,"metarType":"METAR","rawOb":"METAR KLUF 070555Z 00000KT 10SM BKN140 24/05 A2989 RMK AO2A SLP110 T02430051 10297 20236 51012 $","lat":33.538,"lon":-112.38,"elev":333,"name":"Phoenix/Luke AFB, AZ, US","cover":"BKN","clouds":[{"cover":"BKN","base":14000}],"fltCat":"VFR"},{"icaoId":"KSOW","receiptTime":"2026-04-07T05:58:21.803Z","obsTime":1775541300,"reportTime":"2026-04-07T06:00:00.000Z","temp":7,"dewp":5,"wdir":250,"wspd":3,"visib":"10+","altim":1021.4,"qcField":6,"metarType":"METAR","rawOb":"METAR KSOW 070555Z AUTO 25003KT 10SM SCT013 BKN020 OVC048 07/05 A3016 RMK AO2","lat":34.2686,"lon":-110.0019,"elev":1954,"name":"Show Low Muni, AZ, US","cover":"OVC","clouds":[{"cover":"SCT","base":1300},{"cover":"BKN","base":2000},{"cover":"OVC","base":4800}],"fltCat":"MVFR"},{"icaoId":"KHII","receiptTime":"2026-04-07T06:02:22.193Z","obsTime":1775541300,"reportTime":"2026-04-07T06:00:00.000Z","temp":25,"dewp":-6,"wdir":90,"wspd":3,"visib":"10+","altim":1011.3,"qcField":6,"metarType":"METAR","rawOb":"METAR KHII 070555Z AUTO 09003KT 10SM CLR 25/M06 A2986 RMK AO2","lat":34.5659,"lon":-114.3522,"elev":241,"name":"Lake Havasu City Arpt, AZ, US","cover":"CLR","clouds":[],"fltCat":"VFR"},{"icaoId":"KGCN","receiptTime":"2026-04-07T05:58:04.684Z","obsTime":1775541240,"reportTime":"2026-04-07T06:00:00.000Z","temp":5,"dewp":5,"wdir":60,"wspd":5,"visib":"10+","altim":1021.4,"slp":1016.2,"qcField":6,"presTend":0.6,"maxT":8.3,"minT":5,"pcp6hr":0.07,"metarType":"METAR","rawOb":"METAR KGCN 070554Z AUTO 06005KT 10SM CLR 05/05 A3016 RMK AO2 SLP162 60007 T00500050 10083 20050 50006","lat":35.9458,"lon":-112.1554,"elev":1993,"name":"Grand Canyon Park Arpt, AZ, US","cover":"CLR","clouds":[],"fltCat":"VFR"},{"icaoId":"KSJN","receiptTime":"2026-04-07T05:56:43.298Z","obsTime":1775541240,"reportTime":"2026-04-07T06:00:00.000Z","temp":7.8,"dewp":7.2,"wdir":90,"wspd":3,"visib":"10+","altim":1020.4,"slp":1014.3,"qcField":6,"wxString":"-RA","maxT":15,"minT":7.8,"precip":0.06,"pcp6hr":0.34,"metarType":"METAR","rawOb":"METAR KSJN 070554Z AUTO 09003KT 10SM -RA SCT040 OVC050 08/07 A3013 RMK AO2 SLP143 P0006 60034 T00780072 10150 20078 58000","lat":34.5184,"lon":-109.3801,"elev":1747,"name":"St Johns Ind Arpt, AZ, US","cover":"OVC","clouds":[{"cover":"SCT","base":4000},{"cover":"OVC","base":5000}],"fltCat":"VFR"},{"icaoId":"KOLS","receiptTime":"2026-04-07T05:56:43.189Z","obsTime":1775541240,"reportTime":"2026-04-07T06:00:00.000Z","temp":16.7,"dewp":0.6,"wdir":120,"wspd":3,"visib":"10+","altim":1016,"slp":1010.3,"qcField":6,"presTend":0.6,"maxT":24.4,"minT":16.7,"metarType":"METAR","rawOb":"METAR KOLS 070554Z AUTO 12003KT 10SM CLR 17/01 A3000 RMK AO2 SLP103 T01670006 10244 20167 50006","lat":31.4208,"lon":-110.8465,"elev":1194,"name":"Nogales Intl, AZ, US","cover":"CLR","clouds":[],"fltCat":"VFR"},{"icaoId":"KFFZ","receiptTime":"2026-04-07T05:58:05.471Z","obsTime":1775541240,"reportTime":"2026-04-07T06:00:00.000Z","temp":22.8,"dewp":6.7,"wdir":20,"wspd":9,"visib":"10+","altim":1013,"slp":1010.6,"qcField":4,"presTend":0.7,"maxT":26.7,"minT":22.8,"metarType":"METAR","rawOb":"METAR KFFZ 070554Z 02009KT 10SM CLR 23/07 A2991 RMK AO2 SLP106 T02280067 10267 20228 50007","lat":33.4659,"lon":-111.7212,"elev":420,"name":"Mesa/Falcon Fld, AZ, US","cover":"CLR","clouds":[],"fltCat":"VFR"},{"icaoId":"KPGA","receiptTime":"2026-04-07T05:56:40.283Z","obsTime":1775541180,"reportTime":"2026-04-07T06:00:00.000Z","temp":16.7,"dewp":2.2,"wdir":280,"wspd":4,"visib":"10+","altim":1016.7,"slp":1012.3,"qcField":14,"presTend":0.3,"maxT":21.7,"minT":16.7,"metarType":"METAR","rawOb":"METAR KPGA 070553Z AUTO 28004KT 10SM CLR 17/02 A3002 RMK AO2 SLP123 T01670022 10217 20167 53003 $","lat":36.9211,"lon":-111.4487,"elev":1310,"name":"Page Muni, AZ, US","cover":"CLR","clouds":[],"fltCat":"VFR"},{"icaoId":"KDVT","receiptTime":"2026-04-07T05:56:34.885Z","obsTime":1775541180,"reportTime":"2026-04-07T06:00:00.000Z","temp":22.8,"dewp":6.1,"wdir":60,"wspd":4,"visib":"10+","altim":1013.3,"slp":1011,"qcField":6,"presTend":0.5,"maxT":27.8,"minT":22.8,"metarType":"METAR","rawOb":"METAR KDVT 070553Z AUTO 06004KT 10SM CLR 23/06 A2992 RMK AO2 SLP110 T02280061 10278 20228 50005","lat":33.6902,"lon":-112.0662,"elev":454,"name":"Phoenix/Deer Valley Arpt, AZ, US","cover":"CLR","clouds":[],"fltCat":"VFR"},{"icaoId":"KTUS","receiptTime":"2026-04-07T05:56:39.353Z","obsTime":1775541180,"reportTime":"2026-04-07T06:00:00.000Z","temp":20,"dewp":5,"wdir":320,"wspd":7,"visib":"10+","altim":1014.3,"slp":1010.7,"qcField":4,"presTend":1.8,"maxT":26.7,"minT":20,"metarType":"METAR","rawOb":"METAR KTUS 070553Z 32007KT 10SM CLR 20/05 A2995 RMK AO2 SLP107 T02000050 10267 20200 51018","lat":32.1315,"lon":-110.9564,"elev":776,"name":"Tucson Intl Arpt, AZ, US","cover":"CLR","clouds":[],"fltCat":"VFR"},{"icaoId":"KPRC","receiptTime":"2026-04-07T05:56:46.465Z","obsTime":1775541180,"reportTime":"2026-04-07T06:00:00.000Z","temp":10.6,"dewp":2.8,"wdir":180,"wspd":4,"visib":"10+","altim":1019,"slp":1013.3,"qcField":6,"presTend":0.3,"maxT":17.2,"minT":10.6,"metarType":"METAR","rawOb":"METAR KPRC 070553Z AUTO 18004KT 10SM CLR 11/03 A3009 RMK AO2 SLP133 T01060028 10172 20106 50003","lat":34.6491,"lon":-112.4223,"elev":1528,"name":"Prescott/Love Fld, AZ, US","cover":"CLR","clouds":[],"fltCat":"VFR"},{"icaoId":"KSDL","receiptTime":"2026-04-07T05:56:46.612Z","obsTime":1775541180,"reportTime":"2026-04-07T06:00:00.000Z","temp":22.2,"dewp":6.1,"wdir":230,"wspd":5,"visib":"10+","altim":1013.3,"slp":1011,"qcField":6,"presTend":0.1,"maxT":27.2,"minT":22.2,"pcp6hr":0.005,"metarType":"METAR","rawOb":"METAR KSDL 070553Z AUTO 23005KT 10SM CLR 22/06 A2992 RMK AO2 SLP110 60000 T02220061 10272 20222 51001","lat":33.6123,"lon":-111.9232,"elev":438,"name":"Scottsdale Muni, AZ, US","cover":"CLR","clouds":[],"fltCat":"VFR"},{"icaoId":"KSAD","receiptTime":"2026-04-07T05:54:09.185Z","obsTime":1775541060,"reportTime":"2026-04-07T06:00:00.000Z","temp":17.8,"dewp":6.7,"wdir":40,"wspd":9,"visib":"10+","altim":1015.7,"slp":1012.2,"qcField":6,"presTend":0.3,"maxT":20.6,"minT":17.8,"metarType":"METAR","rawOb":"METAR KSAD 070551Z AUTO 04009KT 10SM OVC120 18/07 A2999 RMK AO2 SLP122 T01780067 10206 20178 50003","lat":32.8565,"lon":-109.636,"elev":937,"name":"Safford Rgnl, AZ, US","cover":"OVC","clouds":[{"cover":"OVC","base":12000}],"fltCat":"VFR"},{"icaoId":"KIGM","receiptTime":"2026-04-07T05:54:08.901Z","obsTime":1775541060,"reportTime":"2026-04-07T06:00:00.000Z","temp":17.8,"dewp":-2.8,"wdir":150,"wspd":11,"visib":"10+","altim":1016,"slp":1009.9,"qcField":6,"presTend":1.2,"maxT":25.6,"minT":14.4,"metarType":"METAR","rawOb":"METAR KIGM 070551Z AUTO 15011KT 10SM CLR 18/M03 A3000 RMK AO2 SLP099 T01781028 10256 20144 51012","lat":35.2575,"lon":-113.9341,"elev":1045,"name":"Kingman Arpt, AZ, US","cover":"CLR","clouds":[],"fltCat":"VFR"},{"icaoId":"KPHX","receiptTime":"2026-04-07T05:54:09.081Z","obsTime":1775541060,"reportTime":"2026-04-07T06:00:00.000Z","temp":23.3,"dewp":6.7,"wdir":100,"wspd":7,"visib":"10+","altim":1012.6,"slp":1010.9,"qcField":4,"presTend":1.2,"maxT":28.3,"minT":23.3,"metarType":"METAR","rawOb":"METAR KPHX 070551Z 10007KT 10SM SCT150 SCT250 23/07 A2990 RMK AO2 SLP109 T02330067 10283 20233 51012","lat":33.4278,"lon":-112.0037,"elev":338,"name":"Phoenix/Sky Harbor Intl, AZ, US","cover":"SCT","clouds":[{"cover":"SCT","base":15000},{"cover":"SCT","base":25000}],"fltCat":"VFR"},{"icaoId":"KIWA","receiptTime":"2026-04-07T05:51:33.359Z","obsTime":1775540940,"reportTime":"2026-04-07T06:00:00.000Z","temp":22,"dewp":7,"wdir":160,"wspd":4,"visib":"10+","altim":1013.3,"qcField":0,"metarType":"METAR","rawOb":"METAR KIWA 070549Z 16004KT 10SM CLR 22/07 A2992","lat":33.3008,"lon":-111.6437,"elev":420,"name":"Phoenix/Mesa Gateway Arpt, AZ, US","cover":"CLR","clouds":[],"fltCat":"VFR"}]