[{"icaoId":"KCGZ","receiptTime":"2026-04-06T01:58:28.051Z","obsTime":1775440560,"reportTime":"2026-04-06T02:00:00.000Z","temp":31.1,"dewp":-1.1,"wdir":20,"wspd":6,"visib":"10+","altim":1011.9,"slp":1010.5,"qcField":14,"metarType":"METAR","rawOb":"METAR KCGZ 060156Z AUTO 02006KT 10SM CLR 31/M01 A2988 RMK AO2 SLP105 T03111011 $","lat":32.9531,"lon":-111.7725,"elev":444,"name":"Casa Granda Muni, AZ, US","cover":"CLR","clouds":[],"fltCat":"VFR"},{"icaoId":"KDUG","receiptTime":"2026-04-06T01:58:40.632Z","obsTime":1775440560,"reportTime":"2026-04-06T02:00:00.000Z","temp":22.8,"dewp":0.6,"wdir":90,"wspd":13,"visib":"10+","altim":1019.4,"slp":1013.8,"qcField":38,"metarType":"METAR","rawOb":"METAR KDUG 060156Z AUTO 09013KT 10SM CLR 23/01 A3010 RMK AO2 SLP138 T02280006 TSNO ","lat":31.4725,"lon":-109.6022,"elev":1260,"name":"Douglas/Bisbee Intl, AZ, US","cover":"CLR","clouds":[],"fltCat":"VFR"},{"icaoId":"KINW","receiptTime":"2026-04-06T01:58:44.785Z","obsTime":1775440560,"reportTime":"2026-04-06T02:00:00.000Z","temp":22.2,"dewp":-8.3,"wdir":360,"wspd":3,"visib":"10+","altim":1020.1,"slp":1015.9,"qcField":6,"metarType":"METAR","rawOb":"METAR KINW 060156Z AUTO 36003KT 10SM CLR 22/M08 A3012 RMK AO2 SLP159 T02221083","lat":35.0279,"lon":-110.7221,"elev":1492,"name":"Winslow/Lindberg Rgnl, AZ, US","cover":"CLR","clouds":[],"fltCat":"VFR"},{"icaoId":"KIWA","receiptTime":"2026-04-06T01:57:52.606Z","obsTime":1775440560,"reportTime":"2026-04-06T02:00:00.000Z","temp":32,"dewp":-2,"wdir":30,"wspd":3,"visib":"10+","altim":1012.3,"qcField":0,"metarType":"METAR","rawOb":"METAR KIWA 060156Z 03003KT 10SM CLR 32/M02 A2989","lat":33.3008,"lon":-111.6437,"elev":420,"name":"Phoenix/Mesa Gateway Arpt, AZ, US","cover":"CLR","clouds":[],"fltCat":"VFR"},{"icaoId":"KIFP","receiptTime":"2026-04-06T01:58:36.998Z","obsTime":1775440500,"reportTime":"2026-04-06T02:00:00.000Z","temp":32,"dewp":-8,"wdir":0,"wspd":0,"visib":"10+","altim":1011.3,"qcField":6,"metarType":"METAR","rawOb":"METAR KIFP 060155Z AUTO 00000KT 10SM CLR 32/M08 A2986 RMK AO2","lat":35.1487,"lon":-114.5611,"elev":210,"name":"Bullhead City Intl, AZ, US","cover":"CLR","clouds":[],"fltCat":"VFR"},{"icaoId":"KSEZ","receiptTime":"2026-04-06T01:58:31.615Z","obsTime":1775440500,"reportTime":"2026-04-06T02:00:00.000Z","temp":22,"dewp":-5,"wdir":0,"wspd":0,"visib":"10+","altim":1019.4,"qcField":6,"metarType":"METAR","rawOb":"METAR KSEZ 060155Z AUTO 00000KT 10SM CLR 22/M05 A3010 RMK AO2","lat":34.8467,"lon":-111.7884,"elev":1455,"name":"Sedona Arpt, AZ, US","cover":"CLR","clouds":[],"fltCat":"VFR"},{"icaoId":"KSOW","receiptTime":"2026-04-06T01:58:09.192Z","obsTime":1775440500,"reportTime":"2026-04-06T02:00:00.000Z","temp":17,"dewp":-4,"wdir":200,"wspd":7,"visib":"10+","altim":1023.8,"qcField":6,"metarType":"METAR","rawOb":"METAR KSOW 060155Z AUTO 20007KT 10SM CLR 17/M04 A3023 RMK AO2","lat":34.2686,"lon":-110.0019,"elev":1954,"name":"Show Low Muni, AZ, US","cover":"CLR","clouds":[],"fltCat":"VFR"},{"icaoId":"KGCN","receiptTime":"2026-04-06T01:58:06.266Z","obsTime":1775440440,"reportTime":"2026-04-06T02:00:00.000Z","temp":15.6,"dewp":-10.6,"wdir":80,"wspd":4,"visib":"10+","altim":1023.5,"slp":1016.9,"qcField":6,"metarType":"METAR","rawOb":"METAR KGCN 060154Z AUTO 08004KT 10SM CLR 16/M11 A3022 RMK AO2 SLP169 T01561106","lat":35.9458,"lon":-112.1554,"elev":1993,"name":"Grand Canyon Park Arpt, AZ, US","cover":"CLR","clouds":[],"fltCat":"VFR"},{"icaoId":"KOLS","receiptTime":"2026-04-06T01:58:29.126Z","obsTime":1775440440,"reportTime":"2026-04-06T02:00:00.000Z","temp":25.6,"dewp":-0.6,"wdir":110,"wspd":7,"visib":"10+","altim":1017,"slp":1011.2,"qcField":6,"metarType":"METAR","rawOb":"METAR KOLS 060154Z AUTO 11007KT 10SM CLR 26/M01 A3003 RMK AO2 SLP112 T02561006","lat":31.4208,"lon":-110.8465,"elev":1194,"name":"Nogales Intl, AZ, US","cover":"CLR","clouds":[],"fltCat":"VFR"},{"icaoId":"KSJN","receiptTime":"2026-04-06T01:58:06.891Z","obsTime":1775440440,"reportTime":"2026-04-06T02:00:00.000Z","temp":20.6,"dewp":-8.9,"wdir":130,"wspd":3,"visib":"10+","altim":1020.4,"slp":1015.3,"qcField":6,"metarType":"METAR","rawOb":"METAR KSJN 060154Z AUTO 13003KT 10SM FEW120 21/M09 A3013 RMK AO2 SLP153 T02061089","lat":34.5184,"lon":-109.3801,"elev":1747,"name":"St Johns Ind Arpt, AZ, US","cover":"FEW","clouds":[{"cover":"FEW","base":12000}],"fltCat":"VFR"},{"icaoId":"KFFZ","receiptTime":"2026-04-06T01:58:30.397Z","obsTime":1775440440,"reportTime":"2026-04-06T02:00:00.000Z","temp":32.2,"dewp":-1.7,"wdir":0,"wspd":0,"visib":"10+","altim":1011.6,"slp":1009.2,"qcField":38,"metarType":"METAR","rawOb":"METAR KFFZ 060154Z AUTO 00000KT 10SM CLR 32/M02 A2987 RMK AO2 SLP092 T03221017 TSNO","lat":33.4659,"lon":-111.7212,"elev":420,"name":"Mesa/Falcon Fld, AZ, US","cover":"CLR","clouds":[],"fltCat":"VFR"},{"icaoId":"KPGA","receiptTime":"2026-04-06T01:56:36.743Z","obsTime":1775440380,"reportTime":"2026-04-06T02:00:00.000Z","temp":20,"dewp":-7.8,"wdir":40,"wspd":6,"visib":"10+","altim":1019.7,"slp":1015.9,"qcField":14,"metarType":"METAR","rawOb":"METAR KPGA 060153Z AUTO 04006KT 10SM CLR 20/M08 A3011 RMK AO2 SLP159 T02001078 $","lat":36.9211,"lon":-111.4487,"elev":1310,"name":"Page Muni, AZ, US","cover":"CLR","clouds":[],"fltCat":"VFR"},{"icaoId":"KDVT","receiptTime":"2026-04-06T01:56:31.547Z","obsTime":1775440380,"reportTime":"2026-04-06T02:00:00.000Z","temp":31.7,"dewp":-2.2,"wdir":0,"wspd":0,"visib":"10+","altim":1012.3,"slp":1009.9,"qcField":12,"metarType":"METAR","rawOb":"METAR KDVT 060153Z 00000KT 10SM FEW120 32/M02 A2989 RMK AO2 SLP099 T03171022 $","lat":33.6902,"lon":-112.0662,"elev":454,"name":"Phoenix/Deer Valley Arpt, AZ, US","cover":"FEW","clouds":[{"cover":"FEW","base":12000}],"fltCat":"VFR"},{"icaoId":"KTUS","receiptTime":"2026-04-06T01:56:36.924Z","obsTime":1775440380,"reportTime":"2026-04-06T02:00:00.000Z","temp":29.4,"dewp":0,"wdir":90,"wspd":9,"visib":"10+","altim":1014.6,"slp":1010.3,"qcField":12,"metarType":"METAR","rawOb":"METAR KTUS 060153Z 09009KT 10SM CLR 29/00 A2996 RMK AO2 SLP103 T02940000 $","lat":32.1315,"lon":-110.9564,"elev":776,"name":"Tucson Intl Arpt, AZ, US","cover":"CLR","clouds":[],"fltCat":"VFR"},{"icaoId":"KSDL","receiptTime":"2026-04-06T01:56:29.642Z","obsTime":1775440380,"reportTime":"2026-04-06T02:00:00.000Z","temp":32.2,"dewp":-2.2,"wdir":0,"wspd":0,"visib":"10+","altim":1012.6,"slp":1010,"qcField":4,"metarType":"METAR","rawOb":"METAR KSDL 060153Z 00000KT 10SM CLR 32/M02 A2990 RMK AO2 SLP100 T03221022","lat":33.6123,"lon":-111.9232,"elev":438,"name":"Scottsdale Muni, AZ, US","cover":"CLR","clouds":[],"fltCat":"VFR"},{"icaoId":"KPRC","receiptTime":"2026-04-06T01:56:39.510Z","obsTime":1775440380,"reportTime":"2026-04-06T02:00:00.000Z","temp":21.1,"dewp":-4.4,"wdir":190,"wspd":6,"visib":"10+","altim":1020.1,"slp":1014.7,"qcField":4,"metarType":"METAR","rawOb":"METAR KPRC 060153Z 19006KT 10SM CLR 21/M04 A3012 RMK AO2 SLP147 T02111044","lat":34.6491,"lon":-112.4223,"elev":1528,"name":"Prescott/Love Fld, AZ, US","cover":"CLR","clouds":[],"fltCat":"VFR"},{"icaoId":"KIGM","receiptTime":"2026-04-06T01:54:08.506Z","obsTime":1775440260,"reportTime":"2026-04-06T02:00:00.000Z","temp":24.4,"dewp":-8.3,"wdir":230,"wspd":8,"visib":"10+","altim":1017,"slp":1011.8,"qcField":6,"metarType":"METAR","rawOb":"METAR KIGM 060151Z AUTO 23008KT 10SM CLR 24/M08 A3003 RMK AO2 SLP118 T02441083","lat":35.2575,"lon":-113.9341,"elev":1045,"name":"Kingman Arpt, AZ, US","cover":"CLR","clouds":[],"fltCat":"VFR"},{"icaoId":"KPHX","receiptTime":"2026-04-06T01:54:09.498Z","obsTime":1775440260,"reportTime":"2026-04-06T02:00:00.000Z","temp":33.3,"dewp":-1.7,"wdir":90,"wspd":3,"visib":"10+","altim":1010.9,"slp":1009,"qcField":4,"metarType":"METAR","rawOb":"METAR KPHX 060151Z 09003KT 10SM FEW160 BKN210 BKN270 33/M02 A2985 RMK AO2 SLP090 T03331017","lat":33.4278,"lon":-112.0037,"elev":338,"name":"Phoenix/Sky Harbor Intl, AZ, US","cover":"BKN","clouds":[{"cover":"FEW","base":16000},{"cover":"BKN","base":21000},{"cover":"BKN","base":27000}],"fltCat":"VFR"},{"icaoId":"KSAD","receiptTime":"2026-04-06T01:54:09.602Z","obsTime":1775440260,"reportTime":"2026-04-06T02:00:00.000Z","temp":24.4,"dewp":-1.7,"wdir":130,"wspd":11,"visib":"10+","altim":1018,"slp":1014.3,"qcField":6,"metarType":"METAR","rawOb":"METAR KSAD 060151Z AUTO 13011KT 10SM CLR 24/M02 A3006 RMK AO2 SLP143 T02441017","lat":32.8565,"lon":-109.636,"elev":937,"name":"Safford Rgnl, AZ, US","cover":"CLR","clouds":[],"fltCat":"VFR"},{"icaoId":"KCHD","receiptTime":"2026-04-06T01:50:32.521Z","obsTime":1775440020,"reportTime":"2026-04-06T02:00:00.000Z","temp":32,"dewp":0,"wdir":360,"wspd":5,"visib":"10+","altim":1011.6,"qcField":0,"metarType":"METAR","rawOb":"METAR KCHD 060147Z 36005KT 10SM FEW200 32/00 A2987","lat":33.2669,"lon":-111.8086,"elev":378,"name":"Chandler Muni, AZ, US","cover":"FEW","clouds":[{"cover":"FEW","base":20000}],"fltCat":"VFR"},{"icaoId":"KGEU","receiptTime":"2026-04-06T01:52:07.529Z","obsTime":1775440020,"reportTime":"2026-04-06T02:00:00.000Z","temp":32,"dewp":-2,"wdir":50,"wspd":3,"visib":"10+","altim":1011.3,"qcField":0,"metarType":"METAR","rawOb":"METAR KGEU 060147Z 05003KT 10SM CLR 32/M02 A2986 RMK LAST","lat":33.528,"lon":-112.293,"elev":319,"name":"Glendale Muni, AZ, US","cover":"CLR","clouds":[],"fltCat":"VFR"},{"icaoId":"KGYR","receiptTime":"2026-04-06T01:48:06.587Z","obsTime":1775440020,"reportTime":"2026-04-06T02:00:00.000Z","temp":33,"dewp":0,"wdir":"VRB","wspd":3,"visib":"10+","altim":1011.3,"qcField":0,"metarType":"METAR","rawOb":"METAR KGYR 060147Z VRB03KT 10SM FEW200 BKN250 33/00 A2986","lat":33.428,"lon":-112.368,"elev":292,"name":"Phoenix/Goodyear Muni, AZ, US","cover":"BKN","clouds":[{"cover":"FEW","base":20000},{"cover":"BKN","base":25000}],"fltCat":"VFR"},{"icaoId":"KRYN","receiptTime":"2026-04-06T01:45:53.111Z","obsTime":1775439900,"reportTime":"2026-04-06T02:00:00.000Z","temp":30,"dewp":-1,"wdir":90,"wspd":10,"visib":"10+","altim":1013,"qcField":0,"metarType":"METAR","rawOb":"METAR KRYN 060145Z 09010KT 10SM CLR 30/M01 A2991","lat":32.1418,"lon":-111.1767,"elev":731,"name":"Tucson/Ryan Fld, AZ, US","cover":"CLR","clouds":[],"fltCat":"VFR"},{"icaoId":"KHII","receiptTime":"2026-04-06T01:42:03.957Z","obsTime":1775439300,"reportTime":"2026-04-06T01:35:00.000Z","temp":32,"dewp":-8,"wdir":0,"wspd":0,"visib":"10+","altim":1011.6,"qcField":6,"metarType":"METAR","rawOb":"METAR KHII 060135Z AUTO 00000KT 10SM CLR 32/M08 A2987 RMK AO2","lat":34.5659,"lon":-114.3522,"elev":241,"name":"Lake Havasu City Arpt, AZ, US","cover":"CLR","clouds":[],"fltCat":"VFR"},{"icaoId":"KNYL","receiptTime":"2026-04-06T01:01:01.125Z","obsTime":1775437020,"reportTime":"2026-04-06T01:00:00.000Z","temp":33.3,"dewp":-7.8,"wdir":0,"wspd":0,"visib":"10+","altim":1010.9,"slp":1010.4,"qcField":14,"metarType":"METAR","rawOb":"METAR KNYL 060057Z AUTO 00000KT 10SM CLR 33/M08 A2985 RMK AO2 SLP104 T03331078 $","lat":32.66,"lon":-114.6078,"elev":58,"name":"Yuma , AZ, US","cover":"CLR","clouds":[],"fltCat":"VFR"},{"icaoId":"KFLG","receiptTime":"2026-04-06T01:00:58.378Z","obsTime":1775437020,"reportTime":"2026-04-06T01:00:00.000Z","temp":17.8,"dewp":-8.3,"wdir":70,"wspd":6,"visib":"10+","altim":1023.8,"slp":1018.4,"qcField":4,"metarType":"METAR","rawOb":"METAR KFLG 060057Z 07006KT 10SM BKN100 18/M08 A3023 RMK AO2 SLP184 T01781083","lat":35.1443,"lon":-111.6664,"elev":2134,"name":"Flagstaff/Pulliam Arpt, AZ, US","cover":"BKN","clouds":[{"cover":"BKN","base":10000}],"fltCat":"VFR"},{"icaoId":"KLUF","receiptTime":"2026-04-06T01:04:03.587Z","obsTime":1775436900,"reportTime":"2026-04-06T01:00:00.000Z","temp":33.9,"dewp":-5,"wdir":20,"wspd":4,"visib":"10+","altim":1010.6,"slp":1009.2,"qcField":14,"metarType":"METAR","rawOb":"METAR KLUF 060055Z AUTO 02004KT 10SM CLR 34/M05 A2984 RMK AO2 SLP092 T03391050 $","lat":33.538,"lon":-112.38,"elev":333,"name":"Phoenix/Luke AFB, AZ, US","cover":"CLR","clouds":[],"fltCat":"VFR"}]