[{"icaoId":"KDRO","receiptTime":"2026-04-13T20:24:13.640Z","obsTime":1776111660,"reportTime":"2026-04-13T20:21:00.000Z","temp":13.9,"dewp":-6.1,"wdir":260,"wspd":11,"wgst":19,"visib":"10+","altim":1018,"qcField":6,"metarType":"SPECI","rawOb":"SPECI KDRO 132021Z AUTO 26011G19KT 10SM FEW085 14/M06 A3006 RMK AO2 WSHFT 2001 T01391061","lat":37.1431,"lon":-107.7602,"elev":2021,"name":"Durango/La Plata Cnty, CO, US","cover":"FEW","clouds":[{"cover":"FEW","base":8500}],"fltCat":"VFR"},{"icaoId":"KMLC","receiptTime":"2026-04-13T20:22:12.025Z","obsTime":1776111540,"reportTime":"2026-04-13T20:19:00.000Z","temp":27.2,"dewp":20,"wdir":160,"wspd":10,"wgst":23,"visib":"10+","altim":1014.6,"qcField":6,"metarType":"SPECI","rawOb":"SPECI KMLC 132019Z AUTO 16010G23KT 140V210 10SM SCT028 SCT034 BKN050 27/20 A2996 RMK AO2 T02720200","lat":34.8824,"lon":-95.7815,"elev":231,"name":"McAlester Rgnl, OK, US","cover":"BKN","clouds":[{"cover":"SCT","base":2800},{"cover":"SCT","base":3400},{"cover":"BKN","base":5000}],"fltCat":"VFR"},{"icaoId":"KHRL","receiptTime":"2026-04-13T20:22:12.009Z","obsTime":1776111540,"reportTime":"2026-04-13T20:19:00.000Z","temp":26.7,"dewp":22.2,"wdir":120,"wspd":13,"visib":"10+","altim":1016.3,"qcField":4,"wxString":"-RA","precip":0.005,"metarType":"SPECI","rawOb":"SPECI KHRL 132019Z 12013KT 10SM -RA BKN028 OVC034 27/22 A3001 RMK AO2 RAB03 P0000 T02670222","lat":26.2303,"lon":-97.6556,"elev":9,"name":"Harlingen/Valley Intl, TX, US","cover":"OVC","clouds":[{"cover":"BKN","base":2800},{"cover":"OVC","base":3400}],"fltCat":"MVFR"},{"icaoId":"KHAF","receiptTime":"2026-04-13T20:18:10.586Z","obsTime":1776111300,"reportTime":"2026-04-13T20:15:00.000Z","temp":15,"dewp":12,"wdir":330,"wspd":10,"visib":"10+","altim":1020.7,"qcField":6,"metarType":"METAR","rawOb":"METAR KHAF 132015Z AUTO 33010KT 10SM CLR 15/12 A3014 RMK AO2","lat":37.5136,"lon":-122.4996,"elev":11,"name":"Half Moon Bay Arpt, CA, US","cover":"CLR","clouds":[],"fltCat":"VFR"},{"icaoId":"KRTS","receiptTime":"2026-04-13T20:20:11.799Z","obsTime":1776111300,"reportTime":"2026-04-13T20:15:00.000Z","temp":10,"dewp":-6,"wdir":0,"wspd":0,"visib":"10+","altim":1017.7,"qcField":6,"metarType":"METAR","rawOb":"METAR KRTS 132015Z AUTO 00000KT 10SM BKN055 10/M06 A3005 RMK AO2","lat":39.6658,"lon":-119.8731,"elev":1537,"name":"Reno/Stead Arpt, NV, US","cover":"BKN","clouds":[{"cover":"BKN","base":5500}],"fltCat":"VFR"},{"icaoId":"KHTH","receiptTime":"2026-04-13T20:20:16.738Z","obsTime":1776111300,"reportTime":"2026-04-13T20:15:00.000Z","temp":12,"dewp":-6,"wdir":330,"wspd":10,"wgst":17,"visib":"10+","altim":1017,"qcField":6,"metarType":"METAR","rawOb":"METAR KHTH 132015Z AUTO 33010G17KT 10SM CLR 12/M06 A3003 RMK A01","lat":38.5448,"lon":-118.6314,"elev":1281,"name":"Hawthorne Muni, NV, US","cover":"CLR","clouds":[],"fltCat":"VFR"},{"icaoId":"KMEV","receiptTime":"2026-04-13T20:20:22.108Z","obsTime":1776111300,"reportTime":"2026-04-13T20:15:00.000Z","temp":9,"dewp":-2,"wdir":290,"wspd":5,"visib":"10+","altim":1017.4,"qcField":6,"metarType":"METAR","rawOb":"METAR KMEV 132015Z AUTO 29005KT 10SM CLR 09/M02 A3004 RMK AO2","lat":38.9963,"lon":-119.75,"elev":1437,"name":"Minden-Tahoe Arpt, NV, US","cover":"CLR","clouds":[],"fltCat":"VFR"},{"icaoId":"KMHR","receiptTime":"2026-04-13T20:20:22.132Z","obsTime":1776111300,"reportTime":"2026-04-13T20:15:00.000Z","temp":16,"dewp":9,"wdir":290,"wspd":6,"visib":"10+","altim":1019,"qcField":6,"metarType":"METAR","rawOb":"METAR KMHR 132015Z AUTO 29006KT 10SM BKN045 OVC050 16/09 A3009 RMK AO2","lat":38.56,"lon":-121.284,"elev":30,"name":"Sacramento/Mather Fld, CA, US","cover":"OVC","clouds":[{"cover":"BKN","base":4500},{"cover":"OVC","base":5000}],"fltCat":"VFR"},{"icaoId":"KLRU","receiptTime":"2026-04-13T20:18:17.215Z","obsTime":1776111300,"reportTime":"2026-04-13T20:15:00.000Z","temp":23.6,"dewp":-1.5,"wdir":220,"wspd":17,"wgst":27,"visib":"10+","altim":1019,"qcField":6,"metarType":"METAR","rawOb":"METAR KLRU 132015Z AUTO 22017G27KT 10SM CLR 24/M01 A3009 RMK AO2 T02361015","lat":32.2884,"lon":-106.9131,"elev":1355,"name":"Las Cruces Intl, NM, US","cover":"CLR","clouds":[],"fltCat":"VFR"},{"icaoId":"KHCR","receiptTime":"2026-04-13T20:18:16.383Z","obsTime":1776111300,"reportTime":"2026-04-13T20:15:00.000Z","temp":12.3,"dewp":-6.2,"wdir":"VRB","wspd":5,"visib":"10+","altim":1014,"qcField":14,"metarType":"METAR","rawOb":"METAR KHCR 132015Z AUTO VRB05KT 10SM CLR 12/M06 A2994 RMK AO2 LTG DSNT NE T01231062 $","lat":40.4774,"lon":-111.4329,"elev":1708,"name":"Heber City Muni, UT, US","cover":"CLR","clouds":[],"fltCat":"VFR"},{"icaoId":"KSEZ","receiptTime":"2026-04-13T20:22:05.791Z","obsTime":1776111300,"reportTime":"2026-04-13T20:15:00.000Z","temp":19,"dewp":2,"wdir":200,"wspd":13,"wgst":20,"visib":"10+","altim":1016,"qcField":6,"metarType":"METAR","rawOb":"METAR KSEZ 132015Z AUTO 20013G20KT 10SM BKN050 BKN065 BKN090 19/02 A3000 RMK AO2","lat":34.8467,"lon":-111.7884,"elev":1455,"name":"Sedona Arpt, AZ, US","cover":"BKN","clouds":[{"cover":"BKN","base":5000},{"cover":"BKN","base":6500},{"cover":"BKN","base":9000}],"fltCat":"VFR"},{"icaoId":"KBVU","receiptTime":"2026-04-13T20:16:06.655Z","obsTime":1776111300,"reportTime":"2026-04-13T20:15:00.000Z","temp":19,"dewp":-2,"wdir":"VRB","wspd":5,"wgst":18,"visib":"10+","altim":1011.9,"qcField":6,"metarType":"METAR","rawOb":"METAR KBVU 132015Z AUTO VRB05G18KT 10SM SCT080 BKN095 19/M02 A2988 RMK AO2","lat":35.9489,"lon":-114.8633,"elev":654,"name":"Boulder City Muni, NV, US","cover":"BKN","clouds":[{"cover":"SCT","base":8000},{"cover":"BKN","base":9500}],"fltCat":"VFR"},{"icaoId":"KSOW","receiptTime":"2026-04-13T20:18:15.248Z","obsTime":1776111300,"reportTime":"2026-04-13T20:15:00.000Z","temp":17,"dewp":-2,"wdir":190,"wspd":28,"wgst":37,"visib":"10+","altim":1018,"qcField":6,"metarType":"METAR","rawOb":"METAR KSOW 132015Z AUTO 19028G37KT 10SM FEW060 17/M02 A3006 RMK AO2","lat":34.2686,"lon":-110.0019,"elev":1954,"name":"Show Low Muni, AZ, US","cover":"FEW","clouds":[{"cover":"FEW","base":6000}],"fltCat":"VFR"},{"icaoId":"KCXP","receiptTime":"2026-04-13T20:20:21.988Z","obsTime":1776111300,"reportTime":"2026-04-13T20:15:00.000Z","temp":10,"dewp":-3,"wdir":"VRB","wspd":4,"visib":"10+","altim":1017.7,"qcField":6,"metarType":"METAR","rawOb":"METAR KCXP 132015Z AUTO VRB04KT 10SM BKN055 10/M03 A3005 RMK AO2","lat":39.1905,"lon":-119.7319,"elev":1431,"name":"Carson City Arpt, NV, US","cover":"BKN","clouds":[{"cover":"BKN","base":5500}],"fltCat":"VFR"},{"icaoId":"KHII","receiptTime":"2026-04-13T20:22:12.159Z","obsTime":1776111300,"reportTime":"2026-04-13T20:15:00.000Z","temp":24,"dewp":3,"wdir":210,"wspd":15,"wgst":23,"visib":"10+","altim":1012.6,"qcField":6,"metarType":"METAR","rawOb":"METAR KHII 132015Z AUTO 21015G23KT 10SM SCT075 SCT090 24/03 A2990 RMK AO2","lat":34.5659,"lon":-114.3522,"elev":241,"name":"Lake Havasu City Arpt, AZ, US","cover":"SCT","clouds":[{"cover":"SCT","base":7500},{"cover":"SCT","base":9000}],"fltCat":"VFR"},{"icaoId":"KVIS","receiptTime":"2026-04-13T20:10:06.762Z","obsTime":1776110880,"reportTime":"2026-04-13T20:08:00.000Z","temp":17,"dewp":9,"wdir":10,"wspd":4,"visib":"10+","altim":1019.4,"qcField":14,"metarType":"SPECI","rawOb":"SPECI KVIS 132008Z AUTO 01004KT 10SM SCT027 BKN036 BKN110 17/09 A3010 RMK AO2 PNO $","lat":36.3135,"lon":-119.3884,"elev":92,"name":"Visalia Muni, CA, US","cover":"BKN","clouds":[{"cover":"SCT","base":2700},{"cover":"BKN","base":3600},{"cover":"BKN","base":11000}],"fltCat":"VFR"},{"icaoId":"KMYL","receiptTime":"2026-04-13T20:08:22.737Z","obsTime":1776110640,"reportTime":"2026-04-13T20:04:00.000Z","temp":2.2,"dewp":0.6,"wdir":200,"wspd":5,"visib":"10+","altim":1014.3,"qcField":6,"metarType":"SPECI","rawOb":"SPECI KMYL 132004Z AUTO 20005KT 10SM SCT008 BKN011 OVC040 02/01 A2995 RMK AO2 T00220006","lat":44.8943,"lon":-116.0998,"elev":1532,"name":"McCall Muni, ID, US","cover":"OVC","clouds":[{"cover":"SCT","base":800},{"cover":"BKN","base":1100},{"cover":"OVC","base":4000}],"fltCat":"MVFR"},{"icaoId":"KJAC","receiptTime":"2026-04-13T20:06:05.952Z","obsTime":1776110580,"reportTime":"2026-04-13T20:03:00.000Z","temp":2,"dewp":-2,"wdir":230,"wspd":3,"visib":9,"altim":1014.6,"qcField":4,"wxString":"-SN","precip":0.005,"metarType":"SPECI","rawOb":"SPECI KJAC 132003Z 23003KT 9SM -SN FEW009 SCT034 BKN047 02/M02 A2996 RMK AO2 P0000","lat":43.6129,"lon":-110.7366,"elev":1967,"name":"Jackson Hole Arpt, WY, US","cover":"BKN","clouds":[{"cover":"FEW","base":900},{"cover":"SCT","base":3400},{"cover":"BKN","base":4700}],"fltCat":"VFR"},{"icaoId":"KBUF","receiptTime":"2026-04-13T20:06:06.016Z","obsTime":1776110520,"reportTime":"2026-04-13T20:02:00.000Z","temp":15.6,"dewp":11.7,"wdir":230,"wspd":16,"wgst":27,"visib":"10+","altim":1012.6,"qcField":12,"metarType":"SPECI","rawOb":"SPECI KBUF 132002Z 23016G27KT 10SM FEW037 BKN060 BKN120 16/12 A2990 RMK AO2 PK WND 22027/1955 T01560117 $","lat":42.94,"lon":-78.7361,"elev":217,"name":"Buffalo-Niagara Intl, NY, US","cover":"BKN","clouds":[{"cover":"FEW","base":3700},{"cover":"BKN","base":6000},{"cover":"BKN","base":12000}],"fltCat":"VFR"},{"icaoId":"KSYR","receiptTime":"2026-04-13T20:04:08.337Z","obsTime":1776110460,"reportTime":"2026-04-13T20:01:00.000Z","temp":21.7,"dewp":13.9,"wdir":260,"wspd":16,"wgst":25,"visib":"10+","altim":1010.9,"qcField":4,"metarType":"SPECI","rawOb":"SPECI KSYR 132001Z 26016G25KT 10SM BKN034 OVC050 22/14 A2985 RMK AO2 T02170139","lat":43.1111,"lon":-76.1038,"elev":125,"name":"Syracuse/Hancock Intl, NY, US","cover":"OVC","clouds":[{"cover":"BKN","base":3400},{"cover":"OVC","base":5000}],"fltCat":"VFR"},{"icaoId":"KBFI","receiptTime":"2026-04-13T20:10:02.452Z","obsTime":1776110400,"reportTime":"2026-04-13T20:00:00.000Z","temp":12.2,"dewp":5,"wdir":180,"wspd":9,"wgst":17,"visib":"10+","altim":1018,"qcField":5,"metarType":"SPECI","rawOb":"SPECI KBFI 132000Z COR 18009G17KT 10SM BKN019 OVC022 12/05 A3006 RMK AO2 T01220050","lat":47.5455,"lon":-122.3148,"elev":7,"name":"Seattle/Boeing Fld, WA, US","cover":"OVC","clouds":[{"cover":"BKN","base":1900},{"cover":"OVC","base":2200}],"fltCat":"MVFR"},{"icaoId":"KMFE","receiptTime":"2026-04-13T20:04:08.057Z","obsTime":1776110400,"reportTime":"2026-04-13T20:00:00.000Z","temp":30.6,"dewp":21.7,"wdir":130,"wspd":17,"wgst":25,"visib":"10+","altim":1015.7,"qcField":4,"metarType":"SPECI","rawOb":"SPECI KMFE 132000Z 13017G25KT 10SM FEW032 SCT042 BKN050 31/22 A2999 RMK AO2 T03060217","lat":26.1791,"lon":-98.2445,"elev":29,"name":"McAllen/Miller Intl, TX, US","cover":"BKN","clouds":[{"cover":"FEW","base":3200},{"cover":"SCT","base":4200},{"cover":"BKN","base":5000}],"fltCat":"VFR"},{"icaoId":"KFLG","receiptTime":"2026-04-13T20:00:24.288Z","obsTime":1776110220,"reportTime":"2026-04-13T20:00:00.000Z","temp":10,"dewp":-0.6,"wdir":220,"wspd":15,"wgst":26,"visib":"10+","altim":1017.7,"slp":1012.1,"qcField":12,"metarType":"METAR","rawOb":"METAR KFLG 131957Z 22015G26KT 10SM FEW038 SCT049 BKN060 10/M01 A3005 RMK AO2 PK WND 22028/1932 SLP121 T01001006 $","lat":35.1443,"lon":-111.6664,"elev":2134,"name":"Flagstaff/Pulliam Arpt, AZ, US","cover":"BKN","clouds":[{"cover":"FEW","base":3800},{"cover":"SCT","base":4900},{"cover":"BKN","base":6000}],"fltCat":"VFR"},{"icaoId":"KNFL","receiptTime":"2026-04-13T20:02:07.870Z","obsTime":1776110220,"reportTime":"2026-04-13T20:00:00.000Z","temp":12.2,"dewp":-3.9,"wdir":300,"wspd":5,"visib":"10+","altim":1017,"slp":1013.8,"qcField":12,"metarType":"METAR","rawOb":"METAR KNFL 131957Z 30005KT 10SM SCT055 SCT120 12/M04 A3003 RMK AO2 SLP138 T01221039 $","lat":39.417,"lon":-118.705,"elev":1199,"name":"Fallon , NV, US","cover":"SCT","clouds":[{"cover":"SCT","base":5500},{"cover":"SCT","base":12000}],"fltCat":"VFR"},{"icaoId":"KNYL","receiptTime":"2026-04-13T20:00:25.868Z","obsTime":1776110220,"reportTime":"2026-04-13T20:00:00.000Z","temp":23.9,"dewp":7.2,"wdir":260,"wspd":10,"visib":"10+","altim":1014.6,"slp":1014.2,"qcField":4,"metarType":"METAR","rawOb":"METAR KNYL 131957Z 26010KT 10SM BKN100 24/07 A2996 RMK AO2 SLP142 T02390072","lat":32.66,"lon":-114.6078,"elev":58,"name":"Yuma , AZ, US","cover":"BKN","clouds":[{"cover":"BKN","base":10000}],"fltCat":"VFR"},{"icaoId":"KPWT","receiptTime":"2026-04-13T19:58:17.973Z","obsTime":1776110160,"reportTime":"2026-04-13T20:00:00.000Z","temp":11.7,"dewp":10,"wdir":0,"wspd":0,"visib":"10+","altim":1017.7,"slp":1018.1,"qcField":6,"metarType":"METAR","rawOb":"METAR KPWT 131956Z AUTO 00000KT 10SM BKN037 OVC044 12/10 A3005 RMK AO2 SLP181 T01170100","lat":47.4942,"lon":-122.7594,"elev":143,"name":"Bremerton Arpt, WA, US","cover":"OVC","clouds":[{"cover":"BKN","base":3700},{"cover":"OVC","base":4400}],"fltCat":"VFR"},{"icaoId":"KFNL","receiptTime":"2026-04-13T19:58:16.607Z","obsTime":1776110160,"reportTime":"2026-04-13T20:00:00.000Z","temp":21.1,"dewp":-10.6,"wdir":310,"wspd":9,"wgst":22,"visib":"10+","altim":1010.2,"slp":1004.9,"qcField":12,"metarType":"METAR","rawOb":"METAR KFNL 131956Z 31009G22KT 10SM FEW120 21/M11 A2983 RMK AO2 SLP049 T02111106 $","lat":40.4427,"lon":-105.0097,"elev":1529,"name":"Fort Collins/N Colorado Rgnl, CO, US","cover":"FEW","clouds":[{"cover":"FEW","base":12000}],"fltCat":"VFR"},{"icaoId":"KCOE","receiptTime":"2026-04-13T19:58:16.438Z","obsTime":1776110160,"reportTime":"2026-04-13T20:00:00.000Z","temp":6.7,"dewp":6.1,"wdir":160,"wspd":8,"visib":"10+","altim":1011.9,"slp":1014.2,"qcField":14,"wxString":"-RA","metarType":"METAR","rawOb":"METAR KCOE 131956Z AUTO 16008KT 10SM -RA OVC009 07/06 A2988 RMK AO2 RAB11 SLP142 T00670061 PNO $","lat":47.7719,"lon":-116.8332,"elev":693,"name":"Coeur DAlene Arpt, ID, US","cover":"OVC","clouds":[{"cover":"OVC","base":900}],"fltCat":"IFR"},{"icaoId":"KENV","receiptTime":"2026-04-13T19:58:18.143Z","obsTime":1776110160,"reportTime":"2026-04-13T20:00:00.000Z","temp":13.3,"dewp":-5,"wdir":"VRB","wspd":5,"visib":"10+","altim":1016,"slp":1015.2,"qcField":6,"metarType":"METAR","rawOb":"METAR KENV 131956Z AUTO VRB05KT 10SM CLR 13/M05 A3000 RMK AO2 SLP152 T01331050","lat":40.7211,"lon":-114.0312,"elev":1291,"name":"Wendover Arpt, UT, US","cover":"CLR","clouds":[],"fltCat":"VFR"},{"icaoId":"KHDN","receiptTime":"2026-04-13T19:58:19.052Z","obsTime":1776110160,"reportTime":"2026-04-13T20:00:00.000Z","temp":12.8,"dewp":-6.1,"wdir":270,"wspd":9,"wgst":21,"visib":"10+","altim":1015,"slp":1011.2,"qcField":6,"metarType":"METAR","rawOb":"METAR KHDN 131956Z AUTO 27009G21KT 10SM FEW075 SCT090 BKN110 13/M06 A2997 RMK AO2 SLP112 T01281061","lat":40.4842,"lon":-107.2296,"elev":2012,"name":"Hayden/Yampa Valley Arpt, CO, US","cover":"BKN","clouds":[{"cover":"FEW","base":7500},{"cover":"SCT","base":9000},{"cover":"BKN","base":11000}],"fltCat":"VFR"},{"icaoId":"KSFO","receiptTime":"2026-04-13T20:00:18.525Z","obsTime":1776110160,"reportTime":"2026-04-13T20:00:00.000Z","temp":15.6,"dewp":9.4,"wdir":30,"wspd":6,"visib":"10+","altim":1020.4,"slp":1020.4,"qcField":12,"metarType":"METAR","rawOb":"METAR KSFO 131956Z 03006KT 10SM SCT040 16/09 A3013 RMK AO2 SLP204 T01560094 $","lat":37.6196,"lon":-122.3656,"elev":2,"name":"San Francisco Intl, CA, US","cover":"SCT","clouds":[{"cover":"SCT","base":4000}],"fltCat":"VFR"},{"icaoId":"KEKO","receiptTime":"2026-04-13T20:00:19.053Z","obsTime":1776110160,"reportTime":"2026-04-13T20:00:00.000Z","temp":11.1,"dewp":-6.1,"wdir":250,"wspd":11,"wgst":16,"visib":"10+","altim":1016,"slp":1015.1,"qcField":6,"metarType":"METAR","rawOb":"METAR KEKO 131956Z AUTO 25011G16KT 10SM SCT060 11/M06 A3000 RMK AO2 SLP151 T01111061","lat":40.824,"lon":-115.7863,"elev":1541,"name":"Elko Rgnl, NV, US","cover":"SCT","clouds":[{"cover":"SCT","base":6000}],"fltCat":"VFR"},{"icaoId":"KCOD","receiptTime":"2026-04-13T19:58:16.424Z","obsTime":1776110160,"reportTime":"2026-04-13T20:00:00.000Z","temp":10,"dewp":-8.9,"wdir":320,"wspd":12,"wgst":17,"visib":"10+","altim":1011.3,"slp":1010,"qcField":14,"metarType":"METAR","rawOb":"METAR KCOD 131956Z AUTO 32012G17KT 10SM SCT100 10/M09 A2986 RMK AO2 PK WND 28026/1920 SLP100 T01001089 $","lat":44.52,"lon":-109.0268,"elev":1550,"name":"Cody/Yellowstone Rgnl, WY, US","cover":"SCT","clouds":[{"cover":"SCT","base":10000}],"fltCat":"VFR"},{"icaoId":"KLAS","receiptTime":"2026-04-13T20:00:12.133Z","obsTime":1776110160,"reportTime":"2026-04-13T20:00:00.000Z","temp":19.4,"dewp":-2.8,"wdir":180,"wspd":9,"wgst":16,"visib":"10+","altim":1013,"slp":1011.7,"qcField":4,"metarType":"METAR","rawOb":"METAR KLAS 131956Z 18009G16KT 150V210 10SM FEW070 SCT100 BKN200 19/M03 A2991 RMK AO2 SLP117 T01941028","lat":36.0719,"lon":-115.1634,"elev":662,"name":"Las Vegas/Reid Intl, NV, US","cover":"BKN","clouds":[{"cover":"FEW","base":7000},{"cover":"SCT","base":10000},{"cover":"BKN","base":20000}],"fltCat":"VFR"},{"icaoId":"KSGU","receiptTime":"2026-04-13T19:58:16.898Z","obsTime":1776110160,"reportTime":"2026-04-13T20:00:00.000Z","temp":17.2,"dewp":1.7,"wdir":40,"wspd":5,"visib":"10+","altim":1013,"slp":1010.8,"qcField":6,"metarType":"METAR","rawOb":"METAR KSGU 131956Z AUTO 04005KT 10SM FEW085 SCT120 17/02 A2991 RMK AO2 SLP108 T01720017","lat":37.0444,"lon":-113.5034,"elev":877,"name":"Saint George Muni, UT, US","cover":"SCT","clouds":[{"cover":"FEW","base":8500},{"cover":"SCT","base":12000}],"fltCat":"VFR"},{"icaoId":"KCGZ","receiptTime":"2026-04-13T19:58:16.364Z","obsTime":1776110160,"reportTime":"2026-04-13T20:00:00.000Z","temp":22.8,"dewp":4.4,"wdir":250,"wspd":11,"wgst":15,"visib":"10+","altim":1015,"slp":1013.8,"qcField":14,"metarType":"METAR","rawOb":"METAR KCGZ 131956Z AUTO 25011G15KT 10SM CLR 23/04 A2997 RMK AO2 SLP138 T02280044 $","lat":32.9531,"lon":-111.7725,"elev":444,"name":"Casa Granda Muni, AZ, US","cover":"CLR","clouds":[],"fltCat":"VFR"},{"icaoId":"KLWS","receiptTime":"2026-04-13T20:00:18.489Z","obsTime":1776110160,"reportTime":"2026-04-13T20:00:00.000Z","temp":10.6,"dewp":6.1,"wdir":140,"wspd":7,"visib":"10+","altim":1013.3,"slp":1013.6,"qcField":12,"metarType":"METAR","rawOb":"METAR KLWS 131956Z 14007KT 10SM OVC070 11/06 A2992 RMK AO2 SLP136 T01060061 $","lat":46.3746,"lon":-117.0153,"elev":435,"name":"Lewiston/Nez Perce Cnty, ID, US","cover":"OVC","clouds":[{"cover":"OVC","base":7000}],"fltCat":"VFR"},{"icaoId":"KSLE","receiptTime":"2026-04-13T20:00:09.787Z","obsTime":1776110160,"reportTime":"2026-04-13T20:00:00.000Z","temp":12.2,"dewp":3.9,"wdir":330,"wspd":7,"wgst":16,"visib":"10+","altim":1020.7,"slp":1020.7,"qcField":4,"metarType":"METAR","rawOb":"METAR KSLE 131956Z 33007G16KT 280V340 10SM BKN039 BKN065 12/04 A3014 RMK AO2 SLP207 T01220039","lat":44.9049,"lon":-123.001,"elev":63,"name":"Salem Muni, OR, US","cover":"BKN","clouds":[{"cover":"BKN","base":3900},{"cover":"BKN","base":6500}],"fltCat":"VFR"},{"icaoId":"KHND","receiptTime":"2026-04-13T19:58:19.117Z","obsTime":1776110160,"reportTime":"2026-04-13T20:00:00.000Z","temp":19.4,"dewp":-2.2,"wdir":230,"wspd":8,"wgst":17,"visib":"10+","altim":1013.6,"slp":1013.9,"qcField":12,"metarType":"METAR","rawOb":"METAR KHND 131956Z 23008G17KT 10SM CLR 19/M02 A2993 RMK AO2 SLP139 T01941022 $","lat":35.9657,"lon":-115.1343,"elev":740,"name":"Henderson Exec, NV, US","cover":"CLR","clouds":[],"fltCat":"VFR"},{"icaoId":"KGUC","receiptTime":"2026-04-13T19:58:19.001Z","obsTime":1776110160,"reportTime":"2026-04-13T20:00:00.000Z","temp":13.9,"dewp":-8.3,"wdir":240,"wspd":15,"wgst":22,"visib":"10+","altim":1015.3,"slp":1010.5,"qcField":14,"metarType":"METAR","rawOb":"METAR KGUC 131956Z AUTO 24015G22KT 10SM SCT110 14/M08 A2998 RMK AO2 SLP105 T01391083 $","lat":38.5322,"lon":-106.9419,"elev":2337,"name":"Gunnison Arpt, CO, US","cover":"SCT","clouds":[{"cover":"SCT","base":11000}],"fltCat":"VFR"},{"icaoId":"KRDM","receiptTime":"2026-04-13T20:00:09.606Z","obsTime":1776110160,"reportTime":"2026-04-13T20:00:00.000Z","temp":11.7,"dewp":0.6,"wdir":330,"wspd":14,"wgst":22,"visib":"10+","altim":1015.7,"slp":1015.4,"qcField":4,"metarType":"METAR","rawOb":"METAR KRDM 131956Z 33014G22KT 10SM SCT046 BKN060 12/01 A2999 RMK AO2 SLP154 T01170006","lat":44.2558,"lon":-121.1407,"elev":930,"name":"Redmond Muni, OR, US","cover":"BKN","clouds":[{"cover":"SCT","base":4600},{"cover":"BKN","base":6000}],"fltCat":"VFR"},{"icaoId":"KSDF","receiptTime":"2026-04-13T20:00:13.443Z","obsTime":1776110160,"reportTime":"2026-04-13T20:00:00.000Z","temp":26.1,"dewp":15.6,"wdir":200,"wspd":15,"wgst":23,"visib":"10+","altim":1018.7,"slp":1018.1,"qcField":4,"metarType":"METAR","rawOb":"METAR KSDF 131956Z 20015G23KT 10SM BKN045 BKN200 BKN300 26/16 A3008 RMK AO2 SLP181 T02610156","lat":38.1774,"lon":-85.7308,"elev":146,"name":"Louisville Intl, KY, US","cover":"BKN","clouds":[{"cover":"BKN","base":4500},{"cover":"BKN","base":20000},{"cover":"BKN","base":30000}],"fltCat":"VFR"},{"icaoId":"KINW","receiptTime":"2026-04-13T20:00:17.936Z","obsTime":1776110160,"reportTime":"2026-04-13T20:00:00.000Z","temp":20.6,"dewp":-1.7,"wdir":210,"wspd":16,"wgst":26,"visib":"10+","altim":1015.3,"slp":1010.1,"qcField":6,"metarType":"METAR","rawOb":"METAR KINW 131956Z AUTO 21016G26KT 10SM FEW080 SCT095 21/M02 A2998 RMK AO2 PK WND 22029/1941 SLP101 T02061017","lat":35.0279,"lon":-110.7221,"elev":1492,"name":"Winslow/Lindberg Rgnl, AZ, US","cover":"SCT","clouds":[{"cover":"FEW","base":8000},{"cover":"SCT","base":9500}],"fltCat":"VFR"},{"icaoId":"KSBP","receiptTime":"2026-04-13T20:02:12.690Z","obsTime":1776110160,"reportTime":"2026-04-13T20:00:00.000Z","temp":17.2,"dewp":6.7,"wdir":310,"wspd":10,"wgst":18,"visib":"10+","altim":1019,"slp":1018.9,"qcField":5,"metarType":"METAR","rawOb":"METAR KSBP 131956Z COR 31010G18KT 10SM SCT030 SCT065 17/07 A3009 RMK AO2 SLP189 T01720067","lat":35.2381,"lon":-120.644,"elev":52,"name":"San Luis Obispo/San Luis Cnty, CA, US","cover":"SCT","clouds":[{"cover":"SCT","base":3000},{"cover":"SCT","base":6500}],"fltCat":"VFR"},{"icaoId":"KCEC","receiptTime":"2026-04-13T20:00:08.703Z","obsTime":1776110160,"reportTime":"2026-04-13T20:00:00.000Z","temp":12.8,"dewp":7.8,"wdir":330,"wspd":9,"wgst":18,"visib":"10+","altim":1023.1,"slp":1023.2,"qcField":14,"metarType":"METAR","rawOb":"METAR KCEC 131956Z AUTO 33009G18KT 10SM OVC034 13/08 A3021 RMK AO2 SLP232 T01280078 $","lat":41.7836,"lon":-124.238,"elev":17,"name":"Crescent City/McNama, CA, US","cover":"OVC","clouds":[{"cover":"OVC","base":3400}],"fltCat":"VFR"},{"icaoId":"KUKI","receiptTime":"2026-04-13T20:00:10.023Z","obsTime":1776110160,"reportTime":"2026-04-13T20:00:00.000Z","temp":16.1,"dewp":5.6,"wdir":110,"wspd":4,"visib":"10+","altim":1020.1,"slp":1019.5,"qcField":6,"metarType":"METAR","rawOb":"METAR KUKI 131956Z AUTO 11004KT 10SM CLR 16/06 A3012 RMK AO2 SLP195 T01610056","lat":39.1278,"lon":-123.2001,"elev":183,"name":"Ukiah Muni, CA, US","cover":"CLR","clouds":[],"fltCat":"VFR"},{"icaoId":"KEGE","receiptTime":"2026-04-13T19:58:18.097Z","obsTime":1776110160,"reportTime":"2026-04-13T20:00:00.000Z","temp":15.6,"dewp":-8.9,"wdir":250,"wspd":17,"wgst":30,"visib":"10+","altim":1015,"slp":1008.8,"qcField":4,"metarType":"METAR","rawOb":"METAR KEGE 131956Z 25017G30KT 10SM BKN090 16/M09 A2997 RMK AO2 PK WND 25030/1953 SLP088 T01561089","lat":39.6448,"lon":-106.9176,"elev":1993,"name":"Eagle Cnty Rgnl, CO, US","cover":"BKN","clouds":[{"cover":"BKN","base":9000}],"fltCat":"VFR"},{"icaoId":"KPVU","receiptTime":"2026-04-13T19:58:17.948Z","obsTime":1776110160,"reportTime":"2026-04-13T20:00:00.000Z","temp":13.9,"dewp":-2.2,"wdir":300,"wspd":8,"visib":"10+","altim":1014.6,"slp":1013,"qcField":4,"metarType":"METAR","rawOb":"METAR KPVU 131956Z 30008KT 10SM CLR 14/M02 A2996 RMK AO2 SLP130 T01391022","lat":40.224,"lon":-111.7252,"elev":1370,"name":"Provo Muni, UT, US","cover":"CLR","clouds":[],"fltCat":"VFR"},{"icaoId":"KCHS","receiptTime":"2026-04-13T20:00:17.773Z","obsTime":1776110160,"reportTime":"2026-04-13T20:00:00.000Z","temp":26.7,"dewp":15,"wdir":160,"wspd":13,"visib":"10+","altim":1025.1,"slp":1025.1,"qcField":4,"metarType":"METAR","rawOb":"METAR KCHS 131956Z 16013KT 10SM SCT055 BKN200 27/15 A3027 RMK AO2 SLP251 T02670150","lat":32.8995,"lon":-80.0407,"elev":12,"name":"Charleston Intl, SC, US","cover":"BKN","clouds":[{"cover":"SCT","base":5500},{"cover":"BKN","base":20000}],"fltCat":"VFR"},{"icaoId":"KJAX","receiptTime":"2026-04-13T20:00:21.066Z","obsTime":1776110160,"reportTime":"2026-04-13T20:00:00.000Z","temp":27.2,"dewp":13.9,"wdir":90,"wspd":11,"visib":"10+","altim":1025.1,"slp":1024.9,"qcField":12,"metarType":"METAR","rawOb":"METAR KJAX 131956Z 09011KT 10SM FEW010 FEW045 BKN250 27/14 A3027 RMK AO2 SLP249 FU FEW010 T02720139 $","lat":30.4953,"lon":-81.6937,"elev":8,"name":"Jacksonville Intl, FL, US","cover":"BKN","clouds":[{"cover":"FEW","base":1000},{"cover":"FEW","base":4500},{"cover":"BKN","base":25000}],"fltCat":"VFR"},{"icaoId":"KTPH","receiptTime":"2026-04-13T20:00:09.957Z","obsTime":1776110160,"reportTime":"2026-04-13T20:00:00.000Z","temp":11.1,"dewp":-8.9,"wdir":180,"wspd":4,"visib":"10+","altim":1015,"slp":1013.2,"qcField":6,"metarType":"METAR","rawOb":"METAR KTPH 131956Z AUTO 18004KT 10SM OVC075 11/M09 A2997 RMK AO2 SLP132 T01111089","lat":38.0505,"lon":-117.0906,"elev":1647,"name":"Tonopah Arpt, NV, US","cover":"OVC","clouds":[{"cover":"OVC","base":7500}],"fltCat":"VFR"},{"icaoId":"KDUG","receiptTime":"2026-04-13T20:02:12.173Z","obsTime":1776110160,"reportTime":"2026-04-13T20:00:00.000Z","temp":22.8,"dewp":0.6,"wdir":220,"wspd":15,"wgst":25,"visib":"10+","altim":1019.4,"slp":1013.5,"qcField":38,"metarType":"METAR","rawOb":"METAR KDUG 131956Z AUTO 22015G25KT 10SM OVC100 23/01 A3010 RMK AO2 PK WND 24032/1927 SLP135 T02280006 TSNO","lat":31.4725,"lon":-109.6022,"elev":1260,"name":"Douglas/Bisbee Intl, AZ, US","cover":"OVC","clouds":[{"cover":"OVC","base":10000}],"fltCat":"VFR"},{"icaoId":"KAST","receiptTime":"2026-04-13T19:58:16.222Z","obsTime":1776110100,"reportTime":"2026-04-13T20:00:00.000Z","temp":11.1,"dewp":4.4,"wdir":270,"wspd":9,"wgst":15,"visib":"10+","altim":1020.7,"slp":1020.4,"qcField":6,"metarType":"METAR","rawOb":"METAR KAST 131955Z AUTO 27009G15KT 10SM FEW029 SCT039 OVC048 11/04 A3014 RMK AO2 SLP204 T01110044","lat":46.157,"lon":-123.8833,"elev":3,"name":"Astoria Rgnl, OR, US","cover":"OVC","clouds":[{"cover":"FEW","base":2900},{"cover":"SCT","base":3900},{"cover":"OVC","base":4800}],"fltCat":"VFR"},{"icaoId":"KRNO","receiptTime":"2026-04-13T19:58:16.758Z","obsTime":1776110100,"reportTime":"2026-04-13T20:00:00.000Z","temp":11.1,"dewp":-7.8,"wdir":240,"wspd":3,"visib":"10+","altim":1017.7,"slp":1016.1,"qcField":4,"metarType":"METAR","rawOb":"METAR KRNO 131955Z 24003KT 10SM SCT060 11/M08 A3005 RMK AO2 SLP161 T01111078","lat":39.5077,"lon":-119.7683,"elev":1344,"name":"Reno/Tahoe Intl, NV, US","cover":"SCT","clouds":[{"cover":"SCT","base":6000}],"fltCat":"VFR"},{"icaoId":"KCMA","receiptTime":"2026-04-13T19:58:16.398Z","obsTime":1776110100,"reportTime":"2026-04-13T20:00:00.000Z","temp":18.9,"dewp":6.7,"wdir":240,"wspd":11,"visib":"10+","altim":1017.4,"slp":1018,"qcField":4,"metarType":"METAR","rawOb":"METAR KCMA 131955Z 24011KT 10SM CLR 19/07 A3004 RMK AO2 LTG DSNT NE SLP180 T01890067","lat":34.2114,"lon":-119.0876,"elev":20,"name":"Camarillo Arpt, CA, US","cover":"CLR","clouds":[],"fltCat":"VFR"},{"icaoId":"KEND","receiptTime":"2026-04-13T20:02:05.724Z","obsTime":1776110100,"reportTime":"2026-04-13T20:00:00.000Z","temp":31,"dewp":17.6,"wdir":180,"wspd":25,"wgst":32,"visib":"10+","altim":1008.2,"slp":1006.8,"qcField":12,"metarType":"METAR","rawOb":"METAR KEND 131955Z 18025G32KT 10SM SCT200 31/18 A2977 RMK AO2A PK WND 20033/43 SLP068 T03100176 $","lat":36.338,"lon":-97.919,"elev":392,"name":"Enid/Vance AFB, OK, US","cover":"SCT","clouds":[{"cover":"SCT","base":20000}],"fltCat":"VFR"},{"icaoId":"KASE","receiptTime":"2026-04-13T19:58:19.948Z","obsTime":1776110100,"reportTime":"2026-04-13T19:55:00.000Z","temp":13.3,"dewp":-10,"wdir":190,"wspd":11,"wgst":16,"visib":"10+","altim":1015.7,"qcField":4,"metarType":"SPECI","rawOb":"SPECI KASE 131955Z 19011G16KT 10SM SCT090 13/M10 A2999 RMK AO2 T01331100","lat":39.2299,"lon":-106.8705,"elev":2384,"name":"Aspen/Pitkin Cnty, CO, US","cover":"SCT","clouds":[{"cover":"SCT","base":9000}],"fltCat":"VFR"},{"icaoId":"KMEM","receiptTime":"2026-04-13T19:58:07.744Z","obsTime":1776110040,"reportTime":"2026-04-13T20:00:00.000Z","temp":26.1,"dewp":17.2,"wdir":200,"wspd":14,"wgst":23,"visib":"10+","altim":1019.7,"slp":1019.3,"qcField":4,"metarType":"METAR","rawOb":"METAR KMEM 131954Z 20014G23KT 10SM SCT041 BKN180 26/17 A3011 RMK AO2 SLP193 T02610172","lat":35.0564,"lon":-89.9864,"elev":78,"name":"Memphis Intl, TN, US","cover":"BKN","clouds":[{"cover":"SCT","base":4100},{"cover":"BKN","base":18000}],"fltCat":"VFR"},{"icaoId":"KGCN","receiptTime":"2026-04-13T19:58:07.518Z","obsTime":1776110040,"reportTime":"2026-04-13T20:00:00.000Z","temp":11.1,"dewp":-2.2,"wdir":210,"wspd":19,"wgst":29,"visib":"10+","altim":1016.7,"slp":1012.2,"qcField":4,"metarType":"METAR","rawOb":"METAR KGCN 131954Z 21019G29KT 10SM BKN050 BKN060 OVC080 11/M02 A3002 RMK AO2 PK WND 23029/1952 SLP122 T01111022","lat":35.9458,"lon":-112.1554,"elev":1993,"name":"Grand Canyon Park Arpt, AZ, US","cover":"OVC","clouds":[{"cover":"BKN","base":5000},{"cover":"BKN","base":6000},{"cover":"OVC","base":8000}],"fltCat":"VFR"},{"icaoId":"KGSO","receiptTime":"2026-04-13T19:58:08.272Z","obsTime":1776110040,"reportTime":"2026-04-13T20:00:00.000Z","temp":27.2,"dewp":10.6,"wdir":250,"wspd":12,"visib":"10+","altim":1023.1,"slp":1021.8,"qcField":4,"metarType":"METAR","rawOb":"METAR KGSO 131954Z 25012KT 10SM FEW065 FEW100 SCT200 OVC250 27/11 A3021 RMK AO2 SLP218 T02720106","lat":36.0969,"lon":-79.9432,"elev":275,"name":"Greensboro Intl, NC, US","cover":"OVC","clouds":[{"cover":"FEW","base":6500},{"cover":"FEW","base":10000},{"cover":"SCT","base":20000},{"cover":"OVC","base":25000}],"fltCat":"VFR"},{"icaoId":"KBWI","receiptTime":"2026-04-13T19:58:06.976Z","obsTime":1776110040,"reportTime":"2026-04-13T20:00:00.000Z","temp":26.7,"dewp":10.6,"wdir":230,"wspd":10,"wgst":18,"visib":"10+","altim":1017,"slp":1016.8,"qcField":4,"metarType":"METAR","rawOb":"METAR KBWI 131954Z 23010G18KT 10SM SCT110 BKN180 OVC230 27/11 A3003 RMK AO2 SLP168 T02670106","lat":39.1733,"lon":-76.684,"elev":42,"name":"Baltimore-Washington Intl, MD, US","cover":"OVC","clouds":[{"cover":"SCT","base":11000},{"cover":"BKN","base":18000},{"cover":"OVC","base":23000}],"fltCat":"VFR"},{"icaoId":"KCOS","receiptTime":"2026-04-13T19:58:11.702Z","obsTime":1776110040,"reportTime":"2026-04-13T20:00:00.000Z","temp":20,"dewp":-14.4,"wdir":230,"wspd":19,"wgst":29,"visib":"10+","altim":1012.6,"slp":1005.6,"qcField":4,"metarType":"METAR","rawOb":"METAR KCOS 131954Z 23019G29KT 10SM FEW110 FEW200 BKN250 20/M14 A2990 RMK AO2 PK WND 20034/1910 SLP056 T02001144","lat":38.8095,"lon":-104.6887,"elev":1886,"name":"Colorado Spring Arpt, CO, US","cover":"BKN","clouds":[{"cover":"FEW","base":11000},{"cover":"FEW","base":20000},{"cover":"BKN","base":25000}],"fltCat":"VFR"},{"icaoId":"KRIC","receiptTime":"2026-04-13T19:58:06.318Z","obsTime":1776110040,"reportTime":"2026-04-13T20:00:00.000Z","temp":27.8,"dewp":9.4,"wdir":250,"wspd":15,"wgst":21,"visib":9,"altim":1020.1,"slp":1020.3,"qcField":4,"metarType":"METAR","rawOb":"METAR KRIC 131954Z 25015G21KT 9SM BKN100 OVC300 28/09 A3012 RMK AO2 SLP203 T02780094","lat":37.5115,"lon":-77.3234,"elev":51,"name":"Richmond Intl, VA, US","cover":"OVC","clouds":[{"cover":"BKN","base":10000},{"cover":"OVC","base":30000}],"fltCat":"VFR"},{"icaoId":"KBTV","receiptTime":"2026-04-13T19:58:06.503Z","obsTime":1776110040,"reportTime":"2026-04-13T20:00:00.000Z","temp":15.6,"dewp":10,"wdir":200,"wspd":10,"visib":6,"altim":1006.9,"slp":1006.9,"qcField":4,"wxString":"-RA","precip":0.01,"metarType":"METAR","rawOb":"METAR KBTV 131954Z 20010KT 6SM -RA OVC043 16/10 A2973 RMK AO2 RAB1855 SLP069 P0001 T01560100","lat":44.4682,"lon":-73.1499,"elev":101,"name":"Burlington Intl, VT, US","cover":"OVC","clouds":[{"cover":"OVC","base":4300}],"fltCat":"VFR"},{"icaoId":"KPHL","receiptTime":"2026-04-13T19:58:08.498Z","obsTime":1776110040,"reportTime":"2026-04-13T20:00:00.000Z","temp":26.1,"dewp":13.3,"wdir":230,"wspd":17,"wgst":24,"visib":"10+","altim":1016.3,"slp":1016.1,"qcField":12,"metarType":"METAR","rawOb":"METAR KPHL 131954Z 23017G24KT 10SM SCT100 BKN160 BKN210 26/13 A3001 RMK AO2 PK WND 22026/1914 SLP161 T02610133 $","lat":39.8733,"lon":-75.2268,"elev":2,"name":"Philadelphia Intl, PA, US","cover":"BKN","clouds":[{"cover":"SCT","base":10000},{"cover":"BKN","base":16000},{"cover":"BKN","base":21000}],"fltCat":"VFR"},{"icaoId":"KAPC","receiptTime":"2026-04-13T19:58:06.917Z","obsTime":1776110040,"reportTime":"2026-04-13T20:00:00.000Z","temp":16.7,"dewp":8.9,"wdir":230,"wspd":8,"visib":"10+","altim":1020.1,"slp":1019.1,"qcField":4,"metarType":"METAR","rawOb":"METAR KAPC 131954Z 23008KT 10SM BKN045 17/09 A3012 RMK AO2 SLP191 T01670089","lat":38.2075,"lon":-122.2804,"elev":5,"name":"Napa Cnty Arpt, CA, US","cover":"BKN","clouds":[{"cover":"BKN","base":4500}],"fltCat":"VFR"},{"icaoId":"KBFL","receiptTime":"2026-04-13T19:58:10.187Z","obsTime":1776110040,"reportTime":"2026-04-13T20:00:00.000Z","temp":13.9,"dewp":7.8,"wdir":"VRB","wspd":4,"visib":"10+","altim":1019.4,"slp":1019.2,"qcField":4,"wxString":"-RA","precip":0.005,"metarType":"METAR","rawOb":"METAR KBFL 131954Z VRB04KT 10SM -RA FEW030 BKN038 OVC090 14/08 A3010 RMK AO2 RAE1856B29 SLP192 P0000 T01390078","lat":35.4342,"lon":-119.0552,"elev":146,"name":"Bakersfield/Meadows Arpt, CA, US","cover":"OVC","clouds":[{"cover":"FEW","base":3000},{"cover":"BKN","base":3800},{"cover":"OVC","base":9000}],"fltCat":"VFR"},{"icaoId":"KFFZ","receiptTime":"2026-04-13T19:58:07.476Z","obsTime":1776110040,"reportTime":"2026-04-13T20:00:00.000Z","temp":23.3,"dewp":3.9,"wdir":170,"wspd":11,"wgst":19,"visib":"10+","altim":1014.3,"slp":1012.5,"qcField":4,"metarType":"METAR","rawOb":"METAR KFFZ 131954Z 17011G19KT 10SM CLR 23/04 A2995 RMK AO2 SLP125 T02330039","lat":33.4659,"lon":-111.7212,"elev":420,"name":"Mesa/Falcon Fld, AZ, US","cover":"CLR","clouds":[],"fltCat":"VFR"},{"icaoId":"KDSM","receiptTime":"2026-04-13T19:58:11.736Z","obsTime":1776110040,"reportTime":"2026-04-13T20:00:00.000Z","temp":26.7,"dewp":17.2,"wdir":180,"wspd":16,"wgst":26,"visib":"10+","altim":1005.8,"slp":1005.1,"qcField":12,"metarType":"METAR","rawOb":"METAR KDSM 131954Z 18016G26KT 10SM FEW035 FEW200 BKN250 27/17 A2970 RMK AO2 PK WND 20026/1951 SLP051 T02670172 $","lat":41.5339,"lon":-93.6531,"elev":286,"name":"Des Moines Intl, IA, US","cover":"BKN","clouds":[{"cover":"FEW","base":3500},{"cover":"FEW","base":20000},{"cover":"BKN","base":25000}],"fltCat":"VFR"},{"icaoId":"KIND","receiptTime":"2026-04-13T19:58:09.686Z","obsTime":1776110040,"reportTime":"2026-04-13T20:00:00.000Z","temp":26.7,"dewp":15.6,"wdir":220,"wspd":17,"wgst":25,"visib":"10+","altim":1015.7,"slp":1014.9,"qcField":4,"metarType":"METAR","rawOb":"METAR KIND 131954Z 22017G25KT 10SM SCT050 27/16 A2999 RMK AO2 SLP149 T02670156","lat":39.7252,"lon":-86.2816,"elev":242,"name":"Indianapolis Intl, IN, US","cover":"SCT","clouds":[{"cover":"SCT","base":5000}],"fltCat":"VFR"},{"icaoId":"KRKS","receiptTime":"2026-04-13T19:58:09.264Z","obsTime":1776110040,"reportTime":"2026-04-13T20:00:00.000Z","temp":10.6,"dewp":-10.6,"wdir":290,"wspd":14,"wgst":26,"visib":"10+","altim":1015,"slp":1011.9,"qcField":6,"metarType":"METAR","rawOb":"METAR KRKS 131954Z AUTO 29014G26KT 10SM CLR 11/M11 A2997 RMK AO2 PK WND 26028/1900 SLP119 T01061106","lat":41.5947,"lon":-109.0529,"elev":2062,"name":"Rock Springs/SW Wyoming Rgnl, WY, US","cover":"CLR","clouds":[],"fltCat":"VFR"},{"icaoId":"KSJN","receiptTime":"2026-04-13T19:58:07.777Z","obsTime":1776110040,"reportTime":"2026-04-13T20:00:00.000Z","temp":18.9,"dewp":-3.3,"wdir":230,"wspd":23,"wgst":37,"visib":"10+","altim":1016.7,"slp":1010,"qcField":6,"metarType":"METAR","rawOb":"METAR KSJN 131954Z AUTO 23023G37KT 10SM BKN095 19/M03 A3002 RMK AO2 PK WND 25037/1945 SLP100 T01891033","lat":34.5184,"lon":-109.3801,"elev":1747,"name":"St Johns Ind Arpt, AZ, US","cover":"BKN","clouds":[{"cover":"BKN","base":9500}],"fltCat":"VFR"},{"icaoId":"KSLC","receiptTime":"2026-04-13T19:58:07.793Z","obsTime":1776110040,"reportTime":"2026-04-13T20:00:00.000Z","temp":13.3,"dewp":2.8,"wdir":310,"wspd":8,"visib":"10+","altim":1015.3,"slp":1013.6,"qcField":12,"metarType":"METAR","rawOb":"METAR KSLC 131954Z 31008KT 10SM FEW065 SCT100 SCT250 13/03 A2998 RMK AO2 SLP136 VIRGA TCU DSNT NW T01330028 $","lat":40.7707,"lon":-111.965,"elev":1286,"name":"Salt Lake City Intl, UT, US","cover":"SCT","clouds":[{"cover":"FEW","base":6500},{"cover":"SCT","base":10000},{"cover":"SCT","base":25000}],"fltCat":"VFR"},{"icaoId":"KROC","receiptTime":"2026-04-13T19:58:06.350Z","obsTime":1776110040,"reportTime":"2026-04-13T20:00:00.000Z","temp":20.6,"dewp":14.4,"wdir":260,"wspd":18,"wgst":25,"visib":"10+","altim":1011.9,"slp":1012,"qcField":4,"metarType":"METAR","rawOb":"METAR KROC 131954Z 26018G25KT 10SM FEW018 SCT030 BKN043 21/14 A2988 RMK AO2 PK WND 27040/1906 SLP120 T02060144","lat":43.1172,"lon":-77.6754,"elev":166,"name":"Rochester Intl Arpt, NY, US","cover":"BKN","clouds":[{"cover":"FEW","base":1800},{"cover":"SCT","base":3000},{"cover":"BKN","base":4300}],"fltCat":"VFR"},{"icaoId":"KEUG","receiptTime":"2026-04-13T19:58:07.102Z","obsTime":1776110040,"reportTime":"2026-04-13T20:00:00.000Z","temp":11.7,"dewp":3.3,"wdir":260,"wspd":9,"visib":"10+","altim":1022.1,"slp":1022.1,"qcField":4,"precip":0.005,"metarType":"METAR","rawOb":"METAR KEUG 131954Z 26009KT 10SM FEW028 BKN036 BKN055 12/03 A3018 RMK AO2 RAE00 SLP221 P0000 T01170033","lat":44.1331,"lon":-123.2156,"elev":109,"name":"Eugene/Mahlon Sweet Fld, OR, US","cover":"BKN","clouds":[{"cover":"FEW","base":2800},{"cover":"BKN","base":3600},{"cover":"BKN","base":5500}],"fltCat":"VFR"},{"icaoId":"KOLS","receiptTime":"2026-04-13T19:58:06.674Z","obsTime":1776110040,"reportTime":"2026-04-13T20:00:00.000Z","temp":16.1,"dewp":6.7,"wdir":210,"wspd":19,"wgst":31,"visib":"10+","altim":1019.7,"slp":1015,"qcField":6,"wxString":"-RA","precip":0.005,"metarType":"METAR","rawOb":"METAR KOLS 131954Z AUTO 21019G31KT 10SM -RA FEW034 BKN120 16/07 A3011 RMK AO2 PK WND 21045/1923 SLP150 P0000 T01610067","lat":31.4208,"lon":-110.8465,"elev":1194,"name":"Nogales Intl, AZ, US","cover":"BKN","clouds":[{"cover":"FEW","base":3400},{"cover":"BKN","base":12000}],"fltCat":"VFR"},{"icaoId":"KBOS","receiptTime":"2026-04-13T20:04:10.161Z","obsTime":1776110040,"reportTime":"2026-04-13T20:00:00.000Z","temp":20,"dewp":11.7,"wdir":220,"wspd":14,"wgst":22,"visib":"10+","altim":1010.2,"slp":1009.9,"qcField":4,"metarType":"METAR","rawOb":"METAR KBOS 131954Z 22014G22KT 10SM BKN110 OVC180 20/12 A2983 RMK AO2 SLP099 BINOVC T02000117","lat":42.3606,"lon":-71.0097,"elev":4,"name":"Boston/Logan Intl, MA, US","cover":"OVC","clouds":[{"cover":"BKN","base":11000},{"cover":"OVC","base":18000}],"fltCat":"VFR"},{"icaoId":"KOLM","receiptTime":"2026-04-13T19:58:06.658Z","obsTime":1776110040,"reportTime":"2026-04-13T20:00:00.000Z","temp":13.3,"dewp":4.4,"wdir":230,"wspd":11,"wgst":22,"visib":"10+","altim":1018.7,"slp":1018.7,"qcField":4,"precip":0.005,"metarType":"METAR","rawOb":"METAR KOLM 131954Z 23011G22KT 10SM FEW026 BKN055 13/04 A3008 RMK AO2 RAB31E40 SLP187 P0000 T01330044","lat":46.9737,"lon":-122.9049,"elev":58,"name":"Olympia Rgnl, WA, US","cover":"BKN","clouds":[{"cover":"FEW","base":2600},{"cover":"BKN","base":5500}],"fltCat":"VFR"},{"icaoId":"KBNA","receiptTime":"2026-04-13T19:57:29.655Z","obsTime":1776109980,"reportTime":"2026-04-13T20:00:00.000Z","temp":23.3,"dewp":15.6,"wdir":190,"wspd":8,"visib":"10+","altim":1022.1,"slp":1021.3,"qcField":4,"precip":0.005,"metarType":"METAR","rawOb":"METAR KBNA 131953Z 19008KT 10SM FEW044 SCT110 BKN150 BKN250 23/16 A3018 RMK AO2 RAE12 SLP213 P0000 T02330156","lat":36.1105,"lon":-86.6881,"elev":168,"name":"Nashville Intl, TN, US","cover":"BKN","clouds":[{"cover":"FEW","base":4400},{"cover":"SCT","base":11000},{"cover":"BKN","base":15000},{"cover":"BKN","base":25000}],"fltCat":"VFR"},{"icaoId":"KSMF","receiptTime":"2026-04-13T19:57:25.516Z","obsTime":1776109980,"reportTime":"2026-04-13T20:00:00.000Z","temp":16.1,"dewp":6.7,"wdir":340,"wspd":8,"visib":"10+","altim":1019.7,"slp":1019.7,"qcField":4,"metarType":"METAR","rawOb":"METAR KSMF 131953Z 34008KT 10SM BKN036 BKN047 16/07 A3011 RMK AO2 SLP197 T01610067","lat":38.7007,"lon":-121.5948,"elev":7,"name":"Sacramento Intl, CA, US","cover":"BKN","clouds":[{"cover":"BKN","base":3600},{"cover":"BKN","base":4700}],"fltCat":"VFR"},{"icaoId":"KLBB","receiptTime":"2026-04-13T19:57:26.458Z","obsTime":1776109980,"reportTime":"2026-04-13T20:00:00.000Z","temp":30.6,"dewp":0.6,"wdir":230,"wspd":19,"wgst":28,"visib":"10+","altim":1014.6,"slp":1009.4,"qcField":4,"metarType":"METAR","rawOb":"METAR KLBB 131953Z 23019G28KT 10SM FEW120 FEW150 SCT250 31/01 A2996 RMK AO2 PK WND 21035/1934 SLP094 ACSL DSNT S T03060006","lat":33.6658,"lon":-101.8233,"elev":996,"name":"Lubbock Intl Arpt, TX, US","cover":"SCT","clouds":[{"cover":"FEW","base":12000},{"cover":"FEW","base":15000},{"cover":"SCT","base":25000}],"fltCat":"VFR"},{"icaoId":"KMCO","receiptTime":"2026-04-13T19:57:01.684Z","obsTime":1776109980,"reportTime":"2026-04-13T20:00:00.000Z","temp":27.2,"dewp":13.3,"wdir":80,"wspd":10,"wgst":20,"visib":"10+","altim":1024.8,"slp":1024.5,"qcField":4,"metarType":"METAR","rawOb":"METAR KMCO 131953Z 08010G20KT 10SM FEW050 BKN250 27/13 A3026 RMK AO2 SLP245 T02720133","lat":28.4182,"lon":-81.3241,"elev":27,"name":"Orlando Intl, FL, US","cover":"BKN","clouds":[{"cover":"FEW","base":5000},{"cover":"BKN","base":25000}],"fltCat":"VFR"},{"icaoId":"PANC","receiptTime":"2026-04-13T19:57:01.012Z","obsTime":1776109980,"reportTime":"2026-04-13T20:00:00.000Z","temp":3.9,"dewp":-5,"wdir":220,"wspd":5,"visib":"10+","altim":1002.8,"slp":1002.8,"qcField":4,"metarType":"METAR","rawOb":"METAR PANC 131953Z 22005KT 10SM SCT070 BKN180 04/M05 A2961 RMK AO2 SLP028 T00391050","lat":61.1691,"lon":-150.0277,"elev":39,"name":"Anchorage Intl, AK, US","cover":"BKN","clouds":[{"cover":"SCT","base":7000},{"cover":"BKN","base":18000}],"fltCat":"VFR"},{"icaoId":"KLVS","receiptTime":"2026-04-13T19:57:01.325Z","obsTime":1776109980,"reportTime":"2026-04-13T20:00:00.000Z","temp":17.8,"dewp":-6.1,"wdir":210,"wspd":17,"wgst":32,"visib":"10+","altim":1018,"slp":1009.3,"qcField":14,"metarType":"METAR","rawOb":"METAR KLVS 131953Z AUTO 21017G32KT 10SM CLR 18/M06 A3006 RMK AO2 PK WND 19037/1903 SLP093 T01781061 PNO $","lat":35.6558,"lon":-105.1385,"elev":2095,"name":"Las Vegas Muni, NM, US","cover":"CLR","clouds":[],"fltCat":"VFR"},{"icaoId":"KMAF","receiptTime":"2026-04-13T19:57:01.486Z","obsTime":1776109980,"reportTime":"2026-04-13T20:00:00.000Z","temp":30.6,"dewp":1.1,"wdir":240,"wspd":14,"wgst":22,"visib":"10+","altim":1016.3,"slp":1011.5,"qcField":4,"metarType":"METAR","rawOb":"METAR KMAF 131953Z 24014G22KT 10SM CLR 31/01 A3001 RMK AO2 SLP115 T03060011","lat":31.9475,"lon":-102.2086,"elev":874,"name":"Midland Intl, TX, US","cover":"CLR","clouds":[],"fltCat":"VFR"},{"icaoId":"KPNC","receiptTime":"2026-04-13T19:57:08.673Z","obsTime":1776109980,"reportTime":"2026-04-13T20:00:00.000Z","temp":28.9,"dewp":18.9,"wdir":200,"wspd":13,"wgst":27,"visib":"10+","altim":1009.2,"slp":1007.9,"qcField":6,"metarType":"METAR","rawOb":"METAR KPNC 131953Z AUTO 20013G27KT 10SM CLR 29/19 A2980 RMK AO2 PK WND 21031/1929 SLP079 T02890189","lat":36.7369,"lon":-97.1024,"elev":304,"name":"Ponca City Rgnl, OK, US","cover":"CLR","clouds":[],"fltCat":"VFR"},{"icaoId":"KBLI","receiptTime":"2026-04-13T19:57:29.577Z","obsTime":1776109980,"reportTime":"2026-04-13T20:00:00.000Z","temp":11.7,"dewp":6.1,"wdir":180,"wspd":11,"wgst":20,"visib":"10+","altim":1016.3,"slp":1017,"qcField":4,"metarType":"METAR","rawOb":"METAR KBLI 131953Z 18011G20KT 10SM FEW049 BKN055 OVC075 12/06 A3001 RMK AO2 SLP170 T01170061","lat":48.7991,"lon":-122.5407,"elev":46,"name":"Bellingham Intl, WA, US","cover":"OVC","clouds":[{"cover":"FEW","base":4900},{"cover":"BKN","base":5500},{"cover":"OVC","base":7500}],"fltCat":"VFR"},{"icaoId":"KAPA","receiptTime":"2026-04-13T19:57:13.254Z","obsTime":1776109980,"reportTime":"2026-04-13T20:00:00.000Z","temp":20,"dewp":-15,"wdir":"VRB","wspd":5,"visib":"10+","altim":1009.9,"slp":1004.7,"qcField":4,"metarType":"METAR","rawOb":"METAR KAPA 131953Z VRB05KT 10SM FEW100 SCT220 20/M15 A2982 RMK AO2 SLP047 T02001150","lat":39.5599,"lon":-104.8484,"elev":1791,"name":"Denver/Centennial Arpt, CO, US","cover":"SCT","clouds":[{"cover":"FEW","base":10000},{"cover":"SCT","base":22000}],"fltCat":"VFR"},{"icaoId":"KMYF","receiptTime":"2026-04-13T19:57:13.350Z","obsTime":1776109980,"reportTime":"2026-04-13T20:00:00.000Z","temp":16.7,"dewp":10.6,"wdir":280,"wspd":10,"visib":"10+","altim":1019,"slp":1018.5,"qcField":4,"precip":0.005,"metarType":"METAR","rawOb":"METAR KMYF 131953Z 28010KT 10SM FEW046 SCT065 17/11 A3009 RMK AO2 RAE35 SLP185 P0000 T01670106","lat":32.8145,"lon":-117.1375,"elev":128,"name":"San Diego/Montgomery Arpt, CA, US","cover":"SCT","clouds":[{"cover":"FEW","base":4600},{"cover":"SCT","base":6500}],"fltCat":"VFR"},{"icaoId":"KOAK","receiptTime":"2026-04-13T19:57:13.400Z","obsTime":1776109980,"reportTime":"2026-04-13T20:00:00.000Z","temp":16.7,"dewp":7.8,"wdir":260,"wspd":9,"visib":"10+","altim":1020.7,"slp":1020.6,"qcField":12,"metarType":"METAR","rawOb":"METAR KOAK 131953Z 26009KT 10SM SCT032 17/08 A3014 RMK AO2 SLP206 T01670078 $","lat":37.7178,"lon":-122.233,"elev":3,"name":"Oakland Intl, CA, US","cover":"SCT","clouds":[{"cover":"SCT","base":3200}],"fltCat":"VFR"},{"icaoId":"KONT","receiptTime":"2026-04-13T19:57:13.604Z","obsTime":1776109980,"reportTime":"2026-04-13T20:00:00.000Z","temp":17.2,"dewp":7.2,"wdir":210,"wspd":10,"visib":"10+","altim":1017.4,"slp":1016.7,"qcField":12,"metarType":"METAR","rawOb":"METAR KONT 131953Z 21010KT 10SM SCT034 BKN080 17/07 A3004 RMK AO2 SLP167 T01720072 $","lat":34.0531,"lon":-117.5769,"elev":279,"name":"Ontario Intl, CA, US","cover":"BKN","clouds":[{"cover":"SCT","base":3400},{"cover":"BKN","base":8000}],"fltCat":"VFR"},{"icaoId":"KPSP","receiptTime":"2026-04-13T19:57:13.764Z","obsTime":1776109980,"reportTime":"2026-04-13T20:00:00.000Z","temp":20.6,"dewp":4.4,"wdir":340,"wspd":17,"wgst":26,"visib":"10+","altim":1015.3,"slp":1015.1,"qcField":4,"wxString":"-RA","precip":0.005,"metarType":"METAR","rawOb":"METAR KPSP 131953Z 34017G26KT 10SM -RA BKN070 BKN085 21/04 A2998 RMK AO2 PK WND 33027/1919 RAB42 SLP151 P0000 T02060044","lat":33.8222,"lon":-116.5043,"elev":123,"name":"Palm Springs Intl, CA, US","cover":"BKN","clouds":[{"cover":"BKN","base":7000},{"cover":"BKN","base":8500}],"fltCat":"VFR"},{"icaoId":"KMDW","receiptTime":"2026-04-13T19:57:20.235Z","obsTime":1776109980,"reportTime":"2026-04-13T20:00:00.000Z","temp":23.3,"dewp":17.8,"wdir":250,"wspd":11,"visib":"10+","altim":1013.3,"slp":1012.3,"qcField":4,"metarType":"METAR","rawOb":"METAR KMDW 131953Z 25011KT 10SM BKN032 BKN049 OVC130 23/18 A2992 RMK AO2 LTG DSNT SE AND S SLP123 T02330178","lat":41.7841,"lon":-87.7552,"elev":186,"name":"Chicago/Midway Intl, IL, US","cover":"OVC","clouds":[{"cover":"BKN","base":3200},{"cover":"BKN","base":4900},{"cover":"OVC","base":13000}],"fltCat":"VFR"},{"icaoId":"KMYR","receiptTime":"2026-04-13T19:57:24.145Z","obsTime":1776109980,"reportTime":"2026-04-13T20:00:00.000Z","temp":23.3,"dewp":15.6,"wdir":180,"wspd":11,"visib":"10+","altim":1026.2,"slp":1025.9,"qcField":12,"metarType":"METAR","rawOb":"METAR KMYR 131953Z 18011KT 10SM CLR 23/16 A3030 RMK AO2 SLP259 T02330156 $","lat":33.6769,"lon":-78.9325,"elev":7,"name":"Myrtle Beach Intl, SC, US","cover":"CLR","clouds":[],"fltCat":"VFR"},{"icaoId":"KSJC","receiptTime":"2026-04-13T19:57:25.485Z","obsTime":1776109980,"reportTime":"2026-04-13T20:00:00.000Z","temp":17.2,"dewp":6.7,"wdir":340,"wspd":9,"visib":"10+","altim":1020.1,"slp":1019.9,"qcField":12,"metarType":"METAR","rawOb":"METAR KSJC 131953Z 34009KT 10SM FEW029TCU FEW035TCU SCT048TCU 17/07 A3012 RMK AO2 SLP199 TCU N AND W T01720067 $","lat":37.3594,"lon":-121.9244,"elev":13,"name":"San Jose Intl Arpt, CA, US","cover":"SCT","clouds":[{"cover":"FEW","base":2900},{"cover":"FEW","base":3500},{"cover":"SCT","base":4800}],"fltCat":"VFR"},{"icaoId":"KCNY","receiptTime":"2026-04-13T19:57:25.986Z","obsTime":1776109980,"reportTime":"2026-04-13T20:00:00.000Z","temp":16.7,"dewp":-5,"wdir":"VRB","wspd":5,"visib":"10+","altim":1013,"slp":1009.5,"qcField":14,"metarType":"METAR","rawOb":"METAR KCNY 131953Z AUTO VRB05KT 10SM BKN100 17/M05 A2991 RMK AO2 SLP095 T01671050 $","lat":38.7501,"lon":-109.7627,"elev":1392,"name":"Moab/Canyonland Fld, UT, US","cover":"BKN","clouds":[{"cover":"BKN","base":10000}],"fltCat":"VFR"},{"icaoId":"KDAL","receiptTime":"2026-04-13T19:57:26.073Z","obsTime":1776109980,"reportTime":"2026-04-13T20:00:00.000Z","temp":27.8,"dewp":20,"wdir":200,"wspd":9,"wgst":20,"visib":"10+","altim":1016,"slp":1015.2,"qcField":4,"metarType":"METAR","rawOb":"METAR KDAL 131953Z 20009G20KT 150V220 10SM BKN036 BKN050 BKN250 28/20 A3000 RMK AO2 SLP152 T02780200","lat":32.8384,"lon":-96.8358,"elev":148,"name":"Dallas/Love Fld, TX, US","cover":"BKN","clouds":[{"cover":"BKN","base":3600},{"cover":"BKN","base":5000},{"cover":"BKN","base":25000}],"fltCat":"VFR"},{"icaoId":"KELY","receiptTime":"2026-04-13T19:57:26.124Z","obsTime":1776109980,"reportTime":"2026-04-13T20:00:00.000Z","temp":5,"dewp":-1.1,"wdir":0,"wspd":0,"visib":"10+","altim":1016.3,"qcField":6,"metarType":"METAR","rawOb":"METAR KELY 131953Z AUTO 00000KT 10SM CLR 05/M01 A3001 RMK AO2 SLPNO T00501011","lat":39.2954,"lon":-114.8466,"elev":1906,"name":"Ely/Yelland Fld, NV, US","cover":"CLR","clouds":[],"fltCat":"VFR"},{"icaoId":"KGEG","receiptTime":"2026-04-13T19:57:26.271Z","obsTime":1776109980,"reportTime":"2026-04-13T20:00:00.000Z","temp":10.6,"dewp":7.2,"wdir":210,"wspd":9,"visib":"10+","altim":1010.9,"slp":1011.1,"qcField":12,"metarType":"METAR","rawOb":"METAR KGEG 131953Z 21009KT 10SM SCT015 BKN022 OVC027 11/07 A2985 RMK AO2 SLP111 T01060072 $","lat":47.6217,"lon":-117.528,"elev":718,"name":"Spokane Intl, WA, US","cover":"OVC","clouds":[{"cover":"SCT","base":1500},{"cover":"BKN","base":2200},{"cover":"OVC","base":2700}],"fltCat":"MVFR"},{"icaoId":"KCPR","receiptTime":"2026-04-13T19:57:27.998Z","obsTime":1776109980,"reportTime":"2026-04-13T20:00:00.000Z","temp":15.6,"dewp":-12.2,"wdir":240,"wspd":28,"wgst":39,"visib":"10+","altim":1010.6,"slp":1007.1,"qcField":4,"metarType":"METAR","rawOb":"METAR KCPR 131953Z 24028G39KT 10SM CLR 16/M12 A2984 RMK AO2 PK WND 22043/1929 SLP071 T01561122","lat":42.8978,"lon":-106.4736,"elev":1623,"name":"Casper/Natrona Cnty, WY, US","cover":"CLR","clouds":[],"fltCat":"VFR"},{"icaoId":"KCYS","receiptTime":"2026-04-13T19:57:28.161Z","obsTime":1776109980,"reportTime":"2026-04-13T20:00:00.000Z","temp":17.2,"dewp":-11.7,"wdir":250,"wspd":23,"wgst":32,"visib":"10+","altim":1011.9,"slp":1005.9,"qcField":4,"metarType":"METAR","rawOb":"METAR KCYS 131953Z 25023G32KT 10SM CLR 17/M12 A2988 RMK AO2 PK WND 25033/1928 SLP059 T01721117","lat":41.1579,"lon":-104.8081,"elev":1868,"name":"Cheyenne Rgnl, WY, US","cover":"CLR","clouds":[],"fltCat":"VFR"},{"icaoId":"KBRO","receiptTime":"2026-04-13T19:57:29.849Z","obsTime":1776109980,"reportTime":"2026-04-13T20:00:00.000Z","temp":28.9,"dewp":21.1,"wdir":140,"wspd":16,"wgst":25,"visib":"10+","altim":1017,"slp":1016.8,"qcField":4,"metarType":"METAR","rawOb":"METAR KBRO 131953Z 14016G25KT 10SM BKN024 BKN030 OVC037 29/21 A3003 RMK AO2 PK WND 16026/1924 SLP168 T02890211","lat":25.9146,"lon":-97.4231,"elev":6,"name":"Brownsville Intl, TX, US","cover":"OVC","clouds":[{"cover":"BKN","base":2400},{"cover":"BKN","base":3000},{"cover":"OVC","base":3700}],"fltCat":"MVFR"},{"icaoId":"KGEU","receiptTime":"2026-04-13T19:54:18.765Z","obsTime":1776109980,"reportTime":"2026-04-13T20:00:00.000Z","temp":24,"dewp":4,"wdir":250,"wspd":8,"visib":"10+","altim":1013.6,"qcField":0,"metarType":"METAR","rawOb":"METAR KGEU 131953Z 25008KT 10SM SCT190 BKN220 24/04 A2993","lat":33.528,"lon":-112.293,"elev":319,"name":"Glendale Muni, AZ, US","cover":"BKN","clouds":[{"cover":"SCT","base":19000},{"cover":"BKN","base":22000}],"fltCat":"VFR"},{"icaoId":"KFAT","receiptTime":"2026-04-13T19:57:26.179Z","obsTime":1776109980,"reportTime":"2026-04-13T20:00:00.000Z","temp":17.2,"dewp":6.7,"wdir":280,"wspd":7,"visib":"10+","altim":1019,"slp":1018.8,"qcField":4,"metarType":"METAR","rawOb":"METAR KFAT 131953Z 28007KT 10SM BKN038 BKN100 OVC200 17/07 A3009 RMK AO2 SLP188 T01720067","lat":36.78,"lon":-119.7202,"elev":102,"name":"Fresno/Yosemite Intl, CA, US","cover":"OVC","clouds":[{"cover":"BKN","base":3800},{"cover":"BKN","base":10000},{"cover":"OVC","base":20000}],"fltCat":"VFR"},{"icaoId":"KLGB","receiptTime":"2026-04-13T19:57:11.075Z","obsTime":1776109980,"reportTime":"2026-04-13T20:00:00.000Z","temp":18.3,"dewp":7.2,"wdir":220,"wspd":7,"wgst":19,"visib":"10+","altim":1017.4,"slp":1017.2,"qcField":12,"metarType":"METAR","rawOb":"METAR KLGB 131953Z 22007G19KT 10SM BKN047 BKN055 18/07 A3004 RMK AO2 SLP172 T01830072 $","lat":33.8118,"lon":-118.1472,"elev":10,"name":"Long Beach Arpt, CA, US","cover":"BKN","clouds":[{"cover":"BKN","base":4700},{"cover":"BKN","base":5500}],"fltCat":"VFR"},{"icaoId":"KCDC","receiptTime":"2026-04-13T19:57:27.736Z","obsTime":1776109980,"reportTime":"2026-04-13T20:00:00.000Z","temp":8.3,"dewp":3.9,"wdir":150,"wspd":8,"visib":"10+","altim":1015,"slp":1012.1,"qcField":6,"wxString":"-RA","precip":0.06,"metarType":"METAR","rawOb":"METAR KCDC 131953Z AUTO 15008KT 10SM -RA FEW030 BKN036 OVC080 08/04 A2997 RMK AO2 PK WND 20031/1923 RAB21 SLP121 P0006 T00830039","lat":37.7067,"lon":-113.097,"elev":1703,"name":"Cedar City Muni, UT, US","cover":"OVC","clouds":[{"cover":"FEW","base":3000},{"cover":"BKN","base":3600},{"cover":"OVC","base":8000}],"fltCat":"VFR"},{"icaoId":"KCNM","receiptTime":"2026-04-13T19:57:27.934Z","obsTime":1776109980,"reportTime":"2026-04-13T20:00:00.000Z","temp":29.4,"dewp":0.6,"wdir":240,"wspd":15,"wgst":25,"visib":"10+","altim":1016.3,"slp":1010.3,"qcField":6,"metarType":"METAR","rawOb":"METAR KCNM 131953Z AUTO 24015G25KT 10SM SCT110 29/01 A3001 RMK AO2 PK WND 25029/1929 SLP103 T02940006","lat":32.3336,"lon":-104.2584,"elev":993,"name":"Carlsbad/Cavern City Air Term, NM, US","cover":"SCT","clouds":[{"cover":"SCT","base":11000}],"fltCat":"VFR"},{"icaoId":"KFMN","receiptTime":"2026-04-13T19:57:26.195Z","obsTime":1776109980,"reportTime":"2026-04-13T20:00:00.000Z","temp":17.8,"dewp":-3.9,"wdir":240,"wspd":8,"visib":"10+","altim":1016,"slp":1012.1,"qcField":4,"metarType":"METAR","rawOb":"METAR KFMN 131953Z 24008KT 10SM FEW095 18/M04 A3000 RMK AO2 SLP121 T01781039","lat":36.7435,"lon":-108.2293,"elev":1677,"name":"Farmington/Four Corners Rgnl, NM, US","cover":"FEW","clouds":[{"cover":"FEW","base":9500}],"fltCat":"VFR"},{"icaoId":"KFUL","receiptTime":"2026-04-13T19:57:27.683Z","obsTime":1776109980,"reportTime":"2026-04-13T20:00:00.000Z","temp":18.9,"dewp":7.2,"wdir":190,"wspd":8,"visib":"10+","altim":1017.4,"slp":1017,"qcField":4,"metarType":"METAR","rawOb":"METAR KFUL 131953Z 19008KT 10SM FEW048 SCT065 19/07 A3004 RMK AO2 SLP170 T01890072","lat":33.8715,"lon":-117.9856,"elev":23,"name":"Fullerton Muni, CA, US","cover":"SCT","clouds":[{"cover":"FEW","base":4800},{"cover":"SCT","base":6500}],"fltCat":"VFR"},{"icaoId":"KAUS","receiptTime":"2026-04-13T19:57:29.120Z","obsTime":1776109980,"reportTime":"2026-04-13T20:00:00.000Z","temp":30,"dewp":20,"wdir":170,"wspd":10,"wgst":21,"visib":"10+","altim":1016.7,"slp":1015.7,"qcField":4,"metarType":"METAR","rawOb":"METAR KAUS 131953Z 17010G21KT 10SM SCT037 BKN055 BKN250 30/20 A3002 RMK AO2 SLP157 T03000200","lat":30.1831,"lon":-97.6806,"elev":148,"name":"Austin/Bergstrom Intl, TX, US","cover":"BKN","clouds":[{"cover":"SCT","base":3700},{"cover":"BKN","base":5500},{"cover":"BKN","base":25000}],"fltCat":"VFR"},{"icaoId":"KBCE","receiptTime":"2026-04-13T19:57:29.238Z","obsTime":1776109980,"reportTime":"2026-04-13T20:00:00.000Z","temp":6.7,"dewp":-3.9,"wdir":190,"wspd":17,"wgst":23,"visib":"10+","altim":1016.3,"slp":1010.7,"qcField":6,"metarType":"METAR","rawOb":"METAR KBCE 131953Z AUTO 19017G23KT 10SM SCT060 OVC075 07/M04 A3001 RMK AO2 PK WND 19029/1939 SLP107 T00671039","lat":37.7013,"lon":-112.149,"elev":2311,"name":"Bryce Canyon Arpt, UT, US","cover":"OVC","clouds":[{"cover":"SCT","base":6000},{"cover":"OVC","base":7500}],"fltCat":"VFR"},{"icaoId":"KTUS","receiptTime":"2026-04-13T19:57:00.704Z","obsTime":1776109980,"reportTime":"2026-04-13T20:00:00.000Z","temp":24.4,"dewp":0.6,"wdir":210,"wspd":20,"wgst":31,"visib":"10+","altim":1016.7,"slp":1012.6,"qcField":4,"metarType":"METAR","rawOb":"METAR KTUS 131953Z 21020G31KT 10SM CLR 24/01 A3002 RMK AO2 PK WND 23031/1929 SLP126 T02440006","lat":32.1315,"lon":-110.9564,"elev":776,"name":"Tucson Intl Arpt, AZ, US","cover":"CLR","clouds":[],"fltCat":"VFR"},{"icaoId":"KTWF","receiptTime":"2026-04-13T19:57:20.762Z","obsTime":1776109980,"reportTime":"2026-04-13T20:00:00.000Z","temp":10.6,"dewp":-1.1,"wdir":270,"wspd":20,"wgst":26,"visib":"10+","altim":1015,"slp":1013.6,"qcField":4,"metarType":"METAR","rawOb":"METAR KTWF 131953Z 27020G26KT 10SM FEW050 BKN060 OVC085 11/M01 A2997 RMK AO2 PK WND 26026/1900 SLP136 T01061011","lat":42.4785,"lon":-114.4775,"elev":1269,"name":"Twin Falls/Joslin Fld, ID, US","cover":"OVC","clouds":[{"cover":"FEW","base":5000},{"cover":"BKN","base":6000},{"cover":"OVC","base":8500}],"fltCat":"VFR"},{"icaoId":"KVGT","receiptTime":"2026-04-13T19:57:25.755Z","obsTime":1776109980,"reportTime":"2026-04-13T20:00:00.000Z","temp":19.4,"dewp":-2.8,"wdir":170,"wspd":10,"wgst":18,"visib":"10+","altim":1012.6,"slp":1013.1,"qcField":4,"metarType":"METAR","rawOb":"METAR KVGT 131953Z 17010G18KT 10SM FEW090 19/M03 A2990 RMK AO2 SLP131 T01941028","lat":36.212,"lon":-115.194,"elev":664,"name":"Las Vegas/North Arpt, NV, US","cover":"FEW","clouds":[{"cover":"FEW","base":9000}],"fltCat":"VFR"},{"icaoId":"KPSC","receiptTime":"2026-04-13T19:57:13.750Z","obsTime":1776109980,"reportTime":"2026-04-13T20:00:00.000Z","temp":20,"dewp":2.2,"wdir":260,"wspd":13,"wgst":21,"visib":"10+","altim":1012.6,"slp":1012.4,"qcField":4,"metarType":"METAR","rawOb":"METAR KPSC 131953Z 26013G21KT 10SM CLR 20/02 A2990 RMK AO2 SLP124 T02000022","lat":46.2695,"lon":-119.1182,"elev":121,"name":"Pasco/Tri Cities Arpt, WA, US","cover":"CLR","clouds":[],"fltCat":"VFR"},{"icaoId":"KPUW","receiptTime":"2026-04-13T19:57:13.868Z","obsTime":1776109980,"reportTime":"2026-04-13T20:00:00.000Z","temp":8.3,"dewp":6.1,"wdir":240,"wspd":10,"visib":"10+","altim":1013.3,"slp":1013.7,"qcField":6,"precip":0.01,"metarType":"METAR","rawOb":"METAR KPUW 131953Z AUTO 24010KT 10SM OVC020 08/06 A2992 RMK AO2 RAE28 SLP137 P0001 T00830061","lat":46.7438,"lon":-117.1158,"elev":774,"name":"Pullman/Moscow Rgnl, WA, US","cover":"OVC","clouds":[{"cover":"OVC","base":2000}],"fltCat":"MVFR"},{"icaoId":"KRIW","receiptTime":"2026-04-13T19:57:26.710Z","obsTime":1776109980,"reportTime":"2026-04-13T20:00:00.000Z","temp":13.3,"dewp":-11.7,"wdir":270,"wspd":19,"wgst":28,"visib":"10+","altim":1011.3,"slp":1007.8,"qcField":6,"metarType":"METAR","rawOb":"METAR KRIW 131953Z AUTO 27019G28KT 10SM FEW090 13/M12 A2986 RMK AO2 PK WND 27033/1858 SLP078 T01331117","lat":43.0622,"lon":-108.4471,"elev":1662,"name":"Riverton Rgnl, WY, US","cover":"FEW","clouds":[{"cover":"FEW","base":9000}],"fltCat":"VFR"},{"icaoId":"KRTN","receiptTime":"2026-04-13T19:57:14.270Z","obsTime":1776109980,"reportTime":"2026-04-13T20:00:00.000Z","temp":20.6,"dewp":-7.2,"wdir":230,"wspd":18,"wgst":35,"visib":"10+","altim":1014.6,"slp":1008.6,"qcField":6,"metarType":"METAR","rawOb":"METAR KRTN 131953Z AUTO 23018G35KT 10SM CLR 21/M07 A2996 RMK AO2 PK WND 23036/1926 SLP086 T02061072","lat":36.7418,"lon":-104.5076,"elev":1939,"name":"Raton/Crews Fld, NM, US","cover":"CLR","clouds":[],"fltCat":"VFR"},{"icaoId":"KSDL","receiptTime":"2026-04-13T19:57:25.342Z","obsTime":1776109980,"reportTime":"2026-04-13T20:00:00.000Z","temp":23.9,"dewp":5.6,"wdir":160,"wspd":6,"visib":"10+","altim":1015,"slp":1013,"qcField":4,"metarType":"METAR","rawOb":"METAR KSDL 131953Z 16006KT 10SM SCT070 24/06 A2997 RMK AO2 SLP130 T02390056","lat":33.6123,"lon":-111.9232,"elev":438,"name":"Scottsdale Muni, AZ, US","cover":"SCT","clouds":[{"cover":"SCT","base":7000}],"fltCat":"VFR"},{"icaoId":"KSEA","receiptTime":"2026-04-13T19:57:00.479Z","obsTime":1776109980,"reportTime":"2026-04-13T20:00:00.000Z","temp":12.2,"dewp":3.9,"wdir":210,"wspd":16,"wgst":21,"visib":"10+","altim":1017.7,"slp":1018.5,"qcField":4,"metarType":"METAR","rawOb":"METAR KSEA 131953Z 21016G21KT 10SM SCT036 BKN055 BKN090 12/04 A3005 RMK AO2 SLP185 T01220039","lat":47.4447,"lon":-122.3144,"elev":115,"name":"Seattle-Tacoma Intl, WA, US","cover":"BKN","clouds":[{"cover":"SCT","base":3600},{"cover":"BKN","base":5500},{"cover":"BKN","base":9000}],"fltCat":"VFR"},{"icaoId":"KSWO","receiptTime":"2026-04-13T19:57:25.687Z","obsTime":1776109980,"reportTime":"2026-04-13T20:00:00.000Z","temp":30,"dewp":18.3,"wdir":200,"wspd":22,"wgst":28,"visib":"10+","altim":1010.6,"slp":1009.2,"qcField":4,"metarType":"METAR","rawOb":"METAR KSWO 131953Z 20022G28KT 10SM FEW050 30/18 A2984 RMK AO2 PK WND 20031/1911 SLP092 T03000183","lat":36.1624,"lon":-97.0832,"elev":293,"name":"Stillwater Muni, OK, US","cover":"FEW","clouds":[{"cover":"FEW","base":5000}],"fltCat":"VFR"},{"icaoId":"KOGD","receiptTime":"2026-04-13T19:57:13.486Z","obsTime":1776109980,"reportTime":"2026-04-13T20:00:00.000Z","temp":10.6,"dewp":-1.7,"wdir":0,"wspd":0,"visib":"10+","altim":1015.3,"slp":1014.2,"qcField":4,"metarType":"METAR","rawOb":"METAR KOGD 131953Z 00000KT 10SM FEW050 11/M02 A2998 RMK AO2 SLP142 T01061017","lat":41.1941,"lon":-112.0168,"elev":1356,"name":"Ogden/Hinckley Arpt, UT, US","cover":"FEW","clouds":[{"cover":"FEW","base":5000}],"fltCat":"VFR"},{"icaoId":"KPRC","receiptTime":"2026-04-13T19:57:19.366Z","obsTime":1776109980,"reportTime":"2026-04-13T20:00:00.000Z","temp":16.1,"dewp":0.6,"wdir":180,"wspd":14,"wgst":24,"visib":"10+","altim":1016.3,"slp":1011.3,"qcField":4,"metarType":"METAR","rawOb":"METAR KPRC 131953Z 18014G24KT 10SM BKN060 16/01 A3001 RMK AO2 PK WND 22029/1938 SLP113 T01610006","lat":34.6491,"lon":-112.4223,"elev":1528,"name":"Prescott/Love Fld, AZ, US","cover":"BKN","clouds":[{"cover":"BKN","base":6000}],"fltCat":"VFR"},{"icaoId":"KIDA","receiptTime":"2026-04-13T19:57:10.748Z","obsTime":1776109980,"reportTime":"2026-04-13T20:00:00.000Z","temp":9.4,"dewp":-5,"wdir":230,"wspd":15,"wgst":23,"visib":"10+","altim":1014.3,"slp":1013.5,"qcField":4,"metarType":"METAR","rawOb":"METAR KIDA 131953Z 23015G23KT 10SM FEW110 09/M05 A2995 RMK AO2 PK WND 22030/1857 SLP135 T00941050","lat":43.5204,"lon":-112.0675,"elev":1444,"name":"Idaho Falls Rgnl, ID, US","cover":"FEW","clouds":[{"cover":"FEW","base":11000}],"fltCat":"VFR"},{"icaoId":"KPUB","receiptTime":"2026-04-13T19:57:13.820Z","obsTime":1776109980,"reportTime":"2026-04-13T20:00:00.000Z","temp":23.9,"dewp":-11.1,"visib":"10+","altim":1009.9,"slp":1004,"qcField":12,"metarType":"METAR","rawOb":"METAR KPUB 131953Z 10SM CLR 24/M11 A2982 RMK AO2 SLP040 T02391111 $","lat":38.2887,"lon":-104.5057,"elev":1441,"name":"Pueblo Mem Arpt, CO, US","cover":"CLR","clouds":[],"fltCat":"VFR"},{"icaoId":"KDMN","receiptTime":"2026-04-13T19:57:26.089Z","obsTime":1776109980,"reportTime":"2026-04-13T20:00:00.000Z","temp":25,"dewp":1.1,"wdir":220,"wspd":19,"wgst":29,"visib":"10+","altim":1018.7,"slp":1011.9,"qcField":6,"metarType":"METAR","rawOb":"METAR KDMN 131953Z AUTO 22019G29KT 10SM FEW090 FEW120 25/01 A3008 RMK AO2 PK WND 25031/1856 SLP119 T02500011","lat":32.2592,"lon":-107.7206,"elev":1310,"name":"Deming Muni, NM, US","cover":"FEW","clouds":[{"cover":"FEW","base":9000},{"cover":"FEW","base":12000}],"fltCat":"VFR"},{"icaoId":"KDTW","receiptTime":"2026-04-13T19:57:26.870Z","obsTime":1776109980,"reportTime":"2026-04-13T20:00:00.000Z","temp":27.2,"dewp":14.4,"wdir":230,"wspd":14,"visib":"10+","altim":1013.6,"slp":1013.1,"qcField":4,"metarType":"METAR","rawOb":"METAR KDTW 131953Z 23014KT 10SM SCT045 SCT250 27/14 A2993 RMK AO2 SLP131 T02720144","lat":42.2311,"lon":-83.3312,"elev":192,"name":"Detroit/Metro Wayne Cnty, MI, US","cover":"SCT","clouds":[{"cover":"SCT","base":4500},{"cover":"SCT","base":25000}],"fltCat":"VFR"},{"icaoId":"KEVW","receiptTime":"2026-04-13T19:57:27.233Z","obsTime":1776109980,"reportTime":"2026-04-13T20:00:00.000Z","temp":6.1,"dewp":-6.1,"wdir":220,"wspd":14,"wgst":19,"visib":"10+","altim":1015.7,"slp":1013.6,"qcField":6,"metarType":"METAR","rawOb":"METAR KEVW 131953Z AUTO 22014G19KT 10SM BKN055 BKN075 06/M06 A2999 RMK AO2 SLP136 T00611061","lat":41.2727,"lon":-111.0305,"elev":2178,"name":"Evanston/Uinta Cnty, WY, US","cover":"BKN","clouds":[{"cover":"BKN","base":5500},{"cover":"BKN","base":7500}],"fltCat":"VFR"},{"icaoId":"KBUR","receiptTime":"2026-04-13T19:57:29.920Z","obsTime":1776109980,"reportTime":"2026-04-13T20:00:00.000Z","temp":16.7,"dewp":5.6,"wdir":180,"wspd":7,"visib":"10+","altim":1017,"slp":1016,"qcField":4,"metarType":"METAR","rawOb":"METAR KBUR 131953Z 18007KT 140V220 10SM SCT055 BKN095 17/06 A3003 RMK AO2 LTG DSNT W SLP160 T01670056","lat":34.1996,"lon":-118.3654,"elev":221,"name":"Burbank/Bob Hope Arpt, CA, US","cover":"BKN","clouds":[{"cover":"SCT","base":5500},{"cover":"BKN","base":9500}],"fltCat":"VFR"},{"icaoId":"KAMA","receiptTime":"2026-04-13T19:57:24.874Z","obsTime":1776109980,"reportTime":"2026-04-13T20:00:00.000Z","temp":28.3,"dewp":-2.8,"wdir":250,"wspd":23,"wgst":36,"visib":"10+","altim":1014.3,"slp":1009.8,"qcField":6,"metarType":"METAR","rawOb":"METAR KAMA 131953Z AUTO 25023G36KT 10SM CLR 28/M03 A2995 RMK AO2 PK WND 25036/1950 SLP098 T02831028","lat":35.2203,"lon":-101.7173,"elev":1102,"name":"Amarillo Intl Arpt, TX, US","cover":"CLR","clouds":[],"fltCat":"VFR"},{"icaoId":"KRDD","receiptTime":"2026-04-13T19:57:14.043Z","obsTime":1776109980,"reportTime":"2026-04-13T20:00:00.000Z","temp":14.4,"dewp":4.4,"wdir":0,"wspd":0,"visib":"10+","altim":1020.1,"slp":1019.7,"qcField":4,"metarType":"METAR","rawOb":"METAR KRDD 131953Z 00000KT 10SM BKN041 14/04 A3012 RMK AO2 SLP197 T01440044","lat":40.5146,"lon":-122.2977,"elev":152,"name":"Redding Muni, CA, US","cover":"BKN","clouds":[{"cover":"BKN","base":4100}],"fltCat":"VFR"},{"icaoId":"KSBA","receiptTime":"2026-04-13T19:57:25.303Z","obsTime":1776109980,"reportTime":"2026-04-13T20:00:00.000Z","temp":19.4,"dewp":5.6,"wdir":260,"wspd":15,"wgst":22,"visib":"10+","altim":1017,"slp":1017,"qcField":12,"metarType":"METAR","rawOb":"METAR KSBA 131953Z 26015G22KT 10SM SCT075 19/06 A3003 RMK AO2 WSHFT 1849 SLP170 T01940056 $","lat":34.4241,"lon":-119.8425,"elev":2,"name":"Santa Barbara Muni, CA, US","cover":"SCT","clouds":[{"cover":"SCT","base":7500}],"fltCat":"VFR"},{"icaoId":"KSHR","receiptTime":"2026-04-13T19:57:25.455Z","obsTime":1776109980,"reportTime":"2026-04-13T20:00:00.000Z","temp":11.7,"dewp":0,"wdir":330,"wspd":23,"wgst":32,"visib":"10+","altim":1008.9,"slp":1008.9,"qcField":6,"metarType":"METAR","rawOb":"METAR KSHR 131953Z AUTO 33023G32KT 10SM FEW110 12/00 A2979 RMK AO2 PK WND 34033/1930 SLP089 T01170000","lat":44.7603,"lon":-106.9741,"elev":1212,"name":"Sheridan Cnty Arpt, WY, US","cover":"FEW","clouds":[{"cover":"FEW","base":11000}],"fltCat":"VFR"},{"icaoId":"KSTS","receiptTime":"2026-04-13T19:57:25.671Z","obsTime":1776109980,"reportTime":"2026-04-13T20:00:00.000Z","temp":16.7,"dewp":5.6,"wdir":360,"wspd":4,"visib":"10+","altim":1020.1,"slp":1019.3,"qcField":4,"metarType":"METAR","rawOb":"METAR KSTS 131953Z 36004KT 10SM SCT045 BKN060 17/06 A3012 RMK AO2 SLP193 T01670056","lat":38.5037,"lon":-122.811,"elev":35,"name":"Santa Rosa/Schulz Arpt, CA, US","cover":"BKN","clouds":[{"cover":"SCT","base":4500},{"cover":"BKN","base":6000}],"fltCat":"VFR"},{"icaoId":"KMOD","receiptTime":"2026-04-13T19:57:19.496Z","obsTime":1776109980,"reportTime":"2026-04-13T20:00:00.000Z","temp":15.6,"dewp":8.3,"wdir":330,"wspd":7,"visib":"10+","altim":1019.7,"slp":1019.5,"qcField":6,"metarType":"METAR","rawOb":"METAR KMOD 131953Z AUTO 33007KT 10SM FEW029 BKN041 16/08 A3011 RMK AO2 SLP195 T01560083","lat":37.6254,"lon":-120.9549,"elev":25,"name":"Modesto/Sham Fld, CA, US","cover":"BKN","clouds":[{"cover":"FEW","base":2900},{"cover":"BKN","base":4100}],"fltCat":"VFR"},{"icaoId":"KMTJ","receiptTime":"2026-04-13T19:57:19.679Z","obsTime":1776109980,"reportTime":"2026-04-13T20:00:00.000Z","temp":17.2,"dewp":-7.8,"wdir":280,"wspd":17,"wgst":27,"visib":"10+","altim":1014.3,"slp":1008.5,"qcField":6,"metarType":"METAR","rawOb":"METAR KMTJ 131953Z AUTO 28017G27KT 10SM BKN110 17/M08 A2995 RMK AO2 PK WND 25027/1944 SLP085 T01721078","lat":38.5054,"lon":-107.8981,"elev":1755,"name":"Montrose Rgnl, CO, US","cover":"BKN","clouds":[{"cover":"BKN","base":11000}],"fltCat":"VFR"},{"icaoId":"KPAE","receiptTime":"2026-04-13T19:57:18.812Z","obsTime":1776109980,"reportTime":"2026-04-13T20:00:00.000Z","temp":9.4,"dewp":6.7,"wdir":190,"wspd":6,"visib":"10+","altim":1018,"slp":1018.1,"qcField":4,"metarType":"METAR","rawOb":"METAR KPAE 131953Z 19006KT 10SM BKN006 BKN036 OVC080 09/07 A3006 RMK AO2 SLP181 T00940067","lat":47.9232,"lon":-122.2831,"elev":166,"name":"Everett/Paine Fld, WA, US","cover":"OVC","clouds":[{"cover":"BKN","base":600},{"cover":"BKN","base":3600},{"cover":"OVC","base":8000}],"fltCat":"IFR"},{"icaoId":"KPDX","receiptTime":"2026-04-13T19:57:26.611Z","obsTime":1776109980,"reportTime":"2026-04-13T20:00:00.000Z","temp":13.3,"dewp":4.4,"wdir":230,"wspd":8,"wgst":16,"visib":"10+","altim":1020.1,"slp":1020,"qcField":4,"precip":0.005,"metarType":"METAR","rawOb":"METAR KPDX 131953Z 23008G16KT 10SM FEW030 SCT041 SCT070 13/04 A3012 RMK AO2 RAB17E27 SLP200 P0000 T01330044","lat":45.5958,"lon":-122.6092,"elev":7,"name":"Portland Intl, OR, US","cover":"SCT","clouds":[{"cover":"FEW","base":3000},{"cover":"SCT","base":4100},{"cover":"SCT","base":7000}],"fltCat":"VFR"},{"icaoId":"KPGA","receiptTime":"2026-04-13T19:57:26.627Z","obsTime":1776109980,"reportTime":"2026-04-13T20:00:00.000Z","temp":17.8,"dewp":-3.9,"wdir":170,"wspd":10,"wgst":16,"visib":"10+","altim":1014,"slp":1009.5,"qcField":6,"metarType":"METAR","rawOb":"METAR KPGA 131953Z AUTO 17010G16KT 10SM OVC090 18/M04 A2994 RMK AO2 SLP095 T01781039","lat":36.9211,"lon":-111.4487,"elev":1310,"name":"Page Muni, AZ, US","cover":"OVC","clouds":[{"cover":"OVC","base":9000}],"fltCat":"VFR"},{"icaoId":"KLOL","receiptTime":"2026-04-13T19:57:01.207Z","obsTime":1776109980,"reportTime":"2026-04-13T20:00:00.000Z","temp":12.2,"dewp":-5,"wdir":180,"wspd":6,"visib":"10+","altim":1017,"slp":1016.4,"qcField":14,"metarType":"METAR","rawOb":"METAR KLOL 131953Z AUTO 18006KT 10SM CLR 12/M05 A3003 RMK AO2 SLP164 T01221050 $","lat":40.0684,"lon":-118.5702,"elev":1191,"name":"Lovelock/Derby Fld, NV, US","cover":"CLR","clouds":[],"fltCat":"VFR"},{"icaoId":"KMIA","receiptTime":"2026-04-13T19:57:01.997Z","obsTime":1776109980,"reportTime":"2026-04-13T20:00:00.000Z","temp":26.1,"dewp":15.6,"wdir":80,"wspd":17,"wgst":24,"visib":"10+","altim":1022.4,"slp":1022.3,"qcField":0,"metarType":"METAR","rawOb":"METAR KMIA 131953Z 08017G24KT 10SM SCT042 SCT250 26/16 A3019 RMK SLP223 T02610156","lat":25.7881,"lon":-80.3169,"elev":1,"name":"Miami Intl, FL, US","cover":"SCT","clouds":[{"cover":"SCT","base":4200},{"cover":"SCT","base":25000}],"fltCat":"VFR"},{"icaoId":"KLAW","receiptTime":"2026-04-13T19:57:10.932Z","obsTime":1776109980,"reportTime":"2026-04-13T20:00:00.000Z","temp":31.1,"dewp":17.8,"wdir":190,"wspd":15,"wgst":25,"visib":"10+","altim":1012.3,"slp":1010.9,"qcField":4,"metarType":"METAR","rawOb":"METAR KLAW 131953Z 19015G25KT 10SM CLR 31/18 A2989 RMK AO2 SLP109 T03110178","lat":34.5577,"lon":-98.4172,"elev":328,"name":"Lawton-Fort Sill Rgnl, OK, US","cover":"CLR","clouds":[],"fltCat":"VFR"},{"icaoId":"KPBI","receiptTime":"2026-04-13T19:57:18.921Z","obsTime":1776109980,"reportTime":"2026-04-13T20:00:00.000Z","temp":26.7,"dewp":14.4,"wdir":80,"wspd":10,"wgst":21,"visib":"10+","altim":1023.8,"slp":1023.5,"qcField":12,"metarType":"METAR","rawOb":"METAR KPBI 131953Z 08010G21KT 10SM BKN042 BKN250 27/14 A3023 RMK AO2 SLP235 T02670144 $","lat":26.6851,"lon":-80.0992,"elev":4,"name":"Palm Beach Intl, FL, US","cover":"BKN","clouds":[{"cover":"BKN","base":4200},{"cover":"BKN","base":25000}],"fltCat":"VFR"},{"icaoId":"KPIH","receiptTime":"2026-04-13T19:57:19.136Z","obsTime":1776109980,"reportTime":"2026-04-13T20:00:00.000Z","temp":11.7,"dewp":-3.3,"wdir":250,"wspd":13,"wgst":22,"visib":"10+","altim":1014,"slp":1012.8,"qcField":4,"metarType":"METAR","rawOb":"METAR KPIH 131953Z 25013G22KT 10SM BKN060 BKN085 12/M03 A2994 RMK AO2 SLP128 T01171033","lat":42.9197,"lon":-112.5723,"elev":1357,"name":"Pocatello Rgnl, ID, US","cover":"BKN","clouds":[{"cover":"BKN","base":6000},{"cover":"BKN","base":8500}],"fltCat":"VFR"},{"icaoId":"KMSY","receiptTime":"2026-04-13T19:57:19.635Z","obsTime":1776109980,"reportTime":"2026-04-13T20:00:00.000Z","temp":27.8,"dewp":17.2,"wdir":160,"wspd":11,"wgst":20,"visib":"10+","altim":1022.8,"slp":1023,"qcField":4,"metarType":"METAR","rawOb":"METAR KMSY 131953Z 16011G20KT 10SM FEW041 SCT250 28/17 A3020 RMK AO2 SLP230 T02780172","lat":29.9974,"lon":-90.2777,"elev":0,"name":"New Orleans/Armstrong Intl, LA, US","cover":"SCT","clouds":[{"cover":"FEW","base":4100},{"cover":"SCT","base":25000}],"fltCat":"VFR"},{"icaoId":"KTPA","receiptTime":"2026-04-13T19:57:20.599Z","obsTime":1776109980,"reportTime":"2026-04-13T20:00:00.000Z","temp":28.9,"dewp":13.3,"wdir":50,"wspd":4,"wgst":16,"visib":"10+","altim":1023.1,"slp":1022.9,"qcField":4,"metarType":"METAR","rawOb":"METAR KTPA 131953Z 05004G16KT 10SM FEW060 BKN250 29/13 A3021 RMK AO2 SLP229 T02890133","lat":27.9633,"lon":-82.54,"elev":2,"name":"Tampa Intl Arpt, FL, US","cover":"BKN","clouds":[{"cover":"FEW","base":6000},{"cover":"BKN","base":25000}],"fltCat":"VFR"},{"icaoId":"KTUL","receiptTime":"2026-04-13T19:57:20.703Z","obsTime":1776109980,"reportTime":"2026-04-13T20:00:00.000Z","temp":28.9,"dewp":19.4,"wdir":180,"wspd":22,"wgst":32,"visib":"10+","altim":1011.9,"slp":1010.9,"qcField":4,"metarType":"METAR","rawOb":"METAR KTUL 131953Z 18022G32KT 10SM SCT040 SCT250 29/19 A2988 RMK AO2 PK WND 17032/1944 SLP109 T02890194","lat":36.1985,"lon":-95.8782,"elev":196,"name":"Tulsa Intl Arpt, OK, US","cover":"SCT","clouds":[{"cover":"SCT","base":4000},{"cover":"SCT","base":25000}],"fltCat":"VFR"},{"icaoId":"KSAF","receiptTime":"2026-04-13T19:57:25.285Z","obsTime":1776109980,"reportTime":"2026-04-13T20:00:00.000Z","temp":17.2,"dewp":-2.2,"wdir":280,"wspd":10,"wgst":25,"visib":"10+","altim":1018.7,"slp":1011.1,"qcField":12,"metarType":"METAR","rawOb":"METAR KSAF 131953Z 28010G25KT 10SM FEW090 BKN120 17/M02 A3008 RMK AO2 PK WND 23026/1856 SLP111 T01721022 $","lat":35.611,"lon":-106.0957,"elev":1918,"name":"Santa Fe Cnty Muni, NM, US","cover":"BKN","clouds":[{"cover":"FEW","base":9000},{"cover":"BKN","base":12000}],"fltCat":"VFR"},{"icaoId":"KSNA","receiptTime":"2026-04-13T19:57:25.549Z","obsTime":1776109980,"reportTime":"2026-04-13T20:00:00.000Z","temp":17.8,"dewp":6.7,"wdir":220,"wspd":11,"visib":"10+","altim":1018,"slp":1017.9,"qcField":12,"metarType":"METAR","rawOb":"METAR KSNA 131953Z 22011KT 10SM FEW033 SCT047 SCT055 18/07 A3006 RMK AO2 SLP179 T01780067 $","lat":33.6798,"lon":-117.8675,"elev":14,"name":"Santa Ana/Wayne Arpt, CA, US","cover":"SCT","clouds":[{"cover":"FEW","base":3300},{"cover":"SCT","base":4700},{"cover":"SCT","base":5500}],"fltCat":"VFR"},{"icaoId":"KDVT","receiptTime":"2026-04-13T19:57:26.911Z","obsTime":1776109980,"reportTime":"2026-04-13T20:00:00.000Z","temp":23.9,"dewp":5,"wdir":"VRB","wspd":4,"visib":"10+","altim":1014.6,"slp":1012.7,"qcField":12,"metarType":"METAR","rawOb":"METAR KDVT 131953Z VRB04KT 10SM 24/05 A2996 RMK AO2 SLP127 T02390050 $","lat":33.6902,"lon":-112.0662,"elev":454,"name":"Phoenix/Deer Valley Arpt, AZ, US"},{"icaoId":"KBHM","receiptTime":"2026-04-13T19:57:29.437Z","obsTime":1776109980,"reportTime":"2026-04-13T20:00:00.000Z","temp":27.8,"dewp":11.7,"wdir":180,"wspd":15,"wgst":20,"visib":"10+","altim":1024.5,"slp":1023.4,"qcField":4,"metarType":"METAR","rawOb":"METAR KBHM 131953Z 18015G20KT 10SM FEW065 FEW160 FEW250 28/12 A3025 RMK AO2 SLP234 T02780117","lat":33.5655,"lon":-86.7449,"elev":191,"name":"Birmingham Intl, AL, US","cover":"FEW","clouds":[{"cover":"FEW","base":6500},{"cover":"FEW","base":16000},{"cover":"FEW","base":25000}],"fltCat":"VFR"},{"icaoId":"KBOI","receiptTime":"2026-04-13T19:57:29.677Z","obsTime":1776109980,"reportTime":"2026-04-13T20:00:00.000Z","temp":6.7,"dewp":5,"wdir":50,"wspd":3,"visib":"10+","altim":1016.3,"slp":1016.6,"qcField":4,"precip":0.005,"metarType":"METAR","rawOb":"METAR KBOI 131953Z 05003KT 10SM SCT011 OVC028 07/05 A3001 RMK AO2 RAB21E36 SLP166 P0000 T00670050","lat":43.567,"lon":-116.2406,"elev":860,"name":"Boise Arpt, ID, US","cover":"OVC","clouds":[{"cover":"SCT","base":1100},{"cover":"OVC","base":2800}],"fltCat":"MVFR"},{"icaoId":"KMSP","receiptTime":"2026-04-13T19:57:22.419Z","obsTime":1776109980,"reportTime":"2026-04-13T20:00:00.000Z","temp":19.4,"dewp":12.2,"wdir":70,"wspd":8,"wgst":20,"visib":"10+","altim":1006.5,"slp":1006.3,"qcField":4,"metarType":"METAR","rawOb":"METAR KMSP 131953Z 07008G20KT 10SM BKN120 BKN140 OVC250 19/12 A2972 RMK AO2 SLP063 T01940122","lat":44.8852,"lon":-93.2313,"elev":255,"name":"Minneapolis-St Paul Intl, MN, US","cover":"OVC","clouds":[{"cover":"BKN","base":12000},{"cover":"BKN","base":14000},{"cover":"OVC","base":25000}],"fltCat":"VFR"},{"icaoId":"KLAX","receiptTime":"2026-04-13T19:57:26.442Z","obsTime":1776109980,"reportTime":"2026-04-13T20:00:00.000Z","temp":18.3,"dewp":8.3,"wdir":270,"wspd":16,"wgst":22,"visib":"10+","altim":1017.7,"slp":1017.5,"qcField":12,"metarType":"METAR","rawOb":"METAR KLAX 131953Z 27016G22KT 10SM FEW026 FEW065 SCT120 18/08 A3005 RMK AO2 SLP175 T01830083 $","lat":33.9382,"lon":-118.3866,"elev":30,"name":"Los Angeles Intl, CA, US","cover":"SCT","clouds":[{"cover":"FEW","base":2600},{"cover":"FEW","base":6500},{"cover":"SCT","base":12000}],"fltCat":"VFR"},{"icaoId":"KCLL","receiptTime":"2026-04-13T19:57:16.785Z","obsTime":1776109980,"reportTime":"2026-04-13T20:00:00.000Z","temp":28.3,"dewp":20.6,"wdir":170,"wspd":14,"wgst":22,"visib":"10+","altim":1018,"slp":1017.3,"qcField":4,"metarType":"METAR","rawOb":"METAR KCLL 131953Z 17014G22KT 10SM FEW030 BKN037 BKN065 28/21 A3006 RMK AO2 PK WND 20027/1855 SLP173 T02830206","lat":30.5912,"lon":-96.3631,"elev":96,"name":"College Station/Easterwood Arpt, TX, US","cover":"BKN","clouds":[{"cover":"FEW","base":3000},{"cover":"BKN","base":3700},{"cover":"BKN","base":6500}],"fltCat":"VFR"},{"icaoId":"KGJT","receiptTime":"2026-04-13T19:56:59.724Z","obsTime":1776109980,"reportTime":"2026-04-13T20:00:00.000Z","temp":17.2,"dewp":-7.2,"wdir":0,"wspd":0,"visib":"10+","altim":1013.3,"slp":1008.1,"qcField":4,"metarType":"METAR","rawOb":"METAR KGJT 131953Z 00000KT 10SM BKN110 17/M07 A2992 RMK AO2 SLP081 T01721072","lat":39.1344,"lon":-108.5408,"elev":1475,"name":"Grand Junction Rgnl, CO, US","cover":"BKN","clouds":[{"cover":"BKN","base":11000}],"fltCat":"VFR"},{"icaoId":"KGSP","receiptTime":"2026-04-13T19:56:59.884Z","obsTime":1776109980,"reportTime":"2026-04-13T20:00:00.000Z","temp":25.6,"dewp":11.1,"wdir":220,"wspd":14,"wgst":18,"visib":"10+","altim":1024.8,"slp":1023.6,"qcField":4,"metarType":"METAR","rawOb":"METAR KGSP 131953Z 22014G18KT 10SM CLR 26/11 A3026 RMK AO2 SLP236 T02560111","lat":34.8842,"lon":-82.2209,"elev":285,"name":"Greenville-Spartanburg Intl, SC, US","cover":"CLR","clouds":[],"fltCat":"VFR"},{"icaoId":"KHOU","receiptTime":"2026-04-13T19:57:10.511Z","obsTime":1776109980,"reportTime":"2026-04-13T20:00:00.000Z","temp":27.2,"dewp":20.6,"wdir":170,"wspd":13,"wgst":20,"visib":"10+","altim":1019,"slp":1019.5,"qcField":12,"metarType":"METAR","rawOb":"METAR KHOU 131953Z 17013G20KT 10SM SCT025 BKN050 27/21 A3009 RMK AO2 SLP195 T02720206 $","lat":29.6458,"lon":-95.2821,"elev":13,"name":"Houston/Hobby Arpt, TX, US","cover":"BKN","clouds":[{"cover":"SCT","base":2500},{"cover":"BKN","base":5000}],"fltCat":"VFR"},{"icaoId":"KDEN","receiptTime":"2026-04-13T19:57:28.230Z","obsTime":1776109980,"reportTime":"2026-04-13T20:00:00.000Z","temp":21.1,"dewp":-13.3,"wdir":310,"wspd":3,"visib":"10+","altim":1009.9,"slp":1003.4,"qcField":4,"metarType":"METAR","rawOb":"METAR KDEN 131953Z 31003KT 10SM FEW090 FEW220 21/M13 A2982 RMK AO2 SLP034 T02111133","lat":39.8466,"lon":-104.6562,"elev":1656,"name":"Denver Intl, CO, US","cover":"FEW","clouds":[{"cover":"FEW","base":9000},{"cover":"FEW","base":22000}],"fltCat":"VFR"},{"icaoId":"KACV","receiptTime":"2026-04-13T19:57:13.005Z","obsTime":1776109980,"reportTime":"2026-04-13T20:00:00.000Z","temp":11.7,"dewp":8.9,"wdir":310,"wspd":9,"visib":"10+","altim":1022.4,"slp":1022.9,"qcField":6,"metarType":"METAR","rawOb":"METAR KACV 131953Z AUTO 31009KT 10SM FEW010 OVC050 12/09 A3019 RMK AO2 SLP229 T01170089","lat":40.9784,"lon":-124.1048,"elev":63,"name":"Arcata Arpt, CA, US","cover":"OVC","clouds":[{"cover":"FEW","base":1000},{"cover":"OVC","base":5000}],"fltCat":"VFR"},{"icaoId":"KVEL","receiptTime":"2026-04-13T19:57:25.738Z","obsTime":1776109980,"reportTime":"2026-04-13T20:00:00.000Z","temp":13.3,"dewp":-9.4,"wdir":160,"wspd":11,"wgst":16,"visib":"10+","altim":1014.3,"slp":1010.7,"qcField":6,"metarType":"METAR","rawOb":"METAR KVEL 131953Z AUTO 16011G16KT 10SM OVC100 13/M09 A2995 RMK AO2 SLP107 T01331094","lat":40.4429,"lon":-109.5128,"elev":1604,"name":"Vernal Rgnl, UT, US","cover":"OVC","clouds":[{"cover":"OVC","base":10000}],"fltCat":"VFR"},{"icaoId":"KLAR","receiptTime":"2026-04-13T19:57:20.066Z","obsTime":1776109980,"reportTime":"2026-04-13T20:00:00.000Z","temp":12.2,"dewp":-8.9,"wdir":260,"wspd":20,"wgst":29,"visib":"10+","altim":1013.6,"slp":1007.6,"qcField":6,"metarType":"METAR","rawOb":"METAR KLAR 131953Z AUTO 26020G29KT 10SM CLR 12/M09 A2993 RMK AO2 PK WND 27033/1927 SLP076 T01221089","lat":41.3165,"lon":-105.6729,"elev":2217,"name":"Laramie Rgnl, WY, US","cover":"CLR","clouds":[],"fltCat":"VFR"},{"icaoId":"KMCI","receiptTime":"2026-04-13T19:57:20.182Z","obsTime":1776109980,"reportTime":"2026-04-13T20:00:00.000Z","temp":26.7,"dewp":18.9,"wdir":190,"wspd":20,"wgst":29,"visib":"10+","altim":1007.9,"slp":1006.9,"qcField":4,"metarType":"METAR","rawOb":"METAR KMCI 131953Z 19020G29KT 10SM SCT037 SCT150 BKN200 27/19 A2976 RMK AO2 PK WND 17030/1942 SLP069 T02670189","lat":39.2975,"lon":-94.7309,"elev":308,"name":"Kansas City Intl, MO, US","cover":"BKN","clouds":[{"cover":"SCT","base":3700},{"cover":"SCT","base":15000},{"cover":"BKN","base":20000}],"fltCat":"VFR"},{"icaoId":"KMFR","receiptTime":"2026-04-13T19:57:01.816Z","obsTime":1776109980,"reportTime":"2026-04-13T20:00:00.000Z","temp":12.8,"dewp":4.4,"wdir":260,"wspd":3,"visib":"10+","altim":1020.1,"slp":1020.1,"qcField":12,"metarType":"METAR","rawOb":"METAR KMFR 131953Z 26003KT 10SM OVC050 13/04 A3012 RMK AO2 SLP201 T01280044 $","lat":42.375,"lon":-122.877,"elev":397,"name":"Medford/Rogue Valley Intl, OR, US","cover":"OVC","clouds":[{"cover":"OVC","base":5000}],"fltCat":"VFR"},{"icaoId":"KIAH","receiptTime":"2026-04-13T19:57:10.712Z","obsTime":1776109980,"reportTime":"2026-04-13T20:00:00.000Z","temp":25,"dewp":21.7,"wdir":160,"wspd":9,"visib":"10+","altim":1019.4,"slp":1019.2,"qcField":4,"wxString":"-RA","precip":0.005,"metarType":"METAR","rawOb":"METAR KIAH 131953Z 16009KT 10SM -RA BKN026 OVC055 25/22 A3010 RMK AO2 RAE1858B17E36B52 SLP192 P0000 T02500217","lat":29.9844,"lon":-95.3607,"elev":27,"name":"Houston/Bush Intl, TX, US","cover":"OVC","clouds":[{"cover":"BKN","base":2600},{"cover":"OVC","base":5500}],"fltCat":"MVFR"},{"icaoId":"KCRQ","receiptTime":"2026-04-13T19:57:26.004Z","obsTime":1776109980,"reportTime":"2026-04-13T20:00:00.000Z","temp":16.1,"dewp":8.9,"wdir":270,"wspd":7,"visib":"10+","altim":1018.4,"slp":1018.1,"qcField":4,"precip":0.01,"metarType":"METAR","rawOb":"METAR KCRQ 131953Z 27007KT 10SM SCT090 16/09 A3007 RMK AO2 RAB1857E29 SLP181 P0001 T01610089","lat":33.1299,"lon":-117.2765,"elev":96,"name":"Carlsbad/Palomar Arpt, CA, US","cover":"SCT","clouds":[{"cover":"SCT","base":9000}],"fltCat":"VFR"},{"icaoId":"KDFW","receiptTime":"2026-04-13T19:57:28.322Z","obsTime":1776109980,"reportTime":"2026-04-13T20:00:00.000Z","temp":28.9,"dewp":20.6,"wdir":180,"wspd":15,"wgst":23,"visib":"10+","altim":1015.3,"slp":1014.5,"qcField":4,"metarType":"METAR","rawOb":"METAR KDFW 131953Z 18015G23KT 10SM SCT034 SCT050 SCT250 29/21 A2998 RMK AO2 SLP145 T02890206","lat":32.8974,"lon":-97.022,"elev":168,"name":"Dallas-Ft Worth Intl, TX, US","cover":"SCT","clouds":[{"cover":"SCT","base":3400},{"cover":"SCT","base":5000},{"cover":"SCT","base":25000}],"fltCat":"VFR"},{"icaoId":"KHIO","receiptTime":"2026-04-13T19:57:00.260Z","obsTime":1776109980,"reportTime":"2026-04-13T20:00:00.000Z","temp":11.7,"dewp":5,"wdir":260,"wspd":5,"visib":"10+","altim":1020.1,"slp":1019.9,"qcField":4,"wxString":"-RA","precip":0.01,"metarType":"METAR","rawOb":"METAR KHIO 131953Z 26005KT 10SM -RA OVC048 12/05 A3012 RMK AO2 RAE10B37 SLP199 P0001 T01170050","lat":45.5476,"lon":-122.9557,"elev":62,"name":"Portland/Hillsboro Arpt, OR, US","cover":"OVC","clouds":[{"cover":"OVC","base":4800}],"fltCat":"VFR"},{"icaoId":"KYKM","receiptTime":"2026-04-13T19:57:00.493Z","obsTime":1776109980,"reportTime":"2026-04-13T20:00:00.000Z","temp":17.8,"dewp":-2.2,"wdir":340,"wspd":16,"wgst":23,"visib":"10+","altim":1012.6,"slp":1012.4,"qcField":12,"metarType":"METAR","rawOb":"METAR KYKM 131953Z 34016G23KT 10SM FEW070 18/M02 A2990 RMK AO2 PK WND 32028/1909 SLP124 T01781022 $","lat":46.564,"lon":-120.5349,"elev":319,"name":"Yakima/McAllister Fld, WA, US","cover":"FEW","clouds":[{"cover":"FEW","base":7000}],"fltCat":"VFR"},{"icaoId":"KABI","receiptTime":"2026-04-13T19:57:15.940Z","obsTime":1776109920,"reportTime":"2026-04-13T20:00:00.000Z","temp":28.9,"dewp":20,"wdir":200,"wspd":11,"wgst":20,"visib":"10+","altim":1016,"slp":1013.2,"qcField":4,"metarType":"METAR","rawOb":"METAR KABI 131952Z 20011G20KT 10SM SCT041 29/20 A3000 RMK AO2 SLP132 T02890200","lat":32.4106,"lon":-99.6821,"elev":543,"name":"Abilene Rgnl, TX, US","cover":"SCT","clouds":[{"cover":"SCT","base":4100}],"fltCat":"VFR"},{"icaoId":"KCLT","receiptTime":"2026-04-13T19:57:24.167Z","obsTime":1776109920,"reportTime":"2026-04-13T20:00:00.000Z","temp":26.1,"dewp":12.8,"wdir":250,"wspd":8,"visib":"10+","altim":1024.1,"slp":1024.8,"qcField":4,"metarType":"METAR","rawOb":"METAR KCLT 131952Z 25008KT 10SM FEW050 FEW210 BKN250 26/13 A3024 RMK AO2 SLP248 T02610128","lat":35.2225,"lon":-80.9543,"elev":223,"name":"Charlotte/Douglas Intl, NC, US","cover":"BKN","clouds":[{"cover":"FEW","base":5000},{"cover":"FEW","base":21000},{"cover":"BKN","base":25000}],"fltCat":"VFR"},{"icaoId":"KATL","receiptTime":"2026-04-13T19:57:09.817Z","obsTime":1776109920,"reportTime":"2026-04-13T20:00:00.000Z","temp":27.2,"dewp":10,"wdir":230,"wspd":8,"wgst":16,"visib":"10+","altim":1025.1,"slp":1024.2,"qcField":4,"metarType":"METAR","rawOb":"METAR KATL 131952Z 23008G16KT 10SM FEW070 SCT200 BKN250 27/10 A3027 RMK AO2 SLP242 T02720100","lat":33.6297,"lon":-84.4422,"elev":309,"name":"Atlanta/Hartsfield-Jackson Intl, GA, US","cover":"BKN","clouds":[{"cover":"FEW","base":7000},{"cover":"SCT","base":20000},{"cover":"BKN","base":25000}],"fltCat":"VFR"},{"icaoId":"KDCA","receiptTime":"2026-04-13T19:57:24.058Z","obsTime":1776109920,"reportTime":"2026-04-13T20:00:00.000Z","temp":26.1,"dewp":10.6,"wdir":220,"wspd":16,"wgst":24,"visib":"10+","altim":1017.7,"slp":1017.7,"qcField":4,"metarType":"METAR","rawOb":"METAR KDCA 131952Z 22016G24KT 10SM FEW070 BKN150 BKN250 26/11 A3005 RMK AO2 PK WND 21027/1912 SLP177 T02610106","lat":38.8472,"lon":-77.0345,"elev":4,"name":"Washington/Reagan-National Arpt, VA, US","cover":"BKN","clouds":[{"cover":"FEW","base":7000},{"cover":"BKN","base":15000},{"cover":"BKN","base":25000}],"fltCat":"VFR"},{"icaoId":"KABQ","receiptTime":"2026-04-13T19:57:15.958Z","obsTime":1776109920,"reportTime":"2026-04-13T20:00:00.000Z","temp":19.4,"dewp":-1.1,"wdir":200,"wspd":16,"wgst":23,"visib":"10+","altim":1018,"slp":1011.4,"qcField":4,"metarType":"METAR","rawOb":"METAR KABQ 131952Z 20016G23KT 10SM BKN090 OVC220 19/M01 A3006 RMK AO2 PK WND 22027/1912 SLP114 VIRGA SW-W T01941011","lat":35.0419,"lon":-106.6154,"elev":1620,"name":"Albuquerque Intl, NM, US","cover":"OVC","clouds":[{"cover":"BKN","base":9000},{"cover":"OVC","base":22000}],"fltCat":"VFR"},{"icaoId":"KCVG","receiptTime":"2026-04-13T19:57:24.029Z","obsTime":1776109920,"reportTime":"2026-04-13T20:00:00.000Z","temp":23.3,"dewp":16.1,"wdir":200,"wspd":11,"wgst":21,"visib":"10+","altim":1018.4,"slp":1017.2,"qcField":4,"metarType":"METAR","rawOb":"METAR KCVG 131952Z 20011G21KT 10SM BKN037 BKN060 BKN200 23/16 A3007 RMK AO2 SLP172 T02330161","lat":39.0444,"lon":-84.6724,"elev":264,"name":"Cincinnati Intl, KY, US","cover":"BKN","clouds":[{"cover":"BKN","base":3700},{"cover":"BKN","base":6000},{"cover":"BKN","base":20000}],"fltCat":"VFR"},{"icaoId":"KMKE","receiptTime":"2026-04-13T19:57:08.330Z","obsTime":1776109920,"reportTime":"2026-04-13T20:00:00.000Z","temp":22.8,"dewp":17.2,"wdir":220,"wspd":15,"visib":"10+","altim":1011.3,"slp":1010.9,"qcField":4,"metarType":"METAR","rawOb":"METAR KMKE 131952Z 22015KT 10SM OVC027 23/17 A2986 RMK AO2 SLP109 T02280172","lat":42.9549,"lon":-87.9045,"elev":203,"name":"Milwaukee/Mitchell Intl, WI, US","cover":"OVC","clouds":[{"cover":"OVC","base":2700}],"fltCat":"MVFR"},{"icaoId":"KSPS","receiptTime":"2026-04-13T19:57:16.118Z","obsTime":1776109920,"reportTime":"2026-04-13T20:00:00.000Z","temp":31.7,"dewp":18.3,"wdir":210,"wspd":15,"wgst":27,"visib":"10+","altim":1012.6,"slp":1011.2,"qcField":4,"metarType":"METAR","rawOb":"METAR KSPS 131952Z 21015G27KT 10SM FEW055 32/18 A2990 RMK AO2 PK WND 19028/1928 SLP112 T03170183","lat":33.9785,"lon":-98.493,"elev":310,"name":"Wichita Falls Rgnl, TX, US","cover":"FEW","clouds":[{"cover":"FEW","base":5500}],"fltCat":"VFR"},{"icaoId":"KOKC","receiptTime":"2026-04-13T19:57:08.596Z","obsTime":1776109920,"reportTime":"2026-04-13T20:00:00.000Z","temp":29.4,"dewp":18.3,"wdir":200,"wspd":22,"wgst":31,"visib":"10+","altim":1011.9,"slp":1010.4,"qcField":4,"metarType":"METAR","rawOb":"METAR KOKC 131952Z 20022G31KT 10SM FEW040 BKN250 29/18 A2988 RMK AO2 PK WND 20033/1927 SLP104 T02940183","lat":35.3843,"lon":-97.6003,"elev":391,"name":"Oklahoma City/Will Rogers Intl, OK, US","cover":"BKN","clouds":[{"cover":"FEW","base":4000},{"cover":"BKN","base":25000}],"fltCat":"VFR"},{"icaoId":"KMLF","receiptTime":"2026-04-13T19:57:16.102Z","obsTime":1776109920,"reportTime":"2026-04-13T20:00:00.000Z","temp":6.7,"dewp":3.3,"wdir":150,"wspd":14,"visib":9,"altim":1016,"slp":1014.9,"qcField":6,"wxString":"-RA","precip":0.005,"metarType":"METAR","rawOb":"METAR KMLF 131952Z AUTO 15014KT 9SM -RA OVC046 07/03 A3000 RMK AO2 RAB01 SLP149 P0000 T00670033","lat":38.4225,"lon":-113.0109,"elev":1537,"name":"Milford Muni, UT, US","cover":"OVC","clouds":[{"cover":"OVC","base":4600}],"fltCat":"VFR"},{"icaoId":"KIAD","receiptTime":"2026-04-13T19:57:24.123Z","obsTime":1776109920,"reportTime":"2026-04-13T20:00:00.000Z","temp":25,"dewp":11.7,"wdir":210,"wspd":15,"wgst":26,"visib":"10+","altim":1018,"slp":1017.7,"qcField":4,"metarType":"METAR","rawOb":"METAR KIAD 131952Z 21015G26KT 10SM FEW070 BKN140 BKN180 25/12 A3006 RMK AO2 PK WND 21026/1951 SLP177 T02500117","lat":38.9348,"lon":-77.4473,"elev":90,"name":"Washington/Dulles Intl, VA, US","cover":"BKN","clouds":[{"cover":"FEW","base":7000},{"cover":"BKN","base":14000},{"cover":"BKN","base":18000}],"fltCat":"VFR"},{"icaoId":"KSAT","receiptTime":"2026-04-13T19:54:09.298Z","obsTime":1776109860,"reportTime":"2026-04-13T20:00:00.000Z","temp":31.1,"dewp":18.9,"wdir":160,"wspd":13,"wgst":19,"visib":"10+","altim":1016.7,"slp":1014.8,"qcField":12,"metarType":"METAR","rawOb":"METAR KSAT 131951Z 16013G19KT 10SM BKN047 BKN250 31/19 A3002 RMK AO2 SLP148 T03110189 $","lat":29.5443,"lon":-98.4839,"elev":246,"name":"San Antonio Intl, TX, US","cover":"BKN","clouds":[{"cover":"BKN","base":4700},{"cover":"BKN","base":25000}],"fltCat":"VFR"},{"icaoId":"KLGU","receiptTime":"2026-04-13T19:54:08.744Z","obsTime":1776109860,"reportTime":"2026-04-13T20:00:00.000Z","temp":10,"dewp":1.1,"wdir":310,"wspd":4,"visib":"10+","altim":1015.3,"slp":1014.3,"qcField":6,"metarType":"METAR","rawOb":"METAR KLGU 131951Z AUTO 31004KT 10SM FEW085 10/01 A2998 RMK AO2 SLP143 T01000011","lat":41.7865,"lon":-111.8519,"elev":1359,"name":"Logan/Cache Arpt, UT, US","cover":"FEW","clouds":[{"cover":"FEW","base":8500}],"fltCat":"VFR"},{"icaoId":"KSTL","receiptTime":"2026-04-13T19:54:09.484Z","obsTime":1776109860,"reportTime":"2026-04-13T20:00:00.000Z","temp":28.9,"dewp":17.2,"wdir":200,"wspd":12,"wgst":22,"visib":"10+","altim":1013.3,"slp":1012.1,"qcField":12,"metarType":"METAR","rawOb":"METAR KSTL 131951Z 20012G22KT 10SM FEW049 BKN250 29/17 A2992 RMK AO2 SLP121 T02890172 $","lat":38.7525,"lon":-90.3734,"elev":163,"name":"St Louis/Lambert Intl, MO, US","cover":"BKN","clouds":[{"cover":"FEW","base":4900},{"cover":"BKN","base":25000}],"fltCat":"VFR"},{"icaoId":"KLGA","receiptTime":"2026-04-13T19:54:08.710Z","obsTime":1776109860,"reportTime":"2026-04-13T20:00:00.000Z","temp":25,"dewp":12.8,"wdir":230,"wspd":14,"wgst":23,"visib":"10+","altim":1013.3,"slp":1013.3,"qcField":12,"precip":0.005,"metarType":"METAR","rawOb":"METAR KLGA 131951Z 23014G23KT 10SM FEW050 SCT080 BKN110 BKN200 BKN250 25/13 A2992 RMK AO2 RAE00 SLP133 P0000 T02500128 $","lat":40.7794,"lon":-73.8803,"elev":9,"name":"New York/La Guardia Arpt, NY, US","cover":"BKN","clouds":[{"cover":"FEW","base":5000},{"cover":"SCT","base":8000},{"cover":"BKN","base":11000},{"cover":"BKN","base":20000}],"fltCat":"VFR"},{"icaoId":"KSAN","receiptTime":"2026-04-13T19:54:09.255Z","obsTime":1776109860,"reportTime":"2026-04-13T20:00:00.000Z","temp":17.2,"dewp":10,"wdir":280,"wspd":8,"visib":"10+","altim":1019.7,"slp":1019.4,"qcField":12,"precip":0.005,"metarType":"METAR","rawOb":"METAR KSAN 131951Z 28008KT 240V320 10SM SCT027 BKN050 BKN075 17/10 A3011 RMK AO2 RAE22 SLP194 P0000 T01720100 $","lat":32.7364,"lon":-117.1973,"elev":3,"name":"San Diego Intl Arpt, CA, US","cover":"BKN","clouds":[{"cover":"SCT","base":2700},{"cover":"BKN","base":5000},{"cover":"BKN","base":7500}],"fltCat":"VFR"},{"icaoId":"KSAD","receiptTime":"2026-04-13T19:54:09.218Z","obsTime":1776109860,"reportTime":"2026-04-13T20:00:00.000Z","temp":25.6,"dewp":0.6,"wdir":300,"wspd":10,"visib":"10+","altim":1015,"slp":1010.5,"qcField":6,"metarType":"METAR","rawOb":"METAR KSAD 131951Z AUTO 30010KT 10SM SCT110 26/01 A2997 RMK AO2 SLP105 T02560006","lat":32.8565,"lon":-109.636,"elev":937,"name":"Safford Rgnl, AZ, US","cover":"SCT","clouds":[{"cover":"SCT","base":11000}],"fltCat":"VFR"},{"icaoId":"KROW","receiptTime":"2026-04-13T19:54:09.191Z","obsTime":1776109860,"reportTime":"2026-04-13T20:00:00.000Z","temp":27.2,"dewp":0.6,"wdir":230,"wspd":12,"wgst":22,"visib":"10+","altim":1015,"slp":1008.5,"qcField":4,"metarType":"METAR","rawOb":"METAR KROW 131951Z 23012G22KT 10SM BKN110 27/01 A2997 RMK AO2 SLP085 T02720006","lat":33.3074,"lon":-104.5082,"elev":1105,"name":"Roswell/Ind Arpt, NM, US","cover":"BKN","clouds":[{"cover":"BKN","base":11000}],"fltCat":"VFR"},{"icaoId":"KPVD","receiptTime":"2026-04-13T19:54:09.075Z","obsTime":1776109860,"reportTime":"2026-04-13T20:00:00.000Z","temp":18.9,"dewp":11.7,"wdir":210,"wspd":13,"visib":"10+","altim":1012.3,"slp":1012.3,"qcField":4,"metarType":"METAR","rawOb":"METAR KPVD 131951Z 21013KT 10SM FEW018 BKN120 BKN250 19/12 A2989 RMK AO2 SLP123 T01890117","lat":41.7225,"lon":-71.4325,"elev":15,"name":"Providence/Green Mem, RI, US","cover":"BKN","clouds":[{"cover":"FEW","base":1800},{"cover":"BKN","base":12000},{"cover":"BKN","base":25000}],"fltCat":"VFR"},{"icaoId":"KPHX","receiptTime":"2026-04-13T19:54:08.987Z","obsTime":1776109860,"reportTime":"2026-04-13T20:00:00.000Z","temp":26.1,"dewp":5,"wdir":180,"wspd":10,"wgst":16,"visib":"10+","altim":1013.6,"slp":1012,"qcField":12,"metarType":"METAR","rawOb":"METAR KPHX 131951Z 18010G16KT 10SM SCT075 BKN140 BKN250 26/05 A2993 RMK AO2 SLP120 T02610050 $","lat":33.4278,"lon":-112.0037,"elev":338,"name":"Phoenix/Sky Harbor Intl, AZ, US","cover":"BKN","clouds":[{"cover":"SCT","base":7500},{"cover":"BKN","base":14000},{"cover":"BKN","base":25000}],"fltCat":"VFR"},{"icaoId":"KORF","receiptTime":"2026-04-13T19:54:08.918Z","obsTime":1776109860,"reportTime":"2026-04-13T20:00:00.000Z","temp":27.8,"dewp":11.1,"wdir":230,"wspd":18,"wgst":26,"visib":"10+","altim":1020.7,"slp":1020.6,"qcField":4,"wxString":"-RA","precip":0.005,"metarType":"METAR","rawOb":"METAR KORF 131951Z 23018G26KT 10SM -RA CLR 28/11 A3014 RMK AO2 PK WND 23027/1940 RAB01 SLP206 P0000 T02780111","lat":36.9037,"lon":-76.1927,"elev":5,"name":"Norfolk Intl, VA, US","cover":"CLR","clouds":[],"fltCat":"VFR"},{"icaoId":"KELP","receiptTime":"2026-04-13T19:54:07.936Z","obsTime":1776109860,"reportTime":"2026-04-13T20:00:00.000Z","temp":26.7,"dewp":0.6,"wdir":230,"wspd":23,"wgst":34,"visib":"10+","altim":1018.4,"slp":1011.9,"qcField":4,"metarType":"METAR","rawOb":"METAR KELP 131951Z 23023G34KT 10SM FEW100 FEW160 BKN250 27/01 A3007 RMK AO2 PK WND 24034/1949 SLP119 VIRGA SW-W T02670006","lat":31.8123,"lon":-106.3774,"elev":1205,"name":"El Paso Intl, TX, US","cover":"BKN","clouds":[{"cover":"FEW","base":10000},{"cover":"FEW","base":16000},{"cover":"BKN","base":25000}],"fltCat":"VFR"},{"icaoId":"KCMH","receiptTime":"2026-04-13T19:54:07.709Z","obsTime":1776109860,"reportTime":"2026-04-13T20:00:00.000Z","temp":26.1,"dewp":14.4,"wdir":200,"wspd":15,"wgst":26,"visib":"10+","altim":1017.4,"slp":1016.7,"qcField":4,"metarType":"METAR","rawOb":"METAR KCMH 131951Z 20015G26KT 10SM FEW055 BKN080 BKN250 26/14 A3004 RMK AO2 PK WND 21026/1951 SLP167 T02610144","lat":39.9907,"lon":-82.877,"elev":257,"name":"Columbus/Glenn Intl, OH, US","cover":"BKN","clouds":[{"cover":"FEW","base":5500},{"cover":"BKN","base":8000},{"cover":"BKN","base":25000}],"fltCat":"VFR"},{"icaoId":"KCLE","receiptTime":"2026-04-13T19:54:07.665Z","obsTime":1776109860,"reportTime":"2026-04-13T20:00:00.000Z","temp":25.6,"dewp":16.1,"wdir":220,"wspd":10,"wgst":19,"visib":"10+","altim":1014.3,"slp":1015.1,"qcField":12,"metarType":"METAR","rawOb":"METAR KCLE 131951Z 22010G19KT 10SM SCT049 BKN060 26/16 A2995 RMK AO2 PK WND 22027/1928 SLP151 T02560161 $","lat":41.4057,"lon":-81.8519,"elev":237,"name":"Cleveland/Hopkins Intl, OH, US","cover":"BKN","clouds":[{"cover":"SCT","base":4900},{"cover":"BKN","base":6000}],"fltCat":"VFR"},{"icaoId":"KBDL","receiptTime":"2026-04-13T19:54:07.493Z","obsTime":1776109860,"reportTime":"2026-04-13T20:00:00.000Z","temp":24.4,"dewp":12.2,"wdir":170,"wspd":10,"wgst":22,"visib":"10+","altim":1010.6,"slp":1010.4,"qcField":4,"metarType":"METAR","rawOb":"METAR KBDL 131951Z 17010G22KT 10SM FEW080 SCT110 BKN210 24/12 A2984 RMK AO2 SLP104 T02440122","lat":41.9374,"lon":-72.682,"elev":52,"name":"Hartford/Bradley Intl, CT, US","cover":"BKN","clouds":[{"cover":"FEW","base":8000},{"cover":"SCT","base":11000},{"cover":"BKN","base":21000}],"fltCat":"VFR"},{"icaoId":"KRDU","receiptTime":"2026-04-13T19:54:09.158Z","obsTime":1776109860,"reportTime":"2026-04-13T20:00:00.000Z","temp":28.3,"dewp":8.9,"wdir":220,"wspd":14,"visib":"10+","altim":1023.1,"slp":1022.6,"qcField":4,"metarType":"METAR","rawOb":"METAR KRDU 131951Z 22014KT 10SM FEW080 FEW200 BKN250 28/09 A3021 RMK AO2 SLP226 T02830089","lat":35.8923,"lon":-78.782,"elev":121,"name":"Raleigh-Durham Intl, NC, US","cover":"BKN","clouds":[{"cover":"FEW","base":8000},{"cover":"FEW","base":20000},{"cover":"BKN","base":25000}],"fltCat":"VFR"},{"icaoId":"KPIT","receiptTime":"2026-04-13T19:54:09.032Z","obsTime":1776109860,"reportTime":"2026-04-13T20:00:00.000Z","temp":26.1,"dewp":13.3,"wdir":240,"wspd":14,"wgst":28,"visib":"10+","altim":1016.3,"slp":1016,"qcField":4,"metarType":"METAR","rawOb":"METAR KPIT 131951Z 24014G28KT 10SM SCT055 SCT080 26/13 A3001 RMK AO2 PK WND 22030/1938 SLP160 T02610133","lat":40.4814,"lon":-80.2083,"elev":339,"name":"Pittsburgh Intl, PA, US","cover":"SCT","clouds":[{"cover":"SCT","base":5500},{"cover":"SCT","base":8000}],"fltCat":"VFR"},{"icaoId":"KOXR","receiptTime":"2026-04-13T19:54:08.962Z","obsTime":1776109860,"reportTime":"2026-04-13T20:00:00.000Z","temp":18.3,"dewp":6.7,"wdir":280,"wspd":13,"wgst":21,"visib":"10+","altim":1017.4,"slp":1017.3,"qcField":4,"metarType":"METAR","rawOb":"METAR KOXR 131951Z 28013G21KT 10SM CLR 18/07 A3004 RMK AO2 LTG DSNT E SLP173 T01830067","lat":34.2001,"lon":-119.2042,"elev":12,"name":"Oxnard Arpt, CA, US","cover":"CLR","clouds":[],"fltCat":"VFR"},{"icaoId":"KORD","receiptTime":"2026-04-13T19:54:08.869Z","obsTime":1776109860,"reportTime":"2026-04-13T20:00:00.000Z","temp":22.8,"dewp":17.2,"wdir":220,"wspd":8,"visib":"10+","altim":1012.6,"slp":1012.1,"qcField":4,"metarType":"METAR","rawOb":"METAR KORD 131951Z 22008KT 10SM SCT028 BKN043 BKN150 OVC250 23/17 A2990 RMK AO2 SLP121 T02280172","lat":41.9602,"lon":-87.9316,"elev":202,"name":"Chicago/O'Hare Intl, IL, US","cover":"OVC","clouds":[{"cover":"SCT","base":2800},{"cover":"BKN","base":4300},{"cover":"BKN","base":15000},{"cover":"OVC","base":25000}],"fltCat":"VFR"},{"icaoId":"KJFK","receiptTime":"2026-04-13T19:54:08.677Z","obsTime":1776109860,"reportTime":"2026-04-13T20:00:00.000Z","temp":22.8,"dewp":12.8,"wdir":240,"wspd":17,"visib":"10+","altim":1014.6,"slp":1014.4,"qcField":4,"metarType":"METAR","rawOb":"METAR KJFK 131951Z 24017KT 10SM BKN110 BKN250 23/13 A2996 RMK AO2 SLP144 T02280128","lat":40.6392,"lon":-73.7639,"elev":3,"name":"New York/JF Kennedy Intl, NY, US","cover":"BKN","clouds":[{"cover":"BKN","base":11000},{"cover":"BKN","base":25000}],"fltCat":"VFR"},{"icaoId":"KIGM","receiptTime":"2026-04-13T19:54:08.563Z","obsTime":1776109860,"reportTime":"2026-04-13T20:00:00.000Z","temp":17.2,"dewp":1.7,"wdir":220,"wspd":18,"wgst":31,"visib":"10+","altim":1014.6,"slp":1009.6,"qcField":6,"metarType":"METAR","rawOb":"METAR KIGM 131951Z AUTO 22018G31KT 10SM FEW055 BKN080 17/02 A2996 RMK AO2 PK WND 23032/1915 SLP096 T01720017","lat":35.2575,"lon":-113.9341,"elev":1045,"name":"Kingman Arpt, AZ, US","cover":"BKN","clouds":[{"cover":"FEW","base":5500},{"cover":"BKN","base":8000}],"fltCat":"VFR"},{"icaoId":"KACT","receiptTime":"2026-04-13T19:54:07.344Z","obsTime":1776109860,"reportTime":"2026-04-13T20:00:00.000Z","temp":27.8,"dewp":21.1,"wdir":190,"wspd":10,"visib":"10+","altim":1017,"slp":1016.2,"qcField":4,"metarType":"METAR","rawOb":"METAR KACT 131951Z 19010KT 10SM FEW031 SCT040 OVC050 28/21 A3003 RMK AO2 SLP162 T02780211","lat":31.618,"lon":-97.2283,"elev":150,"name":"Waco Rgnl, TX, US","cover":"OVC","clouds":[{"cover":"FEW","base":3100},{"cover":"SCT","base":4000},{"cover":"OVC","base":5000}],"fltCat":"VFR"},{"icaoId":"KVNY","receiptTime":"2026-04-13T19:54:09.610Z","obsTime":1776109860,"reportTime":"2026-04-13T20:00:00.000Z","temp":18.3,"dewp":5.6,"wdir":130,"wspd":5,"visib":"10+","altim":1016.3,"slp":1015.8,"qcField":12,"metarType":"METAR","rawOb":"METAR KVNY 131951Z 13005KT 10SM FEW085 18/06 A3001 RMK AO2 LTG DSNT NW SLP158 T01830056 $","lat":34.2121,"lon":-118.4915,"elev":241,"name":"Van Nuys Arpt, CA, US","cover":"FEW","clouds":[{"cover":"FEW","base":8500}],"fltCat":"VFR"},{"icaoId":"KCRP","receiptTime":"2026-04-13T19:54:07.791Z","obsTime":1776109860,"reportTime":"2026-04-13T20:00:00.000Z","temp":29.4,"dewp":21.7,"wdir":150,"wspd":20,"wgst":27,"visib":"10+","altim":1017.4,"slp":1017.1,"qcField":4,"metarType":"METAR","rawOb":"METAR KCRP 131951Z 15020G27KT 10SM FEW015 SCT020 BKN043 29/22 A3004 RMK AO2 PK WND 15028/1905 SLP171 T02940217","lat":27.7734,"lon":-97.513,"elev":11,"name":"Corpus Christi Intl, TX, US","cover":"BKN","clouds":[{"cover":"FEW","base":1500},{"cover":"SCT","base":2000},{"cover":"BKN","base":4300}],"fltCat":"VFR"},{"icaoId":"KEWR","receiptTime":"2026-04-13T19:54:08.008Z","obsTime":1776109860,"reportTime":"2026-04-13T20:00:00.000Z","temp":25.6,"dewp":13.3,"wdir":230,"wspd":12,"wgst":24,"visib":"10+","altim":1014,"slp":1013.7,"qcField":4,"metarType":"METAR","rawOb":"METAR KEWR 131951Z 23012G24KT 10SM FEW050 SCT100 BKN160 BKN250 26/13 A2994 RMK AO2 PK WND 23028/1855 SLP137 T02560133","lat":40.6828,"lon":-74.1692,"elev":2,"name":"Newark Intl, NJ, US","cover":"BKN","clouds":[{"cover":"FEW","base":5000},{"cover":"SCT","base":10000},{"cover":"BKN","base":16000},{"cover":"BKN","base":25000}],"fltCat":"VFR"},{"icaoId":"KHOB","receiptTime":"2026-04-13T19:50:50.497Z","obsTime":1776109800,"reportTime":"2026-04-13T20:00:00.000Z","temp":30,"dewp":-2,"wdir":220,"wspd":18,"wgst":28,"visib":"10+","altim":1016.7,"qcField":0,"metarType":"METAR","rawOb":"METAR KHOB 131950Z 22018G28KT 10SM BKN110 30/M02 A3002","lat":32.6797,"lon":-103.2222,"elev":1112,"name":"Hobbs Arpt, NM, US","cover":"BKN","clouds":[{"cover":"BKN","base":11000}],"fltCat":"VFR"},{"icaoId":"KIWA","receiptTime":"2026-04-13T19:55:36.050Z","obsTime":1776109800,"reportTime":"2026-04-13T20:00:00.000Z","temp":23,"dewp":4,"wdir":190,"wspd":12,"wgst":18,"visib":"10+","altim":1015.3,"qcField":0,"metarType":"METAR","rawOb":"METAR KIWA 131950Z 19012G18KT 10SM BKN110 23/04 A2998","lat":33.3008,"lon":-111.6437,"elev":420,"name":"Phoenix/Mesa Gateway Arpt, AZ, US","cover":"BKN","clouds":[{"cover":"BKN","base":11000}],"fltCat":"VFR"},{"icaoId":"KADM","receiptTime":"2026-04-13T19:54:17.528Z","obsTime":1776109800,"reportTime":"2026-04-13T20:00:00.000Z","temp":29,"dewp":22,"wdir":180,"wspd":15,"wgst":22,"visib":"10+","altim":1014.3,"qcField":0,"metarType":"METAR","rawOb":"METAR KADM 131950Z 18015G22KT 10SM SCT037 SCT043 BKN050 29/22 A2995","lat":34.3007,"lon":-97.0089,"elev":223,"name":"Ardmore Muni, OK, US","cover":"BKN","clouds":[{"cover":"SCT","base":3700},{"cover":"SCT","base":4300},{"cover":"BKN","base":5000}],"fltCat":"VFR"},{"icaoId":"KSUN","receiptTime":"2026-04-13T19:54:42.694Z","obsTime":1776109800,"reportTime":"2026-04-13T20:00:00.000Z","temp":4,"dewp":2,"wdir":110,"wspd":8,"visib":7,"altim":1014.6,"qcField":0,"metarType":"METAR","rawOb":"METAR KSUN 131950Z 11008KT 7SM SCT008 OVC014 04/02 A2996","lat":43.4969,"lon":-114.2923,"elev":1619,"name":"Hailey/Friedman Mem, ID, US","cover":"OVC","clouds":[{"cover":"SCT","base":800},{"cover":"OVC","base":1400}],"fltCat":"MVFR"},{"icaoId":"KGYR","receiptTime":"2026-04-13T19:53:34.684Z","obsTime":1776109620,"reportTime":"2026-04-13T20:00:00.000Z","temp":24,"dewp":7,"wdir":260,"wspd":9,"visib":"10+","altim":1014.6,"qcField":0,"metarType":"METAR","rawOb":"METAR KGYR 131947Z 26009KT 10SM FEW065 SCT180 BKN250 24/07 A2996","lat":33.428,"lon":-112.368,"elev":292,"name":"Phoenix/Goodyear Muni, AZ, US","cover":"BKN","clouds":[{"cover":"FEW","base":6500},{"cover":"SCT","base":18000},{"cover":"BKN","base":25000}],"fltCat":"VFR"},{"icaoId":"KAEG","receiptTime":"2026-04-13T19:47:01.062Z","obsTime":1776109620,"reportTime":"2026-04-13T20:00:00.000Z","temp":18,"dewp":-1,"wdir":190,"wspd":11,"wgst":21,"visib":"10+","altim":1018.7,"qcField":0,"metarType":"METAR","rawOb":"METAR KAEG 131947Z 19011G21KT 10SM SCT080 BKN090 18/M01 A3008","lat":35.15,"lon":-106.7929,"elev":1771,"name":"Albuquerque/Double Eagle Arpt, NM, US","cover":"BKN","clouds":[{"cover":"SCT","base":8000},{"cover":"BKN","base":9000}],"fltCat":"VFR"},{"icaoId":"KIFP","receiptTime":"2026-04-13T19:48:14.745Z","obsTime":1776109620,"reportTime":"2026-04-13T20:00:00.000Z","temp":23,"dewp":-1,"wdir":190,"wspd":16,"wgst":28,"visib":"10+","altim":1012.3,"qcField":0,"metarType":"METAR","rawOb":"METAR KIFP 131947Z 19016G28KT 10SM CLR 23/M01 A2989","lat":35.1487,"lon":-114.5611,"elev":210,"name":"Bullhead City Intl, AZ, US","cover":"CLR","clouds":[],"fltCat":"VFR"},{"icaoId":"KBJC","receiptTime":"2026-04-13T19:50:50.340Z","obsTime":1776109620,"reportTime":"2026-04-13T20:00:00.000Z","temp":21,"dewp":-11,"wdir":40,"wspd":8,"wgst":18,"visib":"10+","altim":1010.9,"qcField":0,"metarType":"METAR","rawOb":"METAR KBJC 131947Z 04008G18KT 010V090 10SM CLR 21/M11 A2985","lat":39.9008,"lon":-105.1042,"elev":1694,"name":"Rocky Mtn Metro, CO, US","cover":"CLR","clouds":[],"fltCat":"VFR"},{"icaoId":"KCHD","receiptTime":"2026-04-13T19:48:14.522Z","obsTime":1776109620,"reportTime":"2026-04-13T20:00:00.000Z","temp":23,"dewp":6,"wdir":180,"wspd":9,"visib":"10+","altim":1014.6,"qcField":0,"metarType":"METAR","rawOb":"METAR KCHD 131947Z 18009KT 10SM OVC130 23/06 A2996","lat":33.2669,"lon":-111.8086,"elev":378,"name":"Chandler Muni, AZ, US","cover":"OVC","clouds":[{"cover":"OVC","base":13000}],"fltCat":"VFR"},{"icaoId":"KRYN","receiptTime":"2026-04-13T19:46:34.341Z","obsTime":1776109500,"reportTime":"2026-04-13T20:00:00.000Z","temp":26,"dewp":0,"wdir":200,"wspd":27,"wgst":29,"visib":"10+","altim":1015,"qcField":0,"metarType":"METAR","rawOb":"METAR KRYN 131945Z 20027G29KT 10SM CLR 26/00 A2997","lat":32.1418,"lon":-111.1767,"elev":731,"name":"Tucson/Ryan Fld, AZ, US","cover":"CLR","clouds":[],"fltCat":"VFR"}]