[{"icaoId":"KFLG","receiptTime":"2026-04-08T08:00:30.258Z","obsTime":1775635020,"reportTime":"2026-04-08T08:00:00.000Z","temp":1.1,"dewp":-6.1,"wdir":0,"wspd":0,"visib":"10+","altim":1021.1,"slp":1014.6,"qcField":6,"metarType":"METAR","rawOb":"METAR KFLG 080757Z AUTO 00000KT 10SM CLR 01/M06 A3015 RMK AO2 SLP146 T00111061","lat":35.1443,"lon":-111.6664,"elev":2134,"name":"Flagstaff/Pulliam Arpt, AZ, US","cover":"CLR","clouds":[],"fltCat":"VFR"},{"icaoId":"KNYL","receiptTime":"2026-04-08T08:01:06.872Z","obsTime":1775635020,"reportTime":"2026-04-08T08:00:00.000Z","temp":23.3,"dewp":5.6,"wdir":290,"wspd":4,"visib":"10+","altim":1009.2,"slp":1008.6,"qcField":6,"metarType":"METAR","rawOb":"METAR KNYL 080757Z AUTO 29004KT 10SM CLR 23/06 A2980 RMK AO2 SLP086 T02330056","lat":32.66,"lon":-114.6078,"elev":58,"name":"Yuma , AZ, US","cover":"CLR","clouds":[],"fltCat":"VFR"},{"icaoId":"KINW","receiptTime":"2026-04-08T08:00:22.020Z","obsTime":1775634960,"reportTime":"2026-04-08T08:00:00.000Z","temp":12.2,"dewp":2.2,"wdir":220,"wspd":11,"visib":"10+","altim":1017,"slp":1012,"qcField":6,"metarType":"METAR","rawOb":"METAR KINW 080756Z AUTO 22011KT 10SM CLR 12/02 A3003 RMK AO2 SLP120 T01220022","lat":35.0279,"lon":-110.7221,"elev":1492,"name":"Winslow/Lindberg Rgnl, AZ, US","cover":"CLR","clouds":[],"fltCat":"VFR"},{"icaoId":"KDUG","receiptTime":"2026-04-08T08:02:10.310Z","obsTime":1775634960,"reportTime":"2026-04-08T08:00:00.000Z","temp":14.4,"dewp":1.7,"wdir":360,"wspd":7,"visib":"10+","altim":1016.7,"slp":1010.8,"qcField":38,"metarType":"METAR","rawOb":"METAR KDUG 080756Z AUTO 36007KT 10SM CLR 14/02 A3002 RMK AO2 SLP108 T01440017 TSNO","lat":31.4725,"lon":-109.6022,"elev":1260,"name":"Douglas/Bisbee Intl, AZ, US","cover":"CLR","clouds":[],"fltCat":"VFR"},{"icaoId":"KCGZ","receiptTime":"2026-04-08T07:58:32.497Z","obsTime":1775634960,"reportTime":"2026-04-08T08:00:00.000Z","temp":20.6,"dewp":-1.7,"wdir":30,"wspd":4,"visib":"10+","qcField":14,"metarType":"METAR","rawOb":"METAR KCGZ 080756Z AUTO 03004KT 10SM CLR 21/M02 RMK AO2 SLPNO T02061017 $","lat":32.9531,"lon":-111.7725,"elev":444,"name":"Casa Granda Muni, AZ, US","cover":"CLR","clouds":[],"fltCat":"VFR"},{"icaoId":"KSOW","receiptTime":"2026-04-08T07:58:08.060Z","obsTime":1775634900,"reportTime":"2026-04-08T08:00:00.000Z","temp":10,"dewp":0,"wdir":180,"wspd":10,"visib":"10+","altim":1020.4,"qcField":6,"metarType":"METAR","rawOb":"METAR KSOW 080755Z AUTO 18010KT 10SM CLR 10/00 A3013 RMK AO2","lat":34.2686,"lon":-110.0019,"elev":1954,"name":"Show Low Muni, AZ, US","cover":"CLR","clouds":[],"fltCat":"VFR"},{"icaoId":"KIWA","receiptTime":"2026-04-08T08:00:30.757Z","obsTime":1775634900,"reportTime":"2026-04-08T08:00:00.000Z","temp":21.1,"dewp":0,"wdir":100,"wspd":7,"visib":"10+","altim":1011.6,"qcField":6,"metarType":"METAR","rawOb":"METAR KIWA 080755Z AUTO 10007KT 10SM CLR 21/00 A2987 RMK AO2 T02110000","lat":33.3008,"lon":-111.6437,"elev":420,"name":"Phoenix/Mesa Gateway Arpt, AZ, US","cover":"CLR","clouds":[],"fltCat":"VFR"},{"icaoId":"KHII","receiptTime":"2026-04-08T08:00:29.058Z","obsTime":1775634900,"reportTime":"2026-04-08T08:00:00.000Z","temp":24,"dewp":-6,"wdir":100,"wspd":6,"visib":"10+","altim":1009.2,"qcField":6,"metarType":"METAR","rawOb":"METAR KHII 080755Z AUTO 10006KT 10SM CLR 24/M06 A2980 RMK AO2","lat":34.5659,"lon":-114.3522,"elev":241,"name":"Lake Havasu City Arpt, AZ, US","cover":"CLR","clouds":[],"fltCat":"VFR"},{"icaoId":"KCHD","receiptTime":"2026-04-08T07:58:07.658Z","obsTime":1775634900,"reportTime":"2026-04-08T08:00:00.000Z","temp":21.3,"dewp":3.6,"wdir":120,"wspd":5,"visib":"10+","altim":1010.9,"qcField":14,"metarType":"METAR","rawOb":"METAR KCHD 080755Z AUTO 12005KT 10SM CLR 21/04 A2985 RMK AO2 T02130036 $","lat":33.2669,"lon":-111.8086,"elev":378,"name":"Chandler Muni, AZ, US","cover":"CLR","clouds":[],"fltCat":"VFR"},{"icaoId":"KSEZ","receiptTime":"2026-04-08T07:58:16.721Z","obsTime":1775634900,"reportTime":"2026-04-08T08:00:00.000Z","temp":15,"dewp":-5,"wdir":20,"wspd":8,"visib":"10+","altim":1017.7,"qcField":6,"metarType":"METAR","rawOb":"METAR KSEZ 080755Z AUTO 02008KT 10SM CLR 15/M05 A3005 RMK AO2","lat":34.8467,"lon":-111.7884,"elev":1455,"name":"Sedona Arpt, AZ, US","cover":"CLR","clouds":[],"fltCat":"VFR"},{"icaoId":"KFFZ","receiptTime":"2026-04-08T07:58:28.396Z","obsTime":1775634840,"reportTime":"2026-04-08T08:00:00.000Z","temp":22.2,"dewp":0.6,"wdir":0,"wspd":0,"visib":"10+","altim":1010.9,"slp":1008.5,"qcField":46,"metarType":"METAR","rawOb":"METAR KFFZ 080754Z AUTO 00000KT 10SM CLR 22/01 A2985 RMK AO2 SLP085 T02220006 TSNO $","lat":33.4659,"lon":-111.7212,"elev":420,"name":"Mesa/Falcon Fld, AZ, US","cover":"CLR","clouds":[],"fltCat":"VFR"},{"icaoId":"KGCN","receiptTime":"2026-04-08T07:58:16.526Z","obsTime":1775634840,"reportTime":"2026-04-08T08:00:00.000Z","temp":-0.6,"dewp":-3.9,"wdir":0,"wspd":0,"visib":"10+","altim":1020.1,"slp":1014.6,"qcField":6,"metarType":"METAR","rawOb":"METAR KGCN 080754Z AUTO 00000KT 10SM CLR M01/M04 A3012 RMK AO2 SLP146 T10061039","lat":35.9458,"lon":-112.1554,"elev":1993,"name":"Grand Canyon Park Arpt, AZ, US","cover":"CLR","clouds":[],"fltCat":"VFR"},{"icaoId":"KOLS","receiptTime":"2026-04-08T07:58:16.603Z","obsTime":1775634840,"reportTime":"2026-04-08T08:00:00.000Z","temp":12.8,"dewp":0,"wdir":50,"wspd":3,"visib":"10+","altim":1016.3,"slp":1010.8,"qcField":6,"metarType":"METAR","rawOb":"METAR KOLS 080754Z AUTO 05003KT 10SM CLR 13/00 A3001 RMK AO2 SLP108 T01280000","lat":31.4208,"lon":-110.8465,"elev":1194,"name":"Nogales Intl, AZ, US","cover":"CLR","clouds":[],"fltCat":"VFR"},{"icaoId":"KSJN","receiptTime":"2026-04-08T07:58:14.698Z","obsTime":1775634840,"reportTime":"2026-04-08T08:00:00.000Z","temp":8.3,"dewp":2.8,"wdir":190,"wspd":4,"visib":"10+","altim":1018.4,"slp":1012.5,"qcField":6,"metarType":"METAR","rawOb":"METAR KSJN 080754Z AUTO 19004KT 10SM CLR 08/03 A3007 RMK AO2 SLP125 T00830028","lat":34.5184,"lon":-109.3801,"elev":1747,"name":"St Johns Ind Arpt, AZ, US","cover":"CLR","clouds":[],"fltCat":"VFR"},{"icaoId":"KSDL","receiptTime":"2026-04-08T07:56:25.413Z","obsTime":1775634780,"reportTime":"2026-04-08T08:00:00.000Z","temp":22.8,"dewp":1.1,"wdir":30,"wspd":4,"visib":"10+","altim":1011.3,"slp":1008.9,"qcField":6,"metarType":"METAR","rawOb":"METAR KSDL 080753Z AUTO 03004KT 10SM CLR 23/01 A2986 RMK AO2 SLP089 T02280011","lat":33.6123,"lon":-111.9232,"elev":438,"name":"Scottsdale Muni, AZ, US","cover":"CLR","clouds":[],"fltCat":"VFR"},{"icaoId":"KTUS","receiptTime":"2026-04-08T07:56:32.229Z","obsTime":1775634780,"reportTime":"2026-04-08T08:00:00.000Z","temp":18.9,"dewp":0.6,"wdir":110,"wspd":5,"visib":"10+","altim":1014.3,"slp":1010.2,"qcField":4,"metarType":"METAR","rawOb":"METAR KTUS 080753Z 11005KT 10SM CLR 19/01 A2995 RMK AO2 SLP102 T01890006","lat":32.1315,"lon":-110.9564,"elev":776,"name":"Tucson Intl Arpt, AZ, US","cover":"CLR","clouds":[],"fltCat":"VFR"},{"icaoId":"KDVT","receiptTime":"2026-04-08T07:56:28.620Z","obsTime":1775634780,"reportTime":"2026-04-08T08:00:00.000Z","temp":21.1,"dewp":-0.6,"wdir":30,"wspd":5,"visib":"10+","altim":1010.9,"slp":1008.7,"qcField":4,"metarType":"METAR","rawOb":"METAR KDVT 080753Z 03005KT 10SM CLR 21/M01 A2985 RMK AO2 SLP087 T02111006","lat":33.6902,"lon":-112.0662,"elev":454,"name":"Phoenix/Deer Valley Arpt, AZ, US","cover":"CLR","clouds":[],"fltCat":"VFR"},{"icaoId":"KPGA","receiptTime":"2026-04-08T07:56:33.288Z","obsTime":1775634780,"reportTime":"2026-04-08T08:00:00.000Z","temp":16.7,"dewp":-12.2,"wdir":130,"wspd":4,"visib":"10+","altim":1014.6,"slp":1009.2,"qcField":14,"metarType":"METAR","rawOb":"METAR KPGA 080753Z AUTO 13004KT 10SM CLR 17/M12 A2996 RMK AO2 SLP092 T01671122 $","lat":36.9211,"lon":-111.4487,"elev":1310,"name":"Page Muni, AZ, US","cover":"CLR","clouds":[],"fltCat":"VFR"},{"icaoId":"KPRC","receiptTime":"2026-04-08T07:56:25.398Z","obsTime":1775634780,"reportTime":"2026-04-08T08:00:00.000Z","temp":14.4,"dewp":-6.7,"wdir":210,"wspd":4,"visib":"10+","altim":1017.7,"slp":1010.6,"qcField":6,"metarType":"METAR","rawOb":"METAR KPRC 080753Z AUTO 21004KT 10SM CLR 14/M07 A3005 RMK AO2 SLP106 T01441067","lat":34.6491,"lon":-112.4223,"elev":1528,"name":"Prescott/Love Fld, AZ, US","cover":"CLR","clouds":[],"fltCat":"VFR"},{"icaoId":"KSAD","receiptTime":"2026-04-08T07:54:08.965Z","obsTime":1775634660,"reportTime":"2026-04-08T08:00:00.000Z","temp":15.6,"dewp":2.8,"wdir":0,"wspd":0,"visib":"10+","altim":1014.3,"slp":1010.3,"qcField":6,"metarType":"METAR","rawOb":"METAR KSAD 080751Z AUTO 00000KT 10SM CLR 16/03 A2995 RMK AO2 SLP103 T01560028","lat":32.8565,"lon":-109.636,"elev":937,"name":"Safford Rgnl, AZ, US","cover":"CLR","clouds":[],"fltCat":"VFR"},{"icaoId":"KPHX","receiptTime":"2026-04-08T07:54:08.817Z","obsTime":1775634660,"reportTime":"2026-04-08T08:00:00.000Z","temp":23.9,"dewp":2.2,"wdir":110,"wspd":5,"visib":"10+","altim":1010.2,"slp":1008.3,"qcField":4,"metarType":"METAR","rawOb":"METAR KPHX 080751Z 11005KT 10SM CLR 24/02 A2983 RMK AO2 SLP083 T02390022","lat":33.4278,"lon":-112.0037,"elev":338,"name":"Phoenix/Sky Harbor Intl, AZ, US","cover":"CLR","clouds":[],"fltCat":"VFR"},{"icaoId":"KIGM","receiptTime":"2026-04-08T07:54:08.510Z","obsTime":1775634660,"reportTime":"2026-04-08T08:00:00.000Z","temp":18.3,"dewp":-8.3,"wdir":200,"wspd":11,"visib":"10+","altim":1014.3,"slp":1007.8,"qcField":6,"metarType":"METAR","rawOb":"METAR KIGM 080751Z AUTO 20011KT 10SM CLR 18/M08 A2995 RMK AO2 SLP078 T01831083","lat":35.2575,"lon":-113.9341,"elev":1045,"name":"Kingman Arpt, AZ, US","cover":"CLR","clouds":[],"fltCat":"VFR"},{"icaoId":"KIFP","receiptTime":"2026-04-08T08:00:30.669Z","obsTime":1775634600,"reportTime":"2026-04-08T08:00:00.000Z","temp":24,"dewp":-7,"wdir":0,"wspd":0,"visib":"10+","altim":1008.5,"qcField":6,"metarType":"METAR","rawOb":"METAR KIFP 080750Z AUTO 00000KT 10SM CLR 24/M07 A2978 RMK AO2","lat":35.1487,"lon":-114.5611,"elev":210,"name":"Bullhead City Intl, AZ, US","cover":"CLR","clouds":[],"fltCat":"VFR"},{"icaoId":"KLUF","receiptTime":"2026-04-08T07:14:08.755Z","obsTime":1775631300,"reportTime":"2026-04-08T07:00:00.000Z","temp":22.8,"dewp":-0.7,"wdir":20,"wspd":5,"visib":"10+","altim":1009.9,"slp":1008.6,"qcField":14,"maxT24":33.9,"minT24":16.6,"metarType":"METAR","rawOb":"METAR KLUF 080655Z AUTO 02005KT 10SM CLR 23/M01 A2982 RMK AO2 SLP086 T02281007 403390166 $","lat":33.538,"lon":-112.38,"elev":333,"name":"Phoenix/Luke AFB, AZ, US","cover":"CLR","clouds":[],"fltCat":"VFR"}]