[{"icaoId":"KSOW","receiptTime":"2026-04-10T12:57:16.403Z","obsTime":1775825700,"reportTime":"2026-04-10T13:00:00.000Z","temp":8,"dewp":-4,"wdir":0,"wspd":0,"visib":8,"altim":1020.7,"qcField":6,"metarType":"METAR","rawOb":"METAR KSOW 101255Z AUTO 00000KT 8SM CLR 08/M04 A3014 RMK AO2","lat":34.2686,"lon":-110.0019,"elev":1954,"name":"Show Low Muni, AZ, US","cover":"CLR","clouds":[],"fltCat":"VFR"},{"icaoId":"KOLS","receiptTime":"2026-04-10T12:57:18.613Z","obsTime":1775825640,"reportTime":"2026-04-10T13:00:00.000Z","temp":11.7,"dewp":0,"wdir":0,"wspd":0,"visib":"10+","altim":1016.7,"slp":1011.2,"qcField":6,"metarType":"METAR","rawOb":"METAR KOLS 101254Z AUTO 00000KT 10SM CLR 12/00 A3002 RMK AO2 SLP112 T01170000","lat":31.4208,"lon":-110.8465,"elev":1194,"name":"Nogales Intl, AZ, US","cover":"CLR","clouds":[],"fltCat":"VFR"},{"icaoId":"KFFZ","receiptTime":"2026-04-10T12:57:23.634Z","obsTime":1775825640,"reportTime":"2026-04-10T13:00:00.000Z","temp":20.6,"dewp":-1.1,"wdir":0,"wspd":0,"visib":"10+","altim":1011.6,"slp":1009.4,"qcField":4,"metarType":"METAR","rawOb":"METAR KFFZ 101254Z 00000KT 10SM CLR 21/M01 A2987 RMK AO2 SLP094 T02061011","lat":33.4659,"lon":-111.7212,"elev":420,"name":"Mesa/Falcon Fld, AZ, US","cover":"CLR","clouds":[],"fltCat":"VFR"},{"icaoId":"KSJN","receiptTime":"2026-04-10T12:57:16.973Z","obsTime":1775825640,"reportTime":"2026-04-10T13:00:00.000Z","temp":8.3,"dewp":-2.2,"wdir":110,"wspd":3,"visib":"10+","altim":1019.4,"slp":1012.5,"qcField":6,"metarType":"METAR","rawOb":"METAR KSJN 101254Z AUTO 11003KT 10SM CLR 08/M02 A3010 RMK AO2 SLP125 T00831022","lat":34.5184,"lon":-109.3801,"elev":1747,"name":"St Johns Ind Arpt, AZ, US","cover":"CLR","clouds":[],"fltCat":"VFR"},{"icaoId":"KGCN","receiptTime":"2026-04-10T12:57:16.542Z","obsTime":1775825640,"reportTime":"2026-04-10T13:00:00.000Z","temp":1.1,"dewp":-3.9,"wdir":60,"wspd":3,"visib":"10+","altim":1019.4,"slp":1013.8,"qcField":6,"metarType":"METAR","rawOb":"METAR KGCN 101254Z AUTO 06003KT 10SM CLR 01/M04 A3010 RMK AO2 SLP138 T00111039","lat":35.9458,"lon":-112.1554,"elev":1993,"name":"Grand Canyon Park Arpt, AZ, US","cover":"CLR","clouds":[],"fltCat":"VFR"},{"icaoId":"KPRC","receiptTime":"2026-04-10T12:56:24.629Z","obsTime":1775825580,"reportTime":"2026-04-10T13:00:00.000Z","temp":10,"dewp":-1.7,"wdir":200,"wspd":8,"visib":"10+","altim":1017.4,"slp":1011.1,"qcField":4,"metarType":"METAR","rawOb":"METAR KPRC 101253Z 20008KT 10SM CLR 10/M02 A3004 RMK AO2 SLP111 T01001017","lat":34.6491,"lon":-112.4223,"elev":1528,"name":"Prescott/Love Fld, AZ, US","cover":"CLR","clouds":[],"fltCat":"VFR"},{"icaoId":"KTUS","receiptTime":"2026-04-10T12:56:29.469Z","obsTime":1775825580,"reportTime":"2026-04-10T13:00:00.000Z","temp":16.7,"dewp":-1.7,"wdir":140,"wspd":5,"visib":"10+","altim":1014.6,"slp":1010.6,"qcField":4,"metarType":"METAR","rawOb":"METAR KTUS 101253Z 14005KT 10SM CLR 17/M02 A2996 RMK AO2 SLP106 T01671017","lat":32.1315,"lon":-110.9564,"elev":776,"name":"Tucson Intl Arpt, AZ, US","cover":"CLR","clouds":[],"fltCat":"VFR"},{"icaoId":"KDVT","receiptTime":"2026-04-10T12:56:20.543Z","obsTime":1775825580,"reportTime":"2026-04-10T13:00:00.000Z","temp":17.2,"dewp":-1.7,"wdir":0,"wspd":0,"visib":"10+","altim":1011.9,"slp":1009.7,"qcField":4,"metarType":"METAR","rawOb":"METAR KDVT 101253Z 00000KT 10SM CLR 17/M02 A2988 RMK AO2 SLP097 T01721017","lat":33.6902,"lon":-112.0662,"elev":454,"name":"Phoenix/Deer Valley Arpt, AZ, US","cover":"CLR","clouds":[],"fltCat":"VFR"},{"icaoId":"KSDL","receiptTime":"2026-04-10T12:56:30.363Z","obsTime":1775825580,"reportTime":"2026-04-10T13:00:00.000Z","temp":20,"dewp":0,"wdir":0,"wspd":0,"visib":"10+","altim":1012.3,"slp":1009.8,"qcField":4,"metarType":"METAR","rawOb":"METAR KSDL 101253Z 00000KT 10SM CLR 20/00 A2989 RMK AO2 SLP098 T02000000","lat":33.6123,"lon":-111.9232,"elev":438,"name":"Scottsdale Muni, AZ, US","cover":"CLR","clouds":[],"fltCat":"VFR"},{"icaoId":"KPGA","receiptTime":"2026-04-10T12:56:29.403Z","obsTime":1775825580,"reportTime":"2026-04-10T13:00:00.000Z","temp":17.2,"dewp":-6.1,"wdir":190,"wspd":6,"visib":"10+","altim":1014.6,"slp":1008.9,"qcField":6,"metarType":"METAR","rawOb":"METAR KPGA 101253Z AUTO 19006KT 10SM CLR 17/M06 A2996 RMK AO2 SLP089 T01721061","lat":36.9211,"lon":-111.4487,"elev":1310,"name":"Page Muni, AZ, US","cover":"CLR","clouds":[],"fltCat":"VFR"},{"icaoId":"KSAD","receiptTime":"2026-04-10T12:54:10.367Z","obsTime":1775825460,"reportTime":"2026-04-10T13:00:00.000Z","temp":15.6,"dewp":-5.6,"wdir":90,"wspd":3,"visib":"10+","altim":1015,"slp":1010.5,"qcField":6,"metarType":"METAR","rawOb":"METAR KSAD 101251Z AUTO 09003KT 10SM CLR 16/M06 A2997 RMK AO2 SLP105 T01561056","lat":32.8565,"lon":-109.636,"elev":937,"name":"Safford Rgnl, AZ, US","cover":"CLR","clouds":[],"fltCat":"VFR"},{"icaoId":"KPHX","receiptTime":"2026-04-10T12:54:08.790Z","obsTime":1775825460,"reportTime":"2026-04-10T13:00:00.000Z","temp":20.6,"dewp":1.1,"wdir":100,"wspd":7,"visib":"10+","altim":1010.9,"slp":1009.2,"qcField":4,"metarType":"METAR","rawOb":"METAR KPHX 101251Z 10007KT 10SM BKN250 21/01 A2985 RMK AO2 SLP092 T02060011","lat":33.4278,"lon":-112.0037,"elev":338,"name":"Phoenix/Sky Harbor Intl, AZ, US","cover":"BKN","clouds":[{"cover":"BKN","base":25000}],"fltCat":"VFR"},{"icaoId":"KIGM","receiptTime":"2026-04-10T12:54:08.568Z","obsTime":1775825460,"reportTime":"2026-04-10T13:00:00.000Z","temp":13.3,"dewp":1.1,"wdir":0,"wspd":0,"visib":"10+","altim":1014,"slp":1008,"qcField":6,"metarType":"METAR","rawOb":"METAR KIGM 101251Z AUTO 00000KT 10SM CLR 13/01 A2994 RMK AO2 SLP080 T01330011","lat":35.2575,"lon":-113.9341,"elev":1045,"name":"Kingman Arpt, AZ, US","cover":"CLR","clouds":[],"fltCat":"VFR"},{"icaoId":"KCHD","receiptTime":"2026-04-10T12:50:50.773Z","obsTime":1775825220,"reportTime":"2026-04-10T13:00:00.000Z","temp":18,"dewp":1,"wdir":"VRB","wspd":6,"visib":"10+","altim":1011.9,"qcField":0,"metarType":"METAR","rawOb":"METAR KCHD 101247Z VRB06KT 10SM FEW250 18/01 A2988","lat":33.2669,"lon":-111.8086,"elev":378,"name":"Chandler Muni, AZ, US","cover":"FEW","clouds":[{"cover":"FEW","base":25000}],"fltCat":"VFR"},{"icaoId":"KGEU","receiptTime":"2026-04-10T12:50:13.314Z","obsTime":1775825220,"reportTime":"2026-04-10T13:00:00.000Z","temp":20,"dewp":0,"wdir":10,"wspd":4,"visib":"10+","altim":1010.6,"qcField":0,"metarType":"METAR","rawOb":"METAR KGEU 101247Z 01004KT 10SM CLR 20/00 A2984 RMK FIRST","lat":33.528,"lon":-112.293,"elev":319,"name":"Glendale Muni, AZ, US","cover":"CLR","clouds":[],"fltCat":"VFR"},{"icaoId":"KSEZ","receiptTime":"2026-04-10T12:40:50.316Z","obsTime":1775824500,"reportTime":"2026-04-10T12:35:00.000Z","temp":14,"dewp":-4,"wdir":100,"wspd":5,"visib":"10+","altim":1017,"qcField":6,"metarType":"METAR","rawOb":"METAR KSEZ 101235Z AUTO 10005KT 10SM CLR 14/M04 A3003 RMK AO2","lat":34.8467,"lon":-111.7884,"elev":1455,"name":"Sedona Arpt, AZ, US","cover":"CLR","clouds":[],"fltCat":"VFR"},{"icaoId":"KHII","receiptTime":"2026-04-10T12:40:45.049Z","obsTime":1775824500,"reportTime":"2026-04-10T12:35:00.000Z","temp":23,"dewp":6,"wdir":0,"wspd":0,"visib":"10+","altim":1009.9,"qcField":6,"metarType":"METAR","rawOb":"METAR KHII 101235Z AUTO 00000KT 10SM CLR 23/06 A2982 RMK AO2","lat":34.5659,"lon":-114.3522,"elev":241,"name":"Lake Havasu City Arpt, AZ, US","cover":"CLR","clouds":[],"fltCat":"VFR"},{"icaoId":"KIFP","receiptTime":"2026-04-10T12:40:55.628Z","obsTime":1775824500,"reportTime":"2026-04-10T12:35:00.000Z","temp":22,"dewp":5,"wdir":"VRB","wspd":3,"visib":"10+","altim":1009.2,"qcField":6,"metarType":"METAR","rawOb":"METAR KIFP 101235Z AUTO VRB03KT 10SM CLR 22/05 A2980 RMK AO2","lat":35.1487,"lon":-114.5611,"elev":210,"name":"Bullhead City Intl, AZ, US","cover":"CLR","clouds":[],"fltCat":"VFR"},{"icaoId":"KCGZ","receiptTime":"2026-04-10T12:22:02.191Z","obsTime":1775823540,"reportTime":"2026-04-10T12:19:00.000Z","temp":18,"dewp":-3,"wdir":0,"wspd":0,"visib":"10+","altim":1012.6,"qcField":14,"metarType":"SPECI","rawOb":"SPECI KCGZ 101219Z AUTO 00000KT 10SM FEW001 18/M03 A2990 RMK AO2 $","lat":32.9531,"lon":-111.7725,"elev":444,"name":"Casa Granda Muni, AZ, US","cover":"FEW","clouds":[{"cover":"FEW","base":100}],"fltCat":"VFR"},{"icaoId":"KFLG","receiptTime":"2026-04-10T12:01:11.148Z","obsTime":1775822220,"reportTime":"2026-04-10T12:00:00.000Z","temp":3.3,"dewp":-5,"wdir":0,"wspd":0,"visib":"10+","altim":1020.1,"slp":1013.3,"qcField":14,"presTend":-0.3,"maxT":6.1,"minT":2.8,"metarType":"METAR","rawOb":"METAR KFLG 101157Z AUTO 00000KT 10SM CLR 03/M05 A3012 RMK AO2 SLP133 T00331050 10061 20028 55003 $","lat":35.1443,"lon":-111.6664,"elev":2134,"name":"Flagstaff/Pulliam Arpt, AZ, US","cover":"CLR","clouds":[],"fltCat":"VFR"},{"icaoId":"KNYL","receiptTime":"2026-04-10T12:02:07.481Z","obsTime":1775822220,"reportTime":"2026-04-10T12:00:00.000Z","temp":22.2,"dewp":7.2,"wdir":270,"wspd":6,"visib":"10+","altim":1010.2,"slp":1009.9,"qcField":6,"presTend":-0.5,"maxT":26.1,"minT":22.2,"metarType":"METAR","rawOb":"METAR KNYL 101157Z AUTO 27006KT 10SM CLR 22/07 A2983 RMK AO2 SLP099 T02220072 10261 20222 56005","lat":32.66,"lon":-114.6078,"elev":58,"name":"Yuma , AZ, US","cover":"CLR","clouds":[],"fltCat":"VFR"},{"icaoId":"KINW","receiptTime":"2026-04-10T12:00:36.944Z","obsTime":1775822160,"reportTime":"2026-04-10T12:00:00.000Z","temp":9.4,"dewp":0,"wdir":140,"wspd":3,"visib":"10+","altim":1018,"slp":1012.4,"qcField":6,"maxT":12.8,"minT":8.9,"metarType":"METAR","rawOb":"METAR KINW 101156Z AUTO 14003KT 10SM CLR 09/00 A3006 RMK AO2 SLP124 T00940000 10128 20089 50000","lat":35.0279,"lon":-110.7221,"elev":1492,"name":"Winslow/Lindberg Rgnl, AZ, US","cover":"CLR","clouds":[],"fltCat":"VFR"},{"icaoId":"KDUG","receiptTime":"2026-04-10T12:02:10.434Z","obsTime":1775822160,"reportTime":"2026-04-10T12:00:00.000Z","temp":11.7,"dewp":-2.8,"wdir":10,"wspd":7,"visib":"10+","altim":1017,"slp":1011.4,"qcField":38,"presTend":0.1,"maxT":17.8,"minT":11.1,"metarType":"METAR","rawOb":"METAR KDUG 101156Z AUTO 01007KT 10SM CLR 12/M03 A3003 RMK AO2 SLP114 T01171028 10178 20111 50001 TSNO","lat":31.4725,"lon":-109.6022,"elev":1260,"name":"Douglas/Bisbee Intl, AZ, US","cover":"CLR","clouds":[],"fltCat":"VFR"},{"icaoId":"KLUF","receiptTime":"2026-04-10T12:02:14.115Z","obsTime":1775822100,"reportTime":"2026-04-10T12:00:00.000Z","temp":19.9,"dewp":1.3,"wdir":280,"wspd":4,"visib":"10+","altim":1010.2,"slp":1008.8,"qcField":12,"presTend":0.3,"maxT":26.7,"minT":19.2,"metarType":"METAR","rawOb":"METAR KLUF 101155Z 28004KT 10SM BKN200 20/01 A2983 RMK AO2A SLP088 T01990013 10267 20192 51003 $","lat":33.538,"lon":-112.38,"elev":333,"name":"Phoenix/Luke AFB, AZ, US","cover":"BKN","clouds":[{"cover":"BKN","base":20000}],"fltCat":"VFR"},{"icaoId":"KIWA","receiptTime":"2026-04-10T11:48:16.280Z","obsTime":1775821620,"reportTime":"2026-04-10T12:00:00.000Z","temp":19,"dewp":-3,"wdir":120,"wspd":6,"visib":"10+","altim":1012.3,"qcField":0,"metarType":"METAR","rawOb":"METAR KIWA 101147Z 12006KT 10SM CLR 19/M03 A2989","lat":33.3008,"lon":-111.6437,"elev":420,"name":"Phoenix/Mesa Gateway Arpt, AZ, US","cover":"CLR","clouds":[],"fltCat":"VFR"}]