[{"icaoId":"KIWA","receiptTime":"2026-04-09T21:52:14.355Z","obsTime":1775771400,"reportTime":"2026-04-09T22:00:00.000Z","temp":33,"dewp":-3,"wdir":350,"wspd":4,"visib":"10+","altim":1011.3,"qcField":0,"metarType":"METAR","rawOb":"METAR KIWA 092150Z 35004KT 10SM CLR 33/M03 A2986","lat":33.3008,"lon":-111.6437,"elev":420,"name":"Phoenix/Mesa Gateway Arpt, AZ, US","cover":"CLR","clouds":[],"fltCat":"VFR"},{"icaoId":"KGEU","receiptTime":"2026-04-09T21:51:09.448Z","obsTime":1775771400,"reportTime":"2026-04-09T22:00:00.000Z","temp":33,"dewp":-2,"wdir":230,"wspd":13,"visib":"10+","altim":1009.6,"qcField":0,"metarType":"METAR","rawOb":"METAR KGEU 092150Z 23013KT 10SM CLR 33/M02 A2981","lat":33.528,"lon":-112.293,"elev":319,"name":"Glendale Muni, AZ, US","cover":"CLR","clouds":[],"fltCat":"VFR"},{"icaoId":"KIFP","receiptTime":"2026-04-09T21:51:05.505Z","obsTime":1775771340,"reportTime":"2026-04-09T22:00:00.000Z","temp":34,"dewp":-3,"wdir":170,"wspd":10,"wgst":21,"visib":"10+","altim":1007.9,"qcField":0,"metarType":"METAR","rawOb":"METAR KIFP 092149Z 17010G21KT 10SM CLR 34/M03 A2976","lat":35.1487,"lon":-114.5611,"elev":210,"name":"Bullhead City Intl, AZ, US","cover":"CLR","clouds":[],"fltCat":"VFR"},{"icaoId":"KCHD","receiptTime":"2026-04-09T21:48:36.905Z","obsTime":1775771220,"reportTime":"2026-04-09T22:00:00.000Z","temp":33,"dewp":-3,"wdir":"VRB","wspd":3,"visib":"10+","altim":1010.9,"qcField":0,"metarType":"METAR","rawOb":"METAR KCHD 092147Z VRB03KT 10SM BKN250 33/M03 A2985","lat":33.2669,"lon":-111.8086,"elev":378,"name":"Chandler Muni, AZ, US","cover":"BKN","clouds":[{"cover":"BKN","base":25000}],"fltCat":"VFR"},{"icaoId":"KGYR","receiptTime":"2026-04-09T21:47:47.352Z","obsTime":1775771220,"reportTime":"2026-04-09T22:00:00.000Z","temp":34,"dewp":-1,"wdir":220,"wspd":8,"visib":"10+","altim":1010.6,"qcField":0,"metarType":"METAR","rawOb":"METAR KGYR 092147Z 22008KT 10SM SCT200 BKN250 34/M01 A2984","lat":33.428,"lon":-112.368,"elev":292,"name":"Phoenix/Goodyear Muni, AZ, US","cover":"BKN","clouds":[{"cover":"SCT","base":20000},{"cover":"BKN","base":25000}],"fltCat":"VFR"},{"icaoId":"KSEZ","receiptTime":"2026-04-09T21:40:21.286Z","obsTime":1775770500,"reportTime":"2026-04-09T21:35:00.000Z","temp":26,"dewp":-6,"wdir":200,"wspd":15,"wgst":24,"visib":"10+","altim":1017,"qcField":6,"metarType":"METAR","rawOb":"METAR KSEZ 092135Z AUTO 20015G24KT 140V230 10SM CLR 26/M06 A3003 RMK AO2","lat":34.8467,"lon":-111.7884,"elev":1455,"name":"Sedona Arpt, AZ, US","cover":"CLR","clouds":[],"fltCat":"VFR"},{"icaoId":"KSOW","receiptTime":"2026-04-09T21:38:18.274Z","obsTime":1775770500,"reportTime":"2026-04-09T21:35:00.000Z","temp":22,"dewp":-5,"wdir":240,"wspd":12,"wgst":21,"visib":"10+","altim":1020.4,"qcField":6,"metarType":"METAR","rawOb":"METAR KSOW 092135Z AUTO 24012G21KT 10SM FEW100 22/M05 A3013 RMK AO2","lat":34.2686,"lon":-110.0019,"elev":1954,"name":"Show Low Muni, AZ, US","cover":"FEW","clouds":[{"cover":"FEW","base":10000}],"fltCat":"VFR"},{"icaoId":"KHII","receiptTime":"2026-04-09T21:42:06.491Z","obsTime":1775770500,"reportTime":"2026-04-09T21:35:00.000Z","temp":34,"dewp":-2,"wdir":210,"wspd":11,"visib":"10+","altim":1008.9,"qcField":6,"metarType":"METAR","rawOb":"METAR KHII 092135Z AUTO 21011KT 160V220 10SM CLR 34/M02 A2979 RMK AO2","lat":34.5659,"lon":-114.3522,"elev":241,"name":"Lake Havasu City Arpt, AZ, US","cover":"CLR","clouds":[],"fltCat":"VFR"},{"icaoId":"KFLG","receiptTime":"2026-04-09T21:00:34.551Z","obsTime":1775768220,"reportTime":"2026-04-09T21:00:00.000Z","temp":18.9,"dewp":-7.2,"wdir":230,"wspd":18,"wgst":31,"visib":"10+","altim":1021.1,"slp":1013.8,"qcField":4,"presTend":-1.1,"metarType":"METAR","rawOb":"METAR KFLG 092057Z 23018G31KT 10SM CLR 19/M07 A3015 RMK AO2 PK WND 22034/2004 SLP138 T01891072 56011","lat":35.1443,"lon":-111.6664,"elev":2134,"name":"Flagstaff/Pulliam Arpt, AZ, US","cover":"CLR","clouds":[],"fltCat":"VFR"},{"icaoId":"KNYL","receiptTime":"2026-04-09T21:00:32.444Z","obsTime":1775768220,"reportTime":"2026-04-09T21:00:00.000Z","temp":32.8,"dewp":4.4,"wdir":210,"wspd":5,"visib":"10+","altim":1010.2,"slp":1009.7,"qcField":4,"presTend":-1.5,"metarType":"METAR","rawOb":"METAR KNYL 092057Z 21005KT 10SM FEW150 SCT200 33/04 A2983 RMK AO2 SLP097 T03280044 58015","lat":32.66,"lon":-114.6078,"elev":58,"name":"Yuma , AZ, US","cover":"SCT","clouds":[{"cover":"FEW","base":15000},{"cover":"SCT","base":20000}],"fltCat":"VFR"},{"icaoId":"KCGZ","receiptTime":"2026-04-09T20:58:39.407Z","obsTime":1775768160,"reportTime":"2026-04-09T21:00:00.000Z","temp":33.3,"dewp":-2.2,"wdir":0,"wspd":0,"visib":6,"altim":1011.6,"slp":1010.1,"qcField":14,"wxString":"HZ","presTend":-1.9,"metarType":"METAR","rawOb":"METAR KCGZ 092056Z AUTO 00000KT 6SM HZ CLR 33/M02 A2987 RMK AO2 SLP101 6//// T03331022 57019 $","lat":32.9531,"lon":-111.7725,"elev":444,"name":"Casa Granda Muni, AZ, US","cover":"CLR","clouds":[],"fltCat":"VFR"},{"icaoId":"KINW","receiptTime":"2026-04-09T21:00:20.655Z","obsTime":1775768160,"reportTime":"2026-04-09T21:00:00.000Z","temp":26.7,"dewp":-5,"wdir":220,"wspd":12,"wgst":22,"visib":"10+","altim":1016.7,"slp":1010.4,"qcField":6,"presTend":-1.9,"metarType":"METAR","rawOb":"METAR KINW 092056Z AUTO 22012G22KT 10SM CLR 27/M05 A3002 RMK AO2 SLP104 T02671050 56019","lat":35.0279,"lon":-110.7221,"elev":1492,"name":"Winslow/Lindberg Rgnl, AZ, US","cover":"CLR","clouds":[],"fltCat":"VFR"},{"icaoId":"KDUG","receiptTime":"2026-04-09T21:02:13.812Z","obsTime":1775768160,"reportTime":"2026-04-09T21:00:00.000Z","temp":28.9,"dewp":-2.8,"wdir":"VRB","wspd":4,"visib":"10+","altim":1016.3,"slp":1010.1,"qcField":38,"presTend":-2.1,"metarType":"METAR","rawOb":"METAR KDUG 092056Z AUTO VRB04KT 10SM CLR 29/M03 A3001 RMK AO2 SLP101 T02891028 57021 TSNO","lat":31.4725,"lon":-109.6022,"elev":1260,"name":"Douglas/Bisbee Intl, AZ, US","cover":"CLR","clouds":[],"fltCat":"VFR"},{"icaoId":"KLUF","receiptTime":"2026-04-09T21:02:09.921Z","obsTime":1775768100,"reportTime":"2026-04-09T21:00:00.000Z","temp":33.6,"dewp":-5.2,"wdir":200,"wspd":6,"visib":"10+","altim":1010.2,"slp":1008.7,"qcField":12,"presTend":-1.7,"metarType":"METAR","rawOb":"METAR KLUF 092055Z 20006KT 10SM FEW150 SCT200 34/M05 A2983 RMK AO2A SLP087 T03361052 57017 $","lat":33.538,"lon":-112.38,"elev":333,"name":"Phoenix/Luke AFB, AZ, US","cover":"SCT","clouds":[{"cover":"FEW","base":15000},{"cover":"SCT","base":20000}],"fltCat":"VFR"},{"icaoId":"KSJN","receiptTime":"2026-04-09T20:58:17.544Z","obsTime":1775768040,"reportTime":"2026-04-09T21:00:00.000Z","temp":25.6,"dewp":-5.6,"wdir":280,"wspd":12,"wgst":20,"visib":"10+","altim":1017.4,"slp":1009.4,"qcField":6,"presTend":-2.1,"metarType":"METAR","rawOb":"METAR KSJN 092054Z AUTO 28012G20KT 10SM FEW120 26/M06 A3004 RMK AO2 SLP094 T02561056 57021","lat":34.5184,"lon":-109.3801,"elev":1747,"name":"St Johns Ind Arpt, AZ, US","cover":"FEW","clouds":[{"cover":"FEW","base":12000}],"fltCat":"VFR"},{"icaoId":"KGCN","receiptTime":"2026-04-09T20:58:26.509Z","obsTime":1775768040,"reportTime":"2026-04-09T21:00:00.000Z","temp":20.6,"dewp":-5,"wdir":240,"wspd":13,"wgst":28,"visib":"10+","altim":1020.1,"slp":1013.7,"qcField":4,"presTend":-1,"metarType":"METAR","rawOb":"METAR KGCN 092054Z 24013G28KT 10SM CLR 21/M05 A3012 RMK AO2 PK WND 24028/2049 SLP137 T02061050 56010","lat":35.9458,"lon":-112.1554,"elev":1993,"name":"Grand Canyon Park Arpt, AZ, US","cover":"CLR","clouds":[],"fltCat":"VFR"},{"icaoId":"KOLS","receiptTime":"2026-04-09T20:58:26.551Z","obsTime":1775768040,"reportTime":"2026-04-09T21:00:00.000Z","temp":28.3,"dewp":-1.1,"wdir":270,"wspd":7,"visib":"10+","altim":1016.3,"slp":1009.8,"qcField":6,"presTend":-1.6,"metarType":"METAR","rawOb":"METAR KOLS 092054Z AUTO 27007KT 220V310 10SM FEW110 28/M01 A3001 RMK AO2 SLP098 T02831011 56016","lat":31.4208,"lon":-110.8465,"elev":1194,"name":"Nogales Intl, AZ, US","cover":"FEW","clouds":[{"cover":"FEW","base":11000}],"fltCat":"VFR"},{"icaoId":"KFFZ","receiptTime":"2026-04-09T20:58:27.703Z","obsTime":1775768040,"reportTime":"2026-04-09T21:00:00.000Z","temp":31.7,"dewp":-3.3,"wdir":0,"wspd":0,"visib":"10+","altim":1011.6,"slp":1009.1,"qcField":4,"presTend":-1.6,"metarType":"METAR","rawOb":"METAR KFFZ 092054Z 00000KT 10SM CLR 32/M03 A2987 RMK AO2 SLP091 T03171033 57016","lat":33.4659,"lon":-111.7212,"elev":420,"name":"Mesa/Falcon Fld, AZ, US","cover":"CLR","clouds":[],"fltCat":"VFR"},{"icaoId":"KPRC","receiptTime":"2026-04-09T20:56:34.248Z","obsTime":1775767980,"reportTime":"2026-04-09T21:00:00.000Z","temp":24.4,"dewp":-7.2,"wdir":210,"wspd":12,"wgst":24,"visib":"10+","altim":1017.7,"slp":1010.7,"qcField":4,"presTend":-1,"metarType":"METAR","rawOb":"METAR KPRC 092053Z 21012G24KT 10SM CLR 24/M07 A3005 RMK AO2 SLP107 T02441072 56010","lat":34.6491,"lon":-112.4223,"elev":1528,"name":"Prescott/Love Fld, AZ, US","cover":"CLR","clouds":[],"fltCat":"VFR"},{"icaoId":"KSDL","receiptTime":"2026-04-09T20:56:34.553Z","obsTime":1775767980,"reportTime":"2026-04-09T21:00:00.000Z","temp":32.8,"dewp":-3.3,"wdir":190,"wspd":7,"visib":"10+","altim":1012.3,"slp":1009.7,"qcField":4,"presTend":-1.6,"metarType":"METAR","rawOb":"METAR KSDL 092053Z 19007KT 160V230 10SM CLR 33/M03 A2989 RMK AO2 SLP097 T03281033 58016","lat":33.6123,"lon":-111.9232,"elev":438,"name":"Scottsdale Muni, AZ, US","cover":"CLR","clouds":[],"fltCat":"VFR"},{"icaoId":"KTUS","receiptTime":"2026-04-09T20:56:36.757Z","obsTime":1775767980,"reportTime":"2026-04-09T21:00:00.000Z","temp":31.7,"dewp":-3.9,"wdir":290,"wspd":8,"visib":"10+","altim":1014,"slp":1009.1,"qcField":4,"presTend":-2.2,"metarType":"METAR","rawOb":"METAR KTUS 092053Z 29008KT 10SM CLR 32/M04 A2994 RMK AO2 SLP091 T03171039 56022","lat":32.1315,"lon":-110.9564,"elev":776,"name":"Tucson Intl Arpt, AZ, US","cover":"CLR","clouds":[],"fltCat":"VFR"},{"icaoId":"KDVT","receiptTime":"2026-04-09T20:56:28.238Z","obsTime":1775767980,"reportTime":"2026-04-09T21:00:00.000Z","temp":33.3,"dewp":-3.3,"wdir":250,"wspd":12,"wgst":16,"visib":"10+","altim":1011.9,"slp":1009.4,"qcField":4,"presTend":-1.6,"metarType":"METAR","rawOb":"METAR KDVT 092053Z 25012G16KT 10SM CLR 33/M03 A2988 RMK AO2 SLP094 T03331033 56016","lat":33.6902,"lon":-112.0662,"elev":454,"name":"Phoenix/Deer Valley Arpt, AZ, US","cover":"CLR","clouds":[],"fltCat":"VFR"},{"icaoId":"KPGA","receiptTime":"2026-04-09T20:56:36.591Z","obsTime":1775767980,"reportTime":"2026-04-09T21:00:00.000Z","temp":27.2,"dewp":-7.8,"wdir":160,"wspd":11,"wgst":23,"visib":"10+","altim":1014,"slp":1008,"qcField":6,"presTend":-2.4,"metarType":"METAR","rawOb":"METAR KPGA 092053Z AUTO 16011G23KT 10SM CLR 27/M08 A2994 RMK AO2 SLP080 T02721078 57024","lat":36.9211,"lon":-111.4487,"elev":1310,"name":"Page Muni, AZ, US","cover":"CLR","clouds":[],"fltCat":"VFR"},{"icaoId":"KIGM","receiptTime":"2026-04-09T20:54:13.577Z","obsTime":1775767860,"reportTime":"2026-04-09T21:00:00.000Z","temp":28.3,"dewp":-3.3,"wdir":210,"wspd":20,"wgst":35,"visib":"10+","altim":1014,"slp":1007.1,"qcField":6,"presTend":-0.8,"metarType":"METAR","rawOb":"METAR KIGM 092051Z AUTO 21020G35KT 10SM CLR 28/M03 A2994 RMK AO2 PK WND 22036/2033 SLP071 T02831033 58008","lat":35.2575,"lon":-113.9341,"elev":1045,"name":"Kingman Arpt, AZ, US","cover":"CLR","clouds":[],"fltCat":"VFR"},{"icaoId":"KSAD","receiptTime":"2026-04-09T20:54:15.040Z","obsTime":1775767860,"reportTime":"2026-04-09T21:00:00.000Z","temp":31.1,"dewp":-3.9,"wdir":210,"wspd":9,"visib":"10+","altim":1013.3,"slp":1008.5,"qcField":6,"presTend":-2.4,"metarType":"METAR","rawOb":"METAR KSAD 092051Z AUTO 21009KT 10SM CLR 31/M04 A2992 RMK AO2 SLP085 T03111039 56024","lat":32.8565,"lon":-109.636,"elev":937,"name":"Safford Rgnl, AZ, US","cover":"CLR","clouds":[],"fltCat":"VFR"},{"icaoId":"KPHX","receiptTime":"2026-04-09T20:54:14.897Z","obsTime":1775767860,"reportTime":"2026-04-09T21:00:00.000Z","temp":32.8,"dewp":-2.8,"wdir":340,"wspd":4,"visib":"10+","altim":1010.6,"slp":1008.7,"qcField":4,"presTend":-1.8,"metarType":"METAR","rawOb":"METAR KPHX 092051Z 34004KT 10SM FEW110 BKN270 33/M03 A2984 RMK AO2 SLP087 T03281028 56018","lat":33.4278,"lon":-112.0037,"elev":338,"name":"Phoenix/Sky Harbor Intl, AZ, US","cover":"BKN","clouds":[{"cover":"FEW","base":11000},{"cover":"BKN","base":27000}],"fltCat":"VFR"},{"icaoId":"KRYN","receiptTime":"2026-04-09T20:46:53.760Z","obsTime":1775767500,"reportTime":"2026-04-09T21:00:00.000Z","temp":34,"dewp":-6,"wdir":190,"wspd":10,"visib":"10+","altim":1012.6,"qcField":0,"metarType":"METAR","rawOb":"METAR KRYN 092045Z 19010KT 10SM CLR 34/M06 A2990","lat":32.1418,"lon":-111.1767,"elev":731,"name":"Tucson/Ryan Fld, AZ, US","cover":"CLR","clouds":[],"fltCat":"VFR"}]