[{"icaoId":"KCHD","receiptTime":"2026-04-10T11:18:22.934Z","obsTime":1775819700,"reportTime":"2026-04-10T11:15:00.000Z","temp":19.8,"dewp":0.8,"wdir":90,"wspd":4,"visib":"10+","altim":1011.6,"qcField":14,"metarType":"METAR","rawOb":"METAR KCHD 101115Z AUTO 09004KT 10SM CLR 20/01 A2987 RMK AO2 T01980008 $","lat":33.2669,"lon":-111.8086,"elev":378,"name":"Chandler Muni, AZ, US","cover":"CLR","clouds":[],"fltCat":"VFR"},{"icaoId":"KSEZ","receiptTime":"2026-04-10T11:21:09.107Z","obsTime":1775819700,"reportTime":"2026-04-10T11:15:00.000Z","temp":15,"dewp":-4,"wdir":0,"wspd":0,"visib":"10+","altim":1016.7,"qcField":6,"metarType":"METAR","rawOb":"METAR KSEZ 101115Z AUTO 00000KT 10SM CLR 15/M04 A3002 RMK AO2","lat":34.8467,"lon":-111.7884,"elev":1455,"name":"Sedona Arpt, AZ, US","cover":"CLR","clouds":[],"fltCat":"VFR"},{"icaoId":"KSOW","receiptTime":"2026-04-10T11:18:25.446Z","obsTime":1775819700,"reportTime":"2026-04-10T11:15:00.000Z","temp":8,"dewp":-4,"wdir":160,"wspd":4,"visib":6,"altim":1021.1,"qcField":6,"wxString":"HZ","metarType":"METAR","rawOb":"METAR KSOW 101115Z AUTO 16004KT 6SM HZ CLR 08/M04 A3015 RMK AO2","lat":34.2686,"lon":-110.0019,"elev":1954,"name":"Show Low Muni, AZ, US","cover":"CLR","clouds":[],"fltCat":"VFR"},{"icaoId":"KIWA","receiptTime":"2026-04-10T11:21:08.783Z","obsTime":1775819700,"reportTime":"2026-04-10T11:15:00.000Z","temp":19.4,"dewp":-2.8,"wdir":100,"wspd":8,"visib":"10+","altim":1012.3,"qcField":6,"metarType":"METAR","rawOb":"METAR KIWA 101115Z AUTO 10008KT 10SM CLR 19/M03 A2989 RMK AO2 T01941028","lat":33.3008,"lon":-111.6437,"elev":420,"name":"Phoenix/Mesa Gateway Arpt, AZ, US","cover":"CLR","clouds":[],"fltCat":"VFR"},{"icaoId":"KHII","receiptTime":"2026-04-10T11:20:43.399Z","obsTime":1775819700,"reportTime":"2026-04-10T11:15:00.000Z","temp":24,"dewp":5,"wdir":0,"wspd":0,"visib":"10+","altim":1009.9,"qcField":6,"metarType":"METAR","rawOb":"METAR KHII 101115Z AUTO 00000KT 10SM CLR 24/05 A2982 RMK AO2","lat":34.5659,"lon":-114.3522,"elev":241,"name":"Lake Havasu City Arpt, AZ, US","cover":"CLR","clouds":[],"fltCat":"VFR"},{"icaoId":"KIFP","receiptTime":"2026-04-10T11:21:08.964Z","obsTime":1775819700,"reportTime":"2026-04-10T11:15:00.000Z","temp":24,"dewp":5,"wdir":230,"wspd":3,"visib":"10+","altim":1009.2,"qcField":6,"metarType":"METAR","rawOb":"METAR KIFP 101115Z AUTO 23003KT 10SM CLR 24/05 A2980 RMK AO2","lat":35.1487,"lon":-114.5611,"elev":210,"name":"Bullhead City Intl, AZ, US","cover":"CLR","clouds":[],"fltCat":"VFR"},{"icaoId":"KNYL","receiptTime":"2026-04-10T11:01:08.729Z","obsTime":1775818620,"reportTime":"2026-04-10T11:00:00.000Z","temp":22.2,"dewp":7.2,"wdir":260,"wspd":4,"visib":"10+","altim":1010.6,"slp":1010,"qcField":6,"metarType":"METAR","rawOb":"METAR KNYL 101057Z AUTO 26004KT 10SM CLR 22/07 A2984 RMK AO2 SLP100 T02220072","lat":32.66,"lon":-114.6078,"elev":58,"name":"Yuma , AZ, US","cover":"CLR","clouds":[],"fltCat":"VFR"},{"icaoId":"KFLG","receiptTime":"2026-04-10T11:01:09.077Z","obsTime":1775818620,"reportTime":"2026-04-10T11:00:00.000Z","temp":3.3,"dewp":-5.6,"wdir":0,"wspd":0,"visib":"10+","altim":1020.1,"slp":1012.7,"qcField":14,"metarType":"METAR","rawOb":"METAR KFLG 101057Z AUTO 00000KT 10SM CLR 03/M06 A3012 RMK AO2 SLP127 T00331056 $","lat":35.1443,"lon":-111.6664,"elev":2134,"name":"Flagstaff/Pulliam Arpt, AZ, US","cover":"CLR","clouds":[],"fltCat":"VFR"},{"icaoId":"KINW","receiptTime":"2026-04-10T11:00:47.517Z","obsTime":1775818560,"reportTime":"2026-04-10T11:00:00.000Z","temp":10,"dewp":-0.6,"wdir":130,"wspd":8,"visib":"10+","altim":1018,"slp":1012.5,"qcField":6,"metarType":"METAR","rawOb":"METAR KINW 101056Z AUTO 13008KT 10SM CLR 10/M01 A3006 RMK AO2 SLP125 T01001006","lat":35.0279,"lon":-110.7221,"elev":1492,"name":"Winslow/Lindberg Rgnl, AZ, US","cover":"CLR","clouds":[],"fltCat":"VFR"},{"icaoId":"KCGZ","receiptTime":"2026-04-10T10:58:23.262Z","obsTime":1775818560,"reportTime":"2026-04-10T11:00:00.000Z","temp":17.8,"dewp":-3.3,"wdir":0,"wspd":0,"visib":"10+","altim":1012.3,"slp":1010.7,"qcField":14,"metarType":"METAR","rawOb":"METAR KCGZ 101056Z AUTO 00000KT 10SM CLR 18/M03 A2989 RMK AO2 SLP107 T01781033 $","lat":32.9531,"lon":-111.7725,"elev":444,"name":"Casa Granda Muni, AZ, US","cover":"CLR","clouds":[],"fltCat":"VFR"},{"icaoId":"KDUG","receiptTime":"2026-04-10T11:02:17.029Z","obsTime":1775818560,"reportTime":"2026-04-10T11:00:00.000Z","temp":12.2,"dewp":-2.8,"wdir":360,"wspd":9,"visib":"10+","altim":1017.4,"slp":1011.2,"qcField":38,"metarType":"METAR","rawOb":"METAR KDUG 101056Z AUTO 36009KT 10SM CLR 12/M03 A3004 RMK AO2 SLP112 T01221028 TSNO","lat":31.4725,"lon":-109.6022,"elev":1260,"name":"Douglas/Bisbee Intl, AZ, US","cover":"CLR","clouds":[],"fltCat":"VFR"},{"icaoId":"KLUF","receiptTime":"2026-04-10T11:12:07.959Z","obsTime":1775818500,"reportTime":"2026-04-10T11:00:00.000Z","temp":19.9,"dewp":-0.7,"wdir":0,"wspd":0,"visib":"10+","altim":1010.2,"slp":1008.8,"qcField":46,"metarType":"METAR","rawOb":"METAR KLUF 101055Z AUTO 00000KT 10SM CLR 20/M01 A2983 RMK AO2 SLP088 T01991007 TSNO $","lat":33.538,"lon":-112.38,"elev":333,"name":"Phoenix/Luke AFB, AZ, US","cover":"CLR","clouds":[],"fltCat":"VFR"},{"icaoId":"KGCN","receiptTime":"2026-04-10T10:58:11.375Z","obsTime":1775818440,"reportTime":"2026-04-10T11:00:00.000Z","temp":3.3,"dewp":-3.9,"wdir":0,"wspd":0,"visib":"10+","altim":1019,"slp":1012.5,"qcField":6,"metarType":"METAR","rawOb":"METAR KGCN 101054Z AUTO 00000KT 10SM CLR 03/M04 A3009 RMK AO2 SLP125 T00331039","lat":35.9458,"lon":-112.1554,"elev":1993,"name":"Grand Canyon Park Arpt, AZ, US","cover":"CLR","clouds":[],"fltCat":"VFR"},{"icaoId":"KSJN","receiptTime":"2026-04-10T10:58:08.916Z","obsTime":1775818440,"reportTime":"2026-04-10T11:00:00.000Z","temp":8.9,"dewp":-2.8,"wdir":180,"wspd":3,"visib":"10+","altim":1019,"slp":1011.8,"qcField":6,"metarType":"METAR","rawOb":"METAR KSJN 101054Z AUTO 18003KT 10SM CLR 09/M03 A3009 RMK AO2 SLP118 T00891028","lat":34.5184,"lon":-109.3801,"elev":1747,"name":"St Johns Ind Arpt, AZ, US","cover":"CLR","clouds":[],"fltCat":"VFR"},{"icaoId":"KOLS","receiptTime":"2026-04-10T10:58:11.403Z","obsTime":1775818440,"reportTime":"2026-04-10T11:00:00.000Z","temp":12.8,"dewp":-0.6,"wdir":250,"wspd":4,"visib":"10+","altim":1016.7,"slp":1010.7,"qcField":6,"metarType":"METAR","rawOb":"METAR KOLS 101054Z AUTO 25004KT 10SM CLR 13/M01 A3002 RMK AO2 SLP107 T01281006","lat":31.4208,"lon":-110.8465,"elev":1194,"name":"Nogales Intl, AZ, US","cover":"CLR","clouds":[],"fltCat":"VFR"},{"icaoId":"KFFZ","receiptTime":"2026-04-10T10:58:24.905Z","obsTime":1775818440,"reportTime":"2026-04-10T11:00:00.000Z","temp":21.7,"dewp":-1.1,"wdir":100,"wspd":6,"visib":"10+","altim":1011.3,"slp":1008.7,"qcField":38,"metarType":"METAR","rawOb":"METAR KFFZ 101054Z AUTO 10006KT 10SM CLR 22/M01 A2986 RMK AO2 SLP087 T02171011 TSNO","lat":33.4659,"lon":-111.7212,"elev":420,"name":"Mesa/Falcon Fld, AZ, US","cover":"CLR","clouds":[],"fltCat":"VFR"},{"icaoId":"KSDL","receiptTime":"2026-04-10T10:56:27.118Z","obsTime":1775818380,"reportTime":"2026-04-10T11:00:00.000Z","temp":21.1,"dewp":0,"wdir":0,"wspd":0,"visib":"10+","altim":1011.6,"slp":1009.2,"qcField":4,"metarType":"METAR","rawOb":"METAR KSDL 101053Z 00000KT 10SM CLR 21/00 A2987 RMK AO2 SLP092 T02110000","lat":33.6123,"lon":-111.9232,"elev":438,"name":"Scottsdale Muni, AZ, US","cover":"CLR","clouds":[],"fltCat":"VFR"},{"icaoId":"KTUS","receiptTime":"2026-04-10T10:56:29.306Z","obsTime":1775818380,"reportTime":"2026-04-10T11:00:00.000Z","temp":19.4,"dewp":-1.1,"wdir":0,"wspd":0,"visib":"10+","altim":1014.6,"slp":1010.2,"qcField":4,"metarType":"METAR","rawOb":"METAR KTUS 101053Z 00000KT 10SM CLR 19/M01 A2996 RMK AO2 SLP102 T01941011","lat":32.1315,"lon":-110.9564,"elev":776,"name":"Tucson Intl Arpt, AZ, US","cover":"CLR","clouds":[],"fltCat":"VFR"},{"icaoId":"KDVT","receiptTime":"2026-04-10T10:56:30.804Z","obsTime":1775818380,"reportTime":"2026-04-10T11:00:00.000Z","temp":20,"dewp":-1.7,"wdir":10,"wspd":3,"visib":"10+","altim":1011.6,"slp":1009.2,"qcField":6,"metarType":"METAR","rawOb":"METAR KDVT 101053Z AUTO 01003KT 10SM CLR 20/M02 A2987 RMK AO2 SLP092 T02001017","lat":33.6902,"lon":-112.0662,"elev":454,"name":"Phoenix/Deer Valley Arpt, AZ, US","cover":"CLR","clouds":[],"fltCat":"VFR"},{"icaoId":"KPRC","receiptTime":"2026-04-10T10:56:24.927Z","obsTime":1775818380,"reportTime":"2026-04-10T11:00:00.000Z","temp":10.6,"dewp":-2.8,"wdir":190,"wspd":7,"visib":"10+","altim":1017,"slp":1010.5,"qcField":6,"metarType":"METAR","rawOb":"METAR KPRC 101053Z AUTO 19007KT 10SM CLR 11/M03 A3003 RMK AO2 SLP105 T01061028","lat":34.6491,"lon":-112.4223,"elev":1528,"name":"Prescott/Love Fld, AZ, US","cover":"CLR","clouds":[],"fltCat":"VFR"},{"icaoId":"KPGA","receiptTime":"2026-04-10T10:56:25.452Z","obsTime":1775818380,"reportTime":"2026-04-10T11:00:00.000Z","temp":18.3,"dewp":-5,"wdir":180,"wspd":6,"visib":"10+","altim":1014.3,"slp":1008.3,"qcField":6,"metarType":"METAR","rawOb":"METAR KPGA 101053Z AUTO 18006KT 10SM CLR 18/M05 A2995 RMK AO2 SLP083 T01831050","lat":36.9211,"lon":-111.4487,"elev":1310,"name":"Page Muni, AZ, US","cover":"CLR","clouds":[],"fltCat":"VFR"},{"icaoId":"KPHX","receiptTime":"2026-04-10T10:54:13.970Z","obsTime":1775818260,"reportTime":"2026-04-10T11:00:00.000Z","temp":22.2,"dewp":0.6,"wdir":90,"wspd":5,"visib":"10+","altim":1010.6,"slp":1008.5,"qcField":4,"metarType":"METAR","rawOb":"METAR KPHX 101051Z 09005KT 10SM BKN250 22/01 A2984 RMK AO2 SLP085 T02220006","lat":33.4278,"lon":-112.0037,"elev":338,"name":"Phoenix/Sky Harbor Intl, AZ, US","cover":"BKN","clouds":[{"cover":"BKN","base":25000}],"fltCat":"VFR"},{"icaoId":"KIGM","receiptTime":"2026-04-10T10:54:13.750Z","obsTime":1775818260,"reportTime":"2026-04-10T11:00:00.000Z","temp":16.7,"dewp":-0.6,"wdir":220,"wspd":9,"visib":"10+","altim":1013.3,"slp":1006.8,"qcField":6,"metarType":"METAR","rawOb":"METAR KIGM 101051Z AUTO 22009KT 10SM CLR 17/M01 A2992 RMK AO2 SLP068 T01671006","lat":35.2575,"lon":-113.9341,"elev":1045,"name":"Kingman Arpt, AZ, US","cover":"CLR","clouds":[],"fltCat":"VFR"},{"icaoId":"KSAD","receiptTime":"2026-04-10T10:54:14.091Z","obsTime":1775818260,"reportTime":"2026-04-10T11:00:00.000Z","temp":19.4,"dewp":-5,"wdir":300,"wspd":8,"visib":"10+","altim":1014.3,"slp":1008.9,"qcField":6,"metarType":"METAR","rawOb":"METAR KSAD 101051Z AUTO 30008KT 10SM CLR 19/M05 A2995 RMK AO2 SLP089 T01941050","lat":32.8565,"lon":-109.636,"elev":937,"name":"Safford Rgnl, AZ, US","cover":"CLR","clouds":[],"fltCat":"VFR"}]