[{"icaoId":"KIWA","receiptTime":"2026-04-09T16:51:48.015Z","obsTime":1775753400,"reportTime":"2026-04-09T17:00:00.000Z","temp":28,"dewp":-2,"wdir":170,"wspd":5,"visib":"10+","altim":1014,"qcField":0,"metarType":"METAR","rawOb":"METAR KIWA 091650Z 17005KT 10SM CLR 28/M02 A2994","lat":33.3008,"lon":-111.6437,"elev":420,"name":"Phoenix/Mesa Gateway Arpt, AZ, US","cover":"CLR","clouds":[],"fltCat":"VFR"},{"icaoId":"KGEU","receiptTime":"2026-04-09T16:47:42.735Z","obsTime":1775753220,"reportTime":"2026-04-09T17:00:00.000Z","temp":28,"dewp":-2,"wdir":80,"wspd":6,"visib":"10+","altim":1011.9,"qcField":0,"metarType":"METAR","rawOb":"METAR KGEU 091647Z 08006KT 10SM CLR 28/M02 A2988","lat":33.528,"lon":-112.293,"elev":319,"name":"Glendale Muni, AZ, US","cover":"CLR","clouds":[],"fltCat":"VFR"},{"icaoId":"KIFP","receiptTime":"2026-04-09T16:49:42.947Z","obsTime":1775753220,"reportTime":"2026-04-09T17:00:00.000Z","temp":27,"dewp":-3,"wdir":210,"wspd":6,"visib":"10+","altim":1010.2,"qcField":0,"metarType":"METAR","rawOb":"METAR KIFP 091647Z 21006KT 10SM CLR 27/M03 A2983","lat":35.1487,"lon":-114.5611,"elev":210,"name":"Bullhead City Intl, AZ, US","cover":"CLR","clouds":[],"fltCat":"VFR"},{"icaoId":"KCHD","receiptTime":"2026-04-09T16:49:41.675Z","obsTime":1775753220,"reportTime":"2026-04-09T17:00:00.000Z","temp":28,"dewp":-1,"wdir":"VRB","wspd":4,"visib":"10+","altim":1013.3,"qcField":0,"metarType":"METAR","rawOb":"METAR KCHD 091647Z VRB04KT 10SM FEW250 28/M01 A2992","lat":33.2669,"lon":-111.8086,"elev":378,"name":"Chandler Muni, AZ, US","cover":"FEW","clouds":[{"cover":"FEW","base":25000}],"fltCat":"VFR"},{"icaoId":"KGYR","receiptTime":"2026-04-09T16:47:42.756Z","obsTime":1775753220,"reportTime":"2026-04-09T17:00:00.000Z","temp":28,"dewp":2,"wdir":"VRB","wspd":5,"visib":"10+","altim":1013,"qcField":0,"metarType":"METAR","rawOb":"METAR KGYR 091647Z VRB05KT 10SM SCT250 28/02 A2991","lat":33.428,"lon":-112.368,"elev":292,"name":"Phoenix/Goodyear Muni, AZ, US","cover":"SCT","clouds":[{"cover":"SCT","base":25000}],"fltCat":"VFR"},{"icaoId":"KRYN","receiptTime":"2026-04-09T16:46:11.036Z","obsTime":1775753100,"reportTime":"2026-04-09T17:00:00.000Z","temp":29,"dewp":-5,"wdir":70,"wspd":5,"visib":"10+","altim":1015,"qcField":0,"metarType":"METAR","rawOb":"METAR KRYN 091645Z 07005KT 10SM CLR 29/M05 A2997","lat":32.1418,"lon":-111.1767,"elev":731,"name":"Tucson/Ryan Fld, AZ, US","cover":"CLR","clouds":[],"fltCat":"VFR"},{"icaoId":"KSOW","receiptTime":"2026-04-09T16:38:19.668Z","obsTime":1775752500,"reportTime":"2026-04-09T16:35:00.000Z","temp":19,"dewp":-5,"wdir":0,"wspd":0,"visib":"10+","altim":1022.4,"qcField":6,"metarType":"METAR","rawOb":"METAR KSOW 091635Z AUTO 00000KT 10SM CLR 19/M05 A3019 RMK AO2","lat":34.2686,"lon":-110.0019,"elev":1954,"name":"Show Low Muni, AZ, US","cover":"CLR","clouds":[],"fltCat":"VFR"},{"icaoId":"KSEZ","receiptTime":"2026-04-09T16:38:19.806Z","obsTime":1775752500,"reportTime":"2026-04-09T16:35:00.000Z","temp":23,"dewp":-3,"wdir":140,"wspd":6,"visib":"10+","altim":1019,"qcField":6,"metarType":"METAR","rawOb":"METAR KSEZ 091635Z AUTO 14006KT 10SM CLR 23/M03 A3009 RMK AO2","lat":34.8467,"lon":-111.7884,"elev":1455,"name":"Sedona Arpt, AZ, US","cover":"CLR","clouds":[],"fltCat":"VFR"},{"icaoId":"KHII","receiptTime":"2026-04-09T16:42:08.438Z","obsTime":1775752500,"reportTime":"2026-04-09T16:35:00.000Z","temp":26,"dewp":1,"wdir":0,"wspd":0,"visib":"10+","altim":1010.9,"qcField":6,"metarType":"METAR","rawOb":"METAR KHII 091635Z AUTO 00000KT 10SM CLR 26/01 A2985 RMK AO2","lat":34.5659,"lon":-114.3522,"elev":241,"name":"Lake Havasu City Arpt, AZ, US","cover":"CLR","clouds":[],"fltCat":"VFR"},{"icaoId":"KNYL","receiptTime":"2026-04-09T16:00:05.424Z","obsTime":1775750220,"reportTime":"2026-04-09T16:00:00.000Z","temp":23.9,"dewp":3.3,"wdir":250,"wspd":5,"visib":"10+","altim":1010.9,"slp":1010.6,"qcField":4,"metarType":"METAR","rawOb":"METAR KNYL 091557Z 25005KT 10SM FEW150 SCT220 24/03 A2985 RMK AO2 SLP106 T02390033","lat":32.66,"lon":-114.6078,"elev":58,"name":"Yuma , AZ, US","cover":"SCT","clouds":[{"cover":"FEW","base":15000},{"cover":"SCT","base":22000}],"fltCat":"VFR"},{"icaoId":"KFLG","receiptTime":"2026-04-09T16:02:20.818Z","obsTime":1775750220,"reportTime":"2026-04-09T16:00:00.000Z","temp":16.1,"dewp":-5,"wdir":230,"wspd":9,"visib":"10+","altim":1021.8,"slp":1013.4,"qcField":12,"metarType":"METAR","rawOb":"METAR KFLG 091557Z 23009KT 10SM CLR 16/M05 A3017 RMK AO2 SLP134 T01611050 $","lat":35.1443,"lon":-111.6664,"elev":2134,"name":"Flagstaff/Pulliam Arpt, AZ, US","cover":"CLR","clouds":[],"fltCat":"VFR"},{"icaoId":"KCGZ","receiptTime":"2026-04-09T15:58:26.319Z","obsTime":1775750160,"reportTime":"2026-04-09T16:00:00.000Z","temp":25.6,"dewp":-1.7,"wdir":"VRB","wspd":4,"visib":"10+","altim":1013.6,"slp":1012.1,"qcField":14,"metarType":"METAR","rawOb":"METAR KCGZ 091556Z AUTO VRB04KT 10SM CLR 26/M02 A2993 RMK AO2 SLP121 T02561017 $","lat":32.9531,"lon":-111.7725,"elev":444,"name":"Casa Granda Muni, AZ, US","cover":"CLR","clouds":[],"fltCat":"VFR"},{"icaoId":"KDUG","receiptTime":"2026-04-09T16:02:20.846Z","obsTime":1775750160,"reportTime":"2026-04-09T16:00:00.000Z","temp":21.7,"dewp":-1.7,"wdir":0,"wspd":0,"visib":"10+","altim":1018.7,"slp":1012.7,"qcField":38,"metarType":"METAR","rawOb":"METAR KDUG 091556Z AUTO 00000KT 10SM CLR 22/M02 A3008 RMK AO2 SLP127 T02171017 TSNO","lat":31.4725,"lon":-109.6022,"elev":1260,"name":"Douglas/Bisbee Intl, AZ, US","cover":"CLR","clouds":[],"fltCat":"VFR"},{"icaoId":"KINW","receiptTime":"2026-04-09T16:02:18.035Z","obsTime":1775750160,"reportTime":"2026-04-09T16:00:00.000Z","temp":16.7,"dewp":0.6,"wdir":130,"wspd":7,"visib":"10+","altim":1019.4,"slp":1014.2,"qcField":6,"metarType":"METAR","rawOb":"METAR KINW 091556Z AUTO 13007KT 10SM CLR 17/01 A3010 RMK AO2 SLP142 T01670006","lat":35.0279,"lon":-110.7221,"elev":1492,"name":"Winslow/Lindberg Rgnl, AZ, US","cover":"CLR","clouds":[],"fltCat":"VFR"},{"icaoId":"KLUF","receiptTime":"2026-04-09T16:06:04.537Z","obsTime":1775750100,"reportTime":"2026-04-09T16:00:00.000Z","temp":24.7,"dewp":-1.2,"wdir":0,"wspd":0,"visib":"10+","altim":1012.3,"slp":1010.9,"qcField":44,"metarType":"METAR","rawOb":"METAR KLUF 091555Z 00000KT 10SM FEW220 25/M01 A2989 RMK AO2A SLP109 T02471012 TSNO $","lat":33.538,"lon":-112.38,"elev":333,"name":"Phoenix/Luke AFB, AZ, US","cover":"FEW","clouds":[{"cover":"FEW","base":22000}],"fltCat":"VFR"},{"icaoId":"KSJN","receiptTime":"2026-04-09T15:58:15.360Z","obsTime":1775750040,"reportTime":"2026-04-09T16:00:00.000Z","temp":16.7,"dewp":-1.7,"wdir":0,"wspd":0,"visib":"10+","altim":1020.4,"slp":1013.5,"qcField":6,"metarType":"METAR","rawOb":"METAR KSJN 091554Z AUTO 00000KT 10SM CLR 17/M02 A3013 RMK AO2 SLP135 T01671017","lat":34.5184,"lon":-109.3801,"elev":1747,"name":"St Johns Ind Arpt, AZ, US","cover":"CLR","clouds":[],"fltCat":"VFR"},{"icaoId":"KFFZ","receiptTime":"2026-04-09T15:58:15.560Z","obsTime":1775750040,"reportTime":"2026-04-09T16:00:00.000Z","temp":27.8,"dewp":-2.2,"wdir":130,"wspd":4,"visib":"10+","altim":1013,"slp":1010.4,"qcField":4,"metarType":"METAR","rawOb":"METAR KFFZ 091554Z 13004KT 10SM CLR 28/M02 A2991 RMK AO2 SLP104 T02781022","lat":33.4659,"lon":-111.7212,"elev":420,"name":"Mesa/Falcon Fld, AZ, US","cover":"CLR","clouds":[],"fltCat":"VFR"},{"icaoId":"KOLS","receiptTime":"2026-04-09T15:58:15.117Z","obsTime":1775750040,"reportTime":"2026-04-09T16:00:00.000Z","temp":21.7,"dewp":-2.2,"wdir":0,"wspd":0,"visib":"10+","altim":1018,"slp":1012.2,"qcField":6,"metarType":"METAR","rawOb":"METAR KOLS 091554Z AUTO 00000KT 10SM CLR 22/M02 A3006 RMK AO2 SLP122 T02171022","lat":31.4208,"lon":-110.8465,"elev":1194,"name":"Nogales Intl, AZ, US","cover":"CLR","clouds":[],"fltCat":"VFR"},{"icaoId":"KGCN","receiptTime":"2026-04-09T15:58:13.561Z","obsTime":1775750040,"reportTime":"2026-04-09T16:00:00.000Z","temp":16.1,"dewp":-3.3,"wdir":210,"wspd":5,"visib":"10+","altim":1021.1,"slp":1013.9,"qcField":4,"metarType":"METAR","rawOb":"METAR KGCN 091554Z 21005KT 10SM CLR 16/M03 A3015 RMK AO2 SLP139 T01611033","lat":35.9458,"lon":-112.1554,"elev":1993,"name":"Grand Canyon Park Arpt, AZ, US","cover":"CLR","clouds":[],"fltCat":"VFR"},{"icaoId":"KTUS","receiptTime":"2026-04-09T15:56:34.331Z","obsTime":1775749980,"reportTime":"2026-04-09T16:00:00.000Z","temp":23.9,"dewp":-2.8,"wdir":170,"wspd":3,"visib":"10+","altim":1016.3,"slp":1011.8,"qcField":4,"metarType":"METAR","rawOb":"METAR KTUS 091553Z 17003KT 10SM CLR 24/M03 A3001 RMK AO2 SLP118 T02391028","lat":32.1315,"lon":-110.9564,"elev":776,"name":"Tucson Intl Arpt, AZ, US","cover":"CLR","clouds":[],"fltCat":"VFR"},{"icaoId":"KPRC","receiptTime":"2026-04-09T15:56:28.690Z","obsTime":1775749980,"reportTime":"2026-04-09T16:00:00.000Z","temp":20,"dewp":-2.8,"wdir":150,"wspd":4,"visib":"10+","altim":1018.7,"slp":1011.4,"qcField":4,"metarType":"METAR","rawOb":"METAR KPRC 091553Z 15004KT 10SM CLR 20/M03 A3008 RMK AO2 SLP114 T02001028","lat":34.6491,"lon":-112.4223,"elev":1528,"name":"Prescott/Love Fld, AZ, US","cover":"CLR","clouds":[],"fltCat":"VFR"},{"icaoId":"KPGA","receiptTime":"2026-04-09T15:56:35.123Z","obsTime":1775749980,"reportTime":"2026-04-09T16:00:00.000Z","temp":18.9,"dewp":-7.2,"wdir":0,"wspd":0,"visib":"10+","altim":1016.7,"slp":1011.2,"qcField":6,"metarType":"METAR","rawOb":"METAR KPGA 091553Z AUTO 00000KT 10SM CLR 19/M07 A3002 RMK AO2 SLP112 T01891072","lat":36.9211,"lon":-111.4487,"elev":1310,"name":"Page Muni, AZ, US","cover":"CLR","clouds":[],"fltCat":"VFR"},{"icaoId":"KSDL","receiptTime":"2026-04-09T15:56:28.736Z","obsTime":1775749980,"reportTime":"2026-04-09T16:00:00.000Z","temp":26.1,"dewp":0.6,"wdir":"VRB","wspd":3,"visib":"10+","altim":1013.6,"slp":1011,"qcField":4,"metarType":"METAR","rawOb":"METAR KSDL 091553Z VRB03KT 10SM CLR 26/01 A2993 RMK AO2 SLP110 T02610006","lat":33.6123,"lon":-111.9232,"elev":438,"name":"Scottsdale Muni, AZ, US","cover":"CLR","clouds":[],"fltCat":"VFR"},{"icaoId":"KDVT","receiptTime":"2026-04-09T15:56:33.080Z","obsTime":1775749980,"reportTime":"2026-04-09T16:00:00.000Z","temp":26.1,"dewp":-0.6,"wdir":"VRB","wspd":5,"visib":"10+","altim":1013.3,"slp":1010.9,"qcField":6,"metarType":"METAR","rawOb":"METAR KDVT 091553Z AUTO VRB05KT 10SM CLR 26/M01 A2992 RMK AO2 SLP109 T02611006","lat":33.6902,"lon":-112.0662,"elev":454,"name":"Phoenix/Deer Valley Arpt, AZ, US","cover":"CLR","clouds":[],"fltCat":"VFR"},{"icaoId":"KSAD","receiptTime":"2026-04-09T15:54:07.315Z","obsTime":1775749860,"reportTime":"2026-04-09T16:00:00.000Z","temp":21.7,"dewp":-2.8,"wdir":190,"wspd":3,"visib":"10+","altim":1016.3,"slp":1011.6,"qcField":6,"metarType":"METAR","rawOb":"METAR KSAD 091551Z AUTO 19003KT 10SM CLR 22/M03 A3001 RMK AO2 SLP116 T02171028","lat":32.8565,"lon":-109.636,"elev":937,"name":"Safford Rgnl, AZ, US","cover":"CLR","clouds":[],"fltCat":"VFR"},{"icaoId":"KIGM","receiptTime":"2026-04-09T15:54:08.386Z","obsTime":1775749860,"reportTime":"2026-04-09T16:00:00.000Z","temp":22.2,"dewp":-2.2,"wdir":0,"wspd":0,"visib":"10+","altim":1014.6,"slp":1008.3,"qcField":6,"metarType":"METAR","rawOb":"METAR KIGM 091551Z AUTO 00000KT 10SM CLR 22/M02 A2996 RMK AO2 SLP083 T02221022","lat":35.2575,"lon":-113.9341,"elev":1045,"name":"Kingman Arpt, AZ, US","cover":"CLR","clouds":[],"fltCat":"VFR"},{"icaoId":"KPHX","receiptTime":"2026-04-09T15:54:07.225Z","obsTime":1775749860,"reportTime":"2026-04-09T16:00:00.000Z","temp":27.2,"dewp":-0.6,"wdir":140,"wspd":6,"visib":"10+","altim":1012.3,"slp":1010.2,"qcField":4,"metarType":"METAR","rawOb":"METAR KPHX 091551Z 14006KT 10SM SCT270 27/M01 A2989 RMK AO2 SLP102 T02721006","lat":33.4278,"lon":-112.0037,"elev":338,"name":"Phoenix/Sky Harbor Intl, AZ, US","cover":"SCT","clouds":[{"cover":"SCT","base":27000}],"fltCat":"VFR"}]