[{"icaoId":"KHII","receiptTime":"2026-04-08T15:20:28.313Z","obsTime":1775661300,"reportTime":"2026-04-08T15:15:00.000Z","temp":23,"dewp":-4,"wdir":0,"wspd":0,"visib":"10+","altim":1011.3,"qcField":6,"metarType":"METAR","rawOb":"METAR KHII 081515Z AUTO 00000KT 10SM CLR 23/M04 A2986 RMK AO2","lat":34.5659,"lon":-114.3522,"elev":241,"name":"Lake Havasu City Arpt, AZ, US","cover":"CLR","clouds":[],"fltCat":"VFR"},{"icaoId":"KSEZ","receiptTime":"2026-04-08T15:18:25.776Z","obsTime":1775661300,"reportTime":"2026-04-08T15:15:00.000Z","temp":17,"dewp":-3,"wdir":130,"wspd":4,"visib":"10+","altim":1019,"qcField":6,"metarType":"METAR","rawOb":"METAR KSEZ 081515Z AUTO 13004KT 10SM CLR 17/M03 A3009 RMK AO2","lat":34.8467,"lon":-111.7884,"elev":1455,"name":"Sedona Arpt, AZ, US","cover":"CLR","clouds":[],"fltCat":"VFR"},{"icaoId":"KSOW","receiptTime":"2026-04-08T15:18:23.221Z","obsTime":1775661300,"reportTime":"2026-04-08T15:15:00.000Z","temp":15,"dewp":-1,"wdir":0,"wspd":0,"visib":"10+","altim":1021.8,"qcField":6,"metarType":"METAR","rawOb":"METAR KSOW 081515Z AUTO 00000KT 10SM CLR 15/M01 A3017 RMK AO2","lat":34.2686,"lon":-110.0019,"elev":1954,"name":"Show Low Muni, AZ, US","cover":"CLR","clouds":[],"fltCat":"VFR"},{"icaoId":"KNYL","receiptTime":"2026-04-08T15:00:25.416Z","obsTime":1775660220,"reportTime":"2026-04-08T15:00:00.000Z","temp":22.8,"dewp":5,"wdir":30,"wspd":5,"visib":"10+","altim":1010.2,"slp":1009.7,"qcField":6,"presTend":1.7,"metarType":"METAR","rawOb":"METAR KNYL 081457Z AUTO 03005KT 10SM CLR 23/05 A2983 RMK AO2 SLP097 T02280050 53017","lat":32.66,"lon":-114.6078,"elev":58,"name":"Yuma , AZ, US","cover":"CLR","clouds":[],"fltCat":"VFR"},{"icaoId":"KFLG","receiptTime":"2026-04-08T15:00:27.722Z","obsTime":1775660220,"reportTime":"2026-04-08T15:00:00.000Z","temp":11.7,"dewp":-3.9,"wdir":0,"wspd":0,"visib":"10+","altim":1021.8,"slp":1015.2,"qcField":4,"presTend":1,"metarType":"METAR","rawOb":"METAR KFLG 081457Z 00000KT 10SM CLR 12/M04 A3017 RMK AO2 SLP152 T01171039 53010","lat":35.1443,"lon":-111.6664,"elev":2134,"name":"Flagstaff/Pulliam Arpt, AZ, US","cover":"CLR","clouds":[],"fltCat":"VFR"},{"icaoId":"KINW","receiptTime":"2026-04-08T15:00:15.113Z","obsTime":1775660160,"reportTime":"2026-04-08T15:00:00.000Z","temp":10.6,"dewp":5.6,"wdir":120,"wspd":6,"visib":"10+","altim":1019,"slp":1015,"qcField":6,"presTend":1.5,"metarType":"METAR","rawOb":"METAR KINW 081456Z AUTO 12006KT 10SM CLR 11/06 A3009 RMK AO2 SLP150 T01060056 51015","lat":35.0279,"lon":-110.7221,"elev":1492,"name":"Winslow/Lindberg Rgnl, AZ, US","cover":"CLR","clouds":[],"fltCat":"VFR"},{"icaoId":"KDUG","receiptTime":"2026-04-08T15:02:11.195Z","obsTime":1775660160,"reportTime":"2026-04-08T15:00:00.000Z","temp":13.9,"dewp":2.8,"wdir":280,"wspd":3,"visib":"10+","altim":1018,"slp":1013.2,"qcField":38,"presTend":1.5,"metarType":"METAR","rawOb":"METAR KDUG 081456Z AUTO 28003KT 10SM CLR 14/03 A3006 RMK AO2 SLP132 T01390028 53015 TSNO","lat":31.4725,"lon":-109.6022,"elev":1260,"name":"Douglas/Bisbee Intl, AZ, US","cover":"CLR","clouds":[],"fltCat":"VFR"},{"icaoId":"KIWA","receiptTime":"2026-04-08T15:02:37.157Z","obsTime":1775660100,"reportTime":"2026-04-08T15:00:00.000Z","temp":22,"dewp":1,"wdir":140,"wspd":7,"visib":"10+","altim":1013.3,"qcField":0,"metarType":"METAR","rawOb":"METAR KIWA 081455Z 140007KT 10SM CLR 22/01 A2992","lat":33.3008,"lon":-111.6437,"elev":420,"name":"Phoenix/Mesa Gateway Arpt, AZ, US","cover":"CLR","clouds":[],"fltCat":"VFR"},{"icaoId":"KGCN","receiptTime":"2026-04-08T14:58:22.277Z","obsTime":1775660040,"reportTime":"2026-04-08T15:00:00.000Z","temp":7.2,"dewp":-2.8,"wdir":0,"wspd":0,"visib":"10+","altim":1021.4,"slp":1017.1,"qcField":4,"presTend":1.1,"metarType":"METAR","rawOb":"METAR KGCN 081454Z 00000KT 10SM CLR 07/M03 A3016 RMK AO2 SLP171 T00721028 53011","lat":35.9458,"lon":-112.1554,"elev":1993,"name":"Grand Canyon Park Arpt, AZ, US","cover":"CLR","clouds":[],"fltCat":"VFR"},{"icaoId":"KSJN","receiptTime":"2026-04-08T14:58:18.450Z","obsTime":1775660040,"reportTime":"2026-04-08T15:00:00.000Z","temp":9.4,"dewp":2.8,"wdir":0,"wspd":0,"visib":"10+","altim":1019.7,"slp":1014.5,"qcField":6,"presTend":1.1,"metarType":"METAR","rawOb":"METAR KSJN 081454Z AUTO 00000KT 10SM CLR 09/03 A3011 RMK AO2 SLP145 T00940028 51011","lat":34.5184,"lon":-109.3801,"elev":1747,"name":"St Johns Ind Arpt, AZ, US","cover":"CLR","clouds":[],"fltCat":"VFR"},{"icaoId":"KOLS","receiptTime":"2026-04-08T14:58:22.400Z","obsTime":1775660040,"reportTime":"2026-04-08T15:00:00.000Z","temp":16.1,"dewp":2.2,"wdir":0,"wspd":0,"visib":"10+","altim":1017,"slp":1011.7,"qcField":6,"presTend":1.3,"metarType":"METAR","rawOb":"METAR KOLS 081454Z AUTO 00000KT 10SM CLR 16/02 A3003 RMK AO2 SLP117 T01610022 53013","lat":31.4208,"lon":-110.8465,"elev":1194,"name":"Nogales Intl, AZ, US","cover":"CLR","clouds":[],"fltCat":"VFR"},{"icaoId":"KFFZ","receiptTime":"2026-04-08T14:58:08.783Z","obsTime":1775660040,"reportTime":"2026-04-08T15:00:00.000Z","temp":22.2,"dewp":0,"wdir":30,"wspd":7,"visib":"10+","altim":1012.6,"slp":1010.2,"qcField":4,"presTend":1.5,"metarType":"METAR","rawOb":"METAR KFFZ 081454Z 03007KT 10SM CLR 22/00 A2990 RMK AO2 SLP102 T02220000 53015","lat":33.4659,"lon":-111.7212,"elev":420,"name":"Mesa/Falcon Fld, AZ, US","cover":"CLR","clouds":[],"fltCat":"VFR"},{"icaoId":"KPRC","receiptTime":"2026-04-08T14:56:35.027Z","obsTime":1775659980,"reportTime":"2026-04-08T15:00:00.000Z","temp":13.3,"dewp":-5,"wdir":0,"wspd":0,"visib":"10+","altim":1019,"slp":1013,"qcField":4,"presTend":1.4,"metarType":"METAR","rawOb":"METAR KPRC 081453Z 00000KT 10SM CLR 13/M05 A3009 RMK AO2 SLP130 T01331050 53014","lat":34.6491,"lon":-112.4223,"elev":1528,"name":"Prescott/Love Fld, AZ, US","cover":"CLR","clouds":[],"fltCat":"VFR"},{"icaoId":"KTUS","receiptTime":"2026-04-08T14:56:25.224Z","obsTime":1775659980,"reportTime":"2026-04-08T15:00:00.000Z","temp":18.9,"dewp":1.1,"wdir":150,"wspd":6,"visib":"10+","altim":1015.3,"slp":1011.6,"qcField":4,"presTend":1.4,"metarType":"METAR","rawOb":"METAR KTUS 081453Z 15006KT 10SM CLR 19/01 A2998 RMK AO2 SLP116 T01890011 53014","lat":32.1315,"lon":-110.9564,"elev":776,"name":"Tucson Intl Arpt, AZ, US","cover":"CLR","clouds":[],"fltCat":"VFR"},{"icaoId":"KDVT","receiptTime":"2026-04-08T14:56:25.812Z","obsTime":1775659980,"reportTime":"2026-04-08T15:00:00.000Z","temp":22.8,"dewp":-1.1,"wdir":0,"wspd":0,"visib":"10+","altim":1012.6,"slp":1010.4,"qcField":4,"presTend":1.7,"metarType":"METAR","rawOb":"METAR KDVT 081453Z 00000KT 10SM CLR 23/M01 A2990 RMK AO2 SLP104 T02281011 53017","lat":33.6902,"lon":-112.0662,"elev":454,"name":"Phoenix/Deer Valley Arpt, AZ, US","cover":"CLR","clouds":[],"fltCat":"VFR"},{"icaoId":"KSDL","receiptTime":"2026-04-08T14:56:28.412Z","obsTime":1775659980,"reportTime":"2026-04-08T15:00:00.000Z","temp":21.7,"dewp":1.1,"wdir":0,"wspd":0,"visib":"10+","altim":1013,"slp":1010.5,"qcField":4,"presTend":1.7,"metarType":"METAR","rawOb":"METAR KSDL 081453Z 00000KT 10SM CLR 22/01 A2991 RMK AO2 SLP105 T02170011 53017","lat":33.6123,"lon":-111.9232,"elev":438,"name":"Scottsdale Muni, AZ, US","cover":"CLR","clouds":[],"fltCat":"VFR"},{"icaoId":"KPGA","receiptTime":"2026-04-08T14:56:34.705Z","obsTime":1775659980,"reportTime":"2026-04-08T15:00:00.000Z","temp":16.7,"dewp":-9.4,"wdir":0,"wspd":0,"visib":"10+","altim":1016.7,"slp":1011.2,"qcField":14,"presTend":1.5,"metarType":"METAR","rawOb":"METAR KPGA 081453Z AUTO 00000KT 10SM CLR 17/M09 A3002 RMK AO2 SLP112 T01671094 53015 $","lat":36.9211,"lon":-111.4487,"elev":1310,"name":"Page Muni, AZ, US","cover":"CLR","clouds":[],"fltCat":"VFR"},{"icaoId":"KPHX","receiptTime":"2026-04-08T14:54:06.418Z","obsTime":1775659860,"reportTime":"2026-04-08T15:00:00.000Z","temp":23.3,"dewp":1.1,"wdir":110,"wspd":8,"visib":"10+","altim":1011.6,"slp":1009.8,"qcField":4,"presTend":1.7,"metarType":"METAR","rawOb":"METAR KPHX 081451Z 11008KT 10SM CLR 23/01 A2987 RMK AO2 SLP098 T02330011 53017","lat":33.4278,"lon":-112.0037,"elev":338,"name":"Phoenix/Sky Harbor Intl, AZ, US","cover":"CLR","clouds":[],"fltCat":"VFR"},{"icaoId":"KGEU","receiptTime":"2026-04-08T14:52:36.470Z","obsTime":1775659860,"reportTime":"2026-04-08T15:00:00.000Z","temp":22,"dewp":-2,"wdir":10,"wspd":3,"visib":"10+","altim":1011.6,"qcField":0,"metarType":"METAR","rawOb":"METAR KGEU 081451Z 01003KT 10SM CLR 22/M02 A2987","lat":33.528,"lon":-112.293,"elev":319,"name":"Glendale Muni, AZ, US","cover":"CLR","clouds":[],"fltCat":"VFR"},{"icaoId":"KSAD","receiptTime":"2026-04-08T14:54:06.532Z","obsTime":1775659860,"reportTime":"2026-04-08T15:00:00.000Z","temp":17.2,"dewp":2.2,"wdir":120,"wspd":3,"visib":"10+","altim":1016,"slp":1012.2,"qcField":6,"presTend":1.6,"metarType":"METAR","rawOb":"METAR KSAD 081451Z AUTO 12003KT 10SM CLR 17/02 A3000 RMK AO2 SLP122 T01720022 53016","lat":32.8565,"lon":-109.636,"elev":937,"name":"Safford Rgnl, AZ, US","cover":"CLR","clouds":[],"fltCat":"VFR"},{"icaoId":"KIGM","receiptTime":"2026-04-08T14:54:06.141Z","obsTime":1775659860,"reportTime":"2026-04-08T15:00:00.000Z","temp":20.6,"dewp":-6.1,"wdir":160,"wspd":5,"visib":"10+","altim":1015.7,"slp":1009.5,"qcField":6,"presTend":1.4,"metarType":"METAR","rawOb":"METAR KIGM 081451Z AUTO 16005KT 10SM CLR 21/M06 A2999 RMK AO2 SLP095 T02061061 53014","lat":35.2575,"lon":-113.9341,"elev":1045,"name":"Kingman Arpt, AZ, US","cover":"CLR","clouds":[],"fltCat":"VFR"},{"icaoId":"KGYR","receiptTime":"2026-04-08T14:48:25.449Z","obsTime":1775659620,"reportTime":"2026-04-08T15:00:00.000Z","temp":21,"dewp":1,"wdir":"VRB","wspd":5,"visib":"10+","altim":1012.3,"qcField":0,"metarType":"METAR","rawOb":"METAR KGYR 081447Z VRB05KT 10SM SKC 21/01 A2989","lat":33.428,"lon":-112.368,"elev":292,"name":"Phoenix/Goodyear Muni, AZ, US","cover":"SKC","clouds":[],"fltCat":"VFR"},{"icaoId":"KCHD","receiptTime":"2026-04-08T14:48:25.370Z","obsTime":1775659620,"reportTime":"2026-04-08T15:00:00.000Z","temp":20,"dewp":6,"wdir":80,"wspd":4,"visib":"10+","altim":1012.6,"qcField":0,"metarType":"METAR","rawOb":"METAR KCHD 081447Z 08004KT 10SM CLR 20/06 A2990","lat":33.2669,"lon":-111.8086,"elev":378,"name":"Chandler Muni, AZ, US","cover":"CLR","clouds":[],"fltCat":"VFR"},{"icaoId":"KIFP","receiptTime":"2026-04-08T14:54:03.711Z","obsTime":1775659620,"reportTime":"2026-04-08T15:00:00.000Z","temp":20,"dewp":-6,"visib":"10+","altim":1010.9,"qcField":0,"metarType":"METAR","rawOb":"METAR KIFP 081447Z CALMKT 10SM CLR 20/M06 A2985","lat":35.1487,"lon":-114.5611,"elev":210,"name":"Bullhead City Intl, AZ, US","cover":"CLR","clouds":[],"fltCat":"VFR"},{"icaoId":"KRYN","receiptTime":"2026-04-08T14:46:14.834Z","obsTime":1775659500,"reportTime":"2026-04-08T15:00:00.000Z","temp":19,"dewp":-1,"wdir":0,"wspd":0,"visib":"10+","altim":1014.3,"qcField":0,"metarType":"METAR","rawOb":"METAR KRYN 081445Z 00000KT 10SM CLR 19/M01 A2995","lat":32.1418,"lon":-111.1767,"elev":731,"name":"Tucson/Ryan Fld, AZ, US","cover":"CLR","clouds":[],"fltCat":"VFR"}]