[{"icaoId":"KNYL","receiptTime":"2026-04-10T18:01:09.530Z","obsTime":1775843820,"reportTime":"2026-04-10T18:00:00.000Z","temp":28.9,"dewp":6.7,"wdir":270,"wspd":8,"visib":"10+","altim":1013.3,"slp":1012.9,"qcField":4,"presTend":1.1,"maxT":28.9,"minT":20.6,"metarType":"METAR","rawOb":"METAR KNYL 101757Z 27008KT 10SM FEW140 SCT180 29/07 A2992 RMK AO2 SLP129 T02890067 10289 20206 51011","lat":32.66,"lon":-114.6078,"elev":58,"name":"Yuma , AZ, US","cover":"SCT","clouds":[{"cover":"FEW","base":14000},{"cover":"SCT","base":18000}],"fltCat":"VFR"},{"icaoId":"KFLG","receiptTime":"2026-04-10T18:01:10.852Z","obsTime":1775843820,"reportTime":"2026-04-10T18:00:00.000Z","temp":14.4,"dewp":-2.2,"wdir":220,"wspd":10,"wgst":19,"visib":"10+","altim":1022.4,"slp":1016.2,"qcField":4,"presTend":1,"maxT":14.4,"minT":1.1,"metarType":"METAR","rawOb":"METAR KFLG 101757Z 22010G19KT 10SM CLR 14/M02 A3019 RMK AO2 SLP162 T01441022 10144 20011 51010","lat":35.1443,"lon":-111.6664,"elev":2134,"name":"Flagstaff/Pulliam Arpt, AZ, US","cover":"CLR","clouds":[],"fltCat":"VFR"},{"icaoId":"KDUG","receiptTime":"2026-04-10T18:02:06.359Z","obsTime":1775843760,"reportTime":"2026-04-10T18:00:00.000Z","temp":23.3,"dewp":-2.2,"wdir":220,"wspd":4,"visib":"10+","altim":1019.4,"slp":1013.4,"qcField":38,"presTend":0.4,"maxT":23.3,"minT":10,"metarType":"METAR","rawOb":"METAR KDUG 101756Z AUTO 22004KT 10SM SCT110 23/M02 A3010 RMK AO2 SLP134 T02331022 10233 20100 51004 TSNO","lat":31.4725,"lon":-109.6022,"elev":1260,"name":"Douglas/Bisbee Intl, AZ, US","cover":"SCT","clouds":[{"cover":"SCT","base":11000}],"fltCat":"VFR"},{"icaoId":"KCGZ","receiptTime":"2026-04-10T17:58:23.943Z","obsTime":1775843760,"reportTime":"2026-04-10T18:00:00.000Z","temp":29.4,"dewp":1.7,"wdir":"VRB","wspd":5,"visib":"10+","altim":1014.6,"slp":1013.1,"qcField":14,"presTend":0.5,"maxT":29.4,"minT":14.4,"metarType":"METAR","rawOb":"METAR KCGZ 101756Z AUTO VRB05KT 10SM CLR 29/02 A2996 RMK AO2 SLP131 6//// T02940017 10294 20144 50005 $","lat":32.9531,"lon":-111.7725,"elev":444,"name":"Casa Granda Muni, AZ, US","cover":"CLR","clouds":[],"fltCat":"VFR"},{"icaoId":"KINW","receiptTime":"2026-04-10T18:00:53.316Z","obsTime":1775843760,"reportTime":"2026-04-10T18:00:00.000Z","temp":21.7,"dewp":-3.9,"wdir":230,"wspd":6,"visib":"","altim":1019.7,"slp":1014.5,"qcField":14,"presTend":0.2,"maxT":21.7,"minT":9.4,"metarType":"METAR","rawOb":"METAR KINW 101756Z AUTO 23006KT CLR 22/M04 A3011 RMK AO2 SLP145 T02171039 10217 20094 50002 $","lat":35.0279,"lon":-110.7221,"elev":1492,"name":"Winslow/Lindberg Rgnl, AZ, US","cover":"CLR","clouds":[]},{"icaoId":"KHII","receiptTime":"2026-04-10T18:01:11.252Z","obsTime":1775843700,"reportTime":"2026-04-10T18:00:00.000Z","temp":28,"dewp":6,"wdir":0,"wspd":0,"visib":"10+","altim":1012.3,"qcField":6,"metarType":"METAR","rawOb":"METAR KHII 101755Z AUTO 00000KT 10SM CLR 28/06 A2989 RMK AO2","lat":34.5659,"lon":-114.3522,"elev":241,"name":"Lake Havasu City Arpt, AZ, US","cover":"CLR","clouds":[],"fltCat":"VFR"},{"icaoId":"KSEZ","receiptTime":"2026-04-10T18:00:38.031Z","obsTime":1775843700,"reportTime":"2026-04-10T18:00:00.000Z","temp":21,"dewp":-2,"wdir":160,"wspd":10,"visib":"10+","altim":1019.7,"qcField":6,"metarType":"METAR","rawOb":"METAR KSEZ 101755Z AUTO 16010KT 10SM CLR 21/M02 A3011 RMK AO2","lat":34.8467,"lon":-111.7884,"elev":1455,"name":"Sedona Arpt, AZ, US","cover":"CLR","clouds":[],"fltCat":"VFR"},{"icaoId":"KLUF","receiptTime":"2026-04-10T18:02:06.553Z","obsTime":1775843700,"reportTime":"2026-04-10T18:00:00.000Z","temp":28.5,"dewp":1.9,"wdir":160,"wspd":3,"visib":"10+","altim":1013.3,"slp":1011.8,"qcField":12,"presTend":0.8,"maxT":28.5,"minT":18.4,"metarType":"METAR","rawOb":"METAR KLUF 101755Z 16003KT 10SM SCT180 BKN200 29/02 A2992 RMK AO2A SLP118 T02850019 10285 20184 51008 $","lat":33.538,"lon":-112.38,"elev":333,"name":"Phoenix/Luke AFB, AZ, US","cover":"BKN","clouds":[{"cover":"SCT","base":18000},{"cover":"BKN","base":20000}],"fltCat":"VFR"},{"icaoId":"KSOW","receiptTime":"2026-04-10T17:58:20.729Z","obsTime":1775843700,"reportTime":"2026-04-10T18:00:00.000Z","temp":19,"dewp":-3,"wdir":200,"wspd":18,"visib":"10+","altim":1022.8,"qcField":6,"metarType":"METAR","rawOb":"METAR KSOW 101755Z AUTO 20018KT 10SM CLR 19/M03 A3020 RMK AO2","lat":34.2686,"lon":-110.0019,"elev":1954,"name":"Show Low Muni, AZ, US","cover":"CLR","clouds":[],"fltCat":"VFR"},{"icaoId":"KGCN","receiptTime":"2026-04-10T17:58:12.955Z","obsTime":1775843640,"reportTime":"2026-04-10T18:00:00.000Z","temp":16.1,"dewp":-1.7,"wdir":200,"wspd":15,"wgst":27,"visib":"10+","altim":1021.1,"slp":1013.6,"qcField":4,"presTend":0.7,"maxT":16.1,"minT":1.1,"metarType":"METAR","rawOb":"METAR KGCN 101754Z 20015G27KT 10SM CLR 16/M02 A3015 RMK AO2 PK WND 23028/1657 SLP136 T01611017 10161 20011 52007","lat":35.9458,"lon":-112.1554,"elev":1993,"name":"Grand Canyon Park Arpt, AZ, US","cover":"CLR","clouds":[],"fltCat":"VFR"},{"icaoId":"KOLS","receiptTime":"2026-04-10T17:58:16.407Z","obsTime":1775843640,"reportTime":"2026-04-10T18:00:00.000Z","temp":26.1,"dewp":1.1,"wdir":170,"wspd":8,"wgst":17,"visib":"10+","altim":1018.4,"slp":1012,"qcField":6,"presTend":0.3,"maxT":26.7,"minT":11.1,"metarType":"METAR","rawOb":"METAR KOLS 101754Z AUTO 17008G17KT 150V210 10SM CLR 26/01 A3007 RMK AO2 SLP120 T02610011 10267 20111 50003","lat":31.4208,"lon":-110.8465,"elev":1194,"name":"Nogales Intl, AZ, US","cover":"CLR","clouds":[],"fltCat":"VFR"},{"icaoId":"KFFZ","receiptTime":"2026-04-10T17:58:19.865Z","obsTime":1775843640,"reportTime":"2026-04-10T18:00:00.000Z","temp":28.3,"dewp":0.6,"wdir":140,"wspd":7,"visib":"10+","altim":1014,"slp":1011.6,"qcField":4,"presTend":0.8,"maxT":28.9,"minT":18.9,"metarType":"METAR","rawOb":"METAR KFFZ 101754Z 14007KT 10SM CLR 28/01 A2994 RMK AO2 SLP116 T02830006 10289 20189 51008","lat":33.4659,"lon":-111.7212,"elev":420,"name":"Mesa/Falcon Fld, AZ, US","cover":"CLR","clouds":[],"fltCat":"VFR"},{"icaoId":"KSJN","receiptTime":"2026-04-10T17:58:16.653Z","obsTime":1775843640,"reportTime":"2026-04-10T18:00:00.000Z","temp":20,"dewp":-3.9,"wdir":"VRB","wspd":3,"visib":"10+","altim":1020.7,"slp":1013.3,"qcField":6,"maxT":20,"minT":6.1,"metarType":"METAR","rawOb":"METAR KSJN 101754Z AUTO VRB03KT 10SM CLR 20/M04 A3014 RMK AO2 SLP133 T02001039 10200 20061 50000","lat":34.5184,"lon":-109.3801,"elev":1747,"name":"St Johns Ind Arpt, AZ, US","cover":"CLR","clouds":[],"fltCat":"VFR"},{"icaoId":"KSDL","receiptTime":"2026-04-10T17:56:30.298Z","obsTime":1775843580,"reportTime":"2026-04-10T18:00:00.000Z","temp":28.3,"dewp":1.1,"wdir":"VRB","wspd":4,"visib":"10+","altim":1014.6,"slp":1012,"qcField":4,"presTend":0.7,"maxT":28.3,"minT":18.9,"metarType":"METAR","rawOb":"METAR KSDL 101753Z VRB04KT 10SM CLR 28/01 A2996 RMK AO2 SLP120 T02830011 10283 20189 51007","lat":33.6123,"lon":-111.9232,"elev":438,"name":"Scottsdale Muni, AZ, US","cover":"CLR","clouds":[],"fltCat":"VFR"},{"icaoId":"KPGA","receiptTime":"2026-04-10T17:56:36.276Z","obsTime":1775843580,"reportTime":"2026-04-10T18:00:00.000Z","temp":22.2,"dewp":-3.3,"wdir":170,"wspd":11,"wgst":23,"visib":"10+","altim":1016.7,"slp":1010.9,"qcField":6,"presTend":0.6,"maxT":22.8,"minT":15,"metarType":"METAR","rawOb":"METAR KPGA 101753Z AUTO 17011G23KT 10SM CLR 22/M03 A3002 RMK AO2 PK WND 17029/1707 SLP109 T02221033 10228 20150 51006","lat":36.9211,"lon":-111.4487,"elev":1310,"name":"Page Muni, AZ, US","cover":"CLR","clouds":[],"fltCat":"VFR"},{"icaoId":"KTUS","receiptTime":"2026-04-10T17:56:40.595Z","obsTime":1775843580,"reportTime":"2026-04-10T18:00:00.000Z","temp":27.8,"dewp":-1.7,"wdir":0,"wspd":0,"visib":"10+","altim":1016.7,"slp":1012.1,"qcField":4,"presTend":0.4,"maxT":27.8,"minT":15.6,"metarType":"METAR","rawOb":"METAR KTUS 101753Z 00000KT 10SM CLR 28/M02 A3002 RMK AO2 SLP121 T02781017 10278 20156 50004","lat":32.1315,"lon":-110.9564,"elev":776,"name":"Tucson Intl Arpt, AZ, US","cover":"CLR","clouds":[],"fltCat":"VFR"},{"icaoId":"KDVT","receiptTime":"2026-04-10T17:56:39.258Z","obsTime":1775843580,"reportTime":"2026-04-10T18:00:00.000Z","temp":27.8,"dewp":1.1,"wdir":"VRB","wspd":4,"visib":"10+","altim":1014.3,"slp":1011.9,"qcField":4,"presTend":0.7,"maxT":27.8,"minT":16.7,"metarType":"METAR","rawOb":"METAR KDVT 101753Z VRB04KT 10SM CLR 28/01 A2995 RMK AO2 SLP119 T02780011 10278 20167 51007","lat":33.6902,"lon":-112.0662,"elev":454,"name":"Phoenix/Deer Valley Arpt, AZ, US","cover":"CLR","clouds":[],"fltCat":"VFR"},{"icaoId":"KPRC","receiptTime":"2026-04-10T17:56:36.986Z","obsTime":1775843580,"reportTime":"2026-04-10T18:00:00.000Z","temp":21.1,"dewp":0,"wdir":170,"wspd":9,"wgst":14,"visib":"10+","altim":1019.4,"slp":1012.6,"qcField":4,"presTend":0.6,"maxT":21.1,"minT":9.4,"metarType":"METAR","rawOb":"METAR KPRC 101753Z 17009G14KT 10SM CLR 21/00 A3010 RMK AO2 SLP126 T02110000 10211 20094 53006","lat":34.6491,"lon":-112.4223,"elev":1528,"name":"Prescott/Love Fld, AZ, US","cover":"CLR","clouds":[],"fltCat":"VFR"},{"icaoId":"KIGM","receiptTime":"2026-04-10T17:54:08.927Z","obsTime":1775843460,"reportTime":"2026-04-10T18:00:00.000Z","temp":22.8,"dewp":2.8,"wdir":240,"wspd":17,"wgst":24,"visib":"10+","altim":1015.7,"slp":1009.3,"qcField":6,"presTend":0.6,"maxT":23.3,"minT":12.8,"metarType":"METAR","rawOb":"METAR KIGM 101751Z AUTO 24017G24KT 10SM CLR 23/03 A2999 RMK AO2 PK WND 24031/1741 SLP093 T02280028 10233 20128 53006","lat":35.2575,"lon":-113.9341,"elev":1045,"name":"Kingman Arpt, AZ, US","cover":"CLR","clouds":[],"fltCat":"VFR"},{"icaoId":"KSAD","receiptTime":"2026-04-10T17:54:09.211Z","obsTime":1775843460,"reportTime":"2026-04-10T18:00:00.000Z","temp":25,"dewp":-3.9,"wdir":0,"wspd":0,"visib":"10+","altim":1016.7,"slp":1012.1,"qcField":6,"presTend":0.3,"maxT":25.6,"minT":15,"metarType":"METAR","rawOb":"METAR KSAD 101751Z AUTO 00000KT 10SM CLR 25/M04 A3002 RMK AO2 SLP121 T02501039 10256 20150 51003","lat":32.8565,"lon":-109.636,"elev":937,"name":"Safford Rgnl, AZ, US","cover":"CLR","clouds":[],"fltCat":"VFR"},{"icaoId":"KPHX","receiptTime":"2026-04-10T17:54:09.113Z","obsTime":1775843460,"reportTime":"2026-04-10T18:00:00.000Z","temp":28.9,"dewp":3.3,"wdir":80,"wspd":3,"visib":"10+","altim":1013.3,"slp":1011.4,"qcField":4,"presTend":0.7,"maxT":29.4,"minT":20.6,"metarType":"METAR","rawOb":"METAR KPHX 101751Z 08003KT 10SM FEW210 BKN250 BKN290 29/03 A2992 RMK AO2 SLP114 T02890033 10294 20206 50007","lat":33.4278,"lon":-112.0037,"elev":338,"name":"Phoenix/Sky Harbor Intl, AZ, US","cover":"BKN","clouds":[{"cover":"FEW","base":21000},{"cover":"BKN","base":25000},{"cover":"BKN","base":29000}],"fltCat":"VFR"},{"icaoId":"KIWA","receiptTime":"2026-04-10T17:52:12.822Z","obsTime":1775843400,"reportTime":"2026-04-10T18:00:00.000Z","temp":29,"dewp":1,"wdir":140,"wspd":6,"visib":"10+","altim":1014.6,"qcField":0,"metarType":"METAR","rawOb":"METAR KIWA 101750Z 14006KT 10SM CLR 29/01 A2996","lat":33.3008,"lon":-111.6437,"elev":420,"name":"Phoenix/Mesa Gateway Arpt, AZ, US","cover":"CLR","clouds":[],"fltCat":"VFR"},{"icaoId":"KIFP","receiptTime":"2026-04-10T17:47:37.657Z","obsTime":1775843220,"reportTime":"2026-04-10T18:00:00.000Z","temp":28,"dewp":5,"wdir":160,"wspd":12,"visib":20,"altim":1011.6,"qcField":0,"metarType":"METAR","rawOb":"METAR KIFP 101747Z 16012KT 20SM SCT100 28/05 A2987","lat":35.1487,"lon":-114.5611,"elev":210,"name":"Bullhead City Intl, AZ, US","cover":"SCT","clouds":[{"cover":"SCT","base":10000}],"fltCat":"VFR"},{"icaoId":"KGYR","receiptTime":"2026-04-10T17:48:40.426Z","obsTime":1775843220,"reportTime":"2026-04-10T18:00:00.000Z","temp":28,"dewp":4,"wdir":180,"wspd":6,"visib":"10+","altim":1014,"qcField":0,"metarType":"METAR","rawOb":"METAR KGYR 101747Z 18006KT 10SM BKN250 28/04 A2994","lat":33.428,"lon":-112.368,"elev":292,"name":"Phoenix/Goodyear Muni, AZ, US","cover":"BKN","clouds":[{"cover":"BKN","base":25000}],"fltCat":"VFR"},{"icaoId":"KCHD","receiptTime":"2026-04-10T17:50:53.625Z","obsTime":1775843220,"reportTime":"2026-04-10T18:00:00.000Z","temp":28,"dewp":3,"wdir":200,"wspd":6,"visib":"10+","altim":1014.3,"qcField":0,"metarType":"METAR","rawOb":"METAR KCHD 101747Z 20006KT 10SM FEW250 28/03 A2995","lat":33.2669,"lon":-111.8086,"elev":378,"name":"Chandler Muni, AZ, US","cover":"FEW","clouds":[{"cover":"FEW","base":25000}],"fltCat":"VFR"},{"icaoId":"KGEU","receiptTime":"2026-04-10T17:48:40.361Z","obsTime":1775843220,"reportTime":"2026-04-10T18:00:00.000Z","temp":28,"dewp":1,"wdir":60,"wspd":3,"visib":"10+","altim":1013,"qcField":0,"metarType":"METAR","rawOb":"METAR KGEU 101747Z 06003KT 10SM CLR 28/01 A2991","lat":33.528,"lon":-112.293,"elev":319,"name":"Glendale Muni, AZ, US","cover":"CLR","clouds":[],"fltCat":"VFR"},{"icaoId":"KRYN","receiptTime":"2026-04-10T17:46:21.885Z","obsTime":1775843100,"reportTime":"2026-04-10T18:00:00.000Z","temp":30,"dewp":-3,"wdir":250,"wspd":6,"visib":"10+","altim":1015.7,"qcField":0,"metarType":"METAR","rawOb":"METAR KRYN 101745Z 25006KT 10SM CLR 30/M03 A2999","lat":32.1418,"lon":-111.1767,"elev":731,"name":"Tucson/Ryan Fld, AZ, US","cover":"CLR","clouds":[],"fltCat":"VFR"}]