[{"icaoId":"KSOW","receiptTime":"2026-04-09T22:57:10.912Z","obsTime":1775775300,"reportTime":"2026-04-09T23:00:00.000Z","temp":22,"dewp":-6,"wdir":170,"wspd":8,"wgst":19,"visib":"10+","altim":1019.7,"qcField":6,"metarType":"METAR","rawOb":"METAR KSOW 092255Z AUTO 17008G19KT 10SM FEW110 22/M06 A3011 RMK AO2","lat":34.2686,"lon":-110.0019,"elev":1954,"name":"Show Low Muni, AZ, US","cover":"FEW","clouds":[{"cover":"FEW","base":11000}],"fltCat":"VFR"},{"icaoId":"KFFZ","receiptTime":"2026-04-09T22:57:07.406Z","obsTime":1775775240,"reportTime":"2026-04-09T23:00:00.000Z","temp":32.8,"dewp":-2.8,"wdir":260,"wspd":6,"visib":"10+","altim":1010.2,"slp":1007.7,"qcField":4,"metarType":"METAR","rawOb":"METAR KFFZ 092254Z 26006KT 10SM CLR 33/M03 A2983 RMK AO2 SLP077 T03281028","lat":33.4659,"lon":-111.7212,"elev":420,"name":"Mesa/Falcon Fld, AZ, US","cover":"CLR","clouds":[],"fltCat":"VFR"},{"icaoId":"KGCN","receiptTime":"2026-04-09T22:56:34.196Z","obsTime":1775775240,"reportTime":"2026-04-09T23:00:00.000Z","temp":20,"dewp":-7.2,"wdir":230,"wspd":13,"wgst":25,"visib":"10+","altim":1019,"slp":1013.2,"qcField":4,"metarType":"METAR","rawOb":"METAR KGCN 092254Z 23013G25KT 10SM CLR 20/M07 A3009 RMK AO2 SLP132 T02001072","lat":35.9458,"lon":-112.1554,"elev":1993,"name":"Grand Canyon Park Arpt, AZ, US","cover":"CLR","clouds":[],"fltCat":"VFR"},{"icaoId":"KOLS","receiptTime":"2026-04-09T22:56:32.626Z","obsTime":1775775240,"reportTime":"2026-04-09T23:00:00.000Z","temp":29.4,"dewp":-2.2,"wdir":210,"wspd":13,"wgst":21,"visib":"10+","altim":1015.7,"slp":1009.5,"qcField":6,"metarType":"METAR","rawOb":"METAR KOLS 092254Z AUTO 21013G21KT 10SM CLR 29/M02 A2999 RMK AO2 SLP095 T02941022","lat":31.4208,"lon":-110.8465,"elev":1194,"name":"Nogales Intl, AZ, US","cover":"CLR","clouds":[],"fltCat":"VFR"},{"icaoId":"KSJN","receiptTime":"2026-04-09T22:57:15.456Z","obsTime":1775775240,"reportTime":"2026-04-09T23:00:00.000Z","temp":24.4,"dewp":-5.6,"wdir":250,"wspd":15,"wgst":22,"visib":"10+","altim":1016.7,"slp":1009.8,"qcField":6,"metarType":"METAR","rawOb":"METAR KSJN 092254Z AUTO 25015G22KT 10SM BKN120 24/M06 A3002 RMK AO2 PK WND 25028/2230 SLP098 T02441056","lat":34.5184,"lon":-109.3801,"elev":1747,"name":"St Johns Ind Arpt, AZ, US","cover":"BKN","clouds":[{"cover":"BKN","base":12000}],"fltCat":"VFR"},{"icaoId":"KPGA","receiptTime":"2026-04-09T22:56:23.635Z","obsTime":1775775180,"reportTime":"2026-04-09T23:00:00.000Z","temp":27.2,"dewp":-7.2,"wdir":210,"wspd":7,"wgst":17,"visib":"10+","altim":1012.6,"slp":1007,"qcField":6,"metarType":"METAR","rawOb":"METAR KPGA 092253Z AUTO 21007G17KT 190V280 10SM CLR 27/M07 A2990 RMK AO2 SLP070 T02721072","lat":36.9211,"lon":-111.4487,"elev":1310,"name":"Page Muni, AZ, US","cover":"CLR","clouds":[],"fltCat":"VFR"},{"icaoId":"KSDL","receiptTime":"2026-04-09T22:56:24.881Z","obsTime":1775775180,"reportTime":"2026-04-09T23:00:00.000Z","temp":33.3,"dewp":-2.2,"wdir":210,"wspd":8,"visib":"10+","altim":1010.9,"slp":1008.4,"qcField":4,"metarType":"METAR","rawOb":"METAR KSDL 092253Z 21008KT 10SM CLR 33/M02 A2985 RMK AO2 SLP084 T03331022","lat":33.6123,"lon":-111.9232,"elev":438,"name":"Scottsdale Muni, AZ, US","cover":"CLR","clouds":[],"fltCat":"VFR"},{"icaoId":"KPRC","receiptTime":"2026-04-09T22:56:24.468Z","obsTime":1775775180,"reportTime":"2026-04-09T23:00:00.000Z","temp":23.3,"dewp":-6.7,"wdir":170,"wspd":14,"wgst":21,"visib":"10+","altim":1017,"slp":1010.7,"qcField":4,"metarType":"METAR","rawOb":"METAR KPRC 092253Z 17014G21KT 10SM CLR 23/M07 A3003 RMK AO2 SLP107 T02331067","lat":34.6491,"lon":-112.4223,"elev":1528,"name":"Prescott/Love Fld, AZ, US","cover":"CLR","clouds":[],"fltCat":"VFR"},{"icaoId":"KDVT","receiptTime":"2026-04-09T22:56:26.103Z","obsTime":1775775180,"reportTime":"2026-04-09T23:00:00.000Z","temp":32.8,"dewp":-2.8,"wdir":180,"wspd":7,"wgst":15,"visib":"10+","altim":1010.6,"slp":1008.4,"qcField":4,"metarType":"METAR","rawOb":"METAR KDVT 092253Z 18007G15KT 10SM SCT100 33/M03 A2984 RMK AO2 SLP084 T03281028","lat":33.6902,"lon":-112.0662,"elev":454,"name":"Phoenix/Deer Valley Arpt, AZ, US","cover":"SCT","clouds":[{"cover":"SCT","base":10000}],"fltCat":"VFR"},{"icaoId":"KTUS","receiptTime":"2026-04-09T22:56:23.836Z","obsTime":1775775180,"reportTime":"2026-04-09T23:00:00.000Z","temp":32.2,"dewp":-2.2,"wdir":230,"wspd":4,"wgst":14,"visib":"10+","altim":1013,"slp":1008.2,"qcField":4,"metarType":"METAR","rawOb":"METAR KTUS 092253Z 23004G14KT 10SM CLR 32/M02 A2991 RMK AO2 SLP082 T03221022","lat":32.1315,"lon":-110.9564,"elev":776,"name":"Tucson Intl Arpt, AZ, US","cover":"CLR","clouds":[],"fltCat":"VFR"},{"icaoId":"KSAD","receiptTime":"2026-04-09T22:54:09.585Z","obsTime":1775775060,"reportTime":"2026-04-09T23:00:00.000Z","temp":31.1,"dewp":-3.9,"wdir":"VRB","wspd":3,"visib":"10+","altim":1012.3,"slp":1007.6,"qcField":6,"metarType":"METAR","rawOb":"METAR KSAD 092251Z AUTO VRB03KT 10SM CLR 31/M04 A2989 RMK AO2 SLP076 T03111039","lat":32.8565,"lon":-109.636,"elev":937,"name":"Safford Rgnl, AZ, US","cover":"CLR","clouds":[],"fltCat":"VFR"},{"icaoId":"KIGM","receiptTime":"2026-04-09T22:54:09.328Z","obsTime":1775775060,"reportTime":"2026-04-09T23:00:00.000Z","temp":27.2,"dewp":-3.3,"wdir":200,"wspd":17,"wgst":31,"visib":"10+","altim":1013.3,"slp":1006.9,"qcField":6,"metarType":"METAR","rawOb":"METAR KIGM 092251Z AUTO 20017G31KT 10SM CLR 27/M03 A2992 RMK AO2 PK WND 22036/2204 SLP069 T02721033","lat":35.2575,"lon":-113.9341,"elev":1045,"name":"Kingman Arpt, AZ, US","cover":"CLR","clouds":[],"fltCat":"VFR"},{"icaoId":"KPHX","receiptTime":"2026-04-09T22:54:09.495Z","obsTime":1775775060,"reportTime":"2026-04-09T23:00:00.000Z","temp":33.9,"dewp":-2.2,"wdir":300,"wspd":9,"wgst":15,"visib":"10+","altim":1009.6,"slp":1007.4,"qcField":4,"metarType":"METAR","rawOb":"METAR KPHX 092251Z 30009G15KT 260V320 10SM FEW110 FEW200 BKN250 34/M02 A2981 RMK AO2 SLP074 T03391022","lat":33.4278,"lon":-112.0037,"elev":338,"name":"Phoenix/Sky Harbor Intl, AZ, US","cover":"BKN","clouds":[{"cover":"FEW","base":11000},{"cover":"FEW","base":20000},{"cover":"BKN","base":25000}],"fltCat":"VFR"},{"icaoId":"KCHD","receiptTime":"2026-04-09T22:53:46.424Z","obsTime":1775774820,"reportTime":"2026-04-09T23:00:00.000Z","temp":34,"dewp":-2,"wdir":"VRB","wspd":3,"visib":"10+","altim":1010.2,"qcField":0,"metarType":"METAR","rawOb":"METAR KCHD 092247Z VRB03KT 10SM BKN250 34/M02 A2983","lat":33.2669,"lon":-111.8086,"elev":378,"name":"Chandler Muni, AZ, US","cover":"BKN","clouds":[{"cover":"BKN","base":25000}],"fltCat":"VFR"},{"icaoId":"KGYR","receiptTime":"2026-04-09T22:47:32.319Z","obsTime":1775774820,"reportTime":"2026-04-09T23:00:00.000Z","temp":35,"dewp":-1,"wdir":230,"wspd":11,"visib":"10+","altim":1009.9,"qcField":0,"metarType":"METAR","rawOb":"METAR KGYR 092247Z 23011KT 10SM FEW110 FEW200 BKN250 35/M01 A2982","lat":33.428,"lon":-112.368,"elev":292,"name":"Phoenix/Goodyear Muni, AZ, US","cover":"BKN","clouds":[{"cover":"FEW","base":11000},{"cover":"FEW","base":20000},{"cover":"BKN","base":25000}],"fltCat":"VFR"},{"icaoId":"KGEU","receiptTime":"2026-04-09T22:47:32.300Z","obsTime":1775774820,"reportTime":"2026-04-09T23:00:00.000Z","temp":34,"dewp":-3,"wdir":230,"wspd":9,"visib":"10+","altim":1008.9,"qcField":0,"metarType":"METAR","rawOb":"METAR KGEU 092247Z 23009KT 10SM CLR 34/M03 A2979","lat":33.528,"lon":-112.293,"elev":319,"name":"Glendale Muni, AZ, US","cover":"CLR","clouds":[],"fltCat":"VFR"},{"icaoId":"KRYN","receiptTime":"2026-04-09T22:46:09.411Z","obsTime":1775774700,"reportTime":"2026-04-09T23:00:00.000Z","temp":34,"dewp":-5,"wdir":240,"wspd":11,"visib":"10+","altim":1011.6,"qcField":0,"metarType":"METAR","rawOb":"METAR KRYN 092245Z 24011KT 10SM CLR 34/M05 A2987","lat":32.1418,"lon":-111.1767,"elev":731,"name":"Tucson/Ryan Fld, AZ, US","cover":"CLR","clouds":[],"fltCat":"VFR"},{"icaoId":"KHII","receiptTime":"2026-04-09T22:40:23.518Z","obsTime":1775774100,"reportTime":"2026-04-09T22:35:00.000Z","temp":34,"dewp":-4,"wdir":220,"wspd":11,"wgst":20,"visib":"10+","altim":1008.5,"qcField":6,"metarType":"METAR","rawOb":"METAR KHII 092235Z AUTO 22011G20KT 10SM CLR 34/M04 A2978 RMK AO2","lat":34.5659,"lon":-114.3522,"elev":241,"name":"Lake Havasu City Arpt, AZ, US","cover":"CLR","clouds":[],"fltCat":"VFR"},{"icaoId":"KSEZ","receiptTime":"2026-04-09T22:40:19.546Z","obsTime":1775774100,"reportTime":"2026-04-09T22:35:00.000Z","temp":25,"dewp":-7,"wdir":190,"wspd":15,"wgst":23,"visib":"10+","altim":1016.7,"qcField":6,"metarType":"METAR","rawOb":"METAR KSEZ 092235Z AUTO 19015G23KT 160V220 10SM CLR 25/M07 A3002 RMK AO2","lat":34.8467,"lon":-111.7884,"elev":1455,"name":"Sedona Arpt, AZ, US","cover":"CLR","clouds":[],"fltCat":"VFR"},{"icaoId":"KFLG","receiptTime":"2026-04-09T22:00:56.027Z","obsTime":1775771820,"reportTime":"2026-04-09T22:00:00.000Z","temp":19.4,"dewp":-8.3,"wdir":210,"wspd":17,"wgst":27,"visib":"10+","altim":1020.7,"slp":1013.5,"qcField":4,"metarType":"METAR","rawOb":"METAR KFLG 092157Z 21017G27KT 10SM CLR 19/M08 A3014 RMK AO2 PK WND 21029/2107 SLP135 T01941083","lat":35.1443,"lon":-111.6664,"elev":2134,"name":"Flagstaff/Pulliam Arpt, AZ, US","cover":"CLR","clouds":[],"fltCat":"VFR"},{"icaoId":"KCGZ","receiptTime":"2026-04-09T22:00:40.055Z","obsTime":1775771760,"reportTime":"2026-04-09T22:00:00.000Z","temp":34.4,"dewp":-2.2,"wdir":240,"wspd":13,"wgst":25,"visib":7,"altim":1010.9,"slp":1009.3,"qcField":14,"metarType":"METAR","rawOb":"METAR KCGZ 092156Z AUTO 24013G25KT 7SM CLR 34/M02 A2985 RMK AO2 SLP093 T03441022 $","lat":32.9531,"lon":-111.7725,"elev":444,"name":"Casa Granda Muni, AZ, US","cover":"CLR","clouds":[],"fltCat":"VFR"},{"icaoId":"KDUG","receiptTime":"2026-04-09T22:02:15.182Z","obsTime":1775771760,"reportTime":"2026-04-09T22:00:00.000Z","temp":28.9,"dewp":-3.3,"wdir":"VRB","wspd":3,"wgst":16,"visib":"10+","altim":1015.7,"slp":1009.2,"qcField":38,"metarType":"METAR","rawOb":"METAR KDUG 092156Z AUTO VRB03G16KT 10SM CLR 29/M03 A2999 RMK AO2 SLP092 T02891033 TSNO","lat":31.4725,"lon":-109.6022,"elev":1260,"name":"Douglas/Bisbee Intl, AZ, US","cover":"CLR","clouds":[],"fltCat":"VFR"},{"icaoId":"KINW","receiptTime":"2026-04-09T22:00:55.203Z","obsTime":1775771760,"reportTime":"2026-04-09T22:00:00.000Z","temp":27.2,"dewp":-4.4,"wdir":250,"wspd":9,"visib":"10+","altim":1016.3,"slp":1010.5,"qcField":6,"metarType":"METAR","rawOb":"METAR KINW 092156Z AUTO 25009KT 10SM CLR 27/M04 A3001 RMK AO2 SLP105 T02721044","lat":35.0279,"lon":-110.7221,"elev":1492,"name":"Winslow/Lindberg Rgnl, AZ, US","cover":"CLR","clouds":[],"fltCat":"VFR"},{"icaoId":"KLUF","receiptTime":"2026-04-09T22:12:10.313Z","obsTime":1775771700,"reportTime":"2026-04-09T22:00:00.000Z","temp":34.2,"dewp":-4.8,"wdir":210,"wspd":8,"wgst":17,"visib":"10+","altim":1009.9,"slp":1008.4,"qcField":15,"metarType":"METAR","rawOb":"METAR KLUF 092155Z COR AUTO 21008G17KT 10SM BKN200 34/M05 A2982 RMK AO2 SLP084 T03421048 $ COR 2202","lat":33.538,"lon":-112.38,"elev":333,"name":"Phoenix/Luke AFB, AZ, US","cover":"BKN","clouds":[{"cover":"BKN","base":20000}],"fltCat":"VFR"},{"icaoId":"KIWA","receiptTime":"2026-04-09T21:52:14.355Z","obsTime":1775771400,"reportTime":"2026-04-09T22:00:00.000Z","temp":33,"dewp":-3,"wdir":350,"wspd":4,"visib":"10+","altim":1011.3,"qcField":0,"metarType":"METAR","rawOb":"METAR KIWA 092150Z 35004KT 10SM CLR 33/M03 A2986","lat":33.3008,"lon":-111.6437,"elev":420,"name":"Phoenix/Mesa Gateway Arpt, AZ, US","cover":"CLR","clouds":[],"fltCat":"VFR"},{"icaoId":"KIFP","receiptTime":"2026-04-09T21:51:05.505Z","obsTime":1775771340,"reportTime":"2026-04-09T22:00:00.000Z","temp":34,"dewp":-3,"wdir":170,"wspd":10,"wgst":21,"visib":"10+","altim":1007.9,"qcField":0,"metarType":"METAR","rawOb":"METAR KIFP 092149Z 17010G21KT 10SM CLR 34/M03 A2976","lat":35.1487,"lon":-114.5611,"elev":210,"name":"Bullhead City Intl, AZ, US","cover":"CLR","clouds":[],"fltCat":"VFR"}]