[{"icaoId":"KELD","receiptTime":"2026-04-18T22:32:08.746Z","obsTime":1776551340,"reportTime":"2026-04-18T22:29:00.000Z","temp":12.2,"dewp":11.1,"wdir":350,"wspd":8,"wgst":17,"visib":9,"altim":1020.1,"qcField":6,"wxString":"-RA","precip":0.01,"metarType":"SPECI","rawOb":"SPECI KELD 182229Z AUTO 35008G17KT 9SM -RA SCT008 OVC012 12/11 A3012 RMK AO2 P0001 T01220111","lat":33.2207,"lon":-92.814,"elev":76,"name":"El Dorado/S Arkansas Rgnl, AR, US","cover":"OVC","clouds":[{"cover":"SCT","base":800},{"cover":"OVC","base":1200}],"fltCat":"MVFR"},{"icaoId":"KCMH","receiptTime":"2026-04-18T22:28:09.680Z","obsTime":1776551100,"reportTime":"2026-04-18T22:25:00.000Z","temp":12.2,"dewp":8.9,"wdir":280,"wspd":19,"wgst":26,"visib":"10+","altim":1012.6,"qcField":4,"precip":0.005,"metarType":"SPECI","rawOb":"SPECI KCMH 182225Z 28019G26KT 10SM SCT015 OVC029 12/09 A2990 RMK AO2 PK WND 29027/2156 RAB01E21 P0000 T01220089","lat":39.9907,"lon":-82.877,"elev":257,"name":"Columbus/Glenn Intl, OH, US","cover":"OVC","clouds":[{"cover":"SCT","base":1500},{"cover":"OVC","base":2900}],"fltCat":"MVFR"},{"icaoId":"KTXK","receiptTime":"2026-04-18T22:28:04.125Z","obsTime":1776551040,"reportTime":"2026-04-18T22:24:00.000Z","temp":12.8,"dewp":11.7,"wdir":50,"wspd":4,"visib":6,"altim":1021.4,"qcField":12,"wxString":"-RA BR","precip":0.05,"metarType":"SPECI","rawOb":"SPECI KTXK 182224Z 05004KT 6SM -RA BR BKN027 BKN043 OVC050 13/12 A3016 RMK AO2 P0005 T01280117 $","lat":33.456,"lon":-93.9878,"elev":118,"name":"Texarkana Rgnl, AR, US","cover":"OVC","clouds":[{"cover":"BKN","base":2700},{"cover":"BKN","base":4300},{"cover":"OVC","base":5000}],"fltCat":"MVFR"},{"icaoId":"KDIK","receiptTime":"2026-04-18T22:26:07.165Z","obsTime":1776550980,"reportTime":"2026-04-18T22:23:00.000Z","temp":6.7,"dewp":-6.1,"wdir":320,"wspd":17,"wgst":26,"visib":"10+","altim":1016,"qcField":14,"metarType":"SPECI","rawOb":"SPECI KDIK 182223Z AUTO 32017G26KT 10SM BKN060 OVC095 07/M06 A3000 RMK AO2 PK WND 25028/2159 WSHFT 2203 T00671061 $","lat":46.7997,"lon":-102.7971,"elev":788,"name":"Dickinson/Roosevelt , ND, US","cover":"OVC","clouds":[{"cover":"BKN","base":6000},{"cover":"OVC","base":9500}],"fltCat":"VFR"},{"icaoId":"KCLE","receiptTime":"2026-04-18T22:26:05.591Z","obsTime":1776550920,"reportTime":"2026-04-18T22:22:00.000Z","temp":11.7,"dewp":10.6,"wdir":250,"wspd":8,"visib":"10+","altim":1009.6,"qcField":12,"precip":0.005,"metarType":"SPECI","rawOb":"SPECI KCLE 182222Z 25008KT 10SM FEW009 OVC033 12/11 A2981 RMK AO2 RAE2158 P0000 T01170106 $","lat":41.4057,"lon":-81.8519,"elev":237,"name":"Cleveland/Hopkins Intl, OH, US","cover":"OVC","clouds":[{"cover":"FEW","base":900},{"cover":"OVC","base":3300}],"fltCat":"VFR"},{"icaoId":"KSLN","receiptTime":"2026-04-18T22:24:04.769Z","obsTime":1776550800,"reportTime":"2026-04-18T22:20:00.000Z","temp":17.8,"dewp":-6.7,"wdir":300,"wspd":17,"wgst":23,"visib":"10+","altim":1021.4,"qcField":12,"metarType":"SPECI","rawOb":"SPECI KSLN 182220Z 30017G23KT 10SM BKN110 18/M07 A3016 RMK AO2 WSHFT 2200 T01781067 $","lat":38.78,"lon":-97.6446,"elev":377,"name":"Salina Rgnl, KS, US","cover":"BKN","clouds":[{"cover":"BKN","base":11000}],"fltCat":"VFR"},{"icaoId":"KHOU","receiptTime":"2026-04-18T22:24:04.603Z","obsTime":1776550800,"reportTime":"2026-04-18T22:20:00.000Z","temp":21.1,"dewp":20.6,"wdir":100,"wspd":8,"visib":5,"altim":1014.6,"qcField":12,"wxString":"-RA","metarType":"SPECI","rawOb":"SPECI KHOU 182220Z 10008KT 5SM -RA FEW012 SCT025 OVC075 21/21 A2996 RMK AO2 TSE2159B00E19 TS MOVD E CB DSNT NW AND E-SE MOV E T02110206 PNO $","lat":29.6458,"lon":-95.2821,"elev":13,"name":"Houston/Hobby Arpt, TX, US","cover":"OVC","clouds":[{"cover":"FEW","base":1200},{"cover":"SCT","base":2500},{"cover":"OVC","base":7500}],"fltCat":"MVFR"},{"icaoId":"KBNA","receiptTime":"2026-04-18T22:22:09.662Z","obsTime":1776550740,"reportTime":"2026-04-18T22:19:00.000Z","temp":15,"dewp":11.7,"wdir":340,"wspd":15,"wgst":27,"visib":"10+","altim":1015.7,"qcField":12,"metarType":"SPECI","rawOb":"SPECI KBNA 182219Z 34015G27KT 10SM SCT013 BKN029 BKN055 BKN250 15/12 A2999 RMK AO2 PK WND 32027/2159 T01500117 $","lat":36.1105,"lon":-86.6881,"elev":168,"name":"Nashville Intl, TN, US","cover":"BKN","clouds":[{"cover":"SCT","base":1300},{"cover":"BKN","base":2900},{"cover":"BKN","base":5500},{"cover":"BKN","base":25000}],"fltCat":"MVFR"},{"icaoId":"KIAH","receiptTime":"2026-04-18T22:20:41.237Z","obsTime":1776550560,"reportTime":"2026-04-18T22:16:00.000Z","temp":22.2,"dewp":20,"wdir":350,"wspd":19,"wgst":25,"visib":5,"altim":1014.6,"qcField":4,"wxString":"-RA BR","precip":0.005,"metarType":"SPECI","rawOb":"SPECI KIAH 182216Z 35019G25KT 5SM -RA BR FEW009 BKN018 BKN040 OVC140 22/20 A2996 RMK AO2 RAB08 LTG DSNT SE AND SW CB DSNT SE AND SW MOV E P0000 T02220200","lat":29.9844,"lon":-95.3607,"elev":27,"name":"Houston/Bush Intl, TX, US","cover":"OVC","clouds":[{"cover":"FEW","base":900},{"cover":"BKN","base":1800},{"cover":"BKN","base":4000},{"cover":"OVC","base":14000}],"fltCat":"MVFR"},{"icaoId":"KHII","receiptTime":"2026-04-18T22:20:41.588Z","obsTime":1776550500,"reportTime":"2026-04-18T22:15:00.000Z","temp":29,"dewp":-12,"wdir":0,"wspd":0,"visib":"10+","altim":1012.6,"qcField":6,"metarType":"METAR","rawOb":"METAR KHII 182215Z AUTO 00000KT 10SM CLR 29/M12 A2990 RMK AO2","lat":34.5659,"lon":-114.3522,"elev":241,"name":"Lake Havasu City Arpt, AZ, US","cover":"CLR","clouds":[],"fltCat":"VFR"},{"icaoId":"KHCR","receiptTime":"2026-04-18T22:18:15.182Z","obsTime":1776550500,"reportTime":"2026-04-18T22:15:00.000Z","temp":13.3,"dewp":-9,"wdir":0,"wspd":0,"visib":"10+","altim":1021.8,"qcField":14,"metarType":"METAR","rawOb":"METAR KHCR 182215Z AUTO 00000KT 10SM SCT160 SCT180 13/M09 A3017 RMK AO2 T01331090 $","lat":40.4774,"lon":-111.4329,"elev":1708,"name":"Heber City Muni, UT, US","cover":"SCT","clouds":[{"cover":"SCT","base":16000},{"cover":"SCT","base":18000}],"fltCat":"VFR"},{"icaoId":"KGAF","receiptTime":"2026-04-18T22:16:04.307Z","obsTime":1776550500,"reportTime":"2026-04-18T22:15:00.000Z","temp":5,"dewp":-7,"wdir":290,"wspd":19,"wgst":25,"visib":"10+","altim":1013.6,"qcField":134,"metarType":"METAR","rawOb":"METAR KGAF 182215Z AUTO 29019G25KT 10SM FEW055 FEW065 FEW100 05/M07 A2993 RMK AO2 PWINO","lat":48.4081,"lon":-97.3694,"elev":250,"name":"Grafton/Hutson Fld, ND, US","cover":"FEW","clouds":[{"cover":"FEW","base":5500},{"cover":"FEW","base":6500},{"cover":"FEW","base":10000}],"fltCat":"VFR"},{"icaoId":"KHAF","receiptTime":"2026-04-18T22:18:12.914Z","obsTime":1776550500,"reportTime":"2026-04-18T22:15:00.000Z","temp":16,"dewp":13,"wdir":290,"wspd":6,"visib":9,"altim":1015.3,"qcField":6,"metarType":"METAR","rawOb":"METAR KHAF 182215Z AUTO 29006KT 9SM CLR 16/13 A2998 RMK AO2","lat":37.5136,"lon":-122.4996,"elev":11,"name":"Half Moon Bay Arpt, CA, US","cover":"CLR","clouds":[],"fltCat":"VFR"},{"icaoId":"KRTS","receiptTime":"2026-04-18T22:20:46.806Z","obsTime":1776550500,"reportTime":"2026-04-18T22:15:00.000Z","temp":18,"dewp":-14,"wdir":"VRB","wspd":4,"wgst":10,"visib":"10+","altim":1017.4,"qcField":6,"metarType":"METAR","rawOb":"METAR KRTS 182215Z AUTO VRB04G10KT 10SM CLR 18/M14 A3004 RMK AO2","lat":39.6658,"lon":-119.8731,"elev":1537,"name":"Reno/Stead Arpt, NV, US","cover":"CLR","clouds":[],"fltCat":"VFR"},{"icaoId":"KBJC","receiptTime":"2026-04-18T22:13:39.691Z","obsTime":1776550500,"reportTime":"2026-04-18T22:15:00.000Z","temp":15,"dewp":-14,"wdir":350,"wspd":10,"visib":"10+","altim":1021.4,"qcField":0,"metarType":"SPECI","rawOb":"SPECI KBJC 182215Z 35010KT 10SM CLR 15/M14 A3016","lat":39.9008,"lon":-105.1042,"elev":1694,"name":"Rocky Mtn Metro, CO, US","cover":"CLR","clouds":[],"fltCat":"VFR"},{"icaoId":"KADM","receiptTime":"2026-04-18T22:20:48.459Z","obsTime":1776550500,"reportTime":"2026-04-18T22:15:00.000Z","temp":18,"dewp":0,"wdir":10,"wspd":12,"wgst":18,"visib":"10+","altim":1022.8,"qcField":6,"metarType":"METAR","rawOb":"METAR KADM 182215Z AUTO 01012G18KT 340V040 10SM CLR 18/M00 A3020 RMK AO2","lat":34.3007,"lon":-97.0089,"elev":223,"name":"Ardmore Muni, OK, US","cover":"CLR","clouds":[],"fltCat":"VFR"},{"icaoId":"KBUF","receiptTime":"2026-04-18T22:18:14.443Z","obsTime":1776550500,"reportTime":"2026-04-18T22:15:00.000Z","temp":12.8,"dewp":12.2,"wdir":220,"wspd":14,"wgst":22,"visib":3,"altim":1006.5,"qcField":12,"wxString":"RA BR","precip":0.16,"metarType":"SPECI","rawOb":"SPECI KBUF 182215Z 22014G22KT 3SM RA BR BKN003 BKN031 OVC044 13/12 A2972 RMK AO2 P0016 T01280122 $","lat":42.94,"lon":-78.7361,"elev":217,"name":"Buffalo-Niagara Intl, NY, US","cover":"OVC","clouds":[{"cover":"BKN","base":300},{"cover":"BKN","base":3100},{"cover":"OVC","base":4400}],"fltCat":"LIFR"},{"icaoId":"KMHR","receiptTime":"2026-04-18T22:20:35.690Z","obsTime":1776550500,"reportTime":"2026-04-18T22:15:00.000Z","temp":25,"dewp":3,"wdir":160,"wspd":8,"visib":"10+","altim":1013.3,"qcField":6,"metarType":"METAR","rawOb":"METAR KMHR 182215Z AUTO 16008KT 10SM CLR 25/03 A2992 RMK AO2","lat":38.56,"lon":-121.284,"elev":30,"name":"Sacramento/Mather Fld, CA, US","cover":"CLR","clouds":[],"fltCat":"VFR"},{"icaoId":"KANW","receiptTime":"2026-04-18T22:18:18.471Z","obsTime":1776550500,"reportTime":"2026-04-18T22:15:00.000Z","temp":10.5,"dewp":-10,"wdir":320,"wspd":21,"wgst":27,"visib":"10+","altim":1020.4,"qcField":6,"metarType":"METAR","rawOb":"METAR KANW 182215Z AUTO 32021G27KT 10SM SCT075 OVC090 11/M10 A3013 RMK AO2 T01051100","lat":42.5748,"lon":-99.9984,"elev":788,"name":"Ainsworth Muni, NE, US","cover":"OVC","clouds":[{"cover":"SCT","base":7500},{"cover":"OVC","base":9000}],"fltCat":"VFR"},{"icaoId":"KLRU","receiptTime":"2026-04-18T22:18:13.053Z","obsTime":1776550500,"reportTime":"2026-04-18T22:15:00.000Z","temp":22.4,"dewp":-8.4,"wdir":120,"wspd":12,"wgst":16,"visib":"10+","altim":1020.1,"qcField":6,"metarType":"METAR","rawOb":"METAR KLRU 182215Z AUTO 12012G16KT 10SM CLR 22/M08 A3012 RMK AO2 T02241084","lat":32.2884,"lon":-106.9131,"elev":1355,"name":"Las Cruces Intl, NM, US","cover":"CLR","clouds":[],"fltCat":"VFR"},{"icaoId":"KMEV","receiptTime":"2026-04-18T22:20:39.519Z","obsTime":1776550500,"reportTime":"2026-04-18T22:15:00.000Z","temp":20,"dewp":-7,"wdir":"VRB","wspd":4,"wgst":10,"visib":"10+","altim":1016,"qcField":6,"metarType":"METAR","rawOb":"METAR KMEV 182215Z AUTO VRB04G10KT 10SM CLR 20/M07 A3000 RMK AO2","lat":38.9963,"lon":-119.75,"elev":1437,"name":"Minden-Tahoe Arpt, NV, US","cover":"CLR","clouds":[],"fltCat":"VFR"},{"icaoId":"KSEZ","receiptTime":"2026-04-18T22:20:47.141Z","obsTime":1776550500,"reportTime":"2026-04-18T22:15:00.000Z","temp":23,"dewp":-15,"wdir":80,"wspd":12,"visib":"10+","altim":1019,"qcField":6,"metarType":"METAR","rawOb":"METAR KSEZ 182215Z AUTO 08012KT 040V100 10SM CLR 23/M15 A3009 RMK AO2","lat":34.8467,"lon":-111.7884,"elev":1455,"name":"Sedona Arpt, AZ, US","cover":"CLR","clouds":[],"fltCat":"VFR"},{"icaoId":"KCXP","receiptTime":"2026-04-18T22:20:46.085Z","obsTime":1776550500,"reportTime":"2026-04-18T22:15:00.000Z","temp":20,"dewp":-14,"wdir":"VRB","wspd":6,"wgst":14,"visib":"10+","altim":1016.7,"qcField":6,"metarType":"METAR","rawOb":"METAR KCXP 182215Z AUTO VRB06G14KT 10SM CLR 20/M14 A3002 RMK AO2","lat":39.1905,"lon":-119.7319,"elev":1431,"name":"Carson City Arpt, NV, US","cover":"CLR","clouds":[],"fltCat":"VFR"},{"icaoId":"KBIE","receiptTime":"2026-04-18T22:18:18.812Z","obsTime":1776550500,"reportTime":"2026-04-18T22:15:00.000Z","temp":13.9,"dewp":-5.4,"wdir":300,"wspd":11,"visib":"10+","altim":1020.7,"qcField":6,"metarType":"METAR","rawOb":"METAR KBIE 182215Z AUTO 30011KT 10SM SCT043 SCT065 OVC095 14/M05 A3014 RMK AO2 T01391054","lat":40.3005,"lon":-96.7517,"elev":398,"name":"Beatrice Muni, NE, US","cover":"OVC","clouds":[{"cover":"SCT","base":4300},{"cover":"SCT","base":6500},{"cover":"OVC","base":9500}],"fltCat":"VFR"},{"icaoId":"KBVU","receiptTime":"2026-04-18T22:16:04.241Z","obsTime":1776550500,"reportTime":"2026-04-18T22:15:00.000Z","temp":24,"dewp":-20,"wdir":0,"wspd":0,"visib":"10+","altim":1016,"qcField":6,"metarType":"METAR","rawOb":"METAR KBVU 182215Z AUTO 00000KT 10SM CLR 24/M20 A3000 RMK AO2","lat":35.9489,"lon":-114.8633,"elev":654,"name":"Boulder City Muni, NV, US","cover":"CLR","clouds":[],"fltCat":"VFR"},{"icaoId":"KSOW","receiptTime":"2026-04-18T22:18:13.355Z","obsTime":1776550500,"reportTime":"2026-04-18T22:15:00.000Z","temp":19,"dewp":-15,"wdir":"VRB","wspd":6,"wgst":12,"visib":"10+","altim":1021.8,"qcField":6,"metarType":"METAR","rawOb":"METAR KSOW 182215Z AUTO VRB06G12KT 10SM CLR 19/M15 A3017 RMK AO2","lat":34.2686,"lon":-110.0019,"elev":1954,"name":"Show Low Muni, AZ, US","cover":"CLR","clouds":[],"fltCat":"VFR"},{"icaoId":"KBJI","receiptTime":"2026-04-18T22:20:45.401Z","obsTime":1776550500,"reportTime":"2026-04-18T22:15:00.000Z","temp":1.7,"dewp":-10.2,"wdir":300,"wspd":23,"wgst":30,"visib":"10+","altim":1013,"qcField":6,"metarType":"METAR","rawOb":"METAR KBJI 182215Z AUTO 30023G30KT 10SM BKN050 02/M10 A2991 RMK AO2 T00171102","lat":47.5076,"lon":-94.9279,"elev":422,"name":"Bemidji Municip, MN, US","cover":"BKN","clouds":[{"cover":"BKN","base":5000}],"fltCat":"VFR"},{"icaoId":"KHTH","receiptTime":"2026-04-18T22:20:36.831Z","obsTime":1776550200,"reportTime":"2026-04-18T22:10:00.000Z","temp":21,"dewp":-19,"wdir":340,"wspd":7,"visib":"10+","altim":1015.7,"qcField":6,"metarType":"METAR","rawOb":"METAR KHTH 182210Z AUTO 34007KT 310V010 10SM CLR 21/M19 A2999 RMK A01","lat":38.5448,"lon":-118.6314,"elev":1281,"name":"Hawthorne Muni, NV, US","cover":"CLR","clouds":[],"fltCat":"VFR"},{"icaoId":"KPBF","receiptTime":"2026-04-18T22:12:04.223Z","obsTime":1776550080,"reportTime":"2026-04-18T22:08:00.000Z","temp":11.7,"dewp":7.8,"wdir":350,"wspd":12,"wgst":22,"visib":"10+","altim":1019.7,"qcField":6,"metarType":"SPECI","rawOb":"SPECI KPBF 182208Z AUTO 35012G22KT 10SM FEW012 FEW024 OVC030 12/08 A3011 RMK AO2 PK WND 36026/2154 T01170078","lat":34.1798,"lon":-91.9344,"elev":63,"name":"Pine Bluff/Grider Fld, AR, US","cover":"OVC","clouds":[{"cover":"FEW","base":1200},{"cover":"FEW","base":2400},{"cover":"OVC","base":3000}],"fltCat":"MVFR"},{"icaoId":"KJFK","receiptTime":"2026-04-18T22:08:18.036Z","obsTime":1776549840,"reportTime":"2026-04-18T22:04:00.000Z","temp":12.2,"dewp":8.9,"wdir":130,"wspd":10,"visib":"10+","altim":1016.3,"qcField":0,"metarType":"SPECI","rawOb":"SPECI KJFK 182204Z 13010KT 10SM OVC009 12/09 A3001 RMK T01220089","lat":40.6392,"lon":-73.7639,"elev":3,"name":"New York/JF Kennedy Intl, NY, US","cover":"OVC","clouds":[{"cover":"OVC","base":900}],"fltCat":"IFR"},{"icaoId":"KBOS","receiptTime":"2026-04-18T22:04:04.349Z","obsTime":1776549600,"reportTime":"2026-04-18T22:00:00.000Z","temp":6.7,"dewp":6.1,"wdir":60,"wspd":11,"visib":1.25,"altim":1018,"qcField":4,"wxString":"BR","metarType":"SPECI","rawOb":"SPECI KBOS 182200Z 06011KT 1 1/4SM BR BKN003 OVC008 07/06 A3006 RMK AO2 T00670061","lat":42.3606,"lon":-71.0097,"elev":4,"name":"Boston/Logan Intl, MA, US","cover":"OVC","clouds":[{"cover":"BKN","base":300},{"cover":"OVC","base":800}],"fltCat":"LIFR"},{"icaoId":"KASE","receiptTime":"2026-04-18T22:00:57.047Z","obsTime":1776549420,"reportTime":"2026-04-18T21:57:00.000Z","temp":8.9,"dewp":-18.3,"wdir":350,"wspd":8,"wgst":18,"visib":"10+","altim":1025.1,"qcField":4,"metarType":"SPECI","rawOb":"SPECI KASE 182157Z 35008G18KT 10SM CLR 09/M18 A3027 RMK AO2 T00891183","lat":39.2299,"lon":-106.8705,"elev":2384,"name":"Aspen/Pitkin Cnty, CO, US","cover":"CLR","clouds":[],"fltCat":"VFR"},{"icaoId":"KCRP","receiptTime":"2026-04-18T22:00:57.060Z","obsTime":1776549420,"reportTime":"2026-04-18T21:57:00.000Z","temp":27.8,"dewp":20.6,"wdir":120,"wspd":13,"wgst":20,"visib":"10+","altim":1013,"qcField":12,"metarType":"SPECI","rawOb":"SPECI KCRP 182157Z 12013G20KT 10SM BKN025 BKN031 BKN065 OVC250 28/21 A2991 RMK AO2 T02780206 $","lat":27.7734,"lon":-97.513,"elev":11,"name":"Corpus Christi Intl, TX, US","cover":"OVC","clouds":[{"cover":"BKN","base":2500},{"cover":"BKN","base":3100},{"cover":"BKN","base":6500},{"cover":"OVC","base":25000}],"fltCat":"MVFR"},{"icaoId":"KFLG","receiptTime":"2026-04-18T22:00:55.672Z","obsTime":1776549420,"reportTime":"2026-04-18T22:00:00.000Z","temp":13.3,"dewp":-19.4,"wdir":60,"wspd":11,"wgst":19,"visib":"10+","altim":1023.1,"slp":1018.3,"qcField":4,"metarType":"METAR","rawOb":"METAR KFLG 182157Z 06011G19KT 10SM CLR 13/M19 A3021 RMK AO2 SLP183 T01331194","lat":35.1443,"lon":-111.6664,"elev":2134,"name":"Flagstaff/Pulliam Arpt, AZ, US","cover":"CLR","clouds":[],"fltCat":"VFR"},{"icaoId":"KNFL","receiptTime":"2026-04-18T22:00:57.120Z","obsTime":1776549420,"reportTime":"2026-04-18T22:00:00.000Z","temp":21.1,"dewp":-18.9,"wdir":"VRB","wspd":6,"visib":"10+","altim":1016,"slp":1013,"qcField":6,"metarType":"METAR","rawOb":"METAR KNFL 182157Z AUTO VRB06KT 10SM CLR 21/M19 A3000 RMK AO2 SLP130 T02111189","lat":39.417,"lon":-118.705,"elev":1199,"name":"Fallon , NV, US","cover":"CLR","clouds":[],"fltCat":"VFR"},{"icaoId":"KNYL","receiptTime":"2026-04-18T22:00:57.109Z","obsTime":1776549420,"reportTime":"2026-04-18T22:00:00.000Z","temp":30.6,"dewp":-7.8,"wdir":0,"wspd":0,"visib":"10+","altim":1011.6,"slp":1011.2,"qcField":4,"metarType":"METAR","rawOb":"METAR KNYL 182157Z 00000KT 10SM CLR 31/M08 A2987 RMK AO2 SLP112 T03061078","lat":32.66,"lon":-114.6078,"elev":58,"name":"Yuma , AZ, US","cover":"CLR","clouds":[],"fltCat":"VFR"},{"icaoId":"KPWT","receiptTime":"2026-04-18T21:58:27.350Z","obsTime":1776549360,"reportTime":"2026-04-18T22:00:00.000Z","temp":19.4,"dewp":1.7,"wdir":190,"wspd":10,"visib":"10+","altim":1015,"slp":1015.4,"qcField":6,"metarType":"METAR","rawOb":"METAR KPWT 182156Z AUTO 19010KT 160V220 10SM CLR 19/02 A2997 RMK AO2 SLP154 T01940017","lat":47.4942,"lon":-122.7594,"elev":143,"name":"Bremerton Arpt, WA, US","cover":"CLR","clouds":[],"fltCat":"VFR"},{"icaoId":"KCGZ","receiptTime":"2026-04-18T21:58:20.422Z","obsTime":1776549360,"reportTime":"2026-04-18T22:00:00.000Z","temp":31.1,"dewp":-6.7,"wdir":30,"wspd":6,"visib":"10+","altim":1012.3,"slp":1011.1,"qcField":14,"metarType":"METAR","rawOb":"METAR KCGZ 182156Z AUTO 03006KT 10SM CLR 31/M07 A2989 RMK AO2 SLP111 T03111067 $","lat":32.9531,"lon":-111.7725,"elev":444,"name":"Casa Granda Muni, AZ, US","cover":"CLR","clouds":[],"fltCat":"VFR"},{"icaoId":"KDUG","receiptTime":"2026-04-18T22:02:05.516Z","obsTime":1776549360,"reportTime":"2026-04-18T22:00:00.000Z","temp":27.2,"dewp":-5,"wdir":50,"wspd":9,"wgst":15,"visib":"10+","altim":1016,"slp":1010.7,"qcField":38,"metarType":"METAR","rawOb":"METAR KDUG 182156Z AUTO 05009G15KT 10SM CLR 27/M05 A3000 RMK AO2 SLP107 T02721050 TSNO","lat":31.4725,"lon":-109.6022,"elev":1260,"name":"Douglas/Bisbee Intl, AZ, US","cover":"CLR","clouds":[],"fltCat":"VFR"},{"icaoId":"KFSD","receiptTime":"2026-04-18T22:00:19.583Z","obsTime":1776549360,"reportTime":"2026-04-18T22:00:00.000Z","temp":8.9,"dewp":-15.6,"wdir":300,"wspd":15,"wgst":32,"visib":"10+","altim":1018.4,"slp":1019.6,"qcField":4,"metarType":"METAR","rawOb":"METAR KFSD 182156Z 30015G32KT 10SM FEW090 09/M16 A3007 RMK AO2 PK WND 30032/2148 SLP196 T00891156","lat":43.5775,"lon":-96.7539,"elev":433,"name":"Sioux Falls/Foss Fld, SD, US","cover":"FEW","clouds":[{"cover":"FEW","base":9000}],"fltCat":"VFR"},{"icaoId":"KEKO","receiptTime":"2026-04-18T22:00:44.555Z","obsTime":1776549360,"reportTime":"2026-04-18T22:00:00.000Z","temp":16.7,"dewp":-14.4,"wdir":0,"wspd":0,"visib":"10+","altim":1019,"slp":1018.6,"qcField":6,"metarType":"METAR","rawOb":"METAR KEKO 182156Z AUTO 00000KT 10SM CLR 17/M14 A3009 RMK AO2 SLP186 T01671144","lat":40.824,"lon":-115.7863,"elev":1541,"name":"Elko Rgnl, NV, US","cover":"CLR","clouds":[],"fltCat":"VFR"},{"icaoId":"KJAX","receiptTime":"2026-04-18T22:00:18.322Z","obsTime":1776549360,"reportTime":"2026-04-18T22:00:00.000Z","temp":30.6,"dewp":13.3,"wdir":110,"wspd":12,"visib":"10+","altim":1013.6,"slp":1013.5,"qcField":12,"metarType":"METAR","rawOb":"METAR KJAX 182156Z 11012KT 10SM SCT090 SCT250 31/13 A2993 RMK AO2 SLP135 T03060133 $","lat":30.4953,"lon":-81.6937,"elev":8,"name":"Jacksonville Intl, FL, US","cover":"SCT","clouds":[{"cover":"SCT","base":9000},{"cover":"SCT","base":25000}],"fltCat":"VFR"},{"icaoId":"KSDF","receiptTime":"2026-04-18T22:00:23.211Z","obsTime":1776549360,"reportTime":"2026-04-18T22:00:00.000Z","temp":10.6,"dewp":6.7,"wdir":310,"wspd":11,"visib":"10+","altim":1016.3,"slp":1016.1,"qcField":4,"precip":0.005,"metarType":"METAR","rawOb":"METAR KSDF 182156Z 31011KT 10SM FEW015 OVC033 11/07 A3001 RMK AO2 RAB14E31 SLP161 P0000 T01060067","lat":38.1774,"lon":-85.7308,"elev":146,"name":"Louisville Intl, KY, US","cover":"OVC","clouds":[{"cover":"FEW","base":1500},{"cover":"OVC","base":3300}],"fltCat":"VFR"},{"icaoId":"KUKI","receiptTime":"2026-04-18T22:00:32.310Z","obsTime":1776549360,"reportTime":"2026-04-18T22:00:00.000Z","temp":25,"dewp":2.2,"wdir":120,"wspd":6,"visib":"10+","altim":1013.6,"slp":1012.8,"qcField":6,"metarType":"METAR","rawOb":"METAR KUKI 182156Z AUTO 12006KT 10SM CLR 25/02 A2993 RMK AO2 SLP128 T02500022","lat":39.1278,"lon":-123.2001,"elev":183,"name":"Ukiah Muni, CA, US","cover":"CLR","clouds":[],"fltCat":"VFR"},{"icaoId":"KSLE","receiptTime":"2026-04-18T22:00:32.286Z","obsTime":1776549360,"reportTime":"2026-04-18T22:00:00.000Z","temp":20,"dewp":6.7,"wdir":90,"wspd":4,"visib":"10+","altim":1014,"slp":1013.7,"qcField":4,"metarType":"METAR","rawOb":"METAR KSLE 182156Z 09004KT 10SM CLR 20/07 A2994 RMK AO2 SLP137 T02000067","lat":44.9049,"lon":-123.001,"elev":63,"name":"Salem Muni, OR, US","cover":"CLR","clouds":[],"fltCat":"VFR"},{"icaoId":"KMKT","receiptTime":"2026-04-18T21:58:27.891Z","obsTime":1776549360,"reportTime":"2026-04-18T22:00:00.000Z","temp":7.8,"dewp":-10.6,"wdir":310,"wspd":19,"wgst":26,"visib":"10+","altim":1016.3,"slp":1017.5,"qcField":6,"metarType":"METAR","rawOb":"METAR KMKT 182156Z AUTO 31019G26KT 10SM FEW075 08/M11 A3001 RMK AO2 PK WND 28028/2145 SLP175 T00781106","lat":44.2184,"lon":-93.9179,"elev":309,"name":"Mankato Rgnl, MN, US","cover":"FEW","clouds":[{"cover":"FEW","base":7500}],"fltCat":"VFR"},{"icaoId":"KFNL","receiptTime":"2026-04-18T21:58:23.286Z","obsTime":1776549360,"reportTime":"2026-04-18T22:00:00.000Z","temp":15,"dewp":-13.3,"wdir":110,"wspd":5,"visib":"10+","altim":1021.4,"slp":1019.3,"qcField":12,"metarType":"METAR","rawOb":"METAR KFNL 182156Z 11005KT 10SM CLR 15/M13 A3016 RMK AO2 SLP193 T01501133 $","lat":40.4427,"lon":-105.0097,"elev":1529,"name":"Fort Collins/N Colorado Rgnl, CO, US","cover":"CLR","clouds":[],"fltCat":"VFR"},{"icaoId":"KHND","receiptTime":"2026-04-18T21:58:23.610Z","obsTime":1776549360,"reportTime":"2026-04-18T22:00:00.000Z","temp":22.8,"dewp":-16.1,"wdir":30,"wspd":8,"visib":"10+","altim":1017.7,"slp":1018.5,"qcField":12,"metarType":"METAR","rawOb":"METAR KHND 182156Z 03008KT 360V070 10SM CLR 23/M16 A3005 RMK AO2 SLP185 T02281161 $","lat":35.9657,"lon":-115.1343,"elev":740,"name":"Henderson Exec, NV, US","cover":"CLR","clouds":[],"fltCat":"VFR"},{"icaoId":"KVIS","receiptTime":"2026-04-18T21:58:22.878Z","obsTime":1776549360,"reportTime":"2026-04-18T22:00:00.000Z","temp":26.7,"dewp":1.1,"wdir":20,"wspd":6,"visib":"10+","altim":1014,"slp":1013.9,"qcField":14,"metarType":"METAR","rawOb":"METAR KVIS 182156Z AUTO 02006KT 10SM CLR 27/01 A2994 RMK AO2 SLP139 T02670011 PNO $","lat":36.3135,"lon":-119.3884,"elev":92,"name":"Visalia Muni, CA, US","cover":"CLR","clouds":[],"fltCat":"VFR"},{"icaoId":"KPVU","receiptTime":"2026-04-18T21:58:27.317Z","obsTime":1776549360,"reportTime":"2026-04-18T22:00:00.000Z","temp":12.8,"dewp":-6.1,"wdir":250,"wspd":6,"visib":"10+","altim":1022.8,"slp":1022.6,"qcField":4,"metarType":"METAR","rawOb":"METAR KPVU 182156Z 25006KT 10SM CLR 13/M06 A3020 RMK AO2 SLP226 T01281061","lat":40.224,"lon":-111.7252,"elev":1370,"name":"Provo Muni, UT, US","cover":"CLR","clouds":[],"fltCat":"VFR"},{"icaoId":"KDVL","receiptTime":"2026-04-18T21:58:24.776Z","obsTime":1776549360,"reportTime":"2026-04-18T22:00:00.000Z","temp":5,"dewp":-6.1,"wdir":340,"wspd":9,"visib":"10+","altim":1013.6,"slp":1015.9,"qcField":6,"metarType":"METAR","rawOb":"METAR KDVL 182156Z AUTO 34009KT 10SM SCT050 BKN060 05/M06 A2993 RMK AO2 SLP159 T00501061","lat":48.1136,"lon":-98.9034,"elev":439,"name":"Devils Lake Rgnl, ND, US","cover":"BKN","clouds":[{"cover":"SCT","base":5000},{"cover":"BKN","base":6000}],"fltCat":"VFR"},{"icaoId":"KSGU","receiptTime":"2026-04-18T21:58:24.117Z","obsTime":1776549360,"reportTime":"2026-04-18T22:00:00.000Z","temp":24.4,"dewp":-17.8,"wdir":100,"wspd":9,"wgst":14,"visib":"10+","altim":1018,"slp":1016.1,"qcField":6,"metarType":"METAR","rawOb":"METAR KSGU 182156Z AUTO 10009G14KT 10SM CLR 24/M18 A3006 RMK AO2 SLP161 T02441178","lat":37.0444,"lon":-113.5034,"elev":877,"name":"Saint George Muni, UT, US","cover":"CLR","clouds":[],"fltCat":"VFR"},{"icaoId":"KJAC","receiptTime":"2026-04-18T21:58:23.861Z","obsTime":1776549360,"reportTime":"2026-04-18T22:00:00.000Z","temp":8.3,"dewp":-9.4,"wdir":"VRB","wspd":5,"visib":"10+","altim":1023.5,"slp":1025.9,"qcField":4,"metarType":"METAR","rawOb":"METAR KJAC 182156Z VRB05KT 10SM CLR 08/M09 A3022 RMK AO2 SLP259 T00831094","lat":43.6129,"lon":-110.7366,"elev":1967,"name":"Jackson Hole Arpt, WY, US","cover":"CLR","clouds":[],"fltCat":"VFR"},{"icaoId":"KYKN","receiptTime":"2026-04-18T21:58:23.119Z","obsTime":1776549360,"reportTime":"2026-04-18T22:00:00.000Z","temp":11.1,"dewp":-13.9,"wdir":310,"wspd":25,"wgst":35,"visib":"10+","altim":1019.4,"slp":1021.5,"qcField":6,"metarType":"METAR","rawOb":"METAR KYKN 182156Z AUTO 31025G35KT 10SM FEW100 11/M14 A3010 RMK AO2 PK WND 30035/2156 SLP215 T01111139","lat":42.9141,"lon":-97.3807,"elev":388,"name":"Yankton/Gurney Muni, SD, US","cover":"FEW","clouds":[{"cover":"FEW","base":10000}],"fltCat":"VFR"},{"icaoId":"KSBP","receiptTime":"2026-04-18T22:00:31.803Z","obsTime":1776549360,"reportTime":"2026-04-18T22:00:00.000Z","temp":24.4,"dewp":-1.7,"wdir":210,"wspd":7,"visib":"10+","altim":1014.3,"slp":1013.9,"qcField":4,"metarType":"METAR","rawOb":"METAR KSBP 182156Z 21007KT 10SM CLR 24/M02 A2995 RMK AO2 SLP139 T02441017","lat":35.2381,"lon":-120.644,"elev":52,"name":"San Luis Obispo/San Luis Cnty, CA, US","cover":"CLR","clouds":[],"fltCat":"VFR"},{"icaoId":"KLWS","receiptTime":"2026-04-18T22:00:31.938Z","obsTime":1776549360,"reportTime":"2026-04-18T22:00:00.000Z","temp":17.8,"dewp":2.8,"wdir":80,"wspd":6,"visib":"10+","altim":1018,"slp":1018.2,"qcField":4,"metarType":"METAR","rawOb":"METAR KLWS 182156Z 08006KT 10SM CLR 18/03 A3006 RMK AO2 SLP182 T01780028","lat":46.3746,"lon":-117.0153,"elev":435,"name":"Lewiston/Nez Perce Cnty, ID, US","cover":"CLR","clouds":[],"fltCat":"VFR"},{"icaoId":"KRDM","receiptTime":"2026-04-18T22:00:31.791Z","obsTime":1776549360,"reportTime":"2026-04-18T22:00:00.000Z","temp":20.6,"dewp":-8.3,"wdir":"VRB","wspd":5,"visib":"10+","altim":1014.3,"slp":1013.7,"qcField":4,"metarType":"METAR","rawOb":"METAR KRDM 182156Z VRB05KT 10SM CLR 21/M08 A2995 RMK AO2 SLP137 T02061083","lat":44.2558,"lon":-121.1407,"elev":930,"name":"Redmond Muni, OR, US","cover":"CLR","clouds":[],"fltCat":"VFR"},{"icaoId":"KLBL","receiptTime":"2026-04-18T21:58:26.533Z","obsTime":1776549360,"reportTime":"2026-04-18T22:00:00.000Z","temp":17.8,"dewp":-12.8,"wdir":330,"wspd":12,"wgst":19,"visib":"10+","altim":1023.5,"slp":1023.4,"qcField":14,"metarType":"METAR","rawOb":"METAR KLBL 182156Z AUTO 33012G19KT 10SM CLR 18/M13 A3022 RMK AO2 SLP234 T01781128 $","lat":37.0375,"lon":-100.9574,"elev":877,"name":"Liberal/Mid America Rgnl, KS, US","cover":"CLR","clouds":[],"fltCat":"VFR"},{"icaoId":"KGUC","receiptTime":"2026-04-18T21:58:23.476Z","obsTime":1776549360,"reportTime":"2026-04-18T22:00:00.000Z","temp":10.6,"dewp":-17.8,"wdir":"VRB","wspd":4,"visib":"10+","altim":1024.5,"slp":1025.2,"qcField":14,"metarType":"METAR","rawOb":"METAR KGUC 182156Z AUTO VRB04KT 10SM CLR 11/M18 A3025 RMK AO2 SLP252 T01061178 $","lat":38.5322,"lon":-106.9419,"elev":2337,"name":"Gunnison Arpt, CO, US","cover":"CLR","clouds":[],"fltCat":"VFR"},{"icaoId":"KENV","receiptTime":"2026-04-18T21:58:25.136Z","obsTime":1776549360,"reportTime":"2026-04-18T22:00:00.000Z","temp":14.4,"dewp":-16.7,"wdir":110,"wspd":9,"wgst":14,"visib":"10+","altim":1023.5,"slp":1023.7,"qcField":6,"metarType":"METAR","rawOb":"METAR KENV 182156Z AUTO 11009G14KT 10SM CLR 14/M17 A3022 RMK AO2 SLP237 T01441167","lat":40.7211,"lon":-114.0312,"elev":1291,"name":"Wendover Arpt, UT, US","cover":"CLR","clouds":[],"fltCat":"VFR"},{"icaoId":"KEGE","receiptTime":"2026-04-18T21:58:24.959Z","obsTime":1776549360,"reportTime":"2026-04-18T22:00:00.000Z","temp":9.4,"dewp":-10.6,"wdir":60,"wspd":7,"visib":"10+","altim":1025.5,"slp":1025.1,"qcField":4,"metarType":"METAR","rawOb":"METAR KEGE 182156Z 06007KT 10SM CLR 09/M11 A3028 RMK AO2 SLP251 T00941106","lat":39.6448,"lon":-106.9176,"elev":1993,"name":"Eagle Cnty Rgnl, CO, US","cover":"CLR","clouds":[],"fltCat":"VFR"},{"icaoId":"KBZN","receiptTime":"2026-04-18T22:00:30.843Z","obsTime":1776549360,"reportTime":"2026-04-18T22:00:00.000Z","temp":10,"dewp":-6.7,"wdir":140,"wspd":5,"visib":"10+","altim":1020.7,"slp":1022.9,"qcField":4,"metarType":"METAR","rawOb":"METAR KBZN 182156Z 14005KT 10SM CLR 10/M07 A3014 RMK AO2 SLP229 T01001067","lat":45.7876,"lon":-111.1615,"elev":1349,"name":"Bozeman/Gallatin Fld, MT, US","cover":"CLR","clouds":[],"fltCat":"VFR"},{"icaoId":"KEAR","receiptTime":"2026-04-18T21:58:24.839Z","obsTime":1776549360,"reportTime":"2026-04-18T22:00:00.000Z","temp":14.4,"dewp":-10.6,"wdir":310,"wspd":21,"wgst":27,"visib":"10+","altim":1020.4,"slp":1021.1,"qcField":6,"metarType":"METAR","rawOb":"METAR KEAR 182156Z AUTO 31021G27KT 10SM SCT100 14/M11 A3013 RMK AO2 PK WND 30031/2134 SLP211 T01441106","lat":40.7193,"lon":-99.0086,"elev":649,"name":"Kearney Rgnl, NE, US","cover":"SCT","clouds":[{"cover":"SCT","base":10000}],"fltCat":"VFR"},{"icaoId":"KCEC","receiptTime":"2026-04-18T22:00:53.840Z","obsTime":1776549360,"reportTime":"2026-04-18T22:00:00.000Z","temp":12.8,"dewp":8.9,"wdir":"VRB","wspd":5,"visib":"10+","altim":1016,"slp":1015.8,"qcField":6,"metarType":"METAR","rawOb":"METAR KCEC 182156Z AUTO VRB05KT 10SM CLR 13/09 A3000 RMK AO2 SLP158 T01280089","lat":41.7836,"lon":-124.238,"elev":17,"name":"Crescent City/McNama, CA, US","cover":"CLR","clouds":[],"fltCat":"VFR"},{"icaoId":"KSDY","receiptTime":"2026-04-18T21:58:23.973Z","obsTime":1776549360,"reportTime":"2026-04-18T22:00:00.000Z","temp":8.9,"dewp":-4.4,"wdir":330,"wspd":18,"visib":"10+","altim":1017.7,"slp":1020.3,"qcField":14,"metarType":"METAR","rawOb":"METAR KSDY 182156Z AUTO 33018KT 10SM BKN060 BKN075 OVC100 09/M04 A3005 RMK AO2 PK WND 32026/2111 SLP203 T00891044 $","lat":47.7029,"lon":-104.1951,"elev":600,"name":"Sidney/Richland Muni, MT, US","cover":"OVC","clouds":[{"cover":"BKN","base":6000},{"cover":"BKN","base":7500},{"cover":"OVC","base":10000}],"fltCat":"VFR"},{"icaoId":"KHDN","receiptTime":"2026-04-18T21:58:23.546Z","obsTime":1776549360,"reportTime":"2026-04-18T22:00:00.000Z","temp":7.8,"dewp":-10.6,"wdir":300,"wspd":7,"visib":"10+","altim":1025.8,"slp":1027.1,"qcField":6,"metarType":"METAR","rawOb":"METAR KHDN 182156Z AUTO 30007KT 10SM CLR 08/M11 A3029 RMK AO2 SLP271 T00781106","lat":40.4842,"lon":-107.2296,"elev":2012,"name":"Hayden/Yampa Valley Arpt, CO, US","cover":"CLR","clouds":[],"fltCat":"VFR"},{"icaoId":"KFOD","receiptTime":"2026-04-18T21:58:23.300Z","obsTime":1776549360,"reportTime":"2026-04-18T22:00:00.000Z","temp":10,"dewp":-13.3,"wdir":290,"wspd":13,"wgst":21,"visib":"10+","altim":1018,"slp":1020.2,"qcField":14,"metarType":"METAR","rawOb":"METAR KFOD 182156Z AUTO 29013G21KT 10SM CLR 10/M13 A3006 RMK AO2 PK WND 30026/2144 SLP202 T01001133 $","lat":42.549,"lon":-94.182,"elev":347,"name":"Fort Dodge Rgnl, IA, US","cover":"CLR","clouds":[],"fltCat":"VFR"},{"icaoId":"KCOE","receiptTime":"2026-04-18T21:58:20.592Z","obsTime":1776549360,"reportTime":"2026-04-18T22:00:00.000Z","temp":15.6,"dewp":-1.1,"wdir":"VRB","wspd":3,"visib":"10+","altim":1019,"slp":1021.2,"qcField":14,"metarType":"METAR","rawOb":"METAR KCOE 182156Z AUTO VRB03KT 10SM CLR 16/M01 A3009 RMK AO2 SLP212 T01561011 PNO $","lat":47.7719,"lon":-116.8332,"elev":693,"name":"Coeur DAlene Arpt, ID, US","cover":"CLR","clouds":[],"fltCat":"VFR"},{"icaoId":"KCOD","receiptTime":"2026-04-18T21:58:20.577Z","obsTime":1776549360,"reportTime":"2026-04-18T22:00:00.000Z","temp":13.9,"dewp":-11.7,"wdir":240,"wspd":8,"wgst":15,"visib":"10+","altim":1019.7,"slp":1020.3,"qcField":14,"metarType":"METAR","rawOb":"METAR KCOD 182156Z AUTO 24008G15KT 10SM CLR 14/M12 A3011 RMK AO2 SLP203 T01391117 $","lat":44.52,"lon":-109.0268,"elev":1550,"name":"Cody/Yellowstone Rgnl, WY, US","cover":"CLR","clouds":[],"fltCat":"VFR"},{"icaoId":"KCHS","receiptTime":"2026-04-18T22:00:16.638Z","obsTime":1776549360,"reportTime":"2026-04-18T22:00:00.000Z","temp":28.3,"dewp":16.7,"wdir":190,"wspd":10,"visib":"10+","altim":1013.3,"slp":1013.2,"qcField":4,"metarType":"METAR","rawOb":"METAR KCHS 182156Z 19010KT 10SM SCT090 BKN200 OVC250 28/17 A2992 RMK AO2 SLP132 T02830167","lat":32.8995,"lon":-80.0407,"elev":12,"name":"Charleston Intl, SC, US","cover":"OVC","clouds":[{"cover":"SCT","base":9000},{"cover":"BKN","base":20000},{"cover":"OVC","base":25000}],"fltCat":"VFR"},{"icaoId":"KBKX","receiptTime":"2026-04-18T21:58:19.994Z","obsTime":1776549360,"reportTime":"2026-04-18T22:00:00.000Z","temp":7.2,"dewp":-13.9,"wdir":300,"wspd":23,"wgst":28,"visib":"10+","altim":1017,"slp":1019.7,"qcField":6,"metarType":"METAR","rawOb":"METAR KBKX 182156Z AUTO 30023G28KT 10SM CLR 07/M14 A3003 RMK AO2 PK WND 31029/2132 SLP197 T00721139","lat":44.3075,"lon":-96.8183,"elev":494,"name":"Brookings Rgnl, SD, US","cover":"CLR","clouds":[],"fltCat":"VFR"},{"icaoId":"KTPH","receiptTime":"2026-04-18T22:00:32.297Z","obsTime":1776549360,"reportTime":"2026-04-18T22:00:00.000Z","temp":19.4,"dewp":-19.4,"wdir":170,"wspd":10,"wgst":19,"visib":"10+","altim":1018.4,"slp":1015.3,"qcField":6,"metarType":"METAR","rawOb":"METAR KTPH 182156Z AUTO 17010G19KT 10SM CLR 19/M19 A3007 RMK AO2 SLP153 T01941194","lat":38.0505,"lon":-117.0906,"elev":1647,"name":"Tonopah Arpt, NV, US","cover":"CLR","clouds":[],"fltCat":"VFR"},{"icaoId":"KINW","receiptTime":"2026-04-18T22:00:31.361Z","obsTime":1776549360,"reportTime":"2026-04-18T22:00:00.000Z","temp":18.3,"dewp":-17.8,"visib":"10+","altim":1021.1,"slp":1018.8,"qcField":6,"metarType":"METAR","rawOb":"METAR KINW 182156Z AUTO 10SM CLR 18/M18 A3015 RMK AO2 SLP188 T01831178","lat":35.0279,"lon":-110.7221,"elev":1492,"name":"Winslow/Lindberg Rgnl, AZ, US","cover":"CLR","clouds":[],"fltCat":"VFR"},{"icaoId":"KJMS","receiptTime":"2026-04-18T22:00:51.208Z","obsTime":1776549360,"reportTime":"2026-04-18T22:00:00.000Z","temp":6.7,"dewp":-8.9,"wdir":300,"wspd":16,"wgst":29,"visib":"10+","altim":1015,"slp":1016.6,"qcField":6,"metarType":"METAR","rawOb":"METAR KJMS 182156Z AUTO 30016G29KT 10SM BKN065 07/M09 A2997 RMK AO2 PK WND 29030/2140 SLP166 T00671089","lat":46.9259,"lon":-98.6704,"elev":455,"name":"Jamestown Rgnl, ND, US","cover":"BKN","clouds":[{"cover":"BKN","base":6500}],"fltCat":"VFR"},{"icaoId":"KSHV","receiptTime":"2026-04-18T22:00:56.808Z","obsTime":1776549360,"reportTime":"2026-04-18T22:00:00.000Z","temp":16,"dewp":13,"wdir":340,"wspd":18,"wgst":25,"visib":"10+","altim":1019,"qcField":0,"metarType":"METAR","rawOb":"METAR KSHV 182156Z 34018G25KT 10SM OVC008 16/13 A3009 RMK SLPNO","lat":32.4473,"lon":-93.8244,"elev":70,"name":"Shreveport Rgnl, LA, US","cover":"OVC","clouds":[{"cover":"OVC","base":800}],"fltCat":"IFR"},{"icaoId":"KLAS","receiptTime":"2026-04-18T22:00:51.342Z","obsTime":1776549360,"reportTime":"2026-04-18T22:00:00.000Z","temp":24.4,"dewp":-17.8,"wdir":10,"wspd":7,"visib":"10+","altim":1017,"slp":1015.5,"qcField":4,"metarType":"METAR","rawOb":"METAR KLAS 182156Z 01007KT 10SM SCT120 BKN250 24/M18 A3003 RMK AO2 SLP155 T02441178","lat":36.0719,"lon":-115.1634,"elev":662,"name":"Las Vegas/Reid Intl, NV, US","cover":"BKN","clouds":[{"cover":"SCT","base":12000},{"cover":"BKN","base":25000}],"fltCat":"VFR"},{"icaoId":"KOFK","receiptTime":"2026-04-18T22:00:19.849Z","obsTime":1776549360,"reportTime":"2026-04-18T22:00:00.000Z","temp":12.2,"dewp":-8.3,"wdir":300,"wspd":20,"wgst":27,"visib":"10+","altim":1019.7,"slp":1020.5,"qcField":14,"metarType":"METAR","rawOb":"METAR KOFK 182156Z AUTO 30020G27KT 10SM SCT100 12/M08 A3011 RMK AO2 PK WND 31034/2125 SLP205 T01221083 $","lat":41.9799,"lon":-97.4335,"elev":476,"name":"Norfolk/Stefan Mem, NE, US","cover":"SCT","clouds":[{"cover":"SCT","base":10000}],"fltCat":"VFR"},{"icaoId":"KSFO","receiptTime":"2026-04-18T22:00:32.275Z","obsTime":1776549360,"reportTime":"2026-04-18T22:00:00.000Z","temp":22.2,"dewp":11.1,"wdir":300,"wspd":9,"visib":"10+","altim":1014.3,"slp":1014.1,"qcField":12,"metarType":"METAR","rawOb":"METAR KSFO 182156Z 30009KT 10SM BKN200 22/11 A2995 RMK AO2 SLP141 T02220111 $","lat":37.6196,"lon":-122.3656,"elev":2,"name":"San Francisco Intl, CA, US","cover":"BKN","clouds":[{"cover":"BKN","base":20000}],"fltCat":"VFR"},{"icaoId":"KCMA","receiptTime":"2026-04-18T21:58:20.500Z","obsTime":1776549300,"reportTime":"2026-04-18T22:00:00.000Z","temp":22.2,"dewp":13.3,"wdir":230,"wspd":11,"visib":"10+","altim":1013.6,"slp":1014.2,"qcField":4,"metarType":"METAR","rawOb":"METAR KCMA 182155Z 23011KT 10SM CLR 22/13 A2993 RMK AO2 SLP142 T02220133","lat":34.2114,"lon":-119.0876,"elev":20,"name":"Camarillo Arpt, CA, US","cover":"CLR","clouds":[],"fltCat":"VFR"},{"icaoId":"KHON","receiptTime":"2026-04-18T21:58:23.624Z","obsTime":1776549300,"reportTime":"2026-04-18T22:00:00.000Z","temp":10.6,"dewp":-12.8,"wdir":300,"wspd":22,"wgst":30,"visib":"10+","altim":1018,"slp":1019,"qcField":6,"metarType":"METAR","rawOb":"METAR KHON 182155Z AUTO 30022G30KT 10SM FEW095 11/M13 A3006 RMK AO2 PK WND 30034/2133 SLP190 T01061128","lat":44.3792,"lon":-98.2227,"elev":391,"name":"Huron Rgnl, SD, US","cover":"FEW","clouds":[{"cover":"FEW","base":9500}],"fltCat":"VFR"},{"icaoId":"KIRK","receiptTime":"2026-04-18T21:58:23.776Z","obsTime":1776549300,"reportTime":"2026-04-18T22:00:00.000Z","temp":12.2,"dewp":-5,"wdir":300,"wspd":14,"wgst":27,"visib":"10+","altim":1020.4,"slp":1021,"qcField":6,"metarType":"METAR","rawOb":"METAR KIRK 182155Z AUTO 30014G27KT 10SM CLR 12/M05 A3013 RMK AO2 PK WND 28029/2129 SLP210 T01221050","lat":40.0966,"lon":-92.5469,"elev":292,"name":"Kirksville Rgnl, MO, US","cover":"CLR","clouds":[],"fltCat":"VFR"},{"icaoId":"KEND","receiptTime":"2026-04-18T22:16:05.028Z","obsTime":1776549300,"reportTime":"2026-04-18T22:00:00.000Z","temp":17.1,"dewp":-2.6,"wdir":210,"wspd":3,"visib":"10+","altim":1022.4,"slp":1022.4,"qcField":14,"metarType":"METAR","rawOb":"METAR KEND 182155Z AUTO 21003KT 10SM CLR 17/M03 A3019 RMK AO2 SLP224 T01711026 $","lat":36.338,"lon":-97.919,"elev":392,"name":"Enid/Vance AFB, OK, US","cover":"CLR","clouds":[],"fltCat":"VFR"},{"icaoId":"KAST","receiptTime":"2026-04-18T21:58:19.641Z","obsTime":1776549300,"reportTime":"2026-04-18T22:00:00.000Z","temp":17.8,"dewp":2.8,"wdir":230,"wspd":8,"visib":"10+","altim":1014.6,"slp":1014.5,"qcField":14,"metarType":"METAR","rawOb":"METAR KAST 182155Z AUTO 23008KT 10SM CLR 18/03 A2996 RMK AO2 SLP145 T01780028 $","lat":46.157,"lon":-123.8833,"elev":3,"name":"Astoria Rgnl, OR, US","cover":"CLR","clouds":[],"fltCat":"VFR"},{"icaoId":"KDLH","receiptTime":"2026-04-18T21:58:24.680Z","obsTime":1776549300,"reportTime":"2026-04-18T22:00:00.000Z","temp":1.1,"dewp":-10,"wdir":280,"wspd":21,"wgst":33,"visib":"10+","altim":1010.2,"slp":1012,"qcField":4,"metarType":"METAR","rawOb":"METAR KDLH 182155Z 28021G33KT 10SM BKN050 OVC060 01/M10 A2983 RMK AO2 PK WND 28037/2056 SLP120 T00111100","lat":46.8435,"lon":-92.1866,"elev":434,"name":"Duluth Intl Arpt, MN, US","cover":"OVC","clouds":[{"cover":"BKN","base":5000},{"cover":"OVC","base":6000}],"fltCat":"VFR"},{"icaoId":"KRNO","receiptTime":"2026-04-18T21:58:27.531Z","obsTime":1776549300,"reportTime":"2026-04-18T22:00:00.000Z","temp":19.4,"dewp":-15,"wdir":"VRB","wspd":3,"visib":"10+","altim":1016.7,"slp":1014,"qcField":4,"metarType":"METAR","rawOb":"METAR KRNO 182155Z VRB03KT 10SM FEW190 SCT250 19/M15 A3002 RMK AO2 SLP140 T01941150","lat":39.5077,"lon":-119.7683,"elev":1344,"name":"Reno/Tahoe Intl, NV, US","cover":"SCT","clouds":[{"cover":"FEW","base":19000},{"cover":"SCT","base":25000}],"fltCat":"VFR"},{"icaoId":"KLUF","receiptTime":"2026-04-18T22:08:13.978Z","obsTime":1776549300,"reportTime":"2026-04-18T22:00:00.000Z","temp":31.6,"dewp":-12.7,"wdir":350,"wspd":3,"visib":"10+","altim":1011.3,"slp":1010,"qcField":14,"metarType":"METAR","rawOb":"METAR KLUF 182155Z AUTO 35003KT 10SM CLR 32/M13 A2986 RMK AO2 SLP100 T03161127 $","lat":33.538,"lon":-112.38,"elev":333,"name":"Phoenix/Luke AFB, AZ, US","cover":"CLR","clouds":[],"fltCat":"VFR"},{"icaoId":"KGPI","receiptTime":"2026-04-18T21:58:23.408Z","obsTime":1776549300,"reportTime":"2026-04-18T22:00:00.000Z","temp":12.2,"dewp":-2.8,"wdir":150,"wspd":8,"visib":"10+","altim":1019.4,"slp":1020.9,"qcField":4,"metarType":"METAR","rawOb":"METAR KGPI 182155Z 15008KT 120V190 10SM CLR 12/M03 A3010 RMK AO2 SLP209 T01221028","lat":48.3041,"lon":-114.2643,"elev":903,"name":"Kalispell/Glacier Park Intl, MT, US","cover":"CLR","clouds":[],"fltCat":"VFR"},{"icaoId":"KDSM","receiptTime":"2026-04-18T21:58:16.548Z","obsTime":1776549240,"reportTime":"2026-04-18T22:00:00.000Z","temp":11.7,"dewp":-11.1,"wdir":310,"wspd":19,"wgst":36,"visib":"10+","altim":1019.7,"slp":1019.9,"qcField":12,"metarType":"METAR","rawOb":"METAR KDSM 182154Z 31019G36KT 10SM FEW080 12/M11 A3011 RMK AO2 PK WND 27036/2145 SLP199 T01171111 $","lat":41.5339,"lon":-93.6531,"elev":286,"name":"Des Moines Intl, IA, US","cover":"FEW","clouds":[{"cover":"FEW","base":8000}],"fltCat":"VFR"},{"icaoId":"KEUG","receiptTime":"2026-04-18T21:58:05.169Z","obsTime":1776549240,"reportTime":"2026-04-18T22:00:00.000Z","temp":20,"dewp":8.9,"wdir":10,"wspd":6,"visib":"10+","altim":1013.6,"slp":1013.5,"qcField":4,"metarType":"METAR","rawOb":"METAR KEUG 182154Z 01006KT 10SM FEW150 SCT250 20/09 A2993 RMK AO2 SLP135 T02000089","lat":44.1331,"lon":-123.2156,"elev":109,"name":"Eugene/Mahlon Sweet Fld, OR, US","cover":"SCT","clouds":[{"cover":"FEW","base":15000},{"cover":"SCT","base":25000}],"fltCat":"VFR"},{"icaoId":"KGCN","receiptTime":"2026-04-18T21:58:05.408Z","obsTime":1776549240,"reportTime":"2026-04-18T22:00:00.000Z","temp":14.4,"dewp":-19.4,"wdir":60,"wspd":17,"wgst":30,"visib":"10+","altim":1023.5,"slp":1018.7,"qcField":4,"metarType":"METAR","rawOb":"METAR KGCN 182154Z 06017G30KT 10SM CLR 14/M19 A3022 RMK AO2 PK WND 06030/2154 SLP187 T01441194","lat":35.9458,"lon":-112.1554,"elev":1993,"name":"Grand Canyon Park Arpt, AZ, US","cover":"CLR","clouds":[],"fltCat":"VFR"},{"icaoId":"KBFL","receiptTime":"2026-04-18T21:58:07.100Z","obsTime":1776549240,"reportTime":"2026-04-18T22:00:00.000Z","temp":28.3,"dewp":-8.3,"wdir":0,"wspd":0,"visib":"10+","altim":1013,"slp":1012.2,"qcField":12,"metarType":"METAR","rawOb":"METAR KBFL 182154Z 00000KT 10SM CLR 28/M08 A2991 RMK AO2 SLP122 T02831083 $","lat":35.4342,"lon":-119.0552,"elev":146,"name":"Bakersfield/Meadows Arpt, CA, US","cover":"CLR","clouds":[],"fltCat":"VFR"},{"icaoId":"KSLC","receiptTime":"2026-04-18T21:58:08.979Z","obsTime":1776549240,"reportTime":"2026-04-18T22:00:00.000Z","temp":14.4,"dewp":-11.1,"wdir":160,"wspd":5,"visib":"10+","altim":1023.1,"slp":1021.9,"qcField":4,"metarType":"METAR","rawOb":"METAR KSLC 182154Z 16005KT 10SM FEW140 SCT180 BKN250 14/M11 A3021 RMK AO2 SLP219 T01441111","lat":40.7707,"lon":-111.965,"elev":1286,"name":"Salt Lake City Intl, UT, US","cover":"BKN","clouds":[{"cover":"FEW","base":14000},{"cover":"SCT","base":18000},{"cover":"BKN","base":25000}],"fltCat":"VFR"},{"icaoId":"KMOT","receiptTime":"2026-04-18T21:58:11.946Z","obsTime":1776549240,"reportTime":"2026-04-18T22:00:00.000Z","temp":6.7,"dewp":-6.7,"wdir":270,"wspd":22,"wgst":34,"visib":"10+","altim":1015,"slp":1017.2,"qcField":12,"metarType":"METAR","rawOb":"METAR KMOT 182154Z 27022G34KT 10SM FEW048 SCT110 07/M07 A2997 RMK AO2 PK WND 30037/2103 SLP172 T00671067 $","lat":48.252,"lon":-101.269,"elev":507,"name":"Minot Intl, ND, US","cover":"SCT","clouds":[{"cover":"FEW","base":4800},{"cover":"SCT","base":11000}],"fltCat":"VFR"},{"icaoId":"KMEM","receiptTime":"2026-04-18T21:58:14.599Z","obsTime":1776549240,"reportTime":"2026-04-18T22:00:00.000Z","temp":10.6,"dewp":9.4,"wdir":360,"wspd":12,"visib":3,"altim":1018.4,"slp":1018.1,"qcField":12,"wxString":"BR","precip":0.02,"metarType":"METAR","rawOb":"METAR KMEM 182154Z 36012KT 3SM BR OVC011 11/09 A3007 RMK AO2 WSHFT 2109 SFC VIS 4 RAE43 SLP181 P0002 T01060094 $","lat":35.0564,"lon":-89.9864,"elev":78,"name":"Memphis Intl, TN, US","cover":"OVC","clouds":[{"cover":"OVC","base":1100}],"fltCat":"MVFR"},{"icaoId":"KGSO","receiptTime":"2026-04-18T21:58:16.577Z","obsTime":1776549240,"reportTime":"2026-04-18T22:00:00.000Z","temp":29.4,"dewp":10,"wdir":240,"wspd":11,"visib":"10+","altim":1011.3,"slp":1010,"qcField":4,"metarType":"METAR","rawOb":"METAR KGSO 182154Z 24011KT 10SM FEW080 SCT170 BKN250 29/10 A2986 RMK AO2 SLP100 T02940100","lat":36.0969,"lon":-79.9432,"elev":275,"name":"Greensboro Intl, NC, US","cover":"BKN","clouds":[{"cover":"FEW","base":8000},{"cover":"SCT","base":17000},{"cover":"BKN","base":25000}],"fltCat":"VFR"},{"icaoId":"KBTV","receiptTime":"2026-04-18T21:58:16.450Z","obsTime":1776549240,"reportTime":"2026-04-18T22:00:00.000Z","temp":21.7,"dewp":5.6,"wdir":170,"wspd":15,"wgst":28,"visib":"10+","altim":1008.9,"slp":1008.9,"qcField":4,"metarType":"METAR","rawOb":"METAR KBTV 182154Z 17015G28KT 10SM SCT070 BKN100 22/06 A2979 RMK AO2 PK WND 15029/2135 SLP089 T02170056","lat":44.4682,"lon":-73.1499,"elev":101,"name":"Burlington Intl, VT, US","cover":"BKN","clouds":[{"cover":"SCT","base":7000},{"cover":"BKN","base":10000}],"fltCat":"VFR"},{"icaoId":"KLNK","receiptTime":"2026-04-18T21:58:14.387Z","obsTime":1776549240,"reportTime":"2026-04-18T22:00:00.000Z","temp":13.9,"dewp":-5.6,"wdir":290,"wspd":19,"wgst":31,"visib":"10+","altim":1021.4,"slp":1021.6,"qcField":4,"metarType":"METAR","rawOb":"METAR KLNK 182154Z 29019G31KT 10SM SCT070 BKN085 BKN110 14/M06 A3016 RMK AO2 PK WND 30031/2152 WSHFT 2133 SLP216 T01391056","lat":40.8478,"lon":-96.7647,"elev":357,"name":"Lincoln Arpt, NE, US","cover":"BKN","clouds":[{"cover":"SCT","base":7000},{"cover":"BKN","base":8500},{"cover":"BKN","base":11000}],"fltCat":"VFR"},{"icaoId":"KOLS","receiptTime":"2026-04-18T21:58:08.368Z","obsTime":1776549240,"reportTime":"2026-04-18T22:00:00.000Z","temp":29.4,"dewp":-2.2,"wdir":170,"wspd":12,"wgst":15,"visib":"10+","altim":1014.6,"slp":1008.9,"qcField":6,"metarType":"METAR","rawOb":"METAR KOLS 182154Z AUTO 17012G15KT 10SM CLR 29/M02 A2996 RMK AO2 SLP089 T02941022","lat":31.4208,"lon":-110.8465,"elev":1194,"name":"Nogales Intl, AZ, US","cover":"CLR","clouds":[],"fltCat":"VFR"},{"icaoId":"KCOU","receiptTime":"2026-04-18T21:58:16.519Z","obsTime":1776549240,"reportTime":"2026-04-18T22:00:00.000Z","temp":13.9,"dewp":-2.2,"wdir":330,"wspd":16,"wgst":23,"visib":"10+","altim":1020.7,"slp":1020.7,"qcField":4,"metarType":"METAR","rawOb":"METAR KCOU 182154Z 33016G23KT 10SM CLR 14/M02 A3014 RMK AO2 PK WND 32026/2109 SLP207 T01391022","lat":38.8171,"lon":-92.2148,"elev":272,"name":"Columbia Rgnl, MO, US","cover":"CLR","clouds":[],"fltCat":"VFR"},{"icaoId":"KOLM","receiptTime":"2026-04-18T21:58:08.355Z","obsTime":1776549240,"reportTime":"2026-04-18T22:00:00.000Z","temp":20,"dewp":3.9,"wdir":60,"wspd":6,"visib":"10+","altim":1014.6,"slp":1014.4,"qcField":4,"metarType":"METAR","rawOb":"METAR KOLM 182154Z 06006KT 10SM CLR 20/04 A2996 RMK AO2 SLP144 T02000039","lat":46.9737,"lon":-122.9049,"elev":58,"name":"Olympia Rgnl, WA, US","cover":"CLR","clouds":[],"fltCat":"VFR"},{"icaoId":"KROC","receiptTime":"2026-04-18T22:00:56.590Z","obsTime":1776549240,"reportTime":"2026-04-18T22:00:00.000Z","temp":19.4,"dewp":15,"wdir":280,"wspd":14,"wgst":19,"visib":"10+","altim":1005.2,"slp":1005.2,"qcField":13,"precip":0.005,"metarType":"METAR","rawOb":"METAR KROC 182154Z COR 28014G19KT 10SM SCT024 BKN055 OVC080 19/15 A2968 RMK AO2 WSHFT 2041 RAB13E24 SLP052 P0000 T01940150 $","lat":43.1172,"lon":-77.6754,"elev":166,"name":"Rochester Intl Arpt, NY, US","cover":"OVC","clouds":[{"cover":"SCT","base":2400},{"cover":"BKN","base":5500},{"cover":"OVC","base":8000}],"fltCat":"VFR"},{"icaoId":"KRIC","receiptTime":"2026-04-18T21:58:16.717Z","obsTime":1776549240,"reportTime":"2026-04-18T22:00:00.000Z","temp":31.1,"dewp":8.9,"wdir":180,"wspd":12,"visib":"10+","altim":1010.2,"slp":1010.4,"qcField":12,"metarType":"METAR","rawOb":"METAR KRIC 182154Z 18012KT 10SM FEW080 SCT250 31/09 A2983 RMK AO2 SLP104 T03110089 $","lat":37.5115,"lon":-77.3234,"elev":51,"name":"Richmond Intl, VA, US","cover":"SCT","clouds":[{"cover":"FEW","base":8000},{"cover":"SCT","base":25000}],"fltCat":"VFR"},{"icaoId":"KINL","receiptTime":"2026-04-18T21:58:16.592Z","obsTime":1776549240,"reportTime":"2026-04-18T22:00:00.000Z","temp":-0.6,"dewp":-11.1,"wdir":290,"wspd":16,"wgst":28,"visib":"10+","altim":1009.6,"slp":1011.5,"qcField":14,"metarType":"METAR","rawOb":"METAR KINL 182154Z AUTO 29016G28KT 10SM BKN049 OVC055 M01/M11 A2981 RMK AO2 PK WND 27034/2117 SLP115 T10061111 $","lat":48.5594,"lon":-93.3955,"elev":353,"name":"International Falls/Einarson Fld, MN, US","cover":"OVC","clouds":[{"cover":"BKN","base":4900},{"cover":"OVC","base":5500}],"fltCat":"VFR"},{"icaoId":"KGCK","receiptTime":"2026-04-18T21:58:08.057Z","obsTime":1776549240,"reportTime":"2026-04-18T22:00:00.000Z","temp":17.2,"dewp":-13.3,"wdir":320,"wspd":13,"wgst":22,"visib":"10+","altim":1022.4,"slp":1022.3,"qcField":4,"metarType":"METAR","rawOb":"METAR KGCK 182154Z 32013G22KT 10SM CLR 17/M13 A3019 RMK AO2 PK WND 30032/2119 SLP223 T01721133","lat":37.9221,"lon":-100.723,"elev":877,"name":"Garden City Rgnl, KS, US","cover":"CLR","clouds":[],"fltCat":"VFR"},{"icaoId":"KFFZ","receiptTime":"2026-04-18T21:58:05.246Z","obsTime":1776549240,"reportTime":"2026-04-18T22:00:00.000Z","temp":30.6,"dewp":-10.6,"wdir":"VRB","wspd":3,"visib":"10+","altim":1011.9,"slp":1009.6,"qcField":6,"metarType":"METAR","rawOb":"METAR KFFZ 182154Z AUTO VRB03KT 10SM CLR 31/M11 A2988 RMK AO2 SLP096 T03061106","lat":33.4659,"lon":-111.7212,"elev":420,"name":"Mesa/Falcon Fld, AZ, US","cover":"CLR","clouds":[],"fltCat":"VFR"},{"icaoId":"KALO","receiptTime":"2026-04-18T21:58:07.947Z","obsTime":1776549240,"reportTime":"2026-04-18T22:00:00.000Z","temp":10,"dewp":-7.8,"wdir":310,"wspd":20,"wgst":31,"visib":"10+","altim":1017,"slp":1017.5,"qcField":4,"metarType":"METAR","rawOb":"METAR KALO 182154Z 31020G31KT 10SM FEW075 10/M08 A3003 RMK AO2 PK WND 32037/2106 SLP175 T01001078","lat":42.5544,"lon":-92.4013,"elev":264,"name":"Waterloo Rgnl, IA, US","cover":"FEW","clouds":[{"cover":"FEW","base":7500}],"fltCat":"VFR"},{"icaoId":"KSUS","receiptTime":"2026-04-18T21:58:16.851Z","obsTime":1776549240,"reportTime":"2026-04-18T22:00:00.000Z","temp":14.4,"dewp":-1.1,"wdir":320,"wspd":8,"wgst":17,"visib":"10+","altim":1019,"slp":1018.8,"qcField":12,"metarType":"METAR","rawOb":"METAR KSUS 182154Z 32008G17KT 10SM CLR 14/M01 A3009 RMK AO2 SLP188 T01441011 $","lat":38.6575,"lon":-90.6557,"elev":140,"name":"St Louis/Spirit of St Louis Arpt, MO, US","cover":"CLR","clouds":[],"fltCat":"VFR"},{"icaoId":"KAPC","receiptTime":"2026-04-18T21:58:07.022Z","obsTime":1776549240,"reportTime":"2026-04-18T22:00:00.000Z","temp":23.3,"dewp":5,"wdir":220,"wspd":5,"visib":"10+","altim":1014.3,"slp":1013.4,"qcField":4,"metarType":"METAR","rawOb":"METAR KAPC 182154Z 22005KT 10SM CLR 23/05 A2995 RMK AO2 SLP134 T02330050","lat":38.2075,"lon":-122.2804,"elev":5,"name":"Napa Cnty Arpt, CA, US","cover":"CLR","clouds":[],"fltCat":"VFR"},{"icaoId":"KPHL","receiptTime":"2026-04-18T21:58:09.380Z","obsTime":1776549240,"reportTime":"2026-04-18T22:00:00.000Z","temp":20.6,"dewp":11.7,"wdir":120,"wspd":13,"visib":"10+","altim":1013.3,"slp":1013.3,"qcField":12,"metarType":"METAR","rawOb":"METAR KPHL 182154Z 12013KT 10SM BKN240 BKN300 21/12 A2992 RMK AO2 SLP133 T02060117 $","lat":39.8733,"lon":-75.2268,"elev":2,"name":"Philadelphia Intl, PA, US","cover":"BKN","clouds":[{"cover":"BKN","base":24000},{"cover":"BKN","base":30000}],"fltCat":"VFR"},{"icaoId":"KRKS","receiptTime":"2026-04-18T21:58:12.010Z","obsTime":1776549240,"reportTime":"2026-04-18T22:00:00.000Z","temp":10.6,"dewp":-16.1,"wdir":240,"wspd":12,"wgst":23,"visib":"10+","altim":1023.8,"slp":1023.8,"qcField":6,"metarType":"METAR","rawOb":"METAR KRKS 182154Z AUTO 24012G23KT 10SM CLR 11/M16 A3023 RMK AO2 SLP238 T01061161","lat":41.5947,"lon":-109.0529,"elev":2062,"name":"Rock Springs/SW Wyoming Rgnl, WY, US","cover":"CLR","clouds":[],"fltCat":"VFR"},{"icaoId":"KIND","receiptTime":"2026-04-18T21:58:14.035Z","obsTime":1776549240,"reportTime":"2026-04-18T22:00:00.000Z","temp":9.4,"dewp":3.3,"wdir":270,"wspd":10,"visib":"10+","altim":1015.7,"slp":1015.4,"qcField":4,"metarType":"METAR","rawOb":"METAR KIND 182154Z 27010KT 10SM FEW025 BKN075 BKN095 09/03 A2999 RMK AO2 SLP154 T00940033","lat":39.7252,"lon":-86.2816,"elev":242,"name":"Indianapolis Intl, IN, US","cover":"BKN","clouds":[{"cover":"FEW","base":2500},{"cover":"BKN","base":7500},{"cover":"BKN","base":9500}],"fltCat":"VFR"},{"icaoId":"KSYR","receiptTime":"2026-04-18T21:58:16.867Z","obsTime":1776549240,"reportTime":"2026-04-18T22:00:00.000Z","temp":25.6,"dewp":11.1,"wdir":160,"wspd":18,"wgst":31,"visib":"10+","altim":1004.5,"slp":1004,"qcField":4,"metarType":"METAR","rawOb":"METAR KSYR 182154Z 16018G31KT 10SM SCT060 SCT090 SCT140 BKN240 26/11 A2966 RMK AO2 PK WND 17033/2103 SLP040 T02560111","lat":43.1111,"lon":-76.1038,"elev":125,"name":"Syracuse/Hancock Intl, NY, US","cover":"BKN","clouds":[{"cover":"SCT","base":6000},{"cover":"SCT","base":9000},{"cover":"SCT","base":14000},{"cover":"BKN","base":24000}],"fltCat":"VFR"},{"icaoId":"KSJN","receiptTime":"2026-04-18T21:58:08.966Z","obsTime":1776549240,"reportTime":"2026-04-18T22:00:00.000Z","temp":20,"dewp":-18.3,"wdir":100,"wspd":6,"visib":"10+","altim":1020.1,"slp":1015.7,"qcField":6,"metarType":"METAR","rawOb":"METAR KSJN 182154Z AUTO 10006KT 10SM CLR 20/M18 A3012 RMK AO2 SLP157 T02001183","lat":34.5184,"lon":-109.3801,"elev":1747,"name":"St Johns Ind Arpt, AZ, US","cover":"CLR","clouds":[],"fltCat":"VFR"},{"icaoId":"KRST","receiptTime":"2026-04-18T21:58:12.024Z","obsTime":1776549240,"reportTime":"2026-04-18T22:00:00.000Z","temp":6.1,"dewp":-7.8,"wdir":290,"wspd":19,"wgst":31,"visib":"10+","altim":1015.3,"slp":1016.5,"qcField":4,"metarType":"METAR","rawOb":"METAR KRST 182154Z 29019G31KT 10SM FEW060 06/M08 A2998 RMK AO2 PK WND 28035/2057 SLP165 T00611078","lat":43.904,"lon":-92.4921,"elev":398,"name":"Rochester Intl, MN, US","cover":"FEW","clouds":[{"cover":"FEW","base":6000}],"fltCat":"VFR"},{"icaoId":"KBWI","receiptTime":"2026-04-18T21:58:07.628Z","obsTime":1776549240,"reportTime":"2026-04-18T22:00:00.000Z","temp":21.1,"dewp":13.9,"wdir":100,"wspd":14,"visib":"10+","altim":1011.6,"slp":1011.3,"qcField":4,"metarType":"METAR","rawOb":"METAR KBWI 182154Z 10014KT 10SM SCT210 BKN250 21/14 A2987 RMK AO2 SLP113 T02110139","lat":39.1733,"lon":-76.684,"elev":42,"name":"Baltimore-Washington Intl, MD, US","cover":"BKN","clouds":[{"cover":"SCT","base":21000},{"cover":"BKN","base":25000}],"fltCat":"VFR"},{"icaoId":"KCOS","receiptTime":"2026-04-18T21:58:16.501Z","obsTime":1776549240,"reportTime":"2026-04-18T22:00:00.000Z","temp":12.2,"dewp":-13.9,"wdir":180,"wspd":9,"wgst":15,"visib":"10+","altim":1023.1,"slp":1023.9,"qcField":4,"metarType":"METAR","rawOb":"METAR KCOS 182154Z 18009G15KT 10SM FEW080 FEW220 12/M14 A3021 RMK AO2 SLP239 T01221139","lat":38.8095,"lon":-104.6887,"elev":1886,"name":"Colorado Spring Arpt, CO, US","cover":"FEW","clouds":[{"cover":"FEW","base":8000},{"cover":"FEW","base":22000}],"fltCat":"VFR"},{"icaoId":"KLCH","receiptTime":"2026-04-18T21:56:24.728Z","obsTime":1776549180,"reportTime":"2026-04-18T22:00:00.000Z","temp":23.3,"dewp":22.2,"wdir":190,"wspd":6,"visib":6,"altim":1015,"slp":1015.5,"qcField":4,"wxString":"BR","precip":0.005,"metarType":"METAR","rawOb":"METAR KLCH 182153Z 19006KT 6SM BR BKN075 OVC085 23/22 A2997 RMK AO2 RAE2057 SLP155 P0000 T02330222","lat":30.1255,"lon":-93.2277,"elev":2,"name":"Lake Charles Rgnl, LA, US","cover":"OVC","clouds":[{"cover":"BKN","base":7500},{"cover":"OVC","base":8500}],"fltCat":"VFR"},{"icaoId":"KGFK","receiptTime":"2026-04-18T21:56:24.832Z","obsTime":1776549180,"reportTime":"2026-04-18T22:00:00.000Z","temp":5,"dewp":-7.8,"wdir":300,"wspd":18,"wgst":29,"visib":"10+","altim":1013.6,"slp":1014.6,"qcField":12,"metarType":"METAR","rawOb":"METAR KGFK 182153Z 30018G29KT 10SM BKN060 BKN070 05/M08 A2993 RMK AO2 PK WND 30029/2147 SLP146 T00501078 $","lat":47.9428,"lon":-97.1829,"elev":256,"name":"Grand Forks Intl, ND, US","cover":"BKN","clouds":[{"cover":"BKN","base":6000},{"cover":"BKN","base":7000}],"fltCat":"VFR"},{"icaoId":"KACV","receiptTime":"2026-04-18T21:56:25.531Z","obsTime":1776549180,"reportTime":"2026-04-18T22:00:00.000Z","temp":12.8,"dewp":8.9,"wdir":290,"wspd":7,"visib":"10+","altim":1015.3,"slp":1015.8,"qcField":6,"metarType":"METAR","rawOb":"METAR KACV 182153Z AUTO 29007KT 10SM CLR 13/09 A2998 RMK AO2 SLP158 T01280089","lat":40.9784,"lon":-124.1048,"elev":63,"name":"Arcata Arpt, CA, US","cover":"CLR","clouds":[],"fltCat":"VFR"},{"icaoId":"KAMA","receiptTime":"2026-04-18T21:56:25.673Z","obsTime":1776549180,"reportTime":"2026-04-18T22:00:00.000Z","temp":17.2,"dewp":-10.6,"wdir":60,"wspd":10,"wgst":19,"visib":"10+","altim":1024.5,"slp":1022.9,"qcField":4,"metarType":"METAR","rawOb":"METAR KAMA 182153Z 06010G19KT 10SM CLR 17/M11 A3025 RMK AO2 SLP229 T01721106","lat":35.2203,"lon":-101.7173,"elev":1102,"name":"Amarillo Intl Arpt, TX, US","cover":"CLR","clouds":[],"fltCat":"VFR"},{"icaoId":"KPNC","receiptTime":"2026-04-18T21:56:26.405Z","obsTime":1776549180,"reportTime":"2026-04-18T22:00:00.000Z","temp":16.7,"dewp":-1.7,"wdir":360,"wspd":7,"visib":"10+","altim":1023.8,"slp":1023.4,"qcField":6,"metarType":"METAR","rawOb":"METAR KPNC 182153Z AUTO 36007KT 10SM FEW090 17/M02 A3023 RMK AO2 SLP234 T01671017","lat":36.7369,"lon":-97.1024,"elev":304,"name":"Ponca City Rgnl, OK, US","cover":"FEW","clouds":[{"cover":"FEW","base":9000}],"fltCat":"VFR"},{"icaoId":"KXNA","receiptTime":"2026-04-18T21:56:27.370Z","obsTime":1776549180,"reportTime":"2026-04-18T22:00:00.000Z","temp":15,"dewp":-2.2,"wdir":350,"wspd":13,"wgst":19,"visib":"10+","altim":1022.8,"slp":1022.3,"qcField":4,"metarType":"METAR","rawOb":"METAR KXNA 182153Z 35013G19KT 10SM CLR 15/M02 A3020 RMK AO2 SLP223 T01501022","lat":36.2897,"lon":-94.3115,"elev":390,"name":"Fayetteville/NW Arkansas Rgnl, AR, US","cover":"CLR","clouds":[],"fltCat":"VFR"},{"icaoId":"KONT","receiptTime":"2026-04-18T21:56:33.371Z","obsTime":1776549180,"reportTime":"2026-04-18T22:00:00.000Z","temp":29.4,"dewp":-11.1,"wdir":300,"wspd":5,"visib":"10+","altim":1013.3,"slp":1011.7,"qcField":12,"metarType":"METAR","rawOb":"METAR KONT 182153Z 30005KT 10SM SCT250 29/M11 A2992 RMK AO2 SLP117 T02941111 $","lat":34.0531,"lon":-117.5769,"elev":279,"name":"Ontario Intl, CA, US","cover":"SCT","clouds":[{"cover":"SCT","base":25000}],"fltCat":"VFR"},{"icaoId":"KPAE","receiptTime":"2026-04-18T21:56:33.501Z","obsTime":1776549180,"reportTime":"2026-04-18T22:00:00.000Z","temp":17.8,"dewp":2.2,"wdir":260,"wspd":7,"visib":"10+","altim":1015.7,"slp":1015.4,"qcField":4,"metarType":"METAR","rawOb":"METAR KPAE 182153Z 26007KT 10SM CLR 18/02 A2999 RMK AO2 SLP154 T01780022","lat":47.9232,"lon":-122.2831,"elev":166,"name":"Everett/Paine Fld, WA, US","cover":"CLR","clouds":[],"fltCat":"VFR"},{"icaoId":"KYKM","receiptTime":"2026-04-18T21:56:28.142Z","obsTime":1776549180,"reportTime":"2026-04-18T22:00:00.000Z","temp":17.8,"dewp":-2.2,"wdir":"VRB","wspd":3,"visib":"10+","altim":1017,"slp":1017.3,"qcField":4,"metarType":"METAR","rawOb":"METAR KYKM 182153Z VRB03KT 10SM CLR 18/M02 A3003 RMK AO2 SLP173 T01781022","lat":46.564,"lon":-120.5349,"elev":319,"name":"Yakima/McAllister Fld, WA, US","cover":"CLR","clouds":[],"fltCat":"VFR"},{"icaoId":"KMFR","receiptTime":"2026-04-18T21:56:35.599Z","obsTime":1776549180,"reportTime":"2026-04-18T22:00:00.000Z","temp":21.7,"dewp":2.2,"wdir":0,"wspd":0,"visib":"10+","altim":1012.6,"slp":1012.3,"qcField":4,"metarType":"METAR","rawOb":"METAR KMFR 182153Z 00000KT 10SM CLR 22/02 A2990 RMK AO2 SLP123 T02170022","lat":42.375,"lon":-122.877,"elev":397,"name":"Medford/Rogue Valley Intl, OR, US","cover":"CLR","clouds":[],"fltCat":"VFR"},{"icaoId":"KMSO","receiptTime":"2026-04-18T21:56:28.204Z","obsTime":1776549180,"reportTime":"2026-04-18T22:00:00.000Z","temp":13.9,"dewp":-5.6,"visib":"10+","altim":1019,"slp":1020.4,"qcField":4,"metarType":"METAR","rawOb":"METAR KMSO 182153Z 10SM CLR 14/M06 A3009 RMK AO2 SLP204 T01391056","lat":46.9208,"lon":-114.0938,"elev":974,"name":"Missoula Intl, MT, US","cover":"CLR","clouds":[],"fltCat":"VFR"},{"icaoId":"KBIL","receiptTime":"2026-04-18T21:56:28.244Z","obsTime":1776549180,"reportTime":"2026-04-18T22:00:00.000Z","temp":15.6,"dewp":-8.3,"wdir":280,"wspd":13,"wgst":27,"visib":"10+","altim":1018.4,"slp":1018.9,"qcField":4,"metarType":"METAR","rawOb":"METAR KBIL 182153Z 28013G27KT 10SM FEW090 FEW200 16/M08 A3007 RMK AO2 PK WND 27027/2147 SLP189 T01561083","lat":45.8072,"lon":-108.5462,"elev":1089,"name":"Billings/Logan Intl, MT, US","cover":"FEW","clouds":[{"cover":"FEW","base":9000},{"cover":"FEW","base":20000}],"fltCat":"VFR"},{"icaoId":"KCRQ","receiptTime":"2026-04-18T21:56:28.322Z","obsTime":1776549180,"reportTime":"2026-04-18T22:00:00.000Z","temp":20.6,"dewp":13.3,"wdir":260,"wspd":6,"wgst":15,"visib":"10+","altim":1013.6,"slp":1013.2,"qcField":6,"metarType":"METAR","rawOb":"METAR KCRQ 182153Z AUTO 26006G15KT 10SM CLR 21/13 A2993 RMK AO2 SLP132 T02060133","lat":33.1299,"lon":-117.2765,"elev":96,"name":"Carlsbad/Palomar Arpt, CA, US","cover":"CLR","clouds":[],"fltCat":"VFR"},{"icaoId":"KHIO","receiptTime":"2026-04-18T21:56:28.335Z","obsTime":1776549180,"reportTime":"2026-04-18T22:00:00.000Z","temp":20,"dewp":2.2,"wdir":180,"wspd":4,"visib":"10+","altim":1014.3,"slp":1014.2,"qcField":4,"metarType":"METAR","rawOb":"METAR KHIO 182153Z 18004KT 10SM CLR 20/02 A2995 RMK AO2 SLP142 T02000022","lat":45.5476,"lon":-122.9557,"elev":62,"name":"Portland/Hillsboro Arpt, OR, US","cover":"CLR","clouds":[],"fltCat":"VFR"},{"icaoId":"KGEG","receiptTime":"2026-04-18T21:56:28.451Z","obsTime":1776549180,"reportTime":"2026-04-18T22:00:00.000Z","temp":15.6,"dewp":-2.8,"wdir":230,"wspd":9,"visib":"10+","altim":1018.7,"slp":1019,"qcField":12,"metarType":"METAR","rawOb":"METAR KGEG 182153Z 23009KT 10SM FEW090 FEW160 BKN260 16/M03 A3008 RMK AO2 SLP190 T01561028 $","lat":47.6217,"lon":-117.528,"elev":718,"name":"Spokane Intl, WA, US","cover":"BKN","clouds":[{"cover":"FEW","base":9000},{"cover":"FEW","base":16000},{"cover":"BKN","base":26000}],"fltCat":"VFR"},{"icaoId":"KELY","receiptTime":"2026-04-18T21:56:28.769Z","obsTime":1776549180,"reportTime":"2026-04-18T22:00:00.000Z","temp":16.7,"dewp":-21.1,"wdir":150,"wspd":10,"visib":"10+","altim":1020.4,"slp":1017.7,"qcField":14,"metarType":"METAR","rawOb":"METAR KELY 182153Z AUTO 15010KT 10SM CLR 17/M21 A3013 RMK AO2 SLP177 T01671211 $","lat":39.2954,"lon":-114.8466,"elev":1906,"name":"Ely/Yelland Fld, NV, US","cover":"CLR","clouds":[],"fltCat":"VFR"},{"icaoId":"KMCI","receiptTime":"2026-04-18T21:56:29.114Z","obsTime":1776549180,"reportTime":"2026-04-18T22:00:00.000Z","temp":14.4,"dewp":-4.4,"wdir":280,"wspd":13,"wgst":19,"visib":"10+","altim":1021.4,"slp":1021.4,"qcField":12,"metarType":"METAR","rawOb":"METAR KMCI 182153Z 28013G19KT 10SM SCT090 14/M04 A3016 RMK AO2 SLP214 T01441044 $","lat":39.2975,"lon":-94.7309,"elev":308,"name":"Kansas City Intl, MO, US","cover":"SCT","clouds":[{"cover":"SCT","base":9000}],"fltCat":"VFR"},{"icaoId":"KESF","receiptTime":"2026-04-18T21:56:29.697Z","obsTime":1776549180,"reportTime":"2026-04-18T22:00:00.000Z","temp":25,"dewp":20,"wdir":0,"wspd":0,"visib":"10+","altim":1014.3,"slp":1014.1,"qcField":6,"wxString":"-RA","precip":0.005,"metarType":"METAR","rawOb":"METAR KESF 182153Z AUTO 00000KT 10SM -RA 25/20 A2995 RMK AO2 RAB39 SLP141 P0000 T02500200","lat":31.3963,"lon":-92.2828,"elev":27,"name":"Alexandria/Esler Rgnl, LA, US"},{"icaoId":"KSHR","receiptTime":"2026-04-18T21:56:29.865Z","obsTime":1776549180,"reportTime":"2026-04-18T22:00:00.000Z","temp":11.1,"dewp":-4.4,"wdir":"VRB","wspd":3,"visib":"10+","altim":1019.4,"slp":1020.6,"qcField":6,"metarType":"METAR","rawOb":"METAR KSHR 182153Z AUTO VRB03KT 10SM CLR 11/M04 A3010 RMK AO2 SLP206 T01111044","lat":44.7603,"lon":-106.9741,"elev":1212,"name":"Sheridan Cnty Arpt, WY, US","cover":"CLR","clouds":[],"fltCat":"VFR"},{"icaoId":"KSNA","receiptTime":"2026-04-18T21:56:29.971Z","obsTime":1776549180,"reportTime":"2026-04-18T22:00:00.000Z","temp":25,"dewp":6.7,"wdir":220,"wspd":7,"visib":"10+","altim":1013.3,"slp":1013,"qcField":12,"metarType":"METAR","rawOb":"METAR KSNA 182153Z 22007KT 10SM CLR 25/07 A2992 RMK AO2 SLP130 T02500067 $","lat":33.6798,"lon":-117.8675,"elev":14,"name":"Santa Ana/Wayne Arpt, CA, US","cover":"CLR","clouds":[],"fltCat":"VFR"},{"icaoId":"KSTJ","receiptTime":"2026-04-18T21:56:30.096Z","obsTime":1776549180,"reportTime":"2026-04-18T22:00:00.000Z","temp":14.4,"dewp":-6.7,"wdir":300,"wspd":15,"wgst":22,"visib":"10+","altim":1021.8,"slp":1021.6,"qcField":4,"metarType":"METAR","rawOb":"METAR KSTJ 182153Z 30015G22KT 10SM SCT090 14/M07 A3017 RMK AO2 SLP216 T01441067","lat":39.7683,"lon":-94.9095,"elev":247,"name":"St Joseph/Rosecrans Mem, MO, US","cover":"SCT","clouds":[{"cover":"SCT","base":9000}],"fltCat":"VFR"},{"icaoId":"KBRL","receiptTime":"2026-04-18T21:56:30.321Z","obsTime":1776549180,"reportTime":"2026-04-18T22:00:00.000Z","temp":10.6,"dewp":-4.4,"wdir":310,"wspd":15,"wgst":29,"visib":"10+","altim":1018.4,"slp":1018.5,"qcField":14,"metarType":"METAR","rawOb":"METAR KBRL 182153Z AUTO 31015G29KT 10SM CLR 11/M04 A3007 RMK AO2 PK WND 32030/2055 SLP185 T01061044 $","lat":40.7729,"lon":-91.1255,"elev":208,"name":"Burlington/SE Iowa Rgnl, IA, US","cover":"CLR","clouds":[],"fltCat":"VFR"},{"icaoId":"KBTM","receiptTime":"2026-04-18T21:56:30.385Z","obsTime":1776549180,"reportTime":"2026-04-18T22:00:00.000Z","temp":12.2,"dewp":-16.1,"wdir":"VRB","wspd":5,"visib":"10+","altim":1019.4,"slp":1019.9,"qcField":6,"metarType":"METAR","rawOb":"METAR KBTM 182153Z AUTO VRB05KT 10SM CLR 12/M16 A3010 RMK AO2 SLP199 T01221161","lat":45.9644,"lon":-112.5015,"elev":1680,"name":"Butte/Mooney Arpt, MT, US","cover":"CLR","clouds":[],"fltCat":"VFR"},{"icaoId":"KCGI","receiptTime":"2026-04-18T21:56:30.628Z","obsTime":1776549180,"reportTime":"2026-04-18T22:00:00.000Z","temp":12.2,"dewp":5,"wdir":340,"wspd":5,"visib":"10+","altim":1019,"slp":1018.8,"qcField":4,"metarType":"METAR","rawOb":"METAR KCGI 182153Z 34005KT 10SM OVC070 12/05 A3009 RMK AO2 SLP188 T01220050","lat":37.2254,"lon":-89.5785,"elev":103,"name":"Cape Girardeau Rgnl, MO, US","cover":"OVC","clouds":[{"cover":"OVC","base":7000}],"fltCat":"VFR"},{"icaoId":"KPIH","receiptTime":"2026-04-18T21:56:30.879Z","obsTime":1776549180,"reportTime":"2026-04-18T22:00:00.000Z","temp":12.8,"dewp":-7.8,"wdir":300,"wspd":6,"visib":"10+","altim":1022.4,"slp":1023.1,"qcField":4,"metarType":"METAR","rawOb":"METAR KPIH 182153Z 30006KT 10SM CLR 13/M08 A3019 RMK AO2 SLP231 T01281078","lat":42.9197,"lon":-112.5723,"elev":1357,"name":"Pocatello Rgnl, ID, US","cover":"CLR","clouds":[],"fltCat":"VFR"},{"icaoId":"KMIA","receiptTime":"2026-04-18T21:56:31.457Z","obsTime":1776549180,"reportTime":"2026-04-18T22:00:00.000Z","temp":27.8,"dewp":20.6,"wdir":110,"wspd":13,"visib":"10+","altim":1014.6,"slp":1014.5,"qcField":0,"metarType":"METAR","rawOb":"METAR KMIA 182153Z 11013KT 10SM FEW028 SCT250 28/21 A2996 RMK SLP145 T02780206","lat":25.7881,"lon":-80.3169,"elev":1,"name":"Miami Intl, FL, US","cover":"SCT","clouds":[{"cover":"FEW","base":2800},{"cover":"SCT","base":25000}],"fltCat":"VFR"},{"icaoId":"KTUL","receiptTime":"2026-04-18T21:56:32.363Z","obsTime":1776549180,"reportTime":"2026-04-18T22:00:00.000Z","temp":17.2,"dewp":0,"wdir":340,"wspd":10,"wgst":17,"visib":"10+","altim":1023.5,"slp":1023.2,"qcField":12,"metarType":"METAR","rawOb":"METAR KTUL 182153Z 34010G17KT 10SM FEW250 17/00 A3022 RMK AO2 SLP232 T01720000 $","lat":36.1985,"lon":-95.8782,"elev":196,"name":"Tulsa Intl Arpt, OK, US","cover":"FEW","clouds":[{"cover":"FEW","base":25000}],"fltCat":"VFR"},{"icaoId":"KMCO","receiptTime":"2026-04-18T21:56:33.064Z","obsTime":1776549180,"reportTime":"2026-04-18T22:00:00.000Z","temp":31.1,"dewp":13.3,"wdir":170,"wspd":4,"visib":"10+","altim":1015.3,"slp":1014.9,"qcField":4,"metarType":"METAR","rawOb":"METAR KMCO 182153Z 17004KT 10SM FEW065 SCT250 31/13 A2998 RMK AO2 SLP149 T03110133","lat":28.4182,"lon":-81.3241,"elev":27,"name":"Orlando Intl, FL, US","cover":"SCT","clouds":[{"cover":"FEW","base":6500},{"cover":"SCT","base":25000}],"fltCat":"VFR"},{"icaoId":"KMYF","receiptTime":"2026-04-18T21:56:33.201Z","obsTime":1776549180,"reportTime":"2026-04-18T22:00:00.000Z","temp":23.9,"dewp":12.2,"wdir":230,"wspd":10,"visib":"10+","altim":1013.6,"slp":1013.2,"qcField":6,"metarType":"METAR","rawOb":"METAR KMYF 182153Z AUTO 23010KT 10SM CLR 24/12 A2993 RMK AO2 SLP132 T02390122","lat":32.8145,"lon":-117.1375,"elev":128,"name":"San Diego/Montgomery Arpt, CA, US","cover":"CLR","clouds":[],"fltCat":"VFR"},{"icaoId":"KNEW","receiptTime":"2026-04-18T21:56:33.230Z","obsTime":1776549180,"reportTime":"2026-04-18T22:00:00.000Z","temp":27.8,"dewp":17.2,"wdir":40,"wspd":3,"visib":"10+","altim":1015,"slp":1014.1,"qcField":4,"metarType":"METAR","rawOb":"METAR KNEW 182153Z 04003KT 10SM CLR 28/17 A2997 RMK AO1 SLP141 T02780172","lat":30.0494,"lon":-90.029,"elev":1,"name":"New Orleans/Lakefront Arpt, LA, US","cover":"CLR","clouds":[],"fltCat":"VFR"},{"icaoId":"KFSM","receiptTime":"2026-04-18T21:56:33.743Z","obsTime":1776549180,"reportTime":"2026-04-18T22:00:00.000Z","temp":17.8,"dewp":0.6,"wdir":350,"wspd":11,"wgst":20,"visib":"10+","altim":1021.8,"slp":1021.4,"qcField":4,"metarType":"METAR","rawOb":"METAR KFSM 182153Z 35011G20KT 10SM CLR 18/01 A3017 RMK AO2 SLP214 T01780006","lat":35.3335,"lon":-94.3653,"elev":136,"name":"Fort Smith Rgnl, AR, US","cover":"CLR","clouds":[],"fltCat":"VFR"},{"icaoId":"KRIW","receiptTime":"2026-04-18T21:56:33.942Z","obsTime":1776549180,"reportTime":"2026-04-18T22:00:00.000Z","temp":13.9,"dewp":-17.8,"wdir":150,"wspd":5,"wgst":14,"visib":"10+","altim":1019,"slp":1018.7,"qcField":6,"metarType":"METAR","rawOb":"METAR KRIW 182153Z AUTO 15005G14KT 10SM CLR 14/M18 A3009 RMK AO2 SLP187 T01391178","lat":43.0622,"lon":-108.4471,"elev":1662,"name":"Riverton Rgnl, WY, US","cover":"CLR","clouds":[],"fltCat":"VFR"},{"icaoId":"KFMN","receiptTime":"2026-04-18T21:56:34.075Z","obsTime":1776549180,"reportTime":"2026-04-18T22:00:00.000Z","temp":15.6,"dewp":-18.9,"wdir":"VRB","wspd":5,"visib":"10+","altim":1023.1,"slp":1022.2,"qcField":4,"metarType":"METAR","rawOb":"METAR KFMN 182153Z VRB05KT 10SM CLR 16/M19 A3021 RMK AO2 SLP222 T01561189","lat":36.7435,"lon":-108.2293,"elev":1677,"name":"Farmington/Four Corners Rgnl, NM, US","cover":"CLR","clouds":[],"fltCat":"VFR"},{"icaoId":"KRDD","receiptTime":"2026-04-18T21:56:34.625Z","obsTime":1776549180,"reportTime":"2026-04-18T22:00:00.000Z","temp":24.4,"dewp":0,"wdir":"VRB","wspd":3,"visib":"10+","altim":1013.6,"slp":1013.2,"qcField":12,"metarType":"METAR","rawOb":"METAR KRDD 182153Z VRB03KT 10SM CLR 24/00 A2993 RMK AO2 SLP132 T02440000 $","lat":40.5146,"lon":-122.2977,"elev":152,"name":"Redding Muni, CA, US","cover":"CLR","clouds":[],"fltCat":"VFR"},{"icaoId":"KRTN","receiptTime":"2026-04-18T21:56:34.718Z","obsTime":1776549180,"reportTime":"2026-04-18T22:00:00.000Z","temp":12.2,"dewp":-13.3,"wdir":"VRB","wspd":3,"visib":"10+","altim":1023.5,"slp":1021.7,"qcField":6,"metarType":"METAR","rawOb":"METAR KRTN 182153Z AUTO VRB03KT 10SM CLR 12/M13 A3022 RMK AO2 SLP217 T01221133","lat":36.7418,"lon":-104.5076,"elev":1939,"name":"Raton/Crews Fld, NM, US","cover":"CLR","clouds":[],"fltCat":"VFR"},{"icaoId":"KMSY","receiptTime":"2026-04-18T21:56:34.919Z","obsTime":1776549180,"reportTime":"2026-04-18T22:00:00.000Z","temp":28.9,"dewp":17.2,"wdir":20,"wspd":5,"visib":"10+","altim":1014.6,"slp":1014.7,"qcField":4,"metarType":"METAR","rawOb":"METAR KMSY 182153Z 02005KT 10SM FEW045 FEW090 BKN250 29/17 A2996 RMK AO2 SLP147 T02890172","lat":29.9974,"lon":-90.2777,"elev":0,"name":"New Orleans/Armstrong Intl, LA, US","cover":"BKN","clouds":[{"cover":"FEW","base":4500},{"cover":"FEW","base":9000},{"cover":"BKN","base":25000}],"fltCat":"VFR"},{"icaoId":"KBLI","receiptTime":"2026-04-18T21:56:35.155Z","obsTime":1776549180,"reportTime":"2026-04-18T22:00:00.000Z","temp":17.2,"dewp":4.4,"wdir":310,"wspd":6,"visib":"10+","altim":1015.3,"slp":1015.9,"qcField":4,"metarType":"METAR","rawOb":"METAR KBLI 182153Z 31006KT 10SM CLR 17/04 A2998 RMK AO2 SLP159 T01720044","lat":48.7991,"lon":-122.5407,"elev":46,"name":"Bellingham Intl, WA, US","cover":"CLR","clouds":[],"fltCat":"VFR"},{"icaoId":"KBOI","receiptTime":"2026-04-18T21:56:35.209Z","obsTime":1776549180,"reportTime":"2026-04-18T22:00:00.000Z","temp":16.7,"dewp":-6.1,"wdir":140,"wspd":10,"visib":"10+","altim":1020.1,"slp":1019.6,"qcField":4,"metarType":"METAR","rawOb":"METAR KBOI 182153Z 14010KT 100V170 10SM R10R/2600VP6000FT CLR 17/M06 A3012 RMK AO2 SLP196 T01671061","lat":43.567,"lon":-116.2406,"elev":860,"name":"Boise Arpt, ID, US","cover":"CLR","clouds":[],"fltCat":"VFR"},{"icaoId":"KCNM","receiptTime":"2026-04-18T21:56:35.252Z","obsTime":1776549180,"reportTime":"2026-04-18T22:00:00.000Z","temp":20.6,"dewp":-6.7,"wdir":"VRB","wspd":4,"visib":"10+","altim":1023.5,"slp":1020.2,"qcField":6,"metarType":"METAR","rawOb":"METAR KCNM 182153Z AUTO VRB04KT 10SM CLR 21/M07 A3022 RMK AO2 SLP202 T02061067","lat":32.3336,"lon":-104.2584,"elev":993,"name":"Carlsbad/Cavern City Air Term, NM, US","cover":"CLR","clouds":[],"fltCat":"VFR"},{"icaoId":"KMFE","receiptTime":"2026-04-18T21:56:35.586Z","obsTime":1776549180,"reportTime":"2026-04-18T22:00:00.000Z","temp":30.6,"dewp":20.6,"wdir":100,"wspd":7,"visib":"10+","altim":1011.3,"slp":1010.8,"qcField":4,"metarType":"METAR","rawOb":"METAR KMFE 182153Z 10007KT 10SM CLR 31/21 A2986 RMK AO2 SLP108 T03060206","lat":26.1791,"lon":-98.2445,"elev":29,"name":"McAllen/Miller Intl, TX, US","cover":"CLR","clouds":[],"fltCat":"VFR"},{"icaoId":"KMSP","receiptTime":"2026-04-18T21:56:35.885Z","obsTime":1776549180,"reportTime":"2026-04-18T22:00:00.000Z","temp":6.7,"dewp":-10.6,"wdir":280,"wspd":18,"wgst":28,"visib":"10+","altim":1015,"slp":1015.5,"qcField":4,"metarType":"METAR","rawOb":"METAR KMSP 182153Z 28018G28KT 10SM SCT070 07/M11 A2997 RMK AO2 PK WND 28042/2106 SLP155 T00671106","lat":44.8852,"lon":-93.2313,"elev":255,"name":"Minneapolis-St Paul Intl, MN, US","cover":"SCT","clouds":[{"cover":"SCT","base":7000}],"fltCat":"VFR"},{"icaoId":"KDAL","receiptTime":"2026-04-18T21:56:33.790Z","obsTime":1776549180,"reportTime":"2026-04-18T22:00:00.000Z","temp":15,"dewp":5,"wdir":"VRB","wspd":5,"visib":"10+","altim":1022.1,"slp":1021.5,"qcField":4,"metarType":"METAR","rawOb":"METAR KDAL 182153Z VRB05KT 10SM FEW110 BKN140 OVC250 15/05 A3018 RMK AO2 PRESRR SLP215 T01500050","lat":32.8384,"lon":-96.8358,"elev":148,"name":"Dallas/Love Fld, TX, US","cover":"OVC","clouds":[{"cover":"FEW","base":11000},{"cover":"BKN","base":14000},{"cover":"OVC","base":25000}],"fltCat":"VFR"},{"icaoId":"KMTJ","receiptTime":"2026-04-18T21:56:34.948Z","obsTime":1776549180,"reportTime":"2026-04-18T22:00:00.000Z","temp":12.2,"dewp":-11.7,"wdir":"VRB","wspd":4,"visib":"10+","altim":1025.8,"slp":1024.1,"qcField":6,"metarType":"METAR","rawOb":"METAR KMTJ 182153Z AUTO VRB04KT 10SM CLR 12/M12 A3029 RMK AO2 SLP241 T01221117","lat":38.5054,"lon":-107.8981,"elev":1755,"name":"Montrose Rgnl, CO, US","cover":"CLR","clouds":[],"fltCat":"VFR"},{"icaoId":"KHSI","receiptTime":"2026-04-18T21:56:34.503Z","obsTime":1776549180,"reportTime":"2026-04-18T22:00:00.000Z","temp":13.3,"dewp":-8.9,"wdir":320,"wspd":16,"wgst":30,"visib":"10+","altim":1020.7,"slp":1021.5,"qcField":6,"metarType":"METAR","rawOb":"METAR KHSI 182153Z AUTO 32016G30KT 10SM FEW100 13/M09 A3014 RMK AO2 PK WND 31033/2122 SLP215 T01331089","lat":40.6002,"lon":-98.4264,"elev":592,"name":"Hastings Muni, NE, US","cover":"FEW","clouds":[{"cover":"FEW","base":10000}],"fltCat":"VFR"},{"icaoId":"KMDW","receiptTime":"2026-04-18T21:56:35.574Z","obsTime":1776549180,"reportTime":"2026-04-18T22:00:00.000Z","temp":10,"dewp":-2.8,"wdir":280,"wspd":18,"wgst":33,"visib":"10+","altim":1014.3,"slp":1014.3,"qcField":4,"metarType":"METAR","rawOb":"METAR KMDW 182153Z 28018G33KT 10SM SCT049 SCT250 10/M03 A2995 RMK AO2 PK WND 27036/2133 SLP143 T01001028","lat":41.7841,"lon":-87.7552,"elev":186,"name":"Chicago/Midway Intl, IL, US","cover":"SCT","clouds":[{"cover":"SCT","base":4900},{"cover":"SCT","base":25000}],"fltCat":"VFR"},{"icaoId":"KPSP","receiptTime":"2026-04-18T21:56:24.428Z","obsTime":1776549180,"reportTime":"2026-04-18T22:00:00.000Z","temp":30.6,"dewp":-11.7,"wdir":160,"wspd":8,"visib":"10+","altim":1013,"slp":1012.7,"qcField":12,"metarType":"METAR","rawOb":"METAR KPSP 182153Z 16008KT 10SM CLR 31/M12 A2991 RMK AO2 SLP127 T03061117 $","lat":33.8222,"lon":-116.5043,"elev":123,"name":"Palm Springs Intl, CA, US","cover":"CLR","clouds":[],"fltCat":"VFR"},{"icaoId":"KAXN","receiptTime":"2026-04-18T21:56:35.948Z","obsTime":1776549180,"reportTime":"2026-04-18T22:00:00.000Z","temp":6.1,"dewp":-12.2,"wdir":280,"wspd":20,"wgst":30,"visib":"10+","altim":1014.6,"slp":1016.2,"qcField":6,"metarType":"METAR","rawOb":"METAR KAXN 182153Z AUTO 28020G30KT 10SM SCT070 06/M12 A2996 RMK AO2 PK WND 30034/2102 SLP162 T00611122","lat":45.868,"lon":-95.394,"elev":433,"name":"Alexandria/Chandler Fld, MN, US","cover":"SCT","clouds":[{"cover":"SCT","base":7000}],"fltCat":"VFR"},{"icaoId":"KVIH","receiptTime":"2026-04-18T21:56:22.369Z","obsTime":1776549180,"reportTime":"2026-04-18T22:00:00.000Z","temp":13.3,"dewp":-3.3,"wdir":310,"wspd":15,"wgst":24,"visib":"10+","altim":1020.4,"slp":1020.4,"qcField":6,"metarType":"METAR","rawOb":"METAR KVIH 182153Z AUTO 31015G24KT 10SM CLR 13/M03 A3013 RMK AO2 PK WND 32026/2117 SLP204 T01331033","lat":38.1318,"lon":-91.7647,"elev":342,"name":"Vichy/Rolla Arpt, MO, US","cover":"CLR","clouds":[],"fltCat":"VFR"},{"icaoId":"KMAF","receiptTime":"2026-04-18T21:56:33.041Z","obsTime":1776549180,"reportTime":"2026-04-18T22:00:00.000Z","temp":19.4,"dewp":-8.3,"wdir":30,"wspd":17,"wgst":23,"visib":"10+","altim":1023.1,"slp":1020.2,"qcField":12,"metarType":"METAR","rawOb":"METAR KMAF 182153Z 03017G23KT 10SM CLR 19/M08 A3021 RMK AO2 PK WND 02029/2117 SLP202 T01941083 $","lat":31.9475,"lon":-102.2086,"elev":874,"name":"Midland Intl, TX, US","cover":"CLR","clouds":[],"fltCat":"VFR"},{"icaoId":"KHIB","receiptTime":"2026-04-18T21:56:22.910Z","obsTime":1776549180,"reportTime":"2026-04-18T22:00:00.000Z","temp":0,"dewp":-11.1,"wdir":300,"wspd":14,"wgst":30,"visib":"10+","altim":1010.6,"slp":1012.5,"qcField":14,"metarType":"METAR","rawOb":"METAR KHIB 182153Z AUTO 30014G30KT 10SM OVC050 00/M11 A2984 RMK AO2 PK WND 31035/2129 SLP125 T00001111 $","lat":47.3804,"lon":-92.8325,"elev":409,"name":"Hibbing/Chisholm Arpt, MN, US","cover":"OVC","clouds":[{"cover":"OVC","base":5000}],"fltCat":"VFR"},{"icaoId":"KBTR","receiptTime":"2026-04-18T21:56:23.484Z","obsTime":1776549180,"reportTime":"2026-04-18T22:00:00.000Z","temp":27.8,"dewp":19.4,"wdir":30,"wspd":3,"visib":"10+","altim":1014.3,"slp":1014.2,"qcField":12,"metarType":"METAR","rawOb":"METAR KBTR 182153Z 03003KT 10SM SCT110 28/19 A2995 RMK AO2 SLP142 T02780194 $","lat":30.5378,"lon":-91.1468,"elev":20,"name":"Baton Rouge/Ryan Fld, LA, US","cover":"SCT","clouds":[{"cover":"SCT","base":11000}],"fltCat":"VFR"},{"icaoId":"KJLN","receiptTime":"2026-04-18T21:56:23.574Z","obsTime":1776549180,"reportTime":"2026-04-18T22:00:00.000Z","temp":15,"dewp":-0.6,"wdir":340,"wspd":9,"wgst":16,"visib":"10+","altim":1023.1,"slp":1022.8,"qcField":4,"metarType":"METAR","rawOb":"METAR KJLN 182153Z 34009G16KT 10SM CLR 15/M01 A3021 RMK AO2 SLP228 T01501006","lat":37.1522,"lon":-94.4952,"elev":297,"name":"Joplin Rgnl, MO, US","cover":"CLR","clouds":[],"fltCat":"VFR"},{"icaoId":"KLBB","receiptTime":"2026-04-18T21:56:23.608Z","obsTime":1776549180,"reportTime":"2026-04-18T22:00:00.000Z","temp":17.8,"dewp":-12.2,"wdir":60,"wspd":10,"wgst":18,"visib":"10+","altim":1024.1,"slp":1022,"qcField":4,"metarType":"METAR","rawOb":"METAR KLBB 182153Z 06010G18KT 020V090 10SM FEW100 FEW250 18/M12 A3024 RMK AO2 PK WND 08028/2111 SLP220 T01781122","lat":33.6658,"lon":-101.8233,"elev":996,"name":"Lubbock Intl Arpt, TX, US","cover":"FEW","clouds":[{"cover":"FEW","base":10000},{"cover":"FEW","base":25000}],"fltCat":"VFR"},{"icaoId":"KSTC","receiptTime":"2026-04-18T21:56:23.741Z","obsTime":1776549180,"reportTime":"2026-04-18T22:00:00.000Z","temp":6.7,"dewp":-12.2,"wdir":300,"wspd":23,"wgst":32,"visib":"10+","altim":1014,"slp":1015.9,"qcField":4,"metarType":"METAR","rawOb":"METAR KSTC 182153Z 30023G32KT 10SM CLR 07/M12 A2994 RMK AO2 PK WND 30032/2153 SLP159 T00671122","lat":45.5442,"lon":-94.0516,"elev":302,"name":"St Cloud Rgnl, MN, US","cover":"CLR","clouds":[],"fltCat":"VFR"},{"icaoId":"KDRO","receiptTime":"2026-04-18T21:56:24.250Z","obsTime":1776549180,"reportTime":"2026-04-18T22:00:00.000Z","temp":14.4,"dewp":-15,"visib":"10+","altim":1023.8,"slp":1023.4,"qcField":6,"metarType":"METAR","rawOb":"METAR KDRO 182153Z AUTO 10SM CLR 14/M15 A3023 RMK AO2 SLP234 T01441150","lat":37.1431,"lon":-107.7602,"elev":2021,"name":"Durango/La Plata Cnty, CO, US","cover":"CLR","clouds":[],"fltCat":"VFR"},{"icaoId":"KPRC","receiptTime":"2026-04-18T21:56:24.408Z","obsTime":1776549180,"reportTime":"2026-04-18T22:00:00.000Z","temp":20.6,"dewp":-12.8,"wdir":140,"wspd":8,"visib":"10+","altim":1019.4,"slp":1014.6,"qcField":4,"metarType":"METAR","rawOb":"METAR KPRC 182153Z 14008KT 10SM CLR 21/M13 A3010 RMK AO2 SLP146 T02061128","lat":34.6491,"lon":-112.4223,"elev":1528,"name":"Prescott/Love Fld, AZ, US","cover":"CLR","clouds":[],"fltCat":"VFR"},{"icaoId":"KPUW","receiptTime":"2026-04-18T21:56:24.472Z","obsTime":1776549180,"reportTime":"2026-04-18T22:00:00.000Z","temp":14.4,"dewp":0.6,"wdir":140,"wspd":10,"visib":"10+","altim":1019.4,"slp":1019.8,"qcField":6,"metarType":"METAR","rawOb":"METAR KPUW 182153Z AUTO 14010KT 10SM CLR 14/01 A3010 RMK AO2 SLP198 T01440006","lat":46.7438,"lon":-117.1158,"elev":774,"name":"Pullman/Moscow Rgnl, WA, US","cover":"CLR","clouds":[],"fltCat":"VFR"},{"icaoId":"KLAR","receiptTime":"2026-04-18T21:56:24.679Z","obsTime":1776549180,"reportTime":"2026-04-18T22:00:00.000Z","temp":9.4,"dewp":-19.4,"wdir":310,"wspd":14,"wgst":23,"visib":"10+","altim":1021.4,"slp":1020.9,"qcField":6,"metarType":"METAR","rawOb":"METAR KLAR 182153Z AUTO 31014G23KT 10SM CLR 09/M19 A3016 RMK AO2 PK WND 30032/2127 SLP209 T00941194","lat":41.3165,"lon":-105.6729,"elev":2217,"name":"Laramie Rgnl, WY, US","cover":"CLR","clouds":[],"fltCat":"VFR"},{"icaoId":"KMLU","receiptTime":"2026-04-18T22:00:18.337Z","obsTime":1776549180,"reportTime":"2026-04-18T22:00:00.000Z","temp":25,"dewp":19.4,"wdir":350,"wspd":9,"visib":"10+","altim":1015.7,"slp":1015.3,"qcField":4,"metarType":"METAR","rawOb":"METAR KMLU 182153Z 35009KT 10SM FEW024 OVC110 25/19 A2999 RMK AO2 SLP153 T02500194","lat":32.5155,"lon":-92.0299,"elev":22,"name":"Monroe Rgnl, LA, US","cover":"OVC","clouds":[{"cover":"FEW","base":2400},{"cover":"OVC","base":11000}],"fltCat":"VFR"},{"icaoId":"KCPR","receiptTime":"2026-04-18T21:56:35.291Z","obsTime":1776549180,"reportTime":"2026-04-18T22:00:00.000Z","temp":12.2,"dewp":-10,"wdir":320,"wspd":14,"wgst":25,"visib":"10+","altim":1020.1,"slp":1020.2,"qcField":4,"metarType":"METAR","rawOb":"METAR KCPR 182153Z 32014G25KT 10SM CLR 12/M10 A3012 RMK AO2 PK WND 28026/2120 SLP202 T01221100","lat":42.8978,"lon":-106.4736,"elev":1623,"name":"Casper/Natrona Cnty, WY, US","cover":"CLR","clouds":[],"fltCat":"VFR"},{"icaoId":"KMLC","receiptTime":"2026-04-18T21:56:35.744Z","obsTime":1776549180,"reportTime":"2026-04-18T22:00:00.000Z","temp":17.2,"dewp":1.1,"wdir":350,"wspd":13,"wgst":23,"visib":"10+","altim":1022.8,"slp":1022.5,"qcField":6,"metarType":"METAR","rawOb":"METAR KMLC 182153Z AUTO 35013G23KT 10SM CLR 17/01 A3020 RMK AO2 SLP225 T01720011","lat":34.8824,"lon":-95.7815,"elev":231,"name":"McAlester Rgnl, OK, US","cover":"CLR","clouds":[],"fltCat":"VFR"},{"icaoId":"KAUS","receiptTime":"2026-04-18T21:56:35.919Z","obsTime":1776549180,"reportTime":"2026-04-18T22:00:00.000Z","temp":15.6,"dewp":8.9,"wdir":10,"wspd":20,"wgst":27,"visib":"10+","altim":1018.7,"slp":1018.3,"qcField":12,"metarType":"METAR","rawOb":"METAR KAUS 182153Z 01020G27KT 10SM OVC032 16/09 A3008 RMK AO2 PK WND 01027/2149 SLP183 CB DSNT W T01560089 $","lat":30.1831,"lon":-97.6806,"elev":148,"name":"Austin/Bergstrom Intl, TX, US","cover":"OVC","clouds":[{"cover":"OVC","base":3200}],"fltCat":"VFR"},{"icaoId":"KLGB","receiptTime":"2026-04-18T21:56:24.797Z","obsTime":1776549180,"reportTime":"2026-04-18T22:00:00.000Z","temp":26.1,"dewp":7.8,"wdir":200,"wspd":8,"visib":"10+","altim":1013,"slp":1012.9,"qcField":14,"metarType":"METAR","rawOb":"METAR KLGB 182153Z AUTO 20008KT 10SM CLR 26/08 A2991 RMK AO2 SLP129 T02610078 $","lat":33.8118,"lon":-118.1472,"elev":10,"name":"Long Beach Arpt, CA, US","cover":"CLR","clouds":[],"fltCat":"VFR"},{"icaoId":"KDVT","receiptTime":"2026-04-18T21:56:24.314Z","obsTime":1776549180,"reportTime":"2026-04-18T22:00:00.000Z","temp":30.6,"dewp":-9.4,"visib":"10+","altim":1012.3,"slp":1010.2,"qcField":4,"metarType":"METAR","rawOb":"METAR KDVT 182153Z 10SM CLR 31/M09 A2989 RMK AO2 SLP102 T03061094","lat":33.6902,"lon":-112.0662,"elev":454,"name":"Phoenix/Deer Valley Arpt, AZ, US","cover":"CLR","clouds":[],"fltCat":"VFR"},{"icaoId":"KICT","receiptTime":"2026-04-18T21:56:24.539Z","obsTime":1776549180,"reportTime":"2026-04-18T22:00:00.000Z","temp":16.7,"dewp":-3.9,"wdir":"VRB","wspd":3,"visib":"10+","altim":1022.1,"slp":1022.1,"qcField":12,"metarType":"METAR","rawOb":"METAR KICT 182153Z VRB03KT 10SM SCT090 SCT100 17/M04 A3018 RMK AO2 SLP221 T01671039 $","lat":37.6475,"lon":-97.43,"elev":428,"name":"Wichita/Eisenhower Arpt, KS, US","cover":"SCT","clouds":[{"cover":"SCT","base":9000},{"cover":"SCT","base":10000}],"fltCat":"VFR"},{"icaoId":"KLBF","receiptTime":"2026-04-18T21:56:24.703Z","obsTime":1776549180,"reportTime":"2026-04-18T22:00:00.000Z","temp":13.3,"dewp":-8.9,"wdir":300,"wspd":18,"wgst":32,"visib":"10+","altim":1020.7,"slp":1022.2,"qcField":6,"wxString":"-RA","precip":0.005,"metarType":"METAR","rawOb":"METAR KLBF 182153Z AUTO 30018G32KT 10SM -RA SCT100 13/M09 A3014 RMK AO2 PK WND 30033/2130 SLP222 P0000 T01331089","lat":41.122,"lon":-100.6689,"elev":843,"name":"N Platte/Lee Bird Fld, NE, US","cover":"SCT","clouds":[{"cover":"SCT","base":10000}],"fltCat":"VFR"},{"icaoId":"KJBR","receiptTime":"2026-04-18T21:56:23.564Z","obsTime":1776549180,"reportTime":"2026-04-18T22:00:00.000Z","temp":13.3,"dewp":7.8,"wdir":350,"wspd":5,"visib":"10+","altim":1019.7,"slp":1019.2,"qcField":14,"precip":0.005,"metarType":"METAR","rawOb":"METAR KJBR 182153Z AUTO 35005KT 10SM OVC060 13/08 A3011 RMK AO2 RAE2058 SLP192 P0000 T01330078 $","lat":35.8357,"lon":-90.6442,"elev":79,"name":"Jonesboro Muni, AR, US","cover":"OVC","clouds":[{"cover":"OVC","base":6000}],"fltCat":"VFR"},{"icaoId":"KVEL","receiptTime":"2026-04-18T21:56:32.709Z","obsTime":1776549180,"reportTime":"2026-04-18T22:00:00.000Z","temp":9.4,"dewp":-12.2,"visib":"10+","altim":1025.8,"slp":1026,"qcField":6,"metarType":"METAR","rawOb":"METAR KVEL 182153Z AUTO 10SM CLR 09/M12 A3029 RMK AO2 SLP260 T00941122","lat":40.4429,"lon":-109.5128,"elev":1604,"name":"Vernal Rgnl, UT, US","cover":"CLR","clouds":[],"fltCat":"VFR"},{"icaoId":"KLOL","receiptTime":"2026-04-18T21:56:22.656Z","obsTime":1776549180,"reportTime":"2026-04-18T22:00:00.000Z","temp":19.4,"dewp":-18.9,"wdir":180,"wspd":4,"visib":"10+","altim":1017,"slp":1016.2,"qcField":6,"metarType":"METAR","rawOb":"METAR KLOL 182153Z AUTO 18004KT 10SM CLR 19/M19 A3003 RMK AO2 SLP162 T01941189","lat":40.0684,"lon":-118.5702,"elev":1191,"name":"Lovelock/Derby Fld, NV, US","cover":"CLR","clouds":[],"fltCat":"VFR"},{"icaoId":"KHEI","receiptTime":"2026-04-18T21:56:22.866Z","obsTime":1776549180,"reportTime":"2026-04-18T22:00:00.000Z","temp":9.4,"dewp":-7.8,"wdir":290,"wspd":23,"wgst":32,"visib":"10+","altim":1017.4,"slp":1019.9,"qcField":6,"metarType":"METAR","rawOb":"METAR KHEI 182153Z AUTO 29023G32KT 10SM BKN080 BKN090 09/M08 A3004 RMK AO2 PK WND 28032/2151 SLP199 T00941078","lat":46.0108,"lon":-102.6518,"elev":824,"name":"Hettinger Muni, ND, US","cover":"BKN","clouds":[{"cover":"BKN","base":8000},{"cover":"BKN","base":9000}],"fltCat":"VFR"},{"icaoId":"KHLN","receiptTime":"2026-04-18T21:56:22.995Z","obsTime":1776549180,"reportTime":"2026-04-18T22:00:00.000Z","temp":13.9,"dewp":-6.1,"wdir":"VRB","wspd":3,"visib":"10+","altim":1018.7,"slp":1020.8,"qcField":4,"metarType":"METAR","rawOb":"METAR KHLN 182153Z VRB03KT 10SM CLR 14/M06 A3008 RMK AO2 SLP208 T01391061","lat":46.6045,"lon":-111.9892,"elev":1178,"name":"Helena Rgnl, MT, US","cover":"CLR","clouds":[],"fltCat":"VFR"},{"icaoId":"KHOT","receiptTime":"2026-04-18T21:56:23.223Z","obsTime":1776549180,"reportTime":"2026-04-18T22:00:00.000Z","temp":14.4,"dewp":8.3,"wdir":0,"wspd":0,"visib":"10+","altim":1020.1,"slp":1019.6,"qcField":6,"metarType":"METAR","rawOb":"METAR KHOT 182153Z AUTO 00000KT 10SM OVC049 14/08 A3012 RMK AO2 SLP196 T01440083","lat":34.4755,"lon":-93.1041,"elev":153,"name":"Hot Springs Mem, AR, US","cover":"OVC","clouds":[{"cover":"OVC","base":4900}],"fltCat":"VFR"},{"icaoId":"KCLL","receiptTime":"2026-04-18T21:56:23.520Z","obsTime":1776549180,"reportTime":"2026-04-18T22:00:00.000Z","temp":15,"dewp":10,"wdir":340,"wspd":16,"wgst":29,"visib":"10+","altim":1018.4,"slp":1018.1,"qcField":4,"wxString":"-RA","precip":0.005,"metarType":"METAR","rawOb":"METAR KCLL 182153Z 34016G29KT 10SM -RA OVC023 15/10 A3007 RMK AO2 PK WND 35031/2133 SLP181 P0000 T01500100","lat":30.5912,"lon":-96.3631,"elev":96,"name":"College Station/Easterwood Arpt, TX, US","cover":"OVC","clouds":[{"cover":"OVC","base":2300}],"fltCat":"MVFR"},{"icaoId":"KPDX","receiptTime":"2026-04-18T21:56:23.531Z","obsTime":1776549180,"reportTime":"2026-04-18T22:00:00.000Z","temp":21.1,"dewp":0.6,"wdir":60,"wspd":6,"visib":"10+","altim":1014.3,"slp":1014.1,"qcField":12,"metarType":"METAR","rawOb":"METAR KPDX 182153Z 06006KT 10SM FEW180 BKN250 21/01 A2995 RMK AO2 SLP141 T02110006 $","lat":45.5958,"lon":-122.6092,"elev":7,"name":"Portland Intl, OR, US","cover":"BKN","clouds":[{"cover":"FEW","base":18000},{"cover":"BKN","base":25000}],"fltCat":"VFR"},{"icaoId":"KPGA","receiptTime":"2026-04-18T21:56:23.541Z","obsTime":1776549180,"reportTime":"2026-04-18T22:00:00.000Z","temp":16.1,"dewp":-15.6,"wdir":30,"wspd":12,"wgst":19,"visib":"10+","altim":1022.8,"slp":1020.4,"qcField":14,"metarType":"METAR","rawOb":"METAR KPGA 182153Z AUTO 03012G19KT 350V050 10SM CLR 16/M16 A3020 RMK AO2 SLP204 T01611156 $","lat":36.9211,"lon":-111.4487,"elev":1310,"name":"Page Muni, AZ, US","cover":"CLR","clouds":[],"fltCat":"VFR"},{"icaoId":"KLAX","receiptTime":"2026-04-18T21:56:23.597Z","obsTime":1776549180,"reportTime":"2026-04-18T22:00:00.000Z","temp":22.8,"dewp":13.9,"wdir":260,"wspd":11,"visib":"10+","altim":1013.6,"slp":1013.4,"qcField":12,"metarType":"METAR","rawOb":"METAR KLAX 182153Z 26011KT 10SM SCT300 23/14 A2993 RMK AO2 SLP134 T02280139 $","lat":33.9382,"lon":-118.3866,"elev":30,"name":"Los Angeles Intl, CA, US","cover":"SCT","clouds":[{"cover":"SCT","base":30000}],"fltCat":"VFR"},{"icaoId":"KDMN","receiptTime":"2026-04-18T21:56:23.642Z","obsTime":1776549180,"reportTime":"2026-04-18T22:00:00.000Z","temp":25,"dewp":-7.2,"wdir":120,"wspd":11,"visib":"10+","altim":1019,"slp":1013.2,"qcField":6,"metarType":"METAR","rawOb":"METAR KDMN 182153Z AUTO 12011KT 10SM CLR 25/M07 A3009 RMK AO2 SLP132 T02501072","lat":32.2592,"lon":-107.7206,"elev":1310,"name":"Deming Muni, NM, US","cover":"CLR","clouds":[],"fltCat":"VFR"},{"icaoId":"KBFF","receiptTime":"2026-04-18T21:56:23.862Z","obsTime":1776549180,"reportTime":"2026-04-18T22:00:00.000Z","temp":13.3,"dewp":-15.6,"wdir":300,"wspd":12,"wgst":24,"visib":"10+","altim":1020.1,"slp":1020.6,"qcField":6,"precip":0.005,"metarType":"METAR","rawOb":"METAR KBFF 182153Z AUTO 30012G24KT 10SM CLR 13/M16 A3012 RMK AO2 PK WND 30029/2126 RAB05E39 SLP206 P0000 T01331156","lat":41.8747,"lon":-103.6011,"elev":1204,"name":"Scottsbluff/Western Nebraska Rgnl, NE, US","cover":"CLR","clouds":[],"fltCat":"VFR"},{"icaoId":"KCNY","receiptTime":"2026-04-18T21:56:23.900Z","obsTime":1776549180,"reportTime":"2026-04-18T22:00:00.000Z","temp":13.9,"dewp":-15,"wdir":"VRB","wspd":4,"visib":"10+","altim":1024.5,"slp":1023.5,"qcField":14,"metarType":"METAR","rawOb":"METAR KCNY 182153Z AUTO VRB04KT 10SM CLR 14/M15 A3025 RMK AO2 SLP235 T01391150 $","lat":38.7501,"lon":-109.7627,"elev":1392,"name":"Moab/Canyonland Fld, UT, US","cover":"CLR","clouds":[],"fltCat":"VFR"},{"icaoId":"KGRI","receiptTime":"2026-04-18T21:56:24.039Z","obsTime":1776549180,"reportTime":"2026-04-18T22:00:00.000Z","temp":14.4,"dewp":-10,"wdir":310,"wspd":21,"wgst":30,"visib":"10+","altim":1020.4,"slp":1021.8,"qcField":12,"metarType":"METAR","rawOb":"METAR KGRI 182153Z 31021G30KT 10SM CLR 14/M10 A3013 RMK AO2 PK WND 29036/2057 SLP218 T01441100 $","lat":40.9615,"lon":-98.313,"elev":562,"name":"Grand Island Rgnl, NE, US","cover":"CLR","clouds":[],"fltCat":"VFR"},{"icaoId":"KGTF","receiptTime":"2026-04-18T21:56:24.076Z","obsTime":1776549180,"reportTime":"2026-04-18T22:00:00.000Z","temp":13.9,"dewp":-6.7,"wdir":230,"wspd":9,"visib":"10+","altim":1017.7,"slp":1019.5,"qcField":12,"metarType":"METAR","rawOb":"METAR KGTF 182153Z 23009KT 10SM CLR 14/M07 A3005 RMK AO2 SLP195 T01391067 $","lat":47.4733,"lon":-111.3828,"elev":1117,"name":"Great Falls Intl, MT, US","cover":"CLR","clouds":[],"fltCat":"VFR"},{"icaoId":"KDLN","receiptTime":"2026-04-18T21:56:24.205Z","obsTime":1776549180,"reportTime":"2026-04-18T22:00:00.000Z","temp":13.9,"dewp":-12.2,"wdir":220,"wspd":11,"wgst":24,"visib":"10+","altim":1019.4,"slp":1019.1,"qcField":6,"metarType":"METAR","rawOb":"METAR KDLN 182153Z AUTO 22011G24KT 10SM CLR 14/M12 A3010 RMK AO2 SLP191 T01391122","lat":45.2584,"lon":-112.5546,"elev":1586,"name":"Dillon Arpt, MT, US","cover":"CLR","clouds":[],"fltCat":"VFR"},{"icaoId":"KDTW","receiptTime":"2026-04-18T21:56:24.286Z","obsTime":1776549180,"reportTime":"2026-04-18T22:00:00.000Z","temp":10.6,"dewp":3.3,"wdir":270,"wspd":11,"wgst":19,"visib":"10+","altim":1009.6,"slp":1009.6,"qcField":12,"metarType":"METAR","rawOb":"METAR KDTW 182153Z 27011G19KT 10SM SCT020 OVC070 11/03 A2981 RMK AO2 SLP096 T01060033 $","lat":42.2311,"lon":-83.3312,"elev":192,"name":"Detroit/Metro Wayne Cnty, MI, US","cover":"OVC","clouds":[{"cover":"SCT","base":2000},{"cover":"OVC","base":7000}],"fltCat":"VFR"},{"icaoId":"KICR","receiptTime":"2026-04-18T21:56:24.528Z","obsTime":1776549180,"reportTime":"2026-04-18T22:00:00.000Z","temp":10,"dewp":-8.3,"wdir":320,"wspd":19,"wgst":28,"visib":"10+","altim":1019.7,"slp":1021.3,"qcField":6,"metarType":"METAR","rawOb":"METAR KICR 182153Z AUTO 32019G28KT 10SM BKN080 BKN100 OVC120 10/M08 A3011 RMK AO2 PK WND 32032/2128 SLP213 T01001083","lat":43.391,"lon":-99.8462,"elev":618,"name":"Winner/Wiley Fld, SD, US","cover":"OVC","clouds":[{"cover":"BKN","base":8000},{"cover":"BKN","base":10000},{"cover":"OVC","base":12000}],"fltCat":"VFR"},{"icaoId":"KIDA","receiptTime":"2026-04-18T21:56:24.552Z","obsTime":1776549180,"reportTime":"2026-04-18T22:00:00.000Z","temp":11.1,"dewp":-9.4,"wdir":240,"wspd":6,"visib":"10+","altim":1023.8,"slp":1024.8,"qcField":4,"metarType":"METAR","rawOb":"METAR KIDA 182153Z 24006KT 10SM CLR 11/M09 A3023 RMK AO2 SLP248 T01111094","lat":43.5204,"lon":-112.0675,"elev":1444,"name":"Idaho Falls Rgnl, ID, US","cover":"CLR","clouds":[],"fltCat":"VFR"},{"icaoId":"KIXD","receiptTime":"2026-04-18T21:56:24.626Z","obsTime":1776549180,"reportTime":"2026-04-18T22:00:00.000Z","temp":14.4,"dewp":-2.8,"wdir":280,"wspd":7,"visib":"10+","altim":1022.4,"slp":1022.3,"qcField":12,"metarType":"METAR","rawOb":"METAR KIXD 182153Z 28007KT 10SM FEW075 14/M03 A3019 RMK AO2 SLP223 T01441028 $","lat":38.8221,"lon":-94.8902,"elev":322,"name":"Olathe/New Century Arpt, KS, US","cover":"FEW","clouds":[{"cover":"FEW","base":7500}],"fltCat":"VFR"},{"icaoId":"KLAW","receiptTime":"2026-04-18T21:56:24.691Z","obsTime":1776549180,"reportTime":"2026-04-18T22:00:00.000Z","temp":18.9,"dewp":-2.2,"wdir":40,"wspd":12,"wgst":18,"visib":"10+","altim":1024.1,"slp":1023.6,"qcField":4,"metarType":"METAR","rawOb":"METAR KLAW 182153Z 04012G18KT 10SM CLR 19/M02 A3024 RMK AO2 SLP236 T01891022","lat":34.5577,"lon":-98.4172,"elev":328,"name":"Lawton-Fort Sill Rgnl, OK, US","cover":"CLR","clouds":[],"fltCat":"VFR"},{"icaoId":"KGJT","receiptTime":"2026-04-18T21:56:24.868Z","obsTime":1776549180,"reportTime":"2026-04-18T22:00:00.000Z","temp":13.3,"dewp":-11.7,"wdir":"VRB","wspd":4,"visib":"10+","altim":1025.1,"slp":1023.9,"qcField":4,"metarType":"METAR","rawOb":"METAR KGJT 182153Z VRB04KT 10SM CLR 13/M12 A3027 RMK AO2 SLP239 T01331117","lat":39.1344,"lon":-108.5408,"elev":1475,"name":"Grand Junction Rgnl, CO, US","cover":"CLR","clouds":[],"fltCat":"VFR"},{"icaoId":"KPIR","receiptTime":"2026-04-18T21:56:30.911Z","obsTime":1776549180,"reportTime":"2026-04-18T22:00:00.000Z","temp":10.6,"dewp":-8.9,"wdir":310,"wspd":17,"wgst":32,"visib":"10+","altim":1018.7,"slp":1019.9,"qcField":6,"metarType":"METAR","rawOb":"METAR KPIR 182153Z AUTO 31017G32KT 10SM CLR 11/M09 A3008 RMK AO2 PK WND 31032/2148 SLP199 T01061089","lat":44.3819,"lon":-100.2864,"elev":524,"name":"Pierre Muni, SD, US","cover":"CLR","clouds":[],"fltCat":"VFR"},{"icaoId":"KSWO","receiptTime":"2026-04-18T21:56:30.145Z","obsTime":1776549180,"reportTime":"2026-04-18T22:00:00.000Z","temp":17.2,"dewp":-1.7,"wdir":40,"wspd":9,"visib":"10+","altim":1024.1,"slp":1023.5,"qcField":4,"metarType":"METAR","rawOb":"METAR KSWO 182153Z 04009KT 10SM CLR 17/M02 A3024 RMK AO2 SLP235 T01721017","lat":36.1624,"lon":-97.0832,"elev":293,"name":"Stillwater Muni, OK, US","cover":"CLR","clouds":[],"fltCat":"VFR"},{"icaoId":"KBRO","receiptTime":"2026-04-18T21:56:30.348Z","obsTime":1776549180,"reportTime":"2026-04-18T22:00:00.000Z","temp":29.4,"dewp":20.6,"wdir":110,"wspd":11,"wgst":19,"visib":"10+","altim":1011.6,"slp":1011.4,"qcField":4,"metarType":"METAR","rawOb":"METAR KBRO 182153Z 11011G19KT 10SM FEW034 BKN046 BKN060 29/21 A2987 RMK AO2 SLP114 T02940206","lat":25.9146,"lon":-97.4231,"elev":6,"name":"Brownsville Intl, TX, US","cover":"BKN","clouds":[{"cover":"FEW","base":3400},{"cover":"BKN","base":4600},{"cover":"BKN","base":6000}],"fltCat":"VFR"},{"icaoId":"KBUR","receiptTime":"2026-04-18T21:56:30.399Z","obsTime":1776549180,"reportTime":"2026-04-18T22:00:00.000Z","temp":27.2,"dewp":-4.4,"wdir":"VRB","wspd":3,"visib":"10+","altim":1013.6,"slp":1012.2,"qcField":4,"metarType":"METAR","rawOb":"METAR KBUR 182153Z VRB03KT 10SM CLR 27/M04 A2993 RMK AO2 SLP122 T02721044","lat":34.1996,"lon":-118.3654,"elev":221,"name":"Burbank/Bob Hope Arpt, CA, US","cover":"CLR","clouds":[],"fltCat":"VFR"},{"icaoId":"KCDC","receiptTime":"2026-04-18T21:56:30.531Z","obsTime":1776549180,"reportTime":"2026-04-18T22:00:00.000Z","temp":16.1,"dewp":-10,"wdir":290,"wspd":6,"visib":"10+","altim":1020.7,"slp":1018.5,"qcField":6,"metarType":"METAR","rawOb":"METAR KCDC 182153Z AUTO 29006KT 10SM CLR 16/M10 A3014 RMK AO2 SLP185 T01611100","lat":37.7067,"lon":-113.097,"elev":1703,"name":"Cedar City Muni, UT, US","cover":"CLR","clouds":[],"fltCat":"VFR"},{"icaoId":"KLVS","receiptTime":"2026-04-18T21:56:33.030Z","obsTime":1776549180,"reportTime":"2026-04-18T22:00:00.000Z","temp":11.1,"dewp":-11.1,"wdir":90,"wspd":6,"visib":"10+","altim":1024.8,"slp":1022,"qcField":14,"metarType":"METAR","rawOb":"METAR KLVS 182153Z AUTO 09006KT 10SM CLR 11/M11 A3026 RMK AO2 SLP220 T01111111 $","lat":35.6558,"lon":-105.1385,"elev":2095,"name":"Las Vegas Muni, NM, US","cover":"CLR","clouds":[],"fltCat":"VFR"},{"icaoId":"KOAK","receiptTime":"2026-04-18T21:56:33.244Z","obsTime":1776549180,"reportTime":"2026-04-18T22:00:00.000Z","temp":23.3,"dewp":6.1,"wdir":290,"wspd":8,"visib":"10+","altim":1014.6,"slp":1014.4,"qcField":12,"metarType":"METAR","rawOb":"METAR KOAK 182153Z 29008KT 10SM BKN250 23/06 A2996 RMK AO2 SLP144 T02330061 $","lat":37.7178,"lon":-122.233,"elev":3,"name":"Oakland Intl, CA, US","cover":"BKN","clouds":[{"cover":"BKN","base":25000}],"fltCat":"VFR"},{"icaoId":"KOGD","receiptTime":"2026-04-18T21:56:33.283Z","obsTime":1776549180,"reportTime":"2026-04-18T22:00:00.000Z","temp":12.2,"dewp":-8.3,"wdir":310,"wspd":6,"visib":"10+","altim":1023.1,"slp":1022.3,"qcField":4,"metarType":"METAR","rawOb":"METAR KOGD 182153Z 31006KT 10SM CLR 12/M08 A3021 RMK AO2 SLP223 T01221083","lat":41.1941,"lon":-112.0168,"elev":1356,"name":"Ogden/Hinckley Arpt, UT, US","cover":"CLR","clouds":[],"fltCat":"VFR"},{"icaoId":"KOTM","receiptTime":"2026-04-18T21:56:33.438Z","obsTime":1776549180,"reportTime":"2026-04-18T22:00:00.000Z","temp":10.6,"dewp":-7.2,"wdir":280,"wspd":14,"wgst":28,"visib":"10+","altim":1019.4,"slp":1019.5,"qcField":6,"metarType":"METAR","rawOb":"METAR KOTM 182153Z AUTO 28014G28KT 10SM CLR 11/M07 A3010 RMK AO2 PK WND 29028/2145 SLP195 T01061072","lat":41.1008,"lon":-92.4445,"elev":254,"name":"Ottumwa Rgnl, IA, US","cover":"CLR","clouds":[],"fltCat":"VFR"},{"icaoId":"KFOE","receiptTime":"2026-04-18T21:56:33.692Z","obsTime":1776549180,"reportTime":"2026-04-18T22:00:00.000Z","temp":15.6,"dewp":-2.8,"wdir":300,"wspd":9,"visib":"10+","altim":1021.8,"slp":1021.7,"qcField":12,"metarType":"METAR","rawOb":"METAR KFOE 182153Z 30009KT 10SM SCT090 16/M03 A3017 RMK AO2 SLP217 T01561028 $","lat":38.9414,"lon":-95.6513,"elev":315,"name":"Topeka/Forbes Fld, KS, US","cover":"SCT","clouds":[{"cover":"SCT","base":9000}],"fltCat":"VFR"},{"icaoId":"KDBQ","receiptTime":"2026-04-18T21:56:33.804Z","obsTime":1776549180,"reportTime":"2026-04-18T22:00:00.000Z","temp":6.7,"dewp":-3.9,"wdir":300,"wspd":17,"wgst":28,"visib":"10+","altim":1016.3,"slp":1017.2,"qcField":4,"metarType":"METAR","rawOb":"METAR KDBQ 182153Z 30017G28KT 10SM BKN055 07/M04 A3001 RMK AO2 PK WND 27035/2119 SLP172 T00671039","lat":42.3984,"lon":-90.7091,"elev":317,"name":"Dubuque Rgnl, IA, US","cover":"BKN","clouds":[{"cover":"BKN","base":5500}],"fltCat":"VFR"},{"icaoId":"KSEA","receiptTime":"2026-04-18T21:56:34.026Z","obsTime":1776549180,"reportTime":"2026-04-18T22:00:00.000Z","temp":18.9,"dewp":-1.1,"wdir":270,"wspd":7,"visib":"10+","altim":1015.3,"slp":1015.7,"qcField":4,"metarType":"METAR","rawOb":"METAR KSEA 182153Z 27007KT 10SM FEW100 SCT200 19/M01 A2998 RMK AO2 SLP157 T01891011","lat":47.4447,"lon":-122.3144,"elev":115,"name":"Seattle-Tacoma Intl, WA, US","cover":"SCT","clouds":[{"cover":"FEW","base":10000},{"cover":"SCT","base":20000}],"fltCat":"VFR"},{"icaoId":"KFAR","receiptTime":"2026-04-18T21:56:34.051Z","obsTime":1776549180,"reportTime":"2026-04-18T22:00:00.000Z","temp":6.1,"dewp":-7.8,"wdir":280,"wspd":21,"wgst":28,"visib":"10+","altim":1014.6,"slp":1015.8,"qcField":12,"metarType":"METAR","rawOb":"METAR KFAR 182153Z 28021G28KT 10SM SCT060 BKN075 06/M08 A2996 RMK AO2 PK WND 28031/2121 SLP158 T00611078 $","lat":46.9242,"lon":-96.8119,"elev":276,"name":"Fargo/Hector Intl, ND, US","cover":"BKN","clouds":[{"cover":"SCT","base":6000},{"cover":"BKN","base":7500}],"fltCat":"VFR"},{"icaoId":"KFAT","receiptTime":"2026-04-18T21:56:34.063Z","obsTime":1776549180,"reportTime":"2026-04-18T22:00:00.000Z","temp":26.7,"dewp":1.7,"wdir":160,"wspd":3,"visib":"10+","altim":1014,"slp":1013.7,"qcField":12,"metarType":"METAR","rawOb":"METAR KFAT 182153Z 16003KT 10SM OVC200 27/02 A2994 RMK AO2 SLP137 T02670017 $","lat":36.78,"lon":-119.7202,"elev":102,"name":"Fresno/Yosemite Intl, CA, US","cover":"OVC","clouds":[{"cover":"OVC","base":20000}],"fltCat":"VFR"},{"icaoId":"KTUS","receiptTime":"2026-04-18T21:56:34.215Z","obsTime":1776549180,"reportTime":"2026-04-18T22:00:00.000Z","temp":30,"dewp":-2.8,"wdir":"VRB","wspd":6,"visib":"10+","altim":1013.3,"slp":1009,"qcField":4,"metarType":"METAR","rawOb":"METAR KTUS 182153Z VRB06KT 10SM CLR 30/M03 A2992 RMK AO2 SLP090 T03001028","lat":32.1315,"lon":-110.9564,"elev":776,"name":"Tucson Intl Arpt, AZ, US","cover":"CLR","clouds":[],"fltCat":"VFR"},{"icaoId":"KHRO","receiptTime":"2026-04-18T21:56:34.489Z","obsTime":1776549180,"reportTime":"2026-04-18T22:00:00.000Z","temp":14.4,"dewp":-2.8,"wdir":340,"wspd":9,"wgst":22,"visib":"10+","altim":1021.4,"slp":1020.9,"qcField":38,"wxString":"-RA","precip":0.005,"metarType":"METAR","rawOb":"METAR KHRO 182153Z AUTO 34009G22KT 10SM -RA CLR 14/M03 A3016 RMK AO2 SLP209 P0000 T01441028 TSNO","lat":36.2673,"lon":-93.1566,"elev":417,"name":"Harrison/Boone Cnty, AR, US","cover":"CLR","clouds":[],"fltCat":"VFR"},{"icaoId":"KSAF","receiptTime":"2026-04-18T21:56:34.817Z","obsTime":1776549180,"reportTime":"2026-04-18T22:00:00.000Z","temp":15.6,"dewp":-22.8,"wdir":"VRB","wspd":4,"visib":"10+","altim":1022.8,"slp":1018.9,"qcField":4,"metarType":"METAR","rawOb":"METAR KSAF 182153Z VRB04KT 10SM CLR 16/M23 A3020 RMK AO2 SLP189 T01561228","lat":35.611,"lon":-106.0957,"elev":1918,"name":"Santa Fe Cnty Muni, NM, US","cover":"CLR","clouds":[],"fltCat":"VFR"},{"icaoId":"KSBA","receiptTime":"2026-04-18T21:56:34.828Z","obsTime":1776549180,"reportTime":"2026-04-18T22:00:00.000Z","temp":21.1,"dewp":10.6,"wdir":230,"wspd":6,"visib":"10+","altim":1014.3,"slp":1014,"qcField":12,"metarType":"METAR","rawOb":"METAR KSBA 182153Z 23006KT 10SM CLR 21/11 A2995 RMK AO2 SLP140 T02110106 $","lat":34.4241,"lon":-119.8425,"elev":2,"name":"Santa Barbara Muni, CA, US","cover":"CLR","clouds":[],"fltCat":"VFR"},{"icaoId":"KBHM","receiptTime":"2026-04-18T21:56:35.081Z","obsTime":1776549180,"reportTime":"2026-04-18T22:00:00.000Z","temp":26.1,"dewp":15,"wdir":250,"wspd":10,"visib":"10+","altim":1015,"slp":1014.1,"qcField":4,"metarType":"METAR","rawOb":"METAR KBHM 182153Z 25010KT 10SM BKN046 OVC250 26/15 A2997 RMK AO2 SLP141 T02610150","lat":33.5655,"lon":-86.7449,"elev":191,"name":"Birmingham Intl, AL, US","cover":"OVC","clouds":[{"cover":"BKN","base":4600},{"cover":"OVC","base":25000}],"fltCat":"VFR"},{"icaoId":"KGSP","receiptTime":"2026-04-18T21:56:24.064Z","obsTime":1776549180,"reportTime":"2026-04-18T22:00:00.000Z","temp":28.9,"dewp":13.3,"wdir":210,"wspd":15,"visib":"10+","altim":1013,"slp":1011.8,"qcField":6,"metarType":"METAR","rawOb":"METAR KGSP 182153Z AUTO 21015KT 10SM CLR 29/13 A2991 RMK AO2 SLP118 T02890133","lat":34.8842,"lon":-82.2209,"elev":285,"name":"Greenville-Spartanburg Intl, SC, US","cover":"CLR","clouds":[],"fltCat":"VFR"},{"icaoId":"KCYS","receiptTime":"2026-04-18T21:56:35.402Z","obsTime":1776549180,"reportTime":"2026-04-18T22:00:00.000Z","temp":10.6,"dewp":-20.6,"wdir":320,"wspd":17,"wgst":28,"visib":"10+","altim":1020.7,"slp":1020.1,"qcField":4,"metarType":"METAR","rawOb":"METAR KCYS 182153Z 32017G28KT 10SM CLR 11/M21 A3014 RMK AO2 PK WND 32031/2119 SLP201 T01061206","lat":41.1579,"lon":-104.8081,"elev":1868,"name":"Cheyenne Rgnl, WY, US","cover":"CLR","clouds":[],"fltCat":"VFR"},{"icaoId":"KDEN","receiptTime":"2026-04-18T21:56:35.440Z","obsTime":1776549180,"reportTime":"2026-04-18T22:00:00.000Z","temp":12.2,"dewp":-13.9,"wdir":0,"wspd":0,"visib":"10+","altim":1021.8,"slp":1020.5,"qcField":12,"metarType":"METAR","rawOb":"METAR KDEN 182153Z 00000KT 10SM FEW080 FEW250 12/M14 A3017 RMK AO2 SLP205 T01221139 $","lat":39.8466,"lon":-104.6562,"elev":1656,"name":"Denver Intl, CO, US","cover":"FEW","clouds":[{"cover":"FEW","base":8000},{"cover":"FEW","base":25000}],"fltCat":"VFR"},{"icaoId":"KDFW","receiptTime":"2026-04-18T21:56:35.500Z","obsTime":1776549180,"reportTime":"2026-04-18T22:00:00.000Z","temp":15,"dewp":4.4,"wdir":360,"wspd":10,"wgst":16,"visib":"10+","altim":1021.8,"slp":1021.3,"qcField":12,"metarType":"METAR","rawOb":"METAR KDFW 182153Z 36010G16KT 10SM FEW120 BKN150 BKN250 15/04 A3017 RMK AO2 PRESRR SLP213 T01500044 $","lat":32.8974,"lon":-97.022,"elev":168,"name":"Dallas-Ft Worth Intl, TX, US","cover":"BKN","clouds":[{"cover":"FEW","base":12000},{"cover":"BKN","base":15000},{"cover":"BKN","base":25000}],"fltCat":"VFR"},{"icaoId":"KMCW","receiptTime":"2026-04-18T21:56:35.561Z","obsTime":1776549180,"reportTime":"2026-04-18T22:00:00.000Z","temp":8.9,"dewp":-10.6,"wdir":290,"wspd":26,"wgst":32,"visib":"10+","altim":1016.7,"slp":1017,"qcField":6,"metarType":"METAR","rawOb":"METAR KMCW 182153Z AUTO 29026G32KT 10SM CLR 09/M11 A3002 RMK AO2 PK WND 29032/2151 SLP170 T00891106","lat":43.1543,"lon":-93.3262,"elev":363,"name":"Mason City Muni, IA, US","cover":"CLR","clouds":[],"fltCat":"VFR"},{"icaoId":"KMLS","receiptTime":"2026-04-18T21:56:35.776Z","obsTime":1776549180,"reportTime":"2026-04-18T22:00:00.000Z","temp":12.2,"dewp":-5.6,"wdir":290,"wspd":14,"wgst":21,"visib":"10+","altim":1017.4,"slp":1019,"qcField":6,"metarType":"METAR","rawOb":"METAR KMLS 182153Z AUTO 29014G21KT 10SM FEW080 OVC095 12/M06 A3004 RMK AO2 PK WND 27029/2116 SLP190 T01221056","lat":46.4265,"lon":-105.8834,"elev":800,"name":"Miles City/Wiley Fld, MT, US","cover":"OVC","clouds":[{"cover":"FEW","base":8000},{"cover":"OVC","base":9500}],"fltCat":"VFR"},{"icaoId":"KSDL","receiptTime":"2026-04-18T21:56:34.853Z","obsTime":1776549180,"reportTime":"2026-04-18T22:00:00.000Z","temp":30.6,"dewp":-9.4,"wdir":240,"wspd":7,"visib":"10+","altim":1012.6,"slp":1010.4,"qcField":4,"metarType":"METAR","rawOb":"METAR KSDL 182153Z 24007KT 10SM CLR 31/M09 A2990 RMK AO2 SLP104 T03061094","lat":33.6123,"lon":-111.9232,"elev":438,"name":"Scottsdale Muni, AZ, US","cover":"CLR","clouds":[],"fltCat":"VFR"},{"icaoId":"KTPA","receiptTime":"2026-04-18T21:56:32.331Z","obsTime":1776549180,"reportTime":"2026-04-18T22:00:00.000Z","temp":27.2,"dewp":19.4,"wdir":280,"wspd":12,"visib":"10+","altim":1015.3,"slp":1015.1,"qcField":4,"metarType":"METAR","rawOb":"METAR KTPA 182153Z 28012KT 10SM FEW055 BKN250 27/19 A2998 RMK AO2 SLP151 T02720194","lat":27.9633,"lon":-82.54,"elev":2,"name":"Tampa Intl Arpt, FL, US","cover":"BKN","clouds":[{"cover":"FEW","base":5500},{"cover":"BKN","base":25000}],"fltCat":"VFR"},{"icaoId":"KFUL","receiptTime":"2026-04-18T21:56:22.104Z","obsTime":1776549180,"reportTime":"2026-04-18T22:00:00.000Z","temp":27.8,"dewp":4.4,"wdir":230,"wspd":6,"visib":"10+","altim":1012.6,"slp":1012.4,"qcField":4,"metarType":"METAR","rawOb":"METAR KFUL 182153Z 23006KT 10SM CLR 28/04 A2990 RMK AO2 SLP124 T02780044","lat":33.8715,"lon":-117.9856,"elev":23,"name":"Fullerton Muni, CA, US","cover":"CLR","clouds":[],"fltCat":"VFR"},{"icaoId":"KPSC","receiptTime":"2026-04-18T21:56:24.418Z","obsTime":1776549180,"reportTime":"2026-04-18T22:00:00.000Z","temp":19.4,"dewp":2.2,"wdir":10,"wspd":4,"visib":"10+","altim":1017.4,"slp":1017.4,"qcField":4,"metarType":"METAR","rawOb":"METAR KPSC 182153Z 01004KT 10SM CLR 19/02 A3004 RMK AO2 SLP174 T01940022","lat":46.2695,"lon":-119.1182,"elev":121,"name":"Pasco/Tri Cities Arpt, WA, US","cover":"CLR","clouds":[],"fltCat":"VFR"},{"icaoId":"KPUB","receiptTime":"2026-04-18T21:56:24.450Z","obsTime":1776549180,"reportTime":"2026-04-18T22:00:00.000Z","visib":"","altim":1021.8,"qcField":12,"metarType":"METAR","rawOb":"METAR KPUB 182153Z A3017 RMK AO2 SLPNO RVRNO $","lat":38.2887,"lon":-104.5057,"elev":1441,"name":"Pueblo Mem Arpt, CO, US"},{"icaoId":"KLFT","receiptTime":"2026-04-18T21:56:24.784Z","obsTime":1776549180,"reportTime":"2026-04-18T22:00:00.000Z","temp":23.9,"dewp":21.7,"wdir":110,"wspd":3,"visib":"10+","altim":1014.6,"slp":1014.4,"qcField":4,"precip":0.05,"metarType":"METAR","rawOb":"METAR KLFT 182153Z 11003KT 10SM BKN065 BKN100 24/22 A2996 RMK AO2 RAB2056E37 SLP144 P0005 T02390217","lat":30.1986,"lon":-91.9896,"elev":9,"name":"Lafayette Rgnl, LA, US","cover":"BKN","clouds":[{"cover":"BKN","base":6500},{"cover":"BKN","base":10000}],"fltCat":"VFR"},{"icaoId":"KAEX","receiptTime":"2026-04-18T21:56:25.562Z","obsTime":1776549180,"reportTime":"2026-04-18T22:00:00.000Z","temp":23.3,"dewp":21.1,"wdir":110,"wspd":3,"visib":5,"altim":1015,"slp":1015.1,"qcField":4,"wxString":"-RA BR","precip":0.06,"metarType":"METAR","rawOb":"METAR KAEX 182153Z 11003KT 5SM -RA BR FEW075 OVC090 23/21 A2997 RMK AO2 RAB04 SLP151 P0006 T02330211","lat":31.3346,"lon":-92.5585,"elev":25,"name":"Alexandria Intl, LA, US","cover":"OVC","clouds":[{"cover":"FEW","base":7500},{"cover":"OVC","base":9000}],"fltCat":"MVFR"},{"icaoId":"KARA","receiptTime":"2026-04-18T21:56:25.774Z","obsTime":1776549180,"reportTime":"2026-04-18T22:00:00.000Z","temp":27.8,"dewp":19.4,"wdir":200,"wspd":12,"visib":"10+","altim":1014.3,"slp":1014,"qcField":4,"metarType":"METAR","rawOb":"METAR KARA 182153Z 20012KT 10SM FEW060 BKN085 28/19 A2995 RMK AO2 SLP140 T02780194","lat":30.0292,"lon":-91.8845,"elev":5,"name":"New Iberia/Acadiana Rgnl, LA, US","cover":"BKN","clouds":[{"cover":"FEW","base":6000},{"cover":"BKN","base":8500}],"fltCat":"VFR"},{"icaoId":"KBPK","receiptTime":"2026-04-18T21:56:25.879Z","obsTime":1776549180,"reportTime":"2026-04-18T22:00:00.000Z","temp":14.4,"dewp":-2.8,"wdir":360,"wspd":9,"wgst":18,"visib":"10+","altim":1020.4,"slp":1020,"qcField":142,"metarType":"METAR","rawOb":"METAR KBPK 182153Z AUTO 36009G18KT 330V030 10SM CLR 14/M03 A3013 RMK AO2 SLP200 T01441028 PWINO $","lat":36.3706,"lon":-92.4719,"elev":279,"name":"Mountain Home/Baxter Cnty, AR, US","cover":"CLR","clouds":[],"fltCat":"VFR"},{"icaoId":"KBRD","receiptTime":"2026-04-18T21:56:25.914Z","obsTime":1776549180,"reportTime":"2026-04-18T22:00:00.000Z","temp":5,"dewp":-13.3,"wdir":300,"wspd":19,"wgst":32,"visib":"10+","altim":1012.6,"slp":1014.1,"qcField":14,"metarType":"METAR","rawOb":"METAR KBRD 182153Z AUTO 30019G32KT 10SM FEW070 05/M13 A2990 RMK AO2 PK WND 31032/2146 SLP141 T00501133 $","lat":46.4021,"lon":-94.1273,"elev":372,"name":"Brainerd/Lakes Rgnl, MN, US","cover":"FEW","clouds":[{"cover":"FEW","base":7000}],"fltCat":"VFR"},{"icaoId":"KMYR","receiptTime":"2026-04-18T21:56:26.862Z","obsTime":1776549180,"reportTime":"2026-04-18T22:00:00.000Z","temp":22.8,"dewp":18.9,"wdir":180,"wspd":14,"visib":"10+","altim":1014.3,"slp":1014.1,"qcField":12,"metarType":"METAR","rawOb":"METAR KMYR 182153Z 18014KT 10SM CLR 23/19 A2995 RMK AO2 SLP141 T02280189 $","lat":33.6769,"lon":-78.9325,"elev":7,"name":"Myrtle Beach Intl, SC, US","cover":"CLR","clouds":[],"fltCat":"VFR"},{"icaoId":"PANC","receiptTime":"2026-04-18T21:56:27.158Z","obsTime":1776549180,"reportTime":"2026-04-18T22:00:00.000Z","temp":3.9,"dewp":0.6,"wdir":230,"wspd":5,"visib":"10+","altim":1013,"slp":1013.1,"qcField":4,"metarType":"METAR","rawOb":"METAR PANC 182153Z 23005KT 10SM SCT013 OVC060 04/01 A2991 RMK AO2 CIG 015 N SLP131 T00390006","lat":61.1691,"lon":-150.0277,"elev":39,"name":"Anchorage Intl, AK, US","cover":"OVC","clouds":[{"cover":"SCT","base":1300},{"cover":"OVC","base":6000}],"fltCat":"VFR"},{"icaoId":"KTWF","receiptTime":"2026-04-18T21:56:27.504Z","obsTime":1776549180,"reportTime":"2026-04-18T22:00:00.000Z","temp":16.1,"dewp":-6.7,"wdir":40,"wspd":11,"visib":"10+","altim":1020.1,"slp":1018.4,"qcField":4,"metarType":"METAR","rawOb":"METAR KTWF 182153Z 04011KT 10SM CLR 16/M07 A3012 RMK AO2 SLP184 T01611067","lat":42.4785,"lon":-114.4775,"elev":1269,"name":"Twin Falls/Joslin Fld, ID, US","cover":"CLR","clouds":[],"fltCat":"VFR"},{"icaoId":"KVGT","receiptTime":"2026-04-18T21:56:27.528Z","obsTime":1776549180,"reportTime":"2026-04-18T22:00:00.000Z","temp":23.9,"dewp":-17.2,"wdir":70,"wspd":8,"visib":"10+","altim":1016.7,"slp":1017.3,"qcField":4,"metarType":"METAR","rawOb":"METAR KVGT 182153Z 07008KT 10SM CLR 24/M17 A3002 RMK AO2 SLP173 T02391172","lat":36.212,"lon":-115.194,"elev":664,"name":"Las Vegas/North Arpt, NV, US","cover":"CLR","clouds":[],"fltCat":"VFR"},{"icaoId":"KBFI","receiptTime":"2026-04-18T21:56:35.017Z","obsTime":1776549180,"reportTime":"2026-04-18T22:00:00.000Z","temp":20.6,"dewp":1.7,"wdir":"VRB","wspd":6,"visib":"10+","altim":1015,"slp":1014.7,"qcField":4,"metarType":"METAR","rawOb":"METAR KBFI 182153Z VRB06KT 10SM SCT110 21/02 A2997 RMK AO2 SLP147 T02060017","lat":47.5455,"lon":-122.3148,"elev":7,"name":"Seattle/Boeing Fld, WA, US","cover":"SCT","clouds":[{"cover":"SCT","base":11000}],"fltCat":"VFR"},{"icaoId":"KMOD","receiptTime":"2026-04-18T21:56:35.826Z","obsTime":1776549180,"reportTime":"2026-04-18T22:00:00.000Z","temp":25.6,"dewp":2.2,"wdir":0,"wspd":0,"visib":"10+","altim":1013.6,"slp":1013.5,"qcField":4,"metarType":"METAR","rawOb":"METAR KMOD 182153Z 00000KT 10SM CLR 26/02 A2993 RMK AO2 SLP135 T02560022","lat":37.6254,"lon":-120.9549,"elev":25,"name":"Modesto/Sham Fld, CA, US","cover":"CLR","clouds":[],"fltCat":"VFR"},{"icaoId":"KPBI","receiptTime":"2026-04-18T21:56:30.777Z","obsTime":1776549180,"reportTime":"2026-04-18T22:00:00.000Z","temp":27.8,"dewp":20.6,"wdir":100,"wspd":9,"visib":"10+","altim":1015.3,"slp":1015.1,"qcField":12,"metarType":"METAR","rawOb":"METAR KPBI 182153Z 10009KT 10SM FEW028 28/21 A2998 RMK AO2 SLP151 T02780206 $","lat":26.6851,"lon":-80.0992,"elev":4,"name":"Palm Beach Intl, FL, US","cover":"FEW","clouds":[{"cover":"FEW","base":2800}],"fltCat":"VFR"},{"icaoId":"KBCE","receiptTime":"2026-04-18T21:56:35.998Z","obsTime":1776549180,"reportTime":"2026-04-18T22:00:00.000Z","temp":11.1,"dewp":-17.2,"wdir":160,"wspd":15,"wgst":20,"visib":"10+","altim":1024.5,"slp":1021.6,"qcField":6,"metarType":"METAR","rawOb":"METAR KBCE 182153Z AUTO 16015G20KT 10SM CLR 11/M17 A3025 RMK AO2 SLP216 T01111172","lat":37.7013,"lon":-112.149,"elev":2311,"name":"Bryce Canyon Arpt, UT, US","cover":"CLR","clouds":[],"fltCat":"VFR"},{"icaoId":"KABR","receiptTime":"2026-04-18T21:56:29.565Z","obsTime":1776549180,"reportTime":"2026-04-18T22:00:00.000Z","temp":8.3,"dewp":-13.3,"wdir":290,"wspd":18,"wgst":27,"visib":"10+","altim":1017.4,"slp":1018.4,"qcField":14,"metarType":"METAR","rawOb":"METAR KABR 182153Z AUTO 29018G27KT 10SM CLR 08/M13 A3004 RMK AO2 PK WND 29031/2120 SLP184 T00831133 $","lat":45.4436,"lon":-98.4138,"elev":397,"name":"Aberdeen Rgnl, SD, US","cover":"CLR","clouds":[],"fltCat":"VFR"},{"icaoId":"KAPA","receiptTime":"2026-04-18T21:56:29.596Z","obsTime":1776549180,"reportTime":"2026-04-18T22:00:00.000Z","temp":11.7,"dewp":-12.8,"wdir":220,"wspd":7,"visib":"10+","altim":1021.8,"slp":1022.8,"qcField":4,"metarType":"METAR","rawOb":"METAR KAPA 182153Z 22007KT 10SM FEW070 FEW220 12/M13 A3017 RMK AO2 SLP228 T01171128","lat":39.5599,"lon":-104.8484,"elev":1791,"name":"Denver/Centennial Arpt, CO, US","cover":"FEW","clouds":[{"cover":"FEW","base":7000},{"cover":"FEW","base":22000}],"fltCat":"VFR"},{"icaoId":"KATY","receiptTime":"2026-04-18T21:56:29.633Z","obsTime":1776549180,"reportTime":"2026-04-18T22:00:00.000Z","temp":6.7,"dewp":-13.9,"wdir":280,"wspd":18,"wgst":30,"visib":"10+","altim":1016.7,"slp":1018.1,"qcField":6,"metarType":"METAR","rawOb":"METAR KATY 182153Z AUTO 28018G30KT 10SM CLR 07/M14 A3002 RMK AO2 PK WND 27030/2151 SLP181 T00671139","lat":44.9045,"lon":-97.1496,"elev":531,"name":"Watertown Rgnl, SD, US","cover":"CLR","clouds":[],"fltCat":"VFR"},{"icaoId":"KLIT","receiptTime":"2026-04-18T21:56:33.816Z","obsTime":1776549180,"reportTime":"2026-04-18T22:00:00.000Z","temp":11.7,"dewp":8.3,"wdir":30,"wspd":6,"visib":"10+","altim":1020.1,"slp":1020.2,"qcField":4,"metarType":"METAR","rawOb":"METAR KLIT 182153Z 03006KT 10SM OVC045 12/08 A3012 RMK AO2 SLP202 T01170083","lat":34.7273,"lon":-92.2358,"elev":77,"name":"Little Rock/Clinton Natl, AR, US","cover":"OVC","clouds":[{"cover":"OVC","base":4500}],"fltCat":"VFR"},{"icaoId":"KEVW","receiptTime":"2026-04-18T21:56:29.714Z","obsTime":1776549180,"reportTime":"2026-04-18T22:00:00.000Z","temp":8.3,"dewp":-16.7,"wdir":130,"wspd":5,"visib":"10+","altim":1023.5,"slp":1023,"qcField":14,"metarType":"METAR","rawOb":"METAR KEVW 182153Z AUTO 13005KT 10SM CLR 08/M17 A3022 RMK AO2 SLP230 T00831167 $","lat":41.2727,"lon":-111.0305,"elev":2178,"name":"Evanston/Uinta Cnty, WY, US","cover":"CLR","clouds":[],"fltCat":"VFR"},{"icaoId":"KSJC","receiptTime":"2026-04-18T21:56:29.901Z","obsTime":1776549180,"reportTime":"2026-04-18T22:00:00.000Z","temp":24.4,"dewp":4.4,"wdir":320,"wspd":10,"visib":"10+","altim":1013.6,"slp":1013.6,"qcField":4,"metarType":"METAR","rawOb":"METAR KSJC 182153Z 32010KT 10SM BKN100 24/04 A2993 RMK AO2 SLP136 T02440044","lat":37.3594,"lon":-121.9244,"elev":13,"name":"San Jose Intl Arpt, CA, US","cover":"BKN","clouds":[{"cover":"BKN","base":10000}],"fltCat":"VFR"},{"icaoId":"KSMF","receiptTime":"2026-04-18T21:56:29.936Z","obsTime":1776549180,"reportTime":"2026-04-18T22:00:00.000Z","temp":23.9,"dewp":2.2,"wdir":0,"wspd":0,"visib":"10+","altim":1014.3,"slp":1014,"qcField":12,"metarType":"METAR","rawOb":"METAR KSMF 182153Z 00000KT 10SM BKN250 24/02 A2995 RMK AO2 SLP140 T02390022 $","lat":38.7007,"lon":-121.5948,"elev":7,"name":"Sacramento Intl, CA, US","cover":"BKN","clouds":[{"cover":"BKN","base":25000}],"fltCat":"VFR"},{"icaoId":"KSPW","receiptTime":"2026-04-18T21:56:30.047Z","obsTime":1776549180,"reportTime":"2026-04-18T22:00:00.000Z","temp":8.9,"dewp":-14.4,"wdir":310,"wspd":21,"wgst":34,"visib":"10+","altim":1018,"slp":1019,"qcField":14,"metarType":"METAR","rawOb":"METAR KSPW 182153Z AUTO 31021G34KT 10SM CLR 09/M14 A3006 RMK AO2 PK WND 28042/2104 SLP190 T00891144 $","lat":43.1682,"lon":-95.2101,"elev":407,"name":"Spencer Muni, IA, US","cover":"CLR","clouds":[],"fltCat":"VFR"},{"icaoId":"KSTS","receiptTime":"2026-04-18T21:56:30.131Z","obsTime":1776549180,"reportTime":"2026-04-18T22:00:00.000Z","temp":23.9,"dewp":0,"wdir":"VRB","wspd":3,"visib":"10+","altim":1014.3,"slp":1013.5,"qcField":4,"metarType":"METAR","rawOb":"METAR KSTS 182153Z VRB03KT 10SM CLR 24/00 A2995 RMK AO2 SLP135 T02390000","lat":38.5037,"lon":-122.811,"elev":35,"name":"Santa Rosa/Schulz Arpt, CA, US","cover":"CLR","clouds":[],"fltCat":"VFR"},{"icaoId":"KMLF","receiptTime":"2026-04-18T21:56:25.186Z","obsTime":1776549120,"reportTime":"2026-04-18T22:00:00.000Z","temp":17.2,"dewp":-16.1,"wdir":10,"wspd":12,"wgst":16,"visib":"10+","altim":1020.7,"slp":1019.6,"qcField":6,"metarType":"METAR","rawOb":"METAR KMLF 182152Z AUTO 01012G16KT 10SM CLR 17/M16 A3014 RMK AO2 SLP196 T01721161","lat":38.4225,"lon":-113.0109,"elev":1537,"name":"Milford Muni, UT, US","cover":"CLR","clouds":[],"fltCat":"VFR"},{"icaoId":"KHUT","receiptTime":"2026-04-18T21:56:31.044Z","obsTime":1776549120,"reportTime":"2026-04-18T22:00:00.000Z","temp":17.2,"dewp":-7.2,"wdir":310,"wspd":12,"wgst":19,"visib":"10+","altim":1022.1,"qcField":12,"metarType":"METAR","rawOb":"METAR KHUT 182152Z 31012G19KT 10SM BKN080 17/M07 A3018 RMK AO2 SLPNO T01721072 $","lat":38.0682,"lon":-97.8607,"elev":464,"name":"Hutchinson Muni, KS, US","cover":"BKN","clouds":[{"cover":"BKN","base":8000}],"fltCat":"VFR"},{"icaoId":"KABQ","receiptTime":"2026-04-18T21:56:26.101Z","obsTime":1776549120,"reportTime":"2026-04-18T22:00:00.000Z","temp":17.8,"dewp":-15,"wdir":50,"wspd":4,"visib":"10+","altim":1022.4,"slp":1018.5,"qcField":12,"metarType":"METAR","rawOb":"METAR KABQ 182152Z 05004KT 10SM CLR 18/M15 A3019 RMK AO2 SLP185 T01781150 $","lat":35.0419,"lon":-106.6154,"elev":1620,"name":"Albuquerque Intl, NM, US","cover":"CLR","clouds":[],"fltCat":"VFR"},{"icaoId":"KHRL","receiptTime":"2026-04-18T21:56:26.800Z","obsTime":1776549120,"reportTime":"2026-04-18T22:00:00.000Z","temp":27.8,"dewp":21.7,"wdir":100,"wspd":15,"visib":"10+","altim":1011.3,"slp":1011.2,"qcField":4,"metarType":"METAR","rawOb":"METAR KHRL 182152Z 10015KT 10SM FEW049 BKN070 28/22 A2986 RMK AO2 SLP112 T02780217","lat":26.2303,"lon":-97.6556,"elev":9,"name":"Harlingen/Valley Intl, TX, US","cover":"BKN","clouds":[{"cover":"FEW","base":4900},{"cover":"BKN","base":7000}],"fltCat":"VFR"},{"icaoId":"KIAD","receiptTime":"2026-04-18T21:56:31.061Z","obsTime":1776549120,"reportTime":"2026-04-18T22:00:00.000Z","temp":26.7,"dewp":15,"wdir":140,"wspd":13,"wgst":22,"visib":"10+","altim":1009.6,"slp":1009.4,"qcField":12,"metarType":"METAR","rawOb":"METAR KIAD 182152Z 14013G22KT 10SM FEW055 FEW140 SCT220 SCT260 27/15 A2981 RMK AO2 SLP094 T02670150 $","lat":38.9348,"lon":-77.4473,"elev":90,"name":"Washington/Dulles Intl, VA, US","cover":"SCT","clouds":[{"cover":"FEW","base":5500},{"cover":"FEW","base":14000},{"cover":"SCT","base":22000},{"cover":"SCT","base":26000}],"fltCat":"VFR"},{"icaoId":"KMKE","receiptTime":"2026-04-18T21:56:31.484Z","obsTime":1776549120,"reportTime":"2026-04-18T22:00:00.000Z","temp":9.4,"dewp":-6.1,"wdir":260,"wspd":22,"wgst":39,"visib":"10+","altim":1012.3,"slp":1012.4,"qcField":4,"metarType":"METAR","rawOb":"METAR KMKE 182152Z 26022G39KT 10SM FEW050 BKN060 09/M06 A2989 RMK AO2 PK WND 26039/2152 SLP124 T00941061","lat":42.9549,"lon":-87.9045,"elev":203,"name":"Milwaukee/Mitchell Intl, WI, US","cover":"BKN","clouds":[{"cover":"FEW","base":5000},{"cover":"BKN","base":6000}],"fltCat":"VFR"},{"icaoId":"KATL","receiptTime":"2026-04-18T21:56:31.744Z","obsTime":1776549120,"reportTime":"2026-04-18T22:00:00.000Z","temp":27.8,"dewp":12.8,"wdir":240,"wspd":9,"wgst":17,"visib":"10+","altim":1014.3,"slp":1013.1,"qcField":12,"metarType":"METAR","rawOb":"METAR KATL 182152Z 24009G17KT 10SM FEW060 FEW150 SCT200 OVC250 28/13 A2995 RMK AO2 SLP131 VIRGA DSNT E-SE T02780128 $","lat":33.6297,"lon":-84.4422,"elev":309,"name":"Atlanta/Hartsfield-Jackson Intl, GA, US","cover":"OVC","clouds":[{"cover":"FEW","base":6000},{"cover":"FEW","base":15000},{"cover":"SCT","base":20000},{"cover":"OVC","base":25000}],"fltCat":"VFR"},{"icaoId":"KBIS","receiptTime":"2026-04-18T21:56:31.767Z","obsTime":1776549120,"reportTime":"2026-04-18T22:00:00.000Z","temp":7.8,"dewp":-6.7,"wdir":300,"wspd":14,"wgst":23,"visib":"10+","altim":1016,"slp":1017.9,"qcField":12,"metarType":"METAR","rawOb":"METAR KBIS 182152Z 30014G23KT 10SM FEW070 OVC095 08/M07 A3000 RMK AO2 PK WND 27033/2100 SLP179 T00781067 $","lat":46.7823,"lon":-100.7575,"elev":506,"name":"Bismarck Arpt, ND, US","cover":"OVC","clouds":[{"cover":"FEW","base":7000},{"cover":"OVC","base":9500}],"fltCat":"VFR"},{"icaoId":"KCLT","receiptTime":"2026-04-18T21:56:31.921Z","obsTime":1776549120,"reportTime":"2026-04-18T22:00:00.000Z","temp":29.4,"dewp":12.2,"wdir":230,"wspd":9,"visib":"10+","altim":1011.9,"slp":1012.6,"qcField":4,"metarType":"METAR","rawOb":"METAR KCLT 182152Z 23009KT 10SM FEW080 BKN250 29/12 A2988 RMK AO2 SLP126 T02940122","lat":35.2225,"lon":-80.9543,"elev":223,"name":"Charlotte/Douglas Intl, NC, US","cover":"BKN","clouds":[{"cover":"FEW","base":8000},{"cover":"BKN","base":25000}],"fltCat":"VFR"},{"icaoId":"KDCA","receiptTime":"2026-04-18T21:56:32.000Z","obsTime":1776549120,"reportTime":"2026-04-18T22:00:00.000Z","temp":25.6,"dewp":13.9,"wdir":130,"wspd":11,"wgst":18,"visib":"10+","altim":1010.2,"slp":1010.2,"qcField":4,"metarType":"METAR","rawOb":"METAR KDCA 182152Z 13011G18KT 10SM SCT150 BKN250 26/14 A2983 RMK AO2 SLP102 T02560139","lat":38.8472,"lon":-77.0345,"elev":4,"name":"Washington/Reagan-National Arpt, VA, US","cover":"BKN","clouds":[{"cover":"SCT","base":15000},{"cover":"BKN","base":25000}],"fltCat":"VFR"},{"icaoId":"KOMA","receiptTime":"2026-04-18T21:56:29.175Z","obsTime":1776549120,"reportTime":"2026-04-18T22:00:00.000Z","temp":11.7,"dewp":-6.1,"wdir":330,"wspd":12,"visib":"10+","altim":1020.7,"slp":1021.1,"qcField":12,"metarType":"METAR","rawOb":"METAR KOMA 182152Z 33012KT 10SM OVC080 12/M06 A3014 RMK AO2 PK WND 28036/2117 SLP211 T01171061 $","lat":41.3119,"lon":-95.9018,"elev":299,"name":"Omaha/Eppley Fld, NE, US","cover":"OVC","clouds":[{"cover":"OVC","base":8000}],"fltCat":"VFR"},{"icaoId":"KSUX","receiptTime":"2026-04-18T21:56:29.259Z","obsTime":1776549120,"reportTime":"2026-04-18T22:00:00.000Z","temp":12.2,"dewp":-8.9,"wdir":320,"wspd":18,"wgst":26,"visib":"10+","altim":1019,"slp":1019.8,"qcField":4,"metarType":"METAR","rawOb":"METAR KSUX 182152Z 32018G26KT 10SM BKN100 12/M09 A3009 RMK AO2 PK WND 32034/2057 SLP198 T01221089","lat":42.3917,"lon":-96.3795,"elev":332,"name":"Sioux City/Day Fld, IA, US","cover":"BKN","clouds":[{"cover":"BKN","base":10000}],"fltCat":"VFR"},{"icaoId":"KMBG","receiptTime":"2026-04-18T21:56:29.314Z","obsTime":1776549120,"reportTime":"2026-04-18T22:00:00.000Z","temp":9.4,"dewp":-8.3,"wdir":310,"wspd":15,"wgst":28,"visib":"10+","altim":1016.7,"slp":1018.2,"qcField":6,"metarType":"METAR","rawOb":"METAR KMBG 182152Z AUTO 31015G28KT 10SM FEW090 09/M08 A3002 RMK AO2 PK WND 31028/2134 SLP182 T00941083","lat":45.543,"lon":-100.404,"elev":515,"name":"Mobridge Muni, SD, US","cover":"FEW","clouds":[{"cover":"FEW","base":9000}],"fltCat":"VFR"},{"icaoId":"KCID","receiptTime":"2026-04-18T21:56:29.398Z","obsTime":1776549120,"reportTime":"2026-04-18T22:00:00.000Z","temp":9.4,"dewp":-5,"wdir":280,"wspd":22,"wgst":31,"visib":"10+","altim":1017.4,"slp":1017.8,"qcField":4,"metarType":"METAR","rawOb":"METAR KCID 182152Z 28022G31KT 10SM FEW070 09/M05 A3004 RMK AO2 PK WND 30035/2058 SLP178 T00941050","lat":41.8829,"lon":-91.7246,"elev":257,"name":"Cedar Rapids/E Iowa Arpt, IA, US","cover":"FEW","clouds":[{"cover":"FEW","base":7000}],"fltCat":"VFR"},{"icaoId":"KCNU","receiptTime":"2026-04-18T21:56:29.418Z","obsTime":1776549120,"reportTime":"2026-04-18T22:00:00.000Z","temp":15,"dewp":-1.1,"wdir":320,"wspd":10,"visib":"10+","altim":1023.5,"slp":1023.3,"qcField":14,"metarType":"METAR","rawOb":"METAR KCNU 182152Z AUTO 32010KT 10SM CLR 15/M01 A3022 RMK AO2 SLP233 T01501011 $","lat":37.6705,"lon":-95.4846,"elev":301,"name":"Chanute/Johnson Arpt, KS, US","cover":"CLR","clouds":[],"fltCat":"VFR"},{"icaoId":"KMHK","receiptTime":"2026-04-18T21:56:29.333Z","obsTime":1776549120,"reportTime":"2026-04-18T22:00:00.000Z","temp":15.6,"dewp":-4.4,"wdir":290,"wspd":7,"visib":"10+","altim":1021.4,"slp":1021.4,"qcField":12,"metarType":"METAR","rawOb":"METAR KMHK 182152Z 29007KT 10SM BKN100 16/M04 A3016 RMK AO2 SLP214 T01561044 $","lat":39.1346,"lon":-96.6789,"elev":320,"name":"Manhattan Rgnl, KS, US","cover":"BKN","clouds":[{"cover":"BKN","base":10000}],"fltCat":"VFR"},{"icaoId":"KOKC","receiptTime":"2026-04-18T21:56:26.344Z","obsTime":1776549120,"reportTime":"2026-04-18T22:00:00.000Z","temp":17.2,"dewp":-2.8,"wdir":360,"wspd":14,"wgst":20,"visib":"10+","altim":1023.8,"slp":1023.4,"qcField":12,"metarType":"METAR","rawOb":"METAR KOKC 182152Z 36014G20KT 10SM FEW045 FEW250 17/M03 A3023 RMK AO2 SLP234 T01721028 $","lat":35.3843,"lon":-97.6003,"elev":391,"name":"Oklahoma City/Will Rogers Intl, OK, US","cover":"FEW","clouds":[{"cover":"FEW","base":4500},{"cover":"FEW","base":25000}],"fltCat":"VFR"},{"icaoId":"KCVG","receiptTime":"2026-04-18T21:56:31.957Z","obsTime":1776549120,"reportTime":"2026-04-18T22:00:00.000Z","temp":9.4,"dewp":6.7,"wdir":300,"wspd":10,"visib":"10+","altim":1014.6,"slp":1014,"qcField":4,"precip":0.01,"metarType":"METAR","rawOb":"METAR KCVG 182152Z 30010KT 10SM FEW010 OVC027 09/07 A2996 RMK AO2 PK WND 29026/2100 RAE23 SLP140 P0001 T00940067","lat":39.0444,"lon":-84.6724,"elev":264,"name":"Cincinnati Intl, KY, US","cover":"OVC","clouds":[{"cover":"FEW","base":1000},{"cover":"OVC","base":2700}],"fltCat":"MVFR"},{"icaoId":"KSGF","receiptTime":"2026-04-18T21:56:29.224Z","obsTime":1776549120,"reportTime":"2026-04-18T22:00:00.000Z","temp":13.9,"dewp":-2.2,"wdir":330,"wspd":14,"wgst":22,"visib":"10+","altim":1021.8,"slp":1021.5,"qcField":4,"metarType":"METAR","rawOb":"METAR KSGF 182152Z 33014G22KT 10SM CLR 14/M02 A3017 RMK AO2 SLP215 T01391022","lat":37.2398,"lon":-93.3899,"elev":387,"name":"Springfield Muni, MO, US","cover":"CLR","clouds":[],"fltCat":"VFR"},{"icaoId":"KDDC","receiptTime":"2026-04-18T21:56:32.014Z","obsTime":1776549120,"reportTime":"2026-04-18T22:00:00.000Z","temp":17.2,"dewp":-10.6,"wdir":340,"wspd":17,"wgst":26,"visib":8,"altim":1022.4,"slp":1022.2,"qcField":6,"metarType":"METAR","rawOb":"METAR KDDC 182152Z AUTO 34017G26KT 8SM CLR 17/M11 A3019 RMK AO2 PK WND 30028/2135 SLP222 T01721106","lat":37.7711,"lon":-99.9692,"elev":786,"name":"Dodge City Arpt, KS, US","cover":"CLR","clouds":[],"fltCat":"VFR"},{"icaoId":"KSPS","receiptTime":"2026-04-18T21:56:26.032Z","obsTime":1776549120,"reportTime":"2026-04-18T22:00:00.000Z","temp":18.9,"dewp":-1.7,"wdir":20,"wspd":18,"wgst":23,"visib":"10+","altim":1023.8,"slp":1023,"qcField":14,"metarType":"METAR","rawOb":"METAR KSPS 182152Z AUTO 02018G23KT 10SM CLR 19/M02 A3023 RMK AO2 SLP230 T01891017 $","lat":33.9785,"lon":-98.493,"elev":310,"name":"Wichita Falls Rgnl, TX, US","cover":"CLR","clouds":[],"fltCat":"VFR"},{"icaoId":"KRAP","receiptTime":"2026-04-18T21:56:29.195Z","obsTime":1776549120,"reportTime":"2026-04-18T22:00:00.000Z","temp":10,"dewp":-5.6,"wdir":320,"wspd":20,"wgst":29,"visib":"10+","altim":1019.4,"slp":1021.8,"qcField":4,"metarType":"METAR","rawOb":"METAR KRAP 182152Z 32020G29KT 10SM BKN090 10/M06 A3010 RMK AO2 PK WND 33034/2056 SLP218 T01001056","lat":44.0458,"lon":-103.0544,"elev":965,"name":"Rapid City Rgnl, SD, US","cover":"BKN","clouds":[{"cover":"BKN","base":9000}],"fltCat":"VFR"},{"icaoId":"KABI","receiptTime":"2026-04-18T21:56:26.086Z","obsTime":1776549120,"reportTime":"2026-04-18T22:00:00.000Z","temp":15.6,"dewp":2.2,"wdir":10,"wspd":14,"wgst":22,"visib":"10+","altim":1023.1,"slp":1022.1,"qcField":12,"metarType":"METAR","rawOb":"METAR KABI 182152Z 01014G22KT 10SM CLR 16/02 A3021 RMK AO2 LTG DSNT NE SLP221 T01560022 $","lat":32.4106,"lon":-99.6821,"elev":543,"name":"Abilene Rgnl, TX, US","cover":"CLR","clouds":[],"fltCat":"VFR"},{"icaoId":"KLGA","receiptTime":"2026-04-18T21:54:08.109Z","obsTime":1776549060,"reportTime":"2026-04-18T22:00:00.000Z","temp":16.1,"dewp":10,"wdir":130,"wspd":11,"visib":"10+","altim":1015,"slp":1014.9,"qcField":12,"metarType":"METAR","rawOb":"METAR KLGA 182151Z 13011KT 10SM FEW014 SCT025 BKN180 BKN250 16/10 A2997 RMK AO2 SLP149 T01610100 $","lat":40.7794,"lon":-73.8803,"elev":9,"name":"New York/La Guardia Arpt, NY, US","cover":"BKN","clouds":[{"cover":"FEW","base":1400},{"cover":"SCT","base":2500},{"cover":"BKN","base":18000},{"cover":"BKN","base":25000}],"fltCat":"VFR"},{"icaoId":"KPIT","receiptTime":"2026-04-18T21:54:08.336Z","obsTime":1776549060,"reportTime":"2026-04-18T22:00:00.000Z","temp":16.7,"dewp":15,"wdir":270,"wspd":15,"wgst":24,"visib":4,"altim":1009.6,"slp":1009.7,"qcField":4,"wxString":"RA BR","precip":0.1,"metarType":"METAR","rawOb":"METAR KPIT 182151Z 27015G24KT 4SM RA BR SCT009 BKN022 OVC060 17/15 A2981 RMK AO2 SLP097 OCNL LTG DSNT S P0010 T01670150","lat":40.4814,"lon":-80.2083,"elev":339,"name":"Pittsburgh Intl, PA, US","cover":"OVC","clouds":[{"cover":"SCT","base":900},{"cover":"BKN","base":2200},{"cover":"OVC","base":6000}],"fltCat":"MVFR"},{"icaoId":"KLGU","receiptTime":"2026-04-18T21:54:08.120Z","obsTime":1776549060,"reportTime":"2026-04-18T22:00:00.000Z","temp":11.7,"dewp":-6.7,"wdir":260,"wspd":4,"visib":"10+","altim":1023.5,"slp":1023.1,"qcField":6,"metarType":"METAR","rawOb":"METAR KLGU 182151Z AUTO 26004KT 10SM CLR 12/M07 A3022 RMK AO2 SLP231 T01171067","lat":41.7865,"lon":-111.8519,"elev":1359,"name":"Logan/Cache Arpt, UT, US","cover":"CLR","clouds":[],"fltCat":"VFR"},{"icaoId":"KVNY","receiptTime":"2026-04-18T21:54:07.832Z","obsTime":1776549060,"reportTime":"2026-04-18T22:00:00.000Z","temp":27.8,"dewp":-3.3,"wdir":"VRB","wspd":3,"visib":"10+","altim":1013.3,"slp":1012.2,"qcField":12,"metarType":"METAR","rawOb":"METAR KVNY 182151Z VRB03KT 10SM CLR 28/M03 A2992 RMK AO2 SLP122 T02781033 $","lat":34.2121,"lon":-118.4915,"elev":241,"name":"Van Nuys Arpt, CA, US","cover":"CLR","clouds":[],"fltCat":"VFR"},{"icaoId":"KROW","receiptTime":"2026-04-18T21:54:08.398Z","obsTime":1776549060,"reportTime":"2026-04-18T22:00:00.000Z","temp":18.9,"dewp":-9.4,"visib":"10+","altim":1023.5,"slp":1019.9,"qcField":12,"metarType":"METAR","rawOb":"METAR KROW 182151Z 10SM CLR 19/M09 A3022 RMK AO2 SLP199 T01891094 $","lat":33.3074,"lon":-104.5082,"elev":1105,"name":"Roswell/Ind Arpt, NM, US","cover":"CLR","clouds":[],"fltCat":"VFR"},{"icaoId":"KIGM","receiptTime":"2026-04-18T21:54:08.069Z","obsTime":1776549060,"reportTime":"2026-04-18T22:00:00.000Z","temp":24.4,"dewp":-13.9,"wdir":"VRB","wspd":5,"visib":"10+","altim":1016.7,"slp":1011.8,"qcField":6,"metarType":"METAR","rawOb":"METAR KIGM 182151Z AUTO VRB05KT 10SM CLR 24/M14 A3002 RMK AO2 SLP118 T02441139","lat":35.2575,"lon":-113.9341,"elev":1045,"name":"Kingman Arpt, AZ, US","cover":"CLR","clouds":[],"fltCat":"VFR"},{"icaoId":"KEWR","receiptTime":"2026-04-18T21:54:07.768Z","obsTime":1776549060,"reportTime":"2026-04-18T22:00:00.000Z","temp":12.2,"dewp":9.4,"wdir":150,"wspd":10,"wgst":19,"visib":"10+","altim":1015.7,"slp":1015.6,"qcField":4,"metarType":"METAR","rawOb":"METAR KEWR 182151Z 15010G19KT 10SM BKN012 BKN025 BKN250 12/09 A2999 RMK AO2 SLP156 T01220094","lat":40.6828,"lon":-74.1692,"elev":2,"name":"Newark Intl, NJ, US","cover":"BKN","clouds":[{"cover":"BKN","base":1200},{"cover":"BKN","base":2500},{"cover":"BKN","base":25000}],"fltCat":"MVFR"},{"icaoId":"KELP","receiptTime":"2026-04-18T21:54:07.735Z","obsTime":1776549060,"reportTime":"2026-04-18T22:00:00.000Z","temp":22.2,"dewp":-6.1,"wdir":100,"wspd":13,"wgst":19,"visib":"10+","altim":1019.7,"slp":1014.3,"qcField":4,"metarType":"METAR","rawOb":"METAR KELP 182151Z 10013G19KT 10SM FEW250 22/M06 A3011 RMK AO2 SLP143 T02221061","lat":31.8123,"lon":-106.3774,"elev":1205,"name":"El Paso Intl, TX, US","cover":"FEW","clouds":[{"cover":"FEW","base":25000}],"fltCat":"VFR"},{"icaoId":"KRDU","receiptTime":"2026-04-18T21:54:08.378Z","obsTime":1776549060,"reportTime":"2026-04-18T22:00:00.000Z","temp":31.7,"dewp":8.3,"wdir":210,"wspd":8,"visib":"10+","altim":1011.3,"slp":1010.7,"qcField":12,"metarType":"METAR","rawOb":"METAR KRDU 182151Z 21008KT 10SM SCT090 BKN250 32/08 A2986 RMK AO2 SLP107 T03170083 $","lat":35.8923,"lon":-78.782,"elev":121,"name":"Raleigh-Durham Intl, NC, US","cover":"BKN","clouds":[{"cover":"SCT","base":9000},{"cover":"BKN","base":25000}],"fltCat":"VFR"},{"icaoId":"KBDL","receiptTime":"2026-04-18T21:54:07.453Z","obsTime":1776549060,"reportTime":"2026-04-18T22:00:00.000Z","temp":16.7,"dewp":9.4,"wdir":120,"wspd":7,"visib":"10+","altim":1015.3,"slp":1015.3,"qcField":4,"metarType":"METAR","rawOb":"METAR KBDL 182151Z 12007KT 10SM OVC029 17/09 A2998 RMK AO2 SLP153 T01670094","lat":41.9374,"lon":-72.682,"elev":52,"name":"Hartford/Bradley Intl, CT, US","cover":"OVC","clouds":[{"cover":"OVC","base":2900}],"fltCat":"MVFR"},{"icaoId":"KACT","receiptTime":"2026-04-18T21:54:08.536Z","obsTime":1776549060,"reportTime":"2026-04-18T22:00:00.000Z","temp":11.7,"dewp":7.2,"wdir":10,"wspd":9,"wgst":18,"visib":"10+","altim":1021.8,"slp":1021.3,"qcField":4,"wxString":"-RA","precip":0.02,"metarType":"METAR","rawOb":"METAR KACT 182151Z 01009G18KT 10SM -RA SCT028 SCT045 BKN065 12/07 A3017 RMK AO2 PK WND 01029/2115 LTG DSNT E-SW RAB37 SLP213 P0002 T01170072","lat":31.618,"lon":-97.2283,"elev":150,"name":"Waco Rgnl, TX, US","cover":"BKN","clouds":[{"cover":"SCT","base":2800},{"cover":"SCT","base":4500},{"cover":"BKN","base":6500}],"fltCat":"VFR"},{"icaoId":"KSAT","receiptTime":"2026-04-18T21:54:08.434Z","obsTime":1776549060,"reportTime":"2026-04-18T22:00:00.000Z","temp":15,"dewp":8.3,"wdir":360,"wspd":15,"wgst":25,"visib":"10+","altim":1018,"slp":1016.4,"qcField":4,"metarType":"METAR","rawOb":"METAR KSAT 182151Z 36015G25KT 10SM OVC037 15/08 A3006 RMK AO2 PK WND 01028/2137 SLP164 T01500083","lat":29.5443,"lon":-98.4839,"elev":246,"name":"San Antonio Intl, TX, US","cover":"OVC","clouds":[{"cover":"OVC","base":3700}],"fltCat":"VFR"},{"icaoId":"KORD","receiptTime":"2026-04-18T21:54:08.260Z","obsTime":1776549060,"reportTime":"2026-04-18T22:00:00.000Z","temp":9.4,"dewp":-2.2,"wdir":260,"wspd":19,"wgst":32,"visib":"10+","altim":1013.6,"slp":1013.6,"qcField":12,"metarType":"METAR","rawOb":"METAR KORD 182151Z 26019G32KT 10SM SCT047 SCT250 09/M02 A2993 RMK AO2 PK WND 27036/2139 SLP136 T00941022 $","lat":41.9602,"lon":-87.9316,"elev":202,"name":"Chicago/O'Hare Intl, IL, US","cover":"SCT","clouds":[{"cover":"SCT","base":4700},{"cover":"SCT","base":25000}],"fltCat":"VFR"},{"icaoId":"KSAD","receiptTime":"2026-04-18T21:54:08.408Z","obsTime":1776549060,"reportTime":"2026-04-18T22:00:00.000Z","temp":27.8,"dewp":-5.6,"visib":"10+","altim":1014.6,"slp":1010.7,"qcField":6,"metarType":"METAR","rawOb":"METAR KSAD 182151Z AUTO 10SM CLR 28/M06 A2996 RMK AO2 SLP107 T02781056","lat":32.8565,"lon":-109.636,"elev":937,"name":"Safford Rgnl, AZ, US","cover":"CLR","clouds":[],"fltCat":"VFR"},{"icaoId":"KMYL","receiptTime":"2026-04-18T21:54:08.245Z","obsTime":1776549060,"reportTime":"2026-04-18T22:00:00.000Z","temp":8.9,"dewp":-3.9,"wdir":170,"wspd":9,"visib":"10+","altim":1021.4,"slp":1022.8,"qcField":6,"metarType":"METAR","rawOb":"METAR KMYL 182151Z AUTO 17009KT 10SM CLR 09/M04 A3016 RMK AO2 SLP228 T00891039","lat":44.8943,"lon":-116.0998,"elev":1532,"name":"McCall Muni, ID, US","cover":"CLR","clouds":[],"fltCat":"VFR"},{"icaoId":"KXWA","receiptTime":"2026-04-18T21:54:07.845Z","obsTime":1776549060,"reportTime":"2026-04-18T22:00:00.000Z","temp":6.7,"dewp":-7.2,"wdir":320,"wspd":22,"wgst":30,"visib":"10+","altim":1016.3,"slp":1020.3,"qcField":6,"metarType":"METAR","rawOb":"METAR KXWA 182151Z AUTO 32022G30KT 10SM FEW055 07/M07 A3001 RMK AO2 PK WND 30033/2058 SLP203 T00671072","lat":48.2542,"lon":-103.7469,"elev":717,"name":"Williston/Basin Intl, ND, US","cover":"FEW","clouds":[{"cover":"FEW","base":5500}],"fltCat":"VFR"},{"icaoId":"KPVD","receiptTime":"2026-04-18T21:54:08.348Z","obsTime":1776549060,"reportTime":"2026-04-18T22:00:00.000Z","temp":11.7,"dewp":7.2,"wdir":80,"wspd":9,"visib":"10+","altim":1017,"slp":1016.9,"qcField":4,"metarType":"METAR","rawOb":"METAR KPVD 182151Z 08009KT 10SM OVC021 12/07 A3003 RMK AO2 SLP169 T01170072","lat":41.7225,"lon":-71.4325,"elev":15,"name":"Providence/Green Mem, RI, US","cover":"OVC","clouds":[{"cover":"OVC","base":2100}],"fltCat":"MVFR"},{"icaoId":"KSAN","receiptTime":"2026-04-18T21:54:08.421Z","obsTime":1776549060,"reportTime":"2026-04-18T22:00:00.000Z","temp":22.2,"dewp":12.2,"wdir":"VRB","wspd":6,"visib":"10+","altim":1014.3,"slp":1014.2,"qcField":12,"metarType":"METAR","rawOb":"METAR KSAN 182151Z VRB06KT 10SM FEW250 22/12 A2995 RMK AO2 SLP142 T02220122 $","lat":32.7364,"lon":-117.1973,"elev":3,"name":"San Diego Intl Arpt, CA, US","cover":"FEW","clouds":[{"cover":"FEW","base":25000}],"fltCat":"VFR"},{"icaoId":"KSTL","receiptTime":"2026-04-18T21:54:07.781Z","obsTime":1776549060,"reportTime":"2026-04-18T22:00:00.000Z","temp":13.9,"dewp":0,"wdir":280,"wspd":11,"wgst":22,"visib":"10+","altim":1019,"slp":1019,"qcField":12,"metarType":"METAR","rawOb":"METAR KSTL 182151Z 28011G22KT 10SM SCT250 14/00 A3009 RMK AO2 PK WND 31026/2124 SLP190 T01390000 $","lat":38.7525,"lon":-90.3734,"elev":163,"name":"St Louis/Lambert Intl, MO, US","cover":"SCT","clouds":[{"cover":"SCT","base":25000}],"fltCat":"VFR"},{"icaoId":"KPHX","receiptTime":"2026-04-18T21:54:08.317Z","obsTime":1776549060,"reportTime":"2026-04-18T22:00:00.000Z","temp":31.7,"dewp":-10,"wdir":"VRB","wspd":4,"visib":"10+","altim":1011.6,"slp":1009.9,"qcField":12,"metarType":"METAR","rawOb":"METAR KPHX 182151Z VRB04KT 10SM FEW250 32/M10 A2987 RMK AO2 SLP099 T03171100 $","lat":33.4278,"lon":-112.0037,"elev":338,"name":"Phoenix/Sky Harbor Intl, AZ, US","cover":"FEW","clouds":[{"cover":"FEW","base":25000}],"fltCat":"VFR"},{"icaoId":"KOXR","receiptTime":"2026-04-18T21:54:08.302Z","obsTime":1776549060,"reportTime":"2026-04-18T22:00:00.000Z","temp":20.6,"dewp":14.4,"wdir":"VRB","wspd":6,"visib":"10+","altim":1014,"slp":1013.6,"qcField":12,"metarType":"METAR","rawOb":"METAR KOXR 182151Z VRB06KT 10SM CLR 21/14 A2994 RMK AO2 SLP136 T02060144 $","lat":34.2001,"lon":-119.2042,"elev":12,"name":"Oxnard Arpt, CA, US","cover":"CLR","clouds":[],"fltCat":"VFR"},{"icaoId":"KORF","receiptTime":"2026-04-18T21:54:08.275Z","obsTime":1776549060,"reportTime":"2026-04-18T22:00:00.000Z","temp":27.2,"dewp":13.9,"wdir":140,"wspd":10,"wgst":20,"visib":"10+","altim":1011.6,"slp":1011.5,"qcField":4,"metarType":"METAR","rawOb":"METAR KORF 182151Z 14010G20KT 10SM CLR 27/14 A2987 RMK AO2 SLP115 T02720139","lat":36.9037,"lon":-76.1927,"elev":5,"name":"Norfolk Intl, VA, US","cover":"CLR","clouds":[],"fltCat":"VFR"},{"icaoId":"KHOB","receiptTime":"2026-04-18T21:54:58.030Z","obsTime":1776549000,"reportTime":"2026-04-18T22:00:00.000Z","temp":19,"dewp":-12,"wdir":60,"wspd":11,"wgst":19,"visib":"10+","altim":1023.8,"qcField":0,"metarType":"METAR","rawOb":"METAR KHOB 182150Z 06011G19KT 10SM CLR 19/M12 A3023","lat":32.6797,"lon":-103.2222,"elev":1112,"name":"Hobbs Arpt, NM, US","cover":"CLR","clouds":[],"fltCat":"VFR"},{"icaoId":"KIFP","receiptTime":"2026-04-18T21:49:10.470Z","obsTime":1776548880,"reportTime":"2026-04-18T22:00:00.000Z","temp":29,"dewp":-15,"wdir":340,"wspd":14,"visib":20,"altim":1013,"qcField":0,"metarType":"METAR","rawOb":"METAR KIFP 182148Z 34014KT 20SM SCT170 29/M15 A2991","lat":35.1487,"lon":-114.5611,"elev":210,"name":"Bullhead City Intl, AZ, US","cover":"SCT","clouds":[{"cover":"SCT","base":17000}],"fltCat":"VFR"},{"icaoId":"KGYR","receiptTime":"2026-04-18T21:52:18.751Z","obsTime":1776548820,"reportTime":"2026-04-18T22:00:00.000Z","temp":32,"dewp":-7,"wdir":"VRB","wspd":3,"visib":"10+","altim":1012.3,"qcField":0,"metarType":"METAR","rawOb":"METAR KGYR 182147Z VRB03KT 10SM SKC 32/M07 A2989","lat":33.428,"lon":-112.368,"elev":292,"name":"Phoenix/Goodyear Muni, AZ, US","cover":"SKC","clouds":[],"fltCat":"VFR"},{"icaoId":"KAEG","receiptTime":"2026-04-18T21:48:06.632Z","obsTime":1776548820,"reportTime":"2026-04-18T22:00:00.000Z","temp":16,"dewp":-26,"wdir":30,"wspd":5,"visib":"10+","altim":1023.1,"qcField":0,"metarType":"METAR","rawOb":"METAR KAEG 182147Z 03005KT 10SM CLR 16/M26 A3021","lat":35.15,"lon":-106.7929,"elev":1771,"name":"Albuquerque/Double Eagle Arpt, NM, US","cover":"CLR","clouds":[],"fltCat":"VFR"},{"icaoId":"KIWA","receiptTime":"2026-04-18T21:48:06.739Z","obsTime":1776548820,"reportTime":"2026-04-18T22:00:00.000Z","temp":31,"dewp":-11,"wdir":280,"wspd":10,"visib":"10+","altim":1012.6,"qcField":0,"metarType":"METAR","rawOb":"METAR KIWA 182147Z 28010KT 10SM CLR 31/M11 A2990","lat":33.3008,"lon":-111.6437,"elev":420,"name":"Phoenix/Mesa Gateway Arpt, AZ, US","cover":"CLR","clouds":[],"fltCat":"VFR"},{"icaoId":"KCHD","receiptTime":"2026-04-18T21:48:06.685Z","obsTime":1776548820,"reportTime":"2026-04-18T22:00:00.000Z","temp":31,"dewp":-7,"wdir":"VRB","wspd":4,"visib":"10+","altim":1012.3,"qcField":0,"metarType":"METAR","rawOb":"METAR KCHD 182147Z VRB04KT 10SM CLR 31/M07 A2989","lat":33.2669,"lon":-111.8086,"elev":378,"name":"Chandler Muni, AZ, US","cover":"CLR","clouds":[],"fltCat":"VFR"},{"icaoId":"KGEU","receiptTime":"2026-04-18T21:49:10.443Z","obsTime":1776548820,"reportTime":"2026-04-18T22:00:00.000Z","temp":31,"dewp":-11,"wdir":0,"wspd":0,"visib":"10+","altim":1011.3,"qcField":0,"metarType":"METAR","rawOb":"METAR KGEU 182147Z 00000KT 10SM CLR 31/M11 A2986","lat":33.528,"lon":-112.293,"elev":319,"name":"Glendale Muni, AZ, US","cover":"CLR","clouds":[],"fltCat":"VFR"},{"icaoId":"KSUN","receiptTime":"2026-04-18T21:58:47.829Z","obsTime":1776548820,"reportTime":"2026-04-18T22:00:00.000Z","temp":11,"dewp":-9,"wdir":210,"wspd":6,"visib":"10+","altim":1023.1,"qcField":0,"metarType":"METAR","rawOb":"METAR KSUN 182147Z 21006KT 10SM CLR 11/M09 A3021","lat":43.4969,"lon":-114.2923,"elev":1619,"name":"Hailey/Friedman Mem, ID, US","cover":"CLR","clouds":[],"fltCat":"VFR"},{"icaoId":"KRYN","receiptTime":"2026-04-18T21:46:57.042Z","obsTime":1776548700,"reportTime":"2026-04-18T22:00:00.000Z","temp":31,"dewp":-4,"wdir":"VRB","wspd":4,"wgst":11,"visib":"10+","altim":1012.3,"qcField":0,"metarType":"METAR","rawOb":"METAR KRYN 182145Z VRB04G11KT 10SM CLR 31/M04 A2989","lat":32.1418,"lon":-111.1767,"elev":731,"name":"Tucson/Ryan Fld, AZ, US","cover":"CLR","clouds":[],"fltCat":"VFR"}]