[{"icaoId":"KSOW","receiptTime":"2026-04-06T13:37:18.291Z","obsTime":1775482500,"reportTime":"2026-04-06T13:35:00.000Z","temp":8,"dewp":-2,"wdir":190,"wspd":9,"visib":"10+","altim":1023.8,"qcField":6,"metarType":"METAR","rawOb":"METAR KSOW 061335Z AUTO 19009KT 10SM CLR 08/M02 A3023 RMK AO2","lat":34.2686,"lon":-110.0019,"elev":1954,"name":"Show Low Muni, AZ, US","cover":"CLR","clouds":[],"fltCat":"VFR"},{"icaoId":"KIFP","receiptTime":"2026-04-06T13:20:18.723Z","obsTime":1775481300,"reportTime":"2026-04-06T13:15:00.000Z","temp":19,"dewp":-7,"wdir":0,"wspd":0,"visib":"10+","altim":1011.3,"qcField":6,"metarType":"METAR","rawOb":"METAR KIFP 061315Z AUTO 00000KT 10SM CLR 19/M07 A2986 RMK AO2","lat":35.1487,"lon":-114.5611,"elev":210,"name":"Bullhead City Intl, AZ, US","cover":"CLR","clouds":[],"fltCat":"VFR"},{"icaoId":"KHII","receiptTime":"2026-04-06T13:20:20.158Z","obsTime":1775481300,"reportTime":"2026-04-06T13:15:00.000Z","temp":21,"dewp":-12,"wdir":0,"wspd":0,"visib":"10+","altim":1011.6,"qcField":6,"metarType":"METAR","rawOb":"METAR KHII 061315Z AUTO 00000KT 10SM CLR 21/M12 A2987 RMK AO2","lat":34.5659,"lon":-114.3522,"elev":241,"name":"Lake Havasu City Arpt, AZ, US","cover":"CLR","clouds":[],"fltCat":"VFR"},{"icaoId":"KSEZ","receiptTime":"2026-04-06T13:20:25.994Z","obsTime":1775481300,"reportTime":"2026-04-06T13:15:00.000Z","temp":15,"dewp":-1,"wdir":30,"wspd":5,"visib":"10+","altim":1020.1,"qcField":6,"metarType":"METAR","rawOb":"METAR KSEZ 061315Z AUTO 03005KT 10SM CLR 15/M01 A3012 RMK AO2","lat":34.8467,"lon":-111.7884,"elev":1455,"name":"Sedona Arpt, AZ, US","cover":"CLR","clouds":[],"fltCat":"VFR"},{"icaoId":"KFLG","receiptTime":"2026-04-06T13:02:56.028Z","obsTime":1775480220,"reportTime":"2026-04-06T13:00:00.000Z","temp":3.9,"dewp":-2.8,"wdir":0,"wspd":0,"visib":"10+","altim":1023.5,"slp":1016.2,"qcField":4,"metarType":"METAR","rawOb":"METAR KFLG 061257Z 00000KT 10SM FEW090 04/M03 A3022 RMK AO2 SLP162 T00391028","lat":35.1443,"lon":-111.6664,"elev":2134,"name":"Flagstaff/Pulliam Arpt, AZ, US","cover":"FEW","clouds":[{"cover":"FEW","base":9000}],"fltCat":"VFR"},{"icaoId":"KNYL","receiptTime":"2026-04-06T13:02:17.017Z","obsTime":1775480220,"reportTime":"2026-04-06T13:00:00.000Z","temp":20.6,"dewp":0,"wdir":0,"wspd":0,"visib":"10+","altim":1010.6,"slp":1010.3,"qcField":14,"metarType":"METAR","rawOb":"METAR KNYL 061257Z AUTO 00000KT 10SM CLR 21/00 A2984 RMK AO2 SLP103 T02060000 $","lat":32.66,"lon":-114.6078,"elev":58,"name":"Yuma , AZ, US","cover":"CLR","clouds":[],"fltCat":"VFR"},{"icaoId":"KCGZ","receiptTime":"2026-04-06T12:58:19.576Z","obsTime":1775480160,"reportTime":"2026-04-06T13:00:00.000Z","temp":23.9,"dewp":3.9,"wdir":80,"wspd":13,"visib":"10+","altim":1013.6,"slp":1012,"qcField":14,"metarType":"METAR","rawOb":"METAR KCGZ 061256Z AUTO 08013KT 10SM CLR 24/04 A2993 RMK AO2 SLP120 T02390039 $","lat":32.9531,"lon":-111.7725,"elev":444,"name":"Casa Granda Muni, AZ, US","cover":"CLR","clouds":[],"fltCat":"VFR"},{"icaoId":"KINW","receiptTime":"2026-04-06T13:00:07.227Z","obsTime":1775480160,"reportTime":"2026-04-06T13:00:00.000Z","temp":12.2,"dewp":-2.2,"wdir":120,"wspd":7,"visib":"10+","altim":1021.1,"slp":1015.7,"qcField":6,"metarType":"METAR","rawOb":"METAR KINW 061256Z AUTO 12007KT 10SM BKN120 12/M02 A3015 RMK AO2 SLP157 T01221022","lat":35.0279,"lon":-110.7221,"elev":1492,"name":"Winslow/Lindberg Rgnl, AZ, US","cover":"BKN","clouds":[{"cover":"BKN","base":12000}],"fltCat":"VFR"},{"icaoId":"KDUG","receiptTime":"2026-04-06T13:04:06.216Z","obsTime":1775480160,"reportTime":"2026-04-06T13:00:00.000Z","temp":13.9,"dewp":5,"wdir":90,"wspd":6,"visib":"10+","altim":1020.7,"slp":1015.2,"qcField":38,"metarType":"METAR","rawOb":"METAR KDUG 061256Z AUTO 09006KT 10SM CLR 14/05 A3014 RMK AO2 SLP152 T01390050 TSNO","lat":31.4725,"lon":-109.6022,"elev":1260,"name":"Douglas/Bisbee Intl, AZ, US","cover":"CLR","clouds":[],"fltCat":"VFR"},{"icaoId":"KLUF","receiptTime":"2026-04-06T13:04:04.774Z","obsTime":1775480100,"reportTime":"2026-04-06T13:00:00.000Z","temp":25.5,"dewp":1.6,"wdir":0,"wspd":0,"visib":"10+","altim":1012.6,"slp":1011,"qcField":12,"metarType":"METAR","rawOb":"METAR KLUF 061255Z 00000KT 10SM SCT150 BKN180 26/02 A2990 RMK AO2A SLP110 T02550016 $","lat":33.538,"lon":-112.38,"elev":333,"name":"Phoenix/Luke AFB, AZ, US","cover":"BKN","clouds":[{"cover":"SCT","base":15000},{"cover":"BKN","base":18000}],"fltCat":"VFR"},{"icaoId":"KFFZ","receiptTime":"2026-04-06T12:58:24.651Z","obsTime":1775480040,"reportTime":"2026-04-06T13:00:00.000Z","temp":23.9,"dewp":3.3,"wdir":0,"wspd":0,"visib":8,"altim":1013.3,"slp":1010.8,"qcField":4,"metarType":"METAR","rawOb":"METAR KFFZ 061254Z 00000KT 8SM CLR 24/03 A2992 RMK AO2 SLP108 T02390033","lat":33.4659,"lon":-111.7212,"elev":420,"name":"Mesa/Falcon Fld, AZ, US","cover":"CLR","clouds":[],"fltCat":"VFR"},{"icaoId":"KSJN","receiptTime":"2026-04-06T12:58:15.636Z","obsTime":1775480040,"reportTime":"2026-04-06T13:00:00.000Z","temp":10.6,"dewp":-3.9,"wdir":80,"wspd":8,"visib":"10+","altim":1022.4,"slp":1015,"qcField":6,"metarType":"METAR","rawOb":"METAR KSJN 061254Z AUTO 08008KT 10SM CLR 11/M04 A3019 RMK AO2 SLP150 T01061039","lat":34.5184,"lon":-109.3801,"elev":1747,"name":"St Johns Ind Arpt, AZ, US","cover":"CLR","clouds":[],"fltCat":"VFR"},{"icaoId":"KGCN","receiptTime":"2026-04-06T12:58:10.260Z","obsTime":1775480040,"reportTime":"2026-04-06T13:00:00.000Z","temp":4.4,"dewp":-1.7,"wdir":0,"wspd":0,"visib":"10+","altim":1022.8,"slp":1016.3,"qcField":6,"metarType":"METAR","rawOb":"METAR KGCN 061254Z AUTO 00000KT 10SM SCT095 04/M02 A3020 RMK AO2 SLP163 T00441017","lat":35.9458,"lon":-112.1554,"elev":1993,"name":"Grand Canyon Park Arpt, AZ, US","cover":"SCT","clouds":[{"cover":"SCT","base":9500}],"fltCat":"VFR"},{"icaoId":"KOLS","receiptTime":"2026-04-06T12:58:15.382Z","obsTime":1775480040,"reportTime":"2026-04-06T13:00:00.000Z","temp":16.7,"dewp":4.4,"wdir":0,"wspd":0,"visib":"10+","altim":1017.7,"slp":1011.4,"qcField":6,"metarType":"METAR","rawOb":"METAR KOLS 061254Z AUTO 00000KT 10SM CLR 17/04 A3005 RMK AO2 SLP114 T01670044","lat":31.4208,"lon":-110.8465,"elev":1194,"name":"Nogales Intl, AZ, US","cover":"CLR","clouds":[],"fltCat":"VFR"},{"icaoId":"KSDL","receiptTime":"2026-04-06T12:56:21.474Z","obsTime":1775479980,"reportTime":"2026-04-06T13:00:00.000Z","temp":25,"dewp":2.8,"wdir":90,"wspd":9,"visib":"10+","altim":1014,"slp":1011.1,"qcField":4,"metarType":"METAR","rawOb":"METAR KSDL 061253Z 09009KT 10SM CLR 25/03 A2994 RMK AO2 SLP111 T02500028","lat":33.6123,"lon":-111.9232,"elev":438,"name":"Scottsdale Muni, AZ, US","cover":"CLR","clouds":[],"fltCat":"VFR"},{"icaoId":"KPRC","receiptTime":"2026-04-06T12:56:21.929Z","obsTime":1775479980,"reportTime":"2026-04-06T13:00:00.000Z","temp":15,"dewp":-1.7,"wdir":140,"wspd":6,"visib":"10+","altim":1019.7,"slp":1012.6,"qcField":4,"metarType":"METAR","rawOb":"METAR KPRC 061253Z 14006KT 10SM CLR 15/M02 A3011 RMK AO2 SLP126 T01501017","lat":34.6491,"lon":-112.4223,"elev":1528,"name":"Prescott/Love Fld, AZ, US","cover":"CLR","clouds":[],"fltCat":"VFR"},{"icaoId":"KDVT","receiptTime":"2026-04-06T12:56:25.963Z","obsTime":1775479980,"reportTime":"2026-04-06T13:00:00.000Z","temp":24.4,"dewp":2.8,"wdir":120,"wspd":7,"visib":"10+","altim":1013.6,"slp":1010.9,"qcField":14,"metarType":"METAR","rawOb":"METAR KDVT 061253Z AUTO 12007KT 10SM CLR 24/03 A2993 RMK AO2 SLP109 T02440028 $","lat":33.6902,"lon":-112.0662,"elev":454,"name":"Phoenix/Deer Valley Arpt, AZ, US","cover":"CLR","clouds":[],"fltCat":"VFR"},{"icaoId":"KTUS","receiptTime":"2026-04-06T12:56:28.678Z","obsTime":1775479980,"reportTime":"2026-04-06T13:00:00.000Z","temp":21.7,"dewp":4.4,"wdir":120,"wspd":14,"wgst":21,"visib":"10+","altim":1016.7,"slp":1011.9,"qcField":12,"metarType":"METAR","rawOb":"METAR KTUS 061253Z 12014G21KT 10SM CLR 22/04 A3002 RMK AO2 PK WND 12032/1215 SLP119 T02170044 $","lat":32.1315,"lon":-110.9564,"elev":776,"name":"Tucson Intl Arpt, AZ, US","cover":"CLR","clouds":[],"fltCat":"VFR"},{"icaoId":"KPGA","receiptTime":"2026-04-06T12:56:21.146Z","obsTime":1775479980,"reportTime":"2026-04-06T13:00:00.000Z","temp":11.7,"dewp":-8.9,"wdir":270,"wspd":4,"visib":"10+","altim":1019.7,"slp":1015.4,"qcField":14,"metarType":"METAR","rawOb":"METAR KPGA 061253Z AUTO 27004KT 10SM CLR 12/M09 A3011 RMK AO2 SLP154 T01171089 $","lat":36.9211,"lon":-111.4487,"elev":1310,"name":"Page Muni, AZ, US","cover":"CLR","clouds":[],"fltCat":"VFR"},{"icaoId":"KIGM","receiptTime":"2026-04-06T12:54:08.913Z","obsTime":1775479860,"reportTime":"2026-04-06T13:00:00.000Z","temp":13.3,"dewp":-7.2,"wdir":190,"wspd":3,"visib":"10+","altim":1016,"slp":1009.8,"qcField":6,"metarType":"METAR","rawOb":"METAR KIGM 061251Z AUTO 19003KT 10SM CLR 13/M07 A3000 RMK AO2 SLP098 T01331072","lat":35.2575,"lon":-113.9341,"elev":1045,"name":"Kingman Arpt, AZ, US","cover":"CLR","clouds":[],"fltCat":"VFR"},{"icaoId":"KSAD","receiptTime":"2026-04-06T12:54:09.190Z","obsTime":1775479860,"reportTime":"2026-04-06T13:00:00.000Z","temp":15,"dewp":0,"wdir":120,"wspd":10,"visib":"10+","altim":1021.8,"slp":1017.6,"qcField":6,"metarType":"METAR","rawOb":"METAR KSAD 061251Z AUTO 12010KT 10SM CLR 15/00 A3017 RMK AO2 SLP176 T01500000","lat":32.8565,"lon":-109.636,"elev":937,"name":"Safford Rgnl, AZ, US","cover":"CLR","clouds":[],"fltCat":"VFR"},{"icaoId":"KPHX","receiptTime":"2026-04-06T12:54:09.102Z","obsTime":1775479860,"reportTime":"2026-04-06T13:00:00.000Z","temp":26.1,"dewp":3.3,"wdir":120,"wspd":11,"visib":"10+","altim":1012.6,"slp":1010.5,"qcField":4,"metarType":"METAR","rawOb":"METAR KPHX 061251Z 12011KT 10SM FEW120 BKN200 26/03 A2990 RMK AO2 SLP105 T02610033","lat":33.4278,"lon":-112.0037,"elev":338,"name":"Phoenix/Sky Harbor Intl, AZ, US","cover":"BKN","clouds":[{"cover":"FEW","base":12000},{"cover":"BKN","base":20000}],"fltCat":"VFR"},{"icaoId":"KIWA","receiptTime":"2026-04-06T12:50:00.360Z","obsTime":1775479680,"reportTime":"2026-04-06T13:00:00.000Z","temp":24,"dewp":3,"wdir":100,"wspd":11,"wgst":19,"visib":"10+","altim":1014,"qcField":0,"metarType":"METAR","rawOb":"METAR KIWA 061248Z 10011G19KT 10SM CLR 24/03 A2994","lat":33.3008,"lon":-111.6437,"elev":420,"name":"Phoenix/Mesa Gateway Arpt, AZ, US","cover":"CLR","clouds":[],"fltCat":"VFR"},{"icaoId":"KCHD","receiptTime":"2026-04-06T12:45:48.809Z","obsTime":1775479620,"reportTime":"2026-04-06T13:00:00.000Z","temp":24,"dewp":4,"wdir":80,"wspd":13,"visib":"10+","altim":1013.3,"qcField":0,"metarType":"METAR","rawOb":"METAR KCHD 061247Z 08013KT 10SM FEW180 24/04 A2992","lat":33.2669,"lon":-111.8086,"elev":378,"name":"Chandler Muni, AZ, US","cover":"FEW","clouds":[{"cover":"FEW","base":18000}],"fltCat":"VFR"},{"icaoId":"KGYR","receiptTime":"2026-04-06T13:02:46.550Z","obsTime":1775479620,"reportTime":"2026-04-06T13:00:00.000Z","temp":24,"dewp":4,"wdir":90,"wspd":7,"visib":"10+","altim":1013,"qcField":0,"metarType":"METAR","rawOb":"METAR KGYR 061247Z 09007KT 10SM FEW120 24/04 A2991 RMK FIRST","lat":33.428,"lon":-112.368,"elev":292,"name":"Phoenix/Goodyear Muni, AZ, US","cover":"FEW","clouds":[{"cover":"FEW","base":12000}],"fltCat":"VFR"},{"icaoId":"KGEU","receiptTime":"2026-04-06T12:54:08.098Z","obsTime":1775479620,"reportTime":"2026-04-06T13:00:00.000Z","temp":24,"dewp":2,"wdir":40,"wspd":5,"visib":"10+","altim":1012.3,"qcField":0,"metarType":"METAR","rawOb":"METAR KGEU 061247Z 04005KT 10SM CLR 24/02 A2989 RMK FIRST","lat":33.528,"lon":-112.293,"elev":319,"name":"Glendale Muni, AZ, US","cover":"CLR","clouds":[],"fltCat":"VFR"}]