[{"icaoId":"KCHD","receiptTime":"2026-04-10T09:37:10.804Z","obsTime":1775813700,"reportTime":"2026-04-10T09:35:00.000Z","temp":22.6,"dewp":-1,"wdir":180,"wspd":4,"visib":"10+","altim":1011.6,"qcField":14,"metarType":"METAR","rawOb":"METAR KCHD 100935Z AUTO 18004KT 10SM CLR 23/M01 A2987 RMK AO2 T02261010 $","lat":33.2669,"lon":-111.8086,"elev":378,"name":"Chandler Muni, AZ, US","cover":"CLR","clouds":[],"fltCat":"VFR"},{"icaoId":"KSEZ","receiptTime":"2026-04-10T09:21:05.931Z","obsTime":1775812500,"reportTime":"2026-04-10T09:15:00.000Z","temp":16,"dewp":-5,"wdir":0,"wspd":0,"visib":"10+","altim":1017,"qcField":6,"metarType":"METAR","rawOb":"METAR KSEZ 100915Z AUTO 00000KT 10SM CLR 16/M05 A3003 RMK AO2","lat":34.8467,"lon":-111.7884,"elev":1455,"name":"Sedona Arpt, AZ, US","cover":"CLR","clouds":[],"fltCat":"VFR"},{"icaoId":"KHII","receiptTime":"2026-04-10T09:20:35.271Z","obsTime":1775812500,"reportTime":"2026-04-10T09:15:00.000Z","temp":26,"dewp":6,"wdir":120,"wspd":10,"visib":"10+","altim":1009.2,"qcField":6,"metarType":"METAR","rawOb":"METAR KHII 100915Z AUTO 12010KT 10SM CLR 26/06 A2980 RMK AO2","lat":34.5659,"lon":-114.3522,"elev":241,"name":"Lake Havasu City Arpt, AZ, US","cover":"CLR","clouds":[],"fltCat":"VFR"},{"icaoId":"KSOW","receiptTime":"2026-04-10T09:18:19.262Z","obsTime":1775812500,"reportTime":"2026-04-10T09:15:00.000Z","temp":11,"dewp":-5,"wdir":160,"wspd":7,"visib":"10+","altim":1021.1,"qcField":6,"metarType":"METAR","rawOb":"METAR KSOW 100915Z AUTO 16007KT 10SM CLR 11/M05 A3015 RMK AO2","lat":34.2686,"lon":-110.0019,"elev":1954,"name":"Show Low Muni, AZ, US","cover":"CLR","clouds":[],"fltCat":"VFR"},{"icaoId":"KIWA","receiptTime":"2026-04-10T09:21:05.658Z","obsTime":1775812500,"reportTime":"2026-04-10T09:15:00.000Z","temp":20.1,"dewp":-1.5,"wdir":130,"wspd":6,"visib":"10+","altim":1012.3,"qcField":6,"metarType":"METAR","rawOb":"METAR KIWA 100915Z AUTO 13006KT 10SM CLR 20/M02 A2989 RMK AO2 T02011015","lat":33.3008,"lon":-111.6437,"elev":420,"name":"Phoenix/Mesa Gateway Arpt, AZ, US","cover":"CLR","clouds":[],"fltCat":"VFR"},{"icaoId":"KIFP","receiptTime":"2026-04-10T09:21:05.906Z","obsTime":1775812500,"reportTime":"2026-04-10T09:15:00.000Z","temp":24,"dewp":5,"wdir":130,"wspd":6,"wgst":11,"visib":"10+","altim":1008.2,"qcField":6,"metarType":"METAR","rawOb":"METAR KIFP 100915Z AUTO 13006G11KT 10SM CLR 24/05 A2977 RMK AO2","lat":35.1487,"lon":-114.5611,"elev":210,"name":"Bullhead City Intl, AZ, US","cover":"CLR","clouds":[],"fltCat":"VFR"},{"icaoId":"KNYL","receiptTime":"2026-04-10T09:01:08.956Z","obsTime":1775811420,"reportTime":"2026-04-10T09:00:00.000Z","temp":23.9,"dewp":6.7,"wdir":260,"wspd":5,"visib":"10+","altim":1010.9,"slp":1010.4,"qcField":6,"presTend":0.5,"metarType":"METAR","rawOb":"METAR KNYL 100857Z AUTO 26005KT 10SM CLR 24/07 A2985 RMK AO2 SLP104 T02390067 53005","lat":32.66,"lon":-114.6078,"elev":58,"name":"Yuma , AZ, US","cover":"CLR","clouds":[],"fltCat":"VFR"},{"icaoId":"KFLG","receiptTime":"2026-04-10T09:01:12.138Z","obsTime":1775811420,"reportTime":"2026-04-10T09:00:00.000Z","temp":4.4,"dewp":-5,"wdir":0,"wspd":0,"visib":"10+","altim":1020.4,"slp":1012.9,"qcField":14,"presTend":-0.3,"metarType":"METAR","rawOb":"METAR KFLG 100857Z AUTO 00000KT 10SM CLR 04/M05 A3013 RMK AO2 SLP129 T00441050 58003 $","lat":35.1443,"lon":-111.6664,"elev":2134,"name":"Flagstaff/Pulliam Arpt, AZ, US","cover":"CLR","clouds":[],"fltCat":"VFR"},{"icaoId":"KDUG","receiptTime":"2026-04-10T09:02:32.166Z","obsTime":1775811360,"reportTime":"2026-04-10T09:00:00.000Z","temp":14.4,"dewp":-2.8,"wdir":360,"wspd":4,"visib":"10+","altim":1017,"slp":1010.8,"qcField":38,"presTend":0.3,"metarType":"METAR","rawOb":"METAR KDUG 100856Z AUTO 36004KT 10SM CLR 14/M03 A3003 RMK AO2 SLP108 T01441028 50003 TSNO","lat":31.4725,"lon":-109.6022,"elev":1260,"name":"Douglas/Bisbee Intl, AZ, US","cover":"CLR","clouds":[],"fltCat":"VFR"},{"icaoId":"KCGZ","receiptTime":"2026-04-10T08:58:20.066Z","obsTime":1775811360,"reportTime":"2026-04-10T09:00:00.000Z","temp":19.4,"dewp":-2.8,"wdir":50,"wspd":4,"visib":"10+","altim":1012.3,"slp":1010.9,"qcField":14,"metarType":"METAR","rawOb":"METAR KCGZ 100856Z AUTO 05004KT 10SM CLR 19/M03 A2989 RMK AO2 SLP109 6//// T01941028 $","lat":32.9531,"lon":-111.7725,"elev":444,"name":"Casa Granda Muni, AZ, US","cover":"CLR","clouds":[],"fltCat":"VFR"},{"icaoId":"KINW","receiptTime":"2026-04-10T09:00:49.800Z","obsTime":1775811360,"reportTime":"2026-04-10T09:00:00.000Z","temp":11.7,"dewp":-1.1,"wdir":200,"wspd":8,"visib":"10+","altim":1018,"slp":1011.8,"qcField":6,"presTend":0.3,"metarType":"METAR","rawOb":"METAR KINW 100856Z AUTO 20008KT 10SM CLR 12/M01 A3006 RMK AO2 SLP118 T01171011 50003","lat":35.0279,"lon":-110.7221,"elev":1492,"name":"Winslow/Lindberg Rgnl, AZ, US","cover":"CLR","clouds":[],"fltCat":"VFR"},{"icaoId":"KLUF","receiptTime":"2026-04-10T09:02:29.681Z","obsTime":1775811300,"reportTime":"2026-04-10T09:00:00.000Z","temp":23.3,"dewp":-1.6,"wdir":190,"wspd":3,"visib":"10+","altim":1010.2,"slp":1008.7,"qcField":12,"presTend":0.3,"metarType":"METAR","rawOb":"METAR KLUF 100855Z 19003KT 10SM BKN200 23/M02 A2983 RMK AO2A SLP087 T02331016 51003 $","lat":33.538,"lon":-112.38,"elev":333,"name":"Phoenix/Luke AFB, AZ, US","cover":"BKN","clouds":[{"cover":"BKN","base":20000}],"fltCat":"VFR"},{"icaoId":"KOLS","receiptTime":"2026-04-10T08:58:16.892Z","obsTime":1775811240,"reportTime":"2026-04-10T09:00:00.000Z","temp":15,"dewp":0,"wdir":90,"wspd":7,"visib":"10+","altim":1017,"slp":1011,"qcField":6,"presTend":-0.3,"metarType":"METAR","rawOb":"METAR KOLS 100854Z AUTO 09007KT 10SM CLR 15/00 A3003 RMK AO2 SLP110 T01500000 58003","lat":31.4208,"lon":-110.8465,"elev":1194,"name":"Nogales Intl, AZ, US","cover":"CLR","clouds":[],"fltCat":"VFR"},{"icaoId":"KGCN","receiptTime":"2026-04-10T08:58:15.848Z","obsTime":1775811240,"reportTime":"2026-04-10T09:00:00.000Z","temp":8.9,"dewp":-5.6,"wdir":240,"wspd":3,"visib":"10+","altim":1019.4,"slp":1011.4,"qcField":6,"presTend":-0.1,"metarType":"METAR","rawOb":"METAR KGCN 100854Z AUTO 24003KT 10SM CLR 09/M06 A3010 RMK AO2 SLP114 T00891056 58001","lat":35.9458,"lon":-112.1554,"elev":1993,"name":"Grand Canyon Park Arpt, AZ, US","cover":"CLR","clouds":[],"fltCat":"VFR"},{"icaoId":"KSJN","receiptTime":"2026-04-10T08:58:16.193Z","obsTime":1775811240,"reportTime":"2026-04-10T09:00:00.000Z","temp":10.6,"dewp":-2.8,"wdir":170,"wspd":3,"visib":"10+","altim":1019.4,"slp":1011.3,"qcField":6,"presTend":0.3,"metarType":"METAR","rawOb":"METAR KSJN 100854Z AUTO 17003KT 10SM CLR 11/M03 A3010 RMK AO2 SLP113 T01061028 51003","lat":34.5184,"lon":-109.3801,"elev":1747,"name":"St Johns Ind Arpt, AZ, US","cover":"CLR","clouds":[],"fltCat":"VFR"},{"icaoId":"KFFZ","receiptTime":"2026-04-10T08:58:15.803Z","obsTime":1775811240,"reportTime":"2026-04-10T09:00:00.000Z","temp":22.2,"dewp":1.1,"wdir":170,"wspd":7,"visib":"10+","altim":1011.3,"slp":1008.9,"qcField":38,"presTend":0.3,"metarType":"METAR","rawOb":"METAR KFFZ 100854Z AUTO 17007KT 10SM CLR 22/01 A2986 RMK AO2 SLP089 T02220011 51003 TSNO","lat":33.4659,"lon":-111.7212,"elev":420,"name":"Mesa/Falcon Fld, AZ, US","cover":"CLR","clouds":[],"fltCat":"VFR"},{"icaoId":"KTUS","receiptTime":"2026-04-10T08:56:33.681Z","obsTime":1775811180,"reportTime":"2026-04-10T09:00:00.000Z","temp":20,"dewp":-2.2,"wdir":170,"wspd":4,"visib":"10+","altim":1015,"slp":1010.6,"qcField":4,"presTend":-0.1,"metarType":"METAR","rawOb":"METAR KTUS 100853Z 17004KT 10SM CLR 20/M02 A2997 RMK AO2 SLP106 T02001022 58001","lat":32.1315,"lon":-110.9564,"elev":776,"name":"Tucson Intl Arpt, AZ, US","cover":"CLR","clouds":[],"fltCat":"VFR"},{"icaoId":"KPRC","receiptTime":"2026-04-10T08:56:31.301Z","obsTime":1775811180,"reportTime":"2026-04-10T09:00:00.000Z","temp":12.2,"dewp":-3.9,"wdir":170,"wspd":5,"visib":"10+","altim":1017.4,"slp":1010.3,"qcField":6,"presTend":-0.2,"metarType":"METAR","rawOb":"METAR KPRC 100853Z AUTO 17005KT 10SM CLR 12/M04 A3004 RMK AO2 SLP103 T01221039 58002","lat":34.6491,"lon":-112.4223,"elev":1528,"name":"Prescott/Love Fld, AZ, US","cover":"CLR","clouds":[],"fltCat":"VFR"},{"icaoId":"KPGA","receiptTime":"2026-04-10T08:56:34.370Z","obsTime":1775811180,"reportTime":"2026-04-10T09:00:00.000Z","temp":18.9,"dewp":-5.6,"wdir":190,"wspd":4,"visib":"10+","altim":1014.6,"slp":1008.2,"qcField":6,"presTend":0.8,"metarType":"METAR","rawOb":"METAR KPGA 100853Z AUTO 19004KT 10SM CLR 19/M06 A2996 RMK AO2 SLP082 T01891056 51008","lat":36.9211,"lon":-111.4487,"elev":1310,"name":"Page Muni, AZ, US","cover":"CLR","clouds":[],"fltCat":"VFR"},{"icaoId":"KSDL","receiptTime":"2026-04-10T08:56:31.314Z","obsTime":1775811180,"reportTime":"2026-04-10T09:00:00.000Z","temp":22.2,"dewp":0.6,"wdir":0,"wspd":0,"visib":"10+","altim":1011.9,"slp":1009.2,"qcField":4,"presTend":0.1,"metarType":"METAR","rawOb":"METAR KSDL 100853Z 00000KT 10SM CLR 22/01 A2988 RMK AO2 SLP092 T02220006 50001","lat":33.6123,"lon":-111.9232,"elev":438,"name":"Scottsdale Muni, AZ, US","cover":"CLR","clouds":[],"fltCat":"VFR"},{"icaoId":"KDVT","receiptTime":"2026-04-10T08:56:25.708Z","obsTime":1775811180,"reportTime":"2026-04-10T09:00:00.000Z","temp":20,"dewp":-2.8,"wdir":0,"wspd":0,"visib":"10+","altim":1011.6,"slp":1009.1,"qcField":6,"presTend":0.2,"metarType":"METAR","rawOb":"METAR KDVT 100853Z AUTO 00000KT 10SM CLR 20/M03 A2987 RMK AO2 SLP091 T02001028 50002","lat":33.6902,"lon":-112.0662,"elev":454,"name":"Phoenix/Deer Valley Arpt, AZ, US","cover":"CLR","clouds":[],"fltCat":"VFR"},{"icaoId":"KIGM","receiptTime":"2026-04-10T08:54:10.008Z","obsTime":1775811060,"reportTime":"2026-04-10T09:00:00.000Z","temp":18.9,"dewp":-1.7,"wdir":210,"wspd":12,"visib":"10+","altim":1013.3,"slp":1006.3,"qcField":6,"presTend":-0.3,"metarType":"METAR","rawOb":"METAR KIGM 100851Z AUTO 21012KT 10SM CLR 19/M02 A2992 RMK AO2 SLP063 T01891017 58003","lat":35.2575,"lon":-113.9341,"elev":1045,"name":"Kingman Arpt, AZ, US","cover":"CLR","clouds":[],"fltCat":"VFR"},{"icaoId":"KPHX","receiptTime":"2026-04-10T08:54:10.166Z","obsTime":1775811060,"reportTime":"2026-04-10T09:00:00.000Z","temp":24.4,"dewp":0,"wdir":110,"wspd":5,"visib":"10+","altim":1010.6,"slp":1008.6,"qcField":4,"presTend":0.4,"metarType":"METAR","rawOb":"METAR KPHX 100851Z 11005KT 10SM SCT250 24/00 A2984 RMK AO2 SLP086 T02440000 51004","lat":33.4278,"lon":-112.0037,"elev":338,"name":"Phoenix/Sky Harbor Intl, AZ, US","cover":"SCT","clouds":[{"cover":"SCT","base":25000}],"fltCat":"VFR"},{"icaoId":"KSAD","receiptTime":"2026-04-10T08:54:09.336Z","obsTime":1775811060,"reportTime":"2026-04-10T09:00:00.000Z","temp":19.4,"dewp":-5,"wdir":320,"wspd":7,"visib":"10+","altim":1014.3,"slp":1008.9,"qcField":6,"presTend":0.5,"metarType":"METAR","rawOb":"METAR KSAD 100851Z AUTO 32007KT 10SM CLR 19/M05 A2995 RMK AO2 SLP089 T01941050 51005","lat":32.8565,"lon":-109.636,"elev":937,"name":"Safford Rgnl, AZ, US","cover":"CLR","clouds":[],"fltCat":"VFR"}]