[{"icaoId":"KHII","receiptTime":"2026-04-07T10:42:02.057Z","obsTime":1775558100,"reportTime":"2026-04-07T10:35:00.000Z","temp":22,"dewp":-5,"wdir":0,"wspd":0,"visib":"10+","altim":1011.3,"qcField":6,"metarType":"METAR","rawOb":"METAR KHII 071035Z AUTO 00000KT 10SM CLR 22/M05 A2986 RMK AO2","lat":34.5659,"lon":-114.3522,"elev":241,"name":"Lake Havasu City Arpt, AZ, US","cover":"CLR","clouds":[],"fltCat":"VFR"},{"icaoId":"KIWA","receiptTime":"2026-04-07T10:40:11.483Z","obsTime":1775558100,"reportTime":"2026-04-07T10:35:00.000Z","temp":19.1,"dewp":7.4,"wdir":0,"wspd":0,"visib":"10+","altim":1013.3,"qcField":6,"metarType":"METAR","rawOb":"METAR KIWA 071035Z AUTO 00000KT 10SM CLR 19/07 A2992 RMK AO2 T01910074","lat":33.3008,"lon":-111.6437,"elev":420,"name":"Phoenix/Mesa Gateway Arpt, AZ, US","cover":"CLR","clouds":[],"fltCat":"VFR"},{"icaoId":"KSOW","receiptTime":"2026-04-07T10:38:15.910Z","obsTime":1775558100,"reportTime":"2026-04-07T10:35:00.000Z","temp":7,"dewp":6,"wdir":0,"wspd":0,"visib":"10+","altim":1020.1,"qcField":6,"metarType":"METAR","rawOb":"METAR KSOW 071035Z AUTO 00000KT 10SM BKN006 BKN010 OVC021 07/06 A3012 RMK AO2","lat":34.2686,"lon":-110.0019,"elev":1954,"name":"Show Low Muni, AZ, US","cover":"OVC","clouds":[{"cover":"BKN","base":600},{"cover":"BKN","base":1000},{"cover":"OVC","base":2100}],"fltCat":"IFR"},{"icaoId":"KSJN","receiptTime":"2026-04-07T10:38:16.304Z","obsTime":1775558100,"reportTime":"2026-04-07T10:35:00.000Z","temp":8.3,"dewp":7.2,"wdir":50,"wspd":3,"visib":"10+","altim":1018.7,"qcField":6,"metarType":"SPECI","rawOb":"SPECI KSJN 071035Z AUTO 05003KT 10SM BKN026 OVC032 08/07 A3008 RMK AO2 T00830072","lat":34.5184,"lon":-109.3801,"elev":1747,"name":"St Johns Ind Arpt, AZ, US","cover":"OVC","clouds":[{"cover":"BKN","base":2600},{"cover":"OVC","base":3200}],"fltCat":"MVFR"},{"icaoId":"KCHD","receiptTime":"2026-04-07T10:38:18.842Z","obsTime":1775558100,"reportTime":"2026-04-07T10:35:00.000Z","temp":19.3,"dewp":7.7,"wdir":360,"wspd":6,"visib":"10+","altim":1012.6,"qcField":6,"metarType":"METAR","rawOb":"METAR KCHD 071035Z AUTO 36006KT 10SM CLR 19/08 A2990 RMK AO2 T01930077","lat":33.2669,"lon":-111.8086,"elev":378,"name":"Chandler Muni, AZ, US","cover":"CLR","clouds":[],"fltCat":"VFR"},{"icaoId":"KIFP","receiptTime":"2026-04-07T10:40:11.309Z","obsTime":1775558100,"reportTime":"2026-04-07T10:35:00.000Z","temp":20,"dewp":-6,"wdir":0,"wspd":0,"visib":"10+","altim":1010.9,"qcField":6,"metarType":"METAR","rawOb":"METAR KIFP 071035Z AUTO 00000KT 10SM CLR 20/M06 A2985 RMK AO2","lat":35.1487,"lon":-114.5611,"elev":210,"name":"Bullhead City Intl, AZ, US","cover":"CLR","clouds":[],"fltCat":"VFR"},{"icaoId":"KSEZ","receiptTime":"2026-04-07T10:40:10.020Z","obsTime":1775558100,"reportTime":"2026-04-07T10:35:00.000Z","temp":11,"dewp":4,"wdir":30,"wspd":9,"visib":"10+","altim":1018.4,"qcField":6,"metarType":"METAR","rawOb":"METAR KSEZ 071035Z AUTO 03009KT 10SM CLR 11/04 A3007 RMK AO2","lat":34.8467,"lon":-111.7884,"elev":1455,"name":"Sedona Arpt, AZ, US","cover":"CLR","clouds":[],"fltCat":"VFR"},{"icaoId":"KFLG","receiptTime":"2026-04-07T10:00:28.167Z","obsTime":1775555820,"reportTime":"2026-04-07T10:00:00.000Z","temp":0.6,"dewp":0,"wdir":0,"wspd":0,"visib":"10+","altim":1021.1,"slp":1016.3,"qcField":6,"metarType":"METAR","rawOb":"METAR KFLG 070957Z AUTO 00000KT 10SM CLR 01/00 A3015 RMK AO2 SLP163 T00060000","lat":35.1443,"lon":-111.6664,"elev":2134,"name":"Flagstaff/Pulliam Arpt, AZ, US","cover":"CLR","clouds":[],"fltCat":"VFR"},{"icaoId":"KNYL","receiptTime":"2026-04-07T10:00:25.620Z","obsTime":1775555820,"reportTime":"2026-04-07T10:00:00.000Z","temp":22.8,"dewp":6.7,"wdir":330,"wspd":5,"visib":"10+","altim":1010.9,"slp":1010.6,"qcField":6,"metarType":"METAR","rawOb":"METAR KNYL 070957Z AUTO 33005KT 10SM CLR 23/07 A2985 RMK AO2 SLP106 T02280067","lat":32.66,"lon":-114.6078,"elev":58,"name":"Yuma , AZ, US","cover":"CLR","clouds":[],"fltCat":"VFR"},{"icaoId":"KINW","receiptTime":"2026-04-07T10:00:18.559Z","obsTime":1775555760,"reportTime":"2026-04-07T10:00:00.000Z","temp":10,"dewp":9.4,"wdir":0,"wspd":0,"visib":"10+","altim":1019,"slp":1014.9,"qcField":6,"metarType":"METAR","rawOb":"METAR KINW 070956Z AUTO 00000KT 10SM FEW005 BKN110 10/09 A3009 RMK AO2 SLP149 T01000094","lat":35.0279,"lon":-110.7221,"elev":1492,"name":"Winslow/Lindberg Rgnl, AZ, US","cover":"BKN","clouds":[{"cover":"FEW","base":500},{"cover":"BKN","base":11000}],"fltCat":"VFR"},{"icaoId":"KCGZ","receiptTime":"2026-04-07T09:58:36.122Z","obsTime":1775555760,"reportTime":"2026-04-07T10:00:00.000Z","temp":18.3,"dewp":6.7,"wdir":330,"wspd":7,"visib":"10+","altim":1013.3,"slp":1011.9,"qcField":14,"metarType":"METAR","rawOb":"METAR KCGZ 070956Z AUTO 33007KT 10SM CLR 18/07 A2992 RMK AO2 SLP119 T01830067 $","lat":32.9531,"lon":-111.7725,"elev":444,"name":"Casa Granda Muni, AZ, US","cover":"CLR","clouds":[],"fltCat":"VFR"},{"icaoId":"KDUG","receiptTime":"2026-04-07T10:02:10.676Z","obsTime":1775555760,"reportTime":"2026-04-07T10:00:00.000Z","temp":11.7,"dewp":5,"wdir":360,"wspd":11,"visib":"10+","altim":1015.7,"slp":1010.9,"qcField":38,"metarType":"METAR","rawOb":"METAR KDUG 070956Z AUTO 36011KT 10SM CLR 12/05 A2999 RMK AO2 SLP109 T01170050 TSNO","lat":31.4725,"lon":-109.6022,"elev":1260,"name":"Douglas/Bisbee Intl, AZ, US","cover":"CLR","clouds":[],"fltCat":"VFR"},{"icaoId":"KFFZ","receiptTime":"2026-04-07T09:58:06.077Z","obsTime":1775555640,"reportTime":"2026-04-07T10:00:00.000Z","temp":20.6,"dewp":7.2,"wdir":30,"wspd":12,"visib":"10+","altim":1012.6,"slp":1010.5,"qcField":4,"metarType":"METAR","rawOb":"METAR KFFZ 070954Z 03012KT 10SM CLR 21/07 A2990 RMK AO2 SLP105 T02060072","lat":33.4659,"lon":-111.7212,"elev":420,"name":"Mesa/Falcon Fld, AZ, US","cover":"CLR","clouds":[],"fltCat":"VFR"},{"icaoId":"KOLS","receiptTime":"2026-04-07T09:58:14.812Z","obsTime":1775555640,"reportTime":"2026-04-07T10:00:00.000Z","temp":12.2,"dewp":1.1,"wdir":90,"wspd":7,"visib":"10+","altim":1015.7,"slp":1010.4,"qcField":6,"metarType":"METAR","rawOb":"METAR KOLS 070954Z AUTO 09007KT 10SM CLR 12/01 A2999 RMK AO2 SLP104 T01220011","lat":31.4208,"lon":-110.8465,"elev":1194,"name":"Nogales Intl, AZ, US","cover":"CLR","clouds":[],"fltCat":"VFR"},{"icaoId":"KGCN","receiptTime":"2026-04-07T09:58:24.454Z","obsTime":1775555640,"reportTime":"2026-04-07T10:00:00.000Z","temp":0,"dewp":0,"wdir":0,"wspd":0,"visib":"10+","altim":1020.7,"slp":1017.7,"qcField":6,"metarType":"METAR","rawOb":"METAR KGCN 070954Z AUTO 00000KT 10SM CLR 00/00 A3014 RMK AO2 SLP177 T00000000","lat":35.9458,"lon":-112.1554,"elev":1993,"name":"Grand Canyon Park Arpt, AZ, US","cover":"CLR","clouds":[],"fltCat":"VFR"},{"icaoId":"KSDL","receiptTime":"2026-04-07T09:56:37.634Z","obsTime":1775555580,"reportTime":"2026-04-07T10:00:00.000Z","temp":18.9,"dewp":7.2,"wdir":"VRB","wspd":3,"visib":"10+","altim":1013.3,"slp":1011,"qcField":6,"metarType":"METAR","rawOb":"METAR KSDL 070953Z AUTO VRB03KT 10SM CLR 19/07 A2992 RMK AO2 SLP110 T01890072","lat":33.6123,"lon":-111.9232,"elev":438,"name":"Scottsdale Muni, AZ, US","cover":"CLR","clouds":[],"fltCat":"VFR"},{"icaoId":"KDVT","receiptTime":"2026-04-07T09:56:25.450Z","obsTime":1775555580,"reportTime":"2026-04-07T10:00:00.000Z","temp":17.8,"dewp":6.1,"wdir":20,"wspd":3,"visib":"10+","altim":1013.3,"slp":1011.1,"qcField":6,"metarType":"METAR","rawOb":"METAR KDVT 070953Z AUTO 02003KT 10SM CLR 18/06 A2992 RMK AO2 SLP111 T01780061","lat":33.6902,"lon":-112.0662,"elev":454,"name":"Phoenix/Deer Valley Arpt, AZ, US","cover":"CLR","clouds":[],"fltCat":"VFR"},{"icaoId":"KPGA","receiptTime":"2026-04-07T09:56:35.360Z","obsTime":1775555580,"reportTime":"2026-04-07T10:00:00.000Z","temp":13.9,"dewp":3.9,"wdir":180,"wspd":7,"visib":"10+","altim":1016.7,"slp":1012,"qcField":14,"metarType":"METAR","rawOb":"METAR KPGA 070953Z AUTO 18007KT 10SM CLR 14/04 A3002 RMK AO2 SLP120 T01390039 $","lat":36.9211,"lon":-111.4487,"elev":1310,"name":"Page Muni, AZ, US","cover":"CLR","clouds":[],"fltCat":"VFR"},{"icaoId":"KTUS","receiptTime":"2026-04-07T09:56:29.422Z","obsTime":1775555580,"reportTime":"2026-04-07T10:00:00.000Z","temp":16.7,"dewp":4.4,"wdir":140,"wspd":6,"visib":"10+","altim":1014.6,"slp":1010.7,"qcField":4,"metarType":"METAR","rawOb":"METAR KTUS 070953Z 14006KT 10SM BKN110 17/04 A2996 RMK AO2 SLP107 T01670044","lat":32.1315,"lon":-110.9564,"elev":776,"name":"Tucson Intl Arpt, AZ, US","cover":"BKN","clouds":[{"cover":"BKN","base":11000}],"fltCat":"VFR"},{"icaoId":"KPRC","receiptTime":"2026-04-07T09:56:37.498Z","obsTime":1775555580,"reportTime":"2026-04-07T10:00:00.000Z","temp":6.1,"dewp":1.7,"wdir":200,"wspd":3,"visib":"10+","altim":1019,"slp":1014.2,"qcField":6,"metarType":"METAR","rawOb":"METAR KPRC 070953Z AUTO 20003KT 10SM CLR 06/02 A3009 RMK AO2 SLP142 T00610017","lat":34.6491,"lon":-112.4223,"elev":1528,"name":"Prescott/Love Fld, AZ, US","cover":"CLR","clouds":[],"fltCat":"VFR"},{"icaoId":"KSAD","receiptTime":"2026-04-07T09:54:13.227Z","obsTime":1775555460,"reportTime":"2026-04-07T10:00:00.000Z","temp":16.1,"dewp":7.2,"wdir":110,"wspd":6,"visib":"10+","altim":1014.3,"slp":1010.6,"qcField":6,"metarType":"METAR","rawOb":"METAR KSAD 070951Z AUTO 11006KT 10SM FEW120 16/07 A2995 RMK AO2 SLP106 T01610072","lat":32.8565,"lon":-109.636,"elev":937,"name":"Safford Rgnl, AZ, US","cover":"FEW","clouds":[{"cover":"FEW","base":12000}],"fltCat":"VFR"},{"icaoId":"KIGM","receiptTime":"2026-04-07T09:54:12.933Z","obsTime":1775555460,"reportTime":"2026-04-07T10:00:00.000Z","temp":13.9,"dewp":-1.7,"wdir":140,"wspd":9,"visib":"10+","altim":1015.7,"slp":1009.8,"qcField":6,"metarType":"METAR","rawOb":"METAR KIGM 070951Z AUTO 14009KT 10SM CLR 14/M02 A2999 RMK AO2 SLP098 T01391017","lat":35.2575,"lon":-113.9341,"elev":1045,"name":"Kingman Arpt, AZ, US","cover":"CLR","clouds":[],"fltCat":"VFR"},{"icaoId":"KPHX","receiptTime":"2026-04-07T09:54:13.136Z","obsTime":1775555460,"reportTime":"2026-04-07T10:00:00.000Z","temp":20.6,"dewp":7.8,"wdir":110,"wspd":4,"visib":"10+","altim":1012.3,"slp":1010.6,"qcField":4,"metarType":"METAR","rawOb":"METAR KPHX 070951Z 11004KT 10SM CLR 21/08 A2989 RMK AO2 SLP106 T02060078","lat":33.4278,"lon":-112.0037,"elev":338,"name":"Phoenix/Sky Harbor Intl, AZ, US","cover":"CLR","clouds":[],"fltCat":"VFR"}]