[{"icaoId":"KRYN","receiptTime":"2026-04-15T00:47:02.768Z","obsTime":1776213900,"reportTime":"2026-04-15T01:00:00.000Z","temp":24,"dewp":-4,"wdir":300,"wspd":18,"visib":"10+","altim":1013.3,"qcField":0,"metarType":"METAR","rawOb":"METAR KRYN 150045Z 30018KT 10SM CLR 24/M04 A2992","lat":32.1418,"lon":-111.1767,"elev":731,"name":"Tucson/Ryan Fld, AZ, US","cover":"CLR","clouds":[],"fltCat":"VFR"},{"icaoId":"KLAW","receiptTime":"2026-04-15T00:42:03.121Z","obsTime":1776213480,"reportTime":"2026-04-15T00:38:00.000Z","temp":21.1,"dewp":16.7,"wdir":140,"wspd":9,"wgst":20,"visib":9,"altim":1010.6,"qcField":6,"wxString":"-TSRA","precip":0.32,"metarType":"SPECI","rawOb":"SPECI KLAW 150038Z AUTO 14009G20KT 9SM -TSRA BKN029 BKN038 OVC060 21/17 A2984 RMK AO2 PK WND 14031/2354 WSHFT 2351 LTG DSNT ALQDS P0032 T02110167","lat":34.5577,"lon":-98.4172,"elev":328,"name":"Lawton-Fort Sill Rgnl, OK, US","cover":"OVC","clouds":[{"cover":"BKN","base":2900},{"cover":"BKN","base":3800},{"cover":"OVC","base":6000}],"fltCat":"MVFR"},{"icaoId":"KBVU","receiptTime":"2026-04-15T00:36:14.248Z","obsTime":1776213300,"reportTime":"2026-04-15T00:35:00.000Z","temp":23,"dewp":-6,"wdir":0,"wspd":0,"visib":"10+","altim":1013.6,"qcField":6,"metarType":"METAR","rawOb":"METAR KBVU 150035Z AUTO 00000KT 10SM CLR 23/M06 A2993 RMK AO2","lat":35.9489,"lon":-114.8633,"elev":654,"name":"Boulder City Muni, NV, US","cover":"CLR","clouds":[],"fltCat":"VFR"},{"icaoId":"KSEZ","receiptTime":"2026-04-15T00:40:20.567Z","obsTime":1776213300,"reportTime":"2026-04-15T00:35:00.000Z","temp":16,"dewp":-3,"wdir":0,"wspd":0,"visib":"10+","altim":1016.7,"qcField":6,"metarType":"METAR","rawOb":"METAR KSEZ 150035Z AUTO 00000KT 10SM CLR 16/M03 A3002 RMK AO2","lat":34.8467,"lon":-111.7884,"elev":1455,"name":"Sedona Arpt, AZ, US","cover":"CLR","clouds":[],"fltCat":"VFR"},{"icaoId":"KHTH","receiptTime":"2026-04-15T00:40:23.944Z","obsTime":1776213300,"reportTime":"2026-04-15T00:35:00.000Z","temp":19,"dewp":-9,"wdir":330,"wspd":11,"visib":"10+","altim":1016,"qcField":6,"metarType":"METAR","rawOb":"METAR KHTH 150035Z AUTO 33011KT 10SM CLR 19/M09 A3000 RMK A01","lat":38.5448,"lon":-118.6314,"elev":1281,"name":"Hawthorne Muni, NV, US","cover":"CLR","clouds":[],"fltCat":"VFR"},{"icaoId":"KCXP","receiptTime":"2026-04-15T00:40:11.795Z","obsTime":1776213300,"reportTime":"2026-04-15T00:35:00.000Z","temp":14,"dewp":-3,"wdir":260,"wspd":8,"wgst":15,"visib":"10+","altim":1018.4,"qcField":6,"metarType":"METAR","rawOb":"METAR KCXP 150035Z AUTO 26008G15KT 10SM CLR 14/M03 A3007 RMK AO2","lat":39.1905,"lon":-119.7319,"elev":1431,"name":"Carson City Arpt, NV, US","cover":"CLR","clouds":[],"fltCat":"VFR"},{"icaoId":"KCOE","receiptTime":"2026-04-15T00:38:26.907Z","obsTime":1776213300,"reportTime":"2026-04-15T00:35:00.000Z","temp":5,"dewp":2,"wdir":200,"wspd":11,"visib":"10+","altim":1012.3,"qcField":14,"wxString":"-RA","metarType":"SPECI","rawOb":"SPECI KCOE 150035Z AUTO 20011KT 10SM -RA FEW023 BKN034 OVC045 05/02 A2989 RMK AO2 PNO $","lat":47.7719,"lon":-116.8332,"elev":693,"name":"Coeur DAlene Arpt, ID, US","cover":"OVC","clouds":[{"cover":"FEW","base":2300},{"cover":"BKN","base":3400},{"cover":"OVC","base":4500}],"fltCat":"VFR"},{"icaoId":"KHAF","receiptTime":"2026-04-15T00:36:17.735Z","obsTime":1776213300,"reportTime":"2026-04-15T00:35:00.000Z","temp":13,"dewp":10,"wdir":330,"wspd":12,"visib":"10+","altim":1022.1,"qcField":6,"metarType":"METAR","rawOb":"METAR KHAF 150035Z AUTO 33012KT 10SM BKN028 13/10 A3018 RMK AO2","lat":37.5136,"lon":-122.4996,"elev":11,"name":"Half Moon Bay Arpt, CA, US","cover":"BKN","clouds":[{"cover":"BKN","base":2800}],"fltCat":"MVFR"},{"icaoId":"KLRU","receiptTime":"2026-04-15T00:36:18.487Z","obsTime":1776213300,"reportTime":"2026-04-15T00:35:00.000Z","temp":20.6,"dewp":-0.6,"wdir":200,"wspd":12,"wgst":17,"visib":"10+","altim":1013.6,"qcField":6,"metarType":"METAR","rawOb":"METAR KLRU 150035Z AUTO 20012G17KT 10SM OVC120 21/M01 A2993 RMK AO2 T02061006","lat":32.2884,"lon":-106.9131,"elev":1355,"name":"Las Cruces Intl, NM, US","cover":"OVC","clouds":[{"cover":"OVC","base":12000}],"fltCat":"VFR"},{"icaoId":"KSOW","receiptTime":"2026-04-15T00:38:14.673Z","obsTime":1776213300,"reportTime":"2026-04-15T00:35:00.000Z","temp":13,"dewp":-7,"wdir":240,"wspd":9,"visib":"10+","altim":1017.7,"qcField":6,"metarType":"METAR","rawOb":"METAR KSOW 150035Z AUTO 24009KT 10SM CLR 13/M07 A3005 RMK AO2","lat":34.2686,"lon":-110.0019,"elev":1954,"name":"Show Low Muni, AZ, US","cover":"CLR","clouds":[],"fltCat":"VFR"},{"icaoId":"KHCR","receiptTime":"2026-04-15T00:38:39.500Z","obsTime":1776213300,"reportTime":"2026-04-15T00:35:00.000Z","temp":12.2,"dewp":-4.1,"wdir":200,"wspd":3,"visib":"10+","altim":1015,"qcField":14,"metarType":"METAR","rawOb":"METAR KHCR 150035Z AUTO 20003KT 10SM OVC070 12/M04 A2997 RMK AO2 T01221041 $","lat":40.4774,"lon":-111.4329,"elev":1708,"name":"Heber City Muni, UT, US","cover":"OVC","clouds":[{"cover":"OVC","base":7000}],"fltCat":"VFR"},{"icaoId":"KMEV","receiptTime":"2026-04-15T00:40:22.379Z","obsTime":1776213300,"reportTime":"2026-04-15T00:35:00.000Z","temp":14,"dewp":-2,"wdir":280,"wspd":18,"wgst":23,"visib":"10+","altim":1017.7,"qcField":6,"metarType":"METAR","rawOb":"METAR KMEV 150035Z AUTO 28018G23KT 10SM CLR 14/M02 A3005 RMK AO2","lat":38.9963,"lon":-119.75,"elev":1437,"name":"Minden-Tahoe Arpt, NV, US","cover":"CLR","clouds":[],"fltCat":"VFR"},{"icaoId":"KMHR","receiptTime":"2026-04-15T00:40:23.613Z","obsTime":1776213300,"reportTime":"2026-04-15T00:35:00.000Z","temp":20,"dewp":8,"wdir":210,"wspd":8,"visib":"10+","altim":1019,"qcField":6,"metarType":"METAR","rawOb":"METAR KMHR 150035Z AUTO 21008KT 10SM CLR 20/08 A3009 RMK AO2","lat":38.56,"lon":-121.284,"elev":30,"name":"Sacramento/Mather Fld, CA, US","cover":"CLR","clouds":[],"fltCat":"VFR"},{"icaoId":"KHII","receiptTime":"2026-04-15T00:40:28.494Z","obsTime":1776213300,"reportTime":"2026-04-15T00:35:00.000Z","temp":26,"dewp":-2,"wdir":290,"wspd":5,"wgst":12,"visib":"10+","altim":1013,"qcField":6,"metarType":"METAR","rawOb":"METAR KHII 150035Z AUTO 29005G12KT 10SM CLR 26/M02 A2991 RMK AO2","lat":34.5659,"lon":-114.3522,"elev":241,"name":"Lake Havasu City Arpt, AZ, US","cover":"CLR","clouds":[],"fltCat":"VFR"},{"icaoId":"KRTS","receiptTime":"2026-04-15T00:40:20.351Z","obsTime":1776213300,"reportTime":"2026-04-15T00:35:00.000Z","temp":13,"dewp":-2,"wdir":290,"wspd":19,"wgst":24,"visib":"10+","altim":1018.4,"qcField":6,"metarType":"METAR","rawOb":"METAR KRTS 150035Z AUTO 29019G24KT 10SM CLR 13/M02 A3007 RMK AO2","lat":39.6658,"lon":-119.8731,"elev":1537,"name":"Reno/Stead Arpt, NV, US","cover":"CLR","clouds":[],"fltCat":"VFR"},{"icaoId":"KGEG","receiptTime":"2026-04-15T00:32:09.865Z","obsTime":1776212880,"reportTime":"2026-04-15T00:28:00.000Z","temp":5.6,"dewp":2.2,"wdir":200,"wspd":10,"visib":7,"altim":1011.6,"qcField":4,"wxString":"-RA","precip":0.01,"metarType":"SPECI","rawOb":"SPECI KGEG 150028Z 20010KT 7SM -RA BKN023 OVC038 06/02 A2987 RMK AO2 RAB07 P0001 T00560022","lat":47.6217,"lon":-117.528,"elev":718,"name":"Spokane Intl, WA, US","cover":"OVC","clouds":[{"cover":"BKN","base":2300},{"cover":"OVC","base":3800}],"fltCat":"MVFR"},{"icaoId":"KSWO","receiptTime":"2026-04-15T00:28:05.409Z","obsTime":1776212640,"reportTime":"2026-04-15T00:24:00.000Z","temp":23.9,"dewp":20,"wdir":180,"wspd":15,"wgst":22,"visib":"10+","altim":1009.2,"qcField":4,"metarType":"SPECI","rawOb":"SPECI KSWO 150024Z 18015G22KT 10SM SCT026 BKN120 24/20 A2980 RMK AO2 PK WND 18031/2358 T02390200","lat":36.1624,"lon":-97.0832,"elev":293,"name":"Stillwater Muni, OK, US","cover":"BKN","clouds":[{"cover":"SCT","base":2600},{"cover":"BKN","base":12000}],"fltCat":"VFR"},{"icaoId":"KOLM","receiptTime":"2026-04-15T00:24:07.871Z","obsTime":1776212460,"reportTime":"2026-04-15T00:21:00.000Z","temp":8.3,"dewp":6.7,"wdir":190,"wspd":14,"wgst":20,"visib":4,"altim":1011.3,"qcField":4,"wxString":"-RA BR","precip":0.06,"metarType":"SPECI","rawOb":"SPECI KOLM 150021Z 19014G20KT 4SM -RA BR BKN016 OVC023 08/07 A2986 RMK AO2 P0006 T00830067","lat":46.9737,"lon":-122.9049,"elev":58,"name":"Olympia Rgnl, WA, US","cover":"OVC","clouds":[{"cover":"BKN","base":1600},{"cover":"OVC","base":2300}],"fltCat":"MVFR"},{"icaoId":"KMKE","receiptTime":"2026-04-15T00:24:06.903Z","obsTime":1776212400,"reportTime":"2026-04-15T00:20:00.000Z","temp":17.8,"dewp":13.9,"wdir":310,"wspd":17,"wgst":25,"visib":"10+","altim":1004.8,"qcField":4,"wxString":"TS","metarType":"SPECI","rawOb":"SPECI KMKE 150020Z 31017G25KT 10SM TS SCT045CB BKN060 OVC070 18/14 A2967 RMK AO2 WSHFT 0005 PRESRR FRQ LTGCGICCC OHD TS OHD MOV NE CONS LTG DSNT N-NE AND W-NW T01780139","lat":42.9549,"lon":-87.9045,"elev":203,"name":"Milwaukee/Mitchell Intl, WI, US","cover":"OVC","clouds":[{"cover":"SCT","base":4500},{"cover":"BKN","base":6000},{"cover":"OVC","base":7000}],"fltCat":"VFR"},{"icaoId":"KSYR","receiptTime":"2026-04-15T00:22:06.308Z","obsTime":1776212340,"reportTime":"2026-04-15T00:19:00.000Z","temp":18.3,"dewp":10.6,"wdir":310,"wspd":16,"visib":"10+","altim":1009.9,"qcField":4,"metarType":"SPECI","rawOb":"SPECI KSYR 150019Z 31016KT 10SM FEW070 SCT100 BKN200 18/11 A2982 RMK AO2 PK WND 26029/2359 WSHFT 2359 T01830106","lat":43.1111,"lon":-76.1038,"elev":125,"name":"Syracuse/Hancock Intl, NY, US","cover":"BKN","clouds":[{"cover":"FEW","base":7000},{"cover":"SCT","base":10000},{"cover":"BKN","base":20000}],"fltCat":"VFR"},{"icaoId":"KAST","receiptTime":"2026-04-15T00:22:03.548Z","obsTime":1776212280,"reportTime":"2026-04-15T00:18:00.000Z","temp":9.4,"dewp":7.8,"wdir":220,"wspd":11,"wgst":27,"visib":3,"altim":1013.3,"qcField":6,"wxString":"-RA BR","precip":0.03,"metarType":"SPECI","rawOb":"SPECI KAST 150018Z AUTO 22011G27KT 3SM -RA BR FEW010 BKN015 OVC030 09/08 A2992 RMK AO2 PK WND 21027/0006 P0003 T00940078","lat":46.157,"lon":-123.8833,"elev":3,"name":"Astoria Rgnl, OR, US","cover":"OVC","clouds":[{"cover":"FEW","base":1000},{"cover":"BKN","base":1500},{"cover":"OVC","base":3000}],"fltCat":"MVFR"},{"icaoId":"KEUG","receiptTime":"2026-04-15T00:08:15.741Z","obsTime":1776211500,"reportTime":"2026-04-15T00:05:00.000Z","temp":9.4,"dewp":7.2,"wdir":180,"wspd":12,"visib":9,"altim":1019.4,"qcField":4,"metarType":"SPECI","rawOb":"SPECI KEUG 150005Z 18012KT 9SM SCT019 BKN026 OVC036 09/07 A3010 RMK AO2 T00940072","lat":44.1331,"lon":-123.2156,"elev":109,"name":"Eugene/Mahlon Sweet Fld, OR, US","cover":"OVC","clouds":[{"cover":"SCT","base":1900},{"cover":"BKN","base":2600},{"cover":"OVC","base":3600}],"fltCat":"MVFR"},{"icaoId":"KMLC","receiptTime":"2026-04-15T00:04:05.055Z","obsTime":1776211200,"reportTime":"2026-04-15T00:00:00.000Z","temp":22.8,"dewp":19.4,"wdir":180,"wspd":7,"visib":"10+","altim":1013.3,"qcField":6,"metarType":"SPECI","rawOb":"SPECI KMLC 150000Z AUTO 18007KT 10SM SCT021 BKN032 OVC041 23/19 A2992 RMK AO2 T02280194","lat":34.8824,"lon":-95.7815,"elev":231,"name":"McAlester Rgnl, OK, US","cover":"OVC","clouds":[{"cover":"SCT","base":2100},{"cover":"BKN","base":3200},{"cover":"OVC","base":4100}],"fltCat":"VFR"},{"icaoId":"KNYL","receiptTime":"2026-04-15T00:00:29.412Z","obsTime":1776211020,"reportTime":"2026-04-15T00:00:00.000Z","temp":26.1,"dewp":1.1,"wdir":270,"wspd":5,"visib":"10+","altim":1013.3,"slp":1012.9,"qcField":4,"presTend":-2.4,"maxT":26.7,"minT":21.7,"metarType":"METAR","rawOb":"METAR KNYL 142357Z 27005KT 10SM CLR 26/01 A2992 RMK AO2 SLP129 T02610011 10267 20217 56024","lat":32.66,"lon":-114.6078,"elev":58,"name":"Yuma , AZ, US","cover":"CLR","clouds":[],"fltCat":"VFR"},{"icaoId":"KNFL","receiptTime":"2026-04-15T00:00:26.560Z","obsTime":1776211020,"reportTime":"2026-04-15T00:00:00.000Z","temp":18.9,"dewp":-7.8,"wdir":280,"wspd":10,"visib":"10+","altim":1015.7,"slp":1012.6,"qcField":4,"presTend":-2,"maxT":19.4,"minT":12.8,"metarType":"METAR","rawOb":"METAR KNFL 142357Z 28010KT 10SM FEW200 SCT250 19/M08 A2999 RMK AO2 SLP126 T01891078 10194 20128 56020","lat":39.417,"lon":-118.705,"elev":1199,"name":"Fallon , NV, US","cover":"SCT","clouds":[{"cover":"FEW","base":20000},{"cover":"SCT","base":25000}],"fltCat":"VFR"},{"icaoId":"KFLG","receiptTime":"2026-04-15T00:00:31.275Z","obsTime":1776211020,"reportTime":"2026-04-15T00:00:00.000Z","temp":8.3,"dewp":-3.9,"wdir":"VRB","wspd":4,"visib":"10+","altim":1018.4,"slp":1014.9,"qcField":4,"presTend":-0.8,"maxT":10,"minT":4.4,"metarType":"METAR","rawOb":"METAR KFLG 142357Z VRB04KT 10SM CLR 08/M04 A3007 RMK AO2 SLP149 T00831039 10100 20044 56008","lat":35.1443,"lon":-111.6664,"elev":2134,"name":"Flagstaff/Pulliam Arpt, AZ, US","cover":"CLR","clouds":[],"fltCat":"VFR"},{"icaoId":"KSDF","receiptTime":"2026-04-15T00:00:22.589Z","obsTime":1776210960,"reportTime":"2026-04-15T00:00:00.000Z","temp":26.7,"dewp":16.1,"wdir":200,"wspd":12,"wgst":21,"visib":"10+","altim":1014.3,"slp":1013.8,"qcField":4,"presTend":-0.8,"maxT":29.4,"minT":26.7,"metarType":"METAR","rawOb":"METAR KSDF 142356Z 20012G21KT 10SM FEW050 27/16 A2995 RMK AO2 PK WND 20027/2302 SLP138 T02670161 10294 20267 56008","lat":38.1774,"lon":-85.7308,"elev":146,"name":"Louisville Intl, KY, US","cover":"FEW","clouds":[{"cover":"FEW","base":5000}],"fltCat":"VFR"},{"icaoId":"KEGE","receiptTime":"2026-04-14T23:58:44.077Z","obsTime":1776210960,"reportTime":"2026-04-15T00:00:00.000Z","temp":5.6,"dewp":-1.7,"wdir":220,"wspd":17,"wgst":25,"visib":"10+","altim":1016,"slp":1014.2,"qcField":4,"presTend":0.9,"maxT":10,"minT":4.4,"pcp6hr":0.005,"metarType":"METAR","rawOb":"METAR KEGE 142356Z 22017G25KT 10SM FEW055 06/M02 A3000 RMK AO2 PK WND 23031/2332 SLP142 60000 T00561017 10100 20044 53009","lat":39.6448,"lon":-106.9176,"elev":1993,"name":"Eagle Cnty Rgnl, CO, US","cover":"FEW","clouds":[{"cover":"FEW","base":5500}],"fltCat":"VFR"},{"icaoId":"KLAS","receiptTime":"2026-04-15T00:00:23.639Z","obsTime":1776210960,"reportTime":"2026-04-15T00:00:00.000Z","temp":23.3,"dewp":-4.4,"wdir":"VRB","wspd":3,"visib":"10+","altim":1014.3,"slp":1012.7,"qcField":4,"presTend":-1.9,"maxT":23.9,"minT":18.9,"metarType":"METAR","rawOb":"METAR KLAS 142356Z VRB03KT 10SM FEW100 FEW250 23/M04 A2995 RMK AO2 SLP127 T02331044 10239 20189 56019","lat":36.0719,"lon":-115.1634,"elev":662,"name":"Las Vegas/Reid Intl, NV, US","cover":"FEW","clouds":[{"cover":"FEW","base":10000},{"cover":"FEW","base":25000}],"fltCat":"VFR"},{"icaoId":"KLWS","receiptTime":"2026-04-15T00:00:23.654Z","obsTime":1776210960,"reportTime":"2026-04-15T00:00:00.000Z","temp":12.8,"dewp":0.6,"wdir":"VRB","wspd":6,"visib":"10+","altim":1012.3,"slp":1012.6,"qcField":4,"presTend":-0.9,"maxT":13.9,"minT":10.6,"metarType":"METAR","rawOb":"METAR KLWS 142356Z VRB06KT 10SM FEW060 BKN080 OVC095 13/01 A2989 RMK AO2 SLP126 T01280006 10139 20106 56009","lat":46.3746,"lon":-117.0153,"elev":435,"name":"Lewiston/Nez Perce Cnty, ID, US","cover":"OVC","clouds":[{"cover":"FEW","base":6000},{"cover":"BKN","base":8000},{"cover":"OVC","base":9500}],"fltCat":"VFR"},{"icaoId":"KDUG","receiptTime":"2026-04-15T00:02:04.097Z","obsTime":1776210960,"reportTime":"2026-04-15T00:00:00.000Z","temp":23.9,"dewp":-13.3,"wdir":270,"wspd":17,"wgst":25,"visib":"10+","altim":1014.3,"slp":1008.9,"qcField":38,"presTend":-1,"maxT":25.6,"minT":18.9,"metarType":"METAR","rawOb":"METAR KDUG 142356Z AUTO 27017G25KT 10SM CLR 24/M13 A2995 RMK AO2 PK WND 27029/2317 SLP089 T02391133 10256 20189 55010 TSNO","lat":31.4725,"lon":-109.6022,"elev":1260,"name":"Douglas/Bisbee Intl, AZ, US","cover":"CLR","clouds":[],"fltCat":"VFR"},{"icaoId":"KCGZ","receiptTime":"2026-04-14T23:58:43.889Z","obsTime":1776210960,"reportTime":"2026-04-15T00:00:00.000Z","temp":23.9,"dewp":-5,"wdir":270,"wspd":10,"visib":"10+","altim":1014,"slp":1013.2,"qcField":14,"maxT":24.4,"minT":20.6,"metarType":"METAR","rawOb":"METAR KCGZ 142356Z AUTO 27010KT 10SM CLR 24/M05 A2994 RMK AO2 SLP132 6//// T02391050 10244 20206 $","lat":32.9531,"lon":-111.7725,"elev":444,"name":"Casa Granda Muni, AZ, US","cover":"CLR","clouds":[],"fltCat":"VFR"},{"icaoId":"KHDN","receiptTime":"2026-04-14T23:58:32.219Z","obsTime":1776210960,"reportTime":"2026-04-15T00:00:00.000Z","temp":3.9,"dewp":0.6,"wdir":260,"wspd":8,"visib":"10+","altim":1015.7,"slp":1015.3,"qcField":6,"presTend":0.6,"maxT":6.1,"minT":1.1,"pcp6hr":0.02,"metarType":"METAR","rawOb":"METAR KHDN 142356Z AUTO 26008KT 10SM OVC065 04/01 A2999 RMK AO2 SLP153 60002 T00390006 10061 20011 51006","lat":40.4842,"lon":-107.2296,"elev":2012,"name":"Hayden/Yampa Valley Arpt, CO, US","cover":"OVC","clouds":[{"cover":"OVC","base":6500}],"fltCat":"VFR"},{"icaoId":"KGUC","receiptTime":"2026-04-14T23:58:31.967Z","obsTime":1776210960,"reportTime":"2026-04-15T00:00:00.000Z","temp":4.4,"dewp":-3.9,"wdir":230,"wspd":6,"visib":"10+","altim":1016,"slp":1014.5,"qcField":14,"presTend":1,"maxT":7.2,"minT":1.7,"pcp6hr":0.01,"metarType":"METAR","rawOb":"METAR KGUC 142356Z AUTO 23006KT 10SM BKN060 BKN080 04/M04 A3000 RMK AO2 SLP145 60001 T00441039 10072 20017 51010 $","lat":38.5322,"lon":-106.9419,"elev":2337,"name":"Gunnison Arpt, CO, US","cover":"BKN","clouds":[{"cover":"BKN","base":6000},{"cover":"BKN","base":8000}],"fltCat":"VFR"},{"icaoId":"KJAC","receiptTime":"2026-04-14T23:58:40.109Z","obsTime":1776210960,"reportTime":"2026-04-15T00:00:00.000Z","temp":5,"dewp":-3.3,"wdir":210,"wspd":9,"visib":"10+","altim":1015,"slp":1016.5,"qcField":4,"maxT":7.8,"minT":4.4,"metarType":"METAR","rawOb":"METAR KJAC 142356Z 21009KT 10SM SCT050 OVC070 05/M03 A2997 RMK AO2 SLP165 T00501033 10078 20044 55000","lat":43.6129,"lon":-110.7366,"elev":1967,"name":"Jackson Hole Arpt, WY, US","cover":"OVC","clouds":[{"cover":"SCT","base":5000},{"cover":"OVC","base":7000}],"fltCat":"VFR"},{"icaoId":"KSGU","receiptTime":"2026-04-14T23:58:42.819Z","obsTime":1776210960,"reportTime":"2026-04-15T00:00:00.000Z","temp":18.9,"dewp":1.7,"wdir":170,"wspd":3,"visib":"10+","altim":1015.3,"slp":1014.1,"qcField":6,"presTend":-1.6,"maxT":20,"minT":12.2,"metarType":"METAR","rawOb":"METAR KSGU 142356Z AUTO 17003KT 10SM CLR 19/02 A2998 RMK AO2 SLP141 T01890017 10200 20122 56016","lat":37.0444,"lon":-113.5034,"elev":877,"name":"Saint George Muni, UT, US","cover":"CLR","clouds":[],"fltCat":"VFR"},{"icaoId":"KCOD","receiptTime":"2026-04-14T23:58:43.937Z","obsTime":1776210960,"reportTime":"2026-04-15T00:00:00.000Z","temp":12.8,"dewp":-6.7,"wdir":280,"wspd":18,"wgst":28,"visib":"10+","altim":1009.6,"slp":1008.1,"qcField":14,"presTend":0.4,"maxT":16.1,"minT":12.8,"metarType":"METAR","rawOb":"METAR KCOD 142356Z AUTO 28018G28KT 10SM CLR 13/M07 A2981 RMK AO2 PK WND 26028/2347 SLP081 T01281067 10161 20128 53004 $","lat":44.52,"lon":-109.0268,"elev":1550,"name":"Cody/Yellowstone Rgnl, WY, US","cover":"CLR","clouds":[],"fltCat":"VFR"},{"icaoId":"KENV","receiptTime":"2026-04-14T23:58:44.134Z","obsTime":1776210960,"reportTime":"2026-04-15T00:00:00.000Z","temp":16.1,"dewp":-6.1,"wdir":170,"wspd":4,"visib":"10+","altim":1015.3,"slp":1014.4,"qcField":6,"presTend":-1,"maxT":17.2,"minT":12.2,"metarType":"METAR","rawOb":"METAR KENV 142356Z AUTO 17004KT 10SM FEW095 16/M06 A2998 RMK AO2 SLP144 T01611061 10172 20122 56010","lat":40.7211,"lon":-114.0312,"elev":1291,"name":"Wendover Arpt, UT, US","cover":"FEW","clouds":[{"cover":"FEW","base":9500}],"fltCat":"VFR"},{"icaoId":"KFNL","receiptTime":"2026-04-14T23:58:44.238Z","obsTime":1776210960,"reportTime":"2026-04-15T00:00:00.000Z","temp":11.7,"dewp":-1.7,"wdir":290,"wspd":8,"visib":"10+","altim":1011.3,"slp":1007.9,"qcField":14,"presTend":0.2,"maxT":15.6,"minT":11.7,"metarType":"METAR","rawOb":"METAR KFNL 142356Z AUTO 29008KT 10SM OVC060 12/M02 A2986 RMK AO2 SLP079 T01171017 10156 20117 53002 $","lat":40.4427,"lon":-105.0097,"elev":1529,"name":"Fort Collins/N Colorado Rgnl, CO, US","cover":"OVC","clouds":[{"cover":"OVC","base":6000}],"fltCat":"VFR"},{"icaoId":"KUKI","receiptTime":"2026-04-15T00:00:22.804Z","obsTime":1776210960,"reportTime":"2026-04-15T00:00:00.000Z","temp":18.9,"dewp":7.2,"wdir":340,"wspd":14,"wgst":21,"visib":"10+","altim":1019.4,"slp":1018.8,"qcField":6,"presTend":-1.6,"maxT":20,"minT":11.1,"metarType":"METAR","rawOb":"METAR KUKI 142356Z AUTO 34014G21KT 10SM CLR 19/07 A3010 RMK AO2 SLP188 T01890072 10200 20111 56016","lat":39.1278,"lon":-123.2001,"elev":183,"name":"Ukiah Muni, CA, US","cover":"CLR","clouds":[],"fltCat":"VFR"},{"icaoId":"KCEC","receiptTime":"2026-04-15T00:00:22.876Z","obsTime":1776210960,"reportTime":"2026-04-15T00:00:00.000Z","temp":12.2,"dewp":6.1,"wdir":230,"wspd":7,"visib":"10+","altim":1023.1,"slp":1023.2,"qcField":6,"presTend":-1.1,"maxT":13.9,"minT":11.7,"metarType":"METAR","rawOb":"METAR KCEC 142356Z AUTO 23007KT 10SM OVC041 12/06 A3021 RMK AO2 SLP232 T01220061 10139 20117 57011","lat":41.7836,"lon":-124.238,"elev":17,"name":"Crescent City/McNama, CA, US","cover":"OVC","clouds":[{"cover":"OVC","base":4100}],"fltCat":"VFR"},{"icaoId":"KJAX","receiptTime":"2026-04-15T00:00:23.112Z","obsTime":1776210960,"reportTime":"2026-04-15T00:00:00.000Z","temp":22.8,"dewp":13.3,"wdir":130,"wspd":8,"visib":"10+","altim":1021.1,"slp":1021,"qcField":12,"presTend":-0.3,"maxT":30,"minT":22.8,"metarType":"METAR","rawOb":"METAR KJAX 142356Z 13008KT 10SM FEW060 23/13 A3015 RMK AO2 SLP210 T02280133 10300 20228 55003 $","lat":30.4953,"lon":-81.6937,"elev":8,"name":"Jacksonville Intl, FL, US","cover":"FEW","clouds":[{"cover":"FEW","base":6000}],"fltCat":"VFR"},{"icaoId":"KVIS","receiptTime":"2026-04-14T23:58:43.009Z","obsTime":1776210960,"reportTime":"2026-04-15T00:00:00.000Z","temp":23.3,"dewp":5.6,"wdir":300,"wspd":7,"visib":"10+","altim":1018.4,"slp":1018.3,"qcField":14,"presTend":-2.2,"maxT":23.3,"minT":17.8,"metarType":"METAR","rawOb":"METAR KVIS 142356Z AUTO 30007KT 10SM CLR 23/06 A3007 RMK AO2 SLP183 6//// T02330056 10233 20178 56022 PNO $","lat":36.3135,"lon":-119.3884,"elev":92,"name":"Visalia Muni, CA, US","cover":"CLR","clouds":[],"fltCat":"VFR"},{"icaoId":"KSDY","receiptTime":"2026-04-14T23:58:42.708Z","obsTime":1776210960,"reportTime":"2026-04-15T00:00:00.000Z","temp":19.4,"dewp":1.1,"wdir":220,"wspd":7,"visib":"10+","altim":1003.8,"slp":1004.3,"qcField":14,"presTend":-1.2,"maxT":20.6,"minT":12.8,"metarType":"METAR","rawOb":"METAR KSDY 142356Z AUTO 22007KT 10SM CLR 19/01 A2964 RMK AO2 SLP043 T01940011 10206 20128 56012 $","lat":47.7029,"lon":-104.1951,"elev":600,"name":"Sidney/Richland Muni, MT, US","cover":"CLR","clouds":[],"fltCat":"VFR"},{"icaoId":"KTPH","receiptTime":"2026-04-15T00:00:22.790Z","obsTime":1776210960,"reportTime":"2026-04-15T00:00:00.000Z","temp":16.1,"dewp":-10.6,"wdir":310,"wspd":11,"wgst":22,"visib":"10+","altim":1017,"slp":1014.8,"qcField":6,"presTend":-1.4,"maxT":16.7,"minT":11.1,"metarType":"METAR","rawOb":"METAR KTPH 142356Z AUTO 31011G22KT 10SM CLR 16/M11 A3003 RMK AO2 SLP148 T01611106 10167 20111 56014","lat":38.0505,"lon":-117.0906,"elev":1647,"name":"Tonopah Arpt, NV, US","cover":"CLR","clouds":[],"fltCat":"VFR"},{"icaoId":"KCHS","receiptTime":"2026-04-15T00:00:12.290Z","obsTime":1776210960,"reportTime":"2026-04-15T00:00:00.000Z","temp":21.7,"dewp":14.4,"wdir":180,"wspd":11,"visib":"10+","altim":1021.1,"slp":1021,"qcField":4,"presTend":0.3,"maxT":29.4,"minT":21.7,"metarType":"METAR","rawOb":"METAR KCHS 142356Z 18011KT 10SM FEW250 22/14 A3015 RMK AO2 SLP210 T02170144 10294 20217 51003","lat":32.8995,"lon":-80.0407,"elev":12,"name":"Charleston Intl, SC, US","cover":"FEW","clouds":[{"cover":"FEW","base":25000}],"fltCat":"VFR"},{"icaoId":"KSBP","receiptTime":"2026-04-15T00:00:23.683Z","obsTime":1776210960,"reportTime":"2026-04-15T00:00:00.000Z","temp":16.7,"dewp":8.9,"wdir":310,"wspd":24,"wgst":31,"visib":"10+","altim":1018.4,"slp":1018.2,"qcField":4,"presTend":-1,"maxT":20.6,"minT":16.7,"metarType":"METAR","rawOb":"METAR KSBP 142356Z 31024G31KT 10SM CLR 17/09 A3007 RMK AO2 PK WND 31032/2313 SLP182 T01670089 10206 20167 56010","lat":35.2381,"lon":-120.644,"elev":52,"name":"San Luis Obispo/San Luis Cnty, CA, US","cover":"CLR","clouds":[],"fltCat":"VFR"},{"icaoId":"KBZN","receiptTime":"2026-04-15T00:00:22.860Z","obsTime":1776210960,"reportTime":"2026-04-15T00:00:00.000Z","temp":15,"dewp":-5,"wdir":240,"wspd":15,"wgst":25,"visib":"10+","altim":1007.5,"slp":1006.4,"qcField":4,"presTend":-1.2,"maxT":15.6,"minT":9.4,"metarType":"METAR","rawOb":"METAR KBZN 142356Z 24015G25KT 10SM SCT090 15/M05 A2975 RMK AO2 PK WND 26027/2344 SLP064 T01501050 10156 20094 56012","lat":45.7876,"lon":-111.1615,"elev":1349,"name":"Bozeman/Gallatin Fld, MT, US","cover":"SCT","clouds":[{"cover":"SCT","base":9000}],"fltCat":"VFR"},{"icaoId":"KEKO","receiptTime":"2026-04-15T00:00:22.916Z","obsTime":1776210960,"reportTime":"2026-04-15T00:00:00.000Z","temp":15,"dewp":-5.6,"wdir":280,"wspd":10,"visib":"10+","altim":1015.7,"slp":1014.5,"qcField":6,"presTend":-1.2,"maxT":15.6,"minT":9.4,"metarType":"METAR","rawOb":"METAR KEKO 142356Z AUTO 28010KT 10SM FEW080 15/M06 A2999 RMK AO2 SLP145 T01501056 10156 20094 56012","lat":40.824,"lon":-115.7863,"elev":1541,"name":"Elko Rgnl, NV, US","cover":"FEW","clouds":[{"cover":"FEW","base":8000}],"fltCat":"VFR"},{"icaoId":"KRDM","receiptTime":"2026-04-15T00:00:23.670Z","obsTime":1776210960,"reportTime":"2026-04-15T00:00:00.000Z","temp":10,"dewp":-3.3,"wdir":0,"wspd":0,"visib":"10+","altim":1014.6,"slp":1015.4,"qcField":4,"presTend":-1.3,"maxT":10,"minT":7.8,"metarType":"METAR","rawOb":"METAR KRDM 142356Z 00000KT 10SM BKN090 10/M03 A2996 RMK AO2 SLP154 T01001033 10100 20078 56013","lat":44.2558,"lon":-121.1407,"elev":930,"name":"Redmond Muni, OR, US","cover":"BKN","clouds":[{"cover":"BKN","base":9000}],"fltCat":"VFR"},{"icaoId":"KSFO","receiptTime":"2026-04-15T00:00:23.701Z","obsTime":1776210960,"reportTime":"2026-04-15T00:00:00.000Z","temp":15,"dewp":6.7,"wdir":290,"wspd":18,"wgst":27,"visib":"10+","altim":1021.8,"slp":1021.5,"qcField":12,"presTend":-1.4,"maxT":16.1,"minT":13.9,"metarType":"METAR","rawOb":"METAR KSFO 142356Z 29018G27KT 10SM FEW027 15/07 A3017 RMK AO2 PK WND 29029/2302 SLP215 T01500067 10161 20139 56014 $","lat":37.6196,"lon":-122.3656,"elev":2,"name":"San Francisco Intl, CA, US","cover":"FEW","clouds":[{"cover":"FEW","base":2700}],"fltCat":"VFR"},{"icaoId":"KPVU","receiptTime":"2026-04-14T23:58:42.592Z","obsTime":1776210960,"reportTime":"2026-04-15T00:00:00.000Z","temp":13.9,"dewp":-2.2,"wdir":320,"wspd":7,"visib":"10+","altim":1015.7,"slp":1014.3,"qcField":4,"presTend":-0.3,"maxT":14.4,"minT":11.7,"metarType":"METAR","rawOb":"METAR KPVU 142356Z 32007KT 10SM SCT070 14/M02 A2999 RMK AO2 SLP143 T01391022 10144 20117 56003","lat":40.224,"lon":-111.7252,"elev":1370,"name":"Provo Muni, UT, US","cover":"SCT","clouds":[{"cover":"SCT","base":7000}],"fltCat":"VFR"},{"icaoId":"KINW","receiptTime":"2026-04-15T00:00:23.543Z","obsTime":1776210960,"reportTime":"2026-04-15T00:00:00.000Z","temp":15.6,"dewp":-2.8,"wdir":320,"wspd":11,"visib":"10+","altim":1016.3,"slp":1013.3,"qcField":6,"presTend":-0.6,"maxT":17.2,"minT":12.8,"metarType":"METAR","rawOb":"METAR KINW 142356Z AUTO 32011KT 10SM OVC095 16/M03 A3001 RMK AO2 SLP133 T01561028 10172 20128 56006","lat":35.0279,"lon":-110.7221,"elev":1492,"name":"Winslow/Lindberg Rgnl, AZ, US","cover":"OVC","clouds":[{"cover":"OVC","base":9500}],"fltCat":"VFR"},{"icaoId":"KSLE","receiptTime":"2026-04-15T00:00:22.778Z","obsTime":1776210960,"reportTime":"2026-04-15T00:00:00.000Z","temp":9.4,"dewp":6.7,"wdir":180,"wspd":14,"wgst":24,"visib":"10+","altim":1017.4,"slp":1017.2,"qcField":4,"wxString":"-RA","presTend":-1.3,"maxT":10,"minT":9.4,"precip":0.01,"pcp6hr":0.05,"metarType":"METAR","rawOb":"METAR KSLE 142356Z 18014G24KT 10SM -RA FEW020 BKN048 OVC055 09/07 A3004 RMK AO2 SLP172 P0001 60005 T00940067 10100 20094 56013","lat":44.9049,"lon":-123.001,"elev":63,"name":"Salem Muni, OR, US","cover":"OVC","clouds":[{"cover":"FEW","base":2000},{"cover":"BKN","base":4800},{"cover":"OVC","base":5500}],"fltCat":"VFR"},{"icaoId":"KHND","receiptTime":"2026-04-14T23:58:39.463Z","obsTime":1776210960,"reportTime":"2026-04-15T00:00:00.000Z","temp":22.8,"dewp":-5,"wdir":"VRB","wspd":3,"visib":"10+","altim":1015,"slp":1015.4,"qcField":12,"presTend":-1.8,"maxT":23.3,"minT":17.8,"metarType":"METAR","rawOb":"METAR KHND 142356Z VRB03KT 10SM CLR 23/M05 A2997 RMK AO2 SLP154 T02281050 10233 20178 56018 $","lat":35.9657,"lon":-115.1343,"elev":740,"name":"Henderson Exec, NV, US","cover":"CLR","clouds":[],"fltCat":"VFR"},{"icaoId":"KPWT","receiptTime":"2026-04-14T23:58:42.633Z","obsTime":1776210960,"reportTime":"2026-04-15T00:00:00.000Z","temp":7.2,"dewp":7.2,"wdir":190,"wspd":14,"wgst":20,"visib":8,"altim":1009.9,"slp":1010.5,"qcField":14,"wxString":"RA","presTend":-1.7,"maxT":7.8,"minT":6.7,"metarType":"METAR","rawOb":"METAR KPWT 142356Z AUTO 19014G20KT 8SM RA BKN006 OVC012 07/07 A2982 RMK AO2 CIG 005V009 SLP105 6//// T00720072 10078 20067 56017 PNO $","lat":47.4942,"lon":-122.7594,"elev":143,"name":"Bremerton Arpt, WA, US","cover":"OVC","clouds":[{"cover":"BKN","base":600},{"cover":"OVC","base":1200}],"fltCat":"IFR"},{"icaoId":"KCMA","receiptTime":"2026-04-14T23:58:43.921Z","obsTime":1776210900,"reportTime":"2026-04-15T00:00:00.000Z","temp":20,"dewp":7.8,"wdir":240,"wspd":10,"visib":"10+","altim":1017.4,"slp":1018,"qcField":4,"presTend":-1.4,"maxT":20.6,"minT":17.8,"metarType":"METAR","rawOb":"METAR KCMA 142355Z 24010KT 10SM CLR 20/08 A3004 RMK AO2 SLP180 T02000078 10206 20178 58014","lat":34.2114,"lon":-119.0876,"elev":20,"name":"Camarillo Arpt, CA, US","cover":"CLR","clouds":[],"fltCat":"VFR"},{"icaoId":"KGPI","receiptTime":"2026-04-14T23:58:42.089Z","obsTime":1776210900,"reportTime":"2026-04-15T00:00:00.000Z","temp":8.9,"dewp":-3.3,"wdir":270,"wspd":10,"visib":"10+","altim":1008.9,"slp":1009.4,"qcField":4,"presTend":-0.5,"maxT":11.7,"minT":8.3,"metarType":"METAR","rawOb":"METAR KGPI 142355Z 27010KT 10SM BKN065 09/M03 A2979 RMK AO2 SLP094 T00891033 10117 20083 55005","lat":48.3041,"lon":-114.2643,"elev":903,"name":"Kalispell/Glacier Park Intl, MT, US","cover":"BKN","clouds":[{"cover":"BKN","base":6500}],"fltCat":"VFR"},{"icaoId":"KRNO","receiptTime":"2026-04-14T23:58:42.234Z","obsTime":1776210900,"reportTime":"2026-04-15T00:00:00.000Z","temp":16.1,"dewp":-4.4,"wdir":290,"wspd":20,"wgst":28,"visib":"10+","altim":1016.7,"slp":1014.8,"qcField":4,"presTend":-1.6,"maxT":17.2,"minT":11.1,"metarType":"METAR","rawOb":"METAR KRNO 142355Z 29020G28KT 10SM FEW065 BKN200 16/M04 A3002 RMK AO2 PK WND 29028/2349 SLP148 T01611044 10172 20111 56016","lat":39.5077,"lon":-119.7683,"elev":1344,"name":"Reno/Tahoe Intl, NV, US","cover":"BKN","clouds":[{"cover":"FEW","base":6500},{"cover":"BKN","base":20000}],"fltCat":"VFR"},{"icaoId":"KEND","receiptTime":"2026-04-15T00:16:03.983Z","obsTime":1776210900,"reportTime":"2026-04-15T00:00:00.000Z","temp":24.6,"dewp":19.6,"wdir":170,"wspd":21,"wgst":26,"visib":"10+","altim":1007.2,"slp":1006,"qcField":12,"presTend":0.1,"maxT":29.8,"minT":24.5,"metarType":"METAR","rawOb":"METAR KEND 142355Z 17021G26KT 10SM BKN100 25/20 A2974 RMK AO2A PK WND 17029/17 LTG DSNT S-SW SLP060 T02460196 10298 20245 53001 $","lat":36.338,"lon":-97.919,"elev":392,"name":"Enid/Vance AFB, OK, US","cover":"BKN","clouds":[{"cover":"BKN","base":10000}],"fltCat":"VFR"},{"icaoId":"KIWA","receiptTime":"2026-04-14T23:58:59.143Z","obsTime":1776210840,"reportTime":"2026-04-15T00:00:00.000Z","temp":24,"dewp":-4,"wdir":350,"wspd":7,"visib":"10+","altim":1014,"qcField":0,"metarType":"METAR","rawOb":"METAR KIWA 142354Z 35007KT 10SM CLR 24/M04 A2994","lat":33.3008,"lon":-111.6437,"elev":420,"name":"Phoenix/Mesa Gateway Arpt, AZ, US","cover":"CLR","clouds":[],"fltCat":"VFR"},{"icaoId":"KIND","receiptTime":"2026-04-14T23:58:11.436Z","obsTime":1776210840,"reportTime":"2026-04-15T00:00:00.000Z","temp":24.4,"dewp":17.8,"wdir":200,"wspd":11,"visib":"10+","altim":1010.9,"slp":1010,"qcField":12,"presTend":-0.5,"maxT":28.3,"minT":23.9,"pcp6hr":0.005,"metarType":"METAR","rawOb":"METAR KIND 142354Z 20011KT 10SM FEW100 FEW250 24/18 A2985 RMK AO2 SLP100 60000 T02440178 10283 20239 58005 $","lat":39.7252,"lon":-86.2816,"elev":242,"name":"Indianapolis Intl, IN, US","cover":"FEW","clouds":[{"cover":"FEW","base":10000},{"cover":"FEW","base":25000}],"fltCat":"VFR"},{"icaoId":"KBUF","receiptTime":"2026-04-14T23:58:17.059Z","obsTime":1776210840,"reportTime":"2026-04-15T00:00:00.000Z","temp":12.8,"dewp":11.1,"wdir":210,"wspd":9,"visib":"10+","altim":1011.9,"slp":1011.7,"qcField":4,"presTend":1.4,"maxT":21.7,"minT":12.8,"metarType":"METAR","rawOb":"METAR KBUF 142354Z 21009KT 10SM FEW095 FEW250 13/11 A2988 RMK AO2 SLP117 T01280111 10217 20128 51014","lat":42.94,"lon":-78.7361,"elev":217,"name":"Buffalo-Niagara Intl, NY, US","cover":"FEW","clouds":[{"cover":"FEW","base":9500},{"cover":"FEW","base":25000}],"fltCat":"VFR"},{"icaoId":"KCOS","receiptTime":"2026-04-14T23:58:17.094Z","obsTime":1776210840,"reportTime":"2026-04-15T00:00:00.000Z","temp":15,"dewp":-12.8,"wdir":200,"wspd":17,"wgst":24,"visib":"10+","altim":1010.2,"slp":1005.6,"qcField":4,"maxT":17.8,"minT":13.3,"metarType":"METAR","rawOb":"METAR KCOS 142354Z 20017G24KT 10SM FEW080 SCT120 15/M13 A2983 RMK AO2 PK WND 23033/2257 SLP056 VIRGA SW-N T01501128 10178 20133 55000","lat":38.8095,"lon":-104.6887,"elev":1886,"name":"Colorado Spring Arpt, CO, US","cover":"SCT","clouds":[{"cover":"FEW","base":8000},{"cover":"SCT","base":12000}],"fltCat":"VFR"},{"icaoId":"KAPC","receiptTime":"2026-04-14T23:58:15.297Z","obsTime":1776210840,"reportTime":"2026-04-15T00:00:00.000Z","temp":16.7,"dewp":7.8,"wdir":240,"wspd":13,"visib":"10+","altim":1020.4,"slp":1019.5,"qcField":4,"presTend":-1.3,"maxT":17.8,"minT":13.9,"metarType":"METAR","rawOb":"METAR KAPC 142354Z 24013KT 10SM CLR 17/08 A3013 RMK AO2 SLP195 T01670078 10178 20139 56013","lat":38.2075,"lon":-122.2804,"elev":5,"name":"Napa Cnty Arpt, CA, US","cover":"CLR","clouds":[],"fltCat":"VFR"},{"icaoId":"KDSM","receiptTime":"2026-04-14T23:58:17.129Z","obsTime":1776210840,"reportTime":"2026-04-15T00:00:00.000Z","temp":27.8,"dewp":12.8,"wdir":220,"wspd":11,"visib":"10+","altim":1002.8,"slp":1001.9,"qcField":4,"presTend":0.2,"maxT":31.1,"minT":27.2,"metarType":"METAR","rawOb":"METAR KDSM 142354Z 22011KT 10SM FEW040 SCT220 OVC250 28/13 A2961 RMK AO2 PK WND 21032/2258 SLP019 CB DSNT NE-E AND DSNT S MOV NE T02780128 10311 20272 53002","lat":41.5339,"lon":-93.6531,"elev":286,"name":"Des Moines Intl, IA, US","cover":"OVC","clouds":[{"cover":"FEW","base":4000},{"cover":"SCT","base":22000},{"cover":"OVC","base":25000}],"fltCat":"VFR"},{"icaoId":"KSLC","receiptTime":"2026-04-14T23:58:15.436Z","obsTime":1776210840,"reportTime":"2026-04-15T00:00:00.000Z","temp":13.9,"dewp":-3.9,"wdir":330,"wspd":5,"visib":"10+","altim":1016,"slp":1014.2,"qcField":12,"presTend":-0.7,"maxT":14.4,"minT":11.1,"metarType":"METAR","rawOb":"METAR KSLC 142354Z 33005KT 10SM FEW060 FEW080 14/M04 A3000 RMK AO2 SLP142 T01391039 10144 20111 56007 $","lat":40.7707,"lon":-111.965,"elev":1286,"name":"Salt Lake City Intl, UT, US","cover":"FEW","clouds":[{"cover":"FEW","base":6000},{"cover":"FEW","base":8000}],"fltCat":"VFR"},{"icaoId":"KRIC","receiptTime":"2026-04-14T23:58:17.402Z","obsTime":1776210840,"reportTime":"2026-04-15T00:00:00.000Z","temp":26.7,"dewp":11.1,"wdir":210,"wspd":9,"visib":"10+","altim":1014.6,"slp":1014.8,"qcField":4,"presTend":-0.3,"maxT":31.7,"minT":26.7,"metarType":"METAR","rawOb":"METAR KRIC 142354Z 21009KT 10SM FEW110 BKN300 27/11 A2996 RMK AO2 SLP148 T02670111 10317 20267 58003","lat":37.5115,"lon":-77.3234,"elev":51,"name":"Richmond Intl, VA, US","cover":"BKN","clouds":[{"cover":"FEW","base":11000},{"cover":"BKN","base":30000}],"fltCat":"VFR"},{"icaoId":"KBOS","receiptTime":"2026-04-14T23:58:11.891Z","obsTime":1776210840,"reportTime":"2026-04-15T00:00:00.000Z","temp":18.9,"dewp":12.2,"wdir":190,"wspd":13,"visib":"10+","altim":1008.2,"slp":1008,"qcField":4,"presTend":-0.2,"maxT":25.6,"minT":15.6,"metarType":"METAR","rawOb":"METAR KBOS 142354Z 19013KT 10SM FEW060 BKN160 BKN250 19/12 A2977 RMK AO2 SLP080 T01890122 10256 20156 55002","lat":42.3606,"lon":-71.0097,"elev":4,"name":"Boston/Logan Intl, MA, US","cover":"BKN","clouds":[{"cover":"FEW","base":6000},{"cover":"BKN","base":16000},{"cover":"BKN","base":25000}],"fltCat":"VFR"},{"icaoId":"KBWI","receiptTime":"2026-04-14T23:58:11.956Z","obsTime":1776210840,"reportTime":"2026-04-15T00:00:00.000Z","temp":27.2,"dewp":13.3,"wdir":0,"wspd":0,"visib":"10+","altim":1012.6,"slp":1012.4,"qcField":4,"presTend":0.1,"maxT":31.1,"minT":27.2,"precip":0.005,"pcp6hr":0.005,"metarType":"METAR","rawOb":"METAR KBWI 142354Z 00000KT 10SM FEW050 SCT090 BKN110 BKN190 27/13 A2990 RMK AO2 RAB15E53 TSB15E35 SLP124 CB DSNT NE MOV E P0000 60000 T02720133 10311 20272 53001","lat":39.1733,"lon":-76.684,"elev":42,"name":"Baltimore-Washington Intl, MD, US","cover":"BKN","clouds":[{"cover":"FEW","base":5000},{"cover":"SCT","base":9000},{"cover":"BKN","base":11000},{"cover":"BKN","base":19000}],"fltCat":"VFR"},{"icaoId":"KSJN","receiptTime":"2026-04-14T23:58:09.001Z","obsTime":1776210840,"reportTime":"2026-04-15T00:00:00.000Z","temp":15.6,"dewp":-8.3,"wdir":280,"wspd":19,"wgst":23,"visib":"10+","altim":1015.7,"slp":1010.4,"qcField":6,"presTend":-0.9,"maxT":16.1,"minT":11.7,"metarType":"METAR","rawOb":"METAR KSJN 142354Z AUTO 28019G23KT 10SM SCT095 16/M08 A2999 RMK AO2 PK WND 29027/2336 SLP104 T01561083 10161 20117 56009","lat":34.5184,"lon":-109.3801,"elev":1747,"name":"St Johns Ind Arpt, AZ, US","cover":"SCT","clouds":[{"cover":"SCT","base":9500}],"fltCat":"VFR"},{"icaoId":"KPHL","receiptTime":"2026-04-14T23:58:10.132Z","obsTime":1776210840,"reportTime":"2026-04-15T00:00:00.000Z","temp":27.8,"dewp":12.2,"wdir":220,"wspd":10,"visib":"10+","altim":1011.6,"slp":1011.5,"qcField":12,"presTend":-0.1,"maxT":31.1,"minT":27.8,"metarType":"METAR","rawOb":"METAR KPHL 142354Z 22010KT 10SM FEW060 FEW090 SCT190 BKN240 28/12 A2987 RMK AO2 SLP115 T02780122 10311 20278 55001 $","lat":39.8733,"lon":-75.2268,"elev":2,"name":"Philadelphia Intl, PA, US","cover":"BKN","clouds":[{"cover":"FEW","base":6000},{"cover":"FEW","base":9000},{"cover":"SCT","base":19000},{"cover":"BKN","base":24000}],"fltCat":"VFR"},{"icaoId":"KMEM","receiptTime":"2026-04-14T23:58:07.591Z","obsTime":1776210840,"reportTime":"2026-04-15T00:00:00.000Z","temp":26.7,"dewp":15,"wdir":190,"wspd":10,"visib":"10+","altim":1016.3,"slp":1015.7,"qcField":12,"presTend":-0.9,"maxT":28.3,"minT":26.7,"metarType":"METAR","rawOb":"METAR KMEM 142354Z 19010KT 10SM BKN250 27/15 A3001 RMK AO2 SLP157 T02670150 10283 20267 56009 $","lat":35.0564,"lon":-89.9864,"elev":78,"name":"Memphis Intl, TN, US","cover":"BKN","clouds":[{"cover":"BKN","base":25000}],"fltCat":"VFR"},{"icaoId":"KGCN","receiptTime":"2026-04-14T23:58:15.344Z","obsTime":1776210840,"reportTime":"2026-04-15T00:00:00.000Z","temp":10.6,"dewp":-4.4,"wdir":360,"wspd":5,"visib":"10+","altim":1018.4,"slp":1015.2,"qcField":4,"presTend":-0.6,"maxT":11.1,"minT":5,"metarType":"METAR","rawOb":"METAR KGCN 142354Z 36005KT 10SM BKN060 BKN080 11/M04 A3007 RMK AO2 SLP152 T01061044 10111 20050 55006","lat":35.9458,"lon":-112.1554,"elev":1993,"name":"Grand Canyon Park Arpt, AZ, US","cover":"BKN","clouds":[{"cover":"BKN","base":6000},{"cover":"BKN","base":8000}],"fltCat":"VFR"},{"icaoId":"KFFZ","receiptTime":"2026-04-14T23:58:04.514Z","obsTime":1776210840,"reportTime":"2026-04-15T00:00:00.000Z","temp":24.4,"dewp":-3.9,"wdir":240,"wspd":6,"visib":"10+","altim":1013.3,"slp":1011.6,"qcField":4,"presTend":-1.9,"maxT":24.4,"minT":20,"metarType":"METAR","rawOb":"METAR KFFZ 142354Z 24006KT 10SM CLR 24/M04 A2992 RMK AO2 SLP116 T02441039 10244 20200 56019","lat":33.4659,"lon":-111.7212,"elev":420,"name":"Mesa/Falcon Fld, AZ, US","cover":"CLR","clouds":[],"fltCat":"VFR"},{"icaoId":"KOLS","receiptTime":"2026-04-14T23:58:15.420Z","obsTime":1776210840,"reportTime":"2026-04-15T00:00:00.000Z","temp":22.8,"dewp":-1.7,"wdir":270,"wspd":11,"wgst":20,"visib":"10+","altim":1015,"slp":1010.2,"qcField":6,"presTend":-1.2,"maxT":22.8,"minT":18.3,"metarType":"METAR","rawOb":"METAR KOLS 142354Z AUTO 27011G20KT 10SM CLR 23/M02 A2997 RMK AO2 SLP102 T02281017 10228 20183 56012","lat":31.4208,"lon":-110.8465,"elev":1194,"name":"Nogales Intl, AZ, US","cover":"CLR","clouds":[],"fltCat":"VFR"},{"icaoId":"KBFL","receiptTime":"2026-04-14T23:58:15.312Z","obsTime":1776210840,"reportTime":"2026-04-15T00:00:00.000Z","temp":22.2,"dewp":3.9,"wdir":290,"wspd":6,"wgst":15,"visib":"10+","altim":1017.7,"slp":1017.2,"qcField":4,"presTend":-2.2,"maxT":23.3,"minT":17.2,"metarType":"METAR","rawOb":"METAR KBFL 142354Z 29006G15KT 10SM CLR 22/04 A3005 RMK AO2 SLP172 T02220039 10233 20172 56022","lat":35.4342,"lon":-119.0552,"elev":146,"name":"Bakersfield/Meadows Arpt, CA, US","cover":"CLR","clouds":[],"fltCat":"VFR"},{"icaoId":"KROC","receiptTime":"2026-04-14T23:58:17.443Z","obsTime":1776210840,"reportTime":"2026-04-15T00:00:00.000Z","temp":21.1,"dewp":12.8,"wdir":270,"wspd":16,"wgst":23,"visib":"10+","altim":1010.9,"slp":1010.8,"qcField":12,"presTend":2.1,"maxT":25,"minT":21.1,"pcp6hr":0.005,"metarType":"METAR","rawOb":"METAR KROC 142354Z 27016G23KT 10SM FEW030 FEW100 SCT180 21/13 A2985 RMK AO2 PK WND 27026/2255 SLP108 60000 T02110128 10250 20211 51021 $","lat":43.1172,"lon":-77.6754,"elev":166,"name":"Rochester Intl Arpt, NY, US","cover":"SCT","clouds":[{"cover":"FEW","base":3000},{"cover":"FEW","base":10000},{"cover":"SCT","base":18000}],"fltCat":"VFR"},{"icaoId":"KBTV","receiptTime":"2026-04-14T23:58:17.041Z","obsTime":1776210840,"reportTime":"2026-04-15T00:00:00.000Z","temp":12.2,"dewp":11.1,"wdir":330,"wspd":11,"visib":5,"altim":1008.2,"slp":1008.2,"qcField":4,"wxString":"BR","presTend":1.3,"maxT":13.9,"minT":10.6,"precip":0.01,"pcp6hr":0.54,"metarType":"METAR","rawOb":"METAR KBTV 142354Z 33011KT 5SM BR OVC002 12/11 A2977 RMK AO2 RAB33E54 SLP082 P0001 60054 T01220111 10139 20106 53013","lat":44.4682,"lon":-73.1499,"elev":101,"name":"Burlington Intl, VT, US","cover":"OVC","clouds":[{"cover":"OVC","base":200}],"fltCat":"LIFR"},{"icaoId":"KGSO","receiptTime":"2026-04-14T23:58:17.162Z","obsTime":1776210840,"reportTime":"2026-04-15T00:00:00.000Z","temp":25,"dewp":9.4,"wdir":230,"wspd":7,"visib":"10+","altim":1018,"slp":1017.1,"qcField":4,"presTend":-0.5,"maxT":29.4,"minT":25,"metarType":"METAR","rawOb":"METAR KGSO 142354Z 23007KT 10SM FEW100 BKN250 25/09 A3006 RMK AO2 SLP171 T02500094 10294 20250 58005","lat":36.0969,"lon":-79.9432,"elev":275,"name":"Greensboro Intl, NC, US","cover":"BKN","clouds":[{"cover":"FEW","base":10000},{"cover":"BKN","base":25000}],"fltCat":"VFR"},{"icaoId":"KRKS","receiptTime":"2026-04-14T23:58:09.889Z","obsTime":1776210840,"reportTime":"2026-04-15T00:00:00.000Z","temp":12.2,"dewp":-9.4,"wdir":280,"wspd":18,"wgst":28,"visib":"10+","altim":1012.3,"slp":1009.3,"qcField":6,"presTend":-0.2,"maxT":13.3,"minT":6.7,"metarType":"METAR","rawOb":"METAR KRKS 142354Z AUTO 28018G28KT 10SM CLR 12/M09 A2989 RMK AO2 PK WND 26030/2314 SLP093 T01221094 10133 20067 55002","lat":41.5947,"lon":-109.0529,"elev":2062,"name":"Rock Springs/SW Wyoming Rgnl, WY, US","cover":"CLR","clouds":[],"fltCat":"VFR"},{"icaoId":"KVEL","receiptTime":"2026-04-14T23:56:34.092Z","obsTime":1776210780,"reportTime":"2026-04-15T00:00:00.000Z","temp":8.9,"dewp":1.1,"wdir":180,"wspd":8,"visib":"10+","altim":1014.6,"slp":1013,"qcField":6,"presTend":-0.3,"maxT":8.9,"minT":6.1,"metarType":"METAR","rawOb":"METAR KVEL 142353Z AUTO 18008KT 10SM SCT034 BKN042 09/01 A2996 RMK AO2 SLP130 T00890011 10089 20061 55003","lat":40.4429,"lon":-109.5128,"elev":1604,"name":"Vernal Rgnl, UT, US","cover":"BKN","clouds":[{"cover":"SCT","base":3400},{"cover":"BKN","base":4200}],"fltCat":"VFR"},{"icaoId":"KBCE","receiptTime":"2026-04-14T23:56:30.394Z","obsTime":1776210780,"reportTime":"2026-04-15T00:00:00.000Z","temp":6.7,"dewp":-4.4,"wdir":290,"wspd":12,"wgst":21,"visib":"10+","altim":1018.4,"slp":1013.4,"qcField":6,"presTend":0.1,"maxT":7.8,"minT":2.2,"pcp6hr":0.005,"metarType":"METAR","rawOb":"METAR KBCE 142353Z AUTO 29012G21KT 10SM CLR 07/M04 A3007 RMK AO2 PK WND 30027/2310 SLP134 60000 T00671044 10078 20022 53001","lat":37.7013,"lon":-112.149,"elev":2311,"name":"Bryce Canyon Arpt, UT, US","cover":"CLR","clouds":[],"fltCat":"VFR"},{"icaoId":"KEVW","receiptTime":"2026-04-14T23:56:38.244Z","obsTime":1776210780,"reportTime":"2026-04-15T00:00:00.000Z","temp":6.7,"dewp":-5.6,"wdir":270,"wspd":15,"visib":"10+","altim":1016,"slp":1014.2,"qcField":14,"presTend":0.9,"maxT":9.4,"minT":4.4,"metarType":"METAR","rawOb":"METAR KEVW 142353Z AUTO 27015KT 10SM FEW049 BKN065 07/M06 A3000 RMK AO2 PK WND 26027/2257 SLP142 T00671056 10094 20044 53009 $","lat":41.2727,"lon":-111.0305,"elev":2178,"name":"Evanston/Uinta Cnty, WY, US","cover":"BKN","clouds":[{"cover":"FEW","base":4900},{"cover":"BKN","base":6500}],"fltCat":"VFR"},{"icaoId":"KMOD","receiptTime":"2026-04-14T23:56:41.264Z","obsTime":1776210780,"reportTime":"2026-04-15T00:00:00.000Z","temp":21.1,"dewp":7.8,"wdir":360,"wspd":8,"wgst":15,"visib":"10+","altim":1018.7,"slp":1018.5,"qcField":4,"presTend":-1.8,"maxT":21.7,"minT":16.7,"metarType":"METAR","rawOb":"METAR KMOD 142353Z 36008G15KT 10SM CLR 21/08 A3008 RMK AO2 SLP185 T02110078 10217 20167 56018","lat":37.6254,"lon":-120.9549,"elev":25,"name":"Modesto/Sham Fld, CA, US","cover":"CLR","clouds":[],"fltCat":"VFR"},{"icaoId":"KDRO","receiptTime":"2026-04-14T23:56:37.872Z","obsTime":1776210780,"reportTime":"2026-04-15T00:00:00.000Z","temp":8.3,"dewp":-3.9,"wdir":230,"wspd":10,"wgst":18,"visib":"10+","altim":1016.3,"slp":1014.5,"qcField":6,"presTend":-0.4,"maxT":10,"minT":5.6,"pcp6hr":0.005,"metarType":"METAR","rawOb":"METAR KDRO 142353Z AUTO 23010G18KT 10SM BKN060 OVC075 08/M04 A3001 RMK AO2 SLP145 60000 T00831039 10100 20056 55004","lat":37.1431,"lon":-107.7602,"elev":2021,"name":"Durango/La Plata Cnty, CO, US","cover":"OVC","clouds":[{"cover":"BKN","base":6000},{"cover":"OVC","base":7500}],"fltCat":"VFR"},{"icaoId":"KTUS","receiptTime":"2026-04-14T23:56:41.988Z","obsTime":1776210780,"reportTime":"2026-04-15T00:00:00.000Z","temp":23.9,"dewp":-1.7,"wdir":350,"wspd":11,"wgst":20,"visib":"10+","altim":1014.3,"slp":1011,"qcField":12,"presTend":-1.6,"maxT":24.4,"minT":18.9,"metarType":"METAR","rawOb":"METAR KTUS 142353Z 35011G20KT 10SM BKN100 24/M02 A2995 RMK AO2 SLP110 T02391017 10244 20189 56016 $","lat":32.1315,"lon":-110.9564,"elev":776,"name":"Tucson Intl Arpt, AZ, US","cover":"BKN","clouds":[{"cover":"BKN","base":10000}],"fltCat":"VFR"},{"icaoId":"KBIL","receiptTime":"2026-04-14T23:56:38.760Z","obsTime":1776210780,"reportTime":"2026-04-15T00:00:00.000Z","temp":17.2,"dewp":-5.6,"wdir":250,"wspd":7,"visib":"10+","altim":1005.5,"slp":1004.9,"qcField":4,"presTend":-1.3,"maxT":18.9,"minT":15,"metarType":"METAR","rawOb":"METAR KBIL 142353Z 25007KT 200V270 10SM SCT110 17/M06 A2969 RMK AO2 SLP049 T01721056 10189 20150 56013","lat":45.8072,"lon":-108.5462,"elev":1089,"name":"Billings/Logan Intl, MT, US","cover":"SCT","clouds":[{"cover":"SCT","base":11000}],"fltCat":"VFR"},{"icaoId":"KDAL","receiptTime":"2026-04-14T23:56:36.179Z","obsTime":1776210780,"reportTime":"2026-04-15T00:00:00.000Z","temp":26.1,"dewp":18.9,"wdir":170,"wspd":10,"wgst":22,"visib":"10+","altim":1012.3,"slp":1011.6,"qcField":4,"presTend":-1.6,"maxT":26.7,"minT":24.4,"metarType":"METAR","rawOb":"METAR KDAL 142353Z 17010G22KT 10SM FEW035 FEW070 SCT200 BKN250 26/19 A2989 RMK AO2 SLP116 T02610189 10267 20244 56016","lat":32.8384,"lon":-96.8358,"elev":148,"name":"Dallas/Love Fld, TX, US","cover":"BKN","clouds":[{"cover":"FEW","base":3500},{"cover":"FEW","base":7000},{"cover":"SCT","base":20000},{"cover":"BKN","base":25000}],"fltCat":"VFR"},{"icaoId":"KCRQ","receiptTime":"2026-04-14T23:56:37.805Z","obsTime":1776210780,"reportTime":"2026-04-15T00:00:00.000Z","temp":18.3,"dewp":10,"wdir":270,"wspd":8,"visib":"10+","altim":1016.7,"slp":1016.5,"qcField":6,"presTend":-1.8,"maxT":18.9,"minT":17.2,"metarType":"METAR","rawOb":"METAR KCRQ 142353Z AUTO 27008KT 10SM CLR 18/10 A3002 RMK AO2 SLP165 T01830100 10189 20172 56018","lat":33.1299,"lon":-117.2765,"elev":96,"name":"Carlsbad/Palomar Arpt, CA, US","cover":"CLR","clouds":[],"fltCat":"VFR"},{"icaoId":"KLOL","receiptTime":"2026-04-14T23:56:37.117Z","obsTime":1776210780,"reportTime":"2026-04-15T00:00:00.000Z","temp":18.3,"dewp":-10,"wdir":270,"wspd":10,"visib":"10+","altim":1015.3,"slp":1014.8,"qcField":6,"presTend":-1.8,"maxT":18.9,"minT":12.8,"metarType":"METAR","rawOb":"METAR KLOL 142353Z AUTO 27010KT 10SM CLR 18/M10 A2998 RMK AO2 SLP148 T01831100 10189 20128 56018","lat":40.0684,"lon":-118.5702,"elev":1191,"name":"Lovelock/Derby Fld, NV, US","cover":"CLR","clouds":[],"fltCat":"VFR"},{"icaoId":"KHIO","receiptTime":"2026-04-14T23:56:39.909Z","obsTime":1776210780,"reportTime":"2026-04-15T00:00:00.000Z","temp":9.4,"dewp":7.2,"wdir":190,"wspd":11,"visib":"10+","altim":1015.7,"slp":1015.5,"qcField":4,"wxString":"-RA","presTend":-1.8,"maxT":10,"minT":8.9,"precip":0.02,"pcp6hr":0.05,"metarType":"METAR","rawOb":"METAR KHIO 142353Z 19011KT 10SM -RA SCT020 BKN046 OVC060 09/07 A2999 RMK AO2 SLP155 P0002 60005 T00940072 10100 20089 56018","lat":45.5476,"lon":-122.9557,"elev":62,"name":"Portland/Hillsboro Arpt, OR, US","cover":"OVC","clouds":[{"cover":"SCT","base":2000},{"cover":"BKN","base":4600},{"cover":"OVC","base":6000}],"fltCat":"VFR"},{"icaoId":"KSDL","receiptTime":"2026-04-14T23:56:33.325Z","obsTime":1776210780,"reportTime":"2026-04-15T00:00:00.000Z","temp":24.4,"dewp":-3.3,"wdir":280,"wspd":6,"visib":"10+","altim":1014,"slp":1012.1,"qcField":4,"presTend":-1.9,"maxT":25,"minT":20,"metarType":"METAR","rawOb":"METAR KSDL 142353Z 28006KT 10SM CLR 24/M03 A2994 RMK AO2 SLP121 T02441033 10250 20200 56019","lat":33.6123,"lon":-111.9232,"elev":438,"name":"Scottsdale Muni, AZ, US","cover":"CLR","clouds":[],"fltCat":"VFR"},{"icaoId":"KSJC","receiptTime":"2026-04-14T23:56:33.593Z","obsTime":1776210780,"reportTime":"2026-04-15T00:00:00.000Z","temp":16.1,"dewp":8.3,"wdir":340,"wspd":17,"wgst":25,"visib":"10+","altim":1021.1,"slp":1020.9,"qcField":12,"presTend":-0.9,"maxT":17.8,"minT":14.4,"metarType":"METAR","rawOb":"METAR KSJC 142353Z 34017G25KT 10SM FEW036 FEW050 16/08 A3015 RMK AO2 SLP209 T01610083 10178 20144 56009 $","lat":37.3594,"lon":-121.9244,"elev":13,"name":"San Jose Intl Arpt, CA, US","cover":"FEW","clouds":[{"cover":"FEW","base":3600},{"cover":"FEW","base":5000}],"fltCat":"VFR"},{"icaoId":"KVGT","receiptTime":"2026-04-14T23:56:34.115Z","obsTime":1776210780,"reportTime":"2026-04-15T00:00:00.000Z","temp":22.8,"dewp":-2.2,"wdir":0,"wspd":0,"visib":"10+","altim":1014,"slp":1014.3,"qcField":4,"presTend":-1.7,"maxT":23.3,"minT":18.9,"metarType":"METAR","rawOb":"METAR KVGT 142353Z 00000KT 10SM CLR 23/M02 A2994 RMK AO2 SLP143 T02281022 10233 20189 56017","lat":36.212,"lon":-115.194,"elev":664,"name":"Las Vegas/North Arpt, NV, US","cover":"CLR","clouds":[],"fltCat":"VFR"},{"icaoId":"KMYF","receiptTime":"2026-04-14T23:56:34.750Z","obsTime":1776210780,"reportTime":"2026-04-15T00:00:00.000Z","temp":19.4,"dewp":8.9,"wdir":280,"wspd":11,"visib":"10+","altim":1017,"slp":1016.6,"qcField":4,"presTend":-1.6,"maxT":21.1,"minT":17.8,"metarType":"METAR","rawOb":"METAR KMYF 142353Z 28011KT 10SM CLR 19/09 A3003 RMK AO2 SLP166 T01940089 10211 20178 56016","lat":32.8145,"lon":-117.1375,"elev":128,"name":"San Diego/Montgomery Arpt, CA, US","cover":"CLR","clouds":[],"fltCat":"VFR"},{"icaoId":"KFMN","receiptTime":"2026-04-14T23:56:35.694Z","obsTime":1776210780,"reportTime":"2026-04-15T00:00:00.000Z","temp":12.2,"dewp":-3.9,"wdir":290,"wspd":12,"visib":"10+","altim":1015.7,"slp":1013.8,"qcField":4,"maxT":14.4,"minT":10,"metarType":"METAR","rawOb":"METAR KFMN 142353Z 29012KT 10SM OVC095 12/M04 A2999 RMK AO2 SLP138 T01221039 10144 20100 55000","lat":36.7435,"lon":-108.2293,"elev":1677,"name":"Farmington/Four Corners Rgnl, NM, US","cover":"OVC","clouds":[{"cover":"OVC","base":9500}],"fltCat":"VFR"},{"icaoId":"KPRC","receiptTime":"2026-04-14T23:56:36.790Z","obsTime":1776210780,"reportTime":"2026-04-15T00:00:00.000Z","temp":15,"dewp":-2.8,"wdir":250,"wspd":6,"visib":"10+","altim":1017,"slp":1013.3,"qcField":4,"presTend":-1,"maxT":15.6,"minT":11.1,"metarType":"METAR","rawOb":"METAR KPRC 142353Z 25006KT 10SM BKN070 15/M03 A3003 RMK AO2 SLP133 T01501028 10156 20111 56010","lat":34.6491,"lon":-112.4223,"elev":1528,"name":"Prescott/Love Fld, AZ, US","cover":"BKN","clouds":[{"cover":"BKN","base":7000}],"fltCat":"VFR"},{"icaoId":"KPSP","receiptTime":"2026-04-14T23:56:36.821Z","obsTime":1776210780,"reportTime":"2026-04-15T00:00:00.000Z","temp":27.8,"dewp":2.8,"wdir":320,"wspd":12,"wgst":20,"visib":"10+","altim":1013.6,"slp":1013.4,"qcField":12,"presTend":-2.3,"maxT":28.3,"minT":21.1,"metarType":"METAR","rawOb":"METAR KPSP 142353Z 32012G20KT 10SM CLR 28/03 A2993 RMK AO2 SLP134 T02780028 10283 20211 56023 $","lat":33.8222,"lon":-116.5043,"elev":123,"name":"Palm Springs Intl, CA, US","cover":"CLR","clouds":[],"fltCat":"VFR"},{"icaoId":"KPUB","receiptTime":"2026-04-14T23:56:36.857Z","obsTime":1776210780,"reportTime":"2026-04-15T00:00:00.000Z","temp":18.9,"dewp":-12.2,"wdir":240,"wspd":21,"wgst":31,"visib":"10+","altim":1008.2,"slp":1004,"qcField":12,"presTend":0.1,"maxT":21.7,"minT":18.3,"metarType":"METAR","rawOb":"METAR KPUB 142353Z 24021G31KT 10SM FEW120 19/M12 A2977 RMK AO2 PK WND 23032/2336 SLP040 T01891122 10217 20183 52001 $","lat":38.2887,"lon":-104.5057,"elev":1441,"name":"Pueblo Mem Arpt, CO, US","cover":"FEW","clouds":[{"cover":"FEW","base":12000}],"fltCat":"VFR"},{"icaoId":"KMFE","receiptTime":"2026-04-14T23:56:37.517Z","obsTime":1776210780,"reportTime":"2026-04-15T00:00:00.000Z","temp":28.3,"dewp":20.6,"wdir":130,"wspd":21,"wgst":27,"visib":"10+","altim":1011.6,"slp":1011.3,"qcField":4,"presTend":-0.8,"maxT":32.8,"minT":28.3,"metarType":"METAR","rawOb":"METAR KMFE 142353Z 13021G27KT 10SM OVC036 28/21 A2987 RMK AO2 PK WND 14029/2256 SLP113 T02830206 10328 20283 58008","lat":26.1791,"lon":-98.2445,"elev":29,"name":"McAllen/Miller Intl, TX, US","cover":"OVC","clouds":[{"cover":"OVC","base":3600}],"fltCat":"VFR"},{"icaoId":"KLAX","receiptTime":"2026-04-14T23:56:40.214Z","obsTime":1776210780,"reportTime":"2026-04-15T00:00:00.000Z","temp":19.4,"dewp":10,"wdir":260,"wspd":11,"visib":"10+","altim":1017.4,"slp":1017,"qcField":4,"presTend":-1.5,"maxT":20.6,"minT":18.9,"metarType":"METAR","rawOb":"METAR KLAX 142353Z 26011KT 10SM FEW015 FEW070 19/10 A3004 RMK AO2 SLP170 T01940100 10206 20189 58015","lat":33.9382,"lon":-118.3866,"elev":30,"name":"Los Angeles Intl, CA, US","cover":"FEW","clouds":[{"cover":"FEW","base":1500},{"cover":"FEW","base":7000}],"fltCat":"VFR"},{"icaoId":"KTPA","receiptTime":"2026-04-14T23:56:41.881Z","obsTime":1776210780,"reportTime":"2026-04-15T00:00:00.000Z","temp":24.4,"dewp":17.8,"wdir":330,"wspd":8,"visib":"10+","altim":1020.1,"slp":1019.9,"qcField":4,"presTend":-0.1,"maxT":30.6,"minT":24.4,"metarType":"METAR","rawOb":"METAR KTPA 142353Z 33008KT 10SM FEW065 FEW250 24/18 A3012 RMK AO2 SLP199 T02440178 10306 20244 55001","lat":27.9633,"lon":-82.54,"elev":2,"name":"Tampa Intl Arpt, FL, US","cover":"FEW","clouds":[{"cover":"FEW","base":6500},{"cover":"FEW","base":25000}],"fltCat":"VFR"},{"icaoId":"KIAH","receiptTime":"2026-04-14T23:56:42.461Z","obsTime":1776210780,"reportTime":"2026-04-15T00:00:00.000Z","temp":25.6,"dewp":21.1,"wdir":130,"wspd":16,"wgst":23,"visib":"10+","altim":1015.7,"slp":1015.5,"qcField":4,"presTend":-0.6,"maxT":28.9,"minT":25.6,"metarType":"METAR","rawOb":"METAR KIAH 142353Z 13016G23KT 10SM FEW032 FEW043 26/21 A2999 RMK AO2 SLP155 T02560211 10289 20256 55006","lat":29.9844,"lon":-95.3607,"elev":27,"name":"Houston/Bush Intl, TX, US","cover":"FEW","clouds":[{"cover":"FEW","base":3200},{"cover":"FEW","base":4300}],"fltCat":"VFR"},{"icaoId":"KFAT","receiptTime":"2026-04-14T23:56:35.509Z","obsTime":1776210780,"reportTime":"2026-04-15T00:00:00.000Z","temp":21.7,"dewp":5.6,"wdir":310,"wspd":5,"visib":"10+","altim":1018.4,"slp":1018.1,"qcField":4,"presTend":-2.1,"maxT":22.8,"minT":16.7,"metarType":"METAR","rawOb":"METAR KFAT 142353Z 31005KT 10SM SCT050 SCT090 SCT180 22/06 A3007 RMK AO2 SLP181 T02170056 10228 20167 56021","lat":36.78,"lon":-119.7202,"elev":102,"name":"Fresno/Yosemite Intl, CA, US","cover":"SCT","clouds":[{"cover":"SCT","base":5000},{"cover":"SCT","base":9000},{"cover":"SCT","base":18000}],"fltCat":"VFR"},{"icaoId":"KELY","receiptTime":"2026-04-14T23:56:38.166Z","obsTime":1776210780,"reportTime":"2026-04-15T00:00:00.000Z","temp":11.1,"dewp":-5.6,"wdir":70,"wspd":5,"visib":"10+","altim":1017,"slp":1015,"qcField":6,"presTend":-1,"maxT":12.2,"minT":7.2,"metarType":"METAR","rawOb":"METAR KELY 142353Z AUTO 07005KT 10SM BKN080 11/M06 A3003 RMK AO2 SLP150 T01111056 10122 20072 56010","lat":39.2954,"lon":-114.8466,"elev":1906,"name":"Ely/Yelland Fld, NV, US","cover":"BKN","clouds":[{"cover":"BKN","base":8000}],"fltCat":"VFR"},{"icaoId":"KMCI","receiptTime":"2026-04-14T23:56:37.422Z","obsTime":1776210780,"reportTime":"2026-04-15T00:00:00.000Z","temp":27.2,"dewp":17.8,"wdir":200,"wspd":14,"wgst":25,"visib":"10+","altim":1005.8,"slp":1004.5,"qcField":4,"presTend":-0.1,"maxT":30,"minT":27.2,"metarType":"METAR","rawOb":"METAR KMCI 142353Z 20014G25KT 10SM FEW065 OVC200 27/18 A2970 RMK AO2 PK WND 21032/2309 SLP045 T02720178 10300 20272 55001","lat":39.2975,"lon":-94.7309,"elev":308,"name":"Kansas City Intl, MO, US","cover":"OVC","clouds":[{"cover":"FEW","base":6500},{"cover":"OVC","base":20000}],"fltCat":"VFR"},{"icaoId":"KBUR","receiptTime":"2026-04-14T23:56:39.101Z","obsTime":1776210780,"reportTime":"2026-04-15T00:00:00.000Z","temp":21.1,"dewp":8.9,"wdir":200,"wspd":9,"visib":"10+","altim":1016.7,"slp":1015.6,"qcField":4,"presTend":-1.5,"maxT":22.2,"minT":17.2,"metarType":"METAR","rawOb":"METAR KBUR 142353Z 20009KT 10SM CLR 21/09 A3002 RMK AO2 SLP156 T02110089 10222 20172 56015","lat":34.1996,"lon":-118.3654,"elev":221,"name":"Burbank/Bob Hope Arpt, CA, US","cover":"CLR","clouds":[],"fltCat":"VFR"},{"icaoId":"KDFW","receiptTime":"2026-04-14T23:56:36.310Z","obsTime":1776210780,"reportTime":"2026-04-15T00:00:00.000Z","temp":26.1,"dewp":18.9,"wdir":160,"wspd":15,"wgst":21,"visib":"10+","altim":1011.6,"slp":1010.7,"qcField":4,"presTend":-1.7,"maxT":26.1,"minT":23.9,"metarType":"METAR","rawOb":"METAR KDFW 142353Z 16015G21KT 10SM FEW037 SCT070 BKN250 26/19 A2987 RMK AO2 SLP107 T02610189 10261 20239 58017","lat":32.8974,"lon":-97.022,"elev":168,"name":"Dallas-Ft Worth Intl, TX, US","cover":"BKN","clouds":[{"cover":"FEW","base":3700},{"cover":"SCT","base":7000},{"cover":"BKN","base":25000}],"fltCat":"VFR"},{"icaoId":"KCLL","receiptTime":"2026-04-14T23:56:37.606Z","obsTime":1776210780,"reportTime":"2026-04-15T00:00:00.000Z","temp":27.8,"dewp":18.9,"wdir":160,"wspd":14,"visib":"10+","altim":1014,"slp":1013.3,"qcField":4,"presTend":-1.2,"maxT":29.4,"minT":26.7,"metarType":"METAR","rawOb":"METAR KCLL 142353Z 16014KT 10SM BKN060 28/19 A2994 RMK AO2 SLP133 T02780189 10294 20267 56012","lat":30.5912,"lon":-96.3631,"elev":96,"name":"College Station/Easterwood Arpt, TX, US","cover":"BKN","clouds":[{"cover":"BKN","base":6000}],"fltCat":"VFR"},{"icaoId":"KCNM","receiptTime":"2026-04-14T23:56:37.678Z","obsTime":1776210780,"reportTime":"2026-04-15T00:00:00.000Z","temp":26.1,"dewp":1.7,"wdir":230,"wspd":26,"wgst":35,"visib":"10+","altim":1011.9,"slp":1006.9,"qcField":6,"presTend":-0.2,"maxT":30.6,"minT":26.1,"metarType":"METAR","rawOb":"METAR KCNM 142353Z AUTO 23026G35KT 10SM CLR 26/02 A2988 RMK AO2 PK WND 24043/2333 SLP069 T02610017 10306 20261 58002","lat":32.3336,"lon":-104.2584,"elev":993,"name":"Carlsbad/Cavern City Air Term, NM, US","cover":"CLR","clouds":[],"fltCat":"VFR"},{"icaoId":"KAMA","receiptTime":"2026-04-14T23:56:29.822Z","obsTime":1776210780,"reportTime":"2026-04-15T00:00:00.000Z","temp":25.6,"dewp":-1.1,"wdir":230,"wspd":21,"wgst":38,"visib":"10+","altim":1009.2,"slp":1005,"qcField":4,"presTend":-1.4,"maxT":27.2,"minT":25,"metarType":"METAR","rawOb":"METAR KAMA 142353Z 23021G38KT 10SM CLR 26/M01 A2980 RMK AO2 PK WND 24038/2338 SLP050 T02561011 10272 20250 56014","lat":35.2203,"lon":-101.7173,"elev":1102,"name":"Amarillo Intl Arpt, TX, US","cover":"CLR","clouds":[],"fltCat":"VFR"},{"icaoId":"KMFR","receiptTime":"2026-04-14T23:56:37.532Z","obsTime":1776210780,"reportTime":"2026-04-15T00:00:00.000Z","temp":13.9,"dewp":2.8,"wdir":310,"wspd":15,"wgst":23,"visib":"10+","altim":1018.4,"slp":1018.1,"qcField":4,"presTend":-1.2,"maxT":15.6,"minT":11.7,"metarType":"METAR","rawOb":"METAR KMFR 142353Z 31015G23KT 10SM OVC100 14/03 A3007 RMK AO2 SLP181 T01390028 10156 20117 56012","lat":42.375,"lon":-122.877,"elev":397,"name":"Medford/Rogue Valley Intl, OR, US","cover":"OVC","clouds":[{"cover":"OVC","base":10000}],"fltCat":"VFR"},{"icaoId":"KSTS","receiptTime":"2026-04-14T23:56:41.657Z","obsTime":1776210780,"reportTime":"2026-04-15T00:00:00.000Z","temp":18.3,"dewp":8.3,"wdir":140,"wspd":10,"visib":"10+","altim":1020.1,"slp":1019.3,"qcField":4,"presTend":-1.6,"maxT":19.4,"minT":13.9,"metarType":"METAR","rawOb":"METAR KSTS 142353Z 14010KT 10SM FEW050 18/08 A3012 RMK AO2 SLP193 T01830083 10194 20139 56016","lat":38.5037,"lon":-122.811,"elev":35,"name":"Santa Rosa/Schulz Arpt, CA, US","cover":"FEW","clouds":[{"cover":"FEW","base":5000}],"fltCat":"VFR"},{"icaoId":"KMSO","receiptTime":"2026-04-14T23:56:41.352Z","obsTime":1776210780,"reportTime":"2026-04-15T00:00:00.000Z","temp":11.1,"dewp":-2.2,"wdir":320,"wspd":8,"wgst":20,"visib":"10+","altim":1009.2,"slp":1009.9,"qcField":4,"presTend":-1.2,"maxT":14.4,"minT":9.4,"metarType":"METAR","rawOb":"METAR KMSO 142353Z 32008G20KT 10SM FEW070 BKN100 11/M02 A2980 RMK AO2 SLP099 T01111022 10144 20094 56012","lat":46.9208,"lon":-114.0938,"elev":974,"name":"Missoula Intl, MT, US","cover":"BKN","clouds":[{"cover":"FEW","base":7000},{"cover":"BKN","base":10000}],"fltCat":"VFR"},{"icaoId":"KPAE","receiptTime":"2026-04-14T23:56:35.264Z","obsTime":1776210780,"reportTime":"2026-04-15T00:00:00.000Z","temp":7.8,"dewp":6.1,"wdir":180,"wspd":20,"wgst":31,"visib":"10+","altim":1009.9,"slp":1010,"qcField":4,"presTend":-1.9,"maxT":8.3,"minT":6.7,"precip":0.01,"pcp6hr":0.1,"metarType":"METAR","rawOb":"METAR KPAE 142353Z 18020G31KT 10SM BKN008 BKN019 OVC050 08/06 A2982 RMK AO2 PK WND 18032/2254 RAE41 SLP100 P0001 60010 T00780061 10083 20067 56019","lat":47.9232,"lon":-122.2831,"elev":166,"name":"Everett/Paine Fld, WA, US","cover":"OVC","clouds":[{"cover":"BKN","base":800},{"cover":"BKN","base":1900},{"cover":"OVC","base":5000}],"fltCat":"IFR"},{"icaoId":"KPDX","receiptTime":"2026-04-14T23:56:35.403Z","obsTime":1776210780,"reportTime":"2026-04-15T00:00:00.000Z","temp":9.4,"dewp":7.2,"wdir":190,"wspd":16,"wgst":23,"visib":6,"altim":1016.3,"slp":1016.1,"qcField":12,"wxString":"-RA BR","presTend":-1.2,"maxT":10.6,"minT":9.4,"precip":0.01,"pcp6hr":0.04,"metarType":"METAR","rawOb":"METAR KPDX 142353Z 19016G23KT 6SM -RA BR FEW013 BKN029 OVC055 09/07 A3001 RMK AO2 SLP161 P0001 60004 T00940072 10106 20094 56012 $","lat":45.5958,"lon":-122.6092,"elev":7,"name":"Portland Intl, OR, US","cover":"OVC","clouds":[{"cover":"FEW","base":1300},{"cover":"BKN","base":2900},{"cover":"OVC","base":5500}],"fltCat":"MVFR"},{"icaoId":"KBRO","receiptTime":"2026-04-14T23:56:39.034Z","obsTime":1776210780,"reportTime":"2026-04-15T00:00:00.000Z","temp":27.2,"dewp":20.6,"wdir":130,"wspd":19,"wgst":28,"visib":"10+","altim":1012.6,"slp":1012.4,"qcField":4,"presTend":-1.3,"maxT":31.1,"minT":27.2,"metarType":"METAR","rawOb":"METAR KBRO 142353Z 13019G28KT 10SM FEW021 27/21 A2990 RMK AO2 PK WND 14031/2304 SLP124 T02720206 10311 20272 56013","lat":25.9146,"lon":-97.4231,"elev":6,"name":"Brownsville Intl, TX, US","cover":"FEW","clouds":[{"cover":"FEW","base":2100}],"fltCat":"VFR"},{"icaoId":"KAUS","receiptTime":"2026-04-14T23:56:30.242Z","obsTime":1776210780,"reportTime":"2026-04-15T00:00:00.000Z","temp":28.9,"dewp":18.3,"wdir":160,"wspd":15,"wgst":23,"visib":"10+","altim":1012.3,"slp":1011.3,"qcField":4,"presTend":-1.2,"maxT":31.1,"minT":27.2,"metarType":"METAR","rawOb":"METAR KAUS 142353Z 16015G23KT 10SM FEW050 SCT070 BKN250 29/18 A2989 RMK AO2 PK WND 14026/2317 SLP113 T02890183 10311 20272 56012","lat":30.1831,"lon":-97.6806,"elev":148,"name":"Austin/Bergstrom Intl, TX, US","cover":"BKN","clouds":[{"cover":"FEW","base":5000},{"cover":"SCT","base":7000},{"cover":"BKN","base":25000}],"fltCat":"VFR"},{"icaoId":"KLBB","receiptTime":"2026-04-14T23:56:40.229Z","obsTime":1776210780,"reportTime":"2026-04-15T00:00:00.000Z","temp":27.8,"dewp":-0.6,"wdir":220,"wspd":26,"wgst":40,"visib":"10+","altim":1009.2,"slp":1004.2,"qcField":4,"presTend":-1.9,"maxT":30,"minT":26.7,"metarType":"METAR","rawOb":"METAR KLBB 142353Z 22026G40KT 10SM SCT120 BKN170 BKN250 28/M01 A2980 RMK AO2 PK WND 21040/2351 SLP042 VIRGA SW T02781006 10300 20267 56019","lat":33.6658,"lon":-101.8233,"elev":996,"name":"Lubbock Intl Arpt, TX, US","cover":"BKN","clouds":[{"cover":"SCT","base":12000},{"cover":"BKN","base":17000},{"cover":"BKN","base":25000}],"fltCat":"VFR"},{"icaoId":"KPIH","receiptTime":"2026-04-14T23:56:36.609Z","obsTime":1776210780,"reportTime":"2026-04-15T00:00:00.000Z","temp":11.7,"dewp":-2.8,"wdir":250,"wspd":14,"wgst":24,"visib":"10+","altim":1014,"slp":1013.2,"qcField":4,"presTend":-1,"maxT":13.9,"minT":8.9,"metarType":"METAR","rawOb":"METAR KPIH 142353Z 25014G24KT 10SM SCT080 12/M03 A2994 RMK AO2 PK WND 26027/2332 SLP132 T01171028 10139 20089 56010","lat":42.9197,"lon":-112.5723,"elev":1357,"name":"Pocatello Rgnl, ID, US","cover":"SCT","clouds":[{"cover":"SCT","base":8000}],"fltCat":"VFR"},{"icaoId":"KCYS","receiptTime":"2026-04-14T23:56:36.149Z","obsTime":1776210780,"reportTime":"2026-04-15T00:00:00.000Z","temp":5.6,"dewp":0.6,"wdir":300,"wspd":14,"wgst":24,"visib":"10+","altim":1011.9,"slp":1009.5,"qcField":4,"wxString":"-RA","presTend":0.4,"maxT":13.3,"minT":4.4,"precip":0.005,"pcp6hr":0.005,"metarType":"METAR","rawOb":"METAR KCYS 142353Z 30014G24KT 10SM -RA BKN041 OVC055 06/01 A2988 RMK AO2 PK WND 27031/2309 RAB09 SLP095 P0000 60000 T00560006 10133 20044 50004","lat":41.1579,"lon":-104.8081,"elev":1868,"name":"Cheyenne Rgnl, WY, US","cover":"OVC","clouds":[{"cover":"BKN","base":4100},{"cover":"OVC","base":5500}],"fltCat":"VFR"},{"icaoId":"KDLN","receiptTime":"2026-04-14T23:56:36.385Z","obsTime":1776210780,"reportTime":"2026-04-15T00:00:00.000Z","temp":14.4,"dewp":-8.9,"wdir":250,"wspd":17,"visib":"10+","altim":1008.5,"slp":1006.2,"qcField":6,"presTend":-1.3,"maxT":14.4,"minT":9.4,"metarType":"METAR","rawOb":"METAR KDLN 142353Z AUTO 25017KT 10SM FEW080 14/M09 A2978 RMK AO2 PK WND 21029/2324 SLP062 T01441089 10144 20094 56013","lat":45.2584,"lon":-112.5546,"elev":1586,"name":"Dillon Arpt, MT, US","cover":"FEW","clouds":[{"cover":"FEW","base":8000}],"fltCat":"VFR"},{"icaoId":"KCDC","receiptTime":"2026-04-14T23:56:36.430Z","obsTime":1776210780,"reportTime":"2026-04-15T00:00:00.000Z","temp":11.1,"dewp":-1.1,"wdir":10,"wspd":5,"visib":"10+","altim":1017,"slp":1015,"qcField":6,"presTend":-0.9,"maxT":12.2,"minT":7.8,"metarType":"METAR","rawOb":"METAR KCDC 142353Z AUTO 01005KT 10SM FEW080 11/M01 A3003 RMK AO2 SLP150 T01111011 10122 20078 56009","lat":37.7067,"lon":-113.097,"elev":1703,"name":"Cedar City Muni, UT, US","cover":"FEW","clouds":[{"cover":"FEW","base":8000}],"fltCat":"VFR"},{"icaoId":"KSNA","receiptTime":"2026-04-14T23:56:33.684Z","obsTime":1776210780,"reportTime":"2026-04-15T00:00:00.000Z","temp":20,"dewp":10.6,"wdir":250,"wspd":8,"wgst":15,"visib":"10+","altim":1017,"slp":1016.9,"qcField":12,"presTend":-1.5,"maxT":21.1,"minT":18.3,"metarType":"METAR","rawOb":"METAR KSNA 142353Z 25008G15KT 10SM FEW036 20/11 A3003 RMK AO2 SLP169 T02000106 10211 20183 56015 $","lat":33.6798,"lon":-117.8675,"elev":14,"name":"Santa Ana/Wayne Arpt, CA, US","cover":"FEW","clouds":[{"cover":"FEW","base":3600}],"fltCat":"VFR"},{"icaoId":"KMSP","receiptTime":"2026-04-14T23:56:41.366Z","obsTime":1776210780,"reportTime":"2026-04-15T00:00:00.000Z","temp":17.2,"dewp":8.9,"wdir":50,"wspd":3,"visib":"10+","altim":1006.2,"slp":1006,"qcField":4,"presTend":0.3,"maxT":17.8,"minT":15.6,"metarType":"METAR","rawOb":"METAR KMSP 142353Z 05003KT 10SM BKN120 BKN250 17/09 A2971 RMK AO2 SLP060 T01720089 10178 20156 53003","lat":44.8852,"lon":-93.2313,"elev":255,"name":"Minneapolis-St Paul Intl, MN, US","cover":"BKN","clouds":[{"cover":"BKN","base":12000},{"cover":"BKN","base":25000}],"fltCat":"VFR"},{"icaoId":"KMSY","receiptTime":"2026-04-14T23:56:41.397Z","obsTime":1776210780,"reportTime":"2026-04-15T00:00:00.000Z","temp":24.4,"dewp":16.1,"wdir":150,"wspd":11,"visib":"10+","altim":1019.4,"slp":1019.5,"qcField":4,"presTend":-0.7,"maxT":27.2,"minT":24.4,"metarType":"METAR","rawOb":"METAR KMSY 142353Z 15011KT 10SM SCT040 24/16 A3010 RMK AO2 SLP195 T02440161 10272 20244 56007","lat":29.9974,"lon":-90.2777,"elev":0,"name":"New Orleans/Armstrong Intl, LA, US","cover":"SCT","clouds":[{"cover":"SCT","base":4000}],"fltCat":"VFR"},{"icaoId":"KOAK","receiptTime":"2026-04-14T23:56:34.795Z","obsTime":1776210780,"reportTime":"2026-04-15T00:00:00.000Z","temp":15.6,"dewp":6.7,"wdir":250,"wspd":16,"visib":"10+","altim":1021.8,"slp":1021.6,"qcField":12,"presTend":-1.5,"maxT":16.7,"minT":14.4,"metarType":"METAR","rawOb":"METAR KOAK 142353Z 25016KT 10SM FEW027 SCT250 16/07 A3017 RMK AO2 SLP216 T01560067 10167 20144 56015 $","lat":37.7178,"lon":-122.233,"elev":3,"name":"Oakland Intl, CA, US","cover":"SCT","clouds":[{"cover":"FEW","base":2700},{"cover":"SCT","base":25000}],"fltCat":"VFR"},{"icaoId":"KONT","receiptTime":"2026-04-14T23:56:34.991Z","obsTime":1776210780,"reportTime":"2026-04-15T00:00:00.000Z","temp":22.8,"dewp":8.9,"wdir":250,"wspd":12,"visib":"10+","altim":1016,"slp":1015.2,"qcField":12,"presTend":-2,"maxT":23.9,"minT":16.1,"metarType":"METAR","rawOb":"METAR KONT 142353Z 25012KT 10SM FEW055 FEW080 23/09 A3000 RMK AO2 SLP152 T02280089 10239 20161 56020 $","lat":34.0531,"lon":-117.5769,"elev":279,"name":"Ontario Intl, CA, US","cover":"FEW","clouds":[{"cover":"FEW","base":5500},{"cover":"FEW","base":8000}],"fltCat":"VFR"},{"icaoId":"KDTW","receiptTime":"2026-04-14T23:56:37.958Z","obsTime":1776210780,"reportTime":"2026-04-15T00:00:00.000Z","temp":24.4,"dewp":16.1,"wdir":210,"wspd":11,"visib":"10+","altim":1009.6,"slp":1009.2,"qcField":12,"presTend":-0.8,"maxT":27.2,"minT":24.4,"metarType":"METAR","rawOb":"METAR KDTW 142353Z 21011KT 10SM FEW050 SCT070 BKN230 24/16 A2981 RMK AO2 SLP092 T02440161 10272 20244 58008 $","lat":42.2311,"lon":-83.3312,"elev":192,"name":"Detroit/Metro Wayne Cnty, MI, US","cover":"BKN","clouds":[{"cover":"FEW","base":5000},{"cover":"SCT","base":7000},{"cover":"BKN","base":23000}],"fltCat":"VFR"},{"icaoId":"KBOI","receiptTime":"2026-04-14T23:56:38.935Z","obsTime":1776210780,"reportTime":"2026-04-15T00:00:00.000Z","temp":15.6,"dewp":0.6,"wdir":270,"wspd":5,"visib":"10+","altim":1013.6,"slp":1013.2,"qcField":4,"presTend":-2.2,"maxT":15.6,"minT":9.4,"metarType":"METAR","rawOb":"METAR KBOI 142353Z 27005KT 10SM FEW060 16/01 A2993 RMK AO2 SLP132 T01560006 10156 20094 56022","lat":43.567,"lon":-116.2406,"elev":860,"name":"Boise Arpt, ID, US","cover":"FEW","clouds":[{"cover":"FEW","base":6000}],"fltCat":"VFR"},{"icaoId":"KSBA","receiptTime":"2026-04-14T23:56:33.266Z","obsTime":1776210780,"reportTime":"2026-04-15T00:00:00.000Z","temp":19.4,"dewp":10.6,"wdir":180,"wspd":5,"visib":"10+","altim":1017,"slp":1016.8,"qcField":12,"presTend":-2,"maxT":20.6,"minT":16.7,"metarType":"METAR","rawOb":"METAR KSBA 142353Z 18005KT 10SM CLR 19/11 A3003 RMK AO2 SLP168 T01940106 10206 20167 58020 $","lat":34.4241,"lon":-119.8425,"elev":2,"name":"Santa Barbara Muni, CA, US","cover":"CLR","clouds":[],"fltCat":"VFR"},{"icaoId":"KRIW","receiptTime":"2026-04-14T23:56:37.041Z","obsTime":1776210780,"reportTime":"2026-04-15T00:00:00.000Z","temp":15.6,"dewp":-9.4,"wdir":250,"wspd":13,"wgst":20,"visib":"10+","altim":1008.2,"slp":1005.7,"qcField":6,"presTend":-0.8,"maxT":16.1,"minT":10.6,"metarType":"METAR","rawOb":"METAR KRIW 142353Z AUTO 25013G20KT 210V280 10SM CLR 16/M09 A2977 RMK AO2 SLP057 T01561094 10161 20106 56008","lat":43.0622,"lon":-108.4471,"elev":1662,"name":"Riverton Rgnl, WY, US","cover":"CLR","clouds":[],"fltCat":"VFR"},{"icaoId":"KAPA","receiptTime":"2026-04-14T23:56:29.982Z","obsTime":1776210780,"reportTime":"2026-04-15T00:00:00.000Z","temp":9.4,"dewp":0.6,"wdir":290,"wspd":14,"wgst":25,"visib":"10+","altim":1011.3,"slp":1009.2,"qcField":4,"wxString":"-RA","presTend":-0.5,"maxT":13.9,"minT":8.9,"precip":0.005,"pcp6hr":0.005,"metarType":"METAR","rawOb":"METAR KAPA 142353Z 29014G25KT 10SM -RA BKN060 BKN075 BKN110 BKN160 09/01 A2986 RMK AO2 RAB49 SLP092 P0000 60000 T00940006 10139 20089 55005","lat":39.5599,"lon":-104.8484,"elev":1791,"name":"Denver/Centennial Arpt, CO, US","cover":"BKN","clouds":[{"cover":"BKN","base":6000},{"cover":"BKN","base":7500},{"cover":"BKN","base":11000},{"cover":"BKN","base":16000}],"fltCat":"VFR"},{"icaoId":"KBLI","receiptTime":"2026-04-14T23:56:38.855Z","obsTime":1776210780,"reportTime":"2026-04-15T00:00:00.000Z","temp":8.9,"dewp":6.1,"wdir":170,"wspd":16,"wgst":25,"visib":"10+","altim":1006.9,"slp":1007.6,"qcField":4,"wxString":"-RA","presTend":-2.7,"maxT":8.9,"minT":7.8,"precip":0.01,"pcp6hr":0.09,"metarType":"METAR","rawOb":"METAR KBLI 142353Z 17016G25KT 10SM -RA FEW022 SCT034 OVC060 09/06 A2973 RMK AO2 PK WND 16033/2310 SLP076 P0001 60009 T00890061 10089 20078 56027","lat":48.7991,"lon":-122.5407,"elev":46,"name":"Bellingham Intl, WA, US","cover":"OVC","clouds":[{"cover":"FEW","base":2200},{"cover":"SCT","base":3400},{"cover":"OVC","base":6000}],"fltCat":"VFR"},{"icaoId":"KBNA","receiptTime":"2026-04-14T23:56:38.904Z","obsTime":1776210780,"reportTime":"2026-04-15T00:00:00.000Z","temp":26.1,"dewp":14.4,"wdir":210,"wspd":8,"visib":"10+","altim":1017.7,"slp":1017,"qcField":12,"presTend":-0.8,"maxT":28.9,"minT":26.1,"metarType":"METAR","rawOb":"METAR KBNA 142353Z 21008KT 10SM FEW050 SCT250 26/14 A3005 RMK AO2 SLP170 T02610144 10289 20261 58008 $","lat":36.1105,"lon":-86.6881,"elev":168,"name":"Nashville Intl, TN, US","cover":"SCT","clouds":[{"cover":"FEW","base":5000},{"cover":"SCT","base":25000}],"fltCat":"VFR"},{"icaoId":"KPBI","receiptTime":"2026-04-14T23:56:35.348Z","obsTime":1776210780,"reportTime":"2026-04-15T00:00:00.000Z","temp":23.9,"dewp":15.6,"wdir":60,"wspd":8,"wgst":18,"visib":"10+","altim":1021.1,"slp":1021,"qcField":12,"presTend":0.3,"maxT":27.8,"minT":23.9,"metarType":"METAR","rawOb":"METAR KPBI 142353Z 06008G18KT 10SM SCT050 SCT250 24/16 A3015 RMK AO2 SLP210 T02390156 10278 20239 53003 $","lat":26.6851,"lon":-80.0992,"elev":4,"name":"Palm Beach Intl, FL, US","cover":"SCT","clouds":[{"cover":"SCT","base":5000},{"cover":"SCT","base":25000}],"fltCat":"VFR"},{"icaoId":"KTUL","receiptTime":"2026-04-14T23:56:41.958Z","obsTime":1776210780,"reportTime":"2026-04-15T00:00:00.000Z","temp":24.4,"dewp":20,"wdir":160,"wspd":13,"wgst":22,"visib":"10+","altim":1010.2,"slp":1009.3,"qcField":4,"wxString":"-RA","presTend":-0.7,"maxT":28.3,"minT":24.4,"precip":0.005,"pcp6hr":0.005,"metarType":"METAR","rawOb":"METAR KTUL 142353Z 16013G22KT 10SM -RA FEW039 BKN095 OVC110 24/20 A2983 RMK AO2 RAB2255E30B53 SLP093 P0000 60000 T02440200 10283 20244 58007","lat":36.1985,"lon":-95.8782,"elev":196,"name":"Tulsa Intl Arpt, OK, US","cover":"OVC","clouds":[{"cover":"FEW","base":3900},{"cover":"BKN","base":9500},{"cover":"OVC","base":11000}],"fltCat":"VFR"},{"icaoId":"KLGB","receiptTime":"2026-04-14T23:56:42.096Z","obsTime":1776210780,"reportTime":"2026-04-15T00:00:00.000Z","temp":21.1,"dewp":8.9,"wdir":260,"wspd":7,"visib":"10+","altim":1016.7,"slp":1016.5,"qcField":12,"presTend":-1.7,"maxT":21.7,"minT":18.3,"metarType":"METAR","rawOb":"METAR KLGB 142353Z 26007KT 220V310 10SM CLR 21/09 A3002 RMK AO2 SLP165 T02110089 10217 20183 56017 $","lat":33.8118,"lon":-118.1472,"elev":10,"name":"Long Beach Arpt, CA, US","cover":"CLR","clouds":[],"fltCat":"VFR"},{"icaoId":"KGTF","receiptTime":"2026-04-14T23:56:35.963Z","obsTime":1776210780,"reportTime":"2026-04-15T00:00:00.000Z","temp":13.9,"dewp":-4.4,"wdir":250,"wspd":27,"wgst":35,"visib":"10+","altim":1004.5,"slp":1004.5,"qcField":4,"presTend":-1,"maxT":15,"minT":12.8,"metarType":"METAR","rawOb":"METAR KGTF 142353Z 25027G35KT 10SM CLR 14/M04 A2966 RMK AO2 PK WND 25037/2303 SLP045 T01391044 10150 20128 56010","lat":47.4733,"lon":-111.3828,"elev":1117,"name":"Great Falls Intl, MT, US","cover":"CLR","clouds":[],"fltCat":"VFR"},{"icaoId":"KLAR","receiptTime":"2026-04-14T23:56:40.184Z","obsTime":1776210780,"reportTime":"2026-04-15T00:00:00.000Z","temp":3.9,"dewp":1.1,"wdir":190,"wspd":11,"visib":"10+","altim":1012.3,"slp":1010,"qcField":6,"presTend":-0.3,"maxT":3.9,"minT":0,"pcp6hr":0.17,"metarType":"METAR","rawOb":"METAR KLAR 142353Z AUTO 19011KT 10SM SCT090 04/01 A2989 RMK AO2 SLP100 60017 T00390011 10039 20000 58003","lat":41.3165,"lon":-105.6729,"elev":2217,"name":"Laramie Rgnl, WY, US","cover":"SCT","clouds":[{"cover":"SCT","base":9000}],"fltCat":"VFR"},{"icaoId":"KMIA","receiptTime":"2026-04-14T23:56:27.875Z","obsTime":1776210780,"reportTime":"2026-04-15T00:00:00.000Z","temp":23.9,"dewp":15.6,"wdir":60,"wspd":9,"visib":"10+","altim":1020.1,"slp":1019.9,"qcField":0,"presTend":0.1,"maxT":27.8,"minT":23.9,"metarType":"METAR","rawOb":"METAR KMIA 142353Z 06009KT 10SM SCT039 SCT250 24/16 A3012 RMK SLP199 T02390156 10278 20239 53001","lat":25.7881,"lon":-80.3169,"elev":1,"name":"Miami Intl, FL, US","cover":"SCT","clouds":[{"cover":"SCT","base":3900},{"cover":"SCT","base":25000}],"fltCat":"VFR"},{"icaoId":"KSAF","receiptTime":"2026-04-14T23:56:33.208Z","obsTime":1776210780,"reportTime":"2026-04-15T00:00:00.000Z","temp":14.4,"dewp":-11.1,"wdir":270,"wspd":17,"wgst":25,"visib":"10+","altim":1014.3,"slp":1007.8,"qcField":12,"presTend":-0.8,"maxT":17.2,"minT":13.3,"metarType":"METAR","rawOb":"METAR KSAF 142353Z 27017G25KT 10SM SCT090 SCT120 14/M11 A2995 RMK AO2 PK WND 30033/2318 SLP078 T01441111 10172 20133 55008 $","lat":35.611,"lon":-106.0957,"elev":1918,"name":"Santa Fe Cnty Muni, NM, US","cover":"SCT","clouds":[{"cover":"SCT","base":9000},{"cover":"SCT","base":12000}],"fltCat":"VFR"},{"icaoId":"KSHR","receiptTime":"2026-04-14T23:56:33.545Z","obsTime":1776210780,"reportTime":"2026-04-15T00:00:00.000Z","temp":16.1,"dewp":-1.7,"wdir":0,"wspd":0,"visib":"10+","altim":1007.2,"slp":1007,"qcField":6,"presTend":-0.9,"maxT":16.7,"minT":12.8,"metarType":"METAR","rawOb":"METAR KSHR 142353Z AUTO 00000KT 10SM CLR 16/M02 A2974 RMK AO2 SLP070 T01611017 10167 20128 56009","lat":44.7603,"lon":-106.9741,"elev":1212,"name":"Sheridan Cnty Arpt, WY, US","cover":"CLR","clouds":[],"fltCat":"VFR"},{"icaoId":"KSMF","receiptTime":"2026-04-14T23:56:33.632Z","obsTime":1776210780,"reportTime":"2026-04-15T00:00:00.000Z","temp":20.6,"dewp":6.1,"wdir":170,"wspd":6,"visib":"10+","altim":1019,"slp":1018.9,"qcField":12,"presTend":-1.7,"maxT":20.6,"minT":16.1,"metarType":"METAR","rawOb":"METAR KSMF 142353Z 17006KT 10SM FEW250 21/06 A3009 RMK AO2 SLP189 T02060061 10206 20161 56017 $","lat":38.7007,"lon":-121.5948,"elev":7,"name":"Sacramento Intl, CA, US","cover":"FEW","clouds":[{"cover":"FEW","base":25000}],"fltCat":"VFR"},{"icaoId":"KTWF","receiptTime":"2026-04-14T23:56:33.768Z","obsTime":1776210780,"reportTime":"2026-04-15T00:00:00.000Z","temp":13.9,"dewp":0,"wdir":300,"wspd":9,"wgst":16,"visib":"10+","altim":1014.3,"slp":1012.1,"qcField":4,"presTend":-1.4,"maxT":14.4,"minT":9.4,"metarType":"METAR","rawOb":"METAR KTWF 142353Z 30009G16KT 10SM CLR 14/00 A2995 RMK AO2 SLP121 T01390000 10144 20094 56014","lat":42.4785,"lon":-114.4775,"elev":1269,"name":"Twin Falls/Joslin Fld, ID, US","cover":"CLR","clouds":[],"fltCat":"VFR"},{"icaoId":"KOGD","receiptTime":"2026-04-14T23:56:34.893Z","obsTime":1776210780,"reportTime":"2026-04-15T00:00:00.000Z","temp":12.2,"dewp":-1.1,"wdir":0,"wspd":0,"visib":"10+","altim":1015.3,"slp":1013.7,"qcField":4,"presTend":-0.4,"maxT":13.3,"minT":10,"metarType":"METAR","rawOb":"METAR KOGD 142353Z 00000KT 10SM FEW060 SCT075 12/M01 A2998 RMK AO2 SLP137 T01221011 10133 20100 55004","lat":41.1941,"lon":-112.0168,"elev":1356,"name":"Ogden/Hinckley Arpt, UT, US","cover":"SCT","clouds":[{"cover":"FEW","base":6000},{"cover":"SCT","base":7500}],"fltCat":"VFR"},{"icaoId":"KFUL","receiptTime":"2026-04-14T23:56:35.913Z","obsTime":1776210780,"reportTime":"2026-04-15T00:00:00.000Z","temp":21.1,"dewp":8.9,"wdir":"VRB","wspd":6,"visib":"10+","altim":1016.3,"slp":1016.2,"qcField":4,"presTend":-1.5,"maxT":22.2,"minT":18.9,"metarType":"METAR","rawOb":"METAR KFUL 142353Z VRB06KT 10SM CLR 21/09 A3001 RMK AO2 SLP162 T02110089 10222 20189 56015","lat":33.8715,"lon":-117.9856,"elev":23,"name":"Fullerton Muni, CA, US","cover":"CLR","clouds":[],"fltCat":"VFR"},{"icaoId":"KPSC","receiptTime":"2026-04-14T23:56:36.804Z","obsTime":1776210780,"reportTime":"2026-04-15T00:00:00.000Z","temp":12.8,"dewp":0.6,"wdir":200,"wspd":14,"wgst":22,"visib":"10+","altim":1013.3,"slp":1013.3,"qcField":4,"presTend":-1.4,"maxT":16.1,"minT":12.8,"metarType":"METAR","rawOb":"METAR KPSC 142353Z 20014G22KT 10SM SCT070 OVC090 13/01 A2992 RMK AO2 PK WND 22026/2324 SLP133 T01280006 10161 20128 58014","lat":46.2695,"lon":-119.1182,"elev":121,"name":"Pasco/Tri Cities Arpt, WA, US","cover":"OVC","clouds":[{"cover":"SCT","base":7000},{"cover":"OVC","base":9000}],"fltCat":"VFR"},{"icaoId":"KRDD","receiptTime":"2026-04-14T23:56:36.986Z","obsTime":1776210780,"reportTime":"2026-04-15T00:00:00.000Z","temp":20,"dewp":7.2,"wdir":200,"wspd":7,"visib":"10+","altim":1018,"slp":1017.7,"qcField":4,"presTend":-2,"maxT":20.6,"minT":14.4,"metarType":"METAR","rawOb":"METAR KRDD 142353Z 20007KT 170V230 10SM BKN050 20/07 A3006 RMK AO2 SLP177 T02000072 10206 20144 56020","lat":40.5146,"lon":-122.2977,"elev":152,"name":"Redding Muni, CA, US","cover":"BKN","clouds":[{"cover":"BKN","base":5000}],"fltCat":"VFR"},{"icaoId":"KMCO","receiptTime":"2026-04-14T23:56:37.468Z","obsTime":1776210780,"reportTime":"2026-04-15T00:00:00.000Z","temp":23.9,"dewp":14.4,"wdir":90,"wspd":9,"visib":"10+","altim":1022.1,"slp":1021.7,"qcField":4,"presTend":0.2,"maxT":28.9,"minT":23.9,"metarType":"METAR","rawOb":"METAR KMCO 142353Z 09009KT 10SM FEW050 24/14 A3018 RMK AO2 SLP217 T02390144 10289 20239 51002","lat":28.4182,"lon":-81.3241,"elev":27,"name":"Orlando Intl, FL, US","cover":"FEW","clouds":[{"cover":"FEW","base":5000}],"fltCat":"VFR"},{"icaoId":"KMDW","receiptTime":"2026-04-14T23:56:37.499Z","obsTime":1776210780,"reportTime":"2026-04-15T00:00:00.000Z","temp":26.7,"dewp":18.3,"wdir":210,"wspd":13,"wgst":22,"visib":"10+","altim":1004.5,"slp":1003.6,"qcField":4,"presTend":-2.6,"maxT":27.8,"minT":25.6,"metarType":"METAR","rawOb":"METAR KMDW 142353Z 21013G22KT 10SM SCT048 SCT150 BKN250 27/18 A2966 RMK AO2 PK WND 22031/2340 SLP036 T02670183 10278 20256 58026","lat":41.7841,"lon":-87.7552,"elev":186,"name":"Chicago/Midway Intl, IL, US","cover":"BKN","clouds":[{"cover":"SCT","base":4800},{"cover":"SCT","base":15000},{"cover":"BKN","base":25000}],"fltCat":"VFR"},{"icaoId":"KDMN","receiptTime":"2026-04-14T23:56:37.842Z","obsTime":1776210780,"reportTime":"2026-04-15T00:00:00.000Z","temp":23.9,"dewp":-2.8,"wdir":290,"wspd":11,"wgst":21,"visib":"10+","altim":1013,"slp":1006.6,"qcField":6,"presTend":-1.4,"maxT":25.6,"minT":20.6,"metarType":"METAR","rawOb":"METAR KDMN 142353Z AUTO 29011G21KT 10SM FEW120 24/M03 A2991 RMK AO2 SLP066 T02391028 10256 20206 56014","lat":32.2592,"lon":-107.7206,"elev":1310,"name":"Deming Muni, NM, US","cover":"FEW","clouds":[{"cover":"FEW","base":12000}],"fltCat":"VFR"},{"icaoId":"KBHM","receiptTime":"2026-04-14T23:56:38.743Z","obsTime":1776210780,"reportTime":"2026-04-15T00:00:00.000Z","temp":26.7,"dewp":7.2,"wdir":200,"wspd":7,"visib":"10+","altim":1020.7,"slp":1019.8,"qcField":4,"presTend":-0.5,"maxT":30,"minT":26.7,"metarType":"METAR","rawOb":"METAR KBHM 142353Z 20007KT 10SM FEW250 27/07 A3014 RMK AO2 SLP198 T02670072 10300 20267 55005","lat":33.5655,"lon":-86.7449,"elev":191,"name":"Birmingham Intl, AL, US","cover":"FEW","clouds":[{"cover":"FEW","base":25000}],"fltCat":"VFR"},{"icaoId":"KHOU","receiptTime":"2026-04-14T23:56:42.202Z","obsTime":1776210780,"reportTime":"2026-04-15T00:00:00.000Z","temp":25.6,"dewp":20,"wdir":160,"wspd":12,"wgst":20,"visib":"10+","altim":1016,"slp":1016.3,"qcField":12,"presTend":-0.5,"maxT":28.9,"minT":25.6,"metarType":"METAR","rawOb":"METAR KHOU 142353Z 16012G20KT 10SM SCT024 SCT055 26/20 A3000 RMK AO2 SLP163 T02560200 10289 20256 55005 $","lat":29.6458,"lon":-95.2821,"elev":13,"name":"Houston/Hobby Arpt, TX, US","cover":"SCT","clouds":[{"cover":"SCT","base":2400},{"cover":"SCT","base":5500}],"fltCat":"VFR"},{"icaoId":"KGJT","receiptTime":"2026-04-14T23:56:38.473Z","obsTime":1776210780,"reportTime":"2026-04-15T00:00:00.000Z","temp":9.4,"dewp":5,"wdir":"VRB","wspd":5,"visib":"10+","altim":1015,"slp":1012.9,"qcField":4,"presTend":0.2,"maxT":10.6,"minT":5.6,"precip":0.05,"pcp6hr":0.06,"metarType":"METAR","rawOb":"METAR KGJT 142353Z VRB05KT 10SM FEW031 SCT042 BKN085 09/05 A2997 RMK AO2 RAE45 SLP129 P0005 60006 T00940050 10106 20056 53002","lat":39.1344,"lon":-108.5408,"elev":1475,"name":"Grand Junction Rgnl, CO, US","cover":"BKN","clouds":[{"cover":"FEW","base":3100},{"cover":"SCT","base":4200},{"cover":"BKN","base":8500}],"fltCat":"VFR"},{"icaoId":"KBTM","receiptTime":"2026-04-14T23:56:39.069Z","obsTime":1776210780,"reportTime":"2026-04-15T00:00:00.000Z","temp":11.7,"dewp":-7.2,"wdir":260,"wspd":14,"wgst":24,"visib":"10+","altim":1008.9,"slp":1007.2,"qcField":6,"presTend":-1.1,"maxT":11.7,"minT":7.2,"metarType":"METAR","rawOb":"METAR KBTM 142353Z AUTO 26014G24KT 10SM FEW075 12/M07 A2979 RMK AO2 SLP072 T01171072 10117 20072 56011","lat":45.9644,"lon":-112.5015,"elev":1680,"name":"Butte/Mooney Arpt, MT, US","cover":"FEW","clouds":[{"cover":"FEW","base":7500}],"fltCat":"VFR"},{"icaoId":"KDVT","receiptTime":"2026-04-14T23:56:37.992Z","obsTime":1776210780,"reportTime":"2026-04-15T00:00:00.000Z","temp":24.4,"dewp":-2.8,"wdir":250,"wspd":7,"visib":"10+","altim":1013.6,"slp":1011.9,"qcField":6,"presTend":-1.9,"maxT":24.4,"minT":20,"metarType":"METAR","rawOb":"METAR KDVT 142353Z AUTO 25007KT 10SM CLR 24/M03 A2993 RMK AO2 SLP119 T02441028 10244 20200 56019","lat":33.6902,"lon":-112.0662,"elev":454,"name":"Phoenix/Deer Valley Arpt, AZ, US","cover":"CLR","clouds":[],"fltCat":"VFR"},{"icaoId":"KBFI","receiptTime":"2026-04-14T23:56:38.682Z","obsTime":1776210780,"reportTime":"2026-04-15T00:00:00.000Z","temp":8.9,"dewp":5.6,"wdir":190,"wspd":11,"wgst":25,"visib":5,"altim":1011.3,"slp":1011.2,"qcField":4,"wxString":"-RA BR","presTend":-2,"maxT":9.4,"minT":8.9,"precip":0.08,"pcp6hr":0.22,"metarType":"METAR","rawOb":"METAR KBFI 142353Z 19011G25KT 160V230 5SM -RA BR SCT024 BKN041 OVC050 09/06 A2986 RMK AO2 SLP112 P0008 60022 T00890056 10094 20089 58020","lat":47.5455,"lon":-122.3148,"elev":7,"name":"Seattle/Boeing Fld, WA, US","cover":"OVC","clouds":[{"cover":"SCT","base":2400},{"cover":"BKN","base":4100},{"cover":"OVC","base":5000}],"fltCat":"MVFR"},{"icaoId":"KGSP","receiptTime":"2026-04-14T23:56:35.948Z","obsTime":1776210780,"reportTime":"2026-04-15T00:00:00.000Z","temp":25,"dewp":10,"wdir":230,"wspd":8,"visib":"10+","altim":1019.4,"slp":1018.6,"qcField":4,"presTend":-0.1,"maxT":28.9,"minT":25,"metarType":"METAR","rawOb":"METAR KGSP 142353Z 23008KT 10SM CLR 25/10 A3010 RMK AO2 SLP186 T02500100 10289 20250 58001","lat":34.8842,"lon":-82.2209,"elev":285,"name":"Greenville-Spartanburg Intl, SC, US","cover":"CLR","clouds":[],"fltCat":"VFR"},{"icaoId":"KHLN","receiptTime":"2026-04-14T23:56:40.034Z","obsTime":1776210780,"reportTime":"2026-04-15T00:00:00.000Z","temp":13.3,"dewp":-3.3,"wdir":260,"wspd":11,"visib":"10+","altim":1006.5,"slp":1007.7,"qcField":4,"presTend":-1.3,"maxT":15.6,"minT":11.7,"metarType":"METAR","rawOb":"METAR KHLN 142353Z 26011KT 10SM CLR 13/M03 A2972 RMK AO2 SLP077 T01331033 10156 20117 55013","lat":46.6045,"lon":-111.9892,"elev":1178,"name":"Helena Rgnl, MT, US","cover":"CLR","clouds":[],"fltCat":"VFR"},{"icaoId":"KMLS","receiptTime":"2026-04-14T23:56:41.161Z","obsTime":1776210780,"reportTime":"2026-04-15T00:00:00.000Z","temp":17.8,"dewp":1.1,"wdir":240,"wspd":7,"visib":"10+","altim":1005.2,"slp":1005.1,"qcField":6,"presTend":-1.4,"maxT":18.3,"minT":15,"metarType":"METAR","rawOb":"METAR KMLS 142353Z AUTO 24007KT 10SM CLR 18/01 A2968 RMK AO2 SLP051 T01780011 10183 20150 56014","lat":46.4265,"lon":-105.8834,"elev":800,"name":"Miles City/Wiley Fld, MT, US","cover":"CLR","clouds":[],"fltCat":"VFR"},{"icaoId":"KLVS","receiptTime":"2026-04-14T23:56:37.253Z","obsTime":1776210780,"reportTime":"2026-04-15T00:00:00.000Z","temp":15,"dewp":-6.7,"wdir":200,"wspd":26,"wgst":33,"visib":"10+","altim":1013.6,"slp":1006.6,"qcField":14,"presTend":-0.6,"maxT":16.7,"minT":14.4,"metarType":"METAR","rawOb":"METAR KLVS 142353Z AUTO 20026G33KT 10SM CLR 15/M07 A2993 RMK AO2 PK WND 20035/2341 SLP066 6//// T01501067 10167 20144 56006 PNO $","lat":35.6558,"lon":-105.1385,"elev":2095,"name":"Las Vegas Muni, NM, US","cover":"CLR","clouds":[],"fltCat":"VFR"},{"icaoId":"KIDA","receiptTime":"2026-04-14T23:56:42.511Z","obsTime":1776210780,"reportTime":"2026-04-15T00:00:00.000Z","temp":12.2,"dewp":-4.4,"wdir":240,"wspd":15,"wgst":24,"visib":"10+","altim":1013.6,"slp":1013.1,"qcField":4,"presTend":-1.1,"maxT":12.2,"minT":6.1,"metarType":"METAR","rawOb":"METAR KIDA 142353Z 24015G24KT 10SM SCT070 OVC080 12/M04 A2993 RMK AO2 PK WND 24027/2324 SLP131 T01221044 10122 20061 56011","lat":43.5204,"lon":-112.0675,"elev":1444,"name":"Idaho Falls Rgnl, ID, US","cover":"OVC","clouds":[{"cover":"SCT","base":7000},{"cover":"OVC","base":8000}],"fltCat":"VFR"},{"icaoId":"KPNC","receiptTime":"2026-04-14T23:56:36.712Z","obsTime":1776210780,"reportTime":"2026-04-15T00:00:00.000Z","temp":25.6,"dewp":19.4,"wdir":180,"wspd":16,"wgst":28,"visib":"10+","altim":1007.5,"slp":1006.1,"qcField":6,"presTend":-1.2,"maxT":28.9,"minT":25.6,"metarType":"METAR","rawOb":"METAR KPNC 142353Z AUTO 18016G28KT 10SM BKN120 26/19 A2975 RMK AO2 PK WND 19028/2329 SLP061 T02560194 10289 20256 56012","lat":36.7369,"lon":-97.1024,"elev":304,"name":"Ponca City Rgnl, OK, US","cover":"BKN","clouds":[{"cover":"BKN","base":12000}],"fltCat":"VFR"},{"icaoId":"KRTN","receiptTime":"2026-04-14T23:56:33.013Z","obsTime":1776210780,"reportTime":"2026-04-15T00:00:00.000Z","temp":16.1,"dewp":-8.9,"wdir":270,"wspd":24,"wgst":32,"visib":"10+","altim":1011.6,"slp":1006.6,"qcField":14,"presTend":0.3,"maxT":19.4,"minT":15.6,"metarType":"METAR","rawOb":"METAR KRTN 142353Z AUTO 27024G32KT 10SM 16/M09 A2987 RMK AO2 PK WND 27037/2340 SLP066 T01611089 10194 20156 53003 $","lat":36.7418,"lon":-104.5076,"elev":1939,"name":"Raton/Crews Fld, NM, US"},{"icaoId":"KSEA","receiptTime":"2026-04-14T23:56:33.379Z","obsTime":1776210780,"reportTime":"2026-04-15T00:00:00.000Z","temp":8.3,"dewp":6.1,"wdir":190,"wspd":14,"wgst":22,"visib":7,"altim":1010.9,"slp":1011.7,"qcField":4,"wxString":"-RA","presTend":-2,"maxT":8.3,"minT":7.8,"precip":0.1,"pcp6hr":0.28,"metarType":"METAR","rawOb":"METAR KSEA 142353Z 19014G22KT 7SM -RA BKN019 BKN025 OVC030 08/06 A2985 RMK AO2 SLP117 P0010 60028 T00830061 10083 20078 58020","lat":47.4447,"lon":-122.3144,"elev":115,"name":"Seattle-Tacoma Intl, WA, US","cover":"OVC","clouds":[{"cover":"BKN","base":1900},{"cover":"BKN","base":2500},{"cover":"OVC","base":3000}],"fltCat":"MVFR"},{"icaoId":"KASE","receiptTime":"2026-04-14T23:56:30.130Z","obsTime":1776210780,"reportTime":"2026-04-15T00:00:00.000Z","temp":4.4,"dewp":-2.8,"wdir":340,"wspd":15,"wgst":27,"visib":"10+","altim":1015,"slp":1010,"qcField":4,"presTend":1.1,"maxT":8.9,"minT":4.4,"metarType":"METAR","rawOb":"METAR KASE 142353Z 34015G27KT 10SM BKN075 04/M03 A2997 RMK AO2 PK WND 32027/2348 SLP100 T00441028 10089 20044 53011","lat":39.2299,"lon":-106.8705,"elev":2384,"name":"Aspen/Pitkin Cnty, CO, US","cover":"BKN","clouds":[{"cover":"BKN","base":7500}],"fltCat":"VFR"},{"icaoId":"KCNY","receiptTime":"2026-04-14T23:56:37.707Z","obsTime":1776210780,"reportTime":"2026-04-15T00:00:00.000Z","temp":11.1,"dewp":5,"wdir":140,"wspd":5,"visib":"10+","altim":1014.6,"slp":1013,"qcField":14,"maxT":11.1,"minT":4.4,"pcp6hr":0.05,"metarType":"METAR","rawOb":"METAR KCNY 142353Z AUTO 14005KT 10SM CLR 11/05 A2996 RMK AO2 SLP130 60005 T01110050 10111 20044 55000 $","lat":38.7501,"lon":-109.7627,"elev":1392,"name":"Moab/Canyonland Fld, UT, US","cover":"CLR","clouds":[],"fltCat":"VFR"},{"icaoId":"KMTJ","receiptTime":"2026-04-14T23:56:41.427Z","obsTime":1776210780,"reportTime":"2026-04-15T00:00:00.000Z","temp":8.3,"dewp":0,"wdir":30,"wspd":9,"visib":"10+","altim":1016,"slp":1012.4,"qcField":6,"presTend":0.5,"maxT":11.7,"minT":5.6,"pcp6hr":0.03,"metarType":"METAR","rawOb":"METAR KMTJ 142353Z AUTO 03009KT 10SM BKN060 OVC070 08/00 A3000 RMK AO2 SLP124 60003 T00830000 10117 20056 53005","lat":38.5054,"lon":-107.8981,"elev":1755,"name":"Montrose Rgnl, CO, US","cover":"OVC","clouds":[{"cover":"BKN","base":6000},{"cover":"OVC","base":7000}],"fltCat":"VFR"},{"icaoId":"KPGA","receiptTime":"2026-04-14T23:56:36.540Z","obsTime":1776210780,"reportTime":"2026-04-15T00:00:00.000Z","temp":16.1,"dewp":-5.6,"wdir":310,"wspd":7,"visib":"10+","altim":1014.6,"slp":1011.7,"qcField":6,"presTend":-0.4,"maxT":16.7,"minT":11.1,"metarType":"METAR","rawOb":"METAR KPGA 142353Z AUTO 31007KT 10SM OVC110 16/M06 A2996 RMK AO2 SLP117 T01611056 10167 20111 55004","lat":36.9211,"lon":-111.4487,"elev":1310,"name":"Page Muni, AZ, US","cover":"OVC","clouds":[{"cover":"OVC","base":11000}],"fltCat":"VFR"},{"icaoId":"KMYR","receiptTime":"2026-04-14T23:56:07.451Z","obsTime":1776210780,"reportTime":"2026-04-15T00:00:00.000Z","temp":20.6,"dewp":16.7,"wdir":200,"wspd":12,"visib":"10+","altim":1021.1,"slp":1021,"qcField":12,"presTend":0.1,"maxT":25,"minT":20.6,"metarType":"METAR","rawOb":"METAR KMYR 142353Z 20012KT 10SM CLR 21/17 A3015 RMK AO2 SLP210 T02060167 10250 20206 50001 $","lat":33.6769,"lon":-78.9325,"elev":7,"name":"Myrtle Beach Intl, SC, US","cover":"CLR","clouds":[],"fltCat":"VFR"},{"icaoId":"KDEN","receiptTime":"2026-04-14T23:56:36.245Z","obsTime":1776210780,"reportTime":"2026-04-15T00:00:00.000Z","temp":9.4,"dewp":0,"wdir":280,"wspd":16,"wgst":25,"visib":"10+","altim":1011.3,"slp":1008.6,"qcField":4,"wxString":"-RA","presTend":-0.4,"maxT":16.1,"minT":8.3,"precip":0.005,"pcp6hr":0.005,"metarType":"METAR","rawOb":"METAR KDEN 142353Z 28016G25KT 10SM -RA SCT055 BKN070 BKN100 BKN200 09/00 A2986 RMK AO2 PK WND 29035/2319 RAB36 SLP086 P0000 60000 T00940000 10161 20083 55004","lat":39.8466,"lon":-104.6562,"elev":1656,"name":"Denver Intl, CO, US","cover":"BKN","clouds":[{"cover":"SCT","base":5500},{"cover":"BKN","base":7000},{"cover":"BKN","base":10000},{"cover":"BKN","base":20000}],"fltCat":"VFR"},{"icaoId":"KCPR","receiptTime":"2026-04-14T23:56:37.736Z","obsTime":1776210780,"reportTime":"2026-04-15T00:00:00.000Z","temp":16.1,"dewp":-12.8,"wdir":290,"wspd":9,"wgst":17,"visib":"10+","altim":1007.9,"slp":1005.6,"qcField":4,"presTend":-0.4,"maxT":16.7,"minT":12.2,"metarType":"METAR","rawOb":"METAR KCPR 142353Z 29009G17KT 10SM CLR 16/M13 A2976 RMK AO2 SLP056 T01611128 10167 20122 56004","lat":42.8978,"lon":-106.4736,"elev":1623,"name":"Casper/Natrona Cnty, WY, US","cover":"CLR","clouds":[],"fltCat":"VFR"},{"icaoId":"KYKM","receiptTime":"2026-04-14T23:56:34.347Z","obsTime":1776210780,"reportTime":"2026-04-15T00:00:00.000Z","temp":11.1,"dewp":1.1,"wdir":200,"wspd":19,"wgst":27,"visib":"10+","altim":1010.6,"slp":1011,"qcField":4,"presTend":-1.2,"maxT":14.4,"minT":9.4,"metarType":"METAR","rawOb":"METAR KYKM 142353Z 20019G27KT 10SM BKN075 OVC090 11/01 A2984 RMK AO2 PK WND 21037/2314 SLP110 T01110011 10144 20094 56012","lat":46.564,"lon":-120.5349,"elev":319,"name":"Yakima/McAllister Fld, WA, US","cover":"OVC","clouds":[{"cover":"BKN","base":7500},{"cover":"OVC","base":9000}],"fltCat":"VFR"},{"icaoId":"KPUW","receiptTime":"2026-04-14T23:56:36.886Z","obsTime":1776210780,"reportTime":"2026-04-15T00:00:00.000Z","temp":8.3,"dewp":-1.1,"wdir":250,"wspd":12,"wgst":24,"visib":"10+","altim":1013.3,"slp":1014.2,"qcField":6,"presTend":-1,"maxT":9.4,"minT":7.2,"metarType":"METAR","rawOb":"METAR KPUW 142353Z AUTO 25012G24KT 10SM BKN075 OVC090 08/M01 A2992 RMK AO2 PK WND 25029/2256 SLP142 T00831011 10094 20072 56010","lat":46.7438,"lon":-117.1158,"elev":774,"name":"Pullman/Moscow Rgnl, WA, US","cover":"OVC","clouds":[{"cover":"BKN","base":7500},{"cover":"OVC","base":9000}],"fltCat":"VFR"},{"icaoId":"PANC","receiptTime":"2026-04-14T23:56:40.707Z","obsTime":1776210780,"reportTime":"2026-04-15T00:00:00.000Z","temp":4.4,"dewp":-6.1,"wdir":230,"wspd":6,"visib":"10+","altim":1011.6,"slp":1011.5,"qcField":4,"presTend":-0.3,"maxT":5,"minT":0.6,"snow":14000,"metarType":"METAR","rawOb":"METAR PANC 142353Z 23006KT 10SM FEW120 FEW200 04/M06 A2987 RMK AO2 SLP115 4/014 T00441061 10050 20006 58003","lat":61.1691,"lon":-150.0277,"elev":39,"name":"Anchorage Intl, AK, US","cover":"FEW","clouds":[{"cover":"FEW","base":12000},{"cover":"FEW","base":20000}],"fltCat":"VFR"},{"icaoId":"KACV","receiptTime":"2026-04-14T23:56:39.632Z","obsTime":1776210780,"reportTime":"2026-04-15T00:00:00.000Z","temp":12.2,"dewp":5,"wdir":310,"wspd":8,"visib":"10+","altim":1022.8,"slp":1023.3,"qcField":6,"presTend":-1,"maxT":13.3,"minT":11.1,"metarType":"METAR","rawOb":"METAR KACV 142353Z AUTO 31008KT 10SM FEW100 BKN120 12/05 A3020 RMK AO2 SLP233 T01220050 10133 20111 58010","lat":40.9784,"lon":-124.1048,"elev":63,"name":"Arcata Arpt, CA, US","cover":"BKN","clouds":[{"cover":"FEW","base":10000},{"cover":"BKN","base":12000}],"fltCat":"VFR"},{"icaoId":"KMAF","receiptTime":"2026-04-14T23:56:37.346Z","obsTime":1776210780,"reportTime":"2026-04-15T00:00:00.000Z","temp":23.9,"dewp":11.7,"wdir":200,"wspd":11,"visib":"10+","altim":1011.3,"slp":1007.3,"qcField":4,"presTend":-0.1,"maxT":30.6,"minT":23.9,"precip":0.005,"pcp6hr":0.005,"metarType":"METAR","rawOb":"METAR KMAF 142353Z 20011KT 10SM FEW095 SCT120 24/12 A2986 RMK AO2 PK WND 19030/2324 LTG DSNT E-SW RAE00 PRESRR SLP073 P0000 60000 T02390117 10306 20239 55001","lat":31.9475,"lon":-102.2086,"elev":874,"name":"Midland Intl, TX, US","cover":"SCT","clouds":[{"cover":"FEW","base":9500},{"cover":"SCT","base":12000}],"fltCat":"VFR"},{"icaoId":"KATL","receiptTime":"2026-04-14T23:56:26.953Z","obsTime":1776210720,"reportTime":"2026-04-15T00:00:00.000Z","temp":26.7,"dewp":6.1,"wdir":220,"wspd":6,"visib":9,"altim":1020.7,"slp":1019.8,"qcField":12,"presTend":-0.3,"maxT":30,"minT":26.7,"metarType":"METAR","rawOb":"METAR KATL 142352Z 22006KT 9SM BKN250 27/06 A3014 RMK AO2 SLP198 T02670061 10300 20267 58003 $","lat":33.6297,"lon":-84.4422,"elev":309,"name":"Atlanta/Hartsfield-Jackson Intl, GA, US","cover":"BKN","clouds":[{"cover":"BKN","base":25000}],"fltCat":"VFR"},{"icaoId":"KMLF","receiptTime":"2026-04-14T23:56:19.378Z","obsTime":1776210720,"reportTime":"2026-04-15T00:00:00.000Z","temp":13.9,"dewp":-4.4,"wdir":0,"wspd":0,"visib":"10+","altim":1015.7,"slp":1013.6,"qcField":6,"presTend":-0.8,"maxT":15,"minT":10,"metarType":"METAR","rawOb":"METAR KMLF 142352Z AUTO 00000KT 10SM SCT090 14/M04 A2999 RMK AO2 SLP136 T01391044 10150 20100 56008","lat":38.4225,"lon":-113.0109,"elev":1537,"name":"Milford Muni, UT, US","cover":"SCT","clouds":[{"cover":"SCT","base":9000}],"fltCat":"VFR"},{"icaoId":"KIAD","receiptTime":"2026-04-14T23:56:26.687Z","obsTime":1776210720,"reportTime":"2026-04-15T00:00:00.000Z","temp":27.2,"dewp":12.8,"wdir":200,"wspd":7,"visib":"10+","altim":1012.6,"slp":1012.3,"qcField":12,"presTend":-0.7,"maxT":30.6,"minT":27.2,"precip":0.005,"pcp6hr":0.005,"metarType":"METAR","rawOb":"METAR KIAD 142352Z 20007KT 10SM FEW080 SCT110 SCT250 27/13 A2990 RMK AO2 RAB18E28 SLP123 P0000 60000 T02720128 10306 20272 56007 $","lat":38.9348,"lon":-77.4473,"elev":90,"name":"Washington/Dulles Intl, VA, US","cover":"SCT","clouds":[{"cover":"FEW","base":8000},{"cover":"SCT","base":11000},{"cover":"SCT","base":25000}],"fltCat":"VFR"},{"icaoId":"KCLT","receiptTime":"2026-04-14T23:56:07.323Z","obsTime":1776210720,"reportTime":"2026-04-15T00:00:00.000Z","temp":26.1,"dewp":9.4,"wdir":210,"wspd":7,"visib":"10+","altim":1019,"slp":1019.7,"qcField":4,"presTend":-0.2,"maxT":30,"minT":26.1,"metarType":"METAR","rawOb":"METAR KCLT 142352Z 21007KT 10SM FEW075 FEW100 SCT250 26/09 A3009 RMK AO2 SLP197 T02610094 10300 20261 56002","lat":35.2225,"lon":-80.9543,"elev":223,"name":"Charlotte/Douglas Intl, NC, US","cover":"SCT","clouds":[{"cover":"FEW","base":7500},{"cover":"FEW","base":10000},{"cover":"SCT","base":25000}],"fltCat":"VFR"},{"icaoId":"KCVG","receiptTime":"2026-04-14T23:56:07.357Z","obsTime":1776210720,"reportTime":"2026-04-15T00:00:00.000Z","temp":25,"dewp":16.1,"wdir":220,"wspd":11,"wgst":20,"visib":"10+","altim":1014.3,"slp":1013.2,"qcField":4,"presTend":-0.2,"maxT":27.2,"minT":25,"metarType":"METAR","rawOb":"METAR KCVG 142352Z 22011G20KT 10SM FEW055 BKN250 25/16 A2995 RMK AO2 PK WND 22026/2303 SLP132 T02500161 10272 20250 55002","lat":39.0444,"lon":-84.6724,"elev":264,"name":"Cincinnati Intl, KY, US","cover":"BKN","clouds":[{"cover":"FEW","base":5500},{"cover":"BKN","base":25000}],"fltCat":"VFR"},{"icaoId":"KSPS","receiptTime":"2026-04-14T23:56:19.392Z","obsTime":1776210720,"reportTime":"2026-04-15T00:00:00.000Z","temp":24.4,"dewp":18.9,"wdir":170,"wspd":18,"wgst":24,"visib":"10+","altim":1010.2,"slp":1008.9,"qcField":4,"presTend":-0.3,"maxT":29.4,"minT":20.6,"metarType":"METAR","rawOb":"METAR KSPS 142352Z 17018G24KT 10SM BKN060 BKN200 24/19 A2983 RMK AO2 PK WND 17027/2319 WSHFT 2253 LTG DSNT W-N SLP089 T02440189 10294 20206 58003","lat":33.9785,"lon":-98.493,"elev":310,"name":"Wichita Falls Rgnl, TX, US","cover":"BKN","clouds":[{"cover":"BKN","base":6000},{"cover":"BKN","base":20000}],"fltCat":"VFR"},{"icaoId":"KHRL","receiptTime":"2026-04-14T23:56:26.652Z","obsTime":1776210720,"reportTime":"2026-04-15T00:00:00.000Z","temp":26.7,"dewp":20.6,"wdir":130,"wspd":22,"wgst":28,"visib":"10+","altim":1012.3,"slp":1012,"qcField":4,"presTend":-1,"maxT":31.1,"minT":26.7,"metarType":"METAR","rawOb":"METAR KHRL 142352Z 13022G28KT 10SM FEW031 27/21 A2989 RMK AO2 PK WND 15029/2302 SLP120 T02670206 10311 20267 56010","lat":26.2303,"lon":-97.6556,"elev":9,"name":"Harlingen/Valley Intl, TX, US","cover":"FEW","clouds":[{"cover":"FEW","base":3100}],"fltCat":"VFR"},{"icaoId":"KABI","receiptTime":"2026-04-14T23:56:19.275Z","obsTime":1776210720,"reportTime":"2026-04-15T00:00:00.000Z","temp":23.9,"dewp":18.3,"wdir":190,"wspd":22,"wgst":34,"visib":"10+","altim":1010.9,"slp":1008.5,"qcField":4,"presTend":-1.5,"maxT":27.2,"minT":23.9,"metarType":"METAR","rawOb":"METAR KABI 142352Z 19022G34KT 10SM CLR 24/18 A2985 RMK AO2 PK WND 18034/2310 SLP085 T02390183 10272 20239 58015","lat":32.4106,"lon":-99.6821,"elev":543,"name":"Abilene Rgnl, TX, US","cover":"CLR","clouds":[],"fltCat":"VFR"},{"icaoId":"KOKC","receiptTime":"2026-04-14T23:56:07.489Z","obsTime":1776210720,"reportTime":"2026-04-15T00:00:00.000Z","temp":22.8,"dewp":19.4,"wdir":160,"wspd":17,"wgst":29,"visib":"10+","altim":1009.6,"slp":1008,"qcField":4,"presTend":-1.3,"maxT":27.8,"minT":22.8,"precip":0.005,"pcp6hr":0.005,"metarType":"METAR","rawOb":"METAR KOKC 142352Z 16017G29KT 10SM FEW017 SCT030 BKN140 OVC170 23/19 A2981 RMK AO2 PK WND 15032/2320 RAE05 PRESRR SLP080 P0000 60000 T02280194 10278 20228 55013","lat":35.3843,"lon":-97.6003,"elev":391,"name":"Oklahoma City/Will Rogers Intl, OK, US","cover":"OVC","clouds":[{"cover":"FEW","base":1700},{"cover":"SCT","base":3000},{"cover":"BKN","base":14000},{"cover":"OVC","base":17000}],"fltCat":"VFR"},{"icaoId":"KABQ","receiptTime":"2026-04-14T23:56:19.291Z","obsTime":1776210720,"reportTime":"2026-04-15T00:00:00.000Z","temp":17.8,"dewp":-8.9,"wdir":290,"wspd":19,"wgst":26,"visib":"10+","altim":1013,"slp":1007.8,"qcField":4,"presTend":-0.9,"maxT":19.4,"minT":16.1,"metarType":"METAR","rawOb":"METAR KABQ 142352Z 29019G26KT 10SM FEW070 SCT110 BKN160 18/M09 A2991 RMK AO2 PK WND 29028/2323 SLP078 VIRGA SW-NW T01781089 10194 20161 55009","lat":35.0419,"lon":-106.6154,"elev":1620,"name":"Albuquerque Intl, NM, US","cover":"BKN","clouds":[{"cover":"FEW","base":7000},{"cover":"SCT","base":11000},{"cover":"BKN","base":16000}],"fltCat":"VFR"},{"icaoId":"KDCA","receiptTime":"2026-04-14T23:56:07.372Z","obsTime":1776210720,"reportTime":"2026-04-15T00:00:00.000Z","temp":25.6,"dewp":15,"wdir":180,"wspd":7,"visib":"10+","altim":1012.6,"slp":1012.3,"qcField":4,"presTend":-0.7,"maxT":30.6,"minT":25.6,"metarType":"METAR","rawOb":"METAR KDCA 142352Z 18007KT 10SM FEW070 BKN150 BKN250 26/15 A2990 RMK AO2 SLP123 T02560150 10306 20256 57007","lat":38.8472,"lon":-77.0345,"elev":4,"name":"Washington/Reagan-National Arpt, VA, US","cover":"BKN","clouds":[{"cover":"FEW","base":7000},{"cover":"BKN","base":15000},{"cover":"BKN","base":25000}],"fltCat":"VFR"},{"icaoId":"KLGU","receiptTime":"2026-04-14T23:54:11.749Z","obsTime":1776210660,"reportTime":"2026-04-15T00:00:00.000Z","temp":12.2,"dewp":-1.1,"wdir":0,"wspd":0,"visib":"10+","altim":1015,"slp":1014.1,"qcField":6,"presTend":-0.7,"maxT":12.8,"minT":8.3,"pcp6hr":0.005,"metarType":"METAR","rawOb":"METAR KLGU 142351Z AUTO 00000KT 10SM FEW095 12/M01 A2997 RMK AO2 SLP141 60000 T01221011 10128 20083 56007","lat":41.7865,"lon":-111.8519,"elev":1359,"name":"Logan/Cache Arpt, UT, US","cover":"FEW","clouds":[{"cover":"FEW","base":9500}],"fltCat":"VFR"},{"icaoId":"KCLE","receiptTime":"2026-04-14T23:54:09.951Z","obsTime":1776210660,"reportTime":"2026-04-15T00:00:00.000Z","temp":23.3,"dewp":17.2,"wdir":180,"wspd":3,"visib":"10+","altim":1011.3,"slp":1012.2,"qcField":12,"presTend":-0.7,"maxT":24.4,"minT":17.8,"pcp6hr":0.005,"metarType":"METAR","rawOb":"METAR KCLE 142351Z 18003KT 10SM FEW060 BKN200 23/17 A2986 RMK AO2 SLP122 60000 T02330172 10244 20178 56007 $","lat":41.4057,"lon":-81.8519,"elev":237,"name":"Cleveland/Hopkins Intl, OH, US","cover":"BKN","clouds":[{"cover":"FEW","base":6000},{"cover":"BKN","base":20000}],"fltCat":"VFR"},{"icaoId":"KLGA","receiptTime":"2026-04-14T23:56:26.768Z","obsTime":1776210660,"reportTime":"2026-04-15T00:00:00.000Z","temp":27.8,"dewp":12.8,"wdir":230,"wspd":10,"visib":"10+","altim":1009.6,"slp":1009.5,"qcField":12,"presTend":0.1,"maxT":30,"minT":25.6,"metarType":"METAR","rawOb":"METAR KLGA 142351Z 23010KT 10SM FEW060 FEW150 SCT250 28/13 A2981 RMK AO2 PK WND 26027/2307 SLP095 T02780128 10300 20256 53001 $","lat":40.7794,"lon":-73.8803,"elev":9,"name":"New York/La Guardia Arpt, NY, US","cover":"SCT","clouds":[{"cover":"FEW","base":6000},{"cover":"FEW","base":15000},{"cover":"SCT","base":25000}],"fltCat":"VFR"},{"icaoId":"KJFK","receiptTime":"2026-04-14T23:54:11.717Z","obsTime":1776210660,"reportTime":"2026-04-15T00:00:00.000Z","temp":16.1,"dewp":10.6,"wdir":190,"wspd":7,"visib":"10+","altim":1010.6,"slp":1010.4,"qcField":4,"presTend":-0.3,"maxT":25.6,"minT":15.6,"metarType":"METAR","rawOb":"METAR KJFK 142351Z 19007KT 10SM FEW050 FEW110 SCT250 16/11 A2984 RMK AO2 SLP104 T01610106 10256 20156 55003","lat":40.6392,"lon":-73.7639,"elev":3,"name":"New York/JF Kennedy Intl, NY, US","cover":"SCT","clouds":[{"cover":"FEW","base":5000},{"cover":"FEW","base":11000},{"cover":"SCT","base":25000}],"fltCat":"VFR"},{"icaoId":"KCMH","receiptTime":"2026-04-14T23:54:10.923Z","obsTime":1776210660,"reportTime":"2026-04-15T00:00:00.000Z","temp":26.1,"dewp":16.1,"wdir":220,"wspd":13,"wgst":18,"visib":"10+","altim":1013,"slp":1012.3,"qcField":4,"presTend":-0.2,"maxT":28.9,"minT":26.1,"metarType":"METAR","rawOb":"METAR KCMH 142351Z 22013G18KT 10SM FEW050 BKN200 26/16 A2991 RMK AO2 SLP123 T02610161 10289 20261 55002","lat":39.9907,"lon":-82.877,"elev":257,"name":"Columbus/Glenn Intl, OH, US","cover":"BKN","clouds":[{"cover":"FEW","base":5000},{"cover":"BKN","base":20000}],"fltCat":"VFR"},{"icaoId":"KPIT","receiptTime":"2026-04-14T23:54:10.081Z","obsTime":1776210660,"reportTime":"2026-04-15T00:00:00.000Z","temp":19.4,"dewp":17.8,"wdir":140,"wspd":3,"visib":"10+","altim":1014,"slp":1014.1,"qcField":12,"maxT":25,"minT":19.4,"pcp6hr":0.27,"metarType":"METAR","rawOb":"METAR KPIT 142351Z 14003KT 10SM FEW060 SCT150 SCT250 19/18 A2994 RMK AO2 SLP141 60027 T01940178 10250 20194 51000 $","lat":40.4814,"lon":-80.2083,"elev":339,"name":"Pittsburgh Intl, PA, US","cover":"SCT","clouds":[{"cover":"FEW","base":6000},{"cover":"SCT","base":15000},{"cover":"SCT","base":25000}],"fltCat":"VFR"},{"icaoId":"KACT","receiptTime":"2026-04-14T23:54:10.226Z","obsTime":1776210660,"reportTime":"2026-04-15T00:00:00.000Z","temp":26.7,"dewp":19.4,"wdir":150,"wspd":11,"visib":"10+","altim":1012.3,"slp":1011.5,"qcField":4,"presTend":-2.1,"maxT":28.3,"minT":24.4,"metarType":"METAR","rawOb":"METAR KACT 142351Z 15011KT 10SM CLR 27/19 A2989 RMK AO2 SLP115 T02670194 10283 20244 58021","lat":31.618,"lon":-97.2283,"elev":150,"name":"Waco Rgnl, TX, US","cover":"CLR","clouds":[],"fltCat":"VFR"},{"icaoId":"KMYL","receiptTime":"2026-04-14T23:54:11.896Z","obsTime":1776210660,"reportTime":"2026-04-15T00:00:00.000Z","temp":6.7,"dewp":-1.1,"wdir":200,"wspd":8,"visib":"10+","altim":1014,"slp":1014.4,"qcField":6,"presTend":-1.2,"maxT":7.8,"minT":4.4,"metarType":"METAR","rawOb":"METAR KMYL 142351Z AUTO 20008KT 10SM SCT036 BKN044 BKN100 07/M01 A2994 RMK AO2 SLP144 T00671011 10078 20044 58012","lat":44.8943,"lon":-116.0998,"elev":1532,"name":"McCall Muni, ID, US","cover":"BKN","clouds":[{"cover":"SCT","base":3600},{"cover":"BKN","base":4400},{"cover":"BKN","base":10000}],"fltCat":"VFR"},{"icaoId":"KORD","receiptTime":"2026-04-14T23:54:11.919Z","obsTime":1776210660,"reportTime":"2026-04-15T00:00:00.000Z","temp":26.7,"dewp":17.8,"wdir":210,"wspd":11,"wgst":28,"visib":"10+","altim":1004.1,"slp":1003.6,"qcField":4,"presTend":-2.4,"maxT":27.8,"minT":25.6,"metarType":"METAR","rawOb":"METAR KORD 142351Z 21011G28KT 10SM FEW040 SCT048 SCT140 BKN240 OVC300 27/18 A2965 RMK AO2 PK WND 20028/2335 SLP036 T02670178 10278 20256 58024","lat":41.9602,"lon":-87.9316,"elev":202,"name":"Chicago/O'Hare Intl, IL, US","cover":"BKN","clouds":[{"cover":"FEW","base":4000},{"cover":"SCT","base":4800},{"cover":"SCT","base":14000},{"cover":"BKN","base":24000}],"fltCat":"VFR"},{"icaoId":"KROW","receiptTime":"2026-04-14T23:54:12.329Z","obsTime":1776210660,"reportTime":"2026-04-15T00:00:00.000Z","temp":24.4,"dewp":0,"wdir":230,"wspd":26,"wgst":39,"visib":"10+","altim":1010.2,"slp":1004.8,"qcField":4,"presTend":-0.9,"maxT":27.2,"minT":24.4,"metarType":"METAR","rawOb":"METAR KROW 142351Z 23026G39KT 10SM CLR 24/00 A2983 RMK AO2 PK WND 23039/2351 SLP048 T02440000 10272 20244 56009","lat":33.3074,"lon":-104.5082,"elev":1105,"name":"Roswell/Ind Arpt, NM, US","cover":"CLR","clouds":[],"fltCat":"VFR"},{"icaoId":"KSAD","receiptTime":"2026-04-14T23:54:12.365Z","obsTime":1776210660,"reportTime":"2026-04-15T00:00:00.000Z","temp":22.2,"dewp":-5.6,"wdir":300,"wspd":14,"wgst":23,"visib":"10+","altim":1012.6,"slp":1009.1,"qcField":6,"presTend":-1.2,"maxT":24.4,"minT":19.4,"metarType":"METAR","rawOb":"METAR KSAD 142351Z AUTO 30014G23KT 10SM CLR 22/M06 A2990 RMK AO2 PK WND 32031/2310 SLP091 T02221056 10244 20194 56012","lat":32.8565,"lon":-109.636,"elev":937,"name":"Safford Rgnl, AZ, US","cover":"CLR","clouds":[],"fltCat":"VFR"},{"icaoId":"KSAT","receiptTime":"2026-04-14T23:54:12.479Z","obsTime":1776210660,"reportTime":"2026-04-15T00:00:00.000Z","temp":28.3,"dewp":17.8,"wdir":130,"wspd":17,"wgst":26,"visib":"10+","altim":1011.9,"slp":1010.1,"qcField":12,"maxT":31.1,"minT":25,"metarType":"METAR","rawOb":"METAR KSAT 142351Z 13017G26KT 10SM FEW060 OVC250 28/18 A2988 RMK AO2 PK WND 14026/2347 SLP101 T02830178 10311 20250 $","lat":29.5443,"lon":-98.4839,"elev":246,"name":"San Antonio Intl, TX, US","cover":"OVC","clouds":[{"cover":"FEW","base":6000},{"cover":"OVC","base":25000}],"fltCat":"VFR"},{"icaoId":"KVNY","receiptTime":"2026-04-14T23:54:12.954Z","obsTime":1776210660,"reportTime":"2026-04-15T00:00:00.000Z","temp":22.2,"dewp":9.4,"wdir":140,"wspd":8,"wgst":16,"visib":"10+","altim":1016,"slp":1015.3,"qcField":12,"presTend":-1.7,"maxT":23.3,"minT":16.7,"metarType":"METAR","rawOb":"METAR KVNY 142351Z 14008G16KT 10SM CLR 22/09 A3000 RMK AO2 SLP153 T02220094 10233 20167 56017 $","lat":34.2121,"lon":-118.4915,"elev":241,"name":"Van Nuys Arpt, CA, US","cover":"CLR","clouds":[],"fltCat":"VFR"},{"icaoId":"KPHX","receiptTime":"2026-04-14T23:54:12.026Z","obsTime":1776210660,"reportTime":"2026-04-15T00:00:00.000Z","temp":25.6,"dewp":-1.7,"wdir":250,"wspd":8,"wgst":15,"visib":"10+","altim":1013,"slp":1011.7,"qcField":4,"presTend":-2.1,"maxT":26.1,"minT":21.1,"metarType":"METAR","rawOb":"METAR KPHX 142351Z 25008G15KT 10SM FEW120 FEW150 26/M02 A2991 RMK AO2 SLP117 T02561017 10261 20211 56021","lat":33.4278,"lon":-112.0037,"elev":338,"name":"Phoenix/Sky Harbor Intl, AZ, US","cover":"FEW","clouds":[{"cover":"FEW","base":12000},{"cover":"FEW","base":15000}],"fltCat":"VFR"},{"icaoId":"KPVD","receiptTime":"2026-04-14T23:54:12.113Z","obsTime":1776210660,"reportTime":"2026-04-15T00:00:00.000Z","temp":12.2,"dewp":9.4,"wdir":150,"wspd":9,"visib":"10+","altim":1010.2,"slp":1010,"qcField":4,"presTend":-0.4,"maxT":22.8,"minT":12.2,"metarType":"METAR","rawOb":"METAR KPVD 142351Z 15009KT 10SM FEW065 FEW110 BKN250 12/09 A2983 RMK AO2 SLP100 T01220094 10228 20122 56004","lat":41.7225,"lon":-71.4325,"elev":15,"name":"Providence/Green Mem, RI, US","cover":"BKN","clouds":[{"cover":"FEW","base":6500},{"cover":"FEW","base":11000},{"cover":"BKN","base":25000}],"fltCat":"VFR"},{"icaoId":"KRDU","receiptTime":"2026-04-14T23:54:12.229Z","obsTime":1776210660,"reportTime":"2026-04-15T00:00:00.000Z","temp":26.1,"dewp":9.4,"wdir":250,"wspd":4,"visib":"10+","altim":1017.7,"slp":1017.3,"qcField":4,"presTend":-0.2,"maxT":31.7,"minT":25.6,"metarType":"METAR","rawOb":"METAR KRDU 142351Z 25004KT 10SM FEW180 BKN250 26/09 A3005 RMK AO2 SLP173 T02610094 10317 20256 58002","lat":35.8923,"lon":-78.782,"elev":121,"name":"Raleigh-Durham Intl, NC, US","cover":"BKN","clouds":[{"cover":"FEW","base":18000},{"cover":"BKN","base":25000}],"fltCat":"VFR"},{"icaoId":"KSAN","receiptTime":"2026-04-14T23:54:12.422Z","obsTime":1776210660,"reportTime":"2026-04-15T00:00:00.000Z","temp":20,"dewp":10,"wdir":310,"wspd":10,"wgst":17,"visib":"10+","altim":1017.4,"slp":1017.3,"qcField":12,"presTend":-1.9,"maxT":20.6,"minT":17.8,"metarType":"METAR","rawOb":"METAR KSAN 142351Z 31010G17KT 10SM FEW040 20/10 A3004 RMK AO2 SLP173 T02000100 10206 20178 56019 $","lat":32.7364,"lon":-117.1973,"elev":3,"name":"San Diego Intl Arpt, CA, US","cover":"FEW","clouds":[{"cover":"FEW","base":4000}],"fltCat":"VFR"},{"icaoId":"KSTL","receiptTime":"2026-04-14T23:54:12.727Z","obsTime":1776210660,"reportTime":"2026-04-15T00:00:00.000Z","temp":29.4,"dewp":17.2,"wdir":190,"wspd":15,"wgst":26,"visib":"10+","altim":1009.6,"slp":1008.2,"qcField":12,"presTend":-0.2,"maxT":31.7,"minT":28.3,"metarType":"METAR","rawOb":"METAR KSTL 142351Z 19015G26KT 170V230 10SM FEW065 BKN250 29/17 A2981 RMK AO2 PK WND 21026/2344 SLP082 T02940172 10317 20283 56002 $","lat":38.7525,"lon":-90.3734,"elev":163,"name":"St Louis/Lambert Intl, MO, US","cover":"BKN","clouds":[{"cover":"FEW","base":6500},{"cover":"BKN","base":25000}],"fltCat":"VFR"},{"icaoId":"KBDL","receiptTime":"2026-04-14T23:54:10.458Z","obsTime":1776210660,"reportTime":"2026-04-15T00:00:00.000Z","temp":23.3,"dewp":13.3,"wdir":190,"wspd":13,"visib":"10+","altim":1007.9,"slp":1007.8,"qcField":4,"presTend":0.2,"maxT":30,"minT":23.3,"metarType":"METAR","rawOb":"METAR KBDL 142351Z 19013KT 10SM FEW075 SCT120 BKN250 23/13 A2976 RMK AO2 SLP078 T02330133 10300 20233 53002","lat":41.9374,"lon":-72.682,"elev":52,"name":"Hartford/Bradley Intl, CT, US","cover":"BKN","clouds":[{"cover":"FEW","base":7500},{"cover":"SCT","base":12000},{"cover":"BKN","base":25000}],"fltCat":"VFR"},{"icaoId":"KOXR","receiptTime":"2026-04-14T23:54:11.996Z","obsTime":1776210660,"reportTime":"2026-04-15T00:00:00.000Z","temp":17.8,"dewp":9.4,"wdir":270,"wspd":11,"visib":"10+","altim":1017.4,"slp":1017.3,"qcField":12,"presTend":-1.5,"maxT":19.4,"minT":17.2,"metarType":"METAR","rawOb":"METAR KOXR 142351Z 27011KT 10SM CLR 18/09 A3004 RMK AO2 SLP173 T01780094 10194 20172 56015 $","lat":34.2001,"lon":-119.2042,"elev":12,"name":"Oxnard Arpt, CA, US","cover":"CLR","clouds":[],"fltCat":"VFR"},{"icaoId":"KCRP","receiptTime":"2026-04-14T23:54:11.100Z","obsTime":1776210660,"reportTime":"2026-04-15T00:00:00.000Z","temp":26.1,"dewp":20.6,"wdir":140,"wspd":22,"visib":"10+","altim":1013.3,"slp":1013.1,"qcField":4,"presTend":-0.9,"maxT":30,"minT":26.1,"metarType":"METAR","rawOb":"METAR KCRP 142351Z 14022KT 10SM FEW022 FEW030 FEW250 26/21 A2992 RMK AO2 PK WND 14032/2306 SLP131 T02610206 10300 20261 56009","lat":27.7734,"lon":-97.513,"elev":11,"name":"Corpus Christi Intl, TX, US","cover":"FEW","clouds":[{"cover":"FEW","base":2200},{"cover":"FEW","base":3000},{"cover":"FEW","base":25000}],"fltCat":"VFR"},{"icaoId":"KELP","receiptTime":"2026-04-14T23:54:11.284Z","obsTime":1776210660,"reportTime":"2026-04-15T00:00:00.000Z","temp":24.4,"dewp":-1.1,"wdir":230,"wspd":13,"wgst":27,"visib":"10+","altim":1012.3,"slp":1005.8,"qcField":4,"presTend":-1.2,"maxT":25.6,"minT":22.2,"metarType":"METAR","rawOb":"METAR KELP 142351Z 23013G27KT 10SM SCT100 SCT140 BKN180 BKN250 24/M01 A2989 RMK AO2 PK WND 25034/2314 SLP058 VIRGA DSNT W-NW T02441011 10256 20222 56012","lat":31.8123,"lon":-106.3774,"elev":1205,"name":"El Paso Intl, TX, US","cover":"BKN","clouds":[{"cover":"SCT","base":10000},{"cover":"SCT","base":14000},{"cover":"BKN","base":18000},{"cover":"BKN","base":25000}],"fltCat":"VFR"},{"icaoId":"KEWR","receiptTime":"2026-04-14T23:54:11.320Z","obsTime":1776210660,"reportTime":"2026-04-15T00:00:00.000Z","temp":28.3,"dewp":12.8,"wdir":230,"wspd":15,"visib":"10+","altim":1009.9,"slp":1009.7,"qcField":4,"presTend":0.2,"maxT":31.7,"minT":28.3,"metarType":"METAR","rawOb":"METAR KEWR 142351Z 23015KT 10SM FEW060 FEW110 SCT250 28/13 A2982 RMK AO2 PK WND 23026/2327 SLP097 CB DSNT W-DSNT NW MOV E T02830128 10317 20283 51002","lat":40.6828,"lon":-74.1692,"elev":2,"name":"Newark Intl, NJ, US","cover":"SCT","clouds":[{"cover":"FEW","base":6000},{"cover":"FEW","base":11000},{"cover":"SCT","base":25000}],"fltCat":"VFR"},{"icaoId":"KIGM","receiptTime":"2026-04-14T23:54:11.608Z","obsTime":1776210660,"reportTime":"2026-04-15T00:00:00.000Z","temp":19.4,"dewp":-3.3,"wdir":240,"wspd":9,"visib":"10+","altim":1016,"slp":1011.8,"qcField":6,"presTend":-1.5,"maxT":20,"minT":13.9,"metarType":"METAR","rawOb":"METAR KIGM 142351Z AUTO 24009KT 10SM CLR 19/M03 A3000 RMK AO2 SLP118 T01941033 10200 20139 56015","lat":35.2575,"lon":-113.9341,"elev":1045,"name":"Kingman Arpt, AZ, US","cover":"CLR","clouds":[],"fltCat":"VFR"},{"icaoId":"KORF","receiptTime":"2026-04-14T23:54:11.959Z","obsTime":1776210660,"reportTime":"2026-04-15T00:00:00.000Z","temp":26.1,"dewp":13.3,"wdir":210,"wspd":9,"visib":"10+","altim":1015.7,"slp":1015.6,"qcField":4,"presTend":0.2,"maxT":31.1,"minT":26.1,"metarType":"METAR","rawOb":"METAR KORF 142351Z 21009KT 10SM CLR 26/13 A2999 RMK AO2 SLP156 T02610133 10311 20261 51002","lat":36.9037,"lon":-76.1927,"elev":5,"name":"Norfolk Intl, VA, US","cover":"CLR","clouds":[],"fltCat":"VFR"},{"icaoId":"KADM","receiptTime":"2026-04-14T23:58:03.912Z","obsTime":1776210600,"reportTime":"2026-04-15T00:00:00.000Z","temp":24,"dewp":21,"wdir":170,"wspd":14,"visib":"10+","altim":1011.9,"qcField":0,"metarType":"METAR","rawOb":"METAR KADM 142350Z 17014KT 10SM SCT022 OVC080 24/21 A2988 RMK LTG DSNT W AND NW","lat":34.3007,"lon":-97.0089,"elev":223,"name":"Ardmore Muni, OK, US","cover":"OVC","clouds":[{"cover":"SCT","base":2200},{"cover":"OVC","base":8000}],"fltCat":"VFR"},{"icaoId":"KHOB","receiptTime":"2026-04-14T23:51:30.696Z","obsTime":1776210600,"reportTime":"2026-04-15T00:00:00.000Z","temp":25,"dewp":-1,"wdir":240,"wspd":20,"wgst":28,"visib":"10+","altim":1011.9,"qcField":0,"metarType":"METAR","rawOb":"METAR KHOB 142350Z 24020G28KT 10SM BKN200 25/M01 A2988","lat":32.6797,"lon":-103.2222,"elev":1112,"name":"Hobbs Arpt, NM, US","cover":"BKN","clouds":[{"cover":"BKN","base":20000}],"fltCat":"VFR"},{"icaoId":"KAEG","receiptTime":"2026-04-14T23:50:29.991Z","obsTime":1776210600,"reportTime":"2026-04-15T00:00:00.000Z","temp":17,"dewp":-13,"wdir":250,"wspd":23,"wgst":31,"visib":"10+","altim":1014.3,"qcField":0,"metarType":"METAR","rawOb":"METAR KAEG 142350Z 25023G31KT 10SM SCT090 17/M13 A2995","lat":35.15,"lon":-106.7929,"elev":1771,"name":"Albuquerque/Double Eagle Arpt, NM, US","cover":"SCT","clouds":[{"cover":"SCT","base":9000}],"fltCat":"VFR"},{"icaoId":"KGYR","receiptTime":"2026-04-14T23:47:49.207Z","obsTime":1776210420,"reportTime":"2026-04-15T00:00:00.000Z","temp":24,"dewp":-1,"wdir":220,"wspd":10,"visib":"10+","altim":1014,"qcField":0,"metarType":"METAR","rawOb":"METAR KGYR 142347Z 22010KT 10SM FEW090 24/M01 A2994","lat":33.428,"lon":-112.368,"elev":292,"name":"Phoenix/Goodyear Muni, AZ, US","cover":"FEW","clouds":[{"cover":"FEW","base":9000}],"fltCat":"VFR"},{"icaoId":"KGEU","receiptTime":"2026-04-14T23:59:17.211Z","obsTime":1776210420,"reportTime":"2026-04-15T00:00:00.000Z","temp":25,"dewp":-2,"wdir":220,"wspd":7,"visib":"10+","altim":1012.6,"qcField":0,"metarType":"METAR","rawOb":"METAR KGEU 142347Z 22007KT 10SM CLR 25/M02 A2990","lat":33.528,"lon":-112.293,"elev":319,"name":"Glendale Muni, AZ, US","cover":"CLR","clouds":[],"fltCat":"VFR"},{"icaoId":"KCHD","receiptTime":"2026-04-14T23:49:00.382Z","obsTime":1776210420,"reportTime":"2026-04-15T00:00:00.000Z","temp":25,"dewp":-4,"wdir":250,"wspd":5,"visib":"10+","altim":1013.6,"qcField":0,"metarType":"METAR","rawOb":"METAR KCHD 142347Z 25005KT 10SM CLR 25/M04 A2993","lat":33.2669,"lon":-111.8086,"elev":378,"name":"Chandler Muni, AZ, US","cover":"CLR","clouds":[],"fltCat":"VFR"},{"icaoId":"KSUN","receiptTime":"2026-04-14T23:47:49.332Z","obsTime":1776210420,"reportTime":"2026-04-15T00:00:00.000Z","temp":11,"dewp":-3,"wdir":210,"wspd":12,"wgst":20,"visib":"10+","altim":1014,"qcField":0,"metarType":"METAR","rawOb":"METAR KSUN 142347Z 21012G20KT 10SM CLR 11/M03 A2994","lat":43.4969,"lon":-114.2923,"elev":1619,"name":"Hailey/Friedman Mem, ID, US","cover":"CLR","clouds":[],"fltCat":"VFR"},{"icaoId":"KIFP","receiptTime":"2026-04-14T23:46:40.489Z","obsTime":1776210420,"reportTime":"2026-04-15T00:00:00.000Z","temp":26,"dewp":-2,"wdir":260,"wspd":7,"visib":"10+","altim":1013,"qcField":0,"metarType":"METAR","rawOb":"METAR KIFP 142347Z 26007KT 10SM CLR 26/M02 A2991","lat":35.1487,"lon":-114.5611,"elev":210,"name":"Bullhead City Intl, AZ, US","cover":"CLR","clouds":[],"fltCat":"VFR"},{"icaoId":"KBJC","receiptTime":"2026-04-14T23:52:11.155Z","obsTime":1776210300,"reportTime":"2026-04-15T00:00:00.000Z","temp":7,"dewp":-2,"wdir":250,"wspd":9,"visib":"10+","altim":1011.6,"qcField":0,"wxString":"VCSH","metarType":"METAR","rawOb":"METAR KBJC 142345Z 25009KT 10SM VCSH SCT060 SCT070 OVC095 07/M02 A2987 RMK VIRGA ALQDS","lat":39.9008,"lon":-105.1042,"elev":1694,"name":"Rocky Mtn Metro, CO, US","cover":"OVC","clouds":[{"cover":"SCT","base":6000},{"cover":"SCT","base":7000},{"cover":"OVC","base":9500}],"fltCat":"VFR"}]