[{"icaoId":"KFLG","receiptTime":"2026-04-09T09:00:10.095Z","obsTime":1775725020,"reportTime":"2026-04-09T09:00:00.000Z","temp":3.3,"dewp":-6.7,"wdir":0,"wspd":0,"visib":"10+","altim":1020.4,"slp":1013.1,"qcField":6,"presTend":-0.6,"metarType":"METAR","rawOb":"METAR KFLG 090857Z AUTO 00000KT 10SM CLR 03/M07 A3013 RMK AO2 SLP131 T00331067 58006","lat":35.1443,"lon":-111.6664,"elev":2134,"name":"Flagstaff/Pulliam Arpt, AZ, US","cover":"CLR","clouds":[],"fltCat":"VFR"},{"icaoId":"KNYL","receiptTime":"2026-04-09T09:01:05.116Z","obsTime":1775725020,"reportTime":"2026-04-09T09:00:00.000Z","temp":22.8,"dewp":3.9,"wdir":250,"wspd":3,"visib":"10+","altim":1008.5,"slp":1008.2,"qcField":6,"presTend":-0.3,"metarType":"METAR","rawOb":"METAR KNYL 090857Z AUTO 25003KT 10SM CLR 23/04 A2978 RMK AO2 SLP082 T02280039 56003","lat":32.66,"lon":-114.6078,"elev":58,"name":"Yuma , AZ, US","cover":"CLR","clouds":[],"fltCat":"VFR"},{"icaoId":"KCGZ","receiptTime":"2026-04-09T08:58:33.010Z","obsTime":1775724960,"reportTime":"2026-04-09T09:00:00.000Z","temp":19.4,"dewp":-2.8,"wdir":220,"wspd":4,"visib":"10+","altim":1010.9,"slp":1009.3,"qcField":14,"presTend":0.7,"metarType":"METAR","rawOb":"METAR KCGZ 090856Z AUTO 22004KT 10SM CLR 19/M03 A2985 RMK AO2 SLP093 6//// T01941028 50007 $","lat":32.9531,"lon":-111.7725,"elev":444,"name":"Casa Granda Muni, AZ, US","cover":"CLR","clouds":[],"fltCat":"VFR"},{"icaoId":"KINW","receiptTime":"2026-04-09T09:00:10.316Z","obsTime":1775724960,"reportTime":"2026-04-09T09:00:00.000Z","temp":13.3,"dewp":-2.2,"wdir":30,"wspd":4,"visib":"10+","altim":1017,"slp":1010.9,"qcField":6,"presTend":0.3,"metarType":"METAR","rawOb":"METAR KINW 090856Z AUTO 03004KT 10SM CLR 13/M02 A3003 RMK AO2 SLP109 T01331022 51003","lat":35.0279,"lon":-110.7221,"elev":1492,"name":"Winslow/Lindberg Rgnl, AZ, US","cover":"CLR","clouds":[],"fltCat":"VFR"},{"icaoId":"KDUG","receiptTime":"2026-04-09T09:02:29.666Z","obsTime":1775724960,"reportTime":"2026-04-09T09:00:00.000Z","temp":13.3,"dewp":-1.7,"wdir":50,"wspd":6,"visib":"10+","altim":1016.3,"slp":1010.2,"qcField":38,"presTend":0.3,"metarType":"METAR","rawOb":"METAR KDUG 090856Z AUTO 05006KT 10SM CLR 13/M02 A3001 RMK AO2 SLP102 T01331017 51003 TSNO","lat":31.4725,"lon":-109.6022,"elev":1260,"name":"Douglas/Bisbee Intl, AZ, US","cover":"CLR","clouds":[],"fltCat":"VFR"},{"icaoId":"KSEZ","receiptTime":"2026-04-09T08:58:24.391Z","obsTime":1775724900,"reportTime":"2026-04-09T09:00:00.000Z","temp":15,"dewp":-5,"wdir":30,"wspd":10,"visib":"10+","altim":1016.7,"qcField":6,"metarType":"METAR","rawOb":"METAR KSEZ 090855Z AUTO 03010KT 10SM CLR 15/M05 A3002 RMK AO2","lat":34.8467,"lon":-111.7884,"elev":1455,"name":"Sedona Arpt, AZ, US","cover":"CLR","clouds":[],"fltCat":"VFR"},{"icaoId":"KHII","receiptTime":"2026-04-09T09:02:30.917Z","obsTime":1775724900,"reportTime":"2026-04-09T09:00:00.000Z","temp":26,"dewp":-2,"wdir":270,"wspd":4,"visib":"10+","altim":1008.2,"qcField":6,"metarType":"METAR","rawOb":"METAR KHII 090855Z AUTO 27004KT 10SM CLR 26/M02 A2977 RMK AO2","lat":34.5659,"lon":-114.3522,"elev":241,"name":"Lake Havasu City Arpt, AZ, US","cover":"CLR","clouds":[],"fltCat":"VFR"},{"icaoId":"KCHD","receiptTime":"2026-04-09T08:58:20.266Z","obsTime":1775724900,"reportTime":"2026-04-09T09:00:00.000Z","temp":24.1,"dewp":-2.3,"wdir":170,"wspd":6,"visib":"10+","altim":1009.9,"qcField":14,"metarType":"METAR","rawOb":"METAR KCHD 090855Z AUTO 17006KT 10SM CLR 24/M02 A2982 RMK AO2 T02411023 $","lat":33.2669,"lon":-111.8086,"elev":378,"name":"Chandler Muni, AZ, US","cover":"CLR","clouds":[],"fltCat":"VFR"},{"icaoId":"KIWA","receiptTime":"2026-04-09T09:00:11.319Z","obsTime":1775724900,"reportTime":"2026-04-09T09:00:00.000Z","temp":21,"dewp":0.2,"wdir":100,"wspd":5,"visib":"10+","altim":1010.6,"qcField":6,"metarType":"METAR","rawOb":"METAR KIWA 090855Z AUTO 10005KT 10SM CLR 21/00 A2984 RMK AO2 T02100002","lat":33.3008,"lon":-111.6437,"elev":420,"name":"Phoenix/Mesa Gateway Arpt, AZ, US","cover":"CLR","clouds":[],"fltCat":"VFR"},{"icaoId":"KSOW","receiptTime":"2026-04-09T08:58:32.012Z","obsTime":1775724900,"reportTime":"2026-04-09T09:00:00.000Z","temp":7,"dewp":-4,"wdir":170,"wspd":5,"visib":"10+","altim":1020.4,"qcField":6,"metarType":"METAR","rawOb":"METAR KSOW 090855Z AUTO 17005KT 10SM CLR 07/M04 A3013 RMK AO2","lat":34.2686,"lon":-110.0019,"elev":1954,"name":"Show Low Muni, AZ, US","cover":"CLR","clouds":[],"fltCat":"VFR"},{"icaoId":"KIFP","receiptTime":"2026-04-09T09:00:11.182Z","obsTime":1775724900,"reportTime":"2026-04-09T09:00:00.000Z","temp":26,"dewp":-6,"wdir":"VRB","wspd":3,"wgst":11,"visib":"10+","altim":1007.9,"qcField":6,"metarType":"METAR","rawOb":"METAR KIFP 090855Z AUTO VRB03G11KT 10SM CLR 26/M06 A2976 RMK AO2 LTG DSNT NW","lat":35.1487,"lon":-114.5611,"elev":210,"name":"Bullhead City Intl, AZ, US","cover":"CLR","clouds":[],"fltCat":"VFR"},{"icaoId":"KSJN","receiptTime":"2026-04-09T08:58:09.637Z","obsTime":1775724840,"reportTime":"2026-04-09T09:00:00.000Z","temp":10,"dewp":-1.7,"wdir":190,"wspd":3,"visib":"10+","altim":1018.4,"slp":1011,"qcField":6,"presTend":0.1,"metarType":"METAR","rawOb":"METAR KSJN 090854Z AUTO 19003KT 10SM CLR 10/M02 A3007 RMK AO2 SLP110 T01001017 50001","lat":34.5184,"lon":-109.3801,"elev":1747,"name":"St Johns Ind Arpt, AZ, US","cover":"CLR","clouds":[],"fltCat":"VFR"},{"icaoId":"KOLS","receiptTime":"2026-04-09T08:58:06.332Z","obsTime":1775724840,"reportTime":"2026-04-09T09:00:00.000Z","temp":16.7,"dewp":-4.4,"wdir":130,"wspd":3,"visib":"10+","altim":1016.7,"slp":1010.1,"qcField":6,"presTend":0.4,"metarType":"METAR","rawOb":"METAR KOLS 090854Z AUTO 13003KT 10SM CLR 17/M04 A3002 RMK AO2 SLP101 T01671044 50004","lat":31.4208,"lon":-110.8465,"elev":1194,"name":"Nogales Intl, AZ, US","cover":"CLR","clouds":[],"fltCat":"VFR"},{"icaoId":"KGCN","receiptTime":"2026-04-09T08:58:11.684Z","obsTime":1775724840,"reportTime":"2026-04-09T09:00:00.000Z","temp":1.1,"dewp":-2.8,"wdir":0,"wspd":0,"visib":"10+","altim":1020.1,"slp":1013.8,"qcField":6,"presTend":-0.3,"metarType":"METAR","rawOb":"METAR KGCN 090854Z AUTO 00000KT 10SM CLR 01/M03 A3012 RMK AO2 SLP138 T00111028 58003","lat":35.9458,"lon":-112.1554,"elev":1993,"name":"Grand Canyon Park Arpt, AZ, US","cover":"CLR","clouds":[],"fltCat":"VFR"},{"icaoId":"KFFZ","receiptTime":"2026-04-09T08:58:35.043Z","obsTime":1775724840,"reportTime":"2026-04-09T09:00:00.000Z","temp":21.1,"dewp":2.8,"wdir":100,"wspd":4,"visib":"10+","altim":1009.9,"slp":1007.4,"qcField":38,"presTend":0.4,"metarType":"METAR","rawOb":"METAR KFFZ 090854Z AUTO 10004KT 10SM CLR 21/03 A2982 RMK AO2 SLP074 T02110028 51004 TSNO","lat":33.4659,"lon":-111.7212,"elev":420,"name":"Mesa/Falcon Fld, AZ, US","cover":"CLR","clouds":[],"fltCat":"VFR"},{"icaoId":"KPGA","receiptTime":"2026-04-09T08:56:34.855Z","obsTime":1775724780,"reportTime":"2026-04-09T09:00:00.000Z","temp":16.7,"dewp":-8.9,"wdir":220,"wspd":4,"visib":"10+","altim":1014.3,"slp":1008.4,"qcField":14,"presTend":0.6,"metarType":"METAR","rawOb":"METAR KPGA 090853Z AUTO 22004KT 10SM CLR 17/M09 A2995 RMK AO2 SLP084 T01671089 51006 $","lat":36.9211,"lon":-111.4487,"elev":1310,"name":"Page Muni, AZ, US","cover":"CLR","clouds":[],"fltCat":"VFR"},{"icaoId":"KSDL","receiptTime":"2026-04-09T08:56:35.090Z","obsTime":1775724780,"reportTime":"2026-04-09T09:00:00.000Z","temp":20.6,"dewp":1.1,"wdir":0,"wspd":0,"visib":"10+","altim":1010.6,"slp":1007.9,"qcField":6,"presTend":0.4,"metarType":"METAR","rawOb":"METAR KSDL 090853Z AUTO 00000KT 10SM CLR 21/01 A2984 RMK AO2 SLP079 T02060011 51004","lat":33.6123,"lon":-111.9232,"elev":438,"name":"Scottsdale Muni, AZ, US","cover":"CLR","clouds":[],"fltCat":"VFR"},{"icaoId":"KDVT","receiptTime":"2026-04-09T08:56:26.477Z","obsTime":1775724780,"reportTime":"2026-04-09T09:00:00.000Z","temp":20.6,"dewp":-4.4,"wdir":0,"wspd":0,"visib":"10+","altim":1010.2,"slp":1007.6,"qcField":6,"presTend":0.2,"metarType":"METAR","rawOb":"METAR KDVT 090853Z AUTO 00000KT 10SM CLR 21/M04 A2983 RMK AO2 SLP076 T02061044 50002","lat":33.6902,"lon":-112.0662,"elev":454,"name":"Phoenix/Deer Valley Arpt, AZ, US","cover":"CLR","clouds":[],"fltCat":"VFR"},{"icaoId":"KPRC","receiptTime":"2026-04-09T08:56:34.918Z","obsTime":1775724780,"reportTime":"2026-04-09T09:00:00.000Z","temp":11.7,"dewp":-4.4,"wdir":190,"wspd":6,"visib":"10+","altim":1017,"slp":1009.9,"qcField":6,"presTend":-0.3,"metarType":"METAR","rawOb":"METAR KPRC 090853Z AUTO 19006KT 10SM CLR 12/M04 A3003 RMK AO2 SLP099 T01171044 58003","lat":34.6491,"lon":-112.4223,"elev":1528,"name":"Prescott/Love Fld, AZ, US","cover":"CLR","clouds":[],"fltCat":"VFR"},{"icaoId":"KTUS","receiptTime":"2026-04-09T08:56:32.531Z","obsTime":1775724780,"reportTime":"2026-04-09T09:00:00.000Z","temp":21.1,"dewp":-3.9,"wdir":140,"wspd":7,"visib":"10+","altim":1014.3,"slp":1009.6,"qcField":4,"presTend":0.7,"metarType":"METAR","rawOb":"METAR KTUS 090853Z 14007KT 10SM CLR 21/M04 A2995 RMK AO2 SLP096 T02111039 51007","lat":32.1315,"lon":-110.9564,"elev":776,"name":"Tucson Intl Arpt, AZ, US","cover":"CLR","clouds":[],"fltCat":"VFR"},{"icaoId":"KPHX","receiptTime":"2026-04-09T08:54:06.808Z","obsTime":1775724660,"reportTime":"2026-04-09T09:00:00.000Z","temp":25.6,"dewp":-1.7,"wdir":0,"wspd":0,"visib":"10+","altim":1009.2,"slp":1007,"qcField":4,"presTend":0.4,"metarType":"METAR","rawOb":"METAR KPHX 090851Z 00000KT 10SM CLR 26/M02 A2980 RMK AO2 SLP070 T02561017 50004","lat":33.4278,"lon":-112.0037,"elev":338,"name":"Phoenix/Sky Harbor Intl, AZ, US","cover":"CLR","clouds":[],"fltCat":"VFR"},{"icaoId":"KSAD","receiptTime":"2026-04-09T08:54:06.916Z","obsTime":1775724660,"reportTime":"2026-04-09T09:00:00.000Z","temp":16.1,"dewp":-5.6,"wdir":0,"wspd":0,"visib":"10+","altim":1013.3,"slp":1008.7,"qcField":6,"presTend":0.5,"metarType":"METAR","rawOb":"METAR KSAD 090851Z AUTO 00000KT 10SM CLR 16/M06 A2992 RMK AO2 SLP087 T01611056 51005","lat":32.8565,"lon":-109.636,"elev":937,"name":"Safford Rgnl, AZ, US","cover":"CLR","clouds":[],"fltCat":"VFR"},{"icaoId":"KIGM","receiptTime":"2026-04-09T08:54:06.626Z","obsTime":1775724660,"reportTime":"2026-04-09T09:00:00.000Z","temp":18.3,"dewp":-3.9,"wdir":170,"wspd":10,"visib":"10+","altim":1013.3,"slp":1006.5,"qcField":6,"presTend":-0.2,"metarType":"METAR","rawOb":"METAR KIGM 090851Z AUTO 17010KT 10SM CLR 18/M04 A2992 RMK AO2 SLP065 T01831039 58002","lat":35.2575,"lon":-113.9341,"elev":1045,"name":"Kingman Arpt, AZ, US","cover":"CLR","clouds":[],"fltCat":"VFR"},{"icaoId":"KLUF","receiptTime":"2026-04-09T08:10:04.223Z","obsTime":1775721300,"reportTime":"2026-04-09T08:00:00.000Z","temp":21.7,"dewp":-1.6,"wdir":10,"wspd":3,"visib":"10+","altim":1008.9,"slp":1007.4,"qcField":46,"metarType":"METAR","rawOb":"METAR KLUF 090755Z AUTO 01003KT 10SM CLR 22/M02 A2979 RMK AO2 SLP074 T02171016 TSNO $","lat":33.538,"lon":-112.38,"elev":333,"name":"Phoenix/Luke AFB, AZ, US","cover":"CLR","clouds":[],"fltCat":"VFR"}]