[{"icaoId":"KFLG","receiptTime":"2026-04-06T08:00:20.024Z","obsTime":1775462220,"reportTime":"2026-04-06T08:00:00.000Z","temp":4.4,"dewp":-5,"wdir":0,"wspd":0,"visib":"10+","altim":1024.8,"slp":1017.6,"qcField":6,"metarType":"METAR","rawOb":"METAR KFLG 060757Z AUTO 00000KT 10SM CLR 04/M05 A3026 RMK AO2 SLP176 T00441050","lat":35.1443,"lon":-111.6664,"elev":2134,"name":"Flagstaff/Pulliam Arpt, AZ, US","cover":"CLR","clouds":[],"fltCat":"VFR"},{"icaoId":"KNYL","receiptTime":"2026-04-06T08:02:09.471Z","obsTime":1775462220,"reportTime":"2026-04-06T08:00:00.000Z","temp":23.9,"dewp":-1.7,"wdir":190,"wspd":3,"visib":"10+","altim":1011.9,"slp":1011.6,"qcField":14,"metarType":"METAR","rawOb":"METAR KNYL 060757Z AUTO 19003KT 10SM CLR 24/M02 A2988 RMK AO2 SLP116 T02391017 $","lat":32.66,"lon":-114.6078,"elev":58,"name":"Yuma , AZ, US","cover":"CLR","clouds":[],"fltCat":"VFR"},{"icaoId":"KCGZ","receiptTime":"2026-04-06T07:58:23.042Z","obsTime":1775462160,"reportTime":"2026-04-06T08:00:00.000Z","temp":24.4,"dewp":0.6,"wdir":110,"wspd":10,"visib":"10+","altim":1013.3,"slp":1011.7,"qcField":14,"metarType":"METAR","rawOb":"METAR KCGZ 060756Z AUTO 11010KT 10SM CLR 24/01 A2992 RMK AO2 SLP117 T02440006 $","lat":32.9531,"lon":-111.7725,"elev":444,"name":"Casa Granda Muni, AZ, US","cover":"CLR","clouds":[],"fltCat":"VFR"},{"icaoId":"KINW","receiptTime":"2026-04-06T08:00:18.847Z","obsTime":1775462160,"reportTime":"2026-04-06T08:00:00.000Z","temp":12.2,"dewp":-2.2,"wdir":220,"wspd":4,"visib":"10+","altim":1021.1,"slp":1016.1,"qcField":6,"metarType":"METAR","rawOb":"METAR KINW 060756Z AUTO 22004KT 10SM CLR 12/M02 A3015 RMK AO2 SLP161 T01221022","lat":35.0279,"lon":-110.7221,"elev":1492,"name":"Winslow/Lindberg Rgnl, AZ, US","cover":"CLR","clouds":[],"fltCat":"VFR"},{"icaoId":"KDUG","receiptTime":"2026-04-06T08:02:09.397Z","obsTime":1775462160,"reportTime":"2026-04-06T08:00:00.000Z","temp":16.1,"dewp":5,"wdir":100,"wspd":10,"visib":"10+","altim":1021.8,"slp":1016,"qcField":38,"metarType":"METAR","rawOb":"METAR KDUG 060756Z AUTO 10010KT 10SM CLR 16/05 A3017 RMK AO2 SLP160 T01610050 TSNO","lat":31.4725,"lon":-109.6022,"elev":1260,"name":"Douglas/Bisbee Intl, AZ, US","cover":"CLR","clouds":[],"fltCat":"VFR"},{"icaoId":"KSEZ","receiptTime":"2026-04-06T08:00:18.970Z","obsTime":1775462100,"reportTime":"2026-04-06T08:00:00.000Z","temp":18,"dewp":-3,"wdir":50,"wspd":6,"visib":"10+","altim":1020.7,"qcField":6,"metarType":"METAR","rawOb":"METAR KSEZ 060755Z AUTO 05006KT 10SM OVC110 18/M03 A3014 RMK AO2","lat":34.8467,"lon":-111.7884,"elev":1455,"name":"Sedona Arpt, AZ, US","cover":"OVC","clouds":[{"cover":"OVC","base":11000}],"fltCat":"VFR"},{"icaoId":"KLUF","receiptTime":"2026-04-06T08:04:04.949Z","obsTime":1775462100,"reportTime":"2026-04-06T08:00:00.000Z","temp":23.9,"dewp":-1.1,"wdir":330,"wspd":3,"visib":"10+","altim":1011.9,"slp":1010.4,"qcField":46,"metarType":"METAR","rawOb":"METAR KLUF 060755Z AUTO 33003KT 10SM CLR 24/M01 A2988 RMK AO2 SLP104 T02391011 TSNO $","lat":33.538,"lon":-112.38,"elev":333,"name":"Phoenix/Luke AFB, AZ, US","cover":"CLR","clouds":[],"fltCat":"VFR"},{"icaoId":"KIWA","receiptTime":"2026-04-06T08:00:29.216Z","obsTime":1775462100,"reportTime":"2026-04-06T08:00:00.000Z","temp":27.1,"dewp":0.7,"wdir":110,"wspd":15,"visib":"10+","altim":1013.6,"qcField":6,"metarType":"METAR","rawOb":"METAR KIWA 060755Z AUTO 11015KT 10SM CLR 27/01 A2993 RMK AO2 T02710007","lat":33.3008,"lon":-111.6437,"elev":420,"name":"Phoenix/Mesa Gateway Arpt, AZ, US","cover":"CLR","clouds":[],"fltCat":"VFR"},{"icaoId":"KSOW","receiptTime":"2026-04-06T07:58:14.491Z","obsTime":1775462100,"reportTime":"2026-04-06T08:00:00.000Z","temp":12,"dewp":-3,"wdir":190,"wspd":13,"visib":"10+","altim":1024.8,"qcField":6,"metarType":"METAR","rawOb":"METAR KSOW 060755Z AUTO 19013KT 10SM CLR 12/M03 A3026 RMK AO2","lat":34.2686,"lon":-110.0019,"elev":1954,"name":"Show Low Muni, AZ, US","cover":"CLR","clouds":[],"fltCat":"VFR"},{"icaoId":"KIFP","receiptTime":"2026-04-06T08:00:18.833Z","obsTime":1775462100,"reportTime":"2026-04-06T08:00:00.000Z","temp":24,"dewp":-9,"wdir":50,"wspd":4,"visib":"10+","altim":1011.9,"qcField":6,"metarType":"METAR","rawOb":"METAR KIFP 060755Z AUTO 05004KT 10SM CLR 24/M09 A2988 RMK AO2","lat":35.1487,"lon":-114.5611,"elev":210,"name":"Bullhead City Intl, AZ, US","cover":"CLR","clouds":[],"fltCat":"VFR"},{"icaoId":"KHII","receiptTime":"2026-04-06T08:00:20.391Z","obsTime":1775462100,"reportTime":"2026-04-06T08:00:00.000Z","temp":24,"dewp":-12,"wdir":60,"wspd":4,"visib":"10+","altim":1012.3,"qcField":6,"metarType":"METAR","rawOb":"METAR KHII 060755Z AUTO 06004KT 10SM CLR 24/M12 A2989 RMK AO2","lat":34.5659,"lon":-114.3522,"elev":241,"name":"Lake Havasu City Arpt, AZ, US","cover":"CLR","clouds":[],"fltCat":"VFR"},{"icaoId":"KCHD","receiptTime":"2026-04-06T07:58:17.055Z","obsTime":1775462100,"reportTime":"2026-04-06T08:00:00.000Z","temp":25.7,"dewp":2.9,"wdir":80,"wspd":7,"visib":9,"altim":1013,"qcField":6,"metarType":"METAR","rawOb":"METAR KCHD 060755Z AUTO 08007KT 9SM SCT250 26/03 A2991 RMK AO2 T02570029","lat":33.2669,"lon":-111.8086,"elev":378,"name":"Chandler Muni, AZ, US","cover":"SCT","clouds":[{"cover":"SCT","base":25000}],"fltCat":"VFR"},{"icaoId":"KOLS","receiptTime":"2026-04-06T07:58:04.695Z","obsTime":1775462040,"reportTime":"2026-04-06T08:00:00.000Z","temp":21.1,"dewp":3.3,"wdir":"VRB","wspd":3,"visib":"10+","altim":1019,"slp":1012.2,"qcField":6,"metarType":"METAR","rawOb":"METAR KOLS 060754Z AUTO VRB03KT 10SM CLR 21/03 A3009 RMK AO2 SLP122 T02110033","lat":31.4208,"lon":-110.8465,"elev":1194,"name":"Nogales Intl, AZ, US","cover":"CLR","clouds":[],"fltCat":"VFR"},{"icaoId":"KGCN","receiptTime":"2026-04-06T07:58:04.155Z","obsTime":1775462040,"reportTime":"2026-04-06T08:00:00.000Z","temp":2.8,"dewp":-5,"wdir":0,"wspd":0,"visib":"10+","altim":1024.1,"slp":1018.3,"qcField":6,"metarType":"METAR","rawOb":"METAR KGCN 060754Z AUTO 00000KT 10SM CLR 03/M05 A3024 RMK AO2 SLP183 T00281050","lat":35.9458,"lon":-112.1554,"elev":1993,"name":"Grand Canyon Park Arpt, AZ, US","cover":"CLR","clouds":[],"fltCat":"VFR"},{"icaoId":"KSJN","receiptTime":"2026-04-06T07:58:04.929Z","obsTime":1775462040,"reportTime":"2026-04-06T08:00:00.000Z","temp":14.4,"dewp":-3.3,"wdir":170,"wspd":10,"visib":"10+","altim":1023.1,"slp":1015,"qcField":6,"metarType":"METAR","rawOb":"METAR KSJN 060754Z AUTO 17010KT 10SM CLR 14/M03 A3021 RMK AO2 SLP150 T01441033","lat":34.5184,"lon":-109.3801,"elev":1747,"name":"St Johns Ind Arpt, AZ, US","cover":"CLR","clouds":[],"fltCat":"VFR"},{"icaoId":"KFFZ","receiptTime":"2026-04-06T07:58:10.499Z","obsTime":1775462040,"reportTime":"2026-04-06T08:00:00.000Z","temp":26.7,"dewp":1.1,"wdir":90,"wspd":5,"visib":"10+","altim":1013,"slp":1010.5,"qcField":38,"metarType":"METAR","rawOb":"METAR KFFZ 060754Z AUTO 09005KT 10SM CLR 27/01 A2991 RMK AO2 SLP105 T02670011 TSNO","lat":33.4659,"lon":-111.7212,"elev":420,"name":"Mesa/Falcon Fld, AZ, US","cover":"CLR","clouds":[],"fltCat":"VFR"},{"icaoId":"KPRC","receiptTime":"2026-04-06T07:56:31.484Z","obsTime":1775461980,"reportTime":"2026-04-06T08:00:00.000Z","temp":12.2,"dewp":-1.1,"wdir":190,"wspd":4,"visib":"10+","altim":1020.7,"slp":1014.1,"qcField":4,"metarType":"METAR","rawOb":"METAR KPRC 060753Z 19004KT 10SM CLR 12/M01 A3014 RMK AO2 SLP141 T01221011","lat":34.6491,"lon":-112.4223,"elev":1528,"name":"Prescott/Love Fld, AZ, US","cover":"CLR","clouds":[],"fltCat":"VFR"},{"icaoId":"KPGA","receiptTime":"2026-04-06T07:56:31.449Z","obsTime":1775461980,"reportTime":"2026-04-06T08:00:00.000Z","temp":14.4,"dewp":-9.4,"wdir":0,"wspd":0,"visib":"10+","altim":1020.4,"slp":1015.8,"qcField":14,"metarType":"METAR","rawOb":"METAR KPGA 060753Z AUTO 00000KT 10SM CLR 14/M09 A3013 RMK AO2 SLP158 T01441094 $","lat":36.9211,"lon":-111.4487,"elev":1310,"name":"Page Muni, AZ, US","cover":"CLR","clouds":[],"fltCat":"VFR"},{"icaoId":"KSDL","receiptTime":"2026-04-06T07:56:31.608Z","obsTime":1775461980,"reportTime":"2026-04-06T08:00:00.000Z","temp":26.1,"dewp":1.1,"wdir":0,"wspd":0,"visib":"10+","altim":1013.6,"slp":1011,"qcField":6,"metarType":"METAR","rawOb":"METAR KSDL 060753Z AUTO 00000KT 10SM CLR 26/01 A2993 RMK AO2 SLP110 T02610011","lat":33.6123,"lon":-111.9232,"elev":438,"name":"Scottsdale Muni, AZ, US","cover":"CLR","clouds":[],"fltCat":"VFR"},{"icaoId":"KDVT","receiptTime":"2026-04-06T07:56:33.553Z","obsTime":1775461980,"reportTime":"2026-04-06T08:00:00.000Z","temp":23.9,"dewp":-0.6,"wdir":0,"wspd":0,"visib":"10+","altim":1013.6,"slp":1011.2,"qcField":14,"metarType":"METAR","rawOb":"METAR KDVT 060753Z AUTO 00000KT 10SM CLR 24/M01 A2993 RMK AO2 SLP112 T02391006 $","lat":33.6902,"lon":-112.0662,"elev":454,"name":"Phoenix/Deer Valley Arpt, AZ, US","cover":"CLR","clouds":[],"fltCat":"VFR"},{"icaoId":"KTUS","receiptTime":"2026-04-06T07:56:33.947Z","obsTime":1775461980,"reportTime":"2026-04-06T08:00:00.000Z","temp":23.9,"dewp":3.9,"wdir":110,"wspd":12,"visib":"10+","altim":1017,"slp":1012.4,"qcField":14,"metarType":"METAR","rawOb":"METAR KTUS 060753Z AUTO 11012KT 10SM CLR 24/04 A3003 RMK AO2 SLP124 T02390039 $","lat":32.1315,"lon":-110.9564,"elev":776,"name":"Tucson Intl Arpt, AZ, US","cover":"CLR","clouds":[],"fltCat":"VFR"},{"icaoId":"KPHX","receiptTime":"2026-04-06T07:54:09.250Z","obsTime":1775461860,"reportTime":"2026-04-06T08:00:00.000Z","temp":28.3,"dewp":1.1,"wdir":90,"wspd":3,"visib":"10+","altim":1012.3,"slp":1010.3,"qcField":4,"metarType":"METAR","rawOb":"METAR KPHX 060751Z 09003KT 10SM BKN240 28/01 A2989 RMK AO2 SLP103 T02830011","lat":33.4278,"lon":-112.0037,"elev":338,"name":"Phoenix/Sky Harbor Intl, AZ, US","cover":"BKN","clouds":[{"cover":"BKN","base":24000}],"fltCat":"VFR"},{"icaoId":"KSAD","receiptTime":"2026-04-06T07:54:09.360Z","obsTime":1775461860,"reportTime":"2026-04-06T08:00:00.000Z","temp":17.8,"dewp":2.2,"wdir":100,"wspd":16,"wgst":24,"visib":"10+","altim":1022.4,"slp":1018.3,"qcField":6,"metarType":"METAR","rawOb":"METAR KSAD 060751Z AUTO 10016G24KT 10SM CLR 18/02 A3019 RMK AO2 SLP183 T01780022","lat":32.8565,"lon":-109.636,"elev":937,"name":"Safford Rgnl, AZ, US","cover":"CLR","clouds":[],"fltCat":"VFR"},{"icaoId":"KIGM","receiptTime":"2026-04-06T07:54:08.946Z","obsTime":1775461860,"reportTime":"2026-04-06T08:00:00.000Z","temp":15.6,"dewp":-6.7,"wdir":0,"wspd":0,"visib":"10+","altim":1017.7,"slp":1011.4,"qcField":6,"metarType":"METAR","rawOb":"METAR KIGM 060751Z AUTO 00000KT 10SM CLR 16/M07 A3005 RMK AO2 SLP114 T01561067","lat":35.2575,"lon":-113.9341,"elev":1045,"name":"Kingman Arpt, AZ, US","cover":"CLR","clouds":[],"fltCat":"VFR"}]