[{"icaoId":"KIFP","receiptTime":"2026-04-11T23:50:27.071Z","obsTime":1775951340,"reportTime":"2026-04-12T00:00:00.000Z","temp":29,"dewp":-4,"wdir":220,"wspd":18,"visib":20,"altim":1006.9,"qcField":0,"metarType":"METAR","rawOb":"METAR KIFP 112349Z 22018KT 20SM CLR 29/M04 A2973","lat":35.1487,"lon":-114.5611,"elev":210,"name":"Bullhead City Intl, AZ, US","cover":"CLR","clouds":[],"fltCat":"VFR"},{"icaoId":"KGEU","receiptTime":"2026-04-11T23:48:57.379Z","obsTime":1775951220,"reportTime":"2026-04-12T00:00:00.000Z","temp":31,"dewp":0,"wdir":230,"wspd":11,"visib":"10+","altim":1008.5,"qcField":0,"metarType":"METAR","rawOb":"METAR KGEU 112347Z 23011KT 10SM CLR 31/00 A2978","lat":33.528,"lon":-112.293,"elev":319,"name":"Glendale Muni, AZ, US","cover":"CLR","clouds":[],"fltCat":"VFR"},{"icaoId":"KGYR","receiptTime":"2026-04-11T23:52:05.928Z","obsTime":1775951220,"reportTime":"2026-04-12T00:00:00.000Z","temp":31,"dewp":2,"visib":"10+","altim":1009.6,"qcField":0,"metarType":"METAR","rawOb":"METAR KGYR 112347Z 23011G6KT 10SM SCT120 31/02 A2981","lat":33.428,"lon":-112.368,"elev":292,"name":"Phoenix/Goodyear Muni, AZ, US","cover":"SCT","clouds":[{"cover":"SCT","base":12000}],"fltCat":"VFR"},{"icaoId":"KRYN","receiptTime":"2026-04-11T23:47:35.586Z","obsTime":1775951100,"reportTime":"2026-04-12T00:00:00.000Z","temp":31,"dewp":-1,"wdir":240,"wspd":10,"wgst":17,"visib":"10+","altim":1011.9,"qcField":0,"metarType":"METAR","rawOb":"METAR KRYN 112345Z 24010G17KT 10SM CLR 31/M01 A2988","lat":32.1418,"lon":-111.1767,"elev":731,"name":"Tucson/Ryan Fld, AZ, US","cover":"CLR","clouds":[],"fltCat":"VFR"},{"icaoId":"KSTS","receiptTime":"2026-04-11T23:44:06.132Z","obsTime":1775950800,"reportTime":"2026-04-11T23:40:00.000Z","temp":10.6,"dewp":8.3,"wdir":240,"wspd":16,"wgst":34,"visib":2,"altim":1007.5,"qcField":12,"wxString":"+RA BR","metarType":"SPECI","rawOb":"SPECI KSTS 112340Z 24016G34KT 2SM +RA BR OVC014 11/08 A2975 RMK AO2 PK WND 23034/2331 WSHFT 2324 T01060083 PNO $","lat":38.5037,"lon":-122.811,"elev":35,"name":"Santa Rosa/Schulz Arpt, CA, US","cover":"OVC","clouds":[{"cover":"OVC","base":1400}],"fltCat":"IFR"},{"icaoId":"KSEZ","receiptTime":"2026-04-11T23:40:33.401Z","obsTime":1775950500,"reportTime":"2026-04-11T23:35:00.000Z","temp":21,"dewp":-1,"wdir":200,"wspd":14,"wgst":25,"visib":"10+","altim":1015,"qcField":6,"metarType":"METAR","rawOb":"METAR KSEZ 112335Z AUTO 20014G25KT 140V230 10SM FEW080 21/M01 A2997 RMK AO2","lat":34.8467,"lon":-111.7884,"elev":1455,"name":"Sedona Arpt, AZ, US","cover":"FEW","clouds":[{"cover":"FEW","base":8000}],"fltCat":"VFR"},{"icaoId":"KMHR","receiptTime":"2026-04-11T23:40:32.614Z","obsTime":1775950500,"reportTime":"2026-04-11T23:35:00.000Z","temp":17,"dewp":17,"wdir":150,"wspd":7,"visib":"10+","altim":1006.9,"qcField":6,"metarType":"METAR","rawOb":"METAR KMHR 112335Z AUTO 15007KT 10SM CLR 17/17 A2973 RMK AO2","lat":38.56,"lon":-121.284,"elev":30,"name":"Sacramento/Mather Fld, CA, US","cover":"CLR","clouds":[],"fltCat":"VFR"},{"icaoId":"KSOW","receiptTime":"2026-04-11T23:38:17.675Z","obsTime":1775950500,"reportTime":"2026-04-11T23:35:00.000Z","temp":20,"dewp":-6,"wdir":240,"wspd":22,"visib":"10+","altim":1018,"qcField":6,"metarType":"METAR","rawOb":"METAR KSOW 112335Z AUTO 24022KT 10SM BKN095 20/M06 A3006 RMK AO2","lat":34.2686,"lon":-110.0019,"elev":1954,"name":"Show Low Muni, AZ, US","cover":"BKN","clouds":[{"cover":"BKN","base":9500}],"fltCat":"VFR"},{"icaoId":"KBVU","receiptTime":"2026-04-11T23:36:13.982Z","obsTime":1775950500,"reportTime":"2026-04-11T23:35:00.000Z","temp":27,"dewp":-10,"wdir":230,"wspd":11,"wgst":20,"visib":"10+","altim":1007.9,"qcField":6,"metarType":"METAR","rawOb":"METAR KBVU 112335Z AUTO 23011G20KT 10SM CLR 27/M10 A2976 RMK AO2","lat":35.9489,"lon":-114.8633,"elev":654,"name":"Boulder City Muni, NV, US","cover":"CLR","clouds":[],"fltCat":"VFR"},{"icaoId":"KHTH","receiptTime":"2026-04-11T23:40:25.645Z","obsTime":1775950500,"reportTime":"2026-04-11T23:35:00.000Z","temp":19,"dewp":-9,"wdir":230,"wspd":15,"wgst":23,"visib":"10+","altim":1006.5,"qcField":6,"metarType":"METAR","rawOb":"METAR KHTH 112335Z AUTO 23015G23KT 10SM CLR 19/M09 A2972 RMK A01","lat":38.5448,"lon":-118.6314,"elev":1281,"name":"Hawthorne Muni, NV, US","cover":"CLR","clouds":[],"fltCat":"VFR"},{"icaoId":"KHII","receiptTime":"2026-04-11T23:42:21.467Z","obsTime":1775950500,"reportTime":"2026-04-11T23:35:00.000Z","temp":30,"dewp":-1,"wdir":200,"wspd":8,"wgst":23,"visib":"10+","altim":1008.2,"qcField":6,"metarType":"METAR","rawOb":"METAR KHII 112335Z AUTO 20008G23KT 10SM CLR 30/M01 A2977 RMK AO2","lat":34.5659,"lon":-114.3522,"elev":241,"name":"Lake Havasu City Arpt, AZ, US","cover":"CLR","clouds":[],"fltCat":"VFR"},{"icaoId":"KHAF","receiptTime":"2026-04-11T23:38:20.484Z","obsTime":1775950500,"reportTime":"2026-04-11T23:35:00.000Z","temp":13,"dewp":13,"wdir":190,"wspd":18,"wgst":24,"visib":1,"altim":1008.2,"qcField":6,"wxString":"BR","metarType":"METAR","rawOb":"METAR KHAF 112335Z AUTO 19018G24KT 1SM BR BKN013 BKN018 OVC028 13/13 A2977 RMK AO2","lat":37.5136,"lon":-122.4996,"elev":11,"name":"Half Moon Bay Arpt, CA, US","cover":"OVC","clouds":[{"cover":"BKN","base":1300},{"cover":"BKN","base":1800},{"cover":"OVC","base":2800}],"fltCat":"IFR"},{"icaoId":"KCXP","receiptTime":"2026-04-11T23:40:35.297Z","obsTime":1775950500,"reportTime":"2026-04-11T23:35:00.000Z","temp":12,"dewp":-1,"wdir":200,"wspd":11,"wgst":24,"visib":"10+","altim":1008.9,"qcField":6,"metarType":"METAR","rawOb":"METAR KCXP 112335Z AUTO 20011G24KT 10SM FEW050 SCT060 BKN075 12/M01 A2979 RMK AO2","lat":39.1905,"lon":-119.7319,"elev":1431,"name":"Carson City Arpt, NV, US","cover":"BKN","clouds":[{"cover":"FEW","base":5000},{"cover":"SCT","base":6000},{"cover":"BKN","base":7500}],"fltCat":"VFR"},{"icaoId":"KRTS","receiptTime":"2026-04-11T23:40:30.580Z","obsTime":1775949900,"reportTime":"2026-04-11T23:25:00.000Z","temp":11,"dewp":-1,"wdir":230,"wspd":21,"wgst":30,"visib":"10+","altim":1008.2,"qcField":6,"metarType":"METAR","rawOb":"METAR KRTS 112325Z AUTO 23021G30KT 10SM CLR 11/M01 A2977 RMK AO2","lat":39.6658,"lon":-119.8731,"elev":1537,"name":"Reno/Stead Arpt, NV, US","cover":"CLR","clouds":[],"fltCat":"VFR"},{"icaoId":"KMEV","receiptTime":"2026-04-11T23:40:32.526Z","obsTime":1775949900,"reportTime":"2026-04-11T23:25:00.000Z","temp":11,"dewp":0,"wdir":160,"wspd":19,"visib":"10+","altim":1008.5,"qcField":6,"metarType":"METAR","rawOb":"METAR KMEV 112325Z AUTO 16019KT 10SM FEW070 11/00 A2978 RMK AO2","lat":38.9963,"lon":-119.75,"elev":1437,"name":"Minden-Tahoe Arpt, NV, US","cover":"FEW","clouds":[{"cover":"FEW","base":7000}],"fltCat":"VFR"},{"icaoId":"KLUF","receiptTime":"2026-04-11T23:22:40.448Z","obsTime":1775948700,"reportTime":"2026-04-11T23:05:00.000Z","temp":32,"dewp":-1,"wdir":190,"wspd":15,"visib":"10+","altim":1009.2,"slp":1007.7,"qcField":14,"metarType":"SPECI","rawOb":"SPECI KLUF 112305Z AUTO 19015KT 10SM CLR 32/M01 A2980 RMK AO2 WSHFT 2259 SLP077 $","lat":33.538,"lon":-112.38,"elev":333,"name":"Phoenix/Luke AFB, AZ, US","cover":"CLR","clouds":[],"fltCat":"VFR"},{"icaoId":"KUKI","receiptTime":"2026-04-11T23:06:12.975Z","obsTime":1775948580,"reportTime":"2026-04-11T23:03:00.000Z","temp":9.4,"dewp":6.7,"wdir":240,"wspd":8,"wgst":19,"visib":9,"altim":1006.5,"qcField":6,"wxString":"RA","precip":0.02,"metarType":"SPECI","rawOb":"SPECI KUKI 112303Z AUTO 24008G19KT 9SM RA FEW011 BKN038 OVC050 09/07 A2972 RMK AO2 WSHFT 2243 P0002 T00940067","lat":39.1278,"lon":-123.2001,"elev":183,"name":"Ukiah Muni, CA, US","cover":"OVC","clouds":[{"cover":"FEW","base":1100},{"cover":"BKN","base":3800},{"cover":"OVC","base":5000}],"fltCat":"VFR"},{"icaoId":"KAPC","receiptTime":"2026-04-11T23:04:14.347Z","obsTime":1775948460,"reportTime":"2026-04-11T23:01:00.000Z","temp":14.4,"dewp":11.1,"wdir":180,"wspd":15,"wgst":21,"visib":"10+","altim":1007.5,"qcField":4,"wxString":"-RA","precip":0.005,"metarType":"SPECI","rawOb":"SPECI KAPC 112301Z 18015G21KT 10SM -RA BKN029 OVC034 14/11 A2975 RMK AO2 P0000 T01440111","lat":38.2075,"lon":-122.2804,"elev":5,"name":"Napa Cnty Arpt, CA, US","cover":"OVC","clouds":[{"cover":"BKN","base":2900},{"cover":"OVC","base":3400}],"fltCat":"MVFR"},{"icaoId":"KNYL","receiptTime":"2026-04-11T23:00:33.942Z","obsTime":1775948220,"reportTime":"2026-04-11T23:00:00.000Z","temp":28.9,"dewp":0.6,"wdir":"VRB","wspd":5,"visib":"10+","altim":1009.9,"slp":1009.7,"qcField":6,"metarType":"METAR","rawOb":"METAR KNYL 112257Z AUTO VRB05KT 10SM CLR 29/01 A2982 RMK AO2 SLP097 T02890006","lat":32.66,"lon":-114.6078,"elev":58,"name":"Yuma , AZ, US","cover":"CLR","clouds":[],"fltCat":"VFR"},{"icaoId":"KFLG","receiptTime":"2026-04-11T23:00:36.215Z","obsTime":1775948220,"reportTime":"2026-04-11T23:00:00.000Z","temp":15,"dewp":-1.1,"wdir":220,"wspd":21,"wgst":38,"visib":"10+","altim":1017.4,"slp":1011.3,"qcField":12,"metarType":"METAR","rawOb":"METAR KFLG 112257Z 22021G38KT 10SM FEW065 15/M01 A3004 RMK AO2 PK WND 23039/2241 SLP113 T01501011 $","lat":35.1443,"lon":-111.6664,"elev":2134,"name":"Flagstaff/Pulliam Arpt, AZ, US","cover":"FEW","clouds":[{"cover":"FEW","base":6500}],"fltCat":"VFR"},{"icaoId":"KDUG","receiptTime":"2026-04-11T23:04:17.118Z","obsTime":1775948160,"reportTime":"2026-04-11T23:00:00.000Z","temp":27.2,"dewp":0,"wdir":240,"wspd":17,"visib":"10+","altim":1015.3,"slp":1009.5,"qcField":38,"metarType":"METAR","rawOb":"METAR KDUG 112256Z AUTO 24017KT 10SM FEW100 27/00 A2998 RMK AO2 PK WND 24029/2238 SLP095 T02720000 TSNO","lat":31.4725,"lon":-109.6022,"elev":1260,"name":"Douglas/Bisbee Intl, AZ, US","cover":"FEW","clouds":[{"cover":"FEW","base":10000}],"fltCat":"VFR"},{"icaoId":"KCGZ","receiptTime":"2026-04-11T22:58:23.832Z","obsTime":1775948160,"reportTime":"2026-04-11T23:00:00.000Z","temp":31.7,"dewp":2.8,"wdir":250,"wspd":8,"wgst":19,"visib":"10+","altim":1010.2,"slp":1008.8,"qcField":14,"metarType":"METAR","rawOb":"METAR KCGZ 112256Z AUTO 25008G19KT 10SM CLR 32/03 A2983 RMK AO2 SLP088 T03170028 $","lat":32.9531,"lon":-111.7725,"elev":444,"name":"Casa Granda Muni, AZ, US","cover":"CLR","clouds":[],"fltCat":"VFR"},{"icaoId":"KSBP","receiptTime":"2026-04-11T23:00:36.705Z","obsTime":1775948160,"reportTime":"2026-04-11T23:00:00.000Z","temp":16.1,"dewp":12.2,"wdir":220,"wspd":7,"wgst":23,"visib":8,"altim":1014,"slp":1013.8,"qcField":5,"wxString":"-RA","precip":0.005,"metarType":"METAR","rawOb":"METAR KSBP 112256Z COR 22007G23KT 8SM -RA SCT016 SCT039 OVC055 16/12 A2994 RMK AO2 RAB17E26B44 SLP138 P0000 T01610122","lat":35.2381,"lon":-120.644,"elev":52,"name":"San Luis Obispo/San Luis Cnty, CA, US","cover":"OVC","clouds":[{"cover":"SCT","base":1600},{"cover":"SCT","base":3900},{"cover":"OVC","base":5500}],"fltCat":"VFR"},{"icaoId":"KCEC","receiptTime":"2026-04-11T23:00:13.954Z","obsTime":1775948160,"reportTime":"2026-04-11T23:00:00.000Z","temp":12.8,"dewp":11.1,"wdir":40,"wspd":6,"visib":"10+","altim":1004.1,"slp":1004.2,"qcField":6,"precip":0.05,"metarType":"METAR","rawOb":"METAR KCEC 112256Z AUTO 04006KT 10SM FEW024 BKN041 OVC090 13/11 A2965 RMK AO2 RAB06E54 SLP042 P0005 T01280111","lat":41.7836,"lon":-124.238,"elev":17,"name":"Crescent City/McNama, CA, US","cover":"OVC","clouds":[{"cover":"FEW","base":2400},{"cover":"BKN","base":4100},{"cover":"OVC","base":9000}],"fltCat":"VFR"},{"icaoId":"KINW","receiptTime":"2026-04-11T23:00:27.182Z","obsTime":1775948160,"reportTime":"2026-04-11T23:00:00.000Z","temp":22.8,"dewp":-2.8,"wdir":220,"wspd":18,"wgst":28,"visib":"10+","altim":1015,"slp":1009.7,"qcField":6,"metarType":"METAR","rawOb":"METAR KINW 112256Z AUTO 22018G28KT 10SM CLR 23/M03 A2997 RMK AO2 PK WND 22031/2205 SLP097 T02281028","lat":35.0279,"lon":-110.7221,"elev":1492,"name":"Winslow/Lindberg Rgnl, AZ, US","cover":"CLR","clouds":[],"fltCat":"VFR"},{"icaoId":"KTPH","receiptTime":"2026-04-11T23:00:18.505Z","obsTime":1775948160,"reportTime":"2026-04-11T23:00:00.000Z","temp":16.1,"dewp":-2.8,"wdir":160,"wspd":18,"wgst":29,"visib":"10+","altim":1010.2,"slp":1005.9,"qcField":6,"metarType":"METAR","rawOb":"METAR KTPH 112256Z AUTO 16018G29KT 10SM CLR 16/M03 A2983 RMK AO2 PK WND 19029/2247 SLP059 T01611028","lat":38.0505,"lon":-117.0906,"elev":1647,"name":"Tonopah Arpt, NV, US","cover":"CLR","clouds":[],"fltCat":"VFR"},{"icaoId":"KLAS","receiptTime":"2026-04-11T23:00:25.248Z","obsTime":1775948160,"reportTime":"2026-04-11T23:00:00.000Z","temp":25,"dewp":-5,"wdir":230,"wspd":15,"wgst":25,"visib":"10+","altim":1009.2,"slp":1007.2,"qcField":4,"metarType":"METAR","rawOb":"METAR KLAS 112256Z 23015G25KT 10SM FEW150 SCT250 25/M05 A2980 RMK AO2 PK WND 20028/2214 SLP072 T02501050","lat":36.0719,"lon":-115.1634,"elev":662,"name":"Las Vegas/Reid Intl, NV, US","cover":"SCT","clouds":[{"cover":"FEW","base":15000},{"cover":"SCT","base":25000}],"fltCat":"VFR"},{"icaoId":"KVIS","receiptTime":"2026-04-11T22:58:22.659Z","obsTime":1775948160,"reportTime":"2026-04-11T23:00:00.000Z","temp":23.3,"dewp":7.2,"wdir":230,"wspd":7,"visib":"10+","altim":1012.3,"slp":1012.1,"qcField":14,"metarType":"METAR","rawOb":"METAR KVIS 112256Z AUTO 23007KT 190V260 10SM OVC080 23/07 A2989 RMK AO2 SLP121 T02330072 $","lat":36.3135,"lon":-119.3884,"elev":92,"name":"Visalia Muni, CA, US","cover":"OVC","clouds":[{"cover":"OVC","base":8000}],"fltCat":"VFR"},{"icaoId":"KENV","receiptTime":"2026-04-11T22:58:24.240Z","obsTime":1775948160,"reportTime":"2026-04-11T23:00:00.000Z","temp":19.4,"dewp":-5,"wdir":250,"wspd":18,"wgst":27,"visib":"10+","altim":1008.9,"slp":1006.2,"qcField":6,"metarType":"METAR","rawOb":"METAR KENV 112256Z AUTO 25018G27KT 10SM CLR 19/M05 A2979 RMK AO2 PK WND 28027/2250 SLP062 T01941050","lat":40.7211,"lon":-114.0312,"elev":1291,"name":"Wendover Arpt, UT, US","cover":"CLR","clouds":[],"fltCat":"VFR"},{"icaoId":"KEKO","receiptTime":"2026-04-11T23:00:14.187Z","obsTime":1775948160,"reportTime":"2026-04-11T23:00:00.000Z","temp":12.8,"dewp":-1.1,"wdir":210,"wspd":7,"wgst":16,"visib":"10+","altim":1009.6,"slp":1007.4,"qcField":6,"metarType":"METAR","rawOb":"METAR KEKO 112256Z AUTO 21007G16KT 10SM FEW060 13/M01 A2981 RMK AO2 SLP074 T01281011","lat":40.824,"lon":-115.7863,"elev":1541,"name":"Elko Rgnl, NV, US","cover":"FEW","clouds":[{"cover":"FEW","base":6000}],"fltCat":"VFR"},{"icaoId":"KSFO","receiptTime":"2026-04-11T23:00:27.638Z","obsTime":1775948160,"reportTime":"2026-04-11T23:00:00.000Z","temp":13.9,"dewp":11.1,"wdir":180,"wspd":18,"wgst":34,"visib":7,"altim":1008.2,"slp":1008.2,"qcField":12,"wxString":"RA","precip":0.04,"metarType":"METAR","rawOb":"METAR KSFO 112256Z 18018G34KT 7SM RA FEW018 SCT035 OVC065 14/11 A2977 RMK AO2 PK WND 18034/2248 RAB17 SLP082 P0004 T01390111 $","lat":37.6196,"lon":-122.3656,"elev":2,"name":"San Francisco Intl, CA, US","cover":"OVC","clouds":[{"cover":"FEW","base":1800},{"cover":"SCT","base":3500},{"cover":"OVC","base":6500}],"fltCat":"VFR"},{"icaoId":"KHND","receiptTime":"2026-04-11T22:58:20.312Z","obsTime":1775948160,"reportTime":"2026-04-11T23:00:00.000Z","temp":25,"dewp":-5,"wdir":200,"wspd":21,"visib":"10+","altim":1009.9,"slp":1009.6,"qcField":12,"metarType":"METAR","rawOb":"METAR KHND 112256Z 20021KT 10SM CLR 25/M05 A2982 RMK AO2 PK WND 21027/2229 SLP096 T02501050 $","lat":35.9657,"lon":-115.1343,"elev":740,"name":"Henderson Exec, NV, US","cover":"CLR","clouds":[],"fltCat":"VFR"},{"icaoId":"KRNO","receiptTime":"2026-04-11T22:58:23.438Z","obsTime":1775948100,"reportTime":"2026-04-11T23:00:00.000Z","temp":14.4,"dewp":-1.1,"wdir":210,"wspd":20,"wgst":29,"visib":"10+","altim":1008.2,"slp":1005.6,"qcField":4,"metarType":"METAR","rawOb":"METAR KRNO 112255Z 21020G29KT 10SM SCT075 BKN110 BKN200 14/M01 A2977 RMK AO2 PK WND 20038/2236 SLP056 SH VC T01441011","lat":39.5077,"lon":-119.7683,"elev":1344,"name":"Reno/Tahoe Intl, NV, US","cover":"BKN","clouds":[{"cover":"SCT","base":7500},{"cover":"BKN","base":11000},{"cover":"BKN","base":20000}],"fltCat":"VFR"},{"icaoId":"KCMA","receiptTime":"2026-04-11T22:58:23.876Z","obsTime":1775948100,"reportTime":"2026-04-11T23:00:00.000Z","temp":20,"dewp":10.6,"wdir":230,"wspd":9,"visib":"10+","altim":1014.6,"slp":1015.2,"qcField":6,"metarType":"METAR","rawOb":"METAR KCMA 112255Z AUTO 23009KT 10SM FEW034 20/11 A2996 RMK AO2 SLP152 T02000106","lat":34.2114,"lon":-119.0876,"elev":20,"name":"Camarillo Arpt, CA, US","cover":"FEW","clouds":[{"cover":"FEW","base":3400}],"fltCat":"VFR"},{"icaoId":"KGCN","receiptTime":"2026-04-11T22:58:19.257Z","obsTime":1775948040,"reportTime":"2026-04-11T23:00:00.000Z","temp":17.8,"dewp":-11.1,"wdir":200,"wspd":18,"wgst":28,"visib":"10+","altim":1015.7,"slp":1008.2,"qcField":4,"metarType":"METAR","rawOb":"METAR KGCN 112254Z 20018G28KT 10SM CLR 18/M11 A2999 RMK AO2 PK WND 21037/2233 SLP082 T01781111","lat":35.9458,"lon":-112.1554,"elev":1993,"name":"Grand Canyon Park Arpt, AZ, US","cover":"CLR","clouds":[],"fltCat":"VFR"},{"icaoId":"KFFZ","receiptTime":"2026-04-11T22:58:15.642Z","obsTime":1775948040,"reportTime":"2026-04-11T23:00:00.000Z","temp":31.1,"dewp":1.7,"wdir":250,"wspd":8,"wgst":22,"visib":"10+","altim":1009.9,"slp":1007.4,"qcField":38,"metarType":"METAR","rawOb":"METAR KFFZ 112254Z AUTO 25008G22KT 10SM CLR 31/02 A2982 RMK AO2 SLP074 T03110017 TSNO","lat":33.4659,"lon":-111.7212,"elev":420,"name":"Mesa/Falcon Fld, AZ, US","cover":"CLR","clouds":[],"fltCat":"VFR"},{"icaoId":"KOLS","receiptTime":"2026-04-11T22:58:19.355Z","obsTime":1775948040,"reportTime":"2026-04-11T23:00:00.000Z","temp":25.6,"dewp":1.7,"wdir":250,"wspd":13,"wgst":25,"visib":"10+","altim":1016.3,"slp":1010.8,"qcField":6,"metarType":"METAR","rawOb":"METAR KOLS 112254Z AUTO 25013G25KT 10SM FEW110 26/02 A3001 RMK AO2 PK WND 23027/2215 SLP108 T02560017","lat":31.4208,"lon":-110.8465,"elev":1194,"name":"Nogales Intl, AZ, US","cover":"FEW","clouds":[{"cover":"FEW","base":11000}],"fltCat":"VFR"},{"icaoId":"KSJN","receiptTime":"2026-04-11T22:58:15.002Z","obsTime":1775948040,"reportTime":"2026-04-11T23:00:00.000Z","temp":20.6,"dewp":-3.3,"wdir":280,"wspd":17,"wgst":26,"visib":"10+","altim":1015.7,"slp":1008.7,"qcField":6,"metarType":"METAR","rawOb":"METAR KSJN 112254Z AUTO 28017G26KT 10SM BKN100 BKN120 21/M03 A2999 RMK AO2 PK WND 28026/2251 SLP087 T02061033","lat":34.5184,"lon":-109.3801,"elev":1747,"name":"St Johns Ind Arpt, AZ, US","cover":"BKN","clouds":[{"cover":"BKN","base":10000},{"cover":"BKN","base":12000}],"fltCat":"VFR"},{"icaoId":"KBFL","receiptTime":"2026-04-11T22:58:19.220Z","obsTime":1775948040,"reportTime":"2026-04-11T23:00:00.000Z","temp":24.4,"dewp":6.1,"wdir":330,"wspd":10,"visib":"10+","altim":1011.3,"slp":1010.6,"qcField":12,"metarType":"METAR","rawOb":"METAR KBFL 112254Z 33010KT 10SM CLR 24/06 A2986 RMK AO2 SLP106 T02440061 $","lat":35.4342,"lon":-119.0552,"elev":146,"name":"Bakersfield/Meadows Arpt, CA, US","cover":"CLR","clouds":[],"fltCat":"VFR"},{"icaoId":"KSBA","receiptTime":"2026-04-11T22:56:22.074Z","obsTime":1775947980,"reportTime":"2026-04-11T23:00:00.000Z","temp":18.3,"dewp":11.7,"wdir":150,"wspd":7,"visib":"10+","altim":1014.6,"slp":1014.4,"qcField":12,"metarType":"METAR","rawOb":"METAR KSBA 112253Z 15007KT 10SM OVC060 18/12 A2996 RMK AO2 SLP144 T01830117 $","lat":34.4241,"lon":-119.8425,"elev":2,"name":"Santa Barbara Muni, CA, US","cover":"OVC","clouds":[{"cover":"OVC","base":6000}],"fltCat":"VFR"},{"icaoId":"KBUR","receiptTime":"2026-04-11T22:56:30.366Z","obsTime":1775947980,"reportTime":"2026-04-11T23:00:00.000Z","temp":20.6,"dewp":7.2,"wdir":200,"wspd":10,"wgst":18,"visib":"10+","altim":1014.3,"slp":1013.2,"qcField":4,"metarType":"METAR","rawOb":"METAR KBUR 112253Z 20010G18KT 10SM CLR 21/07 A2995 RMK AO2 SLP132 T02060072","lat":34.1996,"lon":-118.3654,"elev":221,"name":"Burbank/Bob Hope Arpt, CA, US","cover":"CLR","clouds":[],"fltCat":"VFR"},{"icaoId":"KCRQ","receiptTime":"2026-04-11T22:56:26.003Z","obsTime":1775947980,"reportTime":"2026-04-11T23:00:00.000Z","temp":19.4,"dewp":10.6,"wdir":240,"wspd":10,"visib":"10+","altim":1015,"slp":1014.5,"qcField":4,"metarType":"METAR","rawOb":"METAR KCRQ 112253Z 24010KT 10SM CLR 19/11 A2997 RMK AO2 SLP145 T01940106","lat":33.1299,"lon":-117.2765,"elev":96,"name":"Carlsbad/Palomar Arpt, CA, US","cover":"CLR","clouds":[],"fltCat":"VFR"},{"icaoId":"KDVT","receiptTime":"2026-04-11T22:56:26.855Z","obsTime":1775947980,"reportTime":"2026-04-11T23:00:00.000Z","temp":31.1,"dewp":1.7,"wdir":260,"wspd":16,"wgst":22,"visib":"10+","altim":1010.6,"slp":1007.9,"qcField":14,"metarType":"METAR","rawOb":"METAR KDVT 112253Z AUTO 26016G22KT 10SM 31/02 A2984 RMK AO2 SLP079 T03110017 $","lat":33.6902,"lon":-112.0662,"elev":454,"name":"Phoenix/Deer Valley Arpt, AZ, US"},{"icaoId":"KELY","receiptTime":"2026-04-11T22:56:27.863Z","obsTime":1775947980,"reportTime":"2026-04-11T23:00:00.000Z","temp":14.4,"dewp":-7.2,"wdir":220,"wspd":20,"wgst":31,"visib":"10+","altim":1010.9,"slp":1004.7,"qcField":6,"metarType":"METAR","rawOb":"METAR KELY 112253Z AUTO 22020G31KT 10SM SCT090 14/M07 A2985 RMK AO2 PK WND 22031/2250 SLP047 T01441072","lat":39.2954,"lon":-114.8466,"elev":1906,"name":"Ely/Yelland Fld, NV, US","cover":"SCT","clouds":[{"cover":"SCT","base":9000}],"fltCat":"VFR"},{"icaoId":"KFAT","receiptTime":"2026-04-11T22:56:29.748Z","obsTime":1775947980,"reportTime":"2026-04-11T23:00:00.000Z","temp":21.7,"dewp":6.7,"wdir":210,"wspd":9,"visib":"10+","altim":1011.9,"slp":1011.4,"qcField":12,"precip":0.005,"metarType":"METAR","rawOb":"METAR KFAT 112253Z 21009KT 10SM FEW065 SCT080 BKN200 22/07 A2988 RMK AO2 RAB38E47 SLP114 P0000 T02170067 $","lat":36.78,"lon":-119.7202,"elev":102,"name":"Fresno/Yosemite Intl, CA, US","cover":"BKN","clouds":[{"cover":"FEW","base":6500},{"cover":"SCT","base":8000},{"cover":"BKN","base":20000}],"fltCat":"VFR"},{"icaoId":"KFUL","receiptTime":"2026-04-11T22:56:27.082Z","obsTime":1775947980,"reportTime":"2026-04-11T23:00:00.000Z","temp":22.2,"dewp":8.9,"wdir":220,"wspd":11,"wgst":16,"visib":"10+","altim":1014,"slp":1013.7,"qcField":6,"metarType":"METAR","rawOb":"METAR KFUL 112253Z AUTO 22011G16KT 10SM CLR 22/09 A2994 RMK AO2 SLP137 T02220089","lat":33.8715,"lon":-117.9856,"elev":23,"name":"Fullerton Muni, CA, US","cover":"CLR","clouds":[],"fltCat":"VFR"},{"icaoId":"KLGB","receiptTime":"2026-04-11T22:56:25.274Z","obsTime":1775947980,"reportTime":"2026-04-11T23:00:00.000Z","temp":21.7,"dewp":10,"wdir":200,"wspd":10,"visib":"10+","altim":1014.3,"slp":1014.1,"qcField":12,"metarType":"METAR","rawOb":"METAR KLGB 112253Z 20010KT 10SM CLR 22/10 A2995 RMK AO2 SLP141 T02170100 $","lat":33.8118,"lon":-118.1472,"elev":10,"name":"Long Beach Arpt, CA, US","cover":"CLR","clouds":[],"fltCat":"VFR"},{"icaoId":"KLOL","receiptTime":"2026-04-11T22:56:21.882Z","obsTime":1775947980,"reportTime":"2026-04-11T23:00:00.000Z","temp":16.1,"dewp":-4.4,"wdir":220,"wspd":11,"visib":"10+","altim":1007.5,"slp":1006.1,"qcField":6,"metarType":"METAR","rawOb":"METAR KLOL 112253Z AUTO 22011KT 10SM FEW120 16/M04 A2975 RMK AO2 SLP061 T01611044","lat":40.0684,"lon":-118.5702,"elev":1191,"name":"Lovelock/Derby Fld, NV, US","cover":"FEW","clouds":[{"cover":"FEW","base":12000}],"fltCat":"VFR"},{"icaoId":"KMOD","receiptTime":"2026-04-11T22:56:29.312Z","obsTime":1775947980,"reportTime":"2026-04-11T23:00:00.000Z","temp":19.4,"dewp":8.9,"wdir":180,"wspd":11,"wgst":19,"visib":"10+","altim":1008.9,"slp":1008.7,"qcField":4,"metarType":"METAR","rawOb":"METAR KMOD 112253Z 18011G19KT 10SM FEW070 19/09 A2979 RMK AO2 LTG DSNT NE SLP087 T01940089","lat":37.6254,"lon":-120.9549,"elev":25,"name":"Modesto/Sham Fld, CA, US","cover":"FEW","clouds":[{"cover":"FEW","base":7000}],"fltCat":"VFR"},{"icaoId":"KMYF","receiptTime":"2026-04-11T22:56:23.831Z","obsTime":1775947980,"reportTime":"2026-04-11T23:00:00.000Z","temp":20.6,"dewp":10,"wdir":300,"wspd":11,"visib":"10+","altim":1015,"slp":1014.5,"qcField":4,"metarType":"METAR","rawOb":"METAR KMYF 112253Z 30011KT 10SM CLR 21/10 A2997 RMK AO2 SLP145 T02060100","lat":32.8145,"lon":-117.1375,"elev":128,"name":"San Diego/Montgomery Arpt, CA, US","cover":"CLR","clouds":[],"fltCat":"VFR"},{"icaoId":"KOAK","receiptTime":"2026-04-11T22:56:22.552Z","obsTime":1775947980,"reportTime":"2026-04-11T23:00:00.000Z","temp":15.6,"dewp":11.1,"wdir":160,"wspd":22,"visib":8,"altim":1008.5,"slp":1008.5,"qcField":12,"wxString":"-RA","precip":0.01,"metarType":"METAR","rawOb":"METAR KOAK 112253Z 16022KT 8SM -RA SCT028 BKN034 OVC043 16/11 A2978 RMK AO2 PK WND 14031/2222 RAB40 SLP085 P0001 T01560111 $","lat":37.7178,"lon":-122.233,"elev":3,"name":"Oakland Intl, CA, US","cover":"OVC","clouds":[{"cover":"SCT","base":2800},{"cover":"BKN","base":3400},{"cover":"OVC","base":4300}],"fltCat":"VFR"},{"icaoId":"KONT","receiptTime":"2026-04-11T22:56:23.914Z","obsTime":1775947980,"reportTime":"2026-04-11T23:00:00.000Z","temp":22.8,"dewp":7.2,"wdir":220,"wspd":10,"visib":"10+","altim":1013.6,"slp":1012.7,"qcField":12,"metarType":"METAR","rawOb":"METAR KONT 112253Z 22010KT 10SM SCT055 23/07 A2993 RMK AO2 SLP127 T02280072 $","lat":34.0531,"lon":-117.5769,"elev":279,"name":"Ontario Intl, CA, US","cover":"SCT","clouds":[{"cover":"SCT","base":5500}],"fltCat":"VFR"},{"icaoId":"KPGA","receiptTime":"2026-04-11T22:56:26.175Z","obsTime":1775947980,"reportTime":"2026-04-11T23:00:00.000Z","temp":24.4,"dewp":-12.8,"wdir":200,"wspd":16,"wgst":25,"visib":"10+","altim":1009.9,"slp":1004.4,"qcField":14,"metarType":"METAR","rawOb":"METAR KPGA 112253Z AUTO 20016G25KT 10SM CLR 24/M13 A2982 RMK AO2 PK WND 19031/2232 SLP044 T02441128 $","lat":36.9211,"lon":-111.4487,"elev":1310,"name":"Page Muni, AZ, US","cover":"CLR","clouds":[],"fltCat":"VFR"},{"icaoId":"KPRC","receiptTime":"2026-04-11T22:56:24.196Z","obsTime":1775947980,"reportTime":"2026-04-11T23:00:00.000Z","temp":20.6,"dewp":-1.7,"wdir":190,"wspd":16,"wgst":24,"visib":"10+","altim":1015.7,"slp":1009.3,"qcField":4,"metarType":"METAR","rawOb":"METAR KPRC 112253Z 19016G24KT 10SM SCT080 21/M02 A2999 RMK AO2 PK WND 18032/2240 SLP093 T02061017","lat":34.6491,"lon":-112.4223,"elev":1528,"name":"Prescott/Love Fld, AZ, US","cover":"SCT","clouds":[{"cover":"SCT","base":8000}],"fltCat":"VFR"},{"icaoId":"KPSP","receiptTime":"2026-04-11T22:56:24.207Z","obsTime":1775947980,"reportTime":"2026-04-11T23:00:00.000Z","temp":28.9,"dewp":4.4,"wdir":0,"wspd":0,"visib":"10+","altim":1009.9,"slp":1009.5,"qcField":4,"metarType":"METAR","rawOb":"METAR KPSP 112253Z 00000KT 10SM CLR 29/04 A2982 RMK AO2 SLP095 T02890044","lat":33.8222,"lon":-116.5043,"elev":123,"name":"Palm Springs Intl, CA, US","cover":"CLR","clouds":[],"fltCat":"VFR"},{"icaoId":"KRDD","receiptTime":"2026-04-11T22:56:32.424Z","obsTime":1775947980,"reportTime":"2026-04-11T23:00:00.000Z","temp":16.1,"dewp":10,"wdir":150,"wspd":19,"wgst":25,"visib":"10+","altim":1004.8,"slp":1004.3,"qcField":4,"metarType":"METAR","rawOb":"METAR KRDD 112253Z 15019G25KT 10SM SCT031 BKN042 BKN080 16/10 A2967 RMK AO2 PK WND 16031/2234 LTG DSNT NW SLP043 T01610100","lat":40.5146,"lon":-122.2977,"elev":152,"name":"Redding Muni, CA, US","cover":"BKN","clouds":[{"cover":"SCT","base":3100},{"cover":"BKN","base":4200},{"cover":"BKN","base":8000}],"fltCat":"VFR"},{"icaoId":"KACV","receiptTime":"2026-04-11T22:56:24.468Z","obsTime":1775947980,"reportTime":"2026-04-11T23:00:00.000Z","temp":10,"dewp":8.3,"wdir":210,"wspd":21,"wgst":33,"visib":4,"altim":1003.8,"slp":1004.2,"qcField":6,"wxString":"RA BR","precip":0.02,"metarType":"METAR","rawOb":"METAR KACV 112253Z AUTO 21021G33KT 4SM RA BR SCT040 BKN050 OVC060 10/08 A2964 RMK AO2 PK WND 22033/2241 RAB44 SLP042 P0002 T01000083","lat":40.9784,"lon":-124.1048,"elev":63,"name":"Arcata Arpt, CA, US","cover":"OVC","clouds":[{"cover":"SCT","base":4000},{"cover":"BKN","base":5000},{"cover":"OVC","base":6000}],"fltCat":"MVFR"},{"icaoId":"KSDL","receiptTime":"2026-04-11T22:56:22.086Z","obsTime":1775947980,"reportTime":"2026-04-11T23:00:00.000Z","temp":30.6,"dewp":2.2,"wdir":230,"wspd":10,"wgst":18,"visib":"10+","altim":1010.6,"slp":1008.1,"qcField":4,"metarType":"METAR","rawOb":"METAR KSDL 112253Z 23010G18KT 10SM CLR 31/02 A2984 RMK AO2 SLP081 T03060022","lat":33.6123,"lon":-111.9232,"elev":438,"name":"Scottsdale Muni, AZ, US","cover":"CLR","clouds":[],"fltCat":"VFR"},{"icaoId":"KSJC","receiptTime":"2026-04-11T22:56:32.608Z","obsTime":1775947980,"reportTime":"2026-04-11T23:00:00.000Z","temp":16.1,"dewp":10.6,"wdir":160,"wspd":14,"wgst":22,"visib":"10+","altim":1009.2,"slp":1009,"qcField":12,"precip":0.005,"metarType":"METAR","rawOb":"METAR KSJC 112253Z 16014G22KT 10SM SCT018 BKN025 OVC040 16/11 A2980 RMK AO2 RAE36 SLP090 P0000 T01610106 $","lat":37.3594,"lon":-121.9244,"elev":13,"name":"San Jose Intl Arpt, CA, US","cover":"OVC","clouds":[{"cover":"SCT","base":1800},{"cover":"BKN","base":2500},{"cover":"OVC","base":4000}],"fltCat":"MVFR"},{"icaoId":"KSMF","receiptTime":"2026-04-11T22:56:32.634Z","obsTime":1775947980,"reportTime":"2026-04-11T23:00:00.000Z","temp":16.1,"dewp":11.7,"wdir":180,"wspd":11,"wgst":21,"visib":"10+","altim":1007.5,"slp":1007.4,"qcField":12,"metarType":"METAR","rawOb":"METAR KSMF 112253Z 18011G21KT 10SM SCT060 OVC080 16/12 A2975 RMK AO2 PRESFR SLP074 T01610117 $","lat":38.7007,"lon":-121.5948,"elev":7,"name":"Sacramento Intl, CA, US","cover":"OVC","clouds":[{"cover":"SCT","base":6000},{"cover":"OVC","base":8000}],"fltCat":"VFR"},{"icaoId":"KSNA","receiptTime":"2026-04-11T22:56:22.117Z","obsTime":1775947980,"reportTime":"2026-04-11T23:00:00.000Z","temp":21.1,"dewp":10.6,"wdir":220,"wspd":9,"visib":"10+","altim":1014.6,"slp":1014.4,"qcField":12,"metarType":"METAR","rawOb":"METAR KSNA 112253Z 22009KT 10SM FEW050 21/11 A2996 RMK AO2 SLP144 T02110106 $","lat":33.6798,"lon":-117.8675,"elev":14,"name":"Santa Ana/Wayne Arpt, CA, US","cover":"FEW","clouds":[{"cover":"FEW","base":5000}],"fltCat":"VFR"},{"icaoId":"KTUS","receiptTime":"2026-04-11T22:56:26.261Z","obsTime":1775947980,"reportTime":"2026-04-11T23:00:00.000Z","temp":29.4,"dewp":1.1,"wdir":260,"wspd":16,"wgst":26,"visib":"10+","altim":1013.3,"slp":1009,"qcField":4,"metarType":"METAR","rawOb":"METAR KTUS 112253Z 26016G26KT 10SM SCT110 29/01 A2992 RMK AO2 PK WND 23026/2249 SLP090 T02940011","lat":32.1315,"lon":-110.9564,"elev":776,"name":"Tucson Intl Arpt, AZ, US","cover":"SCT","clouds":[{"cover":"SCT","base":11000}],"fltCat":"VFR"},{"icaoId":"KVGT","receiptTime":"2026-04-11T22:56:22.142Z","obsTime":1775947980,"reportTime":"2026-04-11T23:00:00.000Z","temp":25,"dewp":-5.6,"wdir":210,"wspd":16,"wgst":24,"visib":"10+","altim":1008.2,"slp":1008.1,"qcField":4,"metarType":"METAR","rawOb":"METAR KVGT 112253Z 21016G24KT 10SM CLR 25/M06 A2977 RMK AO2 PK WND 18026/2209 SLP081 T02501056","lat":36.212,"lon":-115.194,"elev":664,"name":"Las Vegas/North Arpt, NV, US","cover":"CLR","clouds":[],"fltCat":"VFR"},{"icaoId":"KPHX","receiptTime":"2026-04-11T22:54:12.418Z","obsTime":1775947860,"reportTime":"2026-04-11T23:00:00.000Z","temp":32.2,"dewp":0.6,"wdir":270,"wspd":17,"wgst":24,"visib":"10+","altim":1009.2,"slp":1007.3,"qcField":4,"metarType":"METAR","rawOb":"METAR KPHX 112251Z 27017G24KT 10SM SCT110 BKN250 32/01 A2980 RMK AO2 PK WND 28026/2235 SLP073 T03220006","lat":33.4278,"lon":-112.0037,"elev":338,"name":"Phoenix/Sky Harbor Intl, AZ, US","cover":"BKN","clouds":[{"cover":"SCT","base":11000},{"cover":"BKN","base":25000}],"fltCat":"VFR"},{"icaoId":"KOXR","receiptTime":"2026-04-11T22:54:12.408Z","obsTime":1775947860,"reportTime":"2026-04-11T23:00:00.000Z","temp":18.9,"dewp":11.1,"wdir":240,"wspd":8,"visib":"10+","altim":1014.6,"slp":1014.5,"qcField":4,"metarType":"METAR","rawOb":"METAR KOXR 112251Z 24008KT 10SM CLR 19/11 A2996 RMK AO2 SLP145 T01890111","lat":34.2001,"lon":-119.2042,"elev":12,"name":"Oxnard Arpt, CA, US","cover":"CLR","clouds":[],"fltCat":"VFR"},{"icaoId":"KIGM","receiptTime":"2026-04-11T22:54:13.254Z","obsTime":1775947860,"reportTime":"2026-04-11T23:00:00.000Z","temp":23.3,"dewp":-7.2,"wdir":220,"wspd":20,"wgst":35,"visib":"10+","altim":1012.3,"slp":1006.3,"qcField":6,"metarType":"METAR","rawOb":"METAR KIGM 112251Z AUTO 22020G35KT 10SM CLR 23/M07 A2989 RMK AO2 PK WND 23035/2248 SLP063 T02331072","lat":35.2575,"lon":-113.9341,"elev":1045,"name":"Kingman Arpt, AZ, US","cover":"CLR","clouds":[],"fltCat":"VFR"},{"icaoId":"KVNY","receiptTime":"2026-04-11T22:54:12.660Z","obsTime":1775947860,"reportTime":"2026-04-11T23:00:00.000Z","temp":21.1,"dewp":3.3,"wdir":150,"wspd":7,"wgst":16,"visib":"10+","altim":1014,"slp":1013.2,"qcField":12,"metarType":"METAR","rawOb":"METAR KVNY 112251Z 15007G16KT 10SM CLR 21/03 A2994 RMK AO2 SLP132 T02110033 $","lat":34.2121,"lon":-118.4915,"elev":241,"name":"Van Nuys Arpt, CA, US","cover":"CLR","clouds":[],"fltCat":"VFR"},{"icaoId":"KSAN","receiptTime":"2026-04-11T22:54:12.515Z","obsTime":1775947860,"reportTime":"2026-04-11T23:00:00.000Z","temp":20.6,"dewp":11.1,"wdir":280,"wspd":12,"wgst":17,"visib":"10+","altim":1015.7,"slp":1015.5,"qcField":12,"metarType":"METAR","rawOb":"METAR KSAN 112251Z 28012G17KT 10SM FEW020 21/11 A2999 RMK AO2 SLP155 T02060111 $","lat":32.7364,"lon":-117.1973,"elev":3,"name":"San Diego Intl Arpt, CA, US","cover":"FEW","clouds":[{"cover":"FEW","base":2000}],"fltCat":"VFR"},{"icaoId":"KSAD","receiptTime":"2026-04-11T22:54:12.503Z","obsTime":1775947860,"reportTime":"2026-04-11T23:00:00.000Z","temp":29.4,"dewp":-1.7,"wdir":280,"wspd":17,"wgst":26,"visib":"10+","altim":1011.6,"slp":1007.2,"qcField":6,"metarType":"METAR","rawOb":"METAR KSAD 112251Z AUTO 28017G26KT 10SM FEW110 29/M02 A2987 RMK AO2 PK WND 29026/2246 SLP072 T02941017","lat":32.8565,"lon":-109.636,"elev":937,"name":"Safford Rgnl, AZ, US","cover":"FEW","clouds":[{"cover":"FEW","base":11000}],"fltCat":"VFR"},{"icaoId":"KIWA","receiptTime":"2026-04-11T22:47:32.984Z","obsTime":1775947620,"reportTime":"2026-04-11T23:00:00.000Z","temp":32,"dewp":3,"wdir":270,"wspd":14,"wgst":20,"visib":"10+","altim":1010.2,"qcField":0,"metarType":"METAR","rawOb":"METAR KIWA 112247Z 27014G20KT 10SM SCT120 32/03 A2983","lat":33.3008,"lon":-111.6437,"elev":420,"name":"Phoenix/Mesa Gateway Arpt, AZ, US","cover":"SCT","clouds":[{"cover":"SCT","base":12000}],"fltCat":"VFR"},{"icaoId":"KCHD","receiptTime":"2026-04-11T22:56:58.093Z","obsTime":1775947620,"reportTime":"2026-04-11T23:00:00.000Z","temp":31,"dewp":2,"wdir":240,"wspd":5,"visib":"10+","altim":1009.9,"qcField":0,"metarType":"METAR","rawOb":"METAR KCHD 112247Z 24005KT 10SM SCT110 31/02 A2982","lat":33.2669,"lon":-111.8086,"elev":378,"name":"Chandler Muni, AZ, US","cover":"SCT","clouds":[{"cover":"SCT","base":11000}],"fltCat":"VFR"}]