[{"icaoId":"KDLN","receiptTime":"2026-04-16T05:12:10.568Z","obsTime":1776316140,"reportTime":"2026-04-16T05:09:00.000Z","temp":1.7,"dewp":0,"wdir":200,"wspd":13,"wgst":19,"visib":6,"altim":1003.5,"qcField":6,"wxString":"-SN BR","precip":0.005,"metarType":"SPECI","rawOb":"SPECI KDLN 160509Z AUTO 20013G19KT 6SM -SN BR FEW019 OVC024 02/00 A2963 RMK AO2 UPB00E04SNB04 P0000 T00170000","lat":45.2584,"lon":-112.5546,"elev":1586,"name":"Dillon Arpt, MT, US","cover":"OVC","clouds":[{"cover":"FEW","base":1900},{"cover":"OVC","base":2400}],"fltCat":"MVFR"},{"icaoId":"KPAE","receiptTime":"2026-04-16T05:12:10.616Z","obsTime":1776316140,"reportTime":"2026-04-16T05:09:00.000Z","temp":4.4,"dewp":1.7,"wdir":280,"wspd":4,"visib":"10+","altim":1015.7,"qcField":6,"metarType":"SPECI","rawOb":"SPECI KPAE 160509Z AUTO 28004KT 10SM SCT020 BKN048 04/02 A2999 RMK AO2 T00440017","lat":47.9232,"lon":-122.2831,"elev":166,"name":"Everett/Paine Fld, WA, US","cover":"BKN","clouds":[{"cover":"SCT","base":2000},{"cover":"BKN","base":4800}],"fltCat":"VFR"},{"icaoId":"KBRO","receiptTime":"2026-04-16T05:08:23.696Z","obsTime":1776315900,"reportTime":"2026-04-16T05:05:00.000Z","temp":25.6,"dewp":22.8,"wdir":150,"wspd":11,"visib":"10+","altim":1014.3,"qcField":6,"metarType":"SPECI","rawOb":"SPECI KBRO 160505Z AUTO 15011KT 10SM BKN014 OVC021 26/23 A2995 RMK AO2 T02560228","lat":25.9146,"lon":-97.4231,"elev":6,"name":"Brownsville Intl, TX, US","cover":"OVC","clouds":[{"cover":"BKN","base":1400},{"cover":"OVC","base":2100}],"fltCat":"MVFR"},{"icaoId":"KBTV","receiptTime":"2026-04-16T05:08:05.844Z","obsTime":1776315840,"reportTime":"2026-04-16T05:04:00.000Z","temp":9.4,"dewp":7.8,"wdir":140,"wspd":3,"visib":3,"altim":1011.6,"qcField":12,"wxString":"-RA BR","precip":0.01,"metarType":"SPECI","rawOb":"SPECI KBTV 160504Z 14003KT 3SM -RA BR SCT003 OVC008 09/08 A2987 RMK AO2 P0001 T00940078 $","lat":44.4682,"lon":-73.1499,"elev":101,"name":"Burlington Intl, VT, US","cover":"OVC","clouds":[{"cover":"SCT","base":300},{"cover":"OVC","base":800}],"fltCat":"IFR"},{"icaoId":"KGPI","receiptTime":"2026-04-16T05:06:09.584Z","obsTime":1776315780,"reportTime":"2026-04-16T05:03:00.000Z","temp":0.6,"dewp":-1.7,"wdir":240,"wspd":8,"wgst":18,"visib":2.5,"altim":1005.8,"qcField":4,"wxString":"-SN BR","precip":0.01,"metarType":"SPECI","rawOb":"SPECI KGPI 160503Z 24008G18KT 2 1/2SM -SN BR BKN018 BKN035 OVC055 01/M02 A2970 RMK AO2 VIS 1 1/4 NE P0001 T00061017","lat":48.3041,"lon":-114.2643,"elev":903,"name":"Kalispell/Glacier Park Intl, MT, US","cover":"OVC","clouds":[{"cover":"BKN","base":1800},{"cover":"BKN","base":3500},{"cover":"OVC","base":5500}],"fltCat":"IFR"},{"icaoId":"KPWT","receiptTime":"2026-04-16T05:02:09.462Z","obsTime":1776315540,"reportTime":"2026-04-16T04:59:00.000Z","temp":3,"dewp":3,"wdir":180,"wspd":4,"visib":"10+","altim":1016.3,"qcField":6,"wxString":"UP","precip":0.005,"metarType":"SPECI","rawOb":"SPECI KPWT 160459Z AUTO 18004KT 10SM UP SCT009 OVC015 03/03 A3001 RMK AO2 P0000","lat":47.4942,"lon":-122.7594,"elev":143,"name":"Bremerton Arpt, WA, US","cover":"OVC","clouds":[{"cover":"SCT","base":900},{"cover":"OVC","base":1500}],"fltCat":"MVFR"},{"icaoId":"KFLG","receiptTime":"2026-04-16T05:00:52.269Z","obsTime":1776315420,"reportTime":"2026-04-16T05:00:00.000Z","temp":3.9,"dewp":-5.6,"wdir":220,"wspd":3,"visib":"10+","altim":1020.7,"slp":1015.5,"qcField":6,"metarType":"METAR","rawOb":"METAR KFLG 160457Z AUTO 22003KT 10SM CLR 04/M06 A3014 RMK AO2 SLP155 T00391056","lat":35.1443,"lon":-111.6664,"elev":2134,"name":"Flagstaff/Pulliam Arpt, AZ, US","cover":"CLR","clouds":[],"fltCat":"VFR"},{"icaoId":"KHDN","receiptTime":"2026-04-16T04:58:29.409Z","obsTime":1776315360,"reportTime":"2026-04-16T05:00:00.000Z","temp":8.3,"dewp":-5,"wdir":0,"wspd":0,"visib":"10+","altim":1015.3,"slp":1012.3,"qcField":6,"metarType":"METAR","rawOb":"METAR KHDN 160456Z AUTO 00000KT 10SM BKN100 08/M05 A2998 RMK AO2 SLP123 T00831050","lat":40.4842,"lon":-107.2296,"elev":2012,"name":"Hayden/Yampa Valley Arpt, CO, US","cover":"BKN","clouds":[{"cover":"BKN","base":10000}],"fltCat":"VFR"},{"icaoId":"KJAC","receiptTime":"2026-04-16T04:58:29.595Z","obsTime":1776315360,"reportTime":"2026-04-16T05:00:00.000Z","temp":3.3,"dewp":1.1,"wdir":200,"wspd":9,"visib":"10+","altim":1008.2,"slp":1007.9,"qcField":4,"metarType":"METAR","rawOb":"METAR KJAC 160456Z 20009KT 10SM OVC039 03/01 A2977 RMK AO2 SLP079 T00330011","lat":43.6129,"lon":-110.7366,"elev":1967,"name":"Jackson Hole Arpt, WY, US","cover":"OVC","clouds":[{"cover":"OVC","base":3900}],"fltCat":"VFR"},{"icaoId":"KRDM","receiptTime":"2026-04-16T05:00:23.867Z","obsTime":1776315360,"reportTime":"2026-04-16T05:00:00.000Z","temp":0,"dewp":-5,"wdir":260,"wspd":7,"visib":"10+","altim":1015.3,"slp":1016.1,"qcField":4,"precip":0.005,"metarType":"METAR","rawOb":"METAR KRDM 160456Z 26007KT 10SM CLR 00/M05 A2998 RMK AO2 SNB12E21 SLP161 P0000 T00001050","lat":44.2558,"lon":-121.1407,"elev":930,"name":"Redmond Muni, OR, US","cover":"CLR","clouds":[],"fltCat":"VFR"},{"icaoId":"KSDF","receiptTime":"2026-04-16T05:00:16.736Z","obsTime":1776315360,"reportTime":"2026-04-16T05:00:00.000Z","temp":23.3,"dewp":12.2,"wdir":210,"wspd":9,"visib":"10+","altim":1013.6,"slp":1013.1,"qcField":4,"maxT24":30,"minT24":20.6,"metarType":"METAR","rawOb":"METAR KSDF 160456Z 21009KT 10SM FEW150 BKN250 23/12 A2993 RMK AO2 SLP131 T02330122 403000206","lat":38.1774,"lon":-85.7308,"elev":146,"name":"Louisville Intl, KY, US","cover":"BKN","clouds":[{"cover":"FEW","base":15000},{"cover":"BKN","base":25000}],"fltCat":"VFR"},{"icaoId":"KSBP","receiptTime":"2026-04-16T05:00:16.720Z","obsTime":1776315360,"reportTime":"2026-04-16T05:00:00.000Z","temp":12.2,"dewp":10,"wdir":320,"wspd":3,"visib":"10+","altim":1016.7,"slp":1016.5,"qcField":6,"metarType":"METAR","rawOb":"METAR KSBP 160456Z AUTO 32003KT 10SM CLR 12/10 A3002 RMK AO2 SLP165 T01220100","lat":35.2381,"lon":-120.644,"elev":52,"name":"San Luis Obispo/San Luis Cnty, CA, US","cover":"CLR","clouds":[],"fltCat":"VFR"},{"icaoId":"KBZN","receiptTime":"2026-04-16T05:00:13.552Z","obsTime":1776315360,"reportTime":"2026-04-16T05:00:00.000Z","temp":2.2,"dewp":1.7,"wdir":290,"wspd":17,"wgst":24,"visib":"10+","altim":1003.1,"slp":1002.6,"qcField":4,"precip":0.005,"metarType":"METAR","rawOb":"METAR KBZN 160456Z 29017G24KT 10SM FEW008 BKN042 OVC055 02/02 A2962 RMK AO2 WSHFT 0437 RAB01E12 SLP026 P0000 T00220017","lat":45.7876,"lon":-111.1615,"elev":1349,"name":"Bozeman/Gallatin Fld, MT, US","cover":"OVC","clouds":[{"cover":"FEW","base":800},{"cover":"BKN","base":4200},{"cover":"OVC","base":5500}],"fltCat":"VFR"},{"icaoId":"KINW","receiptTime":"2026-04-16T05:00:13.349Z","obsTime":1776315360,"reportTime":"2026-04-16T05:00:00.000Z","temp":12.2,"dewp":-5,"wdir":210,"wspd":7,"visib":"10+","altim":1017.7,"slp":1013.6,"qcField":6,"metarType":"METAR","rawOb":"METAR KINW 160456Z AUTO 21007KT 10SM CLR 12/M05 A3005 RMK AO2 SLP136 T01221050","lat":35.0279,"lon":-110.7221,"elev":1492,"name":"Winslow/Lindberg Rgnl, AZ, US","cover":"CLR","clouds":[],"fltCat":"VFR"},{"icaoId":"KLWS","receiptTime":"2026-04-16T05:00:13.691Z","obsTime":1776315360,"reportTime":"2026-04-16T05:00:00.000Z","temp":3.3,"dewp":-1.1,"wdir":220,"wspd":7,"visib":"10+","altim":1011.3,"slp":1011.5,"qcField":6,"metarType":"METAR","rawOb":"METAR KLWS 160456Z AUTO 22007KT 10SM FEW085 03/M01 A2986 RMK AO2 SLP115 T00331011","lat":46.3746,"lon":-117.0153,"elev":435,"name":"Lewiston/Nez Perce Cnty, ID, US","cover":"FEW","clouds":[{"cover":"FEW","base":8500}],"fltCat":"VFR"},{"icaoId":"KSGU","receiptTime":"2026-04-16T04:58:27.358Z","obsTime":1776315360,"reportTime":"2026-04-16T05:00:00.000Z","temp":17.2,"dewp":-1.7,"wdir":130,"wspd":6,"visib":"10+","altim":1012.6,"slp":1011,"qcField":6,"metarType":"METAR","rawOb":"METAR KSGU 160456Z AUTO 13006KT 10SM CLR 17/M02 A2990 RMK AO2 SLP110 T01721017","lat":37.0444,"lon":-113.5034,"elev":877,"name":"Saint George Muni, UT, US","cover":"CLR","clouds":[],"fltCat":"VFR"},{"icaoId":"KPVU","receiptTime":"2026-04-16T04:58:25.378Z","obsTime":1776315360,"reportTime":"2026-04-16T05:00:00.000Z","temp":15.6,"dewp":3.9,"wdir":200,"wspd":8,"visib":"10+","altim":1010.9,"slp":1007.6,"qcField":4,"metarType":"METAR","rawOb":"METAR KPVU 160456Z 20008KT 10SM OVC110 16/04 A2985 RMK AO2 SLP076 T01560039","lat":40.224,"lon":-111.7252,"elev":1370,"name":"Provo Muni, UT, US","cover":"OVC","clouds":[{"cover":"OVC","base":11000}],"fltCat":"VFR"},{"icaoId":"KHND","receiptTime":"2026-04-16T04:58:29.470Z","obsTime":1776315360,"reportTime":"2026-04-16T05:00:00.000Z","temp":21.1,"dewp":-5.6,"wdir":220,"wspd":7,"visib":"10+","altim":1013,"slp":1012.6,"qcField":12,"metarType":"METAR","rawOb":"METAR KHND 160456Z 22007KT 10SM CLR 21/M06 A2991 RMK AO2 SLP126 T02111056 $","lat":35.9657,"lon":-115.1343,"elev":740,"name":"Henderson Exec, NV, US","cover":"CLR","clouds":[],"fltCat":"VFR"},{"icaoId":"KLAS","receiptTime":"2026-04-16T05:00:11.381Z","obsTime":1776315360,"reportTime":"2026-04-16T05:00:00.000Z","temp":22.8,"dewp":-5.6,"wdir":200,"wspd":6,"visib":"10+","altim":1011.9,"slp":1010,"qcField":4,"metarType":"METAR","rawOb":"METAR KLAS 160456Z 20006KT 10SM SCT200 SCT250 23/M06 A2988 RMK AO2 SLP100 T02281056","lat":36.0719,"lon":-115.1634,"elev":662,"name":"Las Vegas/Reid Intl, NV, US","cover":"SCT","clouds":[{"cover":"SCT","base":20000},{"cover":"SCT","base":25000}],"fltCat":"VFR"},{"icaoId":"KEKO","receiptTime":"2026-04-16T05:00:23.252Z","obsTime":1776315360,"reportTime":"2026-04-16T05:00:00.000Z","temp":11.1,"dewp":-3.3,"wdir":260,"wspd":11,"visib":"10+","altim":1010.2,"slp":1007.7,"qcField":6,"metarType":"METAR","rawOb":"METAR KEKO 160456Z AUTO 26011KT 10SM BKN080 BKN100 11/M03 A2983 RMK AO2 PK WND 24029/0402 SLP077 T01111033","lat":40.824,"lon":-115.7863,"elev":1541,"name":"Elko Rgnl, NV, US","cover":"BKN","clouds":[{"cover":"BKN","base":8000},{"cover":"BKN","base":10000}],"fltCat":"VFR"},{"icaoId":"KCEC","receiptTime":"2026-04-16T05:00:07.945Z","obsTime":1776315360,"reportTime":"2026-04-16T05:00:00.000Z","temp":7.8,"dewp":2.2,"wdir":20,"wspd":6,"visib":"10+","altim":1023.5,"slp":1023.5,"qcField":6,"metarType":"METAR","rawOb":"METAR KCEC 160456Z AUTO 02006KT 10SM CLR 08/02 A3022 RMK AO2 SLP235 T00780022","lat":41.7836,"lon":-124.238,"elev":17,"name":"Crescent City/McNama, CA, US","cover":"CLR","clouds":[],"fltCat":"VFR"},{"icaoId":"KCGZ","receiptTime":"2026-04-16T04:58:28.793Z","obsTime":1776315360,"reportTime":"2026-04-16T05:00:00.000Z","temp":21.1,"dewp":-6.7,"wdir":360,"wspd":5,"visib":"10+","altim":1013.6,"slp":1012.5,"qcField":14,"metarType":"METAR","rawOb":"METAR KCGZ 160456Z AUTO 36005KT 10SM CLR 21/M07 A2993 RMK AO2 SLP125 T02111067 $","lat":32.9531,"lon":-111.7725,"elev":444,"name":"Casa Granda Muni, AZ, US","cover":"CLR","clouds":[],"fltCat":"VFR"},{"icaoId":"KCOD","receiptTime":"2026-04-16T04:58:28.864Z","obsTime":1776315360,"reportTime":"2026-04-16T05:00:00.000Z","temp":8.3,"dewp":-1.7,"wdir":180,"wspd":7,"visib":"10+","altim":1004.1,"slp":1002.1,"qcField":14,"metarType":"METAR","rawOb":"METAR KCOD 160456Z AUTO 18007KT 10SM CLR 08/M02 A2965 RMK AO2 SLP021 T00831017 $","lat":44.52,"lon":-109.0268,"elev":1550,"name":"Cody/Yellowstone Rgnl, WY, US","cover":"CLR","clouds":[],"fltCat":"VFR"},{"icaoId":"KVIS","receiptTime":"2026-04-16T04:58:27.502Z","obsTime":1776315360,"reportTime":"2026-04-16T05:00:00.000Z","temp":17.2,"dewp":6.7,"wdir":340,"wspd":6,"visib":"10+","altim":1016,"slp":1015.9,"qcField":14,"metarType":"METAR","rawOb":"METAR KVIS 160456Z AUTO 34006KT 10SM CLR 17/07 A3000 RMK AO2 SLP159 T01720067 PNO $","lat":36.3135,"lon":-119.3884,"elev":92,"name":"Visalia Muni, CA, US","cover":"CLR","clouds":[],"fltCat":"VFR"},{"icaoId":"KCHS","receiptTime":"2026-04-16T05:00:13.577Z","obsTime":1776315360,"reportTime":"2026-04-16T05:00:00.000Z","temp":18.9,"dewp":16.7,"wdir":190,"wspd":7,"visib":"10+","altim":1019.7,"slp":1019.6,"qcField":4,"maxT24":31.1,"minT24":15,"metarType":"METAR","rawOb":"METAR KCHS 160456Z 19007KT 10SM FEW250 19/17 A3011 RMK AO2 SLP196 T01890167 403110150","lat":32.8995,"lon":-80.0407,"elev":12,"name":"Charleston Intl, SC, US","cover":"FEW","clouds":[{"cover":"FEW","base":25000}],"fltCat":"VFR"},{"icaoId":"KCOE","receiptTime":"2026-04-16T04:58:28.879Z","obsTime":1776315360,"reportTime":"2026-04-16T05:00:00.000Z","temp":1.1,"dewp":-2.2,"wdir":220,"wspd":7,"visib":"10+","altim":1008.5,"slp":1011.4,"qcField":78,"metarType":"METAR","rawOb":"METAR KCOE 160456Z AUTO 22007KT 10SM FEW040 01/M02 A2978 RMK AO2 SLP114 T00111022 FZRANO PNO $","lat":47.7719,"lon":-116.8332,"elev":693,"name":"Coeur DAlene Arpt, ID, US","cover":"FEW","clouds":[{"cover":"FEW","base":4000}],"fltCat":"VFR"},{"icaoId":"KTPH","receiptTime":"2026-04-16T05:00:24.953Z","obsTime":1776315360,"reportTime":"2026-04-16T05:00:00.000Z","temp":12.2,"dewp":-6.7,"wdir":250,"wspd":10,"visib":"10+","altim":1014.6,"slp":1011,"qcField":6,"metarType":"METAR","rawOb":"METAR KTPH 160456Z AUTO 25010KT 10SM CLR 12/M07 A2996 RMK AO2 SLP110 T01221067","lat":38.0505,"lon":-117.0906,"elev":1647,"name":"Tonopah Arpt, NV, US","cover":"CLR","clouds":[],"fltCat":"VFR"},{"icaoId":"KEGE","receiptTime":"2026-04-16T04:58:29.060Z","obsTime":1776315360,"reportTime":"2026-04-16T05:00:00.000Z","temp":4.4,"dewp":-3.3,"wdir":90,"wspd":8,"visib":"10+","altim":1017.7,"slp":1015,"qcField":6,"metarType":"METAR","rawOb":"METAR KEGE 160456Z AUTO 09008KT 10SM CLR 04/M03 A3005 RMK AO2 SLP150 T00441033","lat":39.6448,"lon":-106.9176,"elev":1993,"name":"Eagle Cnty Rgnl, CO, US","cover":"CLR","clouds":[],"fltCat":"VFR"},{"icaoId":"KENV","receiptTime":"2026-04-16T04:58:29.120Z","obsTime":1776315360,"reportTime":"2026-04-16T05:00:00.000Z","temp":16.7,"dewp":-5,"wdir":230,"wspd":18,"wgst":24,"visib":"10+","altim":1008.5,"slp":1006.3,"qcField":6,"metarType":"METAR","rawOb":"METAR KENV 160456Z AUTO 23018G24KT 10SM CLR 17/M05 A2978 RMK AO2 SLP063 T01671050","lat":40.7211,"lon":-114.0312,"elev":1291,"name":"Wendover Arpt, UT, US","cover":"CLR","clouds":[],"fltCat":"VFR"},{"icaoId":"KFNL","receiptTime":"2026-04-16T04:58:29.197Z","obsTime":1776315360,"reportTime":"2026-04-16T05:00:00.000Z","temp":15,"dewp":-5.6,"wdir":270,"wspd":11,"wgst":19,"visib":"10+","altim":1011.3,"slp":1006.2,"qcField":14,"metarType":"METAR","rawOb":"METAR KFNL 160456Z AUTO 27011G19KT 10SM CLR 15/M06 A2986 RMK AO2 SLP062 T01501056 $","lat":40.4427,"lon":-105.0097,"elev":1529,"name":"Fort Collins/N Colorado Rgnl, CO, US","cover":"CLR","clouds":[],"fltCat":"VFR"},{"icaoId":"KSFO","receiptTime":"2026-04-16T05:00:13.719Z","obsTime":1776315360,"reportTime":"2026-04-16T05:00:00.000Z","temp":13.3,"dewp":10.6,"wdir":290,"wspd":10,"visib":"10+","altim":1019,"slp":1019,"qcField":12,"metarType":"METAR","rawOb":"METAR KSFO 160456Z 29010KT 10SM SCT016 13/11 A3009 RMK AO2 SLP190 T01330106 $","lat":37.6196,"lon":-122.3656,"elev":2,"name":"San Francisco Intl, CA, US","cover":"SCT","clouds":[{"cover":"SCT","base":1600}],"fltCat":"VFR"},{"icaoId":"KGUC","receiptTime":"2026-04-16T04:58:29.364Z","obsTime":1776315360,"reportTime":"2026-04-16T05:00:00.000Z","temp":2.2,"dewp":-4.4,"wdir":10,"wspd":3,"visib":"10+","altim":1019.7,"slp":1017.8,"qcField":78,"metarType":"METAR","rawOb":"METAR KGUC 160456Z AUTO 01003KT 10SM CLR 02/M04 A3011 RMK AO2 SLP178 T00221044 FZRANO $","lat":38.5322,"lon":-106.9419,"elev":2337,"name":"Gunnison Arpt, CO, US","cover":"CLR","clouds":[],"fltCat":"VFR"},{"icaoId":"KSDY","receiptTime":"2026-04-16T04:58:27.278Z","obsTime":1776315360,"reportTime":"2026-04-16T05:00:00.000Z","temp":12.8,"dewp":1.7,"wdir":0,"wspd":0,"visib":"10+","altim":1000.1,"slp":1000.4,"qcField":14,"metarType":"METAR","rawOb":"METAR KSDY 160456Z AUTO 00000KT 10SM OVC110 13/02 A2953 RMK AO2 SLP004 T01280017 $","lat":47.7029,"lon":-104.1951,"elev":600,"name":"Sidney/Richland Muni, MT, US","cover":"OVC","clouds":[{"cover":"OVC","base":11000}],"fltCat":"VFR"},{"icaoId":"KSLE","receiptTime":"2026-04-16T05:00:23.989Z","obsTime":1776315360,"reportTime":"2026-04-16T05:00:00.000Z","temp":3.9,"dewp":1.7,"wdir":200,"wspd":3,"visib":"10+","altim":1019.4,"slp":1019.2,"qcField":6,"precip":0.03,"metarType":"METAR","rawOb":"METAR KSLE 160456Z AUTO 20003KT 10SM SCT033 BKN075 OVC120 04/02 A3010 RMK AO2 RAB03E50 SLP192 P0003 T00390017","lat":44.9049,"lon":-123.001,"elev":63,"name":"Salem Muni, OR, US","cover":"OVC","clouds":[{"cover":"SCT","base":3300},{"cover":"BKN","base":7500},{"cover":"OVC","base":12000}],"fltCat":"VFR"},{"icaoId":"KJAX","receiptTime":"2026-04-16T05:00:13.370Z","obsTime":1776315360,"reportTime":"2026-04-16T05:00:00.000Z","temp":18.3,"dewp":15,"wdir":0,"wspd":0,"visib":"10+","altim":1020.7,"slp":1020.8,"qcField":12,"maxT24":30.6,"minT24":12.8,"metarType":"METAR","rawOb":"METAR KJAX 160456Z 00000KT 10SM CLR 18/15 A3014 RMK AO2 SLP208 T01830150 403060128 $","lat":30.4953,"lon":-81.6937,"elev":8,"name":"Jacksonville Intl, FL, US","cover":"CLR","clouds":[],"fltCat":"VFR"},{"icaoId":"KUKI","receiptTime":"2026-04-16T05:00:25.466Z","obsTime":1776315360,"reportTime":"2026-04-16T05:00:00.000Z","temp":12.2,"dewp":10,"wdir":0,"wspd":0,"visib":"10+","altim":1018.4,"slp":1017.8,"qcField":6,"metarType":"METAR","rawOb":"METAR KUKI 160456Z AUTO 00000KT 10SM FEW015 BKN025 12/10 A3007 RMK AO2 SLP178 T01220100","lat":39.1278,"lon":-123.2001,"elev":183,"name":"Ukiah Muni, CA, US","cover":"BKN","clouds":[{"cover":"FEW","base":1500},{"cover":"BKN","base":2500}],"fltCat":"MVFR"},{"icaoId":"KHAF","receiptTime":"2026-04-16T04:58:21.099Z","obsTime":1776315300,"reportTime":"2026-04-16T05:00:00.000Z","temp":13,"dewp":13,"wdir":330,"wspd":12,"visib":"10+","altim":1019.4,"qcField":6,"metarType":"METAR","rawOb":"METAR KHAF 160455Z AUTO 33012KT 10SM BKN015 OVC021 13/13 A3010 RMK AO2","lat":37.5136,"lon":-122.4996,"elev":11,"name":"Half Moon Bay Arpt, CA, US","cover":"OVC","clouds":[{"cover":"BKN","base":1500},{"cover":"OVC","base":2100}],"fltCat":"MVFR"},{"icaoId":"KLRU","receiptTime":"2026-04-16T04:58:19.475Z","obsTime":1776315300,"reportTime":"2026-04-16T05:00:00.000Z","temp":12,"dewp":-20.5,"wdir":300,"wspd":7,"visib":"10+","altim":1017.7,"qcField":6,"metarType":"METAR","rawOb":"METAR KLRU 160455Z AUTO 30007KT 10SM CLR 12/M20 A3005 RMK AO2 T01201205","lat":32.2884,"lon":-106.9131,"elev":1355,"name":"Las Cruces Intl, NM, US","cover":"CLR","clouds":[],"fltCat":"VFR"},{"icaoId":"KHCR","receiptTime":"2026-04-16T04:58:21.163Z","obsTime":1776315300,"reportTime":"2026-04-16T05:00:00.000Z","temp":14.6,"dewp":-4.5,"wdir":210,"wspd":11,"wgst":30,"visib":"10+","altim":1010.9,"qcField":14,"metarType":"METAR","rawOb":"METAR KHCR 160455Z AUTO 21011G30KT 160V230 10SM BKN090 15/M04 A2985 RMK AO2 PK WND 19030/0443 T01461045 $","lat":40.4774,"lon":-111.4329,"elev":1708,"name":"Heber City Muni, UT, US","cover":"BKN","clouds":[{"cover":"BKN","base":9000}],"fltCat":"VFR"},{"icaoId":"KSEZ","receiptTime":"2026-04-16T05:01:03.792Z","obsTime":1776315300,"reportTime":"2026-04-16T05:00:00.000Z","temp":15,"dewp":-6,"wdir":150,"wspd":5,"visib":"10+","altim":1018,"qcField":6,"metarType":"METAR","rawOb":"METAR KSEZ 160455Z AUTO 15005KT 10SM CLR 15/M06 A3006 RMK AO2","lat":34.8467,"lon":-111.7884,"elev":1455,"name":"Sedona Arpt, AZ, US","cover":"CLR","clouds":[],"fltCat":"VFR"},{"icaoId":"KCHD","receiptTime":"2026-04-16T04:58:08.963Z","obsTime":1776315300,"reportTime":"2026-04-16T05:00:00.000Z","temp":21.9,"dewp":-1,"wdir":0,"wspd":0,"visib":"10+","altim":1013,"qcField":14,"metarType":"METAR","rawOb":"METAR KCHD 160455Z AUTO 00000KT 10SM CLR 22/M01 A2991 RMK AO2 T02191010 $","lat":33.2669,"lon":-111.8086,"elev":378,"name":"Chandler Muni, AZ, US","cover":"CLR","clouds":[],"fltCat":"VFR"},{"icaoId":"KRNO","receiptTime":"2026-04-16T04:58:27.218Z","obsTime":1776315300,"reportTime":"2026-04-16T05:00:00.000Z","temp":10.6,"dewp":-2.2,"wdir":330,"wspd":8,"visib":"10+","altim":1014.6,"slp":1012.3,"qcField":4,"metarType":"METAR","rawOb":"METAR KRNO 160455Z 33008KT 10SM SCT065 11/M02 A2996 RMK AO2 SLP123 T01061022","lat":39.5077,"lon":-119.7683,"elev":1344,"name":"Reno/Tahoe Intl, NV, US","cover":"SCT","clouds":[{"cover":"SCT","base":6500}],"fltCat":"VFR"},{"icaoId":"KLUF","receiptTime":"2026-04-16T05:08:06.191Z","obsTime":1776315300,"reportTime":"2026-04-16T05:00:00.000Z","temp":22.6,"dewp":-3.7,"wdir":0,"wspd":0,"visib":"10+","altim":1011.9,"slp":1010.9,"qcField":14,"metarType":"METAR","rawOb":"METAR KLUF 160455Z AUTO 00000KT 10SM CLR 23/M04 A2988 RMK AO2 SLP109 T02261037 $","lat":33.538,"lon":-112.38,"elev":333,"name":"Phoenix/Luke AFB, AZ, US","cover":"CLR","clouds":[],"fltCat":"VFR"},{"icaoId":"KBVU","receiptTime":"2026-04-16T04:56:09.829Z","obsTime":1776315300,"reportTime":"2026-04-16T05:00:00.000Z","temp":21,"dewp":-8,"wdir":160,"wspd":7,"visib":"10+","altim":1011.9,"qcField":6,"metarType":"METAR","rawOb":"METAR KBVU 160455Z AUTO 16007KT 10SM CLR 21/M08 A2988 RMK AO2","lat":35.9489,"lon":-114.8633,"elev":654,"name":"Boulder City Muni, NV, US","cover":"CLR","clouds":[],"fltCat":"VFR"},{"icaoId":"KHOB","receiptTime":"2026-04-16T04:58:21.306Z","obsTime":1776315300,"reportTime":"2026-04-16T05:00:00.000Z","temp":14,"dewp":-13,"wdir":270,"wspd":9,"visib":"10+","altim":1015.7,"qcField":6,"metarType":"METAR","rawOb":"METAR KHOB 160455Z AUTO 27009KT 10SM CLR 14/M13 A2999 RMK AO2","lat":32.6797,"lon":-103.2222,"elev":1112,"name":"Hobbs Arpt, NM, US","cover":"CLR","clouds":[],"fltCat":"VFR"},{"icaoId":"KAST","receiptTime":"2026-04-16T04:58:28.610Z","obsTime":1776315300,"reportTime":"2026-04-16T05:00:00.000Z","temp":3.9,"dewp":2.8,"wdir":150,"wspd":4,"visib":"10+","altim":1017.7,"slp":1017.4,"qcField":6,"precip":0.04,"metarType":"METAR","rawOb":"METAR KAST 160455Z AUTO 15004KT 10SM FEW027 04/03 A3005 RMK AO2 RAE28 SLP174 P0004 T00390028","lat":46.157,"lon":-123.8833,"elev":3,"name":"Astoria Rgnl, OR, US","cover":"FEW","clouds":[{"cover":"FEW","base":2700}],"fltCat":"VFR"},{"icaoId":"KRTS","receiptTime":"2026-04-16T05:01:03.010Z","obsTime":1776315300,"reportTime":"2026-04-16T05:00:00.000Z","temp":7,"dewp":-3,"wdir":60,"wspd":4,"visib":"10+","altim":1015.7,"qcField":6,"metarType":"METAR","rawOb":"METAR KRTS 160455Z AUTO 06004KT 10SM SCT050 07/M03 A2999 RMK AO2","lat":39.6658,"lon":-119.8731,"elev":1537,"name":"Reno/Stead Arpt, NV, US","cover":"SCT","clouds":[{"cover":"SCT","base":5000}],"fltCat":"VFR"},{"icaoId":"KHTH","receiptTime":"2026-04-16T05:00:55.440Z","obsTime":1776315300,"reportTime":"2026-04-16T05:00:00.000Z","temp":15,"dewp":-4,"wdir":240,"wspd":12,"wgst":22,"visib":"10+","altim":1013.6,"qcField":6,"metarType":"METAR","rawOb":"METAR KHTH 160455Z AUTO 24012G22KT 10SM CLR 15/M04 A2993 RMK A01","lat":38.5448,"lon":-118.6314,"elev":1281,"name":"Hawthorne Muni, NV, US","cover":"CLR","clouds":[],"fltCat":"VFR"},{"icaoId":"KADM","receiptTime":"2026-04-16T05:00:50.788Z","obsTime":1776315300,"reportTime":"2026-04-16T05:00:00.000Z","temp":15,"dewp":15,"wdir":0,"wspd":0,"visib":"","altim":1012.6,"qcField":166,"metarType":"METAR","rawOb":"METAR KADM 160455Z AUTO 00000KT 15/15 A2990 RMK AO2 PWINO TSNO","lat":34.3007,"lon":-97.0089,"elev":223,"name":"Ardmore Muni, OK, US"},{"icaoId":"KMHR","receiptTime":"2026-04-16T05:00:41.304Z","obsTime":1776315300,"reportTime":"2026-04-16T05:00:00.000Z","temp":13,"dewp":13,"wdir":150,"wspd":6,"visib":"10+","altim":1016.7,"qcField":6,"metarType":"METAR","rawOb":"METAR KMHR 160455Z AUTO 15006KT 10SM CLR 13/13 A3002 RMK AO2","lat":38.56,"lon":-121.284,"elev":30,"name":"Sacramento/Mather Fld, CA, US","cover":"CLR","clouds":[],"fltCat":"VFR"},{"icaoId":"KSOW","receiptTime":"2026-04-16T04:58:15.799Z","obsTime":1776315300,"reportTime":"2026-04-16T05:00:00.000Z","temp":9,"dewp":-7,"wdir":170,"wspd":7,"visib":"10+","altim":1020.7,"qcField":6,"metarType":"METAR","rawOb":"METAR KSOW 160455Z AUTO 17007KT 10SM CLR 09/M07 A3014 RMK AO2","lat":34.2686,"lon":-110.0019,"elev":1954,"name":"Show Low Muni, AZ, US","cover":"CLR","clouds":[],"fltCat":"VFR"},{"icaoId":"KCXP","receiptTime":"2026-04-16T05:00:59.981Z","obsTime":1776315300,"reportTime":"2026-04-16T05:00:00.000Z","temp":11,"dewp":0,"wdir":260,"wspd":7,"visib":"10+","altim":1015.7,"qcField":6,"metarType":"METAR","rawOb":"METAR KCXP 160455Z AUTO 26007KT 10SM BKN050 OVC060 11/M00 A2999 RMK AO2","lat":39.1905,"lon":-119.7319,"elev":1431,"name":"Carson City Arpt, NV, US","cover":"OVC","clouds":[{"cover":"BKN","base":5000},{"cover":"OVC","base":6000}],"fltCat":"VFR"},{"icaoId":"KMEV","receiptTime":"2026-04-16T05:00:41.056Z","obsTime":1776315300,"reportTime":"2026-04-16T05:00:00.000Z","temp":11,"dewp":0,"wdir":330,"wspd":5,"wgst":16,"visib":"10+","altim":1015,"qcField":6,"metarType":"METAR","rawOb":"METAR KMEV 160455Z AUTO 33005G16KT 10SM BKN060 BKN075 11/M00 A2997 RMK AO2","lat":38.9963,"lon":-119.75,"elev":1437,"name":"Minden-Tahoe Arpt, NV, US","cover":"BKN","clouds":[{"cover":"BKN","base":6000},{"cover":"BKN","base":7500}],"fltCat":"VFR"},{"icaoId":"KIFP","receiptTime":"2026-04-16T05:00:55.914Z","obsTime":1776315300,"reportTime":"2026-04-16T05:00:00.000Z","temp":26,"dewp":-5,"wdir":170,"wspd":11,"visib":"10+","altim":1010.6,"qcField":6,"metarType":"METAR","rawOb":"METAR KIFP 160455Z AUTO 17011KT 10SM CLR 26/M05 A2984 RMK AO2","lat":35.1487,"lon":-114.5611,"elev":210,"name":"Bullhead City Intl, AZ, US","cover":"CLR","clouds":[],"fltCat":"VFR"},{"icaoId":"KCMA","receiptTime":"2026-04-16T04:58:28.829Z","obsTime":1776315300,"reportTime":"2026-04-16T05:00:00.000Z","temp":13.9,"dewp":11.1,"wdir":0,"wspd":0,"visib":"10+","altim":1015.3,"slp":1016.2,"qcField":6,"metarType":"METAR","rawOb":"METAR KCMA 160455Z AUTO 00000KT 10SM CLR 14/11 A2998 RMK AO2 SLP162 T01390111","lat":34.2114,"lon":-119.0876,"elev":20,"name":"Camarillo Arpt, CA, US","cover":"CLR","clouds":[],"fltCat":"VFR"},{"icaoId":"KHII","receiptTime":"2026-04-16T05:00:54.635Z","obsTime":1776315300,"reportTime":"2026-04-16T05:00:00.000Z","temp":25,"dewp":-6,"wdir":90,"wspd":7,"visib":"10+","altim":1011.6,"qcField":6,"metarType":"METAR","rawOb":"METAR KHII 160455Z AUTO 09007KT 10SM CLR 25/M06 A2987 RMK AO2","lat":34.5659,"lon":-114.3522,"elev":241,"name":"Lake Havasu City Arpt, AZ, US","cover":"CLR","clouds":[],"fltCat":"VFR"},{"icaoId":"KBJC","receiptTime":"2026-04-16T05:00:09.739Z","obsTime":1776315300,"reportTime":"2026-04-16T05:00:00.000Z","temp":10,"dewp":-7,"wdir":260,"wspd":5,"visib":"10+","altim":1012.6,"qcField":6,"metarType":"METAR","rawOb":"METAR KBJC 160455Z AUTO 26005KT 10SM CLR 10/M07 A2990 RMK AO2","lat":39.9008,"lon":-105.1042,"elev":1694,"name":"Rocky Mtn Metro, CO, US","cover":"CLR","clouds":[],"fltCat":"VFR"},{"icaoId":"KAEG","receiptTime":"2026-04-16T05:02:10.306Z","obsTime":1776315300,"reportTime":"2026-04-16T05:00:00.000Z","temp":7.7,"dewp":-11.1,"wdir":330,"wspd":5,"visib":"10+","altim":1018.7,"qcField":6,"metarType":"METAR","rawOb":"METAR KAEG 160455Z AUTO 33005KT 10SM CLR 08/M11 A3008 RMK AO2 T00771111","lat":35.15,"lon":-106.7929,"elev":1771,"name":"Albuquerque/Double Eagle Arpt, NM, US","cover":"CLR","clouds":[],"fltCat":"VFR"},{"icaoId":"KEUG","receiptTime":"2026-04-16T04:58:07.104Z","obsTime":1776315240,"reportTime":"2026-04-16T05:00:00.000Z","temp":3.9,"dewp":2.2,"wdir":200,"wspd":11,"visib":4,"altim":1021.1,"slp":1021.2,"qcField":12,"wxString":"RA BR","precip":0.06,"metarType":"METAR","rawOb":"METAR KEUG 160454Z 20011KT 4SM RA BR SCT015 BKN025 OVC035 04/02 A3015 RMK AO2 RAB25 SLP212 P0006 T00390022 $","lat":44.1331,"lon":-123.2156,"elev":109,"name":"Eugene/Mahlon Sweet Fld, OR, US","cover":"OVC","clouds":[{"cover":"SCT","base":1500},{"cover":"BKN","base":2500},{"cover":"OVC","base":3500}],"fltCat":"MVFR"},{"icaoId":"KIND","receiptTime":"2026-04-16T04:58:10.515Z","obsTime":1776315240,"reportTime":"2026-04-16T05:00:00.000Z","temp":18.9,"dewp":16.1,"wdir":250,"wspd":6,"visib":"10+","altim":1011.9,"slp":1011.2,"qcField":4,"maxT24":26.7,"minT24":18.3,"metarType":"METAR","rawOb":"METAR KIND 160454Z 25006KT 10SM OVC150 19/16 A2988 RMK AO2 SLP112 T01890161 402670183","lat":39.7252,"lon":-86.2816,"elev":242,"name":"Indianapolis Intl, IN, US","cover":"OVC","clouds":[{"cover":"OVC","base":15000}],"fltCat":"VFR"},{"icaoId":"KMEM","receiptTime":"2026-04-16T04:58:08.448Z","obsTime":1776315240,"reportTime":"2026-04-16T05:00:00.000Z","temp":22.2,"dewp":13.3,"wdir":190,"wspd":9,"visib":"10+","altim":1014.6,"slp":1013.9,"qcField":4,"metarType":"METAR","rawOb":"METAR KMEM 160454Z 19009KT 10SM FEW250 22/13 A2996 RMK AO2 SLP139 T02220133","lat":35.0564,"lon":-89.9864,"elev":78,"name":"Memphis Intl, TN, US","cover":"FEW","clouds":[{"cover":"FEW","base":25000}],"fltCat":"VFR"},{"icaoId":"KRIC","receiptTime":"2026-04-16T04:58:06.908Z","obsTime":1776315240,"reportTime":"2026-04-16T05:00:00.000Z","temp":21.7,"dewp":13.9,"wdir":210,"wspd":7,"visib":"10+","altim":1015,"slp":1015,"qcField":4,"maxT24":33.9,"minT24":15,"metarType":"METAR","rawOb":"METAR KRIC 160454Z 21007KT 10SM FEW250 22/14 A2997 RMK AO2 SLP150 T02170139 403390150","lat":37.5115,"lon":-77.3234,"elev":51,"name":"Richmond Intl, VA, US","cover":"FEW","clouds":[{"cover":"FEW","base":25000}],"fltCat":"VFR"},{"icaoId":"KROC","receiptTime":"2026-04-16T04:58:06.938Z","obsTime":1776315240,"reportTime":"2026-04-16T05:00:00.000Z","temp":15.6,"dewp":15,"wdir":0,"wspd":0,"visib":"10+","altim":1011.3,"slp":1011,"qcField":12,"maxT24":25,"minT24":9.4,"metarType":"METAR","rawOb":"METAR KROC 160454Z 00000KT 10SM OVC018 16/15 A2986 RMK AO2 SLP110 T01560150 402500094 $","lat":43.1172,"lon":-77.6754,"elev":166,"name":"Rochester Intl Arpt, NY, US","cover":"OVC","clouds":[{"cover":"OVC","base":1800}],"fltCat":"MVFR"},{"icaoId":"KSYR","receiptTime":"2026-04-16T04:58:06.972Z","obsTime":1776315240,"reportTime":"2026-04-16T05:00:00.000Z","temp":15.6,"dewp":15,"wdir":100,"wspd":3,"visib":"10+","altim":1011.3,"slp":1010.6,"qcField":4,"maxT24":26.1,"minT24":8.9,"precip":0.005,"metarType":"METAR","rawOb":"METAR KSYR 160454Z 10003KT 10SM BKN042 OVC065 16/15 A2986 RMK AO2 RAE51 SLP106 P0000 T01560150 402610089","lat":43.1111,"lon":-76.1038,"elev":125,"name":"Syracuse/Hancock Intl, NY, US","cover":"OVC","clouds":[{"cover":"BKN","base":4200},{"cover":"OVC","base":6500}],"fltCat":"VFR"},{"icaoId":"KAPC","receiptTime":"2026-04-16T04:58:07.143Z","obsTime":1776315240,"reportTime":"2026-04-16T05:00:00.000Z","temp":11.7,"dewp":10,"wdir":280,"wspd":8,"visib":"10+","altim":1018.4,"slp":1017.3,"qcField":6,"metarType":"METAR","rawOb":"METAR KAPC 160454Z AUTO 28008KT 10SM CLR 12/10 A3007 RMK AO2 SLP173 T01170100","lat":38.2075,"lon":-122.2804,"elev":5,"name":"Napa Cnty Arpt, CA, US","cover":"CLR","clouds":[],"fltCat":"VFR"},{"icaoId":"KBUF","receiptTime":"2026-04-16T04:58:05.463Z","obsTime":1776315240,"reportTime":"2026-04-16T05:00:00.000Z","temp":12.8,"dewp":12.2,"wdir":230,"wspd":7,"visib":4,"altim":1011.6,"slp":1011.6,"qcField":12,"wxString":"BR","maxT24":22.2,"minT24":12.2,"metarType":"METAR","rawOb":"METAR KBUF 160454Z 23007KT 4SM BR OVC002 13/12 A2987 RMK AO2 SLP116 T01280122 402220122 $","lat":42.94,"lon":-78.7361,"elev":217,"name":"Buffalo-Niagara Intl, NY, US","cover":"OVC","clouds":[{"cover":"OVC","base":200}],"fltCat":"LIFR"},{"icaoId":"KBWI","receiptTime":"2026-04-16T04:58:13.710Z","obsTime":1776315240,"reportTime":"2026-04-16T05:00:00.000Z","temp":22.2,"dewp":13.3,"wdir":200,"wspd":3,"visib":"10+","altim":1012.6,"slp":1012.3,"qcField":4,"maxT24":32.8,"minT24":15,"metarType":"METAR","rawOb":"METAR KBWI 160454Z 20003KT 10SM FEW200 BKN250 22/13 A2990 RMK AO2 SLP123 T02220133 403280150","lat":39.1733,"lon":-76.684,"elev":42,"name":"Baltimore-Washington Intl, MD, US","cover":"BKN","clouds":[{"cover":"FEW","base":20000},{"cover":"BKN","base":25000}],"fltCat":"VFR"},{"icaoId":"KCOS","receiptTime":"2026-04-16T04:58:10.574Z","obsTime":1776315240,"reportTime":"2026-04-16T05:00:00.000Z","temp":7.2,"dewp":-7.8,"wdir":360,"wspd":9,"visib":"10+","altim":1014,"slp":1010.5,"qcField":4,"metarType":"METAR","rawOb":"METAR KCOS 160454Z 36009KT 10SM CLR 07/M08 A2994 RMK AO2 SLP105 T00721078","lat":38.8095,"lon":-104.6887,"elev":1886,"name":"Colorado Spring Arpt, CO, US","cover":"CLR","clouds":[],"fltCat":"VFR"},{"icaoId":"KPHL","receiptTime":"2026-04-16T04:58:08.096Z","obsTime":1776315240,"reportTime":"2026-04-16T05:00:00.000Z","temp":24.4,"dewp":15.6,"wdir":220,"wspd":8,"visib":"10+","altim":1012.3,"slp":1012.2,"qcField":12,"maxT24":32.8,"minT24":16.7,"metarType":"METAR","rawOb":"METAR KPHL 160454Z 22008KT 10SM BKN220 BKN280 24/16 A2989 RMK AO2 SLP122 T02440156 403280167 $","lat":39.8733,"lon":-75.2268,"elev":2,"name":"Philadelphia Intl, PA, US","cover":"BKN","clouds":[{"cover":"BKN","base":22000},{"cover":"BKN","base":28000}],"fltCat":"VFR"},{"icaoId":"KDSM","receiptTime":"2026-04-16T04:58:07.682Z","obsTime":1776315240,"reportTime":"2026-04-16T05:00:00.000Z","temp":15.6,"dewp":12.8,"wdir":290,"wspd":10,"visib":"10+","altim":1006.2,"slp":1005.6,"qcField":4,"metarType":"METAR","rawOb":"METAR KDSM 160454Z 29010KT 10SM SCT250 16/13 A2971 RMK AO2 SLP056 T01560128","lat":41.5339,"lon":-93.6531,"elev":286,"name":"Des Moines Intl, IA, US","cover":"SCT","clouds":[{"cover":"SCT","base":25000}],"fltCat":"VFR"},{"icaoId":"KOLS","receiptTime":"2026-04-16T04:58:08.061Z","obsTime":1776315240,"reportTime":"2026-04-16T05:00:00.000Z","temp":15,"dewp":-12.8,"wdir":0,"wspd":0,"visib":"10+","altim":1017,"slp":1012.2,"qcField":6,"metarType":"METAR","rawOb":"METAR KOLS 160454Z AUTO 00000KT 10SM CLR 15/M13 A3003 RMK AO2 SLP122 T01501128","lat":31.4208,"lon":-110.8465,"elev":1194,"name":"Nogales Intl, AZ, US","cover":"CLR","clouds":[],"fltCat":"VFR"},{"icaoId":"KGSO","receiptTime":"2026-04-16T04:58:05.351Z","obsTime":1776315240,"reportTime":"2026-04-16T05:00:00.000Z","temp":21.1,"dewp":10,"wdir":210,"wspd":5,"visib":"10+","altim":1017,"slp":1015.7,"qcField":4,"maxT24":31.7,"minT24":14.4,"metarType":"METAR","rawOb":"METAR KGSO 160454Z 21005KT 10SM BKN250 21/10 A3003 RMK AO2 SLP157 T02110100 403170144","lat":36.0969,"lon":-79.9432,"elev":275,"name":"Greensboro Intl, NC, US","cover":"BKN","clouds":[{"cover":"BKN","base":25000}],"fltCat":"VFR"},{"icaoId":"KOLM","receiptTime":"2026-04-16T04:58:08.045Z","obsTime":1776315240,"reportTime":"2026-04-16T05:00:00.000Z","temp":3.9,"dewp":0.6,"wdir":210,"wspd":7,"visib":"10+","altim":1016.7,"slp":1016.5,"qcField":6,"metarType":"METAR","rawOb":"METAR KOLM 160454Z AUTO 21007KT 10SM FEW055 SCT100 04/01 A3002 RMK AO2 SLP165 T00390006","lat":46.9737,"lon":-122.9049,"elev":58,"name":"Olympia Rgnl, WA, US","cover":"SCT","clouds":[{"cover":"FEW","base":5500},{"cover":"SCT","base":10000}],"fltCat":"VFR"},{"icaoId":"KBFL","receiptTime":"2026-04-16T04:58:07.160Z","obsTime":1776315240,"reportTime":"2026-04-16T05:00:00.000Z","temp":18.3,"dewp":7.8,"wdir":20,"wspd":4,"visib":"10+","altim":1015.7,"slp":1015.1,"qcField":4,"metarType":"METAR","rawOb":"METAR KBFL 160454Z 02004KT 10SM CLR 18/08 A2999 RMK AO2 SLP151 T01830078","lat":35.4342,"lon":-119.0552,"elev":146,"name":"Bakersfield/Meadows Arpt, CA, US","cover":"CLR","clouds":[],"fltCat":"VFR"},{"icaoId":"KSJN","receiptTime":"2026-04-16T04:58:08.333Z","obsTime":1776315240,"reportTime":"2026-04-16T05:00:00.000Z","temp":8.9,"dewp":-8.3,"wdir":180,"wspd":5,"visib":"10+","altim":1018.7,"slp":1013.9,"qcField":6,"metarType":"METAR","rawOb":"METAR KSJN 160454Z AUTO 18005KT 10SM CLR 09/M08 A3008 RMK AO2 SLP139 T00891083","lat":34.5184,"lon":-109.3801,"elev":1747,"name":"St Johns Ind Arpt, AZ, US","cover":"CLR","clouds":[],"fltCat":"VFR"},{"icaoId":"KGCN","receiptTime":"2026-04-16T04:58:07.124Z","obsTime":1776315240,"reportTime":"2026-04-16T05:00:00.000Z","temp":3.3,"dewp":-6.1,"wdir":0,"wspd":0,"visib":"10+","altim":1019.7,"slp":1015.4,"qcField":6,"metarType":"METAR","rawOb":"METAR KGCN 160454Z AUTO 00000KT 10SM CLR 03/M06 A3011 RMK AO2 SLP154 T00331061","lat":35.9458,"lon":-112.1554,"elev":1993,"name":"Grand Canyon Park Arpt, AZ, US","cover":"CLR","clouds":[],"fltCat":"VFR"},{"icaoId":"KRKS","receiptTime":"2026-04-16T04:58:08.202Z","obsTime":1776315240,"reportTime":"2026-04-16T05:00:00.000Z","temp":8.3,"dewp":-3.3,"wdir":240,"wspd":6,"visib":"10+","altim":1011.9,"slp":1007.3,"qcField":6,"metarType":"METAR","rawOb":"METAR KRKS 160454Z AUTO 24006KT 10SM OVC090 08/M03 A2988 RMK AO2 SLP073 T00831033","lat":41.5947,"lon":-109.0529,"elev":2062,"name":"Rock Springs/SW Wyoming Rgnl, WY, US","cover":"OVC","clouds":[{"cover":"OVC","base":9000}],"fltCat":"VFR"},{"icaoId":"KBOS","receiptTime":"2026-04-16T04:58:06.750Z","obsTime":1776315240,"reportTime":"2026-04-16T05:00:00.000Z","temp":8.9,"dewp":7.8,"wdir":30,"wspd":8,"visib":4,"altim":1013.3,"slp":1013.1,"qcField":12,"wxString":"BR","maxT24":22.8,"minT24":7.8,"metarType":"METAR","rawOb":"METAR KBOS 160454Z 03008KT 4SM BR FEW002 OVC005 09/08 A2992 RMK AO2 SLP131 T00890078 402280078 $","lat":42.3606,"lon":-71.0097,"elev":4,"name":"Boston/Logan Intl, MA, US","cover":"OVC","clouds":[{"cover":"FEW","base":200},{"cover":"OVC","base":500}],"fltCat":"IFR"},{"icaoId":"KFFZ","receiptTime":"2026-04-16T04:58:06.318Z","obsTime":1776315240,"reportTime":"2026-04-16T05:00:00.000Z","temp":21.7,"dewp":-0.6,"wdir":0,"wspd":0,"visib":"10+","altim":1013,"slp":1010.9,"qcField":4,"metarType":"METAR","rawOb":"METAR KFFZ 160454Z 00000KT 10SM CLR 22/M01 A2991 RMK AO2 SLP109 T02171006","lat":33.4659,"lon":-111.7212,"elev":420,"name":"Mesa/Falcon Fld, AZ, US","cover":"CLR","clouds":[],"fltCat":"VFR"},{"icaoId":"KSLC","receiptTime":"2026-04-16T04:58:08.351Z","obsTime":1776315240,"reportTime":"2026-04-16T05:00:00.000Z","temp":16.7,"dewp":0.6,"wdir":280,"wspd":7,"wgst":16,"visib":"10+","altim":1009.2,"slp":1005.6,"qcField":4,"metarType":"METAR","rawOb":"METAR KSLC 160454Z 28007G16KT 10SM FEW070 OVC095 17/01 A2980 RMK AO2 SLP056 VIRGA T01670006","lat":40.7707,"lon":-111.965,"elev":1286,"name":"Salt Lake City Intl, UT, US","cover":"OVC","clouds":[{"cover":"FEW","base":7000},{"cover":"OVC","base":9500}],"fltCat":"VFR"},{"icaoId":"KACV","receiptTime":"2026-04-16T04:56:35.241Z","obsTime":1776315180,"reportTime":"2026-04-16T05:00:00.000Z","temp":6.1,"dewp":3.3,"wdir":30,"wspd":3,"visib":"10+","altim":1022.4,"slp":1023.1,"qcField":6,"metarType":"METAR","rawOb":"METAR KACV 160453Z AUTO 03003KT 10SM SCT046 06/03 A3019 RMK AO2 SLP231 T00610033","lat":40.9784,"lon":-124.1048,"elev":63,"name":"Arcata Arpt, CA, US","cover":"SCT","clouds":[{"cover":"SCT","base":4600}],"fltCat":"VFR"},{"icaoId":"KAMA","receiptTime":"2026-04-16T04:56:35.453Z","obsTime":1776315180,"reportTime":"2026-04-16T05:00:00.000Z","temp":12.8,"dewp":-10,"wdir":230,"wspd":7,"visib":"10+","altim":1013.6,"slp":1009.7,"qcField":4,"metarType":"METAR","rawOb":"METAR KAMA 160453Z 23007KT 10SM CLR 13/M10 A2993 RMK AO2 SLP097 T01281100","lat":35.2203,"lon":-101.7173,"elev":1102,"name":"Amarillo Intl Arpt, TX, US","cover":"CLR","clouds":[],"fltCat":"VFR"},{"icaoId":"KAPA","receiptTime":"2026-04-16T04:56:35.581Z","obsTime":1776315180,"reportTime":"2026-04-16T05:00:00.000Z","temp":10.6,"dewp":-6.7,"wdir":220,"wspd":11,"visib":"10+","altim":1012.6,"slp":1008.9,"qcField":4,"metarType":"METAR","rawOb":"METAR KAPA 160453Z 22011KT 10SM FEW220 11/M07 A2990 RMK AO2 SLP089 T01061067","lat":39.5599,"lon":-104.8484,"elev":1791,"name":"Denver/Centennial Arpt, CO, US","cover":"FEW","clouds":[{"cover":"FEW","base":22000}],"fltCat":"VFR"},{"icaoId":"KAUS","receiptTime":"2026-04-16T04:56:35.771Z","obsTime":1776315180,"reportTime":"2026-04-16T05:00:00.000Z","temp":22.8,"dewp":17.8,"wdir":160,"wspd":13,"wgst":21,"visib":"10+","altim":1014.3,"slp":1013.4,"qcField":4,"metarType":"METAR","rawOb":"METAR KAUS 160453Z 16013G21KT 10SM FEW050 23/18 A2995 RMK AO2 SLP134 T02280178","lat":30.1831,"lon":-97.6806,"elev":148,"name":"Austin/Bergstrom Intl, TX, US","cover":"FEW","clouds":[{"cover":"FEW","base":5000}],"fltCat":"VFR"},{"icaoId":"KASE","receiptTime":"2026-04-16T04:56:35.682Z","obsTime":1776315180,"reportTime":"2026-04-16T05:00:00.000Z","temp":-0.6,"dewp":-5.6,"wdir":200,"wspd":4,"visib":"10+","altim":1018.4,"slp":1014,"qcField":6,"metarType":"METAR","rawOb":"METAR KASE 160453Z AUTO 20004KT 10SM CLR M01/M06 A3007 RMK AO2 SLP140 T10061056","lat":39.2299,"lon":-106.8705,"elev":2384,"name":"Aspen/Pitkin Cnty, CO, US","cover":"CLR","clouds":[],"fltCat":"VFR"},{"icaoId":"KLAW","receiptTime":"2026-04-16T04:56:33.653Z","obsTime":1776315180,"reportTime":"2026-04-16T05:00:00.000Z","temp":15.6,"dewp":15,"wdir":110,"wspd":3,"visib":"10+","altim":1011.6,"slp":1010.8,"qcField":6,"metarType":"METAR","rawOb":"METAR KLAW 160453Z AUTO 11003KT 10SM CLR 16/15 A2987 RMK AO2 SLP108 T01560150","lat":34.5577,"lon":-98.4172,"elev":328,"name":"Lawton-Fort Sill Rgnl, OK, US","cover":"CLR","clouds":[],"fltCat":"VFR"},{"icaoId":"KTWF","receiptTime":"2026-04-16T04:56:32.869Z","obsTime":1776315180,"reportTime":"2026-04-16T05:00:00.000Z","temp":3.9,"dewp":2.8,"wdir":290,"wspd":27,"wgst":39,"visib":9,"altim":1009.9,"slp":1007.9,"qcField":14,"wxString":"-RA","precip":0.01,"metarType":"METAR","rawOb":"METAR KTWF 160453Z AUTO 29027G39KT 9SM -RA BKN008 OVC016 04/03 A2982 RMK AO2 PK WND 29039/0451 WSHFT 0403 CIG 006V012 SLP079 P0001 T00390028 $","lat":42.4785,"lon":-114.4775,"elev":1269,"name":"Twin Falls/Joslin Fld, ID, US","cover":"OVC","clouds":[{"cover":"BKN","base":800},{"cover":"OVC","base":1600}],"fltCat":"IFR"},{"icaoId":"KVEL","receiptTime":"2026-04-16T04:56:33.017Z","obsTime":1776315180,"reportTime":"2026-04-16T05:00:00.000Z","temp":13.3,"dewp":-4.4,"wdir":170,"wspd":6,"wgst":16,"visib":"10+","altim":1011.9,"slp":1008.3,"qcField":6,"metarType":"METAR","rawOb":"METAR KVEL 160453Z AUTO 17006G16KT 10SM BKN100 OVC120 13/M04 A2988 RMK AO2 SLP083 T01331044","lat":40.4429,"lon":-109.5128,"elev":1604,"name":"Vernal Rgnl, UT, US","cover":"OVC","clouds":[{"cover":"BKN","base":10000},{"cover":"OVC","base":12000}],"fltCat":"VFR"},{"icaoId":"KMCO","receiptTime":"2026-04-16T04:56:31.441Z","obsTime":1776315180,"reportTime":"2026-04-16T05:00:00.000Z","temp":19.4,"dewp":14.4,"wdir":120,"wspd":8,"visib":"10+","altim":1022.1,"slp":1021.7,"qcField":4,"maxT24":28.9,"minT24":16.1,"metarType":"METAR","rawOb":"METAR KMCO 160453Z 12008KT 10SM CLR 19/14 A3018 RMK AO2 SLP217 T01940144 402890161","lat":28.4182,"lon":-81.3241,"elev":27,"name":"Orlando Intl, FL, US","cover":"CLR","clouds":[],"fltCat":"VFR"},{"icaoId":"KSTS","receiptTime":"2026-04-16T04:56:23.726Z","obsTime":1776315180,"reportTime":"2026-04-16T05:00:00.000Z","temp":12.8,"dewp":9.4,"wdir":260,"wspd":6,"visib":"10+","altim":1018.4,"slp":1017.6,"qcField":6,"metarType":"METAR","rawOb":"METAR KSTS 160453Z AUTO 26006KT 10SM CLR 13/09 A3007 RMK AO2 SLP176 T01280094","lat":38.5037,"lon":-122.811,"elev":35,"name":"Santa Rosa/Schulz Arpt, CA, US","cover":"CLR","clouds":[],"fltCat":"VFR"},{"icaoId":"KSWO","receiptTime":"2026-04-16T04:56:23.741Z","obsTime":1776315180,"reportTime":"2026-04-16T05:00:00.000Z","temp":18.3,"dewp":17.8,"wdir":190,"wspd":5,"visib":7,"altim":1011.3,"slp":1010,"qcField":6,"metarType":"METAR","rawOb":"METAR KSWO 160453Z AUTO 19005KT 7SM CLR 18/18 A2986 RMK AO2 SLP100 T01830178","lat":36.1624,"lon":-97.0832,"elev":293,"name":"Stillwater Muni, OK, US","cover":"CLR","clouds":[],"fltCat":"VFR"},{"icaoId":"KHLN","receiptTime":"2026-04-16T04:56:34.235Z","obsTime":1776315180,"reportTime":"2026-04-16T05:00:00.000Z","temp":3.9,"dewp":-4.4,"wdir":270,"wspd":13,"wgst":23,"visib":"10+","altim":1004.8,"slp":1006.7,"qcField":6,"metarType":"METAR","rawOb":"METAR KHLN 160453Z AUTO 27013G23KT 10SM FEW075 OVC100 04/M04 A2967 RMK AO2 PK WND 27038/0354 SLP067 T00391044","lat":46.6045,"lon":-111.9892,"elev":1178,"name":"Helena Rgnl, MT, US","cover":"OVC","clouds":[{"cover":"FEW","base":7500},{"cover":"OVC","base":10000}],"fltCat":"VFR"},{"icaoId":"KIAH","receiptTime":"2026-04-16T04:56:34.528Z","obsTime":1776315180,"reportTime":"2026-04-16T05:00:00.000Z","temp":22.8,"dewp":20.6,"wdir":170,"wspd":6,"visib":7,"altim":1015.7,"slp":1015.4,"qcField":4,"metarType":"METAR","rawOb":"METAR KIAH 160453Z 17006KT 7SM FEW250 23/21 A2999 RMK AO2 SLP154 T02280206","lat":29.9844,"lon":-95.3607,"elev":27,"name":"Houston/Bush Intl, TX, US","cover":"FEW","clouds":[{"cover":"FEW","base":25000}],"fltCat":"VFR"},{"icaoId":"KMCI","receiptTime":"2026-04-16T04:56:31.394Z","obsTime":1776315180,"reportTime":"2026-04-16T05:00:00.000Z","temp":17.8,"dewp":10,"wdir":0,"wspd":0,"visib":"10+","altim":1008.9,"slp":1007.8,"qcField":4,"metarType":"METAR","rawOb":"METAR KMCI 160453Z 00000KT 10SM OVC250 18/10 A2979 RMK AO2 SLP078 T01780100","lat":39.2975,"lon":-94.7309,"elev":308,"name":"Kansas City Intl, MO, US","cover":"OVC","clouds":[{"cover":"OVC","base":25000}],"fltCat":"VFR"},{"icaoId":"KLAR","receiptTime":"2026-04-16T04:56:33.637Z","obsTime":1776315180,"reportTime":"2026-04-16T05:00:00.000Z","temp":6.1,"dewp":-3.9,"wdir":200,"wspd":14,"wgst":26,"visib":"10+","altim":1012.6,"slp":1008.2,"qcField":14,"metarType":"METAR","rawOb":"METAR KLAR 160453Z AUTO 20014G26KT 10SM CLR 06/M04 A2990 RMK AO2 PK WND 18026/0451 SLP082 T00611039 $","lat":41.3165,"lon":-105.6729,"elev":2217,"name":"Laramie Rgnl, WY, US","cover":"CLR","clouds":[],"fltCat":"VFR"},{"icaoId":"KMTJ","receiptTime":"2026-04-16T04:56:33.916Z","obsTime":1776315180,"reportTime":"2026-04-16T05:00:00.000Z","temp":7.8,"dewp":-5.6,"wdir":140,"wspd":9,"visib":"10+","altim":1017.7,"slp":1013.6,"qcField":6,"metarType":"METAR","rawOb":"METAR KMTJ 160453Z AUTO 14009KT 10SM CLR 08/M06 A3005 RMK AO2 SLP136 T00781056","lat":38.5054,"lon":-107.8981,"elev":1755,"name":"Montrose Rgnl, CO, US","cover":"CLR","clouds":[],"fltCat":"VFR"},{"icaoId":"KMSP","receiptTime":"2026-04-16T04:56:31.924Z","obsTime":1776315180,"reportTime":"2026-04-16T05:00:00.000Z","temp":13.9,"dewp":5,"wdir":0,"wspd":0,"visib":"10+","altim":1006.9,"slp":1006.6,"qcField":4,"metarType":"METAR","rawOb":"METAR KMSP 160453Z 00000KT 10SM FEW120 14/05 A2973 RMK AO2 SLP066 T01390050","lat":44.8852,"lon":-93.2313,"elev":255,"name":"Minneapolis-St Paul Intl, MN, US","cover":"FEW","clouds":[{"cover":"FEW","base":12000}],"fltCat":"VFR"},{"icaoId":"KMYR","receiptTime":"2026-04-16T04:56:14.758Z","obsTime":1776315180,"reportTime":"2026-04-16T05:00:00.000Z","temp":18.9,"dewp":15.6,"wdir":190,"wspd":5,"visib":"10+","altim":1020.1,"slp":1019.9,"qcField":14,"metarType":"METAR","rawOb":"METAR KMYR 160453Z AUTO 19005KT 10SM CLR 19/16 A3012 RMK AO2 SLP199 T01890156 $","lat":33.6769,"lon":-78.9325,"elev":7,"name":"Myrtle Beach Intl, SC, US","cover":"CLR","clouds":[],"fltCat":"VFR"},{"icaoId":"KPRC","receiptTime":"2026-04-16T04:56:30.847Z","obsTime":1776315180,"reportTime":"2026-04-16T05:00:00.000Z","temp":11.7,"dewp":-5.6,"wdir":210,"wspd":7,"visib":"10+","altim":1018.4,"slp":1013,"qcField":6,"metarType":"METAR","rawOb":"METAR KPRC 160453Z AUTO 21007KT 10SM CLR 12/M06 A3007 RMK AO2 SLP130 T01171056","lat":34.6491,"lon":-112.4223,"elev":1528,"name":"Prescott/Love Fld, AZ, US","cover":"CLR","clouds":[],"fltCat":"VFR"},{"icaoId":"KPSC","receiptTime":"2026-04-16T04:56:30.864Z","obsTime":1776315180,"reportTime":"2026-04-16T05:00:00.000Z","temp":5.6,"dewp":-1.1,"wdir":230,"wspd":10,"visib":"10+","altim":1013,"slp":1013,"qcField":4,"metarType":"METAR","rawOb":"METAR KPSC 160453Z 23010KT 10SM CLR 06/M01 A2991 RMK AO2 PK WND 24026/0358 SLP130 T00561011","lat":46.2695,"lon":-119.1182,"elev":121,"name":"Pasco/Tri Cities Arpt, WA, US","cover":"CLR","clouds":[],"fltCat":"VFR"},{"icaoId":"KPUW","receiptTime":"2026-04-16T04:56:30.954Z","obsTime":1776315180,"reportTime":"2026-04-16T05:00:00.000Z","temp":1.7,"dewp":-2.8,"wdir":230,"wspd":14,"wgst":22,"visib":"10+","altim":1010.2,"slp":1011.7,"qcField":6,"metarType":"METAR","rawOb":"METAR KPUW 160453Z AUTO 23014G22KT 10SM CLR 02/M03 A2983 RMK AO2 SLP117 T00171028","lat":46.7438,"lon":-117.1158,"elev":774,"name":"Pullman/Moscow Rgnl, WA, US","cover":"CLR","clouds":[],"fltCat":"VFR"},{"icaoId":"KMFR","receiptTime":"2026-04-16T04:56:31.508Z","obsTime":1776315180,"reportTime":"2026-04-16T05:00:00.000Z","temp":2.8,"dewp":-1.1,"wdir":330,"wspd":6,"visib":"10+","altim":1021.1,"slp":1021.3,"qcField":6,"metarType":"METAR","rawOb":"METAR KMFR 160453Z AUTO 33006KT 10SM CLR 03/M01 A3015 RMK AO2 SLP213 T00281011","lat":42.375,"lon":-122.877,"elev":397,"name":"Medford/Rogue Valley Intl, OR, US","cover":"CLR","clouds":[],"fltCat":"VFR"},{"icaoId":"KMLS","receiptTime":"2026-04-16T04:56:31.753Z","obsTime":1776315180,"reportTime":"2026-04-16T05:00:00.000Z","temp":12.8,"dewp":3.9,"wdir":140,"wspd":4,"visib":"10+","altim":999.1,"slp":998.4,"qcField":6,"metarType":"METAR","rawOb":"METAR KMLS 160453Z AUTO 14004KT 10SM BKN110 13/04 A2950 RMK AO2 SLP984 T01280039","lat":46.4265,"lon":-105.8834,"elev":800,"name":"Miles City/Wiley Fld, MT, US","cover":"BKN","clouds":[{"cover":"BKN","base":11000}],"fltCat":"VFR"},{"icaoId":"KMOD","receiptTime":"2026-04-16T04:56:31.817Z","obsTime":1776315180,"reportTime":"2026-04-16T05:00:00.000Z","temp":14.4,"dewp":6.7,"wdir":330,"wspd":9,"visib":"10+","altim":1017,"slp":1016.9,"qcField":6,"metarType":"METAR","rawOb":"METAR KMOD 160453Z AUTO 33009KT 10SM CLR 14/07 A3003 RMK AO2 SLP169 T01440067","lat":37.6254,"lon":-120.9549,"elev":25,"name":"Modesto/Sham Fld, CA, US","cover":"CLR","clouds":[],"fltCat":"VFR"},{"icaoId":"KTUL","receiptTime":"2026-04-16T04:56:32.052Z","obsTime":1776315180,"reportTime":"2026-04-16T05:00:00.000Z","temp":21.7,"dewp":18.3,"wdir":210,"wspd":7,"wgst":14,"visib":"10+","altim":1011.9,"slp":1011,"qcField":4,"metarType":"METAR","rawOb":"METAR KTUL 160453Z 21007G14KT 10SM FEW008 SCT015 BKN055 22/18 A2988 RMK AO2 SLP110 FRQ LTGICCC DSNT NW-NE CB DSNT NW-NE MOV NE T02170183","lat":36.1985,"lon":-95.8782,"elev":196,"name":"Tulsa Intl Arpt, OK, US","cover":"BKN","clouds":[{"cover":"FEW","base":800},{"cover":"SCT","base":1500},{"cover":"BKN","base":5500}],"fltCat":"VFR"},{"icaoId":"KDFW","receiptTime":"2026-04-16T04:56:22.359Z","obsTime":1776315180,"reportTime":"2026-04-16T05:00:00.000Z","temp":22.8,"dewp":20,"wdir":190,"wspd":4,"visib":"10+","altim":1011.9,"slp":1011.1,"qcField":4,"metarType":"METAR","rawOb":"METAR KDFW 160453Z 19004KT 10SM SCT200 BKN250 23/20 A2988 RMK AO2 SLP111 T02280200","lat":32.8974,"lon":-97.022,"elev":168,"name":"Dallas-Ft Worth Intl, TX, US","cover":"BKN","clouds":[{"cover":"SCT","base":20000},{"cover":"BKN","base":25000}],"fltCat":"VFR"},{"icaoId":"KMIA","receiptTime":"2026-04-16T04:58:24.577Z","obsTime":1776315180,"reportTime":"2026-04-16T05:00:00.000Z","temp":23.9,"dewp":14.4,"wdir":100,"wspd":9,"visib":"10+","altim":1019.7,"slp":1019.7,"qcField":0,"metarType":"METAR","rawOb":"METAR KMIA 160453Z 10009KT 10SM BKN043 24/14 A3011 RMK SLP197 T02390144","lat":25.7881,"lon":-80.3169,"elev":1,"name":"Miami Intl, FL, US","cover":"BKN","clouds":[{"cover":"BKN","base":4300}],"fltCat":"VFR"},{"icaoId":"KDRO","receiptTime":"2026-04-16T04:56:21.051Z","obsTime":1776315180,"reportTime":"2026-04-16T05:00:00.000Z","temp":5,"dewp":-3.9,"wdir":360,"wspd":3,"visib":"10+","altim":1019.4,"slp":1016.9,"qcField":6,"metarType":"METAR","rawOb":"METAR KDRO 160453Z AUTO 36003KT 10SM CLR 05/M04 A3010 RMK AO2 SLP169 T00501039","lat":37.1431,"lon":-107.7602,"elev":2021,"name":"Durango/La Plata Cnty, CO, US","cover":"CLR","clouds":[],"fltCat":"VFR"},{"icaoId":"KDTW","receiptTime":"2026-04-16T04:56:21.171Z","obsTime":1776315180,"reportTime":"2026-04-16T05:00:00.000Z","temp":17.8,"dewp":16.1,"wdir":170,"wspd":6,"visib":9,"altim":1010.9,"slp":1010.3,"qcField":12,"maxT24":21.7,"minT24":15.6,"metarType":"METAR","rawOb":"METAR KDTW 160453Z 17006KT 9SM SCT040 BKN065 OVC100 18/16 A2985 RMK AO2 SLP103 T01780161 402170156 $","lat":42.2311,"lon":-83.3312,"elev":192,"name":"Detroit/Metro Wayne Cnty, MI, US","cover":"OVC","clouds":[{"cover":"SCT","base":4000},{"cover":"BKN","base":6500},{"cover":"OVC","base":10000}],"fltCat":"VFR"},{"icaoId":"KDVT","receiptTime":"2026-04-16T04:56:21.227Z","obsTime":1776315180,"reportTime":"2026-04-16T05:00:00.000Z","temp":20.6,"dewp":-0.6,"wdir":0,"wspd":0,"visib":"10+","altim":1013.3,"slp":1011.3,"qcField":4,"metarType":"METAR","rawOb":"METAR KDVT 160453Z 00000KT 10SM CLR 21/M01 A2992 RMK AO2 SLP113 T02061006","lat":33.6902,"lon":-112.0662,"elev":454,"name":"Phoenix/Deer Valley Arpt, AZ, US","cover":"CLR","clouds":[],"fltCat":"VFR"},{"icaoId":"KEVW","receiptTime":"2026-04-16T04:56:21.524Z","obsTime":1776315180,"reportTime":"2026-04-16T05:00:00.000Z","temp":7.8,"dewp":-2.2,"wdir":250,"wspd":22,"wgst":35,"visib":"10+","altim":1012.3,"slp":1006.7,"qcField":14,"metarType":"METAR","rawOb":"METAR KEVW 160453Z AUTO 25022G35KT 10SM BKN070 OVC100 08/M02 A2989 RMK AO2 PK WND 25035/0445 SLP067 T00781022 $","lat":41.2727,"lon":-111.0305,"elev":2178,"name":"Evanston/Uinta Cnty, WY, US","cover":"OVC","clouds":[{"cover":"BKN","base":7000},{"cover":"OVC","base":10000}],"fltCat":"VFR"},{"icaoId":"KIDA","receiptTime":"2026-04-16T04:56:21.701Z","obsTime":1776315180,"reportTime":"2026-04-16T05:00:00.000Z","temp":7.8,"dewp":4.4,"wdir":160,"wspd":11,"wgst":17,"visib":"10+","altim":1006.2,"slp":1005,"qcField":6,"precip":0.01,"metarType":"METAR","rawOb":"METAR KIDA 160453Z AUTO 16011G17KT 10SM BKN065 BKN080 OVC095 08/04 A2971 RMK AO2 RAB0355E30 SLP050 P0001 T00780044","lat":43.5204,"lon":-112.0675,"elev":1444,"name":"Idaho Falls Rgnl, ID, US","cover":"OVC","clouds":[{"cover":"BKN","base":6500},{"cover":"BKN","base":8000},{"cover":"OVC","base":9500}],"fltCat":"VFR"},{"icaoId":"KCNM","receiptTime":"2026-04-16T04:56:21.891Z","obsTime":1776315180,"reportTime":"2026-04-16T05:00:00.000Z","temp":16.7,"dewp":-10,"wdir":240,"wspd":11,"visib":"10+","altim":1015.3,"slp":1010.9,"qcField":6,"metarType":"METAR","rawOb":"METAR KCNM 160453Z AUTO 24011KT 10SM CLR 17/M10 A2998 RMK AO2 SLP109 T01671100","lat":32.3336,"lon":-104.2584,"elev":993,"name":"Carlsbad/Cavern City Air Term, NM, US","cover":"CLR","clouds":[],"fltCat":"VFR"},{"icaoId":"KDEN","receiptTime":"2026-04-16T04:56:22.293Z","obsTime":1776315180,"reportTime":"2026-04-16T05:00:00.000Z","temp":11.1,"dewp":-7.2,"wdir":200,"wspd":7,"visib":"10+","altim":1011.9,"slp":1007,"qcField":4,"metarType":"METAR","rawOb":"METAR KDEN 160453Z 20007KT 10SM FEW120 FEW220 11/M07 A2988 RMK AO2 SLP070 T01111072","lat":39.8466,"lon":-104.6562,"elev":1656,"name":"Denver Intl, CO, US","cover":"FEW","clouds":[{"cover":"FEW","base":12000},{"cover":"FEW","base":22000}],"fltCat":"VFR"},{"icaoId":"KBUR","receiptTime":"2026-04-16T04:56:22.678Z","obsTime":1776315180,"reportTime":"2026-04-16T05:00:00.000Z","temp":17.8,"dewp":6.1,"wdir":230,"wspd":3,"visib":"10+","altim":1015.7,"slp":1014.4,"qcField":6,"metarType":"METAR","rawOb":"METAR KBUR 160453Z AUTO 23003KT 10SM CLR 18/06 A2999 RMK AO2 SLP144 T01780061","lat":34.1996,"lon":-118.3654,"elev":221,"name":"Burbank/Bob Hope Arpt, CA, US","cover":"CLR","clouds":[],"fltCat":"VFR"},{"icaoId":"KBCE","receiptTime":"2026-04-16T04:56:23.154Z","obsTime":1776315180,"reportTime":"2026-04-16T05:00:00.000Z","temp":-0.6,"dewp":-5,"wdir":270,"wspd":7,"visib":"10+","altim":1018.7,"slp":1012.9,"qcField":6,"metarType":"METAR","rawOb":"METAR KBCE 160453Z AUTO 27007KT 10SM CLR M01/M05 A3008 RMK AO2 SLP129 T10061050","lat":37.7013,"lon":-112.149,"elev":2311,"name":"Bryce Canyon Arpt, UT, US","cover":"CLR","clouds":[],"fltCat":"VFR"},{"icaoId":"KBFI","receiptTime":"2026-04-16T04:56:23.309Z","obsTime":1776315180,"reportTime":"2026-04-16T05:00:00.000Z","temp":4.4,"dewp":2.2,"wdir":160,"wspd":5,"visib":"10+","altim":1016.3,"slp":1016.1,"qcField":12,"wxString":"-RA","precip":0.05,"metarType":"METAR","rawOb":"METAR KBFI 160453Z 16005KT 10SM -RA FEW021 OVC028 04/02 A3001 RMK AO2 SLP161 P0005 T00440022 $","lat":47.5455,"lon":-122.3148,"elev":7,"name":"Seattle/Boeing Fld, WA, US","cover":"OVC","clouds":[{"cover":"FEW","base":2100},{"cover":"OVC","base":2800}],"fltCat":"MVFR"},{"icaoId":"KBHM","receiptTime":"2026-04-16T04:56:23.413Z","obsTime":1776315180,"reportTime":"2026-04-16T05:00:00.000Z","temp":17.2,"dewp":12.2,"wdir":0,"wspd":0,"visib":"10+","altim":1019.7,"slp":1018.7,"qcField":4,"metarType":"METAR","rawOb":"METAR KBHM 160453Z 00000KT 10SM CLR 17/12 A3011 RMK AO2 SLP187 T01720122","lat":33.5655,"lon":-86.7449,"elev":191,"name":"Birmingham Intl, AL, US","cover":"CLR","clouds":[],"fltCat":"VFR"},{"icaoId":"KSHR","receiptTime":"2026-04-16T04:56:28.330Z","obsTime":1776315180,"reportTime":"2026-04-16T05:00:00.000Z","temp":11.1,"dewp":-1.7,"wdir":270,"wspd":8,"visib":"10+","altim":1001.4,"slp":999.8,"qcField":6,"metarType":"METAR","rawOb":"METAR KSHR 160453Z AUTO 27008KT 10SM CLR 11/M02 A2957 RMK AO2 SLP998 T01111017","lat":44.7603,"lon":-106.9741,"elev":1212,"name":"Sheridan Cnty Arpt, WY, US","cover":"CLR","clouds":[],"fltCat":"VFR"},{"icaoId":"KTPA","receiptTime":"2026-04-16T04:56:23.957Z","obsTime":1776315180,"reportTime":"2026-04-16T05:00:00.000Z","temp":21.7,"dewp":14.4,"wdir":110,"wspd":8,"visib":"10+","altim":1021.1,"slp":1020.8,"qcField":4,"maxT24":27.8,"minT24":19.4,"metarType":"METAR","rawOb":"METAR KTPA 160453Z 11008KT 10SM CLR 22/14 A3015 RMK AO2 SLP208 T02170144 402780194","lat":27.9633,"lon":-82.54,"elev":2,"name":"Tampa Intl Arpt, FL, US","cover":"CLR","clouds":[],"fltCat":"VFR"},{"icaoId":"KHIO","receiptTime":"2026-04-16T04:56:24.061Z","obsTime":1776315180,"reportTime":"2026-04-16T05:00:00.000Z","temp":3.9,"dewp":2.2,"wdir":0,"wspd":0,"visib":"10+","altim":1018,"slp":1018,"qcField":6,"metarType":"METAR","rawOb":"METAR KHIO 160453Z AUTO 00000KT 10SM CLR 04/02 A3006 RMK AO2 SLP180 T00390022","lat":45.5476,"lon":-122.9557,"elev":62,"name":"Portland/Hillsboro Arpt, OR, US","cover":"CLR","clouds":[],"fltCat":"VFR"},{"icaoId":"KCDC","receiptTime":"2026-04-16T04:56:24.287Z","obsTime":1776315180,"reportTime":"2026-04-16T05:00:00.000Z","temp":10,"dewp":-3.9,"wdir":190,"wspd":8,"visib":"10+","altim":1016,"slp":1011.6,"qcField":6,"metarType":"METAR","rawOb":"METAR KCDC 160453Z AUTO 19008KT 10SM CLR 10/M04 A3000 RMK AO2 SLP116 T01001039","lat":37.7067,"lon":-113.097,"elev":1703,"name":"Cedar City Muni, UT, US","cover":"CLR","clouds":[],"fltCat":"VFR"},{"icaoId":"KBIL","receiptTime":"2026-04-16T04:56:27.292Z","obsTime":1776315180,"reportTime":"2026-04-16T05:00:00.000Z","temp":10,"dewp":-1.1,"wdir":290,"wspd":6,"visib":"10+","altim":1000.4,"slp":999.3,"qcField":4,"metarType":"METAR","rawOb":"METAR KBIL 160453Z 29006KT 10SM FEW110 10/M01 A2954 RMK AO2 SLP993 T01001011","lat":45.8072,"lon":-108.5462,"elev":1089,"name":"Billings/Logan Intl, MT, US","cover":"FEW","clouds":[{"cover":"FEW","base":11000}],"fltCat":"VFR"},{"icaoId":"KCNY","receiptTime":"2026-04-16T04:56:27.339Z","obsTime":1776315180,"reportTime":"2026-04-16T05:00:00.000Z","temp":15,"dewp":-4.4,"wdir":190,"wspd":9,"visib":"10+","altim":1012.6,"slp":1009.3,"qcField":6,"metarType":"METAR","rawOb":"METAR KCNY 160453Z AUTO 19009KT 10SM FEW100 15/M04 A2990 RMK AO2 SLP093 T01501044","lat":38.7501,"lon":-109.7627,"elev":1392,"name":"Moab/Canyonland Fld, UT, US","cover":"FEW","clouds":[{"cover":"FEW","base":10000}],"fltCat":"VFR"},{"icaoId":"KDAL","receiptTime":"2026-04-16T04:56:27.395Z","obsTime":1776315180,"reportTime":"2026-04-16T05:00:00.000Z","temp":23.9,"dewp":19.4,"wdir":170,"wspd":9,"visib":"10+","altim":1012.3,"slp":1011.5,"qcField":4,"metarType":"METAR","rawOb":"METAR KDAL 160453Z 17009KT 10SM BKN250 24/19 A2989 RMK AO2 SLP115 T02390194","lat":32.8384,"lon":-96.8358,"elev":148,"name":"Dallas/Love Fld, TX, US","cover":"BKN","clouds":[{"cover":"BKN","base":25000}],"fltCat":"VFR"},{"icaoId":"KCLL","receiptTime":"2026-04-16T04:56:27.480Z","obsTime":1776315180,"reportTime":"2026-04-16T05:00:00.000Z","temp":21.7,"dewp":18.3,"wdir":170,"wspd":9,"visib":"10+","altim":1015.3,"slp":1014.6,"qcField":6,"metarType":"METAR","rawOb":"METAR KCLL 160453Z AUTO 17009KT 10SM CLR 22/18 A2998 RMK AO2 SLP146 T02170183","lat":30.5912,"lon":-96.3631,"elev":96,"name":"College Station/Easterwood Arpt, TX, US","cover":"CLR","clouds":[],"fltCat":"VFR"},{"icaoId":"KFMN","receiptTime":"2026-04-16T04:56:27.495Z","obsTime":1776315180,"reportTime":"2026-04-16T05:00:00.000Z","temp":6.1,"dewp":-6.7,"wdir":100,"wspd":3,"visib":"10+","altim":1017.7,"slp":1015.9,"qcField":6,"metarType":"METAR","rawOb":"METAR KFMN 160453Z AUTO 10003KT 10SM CLR 06/M07 A3005 RMK AO2 SLP159 T00611067","lat":36.7435,"lon":-108.2293,"elev":1677,"name":"Farmington/Four Corners Rgnl, NM, US","cover":"CLR","clouds":[],"fltCat":"VFR"},{"icaoId":"KDMN","receiptTime":"2026-04-16T04:56:27.591Z","obsTime":1776315180,"reportTime":"2026-04-16T05:00:00.000Z","temp":13.3,"dewp":-13.9,"wdir":300,"wspd":6,"visib":"10+","altim":1017.7,"slp":1012.5,"qcField":6,"metarType":"METAR","rawOb":"METAR KDMN 160453Z AUTO 30006KT 10SM CLR 13/M14 A3005 RMK AO2 SLP125 T01331139","lat":32.2592,"lon":-107.7206,"elev":1310,"name":"Deming Muni, NM, US","cover":"CLR","clouds":[],"fltCat":"VFR"},{"icaoId":"KELY","receiptTime":"2026-04-16T04:56:27.641Z","obsTime":1776315180,"reportTime":"2026-04-16T05:00:00.000Z","temp":11.7,"dewp":-6.7,"wdir":200,"wspd":11,"visib":"10+","altim":1013.6,"slp":1006.9,"qcField":6,"metarType":"METAR","rawOb":"METAR KELY 160453Z AUTO 20011KT 10SM OVC100 12/M07 A2993 RMK AO2 SLP069 T01171067","lat":39.2954,"lon":-114.8466,"elev":1906,"name":"Ely/Yelland Fld, NV, US","cover":"OVC","clouds":[{"cover":"OVC","base":10000}],"fltCat":"VFR"},{"icaoId":"KFAT","receiptTime":"2026-04-16T04:56:27.689Z","obsTime":1776315180,"reportTime":"2026-04-16T05:00:00.000Z","temp":18.3,"dewp":3.3,"wdir":330,"wspd":10,"visib":"10+","altim":1016,"slp":1015.7,"qcField":12,"metarType":"METAR","rawOb":"METAR KFAT 160453Z 33010KT 10SM FEW130 SCT200 18/03 A3000 RMK AO2 SLP157 T01830033 $","lat":36.78,"lon":-119.7202,"elev":102,"name":"Fresno/Yosemite Intl, CA, US","cover":"SCT","clouds":[{"cover":"FEW","base":13000},{"cover":"SCT","base":20000}],"fltCat":"VFR"},{"icaoId":"KSJC","receiptTime":"2026-04-16T04:56:28.358Z","obsTime":1776315180,"reportTime":"2026-04-16T05:00:00.000Z","temp":13.3,"dewp":8.3,"wdir":320,"wspd":9,"visib":"10+","altim":1019.4,"slp":1019.1,"qcField":12,"metarType":"METAR","rawOb":"METAR KSJC 160453Z 32009KT 10SM SCT028 BKN035 13/08 A3010 RMK AO2 SLP191 T01330083 $","lat":37.3594,"lon":-121.9244,"elev":13,"name":"San Jose Intl Arpt, CA, US","cover":"BKN","clouds":[{"cover":"SCT","base":2800},{"cover":"BKN","base":3500}],"fltCat":"VFR"},{"icaoId":"KSMF","receiptTime":"2026-04-16T04:56:28.391Z","obsTime":1776315180,"reportTime":"2026-04-16T05:00:00.000Z","temp":15,"dewp":8.9,"wdir":240,"wspd":7,"visib":"10+","altim":1016.3,"slp":1016.1,"qcField":4,"metarType":"METAR","rawOb":"METAR KSMF 160453Z 24007KT 10SM FEW080 BKN250 15/09 A3001 RMK AO2 SLP161 T01500089","lat":38.7007,"lon":-121.5948,"elev":7,"name":"Sacramento Intl, CA, US","cover":"BKN","clouds":[{"cover":"FEW","base":8000},{"cover":"BKN","base":25000}],"fltCat":"VFR"},{"icaoId":"KPSP","receiptTime":"2026-04-16T04:56:30.888Z","obsTime":1776315180,"reportTime":"2026-04-16T05:00:00.000Z","temp":24.4,"dewp":6.7,"wdir":300,"wspd":12,"wgst":21,"visib":"10+","altim":1012.6,"slp":1012.3,"qcField":12,"metarType":"METAR","rawOb":"METAR KPSP 160453Z 30012G21KT 10SM CLR 24/07 A2990 RMK AO2 SLP123 T02440067 $","lat":33.8222,"lon":-116.5043,"elev":123,"name":"Palm Springs Intl, CA, US","cover":"CLR","clouds":[],"fltCat":"VFR"},{"icaoId":"PANC","receiptTime":"2026-04-16T04:56:29.926Z","obsTime":1776315180,"reportTime":"2026-04-16T05:00:00.000Z","temp":1.1,"dewp":-1.1,"wdir":30,"wspd":4,"visib":"10+","altim":1013.3,"slp":1013.3,"qcField":4,"metarType":"METAR","rawOb":"METAR PANC 160453Z 03004KT 10SM OVC034 01/M01 A2992 RMK AO2 SLP133 T00111011","lat":61.1691,"lon":-150.0277,"elev":39,"name":"Anchorage Intl, AK, US","cover":"OVC","clouds":[{"cover":"OVC","base":3400}],"fltCat":"VFR"},{"icaoId":"KGEG","receiptTime":"2026-04-16T04:56:30.300Z","obsTime":1776315180,"reportTime":"2026-04-16T05:00:00.000Z","temp":1.1,"dewp":-3.3,"wdir":230,"wspd":5,"visib":"10+","altim":1008.2,"slp":1009.5,"qcField":4,"metarType":"METAR","rawOb":"METAR KGEG 160453Z 23005KT 10SM FEW050 SCT120 01/M03 A2977 RMK AO2 SLP095 T00111033","lat":47.6217,"lon":-117.528,"elev":718,"name":"Spokane Intl, WA, US","cover":"SCT","clouds":[{"cover":"FEW","base":5000},{"cover":"SCT","base":12000}],"fltCat":"VFR"},{"icaoId":"KGJT","receiptTime":"2026-04-16T04:56:30.412Z","obsTime":1776315180,"reportTime":"2026-04-16T05:00:00.000Z","temp":10,"dewp":1.1,"wdir":80,"wspd":6,"visib":"10+","altim":1014.3,"slp":1011.2,"qcField":6,"metarType":"METAR","rawOb":"METAR KGJT 160453Z AUTO 08006KT 10SM CLR 10/01 A2995 RMK AO2 SLP112 T01000011","lat":39.1344,"lon":-108.5408,"elev":1475,"name":"Grand Junction Rgnl, CO, US","cover":"CLR","clouds":[],"fltCat":"VFR"},{"icaoId":"KGSP","receiptTime":"2026-04-16T04:56:30.647Z","obsTime":1776315180,"reportTime":"2026-04-16T05:00:00.000Z","temp":21.1,"dewp":11.7,"wdir":230,"wspd":6,"visib":"10+","altim":1018.4,"slp":1016.9,"qcField":6,"maxT24":30.6,"minT24":12.8,"metarType":"METAR","rawOb":"METAR KGSP 160453Z AUTO 23006KT 10SM CLR 21/12 A3007 RMK AO2 SLP169 T02110117 403060128","lat":34.8842,"lon":-82.2209,"elev":285,"name":"Greenville-Spartanburg Intl, SC, US","cover":"CLR","clouds":[],"fltCat":"VFR"},{"icaoId":"KMAF","receiptTime":"2026-04-16T04:56:31.335Z","obsTime":1776315180,"reportTime":"2026-04-16T05:00:00.000Z","temp":21.7,"dewp":4.4,"wdir":190,"wspd":6,"visib":"10+","altim":1014.6,"slp":1010.3,"qcField":6,"metarType":"METAR","rawOb":"METAR KMAF 160453Z AUTO 19006KT 10SM CLR 22/04 A2996 RMK AO2 SLP103 T02170044","lat":31.9475,"lon":-102.2086,"elev":874,"name":"Midland Intl, TX, US","cover":"CLR","clouds":[],"fltCat":"VFR"},{"icaoId":"KMDW","receiptTime":"2026-04-16T04:56:31.471Z","obsTime":1776315180,"reportTime":"2026-04-16T05:00:00.000Z","temp":16.1,"dewp":14.4,"wdir":320,"wspd":7,"visib":8,"altim":1010.2,"slp":1009.7,"qcField":4,"wxString":"-RA","precip":0.16,"metarType":"METAR","rawOb":"METAR KMDW 160453Z 32007KT 8SM -RA BKN070 OVC090 16/14 A2983 RMK AO2 WSHFT 0340 RAB0355 TSB12E40 SLP097 P0016 T01610144","lat":41.7841,"lon":-87.7552,"elev":186,"name":"Chicago/Midway Intl, IL, US","cover":"OVC","clouds":[{"cover":"BKN","base":7000},{"cover":"OVC","base":9000}],"fltCat":"VFR"},{"icaoId":"KMFE","receiptTime":"2026-04-16T04:56:31.493Z","obsTime":1776315180,"reportTime":"2026-04-16T05:00:00.000Z","temp":23.9,"dewp":21.1,"wdir":130,"wspd":11,"visib":"10+","altim":1014,"slp":1013.8,"qcField":4,"metarType":"METAR","rawOb":"METAR KMFE 160453Z 13011KT 10SM BKN065 24/21 A2994 RMK AO2 SLP138 T02390211","lat":26.1791,"lon":-98.2445,"elev":29,"name":"McAllen/Miller Intl, TX, US","cover":"BKN","clouds":[{"cover":"BKN","base":6500}],"fltCat":"VFR"},{"icaoId":"KMLC","receiptTime":"2026-04-16T04:56:31.717Z","obsTime":1776315180,"reportTime":"2026-04-16T05:00:00.000Z","temp":16.1,"dewp":15,"wdir":"VRB","wspd":3,"visib":"10+","altim":1012.6,"slp":1011.9,"qcField":6,"metarType":"METAR","rawOb":"METAR KMLC 160453Z AUTO VRB03KT 10SM CLR 16/15 A2990 RMK AO2 SLP119 T01610150","lat":34.8824,"lon":-95.7815,"elev":231,"name":"McAlester Rgnl, OK, US","cover":"CLR","clouds":[],"fltCat":"VFR"},{"icaoId":"KMSO","receiptTime":"2026-04-16T04:56:31.900Z","obsTime":1776315180,"reportTime":"2026-04-16T05:00:00.000Z","temp":2.8,"dewp":-3.3,"wdir":230,"wspd":10,"visib":"10+","altim":1007.9,"slp":1008.9,"qcField":6,"metarType":"METAR","rawOb":"METAR KMSO 160453Z AUTO 23010KT 10SM OVC060 03/M03 A2976 RMK AO2 SLP089 T00281033","lat":46.9208,"lon":-114.0938,"elev":974,"name":"Missoula Intl, MT, US","cover":"OVC","clouds":[{"cover":"OVC","base":6000}],"fltCat":"VFR"},{"icaoId":"KMSY","receiptTime":"2026-04-16T04:56:31.962Z","obsTime":1776315180,"reportTime":"2026-04-16T05:00:00.000Z","temp":22.2,"dewp":19.4,"wdir":140,"wspd":6,"visib":"10+","altim":1018.7,"slp":1018.9,"qcField":4,"metarType":"METAR","rawOb":"METAR KMSY 160453Z 14006KT 10SM FEW020 22/19 A3008 RMK AO2 SLP189 T02220194","lat":29.9974,"lon":-90.2777,"elev":0,"name":"New Orleans/Armstrong Intl, LA, US","cover":"FEW","clouds":[{"cover":"FEW","base":2000}],"fltCat":"VFR"},{"icaoId":"KTUS","receiptTime":"2026-04-16T04:56:32.082Z","obsTime":1776315180,"reportTime":"2026-04-16T05:00:00.000Z","temp":18.9,"dewp":-8.3,"wdir":250,"wspd":5,"visib":"10+","altim":1015.7,"slp":1012.2,"qcField":12,"metarType":"METAR","rawOb":"METAR KTUS 160453Z 25005KT 10SM CLR 19/M08 A2999 RMK AO2 SLP122 T01891083 $","lat":32.1315,"lon":-110.9564,"elev":776,"name":"Tucson Intl Arpt, AZ, US","cover":"CLR","clouds":[],"fltCat":"VFR"},{"icaoId":"KRDD","receiptTime":"2026-04-16T04:56:32.325Z","obsTime":1776315180,"reportTime":"2026-04-16T05:00:00.000Z","temp":13.3,"dewp":0.6,"wdir":290,"wspd":11,"wgst":21,"visib":"10+","altim":1015,"slp":1014.8,"qcField":4,"metarType":"METAR","rawOb":"METAR KRDD 160453Z 29011G21KT 10SM CLR 13/01 A2997 RMK AO2 SLP148 T01330006","lat":40.5146,"lon":-122.2977,"elev":152,"name":"Redding Muni, CA, US","cover":"CLR","clouds":[],"fltCat":"VFR"},{"icaoId":"KRIW","receiptTime":"2026-04-16T04:56:32.387Z","obsTime":1776315180,"reportTime":"2026-04-16T05:00:00.000Z","temp":8.9,"dewp":-3.3,"wdir":130,"wspd":7,"visib":"10+","altim":1006.2,"slp":1003.5,"qcField":6,"metarType":"METAR","rawOb":"METAR KRIW 160453Z AUTO 13007KT 10SM CLR 09/M03 A2971 RMK AO2 SLP035 T00891033","lat":43.0622,"lon":-108.4471,"elev":1662,"name":"Riverton Rgnl, WY, US","cover":"CLR","clouds":[],"fltCat":"VFR"},{"icaoId":"KSAF","receiptTime":"2026-04-16T04:56:32.610Z","obsTime":1776315180,"reportTime":"2026-04-16T05:00:00.000Z","temp":8.3,"dewp":-11.7,"wdir":10,"wspd":4,"visib":"10+","altim":1018.7,"slp":1013.1,"qcField":6,"metarType":"METAR","rawOb":"METAR KSAF 160453Z AUTO 01004KT 10SM CLR 08/M12 A3008 RMK AO2 SLP131 T00831117","lat":35.611,"lon":-106.0957,"elev":1918,"name":"Santa Fe Cnty Muni, NM, US","cover":"CLR","clouds":[],"fltCat":"VFR"},{"icaoId":"KSDL","receiptTime":"2026-04-16T04:56:32.691Z","obsTime":1776315180,"reportTime":"2026-04-16T05:00:00.000Z","temp":22.8,"dewp":-3.3,"wdir":30,"wspd":3,"visib":"10+","altim":1013.6,"slp":1011.4,"qcField":6,"metarType":"METAR","rawOb":"METAR KSDL 160453Z AUTO 03003KT 10SM CLR 23/M03 A2993 RMK AO2 SLP114 T02281033","lat":33.6123,"lon":-111.9232,"elev":438,"name":"Scottsdale Muni, AZ, US","cover":"CLR","clouds":[],"fltCat":"VFR"},{"icaoId":"KSEA","receiptTime":"2026-04-16T04:56:32.731Z","obsTime":1776315180,"reportTime":"2026-04-16T05:00:00.000Z","temp":3.9,"dewp":1.7,"wdir":110,"wspd":5,"visib":"10+","altim":1016,"slp":1016.9,"qcField":12,"wxString":"-RA","precip":0.04,"metarType":"METAR","rawOb":"METAR KSEA 160453Z 11005KT 10SM -RA OVC029 04/02 A3000 RMK AO2 SLP169 P0004 T00390017 $","lat":47.4447,"lon":-122.3144,"elev":115,"name":"Seattle-Tacoma Intl, WA, US","cover":"OVC","clouds":[{"cover":"OVC","base":2900}],"fltCat":"MVFR"},{"icaoId":"KVGT","receiptTime":"2026-04-16T04:56:33.032Z","obsTime":1776315180,"reportTime":"2026-04-16T05:00:00.000Z","temp":22.8,"dewp":-6.7,"wdir":190,"wspd":5,"visib":"10+","altim":1011.3,"slp":1011.2,"qcField":6,"metarType":"METAR","rawOb":"METAR KVGT 160453Z AUTO 19005KT 10SM CLR 23/M07 A2986 RMK AO2 SLP112 T02281067","lat":36.212,"lon":-115.194,"elev":664,"name":"Las Vegas/North Arpt, NV, US","cover":"CLR","clouds":[],"fltCat":"VFR"},{"icaoId":"KYKM","receiptTime":"2026-04-16T04:56:33.205Z","obsTime":1776315180,"reportTime":"2026-04-16T05:00:00.000Z","temp":5.6,"dewp":-6.1,"wdir":290,"wspd":10,"visib":"10+","altim":1012.3,"slp":1012.5,"qcField":4,"metarType":"METAR","rawOb":"METAR KYKM 160453Z 29010KT 10SM FEW120 06/M06 A2989 RMK AO2 PK WND 29026/0401 SLP125 T00561061","lat":46.564,"lon":-120.5349,"elev":319,"name":"Yakima/McAllister Fld, WA, US","cover":"FEW","clouds":[{"cover":"FEW","base":12000}],"fltCat":"VFR"},{"icaoId":"KLAX","receiptTime":"2026-04-16T04:56:33.667Z","obsTime":1776315180,"reportTime":"2026-04-16T05:00:00.000Z","temp":15.6,"dewp":11.7,"wdir":230,"wspd":6,"visib":"10+","altim":1015.3,"slp":1015.2,"qcField":4,"metarType":"METAR","rawOb":"METAR KLAX 160453Z 23006KT 10SM CLR 16/12 A2998 RMK AO2 SLP152 T01560117","lat":33.9382,"lon":-118.3866,"elev":30,"name":"Los Angeles Intl, CA, US","cover":"CLR","clouds":[],"fltCat":"VFR"},{"icaoId":"KLBB","receiptTime":"2026-04-16T04:56:33.682Z","obsTime":1776315180,"reportTime":"2026-04-16T05:00:00.000Z","temp":18.3,"dewp":-6.1,"wdir":230,"wspd":5,"visib":"10+","altim":1013.6,"slp":1009.2,"qcField":4,"metarType":"METAR","rawOb":"METAR KLBB 160453Z 23005KT 10SM CLR 18/M06 A2993 RMK AO2 SLP092 T01831061","lat":33.6658,"lon":-101.8233,"elev":996,"name":"Lubbock Intl Arpt, TX, US","cover":"CLR","clouds":[],"fltCat":"VFR"},{"icaoId":"KMYF","receiptTime":"2026-04-16T04:56:33.975Z","obsTime":1776315180,"reportTime":"2026-04-16T05:00:00.000Z","temp":15,"dewp":12.8,"wdir":300,"wspd":3,"visib":"10+","altim":1016.3,"slp":1015.9,"qcField":6,"metarType":"METAR","rawOb":"METAR KMYF 160453Z AUTO 30003KT 10SM CLR 15/13 A3001 RMK AO2 SLP159 T01500128","lat":32.8145,"lon":-117.1375,"elev":128,"name":"San Diego/Montgomery Arpt, CA, US","cover":"CLR","clouds":[],"fltCat":"VFR"},{"icaoId":"KOAK","receiptTime":"2026-04-16T04:56:34.023Z","obsTime":1776315180,"reportTime":"2026-04-16T05:00:00.000Z","temp":13.9,"dewp":10.6,"wdir":270,"wspd":13,"visib":"10+","altim":1019.4,"slp":1019.2,"qcField":12,"metarType":"METAR","rawOb":"METAR KOAK 160453Z 27013KT 10SM FEW015 FEW030 14/11 A3010 RMK AO2 SLP192 T01390106 $","lat":37.7178,"lon":-122.233,"elev":3,"name":"Oakland Intl, CA, US","cover":"FEW","clouds":[{"cover":"FEW","base":1500},{"cover":"FEW","base":3000}],"fltCat":"VFR"},{"icaoId":"KOGD","receiptTime":"2026-04-16T04:56:34.090Z","obsTime":1776315180,"reportTime":"2026-04-16T05:00:00.000Z","temp":16.1,"dewp":0,"wdir":190,"wspd":9,"wgst":24,"visib":"10+","altim":1008.5,"slp":1004.6,"qcField":6,"precip":0.005,"metarType":"METAR","rawOb":"METAR KOGD 160453Z AUTO 19009G24KT 10SM FEW055 BKN080 OVC110 16/00 A2978 RMK AO2 RAB0358E07B35E53 SLP046 P0000 T01610000","lat":41.1941,"lon":-112.0168,"elev":1356,"name":"Ogden/Hinckley Arpt, UT, US","cover":"OVC","clouds":[{"cover":"FEW","base":5500},{"cover":"BKN","base":8000},{"cover":"OVC","base":11000}],"fltCat":"VFR"},{"icaoId":"KONT","receiptTime":"2026-04-16T04:56:34.173Z","obsTime":1776315180,"reportTime":"2026-04-16T05:00:00.000Z","temp":17.2,"dewp":8.9,"wdir":240,"wspd":7,"visib":"10+","altim":1015.7,"slp":1014.7,"qcField":12,"metarType":"METAR","rawOb":"METAR KONT 160453Z 24007KT 10SM FEW250 17/09 A2999 RMK AO2 SLP147 T01720089 $","lat":34.0531,"lon":-117.5769,"elev":279,"name":"Ontario Intl, CA, US","cover":"FEW","clouds":[{"cover":"FEW","base":25000}],"fltCat":"VFR"},{"icaoId":"KPBI","receiptTime":"2026-04-16T04:56:34.552Z","obsTime":1776315180,"reportTime":"2026-04-16T05:00:00.000Z","temp":23.9,"dewp":15,"wdir":100,"wspd":11,"visib":"10+","altim":1020.4,"slp":1020.2,"qcField":12,"maxT24":26.7,"minT24":22.2,"metarType":"METAR","rawOb":"METAR KPBI 160453Z 10011KT 10SM BKN038 24/15 A3013 RMK AO2 SLP202 T02390150 402670222 $","lat":26.6851,"lon":-80.0992,"elev":4,"name":"Palm Beach Intl, FL, US","cover":"BKN","clouds":[{"cover":"BKN","base":3800}],"fltCat":"VFR"},{"icaoId":"KPGA","receiptTime":"2026-04-16T04:56:34.641Z","obsTime":1776315180,"reportTime":"2026-04-16T05:00:00.000Z","temp":16.7,"dewp":-6.1,"wdir":220,"wspd":3,"visib":"10+","altim":1014.3,"slp":1010.4,"qcField":14,"metarType":"METAR","rawOb":"METAR KPGA 160453Z AUTO 22003KT 10SM CLR 17/M06 A2995 RMK AO2 SLP104 T01671061 $","lat":36.9211,"lon":-111.4487,"elev":1310,"name":"Page Muni, AZ, US","cover":"CLR","clouds":[],"fltCat":"VFR"},{"icaoId":"KPIH","receiptTime":"2026-04-16T04:56:34.724Z","obsTime":1776315180,"reportTime":"2026-04-16T05:00:00.000Z","temp":8.9,"dewp":3.9,"wdir":280,"wspd":11,"visib":"10+","altim":1006.2,"slp":1004.3,"qcField":6,"metarType":"METAR","rawOb":"METAR KPIH 160453Z AUTO 28011KT 10SM OVC080 09/04 A2971 RMK AO2 PK WND 19031/0356 WSHFT 0404 SLP043 T00890039","lat":42.9197,"lon":-112.5723,"elev":1357,"name":"Pocatello Rgnl, ID, US","cover":"OVC","clouds":[{"cover":"OVC","base":8000}],"fltCat":"VFR"},{"icaoId":"KPNC","receiptTime":"2026-04-16T04:56:34.852Z","obsTime":1776315180,"reportTime":"2026-04-16T05:00:00.000Z","temp":16.1,"dewp":13.3,"wdir":120,"wspd":8,"visib":"10+","altim":1010.6,"slp":1009.5,"qcField":6,"metarType":"METAR","rawOb":"METAR KPNC 160453Z AUTO 12008KT 10SM CLR 16/13 A2984 RMK AO2 LTG DSNT E SLP095 T01610133","lat":36.7369,"lon":-97.1024,"elev":304,"name":"Ponca City Rgnl, OK, US","cover":"CLR","clouds":[],"fltCat":"VFR"},{"icaoId":"KBLI","receiptTime":"2026-04-16T04:56:35.003Z","obsTime":1776315180,"reportTime":"2026-04-16T05:00:00.000Z","temp":3.3,"dewp":2.2,"wdir":0,"wspd":0,"visib":"10+","altim":1015,"slp":1015.7,"qcField":4,"metarType":"METAR","rawOb":"METAR KBLI 160453Z 00000KT 10SM CLR 03/02 A2997 RMK AO2 SLP157 T00330022","lat":48.7991,"lon":-122.5407,"elev":46,"name":"Bellingham Intl, WA, US","cover":"CLR","clouds":[],"fltCat":"VFR"},{"icaoId":"KBNA","receiptTime":"2026-04-16T04:56:35.069Z","obsTime":1776315180,"reportTime":"2026-04-16T05:00:00.000Z","temp":20,"dewp":10.6,"wdir":190,"wspd":3,"visib":"10+","altim":1017,"slp":1016.1,"qcField":4,"metarType":"METAR","rawOb":"METAR KBNA 160453Z 19003KT 10SM FEW250 20/11 A3003 RMK AO2 SLP161 T02000106","lat":36.1105,"lon":-86.6881,"elev":168,"name":"Nashville Intl, TN, US","cover":"FEW","clouds":[{"cover":"FEW","base":25000}],"fltCat":"VFR"},{"icaoId":"KBOI","receiptTime":"2026-04-16T04:56:35.111Z","obsTime":1776315180,"reportTime":"2026-04-16T05:00:00.000Z","temp":5,"dewp":1.7,"wdir":310,"wspd":3,"visib":"10+","altim":1010.9,"slp":1011.3,"qcField":4,"precip":0.005,"metarType":"METAR","rawOb":"METAR KBOI 160453Z 31003KT 10SM OVC048 05/02 A2985 RMK AO2 RAB03E47 SLP113 P0000 T00500017","lat":43.567,"lon":-116.2406,"elev":860,"name":"Boise Arpt, ID, US","cover":"OVC","clouds":[{"cover":"OVC","base":4800}],"fltCat":"VFR"},{"icaoId":"KPDX","receiptTime":"2026-04-16T04:56:34.605Z","obsTime":1776315180,"reportTime":"2026-04-16T05:00:00.000Z","temp":5,"dewp":2.8,"wdir":220,"wspd":3,"visib":"10+","altim":1018.4,"slp":1018.2,"qcField":12,"precip":0.005,"metarType":"METAR","rawOb":"METAR KPDX 160453Z 22003KT 10SM FEW016 SCT029 BKN055 05/03 A3007 RMK AO2 RAE27 SLP182 P0000 T00500028 $","lat":45.5958,"lon":-122.6092,"elev":7,"name":"Portland Intl, OR, US","cover":"BKN","clouds":[{"cover":"FEW","base":1600},{"cover":"SCT","base":2900},{"cover":"BKN","base":5500}],"fltCat":"VFR"},{"icaoId":"KPUB","receiptTime":"2026-04-16T04:56:30.922Z","obsTime":1776315180,"reportTime":"2026-04-16T05:00:00.000Z","temp":10.6,"dewp":-9.4,"wdir":290,"wspd":9,"visib":"10+","altim":1011.6,"slp":1007.7,"qcField":12,"metarType":"METAR","rawOb":"METAR KPUB 160453Z 29009KT 10SM CLR 11/M09 A2987 RMK AO2 SLP077 T01061094 $","lat":38.2887,"lon":-104.5057,"elev":1441,"name":"Pueblo Mem Arpt, CO, US","cover":"CLR","clouds":[],"fltCat":"VFR"},{"icaoId":"KGTF","receiptTime":"2026-04-16T04:56:30.661Z","obsTime":1776315180,"reportTime":"2026-04-16T05:00:00.000Z","temp":2.8,"dewp":1.7,"wdir":340,"wspd":12,"wgst":22,"visib":6,"altim":1003.8,"slp":1004.6,"qcField":4,"wxString":"-RA BR","precip":0.11,"metarType":"METAR","rawOb":"METAR KGTF 160453Z 34012G22KT 6SM -RA BR FEW012 OVC017 03/02 A2964 RMK AO2 PK WND 33028/0424 SLP046 P0011 T00280017","lat":47.4733,"lon":-111.3828,"elev":1117,"name":"Great Falls Intl, MT, US","cover":"OVC","clouds":[{"cover":"FEW","base":1200},{"cover":"OVC","base":1700}],"fltCat":"MVFR"},{"icaoId":"KLOL","receiptTime":"2026-04-16T04:56:31.103Z","obsTime":1776315180,"reportTime":"2026-04-16T05:00:00.000Z","temp":11.7,"dewp":-2.2,"wdir":260,"wspd":13,"visib":"10+","altim":1013.3,"slp":1011.7,"qcField":6,"metarType":"METAR","rawOb":"METAR KLOL 160453Z AUTO 26013KT 10SM CLR 12/M02 A2992 RMK AO2 SLP117 T01171022","lat":40.0684,"lon":-118.5702,"elev":1191,"name":"Lovelock/Derby Fld, NV, US","cover":"CLR","clouds":[],"fltCat":"VFR"},{"icaoId":"KLVS","receiptTime":"2026-04-16T04:56:31.239Z","obsTime":1776315180,"reportTime":"2026-04-16T05:00:00.000Z","temp":8.9,"dewp":-10.6,"wdir":260,"wspd":4,"visib":"10+","altim":1018,"slp":1011.4,"qcField":14,"metarType":"METAR","rawOb":"METAR KLVS 160453Z AUTO 26004KT 10SM CLR 09/M11 A3006 RMK AO2 SLP114 T00891106 PNO $","lat":35.6558,"lon":-105.1385,"elev":2095,"name":"Las Vegas Muni, NM, US","cover":"CLR","clouds":[],"fltCat":"VFR"},{"icaoId":"KHOU","receiptTime":"2026-04-16T04:56:34.269Z","obsTime":1776315180,"reportTime":"2026-04-16T05:00:00.000Z","temp":22.8,"dewp":21.1,"wdir":160,"wspd":8,"visib":8,"altim":1015.7,"slp":1015.9,"qcField":4,"metarType":"METAR","rawOb":"METAR KHOU 160453Z 16008KT 8SM CLR 23/21 A2999 RMK AO2 SLP159 T02280211","lat":29.6458,"lon":-95.2821,"elev":13,"name":"Houston/Hobby Arpt, TX, US","cover":"CLR","clouds":[],"fltCat":"VFR"},{"icaoId":"KBTM","receiptTime":"2026-04-16T04:56:22.640Z","obsTime":1776315180,"reportTime":"2026-04-16T05:00:00.000Z","temp":0,"dewp":-1.7,"wdir":310,"wspd":9,"visib":5,"altim":1005.2,"slp":1004.8,"qcField":6,"wxString":"-SN BR","precip":0.01,"metarType":"METAR","rawOb":"METAR KBTM 160453Z AUTO 31009KT 5SM -SN BR OVC027 00/M02 A2968 RMK AO2 SLP048 P0001 T00001017","lat":45.9644,"lon":-112.5015,"elev":1680,"name":"Butte/Mooney Arpt, MT, US","cover":"OVC","clouds":[{"cover":"OVC","base":2700}],"fltCat":"MVFR"},{"icaoId":"KSNA","receiptTime":"2026-04-16T04:56:28.424Z","obsTime":1776315180,"reportTime":"2026-04-16T05:00:00.000Z","temp":16.7,"dewp":13.9,"wdir":200,"wspd":3,"visib":"10+","altim":1015.7,"slp":1015.5,"qcField":12,"metarType":"METAR","rawOb":"METAR KSNA 160453Z 20003KT 10SM CLR 17/14 A2999 RMK AO2 SLP155 T01670139 $","lat":33.6798,"lon":-117.8675,"elev":14,"name":"Santa Ana/Wayne Arpt, CA, US","cover":"CLR","clouds":[],"fltCat":"VFR"},{"icaoId":"KRTN","receiptTime":"2026-04-16T04:56:32.499Z","obsTime":1776315180,"reportTime":"2026-04-16T05:00:00.000Z","temp":11.1,"dewp":-10.6,"wdir":280,"wspd":12,"visib":"10+","altim":1015.3,"slp":1009.5,"qcField":6,"metarType":"METAR","rawOb":"METAR KRTN 160453Z AUTO 28012KT 10SM CLR 11/M11 A2998 RMK AO2 SLP095 T01111106","lat":36.7418,"lon":-104.5076,"elev":1939,"name":"Raton/Crews Fld, NM, US","cover":"CLR","clouds":[],"fltCat":"VFR"},{"icaoId":"KSBA","receiptTime":"2026-04-16T04:56:32.649Z","obsTime":1776315180,"reportTime":"2026-04-16T05:00:00.000Z","temp":15,"dewp":11.1,"wdir":0,"wspd":0,"visib":"10+","altim":1014.6,"slp":1014.6,"qcField":12,"metarType":"METAR","rawOb":"METAR KSBA 160453Z 00000KT 10SM CLR 15/11 A2996 RMK AO2 SLP146 T01500111 $","lat":34.4241,"lon":-119.8425,"elev":2,"name":"Santa Barbara Muni, CA, US","cover":"CLR","clouds":[],"fltCat":"VFR"},{"icaoId":"KLGB","receiptTime":"2026-04-16T04:56:33.846Z","obsTime":1776315180,"reportTime":"2026-04-16T05:00:00.000Z","temp":15.6,"dewp":12.8,"wdir":320,"wspd":4,"visib":"10+","altim":1015.3,"slp":1015.3,"qcField":4,"metarType":"METAR","rawOb":"METAR KLGB 160453Z 32004KT 10SM CLR 16/13 A2998 RMK AO2 SLP153 T01560128","lat":33.8118,"lon":-118.1472,"elev":10,"name":"Long Beach Arpt, CA, US","cover":"CLR","clouds":[],"fltCat":"VFR"},{"icaoId":"KFUL","receiptTime":"2026-04-16T04:56:30.170Z","obsTime":1776315180,"reportTime":"2026-04-16T05:00:00.000Z","temp":16.7,"dewp":11.7,"wdir":0,"wspd":0,"visib":"10+","altim":1015.3,"slp":1015,"qcField":6,"metarType":"METAR","rawOb":"METAR KFUL 160453Z AUTO 00000KT 10SM CLR 17/12 A2998 RMK AO2 SLP150 T01670117","lat":33.8715,"lon":-117.9856,"elev":23,"name":"Fullerton Muni, CA, US","cover":"CLR","clouds":[],"fltCat":"VFR"},{"icaoId":"KCPR","receiptTime":"2026-04-16T04:56:21.963Z","obsTime":1776315180,"reportTime":"2026-04-16T05:00:00.000Z","temp":10.6,"dewp":-4.4,"wdir":230,"wspd":16,"visib":"10+","altim":1007.2,"slp":1003.4,"qcField":6,"metarType":"METAR","rawOb":"METAR KCPR 160453Z AUTO 23016KT 10SM CLR 11/M04 A2974 RMK AO2 SLP034 T01061044","lat":42.8978,"lon":-106.4736,"elev":1623,"name":"Casper/Natrona Cnty, WY, US","cover":"CLR","clouds":[],"fltCat":"VFR"},{"icaoId":"KCYS","receiptTime":"2026-04-16T04:56:22.162Z","obsTime":1776315180,"reportTime":"2026-04-16T05:00:00.000Z","temp":10.6,"dewp":-5.6,"wdir":240,"wspd":12,"visib":"10+","altim":1011.9,"slp":1006.6,"qcField":6,"metarType":"METAR","rawOb":"METAR KCYS 160453Z AUTO 24012KT 10SM CLR 11/M06 A2988 RMK AO2 SLP066 T01061056","lat":41.1579,"lon":-104.8081,"elev":1868,"name":"Cheyenne Rgnl, WY, US","cover":"CLR","clouds":[],"fltCat":"VFR"},{"icaoId":"KCRQ","receiptTime":"2026-04-16T04:56:27.355Z","obsTime":1776315180,"reportTime":"2026-04-16T05:00:00.000Z","temp":16.1,"dewp":13.3,"wdir":150,"wspd":4,"visib":"10+","altim":1016,"slp":1015.6,"qcField":6,"metarType":"METAR","rawOb":"METAR KCRQ 160453Z AUTO 15004KT 10SM BKN014 16/13 A3000 RMK AO2 SLP156 T01610133","lat":33.1299,"lon":-117.2765,"elev":96,"name":"Carlsbad/Palomar Arpt, CA, US","cover":"BKN","clouds":[{"cover":"BKN","base":1400}],"fltCat":"MVFR"},{"icaoId":"KABI","receiptTime":"2026-04-16T04:56:18.320Z","obsTime":1776315120,"reportTime":"2026-04-16T05:00:00.000Z","temp":20.6,"dewp":15,"wdir":170,"wspd":9,"visib":"10+","altim":1013.3,"slp":1011.1,"qcField":12,"metarType":"METAR","rawOb":"METAR KABI 160452Z 17009KT 10SM CLR 21/15 A2992 RMK AO2 SLP111 T02060150 $","lat":32.4106,"lon":-99.6821,"elev":543,"name":"Abilene Rgnl, TX, US","cover":"CLR","clouds":[],"fltCat":"VFR"},{"icaoId":"KIAD","receiptTime":"2026-04-16T04:56:14.482Z","obsTime":1776315120,"reportTime":"2026-04-16T05:00:00.000Z","temp":22.8,"dewp":11.1,"wdir":170,"wspd":4,"visib":"10+","altim":1013.3,"slp":1012.8,"qcField":4,"maxT24":32.8,"minT24":14.4,"metarType":"METAR","rawOb":"METAR KIAD 160452Z 17004KT 10SM BKN240 23/11 A2992 RMK AO2 SLP128 T02280111 403280144","lat":38.9348,"lon":-77.4473,"elev":90,"name":"Washington/Dulles Intl, VA, US","cover":"BKN","clouds":[{"cover":"BKN","base":24000}],"fltCat":"VFR"},{"icaoId":"KOKC","receiptTime":"2026-04-16T04:56:13.201Z","obsTime":1776315120,"reportTime":"2026-04-16T05:00:00.000Z","temp":16.7,"dewp":15,"wdir":180,"wspd":8,"visib":"10+","altim":1011.3,"slp":1009.9,"qcField":4,"metarType":"METAR","rawOb":"METAR KOKC 160452Z 18008KT 10SM CLR 17/15 A2986 RMK AO2 SLP099 OCNL LTGIC DSNT NE CB DSNT NE MOV E T01670150","lat":35.3843,"lon":-97.6003,"elev":391,"name":"Oklahoma City/Will Rogers Intl, OK, US","cover":"CLR","clouds":[],"fltCat":"VFR"},{"icaoId":"KDCA","receiptTime":"2026-04-16T04:56:14.189Z","obsTime":1776315120,"reportTime":"2026-04-16T05:00:00.000Z","temp":22.8,"dewp":14.4,"wdir":210,"wspd":4,"visib":"10+","altim":1013,"slp":1012.8,"qcField":4,"maxT24":32.2,"minT24":17.8,"metarType":"METAR","rawOb":"METAR KDCA 160452Z 21004KT 10SM SCT250 23/14 A2991 RMK AO2 SLP128 T02280144 403220178","lat":38.8472,"lon":-77.0345,"elev":4,"name":"Washington/Reagan-National Arpt, VA, US","cover":"SCT","clouds":[{"cover":"SCT","base":25000}],"fltCat":"VFR"},{"icaoId":"KABQ","receiptTime":"2026-04-16T04:56:18.345Z","obsTime":1776315120,"reportTime":"2026-04-16T05:00:00.000Z","temp":13.9,"dewp":-9.4,"wdir":360,"wspd":5,"visib":"10+","altim":1017.7,"slp":1012.6,"qcField":4,"metarType":"METAR","rawOb":"METAR KABQ 160452Z 36005KT 10SM CLR 14/M09 A3005 RMK AO2 SLP126 T01391094","lat":35.0419,"lon":-106.6154,"elev":1620,"name":"Albuquerque Intl, NM, US","cover":"CLR","clouds":[],"fltCat":"VFR"},{"icaoId":"KHRL","receiptTime":"2026-04-16T04:56:14.443Z","obsTime":1776315120,"reportTime":"2026-04-16T05:00:00.000Z","temp":23.3,"dewp":22.2,"wdir":140,"wspd":6,"visib":"10+","altim":1014.3,"slp":1014.2,"qcField":4,"metarType":"METAR","rawOb":"METAR KHRL 160452Z 14006KT 10SM BKN016 OVC060 23/22 A2995 RMK AO2 SLP142 T02330222","lat":26.2303,"lon":-97.6556,"elev":9,"name":"Harlingen/Valley Intl, TX, US","cover":"OVC","clouds":[{"cover":"BKN","base":1600},{"cover":"OVC","base":6000}],"fltCat":"MVFR"},{"icaoId":"KCVG","receiptTime":"2026-04-16T04:56:14.167Z","obsTime":1776315120,"reportTime":"2026-04-16T05:00:00.000Z","temp":21.1,"dewp":13.9,"wdir":200,"wspd":7,"visib":"10+","altim":1013,"slp":1011.7,"qcField":4,"maxT24":27.8,"minT24":18.9,"metarType":"METAR","rawOb":"METAR KCVG 160452Z 20007KT 10SM FEW180 BKN250 21/14 A2991 RMK AO2 SLP117 T02110139 402780189","lat":39.0444,"lon":-84.6724,"elev":264,"name":"Cincinnati Intl, KY, US","cover":"BKN","clouds":[{"cover":"FEW","base":18000},{"cover":"BKN","base":25000}],"fltCat":"VFR"},{"icaoId":"KCLT","receiptTime":"2026-04-16T04:56:14.118Z","obsTime":1776315120,"reportTime":"2026-04-16T05:00:00.000Z","temp":21.7,"dewp":11.7,"wdir":180,"wspd":4,"visib":"10+","altim":1017.7,"slp":1018,"qcField":4,"maxT24":31.7,"minT24":16.7,"metarType":"METAR","rawOb":"METAR KCLT 160452Z 18004KT 10SM SCT250 22/12 A3005 RMK AO2 SLP180 T02170117 403170167","lat":35.2225,"lon":-80.9543,"elev":223,"name":"Charlotte/Douglas Intl, NC, US","cover":"SCT","clouds":[{"cover":"SCT","base":25000}],"fltCat":"VFR"},{"icaoId":"KMKE","receiptTime":"2026-04-16T04:56:14.696Z","obsTime":1776315120,"reportTime":"2026-04-16T05:00:00.000Z","temp":14.4,"dewp":13.3,"wdir":180,"wspd":3,"visib":"10+","altim":1008.2,"slp":1007.9,"qcField":12,"wxString":"-RA","precip":0.03,"metarType":"METAR","rawOb":"METAR KMKE 160452Z 18003KT 10SM -RA OVC090 14/13 A2977 RMK AO2 SLP079 P0003 T01440133 $","lat":42.9549,"lon":-87.9045,"elev":203,"name":"Milwaukee/Mitchell Intl, WI, US","cover":"OVC","clouds":[{"cover":"OVC","base":9000}],"fltCat":"VFR"},{"icaoId":"KATL","receiptTime":"2026-04-16T04:56:13.950Z","obsTime":1776315120,"reportTime":"2026-04-16T05:00:00.000Z","temp":20.6,"dewp":11.7,"wdir":240,"wspd":4,"visib":"10+","altim":1019.7,"slp":1018.7,"qcField":12,"maxT24":29.4,"minT24":15.6,"metarType":"METAR","rawOb":"METAR KATL 160452Z 24004KT 10SM SCT250 21/12 A3011 RMK AO2 SLP187 T02060117 402940156 $","lat":33.6297,"lon":-84.4422,"elev":309,"name":"Atlanta/Hartsfield-Jackson Intl, GA, US","cover":"SCT","clouds":[{"cover":"SCT","base":25000}],"fltCat":"VFR"},{"icaoId":"KSPS","receiptTime":"2026-04-16T04:56:18.589Z","obsTime":1776315120,"reportTime":"2026-04-16T05:00:00.000Z","temp":18.9,"dewp":17.2,"wdir":190,"wspd":10,"visib":"10+","altim":1011.3,"slp":1009.8,"qcField":4,"metarType":"METAR","rawOb":"METAR KSPS 160452Z 19010KT 10SM CLR 19/17 A2986 RMK AO2 SLP098 T01890172","lat":33.9785,"lon":-98.493,"elev":310,"name":"Wichita Falls Rgnl, TX, US","cover":"CLR","clouds":[],"fltCat":"VFR"},{"icaoId":"KMLF","receiptTime":"2026-04-16T04:56:18.564Z","obsTime":1776315120,"reportTime":"2026-04-16T05:00:00.000Z","temp":12.8,"dewp":-4.4,"wdir":190,"wspd":13,"visib":"10+","altim":1013.6,"slp":1009.6,"qcField":6,"metarType":"METAR","rawOb":"METAR KMLF 160452Z AUTO 19013KT 10SM CLR 13/M04 A2993 RMK AO2 SLP096 T01281044","lat":38.4225,"lon":-113.0109,"elev":1537,"name":"Milford Muni, UT, US","cover":"CLR","clouds":[],"fltCat":"VFR"},{"icaoId":"KMYL","receiptTime":"2026-04-16T04:54:13.825Z","obsTime":1776315060,"reportTime":"2026-04-16T05:00:00.000Z","temp":-0.6,"dewp":-2.8,"wdir":280,"wspd":5,"visib":"10+","altim":1008.2,"slp":1009.8,"qcField":6,"metarType":"METAR","rawOb":"METAR KMYL 160451Z AUTO 28005KT 10SM BKN050 BKN060 M01/M03 A2977 RMK AO2 SLP098 T10061028","lat":44.8943,"lon":-116.0998,"elev":1532,"name":"McCall Muni, ID, US","cover":"BKN","clouds":[{"cover":"BKN","base":5000},{"cover":"BKN","base":6000}],"fltCat":"VFR"},{"icaoId":"KLGU","receiptTime":"2026-04-16T04:54:13.484Z","obsTime":1776315060,"reportTime":"2026-04-16T05:00:00.000Z","temp":11.1,"dewp":3.9,"wdir":110,"wspd":8,"visib":"10+","altim":1008.2,"slp":1005.3,"qcField":6,"precip":0.01,"metarType":"METAR","rawOb":"METAR KLGU 160451Z AUTO 11008KT 10SM OVC095 11/04 A2977 RMK AO2 RAE23 SLP053 P0001 T01110039","lat":41.7865,"lon":-111.8519,"elev":1359,"name":"Logan/Cache Arpt, UT, US","cover":"OVC","clouds":[{"cover":"OVC","base":9500}],"fltCat":"VFR"},{"icaoId":"KJFK","receiptTime":"2026-04-16T04:54:13.434Z","obsTime":1776315060,"reportTime":"2026-04-16T05:00:00.000Z","temp":17.8,"dewp":12.8,"wdir":190,"wspd":3,"visib":"10+","altim":1012.3,"slp":1012.1,"qcField":4,"maxT24":26.1,"minT24":15.6,"metarType":"METAR","rawOb":"METAR KJFK 160451Z 19003KT 10SM FEW065 SCT170 BKN250 18/13 A2989 RMK AO2 SLP121 T01780128 402610156","lat":40.6392,"lon":-73.7639,"elev":3,"name":"New York/JF Kennedy Intl, NY, US","cover":"BKN","clouds":[{"cover":"FEW","base":6500},{"cover":"SCT","base":17000},{"cover":"BKN","base":25000}],"fltCat":"VFR"},{"icaoId":"KVNY","receiptTime":"2026-04-16T04:54:13.200Z","obsTime":1776315060,"reportTime":"2026-04-16T05:00:00.000Z","temp":17.2,"dewp":8.3,"wdir":0,"wspd":0,"visib":"10+","altim":1015.3,"slp":1014.6,"qcField":12,"metarType":"METAR","rawOb":"METAR KVNY 160451Z 00000KT 10SM CLR 17/08 A2998 RMK AO2 SLP146 T01720083 $","lat":34.2121,"lon":-118.4915,"elev":241,"name":"Van Nuys Arpt, CA, US","cover":"CLR","clouds":[],"fltCat":"VFR"},{"icaoId":"KIGM","receiptTime":"2026-04-16T04:54:13.156Z","obsTime":1776315060,"reportTime":"2026-04-16T05:00:00.000Z","temp":15,"dewp":-8.3,"wdir":170,"wspd":10,"visib":"10+","altim":1015.3,"slp":1010,"qcField":6,"metarType":"METAR","rawOb":"METAR KIGM 160451Z AUTO 17010KT 10SM CLR 15/M08 A2998 RMK AO2 SLP100 T01501083","lat":35.2575,"lon":-113.9341,"elev":1045,"name":"Kingman Arpt, AZ, US","cover":"CLR","clouds":[],"fltCat":"VFR"},{"icaoId":"KCLE","receiptTime":"2026-04-16T04:54:15.286Z","obsTime":1776315060,"reportTime":"2026-04-16T05:00:00.000Z","temp":18.9,"dewp":17.2,"wdir":180,"wspd":5,"visib":"10+","altim":1011.6,"slp":1012.5,"qcField":12,"maxT24":24.4,"minT24":15.6,"metarType":"METAR","rawOb":"METAR KCLE 160451Z 18005KT 10SM BKN055 OVC075 19/17 A2987 RMK AO2 SLP125 T01890172 402440156 $","lat":41.4057,"lon":-81.8519,"elev":237,"name":"Cleveland/Hopkins Intl, OH, US","cover":"OVC","clouds":[{"cover":"BKN","base":5500},{"cover":"OVC","base":7500}],"fltCat":"VFR"},{"icaoId":"KLGA","receiptTime":"2026-04-16T04:56:14.569Z","obsTime":1776315060,"reportTime":"2026-04-16T05:00:00.000Z","temp":26.7,"dewp":14.4,"wdir":220,"wspd":9,"wgst":18,"visib":"10+","altim":1011.3,"slp":1011.2,"qcField":4,"maxT24":31.1,"minT24":20,"metarType":"METAR","rawOb":"METAR KLGA 160451Z 22009G18KT 10SM FEW080 BKN190 OVC250 27/14 A2986 RMK AO2 SLP112 OCNL LTGIC DSNT NE CB DSNT NE MOV E T02670144 403110200","lat":40.7794,"lon":-73.8803,"elev":9,"name":"New York/La Guardia Arpt, NY, US","cover":"OVC","clouds":[{"cover":"FEW","base":8000},{"cover":"BKN","base":19000},{"cover":"OVC","base":25000}],"fltCat":"VFR"},{"icaoId":"KSTL","receiptTime":"2026-04-16T04:54:14.948Z","obsTime":1776315060,"reportTime":"2026-04-16T05:00:00.000Z","temp":17.8,"dewp":16.7,"wdir":170,"wspd":9,"visib":7,"altim":1011.3,"slp":1010.3,"qcField":4,"wxString":"-RA","precip":0.03,"metarType":"METAR","rawOb":"METAR KSTL 160451Z 17009KT 7SM -RA OVC095 18/17 A2986 RMK AO2 SLP103 P0003 T01780167","lat":38.7525,"lon":-90.3734,"elev":163,"name":"St Louis/Lambert Intl, MO, US","cover":"OVC","clouds":[{"cover":"OVC","base":9500}],"fltCat":"VFR"},{"icaoId":"KSAN","receiptTime":"2026-04-16T04:54:14.511Z","obsTime":1776315060,"reportTime":"2026-04-16T05:00:00.000Z","temp":15.6,"dewp":12.8,"wdir":320,"wspd":3,"visib":"10+","altim":1016.7,"slp":1016.5,"qcField":12,"metarType":"METAR","rawOb":"METAR KSAN 160451Z 32003KT 10SM FEW014 FEW200 16/13 A3002 RMK AO2 SLP165 T01560128 $","lat":32.7364,"lon":-117.1973,"elev":3,"name":"San Diego Intl Arpt, CA, US","cover":"FEW","clouds":[{"cover":"FEW","base":1400},{"cover":"FEW","base":20000}],"fltCat":"VFR"},{"icaoId":"KSAD","receiptTime":"2026-04-16T04:54:14.467Z","obsTime":1776315060,"reportTime":"2026-04-16T05:00:00.000Z","temp":16.7,"dewp":-12.8,"wdir":310,"wspd":5,"visib":"10+","altim":1015,"slp":1011.4,"qcField":6,"metarType":"METAR","rawOb":"METAR KSAD 160451Z AUTO 31005KT 10SM CLR 17/M13 A2997 RMK AO2 SLP114 T01671128","lat":32.8565,"lon":-109.636,"elev":937,"name":"Safford Rgnl, AZ, US","cover":"CLR","clouds":[],"fltCat":"VFR"},{"icaoId":"KROW","receiptTime":"2026-04-16T04:54:14.436Z","obsTime":1776315060,"reportTime":"2026-04-16T05:00:00.000Z","temp":16.1,"dewp":-11.7,"wdir":270,"wspd":9,"visib":"10+","altim":1015,"slp":1009.9,"qcField":6,"metarType":"METAR","rawOb":"METAR KROW 160451Z AUTO 27009KT 10SM CLR 16/M12 A2997 RMK AO2 SLP099 T01611117","lat":33.3074,"lon":-104.5082,"elev":1105,"name":"Roswell/Ind Arpt, NM, US","cover":"CLR","clouds":[],"fltCat":"VFR"},{"icaoId":"KRDU","receiptTime":"2026-04-16T04:54:14.400Z","obsTime":1776315060,"reportTime":"2026-04-16T05:00:00.000Z","temp":23.3,"dewp":11.7,"wdir":200,"wspd":8,"visib":"10+","altim":1017.4,"slp":1016.7,"qcField":4,"maxT24":33.3,"minT24":16.7,"metarType":"METAR","rawOb":"METAR KRDU 160451Z 20008KT 10SM SCT250 23/12 A3004 RMK AO2 SLP167 T02330117 403330167","lat":35.8923,"lon":-78.782,"elev":121,"name":"Raleigh-Durham Intl, NC, US","cover":"SCT","clouds":[{"cover":"SCT","base":25000}],"fltCat":"VFR"},{"icaoId":"KPVD","receiptTime":"2026-04-16T04:54:14.193Z","obsTime":1776315060,"reportTime":"2026-04-16T05:00:00.000Z","temp":13.9,"dewp":10.6,"wdir":20,"wspd":3,"visib":"10+","altim":1012.6,"slp":1012.5,"qcField":12,"maxT24":28.9,"minT24":10.6,"metarType":"METAR","rawOb":"METAR KPVD 160451Z 02003KT 10SM CLR 14/11 A2990 RMK AO2 SLP125 T01390106 402890106 $","lat":41.7225,"lon":-71.4325,"elev":15,"name":"Providence/Green Mem, RI, US","cover":"CLR","clouds":[],"fltCat":"VFR"},{"icaoId":"KPHX","receiptTime":"2026-04-16T04:54:14.026Z","obsTime":1776315060,"reportTime":"2026-04-16T05:00:00.000Z","temp":24.4,"dewp":-3.3,"wdir":0,"wspd":0,"visib":"10+","altim":1012.3,"slp":1010.7,"qcField":4,"metarType":"METAR","rawOb":"METAR KPHX 160451Z 00000KT 10SM CLR 24/M03 A2989 RMK AO2 SLP107 T02441033","lat":33.4278,"lon":-112.0037,"elev":338,"name":"Phoenix/Sky Harbor Intl, AZ, US","cover":"CLR","clouds":[],"fltCat":"VFR"},{"icaoId":"KOXR","receiptTime":"2026-04-16T04:54:13.996Z","obsTime":1776315060,"reportTime":"2026-04-16T05:00:00.000Z","temp":14.4,"dewp":12.8,"wdir":0,"wspd":0,"visib":9,"altim":1015.3,"slp":1015.2,"qcField":14,"metarType":"METAR","rawOb":"METAR KOXR 160451Z AUTO 00000KT 9SM CLR 14/13 A2998 RMK AO2 SLP152 T01440128 $","lat":34.2001,"lon":-119.2042,"elev":12,"name":"Oxnard Arpt, CA, US","cover":"CLR","clouds":[],"fltCat":"VFR"},{"icaoId":"KORF","receiptTime":"2026-04-16T04:54:13.916Z","obsTime":1776315060,"reportTime":"2026-04-16T05:00:00.000Z","temp":22.8,"dewp":16.7,"wdir":220,"wspd":13,"visib":"10+","altim":1015.7,"slp":1015.6,"qcField":4,"maxT24":32.8,"minT24":18.3,"metarType":"METAR","rawOb":"METAR KORF 160451Z 22013KT 10SM CLR 23/17 A2999 RMK AO2 SLP156 T02280167 403280183","lat":36.9037,"lon":-76.1927,"elev":5,"name":"Norfolk Intl, VA, US","cover":"CLR","clouds":[],"fltCat":"VFR"},{"icaoId":"KORD","receiptTime":"2026-04-16T04:54:13.867Z","obsTime":1776315060,"reportTime":"2026-04-16T05:00:00.000Z","temp":15.6,"dewp":14.4,"wdir":320,"wspd":12,"visib":7,"altim":1009.9,"slp":1009.5,"qcField":12,"wxString":"RA","precip":0.09,"metarType":"METAR","rawOb":"METAR KORD 160451Z 32012KT 7SM RA FEW050 BKN070 OVC090 16/14 A2982 RMK AO2 TSE02 SLP095 P0009 T01560144 $","lat":41.9602,"lon":-87.9316,"elev":202,"name":"Chicago/O'Hare Intl, IL, US","cover":"OVC","clouds":[{"cover":"FEW","base":5000},{"cover":"BKN","base":7000},{"cover":"OVC","base":9000}],"fltCat":"VFR"},{"icaoId":"KEWR","receiptTime":"2026-04-16T04:54:16.813Z","obsTime":1776315060,"reportTime":"2026-04-16T05:00:00.000Z","temp":26.1,"dewp":14.4,"wdir":230,"wspd":8,"visib":"10+","altim":1011.6,"slp":1011.4,"qcField":4,"maxT24":32.8,"minT24":18.3,"metarType":"METAR","rawOb":"METAR KEWR 160451Z 23008KT 190V260 10SM FEW070 SCT200 BKN250 26/14 A2987 RMK AO2 SLP114 T02610144 403280183","lat":40.6828,"lon":-74.1692,"elev":2,"name":"Newark Intl, NJ, US","cover":"BKN","clouds":[{"cover":"FEW","base":7000},{"cover":"SCT","base":20000},{"cover":"BKN","base":25000}],"fltCat":"VFR"},{"icaoId":"KCRP","receiptTime":"2026-04-16T04:54:16.662Z","obsTime":1776315060,"reportTime":"2026-04-16T05:00:00.000Z","temp":23.3,"dewp":21.7,"wdir":150,"wspd":14,"visib":"10+","altim":1014.6,"slp":1014.3,"qcField":4,"metarType":"METAR","rawOb":"METAR KCRP 160451Z 15014KT 10SM SCT013 23/22 A2996 RMK AO2 SLP143 T02330217","lat":27.7734,"lon":-97.513,"elev":11,"name":"Corpus Christi Intl, TX, US","cover":"SCT","clouds":[{"cover":"SCT","base":1300}],"fltCat":"VFR"},{"icaoId":"KBDL","receiptTime":"2026-04-16T04:54:16.320Z","obsTime":1776315060,"reportTime":"2026-04-16T05:00:00.000Z","temp":19.4,"dewp":17.8,"wdir":0,"wspd":0,"visib":9,"altim":1012.6,"slp":1012.2,"qcField":4,"wxString":"-RA","maxT24":30.6,"minT24":12.2,"precip":0.38,"metarType":"METAR","rawOb":"METAR KBDL 160451Z 00000KT 9SM -RA FEW037 BKN085 OVC110 19/18 A2990 RMK AO2 PK WND 28026/0418 WSHFT 0416 LTG DSNT ALQDS TSE50 SLP122 FRQ LTGICCG DSNT NE-SE CB DSNT NE-SE MOV E P0038 T01940178 403060122","lat":41.9374,"lon":-72.682,"elev":52,"name":"Hartford/Bradley Intl, CT, US","cover":"OVC","clouds":[{"cover":"FEW","base":3700},{"cover":"BKN","base":8500},{"cover":"OVC","base":11000}],"fltCat":"VFR"},{"icaoId":"KELP","receiptTime":"2026-04-16T04:54:16.787Z","obsTime":1776315060,"reportTime":"2026-04-16T05:00:00.000Z","temp":14.4,"dewp":-13.9,"wdir":50,"wspd":3,"visib":"10+","altim":1016.7,"slp":1011.5,"qcField":4,"metarType":"METAR","rawOb":"METAR KELP 160451Z 05003KT 10SM CLR 14/M14 A3002 RMK AO2 SLP115 T01441139","lat":31.8123,"lon":-106.3774,"elev":1205,"name":"El Paso Intl, TX, US","cover":"CLR","clouds":[],"fltCat":"VFR"},{"icaoId":"KACT","receiptTime":"2026-04-16T04:54:16.201Z","obsTime":1776315060,"reportTime":"2026-04-16T05:00:00.000Z","temp":23.3,"dewp":18.9,"wdir":170,"wspd":15,"visib":"10+","altim":1013.6,"slp":1012.8,"qcField":6,"metarType":"METAR","rawOb":"METAR KACT 160451Z AUTO 17015KT 10SM CLR 23/19 A2993 RMK AO2 SLP128 T02330189","lat":31.618,"lon":-97.2283,"elev":150,"name":"Waco Rgnl, TX, US","cover":"CLR","clouds":[],"fltCat":"VFR"},{"icaoId":"KSAT","receiptTime":"2026-04-16T04:54:15.812Z","obsTime":1776315060,"reportTime":"2026-04-16T05:00:00.000Z","temp":22.8,"dewp":16.7,"wdir":150,"wspd":9,"visib":"10+","altim":1015,"slp":1013.1,"qcField":4,"metarType":"METAR","rawOb":"METAR KSAT 160451Z 15009KT 10SM SCT055 BKN220 23/17 A2997 RMK AO2 SLP131 T02280167","lat":29.5443,"lon":-98.4839,"elev":246,"name":"San Antonio Intl, TX, US","cover":"BKN","clouds":[{"cover":"SCT","base":5500},{"cover":"BKN","base":22000}],"fltCat":"VFR"},{"icaoId":"KCMH","receiptTime":"2026-04-16T04:54:16.567Z","obsTime":1776315060,"reportTime":"2026-04-16T05:00:00.000Z","temp":22.8,"dewp":14.4,"wdir":190,"wspd":3,"visib":"10+","altim":1012.6,"slp":1011.7,"qcField":4,"maxT24":28.9,"minT24":18.3,"metarType":"METAR","rawOb":"METAR KCMH 160451Z 19003KT 10SM BKN180 BKN250 23/14 A2990 RMK AO2 SLP117 T02280144 402890183","lat":39.9907,"lon":-82.877,"elev":257,"name":"Columbus/Glenn Intl, OH, US","cover":"BKN","clouds":[{"cover":"BKN","base":18000},{"cover":"BKN","base":25000}],"fltCat":"VFR"},{"icaoId":"KPIT","receiptTime":"2026-04-16T04:54:16.897Z","obsTime":1776315060,"reportTime":"2026-04-16T05:00:00.000Z","temp":22.8,"dewp":14.4,"wdir":210,"wspd":3,"visib":"10+","altim":1013.3,"slp":1012.9,"qcField":12,"maxT24":28.9,"minT24":16.7,"metarType":"METAR","rawOb":"METAR KPIT 160451Z 21003KT 10SM SCT080 23/14 A2992 RMK AO2 SLP129 T02280144 402890167 $","lat":40.4814,"lon":-80.2083,"elev":339,"name":"Pittsburgh Intl, PA, US","cover":"SCT","clouds":[{"cover":"SCT","base":8000}],"fltCat":"VFR"},{"icaoId":"KIWA","receiptTime":"2026-04-16T04:48:06.387Z","obsTime":1776314820,"reportTime":"2026-04-16T05:00:00.000Z","temp":22,"dewp":-4,"wdir":0,"wspd":0,"visib":"10+","altim":1013.6,"qcField":0,"metarType":"METAR","rawOb":"METAR KIWA 160447Z 00000KT 10SM CLR 22/M04 A2993","lat":33.3008,"lon":-111.6437,"elev":420,"name":"Phoenix/Mesa Gateway Arpt, AZ, US","cover":"CLR","clouds":[],"fltCat":"VFR"},{"icaoId":"KNYL","receiptTime":"2026-04-16T04:00:54.271Z","obsTime":1776311820,"reportTime":"2026-04-16T04:00:00.000Z","temp":25,"dewp":1.7,"wdir":210,"wspd":6,"visib":"10+","altim":1011.6,"slp":1011.4,"qcField":4,"metarType":"METAR","rawOb":"METAR KNYL 160357Z 21006KT 10SM CLR 25/02 A2987 RMK AO2 SLP114 T02500017","lat":32.66,"lon":-114.6078,"elev":58,"name":"Yuma , AZ, US","cover":"CLR","clouds":[],"fltCat":"VFR"},{"icaoId":"KNFL","receiptTime":"2026-04-16T04:00:54.316Z","obsTime":1776311820,"reportTime":"2026-04-16T04:00:00.000Z","temp":14.4,"dewp":-2.8,"wdir":260,"wspd":6,"visib":"10+","altim":1013,"slp":1010.3,"qcField":4,"metarType":"METAR","rawOb":"METAR KNFL 160357Z 26006KT 10SM SCT070 SCT100 BKN220 14/M03 A2991 RMK AO2 PK WND 24026/0317 SLP103 T01441028","lat":39.417,"lon":-118.705,"elev":1199,"name":"Fallon , NV, US","cover":"BKN","clouds":[{"cover":"SCT","base":7000},{"cover":"SCT","base":10000},{"cover":"BKN","base":22000}],"fltCat":"VFR"},{"icaoId":"KDUG","receiptTime":"2026-04-16T04:02:17.115Z","obsTime":1776311760,"reportTime":"2026-04-16T04:00:00.000Z","temp":13.9,"dewp":-12.2,"wdir":340,"wspd":4,"visib":"10+","altim":1016.7,"slp":1012.3,"qcField":38,"metarType":"METAR","rawOb":"METAR KDUG 160356Z AUTO 34004KT 10SM CLR 14/M12 A3002 RMK AO2 SLP123 T01391122 TSNO","lat":31.4725,"lon":-109.6022,"elev":1260,"name":"Douglas/Bisbee Intl, AZ, US","cover":"CLR","clouds":[],"fltCat":"VFR"},{"icaoId":"KEND","receiptTime":"2026-04-16T04:16:04.788Z","obsTime":1776311700,"reportTime":"2026-04-16T04:00:00.000Z","temp":20.1,"dewp":18.2,"wdir":180,"wspd":5,"visib":"10+","altim":1008.9,"slp":1007.8,"qcField":14,"metarType":"METAR","rawOb":"METAR KEND 160355Z AUTO 18005KT 10SM CLR 20/18 A2979 RMK AO2 SLP078 T02010182 $","lat":36.338,"lon":-97.919,"elev":392,"name":"Enid/Vance AFB, OK, US","cover":"CLR","clouds":[],"fltCat":"VFR"},{"icaoId":"KGYR","receiptTime":"2026-04-16T03:50:34.636Z","obsTime":1776311220,"reportTime":"2026-04-16T04:00:00.000Z","temp":26,"dewp":-4,"wdir":0,"wspd":0,"visib":"10+","altim":1012.3,"qcField":0,"metarType":"METAR","rawOb":"METAR KGYR 160347Z 00000KT 10SM SKC 26/M04 A2989 RMK LAST","lat":33.428,"lon":-112.368,"elev":292,"name":"Phoenix/Goodyear Muni, AZ, US","cover":"SKC","clouds":[],"fltCat":"VFR"},{"icaoId":"KSUN","receiptTime":"2026-04-16T04:01:13.893Z","obsTime":1776311220,"reportTime":"2026-04-16T04:00:00.000Z","temp":4,"dewp":3,"wdir":150,"wspd":6,"visib":"10+","altim":1006.9,"qcField":0,"wxString":"-RA","metarType":"METAR","rawOb":"METAR KSUN 160347Z 15006KT 10SM -RA BKN021 BKN039 OVC110 04/03 A2973","lat":43.4969,"lon":-114.2923,"elev":1619,"name":"Hailey/Friedman Mem, ID, US","cover":"OVC","clouds":[{"cover":"BKN","base":2100},{"cover":"BKN","base":3900},{"cover":"OVC","base":11000}],"fltCat":"MVFR"}]