[{"icaoId":"KHAF","receiptTime":"2026-04-13T15:17:05.265Z","obsTime":1776093300,"reportTime":"2026-04-13T15:15:00.000Z","temp":12,"dewp":12,"wdir":0,"wspd":0,"visib":9,"altim":1019.7,"qcField":6,"wxString":"-RA","metarType":"METAR","rawOb":"METAR KHAF 131515Z AUTO 00000KT 9SM -RA CLR 12/12 A3011 RMK AO2","lat":37.5136,"lon":-122.4996,"elev":11,"name":"Half Moon Bay Arpt, CA, US","cover":"CLR","clouds":[],"fltCat":"VFR"},{"icaoId":"KBVU","receiptTime":"2026-04-13T15:16:04.207Z","obsTime":1776093300,"reportTime":"2026-04-13T15:15:00.000Z","temp":15,"dewp":0,"wdir":240,"wspd":8,"visib":"10+","altim":1014,"qcField":6,"metarType":"METAR","rawOb":"METAR KBVU 131515Z AUTO 24008KT 10SM CLR 15/M00 A2994 RMK AO2","lat":35.9489,"lon":-114.8633,"elev":654,"name":"Boulder City Muni, NV, US","cover":"CLR","clouds":[],"fltCat":"VFR"},{"icaoId":"KLWS","receiptTime":"2026-04-13T15:17:05.891Z","obsTime":1776093240,"reportTime":"2026-04-13T15:14:00.000Z","temp":6.1,"dewp":3.9,"wdir":170,"wspd":7,"visib":"10+","altim":1011.6,"qcField":12,"wxString":"-RA","precip":0.01,"metarType":"SPECI","rawOb":"SPECI KLWS 131514Z 17007KT 10SM -RA SCT022 OVC034 06/04 A2987 RMK AO2 P0001 T00610039 $","lat":46.3746,"lon":-117.0153,"elev":435,"name":"Lewiston/Nez Perce Cnty, ID, US","cover":"OVC","clouds":[{"cover":"SCT","base":2200},{"cover":"OVC","base":3400}],"fltCat":"VFR"},{"icaoId":"KBOS","receiptTime":"2026-04-13T15:17:05.871Z","obsTime":1776093240,"reportTime":"2026-04-13T15:14:00.000Z","temp":16.1,"dewp":10.6,"wdir":220,"wspd":18,"wgst":26,"visib":"10+","altim":1015.3,"qcField":4,"metarType":"SPECI","rawOb":"SPECI KBOS 131514Z 22018G26KT 10SM SCT019 BKN190 BKN200 16/11 A2998 RMK AO2 PK WND 23028/1502 T01610106","lat":42.3606,"lon":-71.0097,"elev":4,"name":"Boston/Logan Intl, MA, US","cover":"BKN","clouds":[{"cover":"SCT","base":1900},{"cover":"BKN","base":19000},{"cover":"BKN","base":20000}],"fltCat":"VFR"},{"icaoId":"KPNC","receiptTime":"2026-04-13T15:16:01.697Z","obsTime":1776093180,"reportTime":"2026-04-13T15:13:00.000Z","temp":25,"dewp":19.4,"wdir":200,"wspd":10,"wgst":29,"visib":"10+","altim":1011.6,"qcField":6,"metarType":"SPECI","rawOb":"SPECI KPNC 131513Z AUTO 20010G29KT 10SM SCT023 25/19 A2987 RMK AO2 PK WND 22030/1503 T02500194","lat":36.7369,"lon":-97.1024,"elev":304,"name":"Ponca City Rgnl, OK, US","cover":"SCT","clouds":[{"cover":"SCT","base":2300}],"fltCat":"VFR"},{"icaoId":"KMOD","receiptTime":"2026-04-13T15:16:03.664Z","obsTime":1776093180,"reportTime":"2026-04-13T15:13:00.000Z","temp":11.7,"dewp":9.4,"wdir":360,"wspd":6,"visib":"10+","altim":1018.7,"qcField":6,"metarType":"SPECI","rawOb":"SPECI KMOD 131513Z AUTO 36006KT 10SM BKN011 12/09 A3008 RMK AO2 T01170094","lat":37.6254,"lon":-120.9549,"elev":25,"name":"Modesto/Sham Fld, CA, US","cover":"BKN","clouds":[{"cover":"BKN","base":1100}],"fltCat":"MVFR"},{"icaoId":"KCEC","receiptTime":"2026-04-13T15:16:01.615Z","obsTime":1776093120,"reportTime":"2026-04-13T15:12:00.000Z","temp":9.4,"dewp":8.9,"wdir":100,"wspd":3,"visib":4,"altim":1021.4,"qcField":6,"wxString":"-RA BR","precip":0.01,"metarType":"SPECI","rawOb":"SPECI KCEC 131512Z AUTO 10003KT 4SM -RA BR FEW004 OVC032 09/09 A3016 RMK AO2 P0001 T00940089","lat":41.7836,"lon":-124.238,"elev":17,"name":"Crescent City/McNama, CA, US","cover":"OVC","clouds":[{"cover":"FEW","base":400},{"cover":"OVC","base":3200}],"fltCat":"MVFR"},{"icaoId":"KAST","receiptTime":"2026-04-13T15:16:01.788Z","obsTime":1776093120,"reportTime":"2026-04-13T15:12:00.000Z","temp":7.8,"dewp":6.7,"wdir":230,"wspd":4,"visib":2.5,"altim":1018.4,"qcField":6,"wxString":"-RA BR","precip":0.03,"metarType":"SPECI","rawOb":"SPECI KAST 131512Z AUTO 23004KT 2 1/2SM -RA BR SCT016 BKN029 OVC036 08/07 A3007 RMK AO2 CIG 024 RWY 08 P0003 T00780067","lat":46.157,"lon":-123.8833,"elev":3,"name":"Astoria Rgnl, OR, US","cover":"OVC","clouds":[{"cover":"SCT","base":1600},{"cover":"BKN","base":2900},{"cover":"OVC","base":3600}],"fltCat":"IFR"},{"icaoId":"KSMF","receiptTime":"2026-04-13T15:14:10.785Z","obsTime":1776093060,"reportTime":"2026-04-13T15:11:00.000Z","temp":11.1,"dewp":8.9,"wdir":320,"wspd":7,"visib":"10+","altim":1019.4,"qcField":4,"metarType":"SPECI","rawOb":"SPECI KSMF 131511Z 32007KT 10SM FEW006 SCT018 11/09 A3010 RMK AO2 T01110089","lat":38.7007,"lon":-121.5948,"elev":7,"name":"Sacramento Intl, CA, US","cover":"SCT","clouds":[{"cover":"FEW","base":600},{"cover":"SCT","base":1800}],"fltCat":"VFR"},{"icaoId":"KAUS","receiptTime":"2026-04-13T15:14:10.678Z","obsTime":1776093060,"reportTime":"2026-04-13T15:11:00.000Z","temp":23.9,"dewp":21.7,"wdir":170,"wspd":11,"visib":8,"altim":1019.7,"qcField":4,"metarType":"SPECI","rawOb":"SPECI KAUS 131511Z 17011KT 8SM BKN011 BKN017 OVC023 24/22 A3011 RMK AO2 T02390217","lat":30.1831,"lon":-97.6806,"elev":148,"name":"Austin/Bergstrom Intl, TX, US","cover":"OVC","clouds":[{"cover":"BKN","base":1100},{"cover":"BKN","base":1700},{"cover":"OVC","base":2300}],"fltCat":"MVFR"},{"icaoId":"KBCE","receiptTime":"2026-04-13T15:14:10.694Z","obsTime":1776093060,"reportTime":"2026-04-13T15:11:00.000Z","temp":0,"dewp":-0.6,"wdir":0,"wspd":0,"visib":0.75,"altim":1017.7,"qcField":6,"wxString":"-SN BR","precip":0.01,"metarType":"SPECI","rawOb":"SPECI KBCE 131511Z AUTO 00000KT 3/4SM -SN BR BKN007 BKN011 OVC018 00/M01 A3005 RMK AO2 P0001 T00001006","lat":37.7013,"lon":-112.149,"elev":2311,"name":"Bryce Canyon Arpt, UT, US","cover":"OVC","clouds":[{"cover":"BKN","base":700},{"cover":"BKN","base":1100},{"cover":"OVC","base":1800}],"fltCat":"LIFR"},{"icaoId":"KROC","receiptTime":"2026-04-13T15:12:04.361Z","obsTime":1776092880,"reportTime":"2026-04-13T15:08:00.000Z","temp":16.1,"dewp":13.9,"wdir":250,"wspd":17,"wgst":24,"visib":4,"altim":1010.6,"qcField":4,"wxString":"-RA BR","precip":0.005,"metarType":"SPECI","rawOb":"SPECI KROC 131508Z 25017G24KT 4SM -RA BR SCT024 BKN029 OVC038 16/14 A2984 RMK AO2 P0000 T01610139","lat":43.1172,"lon":-77.6754,"elev":166,"name":"Rochester Intl Arpt, NY, US","cover":"OVC","clouds":[{"cover":"SCT","base":2400},{"cover":"BKN","base":2900},{"cover":"OVC","base":3800}],"fltCat":"MVFR"},{"icaoId":"KMYL","receiptTime":"2026-04-13T15:06:07.504Z","obsTime":1776092580,"reportTime":"2026-04-13T15:03:00.000Z","temp":0,"dewp":0,"wdir":180,"wspd":4,"visib":0.75,"altim":1010.9,"qcField":6,"wxString":"-SN BR","precip":0.01,"metarType":"SPECI","rawOb":"SPECI KMYL 131503Z AUTO 18004KT 3/4SM -SN BR FEW004 OVC014 00/00 A2985 RMK AO2 P0001 T00000000","lat":44.8943,"lon":-116.0998,"elev":1532,"name":"McCall Muni, ID, US","cover":"OVC","clouds":[{"cover":"FEW","base":400},{"cover":"OVC","base":1400}],"fltCat":"LIFR"},{"icaoId":"KPAE","receiptTime":"2026-04-13T15:06:07.521Z","obsTime":1776092580,"reportTime":"2026-04-13T15:03:00.000Z","temp":7.2,"dewp":6.7,"wdir":0,"wspd":0,"visib":1.5,"altim":1015.7,"qcField":4,"wxString":"-RA BR","precip":0.02,"metarType":"SPECI","rawOb":"SPECI KPAE 131503Z 00000KT 1 1/2SM R16R/5000VP6000FT -RA BR BKN004 BKN010 OVC018 07/07 A2999 RMK AO2 P0002 T00720067","lat":47.9232,"lon":-122.2831,"elev":166,"name":"Everett/Paine Fld, WA, US","cover":"OVC","clouds":[{"cover":"BKN","base":400},{"cover":"BKN","base":1000},{"cover":"OVC","base":1800}],"fltCat":"LIFR"},{"icaoId":"KACT","receiptTime":"2026-04-13T15:06:03.605Z","obsTime":1776092520,"reportTime":"2026-04-13T15:02:00.000Z","temp":23.3,"dewp":21.1,"wdir":170,"wspd":12,"wgst":20,"visib":"10+","altim":1019,"qcField":4,"metarType":"SPECI","rawOb":"SPECI KACT 131502Z 17012G20KT 10SM OVC014 23/21 A3009 RMK AO2 T02330211","lat":31.618,"lon":-97.2283,"elev":150,"name":"Waco Rgnl, TX, US","cover":"OVC","clouds":[{"cover":"OVC","base":1400}],"fltCat":"MVFR"},{"icaoId":"KORD","receiptTime":"2026-04-13T15:06:03.670Z","obsTime":1776092520,"reportTime":"2026-04-13T15:02:00.000Z","temp":18.9,"dewp":17.2,"wdir":220,"wspd":8,"wgst":16,"visib":"10+","altim":1013.6,"qcField":4,"metarType":"SPECI","rawOb":"SPECI KORD 131502Z 22008G16KT 10SM BKN010 OVC016 19/17 A2993 RMK AO2 T01890172","lat":41.9602,"lon":-87.9316,"elev":202,"name":"Chicago/O'Hare Intl, IL, US","cover":"OVC","clouds":[{"cover":"BKN","base":1000},{"cover":"OVC","base":1600}],"fltCat":"MVFR"},{"icaoId":"KNYL","receiptTime":"2026-04-13T15:00:12.717Z","obsTime":1776092220,"reportTime":"2026-04-13T15:00:00.000Z","temp":18.3,"dewp":9.4,"wdir":270,"wspd":3,"visib":"10+","altim":1015.7,"slp":1015.3,"qcField":4,"presTend":1.6,"metarType":"METAR","rawOb":"METAR KNYL 131457Z 27003KT 10SM FEW120 SCT170 18/09 A2999 RMK AO2 SLP153 T01830094 53016","lat":32.66,"lon":-114.6078,"elev":58,"name":"Yuma , AZ, US","cover":"SCT","clouds":[{"cover":"FEW","base":12000},{"cover":"SCT","base":17000}],"fltCat":"VFR"},{"icaoId":"KNFL","receiptTime":"2026-04-13T15:00:12.703Z","obsTime":1776092220,"reportTime":"2026-04-13T15:00:00.000Z","temp":3.9,"dewp":0,"wdir":0,"wspd":0,"visib":"10+","altim":1017.4,"slp":1014,"qcField":12,"presTend":1.2,"metarType":"METAR","rawOb":"METAR KNFL 131457Z 00000KT 10SM FEW070 SCT090 SCT250 04/00 A3004 RMK AO2 SLP140 T00390000 53012 PNO $","lat":39.417,"lon":-118.705,"elev":1199,"name":"Fallon , NV, US","cover":"SCT","clouds":[{"cover":"FEW","base":7000},{"cover":"SCT","base":9000},{"cover":"SCT","base":25000}],"fltCat":"VFR"},{"icaoId":"KFLG","receiptTime":"2026-04-13T15:00:16.300Z","obsTime":1776092220,"reportTime":"2026-04-13T15:00:00.000Z","temp":6.1,"dewp":0,"wdir":220,"wspd":12,"visib":"10+","altim":1018.4,"slp":1013.1,"qcField":12,"presTend":0.5,"metarType":"METAR","rawOb":"METAR KFLG 131457Z 22012KT 10SM SCT020 06/00 A3007 RMK AO2 SLP131 T00610000 53005 $","lat":35.1443,"lon":-111.6664,"elev":2134,"name":"Flagstaff/Pulliam Arpt, AZ, US","cover":"SCT","clouds":[{"cover":"SCT","base":2000}],"fltCat":"VFR"},{"icaoId":"KJAC","receiptTime":"2026-04-13T14:58:21.266Z","obsTime":1776092160,"reportTime":"2026-04-13T15:00:00.000Z","temp":0.6,"dewp":-1.7,"wdir":190,"wspd":10,"visib":"10+","altim":1014.6,"slp":1016,"qcField":4,"presTend":1,"metarType":"METAR","rawOb":"METAR KJAC 131456Z 19010KT 10SM FEW031 OVC046 01/M02 A2996 RMK AO2 SLP160 T00061017 53010","lat":43.6129,"lon":-110.7366,"elev":1967,"name":"Jackson Hole Arpt, WY, US","cover":"OVC","clouds":[{"cover":"FEW","base":3100},{"cover":"OVC","base":4600}],"fltCat":"VFR"},{"icaoId":"KJAX","receiptTime":"2026-04-13T15:00:22.105Z","obsTime":1776092160,"reportTime":"2026-04-13T15:00:00.000Z","temp":24.4,"dewp":13.3,"wdir":"VRB","wspd":5,"visib":"10+","altim":1028.2,"slp":1028,"qcField":12,"presTend":1,"metarType":"METAR","rawOb":"METAR KJAX 131456Z VRB05KT 10SM SCT035 BKN250 24/13 A3036 RMK AO2 SLP280 T02440133 51010 $","lat":30.4953,"lon":-81.6937,"elev":8,"name":"Jacksonville Intl, FL, US","cover":"BKN","clouds":[{"cover":"SCT","base":3500},{"cover":"BKN","base":25000}],"fltCat":"VFR"},{"icaoId":"KSDF","receiptTime":"2026-04-13T15:00:08.012Z","obsTime":1776092160,"reportTime":"2026-04-13T15:00:00.000Z","temp":21.7,"dewp":15,"wdir":200,"wspd":17,"wgst":24,"visib":"10+","altim":1021.1,"slp":1020.4,"qcField":4,"presTend":1.2,"pcp3hr":0.005,"metarType":"METAR","rawOb":"METAR KSDF 131456Z 20017G24KT 10SM FEW045 BKN065 OVC200 22/15 A3015 RMK AO2 PK WND 21026/1420 SLP204 60000 T02170150 51012","lat":38.1774,"lon":-85.7308,"elev":146,"name":"Louisville Intl, KY, US","cover":"OVC","clouds":[{"cover":"FEW","base":4500},{"cover":"BKN","base":6500},{"cover":"OVC","base":20000}],"fltCat":"VFR"},{"icaoId":"KSFO","receiptTime":"2026-04-13T15:00:16.148Z","obsTime":1776092160,"reportTime":"2026-04-13T15:00:00.000Z","temp":10.6,"dewp":8.3,"wdir":290,"wspd":7,"visib":"10+","altim":1019.4,"slp":1019.2,"qcField":12,"presTend":1.6,"metarType":"METAR","rawOb":"METAR KSFO 131456Z 29007KT 10SM FEW017 SCT037 11/08 A3010 RMK AO2 SLP192 T01060083 53016 $","lat":37.6196,"lon":-122.3656,"elev":2,"name":"San Francisco Intl, CA, US","cover":"SCT","clouds":[{"cover":"FEW","base":1700},{"cover":"SCT","base":3700}],"fltCat":"VFR"},{"icaoId":"KCHS","receiptTime":"2026-04-13T15:00:16.021Z","obsTime":1776092160,"reportTime":"2026-04-13T15:00:00.000Z","temp":24.4,"dewp":14.4,"wdir":250,"wspd":5,"visib":"10+","altim":1028.5,"slp":1028.5,"qcField":4,"presTend":0.4,"metarType":"METAR","rawOb":"METAR KCHS 131456Z 25005KT 10SM FEW035 BKN250 24/14 A3037 RMK AO2 SLP285 T02440144 51004","lat":32.8995,"lon":-80.0407,"elev":12,"name":"Charleston Intl, SC, US","cover":"BKN","clouds":[{"cover":"FEW","base":3500},{"cover":"BKN","base":25000}],"fltCat":"VFR"},{"icaoId":"KDUG","receiptTime":"2026-04-13T15:02:19.847Z","obsTime":1776092160,"reportTime":"2026-04-13T15:00:00.000Z","temp":17.2,"dewp":0.6,"wdir":170,"wspd":10,"visib":"10+","altim":1020.1,"slp":1014.7,"qcField":38,"presTend":0.9,"metarType":"METAR","rawOb":"METAR KDUG 131456Z AUTO 17010KT 10SM OVC120 17/01 A3012 RMK AO2 SLP147 T01720006 53009 TSNO","lat":31.4725,"lon":-109.6022,"elev":1260,"name":"Douglas/Bisbee Intl, AZ, US","cover":"OVC","clouds":[{"cover":"OVC","base":12000}],"fltCat":"VFR"},{"icaoId":"KSBP","receiptTime":"2026-04-13T15:00:12.852Z","obsTime":1776092160,"reportTime":"2026-04-13T15:00:00.000Z","temp":8.3,"dewp":7.2,"wdir":0,"wspd":0,"visib":"10+","altim":1018.7,"slp":1018.6,"qcField":4,"presTend":0.8,"metarType":"METAR","rawOb":"METAR KSBP 131456Z 00000KT 10SM CLR 08/07 A3008 RMK AO2 SLP186 T00830072 53008","lat":35.2381,"lon":-120.644,"elev":52,"name":"San Luis Obispo/San Luis Cnty, CA, US","cover":"CLR","clouds":[],"fltCat":"VFR"},{"icaoId":"KHDN","receiptTime":"2026-04-13T14:58:21.084Z","obsTime":1776092160,"reportTime":"2026-04-13T15:00:00.000Z","temp":7.2,"dewp":-3.9,"wdir":"VRB","wspd":3,"visib":"10+","altim":1017.7,"slp":1014.5,"qcField":6,"presTend":2.8,"metarType":"METAR","rawOb":"METAR KHDN 131456Z AUTO VRB03KT 10SM OVC095 07/M04 A3005 RMK AO2 SLP145 T00721039 51028","lat":40.4842,"lon":-107.2296,"elev":2012,"name":"Hayden/Yampa Valley Arpt, CO, US","cover":"OVC","clouds":[{"cover":"OVC","base":9500}],"fltCat":"VFR"},{"icaoId":"KCGZ","receiptTime":"2026-04-13T14:58:29.597Z","obsTime":1776092160,"reportTime":"2026-04-13T15:00:00.000Z","temp":18.9,"dewp":5,"visib":"10+","qcField":14,"metarType":"METAR","rawOb":"METAR KCGZ 131456Z AUTO 10SM CLR 19/05 RMK AO2 SLPNO 6//// T01890050 $","lat":32.9531,"lon":-111.7725,"elev":444,"name":"Casa Granda Muni, AZ, US","cover":"CLR","clouds":[],"fltCat":"VFR"},{"icaoId":"KGUC","receiptTime":"2026-04-13T14:58:22.691Z","obsTime":1776092160,"reportTime":"2026-04-13T15:00:00.000Z","temp":7.2,"dewp":-7.8,"wdir":160,"wspd":3,"visib":"10+","altim":1018.7,"slp":1013.5,"qcField":14,"presTend":0.7,"metarType":"METAR","rawOb":"METAR KGUC 131456Z AUTO 16003KT 10SM CLR 07/M08 A3008 RMK AO2 SLP135 T00721078 51007 $","lat":38.5322,"lon":-106.9419,"elev":2337,"name":"Gunnison Arpt, CO, US","cover":"CLR","clouds":[],"fltCat":"VFR"},{"icaoId":"KHIO","receiptTime":"2026-04-13T15:00:16.341Z","obsTime":1776092160,"reportTime":"2026-04-13T14:56:00.000Z","temp":8.9,"dewp":7.2,"wdir":280,"wspd":3,"visib":"10+","altim":1018,"qcField":4,"metarType":"SPECI","rawOb":"SPECI KHIO 131456Z 28003KT 10SM SCT012 BKN055 09/07 A3006 RMK AO2 T00890072","lat":45.5476,"lon":-122.9557,"elev":62,"name":"Portland/Hillsboro Arpt, OR, US","cover":"BKN","clouds":[{"cover":"SCT","base":1200},{"cover":"BKN","base":5500}],"fltCat":"VFR"},{"icaoId":"KFNL","receiptTime":"2026-04-13T14:58:22.540Z","obsTime":1776092160,"reportTime":"2026-04-13T15:00:00.000Z","temp":16.1,"dewp":-8.3,"wdir":280,"wspd":15,"wgst":22,"visib":"10+","altim":1012.3,"slp":1007.1,"qcField":12,"presTend":2,"metarType":"METAR","rawOb":"METAR KFNL 131456Z 28015G22KT 10SM CLR 16/M08 A2989 RMK AO2 SLP071 T01611083 51020 $","lat":40.4427,"lon":-105.0097,"elev":1529,"name":"Fort Collins/N Colorado Rgnl, CO, US","cover":"CLR","clouds":[],"fltCat":"VFR"},{"icaoId":"KEGE","receiptTime":"2026-04-13T14:58:22.381Z","obsTime":1776092160,"reportTime":"2026-04-13T15:00:00.000Z","temp":10.6,"dewp":-6.1,"wdir":220,"wspd":16,"wgst":22,"visib":"10+","altim":1016.7,"slp":1011.8,"qcField":4,"presTend":1.1,"metarType":"METAR","rawOb":"METAR KEGE 131456Z 22016G22KT 10SM FEW070 11/M06 A3002 RMK AO2 PK WND 24026/1442 SLP118 T01061061 51011","lat":39.6448,"lon":-106.9176,"elev":1993,"name":"Eagle Cnty Rgnl, CO, US","cover":"FEW","clouds":[{"cover":"FEW","base":7000}],"fltCat":"VFR"},{"icaoId":"KINW","receiptTime":"2026-04-13T15:00:16.059Z","obsTime":1776092160,"reportTime":"2026-04-13T15:00:00.000Z","temp":10.6,"dewp":2.2,"wdir":120,"wspd":3,"visib":"10+","altim":1018.4,"slp":1014.4,"qcField":6,"presTend":1,"metarType":"METAR","rawOb":"METAR KINW 131456Z AUTO 12003KT 10SM CLR 11/02 A3007 RMK AO2 SLP144 T01060022 52010","lat":35.0279,"lon":-110.7221,"elev":1492,"name":"Winslow/Lindberg Rgnl, AZ, US","cover":"CLR","clouds":[],"fltCat":"VFR"},{"icaoId":"KPWT","receiptTime":"2026-04-13T14:58:21.775Z","obsTime":1776092160,"reportTime":"2026-04-13T15:00:00.000Z","temp":7.2,"dewp":7.2,"wdir":200,"wspd":6,"visib":4,"altim":1015.3,"slp":1015.7,"qcField":6,"wxString":"-RA BR","presTend":1.7,"precip":0.005,"pcp3hr":0.005,"metarType":"METAR","rawOb":"METAR KPWT 131456Z AUTO 20006KT 4SM -RA BR OVC009 07/07 A2998 RMK AO2 RAB20 CIG 005V011 SLP157 P0000 60000 T00720072 53017","lat":47.4942,"lon":-122.7594,"elev":143,"name":"Bremerton Arpt, WA, US","cover":"OVC","clouds":[{"cover":"OVC","base":900}],"fltCat":"IFR"},{"icaoId":"KOTH","receiptTime":"2026-04-13T15:01:39.585Z","obsTime":1776092160,"reportTime":"2026-04-13T15:00:00.000Z","temp":9,"dewp":9,"wdir":200,"wspd":3,"visib":6,"altim":1021.4,"qcField":0,"wxString":"BR -RA","metarType":"METAR","rawOb":"METAR KOTH 131456Z 20003KT 6SM BR FEW017 BKN021 OVC029 09/09 A3016 -RA","lat":43.4194,"lon":-124.2438,"elev":3,"name":"North Bend/SW Oregon Rgnl, OR, US","cover":"OVC","clouds":[{"cover":"FEW","base":1700},{"cover":"BKN","base":2100},{"cover":"OVC","base":2900}],"fltCat":"MVFR"},{"icaoId":"KPVU","receiptTime":"2026-04-13T14:58:21.746Z","obsTime":1776092160,"reportTime":"2026-04-13T15:00:00.000Z","temp":6.7,"dewp":2.8,"wdir":160,"wspd":4,"visib":"10+","altim":1017,"slp":1015.3,"qcField":4,"presTend":0.8,"metarType":"METAR","rawOb":"METAR KPVU 131456Z 16004KT 10SM FEW015 07/03 A3003 RMK AO2 SLP153 T00670028 53008","lat":40.224,"lon":-111.7252,"elev":1370,"name":"Provo Muni, UT, US","cover":"FEW","clouds":[{"cover":"FEW","base":1500}],"fltCat":"VFR"},{"icaoId":"KUKI","receiptTime":"2026-04-13T15:00:14.376Z","obsTime":1776092160,"reportTime":"2026-04-13T15:00:00.000Z","temp":7.2,"dewp":5.6,"wdir":0,"wspd":0,"visib":"10+","altim":1020.4,"slp":1020,"qcField":6,"presTend":1.5,"metarType":"METAR","rawOb":"METAR KUKI 131456Z AUTO 00000KT 10SM OVC014 07/06 A3013 RMK AO2 SLP200 T00720056 53015","lat":39.1278,"lon":-123.2001,"elev":183,"name":"Ukiah Muni, CA, US","cover":"OVC","clouds":[{"cover":"OVC","base":1400}],"fltCat":"MVFR"},{"icaoId":"KLAS","receiptTime":"2026-04-13T15:00:13.436Z","obsTime":1776092160,"reportTime":"2026-04-13T15:00:00.000Z","temp":12.8,"dewp":1.1,"wdir":180,"wspd":6,"visib":"10+","altim":1014.3,"slp":1013.3,"qcField":4,"presTend":1.2,"metarType":"METAR","rawOb":"METAR KLAS 131456Z 18006KT 10SM FEW065 SCT100 13/01 A2995 RMK AO2 SLP133 T01280011 51012","lat":36.0719,"lon":-115.1634,"elev":662,"name":"Las Vegas/Reid Intl, NV, US","cover":"SCT","clouds":[{"cover":"FEW","base":6500},{"cover":"SCT","base":10000}],"fltCat":"VFR"},{"icaoId":"KEKO","receiptTime":"2026-04-13T15:00:13.408Z","obsTime":1776092160,"reportTime":"2026-04-13T15:00:00.000Z","temp":2.8,"dewp":0,"wdir":0,"wspd":0,"visib":"10+","altim":1016.3,"slp":1016.5,"qcField":6,"presTend":0.7,"metarType":"METAR","rawOb":"METAR KEKO 131456Z AUTO 00000KT 10SM CLR 03/00 A3001 RMK AO2 SLP165 T00280000 53007","lat":40.824,"lon":-115.7863,"elev":1541,"name":"Elko Rgnl, NV, US","cover":"CLR","clouds":[],"fltCat":"VFR"},{"icaoId":"KHND","receiptTime":"2026-04-13T14:58:21.141Z","obsTime":1776092160,"reportTime":"2026-04-13T15:00:00.000Z","temp":12.8,"dewp":1.1,"wdir":190,"wspd":10,"visib":"10+","altim":1015.3,"slp":1015.9,"qcField":12,"presTend":1.2,"metarType":"METAR","rawOb":"METAR KHND 131456Z 19010KT 10SM CLR 13/01 A2998 RMK AO2 SLP159 T01280011 53012 $","lat":35.9657,"lon":-115.1343,"elev":740,"name":"Henderson Exec, NV, US","cover":"CLR","clouds":[],"fltCat":"VFR"},{"icaoId":"KSGU","receiptTime":"2026-04-13T14:58:21.923Z","obsTime":1776092160,"reportTime":"2026-04-13T15:00:00.000Z","temp":13.9,"dewp":3.3,"wdir":90,"wspd":4,"visib":"10+","altim":1014.6,"slp":1012.8,"qcField":6,"presTend":0.8,"metarType":"METAR","rawOb":"METAR KSGU 131456Z AUTO 09004KT 10SM BKN060 OVC075 14/03 A2996 RMK AO2 SLP128 T01390033 53008","lat":37.0444,"lon":-113.5034,"elev":877,"name":"Saint George Muni, UT, US","cover":"OVC","clouds":[{"cover":"BKN","base":6000},{"cover":"OVC","base":7500}],"fltCat":"VFR"},{"icaoId":"KCOE","receiptTime":"2026-04-13T14:58:22.206Z","obsTime":1776092160,"reportTime":"2026-04-13T15:00:00.000Z","temp":5.6,"dewp":5,"wdir":160,"wspd":12,"visib":6,"altim":1008.9,"slp":1010.9,"qcField":14,"wxString":"RA BR","presTend":1.9,"metarType":"METAR","rawOb":"METAR KCOE 131456Z AUTO 16012KT 6SM RA BR SCT024 BKN029 OVC048 06/05 A2979 RMK AO2 RAB44 SLP109 6//// T00560050 53019 PNO $","lat":47.7719,"lon":-116.8332,"elev":693,"name":"Coeur DAlene Arpt, ID, US","cover":"OVC","clouds":[{"cover":"SCT","base":2400},{"cover":"BKN","base":2900},{"cover":"OVC","base":4800}],"fltCat":"MVFR"},{"icaoId":"KENV","receiptTime":"2026-04-13T14:58:22.437Z","obsTime":1776092160,"reportTime":"2026-04-13T15:00:00.000Z","temp":7.2,"dewp":-1.1,"wdir":60,"wspd":7,"visib":"10+","altim":1017,"slp":1016.7,"qcField":6,"presTend":1,"metarType":"METAR","rawOb":"METAR KENV 131456Z AUTO 06007KT 10SM CLR 07/M01 A3003 RMK AO2 SLP167 T00721011 53010","lat":40.7211,"lon":-114.0312,"elev":1291,"name":"Wendover Arpt, UT, US","cover":"CLR","clouds":[],"fltCat":"VFR"},{"icaoId":"KTPH","receiptTime":"2026-04-13T15:00:12.899Z","obsTime":1776092160,"reportTime":"2026-04-13T15:00:00.000Z","temp":3.9,"dewp":-5.6,"wdir":350,"wspd":7,"visib":"10+","altim":1016,"slp":1014.3,"qcField":6,"presTend":0.7,"metarType":"METAR","rawOb":"METAR KTPH 131456Z AUTO 35007KT 10SM CLR 04/M06 A3000 RMK AO2 SLP143 T00391056 53007","lat":38.0505,"lon":-117.0906,"elev":1647,"name":"Tonopah Arpt, NV, US","cover":"CLR","clouds":[],"fltCat":"VFR"},{"icaoId":"KSLE","receiptTime":"2026-04-13T15:00:12.886Z","obsTime":1776092160,"reportTime":"2026-04-13T15:00:00.000Z","temp":8.3,"dewp":5.6,"wdir":260,"wspd":6,"visib":"10+","altim":1019,"slp":1018.9,"qcField":4,"presTend":1.8,"metarType":"METAR","rawOb":"METAR KSLE 131456Z 26006KT 10SM BKN019 OVC025 08/06 A3009 RMK AO2 SLP189 T00830056 53018","lat":44.9049,"lon":-123.001,"elev":63,"name":"Salem Muni, OR, US","cover":"OVC","clouds":[{"cover":"BKN","base":1900},{"cover":"OVC","base":2500}],"fltCat":"MVFR"},{"icaoId":"KRDM","receiptTime":"2026-04-13T15:00:12.835Z","obsTime":1776092160,"reportTime":"2026-04-13T15:00:00.000Z","temp":6.1,"dewp":0,"wdir":0,"wspd":0,"visib":"10+","altim":1015,"slp":1015,"qcField":4,"presTend":1.8,"metarType":"METAR","rawOb":"METAR KRDM 131456Z 00000KT 10SM CLR 06/00 A2997 RMK AO2 SLP150 T00610000 53018","lat":44.2558,"lon":-121.1407,"elev":930,"name":"Redmond Muni, OR, US","cover":"CLR","clouds":[],"fltCat":"VFR"},{"icaoId":"KVIS","receiptTime":"2026-04-13T14:58:22.064Z","obsTime":1776092160,"reportTime":"2026-04-13T15:00:00.000Z","temp":11.1,"dewp":8.3,"wdir":310,"wspd":8,"visib":"10+","altim":1018.4,"slp":1018.4,"qcField":14,"presTend":0.9,"metarType":"METAR","rawOb":"METAR KVIS 131456Z AUTO 31008KT 10SM OVC060 11/08 A3007 RMK AO2 SLP184 6//// T01110083 53009 PNO $","lat":36.3135,"lon":-119.3884,"elev":92,"name":"Visalia Muni, CA, US","cover":"OVC","clouds":[{"cover":"OVC","base":6000}],"fltCat":"VFR"},{"icaoId":"KCOD","receiptTime":"2026-04-13T14:58:29.674Z","obsTime":1776092160,"reportTime":"2026-04-13T15:00:00.000Z","temp":6.7,"dewp":-7.2,"wdir":260,"wspd":19,"wgst":36,"visib":"10+","altim":1009.6,"slp":1008.5,"qcField":14,"presTend":0.9,"metarType":"METAR","rawOb":"METAR KCOD 131456Z AUTO 26019G36KT 10SM SCT100 07/M07 A2981 RMK AO2 PK WND 24037/1419 SLP085 T00671072 53009 $","lat":44.52,"lon":-109.0268,"elev":1550,"name":"Cody/Yellowstone Rgnl, WY, US","cover":"SCT","clouds":[{"cover":"SCT","base":10000}],"fltCat":"VFR"},{"icaoId":"KSOW","receiptTime":"2026-04-13T14:58:16.891Z","obsTime":1776092100,"reportTime":"2026-04-13T15:00:00.000Z","temp":10,"dewp":2,"wdir":190,"wspd":16,"wgst":21,"visib":"10+","altim":1020.1,"qcField":6,"metarType":"METAR","rawOb":"METAR KSOW 131455Z AUTO 19016G21KT 10SM CLR 10/02 A3012 RMK AO2","lat":34.2686,"lon":-110.0019,"elev":1954,"name":"Show Low Muni, AZ, US","cover":"CLR","clouds":[],"fltCat":"VFR"},{"icaoId":"KMFE","receiptTime":"2026-04-13T14:58:19.896Z","obsTime":1776092100,"reportTime":"2026-04-13T14:55:00.000Z","temp":26.1,"dewp":22.8,"wdir":140,"wspd":10,"visib":"10+","altim":1018.4,"qcField":12,"metarType":"SPECI","rawOb":"SPECI KMFE 131455Z 14010KT 10SM BKN014 OVC037 26/23 A3007 RMK AO2 T02610228 $","lat":26.1791,"lon":-98.2445,"elev":29,"name":"McAllen/Miller Intl, TX, US","cover":"OVC","clouds":[{"cover":"BKN","base":1400},{"cover":"OVC","base":3700}],"fltCat":"MVFR"},{"icaoId":"KHCR","receiptTime":"2026-04-13T14:58:09.807Z","obsTime":1776092100,"reportTime":"2026-04-13T15:00:00.000Z","temp":3.1,"dewp":1,"wdir":0,"wspd":0,"visib":"10+","altim":1016.7,"qcField":14,"presTend":0.9,"metarType":"METAR","rawOb":"METAR KHCR 131455Z AUTO 00000KT 10SM CLR 03/01 A3002 RMK AO2 T00310010 53009 $","lat":40.4774,"lon":-111.4329,"elev":1708,"name":"Heber City Muni, UT, US","cover":"CLR","clouds":[],"fltCat":"VFR"},{"icaoId":"KIWA","receiptTime":"2026-04-13T14:59:38.555Z","obsTime":1776092100,"reportTime":"2026-04-13T15:00:00.000Z","temp":21,"dewp":5,"wdir":160,"wspd":6,"visib":"10+","altim":1015.7,"qcField":0,"metarType":"METAR","rawOb":"METAR KIWA 131455Z 16006KT 10SM CLR 21/05 A2999","lat":33.3008,"lon":-111.6437,"elev":420,"name":"Phoenix/Mesa Gateway Arpt, AZ, US","cover":"CLR","clouds":[],"fltCat":"VFR"},{"icaoId":"KCMA","receiptTime":"2026-04-13T14:58:29.645Z","obsTime":1776092100,"reportTime":"2026-04-13T15:00:00.000Z","temp":12.8,"dewp":10,"wdir":0,"wspd":0,"visib":"10+","altim":1017.4,"slp":1018.1,"qcField":4,"presTend":1,"metarType":"METAR","rawOb":"METAR KCMA 131455Z 00000KT 10SM CLR 13/10 A3004 RMK AO2 SLP181 T01280100 53010","lat":34.2114,"lon":-119.0876,"elev":20,"name":"Camarillo Arpt, CA, US","cover":"CLR","clouds":[],"fltCat":"VFR"},{"icaoId":"KHII","receiptTime":"2026-04-13T15:02:16.688Z","obsTime":1776092100,"reportTime":"2026-04-13T15:00:00.000Z","temp":19,"dewp":6,"wdir":160,"wspd":10,"visib":"10+","altim":1014.6,"qcField":6,"metarType":"METAR","rawOb":"METAR KHII 131455Z AUTO 16010KT 10SM FEW080 19/06 A2996 RMK AO2","lat":34.5659,"lon":-114.3522,"elev":241,"name":"Lake Havasu City Arpt, AZ, US","cover":"FEW","clouds":[{"cover":"FEW","base":8000}],"fltCat":"VFR"},{"icaoId":"KCXP","receiptTime":"2026-04-13T15:00:13.114Z","obsTime":1776092100,"reportTime":"2026-04-13T15:00:00.000Z","temp":3,"dewp":2,"wdir":0,"wspd":0,"visib":"10+","altim":1017.7,"qcField":6,"metarType":"METAR","rawOb":"METAR KCXP 131455Z AUTO 00000KT 10SM BKN060 03/02 A3005 RMK AO2","lat":39.1905,"lon":-119.7319,"elev":1431,"name":"Carson City Arpt, NV, US","cover":"BKN","clouds":[{"cover":"BKN","base":6000}],"fltCat":"VFR"},{"icaoId":"KHTH","receiptTime":"2026-04-13T15:00:15.693Z","obsTime":1776092100,"reportTime":"2026-04-13T15:00:00.000Z","temp":6,"dewp":-2,"wdir":0,"wspd":0,"visib":"10+","altim":1017.4,"qcField":6,"metarType":"METAR","rawOb":"METAR KHTH 131455Z AUTO 00000KT 10SM CLR 06/M02 A3004 RMK A01","lat":38.5448,"lon":-118.6314,"elev":1281,"name":"Hawthorne Muni, NV, US","cover":"CLR","clouds":[],"fltCat":"VFR"},{"icaoId":"KRNO","receiptTime":"2026-04-13T14:58:21.802Z","obsTime":1776092100,"reportTime":"2026-04-13T15:00:00.000Z","temp":3.3,"dewp":-2.8,"wdir":320,"wspd":4,"visib":"10+","altim":1018,"slp":1017.7,"qcField":4,"presTend":1.4,"metarType":"METAR","rawOb":"METAR KRNO 131455Z 32004KT 10SM BKN028 03/M03 A3006 RMK AO2 SLP177 T00331028 53014","lat":39.5077,"lon":-119.7683,"elev":1344,"name":"Reno/Tahoe Intl, NV, US","cover":"BKN","clouds":[{"cover":"BKN","base":2800}],"fltCat":"MVFR"},{"icaoId":"KMHR","receiptTime":"2026-04-13T15:00:13.273Z","obsTime":1776092100,"reportTime":"2026-04-13T15:00:00.000Z","temp":9,"dewp":9,"wdir":290,"wspd":6,"visib":0.25,"altim":1018.7,"qcField":6,"wxString":"FG","metarType":"METAR","rawOb":"METAR KMHR 131455Z AUTO 29006KT M1/4SM FG OVC002 09/09 A3008 RMK AO2","lat":38.56,"lon":-121.284,"elev":30,"name":"Sacramento/Mather Fld, CA, US","cover":"OVC","clouds":[{"cover":"OVC","base":200}],"fltCat":"LIFR"},{"icaoId":"KSEZ","receiptTime":"2026-04-13T15:00:13.008Z","obsTime":1776092100,"reportTime":"2026-04-13T15:00:00.000Z","temp":12,"dewp":3,"wdir":170,"wspd":10,"visib":"10+","altim":1018,"qcField":6,"metarType":"METAR","rawOb":"METAR KSEZ 131455Z AUTO 17010KT 10SM FEW045 12/03 A3006 RMK AO2","lat":34.8467,"lon":-111.7884,"elev":1455,"name":"Sedona Arpt, AZ, US","cover":"FEW","clouds":[{"cover":"FEW","base":4500}],"fltCat":"VFR"},{"icaoId":"KLRU","receiptTime":"2026-04-13T14:58:18.772Z","obsTime":1776092100,"reportTime":"2026-04-13T15:00:00.000Z","temp":17.1,"dewp":0.3,"wdir":200,"wspd":5,"visib":"10+","altim":1021.4,"qcField":6,"metarType":"METAR","rawOb":"METAR KLRU 131455Z AUTO 20005KT 10SM CLR 17/00 A3016 RMK AO2 T01710003","lat":32.2884,"lon":-106.9131,"elev":1355,"name":"Las Cruces Intl, NM, US","cover":"CLR","clouds":[],"fltCat":"VFR"},{"icaoId":"KLUF","receiptTime":"2026-04-13T15:04:02.282Z","obsTime":1776092100,"reportTime":"2026-04-13T15:00:00.000Z","temp":18.5,"dewp":6.7,"wdir":0,"wspd":0,"visib":"10+","altim":1014.3,"slp":1013.4,"qcField":12,"presTend":0.9,"metarType":"METAR","rawOb":"METAR KLUF 131455Z 00000KT 10SM SCT080 BKN150 19/07 A2995 RMK AO2A SLP134 T01850067 52009 $","lat":33.538,"lon":-112.38,"elev":333,"name":"Phoenix/Luke AFB, AZ, US","cover":"BKN","clouds":[{"cover":"SCT","base":8000},{"cover":"BKN","base":15000}],"fltCat":"VFR"},{"icaoId":"KEND","receiptTime":"2026-04-13T15:02:09.594Z","obsTime":1776092100,"reportTime":"2026-04-13T15:00:00.000Z","temp":23.9,"dewp":19.8,"wdir":200,"wspd":19,"wgst":27,"visib":"10+","altim":1010.6,"slp":1009.4,"qcField":12,"presTend":0.8,"metarType":"METAR","rawOb":"METAR KEND 131455Z 20019G27KT 10SM FEW016 BKN200 24/20 A2984 RMK AO2A PK WND 21030/42 SLP094 T02390198 50008 $","lat":36.338,"lon":-97.919,"elev":392,"name":"Enid/Vance AFB, OK, US","cover":"BKN","clouds":[{"cover":"FEW","base":1600},{"cover":"BKN","base":20000}],"fltCat":"VFR"},{"icaoId":"KAPC","receiptTime":"2026-04-13T14:58:15.616Z","obsTime":1776092040,"reportTime":"2026-04-13T15:00:00.000Z","temp":7.2,"dewp":7.2,"wdir":0,"wspd":0,"visib":"10+","altim":1019.7,"slp":1018.6,"qcField":4,"presTend":1.4,"metarType":"METAR","rawOb":"METAR KAPC 131454Z 00000KT 10SM FEW055 07/07 A3011 RMK AO2 SLP186 T00720072 53014","lat":38.2075,"lon":-122.2804,"elev":5,"name":"Napa Cnty Arpt, CA, US","cover":"FEW","clouds":[{"cover":"FEW","base":5500}],"fltCat":"VFR"},{"icaoId":"KBWI","receiptTime":"2026-04-13T14:58:15.716Z","obsTime":1776092040,"reportTime":"2026-04-13T15:00:00.000Z","temp":21.7,"dewp":14.4,"wdir":230,"wspd":9,"visib":"10+","altim":1020.1,"slp":1019.8,"qcField":4,"presTend":-1.2,"metarType":"METAR","rawOb":"METAR KBWI 131454Z 23009KT 10SM FEW110 SCT180 BKN220 BKN250 22/14 A3012 RMK AO2 SLP198 T02170144 58012","lat":39.1733,"lon":-76.684,"elev":42,"name":"Baltimore-Washington Intl, MD, US","cover":"BKN","clouds":[{"cover":"FEW","base":11000},{"cover":"SCT","base":18000},{"cover":"BKN","base":22000},{"cover":"BKN","base":25000}],"fltCat":"VFR"},{"icaoId":"KBFL","receiptTime":"2026-04-13T14:58:15.671Z","obsTime":1776092040,"reportTime":"2026-04-13T15:00:00.000Z","temp":10.6,"dewp":7.8,"wdir":320,"wspd":4,"visib":"10+","altim":1018.4,"slp":1018,"qcField":4,"presTend":1.2,"metarType":"METAR","rawOb":"METAR KBFL 131454Z 32004KT 10SM OVC050 11/08 A3007 RMK AO2 SLP180 T01060078 53012","lat":35.4342,"lon":-119.0552,"elev":146,"name":"Bakersfield/Meadows Arpt, CA, US","cover":"OVC","clouds":[{"cover":"OVC","base":5000}],"fltCat":"VFR"},{"icaoId":"KPHL","receiptTime":"2026-04-13T14:58:15.932Z","obsTime":1776092040,"reportTime":"2026-04-13T15:00:00.000Z","temp":21.7,"dewp":14.4,"wdir":210,"wspd":15,"wgst":24,"visib":"10+","altim":1019.4,"slp":1019.1,"qcField":12,"presTend":-2.3,"metarType":"METAR","rawOb":"METAR KPHL 131454Z 21015G24KT 10SM FEW017 BKN130 BKN180 BKN300 22/14 A3010 RMK AO2 SLP191 T02170144 58023 $","lat":39.8733,"lon":-75.2268,"elev":2,"name":"Philadelphia Intl, PA, US","cover":"BKN","clouds":[{"cover":"FEW","base":1700},{"cover":"BKN","base":13000},{"cover":"BKN","base":18000},{"cover":"BKN","base":30000}],"fltCat":"VFR"},{"icaoId":"KEUG","receiptTime":"2026-04-13T14:58:15.118Z","obsTime":1776092040,"reportTime":"2026-04-13T15:00:00.000Z","temp":8.9,"dewp":6.7,"wdir":220,"wspd":4,"visib":"10+","altim":1019.7,"slp":1019.8,"qcField":4,"presTend":1.7,"metarType":"METAR","rawOb":"METAR KEUG 131454Z 22004KT 10SM FEW025 BKN048 09/07 A3011 RMK AO2 SLP198 T00890067 53017","lat":44.1331,"lon":-123.2156,"elev":109,"name":"Eugene/Mahlon Sweet Fld, OR, US","cover":"BKN","clouds":[{"cover":"FEW","base":2500},{"cover":"BKN","base":4800}],"fltCat":"VFR"},{"icaoId":"KSYR","receiptTime":"2026-04-13T14:58:16.056Z","obsTime":1776092040,"reportTime":"2026-04-13T15:00:00.000Z","temp":18.3,"dewp":10,"wdir":200,"wspd":14,"wgst":21,"visib":"10+","altim":1010.9,"slp":1010.3,"qcField":12,"presTend":-1.7,"precip":0.005,"pcp3hr":0.005,"metarType":"METAR","rawOb":"METAR KSYR 131454Z 20014G21KT 10SM OVC060 18/10 A2985 RMK AO2 RAE30 SLP103 P0000 60000 T01830100 56017 $","lat":43.1111,"lon":-76.1038,"elev":125,"name":"Syracuse/Hancock Intl, NY, US","cover":"OVC","clouds":[{"cover":"OVC","base":6000}],"fltCat":"VFR"},{"icaoId":"KDSM","receiptTime":"2026-04-13T14:58:11.998Z","obsTime":1776092040,"reportTime":"2026-04-13T15:00:00.000Z","temp":20,"dewp":17.8,"wdir":140,"wspd":9,"visib":"10+","altim":1009.2,"slp":1008.6,"qcField":4,"presTend":0.3,"metarType":"METAR","rawOb":"METAR KDSM 131454Z 14009KT 10SM OVC018 20/18 A2980 RMK AO2 SLP086 T02000178 51003","lat":41.5339,"lon":-93.6531,"elev":286,"name":"Des Moines Intl, IA, US","cover":"OVC","clouds":[{"cover":"OVC","base":1800}],"fltCat":"MVFR"},{"icaoId":"KBUF","receiptTime":"2026-04-13T14:58:12.214Z","obsTime":1776092040,"reportTime":"2026-04-13T15:00:00.000Z","temp":11.1,"dewp":10,"wdir":240,"wspd":18,"wgst":29,"visib":7,"altim":1011.6,"slp":1011.5,"qcField":12,"wxString":"-RA","presTend":1.1,"precip":0.1,"pcp3hr":0.31,"metarType":"METAR","rawOb":"METAR KBUF 131454Z 24018G29KT 7SM -RA SCT006 SCT021 OVC045 11/10 A2987 RMK AO2 PK WND 22034/1412 SLP115 P0010 60031 T01110100 53011 $","lat":42.94,"lon":-78.7361,"elev":217,"name":"Buffalo-Niagara Intl, NY, US","cover":"OVC","clouds":[{"cover":"SCT","base":600},{"cover":"SCT","base":2100},{"cover":"OVC","base":4500}],"fltCat":"VFR"},{"icaoId":"KRKS","receiptTime":"2026-04-13T14:58:13.259Z","obsTime":1776092040,"reportTime":"2026-04-13T15:00:00.000Z","temp":2.8,"dewp":-5,"wdir":260,"wspd":17,"visib":"10+","altim":1016.3,"slp":1013.9,"qcField":6,"presTend":2.1,"metarType":"METAR","rawOb":"METAR KRKS 131454Z AUTO 26017KT 10SM CLR 03/M05 A3001 RMK AO2 SLP139 T00281050 53021","lat":41.5947,"lon":-109.0529,"elev":2062,"name":"Rock Springs/SW Wyoming Rgnl, WY, US","cover":"CLR","clouds":[],"fltCat":"VFR"},{"icaoId":"KMEM","receiptTime":"2026-04-13T14:58:16.327Z","obsTime":1776092040,"reportTime":"2026-04-13T15:00:00.000Z","temp":20.6,"dewp":17.8,"wdir":190,"wspd":10,"visib":"10+","altim":1022.4,"slp":1021.9,"qcField":4,"presTend":1.4,"precip":0.005,"pcp3hr":0.005,"metarType":"METAR","rawOb":"METAR KMEM 131454Z 19010KT 10SM FEW030 SCT036 BKN046 21/18 A3019 RMK AO2 RAB10E46 SLP219 P0000 60000 T02060178 51014","lat":35.0564,"lon":-89.9864,"elev":78,"name":"Memphis Intl, TN, US","cover":"BKN","clouds":[{"cover":"FEW","base":3000},{"cover":"SCT","base":3600},{"cover":"BKN","base":4600}],"fltCat":"VFR"},{"icaoId":"KGSO","receiptTime":"2026-04-13T14:58:12.040Z","obsTime":1776092040,"reportTime":"2026-04-13T15:00:00.000Z","temp":21.7,"dewp":12.8,"wdir":220,"wspd":14,"wgst":20,"visib":"10+","altim":1026.5,"slp":1025.7,"qcField":4,"presTend":-0.3,"metarType":"METAR","rawOb":"METAR KGSO 131454Z 22014G20KT 10SM FEW200 OVC250 22/13 A3031 RMK AO2 SLP257 T02170128 58003","lat":36.0969,"lon":-79.9432,"elev":275,"name":"Greensboro Intl, NC, US","cover":"OVC","clouds":[{"cover":"FEW","base":20000},{"cover":"OVC","base":25000}],"fltCat":"VFR"},{"icaoId":"KSLC","receiptTime":"2026-04-13T14:58:10.812Z","obsTime":1776092040,"reportTime":"2026-04-13T15:00:00.000Z","temp":6.1,"dewp":1.1,"wdir":140,"wspd":6,"visib":"10+","altim":1016.3,"slp":1014.9,"qcField":12,"presTend":0.5,"metarType":"METAR","rawOb":"METAR KSLC 131454Z 14006KT 10SM FEW025 FEW050 SCT250 06/01 A3001 RMK AO2 SLP149 T00610011 53005 $","lat":40.7707,"lon":-111.965,"elev":1286,"name":"Salt Lake City Intl, UT, US","cover":"SCT","clouds":[{"cover":"FEW","base":2500},{"cover":"FEW","base":5000},{"cover":"SCT","base":25000}],"fltCat":"VFR"},{"icaoId":"KFFZ","receiptTime":"2026-04-13T14:58:15.225Z","obsTime":1776092040,"reportTime":"2026-04-13T15:00:00.000Z","temp":18.9,"dewp":5,"wdir":70,"wspd":3,"visib":"10+","altim":1015,"slp":1013,"qcField":4,"presTend":1,"metarType":"METAR","rawOb":"METAR KFFZ 131454Z 07003KT 10SM CLR 19/05 A2997 RMK AO2 SLP130 T01890050 53010","lat":33.4659,"lon":-111.7212,"elev":420,"name":"Mesa/Falcon Fld, AZ, US","cover":"CLR","clouds":[],"fltCat":"VFR"},{"icaoId":"KBTV","receiptTime":"2026-04-13T14:58:12.194Z","obsTime":1776092040,"reportTime":"2026-04-13T15:00:00.000Z","temp":13.3,"dewp":5.6,"wdir":200,"wspd":14,"wgst":27,"visib":"10+","altim":1009.9,"slp":1010,"qcField":4,"presTend":-2.1,"metarType":"METAR","rawOb":"METAR KBTV 131454Z 20014G27KT 10SM OVC120 13/06 A2982 RMK AO2 PK WND 18031/1426 SLP100 T01330056 58021","lat":44.4682,"lon":-73.1499,"elev":101,"name":"Burlington Intl, VT, US","cover":"OVC","clouds":[{"cover":"OVC","base":12000}],"fltCat":"VFR"},{"icaoId":"KRIC","receiptTime":"2026-04-13T14:58:15.980Z","obsTime":1776092040,"reportTime":"2026-04-13T15:00:00.000Z","temp":24.4,"dewp":12.8,"wdir":210,"wspd":15,"wgst":22,"visib":"10+","altim":1024.1,"slp":1024.3,"qcField":4,"presTend":-1.2,"metarType":"METAR","rawOb":"METAR KRIC 131454Z 21015G22KT 10SM FEW045 SCT250 BKN300 24/13 A3024 RMK AO2 SLP243 T02440128 56012","lat":37.5115,"lon":-77.3234,"elev":51,"name":"Richmond Intl, VA, US","cover":"BKN","clouds":[{"cover":"FEW","base":4500},{"cover":"SCT","base":25000},{"cover":"BKN","base":30000}],"fltCat":"VFR"},{"icaoId":"KOLM","receiptTime":"2026-04-13T14:58:13.115Z","obsTime":1776092040,"reportTime":"2026-04-13T15:00:00.000Z","temp":8.3,"dewp":6.1,"wdir":210,"wspd":9,"visib":"10+","altim":1016.7,"slp":1016.7,"qcField":6,"presTend":1.6,"metarType":"METAR","rawOb":"METAR KOLM 131454Z AUTO 21009KT 10SM SCT043 08/06 A3002 RMK AO2 SLP167 T00830061 53016","lat":46.9737,"lon":-122.9049,"elev":58,"name":"Olympia Rgnl, WA, US","cover":"SCT","clouds":[{"cover":"SCT","base":4300}],"fltCat":"VFR"},{"icaoId":"KOLS","receiptTime":"2026-04-13T14:58:13.130Z","obsTime":1776092040,"reportTime":"2026-04-13T15:00:00.000Z","temp":18.9,"dewp":1.7,"wdir":180,"wspd":11,"visib":"10+","altim":1019,"slp":1013.8,"qcField":6,"presTend":0.8,"metarType":"METAR","rawOb":"METAR KOLS 131454Z AUTO 18011KT 10SM CLR 19/02 A3009 RMK AO2 SLP138 T01890017 53008","lat":31.4208,"lon":-110.8465,"elev":1194,"name":"Nogales Intl, AZ, US","cover":"CLR","clouds":[],"fltCat":"VFR"},{"icaoId":"KGCN","receiptTime":"2026-04-13T14:58:15.280Z","obsTime":1776092040,"reportTime":"2026-04-13T15:00:00.000Z","temp":6.7,"dewp":-0.6,"wdir":210,"wspd":10,"visib":"10+","altim":1018.4,"slp":1013.3,"qcField":4,"presTend":0.5,"metarType":"METAR","rawOb":"METAR KGCN 131454Z 21010KT 10SM FEW031 07/M01 A3007 RMK AO2 SLP133 T00671006 53005","lat":35.9458,"lon":-112.1554,"elev":1993,"name":"Grand Canyon Park Arpt, AZ, US","cover":"FEW","clouds":[{"cover":"FEW","base":3100}],"fltCat":"VFR"},{"icaoId":"KIND","receiptTime":"2026-04-13T14:58:15.464Z","obsTime":1776092040,"reportTime":"2026-04-13T15:00:00.000Z","temp":23.9,"dewp":16.1,"wdir":230,"wspd":17,"wgst":25,"visib":"10+","altim":1017.7,"slp":1017.1,"qcField":4,"presTend":0.9,"metarType":"METAR","rawOb":"METAR KIND 131454Z 23017G25KT 10SM SCT033 BKN048 BKN065 24/16 A3005 RMK AO2 PK WND 25026/1437 SLP171 T02390161 51009 PNO","lat":39.7252,"lon":-86.2816,"elev":242,"name":"Indianapolis Intl, IN, US","cover":"BKN","clouds":[{"cover":"SCT","base":3300},{"cover":"BKN","base":4800},{"cover":"BKN","base":6500}],"fltCat":"VFR"},{"icaoId":"KCOS","receiptTime":"2026-04-13T14:58:12.250Z","obsTime":1776092040,"reportTime":"2026-04-13T15:00:00.000Z","temp":14.4,"dewp":-12.2,"wdir":160,"wspd":4,"visib":"10+","altim":1014.3,"slp":1007.8,"qcField":4,"presTend":1.3,"metarType":"METAR","rawOb":"METAR KCOS 131454Z 16004KT 10SM FEW200 BKN250 14/M12 A2995 RMK AO2 SLP078 T01441122 51013","lat":38.8095,"lon":-104.6887,"elev":1886,"name":"Colorado Spring Arpt, CO, US","cover":"BKN","clouds":[{"cover":"FEW","base":20000},{"cover":"BKN","base":25000}],"fltCat":"VFR"},{"icaoId":"KSJN","receiptTime":"2026-04-13T14:58:10.789Z","obsTime":1776092040,"reportTime":"2026-04-13T15:00:00.000Z","temp":10.6,"dewp":1.1,"wdir":290,"wspd":3,"visib":"10+","altim":1018.7,"slp":1013,"qcField":6,"presTend":0.5,"metarType":"METAR","rawOb":"METAR KSJN 131454Z AUTO 29003KT 10SM CLR 11/01 A3008 RMK AO2 SLP130 T01060011 51005","lat":34.5184,"lon":-109.3801,"elev":1747,"name":"St Johns Ind Arpt, AZ, US","cover":"CLR","clouds":[],"fltCat":"VFR"},{"icaoId":"KPSP","receiptTime":"2026-04-13T14:57:06.556Z","obsTime":1776091980,"reportTime":"2026-04-13T15:00:00.000Z","temp":17.8,"dewp":4.4,"wdir":"VRB","wspd":4,"visib":"10+","altim":1015.3,"slp":1015.2,"qcField":4,"presTend":1,"metarType":"METAR","rawOb":"METAR KPSP 131453Z VRB04KT 10SM CLR 18/04 A2998 RMK AO2 SLP152 T01780044 53010","lat":33.8222,"lon":-116.5043,"elev":123,"name":"Palm Springs Intl, CA, US","cover":"CLR","clouds":[],"fltCat":"VFR"},{"icaoId":"KFAT","receiptTime":"2026-04-13T15:04:05.080Z","obsTime":1776091980,"reportTime":"2026-04-13T15:00:00.000Z","temp":10.6,"dewp":7.2,"wdir":310,"wspd":6,"visib":"10+","altim":1018,"slp":1017.7,"qcField":5,"presTend":1,"metarType":"METAR","rawOb":"METAR KFAT 131453Z COR 31006KT 10SM BKN100 OVC200 11/07 A3006 RMK AO2 SLP177 T01060072 53010","lat":36.78,"lon":-119.7202,"elev":102,"name":"Fresno/Yosemite Intl, CA, US","cover":"OVC","clouds":[{"cover":"BKN","base":10000},{"cover":"OVC","base":20000}],"fltCat":"VFR"},{"icaoId":"KMYR","receiptTime":"2026-04-13T14:56:59.198Z","obsTime":1776091980,"reportTime":"2026-04-13T15:00:00.000Z","temp":23.3,"dewp":16.1,"wdir":170,"wspd":9,"visib":"10+","altim":1029.5,"slp":1029.2,"qcField":12,"presTend":0.5,"metarType":"METAR","rawOb":"METAR KMYR 131453Z 17009KT 10SM CLR 23/16 A3040 RMK AO2 SLP292 T02330161 51005 $","lat":33.6769,"lon":-78.9325,"elev":7,"name":"Myrtle Beach Intl, SC, US","cover":"CLR","clouds":[],"fltCat":"VFR"},{"icaoId":"KEVW","receiptTime":"2026-04-13T14:57:09.248Z","obsTime":1776091980,"reportTime":"2026-04-13T15:00:00.000Z","temp":-1.7,"dewp":-2.8,"wdir":190,"wspd":5,"visib":"10+","altim":1016.3,"slp":1015.3,"qcField":6,"presTend":0.8,"metarType":"METAR","rawOb":"METAR KEVW 131453Z AUTO 19005KT 10SM SCT001 M02/M03 A3001 RMK AO2 SLP153 T10171028 53008","lat":41.2727,"lon":-111.0305,"elev":2178,"name":"Evanston/Uinta Cnty, WY, US","cover":"SCT","clouds":[{"cover":"SCT","base":100}],"fltCat":"VFR"},{"icaoId":"KCPR","receiptTime":"2026-04-13T14:57:11.191Z","obsTime":1776091980,"reportTime":"2026-04-13T15:00:00.000Z","temp":10.6,"dewp":-1.7,"wdir":220,"wspd":24,"wgst":37,"visib":"10+","altim":1009.2,"slp":1005.6,"qcField":4,"presTend":0.3,"precip":0.005,"pcp3hr":0.005,"metarType":"METAR","rawOb":"METAR KCPR 131453Z 22024G37KT 10SM CLR 11/M02 A2980 RMK AO2 PK WND 23037/1447 RAB37E50 SLP056 P0000 60000 T01061017 50003","lat":42.8978,"lon":-106.4736,"elev":1623,"name":"Casper/Natrona Cnty, WY, US","cover":"CLR","clouds":[],"fltCat":"VFR"},{"icaoId":"KDAL","receiptTime":"2026-04-13T14:57:08.249Z","obsTime":1776091980,"reportTime":"2026-04-13T15:00:00.000Z","temp":23.3,"dewp":20,"wdir":180,"wspd":12,"wgst":20,"visib":"10+","altim":1018.4,"slp":1017.7,"qcField":4,"presTend":1.2,"metarType":"METAR","rawOb":"METAR KDAL 131453Z 18012G20KT 10SM OVC018 23/20 A3007 RMK AO2 SLP177 T02330200 50012","lat":32.8384,"lon":-96.8358,"elev":148,"name":"Dallas/Love Fld, TX, US","cover":"OVC","clouds":[{"cover":"OVC","base":1800}],"fltCat":"MVFR"},{"icaoId":"KRDD","receiptTime":"2026-04-13T14:57:06.706Z","obsTime":1776091980,"reportTime":"2026-04-13T15:00:00.000Z","temp":8.9,"dewp":7.2,"wdir":340,"wspd":3,"visib":"10+","altim":1019.7,"slp":1019.5,"qcField":4,"presTend":1.1,"metarType":"METAR","rawOb":"METAR KRDD 131453Z 34003KT 10SM OVC047 09/07 A3011 RMK AO2 SLP195 T00890072 53011","lat":40.5146,"lon":-122.2977,"elev":152,"name":"Redding Muni, CA, US","cover":"OVC","clouds":[{"cover":"OVC","base":4700}],"fltCat":"VFR"},{"icaoId":"KMFR","receiptTime":"2026-04-13T14:57:01.051Z","obsTime":1776091980,"reportTime":"2026-04-13T15:00:00.000Z","temp":8.9,"dewp":5,"wdir":0,"wspd":0,"visib":"10+","altim":1019.4,"slp":1019.3,"qcField":12,"presTend":1.4,"metarType":"METAR","rawOb":"METAR KMFR 131453Z 00000KT 10SM OVC055 09/05 A3010 RMK AO2 SLP193 T00890050 53014 $","lat":42.375,"lon":-122.877,"elev":397,"name":"Medford/Rogue Valley Intl, OR, US","cover":"OVC","clouds":[{"cover":"OVC","base":5500}],"fltCat":"VFR"},{"icaoId":"KASE","receiptTime":"2026-04-13T14:57:04.853Z","obsTime":1776091980,"reportTime":"2026-04-13T15:00:00.000Z","temp":7.8,"dewp":-11.7,"wdir":240,"wspd":8,"wgst":19,"visib":"10+","altim":1017.4,"slp":1009.9,"qcField":4,"presTend":0.9,"metarType":"METAR","rawOb":"METAR KASE 131453Z 24008G19KT 200V290 10SM CLR 08/M12 A3004 RMK AO2 SLP099 T00781117 51009","lat":39.2299,"lon":-106.8705,"elev":2384,"name":"Aspen/Pitkin Cnty, CO, US","cover":"CLR","clouds":[],"fltCat":"VFR"},{"icaoId":"KTUL","receiptTime":"2026-04-13T14:56:58.496Z","obsTime":1776091980,"reportTime":"2026-04-13T15:00:00.000Z","temp":22.2,"dewp":18.3,"wdir":190,"wspd":15,"wgst":25,"visib":"10+","altim":1015,"slp":1014.3,"qcField":4,"presTend":1.3,"metarType":"METAR","rawOb":"METAR KTUL 131453Z 19015G25KT 10SM BKN020 BKN025 22/18 A2997 RMK AO2 PK WND 18026/1434 SLP143 T02220183 51013","lat":36.1985,"lon":-95.8782,"elev":196,"name":"Tulsa Intl Arpt, OK, US","cover":"BKN","clouds":[{"cover":"BKN","base":2000},{"cover":"BKN","base":2500}],"fltCat":"MVFR"},{"icaoId":"KPBI","receiptTime":"2026-04-13T14:56:57.591Z","obsTime":1776091980,"reportTime":"2026-04-13T15:00:00.000Z","temp":25,"dewp":13.9,"wdir":80,"wspd":17,"wgst":24,"visib":"10+","altim":1025.8,"slp":1025.7,"qcField":12,"presTend":0.9,"metarType":"METAR","rawOb":"METAR KPBI 131453Z 08017G24KT 10SM SCT043 BKN050 25/14 A3029 RMK AO2 SLP257 T02500139 51009 $","lat":26.6851,"lon":-80.0992,"elev":4,"name":"Palm Beach Intl, FL, US","cover":"BKN","clouds":[{"cover":"SCT","base":4300},{"cover":"BKN","base":5000}],"fltCat":"VFR"},{"icaoId":"KOAK","receiptTime":"2026-04-13T14:57:06.254Z","obsTime":1776091980,"reportTime":"2026-04-13T15:00:00.000Z","temp":11.7,"dewp":10,"wdir":70,"wspd":5,"visib":"10+","altim":1019.7,"slp":1019.4,"qcField":12,"presTend":1.4,"metarType":"METAR","rawOb":"METAR KOAK 131453Z 07005KT 10SM FEW015 SCT044 12/10 A3011 RMK AO2 SLP194 T01170100 53014 $","lat":37.7178,"lon":-122.233,"elev":3,"name":"Oakland Intl, CA, US","cover":"SCT","clouds":[{"cover":"FEW","base":1500},{"cover":"SCT","base":4400}],"fltCat":"VFR"},{"icaoId":"KSTS","receiptTime":"2026-04-13T14:56:57.983Z","obsTime":1776091980,"reportTime":"2026-04-13T15:00:00.000Z","temp":7.2,"dewp":6.7,"wdir":340,"wspd":3,"visib":"10+","altim":1019.7,"slp":1019,"qcField":4,"presTend":1.5,"metarType":"METAR","rawOb":"METAR KSTS 131453Z 34003KT 10SM FEW030 07/07 A3011 RMK AO2 SLP190 T00720067 53015","lat":38.5037,"lon":-122.811,"elev":35,"name":"Santa Rosa/Schulz Arpt, CA, US","cover":"FEW","clouds":[{"cover":"FEW","base":3000}],"fltCat":"VFR"},{"icaoId":"KVEL","receiptTime":"2026-04-13T14:56:56.856Z","obsTime":1776091980,"reportTime":"2026-04-13T15:00:00.000Z","temp":8.3,"dewp":-3.9,"wdir":260,"wspd":10,"visib":"10+","altim":1016,"slp":1012.9,"qcField":6,"presTend":1.9,"metarType":"METAR","rawOb":"METAR KVEL 131453Z AUTO 26010KT 10SM CLR 08/M04 A3000 RMK AO2 SLP129 T00831039 51019","lat":40.4429,"lon":-109.5128,"elev":1604,"name":"Vernal Rgnl, UT, US","cover":"CLR","clouds":[],"fltCat":"VFR"},{"icaoId":"KLOL","receiptTime":"2026-04-13T14:57:02.021Z","obsTime":1776091980,"reportTime":"2026-04-13T15:00:00.000Z","temp":3.3,"dewp":-1.7,"wdir":80,"wspd":5,"visib":"10+","altim":1017,"slp":1017.3,"qcField":14,"presTend":0.8,"metarType":"METAR","rawOb":"METAR KLOL 131453Z AUTO 08005KT 10SM CLR 03/M02 A3003 RMK AO2 SLP173 T00331017 53008 $","lat":40.0684,"lon":-118.5702,"elev":1191,"name":"Lovelock/Derby Fld, NV, US","cover":"CLR","clouds":[],"fltCat":"VFR"},{"icaoId":"KIAH","receiptTime":"2026-04-13T14:57:05.668Z","obsTime":1776091980,"reportTime":"2026-04-13T15:00:00.000Z","temp":24.4,"dewp":21.1,"wdir":170,"wspd":10,"visib":"10+","altim":1020.7,"slp":1020.6,"qcField":4,"presTend":0.9,"metarType":"METAR","rawOb":"METAR KIAH 131453Z 17010KT 10SM FEW015 SCT033 BKN085 24/21 A3014 RMK AO2 SLP206 T02440211 51009","lat":29.9844,"lon":-95.3607,"elev":27,"name":"Houston/Bush Intl, TX, US","cover":"BKN","clouds":[{"cover":"FEW","base":1500},{"cover":"SCT","base":3300},{"cover":"BKN","base":8500}],"fltCat":"VFR"},{"icaoId":"KDRO","receiptTime":"2026-04-13T14:57:08.980Z","obsTime":1776091980,"reportTime":"2026-04-13T15:00:00.000Z","temp":5.6,"dewp":-4.4,"wdir":0,"wspd":0,"visib":"10+","altim":1020.1,"slp":1016.4,"qcField":6,"presTend":1.4,"metarType":"METAR","rawOb":"METAR KDRO 131453Z AUTO 00000KT 10SM CLR 06/M04 A3012 RMK AO2 SLP164 T00561044 51014","lat":37.1431,"lon":-107.7602,"elev":2021,"name":"Durango/La Plata Cnty, CO, US","cover":"CLR","clouds":[],"fltCat":"VFR"},{"icaoId":"KSBA","receiptTime":"2026-04-13T14:57:02.382Z","obsTime":1776091980,"reportTime":"2026-04-13T15:00:00.000Z","temp":12.8,"dewp":7.8,"wdir":0,"wspd":0,"visib":"10+","altim":1017.4,"slp":1017.1,"qcField":12,"presTend":0.9,"metarType":"METAR","rawOb":"METAR KSBA 131453Z 00000KT 10SM SCT080 13/08 A3004 RMK AO2 SLP171 T01280078 53009 $","lat":34.4241,"lon":-119.8425,"elev":2,"name":"Santa Barbara Muni, CA, US","cover":"SCT","clouds":[{"cover":"SCT","base":8000}],"fltCat":"VFR"},{"icaoId":"KMCI","receiptTime":"2026-04-13T14:57:03.040Z","obsTime":1776091980,"reportTime":"2026-04-13T15:00:00.000Z","temp":22.2,"dewp":18.3,"wdir":200,"wspd":16,"wgst":28,"visib":"10+","altim":1010.2,"slp":1009.3,"qcField":4,"presTend":0.6,"metarType":"METAR","rawOb":"METAR KMCI 131453Z 20016G28KT 10SM BKN023 OVC031 22/18 A2983 RMK AO2 PK WND 19028/1451 SLP093 T02220183 50006","lat":39.2975,"lon":-94.7309,"elev":308,"name":"Kansas City Intl, MO, US","cover":"OVC","clouds":[{"cover":"BKN","base":2300},{"cover":"OVC","base":3100}],"fltCat":"MVFR"},{"icaoId":"KDVT","receiptTime":"2026-04-13T14:57:09.063Z","obsTime":1776091980,"reportTime":"2026-04-13T15:00:00.000Z","temp":18.9,"dewp":7.8,"wdir":0,"wspd":0,"visib":"10+","altim":1015.3,"slp":1013.5,"qcField":12,"presTend":0.8,"metarType":"METAR","rawOb":"METAR KDVT 131453Z 00000KT 10SM CLR 19/08 A2998 RMK AO2 SLP135 T01890078 53008 $","lat":33.6902,"lon":-112.0662,"elev":454,"name":"Phoenix/Deer Valley Arpt, AZ, US","cover":"CLR","clouds":[],"fltCat":"VFR"},{"icaoId":"KCRQ","receiptTime":"2026-04-13T14:57:08.199Z","obsTime":1776091980,"reportTime":"2026-04-13T15:00:00.000Z","temp":15,"dewp":10,"wdir":150,"wspd":3,"visib":"10+","altim":1017,"slp":1016.6,"qcField":4,"presTend":0.8,"metarType":"METAR","rawOb":"METAR KCRQ 131453Z 15003KT 10SM SCT060 15/10 A3003 RMK AO2 SLP166 T01500100 53008","lat":33.1299,"lon":-117.2765,"elev":96,"name":"Carlsbad/Palomar Arpt, CA, US","cover":"SCT","clouds":[{"cover":"SCT","base":6000}],"fltCat":"VFR"},{"icaoId":"KPUB","receiptTime":"2026-04-13T14:57:06.590Z","obsTime":1776091980,"reportTime":"2026-04-13T15:00:00.000Z","temp":15.6,"dewp":-6.7,"wdir":0,"wspd":0,"visib":"10+","altim":1012.3,"slp":1007.4,"qcField":12,"presTend":1.7,"metarType":"METAR","rawOb":"METAR KPUB 131453Z 00000KT 10SM CLR 16/M07 A2989 RMK AO2 SLP074 T01561067 51017 $","lat":38.2887,"lon":-104.5057,"elev":1441,"name":"Pueblo Mem Arpt, CO, US","cover":"CLR","clouds":[],"fltCat":"VFR"},{"icaoId":"KPUW","receiptTime":"2026-04-13T14:57:06.620Z","obsTime":1776091980,"reportTime":"2026-04-13T15:00:00.000Z","temp":5,"dewp":4.4,"wdir":130,"wspd":7,"visib":6,"altim":1010.2,"slp":1011,"qcField":6,"wxString":"-RA BR","presTend":1.9,"precip":0.02,"pcp3hr":0.19,"metarType":"METAR","rawOb":"METAR KPUW 131453Z AUTO 13007KT 6SM -RA BR OVC009 05/04 A2983 RMK AO2 SLP110 P0002 60019 T00500044 53019","lat":46.7438,"lon":-117.1158,"elev":774,"name":"Pullman/Moscow Rgnl, WA, US","cover":"OVC","clouds":[{"cover":"OVC","base":900}],"fltCat":"IFR"},{"icaoId":"KBUR","receiptTime":"2026-04-13T14:57:10.837Z","obsTime":1776091980,"reportTime":"2026-04-13T15:00:00.000Z","temp":12.2,"dewp":7.8,"wdir":0,"wspd":0,"visib":"10+","altim":1017.4,"slp":1016.4,"qcField":4,"presTend":0.9,"metarType":"METAR","rawOb":"METAR KBUR 131453Z 00000KT 10SM CLR 12/08 A3004 RMK AO2 SLP164 T01220078 53009","lat":34.1996,"lon":-118.3654,"elev":221,"name":"Burbank/Bob Hope Arpt, CA, US","cover":"CLR","clouds":[],"fltCat":"VFR"},{"icaoId":"KCDC","receiptTime":"2026-04-13T14:57:10.957Z","obsTime":1776091980,"reportTime":"2026-04-13T15:00:00.000Z","temp":6.7,"dewp":1.7,"wdir":40,"wspd":7,"visib":"10+","altim":1015.7,"slp":1012.6,"qcField":6,"presTend":0.6,"metarType":"METAR","rawOb":"METAR KCDC 131453Z AUTO 04007KT 10SM BKN085 07/02 A2999 RMK AO2 SLP126 T00670017 53006","lat":37.7067,"lon":-113.097,"elev":1703,"name":"Cedar City Muni, UT, US","cover":"BKN","clouds":[{"cover":"BKN","base":8500}],"fltCat":"VFR"},{"icaoId":"KMIA","receiptTime":"2026-04-13T14:57:01.132Z","obsTime":1776091980,"reportTime":"2026-04-13T15:00:00.000Z","temp":26.1,"dewp":15,"wdir":80,"wspd":16,"wgst":27,"visib":"10+","altim":1024.8,"slp":1024.6,"qcField":0,"presTend":0.7,"metarType":"METAR","rawOb":"METAR KMIA 131453Z 08016G27KT 10SM FEW043 26/15 A3026 RMK PK WND 11027/1452 SLP246 T02610150 51007","lat":25.7881,"lon":-80.3169,"elev":1,"name":"Miami Intl, FL, US","cover":"FEW","clouds":[{"cover":"FEW","base":4300}],"fltCat":"VFR"},{"icaoId":"KGEG","receiptTime":"2026-04-13T14:57:08.619Z","obsTime":1776091980,"reportTime":"2026-04-13T15:00:00.000Z","temp":6.7,"dewp":6.1,"wdir":170,"wspd":9,"visib":"10+","altim":1008.5,"slp":1008.9,"qcField":12,"presTend":2,"precip":0.01,"pcp3hr":0.12,"metarType":"METAR","rawOb":"METAR KGEG 131453Z 17009KT 10SM BKN005 OVC011 07/06 A2978 RMK AO2 RAE12 SLP089 P0001 60012 T00670061 53020 $","lat":47.6217,"lon":-117.528,"elev":718,"name":"Spokane Intl, WA, US","cover":"OVC","clouds":[{"cover":"BKN","base":500},{"cover":"OVC","base":1100}],"fltCat":"IFR"},{"icaoId":"KBNA","receiptTime":"2026-04-13T14:57:05.328Z","obsTime":1776091980,"reportTime":"2026-04-13T15:00:00.000Z","temp":20.6,"dewp":12.8,"wdir":190,"wspd":8,"visib":"10+","altim":1024.1,"slp":1023.6,"qcField":4,"wxString":"-RA","presTend":1.4,"precip":0.005,"pcp3hr":0.005,"metarType":"METAR","rawOb":"METAR KBNA 131453Z 19008KT 10SM -RA BKN100 OVC150 21/13 A3024 RMK AO2 RAB43 SLP236 P0000 60000 T02060128 51014","lat":36.1105,"lon":-86.6881,"elev":168,"name":"Nashville Intl, TN, US","cover":"OVC","clouds":[{"cover":"BKN","base":10000},{"cover":"OVC","base":15000}],"fltCat":"VFR"},{"icaoId":"KACV","receiptTime":"2026-04-13T14:57:03.133Z","obsTime":1776091980,"reportTime":"2026-04-13T15:00:00.000Z","temp":8.9,"dewp":7.8,"wdir":80,"wspd":3,"visib":"10+","altim":1020.4,"slp":1021.1,"qcField":6,"presTend":1.1,"metarType":"METAR","rawOb":"METAR KACV 131453Z AUTO 08003KT 10SM CLR 09/08 A3013 RMK AO2 SLP211 T00890078 53011","lat":40.9784,"lon":-124.1048,"elev":63,"name":"Arcata Arpt, CA, US","cover":"CLR","clouds":[],"fltCat":"VFR"},{"icaoId":"KAMA","receiptTime":"2026-04-13T14:57:03.265Z","obsTime":1776091980,"reportTime":"2026-04-13T15:00:00.000Z","temp":21.7,"dewp":1.1,"wdir":250,"wspd":18,"wgst":24,"visib":"10+","altim":1016,"slp":1011.3,"qcField":4,"presTend":1.6,"metarType":"METAR","rawOb":"METAR KAMA 131453Z 25018G24KT 10SM CLR 22/01 A3000 RMK AO2 PK WND 25026/1439 SLP113 T02170011 51016","lat":35.2203,"lon":-101.7173,"elev":1102,"name":"Amarillo Intl Arpt, TX, US","cover":"CLR","clouds":[],"fltCat":"VFR"},{"icaoId":"KIDA","receiptTime":"2026-04-13T14:57:05.724Z","obsTime":1776091980,"reportTime":"2026-04-13T15:00:00.000Z","temp":5,"dewp":-0.6,"wdir":210,"wspd":13,"wgst":19,"visib":"10+","altim":1015,"slp":1014.9,"qcField":4,"presTend":1,"metarType":"METAR","rawOb":"METAR KIDA 131453Z 21013G19KT 10SM FEW038 05/M01 A2997 RMK AO2 SLP149 T00501006 53010","lat":43.5204,"lon":-112.0675,"elev":1444,"name":"Idaho Falls Rgnl, ID, US","cover":"FEW","clouds":[{"cover":"FEW","base":3800}],"fltCat":"VFR"},{"icaoId":"KLAR","receiptTime":"2026-04-13T14:57:05.899Z","obsTime":1776091980,"reportTime":"2026-04-13T15:00:00.000Z","temp":8.9,"dewp":-7.2,"wdir":280,"wspd":22,"wgst":29,"visib":"10+","altim":1013.6,"slp":1007.6,"qcField":6,"presTend":0.9,"metarType":"METAR","rawOb":"METAR KLAR 131453Z AUTO 28022G29KT 10SM SCT070 09/M07 A2993 RMK AO2 PK WND 28029/1452 WSHFT 1412 SLP076 T00891072 53009","lat":41.3165,"lon":-105.6729,"elev":2217,"name":"Laramie Rgnl, WY, US","cover":"SCT","clouds":[{"cover":"SCT","base":7000}],"fltCat":"VFR"},{"icaoId":"KCNM","receiptTime":"2026-04-13T14:57:11.138Z","obsTime":1776091980,"reportTime":"2026-04-13T15:00:00.000Z","temp":22.8,"dewp":2.8,"wdir":190,"wspd":3,"visib":"10+","altim":1019,"slp":1013.8,"qcField":6,"presTend":1.5,"metarType":"METAR","rawOb":"METAR KCNM 131453Z AUTO 19003KT 10SM CLR 23/03 A3009 RMK AO2 SLP138 T02280028 51015","lat":32.3336,"lon":-104.2584,"elev":993,"name":"Carlsbad/Cavern City Air Term, NM, US","cover":"CLR","clouds":[],"fltCat":"VFR"},{"icaoId":"KDTW","receiptTime":"2026-04-13T14:57:09.024Z","obsTime":1776091980,"reportTime":"2026-04-13T15:00:00.000Z","temp":20.6,"dewp":15.6,"wdir":240,"wspd":16,"wgst":26,"visib":"10+","altim":1013.6,"slp":1013.2,"qcField":12,"presTend":1.4,"pcp3hr":0.01,"metarType":"METAR","rawOb":"METAR KDTW 131453Z 24016G26KT 10SM BKN025 OVC050 21/16 A2993 RMK AO2 PK WND 22028/1417 SLP132 60001 T02060156 51014 $","lat":42.2311,"lon":-83.3312,"elev":192,"name":"Detroit/Metro Wayne Cnty, MI, US","cover":"OVC","clouds":[{"cover":"BKN","base":2500},{"cover":"OVC","base":5000}],"fltCat":"MVFR"},{"icaoId":"KLAX","receiptTime":"2026-04-13T14:57:08.562Z","obsTime":1776091980,"reportTime":"2026-04-13T15:00:00.000Z","temp":15,"dewp":8.9,"wdir":300,"wspd":5,"visib":"10+","altim":1017.4,"slp":1017.2,"qcField":12,"presTend":1,"metarType":"METAR","rawOb":"METAR KLAX 131453Z 30005KT 10SM FEW017 SCT050 BKN075 15/09 A3004 RMK AO2 SLP172 T01500089 53010 $","lat":33.9382,"lon":-118.3866,"elev":30,"name":"Los Angeles Intl, CA, US","cover":"BKN","clouds":[{"cover":"FEW","base":1700},{"cover":"SCT","base":5000},{"cover":"BKN","base":7500}],"fltCat":"VFR"},{"icaoId":"KTPA","receiptTime":"2026-04-13T14:56:58.358Z","obsTime":1776091980,"reportTime":"2026-04-13T15:00:00.000Z","temp":24.4,"dewp":15,"wdir":90,"wspd":8,"visib":"10+","altim":1026.8,"slp":1026.8,"qcField":4,"presTend":0.9,"metarType":"METAR","rawOb":"METAR KTPA 131453Z 09008KT 10SM SCT250 24/15 A3032 RMK AO2 SLP268 T02440150 50009","lat":27.9633,"lon":-82.54,"elev":2,"name":"Tampa Intl Arpt, FL, US","cover":"SCT","clouds":[{"cover":"SCT","base":25000}],"fltCat":"VFR"},{"icaoId":"KVGT","receiptTime":"2026-04-13T14:56:56.870Z","obsTime":1776091980,"reportTime":"2026-04-13T15:00:00.000Z","temp":13.3,"dewp":0,"wdir":0,"wspd":0,"visib":"10+","altim":1014,"slp":1014.7,"qcField":4,"presTend":1.7,"metarType":"METAR","rawOb":"METAR KVGT 131453Z 00000KT 10SM OVC075 13/00 A2994 RMK AO2 SLP147 T01330000 53017","lat":36.212,"lon":-115.194,"elev":664,"name":"Las Vegas/North Arpt, NV, US","cover":"OVC","clouds":[{"cover":"OVC","base":7500}],"fltCat":"VFR"},{"icaoId":"KSWO","receiptTime":"2026-04-13T14:56:58.000Z","obsTime":1776091980,"reportTime":"2026-04-13T15:00:00.000Z","temp":23.9,"dewp":18.9,"wdir":210,"wspd":17,"wgst":30,"visib":"10+","altim":1013.3,"slp":1012.1,"qcField":4,"presTend":1,"metarType":"METAR","rawOb":"METAR KSWO 131453Z 21017G30KT 10SM BKN023 OVC029 24/19 A2992 RMK AO2 PK WND 22030/1447 SLP121 T02390189 50010","lat":36.1624,"lon":-97.0832,"elev":293,"name":"Stillwater Muni, OK, US","cover":"OVC","clouds":[{"cover":"BKN","base":2300},{"cover":"OVC","base":2900}],"fltCat":"MVFR"},{"icaoId":"KSAF","receiptTime":"2026-04-13T14:56:58.662Z","obsTime":1776091980,"reportTime":"2026-04-13T15:00:00.000Z","temp":13.9,"dewp":-0.6,"wdir":260,"wspd":8,"wgst":20,"visib":"10+","altim":1020.1,"slp":1012.4,"qcField":12,"presTend":1.3,"metarType":"METAR","rawOb":"METAR KSAF 131453Z 26008G20KT 10SM CLR 14/M01 A3012 RMK AO2 SLP124 T01391006 51013 $","lat":35.611,"lon":-106.0957,"elev":1918,"name":"Santa Fe Cnty Muni, NM, US","cover":"CLR","clouds":[],"fltCat":"VFR"},{"icaoId":"KSDL","receiptTime":"2026-04-13T14:57:02.394Z","obsTime":1776091980,"reportTime":"2026-04-13T15:00:00.000Z","temp":19.4,"dewp":7.8,"wdir":300,"wspd":3,"visib":"10+","altim":1015.7,"slp":1013.8,"qcField":4,"presTend":1,"metarType":"METAR","rawOb":"METAR KSDL 131453Z 30003KT 10SM CLR 19/08 A2999 RMK AO2 SLP138 T01940078 53010","lat":33.6123,"lon":-111.9232,"elev":438,"name":"Scottsdale Muni, AZ, US","cover":"CLR","clouds":[],"fltCat":"VFR"},{"icaoId":"KSNA","receiptTime":"2026-04-13T14:57:02.493Z","obsTime":1776091980,"reportTime":"2026-04-13T15:00:00.000Z","temp":14.4,"dewp":10,"wdir":190,"wspd":4,"visib":"10+","altim":1017.7,"slp":1017.4,"qcField":12,"wxString":"-RA","presTend":1.1,"precip":0.005,"pcp3hr":0.005,"metarType":"METAR","rawOb":"METAR KSNA 131453Z 19004KT 10SM -RA FEW019 BKN045 OVC060 14/10 A3005 RMK AO2 RAB45 SLP174 P0000 60000 T01440100 53011 $","lat":33.6798,"lon":-117.8675,"elev":14,"name":"Santa Ana/Wayne Arpt, CA, US","cover":"OVC","clouds":[{"cover":"FEW","base":1900},{"cover":"BKN","base":4500},{"cover":"OVC","base":6000}],"fltCat":"VFR"},{"icaoId":"KMDW","receiptTime":"2026-04-13T14:57:01.032Z","obsTime":1776091980,"reportTime":"2026-04-13T15:00:00.000Z","temp":20,"dewp":17.2,"wdir":230,"wspd":10,"wgst":18,"visib":"10+","altim":1014,"slp":1013.4,"qcField":4,"presTend":1.6,"pcp3hr":0.005,"metarType":"METAR","rawOb":"METAR KMDW 131453Z 23010G18KT 10SM OVC021 20/17 A2994 RMK AO2 SLP134 60000 T02000172 51016","lat":41.7841,"lon":-87.7552,"elev":186,"name":"Chicago/Midway Intl, IL, US","cover":"OVC","clouds":[{"cover":"OVC","base":2100}],"fltCat":"MVFR"},{"icaoId":"KMLC","receiptTime":"2026-04-13T14:57:01.244Z","obsTime":1776091980,"reportTime":"2026-04-13T15:00:00.000Z","temp":22.8,"dewp":19.4,"wdir":190,"wspd":9,"wgst":17,"visib":"10+","altim":1017.4,"slp":1016.3,"qcField":6,"presTend":0.9,"metarType":"METAR","rawOb":"METAR KMLC 131453Z AUTO 19009G17KT 10SM OVC017 23/19 A3004 RMK AO2 SLP163 T02280194 50009","lat":34.8824,"lon":-95.7815,"elev":231,"name":"McAlester Rgnl, OK, US","cover":"OVC","clouds":[{"cover":"OVC","base":1700}],"fltCat":"MVFR"},{"icaoId":"KMSY","receiptTime":"2026-04-13T14:57:01.568Z","obsTime":1776091980,"reportTime":"2026-04-13T15:00:00.000Z","temp":24.4,"dewp":17.8,"wdir":150,"wspd":12,"visib":"10+","altim":1024.8,"slp":1024.9,"qcField":4,"presTend":2.5,"metarType":"METAR","rawOb":"METAR KMSY 131453Z 15012KT 10SM SCT023 SCT032 BKN250 24/18 A3026 RMK AO2 SLP249 T02440178 51025","lat":29.9974,"lon":-90.2777,"elev":0,"name":"New Orleans/Armstrong Intl, LA, US","cover":"BKN","clouds":[{"cover":"SCT","base":2300},{"cover":"SCT","base":3200},{"cover":"BKN","base":25000}],"fltCat":"VFR"},{"icaoId":"KMTJ","receiptTime":"2026-04-13T14:57:01.600Z","obsTime":1776091980,"reportTime":"2026-04-13T15:00:00.000Z","temp":11.7,"dewp":-3.9,"wdir":210,"wspd":6,"visib":"10+","altim":1018,"slp":1012.6,"qcField":6,"presTend":1,"metarType":"METAR","rawOb":"METAR KMTJ 131453Z AUTO 21006KT 10SM CLR 12/M04 A3006 RMK AO2 SLP126 T01171039 53010","lat":38.5054,"lon":-107.8981,"elev":1755,"name":"Montrose Rgnl, CO, US","cover":"CLR","clouds":[],"fltCat":"VFR"},{"icaoId":"KMYF","receiptTime":"2026-04-13T14:57:01.664Z","obsTime":1776091980,"reportTime":"2026-04-13T15:00:00.000Z","temp":15,"dewp":9.4,"wdir":260,"wspd":4,"visib":"10+","altim":1017.7,"slp":1017.2,"qcField":4,"presTend":1,"metarType":"METAR","rawOb":"METAR KMYF 131453Z 26004KT 10SM SCT024 SCT060 15/09 A3005 RMK AO2 SLP172 T01500094 53010","lat":32.8145,"lon":-117.1375,"elev":128,"name":"San Diego/Montgomery Arpt, CA, US","cover":"SCT","clouds":[{"cover":"SCT","base":2400},{"cover":"SCT","base":6000}],"fltCat":"VFR"},{"icaoId":"KGSP","receiptTime":"2026-04-13T14:57:01.788Z","obsTime":1776091980,"reportTime":"2026-04-13T15:00:00.000Z","temp":20.6,"dewp":13.3,"wdir":240,"wspd":8,"wgst":18,"visib":"10+","altim":1028.2,"slp":1027.1,"qcField":4,"presTend":0.4,"metarType":"METAR","rawOb":"METAR KGSP 131453Z 24008G18KT 10SM CLR 21/13 A3036 RMK AO2 SLP271 T02060133 50004","lat":34.8842,"lon":-82.2209,"elev":285,"name":"Greenville-Spartanburg Intl, SC, US","cover":"CLR","clouds":[],"fltCat":"VFR"},{"icaoId":"KLVS","receiptTime":"2026-04-13T14:57:02.142Z","obsTime":1776091980,"reportTime":"2026-04-13T15:00:00.000Z","temp":12.8,"dewp":-3.9,"wdir":190,"wspd":17,"wgst":25,"visib":"10+","altim":1019,"slp":1011.2,"qcField":14,"presTend":1,"metarType":"METAR","rawOb":"METAR KLVS 131453Z AUTO 19017G25KT 10SM CLR 13/M04 A3009 RMK AO2 PK WND 19026/1438 SLP112 6//// T01281039 51010 PNO $","lat":35.6558,"lon":-105.1385,"elev":2095,"name":"Las Vegas Muni, NM, US","cover":"CLR","clouds":[],"fltCat":"VFR"},{"icaoId":"KTUS","receiptTime":"2026-04-13T14:57:09.521Z","obsTime":1776091980,"reportTime":"2026-04-13T15:00:00.000Z","temp":20,"dewp":3.9,"wdir":340,"wspd":3,"visib":"10+","altim":1017.4,"slp":1013.6,"qcField":4,"presTend":0.8,"metarType":"METAR","rawOb":"METAR KTUS 131453Z 34003KT 10SM FEW080 20/04 A3004 RMK AO2 SLP136 T02000039 53008","lat":32.1315,"lon":-110.9564,"elev":776,"name":"Tucson Intl Arpt, AZ, US","cover":"FEW","clouds":[{"cover":"FEW","base":8000}],"fltCat":"VFR"},{"icaoId":"KTWF","receiptTime":"2026-04-13T14:57:02.355Z","obsTime":1776091980,"reportTime":"2026-04-13T15:00:00.000Z","temp":5.6,"dewp":-1.7,"wdir":200,"wspd":15,"wgst":22,"visib":"10+","altim":1015,"slp":1013.5,"qcField":4,"presTend":1.2,"metarType":"METAR","rawOb":"METAR KTWF 131453Z 20015G22KT 10SM CLR 06/M02 A2997 RMK AO2 SLP135 T00561017 53012","lat":42.4785,"lon":-114.4775,"elev":1269,"name":"Twin Falls/Joslin Fld, ID, US","cover":"CLR","clouds":[],"fltCat":"VFR"},{"icaoId":"KSHR","receiptTime":"2026-04-13T14:57:02.451Z","obsTime":1776091980,"reportTime":"2026-04-13T15:00:00.000Z","temp":8.3,"dewp":5,"wdir":340,"wspd":4,"visib":"10+","altim":1006.2,"slp":1006,"qcField":6,"presTend":0.8,"metarType":"METAR","rawOb":"METAR KSHR 131453Z AUTO 34004KT 10SM BKN110 08/05 A2971 RMK AO2 SLP060 T00830050 51008","lat":44.7603,"lon":-106.9741,"elev":1212,"name":"Sheridan Cnty Arpt, WY, US","cover":"BKN","clouds":[{"cover":"BKN","base":11000}],"fltCat":"VFR"},{"icaoId":"KPIH","receiptTime":"2026-04-13T14:57:02.970Z","obsTime":1776091980,"reportTime":"2026-04-13T15:00:00.000Z","temp":7.8,"dewp":0,"wdir":200,"wspd":13,"visib":"10+","altim":1015,"slp":1014.4,"qcField":4,"presTend":1.3,"metarType":"METAR","rawOb":"METAR KPIH 131453Z 20013KT 10SM BKN060 08/00 A2997 RMK AO2 SLP144 T00780000 53013","lat":42.9197,"lon":-112.5723,"elev":1357,"name":"Pocatello Rgnl, ID, US","cover":"BKN","clouds":[{"cover":"BKN","base":6000}],"fltCat":"VFR"},{"icaoId":"KMSP","receiptTime":"2026-04-13T14:57:03.007Z","obsTime":1776091980,"reportTime":"2026-04-13T15:00:00.000Z","temp":16.7,"dewp":11.1,"wdir":40,"wspd":6,"visib":"10+","altim":1008.9,"slp":1008.6,"qcField":4,"presTend":1.3,"metarType":"METAR","rawOb":"METAR KMSP 131453Z 04006KT 10SM FEW150 FEW220 BKN250 17/11 A2979 RMK AO2 SLP086 ACC DSNT SE-S T01670111 51013","lat":44.8852,"lon":-93.2313,"elev":255,"name":"Minneapolis-St Paul Intl, MN, US","cover":"BKN","clouds":[{"cover":"FEW","base":15000},{"cover":"FEW","base":22000},{"cover":"BKN","base":25000}],"fltCat":"VFR"},{"icaoId":"KBFI","receiptTime":"2026-04-13T14:57:05.112Z","obsTime":1776091980,"reportTime":"2026-04-13T15:00:00.000Z","temp":9.4,"dewp":5.6,"wdir":190,"wspd":8,"wgst":16,"visib":"10+","altim":1015.7,"slp":1015.4,"qcField":4,"presTend":1.7,"metarType":"METAR","rawOb":"METAR KBFI 131453Z 19008G16KT 10SM BKN017 BKN050 09/06 A2999 RMK AO2 SLP154 T00940056 53017","lat":47.5455,"lon":-122.3148,"elev":7,"name":"Seattle/Boeing Fld, WA, US","cover":"BKN","clouds":[{"cover":"BKN","base":1700},{"cover":"BKN","base":5000}],"fltCat":"MVFR"},{"icaoId":"KBHM","receiptTime":"2026-04-13T14:57:05.190Z","obsTime":1776091980,"reportTime":"2026-04-13T15:00:00.000Z","temp":20.6,"dewp":13.9,"wdir":190,"wspd":8,"visib":"10+","altim":1027.5,"slp":1026.9,"qcField":4,"presTend":1.7,"metarType":"METAR","rawOb":"METAR KBHM 131453Z 19008KT 10SM BKN250 21/14 A3034 RMK AO2 SLP269 T02060139 51017","lat":33.5655,"lon":-86.7449,"elev":191,"name":"Birmingham Intl, AL, US","cover":"BKN","clouds":[{"cover":"BKN","base":25000}],"fltCat":"VFR"},{"icaoId":"KBLI","receiptTime":"2026-04-13T14:57:05.298Z","obsTime":1776091980,"reportTime":"2026-04-13T15:00:00.000Z","temp":9.4,"dewp":6.7,"wdir":190,"wspd":8,"wgst":17,"visib":"10+","altim":1014,"slp":1014.4,"qcField":4,"wxString":"-RA","presTend":1.6,"precip":0.01,"pcp3hr":0.04,"metarType":"METAR","rawOb":"METAR KBLI 131453Z 19008G17KT 150V210 10SM -RA FEW032 SCT049 OVC065 09/07 A2994 RMK AO2 RAB1354 SLP144 P0001 60004 T00940067 53016","lat":48.7991,"lon":-122.5407,"elev":46,"name":"Bellingham Intl, WA, US","cover":"OVC","clouds":[{"cover":"FEW","base":3200},{"cover":"SCT","base":4900},{"cover":"OVC","base":6500}],"fltCat":"VFR"},{"icaoId":"KBRO","receiptTime":"2026-04-13T14:57:05.459Z","obsTime":1776091980,"reportTime":"2026-04-13T15:00:00.000Z","temp":26.7,"dewp":22.2,"wdir":150,"wspd":14,"visib":"10+","altim":1018.7,"slp":1018.6,"qcField":4,"presTend":1.6,"metarType":"METAR","rawOb":"METAR KBRO 131453Z 15014KT 10SM BKN018 OVC027 27/22 A3008 RMK AO2 SLP186 T02670222 51016","lat":25.9146,"lon":-97.4231,"elev":6,"name":"Brownsville Intl, TX, US","cover":"OVC","clouds":[{"cover":"BKN","base":1800},{"cover":"OVC","base":2700}],"fltCat":"MVFR"},{"icaoId":"KLAW","receiptTime":"2026-04-13T14:57:05.915Z","obsTime":1776091980,"reportTime":"2026-04-13T15:00:00.000Z","temp":22.8,"dewp":20,"wdir":190,"wspd":10,"visib":"10+","altim":1015.3,"slp":1014.1,"qcField":12,"presTend":0.7,"metarType":"METAR","rawOb":"METAR KLAW 131453Z 19010KT 10SM OVC019 23/20 A2998 RMK AO2 SLP141 T02280200 50007 $","lat":34.5577,"lon":-98.4172,"elev":328,"name":"Lawton-Fort Sill Rgnl, OK, US","cover":"OVC","clouds":[{"cover":"OVC","base":1900}],"fltCat":"MVFR"},{"icaoId":"KGJT","receiptTime":"2026-04-13T14:57:06.117Z","obsTime":1776091980,"reportTime":"2026-04-13T15:00:00.000Z","temp":13.3,"dewp":-6.7,"wdir":"VRB","wspd":3,"visib":"10+","altim":1016,"slp":1011.2,"qcField":4,"presTend":1.6,"metarType":"METAR","rawOb":"METAR KGJT 131453Z VRB03KT 10SM CLR 13/M07 A3000 RMK AO2 SLP112 T01331067 51016","lat":39.1344,"lon":-108.5408,"elev":1475,"name":"Grand Junction Rgnl, CO, US","cover":"CLR","clouds":[],"fltCat":"VFR"},{"icaoId":"KOGD","receiptTime":"2026-04-13T14:57:06.304Z","obsTime":1776091980,"reportTime":"2026-04-13T15:00:00.000Z","temp":5,"dewp":2.2,"wdir":180,"wspd":5,"visib":"10+","altim":1016.3,"slp":1014.7,"qcField":4,"presTend":0.6,"metarType":"METAR","rawOb":"METAR KOGD 131453Z 18005KT 10SM BKN039 05/02 A3001 RMK AO2 SLP147 T00500022 53006","lat":41.1941,"lon":-112.0168,"elev":1356,"name":"Ogden/Hinckley Arpt, UT, US","cover":"BKN","clouds":[{"cover":"BKN","base":3900}],"fltCat":"VFR"},{"icaoId":"KONT","receiptTime":"2026-04-13T14:57:06.411Z","obsTime":1776091980,"reportTime":"2026-04-13T15:00:00.000Z","temp":11.7,"dewp":8.9,"wdir":210,"wspd":4,"visib":"10+","altim":1017,"slp":1016.7,"qcField":12,"presTend":0.7,"precip":0.005,"pcp3hr":0.005,"metarType":"METAR","rawOb":"METAR KONT 131453Z 21004KT 10SM FEW015 SCT050 BKN065 12/09 A3003 RMK AO2 RAE16 SLP167 VCSH P0000 60000 T01170089 53007 $","lat":34.0531,"lon":-117.5769,"elev":279,"name":"Ontario Intl, CA, US","cover":"BKN","clouds":[{"cover":"FEW","base":1500},{"cover":"SCT","base":5000},{"cover":"BKN","base":6500}],"fltCat":"VFR"},{"icaoId":"KPRC","receiptTime":"2026-04-13T14:57:06.521Z","obsTime":1776091980,"reportTime":"2026-04-13T15:00:00.000Z","temp":8.9,"dewp":1.1,"wdir":150,"wspd":7,"visib":"10+","altim":1017.7,"slp":1013.1,"qcField":4,"presTend":0.4,"metarType":"METAR","rawOb":"METAR KPRC 131453Z 15007KT 10SM CLR 09/01 A3005 RMK AO2 SLP131 T00890011 53004","lat":34.6491,"lon":-112.4223,"elev":1528,"name":"Prescott/Love Fld, AZ, US","cover":"CLR","clouds":[],"fltCat":"VFR"},{"icaoId":"KPSC","receiptTime":"2026-04-13T14:57:06.538Z","obsTime":1776091980,"reportTime":"2026-04-13T15:00:00.000Z","temp":12.8,"dewp":4.4,"wdir":240,"wspd":12,"visib":"10+","altim":1010.9,"slp":1010.7,"qcField":4,"presTend":2.4,"metarType":"METAR","rawOb":"METAR KPSC 131453Z 24012KT 10SM OVC090 13/04 A2985 RMK AO2 SLP107 T01280044 53024","lat":46.2695,"lon":-119.1182,"elev":121,"name":"Pasco/Tri Cities Arpt, WA, US","cover":"OVC","clouds":[{"cover":"OVC","base":9000}],"fltCat":"VFR"},{"icaoId":"KRTN","receiptTime":"2026-04-13T14:57:06.819Z","obsTime":1776091980,"reportTime":"2026-04-13T15:00:00.000Z","temp":14.4,"dewp":-6.1,"wdir":"VRB","wspd":6,"visib":"10+","altim":1016.7,"slp":1010.6,"qcField":6,"presTend":1.1,"metarType":"METAR","rawOb":"METAR KRTN 131453Z AUTO VRB06KT 10SM CLR 14/M06 A3002 RMK AO2 SLP106 T01441061 51011","lat":36.7418,"lon":-104.5076,"elev":1939,"name":"Raton/Crews Fld, NM, US","cover":"CLR","clouds":[],"fltCat":"VFR"},{"icaoId":"KCLL","receiptTime":"2026-04-13T14:57:08.161Z","obsTime":1776091980,"reportTime":"2026-04-13T15:00:00.000Z","temp":23.3,"dewp":21.1,"wdir":170,"wspd":10,"wgst":17,"visib":"10+","altim":1020.4,"slp":1019.8,"qcField":4,"presTend":0.9,"metarType":"METAR","rawOb":"METAR KCLL 131453Z 17010G17KT 10SM BKN014 OVC019 23/21 A3013 RMK AO2 SLP198 T02330211 53009","lat":30.5912,"lon":-96.3631,"elev":96,"name":"College Station/Easterwood Arpt, TX, US","cover":"OVC","clouds":[{"cover":"BKN","base":1400},{"cover":"OVC","base":1900}],"fltCat":"MVFR"},{"icaoId":"KCNY","receiptTime":"2026-04-13T14:57:08.177Z","obsTime":1776091980,"reportTime":"2026-04-13T15:00:00.000Z","temp":12.8,"dewp":-2.8,"wdir":280,"wspd":6,"visib":"10+","altim":1015.3,"slp":1011.5,"qcField":14,"presTend":1.1,"metarType":"METAR","rawOb":"METAR KCNY 131453Z AUTO 28006KT 10SM CLR 13/M03 A2998 RMK AO2 SLP115 T01281028 51011 $","lat":38.7501,"lon":-109.7627,"elev":1392,"name":"Moab/Canyonland Fld, UT, US","cover":"CLR","clouds":[],"fltCat":"VFR"},{"icaoId":"KDMN","receiptTime":"2026-04-13T14:57:08.287Z","obsTime":1776091980,"reportTime":"2026-04-13T15:00:00.000Z","temp":16.7,"dewp":3.3,"wdir":0,"wspd":0,"visib":"10+","altim":1021.1,"slp":1015.1,"qcField":6,"presTend":1.7,"metarType":"METAR","rawOb":"METAR KDMN 131453Z AUTO 00000KT 10SM CLR 17/03 A3015 RMK AO2 SLP151 T01670033 53017","lat":32.2592,"lon":-107.7206,"elev":1310,"name":"Deming Muni, NM, US","cover":"CLR","clouds":[],"fltCat":"VFR"},{"icaoId":"KELY","receiptTime":"2026-04-13T14:57:08.319Z","obsTime":1776091980,"reportTime":"2026-04-13T15:00:00.000Z","temp":-8.3,"dewp":-9.4,"wdir":170,"wspd":10,"visib":"10+","altim":1016.7,"slp":1019,"qcField":14,"presTend":0.6,"metarType":"METAR","rawOb":"METAR KELY 131453Z AUTO 17010KT 10SM CLR M08/M09 A3002 RMK AO2 SLP190 I3000 T10831094 53006 $","lat":39.2954,"lon":-114.8466,"elev":1906,"name":"Ely/Yelland Fld, NV, US","cover":"CLR","clouds":[],"fltCat":"VFR"},{"icaoId":"KLBB","receiptTime":"2026-04-13T14:57:08.578Z","obsTime":1776091980,"reportTime":"2026-04-13T15:00:00.000Z","temp":21.1,"dewp":11.7,"wdir":210,"wspd":17,"wgst":24,"visib":"10+","altim":1017.7,"slp":1012.9,"qcField":4,"presTend":1.6,"metarType":"METAR","rawOb":"METAR KLBB 131453Z 21017G24KT 10SM FEW140 FEW180 SCT250 21/12 A3005 RMK AO2 SLP129 T02110117 51016","lat":33.6658,"lon":-101.8233,"elev":996,"name":"Lubbock Intl Arpt, TX, US","cover":"SCT","clouds":[{"cover":"FEW","base":14000},{"cover":"FEW","base":18000},{"cover":"SCT","base":25000}],"fltCat":"VFR"},{"icaoId":"KDFW","receiptTime":"2026-04-13T14:57:08.832Z","obsTime":1776091980,"reportTime":"2026-04-13T15:00:00.000Z","temp":21.7,"dewp":20,"wdir":180,"wspd":15,"wgst":23,"visib":"10+","altim":1017.7,"slp":1016.9,"qcField":4,"presTend":0.3,"metarType":"METAR","rawOb":"METAR KDFW 131453Z 18015G23KT 10SM BKN016 BKN024 OVC050 22/20 A3005 RMK AO2 SLP169 T02170200 51003","lat":32.8974,"lon":-97.022,"elev":168,"name":"Dallas-Ft Worth Intl, TX, US","cover":"OVC","clouds":[{"cover":"BKN","base":1600},{"cover":"BKN","base":2400},{"cover":"OVC","base":5000}],"fltCat":"MVFR"},{"icaoId":"KPDX","receiptTime":"2026-04-13T14:57:09.437Z","obsTime":1776091980,"reportTime":"2026-04-13T15:00:00.000Z","temp":9.4,"dewp":7.8,"wdir":300,"wspd":5,"visib":5,"altim":1018.4,"slp":1018.1,"qcField":4,"wxString":"-RA","presTend":1.6,"precip":0.005,"pcp3hr":0.01,"metarType":"METAR","rawOb":"METAR KPDX 131453Z 30005KT 5SM -RA FEW009 SCT015 OVC022 09/08 A3007 RMK AO2 RAB31 SLP181 P0000 60001 T00940078 53016","lat":45.5958,"lon":-122.6092,"elev":7,"name":"Portland Intl, OR, US","cover":"OVC","clouds":[{"cover":"FEW","base":900},{"cover":"SCT","base":1500},{"cover":"OVC","base":2200}],"fltCat":"MVFR"},{"icaoId":"KYKM","receiptTime":"2026-04-13T14:57:09.639Z","obsTime":1776091980,"reportTime":"2026-04-13T15:00:00.000Z","temp":11.7,"dewp":2.2,"wdir":330,"wspd":7,"visib":"10+","altim":1011.6,"slp":1011.4,"qcField":12,"presTend":1.9,"metarType":"METAR","rawOb":"METAR KYKM 131453Z 33007KT 10SM CLR 12/02 A2987 RMK AO2 SLP114 T01170022 53019 $","lat":46.564,"lon":-120.5349,"elev":319,"name":"Yakima/McAllister Fld, WA, US","cover":"CLR","clouds":[],"fltCat":"VFR"},{"icaoId":"PANC","receiptTime":"2026-04-13T14:57:09.879Z","obsTime":1776091980,"reportTime":"2026-04-13T15:00:00.000Z","temp":0,"dewp":-2.2,"wdir":170,"wspd":4,"visib":"10+","altim":1000.8,"slp":1000.9,"qcField":4,"presTend":0.4,"metarType":"METAR","rawOb":"METAR PANC 131453Z 17004KT 10SM SCT070 OVC080 00/M02 A2955 RMK AO2 SLP009 T00001022 53004","lat":61.1691,"lon":-150.0277,"elev":39,"name":"Anchorage Intl, AK, US","cover":"OVC","clouds":[{"cover":"SCT","base":7000},{"cover":"OVC","base":8000}],"fltCat":"VFR"},{"icaoId":"KFUL","receiptTime":"2026-04-13T14:57:10.281Z","obsTime":1776091980,"reportTime":"2026-04-13T15:00:00.000Z","temp":14.4,"dewp":10.6,"wdir":0,"wspd":0,"visib":"10+","altim":1017,"slp":1016.9,"qcField":6,"presTend":1,"metarType":"METAR","rawOb":"METAR KFUL 131453Z AUTO 00000KT 10SM BKN070 OVC085 14/11 A3003 RMK AO2 SLP169 T01440106 53010","lat":33.8715,"lon":-117.9856,"elev":23,"name":"Fullerton Muni, CA, US","cover":"OVC","clouds":[{"cover":"BKN","base":7000},{"cover":"OVC","base":8500}],"fltCat":"VFR"},{"icaoId":"KHOU","receiptTime":"2026-04-13T14:57:10.690Z","obsTime":1776091980,"reportTime":"2026-04-13T15:00:00.000Z","temp":25,"dewp":20.6,"wdir":180,"wspd":11,"visib":9,"altim":1020.7,"slp":1021,"qcField":12,"presTend":1.2,"metarType":"METAR","rawOb":"METAR KHOU 131453Z 18011KT 9SM BKN017 25/21 A3014 RMK AO2 SLP210 T02500206 51012 $","lat":29.6458,"lon":-95.2821,"elev":13,"name":"Houston/Hobby Arpt, TX, US","cover":"BKN","clouds":[{"cover":"BKN","base":1700}],"fltCat":"MVFR"},{"icaoId":"KCYS","receiptTime":"2026-04-13T14:57:11.345Z","obsTime":1776091980,"reportTime":"2026-04-13T15:00:00.000Z","temp":12.2,"dewp":-6.1,"wdir":250,"wspd":8,"visib":"10+","altim":1013.3,"slp":1007.2,"qcField":4,"presTend":1.5,"metarType":"METAR","rawOb":"METAR KCYS 131453Z 25008KT 10SM CLR 12/M06 A2992 RMK AO2 SLP072 T01221061 52015","lat":41.1579,"lon":-104.8081,"elev":1868,"name":"Cheyenne Rgnl, WY, US","cover":"CLR","clouds":[],"fltCat":"VFR"},{"icaoId":"KDEN","receiptTime":"2026-04-13T14:57:11.394Z","obsTime":1776091980,"reportTime":"2026-04-13T15:00:00.000Z","temp":15.6,"dewp":-8.3,"wdir":240,"wspd":5,"visib":"10+","altim":1012.3,"slp":1006.1,"qcField":4,"presTend":1.7,"metarType":"METAR","rawOb":"METAR KDEN 131453Z 24005KT 10SM FEW090 FEW140 BKN220 16/M08 A2989 RMK AO2 SLP061 T01561083 51017","lat":39.8466,"lon":-104.6562,"elev":1656,"name":"Denver Intl, CO, US","cover":"BKN","clouds":[{"cover":"FEW","base":9000},{"cover":"FEW","base":14000},{"cover":"BKN","base":22000}],"fltCat":"VFR"},{"icaoId":"KBOI","receiptTime":"2026-04-13T14:57:05.345Z","obsTime":1776091980,"reportTime":"2026-04-13T15:00:00.000Z","temp":4.4,"dewp":2.2,"wdir":140,"wspd":6,"visib":3,"altim":1014.6,"slp":1015.3,"qcField":4,"wxString":"RA BR","presTend":2.2,"precip":0.16,"pcp3hr":0.4,"metarType":"METAR","rawOb":"METAR KBOI 131453Z 14006KT 3SM RA BR OVC018 04/02 A2996 RMK AO2 SFC VIS 5 SLP153 P0016 60040 T00440022 51022","lat":43.567,"lon":-116.2406,"elev":860,"name":"Boise Arpt, ID, US","cover":"OVC","clouds":[{"cover":"OVC","base":1800}],"fltCat":"MVFR"},{"icaoId":"KLGB","receiptTime":"2026-04-13T14:57:01.929Z","obsTime":1776091980,"reportTime":"2026-04-13T15:00:00.000Z","temp":15,"dewp":8.3,"wdir":0,"wspd":0,"visib":"10+","altim":1017,"slp":1017,"qcField":12,"presTend":1.2,"metarType":"METAR","rawOb":"METAR KLGB 131453Z 00000KT 10SM OVC065 15/08 A3003 RMK AO2 SLP170 T01500083 53012 $","lat":33.8118,"lon":-118.1472,"elev":10,"name":"Long Beach Arpt, CA, US","cover":"OVC","clouds":[{"cover":"OVC","base":6500}],"fltCat":"VFR"},{"icaoId":"KMAF","receiptTime":"2026-04-13T14:57:02.184Z","obsTime":1776091980,"reportTime":"2026-04-13T15:00:00.000Z","temp":22.2,"dewp":16.7,"wdir":220,"wspd":11,"visib":8,"altim":1019,"slp":1014.9,"qcField":4,"presTend":1.3,"metarType":"METAR","rawOb":"METAR KMAF 131453Z 22011KT 8SM CLR 22/17 A3009 RMK AO2 SLP149 T02220167 52013","lat":31.9475,"lon":-102.2086,"elev":874,"name":"Midland Intl, TX, US","cover":"CLR","clouds":[],"fltCat":"VFR"},{"icaoId":"KMCO","receiptTime":"2026-04-13T14:57:01.000Z","obsTime":1776091980,"reportTime":"2026-04-13T15:00:00.000Z","temp":24.4,"dewp":14.4,"wdir":110,"wspd":8,"visib":"10+","altim":1027.5,"slp":1027.3,"qcField":4,"presTend":1.2,"metarType":"METAR","rawOb":"METAR KMCO 131453Z 11008KT 10SM FEW036 BKN250 24/14 A3034 RMK AO2 SLP273 T02440144 51012","lat":28.4182,"lon":-81.3241,"elev":27,"name":"Orlando Intl, FL, US","cover":"BKN","clouds":[{"cover":"FEW","base":3600},{"cover":"BKN","base":25000}],"fltCat":"VFR"},{"icaoId":"KAPA","receiptTime":"2026-04-13T14:57:03.355Z","obsTime":1776091980,"reportTime":"2026-04-13T15:00:00.000Z","temp":13.9,"dewp":-10.6,"wdir":180,"wspd":9,"visib":"10+","altim":1013,"slp":1008.5,"qcField":4,"presTend":1.5,"metarType":"METAR","rawOb":"METAR KAPA 131453Z 18009KT 10SM FEW110 FEW140 BKN220 14/M11 A2991 RMK AO2 SLP085 T01391106 51015","lat":39.5599,"lon":-104.8484,"elev":1791,"name":"Denver/Centennial Arpt, CO, US","cover":"BKN","clouds":[{"cover":"FEW","base":11000},{"cover":"FEW","base":14000},{"cover":"BKN","base":22000}],"fltCat":"VFR"},{"icaoId":"KSEA","receiptTime":"2026-04-13T14:57:09.572Z","obsTime":1776091980,"reportTime":"2026-04-13T15:00:00.000Z","temp":8.9,"dewp":5,"wdir":190,"wspd":13,"visib":"10+","altim":1015.3,"slp":1016,"qcField":4,"presTend":1.6,"metarType":"METAR","rawOb":"METAR KSEA 131453Z 19013KT 10SM FEW022 SCT036 BKN045 09/05 A2998 RMK AO2 SLP160 T00890050 53016","lat":47.4447,"lon":-122.3144,"elev":115,"name":"Seattle-Tacoma Intl, WA, US","cover":"BKN","clouds":[{"cover":"FEW","base":2200},{"cover":"SCT","base":3600},{"cover":"BKN","base":4500}],"fltCat":"VFR"},{"icaoId":"KFMN","receiptTime":"2026-04-13T14:57:08.389Z","obsTime":1776091980,"reportTime":"2026-04-13T15:00:00.000Z","temp":10,"dewp":-2.8,"wdir":40,"wspd":5,"visib":"10+","altim":1018.7,"slp":1015.4,"qcField":4,"presTend":1.3,"metarType":"METAR","rawOb":"METAR KFMN 131453Z 04005KT 10SM CLR 10/M03 A3008 RMK AO2 SLP154 T01001028 51013","lat":36.7435,"lon":-108.2293,"elev":1677,"name":"Farmington/Four Corners Rgnl, NM, US","cover":"CLR","clouds":[],"fltCat":"VFR"},{"icaoId":"KPGA","receiptTime":"2026-04-13T14:57:09.451Z","obsTime":1776091980,"reportTime":"2026-04-13T15:00:00.000Z","temp":13.3,"dewp":-3.9,"wdir":180,"wspd":3,"visib":"","altim":1016,"slp":1011.7,"qcField":14,"presTend":1.2,"metarType":"METAR","rawOb":"METAR KPGA 131453Z AUTO 18003KT BKN090 13/M04 A3000 RMK AO2 SLP117 T01331039 51012 $","lat":36.9211,"lon":-111.4487,"elev":1310,"name":"Page Muni, AZ, US","cover":"BKN","clouds":[{"cover":"BKN","base":9000}]},{"icaoId":"KSJC","receiptTime":"2026-04-13T14:57:02.466Z","obsTime":1776091980,"reportTime":"2026-04-13T15:00:00.000Z","temp":11.7,"dewp":9.4,"wdir":0,"wspd":0,"visib":"10+","altim":1019,"slp":1019,"qcField":12,"wxString":"-RA","presTend":1.4,"precip":0.005,"pcp3hr":0.005,"metarType":"METAR","rawOb":"METAR KSJC 131453Z 00000KT 10SM -RA FEW011 BKN021 BKN028 12/09 A3009 RMK AO2 RAB36 SLP190 P0000 60000 T01170094 53014 $","lat":37.3594,"lon":-121.9244,"elev":13,"name":"San Jose Intl Arpt, CA, US","cover":"BKN","clouds":[{"cover":"FEW","base":1100},{"cover":"BKN","base":2100},{"cover":"BKN","base":2800}],"fltCat":"MVFR"},{"icaoId":"KHRL","receiptTime":"2026-04-13T14:57:07.903Z","obsTime":1776091920,"reportTime":"2026-04-13T15:00:00.000Z","temp":25.6,"dewp":22.2,"wdir":160,"wspd":14,"visib":"10+","altim":1018.7,"slp":1018.3,"qcField":4,"presTend":1,"metarType":"METAR","rawOb":"METAR KHRL 131452Z 16014KT 10SM SCT017 OVC030 26/22 A3008 RMK AO2 SLP183 T02560222 51010","lat":26.2303,"lon":-97.6556,"elev":9,"name":"Harlingen/Valley Intl, TX, US","cover":"OVC","clouds":[{"cover":"SCT","base":1700},{"cover":"OVC","base":3000}],"fltCat":"MVFR"},{"icaoId":"KMKE","receiptTime":"2026-04-13T14:56:59.090Z","obsTime":1776091920,"reportTime":"2026-04-13T15:00:00.000Z","temp":20.6,"dewp":15.6,"wdir":240,"wspd":14,"wgst":25,"visib":"10+","altim":1011.6,"slp":1011.3,"qcField":4,"presTend":1.6,"metarType":"METAR","rawOb":"METAR KMKE 131452Z 24014G25KT 10SM BKN016 21/16 A2987 RMK AO2 SLP113 T02060156 51016","lat":42.9549,"lon":-87.9045,"elev":203,"name":"Milwaukee/Mitchell Intl, WI, US","cover":"BKN","clouds":[{"cover":"BKN","base":1600}],"fltCat":"MVFR"},{"icaoId":"KSPS","receiptTime":"2026-04-13T14:57:03.586Z","obsTime":1776091920,"reportTime":"2026-04-13T15:00:00.000Z","temp":24.4,"dewp":19.4,"wdir":200,"wspd":17,"wgst":27,"visib":"10+","altim":1015.3,"slp":1014,"qcField":4,"presTend":0.9,"metarType":"METAR","rawOb":"METAR KSPS 131452Z 20017G27KT 10SM SCT022 24/19 A2998 RMK AO2 PK WND 21027/1441 SLP140 SCT V BKN T02440194 50009","lat":33.9785,"lon":-98.493,"elev":310,"name":"Wichita Falls Rgnl, TX, US","cover":"SCT","clouds":[{"cover":"SCT","base":2200}],"fltCat":"VFR"},{"icaoId":"KDCA","receiptTime":"2026-04-13T14:57:07.575Z","obsTime":1776091920,"reportTime":"2026-04-13T15:00:00.000Z","temp":23.3,"dewp":14.4,"wdir":200,"wspd":14,"wgst":25,"visib":"10+","altim":1020.7,"slp":1020.6,"qcField":4,"presTend":-0.9,"metarType":"METAR","rawOb":"METAR KDCA 131452Z 20014G25KT 10SM FEW100 SCT150 BKN220 23/14 A3014 RMK AO2 SLP206 VIRGA SW T02330144 56009","lat":38.8472,"lon":-77.0345,"elev":4,"name":"Washington/Reagan-National Arpt, VA, US","cover":"BKN","clouds":[{"cover":"FEW","base":10000},{"cover":"SCT","base":15000},{"cover":"BKN","base":22000}],"fltCat":"VFR"},{"icaoId":"KMLF","receiptTime":"2026-04-13T14:57:03.570Z","obsTime":1776091920,"reportTime":"2026-04-13T15:00:00.000Z","temp":5.6,"dewp":0.6,"wdir":170,"wspd":5,"visib":"10+","altim":1016,"slp":1013.5,"qcField":6,"presTend":1.1,"metarType":"METAR","rawOb":"METAR KMLF 131452Z AUTO 17005KT 10SM BKN075 OVC100 06/01 A3000 RMK AO2 SLP135 T00560006 53011","lat":38.4225,"lon":-113.0109,"elev":1537,"name":"Milford Muni, UT, US","cover":"OVC","clouds":[{"cover":"BKN","base":7500},{"cover":"OVC","base":10000}],"fltCat":"VFR"},{"icaoId":"KABQ","receiptTime":"2026-04-13T14:57:03.446Z","obsTime":1776091920,"reportTime":"2026-04-13T15:00:00.000Z","temp":13.9,"dewp":1.1,"wdir":260,"wspd":8,"visib":"10+","altim":1020.1,"slp":1014.1,"qcField":4,"presTend":1.5,"metarType":"METAR","rawOb":"METAR KABQ 131452Z 26008KT 10SM FEW050 FEW110 OVC190 14/01 A3012 RMK AO2 SLP141 ACSL NE T01390011 52015","lat":35.0419,"lon":-106.6154,"elev":1620,"name":"Albuquerque Intl, NM, US","cover":"OVC","clouds":[{"cover":"FEW","base":5000},{"cover":"FEW","base":11000},{"cover":"OVC","base":19000}],"fltCat":"VFR"},{"icaoId":"KABI","receiptTime":"2026-04-13T14:57:03.428Z","obsTime":1776091920,"reportTime":"2026-04-13T15:00:00.000Z","temp":23.9,"dewp":19.4,"wdir":190,"wspd":14,"wgst":24,"visib":"10+","altim":1018,"slp":1015.6,"qcField":4,"presTend":1.7,"metarType":"METAR","rawOb":"METAR KABI 131452Z 19014G24KT 10SM FEW019 SCT025 24/19 A3006 RMK AO2 SLP156 T02390194 52017","lat":32.4106,"lon":-99.6821,"elev":543,"name":"Abilene Rgnl, TX, US","cover":"SCT","clouds":[{"cover":"FEW","base":1900},{"cover":"SCT","base":2500}],"fltCat":"VFR"},{"icaoId":"KOKC","receiptTime":"2026-04-13T14:56:59.255Z","obsTime":1776091920,"reportTime":"2026-04-13T15:00:00.000Z","temp":21.7,"dewp":18.9,"wdir":190,"wspd":16,"wgst":23,"visib":"10+","altim":1015,"slp":1013.6,"qcField":4,"presTend":0.7,"metarType":"METAR","rawOb":"METAR KOKC 131452Z 19016G23KT 10SM OVC017 22/19 A2997 RMK AO2 PK WND 19026/1404 SLP136 T02170189 50007","lat":35.3843,"lon":-97.6003,"elev":391,"name":"Oklahoma City/Will Rogers Intl, OK, US","cover":"OVC","clouds":[{"cover":"OVC","base":1700}],"fltCat":"MVFR"},{"icaoId":"KATL","receiptTime":"2026-04-13T14:57:00.221Z","obsTime":1776091920,"reportTime":"2026-04-13T15:00:00.000Z","temp":21.1,"dewp":11.7,"wdir":210,"wspd":7,"visib":"10+","altim":1027.9,"slp":1027.2,"qcField":12,"presTend":0.5,"metarType":"METAR","rawOb":"METAR KATL 131452Z 21007KT 10SM FEW150 SCT200 BKN250 21/12 A3035 RMK AO2 SLP272 VIRGA NE W T02110117 50005 $","lat":33.6297,"lon":-84.4422,"elev":309,"name":"Atlanta/Hartsfield-Jackson Intl, GA, US","cover":"BKN","clouds":[{"cover":"FEW","base":15000},{"cover":"SCT","base":20000},{"cover":"BKN","base":25000}],"fltCat":"VFR"},{"icaoId":"KCLT","receiptTime":"2026-04-13T14:57:00.292Z","obsTime":1776091920,"reportTime":"2026-04-13T15:00:00.000Z","temp":21.1,"dewp":13.9,"wdir":220,"wspd":12,"wgst":23,"visib":"10+","altim":1027.9,"slp":1028.6,"qcField":4,"metarType":"METAR","rawOb":"METAR KCLT 131452Z 22012G23KT 10SM FEW020 FEW200 BKN250 21/14 A3035 RMK AO2 SLP286 T02110139 58000","lat":35.2225,"lon":-80.9543,"elev":223,"name":"Charlotte/Douglas Intl, NC, US","cover":"BKN","clouds":[{"cover":"FEW","base":2000},{"cover":"FEW","base":20000},{"cover":"BKN","base":25000}],"fltCat":"VFR"},{"icaoId":"KIAD","receiptTime":"2026-04-13T14:57:07.934Z","obsTime":1776091920,"reportTime":"2026-04-13T15:00:00.000Z","temp":24.4,"dewp":13.3,"wdir":200,"wspd":12,"wgst":19,"visib":"10+","altim":1020.7,"slp":1020.5,"qcField":4,"presTend":-0.4,"metarType":"METAR","rawOb":"METAR KIAD 131452Z 20012G19KT 10SM FEW110 BKN160 OVC250 24/13 A3014 RMK AO2 SLP205 T02440133 55004","lat":38.9348,"lon":-77.4473,"elev":90,"name":"Washington/Dulles Intl, VA, US","cover":"OVC","clouds":[{"cover":"FEW","base":11000},{"cover":"BKN","base":16000},{"cover":"OVC","base":25000}],"fltCat":"VFR"},{"icaoId":"KCVG","receiptTime":"2026-04-13T14:57:07.496Z","obsTime":1776091920,"reportTime":"2026-04-13T15:00:00.000Z","temp":22.2,"dewp":13.3,"wdir":220,"wspd":11,"wgst":17,"visib":"10+","altim":1019.7,"slp":1018.8,"qcField":4,"presTend":0.9,"metarType":"METAR","rawOb":"METAR KCVG 131452Z 22011G17KT 190V260 10SM BKN039 OVC050 22/13 A3011 RMK AO2 SLP188 BINOVC T02220133 51009","lat":39.0444,"lon":-84.6724,"elev":264,"name":"Cincinnati Intl, KY, US","cover":"OVC","clouds":[{"cover":"BKN","base":3900},{"cover":"OVC","base":5000}],"fltCat":"VFR"},{"icaoId":"KBDL","receiptTime":"2026-04-13T14:54:08.623Z","obsTime":1776091860,"reportTime":"2026-04-13T15:00:00.000Z","temp":12.2,"dewp":9.4,"wdir":190,"wspd":9,"visib":"10+","altim":1017.4,"slp":1017.3,"qcField":4,"presTend":-3.2,"metarType":"METAR","rawOb":"METAR KBDL 131451Z 19009KT 10SM OVC012 12/09 A3004 RMK AO2 SLP173 T01220094 56032","lat":41.9374,"lon":-72.682,"elev":52,"name":"Hartford/Bradley Intl, CT, US","cover":"OVC","clouds":[{"cover":"OVC","base":1200}],"fltCat":"MVFR"},{"icaoId":"KRDU","receiptTime":"2026-04-13T14:54:09.860Z","obsTime":1776091860,"reportTime":"2026-04-13T15:00:00.000Z","temp":23.3,"dewp":12.2,"wdir":240,"wspd":17,"wgst":23,"visib":"10+","altim":1027.9,"slp":1027.3,"qcField":4,"presTend":-0.2,"metarType":"METAR","rawOb":"METAR KRDU 131451Z 24017G23KT 10SM FEW035 BKN250 23/12 A3035 RMK AO2 SLP273 T02330122 58002","lat":35.8923,"lon":-78.782,"elev":121,"name":"Raleigh-Durham Intl, NC, US","cover":"BKN","clouds":[{"cover":"FEW","base":3500},{"cover":"BKN","base":25000}],"fltCat":"VFR"},{"icaoId":"KPHX","receiptTime":"2026-04-13T14:54:09.756Z","obsTime":1776091860,"reportTime":"2026-04-13T15:00:00.000Z","temp":20.6,"dewp":6.1,"wdir":330,"wspd":5,"visib":"10+","altim":1014.3,"slp":1013,"qcField":12,"presTend":0.8,"metarType":"METAR","rawOb":"METAR KPHX 131451Z 33005KT 10SM SCT065 BKN150 BKN250 21/06 A2995 RMK AO2 SLP130 T02060061 53008 $","lat":33.4278,"lon":-112.0037,"elev":338,"name":"Phoenix/Sky Harbor Intl, AZ, US","cover":"BKN","clouds":[{"cover":"SCT","base":6500},{"cover":"BKN","base":15000},{"cover":"BKN","base":25000}],"fltCat":"VFR"},{"icaoId":"KSTL","receiptTime":"2026-04-13T14:54:08.393Z","obsTime":1776091860,"reportTime":"2026-04-13T15:00:00.000Z","temp":23.3,"dewp":17.2,"wdir":200,"wspd":11,"wgst":21,"visib":"10+","altim":1016.3,"slp":1015.2,"qcField":12,"presTend":0.9,"metarType":"METAR","rawOb":"METAR KSTL 131451Z 20011G21KT 10SM BKN032 BKN250 23/17 A3001 RMK AO2 SLP152 T02330172 51009 $","lat":38.7525,"lon":-90.3734,"elev":163,"name":"St Louis/Lambert Intl, MO, US","cover":"BKN","clouds":[{"cover":"BKN","base":3200},{"cover":"BKN","base":25000}],"fltCat":"VFR"},{"icaoId":"KVNY","receiptTime":"2026-04-13T14:54:08.486Z","obsTime":1776091860,"reportTime":"2026-04-13T15:00:00.000Z","temp":12.2,"dewp":8.3,"wdir":0,"wspd":0,"visib":"10+","altim":1017,"slp":1016.5,"qcField":12,"presTend":0.8,"metarType":"METAR","rawOb":"METAR KVNY 131451Z 00000KT 10SM SCT019 12/08 A3003 RMK AO2 SLP165 T01220083 53008 $","lat":34.2121,"lon":-118.4915,"elev":241,"name":"Van Nuys Arpt, CA, US","cover":"SCT","clouds":[{"cover":"SCT","base":1900}],"fltCat":"VFR"},{"icaoId":"KROW","receiptTime":"2026-04-13T14:54:09.877Z","obsTime":1776091860,"reportTime":"2026-04-13T15:00:00.000Z","temp":18.9,"dewp":2.8,"wdir":220,"wspd":8,"visib":"10+","altim":1018,"slp":1013.1,"qcField":4,"presTend":1.5,"metarType":"METAR","rawOb":"METAR KROW 131451Z 22008KT 10SM CLR 19/03 A3006 RMK AO2 SLP131 T01890028 51015","lat":33.3074,"lon":-104.5082,"elev":1105,"name":"Roswell/Ind Arpt, NM, US","cover":"CLR","clouds":[],"fltCat":"VFR"},{"icaoId":"KSAT","receiptTime":"2026-04-13T14:54:09.932Z","obsTime":1776091860,"reportTime":"2026-04-13T15:00:00.000Z","temp":23.3,"dewp":21.1,"wdir":160,"wspd":10,"visib":"10+","altim":1019.4,"slp":1017.8,"qcField":12,"presTend":1.7,"metarType":"METAR","rawOb":"METAR KSAT 131451Z 16010KT 10SM SCT013 BKN017 OVC038 23/21 A3010 RMK AO2 SLP178 T02330211 51017 $","lat":29.5443,"lon":-98.4839,"elev":246,"name":"San Antonio Intl, TX, US","cover":"OVC","clouds":[{"cover":"SCT","base":1300},{"cover":"BKN","base":1700},{"cover":"OVC","base":3800}],"fltCat":"MVFR"},{"icaoId":"KSAD","receiptTime":"2026-04-13T14:54:09.896Z","obsTime":1776091860,"reportTime":"2026-04-13T15:00:00.000Z","temp":15.6,"dewp":2.2,"wdir":160,"wspd":6,"visib":"10+","altim":1017.4,"slp":1013.8,"qcField":6,"presTend":0.8,"metarType":"METAR","rawOb":"METAR KSAD 131451Z AUTO 16006KT 10SM CLR 16/02 A3004 RMK AO2 SLP138 T01560022 51008","lat":32.8565,"lon":-109.636,"elev":937,"name":"Safford Rgnl, AZ, US","cover":"CLR","clouds":[],"fltCat":"VFR"},{"icaoId":"KPVD","receiptTime":"2026-04-13T14:54:09.819Z","obsTime":1776091860,"reportTime":"2026-04-13T15:00:00.000Z","temp":15,"dewp":11.1,"wdir":230,"wspd":16,"wgst":26,"visib":"10+","altim":1018.4,"slp":1018.4,"qcField":4,"presTend":-2,"metarType":"METAR","rawOb":"METAR KPVD 131451Z 23016G26KT 10SM OVC015 15/11 A3007 RMK AO2 PK WND 23026/1450 SLP184 T01500111 56020","lat":41.7225,"lon":-71.4325,"elev":15,"name":"Providence/Green Mem, RI, US","cover":"OVC","clouds":[{"cover":"OVC","base":1500}],"fltCat":"MVFR"},{"icaoId":"KPIT","receiptTime":"2026-04-13T14:54:09.779Z","obsTime":1776091860,"reportTime":"2026-04-13T15:00:00.000Z","temp":22.8,"dewp":11.1,"wdir":230,"wspd":14,"wgst":24,"visib":"10+","altim":1017.7,"slp":1017.4,"qcField":4,"presTend":1,"pcp3hr":0.005,"metarType":"METAR","rawOb":"METAR KPIT 131451Z 23014G24KT 10SM FEW055 SCT140 BKN220 23/11 A3005 RMK AO2 PK WND 23029/1441 SLP174 60000 T02280111 51010","lat":40.4814,"lon":-80.2083,"elev":339,"name":"Pittsburgh Intl, PA, US","cover":"BKN","clouds":[{"cover":"FEW","base":5500},{"cover":"SCT","base":14000},{"cover":"BKN","base":22000}],"fltCat":"VFR"},{"icaoId":"KLGU","receiptTime":"2026-04-13T14:54:09.610Z","obsTime":1776091860,"reportTime":"2026-04-13T15:00:00.000Z","temp":5,"dewp":1.1,"wdir":0,"wspd":0,"visib":"10+","altim":1016.3,"slp":1015.3,"qcField":6,"presTend":0.9,"metarType":"METAR","rawOb":"METAR KLGU 131451Z AUTO 00000KT 10SM FEW036 05/01 A3001 RMK AO2 SLP153 T00500011 52009","lat":41.7865,"lon":-111.8519,"elev":1359,"name":"Logan/Cache Arpt, UT, US","cover":"FEW","clouds":[{"cover":"FEW","base":3600}],"fltCat":"VFR"},{"icaoId":"KLGA","receiptTime":"2026-04-13T14:54:09.581Z","obsTime":1776091860,"reportTime":"2026-04-13T15:00:00.000Z","temp":17.8,"dewp":11.7,"wdir":"VRB","wspd":6,"visib":"10+","altim":1018,"slp":1017.9,"qcField":12,"presTend":-2.4,"metarType":"METAR","rawOb":"METAR KLGA 131451Z VRB06KT 10SM FEW018 BKN150 BKN250 18/12 A3006 RMK AO2 SLP179 T01780117 56024 $","lat":40.7794,"lon":-73.8803,"elev":9,"name":"New York/La Guardia Arpt, NY, US","cover":"BKN","clouds":[{"cover":"FEW","base":1800},{"cover":"BKN","base":15000},{"cover":"BKN","base":25000}],"fltCat":"VFR"},{"icaoId":"KCMH","receiptTime":"2026-04-13T14:54:09.350Z","obsTime":1776091860,"reportTime":"2026-04-13T15:00:00.000Z","temp":22.8,"dewp":12.8,"wdir":230,"wspd":12,"wgst":24,"visib":"10+","altim":1018.4,"slp":1017.6,"qcField":4,"presTend":0.7,"metarType":"METAR","rawOb":"METAR KCMH 131451Z 23012G24KT 10SM BKN045 BKN075 23/13 A3007 RMK AO2 SLP176 T02280128 50007","lat":39.9907,"lon":-82.877,"elev":257,"name":"Columbus/Glenn Intl, OH, US","cover":"BKN","clouds":[{"cover":"BKN","base":4500},{"cover":"BKN","base":7500}],"fltCat":"VFR"},{"icaoId":"KJFK","receiptTime":"2026-04-13T14:54:09.089Z","obsTime":1776091860,"reportTime":"2026-04-13T15:00:00.000Z","temp":13.3,"dewp":10,"wdir":190,"wspd":10,"visib":"10+","altim":1019,"slp":1019,"qcField":4,"presTend":-2.5,"metarType":"METAR","rawOb":"METAR KJFK 131451Z 19010KT 10SM FEW020 BKN160 13/10 A3009 RMK AO2 SLP190 T01330100 58025","lat":40.6392,"lon":-73.7639,"elev":3,"name":"New York/JF Kennedy Intl, NY, US","cover":"BKN","clouds":[{"cover":"FEW","base":2000},{"cover":"BKN","base":16000}],"fltCat":"VFR"},{"icaoId":"KEWR","receiptTime":"2026-04-13T14:54:08.922Z","obsTime":1776091860,"reportTime":"2026-04-13T15:00:00.000Z","temp":18.9,"dewp":12.8,"wdir":230,"wspd":13,"visib":"10+","altim":1018.4,"slp":1018.1,"qcField":4,"presTend":-2.9,"metarType":"METAR","rawOb":"METAR KEWR 131451Z 23013KT 10SM FEW015 FEW060 BKN150 BKN250 19/13 A3007 RMK AO2 SLP181 T01890128 58029","lat":40.6828,"lon":-74.1692,"elev":2,"name":"Newark Intl, NJ, US","cover":"BKN","clouds":[{"cover":"FEW","base":1500},{"cover":"FEW","base":6000},{"cover":"BKN","base":15000},{"cover":"BKN","base":25000}],"fltCat":"VFR"},{"icaoId":"KCRP","receiptTime":"2026-04-13T14:54:08.787Z","obsTime":1776091860,"reportTime":"2026-04-13T15:00:00.000Z","temp":26.1,"dewp":22.2,"wdir":160,"wspd":22,"visib":"10+","altim":1019,"slp":1018.7,"qcField":4,"presTend":1.3,"metarType":"METAR","rawOb":"METAR KCRP 131451Z 16022KT 10SM BKN014 BKN019 26/22 A3009 RMK AO2 PK WND 16028/1439 SLP187 T02610222 51013","lat":27.7734,"lon":-97.513,"elev":11,"name":"Corpus Christi Intl, TX, US","cover":"BKN","clouds":[{"cover":"BKN","base":1400},{"cover":"BKN","base":1900}],"fltCat":"MVFR"},{"icaoId":"KELP","receiptTime":"2026-04-13T14:54:08.862Z","obsTime":1776091860,"reportTime":"2026-04-13T15:00:00.000Z","temp":19.4,"dewp":2.8,"wdir":140,"wspd":6,"visib":"10+","altim":1020.4,"slp":1014.2,"qcField":4,"presTend":1.5,"metarType":"METAR","rawOb":"METAR KELP 131451Z 14006KT 10SM FEW110 SCT160 BKN250 19/03 A3013 RMK AO2 SLP142 VIRGA SW-W T01940028 51015","lat":31.8123,"lon":-106.3774,"elev":1205,"name":"El Paso Intl, TX, US","cover":"BKN","clouds":[{"cover":"FEW","base":11000},{"cover":"SCT","base":16000},{"cover":"BKN","base":25000}],"fltCat":"VFR"},{"icaoId":"KORF","receiptTime":"2026-04-13T14:54:09.719Z","obsTime":1776091860,"reportTime":"2026-04-13T15:00:00.000Z","temp":23.9,"dewp":15,"wdir":230,"wspd":17,"wgst":27,"visib":"10+","altim":1025.8,"slp":1025.5,"qcField":4,"presTend":-0.8,"precip":0.005,"pcp3hr":0.005,"metarType":"METAR","rawOb":"METAR KORF 131451Z 23017G27KT 10SM CLR 24/15 A3029 RMK AO2 PK WND 23028/1414 RAB1352E1357B16E38 SLP255 P0000 60000 T02390150 58008","lat":36.9037,"lon":-76.1927,"elev":5,"name":"Norfolk Intl, VA, US","cover":"CLR","clouds":[],"fltCat":"VFR"},{"icaoId":"KOXR","receiptTime":"2026-04-13T14:54:09.734Z","obsTime":1776091860,"reportTime":"2026-04-13T15:00:00.000Z","temp":12.8,"dewp":8.9,"wdir":40,"wspd":5,"visib":"10+","altim":1017.4,"slp":1017.1,"qcField":4,"presTend":0.9,"metarType":"METAR","rawOb":"METAR KOXR 131451Z 04005KT 10SM CLR 13/09 A3004 RMK AO2 SLP171 T01280089 53009","lat":34.2001,"lon":-119.2042,"elev":12,"name":"Oxnard Arpt, CA, US","cover":"CLR","clouds":[],"fltCat":"VFR"},{"icaoId":"KCLE","receiptTime":"2026-04-13T14:54:08.726Z","obsTime":1776091860,"reportTime":"2026-04-13T15:00:00.000Z","temp":21.7,"dewp":14.4,"wdir":230,"wspd":15,"wgst":23,"visib":"10+","altim":1015,"slp":1016.1,"qcField":12,"presTend":1.1,"pcp3hr":0.01,"metarType":"METAR","rawOb":"METAR KCLE 131451Z 23015G23KT 10SM BKN048 BKN080 22/14 A2997 RMK AO2 SLP161 60001 T02170144 51011 $","lat":41.4057,"lon":-81.8519,"elev":237,"name":"Cleveland/Hopkins Intl, OH, US","cover":"BKN","clouds":[{"cover":"BKN","base":4800},{"cover":"BKN","base":8000}],"fltCat":"VFR"},{"icaoId":"KIGM","receiptTime":"2026-04-13T14:54:09.026Z","obsTime":1776091860,"reportTime":"2026-04-13T15:00:00.000Z","temp":11.7,"dewp":3.9,"wdir":240,"wspd":7,"visib":"10+","altim":1015.7,"slp":1010.9,"qcField":6,"presTend":0.9,"metarType":"METAR","rawOb":"METAR KIGM 131451Z AUTO 24007KT 10SM BKN060 12/04 A2999 RMK AO2 SLP109 T01170039 53009","lat":35.2575,"lon":-113.9341,"elev":1045,"name":"Kingman Arpt, AZ, US","cover":"BKN","clouds":[{"cover":"BKN","base":6000}],"fltCat":"VFR"},{"icaoId":"KSAN","receiptTime":"2026-04-13T14:54:09.914Z","obsTime":1776091860,"reportTime":"2026-04-13T15:00:00.000Z","temp":16.7,"dewp":10,"wdir":290,"wspd":5,"visib":"10+","altim":1018,"slp":1017.9,"qcField":12,"presTend":1.1,"metarType":"METAR","rawOb":"METAR KSAN 131451Z 29005KT 10SM FEW025 SCT040 SCT200 17/10 A3006 RMK AO2 SLP179 T01670100 53011 $","lat":32.7364,"lon":-117.1973,"elev":3,"name":"San Diego Intl Arpt, CA, US","cover":"SCT","clouds":[{"cover":"FEW","base":2500},{"cover":"SCT","base":4000},{"cover":"SCT","base":20000}],"fltCat":"VFR"},{"icaoId":"KHOB","receiptTime":"2026-04-13T14:49:29.100Z","obsTime":1776091800,"reportTime":"2026-04-13T15:00:00.000Z","temp":21,"dewp":5,"wdir":200,"wspd":9,"wgst":14,"visib":"10+","altim":1019.7,"qcField":0,"metarType":"METAR","rawOb":"METAR KHOB 131450Z 20009G14KT 10SM CLR 21/05 A3011","lat":32.6797,"lon":-103.2222,"elev":1112,"name":"Hobbs Arpt, NM, US","cover":"CLR","clouds":[],"fltCat":"VFR"},{"icaoId":"KGEU","receiptTime":"2026-04-13T14:50:49.087Z","obsTime":1776091740,"reportTime":"2026-04-13T15:00:00.000Z","temp":19,"dewp":8,"wdir":0,"wspd":0,"visib":"10+","altim":1014.3,"qcField":0,"metarType":"METAR","rawOb":"METAR KGEU 131449Z 00000KT 10SM 19/08 A2995","lat":33.528,"lon":-112.293,"elev":319,"name":"Glendale Muni, AZ, US"},{"icaoId":"KAEG","receiptTime":"2026-04-13T14:50:48.624Z","obsTime":1776091620,"reportTime":"2026-04-13T15:00:00.000Z","temp":11,"dewp":0,"wdir":0,"wspd":0,"visib":"10+","altim":1020.7,"qcField":0,"metarType":"METAR","rawOb":"METAR KAEG 131447Z 00000KT 10SM CLR 11/00 A3014","lat":35.15,"lon":-106.7929,"elev":1771,"name":"Albuquerque/Double Eagle Arpt, NM, US","cover":"CLR","clouds":[],"fltCat":"VFR"},{"icaoId":"KCHD","receiptTime":"2026-04-13T14:49:28.981Z","obsTime":1776091620,"reportTime":"2026-04-13T15:00:00.000Z","temp":20,"dewp":6,"wdir":230,"wspd":3,"visib":"10+","altim":1015.3,"qcField":0,"metarType":"METAR","rawOb":"METAR KCHD 131447Z 23003KT 10SM BKN160 20/06 A2998","lat":33.2669,"lon":-111.8086,"elev":378,"name":"Chandler Muni, AZ, US","cover":"BKN","clouds":[{"cover":"BKN","base":16000}],"fltCat":"VFR"},{"icaoId":"KSUN","receiptTime":"2026-04-13T14:51:59.360Z","obsTime":1776091620,"reportTime":"2026-04-13T15:00:00.000Z","temp":2,"dewp":-1,"wdir":140,"wspd":12,"visib":"10+","altim":1014.6,"qcField":0,"metarType":"METAR","rawOb":"METAR KSUN 131447Z 14012KT 10SM OVC026 02/M01 A2996","lat":43.4969,"lon":-114.2923,"elev":1619,"name":"Hailey/Friedman Mem, ID, US","cover":"OVC","clouds":[{"cover":"OVC","base":2600}],"fltCat":"MVFR"},{"icaoId":"KIFP","receiptTime":"2026-04-13T14:47:07.981Z","obsTime":1776091620,"reportTime":"2026-04-13T15:00:00.000Z","temp":18,"dewp":1,"wdir":170,"wspd":10,"visib":"10+","altim":1014,"qcField":0,"metarType":"METAR","rawOb":"METAR KIFP 131447Z 17010KT 10SM CLR 18/01 A2994","lat":35.1487,"lon":-114.5611,"elev":210,"name":"Bullhead City Intl, AZ, US","cover":"CLR","clouds":[],"fltCat":"VFR"},{"icaoId":"KGYR","receiptTime":"2026-04-13T14:48:07.075Z","obsTime":1776091620,"reportTime":"2026-04-13T15:00:00.000Z","temp":19,"dewp":8,"wdir":"VRB","wspd":3,"visib":"10+","altim":1015.3,"qcField":0,"metarType":"METAR","rawOb":"METAR KGYR 131447Z VRB03KT 10SM SCT065 BKN180 OVC250 19/08 A2998","lat":33.428,"lon":-112.368,"elev":292,"name":"Phoenix/Goodyear Muni, AZ, US","cover":"OVC","clouds":[{"cover":"SCT","base":6500},{"cover":"BKN","base":18000},{"cover":"OVC","base":25000}],"fltCat":"VFR"},{"icaoId":"KRYN","receiptTime":"2026-04-13T14:47:08.392Z","obsTime":1776091500,"reportTime":"2026-04-13T15:00:00.000Z","temp":20,"dewp":3,"wdir":0,"wspd":0,"visib":"10+","altim":1016.7,"qcField":0,"metarType":"METAR","rawOb":"METAR KRYN 131445Z 00000KT 10SM CLR 20/03 A3002","lat":32.1418,"lon":-111.1767,"elev":731,"name":"Tucson/Ryan Fld, AZ, US","cover":"CLR","clouds":[],"fltCat":"VFR"},{"icaoId":"KBJC","receiptTime":"2026-04-13T14:50:48.912Z","obsTime":1776091500,"reportTime":"2026-04-13T15:00:00.000Z","temp":16,"dewp":-9,"wdir":280,"wspd":20,"wgst":25,"visib":"10+","altim":1012.6,"qcField":0,"metarType":"METAR","rawOb":"METAR KBJC 131445Z 28020G25KT 10SM FEW030 SCT150 16/M09 A2990","lat":39.9008,"lon":-105.1042,"elev":1694,"name":"Rocky Mtn Metro, CO, US","cover":"SCT","clouds":[{"cover":"FEW","base":3000},{"cover":"SCT","base":15000}],"fltCat":"VFR"},{"icaoId":"KRTS","receiptTime":"2026-04-13T15:00:04.398Z","obsTime":1776091500,"reportTime":"2026-04-13T15:00:00.000Z","temp":0,"dewp":-3,"wdir":330,"wspd":3,"visib":"10+","altim":1018,"qcField":6,"metarType":"METAR","rawOb":"METAR KRTS 131445Z AUTO 33003KT 10SM BKN031 BKN037 M00/M03 A3006 RMK AO2","lat":39.6658,"lon":-119.8731,"elev":1537,"name":"Reno/Stead Arpt, NV, US","cover":"BKN","clouds":[{"cover":"BKN","base":3100},{"cover":"BKN","base":3700}],"fltCat":"VFR"},{"icaoId":"KMEV","receiptTime":"2026-04-13T15:00:16.417Z","obsTime":1776089700,"reportTime":"2026-04-13T14:15:00.000Z","temp":1,"dewp":1,"wdir":0,"wspd":0,"visib":1.25,"altim":1017.4,"qcField":6,"wxString":"BR","metarType":"METAR","rawOb":"METAR KMEV 131415Z AUTO 00000KT 1 1/4SM BR OVC003 01/01 A3004 RMK AO2 VIS 1/4V5","lat":38.9963,"lon":-119.75,"elev":1437,"name":"Minden-Tahoe Arpt, NV, US","cover":"OVC","clouds":[{"cover":"OVC","base":300}],"fltCat":"LIFR"}]