[{"icaoId":"KMAF","receiptTime":"2026-04-12T10:47:06.401Z","obsTime":1775990640,"reportTime":"2026-04-12T10:44:00.000Z","temp":14.4,"dewp":13.3,"wdir":170,"wspd":13,"wgst":20,"visib":9,"altim":1016,"qcField":6,"metarType":"SPECI","rawOb":"SPECI KMAF 121044Z AUTO 17013G20KT 9SM SCT006 14/13 A3000 RMK AO2 T01440133","lat":31.9475,"lon":-102.2086,"elev":874,"name":"Midland Intl, TX, US","cover":"SCT","clouds":[{"cover":"SCT","base":600}],"fltCat":"VFR"},{"icaoId":"KVNY","receiptTime":"2026-04-12T10:46:05.543Z","obsTime":1775990580,"reportTime":"2026-04-12T10:43:00.000Z","temp":13.3,"dewp":12.2,"wdir":170,"wspd":8,"visib":4,"altim":1013,"qcField":14,"wxString":"-RA BR","precip":0.03,"metarType":"SPECI","rawOb":"SPECI KVNY 121043Z AUTO 17008KT 4SM -RA BR FEW009 BKN021 OVC041 13/12 A2991 RMK AO2 RAB05 P0003 T01330122 $","lat":34.2121,"lon":-118.4915,"elev":241,"name":"Van Nuys Arpt, CA, US","cover":"OVC","clouds":[{"cover":"FEW","base":900},{"cover":"BKN","base":2100},{"cover":"OVC","base":4100}],"fltCat":"MVFR"},{"icaoId":"KOKC","receiptTime":"2026-04-12T10:46:04.232Z","obsTime":1775990520,"reportTime":"2026-04-12T10:42:00.000Z","temp":18.3,"dewp":17.8,"wdir":160,"wspd":12,"visib":5,"altim":1012.6,"qcField":4,"wxString":"RA BR","precip":0.12,"metarType":"SPECI","rawOb":"SPECI KOKC 121042Z 16012KT 5SM RA BR BKN006 BKN012 OVC046 18/18 A2990 RMK AO2 P0012 T01830178","lat":35.3843,"lon":-97.6003,"elev":391,"name":"Oklahoma City/Will Rogers Intl, OK, US","cover":"OVC","clouds":[{"cover":"BKN","base":600},{"cover":"BKN","base":1200},{"cover":"OVC","base":4600}],"fltCat":"IFR"},{"icaoId":"KHRL","receiptTime":"2026-04-12T10:44:09.420Z","obsTime":1775990460,"reportTime":"2026-04-12T10:41:00.000Z","temp":23.9,"dewp":22.2,"wdir":140,"wspd":13,"visib":"10+","altim":1015.3,"qcField":6,"metarType":"SPECI","rawOb":"SPECI KHRL 121041Z AUTO 14013KT 10SM SCT016 SCT031 24/22 A2998 RMK AO2 T02390222","lat":26.2303,"lon":-97.6556,"elev":9,"name":"Harlingen/Valley Intl, TX, US","cover":"SCT","clouds":[{"cover":"SCT","base":1600},{"cover":"SCT","base":3100}],"fltCat":"VFR"},{"icaoId":"KCRP","receiptTime":"2026-04-12T10:44:09.389Z","obsTime":1775990460,"reportTime":"2026-04-12T10:41:00.000Z","temp":23.3,"dewp":22.2,"wdir":150,"wspd":16,"visib":"10+","altim":1016,"qcField":4,"precip":0.01,"metarType":"SPECI","rawOb":"SPECI KCRP 121041Z 15016KT 10SM SCT013 SCT038 OVC065 23/22 A3000 RMK AO2 RAB11E29 P0001 T02330222","lat":27.7734,"lon":-97.513,"elev":11,"name":"Corpus Christi Intl, TX, US","cover":"OVC","clouds":[{"cover":"SCT","base":1300},{"cover":"SCT","base":3800},{"cover":"OVC","base":6500}],"fltCat":"VFR"},{"icaoId":"KDFW","receiptTime":"2026-04-12T10:42:04.489Z","obsTime":1775990280,"reportTime":"2026-04-12T10:38:00.000Z","temp":20,"dewp":18.3,"wdir":170,"wspd":15,"wgst":26,"visib":"10+","altim":1013.6,"qcField":4,"wxString":"-RA","precip":0.03,"metarType":"SPECI","rawOb":"SPECI KDFW 121038Z 17015G26KT 10SM -RA SCT013 SCT050 BKN110 OVC150 20/18 A2993 RMK AO2 PK WND 17032/1020 P0003 T02000183","lat":32.8974,"lon":-97.022,"elev":168,"name":"Dallas-Ft Worth Intl, TX, US","cover":"OVC","clouds":[{"cover":"SCT","base":1300},{"cover":"SCT","base":5000},{"cover":"BKN","base":11000},{"cover":"OVC","base":15000}],"fltCat":"VFR"},{"icaoId":"KRTN","receiptTime":"2026-04-12T10:40:17.962Z","obsTime":1775990160,"reportTime":"2026-04-12T10:36:00.000Z","temp":2.2,"dewp":2.2,"wdir":40,"wspd":4,"visib":8,"altim":1015.7,"qcField":6,"metarType":"SPECI","rawOb":"SPECI KRTN 121036Z AUTO 04004KT 8SM FEW002 02/02 A2999 RMK AO2 T00220022","lat":36.7418,"lon":-104.5076,"elev":1939,"name":"Raton/Crews Fld, NM, US","cover":"FEW","clouds":[{"cover":"FEW","base":200}],"fltCat":"VFR"},{"icaoId":"KRTS","receiptTime":"2026-04-12T10:40:22.319Z","obsTime":1775990100,"reportTime":"2026-04-12T10:35:00.000Z","temp":2,"dewp":-6,"wdir":160,"wspd":12,"wgst":18,"visib":"10+","altim":1005.8,"qcField":6,"metarType":"METAR","rawOb":"METAR KRTS 121035Z AUTO 16012G18KT 140V210 10SM FEW120 02/M06 A2970 RMK AO2","lat":39.6658,"lon":-119.8731,"elev":1537,"name":"Reno/Stead Arpt, NV, US","cover":"FEW","clouds":[{"cover":"FEW","base":12000}],"fltCat":"VFR"},{"icaoId":"KMEV","receiptTime":"2026-04-12T10:40:19.691Z","obsTime":1775990100,"reportTime":"2026-04-12T10:35:00.000Z","temp":1,"dewp":-2,"wdir":160,"wspd":10,"visib":"10+","altim":1007.2,"qcField":6,"metarType":"METAR","rawOb":"METAR KMEV 121035Z AUTO 16010KT 10SM FEW027 SCT036 BKN043 01/M02 A2974 RMK AO2","lat":38.9963,"lon":-119.75,"elev":1437,"name":"Minden-Tahoe Arpt, NV, US","cover":"BKN","clouds":[{"cover":"FEW","base":2700},{"cover":"SCT","base":3600},{"cover":"BKN","base":4300}],"fltCat":"VFR"},{"icaoId":"KIFP","receiptTime":"2026-04-12T10:40:18.708Z","obsTime":1775990100,"reportTime":"2026-04-12T10:35:00.000Z","temp":20,"dewp":3,"wdir":210,"wspd":7,"visib":"10+","altim":1007.9,"qcField":6,"metarType":"METAR","rawOb":"METAR KIFP 121035Z AUTO 21007KT 10SM CLR 20/03 A2976 RMK AO2","lat":35.1487,"lon":-114.5611,"elev":210,"name":"Bullhead City Intl, AZ, US","cover":"CLR","clouds":[],"fltCat":"VFR"},{"icaoId":"KHII","receiptTime":"2026-04-12T10:42:06.029Z","obsTime":1775990100,"reportTime":"2026-04-12T10:35:00.000Z","temp":20,"dewp":5,"wdir":120,"wspd":15,"visib":"10+","altim":1008.9,"qcField":6,"metarType":"METAR","rawOb":"METAR KHII 121035Z AUTO 12015KT 10SM CLR 20/05 A2979 RMK AO2","lat":34.5659,"lon":-114.3522,"elev":241,"name":"Lake Havasu City Arpt, AZ, US","cover":"CLR","clouds":[],"fltCat":"VFR"},{"icaoId":"KLRU","receiptTime":"2026-04-12T10:38:18.717Z","obsTime":1775990100,"reportTime":"2026-04-12T10:35:00.000Z","temp":10.4,"dewp":6.2,"wdir":0,"wspd":0,"visib":"10+","altim":1018.4,"qcField":6,"metarType":"METAR","rawOb":"METAR KLRU 121035Z AUTO 00000KT 10SM SCT100 BKN120 10/06 A3007 RMK AO2 T01040062","lat":32.2884,"lon":-106.9131,"elev":1355,"name":"Las Cruces Intl, NM, US","cover":"BKN","clouds":[{"cover":"SCT","base":10000},{"cover":"BKN","base":12000}],"fltCat":"VFR"},{"icaoId":"KBJC","receiptTime":"2026-04-12T10:40:24.449Z","obsTime":1775990100,"reportTime":"2026-04-12T10:35:00.000Z","temp":8,"dewp":-7,"wdir":240,"wspd":4,"visib":"10+","altim":1010.2,"qcField":6,"metarType":"METAR","rawOb":"METAR KBJC 121035Z AUTO 24004KT 10SM CLR 08/M07 A2983 RMK AO2","lat":39.9008,"lon":-105.1042,"elev":1694,"name":"Rocky Mtn Metro, CO, US","cover":"CLR","clouds":[],"fltCat":"VFR"},{"icaoId":"KHCR","receiptTime":"2026-04-12T10:38:18.337Z","obsTime":1775990100,"reportTime":"2026-04-12T10:35:00.000Z","temp":0.1,"dewp":-2.8,"wdir":0,"wspd":0,"visib":"10+","altim":1009.2,"qcField":14,"metarType":"METAR","rawOb":"METAR KHCR 121035Z AUTO 00000KT 10SM CLR 00/M03 A2980 RMK AO2 T00011028 $","lat":40.4774,"lon":-111.4329,"elev":1708,"name":"Heber City Muni, UT, US","cover":"CLR","clouds":[],"fltCat":"VFR"},{"icaoId":"KCHD","receiptTime":"2026-04-12T10:38:14.338Z","obsTime":1775990100,"reportTime":"2026-04-12T10:35:00.000Z","temp":17.4,"dewp":1.9,"wdir":130,"wspd":4,"visib":"10+","altim":1011.9,"qcField":14,"metarType":"METAR","rawOb":"METAR KCHD 121035Z AUTO 13004KT 10SM CLR 17/02 A2988 RMK AO2 T01740019 $","lat":33.2669,"lon":-111.8086,"elev":378,"name":"Chandler Muni, AZ, US","cover":"CLR","clouds":[],"fltCat":"VFR"},{"icaoId":"KHAF","receiptTime":"2026-04-12T10:38:18.314Z","obsTime":1775990100,"reportTime":"2026-04-12T10:35:00.000Z","wdir":260,"wspd":11,"wgst":17,"visib":8,"altim":1009.2,"qcField":6,"metarType":"METAR","rawOb":"METAR KHAF 121035Z AUTO 26011G17KT 8SM FEW003 BKN026 BKN038 A2980 RMK AO2","lat":37.5136,"lon":-122.4996,"elev":11,"name":"Half Moon Bay Arpt, CA, US","cover":"BKN","clouds":[{"cover":"FEW","base":300},{"cover":"BKN","base":2600},{"cover":"BKN","base":3800}],"fltCat":"MVFR"},{"icaoId":"KHOB","receiptTime":"2026-04-12T10:38:18.695Z","obsTime":1775990100,"reportTime":"2026-04-12T10:35:00.000Z","temp":12,"dewp":12,"wdir":200,"wspd":7,"visib":0.25,"altim":1016,"qcField":6,"wxString":"FG","metarType":"METAR","rawOb":"METAR KHOB 121035Z AUTO 20007KT 1/4SM FG OVC002 12/12 A3000 RMK AO2","lat":32.6797,"lon":-103.2222,"elev":1112,"name":"Hobbs Arpt, NM, US","cover":"OVC","clouds":[{"cover":"OVC","base":200}],"fltCat":"LIFR"},{"icaoId":"KAEG","receiptTime":"2026-04-12T10:42:10.608Z","obsTime":1775990100,"reportTime":"2026-04-12T10:35:00.000Z","temp":6.5,"dewp":-0.7,"wdir":230,"wspd":9,"visib":"10+","altim":1017.7,"qcField":6,"metarType":"METAR","rawOb":"METAR KAEG 121035Z AUTO 23009KT 10SM CLR 07/M01 A3005 RMK AO2 T00651007","lat":35.15,"lon":-106.7929,"elev":1771,"name":"Albuquerque/Double Eagle Arpt, NM, US","cover":"CLR","clouds":[],"fltCat":"VFR"},{"icaoId":"KBVU","receiptTime":"2026-04-12T10:36:27.033Z","obsTime":1775990100,"reportTime":"2026-04-12T10:35:00.000Z","temp":15,"dewp":0,"wdir":280,"wspd":6,"visib":"10+","altim":1008.2,"qcField":6,"metarType":"METAR","rawOb":"METAR KBVU 121035Z AUTO 28006KT 10SM CLR 15/M00 A2977 RMK AO2","lat":35.9489,"lon":-114.8633,"elev":654,"name":"Boulder City Muni, NV, US","cover":"CLR","clouds":[],"fltCat":"VFR"},{"icaoId":"KSOW","receiptTime":"2026-04-12T10:38:19.050Z","obsTime":1775990100,"reportTime":"2026-04-12T10:35:00.000Z","temp":8,"dewp":-1,"wdir":180,"wspd":9,"visib":"10+","altim":1019,"qcField":6,"metarType":"METAR","rawOb":"METAR KSOW 121035Z AUTO 18009KT 10SM CLR 08/M01 A3009 RMK AO2","lat":34.2686,"lon":-110.0019,"elev":1954,"name":"Show Low Muni, AZ, US","cover":"CLR","clouds":[],"fltCat":"VFR"},{"icaoId":"KSEZ","receiptTime":"2026-04-12T10:40:22.751Z","obsTime":1775990100,"reportTime":"2026-04-12T10:35:00.000Z","temp":11,"dewp":-7,"wdir":160,"wspd":6,"visib":"10+","altim":1015.7,"qcField":6,"metarType":"METAR","rawOb":"METAR KSEZ 121035Z AUTO 16006KT 10SM CLR 11/M07 A2999 RMK AO2","lat":34.8467,"lon":-111.7884,"elev":1455,"name":"Sedona Arpt, AZ, US","cover":"CLR","clouds":[],"fltCat":"VFR"},{"icaoId":"KIWA","receiptTime":"2026-04-12T10:40:18.841Z","obsTime":1775990100,"reportTime":"2026-04-12T10:35:00.000Z","temp":18,"dewp":0.6,"wdir":130,"wspd":7,"visib":"10+","altim":1012.6,"qcField":6,"metarType":"METAR","rawOb":"METAR KIWA 121035Z AUTO 13007KT 10SM CLR 18/01 A2990 RMK AO2 T01800006","lat":33.3008,"lon":-111.6437,"elev":420,"name":"Phoenix/Mesa Gateway Arpt, AZ, US","cover":"CLR","clouds":[],"fltCat":"VFR"},{"icaoId":"KCXP","receiptTime":"2026-04-12T10:40:24.869Z","obsTime":1775990100,"reportTime":"2026-04-12T10:35:00.000Z","temp":1,"dewp":-1,"wdir":200,"wspd":11,"visib":"10+","altim":1007.2,"qcField":6,"metarType":"METAR","rawOb":"METAR KCXP 121035Z AUTO 20011KT 10SM FEW042 FEW050 FEW120 01/M01 A2974 RMK AO2","lat":39.1905,"lon":-119.7319,"elev":1431,"name":"Carson City Arpt, NV, US","cover":"FEW","clouds":[{"cover":"FEW","base":4200},{"cover":"FEW","base":5000},{"cover":"FEW","base":12000}],"fltCat":"VFR"},{"icaoId":"KHTH","receiptTime":"2026-04-12T10:40:20.913Z","obsTime":1775990100,"reportTime":"2026-04-12T10:35:00.000Z","temp":6,"dewp":1,"wdir":260,"wspd":10,"wgst":18,"visib":7,"altim":1006.5,"qcField":6,"metarType":"METAR","rawOb":"METAR KHTH 121035Z AUTO 26010G18KT 7SM BKN027 BKN038 OVC060 06/01 A2972 RMK A01","lat":38.5448,"lon":-118.6314,"elev":1281,"name":"Hawthorne Muni, NV, US","cover":"OVC","clouds":[{"cover":"BKN","base":2700},{"cover":"BKN","base":3800},{"cover":"OVC","base":6000}],"fltCat":"MVFR"},{"icaoId":"PANC","receiptTime":"2026-04-12T10:36:27.526Z","obsTime":1775989980,"reportTime":"2026-04-12T10:33:00.000Z","temp":0,"dewp":-0.6,"wdir":200,"wspd":3,"visib":1.5,"altim":1006.9,"qcField":12,"wxString":"-SN BR","precip":0.02,"metarType":"SPECI","rawOb":"SPECI PANC 121033Z 20003KT 1 1/2SM -SN BR SCT005 OVC018 00/M01 A2973 RMK AO2 P0002 T00001006 $","lat":61.1691,"lon":-150.0277,"elev":39,"name":"Anchorage Intl, AK, US","cover":"OVC","clouds":[{"cover":"SCT","base":500},{"cover":"OVC","base":1800}],"fltCat":"IFR"},{"icaoId":"KMSP","receiptTime":"2026-04-12T10:34:03.402Z","obsTime":1775989800,"reportTime":"2026-04-12T10:30:00.000Z","temp":13.9,"dewp":12.2,"wdir":150,"wspd":9,"visib":9,"altim":1004.1,"qcField":4,"metarType":"SPECI","rawOb":"SPECI KMSP 121030Z 15009KT 9SM BKN031 OVC075 14/12 A2965 RMK AO2 LTG DSNT NE-S T01390122","lat":44.8852,"lon":-93.2313,"elev":255,"name":"Minneapolis-St Paul Intl, MN, US","cover":"OVC","clouds":[{"cover":"BKN","base":3100},{"cover":"OVC","base":7500}],"fltCat":"VFR"},{"icaoId":"KMHR","receiptTime":"2026-04-12T10:40:19.729Z","obsTime":1775989800,"reportTime":"2026-04-12T10:30:00.000Z","temp":10,"dewp":10,"wdir":130,"wspd":7,"visib":"10+","altim":1008.2,"qcField":6,"metarType":"METAR","rawOb":"METAR KMHR 121030Z AUTO 13007KT 10SM BKN036 BKN042 OVC055 10/10 A2977 RMK AO2","lat":38.56,"lon":-121.284,"elev":30,"name":"Sacramento/Mather Fld, CA, US","cover":"OVC","clouds":[{"cover":"BKN","base":3600},{"cover":"BKN","base":4200},{"cover":"OVC","base":5500}],"fltCat":"VFR"},{"icaoId":"KJAX","receiptTime":"2026-04-12T10:24:05.640Z","obsTime":1775989200,"reportTime":"2026-04-12T10:20:00.000Z","temp":11.1,"dewp":10,"wdir":0,"wspd":0,"visib":"10+","altim":1025.5,"qcField":12,"metarType":"SPECI","rawOb":"SPECI KJAX 121020Z 00000KT 10SM FEW004 11/10 A3028 RMK AO2 T01110100 $","lat":30.4953,"lon":-81.6937,"elev":8,"name":"Jacksonville Intl, FL, US","cover":"FEW","clouds":[{"cover":"FEW","base":400}],"fltCat":"VFR"},{"icaoId":"KRDU","receiptTime":"2026-04-12T10:24:05.310Z","obsTime":1775989200,"reportTime":"2026-04-12T10:20:00.000Z","temp":15,"dewp":11.7,"wdir":80,"wspd":7,"visib":"10+","altim":1028.2,"qcField":4,"metarType":"SPECI","rawOb":"SPECI KRDU 121020Z 08007KT 10SM BKN013 15/12 A3036 RMK AO2 T01500117","lat":35.8923,"lon":-78.782,"elev":121,"name":"Raleigh-Durham Intl, NC, US","cover":"BKN","clouds":[{"cover":"BKN","base":1300}],"fltCat":"MVFR"},{"icaoId":"KCLL","receiptTime":"2026-04-12T10:22:14.121Z","obsTime":1775989140,"reportTime":"2026-04-12T10:19:00.000Z","temp":21.1,"dewp":19.4,"wdir":150,"wspd":4,"visib":"10+","altim":1018.4,"qcField":6,"metarType":"SPECI","rawOb":"SPECI KCLL 121019Z AUTO 15004KT 10SM BKN014 OVC050 21/19 A3007 RMK AO2 T02110194","lat":30.5912,"lon":-96.3631,"elev":96,"name":"College Station/Easterwood Arpt, TX, US","cover":"OVC","clouds":[{"cover":"BKN","base":1400},{"cover":"OVC","base":5000}],"fltCat":"MVFR"},{"icaoId":"KCMA","receiptTime":"2026-04-12T10:22:14.139Z","obsTime":1775989140,"reportTime":"2026-04-12T10:19:00.000Z","temp":16.1,"dewp":12.8,"wdir":190,"wspd":7,"visib":"10+","altim":1012.6,"qcField":6,"metarType":"SPECI","rawOb":"SPECI KCMA 121019Z AUTO 19007KT 10SM SCT021 SCT070 16/13 A2990 RMK AO2 T01610128","lat":34.2114,"lon":-119.0876,"elev":20,"name":"Camarillo Arpt, CA, US","cover":"SCT","clouds":[{"cover":"SCT","base":2100},{"cover":"SCT","base":7000}],"fltCat":"VFR"},{"icaoId":"KSEA","receiptTime":"2026-04-12T10:22:14.188Z","obsTime":1775989140,"reportTime":"2026-04-12T10:19:00.000Z","temp":8.3,"dewp":7.8,"wdir":10,"wspd":7,"visib":0.25,"altim":1004.8,"qcField":4,"wxString":"FG","vertVis":1,"metarType":"SPECI","rawOb":"SPECI KSEA 121019Z 01007KT 1/4SM R16L/1400V2200FT FG VV001 08/08 A2967 RMK AO2 T00830078","lat":47.4447,"lon":-122.3144,"elev":115,"name":"Seattle-Tacoma Intl, WA, US","cover":"OVX","clouds":[{"cover":"OVX","base":100}],"fltCat":"LIFR"},{"icaoId":"KBUR","receiptTime":"2026-04-12T10:22:09.698Z","obsTime":1775989080,"reportTime":"2026-04-12T10:18:00.000Z","temp":14.4,"dewp":11.7,"wdir":140,"wspd":7,"visib":"10+","altim":1013.6,"qcField":4,"wxString":"-RA","precip":0.01,"metarType":"SPECI","rawOb":"SPECI KBUR 121018Z 14007KT 10SM -RA FEW015 BKN033 OVC047 14/12 A2993 RMK AO2 RAB01 P0001 T01440117","lat":34.1996,"lon":-118.3654,"elev":221,"name":"Burbank/Bob Hope Arpt, CA, US","cover":"OVC","clouds":[{"cover":"FEW","base":1500},{"cover":"BKN","base":3300},{"cover":"OVC","base":4700}],"fltCat":"VFR"},{"icaoId":"KDAL","receiptTime":"2026-04-12T10:06:05.790Z","obsTime":1775988120,"reportTime":"2026-04-12T10:02:00.000Z","temp":20.6,"dewp":18.3,"wdir":150,"wspd":15,"wgst":29,"visib":8,"altim":1015,"qcField":4,"wxString":"-RA","precip":0.01,"metarType":"SPECI","rawOb":"SPECI KDAL 121002Z 15015G29KT 8SM -RA SCT017 BKN043 OVC120 21/18 A2997 RMK AO2 PK WND 15029/0959 PRESFR P0001 T02060183","lat":32.8384,"lon":-96.8358,"elev":148,"name":"Dallas/Love Fld, TX, US","cover":"OVC","clouds":[{"cover":"SCT","base":1700},{"cover":"BKN","base":4300},{"cover":"OVC","base":12000}],"fltCat":"VFR"},{"icaoId":"KSBA","receiptTime":"2026-04-12T10:04:04.909Z","obsTime":1775988000,"reportTime":"2026-04-12T10:00:00.000Z","temp":13.9,"dewp":13.3,"wdir":270,"wspd":8,"visib":3,"altim":1012.6,"qcField":14,"wxString":"-RA BR","precip":0.005,"metarType":"SPECI","rawOb":"SPECI KSBA 121000Z AUTO 27008KT 3SM -RA BR FEW009 SCT014 OVC030 14/13 A2990 RMK AO2 P0000 T01390133 $","lat":34.4241,"lon":-119.8425,"elev":2,"name":"Santa Barbara Muni, CA, US","cover":"OVC","clouds":[{"cover":"FEW","base":900},{"cover":"SCT","base":1400},{"cover":"OVC","base":3000}],"fltCat":"MVFR"},{"icaoId":"KFLG","receiptTime":"2026-04-12T10:00:24.672Z","obsTime":1775987820,"reportTime":"2026-04-12T10:00:00.000Z","temp":4.4,"dewp":-7.8,"wdir":220,"wspd":8,"visib":"10+","altim":1017.4,"slp":1010.9,"qcField":14,"metarType":"METAR","rawOb":"METAR KFLG 120957Z AUTO 22008KT 10SM CLR 04/M08 A3004 RMK AO2 SLP109 T00441078 $","lat":35.1443,"lon":-111.6664,"elev":2134,"name":"Flagstaff/Pulliam Arpt, AZ, US","cover":"CLR","clouds":[],"fltCat":"VFR"},{"icaoId":"KNFL","receiptTime":"2026-04-12T10:00:24.568Z","obsTime":1775987820,"reportTime":"2026-04-12T10:00:00.000Z","temp":3.9,"dewp":1.7,"wdir":270,"wspd":23,"wgst":32,"visib":4,"altim":1006.5,"slp":1004.5,"qcField":14,"wxString":"RA BR","metarType":"METAR","rawOb":"METAR KNFL 120957Z AUTO 27023G32KT 4SM RA BR OVC020 04/02 A2972 RMK AO2 PK WND 26034/0941 RAB08 SLP045 T00390017 PNO $","lat":39.417,"lon":-118.705,"elev":1199,"name":"Fallon , NV, US","cover":"OVC","clouds":[{"cover":"OVC","base":2000}],"fltCat":"MVFR"},{"icaoId":"KNYL","receiptTime":"2026-04-12T10:00:24.487Z","obsTime":1775987820,"reportTime":"2026-04-12T10:00:00.000Z","temp":19.4,"dewp":3.9,"wdir":330,"wspd":8,"visib":"10+","altim":1010.9,"slp":1010.5,"qcField":6,"metarType":"METAR","rawOb":"METAR KNYL 120957Z AUTO 33008KT 10SM CLR 19/04 A2985 RMK AO2 SLP105 T01940039","lat":32.66,"lon":-114.6078,"elev":58,"name":"Yuma , AZ, US","cover":"CLR","clouds":[],"fltCat":"VFR"},{"icaoId":"KHDN","receiptTime":"2026-04-12T09:58:15.161Z","obsTime":1775987760,"reportTime":"2026-04-12T10:00:00.000Z","temp":-0.6,"dewp":-1.7,"wdir":140,"wspd":4,"visib":"10+","altim":1013.6,"slp":1012.3,"qcField":70,"metarType":"METAR","rawOb":"METAR KHDN 120956Z AUTO 14004KT 10SM CLR M01/M02 A2993 RMK AO2 SLP123 T10061017 FZRANO","lat":40.4842,"lon":-107.2296,"elev":2012,"name":"Hayden/Yampa Valley Arpt, CO, US","cover":"CLR","clouds":[],"fltCat":"VFR"},{"icaoId":"KCHS","receiptTime":"2026-04-12T10:00:16.333Z","obsTime":1775987760,"reportTime":"2026-04-12T10:00:00.000Z","temp":12.2,"dewp":11.1,"wdir":0,"wspd":0,"visib":"10+","altim":1026.2,"slp":1026,"qcField":4,"metarType":"METAR","rawOb":"METAR KCHS 120956Z 00000KT 10SM CLR 12/11 A3030 RMK AO2 SLP260 T01220111","lat":32.8995,"lon":-80.0407,"elev":12,"name":"Charleston Intl, SC, US","cover":"CLR","clouds":[],"fltCat":"VFR"},{"icaoId":"KCGZ","receiptTime":"2026-04-12T09:58:10.316Z","obsTime":1775987760,"reportTime":"2026-04-12T10:00:00.000Z","temp":17.2,"dewp":-1.1,"wdir":80,"wspd":3,"visib":"10+","qcField":14,"metarType":"METAR","rawOb":"METAR KCGZ 120956Z AUTO 08003KT 10SM CLR 17/M01 RMK AO2 SLPNO T01721011 $","lat":32.9531,"lon":-111.7725,"elev":444,"name":"Casa Granda Muni, AZ, US","cover":"CLR","clouds":[],"fltCat":"VFR"},{"icaoId":"KPVU","receiptTime":"2026-04-12T09:58:15.720Z","obsTime":1775987760,"reportTime":"2026-04-12T10:00:00.000Z","temp":6.1,"dewp":0,"wdir":100,"wspd":6,"visib":"10+","altim":1008.5,"slp":1006,"qcField":6,"metarType":"METAR","rawOb":"METAR KPVU 120956Z AUTO 10006KT 10SM CLR 06/00 A2978 RMK AO2 SLP060 T00610000","lat":40.224,"lon":-111.7252,"elev":1370,"name":"Provo Muni, UT, US","cover":"CLR","clouds":[],"fltCat":"VFR"},{"icaoId":"KLAS","receiptTime":"2026-04-12T10:00:15.984Z","obsTime":1775987760,"reportTime":"2026-04-12T10:00:00.000Z","temp":16.7,"dewp":1.1,"wdir":230,"wspd":14,"wgst":22,"visib":"10+","altim":1008.5,"slp":1006.8,"qcField":4,"metarType":"METAR","rawOb":"METAR KLAS 120956Z 23014G22KT 10SM CLR 17/01 A2978 RMK AO2 SLP068 T01670011","lat":36.0719,"lon":-115.1634,"elev":662,"name":"Las Vegas/Reid Intl, NV, US","cover":"CLR","clouds":[],"fltCat":"VFR"},{"icaoId":"KENV","receiptTime":"2026-04-12T09:58:15.662Z","obsTime":1775987760,"reportTime":"2026-04-12T10:00:00.000Z","temp":8.3,"dewp":0,"wdir":90,"wspd":6,"visib":"10+","altim":1006.2,"slp":1004.3,"qcField":6,"metarType":"METAR","rawOb":"METAR KENV 120956Z AUTO 09006KT 10SM CLR 08/00 A2971 RMK AO2 SLP043 T00830000","lat":40.7211,"lon":-114.0312,"elev":1291,"name":"Wendover Arpt, UT, US","cover":"CLR","clouds":[],"fltCat":"VFR"},{"icaoId":"KEGE","receiptTime":"2026-04-12T09:58:16.175Z","obsTime":1775987760,"reportTime":"2026-04-12T10:00:00.000Z","temp":0.6,"dewp":-2.2,"wdir":0,"wspd":0,"visib":"10+","altim":1015.3,"slp":1012.5,"qcField":70,"metarType":"METAR","rawOb":"METAR KEGE 120956Z AUTO 00000KT 10SM CLR 01/M02 A2998 RMK AO2 SLP125 T00061022 FZRANO","lat":39.6448,"lon":-106.9176,"elev":1993,"name":"Eagle Cnty Rgnl, CO, US","cover":"CLR","clouds":[],"fltCat":"VFR"},{"icaoId":"KEKO","receiptTime":"2026-04-12T10:00:15.499Z","obsTime":1775987760,"reportTime":"2026-04-12T10:00:00.000Z","temp":5.6,"dewp":0.6,"wdir":0,"wspd":0,"visib":"10+","altim":1003.8,"slp":1001.7,"qcField":6,"metarType":"METAR","rawOb":"METAR KEKO 120956Z AUTO 00000KT 10SM OVC085 06/01 A2964 RMK AO2 SLP017 T00560006","lat":40.824,"lon":-115.7863,"elev":1541,"name":"Elko Rgnl, NV, US","cover":"OVC","clouds":[{"cover":"OVC","base":8500}],"fltCat":"VFR"},{"icaoId":"KTPH","receiptTime":"2026-04-12T10:00:15.546Z","obsTime":1775987760,"reportTime":"2026-04-12T10:00:00.000Z","temp":7.2,"dewp":-2.2,"wdir":190,"wspd":17,"wgst":27,"visib":"10+","altim":1005.5,"slp":1001.4,"qcField":6,"metarType":"METAR","rawOb":"METAR KTPH 120956Z AUTO 19017G27KT 10SM CLR 07/M02 A2969 RMK AO2 PK WND 18027/0952 SLP014 T00721022","lat":38.0505,"lon":-117.0906,"elev":1647,"name":"Tonopah Arpt, NV, US","cover":"CLR","clouds":[],"fltCat":"VFR"},{"icaoId":"KSDF","receiptTime":"2026-04-12T10:00:10.942Z","obsTime":1775987760,"reportTime":"2026-04-12T10:00:00.000Z","temp":13.9,"dewp":11.1,"wdir":150,"wspd":5,"visib":"10+","altim":1022.8,"slp":1022.3,"qcField":4,"metarType":"METAR","rawOb":"METAR KSDF 120956Z 15005KT 10SM BKN300 14/11 A3020 RMK AO2 SLP223 T01390111","lat":38.1774,"lon":-85.7308,"elev":146,"name":"Louisville Intl, KY, US","cover":"BKN","clouds":[{"cover":"BKN","base":30000}],"fltCat":"VFR"},{"icaoId":"KUKI","receiptTime":"2026-04-12T10:00:15.562Z","obsTime":1775987760,"reportTime":"2026-04-12T10:00:00.000Z","temp":8.3,"dewp":7.2,"wdir":150,"wspd":8,"visib":"10+","altim":1005.5,"slp":1004.9,"qcField":6,"precip":0.01,"metarType":"METAR","rawOb":"METAR KUKI 120956Z AUTO 15008KT 10SM BKN017 BKN023 OVC029 08/07 A2969 RMK AO2 RAE56 SLP049 P0001 T00830072","lat":39.1278,"lon":-123.2001,"elev":183,"name":"Ukiah Muni, CA, US","cover":"OVC","clouds":[{"cover":"BKN","base":1700},{"cover":"BKN","base":2300},{"cover":"OVC","base":2900}],"fltCat":"MVFR"},{"icaoId":"KINW","receiptTime":"2026-04-12T10:00:16.545Z","obsTime":1775987760,"reportTime":"2026-04-12T10:00:00.000Z","temp":8.9,"dewp":-2.2,"wdir":190,"wspd":6,"visib":"10+","altim":1016,"slp":1010.9,"qcField":6,"metarType":"METAR","rawOb":"METAR KINW 120956Z AUTO 19006KT 10SM CLR 09/M02 A3000 RMK AO2 SLP109 T00891022","lat":35.0279,"lon":-110.7221,"elev":1492,"name":"Winslow/Lindberg Rgnl, AZ, US","cover":"CLR","clouds":[],"fltCat":"VFR"},{"icaoId":"KSBP","receiptTime":"2026-04-12T10:00:16.136Z","obsTime":1775987760,"reportTime":"2026-04-12T10:00:00.000Z","temp":12.2,"dewp":11.7,"wdir":160,"wspd":4,"visib":"10+","altim":1012.3,"slp":1012.1,"qcField":6,"metarType":"METAR","rawOb":"METAR KSBP 120956Z AUTO 16004KT 10SM FEW030 BKN042 OVC055 12/12 A2989 RMK AO2 SLP121 T01220117","lat":35.2381,"lon":-120.644,"elev":52,"name":"San Luis Obispo/San Luis Cnty, CA, US","cover":"OVC","clouds":[{"cover":"FEW","base":3000},{"cover":"BKN","base":4200},{"cover":"OVC","base":5500}],"fltCat":"VFR"},{"icaoId":"KSGU","receiptTime":"2026-04-12T09:58:23.795Z","obsTime":1775987760,"reportTime":"2026-04-12T10:00:00.000Z","temp":15,"dewp":-4.4,"wdir":140,"wspd":8,"visib":"10+","altim":1008.9,"slp":1006.4,"qcField":6,"metarType":"METAR","rawOb":"METAR KSGU 120956Z AUTO 14008KT 10SM CLR 15/M04 A2979 RMK AO2 SLP064 T01501044","lat":37.0444,"lon":-113.5034,"elev":877,"name":"Saint George Muni, UT, US","cover":"CLR","clouds":[],"fltCat":"VFR"},{"icaoId":"KVIS","receiptTime":"2026-04-12T09:58:23.975Z","obsTime":1775987760,"reportTime":"2026-04-12T10:00:00.000Z","temp":12.8,"dewp":11.7,"wdir":0,"wspd":0,"visib":"10+","altim":1012.6,"slp":1012.3,"qcField":14,"wxString":"-RA","metarType":"METAR","rawOb":"METAR KVIS 120956Z AUTO 00000KT 10SM -RA OVC060 13/12 A2990 RMK AO2 SLP123 T01280117 PNO $","lat":36.3135,"lon":-119.3884,"elev":92,"name":"Visalia Muni, CA, US","cover":"OVC","clouds":[{"cover":"OVC","base":6000}],"fltCat":"VFR"},{"icaoId":"KHND","receiptTime":"2026-04-12T09:58:15.798Z","obsTime":1775987760,"reportTime":"2026-04-12T10:00:00.000Z","temp":15.6,"dewp":1.7,"wdir":220,"wspd":15,"visib":"10+","altim":1009.2,"slp":1009.2,"qcField":14,"metarType":"METAR","rawOb":"METAR KHND 120956Z AUTO 22015KT 10SM CLR 16/02 A2980 RMK AO2 SLP092 T01560017 $","lat":35.9657,"lon":-115.1343,"elev":740,"name":"Henderson Exec, NV, US","cover":"CLR","clouds":[],"fltCat":"VFR"},{"icaoId":"KSFO","receiptTime":"2026-04-12T10:00:16.921Z","obsTime":1775987760,"reportTime":"2026-04-12T10:00:00.000Z","temp":12.2,"dewp":8.9,"wdir":250,"wspd":10,"wgst":18,"visib":"10+","altim":1008.5,"slp":1008.4,"qcField":12,"wxString":"-RA","precip":0.01,"metarType":"METAR","rawOb":"METAR KSFO 120956Z 25010G18KT 10SM -RA SCT024 BKN033 BKN044 12/09 A2978 RMK AO2 RAB13E27B46 SLP084 P0001 T01220089 $","lat":37.6196,"lon":-122.3656,"elev":2,"name":"San Francisco Intl, CA, US","cover":"BKN","clouds":[{"cover":"SCT","base":2400},{"cover":"BKN","base":3300},{"cover":"BKN","base":4400}],"fltCat":"VFR"},{"icaoId":"KFNL","receiptTime":"2026-04-12T09:58:10.642Z","obsTime":1775987760,"reportTime":"2026-04-12T10:00:00.000Z","temp":8.3,"dewp":-1.7,"wdir":50,"wspd":8,"visib":"10+","altim":1009.2,"slp":1003.7,"qcField":14,"metarType":"METAR","rawOb":"METAR KFNL 120956Z AUTO 05008KT 10SM CLR 08/M02 A2980 RMK AO2 SLP037 T00831017 $","lat":40.4427,"lon":-105.0097,"elev":1529,"name":"Fort Collins/N Colorado Rgnl, CO, US","cover":"CLR","clouds":[],"fltCat":"VFR"},{"icaoId":"KGUC","receiptTime":"2026-04-12T09:58:15.111Z","obsTime":1775987760,"reportTime":"2026-04-12T10:00:00.000Z","temp":-2.2,"dewp":-5,"wdir":0,"wspd":0,"visib":"10+","altim":1017.4,"slp":1015.4,"qcField":78,"metarType":"METAR","rawOb":"METAR KGUC 120956Z AUTO 00000KT 10SM FEW080 M02/M05 A3004 RMK AO2 SLP154 T10221050 FZRANO $","lat":38.5322,"lon":-106.9419,"elev":2337,"name":"Gunnison Arpt, CO, US","cover":"FEW","clouds":[{"cover":"FEW","base":8000}],"fltCat":"VFR"},{"icaoId":"KDUG","receiptTime":"2026-04-12T10:02:27.112Z","obsTime":1775987760,"reportTime":"2026-04-12T10:00:00.000Z","temp":11.1,"dewp":-0.6,"wdir":90,"wspd":5,"visib":"10+","altim":1017.7,"slp":1012.2,"qcField":38,"metarType":"METAR","rawOb":"METAR KDUG 120956Z AUTO 09005KT 10SM CLR 11/M01 A3005 RMK AO2 SLP122 T01111006 TSNO","lat":31.4725,"lon":-109.6022,"elev":1260,"name":"Douglas/Bisbee Intl, AZ, US","cover":"CLR","clouds":[],"fltCat":"VFR"},{"icaoId":"KCEC","receiptTime":"2026-04-12T10:00:15.483Z","obsTime":1775987760,"reportTime":"2026-04-12T10:00:00.000Z","temp":7.8,"dewp":6.7,"wdir":70,"wspd":5,"visib":"10+","altim":1004.5,"slp":1004.3,"qcField":6,"metarType":"METAR","rawOb":"METAR KCEC 120956Z AUTO 07005KT 10SM FEW070 08/07 A2966 RMK AO2 SLP043 T00780067","lat":41.7836,"lon":-124.238,"elev":17,"name":"Crescent City/McNama, CA, US","cover":"FEW","clouds":[{"cover":"FEW","base":7000}],"fltCat":"VFR"},{"icaoId":"KLUF","receiptTime":"2026-04-12T10:16:04.149Z","obsTime":1775987700,"reportTime":"2026-04-12T10:00:00.000Z","temp":19.8,"dewp":-3.2,"wdir":0,"wspd":0,"visib":"10+","altim":1010.6,"slp":1009.2,"qcField":14,"metarType":"METAR","rawOb":"METAR KLUF 120955Z AUTO 00000KT 10SM CLR 20/M03 A2984 RMK AO2 SLP092 T01981032 $","lat":33.538,"lon":-112.38,"elev":333,"name":"Phoenix/Luke AFB, AZ, US","cover":"CLR","clouds":[],"fltCat":"VFR"},{"icaoId":"KRNO","receiptTime":"2026-04-12T09:58:15.754Z","obsTime":1775987700,"reportTime":"2026-04-12T10:00:00.000Z","temp":3.3,"dewp":-0.6,"wdir":"VRB","wspd":3,"visib":"10+","altim":1005.8,"slp":1003.5,"qcField":4,"metarType":"METAR","rawOb":"METAR KRNO 120955Z VRB03KT 10SM FEW035 SCT055 OVC120 03/M01 A2970 RMK AO2 SLP035 T00331006","lat":39.5077,"lon":-119.7683,"elev":1344,"name":"Reno/Tahoe Intl, NV, US","cover":"OVC","clouds":[{"cover":"FEW","base":3500},{"cover":"SCT","base":5500},{"cover":"OVC","base":12000}],"fltCat":"VFR"},{"icaoId":"KCOS","receiptTime":"2026-04-12T09:58:17.640Z","obsTime":1775987640,"reportTime":"2026-04-12T10:00:00.000Z","temp":7.2,"dewp":-6.1,"wdir":50,"wspd":3,"visib":"10+","altim":1012.3,"slp":1006.9,"qcField":4,"metarType":"METAR","rawOb":"METAR KCOS 120954Z 05003KT 10SM CLR 07/M06 A2989 RMK AO2 SLP069 T00721061","lat":38.8095,"lon":-104.6887,"elev":1886,"name":"Colorado Spring Arpt, CO, US","cover":"CLR","clouds":[],"fltCat":"VFR"},{"icaoId":"KBUF","receiptTime":"2026-04-12T09:58:17.594Z","obsTime":1775987640,"reportTime":"2026-04-12T10:00:00.000Z","temp":3.3,"dewp":-2.8,"wdir":100,"wspd":7,"visib":"10+","altim":1028.2,"slp":1028.6,"qcField":12,"metarType":"METAR","rawOb":"METAR KBUF 120954Z 10007KT 10SM BKN110 OVC170 03/M03 A3036 RMK AO2 SLP286 T00331028 $","lat":42.94,"lon":-78.7361,"elev":217,"name":"Buffalo-Niagara Intl, NY, US","cover":"OVC","clouds":[{"cover":"BKN","base":11000},{"cover":"OVC","base":17000}],"fltCat":"VFR"},{"icaoId":"KGSO","receiptTime":"2026-04-12T09:58:17.884Z","obsTime":1775987640,"reportTime":"2026-04-12T10:00:00.000Z","temp":12.8,"dewp":8.3,"wdir":30,"wspd":7,"visib":"10+","altim":1027.2,"slp":1026.4,"qcField":4,"metarType":"METAR","rawOb":"METAR KGSO 120954Z 03007KT 10SM FEW250 13/08 A3033 RMK AO2 SLP264 T01280083","lat":36.0969,"lon":-79.9432,"elev":275,"name":"Greensboro Intl, NC, US","cover":"FEW","clouds":[{"cover":"FEW","base":25000}],"fltCat":"VFR"},{"icaoId":"KROC","receiptTime":"2026-04-12T09:58:17.992Z","obsTime":1775987640,"reportTime":"2026-04-12T10:00:00.000Z","temp":0,"dewp":-2.2,"wdir":160,"wspd":3,"visib":"10+","altim":1029.5,"slp":1030.2,"qcField":4,"metarType":"METAR","rawOb":"METAR KROC 120954Z 16003KT 10SM CLR 00/M02 A3040 RMK AO2 SLP302 T00001022","lat":43.1172,"lon":-77.6754,"elev":166,"name":"Rochester Intl Arpt, NY, US","cover":"CLR","clouds":[],"fltCat":"VFR"},{"icaoId":"KBWI","receiptTime":"2026-04-12T09:58:18.530Z","obsTime":1775987640,"reportTime":"2026-04-12T10:00:00.000Z","temp":8.9,"dewp":1.7,"wdir":40,"wspd":5,"visib":"10+","altim":1030.9,"slp":1030.9,"qcField":4,"metarType":"METAR","rawOb":"METAR KBWI 120954Z 04005KT 10SM FEW075 FEW250 09/02 A3044 RMK AO2 SLP309 T00890017","lat":39.1733,"lon":-76.684,"elev":42,"name":"Baltimore-Washington Intl, MD, US","cover":"FEW","clouds":[{"cover":"FEW","base":7500},{"cover":"FEW","base":25000}],"fltCat":"VFR"},{"icaoId":"KBTV","receiptTime":"2026-04-12T09:58:17.570Z","obsTime":1775987640,"reportTime":"2026-04-12T10:00:00.000Z","temp":-2.2,"dewp":-5,"wdir":0,"wspd":0,"visib":"10+","altim":1031.6,"slp":1031.8,"qcField":4,"metarType":"METAR","rawOb":"METAR KBTV 120954Z 00000KT 10SM CLR M02/M05 A3046 RMK AO2 SLP318 T10221050","lat":44.4682,"lon":-73.1499,"elev":101,"name":"Burlington Intl, VT, US","cover":"CLR","clouds":[],"fltCat":"VFR"},{"icaoId":"KDSM","receiptTime":"2026-04-12T09:58:17.699Z","obsTime":1775987640,"reportTime":"2026-04-12T10:00:00.000Z","temp":18.9,"dewp":15,"wdir":200,"wspd":15,"wgst":25,"visib":"10+","altim":1009.9,"slp":1009.4,"qcField":4,"metarType":"METAR","rawOb":"METAR KDSM 120954Z 20015G25KT 10SM SCT100 BKN120 BKN250 19/15 A2982 RMK AO2 PK WND 19027/0939 SLP094 T01890150","lat":41.5339,"lon":-93.6531,"elev":286,"name":"Des Moines Intl, IA, US","cover":"BKN","clouds":[{"cover":"SCT","base":10000},{"cover":"BKN","base":12000},{"cover":"BKN","base":25000}],"fltCat":"VFR"},{"icaoId":"KRIC","receiptTime":"2026-04-12T09:58:17.953Z","obsTime":1775987640,"reportTime":"2026-04-12T10:00:00.000Z","temp":11.7,"dewp":8.9,"wdir":150,"wspd":3,"visib":"10+","altim":1029.9,"slp":1030.2,"qcField":4,"metarType":"METAR","rawOb":"METAR KRIC 120954Z 15003KT 10SM OVC065 12/09 A3041 RMK AO2 SLP302 T01170089","lat":37.5115,"lon":-77.3234,"elev":51,"name":"Richmond Intl, VA, US","cover":"OVC","clouds":[{"cover":"OVC","base":6500}],"fltCat":"VFR"},{"icaoId":"KSYR","receiptTime":"2026-04-12T09:58:18.093Z","obsTime":1775987640,"reportTime":"2026-04-12T10:00:00.000Z","temp":-0.6,"dewp":-3.3,"wdir":130,"wspd":4,"visib":"10+","altim":1030.9,"slp":1030.9,"qcField":12,"metarType":"METAR","rawOb":"METAR KSYR 120954Z 13004KT 10SM SCT250 M01/M03 A3044 RMK AO2 SLP309 T10061033 $","lat":43.1111,"lon":-76.1038,"elev":125,"name":"Syracuse/Hancock Intl, NY, US","cover":"SCT","clouds":[{"cover":"SCT","base":25000}],"fltCat":"VFR"},{"icaoId":"KAPC","receiptTime":"2026-04-12T09:58:18.413Z","obsTime":1775987640,"reportTime":"2026-04-12T10:00:00.000Z","temp":10.6,"dewp":8.3,"wdir":250,"wspd":8,"visib":"10+","altim":1007.9,"slp":1006.8,"qcField":6,"metarType":"METAR","rawOb":"METAR KAPC 120954Z AUTO 25008KT 10SM SCT035 BKN042 11/08 A2976 RMK AO2 SLP068 T01060083","lat":38.2075,"lon":-122.2804,"elev":5,"name":"Napa Cnty Arpt, CA, US","cover":"BKN","clouds":[{"cover":"SCT","base":3500},{"cover":"BKN","base":4200}],"fltCat":"VFR"},{"icaoId":"KBOS","receiptTime":"2026-04-12T09:58:18.493Z","obsTime":1775987640,"reportTime":"2026-04-12T10:00:00.000Z","temp":4.4,"dewp":-5.6,"wdir":330,"wspd":8,"visib":"10+","altim":1031.6,"slp":1031.3,"qcField":4,"metarType":"METAR","rawOb":"METAR KBOS 120954Z 33008KT 10SM CLR 04/M06 A3046 RMK AO2 SLP313 T00441056","lat":42.3606,"lon":-71.0097,"elev":4,"name":"Boston/Logan Intl, MA, US","cover":"CLR","clouds":[],"fltCat":"VFR"},{"icaoId":"KMEM","receiptTime":"2026-04-12T09:58:18.831Z","obsTime":1775987640,"reportTime":"2026-04-12T10:00:00.000Z","temp":16.7,"dewp":10.6,"wdir":190,"wspd":7,"visib":"10+","altim":1020.7,"slp":1020.4,"qcField":12,"metarType":"METAR","rawOb":"METAR KMEM 120954Z 19007KT 10SM SCT250 17/11 A3014 RMK AO2 SLP204 T01670106 $","lat":35.0564,"lon":-89.9864,"elev":78,"name":"Memphis Intl, TN, US","cover":"SCT","clouds":[{"cover":"SCT","base":25000}],"fltCat":"VFR"},{"icaoId":"KOLS","receiptTime":"2026-04-12T09:58:19.134Z","obsTime":1775987640,"reportTime":"2026-04-12T10:00:00.000Z","temp":13.9,"dewp":-0.6,"wdir":160,"wspd":5,"visib":"10+","altim":1017,"slp":1011.4,"qcField":6,"metarType":"METAR","rawOb":"METAR KOLS 120954Z AUTO 16005KT 10SM CLR 14/M01 A3003 RMK AO2 SLP114 T01391006","lat":31.4208,"lon":-110.8465,"elev":1194,"name":"Nogales Intl, AZ, US","cover":"CLR","clouds":[],"fltCat":"VFR"},{"icaoId":"KGCN","receiptTime":"2026-04-12T09:58:20.275Z","obsTime":1775987640,"reportTime":"2026-04-12T10:00:00.000Z","temp":-2.8,"dewp":-7.8,"wdir":0,"wspd":0,"visib":"10+","altim":1016.7,"slp":1011.9,"qcField":6,"metarType":"METAR","rawOb":"METAR KGCN 120954Z AUTO 00000KT 10SM CLR M03/M08 A3002 RMK AO2 SLP119 T10281078","lat":35.9458,"lon":-112.1554,"elev":1993,"name":"Grand Canyon Park Arpt, AZ, US","cover":"CLR","clouds":[],"fltCat":"VFR"},{"icaoId":"KSJN","receiptTime":"2026-04-12T09:58:20.819Z","obsTime":1775987640,"reportTime":"2026-04-12T10:00:00.000Z","temp":8.3,"dewp":-1.1,"wdir":200,"wspd":5,"visib":"10+","altim":1017.7,"slp":1010.9,"qcField":6,"metarType":"METAR","rawOb":"METAR KSJN 120954Z AUTO 20005KT 10SM CLR 08/M01 A3005 RMK AO2 SLP109 T00831011","lat":34.5184,"lon":-109.3801,"elev":1747,"name":"St Johns Ind Arpt, AZ, US","cover":"CLR","clouds":[],"fltCat":"VFR"},{"icaoId":"KSLC","receiptTime":"2026-04-12T09:58:20.837Z","obsTime":1775987640,"reportTime":"2026-04-12T10:00:00.000Z","temp":9.4,"dewp":0,"wdir":140,"wspd":8,"visib":"10+","altim":1007.2,"slp":1004.5,"qcField":12,"metarType":"METAR","rawOb":"METAR KSLC 120954Z 14008KT 10SM FEW250 09/00 A2974 RMK AO2 SLP045 T00940000 $","lat":40.7707,"lon":-111.965,"elev":1286,"name":"Salt Lake City Intl, UT, US","cover":"FEW","clouds":[{"cover":"FEW","base":25000}],"fltCat":"VFR"},{"icaoId":"KFFZ","receiptTime":"2026-04-12T09:58:21.112Z","obsTime":1775987640,"reportTime":"2026-04-12T10:00:00.000Z","temp":20,"dewp":-3.3,"wdir":110,"wspd":8,"visib":"10+","altim":1011.6,"slp":1009.4,"qcField":38,"metarType":"METAR","rawOb":"METAR KFFZ 120954Z AUTO 11008KT 10SM CLR 20/M03 A2987 RMK AO2 SLP094 T02001033 TSNO","lat":33.4659,"lon":-111.7212,"elev":420,"name":"Mesa/Falcon Fld, AZ, US","cover":"CLR","clouds":[],"fltCat":"VFR"},{"icaoId":"KPHL","receiptTime":"2026-04-12T09:58:19.180Z","obsTime":1775987640,"reportTime":"2026-04-12T10:00:00.000Z","temp":7.8,"dewp":-1.7,"wdir":70,"wspd":5,"visib":"10+","altim":1032.3,"slp":1032.2,"qcField":12,"metarType":"METAR","rawOb":"METAR KPHL 120954Z 07005KT 10SM CLR 08/M02 A3048 RMK AO2 SLP322 T00781017 $","lat":39.8733,"lon":-75.2268,"elev":2,"name":"Philadelphia Intl, PA, US","cover":"CLR","clouds":[],"fltCat":"VFR"},{"icaoId":"KBFL","receiptTime":"2026-04-12T09:58:18.474Z","obsTime":1775987640,"reportTime":"2026-04-12T10:00:00.000Z","temp":13.3,"dewp":10.6,"wdir":320,"wspd":9,"visib":7,"altim":1011.6,"slp":1011.1,"qcField":14,"wxString":"-RA","precip":0.01,"metarType":"METAR","rawOb":"METAR KBFL 120954Z AUTO 32009KT 7SM -RA OVC065 13/11 A2987 RMK AO2 RAB16 SLP111 P0001 T01330106 $","lat":35.4342,"lon":-119.0552,"elev":146,"name":"Bakersfield/Meadows Arpt, CA, US","cover":"OVC","clouds":[{"cover":"OVC","base":6500}],"fltCat":"VFR"},{"icaoId":"KIND","receiptTime":"2026-04-12T09:58:20.467Z","obsTime":1775987640,"reportTime":"2026-04-12T10:00:00.000Z","temp":11.7,"dewp":6.1,"wdir":150,"wspd":7,"visib":"10+","altim":1021.8,"slp":1021.5,"qcField":4,"metarType":"METAR","rawOb":"METAR KIND 120954Z 15007KT 10SM BKN250 12/06 A3017 RMK AO2 SLP215 T01170061","lat":39.7252,"lon":-86.2816,"elev":242,"name":"Indianapolis Intl, IN, US","cover":"BKN","clouds":[{"cover":"BKN","base":25000}],"fltCat":"VFR"},{"icaoId":"KCNM","receiptTime":"2026-04-12T09:56:34.619Z","obsTime":1775987580,"reportTime":"2026-04-12T10:00:00.000Z","temp":13.3,"dewp":11.7,"wdir":0,"wspd":0,"visib":"10+","altim":1015.3,"slp":1011.2,"qcField":6,"metarType":"METAR","rawOb":"METAR KCNM 120953Z AUTO 00000KT 10SM CLR 13/12 A2998 RMK AO2 SLP112 T01330117","lat":32.3336,"lon":-104.2584,"elev":993,"name":"Carlsbad/Cavern City Air Term, NM, US","cover":"CLR","clouds":[],"fltCat":"VFR"},{"icaoId":"KELY","receiptTime":"2026-04-12T09:56:45.781Z","obsTime":1775987580,"reportTime":"2026-04-12T10:00:00.000Z","temp":6.7,"dewp":-11.1,"wdir":150,"wspd":17,"wgst":25,"visib":"10+","altim":1006.9,"slp":1000.6,"qcField":6,"metarType":"METAR","rawOb":"METAR KELY 120953Z AUTO 15017G25KT 10SM CLR 07/M11 A2973 RMK AO2 PK WND 15028/0920 SLP006 T00671111","lat":39.2954,"lon":-114.8466,"elev":1906,"name":"Ely/Yelland Fld, NV, US","cover":"CLR","clouds":[],"fltCat":"VFR"},{"icaoId":"KCNY","receiptTime":"2026-04-12T09:56:36.178Z","obsTime":1775987580,"reportTime":"2026-04-12T10:00:00.000Z","temp":11.1,"dewp":-7.2,"wdir":0,"wspd":0,"visib":"10+","altim":1010.2,"slp":1006.6,"qcField":14,"metarType":"METAR","rawOb":"METAR KCNY 120953Z AUTO 00000KT 10SM CLR 11/M07 A2983 RMK AO2 SLP066 T01111072 $","lat":38.7501,"lon":-109.7627,"elev":1392,"name":"Moab/Canyonland Fld, UT, US","cover":"CLR","clouds":[],"fltCat":"VFR"},{"icaoId":"KGEG","receiptTime":"2026-04-12T09:56:45.943Z","obsTime":1775987580,"reportTime":"2026-04-12T10:00:00.000Z","temp":7.8,"dewp":5.6,"wdir":160,"wspd":7,"visib":"10+","altim":1004.1,"slp":1004,"qcField":12,"metarType":"METAR","rawOb":"METAR KGEG 120953Z 16007KT 10SM FEW055 FEW080 SCT180 08/06 A2965 RMK AO2 SLP040 T00780056 $","lat":47.6217,"lon":-117.528,"elev":718,"name":"Spokane Intl, WA, US","cover":"SCT","clouds":[{"cover":"FEW","base":5500},{"cover":"FEW","base":8000},{"cover":"SCT","base":18000}],"fltCat":"VFR"},{"icaoId":"KBRO","receiptTime":"2026-04-12T09:56:36.978Z","obsTime":1775987580,"reportTime":"2026-04-12T10:00:00.000Z","temp":25,"dewp":22.8,"wdir":150,"wspd":12,"visib":"10+","altim":1015.7,"slp":1015.4,"qcField":6,"metarType":"METAR","rawOb":"METAR KBRO 120953Z AUTO 15012KT 10SM SCT009 BKN013 OVC031 25/23 A2999 RMK AO2 SLP154 T02500228","lat":25.9146,"lon":-97.4231,"elev":6,"name":"Brownsville Intl, TX, US","cover":"OVC","clouds":[{"cover":"SCT","base":900},{"cover":"BKN","base":1300},{"cover":"OVC","base":3100}],"fltCat":"MVFR"},{"icaoId":"KAPA","receiptTime":"2026-04-12T09:56:27.237Z","obsTime":1775987580,"reportTime":"2026-04-12T10:00:00.000Z","temp":10,"dewp":-6.7,"wdir":150,"wspd":8,"visib":"10+","altim":1010.6,"slp":1005,"qcField":4,"metarType":"METAR","rawOb":"METAR KAPA 120953Z 15008KT 10SM CLR 10/M07 A2984 RMK AO2 SLP050 T01001067","lat":39.5599,"lon":-104.8484,"elev":1791,"name":"Denver/Centennial Arpt, CO, US","cover":"CLR","clouds":[],"fltCat":"VFR"},{"icaoId":"KOGD","receiptTime":"2026-04-12T09:56:44.534Z","obsTime":1775987580,"reportTime":"2026-04-12T10:00:00.000Z","temp":7.2,"dewp":1.1,"wdir":170,"wspd":7,"visib":"10+","altim":1006.9,"slp":1004.5,"qcField":6,"metarType":"METAR","rawOb":"METAR KOGD 120953Z AUTO 17007KT 10SM CLR 07/01 A2973 RMK AO2 SLP045 T00720011","lat":41.1941,"lon":-112.0168,"elev":1356,"name":"Ogden/Hinckley Arpt, UT, US","cover":"CLR","clouds":[],"fltCat":"VFR"},{"icaoId":"KMOD","receiptTime":"2026-04-12T09:56:44.248Z","obsTime":1775987580,"reportTime":"2026-04-12T10:00:00.000Z","temp":11.1,"dewp":8.3,"wdir":150,"wspd":5,"visib":"10+","altim":1009.2,"slp":1009.1,"qcField":6,"metarType":"METAR","rawOb":"METAR KMOD 120953Z AUTO 15005KT 10SM FEW110 11/08 A2980 RMK AO2 SLP091 T01110083","lat":37.6254,"lon":-120.9549,"elev":25,"name":"Modesto/Sham Fld, CA, US","cover":"FEW","clouds":[{"cover":"FEW","base":11000}],"fltCat":"VFR"},{"icaoId":"KTPA","receiptTime":"2026-04-12T09:56:44.765Z","obsTime":1775987580,"reportTime":"2026-04-12T10:00:00.000Z","temp":17.8,"dewp":14.4,"wdir":60,"wspd":3,"visib":"10+","altim":1024.1,"slp":1023.9,"qcField":4,"metarType":"METAR","rawOb":"METAR KTPA 120953Z 06003KT 10SM CLR 18/14 A3024 RMK AO2 SLP239 T01780144","lat":27.9633,"lon":-82.54,"elev":2,"name":"Tampa Intl Arpt, FL, US","cover":"CLR","clouds":[],"fltCat":"VFR"},{"icaoId":"KMYR","receiptTime":"2026-04-12T09:56:38.757Z","obsTime":1775987580,"reportTime":"2026-04-12T10:00:00.000Z","temp":13.9,"dewp":12.8,"wdir":0,"wspd":0,"visib":"10+","altim":1027.2,"slp":1026.9,"qcField":14,"metarType":"METAR","rawOb":"METAR KMYR 120953Z AUTO 00000KT 10SM CLR 14/13 A3033 RMK AO2 SLP269 T01390128 $","lat":33.6769,"lon":-78.9325,"elev":7,"name":"Myrtle Beach Intl, SC, US","cover":"CLR","clouds":[],"fltCat":"VFR"},{"icaoId":"KFAT","receiptTime":"2026-04-12T09:56:45.831Z","obsTime":1775987580,"reportTime":"2026-04-12T10:00:00.000Z","temp":11.7,"dewp":9.4,"wdir":350,"wspd":4,"visib":9,"altim":1011.9,"slp":1011.5,"qcField":12,"wxString":"-RA","precip":0.03,"metarType":"METAR","rawOb":"METAR KFAT 120953Z 35004KT 9SM -RA BKN029 OVC065 12/09 A2988 RMK AO2 SLP115 P0003 T01170094 $","lat":36.78,"lon":-119.7202,"elev":102,"name":"Fresno/Yosemite Intl, CA, US","cover":"OVC","clouds":[{"cover":"BKN","base":2900},{"cover":"OVC","base":6500}],"fltCat":"MVFR"},{"icaoId":"KPGA","receiptTime":"2026-04-12T09:56:43.679Z","obsTime":1775987580,"reportTime":"2026-04-12T10:00:00.000Z","temp":14.4,"dewp":-8.3,"wdir":200,"wspd":5,"visib":"10+","altim":1011.9,"slp":1006.7,"qcField":14,"metarType":"METAR","rawOb":"METAR KPGA 120953Z AUTO 20005KT 10SM CLR 14/M08 A2988 RMK AO2 SLP067 T01441083 $","lat":36.9211,"lon":-111.4487,"elev":1310,"name":"Page Muni, AZ, US","cover":"CLR","clouds":[],"fltCat":"VFR"},{"icaoId":"KVGT","receiptTime":"2026-04-12T09:56:40.636Z","obsTime":1775987580,"reportTime":"2026-04-12T10:00:00.000Z","temp":17.2,"dewp":1.1,"wdir":220,"wspd":8,"visib":"10+","altim":1008.2,"slp":1008,"qcField":4,"metarType":"METAR","rawOb":"METAR KVGT 120953Z 22008KT 10SM CLR 17/01 A2977 RMK AO2 SLP080 T01720011","lat":36.212,"lon":-115.194,"elev":664,"name":"Las Vegas/North Arpt, NV, US","cover":"CLR","clouds":[],"fltCat":"VFR"},{"icaoId":"KSDL","receiptTime":"2026-04-12T09:56:31.872Z","obsTime":1775987580,"reportTime":"2026-04-12T10:00:00.000Z","temp":20,"dewp":-1.7,"wdir":110,"wspd":4,"visib":"10+","altim":1012.3,"slp":1009.8,"qcField":6,"metarType":"METAR","rawOb":"METAR KSDL 120953Z AUTO 11004KT 10SM CLR 20/M02 A2989 RMK AO2 SLP098 T02001017","lat":33.6123,"lon":-111.9232,"elev":438,"name":"Scottsdale Muni, AZ, US","cover":"CLR","clouds":[],"fltCat":"VFR"},{"icaoId":"KHOU","receiptTime":"2026-04-12T09:56:30.954Z","obsTime":1775987580,"reportTime":"2026-04-12T10:00:00.000Z","temp":22.8,"dewp":20,"wdir":150,"wspd":9,"visib":8,"altim":1018.4,"slp":1018.8,"qcField":12,"metarType":"METAR","rawOb":"METAR KHOU 120953Z 15009KT 8SM BKN015 OVC023 23/20 A3007 RMK AO2 SLP188 T02280200 $","lat":29.6458,"lon":-95.2821,"elev":13,"name":"Houston/Hobby Arpt, TX, US","cover":"OVC","clouds":[{"cover":"BKN","base":1500},{"cover":"OVC","base":2300}],"fltCat":"MVFR"},{"icaoId":"KSAF","receiptTime":"2026-04-12T09:56:30.496Z","obsTime":1775987580,"reportTime":"2026-04-12T10:00:00.000Z","temp":1.7,"dewp":1.1,"wdir":350,"wspd":3,"visib":"","altim":1017.4,"slp":1012.7,"qcField":14,"metarType":"METAR","rawOb":"METAR KSAF 120953Z AUTO 35003KT CLR 02/01 A3004 RMK AO2 SLP127 T00170011 $","lat":35.611,"lon":-106.0957,"elev":1918,"name":"Santa Fe Cnty Muni, NM, US","cover":"CLR","clouds":[]},{"icaoId":"KGSP","receiptTime":"2026-04-12T09:56:25.990Z","obsTime":1775987580,"reportTime":"2026-04-12T10:00:00.000Z","temp":10.6,"dewp":8.9,"wdir":0,"wspd":0,"visib":"10+","altim":1025.5,"slp":1024.7,"qcField":6,"metarType":"METAR","rawOb":"METAR KGSP 120953Z AUTO 00000KT 10SM CLR 11/09 A3028 RMK AO2 SLP247 T01060089","lat":34.8842,"lon":-82.2209,"elev":285,"name":"Greenville-Spartanburg Intl, SC, US","cover":"CLR","clouds":[],"fltCat":"VFR"},{"icaoId":"KMCO","receiptTime":"2026-04-12T09:56:42.547Z","obsTime":1775987580,"reportTime":"2026-04-12T10:00:00.000Z","temp":15.6,"dewp":13.3,"wdir":10,"wspd":3,"visib":"10+","altim":1024.5,"slp":1024,"qcField":4,"metarType":"METAR","rawOb":"METAR KMCO 120953Z 01003KT 10SM CLR 16/13 A3025 RMK AO2 SLP240 T01560133","lat":28.4182,"lon":-81.3241,"elev":27,"name":"Orlando Intl, FL, US","cover":"CLR","clouds":[],"fltCat":"VFR"},{"icaoId":"KDMN","receiptTime":"2026-04-12T09:56:45.561Z","obsTime":1775987580,"reportTime":"2026-04-12T10:00:00.000Z","temp":12.8,"dewp":2.2,"wdir":0,"wspd":0,"visib":"10+","altim":1017.7,"slp":1011.6,"qcField":6,"metarType":"METAR","rawOb":"METAR KDMN 120953Z AUTO 00000KT 10SM BKN120 13/02 A3005 RMK AO2 SLP116 T01280022","lat":32.2592,"lon":-107.7206,"elev":1310,"name":"Deming Muni, NM, US","cover":"BKN","clouds":[{"cover":"BKN","base":12000}],"fltCat":"VFR"},{"icaoId":"KMYF","receiptTime":"2026-04-12T09:56:44.449Z","obsTime":1775987580,"reportTime":"2026-04-12T10:00:00.000Z","temp":13.3,"dewp":11.1,"wdir":0,"wspd":0,"visib":"10+","altim":1015,"slp":1014.6,"qcField":6,"metarType":"METAR","rawOb":"METAR KMYF 120953Z AUTO 00000KT 10SM FEW049 13/11 A2997 RMK AO2 SLP146 T01330111","lat":32.8145,"lon":-117.1375,"elev":128,"name":"San Diego/Montgomery Arpt, CA, US","cover":"FEW","clouds":[{"cover":"FEW","base":4900}],"fltCat":"VFR"},{"icaoId":"KPDX","receiptTime":"2026-04-12T09:56:43.665Z","obsTime":1775987580,"reportTime":"2026-04-12T10:00:00.000Z","temp":10.6,"dewp":8.9,"wdir":0,"wspd":0,"visib":"10+","altim":1003.8,"slp":1003.5,"qcField":12,"metarType":"METAR","rawOb":"METAR KPDX 120953Z 00000KT 10SM FEW018 BKN075 11/09 A2964 RMK AO2 SLP035 T01060089 $","lat":45.5958,"lon":-122.6092,"elev":7,"name":"Portland Intl, OR, US","cover":"BKN","clouds":[{"cover":"FEW","base":1800},{"cover":"BKN","base":7500}],"fltCat":"VFR"},{"icaoId":"KCDC","receiptTime":"2026-04-12T09:56:28.247Z","obsTime":1775987580,"reportTime":"2026-04-12T10:00:00.000Z","temp":11.1,"dewp":-5,"wdir":190,"wspd":19,"visib":"10+","altim":1010.9,"slp":1005.2,"qcField":6,"metarType":"METAR","rawOb":"METAR KCDC 120953Z AUTO 19019KT 10SM CLR 11/M05 A2985 RMK AO2 PK WND 20035/0911 SLP052 T01111050","lat":37.7067,"lon":-113.097,"elev":1703,"name":"Cedar City Muni, UT, US","cover":"CLR","clouds":[],"fltCat":"VFR"},{"icaoId":"KPRC","receiptTime":"2026-04-12T09:56:45.090Z","obsTime":1775987580,"reportTime":"2026-04-12T10:00:00.000Z","temp":8.3,"dewp":-4.4,"wdir":60,"wspd":4,"visib":"10+","altim":1015.3,"slp":1009.6,"qcField":6,"metarType":"METAR","rawOb":"METAR KPRC 120953Z AUTO 06004KT 10SM CLR 08/M04 A2998 RMK AO2 SLP096 T00831044","lat":34.6491,"lon":-112.4223,"elev":1528,"name":"Prescott/Love Fld, AZ, US","cover":"CLR","clouds":[],"fltCat":"VFR"},{"icaoId":"KPSP","receiptTime":"2026-04-12T09:56:45.126Z","obsTime":1775987580,"reportTime":"2026-04-12T10:00:00.000Z","temp":17.8,"dewp":5,"wdir":"VRB","wspd":5,"visib":"10+","altim":1011.9,"slp":1011.8,"qcField":6,"metarType":"METAR","rawOb":"METAR KPSP 120953Z AUTO VRB05KT 10SM CLR 18/05 A2988 RMK AO2 SLP118 T01780050","lat":33.8222,"lon":-116.5043,"elev":123,"name":"Palm Springs Intl, CA, US","cover":"CLR","clouds":[],"fltCat":"VFR"},{"icaoId":"KFMN","receiptTime":"2026-04-12T09:56:45.847Z","obsTime":1775987580,"reportTime":"2026-04-12T10:00:00.000Z","temp":2.8,"dewp":-5,"wdir":90,"wspd":4,"visib":"10+","altim":1016,"slp":1013,"qcField":6,"metarType":"METAR","rawOb":"METAR KFMN 120953Z AUTO 09004KT 10SM CLR 03/M05 A3000 RMK AO2 SLP130 T00281050","lat":36.7435,"lon":-108.2293,"elev":1677,"name":"Farmington/Four Corners Rgnl, NM, US","cover":"CLR","clouds":[],"fltCat":"VFR"},{"icaoId":"KFUL","receiptTime":"2026-04-12T09:56:34.405Z","obsTime":1775987580,"reportTime":"2026-04-12T10:00:00.000Z","temp":16.1,"dewp":12.2,"wdir":0,"wspd":0,"visib":"10+","altim":1014,"slp":1013.8,"qcField":6,"metarType":"METAR","rawOb":"METAR KFUL 120953Z AUTO 00000KT 10SM OVC065 16/12 A2994 RMK AO2 SLP138 T01610122","lat":33.8715,"lon":-117.9856,"elev":23,"name":"Fullerton Muni, CA, US","cover":"OVC","clouds":[{"cover":"OVC","base":6500}],"fltCat":"VFR"},{"icaoId":"KGJT","receiptTime":"2026-04-12T09:56:25.740Z","obsTime":1775987580,"reportTime":"2026-04-12T10:00:00.000Z","temp":10.6,"dewp":-2.2,"wdir":80,"wspd":12,"visib":"10+","altim":1010.9,"slp":1006.3,"qcField":4,"metarType":"METAR","rawOb":"METAR KGJT 120953Z 08012KT 10SM CLR 11/M02 A2985 RMK AO2 SLP063 T01061022","lat":39.1344,"lon":-108.5408,"elev":1475,"name":"Grand Junction Rgnl, CO, US","cover":"CLR","clouds":[],"fltCat":"VFR"},{"icaoId":"KONT","receiptTime":"2026-04-12T09:56:44.612Z","obsTime":1775987580,"reportTime":"2026-04-12T10:00:00.000Z","temp":13.9,"dewp":10.6,"wdir":170,"wspd":4,"visib":"10+","altim":1014.3,"slp":1013.5,"qcField":12,"metarType":"METAR","rawOb":"METAR KONT 120953Z 17004KT 10SM FEW032 BKN055 14/11 A2995 RMK AO2 SLP135 T01390106 $","lat":34.0531,"lon":-117.5769,"elev":279,"name":"Ontario Intl, CA, US","cover":"BKN","clouds":[{"cover":"FEW","base":3200},{"cover":"BKN","base":5500}],"fltCat":"VFR"},{"icaoId":"KLOL","receiptTime":"2026-04-12T09:56:46.830Z","obsTime":1775987580,"reportTime":"2026-04-12T10:00:00.000Z","temp":6.7,"dewp":0,"wdir":270,"wspd":16,"wgst":23,"visib":"10+","altim":1005.5,"slp":1004,"qcField":6,"metarType":"METAR","rawOb":"METAR KLOL 120953Z AUTO 27016G23KT 10SM BKN041 BKN049 OVC055 07/00 A2969 RMK AO2 SLP040 T00670000","lat":40.0684,"lon":-118.5702,"elev":1191,"name":"Lovelock/Derby Fld, NV, US","cover":"OVC","clouds":[{"cover":"BKN","base":4100},{"cover":"BKN","base":4900},{"cover":"OVC","base":5500}],"fltCat":"VFR"},{"icaoId":"KRDD","receiptTime":"2026-04-12T09:56:45.297Z","obsTime":1775987580,"reportTime":"2026-04-12T10:00:00.000Z","temp":7.8,"dewp":6.7,"wdir":0,"wspd":0,"visib":"10+","altim":1005.5,"slp":1005.2,"qcField":14,"precip":0.02,"metarType":"METAR","rawOb":"METAR KRDD 120953Z AUTO 00000KT 10SM OVC043 08/07 A2969 RMK AO2 RAE48 SLP052 P0002 T00780067 $","lat":40.5146,"lon":-122.2977,"elev":152,"name":"Redding Muni, CA, US","cover":"OVC","clouds":[{"cover":"OVC","base":4300}],"fltCat":"VFR"},{"icaoId":"KASE","receiptTime":"2026-04-12T09:56:27.345Z","obsTime":1775987580,"reportTime":"2026-04-12T10:00:00.000Z","temp":3.9,"dewp":-3.9,"wdir":0,"wspd":0,"visib":"10+","altim":1015,"slp":1007.4,"qcField":6,"metarType":"METAR","rawOb":"METAR KASE 120953Z AUTO 00000KT 10SM BKN090 04/M04 A2997 RMK AO2 SLP074 T00391039","lat":39.2299,"lon":-106.8705,"elev":2384,"name":"Aspen/Pitkin Cnty, CO, US","cover":"BKN","clouds":[{"cover":"BKN","base":9000}],"fltCat":"VFR"},{"icaoId":"KCRQ","receiptTime":"2026-04-12T09:56:36.199Z","obsTime":1775987580,"reportTime":"2026-04-12T10:00:00.000Z","temp":15,"dewp":12.2,"wdir":0,"wspd":0,"visib":"10+","altim":1014.6,"slp":1014.2,"qcField":6,"metarType":"METAR","rawOb":"METAR KCRQ 120953Z AUTO 00000KT 10SM CLR 15/12 A2996 RMK AO2 SLP142 T01500122","lat":33.1299,"lon":-117.2765,"elev":96,"name":"Carlsbad/Palomar Arpt, CA, US","cover":"CLR","clouds":[],"fltCat":"VFR"},{"icaoId":"KACV","receiptTime":"2026-04-12T09:56:31.622Z","obsTime":1775987580,"reportTime":"2026-04-12T10:00:00.000Z","temp":6.7,"dewp":5.6,"wdir":80,"wspd":4,"visib":"10+","altim":1003.1,"slp":1003.4,"qcField":6,"wxString":"-RA","precip":0.005,"metarType":"METAR","rawOb":"METAR KACV 120953Z AUTO 08004KT 10SM -RA BKN055 07/06 A2962 RMK AO2 RAB45 SLP034 P0000 T00670056","lat":40.9784,"lon":-124.1048,"elev":63,"name":"Arcata Arpt, CA, US","cover":"BKN","clouds":[{"cover":"BKN","base":5500}],"fltCat":"VFR"},{"icaoId":"KDEN","receiptTime":"2026-04-12T09:56:34.928Z","obsTime":1775987580,"reportTime":"2026-04-12T10:00:00.000Z","temp":8.9,"dewp":-6.7,"wdir":200,"wspd":10,"visib":"10+","altim":1009.6,"slp":1003.5,"qcField":4,"metarType":"METAR","rawOb":"METAR KDEN 120953Z 20010KT 10SM CLR 09/M07 A2981 RMK AO2 SLP035 T00891067","lat":39.8466,"lon":-104.6562,"elev":1656,"name":"Denver Intl, CO, US","cover":"CLR","clouds":[],"fltCat":"VFR"},{"icaoId":"KBHM","receiptTime":"2026-04-12T09:56:32.845Z","obsTime":1775987580,"reportTime":"2026-04-12T10:00:00.000Z","temp":11.7,"dewp":9.4,"wdir":0,"wspd":0,"visib":"10+","altim":1024.1,"slp":1023.5,"qcField":4,"metarType":"METAR","rawOb":"METAR KBHM 120953Z 00000KT 10SM CLR 12/09 A3024 RMK AO2 SLP235 T01170094","lat":33.5655,"lon":-86.7449,"elev":191,"name":"Birmingham Intl, AL, US","cover":"CLR","clouds":[],"fltCat":"VFR"},{"icaoId":"KMIA","receiptTime":"2026-04-12T09:58:14.879Z","obsTime":1775987580,"reportTime":"2026-04-12T10:00:00.000Z","temp":21.7,"dewp":14.4,"wdir":50,"wspd":6,"visib":"10+","altim":1021.4,"slp":1021.2,"qcField":4,"metarType":"METAR","rawOb":"METAR KMIA 120953Z 05006KT 10SM FEW050 22/14 A3016 RMK AO2 SLP212 T02170144","lat":25.7881,"lon":-80.3169,"elev":1,"name":"Miami Intl, FL, US","cover":"FEW","clouds":[{"cover":"FEW","base":5000}],"fltCat":"VFR"},{"icaoId":"KVEL","receiptTime":"2026-04-12T09:56:40.615Z","obsTime":1775987580,"reportTime":"2026-04-12T10:00:00.000Z","temp":4.4,"dewp":0.6,"wdir":290,"wspd":6,"visib":"10+","altim":1010.9,"slp":1007.8,"qcField":6,"metarType":"METAR","rawOb":"METAR KVEL 120953Z AUTO 29006KT 10SM CLR 04/01 A2985 RMK AO2 SLP078 T00440006","lat":40.4429,"lon":-109.5128,"elev":1604,"name":"Vernal Rgnl, UT, US","cover":"CLR","clouds":[],"fltCat":"VFR"},{"icaoId":"KTUL","receiptTime":"2026-04-12T09:56:40.370Z","obsTime":1775987580,"reportTime":"2026-04-12T10:00:00.000Z","temp":20.6,"dewp":15.6,"wdir":170,"wspd":13,"wgst":18,"visib":"10+","altim":1015,"slp":1014.1,"qcField":4,"metarType":"METAR","rawOb":"METAR KTUL 120953Z 17013G18KT 10SM SCT080 SCT110 BKN200 21/16 A2997 RMK AO2 SLP141 T02060156","lat":36.1985,"lon":-95.8782,"elev":196,"name":"Tulsa Intl Arpt, OK, US","cover":"BKN","clouds":[{"cover":"SCT","base":8000},{"cover":"SCT","base":11000},{"cover":"BKN","base":20000}],"fltCat":"VFR"},{"icaoId":"KMTJ","receiptTime":"2026-04-12T09:56:44.380Z","obsTime":1775987580,"reportTime":"2026-04-12T10:00:00.000Z","temp":9.4,"dewp":-3.9,"wdir":110,"wspd":6,"visib":"10+","altim":1014.3,"slp":1008.8,"qcField":6,"metarType":"METAR","rawOb":"METAR KMTJ 120953Z AUTO 11006KT 10SM CLR 09/M04 A2995 RMK AO2 SLP088 T00941039","lat":38.5054,"lon":-107.8981,"elev":1755,"name":"Montrose Rgnl, CO, US","cover":"CLR","clouds":[],"fltCat":"VFR"},{"icaoId":"KLVS","receiptTime":"2026-04-12T09:56:30.641Z","obsTime":1775987580,"reportTime":"2026-04-12T10:00:00.000Z","temp":5.6,"dewp":2.2,"wdir":160,"wspd":12,"visib":"10+","altim":1017.4,"slp":1010.9,"qcField":14,"metarType":"METAR","rawOb":"METAR KLVS 120953Z AUTO 16012KT 10SM CLR 06/02 A3004 RMK AO2 SLP109 T00560022 PNO $","lat":35.6558,"lon":-105.1385,"elev":2095,"name":"Las Vegas Muni, NM, US","cover":"CLR","clouds":[],"fltCat":"VFR"},{"icaoId":"KMFE","receiptTime":"2026-04-12T09:56:42.610Z","obsTime":1775987580,"reportTime":"2026-04-12T10:00:00.000Z","temp":24.4,"dewp":22.2,"wdir":140,"wspd":10,"visib":"10+","altim":1015,"slp":1014.5,"qcField":14,"metarType":"METAR","rawOb":"METAR KMFE 120953Z AUTO 14010KT 10SM BKN014 24/22 A2997 RMK AO2 SLP145 T02440222 $","lat":26.1791,"lon":-98.2445,"elev":29,"name":"McAllen/Miller Intl, TX, US","cover":"BKN","clouds":[{"cover":"BKN","base":1400}],"fltCat":"MVFR"},{"icaoId":"KBCE","receiptTime":"2026-04-12T09:56:31.639Z","obsTime":1775987580,"reportTime":"2026-04-12T10:00:00.000Z","temp":-5.6,"dewp":-11.7,"wdir":0,"wspd":0,"visib":"10+","altim":1014.6,"slp":1008.1,"qcField":6,"metarType":"METAR","rawOb":"METAR KBCE 120953Z AUTO 00000KT 10SM CLR M06/M12 A2996 RMK AO2 SLP081 T10561117","lat":37.7013,"lon":-112.149,"elev":2311,"name":"Bryce Canyon Arpt, UT, US","cover":"CLR","clouds":[],"fltCat":"VFR"},{"icaoId":"KLAX","receiptTime":"2026-04-12T09:56:46.085Z","obsTime":1775987580,"reportTime":"2026-04-12T10:00:00.000Z","temp":16.1,"dewp":11.7,"wdir":130,"wspd":4,"visib":"10+","altim":1014,"slp":1013.6,"qcField":12,"metarType":"METAR","rawOb":"METAR KLAX 120953Z 13004KT 10SM FEW018 SCT030 BKN065 16/12 A2994 RMK AO2 SLP136 T01610117 $","lat":33.9382,"lon":-118.3866,"elev":30,"name":"Los Angeles Intl, CA, US","cover":"BKN","clouds":[{"cover":"FEW","base":1800},{"cover":"SCT","base":3000},{"cover":"BKN","base":6500}],"fltCat":"VFR"},{"icaoId":"KTUS","receiptTime":"2026-04-12T09:56:41.624Z","obsTime":1775987580,"reportTime":"2026-04-12T10:00:00.000Z","temp":17.8,"dewp":-1.7,"wdir":120,"wspd":7,"visib":"10+","altim":1015.3,"slp":1011.2,"qcField":6,"metarType":"METAR","rawOb":"METAR KTUS 120953Z AUTO 12007KT 10SM CLR 18/M02 A2998 RMK AO2 SLP112 T01781017","lat":32.1315,"lon":-110.9564,"elev":776,"name":"Tucson Intl Arpt, AZ, US","cover":"CLR","clouds":[],"fltCat":"VFR"},{"icaoId":"KMDW","receiptTime":"2026-04-12T09:56:42.590Z","obsTime":1775987580,"reportTime":"2026-04-12T10:00:00.000Z","temp":15.6,"dewp":8.9,"wdir":190,"wspd":11,"visib":"10+","altim":1017.4,"slp":1017.1,"qcField":4,"metarType":"METAR","rawOb":"METAR KMDW 120953Z 19011KT 10SM OVC090 16/09 A3004 RMK AO2 SLP171 T01560089","lat":41.7841,"lon":-87.7552,"elev":186,"name":"Chicago/Midway Intl, IL, US","cover":"OVC","clouds":[{"cover":"OVC","base":9000}],"fltCat":"VFR"},{"icaoId":"KPBI","receiptTime":"2026-04-12T09:56:43.346Z","obsTime":1775987580,"reportTime":"2026-04-12T10:00:00.000Z","temp":22.8,"dewp":13.3,"wdir":60,"wspd":11,"visib":"10+","altim":1022.4,"slp":1022.3,"qcField":12,"metarType":"METAR","rawOb":"METAR KPBI 120953Z 06011KT 10SM OVC043 23/13 A3019 RMK AO2 SLP223 T02280133 $","lat":26.6851,"lon":-80.0992,"elev":4,"name":"Palm Beach Intl, FL, US","cover":"OVC","clouds":[{"cover":"OVC","base":4300}],"fltCat":"VFR"},{"icaoId":"KMSY","receiptTime":"2026-04-12T09:56:44.348Z","obsTime":1775987580,"reportTime":"2026-04-12T10:00:00.000Z","temp":18.3,"dewp":16.7,"wdir":100,"wspd":6,"visib":"10+","altim":1021.8,"slp":1022,"qcField":4,"metarType":"METAR","rawOb":"METAR KMSY 120953Z 10006KT 10SM CLR 18/17 A3017 RMK AO2 SLP220 T01830167","lat":29.9974,"lon":-90.2777,"elev":0,"name":"New Orleans/Armstrong Intl, LA, US","cover":"CLR","clouds":[],"fltCat":"VFR"},{"icaoId":"KOAK","receiptTime":"2026-04-12T09:56:44.487Z","obsTime":1775987580,"reportTime":"2026-04-12T10:00:00.000Z","temp":12.2,"dewp":9.4,"wdir":210,"wspd":15,"visib":"10+","altim":1008.9,"slp":1008.7,"qcField":12,"precip":0.15,"metarType":"METAR","rawOb":"METAR KOAK 120953Z 21015KT 10SM BKN027 BKN075 12/09 A2979 RMK AO2 RAB0857E13B33E50 SLP087 P0015 T01220094 $","lat":37.7178,"lon":-122.233,"elev":3,"name":"Oakland Intl, CA, US","cover":"BKN","clouds":[{"cover":"BKN","base":2700},{"cover":"BKN","base":7500}],"fltCat":"MVFR"},{"icaoId":"KPUB","receiptTime":"2026-04-12T09:56:45.159Z","obsTime":1775987580,"reportTime":"2026-04-12T10:00:00.000Z","temp":3.9,"dewp":0,"wdir":310,"wspd":6,"visib":"10+","altim":1010.6,"slp":1007.6,"qcField":12,"metarType":"METAR","rawOb":"METAR KPUB 120953Z 31006KT 10SM CLR 04/00 A2984 RMK AO2 SLP076 T00390000 $","lat":38.2887,"lon":-104.5057,"elev":1441,"name":"Pueblo Mem Arpt, CO, US","cover":"CLR","clouds":[],"fltCat":"VFR"},{"icaoId":"KIAH","receiptTime":"2026-04-12T09:56:46.384Z","obsTime":1775987580,"reportTime":"2026-04-12T10:00:00.000Z","temp":22.2,"dewp":20,"wdir":150,"wspd":8,"visib":7,"altim":1019,"slp":1018.8,"qcField":4,"metarType":"METAR","rawOb":"METAR KIAH 120953Z 15008KT 7SM SCT018 BKN025 OVC034 22/20 A3009 RMK AO2 SLP188 T02220200","lat":29.9844,"lon":-95.3607,"elev":27,"name":"Houston/Bush Intl, TX, US","cover":"OVC","clouds":[{"cover":"SCT","base":1800},{"cover":"BKN","base":2500},{"cover":"OVC","base":3400}],"fltCat":"MVFR"},{"icaoId":"KLGB","receiptTime":"2026-04-12T09:56:46.745Z","obsTime":1775987580,"reportTime":"2026-04-12T10:00:00.000Z","temp":16.1,"dewp":11.7,"wdir":140,"wspd":4,"visib":"10+","altim":1013.6,"slp":1013.6,"qcField":14,"metarType":"METAR","rawOb":"METAR KLGB 120953Z AUTO 14004KT 10SM BKN065 16/12 A2993 RMK AO2 SLP136 T01610117 $","lat":33.8118,"lon":-118.1472,"elev":10,"name":"Long Beach Arpt, CA, US","cover":"BKN","clouds":[{"cover":"BKN","base":6500}],"fltCat":"VFR"},{"icaoId":"KSJC","receiptTime":"2026-04-12T09:56:31.961Z","obsTime":1775987580,"reportTime":"2026-04-12T10:00:00.000Z","temp":10.6,"dewp":8.9,"wdir":310,"wspd":4,"visib":4,"altim":1009.6,"slp":1009.5,"qcField":6,"wxString":"-RA BR","precip":0.03,"metarType":"METAR","rawOb":"METAR KSJC 120953Z AUTO 31004KT 4SM -RA BR FEW030 OVC037 11/09 A2981 RMK AO2 RAB26 SLP095 P0003 T01060089","lat":37.3594,"lon":-121.9244,"elev":13,"name":"San Jose Intl Arpt, CA, US","cover":"OVC","clouds":[{"cover":"FEW","base":3000},{"cover":"OVC","base":3700}],"fltCat":"MVFR"},{"icaoId":"KSMF","receiptTime":"2026-04-12T09:56:31.975Z","obsTime":1775987580,"reportTime":"2026-04-12T10:00:00.000Z","temp":10.6,"dewp":8.9,"wdir":160,"wspd":11,"wgst":21,"visib":"10+","altim":1007.9,"slp":1007.8,"qcField":12,"precip":0.01,"metarType":"METAR","rawOb":"METAR KSMF 120953Z 16011G21KT 10SM BKN035 OVC046 11/09 A2976 RMK AO2 RAB25E44 SLP078 P0001 T01060089 $","lat":38.7007,"lon":-121.5948,"elev":7,"name":"Sacramento Intl, CA, US","cover":"OVC","clouds":[{"cover":"BKN","base":3500},{"cover":"OVC","base":4600}],"fltCat":"VFR"},{"icaoId":"KSNA","receiptTime":"2026-04-12T09:56:31.989Z","obsTime":1775987580,"reportTime":"2026-04-12T10:00:00.000Z","temp":16.1,"dewp":12.2,"wdir":120,"wspd":4,"visib":"10+","altim":1014.3,"slp":1014.1,"qcField":14,"metarType":"METAR","rawOb":"METAR KSNA 120953Z AUTO 12004KT 10SM OVC060 16/12 A2995 RMK AO2 SLP141 T01610122 $","lat":33.6798,"lon":-117.8675,"elev":14,"name":"Santa Ana/Wayne Arpt, CA, US","cover":"OVC","clouds":[{"cover":"OVC","base":6000}],"fltCat":"VFR"},{"icaoId":"KAMA","receiptTime":"2026-04-12T09:56:32.713Z","obsTime":1775987580,"reportTime":"2026-04-12T10:00:00.000Z","temp":13.9,"dewp":11.7,"wdir":200,"wspd":12,"visib":"10+","altim":1013.6,"slp":1009.5,"qcField":6,"metarType":"METAR","rawOb":"METAR KAMA 120953Z AUTO 20012KT 10SM CLR 14/12 A2993 RMK AO2 SLP095 T01390117","lat":35.2203,"lon":-101.7173,"elev":1102,"name":"Amarillo Intl Arpt, TX, US","cover":"CLR","clouds":[],"fltCat":"VFR"},{"icaoId":"KAUS","receiptTime":"2026-04-12T09:56:32.810Z","obsTime":1775987580,"reportTime":"2026-04-12T10:00:00.000Z","temp":22.2,"dewp":20,"wdir":140,"wspd":5,"visib":"10+","altim":1017,"slp":1016.2,"qcField":4,"precip":0.005,"metarType":"METAR","rawOb":"METAR KAUS 120953Z 14005KT 10SM OVC014 22/20 A3003 RMK AO2 RAB35E48 SLP162 P0000 T02220200","lat":30.1831,"lon":-97.6806,"elev":148,"name":"Austin/Bergstrom Intl, TX, US","cover":"OVC","clouds":[{"cover":"OVC","base":1400}],"fltCat":"MVFR"},{"icaoId":"KBNA","receiptTime":"2026-04-12T09:56:32.858Z","obsTime":1775987580,"reportTime":"2026-04-12T10:00:00.000Z","temp":13.9,"dewp":11.7,"wdir":0,"wspd":0,"visib":9,"altim":1023.5,"slp":1022.9,"qcField":12,"metarType":"METAR","rawOb":"METAR KBNA 120953Z 00000KT 9SM BKN250 14/12 A3022 RMK AO2 SLP229 T01390117 $","lat":36.1105,"lon":-86.6881,"elev":168,"name":"Nashville Intl, TN, US","cover":"BKN","clouds":[{"cover":"BKN","base":25000}],"fltCat":"VFR"},{"icaoId":"KDVT","receiptTime":"2026-04-12T09:56:33.711Z","obsTime":1775987580,"reportTime":"2026-04-12T10:00:00.000Z","temp":19.4,"dewp":-3.9,"wdir":0,"wspd":0,"visib":"10+","altim":1011.9,"slp":1009.5,"qcField":4,"metarType":"METAR","rawOb":"METAR KDVT 120953Z 00000KT 10SM CLR 19/M04 A2988 RMK AO2 SLP095 T01941039","lat":33.6902,"lon":-112.0662,"elev":454,"name":"Phoenix/Deer Valley Arpt, AZ, US","cover":"CLR","clouds":[],"fltCat":"VFR"},{"icaoId":"KMCI","receiptTime":"2026-04-12T09:56:39.851Z","obsTime":1775987580,"reportTime":"2026-04-12T10:00:00.000Z","temp":20,"dewp":15,"wdir":190,"wspd":13,"wgst":22,"visib":"10+","altim":1012.6,"slp":1011.7,"qcField":4,"metarType":"METAR","rawOb":"METAR KMCI 120953Z 19013G22KT 10SM FEW070 OVC160 20/15 A2990 RMK AO2 SLP117 T02000150","lat":39.2975,"lon":-94.7309,"elev":308,"name":"Kansas City Intl, MO, US","cover":"OVC","clouds":[{"cover":"FEW","base":7000},{"cover":"OVC","base":16000}],"fltCat":"VFR"},{"icaoId":"KDRO","receiptTime":"2026-04-12T09:56:35.175Z","obsTime":1775987580,"reportTime":"2026-04-12T10:00:00.000Z","temp":-0.6,"dewp":-3.3,"wdir":50,"wspd":5,"visib":"10+","altim":1017.7,"slp":1014.4,"qcField":6,"metarType":"METAR","rawOb":"METAR KDRO 120953Z AUTO 05005KT 10SM CLR M01/M03 A3005 RMK AO2 SLP144 T10061033","lat":37.1431,"lon":-107.7602,"elev":2021,"name":"Durango/La Plata Cnty, CO, US","cover":"CLR","clouds":[],"fltCat":"VFR"},{"icaoId":"KDTW","receiptTime":"2026-04-12T09:56:35.317Z","obsTime":1775987580,"reportTime":"2026-04-12T10:00:00.000Z","temp":6.1,"dewp":-2.2,"wdir":110,"wspd":6,"visib":"10+","altim":1024.1,"slp":1024.4,"qcField":4,"precip":0.005,"metarType":"METAR","rawOb":"METAR KDTW 120953Z 11006KT 10SM FEW045 OVC070 06/M02 A3024 RMK AO2 RAE50 SLP244 P0000 T00611022","lat":42.2311,"lon":-83.3312,"elev":192,"name":"Detroit/Metro Wayne Cnty, MI, US","cover":"OVC","clouds":[{"cover":"FEW","base":4500},{"cover":"OVC","base":7000}],"fltCat":"VFR"},{"icaoId":"KLBB","receiptTime":"2026-04-12T09:56:46.101Z","obsTime":1775987580,"reportTime":"2026-04-12T10:00:00.000Z","temp":13.3,"dewp":12.8,"wdir":180,"wspd":4,"visib":7,"altim":1015,"slp":1011.8,"qcField":12,"metarType":"METAR","rawOb":"METAR KLBB 120953Z 18004KT 7SM SCT150 13/13 A2997 RMK AO2 SLP118 T01330128 $","lat":33.6658,"lon":-101.8233,"elev":996,"name":"Lubbock Intl Arpt, TX, US","cover":"SCT","clouds":[{"cover":"SCT","base":15000}],"fltCat":"VFR"},{"icaoId":"KMKE","receiptTime":"2026-04-12T09:56:38.632Z","obsTime":1775987520,"reportTime":"2026-04-12T10:00:00.000Z","temp":10,"dewp":5,"wdir":180,"wspd":10,"wgst":17,"visib":"10+","altim":1014.6,"slp":1014.9,"qcField":4,"metarType":"METAR","rawOb":"METAR KMKE 120952Z 18010G17KT 10SM BKN120 10/05 A2996 RMK AO2 SLP149 T01000050","lat":42.9549,"lon":-87.9045,"elev":203,"name":"Milwaukee/Mitchell Intl, WI, US","cover":"BKN","clouds":[{"cover":"BKN","base":12000}],"fltCat":"VFR"},{"icaoId":"KABQ","receiptTime":"2026-04-12T09:56:35.357Z","obsTime":1775987520,"reportTime":"2026-04-12T10:00:00.000Z","temp":10,"dewp":5,"wdir":150,"wspd":8,"visib":"10+","altim":1016.7,"slp":1010.8,"qcField":12,"metarType":"METAR","rawOb":"METAR KABQ 120952Z 15008KT 10SM FEW120 10/05 A3002 RMK AO2 SLP108 T01000050 $","lat":35.0419,"lon":-106.6154,"elev":1620,"name":"Albuquerque Intl, NM, US","cover":"FEW","clouds":[{"cover":"FEW","base":12000}],"fltCat":"VFR"},{"icaoId":"KABI","receiptTime":"2026-04-12T09:56:35.337Z","obsTime":1775987520,"reportTime":"2026-04-12T10:00:00.000Z","temp":17.2,"dewp":16.1,"wdir":220,"wspd":12,"visib":"10+","altim":1015,"slp":1013,"qcField":12,"metarType":"METAR","rawOb":"METAR KABI 120952Z 22012KT 10SM OVC013 17/16 A2997 RMK AO2 SLP130 T01720161 $","lat":32.4106,"lon":-99.6821,"elev":543,"name":"Abilene Rgnl, TX, US","cover":"OVC","clouds":[{"cover":"OVC","base":1300}],"fltCat":"MVFR"},{"icaoId":"KMLF","receiptTime":"2026-04-12T09:56:35.500Z","obsTime":1775987520,"reportTime":"2026-04-12T10:00:00.000Z","temp":6.1,"dewp":-4.4,"wdir":210,"wspd":9,"visib":"10+","altim":1009.2,"slp":1005,"qcField":6,"metarType":"METAR","rawOb":"METAR KMLF 120952Z AUTO 21009KT 10SM CLR 06/M04 A2980 RMK AO2 SLP050 T00611044","lat":38.4225,"lon":-113.0109,"elev":1537,"name":"Milford Muni, UT, US","cover":"CLR","clouds":[],"fltCat":"VFR"},{"icaoId":"KSPS","receiptTime":"2026-04-12T09:56:35.519Z","obsTime":1775987520,"reportTime":"2026-04-12T10:00:00.000Z","temp":19.4,"dewp":18.3,"wdir":190,"wspd":16,"visib":"10+","altim":1012.3,"slp":1011,"qcField":6,"precip":0.01,"metarType":"METAR","rawOb":"METAR KSPS 120952Z AUTO 19016KT 10SM FEW009 BKN014 OVC042 19/18 A2989 RMK AO2 PK WND 16030/0855 RAE14 SLP110 P0001 T01940183","lat":33.9785,"lon":-98.493,"elev":310,"name":"Wichita Falls Rgnl, TX, US","cover":"OVC","clouds":[{"cover":"FEW","base":900},{"cover":"BKN","base":1400},{"cover":"OVC","base":4200}],"fltCat":"MVFR"},{"icaoId":"KATL","receiptTime":"2026-04-12T09:56:37.223Z","obsTime":1775987520,"reportTime":"2026-04-12T10:00:00.000Z","temp":15.6,"dewp":7.2,"wdir":0,"wspd":0,"visib":"10+","altim":1024.8,"slp":1023.9,"qcField":12,"metarType":"METAR","rawOb":"METAR KATL 120952Z 00000KT 10SM FEW250 16/07 A3026 RMK AO2 SLP239 T01560072 $","lat":33.6297,"lon":-84.4422,"elev":309,"name":"Atlanta/Hartsfield-Jackson Intl, GA, US","cover":"FEW","clouds":[{"cover":"FEW","base":25000}],"fltCat":"VFR"},{"icaoId":"KCLT","receiptTime":"2026-04-12T09:56:37.302Z","obsTime":1775987520,"reportTime":"2026-04-12T10:00:00.000Z","temp":13.3,"dewp":9.4,"wdir":0,"wspd":0,"visib":"10+","altim":1025.8,"slp":1026.6,"qcField":4,"metarType":"METAR","rawOb":"METAR KCLT 120952Z 00000KT 10SM FEW100 FEW250 13/09 A3029 RMK AO2 SLP266 T01330094","lat":35.2225,"lon":-80.9543,"elev":223,"name":"Charlotte/Douglas Intl, NC, US","cover":"FEW","clouds":[{"cover":"FEW","base":10000},{"cover":"FEW","base":25000}],"fltCat":"VFR"},{"icaoId":"KCVG","receiptTime":"2026-04-12T09:56:38.048Z","obsTime":1775987520,"reportTime":"2026-04-12T10:00:00.000Z","temp":11.1,"dewp":4.4,"wdir":130,"wspd":6,"visib":"10+","altim":1023.1,"slp":1022.6,"qcField":12,"metarType":"METAR","rawOb":"METAR KCVG 120952Z 13006KT 10SM FEW110 BKN200 11/04 A3021 RMK AO2 SLP226 T01110044 $","lat":39.0444,"lon":-84.6724,"elev":264,"name":"Cincinnati Intl, KY, US","cover":"BKN","clouds":[{"cover":"FEW","base":11000},{"cover":"BKN","base":20000}],"fltCat":"VFR"},{"icaoId":"KDCA","receiptTime":"2026-04-12T09:56:38.107Z","obsTime":1775987520,"reportTime":"2026-04-12T10:00:00.000Z","temp":10.6,"dewp":6.7,"wdir":60,"wspd":8,"visib":"10+","altim":1030.6,"slp":1030.3,"qcField":4,"metarType":"METAR","rawOb":"METAR KDCA 120952Z 06008KT 10SM FEW075 11/07 A3043 RMK AO2 SLP303 T01060067","lat":38.8472,"lon":-77.0345,"elev":4,"name":"Washington/Reagan-National Arpt, VA, US","cover":"FEW","clouds":[{"cover":"FEW","base":7500}],"fltCat":"VFR"},{"icaoId":"KIAD","receiptTime":"2026-04-12T09:56:38.436Z","obsTime":1775987520,"reportTime":"2026-04-12T10:00:00.000Z","temp":7.2,"dewp":4.4,"wdir":0,"wspd":0,"visib":"10+","altim":1029.9,"slp":1029.8,"qcField":12,"metarType":"METAR","rawOb":"METAR KIAD 120952Z 00000KT 10SM BKN065 07/04 A3041 RMK AO2 SLP298 T00720044 $","lat":38.9348,"lon":-77.4473,"elev":90,"name":"Washington/Dulles Intl, VA, US","cover":"BKN","clouds":[{"cover":"BKN","base":6500}],"fltCat":"VFR"},{"icaoId":"KACT","receiptTime":"2026-04-12T09:54:13.210Z","obsTime":1775987460,"reportTime":"2026-04-12T10:00:00.000Z","temp":18.3,"dewp":16.7,"wdir":190,"wspd":13,"visib":"10+","altim":1017.4,"slp":1016.7,"qcField":6,"wxString":"-RA","precip":0.23,"metarType":"METAR","rawOb":"METAR KACT 120951Z AUTO 19013KT 10SM -RA BKN110 18/17 A3004 RMK AO2 PK WND 19036/0856 RAB0852 TSE06 SLP167 P0023 T01830167","lat":31.618,"lon":-97.2283,"elev":150,"name":"Waco Rgnl, TX, US","cover":"BKN","clouds":[{"cover":"BKN","base":11000}],"fltCat":"VFR"},{"icaoId":"KELP","receiptTime":"2026-04-12T09:54:13.475Z","obsTime":1775987460,"reportTime":"2026-04-12T10:00:00.000Z","temp":13.9,"dewp":10,"wdir":150,"wspd":5,"visib":"10+","altim":1016.7,"slp":1011.8,"qcField":4,"metarType":"METAR","rawOb":"METAR KELP 120951Z 15005KT 10SM SCT095 SCT170 SCT250 14/10 A3002 RMK AO2 SLP118 T01390100","lat":31.8123,"lon":-106.3774,"elev":1205,"name":"El Paso Intl, TX, US","cover":"SCT","clouds":[{"cover":"SCT","base":9500},{"cover":"SCT","base":17000},{"cover":"SCT","base":25000}],"fltCat":"VFR"},{"icaoId":"KLGU","receiptTime":"2026-04-12T09:54:12.206Z","obsTime":1775987460,"reportTime":"2026-04-12T10:00:00.000Z","temp":3.3,"dewp":2.2,"wdir":0,"wspd":0,"visib":"10+","altim":1007.9,"slp":1006.7,"qcField":6,"metarType":"METAR","rawOb":"METAR KLGU 120951Z AUTO 00000KT 10SM CLR 03/02 A2976 RMK AO2 SLP067 T00330022","lat":41.7865,"lon":-111.8519,"elev":1359,"name":"Logan/Cache Arpt, UT, US","cover":"CLR","clouds":[],"fltCat":"VFR"},{"icaoId":"KROW","receiptTime":"2026-04-12T09:54:12.371Z","obsTime":1775987460,"reportTime":"2026-04-12T10:00:00.000Z","temp":13.3,"dewp":9.4,"wdir":180,"wspd":8,"visib":"10+","altim":1014.3,"slp":1009.5,"qcField":14,"metarType":"METAR","rawOb":"METAR KROW 120951Z AUTO 18008KT 10SM CLR 13/09 A2995 RMK AO2 SLP095 T01330094 $","lat":33.3074,"lon":-104.5082,"elev":1105,"name":"Roswell/Ind Arpt, NM, US","cover":"CLR","clouds":[],"fltCat":"VFR"},{"icaoId":"KPIT","receiptTime":"2026-04-12T09:54:13.087Z","obsTime":1775987460,"reportTime":"2026-04-12T10:00:00.000Z","temp":5.6,"dewp":-1.1,"wdir":100,"wspd":4,"visib":"10+","altim":1025.8,"slp":1026.9,"qcField":12,"metarType":"METAR","rawOb":"METAR KPIT 120951Z 10004KT 10SM BKN200 06/M01 A3029 RMK AO2 SLP269 T00561011 $","lat":40.4814,"lon":-80.2083,"elev":339,"name":"Pittsburgh Intl, PA, US","cover":"BKN","clouds":[{"cover":"BKN","base":20000}],"fltCat":"VFR"},{"icaoId":"KCLE","receiptTime":"2026-04-12T09:54:13.361Z","obsTime":1775987460,"reportTime":"2026-04-12T10:00:00.000Z","temp":7.2,"dewp":-2.2,"wdir":160,"wspd":8,"visib":"10+","altim":1024.1,"slp":1026.1,"qcField":12,"metarType":"METAR","rawOb":"METAR KCLE 120951Z 16008KT 10SM SCT160 BKN240 07/M02 A3024 RMK AO2 SLP261 T00721022 $","lat":41.4057,"lon":-81.8519,"elev":237,"name":"Cleveland/Hopkins Intl, OH, US","cover":"BKN","clouds":[{"cover":"SCT","base":16000},{"cover":"BKN","base":24000}],"fltCat":"VFR"},{"icaoId":"KIGM","receiptTime":"2026-04-12T09:54:12.130Z","obsTime":1775987460,"reportTime":"2026-04-12T10:00:00.000Z","temp":12.2,"dewp":0,"wdir":140,"wspd":6,"visib":"10+","altim":1011.6,"slp":1005.9,"qcField":6,"metarType":"METAR","rawOb":"METAR KIGM 120951Z AUTO 14006KT 10SM CLR 12/00 A2987 RMK AO2 SLP059 T01220000","lat":35.2575,"lon":-113.9341,"elev":1045,"name":"Kingman Arpt, AZ, US","cover":"CLR","clouds":[],"fltCat":"VFR"},{"icaoId":"KPHX","receiptTime":"2026-04-12T09:54:12.278Z","obsTime":1775987460,"reportTime":"2026-04-12T10:00:00.000Z","temp":22.8,"dewp":-2.8,"wdir":110,"wspd":5,"visib":"10+","altim":1010.9,"slp":1009.1,"qcField":4,"metarType":"METAR","rawOb":"METAR KPHX 120951Z 11005KT 10SM CLR 23/M03 A2985 RMK AO2 SLP091 T02281028","lat":33.4278,"lon":-112.0037,"elev":338,"name":"Phoenix/Sky Harbor Intl, AZ, US","cover":"CLR","clouds":[],"fltCat":"VFR"},{"icaoId":"KSTL","receiptTime":"2026-04-12T09:54:12.486Z","obsTime":1775987460,"reportTime":"2026-04-12T10:00:00.000Z","temp":18.3,"dewp":12.8,"wdir":180,"wspd":8,"visib":"10+","altim":1018,"slp":1017.4,"qcField":12,"metarType":"METAR","rawOb":"METAR KSTL 120951Z 18008KT 10SM CLR 18/13 A3006 RMK AO2 SLP174 T01830128 $","lat":38.7525,"lon":-90.3734,"elev":163,"name":"St Louis/Lambert Intl, MO, US","cover":"CLR","clouds":[],"fltCat":"VFR"},{"icaoId":"KJFK","receiptTime":"2026-04-12T09:54:12.178Z","obsTime":1775987460,"reportTime":"2026-04-12T10:00:00.000Z","temp":5.6,"dewp":-2.8,"wdir":20,"wspd":5,"visib":"10+","altim":1032.6,"slp":1032.5,"qcField":4,"metarType":"METAR","rawOb":"METAR KJFK 120951Z 02005KT 10SM CLR 06/M03 A3049 RMK AO2 SLP325 T00561028","lat":40.6392,"lon":-73.7639,"elev":3,"name":"New York/JF Kennedy Intl, NY, US","cover":"CLR","clouds":[],"fltCat":"VFR"},{"icaoId":"KLGA","receiptTime":"2026-04-12T09:54:12.191Z","obsTime":1775987460,"reportTime":"2026-04-12T10:00:00.000Z","temp":6.7,"dewp":-3.3,"wdir":30,"wspd":8,"visib":"10+","altim":1032.3,"slp":1032.1,"qcField":4,"metarType":"METAR","rawOb":"METAR KLGA 120951Z 03008KT 10SM FEW250 07/M03 A3048 RMK AO2 SLP321 T00671033","lat":40.7794,"lon":-73.8803,"elev":9,"name":"New York/La Guardia Arpt, NY, US","cover":"FEW","clouds":[{"cover":"FEW","base":25000}],"fltCat":"VFR"},{"icaoId":"KORD","receiptTime":"2026-04-12T09:54:12.236Z","obsTime":1775987460,"reportTime":"2026-04-12T10:00:00.000Z","temp":15.6,"dewp":8.9,"wdir":180,"wspd":12,"wgst":22,"visib":"10+","altim":1016.7,"slp":1016.5,"qcField":12,"metarType":"METAR","rawOb":"METAR KORD 120951Z 18012G22KT 10SM FEW120 BKN130 OVC250 16/09 A3002 RMK AO2 SLP165 T01560089 $","lat":41.9602,"lon":-87.9316,"elev":202,"name":"Chicago/O'Hare Intl, IL, US","cover":"OVC","clouds":[{"cover":"FEW","base":12000},{"cover":"BKN","base":13000},{"cover":"OVC","base":25000}],"fltCat":"VFR"},{"icaoId":"KORF","receiptTime":"2026-04-12T09:54:12.251Z","obsTime":1775987460,"reportTime":"2026-04-12T10:00:00.000Z","temp":11.7,"dewp":7.8,"wdir":0,"wspd":0,"visib":"10+","altim":1029.9,"slp":1029.6,"qcField":4,"metarType":"METAR","rawOb":"METAR KORF 120951Z 00000KT 10SM SCT060 SCT080 12/08 A3041 RMK AO2 SLP296 T01170078","lat":36.9037,"lon":-76.1927,"elev":5,"name":"Norfolk Intl, VA, US","cover":"SCT","clouds":[{"cover":"SCT","base":6000},{"cover":"SCT","base":8000}],"fltCat":"VFR"},{"icaoId":"KOXR","receiptTime":"2026-04-12T09:54:12.265Z","obsTime":1775987460,"reportTime":"2026-04-12T10:00:00.000Z","temp":16.7,"dewp":12.8,"wdir":180,"wspd":10,"wgst":15,"visib":"10+","altim":1013,"slp":1012.7,"qcField":6,"precip":0.01,"metarType":"METAR","rawOb":"METAR KOXR 120951Z AUTO 18010G15KT 10SM SCT024 OVC065 17/13 A2991 RMK AO2 RAB25E36 SLP127 P0001 T01670128","lat":34.2001,"lon":-119.2042,"elev":12,"name":"Oxnard Arpt, CA, US","cover":"OVC","clouds":[{"cover":"SCT","base":2400},{"cover":"OVC","base":6500}],"fltCat":"VFR"},{"icaoId":"KPVD","receiptTime":"2026-04-12T09:54:12.329Z","obsTime":1775987460,"reportTime":"2026-04-12T10:00:00.000Z","temp":3.9,"dewp":-4.4,"wdir":320,"wspd":3,"visib":"10+","altim":1031.6,"slp":1031.6,"qcField":12,"metarType":"METAR","rawOb":"METAR KPVD 120951Z 32003KT 10SM FEW065 04/M04 A3046 RMK AO2 SLP316 T00391044 $","lat":41.7225,"lon":-71.4325,"elev":15,"name":"Providence/Green Mem, RI, US","cover":"FEW","clouds":[{"cover":"FEW","base":6500}],"fltCat":"VFR"},{"icaoId":"KSAN","receiptTime":"2026-04-12T09:54:12.395Z","obsTime":1775987460,"reportTime":"2026-04-12T10:00:00.000Z","temp":15.6,"dewp":11.7,"wdir":0,"wspd":0,"visib":"10+","altim":1015.3,"slp":1015.2,"qcField":12,"metarType":"METAR","rawOb":"METAR KSAN 120951Z 00000KT 10SM BKN050 16/12 A2998 RMK AO2 SLP152 T01560117 $","lat":32.7364,"lon":-117.1973,"elev":3,"name":"San Diego Intl Arpt, CA, US","cover":"BKN","clouds":[{"cover":"BKN","base":5000}],"fltCat":"VFR"},{"icaoId":"KSAT","receiptTime":"2026-04-12T09:54:12.978Z","obsTime":1775987460,"reportTime":"2026-04-12T10:00:00.000Z","temp":21.1,"dewp":20.6,"wdir":140,"wspd":12,"visib":6,"altim":1016.7,"slp":1014.7,"qcField":4,"wxString":"-RA BR","precip":0.01,"metarType":"METAR","rawOb":"METAR KSAT 120951Z 14012KT 6SM -RA BR OVC007 21/21 A3002 RMK AO2 RAB05 CIG 004V012 SLP147 P0001 T02110206","lat":29.5443,"lon":-98.4839,"elev":246,"name":"San Antonio Intl, TX, US","cover":"OVC","clouds":[{"cover":"OVC","base":700}],"fltCat":"IFR"},{"icaoId":"KSAD","receiptTime":"2026-04-12T09:54:12.381Z","obsTime":1775987460,"reportTime":"2026-04-12T10:00:00.000Z","temp":18.3,"dewp":-2.8,"wdir":330,"wspd":8,"visib":"10+","altim":1015,"slp":1010.1,"qcField":6,"metarType":"METAR","rawOb":"METAR KSAD 120951Z AUTO 33008KT 10SM CLR 18/M03 A2997 RMK AO2 SLP101 T01831028","lat":32.8565,"lon":-109.636,"elev":937,"name":"Safford Rgnl, AZ, US","cover":"CLR","clouds":[],"fltCat":"VFR"},{"icaoId":"KEWR","receiptTime":"2026-04-12T09:54:13.507Z","obsTime":1775987460,"reportTime":"2026-04-12T10:00:00.000Z","temp":5,"dewp":-3.3,"wdir":10,"wspd":6,"visib":"10+","altim":1032.6,"slp":1032.3,"qcField":4,"metarType":"METAR","rawOb":"METAR KEWR 120951Z 01006KT 10SM CLR 05/M03 A3049 RMK AO2 SLP323 T00501033","lat":40.6828,"lon":-74.1692,"elev":2,"name":"Newark Intl, NJ, US","cover":"CLR","clouds":[],"fltCat":"VFR"},{"icaoId":"KCMH","receiptTime":"2026-04-12T09:54:13.384Z","obsTime":1775987460,"reportTime":"2026-04-12T10:00:00.000Z","temp":10,"dewp":1.1,"wdir":140,"wspd":3,"visib":"10+","altim":1024.1,"slp":1024.2,"qcField":4,"metarType":"METAR","rawOb":"METAR KCMH 120951Z 14003KT 10SM OVC230 10/01 A3024 RMK AO2 SLP242 T01000011","lat":39.9907,"lon":-82.877,"elev":257,"name":"Columbus/Glenn Intl, OH, US","cover":"OVC","clouds":[{"cover":"OVC","base":23000}],"fltCat":"VFR"},{"icaoId":"KBDL","receiptTime":"2026-04-12T09:54:13.277Z","obsTime":1775987460,"reportTime":"2026-04-12T10:00:00.000Z","temp":0,"dewp":-3.9,"wdir":320,"wspd":6,"visib":"10+","altim":1031.9,"slp":1031.8,"qcField":4,"metarType":"METAR","rawOb":"METAR KBDL 120951Z 32006KT 10SM CLR 00/M04 A3047 RMK AO2 SLP318 T00001039","lat":41.9374,"lon":-72.682,"elev":52,"name":"Hartford/Bradley Intl, CT, US","cover":"CLR","clouds":[],"fltCat":"VFR"}]