[{"icaoId":"KPDX","receiptTime":"2026-04-16T06:32:09.712Z","obsTime":1776320880,"reportTime":"2026-04-16T06:28:00.000Z","temp":4.4,"dewp":2.2,"wdir":210,"wspd":4,"visib":"10+","altim":1019,"qcField":12,"metarType":"SPECI","rawOb":"SPECI KPDX 160628Z 21004KT 10SM FEW016 BKN038 OVC050 04/02 A3009 RMK AO2 T00440022 $","lat":45.5958,"lon":-122.6092,"elev":7,"name":"Portland Intl, OR, US","cover":"OVC","clouds":[{"cover":"FEW","base":1600},{"cover":"BKN","base":3800},{"cover":"OVC","base":5000}],"fltCat":"VFR"},{"icaoId":"KHRL","receiptTime":"2026-04-16T06:31:04.185Z","obsTime":1776320880,"reportTime":"2026-04-16T06:28:00.000Z","temp":23.3,"dewp":22.2,"wdir":150,"wspd":8,"visib":"10+","altim":1013.6,"qcField":4,"metarType":"SPECI","rawOb":"SPECI KHRL 160628Z 15008KT 10SM BKN019 23/22 A2993 RMK AO2 T02330222","lat":26.2303,"lon":-97.6556,"elev":9,"name":"Harlingen/Valley Intl, TX, US","cover":"BKN","clouds":[{"cover":"BKN","base":1900}],"fltCat":"MVFR"},{"icaoId":"KTWF","receiptTime":"2026-04-16T06:31:04.302Z","obsTime":1776320880,"reportTime":"2026-04-16T06:28:00.000Z","temp":1.7,"dewp":0.6,"wdir":260,"wspd":18,"wgst":24,"visib":"10+","altim":1011.6,"qcField":14,"wxString":"-RA","precip":0.005,"metarType":"SPECI","rawOb":"SPECI KTWF 160628Z AUTO 26018G24KT 10SM -RA SCT012 BKN016 OVC031 02/01 A2987 RMK AO2 PK WND 28026/0608 P0000 T00170006 $","lat":42.4785,"lon":-114.4775,"elev":1269,"name":"Twin Falls/Joslin Fld, ID, US","cover":"OVC","clouds":[{"cover":"SCT","base":1200},{"cover":"BKN","base":1600},{"cover":"OVC","base":3100}],"fltCat":"MVFR"},{"icaoId":"KBDL","receiptTime":"2026-04-16T06:32:09.844Z","obsTime":1776320880,"reportTime":"2026-04-16T06:28:00.000Z","temp":18.3,"dewp":17.8,"wdir":250,"wspd":24,"wgst":31,"visib":1.5,"altim":1013.3,"qcField":4,"wxString":"+TSRA BR","precip":0.01,"metarType":"SPECI","rawOb":"SPECI KBDL 160628Z 25024G31KT 1 1/2SM R06/3500VP6000FT +TSRA BR FEW026 SCT040CB OVC080 18/18 A2992 RMK AO2 PK WND 25031/0627 LTG DSNT NW RAB21 TSB21 PRESRR OCNL LTGIC OHD TS OHD MOV E P0001 T01830178","lat":41.9374,"lon":-72.682,"elev":52,"name":"Hartford/Bradley Intl, CT, US","cover":"OVC","clouds":[{"cover":"FEW","base":2600},{"cover":"SCT","base":4000},{"cover":"OVC","base":8000}],"fltCat":"IFR"},{"icaoId":"KSEA","receiptTime":"2026-04-16T06:30:06.989Z","obsTime":1776320820,"reportTime":"2026-04-16T06:27:00.000Z","temp":2.2,"dewp":1.7,"wdir":180,"wspd":6,"visib":"10+","altim":1017,"qcField":12,"wxString":"-RA","precip":0.005,"metarType":"SPECI","rawOb":"SPECI KSEA 160627Z 18006KT 10SM -RA BKN006 BKN009 OVC049 02/02 A3003 RMK AO2 P0000 T00220017 $","lat":47.4447,"lon":-122.3144,"elev":115,"name":"Seattle-Tacoma Intl, WA, US","cover":"OVC","clouds":[{"cover":"BKN","base":600},{"cover":"BKN","base":900},{"cover":"OVC","base":4900}],"fltCat":"IFR"},{"icaoId":"KPVD","receiptTime":"2026-04-16T06:28:03.633Z","obsTime":1776320640,"reportTime":"2026-04-16T06:24:00.000Z","temp":12.8,"dewp":12.2,"wdir":40,"wspd":10,"visib":8,"altim":1011.9,"qcField":12,"wxString":"-RA","precip":0.06,"metarType":"SPECI","rawOb":"SPECI KPVD 160624Z 04010KT 8SM -RA FEW075 OVC100 13/12 A2988 RMK AO2 LTG DSNT N-SE TSE0558 PRESFR P0006 T01280122 $","lat":41.7225,"lon":-71.4325,"elev":15,"name":"Providence/Green Mem, RI, US","cover":"OVC","clouds":[{"cover":"FEW","base":7500},{"cover":"OVC","base":10000}],"fltCat":"VFR"},{"icaoId":"KBRO","receiptTime":"2026-04-16T06:28:04.874Z","obsTime":1776320640,"reportTime":"2026-04-16T06:24:00.000Z","temp":25,"dewp":22.2,"wdir":150,"wspd":12,"visib":"10+","altim":1014,"qcField":6,"metarType":"SPECI","rawOb":"SPECI KBRO 160624Z AUTO 15012KT 10SM SCT014 BKN020 25/22 A2994 RMK AO2 T02500222","lat":25.9146,"lon":-97.4231,"elev":6,"name":"Brownsville Intl, TX, US","cover":"BKN","clouds":[{"cover":"SCT","base":1400},{"cover":"BKN","base":2000}],"fltCat":"MVFR"},{"icaoId":"KSFO","receiptTime":"2026-04-16T06:26:14.234Z","obsTime":1776320580,"reportTime":"2026-04-16T06:23:00.000Z","temp":13.9,"dewp":10.6,"wdir":290,"wspd":11,"visib":"10+","altim":1018.7,"qcField":12,"metarType":"SPECI","rawOb":"SPECI KSFO 160623Z 29011KT 10SM FEW012 BKN014 14/11 A3008 RMK AO2 T01390106 $","lat":37.6196,"lon":-122.3656,"elev":2,"name":"San Francisco Intl, CA, US","cover":"BKN","clouds":[{"cover":"FEW","base":1200},{"cover":"BKN","base":1400}],"fltCat":"MVFR"},{"icaoId":"KBZN","receiptTime":"2026-04-16T06:26:14.207Z","obsTime":1776320580,"reportTime":"2026-04-16T06:23:00.000Z","temp":0.6,"dewp":0,"wdir":320,"wspd":10,"visib":2.5,"altim":1005.2,"qcField":4,"wxString":"-SN BR","precip":0.005,"metarType":"SPECI","rawOb":"SPECI KBZN 160623Z 32010KT 2 1/2SM -SN BR OVC012 01/00 A2968 RMK AO2 P0000 T00060000","lat":45.7876,"lon":-111.1615,"elev":1349,"name":"Bozeman/Gallatin Fld, MT, US","cover":"OVC","clouds":[{"cover":"OVC","base":1200}],"fltCat":"IFR"},{"icaoId":"KMSY","receiptTime":"2026-04-16T06:22:09.816Z","obsTime":1776320340,"reportTime":"2026-04-16T06:19:00.000Z","temp":21.7,"dewp":19.4,"wdir":140,"wspd":6,"visib":"10+","altim":1017.7,"qcField":4,"metarType":"SPECI","rawOb":"SPECI KMSY 160619Z 14006KT 10SM BKN018 BKN023 22/19 A3005 RMK AO2 T02170194","lat":29.9974,"lon":-90.2777,"elev":0,"name":"New Orleans/Armstrong Intl, LA, US","cover":"BKN","clouds":[{"cover":"BKN","base":1800},{"cover":"BKN","base":2300}],"fltCat":"MVFR"},{"icaoId":"KPAE","receiptTime":"2026-04-16T06:22:09.829Z","obsTime":1776320340,"reportTime":"2026-04-16T06:19:00.000Z","temp":3.9,"dewp":2.2,"wdir":250,"wspd":8,"visib":"10+","altim":1016.3,"qcField":6,"metarType":"SPECI","rawOb":"SPECI KPAE 160619Z AUTO 25008KT 10SM SCT009 BKN013 BKN080 04/02 A3001 RMK AO2 T00390022","lat":47.9232,"lon":-122.2831,"elev":166,"name":"Everett/Paine Fld, WA, US","cover":"BKN","clouds":[{"cover":"SCT","base":900},{"cover":"BKN","base":1300},{"cover":"BKN","base":8000}],"fltCat":"MVFR"},{"icaoId":"KHOB","receiptTime":"2026-04-16T06:18:20.996Z","obsTime":1776320100,"reportTime":"2026-04-16T06:15:00.000Z","temp":10,"dewp":-13,"wdir":270,"wspd":10,"visib":"10+","altim":1016,"qcField":6,"metarType":"METAR","rawOb":"METAR KHOB 160615Z AUTO 27010KT 10SM CLR 10/M13 A3000 RMK AO2","lat":32.6797,"lon":-103.2222,"elev":1112,"name":"Hobbs Arpt, NM, US","cover":"CLR","clouds":[],"fltCat":"VFR"},{"icaoId":"KBVU","receiptTime":"2026-04-16T06:16:08.682Z","obsTime":1776320100,"reportTime":"2026-04-16T06:15:00.000Z","temp":21,"dewp":-7,"wdir":"VRB","wspd":5,"visib":"10+","altim":1011.3,"qcField":6,"metarType":"METAR","rawOb":"METAR KBVU 160615Z AUTO VRB05KT 10SM CLR 21/M07 A2986 RMK AO2","lat":35.9489,"lon":-114.8633,"elev":654,"name":"Boulder City Muni, NV, US","cover":"CLR","clouds":[],"fltCat":"VFR"},{"icaoId":"KLRU","receiptTime":"2026-04-16T06:18:18.342Z","obsTime":1776320100,"reportTime":"2026-04-16T06:15:00.000Z","temp":10.2,"dewp":-19.5,"wdir":290,"wspd":6,"visib":"10+","altim":1017.7,"qcField":6,"metarType":"METAR","rawOb":"METAR KLRU 160615Z AUTO 29006KT 10SM CLR 10/M19 A3005 RMK AO2 T01021195","lat":32.2884,"lon":-106.9131,"elev":1355,"name":"Las Cruces Intl, NM, US","cover":"CLR","clouds":[],"fltCat":"VFR"},{"icaoId":"KCXP","receiptTime":"2026-04-16T06:20:39.320Z","obsTime":1776320100,"reportTime":"2026-04-16T06:15:00.000Z","temp":11,"dewp":-3,"wdir":230,"wspd":6,"wgst":12,"visib":"10+","altim":1015,"qcField":6,"metarType":"METAR","rawOb":"METAR KCXP 160615Z AUTO 23006G12KT 10SM FEW060 FEW070 11/M03 A2997 RMK AO2","lat":39.1905,"lon":-119.7319,"elev":1431,"name":"Carson City Arpt, NV, US","cover":"FEW","clouds":[{"cover":"FEW","base":6000},{"cover":"FEW","base":7000}],"fltCat":"VFR"},{"icaoId":"KAEG","receiptTime":"2026-04-16T06:20:42.381Z","obsTime":1776320100,"reportTime":"2026-04-16T06:15:00.000Z","temp":5.3,"dewp":-11,"wdir":300,"wspd":6,"visib":"10+","altim":1018.7,"qcField":6,"metarType":"METAR","rawOb":"METAR KAEG 160615Z AUTO 30006KT 10SM CLR 05/M11 A3008 RMK AO2 T00531110","lat":35.15,"lon":-106.7929,"elev":1771,"name":"Albuquerque/Double Eagle Arpt, NM, US","cover":"CLR","clouds":[],"fltCat":"VFR"},{"icaoId":"KHII","receiptTime":"2026-04-16T06:20:38.773Z","obsTime":1776320100,"reportTime":"2026-04-16T06:15:00.000Z","temp":24,"dewp":-6,"wdir":0,"wspd":0,"visib":"10+","altim":1011.6,"qcField":6,"metarType":"METAR","rawOb":"METAR KHII 160615Z AUTO 00000KT 10SM CLR 24/M06 A2987 RMK AO2","lat":34.5659,"lon":-114.3522,"elev":241,"name":"Lake Havasu City Arpt, AZ, US","cover":"CLR","clouds":[],"fltCat":"VFR"},{"icaoId":"KDLN","receiptTime":"2026-04-16T06:18:28.466Z","obsTime":1776320100,"reportTime":"2026-04-16T06:15:00.000Z","temp":0,"dewp":0,"wdir":0,"wspd":0,"visib":0.75,"altim":1004.8,"qcField":6,"wxString":"-SN BR","precip":0.02,"metarType":"SPECI","rawOb":"SPECI KDLN 160615Z AUTO 00000KT 3/4SM -SN BR FEW004 OVC009 00/00 A2967 RMK AO2 P0002 T00000000","lat":45.2584,"lon":-112.5546,"elev":1586,"name":"Dillon Arpt, MT, US","cover":"OVC","clouds":[{"cover":"FEW","base":400},{"cover":"OVC","base":900}],"fltCat":"LIFR"},{"icaoId":"KBJC","receiptTime":"2026-04-16T06:20:16.636Z","obsTime":1776320100,"reportTime":"2026-04-16T06:15:00.000Z","temp":10,"dewp":-7,"wdir":0,"wspd":0,"visib":"10+","altim":1012.6,"qcField":6,"metarType":"METAR","rawOb":"METAR KBJC 160615Z AUTO 00000KT 10SM CLR 10/M07 A2990 RMK AO2","lat":39.9008,"lon":-105.1042,"elev":1694,"name":"Rocky Mtn Metro, CO, US","cover":"CLR","clouds":[],"fltCat":"VFR"},{"icaoId":"KHTH","receiptTime":"2026-04-16T06:20:41.552Z","obsTime":1776320100,"reportTime":"2026-04-16T06:15:00.000Z","temp":14,"dewp":-4,"wdir":240,"wspd":11,"visib":"10+","altim":1013.6,"qcField":6,"metarType":"METAR","rawOb":"METAR KHTH 160615Z AUTO 24011KT 10SM CLR 14/M04 A2993 RMK A01","lat":38.5448,"lon":-118.6314,"elev":1281,"name":"Hawthorne Muni, NV, US","cover":"CLR","clouds":[],"fltCat":"VFR"},{"icaoId":"KSEZ","receiptTime":"2026-04-16T06:20:35.281Z","obsTime":1776320100,"reportTime":"2026-04-16T06:15:00.000Z","temp":14,"dewp":-5,"wdir":0,"wspd":0,"visib":"10+","altim":1018,"qcField":6,"metarType":"METAR","rawOb":"METAR KSEZ 160615Z AUTO 00000KT 10SM CLR 14/M05 A3006 RMK AO2","lat":34.8467,"lon":-111.7884,"elev":1455,"name":"Sedona Arpt, AZ, US","cover":"CLR","clouds":[],"fltCat":"VFR"},{"icaoId":"KIFP","receiptTime":"2026-04-16T06:20:41.905Z","obsTime":1776320100,"reportTime":"2026-04-16T06:15:00.000Z","temp":23,"dewp":-4,"wdir":0,"wspd":0,"visib":"10+","altim":1010.6,"qcField":6,"metarType":"METAR","rawOb":"METAR KIFP 160615Z AUTO 00000KT 10SM CLR 23/M04 A2984 RMK AO2","lat":35.1487,"lon":-114.5611,"elev":210,"name":"Bullhead City Intl, AZ, US","cover":"CLR","clouds":[],"fltCat":"VFR"},{"icaoId":"KSUN","receiptTime":"2026-04-16T06:20:15.308Z","obsTime":1776320100,"reportTime":"2026-04-16T06:15:00.000Z","wdir":240,"wspd":3,"visib":"10+","altim":1007.5,"qcField":6,"metarType":"METAR","rawOb":"METAR KSUN 160615Z AUTO 24003KT 10SM BKN070 OVC080 A2975 RMK AO2","lat":43.4969,"lon":-114.2923,"elev":1619,"name":"Hailey/Friedman Mem, ID, US","cover":"OVC","clouds":[{"cover":"BKN","base":7000},{"cover":"OVC","base":8000}],"fltCat":"VFR"},{"icaoId":"KMEV","receiptTime":"2026-04-16T06:20:36.498Z","obsTime":1776320100,"reportTime":"2026-04-16T06:15:00.000Z","temp":9,"dewp":-1,"wdir":170,"wspd":6,"visib":"10+","altim":1014.6,"qcField":6,"metarType":"METAR","rawOb":"METAR KMEV 160615Z AUTO 17006KT 10SM SCT065 09/M01 A2996 RMK AO2","lat":38.9963,"lon":-119.75,"elev":1437,"name":"Minden-Tahoe Arpt, NV, US","cover":"SCT","clouds":[{"cover":"SCT","base":6500}],"fltCat":"VFR"},{"icaoId":"KHAF","receiptTime":"2026-04-16T06:18:20.860Z","obsTime":1776320100,"reportTime":"2026-04-16T06:15:00.000Z","temp":13,"dewp":13,"wdir":340,"wspd":9,"visib":9,"altim":1019.4,"qcField":6,"metarType":"METAR","rawOb":"METAR KHAF 160615Z AUTO 34009KT 9SM OVC014 13/13 A3010 RMK AO2","lat":37.5136,"lon":-122.4996,"elev":11,"name":"Half Moon Bay Arpt, CA, US","cover":"OVC","clouds":[{"cover":"OVC","base":1400}],"fltCat":"MVFR"},{"icaoId":"KROC","receiptTime":"2026-04-16T06:18:28.601Z","obsTime":1776320100,"reportTime":"2026-04-16T06:15:00.000Z","temp":16.1,"dewp":15.6,"wdir":0,"wspd":0,"visib":3,"altim":1010.9,"qcField":12,"wxString":"-DZ BR","precip":0.005,"metarType":"SPECI","rawOb":"SPECI KROC 160615Z 00000KT 3SM -DZ BR OVC009 16/16 A2985 RMK AO2 CIG 006V011 P0000 T01610156 $","lat":43.1172,"lon":-77.6754,"elev":166,"name":"Rochester Intl Arpt, NY, US","cover":"OVC","clouds":[{"cover":"OVC","base":900}],"fltCat":"IFR"},{"icaoId":"KCHD","receiptTime":"2026-04-16T06:18:23.806Z","obsTime":1776320100,"reportTime":"2026-04-16T06:15:00.000Z","temp":20.1,"dewp":0.6,"wdir":0,"wspd":0,"visib":"10+","altim":1013,"qcField":14,"metarType":"METAR","rawOb":"METAR KCHD 160615Z AUTO 00000KT 10SM CLR 20/01 A2991 RMK AO2 T02010006 $","lat":33.2669,"lon":-111.8086,"elev":378,"name":"Chandler Muni, AZ, US","cover":"CLR","clouds":[],"fltCat":"VFR"},{"icaoId":"KHCR","receiptTime":"2026-04-16T06:18:20.885Z","obsTime":1776320100,"reportTime":"2026-04-16T06:15:00.000Z","temp":13.9,"dewp":-5.2,"wdir":220,"wspd":9,"wgst":19,"visib":"10+","altim":1010.6,"qcField":14,"metarType":"METAR","rawOb":"METAR KHCR 160615Z AUTO 22009G19KT 10SM FEW060 OVC100 14/M05 A2984 RMK AO2 T01391052 $","lat":40.4774,"lon":-111.4329,"elev":1708,"name":"Heber City Muni, UT, US","cover":"OVC","clouds":[{"cover":"FEW","base":6000},{"cover":"OVC","base":10000}],"fltCat":"VFR"},{"icaoId":"KSOW","receiptTime":"2026-04-16T06:18:17.692Z","obsTime":1776320100,"reportTime":"2026-04-16T06:15:00.000Z","temp":8,"dewp":-8,"wdir":170,"wspd":10,"visib":"10+","altim":1020.7,"qcField":6,"metarType":"METAR","rawOb":"METAR KSOW 160615Z AUTO 17010KT 10SM CLR 08/M08 A3014 RMK AO2","lat":34.2686,"lon":-110.0019,"elev":1954,"name":"Show Low Muni, AZ, US","cover":"CLR","clouds":[],"fltCat":"VFR"},{"icaoId":"KRTS","receiptTime":"2026-04-16T06:20:34.728Z","obsTime":1776320100,"reportTime":"2026-04-16T06:15:00.000Z","temp":7,"dewp":-6,"wdir":240,"wspd":17,"visib":"10+","altim":1015,"qcField":6,"metarType":"METAR","rawOb":"METAR KRTS 160615Z AUTO 24017KT 10SM CLR 07/M06 A2997 RMK AO2","lat":39.6658,"lon":-119.8731,"elev":1537,"name":"Reno/Stead Arpt, NV, US","cover":"CLR","clouds":[],"fltCat":"VFR"},{"icaoId":"KADM","receiptTime":"2026-04-16T06:20:42.339Z","obsTime":1776320100,"reportTime":"2026-04-16T06:15:00.000Z","temp":15,"dewp":15,"wdir":0,"wspd":0,"visib":"","altim":1012.3,"qcField":134,"metarType":"METAR","rawOb":"METAR KADM 160615Z AUTO 00000KT 15/15 A2989 RMK AO2 PWINO","lat":34.3007,"lon":-97.0089,"elev":223,"name":"Ardmore Muni, OK, US"},{"icaoId":"KMHR","receiptTime":"2026-04-16T06:20:36.557Z","obsTime":1776320100,"reportTime":"2026-04-16T06:15:00.000Z","temp":11,"dewp":11,"wdir":100,"wspd":6,"visib":"10+","altim":1016.7,"qcField":6,"metarType":"METAR","rawOb":"METAR KMHR 160615Z AUTO 10006KT 10SM SCT060 11/11 A3002 RMK AO2","lat":38.56,"lon":-121.284,"elev":30,"name":"Sacramento/Mather Fld, CA, US","cover":"SCT","clouds":[{"cover":"SCT","base":6000}],"fltCat":"VFR"},{"icaoId":"KAST","receiptTime":"2026-04-16T06:14:08.862Z","obsTime":1776319860,"reportTime":"2026-04-16T06:11:00.000Z","temp":3.9,"dewp":3.3,"wdir":120,"wspd":3,"visib":"10+","altim":1018.4,"qcField":6,"wxString":"-RA","precip":0.03,"metarType":"SPECI","rawOb":"SPECI KAST 160611Z AUTO 12003KT 10SM -RA FEW032 BKN040 OVC110 04/03 A3007 RMK AO2 RAB0556 P0003 T00390033","lat":46.157,"lon":-123.8833,"elev":3,"name":"Astoria Rgnl, OR, US","cover":"OVC","clouds":[{"cover":"FEW","base":3200},{"cover":"BKN","base":4000},{"cover":"OVC","base":11000}],"fltCat":"VFR"},{"icaoId":"KPWT","receiptTime":"2026-04-16T06:12:05.092Z","obsTime":1776319740,"reportTime":"2026-04-16T06:09:00.000Z","temp":3,"dewp":3,"wdir":180,"wspd":4,"visib":"10+","altim":1017,"qcField":6,"precip":0.005,"metarType":"SPECI","rawOb":"SPECI KPWT 160609Z AUTO 18004KT 10SM BKN020 03/03 A3003 RMK AO2 UPE07 P0000","lat":47.4942,"lon":-122.7594,"elev":143,"name":"Bremerton Arpt, WA, US","cover":"BKN","clouds":[{"cover":"BKN","base":2000}],"fltCat":"MVFR"},{"icaoId":"KBTV","receiptTime":"2026-04-16T06:10:03.437Z","obsTime":1776319560,"reportTime":"2026-04-16T06:06:00.000Z","temp":9.4,"dewp":8.3,"wdir":300,"wspd":4,"visib":3,"altim":1011.3,"qcField":12,"wxString":"-RA","precip":0.005,"metarType":"SPECI","rawOb":"SPECI KBTV 160606Z 30004KT 3SM -RA BKN007 OVC011 09/08 A2986 RMK AO2 SFC VIS 8 P0000 T00940083 $","lat":44.4682,"lon":-73.1499,"elev":101,"name":"Burlington Intl, VT, US","cover":"OVC","clouds":[{"cover":"BKN","base":700},{"cover":"OVC","base":1100}],"fltCat":"IFR"},{"icaoId":"KBUF","receiptTime":"2026-04-16T06:08:25.129Z","obsTime":1776319440,"reportTime":"2026-04-16T06:04:00.000Z","temp":12.2,"dewp":11.7,"wdir":200,"wspd":9,"visib":0.5,"altim":1011.6,"qcField":12,"wxString":"FG","vertVis":2,"metarType":"SPECI","rawOb":"SPECI KBUF 160604Z 20009KT 1/2SM R23/2600V4500FT FG VV002 12/12 A2987 RMK AO2 T01220117 $","lat":42.94,"lon":-78.7361,"elev":217,"name":"Buffalo-Niagara Intl, NY, US","cover":"OVX","clouds":[{"cover":"OVX","base":200}],"fltCat":"LIFR"},{"icaoId":"KNFL","receiptTime":"2026-04-16T06:00:24.288Z","obsTime":1776319020,"reportTime":"2026-04-16T06:00:00.000Z","temp":12.2,"dewp":-1.7,"wdir":290,"wspd":10,"visib":"10+","altim":1013.6,"slp":1010.8,"qcField":4,"presTend":0.8,"maxT":17.8,"minT":11.7,"metarType":"METAR","rawOb":"METAR KNFL 160557Z 29010KT 10SM SCT120 BKN220 12/M02 A2993 RMK AO2 SLP108 T01221017 10178 20117 51008","lat":39.417,"lon":-118.705,"elev":1199,"name":"Fallon , NV, US","cover":"BKN","clouds":[{"cover":"SCT","base":12000},{"cover":"BKN","base":22000}],"fltCat":"VFR"},{"icaoId":"KSTL","receiptTime":"2026-04-16T06:00:23.606Z","obsTime":1776319020,"reportTime":"2026-04-16T05:57:00.000Z","temp":17.2,"dewp":16.7,"wdir":220,"wspd":8,"visib":"10+","altim":1011.3,"qcField":4,"wxString":"-TSRA","precip":0.01,"metarType":"SPECI","rawOb":"SPECI KSTL 160557Z 22008KT 10SM -TSRA SCT065CB BKN090 OVC100 17/17 A2986 RMK AO2 TSB57 OCNL LTGCG SW TS SW MOV NE P0001 T01720167","lat":38.7525,"lon":-90.3734,"elev":163,"name":"St Louis/Lambert Intl, MO, US","cover":"OVC","clouds":[{"cover":"SCT","base":6500},{"cover":"BKN","base":9000},{"cover":"OVC","base":10000}],"fltCat":"VFR"},{"icaoId":"KFLG","receiptTime":"2026-04-16T06:00:33.229Z","obsTime":1776319020,"reportTime":"2026-04-16T06:00:00.000Z","temp":2.2,"dewp":-6.1,"wdir":0,"wspd":0,"visib":"10+","altim":1020.4,"slp":1015.6,"qcField":6,"presTend":0.7,"maxT":15,"minT":2.2,"metarType":"METAR","rawOb":"METAR KFLG 160557Z AUTO 00000KT 10SM CLR 02/M06 A3013 RMK AO2 SLP156 T00221061 10150 20022 50007","lat":35.1443,"lon":-111.6664,"elev":2134,"name":"Flagstaff/Pulliam Arpt, AZ, US","cover":"CLR","clouds":[],"fltCat":"VFR"},{"icaoId":"KENV","receiptTime":"2026-04-16T05:58:25.859Z","obsTime":1776318960,"reportTime":"2026-04-16T06:00:00.000Z","temp":15.6,"dewp":-6.1,"wdir":240,"wspd":14,"visib":"10+","altim":1008.9,"slp":1006.1,"qcField":6,"presTend":0.4,"maxT":20,"minT":15.6,"maxT24":22.2,"minT24":5,"metarType":"METAR","rawOb":"METAR KENV 160556Z AUTO 24014KT 10SM CLR 16/M06 A2979 RMK AO2 SLP061 T01561061 10200 20156 402220050 51004","lat":40.7211,"lon":-114.0312,"elev":1291,"name":"Wendover Arpt, UT, US","cover":"CLR","clouds":[],"fltCat":"VFR"},{"icaoId":"KEKO","receiptTime":"2026-04-16T06:00:22.042Z","obsTime":1776318960,"reportTime":"2026-04-16T06:00:00.000Z","temp":11.1,"dewp":-3.3,"wdir":250,"wspd":19,"wgst":28,"visib":"10+","altim":1009.6,"slp":1006.7,"qcField":6,"presTend":0.1,"maxT":15.6,"minT":10,"metarType":"METAR","rawOb":"METAR KEKO 160556Z AUTO 25019G28KT 10SM CLR 11/M03 A2981 RMK AO2 PK WND 25028/0555 SLP067 T01111033 10156 20100 50001","lat":40.824,"lon":-115.7863,"elev":1541,"name":"Elko Rgnl, NV, US","cover":"CLR","clouds":[],"fltCat":"VFR"},{"icaoId":"KRDM","receiptTime":"2026-04-16T06:00:17.663Z","obsTime":1776318960,"reportTime":"2026-04-16T06:00:00.000Z","temp":-1.1,"dewp":-5.6,"wdir":310,"wspd":3,"visib":"10+","altim":1015.7,"slp":1016.9,"qcField":6,"presTend":1.2,"maxT":5,"minT":-1.7,"pcp6hr":0.005,"metarType":"METAR","rawOb":"METAR KRDM 160556Z AUTO 31003KT 10SM FEW070 SCT090 M01/M06 A2999 RMK AO2 SLP169 60000 T10111056 10050 21017 51012","lat":44.2558,"lon":-121.1407,"elev":930,"name":"Redmond Muni, OR, US","cover":"SCT","clouds":[{"cover":"FEW","base":7000},{"cover":"SCT","base":9000}],"fltCat":"VFR"},{"icaoId":"KCHS","receiptTime":"2026-04-16T06:00:19.767Z","obsTime":1776318960,"reportTime":"2026-04-16T06:00:00.000Z","temp":18.9,"dewp":16.7,"wdir":200,"wspd":5,"visib":"10+","altim":1019.4,"slp":1019.3,"qcField":4,"presTend":-0.5,"maxT":21.7,"minT":18.3,"metarType":"METAR","rawOb":"METAR KCHS 160556Z 20005KT 10SM FEW250 19/17 A3010 RMK AO2 SLP193 T01890167 10217 20183 56005","lat":32.8995,"lon":-80.0407,"elev":12,"name":"Charleston Intl, SC, US","cover":"FEW","clouds":[{"cover":"FEW","base":25000}],"fltCat":"VFR"},{"icaoId":"KSDF","receiptTime":"2026-04-16T06:00:22.741Z","obsTime":1776318960,"reportTime":"2026-04-16T06:00:00.000Z","temp":22.8,"dewp":12.2,"wdir":210,"wspd":8,"visib":"10+","altim":1013.3,"slp":1012.8,"qcField":4,"presTend":-0.4,"maxT":27.2,"minT":22.8,"metarType":"METAR","rawOb":"METAR KSDF 160556Z 21008KT 10SM FEW180 SCT250 23/12 A2992 RMK AO2 SLP128 T02280122 10272 20228 56004","lat":38.1774,"lon":-85.7308,"elev":146,"name":"Louisville Intl, KY, US","cover":"SCT","clouds":[{"cover":"FEW","base":18000},{"cover":"SCT","base":25000}],"fltCat":"VFR"},{"icaoId":"KDUG","receiptTime":"2026-04-16T06:02:06.655Z","obsTime":1776318960,"reportTime":"2026-04-16T06:00:00.000Z","temp":11.7,"dewp":-11.7,"wdir":10,"wspd":9,"visib":"10+","altim":1017,"slp":1012.6,"qcField":38,"presTend":1.1,"maxT":25,"minT":11.1,"metarType":"METAR","rawOb":"METAR KDUG 160556Z AUTO 01009KT 10SM CLR 12/M12 A3003 RMK AO2 SLP126 T01171117 10250 20111 50011 TSNO","lat":31.4725,"lon":-109.6022,"elev":1260,"name":"Douglas/Bisbee Intl, AZ, US","cover":"CLR","clouds":[],"fltCat":"VFR"},{"icaoId":"KINW","receiptTime":"2026-04-16T06:00:19.589Z","obsTime":1776318960,"reportTime":"2026-04-16T06:00:00.000Z","temp":10,"dewp":-3.9,"wdir":220,"wspd":6,"visib":"10+","altim":1017.7,"slp":1013.8,"qcField":6,"presTend":0.9,"maxT":20.6,"minT":10,"metarType":"METAR","rawOb":"METAR KINW 160556Z AUTO 22006KT 10SM CLR 10/M04 A3005 RMK AO2 SLP138 T01001039 10206 20100 50009","lat":35.0279,"lon":-110.7221,"elev":1492,"name":"Winslow/Lindberg Rgnl, AZ, US","cover":"CLR","clouds":[],"fltCat":"VFR"},{"icaoId":"KSBP","receiptTime":"2026-04-16T06:00:21.189Z","obsTime":1776318960,"reportTime":"2026-04-16T06:00:00.000Z","temp":11.1,"dewp":9.4,"wdir":0,"wspd":0,"visib":"10+","altim":1016.3,"slp":1016.3,"qcField":6,"presTend":0.3,"maxT":17.8,"minT":11.1,"metarType":"METAR","rawOb":"METAR KSBP 160556Z AUTO 00000KT 10SM CLR 11/09 A3001 RMK AO2 SLP163 T01110094 10178 20111 50003","lat":35.2381,"lon":-120.644,"elev":52,"name":"San Luis Obispo/San Luis Cnty, CA, US","cover":"CLR","clouds":[],"fltCat":"VFR"},{"icaoId":"KSLE","receiptTime":"2026-04-16T06:00:17.694Z","obsTime":1776318960,"reportTime":"2026-04-16T06:00:00.000Z","temp":2.8,"dewp":1.1,"wdir":190,"wspd":5,"visib":"10+","altim":1019.7,"slp":1019.6,"qcField":6,"presTend":1.8,"maxT":10.6,"minT":2.8,"pcp6hr":0.04,"metarType":"METAR","rawOb":"METAR KSLE 160556Z AUTO 19005KT 10SM SCT090 03/01 A3011 RMK AO2 SLP196 60004 T00280011 10106 20028 51018","lat":44.9049,"lon":-123.001,"elev":63,"name":"Salem Muni, OR, US","cover":"SCT","clouds":[{"cover":"SCT","base":9000}],"fltCat":"VFR"},{"icaoId":"KTPH","receiptTime":"2026-04-16T06:00:17.706Z","obsTime":1776318960,"reportTime":"2026-04-16T06:00:00.000Z","temp":9.4,"dewp":-7.2,"wdir":310,"wspd":6,"visib":"10+","altim":1014.6,"slp":1010.7,"qcField":6,"presTend":0.5,"maxT":18.9,"minT":9.4,"metarType":"METAR","rawOb":"METAR KTPH 160556Z AUTO 31006KT 10SM CLR 09/M07 A2996 RMK AO2 SLP107 T00941072 10189 20094 50005","lat":38.0505,"lon":-117.0906,"elev":1647,"name":"Tonopah Arpt, NV, US","cover":"CLR","clouds":[],"fltCat":"VFR"},{"icaoId":"KUKI","receiptTime":"2026-04-16T06:00:17.741Z","obsTime":1776318960,"reportTime":"2026-04-16T06:00:00.000Z","temp":11.1,"dewp":9.4,"wdir":0,"wspd":0,"visib":"10+","altim":1018.4,"slp":1018,"qcField":6,"presTend":0.7,"maxT":16.7,"minT":11.1,"metarType":"METAR","rawOb":"METAR KUKI 160556Z AUTO 00000KT 10SM FEW017 SCT024 11/09 A3007 RMK AO2 SLP180 T01110094 10167 20111 53007","lat":39.1278,"lon":-123.2001,"elev":183,"name":"Ukiah Muni, CA, US","cover":"SCT","clouds":[{"cover":"FEW","base":1700},{"cover":"SCT","base":2400}],"fltCat":"VFR"},{"icaoId":"KJAX","receiptTime":"2026-04-16T06:00:22.223Z","obsTime":1776318960,"reportTime":"2026-04-16T06:00:00.000Z","temp":17.2,"dewp":14.4,"wdir":220,"wspd":4,"visib":"10+","altim":1020.4,"slp":1020.2,"qcField":12,"presTend":-0.2,"maxT":24.4,"minT":16.7,"metarType":"METAR","rawOb":"METAR KJAX 160556Z 22004KT 10SM CLR 17/14 A3013 RMK AO2 SLP202 T01720144 10244 20167 58002 $","lat":30.4953,"lon":-81.6937,"elev":8,"name":"Jacksonville Intl, FL, US","cover":"CLR","clouds":[],"fltCat":"VFR"},{"icaoId":"KMYL","receiptTime":"2026-04-16T06:00:22.978Z","obsTime":1776318960,"reportTime":"2026-04-16T05:56:00.000Z","temp":-2.2,"dewp":-3.9,"wdir":230,"wspd":8,"visib":2.5,"altim":1008.9,"qcField":6,"wxString":"-SN BR","precip":0.005,"metarType":"SPECI","rawOb":"SPECI KMYL 160556Z AUTO 23008KT 2 1/2SM -SN BR OVC030 M02/M04 A2979 RMK AO2 P0000 T10221039","lat":44.8943,"lon":-116.0998,"elev":1532,"name":"McCall Muni, ID, US","cover":"OVC","clouds":[{"cover":"OVC","base":3000}],"fltCat":"IFR"},{"icaoId":"KLAS","receiptTime":"2026-04-16T06:00:19.604Z","obsTime":1776318960,"reportTime":"2026-04-16T06:00:00.000Z","temp":21.7,"dewp":-5,"wdir":180,"wspd":6,"visib":"10+","altim":1011.6,"slp":1009.5,"qcField":4,"presTend":0.1,"maxT":27.8,"minT":21.7,"metarType":"METAR","rawOb":"METAR KLAS 160556Z 18006KT 10SM SCT200 SCT250 22/M05 A2987 RMK AO2 SLP095 T02171050 10278 20217 50001","lat":36.0719,"lon":-115.1634,"elev":662,"name":"Las Vegas/Reid Intl, NV, US","cover":"SCT","clouds":[{"cover":"SCT","base":20000},{"cover":"SCT","base":25000}],"fltCat":"VFR"},{"icaoId":"KCEC","receiptTime":"2026-04-16T06:00:22.011Z","obsTime":1776318960,"reportTime":"2026-04-16T06:00:00.000Z","temp":7.2,"dewp":1.7,"wdir":20,"wspd":6,"visib":"10+","altim":1024.1,"slp":1023.9,"qcField":6,"presTend":2,"maxT":11.7,"minT":7.2,"metarType":"METAR","rawOb":"METAR KCEC 160556Z AUTO 02006KT 10SM CLR 07/02 A3024 RMK AO2 SLP239 T00720017 10117 20072 51020","lat":41.7836,"lon":-124.238,"elev":17,"name":"Crescent City/McNama, CA, US","cover":"CLR","clouds":[],"fltCat":"VFR"},{"icaoId":"KFNL","receiptTime":"2026-04-16T05:58:25.923Z","obsTime":1776318960,"reportTime":"2026-04-16T06:00:00.000Z","temp":13.9,"dewp":-4.4,"wdir":250,"wspd":6,"visib":"10+","altim":1011.3,"slp":1006.2,"qcField":14,"presTend":0.3,"maxT":20,"minT":13.9,"metarType":"METAR","rawOb":"METAR KFNL 160556Z AUTO 25006KT 10SM CLR 14/M04 A2986 RMK AO2 SLP062 T01391044 10200 20139 51003 $","lat":40.4427,"lon":-105.0097,"elev":1529,"name":"Fort Collins/N Colorado Rgnl, CO, US","cover":"CLR","clouds":[],"fltCat":"VFR"},{"icaoId":"KPVU","receiptTime":"2026-04-16T05:58:26.422Z","obsTime":1776318960,"reportTime":"2026-04-16T06:00:00.000Z","temp":15,"dewp":-0.6,"wdir":190,"wspd":5,"visib":"10+","altim":1010.6,"slp":1007.1,"qcField":4,"presTend":0.6,"maxT":20,"minT":15,"maxT24":20,"minT24":2.8,"metarType":"METAR","rawOb":"METAR KPVU 160556Z 19005KT 10SM OVC100 15/M01 A2984 RMK AO2 SLP071 T01501006 10200 20150 402000028 50006","lat":40.224,"lon":-111.7252,"elev":1370,"name":"Provo Muni, UT, US","cover":"OVC","clouds":[{"cover":"OVC","base":10000}],"fltCat":"VFR"},{"icaoId":"KHDN","receiptTime":"2026-04-16T05:58:25.218Z","obsTime":1776318960,"reportTime":"2026-04-16T06:00:00.000Z","temp":6.7,"dewp":-3.9,"wdir":0,"wspd":0,"visib":"10+","altim":1015,"slp":1011.8,"qcField":6,"presTend":-0.1,"maxT":13.3,"minT":6.1,"maxT24":13.9,"minT24":-2.2,"metarType":"METAR","rawOb":"METAR KHDN 160556Z AUTO 00000KT 10SM FEW095 07/M04 A2997 RMK AO2 SLP118 T00671039 10133 20061 401391022 58001","lat":40.4842,"lon":-107.2296,"elev":2012,"name":"Hayden/Yampa Valley Arpt, CO, US","cover":"FEW","clouds":[{"cover":"FEW","base":9500}],"fltCat":"VFR"},{"icaoId":"KCGZ","receiptTime":"2026-04-16T05:58:24.179Z","obsTime":1776318960,"reportTime":"2026-04-16T06:00:00.000Z","temp":20.6,"dewp":-6.1,"wdir":320,"wspd":6,"visib":"10+","altim":1013.6,"slp":1012.4,"qcField":14,"presTend":0.9,"maxT":27.8,"minT":20.6,"metarType":"METAR","rawOb":"METAR KCGZ 160556Z AUTO 32006KT 10SM CLR 21/M06 A2993 RMK AO2 SLP124 6//// T02061061 10278 20206 50009 $","lat":32.9531,"lon":-111.7725,"elev":444,"name":"Casa Granda Muni, AZ, US","cover":"CLR","clouds":[],"fltCat":"VFR"},{"icaoId":"KSGU","receiptTime":"2026-04-16T05:58:23.298Z","obsTime":1776318960,"reportTime":"2026-04-16T06:00:00.000Z","temp":18.9,"dewp":-5.6,"wdir":"VRB","wspd":4,"visib":"10+","altim":1012.6,"slp":1010.5,"qcField":6,"presTend":0.3,"maxT":25,"minT":16.7,"metarType":"METAR","rawOb":"METAR KSGU 160556Z AUTO VRB04KT 10SM CLR 19/M06 A2990 RMK AO2 SLP105 T01891056 10250 20167 50003","lat":37.0444,"lon":-113.5034,"elev":877,"name":"Saint George Muni, UT, US","cover":"CLR","clouds":[],"fltCat":"VFR"},{"icaoId":"KHND","receiptTime":"2026-04-16T05:58:25.272Z","obsTime":1776318960,"reportTime":"2026-04-16T06:00:00.000Z","temp":20.6,"dewp":-4.4,"wdir":240,"wspd":7,"visib":"10+","altim":1012.6,"slp":1012.1,"qcField":12,"presTend":0.2,"maxT":27.2,"minT":20,"metarType":"METAR","rawOb":"METAR KHND 160556Z 24007KT 10SM CLR 21/M04 A2990 RMK AO2 SLP121 T02061044 10272 20200 50002 $","lat":35.9657,"lon":-115.1343,"elev":740,"name":"Henderson Exec, NV, US","cover":"CLR","clouds":[],"fltCat":"VFR"},{"icaoId":"KSDY","receiptTime":"2026-04-16T05:58:26.539Z","obsTime":1776318960,"reportTime":"2026-04-16T06:00:00.000Z","temp":12.2,"dewp":2.2,"wdir":330,"wspd":5,"visib":"10+","altim":999.7,"slp":999.8,"qcField":14,"presTend":-1.1,"maxT":18.9,"minT":11.1,"metarType":"METAR","rawOb":"METAR KSDY 160556Z AUTO 33005KT 10SM BKN110 12/02 A2952 RMK AO2 SLP998 T01220022 10189 20111 58011 $","lat":47.7029,"lon":-104.1951,"elev":600,"name":"Sidney/Richland Muni, MT, US","cover":"BKN","clouds":[{"cover":"BKN","base":11000}],"fltCat":"VFR"},{"icaoId":"KCOD","receiptTime":"2026-04-16T05:58:25.620Z","obsTime":1776318960,"reportTime":"2026-04-16T06:00:00.000Z","temp":7.8,"dewp":-1.1,"wdir":210,"wspd":9,"visib":"10+","altim":1003.5,"slp":1001.3,"qcField":14,"presTend":-1.2,"maxT":13.9,"minT":7.2,"metarType":"METAR","rawOb":"METAR KCOD 160556Z AUTO 21009KT 10SM CLR 08/M01 A2963 RMK AO2 SLP013 T00781011 10139 20072 58012 $","lat":44.52,"lon":-109.0268,"elev":1550,"name":"Cody/Yellowstone Rgnl, WY, US","cover":"CLR","clouds":[],"fltCat":"VFR"},{"icaoId":"KGUC","receiptTime":"2026-04-16T05:58:25.171Z","obsTime":1776318960,"reportTime":"2026-04-16T06:00:00.000Z","temp":1.7,"dewp":-4.4,"wdir":"VRB","wspd":6,"visib":"10+","altim":1020.1,"slp":1017.9,"qcField":78,"presTend":1.1,"maxT":11.1,"minT":1.7,"maxT24":12.2,"minT24":-4.4,"metarType":"METAR","rawOb":"METAR KGUC 160556Z AUTO VRB06KT 10SM CLR 02/M04 A3012 RMK AO2 SLP179 T00171044 10111 20017 401221044 51011 FZRANO $","lat":38.5322,"lon":-106.9419,"elev":2337,"name":"Gunnison Arpt, CO, US","cover":"CLR","clouds":[],"fltCat":"VFR"},{"icaoId":"KLWS","receiptTime":"2026-04-16T06:00:19.736Z","obsTime":1776318960,"reportTime":"2026-04-16T06:00:00.000Z","temp":3.9,"dewp":-0.6,"wdir":160,"wspd":3,"visib":"10+","altim":1011.6,"slp":1012.2,"qcField":6,"presTend":2.4,"maxT":11.7,"minT":3.3,"pcp6hr":0.005,"metarType":"METAR","rawOb":"METAR KLWS 160556Z AUTO 16003KT 10SM BKN070 OVC080 04/M01 A2987 RMK AO2 SLP122 60000 T00391006 10117 20033 51024","lat":46.3746,"lon":-117.0153,"elev":435,"name":"Lewiston/Nez Perce Cnty, ID, US","cover":"OVC","clouds":[{"cover":"BKN","base":7000},{"cover":"OVC","base":8000}],"fltCat":"VFR"},{"icaoId":"KCOE","receiptTime":"2026-04-16T05:58:25.636Z","obsTime":1776318960,"reportTime":"2026-04-16T06:00:00.000Z","temp":0.6,"dewp":-2.2,"wdir":210,"wspd":4,"visib":"10+","altim":1008.9,"slp":1011.8,"qcField":78,"presTend":2.8,"maxT":10.6,"minT":0,"metarType":"METAR","rawOb":"METAR KCOE 160556Z AUTO 21004KT 10SM BKN100 01/M02 A2979 RMK AO2 SLP118 6//// T00061022 10106 20000 51028 FZRANO PNO $","lat":47.7719,"lon":-116.8332,"elev":693,"name":"Coeur DAlene Arpt, ID, US","cover":"BKN","clouds":[{"cover":"BKN","base":10000}],"fltCat":"VFR"},{"icaoId":"KVIS","receiptTime":"2026-04-16T05:58:23.434Z","obsTime":1776318960,"reportTime":"2026-04-16T06:00:00.000Z","temp":16.1,"dewp":7.2,"wdir":300,"wspd":3,"visib":"10+","altim":1016,"slp":1015.8,"qcField":14,"presTend":0.9,"maxT":24.4,"minT":15.6,"metarType":"METAR","rawOb":"METAR KVIS 160556Z AUTO 30003KT 10SM CLR 16/07 A3000 RMK AO2 SLP158 6//// T01610072 10244 20156 51009 PNO $","lat":36.3135,"lon":-119.3884,"elev":92,"name":"Visalia Muni, CA, US","cover":"CLR","clouds":[],"fltCat":"VFR"},{"icaoId":"KJAC","receiptTime":"2026-04-16T05:58:25.395Z","obsTime":1776318960,"reportTime":"2026-04-16T06:00:00.000Z","temp":3.9,"dewp":0.6,"wdir":180,"wspd":11,"visib":"10+","altim":1006.9,"slp":1006.8,"qcField":4,"presTend":-1.9,"maxT":6.1,"minT":3.3,"precip":0.005,"pcp6hr":0.005,"metarType":"METAR","rawOb":"METAR KJAC 160556Z 18011KT 10SM BKN050 OVC070 04/01 A2973 RMK AO2 RAB07E40 SLP068 P0000 60000 T00390006 10061 20033 58019","lat":43.6129,"lon":-110.7366,"elev":1967,"name":"Jackson Hole Arpt, WY, US","cover":"OVC","clouds":[{"cover":"BKN","base":5000},{"cover":"OVC","base":7000}],"fltCat":"VFR"},{"icaoId":"KEGE","receiptTime":"2026-04-16T05:58:25.810Z","obsTime":1776318960,"reportTime":"2026-04-16T06:00:00.000Z","temp":3.3,"dewp":-3.3,"wdir":80,"wspd":8,"visib":"10+","altim":1017.7,"slp":1014.9,"qcField":6,"presTend":0.6,"maxT":13.3,"minT":3.3,"maxT24":13.9,"metarType":"METAR","rawOb":"METAR KEGE 160556Z AUTO 08008KT 10SM CLR 03/M03 A3005 RMK AO2 SLP149 T00331033 10133 20033 401390000 50006","lat":39.6448,"lon":-106.9176,"elev":1993,"name":"Eagle Cnty Rgnl, CO, US","cover":"CLR","clouds":[],"fltCat":"VFR"},{"icaoId":"KLUF","receiptTime":"2026-04-16T06:08:11.409Z","obsTime":1776318900,"reportTime":"2026-04-16T06:00:00.000Z","temp":21.9,"dewp":-2.8,"wdir":0,"wspd":0,"visib":"10+","altim":1011.9,"slp":1010.9,"qcField":14,"presTend":1.2,"maxT":29.5,"minT":21.9,"metarType":"METAR","rawOb":"METAR KLUF 160555Z AUTO 00000KT 10SM CLR 22/M03 A2988 RMK AO2 SLP109 T02191028 10295 20219 51012 $","lat":33.538,"lon":-112.38,"elev":333,"name":"Phoenix/Luke AFB, AZ, US","cover":"CLR","clouds":[],"fltCat":"VFR"},{"icaoId":"KCMA","receiptTime":"2026-04-16T05:58:24.233Z","obsTime":1776318900,"reportTime":"2026-04-16T06:00:00.000Z","temp":13.3,"dewp":10.6,"wdir":0,"wspd":0,"visib":"10+","altim":1015.3,"slp":1016,"qcField":6,"presTend":0.3,"maxT":20,"minT":13.3,"metarType":"METAR","rawOb":"METAR KCMA 160555Z AUTO 00000KT 10SM CLR 13/11 A2998 RMK AO2 SLP160 T01330106 10200 20133 50003","lat":34.2114,"lon":-119.0876,"elev":20,"name":"Camarillo Arpt, CA, US","cover":"CLR","clouds":[],"fltCat":"VFR"},{"icaoId":"KRNO","receiptTime":"2026-04-16T05:58:26.482Z","obsTime":1776318900,"reportTime":"2026-04-16T06:00:00.000Z","temp":10,"dewp":-3.3,"wdir":290,"wspd":7,"visib":"10+","altim":1014.3,"slp":1011.9,"qcField":4,"presTend":0.7,"maxT":16.7,"minT":10,"metarType":"METAR","rawOb":"METAR KRNO 160555Z 29007KT 10SM FEW070 10/M03 A2995 RMK AO2 SLP119 T01001033 10167 20100 50007","lat":39.5077,"lon":-119.7683,"elev":1344,"name":"Reno/Tahoe Intl, NV, US","cover":"FEW","clouds":[{"cover":"FEW","base":7000}],"fltCat":"VFR"},{"icaoId":"KGPI","receiptTime":"2026-04-16T05:58:26.025Z","obsTime":1776318900,"reportTime":"2026-04-16T06:00:00.000Z","temp":1.1,"dewp":-1.7,"wdir":110,"wspd":6,"visib":"10+","altim":1006.5,"slp":1007.9,"qcField":4,"presTend":2,"maxT":6.7,"minT":0.6,"precip":0.01,"pcp6hr":0.01,"metarType":"METAR","rawOb":"METAR KGPI 160555Z 11006KT 10SM OVC080 01/M02 A2972 RMK AO2 SNE09 SLP079 P0001 60001 T00111017 10067 20006 51020","lat":48.3041,"lon":-114.2643,"elev":903,"name":"Kalispell/Glacier Park Intl, MT, US","cover":"OVC","clouds":[{"cover":"OVC","base":8000}],"fltCat":"VFR"},{"icaoId":"KEND","receiptTime":"2026-04-16T06:16:05.394Z","obsTime":1776318900,"reportTime":"2026-04-16T06:00:00.000Z","temp":17.9,"dewp":15.7,"wdir":190,"wspd":3,"visib":"10+","altim":1009.6,"slp":1008.5,"qcField":14,"presTend":0.9,"maxT":26.8,"minT":17.7,"maxT24":29.7,"minT24":17.7,"metarType":"METAR","rawOb":"METAR KEND 160555Z AUTO 19003KT 10SM CLR 18/16 A2981 RMK AO2 SLP085 T01790157 10268 20177 402970177 52009 $","lat":36.338,"lon":-97.919,"elev":392,"name":"Enid/Vance AFB, OK, US","cover":"CLR","clouds":[],"fltCat":"VFR"},{"icaoId":"KAPC","receiptTime":"2026-04-16T05:58:08.331Z","obsTime":1776318840,"reportTime":"2026-04-16T06:00:00.000Z","temp":11.7,"dewp":10,"wdir":250,"wspd":11,"visib":"10+","altim":1018,"slp":1017.1,"qcField":6,"presTend":0.7,"maxT":17.2,"minT":11.1,"metarType":"METAR","rawOb":"METAR KAPC 160554Z AUTO 25011KT 10SM CLR 12/10 A3006 RMK AO2 SLP171 T01170100 10172 20111 50007","lat":38.2075,"lon":-122.2804,"elev":5,"name":"Napa Cnty Arpt, CA, US","cover":"CLR","clouds":[],"fltCat":"VFR"},{"icaoId":"KSLC","receiptTime":"2026-04-16T05:58:16.945Z","obsTime":1776318840,"reportTime":"2026-04-16T06:00:00.000Z","temp":15.6,"dewp":0.6,"wdir":210,"wspd":6,"visib":"10+","altim":1008.9,"slp":1005.2,"qcField":4,"presTend":0.2,"maxT":20,"minT":15.6,"metarType":"METAR","rawOb":"METAR KSLC 160554Z 21006KT 10SM OVC100 16/01 A2979 RMK AO2 SLP052 T01560006 10200 20156 50002","lat":40.7707,"lon":-111.965,"elev":1286,"name":"Salt Lake City Intl, UT, US","cover":"OVC","clouds":[{"cover":"OVC","base":10000}],"fltCat":"VFR"},{"icaoId":"KOLM","receiptTime":"2026-04-16T05:58:06.416Z","obsTime":1776318840,"reportTime":"2026-04-16T06:00:00.000Z","temp":2.2,"dewp":0.6,"wdir":200,"wspd":7,"visib":"10+","altim":1017,"slp":1017.1,"qcField":6,"presTend":2.2,"maxT":8.9,"minT":1.7,"pcp6hr":0.005,"metarType":"METAR","rawOb":"METAR KOLM 160554Z AUTO 20007KT 10SM FEW055 02/01 A3003 RMK AO2 SLP171 60000 T00220006 10089 20017 51022","lat":46.9737,"lon":-122.9049,"elev":58,"name":"Olympia Rgnl, WA, US","cover":"FEW","clouds":[{"cover":"FEW","base":5500}],"fltCat":"VFR"},{"icaoId":"KRKS","receiptTime":"2026-04-16T05:58:16.805Z","obsTime":1776318840,"reportTime":"2026-04-16T06:00:00.000Z","temp":8.3,"dewp":-4.4,"wdir":240,"wspd":5,"visib":"10+","altim":1011.6,"slp":1006.8,"qcField":6,"presTend":0.4,"maxT":13.3,"minT":7.8,"metarType":"METAR","rawOb":"METAR KRKS 160554Z AUTO 24005KT 10SM OVC090 08/M04 A2987 RMK AO2 SLP068 T00831044 10133 20078 50004","lat":41.5947,"lon":-109.0529,"elev":2062,"name":"Rock Springs/SW Wyoming Rgnl, WY, US","cover":"OVC","clouds":[{"cover":"OVC","base":9000}],"fltCat":"VFR"},{"icaoId":"KGSO","receiptTime":"2026-04-16T05:58:21.366Z","obsTime":1776318840,"reportTime":"2026-04-16T06:00:00.000Z","temp":21.1,"dewp":10.6,"wdir":200,"wspd":4,"visib":"10+","altim":1016.7,"slp":1015.3,"qcField":4,"presTend":-0.9,"maxT":26.7,"minT":20.6,"metarType":"METAR","rawOb":"METAR KGSO 160554Z 20004KT 10SM SCT250 21/11 A3002 RMK AO2 SLP153 T02110106 10267 20206 58009","lat":36.0969,"lon":-79.9432,"elev":275,"name":"Greensboro Intl, NC, US","cover":"SCT","clouds":[{"cover":"SCT","base":25000}],"fltCat":"VFR"},{"icaoId":"KGCN","receiptTime":"2026-04-16T05:58:09.144Z","obsTime":1776318840,"reportTime":"2026-04-16T06:00:00.000Z","temp":1.1,"dewp":-5.6,"wdir":0,"wspd":0,"visib":"10+","altim":1019.7,"slp":1015.5,"qcField":6,"presTend":0.8,"maxT":16.7,"minT":0,"metarType":"METAR","rawOb":"METAR KGCN 160554Z AUTO 00000KT 10SM CLR 01/M06 A3011 RMK AO2 SLP155 T00111056 10167 20000 50008","lat":35.9458,"lon":-112.1554,"elev":1993,"name":"Grand Canyon Park Arpt, AZ, US","cover":"CLR","clouds":[],"fltCat":"VFR"},{"icaoId":"KSJN","receiptTime":"2026-04-16T05:58:16.929Z","obsTime":1776318840,"reportTime":"2026-04-16T06:00:00.000Z","temp":8.3,"dewp":-8.3,"wdir":180,"wspd":6,"visib":"10+","altim":1018.7,"slp":1013.7,"qcField":6,"presTend":1,"maxT":17.8,"minT":6.7,"metarType":"METAR","rawOb":"METAR KSJN 160554Z AUTO 18006KT 10SM CLR 08/M08 A3008 RMK AO2 SLP137 T00831083 10178 20067 51010","lat":34.5184,"lon":-109.3801,"elev":1747,"name":"St Johns Ind Arpt, AZ, US","cover":"CLR","clouds":[],"fltCat":"VFR"},{"icaoId":"KFFZ","receiptTime":"2026-04-16T05:58:09.078Z","obsTime":1776318840,"reportTime":"2026-04-16T06:00:00.000Z","temp":20.6,"dewp":-0.6,"wdir":40,"wspd":3,"visib":"10+","altim":1013,"slp":1010.8,"qcField":4,"presTend":0.9,"maxT":28.3,"minT":20,"metarType":"METAR","rawOb":"METAR KFFZ 160554Z 04003KT 10SM CLR 21/M01 A2991 RMK AO2 SLP108 T02061006 10283 20200 50009","lat":33.4659,"lon":-111.7212,"elev":420,"name":"Mesa/Falcon Fld, AZ, US","cover":"CLR","clouds":[],"fltCat":"VFR"},{"icaoId":"KIND","receiptTime":"2026-04-16T05:58:07.576Z","obsTime":1776318840,"reportTime":"2026-04-16T06:00:00.000Z","temp":20.6,"dewp":16.1,"wdir":230,"wspd":9,"visib":"10+","altim":1011.9,"slp":1011.1,"qcField":4,"presTend":0.4,"maxT":20.6,"minT":18.3,"pcp6hr":0.005,"metarType":"METAR","rawOb":"METAR KIND 160554Z 23009KT 10SM SCT110 OVC130 21/16 A2988 RMK AO2 SLP111 60000 T02060161 10206 20183 50004","lat":39.7252,"lon":-86.2816,"elev":242,"name":"Indianapolis Intl, IN, US","cover":"OVC","clouds":[{"cover":"SCT","base":11000},{"cover":"OVC","base":13000}],"fltCat":"VFR"},{"icaoId":"KDSM","receiptTime":"2026-04-16T05:58:21.336Z","obsTime":1776318840,"reportTime":"2026-04-16T06:00:00.000Z","temp":14.4,"dewp":12.2,"wdir":290,"wspd":11,"visib":"10+","altim":1006.9,"slp":1006.3,"qcField":4,"presTend":1.7,"maxT":19.4,"minT":14.4,"maxT24":26.1,"minT24":14.4,"pcp6hr":0.005,"metarType":"METAR","rawOb":"METAR KDSM 160554Z 29011KT 10SM FEW250 14/12 A2973 RMK AO2 SLP063 60000 T01440122 10194 20144 402610144 53017","lat":41.5339,"lon":-93.6531,"elev":286,"name":"Des Moines Intl, IA, US","cover":"FEW","clouds":[{"cover":"FEW","base":25000}],"fltCat":"VFR"},{"icaoId":"KBFL","receiptTime":"2026-04-16T05:58:08.411Z","obsTime":1776318840,"reportTime":"2026-04-16T06:00:00.000Z","temp":15.6,"dewp":7.2,"wdir":0,"wspd":0,"visib":"10+","altim":1015.7,"slp":1015.1,"qcField":4,"presTend":0.9,"maxT":23.9,"minT":15.6,"metarType":"METAR","rawOb":"METAR KBFL 160554Z 00000KT 10SM CLR 16/07 A2999 RMK AO2 SLP151 T01560072 10239 20156 51009","lat":35.4342,"lon":-119.0552,"elev":146,"name":"Bakersfield/Meadows Arpt, CA, US","cover":"CLR","clouds":[],"fltCat":"VFR"},{"icaoId":"KBOS","receiptTime":"2026-04-16T05:58:08.440Z","obsTime":1776318840,"reportTime":"2026-04-16T06:00:00.000Z","temp":9.4,"dewp":8.3,"wdir":320,"wspd":5,"visib":6,"altim":1013.6,"slp":1013.6,"qcField":12,"wxString":"-RA BR","presTend":0.1,"maxT":9.4,"minT":7.8,"precip":0.005,"pcp6hr":0.005,"metarType":"METAR","rawOb":"METAR KBOS 160554Z 32005KT 6SM -RA BR FEW003 OVC008 09/08 A2993 RMK AO2 LTG DSNT SW RAB32 SLP136 P0000 60000 T00940083 10094 20078 53001 $","lat":42.3606,"lon":-71.0097,"elev":4,"name":"Boston/Logan Intl, MA, US","cover":"OVC","clouds":[{"cover":"FEW","base":300},{"cover":"OVC","base":800}],"fltCat":"IFR"},{"icaoId":"KMEM","receiptTime":"2026-04-16T05:58:04.911Z","obsTime":1776318840,"reportTime":"2026-04-16T06:00:00.000Z","temp":22.2,"dewp":13.3,"wdir":200,"wspd":10,"wgst":24,"visib":"10+","altim":1015.3,"slp":1014.7,"qcField":4,"presTend":0.2,"maxT":26.1,"minT":21.7,"maxT24":28.3,"minT24":19.4,"metarType":"METAR","rawOb":"METAR KMEM 160554Z 20010G24KT 10SM CLR 22/13 A2998 RMK AO2 SLP147 T02220133 10261 20217 402830194 53002","lat":35.0564,"lon":-89.9864,"elev":78,"name":"Memphis Intl, TN, US","cover":"CLR","clouds":[],"fltCat":"VFR"},{"icaoId":"KEUG","receiptTime":"2026-04-16T05:58:08.937Z","obsTime":1776318840,"reportTime":"2026-04-16T06:00:00.000Z","temp":2.8,"dewp":1.7,"wdir":190,"wspd":8,"visib":"10+","altim":1021.4,"slp":1021.5,"qcField":12,"presTend":1.8,"maxT":9.4,"minT":2.2,"precip":0.02,"pcp6hr":0.08,"metarType":"METAR","rawOb":"METAR KEUG 160554Z 19008KT 10SM FEW022 FEW038 03/02 A3016 RMK AO2 RAE05 SLP215 P0002 60008 T00280017 10094 20022 53018 $","lat":44.1331,"lon":-123.2156,"elev":109,"name":"Eugene/Mahlon Sweet Fld, OR, US","cover":"FEW","clouds":[{"cover":"FEW","base":2200},{"cover":"FEW","base":3800}],"fltCat":"VFR"},{"icaoId":"KCOS","receiptTime":"2026-04-16T05:58:21.303Z","obsTime":1776318840,"reportTime":"2026-04-16T06:00:00.000Z","temp":9.4,"dewp":-7.8,"wdir":350,"wspd":7,"visib":"10+","altim":1014,"slp":1009.5,"qcField":4,"presTend":0.3,"maxT":17.8,"minT":6.1,"metarType":"METAR","rawOb":"METAR KCOS 160554Z 35007KT 10SM CLR 09/M08 A2994 RMK AO2 SLP095 T00941078 10178 20061 50003","lat":38.8095,"lon":-104.6887,"elev":1886,"name":"Colorado Spring Arpt, CO, US","cover":"CLR","clouds":[],"fltCat":"VFR"},{"icaoId":"KBWI","receiptTime":"2026-04-16T05:58:08.481Z","obsTime":1776318840,"reportTime":"2026-04-16T06:00:00.000Z","temp":22.2,"dewp":12.2,"wdir":240,"wspd":5,"visib":"10+","altim":1012.3,"slp":1011.9,"qcField":4,"presTend":-0.5,"maxT":27.2,"minT":20,"metarType":"METAR","rawOb":"METAR KBWI 160554Z 24005KT 10SM BKN250 22/12 A2989 RMK AO2 SLP119 T02220122 10272 20200 58005","lat":39.1733,"lon":-76.684,"elev":42,"name":"Baltimore-Washington Intl, MD, US","cover":"BKN","clouds":[{"cover":"BKN","base":25000}],"fltCat":"VFR"},{"icaoId":"KOLS","receiptTime":"2026-04-16T05:58:06.439Z","obsTime":1776318840,"reportTime":"2026-04-16T06:00:00.000Z","temp":13.9,"dewp":-12.2,"wdir":80,"wspd":9,"visib":"10+","altim":1016.7,"slp":1011.9,"qcField":6,"presTend":1,"maxT":25.6,"minT":12.8,"metarType":"METAR","rawOb":"METAR KOLS 160554Z AUTO 08009KT 10SM CLR 14/M12 A3002 RMK AO2 SLP119 T01391122 10256 20128 50010","lat":31.4208,"lon":-110.8465,"elev":1194,"name":"Nogales Intl, AZ, US","cover":"CLR","clouds":[],"fltCat":"VFR"},{"icaoId":"KRIC","receiptTime":"2026-04-16T05:58:21.554Z","obsTime":1776318840,"reportTime":"2026-04-16T06:00:00.000Z","temp":20,"dewp":13.9,"wdir":190,"wspd":6,"visib":"10+","altim":1014.3,"slp":1014.5,"qcField":4,"presTend":-0.9,"maxT":25,"minT":20,"metarType":"METAR","rawOb":"METAR KRIC 160554Z 19006KT 10SM SCT250 20/14 A2995 RMK AO2 SLP145 T02000139 10250 20200 58009","lat":37.5115,"lon":-77.3234,"elev":51,"name":"Richmond Intl, VA, US","cover":"SCT","clouds":[{"cover":"SCT","base":25000}],"fltCat":"VFR"},{"icaoId":"KSYR","receiptTime":"2026-04-16T05:58:21.661Z","obsTime":1776318840,"reportTime":"2026-04-16T06:00:00.000Z","temp":15.6,"dewp":15,"wdir":90,"wspd":3,"visib":"10+","altim":1010.9,"slp":1010.1,"qcField":4,"presTend":-1.7,"maxT":17.8,"minT":15.6,"pcp6hr":0.23,"metarType":"METAR","rawOb":"METAR KSYR 160554Z 09003KT 10SM FEW032 BKN040 OVC048 16/15 A2985 RMK AO2 SLP101 60023 T01560150 10178 20156 56017","lat":43.1111,"lon":-76.1038,"elev":125,"name":"Syracuse/Hancock Intl, NY, US","cover":"OVC","clouds":[{"cover":"FEW","base":3200},{"cover":"BKN","base":4000},{"cover":"OVC","base":4800}],"fltCat":"VFR"},{"icaoId":"KPHL","receiptTime":"2026-04-16T05:58:07.261Z","obsTime":1776318840,"reportTime":"2026-04-16T06:00:00.000Z","temp":22.2,"dewp":15.6,"wdir":250,"wspd":6,"visib":"10+","altim":1011.9,"slp":1011.6,"qcField":12,"presTend":-0.8,"maxT":28.9,"minT":22.2,"metarType":"METAR","rawOb":"METAR KPHL 160554Z 25006KT 10SM SCT190 SCT250 22/16 A2988 RMK AO2 SLP116 T02220156 10289 20222 58008 $","lat":39.8733,"lon":-75.2268,"elev":2,"name":"Philadelphia Intl, PA, US","cover":"SCT","clouds":[{"cover":"SCT","base":19000},{"cover":"SCT","base":25000}],"fltCat":"VFR"},{"icaoId":"KFAT","receiptTime":"2026-04-16T05:56:34.353Z","obsTime":1776318780,"reportTime":"2026-04-16T06:00:00.000Z","temp":16.7,"dewp":3.3,"wdir":310,"wspd":10,"visib":"10+","altim":1016,"slp":1015.5,"qcField":12,"presTend":0.6,"maxT":24.4,"minT":16.7,"metarType":"METAR","rawOb":"METAR KFAT 160553Z 31010KT 10SM FEW200 17/03 A3000 RMK AO2 SLP155 T01670033 10244 20167 50006 $","lat":36.78,"lon":-119.7202,"elev":102,"name":"Fresno/Yosemite Intl, CA, US","cover":"FEW","clouds":[{"cover":"FEW","base":20000}],"fltCat":"VFR"},{"icaoId":"KFMN","receiptTime":"2026-04-16T05:56:34.367Z","obsTime":1776318780,"reportTime":"2026-04-16T06:00:00.000Z","temp":4.4,"dewp":-6.1,"wdir":40,"wspd":5,"visib":"10+","altim":1017.7,"slp":1015.9,"qcField":6,"presTend":0.9,"maxT":17.2,"minT":4.4,"metarType":"METAR","rawOb":"METAR KFMN 160553Z AUTO 04005KT 10SM CLR 04/M06 A3005 RMK AO2 SLP159 T00441061 10172 20044 51009","lat":36.7435,"lon":-108.2293,"elev":1677,"name":"Farmington/Four Corners Rgnl, NM, US","cover":"CLR","clouds":[],"fltCat":"VFR"},{"icaoId":"KDEN","receiptTime":"2026-04-16T05:56:35.737Z","obsTime":1776318780,"reportTime":"2026-04-16T06:00:00.000Z","temp":8.9,"dewp":-7.2,"wdir":200,"wspd":9,"visib":"10+","altim":1011.9,"slp":1007.1,"qcField":4,"presTend":0.2,"maxT":18.9,"minT":8.3,"metarType":"METAR","rawOb":"METAR KDEN 160553Z 20009KT 10SM FEW120 FEW220 09/M07 A2988 RMK AO2 SLP071 T00891072 10189 20083 50002","lat":39.8466,"lon":-104.6562,"elev":1656,"name":"Denver Intl, CO, US","cover":"FEW","clouds":[{"cover":"FEW","base":12000},{"cover":"FEW","base":22000}],"fltCat":"VFR"},{"icaoId":"KBFI","receiptTime":"2026-04-16T05:56:28.515Z","obsTime":1776318780,"reportTime":"2026-04-16T06:00:00.000Z","temp":3.9,"dewp":2.8,"wdir":150,"wspd":9,"visib":"10+","altim":1017,"slp":1016.9,"qcField":12,"presTend":2.4,"maxT":5.6,"minT":3.9,"precip":0.005,"pcp6hr":0.13,"metarType":"METAR","rawOb":"METAR KBFI 160553Z 15009KT 10SM BKN025 BKN055 OVC070 04/03 A3003 RMK AO2 RAE05 SLP169 P0000 60013 T00390028 10056 20039 51024 $","lat":47.5455,"lon":-122.3148,"elev":7,"name":"Seattle/Boeing Fld, WA, US","cover":"OVC","clouds":[{"cover":"BKN","base":2500},{"cover":"BKN","base":5500},{"cover":"OVC","base":7000}],"fltCat":"MVFR"},{"icaoId":"KBCE","receiptTime":"2026-04-16T05:56:28.418Z","obsTime":1776318780,"reportTime":"2026-04-16T06:00:00.000Z","temp":-3.3,"dewp":-5.6,"wdir":240,"wspd":4,"visib":"10+","altim":1018.4,"slp":1013.5,"qcField":6,"maxT":12.8,"minT":-3.3,"metarType":"METAR","rawOb":"METAR KBCE 160553Z AUTO 24004KT 10SM CLR M03/M06 A3007 RMK AO2 SLP135 T10331056 10128 21033 50000","lat":37.7013,"lon":-112.149,"elev":2311,"name":"Bryce Canyon Arpt, UT, US","cover":"CLR","clouds":[],"fltCat":"VFR"},{"icaoId":"KRTN","receiptTime":"2026-04-16T05:56:33.328Z","obsTime":1776318780,"reportTime":"2026-04-16T06:00:00.000Z","temp":10.6,"dewp":-10,"wdir":310,"wspd":13,"visib":"10+","altim":1015.3,"slp":1009.1,"qcField":6,"presTend":0.5,"maxT":18.3,"minT":10,"metarType":"METAR","rawOb":"METAR KRTN 160553Z AUTO 31013KT 10SM CLR 11/M10 A2998 RMK AO2 SLP091 T01061100 10183 20100 50005","lat":36.7418,"lon":-104.5076,"elev":1939,"name":"Raton/Crews Fld, NM, US","cover":"CLR","clouds":[],"fltCat":"VFR"},{"icaoId":"KTPA","receiptTime":"2026-04-16T05:56:33.864Z","obsTime":1776318780,"reportTime":"2026-04-16T06:00:00.000Z","temp":21.1,"dewp":14.4,"wdir":110,"wspd":5,"visib":"10+","altim":1021.1,"slp":1020.8,"qcField":4,"presTend":0.2,"maxT":24.4,"minT":21.1,"metarType":"METAR","rawOb":"METAR KTPA 160553Z 11005KT 10SM CLR 21/14 A3015 RMK AO2 SLP208 T02110144 10244 20211 51002","lat":27.9633,"lon":-82.54,"elev":2,"name":"Tampa Intl Arpt, FL, US","cover":"CLR","clouds":[],"fltCat":"VFR"},{"icaoId":"KLBB","receiptTime":"2026-04-16T05:56:34.572Z","obsTime":1776318780,"reportTime":"2026-04-16T06:00:00.000Z","temp":14.4,"dewp":-7.2,"wdir":250,"wspd":7,"visib":"10+","altim":1014,"slp":1009.6,"qcField":4,"presTend":0.8,"maxT":26.1,"minT":12.2,"maxT24":27.8,"minT24":12.2,"metarType":"METAR","rawOb":"METAR KLBB 160553Z 25007KT 10SM CLR 14/M07 A2994 RMK AO2 SLP096 T01441072 10261 20122 402780122 51008","lat":33.6658,"lon":-101.8233,"elev":996,"name":"Lubbock Intl Arpt, TX, US","cover":"CLR","clouds":[],"fltCat":"VFR"},{"icaoId":"KMYF","receiptTime":"2026-04-16T05:56:18.962Z","obsTime":1776318780,"reportTime":"2026-04-16T06:00:00.000Z","temp":15,"dewp":12.8,"wdir":250,"wspd":3,"visib":"10+","altim":1016.3,"slp":1015.8,"qcField":6,"presTend":0.7,"maxT":19.4,"minT":15,"metarType":"METAR","rawOb":"METAR KMYF 160553Z AUTO 25003KT 10SM CLR 15/13 A3001 RMK AO2 SLP158 T01500128 10194 20150 50007","lat":32.8145,"lon":-117.1375,"elev":128,"name":"San Diego/Montgomery Arpt, CA, US","cover":"CLR","clouds":[],"fltCat":"VFR"},{"icaoId":"KMFE","receiptTime":"2026-04-16T05:56:19.175Z","obsTime":1776318780,"reportTime":"2026-04-16T06:00:00.000Z","temp":23.9,"dewp":21.7,"wdir":130,"wspd":8,"visib":"10+","altim":1014,"slp":1013.5,"qcField":6,"presTend":-0.5,"maxT":28.3,"minT":23.9,"maxT24":32.2,"minT24":23.9,"metarType":"METAR","rawOb":"METAR KMFE 160553Z AUTO 13008KT 10SM OVC014 24/22 A2994 RMK AO2 SLP135 T02390217 10283 20239 403220239 56005","lat":26.1791,"lon":-98.2445,"elev":29,"name":"McAllen/Miller Intl, TX, US","cover":"OVC","clouds":[{"cover":"OVC","base":1400}],"fltCat":"MVFR"},{"icaoId":"KMLS","receiptTime":"2026-04-16T05:56:19.287Z","obsTime":1776318780,"reportTime":"2026-04-16T06:00:00.000Z","temp":11.7,"dewp":2.8,"wdir":160,"wspd":7,"visib":"10+","altim":998.7,"slp":997.9,"qcField":6,"presTend":-0.7,"maxT":18.3,"minT":11.7,"metarType":"METAR","rawOb":"METAR KMLS 160553Z AUTO 16007KT 10SM BKN110 12/03 A2949 RMK AO2 SLP979 T01170028 10183 20117 58007","lat":46.4265,"lon":-105.8834,"elev":800,"name":"Miles City/Wiley Fld, MT, US","cover":"BKN","clouds":[{"cover":"BKN","base":11000}],"fltCat":"VFR"},{"icaoId":"KOAK","receiptTime":"2026-04-16T05:56:19.466Z","obsTime":1776318780,"reportTime":"2026-04-16T06:00:00.000Z","temp":13.9,"dewp":10.6,"wdir":270,"wspd":12,"visib":"10+","altim":1019.4,"slp":1019.3,"qcField":12,"presTend":0.8,"maxT":16.7,"minT":13.3,"metarType":"METAR","rawOb":"METAR KOAK 160553Z 27012KT 10SM FEW008 FEW015 14/11 A3010 RMK AO2 SLP193 T01390106 10167 20133 51008 $","lat":37.7178,"lon":-122.233,"elev":3,"name":"Oakland Intl, CA, US","cover":"FEW","clouds":[{"cover":"FEW","base":800},{"cover":"FEW","base":1500}],"fltCat":"VFR"},{"icaoId":"KOGD","receiptTime":"2026-04-16T05:56:19.514Z","obsTime":1776318780,"reportTime":"2026-04-16T06:00:00.000Z","temp":15.6,"dewp":0,"wdir":190,"wspd":14,"visib":"10+","altim":1007.9,"slp":1003.7,"qcField":6,"presTend":-0.9,"maxT":17.2,"minT":13.9,"pcp6hr":0.005,"metarType":"METAR","rawOb":"METAR KOGD 160553Z AUTO 19014KT 10SM BKN100 BKN120 16/00 A2976 RMK AO2 SLP037 60000 T01560000 10172 20139 58009","lat":41.1941,"lon":-112.0168,"elev":1356,"name":"Ogden/Hinckley Arpt, UT, US","cover":"BKN","clouds":[{"cover":"BKN","base":10000},{"cover":"BKN","base":12000}],"fltCat":"VFR"},{"icaoId":"KPUB","receiptTime":"2026-04-16T05:56:33.070Z","obsTime":1776318780,"reportTime":"2026-04-16T06:00:00.000Z","temp":12.8,"dewp":-8.9,"wdir":30,"wspd":4,"visib":"10+","altim":1012.3,"slp":1007.8,"qcField":12,"presTend":1.3,"maxT":22.8,"minT":9.4,"metarType":"METAR","rawOb":"METAR KPUB 160553Z 03004KT 10SM CLR 13/M09 A2989 RMK AO2 SLP078 T01281089 10228 20094 51013 $","lat":38.2887,"lon":-104.5057,"elev":1441,"name":"Pueblo Mem Arpt, CO, US","cover":"CLR","clouds":[],"fltCat":"VFR"},{"icaoId":"KLOL","receiptTime":"2026-04-16T05:56:20.538Z","obsTime":1776318780,"reportTime":"2026-04-16T06:00:00.000Z","temp":11.7,"dewp":-2.2,"wdir":260,"wspd":17,"visib":"10+","altim":1013.6,"slp":1011.6,"qcField":6,"presTend":1.9,"maxT":19.4,"minT":11.1,"metarType":"METAR","rawOb":"METAR KLOL 160553Z AUTO 26017KT 10SM CLR 12/M02 A2993 RMK AO2 SLP116 T01171022 10194 20111 51019","lat":40.0684,"lon":-118.5702,"elev":1191,"name":"Lovelock/Derby Fld, NV, US","cover":"CLR","clouds":[],"fltCat":"VFR"},{"icaoId":"KMAF","receiptTime":"2026-04-16T05:56:20.756Z","obsTime":1776318780,"reportTime":"2026-04-16T06:00:00.000Z","temp":21.1,"dewp":9.4,"wdir":230,"wspd":8,"visib":"10+","altim":1015,"slp":1010.6,"qcField":6,"presTend":1.7,"maxT":28.3,"minT":21.1,"maxT24":30,"minT24":16.1,"metarType":"METAR","rawOb":"METAR KMAF 160553Z AUTO 23008KT 10SM CLR 21/09 A2997 RMK AO2 SLP106 T02110094 10283 20211 403000161 51017","lat":31.9475,"lon":-102.2086,"elev":874,"name":"Midland Intl, TX, US","cover":"CLR","clouds":[],"fltCat":"VFR"},{"icaoId":"KMCO","receiptTime":"2026-04-16T05:56:20.862Z","obsTime":1776318780,"reportTime":"2026-04-16T06:00:00.000Z","temp":18.9,"dewp":13.9,"wdir":120,"wspd":7,"visib":"10+","altim":1021.4,"slp":1021.2,"qcField":4,"presTend":-0.5,"maxT":23.3,"minT":18.9,"metarType":"METAR","rawOb":"METAR KMCO 160553Z 12007KT 10SM CLR 19/14 A3016 RMK AO2 SLP212 T01890139 10233 20189 58005","lat":28.4182,"lon":-81.3241,"elev":27,"name":"Orlando Intl, FL, US","cover":"CLR","clouds":[],"fltCat":"VFR"},{"icaoId":"KLGB","receiptTime":"2026-04-16T05:56:21.774Z","obsTime":1776318780,"reportTime":"2026-04-16T06:00:00.000Z","temp":15.6,"dewp":11.7,"wdir":0,"wspd":0,"visib":"10+","altim":1015.3,"slp":1015.1,"qcField":4,"presTend":0.9,"maxT":22.8,"minT":15.6,"metarType":"METAR","rawOb":"METAR KLGB 160553Z 00000KT 10SM CLR 16/12 A2998 RMK AO2 SLP151 T01560117 10228 20156 50009","lat":33.8118,"lon":-118.1472,"elev":10,"name":"Long Beach Arpt, CA, US","cover":"CLR","clouds":[],"fltCat":"VFR"},{"icaoId":"KSNA","receiptTime":"2026-04-16T05:56:32.655Z","obsTime":1776318780,"reportTime":"2026-04-16T06:00:00.000Z","temp":16.1,"dewp":13.3,"wdir":250,"wspd":3,"visib":"10+","altim":1015.7,"slp":1015.4,"qcField":12,"presTend":0.7,"maxT":21.1,"minT":16.1,"metarType":"METAR","rawOb":"METAR KSNA 160553Z 25003KT 10SM CLR 16/13 A2999 RMK AO2 SLP154 LAST T01610133 10211 20161 50007 $","lat":33.6798,"lon":-117.8675,"elev":14,"name":"Santa Ana/Wayne Arpt, CA, US","cover":"CLR","clouds":[],"fltCat":"VFR"},{"icaoId":"KCRQ","receiptTime":"2026-04-16T05:56:34.207Z","obsTime":1776318780,"reportTime":"2026-04-16T06:00:00.000Z","temp":15.6,"dewp":12.8,"wdir":130,"wspd":3,"visib":"10+","altim":1015.7,"slp":1015.3,"qcField":6,"presTend":0.6,"maxT":18.9,"minT":15.6,"metarType":"METAR","rawOb":"METAR KCRQ 160553Z AUTO 13003KT 10SM CLR 16/13 A2999 RMK AO2 SLP153 T01560128 10189 20156 50006","lat":33.1299,"lon":-117.2765,"elev":96,"name":"Carlsbad/Palomar Arpt, CA, US","cover":"CLR","clouds":[],"fltCat":"VFR"},{"icaoId":"KHOU","receiptTime":"2026-04-16T05:56:25.260Z","obsTime":1776318780,"reportTime":"2026-04-16T06:00:00.000Z","temp":22.8,"dewp":21.1,"wdir":160,"wspd":7,"visib":8,"altim":1015.7,"slp":1015.9,"qcField":4,"presTend":0.1,"maxT":25.6,"minT":22.8,"maxT24":28.9,"minT24":21.7,"metarType":"METAR","rawOb":"METAR KHOU 160553Z 16007KT 8SM CLR 23/21 A2999 RMK AO2 SLP159 T02280211 10256 20228 402890217 51001","lat":29.6458,"lon":-95.2821,"elev":13,"name":"Houston/Hobby Arpt, TX, US","cover":"CLR","clouds":[],"fltCat":"VFR"},{"icaoId":"KLAW","receiptTime":"2026-04-16T05:56:25.332Z","obsTime":1776318780,"reportTime":"2026-04-16T06:00:00.000Z","temp":16.1,"dewp":15.6,"wdir":120,"wspd":5,"visib":"10+","altim":1011.6,"slp":1010.6,"qcField":6,"presTend":0.8,"maxT":22.2,"minT":15,"maxT24":29.4,"minT24":15,"metarType":"METAR","rawOb":"METAR KLAW 160553Z AUTO 12005KT 10SM CLR 16/16 A2987 RMK AO2 SLP106 T01610156 10222 20150 402940150 50008","lat":34.5577,"lon":-98.4172,"elev":328,"name":"Lawton-Fort Sill Rgnl, OK, US","cover":"CLR","clouds":[],"fltCat":"VFR"},{"icaoId":"KSMF","receiptTime":"2026-04-16T05:56:32.627Z","obsTime":1776318780,"reportTime":"2026-04-16T06:00:00.000Z","temp":13.3,"dewp":7.8,"wdir":260,"wspd":7,"visib":"10+","altim":1016.7,"slp":1016.4,"qcField":4,"presTend":1.6,"maxT":21.7,"minT":13.3,"metarType":"METAR","rawOb":"METAR KSMF 160553Z 26007KT 10SM SCT250 13/08 A3002 RMK AO2 SLP164 T01330078 10217 20133 51016","lat":38.7007,"lon":-121.5948,"elev":7,"name":"Sacramento Intl, CA, US","cover":"SCT","clouds":[{"cover":"SCT","base":25000}],"fltCat":"VFR"},{"icaoId":"KMOD","receiptTime":"2026-04-16T05:56:19.302Z","obsTime":1776318780,"reportTime":"2026-04-16T06:00:00.000Z","temp":13.9,"dewp":7.8,"wdir":330,"wspd":8,"visib":"10+","altim":1017.4,"slp":1017.1,"qcField":6,"presTend":1.3,"maxT":22.8,"minT":13.9,"metarType":"METAR","rawOb":"METAR KMOD 160553Z AUTO 33008KT 10SM CLR 14/08 A3004 RMK AO2 SLP171 T01390078 10228 20139 51013","lat":37.6254,"lon":-120.9549,"elev":25,"name":"Modesto/Sham Fld, CA, US","cover":"CLR","clouds":[],"fltCat":"VFR"},{"icaoId":"KBUR","receiptTime":"2026-04-16T05:56:36.892Z","obsTime":1776318780,"reportTime":"2026-04-16T06:00:00.000Z","temp":16.7,"dewp":8.9,"wdir":200,"wspd":5,"visib":"10+","altim":1015.7,"slp":1014.4,"qcField":4,"presTend":0.9,"maxT":22.8,"minT":16.7,"metarType":"METAR","rawOb":"METAR KBUR 160553Z 20005KT 10SM CLR 17/09 A2999 RMK AO2 SLP144 T01670089 10228 20167 50009","lat":34.1996,"lon":-118.3654,"elev":221,"name":"Burbank/Bob Hope Arpt, CA, US","cover":"CLR","clouds":[],"fltCat":"VFR"},{"icaoId":"KTUS","receiptTime":"2026-04-16T05:56:31.450Z","obsTime":1776318780,"reportTime":"2026-04-16T06:00:00.000Z","temp":17.8,"dewp":-8.9,"wdir":160,"wspd":5,"visib":"10+","altim":1015.7,"slp":1012.2,"qcField":12,"presTend":1.5,"maxT":27.2,"minT":17.2,"metarType":"METAR","rawOb":"METAR KTUS 160553Z 16005KT 10SM CLR 18/M09 A2999 RMK AO2 SLP122 T01781089 10272 20172 51015 $","lat":32.1315,"lon":-110.9564,"elev":776,"name":"Tucson Intl Arpt, AZ, US","cover":"CLR","clouds":[],"fltCat":"VFR"},{"icaoId":"KMTJ","receiptTime":"2026-04-16T05:56:20.218Z","obsTime":1776318780,"reportTime":"2026-04-16T06:00:00.000Z","temp":6.7,"dewp":-5.6,"wdir":130,"wspd":8,"visib":"10+","altim":1017.4,"slp":1013.5,"qcField":6,"presTend":0.8,"maxT":16.7,"minT":6.7,"metarType":"METAR","rawOb":"METAR KMTJ 160553Z AUTO 13008KT 10SM CLR 07/M06 A3004 RMK AO2 SLP135 T00671056 10167 20067 50008","lat":38.5054,"lon":-107.8981,"elev":1755,"name":"Montrose Rgnl, CO, US","cover":"CLR","clouds":[],"fltCat":"VFR"},{"icaoId":"KASE","receiptTime":"2026-04-16T05:56:31.987Z","obsTime":1776318780,"reportTime":"2026-04-16T06:00:00.000Z","temp":0.6,"dewp":-5.6,"wdir":190,"wspd":6,"visib":"10+","altim":1018.4,"slp":1013.1,"qcField":6,"presTend":0.6,"maxT":11.1,"minT":-0.6,"metarType":"METAR","rawOb":"METAR KASE 160553Z AUTO 19006KT 10SM CLR 01/M06 A3007 RMK AO2 SLP131 T00061056 10111 21006 50006","lat":39.2299,"lon":-106.8705,"elev":2384,"name":"Aspen/Pitkin Cnty, CO, US","cover":"CLR","clouds":[],"fltCat":"VFR"},{"icaoId":"KGSP","receiptTime":"2026-04-16T05:56:35.394Z","obsTime":1776318780,"reportTime":"2026-04-16T06:00:00.000Z","temp":21.1,"dewp":11.7,"wdir":260,"wspd":6,"visib":"10+","altim":1017.7,"slp":1016.5,"qcField":6,"presTend":-1.2,"maxT":25,"minT":20.6,"metarType":"METAR","rawOb":"METAR KGSP 160553Z AUTO 26006KT 10SM CLR 21/12 A3005 RMK AO2 SLP165 T02110117 10250 20206 58012","lat":34.8842,"lon":-82.2209,"elev":285,"name":"Greenville-Spartanburg Intl, SC, US","cover":"CLR","clouds":[],"fltCat":"VFR"},{"icaoId":"KRDD","receiptTime":"2026-04-16T05:56:33.205Z","obsTime":1776318780,"reportTime":"2026-04-16T06:00:00.000Z","temp":12.2,"dewp":-1.1,"wdir":280,"wspd":6,"visib":"10+","altim":1016,"slp":1015.7,"qcField":4,"presTend":1.8,"maxT":20,"minT":11.7,"metarType":"METAR","rawOb":"METAR KRDD 160553Z 28006KT 10SM CLR 12/M01 A3000 RMK AO2 SLP157 T01221011 10200 20117 53018","lat":40.5146,"lon":-122.2977,"elev":152,"name":"Redding Muni, CA, US","cover":"CLR","clouds":[],"fltCat":"VFR"},{"icaoId":"KGJT","receiptTime":"2026-04-16T05:56:35.185Z","obsTime":1776318780,"reportTime":"2026-04-16T06:00:00.000Z","temp":10.6,"dewp":-1.7,"wdir":80,"wspd":11,"visib":"10+","altim":1014,"slp":1010.7,"qcField":6,"presTend":0.2,"maxT":17.8,"minT":10,"metarType":"METAR","rawOb":"METAR KGJT 160553Z AUTO 08011KT 10SM BKN100 11/M02 A2994 RMK AO2 SLP107 T01061017 10178 20100 50002","lat":39.1344,"lon":-108.5408,"elev":1475,"name":"Grand Junction Rgnl, CO, US","cover":"BKN","clouds":[{"cover":"BKN","base":10000}],"fltCat":"VFR"},{"icaoId":"KDRO","receiptTime":"2026-04-16T05:56:35.946Z","obsTime":1776318780,"reportTime":"2026-04-16T06:00:00.000Z","temp":2.8,"dewp":-2.8,"wdir":30,"wspd":6,"visib":"10+","altim":1019.4,"slp":1017.1,"qcField":6,"presTend":0.9,"maxT":14.4,"minT":2.2,"metarType":"METAR","rawOb":"METAR KDRO 160553Z AUTO 03006KT 10SM CLR 03/M03 A3010 RMK AO2 SLP171 T00281028 10144 20022 50009","lat":37.1431,"lon":-107.7602,"elev":2021,"name":"Durango/La Plata Cnty, CO, US","cover":"CLR","clouds":[],"fltCat":"VFR"},{"icaoId":"KELY","receiptTime":"2026-04-16T05:56:34.309Z","obsTime":1776318780,"reportTime":"2026-04-16T06:00:00.000Z","temp":11.1,"dewp":-8.9,"wdir":200,"wspd":17,"wgst":26,"visib":"10+","altim":1013,"slp":1006.2,"qcField":6,"presTend":0.2,"maxT":15,"minT":11.1,"metarType":"METAR","rawOb":"METAR KELY 160553Z AUTO 20017G26KT 10SM OVC100 11/M09 A2991 RMK AO2 PK WND 19028/0532 SLP062 T01111089 10150 20111 50002","lat":39.2954,"lon":-114.8466,"elev":1906,"name":"Ely/Yelland Fld, NV, US","cover":"OVC","clouds":[{"cover":"OVC","base":10000}],"fltCat":"VFR"},{"icaoId":"KEVW","receiptTime":"2026-04-16T05:56:34.620Z","obsTime":1776318780,"reportTime":"2026-04-16T06:00:00.000Z","temp":4.4,"dewp":1.7,"wdir":260,"wspd":14,"visib":"10+","altim":1012.6,"slp":1008,"qcField":14,"presTend":1,"maxT":11.1,"minT":4.4,"precip":0.005,"pcp6hr":0.005,"metarType":"METAR","rawOb":"METAR KEVW 160553Z AUTO 26014KT 10SM BKN041 OVC075 04/02 A2990 RMK AO2 PK WND 25030/0513 RAB25E46 SLP080 P0000 60000 T00440017 10111 20044 51010 $","lat":41.2727,"lon":-111.0305,"elev":2178,"name":"Evanston/Uinta Cnty, WY, US","cover":"OVC","clouds":[{"cover":"BKN","base":4100},{"cover":"OVC","base":7500}],"fltCat":"VFR"},{"icaoId":"KCYS","receiptTime":"2026-04-16T05:56:37.380Z","obsTime":1776318780,"reportTime":"2026-04-16T06:00:00.000Z","temp":9.4,"dewp":-5,"wdir":210,"wspd":9,"visib":"10+","altim":1011.6,"slp":1006.4,"qcField":6,"presTend":-0.4,"maxT":15.6,"minT":9.4,"metarType":"METAR","rawOb":"METAR KCYS 160553Z AUTO 21009KT 10SM CLR 09/M05 A2987 RMK AO2 SLP064 T00941050 10156 20094 58004","lat":41.1579,"lon":-104.8081,"elev":1868,"name":"Cheyenne Rgnl, WY, US","cover":"CLR","clouds":[],"fltCat":"VFR"},{"icaoId":"KDMN","receiptTime":"2026-04-16T05:56:34.280Z","obsTime":1776318780,"reportTime":"2026-04-16T06:00:00.000Z","temp":11.7,"dewp":-13.3,"wdir":300,"wspd":5,"visib":"10+","altim":1017.4,"slp":1012.3,"qcField":6,"presTend":0.8,"maxT":24.4,"minT":11.7,"metarType":"METAR","rawOb":"METAR KDMN 160553Z AUTO 30005KT 10SM CLR 12/M13 A3004 RMK AO2 SLP123 T01171133 10244 20117 50008","lat":32.2592,"lon":-107.7206,"elev":1310,"name":"Deming Muni, NM, US","cover":"CLR","clouds":[],"fltCat":"VFR"},{"icaoId":"KRIW","receiptTime":"2026-04-16T05:56:31.203Z","obsTime":1776318780,"reportTime":"2026-04-16T06:00:00.000Z","temp":12.2,"dewp":-2.8,"wdir":230,"wspd":25,"wgst":35,"visib":"10+","altim":1005.5,"slp":1001.6,"qcField":6,"presTend":-1.2,"maxT":14.4,"minT":8.3,"metarType":"METAR","rawOb":"METAR KRIW 160553Z AUTO 23025G35KT 10SM CLR 12/M03 A2969 RMK AO2 PK WND 25035/0548 SLP016 T01221028 10144 20083 58012","lat":43.0622,"lon":-108.4471,"elev":1662,"name":"Riverton Rgnl, WY, US","cover":"CLR","clouds":[],"fltCat":"VFR"},{"icaoId":"KSAF","receiptTime":"2026-04-16T05:56:32.418Z","obsTime":1776318780,"reportTime":"2026-04-16T06:00:00.000Z","temp":5,"dewp":-11.7,"wdir":10,"wspd":4,"visib":"10+","altim":1018.7,"slp":1013.5,"qcField":6,"presTend":0.7,"maxT":16.7,"minT":5,"metarType":"METAR","rawOb":"METAR KSAF 160553Z AUTO 01004KT 10SM CLR 05/M12 A3008 RMK AO2 SLP135 T00501117 10167 20050 51007","lat":35.611,"lon":-106.0957,"elev":1918,"name":"Santa Fe Cnty Muni, NM, US","cover":"CLR","clouds":[],"fltCat":"VFR"},{"icaoId":"KCDC","receiptTime":"2026-04-16T05:56:37.016Z","obsTime":1776318780,"reportTime":"2026-04-16T06:00:00.000Z","temp":8.9,"dewp":-3.9,"wdir":190,"wspd":6,"visib":"10+","altim":1015.3,"slp":1011.1,"qcField":6,"presTend":-0.4,"maxT":16.7,"minT":8.3,"metarType":"METAR","rawOb":"METAR KCDC 160553Z AUTO 19006KT 10SM CLR 09/M04 A2998 RMK AO2 SLP111 T00891039 10167 20083 58004","lat":37.7067,"lon":-113.097,"elev":1703,"name":"Cedar City Muni, UT, US","cover":"CLR","clouds":[],"fltCat":"VFR"},{"icaoId":"KSDL","receiptTime":"2026-04-16T05:56:32.472Z","obsTime":1776318780,"reportTime":"2026-04-16T06:00:00.000Z","temp":21.7,"dewp":-3.3,"wdir":30,"wspd":3,"visib":"10+","altim":1013.6,"slp":1011.4,"qcField":6,"presTend":0.9,"maxT":28.9,"minT":21.7,"metarType":"METAR","rawOb":"METAR KSDL 160553Z AUTO 03003KT 10SM CLR 22/M03 A2993 RMK AO2 SLP114 T02171033 10289 20217 50009","lat":33.6123,"lon":-111.9232,"elev":438,"name":"Scottsdale Muni, AZ, US","cover":"CLR","clouds":[],"fltCat":"VFR"},{"icaoId":"KPSP","receiptTime":"2026-04-16T05:56:33.039Z","obsTime":1776318780,"reportTime":"2026-04-16T06:00:00.000Z","temp":23.3,"dewp":7.2,"wdir":310,"wspd":17,"visib":"10+","altim":1012.3,"slp":1011.9,"qcField":14,"presTend":1.2,"maxT":30,"minT":23.3,"metarType":"METAR","rawOb":"METAR KPSP 160553Z AUTO 31017KT 10SM CLR 23/07 A2989 RMK AO2 SLP119 T02330072 10300 20233 50012 $","lat":33.8222,"lon":-116.5043,"elev":123,"name":"Palm Springs Intl, CA, US","cover":"CLR","clouds":[],"fltCat":"VFR"},{"icaoId":"KCPR","receiptTime":"2026-04-16T05:56:37.227Z","obsTime":1776318780,"reportTime":"2026-04-16T06:00:00.000Z","temp":10,"dewp":-3.9,"wdir":230,"wspd":11,"visib":"10+","altim":1007.2,"slp":1003,"qcField":6,"presTend":0.4,"maxT":18.3,"minT":8.3,"metarType":"METAR","rawOb":"METAR KCPR 160553Z AUTO 23011KT 10SM CLR 10/M04 A2974 RMK AO2 SLP030 T01001039 10183 20083 51004","lat":42.8978,"lon":-106.4736,"elev":1623,"name":"Casper/Natrona Cnty, WY, US","cover":"CLR","clouds":[],"fltCat":"VFR"},{"icaoId":"PANC","receiptTime":"2026-04-16T05:56:36.475Z","obsTime":1776318780,"reportTime":"2026-04-16T06:00:00.000Z","temp":0.6,"dewp":-1.1,"wdir":60,"wspd":4,"visib":"10+","altim":1013.3,"slp":1013.3,"qcField":4,"presTend":0.5,"maxT":1.7,"minT":0.6,"snow":13000,"metarType":"METAR","rawOb":"METAR PANC 160553Z 06004KT 10SM OVC044 01/M01 A2992 RMK AO2 SLP133 4/013 T00061011 10017 20006 51005","lat":61.1691,"lon":-150.0277,"elev":39,"name":"Anchorage Intl, AK, US","cover":"OVC","clouds":[{"cover":"OVC","base":4400}],"fltCat":"VFR"},{"icaoId":"KPBI","receiptTime":"2026-04-16T05:56:25.724Z","obsTime":1776318780,"reportTime":"2026-04-16T06:00:00.000Z","temp":23.9,"dewp":13.9,"wdir":70,"wspd":7,"visib":"10+","altim":1020.1,"slp":1019.9,"qcField":12,"presTend":-0.8,"maxT":23.9,"minT":23.3,"metarType":"METAR","rawOb":"METAR KPBI 160553Z 07007KT 10SM BKN043 24/14 A3012 RMK AO2 SLP199 T02390139 10239 20233 58008 $","lat":26.6851,"lon":-80.0992,"elev":4,"name":"Palm Beach Intl, FL, US","cover":"BKN","clouds":[{"cover":"BKN","base":4300}],"fltCat":"VFR"},{"icaoId":"KMSO","receiptTime":"2026-04-16T05:56:31.132Z","obsTime":1776318780,"reportTime":"2026-04-16T06:00:00.000Z","temp":0.6,"dewp":-0.6,"wdir":340,"wspd":7,"visib":8,"altim":1008.5,"slp":1009.9,"qcField":6,"presTend":2,"maxT":6.7,"minT":0.6,"precip":0.005,"pcp6hr":0.02,"metarType":"METAR","rawOb":"METAR KMSO 160553Z AUTO 34007KT 8SM SCT032 BKN044 OVC100 01/M01 A2978 RMK AO2 SNB39E53 SLP099 P0000 60002 T00061006 10067 20006 53020","lat":46.9208,"lon":-114.0938,"elev":974,"name":"Missoula Intl, MT, US","cover":"OVC","clouds":[{"cover":"SCT","base":3200},{"cover":"BKN","base":4400},{"cover":"OVC","base":10000}],"fltCat":"VFR"},{"icaoId":"KSJC","receiptTime":"2026-04-16T05:56:32.600Z","obsTime":1776318780,"reportTime":"2026-04-16T06:00:00.000Z","temp":13.3,"dewp":9.4,"wdir":300,"wspd":9,"visib":"10+","altim":1019.4,"slp":1019,"qcField":12,"presTend":0.6,"maxT":17.8,"minT":12.8,"metarType":"METAR","rawOb":"METAR KSJC 160553Z 30009KT 10SM SCT025 BKN032 13/09 A3010 RMK AO2 SLP190 T01330094 10178 20128 50006 $","lat":37.3594,"lon":-121.9244,"elev":13,"name":"San Jose Intl Arpt, CA, US","cover":"BKN","clouds":[{"cover":"SCT","base":2500},{"cover":"BKN","base":3200}],"fltCat":"VFR"},{"icaoId":"KCLL","receiptTime":"2026-04-16T05:56:34.180Z","obsTime":1776318780,"reportTime":"2026-04-16T06:00:00.000Z","temp":21.1,"dewp":18.3,"wdir":170,"wspd":7,"visib":"10+","altim":1015,"slp":1014.4,"qcField":6,"presTend":0.4,"maxT":26.7,"minT":21.1,"maxT24":30,"minT24":19.4,"metarType":"METAR","rawOb":"METAR KCLL 160553Z AUTO 17007KT 10SM CLR 21/18 A2997 RMK AO2 SLP144 T02110183 10267 20211 403000194 50004","lat":30.5912,"lon":-96.3631,"elev":96,"name":"College Station/Easterwood Arpt, TX, US","cover":"CLR","clouds":[],"fltCat":"VFR"},{"icaoId":"KAPA","receiptTime":"2026-04-16T05:56:31.903Z","obsTime":1776318780,"reportTime":"2026-04-16T06:00:00.000Z","temp":7.8,"dewp":-6.7,"wdir":190,"wspd":7,"visib":"10+","altim":1012.6,"slp":1009.3,"qcField":4,"presTend":0.1,"maxT":17.2,"minT":7.2,"metarType":"METAR","rawOb":"METAR KAPA 160553Z 19007KT 10SM FEW220 08/M07 A2990 RMK AO2 SLP093 T00781067 10172 20072 50001","lat":39.5599,"lon":-104.8484,"elev":1791,"name":"Denver/Centennial Arpt, CO, US","cover":"FEW","clouds":[{"cover":"FEW","base":22000}],"fltCat":"VFR"},{"icaoId":"KAUS","receiptTime":"2026-04-16T05:56:32.034Z","obsTime":1776318780,"reportTime":"2026-04-16T06:00:00.000Z","temp":21.7,"dewp":18.3,"wdir":170,"wspd":9,"visib":"10+","altim":1014.6,"slp":1013.6,"qcField":4,"presTend":0.8,"maxT":28.3,"minT":21.7,"maxT24":30,"minT24":21.1,"metarType":"METAR","rawOb":"METAR KAUS 160553Z 17009KT 10SM FEW050 22/18 A2996 RMK AO2 SLP136 T02170183 10283 20217 403000211 51008","lat":30.1831,"lon":-97.6806,"elev":148,"name":"Austin/Bergstrom Intl, TX, US","cover":"FEW","clouds":[{"cover":"FEW","base":5000}],"fltCat":"VFR"},{"icaoId":"KSBA","receiptTime":"2026-04-16T05:56:32.433Z","obsTime":1776318780,"reportTime":"2026-04-16T06:00:00.000Z","temp":13.9,"dewp":11.1,"wdir":0,"wspd":0,"visib":"10+","altim":1014.6,"slp":1014.6,"qcField":14,"presTend":0.4,"maxT":19.4,"minT":13.3,"metarType":"METAR","rawOb":"METAR KSBA 160553Z AUTO 00000KT 10SM CLR 14/11 A2996 RMK AO2 SLP146 T01390111 10194 20133 51004 $","lat":34.4241,"lon":-119.8425,"elev":2,"name":"Santa Barbara Muni, CA, US","cover":"CLR","clouds":[],"fltCat":"VFR"},{"icaoId":"KSHR","receiptTime":"2026-04-16T05:56:32.572Z","obsTime":1776318780,"reportTime":"2026-04-16T06:00:00.000Z","temp":8.3,"dewp":-1.1,"wdir":210,"wspd":9,"visib":"10+","altim":1001.1,"slp":999.5,"qcField":6,"presTend":-0.4,"maxT":17.8,"minT":8.3,"metarType":"METAR","rawOb":"METAR KSHR 160553Z AUTO 21009KT 10SM CLR 08/M01 A2956 RMK AO2 SLP995 T00831011 10178 20083 58004","lat":44.7603,"lon":-106.9741,"elev":1212,"name":"Sheridan Cnty Arpt, WY, US","cover":"CLR","clouds":[],"fltCat":"VFR"},{"icaoId":"KSTS","receiptTime":"2026-04-16T05:56:32.791Z","obsTime":1776318780,"reportTime":"2026-04-16T06:00:00.000Z","temp":12.2,"dewp":9.4,"wdir":240,"wspd":6,"visib":"10+","altim":1018.4,"slp":1017.6,"qcField":6,"presTend":0.9,"maxT":19.4,"minT":11.7,"metarType":"METAR","rawOb":"METAR KSTS 160553Z AUTO 24006KT 10SM CLR 12/09 A3007 RMK AO2 SLP176 T01220094 10194 20117 51009","lat":38.5037,"lon":-122.811,"elev":35,"name":"Santa Rosa/Schulz Arpt, CA, US","cover":"CLR","clouds":[],"fltCat":"VFR"},{"icaoId":"KPNC","receiptTime":"2026-04-16T05:56:32.940Z","obsTime":1776318780,"reportTime":"2026-04-16T06:00:00.000Z","temp":15.6,"dewp":13.3,"wdir":150,"wspd":6,"visib":"10+","altim":1010.9,"slp":1009.7,"qcField":6,"presTend":0.8,"maxT":22.8,"minT":15.6,"maxT24":28.9,"minT24":15.6,"pcp6hr":0.08,"metarType":"METAR","rawOb":"METAR KPNC 160553Z AUTO 15006KT 10SM CLR 16/13 A2985 RMK AO2 SLP097 60008 T01560133 10228 20156 402890156 53008","lat":36.7369,"lon":-97.1024,"elev":304,"name":"Ponca City Rgnl, OK, US","cover":"CLR","clouds":[],"fltCat":"VFR"},{"icaoId":"KPRC","receiptTime":"2026-04-16T05:56:33.007Z","obsTime":1776318780,"reportTime":"2026-04-16T06:00:00.000Z","temp":11.1,"dewp":-5,"wdir":210,"wspd":7,"visib":"10+","altim":1018.4,"slp":1013.1,"qcField":6,"presTend":1,"maxT":20,"minT":11.1,"metarType":"METAR","rawOb":"METAR KPRC 160553Z AUTO 21007KT 10SM CLR 11/M05 A3007 RMK AO2 SLP131 T01111050 10200 20111 51010","lat":34.6491,"lon":-112.4223,"elev":1528,"name":"Prescott/Love Fld, AZ, US","cover":"CLR","clouds":[],"fltCat":"VFR"},{"icaoId":"KPSC","receiptTime":"2026-04-16T05:56:33.022Z","obsTime":1776318780,"reportTime":"2026-04-16T06:00:00.000Z","temp":5.6,"dewp":-1.1,"wdir":230,"wspd":17,"visib":"10+","altim":1013.3,"slp":1013.3,"qcField":6,"presTend":2.9,"maxT":14.4,"minT":5.6,"metarType":"METAR","rawOb":"METAR KPSC 160553Z AUTO 23017KT 10SM FEW120 06/M01 A2992 RMK AO2 SLP133 T00561011 10144 20056 51029","lat":46.2695,"lon":-119.1182,"elev":121,"name":"Pasco/Tri Cities Arpt, WA, US","cover":"FEW","clouds":[{"cover":"FEW","base":12000}],"fltCat":"VFR"},{"icaoId":"KPUW","receiptTime":"2026-04-16T05:56:33.104Z","obsTime":1776318780,"reportTime":"2026-04-16T06:00:00.000Z","temp":1.1,"dewp":-1.1,"wdir":230,"wspd":14,"wgst":20,"visib":7,"altim":1010.9,"slp":1012.2,"qcField":6,"wxString":"-SN","presTend":2.2,"maxT":4.4,"minT":1.1,"precip":0.005,"pcp6hr":0.01,"metarType":"METAR","rawOb":"METAR KPUW 160553Z AUTO 23014G20KT 7SM -SN BKN060 OVC080 01/M01 A2985 RMK AO2 SNB35 SLP122 P0000 60001 T00111011 10044 20011 51022","lat":46.7438,"lon":-117.1158,"elev":774,"name":"Pullman/Moscow Rgnl, WA, US","cover":"OVC","clouds":[{"cover":"BKN","base":6000},{"cover":"OVC","base":8000}],"fltCat":"VFR"},{"icaoId":"KVEL","receiptTime":"2026-04-16T05:56:33.500Z","obsTime":1776318780,"reportTime":"2026-04-16T06:00:00.000Z","temp":12.2,"dewp":-4.4,"wdir":190,"wspd":10,"visib":"10+","altim":1011.6,"slp":1008.1,"qcField":6,"presTend":0.1,"maxT":16.7,"minT":12.2,"metarType":"METAR","rawOb":"METAR KVEL 160553Z AUTO 19010KT 10SM BKN100 12/M04 A2987 RMK AO2 SLP081 T01221044 10167 20122 50001","lat":40.4429,"lon":-109.5128,"elev":1604,"name":"Vernal Rgnl, UT, US","cover":"BKN","clouds":[{"cover":"BKN","base":10000}],"fltCat":"VFR"},{"icaoId":"KVGT","receiptTime":"2026-04-16T05:56:33.513Z","obsTime":1776318780,"reportTime":"2026-04-16T06:00:00.000Z","temp":22.2,"dewp":-5.6,"wdir":190,"wspd":8,"visib":"10+","altim":1010.9,"slp":1010.7,"qcField":6,"presTend":0.2,"maxT":27.2,"minT":22.2,"metarType":"METAR","rawOb":"METAR KVGT 160553Z AUTO 19008KT 10SM CLR 22/M06 A2985 RMK AO2 SLP107 T02221056 10272 20222 50002","lat":36.212,"lon":-115.194,"elev":664,"name":"Las Vegas/North Arpt, NV, US","cover":"CLR","clouds":[],"fltCat":"VFR"},{"icaoId":"KTUL","receiptTime":"2026-04-16T05:56:33.937Z","obsTime":1776318780,"reportTime":"2026-04-16T06:00:00.000Z","temp":18.9,"dewp":12.8,"wdir":110,"wspd":4,"visib":"10+","altim":1012.6,"slp":1011.9,"qcField":4,"presTend":3,"maxT":23.3,"minT":18.3,"maxT24":26.7,"minT24":17.2,"metarType":"METAR","rawOb":"METAR KTUL 160553Z 11004KT 10SM SCT008 SCT015 BKN055 19/13 A2990 RMK AO2 SLP119 OCNL LTGIC DSNT N-NE CB DSNT N-NE MOV NE T01890128 10233 20183 402670172 53030","lat":36.1985,"lon":-95.8782,"elev":196,"name":"Tulsa Intl Arpt, OK, US","cover":"BKN","clouds":[{"cover":"SCT","base":800},{"cover":"SCT","base":1500},{"cover":"BKN","base":5500}],"fltCat":"VFR"},{"icaoId":"KCNY","receiptTime":"2026-04-16T05:56:34.194Z","obsTime":1776318780,"reportTime":"2026-04-16T06:00:00.000Z","temp":13.9,"dewp":-3.9,"wdir":210,"wspd":11,"visib":"10+","altim":1012.3,"slp":1008.9,"qcField":6,"presTend":-0.2,"maxT":19.4,"minT":13.3,"metarType":"METAR","rawOb":"METAR KCNY 160553Z AUTO 21011KT 10SM FEW100 14/M04 A2989 RMK AO2 SLP089 T01391039 10194 20133 58002","lat":38.7501,"lon":-109.7627,"elev":1392,"name":"Moab/Canyonland Fld, UT, US","cover":"FEW","clouds":[{"cover":"FEW","base":10000}],"fltCat":"VFR"},{"icaoId":"KDAL","receiptTime":"2026-04-16T05:56:34.249Z","obsTime":1776318780,"reportTime":"2026-04-16T06:00:00.000Z","temp":23.9,"dewp":18.9,"wdir":180,"wspd":12,"wgst":19,"visib":"10+","altim":1013,"slp":1012,"qcField":4,"presTend":0.4,"maxT":25,"minT":23.9,"maxT24":26.1,"minT24":21.7,"pcp6hr":0.005,"metarType":"METAR","rawOb":"METAR KDAL 160553Z 18012G19KT 10SM BKN200 BKN250 24/19 A2991 RMK AO2 SLP120 60000 T02390189 10250 20239 402610217 53004","lat":32.8384,"lon":-96.8358,"elev":148,"name":"Dallas/Love Fld, TX, US","cover":"BKN","clouds":[{"cover":"BKN","base":20000},{"cover":"BKN","base":25000}],"fltCat":"VFR"},{"icaoId":"KGEG","receiptTime":"2026-04-16T05:56:34.433Z","obsTime":1776318780,"reportTime":"2026-04-16T06:00:00.000Z","temp":1.1,"dewp":-3.3,"wdir":190,"wspd":6,"visib":"10+","altim":1008.9,"slp":1009.8,"qcField":4,"presTend":2.4,"maxT":8.9,"minT":1.1,"metarType":"METAR","rawOb":"METAR KGEG 160553Z 19006KT 10SM FEW055 SCT110 01/M03 A2979 RMK AO2 SLP098 T00111033 10089 20011 51024","lat":47.6217,"lon":-117.528,"elev":718,"name":"Spokane Intl, WA, US","cover":"SCT","clouds":[{"cover":"FEW","base":5500},{"cover":"SCT","base":11000}],"fltCat":"VFR"},{"icaoId":"KLAX","receiptTime":"2026-04-16T05:56:34.557Z","obsTime":1776318780,"reportTime":"2026-04-16T06:00:00.000Z","temp":16.1,"dewp":11.7,"wdir":140,"wspd":4,"visib":"10+","altim":1015.3,"slp":1015.1,"qcField":4,"presTend":0.6,"maxT":18.9,"minT":15.6,"metarType":"METAR","rawOb":"METAR KLAX 160553Z 14004KT 10SM FEW250 16/12 A2998 RMK AO2 SLP151 T01610117 10189 20156 50006","lat":33.9382,"lon":-118.3866,"elev":30,"name":"Los Angeles Intl, CA, US","cover":"FEW","clouds":[{"cover":"FEW","base":25000}],"fltCat":"VFR"},{"icaoId":"KFUL","receiptTime":"2026-04-16T05:56:34.987Z","obsTime":1776318780,"reportTime":"2026-04-16T06:00:00.000Z","temp":16.1,"dewp":12.2,"wdir":210,"wspd":3,"visib":"10+","altim":1015.3,"slp":1015.1,"qcField":6,"presTend":1.1,"maxT":23.3,"minT":15.6,"metarType":"METAR","rawOb":"METAR KFUL 160553Z AUTO 21003KT 10SM CLR 16/12 A2998 RMK AO2 SLP151 T01610122 10233 20156 51011","lat":33.8715,"lon":-117.9856,"elev":23,"name":"Fullerton Muni, CA, US","cover":"CLR","clouds":[],"fltCat":"VFR"},{"icaoId":"KGTF","receiptTime":"2026-04-16T05:56:35.416Z","obsTime":1776318780,"reportTime":"2026-04-16T06:00:00.000Z","temp":2.8,"dewp":1.1,"wdir":100,"wspd":3,"visib":"10+","altim":1003.5,"slp":1003.9,"qcField":4,"presTend":0.8,"maxT":13.3,"minT":2.2,"precip":0.01,"pcp6hr":0.28,"metarType":"METAR","rawOb":"METAR KGTF 160553Z 10003KT 10SM FEW070 BKN110 03/01 A2963 RMK AO2 RAE25 SLP039 P0001 60028 T00280011 10133 20022 50008","lat":47.4733,"lon":-111.3828,"elev":1117,"name":"Great Falls Intl, MT, US","cover":"BKN","clouds":[{"cover":"FEW","base":7000},{"cover":"BKN","base":11000}],"fltCat":"VFR"},{"icaoId":"KHIO","receiptTime":"2026-04-16T05:56:35.649Z","obsTime":1776318780,"reportTime":"2026-04-16T06:00:00.000Z","temp":3.3,"dewp":1.7,"wdir":240,"wspd":4,"visib":"10+","altim":1018.7,"slp":1018.7,"qcField":6,"presTend":1.8,"maxT":8.3,"minT":3.3,"pcp6hr":0.03,"metarType":"METAR","rawOb":"METAR KHIO 160553Z AUTO 24004KT 10SM SCT044 03/02 A3008 RMK AO2 SLP187 60003 T00330017 10083 20033 53018","lat":45.5476,"lon":-122.9557,"elev":62,"name":"Portland/Hillsboro Arpt, OR, US","cover":"SCT","clouds":[{"cover":"SCT","base":4400}],"fltCat":"VFR"},{"icaoId":"KDFW","receiptTime":"2026-04-16T05:56:35.801Z","obsTime":1776318780,"reportTime":"2026-04-16T06:00:00.000Z","temp":23.3,"dewp":18.9,"wdir":190,"wspd":14,"visib":"10+","altim":1011.9,"slp":1011.2,"qcField":4,"presTend":0.1,"maxT":25,"minT":22.2,"maxT24":26.1,"minT24":21.1,"pcp6hr":0.01,"metarType":"METAR","rawOb":"METAR KDFW 160553Z 19014KT 10SM FEW200 BKN250 23/19 A2988 RMK AO2 SLP112 60001 T02330189 10250 20222 402610211 53001","lat":32.8974,"lon":-97.022,"elev":168,"name":"Dallas-Ft Worth Intl, TX, US","cover":"BKN","clouds":[{"cover":"FEW","base":20000},{"cover":"BKN","base":25000}],"fltCat":"VFR"},{"icaoId":"KDTW","receiptTime":"2026-04-16T05:56:36.003Z","obsTime":1776318780,"reportTime":"2026-04-16T06:00:00.000Z","temp":18.9,"dewp":16.7,"wdir":180,"wspd":12,"visib":"10+","altim":1010.2,"slp":1009.7,"qcField":12,"presTend":-0.2,"maxT":20.6,"minT":17.2,"metarType":"METAR","rawOb":"METAR KDTW 160553Z 18012KT 10SM BKN085 BKN110 19/17 A2983 RMK AO2 LTG DSNT NW SLP097 T01890167 10206 20172 58002 $","lat":42.2311,"lon":-83.3312,"elev":192,"name":"Detroit/Metro Wayne Cnty, MI, US","cover":"BKN","clouds":[{"cover":"BKN","base":8500},{"cover":"BKN","base":11000}],"fltCat":"VFR"},{"icaoId":"KDVT","receiptTime":"2026-04-16T05:56:36.044Z","obsTime":1776318780,"reportTime":"2026-04-16T06:00:00.000Z","temp":18.3,"dewp":-5.6,"wdir":0,"wspd":0,"visib":"10+","altim":1013.3,"slp":1011.4,"qcField":4,"presTend":1,"maxT":28.3,"minT":17.8,"metarType":"METAR","rawOb":"METAR KDVT 160553Z 00000KT 10SM CLR 18/M06 A2992 RMK AO2 SLP114 T01831056 10283 20178 51010","lat":33.6902,"lon":-112.0662,"elev":454,"name":"Phoenix/Deer Valley Arpt, AZ, US","cover":"CLR","clouds":[],"fltCat":"VFR"},{"icaoId":"KBTM","receiptTime":"2026-04-16T05:56:36.877Z","obsTime":1776318780,"reportTime":"2026-04-16T06:00:00.000Z","temp":-0.6,"dewp":-2.8,"wdir":310,"wspd":7,"visib":"10+","altim":1005.8,"slp":1005.2,"qcField":6,"presTend":0.8,"maxT":10.6,"minT":-0.6,"precip":0.005,"pcp6hr":0.02,"metarType":"METAR","rawOb":"METAR KBTM 160553Z AUTO 31007KT 10SM BKN034 BKN055 OVC110 M01/M03 A2970 RMK AO2 SNE23 SLP052 P0000 60002 T10061028 10106 21006 51008","lat":45.9644,"lon":-112.5015,"elev":1680,"name":"Butte/Mooney Arpt, MT, US","cover":"OVC","clouds":[{"cover":"BKN","base":3400},{"cover":"BKN","base":5500},{"cover":"OVC","base":11000}],"fltCat":"VFR"},{"icaoId":"KCNM","receiptTime":"2026-04-16T05:56:37.177Z","obsTime":1776318780,"reportTime":"2026-04-16T06:00:00.000Z","temp":16.1,"dewp":-10.6,"wdir":260,"wspd":11,"visib":"10+","altim":1015.3,"slp":1010.9,"qcField":6,"presTend":1,"maxT":27.2,"minT":16.1,"metarType":"METAR","rawOb":"METAR KCNM 160553Z AUTO 26011KT 10SM CLR 16/M11 A2998 RMK AO2 SLP109 T01611106 10272 20161 51010","lat":32.3336,"lon":-104.2584,"elev":993,"name":"Carlsbad/Cavern City Air Term, NM, US","cover":"CLR","clouds":[],"fltCat":"VFR"},{"icaoId":"KIDA","receiptTime":"2026-04-16T05:56:21.711Z","obsTime":1776318780,"reportTime":"2026-04-16T06:00:00.000Z","temp":7.2,"dewp":4.4,"wdir":220,"wspd":10,"visib":"10+","altim":1006.9,"slp":1005.6,"qcField":6,"presTend":0.6,"maxT":8.9,"minT":6.7,"pcp6hr":0.02,"metarType":"METAR","rawOb":"METAR KIDA 160553Z AUTO 22010KT 10SM SCT047 BKN055 OVC070 07/04 A2973 RMK AO2 SLP056 60002 T00720044 10089 20067 53006","lat":43.5204,"lon":-112.0675,"elev":1444,"name":"Idaho Falls Rgnl, ID, US","cover":"OVC","clouds":[{"cover":"SCT","base":4700},{"cover":"BKN","base":5500},{"cover":"OVC","base":7000}],"fltCat":"VFR"},{"icaoId":"KIAH","receiptTime":"2026-04-16T05:56:25.304Z","obsTime":1776318780,"reportTime":"2026-04-16T06:00:00.000Z","temp":22.2,"dewp":20.6,"wdir":170,"wspd":4,"visib":7,"altim":1015.7,"slp":1015.6,"qcField":4,"presTend":0.2,"maxT":26.1,"minT":22.2,"maxT24":28.9,"minT24":19.4,"metarType":"METAR","rawOb":"METAR KIAH 160553Z 17004KT 7SM FEW250 22/21 A2999 RMK AO2 SLP156 T02220206 10261 20222 402890194 53002","lat":29.9844,"lon":-95.3607,"elev":27,"name":"Houston/Bush Intl, TX, US","cover":"FEW","clouds":[{"cover":"FEW","base":25000}],"fltCat":"VFR"},{"icaoId":"KHLN","receiptTime":"2026-04-16T05:56:21.653Z","obsTime":1776318780,"reportTime":"2026-04-16T06:00:00.000Z","temp":3.3,"dewp":-3.9,"wdir":270,"wspd":11,"visib":"10+","altim":1004.5,"slp":1006.3,"qcField":6,"presTend":2.3,"maxT":12.2,"minT":3.3,"metarType":"METAR","rawOb":"METAR KHLN 160553Z AUTO 27011KT 10SM BKN090 OVC120 03/M04 A2966 RMK AO2 SLP063 T00331039 10122 20033 50023","lat":46.6045,"lon":-111.9892,"elev":1178,"name":"Helena Rgnl, MT, US","cover":"OVC","clouds":[{"cover":"BKN","base":9000},{"cover":"OVC","base":12000}],"fltCat":"VFR"},{"icaoId":"KLVS","receiptTime":"2026-04-16T05:56:20.687Z","obsTime":1776318780,"reportTime":"2026-04-16T06:00:00.000Z","temp":7.8,"dewp":-9.4,"wdir":0,"wspd":0,"visib":"10+","altim":1018,"slp":1011,"qcField":14,"presTend":0.5,"maxT":16.1,"minT":6.1,"metarType":"METAR","rawOb":"METAR KLVS 160553Z AUTO 00000KT 10SM CLR 08/M09 A3006 RMK AO2 SLP110 6//// T00781094 10161 20061 50005 PNO $","lat":35.6558,"lon":-105.1385,"elev":2095,"name":"Las Vegas Muni, NM, US","cover":"CLR","clouds":[],"fltCat":"VFR"},{"icaoId":"KMDW","receiptTime":"2026-04-16T05:56:20.175Z","obsTime":1776318780,"reportTime":"2026-04-16T06:00:00.000Z","temp":16.1,"dewp":15,"wdir":80,"wspd":7,"visib":8,"altim":1008.5,"slp":1008.1,"qcField":4,"wxString":"-RA","presTend":0.9,"maxT":22.8,"minT":16.1,"maxT24":22.8,"minT24":16.1,"precip":0.08,"pcp6hr":0.24,"metarType":"METAR","rawOb":"METAR KMDW 160553Z 08007KT 8SM -RA SCT032 BKN080 OVC100 16/15 A2978 RMK AO2 SLP081 P0008 60024 T01610150 10228 20161 402280161 50009","lat":41.7841,"lon":-87.7552,"elev":186,"name":"Chicago/Midway Intl, IL, US","cover":"OVC","clouds":[{"cover":"SCT","base":3200},{"cover":"BKN","base":8000},{"cover":"OVC","base":10000}],"fltCat":"VFR"},{"icaoId":"KONT","receiptTime":"2026-04-16T05:56:19.597Z","obsTime":1776318780,"reportTime":"2026-04-16T06:00:00.000Z","temp":16.1,"dewp":8.9,"wdir":220,"wspd":3,"visib":"10+","altim":1015.7,"slp":1014.6,"qcField":12,"presTend":1.2,"maxT":24.4,"minT":16.1,"metarType":"METAR","rawOb":"METAR KONT 160553Z 22003KT 10SM FEW210 16/09 A2999 RMK AO2 SLP146 T01610089 10244 20161 50012 $","lat":34.0531,"lon":-117.5769,"elev":279,"name":"Ontario Intl, CA, US","cover":"FEW","clouds":[{"cover":"FEW","base":21000}],"fltCat":"VFR"},{"icaoId":"KMIA","receiptTime":"2026-04-16T05:58:04.935Z","obsTime":1776318780,"reportTime":"2026-04-16T06:00:00.000Z","temp":23.3,"dewp":14.4,"wdir":100,"wspd":8,"visib":"10+","altim":1019.4,"slp":1019.2,"qcField":0,"metarType":"METAR","rawOb":"METAR KMIA 160553Z 10008KT 10SM BKN043 23/14 A3010 RMK SLP192 T02330144","lat":25.7881,"lon":-80.3169,"elev":1,"name":"Miami Intl, FL, US","cover":"BKN","clouds":[{"cover":"BKN","base":4300}],"fltCat":"VFR"},{"icaoId":"KMFR","receiptTime":"2026-04-16T05:56:19.273Z","obsTime":1776318780,"reportTime":"2026-04-16T06:00:00.000Z","temp":3.3,"dewp":-0.6,"wdir":0,"wspd":0,"visib":"10+","altim":1021.8,"slp":1022,"qcField":6,"presTend":2.8,"maxT":11.1,"minT":2.8,"metarType":"METAR","rawOb":"METAR KMFR 160553Z AUTO 00000KT 10SM FEW045 03/M01 A3017 RMK AO2 SLP220 T00331006 10111 20028 51028","lat":42.375,"lon":-122.877,"elev":397,"name":"Medford/Rogue Valley Intl, OR, US","cover":"FEW","clouds":[{"cover":"FEW","base":4500}],"fltCat":"VFR"},{"icaoId":"KMSP","receiptTime":"2026-04-16T05:56:29.294Z","obsTime":1776318780,"reportTime":"2026-04-16T06:00:00.000Z","temp":12.2,"dewp":5.6,"wdir":0,"wspd":0,"visib":"10+","altim":1006.9,"slp":1006.7,"qcField":4,"presTend":0.5,"maxT":19.4,"minT":11.7,"maxT24":20,"minT24":7.2,"metarType":"METAR","rawOb":"METAR KMSP 160553Z 00000KT 10SM CLR 12/06 A2973 RMK AO2 SLP067 T01220056 10194 20117 402000072 51005","lat":44.8852,"lon":-93.2313,"elev":255,"name":"Minneapolis-St Paul Intl, MN, US","cover":"CLR","clouds":[],"fltCat":"VFR"},{"icaoId":"KMLC","receiptTime":"2026-04-16T05:56:25.610Z","obsTime":1776318780,"reportTime":"2026-04-16T06:00:00.000Z","temp":16.1,"dewp":15.6,"wdir":0,"wspd":0,"visib":"10+","altim":1012.6,"slp":1011.8,"qcField":6,"presTend":0.3,"maxT":22.8,"minT":16.1,"maxT24":25.6,"minT24":16.1,"pcp6hr":0.21,"metarType":"METAR","rawOb":"METAR KMLC 160553Z AUTO 00000KT 10SM CLR 16/16 A2990 RMK AO2 SLP118 60021 T01610156 10228 20161 402560161 50003","lat":34.8824,"lon":-95.7815,"elev":231,"name":"McAlester Rgnl, OK, US","cover":"CLR","clouds":[],"fltCat":"VFR"},{"icaoId":"KLAR","receiptTime":"2026-04-16T05:56:26.444Z","obsTime":1776318780,"reportTime":"2026-04-16T06:00:00.000Z","temp":5.6,"dewp":-4.4,"wdir":160,"wspd":8,"visib":"10+","altim":1013,"slp":1007.9,"qcField":14,"presTend":-0.1,"maxT":11.7,"minT":5,"metarType":"METAR","rawOb":"METAR KLAR 160553Z AUTO 16008KT 10SM CLR 06/M04 A2991 RMK AO2 SLP079 T00561044 10117 20050 58001 $","lat":41.3165,"lon":-105.6729,"elev":2217,"name":"Laramie Rgnl, WY, US","cover":"CLR","clouds":[],"fltCat":"VFR"},{"icaoId":"KBIL","receiptTime":"2026-04-16T05:56:36.833Z","obsTime":1776318780,"reportTime":"2026-04-16T06:00:00.000Z","temp":8.9,"dewp":0,"wdir":310,"wspd":4,"visib":"10+","altim":1000.4,"slp":999.1,"qcField":4,"presTend":-0.2,"maxT":17.2,"minT":7.2,"metarType":"METAR","rawOb":"METAR KBIL 160553Z 31004KT 10SM BKN110 09/00 A2954 RMK AO2 SLP991 T00890000 10172 20072 58002","lat":45.8072,"lon":-108.5462,"elev":1089,"name":"Billings/Logan Intl, MT, US","cover":"BKN","clouds":[{"cover":"BKN","base":11000}],"fltCat":"VFR"},{"icaoId":"KBHM","receiptTime":"2026-04-16T05:56:28.588Z","obsTime":1776318780,"reportTime":"2026-04-16T06:00:00.000Z","temp":20,"dewp":12.8,"wdir":200,"wspd":9,"visib":"10+","altim":1019.4,"slp":1018.6,"qcField":4,"presTend":-0.3,"maxT":26.1,"minT":17.2,"maxT24":30,"minT24":16.7,"metarType":"METAR","rawOb":"METAR KBHM 160553Z 20009KT 10SM CLR 20/13 A3010 RMK AO2 SLP186 T02000128 10261 20172 403000167 56003","lat":33.5655,"lon":-86.7449,"elev":191,"name":"Birmingham Intl, AL, US","cover":"CLR","clouds":[],"fltCat":"VFR"},{"icaoId":"KBLI","receiptTime":"2026-04-16T05:56:28.691Z","obsTime":1776318780,"reportTime":"2026-04-16T06:00:00.000Z","temp":3.3,"dewp":2.2,"wdir":0,"wspd":0,"visib":"10+","altim":1015.7,"slp":1016.4,"qcField":6,"presTend":2.5,"maxT":8.9,"minT":3.3,"metarType":"METAR","rawOb":"METAR KBLI 160553Z AUTO 00000KT 10SM FEW049 SCT070 03/02 A2999 RMK AO2 SLP164 T00330022 10089 20033 51025","lat":48.7991,"lon":-122.5407,"elev":46,"name":"Bellingham Intl, WA, US","cover":"SCT","clouds":[{"cover":"FEW","base":4900},{"cover":"SCT","base":7000}],"fltCat":"VFR"},{"icaoId":"KBNA","receiptTime":"2026-04-16T05:56:28.740Z","obsTime":1776318780,"reportTime":"2026-04-16T06:00:00.000Z","temp":19.4,"dewp":10.6,"wdir":160,"wspd":3,"visib":"10+","altim":1016.7,"slp":1015.9,"qcField":4,"maxT":27.2,"minT":19.4,"maxT24":30.6,"minT24":17.2,"metarType":"METAR","rawOb":"METAR KBNA 160553Z 16003KT 10SM CLR 19/11 A3002 RMK AO2 SLP159 T01940106 10272 20194 403060172 50000","lat":36.1105,"lon":-86.6881,"elev":168,"name":"Nashville Intl, TN, US","cover":"CLR","clouds":[],"fltCat":"VFR"},{"icaoId":"KMCI","receiptTime":"2026-04-16T05:56:29.151Z","obsTime":1776318780,"reportTime":"2026-04-16T06:00:00.000Z","temp":16.7,"dewp":10,"wdir":180,"wspd":3,"visib":"10+","altim":1009.2,"slp":1008.4,"qcField":4,"presTend":0.7,"maxT":25.6,"minT":16.1,"maxT24":28.3,"minT24":16.1,"metarType":"METAR","rawOb":"METAR KMCI 160553Z 18003KT 10SM OVC250 17/10 A2980 RMK AO2 SLP084 T01670100 10256 20161 402830161 53007","lat":39.2975,"lon":-94.7309,"elev":308,"name":"Kansas City Intl, MO, US","cover":"OVC","clouds":[{"cover":"OVC","base":25000}],"fltCat":"VFR"},{"icaoId":"KPIH","receiptTime":"2026-04-16T05:56:29.212Z","obsTime":1776318780,"reportTime":"2026-04-16T06:00:00.000Z","temp":7.8,"dewp":4.4,"wdir":290,"wspd":6,"visib":"10+","altim":1007.2,"slp":1005,"qcField":6,"presTend":1.4,"maxT":12.2,"minT":7.8,"pcp6hr":0.01,"metarType":"METAR","rawOb":"METAR KPIH 160553Z AUTO 29006KT 10SM FEW075 OVC095 08/04 A2974 RMK AO2 SLP050 60001 T00780044 10122 20078 53014","lat":42.9197,"lon":-112.5723,"elev":1357,"name":"Pocatello Rgnl, ID, US","cover":"OVC","clouds":[{"cover":"FEW","base":7500},{"cover":"OVC","base":9500}],"fltCat":"VFR"},{"icaoId":"KBOI","receiptTime":"2026-04-16T05:56:29.277Z","obsTime":1776318780,"reportTime":"2026-04-16T06:00:00.000Z","temp":5,"dewp":0.6,"wdir":230,"wspd":3,"visib":"10+","altim":1011.3,"slp":1011.5,"qcField":4,"presTend":2,"maxT":14.4,"minT":5,"precip":0.005,"pcp6hr":0.25,"metarType":"METAR","rawOb":"METAR KBOI 160553Z 23003KT 10SM FEW041 SCT080 BKN110 05/01 A2986 RMK AO2 RAB15E31 SLP115 P0000 60025 T00500006 10144 20050 51020","lat":43.567,"lon":-116.2406,"elev":860,"name":"Boise Arpt, ID, US","cover":"BKN","clouds":[{"cover":"FEW","base":4100},{"cover":"SCT","base":8000},{"cover":"BKN","base":11000}],"fltCat":"VFR"},{"icaoId":"KMYR","receiptTime":"2026-04-16T05:56:30.317Z","obsTime":1776318780,"reportTime":"2026-04-16T06:00:00.000Z","temp":19.4,"dewp":15.6,"wdir":190,"wspd":6,"visib":"10+","altim":1019.7,"slp":1019.6,"qcField":14,"presTend":-0.3,"maxT":20.6,"minT":18.3,"metarType":"METAR","rawOb":"METAR KMYR 160553Z AUTO 19006KT 10SM CLR 19/16 A3011 RMK AO2 SLP196 T01940156 10206 20183 58003 $","lat":33.6769,"lon":-78.9325,"elev":7,"name":"Myrtle Beach Intl, SC, US","cover":"CLR","clouds":[],"fltCat":"VFR"},{"icaoId":"KSWO","receiptTime":"2026-04-16T05:56:30.528Z","obsTime":1776318780,"reportTime":"2026-04-16T06:00:00.000Z","temp":17.8,"dewp":17.2,"wdir":200,"wspd":5,"visib":7,"altim":1011.3,"slp":1010.2,"qcField":6,"presTend":2.5,"maxT":25.6,"minT":17.8,"maxT24":28.3,"minT24":17.8,"metarType":"METAR","rawOb":"METAR KSWO 160553Z AUTO 20005KT 7SM CLR 18/17 A2986 RMK AO2 SLP102 T01780172 10256 20178 402830178 51025","lat":36.1624,"lon":-97.0832,"elev":293,"name":"Stillwater Muni, OK, US","cover":"CLR","clouds":[],"fltCat":"VFR"},{"icaoId":"KPGA","receiptTime":"2026-04-16T05:56:31.177Z","obsTime":1776318780,"reportTime":"2026-04-16T06:00:00.000Z","temp":16.1,"dewp":-6.1,"wdir":250,"wspd":3,"visib":"10+","altim":1014.3,"slp":1009.9,"qcField":14,"presTend":0.8,"maxT":22.2,"minT":15,"metarType":"METAR","rawOb":"METAR KPGA 160553Z AUTO 25003KT 10SM CLR 16/M06 A2995 RMK AO2 SLP099 T01611061 10222 20150 50008 $","lat":36.9211,"lon":-111.4487,"elev":1310,"name":"Page Muni, AZ, US","cover":"CLR","clouds":[],"fltCat":"VFR"},{"icaoId":"KYKM","receiptTime":"2026-04-16T05:56:31.342Z","obsTime":1776318780,"reportTime":"2026-04-16T06:00:00.000Z","temp":4.4,"dewp":-6.1,"wdir":280,"wspd":7,"visib":"10+","altim":1013,"slp":1013.2,"qcField":6,"presTend":2.8,"maxT":11.1,"minT":4.4,"metarType":"METAR","rawOb":"METAR KYKM 160553Z AUTO 28007KT 10SM CLR 04/M06 A2991 RMK AO2 SLP132 T00441061 10111 20044 51028","lat":46.564,"lon":-120.5349,"elev":319,"name":"Yakima/McAllister Fld, WA, US","cover":"CLR","clouds":[],"fltCat":"VFR"},{"icaoId":"KACV","receiptTime":"2026-04-16T05:56:31.616Z","obsTime":1776318780,"reportTime":"2026-04-16T06:00:00.000Z","temp":4.4,"dewp":3.3,"wdir":60,"wspd":3,"visib":"10+","altim":1023.1,"slp":1023.5,"qcField":6,"presTend":1.6,"maxT":11.7,"minT":4.4,"metarType":"METAR","rawOb":"METAR KACV 160553Z AUTO 06003KT 10SM CLR 04/03 A3021 RMK AO2 SLP235 T00440033 10117 20044 51016","lat":40.9784,"lon":-124.1048,"elev":63,"name":"Arcata Arpt, CA, US","cover":"CLR","clouds":[],"fltCat":"VFR"},{"icaoId":"KAMA","receiptTime":"2026-04-16T05:56:31.801Z","obsTime":1776318780,"reportTime":"2026-04-16T06:00:00.000Z","temp":13.3,"dewp":-10.6,"wdir":220,"wspd":7,"visib":"10+","altim":1013.3,"slp":1009.3,"qcField":6,"presTend":0.3,"maxT":24.4,"minT":11.7,"maxT24":26.1,"minT24":10,"metarType":"METAR","rawOb":"METAR KAMA 160553Z AUTO 22007KT 10SM CLR 13/M11 A2992 RMK AO2 SLP093 T01331106 10244 20117 402610100 50003","lat":35.2203,"lon":-101.7173,"elev":1102,"name":"Amarillo Intl Arpt, TX, US","cover":"CLR","clouds":[],"fltCat":"VFR"},{"icaoId":"KMKE","receiptTime":"2026-04-16T05:56:30.247Z","obsTime":1776318720,"reportTime":"2026-04-16T06:00:00.000Z","temp":13.9,"dewp":12.8,"wdir":150,"wspd":8,"visib":"10+","altim":1006.2,"slp":1006,"qcField":12,"presTend":-2,"maxT":20,"minT":8.3,"maxT24":21.7,"minT24":8.3,"precip":0.02,"pcp6hr":0.93,"metarType":"METAR","rawOb":"METAR KMKE 160552Z 15008KT 10SM FEW090 SCT110 OVC140 14/13 A2971 RMK AO2 RAE52 SLP060 P0002 60093 T01390128 10200 20083 402170083 58020 $","lat":42.9549,"lon":-87.9045,"elev":203,"name":"Milwaukee/Mitchell Intl, WI, US","cover":"OVC","clouds":[{"cover":"FEW","base":9000},{"cover":"SCT","base":11000},{"cover":"OVC","base":14000}],"fltCat":"VFR"},{"icaoId":"KIAD","receiptTime":"2026-04-16T05:56:30.066Z","obsTime":1776318720,"reportTime":"2026-04-16T06:00:00.000Z","temp":22.8,"dewp":10.6,"wdir":180,"wspd":5,"visib":"10+","altim":1012.6,"slp":1012.2,"qcField":4,"presTend":-0.3,"maxT":28.9,"minT":21.1,"metarType":"METAR","rawOb":"METAR KIAD 160552Z 18005KT 10SM BKN240 23/11 A2990 RMK AO2 SLP122 T02280106 10289 20211 58003","lat":38.9348,"lon":-77.4473,"elev":90,"name":"Washington/Dulles Intl, VA, US","cover":"BKN","clouds":[{"cover":"BKN","base":24000}],"fltCat":"VFR"},{"icaoId":"KMLF","receiptTime":"2026-04-16T05:56:22.481Z","obsTime":1776318720,"reportTime":"2026-04-16T06:00:00.000Z","temp":11.1,"dewp":-3.3,"wdir":190,"wspd":13,"visib":"10+","altim":1013,"slp":1008.9,"qcField":6,"presTend":-0.3,"maxT":18.9,"minT":11.1,"metarType":"METAR","rawOb":"METAR KMLF 160552Z AUTO 19013KT 10SM SCT120 11/M03 A2991 RMK AO2 SLP089 T01111033 10189 20111 58003","lat":38.4225,"lon":-113.0109,"elev":1537,"name":"Milford Muni, UT, US","cover":"SCT","clouds":[{"cover":"SCT","base":12000}],"fltCat":"VFR"},{"icaoId":"KOKC","receiptTime":"2026-04-16T05:56:30.356Z","obsTime":1776318720,"reportTime":"2026-04-16T06:00:00.000Z","temp":16.1,"dewp":15.6,"wdir":170,"wspd":7,"visib":"10+","altim":1011.6,"slp":1010.2,"qcField":4,"presTend":1.3,"maxT":23.9,"minT":16.1,"maxT24":26.7,"minT24":16.1,"metarType":"METAR","rawOb":"METAR KOKC 160552Z 17007KT 10SM CLR 16/16 A2987 RMK AO2 SLP102 T01610156 10239 20161 402670161 51013","lat":35.3843,"lon":-97.6003,"elev":391,"name":"Oklahoma City/Will Rogers Intl, OK, US","cover":"CLR","clouds":[],"fltCat":"VFR"},{"icaoId":"KATL","receiptTime":"2026-04-16T05:56:29.695Z","obsTime":1776318720,"reportTime":"2026-04-16T06:00:00.000Z","temp":19.4,"dewp":11.1,"wdir":230,"wspd":3,"visib":"10+","altim":1019.4,"slp":1018.4,"qcField":12,"presTend":-0.3,"maxT":26.7,"minT":19.4,"metarType":"METAR","rawOb":"METAR KATL 160552Z 23003KT 10SM FEW250 19/11 A3010 RMK AO2 SLP184 T01940111 10267 20194 58003 $","lat":33.6297,"lon":-84.4422,"elev":309,"name":"Atlanta/Hartsfield-Jackson Intl, GA, US","cover":"FEW","clouds":[{"cover":"FEW","base":25000}],"fltCat":"VFR"},{"icaoId":"KCLT","receiptTime":"2026-04-16T05:56:29.833Z","obsTime":1776318720,"reportTime":"2026-04-16T06:00:00.000Z","temp":21.1,"dewp":11.7,"wdir":200,"wspd":3,"visib":"10+","altim":1017.4,"slp":1017.7,"qcField":4,"presTend":-0.9,"maxT":27.2,"minT":21.1,"metarType":"METAR","rawOb":"METAR KCLT 160552Z 20003KT 10SM BKN250 21/12 A3004 RMK AO2 SLP177 T02110117 10272 20211 58009","lat":35.2225,"lon":-80.9543,"elev":223,"name":"Charlotte/Douglas Intl, NC, US","cover":"BKN","clouds":[{"cover":"BKN","base":25000}],"fltCat":"VFR"},{"icaoId":"KABQ","receiptTime":"2026-04-16T05:56:24.940Z","obsTime":1776318720,"reportTime":"2026-04-16T06:00:00.000Z","temp":12.8,"dewp":-8.9,"wdir":320,"wspd":4,"visib":"10+","altim":1017.7,"slp":1012.7,"qcField":4,"presTend":1,"maxT":19.4,"minT":12.8,"metarType":"METAR","rawOb":"METAR KABQ 160552Z 32004KT 10SM CLR 13/M09 A3005 RMK AO2 SLP127 T01281089 10194 20128 51010","lat":35.0419,"lon":-106.6154,"elev":1620,"name":"Albuquerque Intl, NM, US","cover":"CLR","clouds":[],"fltCat":"VFR"},{"icaoId":"KCVG","receiptTime":"2026-04-16T05:56:29.850Z","obsTime":1776318720,"reportTime":"2026-04-16T06:00:00.000Z","temp":21.1,"dewp":13.3,"wdir":210,"wspd":6,"visib":"10+","altim":1013,"slp":1011.9,"qcField":4,"presTend":-0.6,"maxT":25.6,"minT":20.6,"metarType":"METAR","rawOb":"METAR KCVG 160552Z 21006KT 10SM BKN250 21/13 A2991 RMK AO2 SLP119 T02110133 10256 20206 55006","lat":39.0444,"lon":-84.6724,"elev":264,"name":"Cincinnati Intl, KY, US","cover":"BKN","clouds":[{"cover":"BKN","base":25000}],"fltCat":"VFR"},{"icaoId":"KABI","receiptTime":"2026-04-16T05:56:24.921Z","obsTime":1776318720,"reportTime":"2026-04-16T06:00:00.000Z","temp":20,"dewp":17.2,"wdir":160,"wspd":7,"visib":"10+","altim":1013.6,"slp":1011.1,"qcField":12,"presTend":0.9,"maxT":27.2,"minT":20,"maxT24":28.3,"minT24":19.4,"metarType":"METAR","rawOb":"METAR KABI 160552Z 16007KT 10SM CLR 20/17 A2993 RMK AO2 SLP111 T02000172 10272 20200 402830194 51009 $","lat":32.4106,"lon":-99.6821,"elev":543,"name":"Abilene Rgnl, TX, US","cover":"CLR","clouds":[],"fltCat":"VFR"},{"icaoId":"KSPS","receiptTime":"2026-04-16T05:56:25.050Z","obsTime":1776318720,"reportTime":"2026-04-16T06:00:00.000Z","temp":18.9,"dewp":17.8,"wdir":200,"wspd":9,"visib":"10+","altim":1011.3,"slp":1009.8,"qcField":4,"presTend":0.2,"maxT":20.6,"minT":16.1,"maxT24":30,"minT24":16.1,"metarType":"METAR","rawOb":"METAR KSPS 160552Z 20009KT 10SM CLR 19/18 A2986 RMK AO2 SLP098 T01890178 10206 20161 403000161 53002","lat":33.9785,"lon":-98.493,"elev":310,"name":"Wichita Falls Rgnl, TX, US","cover":"CLR","clouds":[],"fltCat":"VFR"},{"icaoId":"KDCA","receiptTime":"2026-04-16T05:56:29.868Z","obsTime":1776318720,"reportTime":"2026-04-16T06:00:00.000Z","temp":21.7,"dewp":14.4,"wdir":170,"wspd":6,"visib":"10+","altim":1012.6,"slp":1012.5,"qcField":4,"presTend":-0.1,"maxT":27.8,"minT":21.7,"metarType":"METAR","rawOb":"METAR KDCA 160552Z 17006KT 10SM SCT250 22/14 A2990 RMK AO2 SLP125 T02170144 10278 20217 58001","lat":38.8472,"lon":-77.0345,"elev":4,"name":"Washington/Reagan-National Arpt, VA, US","cover":"SCT","clouds":[{"cover":"SCT","base":25000}],"fltCat":"VFR"},{"icaoId":"KROW","receiptTime":"2026-04-16T05:54:10.655Z","obsTime":1776318660,"reportTime":"2026-04-16T06:00:00.000Z","temp":13.9,"dewp":-11.7,"wdir":260,"wspd":8,"visib":"10+","altim":1015,"slp":1009.9,"qcField":6,"presTend":0.9,"maxT":26.1,"minT":13.9,"metarType":"METAR","rawOb":"METAR KROW 160551Z AUTO 26008KT 10SM CLR 14/M12 A2997 RMK AO2 SLP099 T01391117 10261 20139 51009","lat":33.3074,"lon":-104.5082,"elev":1105,"name":"Roswell/Ind Arpt, NM, US","cover":"CLR","clouds":[],"fltCat":"VFR"},{"icaoId":"KCLE","receiptTime":"2026-04-16T05:54:10.953Z","obsTime":1776318660,"reportTime":"2026-04-16T06:00:00.000Z","temp":18.9,"dewp":17.2,"wdir":170,"wspd":7,"visib":"10+","altim":1011.6,"slp":1012.7,"qcField":12,"presTend":-0.1,"maxT":19.4,"minT":18.3,"precip":0.005,"pcp6hr":0.005,"metarType":"METAR","rawOb":"METAR KCLE 160551Z 17007KT 10SM FEW070 SCT090 BKN130 BKN250 19/17 A2987 RMK AO2 RAB37E46 SLP127 P0000 60000 T01890172 10194 20183 55001 $","lat":41.4057,"lon":-81.8519,"elev":237,"name":"Cleveland/Hopkins Intl, OH, US","cover":"BKN","clouds":[{"cover":"FEW","base":7000},{"cover":"SCT","base":9000},{"cover":"BKN","base":13000},{"cover":"BKN","base":25000}],"fltCat":"VFR"},{"icaoId":"KSAD","receiptTime":"2026-04-16T05:54:10.668Z","obsTime":1776318660,"reportTime":"2026-04-16T06:00:00.000Z","temp":15.6,"dewp":-12.8,"wdir":320,"wspd":5,"visib":"10+","altim":1015,"slp":1011.5,"qcField":6,"presTend":1.2,"maxT":25.6,"minT":15.6,"metarType":"METAR","rawOb":"METAR KSAD 160551Z AUTO 32005KT 10SM CLR 16/M13 A2997 RMK AO2 SLP115 T01561128 10256 20156 51012","lat":32.8565,"lon":-109.636,"elev":937,"name":"Safford Rgnl, AZ, US","cover":"CLR","clouds":[],"fltCat":"VFR"},{"icaoId":"KORF","receiptTime":"2026-04-16T05:54:10.454Z","obsTime":1776318660,"reportTime":"2026-04-16T06:00:00.000Z","temp":22.2,"dewp":16.7,"wdir":220,"wspd":13,"visib":"10+","altim":1015.3,"slp":1015.1,"qcField":4,"presTend":-0.2,"maxT":27.8,"minT":22.2,"metarType":"METAR","rawOb":"METAR KORF 160551Z 22013KT 10SM CLR 22/17 A2998 RMK AO2 SLP151 T02220167 10278 20222 58002","lat":36.9037,"lon":-76.1927,"elev":5,"name":"Norfolk Intl, VA, US","cover":"CLR","clouds":[],"fltCat":"VFR"},{"icaoId":"KORD","receiptTime":"2026-04-16T05:54:10.428Z","obsTime":1776318660,"reportTime":"2026-04-16T06:00:00.000Z","temp":16.1,"dewp":14.4,"wdir":110,"wspd":9,"visib":"10+","altim":1007.9,"slp":1007.4,"qcField":12,"presTend":-0.9,"maxT":22.2,"minT":15.6,"maxT24":22.2,"minT24":15.6,"precip":0.01,"pcp6hr":0.42,"metarType":"METAR","rawOb":"METAR KORD 160551Z 11009KT 10SM BKN080 BKN100 OVC250 16/14 A2976 RMK AO2 RAE35 SLP074 P0001 60042 T01610144 10222 20156 402220156 58009 $","lat":41.9602,"lon":-87.9316,"elev":202,"name":"Chicago/O'Hare Intl, IL, US","cover":"OVC","clouds":[{"cover":"BKN","base":8000},{"cover":"BKN","base":10000},{"cover":"OVC","base":25000}],"fltCat":"VFR"},{"icaoId":"KSAN","receiptTime":"2026-04-16T05:54:10.681Z","obsTime":1776318660,"reportTime":"2026-04-16T06:00:00.000Z","temp":15.6,"dewp":12.8,"wdir":0,"wspd":0,"visib":"10+","altim":1016.7,"slp":1016.4,"qcField":12,"presTend":0.6,"maxT":19.4,"minT":15.6,"metarType":"METAR","rawOb":"METAR KSAN 160551Z 00000KT 10SM FEW014 SCT200 16/13 A3002 RMK AO2 SLP164 T01560128 10194 20156 50006 $","lat":32.7364,"lon":-117.1973,"elev":3,"name":"San Diego Intl Arpt, CA, US","cover":"SCT","clouds":[{"cover":"FEW","base":1400},{"cover":"SCT","base":20000}],"fltCat":"VFR"},{"icaoId":"KELP","receiptTime":"2026-04-16T05:54:09.951Z","obsTime":1776318660,"reportTime":"2026-04-16T06:00:00.000Z","temp":14.4,"dewp":-12.8,"wdir":140,"wspd":5,"visib":"10+","altim":1016.7,"slp":1011.5,"qcField":4,"presTend":1.4,"maxT":25,"minT":12.2,"metarType":"METAR","rawOb":"METAR KELP 160551Z 14005KT 10SM CLR 14/M13 A3002 RMK AO2 SLP115 T01441128 10250 20122 51014","lat":31.8123,"lon":-106.3774,"elev":1205,"name":"El Paso Intl, TX, US","cover":"CLR","clouds":[],"fltCat":"VFR"},{"icaoId":"KCMH","receiptTime":"2026-04-16T05:54:09.701Z","obsTime":1776318660,"reportTime":"2026-04-16T06:00:00.000Z","temp":22.2,"dewp":13.9,"wdir":0,"wspd":0,"visib":"10+","altim":1013,"slp":1011.9,"qcField":4,"presTend":-0.1,"maxT":26.7,"minT":22.2,"metarType":"METAR","rawOb":"METAR KCMH 160551Z 00000KT 10SM SCT170 BKN250 22/14 A2991 RMK AO2 SLP119 T02220139 10267 20222 55001","lat":39.9907,"lon":-82.877,"elev":257,"name":"Columbus/Glenn Intl, OH, US","cover":"BKN","clouds":[{"cover":"SCT","base":17000},{"cover":"BKN","base":25000}],"fltCat":"VFR"},{"icaoId":"KACT","receiptTime":"2026-04-16T05:54:09.391Z","obsTime":1776318660,"reportTime":"2026-04-16T06:00:00.000Z","temp":22.2,"dewp":18.3,"wdir":180,"wspd":10,"visib":"10+","altim":1014.3,"slp":1013.5,"qcField":6,"presTend":0.8,"maxT":25.6,"minT":21.7,"maxT24":26.7,"minT24":21.1,"metarType":"METAR","rawOb":"METAR KACT 160551Z AUTO 18010KT 10SM CLR 22/18 A2995 RMK AO2 SLP135 T02220183 10256 20217 402670211 53008","lat":31.618,"lon":-97.2283,"elev":150,"name":"Waco Rgnl, TX, US","cover":"CLR","clouds":[],"fltCat":"VFR"},{"icaoId":"KRDU","receiptTime":"2026-04-16T05:54:10.641Z","obsTime":1776318660,"reportTime":"2026-04-16T06:00:00.000Z","temp":22.2,"dewp":12.2,"wdir":200,"wspd":7,"visib":"10+","altim":1017,"slp":1016.3,"qcField":4,"presTend":-0.5,"maxT":28.9,"minT":22.2,"metarType":"METAR","rawOb":"METAR KRDU 160551Z 20007KT 10SM SCT250 22/12 A3003 RMK AO2 SLP163 T02220122 10289 20222 58005","lat":35.8923,"lon":-78.782,"elev":121,"name":"Raleigh-Durham Intl, NC, US","cover":"SCT","clouds":[{"cover":"SCT","base":25000}],"fltCat":"VFR"},{"icaoId":"KLGA","receiptTime":"2026-04-16T05:56:30.155Z","obsTime":1776318660,"reportTime":"2026-04-16T06:00:00.000Z","temp":25.6,"dewp":14.4,"wdir":230,"wspd":8,"visib":"10+","altim":1010.9,"slp":1010.7,"qcField":4,"presTend":-0.6,"maxT":30,"minT":25.6,"metarType":"METAR","rawOb":"METAR KLGA 160551Z 23008KT 10SM BKN180 OVC250 26/14 A2985 RMK AO2 SLP107 T02560144 10300 20256 58006","lat":40.7794,"lon":-73.8803,"elev":9,"name":"New York/La Guardia Arpt, NY, US","cover":"OVC","clouds":[{"cover":"BKN","base":18000},{"cover":"OVC","base":25000}],"fltCat":"VFR"},{"icaoId":"KJFK","receiptTime":"2026-04-16T05:54:10.133Z","obsTime":1776318660,"reportTime":"2026-04-16T06:00:00.000Z","temp":20.6,"dewp":13.9,"wdir":240,"wspd":6,"visib":"10+","altim":1011.6,"slp":1011.3,"qcField":4,"presTend":-0.7,"maxT":20.6,"minT":16.1,"metarType":"METAR","rawOb":"METAR KJFK 160551Z 24006KT 10SM FEW075 SCT200 BKN250 21/14 A2987 RMK AO2 SLP113 T02060139 10206 20161 58007","lat":40.6392,"lon":-73.7639,"elev":3,"name":"New York/JF Kennedy Intl, NY, US","cover":"BKN","clouds":[{"cover":"FEW","base":7500},{"cover":"SCT","base":20000},{"cover":"BKN","base":25000}],"fltCat":"VFR"},{"icaoId":"KVNY","receiptTime":"2026-04-16T05:54:10.880Z","obsTime":1776318660,"reportTime":"2026-04-16T06:00:00.000Z","temp":16.1,"dewp":8.3,"wdir":0,"wspd":0,"visib":"10+","altim":1015.3,"slp":1014.6,"qcField":14,"presTend":1,"maxT":23.9,"minT":16.1,"metarType":"METAR","rawOb":"METAR KVNY 160551Z AUTO 00000KT 10SM CLR 16/08 A2998 RMK AO2 SLP146 T01610083 10239 20161 50010 $","lat":34.2121,"lon":-118.4915,"elev":241,"name":"Van Nuys Arpt, CA, US","cover":"CLR","clouds":[],"fltCat":"VFR"},{"icaoId":"KPIT","receiptTime":"2026-04-16T05:54:11.014Z","obsTime":1776318660,"reportTime":"2026-04-16T06:00:00.000Z","temp":22.8,"dewp":13.9,"wdir":"VRB","wspd":3,"visib":"10+","altim":1013.3,"slp":1013,"qcField":12,"presTend":-0.5,"maxT":26.7,"minT":21.7,"pcp6hr":0.005,"metarType":"METAR","rawOb":"METAR KPIT 160551Z VRB03KT 10SM SCT085 SCT250 23/14 A2992 RMK AO2 SLP130 60000 T02280139 10267 20217 55005 $","lat":40.4814,"lon":-80.2083,"elev":339,"name":"Pittsburgh Intl, PA, US","cover":"SCT","clouds":[{"cover":"SCT","base":8500},{"cover":"SCT","base":25000}],"fltCat":"VFR"},{"icaoId":"KPHX","receiptTime":"2026-04-16T05:54:10.505Z","obsTime":1776318660,"reportTime":"2026-04-16T06:00:00.000Z","temp":24.4,"dewp":-3.3,"wdir":0,"wspd":0,"visib":"10+","altim":1012.3,"slp":1010.6,"qcField":4,"presTend":1,"maxT":29.4,"minT":24.4,"metarType":"METAR","rawOb":"METAR KPHX 160551Z 00000KT 10SM CLR 24/M03 A2989 RMK AO2 SLP106 T02441033 10294 20244 50010","lat":33.4278,"lon":-112.0037,"elev":338,"name":"Phoenix/Sky Harbor Intl, AZ, US","cover":"CLR","clouds":[],"fltCat":"VFR"},{"icaoId":"KOXR","receiptTime":"2026-04-16T05:54:10.475Z","obsTime":1776318660,"reportTime":"2026-04-16T06:00:00.000Z","temp":14.4,"dewp":12.2,"wdir":0,"wspd":0,"visib":"10+","altim":1015.3,"slp":1015.1,"qcField":14,"presTend":0.5,"maxT":18.3,"minT":14.4,"metarType":"METAR","rawOb":"METAR KOXR 160551Z AUTO 00000KT 10SM CLR 14/12 A2998 RMK AO2 SLP151 T01440122 10183 20144 50005 $","lat":34.2001,"lon":-119.2042,"elev":12,"name":"Oxnard Arpt, CA, US","cover":"CLR","clouds":[],"fltCat":"VFR"},{"icaoId":"KCRP","receiptTime":"2026-04-16T05:54:09.826Z","obsTime":1776318660,"reportTime":"2026-04-16T06:00:00.000Z","temp":23.3,"dewp":21.7,"wdir":150,"wspd":10,"visib":"10+","altim":1014.3,"slp":1014.1,"qcField":4,"presTend":-0.2,"maxT":26.7,"minT":23.3,"maxT24":30.6,"minT24":22.8,"metarType":"METAR","rawOb":"METAR KCRP 160551Z 15010KT 10SM FEW013 23/22 A2995 RMK AO2 SLP141 T02330217 10267 20233 403060228 58002","lat":27.7734,"lon":-97.513,"elev":11,"name":"Corpus Christi Intl, TX, US","cover":"FEW","clouds":[{"cover":"FEW","base":1300}],"fltCat":"VFR"},{"icaoId":"KEWR","receiptTime":"2026-04-16T05:54:09.965Z","obsTime":1776318660,"reportTime":"2026-04-16T06:00:00.000Z","temp":24.4,"dewp":15,"wdir":220,"wspd":4,"visib":"10+","altim":1011.3,"slp":1011,"qcField":4,"presTend":-0.6,"maxT":29.4,"minT":24.4,"metarType":"METAR","rawOb":"METAR KEWR 160551Z 22004KT 10SM FEW070 BKN180 BKN250 24/15 A2986 RMK AO2 SLP110 T02440150 10294 20244 56006","lat":40.6828,"lon":-74.1692,"elev":2,"name":"Newark Intl, NJ, US","cover":"BKN","clouds":[{"cover":"FEW","base":7000},{"cover":"BKN","base":18000},{"cover":"BKN","base":25000}],"fltCat":"VFR"},{"icaoId":"KIGM","receiptTime":"2026-04-16T05:54:10.103Z","obsTime":1776318660,"reportTime":"2026-04-16T06:00:00.000Z","temp":14.4,"dewp":-7.2,"wdir":180,"wspd":10,"visib":"10+","altim":1015.3,"slp":1009.9,"qcField":6,"presTend":0.5,"maxT":22.8,"minT":14.4,"metarType":"METAR","rawOb":"METAR KIGM 160551Z AUTO 18010KT 10SM CLR 14/M07 A2998 RMK AO2 SLP099 T01441072 10228 20144 50005","lat":35.2575,"lon":-113.9341,"elev":1045,"name":"Kingman Arpt, AZ, US","cover":"CLR","clouds":[],"fltCat":"VFR"},{"icaoId":"KLGU","receiptTime":"2026-04-16T05:54:10.155Z","obsTime":1776318660,"reportTime":"2026-04-16T06:00:00.000Z","temp":12.2,"dewp":3.9,"wdir":0,"wspd":0,"visib":"10+","altim":1007.9,"slp":1004.9,"qcField":6,"wxString":"-RA","presTend":-1,"maxT":15.6,"minT":10.6,"precip":0.005,"pcp6hr":0.02,"metarType":"METAR","rawOb":"METAR KLGU 160551Z AUTO 00000KT 10SM -RA FEW055 BKN070 OVC085 12/04 A2976 RMK AO2 RAB01 SLP049 P0000 60002 T01220039 10156 20106 58010","lat":41.7865,"lon":-111.8519,"elev":1359,"name":"Logan/Cache Arpt, UT, US","cover":"OVC","clouds":[{"cover":"FEW","base":5500},{"cover":"BKN","base":7000},{"cover":"OVC","base":8500}],"fltCat":"VFR"},{"icaoId":"KSAT","receiptTime":"2026-04-16T05:54:10.715Z","obsTime":1776318660,"reportTime":"2026-04-16T06:00:00.000Z","temp":22.2,"dewp":17.2,"wdir":150,"wspd":11,"visib":"10+","altim":1014.6,"slp":1012.8,"qcField":4,"presTend":0.7,"maxT":28.3,"minT":22.2,"maxT24":30,"minT24":21.1,"metarType":"METAR","rawOb":"METAR KSAT 160551Z 15011KT 10SM FEW050 BKN180 22/17 A2996 RMK AO2 SLP128 T02220172 10283 20222 403000211 50007","lat":29.5443,"lon":-98.4839,"elev":246,"name":"San Antonio Intl, TX, US","cover":"BKN","clouds":[{"cover":"FEW","base":5000},{"cover":"BKN","base":18000}],"fltCat":"VFR"},{"icaoId":"KIWA","receiptTime":"2026-04-16T05:50:46.098Z","obsTime":1776318540,"reportTime":"2026-04-16T06:00:00.000Z","temp":21,"dewp":-5,"wdir":0,"wspd":0,"visib":"10+","altim":1013.6,"qcField":0,"metarType":"METAR","rawOb":"METAR KIWA 160549Z 00000KT 10SM CLR 21/M05 A2993","lat":33.3008,"lon":-111.6437,"elev":420,"name":"Phoenix/Mesa Gateway Arpt, AZ, US","cover":"CLR","clouds":[],"fltCat":"VFR"}]