[{"icaoId":"KLAS","receiptTime":"2026-04-10T22:26:13.930Z","obsTime":1775859780,"reportTime":"2026-04-10T22:23:00.000Z","temp":28.3,"dewp":0,"wdir":240,"wspd":15,"wgst":25,"visib":"10+","altim":1009.9,"qcField":4,"metarType":"SPECI","rawOb":"SPECI KLAS 102223Z 24015G25KT 10SM FEW090 SCT250 28/00 A2982 RMK AO2 T02830000","lat":36.0719,"lon":-115.1634,"elev":662,"name":"Las Vegas/Reid Intl, NV, US","cover":"SCT","clouds":[{"cover":"FEW","base":9000},{"cover":"SCT","base":25000}],"fltCat":"VFR"},{"icaoId":"KLOL","receiptTime":"2026-04-10T22:24:04.267Z","obsTime":1775859600,"reportTime":"2026-04-10T22:20:00.000Z","temp":16.7,"dewp":6.1,"wdir":240,"wspd":14,"wgst":20,"visib":9,"altim":1007.2,"qcField":6,"wxString":"-TSRA","precip":0.005,"metarType":"SPECI","rawOb":"SPECI KLOL 102220Z AUTO 24014G20KT 9SM -TSRA FEW041 BKN070 OVC090 17/06 A2974 RMK AO2 LTG DSNT N AND E RAB2154 TSB14 P0000 T01670061","lat":40.0684,"lon":-118.5702,"elev":1191,"name":"Lovelock/Derby Fld, NV, US","cover":"OVC","clouds":[{"cover":"FEW","base":4100},{"cover":"BKN","base":7000},{"cover":"OVC","base":9000}],"fltCat":"VFR"},{"icaoId":"KBVU","receiptTime":"2026-04-10T22:16:05.457Z","obsTime":1775859300,"reportTime":"2026-04-10T22:15:00.000Z","temp":28,"dewp":-1,"wdir":180,"wspd":15,"visib":"10+","altim":1008.9,"qcField":6,"metarType":"METAR","rawOb":"METAR KBVU 102215Z AUTO 18015KT 10SM BKN110 28/M01 A2979 RMK AO2","lat":35.9489,"lon":-114.8633,"elev":654,"name":"Boulder City Muni, NV, US","cover":"BKN","clouds":[{"cover":"BKN","base":11000}],"fltCat":"VFR"},{"icaoId":"KHII","receiptTime":"2026-04-10T22:21:29.425Z","obsTime":1775859300,"reportTime":"2026-04-10T22:15:00.000Z","temp":32,"dewp":2,"wdir":210,"wspd":13,"visib":"10+","altim":1009.2,"qcField":6,"metarType":"METAR","rawOb":"METAR KHII 102215Z AUTO 21013KT 10SM CLR 32/02 A2980 RMK AO2","lat":34.5659,"lon":-114.3522,"elev":241,"name":"Lake Havasu City Arpt, AZ, US","cover":"CLR","clouds":[],"fltCat":"VFR"},{"icaoId":"KHTH","receiptTime":"2026-04-10T22:21:29.684Z","obsTime":1775859300,"reportTime":"2026-04-10T22:15:00.000Z","temp":23,"dewp":-6,"wdir":220,"wspd":20,"wgst":29,"visib":"10+","altim":1006.9,"qcField":6,"metarType":"METAR","rawOb":"METAR KHTH 102215Z AUTO 22020G29KT 10SM FEW100 23/M06 A2973 RMK A01","lat":38.5448,"lon":-118.6314,"elev":1281,"name":"Hawthorne Muni, NV, US","cover":"FEW","clouds":[{"cover":"FEW","base":10000}],"fltCat":"VFR"},{"icaoId":"KMEV","receiptTime":"2026-04-10T22:21:36.114Z","obsTime":1775859300,"reportTime":"2026-04-10T22:15:00.000Z","temp":14,"dewp":0,"wdir":240,"wspd":17,"wgst":24,"visib":"10+","altim":1009.6,"qcField":6,"metarType":"METAR","rawOb":"METAR KMEV 102215Z AUTO 24017G24KT 10SM CLR 14/00 A2981 RMK AO2","lat":38.9963,"lon":-119.75,"elev":1437,"name":"Minden-Tahoe Arpt, NV, US","cover":"CLR","clouds":[],"fltCat":"VFR"},{"icaoId":"KRTS","receiptTime":"2026-04-10T22:21:33.045Z","obsTime":1775859300,"reportTime":"2026-04-10T22:15:00.000Z","temp":12,"dewp":2,"wdir":230,"wspd":20,"wgst":33,"visib":"10+","altim":1009.9,"qcField":6,"metarType":"METAR","rawOb":"METAR KRTS 102215Z AUTO 23020G33KT 10SM FEW090 FEW120 12/02 A2982 RMK AO2","lat":39.6658,"lon":-119.8731,"elev":1537,"name":"Reno/Stead Arpt, NV, US","cover":"FEW","clouds":[{"cover":"FEW","base":9000},{"cover":"FEW","base":12000}],"fltCat":"VFR"},{"icaoId":"KSEZ","receiptTime":"2026-04-10T22:21:33.594Z","obsTime":1775859300,"reportTime":"2026-04-10T22:15:00.000Z","temp":24,"dewp":-2,"wdir":210,"wspd":12,"wgst":20,"visib":"10+","altim":1017,"qcField":6,"metarType":"METAR","rawOb":"METAR KSEZ 102215Z AUTO 21012G20KT 190V250 10SM CLR 24/M02 A3003 RMK AO2","lat":34.8467,"lon":-111.7884,"elev":1455,"name":"Sedona Arpt, AZ, US","cover":"CLR","clouds":[],"fltCat":"VFR"},{"icaoId":"KSOW","receiptTime":"2026-04-10T22:21:51.325Z","obsTime":1775859300,"reportTime":"2026-04-10T22:15:00.000Z","temp":22,"dewp":-4,"wdir":220,"wspd":23,"visib":"10+","altim":1019.7,"qcField":6,"metarType":"METAR","rawOb":"METAR KSOW 102215Z AUTO 22023KT 10SM FEW090 22/M04 A3011 RMK AO2","lat":34.2686,"lon":-110.0019,"elev":1954,"name":"Show Low Muni, AZ, US","cover":"FEW","clouds":[{"cover":"FEW","base":9000}],"fltCat":"VFR"},{"icaoId":"KCXP","receiptTime":"2026-04-10T22:21:30.694Z","obsTime":1775859000,"reportTime":"2026-04-10T22:10:00.000Z","temp":15,"dewp":-1,"wdir":260,"wspd":13,"wgst":23,"visib":"10+","altim":1009.9,"qcField":6,"metarType":"METAR","rawOb":"METAR KCXP 102210Z AUTO 26013G23KT 230V290 10SM FEW080 BKN100 15/M01 A2982 RMK AO2 LTG DSNT N AND SW","lat":39.1905,"lon":-119.7319,"elev":1431,"name":"Carson City Arpt, NV, US","cover":"BKN","clouds":[{"cover":"FEW","base":8000},{"cover":"BKN","base":10000}],"fltCat":"VFR"},{"icaoId":"KNYL","receiptTime":"2026-04-10T22:01:05.524Z","obsTime":1775858220,"reportTime":"2026-04-10T22:00:00.000Z","temp":32.2,"dewp":6.1,"wdir":260,"wspd":8,"visib":"10+","altim":1010.2,"slp":1009.8,"qcField":4,"metarType":"METAR","rawOb":"METAR KNYL 102157Z 26008KT 10SM CLR 32/06 A2983 RMK AO2 SLP098 T03220061","lat":32.66,"lon":-114.6078,"elev":58,"name":"Yuma , AZ, US","cover":"CLR","clouds":[],"fltCat":"VFR"},{"icaoId":"KNFL","receiptTime":"2026-04-10T22:01:05.600Z","obsTime":1775858220,"reportTime":"2026-04-10T22:00:00.000Z","temp":20.6,"dewp":1.1,"wdir":260,"wspd":4,"wgst":14,"visib":"10+","altim":1006.2,"slp":1004.1,"qcField":12,"wxString":"TS","metarType":"METAR","rawOb":"METAR KNFL 102157Z 26004G14KT 10SM TS FEW040 SCT050CB BKN080 BKN150 BKN180 21/01 A2971 RMK AO2 TSE42B57 SLP041 OCNL LGTICCA N-NE CB N-NE AND W MOV N T02060011 PNO $","lat":39.417,"lon":-118.705,"elev":1199,"name":"Fallon , NV, US","cover":"BKN","clouds":[{"cover":"FEW","base":4000},{"cover":"SCT","base":5000},{"cover":"BKN","base":8000},{"cover":"BKN","base":15000}],"fltCat":"VFR"},{"icaoId":"KFLG","receiptTime":"2026-04-10T22:00:58.326Z","obsTime":1775858220,"reportTime":"2026-04-10T22:00:00.000Z","temp":17.2,"dewp":-2.8,"wdir":190,"wspd":14,"wgst":27,"visib":"10+","altim":1020.1,"slp":1012.9,"qcField":4,"metarType":"METAR","rawOb":"METAR KFLG 102157Z 19014G27KT 10SM FEW070 17/M03 A3012 RMK AO2 PK WND 22029/2110 SLP129 T01721028","lat":35.1443,"lon":-111.6664,"elev":2134,"name":"Flagstaff/Pulliam Arpt, AZ, US","cover":"FEW","clouds":[{"cover":"FEW","base":7000}],"fltCat":"VFR"},{"icaoId":"KIFP","receiptTime":"2026-04-10T21:57:58.689Z","obsTime":1775858220,"reportTime":"2026-04-10T22:00:00.000Z","temp":32,"dewp":2,"wdir":180,"wspd":14,"visib":20,"altim":1008.2,"qcField":0,"metarType":"METAR","rawOb":"METAR KIFP 102157Z 18014KT 20SM SCT100 32/02 A2977","lat":35.1487,"lon":-114.5611,"elev":210,"name":"Bullhead City Intl, AZ, US","cover":"SCT","clouds":[{"cover":"SCT","base":10000}],"fltCat":"VFR"},{"icaoId":"KEKO","receiptTime":"2026-04-10T22:00:12.899Z","obsTime":1775858160,"reportTime":"2026-04-10T22:00:00.000Z","temp":23.3,"dewp":-4.4,"wdir":170,"wspd":12,"wgst":20,"visib":"10+","altim":1007.2,"slp":1002.9,"qcField":6,"metarType":"METAR","rawOb":"METAR KEKO 102156Z AUTO 17012G20KT 10SM FEW100 23/M04 A2974 RMK AO2 SLP029 T02331044","lat":40.824,"lon":-115.7863,"elev":1541,"name":"Elko Rgnl, NV, US","cover":"FEW","clouds":[{"cover":"FEW","base":10000}],"fltCat":"VFR"},{"icaoId":"KCGZ","receiptTime":"2026-04-10T21:58:36.702Z","obsTime":1775858160,"reportTime":"2026-04-10T22:00:00.000Z","temp":32.8,"dewp":-1.1,"wdir":280,"wspd":7,"visib":"10+","altim":1011.6,"slp":1010,"qcField":14,"metarType":"METAR","rawOb":"METAR KCGZ 102156Z AUTO 28007KT 10SM CLR 33/M01 A2987 RMK AO2 SLP100 T03281011 $","lat":32.9531,"lon":-111.7725,"elev":444,"name":"Casa Granda Muni, AZ, US","cover":"CLR","clouds":[],"fltCat":"VFR"},{"icaoId":"KTPH","receiptTime":"2026-04-10T22:00:13.244Z","obsTime":1775858160,"reportTime":"2026-04-10T22:00:00.000Z","temp":19.4,"dewp":-2.2,"wdir":190,"wspd":22,"wgst":34,"visib":"10+","altim":1010.9,"slp":1006.6,"qcField":6,"metarType":"METAR","rawOb":"METAR KTPH 102156Z AUTO 19022G34KT 10SM SCT080 19/M02 A2985 RMK AO2 PK WND 16039/2118 SLP066 T01941022","lat":38.0505,"lon":-117.0906,"elev":1647,"name":"Tonopah Arpt, NV, US","cover":"SCT","clouds":[{"cover":"SCT","base":8000}],"fltCat":"VFR"},{"icaoId":"KDUG","receiptTime":"2026-04-10T22:02:12.427Z","obsTime":1775858160,"reportTime":"2026-04-10T22:00:00.000Z","temp":27.8,"dewp":0.6,"wdir":280,"wspd":9,"visib":"10+","altim":1015.7,"slp":1009.8,"qcField":38,"metarType":"METAR","rawOb":"METAR KDUG 102156Z AUTO 28009KT 10SM FEW110 28/01 A2999 RMK AO2 SLP098 T02780006 TSNO","lat":31.4725,"lon":-109.6022,"elev":1260,"name":"Douglas/Bisbee Intl, AZ, US","cover":"FEW","clouds":[{"cover":"FEW","base":11000}],"fltCat":"VFR"},{"icaoId":"KINW","receiptTime":"2026-04-10T22:00:30.236Z","obsTime":1775858160,"reportTime":"2026-04-10T22:00:00.000Z","temp":23.9,"dewp":-8.3,"wdir":240,"wspd":18,"wgst":25,"visib":"10+","altim":1016.7,"slp":1011.1,"qcField":6,"metarType":"METAR","rawOb":"METAR KINW 102156Z AUTO 24018G25KT 10SM CLR 24/M08 A3002 RMK AO2 PK WND 24035/2129 SLP111 T02391083","lat":35.0279,"lon":-110.7221,"elev":1492,"name":"Winslow/Lindberg Rgnl, AZ, US","cover":"CLR","clouds":[],"fltCat":"VFR"},{"icaoId":"KENV","receiptTime":"2026-04-10T21:58:35.955Z","obsTime":1775858160,"reportTime":"2026-04-10T22:00:00.000Z","temp":25,"dewp":-3.9,"wdir":140,"wspd":15,"visib":"10+","altim":1008.2,"slp":1004.7,"qcField":6,"metarType":"METAR","rawOb":"METAR KENV 102156Z AUTO 14015KT 10SM CLR 25/M04 A2977 RMK AO2 LTG DSNT SW SLP047 T02501039","lat":40.7211,"lon":-114.0312,"elev":1291,"name":"Wendover Arpt, UT, US","cover":"CLR","clouds":[],"fltCat":"VFR"},{"icaoId":"KHND","receiptTime":"2026-04-10T21:58:35.029Z","obsTime":1775858160,"reportTime":"2026-04-10T22:00:00.000Z","temp":27.8,"dewp":1.7,"wdir":210,"wspd":13,"wgst":18,"visib":"10+","altim":1011.3,"slp":1010.3,"qcField":12,"metarType":"METAR","rawOb":"METAR KHND 102156Z 21013G18KT 10SM CLR 28/02 A2986 RMK AO2 SLP103 T02780017 $","lat":35.9657,"lon":-115.1343,"elev":740,"name":"Henderson Exec, NV, US","cover":"CLR","clouds":[],"fltCat":"VFR"},{"icaoId":"KRNO","receiptTime":"2026-04-10T21:58:34.318Z","obsTime":1775858100,"reportTime":"2026-04-10T22:00:00.000Z","temp":17.2,"dewp":-1.7,"wdir":190,"wspd":17,"wgst":24,"visib":"10+","altim":1008.9,"slp":1005.3,"qcField":4,"metarType":"METAR","rawOb":"METAR KRNO 102155Z 19017G24KT 10SM FEW050 BKN090 17/M02 A2979 RMK AO2 SLP053 VIRGA T01721017","lat":39.5077,"lon":-119.7683,"elev":1344,"name":"Reno/Tahoe Intl, NV, US","cover":"BKN","clouds":[{"cover":"FEW","base":5000},{"cover":"BKN","base":9000}],"fltCat":"VFR"},{"icaoId":"KOLS","receiptTime":"2026-04-10T21:58:23.908Z","obsTime":1775858040,"reportTime":"2026-04-10T22:00:00.000Z","temp":28.3,"dewp":0.6,"wdir":200,"wspd":16,"wgst":25,"visib":"10+","altim":1016,"slp":1009.8,"qcField":6,"metarType":"METAR","rawOb":"METAR KOLS 102154Z AUTO 20016G25KT 10SM FEW100 28/01 A3000 RMK AO2 PK WND 23030/2141 SLP098 T02830006","lat":31.4208,"lon":-110.8465,"elev":1194,"name":"Nogales Intl, AZ, US","cover":"FEW","clouds":[{"cover":"FEW","base":10000}],"fltCat":"VFR"},{"icaoId":"KGCN","receiptTime":"2026-04-10T21:58:24.784Z","obsTime":1775858040,"reportTime":"2026-04-10T22:00:00.000Z","temp":17.8,"dewp":-3.9,"wdir":210,"wspd":19,"wgst":28,"visib":"10+","altim":1019,"slp":1012.4,"qcField":4,"metarType":"METAR","rawOb":"METAR KGCN 102154Z 21019G28KT 10SM FEW090 SCT110 18/M04 A3009 RMK AO2 PK WND 18031/2134 SLP124 T01781039","lat":35.9458,"lon":-112.1554,"elev":1993,"name":"Grand Canyon Park Arpt, AZ, US","cover":"SCT","clouds":[{"cover":"FEW","base":9000},{"cover":"SCT","base":11000}],"fltCat":"VFR"},{"icaoId":"KSJN","receiptTime":"2026-04-10T21:58:24.125Z","obsTime":1775858040,"reportTime":"2026-04-10T22:00:00.000Z","temp":23.9,"dewp":-3.9,"wdir":270,"wspd":16,"wgst":25,"visib":"10+","altim":1017,"slp":1009.6,"qcField":6,"metarType":"METAR","rawOb":"METAR KSJN 102154Z AUTO 27016G25KT 10SM FEW120 24/M04 A3003 RMK AO2 PK WND 23031/2110 SLP096 T02391039","lat":34.5184,"lon":-109.3801,"elev":1747,"name":"St Johns Ind Arpt, AZ, US","cover":"FEW","clouds":[{"cover":"FEW","base":12000}],"fltCat":"VFR"},{"icaoId":"KFFZ","receiptTime":"2026-04-10T21:58:24.753Z","obsTime":1775858040,"reportTime":"2026-04-10T22:00:00.000Z","temp":31.7,"dewp":-0.6,"wdir":200,"wspd":6,"visib":"10+","altim":1011.3,"slp":1008.9,"qcField":4,"metarType":"METAR","rawOb":"METAR KFFZ 102154Z 20006KT 10SM CLR 32/M01 A2986 RMK AO2 SLP089 T03171006","lat":33.4659,"lon":-111.7212,"elev":420,"name":"Mesa/Falcon Fld, AZ, US","cover":"CLR","clouds":[],"fltCat":"VFR"},{"icaoId":"KTUS","receiptTime":"2026-04-10T21:56:39.474Z","obsTime":1775857980,"reportTime":"2026-04-10T22:00:00.000Z","temp":32.8,"dewp":-3.3,"wdir":290,"wspd":7,"wgst":18,"visib":"10+","altim":1013,"slp":1008.4,"qcField":4,"metarType":"METAR","rawOb":"METAR KTUS 102153Z 29007G18KT 240V310 10SM CLR 33/M03 A2991 RMK AO2 SLP084 T03281033","lat":32.1315,"lon":-110.9564,"elev":776,"name":"Tucson Intl Arpt, AZ, US","cover":"CLR","clouds":[],"fltCat":"VFR"},{"icaoId":"KPGA","receiptTime":"2026-04-10T21:56:34.566Z","obsTime":1775857980,"reportTime":"2026-04-10T22:00:00.000Z","temp":23.9,"dewp":-3.3,"wdir":220,"wspd":9,"wgst":22,"visib":"10+","altim":1014,"slp":1008.3,"qcField":6,"metarType":"METAR","rawOb":"METAR KPGA 102153Z AUTO 22009G22KT 10SM CLR 24/M03 A2994 RMK AO2 SLP083 T02391033","lat":36.9211,"lon":-111.4487,"elev":1310,"name":"Page Muni, AZ, US","cover":"CLR","clouds":[],"fltCat":"VFR"},{"icaoId":"KDVT","receiptTime":"2026-04-10T21:56:28.384Z","obsTime":1775857980,"reportTime":"2026-04-10T22:00:00.000Z","temp":30,"dewp":1.1,"wdir":240,"wspd":6,"wgst":15,"visib":"10+","altim":1011.9,"slp":1009.7,"qcField":4,"metarType":"METAR","rawOb":"METAR KDVT 102153Z 24006G15KT 10SM CLR 30/01 A2988 RMK AO2 SLP097 T03000011","lat":33.6902,"lon":-112.0662,"elev":454,"name":"Phoenix/Deer Valley Arpt, AZ, US","cover":"CLR","clouds":[],"fltCat":"VFR"},{"icaoId":"KVGT","receiptTime":"2026-04-10T21:56:38.591Z","obsTime":1775857980,"reportTime":"2026-04-10T22:00:00.000Z","temp":27.8,"dewp":1.1,"wdir":230,"wspd":13,"wgst":26,"visib":"10+","altim":1009.9,"slp":1009.4,"qcField":4,"metarType":"METAR","rawOb":"METAR KVGT 102153Z 23013G26KT 10SM CLR 28/01 A2982 RMK AO2 PK WND 20029/2117 SLP094 T02780011","lat":36.212,"lon":-115.194,"elev":664,"name":"Las Vegas/North Arpt, NV, US","cover":"CLR","clouds":[],"fltCat":"VFR"},{"icaoId":"KELY","receiptTime":"2026-04-10T21:56:38.083Z","obsTime":1775857980,"reportTime":"2026-04-10T22:00:00.000Z","temp":20,"dewp":-5.6,"wdir":200,"wspd":15,"wgst":27,"visib":"10+","altim":1011.9,"slp":1004.6,"qcField":6,"metarType":"METAR","rawOb":"METAR KELY 102153Z AUTO 20015G27KT 10SM BKN100 BKN110 20/M06 A2988 RMK AO2 PK WND 13033/2136 SLP046 T02001056","lat":39.2954,"lon":-114.8466,"elev":1906,"name":"Ely/Yelland Fld, NV, US","cover":"BKN","clouds":[{"cover":"BKN","base":10000},{"cover":"BKN","base":11000}],"fltCat":"VFR"},{"icaoId":"KPRC","receiptTime":"2026-04-10T21:56:38.420Z","obsTime":1775857980,"reportTime":"2026-04-10T22:00:00.000Z","temp":21.1,"dewp":-2.2,"wdir":190,"wspd":11,"wgst":25,"visib":"10+","altim":1017.7,"slp":1011.1,"qcField":4,"metarType":"METAR","rawOb":"METAR KPRC 102153Z 19011G25KT 10SM SCT090 21/M02 A3005 RMK AO2 PK WND 18026/2124 SLP111 T02111022","lat":34.6491,"lon":-112.4223,"elev":1528,"name":"Prescott/Love Fld, AZ, US","cover":"SCT","clouds":[{"cover":"SCT","base":9000}],"fltCat":"VFR"},{"icaoId":"KSDL","receiptTime":"2026-04-10T21:56:28.522Z","obsTime":1775857980,"reportTime":"2026-04-10T22:00:00.000Z","temp":31.1,"dewp":0.6,"wdir":260,"wspd":6,"visib":"10+","altim":1012.3,"slp":1009.7,"qcField":4,"metarType":"METAR","rawOb":"METAR KSDL 102153Z 26006KT 10SM CLR 31/01 A2989 RMK AO2 SLP097 T03110006","lat":33.6123,"lon":-111.9232,"elev":438,"name":"Scottsdale Muni, AZ, US","cover":"CLR","clouds":[],"fltCat":"VFR"},{"icaoId":"KPHX","receiptTime":"2026-04-10T21:54:12.625Z","obsTime":1775857860,"reportTime":"2026-04-10T22:00:00.000Z","temp":32.2,"dewp":2.2,"wdir":230,"wspd":5,"visib":"10+","altim":1010.6,"slp":1008.8,"qcField":4,"metarType":"METAR","rawOb":"METAR KPHX 102151Z 23005KT 10SM FEW120 FEW150 SCT180 BKN250 32/02 A2984 RMK AO2 SLP088 VIRGA T03220022","lat":33.4278,"lon":-112.0037,"elev":338,"name":"Phoenix/Sky Harbor Intl, AZ, US","cover":"BKN","clouds":[{"cover":"FEW","base":12000},{"cover":"FEW","base":15000},{"cover":"SCT","base":18000},{"cover":"BKN","base":25000}],"fltCat":"VFR"},{"icaoId":"KSAD","receiptTime":"2026-04-10T21:54:10.736Z","obsTime":1775857860,"reportTime":"2026-04-10T22:00:00.000Z","temp":30.6,"dewp":-1.7,"wdir":150,"wspd":4,"visib":"10+","altim":1012.6,"slp":1007.7,"qcField":6,"metarType":"METAR","rawOb":"METAR KSAD 102151Z AUTO 15004KT 10SM FEW120 31/M02 A2990 RMK AO2 SLP077 T03061017","lat":32.8565,"lon":-109.636,"elev":937,"name":"Safford Rgnl, AZ, US","cover":"FEW","clouds":[{"cover":"FEW","base":12000}],"fltCat":"VFR"},{"icaoId":"KIGM","receiptTime":"2026-04-10T21:54:12.207Z","obsTime":1775857860,"reportTime":"2026-04-10T22:00:00.000Z","temp":25.6,"dewp":-0.6,"wdir":220,"wspd":18,"wgst":31,"visib":"10+","altim":1013.6,"slp":1007.3,"qcField":6,"metarType":"METAR","rawOb":"METAR KIGM 102151Z AUTO 22018G31KT 10SM CLR 26/M01 A2993 RMK AO2 PK WND 22035/2107 SLP073 T02561006","lat":35.2575,"lon":-113.9341,"elev":1045,"name":"Kingman Arpt, AZ, US","cover":"CLR","clouds":[],"fltCat":"VFR"},{"icaoId":"KGEU","receiptTime":"2026-04-10T21:50:38.108Z","obsTime":1775857680,"reportTime":"2026-04-10T22:00:00.000Z","temp":31,"dewp":1,"wdir":240,"wspd":11,"visib":"10+","altim":1010.6,"qcField":0,"metarType":"METAR","rawOb":"METAR KGEU 102148Z 24011KT 10SM OVC250 31/01 A2984","lat":33.528,"lon":-112.293,"elev":319,"name":"Glendale Muni, AZ, US","cover":"OVC","clouds":[{"cover":"OVC","base":25000}],"fltCat":"VFR"},{"icaoId":"KCHD","receiptTime":"2026-04-10T21:53:07.228Z","obsTime":1775857620,"reportTime":"2026-04-10T22:00:00.000Z","temp":32,"dewp":0,"wdir":220,"wspd":8,"visib":"10+","altim":1011.3,"qcField":0,"metarType":"METAR","rawOb":"METAR KCHD 102147Z 22008KT 10SM FEW250 32/00 A2986","lat":33.2669,"lon":-111.8086,"elev":378,"name":"Chandler Muni, AZ, US","cover":"FEW","clouds":[{"cover":"FEW","base":25000}],"fltCat":"VFR"},{"icaoId":"KRYN","receiptTime":"2026-04-10T21:46:12.669Z","obsTime":1775857500,"reportTime":"2026-04-10T22:00:00.000Z","temp":33,"dewp":-7,"wdir":210,"wspd":15,"visib":"10+","altim":1012.3,"qcField":0,"metarType":"METAR","rawOb":"METAR KRYN 102145Z 21015KT 10SM CLR 33/M07 A2989","lat":32.1418,"lon":-111.1767,"elev":731,"name":"Tucson/Ryan Fld, AZ, US","cover":"CLR","clouds":[],"fltCat":"VFR"}]