[{"icaoId":"KNYL","receiptTime":"2026-04-07T21:00:28.336Z","obsTime":1775595420,"reportTime":"2026-04-07T21:00:00.000Z","temp":33.9,"dewp":3.3,"wdir":0,"wspd":0,"visib":"10+","altim":1010.2,"slp":1009.7,"qcField":4,"presTend":-2.2,"metarType":"METAR","rawOb":"METAR KNYL 072057Z 00000KT 10SM CLR 34/03 A2983 RMK AO2 SLP097 T03390033 58022","lat":32.66,"lon":-114.6078,"elev":58,"name":"Yuma , AZ, US","cover":"CLR","clouds":[],"fltCat":"VFR"},{"icaoId":"KFLG","receiptTime":"2026-04-07T21:00:28.786Z","obsTime":1775595420,"reportTime":"2026-04-07T21:00:00.000Z","temp":18.9,"dewp":-7.2,"wdir":"VRB","wspd":5,"visib":"10+","altim":1020.4,"slp":1013.4,"qcField":4,"presTend":-1.4,"metarType":"METAR","rawOb":"METAR KFLG 072057Z VRB05KT 10SM SCT100 19/M07 A3013 RMK AO2 SLP134 T01891072 56014","lat":35.1443,"lon":-111.6664,"elev":2134,"name":"Flagstaff/Pulliam Arpt, AZ, US","cover":"SCT","clouds":[{"cover":"SCT","base":10000}],"fltCat":"VFR"},{"icaoId":"KDUG","receiptTime":"2026-04-07T21:08:19.559Z","obsTime":1775595360,"reportTime":"2026-04-07T21:00:00.000Z","temp":25.6,"dewp":4.4,"wdir":320,"wspd":13,"wgst":28,"visib":"10+","altim":1015,"slp":1009.7,"qcField":38,"presTend":-1.9,"metarType":"METAR","rawOb":"METAR KDUG 072056Z AUTO 32013G28KT 10SM CLR 26/04 A2997 RMK AO2 PK WND 33028/2049 SLP097 T02560044 58019 TSNO","lat":31.4725,"lon":-109.6022,"elev":1260,"name":"Douglas/Bisbee Intl, AZ, US","cover":"CLR","clouds":[],"fltCat":"VFR"},{"icaoId":"KINW","receiptTime":"2026-04-07T21:00:06.392Z","obsTime":1775595360,"reportTime":"2026-04-07T21:00:00.000Z","temp":20.6,"dewp":3.3,"wdir":"VRB","wspd":4,"visib":"10+","altim":1017.4,"slp":1012.6,"qcField":6,"presTend":-2.4,"metarType":"METAR","rawOb":"METAR KINW 072056Z AUTO VRB04KT 10SM CLR 21/03 A3004 RMK AO2 SLP126 T02060033 58024","lat":35.0279,"lon":-110.7221,"elev":1492,"name":"Winslow/Lindberg Rgnl, AZ, US","cover":"CLR","clouds":[],"fltCat":"VFR"},{"icaoId":"KCGZ","receiptTime":"2026-04-07T20:58:17.220Z","obsTime":1775595360,"reportTime":"2026-04-07T21:00:00.000Z","temp":30.6,"dewp":2.2,"wdir":"VRB","wspd":4,"visib":"10+","altim":1011.9,"slp":1010.7,"qcField":14,"metarType":"METAR","rawOb":"METAR KCGZ 072056Z AUTO VRB04KT 10SM CLR 31/02 A2988 RMK AO2 SLP107 6//// T03060022 $","lat":32.9531,"lon":-111.7725,"elev":444,"name":"Casa Granda Muni, AZ, US","cover":"CLR","clouds":[],"fltCat":"VFR"},{"icaoId":"KHII","receiptTime":"2026-04-07T21:00:30.890Z","obsTime":1775595300,"reportTime":"2026-04-07T21:00:00.000Z","temp":32,"dewp":-5,"wdir":"VRB","wspd":5,"visib":"10+","altim":1010.9,"qcField":6,"metarType":"METAR","rawOb":"METAR KHII 072055Z AUTO VRB05KT 10SM CLR 32/M05 A2985 RMK AO2","lat":34.5659,"lon":-114.3522,"elev":241,"name":"Lake Havasu City Arpt, AZ, US","cover":"CLR","clouds":[],"fltCat":"VFR"},{"icaoId":"KSEZ","receiptTime":"2026-04-07T21:00:11.959Z","obsTime":1775595300,"reportTime":"2026-04-07T21:00:00.000Z","temp":26,"dewp":-3,"wdir":180,"wspd":8,"wgst":14,"visib":"10+","altim":1016.7,"qcField":6,"metarType":"METAR","rawOb":"METAR KSEZ 072055Z AUTO 18008G14KT 140V210 10SM CLR 26/M03 A3002 RMK AO2","lat":34.8467,"lon":-111.7884,"elev":1455,"name":"Sedona Arpt, AZ, US","cover":"CLR","clouds":[],"fltCat":"VFR"},{"icaoId":"KSOW","receiptTime":"2026-04-07T21:00:05.481Z","obsTime":1775595300,"reportTime":"2026-04-07T21:00:00.000Z","temp":18,"dewp":2,"wdir":360,"wspd":8,"wgst":14,"visib":"10+","altim":1020.1,"qcField":6,"metarType":"METAR","rawOb":"METAR KSOW 072055Z AUTO 36008G14KT 320V030 10SM FEW055 FEW095 FEW120 18/02 A3012 RMK AO2","lat":34.2686,"lon":-110.0019,"elev":1954,"name":"Show Low Muni, AZ, US","cover":"FEW","clouds":[{"cover":"FEW","base":5500},{"cover":"FEW","base":9500},{"cover":"FEW","base":12000}],"fltCat":"VFR"},{"icaoId":"KOLS","receiptTime":"2026-04-07T20:58:14.786Z","obsTime":1775595240,"reportTime":"2026-04-07T21:00:00.000Z","temp":26.1,"dewp":1.1,"wdir":330,"wspd":12,"wgst":23,"visib":"10+","altim":1015.3,"slp":1009.7,"qcField":6,"presTend":-1.5,"metarType":"METAR","rawOb":"METAR KOLS 072054Z AUTO 33012G23KT 10SM CLR 26/01 A2998 RMK AO2 PK WND 32027/2020 SLP097 T02610011 58015","lat":31.4208,"lon":-110.8465,"elev":1194,"name":"Nogales Intl, AZ, US","cover":"CLR","clouds":[],"fltCat":"VFR"},{"icaoId":"KSJN","receiptTime":"2026-04-07T20:58:17.767Z","obsTime":1775595240,"reportTime":"2026-04-07T21:00:00.000Z","temp":17.8,"dewp":2.8,"visib":"10+","altim":1017.7,"slp":1011.6,"qcField":6,"presTend":-2.4,"metarType":"METAR","rawOb":"METAR KSJN 072054Z AUTO 10SM CLR 18/03 A3005 RMK AO2 SLP116 T01780028 56024","lat":34.5184,"lon":-109.3801,"elev":1747,"name":"St Johns Ind Arpt, AZ, US","cover":"CLR","clouds":[],"fltCat":"VFR"},{"icaoId":"KGCN","receiptTime":"2026-04-07T20:58:04.639Z","obsTime":1775595240,"reportTime":"2026-04-07T21:00:00.000Z","temp":17.8,"dewp":-5.6,"wdir":"VRB","wspd":3,"visib":"10+","altim":1020.1,"slp":1014.5,"qcField":4,"presTend":-1.4,"metarType":"METAR","rawOb":"METAR KGCN 072054Z VRB03KT 10SM BKN095 BKN110 18/M06 A3012 RMK AO2 SLP145 T01781056 56014","lat":35.9458,"lon":-112.1554,"elev":1993,"name":"Grand Canyon Park Arpt, AZ, US","cover":"BKN","clouds":[{"cover":"BKN","base":9500},{"cover":"BKN","base":11000}],"fltCat":"VFR"},{"icaoId":"KFFZ","receiptTime":"2026-04-07T20:58:12.371Z","obsTime":1775595240,"reportTime":"2026-04-07T21:00:00.000Z","temp":31.1,"dewp":3.3,"wdir":170,"wspd":7,"visib":"10+","altim":1010.9,"slp":1008.6,"qcField":4,"presTend":-2.6,"metarType":"METAR","rawOb":"METAR KFFZ 072054Z 17007KT 10SM CLR 31/03 A2985 RMK AO2 SLP086 T03110033 58026","lat":33.4659,"lon":-111.7212,"elev":420,"name":"Mesa/Falcon Fld, AZ, US","cover":"CLR","clouds":[],"fltCat":"VFR"},{"icaoId":"KPRC","receiptTime":"2026-04-07T20:56:33.475Z","obsTime":1775595180,"reportTime":"2026-04-07T21:00:00.000Z","temp":23.9,"dewp":-8.3,"visib":"10+","altim":1017.4,"slp":1011.4,"qcField":4,"presTend":-2,"metarType":"METAR","rawOb":"METAR KPRC 072053Z 10SM CLR 24/M08 A3004 RMK AO2 SLP114 T02391083 56020","lat":34.6491,"lon":-112.4223,"elev":1528,"name":"Prescott/Love Fld, AZ, US","cover":"CLR","clouds":[],"fltCat":"VFR"},{"icaoId":"KSDL","receiptTime":"2026-04-07T20:56:31.573Z","obsTime":1775595180,"reportTime":"2026-04-07T21:00:00.000Z","temp":30.6,"dewp":2.2,"wdir":0,"wspd":0,"visib":"10+","altim":1011.6,"slp":1009.3,"qcField":4,"presTend":-2.5,"metarType":"METAR","rawOb":"METAR KSDL 072053Z 00000KT 10SM CLR 31/02 A2987 RMK AO2 SLP093 T03060022 56025","lat":33.6123,"lon":-111.9232,"elev":438,"name":"Scottsdale Muni, AZ, US","cover":"CLR","clouds":[],"fltCat":"VFR"},{"icaoId":"KPGA","receiptTime":"2026-04-07T20:56:33.214Z","obsTime":1775595180,"reportTime":"2026-04-07T21:00:00.000Z","temp":24.4,"dewp":-5,"wdir":0,"wspd":0,"visib":"10+","altim":1014.6,"slp":1009.3,"qcField":14,"presTend":-3,"metarType":"METAR","rawOb":"METAR KPGA 072053Z AUTO 00000KT 10SM CLR 24/M05 A2996 RMK AO2 SLP093 T02441050 57030 $","lat":36.9211,"lon":-111.4487,"elev":1310,"name":"Page Muni, AZ, US","cover":"CLR","clouds":[],"fltCat":"VFR"},{"icaoId":"KTUS","receiptTime":"2026-04-07T20:56:30.854Z","obsTime":1775595180,"reportTime":"2026-04-07T21:00:00.000Z","temp":27.8,"dewp":3.9,"wdir":290,"wspd":12,"wgst":21,"visib":"10+","altim":1013.3,"slp":1009.3,"qcField":4,"presTend":-2.6,"metarType":"METAR","rawOb":"METAR KTUS 072053Z 29012G21KT 10SM CLR 28/04 A2992 RMK AO2 SLP093 T02780039 58026","lat":32.1315,"lon":-110.9564,"elev":776,"name":"Tucson Intl Arpt, AZ, US","cover":"CLR","clouds":[],"fltCat":"VFR"},{"icaoId":"KDVT","receiptTime":"2026-04-07T20:56:35.517Z","obsTime":1775595180,"reportTime":"2026-04-07T21:00:00.000Z","temp":31.7,"dewp":1.1,"wdir":270,"wspd":10,"visib":"10+","altim":1011.3,"slp":1009,"qcField":4,"presTend":-2.6,"metarType":"METAR","rawOb":"METAR KDVT 072053Z 27010KT 10SM FEW110 32/01 A2986 RMK AO2 SLP090 T03170011 56026","lat":33.6902,"lon":-112.0662,"elev":454,"name":"Phoenix/Deer Valley Arpt, AZ, US","cover":"FEW","clouds":[{"cover":"FEW","base":11000}],"fltCat":"VFR"},{"icaoId":"KPHX","receiptTime":"2026-04-07T20:54:09.984Z","obsTime":1775595060,"reportTime":"2026-04-07T21:00:00.000Z","temp":32.2,"dewp":2.2,"wdir":220,"wspd":10,"wgst":15,"visib":"10+","altim":1010.6,"slp":1008.8,"qcField":4,"presTend":-2.7,"metarType":"METAR","rawOb":"METAR KPHX 072051Z 22010G15KT 10SM FEW100 32/02 A2984 RMK AO2 SLP088 T03220022 56027","lat":33.4278,"lon":-112.0037,"elev":338,"name":"Phoenix/Sky Harbor Intl, AZ, US","cover":"FEW","clouds":[{"cover":"FEW","base":10000}],"fltCat":"VFR"},{"icaoId":"KIGM","receiptTime":"2026-04-07T20:54:09.806Z","obsTime":1775595060,"reportTime":"2026-04-07T21:00:00.000Z","temp":27.8,"dewp":-7.8,"visib":"10+","altim":1015.3,"slp":1009,"qcField":6,"presTend":-1.5,"metarType":"METAR","rawOb":"METAR KIGM 072051Z AUTO 10SM CLR 28/M08 A2998 RMK AO2 SLP090 T02781078 58015","lat":35.2575,"lon":-113.9341,"elev":1045,"name":"Kingman Arpt, AZ, US","cover":"CLR","clouds":[],"fltCat":"VFR"},{"icaoId":"KSAD","receiptTime":"2026-04-07T20:54:10.087Z","obsTime":1775595060,"reportTime":"2026-04-07T21:00:00.000Z","temp":25.6,"dewp":4.4,"wdir":10,"wspd":4,"wgst":21,"visib":"10+","altim":1013.3,"slp":1009.2,"qcField":6,"presTend":-2.1,"metarType":"METAR","rawOb":"METAR KSAD 072051Z AUTO 01004G21KT 10SM SCT080 26/04 A2992 RMK AO2 SLP092 T02560044 58021","lat":32.8565,"lon":-109.636,"elev":937,"name":"Safford Rgnl, AZ, US","cover":"SCT","clouds":[{"cover":"SCT","base":8000}],"fltCat":"VFR"},{"icaoId":"KGEU","receiptTime":"2026-04-07T20:51:13.972Z","obsTime":1775595000,"reportTime":"2026-04-07T21:00:00.000Z","temp":32,"dewp":1,"wdir":280,"wspd":7,"visib":"10+","altim":1010.2,"qcField":0,"metarType":"METAR","rawOb":"METAR KGEU 072050Z 28007KT 10SM CLR 32/01 A2983","lat":33.528,"lon":-112.293,"elev":319,"name":"Glendale Muni, AZ, US","cover":"CLR","clouds":[],"fltCat":"VFR"},{"icaoId":"KIWA","receiptTime":"2026-04-07T20:56:39.690Z","obsTime":1775595000,"reportTime":"2026-04-07T21:00:00.000Z","temp":31,"dewp":4,"wdir":280,"wspd":10,"visib":"10+","altim":1011.6,"qcField":0,"metarType":"METAR","rawOb":"METAR KIWA 072050Z 28010KT 10SM CLR 31/04 A2987","lat":33.3008,"lon":-111.6437,"elev":420,"name":"Phoenix/Mesa Gateway Arpt, AZ, US","cover":"CLR","clouds":[],"fltCat":"VFR"},{"icaoId":"KIFP","receiptTime":"2026-04-07T20:47:48.184Z","obsTime":1775594820,"reportTime":"2026-04-07T21:00:00.000Z","temp":32,"dewp":-4,"wdir":240,"wspd":6,"visib":"10+","altim":1010.2,"qcField":0,"metarType":"METAR","rawOb":"METAR KIFP 072047Z 24006KT 10SM CLR 32/M04 A2983","lat":35.1487,"lon":-114.5611,"elev":210,"name":"Bullhead City Intl, AZ, US","cover":"CLR","clouds":[],"fltCat":"VFR"},{"icaoId":"KCHD","receiptTime":"2026-04-07T20:51:52.150Z","obsTime":1775594820,"reportTime":"2026-04-07T21:00:00.000Z","temp":31,"dewp":2,"wdir":"VRB","wspd":6,"visib":"10+","altim":1011.3,"qcField":0,"metarType":"METAR","rawOb":"METAR KCHD 072047Z VRB06KT 10SM FEW080 31/02 A2986","lat":33.2669,"lon":-111.8086,"elev":378,"name":"Chandler Muni, AZ, US","cover":"FEW","clouds":[{"cover":"FEW","base":8000}],"fltCat":"VFR"},{"icaoId":"KGYR","receiptTime":"2026-04-07T20:47:48.025Z","obsTime":1775594820,"reportTime":"2026-04-07T21:00:00.000Z","temp":31,"dewp":4,"wdir":250,"wspd":8,"visib":"10+","altim":1011.6,"qcField":0,"metarType":"METAR","rawOb":"METAR KGYR 072047Z 25008KT 10SM FEW200 31/04 A2987","lat":33.428,"lon":-112.368,"elev":292,"name":"Phoenix/Goodyear Muni, AZ, US","cover":"FEW","clouds":[{"cover":"FEW","base":20000}],"fltCat":"VFR"},{"icaoId":"KRYN","receiptTime":"2026-04-07T20:45:34.434Z","obsTime":1775594700,"reportTime":"2026-04-07T21:00:00.000Z","temp":29,"dewp":2,"wdir":290,"wspd":16,"wgst":23,"visib":"10+","altim":1013.3,"qcField":0,"metarType":"METAR","rawOb":"METAR KRYN 072045Z 29016G23KT 10SM CLR 29/02 A2992","lat":32.1418,"lon":-111.1767,"elev":731,"name":"Tucson/Ryan Fld, AZ, US","cover":"CLR","clouds":[],"fltCat":"VFR"},{"icaoId":"KLUF","receiptTime":"2026-04-07T20:04:04.591Z","obsTime":1775591700,"reportTime":"2026-04-07T20:00:00.000Z","temp":30.9,"dewp":0.3,"wdir":250,"wspd":6,"visib":"10+","altim":1011.3,"slp":1009.9,"qcField":12,"metarType":"METAR","rawOb":"METAR KLUF 071955Z 25006KT 10SM CLR 31/00 A2986 RMK AO2A SLP099 T03090003 $","lat":33.538,"lon":-112.38,"elev":333,"name":"Phoenix/Luke AFB, AZ, US","cover":"CLR","clouds":[],"fltCat":"VFR"}]