[{"icaoId":"KGPI","receiptTime":"2026-04-16T23:40:16.954Z","obsTime":1776382620,"reportTime":"2026-04-16T23:37:00.000Z","temp":0,"dewp":-2.8,"wdir":150,"wspd":6,"visib":1.75,"altim":1015.7,"qcField":4,"wxString":"-SN","precip":0.005,"metarType":"SPECI","rawOb":"SPECI KGPI 162337Z 15006KT 1 3/4SM -SN FEW008 BKN020 OVC025 00/M03 A2999 RMK AO2 P0000 T00001028","lat":48.3041,"lon":-114.2643,"elev":903,"name":"Kalispell/Glacier Park Intl, MT, US","cover":"OVC","clouds":[{"cover":"FEW","base":800},{"cover":"BKN","base":2000},{"cover":"OVC","base":2500}],"fltCat":"IFR"},{"icaoId":"KSDY","receiptTime":"2026-04-16T23:40:15.823Z","obsTime":1776382620,"reportTime":"2026-04-16T23:37:00.000Z","temp":3,"dewp":-3,"wdir":330,"wspd":19,"wgst":27,"visib":"10+","altim":1010.6,"qcField":14,"metarType":"SPECI","rawOb":"SPECI KSDY 162337Z AUTO 33019G27KT 10SM FEW024 BKN030 OVC080 03/M03 A2984 RMK AO2 PK WND 33027/2333 $","lat":47.7029,"lon":-104.1951,"elev":600,"name":"Sidney/Richland Muni, MT, US","cover":"OVC","clouds":[{"cover":"FEW","base":2400},{"cover":"BKN","base":3000},{"cover":"OVC","base":8000}],"fltCat":"MVFR"},{"icaoId":"KPIH","receiptTime":"2026-04-16T23:40:15.796Z","obsTime":1776382560,"reportTime":"2026-04-16T23:36:00.000Z","temp":1.7,"dewp":-6.7,"wdir":220,"wspd":23,"wgst":32,"visib":"10+","altim":1014,"qcField":4,"precip":0.005,"metarType":"SPECI","rawOb":"SPECI KPIH 162336Z 22023G32KT 10SM SCT035 OVC070 02/M07 A2994 RMK AO2 PK WND 23032/2331 WSHFT 2319 SNE24 P0000 T00171067","lat":42.9197,"lon":-112.5723,"elev":1357,"name":"Pocatello Rgnl, ID, US","cover":"OVC","clouds":[{"cover":"SCT","base":3500},{"cover":"OVC","base":7000}],"fltCat":"VFR"},{"icaoId":"KLRU","receiptTime":"2026-04-16T23:38:19.287Z","obsTime":1776382500,"reportTime":"2026-04-16T23:35:00.000Z","temp":26.4,"dewp":-10.8,"wdir":230,"wspd":10,"wgst":20,"visib":"10+","altim":1013,"qcField":6,"metarType":"METAR","rawOb":"METAR KLRU 162335Z AUTO 23010G20KT 10SM CLR 26/M11 A2991 RMK AO2 T02641108","lat":32.2884,"lon":-106.9131,"elev":1355,"name":"Las Cruces Intl, NM, US","cover":"CLR","clouds":[],"fltCat":"VFR"},{"icaoId":"KHCR","receiptTime":"2026-04-16T23:38:19.219Z","obsTime":1776382500,"reportTime":"2026-04-16T23:35:00.000Z","temp":-1.7,"dewp":-2.3,"wdir":70,"wspd":9,"wgst":15,"visib":0.25,"altim":1013.6,"qcField":14,"wxString":"FZFG +SN","precip":0.01,"vertVis":5,"metarType":"METAR","rawOb":"METAR KHCR 162335Z AUTO 07009G15KT 050V130 1/4SM +SN FZFG VV005 M02/M02 A2993 RMK AO2 P0001 T10171023 $","lat":40.4774,"lon":-111.4329,"elev":1708,"name":"Heber City Muni, UT, US","cover":"OVX","clouds":[{"cover":"OVX","base":500}],"fltCat":"LIFR"},{"icaoId":"KMHR","receiptTime":"2026-04-16T23:40:15.035Z","obsTime":1776382500,"reportTime":"2026-04-16T23:35:00.000Z","temp":22,"dewp":-3,"wdir":340,"wspd":17,"wgst":23,"visib":"10+","altim":1015.3,"qcField":6,"metarType":"METAR","rawOb":"METAR KMHR 162335Z AUTO 34017G23KT 10SM CLR 22/M03 A2998 RMK AO2","lat":38.56,"lon":-121.284,"elev":30,"name":"Sacramento/Mather Fld, CA, US","cover":"CLR","clouds":[],"fltCat":"VFR"},{"icaoId":"KHTH","receiptTime":"2026-04-16T23:40:15.511Z","obsTime":1776382500,"reportTime":"2026-04-16T23:35:00.000Z","temp":15,"dewp":-21,"wdir":350,"wspd":19,"wgst":27,"visib":"10+","altim":1016,"qcField":6,"metarType":"METAR","rawOb":"METAR KHTH 162335Z AUTO 35019G27KT 10SM CLR 15/M21 A3000 RMK A01","lat":38.5448,"lon":-118.6314,"elev":1281,"name":"Hawthorne Muni, NV, US","cover":"CLR","clouds":[],"fltCat":"VFR"},{"icaoId":"KEVW","receiptTime":"2026-04-16T23:38:19.383Z","obsTime":1776382500,"reportTime":"2026-04-16T23:35:00.000Z","temp":-5.6,"dewp":-7.2,"wdir":250,"wspd":11,"visib":0.5,"altim":1013.6,"qcField":14,"wxString":"SN FZFG","precip":0.01,"metarType":"SPECI","rawOb":"SPECI KEVW 162335Z AUTO 25011KT 1/2SM SN FZFG BKN009 BKN017 OVC022 M06/M07 A2993 RMK AO2 P0001 T10561072 $","lat":41.2727,"lon":-111.0305,"elev":2178,"name":"Evanston/Uinta Cnty, WY, US","cover":"OVC","clouds":[{"cover":"BKN","base":900},{"cover":"BKN","base":1700},{"cover":"OVC","base":2200}],"fltCat":"LIFR"},{"icaoId":"KSOW","receiptTime":"2026-04-16T23:38:13.919Z","obsTime":1776382500,"reportTime":"2026-04-16T23:35:00.000Z","temp":19,"dewp":-12,"wdir":210,"wspd":16,"wgst":26,"visib":"10+","altim":1015.3,"qcField":6,"metarType":"METAR","rawOb":"METAR KSOW 162335Z AUTO 21016G26KT 10SM CLR 19/M12 A2998 RMK AO2","lat":34.2686,"lon":-110.0019,"elev":1954,"name":"Show Low Muni, AZ, US","cover":"CLR","clouds":[],"fltCat":"VFR"},{"icaoId":"KSEZ","receiptTime":"2026-04-16T23:40:15.059Z","obsTime":1776382500,"reportTime":"2026-04-16T23:35:00.000Z","temp":20,"dewp":-8,"wdir":170,"wspd":14,"wgst":22,"visib":"10+","altim":1013,"qcField":6,"metarType":"METAR","rawOb":"METAR KSEZ 162335Z AUTO 17014G22KT 10SM CLR 20/M08 A2991 RMK AO2","lat":34.8467,"lon":-111.7884,"elev":1455,"name":"Sedona Arpt, AZ, US","cover":"CLR","clouds":[],"fltCat":"VFR"},{"icaoId":"KHII","receiptTime":"2026-04-16T23:40:03.968Z","obsTime":1776382500,"reportTime":"2026-04-16T23:35:00.000Z","temp":30,"dewp":-5,"wdir":190,"wspd":8,"wgst":18,"visib":"10+","altim":1006.9,"qcField":6,"metarType":"METAR","rawOb":"METAR KHII 162335Z AUTO 19008G18KT 10SM CLR 30/M05 A2973 RMK AO2","lat":34.5659,"lon":-114.3522,"elev":241,"name":"Lake Havasu City Arpt, AZ, US","cover":"CLR","clouds":[],"fltCat":"VFR"},{"icaoId":"KBVU","receiptTime":"2026-04-16T23:38:18.552Z","obsTime":1776382500,"reportTime":"2026-04-16T23:35:00.000Z","temp":27,"dewp":-8,"wdir":240,"wspd":16,"wgst":23,"visib":"10+","altim":1005.8,"qcField":6,"metarType":"METAR","rawOb":"METAR KBVU 162335Z AUTO 24016G23KT 10SM CLR 27/M08 A2970 RMK AO2","lat":35.9489,"lon":-114.8633,"elev":654,"name":"Boulder City Muni, NV, US","cover":"CLR","clouds":[],"fltCat":"VFR"},{"icaoId":"KHAF","receiptTime":"2026-04-16T23:38:19.201Z","obsTime":1776382500,"reportTime":"2026-04-16T23:35:00.000Z","wdir":350,"wspd":13,"wgst":19,"visib":"10+","altim":1017.7,"qcField":6,"metarType":"METAR","rawOb":"METAR KHAF 162335Z AUTO 35013G19KT 10SM CLR A3005 RMK AO2","lat":37.5136,"lon":-122.4996,"elev":11,"name":"Half Moon Bay Arpt, CA, US","cover":"CLR","clouds":[],"fltCat":"VFR"},{"icaoId":"KRTS","receiptTime":"2026-04-16T23:40:07.076Z","obsTime":1776382500,"reportTime":"2026-04-16T23:35:00.000Z","temp":9,"dewp":-18,"wdir":360,"wspd":21,"visib":"10+","altim":1018.4,"qcField":6,"metarType":"METAR","rawOb":"METAR KRTS 162335Z AUTO 36021KT 10SM CLR 09/M18 A3007 RMK AO2","lat":39.6658,"lon":-119.8731,"elev":1537,"name":"Reno/Stead Arpt, NV, US","cover":"CLR","clouds":[],"fltCat":"VFR"},{"icaoId":"KCXP","receiptTime":"2026-04-16T23:40:14.894Z","obsTime":1776382500,"reportTime":"2026-04-16T23:35:00.000Z","temp":13,"dewp":-16,"wdir":350,"wspd":13,"wgst":18,"visib":"10+","altim":1017,"qcField":6,"metarType":"METAR","rawOb":"METAR KCXP 162335Z AUTO 35013G18KT 10SM CLR 13/M16 A3003 RMK AO2","lat":39.1905,"lon":-119.7319,"elev":1431,"name":"Carson City Arpt, NV, US","cover":"CLR","clouds":[],"fltCat":"VFR"},{"icaoId":"KMEV","receiptTime":"2026-04-16T23:40:15.009Z","obsTime":1776382500,"reportTime":"2026-04-16T23:35:00.000Z","temp":14,"dewp":-16,"wdir":20,"wspd":14,"wgst":20,"visib":"10+","altim":1015.7,"qcField":6,"metarType":"METAR","rawOb":"METAR KMEV 162335Z AUTO 02014G20KT 10SM CLR 14/M16 A2999 RMK AO2","lat":38.9963,"lon":-119.75,"elev":1437,"name":"Minden-Tahoe Arpt, NV, US","cover":"CLR","clouds":[],"fltCat":"VFR"},{"icaoId":"KPVU","receiptTime":"2026-04-16T23:36:05.519Z","obsTime":1776382380,"reportTime":"2026-04-16T23:33:00.000Z","temp":3,"dewp":-4,"wdir":350,"wspd":19,"wgst":27,"visib":"10+","altim":1015.3,"qcField":4,"wxString":"-RA","precip":0.005,"metarType":"SPECI","rawOb":"SPECI KPVU 162333Z 35019G27KT 10SM -RA FEW023 OVC029 03/M04 A2998 RMK AO2 PK WND 32031/2300 RAB03 P0000","lat":40.224,"lon":-111.7252,"elev":1370,"name":"Provo Muni, UT, US","cover":"OVC","clouds":[{"cover":"FEW","base":2300},{"cover":"OVC","base":2900}],"fltCat":"MVFR"},{"icaoId":"KMLF","receiptTime":"2026-04-16T23:36:05.642Z","obsTime":1776382320,"reportTime":"2026-04-16T23:32:00.000Z","temp":8.3,"dewp":-6.7,"wdir":20,"wspd":29,"wgst":40,"visib":5,"altim":1010.9,"qcField":6,"wxString":"HZ","metarType":"SPECI","rawOb":"SPECI KMLF 162332Z AUTO 02029G40KT 5SM HZ SCT020 OVC110 08/M07 A2985 RMK AO2 PK WND 02041/2300 T00831067","lat":38.4225,"lon":-113.0109,"elev":1537,"name":"Milford Muni, UT, US","cover":"OVC","clouds":[{"cover":"SCT","base":2000},{"cover":"OVC","base":11000}],"fltCat":"MVFR"},{"icaoId":"KBTM","receiptTime":"2026-04-16T23:36:05.507Z","obsTime":1776382320,"reportTime":"2026-04-16T23:32:00.000Z","temp":0,"dewp":-7.8,"wdir":350,"wspd":10,"wgst":22,"visib":3,"altim":1011.9,"qcField":6,"wxString":"-SN","precip":0.005,"metarType":"SPECI","rawOb":"SPECI KBTM 162332Z AUTO 35010G22KT 3SM -SN SCT021 BKN031 BKN043 00/M08 A2988 RMK AO2 PK WND 31027/2311 SNB07 P0000 T00001078","lat":45.9644,"lon":-112.5015,"elev":1680,"name":"Butte/Mooney Arpt, MT, US","cover":"BKN","clouds":[{"cover":"SCT","base":2100},{"cover":"BKN","base":3100},{"cover":"BKN","base":4300}],"fltCat":"MVFR"},{"icaoId":"KRKS","receiptTime":"2026-04-16T23:32:12.006Z","obsTime":1776382140,"reportTime":"2026-04-16T23:29:00.000Z","temp":-1.7,"dewp":-2.2,"wdir":270,"wspd":18,"wgst":27,"visib":0.25,"altim":1010.6,"qcField":6,"wxString":"+SN FZFG","precip":0.005,"vertVis":6,"metarType":"SPECI","rawOb":"SPECI KRKS 162329Z AUTO 27018G27KT 1/4SM +SN FZFG VV006 M02/M02 A2984 RMK AO2 PK WND 27027/2320 P0000 T10171022","lat":41.5947,"lon":-109.0529,"elev":2062,"name":"Rock Springs/SW Wyoming Rgnl, WY, US","cover":"OVX","clouds":[{"cover":"OVX","base":600}],"fltCat":"LIFR"},{"icaoId":"KSYR","receiptTime":"2026-04-16T23:32:12.146Z","obsTime":1776382140,"reportTime":"2026-04-16T23:29:00.000Z","temp":16.7,"dewp":15.6,"wdir":310,"wspd":13,"wgst":25,"visib":1.75,"altim":1008.9,"qcField":12,"wxString":"TSRA BR","precip":0.05,"metarType":"SPECI","rawOb":"SPECI KSYR 162329Z 31013G25KT 1 3/4SM TSRA BR BKN015CB BKN021 OVC028 17/16 A2979 RMK AO2 VIS 1/2 NW RAB15 TSB15 FRQ LTGICCG W-OHD TS W-OHD MOV NE P0005 T01670156 $","lat":43.1111,"lon":-76.1038,"elev":125,"name":"Syracuse/Hancock Intl, NY, US","cover":"OVC","clouds":[{"cover":"BKN","base":1500},{"cover":"BKN","base":2100},{"cover":"OVC","base":2800}],"fltCat":"IFR"},{"icaoId":"KSHR","receiptTime":"2026-04-16T23:32:12.056Z","obsTime":1776382080,"reportTime":"2026-04-16T23:28:00.000Z","temp":-0.6,"dewp":-0.6,"wdir":320,"wspd":8,"visib":0.25,"altim":1011.3,"qcField":6,"wxString":"+SN FZFG","precip":0.04,"vertVis":6,"metarType":"SPECI","rawOb":"SPECI KSHR 162328Z AUTO 32008KT 1/4SM +SN FZFG VV006 M01/M01 A2986 RMK AO2 P0004 T10061006","lat":44.7603,"lon":-106.9741,"elev":1212,"name":"Sheridan Cnty Arpt, WY, US","cover":"OVX","clouds":[{"cover":"OVX","base":600}],"fltCat":"LIFR"},{"icaoId":"KBIL","receiptTime":"2026-04-16T23:28:06.406Z","obsTime":1776381900,"reportTime":"2026-04-16T23:25:00.000Z","temp":2.8,"dewp":1.1,"wdir":50,"wspd":11,"visib":"10+","altim":1010.6,"qcField":4,"precip":0.005,"metarType":"SPECI","rawOb":"SPECI KBIL 162325Z 05011KT 10SM BKN008 BKN025 OVC085 03/01 A2984 RMK AO2 RAE18SNE18 P0000 T00280011","lat":45.8072,"lon":-108.5462,"elev":1089,"name":"Billings/Logan Intl, MT, US","cover":"OVC","clouds":[{"cover":"BKN","base":800},{"cover":"BKN","base":2500},{"cover":"OVC","base":8500}],"fltCat":"IFR"},{"icaoId":"KDTW","receiptTime":"2026-04-16T23:22:05.632Z","obsTime":1776381540,"reportTime":"2026-04-16T23:19:00.000Z","temp":17.2,"dewp":12.8,"wdir":320,"wspd":5,"visib":8,"altim":1010.2,"qcField":12,"wxString":"-TSRA","precip":0.005,"metarType":"SPECI","rawOb":"SPECI KDTW 162319Z 32005KT 8SM -TSRA SCT050CB BKN100 OVC170 17/13 A2983 RMK AO2 RAB10 TSB18 FRQ LTGICCG S-SW TS S-SW MOV E P0000 T01720128 $","lat":42.2311,"lon":-83.3312,"elev":192,"name":"Detroit/Metro Wayne Cnty, MI, US","cover":"OVC","clouds":[{"cover":"SCT","base":5000},{"cover":"BKN","base":10000},{"cover":"OVC","base":17000}],"fltCat":"VFR"},{"icaoId":"KAST","receiptTime":"2026-04-16T23:16:06.770Z","obsTime":1776381180,"reportTime":"2026-04-16T23:13:00.000Z","temp":11.1,"dewp":3.3,"wdir":270,"wspd":8,"visib":"10+","altim":1027.2,"qcField":6,"metarType":"SPECI","rawOb":"SPECI KAST 162313Z AUTO 27008KT 10SM SCT030 BKN036 BKN060 11/03 A3033 RMK AO2 T01110033","lat":46.157,"lon":-123.8833,"elev":3,"name":"Astoria Rgnl, OR, US","cover":"BKN","clouds":[{"cover":"SCT","base":3000},{"cover":"BKN","base":3600},{"cover":"BKN","base":6000}],"fltCat":"VFR"},{"icaoId":"KSBP","receiptTime":"2026-04-16T23:12:04.798Z","obsTime":1776380940,"reportTime":"2026-04-16T23:09:00.000Z","temp":18.3,"dewp":10,"wdir":310,"wspd":13,"visib":"10+","altim":1013,"qcField":4,"metarType":"SPECI","rawOb":"SPECI KSBP 162309Z 31013KT 10SM CLR 18/10 A2991 RMK AO2 T01830100","lat":35.2381,"lon":-120.644,"elev":52,"name":"San Luis Obispo/San Luis Cnty, CA, US","cover":"CLR","clouds":[],"fltCat":"VFR"},{"icaoId":"KSLC","receiptTime":"2026-04-16T23:10:04.863Z","obsTime":1776380760,"reportTime":"2026-04-16T23:06:00.000Z","temp":1.1,"dewp":-1.1,"wdir":60,"wspd":4,"visib":7,"altim":1016.3,"qcField":12,"precip":0.005,"metarType":"SPECI","rawOb":"SPECI KSLC 162306Z 06004KT 7SM SCT034 BKN041 BKN075 BKN210 01/M01 A3001 RMK AO2 SNE02 ACSL DSNT W-N SH DSNT NE-SW P0000 T00111011 $","lat":40.7707,"lon":-111.965,"elev":1286,"name":"Salt Lake City Intl, UT, US","cover":"BKN","clouds":[{"cover":"SCT","base":3400},{"cover":"BKN","base":4100},{"cover":"BKN","base":7500},{"cover":"BKN","base":21000}],"fltCat":"VFR"},{"icaoId":"KFLG","receiptTime":"2026-04-16T23:00:22.450Z","obsTime":1776380220,"reportTime":"2026-04-16T23:00:00.000Z","temp":15,"dewp":-8.3,"wdir":210,"wspd":22,"wgst":31,"visib":"10+","altim":1015.3,"slp":1010.1,"qcField":6,"metarType":"METAR","rawOb":"METAR KFLG 162257Z AUTO 21022G31KT 10SM CLR 15/M08 A2998 RMK AO2 PK WND 19033/2204 SLP101 T01501083","lat":35.1443,"lon":-111.6664,"elev":2134,"name":"Flagstaff/Pulliam Arpt, AZ, US","cover":"CLR","clouds":[],"fltCat":"VFR"},{"icaoId":"KNYL","receiptTime":"2026-04-16T23:00:18.801Z","obsTime":1776380220,"reportTime":"2026-04-16T23:00:00.000Z","temp":30.6,"dewp":1.1,"wdir":210,"wspd":7,"visib":"10+","altim":1007.5,"slp":1007.1,"qcField":4,"metarType":"METAR","rawOb":"METAR KNYL 162257Z 21007KT 160V220 10SM SCT100 BKN160 31/01 A2975 RMK AO2 SLP071 T03060011","lat":32.66,"lon":-114.6078,"elev":58,"name":"Yuma , AZ, US","cover":"BKN","clouds":[{"cover":"SCT","base":10000},{"cover":"BKN","base":16000}],"fltCat":"VFR"},{"icaoId":"KCEC","receiptTime":"2026-04-16T23:00:06.879Z","obsTime":1776380160,"reportTime":"2026-04-16T23:00:00.000Z","temp":12.2,"dewp":5.6,"wdir":330,"wspd":21,"wgst":33,"visib":"10+","altim":1025.1,"slp":1025.1,"qcField":6,"metarType":"METAR","rawOb":"METAR KCEC 162256Z AUTO 33021G33KT 10SM CLR 12/06 A3027 RMK AO2 PK WND 33033/2255 SLP251 T01220056","lat":41.7836,"lon":-124.238,"elev":17,"name":"Crescent City/McNama, CA, US","cover":"CLR","clouds":[],"fltCat":"VFR"},{"icaoId":"KBZN","receiptTime":"2026-04-16T23:00:12.787Z","obsTime":1776380160,"reportTime":"2026-04-16T23:00:00.000Z","temp":0,"dewp":-5.6,"wdir":160,"wspd":4,"visib":"10+","altim":1011.9,"slp":1014.8,"qcField":4,"metarType":"METAR","rawOb":"METAR KBZN 162256Z 16004KT 10SM FEW039 FEW070 BKN090 00/M06 A2988 RMK AO2 SLP148 T00001056","lat":45.7876,"lon":-111.1615,"elev":1349,"name":"Bozeman/Gallatin Fld, MT, US","cover":"BKN","clouds":[{"cover":"FEW","base":3900},{"cover":"FEW","base":7000},{"cover":"BKN","base":9000}],"fltCat":"VFR"},{"icaoId":"KINW","receiptTime":"2026-04-16T23:00:12.908Z","obsTime":1776380160,"reportTime":"2026-04-16T23:00:00.000Z","temp":20,"dewp":-11.1,"wdir":230,"wspd":12,"wgst":23,"visib":"10+","altim":1013,"slp":1008.9,"qcField":6,"metarType":"METAR","rawOb":"METAR KINW 162256Z AUTO 23012G23KT 10SM CLR 20/M11 A2991 RMK AO2 PK WND 22028/2218 SLP089 T02001111","lat":35.0279,"lon":-110.7221,"elev":1492,"name":"Winslow/Lindberg Rgnl, AZ, US","cover":"CLR","clouds":[],"fltCat":"VFR"},{"icaoId":"KSDF","receiptTime":"2026-04-16T23:00:17.527Z","obsTime":1776380160,"reportTime":"2026-04-16T23:00:00.000Z","temp":25.6,"dewp":10,"wdir":270,"wspd":12,"wgst":19,"visib":"10+","altim":1013,"slp":1012.3,"qcField":4,"metarType":"METAR","rawOb":"METAR KSDF 162256Z 27012G19KT 10SM FEW070 SCT250 BKN300 26/10 A2991 RMK AO2 SLP123 T02560100","lat":38.1774,"lon":-85.7308,"elev":146,"name":"Louisville Intl, KY, US","cover":"BKN","clouds":[{"cover":"FEW","base":7000},{"cover":"SCT","base":25000},{"cover":"BKN","base":30000}],"fltCat":"VFR"},{"icaoId":"KENV","receiptTime":"2026-04-16T22:58:46.444Z","obsTime":1776380160,"reportTime":"2026-04-16T23:00:00.000Z","temp":7.2,"dewp":-15.6,"wdir":330,"wspd":18,"wgst":29,"visib":"10+","altim":1016.3,"slp":1015.6,"qcField":6,"metarType":"METAR","rawOb":"METAR KENV 162256Z AUTO 33018G29KT 10SM OVC095 07/M16 A3001 RMK AO2 PK WND 33032/2246 SLP156 T00721156","lat":40.7211,"lon":-114.0312,"elev":1291,"name":"Wendover Arpt, UT, US","cover":"OVC","clouds":[{"cover":"OVC","base":9500}],"fltCat":"VFR"},{"icaoId":"KHDN","receiptTime":"2026-04-16T22:58:51.460Z","obsTime":1776380160,"reportTime":"2026-04-16T23:00:00.000Z","temp":16.7,"dewp":-8.9,"wdir":220,"wspd":17,"wgst":33,"visib":"10+","altim":1005.8,"slp":1000.1,"qcField":6,"metarType":"METAR","rawOb":"METAR KHDN 162256Z AUTO 22017G33KT 10SM FEW110 17/M09 A2970 RMK AO2 PK WND 23036/2240 SLP001 T01671089","lat":40.4842,"lon":-107.2296,"elev":2012,"name":"Hayden/Yampa Valley Arpt, CO, US","cover":"FEW","clouds":[{"cover":"FEW","base":11000}],"fltCat":"VFR"},{"icaoId":"KGUC","receiptTime":"2026-04-16T22:58:51.448Z","obsTime":1776380160,"reportTime":"2026-04-16T23:00:00.000Z","temp":13.3,"dewp":-8.9,"wdir":270,"wspd":10,"wgst":21,"visib":"10+","altim":1011.9,"slp":1009.4,"qcField":14,"metarType":"METAR","rawOb":"METAR KGUC 162256Z AUTO 27010G21KT 10SM SCT110 13/M09 A2988 RMK AO2 SLP094 T01331089 $","lat":38.5322,"lon":-106.9419,"elev":2337,"name":"Gunnison Arpt, CO, US","cover":"SCT","clouds":[{"cover":"SCT","base":11000}],"fltCat":"VFR"},{"icaoId":"KEGE","receiptTime":"2026-04-16T22:58:51.397Z","obsTime":1776380160,"reportTime":"2026-04-16T23:00:00.000Z","temp":16.7,"dewp":-12.2,"wdir":220,"wspd":25,"wgst":33,"visib":"10+","altim":1008.9,"slp":1004.8,"qcField":4,"metarType":"METAR","rawOb":"METAR KEGE 162256Z 22025G33KT 10SM CLR 17/M12 A2979 RMK AO2 PK WND 24035/2159 SLP048 T01671122","lat":39.6448,"lon":-106.9176,"elev":1993,"name":"Eagle Cnty Rgnl, CO, US","cover":"CLR","clouds":[],"fltCat":"VFR"},{"icaoId":"KFNL","receiptTime":"2026-04-16T22:58:46.688Z","obsTime":1776380160,"reportTime":"2026-04-16T23:00:00.000Z","temp":23.3,"dewp":-7.2,"wdir":210,"wspd":12,"wgst":16,"visib":"10+","altim":1003.1,"slp":997.8,"qcField":12,"metarType":"METAR","rawOb":"METAR KFNL 162256Z 21012G16KT 10SM CLR 23/M07 A2962 RMK AO2 SLP978 T02331072 $","lat":40.4427,"lon":-105.0097,"elev":1529,"name":"Fort Collins/N Colorado Rgnl, CO, US","cover":"CLR","clouds":[],"fltCat":"VFR"},{"icaoId":"KVIS","receiptTime":"2026-04-16T22:58:47.780Z","obsTime":1776380160,"reportTime":"2026-04-16T23:00:00.000Z","temp":23.3,"dewp":9.4,"wdir":310,"wspd":13,"wgst":16,"visib":"10+","altim":1014.3,"slp":1014,"qcField":14,"metarType":"METAR","rawOb":"METAR KVIS 162256Z AUTO 31013G16KT 10SM CLR 23/09 A2995 RMK AO2 SLP140 T02330094 PNO $","lat":36.3135,"lon":-119.3884,"elev":92,"name":"Visalia Muni, CA, US","cover":"CLR","clouds":[],"fltCat":"VFR"},{"icaoId":"KDUG","receiptTime":"2026-04-16T23:04:06.958Z","obsTime":1776380160,"reportTime":"2026-04-16T23:00:00.000Z","temp":26.7,"dewp":-12.2,"wdir":220,"wspd":14,"wgst":23,"visib":"10+","altim":1013.3,"slp":1008.7,"qcField":38,"metarType":"METAR","rawOb":"METAR KDUG 162256Z AUTO 22014G23KT 10SM CLR 27/M12 A2992 RMK AO2 PK WND 18027/2224 SLP087 T02671122 TSNO","lat":31.4725,"lon":-109.6022,"elev":1260,"name":"Douglas/Bisbee Intl, AZ, US","cover":"CLR","clouds":[],"fltCat":"VFR"},{"icaoId":"KOTH","receiptTime":"2026-04-16T23:03:09.718Z","obsTime":1776380160,"reportTime":"2026-04-16T23:00:00.000Z","temp":12,"dewp":4,"wdir":350,"wspd":13,"wgst":19,"visib":"10+","altim":1028.5,"qcField":0,"metarType":"METAR","rawOb":"METAR KOTH 162256Z 35013G19KT 10SM SCT050 12/04 A3037","lat":43.4194,"lon":-124.2438,"elev":3,"name":"North Bend/SW Oregon Rgnl, OR, US","cover":"SCT","clouds":[{"cover":"SCT","base":5000}],"fltCat":"VFR"},{"icaoId":"KSFO","receiptTime":"2026-04-16T23:00:13.044Z","obsTime":1776380160,"reportTime":"2026-04-16T23:00:00.000Z","temp":18.3,"dewp":5,"wdir":290,"wspd":18,"wgst":26,"visib":"10+","altim":1017.4,"slp":1017.1,"qcField":12,"metarType":"METAR","rawOb":"METAR KSFO 162256Z 29018G26KT 10SM FEW200 18/05 A3004 RMK AO2 PK WND 29026/2253 SLP171 T01830050 $","lat":37.6196,"lon":-122.3656,"elev":2,"name":"San Francisco Intl, CA, US","cover":"FEW","clouds":[{"cover":"FEW","base":20000}],"fltCat":"VFR"},{"icaoId":"KCOE","receiptTime":"2026-04-16T22:58:47.118Z","obsTime":1776380160,"reportTime":"2026-04-16T23:00:00.000Z","temp":6.7,"dewp":-3.3,"wdir":300,"wspd":6,"visib":"10+","altim":1017.7,"slp":1020.7,"qcField":14,"metarType":"METAR","rawOb":"METAR KCOE 162256Z AUTO 30006KT 10SM OVC070 07/M03 A3005 RMK AO2 SLP207 T00671033 PNO $","lat":47.7719,"lon":-116.8332,"elev":693,"name":"Coeur DAlene Arpt, ID, US","cover":"OVC","clouds":[{"cover":"OVC","base":7000}],"fltCat":"VFR"},{"icaoId":"KSLE","receiptTime":"2026-04-16T23:00:11.355Z","obsTime":1776380160,"reportTime":"2026-04-16T23:00:00.000Z","temp":12.2,"dewp":0,"wdir":310,"wspd":3,"visib":"10+","altim":1026.2,"slp":1026.2,"qcField":4,"metarType":"METAR","rawOb":"METAR KSLE 162256Z 31003KT 10SM SCT060 BKN080 12/00 A3030 RMK AO2 SLP262 T01220000","lat":44.9049,"lon":-123.001,"elev":63,"name":"Salem Muni, OR, US","cover":"BKN","clouds":[{"cover":"SCT","base":6000},{"cover":"BKN","base":8000}],"fltCat":"VFR"},{"icaoId":"KUKI","receiptTime":"2026-04-16T23:00:11.755Z","obsTime":1776380160,"reportTime":"2026-04-16T23:00:00.000Z","temp":20,"dewp":1.7,"wdir":350,"wspd":6,"visib":"10+","altim":1018,"slp":1017.3,"qcField":6,"precip":0.005,"metarType":"METAR","rawOb":"METAR KUKI 162256Z AUTO 35006KT 10SM CLR 20/02 A3006 RMK AO2 RAE06 SLP173 P0000 T02000017","lat":39.1278,"lon":-123.2001,"elev":183,"name":"Ukiah Muni, CA, US","cover":"CLR","clouds":[],"fltCat":"VFR"},{"icaoId":"KJAC","receiptTime":"2026-04-16T22:58:51.543Z","obsTime":1776380160,"reportTime":"2026-04-16T23:00:00.000Z","temp":0,"dewp":-11.7,"wdir":230,"wspd":14,"wgst":18,"visib":"10+","altim":1010.2,"slp":1011.9,"qcField":4,"precip":0.005,"metarType":"METAR","rawOb":"METAR KJAC 162256Z 23014G18KT 10SM CLR 00/M12 A2983 RMK AO2 RAB31E43 SLP119 P0000 T00001117","lat":43.6129,"lon":-110.7366,"elev":1967,"name":"Jackson Hole Arpt, WY, US","cover":"CLR","clouds":[],"fltCat":"VFR"},{"icaoId":"KCGZ","receiptTime":"2026-04-16T22:58:46.977Z","obsTime":1776380160,"reportTime":"2026-04-16T23:00:00.000Z","temp":30.6,"dewp":-11.1,"wdir":230,"wspd":9,"wgst":19,"visib":"10+","altim":1008.9,"slp":1007.5,"qcField":14,"metarType":"METAR","rawOb":"METAR KCGZ 162256Z AUTO 23009G19KT 10SM CLR 31/M11 A2979 RMK AO2 SLP075 T03061111 $","lat":32.9531,"lon":-111.7725,"elev":444,"name":"Casa Granda Muni, AZ, US","cover":"CLR","clouds":[],"fltCat":"VFR"},{"icaoId":"KJAX","receiptTime":"2026-04-16T23:00:12.919Z","obsTime":1776380160,"reportTime":"2026-04-16T23:00:00.000Z","temp":27.8,"dewp":13.9,"wdir":120,"wspd":13,"visib":"10+","altim":1016.3,"slp":1016.4,"qcField":4,"metarType":"METAR","rawOb":"METAR KJAX 162256Z 12013KT 10SM FEW250 28/14 A3001 RMK AO2 SLP164 T02780139","lat":30.4953,"lon":-81.6937,"elev":8,"name":"Jacksonville Intl, FL, US","cover":"FEW","clouds":[{"cover":"FEW","base":25000}],"fltCat":"VFR"},{"icaoId":"KLWS","receiptTime":"2026-04-16T23:00:12.930Z","obsTime":1776380160,"reportTime":"2026-04-16T23:00:00.000Z","temp":10,"dewp":-5.6,"wdir":280,"wspd":11,"wgst":25,"visib":"10+","altim":1019.4,"slp":1019.9,"qcField":4,"metarType":"METAR","rawOb":"METAR KLWS 162256Z 28011G25KT 10SM BKN080 OVC095 10/M06 A3010 RMK AO2 PK WND 29027/2233 SLP199 T01001056","lat":46.3746,"lon":-117.0153,"elev":435,"name":"Lewiston/Nez Perce Cnty, ID, US","cover":"OVC","clouds":[{"cover":"BKN","base":8000},{"cover":"OVC","base":9500}],"fltCat":"VFR"},{"icaoId":"KCHS","receiptTime":"2026-04-16T23:00:12.807Z","obsTime":1776380160,"reportTime":"2026-04-16T23:00:00.000Z","temp":24.4,"dewp":17.2,"wdir":180,"wspd":8,"visib":"10+","altim":1016,"slp":1015.7,"qcField":4,"metarType":"METAR","rawOb":"METAR KCHS 162256Z 18008KT 10SM FEW250 24/17 A3000 RMK AO2 SLP157 T02440172","lat":32.8995,"lon":-80.0407,"elev":12,"name":"Charleston Intl, SC, US","cover":"FEW","clouds":[{"cover":"FEW","base":25000}],"fltCat":"VFR"},{"icaoId":"KCOD","receiptTime":"2026-04-16T22:58:47.107Z","obsTime":1776380160,"reportTime":"2026-04-16T23:00:00.000Z","temp":2.2,"dewp":-6.1,"wdir":20,"wspd":20,"wgst":26,"visib":"10+","altim":1008.2,"slp":1008.2,"qcField":78,"metarType":"METAR","rawOb":"METAR KCOD 162256Z AUTO 02020G26KT 10SM OVC040 02/M06 A2977 RMK AO2 PK WND 02026/2248 RAE2157 SLP082 T00221061 FZRANO $","lat":44.52,"lon":-109.0268,"elev":1550,"name":"Cody/Yellowstone Rgnl, WY, US","cover":"OVC","clouds":[{"cover":"OVC","base":4000}],"fltCat":"VFR"},{"icaoId":"KEKO","receiptTime":"2026-04-16T23:00:06.949Z","obsTime":1776380160,"reportTime":"2026-04-16T23:00:00.000Z","temp":2.8,"dewp":-16.1,"wdir":300,"wspd":19,"wgst":26,"visib":"10+","altim":1017.7,"slp":1017.7,"qcField":6,"precip":0.005,"metarType":"METAR","rawOb":"METAR KEKO 162256Z AUTO 30019G26KT 10SM BKN070 BKN090 BKN110 03/M16 A3005 RMK AO2 PK WND 31028/2243 SNB14E27 SLP177 P0000 T00281161","lat":40.824,"lon":-115.7863,"elev":1541,"name":"Elko Rgnl, NV, US","cover":"BKN","clouds":[{"cover":"BKN","base":7000},{"cover":"BKN","base":9000},{"cover":"BKN","base":11000}],"fltCat":"VFR"},{"icaoId":"KHND","receiptTime":"2026-04-16T22:58:45.924Z","obsTime":1776380160,"reportTime":"2026-04-16T23:00:00.000Z","temp":25.6,"dewp":-3.3,"wdir":240,"wspd":15,"wgst":24,"visib":"10+","altim":1007.9,"slp":1007.3,"qcField":12,"metarType":"METAR","rawOb":"METAR KHND 162256Z 24015G24KT 10SM CLR 26/M03 A2976 RMK AO2 PK WND 24026/2230 SLP073 T02561033 $","lat":35.9657,"lon":-115.1343,"elev":740,"name":"Henderson Exec, NV, US","cover":"CLR","clouds":[],"fltCat":"VFR"},{"icaoId":"KLAS","receiptTime":"2026-04-16T23:00:12.229Z","obsTime":1776380160,"reportTime":"2026-04-16T23:00:00.000Z","temp":26.1,"dewp":-2.8,"wdir":220,"wspd":15,"wgst":27,"visib":"10+","altim":1006.9,"slp":1004.9,"qcField":4,"metarType":"METAR","rawOb":"METAR KLAS 162256Z 22015G27KT 10SM FEW120 SCT170 BKN250 26/M03 A2973 RMK AO2 PK WND 20030/2200 SLP049 T02611028","lat":36.0719,"lon":-115.1634,"elev":662,"name":"Las Vegas/Reid Intl, NV, US","cover":"BKN","clouds":[{"cover":"FEW","base":12000},{"cover":"SCT","base":17000},{"cover":"BKN","base":25000}],"fltCat":"VFR"},{"icaoId":"KPWT","receiptTime":"2026-04-16T22:58:53.660Z","obsTime":1776380160,"reportTime":"2026-04-16T23:00:00.000Z","temp":12.2,"dewp":-0.6,"wdir":"VRB","wspd":6,"visib":"10+","altim":1024.5,"slp":1024.8,"qcField":6,"metarType":"METAR","rawOb":"METAR KPWT 162256Z AUTO VRB06KT 10SM FEW055 BKN075 12/M01 A3025 RMK AO2 SLP248 T01221006","lat":47.4942,"lon":-122.7594,"elev":143,"name":"Bremerton Arpt, WA, US","cover":"BKN","clouds":[{"cover":"FEW","base":5500},{"cover":"BKN","base":7500}],"fltCat":"VFR"},{"icaoId":"KTPH","receiptTime":"2026-04-16T23:00:11.655Z","obsTime":1776380160,"reportTime":"2026-04-16T23:00:00.000Z","temp":13.9,"dewp":-14.4,"wdir":330,"wspd":25,"wgst":38,"visib":"10+","altim":1013,"slp":1009.9,"qcField":6,"metarType":"METAR","rawOb":"METAR KTPH 162256Z AUTO 33025G38KT 10SM CLR 14/M14 A2991 RMK AO2 PK WND 33039/2207 SLP099 T01391144","lat":38.0505,"lon":-117.0906,"elev":1647,"name":"Tonopah Arpt, NV, US","cover":"CLR","clouds":[],"fltCat":"VFR"},{"icaoId":"KRDM","receiptTime":"2026-04-16T23:00:11.163Z","obsTime":1776380160,"reportTime":"2026-04-16T23:00:00.000Z","temp":8.3,"dewp":-10,"wdir":310,"wspd":13,"wgst":22,"visib":"10+","altim":1022.1,"slp":1023.4,"qcField":4,"metarType":"METAR","rawOb":"METAR KRDM 162256Z 31013G22KT 10SM FEW065 08/M10 A3018 RMK AO2 SLP234 T00831100","lat":44.2558,"lon":-121.1407,"elev":930,"name":"Redmond Muni, OR, US","cover":"FEW","clouds":[{"cover":"FEW","base":6500}],"fltCat":"VFR"},{"icaoId":"KSGU","receiptTime":"2026-04-16T22:58:52.566Z","obsTime":1776380160,"reportTime":"2026-04-16T23:00:00.000Z","temp":25.6,"dewp":-7.2,"wdir":230,"wspd":15,"wgst":26,"visib":"10+","altim":1006.5,"slp":1003.7,"qcField":6,"metarType":"METAR","rawOb":"METAR KSGU 162256Z AUTO 23015G26KT 10SM CLR 26/M07 A2972 RMK AO2 PK WND 27026/2252 SLP037 T02561072","lat":37.0444,"lon":-113.5034,"elev":877,"name":"Saint George Muni, UT, US","cover":"CLR","clouds":[],"fltCat":"VFR"},{"icaoId":"KEND","receiptTime":"2026-04-16T23:06:06.562Z","obsTime":1776380100,"reportTime":"2026-04-16T23:00:00.000Z","temp":30.1,"dewp":10.6,"wdir":150,"wspd":17,"wgst":25,"visib":"10+","altim":1006.5,"slp":1005.4,"qcField":12,"metarType":"METAR","rawOb":"METAR KEND 162255Z 15017G25KT 10SM CLR 30/11 A2972 RMK AO2A SLP054 T03010106 $","lat":36.338,"lon":-97.919,"elev":392,"name":"Enid/Vance AFB, OK, US","cover":"CLR","clouds":[],"fltCat":"VFR"},{"icaoId":"KLUF","receiptTime":"2026-04-16T23:08:13.027Z","obsTime":1776380100,"reportTime":"2026-04-16T23:00:00.000Z","temp":29.9,"dewp":-8,"wdir":210,"wspd":6,"visib":"10+","altim":1007.9,"slp":1006.8,"qcField":14,"metarType":"METAR","rawOb":"METAR KLUF 162255Z AUTO 21006KT 10SM CLR 30/M08 A2976 RMK AO2 SLP068 T02991080 $","lat":33.538,"lon":-112.38,"elev":333,"name":"Phoenix/Luke AFB, AZ, US","cover":"CLR","clouds":[],"fltCat":"VFR"},{"icaoId":"KCMA","receiptTime":"2026-04-16T22:58:47.068Z","obsTime":1776380100,"reportTime":"2026-04-16T23:00:00.000Z","temp":20,"dewp":13.3,"wdir":220,"wspd":9,"visib":"10+","altim":1011.9,"slp":1012.6,"qcField":4,"metarType":"METAR","rawOb":"METAR KCMA 162255Z 22009KT 10SM CLR 20/13 A2988 RMK AO2 SLP126 T02000133","lat":34.2114,"lon":-119.0876,"elev":20,"name":"Camarillo Arpt, CA, US","cover":"CLR","clouds":[],"fltCat":"VFR"},{"icaoId":"KRNO","receiptTime":"2026-04-16T22:58:54.713Z","obsTime":1776380100,"reportTime":"2026-04-16T23:00:00.000Z","temp":12.8,"dewp":-17.2,"wdir":360,"wspd":19,"wgst":27,"visib":"10+","altim":1017.4,"slp":1015.4,"qcField":4,"metarType":"METAR","rawOb":"METAR KRNO 162255Z 36019G27KT 10SM CLR 13/M17 A3004 RMK AO2 PK WND 36027/2224 SLP154 T01281172","lat":39.5077,"lon":-119.7683,"elev":1344,"name":"Reno/Tahoe Intl, NV, US","cover":"CLR","clouds":[],"fltCat":"VFR"},{"icaoId":"KAPC","receiptTime":"2026-04-16T22:58:32.965Z","obsTime":1776380040,"reportTime":"2026-04-16T23:00:00.000Z","temp":21.7,"dewp":-6.1,"wdir":30,"wspd":16,"wgst":21,"visib":"10+","altim":1017,"slp":1015.9,"qcField":4,"metarType":"METAR","rawOb":"METAR KAPC 162254Z 03016G21KT 10SM CLR 22/M06 A3003 RMK AO2 SLP159 T02171061","lat":38.2075,"lon":-122.2804,"elev":5,"name":"Napa Cnty Arpt, CA, US","cover":"CLR","clouds":[],"fltCat":"VFR"},{"icaoId":"KOLM","receiptTime":"2026-04-16T22:58:33.311Z","obsTime":1776380040,"reportTime":"2026-04-16T23:00:00.000Z","temp":13.9,"dewp":0,"wdir":250,"wspd":11,"wgst":16,"visib":"10+","altim":1024.8,"slp":1024.7,"qcField":4,"metarType":"METAR","rawOb":"METAR KOLM 162254Z 25011G16KT 10SM SCT060 BKN075 14/00 A3026 RMK AO2 SLP247 T01390000","lat":46.9737,"lon":-122.9049,"elev":58,"name":"Olympia Rgnl, WA, US","cover":"BKN","clouds":[{"cover":"SCT","base":6000},{"cover":"BKN","base":7500}],"fltCat":"VFR"},{"icaoId":"KGSO","receiptTime":"2026-04-16T22:58:33.836Z","obsTime":1776380040,"reportTime":"2026-04-16T23:00:00.000Z","temp":28.3,"dewp":9.4,"wdir":210,"wspd":10,"visib":"10+","altim":1012.6,"slp":1011.3,"qcField":4,"metarType":"METAR","rawOb":"METAR KGSO 162254Z 21010KT 10SM CLR 28/09 A2990 RMK AO2 SLP113 T02830094","lat":36.0969,"lon":-79.9432,"elev":275,"name":"Greensboro Intl, NC, US","cover":"CLR","clouds":[],"fltCat":"VFR"},{"icaoId":"KDSM","receiptTime":"2026-04-16T22:58:33.500Z","obsTime":1776380040,"reportTime":"2026-04-16T23:00:00.000Z","temp":27.8,"dewp":5.6,"wdir":210,"wspd":14,"visib":"10+","altim":1007.9,"slp":1007.4,"qcField":4,"metarType":"METAR","rawOb":"METAR KDSM 162254Z 21014KT 10SM CLR 28/06 A2976 RMK AO2 SLP074 T02780056","lat":41.5339,"lon":-93.6531,"elev":286,"name":"Des Moines Intl, IA, US","cover":"CLR","clouds":[],"fltCat":"VFR"},{"icaoId":"KIND","receiptTime":"2026-04-16T22:58:34.053Z","obsTime":1776380040,"reportTime":"2026-04-16T23:00:00.000Z","temp":23.3,"dewp":11.1,"wdir":260,"wspd":14,"visib":"10+","altim":1012.3,"slp":1011.6,"qcField":4,"metarType":"METAR","rawOb":"METAR KIND 162254Z 26014KT 10SM SCT080 SCT250 23/11 A2989 RMK AO2 PK WND 24026/2205 SLP116 T02330111","lat":39.7252,"lon":-86.2816,"elev":242,"name":"Indianapolis Intl, IN, US","cover":"SCT","clouds":[{"cover":"SCT","base":8000},{"cover":"SCT","base":25000}],"fltCat":"VFR"},{"icaoId":"KCOS","receiptTime":"2026-04-16T22:58:36.035Z","obsTime":1776380040,"reportTime":"2026-04-16T23:00:00.000Z","temp":22.2,"dewp":-10.6,"wdir":220,"wspd":18,"wgst":30,"visib":"10+","altim":1006.9,"slp":999.9,"qcField":4,"metarType":"METAR","rawOb":"METAR KCOS 162254Z 22018G30KT 10SM SCT110 BKN250 22/M11 A2973 RMK AO2 PK WND 22040/2201 SLP999 VIRGA W-NW T02221106","lat":38.8095,"lon":-104.6887,"elev":1886,"name":"Colorado Spring Arpt, CO, US","cover":"BKN","clouds":[{"cover":"SCT","base":11000},{"cover":"BKN","base":25000}],"fltCat":"VFR"},{"icaoId":"KBTV","receiptTime":"2026-04-16T22:58:35.850Z","obsTime":1776380040,"reportTime":"2026-04-16T23:00:00.000Z","temp":20.6,"dewp":16.1,"wdir":0,"wspd":0,"visib":"10+","altim":1004.5,"slp":1004.5,"qcField":12,"wxString":"-RA","precip":0.005,"metarType":"METAR","rawOb":"METAR KBTV 162254Z 00000KT 10SM -RA SCT050 OVC060 21/16 A2966 RMK AO2 RAB24 SLP045 SHRA OBSCG MTNS E P0000 T02060161 $","lat":44.4682,"lon":-73.1499,"elev":101,"name":"Burlington Intl, VT, US","cover":"OVC","clouds":[{"cover":"SCT","base":5000},{"cover":"OVC","base":6000}],"fltCat":"VFR"},{"icaoId":"KPHL","receiptTime":"2026-04-16T22:58:34.770Z","obsTime":1776380040,"reportTime":"2026-04-16T23:00:00.000Z","temp":30,"dewp":13.9,"wdir":190,"wspd":10,"wgst":22,"visib":"10+","altim":1007.2,"slp":1006.8,"qcField":12,"metarType":"METAR","rawOb":"METAR KPHL 162254Z 19010G22KT 10SM FEW110 SCT280 30/14 A2974 RMK AO2 SLP068 T03000139 $","lat":39.8733,"lon":-75.2268,"elev":2,"name":"Philadelphia Intl, PA, US","cover":"SCT","clouds":[{"cover":"FEW","base":11000},{"cover":"SCT","base":28000}],"fltCat":"VFR"},{"icaoId":"KROC","receiptTime":"2026-04-16T22:58:51.682Z","obsTime":1776380040,"reportTime":"2026-04-16T23:00:00.000Z","temp":17.2,"dewp":16.7,"wdir":270,"wspd":7,"visib":4,"altim":1009.6,"slp":1009.5,"qcField":12,"wxString":"RA BR","precip":0.16,"metarType":"METAR","rawOb":"METAR KROC 162254Z 27007KT 4SM RA BR FEW009 FEW030 OVC090 17/17 A2981 RMK AO2 TSE27 SLP095 P0016 T01720167 $","lat":43.1172,"lon":-77.6754,"elev":166,"name":"Rochester Intl Arpt, NY, US","cover":"OVC","clouds":[{"cover":"FEW","base":900},{"cover":"FEW","base":3000},{"cover":"OVC","base":9000}],"fltCat":"MVFR"},{"icaoId":"KGCN","receiptTime":"2026-04-16T22:58:33.776Z","obsTime":1776380040,"reportTime":"2026-04-16T23:00:00.000Z","temp":14.4,"dewp":-10.6,"wdir":230,"wspd":16,"wgst":29,"visib":"10+","altim":1014.3,"slp":1010.5,"qcField":4,"metarType":"METAR","rawOb":"METAR KGCN 162254Z 23016G29KT 10SM CLR 14/M11 A2995 RMK AO2 PK WND 24035/2155 SLP105 T01441106","lat":35.9458,"lon":-112.1554,"elev":1993,"name":"Grand Canyon Park Arpt, AZ, US","cover":"CLR","clouds":[],"fltCat":"VFR"},{"icaoId":"KBUF","receiptTime":"2026-04-16T22:58:35.863Z","obsTime":1776380040,"reportTime":"2026-04-16T23:00:00.000Z","temp":14.4,"dewp":13.9,"wdir":220,"wspd":11,"visib":"10+","altim":1009.9,"slp":1009.7,"qcField":4,"wxString":"-RA","precip":0.04,"metarType":"METAR","rawOb":"METAR KBUF 162254Z 22011KT 10SM -RA OVC003 14/14 A2982 RMK AO2 SLP097 P0004 T01440139","lat":42.94,"lon":-78.7361,"elev":217,"name":"Buffalo-Niagara Intl, NY, US","cover":"OVC","clouds":[{"cover":"OVC","base":300}],"fltCat":"LIFR"},{"icaoId":"KBOS","receiptTime":"2026-04-16T22:58:35.820Z","obsTime":1776380040,"reportTime":"2026-04-16T23:00:00.000Z","temp":7.8,"dewp":7.2,"wdir":90,"wspd":12,"visib":0.5,"altim":1008.2,"slp":1007.9,"qcField":4,"wxString":"FG","metarType":"METAR","rawOb":"METAR KBOS 162254Z 09012KT 1/2SM R04R/6000VP6000FT FG OVC002 08/07 A2977 RMK AO2 SLP079 T00780072","lat":42.3606,"lon":-71.0097,"elev":4,"name":"Boston/Logan Intl, MA, US","cover":"OVC","clouds":[{"cover":"OVC","base":200}],"fltCat":"LIFR"},{"icaoId":"KEUG","receiptTime":"2026-04-16T22:58:33.137Z","obsTime":1776380040,"reportTime":"2026-04-16T23:00:00.000Z","temp":12.8,"dewp":0,"wdir":0,"wspd":0,"visib":"10+","altim":1026.8,"slp":1026.8,"qcField":4,"metarType":"METAR","rawOb":"METAR KEUG 162254Z 00000KT 10SM SCT050 13/00 A3032 RMK AO2 SLP268 T01280000","lat":44.1331,"lon":-123.2156,"elev":109,"name":"Eugene/Mahlon Sweet Fld, OR, US","cover":"SCT","clouds":[{"cover":"SCT","base":5000}],"fltCat":"VFR"},{"icaoId":"KBWI","receiptTime":"2026-04-16T22:58:35.901Z","obsTime":1776380040,"reportTime":"2026-04-16T23:00:00.000Z","temp":30,"dewp":14.4,"wdir":150,"wspd":6,"visib":"10+","altim":1006.9,"slp":1006.5,"qcField":4,"metarType":"METAR","rawOb":"METAR KBWI 162254Z 15006KT 10SM FEW075 SCT250 30/14 A2973 RMK AO2 SLP065 T03000144","lat":39.1733,"lon":-76.684,"elev":42,"name":"Baltimore-Washington Intl, MD, US","cover":"SCT","clouds":[{"cover":"FEW","base":7500},{"cover":"SCT","base":25000}],"fltCat":"VFR"},{"icaoId":"KMEM","receiptTime":"2026-04-16T22:58:51.212Z","obsTime":1776380040,"reportTime":"2026-04-16T23:00:00.000Z","temp":27.8,"dewp":14.4,"wdir":200,"wspd":13,"wgst":23,"visib":"10+","altim":1014.3,"slp":1013.8,"qcField":12,"metarType":"METAR","rawOb":"METAR KMEM 162254Z 20013G23KT 10SM FEW065 28/14 A2995 RMK AO2 SLP138 T02780144 $","lat":35.0564,"lon":-89.9864,"elev":78,"name":"Memphis Intl, TN, US","cover":"FEW","clouds":[{"cover":"FEW","base":6500}],"fltCat":"VFR"},{"icaoId":"KGEU","receiptTime":"2026-04-16T22:57:58.958Z","obsTime":1776380040,"reportTime":"2026-04-16T23:00:00.000Z","temp":30,"dewp":-7,"wdir":230,"wspd":12,"visib":"10+","altim":1007.5,"qcField":0,"metarType":"METAR","rawOb":"METAR KGEU 162254Z 23012KT 10SM OVC230 30/M07 A2975","lat":33.528,"lon":-112.293,"elev":319,"name":"Glendale Muni, AZ, US","cover":"OVC","clouds":[{"cover":"OVC","base":23000}],"fltCat":"VFR"},{"icaoId":"KOLS","receiptTime":"2026-04-16T22:58:41.373Z","obsTime":1776380040,"reportTime":"2026-04-16T23:00:00.000Z","temp":25,"dewp":-7.2,"wdir":210,"wspd":9,"wgst":19,"visib":"10+","altim":1013.3,"slp":1008.7,"qcField":6,"metarType":"METAR","rawOb":"METAR KOLS 162254Z AUTO 21009G19KT 10SM CLR 25/M07 A2992 RMK AO2 PK WND 24030/2202 SLP087 T02501072","lat":31.4208,"lon":-110.8465,"elev":1194,"name":"Nogales Intl, AZ, US","cover":"CLR","clouds":[],"fltCat":"VFR"},{"icaoId":"KRIC","receiptTime":"2026-04-16T22:58:51.651Z","obsTime":1776380040,"reportTime":"2026-04-16T23:00:00.000Z","temp":30.6,"dewp":11.1,"wdir":210,"wspd":12,"wgst":21,"visib":"10+","altim":1009.2,"slp":1009.6,"qcField":4,"metarType":"METAR","rawOb":"METAR KRIC 162254Z 21012G21KT 10SM FEW250 31/11 A2980 RMK AO2 SLP096 T03060111","lat":37.5115,"lon":-77.3234,"elev":51,"name":"Richmond Intl, VA, US","cover":"FEW","clouds":[{"cover":"FEW","base":25000}],"fltCat":"VFR"},{"icaoId":"KSJN","receiptTime":"2026-04-16T22:58:56.293Z","obsTime":1776380040,"reportTime":"2026-04-16T23:00:00.000Z","temp":20.6,"dewp":-16.1,"wdir":240,"wspd":19,"wgst":25,"visib":"10+","altim":1013,"slp":1007.3,"qcField":6,"metarType":"METAR","rawOb":"METAR KSJN 162254Z AUTO 24019G25KT 10SM CLR 21/M16 A2991 RMK AO2 PK WND 25028/2227 SLP073 T02061161","lat":34.5184,"lon":-109.3801,"elev":1747,"name":"St Johns Ind Arpt, AZ, US","cover":"CLR","clouds":[],"fltCat":"VFR"},{"icaoId":"KFFZ","receiptTime":"2026-04-16T22:58:33.628Z","obsTime":1776380040,"reportTime":"2026-04-16T23:00:00.000Z","temp":29.4,"dewp":-7.2,"wdir":250,"wspd":10,"visib":"10+","altim":1008.5,"slp":1006.2,"qcField":4,"metarType":"METAR","rawOb":"METAR KFFZ 162254Z 25010KT 10SM CLR 29/M07 A2978 RMK AO2 SLP062 T02941072","lat":33.4659,"lon":-111.7212,"elev":420,"name":"Mesa/Falcon Fld, AZ, US","cover":"CLR","clouds":[],"fltCat":"VFR"},{"icaoId":"KBFL","receiptTime":"2026-04-16T22:58:35.805Z","obsTime":1776380040,"reportTime":"2026-04-16T23:00:00.000Z","temp":23.3,"dewp":7.8,"wdir":300,"wspd":13,"wgst":18,"visib":"10+","altim":1013.3,"slp":1012.8,"qcField":4,"metarType":"METAR","rawOb":"METAR KBFL 162254Z 30013G18KT 10SM CLR 23/08 A2992 RMK AO2 SLP128 T02330078","lat":35.4342,"lon":-119.0552,"elev":146,"name":"Bakersfield/Meadows Arpt, CA, US","cover":"CLR","clouds":[],"fltCat":"VFR"},{"icaoId":"KONT","receiptTime":"2026-04-16T22:58:39.459Z","obsTime":1776379980,"reportTime":"2026-04-16T23:00:00.000Z","temp":23.3,"dewp":8.9,"wdir":240,"wspd":10,"wgst":17,"visib":"10+","altim":1011.6,"slp":1010.5,"qcField":12,"metarType":"METAR","rawOb":"METAR KONT 162253Z 24010G17KT 10SM FEW070 SCT240 OVC270 23/09 A2987 RMK AO2 SLP105 T02330089 $","lat":34.0531,"lon":-117.5769,"elev":279,"name":"Ontario Intl, CA, US","cover":"OVC","clouds":[{"cover":"FEW","base":7000},{"cover":"SCT","base":24000},{"cover":"OVC","base":27000}],"fltCat":"VFR"},{"icaoId":"KMIA","receiptTime":"2026-04-16T23:00:19.765Z","obsTime":1776379980,"reportTime":"2026-04-16T23:00:00.000Z","temp":25.6,"dewp":17.2,"wdir":60,"wspd":10,"visib":"10+","altim":1018,"slp":1017.8,"qcField":0,"metarType":"METAR","rawOb":"METAR KMIA 162253Z 06010KT 10SM BKN038 26/17 A3006 RMK SLP178 T02560172","lat":25.7881,"lon":-80.3169,"elev":1,"name":"Miami Intl, FL, US","cover":"BKN","clouds":[{"cover":"BKN","base":3800}],"fltCat":"VFR"},{"icaoId":"KMYR","receiptTime":"2026-04-16T22:56:15.278Z","obsTime":1776379980,"reportTime":"2026-04-16T23:00:00.000Z","temp":21.1,"dewp":18.3,"wdir":190,"wspd":15,"visib":"10+","altim":1015.7,"slp":1015.6,"qcField":12,"metarType":"METAR","rawOb":"METAR KMYR 162253Z 19015KT 10SM CLR 21/18 A2999 RMK AO2 SLP156 T02110183 $","lat":33.6769,"lon":-78.9325,"elev":7,"name":"Myrtle Beach Intl, SC, US","cover":"CLR","clouds":[],"fltCat":"VFR"},{"icaoId":"KSWO","receiptTime":"2026-04-16T22:56:16.523Z","obsTime":1776379980,"reportTime":"2026-04-16T23:00:00.000Z","temp":29.4,"dewp":11.7,"wdir":200,"wspd":14,"visib":"10+","altim":1008.5,"slp":1007.1,"qcField":4,"metarType":"METAR","rawOb":"METAR KSWO 162253Z 20014KT 10SM FEW090 29/12 A2978 RMK AO2 SLP071 T02940117","lat":36.1624,"lon":-97.0832,"elev":293,"name":"Stillwater Muni, OK, US","cover":"FEW","clouds":[{"cover":"FEW","base":9000}],"fltCat":"VFR"},{"icaoId":"KMCI","receiptTime":"2026-04-16T22:58:41.528Z","obsTime":1776379980,"reportTime":"2026-04-16T23:00:00.000Z","temp":26.1,"dewp":10.6,"wdir":160,"wspd":11,"visib":"10+","altim":1008.9,"slp":1008.1,"qcField":4,"metarType":"METAR","rawOb":"METAR KMCI 162253Z 16011KT 10SM CLR 26/11 A2979 RMK AO2 SLP081 T02610106","lat":39.2975,"lon":-94.7309,"elev":308,"name":"Kansas City Intl, MO, US","cover":"CLR","clouds":[],"fltCat":"VFR"},{"icaoId":"KPUW","receiptTime":"2026-04-16T22:58:34.426Z","obsTime":1776379980,"reportTime":"2026-04-16T23:00:00.000Z","temp":6.1,"dewp":-3.9,"wdir":260,"wspd":19,"wgst":29,"visib":9,"altim":1019,"slp":1020.8,"qcField":6,"precip":0.005,"metarType":"METAR","rawOb":"METAR KPUW 162253Z AUTO 26019G29KT 9SM OVC055 06/M04 A3009 RMK AO2 PK WND 28029/2249 RAB01E10 SLP208 P0000 T00611039","lat":46.7438,"lon":-117.1158,"elev":774,"name":"Pullman/Moscow Rgnl, WA, US","cover":"OVC","clouds":[{"cover":"OVC","base":5500}],"fltCat":"VFR"},{"icaoId":"KHOU","receiptTime":"2026-04-16T22:58:36.872Z","obsTime":1776379980,"reportTime":"2026-04-16T23:00:00.000Z","temp":27.2,"dewp":20,"wdir":170,"wspd":16,"visib":"10+","altim":1014.6,"slp":1015,"qcField":12,"metarType":"METAR","rawOb":"METAR KHOU 162253Z 17016KT 10SM SCT030 27/20 A2996 RMK AO2 SLP150 T02720200 $","lat":29.6458,"lon":-95.2821,"elev":13,"name":"Houston/Hobby Arpt, TX, US","cover":"SCT","clouds":[{"cover":"SCT","base":3000}],"fltCat":"VFR"},{"icaoId":"KIAH","receiptTime":"2026-04-16T22:58:36.952Z","obsTime":1776379980,"reportTime":"2026-04-16T23:00:00.000Z","temp":28.3,"dewp":20,"wdir":180,"wspd":10,"wgst":19,"visib":"10+","altim":1014.3,"slp":1014.1,"qcField":4,"metarType":"METAR","rawOb":"METAR KIAH 162253Z 18010G19KT 10SM SCT037 28/20 A2995 RMK AO2 SLP141 T02830200","lat":29.9844,"lon":-95.3607,"elev":27,"name":"Houston/Bush Intl, TX, US","cover":"SCT","clouds":[{"cover":"SCT","base":3700}],"fltCat":"VFR"},{"icaoId":"KAUS","receiptTime":"2026-04-16T22:58:37.740Z","obsTime":1776379980,"reportTime":"2026-04-16T23:00:00.000Z","temp":30.6,"dewp":17.8,"wdir":150,"wspd":15,"wgst":20,"visib":"10+","altim":1011.9,"slp":1011,"qcField":4,"metarType":"METAR","rawOb":"METAR KAUS 162253Z 15015G20KT 10SM FEW050 SCT075 31/18 A2988 RMK AO2 SLP110 T03060178","lat":30.1831,"lon":-97.6806,"elev":148,"name":"Austin/Bergstrom Intl, TX, US","cover":"SCT","clouds":[{"cover":"FEW","base":5000},{"cover":"SCT","base":7500}],"fltCat":"VFR"},{"icaoId":"KBFI","receiptTime":"2026-04-16T22:58:37.754Z","obsTime":1776379980,"reportTime":"2026-04-16T23:00:00.000Z","temp":12.8,"dewp":-0.6,"wdir":140,"wspd":8,"visib":"10+","altim":1024.8,"slp":1024.8,"qcField":12,"metarType":"METAR","rawOb":"METAR KBFI 162253Z 14008KT 10SM SCT055 13/M01 A3026 RMK AO2 SLP248 T01281006 $","lat":47.5455,"lon":-122.3148,"elev":7,"name":"Seattle/Boeing Fld, WA, US","cover":"SCT","clouds":[{"cover":"SCT","base":5500}],"fltCat":"VFR"},{"icaoId":"KBHM","receiptTime":"2026-04-16T22:58:37.795Z","obsTime":1776379980,"reportTime":"2026-04-16T23:00:00.000Z","temp":27.8,"dewp":15,"wdir":220,"wspd":8,"visib":"10+","altim":1017,"slp":1016.2,"qcField":4,"metarType":"METAR","rawOb":"METAR KBHM 162253Z 22008KT 10SM FEW060 28/15 A3003 RMK AO2 SLP162 T02780150","lat":33.5655,"lon":-86.7449,"elev":191,"name":"Birmingham Intl, AL, US","cover":"FEW","clouds":[{"cover":"FEW","base":6000}],"fltCat":"VFR"},{"icaoId":"KBRO","receiptTime":"2026-04-16T22:58:37.912Z","obsTime":1776379980,"reportTime":"2026-04-16T23:00:00.000Z","temp":28.9,"dewp":20,"wdir":150,"wspd":15,"visib":"10+","altim":1013,"slp":1012.6,"qcField":4,"metarType":"METAR","rawOb":"METAR KBRO 162253Z 15015KT 10SM FEW029 29/20 A2991 RMK AO2 SLP126 T02890200","lat":25.9146,"lon":-97.4231,"elev":6,"name":"Brownsville Intl, TX, US","cover":"FEW","clouds":[{"cover":"FEW","base":2900}],"fltCat":"VFR"},{"icaoId":"KTUL","receiptTime":"2026-04-16T22:58:39.389Z","obsTime":1776379980,"reportTime":"2026-04-16T23:00:00.000Z","temp":27.8,"dewp":18.3,"wdir":180,"wspd":12,"wgst":20,"visib":"10+","altim":1009.9,"slp":1008.9,"qcField":4,"metarType":"METAR","rawOb":"METAR KTUL 162253Z 18012G20KT 10SM SCT042 SCT250 28/18 A2982 RMK AO2 SLP089 T02780183","lat":36.1985,"lon":-95.8782,"elev":196,"name":"Tulsa Intl Arpt, OK, US","cover":"SCT","clouds":[{"cover":"SCT","base":4200},{"cover":"SCT","base":25000}],"fltCat":"VFR"},{"icaoId":"KTUS","receiptTime":"2026-04-16T22:58:39.412Z","obsTime":1776379980,"reportTime":"2026-04-16T23:00:00.000Z","temp":29.4,"dewp":-10.6,"wdir":240,"wspd":11,"wgst":21,"visib":"10+","altim":1011.3,"slp":1007.2,"qcField":12,"metarType":"METAR","rawOb":"METAR KTUS 162253Z 24011G21KT 10SM CLR 29/M11 A2986 RMK AO2 SLP072 T02941106 $","lat":32.1315,"lon":-110.9564,"elev":776,"name":"Tucson Intl Arpt, AZ, US","cover":"CLR","clouds":[],"fltCat":"VFR"},{"icaoId":"KVGT","receiptTime":"2026-04-16T22:58:38.456Z","obsTime":1776379980,"reportTime":"2026-04-16T23:00:00.000Z","temp":26.1,"dewp":-3.3,"wdir":210,"wspd":12,"visib":"10+","altim":1005.8,"slp":1005.7,"qcField":4,"metarType":"METAR","rawOb":"METAR KVGT 162253Z 21012KT 10SM CLR 26/M03 A2970 RMK AO2 SLP057 T02611033","lat":36.212,"lon":-115.194,"elev":664,"name":"Las Vegas/North Arpt, NV, US","cover":"CLR","clouds":[],"fltCat":"VFR"},{"icaoId":"KPNC","receiptTime":"2026-04-16T22:58:39.704Z","obsTime":1776379980,"reportTime":"2026-04-16T23:00:00.000Z","temp":28.3,"dewp":16.1,"wdir":160,"wspd":16,"wgst":24,"visib":"10+","altim":1007.9,"slp":1006.6,"qcField":6,"metarType":"METAR","rawOb":"METAR KPNC 162253Z AUTO 16016G24KT 10SM CLR 28/16 A2976 RMK AO2 SLP066 T02830161","lat":36.7369,"lon":-97.1024,"elev":304,"name":"Ponca City Rgnl, OK, US","cover":"CLR","clouds":[],"fltCat":"VFR"},{"icaoId":"KPRC","receiptTime":"2026-04-16T22:58:39.743Z","obsTime":1776379980,"reportTime":"2026-04-16T23:00:00.000Z","temp":18.3,"dewp":-8.9,"wdir":210,"wspd":10,"visib":"10+","altim":1014,"slp":1009,"qcField":4,"metarType":"METAR","rawOb":"METAR KPRC 162253Z 21010KT 10SM CLR 18/M09 A2994 RMK AO2 SLP090 T01831089","lat":34.6491,"lon":-112.4223,"elev":1528,"name":"Prescott/Love Fld, AZ, US","cover":"CLR","clouds":[],"fltCat":"VFR"},{"icaoId":"KSBA","receiptTime":"2026-04-16T22:58:38.977Z","obsTime":1776379980,"reportTime":"2026-04-16T23:00:00.000Z","temp":20,"dewp":11.7,"wdir":140,"wspd":8,"visib":"10+","altim":1011.6,"slp":1011.3,"qcField":12,"metarType":"METAR","rawOb":"METAR KSBA 162253Z 14008KT 10SM CLR 20/12 A2987 RMK AO2 SLP113 T02000117 $","lat":34.4241,"lon":-119.8425,"elev":2,"name":"Santa Barbara Muni, CA, US","cover":"CLR","clouds":[],"fltCat":"VFR"},{"icaoId":"KCNM","receiptTime":"2026-04-16T22:58:28.774Z","obsTime":1776379980,"reportTime":"2026-04-16T23:00:00.000Z","temp":30.6,"dewp":-5.6,"wdir":200,"wspd":10,"wgst":22,"visib":"10+","altim":1010.6,"slp":1005.5,"qcField":6,"metarType":"METAR","rawOb":"METAR KCNM 162253Z AUTO 20010G22KT 10SM CLR 31/M06 A2984 RMK AO2 SLP055 T03061056","lat":32.3336,"lon":-104.2584,"elev":993,"name":"Carlsbad/Cavern City Air Term, NM, US","cover":"CLR","clouds":[],"fltCat":"VFR"},{"icaoId":"KCNY","receiptTime":"2026-04-16T22:58:28.785Z","obsTime":1776379980,"reportTime":"2026-04-16T23:00:00.000Z","temp":20,"dewp":-10,"wdir":200,"wspd":25,"wgst":37,"visib":"10+","altim":1004.5,"slp":1000.5,"qcField":6,"metarType":"METAR","rawOb":"METAR KCNY 162253Z AUTO 20025G37KT 10SM CLR 20/M10 A2966 RMK AO2 PK WND 21037/2247 SLP005 T02001100","lat":38.7501,"lon":-109.7627,"elev":1392,"name":"Moab/Canyonland Fld, UT, US","cover":"CLR","clouds":[],"fltCat":"VFR"},{"icaoId":"KDAL","receiptTime":"2026-04-16T22:58:28.949Z","obsTime":1776379980,"reportTime":"2026-04-16T23:00:00.000Z","temp":28.9,"dewp":17.2,"wdir":180,"wspd":10,"wgst":22,"visib":"10+","altim":1011.9,"slp":1011.1,"qcField":4,"metarType":"METAR","rawOb":"METAR KDAL 162253Z 18010G22KT 10SM FEW048 SCT060 BKN250 29/17 A2988 RMK AO2 SLP111 T02890172","lat":32.8384,"lon":-96.8358,"elev":148,"name":"Dallas/Love Fld, TX, US","cover":"BKN","clouds":[{"cover":"FEW","base":4800},{"cover":"SCT","base":6000},{"cover":"BKN","base":25000}],"fltCat":"VFR"},{"icaoId":"KDMN","receiptTime":"2026-04-16T22:58:29.088Z","obsTime":1776379980,"reportTime":"2026-04-16T23:00:00.000Z","temp":27.8,"dewp":-8.9,"wdir":240,"wspd":16,"wgst":26,"visib":"10+","altim":1013,"slp":1007.6,"qcField":6,"metarType":"METAR","rawOb":"METAR KDMN 162253Z AUTO 24016G26KT 10SM CLR 28/M09 A2991 RMK AO2 PK WND 24027/2241 SLP076 T02781089","lat":32.2592,"lon":-107.7206,"elev":1310,"name":"Deming Muni, NM, US","cover":"CLR","clouds":[],"fltCat":"VFR"},{"icaoId":"KELY","receiptTime":"2026-04-16T22:58:29.457Z","obsTime":1776379980,"reportTime":"2026-04-16T23:00:00.000Z","temp":10,"dewp":-12.8,"wdir":300,"wspd":21,"wgst":31,"visib":"10+","altim":1011.9,"slp":1007.5,"qcField":6,"metarType":"METAR","rawOb":"METAR KELY 162253Z AUTO 30021G31KT 10SM CLR 10/M13 A2988 RMK AO2 PK WND 29033/2241 SLP075 T01001128","lat":39.2954,"lon":-114.8466,"elev":1906,"name":"Ely/Yelland Fld, NV, US","cover":"CLR","clouds":[],"fltCat":"VFR"},{"icaoId":"KFMN","receiptTime":"2026-04-16T22:58:29.610Z","obsTime":1776379980,"reportTime":"2026-04-16T23:00:00.000Z","temp":19.4,"dewp":-15,"wdir":240,"wspd":15,"visib":"10+","altim":1011.6,"slp":1008.7,"qcField":4,"metarType":"METAR","rawOb":"METAR KFMN 162253Z 24015KT 10SM CLR 19/M15 A2987 RMK AO2 PK WND 24026/2224 SLP087 T01941150","lat":36.7435,"lon":-108.2293,"elev":1677,"name":"Farmington/Four Corners Rgnl, NM, US","cover":"CLR","clouds":[],"fltCat":"VFR"},{"icaoId":"KLAR","receiptTime":"2026-04-16T22:58:31.110Z","obsTime":1776379980,"reportTime":"2026-04-16T23:00:00.000Z","temp":15,"dewp":-6.7,"wdir":220,"wspd":25,"wgst":39,"visib":"10+","altim":1006.2,"slp":998.9,"qcField":6,"metarType":"METAR","rawOb":"METAR KLAR 162253Z AUTO 22025G39KT 10SM CLR 15/M07 A2971 RMK AO2 PK WND 21046/2220 SLP989 T01501067","lat":41.3165,"lon":-105.6729,"elev":2217,"name":"Laramie Rgnl, WY, US","cover":"CLR","clouds":[],"fltCat":"VFR"},{"icaoId":"KLAW","receiptTime":"2026-04-16T22:58:31.123Z","obsTime":1776379980,"reportTime":"2026-04-16T23:00:00.000Z","temp":30,"dewp":16.1,"wdir":170,"wspd":14,"wgst":20,"visib":"10+","altim":1009.2,"slp":1007.8,"qcField":4,"metarType":"METAR","rawOb":"METAR KLAW 162253Z 17014G20KT 10SM CLR 30/16 A2980 RMK AO2 SLP078 T03000161","lat":34.5577,"lon":-98.4172,"elev":328,"name":"Lawton-Fort Sill Rgnl, OK, US","cover":"CLR","clouds":[],"fltCat":"VFR"},{"icaoId":"KGJT","receiptTime":"2026-04-16T22:58:27.660Z","obsTime":1776379980,"reportTime":"2026-04-16T23:00:00.000Z","temp":22.2,"dewp":-9.4,"wdir":190,"wspd":15,"wgst":33,"visib":"10+","altim":1006.2,"slp":1000.6,"qcField":4,"metarType":"METAR","rawOb":"METAR KGJT 162253Z 19015G33KT 10SM CLR 22/M09 A2971 RMK AO2 PK WND 16033/2207 SLP006 T02221094","lat":39.1344,"lon":-108.5408,"elev":1475,"name":"Grand Junction Rgnl, CO, US","cover":"CLR","clouds":[],"fltCat":"VFR"},{"icaoId":"KGTF","receiptTime":"2026-04-16T22:58:27.804Z","obsTime":1776379980,"reportTime":"2026-04-16T23:00:00.000Z","temp":1.1,"dewp":-8.3,"wdir":320,"wspd":12,"visib":"10+","altim":1012.6,"slp":1016.8,"qcField":4,"metarType":"METAR","rawOb":"METAR KGTF 162253Z 32012KT 10SM OVC044 01/M08 A2990 RMK AO2 SLP168 T00111083","lat":47.4733,"lon":-111.3828,"elev":1117,"name":"Great Falls Intl, MT, US","cover":"OVC","clouds":[{"cover":"OVC","base":4400}],"fltCat":"VFR"},{"icaoId":"KBOI","receiptTime":"2026-04-16T22:58:30.144Z","obsTime":1776379980,"reportTime":"2026-04-16T23:00:00.000Z","temp":3.3,"dewp":-2.8,"wdir":320,"wspd":16,"wgst":26,"visib":"10+","altim":1019.7,"slp":1021,"qcField":4,"wxString":"SN","precip":0.005,"metarType":"METAR","rawOb":"METAR KBOI 162253Z 32016G26KT 10SM SN SCT035 BKN070 03/M03 A3011 RMK AO2 PK WND 34028/2204 RAB07E11SNB11E29B53 SLP210 P0000 T00331028","lat":43.567,"lon":-116.2406,"elev":860,"name":"Boise Arpt, ID, US","cover":"BKN","clouds":[{"cover":"SCT","base":3500},{"cover":"BKN","base":7000}],"fltCat":"VFR"},{"icaoId":"KCDC","receiptTime":"2026-04-16T22:58:29.278Z","obsTime":1776379980,"reportTime":"2026-04-16T23:00:00.000Z","temp":17.8,"dewp":-5,"wdir":220,"wspd":23,"wgst":35,"visib":"10+","altim":1009.6,"slp":1004.6,"qcField":6,"metarType":"METAR","rawOb":"METAR KCDC 162253Z AUTO 22023G35KT 10SM CLR 18/M05 A2981 RMK AO2 PK WND 21038/2158 SLP046 T01781050","lat":37.7067,"lon":-113.097,"elev":1703,"name":"Cedar City Muni, UT, US","cover":"CLR","clouds":[],"fltCat":"VFR"},{"icaoId":"KASE","receiptTime":"2026-04-16T22:58:29.855Z","obsTime":1776379980,"reportTime":"2026-04-16T23:00:00.000Z","temp":13.9,"dewp":-12.8,"wdir":180,"wspd":13,"wgst":30,"visib":"10+","altim":1009.9,"slp":1001.9,"qcField":4,"metarType":"METAR","rawOb":"METAR KASE 162253Z 18013G30KT 10SM CLR 14/M13 A2982 RMK AO2 PK WND 17030/2248 SLP019 T01391128","lat":39.2299,"lon":-106.8705,"elev":2384,"name":"Aspen/Pitkin Cnty, CO, US","cover":"CLR","clouds":[],"fltCat":"VFR"},{"icaoId":"KBCE","receiptTime":"2026-04-16T22:58:29.975Z","obsTime":1776379980,"reportTime":"2026-04-16T23:00:00.000Z","temp":13.3,"dewp":-8.9,"wdir":260,"wspd":20,"wgst":30,"visib":"10+","altim":1011.9,"slp":1004,"qcField":6,"metarType":"METAR","rawOb":"METAR KBCE 162253Z AUTO 26020G30KT 10SM CLR 13/M09 A2988 RMK AO2 PK WND 24036/2213 SLP040 T01331089","lat":37.7013,"lon":-112.149,"elev":2311,"name":"Bryce Canyon Arpt, UT, US","cover":"CLR","clouds":[],"fltCat":"VFR"},{"icaoId":"KPBI","receiptTime":"2026-04-16T22:58:39.606Z","obsTime":1776379980,"reportTime":"2026-04-16T23:00:00.000Z","temp":25,"dewp":15.6,"wdir":60,"wspd":9,"visib":"10+","altim":1018.7,"slp":1018.5,"qcField":12,"metarType":"METAR","rawOb":"METAR KPBI 162253Z 06009KT 10SM FEW045 FEW250 25/16 A3008 RMK AO2 SLP185 T02500156 $","lat":26.6851,"lon":-80.0992,"elev":4,"name":"Palm Beach Intl, FL, US","cover":"FEW","clouds":[{"cover":"FEW","base":4500},{"cover":"FEW","base":25000}],"fltCat":"VFR"},{"icaoId":"KCRQ","receiptTime":"2026-04-16T22:58:28.846Z","obsTime":1776379980,"reportTime":"2026-04-16T23:00:00.000Z","temp":18.9,"dewp":11.7,"wdir":250,"wspd":9,"visib":"10+","altim":1012.3,"slp":1012,"qcField":4,"metarType":"METAR","rawOb":"METAR KCRQ 162253Z 25009KT 10SM CLR 19/12 A2989 RMK AO2 SLP120 T01890117","lat":33.1299,"lon":-117.2765,"elev":96,"name":"Carlsbad/Palomar Arpt, CA, US","cover":"CLR","clouds":[],"fltCat":"VFR"},{"icaoId":"KTWF","receiptTime":"2026-04-16T22:58:37.213Z","obsTime":1776379980,"reportTime":"2026-04-16T23:00:00.000Z","temp":2.8,"dewp":-6.7,"wdir":270,"wspd":24,"wgst":31,"visib":"10+","altim":1016.7,"slp":1016.6,"qcField":4,"metarType":"METAR","rawOb":"METAR KTWF 162253Z 27024G31KT 10SM CLR 03/M07 A3002 RMK AO2 PK WND 27031/2252 SLP166 T00281067","lat":42.4785,"lon":-114.4775,"elev":1269,"name":"Twin Falls/Joslin Fld, ID, US","cover":"CLR","clouds":[],"fltCat":"VFR"},{"icaoId":"KCYS","receiptTime":"2026-04-16T22:58:28.908Z","obsTime":1776379980,"reportTime":"2026-04-16T23:00:00.000Z","temp":18.3,"dewp":-9.4,"wdir":190,"wspd":12,"visib":"10+","altim":1004.5,"slp":997.9,"qcField":4,"metarType":"METAR","rawOb":"METAR KCYS 162253Z 19012KT 10SM BKN110 18/M09 A2966 RMK AO2 SLP979 T01831094","lat":41.1579,"lon":-104.8081,"elev":1868,"name":"Cheyenne Rgnl, WY, US","cover":"BKN","clouds":[{"cover":"BKN","base":11000}],"fltCat":"VFR"},{"icaoId":"KPSC","receiptTime":"2026-04-16T22:58:34.385Z","obsTime":1776379980,"reportTime":"2026-04-16T23:00:00.000Z","temp":14.4,"dewp":-8.9,"wdir":270,"wspd":9,"wgst":19,"visib":"10+","altim":1020.1,"slp":1020.1,"qcField":4,"metarType":"METAR","rawOb":"METAR KPSC 162253Z 27009G19KT 10SM FEW095 SCT110 14/M09 A3012 RMK AO2 SLP201 T01441089","lat":46.2695,"lon":-119.1182,"elev":121,"name":"Pasco/Tri Cities Arpt, WA, US","cover":"SCT","clouds":[{"cover":"FEW","base":9500},{"cover":"SCT","base":11000}],"fltCat":"VFR"},{"icaoId":"KDFW","receiptTime":"2026-04-16T22:58:29.027Z","obsTime":1776379980,"reportTime":"2026-04-16T23:00:00.000Z","temp":28.9,"dewp":18.3,"wdir":170,"wspd":16,"visib":"10+","altim":1011.3,"slp":1010.4,"qcField":12,"metarType":"METAR","rawOb":"METAR KDFW 162253Z 17016KT 10SM SCT050 BKN250 29/18 A2986 RMK AO2 PK WND 17027/2213 SLP104 T02890183 $","lat":32.8974,"lon":-97.022,"elev":168,"name":"Dallas-Ft Worth Intl, TX, US","cover":"BKN","clouds":[{"cover":"SCT","base":5000},{"cover":"BKN","base":25000}],"fltCat":"VFR"},{"icaoId":"KDLN","receiptTime":"2026-04-16T22:58:29.076Z","obsTime":1776379980,"reportTime":"2026-04-16T23:00:00.000Z","temp":-1.1,"dewp":-7.2,"wdir":160,"wspd":5,"visib":"10+","altim":1011.3,"slp":1013.8,"qcField":6,"metarType":"METAR","rawOb":"METAR KDLN 162253Z AUTO 16005KT 10SM FEW034 SCT070 BKN090 M01/M07 A2986 RMK AO2 SLP138 T10111072","lat":45.2584,"lon":-112.5546,"elev":1586,"name":"Dillon Arpt, MT, US","cover":"BKN","clouds":[{"cover":"FEW","base":3400},{"cover":"SCT","base":7000},{"cover":"BKN","base":9000}],"fltCat":"VFR"},{"icaoId":"KBUR","receiptTime":"2026-04-16T22:58:29.192Z","obsTime":1776379980,"reportTime":"2026-04-16T23:00:00.000Z","temp":22.2,"dewp":6.1,"wdir":190,"wspd":10,"visib":"10+","altim":1011.6,"slp":1010.5,"qcField":4,"metarType":"METAR","rawOb":"METAR KBUR 162253Z 19010KT 10SM CLR 22/06 A2987 RMK AO2 SLP105 T02220061","lat":34.1996,"lon":-118.3654,"elev":221,"name":"Burbank/Bob Hope Arpt, CA, US","cover":"CLR","clouds":[],"fltCat":"VFR"},{"icaoId":"KIDA","receiptTime":"2026-04-16T22:58:30.982Z","obsTime":1776379980,"reportTime":"2026-04-16T23:00:00.000Z","temp":1.1,"dewp":-5.6,"wdir":220,"wspd":13,"wgst":21,"visib":"10+","altim":1012.6,"slp":1013.9,"qcField":4,"metarType":"METAR","rawOb":"METAR KIDA 162253Z 22013G21KT 10SM FEW026 SCT038 OVC060 01/M06 A2990 RMK AO2 PK WND 22028/2229 SLP139 T00111056","lat":43.5204,"lon":-112.0675,"elev":1444,"name":"Idaho Falls Rgnl, ID, US","cover":"OVC","clouds":[{"cover":"FEW","base":2600},{"cover":"SCT","base":3800},{"cover":"OVC","base":6000}],"fltCat":"VFR"},{"icaoId":"KMAF","receiptTime":"2026-04-16T22:58:41.484Z","obsTime":1776379980,"reportTime":"2026-04-16T23:00:00.000Z","temp":30,"dewp":11.1,"wdir":180,"wspd":14,"wgst":21,"visib":"10+","altim":1010.9,"slp":1006.2,"qcField":4,"metarType":"METAR","rawOb":"METAR KMAF 162253Z 18014G21KT 10SM FEW120 30/11 A2985 RMK AO2 SLP062 T03000111","lat":31.9475,"lon":-102.2086,"elev":874,"name":"Midland Intl, TX, US","cover":"FEW","clouds":[{"cover":"FEW","base":12000}],"fltCat":"VFR"},{"icaoId":"KMLC","receiptTime":"2026-04-16T22:58:41.711Z","obsTime":1776379980,"reportTime":"2026-04-16T23:00:00.000Z","temp":27.8,"dewp":20.6,"wdir":"VRB","wspd":6,"wgst":18,"visib":"10+","altim":1011.3,"slp":1010.1,"qcField":6,"metarType":"METAR","rawOb":"METAR KMLC 162253Z AUTO VRB06G18KT 10SM FEW035 28/21 A2986 RMK AO2 SLP101 T02780206","lat":34.8824,"lon":-95.7815,"elev":231,"name":"McAlester Rgnl, OK, US","cover":"FEW","clouds":[{"cover":"FEW","base":3500}],"fltCat":"VFR"},{"icaoId":"KMSP","receiptTime":"2026-04-16T22:58:41.813Z","obsTime":1776379980,"reportTime":"2026-04-16T23:00:00.000Z","temp":25.6,"dewp":4.4,"wdir":180,"wspd":10,"visib":"10+","altim":1006.5,"slp":1006.3,"qcField":4,"metarType":"METAR","rawOb":"METAR KMSP 162253Z 18010KT 10SM FEW250 26/04 A2972 RMK AO2 SLP063 T02560044","lat":44.8852,"lon":-93.2313,"elev":255,"name":"Minneapolis-St Paul Intl, MN, US","cover":"FEW","clouds":[{"cover":"FEW","base":25000}],"fltCat":"VFR"},{"icaoId":"KMTJ","receiptTime":"2026-04-16T22:58:41.839Z","obsTime":1776379980,"reportTime":"2026-04-16T23:00:00.000Z","temp":18.9,"dewp":-11.1,"wdir":180,"wspd":12,"wgst":26,"visib":"10+","altim":1009.6,"slp":1004.4,"qcField":6,"metarType":"METAR","rawOb":"METAR KMTJ 162253Z AUTO 18012G26KT 10SM CLR 19/M11 A2981 RMK AO2 PK WND 20031/2227 SLP044 T01891111","lat":38.5054,"lon":-107.8981,"elev":1755,"name":"Montrose Rgnl, CO, US","cover":"CLR","clouds":[],"fltCat":"VFR"},{"icaoId":"KAMA","receiptTime":"2026-04-16T22:58:29.764Z","obsTime":1776379980,"reportTime":"2026-04-16T23:00:00.000Z","temp":27.2,"dewp":-12.8,"wdir":220,"wspd":17,"wgst":28,"visib":"10+","altim":1010.2,"slp":1006.1,"qcField":4,"metarType":"METAR","rawOb":"METAR KAMA 162253Z 22017G28KT 10SM CLR 27/M13 A2983 RMK AO2 PK WND 23035/2234 SLP061 T02721128","lat":35.2203,"lon":-101.7173,"elev":1102,"name":"Amarillo Intl Arpt, TX, US","cover":"CLR","clouds":[],"fltCat":"VFR"},{"icaoId":"KPSP","receiptTime":"2026-04-16T22:58:34.397Z","obsTime":1776379980,"reportTime":"2026-04-16T23:00:00.000Z","temp":29.4,"dewp":1.7,"wdir":310,"wspd":11,"wgst":19,"visib":"10+","altim":1007.5,"slp":1007,"qcField":12,"metarType":"METAR","rawOb":"METAR KPSP 162253Z 31011G19KT 10SM CLR 29/02 A2975 RMK AO2 PK WND 36026/2215 SLP070 T02940017 $","lat":33.8222,"lon":-116.5043,"elev":123,"name":"Palm Springs Intl, CA, US","cover":"CLR","clouds":[],"fltCat":"VFR"},{"icaoId":"KDEN","receiptTime":"2026-04-16T22:58:29.001Z","obsTime":1776379980,"reportTime":"2026-04-16T23:00:00.000Z","temp":23.9,"dewp":-10,"wdir":240,"wspd":16,"wgst":21,"visib":"10+","altim":1002.8,"slp":996.3,"qcField":12,"metarType":"METAR","rawOb":"METAR KDEN 162253Z 24016G21KT 10SM SCT110 BKN140 BKN220 24/M10 A2961 RMK AO2 SLP963 T02391100 $","lat":39.8466,"lon":-104.6562,"elev":1656,"name":"Denver Intl, CO, US","cover":"BKN","clouds":[{"cover":"SCT","base":11000},{"cover":"BKN","base":14000},{"cover":"BKN","base":22000}],"fltCat":"VFR"},{"icaoId":"KDRO","receiptTime":"2026-04-16T22:58:29.114Z","obsTime":1776379980,"reportTime":"2026-04-16T23:00:00.000Z","temp":16.1,"dewp":-8.3,"wdir":270,"wspd":8,"visib":"10+","altim":1013.3,"slp":1010.7,"qcField":6,"metarType":"METAR","rawOb":"METAR KDRO 162253Z AUTO 27008KT 10SM CLR 16/M08 A2992 RMK AO2 SLP107 T01611083","lat":37.1431,"lon":-107.7602,"elev":2021,"name":"Durango/La Plata Cnty, CO, US","cover":"CLR","clouds":[],"fltCat":"VFR"},{"icaoId":"KMFE","receiptTime":"2026-04-16T22:58:36.338Z","obsTime":1776379980,"reportTime":"2026-04-16T23:00:00.000Z","temp":30.6,"dewp":19.4,"wdir":140,"wspd":15,"wgst":25,"visib":"10+","altim":1011.9,"slp":1011.5,"qcField":4,"metarType":"METAR","rawOb":"METAR KMFE 162253Z 14015G25KT 10SM FEW045 31/19 A2988 RMK AO2 PK WND 13029/2213 SLP115 T03060194","lat":26.1791,"lon":-98.2445,"elev":29,"name":"McAllen/Miller Intl, TX, US","cover":"FEW","clouds":[{"cover":"FEW","base":4500}],"fltCat":"VFR"},{"icaoId":"KMFR","receiptTime":"2026-04-16T22:58:36.350Z","obsTime":1776379980,"reportTime":"2026-04-16T23:00:00.000Z","temp":12.8,"dewp":-2.8,"wdir":310,"wspd":7,"visib":"10+","altim":1024.8,"slp":1025.2,"qcField":4,"metarType":"METAR","rawOb":"METAR KMFR 162253Z 31007KT 10SM SCT070 13/M03 A3026 RMK AO2 SLP252 T01281028","lat":42.375,"lon":-122.877,"elev":397,"name":"Medford/Rogue Valley Intl, OR, US","cover":"SCT","clouds":[{"cover":"SCT","base":7000}],"fltCat":"VFR"},{"icaoId":"KMSY","receiptTime":"2026-04-16T22:58:36.457Z","obsTime":1776379980,"reportTime":"2026-04-16T23:00:00.000Z","temp":25.6,"dewp":17.8,"wdir":170,"wspd":10,"visib":"10+","altim":1017,"slp":1017.3,"qcField":4,"metarType":"METAR","rawOb":"METAR KMSY 162253Z 17010KT 10SM FEW035 FEW080 26/18 A3003 RMK AO2 SLP173 T02560178","lat":29.9974,"lon":-90.2777,"elev":0,"name":"New Orleans/Armstrong Intl, LA, US","cover":"FEW","clouds":[{"cover":"FEW","base":3500},{"cover":"FEW","base":8000}],"fltCat":"VFR"},{"icaoId":"KOAK","receiptTime":"2026-04-16T22:58:36.507Z","obsTime":1776379980,"reportTime":"2026-04-16T23:00:00.000Z","temp":20,"dewp":5,"wdir":260,"wspd":16,"wgst":28,"visib":"10+","altim":1017,"slp":1017,"qcField":12,"metarType":"METAR","rawOb":"METAR KOAK 162253Z 26016G28KT 10SM FEW250 20/05 A3003 RMK AO2 PK WND 27028/2250 SLP170 T02000050 $","lat":37.7178,"lon":-122.233,"elev":3,"name":"Oakland Intl, CA, US","cover":"FEW","clouds":[{"cover":"FEW","base":25000}],"fltCat":"VFR"},{"icaoId":"KHLN","receiptTime":"2026-04-16T22:58:30.838Z","obsTime":1776379980,"reportTime":"2026-04-16T23:00:00.000Z","temp":5.6,"dewp":-10.6,"wdir":290,"wspd":13,"wgst":24,"visib":"10+","altim":1011.3,"slp":1014.4,"qcField":4,"precip":0.005,"metarType":"METAR","rawOb":"METAR KHLN 162253Z 29013G24KT 10SM SCT070 SCT085 06/M11 A2986 RMK AO2 PK WND 28028/2225 WSHFT 2153 SNB11E20 SLP144 P0000 T00561106","lat":46.6045,"lon":-111.9892,"elev":1178,"name":"Helena Rgnl, MT, US","cover":"SCT","clouds":[{"cover":"SCT","base":7000},{"cover":"SCT","base":8500}],"fltCat":"VFR"},{"icaoId":"KPDX","receiptTime":"2026-04-16T22:58:34.267Z","obsTime":1776379980,"reportTime":"2026-04-16T23:00:00.000Z","temp":12.2,"dewp":0,"wdir":20,"wspd":4,"visib":"10+","altim":1026.5,"slp":1026.2,"qcField":4,"metarType":"METAR","rawOb":"METAR KPDX 162253Z 02004KT 10SM FEW031 BKN060 BKN090 12/00 A3031 RMK AO2 SLP262 T01220000","lat":45.5958,"lon":-122.6092,"elev":7,"name":"Portland Intl, OR, US","cover":"BKN","clouds":[{"cover":"FEW","base":3100},{"cover":"BKN","base":6000},{"cover":"BKN","base":9000}],"fltCat":"VFR"},{"icaoId":"KPGA","receiptTime":"2026-04-16T22:58:34.292Z","obsTime":1776379980,"reportTime":"2026-04-16T23:00:00.000Z","temp":23.9,"dewp":-12.2,"wdir":220,"wspd":15,"wgst":27,"visib":"10+","altim":1007.2,"slp":1002.2,"qcField":14,"metarType":"METAR","rawOb":"METAR KPGA 162253Z AUTO 22015G27KT 10SM CLR 24/M12 A2974 RMK AO2 PK WND 21032/2221 SLP022 T02391122 $","lat":36.9211,"lon":-111.4487,"elev":1310,"name":"Page Muni, AZ, US","cover":"CLR","clouds":[],"fltCat":"VFR"},{"icaoId":"KRDD","receiptTime":"2026-04-16T22:58:34.454Z","obsTime":1776379980,"reportTime":"2026-04-16T23:00:00.000Z","temp":18.3,"dewp":-6.7,"wdir":330,"wspd":8,"wgst":19,"visib":"10+","altim":1019.7,"slp":1019.3,"qcField":4,"metarType":"METAR","rawOb":"METAR KRDD 162253Z 33008G19KT 10SM CLR 18/M07 A3011 RMK AO2 PK WND 36027/2240 SLP193 T01831067","lat":40.5146,"lon":-122.2977,"elev":152,"name":"Redding Muni, CA, US","cover":"CLR","clouds":[],"fltCat":"VFR"},{"icaoId":"KSEA","receiptTime":"2026-04-16T22:58:34.548Z","obsTime":1776379980,"reportTime":"2026-04-16T23:00:00.000Z","temp":12.2,"dewp":-1.1,"wdir":210,"wspd":7,"visib":"10+","altim":1024.8,"slp":1025.6,"qcField":4,"metarType":"METAR","rawOb":"METAR KSEA 162253Z 21007KT 10SM FEW050 12/M01 A3026 RMK AO2 SLP256 T01221011","lat":47.4447,"lon":-122.3144,"elev":115,"name":"Seattle-Tacoma Intl, WA, US","cover":"FEW","clouds":[{"cover":"FEW","base":5000}],"fltCat":"VFR"},{"icaoId":"KSJC","receiptTime":"2026-04-16T22:58:34.627Z","obsTime":1776379980,"reportTime":"2026-04-16T23:00:00.000Z","temp":21.1,"dewp":1.1,"wdir":320,"wspd":14,"wgst":20,"visib":"10+","altim":1016,"slp":1015.9,"qcField":4,"metarType":"METAR","rawOb":"METAR KSJC 162253Z 32014G20KT 10SM FEW095 FEW110 21/01 A3000 RMK AO2 SLP159 T02110011","lat":37.3594,"lon":-121.9244,"elev":13,"name":"San Jose Intl Arpt, CA, US","cover":"FEW","clouds":[{"cover":"FEW","base":9500},{"cover":"FEW","base":11000}],"fltCat":"VFR"},{"icaoId":"KLOL","receiptTime":"2026-04-16T22:58:36.240Z","obsTime":1776379980,"reportTime":"2026-04-16T23:00:00.000Z","temp":10.6,"dewp":-17.2,"wdir":330,"wspd":19,"wgst":25,"visib":"10+","altim":1018.4,"slp":1017.5,"qcField":6,"metarType":"METAR","rawOb":"METAR KLOL 162253Z AUTO 33019G25KT 10SM SCT100 11/M17 A3007 RMK AO2 PK WND 32033/2229 SLP175 T01061172","lat":40.0684,"lon":-118.5702,"elev":1191,"name":"Lovelock/Derby Fld, NV, US","cover":"SCT","clouds":[{"cover":"SCT","base":10000}],"fltCat":"VFR"},{"icaoId":"KPAE","receiptTime":"2026-04-16T22:58:36.559Z","obsTime":1776379980,"reportTime":"2026-04-16T23:00:00.000Z","temp":10,"dewp":1.1,"wdir":0,"wspd":0,"visib":"10+","altim":1025.1,"slp":1025.3,"qcField":4,"metarType":"METAR","rawOb":"METAR KPAE 162253Z 00000KT 10SM FEW039 10/01 A3027 RMK AO2 SLP253 T01000011","lat":47.9232,"lon":-122.2831,"elev":166,"name":"Everett/Paine Fld, WA, US","cover":"FEW","clouds":[{"cover":"FEW","base":3900}],"fltCat":"VFR"},{"icaoId":"KFUL","receiptTime":"2026-04-16T22:58:36.667Z","obsTime":1776379980,"reportTime":"2026-04-16T23:00:00.000Z","temp":21.7,"dewp":12.2,"wdir":190,"wspd":7,"visib":"10+","altim":1011.6,"slp":1011.4,"qcField":6,"metarType":"METAR","rawOb":"METAR KFUL 162253Z AUTO 19007KT 10SM CLR 22/12 A2987 RMK AO2 SLP114 T02170122","lat":33.8715,"lon":-117.9856,"elev":23,"name":"Fullerton Muni, CA, US","cover":"CLR","clouds":[],"fltCat":"VFR"},{"icaoId":"KGSP","receiptTime":"2026-04-16T22:58:36.777Z","obsTime":1776379980,"reportTime":"2026-04-16T23:00:00.000Z","temp":27.8,"dewp":7.8,"wdir":220,"wspd":12,"wgst":24,"visib":"10+","altim":1014.6,"slp":1013.7,"qcField":4,"metarType":"METAR","rawOb":"METAR KGSP 162253Z 22012G24KT 10SM CLR 28/08 A2996 RMK AO2 SLP137 T02780078","lat":34.8842,"lon":-82.2209,"elev":285,"name":"Greenville-Spartanburg Intl, SC, US","cover":"CLR","clouds":[],"fltCat":"VFR"},{"icaoId":"KSTS","receiptTime":"2026-04-16T22:58:37.090Z","obsTime":1776379980,"reportTime":"2026-04-16T23:00:00.000Z","temp":22.2,"dewp":-7.8,"wdir":60,"wspd":12,"wgst":18,"visib":"10+","altim":1017.4,"slp":1016.5,"qcField":4,"metarType":"METAR","rawOb":"METAR KSTS 162253Z 06012G18KT 020V090 10SM CLR 22/M08 A3004 RMK AO2 SLP165 T02221078","lat":38.5037,"lon":-122.811,"elev":35,"name":"Santa Rosa/Schulz Arpt, CA, US","cover":"CLR","clouds":[],"fltCat":"VFR"},{"icaoId":"KACV","receiptTime":"2026-04-16T22:58:37.592Z","obsTime":1776379980,"reportTime":"2026-04-16T23:00:00.000Z","temp":12.8,"dewp":4.4,"wdir":330,"wspd":18,"wgst":26,"visib":"10+","altim":1024.1,"slp":1024.8,"qcField":6,"metarType":"METAR","rawOb":"METAR KACV 162253Z AUTO 33018G26KT 10SM CLR 13/04 A3024 RMK AO2 PK WND 34027/2229 SLP248 T01280044","lat":40.9784,"lon":-124.1048,"elev":63,"name":"Arcata Arpt, CA, US","cover":"CLR","clouds":[],"fltCat":"VFR"},{"icaoId":"KBLI","receiptTime":"2026-04-16T22:58:37.832Z","obsTime":1776379980,"reportTime":"2026-04-16T23:00:00.000Z","temp":11.1,"dewp":0,"wdir":160,"wspd":9,"visib":"10+","altim":1024.8,"slp":1025.4,"qcField":4,"metarType":"METAR","rawOb":"METAR KBLI 162253Z 16009KT 10SM CLR 11/00 A3026 RMK AO2 SLP254 T01110000","lat":48.7991,"lon":-122.5407,"elev":46,"name":"Bellingham Intl, WA, US","cover":"CLR","clouds":[],"fltCat":"VFR"},{"icaoId":"KDVT","receiptTime":"2026-04-16T22:58:38.177Z","obsTime":1776379980,"reportTime":"2026-04-16T23:00:00.000Z","temp":28.9,"dewp":-6.1,"wdir":280,"wspd":8,"visib":"10+","altim":1009.2,"slp":1007,"qcField":12,"metarType":"METAR","rawOb":"METAR KDVT 162253Z 28008KT 10SM CLR 29/M06 A2980 RMK AO2 SLP070 T02891061 $","lat":33.6902,"lon":-112.0662,"elev":454,"name":"Phoenix/Deer Valley Arpt, AZ, US","cover":"CLR","clouds":[],"fltCat":"VFR"},{"icaoId":"KVEL","receiptTime":"2026-04-16T22:58:38.445Z","obsTime":1776379980,"reportTime":"2026-04-16T23:00:00.000Z","temp":16.7,"dewp":-6.7,"wdir":210,"wspd":20,"wgst":34,"visib":"10+","altim":1003.5,"slp":999.7,"qcField":6,"metarType":"METAR","rawOb":"METAR KVEL 162253Z AUTO 21020G34KT 10SM FEW080 BKN100 OVC120 17/M07 A2963 RMK AO2 PK WND 23045/2232 SLP997 T01671067","lat":40.4429,"lon":-109.5128,"elev":1604,"name":"Vernal Rgnl, UT, US","cover":"OVC","clouds":[{"cover":"FEW","base":8000},{"cover":"BKN","base":10000},{"cover":"OVC","base":12000}],"fltCat":"VFR"},{"icaoId":"PANC","receiptTime":"2026-04-16T22:58:38.887Z","obsTime":1776379980,"reportTime":"2026-04-16T23:00:00.000Z","temp":2.8,"dewp":0.6,"wdir":340,"wspd":3,"visib":"10+","altim":1011.3,"slp":1011.2,"qcField":4,"precip":0.005,"metarType":"METAR","rawOb":"METAR PANC 162253Z 34003KT 10SM BKN046 OVC060 03/01 A2986 RMK AO2 RAB09E25 SLP112 P0000 T00280006","lat":61.1691,"lon":-150.0277,"elev":39,"name":"Anchorage Intl, AK, US","cover":"OVC","clouds":[{"cover":"BKN","base":4600},{"cover":"OVC","base":6000}],"fltCat":"VFR"},{"icaoId":"KSAF","receiptTime":"2026-04-16T22:58:38.954Z","obsTime":1776379980,"reportTime":"2026-04-16T23:00:00.000Z","temp":19.4,"dewp":-14.4,"wdir":210,"wspd":14,"wgst":20,"visib":"10+","altim":1013.3,"slp":1006.6,"qcField":4,"metarType":"METAR","rawOb":"METAR KSAF 162253Z 21014G20KT 10SM CLR 19/M14 A2992 RMK AO2 SLP066 T01941144","lat":35.611,"lon":-106.0957,"elev":1918,"name":"Santa Fe Cnty Muni, NM, US","cover":"CLR","clouds":[],"fltCat":"VFR"},{"icaoId":"KSNA","receiptTime":"2026-04-16T22:58:39.069Z","obsTime":1776379980,"reportTime":"2026-04-16T23:00:00.000Z","temp":20,"dewp":12.8,"wdir":200,"wspd":10,"visib":"10+","altim":1011.9,"slp":1011.9,"qcField":4,"metarType":"METAR","rawOb":"METAR KSNA 162253Z 20010KT 10SM FEW050 BKN200 20/13 A2988 RMK AO2 SLP119 T02000128","lat":33.6798,"lon":-117.8675,"elev":14,"name":"Santa Ana/Wayne Arpt, CA, US","cover":"BKN","clouds":[{"cover":"FEW","base":5000},{"cover":"BKN","base":20000}],"fltCat":"VFR"},{"icaoId":"KTPA","receiptTime":"2026-04-16T22:58:39.362Z","obsTime":1776379980,"reportTime":"2026-04-16T23:00:00.000Z","temp":26.1,"dewp":15.6,"wdir":330,"wspd":9,"wgst":16,"visib":"10+","altim":1017.7,"slp":1017.5,"qcField":4,"metarType":"METAR","rawOb":"METAR KTPA 162253Z 33009G16KT 10SM FEW250 26/16 A3005 RMK AO2 SLP175 T02610156","lat":27.9633,"lon":-82.54,"elev":2,"name":"Tampa Intl Arpt, FL, US","cover":"FEW","clouds":[{"cover":"FEW","base":25000}],"fltCat":"VFR"},{"icaoId":"KPUB","receiptTime":"2026-04-16T22:58:39.754Z","obsTime":1776379980,"reportTime":"2026-04-16T23:00:00.000Z","temp":25.6,"dewp":-11.1,"wdir":210,"wspd":24,"wgst":34,"visib":"10+","altim":1003.8,"slp":999.1,"qcField":12,"metarType":"METAR","rawOb":"METAR KPUB 162253Z 21024G34KT 10SM CLR 26/M11 A2964 RMK AO2 PK WND 21034/2158 SLP991 T02561111 $","lat":38.2887,"lon":-104.5057,"elev":1441,"name":"Pueblo Mem Arpt, CO, US","cover":"CLR","clouds":[],"fltCat":"VFR"},{"icaoId":"KRIW","receiptTime":"2026-04-16T22:58:39.875Z","obsTime":1776379980,"reportTime":"2026-04-16T23:00:00.000Z","temp":7.2,"dewp":-4.4,"wdir":300,"wspd":23,"wgst":35,"visib":"10+","altim":1004.5,"slp":1002.1,"qcField":6,"metarType":"METAR","rawOb":"METAR KRIW 162253Z AUTO 30023G35KT 10SM FEW055 BKN070 OVC090 07/M04 A2966 RMK AO2 PK WND 30035/2247 SLP021 T00721044","lat":43.0622,"lon":-108.4471,"elev":1662,"name":"Riverton Rgnl, WY, US","cover":"OVC","clouds":[{"cover":"FEW","base":5500},{"cover":"BKN","base":7000},{"cover":"OVC","base":9000}],"fltCat":"VFR"},{"icaoId":"KRTN","receiptTime":"2026-04-16T22:58:39.950Z","obsTime":1776379980,"reportTime":"2026-04-16T23:00:00.000Z","temp":20,"dewp":-12.8,"wdir":270,"wspd":19,"wgst":26,"visib":"10+","altim":1009.9,"slp":1005.1,"qcField":6,"metarType":"METAR","rawOb":"METAR KRTN 162253Z AUTO 27019G26KT 10SM CLR 20/M13 A2982 RMK AO2 PK WND 27028/2200 SLP051 T02001128","lat":36.7418,"lon":-104.5076,"elev":1939,"name":"Raton/Crews Fld, NM, US","cover":"CLR","clouds":[],"fltCat":"VFR"},{"icaoId":"KMCO","receiptTime":"2026-04-16T22:58:41.553Z","obsTime":1776379980,"reportTime":"2026-04-16T23:00:00.000Z","temp":26.1,"dewp":15.6,"wdir":100,"wspd":14,"visib":"10+","altim":1018.7,"slp":1018.3,"qcField":4,"metarType":"METAR","rawOb":"METAR KMCO 162253Z 10014KT 10SM FEW060 BKN250 26/16 A3008 RMK AO2 SLP183 T02610156","lat":28.4182,"lon":-81.3241,"elev":27,"name":"Orlando Intl, FL, US","cover":"BKN","clouds":[{"cover":"FEW","base":6000},{"cover":"BKN","base":25000}],"fltCat":"VFR"},{"icaoId":"KMYF","receiptTime":"2026-04-16T22:58:41.904Z","obsTime":1776379980,"reportTime":"2026-04-16T23:00:00.000Z","temp":20,"dewp":11.1,"wdir":250,"wspd":10,"visib":"10+","altim":1013,"slp":1012.5,"qcField":4,"metarType":"METAR","rawOb":"METAR KMYF 162253Z 25010KT 10SM CLR 20/11 A2991 RMK AO2 SLP125 T02000111","lat":32.8145,"lon":-117.1375,"elev":128,"name":"San Diego/Montgomery Arpt, CA, US","cover":"CLR","clouds":[],"fltCat":"VFR"},{"icaoId":"KOGD","receiptTime":"2026-04-16T22:58:41.951Z","obsTime":1776379980,"reportTime":"2026-04-16T23:00:00.000Z","temp":2.8,"dewp":-6.7,"wdir":320,"wspd":6,"visib":"10+","altim":1015.3,"slp":1013.5,"qcField":4,"metarType":"METAR","rawOb":"METAR KOGD 162253Z 32006KT 10SM SCT036 BKN090 03/M07 A2998 RMK AO2 SLP135 T00281067","lat":41.1941,"lon":-112.0168,"elev":1356,"name":"Ogden/Hinckley Arpt, UT, US","cover":"BKN","clouds":[{"cover":"SCT","base":3600},{"cover":"BKN","base":9000}],"fltCat":"VFR"},{"icaoId":"KSMF","receiptTime":"2026-04-16T22:58:34.639Z","obsTime":1776379980,"reportTime":"2026-04-16T23:00:00.000Z","temp":21.1,"dewp":-3.9,"wdir":330,"wspd":19,"wgst":30,"visib":"10+","altim":1016.7,"slp":1016.5,"qcField":4,"metarType":"METAR","rawOb":"METAR KSMF 162253Z 33019G30KT 10SM FEW250 21/M04 A3002 RMK AO2 PK WND 31030/2220 SLP165 T02111039","lat":38.7007,"lon":-121.5948,"elev":7,"name":"Sacramento Intl, CA, US","cover":"FEW","clouds":[{"cover":"FEW","base":25000}],"fltCat":"VFR"},{"icaoId":"KMLS","receiptTime":"2026-04-16T22:58:36.408Z","obsTime":1776379980,"reportTime":"2026-04-16T23:00:00.000Z","temp":4.4,"dewp":-4.4,"wdir":340,"wspd":15,"wgst":24,"visib":"10+","altim":1010.6,"slp":1011.7,"qcField":6,"metarType":"METAR","rawOb":"METAR KMLS 162253Z AUTO 34015G24KT 10SM OVC075 04/M04 A2984 RMK AO2 PK WND 33027/2216 SLP117 T00441044","lat":46.4265,"lon":-105.8834,"elev":800,"name":"Miles City/Wiley Fld, MT, US","cover":"OVC","clouds":[{"cover":"OVC","base":7500}],"fltCat":"VFR"},{"icaoId":"KMOD","receiptTime":"2026-04-16T22:58:36.432Z","obsTime":1776379980,"reportTime":"2026-04-16T23:00:00.000Z","temp":22.2,"dewp":2.2,"wdir":310,"wspd":13,"wgst":23,"visib":"10+","altim":1015.3,"slp":1015.1,"qcField":4,"metarType":"METAR","rawOb":"METAR KMOD 162253Z 31013G23KT 10SM CLR 22/02 A2998 RMK AO2 PK WND 31026/2225 SLP151 T02220022","lat":37.6254,"lon":-120.9549,"elev":25,"name":"Modesto/Sham Fld, CA, US","cover":"CLR","clouds":[],"fltCat":"VFR"},{"icaoId":"KHIO","receiptTime":"2026-04-16T22:58:36.827Z","obsTime":1776379980,"reportTime":"2026-04-16T23:00:00.000Z","temp":12.8,"dewp":-0.6,"wdir":130,"wspd":4,"visib":"10+","altim":1025.8,"slp":1025.9,"qcField":4,"metarType":"METAR","rawOb":"METAR KHIO 162253Z 13004KT 10SM CLR 13/M01 A3029 RMK AO2 SLP259 T01281006","lat":45.5476,"lon":-122.9557,"elev":62,"name":"Portland/Hillsboro Arpt, OR, US","cover":"CLR","clouds":[],"fltCat":"VFR"},{"icaoId":"KYKM","receiptTime":"2026-04-16T22:58:34.211Z","obsTime":1776379980,"reportTime":"2026-04-16T23:00:00.000Z","temp":13.9,"dewp":-7.8,"wdir":320,"wspd":17,"wgst":27,"visib":"10+","altim":1020.4,"slp":1020.6,"qcField":4,"metarType":"METAR","rawOb":"METAR KYKM 162253Z 32017G27KT 10SM CLR 14/M08 A3013 RMK AO2 PK WND 35028/2157 SLP206 T01391078","lat":46.564,"lon":-120.5349,"elev":319,"name":"Yakima/McAllister Fld, WA, US","cover":"CLR","clouds":[],"fltCat":"VFR"},{"icaoId":"KCPR","receiptTime":"2026-04-16T22:58:28.799Z","obsTime":1776379980,"reportTime":"2026-04-16T23:00:00.000Z","temp":8.9,"dewp":0,"wdir":360,"wspd":27,"wgst":37,"visib":"10+","altim":1002.5,"slp":1000.3,"qcField":4,"wxString":"-RA","precip":0.005,"metarType":"METAR","rawOb":"METAR KCPR 162253Z 36027G37KT 10SM -RA OVC100 09/00 A2960 RMK AO2 PK WND 22040/2159 WSHFT 2206 RAB17E30B52 SLP003 VIRGA SW-NW P0000 T00890000","lat":42.8978,"lon":-106.4736,"elev":1623,"name":"Casper/Natrona Cnty, WY, US","cover":"OVC","clouds":[{"cover":"OVC","base":10000}],"fltCat":"VFR"},{"icaoId":"KBNA","receiptTime":"2026-04-16T22:58:30.127Z","obsTime":1776379980,"reportTime":"2026-04-16T23:00:00.000Z","temp":27.2,"dewp":12.2,"wdir":210,"wspd":9,"visib":"10+","altim":1015,"slp":1014.1,"qcField":4,"metarType":"METAR","rawOb":"METAR KBNA 162253Z 21009KT 10SM SCT065 SCT200 27/12 A2997 RMK AO2 SLP141 T02720122","lat":36.1105,"lon":-86.6881,"elev":168,"name":"Nashville Intl, TN, US","cover":"SCT","clouds":[{"cover":"SCT","base":6500},{"cover":"SCT","base":20000}],"fltCat":"VFR"},{"icaoId":"KLAX","receiptTime":"2026-04-16T22:58:28.358Z","obsTime":1776379980,"reportTime":"2026-04-16T23:00:00.000Z","temp":19.4,"dewp":12.2,"wdir":260,"wspd":11,"visib":"10+","altim":1012.3,"slp":1012.1,"qcField":4,"metarType":"METAR","rawOb":"METAR KLAX 162253Z 26011KT 10SM FEW050 BKN250 19/12 A2989 RMK AO2 SLP121 T01940122","lat":33.9382,"lon":-118.3866,"elev":30,"name":"Los Angeles Intl, CA, US","cover":"BKN","clouds":[{"cover":"FEW","base":5000},{"cover":"BKN","base":25000}],"fltCat":"VFR"},{"icaoId":"KLGB","receiptTime":"2026-04-16T22:58:31.178Z","obsTime":1776379980,"reportTime":"2026-04-16T23:00:00.000Z","temp":21.7,"dewp":13.3,"wdir":220,"wspd":7,"visib":"10+","altim":1011.6,"slp":1011.6,"qcField":4,"metarType":"METAR","rawOb":"METAR KLGB 162253Z 22007KT 10SM CLR 22/13 A2987 RMK AO2 SLP116 T02170133","lat":33.8118,"lon":-118.1472,"elev":10,"name":"Long Beach Arpt, CA, US","cover":"CLR","clouds":[],"fltCat":"VFR"},{"icaoId":"KMSO","receiptTime":"2026-04-16T22:58:41.800Z","obsTime":1776379980,"reportTime":"2026-04-16T23:00:00.000Z","temp":5,"dewp":-4.4,"wdir":320,"wspd":11,"wgst":22,"visib":"10+","altim":1015,"slp":1017.2,"qcField":4,"precip":0.005,"metarType":"METAR","rawOb":"METAR KMSO 162253Z 32011G22KT 10SM FEW041 BKN060 BKN080 05/M04 A2997 RMK AO2 RAB28E31SNB31E42 SLP172 P0000 T00501044","lat":46.9208,"lon":-114.0938,"elev":974,"name":"Missoula Intl, MT, US","cover":"BKN","clouds":[{"cover":"FEW","base":4100},{"cover":"BKN","base":6000},{"cover":"BKN","base":8000}],"fltCat":"VFR"},{"icaoId":"KSDL","receiptTime":"2026-04-16T22:58:39.005Z","obsTime":1776379980,"reportTime":"2026-04-16T23:00:00.000Z","temp":28.9,"dewp":-6.1,"wdir":0,"wspd":0,"visib":"10+","altim":1009.2,"slp":1007.1,"qcField":4,"metarType":"METAR","rawOb":"METAR KSDL 162253Z 00000KT 10SM CLR 29/M06 A2980 RMK AO2 SLP071 T02891061","lat":33.6123,"lon":-111.9232,"elev":438,"name":"Scottsdale Muni, AZ, US","cover":"CLR","clouds":[],"fltCat":"VFR"},{"icaoId":"KLVS","receiptTime":"2026-04-16T22:58:28.565Z","obsTime":1776379980,"reportTime":"2026-04-16T23:00:00.000Z","temp":18.3,"dewp":-15,"wdir":200,"wspd":23,"wgst":31,"visib":"10+","altim":1013.6,"slp":1005.4,"qcField":6,"metarType":"METAR","rawOb":"METAR KLVS 162253Z AUTO 20023G31KT 10SM CLR 18/M15 A2993 RMK AO2 PK WND 20034/2211 SLP054 T01831150","lat":35.6558,"lon":-105.1385,"elev":2095,"name":"Las Vegas Muni, NM, US","cover":"CLR","clouds":[],"fltCat":"VFR"},{"icaoId":"KAPA","receiptTime":"2026-04-16T22:58:29.831Z","obsTime":1776379980,"reportTime":"2026-04-16T23:00:00.000Z","temp":22.2,"dewp":-9.4,"wdir":210,"wspd":19,"wgst":25,"visib":"10+","altim":1003.8,"slp":998.7,"qcField":4,"metarType":"METAR","rawOb":"METAR KAPA 162253Z 21019G25KT 10SM SCT110 BKN140 BKN220 22/M09 A2964 RMK AO2 PK WND 20027/2241 SLP987 T02221094","lat":39.5599,"lon":-104.8484,"elev":1791,"name":"Denver/Centennial Arpt, CO, US","cover":"BKN","clouds":[{"cover":"SCT","base":11000},{"cover":"BKN","base":14000},{"cover":"BKN","base":22000}],"fltCat":"VFR"},{"icaoId":"KMDW","receiptTime":"2026-04-16T22:58:41.583Z","obsTime":1776379980,"reportTime":"2026-04-16T23:00:00.000Z","temp":19.4,"dewp":14.4,"wdir":80,"wspd":8,"visib":"10+","altim":1010.9,"slp":1010.5,"qcField":4,"metarType":"METAR","rawOb":"METAR KMDW 162253Z 08008KT 10SM FEW005 SCT050 SCT080 19/14 A2985 RMK AO2 SLP105 T01940144","lat":41.7841,"lon":-87.7552,"elev":186,"name":"Chicago/Midway Intl, IL, US","cover":"SCT","clouds":[{"cover":"FEW","base":500},{"cover":"SCT","base":5000},{"cover":"SCT","base":8000}],"fltCat":"VFR"},{"icaoId":"KCLL","receiptTime":"2026-04-16T22:58:37.993Z","obsTime":1776379980,"reportTime":"2026-04-16T23:00:00.000Z","temp":28.9,"dewp":17.8,"wdir":150,"wspd":14,"visib":"10+","altim":1013,"slp":1012.4,"qcField":4,"metarType":"METAR","rawOb":"METAR KCLL 162253Z 15014KT 10SM FEW070 29/18 A2991 RMK AO2 SLP124 T02890178","lat":30.5912,"lon":-96.3631,"elev":96,"name":"College Station/Easterwood Arpt, TX, US","cover":"FEW","clouds":[{"cover":"FEW","base":7000}],"fltCat":"VFR"},{"icaoId":"KFAT","receiptTime":"2026-04-16T22:58:38.315Z","obsTime":1776379980,"reportTime":"2026-04-16T23:00:00.000Z","temp":22.2,"dewp":6.1,"wdir":320,"wspd":11,"wgst":18,"visib":"10+","altim":1014.3,"slp":1013.9,"qcField":12,"metarType":"METAR","rawOb":"METAR KFAT 162253Z 32011G18KT 10SM FEW040 SCT130 SCT200 22/06 A2995 RMK AO2 SLP139 T02220061 $","lat":36.78,"lon":-119.7202,"elev":102,"name":"Fresno/Yosemite Intl, CA, US","cover":"SCT","clouds":[{"cover":"FEW","base":4000},{"cover":"SCT","base":13000},{"cover":"SCT","base":20000}],"fltCat":"VFR"},{"icaoId":"KGEG","receiptTime":"2026-04-16T22:58:36.692Z","obsTime":1776379980,"reportTime":"2026-04-16T23:00:00.000Z","temp":7.8,"dewp":-6.7,"wdir":310,"wspd":11,"wgst":20,"visib":"10+","altim":1017.4,"slp":1018.7,"qcField":4,"metarType":"METAR","rawOb":"METAR KGEG 162253Z 31011G20KT 10SM BKN060 BKN080 08/M07 A3004 RMK AO2 SLP187 T00781067","lat":47.6217,"lon":-117.528,"elev":718,"name":"Spokane Intl, WA, US","cover":"BKN","clouds":[{"cover":"BKN","base":6000},{"cover":"BKN","base":8000}],"fltCat":"VFR"},{"icaoId":"KLBB","receiptTime":"2026-04-16T22:58:28.370Z","obsTime":1776379980,"reportTime":"2026-04-16T23:00:00.000Z","temp":29.4,"dewp":-8.3,"wdir":230,"wspd":17,"wgst":23,"visib":"10+","altim":1010.6,"slp":1006.7,"qcField":4,"metarType":"METAR","rawOb":"METAR KLBB 162253Z 23017G23KT 10SM FEW120 BKN250 29/M08 A2984 RMK AO2 PK WND 25029/2216 SLP067 T02941083","lat":33.6658,"lon":-101.8233,"elev":996,"name":"Lubbock Intl Arpt, TX, US","cover":"BKN","clouds":[{"cover":"FEW","base":12000},{"cover":"BKN","base":25000}],"fltCat":"VFR"},{"icaoId":"KCVG","receiptTime":"2026-04-16T22:56:14.982Z","obsTime":1776379920,"reportTime":"2026-04-16T23:00:00.000Z","temp":23.9,"dewp":9.4,"wdir":250,"wspd":9,"wgst":20,"visib":"10+","altim":1012.6,"slp":1011.7,"qcField":4,"metarType":"METAR","rawOb":"METAR KCVG 162252Z 25009G20KT 10SM FEW070 24/09 A2990 RMK AO2 SLP117 T02390094","lat":39.0444,"lon":-84.6724,"elev":264,"name":"Cincinnati Intl, KY, US","cover":"FEW","clouds":[{"cover":"FEW","base":7000}],"fltCat":"VFR"},{"icaoId":"KDCA","receiptTime":"2026-04-16T22:56:14.995Z","obsTime":1776379920,"reportTime":"2026-04-16T23:00:00.000Z","temp":27.8,"dewp":16.1,"wdir":190,"wspd":10,"visib":"10+","altim":1006.9,"slp":1006.8,"qcField":4,"metarType":"METAR","rawOb":"METAR KDCA 162252Z 19010KT 10SM FEW075 FEW250 28/16 A2973 RMK AO2 SLP068 T02780161","lat":38.8472,"lon":-77.0345,"elev":4,"name":"Washington/Reagan-National Arpt, VA, US","cover":"FEW","clouds":[{"cover":"FEW","base":7500},{"cover":"FEW","base":25000}],"fltCat":"VFR"},{"icaoId":"KIAD","receiptTime":"2026-04-16T22:56:15.123Z","obsTime":1776379920,"reportTime":"2026-04-16T23:00:00.000Z","temp":31.1,"dewp":10.6,"wdir":210,"wspd":14,"wgst":21,"visib":"10+","altim":1007.2,"slp":1006.8,"qcField":4,"metarType":"METAR","rawOb":"METAR KIAD 162252Z 21014G21KT 10SM FEW250 31/11 A2974 RMK AO2 SLP068 T03110106","lat":38.9348,"lon":-77.4473,"elev":90,"name":"Washington/Dulles Intl, VA, US","cover":"FEW","clouds":[{"cover":"FEW","base":25000}],"fltCat":"VFR"},{"icaoId":"KOKC","receiptTime":"2026-04-16T22:56:15.404Z","obsTime":1776379920,"reportTime":"2026-04-16T23:00:00.000Z","temp":28.3,"dewp":10,"wdir":190,"wspd":15,"wgst":22,"visib":"10+","altim":1009.6,"slp":1007.9,"qcField":4,"metarType":"METAR","rawOb":"METAR KOKC 162252Z 19015G22KT 10SM FEW080 BKN250 28/10 A2981 RMK AO2 SLP079 T02830100","lat":35.3843,"lon":-97.6003,"elev":391,"name":"Oklahoma City/Will Rogers Intl, OK, US","cover":"BKN","clouds":[{"cover":"FEW","base":8000},{"cover":"BKN","base":25000}],"fltCat":"VFR"},{"icaoId":"KHRL","receiptTime":"2026-04-16T22:56:15.390Z","obsTime":1776379920,"reportTime":"2026-04-16T23:00:00.000Z","temp":28.9,"dewp":20,"wdir":140,"wspd":18,"wgst":25,"visib":"10+","altim":1012.3,"slp":1012.2,"qcField":4,"metarType":"METAR","rawOb":"METAR KHRL 162252Z 14018G25KT 10SM BKN046 29/20 A2989 RMK AO2 PK WND 14027/2227 SLP122 T02890200","lat":26.2303,"lon":-97.6556,"elev":9,"name":"Harlingen/Valley Intl, TX, US","cover":"BKN","clouds":[{"cover":"BKN","base":4600}],"fltCat":"VFR"},{"icaoId":"KABQ","receiptTime":"2026-04-16T22:56:15.892Z","obsTime":1776379920,"reportTime":"2026-04-16T23:00:00.000Z","temp":23.9,"dewp":-13.9,"wdir":180,"wspd":14,"wgst":24,"visib":"10+","altim":1011.6,"slp":1005.4,"qcField":4,"metarType":"METAR","rawOb":"METAR KABQ 162252Z 18014G24KT 10SM FEW160 SCT200 BKN250 24/M14 A2987 RMK AO2 PK WND 23032/2241 SLP054 T02391139","lat":35.0419,"lon":-106.6154,"elev":1620,"name":"Albuquerque Intl, NM, US","cover":"BKN","clouds":[{"cover":"FEW","base":16000},{"cover":"SCT","base":20000},{"cover":"BKN","base":25000}],"fltCat":"VFR"},{"icaoId":"KATL","receiptTime":"2026-04-16T22:56:15.345Z","obsTime":1776379920,"reportTime":"2026-04-16T23:00:00.000Z","temp":28.3,"dewp":8.3,"wdir":220,"wspd":12,"visib":"10+","altim":1016.7,"slp":1015.8,"qcField":12,"metarType":"METAR","rawOb":"METAR KATL 162252Z 22012KT 10SM FEW080 28/08 A3002 RMK AO2 SLP158 T02830083 $","lat":33.6297,"lon":-84.4422,"elev":309,"name":"Atlanta/Hartsfield-Jackson Intl, GA, US","cover":"FEW","clouds":[{"cover":"FEW","base":8000}],"fltCat":"VFR"},{"icaoId":"KABI","receiptTime":"2026-04-16T22:56:15.877Z","obsTime":1776379920,"reportTime":"2026-04-16T23:00:00.000Z","temp":27.8,"dewp":17.8,"wdir":150,"wspd":16,"wgst":24,"visib":"10+","altim":1011.6,"slp":1009,"qcField":4,"metarType":"METAR","rawOb":"METAR KABI 162252Z 15016G24KT 10SM FEW047 28/18 A2987 RMK AO2 SLP090 T02780178","lat":32.4106,"lon":-99.6821,"elev":543,"name":"Abilene Rgnl, TX, US","cover":"FEW","clouds":[{"cover":"FEW","base":4700}],"fltCat":"VFR"},{"icaoId":"KSPS","receiptTime":"2026-04-16T22:56:16.076Z","obsTime":1776379920,"reportTime":"2026-04-16T23:00:00.000Z","temp":30.6,"dewp":16.1,"wdir":180,"wspd":17,"wgst":24,"visib":"10+","altim":1009.2,"slp":1008,"qcField":4,"metarType":"METAR","rawOb":"METAR KSPS 162252Z 18017G24KT 10SM CLR 31/16 A2980 RMK AO2 PK WND 19026/2206 SLP080 T03060161","lat":33.9785,"lon":-98.493,"elev":310,"name":"Wichita Falls Rgnl, TX, US","cover":"CLR","clouds":[],"fltCat":"VFR"},{"icaoId":"KCLT","receiptTime":"2026-04-16T22:56:14.951Z","obsTime":1776379920,"reportTime":"2026-04-16T23:00:00.000Z","temp":28.9,"dewp":8.9,"wdir":230,"wspd":12,"wgst":23,"visib":"10+","altim":1013.6,"slp":1014.2,"qcField":4,"metarType":"METAR","rawOb":"METAR KCLT 162252Z 23012G23KT 10SM CLR 29/09 A2993 RMK AO2 SLP142 T02890089","lat":35.2225,"lon":-80.9543,"elev":223,"name":"Charlotte/Douglas Intl, NC, US","cover":"CLR","clouds":[],"fltCat":"VFR"},{"icaoId":"KMKE","receiptTime":"2026-04-16T22:56:15.723Z","obsTime":1776379920,"reportTime":"2026-04-16T23:00:00.000Z","temp":8.9,"dewp":8.9,"wdir":30,"wspd":5,"visib":0.25,"altim":1011.9,"slp":1011.9,"qcField":12,"wxString":"FG","metarType":"METAR","rawOb":"METAR KMKE 162252Z 03005KT 1/4SM R01L/2000V3500FT FG OVC003 09/09 A2988 RMK AO2 SLP119 T00890089 $","lat":42.9549,"lon":-87.9045,"elev":203,"name":"Milwaukee/Mitchell Intl, WI, US","cover":"OVC","clouds":[{"cover":"OVC","base":300}],"fltCat":"LIFR"},{"icaoId":"KPHX","receiptTime":"2026-04-16T22:54:08.402Z","obsTime":1776379860,"reportTime":"2026-04-16T23:00:00.000Z","temp":30,"dewp":-5.6,"wdir":300,"wspd":11,"wgst":18,"visib":"10+","altim":1007.9,"slp":1006.3,"qcField":4,"metarType":"METAR","rawOb":"METAR KPHX 162251Z 30011G18KT 10SM FEW160 BKN250 30/M06 A2976 RMK AO2 SLP063 T03001056","lat":33.4278,"lon":-112.0037,"elev":338,"name":"Phoenix/Sky Harbor Intl, AZ, US","cover":"BKN","clouds":[{"cover":"FEW","base":16000},{"cover":"BKN","base":25000}],"fltCat":"VFR"},{"icaoId":"KOXR","receiptTime":"2026-04-16T22:54:08.387Z","obsTime":1776379860,"reportTime":"2026-04-16T23:00:00.000Z","temp":18.3,"dewp":13.3,"wdir":"VRB","wspd":6,"visib":"10+","altim":1012.3,"slp":1012,"qcField":12,"metarType":"METAR","rawOb":"METAR KOXR 162251Z VRB06KT 10SM CLR 18/13 A2989 RMK AO2 SLP120 T01830133 $","lat":34.2001,"lon":-119.2042,"elev":12,"name":"Oxnard Arpt, CA, US","cover":"CLR","clouds":[],"fltCat":"VFR"},{"icaoId":"KCMH","receiptTime":"2026-04-16T22:54:07.917Z","obsTime":1776379860,"reportTime":"2026-04-16T23:00:00.000Z","temp":24.4,"dewp":8.9,"wdir":260,"wspd":12,"wgst":23,"visib":"10+","altim":1011.3,"slp":1010.5,"qcField":4,"metarType":"METAR","rawOb":"METAR KCMH 162251Z 26012G23KT 10SM FEW065 24/09 A2986 RMK AO2 PK WND 25027/2207 SLP105 T02440089","lat":39.9907,"lon":-82.877,"elev":257,"name":"Columbus/Glenn Intl, OH, US","cover":"FEW","clouds":[{"cover":"FEW","base":6500}],"fltCat":"VFR"},{"icaoId":"KORF","receiptTime":"2026-04-16T22:54:08.371Z","obsTime":1776379860,"reportTime":"2026-04-16T23:00:00.000Z","temp":30,"dewp":12.8,"wdir":210,"wspd":14,"visib":"10+","altim":1010.2,"slp":1010.2,"qcField":4,"metarType":"METAR","rawOb":"METAR KORF 162251Z 21014KT 10SM CLR 30/13 A2983 RMK AO2 SLP102 T03000128","lat":36.9037,"lon":-76.1927,"elev":5,"name":"Norfolk Intl, VA, US","cover":"CLR","clouds":[],"fltCat":"VFR"},{"icaoId":"KACT","receiptTime":"2026-04-16T22:54:07.642Z","obsTime":1776379860,"reportTime":"2026-04-16T23:00:00.000Z","temp":28.9,"dewp":18.9,"wdir":180,"wspd":11,"visib":"10+","altim":1012.3,"slp":1011.4,"qcField":4,"metarType":"METAR","rawOb":"METAR KACT 162251Z 18011KT 10SM FEW055 29/19 A2989 RMK AO2 SLP114 T02890189","lat":31.618,"lon":-97.2283,"elev":150,"name":"Waco Rgnl, TX, US","cover":"FEW","clouds":[{"cover":"FEW","base":5500}],"fltCat":"VFR"},{"icaoId":"KVNY","receiptTime":"2026-04-16T22:54:07.455Z","obsTime":1776379860,"reportTime":"2026-04-16T23:00:00.000Z","temp":22.2,"dewp":6.7,"wdir":170,"wspd":8,"visib":"10+","altim":1011.3,"slp":1010.5,"qcField":12,"metarType":"METAR","rawOb":"METAR KVNY 162251Z 17008KT 10SM CLR 22/07 A2986 RMK AO2 SLP105 T02220067 $","lat":34.2121,"lon":-118.4915,"elev":241,"name":"Van Nuys Arpt, CA, US","cover":"CLR","clouds":[],"fltCat":"VFR"},{"icaoId":"KSTL","receiptTime":"2026-04-16T22:54:07.386Z","obsTime":1776379860,"reportTime":"2026-04-16T23:00:00.000Z","temp":27.8,"dewp":6.7,"wdir":270,"wspd":6,"visib":"10+","altim":1011.6,"slp":1010.6,"qcField":12,"metarType":"METAR","rawOb":"METAR KSTL 162251Z 27006KT 10SM SCT050 SCT250 28/07 A2987 RMK AO2 SLP106 T02780067 $","lat":38.7525,"lon":-90.3734,"elev":163,"name":"St Louis/Lambert Intl, MO, US","cover":"SCT","clouds":[{"cover":"SCT","base":5000},{"cover":"SCT","base":25000}],"fltCat":"VFR"},{"icaoId":"KSAT","receiptTime":"2026-04-16T22:54:07.274Z","obsTime":1776379860,"reportTime":"2026-04-16T23:00:00.000Z","temp":30,"dewp":17.2,"wdir":160,"wspd":13,"visib":"10+","altim":1012.3,"slp":1010.4,"qcField":4,"metarType":"METAR","rawOb":"METAR KSAT 162251Z 16013KT 10SM FEW045 BKN070 BKN250 30/17 A2989 RMK AO2 SLP104 T03000172","lat":29.5443,"lon":-98.4839,"elev":246,"name":"San Antonio Intl, TX, US","cover":"BKN","clouds":[{"cover":"FEW","base":4500},{"cover":"BKN","base":7000},{"cover":"BKN","base":25000}],"fltCat":"VFR"},{"icaoId":"KSAN","receiptTime":"2026-04-16T22:54:07.243Z","obsTime":1776379860,"reportTime":"2026-04-16T23:00:00.000Z","temp":18.9,"dewp":12.2,"wdir":280,"wspd":8,"wgst":17,"visib":"10+","altim":1013.6,"slp":1013.3,"qcField":12,"metarType":"METAR","rawOb":"METAR KSAN 162251Z 28008G17KT 10SM FEW020 BKN250 19/12 A2993 RMK AO2 SLP133 T01890122 $","lat":32.7364,"lon":-117.1973,"elev":3,"name":"San Diego Intl Arpt, CA, US","cover":"BKN","clouds":[{"cover":"FEW","base":2000},{"cover":"BKN","base":25000}],"fltCat":"VFR"},{"icaoId":"KSAD","receiptTime":"2026-04-16T22:54:07.228Z","obsTime":1776379860,"reportTime":"2026-04-16T23:00:00.000Z","temp":28.3,"dewp":-11.7,"wdir":330,"wspd":5,"visib":"10+","altim":1009.9,"slp":1006.2,"qcField":6,"metarType":"METAR","rawOb":"METAR KSAD 162251Z AUTO 33005KT 10SM CLR 28/M12 A2982 RMK AO2 SLP062 T02831117","lat":32.8565,"lon":-109.636,"elev":937,"name":"Safford Rgnl, AZ, US","cover":"CLR","clouds":[],"fltCat":"VFR"},{"icaoId":"KROW","receiptTime":"2026-04-16T22:54:07.217Z","obsTime":1776379860,"reportTime":"2026-04-16T23:00:00.000Z","temp":28.3,"dewp":-8.9,"wdir":180,"wspd":17,"wgst":25,"visib":"10+","altim":1010.2,"slp":1005.5,"qcField":4,"metarType":"METAR","rawOb":"METAR KROW 162251Z 18017G25KT 10SM CLR 28/M09 A2983 RMK AO2 PK WND 21032/2222 SLP055 T02831089","lat":33.3074,"lon":-104.5082,"elev":1105,"name":"Roswell/Ind Arpt, NM, US","cover":"CLR","clouds":[],"fltCat":"VFR"},{"icaoId":"KRDU","receiptTime":"2026-04-16T22:54:07.202Z","obsTime":1776379860,"reportTime":"2026-04-16T23:00:00.000Z","temp":30.6,"dewp":9.4,"wdir":230,"wspd":13,"wgst":22,"visib":"10+","altim":1012.3,"slp":1011.7,"qcField":4,"metarType":"METAR","rawOb":"METAR KRDU 162251Z 23013G22KT 10SM FEW250 31/09 A2989 RMK AO2 SLP117 T03060094","lat":35.8923,"lon":-78.782,"elev":121,"name":"Raleigh-Durham Intl, NC, US","cover":"FEW","clouds":[{"cover":"FEW","base":25000}],"fltCat":"VFR"},{"icaoId":"KPVD","receiptTime":"2026-04-16T22:54:07.162Z","obsTime":1776379860,"reportTime":"2026-04-16T23:00:00.000Z","temp":25.6,"dewp":14.4,"wdir":210,"wspd":11,"visib":"10+","altim":1007.5,"slp":1007.3,"qcField":12,"metarType":"METAR","rawOb":"METAR KPVD 162251Z 21011KT 10SM FEW060 BKN250 26/14 A2975 RMK AO2 SLP073 T02560144 $","lat":41.7225,"lon":-71.4325,"elev":15,"name":"Providence/Green Mem, RI, US","cover":"BKN","clouds":[{"cover":"FEW","base":6000},{"cover":"BKN","base":25000}],"fltCat":"VFR"},{"icaoId":"KPIT","receiptTime":"2026-04-16T22:54:08.429Z","obsTime":1776379860,"reportTime":"2026-04-16T23:00:00.000Z","temp":19.4,"dewp":16.7,"wdir":230,"wspd":4,"visib":"10+","altim":1010.9,"slp":1011,"qcField":4,"precip":0.01,"metarType":"METAR","rawOb":"METAR KPIT 162251Z 23004KT 10SM BKN060 OVC090 19/17 A2985 RMK AO2 RAE44 SLP110 P0001 T01940167","lat":40.4814,"lon":-80.2083,"elev":339,"name":"Pittsburgh Intl, PA, US","cover":"OVC","clouds":[{"cover":"BKN","base":6000},{"cover":"OVC","base":9000}],"fltCat":"VFR"},{"icaoId":"KORD","receiptTime":"2026-04-16T22:54:08.354Z","obsTime":1776379860,"reportTime":"2026-04-16T23:00:00.000Z","temp":17.8,"dewp":12.8,"wdir":50,"wspd":11,"visib":"10+","altim":1010.9,"slp":1010.7,"qcField":12,"metarType":"METAR","rawOb":"METAR KORD 162251Z 05011KT 10SM BKN047 18/13 A2985 RMK AO2 SLP107 T01780128 $","lat":41.9602,"lon":-87.9316,"elev":202,"name":"Chicago/O'Hare Intl, IL, US","cover":"BKN","clouds":[{"cover":"BKN","base":4700}],"fltCat":"VFR"},{"icaoId":"KLGU","receiptTime":"2026-04-16T22:54:08.279Z","obsTime":1776379860,"reportTime":"2026-04-16T23:00:00.000Z","temp":0.6,"dewp":-5.6,"wdir":0,"wspd":0,"visib":"10+","altim":1015,"slp":1014.8,"qcField":6,"precip":0.005,"metarType":"METAR","rawOb":"METAR KLGU 162251Z AUTO 00000KT 10SM BKN070 OVC085 01/M06 A2997 RMK AO2 SNE24 SLP148 P0000 T00061056","lat":41.7865,"lon":-111.8519,"elev":1359,"name":"Logan/Cache Arpt, UT, US","cover":"OVC","clouds":[{"cover":"BKN","base":7000},{"cover":"OVC","base":8500}],"fltCat":"VFR"},{"icaoId":"KJFK","receiptTime":"2026-04-16T22:54:08.261Z","obsTime":1776379860,"reportTime":"2026-04-16T23:00:00.000Z","temp":18.3,"dewp":12.2,"wdir":180,"wspd":15,"visib":"10+","altim":1007.5,"slp":1007.2,"qcField":4,"metarType":"METAR","rawOb":"METAR KJFK 162251Z 18015KT 10SM FEW065 BKN250 18/12 A2975 RMK AO2 SLP072 T01830122","lat":40.6392,"lon":-73.7639,"elev":3,"name":"New York/JF Kennedy Intl, NY, US","cover":"BKN","clouds":[{"cover":"FEW","base":6500},{"cover":"BKN","base":25000}],"fltCat":"VFR"},{"icaoId":"KIGM","receiptTime":"2026-04-16T22:54:08.187Z","obsTime":1776379860,"reportTime":"2026-04-16T23:00:00.000Z","temp":21.7,"dewp":-6.1,"wdir":210,"wspd":22,"wgst":31,"visib":"10+","altim":1010.6,"slp":1005.3,"qcField":6,"metarType":"METAR","rawOb":"METAR KIGM 162251Z AUTO 21022G31KT 10SM CLR 22/M06 A2984 RMK AO2 PK WND 22035/2154 SLP053 T02171061","lat":35.2575,"lon":-113.9341,"elev":1045,"name":"Kingman Arpt, AZ, US","cover":"CLR","clouds":[],"fltCat":"VFR"},{"icaoId":"KLGA","receiptTime":"2026-04-16T22:56:15.172Z","obsTime":1776379860,"reportTime":"2026-04-16T23:00:00.000Z","temp":25.6,"dewp":11.7,"wdir":180,"wspd":11,"visib":"10+","altim":1006.5,"slp":1006.5,"qcField":4,"metarType":"METAR","rawOb":"METAR KLGA 162251Z 18011KT 10SM FEW055 FEW200 BKN250 26/12 A2972 RMK AO2 SLP065 T02560117","lat":40.7794,"lon":-73.8803,"elev":9,"name":"New York/La Guardia Arpt, NY, US","cover":"BKN","clouds":[{"cover":"FEW","base":5500},{"cover":"FEW","base":20000},{"cover":"BKN","base":25000}],"fltCat":"VFR"},{"icaoId":"KMYL","receiptTime":"2026-04-16T22:54:08.334Z","obsTime":1776379860,"reportTime":"2026-04-16T23:00:00.000Z","temp":-1.1,"dewp":-6.7,"wdir":360,"wspd":8,"visib":5,"altim":1017,"slp":1020.2,"qcField":6,"wxString":"-SN","precip":0.005,"metarType":"METAR","rawOb":"METAR KMYL 162251Z AUTO 36008KT 330V040 5SM -SN BKN030 BKN041 OVC100 M01/M07 A3003 RMK AO2 PK WND 36026/2229 SNB2156E06B32 SLP202 P0000 T10111067","lat":44.8943,"lon":-116.0998,"elev":1532,"name":"McCall Muni, ID, US","cover":"OVC","clouds":[{"cover":"BKN","base":3000},{"cover":"BKN","base":4100},{"cover":"OVC","base":10000}],"fltCat":"MVFR"},{"icaoId":"KCLE","receiptTime":"2026-04-16T22:54:07.883Z","obsTime":1776379860,"reportTime":"2026-04-16T23:00:00.000Z","temp":21.1,"dewp":14.4,"wdir":220,"wspd":10,"wgst":16,"visib":"10+","altim":1009.6,"slp":1010.5,"qcField":12,"metarType":"METAR","rawOb":"METAR KCLE 162251Z 22010G16KT 10SM SCT055 21/14 A2981 RMK AO2 SLP105 T02110144 $","lat":41.4057,"lon":-81.8519,"elev":237,"name":"Cleveland/Hopkins Intl, OH, US","cover":"SCT","clouds":[{"cover":"SCT","base":5500}],"fltCat":"VFR"},{"icaoId":"KBDL","receiptTime":"2026-04-16T22:54:07.765Z","obsTime":1776379860,"reportTime":"2026-04-16T23:00:00.000Z","temp":28.3,"dewp":15,"wdir":190,"wspd":11,"wgst":20,"visib":"10+","altim":1005.8,"slp":1005.7,"qcField":4,"metarType":"METAR","rawOb":"METAR KBDL 162251Z 19011G20KT 10SM FEW070 FEW110 BKN250 28/15 A2970 RMK AO2 SLP057 T02830150","lat":41.9374,"lon":-72.682,"elev":52,"name":"Hartford/Bradley Intl, CT, US","cover":"BKN","clouds":[{"cover":"FEW","base":7000},{"cover":"FEW","base":11000},{"cover":"BKN","base":25000}],"fltCat":"VFR"},{"icaoId":"KEWR","receiptTime":"2026-04-16T22:54:08.101Z","obsTime":1776379860,"reportTime":"2026-04-16T23:00:00.000Z","temp":29.4,"dewp":13.9,"wdir":150,"wspd":10,"visib":"10+","altim":1006.5,"slp":1006.2,"qcField":4,"metarType":"METAR","rawOb":"METAR KEWR 162251Z 15010KT 10SM FEW060 FEW200 BKN260 29/14 A2972 RMK AO2 SLP062 T02940139","lat":40.6828,"lon":-74.1692,"elev":2,"name":"Newark Intl, NJ, US","cover":"BKN","clouds":[{"cover":"FEW","base":6000},{"cover":"FEW","base":20000},{"cover":"BKN","base":26000}],"fltCat":"VFR"},{"icaoId":"KELP","receiptTime":"2026-04-16T22:54:08.063Z","obsTime":1776379860,"reportTime":"2026-04-16T23:00:00.000Z","temp":28.3,"dewp":-10,"wdir":210,"wspd":14,"wgst":23,"visib":"10+","altim":1011.9,"slp":1006,"qcField":12,"metarType":"METAR","rawOb":"METAR KELP 162251Z 21014G23KT 10SM FEW200 FEW250 28/M10 A2988 RMK AO2 SLP060 T02831100 $","lat":31.8123,"lon":-106.3774,"elev":1205,"name":"El Paso Intl, TX, US","cover":"FEW","clouds":[{"cover":"FEW","base":20000},{"cover":"FEW","base":25000}],"fltCat":"VFR"},{"icaoId":"KCRP","receiptTime":"2026-04-16T22:54:07.983Z","obsTime":1776379860,"reportTime":"2026-04-16T23:00:00.000Z","temp":28.3,"dewp":20,"wdir":140,"wspd":21,"wgst":28,"visib":"10+","altim":1013,"slp":1012.7,"qcField":4,"metarType":"METAR","rawOb":"METAR KCRP 162251Z 14021G28KT 10SM FEW017 FEW025 FEW030 28/20 A2991 RMK AO2 PK WND 14029/2231 SLP127 T02830200","lat":27.7734,"lon":-97.513,"elev":11,"name":"Corpus Christi Intl, TX, US","cover":"FEW","clouds":[{"cover":"FEW","base":1700},{"cover":"FEW","base":2500},{"cover":"FEW","base":3000}],"fltCat":"VFR"},{"icaoId":"KHOB","receiptTime":"2026-04-16T22:51:36.493Z","obsTime":1776379800,"reportTime":"2026-04-16T23:00:00.000Z","temp":29,"dewp":-11,"wdir":190,"wspd":12,"visib":"10+","altim":1011.6,"qcField":0,"metarType":"METAR","rawOb":"METAR KHOB 162250Z 19012KT 10SM CLR 29/M11 A2987","lat":32.6797,"lon":-103.2222,"elev":1112,"name":"Hobbs Arpt, NM, US","cover":"CLR","clouds":[],"fltCat":"VFR"},{"icaoId":"KIFP","receiptTime":"2026-04-16T22:51:05.485Z","obsTime":1776379800,"reportTime":"2026-04-16T23:00:00.000Z","temp":30,"dewp":-3,"wdir":170,"wspd":24,"visib":"10+","altim":1005.5,"qcField":0,"metarType":"METAR","rawOb":"METAR KIFP 162250Z 17024KT 10SM CLR 30/M03 A2969","lat":35.1487,"lon":-114.5611,"elev":210,"name":"Bullhead City Intl, AZ, US","cover":"CLR","clouds":[],"fltCat":"VFR"},{"icaoId":"KADM","receiptTime":"2026-04-16T22:53:47.750Z","obsTime":1776379800,"reportTime":"2026-04-16T23:00:00.000Z","temp":28,"dewp":19,"wdir":190,"wspd":13,"wgst":20,"visib":"10+","altim":1010.6,"qcField":0,"metarType":"METAR","rawOb":"METAR KADM 162250Z 19013G20KT 10SM FEW044 28/19 A2984","lat":34.3007,"lon":-97.0089,"elev":223,"name":"Ardmore Muni, OK, US","cover":"FEW","clouds":[{"cover":"FEW","base":4400}],"fltCat":"VFR"},{"icaoId":"KAEG","receiptTime":"2026-04-16T22:53:17.603Z","obsTime":1776379800,"reportTime":"2026-04-16T23:00:00.000Z","temp":23,"dewp":-21,"wdir":230,"wspd":9,"wgst":18,"visib":"10+","altim":1012.3,"qcField":0,"metarType":"METAR","rawOb":"METAR KAEG 162250Z 23009G18KT 10SM CLR 23/M21 A2989","lat":35.15,"lon":-106.7929,"elev":1771,"name":"Albuquerque/Double Eagle Arpt, NM, US","cover":"CLR","clouds":[],"fltCat":"VFR"},{"icaoId":"KBJC","receiptTime":"2026-04-16T22:49:57.515Z","obsTime":1776379740,"reportTime":"2026-04-16T23:00:00.000Z","temp":22,"dewp":-9,"wdir":190,"wspd":4,"visib":"10+","altim":1003.8,"qcField":0,"metarType":"METAR","rawOb":"METAR KBJC 162249Z 19004KT 10SM BKN140 22/M09 A2964","lat":39.9008,"lon":-105.1042,"elev":1694,"name":"Rocky Mtn Metro, CO, US","cover":"BKN","clouds":[{"cover":"BKN","base":14000}],"fltCat":"VFR"},{"icaoId":"KIWA","receiptTime":"2026-04-16T22:49:57.677Z","obsTime":1776379680,"reportTime":"2026-04-16T23:00:00.000Z","temp":30,"dewp":-10,"wdir":300,"wspd":6,"visib":"10+","altim":1008.9,"qcField":0,"metarType":"METAR","rawOb":"METAR KIWA 162248Z 30006KT 10SM CLR 30/M10 A2979","lat":33.3008,"lon":-111.6437,"elev":420,"name":"Phoenix/Mesa Gateway Arpt, AZ, US","cover":"CLR","clouds":[],"fltCat":"VFR"},{"icaoId":"KCHD","receiptTime":"2026-04-16T22:58:56.903Z","obsTime":1776379620,"reportTime":"2026-04-16T23:00:00.000Z","temp":31,"dewp":-6,"wdir":240,"wspd":7,"visib":"10+","altim":1008.5,"qcField":0,"metarType":"METAR","rawOb":"METAR KCHD 162247Z 24007KT 10SM CLR 31/M06 A2978","lat":33.2669,"lon":-111.8086,"elev":378,"name":"Chandler Muni, AZ, US","cover":"CLR","clouds":[],"fltCat":"VFR"},{"icaoId":"KGYR","receiptTime":"2026-04-16T22:47:46.498Z","obsTime":1776379620,"reportTime":"2026-04-16T23:00:00.000Z","temp":30,"dewp":-3,"wdir":260,"wspd":12,"visib":"10+","altim":1008.5,"qcField":0,"metarType":"METAR","rawOb":"METAR KGYR 162247Z 26012KT 10SM FEW160 BKN250 30/M03 A2978","lat":33.428,"lon":-112.368,"elev":292,"name":"Phoenix/Goodyear Muni, AZ, US","cover":"BKN","clouds":[{"cover":"FEW","base":16000},{"cover":"BKN","base":25000}],"fltCat":"VFR"},{"icaoId":"KSUN","receiptTime":"2026-04-16T22:53:16.009Z","obsTime":1776379620,"reportTime":"2026-04-16T23:00:00.000Z","temp":1,"dewp":-12,"wdir":290,"wspd":5,"visib":"10+","altim":1014,"qcField":0,"metarType":"METAR","rawOb":"METAR KSUN 162247Z 29005KT 10SM SCT075 01/M12 A2994","lat":43.4969,"lon":-114.2923,"elev":1619,"name":"Hailey/Friedman Mem, ID, US","cover":"SCT","clouds":[{"cover":"SCT","base":7500}],"fltCat":"VFR"},{"icaoId":"KRYN","receiptTime":"2026-04-16T22:45:49.278Z","obsTime":1776379500,"reportTime":"2026-04-16T23:00:00.000Z","temp":30,"dewp":-14,"wdir":210,"wspd":7,"wgst":18,"visib":"10+","altim":1010.2,"qcField":0,"metarType":"METAR","rawOb":"METAR KRYN 162245Z 21007G18KT 10SM CLR 30/M14 A2983","lat":32.1418,"lon":-111.1767,"elev":731,"name":"Tucson/Ryan Fld, AZ, US","cover":"CLR","clouds":[],"fltCat":"VFR"}]