[{"icaoId":"KHII","receiptTime":"2026-04-09T19:20:25.124Z","obsTime":1775762100,"reportTime":"2026-04-09T19:15:00.000Z","temp":32,"dewp":-1,"wdir":220,"wspd":8,"wgst":13,"visib":"10+","altim":1010.2,"qcField":6,"metarType":"METAR","rawOb":"METAR KHII 091915Z AUTO 22008G13KT 10SM CLR 32/M01 A2983 RMK AO2","lat":34.5659,"lon":-114.3522,"elev":241,"name":"Lake Havasu City Arpt, AZ, US","cover":"CLR","clouds":[],"fltCat":"VFR"},{"icaoId":"KSOW","receiptTime":"2026-04-09T19:18:11.162Z","obsTime":1775762100,"reportTime":"2026-04-09T19:15:00.000Z","temp":22,"dewp":-5,"wdir":240,"wspd":18,"wgst":26,"visib":"10+","altim":1021.4,"qcField":6,"metarType":"METAR","rawOb":"METAR KSOW 091915Z AUTO 24018G26KT 10SM CLR 22/M05 A3016 RMK AO2","lat":34.2686,"lon":-110.0019,"elev":1954,"name":"Show Low Muni, AZ, US","cover":"CLR","clouds":[],"fltCat":"VFR"},{"icaoId":"KSEZ","receiptTime":"2026-04-09T19:20:17.627Z","obsTime":1775762100,"reportTime":"2026-04-09T19:15:00.000Z","temp":27,"dewp":-5,"wdir":210,"wspd":12,"wgst":18,"visib":"10+","altim":1018,"qcField":6,"metarType":"METAR","rawOb":"METAR KSEZ 091915Z AUTO 21012G18KT 160V250 10SM CLR 27/M05 A3006 RMK AO2","lat":34.8467,"lon":-111.7884,"elev":1455,"name":"Sedona Arpt, AZ, US","cover":"CLR","clouds":[],"fltCat":"VFR"},{"icaoId":"KFLG","receiptTime":"2026-04-09T19:00:31.326Z","obsTime":1775761020,"reportTime":"2026-04-09T19:00:00.000Z","temp":18.3,"dewp":-5.6,"wdir":210,"wspd":15,"wgst":26,"visib":"10+","altim":1022.1,"slp":1014.9,"qcField":4,"metarType":"METAR","rawOb":"METAR KFLG 091857Z 21015G26KT 10SM CLR 18/M06 A3018 RMK AO2 PK WND 21032/1801 SLP149 T01831056","lat":35.1443,"lon":-111.6664,"elev":2134,"name":"Flagstaff/Pulliam Arpt, AZ, US","cover":"CLR","clouds":[],"fltCat":"VFR"},{"icaoId":"KDUG","receiptTime":"2026-04-09T19:02:09.709Z","obsTime":1775760960,"reportTime":"2026-04-09T19:00:00.000Z","temp":27.2,"dewp":-2.8,"wdir":"VRB","wspd":4,"visib":"10+","altim":1018,"slp":1011.5,"qcField":38,"metarType":"METAR","rawOb":"METAR KDUG 091856Z AUTO VRB04KT 10SM CLR 27/M03 A3006 RMK AO2 SLP115 T02721028 TSNO","lat":31.4725,"lon":-109.6022,"elev":1260,"name":"Douglas/Bisbee Intl, AZ, US","cover":"CLR","clouds":[],"fltCat":"VFR"},{"icaoId":"KCGZ","receiptTime":"2026-04-09T18:58:14.326Z","obsTime":1775760960,"reportTime":"2026-04-09T19:00:00.000Z","temp":32.2,"dewp":-3.3,"wdir":190,"wspd":9,"visib":"10+","altim":1013.3,"slp":1011.5,"qcField":14,"metarType":"METAR","rawOb":"METAR KCGZ 091856Z AUTO 19009KT 10SM CLR 32/M03 A2992 RMK AO2 SLP115 T03221033 $","lat":32.9531,"lon":-111.7725,"elev":444,"name":"Casa Granda Muni, AZ, US","cover":"CLR","clouds":[],"fltCat":"VFR"},{"icaoId":"KINW","receiptTime":"2026-04-09T19:00:22.127Z","obsTime":1775760960,"reportTime":"2026-04-09T19:00:00.000Z","temp":25,"dewp":-4.4,"visib":"10+","altim":1018,"slp":1011.7,"qcField":6,"metarType":"METAR","rawOb":"METAR KINW 091856Z AUTO 10SM CLR 25/M04 A3006 RMK AO2 SLP117 T02501044","lat":35.0279,"lon":-110.7221,"elev":1492,"name":"Winslow/Lindberg Rgnl, AZ, US","cover":"CLR","clouds":[],"fltCat":"VFR"},{"icaoId":"KLUF","receiptTime":"2026-04-09T19:02:07.505Z","obsTime":1775760900,"reportTime":"2026-04-09T19:00:00.000Z","temp":31.4,"dewp":-3.9,"wdir":190,"wspd":4,"visib":"10+","altim":1011.6,"slp":1010.2,"qcField":44,"metarType":"METAR","rawOb":"METAR KLUF 091855Z 19004KT 10SM FEW170 SCT200 31/M04 A2987 RMK AO2A SLP102 T03141039 TSNO $","lat":33.538,"lon":-112.38,"elev":333,"name":"Phoenix/Luke AFB, AZ, US","cover":"SCT","clouds":[{"cover":"FEW","base":17000},{"cover":"SCT","base":20000}],"fltCat":"VFR"},{"icaoId":"KOLS","receiptTime":"2026-04-09T18:58:33.125Z","obsTime":1775760840,"reportTime":"2026-04-09T19:00:00.000Z","temp":27.2,"dewp":-2.2,"wdir":0,"wspd":0,"visib":"10+","altim":1017.4,"slp":1011.2,"qcField":6,"metarType":"METAR","rawOb":"METAR KOLS 091854Z AUTO 00000KT 10SM CLR 27/M02 A3004 RMK AO2 SLP112 T02721022","lat":31.4208,"lon":-110.8465,"elev":1194,"name":"Nogales Intl, AZ, US","cover":"CLR","clouds":[],"fltCat":"VFR"},{"icaoId":"KFFZ","receiptTime":"2026-04-09T18:58:23.993Z","obsTime":1775760840,"reportTime":"2026-04-09T19:00:00.000Z","temp":31.1,"dewp":-1.7,"wdir":210,"wspd":8,"visib":"10+","altim":1012.6,"slp":1010.3,"qcField":4,"metarType":"METAR","rawOb":"METAR KFFZ 091854Z 21008KT 10SM CLR 31/M02 A2990 RMK AO2 SLP103 T03111017","lat":33.4659,"lon":-111.7212,"elev":420,"name":"Mesa/Falcon Fld, AZ, US","cover":"CLR","clouds":[],"fltCat":"VFR"},{"icaoId":"KSJN","receiptTime":"2026-04-09T18:58:06.542Z","obsTime":1775760840,"reportTime":"2026-04-09T19:00:00.000Z","temp":22.2,"dewp":-5,"visib":"10+","altim":1019,"slp":1011.5,"qcField":6,"metarType":"METAR","rawOb":"METAR KSJN 091854Z AUTO 10SM SCT110 22/M05 A3009 RMK AO2 SLP115 T02221050","lat":34.5184,"lon":-109.3801,"elev":1747,"name":"St Johns Ind Arpt, AZ, US","cover":"SCT","clouds":[{"cover":"SCT","base":11000}],"fltCat":"VFR"},{"icaoId":"KGCN","receiptTime":"2026-04-09T18:58:09.742Z","obsTime":1775760840,"reportTime":"2026-04-09T19:00:00.000Z","temp":20,"dewp":-6.1,"wdir":210,"wspd":15,"wgst":25,"visib":"10+","altim":1020.7,"slp":1014.4,"qcField":4,"metarType":"METAR","rawOb":"METAR KGCN 091854Z 21015G25KT 10SM CLR 20/M06 A3014 RMK AO2 PK WND 20029/1811 SLP144 T02001061","lat":35.9458,"lon":-112.1554,"elev":1993,"name":"Grand Canyon Park Arpt, AZ, US","cover":"CLR","clouds":[],"fltCat":"VFR"},{"icaoId":"KTUS","receiptTime":"2026-04-09T18:56:28.851Z","obsTime":1775760780,"reportTime":"2026-04-09T19:00:00.000Z","temp":30.6,"dewp":-3.3,"wdir":30,"wspd":5,"visib":"10+","altim":1015.3,"slp":1010.7,"qcField":4,"metarType":"METAR","rawOb":"METAR KTUS 091853Z 03005KT 10SM CLR 31/M03 A2998 RMK AO2 SLP107 T03061033","lat":32.1315,"lon":-110.9564,"elev":776,"name":"Tucson Intl Arpt, AZ, US","cover":"CLR","clouds":[],"fltCat":"VFR"},{"icaoId":"KSDL","receiptTime":"2026-04-09T18:56:28.964Z","obsTime":1775760780,"reportTime":"2026-04-09T19:00:00.000Z","temp":30.6,"dewp":-1.1,"wdir":180,"wspd":7,"visib":"10+","altim":1013.3,"slp":1010.9,"qcField":4,"metarType":"METAR","rawOb":"METAR KSDL 091853Z 18007KT 140V220 10SM CLR 31/M01 A2992 RMK AO2 SLP109 T03061011","lat":33.6123,"lon":-111.9232,"elev":438,"name":"Scottsdale Muni, AZ, US","cover":"CLR","clouds":[],"fltCat":"VFR"},{"icaoId":"KPGA","receiptTime":"2026-04-09T18:56:34.989Z","obsTime":1775760780,"reportTime":"2026-04-09T19:00:00.000Z","temp":24.4,"dewp":-6.7,"wdir":360,"wspd":10,"wgst":17,"visib":"10+","altim":1015.7,"slp":1010,"qcField":6,"metarType":"METAR","rawOb":"METAR KPGA 091853Z AUTO 36010G17KT 10SM CLR 24/M07 A2999 RMK AO2 SLP100 T02441067","lat":36.9211,"lon":-111.4487,"elev":1310,"name":"Page Muni, AZ, US","cover":"CLR","clouds":[],"fltCat":"VFR"},{"icaoId":"KPRC","receiptTime":"2026-04-09T18:56:29.937Z","obsTime":1775760780,"reportTime":"2026-04-09T19:00:00.000Z","temp":23.9,"dewp":-5.6,"wdir":190,"wspd":13,"wgst":24,"visib":"10+","altim":1018.7,"slp":1011.3,"qcField":4,"metarType":"METAR","rawOb":"METAR KPRC 091853Z 19013G24KT 10SM CLR 24/M06 A3008 RMK AO2 PK WND 22027/1820 SLP113 T02391056","lat":34.6491,"lon":-112.4223,"elev":1528,"name":"Prescott/Love Fld, AZ, US","cover":"CLR","clouds":[],"fltCat":"VFR"},{"icaoId":"KDVT","receiptTime":"2026-04-09T18:56:31.005Z","obsTime":1775760780,"reportTime":"2026-04-09T19:00:00.000Z","temp":30.6,"dewp":-1.7,"wdir":0,"wspd":0,"visib":"10+","altim":1013,"slp":1010.6,"qcField":4,"metarType":"METAR","rawOb":"METAR KDVT 091853Z 00000KT 10SM FEW110 31/M02 A2991 RMK AO2 SLP106 T03061017","lat":33.6902,"lon":-112.0662,"elev":454,"name":"Phoenix/Deer Valley Arpt, AZ, US","cover":"FEW","clouds":[{"cover":"FEW","base":11000}],"fltCat":"VFR"},{"icaoId":"KIGM","receiptTime":"2026-04-09T18:54:08.897Z","obsTime":1775760660,"reportTime":"2026-04-09T19:00:00.000Z","temp":27.2,"dewp":-3.3,"wdir":210,"wspd":20,"wgst":32,"visib":"10+","altim":1014.6,"slp":1008,"qcField":6,"metarType":"METAR","rawOb":"METAR KIGM 091851Z AUTO 21020G32KT 10SM CLR 27/M03 A2996 RMK AO2 PK WND 24032/1851 SLP080 T02721033","lat":35.2575,"lon":-113.9341,"elev":1045,"name":"Kingman Arpt, AZ, US","cover":"CLR","clouds":[],"fltCat":"VFR"},{"icaoId":"KIFP","receiptTime":"2026-04-09T18:52:19.381Z","obsTime":1775760660,"reportTime":"2026-04-09T19:00:00.000Z","temp":30,"dewp":-3,"wdir":180,"wspd":8,"wgst":14,"visib":"10+","altim":1009.9,"qcField":0,"metarType":"METAR","rawOb":"METAR KIFP 091851Z 18008G14KT 10SM CLR 30/M03 A2982","lat":35.1487,"lon":-114.5611,"elev":210,"name":"Bullhead City Intl, AZ, US","cover":"CLR","clouds":[],"fltCat":"VFR"},{"icaoId":"KPHX","receiptTime":"2026-04-09T18:54:09.137Z","obsTime":1775760660,"reportTime":"2026-04-09T19:00:00.000Z","temp":32.8,"dewp":-2.2,"wdir":140,"wspd":9,"visib":"10+","altim":1011.9,"slp":1009.8,"qcField":4,"metarType":"METAR","rawOb":"METAR KPHX 091851Z 14009KT 10SM SCT270 33/M02 A2988 RMK AO2 SLP098 T03281022","lat":33.4278,"lon":-112.0037,"elev":338,"name":"Phoenix/Sky Harbor Intl, AZ, US","cover":"SCT","clouds":[{"cover":"SCT","base":27000}],"fltCat":"VFR"},{"icaoId":"KSAD","receiptTime":"2026-04-09T18:54:07.990Z","obsTime":1775760660,"reportTime":"2026-04-09T19:00:00.000Z","temp":28.9,"dewp":-3.9,"wdir":280,"wspd":5,"visib":"10+","altim":1015,"slp":1010.5,"qcField":6,"metarType":"METAR","rawOb":"METAR KSAD 091851Z AUTO 28005KT 10SM CLR 29/M04 A2997 RMK AO2 SLP105 T02891039","lat":32.8565,"lon":-109.636,"elev":937,"name":"Safford Rgnl, AZ, US","cover":"CLR","clouds":[],"fltCat":"VFR"},{"icaoId":"KIWA","receiptTime":"2026-04-09T18:52:57.965Z","obsTime":1775760600,"reportTime":"2026-04-09T19:00:00.000Z","temp":32,"dewp":-2,"wdir":210,"wspd":9,"visib":"10+","altim":1013.3,"qcField":0,"metarType":"METAR","rawOb":"METAR KIWA 091850Z 21009KT 10SM CLR 32/M02 A2992","lat":33.3008,"lon":-111.6437,"elev":420,"name":"Phoenix/Mesa Gateway Arpt, AZ, US","cover":"CLR","clouds":[],"fltCat":"VFR"},{"icaoId":"KCHD","receiptTime":"2026-04-09T18:47:52.653Z","obsTime":1775760420,"reportTime":"2026-04-09T19:00:00.000Z","temp":32,"dewp":-2,"wdir":"VRB","wspd":3,"visib":"10+","altim":1012.6,"qcField":0,"metarType":"METAR","rawOb":"METAR KCHD 091847Z VRB03KT 10SM SCT250 32/M02 A2990","lat":33.2669,"lon":-111.8086,"elev":378,"name":"Chandler Muni, AZ, US","cover":"SCT","clouds":[{"cover":"SCT","base":25000}],"fltCat":"VFR"},{"icaoId":"KGYR","receiptTime":"2026-04-09T18:47:52.674Z","obsTime":1775760420,"reportTime":"2026-04-09T19:00:00.000Z","temp":32,"dewp":-1,"wdir":180,"wspd":3,"visib":"10+","altim":1012.3,"qcField":0,"metarType":"METAR","rawOb":"METAR KGYR 091847Z 18003KT 10SM SCT200 BKN250 32/M01 A2989","lat":33.428,"lon":-112.368,"elev":292,"name":"Phoenix/Goodyear Muni, AZ, US","cover":"BKN","clouds":[{"cover":"SCT","base":20000},{"cover":"BKN","base":25000}],"fltCat":"VFR"},{"icaoId":"KGEU","receiptTime":"2026-04-09T18:50:30.895Z","obsTime":1775760420,"reportTime":"2026-04-09T19:00:00.000Z","temp":31,"dewp":-4,"wdir":90,"wspd":4,"visib":"10+","altim":1011.6,"qcField":0,"metarType":"METAR","rawOb":"METAR KGEU 091847Z 09004KT 10SM CLR 31/M04 A2987","lat":33.528,"lon":-112.293,"elev":319,"name":"Glendale Muni, AZ, US","cover":"CLR","clouds":[],"fltCat":"VFR"},{"icaoId":"KRYN","receiptTime":"2026-04-09T18:46:19.213Z","obsTime":1775760300,"reportTime":"2026-04-09T19:00:00.000Z","temp":31,"dewp":-5,"wdir":0,"wspd":0,"visib":"10+","altim":1014.3,"qcField":0,"metarType":"METAR","rawOb":"METAR KRYN 091845Z 00000KT 10SM CLR 31/M05 A2995","lat":32.1418,"lon":-111.1767,"elev":731,"name":"Tucson/Ryan Fld, AZ, US","cover":"CLR","clouds":[],"fltCat":"VFR"}]