[{"icaoId":"KIWA","receiptTime":"2026-04-16T01:51:10.853Z","obsTime":1776304200,"reportTime":"2026-04-16T02:00:00.000Z","temp":27,"dewp":-5,"wdir":0,"wspd":0,"visib":"10+","altim":1012.3,"qcField":0,"metarType":"METAR","rawOb":"METAR KIWA 160150Z 00000KT 10SM CLR 27/M05 A2989","lat":33.3008,"lon":-111.6437,"elev":420,"name":"Phoenix/Mesa Gateway Arpt, AZ, US","cover":"CLR","clouds":[],"fltCat":"VFR"},{"icaoId":"KLWS","receiptTime":"2026-04-16T01:52:04.978Z","obsTime":1776304140,"reportTime":"2026-04-16T01:49:00.000Z","temp":7.2,"dewp":-1.1,"wdir":220,"wspd":11,"wgst":25,"visib":"10+","altim":1008.5,"qcField":6,"precip":0.005,"metarType":"SPECI","rawOb":"SPECI KLWS 160149Z AUTO 22011G25KT 10SM FEW038 BKN075 OVC090 07/M01 A2978 RMK AO2 PK WND 24033/0135 WSHFT 0129 RAB17E46 P0000 T00721011","lat":46.3746,"lon":-117.0153,"elev":435,"name":"Lewiston/Nez Perce Cnty, ID, US","cover":"OVC","clouds":[{"cover":"FEW","base":3800},{"cover":"BKN","base":7500},{"cover":"OVC","base":9000}],"fltCat":"VFR"},{"icaoId":"KMYL","receiptTime":"2026-04-16T01:50:28.180Z","obsTime":1776304020,"reportTime":"2026-04-16T01:47:00.000Z","temp":1,"dewp":-1,"wdir":"VRB","wspd":5,"wgst":15,"visib":6,"altim":1006.9,"qcField":6,"wxString":"-SN BR","precip":0.01,"metarType":"SPECI","rawOb":"SPECI KMYL 160147Z AUTO VRB05G15KT 6SM -SN BR BKN012 BKN018 OVC031 01/M01 A2973 RMK AO2 UPB0056E00SNB00 P0001","lat":44.8943,"lon":-116.0998,"elev":1532,"name":"McCall Muni, ID, US","cover":"OVC","clouds":[{"cover":"BKN","base":1200},{"cover":"BKN","base":1800},{"cover":"OVC","base":3100}],"fltCat":"MVFR"},{"icaoId":"KCHD","receiptTime":"2026-04-16T01:47:46.748Z","obsTime":1776304020,"reportTime":"2026-04-16T02:00:00.000Z","temp":27,"dewp":-5,"wdir":0,"wspd":0,"visib":"10+","altim":1011.6,"qcField":0,"metarType":"METAR","rawOb":"METAR KCHD 160147Z 00000KT 10SM CLR 27/M05 A2987","lat":33.2669,"lon":-111.8086,"elev":378,"name":"Chandler Muni, AZ, US","cover":"CLR","clouds":[],"fltCat":"VFR"},{"icaoId":"KBOI","receiptTime":"2026-04-16T01:50:28.158Z","obsTime":1776303960,"reportTime":"2026-04-16T01:46:00.000Z","temp":7.2,"dewp":5,"wdir":310,"wspd":17,"wgst":26,"visib":"10+","altim":1007.9,"qcField":4,"wxString":"-RA","precip":0.03,"metarType":"SPECI","rawOb":"SPECI KBOI 160146Z 31017G26KT 10SM -RA SCT015 BKN028 OVC038 07/05 A2976 RMK AO2 PK WND 31026/0143 RAE09B22 TSE03 P0003 T00720050","lat":43.567,"lon":-116.2406,"elev":860,"name":"Boise Arpt, ID, US","cover":"OVC","clouds":[{"cover":"SCT","base":1500},{"cover":"BKN","base":2800},{"cover":"OVC","base":3800}],"fltCat":"MVFR"},{"icaoId":"KMKE","receiptTime":"2026-04-16T01:50:27.920Z","obsTime":1776303960,"reportTime":"2026-04-16T01:46:00.000Z","temp":12,"dewp":12,"wdir":290,"wspd":11,"wgst":26,"visib":1.5,"altim":1006.9,"qcField":12,"wxString":"+TSRA BR","precip":0.23,"metarType":"SPECI","rawOb":"SPECI KMKE 160146Z 29011G26KT 1 1/2SM R01L/2600VP6000FT +TSRA BR OVC003CB 12/12 A2973 RMK AO2 PK WND 35026/0137 FRQ LTGCGICCC ALQDS TS ALQDS MOV NE FRQ LTG DSNT ALQDS P0023 $","lat":42.9549,"lon":-87.9045,"elev":203,"name":"Milwaukee/Mitchell Intl, WI, US","cover":"OVC","clouds":[{"cover":"OVC","base":300}],"fltCat":"LIFR"},{"icaoId":"KRYN","receiptTime":"2026-04-16T01:46:15.518Z","obsTime":1776303900,"reportTime":"2026-04-16T02:00:00.000Z","temp":25,"dewp":-15,"wdir":320,"wspd":5,"visib":"10+","altim":1012.6,"qcField":0,"metarType":"METAR","rawOb":"METAR KRYN 160145Z 32005KT 10SM CLR 25/M15 A2990","lat":32.1418,"lon":-111.1767,"elev":731,"name":"Tucson/Ryan Fld, AZ, US","cover":"CLR","clouds":[],"fltCat":"VFR"},{"icaoId":"KBJC","receiptTime":"2026-04-16T01:45:17.486Z","obsTime":1776303900,"reportTime":"2026-04-16T02:00:00.000Z","temp":14,"dewp":-7,"wdir":250,"wspd":13,"wgst":16,"visib":"10+","altim":1011.9,"qcField":0,"metarType":"METAR","rawOb":"METAR KBJC 160145Z 25013G16KT 10SM CLR 14/M07 A2988","lat":39.9008,"lon":-105.1042,"elev":1694,"name":"Rocky Mtn Metro, CO, US","cover":"CLR","clouds":[],"fltCat":"VFR"},{"icaoId":"KUKI","receiptTime":"2026-04-16T01:48:06.080Z","obsTime":1776303900,"reportTime":"2026-04-16T01:45:00.000Z","temp":13.9,"dewp":8.9,"wdir":350,"wspd":6,"visib":"10+","altim":1017.7,"qcField":6,"metarType":"SPECI","rawOb":"SPECI KUKI 160145Z AUTO 35006KT 10SM SCT028 SCT033 BKN043 14/09 A3005 RMK AO2 T01390089","lat":39.1278,"lon":-123.2001,"elev":183,"name":"Ukiah Muni, CA, US","cover":"BKN","clouds":[{"cover":"SCT","base":2800},{"cover":"SCT","base":3300},{"cover":"BKN","base":4300}],"fltCat":"VFR"},{"icaoId":"KIDA","receiptTime":"2026-04-16T01:46:06.069Z","obsTime":1776303720,"reportTime":"2026-04-16T01:42:00.000Z","temp":6.7,"dewp":5,"wdir":200,"wspd":13,"visib":"10+","altim":1007.9,"qcField":4,"precip":0.01,"metarType":"SPECI","rawOb":"SPECI KIDA 160142Z 20013KT 10SM SCT014 SCT060 BKN100 07/05 A2976 RMK AO2 RAE19 P0001 T00670050","lat":43.5204,"lon":-112.0675,"elev":1444,"name":"Idaho Falls Rgnl, ID, US","cover":"BKN","clouds":[{"cover":"SCT","base":1400},{"cover":"SCT","base":6000},{"cover":"BKN","base":10000}],"fltCat":"VFR"},{"icaoId":"KBTV","receiptTime":"2026-04-16T01:44:15.837Z","obsTime":1776303660,"reportTime":"2026-04-16T01:41:00.000Z","temp":10.6,"dewp":9.4,"wdir":330,"wspd":3,"visib":3,"altim":1012.3,"qcField":4,"wxString":"BR","metarType":"SPECI","rawOb":"SPECI KBTV 160141Z 33003KT 3SM BR SCT003 OVC013 11/09 A2989 RMK AO2 T01060094","lat":44.4682,"lon":-73.1499,"elev":101,"name":"Burlington Intl, VT, US","cover":"OVC","clouds":[{"cover":"SCT","base":300},{"cover":"OVC","base":1300}],"fltCat":"MVFR"},{"icaoId":"KROC","receiptTime":"2026-04-16T01:44:15.796Z","obsTime":1776303600,"reportTime":"2026-04-16T01:40:00.000Z","temp":14.4,"dewp":13.9,"wdir":170,"wspd":9,"visib":3,"altim":1012.6,"qcField":12,"wxString":"+RA BR","precip":0.25,"metarType":"SPECI","rawOb":"SPECI KROC 160140Z 17009KT 3SM +RA BR FEW003 BKN034 OVC049 14/14 A2990 RMK AO2 P0025 T01440139 $","lat":43.1172,"lon":-77.6754,"elev":166,"name":"Rochester Intl Arpt, NY, US","cover":"OVC","clouds":[{"cover":"FEW","base":300},{"cover":"BKN","base":3400},{"cover":"OVC","base":4900}],"fltCat":"MVFR"},{"icaoId":"KPIT","receiptTime":"2026-04-16T01:40:29.169Z","obsTime":1776303360,"reportTime":"2026-04-16T01:36:00.000Z","temp":22.8,"dewp":15,"wdir":270,"wspd":5,"visib":"10+","altim":1014,"qcField":12,"precip":0.005,"metarType":"SPECI","rawOb":"SPECI KPIT 160136Z 27005KT 10SM FEW050 SCT100 23/15 A2994 RMK AO2 RAB04E21 P0000 T02280150 $","lat":40.4814,"lon":-80.2083,"elev":339,"name":"Pittsburgh Intl, PA, US","cover":"SCT","clouds":[{"cover":"FEW","base":5000},{"cover":"SCT","base":10000}],"fltCat":"VFR"},{"icaoId":"KSTL","receiptTime":"2026-04-16T01:40:30.552Z","obsTime":1776303360,"reportTime":"2026-04-16T01:36:00.000Z","temp":21.1,"dewp":17.2,"wdir":170,"wspd":9,"visib":"10+","altim":1010.6,"qcField":4,"wxString":"-TSRA","precip":0.005,"metarType":"SPECI","rawOb":"SPECI KSTL 160136Z 17009KT 10SM -TSRA BKN055 BKN075CB OVC110 21/17 A2984 RMK AO2 RAB33 TSB35 CONS LTGCCCG DSNT SW AND W-NW TS W-NW MOV NE CB DSNT SW MOV NE P0000 T02110172","lat":38.7525,"lon":-90.3734,"elev":163,"name":"St Louis/Lambert Intl, MO, US","cover":"OVC","clouds":[{"cover":"BKN","base":5500},{"cover":"BKN","base":7500},{"cover":"OVC","base":11000}],"fltCat":"VFR"},{"icaoId":"KCXP","receiptTime":"2026-04-16T01:40:59.021Z","obsTime":1776303300,"reportTime":"2026-04-16T01:35:00.000Z","temp":14,"dewp":-3,"wdir":250,"wspd":13,"wgst":21,"visib":"10+","altim":1015.3,"qcField":6,"metarType":"METAR","rawOb":"METAR KCXP 160135Z AUTO 25013G21KT 10SM CLR 14/M03 A2998 RMK AO2","lat":39.1905,"lon":-119.7319,"elev":1431,"name":"Carson City Arpt, NV, US","cover":"CLR","clouds":[],"fltCat":"VFR"},{"icaoId":"KMHR","receiptTime":"2026-04-16T01:40:42.231Z","obsTime":1776303300,"reportTime":"2026-04-16T01:35:00.000Z","temp":19,"dewp":11,"wdir":210,"wspd":9,"wgst":15,"visib":"10+","altim":1015.3,"qcField":6,"metarType":"METAR","rawOb":"METAR KMHR 160135Z AUTO 21009G15KT 10SM CLR 19/11 A2998 RMK AO2","lat":38.56,"lon":-121.284,"elev":30,"name":"Sacramento/Mather Fld, CA, US","cover":"CLR","clouds":[],"fltCat":"VFR"},{"icaoId":"KHTH","receiptTime":"2026-04-16T01:40:56.677Z","obsTime":1776303300,"reportTime":"2026-04-16T01:35:00.000Z","temp":19,"dewp":-4,"wdir":280,"wspd":14,"visib":"10+","altim":1013,"qcField":6,"metarType":"METAR","rawOb":"METAR KHTH 160135Z AUTO 28014KT 10SM CLR 19/M04 A2991 RMK A01","lat":38.5448,"lon":-118.6314,"elev":1281,"name":"Hawthorne Muni, NV, US","cover":"CLR","clouds":[],"fltCat":"VFR"},{"icaoId":"KSEZ","receiptTime":"2026-04-16T01:40:33.016Z","obsTime":1776303300,"reportTime":"2026-04-16T01:35:00.000Z","temp":19,"dewp":-6,"wdir":210,"wspd":9,"visib":"10+","altim":1016,"qcField":6,"metarType":"METAR","rawOb":"METAR KSEZ 160135Z AUTO 21009KT 10SM CLR 19/M06 A3000 RMK AO2","lat":34.8467,"lon":-111.7884,"elev":1455,"name":"Sedona Arpt, AZ, US","cover":"CLR","clouds":[],"fltCat":"VFR"},{"icaoId":"KHII","receiptTime":"2026-04-16T01:40:56.139Z","obsTime":1776303300,"reportTime":"2026-04-16T01:35:00.000Z","temp":29,"dewp":-4,"wdir":200,"wspd":7,"visib":"10+","altim":1010.6,"qcField":6,"metarType":"METAR","rawOb":"METAR KHII 160135Z AUTO 20007KT 10SM CLR 29/M04 A2984 RMK AO2","lat":34.5659,"lon":-114.3522,"elev":241,"name":"Lake Havasu City Arpt, AZ, US","cover":"CLR","clouds":[],"fltCat":"VFR"},{"icaoId":"KIFP","receiptTime":"2026-04-16T01:40:57.057Z","obsTime":1776303300,"reportTime":"2026-04-16T01:35:00.000Z","temp":29,"dewp":-6,"wdir":200,"wspd":8,"wgst":13,"visib":"10+","altim":1009.9,"qcField":6,"metarType":"METAR","rawOb":"METAR KIFP 160135Z AUTO 20008G13KT 10SM CLR 29/M06 A2982 RMK AO2","lat":35.1487,"lon":-114.5611,"elev":210,"name":"Bullhead City Intl, AZ, US","cover":"CLR","clouds":[],"fltCat":"VFR"},{"icaoId":"KDLN","receiptTime":"2026-04-16T01:38:26.488Z","obsTime":1776303300,"reportTime":"2026-04-16T01:35:00.000Z","temp":7.2,"dewp":1.1,"wdir":300,"wspd":13,"wgst":23,"visib":"10+","altim":1000.8,"qcField":6,"precip":0.005,"metarType":"SPECI","rawOb":"SPECI KDLN 160135Z AUTO 30013G23KT 10SM BKN060 BKN070 BKN090 07/01 A2955 RMK AO2 PK WND 21033/0106 WSHFT 0115 LTG DSNT NE RAB07E19 P0000 T00720011","lat":45.2584,"lon":-112.5546,"elev":1586,"name":"Dillon Arpt, MT, US","cover":"BKN","clouds":[{"cover":"BKN","base":6000},{"cover":"BKN","base":7000},{"cover":"BKN","base":9000}],"fltCat":"VFR"},{"icaoId":"KHAF","receiptTime":"2026-04-16T01:38:23.774Z","obsTime":1776303300,"reportTime":"2026-04-16T01:35:00.000Z","temp":14,"dewp":12,"wdir":320,"wspd":15,"visib":"10+","altim":1019,"qcField":6,"metarType":"METAR","rawOb":"METAR KHAF 160135Z AUTO 32015KT 10SM BKN019 14/12 A3009 RMK AO2","lat":37.5136,"lon":-122.4996,"elev":11,"name":"Half Moon Bay Arpt, CA, US","cover":"BKN","clouds":[{"cover":"BKN","base":1900}],"fltCat":"MVFR"},{"icaoId":"KHCR","receiptTime":"2026-04-16T01:38:33.322Z","obsTime":1776303300,"reportTime":"2026-04-16T01:35:00.000Z","temp":15.6,"dewp":-6.5,"wdir":210,"wspd":7,"visib":9,"altim":1009.6,"qcField":14,"metarType":"METAR","rawOb":"METAR KHCR 160135Z AUTO 21007KT 180V240 9SM OVC100 16/M06 A2981 RMK AO2 T01561065 $","lat":40.4774,"lon":-111.4329,"elev":1708,"name":"Heber City Muni, UT, US","cover":"OVC","clouds":[{"cover":"OVC","base":10000}],"fltCat":"VFR"},{"icaoId":"KLRU","receiptTime":"2026-04-16T01:38:32.007Z","obsTime":1776303300,"reportTime":"2026-04-16T01:35:00.000Z","temp":19.5,"dewp":-28.2,"wdir":260,"wspd":9,"visib":"10+","altim":1016.3,"qcField":6,"metarType":"METAR","rawOb":"METAR KLRU 160135Z AUTO 26009KT 10SM CLR 20/M28 A3001 RMK AO2 T01951282","lat":32.2884,"lon":-106.9131,"elev":1355,"name":"Las Cruces Intl, NM, US","cover":"CLR","clouds":[],"fltCat":"VFR"},{"icaoId":"KSOW","receiptTime":"2026-04-16T01:38:28.874Z","obsTime":1776303300,"reportTime":"2026-04-16T01:35:00.000Z","temp":16,"dewp":-7,"wdir":200,"wspd":11,"visib":"10+","altim":1019,"qcField":6,"metarType":"METAR","rawOb":"METAR KSOW 160135Z AUTO 20011KT 10SM CLR 16/M07 A3009 RMK AO2","lat":34.2686,"lon":-110.0019,"elev":1954,"name":"Show Low Muni, AZ, US","cover":"CLR","clouds":[],"fltCat":"VFR"},{"icaoId":"KBVU","receiptTime":"2026-04-16T01:36:10.067Z","obsTime":1776303300,"reportTime":"2026-04-16T01:35:00.000Z","temp":26,"dewp":-10,"wdir":200,"wspd":9,"wgst":14,"visib":"10+","altim":1010.6,"qcField":6,"metarType":"METAR","rawOb":"METAR KBVU 160135Z AUTO 20009G14KT 10SM CLR 26/M10 A2984 RMK AO2","lat":35.9489,"lon":-114.8633,"elev":654,"name":"Boulder City Muni, NV, US","cover":"CLR","clouds":[],"fltCat":"VFR"},{"icaoId":"KRTS","receiptTime":"2026-04-16T01:40:40.391Z","obsTime":1776303300,"reportTime":"2026-04-16T01:35:00.000Z","temp":12,"dewp":-2,"wdir":260,"wspd":18,"wgst":27,"visib":"10+","altim":1014.3,"qcField":6,"metarType":"METAR","rawOb":"METAR KRTS 160135Z AUTO 26018G27KT 10SM CLR 12/M02 A2995 RMK AO2","lat":39.6658,"lon":-119.8731,"elev":1537,"name":"Reno/Stead Arpt, NV, US","cover":"CLR","clouds":[],"fltCat":"VFR"},{"icaoId":"KMEV","receiptTime":"2026-04-16T01:40:42.110Z","obsTime":1776303300,"reportTime":"2026-04-16T01:35:00.000Z","temp":14,"dewp":-2,"wdir":220,"wspd":14,"wgst":19,"visib":"10+","altim":1015,"qcField":6,"metarType":"METAR","rawOb":"METAR KMEV 160135Z AUTO 22014G19KT 10SM SCT075 SCT090 14/M02 A2997 RMK AO2","lat":38.9963,"lon":-119.75,"elev":1437,"name":"Minden-Tahoe Arpt, NV, US","cover":"SCT","clouds":[{"cover":"SCT","base":7500},{"cover":"SCT","base":9000}],"fltCat":"VFR"},{"icaoId":"KBZN","receiptTime":"2026-04-16T01:34:06.657Z","obsTime":1776303060,"reportTime":"2026-04-16T01:31:00.000Z","temp":11.1,"dewp":0.6,"wdir":150,"wspd":9,"wgst":14,"visib":"10+","altim":1000.8,"qcField":4,"metarType":"SPECI","rawOb":"SPECI KBZN 160131Z 15009G14KT 140V210 10SM BKN075 BKN090 OVC110 11/01 A2955 RMK AO2 T01110006","lat":45.7876,"lon":-111.1615,"elev":1349,"name":"Bozeman/Gallatin Fld, MT, US","cover":"OVC","clouds":[{"cover":"BKN","base":7500},{"cover":"BKN","base":9000},{"cover":"OVC","base":11000}],"fltCat":"VFR"},{"icaoId":"KDAL","receiptTime":"2026-04-16T01:34:06.692Z","obsTime":1776303060,"reportTime":"2026-04-16T01:31:00.000Z","temp":23.9,"dewp":20,"wdir":180,"wspd":7,"visib":"10+","altim":1011.9,"qcField":4,"precip":0.005,"metarType":"SPECI","rawOb":"SPECI KDAL 160131Z 18007KT 10SM BKN055 24/20 A2988 RMK AO2 RAB15E26 TSB11E31 FRQ LTGICCCCG DSNT W-N-NE TS MOVD NE CB DSNT W-N-NE MOV NE P0000 T02390200","lat":32.8384,"lon":-96.8358,"elev":148,"name":"Dallas/Love Fld, TX, US","cover":"BKN","clouds":[{"cover":"BKN","base":5500}],"fltCat":"VFR"},{"icaoId":"KBUF","receiptTime":"2026-04-16T01:32:04.699Z","obsTime":1776302940,"reportTime":"2026-04-16T01:29:00.000Z","temp":16.7,"dewp":16.1,"wdir":190,"wspd":7,"visib":9,"altim":1011.3,"qcField":12,"metarType":"SPECI","rawOb":"SPECI KBUF 160129Z 19007KT 9SM SCT003 OVC022 17/16 A2986 RMK AO2 T01670161 $","lat":42.94,"lon":-78.7361,"elev":217,"name":"Buffalo-Niagara Intl, NY, US","cover":"OVC","clouds":[{"cover":"SCT","base":300},{"cover":"OVC","base":2200}],"fltCat":"MVFR"},{"icaoId":"KMFE","receiptTime":"2026-04-16T01:32:05.814Z","obsTime":1776302940,"reportTime":"2026-04-16T01:29:00.000Z","temp":26.1,"dewp":19.4,"wdir":130,"wspd":12,"visib":"10+","altim":1012.3,"qcField":4,"metarType":"SPECI","rawOb":"SPECI KMFE 160129Z 13012KT 10SM FEW065 26/19 A2989 RMK AO2 T02610194","lat":26.1791,"lon":-98.2445,"elev":29,"name":"McAllen/Miller Intl, TX, US","cover":"FEW","clouds":[{"cover":"FEW","base":6500}],"fltCat":"VFR"},{"icaoId":"KSEA","receiptTime":"2026-04-16T01:32:04.654Z","obsTime":1776302880,"reportTime":"2026-04-16T01:28:00.000Z","temp":4.4,"dewp":2.2,"wdir":70,"wspd":8,"visib":"10+","altim":1013,"qcField":12,"wxString":"-RA","precip":0.04,"metarType":"SPECI","rawOb":"SPECI KSEA 160128Z 07008KT 10SM -RA SCT025 BKN031 OVC036 04/02 A2991 RMK AO2 P0004 T00440022 $","lat":47.4447,"lon":-122.3144,"elev":115,"name":"Seattle-Tacoma Intl, WA, US","cover":"OVC","clouds":[{"cover":"SCT","base":2500},{"cover":"BKN","base":3100},{"cover":"OVC","base":3600}],"fltCat":"VFR"},{"icaoId":"KDFW","receiptTime":"2026-04-16T01:20:56.788Z","obsTime":1776302220,"reportTime":"2026-04-16T01:17:00.000Z","temp":23.3,"dewp":20,"wdir":180,"wspd":11,"visib":"10+","altim":1011.3,"qcField":4,"precip":0.005,"metarType":"SPECI","rawOb":"SPECI KDFW 160117Z 18011KT 10SM SCT041 BKN049 OVC060 23/20 A2986 RMK AO2 RAE01 TSE0057 OCNL LTGIC DSNT N AND NE CB DSNT N AND NE MOV NE P0000 T02330200","lat":32.8974,"lon":-97.022,"elev":168,"name":"Dallas-Ft Worth Intl, TX, US","cover":"OVC","clouds":[{"cover":"SCT","base":4100},{"cover":"BKN","base":4900},{"cover":"OVC","base":6000}],"fltCat":"VFR"},{"icaoId":"KHOB","receiptTime":"2026-04-16T01:18:20.110Z","obsTime":1776302100,"reportTime":"2026-04-16T01:15:00.000Z","temp":24,"dewp":-14,"wdir":260,"wspd":15,"visib":"10+","altim":1013.3,"qcField":6,"metarType":"METAR","rawOb":"METAR KHOB 160115Z AUTO 26015KT 10SM CLR 24/M14 A2992 RMK AO2","lat":32.6797,"lon":-103.2222,"elev":1112,"name":"Hobbs Arpt, NM, US","cover":"CLR","clouds":[],"fltCat":"VFR"},{"icaoId":"KMLC","receiptTime":"2026-04-16T01:06:07.631Z","obsTime":1776301380,"reportTime":"2026-04-16T01:03:00.000Z","temp":20.6,"dewp":19.4,"wdir":180,"wspd":8,"wgst":18,"visib":5,"altim":1010.9,"qcField":6,"wxString":"TSRA BR","precip":0.02,"metarType":"SPECI","rawOb":"SPECI KMLC 160103Z AUTO 18008G18KT 5SM TSRA BR FEW055 SCT080 OVC100 21/19 A2985 RMK AO2 LTG DSNT ALQDS TSB0057 P0002 T02060194","lat":34.8824,"lon":-95.7815,"elev":231,"name":"McAlester Rgnl, OK, US","cover":"OVC","clouds":[{"cover":"FEW","base":5500},{"cover":"SCT","base":8000},{"cover":"OVC","base":10000}],"fltCat":"MVFR"},{"icaoId":"KMSO","receiptTime":"2026-04-16T01:06:07.278Z","obsTime":1776301320,"reportTime":"2026-04-16T01:02:00.000Z","temp":2.8,"dewp":1.1,"wdir":320,"wspd":19,"wgst":27,"visib":"10+","altim":1005.5,"qcField":4,"precip":0.005,"metarType":"SPECI","rawOb":"SPECI KMSO 160102Z 32019G27KT 10SM FEW031 BKN070 OVC100 03/01 A2969 RMK AO2 PK WND 33027/0059 RAE00 P0000 T00280011","lat":46.9208,"lon":-114.0938,"elev":974,"name":"Missoula Intl, MT, US","cover":"OVC","clouds":[{"cover":"FEW","base":3100},{"cover":"BKN","base":7000},{"cover":"OVC","base":10000}],"fltCat":"VFR"},{"icaoId":"KPUW","receiptTime":"2026-04-16T01:04:09.506Z","obsTime":1776301260,"reportTime":"2026-04-16T01:01:00.000Z","temp":2.8,"dewp":0,"wdir":220,"wspd":10,"wgst":19,"visib":"10+","altim":1007.2,"qcField":6,"precip":0.005,"metarType":"SPECI","rawOb":"SPECI KPUW 160101Z AUTO 22010G19KT 10SM FEW032 BKN039 OVC075 03/00 A2974 RMK AO2 RAE0056 P0000 T00280000","lat":46.7438,"lon":-117.1158,"elev":774,"name":"Pullman/Moscow Rgnl, WA, US","cover":"OVC","clouds":[{"cover":"FEW","base":3200},{"cover":"BKN","base":3900},{"cover":"OVC","base":7500}],"fltCat":"VFR"},{"icaoId":"KNFL","receiptTime":"2026-04-16T01:01:09.294Z","obsTime":1776301020,"reportTime":"2026-04-16T01:00:00.000Z","temp":17.2,"dewp":-2.2,"wdir":260,"wspd":19,"wgst":27,"visib":"10+","altim":1012.6,"slp":1009.9,"qcField":4,"metarType":"METAR","rawOb":"METAR KNFL 160057Z 26019G27KT 10SM SCT070 SCT100 BKN150 BKN200 17/M02 A2990 RMK AO2 PK WND 25027/0038 SLP099 ACSL DSNT ALQDS T01721022","lat":39.417,"lon":-118.705,"elev":1199,"name":"Fallon , NV, US","cover":"BKN","clouds":[{"cover":"SCT","base":7000},{"cover":"SCT","base":10000},{"cover":"BKN","base":15000},{"cover":"BKN","base":20000}],"fltCat":"VFR"},{"icaoId":"KFLG","receiptTime":"2026-04-16T01:01:10.188Z","obsTime":1776301020,"reportTime":"2026-04-16T01:00:00.000Z","temp":13.9,"dewp":-9.4,"wdir":240,"wspd":8,"wgst":17,"visib":"10+","altim":1019.4,"slp":1015.3,"qcField":6,"metarType":"METAR","rawOb":"METAR KFLG 160057Z AUTO 24008G17KT 10SM CLR 14/M09 A3010 RMK AO2 SLP153 T01391094","lat":35.1443,"lon":-111.6664,"elev":2134,"name":"Flagstaff/Pulliam Arpt, AZ, US","cover":"CLR","clouds":[],"fltCat":"VFR"},{"icaoId":"KNYL","receiptTime":"2026-04-16T01:01:09.365Z","obsTime":1776301020,"reportTime":"2026-04-16T01:00:00.000Z","temp":29.4,"dewp":0.6,"wdir":290,"wspd":6,"visib":"10+","altim":1010.6,"slp":1010.3,"qcField":4,"metarType":"METAR","rawOb":"METAR KNYL 160057Z 29006KT 10SM CLR 29/01 A2984 RMK AO2 SLP103 T02940006","lat":32.66,"lon":-114.6078,"elev":58,"name":"Yuma , AZ, US","cover":"CLR","clouds":[],"fltCat":"VFR"},{"icaoId":"KTPH","receiptTime":"2026-04-16T01:00:43.405Z","obsTime":1776300960,"reportTime":"2026-04-16T01:00:00.000Z","temp":17.8,"dewp":-8.3,"wdir":200,"wspd":12,"visib":"10+","altim":1014,"slp":1010.9,"qcField":6,"metarType":"METAR","rawOb":"METAR KTPH 160056Z AUTO 20012KT 10SM FEW110 18/M08 A2994 RMK AO2 SLP109 T01781083","lat":38.0505,"lon":-117.0906,"elev":1647,"name":"Tonopah Arpt, NV, US","cover":"FEW","clouds":[{"cover":"FEW","base":11000}],"fltCat":"VFR"},{"icaoId":"KVIS","receiptTime":"2026-04-16T00:58:29.780Z","obsTime":1776300960,"reportTime":"2026-04-16T01:00:00.000Z","temp":23.9,"dewp":8.3,"wdir":340,"wspd":8,"visib":"10+","altim":1015,"slp":1014.9,"qcField":14,"metarType":"METAR","rawOb":"METAR KVIS 160056Z AUTO 34008KT 10SM CLR 24/08 A2997 RMK AO2 SLP149 T02390083 PNO $","lat":36.3135,"lon":-119.3884,"elev":92,"name":"Visalia Muni, CA, US","cover":"CLR","clouds":[],"fltCat":"VFR"},{"icaoId":"KRDM","receiptTime":"2026-04-16T01:00:43.267Z","obsTime":1776300960,"reportTime":"2026-04-16T01:00:00.000Z","temp":3.3,"dewp":-5.6,"wdir":270,"wspd":18,"wgst":30,"visib":"10+","altim":1013,"slp":1013.7,"qcField":4,"metarType":"METAR","rawOb":"METAR KRDM 160056Z 27018G30KT 10SM SCT065 BKN090 BKN120 03/M06 A2991 RMK AO2 PK WND 28034/0014 SLP137 T00331056","lat":44.2558,"lon":-121.1407,"elev":930,"name":"Redmond Muni, OR, US","cover":"BKN","clouds":[{"cover":"SCT","base":6500},{"cover":"BKN","base":9000},{"cover":"BKN","base":12000}],"fltCat":"VFR"},{"icaoId":"KCOD","receiptTime":"2026-04-16T00:58:23.806Z","obsTime":1776300960,"reportTime":"2026-04-16T01:00:00.000Z","temp":13.3,"dewp":-2.2,"wdir":230,"wspd":16,"wgst":22,"visib":"10+","altim":1004.8,"slp":1002.4,"qcField":14,"metarType":"METAR","rawOb":"METAR KCOD 160056Z AUTO 23016G22KT 10SM CLR 13/M02 A2967 RMK AO2 SLP024 T01331022 $","lat":44.52,"lon":-109.0268,"elev":1550,"name":"Cody/Yellowstone Rgnl, WY, US","cover":"CLR","clouds":[],"fltCat":"VFR"},{"icaoId":"KPWT","receiptTime":"2026-04-16T00:58:24.341Z","obsTime":1776300960,"reportTime":"2026-04-16T01:00:00.000Z","temp":6.1,"dewp":2.8,"wdir":40,"wspd":8,"visib":"10+","altim":1012.6,"slp":1013,"qcField":6,"metarType":"METAR","rawOb":"METAR KPWT 160056Z AUTO 04008KT 10SM SCT019 BKN048 06/03 A2990 RMK AO2 SLP130 T00610028","lat":47.4942,"lon":-122.7594,"elev":143,"name":"Bremerton Arpt, WA, US","cover":"BKN","clouds":[{"cover":"SCT","base":1900},{"cover":"BKN","base":4800}],"fltCat":"VFR"},{"icaoId":"KSGU","receiptTime":"2026-04-16T00:58:26.844Z","obsTime":1776300960,"reportTime":"2026-04-16T01:00:00.000Z","temp":24.4,"dewp":-5.6,"wdir":280,"wspd":11,"visib":"10+","altim":1011.9,"slp":1010.1,"qcField":6,"metarType":"METAR","rawOb":"METAR KSGU 160056Z AUTO 28011KT 10SM CLR 24/M06 A2988 RMK AO2 SLP101 T02441056","lat":37.0444,"lon":-113.5034,"elev":877,"name":"Saint George Muni, UT, US","cover":"CLR","clouds":[],"fltCat":"VFR"},{"icaoId":"KHND","receiptTime":"2026-04-16T00:58:28.414Z","obsTime":1776300960,"reportTime":"2026-04-16T01:00:00.000Z","temp":26.7,"dewp":-6.7,"wdir":230,"wspd":14,"wgst":20,"visib":"10+","altim":1011.9,"slp":1011.7,"qcField":12,"metarType":"METAR","rawOb":"METAR KHND 160056Z 23014G20KT 10SM CLR 27/M07 A2988 RMK AO2 SLP117 T02671067 $","lat":35.9657,"lon":-115.1343,"elev":740,"name":"Henderson Exec, NV, US","cover":"CLR","clouds":[],"fltCat":"VFR"},{"icaoId":"KENV","receiptTime":"2026-04-16T00:58:31.113Z","obsTime":1776300960,"reportTime":"2026-04-16T01:00:00.000Z","temp":19.4,"dewp":-2.8,"wdir":260,"wspd":12,"wgst":20,"visib":"10+","altim":1008.9,"slp":1007.4,"qcField":6,"metarType":"METAR","rawOb":"METAR KENV 160056Z AUTO 26012G20KT 10SM CLR 19/M03 A2979 RMK AO2 SLP074 T01941028","lat":40.7211,"lon":-114.0312,"elev":1291,"name":"Wendover Arpt, UT, US","cover":"CLR","clouds":[],"fltCat":"VFR"},{"icaoId":"KGUC","receiptTime":"2026-04-16T00:58:32.134Z","obsTime":1776300960,"reportTime":"2026-04-16T01:00:00.000Z","temp":10.6,"dewp":-6.7,"wdir":300,"wspd":8,"visib":"10+","altim":1018,"slp":1016.1,"qcField":14,"metarType":"METAR","rawOb":"METAR KGUC 160056Z AUTO 30008KT 10SM CLR 11/M07 A3006 RMK AO2 SLP161 T01061067 $","lat":38.5322,"lon":-106.9419,"elev":2337,"name":"Gunnison Arpt, CO, US","cover":"CLR","clouds":[],"fltCat":"VFR"},{"icaoId":"KPVU","receiptTime":"2026-04-16T00:58:25.153Z","obsTime":1776300960,"reportTime":"2026-04-16T01:00:00.000Z","temp":18.3,"dewp":2.2,"wdir":220,"wspd":12,"visib":"10+","altim":1009.6,"slp":1007.6,"qcField":4,"metarType":"METAR","rawOb":"METAR KPVU 160056Z 22012KT 10SM BKN120 18/02 A2981 RMK AO2 SLP076 T01830022","lat":40.224,"lon":-111.7252,"elev":1370,"name":"Provo Muni, UT, US","cover":"BKN","clouds":[{"cover":"BKN","base":12000}],"fltCat":"VFR"},{"icaoId":"KFNL","receiptTime":"2026-04-16T00:58:31.581Z","obsTime":1776300960,"reportTime":"2026-04-16T01:00:00.000Z","temp":18.3,"dewp":-6.7,"wdir":250,"wspd":10,"visib":"10+","altim":1010.2,"slp":1007.3,"qcField":14,"metarType":"METAR","rawOb":"METAR KFNL 160056Z AUTO 25010KT 10SM CLR 18/M07 A2983 RMK AO2 SLP073 T01831067 $","lat":40.4427,"lon":-105.0097,"elev":1529,"name":"Fort Collins/N Colorado Rgnl, CO, US","cover":"CLR","clouds":[],"fltCat":"VFR"},{"icaoId":"KCOE","receiptTime":"2026-04-16T00:58:25.039Z","obsTime":1776300960,"reportTime":"2026-04-16T01:00:00.000Z","temp":9.4,"dewp":-5.6,"wdir":260,"wspd":23,"wgst":30,"visib":"10+","altim":1003.8,"slp":1006,"qcField":14,"metarType":"METAR","rawOb":"METAR KCOE 160056Z AUTO 26023G30KT 10SM FEW075 OVC100 09/M06 A2964 RMK AO2 PK WND 26030/0056 SLP060 T00941056 PNO $","lat":47.7719,"lon":-116.8332,"elev":693,"name":"Coeur DAlene Arpt, ID, US","cover":"OVC","clouds":[{"cover":"FEW","base":7500},{"cover":"OVC","base":10000}],"fltCat":"VFR"},{"icaoId":"KCGZ","receiptTime":"2026-04-16T00:58:23.637Z","obsTime":1776300960,"reportTime":"2026-04-16T01:00:00.000Z","temp":27.2,"dewp":-5,"wdir":270,"wspd":5,"visib":"10+","altim":1012.6,"slp":1011.8,"qcField":14,"metarType":"METAR","rawOb":"METAR KCGZ 160056Z AUTO 27005KT 10SM CLR 27/M05 A2990 RMK AO2 SLP118 T02721050 $","lat":32.9531,"lon":-111.7725,"elev":444,"name":"Casa Granda Muni, AZ, US","cover":"CLR","clouds":[],"fltCat":"VFR"},{"icaoId":"KSDY","receiptTime":"2026-04-16T00:58:26.637Z","obsTime":1776300960,"reportTime":"2026-04-16T01:00:00.000Z","temp":18.3,"dewp":1.7,"wdir":170,"wspd":6,"visib":"10+","altim":1001.8,"slp":1002.2,"qcField":14,"metarType":"METAR","rawOb":"METAR KSDY 160056Z AUTO 17006KT 10SM BKN120 18/02 A2958 RMK AO2 SLP022 T01830017 $","lat":47.7029,"lon":-104.1951,"elev":600,"name":"Sidney/Richland Muni, MT, US","cover":"BKN","clouds":[{"cover":"BKN","base":12000}],"fltCat":"VFR"},{"icaoId":"KSBP","receiptTime":"2026-04-16T01:00:13.186Z","obsTime":1776300960,"reportTime":"2026-04-16T01:00:00.000Z","temp":16.7,"dewp":8.9,"wdir":320,"wspd":14,"visib":"10+","altim":1016.3,"slp":1016,"qcField":4,"metarType":"METAR","rawOb":"METAR KSBP 160056Z 32014KT 10SM CLR 17/09 A3001 RMK AO2 SLP160 T01670089","lat":35.2381,"lon":-120.644,"elev":52,"name":"San Luis Obispo/San Luis Cnty, CA, US","cover":"CLR","clouds":[],"fltCat":"VFR"},{"icaoId":"KSDF","receiptTime":"2026-04-16T01:00:27.517Z","obsTime":1776300960,"reportTime":"2026-04-16T01:00:00.000Z","temp":26.1,"dewp":13.9,"wdir":200,"wspd":9,"visib":"10+","altim":1014.3,"slp":1013.6,"qcField":4,"metarType":"METAR","rawOb":"METAR KSDF 160056Z 20009KT 10SM FEW070 OVC250 26/14 A2995 RMK AO2 SLP136 T02610139","lat":38.1774,"lon":-85.7308,"elev":146,"name":"Louisville Intl, KY, US","cover":"OVC","clouds":[{"cover":"FEW","base":7000},{"cover":"OVC","base":25000}],"fltCat":"VFR"},{"icaoId":"KHDN","receiptTime":"2026-04-16T00:58:32.267Z","obsTime":1776300960,"reportTime":"2026-04-16T01:00:00.000Z","temp":11.7,"dewp":-3.3,"wdir":240,"wspd":10,"visib":"10+","altim":1014.6,"slp":1012.8,"qcField":6,"metarType":"METAR","rawOb":"METAR KHDN 160056Z AUTO 24010KT 10SM SCT080 12/M03 A2996 RMK AO2 SLP128 T01171033","lat":40.4842,"lon":-107.2296,"elev":2012,"name":"Hayden/Yampa Valley Arpt, CO, US","cover":"SCT","clouds":[{"cover":"SCT","base":8000}],"fltCat":"VFR"},{"icaoId":"KEKO","receiptTime":"2026-04-16T01:00:43.208Z","obsTime":1776300960,"reportTime":"2026-04-16T01:00:00.000Z","temp":15,"dewp":-5,"wdir":260,"wspd":23,"wgst":31,"visib":"10+","altim":1009.9,"slp":1008.6,"qcField":6,"metarType":"METAR","rawOb":"METAR KEKO 160056Z AUTO 26023G31KT 10SM FEW110 15/M05 A2982 RMK AO2 PK WND 25035/0030 SLP086 T01501050","lat":40.824,"lon":-115.7863,"elev":1541,"name":"Elko Rgnl, NV, US","cover":"FEW","clouds":[{"cover":"FEW","base":11000}],"fltCat":"VFR"},{"icaoId":"KCEC","receiptTime":"2026-04-16T01:00:43.146Z","obsTime":1776300960,"reportTime":"2026-04-16T01:00:00.000Z","temp":10.6,"dewp":3.9,"wdir":330,"wspd":12,"wgst":22,"visib":"10+","altim":1021.4,"slp":1021.3,"qcField":6,"metarType":"METAR","rawOb":"METAR KCEC 160056Z AUTO 33012G22KT 10SM CLR 11/04 A3016 RMK AO2 SLP213 T01060039","lat":41.7836,"lon":-124.238,"elev":17,"name":"Crescent City/McNama, CA, US","cover":"CLR","clouds":[],"fltCat":"VFR"},{"icaoId":"KINW","receiptTime":"2026-04-16T01:00:04.873Z","obsTime":1776300960,"reportTime":"2026-04-16T01:00:00.000Z","temp":20,"dewp":-6.7,"wdir":100,"wspd":6,"visib":"10+","altim":1016,"slp":1012.6,"qcField":6,"metarType":"METAR","rawOb":"METAR KINW 160056Z AUTO 10006KT 10SM CLR 20/M07 A3000 RMK AO2 SLP126 T02001067","lat":35.0279,"lon":-110.7221,"elev":1492,"name":"Winslow/Lindberg Rgnl, AZ, US","cover":"CLR","clouds":[],"fltCat":"VFR"},{"icaoId":"KDUG","receiptTime":"2026-04-16T01:02:18.672Z","obsTime":1776300960,"reportTime":"2026-04-16T01:00:00.000Z","temp":24.4,"dewp":-13.9,"wdir":240,"wspd":4,"visib":"10+","altim":1015.7,"slp":1011.3,"qcField":38,"metarType":"METAR","rawOb":"METAR KDUG 160056Z AUTO 24004KT 10SM CLR 24/M14 A2999 RMK AO2 SLP113 T02441139 TSNO","lat":31.4725,"lon":-109.6022,"elev":1260,"name":"Douglas/Bisbee Intl, AZ, US","cover":"CLR","clouds":[],"fltCat":"VFR"},{"icaoId":"KJAC","receiptTime":"2026-04-16T00:58:28.951Z","obsTime":1776300960,"reportTime":"2026-04-16T01:00:00.000Z","temp":5,"dewp":0.6,"wdir":200,"wspd":12,"visib":"10+","altim":1009.9,"slp":1010.3,"qcField":4,"wxString":"-RA","precip":0.005,"metarType":"METAR","rawOb":"METAR KJAC 160056Z 20012KT 10SM -RA BKN036 OVC048 05/01 A2982 RMK AO2 SLP103 P0000 T00500006","lat":43.6129,"lon":-110.7366,"elev":1967,"name":"Jackson Hole Arpt, WY, US","cover":"OVC","clouds":[{"cover":"BKN","base":3600},{"cover":"OVC","base":4800}],"fltCat":"VFR"},{"icaoId":"KLAS","receiptTime":"2026-04-16T01:00:36.799Z","obsTime":1776300960,"reportTime":"2026-04-16T01:00:00.000Z","temp":27.2,"dewp":-8.9,"wdir":240,"wspd":14,"visib":"10+","altim":1011.3,"slp":1009.4,"qcField":4,"metarType":"METAR","rawOb":"METAR KLAS 160056Z 24014KT 10SM FEW200 SCT250 27/M09 A2986 RMK AO2 SLP094 T02721089","lat":36.0719,"lon":-115.1634,"elev":662,"name":"Las Vegas/Reid Intl, NV, US","cover":"SCT","clouds":[{"cover":"FEW","base":20000},{"cover":"SCT","base":25000}],"fltCat":"VFR"},{"icaoId":"KSFO","receiptTime":"2026-04-16T01:00:43.343Z","obsTime":1776300960,"reportTime":"2026-04-16T01:00:00.000Z","temp":15,"dewp":9.4,"wdir":280,"wspd":19,"visib":"10+","altim":1018.4,"slp":1018.3,"qcField":12,"metarType":"METAR","rawOb":"METAR KSFO 160056Z 28019KT 10SM FEW023 FEW032 BKN200 15/09 A3007 RMK AO2 PK WND 29032/0016 SLP183 T01500094 $","lat":37.6196,"lon":-122.3656,"elev":2,"name":"San Francisco Intl, CA, US","cover":"BKN","clouds":[{"cover":"FEW","base":2300},{"cover":"FEW","base":3200},{"cover":"BKN","base":20000}],"fltCat":"VFR"},{"icaoId":"KSLE","receiptTime":"2026-04-16T01:00:43.391Z","obsTime":1776300960,"reportTime":"2026-04-16T01:00:00.000Z","temp":6.1,"dewp":1.7,"wdir":330,"wspd":11,"wgst":29,"visib":"10+","altim":1017.4,"slp":1017.3,"qcField":4,"wxString":"-RA","precip":0.005,"metarType":"METAR","rawOb":"METAR KSLE 160056Z 33011G29KT 10SM -RA FEW031 SCT043 OVC065 06/02 A3004 RMK AO2 PK WND 33029/0047 RAB53 SLP173 P0000 T00610017","lat":44.9049,"lon":-123.001,"elev":63,"name":"Salem Muni, OR, US","cover":"OVC","clouds":[{"cover":"FEW","base":3100},{"cover":"SCT","base":4300},{"cover":"OVC","base":6500}],"fltCat":"VFR"},{"icaoId":"KJAX","receiptTime":"2026-04-16T01:00:29.603Z","obsTime":1776300960,"reportTime":"2026-04-16T01:00:00.000Z","temp":22.2,"dewp":14.4,"wdir":140,"wspd":10,"visib":"10+","altim":1019.4,"slp":1019.4,"qcField":12,"metarType":"METAR","rawOb":"METAR KJAX 160056Z 14010KT 10SM SCT250 22/14 A3010 RMK AO2 SLP194 T02220144 $","lat":30.4953,"lon":-81.6937,"elev":8,"name":"Jacksonville Intl, FL, US","cover":"SCT","clouds":[{"cover":"SCT","base":25000}],"fltCat":"VFR"},{"icaoId":"KEGE","receiptTime":"2026-04-16T00:58:30.890Z","obsTime":1776300960,"reportTime":"2026-04-16T01:00:00.000Z","temp":12.8,"dewp":-3.9,"wdir":290,"wspd":10,"visib":"10+","altim":1016.3,"slp":1013.4,"qcField":4,"metarType":"METAR","rawOb":"METAR KEGE 160056Z 29010KT 10SM CLR 13/M04 A3001 RMK AO2 SLP134 T01281039","lat":39.6448,"lon":-106.9176,"elev":1993,"name":"Eagle Cnty Rgnl, CO, US","cover":"CLR","clouds":[],"fltCat":"VFR"},{"icaoId":"KCHS","receiptTime":"2026-04-16T01:00:32.384Z","obsTime":1776300960,"reportTime":"2026-04-16T01:00:00.000Z","temp":20,"dewp":15,"wdir":190,"wspd":9,"visib":"10+","altim":1019.4,"slp":1019.3,"qcField":4,"metarType":"METAR","rawOb":"METAR KCHS 160056Z 19009KT 10SM SCT250 20/15 A3010 RMK AO2 SLP193 T02000150","lat":32.8995,"lon":-80.0407,"elev":12,"name":"Charleston Intl, SC, US","cover":"SCT","clouds":[{"cover":"SCT","base":25000}],"fltCat":"VFR"},{"icaoId":"KRNO","receiptTime":"2026-04-16T00:58:24.357Z","obsTime":1776300900,"reportTime":"2026-04-16T01:00:00.000Z","temp":16.7,"dewp":-3.3,"wdir":260,"wspd":19,"wgst":26,"visib":"10+","altim":1013.6,"slp":1010.9,"qcField":4,"metarType":"METAR","rawOb":"METAR KRNO 160055Z 26019G26KT 10SM FEW075 SCT120 BKN200 17/M03 A2993 RMK AO2 PK WND 26026/0055 SLP109 ACSL ALQDS T01671033","lat":39.5077,"lon":-119.7683,"elev":1344,"name":"Reno/Tahoe Intl, NV, US","cover":"BKN","clouds":[{"cover":"FEW","base":7500},{"cover":"SCT","base":12000},{"cover":"BKN","base":20000}],"fltCat":"VFR"},{"icaoId":"KGPI","receiptTime":"2026-04-16T00:58:32.065Z","obsTime":1776300900,"reportTime":"2026-04-16T01:00:00.000Z","temp":6.1,"dewp":2.8,"wdir":190,"wspd":7,"visib":"10+","altim":1003.1,"slp":1004.2,"qcField":4,"metarType":"METAR","rawOb":"METAR KGPI 160055Z 19007KT 10SM OVC095 06/03 A2962 RMK AO2 PRESRR SLP042 T00610028","lat":48.3041,"lon":-114.2643,"elev":903,"name":"Kalispell/Glacier Park Intl, MT, US","cover":"OVC","clouds":[{"cover":"OVC","base":9500}],"fltCat":"VFR"},{"icaoId":"KCMA","receiptTime":"2026-04-16T00:58:23.741Z","obsTime":1776300900,"reportTime":"2026-04-16T01:00:00.000Z","temp":18.9,"dewp":10,"wdir":270,"wspd":9,"visib":"10+","altim":1015,"slp":1015.7,"qcField":6,"metarType":"METAR","rawOb":"METAR KCMA 160055Z AUTO 27009KT 10SM CLR 19/10 A2997 RMK AO2 SLP157 T01890100","lat":34.2114,"lon":-119.0876,"elev":20,"name":"Camarillo Arpt, CA, US","cover":"CLR","clouds":[],"fltCat":"VFR"},{"icaoId":"KLUF","receiptTime":"2026-04-16T01:08:10.960Z","obsTime":1776300900,"reportTime":"2026-04-16T01:00:00.000Z","temp":28.7,"dewp":-10.5,"wdir":200,"wspd":5,"visib":"10+","altim":1011.3,"slp":1010.3,"qcField":14,"metarType":"METAR","rawOb":"METAR KLUF 160055Z AUTO 20005KT 10SM CLR 29/M10 A2986 RMK AO2 SLP103 T02871105 $","lat":33.538,"lon":-112.38,"elev":333,"name":"Phoenix/Luke AFB, AZ, US","cover":"CLR","clouds":[],"fltCat":"VFR"},{"icaoId":"KAST","receiptTime":"2026-04-16T00:58:24.972Z","obsTime":1776300900,"reportTime":"2026-04-16T01:00:00.000Z","temp":4.4,"dewp":2.2,"wdir":230,"wspd":7,"visib":"10+","altim":1016,"slp":1015.8,"qcField":6,"wxString":"-RA","precip":0.07,"metarType":"METAR","rawOb":"METAR KAST 160055Z AUTO 23007KT 10SM -RA FEW020 BKN036 OVC060 04/02 A3000 RMK AO2 SLP158 P0007 T00440022","lat":46.157,"lon":-123.8833,"elev":3,"name":"Astoria Rgnl, OR, US","cover":"OVC","clouds":[{"cover":"FEW","base":2000},{"cover":"BKN","base":3600},{"cover":"OVC","base":6000}],"fltCat":"VFR"},{"icaoId":"KEND","receiptTime":"2026-04-16T01:16:05.086Z","obsTime":1776300900,"reportTime":"2026-04-16T01:00:00.000Z","temp":23,"dewp":11.1,"wdir":170,"wspd":8,"visib":"10+","altim":1006.5,"slp":1005.4,"qcField":14,"metarType":"METAR","rawOb":"METAR KEND 160055Z AUTO 17008KT 10SM SCT140 23/11 A2972 RMK AO2 SLP054 T02300111 $","lat":36.338,"lon":-97.919,"elev":392,"name":"Enid/Vance AFB, OK, US","cover":"SCT","clouds":[{"cover":"SCT","base":14000}],"fltCat":"VFR"},{"icaoId":"KAEG","receiptTime":"2026-04-16T00:59:06.313Z","obsTime":1776300900,"reportTime":"2026-04-16T01:00:00.000Z","temp":18,"dewp":-11,"wdir":300,"wspd":4,"visib":"10+","altim":1017,"qcField":0,"metarType":"METAR","rawOb":"METAR KAEG 160055Z 30004KT 10SM CLR 18/M11 A3003","lat":35.15,"lon":-106.7929,"elev":1771,"name":"Albuquerque/Double Eagle Arpt, NM, US","cover":"CLR","clouds":[],"fltCat":"VFR"},{"icaoId":"KPHL","receiptTime":"2026-04-16T00:58:21.325Z","obsTime":1776300840,"reportTime":"2026-04-16T01:00:00.000Z","temp":27.2,"dewp":14.4,"wdir":210,"wspd":7,"visib":"10+","altim":1012.3,"slp":1012.1,"qcField":12,"metarType":"METAR","rawOb":"METAR KPHL 160054Z 21007KT 10SM FEW120 SCT200 BKN280 27/14 A2989 RMK AO2 SLP121 T02720144 $","lat":39.8733,"lon":-75.2268,"elev":2,"name":"Philadelphia Intl, PA, US","cover":"BKN","clouds":[{"cover":"FEW","base":12000},{"cover":"SCT","base":20000},{"cover":"BKN","base":28000}],"fltCat":"VFR"},{"icaoId":"KBFL","receiptTime":"2026-04-16T00:58:22.558Z","obsTime":1776300840,"reportTime":"2026-04-16T01:00:00.000Z","temp":23.9,"dewp":6.7,"wdir":280,"wspd":10,"visib":"10+","altim":1014.3,"slp":1013.9,"qcField":4,"metarType":"METAR","rawOb":"METAR KBFL 160054Z 28010KT 10SM CLR 24/07 A2995 RMK AO2 SLP139 T02390067","lat":35.4342,"lon":-119.0552,"elev":146,"name":"Bakersfield/Meadows Arpt, CA, US","cover":"CLR","clouds":[],"fltCat":"VFR"},{"icaoId":"KDSM","receiptTime":"2026-04-16T00:58:18.902Z","obsTime":1776300840,"reportTime":"2026-04-16T01:00:00.000Z","temp":18.3,"dewp":15,"wdir":180,"wspd":7,"visib":"10+","altim":1003.8,"slp":1003.2,"qcField":4,"metarType":"METAR","rawOb":"METAR KDSM 160054Z 18007KT 10SM FEW040 SCT060 18/15 A2964 RMK AO2 LTG DSNT NW SLP032 OCNL LTGICCG DSNT SW AND NW CB DSNT SW AND NW MOV NE TCU DSNT ALQDS T01830150","lat":41.5339,"lon":-93.6531,"elev":286,"name":"Des Moines Intl, IA, US","cover":"SCT","clouds":[{"cover":"FEW","base":4000},{"cover":"SCT","base":6000}],"fltCat":"VFR"},{"icaoId":"KEUG","receiptTime":"2026-04-16T00:58:22.702Z","obsTime":1776300840,"reportTime":"2026-04-16T01:00:00.000Z","temp":8.9,"dewp":2.8,"wdir":250,"wspd":3,"visib":"10+","altim":1018.7,"slp":1018.6,"qcField":12,"metarType":"METAR","rawOb":"METAR KEUG 160054Z 25003KT 10SM FEW020 SCT030 BKN055 09/03 A3008 RMK AO2 SLP186 VCSH CB DSNT E T00890028 $","lat":44.1331,"lon":-123.2156,"elev":109,"name":"Eugene/Mahlon Sweet Fld, OR, US","cover":"BKN","clouds":[{"cover":"FEW","base":2000},{"cover":"SCT","base":3000},{"cover":"BKN","base":5500}],"fltCat":"VFR"},{"icaoId":"KMEM","receiptTime":"2026-04-16T00:58:20.585Z","obsTime":1776300840,"reportTime":"2026-04-16T01:00:00.000Z","temp":23.3,"dewp":11.7,"wdir":200,"wspd":6,"visib":"10+","altim":1014.6,"slp":1014.2,"qcField":4,"metarType":"METAR","rawOb":"METAR KMEM 160054Z 20006KT 10SM FEW055 BKN250 23/12 A2996 RMK AO2 SLP142 T02330117","lat":35.0564,"lon":-89.9864,"elev":78,"name":"Memphis Intl, TN, US","cover":"BKN","clouds":[{"cover":"FEW","base":5500},{"cover":"BKN","base":25000}],"fltCat":"VFR"},{"icaoId":"KIND","receiptTime":"2026-04-16T00:58:14.151Z","obsTime":1776300840,"reportTime":"2026-04-16T01:00:00.000Z","temp":19.4,"dewp":16.7,"wdir":"VRB","wspd":3,"visib":"10+","altim":1011.6,"slp":1011,"qcField":4,"precip":0.005,"metarType":"METAR","rawOb":"METAR KIND 160054Z VRB03KT 10SM FEW065 BKN090 BKN110 OVC150 19/17 A2987 RMK AO2 RAE19 SLP110 P0000 T01940167","lat":39.7252,"lon":-86.2816,"elev":242,"name":"Indianapolis Intl, IN, US","cover":"OVC","clouds":[{"cover":"FEW","base":6500},{"cover":"BKN","base":9000},{"cover":"BKN","base":11000},{"cover":"OVC","base":15000}],"fltCat":"VFR"},{"icaoId":"KAPC","receiptTime":"2026-04-16T00:58:22.662Z","obsTime":1776300840,"reportTime":"2026-04-16T01:00:00.000Z","temp":16.7,"dewp":10.6,"wdir":250,"wspd":14,"visib":"10+","altim":1017.4,"slp":1016.2,"qcField":4,"metarType":"METAR","rawOb":"METAR KAPC 160054Z 25014KT 10SM CLR 17/11 A3004 RMK AO2 PK WND 26026/0015 SLP162 T01670106","lat":38.2075,"lon":-122.2804,"elev":5,"name":"Napa Cnty Arpt, CA, US","cover":"CLR","clouds":[],"fltCat":"VFR"},{"icaoId":"KSYR","receiptTime":"2026-04-16T00:58:19.215Z","obsTime":1776300840,"reportTime":"2026-04-16T01:00:00.000Z","temp":17.2,"dewp":13.3,"wdir":90,"wspd":4,"visib":"10+","altim":1011.3,"slp":1010.8,"qcField":4,"precip":0.005,"metarType":"METAR","rawOb":"METAR KSYR 160054Z 09004KT 10SM FEW070 BKN130 OVC160 17/13 A2986 RMK AO2 RAB12E24 SLP108 P0000 T01720133","lat":43.1111,"lon":-76.1038,"elev":125,"name":"Syracuse/Hancock Intl, NY, US","cover":"OVC","clouds":[{"cover":"FEW","base":7000},{"cover":"BKN","base":13000},{"cover":"OVC","base":16000}],"fltCat":"VFR"},{"icaoId":"KGSO","receiptTime":"2026-04-16T00:58:18.933Z","obsTime":1776300840,"reportTime":"2026-04-16T01:00:00.000Z","temp":24.4,"dewp":8.3,"wdir":250,"wspd":4,"visib":"10+","altim":1017,"slp":1015.8,"qcField":4,"metarType":"METAR","rawOb":"METAR KGSO 160054Z 25004KT 10SM BKN250 24/08 A3003 RMK AO2 SLP158 T02440083","lat":36.0969,"lon":-79.9432,"elev":275,"name":"Greensboro Intl, NC, US","cover":"BKN","clouds":[{"cover":"BKN","base":25000}],"fltCat":"VFR"},{"icaoId":"KOLM","receiptTime":"2026-04-16T00:58:22.629Z","obsTime":1776300840,"reportTime":"2026-04-16T01:00:00.000Z","temp":7.8,"dewp":2.2,"wdir":250,"wspd":11,"wgst":18,"visib":"10+","altim":1013,"slp":1013,"qcField":4,"precip":0.005,"metarType":"METAR","rawOb":"METAR KOLM 160054Z 25011G18KT 10SM FEW030 08/02 A2991 RMK AO2 RAB33E47 SLP130 P0000 T00780022","lat":46.9737,"lon":-122.9049,"elev":58,"name":"Olympia Rgnl, WA, US","cover":"FEW","clouds":[{"cover":"FEW","base":3000}],"fltCat":"VFR"},{"icaoId":"KSLC","receiptTime":"2026-04-16T00:58:22.608Z","obsTime":1776300840,"reportTime":"2026-04-16T01:00:00.000Z","temp":18.3,"dewp":-2.2,"wdir":340,"wspd":4,"visib":"10+","altim":1008.2,"slp":1005.4,"qcField":4,"metarType":"METAR","rawOb":"METAR KSLC 160054Z 34004KT 10SM BKN120 BKN140 BKN220 18/M02 A2977 RMK AO2 SLP054 VIRGA T01831022","lat":40.7707,"lon":-111.965,"elev":1286,"name":"Salt Lake City Intl, UT, US","cover":"BKN","clouds":[{"cover":"BKN","base":12000},{"cover":"BKN","base":14000},{"cover":"BKN","base":22000}],"fltCat":"VFR"},{"icaoId":"KOLS","receiptTime":"2026-04-16T00:58:22.591Z","obsTime":1776300840,"reportTime":"2026-04-16T01:00:00.000Z","temp":24.4,"dewp":-14.4,"wdir":260,"wspd":7,"visib":"10+","altim":1015,"slp":1010.9,"qcField":6,"metarType":"METAR","rawOb":"METAR KOLS 160054Z AUTO 26007KT 10SM CLR 24/M14 A2997 RMK AO2 SLP109 T02441144","lat":31.4208,"lon":-110.8465,"elev":1194,"name":"Nogales Intl, AZ, US","cover":"CLR","clouds":[],"fltCat":"VFR"},{"icaoId":"KRKS","receiptTime":"2026-04-16T00:58:21.510Z","obsTime":1776300840,"reportTime":"2026-04-16T01:00:00.000Z","temp":12.2,"dewp":-5.6,"wdir":250,"wspd":17,"wgst":32,"visib":"10+","altim":1011.6,"slp":1008.4,"qcField":6,"metarType":"METAR","rawOb":"METAR KRKS 160054Z AUTO 25017G32KT 10SM OVC075 12/M06 A2987 RMK AO2 PK WND 25032/0049 WSHFT 2354 SLP084 T01221056","lat":41.5947,"lon":-109.0529,"elev":2062,"name":"Rock Springs/SW Wyoming Rgnl, WY, US","cover":"OVC","clouds":[{"cover":"OVC","base":7500}],"fltCat":"VFR"},{"icaoId":"KSJN","receiptTime":"2026-04-16T00:58:21.714Z","obsTime":1776300840,"reportTime":"2026-04-16T01:00:00.000Z","temp":17.2,"dewp":-10,"wdir":350,"wspd":10,"visib":"10+","altim":1017,"slp":1012.5,"qcField":6,"metarType":"METAR","rawOb":"METAR KSJN 160054Z AUTO 35010KT 10SM CLR 17/M10 A3003 RMK AO2 SLP125 T01721100","lat":34.5184,"lon":-109.3801,"elev":1747,"name":"St Johns Ind Arpt, AZ, US","cover":"CLR","clouds":[],"fltCat":"VFR"},{"icaoId":"KRIC","receiptTime":"2026-04-16T00:58:19.090Z","obsTime":1776300840,"reportTime":"2026-04-16T01:00:00.000Z","temp":25,"dewp":12.2,"wdir":170,"wspd":5,"visib":"10+","altim":1014.3,"slp":1014.5,"qcField":4,"metarType":"METAR","rawOb":"METAR KRIC 160054Z 17005KT 10SM BKN250 25/12 A2995 RMK AO2 SLP145 T02500122","lat":37.5115,"lon":-77.3234,"elev":51,"name":"Richmond Intl, VA, US","cover":"BKN","clouds":[{"cover":"BKN","base":25000}],"fltCat":"VFR"},{"icaoId":"KCOS","receiptTime":"2026-04-16T00:58:18.870Z","obsTime":1776300840,"reportTime":"2026-04-16T01:00:00.000Z","temp":17.2,"dewp":-11.7,"wdir":140,"wspd":4,"visib":"10+","altim":1011.9,"slp":1008.1,"qcField":4,"metarType":"METAR","rawOb":"METAR KCOS 160054Z 14004KT 10SM FEW090 17/M12 A2988 RMK AO2 SLP081 T01721117","lat":38.8095,"lon":-104.6887,"elev":1886,"name":"Colorado Spring Arpt, CO, US","cover":"FEW","clouds":[{"cover":"FEW","base":9000}],"fltCat":"VFR"},{"icaoId":"KBWI","receiptTime":"2026-04-16T00:58:15.535Z","obsTime":1776300840,"reportTime":"2026-04-16T01:00:00.000Z","temp":25,"dewp":15.6,"wdir":160,"wspd":5,"visib":"10+","altim":1012.3,"slp":1012.1,"qcField":4,"metarType":"METAR","rawOb":"METAR KBWI 160054Z 16005KT 10SM SCT250 25/16 A2989 RMK AO2 SLP121 T02500156","lat":39.1733,"lon":-76.684,"elev":42,"name":"Baltimore-Washington Intl, MD, US","cover":"SCT","clouds":[{"cover":"SCT","base":25000}],"fltCat":"VFR"},{"icaoId":"KGCN","receiptTime":"2026-04-16T00:58:22.575Z","obsTime":1776300840,"reportTime":"2026-04-16T01:00:00.000Z","temp":16.1,"dewp":-10,"wdir":230,"wspd":12,"wgst":19,"visib":"10+","altim":1018,"slp":1014.6,"qcField":4,"metarType":"METAR","rawOb":"METAR KGCN 160054Z 23012G19KT 10SM CLR 16/M10 A3006 RMK AO2 SLP146 T01611100","lat":35.9458,"lon":-112.1554,"elev":1993,"name":"Grand Canyon Park Arpt, AZ, US","cover":"CLR","clouds":[],"fltCat":"VFR"},{"icaoId":"KBOS","receiptTime":"2026-04-16T00:58:15.480Z","obsTime":1776300840,"reportTime":"2026-04-16T01:00:00.000Z","temp":8.3,"dewp":7.8,"wdir":50,"wspd":5,"visib":0.5,"altim":1013.6,"slp":1013.5,"qcField":12,"wxString":"FG","metarType":"METAR","rawOb":"METAR KBOS 160054Z 05005KT 1/2SM R04R/P6000FT FG OVC002 08/08 A2993 RMK AO2 SLP135 T00830078 $","lat":42.3606,"lon":-71.0097,"elev":4,"name":"Boston/Logan Intl, MA, US","cover":"OVC","clouds":[{"cover":"OVC","base":200}],"fltCat":"LIFR"},{"icaoId":"KFFZ","receiptTime":"2026-04-16T00:58:13.768Z","obsTime":1776300840,"reportTime":"2026-04-16T01:00:00.000Z","temp":27.2,"dewp":-5.6,"wdir":0,"wspd":0,"visib":"10+","altim":1011.9,"slp":1010,"qcField":6,"metarType":"METAR","rawOb":"METAR KFFZ 160054Z AUTO 00000KT 10SM CLR 27/M06 A2988 RMK AO2 SLP100 T02721056","lat":33.4659,"lon":-111.7212,"elev":420,"name":"Mesa/Falcon Fld, AZ, US","cover":"CLR","clouds":[],"fltCat":"VFR"},{"icaoId":"KMSY","receiptTime":"2026-04-16T00:56:35.150Z","obsTime":1776300780,"reportTime":"2026-04-16T01:00:00.000Z","temp":23.9,"dewp":18.3,"wdir":150,"wspd":8,"visib":"10+","altim":1018,"slp":1018.1,"qcField":4,"metarType":"METAR","rawOb":"METAR KMSY 160053Z 15008KT 10SM FEW032 SCT060 SCT250 24/18 A3006 RMK AO2 SLP181 T02390183","lat":29.9974,"lon":-90.2777,"elev":0,"name":"New Orleans/Armstrong Intl, LA, US","cover":"SCT","clouds":[{"cover":"FEW","base":3200},{"cover":"SCT","base":6000},{"cover":"SCT","base":25000}],"fltCat":"VFR"},{"icaoId":"KPNC","receiptTime":"2026-04-16T00:56:29.637Z","obsTime":1776300780,"reportTime":"2026-04-16T01:00:00.000Z","temp":19.4,"dewp":15,"wdir":0,"wspd":0,"visib":"10+","altim":1007.5,"slp":1006.5,"qcField":6,"precip":0.07,"metarType":"METAR","rawOb":"METAR KPNC 160053Z AUTO 00000KT 10SM CLR 19/15 A2975 RMK AO2 LTG DSNT E AND SE RAB00E22 TSB2358E27 SLP065 P0007 T01940150","lat":36.7369,"lon":-97.1024,"elev":304,"name":"Ponca City Rgnl, OK, US","cover":"CLR","clouds":[],"fltCat":"VFR"},{"icaoId":"KPRC","receiptTime":"2026-04-16T00:56:29.747Z","obsTime":1776300780,"reportTime":"2026-04-16T01:00:00.000Z","temp":18.9,"dewp":-7.8,"wdir":240,"wspd":12,"visib":"10+","altim":1016.7,"slp":1012.2,"qcField":4,"metarType":"METAR","rawOb":"METAR KPRC 160053Z 24012KT 10SM CLR 19/M08 A3002 RMK AO2 SLP122 T01891078","lat":34.6491,"lon":-112.4223,"elev":1528,"name":"Prescott/Love Fld, AZ, US","cover":"CLR","clouds":[],"fltCat":"VFR"},{"icaoId":"KPSC","receiptTime":"2026-04-16T00:56:29.771Z","obsTime":1776300780,"reportTime":"2026-04-16T01:00:00.000Z","temp":12.8,"dewp":-5,"wdir":270,"wspd":16,"visib":"10+","altim":1009.2,"slp":1008.9,"qcField":4,"metarType":"METAR","rawOb":"METAR KPSC 160053Z 27016KT 10SM FEW085 13/M05 A2980 RMK AO2 PK WND 28027/0035 SLP089 T01281050","lat":46.2695,"lon":-119.1182,"elev":121,"name":"Pasco/Tri Cities Arpt, WA, US","cover":"FEW","clouds":[{"cover":"FEW","base":8500}],"fltCat":"VFR"},{"icaoId":"KPSP","receiptTime":"2026-04-16T00:56:29.797Z","obsTime":1776300780,"reportTime":"2026-04-16T01:00:00.000Z","temp":29.4,"dewp":1.1,"wdir":140,"wspd":9,"visib":"10+","altim":1010.9,"slp":1010.5,"qcField":12,"metarType":"METAR","rawOb":"METAR KPSP 160053Z 14009KT 10SM CLR 29/01 A2985 RMK AO2 SLP105 T02940011 $","lat":33.8222,"lon":-116.5043,"elev":123,"name":"Palm Springs Intl, CA, US","cover":"CLR","clouds":[],"fltCat":"VFR"},{"icaoId":"KPUB","receiptTime":"2026-04-16T00:56:29.837Z","obsTime":1776300780,"reportTime":"2026-04-16T01:00:00.000Z","temp":21.1,"dewp":-12.8,"wdir":260,"wspd":10,"visib":"10+","altim":1009.6,"slp":1006.4,"qcField":12,"metarType":"METAR","rawOb":"METAR KPUB 160053Z 26010KT 10SM CLR 21/M13 A2981 RMK AO2 SLP064 T02111128 $","lat":38.2887,"lon":-104.5057,"elev":1441,"name":"Pueblo Mem Arpt, CO, US","cover":"CLR","clouds":[],"fltCat":"VFR"},{"icaoId":"KMCO","receiptTime":"2026-04-16T00:56:30.522Z","obsTime":1776300780,"reportTime":"2026-04-16T01:00:00.000Z","temp":21.7,"dewp":15,"wdir":110,"wspd":9,"visib":"10+","altim":1021.1,"slp":1020.7,"qcField":4,"metarType":"METAR","rawOb":"METAR KMCO 160053Z 11009KT 10SM FEW250 22/15 A3015 RMK AO2 SLP207 T02170150","lat":28.4182,"lon":-81.3241,"elev":27,"name":"Orlando Intl, FL, US","cover":"FEW","clouds":[{"cover":"FEW","base":25000}],"fltCat":"VFR"},{"icaoId":"KGEG","receiptTime":"2026-04-16T00:56:30.647Z","obsTime":1776300780,"reportTime":"2026-04-16T01:00:00.000Z","temp":8.9,"dewp":-10.6,"wdir":260,"wspd":26,"wgst":37,"visib":"10+","altim":1004.1,"slp":1004.6,"qcField":4,"metarType":"METAR","rawOb":"METAR KGEG 160053Z 26026G37KT 10SM FEW020 SCT040 BKN100 09/M11 A2965 RMK AO2 PK WND 26037/0048 SLP046 VIRGA SHRA DSNT ALQDS T00891106","lat":47.6217,"lon":-117.528,"elev":718,"name":"Spokane Intl, WA, US","cover":"BKN","clouds":[{"cover":"FEW","base":2000},{"cover":"SCT","base":4000},{"cover":"BKN","base":10000}],"fltCat":"VFR"},{"icaoId":"KGJT","receiptTime":"2026-04-16T00:56:30.781Z","obsTime":1776300780,"reportTime":"2026-04-16T01:00:00.000Z","temp":16.7,"dewp":-1.7,"wdir":340,"wspd":3,"visib":"10+","altim":1014,"slp":1010.7,"qcField":4,"metarType":"METAR","rawOb":"METAR KGJT 160053Z 34003KT 10SM CLR 17/M02 A2994 RMK AO2 SLP107 T01671017","lat":39.1344,"lon":-108.5408,"elev":1475,"name":"Grand Junction Rgnl, CO, US","cover":"CLR","clouds":[],"fltCat":"VFR"},{"icaoId":"KCYS","receiptTime":"2026-04-16T00:56:31.583Z","obsTime":1776300780,"reportTime":"2026-04-16T01:00:00.000Z","temp":13.9,"dewp":-5.6,"wdir":270,"wspd":15,"wgst":25,"visib":"10+","altim":1011.3,"slp":1006.8,"qcField":4,"metarType":"METAR","rawOb":"METAR KCYS 160053Z 27015G25KT 10SM CLR 14/M06 A2986 RMK AO2 PK WND 27032/0014 SLP068 T01391056","lat":41.1579,"lon":-104.8081,"elev":1868,"name":"Cheyenne Rgnl, WY, US","cover":"CLR","clouds":[],"fltCat":"VFR"},{"icaoId":"KDEN","receiptTime":"2026-04-16T00:56:31.684Z","obsTime":1776300780,"reportTime":"2026-04-16T01:00:00.000Z","temp":17.2,"dewp":-8.9,"wdir":270,"wspd":9,"visib":"10+","altim":1010.9,"slp":1006.8,"qcField":4,"metarType":"METAR","rawOb":"METAR KDEN 160053Z 27009KT 10SM FEW090 FEW120 FEW220 17/M09 A2985 RMK AO2 SLP068 T01721089","lat":39.8466,"lon":-104.6562,"elev":1656,"name":"Denver Intl, CO, US","cover":"FEW","clouds":[{"cover":"FEW","base":9000},{"cover":"FEW","base":12000},{"cover":"FEW","base":22000}],"fltCat":"VFR"},{"icaoId":"KBRO","receiptTime":"2026-04-16T00:56:31.943Z","obsTime":1776300780,"reportTime":"2026-04-16T01:00:00.000Z","temp":26.1,"dewp":21.1,"wdir":150,"wspd":11,"wgst":19,"visib":"10+","altim":1012.6,"slp":1012.2,"qcField":4,"metarType":"METAR","rawOb":"METAR KBRO 160053Z 15011G19KT 10SM CLR 26/21 A2990 RMK AO2 SLP122 T02610211","lat":25.9146,"lon":-97.4231,"elev":6,"name":"Brownsville Intl, TX, US","cover":"CLR","clouds":[],"fltCat":"VFR"},{"icaoId":"KBUR","receiptTime":"2026-04-16T00:56:32.017Z","obsTime":1776300780,"reportTime":"2026-04-16T01:00:00.000Z","temp":22.8,"dewp":3.9,"wdir":200,"wspd":5,"visib":"10+","altim":1014.6,"slp":1013.5,"qcField":6,"metarType":"METAR","rawOb":"METAR KBUR 160053Z AUTO 20005KT 10SM CLR 23/04 A2996 RMK AO2 SLP135 T02280039","lat":34.1996,"lon":-118.3654,"elev":221,"name":"Burbank/Bob Hope Arpt, CA, US","cover":"CLR","clouds":[],"fltCat":"VFR"},{"icaoId":"PANC","receiptTime":"2026-04-16T00:56:32.047Z","obsTime":1776300780,"reportTime":"2026-04-16T01:00:00.000Z","temp":1.7,"dewp":-1.7,"wdir":110,"wspd":5,"visib":"10+","altim":1012.6,"slp":1012.8,"qcField":4,"metarType":"METAR","rawOb":"METAR PANC 160053Z 11005KT 10SM OVC033 02/M02 A2990 RMK AO2 SLP128 T00171017","lat":61.1691,"lon":-150.0277,"elev":39,"name":"Anchorage Intl, AK, US","cover":"OVC","clouds":[{"cover":"OVC","base":3300}],"fltCat":"VFR"},{"icaoId":"KACV","receiptTime":"2026-04-16T00:56:32.494Z","obsTime":1776300780,"reportTime":"2026-04-16T01:00:00.000Z","temp":10.6,"dewp":3.9,"wdir":340,"wspd":13,"wgst":18,"visib":"10+","altim":1020.7,"slp":1021.2,"qcField":6,"metarType":"METAR","rawOb":"METAR KACV 160053Z AUTO 34013G18KT 10SM BKN044 11/04 A3014 RMK AO2 SLP212 T01060039","lat":40.9784,"lon":-124.1048,"elev":63,"name":"Arcata Arpt, CA, US","cover":"BKN","clouds":[{"cover":"BKN","base":4400}],"fltCat":"VFR"},{"icaoId":"KRTN","receiptTime":"2026-04-16T00:56:34.548Z","obsTime":1776300780,"reportTime":"2026-04-16T01:00:00.000Z","temp":16.1,"dewp":-12.2,"wdir":290,"wspd":10,"visib":"10+","altim":1013.6,"slp":1009.9,"qcField":6,"metarType":"METAR","rawOb":"METAR KRTN 160053Z AUTO 29010KT 10SM CLR 16/M12 A2993 RMK AO2 SLP099 T01611122","lat":36.7418,"lon":-104.5076,"elev":1939,"name":"Raton/Crews Fld, NM, US","cover":"CLR","clouds":[],"fltCat":"VFR"},{"icaoId":"KAPA","receiptTime":"2026-04-16T00:56:32.771Z","obsTime":1776300780,"reportTime":"2026-04-16T01:00:00.000Z","temp":16.1,"dewp":-7.2,"wdir":330,"wspd":11,"visib":"10+","altim":1011.6,"slp":1008.7,"qcField":4,"metarType":"METAR","rawOb":"METAR KAPA 160053Z 33011KT 10SM FEW100 FEW220 16/M07 A2987 RMK AO2 SLP087 T01611072","lat":39.5599,"lon":-104.8484,"elev":1791,"name":"Denver/Centennial Arpt, CO, US","cover":"FEW","clouds":[{"cover":"FEW","base":10000},{"cover":"FEW","base":22000}],"fltCat":"VFR"},{"icaoId":"KAUS","receiptTime":"2026-04-16T00:56:32.934Z","obsTime":1776300780,"reportTime":"2026-04-16T01:00:00.000Z","temp":27.2,"dewp":17.8,"wdir":150,"wspd":10,"visib":"10+","altim":1012.3,"slp":1011.1,"qcField":4,"metarType":"METAR","rawOb":"METAR KAUS 160053Z 15010KT 10SM SCT060 BKN075 27/18 A2989 RMK AO2 SLP111 T02720178","lat":30.1831,"lon":-97.6806,"elev":148,"name":"Austin/Bergstrom Intl, TX, US","cover":"BKN","clouds":[{"cover":"SCT","base":6000},{"cover":"BKN","base":7500}],"fltCat":"VFR"},{"icaoId":"KBCE","receiptTime":"2026-04-16T00:56:33.035Z","obsTime":1776300780,"reportTime":"2026-04-16T01:00:00.000Z","temp":11.7,"dewp":-5.6,"wdir":250,"wspd":12,"visib":"10+","altim":1018.4,"slp":1013.3,"qcField":6,"metarType":"METAR","rawOb":"METAR KBCE 160053Z AUTO 25012KT 10SM CLR 12/M06 A3007 RMK AO2 SLP133 T01171056","lat":37.7013,"lon":-112.149,"elev":2311,"name":"Bryce Canyon Arpt, UT, US","cover":"CLR","clouds":[],"fltCat":"VFR"},{"icaoId":"KBIL","receiptTime":"2026-04-16T00:56:33.215Z","obsTime":1776300780,"reportTime":"2026-04-16T01:00:00.000Z","temp":16.7,"dewp":-1.7,"wdir":230,"wspd":12,"visib":"10+","altim":1000.4,"slp":999,"qcField":4,"metarType":"METAR","rawOb":"METAR KBIL 160053Z 23012KT 10SM FEW085 SCT120 BKN220 17/M02 A2954 RMK AO2 SLP990 ACSL DSNT N-S SHRA DSNT W-N T01671017","lat":45.8072,"lon":-108.5462,"elev":1089,"name":"Billings/Logan Intl, MT, US","cover":"BKN","clouds":[{"cover":"FEW","base":8500},{"cover":"SCT","base":12000},{"cover":"BKN","base":22000}],"fltCat":"VFR"},{"icaoId":"KBLI","receiptTime":"2026-04-16T00:56:33.328Z","obsTime":1776300780,"reportTime":"2026-04-16T01:00:00.000Z","temp":7.8,"dewp":0,"wdir":310,"wspd":8,"visib":"10+","altim":1011.9,"slp":1012.6,"qcField":4,"metarType":"METAR","rawOb":"METAR KBLI 160053Z 31008KT 10SM CLR 08/00 A2988 RMK AO2 SLP126 T00780000","lat":48.7991,"lon":-122.5407,"elev":46,"name":"Bellingham Intl, WA, US","cover":"CLR","clouds":[],"fltCat":"VFR"},{"icaoId":"KBNA","receiptTime":"2026-04-16T00:56:33.384Z","obsTime":1776300780,"reportTime":"2026-04-16T01:00:00.000Z","temp":24.4,"dewp":9.4,"wdir":200,"wspd":5,"visib":"10+","altim":1016.3,"slp":1015.7,"qcField":4,"metarType":"METAR","rawOb":"METAR KBNA 160053Z 20005KT 10SM SCT250 24/09 A3001 RMK AO2 SLP157 T02440094","lat":36.1105,"lon":-86.6881,"elev":168,"name":"Nashville Intl, TN, US","cover":"SCT","clouds":[{"cover":"SCT","base":25000}],"fltCat":"VFR"},{"icaoId":"KPBI","receiptTime":"2026-04-16T00:56:34.320Z","obsTime":1776300780,"reportTime":"2026-04-16T01:00:00.000Z","temp":23.9,"dewp":15.6,"wdir":60,"wspd":8,"visib":"10+","altim":1020.1,"slp":1020,"qcField":12,"metarType":"METAR","rawOb":"METAR KPBI 160053Z 06008KT 10SM BKN041 BKN250 24/16 A3012 RMK AO2 SLP200 T02390156 $","lat":26.6851,"lon":-80.0992,"elev":4,"name":"Palm Beach Intl, FL, US","cover":"BKN","clouds":[{"cover":"BKN","base":4100},{"cover":"BKN","base":25000}],"fltCat":"VFR"},{"icaoId":"KPDX","receiptTime":"2026-04-16T00:56:34.366Z","obsTime":1776300780,"reportTime":"2026-04-16T01:00:00.000Z","temp":8.3,"dewp":0,"wdir":300,"wspd":14,"wgst":25,"visib":"10+","altim":1016.7,"slp":1016.4,"qcField":4,"precip":0.005,"metarType":"METAR","rawOb":"METAR KPDX 160053Z 30014G25KT 10SM FEW015 SCT040 BKN055 08/00 A3002 RMK AO2 PK WND 31026/0008 RAE13 SLP164 P0000 T00830000","lat":45.5958,"lon":-122.6092,"elev":7,"name":"Portland Intl, OR, US","cover":"BKN","clouds":[{"cover":"FEW","base":1500},{"cover":"SCT","base":4000},{"cover":"BKN","base":5500}],"fltCat":"VFR"},{"icaoId":"KSAF","receiptTime":"2026-04-16T00:56:34.669Z","obsTime":1776300780,"reportTime":"2026-04-16T01:00:00.000Z","temp":15.6,"dewp":-12.2,"wdir":250,"wspd":16,"wgst":27,"visib":"10+","altim":1016.7,"slp":1011.8,"qcField":4,"metarType":"METAR","rawOb":"METAR KSAF 160053Z 25016G27KT 10SM CLR 16/M12 A3002 RMK AO2 PK WND 24031/0010 SLP118 T01561122","lat":35.611,"lon":-106.0957,"elev":1918,"name":"Santa Fe Cnty Muni, NM, US","cover":"CLR","clouds":[],"fltCat":"VFR"},{"icaoId":"KMLS","receiptTime":"2026-04-16T00:56:34.912Z","obsTime":1776300780,"reportTime":"2026-04-16T01:00:00.000Z","temp":17.2,"dewp":2.8,"wdir":110,"wspd":5,"visib":"10+","altim":1000.1,"slp":999.6,"qcField":6,"metarType":"METAR","rawOb":"METAR KMLS 160053Z AUTO 11005KT 10SM CLR 17/03 A2953 RMK AO2 SLP996 T01720028","lat":46.4265,"lon":-105.8834,"elev":800,"name":"Miles City/Wiley Fld, MT, US","cover":"CLR","clouds":[],"fltCat":"VFR"},{"icaoId":"KMOD","receiptTime":"2026-04-16T00:56:35.013Z","obsTime":1776300780,"reportTime":"2026-04-16T01:00:00.000Z","temp":21.7,"dewp":5,"wdir":310,"wspd":11,"visib":"10+","altim":1015.7,"slp":1015.5,"qcField":4,"metarType":"METAR","rawOb":"METAR KMOD 160053Z 31011KT 10SM CLR 22/05 A2999 RMK AO2 SLP155 T02170050","lat":37.6254,"lon":-120.9549,"elev":25,"name":"Modesto/Sham Fld, CA, US","cover":"CLR","clouds":[],"fltCat":"VFR"},{"icaoId":"KMTJ","receiptTime":"2026-04-16T00:56:35.195Z","obsTime":1776300780,"reportTime":"2026-04-16T01:00:00.000Z","temp":15.6,"dewp":-6.1,"wdir":250,"wspd":7,"visib":"10+","altim":1016.3,"slp":1012.5,"qcField":6,"metarType":"METAR","rawOb":"METAR KMTJ 160053Z AUTO 25007KT 10SM CLR 16/M06 A3001 RMK AO2 SLP125 T01561061","lat":38.5054,"lon":-107.8981,"elev":1755,"name":"Montrose Rgnl, CO, US","cover":"CLR","clouds":[],"fltCat":"VFR"},{"icaoId":"KMYF","receiptTime":"2026-04-16T00:56:35.275Z","obsTime":1776300780,"reportTime":"2026-04-16T01:00:00.000Z","temp":18.9,"dewp":11.7,"wdir":290,"wspd":8,"visib":"10+","altim":1015,"slp":1014.7,"qcField":4,"metarType":"METAR","rawOb":"METAR KMYF 160053Z 29008KT 10SM CLR 19/12 A2997 RMK AO2 SLP147 T01890117","lat":32.8145,"lon":-117.1375,"elev":128,"name":"San Diego/Montgomery Arpt, CA, US","cover":"CLR","clouds":[],"fltCat":"VFR"},{"icaoId":"KHLN","receiptTime":"2026-04-16T00:56:35.467Z","obsTime":1776300780,"reportTime":"2026-04-16T01:00:00.000Z","temp":11.1,"dewp":2.8,"wdir":40,"wspd":10,"visib":"10+","altim":998.7,"slp":999.8,"qcField":4,"metarType":"METAR","rawOb":"METAR KHLN 160053Z 04010KT 10SM BKN110 11/03 A2949 RMK AO2 SLP998 T01110028","lat":46.6045,"lon":-111.9892,"elev":1178,"name":"Helena Rgnl, MT, US","cover":"BKN","clouds":[{"cover":"BKN","base":11000}],"fltCat":"VFR"},{"icaoId":"KHOU","receiptTime":"2026-04-16T00:56:35.500Z","obsTime":1776300780,"reportTime":"2026-04-16T01:00:00.000Z","temp":24.4,"dewp":20,"wdir":160,"wspd":10,"visib":"10+","altim":1015,"slp":1015.2,"qcField":4,"metarType":"METAR","rawOb":"METAR KHOU 160053Z 16010KT 10SM FEW035 SCT070 SCT250 24/20 A2997 RMK AO2 SLP152 T02440200","lat":29.6458,"lon":-95.2821,"elev":13,"name":"Houston/Hobby Arpt, TX, US","cover":"SCT","clouds":[{"cover":"FEW","base":3500},{"cover":"SCT","base":7000},{"cover":"SCT","base":25000}],"fltCat":"VFR"},{"icaoId":"KIAH","receiptTime":"2026-04-16T00:56:35.780Z","obsTime":1776300780,"reportTime":"2026-04-16T01:00:00.000Z","temp":25,"dewp":18.9,"wdir":170,"wspd":12,"visib":"10+","altim":1014.6,"slp":1014.6,"qcField":4,"metarType":"METAR","rawOb":"METAR KIAH 160053Z 17012KT 10SM FEW035 FEW070 SCT250 25/19 A2996 RMK AO2 SLP146 T02500189","lat":29.9844,"lon":-95.3607,"elev":27,"name":"Houston/Bush Intl, TX, US","cover":"SCT","clouds":[{"cover":"FEW","base":3500},{"cover":"FEW","base":7000},{"cover":"SCT","base":25000}],"fltCat":"VFR"},{"icaoId":"KEVW","receiptTime":"2026-04-16T00:56:36.290Z","obsTime":1776300780,"reportTime":"2026-04-16T01:00:00.000Z","temp":10,"dewp":-4.4,"wdir":230,"wspd":19,"wgst":27,"visib":"10+","altim":1011.9,"slp":1008.6,"qcField":14,"metarType":"METAR","rawOb":"METAR KEVW 160053Z AUTO 23019G27KT 10SM CLR 10/M04 A2988 RMK AO2 PK WND 22039/0020 SLP086 T01001044 $","lat":41.2727,"lon":-111.0305,"elev":2178,"name":"Evanston/Uinta Cnty, WY, US","cover":"CLR","clouds":[],"fltCat":"VFR"},{"icaoId":"KFAT","receiptTime":"2026-04-16T00:56:36.383Z","obsTime":1776300780,"reportTime":"2026-04-16T01:00:00.000Z","temp":23.9,"dewp":4.4,"wdir":340,"wspd":7,"visib":"10+","altim":1015,"slp":1014.6,"qcField":12,"metarType":"METAR","rawOb":"METAR KFAT 160053Z 34007KT 10SM FEW050 SCT130 BKN200 24/04 A2997 RMK AO2 SLP146 T02390044 $","lat":36.78,"lon":-119.7202,"elev":102,"name":"Fresno/Yosemite Intl, CA, US","cover":"BKN","clouds":[{"cover":"FEW","base":5000},{"cover":"SCT","base":13000},{"cover":"BKN","base":20000}],"fltCat":"VFR"},{"icaoId":"KVEL","receiptTime":"2026-04-16T00:56:37.148Z","obsTime":1776300780,"reportTime":"2026-04-16T01:00:00.000Z","temp":16.1,"dewp":-2.2,"wdir":210,"wspd":19,"wgst":27,"visib":"10+","altim":1011.6,"slp":1009,"qcField":6,"metarType":"METAR","rawOb":"METAR KVEL 160053Z AUTO 21019G27KT 10SM BKN085 OVC110 16/M02 A2987 RMK AO2 PK WND 20030/0015 SLP090 T01611022","lat":40.4429,"lon":-109.5128,"elev":1604,"name":"Vernal Rgnl, UT, US","cover":"OVC","clouds":[{"cover":"BKN","base":8500},{"cover":"OVC","base":11000}],"fltCat":"VFR"},{"icaoId":"KVGT","receiptTime":"2026-04-16T00:56:37.161Z","obsTime":1776300780,"reportTime":"2026-04-16T01:00:00.000Z","temp":26.7,"dewp":-10,"wdir":220,"wspd":11,"visib":"10+","altim":1010.6,"slp":1010.5,"qcField":4,"metarType":"METAR","rawOb":"METAR KVGT 160053Z 22011KT 10SM CLR 27/M10 A2984 RMK AO2 SLP105 T02671100","lat":36.212,"lon":-115.194,"elev":664,"name":"Las Vegas/North Arpt, NV, US","cover":"CLR","clouds":[],"fltCat":"VFR"},{"icaoId":"KCNM","receiptTime":"2026-04-16T00:56:37.846Z","obsTime":1776300780,"reportTime":"2026-04-16T01:00:00.000Z","temp":26.1,"dewp":-9.4,"wdir":270,"wspd":17,"wgst":25,"visib":"10+","altim":1013.3,"slp":1008.9,"qcField":6,"metarType":"METAR","rawOb":"METAR KCNM 160053Z AUTO 27017G25KT 10SM CLR 26/M09 A2992 RMK AO2 SLP089 T02611094","lat":32.3336,"lon":-104.2584,"elev":993,"name":"Carlsbad/Cavern City Air Term, NM, US","cover":"CLR","clouds":[],"fltCat":"VFR"},{"icaoId":"KDMN","receiptTime":"2026-04-16T00:56:37.907Z","obsTime":1776300780,"reportTime":"2026-04-16T01:00:00.000Z","temp":22.8,"dewp":-16.7,"wdir":280,"wspd":14,"wgst":21,"visib":"10+","altim":1016,"slp":1011.5,"qcField":6,"metarType":"METAR","rawOb":"METAR KDMN 160053Z AUTO 28014G21KT 10SM CLR 23/M17 A3000 RMK AO2 SLP115 T02281167","lat":32.2592,"lon":-107.7206,"elev":1310,"name":"Deming Muni, NM, US","cover":"CLR","clouds":[],"fltCat":"VFR"},{"icaoId":"KLAW","receiptTime":"2026-04-16T00:56:36.083Z","obsTime":1776300780,"reportTime":"2026-04-16T01:00:00.000Z","temp":20.6,"dewp":15.6,"wdir":150,"wspd":7,"visib":"10+","altim":1009.6,"slp":1008.7,"qcField":6,"metarType":"METAR","rawOb":"METAR KLAW 160053Z AUTO 15007KT 10SM CLR 21/16 A2981 RMK AO2 SLP087 T02060156","lat":34.5577,"lon":-98.4172,"elev":328,"name":"Lawton-Fort Sill Rgnl, OK, US","cover":"CLR","clouds":[],"fltCat":"VFR"},{"icaoId":"KLBB","receiptTime":"2026-04-16T00:56:36.116Z","obsTime":1776300780,"reportTime":"2026-04-16T01:00:00.000Z","temp":25,"dewp":-8.9,"wdir":260,"wspd":13,"visib":"10+","altim":1012.3,"slp":1008.1,"qcField":4,"metarType":"METAR","rawOb":"METAR KLBB 160053Z 26013KT 10SM FEW120 25/M09 A2989 RMK AO2 SLP081 T02501089","lat":33.6658,"lon":-101.8233,"elev":996,"name":"Lubbock Intl Arpt, TX, US","cover":"FEW","clouds":[{"cover":"FEW","base":12000}],"fltCat":"VFR"},{"icaoId":"KBFI","receiptTime":"2026-04-16T00:56:33.131Z","obsTime":1776300780,"reportTime":"2026-04-16T01:00:00.000Z","temp":5.6,"dewp":3.3,"wdir":0,"wspd":0,"visib":"10+","altim":1013.3,"slp":1013,"qcField":4,"precip":0.005,"metarType":"METAR","rawOb":"METAR KBFI 160053Z 00000KT 10SM SCT030 OVC040 06/03 A2992 RMK AO2 RAE48 TSE25 SLP130 P0000 T00560033","lat":47.5455,"lon":-122.3148,"elev":7,"name":"Seattle/Boeing Fld, WA, US","cover":"OVC","clouds":[{"cover":"SCT","base":3000},{"cover":"OVC","base":4000}],"fltCat":"VFR"},{"icaoId":"KTUS","receiptTime":"2026-04-16T00:56:29.138Z","obsTime":1776300780,"reportTime":"2026-04-16T01:00:00.000Z","temp":26.7,"dewp":-15,"wdir":300,"wspd":5,"visib":"10+","altim":1014,"slp":1010.8,"qcField":12,"metarType":"METAR","rawOb":"METAR KTUS 160053Z 30005KT 10SM CLR 27/M15 A2994 RMK AO2 SLP108 T02671150 $","lat":32.1315,"lon":-110.9564,"elev":776,"name":"Tucson Intl Arpt, AZ, US","cover":"CLR","clouds":[],"fltCat":"VFR"},{"icaoId":"KYKM","receiptTime":"2026-04-16T00:56:37.324Z","obsTime":1776300780,"reportTime":"2026-04-16T01:00:00.000Z","temp":10,"dewp":-6.7,"wdir":310,"wspd":12,"visib":"10+","altim":1008.9,"slp":1009.2,"qcField":4,"metarType":"METAR","rawOb":"METAR KYKM 160053Z 31012KT 10SM CLR 10/M07 A2979 RMK AO2 PK WND 31026/0013 SLP092 T01001067","lat":46.564,"lon":-120.5349,"elev":319,"name":"Yakima/McAllister Fld, WA, US","cover":"CLR","clouds":[],"fltCat":"VFR"},{"icaoId":"KSBA","receiptTime":"2026-04-16T00:56:34.700Z","obsTime":1776300780,"reportTime":"2026-04-16T01:00:00.000Z","temp":18.3,"dewp":10,"wdir":270,"wspd":5,"visib":"10+","altim":1015,"slp":1014.9,"qcField":12,"metarType":"METAR","rawOb":"METAR KSBA 160053Z 27005KT 10SM CLR 18/10 A2997 RMK AO2 SLP149 T01830100 $","lat":34.4241,"lon":-119.8425,"elev":2,"name":"Santa Barbara Muni, CA, US","cover":"CLR","clouds":[],"fltCat":"VFR"},{"icaoId":"KLOL","receiptTime":"2026-04-16T00:56:30.196Z","obsTime":1776300780,"reportTime":"2026-04-16T01:00:00.000Z","temp":18.3,"dewp":-1.7,"wdir":250,"wspd":16,"wgst":26,"visib":"10+","altim":1011.3,"slp":1009.7,"qcField":6,"metarType":"METAR","rawOb":"METAR KLOL 160053Z AUTO 25016G26KT 10SM BKN085 18/M02 A2986 RMK AO2 PK WND 27030/0002 SLP097 T01831017","lat":40.0684,"lon":-118.5702,"elev":1191,"name":"Lovelock/Derby Fld, NV, US","cover":"BKN","clouds":[{"cover":"BKN","base":8500}],"fltCat":"VFR"},{"icaoId":"KCPR","receiptTime":"2026-04-16T00:56:31.370Z","obsTime":1776300780,"reportTime":"2026-04-16T01:00:00.000Z","temp":17.8,"dewp":-6.1,"wdir":260,"wspd":24,"wgst":33,"visib":"10+","altim":1006.5,"slp":1003,"qcField":4,"metarType":"METAR","rawOb":"METAR KCPR 160053Z 26024G33KT 10SM BKN100 18/M06 A2972 RMK AO2 PK WND 26037/0012 SLP030 T01781061","lat":42.8978,"lon":-106.4736,"elev":1623,"name":"Casper/Natrona Cnty, WY, US","cover":"BKN","clouds":[{"cover":"BKN","base":10000}],"fltCat":"VFR"},{"icaoId":"KRIW","receiptTime":"2026-04-16T00:56:34.412Z","obsTime":1776300780,"reportTime":"2026-04-16T01:00:00.000Z","temp":13.9,"dewp":-2.8,"wdir":210,"wspd":21,"wgst":29,"visib":"10+","altim":1006.2,"slp":1003.8,"qcField":6,"metarType":"METAR","rawOb":"METAR KRIW 160053Z AUTO 21021G29KT 10SM CLR 14/M03 A2971 RMK AO2 PK WND 22029/0053 SLP038 T01391028","lat":43.0622,"lon":-108.4471,"elev":1662,"name":"Riverton Rgnl, WY, US","cover":"CLR","clouds":[],"fltCat":"VFR"},{"icaoId":"KDRO","receiptTime":"2026-04-16T00:56:37.958Z","obsTime":1776300780,"reportTime":"2026-04-16T01:00:00.000Z","temp":13.9,"dewp":-5.6,"wdir":240,"wspd":8,"visib":"10+","altim":1017.4,"slp":1015.7,"qcField":6,"metarType":"METAR","rawOb":"METAR KDRO 160053Z AUTO 24008KT 10SM BKN085 14/M06 A3004 RMK AO2 SLP157 T01391056","lat":37.1431,"lon":-107.7602,"elev":2021,"name":"Durango/La Plata Cnty, CO, US","cover":"BKN","clouds":[{"cover":"BKN","base":8500}],"fltCat":"VFR"},{"icaoId":"KDTW","receiptTime":"2026-04-16T00:56:38.050Z","obsTime":1776300780,"reportTime":"2026-04-16T01:00:00.000Z","temp":20,"dewp":16.1,"wdir":210,"wspd":12,"visib":"10+","altim":1010.9,"slp":1010.7,"qcField":12,"metarType":"METAR","rawOb":"METAR KDTW 160053Z 21012KT 10SM BKN110 OVC210 20/16 A2985 RMK AO2 SLP107 T02000161 $","lat":42.2311,"lon":-83.3312,"elev":192,"name":"Detroit/Metro Wayne Cnty, MI, US","cover":"OVC","clouds":[{"cover":"BKN","base":11000},{"cover":"OVC","base":21000}],"fltCat":"VFR"},{"icaoId":"KMDW","receiptTime":"2026-04-16T00:56:30.556Z","obsTime":1776300780,"reportTime":"2026-04-16T01:00:00.000Z","temp":22.2,"dewp":16.1,"wdir":200,"wspd":16,"wgst":25,"visib":"10+","altim":1007.2,"slp":1006.4,"qcField":4,"metarType":"METAR","rawOb":"METAR KMDW 160053Z 20016G25KT 10SM FEW042 SCT060 BKN080 OVC250 22/16 A2974 RMK AO2 PK WND 19029/2357 SLP064 T02220161","lat":41.7841,"lon":-87.7552,"elev":186,"name":"Chicago/Midway Intl, IL, US","cover":"OVC","clouds":[{"cover":"FEW","base":4200},{"cover":"SCT","base":6000},{"cover":"BKN","base":8000},{"cover":"OVC","base":25000}],"fltCat":"VFR"},{"icaoId":"KMAF","receiptTime":"2026-04-16T00:56:30.416Z","obsTime":1776300780,"reportTime":"2026-04-16T01:00:00.000Z","temp":27.2,"dewp":-2.2,"wdir":240,"wspd":6,"visib":"10+","altim":1012.3,"slp":1008,"qcField":4,"metarType":"METAR","rawOb":"METAR KMAF 160053Z 24006KT 10SM CLR 27/M02 A2989 RMK AO2 WSHFT 2359 SLP080 T02721022","lat":31.9475,"lon":-102.2086,"elev":874,"name":"Midland Intl, TX, US","cover":"CLR","clouds":[],"fltCat":"VFR"},{"icaoId":"KSHR","receiptTime":"2026-04-16T00:56:29.371Z","obsTime":1776300780,"reportTime":"2026-04-16T01:00:00.000Z","temp":15.6,"dewp":2.8,"wdir":0,"wspd":0,"visib":"10+","altim":1001.8,"slp":1001.1,"qcField":6,"metarType":"METAR","rawOb":"METAR KSHR 160053Z AUTO 00000KT 10SM CLR 16/03 A2958 RMK AO2 SLP011 T01560028","lat":44.7603,"lon":-106.9741,"elev":1212,"name":"Sheridan Cnty Arpt, WY, US","cover":"CLR","clouds":[],"fltCat":"VFR"},{"icaoId":"KTPA","receiptTime":"2026-04-16T00:56:29.035Z","obsTime":1776300780,"reportTime":"2026-04-16T01:00:00.000Z","temp":22.2,"dewp":16.1,"wdir":310,"wspd":5,"visib":"10+","altim":1019.4,"slp":1019.3,"qcField":4,"metarType":"METAR","rawOb":"METAR KTPA 160053Z 31005KT 10SM CLR 22/16 A3010 RMK AO2 SLP193 T02220161","lat":27.9633,"lon":-82.54,"elev":2,"name":"Tampa Intl Arpt, FL, US","cover":"CLR","clouds":[],"fltCat":"VFR"},{"icaoId":"KSNA","receiptTime":"2026-04-16T00:56:28.635Z","obsTime":1776300780,"reportTime":"2026-04-16T01:00:00.000Z","temp":20.6,"dewp":11.1,"wdir":240,"wspd":6,"visib":"10+","altim":1014.6,"slp":1014.5,"qcField":12,"metarType":"METAR","rawOb":"METAR KSNA 160053Z 24006KT 10SM FEW035 FEW180 21/11 A2996 RMK AO2 SLP145 T02060111 $","lat":33.6798,"lon":-117.8675,"elev":14,"name":"Santa Ana/Wayne Arpt, CA, US","cover":"FEW","clouds":[{"cover":"FEW","base":3500},{"cover":"FEW","base":18000}],"fltCat":"VFR"},{"icaoId":"KSTS","receiptTime":"2026-04-16T00:56:28.790Z","obsTime":1776300780,"reportTime":"2026-04-16T01:00:00.000Z","temp":18.3,"dewp":8.3,"wdir":330,"wspd":10,"wgst":16,"visib":"10+","altim":1016.7,"slp":1016.1,"qcField":4,"metarType":"METAR","rawOb":"METAR KSTS 160053Z 33010G16KT 10SM SCT047 18/08 A3002 RMK AO2 SLP161 T01830083","lat":38.5037,"lon":-122.811,"elev":35,"name":"Santa Rosa/Schulz Arpt, CA, US","cover":"SCT","clouds":[{"cover":"SCT","base":4700}],"fltCat":"VFR"},{"icaoId":"KCNY","receiptTime":"2026-04-16T00:56:31.328Z","obsTime":1776300780,"reportTime":"2026-04-16T01:00:00.000Z","temp":18.9,"dewp":-5,"wdir":230,"wspd":11,"visib":"10+","altim":1012.6,"slp":1010.1,"qcField":6,"metarType":"METAR","rawOb":"METAR KCNY 160053Z AUTO 23011KT 10SM CLR 19/M05 A2990 RMK AO2 SLP101 T01891050","lat":38.7501,"lon":-109.7627,"elev":1392,"name":"Moab/Canyonland Fld, UT, US","cover":"CLR","clouds":[],"fltCat":"VFR"},{"icaoId":"KOAK","receiptTime":"2026-04-16T00:56:35.321Z","obsTime":1776300780,"reportTime":"2026-04-16T01:00:00.000Z","temp":16.1,"dewp":9.4,"wdir":250,"wspd":20,"visib":"10+","altim":1018.4,"slp":1018.3,"qcField":12,"metarType":"METAR","rawOb":"METAR KOAK 160053Z 25020KT 10SM FEW015 FEW030 BKN250 16/09 A3007 RMK AO2 SLP183 SCSL N T01610094 $","lat":37.7178,"lon":-122.233,"elev":3,"name":"Oakland Intl, CA, US","cover":"BKN","clouds":[{"cover":"FEW","base":1500},{"cover":"FEW","base":3000},{"cover":"BKN","base":25000}],"fltCat":"VFR"},{"icaoId":"KOGD","receiptTime":"2026-04-16T00:56:35.384Z","obsTime":1776300780,"reportTime":"2026-04-16T01:00:00.000Z","temp":17.2,"dewp":-2.8,"wdir":200,"wspd":16,"wgst":23,"visib":"10+","altim":1009.6,"slp":1006.6,"qcField":4,"metarType":"METAR","rawOb":"METAR KOGD 160053Z 20016G23KT 10SM OVC090 17/M03 A2981 RMK AO2 SLP066 T01721028","lat":41.1941,"lon":-112.0168,"elev":1356,"name":"Ogden/Hinckley Arpt, UT, US","cover":"OVC","clouds":[{"cover":"OVC","base":9000}],"fltCat":"VFR"},{"icaoId":"KONT","receiptTime":"2026-04-16T00:56:34.083Z","obsTime":1776300780,"reportTime":"2026-04-16T01:00:00.000Z","temp":23.3,"dewp":9.4,"wdir":240,"wspd":11,"wgst":18,"visib":"10+","altim":1014,"slp":1013.1,"qcField":12,"metarType":"METAR","rawOb":"METAR KONT 160053Z 24011G18KT 10SM FEW250 23/09 A2994 RMK AO2 SLP131 T02330094 $","lat":34.0531,"lon":-117.5769,"elev":279,"name":"Ontario Intl, CA, US","cover":"FEW","clouds":[{"cover":"FEW","base":25000}],"fltCat":"VFR"},{"icaoId":"KCRQ","receiptTime":"2026-04-16T00:56:31.441Z","obsTime":1776300780,"reportTime":"2026-04-16T01:00:00.000Z","temp":18.3,"dewp":12.2,"wdir":"VRB","wspd":6,"visib":"10+","altim":1015,"slp":1014.5,"qcField":6,"metarType":"METAR","rawOb":"METAR KCRQ 160053Z AUTO VRB06KT 10SM CLR 18/12 A2997 RMK AO2 SLP145 T01830122","lat":33.1299,"lon":-117.2765,"elev":96,"name":"Carlsbad/Palomar Arpt, CA, US","cover":"CLR","clouds":[],"fltCat":"VFR"},{"icaoId":"KBTM","receiptTime":"2026-04-16T00:56:31.983Z","obsTime":1776300780,"reportTime":"2026-04-16T01:00:00.000Z","temp":7.8,"dewp":-2.2,"wdir":230,"wspd":14,"wgst":33,"visib":"10+","altim":1001.8,"slp":1000.2,"qcField":6,"metarType":"METAR","rawOb":"METAR KBTM 160053Z AUTO 23014G33KT 10SM FEW070 BKN100 BKN120 08/M02 A2958 RMK AO2 PK WND 24033/0044 SLP002 T00781022","lat":45.9644,"lon":-112.5015,"elev":1680,"name":"Butte/Mooney Arpt, MT, US","cover":"BKN","clouds":[{"cover":"FEW","base":7000},{"cover":"BKN","base":10000},{"cover":"BKN","base":12000}],"fltCat":"VFR"},{"icaoId":"KCDC","receiptTime":"2026-04-16T00:56:37.607Z","obsTime":1776300780,"reportTime":"2026-04-16T01:00:00.000Z","temp":15.6,"dewp":-4.4,"wdir":210,"wspd":12,"visib":"10+","altim":1015.7,"slp":1012.5,"qcField":6,"metarType":"METAR","rawOb":"METAR KCDC 160053Z AUTO 21012KT 10SM CLR 16/M04 A2999 RMK AO2 SLP125 T01561044","lat":37.7067,"lon":-113.097,"elev":1703,"name":"Cedar City Muni, UT, US","cover":"CLR","clouds":[],"fltCat":"VFR"},{"icaoId":"KFUL","receiptTime":"2026-04-16T00:56:36.764Z","obsTime":1776300780,"reportTime":"2026-04-16T01:00:00.000Z","temp":22.8,"dewp":9.4,"wdir":290,"wspd":5,"visib":"10+","altim":1014,"slp":1013.8,"qcField":4,"metarType":"METAR","rawOb":"METAR KFUL 160053Z 29005KT 10SM CLR 23/09 A2994 RMK AO2 SLP138 T02280094","lat":33.8715,"lon":-117.9856,"elev":23,"name":"Fullerton Muni, CA, US","cover":"CLR","clouds":[],"fltCat":"VFR"},{"icaoId":"KGSP","receiptTime":"2026-04-16T00:56:31.004Z","obsTime":1776300780,"reportTime":"2026-04-16T01:00:00.000Z","temp":22.2,"dewp":11.7,"wdir":220,"wspd":6,"visib":"10+","altim":1018.4,"slp":1017.2,"qcField":4,"metarType":"METAR","rawOb":"METAR KGSP 160053Z 22006KT 10SM CLR 22/12 A3007 RMK AO2 SLP172 T02220117","lat":34.8842,"lon":-82.2209,"elev":285,"name":"Greenville-Spartanburg Intl, SC, US","cover":"CLR","clouds":[],"fltCat":"VFR"},{"icaoId":"KFMN","receiptTime":"2026-04-16T00:56:36.559Z","obsTime":1776300780,"reportTime":"2026-04-16T01:00:00.000Z","temp":16.1,"dewp":-8.3,"wdir":280,"wspd":10,"visib":"10+","altim":1016.7,"slp":1015,"qcField":4,"metarType":"METAR","rawOb":"METAR KFMN 160053Z 28010KT 10SM CLR 16/M08 A3002 RMK AO2 SLP150 T01611083","lat":36.7435,"lon":-108.2293,"elev":1677,"name":"Farmington/Four Corners Rgnl, NM, US","cover":"CLR","clouds":[],"fltCat":"VFR"},{"icaoId":"KGTF","receiptTime":"2026-04-16T00:56:31.018Z","obsTime":1776300780,"reportTime":"2026-04-16T01:00:00.000Z","temp":11.1,"dewp":0.6,"wdir":240,"wspd":8,"wgst":19,"visib":"10+","altim":999.1,"slp":999.3,"qcField":4,"metarType":"METAR","rawOb":"METAR KGTF 160053Z 24008G19KT 10SM FEW110 11/01 A2950 RMK AO2 PK WND 25027/0000 SLP993 T01110006","lat":47.4733,"lon":-111.3828,"elev":1117,"name":"Great Falls Intl, MT, US","cover":"FEW","clouds":[{"cover":"FEW","base":11000}],"fltCat":"VFR"},{"icaoId":"KLAX","receiptTime":"2026-04-16T00:56:36.098Z","obsTime":1776300780,"reportTime":"2026-04-16T01:00:00.000Z","temp":18.3,"dewp":12.8,"wdir":250,"wspd":10,"visib":"10+","altim":1015,"slp":1014.6,"qcField":4,"metarType":"METAR","rawOb":"METAR KLAX 160053Z 25010KT 10SM FEW050 FEW250 18/13 A2997 RMK AO2 SLP146 T01830128","lat":33.9382,"lon":-118.3866,"elev":30,"name":"Los Angeles Intl, CA, US","cover":"FEW","clouds":[{"cover":"FEW","base":5000},{"cover":"FEW","base":25000}],"fltCat":"VFR"},{"icaoId":"KMFR","receiptTime":"2026-04-16T00:56:30.585Z","obsTime":1776300780,"reportTime":"2026-04-16T01:00:00.000Z","temp":9.4,"dewp":0.6,"wdir":320,"wspd":15,"wgst":20,"visib":"10+","altim":1017.4,"slp":1017.5,"qcField":4,"metarType":"METAR","rawOb":"METAR KMFR 160053Z 32015G20KT 10SM SCT055 BKN075 09/01 A3004 RMK AO2 SLP175 T00940006","lat":42.375,"lon":-122.877,"elev":397,"name":"Medford/Rogue Valley Intl, OR, US","cover":"BKN","clouds":[{"cover":"SCT","base":5500},{"cover":"BKN","base":7500}],"fltCat":"VFR"},{"icaoId":"KMSP","receiptTime":"2026-04-16T00:56:35.114Z","obsTime":1776300780,"reportTime":"2026-04-16T01:00:00.000Z","temp":18.3,"dewp":4.4,"wdir":80,"wspd":5,"visib":"10+","altim":1005.5,"slp":1005.5,"qcField":4,"metarType":"METAR","rawOb":"METAR KMSP 160053Z 08005KT 10SM FEW120 FEW170 FEW250 18/04 A2969 RMK AO2 SLP055 T01830044","lat":44.8852,"lon":-93.2313,"elev":255,"name":"Minneapolis-St Paul Intl, MN, US","cover":"FEW","clouds":[{"cover":"FEW","base":12000},{"cover":"FEW","base":17000},{"cover":"FEW","base":25000}],"fltCat":"VFR"},{"icaoId":"KASE","receiptTime":"2026-04-16T00:56:32.860Z","obsTime":1776300780,"reportTime":"2026-04-16T01:00:00.000Z","temp":8.9,"dewp":-6.1,"wdir":240,"wspd":4,"visib":"10+","altim":1017.4,"slp":1011.6,"qcField":4,"metarType":"METAR","rawOb":"METAR KASE 160053Z 24004KT 10SM BKN070 09/M06 A3004 RMK AO2 SLP116 T00891061","lat":39.2299,"lon":-106.8705,"elev":2384,"name":"Aspen/Pitkin Cnty, CO, US","cover":"BKN","clouds":[{"cover":"BKN","base":7000}],"fltCat":"VFR"},{"icaoId":"KMIA","receiptTime":"2026-04-16T00:56:16.103Z","obsTime":1776300780,"reportTime":"2026-04-16T01:00:00.000Z","temp":23.3,"dewp":14.4,"wdir":50,"wspd":7,"visib":"10+","altim":1019.7,"slp":1019.5,"qcField":0,"metarType":"METAR","rawOb":"METAR KMIA 160053Z 05007KT 10SM BKN043 23/14 A3011 RMK SLP195 T02330144","lat":25.7881,"lon":-80.3169,"elev":1,"name":"Miami Intl, FL, US","cover":"BKN","clouds":[{"cover":"BKN","base":4300}],"fltCat":"VFR"},{"icaoId":"KPAE","receiptTime":"2026-04-16T00:56:34.262Z","obsTime":1776300780,"reportTime":"2026-04-16T01:00:00.000Z","temp":5,"dewp":1.7,"wdir":170,"wspd":3,"visib":"10+","altim":1012.3,"slp":1012.7,"qcField":4,"wxString":"-RA","precip":0.005,"metarType":"METAR","rawOb":"METAR KPAE 160053Z 17003KT 10SM -RA FEW031 BKN050 OVC070 05/02 A2989 RMK AO2 RAB30 SLP127 P0000 T00500017","lat":47.9232,"lon":-122.2831,"elev":166,"name":"Everett/Paine Fld, WA, US","cover":"OVC","clouds":[{"cover":"FEW","base":3100},{"cover":"BKN","base":5000},{"cover":"OVC","base":7000}],"fltCat":"VFR"},{"icaoId":"KCLL","receiptTime":"2026-04-16T00:56:37.760Z","obsTime":1776300780,"reportTime":"2026-04-16T01:00:00.000Z","temp":25,"dewp":18.9,"wdir":150,"wspd":11,"visib":"10+","altim":1013,"slp":1012.3,"qcField":4,"metarType":"METAR","rawOb":"METAR KCLL 160053Z 15011KT 10SM CLR 25/19 A2991 RMK AO2 SLP123 T02500189","lat":30.5912,"lon":-96.3631,"elev":96,"name":"College Station/Easterwood Arpt, TX, US","cover":"CLR","clouds":[],"fltCat":"VFR"},{"icaoId":"KLAR","receiptTime":"2026-04-16T00:56:36.063Z","obsTime":1776300780,"reportTime":"2026-04-16T01:00:00.000Z","temp":9.4,"dewp":-5,"wdir":230,"wspd":16,"visib":"10+","altim":1012.6,"slp":1008.2,"qcField":14,"metarType":"METAR","rawOb":"METAR KLAR 160053Z AUTO 23016KT 10SM FEW080 09/M05 A2990 RMK AO2 PK WND 25026/0002 SLP082 T00941050 $","lat":41.3165,"lon":-105.6729,"elev":2217,"name":"Laramie Rgnl, WY, US","cover":"FEW","clouds":[{"cover":"FEW","base":8000}],"fltCat":"VFR"},{"icaoId":"KLGB","receiptTime":"2026-04-16T00:56:30.082Z","obsTime":1776300780,"reportTime":"2026-04-16T01:00:00.000Z","temp":21.7,"dewp":10,"wdir":290,"wspd":10,"visib":"10+","altim":1014.3,"slp":1014.1,"qcField":4,"metarType":"METAR","rawOb":"METAR KLGB 160053Z 29010KT 10SM CLR 22/10 A2995 RMK AO2 SLP141 T02170100","lat":33.8118,"lon":-118.1472,"elev":10,"name":"Long Beach Arpt, CA, US","cover":"CLR","clouds":[],"fltCat":"VFR"},{"icaoId":"KLVS","receiptTime":"2026-04-16T00:56:30.338Z","obsTime":1776300780,"reportTime":"2026-04-16T01:00:00.000Z","temp":14.4,"dewp":-8.9,"wdir":200,"wspd":12,"wgst":25,"visib":"10+","altim":1016.3,"slp":1010.6,"qcField":14,"metarType":"METAR","rawOb":"METAR KLVS 160053Z AUTO 20012G25KT 10SM CLR 14/M09 A3001 RMK AO2 SLP106 T01441089 PNO $","lat":35.6558,"lon":-105.1385,"elev":2095,"name":"Las Vegas Muni, NM, US","cover":"CLR","clouds":[],"fltCat":"VFR"},{"icaoId":"KDVT","receiptTime":"2026-04-16T00:56:38.089Z","obsTime":1776300780,"reportTime":"2026-04-16T01:00:00.000Z","temp":27.2,"dewp":-6.7,"wdir":190,"wspd":3,"visib":"10+","altim":1012.3,"slp":1010.4,"qcField":4,"metarType":"METAR","rawOb":"METAR KDVT 160053Z 19003KT 10SM CLR 27/M07 A2989 RMK AO2 SLP104 T02721067","lat":33.6902,"lon":-112.0662,"elev":454,"name":"Phoenix/Deer Valley Arpt, AZ, US","cover":"CLR","clouds":[],"fltCat":"VFR"},{"icaoId":"KAMA","receiptTime":"2026-04-16T00:56:32.665Z","obsTime":1776300780,"reportTime":"2026-04-16T01:00:00.000Z","temp":22.8,"dewp":-9.4,"wdir":260,"wspd":7,"visib":"10+","altim":1011.9,"slp":1007.8,"qcField":4,"metarType":"METAR","rawOb":"METAR KAMA 160053Z 26007KT 10SM CLR 23/M09 A2988 RMK AO2 SLP078 T02281094","lat":35.2203,"lon":-101.7173,"elev":1102,"name":"Amarillo Intl Arpt, TX, US","cover":"CLR","clouds":[],"fltCat":"VFR"},{"icaoId":"KBHM","receiptTime":"2026-04-16T00:56:33.201Z","obsTime":1776300780,"reportTime":"2026-04-16T01:00:00.000Z","temp":24.4,"dewp":11.7,"wdir":190,"wspd":7,"visib":"10+","altim":1019,"slp":1018.2,"qcField":4,"metarType":"METAR","rawOb":"METAR KBHM 160053Z 19007KT 10SM SCT250 24/12 A3009 RMK AO2 SLP182 T02440117","lat":33.5655,"lon":-86.7449,"elev":191,"name":"Birmingham Intl, AL, US","cover":"SCT","clouds":[{"cover":"SCT","base":25000}],"fltCat":"VFR"},{"icaoId":"KELY","receiptTime":"2026-04-16T00:56:36.186Z","obsTime":1776300780,"reportTime":"2026-04-16T01:00:00.000Z","temp":14.4,"dewp":-6.1,"wdir":250,"wspd":13,"wgst":26,"visib":"10+","altim":1013.3,"slp":1009.4,"qcField":6,"metarType":"METAR","rawOb":"METAR KELY 160053Z AUTO 25013G26KT 10SM OVC100 14/M06 A2992 RMK AO2 PK WND 21027/0002 SLP094 T01441061","lat":39.2954,"lon":-114.8466,"elev":1906,"name":"Ely/Yelland Fld, NV, US","cover":"OVC","clouds":[{"cover":"OVC","base":10000}],"fltCat":"VFR"},{"icaoId":"KTWF","receiptTime":"2026-04-16T00:56:29.203Z","obsTime":1776300780,"reportTime":"2026-04-16T01:00:00.000Z","temp":12.8,"dewp":5.6,"wdir":200,"wspd":10,"visib":"10+","altim":1006.2,"slp":1003.6,"qcField":4,"metarType":"METAR","rawOb":"METAR KTWF 160053Z 20010KT 10SM OVC100 13/06 A2971 RMK AO2 SLP036 T01280056","lat":42.4785,"lon":-114.4775,"elev":1269,"name":"Twin Falls/Joslin Fld, ID, US","cover":"OVC","clouds":[{"cover":"OVC","base":10000}],"fltCat":"VFR"},{"icaoId":"KMYR","receiptTime":"2026-04-16T00:56:26.300Z","obsTime":1776300780,"reportTime":"2026-04-16T01:00:00.000Z","temp":20.6,"dewp":16.7,"wdir":180,"wspd":8,"visib":"10+","altim":1019.4,"slp":1019.4,"qcField":12,"metarType":"METAR","rawOb":"METAR KMYR 160053Z 18008KT 10SM CLR 21/17 A3010 RMK AO2 SLP194 T02060167 $","lat":33.6769,"lon":-78.9325,"elev":7,"name":"Myrtle Beach Intl, SC, US","cover":"CLR","clouds":[],"fltCat":"VFR"},{"icaoId":"KMCI","receiptTime":"2026-04-16T00:56:30.477Z","obsTime":1776300780,"reportTime":"2026-04-16T01:00:00.000Z","temp":23.3,"dewp":8.9,"wdir":290,"wspd":11,"wgst":23,"visib":"10+","altim":1006.9,"slp":1005.9,"qcField":4,"metarType":"METAR","rawOb":"METAR KMCI 160053Z 29011G23KT 10SM FEW050 SCT075 SCT250 23/09 A2973 RMK AO2 SLP059 T02330089","lat":39.2975,"lon":-94.7309,"elev":308,"name":"Kansas City Intl, MO, US","cover":"SCT","clouds":[{"cover":"FEW","base":5000},{"cover":"SCT","base":7500},{"cover":"SCT","base":25000}],"fltCat":"VFR"},{"icaoId":"KRDD","receiptTime":"2026-04-16T00:56:28.548Z","obsTime":1776300780,"reportTime":"2026-04-16T01:00:00.000Z","temp":20,"dewp":6.1,"wdir":230,"wspd":11,"wgst":22,"visib":"10+","altim":1013.3,"slp":1012.9,"qcField":4,"metarType":"METAR","rawOb":"METAR KRDD 160053Z 23011G22KT 10SM FEW080 20/06 A2992 RMK AO2 SLP129 T02000061","lat":40.5146,"lon":-122.2977,"elev":152,"name":"Redding Muni, CA, US","cover":"FEW","clouds":[{"cover":"FEW","base":8000}],"fltCat":"VFR"},{"icaoId":"KSJC","receiptTime":"2026-04-16T00:56:28.564Z","obsTime":1776300780,"reportTime":"2026-04-16T01:00:00.000Z","temp":17.2,"dewp":8.3,"wdir":340,"wspd":13,"wgst":22,"visib":"10+","altim":1018,"slp":1017.9,"qcField":12,"metarType":"METAR","rawOb":"METAR KSJC 160053Z 34013G22KT 10SM FEW035 SCT080 BKN100 17/08 A3006 RMK AO2 SLP179 T01720083 $","lat":37.3594,"lon":-121.9244,"elev":13,"name":"San Jose Intl Arpt, CA, US","cover":"BKN","clouds":[{"cover":"FEW","base":3500},{"cover":"SCT","base":8000},{"cover":"BKN","base":10000}],"fltCat":"VFR"},{"icaoId":"KSMF","receiptTime":"2026-04-16T00:56:28.600Z","obsTime":1776300780,"reportTime":"2026-04-16T01:00:00.000Z","temp":20.6,"dewp":10,"wdir":170,"wspd":12,"visib":"10+","altim":1015,"slp":1014.9,"qcField":4,"metarType":"METAR","rawOb":"METAR KSMF 160053Z 17012KT 10SM BKN250 21/10 A2997 RMK AO2 SLP149 T02060100","lat":38.7007,"lon":-121.5948,"elev":7,"name":"Sacramento Intl, CA, US","cover":"BKN","clouds":[{"cover":"BKN","base":25000}],"fltCat":"VFR"},{"icaoId":"KSWO","receiptTime":"2026-04-16T00:56:28.809Z","obsTime":1776300780,"reportTime":"2026-04-16T01:00:00.000Z","temp":22.8,"dewp":18.3,"wdir":200,"wspd":13,"wgst":20,"visib":"10+","altim":1008.2,"slp":1007.1,"qcField":4,"metarType":"METAR","rawOb":"METAR KSWO 160053Z 20013G20KT 10SM CLR 23/18 A2977 RMK AO2 PK WND 20027/0023 SLP071 T02280183","lat":36.1624,"lon":-97.0832,"elev":293,"name":"Stillwater Muni, OK, US","cover":"CLR","clouds":[],"fltCat":"VFR"},{"icaoId":"KTUL","receiptTime":"2026-04-16T00:56:29.111Z","obsTime":1776300780,"reportTime":"2026-04-16T01:00:00.000Z","temp":22.8,"dewp":18.9,"wdir":190,"wspd":13,"wgst":22,"visib":"10+","altim":1009.2,"slp":1008.3,"qcField":4,"metarType":"METAR","rawOb":"METAR KTUL 160053Z 19013G22KT 10SM FEW022 SCT120 OVC200 23/19 A2980 RMK AO2 PK WND 20028/2357 SLP083 CB DSNT N MOV NE T02280189","lat":36.1985,"lon":-95.8782,"elev":196,"name":"Tulsa Intl Arpt, OK, US","cover":"OVC","clouds":[{"cover":"FEW","base":2200},{"cover":"SCT","base":12000},{"cover":"OVC","base":20000}],"fltCat":"VFR"},{"icaoId":"KSDL","receiptTime":"2026-04-16T00:56:29.234Z","obsTime":1776300780,"reportTime":"2026-04-16T01:00:00.000Z","temp":27.8,"dewp":-5,"wdir":240,"wspd":5,"visib":"10+","altim":1012.6,"slp":1010.6,"qcField":4,"metarType":"METAR","rawOb":"METAR KSDL 160053Z 24005KT 10SM CLR 28/M05 A2990 RMK AO2 SLP106 T02781050","lat":33.6123,"lon":-111.9232,"elev":438,"name":"Scottsdale Muni, AZ, US","cover":"CLR","clouds":[],"fltCat":"VFR"},{"icaoId":"KPGA","receiptTime":"2026-04-16T00:56:29.419Z","obsTime":1776300780,"reportTime":"2026-04-16T01:00:00.000Z","temp":21.1,"dewp":-5.6,"wdir":70,"wspd":7,"visib":"10+","altim":1013.3,"slp":1009.6,"qcField":14,"metarType":"METAR","rawOb":"METAR KPGA 160053Z AUTO 07007KT 10SM CLR 21/M06 A2992 RMK AO2 SLP096 T02111056 $","lat":36.9211,"lon":-111.4487,"elev":1310,"name":"Page Muni, AZ, US","cover":"CLR","clouds":[],"fltCat":"VFR"},{"icaoId":"KPIH","receiptTime":"2026-04-16T00:56:29.491Z","obsTime":1776300780,"reportTime":"2026-04-16T01:00:00.000Z","temp":8.3,"dewp":5.6,"wdir":220,"wspd":9,"visib":"10+","altim":1008.9,"slp":1007.6,"qcField":4,"precip":0.01,"metarType":"METAR","rawOb":"METAR KPIH 160053Z 22009KT 10SM BKN060 OVC080 08/06 A2979 RMK AO2 RAE53 SLP076 P0001 T00830056","lat":42.9197,"lon":-112.5723,"elev":1357,"name":"Pocatello Rgnl, ID, US","cover":"OVC","clouds":[{"cover":"BKN","base":6000},{"cover":"OVC","base":8000}],"fltCat":"VFR"},{"icaoId":"KCVG","receiptTime":"2026-04-16T00:56:26.201Z","obsTime":1776300720,"reportTime":"2026-04-16T01:00:00.000Z","temp":24.4,"dewp":15,"wdir":210,"wspd":5,"visib":"10+","altim":1014.3,"slp":1013.2,"qcField":4,"metarType":"METAR","rawOb":"METAR KCVG 160052Z 21005KT 10SM BKN250 24/15 A2995 RMK AO2 SLP132 T02440150","lat":39.0444,"lon":-84.6724,"elev":264,"name":"Cincinnati Intl, KY, US","cover":"BKN","clouds":[{"cover":"BKN","base":25000}],"fltCat":"VFR"},{"icaoId":"KSPS","receiptTime":"2026-04-16T00:56:24.493Z","obsTime":1776300720,"reportTime":"2026-04-16T01:00:00.000Z","temp":17.8,"dewp":15,"wdir":0,"wspd":0,"visib":"10+","altim":1009.6,"slp":1008.7,"qcField":4,"metarType":"METAR","rawOb":"METAR KSPS 160052Z 00000KT 10SM FEW005 BKN220 18/15 A2981 RMK AO2 TSE00 SLP087 T01780150","lat":33.9785,"lon":-98.493,"elev":310,"name":"Wichita Falls Rgnl, TX, US","cover":"BKN","clouds":[{"cover":"FEW","base":500},{"cover":"BKN","base":22000}],"fltCat":"VFR"},{"icaoId":"KDCA","receiptTime":"2026-04-16T00:56:26.220Z","obsTime":1776300720,"reportTime":"2026-04-16T01:00:00.000Z","temp":26.7,"dewp":15,"wdir":200,"wspd":10,"visib":"10+","altim":1012.3,"slp":1012.2,"qcField":4,"metarType":"METAR","rawOb":"METAR KDCA 160052Z 20010KT 10SM FEW090 BKN250 27/15 A2989 RMK AO2 SLP122 T02670150","lat":38.8472,"lon":-77.0345,"elev":4,"name":"Washington/Reagan-National Arpt, VA, US","cover":"BKN","clouds":[{"cover":"FEW","base":9000},{"cover":"BKN","base":25000}],"fltCat":"VFR"},{"icaoId":"KCLT","receiptTime":"2026-04-16T00:56:26.179Z","obsTime":1776300720,"reportTime":"2026-04-16T01:00:00.000Z","temp":25.6,"dewp":10,"wdir":210,"wspd":6,"visib":"10+","altim":1017.4,"slp":1018.1,"qcField":4,"metarType":"METAR","rawOb":"METAR KCLT 160052Z 21006KT 10SM BKN250 26/10 A3004 RMK AO2 SLP181 T02560100","lat":35.2225,"lon":-80.9543,"elev":223,"name":"Charlotte/Douglas Intl, NC, US","cover":"BKN","clouds":[{"cover":"BKN","base":25000}],"fltCat":"VFR"},{"icaoId":"KABI","receiptTime":"2026-04-16T00:56:24.275Z","obsTime":1776300720,"reportTime":"2026-04-16T01:00:00.000Z","temp":25,"dewp":20,"wdir":170,"wspd":12,"wgst":20,"visib":"10+","altim":1011.3,"slp":1008.7,"qcField":12,"metarType":"METAR","rawOb":"METAR KABI 160052Z 17012G20KT 10SM CLR 25/20 A2986 RMK AO2 LTG DSNT SE SLP087 T02500200 $","lat":32.4106,"lon":-99.6821,"elev":543,"name":"Abilene Rgnl, TX, US","cover":"CLR","clouds":[],"fltCat":"VFR"},{"icaoId":"KATL","receiptTime":"2026-04-16T00:56:25.257Z","obsTime":1776300720,"reportTime":"2026-04-16T01:00:00.000Z","temp":25.6,"dewp":11.1,"wdir":220,"wspd":7,"visib":"10+","altim":1019,"slp":1018,"qcField":12,"metarType":"METAR","rawOb":"METAR KATL 160052Z 22007KT 10SM SCT250 26/11 A3009 RMK AO2 SLP180 T02560111 $","lat":33.6297,"lon":-84.4422,"elev":309,"name":"Atlanta/Hartsfield-Jackson Intl, GA, US","cover":"SCT","clouds":[{"cover":"SCT","base":25000}],"fltCat":"VFR"},{"icaoId":"KHRL","receiptTime":"2026-04-16T00:56:25.587Z","obsTime":1776300720,"reportTime":"2026-04-16T01:00:00.000Z","temp":25.6,"dewp":18.9,"wdir":140,"wspd":17,"visib":"10+","altim":1011.9,"slp":1011.8,"qcField":4,"metarType":"METAR","rawOb":"METAR KHRL 160052Z 14017KT 10SM CLR 26/19 A2988 RMK AO2 SLP118 T02560189","lat":26.2303,"lon":-97.6556,"elev":9,"name":"Harlingen/Valley Intl, TX, US","cover":"CLR","clouds":[],"fltCat":"VFR"},{"icaoId":"KOKC","receiptTime":"2026-04-16T00:56:15.317Z","obsTime":1776300720,"reportTime":"2026-04-16T01:00:00.000Z","temp":21.7,"dewp":18.9,"wdir":180,"wspd":15,"wgst":23,"visib":"10+","altim":1009.6,"slp":1008.3,"qcField":4,"metarType":"METAR","rawOb":"METAR KOKC 160052Z 18015G23KT 10SM SCT017 BKN250 22/19 A2981 RMK AO2 SLP083 T02170189","lat":35.3843,"lon":-97.6003,"elev":391,"name":"Oklahoma City/Will Rogers Intl, OK, US","cover":"BKN","clouds":[{"cover":"SCT","base":1700},{"cover":"BKN","base":25000}],"fltCat":"VFR"},{"icaoId":"KIAD","receiptTime":"2026-04-16T00:56:26.261Z","obsTime":1776300720,"reportTime":"2026-04-16T01:00:00.000Z","temp":27.2,"dewp":12.2,"wdir":190,"wspd":7,"visib":"10+","altim":1012.6,"slp":1012.3,"qcField":4,"metarType":"METAR","rawOb":"METAR KIAD 160052Z 19007KT 10SM BKN250 27/12 A2990 RMK AO2 SLP123 T02720122","lat":38.9348,"lon":-77.4473,"elev":90,"name":"Washington/Dulles Intl, VA, US","cover":"BKN","clouds":[{"cover":"BKN","base":25000}],"fltCat":"VFR"},{"icaoId":"KABQ","receiptTime":"2026-04-16T00:56:24.295Z","obsTime":1776300720,"reportTime":"2026-04-16T01:00:00.000Z","temp":18.9,"dewp":-10,"wdir":270,"wspd":9,"wgst":15,"visib":"10+","altim":1016,"slp":1011.4,"qcField":4,"metarType":"METAR","rawOb":"METAR KABQ 160052Z 27009G15KT 240V340 10SM FEW100 19/M10 A3000 RMK AO2 SLP114 T01891100","lat":35.0419,"lon":-106.6154,"elev":1620,"name":"Albuquerque Intl, NM, US","cover":"FEW","clouds":[{"cover":"FEW","base":10000}],"fltCat":"VFR"},{"icaoId":"KMLF","receiptTime":"2026-04-16T00:56:24.477Z","obsTime":1776300720,"reportTime":"2026-04-16T01:00:00.000Z","temp":17.8,"dewp":-6.1,"wdir":200,"wspd":21,"wgst":30,"visib":"10+","altim":1013.3,"slp":1010,"qcField":6,"metarType":"METAR","rawOb":"METAR KMLF 160052Z AUTO 20021G30KT 10SM CLR 18/M06 A2992 RMK AO2 PK WND 20033/0003 SLP100 T01781061","lat":38.4225,"lon":-113.0109,"elev":1537,"name":"Milford Muni, UT, US","cover":"CLR","clouds":[],"fltCat":"VFR"},{"icaoId":"KACT","receiptTime":"2026-04-16T00:55:03.303Z","obsTime":1776300660,"reportTime":"2026-04-16T01:00:00.000Z","temp":23.9,"dewp":20,"wdir":170,"wspd":3,"visib":"10+","altim":1011.9,"slp":1011.2,"qcField":4,"metarType":"METAR","rawOb":"METAR KACT 160051Z 17003KT 10SM CLR 24/20 A2988 RMK AO2 SLP112 T02390200","lat":31.618,"lon":-97.2283,"elev":150,"name":"Waco Rgnl, TX, US","cover":"CLR","clouds":[],"fltCat":"VFR"},{"icaoId":"KPHX","receiptTime":"2026-04-16T00:55:02.704Z","obsTime":1776300660,"reportTime":"2026-04-16T01:00:00.000Z","temp":28.9,"dewp":-3.9,"wdir":300,"wspd":6,"visib":"10+","altim":1011.3,"slp":1009.8,"qcField":4,"metarType":"METAR","rawOb":"METAR KPHX 160051Z 30006KT 10SM FEW080 29/M04 A2986 RMK AO2 SLP098 T02891039","lat":33.4278,"lon":-112.0037,"elev":338,"name":"Phoenix/Sky Harbor Intl, AZ, US","cover":"FEW","clouds":[{"cover":"FEW","base":8000}],"fltCat":"VFR"},{"icaoId":"KEWR","receiptTime":"2026-04-16T00:55:04.035Z","obsTime":1776300660,"reportTime":"2026-04-16T01:00:00.000Z","temp":28.9,"dewp":15,"wdir":230,"wspd":10,"visib":"10+","altim":1011.3,"slp":1011.1,"qcField":4,"metarType":"METAR","rawOb":"METAR KEWR 160051Z 23010KT 10SM FEW065 FEW120 BKN250 29/15 A2986 RMK AO2 SLP111 T02890150","lat":40.6828,"lon":-74.1692,"elev":2,"name":"Newark Intl, NJ, US","cover":"BKN","clouds":[{"cover":"FEW","base":6500},{"cover":"FEW","base":12000},{"cover":"BKN","base":25000}],"fltCat":"VFR"},{"icaoId":"KSAT","receiptTime":"2026-04-16T00:55:02.997Z","obsTime":1776300660,"reportTime":"2026-04-16T01:00:00.000Z","temp":27.8,"dewp":17.8,"wdir":140,"wspd":11,"visib":"10+","altim":1012.3,"slp":1010.3,"qcField":4,"metarType":"METAR","rawOb":"METAR KSAT 160051Z 14011KT 10SM FEW050 BKN085 BKN250 28/18 A2989 RMK AO2 SLP103 T02780178","lat":29.5443,"lon":-98.4839,"elev":246,"name":"San Antonio Intl, TX, US","cover":"BKN","clouds":[{"cover":"FEW","base":5000},{"cover":"BKN","base":8500},{"cover":"BKN","base":25000}],"fltCat":"VFR"},{"icaoId":"KOXR","receiptTime":"2026-04-16T00:55:02.683Z","obsTime":1776300660,"reportTime":"2026-04-16T01:00:00.000Z","temp":17.2,"dewp":11.1,"wdir":280,"wspd":13,"visib":"10+","altim":1015,"slp":1014.9,"qcField":14,"metarType":"METAR","rawOb":"METAR KOXR 160051Z AUTO 28013KT 10SM CLR 17/11 A2997 RMK AO2 SLP149 T01720111 $","lat":34.2001,"lon":-119.2042,"elev":12,"name":"Oxnard Arpt, CA, US","cover":"CLR","clouds":[],"fltCat":"VFR"},{"icaoId":"KLGU","receiptTime":"2026-04-16T00:55:02.463Z","obsTime":1776300660,"reportTime":"2026-04-16T01:00:00.000Z","temp":13.9,"dewp":1.1,"wdir":200,"wspd":17,"wgst":27,"visib":"10+","altim":1010.2,"slp":1008.6,"qcField":6,"metarType":"METAR","rawOb":"METAR KLGU 160051Z AUTO 20017G27KT 10SM SCT060 OVC075 14/01 A2983 RMK AO2 PK WND 22034/0039 SLP086 T01390011","lat":41.7865,"lon":-111.8519,"elev":1359,"name":"Logan/Cache Arpt, UT, US","cover":"OVC","clouds":[{"cover":"SCT","base":6000},{"cover":"OVC","base":7500}],"fltCat":"VFR"},{"icaoId":"KCMH","receiptTime":"2026-04-16T00:55:03.789Z","obsTime":1776300660,"reportTime":"2026-04-16T01:00:00.000Z","temp":25.6,"dewp":15,"wdir":230,"wspd":7,"visib":"10+","altim":1013.3,"slp":1012.4,"qcField":4,"metarType":"METAR","rawOb":"METAR KCMH 160051Z 23007KT 10SM FEW060 FEW100 SCT150 OVC250 26/15 A2992 RMK AO2 SLP124 T02560150","lat":39.9907,"lon":-82.877,"elev":257,"name":"Columbus/Glenn Intl, OH, US","cover":"OVC","clouds":[{"cover":"FEW","base":6000},{"cover":"FEW","base":10000},{"cover":"SCT","base":15000},{"cover":"OVC","base":25000}],"fltCat":"VFR"},{"icaoId":"KCLE","receiptTime":"2026-04-16T00:55:04.483Z","obsTime":1776300660,"reportTime":"2026-04-16T01:00:00.000Z","temp":18.9,"dewp":17.2,"wdir":200,"wspd":6,"visib":"10+","altim":1011.9,"slp":1013,"qcField":12,"metarType":"METAR","rawOb":"METAR KCLE 160051Z 20006KT 10SM SCT110 BKN250 19/17 A2988 RMK AO2 SLP130 T01890172 $","lat":41.4057,"lon":-81.8519,"elev":237,"name":"Cleveland/Hopkins Intl, OH, US","cover":"BKN","clouds":[{"cover":"SCT","base":11000},{"cover":"BKN","base":25000}],"fltCat":"VFR"},{"icaoId":"KVNY","receiptTime":"2026-04-16T00:55:04.268Z","obsTime":1776300660,"reportTime":"2026-04-16T01:00:00.000Z","temp":23.3,"dewp":5.6,"visib":"10+","altim":1014,"slp":1013.1,"qcField":12,"metarType":"METAR","rawOb":"METAR KVNY 160051Z 10SM CLR 23/06 A2994 RMK AO2 SLP131 T02330056 $","lat":34.2121,"lon":-118.4915,"elev":241,"name":"Van Nuys Arpt, CA, US","cover":"CLR","clouds":[],"fltCat":"VFR"},{"icaoId":"KIGM","receiptTime":"2026-04-16T00:55:04.197Z","obsTime":1776300660,"reportTime":"2026-04-16T01:00:00.000Z","temp":22.2,"dewp":-8.3,"wdir":220,"wspd":15,"visib":"10+","altim":1014.6,"slp":1009.7,"qcField":6,"metarType":"METAR","rawOb":"METAR KIGM 160051Z AUTO 22015KT 10SM CLR 22/M08 A2996 RMK AO2 SLP097 T02221083","lat":35.2575,"lon":-113.9341,"elev":1045,"name":"Kingman Arpt, AZ, US","cover":"CLR","clouds":[],"fltCat":"VFR"},{"icaoId":"KRDU","receiptTime":"2026-04-16T00:55:02.898Z","obsTime":1776300660,"reportTime":"2026-04-16T01:00:00.000Z","temp":26.7,"dewp":11.7,"wdir":180,"wspd":6,"visib":"10+","altim":1016.7,"slp":1016.1,"qcField":4,"metarType":"METAR","rawOb":"METAR KRDU 160051Z 18006KT 10SM BKN250 27/12 A3002 RMK AO2 SLP161 T02670117","lat":35.8923,"lon":-78.782,"elev":121,"name":"Raleigh-Durham Intl, NC, US","cover":"BKN","clouds":[{"cover":"BKN","base":25000}],"fltCat":"VFR"},{"icaoId":"KJFK","receiptTime":"2026-04-16T00:55:02.431Z","obsTime":1776300660,"reportTime":"2026-04-16T01:00:00.000Z","temp":17.2,"dewp":11.7,"wdir":180,"wspd":6,"visib":"10+","altim":1011.9,"slp":1011.7,"qcField":4,"metarType":"METAR","rawOb":"METAR KJFK 160051Z 18006KT 10SM FEW060 BKN250 17/12 A2988 RMK AO2 SLP117 T01720117","lat":40.6392,"lon":-73.7639,"elev":3,"name":"New York/JF Kennedy Intl, NY, US","cover":"BKN","clouds":[{"cover":"FEW","base":6000},{"cover":"BKN","base":25000}],"fltCat":"VFR"},{"icaoId":"KCRP","receiptTime":"2026-04-16T00:55:03.898Z","obsTime":1776300660,"reportTime":"2026-04-16T01:00:00.000Z","temp":25,"dewp":20,"wdir":140,"wspd":16,"visib":"10+","altim":1013,"slp":1012.6,"qcField":4,"metarType":"METAR","rawOb":"METAR KCRP 160051Z 14016KT 10SM FEW023 FEW070 FEW150 BKN250 25/20 A2991 RMK AO2 PK WND 14029/0011 SLP126 T02500200","lat":27.7734,"lon":-97.513,"elev":11,"name":"Corpus Christi Intl, TX, US","cover":"BKN","clouds":[{"cover":"FEW","base":2300},{"cover":"FEW","base":7000},{"cover":"FEW","base":15000},{"cover":"BKN","base":25000}],"fltCat":"VFR"},{"icaoId":"KLGA","receiptTime":"2026-04-16T00:58:29.247Z","obsTime":1776300660,"reportTime":"2026-04-16T01:00:00.000Z","temp":28.9,"dewp":15,"wdir":230,"wspd":8,"visib":"10+","altim":1010.9,"slp":1010.9,"qcField":4,"metarType":"METAR","rawOb":"METAR KLGA 160051Z 23008KT 10SM SCT080 BKN250 29/15 A2985 RMK AO2 SLP109 T02890150","lat":40.7794,"lon":-73.8803,"elev":9,"name":"New York/La Guardia Arpt, NY, US","cover":"BKN","clouds":[{"cover":"SCT","base":8000},{"cover":"BKN","base":25000}],"fltCat":"VFR"},{"icaoId":"KROW","receiptTime":"2026-04-16T00:55:02.922Z","obsTime":1776300660,"reportTime":"2026-04-16T01:00:00.000Z","temp":25,"dewp":-16.1,"wdir":270,"wspd":7,"visib":"10+","altim":1012.6,"slp":1007.9,"qcField":4,"metarType":"METAR","rawOb":"METAR KROW 160051Z 27007KT 10SM CLR 25/M16 A2990 RMK AO2 SLP079 T02501161","lat":33.3074,"lon":-104.5082,"elev":1105,"name":"Roswell/Ind Arpt, NM, US","cover":"CLR","clouds":[],"fltCat":"VFR"},{"icaoId":"KPVD","receiptTime":"2026-04-16T00:55:02.801Z","obsTime":1776300660,"reportTime":"2026-04-16T01:00:00.000Z","temp":14.4,"dewp":11.1,"wdir":130,"wspd":5,"visib":"10+","altim":1012.3,"slp":1012.1,"qcField":12,"metarType":"METAR","rawOb":"METAR KPVD 160051Z 13005KT 10SM FEW045 SCT090 BKN110 BKN250 14/11 A2989 RMK AO2 SLP121 T01440111 $","lat":41.7225,"lon":-71.4325,"elev":15,"name":"Providence/Green Mem, RI, US","cover":"BKN","clouds":[{"cover":"FEW","base":4500},{"cover":"SCT","base":9000},{"cover":"BKN","base":11000},{"cover":"BKN","base":25000}],"fltCat":"VFR"},{"icaoId":"KSAN","receiptTime":"2026-04-16T00:55:02.967Z","obsTime":1776300660,"reportTime":"2026-04-16T01:00:00.000Z","temp":18.9,"dewp":12.8,"wdir":300,"wspd":9,"visib":"10+","altim":1015.7,"slp":1015.4,"qcField":12,"metarType":"METAR","rawOb":"METAR KSAN 160051Z 30009KT 10SM FEW025 FEW200 19/13 A2999 RMK AO2 SLP154 T01890128 $","lat":32.7364,"lon":-117.1973,"elev":3,"name":"San Diego Intl Arpt, CA, US","cover":"FEW","clouds":[{"cover":"FEW","base":2500},{"cover":"FEW","base":20000}],"fltCat":"VFR"},{"icaoId":"KORD","receiptTime":"2026-04-16T00:55:02.624Z","obsTime":1776300660,"reportTime":"2026-04-16T01:00:00.000Z","temp":22.2,"dewp":16.1,"wdir":200,"wspd":16,"wgst":26,"visib":"10+","altim":1006.9,"slp":1006.4,"qcField":4,"metarType":"METAR","rawOb":"METAR KORD 160051Z 20016G26KT 10SM FEW031 SCT043 BKN080 OVC250 22/16 A2973 RMK AO2 PK WND 21026/0044 SLP064 T02220161","lat":41.9602,"lon":-87.9316,"elev":202,"name":"Chicago/O'Hare Intl, IL, US","cover":"OVC","clouds":[{"cover":"FEW","base":3100},{"cover":"SCT","base":4300},{"cover":"BKN","base":8000},{"cover":"OVC","base":25000}],"fltCat":"VFR"},{"icaoId":"KBDL","receiptTime":"2026-04-16T00:55:03.542Z","obsTime":1776300660,"reportTime":"2026-04-16T01:00:00.000Z","temp":22.2,"dewp":15.6,"wdir":170,"wspd":6,"visib":"10+","altim":1010.9,"slp":1010.6,"qcField":4,"metarType":"METAR","rawOb":"METAR KBDL 160051Z 17006KT 10SM FEW080 SCT250 22/16 A2985 RMK AO2 SLP106 T02220156","lat":41.9374,"lon":-72.682,"elev":52,"name":"Hartford/Bradley Intl, CT, US","cover":"SCT","clouds":[{"cover":"FEW","base":8000},{"cover":"SCT","base":25000}],"fltCat":"VFR"},{"icaoId":"KSAD","receiptTime":"2026-04-16T00:55:02.939Z","obsTime":1776300660,"reportTime":"2026-04-16T01:00:00.000Z","temp":25,"dewp":-9.4,"wdir":"VRB","wspd":3,"visib":"10+","altim":1013.3,"slp":1010.2,"qcField":6,"metarType":"METAR","rawOb":"METAR KSAD 160051Z AUTO VRB03KT 10SM CLR 25/M09 A2992 RMK AO2 SLP102 T02501094","lat":32.8565,"lon":-109.636,"elev":937,"name":"Safford Rgnl, AZ, US","cover":"CLR","clouds":[],"fltCat":"VFR"},{"icaoId":"KELP","receiptTime":"2026-04-16T00:55:04.005Z","obsTime":1776300660,"reportTime":"2026-04-16T01:00:00.000Z","temp":23.9,"dewp":-12.2,"wdir":260,"wspd":7,"visib":"10+","altim":1014.6,"slp":1009.7,"qcField":4,"metarType":"METAR","rawOb":"METAR KELP 160051Z 26007KT 10SM FEW130 24/M12 A2996 RMK AO2 SLP097 T02391122","lat":31.8123,"lon":-106.3774,"elev":1205,"name":"El Paso Intl, TX, US","cover":"FEW","clouds":[{"cover":"FEW","base":13000}],"fltCat":"VFR"},{"icaoId":"KORF","receiptTime":"2026-04-16T00:55:02.654Z","obsTime":1776300660,"reportTime":"2026-04-16T01:00:00.000Z","temp":26.7,"dewp":14.4,"wdir":210,"wspd":8,"visib":"10+","altim":1015.3,"slp":1015,"qcField":4,"metarType":"METAR","rawOb":"METAR KORF 160051Z 21008KT 10SM CLR 27/14 A2998 RMK AO2 SLP150 T02670144","lat":36.9037,"lon":-76.1927,"elev":5,"name":"Norfolk Intl, VA, US","cover":"CLR","clouds":[],"fltCat":"VFR"},{"icaoId":"KADM","receiptTime":"2026-04-16T00:55:03.336Z","obsTime":1776300600,"reportTime":"2026-04-16T01:00:00.000Z","temp":16,"dewp":16,"wdir":180,"wspd":6,"visib":3,"altim":1010.6,"qcField":0,"wxString":"-RA FG","metarType":"METAR","rawOb":"METAR KADM 160050Z 18006KT 3SM -RA FG OVC004 16/16 A2984 RMK LTG ALQDS","lat":34.3007,"lon":-97.0089,"elev":223,"name":"Ardmore Muni, OK, US","cover":"OVC","clouds":[{"cover":"OVC","base":400}],"fltCat":"LIFR"},{"icaoId":"KGYR","receiptTime":"2026-04-16T00:49:13.010Z","obsTime":1776300420,"reportTime":"2026-04-16T01:00:00.000Z","temp":29,"dewp":-2,"wdir":"VRB","wspd":4,"visib":"10+","altim":1011.9,"qcField":0,"metarType":"METAR","rawOb":"METAR KGYR 160047Z VRB04KT 10SM SKC 29/M02 A2988","lat":33.428,"lon":-112.368,"elev":292,"name":"Phoenix/Goodyear Muni, AZ, US","cover":"SKC","clouds":[],"fltCat":"VFR"},{"icaoId":"KGEU","receiptTime":"2026-04-16T01:49:38.247Z","obsTime":1776300420,"reportTime":"2026-04-16T01:00:00.000Z","temp":28,"dewp":-7,"wdir":210,"wspd":6,"visib":"10+","altim":1010.6,"qcField":0,"metarType":"METAR","rawOb":"METAR KGEU 160047Z 21006KT 10SM CLR 28/M07 A2984","lat":33.528,"lon":-112.293,"elev":319,"name":"Glendale Muni, AZ, US","cover":"CLR","clouds":[],"fltCat":"VFR"},{"icaoId":"KSUN","receiptTime":"2026-04-16T00:54:46.600Z","obsTime":1776300420,"reportTime":"2026-04-16T01:00:00.000Z","temp":4,"dewp":3,"wdir":120,"wspd":8,"visib":2,"altim":1008.5,"qcField":0,"wxString":"-RA","metarType":"METAR","rawOb":"METAR KSUN 160047Z 12008KT 2SM -RA SCT004 BKN009 OVC011 04/03 A2978","lat":43.4969,"lon":-114.2923,"elev":1619,"name":"Hailey/Friedman Mem, ID, US","cover":"OVC","clouds":[{"cover":"SCT","base":400},{"cover":"BKN","base":900},{"cover":"OVC","base":1100}],"fltCat":"IFR"}]