[{"icaoId":"KNFL","receiptTime":"2026-04-14T06:00:24.114Z","obsTime":1776146220,"reportTime":"2026-04-14T06:00:00.000Z","temp":7.2,"dewp":-3.9,"wdir":310,"wspd":8,"visib":"10+","altim":1016.7,"slp":1013.7,"qcField":4,"presTend":1.5,"maxT":15.6,"minT":6.7,"metarType":"METAR","rawOb":"METAR KNFL 140557Z 31008KT 10SM FEW080 07/M04 A3002 RMK AO2 SLP137 T00721039 10156 20067 51015","lat":39.417,"lon":-118.705,"elev":1199,"name":"Fallon , NV, US","cover":"FEW","clouds":[{"cover":"FEW","base":8000}],"fltCat":"VFR"},{"icaoId":"KNYL","receiptTime":"2026-04-14T06:00:31.547Z","obsTime":1776146220,"reportTime":"2026-04-14T06:00:00.000Z","temp":17.2,"dewp":2.8,"wdir":280,"wspd":17,"wgst":26,"visib":"10+","altim":1015.7,"slp":1015.3,"qcField":4,"presTend":2.1,"maxT":23.9,"minT":16.7,"pcp6hr":0.005,"metarType":"METAR","rawOb":"METAR KNYL 140557Z 28017G26KT 10SM CLR 17/03 A2999 RMK AO2 PK WND 29026/0553 SLP153 LAST 60000 T01720028 10239 20167 51021","lat":32.66,"lon":-114.6078,"elev":58,"name":"Yuma , AZ, US","cover":"CLR","clouds":[],"fltCat":"VFR"},{"icaoId":"KFLG","receiptTime":"2026-04-14T06:00:29.378Z","obsTime":1776146220,"reportTime":"2026-04-14T06:00:00.000Z","temp":0.6,"dewp":-0.6,"wdir":230,"wspd":3,"visib":9,"altim":1016,"slp":1011.4,"qcField":14,"presTend":1,"maxT":11.1,"minT":0,"precip":0.11,"pcp6hr":0.25,"metarType":"METAR","rawOb":"METAR KFLG 140557Z AUTO 23003KT 9SM SCT007 BKN011 OVC090 01/M01 A3000 RMK AO2 RAE0458SNB0458E57 SLP114 P0011 60025 T00061006 10111 20000 51010 $","lat":35.1443,"lon":-111.6664,"elev":2134,"name":"Flagstaff/Pulliam Arpt, AZ, US","cover":"OVC","clouds":[{"cover":"SCT","base":700},{"cover":"BKN","base":1100},{"cover":"OVC","base":9000}],"fltCat":"MVFR"},{"icaoId":"KRDM","receiptTime":"2026-04-14T06:00:07.466Z","obsTime":1776146160,"reportTime":"2026-04-14T06:00:00.000Z","temp":1.1,"dewp":-1.1,"wdir":0,"wspd":0,"visib":"10+","altim":1018,"slp":1018.6,"qcField":6,"presTend":1,"maxT":11.7,"minT":-0.6,"metarType":"METAR","rawOb":"METAR KRDM 140556Z AUTO 00000KT 10SM CLR 01/M01 A3006 RMK AO2 SLP186 T00111011 10117 21006 51010","lat":44.2558,"lon":-121.1407,"elev":930,"name":"Redmond Muni, OR, US","cover":"CLR","clouds":[],"fltCat":"VFR"},{"icaoId":"KSBP","receiptTime":"2026-04-14T06:00:07.667Z","obsTime":1776146160,"reportTime":"2026-04-14T06:00:00.000Z","temp":11.7,"dewp":8.9,"wdir":330,"wspd":7,"visib":"10+","altim":1020.1,"slp":1019.8,"qcField":6,"presTend":1.6,"maxT":16.7,"minT":11.7,"metarType":"METAR","rawOb":"METAR KSBP 140556Z AUTO 33007KT 10SM CLR 12/09 A3012 RMK AO2 SLP198 T01170089 10167 20117 51016","lat":35.2381,"lon":-120.644,"elev":52,"name":"San Luis Obispo/San Luis Cnty, CA, US","cover":"CLR","clouds":[],"fltCat":"VFR"},{"icaoId":"KSDF","receiptTime":"2026-04-14T06:00:07.686Z","obsTime":1776146160,"reportTime":"2026-04-14T06:00:00.000Z","temp":21.1,"dewp":13.9,"wdir":190,"wspd":8,"visib":"10+","altim":1017,"slp":1016.4,"qcField":4,"presTend":-1.3,"maxT":24.4,"minT":21.1,"metarType":"METAR","rawOb":"METAR KSDF 140556Z 19008KT 10SM BKN300 21/14 A3003 RMK AO2 SLP164 T02110139 10244 20211 56013","lat":38.1774,"lon":-85.7308,"elev":146,"name":"Louisville Intl, KY, US","cover":"BKN","clouds":[{"cover":"BKN","base":30000}],"fltCat":"VFR"},{"icaoId":"KTPH","receiptTime":"2026-04-14T06:00:08.025Z","obsTime":1776146160,"reportTime":"2026-04-14T06:00:00.000Z","temp":4.4,"dewp":-2.8,"wdir":20,"wspd":7,"visib":"10+","altim":1016.3,"slp":1014.4,"qcField":6,"presTend":1.3,"maxT":10,"minT":4.4,"metarType":"METAR","rawOb":"METAR KTPH 140556Z AUTO 02007KT 10SM CLR 04/M03 A3001 RMK AO2 SLP144 T00441028 10100 20044 51013","lat":38.0505,"lon":-117.0906,"elev":1647,"name":"Tonopah Arpt, NV, US","cover":"CLR","clouds":[],"fltCat":"VFR"},{"icaoId":"KUKI","receiptTime":"2026-04-14T06:00:08.158Z","obsTime":1776146160,"reportTime":"2026-04-14T06:00:00.000Z","temp":8.9,"dewp":6.7,"wdir":0,"wspd":0,"visib":"10+","altim":1021.1,"slp":1020.6,"qcField":6,"presTend":1.4,"maxT":17.8,"minT":8.9,"metarType":"METAR","rawOb":"METAR KUKI 140556Z AUTO 00000KT 10SM CLR 09/07 A3015 RMK AO2 SLP206 T00890067 10178 20089 50014","lat":39.1278,"lon":-123.2001,"elev":183,"name":"Ukiah Muni, CA, US","cover":"CLR","clouds":[],"fltCat":"VFR"},{"icaoId":"KDUG","receiptTime":"2026-04-14T06:02:01.953Z","obsTime":1776146160,"reportTime":"2026-04-14T06:00:00.000Z","temp":17.2,"dewp":1.1,"wdir":220,"wspd":4,"visib":"10+","altim":1017.7,"slp":1011.9,"qcField":38,"presTend":0.2,"maxT":23.3,"minT":16.7,"metarType":"METAR","rawOb":"METAR KDUG 140556Z AUTO 22004KT 10SM BKN085 OVC100 17/01 A3005 RMK AO2 SLP119 T01720011 10233 20167 52002 TSNO","lat":31.4725,"lon":-109.6022,"elev":1260,"name":"Douglas/Bisbee Intl, AZ, US","cover":"OVC","clouds":[{"cover":"BKN","base":8500},{"cover":"OVC","base":10000}],"fltCat":"VFR"},{"icaoId":"KSFO","receiptTime":"2026-04-14T06:00:18.958Z","obsTime":1776146160,"reportTime":"2026-04-14T06:00:00.000Z","temp":12.8,"dewp":8.9,"wdir":280,"wspd":17,"wgst":25,"visib":"10+","altim":1020.7,"slp":1020.4,"qcField":12,"presTend":0.7,"maxT":16.1,"minT":12.8,"metarType":"METAR","rawOb":"METAR KSFO 140556Z 28017G25KT 10SM FEW016 13/09 A3014 RMK AO2 SLP204 T01280089 10161 20128 51007 $","lat":37.6196,"lon":-122.3656,"elev":2,"name":"San Francisco Intl, CA, US","cover":"FEW","clouds":[{"cover":"FEW","base":1600}],"fltCat":"VFR"},{"icaoId":"KLWS","receiptTime":"2026-04-14T06:00:18.817Z","obsTime":1776146160,"reportTime":"2026-04-14T06:00:00.000Z","temp":8.3,"dewp":6.1,"wdir":290,"wspd":4,"visib":"10+","altim":1015,"slp":1015.3,"qcField":12,"presTend":0.9,"maxT":14.4,"minT":7.8,"metarType":"METAR","rawOb":"METAR KLWS 140556Z 29004KT 10SM CLR 08/06 A2997 RMK AO2 SLP153 T00830061 10144 20078 50009 $","lat":46.3746,"lon":-117.0153,"elev":435,"name":"Lewiston/Nez Perce Cnty, ID, US","cover":"CLR","clouds":[],"fltCat":"VFR"},{"icaoId":"KLAS","receiptTime":"2026-04-14T06:00:06.309Z","obsTime":1776146160,"reportTime":"2026-04-14T06:00:00.000Z","temp":15,"dewp":0.6,"wdir":190,"wspd":7,"visib":"10+","altim":1013.6,"slp":1012.2,"qcField":4,"presTend":2,"maxT":20,"minT":13.9,"precip":0.005,"pcp6hr":0.005,"metarType":"METAR","rawOb":"METAR KLAS 140556Z 19007KT 10SM OVC100 15/01 A2993 RMK AO2 RAE02 SLP122 P0000 60000 T01500006 10200 20139 51020","lat":36.0719,"lon":-115.1634,"elev":662,"name":"Las Vegas/Reid Intl, NV, US","cover":"OVC","clouds":[{"cover":"OVC","base":10000}],"fltCat":"VFR"},{"icaoId":"KHND","receiptTime":"2026-04-14T05:58:56.910Z","obsTime":1776146160,"reportTime":"2026-04-14T06:00:00.000Z","temp":13.9,"dewp":0.6,"wdir":210,"wspd":15,"visib":"10+","altim":1014,"slp":1014.7,"qcField":14,"presTend":1.5,"maxT":18.9,"minT":13.9,"metarType":"METAR","rawOb":"METAR KHND 140556Z AUTO 21015KT 10SM BKN100 BKN120 14/01 A2994 RMK AO2 SLP147 T01390006 10189 20139 50015 $","lat":35.9657,"lon":-115.1343,"elev":740,"name":"Henderson Exec, NV, US","cover":"BKN","clouds":[{"cover":"BKN","base":10000},{"cover":"BKN","base":12000}],"fltCat":"VFR"},{"icaoId":"KCEC","receiptTime":"2026-04-14T06:00:11.197Z","obsTime":1776146160,"reportTime":"2026-04-14T06:00:00.000Z","temp":9.4,"dewp":5.6,"wdir":340,"wspd":7,"visib":"10+","altim":1023.8,"slp":1023.7,"qcField":14,"presTend":0.3,"maxT":12.8,"minT":8.9,"metarType":"METAR","rawOb":"METAR KCEC 140556Z AUTO 34007KT 10SM CLR 09/06 A3023 RMK AO2 SLP237 T00940056 10128 20089 50003 $","lat":41.7836,"lon":-124.238,"elev":17,"name":"Crescent City/McNama, CA, US","cover":"CLR","clouds":[],"fltCat":"VFR"},{"icaoId":"KEKO","receiptTime":"2026-04-14T06:00:11.959Z","obsTime":1776146160,"reportTime":"2026-04-14T06:00:00.000Z","temp":3.3,"dewp":-4.4,"wdir":0,"wspd":0,"visib":"10+","altim":1016,"slp":1015.3,"qcField":6,"presTend":1.2,"maxT":12.2,"minT":2.2,"metarType":"METAR","rawOb":"METAR KEKO 140556Z AUTO 00000KT 10SM FEW070 03/M04 A3000 RMK AO2 SLP153 T00331044 10122 20022 51012","lat":40.824,"lon":-115.7863,"elev":1541,"name":"Elko Rgnl, NV, US","cover":"FEW","clouds":[{"cover":"FEW","base":7000}],"fltCat":"VFR"},{"icaoId":"KEGE","receiptTime":"2026-04-14T05:58:54.035Z","obsTime":1776146160,"reportTime":"2026-04-14T06:00:00.000Z","temp":8.3,"dewp":-1.1,"wdir":250,"wspd":8,"visib":"10+","altim":1014.6,"slp":1009.8,"qcField":6,"presTend":0.5,"maxT":15.6,"minT":7.8,"maxT24":16.1,"minT24":7.2,"metarType":"METAR","rawOb":"METAR KEGE 140556Z AUTO 25008KT 10SM FEW055 BKN080 OVC110 08/M01 A2996 RMK AO2 SLP098 T00831011 10156 20078 401610072 50005","lat":39.6448,"lon":-106.9176,"elev":1993,"name":"Eagle Cnty Rgnl, CO, US","cover":"OVC","clouds":[{"cover":"FEW","base":5500},{"cover":"BKN","base":8000},{"cover":"OVC","base":11000}],"fltCat":"VFR"},{"icaoId":"KPVU","receiptTime":"2026-04-14T05:58:51.951Z","obsTime":1776146160,"reportTime":"2026-04-14T06:00:00.000Z","temp":6.7,"dewp":3.3,"wdir":80,"wspd":3,"visib":"10+","altim":1013.6,"slp":1012.1,"qcField":6,"presTend":-0.4,"maxT":11.7,"minT":5.6,"maxT24":15,"minT24":2.8,"pcp6hr":0.005,"metarType":"METAR","rawOb":"METAR KPVU 140556Z AUTO 08003KT 10SM CLR 07/03 A2993 RMK AO2 SLP121 60000 T00670033 10117 20056 401500028 58004","lat":40.224,"lon":-111.7252,"elev":1370,"name":"Provo Muni, UT, US","cover":"CLR","clouds":[],"fltCat":"VFR"},{"icaoId":"KCOE","receiptTime":"2026-04-14T05:58:53.856Z","obsTime":1776146160,"reportTime":"2026-04-14T06:00:00.000Z","temp":8.3,"dewp":0.6,"wdir":170,"wspd":11,"visib":"10+","altim":1013.6,"slp":1016,"qcField":14,"presTend":1.7,"maxT":9.4,"minT":8.3,"metarType":"METAR","rawOb":"METAR KCOE 140556Z AUTO 17011KT 10SM SCT060 OVC070 08/01 A2993 RMK AO2 SLP160 6//// T00830006 10094 20083 51017 PNO $","lat":47.7719,"lon":-116.8332,"elev":693,"name":"Coeur DAlene Arpt, ID, US","cover":"OVC","clouds":[{"cover":"SCT","base":6000},{"cover":"OVC","base":7000}],"fltCat":"VFR"},{"icaoId":"KENV","receiptTime":"2026-04-14T05:58:54.094Z","obsTime":1776146160,"reportTime":"2026-04-14T06:00:00.000Z","temp":8.9,"dewp":-1.7,"wdir":100,"wspd":10,"visib":"10+","altim":1015,"slp":1014.3,"qcField":6,"presTend":1.2,"maxT":16.1,"minT":8.9,"maxT24":16.1,"minT24":0.6,"metarType":"METAR","rawOb":"METAR KENV 140556Z AUTO 10010KT 10SM CLR 09/M02 A2997 RMK AO2 SLP143 T00891017 10161 20089 401610006 51012","lat":40.7211,"lon":-114.0312,"elev":1291,"name":"Wendover Arpt, UT, US","cover":"CLR","clouds":[],"fltCat":"VFR"},{"icaoId":"KCOD","receiptTime":"2026-04-14T05:58:55.134Z","obsTime":1776146160,"reportTime":"2026-04-14T06:00:00.000Z","temp":6.7,"dewp":-6.7,"wdir":290,"wspd":8,"visib":"10+","altim":1012.3,"slp":1011.2,"qcField":14,"presTend":0.5,"maxT":11.7,"minT":6.1,"metarType":"METAR","rawOb":"METAR KCOD 140556Z AUTO 29008KT 10SM CLR 07/M07 A2989 RMK AO2 SLP112 T00671067 10117 20061 50005 $","lat":44.52,"lon":-109.0268,"elev":1550,"name":"Cody/Yellowstone Rgnl, WY, US","cover":"CLR","clouds":[],"fltCat":"VFR"},{"icaoId":"KVIS","receiptTime":"2026-04-14T05:58:52.496Z","obsTime":1776146160,"reportTime":"2026-04-14T06:00:00.000Z","temp":11.1,"dewp":8.9,"wdir":0,"wspd":0,"visib":"10+","altim":1019.7,"slp":1019.7,"qcField":14,"presTend":1.5,"maxT":20,"minT":10.6,"metarType":"METAR","rawOb":"METAR KVIS 140556Z AUTO 00000KT 10SM CLR 11/09 A3011 RMK AO2 SLP197 6//// T01110089 10200 20106 51015 PNO $","lat":36.3135,"lon":-119.3884,"elev":92,"name":"Visalia Muni, CA, US","cover":"CLR","clouds":[],"fltCat":"VFR"},{"icaoId":"KGUC","receiptTime":"2026-04-14T05:58:56.730Z","obsTime":1776146160,"reportTime":"2026-04-14T06:00:00.000Z","temp":7.8,"dewp":-2.8,"wdir":220,"wspd":4,"visib":"10+","altim":1015.3,"slp":1010,"qcField":14,"maxT":12.2,"minT":6.7,"maxT24":14.4,"minT24":-1.1,"metarType":"METAR","rawOb":"METAR KGUC 140556Z AUTO 22004KT 10SM OVC075 08/M03 A2998 RMK AO2 SLP100 T00781028 10122 20067 401441011 58000 $","lat":38.5322,"lon":-106.9419,"elev":2337,"name":"Gunnison Arpt, CO, US","cover":"OVC","clouds":[{"cover":"OVC","base":7500}],"fltCat":"VFR"},{"icaoId":"KHDN","receiptTime":"2026-04-14T05:58:56.820Z","obsTime":1776146160,"reportTime":"2026-04-14T06:00:00.000Z","temp":2.8,"dewp":-3.9,"wdir":200,"wspd":5,"visib":"10+","altim":1014,"slp":1011.6,"qcField":6,"presTend":-0.1,"maxT":12.2,"minT":2.8,"maxT24":13.9,"minT24":2.8,"metarType":"METAR","rawOb":"METAR KHDN 140556Z AUTO 20005KT 10SM BKN070 OVC090 03/M04 A2994 RMK AO2 SLP116 T00281039 10122 20028 401390028 58001","lat":40.4842,"lon":-107.2296,"elev":2012,"name":"Hayden/Yampa Valley Arpt, CO, US","cover":"OVC","clouds":[{"cover":"BKN","base":7000},{"cover":"OVC","base":9000}],"fltCat":"VFR"},{"icaoId":"KJAC","receiptTime":"2026-04-14T05:58:57.097Z","obsTime":1776146160,"reportTime":"2026-04-14T06:00:00.000Z","temp":-1.1,"dewp":-2.2,"wdir":210,"wspd":6,"visib":9,"altim":1014.6,"slp":1016.4,"qcField":6,"wxString":"-SN BR","presTend":-0.1,"maxT":2.8,"minT":-1.1,"precip":0.02,"pcp6hr":0.06,"metarType":"METAR","rawOb":"METAR KJAC 140556Z AUTO 21006KT 9SM -SN BR BKN002 OVC070 M01/M02 A2996 RMK AO2 SLP164 P0002 60006 T10111022 10028 21011 57001","lat":43.6129,"lon":-110.7366,"elev":1967,"name":"Jackson Hole Arpt, WY, US","cover":"OVC","clouds":[{"cover":"BKN","base":200},{"cover":"OVC","base":7000}],"fltCat":"LIFR"},{"icaoId":"KSLE","receiptTime":"2026-04-14T06:00:07.750Z","obsTime":1776146160,"reportTime":"2026-04-14T06:00:00.000Z","temp":7.8,"dewp":3.3,"wdir":260,"wspd":4,"visib":"10+","altim":1022.4,"slp":1022.4,"qcField":6,"presTend":1,"maxT":13.3,"minT":7.8,"pcp6hr":0.005,"metarType":"METAR","rawOb":"METAR KSLE 140556Z AUTO 26004KT 10SM FEW045 OVC055 08/03 A3019 RMK AO2 SLP224 60000 T00780033 10133 20078 51010","lat":44.9049,"lon":-123.001,"elev":63,"name":"Salem Muni, OR, US","cover":"OVC","clouds":[{"cover":"FEW","base":4500},{"cover":"OVC","base":5500}],"fltCat":"VFR"},{"icaoId":"KJAX","receiptTime":"2026-04-14T06:00:18.798Z","obsTime":1776146160,"reportTime":"2026-04-14T06:00:00.000Z","temp":16.1,"dewp":14.4,"wdir":0,"wspd":0,"visib":"10+","altim":1023.8,"slp":1023.7,"qcField":12,"presTend":-1,"maxT":22.2,"minT":15,"metarType":"METAR","rawOb":"METAR KJAX 140556Z 00000KT 10SM SCT250 16/14 A3023 RMK AO2 SLP237 T01610144 10222 20150 58010 $","lat":30.4953,"lon":-81.6937,"elev":8,"name":"Jacksonville Intl, FL, US","cover":"SCT","clouds":[{"cover":"SCT","base":25000}],"fltCat":"VFR"},{"icaoId":"KCGZ","receiptTime":"2026-04-14T05:58:55.057Z","obsTime":1776146160,"reportTime":"2026-04-14T06:00:00.000Z","temp":18.3,"dewp":3.9,"wdir":270,"wspd":12,"visib":"10+","altim":1015,"slp":1014,"qcField":14,"maxT":25.6,"minT":18.3,"metarType":"METAR","rawOb":"METAR KCGZ 140556Z AUTO 27012KT 10SM BKN100 18/04 A2997 RMK AO2 SLP140 6//// T01830039 10256 20183 $","lat":32.9531,"lon":-111.7725,"elev":444,"name":"Casa Granda Muni, AZ, US","cover":"BKN","clouds":[{"cover":"BKN","base":10000}],"fltCat":"VFR"},{"icaoId":"KFNL","receiptTime":"2026-04-14T05:58:54.364Z","obsTime":1776146160,"reportTime":"2026-04-14T06:00:00.000Z","temp":12.8,"dewp":-6.7,"wdir":30,"wspd":9,"visib":"10+","altim":1010.2,"slp":1005.1,"qcField":12,"presTend":0.8,"maxT":21.7,"minT":12.8,"metarType":"METAR","rawOb":"METAR KFNL 140556Z 03009KT 10SM CLR 13/M07 A2983 RMK AO2 SLP051 T01281067 10217 20128 50008 $","lat":40.4427,"lon":-105.0097,"elev":1529,"name":"Fort Collins/N Colorado Rgnl, CO, US","cover":"CLR","clouds":[],"fltCat":"VFR"},{"icaoId":"KCHS","receiptTime":"2026-04-14T06:00:18.673Z","obsTime":1776146160,"reportTime":"2026-04-14T06:00:00.000Z","temp":16.7,"dewp":15.6,"wdir":0,"wspd":0,"visib":"10+","altim":1023.8,"slp":1023.7,"qcField":4,"presTend":-1.1,"maxT":20.6,"minT":16.7,"metarType":"METAR","rawOb":"METAR KCHS 140556Z 00000KT 10SM SCT200 17/16 A3023 RMK AO2 SLP237 T01670156 10206 20167 57011","lat":32.8995,"lon":-80.0407,"elev":12,"name":"Charleston Intl, SC, US","cover":"SCT","clouds":[{"cover":"SCT","base":20000}],"fltCat":"VFR"},{"icaoId":"KPWT","receiptTime":"2026-04-14T05:58:51.986Z","obsTime":1776146160,"reportTime":"2026-04-14T06:00:00.000Z","temp":6.7,"dewp":5,"wdir":190,"wspd":9,"visib":"10+","altim":1018.7,"slp":1019.3,"qcField":6,"presTend":0.8,"maxT":12.8,"minT":6.1,"metarType":"METAR","rawOb":"METAR KPWT 140556Z AUTO 19009KT 10SM CLR 07/05 A3008 RMK AO2 SLP193 T00670050 10128 20061 50008","lat":47.4942,"lon":-122.7594,"elev":143,"name":"Bremerton Arpt, WA, US","cover":"CLR","clouds":[],"fltCat":"VFR"},{"icaoId":"KSDY","receiptTime":"2026-04-14T05:58:52.074Z","obsTime":1776146160,"reportTime":"2026-04-14T06:00:00.000Z","temp":6.7,"dewp":6.1,"wdir":250,"wspd":3,"visib":"10+","altim":1005.8,"slp":1007,"qcField":14,"presTend":-0.7,"maxT":10.6,"minT":6.1,"pcp6hr":0.005,"metarType":"METAR","rawOb":"METAR KSDY 140556Z AUTO 25003KT 10SM BKN014 07/06 A2970 RMK AO2 SLP070 60000 T00670061 10106 20061 56007 $","lat":47.7029,"lon":-104.1951,"elev":600,"name":"Sidney/Richland Muni, MT, US","cover":"BKN","clouds":[{"cover":"BKN","base":1400}],"fltCat":"MVFR"},{"icaoId":"KSGU","receiptTime":"2026-04-14T05:58:52.201Z","obsTime":1776146160,"reportTime":"2026-04-14T06:00:00.000Z","temp":8.9,"dewp":6.7,"wdir":10,"wspd":8,"visib":"10+","altim":1014.6,"slp":1013.6,"qcField":6,"wxString":"-RA","presTend":1.2,"maxT":13.3,"minT":8.9,"precip":0.01,"pcp6hr":0.13,"metarType":"METAR","rawOb":"METAR KSGU 140556Z AUTO 01008KT 10SM -RA FEW015 BKN040 OVC048 09/07 A2996 RMK AO2 SLP136 P0001 60013 T00890067 10133 20089 51012","lat":37.0444,"lon":-113.5034,"elev":877,"name":"Saint George Muni, UT, US","cover":"OVC","clouds":[{"cover":"FEW","base":1500},{"cover":"BKN","base":4000},{"cover":"OVC","base":4800}],"fltCat":"VFR"},{"icaoId":"KINW","receiptTime":"2026-04-14T06:00:18.777Z","obsTime":1776146160,"reportTime":"2026-04-14T06:00:00.000Z","temp":8.3,"dewp":1.7,"wdir":250,"wspd":10,"visib":"10+","altim":1015.3,"slp":1011.4,"qcField":6,"presTend":2.3,"maxT":17.8,"minT":8.3,"metarType":"METAR","rawOb":"METAR KINW 140556Z AUTO 25010KT 10SM CLR 08/02 A2998 RMK AO2 SLP114 T00830017 10178 20083 53023","lat":35.0279,"lon":-110.7221,"elev":1492,"name":"Winslow/Lindberg Rgnl, AZ, US","cover":"CLR","clouds":[],"fltCat":"VFR"},{"icaoId":"KSUN","receiptTime":"2026-04-14T06:00:16.910Z","obsTime":1776146100,"reportTime":"2026-04-14T06:00:00.000Z","wdir":320,"wspd":6,"visib":"10+","altim":1015.3,"qcField":6,"metarType":"METAR","rawOb":"METAR KSUN 140555Z AUTO 32006KT 10SM CLR A2998 RMK AO2","lat":43.4969,"lon":-114.2923,"elev":1619,"name":"Hailey/Friedman Mem, ID, US","cover":"CLR","clouds":[],"fltCat":"VFR"},{"icaoId":"KCXP","receiptTime":"2026-04-14T06:00:31.445Z","obsTime":1776146100,"reportTime":"2026-04-14T06:00:00.000Z","temp":5,"dewp":-1,"wdir":0,"wspd":0,"visib":"10+","altim":1018.7,"qcField":6,"metarType":"METAR","rawOb":"METAR KCXP 140555Z AUTO 00000KT 10SM CLR 05/M01 A3008 RMK AO2","lat":39.1905,"lon":-119.7319,"elev":1431,"name":"Carson City Arpt, NV, US","cover":"CLR","clouds":[],"fltCat":"VFR"},{"icaoId":"KHTH","receiptTime":"2026-04-14T06:00:30.125Z","obsTime":1776146100,"reportTime":"2026-04-14T06:00:00.000Z","temp":11,"dewp":-8,"wdir":10,"wspd":14,"wgst":20,"visib":"10+","altim":1017.4,"qcField":6,"metarType":"METAR","rawOb":"METAR KHTH 140555Z AUTO 01014G20KT 10SM OVC085 11/M08 A3004 RMK A01","lat":38.5448,"lon":-118.6314,"elev":1281,"name":"Hawthorne Muni, NV, US","cover":"OVC","clouds":[{"cover":"OVC","base":8500}],"fltCat":"VFR"},{"icaoId":"KMHR","receiptTime":"2026-04-14T06:00:28.058Z","obsTime":1776146100,"reportTime":"2026-04-14T06:00:00.000Z","temp":11,"dewp":11,"wdir":220,"wspd":6,"visib":"10+","altim":1018.7,"qcField":6,"metarType":"METAR","rawOb":"METAR KMHR 140555Z AUTO 22006KT 10SM CLR 11/11 A3008 RMK AO2","lat":38.56,"lon":-121.284,"elev":30,"name":"Sacramento/Mather Fld, CA, US","cover":"CLR","clouds":[],"fltCat":"VFR"},{"icaoId":"KMEV","receiptTime":"2026-04-14T06:00:27.995Z","obsTime":1776146100,"reportTime":"2026-04-14T06:00:00.000Z","temp":2,"dewp":-1,"wdir":140,"wspd":4,"visib":"10+","altim":1018.7,"qcField":6,"metarType":"METAR","rawOb":"METAR KMEV 140555Z AUTO 14004KT 10SM CLR 02/M01 A3008 RMK AO2","lat":38.9963,"lon":-119.75,"elev":1437,"name":"Minden-Tahoe Arpt, NV, US","cover":"CLR","clouds":[],"fltCat":"VFR"},{"icaoId":"KRNO","receiptTime":"2026-04-14T05:58:52.016Z","obsTime":1776146100,"reportTime":"2026-04-14T06:00:00.000Z","temp":8.3,"dewp":-2.2,"wdir":280,"wspd":6,"visib":"10+","altim":1018.4,"slp":1016.9,"qcField":4,"presTend":1,"maxT":13.9,"minT":8.3,"metarType":"METAR","rawOb":"METAR KRNO 140555Z 28006KT 10SM CLR 08/M02 A3007 RMK AO2 SLP169 T00831022 10139 20083 51010","lat":39.5077,"lon":-119.7683,"elev":1344,"name":"Reno/Tahoe Intl, NV, US","cover":"CLR","clouds":[],"fltCat":"VFR"},{"icaoId":"KLRU","receiptTime":"2026-04-14T05:58:45.753Z","obsTime":1776146100,"reportTime":"2026-04-14T06:00:00.000Z","temp":17.6,"dewp":0.2,"wdir":210,"wspd":8,"visib":"10+","altim":1017.7,"qcField":6,"maxT":22.9,"minT":17.2,"metarType":"METAR","rawOb":"METAR KLRU 140555Z AUTO 21008KT 10SM CLR 18/00 A3005 RMK AO2 T01760002 10229 20172","lat":32.2884,"lon":-106.9131,"elev":1355,"name":"Las Cruces Intl, NM, US","cover":"CLR","clouds":[],"fltCat":"VFR"},{"icaoId":"KAST","receiptTime":"2026-04-14T05:58:54.663Z","obsTime":1776146100,"reportTime":"2026-04-14T06:00:00.000Z","temp":7.8,"dewp":5.6,"visib":"10+","altim":1021.1,"slp":1020.9,"qcField":6,"presTend":0.1,"maxT":11.1,"minT":7.8,"pcp6hr":0.005,"metarType":"METAR","rawOb":"METAR KAST 140555Z AUTO 10SM FEW060 08/06 A3015 RMK AO2 SLP209 60000 T00780056 10111 20078 50001","lat":46.157,"lon":-123.8833,"elev":3,"name":"Astoria Rgnl, OR, US","cover":"FEW","clouds":[{"cover":"FEW","base":6000}],"fltCat":"VFR"},{"icaoId":"KGPI","receiptTime":"2026-04-14T05:58:56.630Z","obsTime":1776146100,"reportTime":"2026-04-14T06:00:00.000Z","temp":7.8,"dewp":3.9,"wdir":140,"wspd":12,"visib":"10+","altim":1011.3,"slp":1011.9,"qcField":4,"presTend":0.7,"maxT":9.4,"minT":7.8,"pcp6hr":0.005,"metarType":"METAR","rawOb":"METAR KGPI 140555Z 14012KT 10SM OVC037 08/04 A2986 RMK AO2 SLP119 60000 T00780039 10094 20078 50007","lat":48.3041,"lon":-114.2643,"elev":903,"name":"Kalispell/Glacier Park Intl, MT, US","cover":"OVC","clouds":[{"cover":"OVC","base":3700}],"fltCat":"VFR"},{"icaoId":"KIFP","receiptTime":"2026-04-14T06:00:26.446Z","obsTime":1776146100,"reportTime":"2026-04-14T06:00:00.000Z","temp":18,"dewp":1,"wdir":220,"wspd":13,"visib":"10+","altim":1013,"qcField":6,"metarType":"METAR","rawOb":"METAR KIFP 140555Z AUTO 22013KT 10SM BKN100 18/01 A2991 RMK AO2","lat":35.1487,"lon":-114.5611,"elev":210,"name":"Bullhead City Intl, AZ, US","cover":"BKN","clouds":[{"cover":"BKN","base":10000}],"fltCat":"VFR"},{"icaoId":"KSOW","receiptTime":"2026-04-14T05:58:44.345Z","obsTime":1776146100,"reportTime":"2026-04-14T06:00:00.000Z","temp":9,"dewp":2,"wdir":190,"wspd":25,"wgst":31,"visib":"10+","altim":1015.7,"qcField":6,"metarType":"METAR","rawOb":"METAR KSOW 140555Z AUTO 19025G31KT 10SM FEW075 09/02 A2999 RMK AO2","lat":34.2686,"lon":-110.0019,"elev":1954,"name":"Show Low Muni, AZ, US","cover":"FEW","clouds":[{"cover":"FEW","base":7500}],"fltCat":"VFR"},{"icaoId":"KCHD","receiptTime":"2026-04-14T05:58:08.885Z","obsTime":1776146100,"reportTime":"2026-04-14T06:00:00.000Z","temp":19.9,"dewp":4.1,"wdir":280,"wspd":9,"visib":"10+","altim":1014.6,"qcField":14,"metarType":"METAR","rawOb":"METAR KCHD 140555Z AUTO 28009KT 10SM OVC070 20/04 A2996 RMK AO2 T01990041 $","lat":33.2669,"lon":-111.8086,"elev":378,"name":"Chandler Muni, AZ, US","cover":"OVC","clouds":[{"cover":"OVC","base":7000}],"fltCat":"VFR"},{"icaoId":"KHAF","receiptTime":"2026-04-14T05:58:46.390Z","obsTime":1776146100,"reportTime":"2026-04-14T06:00:00.000Z","temp":12,"dewp":11,"wdir":330,"wspd":12,"visib":9,"altim":1021.1,"qcField":6,"metarType":"METAR","rawOb":"METAR KHAF 140555Z AUTO 33012KT 9SM OVC018 12/11 A3015 RMK AO2","lat":37.5136,"lon":-122.4996,"elev":11,"name":"Half Moon Bay Arpt, CA, US","cover":"OVC","clouds":[{"cover":"OVC","base":1800}],"fltCat":"MVFR"},{"icaoId":"KBVU","receiptTime":"2026-04-14T05:56:22.527Z","obsTime":1776146100,"reportTime":"2026-04-14T06:00:00.000Z","temp":14,"dewp":0,"wdir":240,"wspd":4,"visib":"10+","altim":1013.3,"qcField":6,"metarType":"METAR","rawOb":"METAR KBVU 140555Z AUTO 24004KT 10SM BKN120 14/M00 A2992 RMK AO2","lat":35.9489,"lon":-114.8633,"elev":654,"name":"Boulder City Muni, NV, US","cover":"BKN","clouds":[{"cover":"BKN","base":12000}],"fltCat":"VFR"},{"icaoId":"KRTS","receiptTime":"2026-04-14T06:00:22.501Z","obsTime":1776146100,"reportTime":"2026-04-14T06:00:00.000Z","temp":4,"dewp":-3,"wdir":300,"wspd":6,"visib":"10+","altim":1018.7,"qcField":6,"metarType":"METAR","rawOb":"METAR KRTS 140555Z AUTO 30006KT 10SM CLR 04/M03 A3008 RMK AO2","lat":39.6658,"lon":-119.8731,"elev":1537,"name":"Reno/Stead Arpt, NV, US","cover":"CLR","clouds":[],"fltCat":"VFR"},{"icaoId":"KSEZ","receiptTime":"2026-04-14T06:00:12.251Z","obsTime":1776146100,"reportTime":"2026-04-14T06:00:00.000Z","temp":7,"dewp":6,"wdir":360,"wspd":3,"visib":"10+","altim":1016,"qcField":6,"precip":0.04,"metarType":"METAR","rawOb":"METAR KSEZ 140555Z AUTO 36003KT 10SM FEW023 SCT046 BKN055 07/06 A3000 RMK AO2 P0004","lat":34.8467,"lon":-111.7884,"elev":1455,"name":"Sedona Arpt, AZ, US","cover":"BKN","clouds":[{"cover":"FEW","base":2300},{"cover":"SCT","base":4600},{"cover":"BKN","base":5500}],"fltCat":"VFR"},{"icaoId":"KHCR","receiptTime":"2026-04-14T05:58:46.702Z","obsTime":1776146100,"reportTime":"2026-04-14T06:00:00.000Z","temp":2.1,"dewp":-0.5,"wdir":0,"wspd":0,"visib":"10+","altim":1013.3,"qcField":14,"presTend":-0.2,"maxT":11.6,"minT":0.7,"metarType":"METAR","rawOb":"METAR KHCR 140555Z AUTO 00000KT 10SM CLR 02/M01 A2992 RMK AO2 T00211005 10116 20007 58002 $","lat":40.4774,"lon":-111.4329,"elev":1708,"name":"Heber City Muni, UT, US","cover":"CLR","clouds":[],"fltCat":"VFR"},{"icaoId":"KCMA","receiptTime":"2026-04-14T05:58:55.091Z","obsTime":1776146100,"reportTime":"2026-04-14T06:00:00.000Z","temp":13.3,"dewp":10,"wdir":60,"wspd":4,"visib":"10+","altim":1018,"slp":1018.6,"qcField":6,"presTend":1.2,"maxT":18.3,"minT":12.8,"metarType":"METAR","rawOb":"METAR KCMA 140555Z AUTO 06004KT 10SM CLR 13/10 A3006 RMK AO2 SLP186 T01330100 10183 20128 51012","lat":34.2114,"lon":-119.0876,"elev":20,"name":"Camarillo Arpt, CA, US","cover":"CLR","clouds":[],"fltCat":"VFR"},{"icaoId":"KHII","receiptTime":"2026-04-14T06:01:10.347Z","obsTime":1776146100,"reportTime":"2026-04-14T06:00:00.000Z","temp":19,"dewp":1,"wdir":240,"wspd":5,"visib":"10+","altim":1014,"qcField":6,"metarType":"METAR","rawOb":"METAR KHII 140555Z AUTO 24005KT 10SM CLR 19/01 A2994 RMK AO2","lat":34.5659,"lon":-114.3522,"elev":241,"name":"Lake Havasu City Arpt, AZ, US","cover":"CLR","clouds":[],"fltCat":"VFR"},{"icaoId":"KADM","receiptTime":"2026-04-14T06:01:10.766Z","obsTime":1776146100,"reportTime":"2026-04-14T06:00:00.000Z","temp":23,"dewp":21,"wdir":170,"wspd":6,"visib":"10+","altim":1014,"qcField":6,"metarType":"METAR","rawOb":"METAR KADM 140555Z AUTO 17006KT 10SM FEW029 FEW034 SCT040 23/21 A2994 RMK AO2","lat":34.3007,"lon":-97.0089,"elev":223,"name":"Ardmore Muni, OK, US","cover":"SCT","clouds":[{"cover":"FEW","base":2900},{"cover":"FEW","base":3400},{"cover":"SCT","base":4000}],"fltCat":"VFR"},{"icaoId":"KBJC","receiptTime":"2026-04-14T06:00:30.915Z","obsTime":1776146100,"reportTime":"2026-04-14T06:00:00.000Z","temp":13,"dewp":-8,"wdir":60,"wspd":6,"visib":"10+","altim":1011.9,"qcField":6,"metarType":"METAR","rawOb":"METAR KBJC 140555Z AUTO 06006KT 10SM BKN120 13/M08 A2988 RMK AO2","lat":39.9008,"lon":-105.1042,"elev":1694,"name":"Rocky Mtn Metro, CO, US","cover":"BKN","clouds":[{"cover":"BKN","base":12000}],"fltCat":"VFR"},{"icaoId":"KAEG","receiptTime":"2026-04-14T06:01:10.802Z","obsTime":1776146100,"reportTime":"2026-04-14T06:00:00.000Z","temp":9.2,"dewp":0.3,"wdir":210,"wspd":6,"visib":"10+","altim":1017,"qcField":6,"maxT":16,"minT":7.7,"metarType":"METAR","rawOb":"METAR KAEG 140555Z AUTO 21006KT 10SM SCT120 09/00 A3003 RMK AO2 T00920003 10160 20077","lat":35.15,"lon":-106.7929,"elev":1771,"name":"Albuquerque/Double Eagle Arpt, NM, US","cover":"SCT","clouds":[{"cover":"SCT","base":12000}],"fltCat":"VFR"},{"icaoId":"KOLM","receiptTime":"2026-04-14T05:58:46.536Z","obsTime":1776146040,"reportTime":"2026-04-14T06:00:00.000Z","temp":7.2,"dewp":4.4,"wdir":200,"wspd":10,"visib":"10+","altim":1020.4,"slp":1020.4,"qcField":6,"presTend":0.6,"maxT":12.2,"minT":7.2,"precip":0.01,"pcp6hr":0.01,"metarType":"METAR","rawOb":"METAR KOLM 140554Z AUTO 20010KT 10SM SCT034 BKN050 07/04 A3013 RMK AO2 RAB04E30 SLP204 P0001 60001 T00720044 10122 20072 50006","lat":46.9737,"lon":-122.9049,"elev":58,"name":"Olympia Rgnl, WA, US","cover":"BKN","clouds":[{"cover":"SCT","base":3400},{"cover":"BKN","base":5000}],"fltCat":"VFR"},{"icaoId":"KGSO","receiptTime":"2026-04-14T05:58:49.614Z","obsTime":1776146040,"reportTime":"2026-04-14T06:00:00.000Z","temp":18.3,"dewp":12.2,"wdir":230,"wspd":6,"visib":"10+","altim":1021.4,"slp":1020.4,"qcField":4,"presTend":-0.9,"maxT":23.3,"minT":17.8,"metarType":"METAR","rawOb":"METAR KGSO 140554Z 23006KT 10SM SCT110 BKN250 18/12 A3016 RMK AO2 SLP204 T01830122 10233 20178 58009","lat":36.0969,"lon":-79.9432,"elev":275,"name":"Greensboro Intl, NC, US","cover":"BKN","clouds":[{"cover":"SCT","base":11000},{"cover":"BKN","base":25000}],"fltCat":"VFR"},{"icaoId":"KDSM","receiptTime":"2026-04-14T05:58:46.998Z","obsTime":1776146040,"reportTime":"2026-04-14T06:00:00.000Z","temp":22.2,"dewp":17.2,"wdir":230,"wspd":15,"visib":"10+","altim":1005.5,"slp":1004.8,"qcField":12,"presTend":1.6,"maxT":26.7,"minT":22.2,"maxT24":27.8,"minT24":16.1,"metarType":"METAR","rawOb":"METAR KDSM 140554Z 23015KT 10SM CLR 22/17 A2969 RMK AO2 SLP048 T02220172 10267 20222 402780161 53016 $","lat":41.5339,"lon":-93.6531,"elev":286,"name":"Des Moines Intl, IA, US","cover":"CLR","clouds":[],"fltCat":"VFR"},{"icaoId":"KSJN","receiptTime":"2026-04-14T05:58:23.322Z","obsTime":1776146040,"reportTime":"2026-04-14T06:00:00.000Z","temp":11.1,"dewp":1.7,"wdir":220,"wspd":12,"wgst":19,"visib":"10+","altim":1014.6,"slp":1008.4,"qcField":6,"presTend":0.2,"maxT":18.3,"minT":8.9,"metarType":"METAR","rawOb":"METAR KSJN 140554Z AUTO 22012G19KT 10SM CLR 11/02 A2996 RMK AO2 SLP084 T01110017 10183 20089 51002","lat":34.5184,"lon":-109.3801,"elev":1747,"name":"St Johns Ind Arpt, AZ, US","cover":"CLR","clouds":[],"fltCat":"VFR"},{"icaoId":"KRIC","receiptTime":"2026-04-14T05:58:49.229Z","obsTime":1776146040,"reportTime":"2026-04-14T06:00:00.000Z","temp":17.2,"dewp":11.1,"wdir":190,"wspd":6,"visib":"10+","altim":1019.4,"slp":1019.6,"qcField":4,"presTend":-0.6,"maxT":25,"minT":16.7,"metarType":"METAR","rawOb":"METAR KRIC 140554Z 19006KT 10SM FEW300 17/11 A3010 RMK AO2 SLP196 T01720111 10250 20167 57006","lat":37.5115,"lon":-77.3234,"elev":51,"name":"Richmond Intl, VA, US","cover":"FEW","clouds":[{"cover":"FEW","base":30000}],"fltCat":"VFR"},{"icaoId":"KROC","receiptTime":"2026-04-14T05:58:49.277Z","obsTime":1776146040,"reportTime":"2026-04-14T06:00:00.000Z","temp":12.8,"dewp":12.2,"wdir":170,"wspd":3,"visib":9,"altim":1015.3,"slp":1015.5,"qcField":4,"presTend":-0.1,"maxT":18.9,"minT":12.8,"pcp6hr":0.005,"metarType":"METAR","rawOb":"METAR KROC 140554Z 17003KT 9SM OVC200 13/12 A2998 RMK AO2 SLP155 60000 T01280122 10189 20128 57001","lat":43.1172,"lon":-77.6754,"elev":166,"name":"Rochester Intl Arpt, NY, US","cover":"OVC","clouds":[{"cover":"OVC","base":20000}],"fltCat":"VFR"},{"icaoId":"KBTV","receiptTime":"2026-04-14T05:58:49.520Z","obsTime":1776146040,"reportTime":"2026-04-14T06:00:00.000Z","temp":13.3,"dewp":10,"wdir":90,"wspd":4,"visib":"10+","altim":1013.6,"slp":1013.6,"qcField":6,"presTend":1.2,"maxT":17.8,"minT":13.3,"metarType":"METAR","rawOb":"METAR KBTV 140554Z AUTO 09004KT 10SM OVC050 13/10 A2993 RMK AO2 SLP136 T01330100 10178 20133 51012","lat":44.4682,"lon":-73.1499,"elev":101,"name":"Burlington Intl, VT, US","cover":"OVC","clouds":[{"cover":"OVC","base":5000}],"fltCat":"VFR"},{"icaoId":"KBOS","receiptTime":"2026-04-14T05:58:49.504Z","obsTime":1776146040,"reportTime":"2026-04-14T06:00:00.000Z","temp":19.4,"dewp":13.3,"wdir":260,"wspd":13,"wgst":19,"visib":"10+","altim":1013.3,"slp":1012.9,"qcField":4,"presTend":0.6,"maxT":20.6,"minT":16.7,"metarType":"METAR","rawOb":"METAR KBOS 140554Z 26013G19KT 10SM CLR 19/13 A2992 RMK AO2 SLP129 T01940133 10206 20167 50006","lat":42.3606,"lon":-71.0097,"elev":4,"name":"Boston/Logan Intl, MA, US","cover":"CLR","clouds":[],"fltCat":"VFR"},{"icaoId":"KAPC","receiptTime":"2026-04-14T05:58:46.318Z","obsTime":1776146040,"reportTime":"2026-04-14T06:00:00.000Z","temp":8.9,"dewp":7.8,"wdir":0,"wspd":0,"visib":"10+","altim":1020.1,"slp":1019,"qcField":6,"presTend":1.1,"maxT":17.8,"minT":8.3,"metarType":"METAR","rawOb":"METAR KAPC 140554Z AUTO 00000KT 10SM CLR 09/08 A3012 RMK AO2 SLP190 T00890078 10178 20083 51011","lat":38.2075,"lon":-122.2804,"elev":5,"name":"Napa Cnty Arpt, CA, US","cover":"CLR","clouds":[],"fltCat":"VFR"},{"icaoId":"KIND","receiptTime":"2026-04-14T05:58:47.092Z","obsTime":1776146040,"reportTime":"2026-04-14T06:00:00.000Z","temp":21.1,"dewp":16.1,"wdir":200,"wspd":17,"wgst":28,"visib":"10+","altim":1013.6,"slp":1013,"qcField":4,"presTend":-1.2,"maxT":24.4,"minT":21.1,"metarType":"METAR","rawOb":"METAR KIND 140554Z 20017G28KT 10SM SCT030 21/16 A2993 RMK AO2 PK WND 21035/0519 SLP130 T02110161 10244 20211 56012","lat":39.7252,"lon":-86.2816,"elev":242,"name":"Indianapolis Intl, IN, US","cover":"SCT","clouds":[{"cover":"SCT","base":3000}],"fltCat":"VFR"},{"icaoId":"KBFL","receiptTime":"2026-04-14T05:58:46.337Z","obsTime":1776146040,"reportTime":"2026-04-14T06:00:00.000Z","temp":13.9,"dewp":7.2,"wdir":0,"wspd":0,"visib":"10+","altim":1019.4,"slp":1019,"qcField":4,"presTend":1.7,"maxT":17.8,"minT":12.8,"metarType":"METAR","rawOb":"METAR KBFL 140554Z 00000KT 10SM FEW048 14/07 A3010 RMK AO2 SLP190 T01390072 10178 20128 51017","lat":35.4342,"lon":-119.0552,"elev":146,"name":"Bakersfield/Meadows Arpt, CA, US","cover":"FEW","clouds":[{"cover":"FEW","base":4800}],"fltCat":"VFR"},{"icaoId":"KCOS","receiptTime":"2026-04-14T05:58:46.953Z","obsTime":1776146040,"reportTime":"2026-04-14T06:00:00.000Z","temp":8.3,"dewp":-10.6,"wdir":40,"wspd":4,"visib":"10+","altim":1011.6,"slp":1006.2,"qcField":4,"maxT":20,"minT":7.2,"metarType":"METAR","rawOb":"METAR KCOS 140554Z 04004KT 10SM SCT180 08/M11 A2987 RMK AO2 SLP062 T00831106 10200 20072 58000","lat":38.8095,"lon":-104.6887,"elev":1886,"name":"Colorado Spring Arpt, CO, US","cover":"SCT","clouds":[{"cover":"SCT","base":18000}],"fltCat":"VFR"},{"icaoId":"KBWI","receiptTime":"2026-04-14T05:58:49.551Z","obsTime":1776146040,"reportTime":"2026-04-14T06:00:00.000Z","temp":18.3,"dewp":10.6,"wdir":240,"wspd":4,"visib":"10+","altim":1017,"slp":1016.6,"qcField":4,"presTend":-0.5,"maxT":25,"minT":18.3,"metarType":"METAR","rawOb":"METAR KBWI 140554Z 24004KT 10SM CLR 18/11 A3003 RMK AO2 SLP166 T01830106 10250 20183 58005","lat":39.1733,"lon":-76.684,"elev":42,"name":"Baltimore-Washington Intl, MD, US","cover":"CLR","clouds":[],"fltCat":"VFR"},{"icaoId":"KBUF","receiptTime":"2026-04-14T05:58:49.535Z","obsTime":1776146040,"reportTime":"2026-04-14T06:00:00.000Z","temp":13.3,"dewp":12.2,"wdir":200,"wspd":8,"visib":"10+","altim":1015.3,"slp":1015.2,"qcField":12,"presTend":0.1,"maxT":14.4,"minT":10.6,"metarType":"METAR","rawOb":"METAR KBUF 140554Z 20008KT 10SM BKN220 13/12 A2998 RMK AO2 SLP152 T01330122 10144 20106 53001 $","lat":42.94,"lon":-78.7361,"elev":217,"name":"Buffalo-Niagara Intl, NY, US","cover":"BKN","clouds":[{"cover":"BKN","base":22000}],"fltCat":"VFR"},{"icaoId":"KGCN","receiptTime":"2026-04-14T05:58:46.366Z","obsTime":1776146040,"reportTime":"2026-04-14T06:00:00.000Z","temp":0.6,"dewp":0,"wdir":200,"wspd":3,"visib":"10+","altim":1016,"slp":1012.7,"qcField":6,"presTend":0.8,"maxT":10,"minT":0.6,"precip":0.03,"pcp6hr":0.21,"metarType":"METAR","rawOb":"METAR KGCN 140554Z AUTO 20003KT 10SM FEW004 SCT055 BKN110 01/00 A3000 RMK AO2 UPB0456E0458B28E34RAB0458E06SNB06E28 SLP127 P0003 60021 T00060000 10100 20006 51008","lat":35.9458,"lon":-112.1554,"elev":1993,"name":"Grand Canyon Park Arpt, AZ, US","cover":"BKN","clouds":[{"cover":"FEW","base":400},{"cover":"SCT","base":5500},{"cover":"BKN","base":11000}],"fltCat":"VFR"},{"icaoId":"KFFZ","receiptTime":"2026-04-14T05:58:36.147Z","obsTime":1776146040,"reportTime":"2026-04-14T06:00:00.000Z","temp":19.4,"dewp":3.9,"wdir":250,"wspd":10,"wgst":18,"visib":"10+","altim":1014.3,"slp":1012.3,"qcField":6,"wxString":"-RA","presTend":3.2,"maxT":25.6,"minT":19.4,"precip":0.005,"pcp6hr":0.005,"metarType":"METAR","rawOb":"METAR KFFZ 140554Z AUTO 25010G18KT 10SM -RA BKN070 OVC090 19/04 A2995 RMK AO2 PK WND 24026/0501 RAB0455E04B50 SLP123 P0000 60000 T01940039 10256 20194 51032","lat":33.4659,"lon":-111.7212,"elev":420,"name":"Mesa/Falcon Fld, AZ, US","cover":"OVC","clouds":[{"cover":"BKN","base":7000},{"cover":"OVC","base":9000}],"fltCat":"VFR"},{"icaoId":"KPHL","receiptTime":"2026-04-14T05:58:49.127Z","obsTime":1776146040,"reportTime":"2026-04-14T06:00:00.000Z","temp":18.3,"dewp":11.7,"wdir":190,"wspd":5,"visib":"10+","altim":1016.7,"slp":1016.4,"qcField":12,"presTend":0.1,"maxT":25,"minT":18.3,"metarType":"METAR","rawOb":"METAR KPHL 140554Z 19005KT 10SM SCT110 18/12 A3002 RMK AO2 SLP164 T01830117 10250 20183 50001 $","lat":39.8733,"lon":-75.2268,"elev":2,"name":"Philadelphia Intl, PA, US","cover":"SCT","clouds":[{"cover":"SCT","base":11000}],"fltCat":"VFR"},{"icaoId":"KSLC","receiptTime":"2026-04-14T05:58:46.601Z","obsTime":1776146040,"reportTime":"2026-04-14T06:00:00.000Z","temp":8.3,"dewp":-2.2,"wdir":100,"wspd":5,"visib":"10+","altim":1013.3,"slp":1011.1,"qcField":12,"maxT":13.9,"minT":7.8,"metarType":"METAR","rawOb":"METAR KSLC 140554Z 10005KT 10SM FEW200 SCT230 08/M02 A2992 RMK AO2 SLP111 T00831022 10139 20078 50000 $","lat":40.7707,"lon":-111.965,"elev":1286,"name":"Salt Lake City Intl, UT, US","cover":"SCT","clouds":[{"cover":"FEW","base":20000},{"cover":"SCT","base":23000}],"fltCat":"VFR"},{"icaoId":"KOLS","receiptTime":"2026-04-14T05:58:46.580Z","obsTime":1776146040,"reportTime":"2026-04-14T06:00:00.000Z","temp":13.9,"dewp":3.3,"wdir":230,"wspd":7,"visib":"10+","altim":1017.7,"slp":1013.6,"qcField":6,"presTend":0.5,"maxT":21.1,"minT":13.9,"metarType":"METAR","rawOb":"METAR KOLS 140554Z AUTO 23007KT 10SM CLR 14/03 A3005 RMK AO2 SLP136 T01390033 10211 20139 51005","lat":31.4208,"lon":-110.8465,"elev":1194,"name":"Nogales Intl, AZ, US","cover":"CLR","clouds":[],"fltCat":"VFR"},{"icaoId":"KRKS","receiptTime":"2026-04-14T05:58:22.577Z","obsTime":1776146040,"reportTime":"2026-04-14T06:00:00.000Z","temp":3.3,"dewp":-8.3,"wdir":320,"wspd":6,"visib":"10+","altim":1014.3,"slp":1011.5,"qcField":6,"presTend":0.1,"maxT":10.6,"minT":2.2,"metarType":"METAR","rawOb":"METAR KRKS 140554Z AUTO 32006KT 10SM BKN090 OVC110 03/M08 A2995 RMK AO2 SLP115 T00331083 10106 20022 50001","lat":41.5947,"lon":-109.0529,"elev":2062,"name":"Rock Springs/SW Wyoming Rgnl, WY, US","cover":"OVC","clouds":[{"cover":"BKN","base":9000},{"cover":"OVC","base":11000}],"fltCat":"VFR"},{"icaoId":"KEUG","receiptTime":"2026-04-14T05:58:46.351Z","obsTime":1776146040,"reportTime":"2026-04-14T06:00:00.000Z","temp":5,"dewp":3.3,"wdir":0,"wspd":0,"visib":"10+","altim":1023.1,"slp":1023.1,"qcField":4,"presTend":0.8,"maxT":13.3,"minT":4.4,"metarType":"METAR","rawOb":"METAR KEUG 140554Z 00000KT 10SM FEW055 05/03 A3021 RMK AO2 SLP231 T00500033 10133 20044 51008","lat":44.1331,"lon":-123.2156,"elev":109,"name":"Eugene/Mahlon Sweet Fld, OR, US","cover":"FEW","clouds":[{"cover":"FEW","base":5500}],"fltCat":"VFR"},{"icaoId":"KMEM","receiptTime":"2026-04-14T05:58:45.655Z","obsTime":1776146040,"reportTime":"2026-04-14T06:00:00.000Z","temp":21.7,"dewp":15.6,"wdir":190,"wspd":8,"visib":"10+","altim":1018.7,"slp":1018.3,"qcField":4,"presTend":-0.2,"maxT":25,"minT":21.7,"maxT24":27.8,"minT24":20,"pcp6hr":0.005,"metarType":"METAR","rawOb":"METAR KMEM 140554Z 19008KT 10SM SCT250 22/16 A3008 RMK AO2 SLP183 60000 T02170156 10250 20217 402780200 56002","lat":35.0564,"lon":-89.9864,"elev":78,"name":"Memphis Intl, TN, US","cover":"SCT","clouds":[{"cover":"SCT","base":25000}],"fltCat":"VFR"},{"icaoId":"KSYR","receiptTime":"2026-04-14T05:58:49.314Z","obsTime":1776146040,"reportTime":"2026-04-14T06:00:00.000Z","temp":11.7,"dewp":11.7,"wdir":0,"wspd":0,"visib":3,"altim":1015,"slp":1014.7,"qcField":4,"wxString":"BR","presTend":-0.2,"maxT":18.3,"minT":11.7,"metarType":"METAR","rawOb":"METAR KSYR 140554Z 00000KT 3SM R28/4500VP6000FT BR SCT037 BKN240 12/12 A2997 RMK AO2 SLP147 T01170117 10183 20117 58002","lat":43.1111,"lon":-76.1038,"elev":125,"name":"Syracuse/Hancock Intl, NY, US","cover":"BKN","clouds":[{"cover":"SCT","base":3700},{"cover":"BKN","base":24000}],"fltCat":"MVFR"},{"icaoId":"KMCO","receiptTime":"2026-04-14T05:58:55.526Z","obsTime":1776145980,"reportTime":"2026-04-14T06:00:00.000Z","temp":18.9,"dewp":16.1,"wdir":0,"wspd":0,"visib":"10+","altim":1024.1,"slp":1023.8,"qcField":5,"presTend":-0.9,"maxT":22.8,"minT":18.9,"metarType":"METAR","rawOb":"METAR KMCO 140553Z COR 00000KT 10SM BKN033 19/16 A3024 RMK AO2 SLP238 T01890161 10228 20189 56009","lat":28.4182,"lon":-81.3241,"elev":27,"name":"Orlando Intl, FL, US","cover":"BKN","clouds":[{"cover":"BKN","base":3300}],"fltCat":"VFR"},{"icaoId":"KSWO","receiptTime":"2026-04-14T05:56:21.976Z","obsTime":1776145980,"reportTime":"2026-04-14T06:00:00.000Z","temp":23.3,"dewp":19.4,"wdir":190,"wspd":17,"wgst":25,"visib":"10+","altim":1010.6,"slp":1009.1,"qcField":6,"presTend":0.2,"maxT":28.9,"minT":23.3,"maxT24":31.1,"minT24":20.6,"metarType":"METAR","rawOb":"METAR KSWO 140553Z AUTO 19017G25KT 10SM CLR 23/19 A2984 RMK AO2 PK WND 19026/0525 SLP091 T02330194 10289 20233 403110206 50002","lat":36.1624,"lon":-97.0832,"elev":293,"name":"Stillwater Muni, OK, US","cover":"CLR","clouds":[],"fltCat":"VFR"},{"icaoId":"KRTN","receiptTime":"2026-04-14T05:56:31.511Z","obsTime":1776145980,"reportTime":"2026-04-14T06:00:00.000Z","temp":5,"dewp":-0.6,"wdir":"VRB","wspd":3,"visib":"10+","altim":1015.3,"slp":1009.5,"qcField":6,"presTend":0.2,"maxT":20,"minT":5,"metarType":"METAR","rawOb":"METAR KRTN 140553Z AUTO VRB03KT 10SM CLR 05/M01 A2998 RMK AO2 SLP095 T00501006 10200 20050 51002","lat":36.7418,"lon":-104.5076,"elev":1939,"name":"Raton/Crews Fld, NM, US","cover":"CLR","clouds":[],"fltCat":"VFR"},{"icaoId":"KSAF","receiptTime":"2026-04-14T05:56:31.656Z","obsTime":1776145980,"reportTime":"2026-04-14T06:00:00.000Z","temp":9.4,"dewp":2.8,"wdir":0,"wspd":0,"visib":"","altim":1017.4,"slp":1010.4,"qcField":14,"presTend":-0.1,"maxT":16.1,"minT":9.4,"pcp6hr":0.005,"metarType":"METAR","rawOb":"METAR KSAF 140553Z AUTO 00000KT BKN110 09/03 A3004 RMK AO2 SLP104 60000 T00940028 10161 20094 58001 $","lat":35.611,"lon":-106.0957,"elev":1918,"name":"Santa Fe Cnty Muni, NM, US","cover":"BKN","clouds":[{"cover":"BKN","base":11000}]},{"icaoId":"KMSO","receiptTime":"2026-04-14T05:56:23.208Z","obsTime":1776145980,"reportTime":"2026-04-14T06:00:00.000Z","temp":7.8,"dewp":1.1,"wdir":330,"wspd":3,"visib":"10+","altim":1013.6,"slp":1014.1,"qcField":14,"presTend":0.9,"maxT":10.6,"minT":7.8,"pcp6hr":0.005,"metarType":"METAR","rawOb":"METAR KMSO 140553Z AUTO 33003KT 10SM OVC040 08/01 A2993 RMK AO2 SLP141 60000 T00780011 10106 20078 50009 $","lat":46.9208,"lon":-114.0938,"elev":974,"name":"Missoula Intl, MT, US","cover":"OVC","clouds":[{"cover":"OVC","base":4000}],"fltCat":"VFR"},{"icaoId":"KLAR","receiptTime":"2026-04-14T05:56:23.950Z","obsTime":1776145980,"reportTime":"2026-04-14T06:00:00.000Z","temp":2.2,"dewp":-8.9,"wdir":340,"wspd":7,"visib":"10+","altim":1013,"slp":1007.6,"qcField":6,"presTend":-0.2,"maxT":12.2,"minT":0.6,"metarType":"METAR","rawOb":"METAR KLAR 140553Z AUTO 34007KT 10SM CLR 02/M09 A2991 RMK AO2 SLP076 T00221089 10122 20006 58002","lat":41.3165,"lon":-105.6729,"elev":2217,"name":"Laramie Rgnl, WY, US","cover":"CLR","clouds":[],"fltCat":"VFR"},{"icaoId":"KHLN","receiptTime":"2026-04-14T05:56:18.219Z","obsTime":1776145980,"reportTime":"2026-04-14T06:00:00.000Z","temp":7.8,"dewp":0,"wdir":270,"wspd":9,"wgst":21,"visib":"10+","altim":1010.9,"slp":1012.3,"qcField":6,"presTend":1.4,"maxT":13.3,"minT":7.8,"metarType":"METAR","rawOb":"METAR KHLN 140553Z AUTO 27009G21KT 10SM FEW120 08/00 A2985 RMK AO2 PK WND 26029/0523 SLP123 T00780000 10133 20078 51014","lat":46.6045,"lon":-111.9892,"elev":1178,"name":"Helena Rgnl, MT, US","cover":"FEW","clouds":[{"cover":"FEW","base":12000}],"fltCat":"VFR"},{"icaoId":"KEVW","receiptTime":"2026-04-14T05:56:27.590Z","obsTime":1776145980,"reportTime":"2026-04-14T06:00:00.000Z","temp":1.1,"dewp":-7.8,"wdir":0,"wspd":0,"visib":"10+","altim":1014.6,"slp":1012.7,"qcField":6,"maxT":7.2,"minT":0,"metarType":"METAR","rawOb":"METAR KEVW 140553Z AUTO 00000KT 10SM CLR 01/M08 A2996 RMK AO2 SLP127 T00111078 10072 20000 58000","lat":41.2727,"lon":-111.0305,"elev":2178,"name":"Evanston/Uinta Cnty, WY, US","cover":"CLR","clouds":[],"fltCat":"VFR"},{"icaoId":"KGTF","receiptTime":"2026-04-14T05:56:30.394Z","obsTime":1776145980,"reportTime":"2026-04-14T06:00:00.000Z","temp":5,"dewp":1.1,"wdir":220,"wspd":10,"visib":"10+","altim":1008.2,"slp":1008.7,"qcField":4,"presTend":0.7,"maxT":13.9,"minT":4.4,"metarType":"METAR","rawOb":"METAR KGTF 140553Z 22010KT 10SM CLR 05/01 A2977 RMK AO2 SLP087 T00500011 10139 20044 51007","lat":47.4733,"lon":-111.3828,"elev":1117,"name":"Great Falls Intl, MT, US","cover":"CLR","clouds":[],"fltCat":"VFR"},{"icaoId":"KCNY","receiptTime":"2026-04-14T05:56:26.687Z","obsTime":1776145980,"reportTime":"2026-04-14T06:00:00.000Z","temp":8.3,"dewp":5,"wdir":40,"wspd":4,"visib":"10+","altim":1010.6,"slp":1008.1,"qcField":14,"presTend":1.5,"maxT":18.9,"minT":8.3,"precip":0.005,"pcp6hr":0.005,"metarType":"METAR","rawOb":"METAR KCNY 140553Z AUTO 04004KT 10SM BKN085 BKN110 08/05 A2984 RMK AO2 RAE33 SLP081 P0000 60000 T00830050 10189 20083 50015 $","lat":38.7501,"lon":-109.7627,"elev":1392,"name":"Moab/Canyonland Fld, UT, US","cover":"BKN","clouds":[{"cover":"BKN","base":8500},{"cover":"BKN","base":11000}],"fltCat":"VFR"},{"icaoId":"KBTM","receiptTime":"2026-04-14T05:56:29.221Z","obsTime":1776145980,"reportTime":"2026-04-14T06:00:00.000Z","temp":5,"dewp":-1.1,"wdir":310,"wspd":12,"visib":"10+","altim":1012.6,"slp":1012,"qcField":6,"presTend":1.1,"maxT":9.4,"minT":5,"metarType":"METAR","rawOb":"METAR KBTM 140553Z AUTO 31012KT 10SM FEW048 OVC065 05/M01 A2990 RMK AO2 SLP120 T00501011 10094 20050 50011","lat":45.9644,"lon":-112.5015,"elev":1680,"name":"Butte/Mooney Arpt, MT, US","cover":"OVC","clouds":[{"cover":"FEW","base":4800},{"cover":"OVC","base":6500}],"fltCat":"VFR"},{"icaoId":"KCDC","receiptTime":"2026-04-14T05:56:15.561Z","obsTime":1776145980,"reportTime":"2026-04-14T06:00:00.000Z","temp":0.6,"dewp":0,"wdir":0,"wspd":0,"visib":"10+","altim":1014,"slp":1012.9,"qcField":6,"presTend":-0.3,"maxT":6.7,"minT":0,"precip":0.005,"pcp6hr":0.53,"metarType":"METAR","rawOb":"METAR KCDC 140553Z AUTO 00000KT 10SM FEW003 BKN021 OVC033 01/00 A2994 RMK AO2 SNE0459 SLP129 P0000 60053 T00060000 10067 20000 58003","lat":37.7067,"lon":-113.097,"elev":1703,"name":"Cedar City Muni, UT, US","cover":"OVC","clouds":[{"cover":"FEW","base":300},{"cover":"BKN","base":2100},{"cover":"OVC","base":3300}],"fltCat":"MVFR"},{"icaoId":"KPIH","receiptTime":"2026-04-14T05:56:31.350Z","obsTime":1776145980,"reportTime":"2026-04-14T06:00:00.000Z","temp":3.3,"dewp":1.1,"wdir":210,"wspd":9,"visib":"10+","altim":1015.3,"slp":1014.8,"qcField":6,"presTend":0.9,"maxT":8.3,"minT":2.8,"pcp6hr":0.005,"metarType":"METAR","rawOb":"METAR KPIH 140553Z AUTO 21009KT 10SM CLR 03/01 A2998 RMK AO2 SLP148 60000 T00330011 10083 20028 51009","lat":42.9197,"lon":-112.5723,"elev":1357,"name":"Pocatello Rgnl, ID, US","cover":"CLR","clouds":[],"fltCat":"VFR"},{"icaoId":"KMCI","receiptTime":"2026-04-14T05:56:29.548Z","obsTime":1776145980,"reportTime":"2026-04-14T06:00:00.000Z","temp":21.7,"dewp":18.3,"wdir":190,"wspd":20,"wgst":28,"visib":"10+","altim":1007.9,"slp":1006.8,"qcField":4,"maxT":25.6,"minT":19.4,"maxT24":27.8,"minT24":19.4,"pcp6hr":0.005,"metarType":"METAR","rawOb":"METAR KMCI 140553Z 19020G28KT 10SM SCT040 22/18 A2976 RMK AO2 PK WND 17029/0514 SLP068 60000 T02170183 10256 20194 402780194 58000","lat":39.2975,"lon":-94.7309,"elev":308,"name":"Kansas City Intl, MO, US","cover":"SCT","clouds":[{"cover":"SCT","base":4000}],"fltCat":"VFR"},{"icaoId":"KAPA","receiptTime":"2026-04-14T05:56:32.078Z","obsTime":1776145980,"reportTime":"2026-04-14T06:00:00.000Z","temp":12.2,"dewp":-9.4,"wdir":90,"wspd":6,"visib":"10+","altim":1011.9,"slp":1007,"qcField":4,"presTend":1.4,"maxT":20,"minT":12.2,"metarType":"METAR","rawOb":"METAR KAPA 140553Z 09006KT 10SM BKN120 12/M09 A2988 RMK AO2 SLP070 T01221094 10200 20122 51014","lat":39.5599,"lon":-104.8484,"elev":1791,"name":"Denver/Centennial Arpt, CO, US","cover":"BKN","clouds":[{"cover":"BKN","base":12000}],"fltCat":"VFR"},{"icaoId":"KPGA","receiptTime":"2026-04-14T05:56:23.355Z","obsTime":1776145980,"reportTime":"2026-04-14T06:00:00.000Z","temp":8.3,"dewp":4.4,"wdir":320,"wspd":5,"visib":"10+","altim":1014,"slp":1010.5,"qcField":6,"wxString":"-RA","presTend":2.8,"maxT":18.9,"minT":8.3,"precip":0.02,"pcp6hr":0.04,"metarType":"METAR","rawOb":"METAR KPGA 140553Z AUTO 32005KT 10SM -RA OVC040 08/04 A2994 RMK AO2 RAB0457 SLP105 P0002 60004 T00830044 10189 20083 51028","lat":36.9211,"lon":-111.4487,"elev":1310,"name":"Page Muni, AZ, US","cover":"OVC","clouds":[{"cover":"OVC","base":4000}],"fltCat":"VFR"},{"icaoId":"KSJC","receiptTime":"2026-04-14T05:56:21.774Z","obsTime":1776145980,"reportTime":"2026-04-14T06:00:00.000Z","temp":12.2,"dewp":8.3,"wdir":350,"wspd":5,"visib":9,"altim":1021.1,"slp":1020.7,"qcField":12,"presTend":1.4,"maxT":17.8,"minT":12.2,"metarType":"METAR","rawOb":"METAR KSJC 140553Z 35005KT 9SM CLR 12/08 A3015 RMK AO2 SLP207 T01220083 10178 20122 51014 $","lat":37.3594,"lon":-121.9244,"elev":13,"name":"San Jose Intl Arpt, CA, US","cover":"CLR","clouds":[],"fltCat":"VFR"},{"icaoId":"KVGT","receiptTime":"2026-04-14T05:56:28.398Z","obsTime":1776145980,"reportTime":"2026-04-14T06:00:00.000Z","temp":15,"dewp":0,"wdir":50,"wspd":8,"visib":"10+","altim":1013.3,"slp":1013.9,"qcField":4,"presTend":2.1,"maxT":18.3,"minT":14.4,"pcp6hr":0.005,"metarType":"METAR","rawOb":"METAR KVGT 140553Z 05008KT 10SM BKN110 15/00 A2992 RMK AO2 SLP139 60000 T01500000 10183 20144 51021","lat":36.212,"lon":-115.194,"elev":664,"name":"Las Vegas/North Arpt, NV, US","cover":"BKN","clouds":[{"cover":"BKN","base":11000}],"fltCat":"VFR"},{"icaoId":"KDEN","receiptTime":"2026-04-14T05:56:15.041Z","obsTime":1776145980,"reportTime":"2026-04-14T06:00:00.000Z","temp":10,"dewp":-8.3,"wdir":60,"wspd":9,"visib":"10+","altim":1010.6,"slp":1005,"qcField":4,"presTend":1.1,"maxT":21.1,"minT":10,"metarType":"METAR","rawOb":"METAR KDEN 140553Z 06009KT 10SM SCT130 BKN250 10/M08 A2984 RMK AO2 SLP050 T01001083 10211 20100 51011","lat":39.8466,"lon":-104.6562,"elev":1656,"name":"Denver Intl, CO, US","cover":"BKN","clouds":[{"cover":"SCT","base":13000},{"cover":"BKN","base":25000}],"fltCat":"VFR"},{"icaoId":"KDRO","receiptTime":"2026-04-14T05:56:27.286Z","obsTime":1776145980,"reportTime":"2026-04-14T06:00:00.000Z","temp":5.6,"dewp":3.9,"wdir":140,"wspd":3,"visib":"10+","altim":1015.7,"slp":1011.9,"qcField":6,"wxString":"-RA","presTend":-0.7,"maxT":12.2,"minT":5,"precip":0.01,"pcp6hr":0.04,"metarType":"METAR","rawOb":"METAR KDRO 140553Z AUTO 14003KT 10SM -RA OVC070 06/04 A2999 RMK AO2 LTG DSNT NW RAB33 SLP119 P0001 60004 T00560039 10122 20050 58007","lat":37.1431,"lon":-107.7602,"elev":2021,"name":"Durango/La Plata Cnty, CO, US","cover":"OVC","clouds":[{"cover":"OVC","base":7000}],"fltCat":"VFR"},{"icaoId":"KFUL","receiptTime":"2026-04-14T05:56:11.814Z","obsTime":1776145980,"reportTime":"2026-04-14T06:00:00.000Z","temp":15,"dewp":8.9,"wdir":210,"wspd":6,"visib":"10+","altim":1018,"slp":1017.8,"qcField":6,"presTend":1.3,"maxT":19.4,"minT":15,"metarType":"METAR","rawOb":"METAR KFUL 140553Z AUTO 21006KT 10SM CLR 15/09 A3006 RMK AO2 SLP178 T01500089 10194 20150 51013","lat":33.8715,"lon":-117.9856,"elev":23,"name":"Fullerton Muni, CA, US","cover":"CLR","clouds":[],"fltCat":"VFR"},{"icaoId":"KAMA","receiptTime":"2026-04-14T05:56:31.984Z","obsTime":1776145980,"reportTime":"2026-04-14T06:00:00.000Z","temp":16.1,"dewp":1.7,"wdir":220,"wspd":12,"visib":"10+","altim":1013.3,"slp":1008.2,"qcField":6,"presTend":0.6,"maxT":27.8,"minT":15,"maxT24":30,"minT24":12.2,"metarType":"METAR","rawOb":"METAR KAMA 140553Z AUTO 22012KT 10SM CLR 16/02 A2992 RMK AO2 SLP082 T01610017 10278 20150 403000122 51006","lat":35.2203,"lon":-101.7173,"elev":1102,"name":"Amarillo Intl Arpt, TX, US","cover":"CLR","clouds":[],"fltCat":"VFR"},{"icaoId":"KCNM","receiptTime":"2026-04-14T05:56:14.761Z","obsTime":1776145980,"reportTime":"2026-04-14T06:00:00.000Z","temp":18.9,"dewp":1.1,"wdir":260,"wspd":11,"visib":"10+","altim":1016,"slp":1010.3,"qcField":6,"presTend":0.5,"maxT":28.9,"minT":17.2,"metarType":"METAR","rawOb":"METAR KCNM 140553Z AUTO 26011KT 10SM CLR 19/01 A3000 RMK AO2 SLP103 T01890011 10289 20172 51005","lat":32.3336,"lon":-104.2584,"elev":993,"name":"Carlsbad/Cavern City Air Term, NM, US","cover":"CLR","clouds":[],"fltCat":"VFR"},{"icaoId":"KCPR","receiptTime":"2026-04-14T05:56:14.812Z","obsTime":1776145980,"reportTime":"2026-04-14T06:00:00.000Z","temp":3.3,"dewp":-11.1,"wdir":240,"wspd":8,"visib":"10+","altim":1010.9,"slp":1008.5,"qcField":6,"presTend":0.1,"maxT":15,"minT":2.2,"metarType":"METAR","rawOb":"METAR KCPR 140553Z AUTO 24008KT 10SM CLR 03/M11 A2985 RMK AO2 SLP085 T00331111 10150 20022 50001","lat":42.8978,"lon":-106.4736,"elev":1623,"name":"Casper/Natrona Cnty, WY, US","cover":"CLR","clouds":[],"fltCat":"VFR"},{"icaoId":"KCRQ","receiptTime":"2026-04-14T05:56:26.707Z","obsTime":1776145980,"reportTime":"2026-04-14T06:00:00.000Z","temp":14.4,"dewp":11.1,"wdir":0,"wspd":0,"visib":"10+","altim":1018.7,"slp":1018.4,"qcField":6,"presTend":1.3,"maxT":17.2,"minT":14.4,"precip":0.02,"pcp6hr":0.02,"metarType":"METAR","rawOb":"METAR KCRQ 140553Z AUTO 00000KT 10SM FEW029 SCT034 BKN060 14/11 A3008 RMK AO2 RAB06E28 SLP184 P0002 60002 T01440111 10172 20144 50013","lat":33.1299,"lon":-117.2765,"elev":96,"name":"Carlsbad/Palomar Arpt, CA, US","cover":"BKN","clouds":[{"cover":"FEW","base":2900},{"cover":"SCT","base":3400},{"cover":"BKN","base":6000}],"fltCat":"VFR"},{"icaoId":"KCYS","receiptTime":"2026-04-14T05:56:14.970Z","obsTime":1776145980,"reportTime":"2026-04-14T06:00:00.000Z","temp":9.4,"dewp":-8.9,"wdir":360,"wspd":7,"visib":"10+","altim":1011.9,"slp":1006.1,"qcField":6,"presTend":0.3,"maxT":17.2,"minT":8.9,"metarType":"METAR","rawOb":"METAR KCYS 140553Z AUTO 36007KT 10SM BKN100 09/M09 A2988 RMK AO2 SLP061 T00941089 10172 20089 50003","lat":41.1579,"lon":-104.8081,"elev":1868,"name":"Cheyenne Rgnl, WY, US","cover":"BKN","clouds":[{"cover":"BKN","base":10000}],"fltCat":"VFR"},{"icaoId":"KCLL","receiptTime":"2026-04-14T05:56:26.671Z","obsTime":1776145980,"reportTime":"2026-04-14T06:00:00.000Z","temp":21.7,"dewp":20,"wdir":160,"wspd":15,"visib":"10+","altim":1018,"slp":1017.5,"qcField":6,"presTend":0.4,"maxT":27.2,"minT":21.7,"maxT24":30,"minT24":21.1,"metarType":"METAR","rawOb":"METAR KCLL 140553Z AUTO 16015KT 10SM SCT012 22/20 A3006 RMK AO2 SLP175 T02170200 10272 20217 403000211 50004","lat":30.5912,"lon":-96.3631,"elev":96,"name":"College Station/Easterwood Arpt, TX, US","cover":"SCT","clouds":[{"cover":"SCT","base":1200}],"fltCat":"VFR"},{"icaoId":"KDAL","receiptTime":"2026-04-14T05:56:26.754Z","obsTime":1776145980,"reportTime":"2026-04-14T06:00:00.000Z","temp":23.3,"dewp":20.6,"wdir":170,"wspd":11,"wgst":20,"visib":"10+","altim":1015.7,"slp":1014.7,"qcField":4,"presTend":0.1,"maxT":27.8,"minT":23.3,"maxT24":29.4,"minT24":19.4,"metarType":"METAR","rawOb":"METAR KDAL 140553Z 17011G20KT 10SM FEW019 BKN250 23/21 A2999 RMK AO2 SLP147 T02330206 10278 20233 402940194 51001","lat":32.8384,"lon":-96.8358,"elev":148,"name":"Dallas/Love Fld, TX, US","cover":"BKN","clouds":[{"cover":"FEW","base":1900},{"cover":"BKN","base":25000}],"fltCat":"VFR"},{"icaoId":"KDMN","receiptTime":"2026-04-14T05:56:26.769Z","obsTime":1776145980,"reportTime":"2026-04-14T06:00:00.000Z","temp":14.4,"dewp":1.7,"wdir":230,"wspd":4,"visib":"10+","altim":1017.4,"slp":1011.2,"qcField":6,"presTend":-0.4,"maxT":21.1,"minT":14.4,"metarType":"METAR","rawOb":"METAR KDMN 140553Z AUTO 23004KT 10SM SCT110 14/02 A3004 RMK AO2 SLP112 T01440017 10211 20144 58004","lat":32.2592,"lon":-107.7206,"elev":1310,"name":"Deming Muni, NM, US","cover":"SCT","clouds":[{"cover":"SCT","base":11000}],"fltCat":"VFR"},{"icaoId":"KELY","receiptTime":"2026-04-14T05:56:26.804Z","obsTime":1776145980,"reportTime":"2026-04-14T06:00:00.000Z","temp":0,"dewp":-1.7,"wdir":220,"wspd":3,"visib":"10+","altim":1015,"slp":1015,"qcField":14,"presTend":0.7,"maxT":8.9,"minT":0,"metarType":"METAR","rawOb":"METAR KELY 140553Z AUTO 22003KT 10SM FEW080 00/M02 A2997 RMK AO2 SLP150 T00001017 10089 20000 51007 $","lat":39.2954,"lon":-114.8466,"elev":1906,"name":"Ely/Yelland Fld, NV, US","cover":"FEW","clouds":[{"cover":"FEW","base":8000}],"fltCat":"VFR"},{"icaoId":"KFAT","receiptTime":"2026-04-14T05:56:26.853Z","obsTime":1776145980,"reportTime":"2026-04-14T06:00:00.000Z","temp":13.9,"dewp":7.2,"wdir":310,"wspd":5,"visib":"10+","altim":1019.4,"slp":1019,"qcField":4,"presTend":1.5,"maxT":20,"minT":13.9,"metarType":"METAR","rawOb":"METAR KFAT 140553Z 31005KT 10SM CLR 14/07 A3010 RMK AO2 SLP190 T01390072 10200 20139 51015","lat":36.78,"lon":-119.7202,"elev":102,"name":"Fresno/Yosemite Intl, CA, US","cover":"CLR","clouds":[],"fltCat":"VFR"},{"icaoId":"KGEG","receiptTime":"2026-04-14T05:56:26.874Z","obsTime":1776145980,"reportTime":"2026-04-14T06:00:00.000Z","temp":6.7,"dewp":1.1,"wdir":180,"wspd":12,"wgst":22,"visib":"10+","altim":1012.6,"slp":1013.1,"qcField":12,"presTend":1.3,"maxT":14.4,"minT":6.7,"metarType":"METAR","rawOb":"METAR KGEG 140553Z 18012G22KT 10SM FEW080 SCT200 07/01 A2990 RMK AO2 PK WND 20026/0508 SLP131 T00670011 10144 20067 51013 $","lat":47.6217,"lon":-117.528,"elev":718,"name":"Spokane Intl, WA, US","cover":"SCT","clouds":[{"cover":"FEW","base":8000},{"cover":"SCT","base":20000}],"fltCat":"VFR"},{"icaoId":"KFMN","receiptTime":"2026-04-14T05:56:26.903Z","obsTime":1776145980,"reportTime":"2026-04-14T06:00:00.000Z","temp":10,"dewp":2.2,"wdir":70,"wspd":3,"visib":7,"altim":1014,"slp":1010.5,"qcField":6,"wxString":"RA","presTend":-0.1,"maxT":17.2,"minT":10,"precip":0.005,"pcp6hr":0.005,"metarType":"METAR","rawOb":"METAR KFMN 140553Z AUTO 07003KT 7SM RA FEW038 OVC070 10/02 A2994 RMK AO2 RAB49 SLP105 P0000 60000 T01000022 10172 20100 58001","lat":36.7435,"lon":-108.2293,"elev":1677,"name":"Farmington/Four Corners Rgnl, NM, US","cover":"OVC","clouds":[{"cover":"FEW","base":3800},{"cover":"OVC","base":7000}],"fltCat":"VFR"},{"icaoId":"KDFW","receiptTime":"2026-04-14T05:56:27.134Z","obsTime":1776145980,"reportTime":"2026-04-14T06:00:00.000Z","temp":23.9,"dewp":20,"wdir":180,"wspd":16,"wgst":23,"visib":"10+","altim":1015,"slp":1013.9,"qcField":4,"maxT":27.2,"minT":23.9,"maxT24":29.4,"minT24":20,"metarType":"METAR","rawOb":"METAR KDFW 140553Z 18016G23KT 10SM FEW018 BKN250 24/20 A2997 RMK AO2 SLP139 T02390200 10272 20239 402940200 54000","lat":32.8974,"lon":-97.022,"elev":168,"name":"Dallas-Ft Worth Intl, TX, US","cover":"BKN","clouds":[{"cover":"FEW","base":1800},{"cover":"BKN","base":25000}],"fltCat":"VFR"},{"icaoId":"KDLN","receiptTime":"2026-04-14T05:56:27.215Z","obsTime":1776145980,"reportTime":"2026-04-14T06:00:00.000Z","temp":3.9,"dewp":-1.7,"wdir":200,"wspd":11,"visib":"10+","altim":1012.3,"slp":1011,"qcField":6,"presTend":1.2,"maxT":9.4,"minT":3.3,"metarType":"METAR","rawOb":"METAR KDLN 140553Z AUTO 20011KT 10SM OVC090 04/M02 A2989 RMK AO2 SLP110 T00391017 10094 20033 51012","lat":45.2584,"lon":-112.5546,"elev":1586,"name":"Dillon Arpt, MT, US","cover":"OVC","clouds":[{"cover":"OVC","base":9000}],"fltCat":"VFR"},{"icaoId":"KDTW","receiptTime":"2026-04-14T05:56:27.338Z","obsTime":1776145980,"reportTime":"2026-04-14T06:00:00.000Z","temp":16.7,"dewp":13.3,"wdir":160,"wspd":9,"visib":9,"altim":1011.6,"slp":1011,"qcField":12,"presTend":-2.7,"maxT":25,"minT":16.1,"precip":0.005,"pcp6hr":0.02,"metarType":"METAR","rawOb":"METAR KDTW 140553Z 16009KT 9SM FEW042 BKN065 OVC120 17/13 A2987 RMK AO2 RAE51 PRESFR SLP110 OCNL LTGICCC DSNT W CB DSNT W MOV E P0000 60002 T01670133 10250 20161 58027 $","lat":42.2311,"lon":-83.3312,"elev":192,"name":"Detroit/Metro Wayne Cnty, MI, US","cover":"OVC","clouds":[{"cover":"FEW","base":4200},{"cover":"BKN","base":6500},{"cover":"OVC","base":12000}],"fltCat":"VFR"},{"icaoId":"KDVT","receiptTime":"2026-04-14T05:56:27.373Z","obsTime":1776145980,"reportTime":"2026-04-14T06:00:00.000Z","temp":18.9,"dewp":2.2,"wdir":290,"wspd":12,"wgst":21,"visib":"10+","altim":1014,"slp":1012.2,"qcField":14,"presTend":2.2,"maxT":24.4,"minT":18.9,"precip":0.005,"pcp6hr":0.005,"metarType":"METAR","rawOb":"METAR KDVT 140553Z AUTO 29012G21KT 10SM 19/02 A2994 RMK AO2 RAB01E14 SLP122 P0000 60000 T01890022 10244 20189 51022 $","lat":33.6902,"lon":-112.0662,"elev":454,"name":"Phoenix/Deer Valley Arpt, AZ, US"},{"icaoId":"KTPA","receiptTime":"2026-04-14T05:56:28.089Z","obsTime":1776145980,"reportTime":"2026-04-14T06:00:00.000Z","temp":21.7,"dewp":15.6,"wdir":"VRB","wspd":5,"visib":"10+","altim":1023.5,"slp":1023.3,"qcField":4,"presTend":-0.1,"maxT":27.2,"minT":21.7,"metarType":"METAR","rawOb":"METAR KTPA 140553Z VRB05KT 10SM SCT250 22/16 A3022 RMK AO2 SLP233 T02170156 10272 20217 58001","lat":27.9633,"lon":-82.54,"elev":2,"name":"Tampa Intl Arpt, FL, US","cover":"SCT","clouds":[{"cover":"SCT","base":25000}],"fltCat":"VFR"},{"icaoId":"KTUL","receiptTime":"2026-04-14T05:56:28.160Z","obsTime":1776145980,"reportTime":"2026-04-14T06:00:00.000Z","temp":23.9,"dewp":19.4,"wdir":190,"wspd":14,"wgst":28,"visib":"10+","altim":1012.3,"slp":1011.2,"qcField":4,"presTend":0.6,"maxT":27.2,"minT":23.9,"maxT24":29.4,"minT24":21.7,"metarType":"METAR","rawOb":"METAR KTUL 140553Z 19014G28KT 10SM BKN023 BKN250 24/19 A2989 RMK AO2 PK WND 18028/0548 SLP112 T02390194 10272 20239 402940217 53006","lat":36.1985,"lon":-95.8782,"elev":196,"name":"Tulsa Intl Arpt, OK, US","cover":"BKN","clouds":[{"cover":"BKN","base":2300},{"cover":"BKN","base":25000}],"fltCat":"MVFR"},{"icaoId":"KTWF","receiptTime":"2026-04-14T05:56:28.246Z","obsTime":1776145980,"reportTime":"2026-04-14T06:00:00.000Z","temp":2.8,"dewp":1.1,"wdir":200,"wspd":11,"visib":"10+","altim":1015.7,"slp":1013.9,"qcField":6,"presTend":0.2,"maxT":10,"minT":2.8,"metarType":"METAR","rawOb":"METAR KTWF 140553Z AUTO 20011KT 10SM FEW110 03/01 A2999 RMK AO2 SLP139 T00280011 10100 20028 50002","lat":42.4785,"lon":-114.4775,"elev":1269,"name":"Twin Falls/Joslin Fld, ID, US","cover":"FEW","clouds":[{"cover":"FEW","base":11000}],"fltCat":"VFR"},{"icaoId":"KVEL","receiptTime":"2026-04-14T05:56:28.384Z","obsTime":1776145980,"reportTime":"2026-04-14T06:00:00.000Z","temp":6.1,"dewp":-1.7,"wdir":0,"wspd":0,"visib":"10+","altim":1012.6,"slp":1009.8,"qcField":6,"presTend":-0.4,"maxT":12.8,"minT":5.6,"metarType":"METAR","rawOb":"METAR KVEL 140553Z AUTO 00000KT 10SM CLR 06/M02 A2990 RMK AO2 SLP098 T00611017 10128 20056 58004","lat":40.4429,"lon":-109.5128,"elev":1604,"name":"Vernal Rgnl, UT, US","cover":"CLR","clouds":[],"fltCat":"VFR"},{"icaoId":"KBCE","receiptTime":"2026-04-14T05:56:28.715Z","obsTime":1776145980,"reportTime":"2026-04-14T06:00:00.000Z","temp":0.6,"dewp":-1.1,"wdir":290,"wspd":5,"visib":"10+","altim":1013.6,"slp":1008.3,"qcField":6,"presTend":-0.3,"maxT":6.7,"minT":0.6,"precip":0.005,"pcp6hr":0.02,"metarType":"METAR","rawOb":"METAR KBCE 140553Z AUTO 29005KT 10SM BKN055 OVC070 01/M01 A2993 RMK AO2 SNB0458E41 SLP083 P0000 60002 T00061011 10067 20006 58003","lat":37.7013,"lon":-112.149,"elev":2311,"name":"Bryce Canyon Arpt, UT, US","cover":"OVC","clouds":[{"cover":"BKN","base":5500},{"cover":"OVC","base":7000}],"fltCat":"VFR"},{"icaoId":"KBFI","receiptTime":"2026-04-14T05:56:28.793Z","obsTime":1776145980,"reportTime":"2026-04-14T06:00:00.000Z","temp":8.9,"dewp":3.9,"wdir":190,"wspd":9,"visib":"10+","altim":1019.7,"slp":1019.4,"qcField":4,"presTend":0.9,"maxT":13.3,"minT":8.9,"metarType":"METAR","rawOb":"METAR KBFI 140553Z 19009KT 10SM FEW060 09/04 A3011 RMK AO2 SLP194 T00890039 10133 20089 50009","lat":47.5455,"lon":-122.3148,"elev":7,"name":"Seattle/Boeing Fld, WA, US","cover":"FEW","clouds":[{"cover":"FEW","base":6000}],"fltCat":"VFR"},{"icaoId":"KBHM","receiptTime":"2026-04-14T05:56:28.867Z","obsTime":1776145980,"reportTime":"2026-04-14T06:00:00.000Z","temp":18.3,"dewp":13.3,"wdir":0,"wspd":0,"visib":"10+","altim":1022.8,"slp":1022.1,"qcField":4,"presTend":-0.8,"maxT":25.6,"minT":18.3,"maxT24":28.3,"minT24":15.6,"metarType":"METAR","rawOb":"METAR KBHM 140553Z 00000KT 10SM SCT250 18/13 A3020 RMK AO2 SLP221 T01830133 10256 20183 402830156 58008","lat":33.5655,"lon":-86.7449,"elev":191,"name":"Birmingham Intl, AL, US","cover":"SCT","clouds":[{"cover":"SCT","base":25000}],"fltCat":"VFR"},{"icaoId":"KBLI","receiptTime":"2026-04-14T05:56:28.968Z","obsTime":1776145980,"reportTime":"2026-04-14T06:00:00.000Z","temp":8.9,"dewp":3.9,"wdir":180,"wspd":10,"wgst":18,"visib":"10+","altim":1017.4,"slp":1017.9,"qcField":6,"presTend":0.7,"maxT":10.6,"minT":8.3,"pcp6hr":0.005,"metarType":"METAR","rawOb":"METAR KBLI 140553Z AUTO 18010G18KT 10SM FEW065 09/04 A3004 RMK AO2 SLP179 60000 T00890039 10106 20083 50007","lat":48.7991,"lon":-122.5407,"elev":46,"name":"Bellingham Intl, WA, US","cover":"FEW","clouds":[{"cover":"FEW","base":6500}],"fltCat":"VFR"},{"icaoId":"KBNA","receiptTime":"2026-04-14T05:56:29.022Z","obsTime":1776145980,"reportTime":"2026-04-14T06:00:00.000Z","temp":21.7,"dewp":12.2,"wdir":210,"wspd":7,"visib":"10+","altim":1020.1,"slp":1019.3,"qcField":12,"presTend":-0.9,"maxT":23.3,"minT":18.9,"maxT24":26.1,"minT24":18.9,"metarType":"METAR","rawOb":"METAR KBNA 140553Z 21007KT 10SM CLR 22/12 A3012 RMK AO2 SLP193 T02170122 10233 20189 402610189 56009 $","lat":36.1105,"lon":-86.6881,"elev":168,"name":"Nashville Intl, TN, US","cover":"CLR","clouds":[],"fltCat":"VFR"},{"icaoId":"KBOI","receiptTime":"2026-04-14T05:56:29.041Z","obsTime":1776145980,"reportTime":"2026-04-14T06:00:00.000Z","temp":5.6,"dewp":3.3,"wdir":130,"wspd":5,"visib":"10+","altim":1016,"slp":1016.5,"qcField":4,"presTend":0.3,"maxT":10.6,"minT":5.6,"metarType":"METAR","rawOb":"METAR KBOI 140553Z 13005KT 10SM CLR 06/03 A3000 RMK AO2 SLP165 T00560033 10106 20056 50003","lat":43.567,"lon":-116.2406,"elev":860,"name":"Boise Arpt, ID, US","cover":"CLR","clouds":[],"fltCat":"VFR"},{"icaoId":"KBRO","receiptTime":"2026-04-14T05:56:29.165Z","obsTime":1776145980,"reportTime":"2026-04-14T06:00:00.000Z","temp":24.4,"dewp":22.2,"wdir":130,"wspd":9,"visib":"10+","altim":1016.7,"slp":1016.5,"qcField":6,"presTend":-0.3,"maxT":26.7,"minT":24.4,"maxT24":30,"minT24":24.4,"metarType":"METAR","rawOb":"METAR KBRO 140553Z AUTO 13009KT 10SM CLR 24/22 A3002 RMK AO2 SLP165 T02440222 10267 20244 403000244 58003","lat":25.9146,"lon":-97.4231,"elev":6,"name":"Brownsville Intl, TX, US","cover":"CLR","clouds":[],"fltCat":"VFR"},{"icaoId":"KBUR","receiptTime":"2026-04-14T05:56:29.242Z","obsTime":1776145980,"reportTime":"2026-04-14T06:00:00.000Z","temp":12.8,"dewp":7.8,"wdir":330,"wspd":3,"visib":"10+","altim":1018.4,"slp":1017.3,"qcField":4,"presTend":1.5,"maxT":16.7,"minT":12.8,"metarType":"METAR","rawOb":"METAR KBUR 140553Z 33003KT 10SM CLR 13/08 A3007 RMK AO2 SLP173 T01280078 10167 20128 51015","lat":34.1996,"lon":-118.3654,"elev":221,"name":"Burbank/Bob Hope Arpt, CA, US","cover":"CLR","clouds":[],"fltCat":"VFR"},{"icaoId":"KLVS","receiptTime":"2026-04-14T05:56:29.360Z","obsTime":1776145980,"reportTime":"2026-04-14T06:00:00.000Z","temp":9.4,"dewp":1.1,"wdir":180,"wspd":13,"visib":"10+","altim":1016.7,"slp":1008.6,"qcField":14,"presTend":-0.5,"maxT":16.1,"minT":8.9,"metarType":"METAR","rawOb":"METAR KLVS 140553Z AUTO 18013KT 10SM CLR 09/01 A3002 RMK AO2 SLP086 6//// T00940011 10161 20089 58005 PNO $","lat":35.6558,"lon":-105.1385,"elev":2095,"name":"Las Vegas Muni, NM, US","cover":"CLR","clouds":[],"fltCat":"VFR"},{"icaoId":"KMAF","receiptTime":"2026-04-14T05:56:29.443Z","obsTime":1776145980,"reportTime":"2026-04-14T06:00:00.000Z","temp":20.6,"dewp":16.1,"wdir":210,"wspd":5,"visib":"10+","altim":1016,"slp":1011.2,"qcField":6,"presTend":0.4,"maxT":27.8,"minT":20.6,"maxT24":31.7,"minT24":18.9,"metarType":"METAR","rawOb":"METAR KMAF 140553Z AUTO 21005KT 10SM CLR 21/16 A3000 RMK AO2 SLP112 T02060161 10278 20206 403170189 50004","lat":31.9475,"lon":-102.2086,"elev":874,"name":"Midland Intl, TX, US","cover":"CLR","clouds":[],"fltCat":"VFR"},{"icaoId":"KMDW","receiptTime":"2026-04-14T05:56:29.623Z","obsTime":1776145980,"reportTime":"2026-04-14T06:00:00.000Z","temp":21.7,"dewp":17.2,"wdir":210,"wspd":17,"wgst":23,"visib":"10+","altim":1008.2,"slp":1007.2,"qcField":4,"presTend":0.2,"maxT":23.9,"minT":21.7,"maxT24":26.1,"minT24":17.2,"metarType":"METAR","rawOb":"METAR KMDW 140553Z 21017G23KT 10SM FEW047 OVC250 22/17 A2977 RMK AO2 PK WND 21027/0512 SLP072 T02170172 10239 20217 402610172 50002","lat":41.7841,"lon":-87.7552,"elev":186,"name":"Chicago/Midway Intl, IL, US","cover":"OVC","clouds":[{"cover":"FEW","base":4700},{"cover":"OVC","base":25000}],"fltCat":"VFR"},{"icaoId":"KMFE","receiptTime":"2026-04-14T05:56:29.643Z","obsTime":1776145980,"reportTime":"2026-04-14T06:00:00.000Z","temp":23.3,"dewp":21.7,"wdir":130,"wspd":12,"visib":"10+","altim":1016.7,"slp":1016.3,"qcField":6,"presTend":0.1,"maxT":28.3,"minT":23.3,"maxT24":32.2,"minT24":22.2,"metarType":"METAR","rawOb":"METAR KMFE 140553Z AUTO 13012KT 10SM CLR 23/22 A3002 RMK AO2 SLP163 T02330217 10283 20233 403220222 50001","lat":26.1791,"lon":-98.2445,"elev":29,"name":"McAllen/Miller Intl, TX, US","cover":"CLR","clouds":[],"fltCat":"VFR"},{"icaoId":"KMFR","receiptTime":"2026-04-14T05:56:29.664Z","obsTime":1776145980,"reportTime":"2026-04-14T06:00:00.000Z","temp":8.9,"dewp":5,"wdir":30,"wspd":5,"visib":"10+","altim":1021.4,"slp":1021.2,"qcField":14,"presTend":0.4,"maxT":14.4,"minT":8.9,"pcp6hr":0.005,"metarType":"METAR","rawOb":"METAR KMFR 140553Z AUTO 03005KT 10SM BKN036 OVC043 09/05 A3016 RMK AO2 SLP212 60000 T00890050 10144 20089 51004 $","lat":42.375,"lon":-122.877,"elev":397,"name":"Medford/Rogue Valley Intl, OR, US","cover":"OVC","clouds":[{"cover":"BKN","base":3600},{"cover":"OVC","base":4300}],"fltCat":"VFR"},{"icaoId":"KPRC","receiptTime":"2026-04-14T05:56:29.747Z","obsTime":1776145980,"reportTime":"2026-04-14T06:00:00.000Z","temp":6.1,"dewp":3.3,"wdir":220,"wspd":6,"visib":"10+","altim":1016,"slp":1011.4,"qcField":6,"presTend":1.4,"maxT":11.7,"minT":6.1,"precip":0.005,"pcp6hr":0.32,"metarType":"METAR","rawOb":"METAR KPRC 140553Z AUTO 22006KT 10SM CLR 06/03 A3000 RMK AO2 RAE06 SLP114 P0000 60032 T00610033 10117 20061 51014","lat":34.6491,"lon":-112.4223,"elev":1528,"name":"Prescott/Love Fld, AZ, US","cover":"CLR","clouds":[],"fltCat":"VFR"},{"icaoId":"KPSC","receiptTime":"2026-04-14T05:56:29.768Z","obsTime":1776145980,"reportTime":"2026-04-14T06:00:00.000Z","temp":10,"dewp":2.2,"wdir":220,"wspd":10,"visib":"10+","altim":1015.7,"slp":1015.4,"qcField":6,"presTend":2.3,"maxT":18.9,"minT":9.4,"metarType":"METAR","rawOb":"METAR KPSC 140553Z AUTO 22010KT 10SM CLR 10/02 A2999 RMK AO2 SLP154 T01000022 10189 20094 51023","lat":46.2695,"lon":-119.1182,"elev":121,"name":"Pasco/Tri Cities Arpt, WA, US","cover":"CLR","clouds":[],"fltCat":"VFR"},{"icaoId":"KPUB","receiptTime":"2026-04-14T05:56:29.823Z","obsTime":1776145980,"reportTime":"2026-04-14T06:00:00.000Z","temp":13.3,"dewp":-2.2,"wdir":0,"wspd":0,"visib":"10+","altim":1009.9,"slp":1004.7,"qcField":14,"presTend":-0.2,"maxT":24.4,"minT":11.1,"metarType":"METAR","rawOb":"METAR KPUB 140553Z AUTO 00000KT 10SM CLR 13/M02 A2982 RMK AO2 SLP047 T01331022 10244 20111 58002 $","lat":38.2887,"lon":-104.5057,"elev":1441,"name":"Pueblo Mem Arpt, CO, US","cover":"CLR","clouds":[],"fltCat":"VFR"},{"icaoId":"KPUW","receiptTime":"2026-04-14T05:56:29.866Z","obsTime":1776145980,"reportTime":"2026-04-14T06:00:00.000Z","temp":6.7,"dewp":0,"wdir":230,"wspd":13,"visib":"10+","altim":1015,"slp":1016,"qcField":6,"presTend":0.8,"maxT":12.2,"minT":5.6,"metarType":"METAR","rawOb":"METAR KPUW 140553Z AUTO 23013KT 10SM CLR 07/00 A2997 RMK AO2 SLP160 T00670000 10122 20056 51008","lat":46.7438,"lon":-117.1158,"elev":774,"name":"Pullman/Moscow Rgnl, WA, US","cover":"CLR","clouds":[],"fltCat":"VFR"},{"icaoId":"KGJT","receiptTime":"2026-04-14T05:56:30.121Z","obsTime":1776145980,"reportTime":"2026-04-14T06:00:00.000Z","temp":11.1,"dewp":3.3,"wdir":230,"wspd":12,"wgst":21,"visib":8,"altim":1012.3,"slp":1008,"qcField":6,"wxString":"-RA","presTend":1.5,"maxT":18.9,"minT":11.1,"precip":0.005,"pcp6hr":0.005,"metarType":"METAR","rawOb":"METAR KGJT 140553Z AUTO 23012G21KT 8SM -RA SCT048 OVC070 11/03 A2989 RMK AO2 WSHFT 0538 RAB51 SLP080 P0000 60000 T01110033 10189 20111 53015","lat":39.1344,"lon":-108.5408,"elev":1475,"name":"Grand Junction Rgnl, CO, US","cover":"OVC","clouds":[{"cover":"SCT","base":4800},{"cover":"OVC","base":7000}],"fltCat":"VFR"},{"icaoId":"KGSP","receiptTime":"2026-04-14T05:56:30.378Z","obsTime":1776145980,"reportTime":"2026-04-14T06:00:00.000Z","temp":14.4,"dewp":11.7,"wdir":220,"wspd":4,"visib":"10+","altim":1022.8,"slp":1022,"qcField":14,"presTend":-0.6,"maxT":22.2,"minT":13.9,"metarType":"METAR","rawOb":"METAR KGSP 140553Z AUTO 22004KT 10SM CLR 14/12 A3020 RMK AO2 SLP220 T01440117 10222 20139 58006 $","lat":34.8842,"lon":-82.2209,"elev":285,"name":"Greenville-Spartanburg Intl, SC, US","cover":"CLR","clouds":[],"fltCat":"VFR"},{"icaoId":"PANC","receiptTime":"2026-04-14T05:56:30.829Z","obsTime":1776145980,"reportTime":"2026-04-14T06:00:00.000Z","temp":2.2,"dewp":-4.4,"wdir":300,"wspd":4,"visib":"10+","altim":1006.9,"slp":1007,"qcField":4,"presTend":2,"maxT":5.6,"minT":1.7,"snow":14000,"metarType":"METAR","rawOb":"METAR PANC 140553Z 30004KT 10SM FEW100 02/M04 A2973 RMK AO2 SLP070 4/014 T00221044 10056 20017 53020","lat":61.1691,"lon":-150.0277,"elev":39,"name":"Anchorage Intl, AK, US","cover":"FEW","clouds":[{"cover":"FEW","base":10000}],"fltCat":"VFR"},{"icaoId":"KPAE","receiptTime":"2026-04-14T05:56:31.174Z","obsTime":1776145980,"reportTime":"2026-04-14T06:00:00.000Z","temp":7.2,"dewp":6.1,"wdir":110,"wspd":5,"visib":"10+","altim":1019,"slp":1019.3,"qcField":6,"presTend":0.6,"maxT":8.3,"minT":6.7,"precip":0.03,"pcp6hr":0.06,"metarType":"METAR","rawOb":"METAR KPAE 140553Z AUTO 11005KT 10SM OVC026 07/06 A3009 RMK AO2 RAE41 SLP193 P0003 60006 T00720061 10083 20067 50006","lat":47.9232,"lon":-122.2831,"elev":166,"name":"Everett/Paine Fld, WA, US","cover":"OVC","clouds":[{"cover":"OVC","base":2600}],"fltCat":"MVFR"},{"icaoId":"KPBI","receiptTime":"2026-04-14T05:56:31.233Z","obsTime":1776145980,"reportTime":"2026-04-14T06:00:00.000Z","temp":23.3,"dewp":15.6,"wdir":100,"wspd":15,"visib":"10+","altim":1022.1,"slp":1021.8,"qcField":12,"presTend":-1.1,"maxT":24.4,"minT":22.8,"pcp6hr":0.005,"metarType":"METAR","rawOb":"METAR KPBI 140553Z 10015KT 10SM FEW037 23/16 A3018 RMK AO2 SLP218 60000 T02330156 10244 20228 58011 $","lat":26.6851,"lon":-80.0992,"elev":4,"name":"Palm Beach Intl, FL, US","cover":"FEW","clouds":[{"cover":"FEW","base":3700}],"fltCat":"VFR"},{"icaoId":"KPNC","receiptTime":"2026-04-14T05:56:31.464Z","obsTime":1776145980,"reportTime":"2026-04-14T06:00:00.000Z","temp":23.9,"dewp":19.4,"wdir":190,"wspd":11,"wgst":22,"visib":"10+","altim":1009.6,"slp":1008.2,"qcField":6,"presTend":0.6,"maxT":29.4,"minT":23.9,"maxT24":30.6,"minT24":20,"metarType":"METAR","rawOb":"METAR KPNC 140553Z AUTO 19011G22KT 10SM CLR 24/19 A2981 RMK AO2 SLP082 T02390194 10294 20239 403060200 51006","lat":36.7369,"lon":-97.1024,"elev":304,"name":"Ponca City Rgnl, OK, US","cover":"CLR","clouds":[],"fltCat":"VFR"},{"icaoId":"KACV","receiptTime":"2026-04-14T05:56:31.829Z","obsTime":1776145980,"reportTime":"2026-04-14T06:00:00.000Z","temp":6.1,"dewp":4.4,"wdir":40,"wspd":3,"visib":"10+","altim":1023.1,"slp":1023.8,"qcField":6,"presTend":0.6,"maxT":12.8,"minT":6.1,"metarType":"METAR","rawOb":"METAR KACV 140553Z AUTO 04003KT 10SM CLR 06/04 A3021 RMK AO2 SLP238 T00610044 10128 20061 50006","lat":40.9784,"lon":-124.1048,"elev":63,"name":"Arcata Arpt, CA, US","cover":"CLR","clouds":[],"fltCat":"VFR"},{"icaoId":"KASE","receiptTime":"2026-04-14T05:56:32.157Z","obsTime":1776145980,"reportTime":"2026-04-14T06:00:00.000Z","temp":5,"dewp":-2.8,"wdir":200,"wspd":3,"visib":"10+","altim":1014.3,"slp":1006.4,"qcField":6,"presTend":-0.3,"maxT":12.2,"minT":3.9,"metarType":"METAR","rawOb":"METAR KASE 140553Z AUTO 20003KT 10SM BKN070 OVC080 05/M03 A2995 RMK AO2 SLP064 T00501028 10122 20039 58003","lat":39.2299,"lon":-106.8705,"elev":2384,"name":"Aspen/Pitkin Cnty, CO, US","cover":"OVC","clouds":[{"cover":"BKN","base":7000},{"cover":"OVC","base":8000}],"fltCat":"VFR"},{"icaoId":"KAUS","receiptTime":"2026-04-14T05:56:32.232Z","obsTime":1776145980,"reportTime":"2026-04-14T06:00:00.000Z","temp":22.8,"dewp":20,"wdir":180,"wspd":13,"wgst":21,"visib":"10+","altim":1017.7,"slp":1016.5,"qcField":4,"presTend":0.9,"maxT":29.4,"minT":22.8,"maxT24":31.7,"minT24":22.2,"metarType":"METAR","rawOb":"METAR KAUS 140553Z 18013G21KT 10SM BKN015 23/20 A3005 RMK AO2 SLP165 T02280200 10294 20228 403170222 50009","lat":30.1831,"lon":-97.6806,"elev":148,"name":"Austin/Bergstrom Intl, TX, US","cover":"BKN","clouds":[{"cover":"BKN","base":1500}],"fltCat":"MVFR"},{"icaoId":"KHIO","receiptTime":"2026-04-14T05:56:18.113Z","obsTime":1776145980,"reportTime":"2026-04-14T06:00:00.000Z","temp":7.8,"dewp":3.9,"wdir":230,"wspd":4,"visib":"10+","altim":1022.1,"slp":1022.1,"qcField":6,"presTend":1.4,"maxT":12.8,"minT":6.7,"pcp6hr":0.005,"metarType":"METAR","rawOb":"METAR KHIO 140553Z AUTO 23004KT 10SM OVC047 08/04 A3018 RMK AO2 SLP221 60000 T00780039 10128 20067 51014","lat":45.5476,"lon":-122.9557,"elev":62,"name":"Portland/Hillsboro Arpt, OR, US","cover":"OVC","clouds":[{"cover":"OVC","base":4700}],"fltCat":"VFR"},{"icaoId":"KSMF","receiptTime":"2026-04-14T05:56:21.800Z","obsTime":1776145980,"reportTime":"2026-04-14T06:00:00.000Z","temp":11.7,"dewp":9.4,"wdir":200,"wspd":6,"visib":"10+","altim":1018.7,"slp":1018.6,"qcField":12,"presTend":0.9,"maxT":18.9,"minT":11.7,"metarType":"METAR","rawOb":"METAR KSMF 140553Z 20006KT 10SM CLR 12/09 A3008 RMK AO2 SLP186 T01170094 10189 20117 51009 $","lat":38.7007,"lon":-121.5948,"elev":7,"name":"Sacramento Intl, CA, US","cover":"CLR","clouds":[],"fltCat":"VFR"},{"icaoId":"KSBA","receiptTime":"2026-04-14T05:56:21.615Z","obsTime":1776145980,"reportTime":"2026-04-14T06:00:00.000Z","temp":13.9,"dewp":8.3,"wdir":0,"wspd":0,"visib":"10+","altim":1017.7,"slp":1017.7,"qcField":14,"presTend":1.5,"maxT":20.6,"minT":13.9,"metarType":"METAR","rawOb":"METAR KSBA 140553Z AUTO 00000KT 10SM CLR 14/08 A3005 RMK AO2 SLP177 T01390083 10206 20139 51015 $","lat":34.4241,"lon":-119.8425,"elev":2,"name":"Santa Barbara Muni, CA, US","cover":"CLR","clouds":[],"fltCat":"VFR"},{"icaoId":"KSDL","receiptTime":"2026-04-14T05:56:21.649Z","obsTime":1776145980,"reportTime":"2026-04-14T06:00:00.000Z","temp":19.4,"dewp":3.3,"wdir":250,"wspd":10,"visib":"10+","altim":1014.3,"slp":1012.4,"qcField":6,"presTend":2.5,"maxT":25,"minT":19.4,"pcp6hr":0.005,"metarType":"METAR","rawOb":"METAR KSDL 140553Z AUTO 25010KT 10SM SCT090 BKN120 19/03 A2995 RMK AO2 SLP124 60000 T01940033 10250 20194 51025","lat":33.6123,"lon":-111.9232,"elev":438,"name":"Scottsdale Muni, AZ, US","cover":"BKN","clouds":[{"cover":"SCT","base":9000},{"cover":"BKN","base":12000}],"fltCat":"VFR"},{"icaoId":"KSHR","receiptTime":"2026-04-14T05:56:21.744Z","obsTime":1776145980,"reportTime":"2026-04-14T06:00:00.000Z","temp":0.6,"dewp":-2.2,"wdir":190,"wspd":7,"visib":"10+","altim":1010.2,"slp":1011.6,"qcField":6,"presTend":1.1,"maxT":13.9,"minT":0.6,"metarType":"METAR","rawOb":"METAR KSHR 140553Z AUTO 19007KT 10SM CLR 01/M02 A2983 RMK AO2 SLP116 T00061022 10139 20006 51011","lat":44.7603,"lon":-106.9741,"elev":1212,"name":"Sheridan Cnty Arpt, WY, US","cover":"CLR","clouds":[],"fltCat":"VFR"},{"icaoId":"KSNA","receiptTime":"2026-04-14T05:56:21.829Z","obsTime":1776145980,"reportTime":"2026-04-14T06:00:00.000Z","temp":15.6,"dewp":10,"wdir":160,"wspd":5,"visib":"10+","altim":1018.7,"slp":1018.4,"qcField":12,"presTend":1.4,"maxT":18.3,"minT":15.6,"metarType":"METAR","rawOb":"METAR KSNA 140553Z 16005KT 10SM FEW024 SCT050 16/10 A3008 RMK AO2 SLP184 LAST T01560100 10183 20156 51014 $","lat":33.6798,"lon":-117.8675,"elev":14,"name":"Santa Ana/Wayne Arpt, CA, US","cover":"SCT","clouds":[{"cover":"FEW","base":2400},{"cover":"SCT","base":5000}],"fltCat":"VFR"},{"icaoId":"KSTS","receiptTime":"2026-04-14T05:56:21.962Z","obsTime":1776145980,"reportTime":"2026-04-14T06:00:00.000Z","temp":10.6,"dewp":7.8,"wdir":340,"wspd":4,"visib":"10+","altim":1020.1,"slp":1019.3,"qcField":6,"presTend":1.3,"maxT":18.3,"minT":9.4,"metarType":"METAR","rawOb":"METAR KSTS 140553Z AUTO 34004KT 10SM CLR 11/08 A3012 RMK AO2 SLP193 T01060078 10183 20094 50013","lat":38.5037,"lon":-122.811,"elev":35,"name":"Santa Rosa/Schulz Arpt, CA, US","cover":"CLR","clouds":[],"fltCat":"VFR"},{"icaoId":"KMYR","receiptTime":"2026-04-14T05:56:22.393Z","obsTime":1776145980,"reportTime":"2026-04-14T06:00:00.000Z","temp":18.3,"dewp":16.1,"wdir":210,"wspd":6,"visib":"10+","altim":1023.8,"slp":1023.7,"qcField":14,"presTend":-1.5,"maxT":20,"minT":18.3,"metarType":"METAR","rawOb":"METAR KMYR 140553Z AUTO 21006KT 10SM CLR 18/16 A3023 RMK AO2 SLP237 T01830161 10200 20183 58015 $","lat":33.6769,"lon":-78.9325,"elev":7,"name":"Myrtle Beach Intl, SC, US","cover":"CLR","clouds":[],"fltCat":"VFR"},{"icaoId":"KLAX","receiptTime":"2026-04-14T05:56:23.123Z","obsTime":1776145980,"reportTime":"2026-04-14T06:00:00.000Z","temp":15,"dewp":11.1,"wdir":250,"wspd":12,"visib":"10+","altim":1018.4,"slp":1017.9,"qcField":12,"presTend":1.4,"maxT":18.9,"minT":15,"metarType":"METAR","rawOb":"METAR KLAX 140553Z 25012KT 10SM CLR 15/11 A3007 RMK AO2 SLP179 T01500111 10189 20150 51014 $","lat":33.9382,"lon":-118.3866,"elev":30,"name":"Los Angeles Intl, CA, US","cover":"CLR","clouds":[],"fltCat":"VFR"},{"icaoId":"KLBB","receiptTime":"2026-04-14T05:56:23.135Z","obsTime":1776145980,"reportTime":"2026-04-14T06:00:00.000Z","temp":21.1,"dewp":12.8,"wdir":200,"wspd":20,"visib":"10+","altim":1015,"slp":1009.7,"qcField":4,"presTend":1.4,"maxT":28.9,"minT":21.1,"maxT24":31.7,"minT24":16.1,"metarType":"METAR","rawOb":"METAR KLBB 140553Z 20020KT 10SM FEW250 21/13 A2997 RMK AO2 PK WND 20028/0510 SLP097 T02110128 10289 20211 403170161 51014","lat":33.6658,"lon":-101.8233,"elev":996,"name":"Lubbock Intl Arpt, TX, US","cover":"FEW","clouds":[{"cover":"FEW","base":25000}],"fltCat":"VFR"},{"icaoId":"KRIW","receiptTime":"2026-04-14T05:56:23.285Z","obsTime":1776145980,"reportTime":"2026-04-14T06:00:00.000Z","temp":5,"dewp":-7.2,"wdir":310,"wspd":10,"visib":"10+","altim":1011.3,"slp":1008.6,"qcField":6,"presTend":-0.1,"maxT":13.9,"minT":3.9,"metarType":"METAR","rawOb":"METAR KRIW 140553Z AUTO 31010KT 10SM CLR 05/M07 A2986 RMK AO2 SLP086 T00501072 10139 20039 58001","lat":43.0622,"lon":-108.4471,"elev":1662,"name":"Riverton Rgnl, WY, US","cover":"CLR","clouds":[],"fltCat":"VFR"},{"icaoId":"KPDX","receiptTime":"2026-04-14T05:56:23.343Z","obsTime":1776145980,"reportTime":"2026-04-14T06:00:00.000Z","temp":9.4,"dewp":4.4,"wdir":270,"wspd":7,"visib":"10+","altim":1022.4,"slp":1022.3,"qcField":4,"presTend":1.6,"maxT":12.8,"minT":9.4,"pcp6hr":0.005,"metarType":"METAR","rawOb":"METAR KPDX 140553Z 27007KT 10SM SCT035 BKN055 09/04 A3019 RMK AO2 SLP223 60000 T00940044 10128 20094 51016","lat":45.5958,"lon":-122.6092,"elev":7,"name":"Portland Intl, OR, US","cover":"BKN","clouds":[{"cover":"SCT","base":3500},{"cover":"BKN","base":5500}],"fltCat":"VFR"},{"icaoId":"KSEA","receiptTime":"2026-04-14T05:56:23.399Z","obsTime":1776145980,"reportTime":"2026-04-14T06:00:00.000Z","temp":7.8,"dewp":3.9,"wdir":210,"wspd":11,"visib":"10+","altim":1019.4,"slp":1020,"qcField":4,"presTend":0.7,"maxT":13.3,"minT":7.8,"metarType":"METAR","rawOb":"METAR KSEA 140553Z 21011KT 10SM BKN041 08/04 A3010 RMK AO2 SLP200 T00780039 10133 20078 50007","lat":47.4447,"lon":-122.3144,"elev":115,"name":"Seattle-Tacoma Intl, WA, US","cover":"BKN","clouds":[{"cover":"BKN","base":4100}],"fltCat":"VFR"},{"icaoId":"KTUS","receiptTime":"2026-04-14T05:56:23.479Z","obsTime":1776145980,"reportTime":"2026-04-14T06:00:00.000Z","temp":18.3,"dewp":6.7,"wdir":230,"wspd":8,"visib":"10+","altim":1017,"slp":1013.2,"qcField":4,"presTend":1.9,"maxT":23.9,"minT":18.3,"metarType":"METAR","rawOb":"METAR KTUS 140553Z 23008KT 10SM BKN060 18/07 A3003 RMK AO2 SLP132 T01830067 10239 20183 51019","lat":32.1315,"lon":-110.9564,"elev":776,"name":"Tucson Intl Arpt, AZ, US","cover":"BKN","clouds":[{"cover":"BKN","base":6000}],"fltCat":"VFR"},{"icaoId":"KYKM","receiptTime":"2026-04-14T05:56:23.522Z","obsTime":1776145980,"reportTime":"2026-04-14T06:00:00.000Z","temp":9.4,"dewp":-0.6,"wdir":"VRB","wspd":3,"visib":"10+","altim":1015,"slp":1015.2,"qcField":14,"maxT":17.8,"minT":6.7,"metarType":"METAR","rawOb":"METAR KYKM 140553Z AUTO VRB03KT 10SM CLR 09/M01 A2997 RMK AO2 SLP152 T00941006 10178 20067 $","lat":46.564,"lon":-120.5349,"elev":319,"name":"Yakima/McAllister Fld, WA, US","cover":"CLR","clouds":[],"fltCat":"VFR"},{"icaoId":"KHOU","receiptTime":"2026-04-14T05:56:23.588Z","obsTime":1776145980,"reportTime":"2026-04-14T06:00:00.000Z","temp":22.8,"dewp":20.6,"wdir":150,"wspd":9,"visib":9,"altim":1019,"slp":1019.4,"qcField":12,"presTend":-0.2,"maxT":25,"minT":22.2,"maxT24":27.2,"minT24":22.2,"metarType":"METAR","rawOb":"METAR KHOU 140553Z 15009KT 9SM FEW023 23/21 A3009 RMK AO2 SLP194 T02280206 10250 20222 402720222 58002 $","lat":29.6458,"lon":-95.2821,"elev":13,"name":"Houston/Hobby Arpt, TX, US","cover":"FEW","clouds":[{"cover":"FEW","base":2300}],"fltCat":"VFR"},{"icaoId":"KIAH","receiptTime":"2026-04-14T05:56:23.766Z","obsTime":1776145980,"reportTime":"2026-04-14T06:00:00.000Z","temp":22.2,"dewp":20.6,"wdir":160,"wspd":8,"visib":"10+","altim":1019,"slp":1018.9,"qcField":4,"presTend":-0.3,"maxT":25,"minT":22.2,"maxT24":27.2,"minT24":22.2,"pcp6hr":0.005,"metarType":"METAR","rawOb":"METAR KIAH 140553Z 16008KT 10SM FEW014 SCT030 22/21 A3009 RMK AO2 SLP189 60000 T02220206 10250 20222 402720222 58003","lat":29.9844,"lon":-95.3607,"elev":27,"name":"Houston/Bush Intl, TX, US","cover":"SCT","clouds":[{"cover":"FEW","base":1400},{"cover":"SCT","base":3000}],"fltCat":"VFR"},{"icaoId":"KIDA","receiptTime":"2026-04-14T05:56:23.806Z","obsTime":1776145980,"reportTime":"2026-04-14T06:00:00.000Z","temp":3.3,"dewp":0.6,"wdir":210,"wspd":10,"visib":"10+","altim":1014.6,"slp":1014.8,"qcField":6,"presTend":0.6,"maxT":7.8,"minT":3.3,"pcp6hr":0.005,"metarType":"METAR","rawOb":"METAR KIDA 140553Z AUTO 21010KT 10SM CLR 03/01 A2996 RMK AO2 SLP148 60000 T00330006 10078 20033 51006","lat":43.5204,"lon":-112.0675,"elev":1444,"name":"Idaho Falls Rgnl, ID, US","cover":"CLR","clouds":[],"fltCat":"VFR"},{"icaoId":"KLAW","receiptTime":"2026-04-14T05:56:23.964Z","obsTime":1776145980,"reportTime":"2026-04-14T06:00:00.000Z","temp":22.8,"dewp":18.9,"wdir":170,"wspd":10,"visib":"10+","altim":1012.3,"slp":1010.8,"qcField":6,"presTend":0.6,"maxT":28.3,"minT":22.8,"maxT24":31.7,"minT24":18.9,"metarType":"METAR","rawOb":"METAR KLAW 140553Z AUTO 17010KT 10SM CLR 23/19 A2989 RMK AO2 SLP108 T02280189 10283 20228 403170189 53006","lat":34.5577,"lon":-98.4172,"elev":328,"name":"Lawton-Fort Sill Rgnl, OK, US","cover":"CLR","clouds":[],"fltCat":"VFR"},{"icaoId":"KLGB","receiptTime":"2026-04-14T05:56:24.115Z","obsTime":1776145980,"reportTime":"2026-04-14T06:00:00.000Z","temp":15.6,"dewp":10.6,"wdir":270,"wspd":7,"visib":"10+","altim":1018,"slp":1017.8,"qcField":12,"presTend":1.2,"maxT":18.9,"minT":15.6,"metarType":"METAR","rawOb":"METAR KLGB 140553Z 27007KT 10SM CLR 16/11 A3006 RMK AO2 SLP178 T01560106 10189 20156 51012 $","lat":33.8118,"lon":-118.1472,"elev":10,"name":"Long Beach Arpt, CA, US","cover":"CLR","clouds":[],"fltCat":"VFR"},{"icaoId":"KLOL","receiptTime":"2026-04-14T05:56:24.218Z","obsTime":1776145980,"reportTime":"2026-04-14T06:00:00.000Z","temp":6.7,"dewp":-5.6,"wdir":0,"wspd":0,"visib":"10+","altim":1016.3,"slp":1015.8,"qcField":14,"presTend":1,"maxT":15.6,"minT":6.7,"metarType":"METAR","rawOb":"METAR KLOL 140553Z AUTO 00000KT 10SM CLR 07/M06 A3001 RMK AO2 SLP158 T00671056 10156 20067 50010 $","lat":40.0684,"lon":-118.5702,"elev":1191,"name":"Lovelock/Derby Fld, NV, US","cover":"CLR","clouds":[],"fltCat":"VFR"},{"icaoId":"KMIA","receiptTime":"2026-04-14T05:56:24.340Z","obsTime":1776145980,"reportTime":"2026-04-14T06:00:00.000Z","temp":23.3,"dewp":15.6,"wdir":70,"wspd":9,"visib":"10+","altim":1021.1,"slp":1021.1,"qcField":0,"presTend":-1,"maxT":24.4,"minT":23.3,"metarType":"METAR","rawOb":"METAR KMIA 140553Z 07009KT 10SM FEW035 FEW046 23/16 A3015 RMK SLP211 T02330156 10244 20233 58010","lat":25.7881,"lon":-80.3169,"elev":1,"name":"Miami Intl, FL, US","cover":"FEW","clouds":[{"cover":"FEW","base":3500},{"cover":"FEW","base":4600}],"fltCat":"VFR"},{"icaoId":"KMLC","receiptTime":"2026-04-14T05:56:24.440Z","obsTime":1776145980,"reportTime":"2026-04-14T06:00:00.000Z","temp":23.3,"dewp":20.6,"wdir":180,"wspd":9,"wgst":23,"visib":"10+","altim":1014.3,"slp":1013.1,"qcField":6,"presTend":0.1,"maxT":26.1,"minT":23.3,"maxT24":28.3,"minT24":20.6,"metarType":"METAR","rawOb":"METAR KMLC 140553Z AUTO 18009G23KT 10SM BKN018 23/21 A2995 RMK AO2 SLP131 T02330206 10261 20233 402830206 53001","lat":34.8824,"lon":-95.7815,"elev":231,"name":"McAlester Rgnl, OK, US","cover":"BKN","clouds":[{"cover":"BKN","base":1800}],"fltCat":"MVFR"},{"icaoId":"KMLS","receiptTime":"2026-04-14T05:56:24.475Z","obsTime":1776145980,"reportTime":"2026-04-14T06:00:00.000Z","temp":7.2,"dewp":5.6,"wdir":150,"wspd":4,"visib":"10+","altim":1007.2,"slp":1007.3,"qcField":6,"presTend":-1.2,"maxT":9.4,"minT":6.7,"pcp6hr":0.38,"metarType":"METAR","rawOb":"METAR KMLS 140553Z AUTO 15004KT 10SM CLR 07/06 A2974 RMK AO2 SLP073 60038 T00720056 10094 20067 57012","lat":46.4265,"lon":-105.8834,"elev":800,"name":"Miles City/Wiley Fld, MT, US","cover":"CLR","clouds":[],"fltCat":"VFR"},{"icaoId":"KMOD","receiptTime":"2026-04-14T05:56:24.551Z","obsTime":1776145980,"reportTime":"2026-04-14T06:00:00.000Z","temp":11.7,"dewp":7.8,"wdir":320,"wspd":6,"visib":"10+","altim":1019,"slp":1019,"qcField":6,"presTend":1.2,"maxT":19.4,"minT":11.7,"metarType":"METAR","rawOb":"METAR KMOD 140553Z AUTO 32006KT 10SM CLR 12/08 A3009 RMK AO2 SLP190 T01170078 10194 20117 50012","lat":37.6254,"lon":-120.9549,"elev":25,"name":"Modesto/Sham Fld, CA, US","cover":"CLR","clouds":[],"fltCat":"VFR"},{"icaoId":"KMSY","receiptTime":"2026-04-14T05:56:24.796Z","obsTime":1776145980,"reportTime":"2026-04-14T06:00:00.000Z","temp":20.6,"dewp":18.3,"wdir":130,"wspd":7,"visib":"10+","altim":1022.1,"slp":1022.2,"qcField":4,"presTend":-0.3,"maxT":25,"minT":20.6,"maxT24":27.8,"minT24":18.9,"metarType":"METAR","rawOb":"METAR KMSY 140553Z 13007KT 10SM CLR 21/18 A3018 RMK AO2 SLP222 T02060183 10250 20206 402780189 58003","lat":29.9974,"lon":-90.2777,"elev":0,"name":"New Orleans/Armstrong Intl, LA, US","cover":"CLR","clouds":[],"fltCat":"VFR"},{"icaoId":"KMTJ","receiptTime":"2026-04-14T05:56:24.825Z","obsTime":1776145980,"reportTime":"2026-04-14T06:00:00.000Z","temp":10,"dewp":1.1,"wdir":0,"wspd":0,"visib":"10+","altim":1013.3,"slp":1007.8,"qcField":6,"presTend":0.7,"maxT":17.8,"minT":10,"precip":0.005,"pcp6hr":0.005,"metarType":"METAR","rawOb":"METAR KMTJ 140553Z AUTO 00000KT 10SM SCT070 10/01 A2992 RMK AO2 LTG DSNT W RAB11E43 SLP078 P0000 60000 T01000011 10178 20100 51007","lat":38.5054,"lon":-107.8981,"elev":1755,"name":"Montrose Rgnl, CO, US","cover":"SCT","clouds":[{"cover":"SCT","base":7000}],"fltCat":"VFR"},{"icaoId":"KMYF","receiptTime":"2026-04-14T05:56:24.891Z","obsTime":1776145980,"reportTime":"2026-04-14T06:00:00.000Z","temp":14.4,"dewp":9.4,"wdir":270,"wspd":5,"visib":"10+","altim":1019.4,"slp":1018.9,"qcField":6,"presTend":1,"maxT":17.2,"minT":14.4,"metarType":"METAR","rawOb":"METAR KMYF 140553Z AUTO 27005KT 10SM CLR 14/09 A3010 RMK AO2 SLP189 T01440094 10172 20144 50010","lat":32.8145,"lon":-117.1375,"elev":128,"name":"San Diego/Montgomery Arpt, CA, US","cover":"CLR","clouds":[],"fltCat":"VFR"},{"icaoId":"KONT","receiptTime":"2026-04-14T05:56:25.054Z","obsTime":1776145980,"reportTime":"2026-04-14T06:00:00.000Z","temp":12.8,"dewp":7.2,"wdir":0,"wspd":0,"visib":"10+","altim":1018.4,"slp":1018,"qcField":12,"presTend":1.8,"maxT":16.7,"minT":12.8,"metarType":"METAR","rawOb":"METAR KONT 140553Z 00000KT 10SM FEW060 13/07 A3007 RMK AO2 SLP180 T01280072 10167 20128 51018 $","lat":34.0531,"lon":-117.5769,"elev":279,"name":"Ontario Intl, CA, US","cover":"FEW","clouds":[{"cover":"FEW","base":6000}],"fltCat":"VFR"},{"icaoId":"KPSP","receiptTime":"2026-04-14T05:56:29.786Z","obsTime":1776145980,"reportTime":"2026-04-14T06:00:00.000Z","temp":16.1,"dewp":4.4,"wdir":170,"wspd":4,"visib":"10+","altim":1015.7,"slp":1015.6,"qcField":4,"presTend":1.6,"maxT":21.1,"minT":16.1,"metarType":"METAR","rawOb":"METAR KPSP 140553Z 17004KT 10SM CLR 16/04 A2999 RMK AO2 SLP156 T01610044 10211 20161 51016","lat":33.8222,"lon":-116.5043,"elev":123,"name":"Palm Springs Intl, CA, US","cover":"CLR","clouds":[],"fltCat":"VFR"},{"icaoId":"KRDD","receiptTime":"2026-04-14T05:56:25.313Z","obsTime":1776145980,"reportTime":"2026-04-14T06:00:00.000Z","temp":11.1,"dewp":7.2,"wdir":10,"wspd":5,"visib":"10+","altim":1018,"slp":1017.9,"qcField":4,"presTend":1.3,"maxT":18.3,"minT":10.6,"metarType":"METAR","rawOb":"METAR KRDD 140553Z 01005KT 10SM CLR 11/07 A3006 RMK AO2 SLP179 T01110072 10183 20106 51013","lat":40.5146,"lon":-122.2977,"elev":152,"name":"Redding Muni, CA, US","cover":"CLR","clouds":[],"fltCat":"VFR"},{"icaoId":"KOAK","receiptTime":"2026-04-14T05:56:25.349Z","obsTime":1776145980,"reportTime":"2026-04-14T06:00:00.000Z","temp":12.8,"dewp":9.4,"wdir":260,"wspd":11,"visib":"10+","altim":1021.1,"slp":1020.9,"qcField":12,"presTend":1.2,"maxT":17.2,"minT":12.8,"metarType":"METAR","rawOb":"METAR KOAK 140553Z 26011KT 10SM FEW012 13/09 A3015 RMK AO2 SLP209 T01280094 10172 20128 50012 $","lat":37.7178,"lon":-122.233,"elev":3,"name":"Oakland Intl, CA, US","cover":"FEW","clouds":[{"cover":"FEW","base":1200}],"fltCat":"VFR"},{"icaoId":"KOGD","receiptTime":"2026-04-14T05:56:25.370Z","obsTime":1776145980,"reportTime":"2026-04-14T06:00:00.000Z","temp":6.7,"dewp":1.1,"wdir":310,"wspd":3,"visib":"10+","altim":1013.6,"slp":1011.8,"qcField":6,"presTend":0.5,"maxT":12.8,"minT":6.1,"metarType":"METAR","rawOb":"METAR KOGD 140553Z AUTO 31003KT 10SM CLR 07/01 A2993 RMK AO2 SLP118 T00670011 10128 20061 50005","lat":41.1941,"lon":-112.0168,"elev":1356,"name":"Ogden/Hinckley Arpt, UT, US","cover":"CLR","clouds":[],"fltCat":"VFR"},{"icaoId":"KMSP","receiptTime":"2026-04-14T05:56:26.147Z","obsTime":1776145980,"reportTime":"2026-04-14T06:00:00.000Z","temp":11.1,"dewp":8.3,"wdir":20,"wspd":8,"visib":"10+","altim":1005.2,"slp":1004.9,"qcField":4,"presTend":-0.1,"maxT":16.1,"minT":11.1,"maxT24":22.2,"minT24":11.1,"metarType":"METAR","rawOb":"METAR KMSP 140553Z 02008KT 10SM FEW020 FEW110 FEW140 11/08 A2968 RMK AO2 SLP049 T01110083 10161 20111 402220111 58001","lat":44.8852,"lon":-93.2313,"elev":255,"name":"Minneapolis-St Paul Intl, MN, US","cover":"FEW","clouds":[{"cover":"FEW","base":2000},{"cover":"FEW","base":11000},{"cover":"FEW","base":14000}],"fltCat":"VFR"},{"icaoId":"KBIL","receiptTime":"2026-04-14T05:56:26.583Z","obsTime":1776145980,"reportTime":"2026-04-14T06:00:00.000Z","temp":7.8,"dewp":-4.4,"wdir":240,"wspd":10,"visib":"10+","altim":1009.2,"slp":1009.1,"qcField":4,"presTend":0.7,"maxT":12.8,"minT":7.8,"metarType":"METAR","rawOb":"METAR KBIL 140553Z 24010KT 10SM FEW200 08/M04 A2980 RMK AO2 SLP091 T00781044 10128 20078 51007","lat":45.8072,"lon":-108.5462,"elev":1089,"name":"Billings/Logan Intl, MT, US","cover":"FEW","clouds":[{"cover":"FEW","base":20000}],"fltCat":"VFR"},{"icaoId":"KMLF","receiptTime":"2026-04-14T05:56:25.670Z","obsTime":1776145920,"reportTime":"2026-04-14T06:00:00.000Z","temp":3.9,"dewp":2.2,"wdir":210,"wspd":9,"visib":"10+","altim":1013.6,"slp":1011.8,"qcField":6,"wxString":"-RA","presTend":0.5,"maxT":8.9,"minT":3.9,"precip":0.01,"pcp6hr":0.17,"metarType":"METAR","rawOb":"METAR KMLF 140552Z AUTO 21009KT 10SM -RA SCT026 BKN039 OVC075 04/02 A2993 RMK AO2 SLP118 P0001 60017 T00390022 10089 20039 51005","lat":38.4225,"lon":-113.0109,"elev":1537,"name":"Milford Muni, UT, US","cover":"OVC","clouds":[{"cover":"SCT","base":2600},{"cover":"BKN","base":3900},{"cover":"OVC","base":7500}],"fltCat":"VFR"},{"icaoId":"KHRL","receiptTime":"2026-04-14T05:56:22.163Z","obsTime":1776145920,"reportTime":"2026-04-14T06:00:00.000Z","temp":22.8,"dewp":21.7,"wdir":130,"wspd":10,"visib":"10+","altim":1016.7,"slp":1016.4,"qcField":6,"presTend":-0.2,"maxT":26.1,"minT":22.8,"maxT24":28.9,"minT24":22.8,"metarType":"METAR","rawOb":"METAR KHRL 140552Z AUTO 13010KT 10SM CLR 23/22 A3002 RMK AO2 SLP164 T02280217 10261 20228 402890228 58002","lat":26.2303,"lon":-97.6556,"elev":9,"name":"Harlingen/Valley Intl, TX, US","cover":"CLR","clouds":[],"fltCat":"VFR"},{"icaoId":"KCVG","receiptTime":"2026-04-14T05:56:32.533Z","obsTime":1776145920,"reportTime":"2026-04-14T06:00:00.000Z","temp":19.4,"dewp":12.8,"wdir":200,"wspd":8,"wgst":17,"visib":"10+","altim":1017,"slp":1016,"qcField":4,"presTend":-1.2,"maxT":22.8,"minT":19.4,"metarType":"METAR","rawOb":"METAR KCVG 140552Z 20008G17KT 10SM FEW049 BKN250 19/13 A3003 RMK AO2 SLP160 T01940128 10228 20194 56012","lat":39.0444,"lon":-84.6724,"elev":264,"name":"Cincinnati Intl, KY, US","cover":"BKN","clouds":[{"cover":"FEW","base":4900},{"cover":"BKN","base":25000}],"fltCat":"VFR"},{"icaoId":"KIAD","receiptTime":"2026-04-14T05:56:22.194Z","obsTime":1776145920,"reportTime":"2026-04-14T06:00:00.000Z","temp":17.8,"dewp":11.1,"wdir":180,"wspd":4,"visib":"10+","altim":1017.7,"slp":1017.4,"qcField":4,"presTend":-0.5,"maxT":23.3,"minT":17.2,"metarType":"METAR","rawOb":"METAR KIAD 140552Z 18004KT 10SM CLR 18/11 A3005 RMK AO2 SLP174 T01780111 10233 20172 56005","lat":38.9348,"lon":-77.4473,"elev":90,"name":"Washington/Dulles Intl, VA, US","cover":"CLR","clouds":[],"fltCat":"VFR"},{"icaoId":"KTRM","receiptTime":"2026-04-14T05:58:46.848Z","obsTime":1776145920,"reportTime":"2026-04-14T06:00:00.000Z","temp":17.2,"dewp":5,"wdir":350,"wspd":11,"visib":"10+","altim":1015.3,"slp":1015.4,"qcField":46,"presTend":1.8,"maxT":23.3,"minT":17.2,"metarType":"METAR","rawOb":"METAR KTRM 140552Z AUTO 35011KT 10SM CLR 17/05 A2998 RMK AO2 SLP154 T01720050 10233 20172 51018 TSNO $","lat":33.6317,"lon":-116.1641,"elev":-39,"name":"Thermal Arpt, CA, US","cover":"CLR","clouds":[],"fltCat":"VFR"},{"icaoId":"KCLT","receiptTime":"2026-04-14T05:56:32.476Z","obsTime":1776145920,"reportTime":"2026-04-14T06:00:00.000Z","temp":17.8,"dewp":12.8,"wdir":210,"wspd":5,"visib":"10+","altim":1022.1,"slp":1022.7,"qcField":4,"presTend":-1.3,"maxT":23.9,"minT":17.8,"metarType":"METAR","rawOb":"METAR KCLT 140552Z 21005KT 10SM CLR 18/13 A3018 RMK AO2 SLP227 T01780128 10239 20178 58013","lat":35.2225,"lon":-80.9543,"elev":223,"name":"Charlotte/Douglas Intl, NC, US","cover":"CLR","clouds":[],"fltCat":"VFR"},{"icaoId":"KOKC","receiptTime":"2026-04-14T05:56:32.599Z","obsTime":1776145920,"reportTime":"2026-04-14T06:00:00.000Z","temp":22.8,"dewp":19.4,"wdir":180,"wspd":16,"wgst":23,"visib":"10+","altim":1012.3,"slp":1010.5,"qcField":4,"presTend":0.6,"maxT":27.8,"minT":22.8,"maxT24":30,"minT24":20,"metarType":"METAR","rawOb":"METAR KOKC 140552Z 18016G23KT 10SM FEW150 23/19 A2989 RMK AO2 SLP105 T02280194 10278 20228 403000200 53006","lat":35.3843,"lon":-97.6003,"elev":391,"name":"Oklahoma City/Will Rogers Intl, OK, US","cover":"FEW","clouds":[{"cover":"FEW","base":15000}],"fltCat":"VFR"},{"icaoId":"KMKE","receiptTime":"2026-04-14T05:56:22.331Z","obsTime":1776145920,"reportTime":"2026-04-14T06:00:00.000Z","temp":22.2,"dewp":16.7,"wdir":220,"wspd":17,"wgst":27,"visib":"10+","altim":1005.2,"slp":1004.6,"qcField":4,"presTend":-1.7,"maxT":22.8,"minT":13.3,"maxT24":24.4,"minT24":13.3,"metarType":"METAR","rawOb":"METAR KMKE 140552Z 22017G27KT 10SM FEW050 BKN200 22/17 A2968 RMK AO2 PK WND 22031/0453 SLP046 T02220167 10228 20133 402440133 56017","lat":42.9549,"lon":-87.9045,"elev":203,"name":"Milwaukee/Mitchell Intl, WI, US","cover":"BKN","clouds":[{"cover":"FEW","base":5000},{"cover":"BKN","base":20000}],"fltCat":"VFR"},{"icaoId":"KSPS","receiptTime":"2026-04-14T05:56:25.544Z","obsTime":1776145920,"reportTime":"2026-04-14T06:00:00.000Z","temp":24.4,"dewp":18.3,"wdir":190,"wspd":15,"visib":"10+","altim":1012.3,"slp":1010.7,"qcField":6,"presTend":0.5,"maxT":28.3,"minT":24.4,"maxT24":32.2,"minT24":19.4,"metarType":"METAR","rawOb":"METAR KSPS 140552Z AUTO 19015KT 10SM CLR 24/18 A2989 RMK AO2 PK WND 19026/0524 SLP107 T02440183 10283 20244 403220194 53005","lat":33.9785,"lon":-98.493,"elev":310,"name":"Wichita Falls Rgnl, TX, US","cover":"CLR","clouds":[],"fltCat":"VFR"},{"icaoId":"KDCA","receiptTime":"2026-04-14T05:56:32.550Z","obsTime":1776145920,"reportTime":"2026-04-14T06:00:00.000Z","temp":17.2,"dewp":13.3,"wdir":190,"wspd":7,"visib":"10+","altim":1017.4,"slp":1017.1,"qcField":4,"presTend":-0.6,"maxT":24.4,"minT":17.2,"metarType":"METAR","rawOb":"METAR KDCA 140552Z 19007KT 10SM CLR 17/13 A3004 RMK AO2 SLP171 T01720133 10244 20172 58006","lat":38.8472,"lon":-77.0345,"elev":4,"name":"Washington/Reagan-National Arpt, VA, US","cover":"CLR","clouds":[],"fltCat":"VFR"},{"icaoId":"KABI","receiptTime":"2026-04-14T05:56:25.423Z","obsTime":1776145920,"reportTime":"2026-04-14T06:00:00.000Z","temp":22.8,"dewp":17.8,"visib":"10+","altim":1015,"slp":1012.2,"qcField":4,"presTend":-0.3,"maxT":26.1,"minT":22.8,"maxT24":29.4,"minT24":20.6,"metarType":"METAR","rawOb":"METAR KABI 140552Z 10SM CLR 23/18 A2997 RMK AO2 SLP122 T02280178 10261 20228 402940206 58003","lat":32.4106,"lon":-99.6821,"elev":543,"name":"Abilene Rgnl, TX, US","cover":"CLR","clouds":[],"fltCat":"VFR"},{"icaoId":"KATL","receiptTime":"2026-04-14T05:56:32.319Z","obsTime":1776145920,"reportTime":"2026-04-14T06:00:00.000Z","temp":18.3,"dewp":10.6,"wdir":0,"wspd":0,"visib":"10+","altim":1023.8,"slp":1022.8,"qcField":12,"presTend":-0.3,"maxT":25.6,"minT":18.3,"metarType":"METAR","rawOb":"METAR KATL 140552Z 00000KT 10SM FEW200 18/11 A3023 RMK AO2 SLP228 T01830106 10256 20183 56003 $","lat":33.6297,"lon":-84.4422,"elev":309,"name":"Atlanta/Hartsfield-Jackson Intl, GA, US","cover":"FEW","clouds":[{"cover":"FEW","base":20000}],"fltCat":"VFR"},{"icaoId":"KABQ","receiptTime":"2026-04-14T05:56:25.437Z","obsTime":1776145920,"reportTime":"2026-04-14T06:00:00.000Z","temp":15.6,"dewp":1.7,"wdir":220,"wspd":16,"wgst":25,"visib":"10+","altim":1016.3,"slp":1010.3,"qcField":4,"presTend":0.4,"maxT":17.8,"minT":14.4,"pcp6hr":0.01,"metarType":"METAR","rawOb":"METAR KABQ 140552Z 22016G25KT 10SM SCT100 BKN140 BKN250 16/02 A3001 RMK AO2 SLP103 60001 T01560017 10178 20144 50004","lat":35.0419,"lon":-106.6154,"elev":1620,"name":"Albuquerque Intl, NM, US","cover":"BKN","clouds":[{"cover":"SCT","base":10000},{"cover":"BKN","base":14000},{"cover":"BKN","base":25000}],"fltCat":"VFR"},{"icaoId":"KIWA","receiptTime":"2026-04-14T05:54:47.389Z","obsTime":1776145860,"reportTime":"2026-04-14T06:00:00.000Z","temp":20,"dewp":5,"wdir":260,"wspd":13,"visib":"10+","altim":1015,"qcField":0,"metarType":"METAR","rawOb":"METAR KIWA 140551Z 26013KT 10SM BKN075 OVC110 20/05 A2997","lat":33.3008,"lon":-111.6437,"elev":420,"name":"Phoenix/Mesa Gateway Arpt, AZ, US","cover":"OVC","clouds":[{"cover":"BKN","base":7500},{"cover":"OVC","base":11000}],"fltCat":"VFR"},{"icaoId":"KIGM","receiptTime":"2026-04-14T05:54:14.236Z","obsTime":1776145860,"reportTime":"2026-04-14T06:00:00.000Z","temp":8.3,"dewp":2.8,"wdir":260,"wspd":4,"visib":"10+","altim":1015,"slp":1010.8,"qcField":6,"presTend":1.4,"maxT":12.2,"minT":8.3,"pcp6hr":0.02,"metarType":"METAR","rawOb":"METAR KIGM 140551Z AUTO 26004KT 10SM FEW110 08/03 A2997 RMK AO2 SLP108 60002 T00830028 10122 20083 51014","lat":35.2575,"lon":-113.9341,"elev":1045,"name":"Kingman Arpt, AZ, US","cover":"FEW","clouds":[{"cover":"FEW","base":11000}],"fltCat":"VFR"},{"icaoId":"KVNY","receiptTime":"2026-04-14T05:54:14.148Z","obsTime":1776145860,"reportTime":"2026-04-14T06:00:00.000Z","temp":12.8,"dewp":8.3,"wdir":0,"wspd":0,"visib":"10+","altim":1017.7,"slp":1017.3,"qcField":14,"presTend":1.4,"maxT":17.2,"minT":12.8,"metarType":"METAR","rawOb":"METAR KVNY 140551Z AUTO 00000KT 10SM CLR 13/08 A3005 RMK AO2 SLP173 T01280083 10172 20128 51014 $","lat":34.2121,"lon":-118.4915,"elev":241,"name":"Van Nuys Arpt, CA, US","cover":"CLR","clouds":[],"fltCat":"VFR"},{"icaoId":"KEWR","receiptTime":"2026-04-14T05:54:13.890Z","obsTime":1776145860,"reportTime":"2026-04-14T06:00:00.000Z","temp":20.6,"dewp":12.8,"wdir":240,"wspd":6,"visib":"10+","altim":1015.3,"slp":1015.2,"qcField":4,"presTend":0.1,"maxT":24.4,"minT":20.6,"metarType":"METAR","rawOb":"METAR KEWR 140551Z 24006KT 10SM FEW080 SCT140 SCT250 21/13 A2998 RMK AO2 SLP152 T02060128 10244 20206 50001","lat":40.6828,"lon":-74.1692,"elev":2,"name":"Newark Intl, NJ, US","cover":"SCT","clouds":[{"cover":"FEW","base":8000},{"cover":"SCT","base":14000},{"cover":"SCT","base":25000}],"fltCat":"VFR"},{"icaoId":"KELP","receiptTime":"2026-04-14T05:54:13.873Z","obsTime":1776145860,"reportTime":"2026-04-14T06:00:00.000Z","temp":21.1,"dewp":1.7,"wdir":230,"wspd":8,"visib":"10+","altim":1017,"slp":1010.1,"qcField":4,"presTend":0.5,"maxT":25.6,"minT":21.1,"metarType":"METAR","rawOb":"METAR KELP 140551Z 23008KT 10SM SCT150 SCT180 BKN250 21/02 A3003 RMK AO2 SLP101 VIRGA SE-S T02110017 10256 20211 50005","lat":31.8123,"lon":-106.3774,"elev":1205,"name":"El Paso Intl, TX, US","cover":"BKN","clouds":[{"cover":"SCT","base":15000},{"cover":"SCT","base":18000},{"cover":"BKN","base":25000}],"fltCat":"VFR"},{"icaoId":"KCRP","receiptTime":"2026-04-14T05:54:13.756Z","obsTime":1776145860,"reportTime":"2026-04-14T06:00:00.000Z","temp":23.3,"dewp":21.7,"wdir":140,"wspd":14,"visib":"10+","altim":1017.4,"slp":1017.2,"qcField":4,"presTend":0.3,"maxT":26.1,"minT":23.3,"maxT24":30.6,"minT24":23.3,"metarType":"METAR","rawOb":"METAR KCRP 140551Z 14014KT 10SM OVC015 23/22 A3004 RMK AO2 SLP172 T02330217 10261 20233 403060233 50003","lat":27.7734,"lon":-97.513,"elev":11,"name":"Corpus Christi Intl, TX, US","cover":"OVC","clouds":[{"cover":"OVC","base":1500}],"fltCat":"MVFR"},{"icaoId":"KACT","receiptTime":"2026-04-14T05:54:13.253Z","obsTime":1776145860,"reportTime":"2026-04-14T06:00:00.000Z","temp":22.8,"dewp":19.4,"wdir":170,"wspd":17,"visib":"10+","altim":1016.7,"slp":1015.7,"qcField":6,"presTend":0.7,"maxT":27.2,"minT":22.8,"maxT24":29.4,"minT24":20,"metarType":"METAR","rawOb":"METAR KACT 140551Z AUTO 17017KT 10SM CLR 23/19 A3002 RMK AO2 SLP157 T02280194 10272 20228 402940200 50007","lat":31.618,"lon":-97.2283,"elev":150,"name":"Waco Rgnl, TX, US","cover":"CLR","clouds":[],"fltCat":"VFR"},{"icaoId":"KSAD","receiptTime":"2026-04-14T05:54:12.651Z","obsTime":1776145860,"reportTime":"2026-04-14T06:00:00.000Z","temp":20.6,"dewp":-0.6,"wdir":200,"wspd":13,"wgst":27,"visib":"10+","altim":1014,"slp":1009.5,"qcField":6,"presTend":0.8,"maxT":23.3,"minT":20.6,"pcp6hr":0.005,"metarType":"METAR","rawOb":"METAR KSAD 140551Z AUTO 20013G27KT 10SM CLR 21/M01 A2994 RMK AO2 PK WND 18030/0505 SLP095 60000 T02061006 10233 20206 51008","lat":32.8565,"lon":-109.636,"elev":937,"name":"Safford Rgnl, AZ, US","cover":"CLR","clouds":[],"fltCat":"VFR"},{"icaoId":"KROW","receiptTime":"2026-04-14T05:54:12.634Z","obsTime":1776145860,"reportTime":"2026-04-14T06:00:00.000Z","temp":16.7,"dewp":1.7,"wdir":0,"wspd":0,"visib":"10+","altim":1015.3,"slp":1009.5,"qcField":6,"presTend":0.7,"maxT":27.8,"minT":15.6,"metarType":"METAR","rawOb":"METAR KROW 140551Z AUTO 00000KT 10SM CLR 17/02 A2998 RMK AO2 SLP095 T01670017 10278 20156 50007","lat":33.3074,"lon":-104.5082,"elev":1105,"name":"Roswell/Ind Arpt, NM, US","cover":"CLR","clouds":[],"fltCat":"VFR"},{"icaoId":"KRDU","receiptTime":"2026-04-14T05:54:12.611Z","obsTime":1776145860,"reportTime":"2026-04-14T06:00:00.000Z","temp":18.9,"dewp":12.8,"wdir":210,"wspd":7,"visib":"10+","altim":1022.1,"slp":1021.4,"qcField":4,"presTend":-0.6,"maxT":23.9,"minT":18.9,"metarType":"METAR","rawOb":"METAR KRDU 140551Z 21007KT 10SM FEW120 19/13 A3018 RMK AO2 SLP214 T01890128 10239 20189 58006","lat":35.8923,"lon":-78.782,"elev":121,"name":"Raleigh-Durham Intl, NC, US","cover":"FEW","clouds":[{"cover":"FEW","base":12000}],"fltCat":"VFR"},{"icaoId":"KPVD","receiptTime":"2026-04-14T05:54:12.543Z","obsTime":1776145860,"reportTime":"2026-04-14T06:00:00.000Z","temp":11.1,"dewp":8.9,"wdir":240,"wspd":4,"visib":9,"altim":1014.3,"slp":1014.3,"qcField":4,"presTend":0.2,"maxT":17.8,"minT":10,"metarType":"METAR","rawOb":"METAR KPVD 140551Z 24004KT 9SM CLR 11/09 A2995 RMK AO2 SLP143 T01110089 10178 20100 50002","lat":41.7225,"lon":-71.4325,"elev":15,"name":"Providence/Green Mem, RI, US","cover":"CLR","clouds":[],"fltCat":"VFR"},{"icaoId":"KPHX","receiptTime":"2026-04-14T05:54:12.490Z","obsTime":1776145860,"reportTime":"2026-04-14T06:00:00.000Z","temp":20.6,"dewp":2.8,"wdir":260,"wspd":9,"visib":"10+","altim":1014,"slp":1012.4,"qcField":4,"presTend":2.8,"maxT":26.1,"minT":20,"metarType":"METAR","rawOb":"METAR KPHX 140551Z 26009KT 10SM BKN085 BKN120 21/03 A2994 RMK AO2 PK WND 28027/0459 SLP124 T02060028 10261 20200 51028","lat":33.4278,"lon":-112.0037,"elev":338,"name":"Phoenix/Sky Harbor Intl, AZ, US","cover":"BKN","clouds":[{"cover":"BKN","base":8500},{"cover":"BKN","base":12000}],"fltCat":"VFR"},{"icaoId":"KOXR","receiptTime":"2026-04-14T05:54:12.476Z","obsTime":1776145860,"reportTime":"2026-04-14T06:00:00.000Z","temp":13.3,"dewp":10,"wdir":40,"wspd":6,"visib":"10+","altim":1017.7,"slp":1017.6,"qcField":14,"presTend":1.3,"maxT":17.8,"minT":13.3,"metarType":"METAR","rawOb":"METAR KOXR 140551Z AUTO 04006KT 10SM CLR 13/10 A3005 RMK AO2 SLP176 T01330100 10178 20133 51013 $","lat":34.2001,"lon":-119.2042,"elev":12,"name":"Oxnard Arpt, CA, US","cover":"CLR","clouds":[],"fltCat":"VFR"},{"icaoId":"KORF","receiptTime":"2026-04-14T05:54:12.450Z","obsTime":1776145860,"reportTime":"2026-04-14T06:00:00.000Z","temp":20,"dewp":11.7,"wdir":220,"wspd":13,"visib":"10+","altim":1020.1,"slp":1019.8,"qcField":4,"presTend":-0.8,"maxT":25.6,"minT":20,"metarType":"METAR","rawOb":"METAR KORF 140551Z 22013KT 10SM CLR 20/12 A3012 RMK AO2 SLP198 T02000117 10256 20200 58008","lat":36.9037,"lon":-76.1927,"elev":5,"name":"Norfolk Intl, VA, US","cover":"CLR","clouds":[],"fltCat":"VFR"},{"icaoId":"KORD","receiptTime":"2026-04-14T05:54:12.419Z","obsTime":1776145860,"reportTime":"2026-04-14T06:00:00.000Z","temp":22.2,"dewp":16.7,"wdir":210,"wspd":15,"wgst":28,"visib":"10+","altim":1007.5,"slp":1007.1,"qcField":4,"presTend":0.1,"maxT":23.3,"minT":22.2,"maxT24":26.1,"minT24":16.7,"pcp6hr":0.005,"metarType":"METAR","rawOb":"METAR KORD 140551Z 21015G28KT 10SM FEW048 BKN250 22/17 A2975 RMK AO2 PK WND 21029/0510 SLP071 60000 T02220167 10233 20222 402610167 50001","lat":41.9602,"lon":-87.9316,"elev":202,"name":"Chicago/O'Hare Intl, IL, US","cover":"BKN","clouds":[{"cover":"FEW","base":4800},{"cover":"BKN","base":25000}],"fltCat":"VFR"},{"icaoId":"KMYL","receiptTime":"2026-04-14T05:54:12.397Z","obsTime":1776145860,"reportTime":"2026-04-14T06:00:00.000Z","temp":1.7,"dewp":1.1,"wdir":0,"wspd":0,"visib":"10+","altim":1016,"slp":1017.6,"qcField":6,"presTend":0.2,"maxT":2.8,"minT":1.1,"pcp6hr":0.04,"metarType":"METAR","rawOb":"METAR KMYL 140551Z AUTO 00000KT 10SM OVC005 02/01 A3000 RMK AO2 SLP176 60004 T00170011 10028 20011 50002","lat":44.8943,"lon":-116.0998,"elev":1532,"name":"McCall Muni, ID, US","cover":"OVC","clouds":[{"cover":"OVC","base":500}],"fltCat":"IFR"},{"icaoId":"KLGU","receiptTime":"2026-04-14T05:54:12.330Z","obsTime":1776145860,"reportTime":"2026-04-14T06:00:00.000Z","temp":6.7,"dewp":2.8,"wdir":310,"wspd":4,"visib":"10+","altim":1014.6,"slp":1013.8,"qcField":6,"presTend":1,"maxT":12.8,"minT":6.7,"metarType":"METAR","rawOb":"METAR KLGU 140551Z AUTO 31004KT 10SM BKN070 OVC080 07/03 A2996 RMK AO2 SLP138 T00670028 10128 20067 51010","lat":41.7865,"lon":-111.8519,"elev":1359,"name":"Logan/Cache Arpt, UT, US","cover":"OVC","clouds":[{"cover":"BKN","base":7000},{"cover":"OVC","base":8000}],"fltCat":"VFR"},{"icaoId":"KLGA","receiptTime":"2026-04-14T05:54:12.298Z","obsTime":1776145860,"reportTime":"2026-04-14T06:00:00.000Z","temp":21.1,"dewp":12.2,"wdir":230,"wspd":6,"visib":"10+","altim":1015,"slp":1014.9,"qcField":12,"presTend":-0.2,"maxT":24.4,"minT":21.1,"metarType":"METAR","rawOb":"METAR KLGA 140551Z 23006KT 10SM FEW110 BKN250 21/12 A2997 RMK AO2 SLP149 T02110122 10244 20211 58002 $","lat":40.7794,"lon":-73.8803,"elev":9,"name":"New York/La Guardia Arpt, NY, US","cover":"BKN","clouds":[{"cover":"FEW","base":11000},{"cover":"BKN","base":25000}],"fltCat":"VFR"},{"icaoId":"KJFK","receiptTime":"2026-04-14T05:54:12.273Z","obsTime":1776145860,"reportTime":"2026-04-14T06:00:00.000Z","temp":16.1,"dewp":11.7,"wdir":220,"wspd":6,"visib":"10+","altim":1015.7,"slp":1015.5,"qcField":4,"presTend":-0.1,"maxT":20.6,"minT":16.1,"pcp6hr":0.005,"metarType":"METAR","rawOb":"METAR KJFK 140551Z 22006KT 10SM FEW100 SCT160 BKN250 16/12 A2999 RMK AO2 SLP155 60000 T01610117 10206 20161 58001","lat":40.6392,"lon":-73.7639,"elev":3,"name":"New York/JF Kennedy Intl, NY, US","cover":"BKN","clouds":[{"cover":"FEW","base":10000},{"cover":"SCT","base":16000},{"cover":"BKN","base":25000}],"fltCat":"VFR"},{"icaoId":"KCLE","receiptTime":"2026-04-14T05:54:13.022Z","obsTime":1776145860,"reportTime":"2026-04-14T06:00:00.000Z","temp":18.9,"dewp":15.6,"wdir":200,"wspd":7,"visib":"10+","altim":1014.3,"slp":1015.3,"qcField":12,"presTend":-2.7,"maxT":25,"minT":16.1,"pcp6hr":0.08,"metarType":"METAR","rawOb":"METAR KCLE 140551Z 20007KT 10SM SCT140 OVC170 19/16 A2995 RMK AO2 SLP153 60008 T01890156 10250 20161 56027 $","lat":41.4057,"lon":-81.8519,"elev":237,"name":"Cleveland/Hopkins Intl, OH, US","cover":"OVC","clouds":[{"cover":"SCT","base":14000},{"cover":"OVC","base":17000}],"fltCat":"VFR"},{"icaoId":"KSAT","receiptTime":"2026-04-14T05:54:12.716Z","obsTime":1776145860,"reportTime":"2026-04-14T06:00:00.000Z","temp":22.8,"dewp":19.4,"wdir":160,"wspd":14,"wgst":19,"visib":"10+","altim":1018.4,"slp":1016.4,"qcField":12,"presTend":1.2,"maxT":29.4,"minT":22.8,"maxT24":32.2,"minT24":21.7,"metarType":"METAR","rawOb":"METAR KSAT 140551Z 16014G19KT 10SM OVC016 23/19 A3007 RMK AO2 SLP164 T02280194 10294 20228 403220217 51012 $","lat":29.5443,"lon":-98.4839,"elev":246,"name":"San Antonio Intl, TX, US","cover":"OVC","clouds":[{"cover":"OVC","base":1600}],"fltCat":"MVFR"},{"icaoId":"KSAN","receiptTime":"2026-04-14T05:54:12.680Z","obsTime":1776145860,"reportTime":"2026-04-14T06:00:00.000Z","temp":15.6,"dewp":8.9,"wdir":300,"wspd":5,"visib":"10+","altim":1019.7,"slp":1019.6,"qcField":12,"presTend":1.1,"maxT":18.3,"minT":15.6,"metarType":"METAR","rawOb":"METAR KSAN 140551Z 30005KT 10SM SCT030 16/09 A3011 RMK AO2 SLP196 T01560089 10183 20156 50011 $","lat":32.7364,"lon":-117.1973,"elev":3,"name":"San Diego Intl Arpt, CA, US","cover":"SCT","clouds":[{"cover":"SCT","base":3000}],"fltCat":"VFR"},{"icaoId":"KCMH","receiptTime":"2026-04-14T05:54:13.663Z","obsTime":1776145860,"reportTime":"2026-04-14T06:00:00.000Z","temp":18.9,"dewp":8.9,"wdir":190,"wspd":9,"visib":"10+","altim":1017,"slp":1016.2,"qcField":4,"presTend":-1,"maxT":22.8,"minT":18.9,"metarType":"METAR","rawOb":"METAR KCMH 140551Z 19009KT 10SM FEW040 SCT250 19/09 A3003 RMK AO2 SLP162 T01890089 10228 20189 56010","lat":39.9907,"lon":-82.877,"elev":257,"name":"Columbus/Glenn Intl, OH, US","cover":"SCT","clouds":[{"cover":"FEW","base":4000},{"cover":"SCT","base":25000}],"fltCat":"VFR"},{"icaoId":"KBDL","receiptTime":"2026-04-14T05:54:13.378Z","obsTime":1776145860,"reportTime":"2026-04-14T06:00:00.000Z","temp":13.9,"dewp":11.7,"wdir":0,"wspd":0,"visib":"10+","altim":1014.6,"slp":1014.5,"qcField":4,"presTend":0.7,"maxT":21.7,"minT":13.3,"pcp6hr":0.005,"metarType":"METAR","rawOb":"METAR KBDL 140551Z 00000KT 10SM FEW060 FEW120 BKN250 14/12 A2996 RMK AO2 SLP145 60000 T01390117 10217 20133 50007","lat":41.9374,"lon":-72.682,"elev":52,"name":"Hartford/Bradley Intl, CT, US","cover":"BKN","clouds":[{"cover":"FEW","base":6000},{"cover":"FEW","base":12000},{"cover":"BKN","base":25000}],"fltCat":"VFR"},{"icaoId":"KPIT","receiptTime":"2026-04-14T05:54:13.109Z","obsTime":1776145860,"reportTime":"2026-04-14T06:00:00.000Z","temp":19.4,"dewp":10,"wdir":190,"wspd":4,"visib":"10+","altim":1017.7,"slp":1017.3,"qcField":4,"presTend":-0.5,"maxT":24.4,"minT":19.4,"metarType":"METAR","rawOb":"METAR KPIT 140551Z 19004KT 10SM BKN046 BKN150 19/10 A3005 RMK AO2 SLP173 T01940100 10244 20194 56005","lat":40.4814,"lon":-80.2083,"elev":339,"name":"Pittsburgh Intl, PA, US","cover":"BKN","clouds":[{"cover":"BKN","base":4600},{"cover":"BKN","base":15000}],"fltCat":"VFR"},{"icaoId":"KLUF","receiptTime":"2026-04-14T05:44:11.795Z","obsTime":1776144300,"reportTime":"2026-04-14T05:25:00.000Z","temp":21,"dewp":1,"wdir":230,"wspd":10,"visib":"10+","altim":1013.3,"slp":1012.3,"qcField":14,"metarType":"SPECI","rawOb":"SPECI KLUF 140525Z AUTO 23010KT 10SM BKN070 21/01 A2992 RMK AO2 SLP123 $","lat":33.538,"lon":-112.38,"elev":333,"name":"Phoenix/Luke AFB, AZ, US","cover":"BKN","clouds":[{"cover":"BKN","base":7000}],"fltCat":"VFR"},{"icaoId":"KHOB","receiptTime":"2026-04-14T04:58:05.470Z","obsTime":1776142500,"reportTime":"2026-04-14T05:00:00.000Z","temp":18,"dewp":-2,"wdir":270,"wspd":6,"visib":"10+","altim":1016.3,"qcField":6,"metarType":"METAR","rawOb":"METAR KHOB 140455Z AUTO 27006KT 10SM CLR 18/M02 A3001 RMK AO2","lat":32.6797,"lon":-103.2222,"elev":1112,"name":"Hobbs Arpt, NM, US","cover":"CLR","clouds":[],"fltCat":"VFR"},{"icaoId":"KSTL","receiptTime":"2026-04-14T04:54:14.010Z","obsTime":1776142260,"reportTime":"2026-04-14T05:00:00.000Z","temp":23.9,"dewp":16.7,"wdir":210,"wspd":13,"wgst":25,"visib":"10+","altim":1011.9,"slp":1010.7,"qcField":12,"metarType":"METAR","rawOb":"METAR KSTL 140451Z 21013G25KT 10SM FEW150 OVC250 24/17 A2988 RMK AO2 PK WND 21029/0427 SLP107 T02390167 $","lat":38.7525,"lon":-90.3734,"elev":163,"name":"St Louis/Lambert Intl, MO, US","cover":"OVC","clouds":[{"cover":"FEW","base":15000},{"cover":"OVC","base":25000}],"fltCat":"VFR"}]