[{"icaoId":"KGEU","receiptTime":"2026-04-17T12:47:08.040Z","obsTime":1776430020,"reportTime":"2026-04-17T13:00:00.000Z","temp":16,"dewp":-2,"wdir":210,"wspd":5,"visib":"10+","altim":1009.6,"qcField":0,"metarType":"METAR","rawOb":"METAR KGEU 171247Z 21005KT 10SM CLR 16/M02 A2981 RMK FIRST","lat":33.528,"lon":-112.293,"elev":319,"name":"Glendale Muni, AZ, US","cover":"CLR","clouds":[],"fltCat":"VFR"},{"icaoId":"KPWT","receiptTime":"2026-04-17T12:47:07.958Z","obsTime":1776429900,"reportTime":"2026-04-17T12:45:00.000Z","temp":1,"dewp":1,"wdir":0,"wspd":0,"visib":"10+","altim":1026.8,"qcField":70,"metarType":"SPECI","rawOb":"SPECI KPWT 171245Z AUTO 00000KT 10SM SCT027 01/01 A3032 RMK AO2 FZRANO","lat":47.4942,"lon":-122.7594,"elev":143,"name":"Bremerton Arpt, WA, US","cover":"SCT","clouds":[{"cover":"SCT","base":2700}],"fltCat":"VFR"},{"icaoId":"KGJT","receiptTime":"2026-04-17T12:46:04.855Z","obsTime":1776429780,"reportTime":"2026-04-17T12:43:00.000Z","temp":-0.6,"dewp":-1.1,"wdir":270,"wspd":13,"visib":4,"altim":1016.7,"qcField":4,"wxString":"-SN","precip":0.005,"metarType":"SPECI","rawOb":"SPECI KGJT 171243Z 27013KT 4SM -SN BKN005 OVC033 M01/M01 A3002 RMK AO2 P0000 T10061011","lat":39.1344,"lon":-108.5408,"elev":1475,"name":"Grand Junction Rgnl, CO, US","cover":"OVC","clouds":[{"cover":"BKN","base":500},{"cover":"OVC","base":3300}],"fltCat":"IFR"},{"icaoId":"KAST","receiptTime":"2026-04-17T12:46:04.830Z","obsTime":1776429780,"reportTime":"2026-04-17T12:43:00.000Z","temp":4.4,"dewp":3.9,"wdir":130,"wspd":3,"visib":1.75,"altim":1026.8,"qcField":6,"wxString":"BR","metarType":"SPECI","rawOb":"SPECI KAST 171243Z AUTO 13003KT 1 3/4SM BR FEW020 SCT050 04/04 A3032 RMK AO2 T00440039","lat":46.157,"lon":-123.8833,"elev":3,"name":"Astoria Rgnl, OR, US","cover":"SCT","clouds":[{"cover":"FEW","base":2000},{"cover":"SCT","base":5000}],"fltCat":"IFR"},{"icaoId":"KMIA","receiptTime":"2026-04-17T12:44:08.121Z","obsTime":1776429720,"reportTime":"2026-04-17T12:42:00.000Z","temp":25,"dewp":22.2,"wdir":0,"wspd":0,"visib":"10+","altim":1017.7,"qcField":0,"metarType":"SPECI","rawOb":"SPECI KMIA 171242Z 00000KT 10SM SCT013 BKN017 BKN050 25/22 A3005 RMK T02500222","lat":25.7881,"lon":-80.3169,"elev":1,"name":"Miami Intl, FL, US","cover":"BKN","clouds":[{"cover":"SCT","base":1300},{"cover":"BKN","base":1700},{"cover":"BKN","base":5000}],"fltCat":"MVFR"},{"icaoId":"KDTW","receiptTime":"2026-04-17T12:44:02.348Z","obsTime":1776429600,"reportTime":"2026-04-17T12:40:00.000Z","temp":11.7,"dewp":11.7,"wdir":0,"wspd":0,"visib":0.25,"altim":1016.3,"qcField":4,"wxString":"FG","vertVis":2,"metarType":"SPECI","rawOb":"SPECI KDTW 171240Z 00000KT 1/4SM R03R/1200V1800FT FG VV002 12/12 A3001 RMK AO2 T01170117","lat":42.2311,"lon":-83.3312,"elev":192,"name":"Detroit/Metro Wayne Cnty, MI, US","cover":"OVX","clouds":[{"cover":"OVX","base":200}],"fltCat":"LIFR"},{"icaoId":"KCPR","receiptTime":"2026-04-17T12:42:20.637Z","obsTime":1776429540,"reportTime":"2026-04-17T12:39:00.000Z","temp":-4.4,"dewp":-4.4,"wdir":10,"wspd":3,"visib":2.5,"altim":1014,"qcField":4,"wxString":"-SN BR","precip":0.005,"metarType":"SPECI","rawOb":"SPECI KCPR 171239Z 01003KT 2 1/2SM -SN BR FEW008 OVC025 M04/M04 A2994 RMK AO2 P0000 T10441044","lat":42.8978,"lon":-106.4736,"elev":1623,"name":"Casper/Natrona Cnty, WY, US","cover":"OVC","clouds":[{"cover":"FEW","base":800},{"cover":"OVC","base":2500}],"fltCat":"IFR"},{"icaoId":"KMTJ","receiptTime":"2026-04-17T12:40:15.786Z","obsTime":1776429420,"reportTime":"2026-04-17T12:37:00.000Z","temp":-0.6,"dewp":-2.8,"wdir":350,"wspd":9,"wgst":22,"visib":4,"altim":1015,"qcField":6,"wxString":"-SN BR","precip":0.005,"metarType":"SPECI","rawOb":"SPECI KMTJ 171237Z AUTO 35009G22KT 4SM -SN BR SCT015 BKN021 OVC110 M01/M03 A2997 RMK AO2 PK WND 33029/1201 SNB22 P0000 T10061028","lat":38.5054,"lon":-107.8981,"elev":1755,"name":"Montrose Rgnl, CO, US","cover":"OVC","clouds":[{"cover":"SCT","base":1500},{"cover":"BKN","base":2100},{"cover":"OVC","base":11000}],"fltCat":"MVFR"},{"icaoId":"KASE","receiptTime":"2026-04-17T12:40:15.758Z","obsTime":1776429420,"reportTime":"2026-04-17T12:37:00.000Z","temp":-3.3,"dewp":-5,"wdir":360,"wspd":10,"visib":2.5,"altim":1011.3,"qcField":14,"wxString":"-SN BR","precip":0.005,"metarType":"SPECI","rawOb":"SPECI KASE 171237Z AUTO 36010KT 2 1/2SM -SN BR FEW020 OVC029 M03/M05 A2986 RMK AO2 SNB11 P0000 T10331050 $","lat":39.2299,"lon":-106.8705,"elev":2384,"name":"Aspen/Pitkin Cnty, CO, US","cover":"OVC","clouds":[{"cover":"FEW","base":2000},{"cover":"OVC","base":2900}],"fltCat":"IFR"},{"icaoId":"KMDW","receiptTime":"2026-04-17T12:40:03.632Z","obsTime":1776429360,"reportTime":"2026-04-17T12:36:00.000Z","temp":12.2,"dewp":10.6,"wdir":110,"wspd":5,"visib":4,"altim":1013.3,"qcField":4,"wxString":"BR","metarType":"SPECI","rawOb":"SPECI KMDW 171236Z 11005KT 4SM BR BKN250 12/11 A2992 RMK AO2 T01220106","lat":41.7841,"lon":-87.7552,"elev":186,"name":"Chicago/Midway Intl, IL, US","cover":"BKN","clouds":[{"cover":"BKN","base":25000}],"fltCat":"MVFR"},{"icaoId":"KBUF","receiptTime":"2026-04-17T12:40:08.806Z","obsTime":1776429360,"reportTime":"2026-04-17T12:36:00.000Z","temp":11.1,"dewp":10.6,"wdir":310,"wspd":3,"visib":1.5,"altim":1015.3,"qcField":4,"wxString":"-DZ BR","precip":0.005,"metarType":"SPECI","rawOb":"SPECI KBUF 171236Z 31003KT 1 1/2SM -DZ BR OVC004 11/11 A2998 RMK AO2 DZB35 P0000 T01110106","lat":42.94,"lon":-78.7361,"elev":217,"name":"Buffalo-Niagara Intl, NY, US","cover":"OVC","clouds":[{"cover":"OVC","base":400}],"fltCat":"LIFR"},{"icaoId":"KHTH","receiptTime":"2026-04-17T12:40:10.159Z","obsTime":1776429300,"reportTime":"2026-04-17T12:35:00.000Z","temp":-2,"dewp":-13,"wdir":230,"wspd":6,"visib":"10+","altim":1024.5,"qcField":6,"metarType":"METAR","rawOb":"METAR KHTH 171235Z AUTO 23006KT 10SM CLR M02/M13 A3025 RMK A01","lat":38.5448,"lon":-118.6314,"elev":1281,"name":"Hawthorne Muni, NV, US","cover":"CLR","clouds":[],"fltCat":"VFR"},{"icaoId":"KCXP","receiptTime":"2026-04-17T12:40:09.722Z","obsTime":1776429300,"reportTime":"2026-04-17T12:35:00.000Z","temp":-4,"dewp":-11,"wdir":0,"wspd":0,"visib":"10+","altim":1023.8,"qcField":6,"metarType":"METAR","rawOb":"METAR KCXP 171235Z AUTO 00000KT 10SM CLR M04/M11 A3023 RMK AO2","lat":39.1905,"lon":-119.7319,"elev":1431,"name":"Carson City Arpt, NV, US","cover":"CLR","clouds":[],"fltCat":"VFR"},{"icaoId":"KHII","receiptTime":"2026-04-17T12:40:12.994Z","obsTime":1776429300,"reportTime":"2026-04-17T12:35:00.000Z","temp":18,"dewp":-9,"wdir":340,"wspd":20,"wgst":29,"visib":"10+","altim":1012.3,"qcField":6,"metarType":"METAR","rawOb":"METAR KHII 171235Z AUTO 34020G29KT 10SM CLR 18/M09 A2989 RMK AO2","lat":34.5659,"lon":-114.3522,"elev":241,"name":"Lake Havasu City Arpt, AZ, US","cover":"CLR","clouds":[],"fltCat":"VFR"},{"icaoId":"KRTS","receiptTime":"2026-04-17T12:40:04.035Z","obsTime":1776429300,"reportTime":"2026-04-17T12:35:00.000Z","temp":-4,"dewp":-14,"wdir":70,"wspd":6,"visib":"10+","altim":1023.1,"qcField":6,"metarType":"METAR","rawOb":"METAR KRTS 171235Z AUTO 07006KT 10SM CLR M04/M14 A3021 RMK AO2","lat":39.6658,"lon":-119.8731,"elev":1537,"name":"Reno/Stead Arpt, NV, US","cover":"CLR","clouds":[],"fltCat":"VFR"},{"icaoId":"KSEZ","receiptTime":"2026-04-17T12:40:14.918Z","obsTime":1776429300,"reportTime":"2026-04-17T12:35:00.000Z","temp":11,"dewp":-7,"wdir":0,"wspd":0,"visib":"10+","altim":1013.6,"qcField":6,"metarType":"METAR","rawOb":"METAR KSEZ 171235Z AUTO 00000KT 10SM CLR 11/M07 A2993 RMK AO2","lat":34.8467,"lon":-111.7884,"elev":1455,"name":"Sedona Arpt, AZ, US","cover":"CLR","clouds":[],"fltCat":"VFR"},{"icaoId":"KMHR","receiptTime":"2026-04-17T12:40:06.425Z","obsTime":1776429300,"reportTime":"2026-04-17T12:35:00.000Z","temp":10,"dewp":-3,"wdir":320,"wspd":10,"visib":"10+","altim":1016,"qcField":6,"metarType":"METAR","rawOb":"METAR KMHR 171235Z AUTO 32010KT 10SM CLR 10/M03 A3000 RMK AO2","lat":38.56,"lon":-121.284,"elev":30,"name":"Sacramento/Mather Fld, CA, US","cover":"CLR","clouds":[],"fltCat":"VFR"},{"icaoId":"KIFP","receiptTime":"2026-04-17T12:40:08.121Z","obsTime":1776429300,"reportTime":"2026-04-17T12:35:00.000Z","temp":16,"dewp":-8,"wdir":10,"wspd":31,"wgst":38,"visib":"10+","altim":1013.3,"qcField":6,"metarType":"METAR","rawOb":"METAR KIFP 171235Z AUTO 01031G38KT 10SM CLR 16/M08 A2992 RMK AO2","lat":35.1487,"lon":-114.5611,"elev":210,"name":"Bullhead City Intl, AZ, US","cover":"CLR","clouds":[],"fltCat":"VFR"},{"icaoId":"KLRU","receiptTime":"2026-04-17T12:38:38.514Z","obsTime":1776429300,"reportTime":"2026-04-17T12:35:00.000Z","temp":9.3,"dewp":-10.3,"wdir":260,"wspd":8,"visib":"10+","altim":1014,"qcField":6,"metarType":"METAR","rawOb":"METAR KLRU 171235Z AUTO 26008KT 10SM CLR 09/M10 A2994 RMK AO2 T00931103","lat":32.2884,"lon":-106.9131,"elev":1355,"name":"Las Cruces Intl, NM, US","cover":"CLR","clouds":[],"fltCat":"VFR"},{"icaoId":"KMEV","receiptTime":"2026-04-17T12:40:08.523Z","obsTime":1776429300,"reportTime":"2026-04-17T12:35:00.000Z","temp":-8,"dewp":-11,"wdir":80,"wspd":5,"visib":"10+","altim":1023.1,"qcField":6,"metarType":"METAR","rawOb":"METAR KMEV 171235Z AUTO 08005KT 10SM FEW039 M08/M11 A3021 RMK AO2","lat":38.9963,"lon":-119.75,"elev":1437,"name":"Minden-Tahoe Arpt, NV, US","cover":"FEW","clouds":[{"cover":"FEW","base":3900}],"fltCat":"VFR"},{"icaoId":"KHCR","receiptTime":"2026-04-17T12:38:34.920Z","obsTime":1776429300,"reportTime":"2026-04-17T12:35:00.000Z","temp":-5.6,"dewp":-9.4,"wdir":0,"wspd":0,"visib":"10+","altim":1019.7,"qcField":14,"metarType":"METAR","rawOb":"METAR KHCR 171235Z AUTO 00000KT 10SM FEW046 BKN065 OVC080 M06/M09 A3011 RMK AO2 T10561094 $","lat":40.4774,"lon":-111.4329,"elev":1708,"name":"Heber City Muni, UT, US","cover":"OVC","clouds":[{"cover":"FEW","base":4600},{"cover":"BKN","base":6500},{"cover":"OVC","base":8000}],"fltCat":"VFR"},{"icaoId":"KBVU","receiptTime":"2026-04-17T12:36:05.599Z","obsTime":1776429300,"reportTime":"2026-04-17T12:35:00.000Z","temp":11,"dewp":-24,"wdir":360,"wspd":21,"wgst":30,"visib":"10+","altim":1017.7,"qcField":6,"metarType":"METAR","rawOb":"METAR KBVU 171235Z AUTO 36021G30KT 10SM CLR 11/M24 A3005 RMK AO2","lat":35.9489,"lon":-114.8633,"elev":654,"name":"Boulder City Muni, NV, US","cover":"CLR","clouds":[],"fltCat":"VFR"},{"icaoId":"KHAF","receiptTime":"2026-04-17T12:38:33.422Z","obsTime":1776429300,"reportTime":"2026-04-17T12:35:00.000Z","temp":13,"dewp":-7,"wdir":0,"wspd":0,"visib":"10+","altim":1017,"qcField":6,"metarType":"METAR","rawOb":"METAR KHAF 171235Z AUTO 00000KT 10SM CLR 13/M07 A3003 RMK AO2","lat":37.5136,"lon":-122.4996,"elev":11,"name":"Half Moon Bay Arpt, CA, US","cover":"CLR","clouds":[],"fltCat":"VFR"},{"icaoId":"KSOW","receiptTime":"2026-04-17T12:38:33.387Z","obsTime":1776429300,"reportTime":"2026-04-17T12:35:00.000Z","temp":8,"dewp":-8,"wdir":210,"wspd":9,"visib":"10+","altim":1015,"qcField":6,"metarType":"METAR","rawOb":"METAR KSOW 171235Z AUTO 21009KT 10SM CLR 08/M08 A2997 RMK AO2","lat":34.2686,"lon":-110.0019,"elev":1954,"name":"Show Low Muni, AZ, US","cover":"CLR","clouds":[],"fltCat":"VFR"},{"icaoId":"KCHD","receiptTime":"2026-04-17T12:38:38.935Z","obsTime":1776429300,"reportTime":"2026-04-17T12:35:00.000Z","temp":17.7,"dewp":-1.6,"wdir":160,"wspd":8,"visib":"10+","altim":1010.6,"qcField":14,"metarType":"METAR","rawOb":"METAR KCHD 171235Z AUTO 16008KT 10SM CLR 18/M02 A2984 RMK AO2 T01771016 $","lat":33.2669,"lon":-111.8086,"elev":378,"name":"Chandler Muni, AZ, US","cover":"CLR","clouds":[],"fltCat":"VFR"},{"icaoId":"KSUN","receiptTime":"2026-04-17T12:38:33.526Z","obsTime":1776429300,"reportTime":"2026-04-17T12:35:00.000Z","wdir":300,"wspd":9,"visib":"10+","altim":1021.8,"qcField":6,"metarType":"METAR","rawOb":"METAR KSUN 171235Z AUTO 30009KT 10SM CLR A3017 RMK AO2","lat":43.4969,"lon":-114.2923,"elev":1619,"name":"Hailey/Friedman Mem, ID, US","cover":"CLR","clouds":[],"fltCat":"VFR"},{"icaoId":"KEGE","receiptTime":"2026-04-17T12:36:03.514Z","obsTime":1776429180,"reportTime":"2026-04-17T12:33:00.000Z","temp":-3,"dewp":-5,"wdir":260,"wspd":7,"visib":1.5,"altim":1013,"qcField":70,"wxString":"-SN BR","precip":0.005,"metarType":"SPECI","rawOb":"SPECI KEGE 171233Z AUTO 26007KT 1 1/2SM -SN BR OVC034 M03/M05 A2991 RMK AO2 RAE1158UPB1158E1159SNB1159 P0000 FZRANO","lat":39.6448,"lon":-106.9176,"elev":1993,"name":"Eagle Cnty Rgnl, CO, US","cover":"OVC","clouds":[{"cover":"OVC","base":3400}],"fltCat":"IFR"},{"icaoId":"KHDN","receiptTime":"2026-04-17T12:34:04.767Z","obsTime":1776429060,"reportTime":"2026-04-17T12:31:00.000Z","temp":-7,"dewp":-7,"wdir":270,"wspd":9,"visib":0.75,"altim":1015.7,"qcField":70,"wxString":"-SN BR","precip":0.005,"metarType":"SPECI","rawOb":"SPECI KHDN 171231Z AUTO 27009KT 3/4SM -SN BR FEW006 OVC020 M07/M07 A2999 RMK AO2 P0000 FZRANO","lat":40.4842,"lon":-107.2296,"elev":2012,"name":"Hayden/Yampa Valley Arpt, CO, US","cover":"OVC","clouds":[{"cover":"FEW","base":600},{"cover":"OVC","base":2000}],"fltCat":"LIFR"},{"icaoId":"KORD","receiptTime":"2026-04-17T12:32:08.045Z","obsTime":1776428940,"reportTime":"2026-04-17T12:29:00.000Z","temp":12.2,"dewp":11.1,"wdir":130,"wspd":5,"visib":3,"altim":1013,"qcField":4,"wxString":"BR","metarType":"SPECI","rawOb":"SPECI KORD 171229Z 13005KT 3SM BR BKN250 12/11 A2991 RMK AO2 T01220111","lat":41.9602,"lon":-87.9316,"elev":202,"name":"Chicago/O'Hare Intl, IL, US","cover":"BKN","clouds":[{"cover":"BKN","base":25000}],"fltCat":"MVFR"},{"icaoId":"KCRP","receiptTime":"2026-04-17T12:32:05.646Z","obsTime":1776428880,"reportTime":"2026-04-17T12:28:00.000Z","temp":23.3,"dewp":21.7,"wdir":160,"wspd":11,"visib":"10+","altim":1011.9,"qcField":12,"metarType":"SPECI","rawOb":"SPECI KCRP 171228Z 16011KT 10SM BKN017 OVC250 23/22 A2988 RMK AO2 T02330217 $","lat":27.7734,"lon":-97.513,"elev":11,"name":"Corpus Christi Intl, TX, US","cover":"OVC","clouds":[{"cover":"BKN","base":1700},{"cover":"OVC","base":25000}],"fltCat":"MVFR"},{"icaoId":"KJAC","receiptTime":"2026-04-17T12:30:07.685Z","obsTime":1776428880,"reportTime":"2026-04-17T12:28:00.000Z","temp":-11,"dewp":-12,"wdir":30,"wspd":7,"visib":3,"altim":1017,"qcField":70,"wxString":"-SN BR","precip":0.005,"metarType":"SPECI","rawOb":"SPECI KJAC 171228Z AUTO 03007KT 3SM -SN BR CLR M11/M12 A3003 RMK AO2 SNE1159B18 P0000 FZRANO","lat":43.6129,"lon":-110.7366,"elev":1967,"name":"Jackson Hole Arpt, WY, US","cover":"CLR","clouds":[],"fltCat":"MVFR"},{"icaoId":"KHRL","receiptTime":"2026-04-17T12:30:09.025Z","obsTime":1776428760,"reportTime":"2026-04-17T12:26:00.000Z","temp":23.3,"dewp":22.2,"wdir":150,"wspd":8,"visib":8,"altim":1011.6,"qcField":4,"metarType":"SPECI","rawOb":"SPECI KHRL 171226Z 15008KT 8SM SCT017 OVC030 23/22 A2987 RMK AO2 T02330222","lat":26.2303,"lon":-97.6556,"elev":9,"name":"Harlingen/Valley Intl, TX, US","cover":"OVC","clouds":[{"cover":"SCT","base":1700},{"cover":"OVC","base":3000}],"fltCat":"MVFR"},{"icaoId":"KPIT","receiptTime":"2026-04-17T12:30:09.139Z","obsTime":1776428760,"reportTime":"2026-04-17T12:26:00.000Z","temp":14.4,"dewp":12.2,"wdir":330,"wspd":5,"visib":"10+","altim":1016,"qcField":4,"metarType":"SPECI","rawOb":"SPECI KPIT 171226Z 33005KT 10SM BKN008 BKN250 14/12 A3000 RMK AO2 T01440122","lat":40.4814,"lon":-80.2083,"elev":339,"name":"Pittsburgh Intl, PA, US","cover":"BKN","clouds":[{"cover":"BKN","base":800},{"cover":"BKN","base":25000}],"fltCat":"IFR"},{"icaoId":"KVEL","receiptTime":"2026-04-17T12:30:08.960Z","obsTime":1776428700,"reportTime":"2026-04-17T12:25:00.000Z","temp":-3.3,"dewp":-5.6,"wdir":120,"wspd":3,"visib":6,"altim":1017.4,"qcField":6,"wxString":"-SN BR","precip":0.005,"metarType":"SPECI","rawOb":"SPECI KVEL 171225Z AUTO 12003KT 6SM -SN BR FEW019 OVC038 M03/M06 A3004 RMK AO2 P0000 T10331056","lat":40.4429,"lon":-109.5128,"elev":1604,"name":"Vernal Rgnl, UT, US","cover":"OVC","clouds":[{"cover":"FEW","base":1900},{"cover":"OVC","base":3800}],"fltCat":"VFR"},{"icaoId":"KROC","receiptTime":"2026-04-17T12:30:08.238Z","obsTime":1776428520,"reportTime":"2026-04-17T12:22:00.000Z","temp":12.2,"dewp":11.7,"wdir":340,"wspd":8,"visib":2.5,"altim":1014.6,"qcField":12,"wxString":"-RA BR","precip":0.01,"metarType":"SPECI","rawOb":"SPECI KROC 171222Z 34008KT 2 1/2SM -RA BR OVC004 12/12 A2996 RMK AO2 DZE10RAB10 P0001 T01220117 $","lat":43.1172,"lon":-77.6754,"elev":166,"name":"Rochester Intl Arpt, NY, US","cover":"OVC","clouds":[{"cover":"OVC","base":400}],"fltCat":"LIFR"},{"icaoId":"KGPI","receiptTime":"2026-04-17T12:24:07.444Z","obsTime":1776428460,"reportTime":"2026-04-17T12:21:00.000Z","temp":-2.8,"dewp":-3.3,"wdir":0,"wspd":0,"visib":3,"altim":1019,"qcField":6,"wxString":"BR","metarType":"SPECI","rawOb":"SPECI KGPI 171221Z AUTO 00000KT 3SM BR SCT001 BKN047 M03/M03 A3009 RMK AO2 VIS 1/2 NE T10281033","lat":48.3041,"lon":-114.2643,"elev":903,"name":"Kalispell/Glacier Park Intl, MT, US","cover":"BKN","clouds":[{"cover":"SCT","base":100},{"cover":"BKN","base":4700}],"fltCat":"MVFR"},{"icaoId":"KPVU","receiptTime":"2026-04-17T12:22:09.110Z","obsTime":1776428400,"reportTime":"2026-04-17T12:20:00.000Z","temp":-2,"dewp":-6,"wdir":0,"wspd":0,"visib":"10+","altim":1022.1,"qcField":68,"metarType":"SPECI","rawOb":"SPECI KPVU 171220Z 00000KT 10SM SCT031 M02/M06 A3018 RMK AO2 FZRANO","lat":40.224,"lon":-111.7252,"elev":1370,"name":"Provo Muni, UT, US","cover":"SCT","clouds":[{"cover":"SCT","base":3100}],"fltCat":"VFR"},{"icaoId":"KBJC","receiptTime":"2026-04-17T12:20:17.795Z","obsTime":1776428100,"reportTime":"2026-04-17T12:15:00.000Z","temp":1,"dewp":-3,"wdir":140,"wspd":6,"visib":"10+","altim":1011.6,"qcField":6,"metarType":"METAR","rawOb":"METAR KBJC 171215Z AUTO 14006KT 10SM SCT027 01/M03 A2987 RMK AO2","lat":39.9008,"lon":-105.1042,"elev":1694,"name":"Rocky Mtn Metro, CO, US","cover":"SCT","clouds":[{"cover":"SCT","base":2700}],"fltCat":"VFR"},{"icaoId":"KHOB","receiptTime":"2026-04-17T12:15:37.841Z","obsTime":1776428100,"reportTime":"2026-04-17T12:15:00.000Z","temp":14,"dewp":14,"wdir":200,"wspd":6,"visib":0.13,"altim":1010.9,"qcField":0,"wxString":"FG","metarType":"SPECI","rawOb":"SPECI KHOB 171215Z 20006KT 1/8SM FG OVC001 14/14 A2985","lat":32.6797,"lon":-103.2222,"elev":1112,"name":"Hobbs Arpt, NM, US","cover":"OVC","clouds":[{"cover":"OVC","base":100}],"fltCat":"LIFR"},{"icaoId":"KBTV","receiptTime":"2026-04-17T12:18:33.559Z","obsTime":1776428040,"reportTime":"2026-04-17T12:14:00.000Z","temp":9.4,"dewp":7.2,"wdir":360,"wspd":10,"visib":"10+","altim":1013.6,"qcField":4,"metarType":"SPECI","rawOb":"SPECI KBTV 171214Z 36010KT 10SM OVC008 09/07 A2993 RMK AO2 T00940072","lat":44.4682,"lon":-73.1499,"elev":101,"name":"Burlington Intl, VT, US","cover":"OVC","clouds":[{"cover":"OVC","base":800}],"fltCat":"IFR"},{"icaoId":"KCNY","receiptTime":"2026-04-17T12:16:03.593Z","obsTime":1776427920,"reportTime":"2026-04-17T12:12:00.000Z","temp":2.2,"dewp":-8.9,"wdir":310,"wspd":13,"wgst":23,"visib":"10+","altim":1017,"qcField":14,"metarType":"SPECI","rawOb":"SPECI KCNY 171212Z AUTO 31013G23KT 10SM OVC065 02/M09 A3003 RMK AO2 PK WND 32032/1156 WSHFT 1152 T00221089 $","lat":38.7501,"lon":-109.7627,"elev":1392,"name":"Moab/Canyonland Fld, UT, US","cover":"OVC","clouds":[{"cover":"OVC","base":6500}],"fltCat":"VFR"},{"icaoId":"KAUS","receiptTime":"2026-04-17T12:16:08.143Z","obsTime":1776427800,"reportTime":"2026-04-17T12:10:00.000Z","temp":21.1,"dewp":20,"wdir":160,"wspd":8,"visib":6,"altim":1012.3,"qcField":5,"wxString":"BR","metarType":"SPECI","rawOb":"SPECI KAUS 171210Z COR 16008KT 6SM BR BKN009 BKN030 21/20 A2989 RMK AO2 CIG 008V010 T02110200","lat":30.1831,"lon":-97.6806,"elev":148,"name":"Austin/Bergstrom Intl, TX, US","cover":"BKN","clouds":[{"cover":"BKN","base":900},{"cover":"BKN","base":3000}],"fltCat":"IFR"},{"icaoId":"KABI","receiptTime":"2026-04-17T12:14:14.345Z","obsTime":1776427800,"reportTime":"2026-04-17T12:10:00.000Z","temp":20.6,"dewp":17.8,"wdir":180,"wspd":12,"visib":"10+","altim":1009.6,"qcField":12,"metarType":"SPECI","rawOb":"SPECI KABI 171210Z 18012KT 10SM SCT030 21/18 A2981 RMK AO2 T02060178 $","lat":32.4106,"lon":-99.6821,"elev":543,"name":"Abilene Rgnl, TX, US","cover":"SCT","clouds":[{"cover":"SCT","base":3000}],"fltCat":"VFR"},{"icaoId":"KAMA","receiptTime":"2026-04-17T12:08:35.772Z","obsTime":1776427500,"reportTime":"2026-04-17T12:05:00.000Z","temp":17.2,"dewp":14.4,"wdir":210,"wspd":16,"wgst":24,"visib":"10+","altim":1008.9,"qcField":4,"metarType":"SPECI","rawOb":"SPECI KAMA 171205Z 21016G24KT 10SM SCT015 17/14 A2979 RMK AO2 T01720144","lat":35.2203,"lon":-101.7173,"elev":1102,"name":"Amarillo Intl Arpt, TX, US","cover":"SCT","clouds":[{"cover":"SCT","base":1500}],"fltCat":"VFR"},{"icaoId":"KBCE","receiptTime":"2026-04-17T12:08:35.794Z","obsTime":1776427440,"reportTime":"2026-04-17T12:04:00.000Z","temp":-7.8,"dewp":-11.7,"wdir":320,"wspd":14,"wgst":20,"visib":"10+","altim":1017,"qcField":6,"metarType":"SPECI","rawOb":"SPECI KBCE 171204Z AUTO 32014G20KT 10SM SCT031 SCT080 M08/M12 A3003 RMK AO2 T10781117","lat":37.7013,"lon":-112.149,"elev":2311,"name":"Bryce Canyon Arpt, UT, US","cover":"SCT","clouds":[{"cover":"SCT","base":3100},{"cover":"SCT","base":8000}],"fltCat":"VFR"},{"icaoId":"KCRQ","receiptTime":"2026-04-17T12:06:03.167Z","obsTime":1776427320,"reportTime":"2026-04-17T12:02:00.000Z","temp":13.3,"dewp":8.9,"wdir":80,"wspd":4,"visib":"10+","altim":1013.6,"qcField":6,"metarType":"SPECI","rawOb":"SPECI KCRQ 171202Z AUTO 08004KT 10SM BKN026 13/09 A2993 RMK AO2 T01330089","lat":33.1299,"lon":-117.2765,"elev":96,"name":"Carlsbad/Palomar Arpt, CA, US","cover":"BKN","clouds":[{"cover":"BKN","base":2600}],"fltCat":"MVFR"},{"icaoId":"KCLL","receiptTime":"2026-04-17T12:06:03.151Z","obsTime":1776427320,"reportTime":"2026-04-17T12:02:00.000Z","temp":21.7,"dewp":20,"wdir":170,"wspd":9,"visib":9,"altim":1013.3,"qcField":6,"metarType":"SPECI","rawOb":"SPECI KCLL 171202Z AUTO 17009KT 9SM FEW012 OVC020 22/20 A2992 RMK AO2 T02170200","lat":30.5912,"lon":-96.3631,"elev":96,"name":"College Station/Easterwood Arpt, TX, US","cover":"OVC","clouds":[{"cover":"FEW","base":1200},{"cover":"OVC","base":2000}],"fltCat":"MVFR"},{"icaoId":"KMFE","receiptTime":"2026-04-17T12:04:02.618Z","obsTime":1776427200,"reportTime":"2026-04-17T12:00:00.000Z","temp":23.9,"dewp":22.2,"wdir":140,"wspd":12,"visib":9,"altim":1010.9,"qcField":4,"metarType":"SPECI","rawOb":"SPECI KMFE 171200Z 14012KT 9SM BKN030 24/22 A2985 RMK AO2 T02390222","lat":26.1791,"lon":-98.2445,"elev":29,"name":"McAllen/Miller Intl, TX, US","cover":"BKN","clouds":[{"cover":"BKN","base":3000}],"fltCat":"MVFR"},{"icaoId":"KFLG","receiptTime":"2026-04-17T12:00:24.946Z","obsTime":1776427020,"reportTime":"2026-04-17T12:00:00.000Z","temp":-1.1,"dewp":-8.9,"wdir":0,"wspd":0,"visib":"10+","altim":1014.6,"slp":1009.3,"qcField":6,"presTend":0.2,"maxT":7.8,"minT":-1.1,"metarType":"METAR","rawOb":"METAR KFLG 171157Z AUTO 00000KT 10SM CLR M01/M09 A2996 RMK AO2 SLP093 T10111089 10078 21011 53002","lat":35.1443,"lon":-111.6664,"elev":2134,"name":"Flagstaff/Pulliam Arpt, AZ, US","cover":"CLR","clouds":[],"fltCat":"VFR"},{"icaoId":"KNFL","receiptTime":"2026-04-17T12:00:21.425Z","obsTime":1776427020,"reportTime":"2026-04-17T12:00:00.000Z","temp":-6.1,"dewp":-12.2,"wdir":190,"wspd":3,"visib":"10+","altim":1024.1,"slp":1020.3,"qcField":6,"presTend":-0.2,"maxT":1.1,"minT":-6.1,"metarType":"METAR","rawOb":"METAR KNFL 171157Z AUTO 19003KT 10SM CLR M06/M12 A3024 RMK AO2 SLP203 T10611122 10011 21061 55002","lat":39.417,"lon":-118.705,"elev":1199,"name":"Fallon , NV, US","cover":"CLR","clouds":[],"fltCat":"VFR"},{"icaoId":"KNYL","receiptTime":"2026-04-17T12:00:20.348Z","obsTime":1776427020,"reportTime":"2026-04-17T12:00:00.000Z","temp":18.3,"dewp":2.8,"wdir":300,"wspd":6,"visib":"10+","altim":1009.2,"slp":1009,"qcField":6,"presTend":0.5,"maxT":21.7,"minT":17.8,"metarType":"METAR","rawOb":"METAR KNYL 171157Z AUTO 30006KT 10SM CLR 18/03 A2980 RMK AO2 SLP090 T01830028 10217 20178 53005","lat":32.66,"lon":-114.6078,"elev":58,"name":"Yuma , AZ, US","cover":"CLR","clouds":[],"fltCat":"VFR"},{"icaoId":"KTPH","receiptTime":"2026-04-17T12:00:18.578Z","obsTime":1776426960,"reportTime":"2026-04-17T12:00:00.000Z","temp":-4.4,"dewp":-16.1,"wdir":360,"wspd":12,"visib":"10+","altim":1022.4,"slp":1021.9,"qcField":6,"presTend":0.3,"maxT":2.2,"minT":-4.4,"metarType":"METAR","rawOb":"METAR KTPH 171156Z AUTO 36012KT 10SM CLR M04/M16 A3019 RMK AO2 SLP219 T10441161 10022 21044 53003","lat":38.0505,"lon":-117.0906,"elev":1647,"name":"Tonopah Arpt, NV, US","cover":"CLR","clouds":[],"fltCat":"VFR"},{"icaoId":"KEKO","receiptTime":"2026-04-17T12:00:06.471Z","obsTime":1776426960,"reportTime":"2026-04-17T12:00:00.000Z","temp":-10.6,"dewp":-12.2,"wdir":0,"wspd":0,"visib":"10+","altim":1023.8,"slp":1027.2,"qcField":6,"presTend":0.6,"maxT":-5,"minT":-11.1,"pcp24hr":0.02,"metarType":"METAR","rawOb":"METAR KEKO 171156Z AUTO 00000KT 10SM CLR M11/M12 A3023 RMK AO2 SLP272 70002 T11061122 11050 21111 53006","lat":40.824,"lon":-115.7863,"elev":1541,"name":"Elko Rgnl, NV, US","cover":"CLR","clouds":[],"fltCat":"VFR"},{"icaoId":"KSBP","receiptTime":"2026-04-17T12:00:13.843Z","obsTime":1776426960,"reportTime":"2026-04-17T12:00:00.000Z","temp":14.4,"dewp":-3.3,"wdir":310,"wspd":11,"wgst":18,"visib":"10+","altim":1014.3,"slp":1014.1,"qcField":6,"presTend":0.2,"maxT":16.7,"minT":11.7,"metarType":"METAR","rawOb":"METAR KSBP 171156Z AUTO 31011G18KT 10SM CLR 14/M03 A2995 RMK AO2 SLP141 T01441033 10167 20117 51002","lat":35.2381,"lon":-120.644,"elev":52,"name":"San Luis Obispo/San Luis Cnty, CA, US","cover":"CLR","clouds":[],"fltCat":"VFR"},{"icaoId":"KCGZ","receiptTime":"2026-04-17T11:59:09.887Z","obsTime":1776426960,"reportTime":"2026-04-17T12:00:00.000Z","temp":15,"dewp":-3.3,"wdir":0,"wspd":0,"visib":"10+","altim":1010.9,"slp":1009.8,"qcField":14,"maxT":22.2,"minT":15,"metarType":"METAR","rawOb":"METAR KCGZ 171156Z AUTO 00000KT 10SM CLR 15/M03 A2985 RMK AO2 SLP098 6//// 7//// T01501033 10222 20150 $","lat":32.9531,"lon":-111.7725,"elev":444,"name":"Casa Granda Muni, AZ, US","cover":"CLR","clouds":[],"fltCat":"VFR"},{"icaoId":"KCOD","receiptTime":"2026-04-17T11:59:10.074Z","obsTime":1776426960,"reportTime":"2026-04-17T12:00:00.000Z","temp":-3.9,"dewp":-12.8,"wdir":0,"wspd":0,"visib":"10+","altim":1015.7,"slp":1018.4,"qcField":78,"presTend":0.7,"maxT":-1.7,"minT":-7.8,"metarType":"METAR","rawOb":"METAR KCOD 171156Z AUTO 00000KT 10SM CLR M04/M13 A2999 RMK AO2 SLP184 T10391128 11017 21078 53007 FZRANO $","lat":44.52,"lon":-109.0268,"elev":1550,"name":"Cody/Yellowstone Rgnl, WY, US","cover":"CLR","clouds":[],"fltCat":"VFR"},{"icaoId":"KSDF","receiptTime":"2026-04-17T12:00:18.231Z","obsTime":1776426960,"reportTime":"2026-04-17T12:00:00.000Z","temp":13.9,"dewp":11.1,"wdir":130,"wspd":3,"visib":"10+","altim":1017,"slp":1016.6,"qcField":4,"presTend":1.6,"maxT":19.4,"minT":13.9,"metarType":"METAR","rawOb":"METAR KSDF 171156Z 13003KT 10SM BKN350 14/11 A3003 RMK AO2 SLP166 T01390111 10194 20139 53016","lat":38.1774,"lon":-85.7308,"elev":146,"name":"Louisville Intl, KY, US","cover":"BKN","clouds":[{"cover":"BKN","base":35000}],"fltCat":"VFR"},{"icaoId":"KDUG","receiptTime":"2026-04-17T12:02:10.907Z","obsTime":1776426960,"reportTime":"2026-04-17T12:00:00.000Z","temp":12.2,"dewp":-5,"wdir":120,"wspd":6,"visib":"10+","altim":1014,"slp":1008.1,"qcField":38,"presTend":0.1,"maxT":17.8,"minT":11.1,"metarType":"METAR","rawOb":"METAR KDUG 171156Z AUTO 12006KT 10SM CLR 12/M05 A2994 RMK AO2 SLP081 T01221050 10178 20111 53001 TSNO","lat":31.4725,"lon":-109.6022,"elev":1260,"name":"Douglas/Bisbee Intl, AZ, US","cover":"CLR","clouds":[],"fltCat":"VFR"},{"icaoId":"KLAS","receiptTime":"2026-04-17T12:00:19.992Z","obsTime":1776426960,"reportTime":"2026-04-17T12:00:00.000Z","temp":11.1,"dewp":-16.1,"wdir":330,"wspd":24,"wgst":36,"visib":"10+","altim":1018,"slp":1016.6,"qcField":12,"presTend":3.7,"maxT":21.7,"minT":11.1,"metarType":"METAR","rawOb":"METAR KLAS 171156Z 33024G36KT 10SM FEW250 11/M16 A3006 RMK AO2 SLP166 T01111161 10217 20111 51037 $","lat":36.0719,"lon":-115.1634,"elev":662,"name":"Las Vegas/Reid Intl, NV, US","cover":"FEW","clouds":[{"cover":"FEW","base":25000}],"fltCat":"VFR"},{"icaoId":"KUKI","receiptTime":"2026-04-17T12:00:18.720Z","obsTime":1776426960,"reportTime":"2026-04-17T12:00:00.000Z","temp":3.9,"dewp":1.7,"wdir":0,"wspd":0,"visib":"10+","altim":1019.4,"slp":1019,"qcField":6,"presTend":-0.5,"maxT":9.4,"minT":3.3,"metarType":"METAR","rawOb":"METAR KUKI 171156Z AUTO 00000KT 10SM CLR 04/02 A3010 RMK AO2 SLP190 T00390017 10094 20033 56005","lat":39.1278,"lon":-123.2001,"elev":183,"name":"Ukiah Muni, CA, US","cover":"CLR","clouds":[],"fltCat":"VFR"},{"icaoId":"KENV","receiptTime":"2026-04-17T11:59:08.392Z","obsTime":1776426960,"reportTime":"2026-04-17T12:00:00.000Z","temp":0,"dewp":-11.1,"wdir":320,"wspd":12,"wgst":19,"visib":"10+","altim":1023.1,"slp":1025,"qcField":70,"presTend":0.9,"maxT":1.1,"minT":0,"metarType":"METAR","rawOb":"METAR KENV 171156Z AUTO 32012G19KT 10SM CLR 00/M11 A3021 RMK AO2 SLP250 T00001111 10011 20000 51009 FZRANO","lat":40.7211,"lon":-114.0312,"elev":1291,"name":"Wendover Arpt, UT, US","cover":"CLR","clouds":[],"fltCat":"VFR"},{"icaoId":"KCEC","receiptTime":"2026-04-17T12:00:05.886Z","obsTime":1776426960,"reportTime":"2026-04-17T12:00:00.000Z","temp":7.8,"dewp":-1.1,"wdir":60,"wspd":5,"visib":"10+","altim":1022.8,"slp":1022.9,"qcField":6,"presTend":-1.1,"maxT":9.4,"minT":5.6,"pcp24hr":0.01,"metarType":"METAR","rawOb":"METAR KCEC 171156Z AUTO 06005KT 10SM CLR 08/M01 A3020 RMK AO2 SLP229 70001 T00781011 10094 20056 56011","lat":41.7836,"lon":-124.238,"elev":17,"name":"Crescent City/McNama, CA, US","cover":"CLR","clouds":[],"fltCat":"VFR"},{"icaoId":"KDAL","receiptTime":"2026-04-17T12:00:09.940Z","obsTime":1776426960,"reportTime":"2026-04-17T11:56:00.000Z","temp":21.1,"dewp":18.3,"wdir":170,"wspd":8,"wgst":15,"visib":"10+","altim":1011.9,"qcField":4,"metarType":"SPECI","rawOb":"SPECI KDAL 171156Z 17008G15KT 10SM BKN016 BKN250 21/18 A2988 RMK AO2 T02110183","lat":32.8384,"lon":-96.8358,"elev":148,"name":"Dallas/Love Fld, TX, US","cover":"BKN","clouds":[{"cover":"BKN","base":1600},{"cover":"BKN","base":25000}],"fltCat":"MVFR"},{"icaoId":"KBZN","receiptTime":"2026-04-17T12:00:11.017Z","obsTime":1776426960,"reportTime":"2026-04-17T12:00:00.000Z","temp":-2.8,"dewp":-7.8,"wdir":0,"wspd":0,"visib":"10+","altim":1018,"slp":1021.3,"qcField":4,"presTend":0.8,"maxT":-1.7,"minT":-3.9,"pcp24hr":0.09,"metarType":"METAR","rawOb":"METAR KBZN 171156Z 00000KT 10SM BKN065 OVC090 M03/M08 A3006 RMK AO2 SLP213 70009 T10281078 11017 21039 51008","lat":45.7876,"lon":-111.1615,"elev":1349,"name":"Bozeman/Gallatin Fld, MT, US","cover":"OVC","clouds":[{"cover":"BKN","base":6500},{"cover":"OVC","base":9000}],"fltCat":"VFR"},{"icaoId":"KVIS","receiptTime":"2026-04-17T11:59:02.089Z","obsTime":1776426960,"reportTime":"2026-04-17T12:00:00.000Z","temp":6.7,"dewp":2.2,"wdir":140,"wspd":5,"visib":"10+","altim":1016.7,"slp":1016.3,"qcField":14,"presTend":0.5,"maxT":13.9,"minT":6.7,"metarType":"METAR","rawOb":"METAR KVIS 171156Z AUTO 14005KT 10SM CLR 07/02 A3002 RMK AO2 SLP163 6//// 7//// T00670022 10139 20067 53005 PNO $","lat":36.3135,"lon":-119.3884,"elev":92,"name":"Visalia Muni, CA, US","cover":"CLR","clouds":[],"fltCat":"VFR"},{"icaoId":"KSGU","receiptTime":"2026-04-17T11:59:08.092Z","obsTime":1776426960,"reportTime":"2026-04-17T12:00:00.000Z","temp":7.2,"dewp":-7.8,"wdir":170,"wspd":12,"visib":"10+","altim":1017.7,"slp":1016.1,"qcField":6,"presTend":2.3,"maxT":13.3,"minT":6.7,"metarType":"METAR","rawOb":"METAR KSGU 171156Z AUTO 17012KT 10SM CLR 07/M08 A3005 RMK AO2 SLP161 T00721078 10133 20067 51023","lat":37.0444,"lon":-113.5034,"elev":877,"name":"Saint George Muni, UT, US","cover":"CLR","clouds":[],"fltCat":"VFR"},{"icaoId":"KFNL","receiptTime":"2026-04-17T11:59:08.602Z","obsTime":1776426960,"reportTime":"2026-04-17T12:00:00.000Z","temp":1.7,"dewp":-3.9,"wdir":200,"wspd":11,"visib":"10+","altim":1010.6,"slp":1006.9,"qcField":78,"presTend":3.4,"maxT":11.7,"minT":1.7,"metarType":"METAR","rawOb":"METAR KFNL 171156Z AUTO 20011KT 10SM CLR 02/M04 A2984 RMK AO2 SLP069 T00171039 10117 20017 52034 FZRANO $","lat":40.4427,"lon":-105.0097,"elev":1529,"name":"Fort Collins/N Colorado Rgnl, CO, US","cover":"CLR","clouds":[],"fltCat":"VFR"},{"icaoId":"KINW","receiptTime":"2026-04-17T12:00:11.184Z","obsTime":1776426960,"reportTime":"2026-04-17T12:00:00.000Z","temp":4.4,"dewp":-7.8,"wdir":260,"wspd":5,"visib":"10+","altim":1013.3,"slp":1009.5,"qcField":6,"presTend":0.9,"maxT":12.8,"minT":4.4,"metarType":"METAR","rawOb":"METAR KINW 171156Z AUTO 26005KT 10SM CLR 04/M08 A2992 RMK AO2 SLP095 T00441078 10128 20044 53009","lat":35.0279,"lon":-110.7221,"elev":1492,"name":"Winslow/Lindberg Rgnl, AZ, US","cover":"CLR","clouds":[],"fltCat":"VFR"},{"icaoId":"KJAX","receiptTime":"2026-04-17T12:00:11.198Z","obsTime":1776426960,"reportTime":"2026-04-17T12:00:00.000Z","temp":17.2,"dewp":15,"wdir":260,"wspd":4,"visib":"10+","altim":1018.7,"slp":1018.5,"qcField":12,"presTend":1,"maxT":18.3,"minT":15.6,"metarType":"METAR","rawOb":"METAR KJAX 171156Z 26004KT 10SM CLR 17/15 A3008 RMK AO2 SLP185 T01720150 10183 20156 53010 $","lat":30.4953,"lon":-81.6937,"elev":8,"name":"Jacksonville Intl, FL, US","cover":"CLR","clouds":[],"fltCat":"VFR"},{"icaoId":"KRDM","receiptTime":"2026-04-17T12:00:13.712Z","obsTime":1776426960,"reportTime":"2026-04-17T12:00:00.000Z","temp":-6.1,"dewp":-9.4,"wdir":150,"wspd":6,"visib":"10+","altim":1024.1,"slp":1025.9,"qcField":6,"presTend":-0.1,"maxT":-2.2,"minT":-6.1,"metarType":"METAR","rawOb":"METAR KRDM 171156Z AUTO 15006KT 10SM CLR M06/M09 A3024 RMK AO2 SLP259 T10611094 11022 21061 55001","lat":44.2558,"lon":-121.1407,"elev":930,"name":"Redmond Muni, OR, US","cover":"CLR","clouds":[],"fltCat":"VFR"},{"icaoId":"KCHS","receiptTime":"2026-04-17T12:00:11.045Z","obsTime":1776426960,"reportTime":"2026-04-17T12:00:00.000Z","temp":20,"dewp":17.8,"wdir":210,"wspd":6,"visib":"10+","altim":1017,"slp":1016.8,"qcField":12,"presTend":0.8,"maxT":20,"minT":16.7,"metarType":"METAR","rawOb":"METAR KCHS 171156Z 21006KT 10SM FEW070 20/18 A3003 RMK AO2 SLP168 T02000178 10200 20167 53008 $","lat":32.8995,"lon":-80.0407,"elev":12,"name":"Charleston Intl, SC, US","cover":"FEW","clouds":[{"cover":"FEW","base":7000}],"fltCat":"VFR"},{"icaoId":"KSDY","receiptTime":"2026-04-17T11:59:07.919Z","obsTime":1776426960,"reportTime":"2026-04-17T12:00:00.000Z","temp":-5,"dewp":-7.8,"wdir":310,"wspd":11,"visib":8,"altim":1014,"slp":1016.9,"qcField":78,"wxString":"-SN","presTend":1,"maxT":-2.8,"minT":-5,"precip":0.005,"pcp6hr":0.005,"metarType":"METAR","rawOb":"METAR KSDY 171156Z AUTO 31011KT 8SM -SN BKN032 OVC041 M05/M08 A2994 RMK AO2 SLP169 P0000 60000 T10501078 11028 21050 53010 FZRANO $","lat":47.7029,"lon":-104.1951,"elev":600,"name":"Sidney/Richland Muni, MT, US","cover":"OVC","clouds":[{"cover":"BKN","base":3200},{"cover":"OVC","base":4100}],"fltCat":"VFR"},{"icaoId":"KGUC","receiptTime":"2026-04-17T11:59:08.916Z","obsTime":1776426960,"reportTime":"2026-04-17T12:00:00.000Z","temp":2.2,"dewp":-7.2,"wdir":230,"wspd":7,"wgst":14,"visib":"10+","altim":1010.2,"slp":1005.6,"qcField":78,"presTend":0.1,"maxT":5.6,"minT":0,"metarType":"METAR","rawOb":"METAR KGUC 171156Z AUTO 23007G14KT 10SM CLR 02/M07 A2983 RMK AO2 SLP056 T00221072 10056 20000 53001 FZRANO $","lat":38.5322,"lon":-106.9419,"elev":2337,"name":"Gunnison Arpt, CO, US","cover":"CLR","clouds":[],"fltCat":"VFR"},{"icaoId":"KHND","receiptTime":"2026-04-17T11:59:09.187Z","obsTime":1776426960,"reportTime":"2026-04-17T12:00:00.000Z","temp":10,"dewp":-15,"wdir":30,"wspd":18,"wgst":25,"visib":"10+","altim":1018.4,"slp":1018.8,"qcField":14,"presTend":3.5,"maxT":20.6,"minT":10,"metarType":"METAR","rawOb":"METAR KHND 171156Z AUTO 03018G25KT 10SM CLR 10/M15 A3007 RMK AO2 PK WND 36039/1110 SLP188 T01001150 10206 20100 51035 $","lat":35.9657,"lon":-115.1343,"elev":740,"name":"Henderson Exec, NV, US","cover":"CLR","clouds":[],"fltCat":"VFR"},{"icaoId":"KCOE","receiptTime":"2026-04-17T11:59:10.089Z","obsTime":1776426960,"reportTime":"2026-04-17T12:00:00.000Z","temp":1.7,"dewp":-2.8,"wdir":190,"wspd":6,"visib":"10+","altim":1021.1,"slp":1024,"qcField":78,"presTend":1.2,"maxT":3.3,"minT":0.6,"metarType":"METAR","rawOb":"METAR KCOE 171156Z AUTO 19006KT 10SM OVC085 02/M03 A3015 RMK AO2 SLP240 6//// 7//// T00171028 10033 20006 51012 FZRANO PNO $","lat":47.7719,"lon":-116.8332,"elev":693,"name":"Coeur DAlene Arpt, ID, US","cover":"OVC","clouds":[{"cover":"OVC","base":8500}],"fltCat":"VFR"},{"icaoId":"KSFO","receiptTime":"2026-04-17T12:00:11.353Z","obsTime":1776426960,"reportTime":"2026-04-17T12:00:00.000Z","temp":15,"dewp":2.8,"wdir":10,"wspd":14,"visib":"10+","altim":1017.4,"slp":1017.2,"qcField":12,"presTend":0.1,"maxT":16.7,"minT":12.8,"metarType":"METAR","rawOb":"METAR KSFO 171156Z 01014KT 10SM CLR 15/03 A3004 RMK AO2 SLP172 T01500028 10167 20128 53001 $","lat":37.6196,"lon":-122.3656,"elev":2,"name":"San Francisco Intl, CA, US","cover":"CLR","clouds":[],"fltCat":"VFR"},{"icaoId":"KSLE","receiptTime":"2026-04-17T12:00:18.267Z","obsTime":1776426960,"reportTime":"2026-04-17T12:00:00.000Z","temp":3.9,"dewp":2.8,"wdir":0,"wspd":0,"visib":"10+","altim":1026.8,"slp":1026.8,"qcField":6,"presTend":-0.5,"maxT":7.2,"minT":3.3,"metarType":"METAR","rawOb":"METAR KSLE 171156Z AUTO 00000KT 10SM CLR 04/03 A3032 RMK AO2 SLP268 T00390028 10072 20033 56005","lat":44.9049,"lon":-123.001,"elev":63,"name":"Salem Muni, OR, US","cover":"CLR","clouds":[],"fltCat":"VFR"},{"icaoId":"KLWS","receiptTime":"2026-04-17T12:00:11.211Z","obsTime":1776426960,"reportTime":"2026-04-17T12:00:00.000Z","temp":3.3,"dewp":-2.2,"wdir":200,"wspd":6,"visib":"10+","altim":1023.5,"slp":1024,"qcField":6,"presTend":1.2,"maxT":8.9,"minT":3.3,"metarType":"METAR","rawOb":"METAR KLWS 171156Z AUTO 20006KT 10SM CLR 03/M02 A3022 RMK AO2 SLP240 T00331022 10089 20033 51012","lat":46.3746,"lon":-117.0153,"elev":435,"name":"Lewiston/Nez Perce Cnty, ID, US","cover":"CLR","clouds":[],"fltCat":"VFR"},{"icaoId":"KEND","receiptTime":"2026-04-17T12:18:40.326Z","obsTime":1776426900,"reportTime":"2026-04-17T12:00:00.000Z","temp":20.5,"dewp":18.1,"wdir":160,"wspd":14,"visib":"10+","altim":1005.5,"slp":1004.3,"qcField":14,"maxT":23.1,"minT":20.5,"metarType":"METAR","rawOb":"METAR KEND 171155Z AUTO 16014KT 10SM CLR 21/18 A2969 RMK AO2 SLP043 T02050181 10231 20205 55000 $","lat":36.338,"lon":-97.919,"elev":392,"name":"Enid/Vance AFB, OK, US","cover":"CLR","clouds":[],"fltCat":"VFR"},{"icaoId":"KIWA","receiptTime":"2026-04-17T11:59:17.972Z","obsTime":1776426900,"reportTime":"2026-04-17T12:00:00.000Z","temp":15,"dewp":-7,"wdir":110,"wspd":5,"visib":"10+","altim":1010.9,"qcField":0,"metarType":"METAR","rawOb":"METAR KIWA 171155Z 11005KT 10SM CLR 15/M07 A2985","lat":33.3008,"lon":-111.6437,"elev":420,"name":"Phoenix/Mesa Gateway Arpt, AZ, US","cover":"CLR","clouds":[],"fltCat":"VFR"},{"icaoId":"KLUF","receiptTime":"2026-04-17T12:24:03.890Z","obsTime":1776426900,"reportTime":"2026-04-17T12:00:00.000Z","temp":19.5,"dewp":-2.8,"wdir":180,"wspd":6,"visib":"10+","altim":1009.2,"slp":1008,"qcField":14,"presTend":1.2,"maxT":23.5,"minT":18.3,"metarType":"METAR","rawOb":"METAR KLUF 171155Z AUTO 18006KT 10SM CLR 20/M03 A2980 RMK AO2 SLP080 T01951028 10235 20183 52012 $","lat":33.538,"lon":-112.38,"elev":333,"name":"Phoenix/Luke AFB, AZ, US","cover":"CLR","clouds":[],"fltCat":"VFR"},{"icaoId":"KRNO","receiptTime":"2026-04-17T11:59:07.659Z","obsTime":1776426900,"reportTime":"2026-04-17T12:00:00.000Z","temp":0,"dewp":-12.8,"wdir":110,"wspd":4,"visib":"10+","altim":1023.1,"slp":1022.3,"qcField":4,"presTend":-0.5,"maxT":2.8,"minT":-0.6,"metarType":"METAR","rawOb":"METAR KRNO 171155Z 11004KT 10SM FEW200 00/M13 A3021 RMK AO2 SLP223 T00001128 10028 21006 56005","lat":39.5077,"lon":-119.7683,"elev":1344,"name":"Reno/Tahoe Intl, NV, US","cover":"FEW","clouds":[{"cover":"FEW","base":20000}],"fltCat":"VFR"},{"icaoId":"KCMA","receiptTime":"2026-04-17T11:59:10.038Z","obsTime":1776426900,"reportTime":"2026-04-17T12:00:00.000Z","temp":11.7,"dewp":8.9,"wdir":0,"wspd":0,"visib":"10+","altim":1013.3,"slp":1014,"qcField":6,"presTend":0.6,"maxT":14.4,"minT":10,"metarType":"METAR","rawOb":"METAR KCMA 171155Z AUTO 00000KT 10SM CLR 12/09 A2992 RMK AO2 SLP140 T01170089 10144 20100 53006","lat":34.2114,"lon":-119.0876,"elev":20,"name":"Camarillo Arpt, CA, US","cover":"CLR","clouds":[],"fltCat":"VFR"},{"icaoId":"KAPC","receiptTime":"2026-04-17T11:58:46.712Z","obsTime":1776426840,"reportTime":"2026-04-17T12:00:00.000Z","temp":8.3,"dewp":-4.4,"wdir":0,"wspd":0,"visib":"10+","altim":1017.4,"slp":1016.3,"qcField":6,"presTend":-0.2,"maxT":15.6,"minT":7.2,"metarType":"METAR","rawOb":"METAR KAPC 171154Z AUTO 00000KT 10SM CLR 08/M04 A3004 RMK AO2 SLP163 T00831044 10156 20072 55002","lat":38.2075,"lon":-122.2804,"elev":5,"name":"Napa Cnty Arpt, CA, US","cover":"CLR","clouds":[],"fltCat":"VFR"},{"icaoId":"KEUG","receiptTime":"2026-04-17T11:58:38.549Z","obsTime":1776426840,"reportTime":"2026-04-17T12:00:00.000Z","temp":1.1,"dewp":0.6,"wdir":120,"wspd":7,"visib":"10+","altim":1026.8,"slp":1027,"qcField":6,"presTend":-0.8,"maxT":4.4,"minT":1.1,"pcp24hr":0.02,"metarType":"METAR","rawOb":"METAR KEUG 171154Z AUTO 12007KT 10SM CLR 01/01 A3032 RMK AO2 SLP270 70002 T00110006 10044 20011 58008","lat":44.1331,"lon":-123.2156,"elev":109,"name":"Eugene/Mahlon Sweet Fld, OR, US","cover":"CLR","clouds":[],"fltCat":"VFR"},{"icaoId":"KGCN","receiptTime":"2026-04-17T11:58:38.967Z","obsTime":1776426840,"reportTime":"2026-04-17T12:00:00.000Z","temp":2.2,"dewp":-8.9,"wdir":"VRB","wspd":3,"visib":"10+","altim":1015,"slp":1010.1,"qcField":6,"presTend":1.2,"maxT":8.3,"minT":1.7,"metarType":"METAR","rawOb":"METAR KGCN 171154Z AUTO VRB03KT 10SM CLR 02/M09 A2997 RMK AO2 SLP101 T00221089 10083 20017 53012","lat":35.9458,"lon":-112.1554,"elev":1993,"name":"Grand Canyon Park Arpt, AZ, US","cover":"CLR","clouds":[],"fltCat":"VFR"},{"icaoId":"KCOS","receiptTime":"2026-04-17T11:58:44.182Z","obsTime":1776426840,"reportTime":"2026-04-17T12:00:00.000Z","temp":1.7,"dewp":-4.4,"wdir":350,"wspd":18,"wgst":25,"visib":"10+","altim":1009.2,"slp":1004.6,"qcField":4,"presTend":2,"maxT":14.4,"minT":1.7,"metarType":"METAR","rawOb":"METAR KCOS 171154Z 35018G25KT 10SM FEW020 SCT120 BKN230 02/M04 A2980 RMK AO2 PK WND 01027/1110 SLP046 T00171044 10144 20017 51020","lat":38.8095,"lon":-104.6887,"elev":1886,"name":"Colorado Spring Arpt, CO, US","cover":"BKN","clouds":[{"cover":"FEW","base":2000},{"cover":"SCT","base":12000},{"cover":"BKN","base":23000}],"fltCat":"VFR"},{"icaoId":"KFFZ","receiptTime":"2026-04-17T11:58:38.641Z","obsTime":1776426840,"reportTime":"2026-04-17T12:00:00.000Z","temp":16.7,"dewp":-2.2,"wdir":110,"wspd":5,"visib":"10+","altim":1010.2,"slp":1008,"qcField":4,"presTend":0.9,"maxT":23.3,"minT":16.1,"metarType":"METAR","rawOb":"METAR KFFZ 171154Z 11005KT 10SM CLR 17/M02 A2983 RMK AO2 SLP080 T01671022 10233 20161 53009","lat":33.4659,"lon":-111.7212,"elev":420,"name":"Mesa/Falcon Fld, AZ, US","cover":"CLR","clouds":[],"fltCat":"VFR"},{"icaoId":"KBOS","receiptTime":"2026-04-17T11:58:46.819Z","obsTime":1776426840,"reportTime":"2026-04-17T12:00:00.000Z","temp":10.6,"dewp":9.4,"wdir":110,"wspd":4,"visib":8,"altim":1008.9,"slp":1008.8,"qcField":4,"wxString":"-RA","presTend":1.6,"maxT":11.1,"minT":8.3,"precip":0.08,"pcp6hr":0.08,"pcp24hr":0.08,"metarType":"METAR","rawOb":"METAR KBOS 171154Z 11004KT 8SM -RA FEW080 OVC100 11/09 A2979 RMK AO2 SLP088 P0008 60008 70008 T01060094 10111 20083 50016","lat":42.3606,"lon":-71.0097,"elev":4,"name":"Boston/Logan Intl, MA, US","cover":"OVC","clouds":[{"cover":"FEW","base":8000},{"cover":"OVC","base":10000}],"fltCat":"VFR"},{"icaoId":"KSYR","receiptTime":"2026-04-17T11:58:47.723Z","obsTime":1776426840,"reportTime":"2026-04-17T12:00:00.000Z","temp":13.9,"dewp":13.3,"wdir":310,"wspd":8,"visib":9,"altim":1012.6,"slp":1012,"qcField":4,"wxString":"-RA","presTend":2.5,"maxT":15.6,"minT":13.9,"precip":0.005,"pcp6hr":0.01,"pcp24hr":0.5,"metarType":"METAR","rawOb":"METAR KSYR 171154Z 31008KT 9SM -RA OVC005 14/13 A2990 RMK AO2 SLP120 P0000 60001 70050 T01390133 10156 20139 53025","lat":43.1111,"lon":-76.1038,"elev":125,"name":"Syracuse/Hancock Intl, NY, US","cover":"OVC","clouds":[{"cover":"OVC","base":500}],"fltCat":"IFR"},{"icaoId":"KOLS","receiptTime":"2026-04-17T11:58:17.345Z","obsTime":1776426840,"reportTime":"2026-04-17T12:00:00.000Z","temp":8.3,"dewp":-6.7,"wdir":90,"wspd":5,"visib":"10+","altim":1014,"slp":1009.1,"qcField":6,"presTend":0.6,"maxT":15.6,"minT":8.3,"metarType":"METAR","rawOb":"METAR KOLS 171154Z AUTO 09005KT 10SM CLR 08/M07 A2994 RMK AO2 SLP091 T00831067 10156 20083 53006","lat":31.4208,"lon":-110.8465,"elev":1194,"name":"Nogales Intl, AZ, US","cover":"CLR","clouds":[],"fltCat":"VFR"},{"icaoId":"KRKS","receiptTime":"2026-04-17T11:58:37.052Z","obsTime":1776426840,"reportTime":"2026-04-17T12:00:00.000Z","temp":-7.8,"dewp":-11.1,"wdir":260,"wspd":15,"visib":"10+","altim":1015.3,"slp":1019.6,"qcField":6,"presTend":0.6,"maxT":-5.6,"minT":-7.8,"metarType":"METAR","rawOb":"METAR KRKS 171154Z AUTO 26015KT 10SM BKN049 M08/M11 A2998 RMK AO2 SLP196 T10781111 11056 21078 53006","lat":41.5947,"lon":-109.0529,"elev":2062,"name":"Rock Springs/SW Wyoming Rgnl, WY, US","cover":"BKN","clouds":[{"cover":"BKN","base":4900}],"fltCat":"VFR"},{"icaoId":"KMEM","receiptTime":"2026-04-17T11:58:47.479Z","obsTime":1776426840,"reportTime":"2026-04-17T12:00:00.000Z","temp":18.3,"dewp":12.8,"wdir":160,"wspd":6,"visib":"10+","altim":1016,"slp":1015.4,"qcField":12,"presTend":0.9,"maxT":22.2,"minT":18.3,"pcp24hr":0.01,"metarType":"METAR","rawOb":"METAR KMEM 171154Z 16006KT 10SM FEW060 18/13 A3000 RMK AO2 SLP154 70001 T01830128 10222 20183 53009 $","lat":35.0564,"lon":-89.9864,"elev":78,"name":"Memphis Intl, TN, US","cover":"FEW","clouds":[{"cover":"FEW","base":6000}],"fltCat":"VFR"},{"icaoId":"KBWI","receiptTime":"2026-04-17T11:58:46.931Z","obsTime":1776426840,"reportTime":"2026-04-17T12:00:00.000Z","temp":20.6,"dewp":15,"wdir":280,"wspd":5,"visib":"10+","altim":1011.9,"slp":1011.6,"qcField":4,"presTend":1.8,"maxT":23.9,"minT":18.9,"pcp6hr":0.005,"metarType":"METAR","rawOb":"METAR KBWI 171154Z 28005KT 10SM FEW065 FEW100 SCT130 BKN250 21/15 A2988 RMK AO2 SLP116 60000 T02060150 10239 20189 51018","lat":39.1733,"lon":-76.684,"elev":42,"name":"Baltimore-Washington Intl, MD, US","cover":"BKN","clouds":[{"cover":"FEW","base":6500},{"cover":"FEW","base":10000},{"cover":"SCT","base":13000},{"cover":"BKN","base":25000}],"fltCat":"VFR"},{"icaoId":"KBFL","receiptTime":"2026-04-17T11:58:46.805Z","obsTime":1776426840,"reportTime":"2026-04-17T12:00:00.000Z","temp":9.4,"dewp":3.3,"wdir":90,"wspd":3,"visib":"10+","altim":1016.7,"slp":1016.2,"qcField":6,"presTend":0.4,"maxT":12.2,"minT":8.3,"metarType":"METAR","rawOb":"METAR KBFL 171154Z AUTO 09003KT 10SM CLR 09/03 A3002 RMK AO2 SLP162 T00940033 10122 20083 53004","lat":35.4342,"lon":-119.0552,"elev":146,"name":"Bakersfield/Meadows Arpt, CA, US","cover":"CLR","clouds":[],"fltCat":"VFR"},{"icaoId":"KRIC","receiptTime":"2026-04-17T12:18:43.503Z","obsTime":1776426840,"reportTime":"2026-04-17T12:00:00.000Z","temp":22.8,"dewp":14.4,"wdir":250,"wspd":5,"visib":6,"altim":1013.6,"slp":1013.9,"qcField":5,"presTend":2.4,"maxT":24.4,"minT":19.4,"pcp6hr":0.005,"metarType":"METAR","rawOb":"METAR KRIC 171154Z COR 25005KT 6SM SCT070 SCT100 23/14 A2993 RMK AO2 SLP139 60000 T02280144 10244 20194 53024","lat":37.5115,"lon":-77.3234,"elev":51,"name":"Richmond Intl, VA, US","cover":"SCT","clouds":[{"cover":"SCT","base":7000},{"cover":"SCT","base":10000}],"fltCat":"VFR"},{"icaoId":"KDSM","receiptTime":"2026-04-17T11:58:44.227Z","obsTime":1776426840,"reportTime":"2026-04-17T12:00:00.000Z","temp":18.9,"dewp":17.2,"wdir":140,"wspd":17,"visib":8,"altim":1004.1,"slp":1003.4,"qcField":4,"presTend":-2.1,"maxT":18.9,"minT":17.8,"metarType":"METAR","rawOb":"METAR KDSM 171154Z 14017KT 8SM BKN011 BKN250 19/17 A2965 RMK AO2 SLP034 T01890172 10189 20178 56021","lat":41.5339,"lon":-93.6531,"elev":286,"name":"Des Moines Intl, IA, US","cover":"BKN","clouds":[{"cover":"BKN","base":1100},{"cover":"BKN","base":25000}],"fltCat":"MVFR"},{"icaoId":"KIND","receiptTime":"2026-04-17T11:58:39.520Z","obsTime":1776426840,"reportTime":"2026-04-17T12:00:00.000Z","temp":14.4,"dewp":12.2,"wdir":190,"wspd":4,"visib":"10+","altim":1015.7,"slp":1015.1,"qcField":4,"presTend":1,"maxT":17.2,"minT":13.9,"metarType":"METAR","rawOb":"METAR KIND 171154Z 19004KT 10SM FEW250 14/12 A2999 RMK AO2 SLP151 T01440122 10172 20139 53010","lat":39.7252,"lon":-86.2816,"elev":242,"name":"Indianapolis Intl, IN, US","cover":"FEW","clouds":[{"cover":"FEW","base":25000}],"fltCat":"VFR"},{"icaoId":"KOLM","receiptTime":"2026-04-17T11:58:17.331Z","obsTime":1776426840,"reportTime":"2026-04-17T12:00:00.000Z","temp":3.3,"dewp":1.7,"wdir":180,"wspd":6,"visib":"10+","altim":1026.5,"slp":1026.5,"qcField":6,"presTend":-0.1,"maxT":6.7,"minT":2.8,"metarType":"METAR","rawOb":"METAR KOLM 171154Z AUTO 18006KT 10SM CLR 03/02 A3031 RMK AO2 SLP265 T00330017 10067 20028 57001","lat":46.9737,"lon":-122.9049,"elev":58,"name":"Olympia Rgnl, WA, US","cover":"CLR","clouds":[],"fltCat":"VFR"},{"icaoId":"KSLC","receiptTime":"2026-04-17T11:58:37.445Z","obsTime":1776426840,"reportTime":"2026-04-17T12:00:00.000Z","temp":-1.1,"dewp":-4.4,"wdir":140,"wspd":5,"visib":"10+","altim":1021.8,"slp":1022.7,"qcField":12,"presTend":1.6,"maxT":1.7,"minT":-1.1,"pcp24hr":0.09,"metarType":"METAR","rawOb":"METAR KSLC 171154Z 14005KT 10SM SCT075 BKN090 M01/M04 A3017 RMK AO2 SLP227 70009 T10111044 10017 21011 53016 $","lat":40.7707,"lon":-111.965,"elev":1286,"name":"Salt Lake City Intl, UT, US","cover":"BKN","clouds":[{"cover":"SCT","base":7500},{"cover":"BKN","base":9000}],"fltCat":"VFR"},{"icaoId":"KSJN","receiptTime":"2026-04-17T11:58:37.434Z","obsTime":1776426840,"reportTime":"2026-04-17T12:00:00.000Z","temp":5.6,"dewp":-8.9,"wdir":280,"wspd":4,"visib":"10+","altim":1013.6,"slp":1007.7,"qcField":6,"presTend":0.5,"maxT":12.2,"minT":5.6,"metarType":"METAR","rawOb":"METAR KSJN 171154Z AUTO 28004KT 10SM CLR 06/M09 A2993 RMK AO2 SLP077 T00561089 10122 20056 51005","lat":34.5184,"lon":-109.3801,"elev":1747,"name":"St Johns Ind Arpt, AZ, US","cover":"CLR","clouds":[],"fltCat":"VFR"},{"icaoId":"KPHL","receiptTime":"2026-04-17T11:58:19.636Z","obsTime":1776426840,"reportTime":"2026-04-17T12:00:00.000Z","temp":21.7,"dewp":13.3,"wdir":330,"wspd":5,"visib":"10+","altim":1011.6,"slp":1011.4,"qcField":12,"presTend":2.6,"maxT":24.4,"minT":20.6,"metarType":"METAR","rawOb":"METAR KPHL 171154Z 33005KT 10SM FEW050 FEW075 BKN130 BKN200 BKN260 22/13 A2987 RMK AO2 SLP114 T02170133 10244 20206 53026 $","lat":39.8733,"lon":-75.2268,"elev":2,"name":"Philadelphia Intl, PA, US","cover":"BKN","clouds":[{"cover":"FEW","base":5000},{"cover":"FEW","base":7500},{"cover":"BKN","base":13000},{"cover":"BKN","base":20000}],"fltCat":"VFR"},{"icaoId":"KGSO","receiptTime":"2026-04-17T11:58:44.252Z","obsTime":1776426840,"reportTime":"2026-04-17T12:00:00.000Z","temp":18.9,"dewp":15.6,"wdir":0,"wspd":0,"visib":"10+","altim":1015.7,"slp":1014.6,"qcField":4,"presTend":1.6,"maxT":20.6,"minT":16.7,"pcp6hr":0.01,"pcp24hr":0.01,"metarType":"METAR","rawOb":"METAR KGSO 171154Z 00000KT 10SM FEW030 FEW100 BKN250 19/16 A2999 RMK AO2 SLP146 60001 70001 T01890156 10206 20167 53016","lat":36.0969,"lon":-79.9432,"elev":275,"name":"Greensboro Intl, NC, US","cover":"BKN","clouds":[{"cover":"FEW","base":3000},{"cover":"FEW","base":10000},{"cover":"BKN","base":25000}],"fltCat":"VFR"},{"icaoId":"KDFW","receiptTime":"2026-04-17T11:56:25.503Z","obsTime":1776426780,"reportTime":"2026-04-17T12:00:00.000Z","temp":20.6,"dewp":17.8,"wdir":180,"wspd":11,"wgst":19,"visib":"10+","altim":1011.3,"slp":1010.2,"qcField":12,"presTend":0.5,"maxT":24.4,"minT":20.6,"metarType":"METAR","rawOb":"METAR KDFW 171153Z 18011G19KT 10SM BKN016 BKN250 21/18 A2986 RMK AO2 SLP102 T02060178 10244 20206 53005 $","lat":32.8974,"lon":-97.022,"elev":168,"name":"Dallas-Ft Worth Intl, TX, US","cover":"BKN","clouds":[{"cover":"BKN","base":1600},{"cover":"BKN","base":25000}],"fltCat":"MVFR"},{"icaoId":"KMSP","receiptTime":"2026-04-17T11:56:23.149Z","obsTime":1776426780,"reportTime":"2026-04-17T12:00:00.000Z","temp":15.6,"dewp":10.6,"wdir":140,"wspd":9,"visib":"10+","altim":1003.1,"slp":1002.7,"qcField":4,"presTend":-0.6,"maxT":18.9,"minT":15.6,"metarType":"METAR","rawOb":"METAR KMSP 171153Z 14009KT 10SM BKN250 16/11 A2962 RMK AO2 SLP027 T01560106 10189 20156 58006","lat":44.8852,"lon":-93.2313,"elev":255,"name":"Minneapolis-St Paul Intl, MN, US","cover":"BKN","clouds":[{"cover":"BKN","base":25000}],"fltCat":"VFR"},{"icaoId":"KIAH","receiptTime":"2026-04-17T11:56:22.770Z","obsTime":1776426780,"reportTime":"2026-04-17T12:00:00.000Z","temp":19.4,"dewp":19.4,"wdir":0,"wspd":0,"visib":4,"altim":1014,"slp":1013.7,"qcField":4,"wxString":"BR","presTend":0.5,"maxT":21.7,"minT":19.4,"metarType":"METAR","rawOb":"METAR KIAH 171153Z 00000KT 4SM BR FEW013 SCT022 19/19 A2994 RMK AO2 SLP137 T01940194 10217 20194 53005","lat":29.9844,"lon":-95.3607,"elev":27,"name":"Houston/Bush Intl, TX, US","cover":"SCT","clouds":[{"cover":"FEW","base":1300},{"cover":"SCT","base":2200}],"fltCat":"MVFR"},{"icaoId":"KACV","receiptTime":"2026-04-17T11:56:23.296Z","obsTime":1776426780,"reportTime":"2026-04-17T12:00:00.000Z","temp":2.2,"dewp":1.7,"wdir":60,"wspd":3,"visib":"10+","altim":1021.8,"slp":1022.4,"qcField":6,"presTend":-1.3,"maxT":5.6,"minT":2.2,"metarType":"METAR","rawOb":"METAR KACV 171153Z AUTO 06003KT 10SM CLR 02/02 A3017 RMK AO2 SLP224 T00220017 10056 20022 56013","lat":40.9784,"lon":-124.1048,"elev":63,"name":"Arcata Arpt, CA, US","cover":"CLR","clouds":[],"fltCat":"VFR"},{"icaoId":"KBUR","receiptTime":"2026-04-17T11:56:21.493Z","obsTime":1776426780,"reportTime":"2026-04-17T12:00:00.000Z","temp":12.8,"dewp":8.9,"wdir":0,"wspd":0,"visib":"10+","altim":1013.6,"slp":1012.7,"qcField":6,"presTend":0.3,"maxT":16.1,"minT":12.2,"metarType":"METAR","rawOb":"METAR KBUR 171153Z AUTO 00000KT 10SM CLR 13/09 A2993 RMK AO2 SLP127 T01280089 10161 20122 51003","lat":34.1996,"lon":-118.3654,"elev":221,"name":"Burbank/Bob Hope Arpt, CA, US","cover":"CLR","clouds":[],"fltCat":"VFR"},{"icaoId":"KPUB","receiptTime":"2026-04-17T11:56:21.745Z","obsTime":1776426780,"reportTime":"2026-04-17T12:00:00.000Z","temp":5.6,"dewp":-3.3,"wdir":20,"wspd":19,"wgst":30,"visib":"10+","altim":1008.2,"slp":1004,"qcField":14,"presTend":3.9,"maxT":16.1,"minT":5.6,"metarType":"METAR","rawOb":"METAR KPUB 171153Z AUTO 02019G30KT 10SM CLR 06/M03 A2977 RMK AO2 PK WND 01035/1120 SLP040 T00561033 10161 20056 53039 $","lat":38.2887,"lon":-104.5057,"elev":1441,"name":"Pueblo Mem Arpt, CO, US","cover":"CLR","clouds":[],"fltCat":"VFR"},{"icaoId":"KCNM","receiptTime":"2026-04-17T11:56:21.835Z","obsTime":1776426780,"reportTime":"2026-04-17T12:00:00.000Z","temp":15,"dewp":-2.8,"wdir":270,"wspd":8,"visib":"10+","altim":1010.2,"slp":1005,"qcField":6,"presTend":0.3,"maxT":21.1,"minT":13.3,"metarType":"METAR","rawOb":"METAR KCNM 171153Z AUTO 27008KT 10SM CLR 15/M03 A2983 RMK AO2 SLP050 T01501028 10211 20133 53003","lat":32.3336,"lon":-104.2584,"elev":993,"name":"Carlsbad/Cavern City Air Term, NM, US","cover":"CLR","clouds":[],"fltCat":"VFR"},{"icaoId":"KDEN","receiptTime":"2026-04-17T11:56:22.140Z","obsTime":1776426780,"reportTime":"2026-04-17T12:00:00.000Z","temp":0,"dewp":-5,"wdir":60,"wspd":8,"visib":"10+","altim":1010.9,"slp":1006.6,"qcField":12,"presTend":2,"maxT":16.7,"minT":0,"metarType":"METAR","rawOb":"METAR KDEN 171153Z 06008KT 10SM FEW030 FEW180 BKN220 00/M05 A2985 RMK AO2 SLP066 T00001050 10167 20000 51020 $","lat":39.8466,"lon":-104.6562,"elev":1656,"name":"Denver Intl, CO, US","cover":"BKN","clouds":[{"cover":"FEW","base":3000},{"cover":"FEW","base":18000},{"cover":"BKN","base":22000}],"fltCat":"VFR"},{"icaoId":"KDRO","receiptTime":"2026-04-17T11:56:22.152Z","obsTime":1776426780,"reportTime":"2026-04-17T12:00:00.000Z","temp":5.6,"dewp":-10.6,"wdir":250,"wspd":6,"visib":"10+","altim":1011.6,"slp":1006.8,"qcField":6,"maxT":10.6,"minT":5.6,"metarType":"METAR","rawOb":"METAR KDRO 171153Z AUTO 25006KT 10SM CLR 06/M11 A2987 RMK AO2 SLP068 T00561106 10106 20056 55000","lat":37.1431,"lon":-107.7602,"elev":2021,"name":"Durango/La Plata Cnty, CO, US","cover":"CLR","clouds":[],"fltCat":"VFR"},{"icaoId":"KFMN","receiptTime":"2026-04-17T11:56:22.342Z","obsTime":1776426780,"reportTime":"2026-04-17T12:00:00.000Z","temp":10.6,"dewp":-11.7,"wdir":250,"wspd":10,"visib":"10+","altim":1010.6,"slp":1006.5,"qcField":4,"presTend":0.1,"maxT":14.4,"minT":10,"metarType":"METAR","rawOb":"METAR KFMN 171153Z 25010KT 10SM SCT110 11/M12 A2984 RMK AO2 SLP065 T01061117 10144 20100 53001","lat":36.7435,"lon":-108.2293,"elev":1677,"name":"Farmington/Four Corners Rgnl, NM, US","cover":"SCT","clouds":[{"cover":"SCT","base":11000}],"fltCat":"VFR"},{"icaoId":"KHOU","receiptTime":"2026-04-17T11:56:22.706Z","obsTime":1776426780,"reportTime":"2026-04-17T12:00:00.000Z","temp":20.6,"dewp":20,"wdir":130,"wspd":5,"visib":6,"altim":1013.6,"slp":1013.9,"qcField":12,"wxString":"BR","presTend":0.4,"maxT":22.2,"minT":20.6,"metarType":"METAR","rawOb":"METAR KHOU 171153Z 13005KT 6SM BR FEW018 SCT250 21/20 A2993 RMK AO2 SLP139 T02060200 10222 20206 53004 $","lat":29.6458,"lon":-95.2821,"elev":13,"name":"Houston/Hobby Arpt, TX, US","cover":"SCT","clouds":[{"cover":"FEW","base":1800},{"cover":"SCT","base":25000}],"fltCat":"VFR"},{"icaoId":"KLAR","receiptTime":"2026-04-17T11:56:22.869Z","obsTime":1776426780,"reportTime":"2026-04-17T12:00:00.000Z","temp":-4.4,"dewp":-12.2,"wdir":360,"wspd":13,"visib":"10+","altim":1010.6,"slp":1005.9,"qcField":6,"presTend":0.5,"maxT":-0.6,"minT":-4.4,"metarType":"METAR","rawOb":"METAR KLAR 171153Z AUTO 36013KT 10SM BKN050 OVC065 M04/M12 A2984 RMK AO2 SLP059 T10441122 11006 21044 51005","lat":41.3165,"lon":-105.6729,"elev":2217,"name":"Laramie Rgnl, WY, US","cover":"OVC","clouds":[{"cover":"BKN","base":5000},{"cover":"OVC","base":6500}],"fltCat":"VFR"},{"icaoId":"KRIW","receiptTime":"2026-04-17T11:56:24.784Z","obsTime":1776426780,"reportTime":"2026-04-17T12:00:00.000Z","temp":-3.3,"dewp":-6.1,"wdir":270,"wspd":9,"visib":"10+","altim":1015,"slp":1015.6,"qcField":6,"presTend":1.1,"maxT":-1.7,"minT":-3.3,"pcp6hr":0.005,"metarType":"METAR","rawOb":"METAR KRIW 171153Z AUTO 27009KT 10SM OVC075 M03/M06 A2997 RMK AO2 SLP156 60000 T10331061 11017 21033 53011","lat":43.0622,"lon":-108.4471,"elev":1662,"name":"Riverton Rgnl, WY, US","cover":"OVC","clouds":[{"cover":"OVC","base":7500}],"fltCat":"VFR"},{"icaoId":"KTUS","receiptTime":"2026-04-17T11:56:23.284Z","obsTime":1776426780,"reportTime":"2026-04-17T12:00:00.000Z","temp":13.9,"dewp":-5,"wdir":150,"wspd":3,"visib":"10+","altim":1013,"slp":1009.3,"qcField":12,"presTend":0.9,"maxT":20.6,"minT":13.9,"metarType":"METAR","rawOb":"METAR KTUS 171153Z 15003KT 10SM CLR 14/M05 A2991 RMK AO2 SLP093 T01391050 10206 20139 53009 $","lat":32.1315,"lon":-110.9564,"elev":776,"name":"Tucson Intl Arpt, AZ, US","cover":"CLR","clouds":[],"fltCat":"VFR"},{"icaoId":"KGTF","receiptTime":"2026-04-17T11:56:23.384Z","obsTime":1776426780,"reportTime":"2026-04-17T12:00:00.000Z","temp":-6.7,"dewp":-7.8,"wdir":240,"wspd":6,"visib":"10+","altim":1015.7,"slp":1020.5,"qcField":4,"presTend":0.2,"maxT":-3.3,"minT":-7.2,"pcp6hr":0.005,"metarType":"METAR","rawOb":"METAR KGTF 171153Z 24006KT 10SM CLR M07/M08 A2999 RMK AO2 SLP205 60000 T10671078 11033 21072 53002","lat":47.4733,"lon":-111.3828,"elev":1117,"name":"Great Falls Intl, MT, US","cover":"CLR","clouds":[],"fltCat":"VFR"},{"icaoId":"KHIO","receiptTime":"2026-04-17T11:56:23.395Z","obsTime":1776426780,"reportTime":"2026-04-17T12:00:00.000Z","temp":1.1,"dewp":0.6,"wdir":350,"wspd":3,"visib":"10+","altim":1027.2,"slp":1027.3,"qcField":6,"presTend":-0.3,"maxT":6.1,"minT":0.6,"metarType":"METAR","rawOb":"METAR KHIO 171153Z AUTO 35003KT 10SM CLR 01/01 A3033 RMK AO2 SLP273 T00110006 10061 20006 58003","lat":45.5476,"lon":-122.9557,"elev":62,"name":"Portland/Hillsboro Arpt, OR, US","cover":"CLR","clouds":[],"fltCat":"VFR"},{"icaoId":"KIDA","receiptTime":"2026-04-17T11:56:23.441Z","obsTime":1776426780,"reportTime":"2026-04-17T12:00:00.000Z","temp":-5.6,"dewp":-7.2,"wdir":210,"wspd":11,"visib":"10+","altim":1020.7,"slp":1024,"qcField":6,"presTend":1.5,"maxT":-2.2,"minT":-5.6,"pcp24hr":0.01,"metarType":"METAR","rawOb":"METAR KIDA 171153Z AUTO 21011KT 10SM CLR M06/M07 A3014 RMK AO2 SLP240 70001 T10561072 11022 21056 53015","lat":43.5204,"lon":-112.0675,"elev":1444,"name":"Idaho Falls Rgnl, ID, US","cover":"CLR","clouds":[],"fltCat":"VFR"},{"icaoId":"KSJC","receiptTime":"2026-04-17T11:56:25.202Z","obsTime":1776426780,"reportTime":"2026-04-17T12:00:00.000Z","temp":12.8,"dewp":-6.7,"wdir":320,"wspd":9,"visib":"10+","altim":1017,"slp":1016.8,"qcField":6,"presTend":0.3,"maxT":14.4,"minT":11.1,"metarType":"METAR","rawOb":"METAR KSJC 171153Z AUTO 32009KT 10SM CLR 13/M07 A3003 RMK AO2 SLP168 T01281067 10144 20111 52003","lat":37.3594,"lon":-121.9244,"elev":13,"name":"San Jose Intl Arpt, CA, US","cover":"CLR","clouds":[],"fltCat":"VFR"},{"icaoId":"KOGD","receiptTime":"2026-04-17T11:56:26.487Z","obsTime":1776426780,"reportTime":"2026-04-17T12:00:00.000Z","temp":-1.7,"dewp":-7.2,"wdir":0,"wspd":0,"visib":"10+","altim":1021.4,"slp":1022.2,"qcField":6,"presTend":1.7,"maxT":0,"minT":-2.2,"metarType":"METAR","rawOb":"METAR KOGD 171153Z AUTO 00000KT 10SM CLR M02/M07 A3016 RMK AO2 SLP222 T10171072 10000 21022 53017","lat":41.1941,"lon":-112.0168,"elev":1356,"name":"Ogden/Hinckley Arpt, UT, US","cover":"CLR","clouds":[],"fltCat":"VFR"},{"icaoId":"KSEA","receiptTime":"2026-04-17T11:56:24.829Z","obsTime":1776426780,"reportTime":"2026-04-17T12:00:00.000Z","temp":5.6,"dewp":2.2,"wdir":120,"wspd":6,"visib":"10+","altim":1026.5,"slp":1027.2,"qcField":12,"presTend":0.2,"maxT":7.8,"minT":5.6,"metarType":"METAR","rawOb":"METAR KSEA 171153Z 12006KT 10SM BKN055 06/02 A3031 RMK AO2 SLP272 T00560022 10078 20056 53002 $","lat":47.4447,"lon":-122.3144,"elev":115,"name":"Seattle-Tacoma Intl, WA, US","cover":"BKN","clouds":[{"cover":"BKN","base":5500}],"fltCat":"VFR"},{"icaoId":"KPDX","receiptTime":"2026-04-17T11:56:24.925Z","obsTime":1776426780,"reportTime":"2026-04-17T12:00:00.000Z","temp":6.1,"dewp":4.4,"wdir":0,"wspd":0,"visib":"10+","altim":1027.5,"slp":1027.1,"qcField":12,"presTend":-0.5,"maxT":8.3,"minT":4.4,"metarType":"METAR","rawOb":"METAR KPDX 171153Z 00000KT 10SM FEW029 OVC041 06/04 A3034 RMK AO2 SLP271 T00610044 10083 20044 58005 $","lat":45.5958,"lon":-122.6092,"elev":7,"name":"Portland Intl, OR, US","cover":"OVC","clouds":[{"cover":"FEW","base":2900},{"cover":"OVC","base":4100}],"fltCat":"VFR"},{"icaoId":"KPGA","receiptTime":"2026-04-17T11:56:24.936Z","obsTime":1776426780,"reportTime":"2026-04-17T12:00:00.000Z","temp":6.1,"dewp":-8.3,"wdir":280,"wspd":9,"wgst":20,"visib":"10+","altim":1015.7,"slp":1011.8,"qcField":14,"presTend":3.9,"maxT":16.7,"minT":6.1,"metarType":"METAR","rawOb":"METAR KPGA 171153Z AUTO 28009G20KT 10SM OVC100 06/M08 A2999 RMK AO2 PK WND 27027/1126 SLP118 T00611083 10167 20061 53039 $","lat":36.9211,"lon":-111.4487,"elev":1310,"name":"Page Muni, AZ, US","cover":"OVC","clouds":[{"cover":"OVC","base":10000}],"fltCat":"VFR"},{"icaoId":"KPSC","receiptTime":"2026-04-17T11:56:24.946Z","obsTime":1776426780,"reportTime":"2026-04-17T12:00:00.000Z","temp":3.3,"dewp":-1.1,"wdir":0,"wspd":0,"visib":"10+","altim":1024.5,"slp":1024.6,"qcField":6,"presTend":0.5,"maxT":6.1,"minT":-0.6,"metarType":"METAR","rawOb":"METAR KPSC 171153Z AUTO 00000KT 10SM CLR 03/M01 A3025 RMK AO2 SLP246 T00331011 10061 21006 52005","lat":46.2695,"lon":-119.1182,"elev":121,"name":"Pasco/Tri Cities Arpt, WA, US","cover":"CLR","clouds":[],"fltCat":"VFR"},{"icaoId":"KPUW","receiptTime":"2026-04-17T11:56:24.979Z","obsTime":1776426780,"reportTime":"2026-04-17T12:00:00.000Z","temp":0,"dewp":-2.8,"wdir":240,"wspd":4,"visib":"10+","altim":1022.4,"slp":1024.2,"qcField":6,"presTend":1.1,"maxT":4.4,"minT":0,"metarType":"METAR","rawOb":"METAR KPUW 171153Z AUTO 24004KT 10SM CLR 00/M03 A3019 RMK AO2 SLP242 T00001028 10044 20000 51011","lat":46.7438,"lon":-117.1158,"elev":774,"name":"Pullman/Moscow Rgnl, WA, US","cover":"CLR","clouds":[],"fltCat":"VFR"},{"icaoId":"KRDD","receiptTime":"2026-04-17T11:56:25.035Z","obsTime":1776426780,"reportTime":"2026-04-17T12:00:00.000Z","temp":10,"dewp":-5,"wdir":360,"wspd":10,"visib":"10+","altim":1021.1,"slp":1020.7,"qcField":6,"presTend":-0.8,"maxT":12.8,"minT":6.1,"metarType":"METAR","rawOb":"METAR KRDD 171153Z AUTO 36010KT 10SM CLR 10/M05 A3015 RMK AO2 SLP207 T01001050 10128 20061 55008","lat":40.5146,"lon":-122.2977,"elev":152,"name":"Redding Muni, CA, US","cover":"CLR","clouds":[],"fltCat":"VFR"},{"icaoId":"KSMF","receiptTime":"2026-04-17T11:56:25.213Z","obsTime":1776426780,"reportTime":"2026-04-17T12:00:00.000Z","temp":8.9,"dewp":-2.8,"wdir":330,"wspd":15,"wgst":21,"visib":"10+","altim":1017,"slp":1016.9,"qcField":4,"maxT":13.3,"minT":7.8,"metarType":"METAR","rawOb":"METAR KSMF 171153Z 33015G21KT 10SM CLR 09/M03 A3003 RMK AO2 SLP169 T00891028 10133 20078 55000","lat":38.7007,"lon":-121.5948,"elev":7,"name":"Sacramento Intl, CA, US","cover":"CLR","clouds":[],"fltCat":"VFR"},{"icaoId":"KSNA","receiptTime":"2026-04-17T11:56:25.223Z","obsTime":1776426780,"reportTime":"2026-04-17T12:00:00.000Z","temp":14.4,"dewp":10.6,"wdir":110,"wspd":6,"visib":"10+","altim":1013.3,"slp":1013.2,"qcField":6,"presTend":0.2,"maxT":16.7,"minT":14.4,"metarType":"METAR","rawOb":"METAR KSNA 171153Z AUTO 11006KT 10SM CLR 14/11 A2992 RMK AO2 SLP132 T01440106 10167 20144 51002","lat":33.6798,"lon":-117.8675,"elev":14,"name":"Santa Ana/Wayne Arpt, CA, US","cover":"CLR","clouds":[],"fltCat":"VFR"},{"icaoId":"KSHR","receiptTime":"2026-04-17T11:56:25.180Z","obsTime":1776426780,"reportTime":"2026-04-17T12:00:00.000Z","temp":-5,"dewp":-7.2,"wdir":290,"wspd":7,"visib":"10+","altim":1014.6,"slp":1018.7,"qcField":6,"presTend":0.8,"maxT":-0.6,"minT":-5,"pcp24hr":0.46,"metarType":"METAR","rawOb":"METAR KSHR 171153Z AUTO 29007KT 10SM CLR M05/M07 A2996 RMK AO2 SLP187 70046 T10501072 11006 21050 53008","lat":44.7603,"lon":-106.9741,"elev":1212,"name":"Sheridan Cnty Arpt, WY, US","cover":"CLR","clouds":[],"fltCat":"VFR"},{"icaoId":"KSTS","receiptTime":"2026-04-17T11:56:25.291Z","obsTime":1776426780,"reportTime":"2026-04-17T12:00:00.000Z","temp":10,"dewp":-3.9,"wdir":350,"wspd":4,"visib":"10+","altim":1017.7,"slp":1016.8,"qcField":6,"presTend":-0.5,"maxT":12.2,"minT":7.8,"metarType":"METAR","rawOb":"METAR KSTS 171153Z AUTO 35004KT 10SM CLR 10/M04 A3005 RMK AO2 SLP168 T01001039 10122 20078 55005","lat":38.5037,"lon":-122.811,"elev":35,"name":"Santa Rosa/Schulz Arpt, CA, US","cover":"CLR","clouds":[],"fltCat":"VFR"},{"icaoId":"KEVW","receiptTime":"2026-04-17T11:56:25.685Z","obsTime":1776426780,"reportTime":"2026-04-17T12:00:00.000Z","temp":-12.8,"dewp":-14.4,"wdir":240,"wspd":8,"visib":"10+","altim":1017.4,"slp":1022.7,"qcField":14,"presTend":1,"maxT":-8.9,"minT":-12.8,"pcp6hr":0.005,"pcp24hr":0.07,"metarType":"METAR","rawOb":"METAR KEVW 171153Z AUTO 24008KT 10SM FEW027 M13/M14 A3004 RMK AO2 SLP227 60000 70007 T11281144 11089 21128 53010 $","lat":41.2727,"lon":-111.0305,"elev":2178,"name":"Evanston/Uinta Cnty, WY, US","cover":"FEW","clouds":[{"cover":"FEW","base":2700}],"fltCat":"VFR"},{"icaoId":"KLVS","receiptTime":"2026-04-17T11:56:25.818Z","obsTime":1776426780,"reportTime":"2026-04-17T12:00:00.000Z","temp":10,"dewp":-12.8,"wdir":190,"wspd":11,"visib":"10+","altim":1011.9,"slp":1002.9,"qcField":6,"presTend":0.1,"maxT":10,"minT":4.4,"metarType":"METAR","rawOb":"METAR KLVS 171153Z AUTO 19011KT 10SM CLR 10/M13 A2988 RMK AO2 SLP029 7//// T01001128 10100 20044 53001","lat":35.6558,"lon":-105.1385,"elev":2095,"name":"Las Vegas Muni, NM, US","cover":"CLR","clouds":[],"fltCat":"VFR"},{"icaoId":"KTPA","receiptTime":"2026-04-17T11:56:26.245Z","obsTime":1776426780,"reportTime":"2026-04-17T12:00:00.000Z","temp":19.4,"dewp":16.1,"wdir":40,"wspd":3,"visib":"10+","altim":1019.4,"slp":1019.3,"qcField":4,"presTend":1.7,"maxT":21.7,"minT":18.9,"metarType":"METAR","rawOb":"METAR KTPA 171153Z 04003KT 10SM SCT055 BKN250 19/16 A3010 RMK AO2 SLP193 T01940161 10217 20189 53017","lat":27.9633,"lon":-82.54,"elev":2,"name":"Tampa Intl Arpt, FL, US","cover":"BKN","clouds":[{"cover":"SCT","base":5500},{"cover":"BKN","base":25000}],"fltCat":"VFR"},{"icaoId":"KOAK","receiptTime":"2026-04-17T11:56:26.465Z","obsTime":1776426780,"reportTime":"2026-04-17T12:00:00.000Z","temp":13.3,"dewp":-5,"wdir":0,"wspd":0,"visib":"10+","altim":1017.7,"slp":1017.6,"qcField":12,"presTend":0.4,"maxT":15.6,"minT":12.8,"metarType":"METAR","rawOb":"METAR KOAK 171153Z 00000KT 10SM CLR 13/M05 A3005 RMK AO2 SLP176 T01331050 10156 20128 53004 $","lat":37.7178,"lon":-122.233,"elev":3,"name":"Oakland Intl, CA, US","cover":"CLR","clouds":[],"fltCat":"VFR"},{"icaoId":"KPAE","receiptTime":"2026-04-17T11:56:26.577Z","obsTime":1776426780,"reportTime":"2026-04-17T12:00:00.000Z","temp":6.7,"dewp":2.2,"wdir":50,"wspd":3,"visib":"10+","altim":1026.8,"slp":1026.8,"qcField":4,"presTend":0.4,"maxT":7.2,"minT":6.7,"pcp24hr":0.01,"metarType":"METAR","rawOb":"METAR KPAE 171153Z 05003KT 10SM FEW045 SCT065 OVC090 07/02 A3032 RMK AO2 SLP268 70001 T00670022 10072 20067 51004","lat":47.9232,"lon":-122.2831,"elev":166,"name":"Everett/Paine Fld, WA, US","cover":"OVC","clouds":[{"cover":"FEW","base":4500},{"cover":"SCT","base":6500},{"cover":"OVC","base":9000}],"fltCat":"VFR"},{"icaoId":"PANC","receiptTime":"2026-04-17T11:56:29.948Z","obsTime":1776426780,"reportTime":"2026-04-17T12:00:00.000Z","temp":2.2,"dewp":0,"wdir":160,"wspd":3,"visib":"10+","altim":1008.9,"slp":1009,"qcField":4,"wxString":"-RA","presTend":-0.1,"maxT":3.3,"minT":0,"precip":0.005,"pcp6hr":0.005,"pcp24hr":0.05,"snow":12000,"metarType":"METAR","rawOb":"METAR PANC 171153Z 16003KT 10SM -RA BKN032 OVC050 02/00 A2979 RMK AO2 RAB23 SLP090 4/012 P0000 60000 70005 T00220000 10033 20000 58001","lat":61.1691,"lon":-150.0277,"elev":39,"name":"Anchorage Intl, AK, US","cover":"OVC","clouds":[{"cover":"BKN","base":3200},{"cover":"OVC","base":5000}],"fltCat":"VFR"},{"icaoId":"KFAT","receiptTime":"2026-04-17T11:56:30.052Z","obsTime":1776426780,"reportTime":"2026-04-17T12:00:00.000Z","temp":10,"dewp":0,"wdir":0,"wspd":0,"visib":"10+","altim":1016,"slp":1015.8,"qcField":12,"presTend":0.4,"maxT":15,"minT":10,"metarType":"METAR","rawOb":"METAR KFAT 171153Z 00000KT 10SM FEW100 10/00 A3000 RMK AO2 SLP158 T01000000 10150 20100 53004 $","lat":36.78,"lon":-119.7202,"elev":102,"name":"Fresno/Yosemite Intl, CA, US","cover":"FEW","clouds":[{"cover":"FEW","base":10000}],"fltCat":"VFR"},{"icaoId":"KPIH","receiptTime":"2026-04-17T11:56:26.667Z","obsTime":1776426780,"reportTime":"2026-04-17T12:00:00.000Z","temp":-4.4,"dewp":-6.7,"wdir":210,"wspd":12,"visib":"10+","altim":1021.4,"slp":1023.7,"qcField":6,"presTend":1.5,"maxT":-1.7,"minT":-4.4,"metarType":"METAR","rawOb":"METAR KPIH 171153Z AUTO 21012KT 10SM CLR M04/M07 A3016 RMK AO2 SLP237 T10441067 11017 21044 53015","lat":42.9197,"lon":-112.5723,"elev":1357,"name":"Pocatello Rgnl, ID, US","cover":"CLR","clouds":[],"fltCat":"VFR"},{"icaoId":"KBRO","receiptTime":"2026-04-17T11:56:18.518Z","obsTime":1776426780,"reportTime":"2026-04-17T12:00:00.000Z","temp":25.6,"dewp":22.2,"wdir":160,"wspd":10,"visib":"10+","altim":1011.3,"slp":1011,"qcField":4,"presTend":0.2,"maxT":25.6,"minT":25.6,"metarType":"METAR","rawOb":"METAR KBRO 171153Z 16010KT 10SM BKN014 OVC024 26/22 A2986 RMK AO2 SLP110 T02560222 10256 20256 53002","lat":25.9146,"lon":-97.4231,"elev":6,"name":"Brownsville Intl, TX, US","cover":"OVC","clouds":[{"cover":"BKN","base":1400},{"cover":"OVC","base":2400}],"fltCat":"MVFR"},{"icaoId":"KBOI","receiptTime":"2026-04-17T11:56:23.251Z","obsTime":1776426780,"reportTime":"2026-04-17T12:00:00.000Z","temp":-1.7,"dewp":-4.4,"wdir":140,"wspd":4,"visib":"10+","altim":1024.1,"slp":1025.5,"qcField":4,"presTend":0.9,"maxT":1.7,"minT":-1.7,"metarType":"METAR","rawOb":"METAR KBOI 171153Z 14004KT 10SM CLR M02/M04 A3024 RMK AO2 SLP255 T10171044 10017 21017 53009","lat":43.567,"lon":-116.2406,"elev":860,"name":"Boise Arpt, ID, US","cover":"CLR","clouds":[],"fltCat":"VFR"},{"icaoId":"KMYR","receiptTime":"2026-04-17T11:56:24.417Z","obsTime":1776426780,"reportTime":"2026-04-17T12:00:00.000Z","temp":20.6,"dewp":16.7,"wdir":230,"wspd":7,"visib":"10+","altim":1016.7,"slp":1016.3,"qcField":12,"presTend":0.6,"maxT":20.6,"minT":19.4,"metarType":"METAR","rawOb":"METAR KMYR 171153Z 23007KT 10SM CLR 21/17 A3002 RMK AO2 SLP163 T02060167 10206 20194 53006 $","lat":33.6769,"lon":-78.9325,"elev":7,"name":"Myrtle Beach Intl, SC, US","cover":"CLR","clouds":[],"fltCat":"VFR"},{"icaoId":"KSDL","receiptTime":"2026-04-17T11:56:23.274Z","obsTime":1776426780,"reportTime":"2026-04-17T12:00:00.000Z","temp":17.8,"dewp":-0.6,"wdir":30,"wspd":3,"visib":"10+","altim":1010.6,"slp":1008.5,"qcField":6,"presTend":1,"maxT":23.9,"minT":17.8,"metarType":"METAR","rawOb":"METAR KSDL 171153Z AUTO 03003KT 10SM CLR 18/M01 A2984 RMK AO2 SLP085 T01781006 10239 20178 51010","lat":33.6123,"lon":-111.9232,"elev":438,"name":"Scottsdale Muni, AZ, US","cover":"CLR","clouds":[],"fltCat":"VFR"},{"icaoId":"KCYS","receiptTime":"2026-04-17T11:56:22.116Z","obsTime":1776426780,"reportTime":"2026-04-17T12:00:00.000Z","temp":-1.7,"dewp":-10.6,"wdir":320,"wspd":13,"wgst":22,"visib":"10+","altim":1010.6,"slp":1006.8,"qcField":4,"presTend":1.5,"maxT":2.8,"minT":-1.7,"metarType":"METAR","rawOb":"METAR KCYS 171153Z 32013G22KT 10SM BKN110 M02/M11 A2984 RMK AO2 PK WND 34033/1123 SLP068 T10171106 10028 21017 53015","lat":41.1579,"lon":-104.8081,"elev":1868,"name":"Cheyenne Rgnl, WY, US","cover":"BKN","clouds":[{"cover":"BKN","base":11000}],"fltCat":"VFR"},{"icaoId":"KCDC","receiptTime":"2026-04-17T11:56:21.524Z","obsTime":1776426780,"reportTime":"2026-04-17T12:00:00.000Z","temp":-3.9,"dewp":-7.8,"wdir":20,"wspd":7,"visib":"10+","altim":1020.4,"slp":1018.2,"qcField":6,"presTend":1.3,"maxT":1.7,"minT":-3.9,"pcp6hr":0.005,"metarType":"METAR","rawOb":"METAR KCDC 171153Z AUTO 02007KT 10SM CLR M04/M08 A3013 RMK AO2 SLP182 60000 T10391078 10017 21039 53013","lat":37.7067,"lon":-113.097,"elev":1703,"name":"Cedar City Muni, UT, US","cover":"CLR","clouds":[],"fltCat":"VFR"},{"icaoId":"KTWF","receiptTime":"2026-04-17T11:56:26.304Z","obsTime":1776426780,"reportTime":"2026-04-17T12:00:00.000Z","temp":-2.8,"dewp":-7.8,"wdir":240,"wspd":12,"visib":"10+","altim":1022.4,"slp":1023.1,"qcField":6,"presTend":0.8,"maxT":-1.7,"minT":-3.3,"pcp24hr":0.06,"metarType":"METAR","rawOb":"METAR KTWF 171153Z AUTO 24012KT 10SM CLR M03/M08 A3019 RMK AO2 SLP231 70006 T10281078 11017 21033 53008","lat":42.4785,"lon":-114.4775,"elev":1269,"name":"Twin Falls/Joslin Fld, ID, US","cover":"CLR","clouds":[],"fltCat":"VFR"},{"icaoId":"KMFR","receiptTime":"2026-04-17T11:56:23.538Z","obsTime":1776426780,"reportTime":"2026-04-17T12:00:00.000Z","temp":0,"dewp":-1.7,"wdir":150,"wspd":3,"visib":"10+","altim":1025.5,"slp":1025.8,"qcField":6,"presTend":-0.4,"maxT":5.6,"minT":-0.6,"metarType":"METAR","rawOb":"METAR KMFR 171153Z AUTO 15003KT 10SM CLR 00/M02 A3028 RMK AO2 SLP258 T00001017 10056 21006 56004","lat":42.375,"lon":-122.877,"elev":397,"name":"Medford/Rogue Valley Intl, OR, US","cover":"CLR","clouds":[],"fltCat":"VFR"},{"icaoId":"KMSO","receiptTime":"2026-04-17T11:56:24.774Z","obsTime":1776426780,"reportTime":"2026-04-17T12:00:00.000Z","temp":1.7,"dewp":-4.4,"wdir":0,"wspd":0,"visib":"10+","altim":1019.7,"slp":1021.7,"qcField":4,"presTend":1.2,"maxT":2.2,"minT":-1.1,"pcp24hr":0.01,"metarType":"METAR","rawOb":"METAR KMSO 171153Z 00000KT 10SM OVC044 02/M04 A3011 RMK AO2 SLP217 70001 T00171044 10022 21011 53012","lat":46.9208,"lon":-114.0938,"elev":974,"name":"Missoula Intl, MT, US","cover":"OVC","clouds":[{"cover":"OVC","base":4400}],"fltCat":"VFR"},{"icaoId":"KBHM","receiptTime":"2026-04-17T11:56:21.378Z","obsTime":1776426780,"reportTime":"2026-04-17T12:00:00.000Z","temp":16.7,"dewp":11.7,"wdir":0,"wspd":0,"visib":"10+","altim":1018.7,"slp":1017.8,"qcField":4,"presTend":0.5,"maxT":20,"minT":15,"metarType":"METAR","rawOb":"METAR KBHM 171153Z 00000KT 10SM FEW250 17/12 A3008 RMK AO2 SLP178 T01670117 10200 20150 53005","lat":33.5655,"lon":-86.7449,"elev":191,"name":"Birmingham Intl, AL, US","cover":"FEW","clouds":[{"cover":"FEW","base":25000}],"fltCat":"VFR"},{"icaoId":"KBLI","receiptTime":"2026-04-17T11:56:21.423Z","obsTime":1776426780,"reportTime":"2026-04-17T12:00:00.000Z","temp":5.6,"dewp":2.8,"wdir":0,"wspd":0,"visib":"10+","altim":1026.2,"slp":1026.8,"qcField":6,"presTend":0.8,"maxT":8.9,"minT":5,"metarType":"METAR","rawOb":"METAR KBLI 171153Z AUTO 00000KT 10SM BKN075 06/03 A3030 RMK AO2 SLP268 T00560028 10089 20050 53008","lat":48.7991,"lon":-122.5407,"elev":46,"name":"Bellingham Intl, WA, US","cover":"BKN","clouds":[{"cover":"BKN","base":7500}],"fltCat":"VFR"},{"icaoId":"KLAW","receiptTime":"2026-04-17T11:56:16.423Z","obsTime":1776426780,"reportTime":"2026-04-17T12:00:00.000Z","temp":19.4,"dewp":17.8,"wdir":150,"wspd":7,"visib":"10+","altim":1008.9,"slp":1007.6,"qcField":6,"presTend":0.5,"maxT":21.1,"minT":19.4,"metarType":"METAR","rawOb":"METAR KLAW 171153Z AUTO 15007KT 10SM CLR 19/18 A2979 RMK AO2 SLP076 T01940178 10211 20194 53005","lat":34.5577,"lon":-98.4172,"elev":328,"name":"Lawton-Fort Sill Rgnl, OK, US","cover":"CLR","clouds":[],"fltCat":"VFR"},{"icaoId":"KLBB","receiptTime":"2026-04-17T11:56:24.741Z","obsTime":1776426780,"reportTime":"2026-04-17T12:00:00.000Z","temp":18.3,"dewp":16.1,"wdir":220,"wspd":10,"wgst":18,"visib":7,"altim":1009.6,"slp":1004.6,"qcField":4,"presTend":0.6,"maxT":21.1,"minT":18.3,"metarType":"METAR","rawOb":"METAR KLBB 171153Z 22010G18KT 7SM FEW012 FEW250 18/16 A2981 RMK AO2 SLP046 T01830161 10211 20183 53006","lat":33.6658,"lon":-101.8233,"elev":996,"name":"Lubbock Intl Arpt, TX, US","cover":"FEW","clouds":[{"cover":"FEW","base":1200},{"cover":"FEW","base":25000}],"fltCat":"VFR"},{"icaoId":"KLAX","receiptTime":"2026-04-17T11:56:24.730Z","obsTime":1776426780,"reportTime":"2026-04-17T12:00:00.000Z","temp":14.4,"dewp":11.7,"wdir":80,"wspd":5,"visib":"10+","altim":1013.3,"slp":1013.1,"qcField":4,"presTend":0.3,"maxT":16.7,"minT":13.9,"metarType":"METAR","rawOb":"METAR KLAX 171153Z 08005KT 10SM FEW012 FEW018 14/12 A2992 RMK AO2 SLP131 T01440117 10167 20139 52003","lat":33.9382,"lon":-118.3866,"elev":30,"name":"Los Angeles Intl, CA, US","cover":"FEW","clouds":[{"cover":"FEW","base":1200},{"cover":"FEW","base":1800}],"fltCat":"VFR"},{"icaoId":"KMSY","receiptTime":"2026-04-17T11:56:26.082Z","obsTime":1776426780,"reportTime":"2026-04-17T12:00:00.000Z","temp":20.6,"dewp":18.3,"wdir":80,"wspd":3,"visib":"10+","altim":1017,"slp":1017,"qcField":4,"presTend":0.6,"maxT":21.1,"minT":18.9,"metarType":"METAR","rawOb":"METAR KMSY 171153Z 08003KT 10SM FEW015 21/18 A3003 RMK AO2 SLP170 T02060183 10211 20189 53006","lat":29.9974,"lon":-90.2777,"elev":0,"name":"New Orleans/Armstrong Intl, LA, US","cover":"FEW","clouds":[{"cover":"FEW","base":1500}],"fltCat":"VFR"},{"icaoId":"KSBA","receiptTime":"2026-04-17T11:56:25.144Z","obsTime":1776426780,"reportTime":"2026-04-17T12:00:00.000Z","temp":10,"dewp":9.4,"wdir":40,"wspd":3,"visib":"10+","altim":1013.3,"slp":1013.3,"qcField":14,"presTend":0.9,"maxT":14.4,"minT":9.4,"metarType":"METAR","rawOb":"METAR KSBA 171153Z AUTO 04003KT 10SM CLR 10/09 A2992 RMK AO2 SLP133 T01000094 10144 20094 53009 $","lat":34.4241,"lon":-119.8425,"elev":2,"name":"Santa Barbara Muni, CA, US","cover":"CLR","clouds":[],"fltCat":"VFR"},{"icaoId":"KPSP","receiptTime":"2026-04-17T11:56:24.957Z","obsTime":1776426780,"reportTime":"2026-04-17T12:00:00.000Z","temp":17.2,"dewp":5.6,"wdir":0,"wspd":0,"visib":"10+","altim":1011.3,"slp":1010.8,"qcField":14,"presTend":2.3,"maxT":22.8,"minT":17.2,"metarType":"METAR","rawOb":"METAR KPSP 171153Z AUTO 00000KT 10SM CLR 17/06 A2986 RMK AO2 SLP108 T01720056 10228 20172 53023 $","lat":33.8222,"lon":-116.5043,"elev":123,"name":"Palm Springs Intl, CA, US","cover":"CLR","clouds":[],"fltCat":"VFR"},{"icaoId":"KBTM","receiptTime":"2026-04-17T11:56:21.481Z","obsTime":1776426780,"reportTime":"2026-04-17T12:00:00.000Z","temp":-4.4,"dewp":-8.3,"wdir":0,"wspd":0,"visib":"10+","altim":1017.7,"slp":1021,"qcField":6,"presTend":0.8,"maxT":-2.8,"minT":-5,"metarType":"METAR","rawOb":"METAR KBTM 171153Z AUTO 00000KT 10SM BKN046 OVC080 M04/M08 A3005 RMK AO2 SLP210 T10441083 11028 21050 53008","lat":45.9644,"lon":-112.5015,"elev":1680,"name":"Butte/Mooney Arpt, MT, US","cover":"OVC","clouds":[{"cover":"BKN","base":4600},{"cover":"OVC","base":8000}],"fltCat":"VFR"},{"icaoId":"KDLN","receiptTime":"2026-04-17T11:56:25.536Z","obsTime":1776426780,"reportTime":"2026-04-17T12:00:00.000Z","temp":-4.4,"dewp":-8.3,"wdir":200,"wspd":9,"visib":"10+","altim":1017.7,"slp":1021,"qcField":6,"presTend":0.5,"maxT":-2.2,"minT":-5,"pcp24hr":0.01,"metarType":"METAR","rawOb":"METAR KDLN 171153Z AUTO 20009KT 10SM BKN080 OVC090 M04/M08 A3005 RMK AO2 SLP210 70001 T10441083 11022 21050 53005","lat":45.2584,"lon":-112.5546,"elev":1586,"name":"Dillon Arpt, MT, US","cover":"OVC","clouds":[{"cover":"BKN","base":8000},{"cover":"OVC","base":9000}],"fltCat":"VFR"},{"icaoId":"KBFI","receiptTime":"2026-04-17T11:56:23.327Z","obsTime":1776426780,"reportTime":"2026-04-17T12:00:00.000Z","temp":6.7,"dewp":3.3,"wdir":110,"wspd":4,"visib":"10+","altim":1027.2,"slp":1026.8,"qcField":12,"presTend":0.4,"maxT":8.3,"minT":6.1,"pcp6hr":0.005,"metarType":"METAR","rawOb":"METAR KBFI 171153Z 11004KT 10SM FEW032 OVC044 07/03 A3033 RMK AO2 SLP268 60000 T00670033 10083 20061 51004 $","lat":47.5455,"lon":-122.3148,"elev":7,"name":"Seattle/Boeing Fld, WA, US","cover":"OVC","clouds":[{"cover":"FEW","base":3200},{"cover":"OVC","base":4400}],"fltCat":"VFR"},{"icaoId":"KBIL","receiptTime":"2026-04-17T11:56:29.960Z","obsTime":1776426780,"reportTime":"2026-04-17T12:00:00.000Z","temp":-4.4,"dewp":-7.8,"wdir":220,"wspd":8,"visib":"10+","altim":1015.3,"slp":1018.4,"qcField":4,"presTend":0.6,"maxT":-2.2,"minT":-4.4,"metarType":"METAR","rawOb":"METAR KBIL 171153Z 22008KT 10SM FEW150 SCT250 M04/M08 A2998 RMK AO2 SLP184 T10441078 11022 21044 53006","lat":45.8072,"lon":-108.5462,"elev":1089,"name":"Billings/Logan Intl, MT, US","cover":"SCT","clouds":[{"cover":"FEW","base":15000},{"cover":"SCT","base":25000}],"fltCat":"VFR"},{"icaoId":"KVGT","receiptTime":"2026-04-17T11:56:26.386Z","obsTime":1776426780,"reportTime":"2026-04-17T12:00:00.000Z","temp":10.6,"dewp":-16.1,"wdir":320,"wspd":32,"wgst":42,"visib":"10+","altim":1016.7,"slp":1016.9,"qcField":6,"presTend":3.3,"maxT":21.1,"minT":10.6,"metarType":"METAR","rawOb":"METAR KVGT 171153Z AUTO 32032G42KT 10SM CLR 11/M16 A3002 RMK AO2 PK WND 33048/1118 SLP169 T01061161 10211 20106 51033","lat":36.212,"lon":-115.194,"elev":664,"name":"Las Vegas/North Arpt, NV, US","cover":"CLR","clouds":[],"fltCat":"VFR"},{"icaoId":"KYKM","receiptTime":"2026-04-17T11:56:24.890Z","obsTime":1776426780,"reportTime":"2026-04-17T12:00:00.000Z","temp":-1.1,"dewp":-5,"wdir":0,"wspd":0,"visib":"10+","altim":1023.8,"slp":1024.3,"qcField":6,"presTend":0.7,"maxT":5,"minT":-1.7,"metarType":"METAR","rawOb":"METAR KYKM 171153Z AUTO 00000KT 10SM CLR M01/M05 A3023 RMK AO2 SLP243 T10111050 10050 21017 51007","lat":46.564,"lon":-120.5349,"elev":319,"name":"Yakima/McAllister Fld, WA, US","cover":"CLR","clouds":[],"fltCat":"VFR"},{"icaoId":"KDVT","receiptTime":"2026-04-17T11:56:25.606Z","obsTime":1776426780,"reportTime":"2026-04-17T12:00:00.000Z","temp":14.4,"dewp":-2.8,"wdir":0,"wspd":0,"visib":"10+","altim":1010.2,"slp":1008.4,"qcField":14,"presTend":0.9,"maxT":22.8,"minT":14.4,"metarType":"METAR","rawOb":"METAR KDVT 171153Z AUTO 00000KT 10SM CLR 14/M03 A2983 RMK AO2 SLP084 T01441028 10228 20144 53009 $","lat":33.6902,"lon":-112.0662,"elev":454,"name":"Phoenix/Deer Valley Arpt, AZ, US","cover":"CLR","clouds":[],"fltCat":"VFR"},{"icaoId":"KMCI","receiptTime":"2026-04-17T11:56:25.854Z","obsTime":1776426780,"reportTime":"2026-04-17T12:00:00.000Z","temp":20.6,"dewp":18.3,"wdir":190,"wspd":19,"wgst":26,"visib":"10+","altim":1005.5,"slp":1004.3,"qcField":4,"presTend":-1.3,"maxT":21.7,"minT":20,"metarType":"METAR","rawOb":"METAR KMCI 171153Z 19019G26KT 10SM FEW022 SCT200 21/18 A2969 RMK AO2 PK WND 17030/1116 SLP043 T02060183 10217 20200 56013","lat":39.2975,"lon":-94.7309,"elev":308,"name":"Kansas City Intl, MO, US","cover":"SCT","clouds":[{"cover":"FEW","base":2200},{"cover":"SCT","base":20000}],"fltCat":"VFR"},{"icaoId":"KGEG","receiptTime":"2026-04-17T11:56:30.075Z","obsTime":1776426780,"reportTime":"2026-04-17T12:00:00.000Z","temp":-0.6,"dewp":-5.6,"wdir":190,"wspd":9,"visib":"10+","altim":1020.7,"slp":1022,"qcField":4,"presTend":1.1,"maxT":4.4,"minT":-0.6,"metarType":"METAR","rawOb":"METAR KGEG 171153Z 19009KT 10SM FEW080 SCT140 M01/M06 A3014 RMK AO2 SLP220 T10061056 10044 21006 52011","lat":47.6217,"lon":-117.528,"elev":718,"name":"Spokane Intl, WA, US","cover":"SCT","clouds":[{"cover":"FEW","base":8000},{"cover":"SCT","base":14000}],"fltCat":"VFR"},{"icaoId":"KDMN","receiptTime":"2026-04-17T11:56:22.306Z","obsTime":1776426780,"reportTime":"2026-04-17T12:00:00.000Z","temp":8.3,"dewp":-8.9,"wdir":280,"wspd":4,"visib":"10+","altim":1013.6,"slp":1007.7,"qcField":6,"presTend":0.6,"maxT":19.4,"minT":8.3,"metarType":"METAR","rawOb":"METAR KDMN 171153Z AUTO 28004KT 10SM CLR 08/M09 A2993 RMK AO2 SLP077 T00831089 10194 20083 52006","lat":32.2592,"lon":-107.7206,"elev":1310,"name":"Deming Muni, NM, US","cover":"CLR","clouds":[],"fltCat":"VFR"},{"icaoId":"KONT","receiptTime":"2026-04-17T11:56:26.530Z","obsTime":1776426780,"reportTime":"2026-04-17T12:00:00.000Z","temp":11.7,"dewp":10.6,"wdir":220,"wspd":3,"visib":"10+","altim":1013.3,"slp":1012.5,"qcField":12,"presTend":-0.2,"maxT":15,"minT":11.7,"metarType":"METAR","rawOb":"METAR KONT 171153Z 22003KT 10SM FEW015 12/11 A2992 RMK AO2 SLP125 T01170106 10150 20117 55002 $","lat":34.0531,"lon":-117.5769,"elev":279,"name":"Ontario Intl, CA, US","cover":"FEW","clouds":[{"cover":"FEW","base":1500}],"fltCat":"VFR"},{"icaoId":"KPBI","receiptTime":"2026-04-17T11:56:26.588Z","obsTime":1776426780,"reportTime":"2026-04-17T12:00:00.000Z","temp":23.9,"dewp":21.1,"wdir":50,"wspd":6,"visib":"10+","altim":1017.7,"slp":1017.5,"qcField":12,"presTend":1.2,"maxT":24.4,"minT":23.3,"pcp6hr":0.03,"pcp24hr":0.03,"metarType":"METAR","rawOb":"METAR KPBI 171153Z 05006KT 10SM FEW011 SCT029 SCT043 24/21 A3005 RMK AO2 SLP175 60003 70003 T02390211 10244 20233 53012 $","lat":26.6851,"lon":-80.0992,"elev":4,"name":"Palm Beach Intl, FL, US","cover":"SCT","clouds":[{"cover":"FEW","base":1100},{"cover":"SCT","base":2900},{"cover":"SCT","base":4300}],"fltCat":"VFR"},{"icaoId":"KSWO","receiptTime":"2026-04-17T11:56:19.287Z","obsTime":1776426780,"reportTime":"2026-04-17T12:00:00.000Z","temp":20.6,"dewp":17.8,"wdir":180,"wspd":11,"wgst":20,"visib":9,"altim":1007.9,"slp":1006.6,"qcField":6,"presTend":0.1,"maxT":23.3,"minT":20.6,"metarType":"METAR","rawOb":"METAR KSWO 171153Z AUTO 18011G20KT 9SM OVC048 21/18 A2976 RMK AO2 SLP066 T02060178 10233 20206 51001","lat":36.1624,"lon":-97.0832,"elev":293,"name":"Stillwater Muni, OK, US","cover":"OVC","clouds":[{"cover":"OVC","base":4800}],"fltCat":"VFR"},{"icaoId":"KELY","receiptTime":"2026-04-17T11:56:30.029Z","obsTime":1776426780,"reportTime":"2026-04-17T12:00:00.000Z","temp":-10.6,"dewp":-15.6,"wdir":0,"wspd":0,"visib":"10+","altim":1021.8,"slp":1022.6,"qcField":14,"presTend":0.5,"maxT":-3.9,"minT":-10.6,"metarType":"METAR","rawOb":"METAR KELY 171153Z AUTO 00000KT 10SM CLR M11/M16 A3017 RMK AO2 SLP226 T11061156 11039 21106 53005 $","lat":39.2954,"lon":-114.8466,"elev":1906,"name":"Ely/Yelland Fld, NV, US","cover":"CLR","clouds":[],"fltCat":"VFR"},{"icaoId":"KLGB","receiptTime":"2026-04-17T11:56:23.484Z","obsTime":1776426780,"reportTime":"2026-04-17T12:00:00.000Z","temp":13.3,"dewp":11.1,"wdir":80,"wspd":3,"visib":"10+","altim":1013.3,"slp":1013.1,"qcField":4,"presTend":0.3,"maxT":16.7,"minT":13.3,"metarType":"METAR","rawOb":"METAR KLGB 171153Z 08003KT 10SM FEW020 13/11 A2992 RMK AO2 SLP131 T01330111 10167 20133 53003","lat":33.8118,"lon":-118.1472,"elev":10,"name":"Long Beach Arpt, CA, US","cover":"FEW","clouds":[{"cover":"FEW","base":2000}],"fltCat":"VFR"},{"icaoId":"KLOL","receiptTime":"2026-04-17T11:56:16.468Z","obsTime":1776426780,"reportTime":"2026-04-17T12:00:00.000Z","temp":-8.9,"dewp":-13.9,"wdir":90,"wspd":3,"visib":"10+","altim":1024.5,"slp":1026.5,"qcField":6,"maxT":-0.6,"minT":-9.4,"metarType":"METAR","rawOb":"METAR KLOL 171153Z AUTO 09003KT 10SM CLR M09/M14 A3025 RMK AO2 SLP265 T10891139 11006 21094 55000","lat":40.0684,"lon":-118.5702,"elev":1191,"name":"Lovelock/Derby Fld, NV, US","cover":"CLR","clouds":[],"fltCat":"VFR"},{"icaoId":"KMAF","receiptTime":"2026-04-17T11:56:16.547Z","obsTime":1776426780,"reportTime":"2026-04-17T12:00:00.000Z","temp":19.4,"dewp":16.7,"wdir":180,"wspd":10,"visib":9,"altim":1009.9,"slp":1005.3,"qcField":4,"presTend":0.3,"maxT":21.7,"minT":19.4,"metarType":"METAR","rawOb":"METAR KMAF 171153Z 18010KT 9SM CLR 19/17 A2982 RMK AO2 SLP053 T01940167 10217 20194 53003","lat":31.9475,"lon":-102.2086,"elev":874,"name":"Midland Intl, TX, US","cover":"CLR","clouds":[],"fltCat":"VFR"},{"icaoId":"KMCO","receiptTime":"2026-04-17T11:56:16.583Z","obsTime":1776426780,"reportTime":"2026-04-17T12:00:00.000Z","temp":19.4,"dewp":17.2,"wdir":10,"wspd":4,"visib":"10+","altim":1019.7,"slp":1019.6,"qcField":4,"presTend":1.6,"maxT":19.4,"minT":16.7,"metarType":"METAR","rawOb":"METAR KMCO 171153Z 01004KT 10SM CLR 19/17 A3011 RMK AO2 SLP196 T01940172 10194 20167 53016","lat":28.4182,"lon":-81.3241,"elev":27,"name":"Orlando Intl, FL, US","cover":"CLR","clouds":[],"fltCat":"VFR"},{"icaoId":"KMLC","receiptTime":"2026-04-17T11:56:16.650Z","obsTime":1776426780,"reportTime":"2026-04-17T12:00:00.000Z","temp":21.1,"dewp":18.3,"wdir":180,"wspd":7,"visib":"10+","altim":1011.3,"slp":1010.2,"qcField":6,"presTend":0.3,"maxT":22.8,"minT":21.1,"metarType":"METAR","rawOb":"METAR KMLC 171153Z AUTO 18007KT 130V240 10SM SCT070 21/18 A2986 RMK AO2 SLP102 T02110183 10228 20211 53003","lat":34.8824,"lon":-95.7815,"elev":231,"name":"McAlester Rgnl, OK, US","cover":"SCT","clouds":[{"cover":"SCT","base":7000}],"fltCat":"VFR"},{"icaoId":"KMOD","receiptTime":"2026-04-17T11:56:20.297Z","obsTime":1776426780,"reportTime":"2026-04-17T12:00:00.000Z","temp":10,"dewp":-2.2,"wdir":300,"wspd":11,"visib":"10+","altim":1016,"slp":1015.7,"qcField":14,"presTend":0.7,"maxT":14.4,"minT":10,"metarType":"METAR","rawOb":"METAR KMOD 171153Z AUTO 30011KT 10SM CLR 10/M02 A3000 RMK AO2 SLP157 T01001022 10144 20100 53007 $","lat":37.6254,"lon":-120.9549,"elev":25,"name":"Modesto/Sham Fld, CA, US","cover":"CLR","clouds":[],"fltCat":"VFR"},{"icaoId":"KMYF","receiptTime":"2026-04-17T11:56:16.743Z","obsTime":1776426780,"reportTime":"2026-04-17T12:00:00.000Z","temp":12.8,"dewp":8.9,"wdir":100,"wspd":6,"visib":"10+","altim":1014,"slp":1013.4,"qcField":6,"maxT":15.6,"minT":12.8,"metarType":"METAR","rawOb":"METAR KMYF 171153Z AUTO 10006KT 10SM CLR 13/09 A2994 RMK AO2 SLP134 T01280089 10156 20128 55000","lat":32.8145,"lon":-117.1375,"elev":128,"name":"San Diego/Montgomery Arpt, CA, US","cover":"CLR","clouds":[],"fltCat":"VFR"},{"icaoId":"KRTN","receiptTime":"2026-04-17T11:56:17.094Z","obsTime":1776426780,"reportTime":"2026-04-17T12:00:00.000Z","temp":4.4,"dewp":-14.4,"wdir":300,"wspd":3,"visib":"10+","altim":1009.6,"slp":1003.7,"qcField":6,"presTend":0.1,"maxT":10.6,"minT":3.3,"metarType":"METAR","rawOb":"METAR KRTN 171153Z AUTO 30003KT 10SM CLR 04/M14 A2981 RMK AO2 SLP037 T00441144 10106 20033 53001","lat":36.7418,"lon":-104.5076,"elev":1939,"name":"Raton/Crews Fld, NM, US","cover":"CLR","clouds":[],"fltCat":"VFR"},{"icaoId":"KBNA","receiptTime":"2026-04-17T11:56:17.314Z","obsTime":1776426780,"reportTime":"2026-04-17T12:00:00.000Z","temp":14.4,"dewp":13.3,"wdir":180,"wspd":3,"visib":"10+","altim":1018,"slp":1017.4,"qcField":4,"presTend":1.1,"maxT":16.1,"minT":13.9,"pcp24hr":0.67,"metarType":"METAR","rawOb":"METAR KBNA 171153Z 18003KT 10SM FEW050 SCT250 14/13 A3006 RMK AO2 SLP174 70067 T01440133 10161 20139 53011","lat":36.1105,"lon":-86.6881,"elev":168,"name":"Nashville Intl, TN, US","cover":"SCT","clouds":[{"cover":"FEW","base":5000},{"cover":"SCT","base":25000}],"fltCat":"VFR"},{"icaoId":"KFUL","receiptTime":"2026-04-17T11:56:17.734Z","obsTime":1776426780,"reportTime":"2026-04-17T12:00:00.000Z","temp":13.9,"dewp":11.1,"wdir":80,"wspd":3,"visib":"10+","altim":1013.3,"slp":1012.9,"qcField":6,"presTend":0.1,"maxT":16.7,"minT":13.9,"metarType":"METAR","rawOb":"METAR KFUL 171153Z AUTO 08003KT 10SM CLR 14/11 A2992 RMK AO2 SLP129 T01390111 10167 20139 51001","lat":33.8715,"lon":-117.9856,"elev":23,"name":"Fullerton Muni, CA, US","cover":"CLR","clouds":[],"fltCat":"VFR"},{"icaoId":"KGSP","receiptTime":"2026-04-17T11:56:21.615Z","obsTime":1776426780,"reportTime":"2026-04-17T12:00:00.000Z","temp":16.1,"dewp":12.8,"wdir":0,"wspd":0,"visib":"10+","altim":1017,"slp":1015.9,"qcField":4,"presTend":1.2,"maxT":20,"minT":13.3,"metarType":"METAR","rawOb":"METAR KGSP 171153Z 00000KT 10SM CLR 16/13 A3003 RMK AO2 SLP159 T01610128 10200 20133 53012","lat":34.8842,"lon":-82.2209,"elev":285,"name":"Greenville-Spartanburg Intl, SC, US","cover":"CLR","clouds":[],"fltCat":"VFR"},{"icaoId":"KHLN","receiptTime":"2026-04-17T11:56:23.406Z","obsTime":1776426780,"reportTime":"2026-04-17T12:00:00.000Z","temp":1.1,"dewp":-7.2,"wdir":280,"wspd":8,"visib":"10+","altim":1017,"slp":1020.6,"qcField":4,"presTend":1.1,"maxT":1.1,"minT":0.6,"metarType":"METAR","rawOb":"METAR KHLN 171153Z 28008KT 10SM BKN110 01/M07 A3003 RMK AO2 SLP206 T00111072 10011 20006 53011","lat":46.6045,"lon":-111.9892,"elev":1178,"name":"Helena Rgnl, MT, US","cover":"BKN","clouds":[{"cover":"BKN","base":11000}],"fltCat":"VFR"},{"icaoId":"KAPA","receiptTime":"2026-04-17T11:56:18.670Z","obsTime":1776426780,"reportTime":"2026-04-17T12:00:00.000Z","temp":0.6,"dewp":-5,"wdir":50,"wspd":5,"visib":"10+","altim":1011.3,"slp":1008.1,"qcField":4,"presTend":1.3,"maxT":15,"minT":0.6,"metarType":"METAR","rawOb":"METAR KAPA 171153Z 05005KT 10SM FEW025 BKN220 01/M05 A2986 RMK AO2 SLP081 T00061050 10150 20006 50013","lat":39.5599,"lon":-104.8484,"elev":1791,"name":"Denver/Centennial Arpt, CO, US","cover":"BKN","clouds":[{"cover":"FEW","base":2500},{"cover":"BKN","base":22000}],"fltCat":"VFR"},{"icaoId":"KSAF","receiptTime":"2026-04-17T11:56:19.235Z","obsTime":1776426780,"reportTime":"2026-04-17T12:00:00.000Z","temp":2.8,"dewp":-10.6,"wdir":0,"wspd":0,"visib":"10+","altim":1013.3,"slp":1006.7,"qcField":6,"presTend":0.6,"maxT":9.4,"minT":2.2,"metarType":"METAR","rawOb":"METAR KSAF 171153Z AUTO 00000KT 10SM CLR 03/M11 A2992 RMK AO2 SLP067 T00281106 10094 20022 53006","lat":35.611,"lon":-106.0957,"elev":1918,"name":"Santa Fe Cnty Muni, NM, US","cover":"CLR","clouds":[],"fltCat":"VFR"},{"icaoId":"KTUL","receiptTime":"2026-04-17T11:56:19.331Z","obsTime":1776426780,"reportTime":"2026-04-17T12:00:00.000Z","temp":21.7,"dewp":18.3,"wdir":170,"wspd":16,"visib":"10+","altim":1009.2,"slp":1008.5,"qcField":4,"presTend":0.1,"maxT":23.3,"minT":21.7,"metarType":"METAR","rawOb":"METAR KTUL 171153Z 17016KT 10SM BKN060 BKN150 22/18 A2980 RMK AO2 SLP085 TCU DSNT SE T02170183 10233 20217 53001","lat":36.1985,"lon":-95.8782,"elev":196,"name":"Tulsa Intl Arpt, OK, US","cover":"BKN","clouds":[{"cover":"BKN","base":6000},{"cover":"BKN","base":15000}],"fltCat":"VFR"},{"icaoId":"KPNC","receiptTime":"2026-04-17T11:56:19.763Z","obsTime":1776426780,"reportTime":"2026-04-17T12:00:00.000Z","temp":21.1,"dewp":17.8,"wdir":180,"wspd":10,"wgst":18,"visib":"10+","altim":1006.9,"slp":1005.7,"qcField":6,"presTend":-0.1,"maxT":22.8,"minT":21.1,"metarType":"METAR","rawOb":"METAR KPNC 171153Z AUTO 18010G18KT 10SM CLR 21/18 A2973 RMK AO2 SLP057 T02110178 10228 20211 55001","lat":36.7369,"lon":-97.1024,"elev":304,"name":"Ponca City Rgnl, OK, US","cover":"CLR","clouds":[],"fltCat":"VFR"},{"icaoId":"KMLS","receiptTime":"2026-04-17T11:56:20.287Z","obsTime":1776426780,"reportTime":"2026-04-17T12:00:00.000Z","temp":-5,"dewp":-10,"wdir":300,"wspd":10,"visib":"10+","altim":1015.7,"slp":1017.9,"qcField":6,"presTend":1.9,"maxT":0,"minT":-5,"precip":0.005,"pcp6hr":0.005,"metarType":"METAR","rawOb":"METAR KMLS 171153Z AUTO 30010KT 10SM CLR M05/M10 A2999 RMK AO2 SNE13B38E47 SLP179 P0000 60000 T10501100 10000 21050 51019","lat":46.4265,"lon":-105.8834,"elev":800,"name":"Miles City/Wiley Fld, MT, US","cover":"CLR","clouds":[],"fltCat":"VFR"},{"icaoId":"KPRC","receiptTime":"2026-04-17T11:56:20.329Z","obsTime":1776426780,"reportTime":"2026-04-17T12:00:00.000Z","temp":7.8,"dewp":-4.4,"wdir":150,"wspd":5,"visib":"10+","altim":1013.3,"slp":1007.9,"qcField":6,"presTend":-0.1,"maxT":13.9,"minT":6.1,"metarType":"METAR","rawOb":"METAR KPRC 171153Z AUTO 15005KT 10SM CLR 08/M04 A2992 RMK AO2 SLP079 T00781044 10139 20061 55001","lat":34.6491,"lon":-112.4223,"elev":1528,"name":"Prescott/Love Fld, AZ, US","cover":"CLR","clouds":[],"fltCat":"VFR"},{"icaoId":"KMLF","receiptTime":"2026-04-17T11:56:27.771Z","obsTime":1776426720,"reportTime":"2026-04-17T12:00:00.000Z","temp":-3.9,"dewp":-10.6,"wdir":340,"wspd":8,"visib":"10+","altim":1021.4,"slp":1021.8,"qcField":6,"presTend":1.9,"maxT":1.1,"minT":-3.9,"pcp6hr":0.005,"metarType":"METAR","rawOb":"METAR KMLF 171152Z AUTO 34008KT 10SM CLR M04/M11 A3016 RMK AO2 SLP218 60000 T10391106 10011 21039 53019","lat":38.4225,"lon":-113.0109,"elev":1537,"name":"Milford Muni, UT, US","cover":"CLR","clouds":[],"fltCat":"VFR"},{"icaoId":"KATL","receiptTime":"2026-04-17T11:56:23.776Z","obsTime":1776426720,"reportTime":"2026-04-17T12:00:00.000Z","temp":17.8,"dewp":12.2,"wdir":310,"wspd":9,"visib":"10+","altim":1018,"slp":1017.1,"qcField":12,"presTend":0.9,"maxT":21.1,"minT":17.8,"metarType":"METAR","rawOb":"METAR KATL 171152Z 31009KT 10SM FEW020 FEW250 18/12 A3006 RMK AO2 SLP171 T01780122 10211 20178 53009 $","lat":33.6297,"lon":-84.4422,"elev":309,"name":"Atlanta/Hartsfield-Jackson Intl, GA, US","cover":"FEW","clouds":[{"cover":"FEW","base":2000},{"cover":"FEW","base":25000}],"fltCat":"VFR"},{"icaoId":"KIAD","receiptTime":"2026-04-17T11:56:24.405Z","obsTime":1776426720,"reportTime":"2026-04-17T12:00:00.000Z","temp":20.6,"dewp":12.8,"wdir":290,"wspd":7,"visib":9,"altim":1012.6,"slp":1012.4,"qcField":4,"presTend":1.7,"maxT":22.8,"minT":16.7,"metarType":"METAR","rawOb":"METAR KIAD 171152Z 29007KT 9SM BKN110 BKN250 21/13 A2990 RMK AO2 SLP124 T02060128 10228 20167 52017","lat":38.9348,"lon":-77.4473,"elev":90,"name":"Washington/Dulles Intl, VA, US","cover":"BKN","clouds":[{"cover":"BKN","base":11000},{"cover":"BKN","base":25000}],"fltCat":"VFR"},{"icaoId":"KCVG","receiptTime":"2026-04-17T11:56:24.364Z","obsTime":1776426720,"reportTime":"2026-04-17T12:00:00.000Z","temp":12.2,"dewp":10.6,"wdir":210,"wspd":4,"visib":8,"altim":1016.3,"slp":1015.5,"qcField":4,"presTend":1,"maxT":17.8,"minT":12.2,"metarType":"METAR","rawOb":"METAR KCVG 171152Z 21004KT 8SM FEW040 FEW300 12/11 A3001 RMK AO2 SLP155 T01220106 10178 20122 53010","lat":39.0444,"lon":-84.6724,"elev":264,"name":"Cincinnati Intl, KY, US","cover":"FEW","clouds":[{"cover":"FEW","base":4000},{"cover":"FEW","base":30000}],"fltCat":"VFR"},{"icaoId":"KDCA","receiptTime":"2026-04-17T11:56:24.376Z","obsTime":1776426720,"reportTime":"2026-04-17T12:00:00.000Z","temp":21.7,"dewp":15.6,"wdir":0,"wspd":0,"visib":"10+","altim":1012.6,"slp":1012.3,"qcField":4,"presTend":1.8,"maxT":24.4,"minT":20,"pcp6hr":0.005,"metarType":"METAR","rawOb":"METAR KDCA 171152Z 00000KT 10SM FEW100 FEW150 BKN250 22/16 A2990 RMK AO2 SLP123 60000 T02170156 10244 20200 53018","lat":38.8472,"lon":-77.0345,"elev":4,"name":"Washington/Reagan-National Arpt, VA, US","cover":"BKN","clouds":[{"cover":"FEW","base":10000},{"cover":"FEW","base":15000},{"cover":"BKN","base":25000}],"fltCat":"VFR"},{"icaoId":"KCLT","receiptTime":"2026-04-17T11:56:24.443Z","obsTime":1776426720,"reportTime":"2026-04-17T12:00:00.000Z","temp":18.9,"dewp":11.1,"wdir":260,"wspd":3,"visib":8,"altim":1016.7,"slp":1017.2,"qcField":4,"presTend":1.7,"maxT":21.7,"minT":16.1,"metarType":"METAR","rawOb":"METAR KCLT 171152Z 26003KT 8SM FEW100 FEW250 19/11 A3002 RMK AO2 SLP172 T01890111 10217 20161 52017","lat":35.2225,"lon":-80.9543,"elev":223,"name":"Charlotte/Douglas Intl, NC, US","cover":"FEW","clouds":[{"cover":"FEW","base":10000},{"cover":"FEW","base":25000}],"fltCat":"VFR"},{"icaoId":"KABQ","receiptTime":"2026-04-17T11:56:27.617Z","obsTime":1776426720,"reportTime":"2026-04-17T12:00:00.000Z","temp":13.3,"dewp":-12.2,"wdir":270,"wspd":3,"visib":"10+","altim":1013,"slp":1005.9,"qcField":4,"presTend":0.7,"maxT":18.3,"minT":11.7,"metarType":"METAR","rawOb":"METAR KABQ 171152Z 27003KT 10SM SCT150 13/M12 A2991 RMK AO2 SLP059 T01331122 10183 20117 53007","lat":35.0419,"lon":-106.6154,"elev":1620,"name":"Albuquerque Intl, NM, US","cover":"SCT","clouds":[{"cover":"SCT","base":15000}],"fltCat":"VFR"},{"icaoId":"KSPS","receiptTime":"2026-04-17T11:56:27.676Z","obsTime":1776426720,"reportTime":"2026-04-17T12:00:00.000Z","temp":19.4,"dewp":17.8,"wdir":170,"wspd":11,"visib":"10+","altim":1008.5,"slp":1007.1,"qcField":4,"maxT":21.7,"minT":19.4,"metarType":"METAR","rawOb":"METAR KSPS 171152Z 17011KT 10SM CLR 19/18 A2978 RMK AO2 SLP071 T01940178 10217 20194 55000","lat":33.9785,"lon":-98.493,"elev":310,"name":"Wichita Falls Rgnl, TX, US","cover":"CLR","clouds":[],"fltCat":"VFR"},{"icaoId":"KMKE","receiptTime":"2026-04-17T11:56:23.575Z","obsTime":1776426720,"reportTime":"2026-04-17T12:00:00.000Z","temp":7.2,"dewp":6.7,"wdir":130,"wspd":4,"visib":0.25,"altim":1013.3,"slp":1013.6,"qcField":4,"wxString":"FG","presTend":0.3,"maxT":7.8,"minT":6.7,"pcp24hr":0.43,"vertVis":2,"metarType":"METAR","rawOb":"METAR KMKE 171152Z 13004KT 1/4SM R01L/1000V1400FT FG VV002 07/07 A2992 RMK AO2 SLP136 70043 T00720067 10078 20067 53003","lat":42.9549,"lon":-87.9045,"elev":203,"name":"Milwaukee/Mitchell Intl, WI, US","cover":"OVX","clouds":[{"cover":"OVX","base":200}],"fltCat":"LIFR"},{"icaoId":"KOKC","receiptTime":"2026-04-17T11:56:23.629Z","obsTime":1776426720,"reportTime":"2026-04-17T12:00:00.000Z","temp":20,"dewp":17.8,"wdir":170,"wspd":14,"visib":"10+","altim":1008.9,"slp":1007.3,"qcField":4,"presTend":0.3,"maxT":21.7,"minT":20,"metarType":"METAR","rawOb":"METAR KOKC 171152Z 17014KT 10SM SCT049 SCT250 20/18 A2979 RMK AO2 SLP073 T02000178 10217 20200 53003","lat":35.3843,"lon":-97.6003,"elev":391,"name":"Oklahoma City/Will Rogers Intl, OK, US","cover":"SCT","clouds":[{"cover":"SCT","base":4900},{"cover":"SCT","base":25000}],"fltCat":"VFR"},{"icaoId":"KVNY","receiptTime":"2026-04-17T11:54:06.949Z","obsTime":1776426660,"reportTime":"2026-04-17T12:00:00.000Z","temp":12.8,"dewp":8.9,"wdir":20,"wspd":3,"visib":"10+","altim":1013.3,"slp":1012.7,"qcField":14,"presTend":0.5,"maxT":15.6,"minT":12.8,"metarType":"METAR","rawOb":"METAR KVNY 171151Z AUTO 02003KT 10SM CLR 13/09 A2992 RMK AO2 SLP127 T01280089 10156 20128 53005 $","lat":34.2121,"lon":-118.4915,"elev":241,"name":"Van Nuys Arpt, CA, US","cover":"CLR","clouds":[],"fltCat":"VFR"},{"icaoId":"KCMH","receiptTime":"2026-04-17T11:54:06.790Z","obsTime":1776426660,"reportTime":"2026-04-17T12:00:00.000Z","temp":13.3,"dewp":11.7,"wdir":0,"wspd":0,"visib":7,"altim":1016,"slp":1015.7,"qcField":4,"presTend":1.7,"maxT":16.7,"minT":11.7,"metarType":"METAR","rawOb":"METAR KCMH 171151Z 00000KT 7SM FEW250 13/12 A3000 RMK AO2 SLP157 T01330117 10167 20117 51017","lat":39.9907,"lon":-82.877,"elev":257,"name":"Columbus/Glenn Intl, OH, US","cover":"FEW","clouds":[{"cover":"FEW","base":25000}],"fltCat":"VFR"},{"icaoId":"KPVD","receiptTime":"2026-04-17T11:54:07.881Z","obsTime":1776426660,"reportTime":"2026-04-17T12:00:00.000Z","temp":13.3,"dewp":11.7,"wdir":0,"wspd":0,"visib":4,"altim":1008.9,"slp":1008.7,"qcField":12,"wxString":"-RA BR","presTend":1.2,"maxT":13.9,"minT":11.7,"precip":0.005,"pcp6hr":0.005,"metarType":"METAR","rawOb":"METAR KPVD 171151Z 00000KT 4SM R05/6000VP6000FT -RA BR FEW003 FEW060 BKN100 13/12 A2979 RMK AO2 RAB26 SLP087 P0000 60000 T01330117 10139 20117 50012 $","lat":41.7225,"lon":-71.4325,"elev":15,"name":"Providence/Green Mem, RI, US","cover":"BKN","clouds":[{"cover":"FEW","base":300},{"cover":"FEW","base":6000},{"cover":"BKN","base":10000}],"fltCat":"MVFR"},{"icaoId":"KACT","receiptTime":"2026-04-17T11:54:06.494Z","obsTime":1776426660,"reportTime":"2026-04-17T12:00:00.000Z","temp":20.6,"dewp":18.9,"wdir":170,"wspd":12,"visib":"10+","altim":1012.3,"slp":1011.5,"qcField":4,"presTend":0.4,"maxT":22.8,"minT":20.6,"metarType":"METAR","rawOb":"METAR KACT 171151Z 17012KT 10SM SCT032 21/19 A2989 RMK AO2 SLP115 T02060189 10228 20206 53004","lat":31.618,"lon":-97.2283,"elev":150,"name":"Waco Rgnl, TX, US","cover":"SCT","clouds":[{"cover":"SCT","base":3200}],"fltCat":"VFR"},{"icaoId":"KSAN","receiptTime":"2026-04-17T11:54:07.969Z","obsTime":1776426660,"reportTime":"2026-04-17T12:00:00.000Z","temp":15,"dewp":9.4,"wdir":110,"wspd":7,"visib":"10+","altim":1014.3,"slp":1014,"qcField":12,"presTend":-0.1,"maxT":17.2,"minT":15,"metarType":"METAR","rawOb":"METAR KSAN 171151Z 11007KT 10SM SCT030 SCT250 15/09 A2995 RMK AO2 SLP140 T01500094 10172 20150 55001 $","lat":32.7364,"lon":-117.1973,"elev":3,"name":"San Diego Intl Arpt, CA, US","cover":"SCT","clouds":[{"cover":"SCT","base":3000},{"cover":"SCT","base":25000}],"fltCat":"VFR"},{"icaoId":"KSTL","receiptTime":"2026-04-17T11:54:08.120Z","obsTime":1776426660,"reportTime":"2026-04-17T12:00:00.000Z","temp":17.2,"dewp":15,"wdir":180,"wspd":8,"visib":"10+","altim":1013,"slp":1011.9,"qcField":12,"presTend":0.5,"maxT":20,"minT":17.2,"metarType":"METAR","rawOb":"METAR KSTL 171151Z 18008KT 10SM FEW045 BKN250 17/15 A2991 RMK AO2 SLP119 T01720150 10200 20172 51005 $","lat":38.7525,"lon":-90.3734,"elev":163,"name":"St Louis/Lambert Intl, MO, US","cover":"BKN","clouds":[{"cover":"FEW","base":4500},{"cover":"BKN","base":25000}],"fltCat":"VFR"},{"icaoId":"KSAT","receiptTime":"2026-04-17T11:54:07.997Z","obsTime":1776426660,"reportTime":"2026-04-17T12:00:00.000Z","temp":19.4,"dewp":18.3,"wdir":130,"wspd":4,"visib":8,"altim":1012.3,"slp":1010.4,"qcField":4,"presTend":-0.1,"maxT":22.2,"minT":19.4,"metarType":"METAR","rawOb":"METAR KSAT 171151Z 13004KT 8SM BKN025 BKN250 19/18 A2989 RMK AO2 SLP104 BKN025 V SCT T01940183 10222 20194 58001","lat":29.5443,"lon":-98.4839,"elev":246,"name":"San Antonio Intl, TX, US","cover":"BKN","clouds":[{"cover":"BKN","base":2500},{"cover":"BKN","base":25000}],"fltCat":"MVFR"},{"icaoId":"KROW","receiptTime":"2026-04-17T11:54:07.938Z","obsTime":1776426660,"reportTime":"2026-04-17T12:00:00.000Z","temp":10.6,"dewp":-8.9,"wdir":210,"wspd":3,"visib":"10+","altim":1009.6,"slp":1004.1,"qcField":12,"presTend":0.1,"maxT":18.9,"minT":9.4,"metarType":"METAR","rawOb":"METAR KROW 171151Z 21003KT 10SM CLR 11/M09 A2981 RMK AO2 SLP041 T01061089 10189 20094 50001 $","lat":33.3074,"lon":-104.5082,"elev":1105,"name":"Roswell/Ind Arpt, NM, US","cover":"CLR","clouds":[],"fltCat":"VFR"},{"icaoId":"KORF","receiptTime":"2026-04-17T11:54:07.789Z","obsTime":1776426660,"reportTime":"2026-04-17T12:00:00.000Z","temp":20.6,"dewp":16.1,"wdir":240,"wspd":6,"visib":"10+","altim":1013,"slp":1012.8,"qcField":4,"presTend":2.1,"maxT":21.7,"minT":18.9,"metarType":"METAR","rawOb":"METAR KORF 171151Z 24006KT 10SM CLR 21/16 A2991 RMK AO2 SLP128 T02060161 10217 20189 51021","lat":36.9037,"lon":-76.1927,"elev":5,"name":"Norfolk Intl, VA, US","cover":"CLR","clouds":[],"fltCat":"VFR"},{"icaoId":"KRDU","receiptTime":"2026-04-17T11:54:07.922Z","obsTime":1776426660,"reportTime":"2026-04-17T12:00:00.000Z","temp":18.9,"dewp":11.7,"wdir":0,"wspd":0,"visib":"10+","altim":1015.7,"slp":1014.9,"qcField":4,"presTend":1.9,"maxT":21.1,"minT":16.1,"metarType":"METAR","rawOb":"METAR KRDU 171151Z 00000KT 10SM SCT090 BKN110 BKN250 19/12 A2999 RMK AO2 SLP149 T01890117 10211 20161 53019","lat":35.8923,"lon":-78.782,"elev":121,"name":"Raleigh-Durham Intl, NC, US","cover":"BKN","clouds":[{"cover":"SCT","base":9000},{"cover":"BKN","base":11000},{"cover":"BKN","base":25000}],"fltCat":"VFR"},{"icaoId":"KMYL","receiptTime":"2026-04-17T11:54:07.738Z","obsTime":1776426660,"reportTime":"2026-04-17T12:00:00.000Z","temp":-4.4,"dewp":-5.6,"wdir":0,"wspd":0,"visib":"10+","altim":1021.8,"slp":1024.5,"qcField":6,"presTend":0.5,"maxT":-3.9,"minT":-5.6,"pcp24hr":0.02,"metarType":"METAR","rawOb":"METAR KMYL 171151Z AUTO 00000KT 10SM OVC065 M04/M06 A3017 RMK AO2 SLP245 70002 T10441056 11039 21056 53005","lat":44.8943,"lon":-116.0998,"elev":1532,"name":"McCall Muni, ID, US","cover":"OVC","clouds":[{"cover":"OVC","base":6500}],"fltCat":"VFR"},{"icaoId":"KEWR","receiptTime":"2026-04-17T11:54:07.489Z","obsTime":1776426660,"reportTime":"2026-04-17T12:00:00.000Z","temp":21.7,"dewp":13.9,"wdir":290,"wspd":10,"visib":"10+","altim":1010.2,"slp":1010,"qcField":4,"presTend":2.1,"maxT":22.8,"minT":20.6,"pcp6hr":0.005,"metarType":"METAR","rawOb":"METAR KEWR 171151Z 29010KT 270V340 10SM FEW060 FEW100 SCT250 22/14 A2983 RMK AO2 SLP100 60000 T02170139 10228 20206 52021","lat":40.6828,"lon":-74.1692,"elev":2,"name":"Newark Intl, NJ, US","cover":"SCT","clouds":[{"cover":"FEW","base":6000},{"cover":"FEW","base":10000},{"cover":"SCT","base":25000}],"fltCat":"VFR"},{"icaoId":"KELP","receiptTime":"2026-04-17T11:54:07.407Z","obsTime":1776426660,"reportTime":"2026-04-17T12:00:00.000Z","temp":17.2,"dewp":-5.6,"wdir":230,"wspd":7,"visib":"10+","altim":1012.3,"slp":1005.7,"qcField":12,"presTend":0.5,"maxT":23.3,"minT":16.1,"metarType":"METAR","rawOb":"METAR KELP 171151Z 23007KT 10SM SCT240 17/M06 A2989 RMK AO2 SLP057 T01721056 10233 20161 53005 $","lat":31.8123,"lon":-106.3774,"elev":1205,"name":"El Paso Intl, TX, US","cover":"SCT","clouds":[{"cover":"SCT","base":24000}],"fltCat":"VFR"},{"icaoId":"KIGM","receiptTime":"2026-04-17T11:54:07.588Z","obsTime":1776426660,"reportTime":"2026-04-17T12:00:00.000Z","temp":9.4,"dewp":-8.9,"wdir":350,"wspd":22,"wgst":31,"visib":"10+","altim":1015,"slp":1009.9,"qcField":14,"presTend":3.4,"maxT":13.9,"minT":9.4,"metarType":"METAR","rawOb":"METAR KIGM 171151Z AUTO 35022G31KT 10SM CLR 09/M09 A2997 RMK AO2 PK WND 34038/1103 SLP099 T00941089 10139 20094 53034 $","lat":35.2575,"lon":-113.9341,"elev":1045,"name":"Kingman Arpt, AZ, US","cover":"CLR","clouds":[],"fltCat":"VFR"},{"icaoId":"KSAD","receiptTime":"2026-04-17T11:54:07.951Z","obsTime":1776426660,"reportTime":"2026-04-17T12:00:00.000Z","temp":15,"dewp":-12.2,"wdir":270,"wspd":10,"visib":"10+","altim":1011.3,"slp":1006.9,"qcField":6,"presTend":0.3,"maxT":20,"minT":13.9,"metarType":"METAR","rawOb":"METAR KSAD 171151Z AUTO 27010KT 10SM CLR 15/M12 A2986 RMK AO2 SLP069 T01501122 10200 20139 53003","lat":32.8565,"lon":-109.636,"elev":937,"name":"Safford Rgnl, AZ, US","cover":"CLR","clouds":[],"fltCat":"VFR"},{"icaoId":"KLGA","receiptTime":"2026-04-17T11:56:24.459Z","obsTime":1776426660,"reportTime":"2026-04-17T12:00:00.000Z","temp":18.3,"dewp":12.8,"wdir":310,"wspd":8,"visib":"10+","altim":1009.9,"slp":1009.7,"qcField":4,"presTend":2.2,"maxT":21.7,"minT":17.8,"pcp6hr":0.005,"metarType":"METAR","rawOb":"METAR KLGA 171151Z 31008KT 10SM FEW060 FEW100 SCT250 18/13 A2982 RMK AO2 SLP097 60000 T01830128 10217 20178 53022","lat":40.7794,"lon":-73.8803,"elev":9,"name":"New York/La Guardia Arpt, NY, US","cover":"SCT","clouds":[{"cover":"FEW","base":6000},{"cover":"FEW","base":10000},{"cover":"SCT","base":25000}],"fltCat":"VFR"},{"icaoId":"KPHX","receiptTime":"2026-04-17T11:54:07.826Z","obsTime":1776426660,"reportTime":"2026-04-17T12:00:00.000Z","temp":19.4,"dewp":-1.7,"wdir":120,"wspd":6,"visib":"10+","altim":1009.6,"slp":1007.9,"qcField":12,"presTend":0.9,"maxT":25,"minT":18.9,"pcp6hr":0.005,"metarType":"METAR","rawOb":"METAR KPHX 171151Z 12006KT 10SM FEW120 FEW170 19/M02 A2981 RMK AO2 SLP079 60000 T01941017 10250 20189 53009 $","lat":33.4278,"lon":-112.0037,"elev":338,"name":"Phoenix/Sky Harbor Intl, AZ, US","cover":"FEW","clouds":[{"cover":"FEW","base":12000},{"cover":"FEW","base":17000}],"fltCat":"VFR"},{"icaoId":"KOXR","receiptTime":"2026-04-17T11:54:07.807Z","obsTime":1776426660,"reportTime":"2026-04-17T12:00:00.000Z","temp":12.2,"dewp":9.4,"wdir":40,"wspd":5,"visib":"10+","altim":1013.3,"slp":1013,"qcField":14,"presTend":0.6,"maxT":14.4,"minT":12.2,"metarType":"METAR","rawOb":"METAR KOXR 171151Z AUTO 04005KT 10SM CLR 12/09 A2992 RMK AO2 SLP130 T01220094 10144 20122 53006 $","lat":34.2001,"lon":-119.2042,"elev":12,"name":"Oxnard Arpt, CA, US","cover":"CLR","clouds":[],"fltCat":"VFR"},{"icaoId":"KCLE","receiptTime":"2026-04-17T11:54:06.759Z","obsTime":1776426660,"reportTime":"2026-04-17T12:00:00.000Z","temp":12.2,"dewp":11.1,"wdir":340,"wspd":3,"visib":9,"altim":1015.7,"slp":1016.9,"qcField":12,"presTend":1.9,"maxT":13.3,"minT":11.7,"pcp24hr":0.1,"metarType":"METAR","rawOb":"METAR KCLE 171151Z 34003KT 9SM FEW013 SCT027 12/11 A2999 RMK AO2 SLP169 70010 T01220111 10133 20117 52019 $","lat":41.4057,"lon":-81.8519,"elev":237,"name":"Cleveland/Hopkins Intl, OH, US","cover":"SCT","clouds":[{"cover":"FEW","base":1300},{"cover":"SCT","base":2700}],"fltCat":"VFR"},{"icaoId":"KBDL","receiptTime":"2026-04-17T11:54:06.640Z","obsTime":1776426660,"reportTime":"2026-04-17T12:00:00.000Z","temp":17.2,"dewp":16.1,"wdir":240,"wspd":4,"visib":"10+","altim":1009.2,"slp":1009,"qcField":12,"wxString":"BCFG","presTend":2.6,"maxT":17.8,"minT":16.7,"pcp6hr":0.16,"pcp24hr":0.19,"metarType":"METAR","rawOb":"METAR KBDL 171151Z 24004KT 10SM BCFG FEW014 SCT090 SCT100 BKN250 17/16 A2980 RMK AO2 SLP090 BCFG NE-SE 60016 70019 T01720161 10178 20167 51026 $","lat":41.9374,"lon":-72.682,"elev":52,"name":"Hartford/Bradley Intl, CT, US","cover":"BKN","clouds":[{"cover":"FEW","base":1400},{"cover":"SCT","base":9000},{"cover":"SCT","base":10000},{"cover":"BKN","base":25000}],"fltCat":"VFR"},{"icaoId":"KLGU","receiptTime":"2026-04-17T11:54:07.680Z","obsTime":1776426660,"reportTime":"2026-04-17T12:00:00.000Z","temp":-3.3,"dewp":-5.6,"wdir":160,"wspd":3,"visib":"10+","altim":1021.4,"slp":1023.3,"qcField":6,"presTend":1.6,"maxT":-1.1,"minT":-3.9,"pcp6hr":0.005,"pcp24hr":0.01,"metarType":"METAR","rawOb":"METAR KLGU 171151Z AUTO 16003KT 10SM FEW085 M03/M06 A3016 RMK AO2 SLP233 60000 70001 T10331056 11011 21039 53016","lat":41.7865,"lon":-111.8519,"elev":1359,"name":"Logan/Cache Arpt, UT, US","cover":"FEW","clouds":[{"cover":"FEW","base":8500}],"fltCat":"VFR"},{"icaoId":"KJFK","receiptTime":"2026-04-17T11:54:07.657Z","obsTime":1776426660,"reportTime":"2026-04-17T12:00:00.000Z","temp":21.1,"dewp":15.6,"wdir":340,"wspd":6,"visib":"10+","altim":1010.2,"slp":1010.2,"qcField":4,"presTend":2.4,"maxT":22.2,"minT":15.6,"pcp6hr":0.005,"metarType":"METAR","rawOb":"METAR KJFK 171151Z 34006KT 10SM FEW044 BKN110 BKN250 21/16 A2983 RMK AO2 SLP102 60000 T02110156 10222 20156 53024","lat":40.6392,"lon":-73.7639,"elev":3,"name":"New York/JF Kennedy Intl, NY, US","cover":"BKN","clouds":[{"cover":"FEW","base":4400},{"cover":"BKN","base":11000},{"cover":"BKN","base":25000}],"fltCat":"VFR"},{"icaoId":"KAEG","receiptTime":"2026-04-17T11:55:06.957Z","obsTime":1776426600,"reportTime":"2026-04-17T12:00:00.000Z","temp":8,"dewp":-14,"wdir":210,"wspd":10,"visib":"10+","altim":1013.6,"qcField":0,"metarType":"METAR","rawOb":"METAR KAEG 171150Z 21010KT 10SM CLR 08/M14 A2993","lat":35.15,"lon":-106.7929,"elev":1771,"name":"Albuquerque/Double Eagle Arpt, NM, US","cover":"CLR","clouds":[],"fltCat":"VFR"},{"icaoId":"KADM","receiptTime":"2026-04-17T11:54:34.017Z","obsTime":1776426600,"reportTime":"2026-04-17T12:00:00.000Z","temp":20,"dewp":19,"wdir":160,"wspd":8,"visib":"10+","altim":1010.2,"qcField":0,"metarType":"METAR","rawOb":"METAR KADM 171150Z 16008KT 10SM OVC065 20/19 A2983","lat":34.3007,"lon":-97.0089,"elev":223,"name":"Ardmore Muni, OK, US","cover":"OVC","clouds":[{"cover":"OVC","base":6500}],"fltCat":"VFR"}]