[{"icaoId":"KRYN","receiptTime":"2026-04-12T18:45:40.615Z","obsTime":1776019500,"reportTime":"2026-04-12T19:00:00.000Z","temp":28,"dewp":-2,"wdir":200,"wspd":18,"wgst":28,"visib":"10+","altim":1015,"qcField":0,"metarType":"METAR","rawOb":"METAR KRYN 121845Z 20018G28KT 10SM CLR 28/M02 A2997","lat":32.1418,"lon":-111.1767,"elev":731,"name":"Tucson/Ryan Fld, AZ, US","cover":"CLR","clouds":[],"fltCat":"VFR"},{"icaoId":"KACT","receiptTime":"2026-04-12T18:47:08.520Z","obsTime":1776019440,"reportTime":"2026-04-12T18:44:00.000Z","temp":22.2,"dewp":21.1,"wdir":150,"wspd":9,"visib":7,"altim":1017.4,"qcField":4,"wxString":"-RA","precip":0.005,"metarType":"SPECI","rawOb":"SPECI KACT 121844Z 15009KT 7SM -RA FEW008 OVC013 22/21 A3004 RMK AO2 RAB1757 P0000 T02220211","lat":31.618,"lon":-97.2283,"elev":150,"name":"Waco Rgnl, TX, US","cover":"OVC","clouds":[{"cover":"FEW","base":800},{"cover":"OVC","base":1300}],"fltCat":"MVFR"},{"icaoId":"KBOI","receiptTime":"2026-04-12T18:47:08.531Z","obsTime":1776019440,"reportTime":"2026-04-12T18:44:00.000Z","temp":7.8,"dewp":6.1,"wdir":300,"wspd":8,"visib":"10+","altim":1005.8,"qcField":4,"precip":0.04,"metarType":"SPECI","rawOb":"SPECI KBOI 121844Z 30008KT 10SM FEW009 BKN043 OVC050 08/06 A2970 RMK AO2 RAE32 P0004 T00780061","lat":43.567,"lon":-116.2406,"elev":860,"name":"Boise Arpt, ID, US","cover":"OVC","clouds":[{"cover":"FEW","base":900},{"cover":"BKN","base":4300},{"cover":"OVC","base":5000}],"fltCat":"VFR"},{"icaoId":"KONT","receiptTime":"2026-04-12T18:46:04.583Z","obsTime":1776019320,"reportTime":"2026-04-12T18:42:00.000Z","temp":14.4,"dewp":12.8,"wdir":220,"wspd":6,"visib":2.5,"altim":1015.7,"qcField":12,"wxString":"RA BR","precip":0.03,"metarType":"SPECI","rawOb":"SPECI KONT 121842Z 22006KT 2 1/2SM RA BR BKN015 OVC023 14/13 A2999 RMK AO2 VIS 1 3/4V5 RAE03B31 P0003 T01440128 $","lat":34.0531,"lon":-117.5769,"elev":279,"name":"Ontario Intl, CA, US","cover":"OVC","clouds":[{"cover":"BKN","base":1500},{"cover":"OVC","base":2300}],"fltCat":"IFR"},{"icaoId":"KSWO","receiptTime":"2026-04-12T18:46:04.615Z","obsTime":1776019320,"reportTime":"2026-04-12T18:42:00.000Z","temp":23.9,"dewp":16.7,"wdir":210,"wspd":17,"wgst":28,"visib":"10+","altim":1011.6,"qcField":4,"wxString":"RA","precip":0.005,"metarType":"SPECI","rawOb":"SPECI KSWO 121842Z 21017G28KT 10SM RA SCT026 BKN033 24/17 A2987 RMK AO2 PK WND 24028/1838 P0000 T02390167","lat":36.1624,"lon":-97.0832,"elev":293,"name":"Stillwater Muni, OK, US","cover":"BKN","clouds":[{"cover":"SCT","base":2600},{"cover":"BKN","base":3300}],"fltCat":"VFR"},{"icaoId":"KMCI","receiptTime":"2026-04-12T18:42:10.909Z","obsTime":1776019140,"reportTime":"2026-04-12T18:39:00.000Z","temp":17.2,"dewp":16.7,"wdir":180,"wspd":12,"visib":2,"altim":1009.9,"qcField":4,"wxString":"+RA BR","precip":0.07,"metarType":"SPECI","rawOb":"SPECI KMCI 121839Z 18012KT 2SM R19R/4000VP6000FT +RA BR BKN008 BKN017 OVC026 17/17 A2982 RMK AO2 P0007 T01720167","lat":39.2975,"lon":-94.7309,"elev":308,"name":"Kansas City Intl, MO, US","cover":"OVC","clouds":[{"cover":"BKN","base":800},{"cover":"BKN","base":1700},{"cover":"OVC","base":2600}],"fltCat":"IFR"},{"icaoId":"KMYL","receiptTime":"2026-04-12T18:40:21.342Z","obsTime":1776019020,"reportTime":"2026-04-12T18:37:00.000Z","temp":6.1,"dewp":3.9,"wdir":160,"wspd":7,"visib":"10+","altim":1004.1,"qcField":6,"wxString":"-RA","precip":0.005,"metarType":"SPECI","rawOb":"SPECI KMYL 121837Z AUTO 16007KT 10SM -RA BKN012 OVC019 06/04 A2965 RMK AO2 P0000 T00610039","lat":44.8943,"lon":-116.0998,"elev":1532,"name":"McCall Muni, ID, US","cover":"OVC","clouds":[{"cover":"BKN","base":1200},{"cover":"OVC","base":1900}],"fltCat":"MVFR"},{"icaoId":"KATL","receiptTime":"2026-04-12T18:40:13.508Z","obsTime":1776018960,"reportTime":"2026-04-12T18:36:00.000Z","temp":28.9,"dewp":5,"wdir":170,"wspd":11,"wgst":20,"visib":"10+","altim":1025.8,"qcField":12,"metarType":"SPECI","rawOb":"SPECI KATL 121836Z 17011G20KT 10SM FEW075 29/05 A3029 RMK AO2 WSHFT 1816 T02890050 $","lat":33.6297,"lon":-84.4422,"elev":309,"name":"Atlanta/Hartsfield-Jackson Intl, GA, US","cover":"FEW","clouds":[{"cover":"FEW","base":7500}],"fltCat":"VFR"},{"icaoId":"KBVU","receiptTime":"2026-04-12T18:36:06.031Z","obsTime":1776018900,"reportTime":"2026-04-12T18:35:00.000Z","temp":22,"dewp":0,"wdir":230,"wspd":15,"wgst":21,"visib":"10+","altim":1011.3,"qcField":6,"metarType":"METAR","rawOb":"METAR KBVU 121835Z AUTO 23015G21KT 10SM CLR 22/M00 A2986 RMK AO2","lat":35.9489,"lon":-114.8633,"elev":654,"name":"Boulder City Muni, NV, US","cover":"CLR","clouds":[],"fltCat":"VFR"},{"icaoId":"KLRU","receiptTime":"2026-04-12T18:38:14.088Z","obsTime":1776018900,"reportTime":"2026-04-12T18:35:00.000Z","temp":23.4,"dewp":-4.3,"wdir":250,"wspd":18,"wgst":24,"visib":"10+","altim":1019.4,"qcField":6,"metarType":"METAR","rawOb":"METAR KLRU 121835Z AUTO 25018G24KT 10SM SCT090 23/M04 A3010 RMK AO2 T02341043","lat":32.2884,"lon":-106.9131,"elev":1355,"name":"Las Cruces Intl, NM, US","cover":"SCT","clouds":[{"cover":"SCT","base":9000}],"fltCat":"VFR"},{"icaoId":"KSOW","receiptTime":"2026-04-12T18:38:14.548Z","obsTime":1776018900,"reportTime":"2026-04-12T18:35:00.000Z","temp":17,"dewp":-5,"wdir":200,"wspd":23,"wgst":28,"visib":"10+","altim":1018.7,"qcField":6,"metarType":"METAR","rawOb":"METAR KSOW 121835Z AUTO 20023G28KT 10SM CLR 17/M05 A3008 RMK AO2","lat":34.2686,"lon":-110.0019,"elev":1954,"name":"Show Low Muni, AZ, US","cover":"CLR","clouds":[],"fltCat":"VFR"},{"icaoId":"KHCR","receiptTime":"2026-04-12T18:38:17.858Z","obsTime":1776018900,"reportTime":"2026-04-12T18:35:00.000Z","temp":15.3,"dewp":-4,"wdir":220,"wspd":11,"wgst":18,"visib":"10+","altim":1008.2,"qcField":14,"metarType":"METAR","rawOb":"METAR KHCR 121835Z AUTO 22011G18KT 170V250 10SM OVC090 15/M04 A2977 RMK AO2 T01531040 $","lat":40.4774,"lon":-111.4329,"elev":1708,"name":"Heber City Muni, UT, US","cover":"OVC","clouds":[{"cover":"OVC","base":9000}],"fltCat":"VFR"},{"icaoId":"KHAF","receiptTime":"2026-04-12T18:40:19.549Z","obsTime":1776018900,"reportTime":"2026-04-12T18:35:00.000Z","temp":13,"dewp":11,"wdir":220,"wspd":12,"visib":"10+","altim":1013.3,"qcField":6,"metarType":"METAR","rawOb":"METAR KHAF 121835Z AUTO 22012KT 10SM FEW026 FEW039 SCT055 13/11 A2992 RMK AO2","lat":37.5136,"lon":-122.4996,"elev":11,"name":"Half Moon Bay Arpt, CA, US","cover":"SCT","clouds":[{"cover":"FEW","base":2600},{"cover":"FEW","base":3900},{"cover":"SCT","base":5500}],"fltCat":"VFR"},{"icaoId":"KMHR","receiptTime":"2026-04-12T18:40:18.119Z","obsTime":1776018900,"reportTime":"2026-04-12T18:35:00.000Z","temp":14,"dewp":12,"wdir":180,"wspd":16,"wgst":27,"visib":"10+","altim":1011.6,"qcField":6,"metarType":"METAR","rawOb":"METAR KMHR 121835Z AUTO 18016G27KT 10SM FEW021 SCT030 BKN036 14/12 A2987 RMK AO2","lat":38.56,"lon":-121.284,"elev":30,"name":"Sacramento/Mather Fld, CA, US","cover":"BKN","clouds":[{"cover":"FEW","base":2100},{"cover":"SCT","base":3000},{"cover":"BKN","base":3600}],"fltCat":"VFR"},{"icaoId":"KCXP","receiptTime":"2026-04-12T18:40:17.841Z","obsTime":1776018900,"reportTime":"2026-04-12T18:35:00.000Z","temp":8,"dewp":-4,"wdir":210,"wspd":7,"wgst":16,"visib":"10+","altim":1010.2,"qcField":6,"metarType":"METAR","rawOb":"METAR KCXP 121835Z AUTO 21007G16KT 10SM FEW046 BKN055 OVC070 08/M04 A2983 RMK AO2","lat":39.1905,"lon":-119.7319,"elev":1431,"name":"Carson City Arpt, NV, US","cover":"OVC","clouds":[{"cover":"FEW","base":4600},{"cover":"BKN","base":5500},{"cover":"OVC","base":7000}],"fltCat":"VFR"},{"icaoId":"KSEZ","receiptTime":"2026-04-12T18:42:09.403Z","obsTime":1776018900,"reportTime":"2026-04-12T18:35:00.000Z","temp":21,"dewp":-1,"wdir":140,"wspd":17,"wgst":31,"visib":"10+","altim":1016.3,"qcField":6,"metarType":"METAR","rawOb":"METAR KSEZ 121835Z AUTO 14017G31KT 120V180 10SM FEW070 FEW080 21/M01 A3001 RMK AO2","lat":34.8467,"lon":-111.7884,"elev":1455,"name":"Sedona Arpt, AZ, US","cover":"FEW","clouds":[{"cover":"FEW","base":7000},{"cover":"FEW","base":8000}],"fltCat":"VFR"},{"icaoId":"KHII","receiptTime":"2026-04-12T18:42:12.201Z","obsTime":1776018900,"reportTime":"2026-04-12T18:35:00.000Z","temp":25,"dewp":0,"wdir":170,"wspd":9,"visib":"10+","altim":1012.3,"qcField":6,"metarType":"METAR","rawOb":"METAR KHII 121835Z AUTO 17009KT 10SM CLR 25/M00 A2989 RMK AO2","lat":34.5659,"lon":-114.3522,"elev":241,"name":"Lake Havasu City Arpt, AZ, US","cover":"CLR","clouds":[],"fltCat":"VFR"},{"icaoId":"KHTH","receiptTime":"2026-04-12T18:40:06.802Z","obsTime":1776018900,"reportTime":"2026-04-12T18:35:00.000Z","temp":12,"dewp":-10,"wdir":220,"wspd":13,"wgst":22,"visib":"10+","altim":1009.9,"qcField":6,"metarType":"METAR","rawOb":"METAR KHTH 121835Z AUTO 22013G22KT 10SM CLR 12/M10 A2982 RMK A01","lat":38.5448,"lon":-118.6314,"elev":1281,"name":"Hawthorne Muni, NV, US","cover":"CLR","clouds":[],"fltCat":"VFR"},{"icaoId":"KBRO","receiptTime":"2026-04-12T18:38:12.476Z","obsTime":1776018840,"reportTime":"2026-04-12T18:34:00.000Z","temp":28.9,"dewp":21.1,"wdir":140,"wspd":20,"wgst":28,"visib":"10+","altim":1017,"qcField":4,"metarType":"SPECI","rawOb":"SPECI KBRO 121834Z 14020G28KT 10SM SCT025 BKN030 BKN038 29/21 A3003 RMK AO2 PK WND 16030/1818 T02890211","lat":25.9146,"lon":-97.4231,"elev":6,"name":"Brownsville Intl, TX, US","cover":"BKN","clouds":[{"cover":"SCT","base":2500},{"cover":"BKN","base":3000},{"cover":"BKN","base":3800}],"fltCat":"MVFR"},{"icaoId":"KCLL","receiptTime":"2026-04-12T18:38:12.525Z","obsTime":1776018840,"reportTime":"2026-04-12T18:34:00.000Z","temp":22.2,"dewp":21.1,"wdir":140,"wspd":6,"visib":9,"altim":1018.4,"qcField":4,"precip":0.005,"metarType":"SPECI","rawOb":"SPECI KCLL 121834Z 14006KT 9SM SCT011 SCT023 OVC038 22/21 A3007 RMK AO2 RAE26 P0000 T02220211","lat":30.5912,"lon":-96.3631,"elev":96,"name":"College Station/Easterwood Arpt, TX, US","cover":"OVC","clouds":[{"cover":"SCT","base":1100},{"cover":"SCT","base":2300},{"cover":"OVC","base":3800}],"fltCat":"VFR"},{"icaoId":"KMFE","receiptTime":"2026-04-12T18:38:12.555Z","obsTime":1776018840,"reportTime":"2026-04-12T18:34:00.000Z","temp":28.9,"dewp":22.2,"wdir":140,"wspd":16,"wgst":26,"visib":"10+","altim":1016.3,"qcField":12,"metarType":"SPECI","rawOb":"SPECI KMFE 121834Z 14016G26KT 10SM BKN024 BKN038 BKN060 29/22 A3001 RMK AO2 PK WND 13027/1822 T02890222 $","lat":26.1791,"lon":-98.2445,"elev":29,"name":"McAllen/Miller Intl, TX, US","cover":"BKN","clouds":[{"cover":"BKN","base":2400},{"cover":"BKN","base":3800},{"cover":"BKN","base":6000}],"fltCat":"MVFR"},{"icaoId":"KLAW","receiptTime":"2026-04-12T18:34:07.760Z","obsTime":1776018660,"reportTime":"2026-04-12T18:31:00.000Z","temp":25.6,"dewp":18.9,"wdir":200,"wspd":10,"wgst":23,"visib":"10+","altim":1013.3,"qcField":12,"metarType":"SPECI","rawOb":"SPECI KLAW 121831Z 20010G23KT 10SM SCT027 BKN033 26/19 A2992 RMK AO2 T02560189 $","lat":34.5577,"lon":-98.4172,"elev":328,"name":"Lawton-Fort Sill Rgnl, OK, US","cover":"BKN","clouds":[{"cover":"SCT","base":2700},{"cover":"BKN","base":3300}],"fltCat":"VFR"},{"icaoId":"KCRP","receiptTime":"2026-04-12T18:34:07.153Z","obsTime":1776018600,"reportTime":"2026-04-12T18:30:00.000Z","temp":26.1,"dewp":21.7,"wdir":150,"wspd":23,"wgst":28,"visib":"10+","altim":1017.4,"qcField":4,"metarType":"SPECI","rawOb":"SPECI KCRP 121830Z 15023G28KT 10SM BKN020 BKN090 OVC250 26/22 A3004 RMK AO2 PK WND 15029/1803 T02610217","lat":27.7734,"lon":-97.513,"elev":11,"name":"Corpus Christi Intl, TX, US","cover":"OVC","clouds":[{"cover":"BKN","base":2000},{"cover":"BKN","base":9000},{"cover":"OVC","base":25000}],"fltCat":"MVFR"},{"icaoId":"KRDD","receiptTime":"2026-04-12T18:30:04.118Z","obsTime":1776018360,"reportTime":"2026-04-12T18:26:00.000Z","temp":11.1,"dewp":7.8,"wdir":190,"wspd":11,"wgst":23,"visib":"10+","altim":1008.5,"qcField":12,"wxString":"-RA","precip":0.005,"metarType":"SPECI","rawOb":"SPECI KRDD 121826Z 19011G23KT 10SM -RA FEW021 BKN045 OVC055 11/08 A2978 RMK AO2 PK WND 17031/1803 RAB20 P0000 T01110078 $","lat":40.5146,"lon":-122.2977,"elev":152,"name":"Redding Muni, CA, US","cover":"OVC","clouds":[{"cover":"FEW","base":2100},{"cover":"BKN","base":4500},{"cover":"OVC","base":5500}],"fltCat":"VFR"},{"icaoId":"KMEV","receiptTime":"2026-04-12T18:40:18.072Z","obsTime":1776018300,"reportTime":"2026-04-12T18:25:00.000Z","temp":6,"dewp":2,"wdir":160,"wspd":20,"wgst":26,"visib":"10+","altim":1009.9,"qcField":6,"metarType":"METAR","rawOb":"METAR KMEV 121825Z AUTO 16020G26KT 10SM BKN070 BKN080 06/02 A2982 RMK AO2","lat":38.9963,"lon":-119.75,"elev":1437,"name":"Minden-Tahoe Arpt, NV, US","cover":"BKN","clouds":[{"cover":"BKN","base":7000},{"cover":"BKN","base":8000}],"fltCat":"VFR"},{"icaoId":"KEND","receiptTime":"2026-04-12T18:31:41.097Z","obsTime":1776018300,"reportTime":"2026-04-12T18:25:00.000Z","temp":25,"dewp":18,"wdir":220,"wspd":19,"visib":"10+","altim":1009.6,"slp":1008.4,"qcField":12,"metarType":"SPECI","rawOb":"SPECI KEND 121825Z 22019KT 10SM SCT026 25/18 A2981 RMK AO2A SLP084 $","lat":36.338,"lon":-97.919,"elev":392,"name":"Enid/Vance AFB, OK, US","cover":"SCT","clouds":[{"cover":"SCT","base":2600}],"fltCat":"VFR"},{"icaoId":"KRTS","receiptTime":"2026-04-12T18:40:08.071Z","obsTime":1776018300,"reportTime":"2026-04-12T18:25:00.000Z","temp":2,"dewp":-2,"wdir":210,"wspd":5,"wgst":12,"visib":"10+","altim":1010.2,"qcField":6,"metarType":"METAR","rawOb":"METAR KRTS 121825Z AUTO 21005G12KT 10SM FEW025 FEW042 SCT060 02/M02 A2983 RMK AO2","lat":39.6658,"lon":-119.8731,"elev":1537,"name":"Reno/Stead Arpt, NV, US","cover":"SCT","clouds":[{"cover":"FEW","base":2500},{"cover":"FEW","base":4200},{"cover":"SCT","base":6000}],"fltCat":"VFR"},{"icaoId":"PANC","receiptTime":"2026-04-12T18:28:06.825Z","obsTime":1776018240,"reportTime":"2026-04-12T18:24:00.000Z","temp":-0.6,"dewp":-0.6,"wdir":330,"wspd":3,"visib":1.25,"altim":1001.8,"qcField":12,"wxString":"-SN BR","precip":0.01,"metarType":"SPECI","rawOb":"SPECI PANC 121824Z 33003KT 1 1/4SM R07R/3500VP6000FT -SN BR OVC004 M01/M01 A2958 RMK AO2 P0001 T10061006 $","lat":61.1691,"lon":-150.0277,"elev":39,"name":"Anchorage Intl, AK, US","cover":"OVC","clouds":[{"cover":"OVC","base":400}],"fltCat":"LIFR"},{"icaoId":"KAPA","receiptTime":"2026-04-12T18:28:06.604Z","obsTime":1776018240,"reportTime":"2026-04-12T18:24:00.000Z","temp":21.1,"dewp":-7.8,"wdir":170,"wspd":13,"wgst":21,"visib":"10+","altim":1010.2,"qcField":4,"metarType":"SPECI","rawOb":"SPECI KAPA 121824Z 17013G21KT 10SM SCT110 SCT170 BKN220 21/M08 A2983 RMK AO2 WSHFT 1804 T02111078","lat":39.5599,"lon":-104.8484,"elev":1791,"name":"Denver/Centennial Arpt, CO, US","cover":"BKN","clouds":[{"cover":"SCT","base":11000},{"cover":"SCT","base":17000},{"cover":"BKN","base":22000}],"fltCat":"VFR"},{"icaoId":"KTWF","receiptTime":"2026-04-12T18:26:10.232Z","obsTime":1776018180,"reportTime":"2026-04-12T18:23:00.000Z","temp":6.7,"dewp":1.7,"wdir":250,"wspd":33,"wgst":46,"visib":"10+","altim":1006.2,"qcField":4,"wxString":"VCTS SQ","metarType":"SPECI","rawOb":"SPECI KTWF 121823Z 25033G46KT 10SM VCTS SQ FEW028 SCT040 BKN090 07/02 A2971 RMK AO2 PK WND 25046/1821 T00670017","lat":42.4785,"lon":-114.4775,"elev":1269,"name":"Twin Falls/Joslin Fld, ID, US","cover":"BKN","clouds":[{"cover":"FEW","base":2800},{"cover":"SCT","base":4000},{"cover":"BKN","base":9000}],"fltCat":"VFR"},{"icaoId":"KMOD","receiptTime":"2026-04-12T18:26:07.456Z","obsTime":1776018120,"reportTime":"2026-04-12T18:22:00.000Z","temp":13.9,"dewp":8.3,"wdir":200,"wspd":6,"visib":8,"altim":1013.6,"qcField":6,"wxString":"-RA","precip":0.005,"metarType":"SPECI","rawOb":"SPECI KMOD 121822Z AUTO 20006KT 8SM -RA SCT050 BKN065 BKN080 14/08 A2993 RMK AO2 LTG DSNT NE AND SE RAB14 P0000 T01390083","lat":37.6254,"lon":-120.9549,"elev":25,"name":"Modesto/Sham Fld, CA, US","cover":"BKN","clouds":[{"cover":"SCT","base":5000},{"cover":"BKN","base":6500},{"cover":"BKN","base":8000}],"fltCat":"VFR"},{"icaoId":"KAUS","receiptTime":"2026-04-12T18:26:07.409Z","obsTime":1776018120,"reportTime":"2026-04-12T18:22:00.000Z","temp":26.7,"dewp":18.9,"wdir":160,"wspd":14,"wgst":25,"visib":"10+","altim":1017,"qcField":4,"metarType":"SPECI","rawOb":"SPECI KAUS 121822Z 16014G25KT 10SM FEW030 SCT070 BKN100 27/19 A3003 RMK AO2 PK WND 15027/1809 CB DSNT SE AND SW T02670189","lat":30.1831,"lon":-97.6806,"elev":148,"name":"Austin/Bergstrom Intl, TX, US","cover":"BKN","clouds":[{"cover":"FEW","base":3000},{"cover":"SCT","base":7000},{"cover":"BKN","base":10000}],"fltCat":"VFR"},{"icaoId":"KPDX","receiptTime":"2026-04-12T18:22:16.431Z","obsTime":1776017940,"reportTime":"2026-04-12T18:19:00.000Z","temp":10,"dewp":8.9,"wdir":200,"wspd":9,"visib":3,"altim":1007.2,"qcField":12,"wxString":"-RA BR","precip":0.005,"metarType":"SPECI","rawOb":"SPECI KPDX 121819Z 20009KT 3SM -RA BR FEW008 OVC017 10/09 A2974 RMK AO2 SFC VIS 4 P0000 T01000089 $","lat":45.5958,"lon":-122.6092,"elev":7,"name":"Portland Intl, OR, US","cover":"OVC","clouds":[{"cover":"FEW","base":800},{"cover":"OVC","base":1700}],"fltCat":"MVFR"},{"icaoId":"KABI","receiptTime":"2026-04-12T18:20:22.462Z","obsTime":1776017820,"reportTime":"2026-04-12T18:17:00.000Z","temp":25.6,"dewp":20,"wdir":210,"wspd":12,"wgst":22,"visib":"10+","altim":1015.7,"qcField":12,"metarType":"SPECI","rawOb":"SPECI KABI 121817Z 21012G22KT 10SM SCT023 26/20 A2999 RMK AO2 T02560200 $","lat":32.4106,"lon":-99.6821,"elev":543,"name":"Abilene Rgnl, TX, US","cover":"SCT","clouds":[{"cover":"SCT","base":2300}],"fltCat":"VFR"},{"icaoId":"KEKO","receiptTime":"2026-04-12T18:16:03.778Z","obsTime":1776017520,"reportTime":"2026-04-12T18:12:00.000Z","temp":4.4,"dewp":1.1,"wdir":240,"wspd":13,"wgst":22,"visib":"10+","altim":1010.9,"qcField":6,"metarType":"SPECI","rawOb":"SPECI KEKO 121812Z AUTO 24013G22KT 10SM FEW010 SCT017 BKN110 04/01 A2985 RMK AO2 T00440011","lat":40.824,"lon":-115.7863,"elev":1541,"name":"Elko Rgnl, NV, US","cover":"BKN","clouds":[{"cover":"FEW","base":1000},{"cover":"SCT","base":1700},{"cover":"BKN","base":11000}],"fltCat":"VFR"},{"icaoId":"KSPS","receiptTime":"2026-04-12T18:14:17.009Z","obsTime":1776017400,"reportTime":"2026-04-12T18:10:00.000Z","temp":25.6,"dewp":18.9,"wdir":210,"wspd":15,"visib":"10+","altim":1014,"qcField":4,"metarType":"SPECI","rawOb":"SPECI KSPS 121810Z 21015KT 10SM SCT029 BKN037 26/19 A2994 RMK AO2 T02560189","lat":33.9785,"lon":-98.493,"elev":310,"name":"Wichita Falls Rgnl, TX, US","cover":"BKN","clouds":[{"cover":"SCT","base":2900},{"cover":"BKN","base":3700}],"fltCat":"VFR"},{"icaoId":"KFUL","receiptTime":"2026-04-12T18:12:06.778Z","obsTime":1776017340,"reportTime":"2026-04-12T18:09:00.000Z","temp":18.3,"dewp":11.7,"wdir":260,"wspd":7,"visib":"10+","altim":1015.7,"qcField":4,"metarType":"SPECI","rawOb":"SPECI KFUL 121809Z 26007KT 10SM FEW020 SCT027 OVC080 18/12 A2999 RMK AO2 T01830117","lat":33.8715,"lon":-117.9856,"elev":23,"name":"Fullerton Muni, CA, US","cover":"OVC","clouds":[{"cover":"FEW","base":2000},{"cover":"SCT","base":2700},{"cover":"OVC","base":8000}],"fltCat":"VFR"},{"icaoId":"KIAD","receiptTime":"2026-04-12T18:10:10.025Z","obsTime":1776017220,"reportTime":"2026-04-12T18:07:00.000Z","temp":21.7,"dewp":6.7,"wdir":140,"wspd":10,"wgst":18,"visib":"10+","altim":1027.9,"qcField":12,"metarType":"SPECI","rawOb":"SPECI KIAD 121807Z 14010G18KT 10SM BKN250 22/07 A3035 RMK AO2 T02170067 $","lat":38.9348,"lon":-77.4473,"elev":90,"name":"Washington/Dulles Intl, VA, US","cover":"BKN","clouds":[{"cover":"BKN","base":25000}],"fltCat":"VFR"},{"icaoId":"KRTN","receiptTime":"2026-04-12T18:08:23.508Z","obsTime":1776017040,"reportTime":"2026-04-12T18:04:00.000Z","temp":19.4,"dewp":-5,"wdir":230,"wspd":17,"wgst":26,"visib":"10+","altim":1014.6,"qcField":6,"metarType":"SPECI","rawOb":"SPECI KRTN 121804Z AUTO 23017G26KT 10SM CLR 19/M05 A2996 RMK AO2 PK WND 28026/1758 WSHFT 1744 T01941050","lat":36.7418,"lon":-104.5076,"elev":1939,"name":"Raton/Crews Fld, NM, US","cover":"CLR","clouds":[],"fltCat":"VFR"},{"icaoId":"KNFL","receiptTime":"2026-04-12T18:00:05.403Z","obsTime":1776016620,"reportTime":"2026-04-12T18:00:00.000Z","temp":10.6,"dewp":-3.3,"wdir":160,"wspd":11,"wgst":17,"visib":"10+","altim":1009.6,"slp":1007.1,"qcField":12,"presTend":0.5,"maxT":10.6,"minT":3.3,"metarType":"METAR","rawOb":"METAR KNFL 121757Z 16011G17KT 10SM SCT065 SCT150 BKN230 11/M03 A2981 RMK AO2 SLP071 ACSL DSNT SE SH DSNT W T01061033 10106 20033 52005 PNO $ ","lat":39.417,"lon":-118.705,"elev":1199,"name":"Fallon , NV, US","cover":"BKN","clouds":[{"cover":"SCT","base":6500},{"cover":"SCT","base":15000},{"cover":"BKN","base":23000}],"fltCat":"VFR"},{"icaoId":"KFLG","receiptTime":"2026-04-12T18:02:30.641Z","obsTime":1776016620,"reportTime":"2026-04-12T18:00:00.000Z","temp":11.1,"dewp":-2.2,"wdir":200,"wspd":19,"wgst":29,"visib":"10+","altim":1018,"slp":1011.7,"qcField":12,"presTend":0.4,"maxT":11.7,"minT":-2.2,"metarType":"METAR","rawOb":"METAR KFLG 121757Z 20019G29KT 10SM CLR 11/M02 A3006 RMK AO2 PK WND 21034/1718 SLP117 T01111022 10117 21022 50004 $","lat":35.1443,"lon":-111.6664,"elev":2134,"name":"Flagstaff/Pulliam Arpt, AZ, US","cover":"CLR","clouds":[],"fltCat":"VFR"},{"icaoId":"KNYL","receiptTime":"2026-04-12T18:00:05.186Z","obsTime":1776016620,"reportTime":"2026-04-12T18:00:00.000Z","temp":21.1,"dewp":4.4,"wdir":300,"wspd":13,"wgst":18,"visib":"10+","altim":1014.6,"slp":1014.3,"qcField":6,"presTend":1.4,"maxT":21.7,"minT":17.2,"metarType":"METAR","rawOb":"METAR KNYL 121757Z AUTO 30013G18KT 10SM CLR 21/04 A2996 RMK AO2 SLP143 T02110044 10217 20172 53014","lat":32.66,"lon":-114.6078,"elev":58,"name":"Yuma , AZ, US","cover":"CLR","clouds":[],"fltCat":"VFR"},{"icaoId":"KSDF","receiptTime":"2026-04-12T18:02:18.643Z","obsTime":1776016560,"reportTime":"2026-04-12T18:00:00.000Z","temp":27.2,"dewp":9.4,"wdir":240,"wspd":15,"wgst":24,"visib":"10+","altim":1020.7,"slp":1020.2,"qcField":4,"presTend":-2.5,"maxT":27.8,"minT":13.9,"metarType":"METAR","rawOb":"METAR KSDF 121756Z 24015G24KT 10SM FEW070 BKN300 27/09 A3014 RMK AO2 PK WND 21027/1657 SLP202 T02720094 10278 20139 58025","lat":38.1774,"lon":-85.7308,"elev":146,"name":"Louisville Intl, KY, US","cover":"BKN","clouds":[{"cover":"FEW","base":7000},{"cover":"BKN","base":30000}],"fltCat":"VFR"},{"icaoId":"KPVU","receiptTime":"2026-04-12T17:58:16.140Z","obsTime":1776016560,"reportTime":"2026-04-12T18:00:00.000Z","temp":16.7,"dewp":-0.6,"wdir":220,"wspd":12,"visib":"10+","altim":1008.2,"slp":1005.5,"qcField":4,"presTend":-0.6,"maxT":18.3,"minT":7.8,"metarType":"METAR","rawOb":"METAR KPVU 121756Z 22012KT 10SM BKN110 17/M01 A2977 RMK AO2 SLP055 T01671006 10183 20078 58006","lat":40.224,"lon":-111.7252,"elev":1370,"name":"Provo Muni, UT, US","cover":"BKN","clouds":[{"cover":"BKN","base":11000}],"fltCat":"VFR"},{"icaoId":"KHND","receiptTime":"2026-04-12T17:58:17.680Z","obsTime":1776016560,"reportTime":"2026-04-12T18:00:00.000Z","temp":19.4,"dewp":1.7,"wdir":240,"wspd":25,"wgst":29,"visib":"10+","altim":1011.9,"slp":1011.8,"qcField":12,"presTend":0.2,"maxT":19.4,"minT":13.9,"metarType":"METAR","rawOb":"METAR KHND 121756Z 24025G29KT 10SM CLR 19/02 A2988 RMK AO2 PK WND 23031/1738 SLP118 T01940017 10194 20139 50002 $","lat":35.9657,"lon":-115.1343,"elev":740,"name":"Henderson Exec, NV, US","cover":"CLR","clouds":[],"fltCat":"VFR"},{"icaoId":"KJAC","receiptTime":"2026-04-12T17:58:17.925Z","obsTime":1776016560,"reportTime":"2026-04-12T18:00:00.000Z","temp":11.1,"dewp":-1.1,"wdir":180,"wspd":9,"wgst":15,"visib":"10+","altim":1008.2,"slp":1006.7,"qcField":4,"presTend":-1.4,"maxT":11.1,"minT":-3.9,"metarType":"METAR","rawOb":"METAR KJAC 121756Z 18009G15KT 10SM CLR 11/M01 A2977 RMK AO2 SLP067 T01111011 10111 21039 58014","lat":43.6129,"lon":-110.7366,"elev":1967,"name":"Jackson Hole Arpt, WY, US","cover":"CLR","clouds":[],"fltCat":"VFR"},{"icaoId":"KEGE","receiptTime":"2026-04-12T17:58:17.101Z","obsTime":1776016560,"reportTime":"2026-04-12T18:00:00.000Z","temp":16.7,"dewp":-9.4,"wdir":220,"wspd":20,"wgst":29,"visib":"10+","altim":1013.6,"slp":1008.7,"qcField":4,"presTend":-2,"maxT":16.7,"minT":-1.7,"metarType":"METAR","rawOb":"METAR KEGE 121756Z 22020G29KT 10SM CLR 17/M09 A2993 RMK AO2 PK WND 21030/1722 SLP087 T01671094 10167 21017 58020","lat":39.6448,"lon":-106.9176,"elev":1993,"name":"Eagle Cnty Rgnl, CO, US","cover":"CLR","clouds":[],"fltCat":"VFR"},{"icaoId":"KENV","receiptTime":"2026-04-12T17:58:17.159Z","obsTime":1776016560,"reportTime":"2026-04-12T18:00:00.000Z","temp":18.3,"dewp":-8.3,"wdir":240,"wspd":27,"wgst":38,"visib":"10+","altim":1006.2,"slp":1003.9,"qcField":6,"maxT":18.3,"minT":7.8,"metarType":"METAR","rawOb":"METAR KENV 121756Z AUTO 24027G38KT 10SM CLR 18/M08 A2971 RMK AO2 PK WND 23040/1746 SLP039 T01831083 10183 20078 53000","lat":40.7211,"lon":-114.0312,"elev":1291,"name":"Wendover Arpt, UT, US","cover":"CLR","clouds":[],"fltCat":"VFR"},{"icaoId":"KCEC","receiptTime":"2026-04-12T18:02:32.021Z","obsTime":1776016560,"reportTime":"2026-04-12T18:00:00.000Z","temp":11.7,"dewp":7.2,"wdir":300,"wspd":5,"visib":"10+","altim":1008.9,"slp":1008.8,"qcField":6,"presTend":2.6,"maxT":12.2,"minT":7.2,"pcp6hr":0.01,"metarType":"METAR","rawOb":"METAR KCEC 121756Z AUTO 30005KT 10SM OVC080 12/07 A2979 RMK AO2 SLP088 60001 T01170072 10122 20072 53026","lat":41.7836,"lon":-124.238,"elev":17,"name":"Crescent City/McNama, CA, US","cover":"OVC","clouds":[{"cover":"OVC","base":8000}],"fltCat":"VFR"},{"icaoId":"KTPH","receiptTime":"2026-04-12T18:02:31.193Z","obsTime":1776016560,"reportTime":"2026-04-12T18:00:00.000Z","temp":7.8,"dewp":-1.7,"wdir":10,"wspd":8,"visib":"10+","altim":1010.6,"slp":1007.6,"qcField":6,"presTend":0.6,"maxT":7.8,"minT":3.3,"precip":0.005,"pcp6hr":0.005,"metarType":"METAR","rawOb":"METAR KTPH 121756Z AUTO 01008KT 10SM FEW033 BKN044 BKN060 08/M02 A2984 RMK AO2 RAB39E56 SLP076 P0000 60000 T00781017 10078 20033 51006","lat":38.0505,"lon":-117.0906,"elev":1647,"name":"Tonopah Arpt, NV, US","cover":"BKN","clouds":[{"cover":"FEW","base":3300},{"cover":"BKN","base":4400},{"cover":"BKN","base":6000}],"fltCat":"VFR"},{"icaoId":"KUKI","receiptTime":"2026-04-12T18:02:31.235Z","obsTime":1776016560,"reportTime":"2026-04-12T18:00:00.000Z","temp":10.6,"dewp":7.8,"wdir":150,"wspd":6,"visib":"10+","altim":1009.2,"slp":1008.7,"qcField":6,"wxString":"-RA","presTend":1.8,"maxT":11.1,"minT":7.8,"precip":0.005,"pcp6hr":0.49,"metarType":"METAR","rawOb":"METAR KUKI 121756Z AUTO 15006KT 10SM -RA SCT030 BKN036 OVC048 11/08 A2980 RMK AO2 RAB53 SLP087 P0000 60049 T01060078 10111 20078 53018","lat":39.1278,"lon":-123.2001,"elev":183,"name":"Ukiah Muni, CA, US","cover":"OVC","clouds":[{"cover":"SCT","base":3000},{"cover":"BKN","base":3600},{"cover":"OVC","base":4800}],"fltCat":"VFR"},{"icaoId":"KSFO","receiptTime":"2026-04-12T18:02:30.572Z","obsTime":1776016560,"reportTime":"2026-04-12T18:00:00.000Z","temp":13.9,"dewp":8.3,"wdir":220,"wspd":13,"wgst":21,"visib":"10+","altim":1012.3,"slp":1012.1,"qcField":12,"presTend":1.2,"maxT":13.9,"minT":11.1,"pcp6hr":0.03,"metarType":"METAR","rawOb":"METAR KSFO 121756Z 22013G21KT 10SM FEW030 BKN049 BKN065 14/08 A2989 RMK AO2 SLP121 60003 T01390083 10139 20111 51012 $","lat":37.6196,"lon":-122.3656,"elev":2,"name":"San Francisco Intl, CA, US","cover":"BKN","clouds":[{"cover":"FEW","base":3000},{"cover":"BKN","base":4900},{"cover":"BKN","base":6500}],"fltCat":"VFR"},{"icaoId":"KSBP","receiptTime":"2026-04-12T18:02:31.936Z","obsTime":1776016560,"reportTime":"2026-04-12T18:00:00.000Z","temp":15,"dewp":8.3,"wdir":210,"wspd":5,"visib":"10+","altim":1015.3,"slp":1015.1,"qcField":4,"presTend":0.8,"maxT":15.6,"minT":9.4,"pcp6hr":0.05,"metarType":"METAR","rawOb":"METAR KSBP 121756Z 21005KT 10SM BKN090 15/08 A2998 RMK AO2 SLP151 60005 T01500083 10156 20094 51008","lat":35.2381,"lon":-120.644,"elev":52,"name":"San Luis Obispo/San Luis Cnty, CA, US","cover":"BKN","clouds":[{"cover":"BKN","base":9000}],"fltCat":"VFR"},{"icaoId":"KLWS","receiptTime":"2026-04-12T18:02:30.519Z","obsTime":1776016560,"reportTime":"2026-04-12T18:00:00.000Z","temp":13.3,"dewp":7.2,"wdir":"VRB","wspd":3,"visib":"10+","altim":1003.1,"slp":1003,"qcField":4,"presTend":-0.7,"maxT":13.9,"minT":7.2,"metarType":"METAR","rawOb":"METAR KLWS 121756Z VRB03KT 10SM SCT090 13/07 A2962 RMK AO2 SLP030 T01330072 10139 20072 58007","lat":46.3746,"lon":-117.0153,"elev":435,"name":"Lewiston/Nez Perce Cnty, ID, US","cover":"SCT","clouds":[{"cover":"SCT","base":9000}],"fltCat":"VFR"},{"icaoId":"KJAX","receiptTime":"2026-04-12T18:02:30.247Z","obsTime":1776016560,"reportTime":"2026-04-12T18:00:00.000Z","temp":26.7,"dewp":12.8,"wdir":140,"wspd":12,"wgst":20,"visib":"10+","altim":1027.2,"slp":1027,"qcField":12,"presTend":-0.9,"maxT":27.2,"minT":12.8,"metarType":"METAR","rawOb":"METAR KJAX 121756Z 14012G20KT 10SM FEW037 27/13 A3033 RMK AO2 SLP270 T02670128 10272 20128 58009 $","lat":30.4953,"lon":-81.6937,"elev":8,"name":"Jacksonville Intl, FL, US","cover":"FEW","clouds":[{"cover":"FEW","base":3700}],"fltCat":"VFR"},{"icaoId":"KCGZ","receiptTime":"2026-04-12T17:58:17.401Z","obsTime":1776016560,"reportTime":"2026-04-12T18:00:00.000Z","temp":26.1,"dewp":1.1,"wdir":220,"wspd":16,"wgst":22,"visib":"10+","altim":1014.6,"slp":1013.2,"qcField":14,"presTend":0.1,"maxT":26.1,"minT":15,"metarType":"METAR","rawOb":"METAR KCGZ 121756Z AUTO 22016G22KT 10SM CLR 26/01 A2996 RMK AO2 SLP132 6//// T02610011 10261 20150 50001 $","lat":32.9531,"lon":-111.7725,"elev":444,"name":"Casa Granda Muni, AZ, US","cover":"CLR","clouds":[],"fltCat":"VFR"},{"icaoId":"KCOE","receiptTime":"2026-04-12T17:58:16.934Z","obsTime":1776016560,"reportTime":"2026-04-12T18:00:00.000Z","temp":11.1,"dewp":8.9,"wdir":30,"wspd":8,"visib":"10+","altim":1004.1,"slp":1005.6,"qcField":14,"presTend":-1.2,"maxT":11.1,"minT":3.3,"metarType":"METAR","rawOb":"METAR KCOE 121756Z AUTO 03008KT 10SM SCT004 OVC090 11/09 A2965 RMK AO2 SLP056 6//// T01110089 10111 20033 56012 PNO $","lat":47.7719,"lon":-116.8332,"elev":693,"name":"Coeur DAlene Arpt, ID, US","cover":"OVC","clouds":[{"cover":"SCT","base":400},{"cover":"OVC","base":9000}],"fltCat":"VFR"},{"icaoId":"KCOD","receiptTime":"2026-04-12T17:58:17.795Z","obsTime":1776016560,"reportTime":"2026-04-12T18:00:00.000Z","temp":15.6,"dewp":-4.4,"wdir":100,"wspd":4,"visib":"10+","altim":1006.9,"slp":1003.5,"qcField":14,"presTend":-1.3,"maxT":16.1,"minT":6.1,"metarType":"METAR","rawOb":"METAR KCOD 121756Z AUTO 10004KT 10SM CLR 16/M04 A2973 RMK AO2 SLP035 T01561044 10161 20061 57013 $","lat":44.52,"lon":-109.0268,"elev":1550,"name":"Cody/Yellowstone Rgnl, WY, US","cover":"CLR","clouds":[],"fltCat":"VFR"},{"icaoId":"KHDN","receiptTime":"2026-04-12T17:58:17.638Z","obsTime":1776016560,"reportTime":"2026-04-12T18:00:00.000Z","temp":16.1,"dewp":-4.4,"wdir":210,"wspd":13,"wgst":19,"visib":"10+","altim":1012.3,"slp":1008,"qcField":6,"presTend":-1.7,"maxT":16.1,"minT":-0.6,"metarType":"METAR","rawOb":"METAR KHDN 121756Z AUTO 21013G19KT 10SM CLR 16/M04 A2989 RMK AO2 PK WND 23027/1727 SLP080 T01611044 10161 21006 58017","lat":40.4842,"lon":-107.2296,"elev":2012,"name":"Hayden/Yampa Valley Arpt, CO, US","cover":"CLR","clouds":[],"fltCat":"VFR"},{"icaoId":"KFNL","receiptTime":"2026-04-12T17:58:17.461Z","obsTime":1776016560,"reportTime":"2026-04-12T18:00:00.000Z","temp":21.7,"dewp":-6.1,"wdir":320,"wspd":8,"visib":"10+","altim":1009.6,"slp":1003.6,"qcField":12,"presTend":-2.1,"maxT":21.7,"minT":2.8,"metarType":"METAR","rawOb":"METAR KFNL 121756Z 32008KT 10SM BKN110 22/M06 A2981 RMK AO2 SLP036 T02171061 10217 20028 58021 $","lat":40.4427,"lon":-105.0097,"elev":1529,"name":"Fort Collins/N Colorado Rgnl, CO, US","cover":"BKN","clouds":[{"cover":"BKN","base":11000}],"fltCat":"VFR"},{"icaoId":"KVIS","receiptTime":"2026-04-12T17:58:18.507Z","obsTime":1776016560,"reportTime":"2026-04-12T18:00:00.000Z","temp":16.7,"dewp":8.3,"wdir":180,"wspd":11,"visib":"10+","altim":1015.3,"slp":1015.3,"qcField":14,"presTend":0.5,"maxT":16.7,"minT":10,"metarType":"METAR","rawOb":"METAR KVIS 121756Z AUTO 18011KT 10SM BKN090 OVC100 17/08 A2998 RMK AO2 SLP153 6//// T01670083 10167 20100 51005 PNO $","lat":36.3135,"lon":-119.3884,"elev":92,"name":"Visalia Muni, CA, US","cover":"OVC","clouds":[{"cover":"BKN","base":9000},{"cover":"OVC","base":10000}],"fltCat":"VFR"},{"icaoId":"KSGU","receiptTime":"2026-04-12T17:58:18.357Z","obsTime":1776016560,"reportTime":"2026-04-12T18:00:00.000Z","temp":22.2,"dewp":-6.7,"wdir":200,"wspd":22,"wgst":30,"visib":"10+","altim":1010.2,"slp":1007.4,"qcField":6,"presTend":-0.3,"maxT":22.2,"minT":14.4,"metarType":"METAR","rawOb":"METAR KSGU 121756Z AUTO 20022G30KT 10SM CLR 22/M07 A2983 RMK AO2 PK WND 21030/1748 SLP074 T02221067 10222 20144 55003","lat":37.0444,"lon":-113.5034,"elev":877,"name":"Saint George Muni, UT, US","cover":"CLR","clouds":[],"fltCat":"VFR"},{"icaoId":"KDUG","receiptTime":"2026-04-12T18:02:30.720Z","obsTime":1776016560,"reportTime":"2026-04-12T18:00:00.000Z","temp":25,"dewp":0,"wdir":230,"wspd":17,"wgst":29,"visib":"10+","altim":1019,"slp":1012.8,"qcField":38,"presTend":-0.5,"maxT":25,"minT":9.4,"metarType":"METAR","rawOb":"METAR KDUG 121756Z AUTO 23017G29KT 10SM CLR 25/00 A3009 RMK AO2 PK WND 21041/1746 SLP128 T02500000 10250 20094 58005 TSNO","lat":31.4725,"lon":-109.6022,"elev":1260,"name":"Douglas/Bisbee Intl, AZ, US","cover":"CLR","clouds":[],"fltCat":"VFR"},{"icaoId":"KCHS","receiptTime":"2026-04-12T18:00:06.931Z","obsTime":1776016560,"reportTime":"2026-04-12T18:00:00.000Z","temp":26.7,"dewp":15,"wdir":120,"wspd":11,"wgst":17,"visib":"10+","altim":1028.5,"slp":1028.3,"qcField":4,"presTend":-0.4,"maxT":27.2,"minT":14.4,"metarType":"METAR","rawOb":"METAR KCHS 121756Z 12011G17KT 10SM FEW045 27/15 A3037 RMK AO2 SLP283 T02670150 10272 20144 58004","lat":32.8995,"lon":-80.0407,"elev":12,"name":"Charleston Intl, SC, US","cover":"FEW","clouds":[{"cover":"FEW","base":4500}],"fltCat":"VFR"},{"icaoId":"KGUC","receiptTime":"2026-04-12T17:58:17.609Z","obsTime":1776016560,"reportTime":"2026-04-12T18:00:00.000Z","temp":13.3,"dewp":-8.9,"wdir":"VRB","wspd":5,"visib":"10+","altim":1016,"slp":1011.3,"qcField":14,"presTend":-1.7,"maxT":13.3,"minT":-3.9,"metarType":"METAR","rawOb":"METAR KGUC 121756Z AUTO VRB05KT 10SM CLR 13/M09 A3000 RMK AO2 SLP113 T01331089 10133 21039 58017 $","lat":38.5322,"lon":-106.9419,"elev":2337,"name":"Gunnison Arpt, CO, US","cover":"CLR","clouds":[],"fltCat":"VFR"},{"icaoId":"KLAS","receiptTime":"2026-04-12T18:02:31.812Z","obsTime":1776016560,"reportTime":"2026-04-12T18:00:00.000Z","temp":20,"dewp":0.6,"wdir":210,"wspd":18,"wgst":28,"visib":"10+","altim":1011.3,"slp":1009.6,"qcField":4,"presTend":0.2,"maxT":20,"minT":15.6,"metarType":"METAR","rawOb":"METAR KLAS 121756Z 21018G28KT 10SM FEW100 SCT200 20/01 A2986 RMK AO2 PK WND 22031/1701 SLP096 T02000006 10200 20156 53002","lat":36.0719,"lon":-115.1634,"elev":662,"name":"Las Vegas/Reid Intl, NV, US","cover":"SCT","clouds":[{"cover":"FEW","base":10000},{"cover":"SCT","base":20000}],"fltCat":"VFR"},{"icaoId":"KINW","receiptTime":"2026-04-12T18:02:31.800Z","obsTime":1776016560,"reportTime":"2026-04-12T18:00:00.000Z","temp":20,"dewp":-3.9,"wdir":210,"wspd":23,"wgst":36,"visib":"10+","altim":1016,"slp":1011.5,"qcField":6,"presTend":-0.5,"maxT":20,"minT":8.3,"metarType":"METAR","rawOb":"METAR KINW 121756Z AUTO 21023G36KT 10SM CLR 20/M04 A3000 RMK AO2 PK WND 22036/1752 SLP115 T02001039 10200 20083 55005","lat":35.0279,"lon":-110.7221,"elev":1492,"name":"Winslow/Lindberg Rgnl, AZ, US","cover":"CLR","clouds":[],"fltCat":"VFR"},{"icaoId":"KCMA","receiptTime":"2026-04-12T17:58:17.430Z","obsTime":1776016500,"reportTime":"2026-04-12T18:00:00.000Z","temp":17.8,"dewp":6.7,"wdir":280,"wspd":10,"visib":"10+","altim":1015.7,"slp":1016.4,"qcField":6,"presTend":1.3,"maxT":18.3,"minT":13.3,"pcp6hr":0.005,"metarType":"METAR","rawOb":"METAR KCMA 121755Z AUTO 28010KT 10SM OVC075 18/07 A2999 RMK AO2 SLP164 60000 T01780067 10183 20133 53013","lat":34.2114,"lon":-119.0876,"elev":20,"name":"Camarillo Arpt, CA, US","cover":"OVC","clouds":[{"cover":"OVC","base":7500}],"fltCat":"VFR"},{"icaoId":"KRNO","receiptTime":"2026-04-12T17:58:16.193Z","obsTime":1776016500,"reportTime":"2026-04-12T18:00:00.000Z","temp":3.9,"dewp":1.7,"wdir":270,"wspd":6,"visib":9,"altim":1009.6,"slp":1008.7,"qcField":4,"wxString":"-RA","presTend":0.8,"maxT":6.7,"minT":1.7,"precip":0.01,"pcp6hr":0.01,"metarType":"METAR","rawOb":"METAR KRNO 121755Z 27006KT 9SM -RA SCT019 BKN030 OVC060 04/02 A2981 RMK AO2 RAB20SNB45E52 SLP087 P0001 60001 T00390017 10067 20017 53008","lat":39.5077,"lon":-119.7683,"elev":1344,"name":"Reno/Tahoe Intl, NV, US","cover":"OVC","clouds":[{"cover":"SCT","base":1900},{"cover":"BKN","base":3000},{"cover":"OVC","base":6000}],"fltCat":"MVFR"},{"icaoId":"KBOS","receiptTime":"2026-04-12T17:58:11.889Z","obsTime":1776016440,"reportTime":"2026-04-12T18:00:00.000Z","temp":8.9,"dewp":-5.6,"wdir":120,"wspd":10,"visib":"10+","altim":1032.3,"slp":1032.1,"qcField":4,"presTend":-1.8,"maxT":10,"minT":6.1,"metarType":"METAR","rawOb":"METAR KBOS 121754Z 12010KT 10SM FEW200 BKN250 09/M06 A3048 RMK AO2 SLP321 T00891056 10100 20061 58018","lat":42.3606,"lon":-71.0097,"elev":4,"name":"Boston/Logan Intl, MA, US","cover":"BKN","clouds":[{"cover":"FEW","base":20000},{"cover":"BKN","base":25000}],"fltCat":"VFR"},{"icaoId":"KAPC","receiptTime":"2026-04-12T17:58:12.547Z","obsTime":1776016440,"reportTime":"2026-04-12T18:00:00.000Z","temp":11.1,"dewp":8.9,"wdir":190,"wspd":14,"wgst":26,"visib":"10+","altim":1011.6,"slp":1010.6,"qcField":4,"wxString":"-RA","presTend":1.5,"maxT":12.2,"minT":9.4,"precip":0.03,"pcp6hr":0.09,"metarType":"METAR","rawOb":"METAR KAPC 121754Z 19014G26KT 10SM -RA FEW039 BKN050 OVC080 11/09 A2987 RMK AO2 PK WND 21028/1725 RAB11 SLP106 P0003 60009 T01110089 10122 20094 53015","lat":38.2075,"lon":-122.2804,"elev":5,"name":"Napa Cnty Arpt, CA, US","cover":"OVC","clouds":[{"cover":"FEW","base":3900},{"cover":"BKN","base":5000},{"cover":"OVC","base":8000}],"fltCat":"VFR"},{"icaoId":"KIND","receiptTime":"2026-04-12T17:58:12.938Z","obsTime":1776016440,"reportTime":"2026-04-12T18:00:00.000Z","temp":25,"dewp":9.4,"wdir":220,"wspd":15,"wgst":25,"visib":"10+","altim":1019,"slp":1018.7,"qcField":4,"presTend":-2.2,"maxT":26.7,"minT":11.7,"metarType":"METAR","rawOb":"METAR KIND 121754Z 22015G25KT 10SM FEW070 BKN250 25/09 A3009 RMK AO2 PK WND 22030/1719 SLP187 T02500094 10267 20117 56022","lat":39.7252,"lon":-86.2816,"elev":242,"name":"Indianapolis Intl, IN, US","cover":"BKN","clouds":[{"cover":"FEW","base":7000},{"cover":"BKN","base":25000}],"fltCat":"VFR"},{"icaoId":"KBFL","receiptTime":"2026-04-12T17:58:12.561Z","obsTime":1776016440,"reportTime":"2026-04-12T18:00:00.000Z","temp":15.6,"dewp":6.7,"wdir":360,"wspd":5,"visib":"10+","altim":1015.7,"slp":1015.1,"qcField":12,"presTend":0.6,"maxT":15.6,"minT":11.1,"pcp6hr":0.09,"metarType":"METAR","rawOb":"METAR KBFL 121754Z 36005KT 10SM FEW048 OVC060 16/07 A2999 RMK AO2 SLP151 60009 T01560067 10156 20111 51006 $","lat":35.4342,"lon":-119.0552,"elev":146,"name":"Bakersfield/Meadows Arpt, CA, US","cover":"OVC","clouds":[{"cover":"FEW","base":4800},{"cover":"OVC","base":6000}],"fltCat":"VFR"},{"icaoId":"KDSM","receiptTime":"2026-04-12T17:58:12.876Z","obsTime":1776016440,"reportTime":"2026-04-12T18:00:00.000Z","temp":20,"dewp":16.1,"wdir":200,"wspd":15,"wgst":32,"visib":"10+","altim":1008.5,"slp":1007.9,"qcField":4,"wxString":"-RA","presTend":-0.6,"maxT":21.1,"minT":18.3,"precip":0.005,"pcp6hr":0.005,"metarType":"METAR","rawOb":"METAR KDSM 121754Z 20015G32KT 10SM -RA BKN026 OVC080 20/16 A2978 RMK AO2 PK WND 20034/1739 RAB49 SLP079 P0000 60000 T02000161 10211 20183 58006","lat":41.5339,"lon":-93.6531,"elev":286,"name":"Des Moines Intl, IA, US","cover":"OVC","clouds":[{"cover":"BKN","base":2600},{"cover":"OVC","base":8000}],"fltCat":"MVFR"},{"icaoId":"KSJN","receiptTime":"2026-04-12T17:58:09.301Z","obsTime":1776016440,"reportTime":"2026-04-12T18:00:00.000Z","temp":19.4,"dewp":-8.3,"wdir":230,"wspd":15,"wgst":27,"visib":"10+","altim":1017,"slp":1010.1,"qcField":6,"presTend":-1.2,"maxT":19.4,"minT":5,"metarType":"METAR","rawOb":"METAR KSJN 121754Z AUTO 23015G27KT 10SM CLR 19/M08 A3003 RMK AO2 PK WND 23027/1749 SLP101 T01941083 10194 20050 56012","lat":34.5184,"lon":-109.3801,"elev":1747,"name":"St Johns Ind Arpt, AZ, US","cover":"CLR","clouds":[],"fltCat":"VFR"},{"icaoId":"KPHL","receiptTime":"2026-04-12T17:58:09.750Z","obsTime":1776016440,"reportTime":"2026-04-12T18:00:00.000Z","temp":17.8,"dewp":1.7,"wdir":180,"wspd":9,"visib":"10+","altim":1030.9,"slp":1030.7,"qcField":12,"presTend":-2.7,"maxT":18.3,"minT":8.9,"metarType":"METAR","rawOb":"METAR KPHL 121754Z 18009KT 10SM FEW200 FEW350 18/02 A3044 RMK AO2 SLP307 T01780017 10183 20089 58027 $","lat":39.8733,"lon":-75.2268,"elev":2,"name":"Philadelphia Intl, PA, US","cover":"FEW","clouds":[{"cover":"FEW","base":20000},{"cover":"FEW","base":35000}],"fltCat":"VFR"},{"icaoId":"KCOS","receiptTime":"2026-04-12T17:58:12.829Z","obsTime":1776016440,"reportTime":"2026-04-12T18:00:00.000Z","temp":20,"dewp":-8.3,"wdir":210,"wspd":19,"wgst":30,"visib":"10+","altim":1012.6,"slp":1005.9,"qcField":4,"presTend":-1.4,"maxT":20,"minT":5.6,"metarType":"METAR","rawOb":"METAR KCOS 121754Z 21019G30KT 10SM FEW090 FEW180 BKN220 20/M08 A2990 RMK AO2 PK WND 20030/1752 WSHFT 1711 SLP059 CCSL SW-W T02001083 10200 20056 58014","lat":38.8095,"lon":-104.6887,"elev":1886,"name":"Colorado Spring Arpt, CO, US","cover":"BKN","clouds":[{"cover":"FEW","base":9000},{"cover":"FEW","base":18000},{"cover":"BKN","base":22000}],"fltCat":"VFR"},{"icaoId":"KRIC","receiptTime":"2026-04-12T17:58:10.607Z","obsTime":1776016440,"reportTime":"2026-04-12T18:00:00.000Z","temp":21.7,"dewp":4.4,"wdir":"VRB","wspd":5,"visib":"10+","altim":1029.2,"slp":1029.7,"qcField":12,"presTend":-1.9,"maxT":22.2,"minT":12.8,"metarType":"METAR","rawOb":"METAR KRIC 121754Z VRB05KT 10SM SCT050 SCT090 BKN300 22/04 A3039 RMK AO2 SLP297 T02170044 10222 20128 58019 $","lat":37.5115,"lon":-77.3234,"elev":51,"name":"Richmond Intl, VA, US","cover":"BKN","clouds":[{"cover":"SCT","base":5000},{"cover":"SCT","base":9000},{"cover":"BKN","base":30000}],"fltCat":"VFR"},{"icaoId":"KROC","receiptTime":"2026-04-12T17:58:10.651Z","obsTime":1776016440,"reportTime":"2026-04-12T18:00:00.000Z","temp":11.7,"dewp":0,"wdir":100,"wspd":3,"visib":"10+","altim":1023.8,"slp":1024.4,"qcField":4,"wxString":"-RA","presTend":-3.4,"maxT":11.7,"minT":2.8,"precip":0.005,"pcp6hr":0.005,"metarType":"METAR","rawOb":"METAR KROC 121754Z 10003KT 10SM -RA OVC090 12/00 A3023 RMK AO2 RAB44 SLP244 PCPN VRY LGT P0000 60000 T01170000 10117 20028 56034","lat":43.1172,"lon":-77.6754,"elev":166,"name":"Rochester Intl Arpt, NY, US","cover":"OVC","clouds":[{"cover":"OVC","base":9000}],"fltCat":"VFR"},{"icaoId":"KSYR","receiptTime":"2026-04-12T17:58:10.756Z","obsTime":1776016440,"reportTime":"2026-04-12T18:00:00.000Z","temp":13.3,"dewp":-0.6,"wdir":110,"wspd":9,"visib":"10+","altim":1024.8,"slp":1024.8,"qcField":12,"presTend":-4.8,"maxT":13.3,"minT":0,"metarType":"METAR","rawOb":"METAR KSYR 121754Z 11009KT 10SM BKN110 OVC150 13/M01 A3026 RMK AO2 PRESFR SLP248 T01331006 10133 20000 58048 $","lat":43.1111,"lon":-76.1038,"elev":125,"name":"Syracuse/Hancock Intl, NY, US","cover":"OVC","clouds":[{"cover":"BKN","base":11000},{"cover":"OVC","base":15000}],"fltCat":"VFR"},{"icaoId":"KGCN","receiptTime":"2026-04-12T17:58:12.592Z","obsTime":1776016440,"reportTime":"2026-04-12T18:00:00.000Z","temp":12.8,"dewp":-2.2,"wdir":220,"wspd":23,"wgst":37,"visib":"10+","altim":1016.7,"slp":1011.3,"qcField":4,"presTend":-0.1,"maxT":13.9,"minT":-3.3,"metarType":"METAR","rawOb":"METAR KGCN 121754Z 22023G37KT 10SM CLR 13/M02 A3002 RMK AO2 PK WND 22038/1735 SLP113 T01281022 10139 21033 58001","lat":35.9458,"lon":-112.1554,"elev":1993,"name":"Grand Canyon Park Arpt, AZ, US","cover":"CLR","clouds":[],"fltCat":"VFR"},{"icaoId":"KFFZ","receiptTime":"2026-04-12T18:00:08.707Z","obsTime":1776016440,"reportTime":"2026-04-12T18:00:00.000Z","temp":25.6,"dewp":-0.6,"wdir":200,"wspd":12,"wgst":24,"visib":"10+","altim":1014,"slp":1011.7,"qcField":4,"presTend":0.4,"maxT":25.6,"minT":19.4,"metarType":"METAR","rawOb":"METAR KFFZ 121754Z 20012G24KT 10SM CLR 26/M01 A2994 RMK AO2 SLP117 T02561006 10256 20194 50004","lat":33.4659,"lon":-111.7212,"elev":420,"name":"Mesa/Falcon Fld, AZ, US","cover":"CLR","clouds":[],"fltCat":"VFR"},{"icaoId":"KSLC","receiptTime":"2026-04-12T17:58:12.652Z","obsTime":1776016440,"reportTime":"2026-04-12T18:00:00.000Z","temp":18.9,"dewp":-3.9,"wdir":170,"wspd":22,"wgst":32,"visib":"10+","altim":1007.2,"slp":1003.5,"qcField":12,"presTend":-0.1,"maxT":18.9,"minT":11.7,"pcp6hr":0.005,"metarType":"METAR","rawOb":"METAR KSLC 121754Z 17022G32KT 10SM SCT095 BKN150 19/M04 A2974 RMK AO2 PK WND 15035/1711 SLP035 TCU DSNT SW-NW 60000 T01891039 10189 20117 58001 $","lat":40.7707,"lon":-111.965,"elev":1286,"name":"Salt Lake City Intl, UT, US","cover":"BKN","clouds":[{"cover":"SCT","base":9500},{"cover":"BKN","base":15000}],"fltCat":"VFR"},{"icaoId":"KMEM","receiptTime":"2026-04-12T17:58:10.872Z","obsTime":1776016440,"reportTime":"2026-04-12T18:00:00.000Z","temp":25,"dewp":11.7,"wdir":190,"wspd":13,"wgst":22,"visib":"10+","altim":1021.8,"slp":1021.2,"qcField":12,"presTend":-1.7,"maxT":26.1,"minT":18.3,"metarType":"METAR","rawOb":"METAR KMEM 121754Z 19013G22KT 10SM FEW080 BKN150 25/12 A3017 RMK AO2 PK WND 18031/1720 SLP212 T02500117 10261 20183 58017 $","lat":35.0564,"lon":-89.9864,"elev":78,"name":"Memphis Intl, TN, US","cover":"BKN","clouds":[{"cover":"FEW","base":8000},{"cover":"BKN","base":15000}],"fltCat":"VFR"},{"icaoId":"KBTV","receiptTime":"2026-04-12T17:58:11.905Z","obsTime":1776016440,"reportTime":"2026-04-12T18:00:00.000Z","temp":10,"dewp":-5.6,"wdir":180,"wspd":12,"visib":"10+","altim":1028.9,"slp":1029,"qcField":4,"presTend":-3,"maxT":10.6,"minT":1.1,"metarType":"METAR","rawOb":"METAR KBTV 121754Z 18012KT 10SM BKN120 OVC150 10/M06 A3038 RMK AO2 PRESFR SLP290 T01001056 10106 20011 58030","lat":44.4682,"lon":-73.1499,"elev":101,"name":"Burlington Intl, VT, US","cover":"OVC","clouds":[{"cover":"BKN","base":12000},{"cover":"OVC","base":15000}],"fltCat":"VFR"},{"icaoId":"KBUF","receiptTime":"2026-04-12T17:58:11.922Z","obsTime":1776016440,"reportTime":"2026-04-12T18:00:00.000Z","temp":12.2,"dewp":1.1,"wdir":50,"wspd":7,"visib":"10+","altim":1022.1,"slp":1022.4,"qcField":12,"presTend":-2.9,"maxT":12.2,"minT":5,"precip":0.005,"pcp6hr":0.005,"metarType":"METAR","rawOb":"METAR KBUF 121754Z 05007KT 10SM BKN070 BKN085 OVC130 12/01 A3018 RMK AO2 RAB07E19 SLP224 P0000 60000 T01220011 10122 20050 58029 $","lat":42.94,"lon":-78.7361,"elev":217,"name":"Buffalo-Niagara Intl, NY, US","cover":"OVC","clouds":[{"cover":"BKN","base":7000},{"cover":"BKN","base":8500},{"cover":"OVC","base":13000}],"fltCat":"VFR"},{"icaoId":"KBWI","receiptTime":"2026-04-12T17:58:11.937Z","obsTime":1776016440,"reportTime":"2026-04-12T18:00:00.000Z","temp":18.3,"dewp":5.6,"wdir":110,"wspd":12,"wgst":18,"visib":"10+","altim":1029.5,"slp":1029.3,"qcField":4,"presTend":-2.1,"maxT":18.9,"minT":11.1,"metarType":"METAR","rawOb":"METAR KBWI 121754Z 11012G18KT 10SM FEW040 BKN250 18/06 A3040 RMK AO2 SLP293 T01830056 10189 20111 58021","lat":39.1733,"lon":-76.684,"elev":42,"name":"Baltimore-Washington Intl, MD, US","cover":"BKN","clouds":[{"cover":"FEW","base":4000},{"cover":"BKN","base":25000}],"fltCat":"VFR"},{"icaoId":"KOLS","receiptTime":"2026-04-12T17:58:12.639Z","obsTime":1776016440,"reportTime":"2026-04-12T18:00:00.000Z","temp":22.8,"dewp":0,"wdir":200,"wspd":20,"wgst":26,"visib":"10+","altim":1019,"slp":1013.5,"qcField":6,"presTend":0.8,"maxT":23.3,"minT":11.7,"metarType":"METAR","rawOb":"METAR KOLS 121754Z AUTO 20020G26KT 10SM CLR 23/00 A3009 RMK AO2 PK WND 22029/1713 SLP135 T02280000 10233 20117 53008","lat":31.4208,"lon":-110.8465,"elev":1194,"name":"Nogales Intl, AZ, US","cover":"CLR","clouds":[],"fltCat":"VFR"},{"icaoId":"KRKS","receiptTime":"2026-04-12T17:58:11.275Z","obsTime":1776016440,"reportTime":"2026-04-12T18:00:00.000Z","temp":13.9,"dewp":-5,"wdir":190,"wspd":17,"wgst":26,"visib":"10+","altim":1009.9,"slp":1006,"qcField":6,"presTend":-0.9,"maxT":14.4,"minT":-0.6,"metarType":"METAR","rawOb":"METAR KRKS 121754Z AUTO 19017G26KT 10SM FEW070 14/M05 A2982 RMK AO2 PK WND 20029/1741 WSHFT 1738 SLP060 T01391050 10144 21006 58009","lat":41.5947,"lon":-109.0529,"elev":2062,"name":"Rock Springs/SW Wyoming Rgnl, WY, US","cover":"FEW","clouds":[{"cover":"FEW","base":7000}],"fltCat":"VFR"},{"icaoId":"KGSO","receiptTime":"2026-04-12T17:58:12.020Z","obsTime":1776016440,"reportTime":"2026-04-12T18:00:00.000Z","temp":23.9,"dewp":12.8,"wdir":170,"wspd":5,"visib":"10+","altim":1027.9,"slp":1027,"qcField":4,"presTend":-1.5,"maxT":23.9,"minT":13.3,"metarType":"METAR","rawOb":"METAR KGSO 121754Z 17005KT 10SM BKN250 24/13 A3035 RMK AO2 SLP270 T02390128 10239 20133 58015","lat":36.0969,"lon":-79.9432,"elev":275,"name":"Greensboro Intl, NC, US","cover":"BKN","clouds":[{"cover":"BKN","base":25000}],"fltCat":"VFR"},{"icaoId":"KCNM","receiptTime":"2026-04-12T17:56:32.080Z","obsTime":1776016380,"reportTime":"2026-04-12T18:00:00.000Z","temp":27.8,"dewp":8.3,"wdir":190,"wspd":9,"visib":"10+","altim":1016.7,"slp":1011.7,"qcField":6,"presTend":-0.8,"maxT":27.8,"minT":12.8,"metarType":"METAR","rawOb":"METAR KCNM 121753Z AUTO 19009KT 150V230 10SM CLR 28/08 A3002 RMK AO2 SLP117 T02780083 10278 20128 58008","lat":32.3336,"lon":-104.2584,"elev":993,"name":"Carlsbad/Cavern City Air Term, NM, US","cover":"CLR","clouds":[],"fltCat":"VFR"},{"icaoId":"KTPA","receiptTime":"2026-04-12T18:02:30.356Z","obsTime":1776016380,"reportTime":"2026-04-12T18:00:00.000Z","temp":27.8,"dewp":13.9,"wdir":110,"wspd":4,"wgst":18,"visib":"10+","altim":1024.8,"slp":1024.8,"qcField":5,"presTend":-1.5,"maxT":28.3,"minT":18.3,"metarType":"METAR","rawOb":"METAR KTPA 121753Z COR 11004G18KT 10SM FEW045 28/14 A3026 RMK AO2 SLP248 T02780139 10283 20183 58015","lat":27.9633,"lon":-82.54,"elev":2,"name":"Tampa Intl Arpt, FL, US","cover":"FEW","clouds":[{"cover":"FEW","base":4500}],"fltCat":"VFR"},{"icaoId":"KFAT","receiptTime":"2026-04-12T17:56:41.293Z","obsTime":1776016380,"reportTime":"2026-04-12T18:00:00.000Z","temp":15.6,"dewp":7.2,"wdir":160,"wspd":10,"visib":"10+","altim":1014.6,"slp":1014.3,"qcField":12,"presTend":0.5,"maxT":16.1,"minT":10.6,"metarType":"METAR","rawOb":"METAR KFAT 121753Z 16010KT 10SM SCT028 BKN042TCU BKN050 BKN130 16/07 A2996 RMK AO2 SLP143 TCU ALQDS TCU DSNT E T01560072 10161 20106 51005 $","lat":36.78,"lon":-119.7202,"elev":102,"name":"Fresno/Yosemite Intl, CA, US","cover":"BKN","clouds":[{"cover":"SCT","base":2800},{"cover":"BKN","base":4200},{"cover":"BKN","base":5000},{"cover":"BKN","base":13000}],"fltCat":"VFR"},{"icaoId":"KSMF","receiptTime":"2026-04-12T17:56:45.685Z","obsTime":1776016380,"reportTime":"2026-04-12T18:00:00.000Z","temp":11.1,"dewp":8.3,"wdir":180,"wspd":11,"wgst":24,"visib":9,"altim":1011.6,"slp":1011.4,"qcField":12,"wxString":"-RA","presTend":1.3,"maxT":12.8,"minT":10.6,"precip":0.03,"pcp6hr":0.05,"metarType":"METAR","rawOb":"METAR KSMF 121753Z 18011G24KT 9SM -RA FEW024 BKN046 OVC060 11/08 A2987 RMK AO2 PK WND 17027/1735 LTG DSNT E RAB07 SLP114 P0003 60005 T01110083 10128 20106 51013 $","lat":38.7007,"lon":-121.5948,"elev":7,"name":"Sacramento Intl, CA, US","cover":"OVC","clouds":[{"cover":"FEW","base":2400},{"cover":"BKN","base":4600},{"cover":"OVC","base":6000}],"fltCat":"VFR"},{"icaoId":"KMTJ","receiptTime":"2026-04-12T17:56:44.852Z","obsTime":1776016380,"reportTime":"2026-04-12T18:00:00.000Z","temp":18.9,"dewp":-10,"wdir":190,"wspd":11,"wgst":30,"visib":"10+","altim":1014,"slp":1008.3,"qcField":6,"presTend":-0.9,"maxT":18.9,"minT":9.4,"metarType":"METAR","rawOb":"METAR KMTJ 121753Z AUTO 19011G30KT 10SM CLR 19/M10 A2994 RMK AO2 PK WND 20032/1713 SLP083 T01891100 10189 20094 56009","lat":38.5054,"lon":-107.8981,"elev":1755,"name":"Montrose Rgnl, CO, US","cover":"CLR","clouds":[],"fltCat":"VFR"},{"icaoId":"KPBI","receiptTime":"2026-04-12T17:56:45.632Z","obsTime":1776016380,"reportTime":"2026-04-12T18:00:00.000Z","temp":26.7,"dewp":15,"wdir":80,"wspd":13,"wgst":22,"visib":"10+","altim":1024.8,"slp":1024.7,"qcField":12,"presTend":-0.9,"maxT":27.2,"minT":22.8,"metarType":"METAR","rawOb":"METAR KPBI 121753Z 08013G22KT 040V110 10SM SCT046 27/15 A3026 RMK AO2 SLP247 T02670150 10272 20228 58009 $","lat":26.6851,"lon":-80.0992,"elev":4,"name":"Palm Beach Intl, FL, US","cover":"SCT","clouds":[{"cover":"SCT","base":4600}],"fltCat":"VFR"},{"icaoId":"KLVS","receiptTime":"2026-04-12T17:56:44.383Z","obsTime":1776016380,"reportTime":"2026-04-12T18:00:00.000Z","temp":16.1,"dewp":-3.3,"wdir":230,"wspd":24,"wgst":35,"visib":"10+","altim":1018.4,"slp":1011.3,"qcField":14,"presTend":-0.5,"maxT":16.1,"minT":4.4,"metarType":"METAR","rawOb":"METAR KLVS 121753Z AUTO 23024G35KT 10SM CLR 16/M03 A3007 RMK AO2 PK WND 20035/1748 SLP113 6//// T01611033 10161 20044 56005 PNO $","lat":35.6558,"lon":-105.1385,"elev":2095,"name":"Las Vegas Muni, NM, US","cover":"CLR","clouds":[],"fltCat":"VFR"},{"icaoId":"KMIA","receiptTime":"2026-04-12T17:56:43.246Z","obsTime":1776016380,"reportTime":"2026-04-12T18:00:00.000Z","temp":26.7,"dewp":14.4,"wdir":70,"wspd":14,"wgst":22,"visib":"10+","altim":1023.8,"slp":1023.7,"qcField":0,"presTend":-1.1,"maxT":26.7,"minT":22.8,"metarType":"METAR","rawOb":"METAR KMIA 121753Z 07014G22KT 10SM SCT049 27/14 A3023 RMK SLP237 T02670144 10267 20228 58011","lat":25.7881,"lon":-80.3169,"elev":1,"name":"Miami Intl, FL, US","cover":"SCT","clouds":[{"cover":"SCT","base":4900}],"fltCat":"VFR"},{"icaoId":"KBCE","receiptTime":"2026-04-12T17:56:32.947Z","obsTime":1776016380,"reportTime":"2026-04-12T18:00:00.000Z","temp":12.2,"dewp":-8.9,"wdir":170,"wspd":20,"wgst":28,"visib":"10+","altim":1015,"slp":1008.8,"qcField":6,"presTend":-0.2,"maxT":12.2,"minT":-7.2,"metarType":"METAR","rawOb":"METAR KBCE 121753Z AUTO 17020G28KT 10SM FEW075 12/M09 A2997 RMK AO2 PK WND 22028/1735 WSHFT 1717 SLP088 T01221089 10122 21072 58002","lat":37.7013,"lon":-112.149,"elev":2311,"name":"Bryce Canyon Arpt, UT, US","cover":"FEW","clouds":[{"cover":"FEW","base":7500}],"fltCat":"VFR"},{"icaoId":"KPNC","receiptTime":"2026-04-12T17:56:46.294Z","obsTime":1776016380,"reportTime":"2026-04-12T18:00:00.000Z","temp":22.2,"dewp":17.2,"wdir":230,"wspd":16,"wgst":26,"visib":"10+","altim":1011.3,"slp":1010,"qcField":6,"presTend":-0.2,"maxT":22.2,"minT":17.2,"pcp6hr":0.71,"metarType":"METAR","rawOb":"METAR KPNC 121753Z AUTO 23016G26KT 10SM BKN023 BKN029 22/17 A2986 RMK AO2 PK WND 20028/1738 SLP100 60071 T02220172 10222 20172 58002","lat":36.7369,"lon":-97.1024,"elev":304,"name":"Ponca City Rgnl, OK, US","cover":"BKN","clouds":[{"cover":"BKN","base":2300},{"cover":"BKN","base":2900}],"fltCat":"MVFR"},{"icaoId":"KSBA","receiptTime":"2026-04-12T17:56:42.309Z","obsTime":1776016380,"reportTime":"2026-04-12T18:00:00.000Z","temp":17.2,"dewp":8.9,"wdir":250,"wspd":8,"visib":"10+","altim":1015.3,"slp":1015.2,"qcField":12,"presTend":0.7,"maxT":17.2,"minT":11.1,"metarType":"METAR","rawOb":"METAR KSBA 121753Z 25008KT 10SM SCT040 17/09 A2998 RMK AO2 SLP152 T01720089 10172 20111 53007 $","lat":34.4241,"lon":-119.8425,"elev":2,"name":"Santa Barbara Muni, CA, US","cover":"SCT","clouds":[{"cover":"SCT","base":4000}],"fltCat":"VFR"},{"icaoId":"KTUL","receiptTime":"2026-04-12T17:56:42.552Z","obsTime":1776016380,"reportTime":"2026-04-12T18:00:00.000Z","temp":21.7,"dewp":17.8,"wdir":200,"wspd":20,"wgst":32,"visib":"10+","altim":1012.6,"slp":1011.9,"qcField":4,"presTend":-0.2,"maxT":21.7,"minT":17.8,"pcp6hr":0.14,"metarType":"METAR","rawOb":"METAR KTUL 121753Z 20020G32KT 10SM BKN019 BKN080 22/18 A2990 RMK AO2 PK WND 21034/1659 SLP119 60014 T02170178 10217 20178 58002","lat":36.1985,"lon":-95.8782,"elev":196,"name":"Tulsa Intl Arpt, OK, US","cover":"BKN","clouds":[{"cover":"BKN","base":1900},{"cover":"BKN","base":8000}],"fltCat":"MVFR"},{"icaoId":"KVGT","receiptTime":"2026-04-12T17:56:42.729Z","obsTime":1776016380,"reportTime":"2026-04-12T18:00:00.000Z","temp":20.6,"dewp":0.6,"wdir":230,"wspd":13,"wgst":24,"visib":"10+","altim":1010.9,"slp":1011,"qcField":4,"presTend":0.3,"maxT":20.6,"minT":15.6,"metarType":"METAR","rawOb":"METAR KVGT 121753Z 23013G24KT 10SM CLR 21/01 A2985 RMK AO2 PK WND 24030/1717 SLP110 T02060006 10206 20156 53003","lat":36.212,"lon":-115.194,"elev":664,"name":"Las Vegas/North Arpt, NV, US","cover":"CLR","clouds":[],"fltCat":"VFR"},{"icaoId":"KLGB","receiptTime":"2026-04-12T17:56:43.023Z","obsTime":1776016380,"reportTime":"2026-04-12T18:00:00.000Z","temp":17.8,"dewp":12.2,"wdir":"VRB","wspd":6,"visib":"10+","altim":1015.7,"slp":1015.6,"qcField":12,"presTend":1.1,"maxT":17.8,"minT":14.4,"precip":0.005,"pcp6hr":0.35,"metarType":"METAR","rawOb":"METAR KLGB 121753Z VRB06KT 10SM SCT027 BKN033 OVC080 18/12 A2999 RMK AO2 RAE1654 SLP156 P0000 60035 T01780122 10178 20144 51011 $","lat":33.8118,"lon":-118.1472,"elev":10,"name":"Long Beach Arpt, CA, US","cover":"OVC","clouds":[{"cover":"SCT","base":2700},{"cover":"BKN","base":3300},{"cover":"OVC","base":8000}],"fltCat":"VFR"},{"icaoId":"KMCO","receiptTime":"2026-04-12T17:56:43.077Z","obsTime":1776016380,"reportTime":"2026-04-12T18:00:00.000Z","temp":26.7,"dewp":11.1,"wdir":90,"wspd":13,"wgst":21,"visib":"10+","altim":1026.5,"slp":1026.1,"qcField":4,"presTend":-1.5,"maxT":27.2,"minT":17.8,"metarType":"METAR","rawOb":"METAR KMCO 121753Z 09013G21KT 10SM FEW055 27/11 A3031 RMK AO2 SLP261 T02670111 10272 20178 58015","lat":28.4182,"lon":-81.3241,"elev":27,"name":"Orlando Intl, FL, US","cover":"FEW","clouds":[{"cover":"FEW","base":5500}],"fltCat":"VFR"},{"icaoId":"KMDW","receiptTime":"2026-04-12T17:56:43.108Z","obsTime":1776016380,"reportTime":"2026-04-12T18:00:00.000Z","temp":26.1,"dewp":13.3,"wdir":220,"wspd":22,"wgst":35,"visib":"10+","altim":1013,"slp":1012.2,"qcField":4,"presTend":-2.3,"maxT":26.7,"minT":15,"metarType":"METAR","rawOb":"METAR KMDW 121753Z 22022G35KT 10SM SCT060 BKN075 BKN140 BKN250 26/13 A2991 RMK AO2 PK WND 20036/1719 SLP122 T02610133 10267 20150 57023","lat":41.7841,"lon":-87.7552,"elev":186,"name":"Chicago/Midway Intl, IL, US","cover":"BKN","clouds":[{"cover":"SCT","base":6000},{"cover":"BKN","base":7500},{"cover":"BKN","base":14000},{"cover":"BKN","base":25000}],"fltCat":"VFR"},{"icaoId":"KDAL","receiptTime":"2026-04-12T17:56:35.259Z","obsTime":1776016380,"reportTime":"2026-04-12T18:00:00.000Z","temp":20.6,"dewp":18.3,"wdir":150,"wspd":5,"visib":"10+","altim":1017.7,"slp":1017,"qcField":4,"wxString":"-RA","presTend":-0.4,"maxT":20.6,"minT":18.9,"precip":0.005,"pcp6hr":0.06,"metarType":"METAR","rawOb":"METAR KDAL 121753Z 15005KT 10SM -RA FEW007 BKN015 OVC029 21/18 A3005 RMK AO2 RAB53 SLP170 P0000 60006 T02060183 10206 20189 58004","lat":32.8384,"lon":-96.8358,"elev":148,"name":"Dallas/Love Fld, TX, US","cover":"OVC","clouds":[{"cover":"FEW","base":700},{"cover":"BKN","base":1500},{"cover":"OVC","base":2900}],"fltCat":"MVFR"},{"icaoId":"KDFW","receiptTime":"2026-04-12T17:56:38.229Z","obsTime":1776016380,"reportTime":"2026-04-12T18:00:00.000Z","temp":21.7,"dewp":17.8,"wdir":180,"wspd":8,"visib":"10+","altim":1017,"slp":1016.3,"qcField":4,"presTend":-0.4,"maxT":22.2,"minT":18.9,"precip":0.005,"pcp6hr":0.005,"metarType":"METAR","rawOb":"METAR KDFW 121753Z 18008KT 10SM BKN020 OVC042 22/18 A3003 RMK AO2 RAB26E38 SLP163 P0000 60000 T02170178 10222 20189 58004","lat":32.8974,"lon":-97.022,"elev":168,"name":"Dallas-Ft Worth Intl, TX, US","cover":"OVC","clouds":[{"cover":"BKN","base":2000},{"cover":"OVC","base":4200}],"fltCat":"MVFR"},{"icaoId":"KBHM","receiptTime":"2026-04-12T17:56:35.434Z","obsTime":1776016380,"reportTime":"2026-04-12T18:00:00.000Z","temp":28.3,"dewp":9.4,"wdir":"VRB","wspd":5,"wgst":20,"visib":"10+","altim":1025.5,"slp":1024.8,"qcField":4,"presTend":-1.7,"maxT":28.3,"minT":12.8,"metarType":"METAR","rawOb":"METAR KBHM 121753Z VRB05G20KT 10SM FEW075 BKN250 28/09 A3028 RMK AO2 SLP248 T02830094 10283 20128 58017","lat":33.5655,"lon":-86.7449,"elev":191,"name":"Birmingham Intl, AL, US","cover":"BKN","clouds":[{"cover":"FEW","base":7500},{"cover":"BKN","base":25000}],"fltCat":"VFR"},{"icaoId":"KMLC","receiptTime":"2026-04-12T17:56:43.353Z","obsTime":1776016380,"reportTime":"2026-04-12T18:00:00.000Z","temp":22.2,"dewp":18.9,"wdir":190,"wspd":8,"wgst":22,"visib":"10+","altim":1015.7,"slp":1014.7,"qcField":6,"presTend":-0.1,"maxT":22.2,"minT":18.3,"precip":0.01,"pcp6hr":0.03,"metarType":"METAR","rawOb":"METAR KMLC 121753Z AUTO 19008G22KT 10SM SCT018 BKN026 22/19 A2999 RMK AO2 RAE24 SLP147 P0001 60003 T02220189 10222 20183 58001","lat":34.8824,"lon":-95.7815,"elev":231,"name":"McAlester Rgnl, OK, US","cover":"BKN","clouds":[{"cover":"SCT","base":1800},{"cover":"BKN","base":2600}],"fltCat":"MVFR"},{"icaoId":"KAMA","receiptTime":"2026-04-12T17:56:35.502Z","obsTime":1776016380,"reportTime":"2026-04-12T18:00:00.000Z","temp":27.8,"dewp":0,"wdir":270,"wspd":16,"wgst":25,"visib":"10+","altim":1014,"slp":1008.9,"qcField":4,"presTend":-1,"maxT":27.8,"minT":11.7,"metarType":"METAR","rawOb":"METAR KAMA 121753Z 27016G25KT 10SM CLR 28/00 A2994 RMK AO2 SLP089 T02780000 10278 20117 58010","lat":35.2203,"lon":-101.7173,"elev":1102,"name":"Amarillo Intl Arpt, TX, US","cover":"CLR","clouds":[],"fltCat":"VFR"},{"icaoId":"KBUR","receiptTime":"2026-04-12T17:56:35.881Z","obsTime":1776016380,"reportTime":"2026-04-12T18:00:00.000Z","temp":16.7,"dewp":8.3,"wdir":220,"wspd":5,"visib":"10+","altim":1016,"slp":1014.8,"qcField":4,"presTend":1,"maxT":16.7,"minT":13.3,"pcp6hr":0.2,"metarType":"METAR","rawOb":"METAR KBUR 121753Z 22005KT 10SM FEW026 BKN060 17/08 A3000 RMK AO2 SLP148 60020 T01670083 10167 20133 51010","lat":34.1996,"lon":-118.3654,"elev":221,"name":"Burbank/Bob Hope Arpt, CA, US","cover":"BKN","clouds":[{"cover":"FEW","base":2600},{"cover":"BKN","base":6000}],"fltCat":"VFR"},{"icaoId":"KASE","receiptTime":"2026-04-12T17:56:36.156Z","obsTime":1776016380,"reportTime":"2026-04-12T18:00:00.000Z","temp":13.9,"dewp":-13.3,"wdir":170,"wspd":13,"wgst":18,"visib":"10+","altim":1015,"slp":1006.4,"qcField":4,"presTend":-0.4,"maxT":13.9,"minT":2.8,"metarType":"METAR","rawOb":"METAR KASE 121753Z 17013G18KT 10SM CLR 14/M13 A2997 RMK AO2 SLP064 T01391133 10139 20028 58004","lat":39.2299,"lon":-106.8705,"elev":2384,"name":"Aspen/Pitkin Cnty, CO, US","cover":"CLR","clouds":[],"fltCat":"VFR"},{"icaoId":"KLAX","receiptTime":"2026-04-12T17:56:43.764Z","obsTime":1776016380,"reportTime":"2026-04-12T18:00:00.000Z","temp":17.8,"dewp":10.6,"wdir":250,"wspd":13,"visib":"10+","altim":1016,"slp":1015.9,"qcField":12,"presTend":1.3,"maxT":18.3,"minT":14.4,"pcp6hr":0.16,"metarType":"METAR","rawOb":"METAR KLAX 121753Z 25013KT 10SM FEW024 SCT046 BKN065 18/11 A3000 RMK AO2 SLP159 60016 T01780106 10183 20144 53013 $","lat":33.9382,"lon":-118.3866,"elev":30,"name":"Los Angeles Intl, CA, US","cover":"BKN","clouds":[{"cover":"FEW","base":2400},{"cover":"SCT","base":4600},{"cover":"BKN","base":6500}],"fltCat":"VFR"},{"icaoId":"KCYS","receiptTime":"2026-04-12T17:56:38.122Z","obsTime":1776016380,"reportTime":"2026-04-12T18:00:00.000Z","temp":17.2,"dewp":-9.4,"wdir":220,"wspd":13,"wgst":20,"visib":"10+","altim":1010.9,"slp":1004.7,"qcField":12,"presTend":-0.9,"maxT":18.3,"minT":5,"metarType":"METAR","rawOb":"METAR KCYS 121753Z 22013G20KT 10SM CLR 17/M09 A2985 RMK AO2 PK WND 23026/1659 SLP047 T01721094 10183 20050 56009 $","lat":41.1579,"lon":-104.8081,"elev":1868,"name":"Cheyenne Rgnl, WY, US","cover":"CLR","clouds":[],"fltCat":"VFR"},{"icaoId":"KDEN","receiptTime":"2026-04-12T17:56:38.168Z","obsTime":1776016380,"reportTime":"2026-04-12T18:00:00.000Z","temp":20.6,"dewp":-8.3,"wdir":230,"wspd":5,"visib":"10+","altim":1010.2,"slp":1003.2,"qcField":4,"presTend":-1.3,"maxT":20.6,"minT":7.8,"metarType":"METAR","rawOb":"METAR KDEN 121753Z 23005KT 10SM FEW100 FEW150 BKN220 21/M08 A2983 RMK AO2 SLP032 T02061083 10206 20078 58013","lat":39.8466,"lon":-104.6562,"elev":1656,"name":"Denver Intl, CO, US","cover":"BKN","clouds":[{"cover":"FEW","base":10000},{"cover":"FEW","base":15000},{"cover":"BKN","base":22000}],"fltCat":"VFR"},{"icaoId":"KDRO","receiptTime":"2026-04-12T17:56:38.358Z","obsTime":1776016380,"reportTime":"2026-04-12T18:00:00.000Z","temp":15,"dewp":-2.8,"wdir":230,"wspd":10,"visib":"10+","altim":1018,"slp":1014.1,"qcField":6,"presTend":-0.8,"maxT":15.6,"minT":-2.2,"metarType":"METAR","rawOb":"METAR KDRO 121753Z AUTO 23010KT 10SM FEW070 15/M03 A3006 RMK AO2 SLP141 T01501028 10156 21022 58008","lat":37.1431,"lon":-107.7602,"elev":2021,"name":"Durango/La Plata Cnty, CO, US","cover":"FEW","clouds":[{"cover":"FEW","base":7000}],"fltCat":"VFR"},{"icaoId":"KPGA","receiptTime":"2026-04-12T17:56:39.570Z","obsTime":1776016380,"reportTime":"2026-04-12T18:00:00.000Z","temp":20.6,"dewp":-4.4,"wdir":220,"wspd":12,"wgst":23,"visib":"10+","altim":1012.3,"slp":1007,"qcField":14,"presTend":-0.8,"maxT":20.6,"minT":11.1,"metarType":"METAR","rawOb":"METAR KPGA 121753Z AUTO 22012G23KT 190V250 10SM CLR 21/M04 A2989 RMK AO2 PK WND 18029/1717 SLP070 T02061044 10206 20111 56008 $","lat":36.9211,"lon":-111.4487,"elev":1310,"name":"Page Muni, AZ, US","cover":"CLR","clouds":[],"fltCat":"VFR"},{"icaoId":"KGEG","receiptTime":"2026-04-12T17:56:41.153Z","obsTime":1776016380,"reportTime":"2026-04-12T18:00:00.000Z","temp":11.7,"dewp":6.1,"wdir":80,"wspd":3,"visib":"10+","altim":1003.8,"slp":1003.6,"qcField":12,"presTend":-0.6,"maxT":11.7,"minT":6.1,"metarType":"METAR","rawOb":"METAR KGEG 121753Z 08003KT 10SM FEW015 FEW140 BKN280 12/06 A2964 RMK AO2 SLP036 T01170061 10117 20061 58006 $","lat":47.6217,"lon":-117.528,"elev":718,"name":"Spokane Intl, WA, US","cover":"BKN","clouds":[{"cover":"FEW","base":1500},{"cover":"FEW","base":14000},{"cover":"BKN","base":28000}],"fltCat":"VFR"},{"icaoId":"KLBB","receiptTime":"2026-04-12T17:56:43.777Z","obsTime":1776016380,"reportTime":"2026-04-12T18:00:00.000Z","temp":23.3,"dewp":11.7,"wdir":190,"wspd":11,"wgst":18,"visib":"10+","altim":1016,"slp":1012.1,"qcField":12,"presTend":-0.4,"maxT":23.3,"minT":13.9,"metarType":"METAR","rawOb":"METAR KLBB 121753Z 19011G18KT 10SM FEW050 FEW200 23/12 A3000 RMK AO2 SLP121 T02330117 10233 20139 58004 $","lat":33.6658,"lon":-101.8233,"elev":996,"name":"Lubbock Intl Arpt, TX, US","cover":"FEW","clouds":[{"cover":"FEW","base":5000},{"cover":"FEW","base":20000}],"fltCat":"VFR"},{"icaoId":"KMAF","receiptTime":"2026-04-12T17:56:44.436Z","obsTime":1776016380,"reportTime":"2026-04-12T18:00:00.000Z","temp":25,"dewp":12.8,"wdir":200,"wspd":12,"visib":"10+","altim":1017,"slp":1013.4,"qcField":4,"presTend":-0.7,"maxT":25,"minT":14.4,"metarType":"METAR","rawOb":"METAR KMAF 121753Z 20012KT 10SM CLR 25/13 A3003 RMK AO2 SLP134 T02500128 10250 20144 58007","lat":31.9475,"lon":-102.2086,"elev":874,"name":"Midland Intl, TX, US","cover":"CLR","clouds":[],"fltCat":"VFR"},{"icaoId":"KMSY","receiptTime":"2026-04-12T17:56:44.823Z","obsTime":1776016380,"reportTime":"2026-04-12T18:00:00.000Z","temp":25.6,"dewp":16.1,"wdir":140,"wspd":12,"wgst":20,"visib":"10+","altim":1024.1,"slp":1024.3,"qcField":4,"presTend":-0.2,"maxT":26.1,"minT":17.8,"metarType":"METAR","rawOb":"METAR KMSY 121753Z 14012G20KT 10SM FEW040 SCT048 BKN250 26/16 A3024 RMK AO2 SLP243 T02560161 10261 20178 58002","lat":29.9974,"lon":-90.2777,"elev":0,"name":"New Orleans/Armstrong Intl, LA, US","cover":"BKN","clouds":[{"cover":"FEW","base":4000},{"cover":"SCT","base":4800},{"cover":"BKN","base":25000}],"fltCat":"VFR"},{"icaoId":"KMYF","receiptTime":"2026-04-12T17:56:44.933Z","obsTime":1776016380,"reportTime":"2026-04-12T18:00:00.000Z","temp":20,"dewp":10.6,"wdir":190,"wspd":11,"visib":"10+","altim":1016.7,"slp":1016.1,"qcField":4,"presTend":0.3,"maxT":20,"minT":13.9,"metarType":"METAR","rawOb":"METAR KMYF 121753Z 19011KT 10SM CLR 20/11 A3002 RMK AO2 SLP161 T02000106 10200 20139 53003","lat":32.8145,"lon":-117.1375,"elev":128,"name":"San Diego/Montgomery Arpt, CA, US","cover":"CLR","clouds":[],"fltCat":"VFR"},{"icaoId":"KLAR","receiptTime":"2026-04-12T17:56:45.154Z","obsTime":1776016380,"reportTime":"2026-04-12T18:00:00.000Z","temp":15,"dewp":-8.9,"wdir":250,"wspd":16,"wgst":25,"visib":"10+","altim":1011.6,"slp":1004.1,"qcField":14,"presTend":-1.2,"maxT":15,"minT":0,"metarType":"METAR","rawOb":"METAR KLAR 121753Z AUTO 25016G25KT 10SM CLR 15/M09 A2987 RMK AO2 PK WND 25028/1726 SLP041 T01501089 10150 20000 58012 $","lat":41.3165,"lon":-105.6729,"elev":2217,"name":"Laramie Rgnl, WY, US","cover":"CLR","clouds":[],"fltCat":"VFR"},{"icaoId":"KSNA","receiptTime":"2026-04-12T17:56:45.717Z","obsTime":1776016380,"reportTime":"2026-04-12T18:00:00.000Z","temp":17.2,"dewp":13.3,"wdir":230,"wspd":7,"visib":7,"altim":1016,"slp":1016,"qcField":12,"maxT":17.2,"minT":15,"precip":0.005,"pcp6hr":0.31,"metarType":"METAR","rawOb":"METAR KSNA 121753Z 23007KT 7SM SCT010 BKN050 OVC085 17/13 A3000 RMK AO2 RAB11E25 SLP160 P0000 60031 T01720133 10172 20150 $","lat":33.6798,"lon":-117.8675,"elev":14,"name":"Santa Ana/Wayne Arpt, CA, US","cover":"OVC","clouds":[{"cover":"SCT","base":1000},{"cover":"BKN","base":5000},{"cover":"OVC","base":8500}],"fltCat":"VFR"},{"icaoId":"KPRC","receiptTime":"2026-04-12T17:56:46.361Z","obsTime":1776016380,"reportTime":"2026-04-12T18:00:00.000Z","temp":17.8,"dewp":-1.7,"wdir":210,"wspd":19,"wgst":28,"visib":"10+","altim":1017,"slp":1011.2,"qcField":4,"presTend":0.6,"maxT":18.3,"minT":7.2,"metarType":"METAR","rawOb":"METAR KPRC 121753Z 21019G28KT 10SM FEW080 18/M02 A3003 RMK AO2 PK WND 22028/1752 SLP112 T01781017 10183 20072 53006","lat":34.6491,"lon":-112.4223,"elev":1528,"name":"Prescott/Love Fld, AZ, US","cover":"FEW","clouds":[{"cover":"FEW","base":8000}],"fltCat":"VFR"},{"icaoId":"KPUB","receiptTime":"2026-04-12T17:56:46.418Z","obsTime":1776016380,"reportTime":"2026-04-12T18:00:00.000Z","temp":22.2,"dewp":-7.8,"wdir":"VRB","wspd":3,"wgst":16,"visib":"10+","altim":1010.9,"slp":1006.3,"qcField":12,"presTend":-1.4,"maxT":22.8,"minT":2.8,"metarType":"METAR","rawOb":"METAR KPUB 121753Z VRB03G16KT 10SM CLR 22/M08 A2985 RMK AO2 SLP063 T02221078 10228 20028 58014 $","lat":38.2887,"lon":-104.5057,"elev":1441,"name":"Pueblo Mem Arpt, CO, US","cover":"CLR","clouds":[],"fltCat":"VFR"},{"icaoId":"KSJC","receiptTime":"2026-04-12T17:56:46.644Z","obsTime":1776016380,"reportTime":"2026-04-12T18:00:00.000Z","temp":13.3,"dewp":8.3,"wdir":190,"wspd":8,"visib":"10+","altim":1013.3,"slp":1013.1,"qcField":4,"wxString":"-RA","presTend":1.4,"maxT":15,"minT":10.6,"precip":0.005,"pcp6hr":0.06,"metarType":"METAR","rawOb":"METAR KSJC 121753Z 19008KT 10SM -RA SCT025 BKN030 BKN048 13/08 A2992 RMK AO2 RAB38 SLP131 P0000 60006 T01330083 10150 20106 53014","lat":37.3594,"lon":-121.9244,"elev":13,"name":"San Jose Intl Arpt, CA, US","cover":"BKN","clouds":[{"cover":"SCT","base":2500},{"cover":"BKN","base":3000},{"cover":"BKN","base":4800}],"fltCat":"MVFR"},{"icaoId":"KSTS","receiptTime":"2026-04-12T18:02:30.740Z","obsTime":1776016380,"reportTime":"2026-04-12T18:00:00.000Z","temp":11,"dewp":9,"wdir":220,"wspd":8,"visib":6,"altim":1014.3,"qcField":1,"wxString":"-RA BR","metarType":"METAR","rawOb":"METAR KSTS 121753Z COR 22008KT 6SM -RA BR SCT015 BKN030 OVC047 11/09 A2995","lat":38.5037,"lon":-122.811,"elev":35,"name":"Santa Rosa/Schulz Arpt, CA, US","cover":"OVC","clouds":[{"cover":"SCT","base":1500},{"cover":"BKN","base":3000},{"cover":"OVC","base":4700}],"fltCat":"MVFR"},{"icaoId":"KSDL","receiptTime":"2026-04-12T17:56:42.336Z","obsTime":1776016380,"reportTime":"2026-04-12T18:00:00.000Z","temp":25,"dewp":0.6,"wdir":220,"wspd":7,"wgst":15,"visib":"10+","altim":1014.3,"slp":1012.2,"qcField":4,"presTend":0.3,"maxT":25.6,"minT":17.2,"metarType":"METAR","rawOb":"METAR KSDL 121753Z 22007G15KT 180V260 10SM CLR 25/01 A2995 RMK AO2 SLP122 T02500006 10256 20172 51003","lat":33.6123,"lon":-111.9232,"elev":438,"name":"Scottsdale Muni, AZ, US","cover":"CLR","clouds":[],"fltCat":"VFR"},{"icaoId":"KPIH","receiptTime":"2026-04-12T17:56:46.181Z","obsTime":1776016380,"reportTime":"2026-04-12T18:00:00.000Z","temp":17.2,"dewp":-2.2,"wdir":190,"wspd":23,"wgst":36,"visib":"10+","altim":1004.5,"slp":1001.8,"qcField":4,"presTend":-0.8,"maxT":17.2,"minT":1.7,"metarType":"METAR","rawOb":"METAR KPIH 121753Z 19023G36KT 10SM SCT045 17/M02 A2966 RMK AO2 PK WND 17036/1749 SLP018 T01721022 10172 20017 58008","lat":42.9197,"lon":-112.5723,"elev":1357,"name":"Pocatello Rgnl, ID, US","cover":"SCT","clouds":[{"cover":"SCT","base":4500}],"fltCat":"VFR"},{"icaoId":"KSHR","receiptTime":"2026-04-12T17:56:46.606Z","obsTime":1776016380,"reportTime":"2026-04-12T18:00:00.000Z","temp":16.7,"dewp":1.7,"wdir":90,"wspd":5,"visib":"10+","altim":1005.8,"slp":1003.7,"qcField":6,"presTend":-0.8,"maxT":16.7,"minT":2.8,"metarType":"METAR","rawOb":"METAR KSHR 121753Z AUTO 09005KT 10SM CLR 17/02 A2970 RMK AO2 SLP037 T01670017 10167 20028 56008","lat":44.7603,"lon":-106.9741,"elev":1212,"name":"Sheridan Cnty Arpt, WY, US","cover":"CLR","clouds":[],"fltCat":"VFR"},{"icaoId":"KHOU","receiptTime":"2026-04-12T17:56:40.326Z","obsTime":1776016380,"reportTime":"2026-04-12T18:00:00.000Z","temp":26.1,"dewp":20,"wdir":170,"wspd":15,"wgst":25,"visib":"10+","altim":1020.1,"slp":1020.3,"qcField":12,"presTend":-0.1,"maxT":26.7,"minT":22.2,"pcp6hr":0.005,"metarType":"METAR","rawOb":"METAR KHOU 121753Z 17015G25KT 10SM BKN025 OVC035 26/20 A3012 RMK AO2 PK WND 18028/1701 SLP203 60000 T02610200 10267 20222 58001 $","lat":29.6458,"lon":-95.2821,"elev":13,"name":"Houston/Hobby Arpt, TX, US","cover":"OVC","clouds":[{"cover":"BKN","base":2500},{"cover":"OVC","base":3500}],"fltCat":"MVFR"},{"icaoId":"KBNA","receiptTime":"2026-04-12T17:56:35.574Z","obsTime":1776016380,"reportTime":"2026-04-12T18:00:00.000Z","temp":28.9,"dewp":7.2,"wdir":190,"wspd":19,"wgst":32,"visib":"10+","altim":1023.5,"slp":1022.8,"qcField":12,"presTend":-1.7,"maxT":29.4,"minT":12.2,"metarType":"METAR","rawOb":"METAR KBNA 121753Z 19019G32KT 10SM FEW040 BKN250 29/07 A3022 RMK AO2 PK WND 19032/1750 SLP228 T02890072 10294 20122 58017 $","lat":36.1105,"lon":-86.6881,"elev":168,"name":"Nashville Intl, TN, US","cover":"BKN","clouds":[{"cover":"FEW","base":4000},{"cover":"BKN","base":25000}],"fltCat":"VFR"},{"icaoId":"KACV","receiptTime":"2026-04-12T17:56:35.812Z","obsTime":1776016380,"reportTime":"2026-04-12T18:00:00.000Z","temp":11.7,"dewp":6.7,"wdir":280,"wspd":7,"visib":"10+","altim":1008.2,"slp":1008.8,"qcField":6,"presTend":2.5,"maxT":11.7,"minT":7.2,"pcp6hr":0.04,"metarType":"METAR","rawOb":"METAR KACV 121753Z AUTO 28007KT 10SM BKN040 OVC047 12/07 A2977 RMK AO2 SLP088 60004 T01170067 10117 20072 53025","lat":40.9784,"lon":-124.1048,"elev":63,"name":"Arcata Arpt, CA, US","cover":"OVC","clouds":[{"cover":"BKN","base":4000},{"cover":"OVC","base":4700}],"fltCat":"VFR"},{"icaoId":"KEVW","receiptTime":"2026-04-12T17:56:39.458Z","obsTime":1776016380,"reportTime":"2026-04-12T18:00:00.000Z","temp":10,"dewp":-6.7,"wdir":210,"wspd":19,"wgst":35,"visib":"10+","altim":1009.9,"slp":1005.2,"qcField":14,"presTend":-0.3,"maxT":12.2,"minT":0.6,"metarType":"METAR","rawOb":"METAR KEVW 121753Z AUTO 21019G35KT 10SM FEW075 SCT100 BKN120 10/M07 A2982 RMK AO2 PK WND 22035/1744 SLP052 T01001067 10122 20006 55003 $","lat":41.2727,"lon":-111.0305,"elev":2178,"name":"Evanston/Uinta Cnty, WY, US","cover":"BKN","clouds":[{"cover":"FEW","base":7500},{"cover":"SCT","base":10000},{"cover":"BKN","base":12000}],"fltCat":"VFR"},{"icaoId":"KGJT","receiptTime":"2026-04-12T17:56:45.251Z","obsTime":1776016380,"reportTime":"2026-04-12T18:00:00.000Z","temp":20,"dewp":-8.9,"wdir":230,"wspd":9,"wgst":18,"visib":"10+","altim":1011.3,"slp":1006.1,"qcField":4,"presTend":-1.2,"maxT":20.6,"minT":7.8,"metarType":"METAR","rawOb":"METAR KGJT 121753Z 23009G18KT 10SM CLR 20/M09 A2986 RMK AO2 SLP061 T02001089 10206 20078 56012","lat":39.1344,"lon":-108.5408,"elev":1475,"name":"Grand Junction Rgnl, CO, US","cover":"CLR","clouds":[],"fltCat":"VFR"},{"icaoId":"KMSP","receiptTime":"2026-04-12T17:56:44.791Z","obsTime":1776016380,"reportTime":"2026-04-12T18:00:00.000Z","temp":23.9,"dewp":14.4,"wdir":210,"wspd":18,"wgst":30,"visib":"10+","altim":999.1,"slp":998.8,"qcField":4,"presTend":-2.8,"maxT":24.4,"minT":15,"metarType":"METAR","rawOb":"METAR KMSP 121753Z 21018G30KT 10SM BKN040 24/14 A2950 RMK AO2 PK WND 20030/1732 SLP988 T02390144 10244 20150 58028","lat":44.8852,"lon":-93.2313,"elev":255,"name":"Minneapolis-St Paul Intl, MN, US","cover":"BKN","clouds":[{"cover":"BKN","base":4000}],"fltCat":"VFR"},{"icaoId":"KTUS","receiptTime":"2026-04-12T17:56:44.018Z","obsTime":1776016380,"reportTime":"2026-04-12T18:00:00.000Z","temp":26.7,"dewp":0,"wdir":230,"wspd":12,"wgst":21,"visib":"10+","altim":1016.7,"slp":1012.3,"qcField":4,"maxT":26.7,"minT":15,"metarType":"METAR","rawOb":"METAR KTUS 121753Z 23012G21KT 10SM CLR 27/00 A3002 RMK AO2 PK WND 21027/1712 WSHFT 1645 SLP123 T02670000 10267 20150 54000","lat":32.1315,"lon":-110.9564,"elev":776,"name":"Tucson Intl Arpt, AZ, US","cover":"CLR","clouds":[],"fltCat":"VFR"},{"icaoId":"KSAF","receiptTime":"2026-04-12T17:56:46.136Z","obsTime":1776016380,"reportTime":"2026-04-12T18:00:00.000Z","temp":17.2,"dewp":-1.1,"wdir":270,"wspd":14,"wgst":37,"visib":"10+","altim":1019,"slp":1012.4,"qcField":12,"presTend":-0.6,"maxT":17.2,"minT":0.6,"metarType":"METAR","rawOb":"METAR KSAF 121753Z 27014G37KT 10SM FEW065 17/M01 A3009 RMK AO2 PK WND 23037/1751 SLP124 T01721011 10172 20006 58006 $","lat":35.611,"lon":-106.0957,"elev":1918,"name":"Santa Fe Cnty Muni, NM, US","cover":"FEW","clouds":[{"cover":"FEW","base":6500}],"fltCat":"VFR"},{"icaoId":"KMYR","receiptTime":"2026-04-12T17:56:36.339Z","obsTime":1776016380,"reportTime":"2026-04-12T18:00:00.000Z","temp":23.9,"dewp":14.4,"wdir":120,"wspd":6,"visib":"10+","altim":1029.2,"slp":1029.2,"qcField":12,"presTend":-0.5,"maxT":24.4,"minT":15,"metarType":"METAR","rawOb":"METAR KMYR 121753Z 12006KT 10SM CLR 24/14 A3039 RMK AO2 SLP292 T02390144 10244 20150 58005 $","lat":33.6769,"lon":-78.9325,"elev":7,"name":"Myrtle Beach Intl, SC, US","cover":"CLR","clouds":[],"fltCat":"VFR"},{"icaoId":"KOAK","receiptTime":"2026-04-12T17:56:44.960Z","obsTime":1776016380,"reportTime":"2026-04-12T18:00:00.000Z","temp":13.9,"dewp":8.9,"wdir":170,"wspd":14,"visib":"10+","altim":1012.6,"slp":1012.5,"qcField":12,"presTend":1.4,"maxT":13.9,"minT":11.1,"precip":0.005,"pcp6hr":0.03,"metarType":"METAR","rawOb":"METAR KOAK 121753Z 17014KT 10SM BKN024 BKN044 OVC110 14/09 A2990 RMK AO2 RAB40E50 SLP125 P0000 60003 T01390089 10139 20111 53014 $","lat":37.7178,"lon":-122.233,"elev":3,"name":"Oakland Intl, CA, US","cover":"OVC","clouds":[{"cover":"BKN","base":2400},{"cover":"BKN","base":4400},{"cover":"OVC","base":11000}],"fltCat":"MVFR"},{"icaoId":"KOGD","receiptTime":"2026-04-12T17:56:45.009Z","obsTime":1776016380,"reportTime":"2026-04-12T18:00:00.000Z","temp":16.7,"dewp":-3.3,"wdir":200,"wspd":19,"wgst":30,"visib":"10+","altim":1006.9,"slp":1003.3,"qcField":4,"maxT":17.2,"minT":8.3,"metarType":"METAR","rawOb":"METAR KOGD 121753Z 20019G30KT 10SM FEW090 17/M03 A2973 RMK AO2 PK WND 18030/1749 SLP033 T01671033 10172 20083 58000","lat":41.1941,"lon":-112.0168,"elev":1356,"name":"Ogden/Hinckley Arpt, UT, US","cover":"FEW","clouds":[{"cover":"FEW","base":9000}],"fltCat":"VFR"},{"icaoId":"KCDC","receiptTime":"2026-04-12T17:56:35.910Z","obsTime":1776016380,"reportTime":"2026-04-12T18:00:00.000Z","temp":15,"dewp":-6.7,"wdir":210,"wspd":24,"wgst":39,"visib":"10+","altim":1011.9,"slp":1007.2,"qcField":6,"presTend":0.6,"maxT":15,"minT":8.3,"metarType":"METAR","rawOb":"METAR KCDC 121753Z AUTO 21024G39KT 10SM CLR 15/M07 A2988 RMK AO2 PK WND 22041/1740 SLP072 T01501067 10150 20083 53006","lat":37.7067,"lon":-113.097,"elev":1703,"name":"Cedar City Muni, UT, US","cover":"CLR","clouds":[],"fltCat":"VFR"},{"icaoId":"KGSP","receiptTime":"2026-04-12T17:56:44.591Z","obsTime":1776016380,"reportTime":"2026-04-12T18:00:00.000Z","temp":26.1,"dewp":7.8,"wdir":0,"wspd":0,"visib":"10+","altim":1027.2,"slp":1026.2,"qcField":4,"presTend":-1.4,"maxT":27.2,"minT":12.2,"metarType":"METAR","rawOb":"METAR KGSP 121753Z 00000KT 10SM CLR 26/08 A3033 RMK AO2 SLP262 T02610078 10272 20122 58014","lat":34.8842,"lon":-82.2209,"elev":285,"name":"Greenville-Spartanburg Intl, SC, US","cover":"CLR","clouds":[],"fltCat":"VFR"},{"icaoId":"KLOL","receiptTime":"2026-04-12T17:56:44.241Z","obsTime":1776016380,"reportTime":"2026-04-12T18:00:00.000Z","temp":11.1,"dewp":-4.4,"wdir":210,"wspd":17,"wgst":24,"visib":"10+","altim":1009.2,"slp":1007.9,"qcField":6,"presTend":0.6,"maxT":11.1,"minT":2.8,"metarType":"METAR","rawOb":"METAR KLOL 121753Z AUTO 21017G24KT 10SM FEW070 11/M04 A2980 RMK AO2 SLP079 T01111044 10111 20028 51006","lat":40.0684,"lon":-118.5702,"elev":1191,"name":"Lovelock/Derby Fld, NV, US","cover":"FEW","clouds":[{"cover":"FEW","base":7000}],"fltCat":"VFR"},{"icaoId":"KELY","receiptTime":"2026-04-12T17:56:41.265Z","obsTime":1776016380,"reportTime":"2026-04-12T18:00:00.000Z","temp":10.6,"dewp":-5.6,"wdir":200,"wspd":20,"wgst":34,"visib":"10+","altim":1009.6,"slp":1004.9,"qcField":6,"presTend":1.1,"maxT":11.7,"minT":4.4,"metarType":"METAR","rawOb":"METAR KELY 121753Z AUTO 20020G34KT 10SM BKN070 BKN085 11/M06 A2981 RMK AO2 PK WND 23037/1711 SLP049 T01061056 10117 20044 53011","lat":39.2954,"lon":-114.8466,"elev":1906,"name":"Ely/Yelland Fld, NV, US","cover":"BKN","clouds":[{"cover":"BKN","base":7000},{"cover":"BKN","base":8500}],"fltCat":"VFR"},{"icaoId":"KDVT","receiptTime":"2026-04-12T17:56:38.441Z","obsTime":1776016380,"reportTime":"2026-04-12T18:00:00.000Z","temp":25,"dewp":2.8,"wdir":190,"wspd":7,"visib":"10+","altim":1014.3,"slp":1012,"qcField":12,"presTend":0.6,"maxT":25,"minT":17.8,"metarType":"METAR","rawOb":"METAR KDVT 121753Z 19007KT 10SM CLR 25/03 A2995 RMK AO2 SLP120 T02500028 10250 20178 51006 $","lat":33.6902,"lon":-112.0662,"elev":454,"name":"Phoenix/Deer Valley Arpt, AZ, US","cover":"CLR","clouds":[],"fltCat":"VFR"},{"icaoId":"KCRQ","receiptTime":"2026-04-12T17:56:35.939Z","obsTime":1776016380,"reportTime":"2026-04-12T18:00:00.000Z","temp":18.9,"dewp":12.2,"wdir":220,"wspd":12,"wgst":21,"visib":"10+","altim":1016,"slp":1015.7,"qcField":6,"presTend":0.6,"maxT":18.9,"minT":14.4,"metarType":"METAR","rawOb":"METAR KCRQ 121753Z AUTO 22012G21KT 10SM FEW022 BKN050 OVC065 19/12 A3000 RMK AO2 SLP157 T01890122 10189 20144 53006","lat":33.1299,"lon":-117.2765,"elev":96,"name":"Carlsbad/Palomar Arpt, CA, US","cover":"OVC","clouds":[{"cover":"FEW","base":2200},{"cover":"BKN","base":5000},{"cover":"OVC","base":6500}],"fltCat":"VFR"},{"icaoId":"KVEL","receiptTime":"2026-04-12T17:56:42.713Z","obsTime":1776016380,"reportTime":"2026-04-12T18:00:00.000Z","temp":17.2,"dewp":-7.2,"wdir":220,"wspd":13,"visib":"10+","altim":1010.2,"slp":1005.9,"qcField":6,"presTend":-1,"maxT":17.2,"minT":2.2,"metarType":"METAR","rawOb":"METAR KVEL 121753Z AUTO 22013KT 10SM CLR 17/M07 A2983 RMK AO2 SLP059 T01721072 10172 20022 58010","lat":40.4429,"lon":-109.5128,"elev":1604,"name":"Vernal Rgnl, UT, US","cover":"CLR","clouds":[],"fltCat":"VFR"},{"icaoId":"KSEA","receiptTime":"2026-04-12T17:56:43.863Z","obsTime":1776016380,"reportTime":"2026-04-12T18:00:00.000Z","temp":10.6,"dewp":7.8,"wdir":"VRB","wspd":5,"visib":"10+","altim":1006.2,"slp":1006.8,"qcField":4,"presTend":0.4,"maxT":10.6,"minT":8.3,"metarType":"METAR","rawOb":"METAR KSEA 121753Z VRB05KT 10SM SCT009 OVC011 11/08 A2971 RMK AO2 SLP068 T01060078 10106 20083 53004","lat":47.4447,"lon":-122.3144,"elev":115,"name":"Seattle-Tacoma Intl, WA, US","cover":"OVC","clouds":[{"cover":"SCT","base":900},{"cover":"OVC","base":1100}],"fltCat":"MVFR"},{"icaoId":"KCPR","receiptTime":"2026-04-12T17:56:28.555Z","obsTime":1776016380,"reportTime":"2026-04-12T18:00:00.000Z","temp":19.4,"dewp":-3.9,"wdir":210,"wspd":20,"wgst":29,"visib":"10+","altim":1007.5,"slp":1003.1,"qcField":4,"presTend":-1.4,"maxT":19.4,"minT":3.9,"metarType":"METAR","rawOb":"METAR KCPR 121753Z 21020G29KT 10SM CLR 19/M04 A2975 RMK AO2 PK WND 22029/1749 SLP031 T01941039 10194 20039 56014","lat":42.8978,"lon":-106.4736,"elev":1623,"name":"Casper/Natrona Cnty, WY, US","cover":"CLR","clouds":[],"fltCat":"VFR"},{"icaoId":"KDTW","receiptTime":"2026-04-12T17:56:38.405Z","obsTime":1776016380,"reportTime":"2026-04-12T18:00:00.000Z","temp":22.2,"dewp":11.1,"wdir":200,"wspd":14,"wgst":23,"visib":"10+","altim":1017,"slp":1016.9,"qcField":4,"presTend":-4,"maxT":22.2,"minT":7.2,"pcp6hr":0.01,"metarType":"METAR","rawOb":"METAR KDTW 121753Z 20014G23KT 10SM BKN180 BKN250 22/11 A3003 RMK AO2 SLP169 60001 T02220111 10222 20072 58040","lat":42.2311,"lon":-83.3312,"elev":192,"name":"Detroit/Metro Wayne Cnty, MI, US","cover":"BKN","clouds":[{"cover":"BKN","base":18000},{"cover":"BKN","base":25000}],"fltCat":"VFR"},{"icaoId":"KCNY","receiptTime":"2026-04-12T17:56:28.825Z","obsTime":1776016380,"reportTime":"2026-04-12T18:00:00.000Z","temp":20,"dewp":-10,"wdir":210,"wspd":17,"wgst":27,"visib":"10+","altim":1010.9,"slp":1006.9,"qcField":14,"presTend":-0.3,"maxT":20,"minT":5,"metarType":"METAR","rawOb":"METAR KCNY 121753Z AUTO 21017G27KT 10SM CLR 20/M10 A2985 RMK AO2 PK WND 19028/1700 SLP069 T02001100 10200 20050 56003 $","lat":38.7501,"lon":-109.7627,"elev":1392,"name":"Moab/Canyonland Fld, UT, US","cover":"CLR","clouds":[],"fltCat":"VFR"},{"icaoId":"KDMN","receiptTime":"2026-04-12T17:56:35.310Z","obsTime":1776016380,"reportTime":"2026-04-12T18:00:00.000Z","temp":23.9,"dewp":-0.6,"wdir":230,"wspd":15,"wgst":22,"visib":"10+","altim":1019.4,"slp":1012.8,"qcField":6,"presTend":-0.5,"maxT":23.9,"minT":8.3,"metarType":"METAR","rawOb":"METAR KDMN 121753Z AUTO 23015G22KT 10SM CLR 24/M01 A3010 RMK AO2 PK WND 28028/1719 SLP128 T02391006 10239 20083 58005","lat":32.2592,"lon":-107.7206,"elev":1310,"name":"Deming Muni, NM, US","cover":"CLR","clouds":[],"fltCat":"VFR"},{"icaoId":"KFMN","receiptTime":"2026-04-12T17:56:34.837Z","obsTime":1776016380,"reportTime":"2026-04-12T18:00:00.000Z","temp":18.3,"dewp":-3.9,"wdir":200,"wspd":8,"wgst":17,"visib":"10+","altim":1016,"slp":1012,"qcField":4,"presTend":-1.1,"maxT":18.3,"minT":3.3,"metarType":"METAR","rawOb":"METAR KFMN 121753Z 20008G17KT 10SM CLR 18/M04 A3000 RMK AO2 SLP120 T01831039 10183 20033 58011","lat":36.7435,"lon":-108.2293,"elev":1677,"name":"Farmington/Four Corners Rgnl, NM, US","cover":"CLR","clouds":[],"fltCat":"VFR"},{"icaoId":"KIAH","receiptTime":"2026-04-12T17:56:40.378Z","obsTime":1776016380,"reportTime":"2026-04-12T18:00:00.000Z","temp":23.9,"dewp":21.7,"wdir":150,"wspd":9,"visib":"10+","altim":1020.1,"slp":1020,"qcField":4,"wxString":"-RA","presTend":-0.2,"maxT":25.6,"minT":21.1,"precip":0.01,"pcp6hr":0.01,"metarType":"METAR","rawOb":"METAR KIAH 121753Z 15009KT 10SM -RA BKN024 OVC035 24/22 A3012 RMK AO2 RAB19 SLP200 P0001 60001 T02390217 10256 20211 58002","lat":29.9844,"lon":-95.3607,"elev":27,"name":"Houston/Bush Intl, TX, US","cover":"OVC","clouds":[{"cover":"BKN","base":2400},{"cover":"OVC","base":3500}],"fltCat":"MVFR"},{"icaoId":"KIDA","receiptTime":"2026-04-12T17:56:36.899Z","obsTime":1776016380,"reportTime":"2026-04-12T18:00:00.000Z","temp":14.4,"dewp":0,"wdir":170,"wspd":13,"wgst":18,"visib":"10+","altim":1005.8,"slp":1004.1,"qcField":4,"presTend":-1,"maxT":14.4,"minT":-0.6,"metarType":"METAR","rawOb":"METAR KIDA 121753Z 17013G18KT 10SM BKN100 14/00 A2970 RMK AO2 SLP041 T01440000 10144 21006 57010","lat":43.5204,"lon":-112.0675,"elev":1444,"name":"Idaho Falls Rgnl, ID, US","cover":"BKN","clouds":[{"cover":"BKN","base":10000}],"fltCat":"VFR"},{"icaoId":"KPSP","receiptTime":"2026-04-12T17:56:46.389Z","obsTime":1776016380,"reportTime":"2026-04-12T18:00:00.000Z","temp":22.2,"dewp":3.9,"wdir":0,"wspd":0,"visib":"10+","altim":1014.3,"slp":1014.1,"qcField":4,"presTend":0.8,"maxT":22.2,"minT":15,"metarType":"METAR","rawOb":"METAR KPSP 121753Z 00000KT 10SM FEW100 22/04 A2995 RMK AO2 SLP141 T02220039 10222 20150 50008","lat":33.8222,"lon":-116.5043,"elev":123,"name":"Palm Springs Intl, CA, US","cover":"FEW","clouds":[{"cover":"FEW","base":10000}],"fltCat":"VFR"},{"icaoId":"KMKE","receiptTime":"2026-04-12T17:56:41.063Z","obsTime":1776016320,"reportTime":"2026-04-12T18:00:00.000Z","temp":22.8,"dewp":15,"wdir":220,"wspd":14,"wgst":27,"visib":"10+","altim":1010.2,"slp":1009.8,"qcField":12,"presTend":-2.6,"maxT":22.8,"minT":13.3,"pcp6hr":0.2,"metarType":"METAR","rawOb":"METAR KMKE 121752Z 22014G27KT 10SM FEW065 BKN110 OVC220 23/15 A2983 RMK AO2 PK WND 20029/1658 SLP098 60020 T02280150 10228 20133 58026 $","lat":42.9549,"lon":-87.9045,"elev":203,"name":"Milwaukee/Mitchell Intl, WI, US","cover":"OVC","clouds":[{"cover":"FEW","base":6500},{"cover":"BKN","base":11000},{"cover":"OVC","base":22000}],"fltCat":"VFR"},{"icaoId":"KABQ","receiptTime":"2026-04-12T17:56:35.603Z","obsTime":1776016320,"reportTime":"2026-04-12T18:00:00.000Z","temp":20,"dewp":-2.2,"wdir":270,"wspd":13,"wgst":22,"visib":"10+","altim":1018,"slp":1011.8,"qcField":12,"presTend":-1.3,"maxT":20,"minT":7.2,"metarType":"METAR","rawOb":"METAR KABQ 121752Z 27013G22KT 10SM FEW085 SCT200 BKN250 20/M02 A3006 RMK AO2 SLP118 T02001022 10200 20072 58013 $","lat":35.0419,"lon":-106.6154,"elev":1620,"name":"Albuquerque Intl, NM, US","cover":"BKN","clouds":[{"cover":"FEW","base":8500},{"cover":"SCT","base":20000},{"cover":"BKN","base":25000}],"fltCat":"VFR"},{"icaoId":"KCVG","receiptTime":"2026-04-12T17:56:39.876Z","obsTime":1776016320,"reportTime":"2026-04-12T18:00:00.000Z","temp":25.6,"dewp":11.1,"wdir":220,"wspd":9,"wgst":23,"visib":"10+","altim":1020.7,"slp":1020.1,"qcField":12,"presTend":-2.5,"maxT":26.1,"minT":12.2,"metarType":"METAR","rawOb":"METAR KCVG 121752Z 22009G23KT 10SM BKN065 BKN075 BKN250 26/11 A3014 RMK AO2 SLP201 T02560111 10261 20122 58025 $","lat":39.0444,"lon":-84.6724,"elev":264,"name":"Cincinnati Intl, KY, US","cover":"BKN","clouds":[{"cover":"BKN","base":6500},{"cover":"BKN","base":7500},{"cover":"BKN","base":25000}],"fltCat":"VFR"},{"icaoId":"KMLF","receiptTime":"2026-04-12T17:56:34.479Z","obsTime":1776016320,"reportTime":"2026-04-12T18:00:00.000Z","temp":15.6,"dewp":-6.7,"wdir":190,"wspd":29,"wgst":42,"visib":"10+","altim":1009.9,"slp":1006.1,"qcField":6,"presTend":0.2,"maxT":17.2,"minT":6.1,"metarType":"METAR","rawOb":"METAR KMLF 121752Z AUTO 19029G42KT 10SM FEW080 16/M07 A2982 RMK AO2 PK WND 19042/1752 SLP061 T01561067 10172 20061 53002","lat":38.4225,"lon":-113.0109,"elev":1537,"name":"Milford Muni, UT, US","cover":"FEW","clouds":[{"cover":"FEW","base":8000}],"fltCat":"VFR"},{"icaoId":"KDCA","receiptTime":"2026-04-12T17:56:39.891Z","obsTime":1776016320,"reportTime":"2026-04-12T18:00:00.000Z","temp":20.6,"dewp":6.1,"wdir":180,"wspd":10,"visib":"10+","altim":1029.2,"slp":1028.9,"qcField":4,"presTend":-2.1,"maxT":21.1,"minT":11.1,"metarType":"METAR","rawOb":"METAR KDCA 121752Z 18010KT 10SM FEW060 BKN250 21/06 A3039 RMK AO2 SLP289 T02060061 10211 20111 58021","lat":38.8472,"lon":-77.0345,"elev":4,"name":"Washington/Reagan-National Arpt, VA, US","cover":"BKN","clouds":[{"cover":"FEW","base":6000},{"cover":"BKN","base":25000}],"fltCat":"VFR"},{"icaoId":"KOKC","receiptTime":"2026-04-12T17:56:35.693Z","obsTime":1776016320,"reportTime":"2026-04-12T18:00:00.000Z","temp":22.8,"dewp":16.7,"wdir":210,"wspd":18,"wgst":27,"visib":"10+","altim":1013.3,"slp":1012,"qcField":4,"presTend":-0.5,"maxT":22.8,"minT":18.3,"pcp6hr":0.09,"metarType":"METAR","rawOb":"METAR KOKC 121752Z 21018G27KT 10SM FEW021 FEW110 BKN250 23/17 A2992 RMK AO2 PK WND 21031/1712 SLP120 60009 T02280167 10228 20183 58005","lat":35.3843,"lon":-97.6003,"elev":391,"name":"Oklahoma City/Will Rogers Intl, OK, US","cover":"BKN","clouds":[{"cover":"FEW","base":2100},{"cover":"FEW","base":11000},{"cover":"BKN","base":25000}],"fltCat":"VFR"},{"icaoId":"KIWA","receiptTime":"2026-04-12T17:54:39.079Z","obsTime":1776016320,"reportTime":"2026-04-12T18:00:00.000Z","temp":27,"dewp":1,"wdir":200,"wspd":13,"wgst":22,"visib":"10+","altim":1014.6,"qcField":0,"metarType":"METAR","rawOb":"METAR KIWA 121752Z 20013G22KT 10SM CLR 27/01 A2996","lat":33.3008,"lon":-111.6437,"elev":420,"name":"Phoenix/Mesa Gateway Arpt, AZ, US","cover":"CLR","clouds":[],"fltCat":"VFR"},{"icaoId":"KCLT","receiptTime":"2026-04-12T17:56:39.832Z","obsTime":1776016320,"reportTime":"2026-04-12T18:00:00.000Z","temp":27.2,"dewp":8.3,"wdir":150,"wspd":3,"visib":"10+","altim":1027.2,"slp":1028,"qcField":4,"presTend":-1,"maxT":27.2,"minT":15.6,"metarType":"METAR","rawOb":"METAR KCLT 121752Z 15003KT 10SM FEW250 27/08 A3033 RMK AO2 SLP280 T02720083 10272 20156 58010","lat":35.2225,"lon":-80.9543,"elev":223,"name":"Charlotte/Douglas Intl, NC, US","cover":"FEW","clouds":[{"cover":"FEW","base":25000}],"fltCat":"VFR"},{"icaoId":"KHRL","receiptTime":"2026-04-12T17:56:40.038Z","obsTime":1776016320,"reportTime":"2026-04-12T18:00:00.000Z","temp":28.3,"dewp":21.7,"wdir":140,"wspd":17,"visib":"10+","altim":1017,"slp":1016.9,"qcField":4,"presTend":0.3,"maxT":28.3,"minT":23.3,"metarType":"METAR","rawOb":"METAR KHRL 121752Z 14017KT 10SM FEW024 BKN030 OVC042 28/22 A3003 RMK AO2 PK WND 14026/1654 SLP169 T02830217 10283 20233 50003","lat":26.2303,"lon":-97.6556,"elev":9,"name":"Harlingen/Valley Intl, TX, US","cover":"OVC","clouds":[{"cover":"FEW","base":2400},{"cover":"BKN","base":3000},{"cover":"OVC","base":4200}],"fltCat":"MVFR"},{"icaoId":"KPIT","receiptTime":"2026-04-12T17:54:09.327Z","obsTime":1776016260,"reportTime":"2026-04-12T18:00:00.000Z","temp":23.3,"dewp":7.2,"wdir":220,"wspd":6,"wgst":18,"visib":"10+","altim":1022.8,"slp":1023.2,"qcField":12,"presTend":-2.5,"maxT":23.3,"minT":7.8,"metarType":"METAR","rawOb":"METAR KPIT 121751Z 22006G18KT 10SM SCT130 OVC250 23/07 A3020 RMK AO2 SLP232 T02330072 10233 20078 58025 $","lat":40.4814,"lon":-80.2083,"elev":339,"name":"Pittsburgh Intl, PA, US","cover":"OVC","clouds":[{"cover":"SCT","base":13000},{"cover":"OVC","base":25000}],"fltCat":"VFR"},{"icaoId":"KPHX","receiptTime":"2026-04-12T17:54:09.287Z","obsTime":1776016260,"reportTime":"2026-04-12T18:00:00.000Z","temp":27.2,"dewp":1.1,"wdir":200,"wspd":13,"wgst":21,"visib":"10+","altim":1013.3,"slp":1011.7,"qcField":12,"presTend":0.6,"maxT":27.2,"minT":19.4,"metarType":"METAR","rawOb":"METAR KPHX 121751Z 20013G21KT 10SM FEW120 BKN230 27/01 A2992 RMK AO2 SLP117 T02720011 10272 20194 51006 $","lat":33.4278,"lon":-112.0037,"elev":338,"name":"Phoenix/Sky Harbor Intl, AZ, US","cover":"BKN","clouds":[{"cover":"FEW","base":12000},{"cover":"BKN","base":23000}],"fltCat":"VFR"},{"icaoId":"KROW","receiptTime":"2026-04-12T17:54:09.482Z","obsTime":1776016260,"reportTime":"2026-04-12T18:00:00.000Z","temp":26.7,"dewp":1.1,"visib":"10+","altim":1015.3,"slp":1009.8,"qcField":12,"presTend":-1.4,"maxT":27.2,"minT":11.1,"metarType":"METAR","rawOb":"METAR KROW 121751Z 10SM FEW100 27/01 A2998 RMK AO2 SLP098 T02670011 10272 20111 58014 $","lat":33.3074,"lon":-104.5082,"elev":1105,"name":"Roswell/Ind Arpt, NM, US","cover":"FEW","clouds":[{"cover":"FEW","base":10000}],"fltCat":"VFR"},{"icaoId":"KSAD","receiptTime":"2026-04-12T17:54:09.549Z","obsTime":1776016260,"reportTime":"2026-04-12T18:00:00.000Z","temp":25,"dewp":-3.3,"wdir":200,"wspd":12,"wgst":22,"visib":"10+","altim":1016.3,"slp":1011.9,"qcField":6,"presTend":-0.6,"maxT":25.6,"minT":11.1,"metarType":"METAR","rawOb":"METAR KSAD 121751Z AUTO 20012G22KT 10SM CLR 25/M03 A3001 RMK AO2 PK WND 17026/1654 SLP119 T02501033 10256 20111 58006","lat":32.8565,"lon":-109.636,"elev":937,"name":"Safford Rgnl, AZ, US","cover":"CLR","clouds":[],"fltCat":"VFR"},{"icaoId":"KSAT","receiptTime":"2026-04-12T17:54:10.266Z","obsTime":1776016260,"reportTime":"2026-04-12T18:00:00.000Z","temp":26.1,"dewp":20.6,"wdir":170,"wspd":12,"visib":"10+","altim":1017.4,"slp":1015.5,"qcField":4,"presTend":-1.3,"maxT":26.7,"minT":21.7,"pcp6hr":0.005,"metarType":"METAR","rawOb":"METAR KSAT 121751Z 17012KT 10SM SCT022 BKN028 BKN035 26/21 A3004 RMK AO2 SLP155 60000 T02610206 10267 20217 58013","lat":29.5443,"lon":-98.4839,"elev":246,"name":"San Antonio Intl, TX, US","cover":"BKN","clouds":[{"cover":"SCT","base":2200},{"cover":"BKN","base":2800},{"cover":"BKN","base":3500}],"fltCat":"MVFR"},{"icaoId":"KCLE","receiptTime":"2026-04-12T17:54:10.725Z","obsTime":1776016260,"reportTime":"2026-04-12T18:00:00.000Z","temp":20.6,"dewp":9.4,"wdir":210,"wspd":16,"wgst":22,"visib":"10+","altim":1019.7,"slp":1021.3,"qcField":12,"presTend":-2.6,"maxT":21.1,"minT":8.3,"metarType":"METAR","rawOb":"METAR KCLE 121751Z 21016G22KT 10SM SCT095 OVC150 21/09 A3011 RMK AO2 SLP213 T02060094 10211 20083 58026 $","lat":41.4057,"lon":-81.8519,"elev":237,"name":"Cleveland/Hopkins Intl, OH, US","cover":"OVC","clouds":[{"cover":"SCT","base":9500},{"cover":"OVC","base":15000}],"fltCat":"VFR"},{"icaoId":"KSTL","receiptTime":"2026-04-12T17:54:09.777Z","obsTime":1776016260,"reportTime":"2026-04-12T18:00:00.000Z","temp":25.6,"dewp":12.2,"wdir":200,"wspd":19,"wgst":31,"visib":"10+","altim":1016,"slp":1014.9,"qcField":12,"presTend":-2,"maxT":26.7,"minT":17.8,"metarType":"METAR","rawOb":"METAR KSTL 121751Z 20019G31KT 10SM FEW040 BKN100 OVC250 26/12 A3000 RMK AO2 PK WND 20031/1745 SLP149 T02560122 10267 20178 58020 $","lat":38.7525,"lon":-90.3734,"elev":163,"name":"St Louis/Lambert Intl, MO, US","cover":"OVC","clouds":[{"cover":"FEW","base":4000},{"cover":"BKN","base":10000},{"cover":"OVC","base":25000}],"fltCat":"VFR"},{"icaoId":"KSAN","receiptTime":"2026-04-12T17:54:09.579Z","obsTime":1776016260,"reportTime":"2026-04-12T18:00:00.000Z","temp":20,"dewp":11.7,"wdir":190,"wspd":11,"visib":"10+","altim":1017,"slp":1017,"qcField":12,"presTend":0.6,"maxT":20.6,"minT":16.1,"metarType":"METAR","rawOb":"METAR KSAN 121751Z 19011KT 10SM SCT075 BKN250 20/12 A3003 RMK AO2 PK WND 19029/1735 SLP170 T02000117 10206 20161 53006 $","lat":32.7364,"lon":-117.1973,"elev":3,"name":"San Diego Intl Arpt, CA, US","cover":"BKN","clouds":[{"cover":"SCT","base":7500},{"cover":"BKN","base":25000}],"fltCat":"VFR"},{"icaoId":"KLGA","receiptTime":"2026-04-12T17:54:09.053Z","obsTime":1776016260,"reportTime":"2026-04-12T18:00:00.000Z","temp":11.7,"dewp":-2.8,"wdir":150,"wspd":13,"wgst":20,"visib":"10+","altim":1032.3,"slp":1032.1,"qcField":12,"presTend":-1.7,"maxT":12.2,"minT":7.2,"metarType":"METAR","rawOb":"METAR KLGA 121751Z 15013G20KT 10SM FEW120 FEW170 SCT250 12/M03 A3048 RMK AO2 SLP321 T01171028 10122 20072 56017 $","lat":40.7794,"lon":-73.8803,"elev":9,"name":"New York/La Guardia Arpt, NY, US","cover":"SCT","clouds":[{"cover":"FEW","base":12000},{"cover":"FEW","base":17000},{"cover":"SCT","base":25000}],"fltCat":"VFR"},{"icaoId":"KORD","receiptTime":"2026-04-12T17:54:09.174Z","obsTime":1776016260,"reportTime":"2026-04-12T18:00:00.000Z","temp":25.6,"dewp":13.9,"wdir":230,"wspd":18,"wgst":34,"visib":"10+","altim":1012.3,"slp":1012,"qcField":12,"presTend":-2,"maxT":25.6,"minT":15.6,"metarType":"METAR","rawOb":"METAR KORD 121751Z 23018G34KT 10SM FEW050 BKN060 BKN140 26/14 A2989 RMK AO2 PK WND 22034/1742 SLP120 T02560139 10256 20156 58020 $","lat":41.9602,"lon":-87.9316,"elev":202,"name":"Chicago/O'Hare Intl, IL, US","cover":"BKN","clouds":[{"cover":"FEW","base":5000},{"cover":"BKN","base":6000},{"cover":"BKN","base":14000}],"fltCat":"VFR"},{"icaoId":"KORF","receiptTime":"2026-04-12T17:54:09.222Z","obsTime":1776016260,"reportTime":"2026-04-12T18:00:00.000Z","temp":18.9,"dewp":7.2,"wdir":120,"wspd":9,"wgst":21,"visib":"10+","altim":1030.6,"slp":1030.3,"qcField":4,"presTend":-1.2,"maxT":19.4,"minT":12.8,"metarType":"METAR","rawOb":"METAR KORF 121751Z 12009G21KT 10SM CLR 19/07 A3043 RMK AO2 SLP303 T01890072 10194 20128 58012","lat":36.9037,"lon":-76.1927,"elev":5,"name":"Norfolk Intl, VA, US","cover":"CLR","clouds":[],"fltCat":"VFR"},{"icaoId":"KRDU","receiptTime":"2026-04-12T17:54:09.454Z","obsTime":1776016260,"reportTime":"2026-04-12T18:00:00.000Z","temp":25.6,"dewp":14.4,"wdir":150,"wspd":7,"visib":"10+","altim":1028.2,"slp":1027.8,"qcField":4,"presTend":-1.4,"maxT":26.1,"minT":15,"metarType":"METAR","rawOb":"METAR KRDU 121751Z 15007KT 10SM SCT036 BKN250 26/14 A3036 RMK AO2 SLP278 T02560144 10261 20150 58014","lat":35.8923,"lon":-78.782,"elev":121,"name":"Raleigh-Durham Intl, NC, US","cover":"BKN","clouds":[{"cover":"SCT","base":3600},{"cover":"BKN","base":25000}],"fltCat":"VFR"},{"icaoId":"KPVD","receiptTime":"2026-04-12T17:54:09.369Z","obsTime":1776016260,"reportTime":"2026-04-12T18:00:00.000Z","temp":11.1,"dewp":-5,"wdir":170,"wspd":13,"visib":"10+","altim":1032.6,"slp":1032.6,"qcField":12,"presTend":-1.5,"maxT":11.7,"minT":6.1,"metarType":"METAR","rawOb":"METAR KPVD 121751Z 17013KT 10SM FEW065 FEW250 11/M05 A3049 RMK AO2 SLP326 T01111050 10117 20061 56015 $","lat":41.7225,"lon":-71.4325,"elev":15,"name":"Providence/Green Mem, RI, US","cover":"FEW","clouds":[{"cover":"FEW","base":6500},{"cover":"FEW","base":25000}],"fltCat":"VFR"},{"icaoId":"KBDL","receiptTime":"2026-04-12T17:54:10.534Z","obsTime":1776016260,"reportTime":"2026-04-12T18:00:00.000Z","temp":13.9,"dewp":-6.1,"wdir":160,"wspd":12,"visib":"10+","altim":1030.9,"slp":1030.8,"qcField":4,"presTend":-2.8,"maxT":13.9,"minT":4.4,"metarType":"METAR","rawOb":"METAR KBDL 121751Z 16012KT 10SM FEW120 BKN250 14/M06 A3044 RMK AO2 SLP308 T01391061 10139 20044 58028","lat":41.9374,"lon":-72.682,"elev":52,"name":"Hartford/Bradley Intl, CT, US","cover":"BKN","clouds":[{"cover":"FEW","base":12000},{"cover":"BKN","base":25000}],"fltCat":"VFR"},{"icaoId":"KCMH","receiptTime":"2026-04-12T17:54:10.763Z","obsTime":1776016260,"reportTime":"2026-04-12T18:00:00.000Z","temp":23.9,"dewp":11.1,"wdir":200,"wspd":11,"visib":"10+","altim":1021.4,"slp":1021,"qcField":4,"presTend":-2.6,"maxT":23.9,"minT":10,"metarType":"METAR","rawOb":"METAR KCMH 121751Z 20011KT 10SM FEW050 SCT100 BKN230 24/11 A3016 RMK AO2 SLP210 T02390111 10239 20100 58026","lat":39.9907,"lon":-82.877,"elev":257,"name":"Columbus/Glenn Intl, OH, US","cover":"BKN","clouds":[{"cover":"FEW","base":5000},{"cover":"SCT","base":10000},{"cover":"BKN","base":23000}],"fltCat":"VFR"},{"icaoId":"KOXR","receiptTime":"2026-04-12T17:54:09.260Z","obsTime":1776016260,"reportTime":"2026-04-12T18:00:00.000Z","temp":17.8,"dewp":8.3,"wdir":250,"wspd":11,"visib":"10+","altim":1015.7,"slp":1015.6,"qcField":4,"presTend":1.3,"maxT":17.8,"minT":14.4,"pcp6hr":0.005,"metarType":"METAR","rawOb":"METAR KOXR 121751Z 25011KT 10SM FEW025 SCT075 18/08 A2999 RMK AO2 SLP156 60000 T01780083 10178 20144 53013","lat":34.2001,"lon":-119.2042,"elev":12,"name":"Oxnard Arpt, CA, US","cover":"SCT","clouds":[{"cover":"FEW","base":2500},{"cover":"SCT","base":7500}],"fltCat":"VFR"},{"icaoId":"KLGU","receiptTime":"2026-04-12T17:54:09.082Z","obsTime":1776016260,"reportTime":"2026-04-12T18:00:00.000Z","temp":16.7,"dewp":-0.6,"wdir":180,"wspd":19,"wgst":29,"visib":"10+","altim":1006.5,"slp":1004,"qcField":6,"presTend":-0.5,"maxT":16.7,"minT":0,"metarType":"METAR","rawOb":"METAR KLGU 121751Z AUTO 18019G29KT 10SM FEW090 17/M01 A2972 RMK AO2 PK WND 20030/1736 SLP040 T01671006 10167 20000 56005","lat":41.7865,"lon":-111.8519,"elev":1359,"name":"Logan/Cache Arpt, UT, US","cover":"FEW","clouds":[{"cover":"FEW","base":9000}],"fltCat":"VFR"},{"icaoId":"KJFK","receiptTime":"2026-04-12T17:54:09.022Z","obsTime":1776016260,"reportTime":"2026-04-12T18:00:00.000Z","temp":10.6,"dewp":-2.2,"wdir":160,"wspd":14,"visib":"10+","altim":1033.3,"slp":1033.2,"qcField":12,"presTend":-1.5,"maxT":11.1,"minT":7.8,"metarType":"METAR","rawOb":"METAR KJFK 121751Z 16014KT 10SM FEW150 SCT250 11/M02 A3051 RMK AO2 SLP332 T01061022 10111 20078 56015 $","lat":40.6392,"lon":-73.7639,"elev":3,"name":"New York/JF Kennedy Intl, NY, US","cover":"SCT","clouds":[{"cover":"FEW","base":15000},{"cover":"SCT","base":25000}],"fltCat":"VFR"},{"icaoId":"KIGM","receiptTime":"2026-04-12T17:54:11.316Z","obsTime":1776016260,"reportTime":"2026-04-12T18:00:00.000Z","temp":18.9,"dewp":-4.4,"wdir":220,"wspd":19,"wgst":31,"visib":"10+","altim":1014,"slp":1008.4,"qcField":6,"presTend":1,"maxT":18.9,"minT":11.7,"metarType":"METAR","rawOb":"METAR KIGM 121751Z AUTO 22019G31KT 10SM CLR 19/M04 A2994 RMK AO2 PK WND 23032/1730 SLP084 T01891044 10189 20117 53010","lat":35.2575,"lon":-113.9341,"elev":1045,"name":"Kingman Arpt, AZ, US","cover":"CLR","clouds":[],"fltCat":"VFR"},{"icaoId":"KELP","receiptTime":"2026-04-12T17:54:11.029Z","obsTime":1776016260,"reportTime":"2026-04-12T18:00:00.000Z","temp":25.6,"dewp":0.6,"wdir":230,"wspd":18,"wgst":26,"visib":"10+","altim":1018.7,"slp":1012.8,"qcField":4,"presTend":-0.5,"maxT":25.6,"minT":11.1,"metarType":"METAR","rawOb":"METAR KELP 121751Z 23018G26KT 10SM SCT080 BKN250 26/01 A3008 RMK AO2 PK WND 25027/1733 SLP128 T02560006 10256 20111 58005","lat":31.8123,"lon":-106.3774,"elev":1205,"name":"El Paso Intl, TX, US","cover":"BKN","clouds":[{"cover":"SCT","base":8000},{"cover":"BKN","base":25000}],"fltCat":"VFR"},{"icaoId":"KIFP","receiptTime":"2026-04-12T17:53:56.485Z","obsTime":1776016260,"reportTime":"2026-04-12T18:00:00.000Z","temp":23,"dewp":-1,"wdir":180,"wspd":16,"visib":"10+","altim":1011.6,"qcField":0,"metarType":"METAR","rawOb":"METAR KIFP 121751Z 18016KT 10SM CLR 23/M01 A2987","lat":35.1487,"lon":-114.5611,"elev":210,"name":"Bullhead City Intl, AZ, US","cover":"CLR","clouds":[],"fltCat":"VFR"},{"icaoId":"KEWR","receiptTime":"2026-04-12T17:54:11.125Z","obsTime":1776016260,"reportTime":"2026-04-12T18:00:00.000Z","temp":11.1,"dewp":-1.1,"wdir":130,"wspd":12,"visib":"10+","altim":1032.3,"slp":1032.2,"qcField":4,"presTend":-2,"maxT":11.7,"minT":7.8,"metarType":"METAR","rawOb":"METAR KEWR 121751Z 13012KT 10SM FEW150 BKN250 11/M01 A3048 RMK AO2 SLP322 T01111011 10117 20078 56020","lat":40.6828,"lon":-74.1692,"elev":2,"name":"Newark Intl, NJ, US","cover":"BKN","clouds":[{"cover":"FEW","base":15000},{"cover":"BKN","base":25000}],"fltCat":"VFR"},{"icaoId":"KVNY","receiptTime":"2026-04-12T17:54:08.871Z","obsTime":1776016260,"reportTime":"2026-04-12T18:00:00.000Z","temp":17.2,"dewp":7.2,"wdir":230,"wspd":7,"visib":"10+","altim":1015.3,"slp":1014.8,"qcField":12,"presTend":1,"maxT":17.2,"minT":12.8,"pcp6hr":0.37,"metarType":"METAR","rawOb":"METAR KVNY 121751Z 23007KT 10SM OVC060 17/07 A2998 RMK AO2 SLP148 60037 T01720072 10172 20128 51010 $","lat":34.2121,"lon":-118.4915,"elev":241,"name":"Van Nuys Arpt, CA, US","cover":"OVC","clouds":[{"cover":"OVC","base":6000}],"fltCat":"VFR"},{"icaoId":"KHOB","receiptTime":"2026-04-12T17:51:26.633Z","obsTime":1776016200,"reportTime":"2026-04-12T18:00:00.000Z","temp":26,"dewp":4,"wdir":240,"wspd":13,"wgst":25,"visib":"10+","altim":1017.4,"qcField":0,"metarType":"METAR","rawOb":"METAR KHOB 121750Z 24013G25KT 10SM FEW080 26/04 A3004","lat":32.6797,"lon":-103.2222,"elev":1112,"name":"Hobbs Arpt, NM, US","cover":"FEW","clouds":[{"cover":"FEW","base":8000}],"fltCat":"VFR"},{"icaoId":"KADM","receiptTime":"2026-04-12T17:49:47.034Z","obsTime":1776016200,"reportTime":"2026-04-12T18:00:00.000Z","temp":23,"dewp":20,"wdir":190,"wspd":9,"wgst":16,"visib":"10+","altim":1015,"qcField":0,"metarType":"METAR","rawOb":"METAR KADM 121750Z 19009G16KT 10SM OVC025 23/20 A2997","lat":34.3007,"lon":-97.0089,"elev":223,"name":"Ardmore Muni, OK, US","cover":"OVC","clouds":[{"cover":"OVC","base":2500}],"fltCat":"MVFR"},{"icaoId":"KAEG","receiptTime":"2026-04-12T17:50:19.081Z","obsTime":1776016200,"reportTime":"2026-04-12T18:00:00.000Z","temp":19,"dewp":-8,"wdir":210,"wspd":18,"wgst":23,"visib":"10+","altim":1018.7,"qcField":0,"metarType":"METAR","rawOb":"METAR KAEG 121750Z 21018G23KT 10SM 19/M08 A3008","lat":35.15,"lon":-106.7929,"elev":1771,"name":"Albuquerque/Double Eagle Arpt, NM, US"},{"icaoId":"KCHD","receiptTime":"2026-04-12T17:49:19.332Z","obsTime":1776016020,"reportTime":"2026-04-12T18:00:00.000Z","temp":26,"dewp":21,"wdir":190,"wspd":14,"wgst":22,"visib":"10+","altim":1014,"qcField":0,"metarType":"METAR","rawOb":"METAR KCHD 121747Z 19014G22KT 10SM BKN200 26/21 A2994","lat":33.2669,"lon":-111.8086,"elev":378,"name":"Chandler Muni, AZ, US","cover":"BKN","clouds":[{"cover":"BKN","base":20000}],"fltCat":"VFR"},{"icaoId":"KGEU","receiptTime":"2026-04-12T17:48:10.422Z","obsTime":1776016020,"reportTime":"2026-04-12T18:00:00.000Z","temp":25,"dewp":2,"wdir":200,"wspd":11,"visib":"10+","altim":1013,"qcField":0,"metarType":"METAR","rawOb":"METAR KGEU 121747Z 20011KT 10SM FEW270 SCT330 SCT360 25/02 A2991","lat":33.528,"lon":-112.293,"elev":319,"name":"Glendale Muni, AZ, US","cover":"SCT","clouds":[{"cover":"FEW","base":27000},{"cover":"SCT","base":33000},{"cover":"SCT","base":36000}],"fltCat":"VFR"},{"icaoId":"KGYR","receiptTime":"2026-04-12T17:50:19.379Z","obsTime":1776016020,"reportTime":"2026-04-12T18:00:00.000Z","temp":26,"dewp":3,"wdir":200,"wspd":15,"wgst":27,"visib":"10+","altim":1014,"qcField":0,"metarType":"METAR","rawOb":"METAR KGYR 121747Z 20015G27KT 10SM SCT200 BKN250 26/03 A2994","lat":33.428,"lon":-112.368,"elev":292,"name":"Phoenix/Goodyear Muni, AZ, US","cover":"BKN","clouds":[{"cover":"SCT","base":20000},{"cover":"BKN","base":25000}],"fltCat":"VFR"},{"icaoId":"KSUN","receiptTime":"2026-04-12T17:49:48.622Z","obsTime":1776016020,"reportTime":"2026-04-12T18:00:00.000Z","temp":9,"dewp":1,"wdir":190,"wspd":6,"wgst":14,"visib":"10+","altim":1005.5,"qcField":0,"metarType":"METAR","rawOb":"METAR KSUN 121747Z 19006G14KT 150V210 10SM BKN041 OVC047 09/01 A2969","lat":43.4969,"lon":-114.2923,"elev":1619,"name":"Hailey/Friedman Mem, ID, US","cover":"OVC","clouds":[{"cover":"BKN","base":4100},{"cover":"OVC","base":4700}],"fltCat":"VFR"},{"icaoId":"KBJC","receiptTime":"2026-04-12T17:50:19.331Z","obsTime":1776015900,"reportTime":"2026-04-12T18:00:00.000Z","temp":20,"dewp":-8,"wdir":20,"wspd":4,"visib":"10+","altim":1010.9,"qcField":0,"metarType":"METAR","rawOb":"METAR KBJC 121745Z 02004KT 10SM CLR 20/M08 A2985","lat":39.9008,"lon":-105.1042,"elev":1694,"name":"Rocky Mtn Metro, CO, US","cover":"CLR","clouds":[],"fltCat":"VFR"}]