[{"icaoId":"KNYL","receiptTime":"2026-04-10T15:00:48.673Z","obsTime":1775833020,"reportTime":"2026-04-10T15:00:00.000Z","temp":22.8,"dewp":8.3,"wdir":0,"wspd":0,"visib":"10+","altim":1012.3,"slp":1011.7,"qcField":4,"presTend":1.8,"metarType":"METAR","rawOb":"METAR KNYL 101457Z 00000KT 10SM SCT100 BKN170 23/08 A2989 RMK AO2 SLP117 T02280083 53018","lat":32.66,"lon":-114.6078,"elev":58,"name":"Yuma , AZ, US","cover":"BKN","clouds":[{"cover":"SCT","base":10000},{"cover":"BKN","base":17000}],"fltCat":"VFR"},{"icaoId":"KFLG","receiptTime":"2026-04-10T15:00:51.655Z","obsTime":1775833020,"reportTime":"2026-04-10T15:00:00.000Z","temp":5,"dewp":-2.8,"wdir":0,"wspd":0,"visib":"10+","altim":1021.4,"slp":1015.6,"qcField":12,"presTend":1.1,"metarType":"METAR","rawOb":"METAR KFLG 101457Z 00000KT 10SM CLR 05/M03 A3016 RMK AO2 SLP156 T00501028 51011 $","lat":35.1443,"lon":-111.6664,"elev":2134,"name":"Flagstaff/Pulliam Arpt, AZ, US","cover":"CLR","clouds":[],"fltCat":"VFR"},{"icaoId":"KDUG","receiptTime":"2026-04-10T15:02:09.756Z","obsTime":1775832960,"reportTime":"2026-04-10T15:00:00.000Z","temp":13.9,"dewp":-0.6,"wdir":280,"wspd":5,"visib":"10+","altim":1019,"slp":1013.6,"qcField":38,"presTend":1.5,"metarType":"METAR","rawOb":"METAR KDUG 101456Z AUTO 28005KT 10SM CLR 14/M01 A3009 RMK AO2 SLP136 T01391006 53015 TSNO","lat":31.4725,"lon":-109.6022,"elev":1260,"name":"Douglas/Bisbee Intl, AZ, US","cover":"CLR","clouds":[],"fltCat":"VFR"},{"icaoId":"KINW","receiptTime":"2026-04-10T15:00:09.761Z","obsTime":1775832960,"reportTime":"2026-04-10T15:00:00.000Z","temp":11.1,"dewp":-0.6,"wdir":130,"wspd":7,"visib":"10+","altim":1019.4,"slp":1015.2,"qcField":6,"presTend":1.3,"metarType":"METAR","rawOb":"METAR KINW 101456Z AUTO 13007KT 10SM CLR 11/M01 A3010 RMK AO2 SLP152 T01111006 53013","lat":35.0279,"lon":-110.7221,"elev":1492,"name":"Winslow/Lindberg Rgnl, AZ, US","cover":"CLR","clouds":[],"fltCat":"VFR"},{"icaoId":"KCGZ","receiptTime":"2026-04-10T14:58:32.032Z","obsTime":1775832960,"reportTime":"2026-04-10T15:00:00.000Z","temp":21.7,"dewp":-0.6,"wdir":0,"wspd":0,"visib":"10+","altim":1014,"slp":1012.6,"qcField":14,"presTend":1.6,"metarType":"METAR","rawOb":"METAR KCGZ 101456Z AUTO 00000KT 10SM CLR 22/M01 A2994 RMK AO2 SLP126 6//// T02171006 53016 $","lat":32.9531,"lon":-111.7725,"elev":444,"name":"Casa Granda Muni, AZ, US","cover":"CLR","clouds":[],"fltCat":"VFR"},{"icaoId":"KSEZ","receiptTime":"2026-04-10T15:00:43.250Z","obsTime":1775832900,"reportTime":"2026-04-10T15:00:00.000Z","temp":15,"dewp":-3,"wdir":"VRB","wspd":5,"visib":"10+","altim":1018.4,"qcField":6,"metarType":"METAR","rawOb":"METAR KSEZ 101455Z AUTO VRB05KT 10SM CLR 15/M03 A3007 RMK AO2","lat":34.8467,"lon":-111.7884,"elev":1455,"name":"Sedona Arpt, AZ, US","cover":"CLR","clouds":[],"fltCat":"VFR"},{"icaoId":"KLUF","receiptTime":"2026-04-10T15:12:12.391Z","obsTime":1775832900,"reportTime":"2026-04-10T15:00:00.000Z","temp":22.3,"dewp":0.2,"wdir":0,"wspd":0,"visib":"10+","altim":1012.3,"slp":1011,"qcField":14,"presTend":1.9,"metarType":"METAR","rawOb":"METAR KLUF 101455Z AUTO 00000KT 10SM CLR 22/00 A2989 RMK AO2 SLP110 T02230002 52019 $","lat":33.538,"lon":-112.38,"elev":333,"name":"Phoenix/Luke AFB, AZ, US","cover":"CLR","clouds":[],"fltCat":"VFR"},{"icaoId":"KHII","receiptTime":"2026-04-10T15:00:53.166Z","obsTime":1775832900,"reportTime":"2026-04-10T15:00:00.000Z","temp":24,"dewp":7,"wdir":0,"wspd":0,"visib":"10+","altim":1011.6,"qcField":6,"metarType":"METAR","rawOb":"METAR KHII 101455Z AUTO 00000KT 10SM CLR 24/07 A2987 RMK AO2","lat":34.5659,"lon":-114.3522,"elev":241,"name":"Lake Havasu City Arpt, AZ, US","cover":"CLR","clouds":[],"fltCat":"VFR"},{"icaoId":"KSOW","receiptTime":"2026-04-10T14:58:04.767Z","obsTime":1775832900,"reportTime":"2026-04-10T15:00:00.000Z","temp":12,"dewp":-1,"wdir":0,"wspd":0,"visib":3,"altim":1022.4,"qcField":6,"wxString":"HZ","metarType":"METAR","rawOb":"METAR KSOW 101455Z AUTO 00000KT 3SM HZ CLR 12/M01 A3019 RMK AO2","lat":34.2686,"lon":-110.0019,"elev":1954,"name":"Show Low Muni, AZ, US","cover":"CLR","clouds":[],"fltCat":"MVFR"},{"icaoId":"KSJN","receiptTime":"2026-04-10T14:58:07.655Z","obsTime":1775832840,"reportTime":"2026-04-10T15:00:00.000Z","temp":11.1,"dewp":-1.1,"wdir":0,"wspd":0,"visib":"10+","altim":1020.7,"slp":1014.2,"qcField":6,"presTend":1,"metarType":"METAR","rawOb":"METAR KSJN 101454Z AUTO 00000KT 10SM BKN100 11/M01 A3014 RMK AO2 SLP142 T01111011 53010","lat":34.5184,"lon":-109.3801,"elev":1747,"name":"St Johns Ind Arpt, AZ, US","cover":"BKN","clouds":[{"cover":"BKN","base":10000}],"fltCat":"VFR"},{"icaoId":"KGCN","receiptTime":"2026-04-10T14:58:06.093Z","obsTime":1775832840,"reportTime":"2026-04-10T15:00:00.000Z","temp":9.4,"dewp":-2.2,"wdir":"VRB","wspd":3,"visib":"10+","altim":1020.4,"slp":1013.8,"qcField":4,"presTend":0.9,"metarType":"METAR","rawOb":"METAR KGCN 101454Z VRB03KT 10SM CLR 09/M02 A3013 RMK AO2 SLP138 T00941022 51009","lat":35.9458,"lon":-112.1554,"elev":1993,"name":"Grand Canyon Park Arpt, AZ, US","cover":"CLR","clouds":[],"fltCat":"VFR"},{"icaoId":"KOLS","receiptTime":"2026-04-10T14:58:07.442Z","obsTime":1775832840,"reportTime":"2026-04-10T15:00:00.000Z","temp":18.3,"dewp":0.6,"wdir":0,"wspd":0,"visib":"10+","altim":1018,"slp":1012.4,"qcField":6,"presTend":1.4,"metarType":"METAR","rawOb":"METAR KOLS 101454Z AUTO 00000KT 10SM CLR 18/01 A3006 RMK AO2 SLP124 T01830006 53014","lat":31.4208,"lon":-110.8465,"elev":1194,"name":"Nogales Intl, AZ, US","cover":"CLR","clouds":[],"fltCat":"VFR"},{"icaoId":"KFFZ","receiptTime":"2026-04-10T15:00:48.769Z","obsTime":1775832840,"reportTime":"2026-04-10T15:00:00.000Z","temp":24.4,"dewp":-1.1,"wdir":120,"wspd":7,"visib":"10+","altim":1013.3,"slp":1010.7,"qcField":4,"presTend":1.8,"metarType":"METAR","rawOb":"METAR KFFZ 101454Z 12007KT 10SM CLR 24/M01 A2992 RMK AO2 SLP107 T02441011 53018","lat":33.4659,"lon":-111.7212,"elev":420,"name":"Mesa/Falcon Fld, AZ, US","cover":"CLR","clouds":[],"fltCat":"VFR"},{"icaoId":"KDVT","receiptTime":"2026-04-10T14:56:23.125Z","obsTime":1775832780,"reportTime":"2026-04-10T15:00:00.000Z","temp":23.9,"dewp":-0.6,"wdir":130,"wspd":4,"visib":"10+","altim":1013.6,"slp":1011.2,"qcField":4,"presTend":1.8,"metarType":"METAR","rawOb":"METAR KDVT 101453Z 13004KT 10SM CLR 24/M01 A2993 RMK AO2 SLP112 T02391006 53018","lat":33.6902,"lon":-112.0662,"elev":454,"name":"Phoenix/Deer Valley Arpt, AZ, US","cover":"CLR","clouds":[],"fltCat":"VFR"},{"icaoId":"KSDL","receiptTime":"2026-04-10T14:56:23.633Z","obsTime":1775832780,"reportTime":"2026-04-10T15:00:00.000Z","temp":22.2,"dewp":3.3,"wdir":250,"wspd":3,"visib":"10+","altim":1013.6,"slp":1011.3,"qcField":4,"presTend":1.8,"metarType":"METAR","rawOb":"METAR KSDL 101453Z 25003KT 10SM CLR 22/03 A2993 RMK AO2 SLP113 T02220033 53018","lat":33.6123,"lon":-111.9232,"elev":438,"name":"Scottsdale Muni, AZ, US","cover":"CLR","clouds":[],"fltCat":"VFR"},{"icaoId":"KPRC","receiptTime":"2026-04-10T14:56:31.847Z","obsTime":1775832780,"reportTime":"2026-04-10T15:00:00.000Z","temp":12.8,"dewp":0.6,"wdir":200,"wspd":5,"visib":"10+","altim":1018.4,"slp":1012.5,"qcField":4,"presTend":1.3,"metarType":"METAR","rawOb":"METAR KPRC 101453Z 20005KT 10SM CLR 13/01 A3007 RMK AO2 SLP125 T01280006 53013","lat":34.6491,"lon":-112.4223,"elev":1528,"name":"Prescott/Love Fld, AZ, US","cover":"CLR","clouds":[],"fltCat":"VFR"},{"icaoId":"KPGA","receiptTime":"2026-04-10T14:56:21.841Z","obsTime":1775832780,"reportTime":"2026-04-10T15:00:00.000Z","temp":19.4,"dewp":-4.4,"wdir":220,"wspd":8,"visib":"10+","altim":1016,"slp":1010.4,"qcField":6,"presTend":1.3,"metarType":"METAR","rawOb":"METAR KPGA 101453Z AUTO 22008KT 10SM CLR 19/M04 A3000 RMK AO2 SLP104 T01941044 53013","lat":36.9211,"lon":-111.4487,"elev":1310,"name":"Page Muni, AZ, US","cover":"CLR","clouds":[],"fltCat":"VFR"},{"icaoId":"KTUS","receiptTime":"2026-04-10T14:56:21.993Z","obsTime":1775832780,"reportTime":"2026-04-10T15:00:00.000Z","temp":20,"dewp":0.6,"wdir":160,"wspd":6,"visib":"10+","altim":1016,"slp":1011.9,"qcField":4,"presTend":1.2,"metarType":"METAR","rawOb":"METAR KTUS 101453Z 16006KT 10SM CLR 20/01 A3000 RMK AO2 SLP119 T02000006 53012","lat":32.1315,"lon":-110.9564,"elev":776,"name":"Tucson Intl Arpt, AZ, US","cover":"CLR","clouds":[],"fltCat":"VFR"},{"icaoId":"KIWA","receiptTime":"2026-04-10T14:54:34.316Z","obsTime":1775832780,"reportTime":"2026-04-10T15:00:00.000Z","temp":22,"dewp":-1,"wdir":130,"wspd":9,"visib":"10+","altim":1014,"qcField":0,"metarType":"METAR","rawOb":"METAR KIWA 101453Z 13009KT 10SM CLR 22/M01 A2994","lat":33.3008,"lon":-111.6437,"elev":420,"name":"Phoenix/Mesa Gateway Arpt, AZ, US","cover":"CLR","clouds":[],"fltCat":"VFR"},{"icaoId":"KIFP","receiptTime":"2026-04-10T14:53:05.090Z","obsTime":1775832720,"reportTime":"2026-04-10T15:00:00.000Z","temp":23,"dewp":6,"wdir":0,"wspd":0,"visib":"10+","altim":1010.9,"qcField":0,"metarType":"METAR","rawOb":"METAR KIFP 101452Z 00000KT 10SM CLR 23/06 A2985","lat":35.1487,"lon":-114.5611,"elev":210,"name":"Bullhead City Intl, AZ, US","cover":"CLR","clouds":[],"fltCat":"VFR"},{"icaoId":"KSAD","receiptTime":"2026-04-10T14:54:07.975Z","obsTime":1775832660,"reportTime":"2026-04-10T15:00:00.000Z","temp":18.9,"dewp":-4.4,"wdir":100,"wspd":3,"visib":"10+","altim":1016.3,"slp":1011.8,"qcField":6,"presTend":1.7,"metarType":"METAR","rawOb":"METAR KSAD 101451Z AUTO 10003KT 10SM CLR 19/M04 A3001 RMK AO2 SLP118 T01891044 51017","lat":32.8565,"lon":-109.636,"elev":937,"name":"Safford Rgnl, AZ, US","cover":"CLR","clouds":[],"fltCat":"VFR"},{"icaoId":"KPHX","receiptTime":"2026-04-10T14:54:07.799Z","obsTime":1775832660,"reportTime":"2026-04-10T15:00:00.000Z","temp":23.9,"dewp":1.1,"wdir":110,"wspd":7,"visib":"10+","altim":1012.6,"slp":1010.7,"qcField":4,"presTend":1.8,"metarType":"METAR","rawOb":"METAR KPHX 101451Z 11007KT 10SM BKN250 BKN290 24/01 A2990 RMK AO2 SLP107 T02390011 53018","lat":33.4278,"lon":-112.0037,"elev":338,"name":"Phoenix/Sky Harbor Intl, AZ, US","cover":"BKN","clouds":[{"cover":"BKN","base":25000},{"cover":"BKN","base":29000}],"fltCat":"VFR"},{"icaoId":"KIGM","receiptTime":"2026-04-10T14:54:07.452Z","obsTime":1775832660,"reportTime":"2026-04-10T15:00:00.000Z","temp":18.9,"dewp":2.8,"wdir":150,"wspd":7,"visib":"10+","altim":1015,"slp":1008.8,"qcField":6,"presTend":1.2,"metarType":"METAR","rawOb":"METAR KIGM 101451Z AUTO 15007KT 10SM CLR 19/03 A2997 RMK AO2 SLP088 T01890028 53012","lat":35.2575,"lon":-113.9341,"elev":1045,"name":"Kingman Arpt, AZ, US","cover":"CLR","clouds":[],"fltCat":"VFR"},{"icaoId":"KCHD","receiptTime":"2026-04-10T14:47:51.358Z","obsTime":1775832420,"reportTime":"2026-04-10T15:00:00.000Z","temp":22,"dewp":6,"wdir":"VRB","wspd":3,"visib":"10+","altim":1013.3,"qcField":0,"metarType":"METAR","rawOb":"METAR KCHD 101447Z VRB03KT 10SM FEW250 22/06 A2992","lat":33.2669,"lon":-111.8086,"elev":378,"name":"Chandler Muni, AZ, US","cover":"FEW","clouds":[{"cover":"FEW","base":25000}],"fltCat":"VFR"},{"icaoId":"KGYR","receiptTime":"2026-04-10T14:47:51.409Z","obsTime":1775832420,"reportTime":"2026-04-10T15:00:00.000Z","temp":22,"dewp":2,"wdir":0,"wspd":0,"visib":"10+","altim":1013,"qcField":0,"metarType":"METAR","rawOb":"METAR KGYR 101447Z 00000KT 10SM BKN250 22/02 A2991","lat":33.428,"lon":-112.368,"elev":292,"name":"Phoenix/Goodyear Muni, AZ, US","cover":"BKN","clouds":[{"cover":"BKN","base":25000}],"fltCat":"VFR"},{"icaoId":"KGEU","receiptTime":"2026-04-10T14:51:25.652Z","obsTime":1775832420,"reportTime":"2026-04-10T15:00:00.000Z","temp":22,"dewp":1,"wdir":0,"wspd":0,"visib":"10+","altim":1012.3,"qcField":0,"metarType":"METAR","rawOb":"METAR KGEU 101447Z 00000KT 10SM CLR 22/01 A2989","lat":33.528,"lon":-112.293,"elev":319,"name":"Glendale Muni, AZ, US","cover":"CLR","clouds":[],"fltCat":"VFR"},{"icaoId":"KRYN","receiptTime":"2026-04-10T14:46:23.243Z","obsTime":1775832300,"reportTime":"2026-04-10T15:00:00.000Z","temp":19,"dewp":-3,"wdir":260,"wspd":4,"visib":"10+","altim":1015,"qcField":0,"metarType":"METAR","rawOb":"METAR KRYN 101445Z 26004KT 10SM CLR 19/M03 A2997","lat":32.1418,"lon":-111.1767,"elev":731,"name":"Tucson/Ryan Fld, AZ, US","cover":"CLR","clouds":[],"fltCat":"VFR"}]