[{"icaoId":"KHII","receiptTime":"2026-04-07T09:42:04.268Z","obsTime":1775554500,"reportTime":"2026-04-07T09:35:00.000Z","temp":21,"dewp":-5,"wdir":0,"wspd":0,"visib":"10+","altim":1011.3,"qcField":6,"metarType":"METAR","rawOb":"METAR KHII 070935Z AUTO 00000KT 10SM CLR 21/M05 A2986 RMK AO2","lat":34.5659,"lon":-114.3522,"elev":241,"name":"Lake Havasu City Arpt, AZ, US","cover":"CLR","clouds":[],"fltCat":"VFR"},{"icaoId":"KSEZ","receiptTime":"2026-04-07T09:40:08.958Z","obsTime":1775554500,"reportTime":"2026-04-07T09:35:00.000Z","temp":12,"dewp":4,"wdir":40,"wspd":9,"wgst":15,"visib":"10+","altim":1018.7,"qcField":6,"metarType":"METAR","rawOb":"METAR KSEZ 070935Z AUTO 04009G15KT 10SM CLR 12/04 A3008 RMK AO2","lat":34.8467,"lon":-111.7884,"elev":1455,"name":"Sedona Arpt, AZ, US","cover":"CLR","clouds":[],"fltCat":"VFR"},{"icaoId":"KCHD","receiptTime":"2026-04-07T09:36:21.539Z","obsTime":1775554500,"reportTime":"2026-04-07T09:35:00.000Z","temp":19.8,"dewp":7.8,"wdir":360,"wspd":4,"visib":3,"altim":1013,"qcField":6,"wxString":"HZ","metarType":"METAR","rawOb":"METAR KCHD 070935Z AUTO 36004KT 3SM HZ CLR 20/08 A2991 RMK AO2 T01980078","lat":33.2669,"lon":-111.8086,"elev":378,"name":"Chandler Muni, AZ, US","cover":"CLR","clouds":[],"fltCat":"MVFR"},{"icaoId":"KIWA","receiptTime":"2026-04-07T09:40:10.332Z","obsTime":1775554500,"reportTime":"2026-04-07T09:35:00.000Z","temp":18.8,"dewp":7.2,"wdir":350,"wspd":5,"visib":"10+","altim":1013.3,"qcField":6,"metarType":"METAR","rawOb":"METAR KIWA 070935Z AUTO 35005KT 10SM CLR 19/07 A2992 RMK AO2 T01880072","lat":33.3008,"lon":-111.6437,"elev":420,"name":"Phoenix/Mesa Gateway Arpt, AZ, US","cover":"CLR","clouds":[],"fltCat":"VFR"},{"icaoId":"KIFP","receiptTime":"2026-04-07T09:40:10.146Z","obsTime":1775554500,"reportTime":"2026-04-07T09:35:00.000Z","temp":20,"dewp":-6,"wdir":0,"wspd":0,"visib":"10+","altim":1011.3,"qcField":6,"metarType":"METAR","rawOb":"METAR KIFP 070935Z AUTO 00000KT 10SM CLR 20/M06 A2986 RMK AO2","lat":35.1487,"lon":-114.5611,"elev":210,"name":"Bullhead City Intl, AZ, US","cover":"CLR","clouds":[],"fltCat":"VFR"},{"icaoId":"KSOW","receiptTime":"2026-04-07T09:36:20.804Z","obsTime":1775554500,"reportTime":"2026-04-07T09:35:00.000Z","temp":6,"dewp":6,"wdir":0,"wspd":0,"visib":"10+","altim":1020.1,"qcField":6,"metarType":"METAR","rawOb":"METAR KSOW 070935Z AUTO 00000KT 10SM CLR 06/06 A3012 RMK AO2","lat":34.2686,"lon":-110.0019,"elev":1954,"name":"Show Low Muni, AZ, US","cover":"CLR","clouds":[],"fltCat":"VFR"},{"icaoId":"KNYL","receiptTime":"2026-04-07T09:00:22.088Z","obsTime":1775552220,"reportTime":"2026-04-07T09:00:00.000Z","temp":20,"dewp":6.1,"wdir":0,"wspd":0,"visib":"10+","altim":1011.3,"slp":1010.9,"qcField":6,"presTend":0.3,"metarType":"METAR","rawOb":"METAR KNYL 070857Z AUTO 00000KT 10SM CLR 20/06 A2986 RMK AO2 SLP109 T02000061 50003","lat":32.66,"lon":-114.6078,"elev":58,"name":"Yuma , AZ, US","cover":"CLR","clouds":[],"fltCat":"VFR"},{"icaoId":"KFLG","receiptTime":"2026-04-07T09:00:21.998Z","obsTime":1775552220,"reportTime":"2026-04-07T09:00:00.000Z","temp":1.7,"dewp":1.1,"wdir":0,"wspd":0,"visib":"10+","altim":1021.1,"slp":1015.7,"qcField":6,"presTend":-0.1,"metarType":"METAR","rawOb":"METAR KFLG 070857Z AUTO 00000KT 10SM CLR 02/01 A3015 RMK AO2 SLP157 T00170011 58001","lat":35.1443,"lon":-111.6664,"elev":2134,"name":"Flagstaff/Pulliam Arpt, AZ, US","cover":"CLR","clouds":[],"fltCat":"VFR"},{"icaoId":"KINW","receiptTime":"2026-04-07T09:00:11.496Z","obsTime":1775552160,"reportTime":"2026-04-07T09:00:00.000Z","temp":10,"dewp":9.4,"wdir":200,"wspd":5,"visib":"10+","altim":1019,"slp":1014.8,"qcField":6,"presTend":-0.7,"precip":0.005,"pcp3hr":0.01,"metarType":"METAR","rawOb":"METAR KINW 070856Z AUTO 20005KT 10SM FEW055 OVC100 10/09 A3009 RMK AO2 RAE09 SLP148 P0000 60001 T01000094 58007","lat":35.0279,"lon":-110.7221,"elev":1492,"name":"Winslow/Lindberg Rgnl, AZ, US","cover":"OVC","clouds":[{"cover":"FEW","base":5500},{"cover":"OVC","base":10000}],"fltCat":"VFR"},{"icaoId":"KCGZ","receiptTime":"2026-04-07T08:58:22.417Z","obsTime":1775552160,"reportTime":"2026-04-07T09:00:00.000Z","temp":18.9,"dewp":6.7,"wdir":20,"wspd":5,"visib":"10+","altim":1013.3,"slp":1012.2,"qcField":14,"presTend":-0.1,"metarType":"METAR","rawOb":"METAR KCGZ 070856Z AUTO 02005KT 10SM CLR 19/07 A2992 RMK AO2 SLP122 T01890067 58001 $","lat":32.9531,"lon":-111.7725,"elev":444,"name":"Casa Granda Muni, AZ, US","cover":"CLR","clouds":[],"fltCat":"VFR"},{"icaoId":"KDUG","receiptTime":"2026-04-07T09:02:16.049Z","obsTime":1775552160,"reportTime":"2026-04-07T09:00:00.000Z","temp":8.9,"dewp":2.8,"wdir":360,"wspd":7,"visib":"10+","altim":1016,"slp":1011.8,"qcField":38,"presTend":-0.4,"metarType":"METAR","rawOb":"METAR KDUG 070856Z AUTO 36007KT 10SM CLR 09/03 A3000 RMK AO2 SLP118 T00890028 56004 TSNO","lat":31.4725,"lon":-109.6022,"elev":1260,"name":"Douglas/Bisbee Intl, AZ, US","cover":"CLR","clouds":[],"fltCat":"VFR"},{"icaoId":"KSJN","receiptTime":"2026-04-07T08:58:06.367Z","obsTime":1775552040,"reportTime":"2026-04-07T09:00:00.000Z","temp":8.3,"dewp":6.1,"wdir":0,"wspd":0,"visib":"10+","altim":1019,"slp":1013.2,"qcField":6,"presTend":-1.1,"precip":0.005,"pcp3hr":0.01,"metarType":"METAR","rawOb":"METAR KSJN 070854Z AUTO 00000KT 10SM OVC031 08/06 A3009 RMK AO2 RAE05 SLP132 P0000 60001 T00830061 58011","lat":34.5184,"lon":-109.3801,"elev":1747,"name":"St Johns Ind Arpt, AZ, US","cover":"OVC","clouds":[{"cover":"OVC","base":3100}],"fltCat":"VFR"},{"icaoId":"KOLS","receiptTime":"2026-04-07T08:58:14.237Z","obsTime":1775552040,"reportTime":"2026-04-07T09:00:00.000Z","temp":12.2,"dewp":0.6,"wdir":20,"wspd":3,"visib":"10+","altim":1016,"slp":1010.7,"qcField":6,"metarType":"METAR","rawOb":"METAR KOLS 070854Z AUTO 02003KT 10SM CLR 12/01 A3000 RMK AO2 SLP107 T01220006 50000","lat":31.4208,"lon":-110.8465,"elev":1194,"name":"Nogales Intl, AZ, US","cover":"CLR","clouds":[],"fltCat":"VFR"},{"icaoId":"KFFZ","receiptTime":"2026-04-07T08:58:04.809Z","obsTime":1775552040,"reportTime":"2026-04-07T09:00:00.000Z","temp":20,"dewp":7.8,"wdir":0,"wspd":0,"visib":"10+","altim":1013,"slp":1010.9,"qcField":4,"presTend":0.2,"metarType":"METAR","rawOb":"METAR KFFZ 070854Z 00000KT 10SM CLR 20/08 A2991 RMK AO2 SLP109 T02000078 50002","lat":33.4659,"lon":-111.7212,"elev":420,"name":"Mesa/Falcon Fld, AZ, US","cover":"CLR","clouds":[],"fltCat":"VFR"},{"icaoId":"KGCN","receiptTime":"2026-04-07T08:58:09.000Z","obsTime":1775552040,"reportTime":"2026-04-07T09:00:00.000Z","temp":1.1,"dewp":0.6,"wdir":0,"wspd":0,"visib":"10+","altim":1021.1,"slp":1016.8,"qcField":6,"presTend":-0.2,"metarType":"METAR","rawOb":"METAR KGCN 070854Z AUTO 00000KT 10SM CLR 01/01 A3015 RMK AO2 SLP168 T00110006 58002","lat":35.9458,"lon":-112.1554,"elev":1993,"name":"Grand Canyon Park Arpt, AZ, US","cover":"CLR","clouds":[],"fltCat":"VFR"},{"icaoId":"KPGA","receiptTime":"2026-04-07T08:56:36.629Z","obsTime":1775551980,"reportTime":"2026-04-07T09:00:00.000Z","temp":14.4,"dewp":2.2,"wdir":170,"wspd":3,"visib":"10+","altim":1017,"slp":1012.1,"qcField":14,"presTend":0.1,"metarType":"METAR","rawOb":"METAR KPGA 070853Z AUTO 17003KT 10SM CLR 14/02 A3003 RMK AO2 SLP121 T01440022 53001 $","lat":36.9211,"lon":-111.4487,"elev":1310,"name":"Page Muni, AZ, US","cover":"CLR","clouds":[],"fltCat":"VFR"},{"icaoId":"KTUS","receiptTime":"2026-04-07T08:56:36.202Z","obsTime":1775551980,"reportTime":"2026-04-07T09:00:00.000Z","temp":17.2,"dewp":4.4,"wdir":200,"wspd":4,"visib":"10+","altim":1014.6,"slp":1011,"qcField":4,"presTend":0.3,"metarType":"METAR","rawOb":"METAR KTUS 070853Z 20004KT 10SM BKN110 17/04 A2996 RMK AO2 SLP110 T01720044 50003","lat":32.1315,"lon":-110.9564,"elev":776,"name":"Tucson Intl Arpt, AZ, US","cover":"BKN","clouds":[{"cover":"BKN","base":11000}],"fltCat":"VFR"},{"icaoId":"KPRC","receiptTime":"2026-04-07T08:56:36.859Z","obsTime":1775551980,"reportTime":"2026-04-07T09:00:00.000Z","temp":6.7,"dewp":1.7,"wdir":210,"wspd":3,"visib":"10+","altim":1019,"slp":1013.8,"qcField":6,"metarType":"METAR","rawOb":"METAR KPRC 070853Z AUTO 21003KT 10SM CLR 07/02 A3009 RMK AO2 SLP138 T00670017 58000","lat":34.6491,"lon":-112.4223,"elev":1528,"name":"Prescott/Love Fld, AZ, US","cover":"CLR","clouds":[],"fltCat":"VFR"},{"icaoId":"KSDL","receiptTime":"2026-04-07T08:56:32.165Z","obsTime":1775551980,"reportTime":"2026-04-07T09:00:00.000Z","temp":18.9,"dewp":6.7,"wdir":0,"wspd":0,"visib":"10+","altim":1013.6,"slp":1011.3,"qcField":6,"presTend":0.2,"metarType":"METAR","rawOb":"METAR KSDL 070853Z AUTO 00000KT 10SM CLR 19/07 A2993 RMK AO2 SLP113 T01890067 50002","lat":33.6123,"lon":-111.9232,"elev":438,"name":"Scottsdale Muni, AZ, US","cover":"CLR","clouds":[],"fltCat":"VFR"},{"icaoId":"KDVT","receiptTime":"2026-04-07T08:56:38.483Z","obsTime":1775551980,"reportTime":"2026-04-07T09:00:00.000Z","temp":19.4,"dewp":6.1,"wdir":70,"wspd":5,"visib":"10+","altim":1013.3,"slp":1011.2,"qcField":6,"metarType":"METAR","rawOb":"METAR KDVT 070853Z AUTO 07005KT 10SM CLR 19/06 A2992 RMK AO2 SLP112 T01940061 50000","lat":33.6902,"lon":-112.0662,"elev":454,"name":"Phoenix/Deer Valley Arpt, AZ, US","cover":"CLR","clouds":[],"fltCat":"VFR"},{"icaoId":"KPHX","receiptTime":"2026-04-07T08:54:08.180Z","obsTime":1775551860,"reportTime":"2026-04-07T09:00:00.000Z","temp":21.1,"dewp":7.8,"wdir":100,"wspd":3,"visib":"10+","altim":1012.3,"slp":1010.8,"qcField":4,"presTend":-0.2,"metarType":"METAR","rawOb":"METAR KPHX 070851Z 10003KT 10SM CLR 21/08 A2989 RMK AO2 SLP108 T02110078 58002","lat":33.4278,"lon":-112.0037,"elev":338,"name":"Phoenix/Sky Harbor Intl, AZ, US","cover":"CLR","clouds":[],"fltCat":"VFR"},{"icaoId":"KSAD","receiptTime":"2026-04-07T08:54:06.800Z","obsTime":1775551860,"reportTime":"2026-04-07T09:00:00.000Z","temp":15.6,"dewp":6.1,"wdir":0,"wspd":0,"visib":"10+","altim":1015,"slp":1011.6,"qcField":6,"presTend":-0.6,"metarType":"METAR","rawOb":"METAR KSAD 070851Z AUTO 00000KT 10SM FEW110 16/06 A2997 RMK AO2 SLP116 T01560061 58006","lat":32.8565,"lon":-109.636,"elev":937,"name":"Safford Rgnl, AZ, US","cover":"FEW","clouds":[{"cover":"FEW","base":11000}],"fltCat":"VFR"},{"icaoId":"KIGM","receiptTime":"2026-04-07T08:54:08.002Z","obsTime":1775551860,"reportTime":"2026-04-07T09:00:00.000Z","temp":14.4,"dewp":0,"wdir":140,"wspd":10,"visib":"10+","altim":1016,"slp":1010.1,"qcField":6,"presTend":0.1,"metarType":"METAR","rawOb":"METAR KIGM 070851Z AUTO 14010KT 10SM CLR 14/00 A3000 RMK AO2 SLP101 T01440000 50001","lat":35.2575,"lon":-113.9341,"elev":1045,"name":"Kingman Arpt, AZ, US","cover":"CLR","clouds":[],"fltCat":"VFR"}]