[{"icaoId":"KPNC","receiptTime":"2026-04-18T00:52:05.601Z","obsTime":1776473280,"reportTime":"2026-04-18T00:48:00.000Z","temp":14,"dewp":13,"wdir":210,"wspd":3,"visib":"10+","altim":1006.2,"qcField":6,"precip":1.07,"metarType":"SPECI","rawOb":"SPECI KPNC 180048Z AUTO 21003KT 10SM BKN075 BKN090 BKN110 14/13 A2971 RMK AO2 PK WND 30046/0003 WSHFT 2357 LTG DSNT NE AND E RAB02E39 TSE35 P0107","lat":36.7369,"lon":-97.1024,"elev":304,"name":"Ponca City Rgnl, OK, US","cover":"BKN","clouds":[{"cover":"BKN","base":7500},{"cover":"BKN","base":9000},{"cover":"BKN","base":11000}],"fltCat":"VFR"},{"icaoId":"KIWA","receiptTime":"2026-04-18T00:49:01.001Z","obsTime":1776473280,"reportTime":"2026-04-18T01:00:00.000Z","temp":28,"dewp":-1,"wdir":300,"wspd":9,"wgst":15,"visib":"10+","altim":1010.9,"qcField":0,"metarType":"METAR","rawOb":"METAR KIWA 180048Z 30009G15KT 10SM CLR 28/M01 A2985","lat":33.3008,"lon":-111.6437,"elev":420,"name":"Phoenix/Mesa Gateway Arpt, AZ, US","cover":"CLR","clouds":[],"fltCat":"VFR"},{"icaoId":"KIFP","receiptTime":"2026-04-18T00:48:30.999Z","obsTime":1776473220,"reportTime":"2026-04-18T01:00:00.000Z","temp":23,"dewp":-17,"wdir":330,"wspd":23,"visib":20,"altim":1013.3,"qcField":0,"metarType":"METAR","rawOb":"METAR KIFP 180047Z 33023KT 20SM CLR 23/M17 A2992","lat":35.1487,"lon":-114.5611,"elev":210,"name":"Bullhead City Intl, AZ, US","cover":"CLR","clouds":[],"fltCat":"VFR"},{"icaoId":"KSUN","receiptTime":"2026-04-18T00:48:01.253Z","obsTime":1776473220,"reportTime":"2026-04-18T01:00:00.000Z","temp":6,"dewp":-12,"wdir":290,"wspd":10,"visib":"10+","altim":1020.7,"qcField":0,"metarType":"METAR","rawOb":"METAR KSUN 180047Z 29010KT 10SM CLR 06/M12 A3014","lat":43.4969,"lon":-114.2923,"elev":1619,"name":"Hailey/Friedman Mem, ID, US","cover":"CLR","clouds":[],"fltCat":"VFR"},{"icaoId":"KGYR","receiptTime":"2026-04-18T00:49:00.769Z","obsTime":1776473220,"reportTime":"2026-04-18T01:00:00.000Z","temp":29,"dewp":-2,"wdir":240,"wspd":14,"visib":"10+","altim":1010.2,"qcField":0,"metarType":"METAR","rawOb":"METAR KGYR 180047Z 24014KT 10SM SKC 29/M02 A2983","lat":33.428,"lon":-112.368,"elev":292,"name":"Phoenix/Goodyear Muni, AZ, US","cover":"SKC","clouds":[],"fltCat":"VFR"},{"icaoId":"KCHD","receiptTime":"2026-04-18T00:48:00.890Z","obsTime":1776473220,"reportTime":"2026-04-18T01:00:00.000Z","temp":28,"dewp":-1,"wdir":260,"wspd":10,"visib":"10+","altim":1010.6,"qcField":0,"metarType":"METAR","rawOb":"METAR KCHD 180047Z 26010KT 10SM CLR 28/M01 A2984","lat":33.2669,"lon":-111.8086,"elev":378,"name":"Chandler Muni, AZ, US","cover":"CLR","clouds":[],"fltCat":"VFR"},{"icaoId":"KRYN","receiptTime":"2026-04-18T00:45:58.853Z","obsTime":1776473100,"reportTime":"2026-04-18T01:00:00.000Z","temp":27,"dewp":-4,"wdir":320,"wspd":10,"wgst":16,"visib":"10+","altim":1011.3,"qcField":0,"metarType":"METAR","rawOb":"METAR KRYN 180045Z 32010G16KT 10SM CLR 27/M04 A2986","lat":32.1418,"lon":-111.1767,"elev":731,"name":"Tucson/Ryan Fld, AZ, US","cover":"CLR","clouds":[],"fltCat":"VFR"},{"icaoId":"KRIW","receiptTime":"2026-04-18T00:42:11.450Z","obsTime":1776472740,"reportTime":"2026-04-18T00:39:00.000Z","temp":3.3,"dewp":-14.4,"wdir":40,"wspd":14,"wgst":23,"visib":"10+","altim":1017,"qcField":6,"metarType":"SPECI","rawOb":"SPECI KRIW 180039Z AUTO 04014G23KT 10SM BKN090 OVC120 03/M14 A3003 RMK AO2 WSHFT 0019 T00331144","lat":43.0622,"lon":-108.4471,"elev":1662,"name":"Riverton Rgnl, WY, US","cover":"OVC","clouds":[{"cover":"BKN","base":9000},{"cover":"OVC","base":12000}],"fltCat":"VFR"},{"icaoId":"KMCI","receiptTime":"2026-04-18T00:40:14.259Z","obsTime":1776472560,"reportTime":"2026-04-18T00:36:00.000Z","temp":13.3,"dewp":7.8,"wdir":340,"wspd":12,"wgst":21,"visib":"10+","altim":1007.2,"qcField":4,"precip":0.01,"metarType":"SPECI","rawOb":"SPECI KMCI 180036Z 34012G21KT 10SM SCT050 BKN110 OVC200 13/08 A2974 RMK AO2 RAE20 TSB00E30 OCNL LTGIC DSNT E CB DSNT E P0001 T01330078","lat":39.2975,"lon":-94.7309,"elev":308,"name":"Kansas City Intl, MO, US","cover":"OVC","clouds":[{"cover":"SCT","base":5000},{"cover":"BKN","base":11000},{"cover":"OVC","base":20000}],"fltCat":"VFR"},{"icaoId":"KLRU","receiptTime":"2026-04-18T00:38:49.576Z","obsTime":1776472500,"reportTime":"2026-04-18T00:35:00.000Z","temp":23.9,"dewp":-5.8,"wdir":270,"wspd":19,"wgst":25,"visib":"10+","altim":1013,"qcField":6,"metarType":"METAR","rawOb":"METAR KLRU 180035Z AUTO 27019G25KT 10SM CLR 24/M06 A2991 RMK AO2 T02391058","lat":32.2884,"lon":-106.9131,"elev":1355,"name":"Las Cruces Intl, NM, US","cover":"CLR","clouds":[],"fltCat":"VFR"},{"icaoId":"KSEZ","receiptTime":"2026-04-18T00:40:14.746Z","obsTime":1776472500,"reportTime":"2026-04-18T00:35:00.000Z","temp":20,"dewp":-11,"wdir":280,"wspd":7,"visib":"10+","altim":1015.7,"qcField":6,"metarType":"METAR","rawOb":"METAR KSEZ 180035Z AUTO 28007KT 10SM CLR 20/M11 A2999 RMK AO2","lat":34.8467,"lon":-111.7884,"elev":1455,"name":"Sedona Arpt, AZ, US","cover":"CLR","clouds":[],"fltCat":"VFR"},{"icaoId":"KHOB","receiptTime":"2026-04-18T00:38:48.671Z","obsTime":1776472500,"reportTime":"2026-04-18T00:35:00.000Z","temp":28,"dewp":-10,"wdir":270,"wspd":18,"wgst":26,"visib":"10+","altim":1009.2,"qcField":6,"metarType":"METAR","rawOb":"METAR KHOB 180035Z AUTO 27018G26KT 10SM CLR 28/M10 A2980 RMK AO2","lat":32.6797,"lon":-103.2222,"elev":1112,"name":"Hobbs Arpt, NM, US","cover":"CLR","clouds":[],"fltCat":"VFR"},{"icaoId":"KCXP","receiptTime":"2026-04-18T00:40:14.595Z","obsTime":1776472500,"reportTime":"2026-04-18T00:35:00.000Z","temp":13,"dewp":-19,"wdir":60,"wspd":10,"visib":"10+","altim":1019.7,"qcField":6,"metarType":"METAR","rawOb":"METAR KCXP 180035Z AUTO 06010KT 10SM CLR 13/M19 A3011 RMK AO2","lat":39.1905,"lon":-119.7319,"elev":1431,"name":"Carson City Arpt, NV, US","cover":"CLR","clouds":[],"fltCat":"VFR"},{"icaoId":"KRTS","receiptTime":"2026-04-18T00:40:06.520Z","obsTime":1776472500,"reportTime":"2026-04-18T00:35:00.000Z","temp":12,"dewp":-21,"wdir":130,"wspd":9,"visib":"10+","altim":1019.7,"qcField":6,"metarType":"METAR","rawOb":"METAR KRTS 180035Z AUTO 13009KT 10SM 12/M21 A3011 RMK AO2","lat":39.6658,"lon":-119.8731,"elev":1537,"name":"Reno/Stead Arpt, NV, US"},{"icaoId":"KMEV","receiptTime":"2026-04-18T00:40:14.696Z","obsTime":1776472500,"reportTime":"2026-04-18T00:35:00.000Z","temp":14,"dewp":-17,"wdir":330,"wspd":8,"visib":"10+","altim":1019,"qcField":6,"metarType":"METAR","rawOb":"METAR KMEV 180035Z AUTO 33008KT 10SM CLR 14/M17 A3009 RMK AO2","lat":38.9963,"lon":-119.75,"elev":1437,"name":"Minden-Tahoe Arpt, NV, US","cover":"CLR","clouds":[],"fltCat":"VFR"},{"icaoId":"KHCR","receiptTime":"2026-04-18T00:38:51.634Z","obsTime":1776472500,"reportTime":"2026-04-18T00:35:00.000Z","temp":5.5,"dewp":-13.8,"wdir":310,"wspd":8,"visib":"10+","altim":1021.1,"qcField":14,"metarType":"METAR","rawOb":"METAR KHCR 180035Z AUTO 31008KT 10SM CLR 05/M14 A3015 RMK AO2 T00551138 $","lat":40.4774,"lon":-111.4329,"elev":1708,"name":"Heber City Muni, UT, US","cover":"CLR","clouds":[],"fltCat":"VFR"},{"icaoId":"KBVU","receiptTime":"2026-04-18T00:36:02.918Z","obsTime":1776472500,"reportTime":"2026-04-18T00:35:00.000Z","temp":19,"dewp":-24,"wdir":20,"wspd":7,"wgst":14,"visib":"10+","altim":1016.7,"qcField":6,"metarType":"METAR","rawOb":"METAR KBVU 180035Z AUTO 02007G14KT 10SM CLR 19/M24 A3002 RMK AO2","lat":35.9489,"lon":-114.8633,"elev":654,"name":"Boulder City Muni, NV, US","cover":"CLR","clouds":[],"fltCat":"VFR"},{"icaoId":"KHAF","receiptTime":"2026-04-18T00:38:51.596Z","obsTime":1776472500,"reportTime":"2026-04-18T00:35:00.000Z","temp":16,"dewp":7,"wdir":340,"wspd":12,"visib":9,"altim":1017.4,"qcField":6,"metarType":"METAR","rawOb":"METAR KHAF 180035Z AUTO 34012KT 9SM CLR 16/07 A3004 RMK AO2","lat":37.5136,"lon":-122.4996,"elev":11,"name":"Half Moon Bay Arpt, CA, US","cover":"CLR","clouds":[],"fltCat":"VFR"},{"icaoId":"KHTH","receiptTime":"2026-04-18T00:40:03.522Z","obsTime":1776472500,"reportTime":"2026-04-18T00:35:00.000Z","temp":15,"dewp":-18,"wdir":"VRB","wspd":4,"wgst":10,"visib":"10+","altim":1019.4,"qcField":6,"metarType":"METAR","rawOb":"METAR KHTH 180035Z AUTO VRB04G10KT 10SM CLR 15/M18 A3010 RMK A01","lat":38.5448,"lon":-118.6314,"elev":1281,"name":"Hawthorne Muni, NV, US","cover":"CLR","clouds":[],"fltCat":"VFR"},{"icaoId":"KSOW","receiptTime":"2026-04-18T00:38:45.011Z","obsTime":1776472500,"reportTime":"2026-04-18T00:35:00.000Z","temp":15,"dewp":-8,"wdir":320,"wspd":7,"wgst":14,"visib":"10+","altim":1018.4,"qcField":6,"metarType":"METAR","rawOb":"METAR KSOW 180035Z AUTO 32007G14KT 10SM CLR 15/M08 A3007 RMK AO2","lat":34.2686,"lon":-110.0019,"elev":1954,"name":"Show Low Muni, AZ, US","cover":"CLR","clouds":[],"fltCat":"VFR"},{"icaoId":"KHII","receiptTime":"2026-04-18T00:40:15.460Z","obsTime":1776472500,"reportTime":"2026-04-18T00:35:00.000Z","temp":25,"dewp":-15,"wdir":340,"wspd":16,"wgst":24,"visib":"10+","altim":1013,"qcField":6,"metarType":"METAR","rawOb":"METAR KHII 180035Z AUTO 34016G24KT 10SM CLR 25/M15 A2991 RMK AO2","lat":34.5659,"lon":-114.3522,"elev":241,"name":"Lake Havasu City Arpt, AZ, US","cover":"CLR","clouds":[],"fltCat":"VFR"},{"icaoId":"KMHR","receiptTime":"2026-04-18T00:40:14.726Z","obsTime":1776472500,"reportTime":"2026-04-18T00:35:00.000Z","temp":23,"dewp":-2,"wdir":170,"wspd":7,"visib":"10+","altim":1015.3,"qcField":6,"metarType":"METAR","rawOb":"METAR KMHR 180035Z AUTO 17007KT 10SM CLR 23/M02 A2998 RMK AO2","lat":38.56,"lon":-121.284,"elev":30,"name":"Sacramento/Mather Fld, CA, US","cover":"CLR","clouds":[],"fltCat":"VFR"},{"icaoId":"KLUF","receiptTime":"2026-04-18T00:38:07.694Z","obsTime":1776472260,"reportTime":"2026-04-18T00:31:00.000Z","temp":30,"dewp":-4,"wdir":230,"wspd":16,"wgst":22,"visib":"10+","altim":1009.2,"slp":1008,"qcField":14,"metarType":"SPECI","rawOb":"SPECI KLUF 180031Z AUTO 23016G22KT 10SM CLR 30/M04 A2980 RMK AO2 WSHFT 29 SLP080 $","lat":33.538,"lon":-112.38,"elev":333,"name":"Phoenix/Luke AFB, AZ, US","cover":"CLR","clouds":[],"fltCat":"VFR"},{"icaoId":"KPUB","receiptTime":"2026-04-18T00:22:16.164Z","obsTime":1776471540,"reportTime":"2026-04-18T00:19:00.000Z","temp":2.8,"dewp":-1.7,"wdir":10,"wspd":8,"visib":"10+","altim":1018.7,"qcField":12,"precip":0.005,"metarType":"SPECI","rawOb":"SPECI KPUB 180019Z 01008KT 10SM OVC034 03/M02 A3008 RMK AO2 SNE01 P0000 T00281017 $","lat":38.2887,"lon":-104.5057,"elev":1441,"name":"Pueblo Mem Arpt, CO, US","cover":"OVC","clouds":[{"cover":"OVC","base":3400}],"fltCat":"VFR"},{"icaoId":"KAPA","receiptTime":"2026-04-18T00:16:06.666Z","obsTime":1776471180,"reportTime":"2026-04-18T00:13:00.000Z","temp":-0.6,"dewp":-3.9,"wdir":20,"wspd":4,"visib":"10+","altim":1018.4,"qcField":4,"metarType":"SPECI","rawOb":"SPECI KAPA 180013Z 02004KT 10SM FEW015 SCT023 SCT040 M01/M04 A3007 RMK AO2 T10061039","lat":39.5599,"lon":-104.8484,"elev":1791,"name":"Denver/Centennial Arpt, CO, US","cover":"SCT","clouds":[{"cover":"FEW","base":1500},{"cover":"SCT","base":2300},{"cover":"SCT","base":4000}],"fltCat":"VFR"},{"icaoId":"KNFL","receiptTime":"2026-04-18T00:00:18.210Z","obsTime":1776470220,"reportTime":"2026-04-18T00:00:00.000Z","temp":14.4,"dewp":-19.4,"visib":"10+","altim":1019.7,"slp":1016.3,"qcField":4,"presTend":-2.1,"maxT":14.4,"minT":7.2,"metarType":"METAR","rawOb":"METAR KNFL 172357Z 10SM FEW250 14/M19 A3011 RMK AO2 SLP163 CONTRAILS DSNT W T01441194 10144 20072 56021","lat":39.417,"lon":-118.705,"elev":1199,"name":"Fallon , NV, US","cover":"FEW","clouds":[{"cover":"FEW","base":25000}],"fltCat":"VFR"},{"icaoId":"KNYL","receiptTime":"2026-04-18T00:00:18.307Z","obsTime":1776470220,"reportTime":"2026-04-18T00:00:00.000Z","temp":28.3,"dewp":-8.3,"wdir":330,"wspd":13,"wgst":17,"visib":"10+","altim":1011.9,"slp":1011.5,"qcField":4,"presTend":-1.8,"maxT":28.9,"minT":24.4,"metarType":"METAR","rawOb":"METAR KNYL 172357Z 33013G17KT 10SM CLR 28/M08 A2988 RMK AO2 SLP115 T02831083 10289 20244 56018","lat":32.66,"lon":-114.6078,"elev":58,"name":"Yuma , AZ, US","cover":"CLR","clouds":[],"fltCat":"VFR"},{"icaoId":"KFLG","receiptTime":"2026-04-18T00:00:18.081Z","obsTime":1776470220,"reportTime":"2026-04-18T00:00:00.000Z","temp":11.7,"dewp":-13.9,"wdir":70,"wspd":8,"visib":"10+","altim":1018.7,"slp":1014.2,"qcField":4,"presTend":-0.4,"maxT":12.8,"minT":10.6,"metarType":"METAR","rawOb":"METAR KFLG 172357Z 07008KT 10SM CLR 12/M14 A3008 RMK AO2 SLP142 T01171139 10128 20106 56004","lat":35.1443,"lon":-111.6664,"elev":2134,"name":"Flagstaff/Pulliam Arpt, AZ, US","cover":"CLR","clouds":[],"fltCat":"VFR"},{"icaoId":"KLAS","receiptTime":"2026-04-18T00:00:09.091Z","obsTime":1776470160,"reportTime":"2026-04-18T00:00:00.000Z","temp":20,"dewp":-21.7,"wdir":30,"wspd":9,"wgst":20,"visib":"10+","altim":1017.7,"slp":1016.7,"qcField":4,"presTend":-2.5,"maxT":20.6,"minT":15,"metarType":"METAR","rawOb":"METAR KLAS 172356Z 03009G20KT 10SM CLR 20/M22 A3005 RMK AO2 SLP167 T02001217 10206 20150 56025","lat":36.0719,"lon":-115.1634,"elev":662,"name":"Las Vegas/Reid Intl, NV, US","cover":"CLR","clouds":[],"fltCat":"VFR"},{"icaoId":"KTPH","receiptTime":"2026-04-18T00:00:15.428Z","obsTime":1776470160,"reportTime":"2026-04-18T00:00:00.000Z","temp":12.2,"dewp":-26.1,"wdir":200,"wspd":4,"visib":"10+","altim":1020.1,"slp":1019.8,"qcField":6,"presTend":-1.5,"maxT":12.8,"minT":5,"metarType":"METAR","rawOb":"METAR KTPH 172356Z AUTO 20004KT 10SM CLR 12/M26 A3012 RMK AO2 SLP198 T01221261 10128 20050 56015","lat":38.0505,"lon":-117.0906,"elev":1647,"name":"Tonopah Arpt, NV, US","cover":"CLR","clouds":[],"fltCat":"VFR"},{"icaoId":"KCOE","receiptTime":"2026-04-17T23:59:01.181Z","obsTime":1776470160,"reportTime":"2026-04-18T00:00:00.000Z","temp":11.1,"dewp":-2.8,"wdir":260,"wspd":11,"visib":"10+","altim":1022.8,"slp":1025.2,"qcField":14,"presTend":-0.5,"maxT":11.1,"minT":6.1,"metarType":"METAR","rawOb":"METAR KCOE 172356Z AUTO 26011KT 10SM OVC080 11/M03 A3020 RMK AO2 SLP252 6//// T01111028 10111 20061 56005 PNO $","lat":47.7719,"lon":-116.8332,"elev":693,"name":"Coeur DAlene Arpt, ID, US","cover":"OVC","clouds":[{"cover":"OVC","base":8000}],"fltCat":"VFR"},{"icaoId":"KCHS","receiptTime":"2026-04-18T00:00:13.049Z","obsTime":1776470160,"reportTime":"2026-04-18T00:00:00.000Z","temp":25,"dewp":10.6,"wdir":190,"wspd":8,"visib":"10+","altim":1014.6,"slp":1014.3,"qcField":12,"presTend":0.4,"maxT":32.8,"minT":25,"metarType":"METAR","rawOb":"METAR KCHS 172356Z 19008KT 10SM FEW070 25/11 A2996 RMK AO2 SLP143 T02500106 10328 20250 53004 $","lat":32.8995,"lon":-80.0407,"elev":12,"name":"Charleston Intl, SC, US","cover":"FEW","clouds":[{"cover":"FEW","base":7000}],"fltCat":"VFR"},{"icaoId":"KVIS","receiptTime":"2026-04-17T23:58:56.292Z","obsTime":1776470160,"reportTime":"2026-04-18T00:00:00.000Z","temp":24.4,"dewp":1.1,"wdir":200,"wspd":6,"visib":"10+","altim":1016,"slp":1015.8,"qcField":14,"presTend":-1.7,"maxT":24.4,"minT":16.7,"metarType":"METAR","rawOb":"METAR KVIS 172356Z AUTO 20006KT 10SM CLR 24/01 A3000 RMK AO2 SLP158 6//// T02440011 10244 20167 58017 PNO $","lat":36.3135,"lon":-119.3884,"elev":92,"name":"Visalia Muni, CA, US","cover":"CLR","clouds":[],"fltCat":"VFR"},{"icaoId":"KJAC","receiptTime":"2026-04-17T23:58:56.055Z","obsTime":1776470160,"reportTime":"2026-04-18T00:00:00.000Z","temp":-2.2,"dewp":-6.1,"wdir":150,"wspd":9,"visib":"10+","altim":1020.1,"slp":1027,"qcField":4,"wxString":"-SN","presTend":0.6,"maxT":1.1,"minT":-2.8,"precip":0.005,"pcp6hr":0.005,"metarType":"METAR","rawOb":"METAR KJAC 172356Z 15009KT 10SM -SN SCT013 BKN043 OVC060 M02/M06 A3012 RMK AO2 SNB12 SLP270 P0000 60000 T10221061 10011 21028 50006","lat":43.6129,"lon":-110.7366,"elev":1967,"name":"Jackson Hole Arpt, WY, US","cover":"OVC","clouds":[{"cover":"SCT","base":1300},{"cover":"BKN","base":4300},{"cover":"OVC","base":6000}],"fltCat":"VFR"},{"icaoId":"KHDN","receiptTime":"2026-04-17T23:58:55.466Z","obsTime":1776470160,"reportTime":"2026-04-18T00:00:00.000Z","temp":1.1,"dewp":-11.7,"wdir":260,"wspd":13,"wgst":19,"visib":"10+","altim":1020.1,"slp":1022.6,"qcField":70,"presTend":-0.4,"maxT":1.7,"minT":-3.9,"pcp6hr":0.01,"metarType":"METAR","rawOb":"METAR KHDN 172356Z AUTO 26013G19KT 10SM BKN060 BKN070 01/M12 A3012 RMK AO2 SLP226 60001 T00111117 10017 21039 56004 FZRANO","lat":40.4842,"lon":-107.2296,"elev":2012,"name":"Hayden/Yampa Valley Arpt, CO, US","cover":"BKN","clouds":[{"cover":"BKN","base":6000},{"cover":"BKN","base":7000}],"fltCat":"VFR"},{"icaoId":"KSLE","receiptTime":"2026-04-18T00:00:14.990Z","obsTime":1776470160,"reportTime":"2026-04-18T00:00:00.000Z","temp":14.4,"dewp":3.3,"wdir":50,"wspd":9,"visib":"10+","altim":1021.1,"slp":1021.1,"qcField":4,"presTend":-2.2,"maxT":15,"minT":10.6,"metarType":"METAR","rawOb":"METAR KSLE 172356Z 05009KT 10SM CLR 14/03 A3015 RMK AO2 SLP211 T01440033 10150 20106 58022","lat":44.9049,"lon":-123.001,"elev":63,"name":"Salem Muni, OR, US","cover":"CLR","clouds":[],"fltCat":"VFR"},{"icaoId":"KSFO","receiptTime":"2026-04-18T00:00:13.555Z","obsTime":1776470160,"reportTime":"2026-04-18T00:00:00.000Z","temp":18.3,"dewp":1.1,"wdir":280,"wspd":15,"visib":"10+","altim":1017,"slp":1016.9,"qcField":12,"presTend":-0.9,"maxT":21.1,"minT":17.2,"metarType":"METAR","rawOb":"METAR KSFO 172356Z 28015KT 10SM BKN200 18/01 A3003 RMK AO2 SLP169 T01830011 10211 20172 58009 $","lat":37.6196,"lon":-122.3656,"elev":2,"name":"San Francisco Intl, CA, US","cover":"BKN","clouds":[{"cover":"BKN","base":20000}],"fltCat":"VFR"},{"icaoId":"KLWS","receiptTime":"2026-04-18T00:00:13.321Z","obsTime":1776470160,"reportTime":"2026-04-18T00:00:00.000Z","temp":12.2,"dewp":-3.3,"wdir":160,"wspd":4,"visib":"10+","altim":1023.5,"slp":1023.9,"qcField":4,"presTend":-1,"maxT":12.8,"minT":8.9,"metarType":"METAR","rawOb":"METAR KLWS 172356Z 16004KT 10SM CLR 12/M03 A3022 RMK AO2 SLP239 T01221033 10128 20089 57010","lat":46.3746,"lon":-117.0153,"elev":435,"name":"Lewiston/Nez Perce Cnty, ID, US","cover":"CLR","clouds":[],"fltCat":"VFR"},{"icaoId":"KJAX","receiptTime":"2026-04-18T00:00:13.302Z","obsTime":1776470160,"reportTime":"2026-04-18T00:00:00.000Z","temp":26.1,"dewp":11.7,"wdir":130,"wspd":8,"visib":"10+","altim":1015,"slp":1014.8,"qcField":12,"presTend":0.1,"maxT":32.8,"minT":26.1,"metarType":"METAR","rawOb":"METAR KJAX 172356Z 13008KT 10SM FEW050 SCT060 26/12 A2997 RMK AO2 SLP148 FU SCT060 T02610117 10328 20261 53001 $","lat":30.4953,"lon":-81.6937,"elev":8,"name":"Jacksonville Intl, FL, US","cover":"SCT","clouds":[{"cover":"FEW","base":5000},{"cover":"SCT","base":6000}],"fltCat":"VFR"},{"icaoId":"KINW","receiptTime":"2026-04-18T00:00:13.280Z","obsTime":1776470160,"reportTime":"2026-04-18T00:00:00.000Z","temp":16.1,"dewp":-11.7,"wdir":340,"wspd":10,"wgst":26,"visib":"10+","altim":1017.4,"slp":1014.3,"qcField":6,"presTend":-1.2,"maxT":17.2,"minT":13.3,"metarType":"METAR","rawOb":"METAR KINW 172356Z AUTO 34010G26KT 10SM CLR 16/M12 A3004 RMK AO2 PK WND 31026/2353 SLP143 T01611117 10172 20133 56012","lat":35.0279,"lon":-110.7221,"elev":1492,"name":"Winslow/Lindberg Rgnl, AZ, US","cover":"CLR","clouds":[],"fltCat":"VFR"},{"icaoId":"KBZN","receiptTime":"2026-04-18T00:00:13.015Z","obsTime":1776470160,"reportTime":"2026-04-18T00:00:00.000Z","temp":-0.6,"dewp":-2.2,"wdir":70,"wspd":12,"visib":"10+","altim":1019.7,"slp":1023.5,"qcField":4,"presTend":-0.5,"maxT":2.2,"minT":-1.7,"precip":0.005,"pcp6hr":0.02,"metarType":"METAR","rawOb":"METAR KBZN 172356Z 07012KT 10SM FEW017 SCT032 BKN095 M01/M02 A3011 RMK AO2 SNE47 SLP235 P0000 60002 T10061022 10022 21017 58005","lat":45.7876,"lon":-111.1615,"elev":1349,"name":"Bozeman/Gallatin Fld, MT, US","cover":"BKN","clouds":[{"cover":"FEW","base":1700},{"cover":"SCT","base":3200},{"cover":"BKN","base":9500}],"fltCat":"VFR"},{"icaoId":"KSDF","receiptTime":"2026-04-18T00:00:12.439Z","obsTime":1776470160,"reportTime":"2026-04-18T00:00:00.000Z","temp":26.7,"dewp":15,"wdir":170,"wspd":12,"visib":"10+","altim":1010.6,"slp":1010.2,"qcField":4,"presTend":-3.1,"maxT":28.9,"minT":26.1,"metarType":"METAR","rawOb":"METAR KSDF 172356Z 17012KT 10SM FEW060 FEW200 BKN250 27/15 A2984 RMK AO2 SLP102 T02670150 10289 20261 58031","lat":38.1774,"lon":-85.7308,"elev":146,"name":"Louisville Intl, KY, US","cover":"BKN","clouds":[{"cover":"FEW","base":6000},{"cover":"FEW","base":20000},{"cover":"BKN","base":25000}],"fltCat":"VFR"},{"icaoId":"KSBP","receiptTime":"2026-04-18T00:00:12.393Z","obsTime":1776470160,"reportTime":"2026-04-18T00:00:00.000Z","temp":19.4,"dewp":2.8,"wdir":320,"wspd":14,"visib":"10+","altim":1016,"slp":1015.6,"qcField":4,"presTend":0.3,"maxT":24.4,"minT":19.4,"metarType":"METAR","rawOb":"METAR KSBP 172356Z 32014KT 10SM CLR 19/03 A3000 RMK AO2 SLP156 T01940028 10244 20194 50003","lat":35.2381,"lon":-120.644,"elev":52,"name":"San Luis Obispo/San Luis Cnty, CA, US","cover":"CLR","clouds":[],"fltCat":"VFR"},{"icaoId":"KEKO","receiptTime":"2026-04-18T00:00:14.539Z","obsTime":1776470160,"reportTime":"2026-04-18T00:00:00.000Z","temp":10.6,"dewp":-16.7,"wdir":220,"wspd":7,"visib":"10+","altim":1021.1,"slp":1022.8,"qcField":6,"presTend":-1.6,"maxT":10.6,"minT":2.8,"metarType":"METAR","rawOb":"METAR KEKO 172356Z AUTO 22007KT 10SM CLR 11/M17 A3015 RMK AO2 SLP228 T01061167 10106 20028 56016","lat":40.824,"lon":-115.7863,"elev":1541,"name":"Elko Rgnl, NV, US","cover":"CLR","clouds":[],"fltCat":"VFR"},{"icaoId":"KENV","receiptTime":"2026-04-17T23:58:59.480Z","obsTime":1776470160,"reportTime":"2026-04-18T00:00:00.000Z","temp":10.6,"dewp":-16.1,"wdir":130,"wspd":7,"visib":"10+","altim":1022.8,"slp":1023.6,"qcField":6,"presTend":-1.5,"maxT":10.6,"minT":6.1,"metarType":"METAR","rawOb":"METAR KENV 172356Z AUTO 13007KT 10SM CLR 11/M16 A3020 RMK AO2 SLP236 T01061161 10106 20061 56015","lat":40.7211,"lon":-114.0312,"elev":1291,"name":"Wendover Arpt, UT, US","cover":"CLR","clouds":[],"fltCat":"VFR"},{"icaoId":"KCGZ","receiptTime":"2026-04-17T23:59:01.008Z","obsTime":1776470160,"reportTime":"2026-04-18T00:00:00.000Z","temp":28.3,"dewp":-2.2,"wdir":280,"wspd":10,"wgst":16,"visib":"10+","altim":1011.3,"slp":1009.9,"qcField":14,"presTend":-1.9,"maxT":28.9,"minT":25,"metarType":"METAR","rawOb":"METAR KCGZ 172356Z AUTO 28010G16KT 10SM CLR 28/M02 A2986 RMK AO2 SLP099 6//// T02831022 10289 20250 56019 $","lat":32.9531,"lon":-111.7725,"elev":444,"name":"Casa Granda Muni, AZ, US","cover":"CLR","clouds":[],"fltCat":"VFR"},{"icaoId":"KFNL","receiptTime":"2026-04-17T23:58:59.789Z","obsTime":1776470160,"reportTime":"2026-04-18T00:00:00.000Z","temp":3.9,"dewp":-3.3,"wdir":210,"wspd":8,"visib":"10+","altim":1018,"slp":1017.9,"qcField":14,"maxT":6.1,"minT":0.6,"precip":0.005,"pcp6hr":0.005,"metarType":"METAR","rawOb":"METAR KFNL 172356Z AUTO 21008KT 10SM FEW006 04/M03 A3006 RMK AO2 RAB20E48UPB43E47 SLP179 P0000 60000 T00391033 10061 20006 53000 $","lat":40.4427,"lon":-105.0097,"elev":1529,"name":"Fort Collins/N Colorado Rgnl, CO, US","cover":"FEW","clouds":[{"cover":"FEW","base":600}],"fltCat":"VFR"},{"icaoId":"KDUG","receiptTime":"2026-04-18T00:02:16.800Z","obsTime":1776470160,"reportTime":"2026-04-18T00:00:00.000Z","temp":26.1,"dewp":-1.1,"wdir":260,"wspd":10,"wgst":18,"visib":"10+","altim":1013.3,"slp":1007.3,"qcField":38,"presTend":-1.4,"maxT":26.7,"minT":22.2,"metarType":"METAR","rawOb":"METAR KDUG 172356Z AUTO 26010G18KT 10SM FEW100 26/M01 A2992 RMK AO2 SLP073 T02611011 10267 20222 56014 TSNO","lat":31.4725,"lon":-109.6022,"elev":1260,"name":"Douglas/Bisbee Intl, AZ, US","cover":"FEW","clouds":[{"cover":"FEW","base":10000}],"fltCat":"VFR"},{"icaoId":"KPWT","receiptTime":"2026-04-17T23:58:57.508Z","obsTime":1776470160,"reportTime":"2026-04-18T00:00:00.000Z","temp":12.2,"dewp":0.6,"wdir":360,"wspd":4,"visib":"10+","altim":1023.8,"slp":1024.2,"qcField":6,"presTend":-1.7,"maxT":12.8,"minT":9.4,"metarType":"METAR","rawOb":"METAR KPWT 172356Z AUTO 36004KT 10SM CLR 12/01 A3023 RMK AO2 SLP242 T01220006 10128 20094 56017","lat":47.4942,"lon":-122.7594,"elev":143,"name":"Bremerton Arpt, WA, US","cover":"CLR","clouds":[],"fltCat":"VFR"},{"icaoId":"KCEC","receiptTime":"2026-04-18T00:00:10.930Z","obsTime":1776470160,"reportTime":"2026-04-18T00:00:00.000Z","temp":13.9,"dewp":8.9,"wdir":320,"wspd":8,"visib":"10+","altim":1019.4,"slp":1019.4,"qcField":6,"presTend":-1.5,"maxT":14.4,"minT":12.8,"metarType":"METAR","rawOb":"METAR KCEC 172356Z AUTO 32008KT 10SM CLR 14/09 A3010 RMK AO2 SLP194 T01390089 10144 20128 58015","lat":41.7836,"lon":-124.238,"elev":17,"name":"Crescent City/McNama, CA, US","cover":"CLR","clouds":[],"fltCat":"VFR"},{"icaoId":"KPVU","receiptTime":"2026-04-17T23:58:57.458Z","obsTime":1776470160,"reportTime":"2026-04-18T00:00:00.000Z","temp":7.8,"dewp":-10,"wdir":320,"wspd":6,"visib":"10+","altim":1022.8,"slp":1023.5,"qcField":4,"presTend":-1.5,"maxT":8.3,"minT":4.4,"metarType":"METAR","rawOb":"METAR KPVU 172356Z 32006KT 10SM CLR 08/M10 A3020 RMK AO2 SLP235 T00781100 10083 20044 56015","lat":40.224,"lon":-111.7252,"elev":1370,"name":"Provo Muni, UT, US","cover":"CLR","clouds":[],"fltCat":"VFR"},{"icaoId":"KSDY","receiptTime":"2026-04-17T23:58:54.278Z","obsTime":1776470160,"reportTime":"2026-04-18T00:00:00.000Z","temp":1.1,"dewp":-11.1,"wdir":330,"wspd":17,"wgst":24,"visib":"10+","altim":1017.4,"slp":1020.1,"qcField":78,"presTend":1,"maxT":2.2,"minT":-1.7,"metarType":"METAR","rawOb":"METAR KSDY 172356Z AUTO 33017G24KT 10SM SCT048 01/M11 A3004 RMK AO2 PK WND 33030/2300 SLP201 T00111111 10022 21017 53010 FZRANO $","lat":47.7029,"lon":-104.1951,"elev":600,"name":"Sidney/Richland Muni, MT, US","cover":"SCT","clouds":[{"cover":"SCT","base":4800}],"fltCat":"VFR"},{"icaoId":"KSGU","receiptTime":"2026-04-17T23:58:54.453Z","obsTime":1776470160,"reportTime":"2026-04-18T00:00:00.000Z","temp":17.2,"dewp":-15,"wdir":320,"wspd":5,"visib":"10+","altim":1018,"slp":1017.1,"qcField":6,"presTend":-2.2,"maxT":17.2,"minT":12.8,"metarType":"METAR","rawOb":"METAR KSGU 172356Z AUTO 32005KT 10SM CLR 17/M15 A3006 RMK AO2 SLP171 T01721150 10172 20128 56022","lat":37.0444,"lon":-113.5034,"elev":877,"name":"Saint George Muni, UT, US","cover":"CLR","clouds":[],"fltCat":"VFR"},{"icaoId":"KHND","receiptTime":"2026-04-17T23:58:55.559Z","obsTime":1776470160,"reportTime":"2026-04-18T00:00:00.000Z","temp":18.9,"dewp":-19.4,"wdir":60,"wspd":13,"visib":"10+","altim":1018.7,"slp":1019.3,"qcField":12,"presTend":-2.3,"maxT":19.4,"minT":13.3,"metarType":"METAR","rawOb":"METAR KHND 172356Z 06013KT 10SM CLR 19/M19 A3008 RMK AO2 SLP193 T01891194 10194 20133 56023 $","lat":35.9657,"lon":-115.1343,"elev":740,"name":"Henderson Exec, NV, US","cover":"CLR","clouds":[],"fltCat":"VFR"},{"icaoId":"KGUC","receiptTime":"2026-04-17T23:58:58.789Z","obsTime":1776470160,"reportTime":"2026-04-18T00:00:00.000Z","temp":0.6,"dewp":-13.3,"wdir":230,"wspd":13,"wgst":21,"visib":"10+","altim":1019.4,"slp":1018.9,"qcField":78,"presTend":0.9,"maxT":2.8,"minT":0,"metarType":"METAR","rawOb":"METAR KGUC 172356Z AUTO 23013G21KT 10SM FEW060 01/M13 A3010 RMK AO2 SLP189 T00061133 10028 20000 51009 FZRANO $","lat":38.5322,"lon":-106.9419,"elev":2337,"name":"Gunnison Arpt, CO, US","cover":"FEW","clouds":[{"cover":"FEW","base":6000}],"fltCat":"VFR"},{"icaoId":"KEGE","receiptTime":"2026-04-17T23:58:59.323Z","obsTime":1776470160,"reportTime":"2026-04-18T00:00:00.000Z","temp":2.8,"dewp":-10,"wdir":260,"wspd":13,"visib":"10+","altim":1020.4,"slp":1020.3,"qcField":4,"presTend":-0.1,"maxT":3.3,"minT":-1.7,"pcp6hr":0.11,"metarType":"METAR","rawOb":"METAR KEGE 172356Z 26013KT 10SM BKN050 OVC075 03/M10 A3013 RMK AO2 SLP203 60011 T00281100 10033 21017 56001","lat":39.6448,"lon":-106.9176,"elev":1993,"name":"Eagle Cnty Rgnl, CO, US","cover":"OVC","clouds":[{"cover":"BKN","base":5000},{"cover":"OVC","base":7500}],"fltCat":"VFR"},{"icaoId":"KCOD","receiptTime":"2026-04-17T23:59:01.166Z","obsTime":1776470160,"reportTime":"2026-04-18T00:00:00.000Z","temp":2.2,"dewp":-7.8,"wdir":"VRB","wspd":6,"wgst":22,"visib":"10+","altim":1018.4,"slp":1020.7,"qcField":78,"presTend":0.1,"maxT":6.7,"minT":2.2,"metarType":"METAR","rawOb":"METAR KCOD 172356Z AUTO VRB06G22KT 10SM FEW055 SCT070 OVC090 02/M08 A3007 RMK AO2 PK WND 23027/2311 SLP207 T00221078 10067 20022 53001 FZRANO $","lat":44.52,"lon":-109.0268,"elev":1550,"name":"Cody/Yellowstone Rgnl, WY, US","cover":"OVC","clouds":[{"cover":"FEW","base":5500},{"cover":"SCT","base":7000},{"cover":"OVC","base":9000}],"fltCat":"VFR"},{"icaoId":"KUKI","receiptTime":"2026-04-18T00:00:15.569Z","obsTime":1776470160,"reportTime":"2026-04-18T00:00:00.000Z","temp":23.9,"dewp":-0.6,"wdir":320,"wspd":7,"wgst":17,"visib":"10+","altim":1015.7,"slp":1015,"qcField":6,"presTend":-1.4,"maxT":24.4,"minT":16.1,"metarType":"METAR","rawOb":"METAR KUKI 172356Z AUTO 32007G17KT 10SM CLR 24/M01 A2999 RMK AO2 SLP150 T02391006 10244 20161 56014","lat":39.1278,"lon":-123.2001,"elev":183,"name":"Ukiah Muni, CA, US","cover":"CLR","clouds":[],"fltCat":"VFR"},{"icaoId":"KRDM","receiptTime":"2026-04-18T00:00:12.143Z","obsTime":1776470160,"reportTime":"2026-04-18T00:00:00.000Z","temp":13.9,"dewp":-11.1,"wdir":20,"wspd":7,"visib":"10+","altim":1019.7,"slp":1020.7,"qcField":4,"presTend":-1.7,"maxT":14.4,"minT":7.2,"metarType":"METAR","rawOb":"METAR KRDM 172356Z 02007KT 10SM CLR 14/M11 A3011 RMK AO2 SLP207 T01391111 10144 20072 58017","lat":44.2558,"lon":-121.1407,"elev":930,"name":"Redmond Muni, OR, US","cover":"CLR","clouds":[],"fltCat":"VFR"},{"icaoId":"KGPI","receiptTime":"2026-04-17T23:59:00.121Z","obsTime":1776470100,"reportTime":"2026-04-18T00:00:00.000Z","temp":4.4,"dewp":0.6,"wdir":130,"wspd":6,"visib":"10+","altim":1021.1,"slp":1023.2,"qcField":4,"presTend":0.3,"maxT":6.1,"minT":2.8,"precip":0.005,"pcp6hr":0.06,"metarType":"METAR","rawOb":"METAR KGPI 172355Z 13006KT 10SM FEW023 BKN060 04/01 A3015 RMK AO2 RAE18 SLP232 P0000 60006 T00440006 10061 20028 53003","lat":48.3041,"lon":-114.2643,"elev":903,"name":"Kalispell/Glacier Park Intl, MT, US","cover":"BKN","clouds":[{"cover":"FEW","base":2300},{"cover":"BKN","base":6000}],"fltCat":"VFR"},{"icaoId":"KAST","receiptTime":"2026-04-17T23:59:02.627Z","obsTime":1776470100,"reportTime":"2026-04-18T00:00:00.000Z","temp":12.8,"dewp":5,"wdir":310,"wspd":13,"visib":"10+","altim":1022.4,"slp":1022.3,"qcField":6,"presTend":-2,"maxT":12.8,"minT":9.4,"metarType":"METAR","rawOb":"METAR KAST 172355Z AUTO 31013KT 10SM CLR 13/05 A3019 RMK AO2 SLP223 T01280050 10128 20094 58020","lat":46.157,"lon":-123.8833,"elev":3,"name":"Astoria Rgnl, OR, US","cover":"CLR","clouds":[],"fltCat":"VFR"},{"icaoId":"KEND","receiptTime":"2026-04-18T00:06:03.552Z","obsTime":1776470100,"reportTime":"2026-04-18T00:00:00.000Z","temp":16.9,"dewp":15.2,"wdir":80,"wspd":3,"visib":"10+","altim":1003.5,"slp":1002.6,"qcField":12,"wxString":"-TSRA","presTend":0.2,"maxT":26.6,"minT":16.8,"precip":0.05,"pcp6hr":0.05,"metarType":"METAR","rawOb":"METAR KEND 172355Z 08003KT 10SM -TSRA BKN036 17/15 A2963 RMK AO2A PK WND 33043/19 RAE2255RAB22 TSE2255TSB06 SLP026 P0005 60005 T01690152 10266 20168 53002 $","lat":36.338,"lon":-97.919,"elev":392,"name":"Enid/Vance AFB, OK, US","cover":"BKN","clouds":[{"cover":"BKN","base":3600}],"fltCat":"VFR"},{"icaoId":"KCMA","receiptTime":"2026-04-17T23:59:01.105Z","obsTime":1776470100,"reportTime":"2026-04-18T00:00:00.000Z","temp":21.1,"dewp":10,"wdir":270,"wspd":11,"visib":"10+","altim":1014.6,"slp":1015.3,"qcField":4,"presTend":-1,"maxT":26.1,"minT":20.6,"metarType":"METAR","rawOb":"METAR KCMA 172355Z 27011KT 10SM CLR 21/10 A2996 RMK AO2 SLP153 T02110100 10261 20206 58010","lat":34.2114,"lon":-119.0876,"elev":20,"name":"Camarillo Arpt, CA, US","cover":"CLR","clouds":[],"fltCat":"VFR"},{"icaoId":"KRNO","receiptTime":"2026-04-17T23:58:53.985Z","obsTime":1776470100,"reportTime":"2026-04-18T00:00:00.000Z","temp":15,"dewp":-19.4,"wdir":50,"wspd":8,"visib":"10+","altim":1019.4,"slp":1018.1,"qcField":4,"presTend":-1.6,"maxT":15,"minT":8.3,"metarType":"METAR","rawOb":"METAR KRNO 172355Z 05008KT 10SM SCT250 15/M19 A3010 RMK AO2 SLP181 T01501194 10150 20083 56016","lat":39.5077,"lon":-119.7683,"elev":1344,"name":"Reno/Tahoe Intl, NV, US","cover":"SCT","clouds":[{"cover":"SCT","base":25000}],"fltCat":"VFR"},{"icaoId":"KBTV","receiptTime":"2026-04-17T23:58:51.217Z","obsTime":1776470040,"reportTime":"2026-04-18T00:00:00.000Z","temp":15.6,"dewp":6.1,"wdir":330,"wspd":3,"visib":"10+","altim":1016.7,"slp":1016.7,"qcField":4,"presTend":0.6,"maxT":17.8,"minT":13.3,"metarType":"METAR","rawOb":"METAR KBTV 172354Z 33003KT 10SM FEW150 16/06 A3002 RMK AO2 SLP167 T01560061 10178 20133 53006","lat":44.4682,"lon":-73.1499,"elev":101,"name":"Burlington Intl, VT, US","cover":"FEW","clouds":[{"cover":"FEW","base":15000}],"fltCat":"VFR"},{"icaoId":"KRKS","receiptTime":"2026-04-17T23:58:15.227Z","obsTime":1776470040,"reportTime":"2026-04-18T00:00:00.000Z","temp":1.1,"dewp":-12.8,"wdir":270,"wspd":22,"wgst":34,"visib":"10+","altim":1019,"slp":1022.3,"qcField":6,"presTend":0.1,"maxT":2.8,"minT":-1.7,"metarType":"METAR","rawOb":"METAR KRKS 172354Z AUTO 27022G34KT 10SM FEW065 FEW090 01/M13 A3009 RMK AO2 PK WND 28038/2307 SLP223 T00111128 10028 21017 53001","lat":41.5947,"lon":-109.0529,"elev":2062,"name":"Rock Springs/SW Wyoming Rgnl, WY, US","cover":"FEW","clouds":[{"cover":"FEW","base":6500},{"cover":"FEW","base":9000}],"fltCat":"VFR"},{"icaoId":"KSJN","receiptTime":"2026-04-17T23:58:15.876Z","obsTime":1776470040,"reportTime":"2026-04-18T00:00:00.000Z","temp":17.2,"dewp":-7.8,"wdir":310,"wspd":14,"wgst":22,"visib":"10+","altim":1016,"slp":1010.6,"qcField":6,"presTend":-0.7,"maxT":18.3,"minT":15,"metarType":"METAR","rawOb":"METAR KSJN 172354Z AUTO 31014G22KT 10SM CLR 17/M08 A3000 RMK AO2 PK WND 30028/2323 SLP106 T01721078 10183 20150 55007","lat":34.5184,"lon":-109.3801,"elev":1747,"name":"St Johns Ind Arpt, AZ, US","cover":"CLR","clouds":[],"fltCat":"VFR"},{"icaoId":"KPHL","receiptTime":"2026-04-17T23:58:20.945Z","obsTime":1776470040,"reportTime":"2026-04-18T00:00:00.000Z","temp":25,"dewp":11.7,"wdir":330,"wspd":6,"visib":"10+","altim":1013.3,"slp":1013,"qcField":12,"presTend":1.9,"maxT":28.3,"minT":25,"metarType":"METAR","rawOb":"METAR KPHL 172354Z 33006KT 10SM BKN090 BKN350 25/12 A2992 RMK AO2 SLP130 T02500117 10283 20250 52019 $","lat":39.8733,"lon":-75.2268,"elev":2,"name":"Philadelphia Intl, PA, US","cover":"BKN","clouds":[{"cover":"BKN","base":9000},{"cover":"BKN","base":35000}],"fltCat":"VFR"},{"icaoId":"KBUF","receiptTime":"2026-04-18T00:04:03.710Z","obsTime":1776470040,"reportTime":"2026-04-18T00:00:00.000Z","temp":16.7,"dewp":12.2,"wdir":60,"wspd":8,"visib":"10+","altim":1014.6,"slp":1014.7,"qcField":5,"presTend":-1.4,"maxT":18.9,"minT":15,"metarType":"METAR","rawOb":"METAR KBUF 172354Z COR 06008KT 10SM FEW025 BKN280 17/12 A2996 RMK AO2 SLP147 T01670122 10189 20150 58014","lat":42.94,"lon":-78.7361,"elev":217,"name":"Buffalo-Niagara Intl, NY, US","cover":"BKN","clouds":[{"cover":"FEW","base":2500},{"cover":"BKN","base":28000}],"fltCat":"VFR"},{"icaoId":"KOLM","receiptTime":"2026-04-17T23:58:47.512Z","obsTime":1776470040,"reportTime":"2026-04-18T00:00:00.000Z","temp":13.3,"dewp":1.1,"wdir":0,"wspd":0,"visib":"10+","altim":1023.1,"slp":1023.1,"qcField":4,"presTend":-1.8,"maxT":14.4,"minT":8.3,"metarType":"METAR","rawOb":"METAR KOLM 172354Z 00000KT 10SM CLR 13/01 A3021 RMK AO2 SLP231 T01330011 10144 20083 58018","lat":46.9737,"lon":-122.9049,"elev":58,"name":"Olympia Rgnl, WA, US","cover":"CLR","clouds":[],"fltCat":"VFR"},{"icaoId":"KSLC","receiptTime":"2026-04-17T23:58:28.155Z","obsTime":1776470040,"reportTime":"2026-04-18T00:00:00.000Z","temp":8.3,"dewp":-12.2,"wdir":330,"wspd":10,"visib":"10+","altim":1023.1,"slp":1023,"qcField":4,"presTend":-1.5,"maxT":8.3,"minT":3.3,"metarType":"METAR","rawOb":"METAR KSLC 172354Z 33010KT 10SM FEW065 08/M12 A3021 RMK AO2 SLP230 T00831122 10083 20033 56015","lat":40.7707,"lon":-111.965,"elev":1286,"name":"Salt Lake City Intl, UT, US","cover":"FEW","clouds":[{"cover":"FEW","base":6500}],"fltCat":"VFR"},{"icaoId":"KBOS","receiptTime":"2026-04-17T23:58:13.449Z","obsTime":1776470040,"reportTime":"2026-04-18T00:00:00.000Z","temp":10.6,"dewp":8.9,"wdir":140,"wspd":3,"visib":"10+","altim":1016,"slp":1016,"qcField":4,"presTend":1.6,"maxT":13.9,"minT":10.6,"pcp6hr":0.005,"metarType":"METAR","rawOb":"METAR KBOS 172354Z 14003KT 10SM FEW100 11/09 A3000 RMK AO2 SLP160 60000 T01060089 10139 20106 51016","lat":42.3606,"lon":-71.0097,"elev":4,"name":"Boston/Logan Intl, MA, US","cover":"FEW","clouds":[{"cover":"FEW","base":10000}],"fltCat":"VFR"},{"icaoId":"KMEM","receiptTime":"2026-04-17T23:58:47.182Z","obsTime":1776470040,"reportTime":"2026-04-18T00:00:00.000Z","temp":27.8,"dewp":15,"wdir":180,"wspd":17,"wgst":26,"visib":"10+","altim":1010.2,"slp":1009.9,"qcField":12,"presTend":-2.6,"maxT":30,"minT":27.8,"metarType":"METAR","rawOb":"METAR KMEM 172354Z 18017G26KT 10SM FEW070 FEW250 28/15 A2983 RMK AO2 PK WND 18026/2352 SLP099 T02780150 10300 20278 56026 $","lat":35.0564,"lon":-89.9864,"elev":78,"name":"Memphis Intl, TN, US","cover":"FEW","clouds":[{"cover":"FEW","base":7000},{"cover":"FEW","base":25000}],"fltCat":"VFR"},{"icaoId":"KOLS","receiptTime":"2026-04-17T23:58:47.526Z","obsTime":1776470040,"reportTime":"2026-04-18T00:00:00.000Z","temp":25,"dewp":-2.8,"visib":"10+","altim":1013.6,"slp":1008.8,"qcField":6,"presTend":-1.3,"maxT":26.1,"minT":21.1,"metarType":"METAR","rawOb":"METAR KOLS 172354Z AUTO 10SM CLR 25/M03 A2993 RMK AO2 SLP088 T02501028 10261 20211 56013","lat":31.4208,"lon":-110.8465,"elev":1194,"name":"Nogales Intl, AZ, US","cover":"CLR","clouds":[],"fltCat":"VFR"},{"icaoId":"KEUG","receiptTime":"2026-04-17T23:58:27.980Z","obsTime":1776470040,"reportTime":"2026-04-18T00:00:00.000Z","temp":14.4,"dewp":5.6,"wdir":360,"wspd":8,"visib":"10+","altim":1020.7,"slp":1021,"qcField":4,"presTend":-2.4,"maxT":15.6,"minT":8.3,"metarType":"METAR","rawOb":"METAR KEUG 172354Z 36008KT 10SM FEW180 BKN240 14/06 A3014 RMK AO2 SLP210 T01440056 10156 20083 56024","lat":44.1331,"lon":-123.2156,"elev":109,"name":"Eugene/Mahlon Sweet Fld, OR, US","cover":"BKN","clouds":[{"cover":"FEW","base":18000},{"cover":"BKN","base":24000}],"fltCat":"VFR"},{"icaoId":"KCOS","receiptTime":"2026-04-17T23:58:51.251Z","obsTime":1776470040,"reportTime":"2026-04-18T00:00:00.000Z","temp":0.6,"dewp":-4.4,"wdir":10,"wspd":16,"visib":"10+","altim":1017,"slp":1019.1,"qcField":4,"presTend":0.4,"maxT":5,"minT":-1.7,"pcp6hr":0.03,"metarType":"METAR","rawOb":"METAR KCOS 172354Z 01016KT 10SM FEW025 FEW050 BKN070 BKN150 01/M04 A3003 RMK AO2 SLP191 60003 T00061044 10050 21017 53004","lat":38.8095,"lon":-104.6887,"elev":1886,"name":"Colorado Spring Arpt, CO, US","cover":"BKN","clouds":[{"cover":"FEW","base":2500},{"cover":"FEW","base":5000},{"cover":"BKN","base":7000},{"cover":"BKN","base":15000}],"fltCat":"VFR"},{"icaoId":"KBWI","receiptTime":"2026-04-17T23:58:13.561Z","obsTime":1776470040,"reportTime":"2026-04-18T00:00:00.000Z","temp":23.3,"dewp":11.1,"wdir":330,"wspd":4,"visib":"10+","altim":1013.6,"slp":1013.2,"qcField":4,"presTend":0.9,"maxT":27.2,"minT":23.3,"metarType":"METAR","rawOb":"METAR KBWI 172354Z 33004KT 10SM FEW065 FEW250 23/11 A2993 RMK AO2 SLP132 T02330111 10272 20233 51009","lat":39.1733,"lon":-76.684,"elev":42,"name":"Baltimore-Washington Intl, MD, US","cover":"FEW","clouds":[{"cover":"FEW","base":6500},{"cover":"FEW","base":25000}],"fltCat":"VFR"},{"icaoId":"KRIC","receiptTime":"2026-04-17T23:58:51.485Z","obsTime":1776470040,"reportTime":"2026-04-18T00:00:00.000Z","temp":24.4,"dewp":10.6,"wdir":50,"wspd":3,"visib":"10+","altim":1013,"slp":1013.2,"qcField":4,"presTend":0.5,"maxT":30.6,"minT":24.4,"metarType":"METAR","rawOb":"METAR KRIC 172354Z 05003KT 10SM FEW095 BKN300 24/11 A2991 RMK AO2 SLP132 T02440106 10306 20244 52005","lat":37.5115,"lon":-77.3234,"elev":51,"name":"Richmond Intl, VA, US","cover":"BKN","clouds":[{"cover":"FEW","base":9500},{"cover":"BKN","base":30000}],"fltCat":"VFR"},{"icaoId":"KSYR","receiptTime":"2026-04-17T23:58:51.579Z","obsTime":1776470040,"reportTime":"2026-04-18T00:00:00.000Z","temp":12.8,"dewp":9.4,"wdir":230,"wspd":6,"visib":"10+","altim":1016.7,"slp":1016.4,"qcField":4,"presTend":0.5,"maxT":15.6,"minT":12.8,"metarType":"METAR","rawOb":"METAR KSYR 172354Z 23006KT 10SM FEW020 SCT250 13/09 A3002 RMK AO2 SLP164 T01280094 10156 20128 52005","lat":43.1111,"lon":-76.1038,"elev":125,"name":"Syracuse/Hancock Intl, NY, US","cover":"SCT","clouds":[{"cover":"FEW","base":2000},{"cover":"SCT","base":25000}],"fltCat":"VFR"},{"icaoId":"KIND","receiptTime":"2026-04-17T23:58:46.588Z","obsTime":1776470040,"reportTime":"2026-04-18T00:00:00.000Z","temp":25,"dewp":15,"wdir":170,"wspd":9,"visib":"10+","altim":1008.9,"slp":1008.4,"qcField":4,"presTend":-2.5,"maxT":27.8,"minT":25,"metarType":"METAR","rawOb":"METAR KIND 172354Z 17009KT 10SM SCT055 BKN250 25/15 A2979 RMK AO2 SLP084 T02500150 10278 20250 55025","lat":39.7252,"lon":-86.2816,"elev":242,"name":"Indianapolis Intl, IN, US","cover":"BKN","clouds":[{"cover":"SCT","base":5500},{"cover":"BKN","base":25000}],"fltCat":"VFR"},{"icaoId":"KGSO","receiptTime":"2026-04-17T23:58:51.310Z","obsTime":1776470040,"reportTime":"2026-04-18T00:00:00.000Z","temp":24.4,"dewp":11.1,"wdir":230,"wspd":5,"visib":"10+","altim":1014.3,"slp":1013.2,"qcField":4,"presTend":-0.3,"maxT":28.9,"minT":24.4,"metarType":"METAR","rawOb":"METAR KGSO 172354Z 23005KT 10SM FEW080 FEW250 24/11 A2995 RMK AO2 SLP132 T02440111 10289 20244 56003","lat":36.0969,"lon":-79.9432,"elev":275,"name":"Greensboro Intl, NC, US","cover":"FEW","clouds":[{"cover":"FEW","base":8000},{"cover":"FEW","base":25000}],"fltCat":"VFR"},{"icaoId":"KGCN","receiptTime":"2026-04-17T23:58:27.993Z","obsTime":1776470040,"reportTime":"2026-04-18T00:00:00.000Z","temp":10.6,"dewp":-19.4,"wdir":60,"wspd":11,"wgst":16,"visib":"10+","altim":1019.4,"slp":1015.3,"qcField":4,"presTend":-0.4,"maxT":12.2,"minT":8.3,"metarType":"METAR","rawOb":"METAR KGCN 172354Z 06011G16KT 10SM CLR 11/M19 A3010 RMK AO2 SLP153 T01061194 10122 20083 56004","lat":35.9458,"lon":-112.1554,"elev":1993,"name":"Grand Canyon Park Arpt, AZ, US","cover":"CLR","clouds":[],"fltCat":"VFR"},{"icaoId":"KFFZ","receiptTime":"2026-04-17T23:58:08.013Z","obsTime":1776470040,"reportTime":"2026-04-18T00:00:00.000Z","temp":27.8,"dewp":-1.7,"wdir":290,"wspd":10,"visib":"10+","altim":1010.6,"slp":1008.4,"qcField":4,"presTend":-1.8,"maxT":28.3,"minT":24.4,"metarType":"METAR","rawOb":"METAR KFFZ 172354Z 29010KT 10SM CLR 28/M02 A2984 RMK AO2 SLP084 T02781017 10283 20244 56018","lat":33.4659,"lon":-111.7212,"elev":420,"name":"Mesa/Falcon Fld, AZ, US","cover":"CLR","clouds":[],"fltCat":"VFR"},{"icaoId":"KROC","receiptTime":"2026-04-17T23:58:21.921Z","obsTime":1776470040,"reportTime":"2026-04-18T00:00:00.000Z","temp":13.9,"dewp":6.7,"wdir":110,"wspd":6,"visib":"10+","altim":1016.3,"slp":1016.6,"qcField":12,"presTend":-0.7,"maxT":16.1,"minT":13.9,"metarType":"METAR","rawOb":"METAR KROC 172354Z 11006KT 10SM FEW100 BKN200 14/07 A3001 RMK AO2 SLP166 T01390067 10161 20139 58007 $","lat":43.1172,"lon":-77.6754,"elev":166,"name":"Rochester Intl Arpt, NY, US","cover":"BKN","clouds":[{"cover":"FEW","base":10000},{"cover":"BKN","base":20000}],"fltCat":"VFR"},{"icaoId":"KAPC","receiptTime":"2026-04-17T23:58:45.756Z","obsTime":1776470040,"reportTime":"2026-04-18T00:00:00.000Z","temp":20.6,"dewp":5.6,"wdir":220,"wspd":11,"visib":"10+","altim":1016.3,"slp":1015.4,"qcField":4,"presTend":-1.2,"maxT":22.8,"minT":19.4,"metarType":"METAR","rawOb":"METAR KAPC 172354Z 22011KT 10SM CLR 21/06 A3001 RMK AO2 SLP154 T02060056 10228 20194 56012","lat":38.2075,"lon":-122.2804,"elev":5,"name":"Napa Cnty Arpt, CA, US","cover":"CLR","clouds":[],"fltCat":"VFR"},{"icaoId":"KDSM","receiptTime":"2026-04-17T23:58:51.298Z","obsTime":1776470040,"reportTime":"2026-04-18T00:00:00.000Z","temp":8.9,"dewp":5.6,"wdir":350,"wspd":13,"wgst":22,"visib":"10+","altim":1006.2,"slp":1006.1,"qcField":4,"wxString":"-RA","presTend":3.6,"maxT":27.8,"minT":8.9,"precip":0.06,"pcp6hr":0.07,"metarType":"METAR","rawOb":"METAR KDSM 172354Z 35013G22KT 10SM -RA BKN031 BKN110 09/06 A2971 RMK AO2 RAB07 TSB18E51 SLP061 OCNL LTGICCG DSNT N-E TS MOV NE P0006 60007 T00890056 10278 20089 53036","lat":41.5339,"lon":-93.6531,"elev":286,"name":"Des Moines Intl, IA, US","cover":"BKN","clouds":[{"cover":"BKN","base":3100},{"cover":"BKN","base":11000}],"fltCat":"VFR"},{"icaoId":"KBFL","receiptTime":"2026-04-17T23:58:27.964Z","obsTime":1776470040,"reportTime":"2026-04-18T00:00:00.000Z","temp":25,"dewp":-0.6,"wdir":300,"wspd":10,"visib":"10+","altim":1014.3,"slp":1014,"qcField":4,"presTend":-1.8,"maxT":25.6,"minT":17.2,"metarType":"METAR","rawOb":"METAR KBFL 172354Z 30010KT 10SM CLR 25/M01 A2995 RMK AO2 SLP140 T02501006 10256 20172 58018","lat":35.4342,"lon":-119.0552,"elev":146,"name":"Bakersfield/Meadows Arpt, CA, US","cover":"CLR","clouds":[],"fltCat":"VFR"},{"icaoId":"KPUW","receiptTime":"2026-04-17T23:56:36.861Z","obsTime":1776469980,"reportTime":"2026-04-18T00:00:00.000Z","temp":8.3,"dewp":-3.3,"visib":"10+","altim":1023.5,"slp":1025,"qcField":6,"presTend":-0.7,"maxT":9.4,"minT":5,"metarType":"METAR","rawOb":"METAR KPUW 172353Z AUTO 10SM OVC055 08/M03 A3022 RMK AO2 SLP250 T00831033 10094 20050 57007","lat":46.7438,"lon":-117.1158,"elev":774,"name":"Pullman/Moscow Rgnl, WA, US","cover":"OVC","clouds":[{"cover":"OVC","base":5500}],"fltCat":"VFR"},{"icaoId":"KMIA","receiptTime":"2026-04-17T23:58:45.917Z","obsTime":1776469980,"reportTime":"2026-04-18T00:00:00.000Z","temp":25.6,"dewp":20.6,"wdir":80,"wspd":8,"visib":"10+","altim":1015.7,"slp":1015.7,"qcField":0,"presTend":0.2,"maxT":29.4,"minT":25.6,"metarType":"METAR","rawOb":"METAR KMIA 172353Z 08008KT 10SM FEW023 FEW250 26/21 A2999 RMK SLP157 T02560206 10294 20256 50002","lat":25.7881,"lon":-80.3169,"elev":1,"name":"Miami Intl, FL, US","cover":"FEW","clouds":[{"cover":"FEW","base":2300},{"cover":"FEW","base":25000}],"fltCat":"VFR"},{"icaoId":"KMYR","receiptTime":"2026-04-17T23:56:31.624Z","obsTime":1776469980,"reportTime":"2026-04-18T00:00:00.000Z","temp":21.1,"dewp":18.3,"wdir":180,"wspd":6,"visib":"10+","altim":1014.6,"slp":1014.4,"qcField":12,"presTend":-0.2,"maxT":27.2,"minT":21.1,"metarType":"METAR","rawOb":"METAR KMYR 172353Z 18006KT 10SM CLR 21/18 A2996 RMK AO2 SLP144 T02110183 10272 20211 55002 $","lat":33.6769,"lon":-78.9325,"elev":7,"name":"Myrtle Beach Intl, SC, US","cover":"CLR","clouds":[],"fltCat":"VFR"},{"icaoId":"KDRO","receiptTime":"2026-04-17T23:56:30.760Z","obsTime":1776469980,"reportTime":"2026-04-18T00:00:00.000Z","temp":8.9,"dewp":-13.3,"wdir":260,"wspd":17,"wgst":26,"visib":"10+","altim":1016.3,"slp":1013.8,"qcField":6,"presTend":-0.1,"maxT":10,"minT":7.2,"metarType":"METAR","rawOb":"METAR KDRO 172353Z AUTO 26017G26KT 10SM CLR 09/M13 A3001 RMK AO2 PK WND 25027/2306 SLP138 T00891133 10100 20072 55001","lat":37.1431,"lon":-107.7602,"elev":2021,"name":"Durango/La Plata Cnty, CO, US","cover":"CLR","clouds":[],"fltCat":"VFR"},{"icaoId":"KEVW","receiptTime":"2026-04-17T23:56:35.193Z","obsTime":1776469980,"reportTime":"2026-04-18T00:00:00.000Z","temp":-1.7,"dewp":-11.7,"wdir":270,"wspd":14,"wgst":22,"visib":"10+","altim":1021.1,"slp":1025.5,"qcField":14,"presTend":-0.1,"maxT":0.6,"minT":-3.3,"metarType":"METAR","rawOb":"METAR KEVW 172353Z AUTO 27014G22KT 10SM BKN055 M02/M12 A3015 RMK AO2 PK WND 25027/2340 SLP255 T10171117 10006 21033 55001 $","lat":41.2727,"lon":-111.0305,"elev":2178,"name":"Evanston/Uinta Cnty, WY, US","cover":"BKN","clouds":[{"cover":"BKN","base":5500}],"fltCat":"VFR"},{"icaoId":"KCNM","receiptTime":"2026-04-17T23:56:33.669Z","obsTime":1776469980,"reportTime":"2026-04-18T00:00:00.000Z","temp":30.6,"dewp":-4.4,"wdir":250,"wspd":15,"wgst":26,"visib":"10+","altim":1008.2,"slp":1003,"qcField":6,"presTend":-0.5,"maxT":32.2,"minT":28.9,"metarType":"METAR","rawOb":"METAR KCNM 172353Z AUTO 25015G26KT 10SM CLR 31/M04 A2977 RMK AO2 PK WND 26035/2310 SLP030 T03061044 10322 20289 55005","lat":32.3336,"lon":-104.2584,"elev":993,"name":"Carlsbad/Cavern City Air Term, NM, US","cover":"CLR","clouds":[],"fltCat":"VFR"},{"icaoId":"KBTM","receiptTime":"2026-04-17T23:56:35.083Z","obsTime":1776469980,"reportTime":"2026-04-18T00:00:00.000Z","temp":3.3,"dewp":-14.4,"wdir":310,"wspd":15,"wgst":23,"visib":"10+","altim":1018.7,"slp":1021.4,"qcField":6,"presTend":-0.2,"maxT":5,"minT":1.1,"pcp6hr":0.005,"metarType":"METAR","rawOb":"METAR KBTM 172353Z AUTO 31015G23KT 10SM FEW085 03/M14 A3008 RMK AO2 SLP214 60000 T00331144 10050 20011 55002","lat":45.9644,"lon":-112.5015,"elev":1680,"name":"Butte/Mooney Arpt, MT, US","cover":"FEW","clouds":[{"cover":"FEW","base":8500}],"fltCat":"VFR"},{"icaoId":"KDFW","receiptTime":"2026-04-17T23:56:30.640Z","obsTime":1776469980,"reportTime":"2026-04-18T00:00:00.000Z","temp":27.2,"dewp":17.8,"wdir":170,"wspd":12,"wgst":23,"visib":"10+","altim":1007.2,"slp":1006.2,"qcField":4,"presTend":-1.5,"maxT":27.8,"minT":26.1,"metarType":"METAR","rawOb":"METAR KDFW 172353Z 17012G23KT 10SM FEW040 BKN070 OVC250 27/18 A2974 RMK AO2 SLP062 T02720178 10278 20261 56015","lat":32.8974,"lon":-97.022,"elev":168,"name":"Dallas-Ft Worth Intl, TX, US","cover":"OVC","clouds":[{"cover":"FEW","base":4000},{"cover":"BKN","base":7000},{"cover":"OVC","base":25000}],"fltCat":"VFR"},{"icaoId":"KDLN","receiptTime":"2026-04-17T23:56:30.707Z","obsTime":1776469980,"reportTime":"2026-04-18T00:00:00.000Z","temp":5,"dewp":-12.2,"wdir":290,"wspd":15,"wgst":23,"visib":"10+","altim":1018.7,"slp":1020.5,"qcField":6,"presTend":-0.1,"maxT":6.1,"minT":1.7,"metarType":"METAR","rawOb":"METAR KDLN 172353Z AUTO 29015G23KT 10SM CLR 05/M12 A3008 RMK AO2 PK WND 28030/2313 SLP205 T00501122 10061 20017 55001","lat":45.2584,"lon":-112.5546,"elev":1586,"name":"Dillon Arpt, MT, US","cover":"CLR","clouds":[],"fltCat":"VFR"},{"icaoId":"KDMN","receiptTime":"2026-04-17T23:56:29.044Z","obsTime":1776469980,"reportTime":"2026-04-18T00:00:00.000Z","temp":25.6,"dewp":-2.8,"wdir":290,"wspd":15,"wgst":28,"visib":"10+","altim":1012.6,"slp":1006.7,"qcField":6,"presTend":-1.2,"maxT":26.7,"minT":23.3,"metarType":"METAR","rawOb":"METAR KDMN 172353Z AUTO 29015G28KT 10SM CLR 26/M03 A2990 RMK AO2 PK WND 27029/2316 SLP067 T02561028 10267 20233 56012","lat":32.2592,"lon":-107.7206,"elev":1310,"name":"Deming Muni, NM, US","cover":"CLR","clouds":[],"fltCat":"VFR"},{"icaoId":"KFUL","receiptTime":"2026-04-17T23:56:30.014Z","obsTime":1776469980,"reportTime":"2026-04-18T00:00:00.000Z","temp":23.3,"dewp":11.7,"wdir":220,"wspd":6,"visib":"10+","altim":1013,"slp":1012.9,"qcField":4,"presTend":-1.4,"maxT":24.4,"minT":20.6,"metarType":"METAR","rawOb":"METAR KFUL 172353Z 22006KT 10SM CLR 23/12 A2991 RMK AO2 SLP129 T02330117 10244 20206 58014","lat":33.8715,"lon":-117.9856,"elev":23,"name":"Fullerton Muni, CA, US","cover":"CLR","clouds":[],"fltCat":"VFR"},{"icaoId":"KBHM","receiptTime":"2026-04-17T23:56:36.469Z","obsTime":1776469980,"reportTime":"2026-04-18T00:00:00.000Z","temp":28.3,"dewp":14.4,"wdir":160,"wspd":4,"visib":"10+","altim":1015.3,"slp":1014.4,"qcField":4,"presTend":-1.7,"maxT":31.1,"minT":28.3,"metarType":"METAR","rawOb":"METAR KBHM 172353Z 16004KT 10SM FEW070 FEW250 28/14 A2998 RMK AO2 SLP144 T02830144 10311 20283 56017","lat":33.5655,"lon":-86.7449,"elev":191,"name":"Birmingham Intl, AL, US","cover":"FEW","clouds":[{"cover":"FEW","base":7000},{"cover":"FEW","base":25000}],"fltCat":"VFR"},{"icaoId":"KLVS","receiptTime":"2026-04-17T23:56:36.729Z","obsTime":1776469980,"reportTime":"2026-04-18T00:00:00.000Z","temp":15.6,"dewp":-13.3,"wdir":220,"wspd":25,"wgst":36,"visib":"10+","altim":1013.3,"slp":1005,"qcField":6,"presTend":0.8,"maxT":18.9,"minT":15.6,"metarType":"METAR","rawOb":"METAR KLVS 172353Z AUTO 22025G36KT 10SM CLR 16/M13 A2992 RMK AO2 PK WND 22039/2320 SLP050 T01561133 10189 20156 53008","lat":35.6558,"lon":-105.1385,"elev":2095,"name":"Las Vegas Muni, NM, US","cover":"CLR","clouds":[],"fltCat":"VFR"},{"icaoId":"KMCO","receiptTime":"2026-04-17T23:56:36.764Z","obsTime":1776469980,"reportTime":"2026-04-18T00:00:00.000Z","temp":26.1,"dewp":15,"wdir":100,"wspd":11,"visib":"10+","altim":1016.7,"slp":1016.3,"qcField":4,"presTend":-0.1,"maxT":31.1,"minT":26.1,"metarType":"METAR","rawOb":"METAR KMCO 172353Z 10011KT 10SM FEW055 26/15 A3002 RMK AO2 SLP163 T02610150 10311 20261 55001","lat":28.4182,"lon":-81.3241,"elev":27,"name":"Orlando Intl, FL, US","cover":"FEW","clouds":[{"cover":"FEW","base":5500}],"fltCat":"VFR"},{"icaoId":"KSBA","receiptTime":"2026-04-17T23:56:33.154Z","obsTime":1776469980,"reportTime":"2026-04-18T00:00:00.000Z","temp":20.6,"dewp":7.2,"wdir":270,"wspd":12,"visib":"10+","altim":1014.6,"slp":1014.5,"qcField":12,"presTend":-1.4,"maxT":21.7,"minT":18.9,"metarType":"METAR","rawOb":"METAR KSBA 172353Z 27012KT 10SM CLR 21/07 A2996 RMK AO2 SLP145 T02060072 10217 20189 58014 $","lat":34.4241,"lon":-119.8425,"elev":2,"name":"Santa Barbara Muni, CA, US","cover":"CLR","clouds":[],"fltCat":"VFR"},{"icaoId":"KIAH","receiptTime":"2026-04-17T23:56:33.979Z","obsTime":1776469980,"reportTime":"2026-04-18T00:00:00.000Z","temp":25.6,"dewp":19.4,"wdir":160,"wspd":13,"wgst":21,"visib":"10+","altim":1012.3,"slp":1012,"qcField":4,"presTend":-0.7,"maxT":29.4,"minT":25.6,"metarType":"METAR","rawOb":"METAR KIAH 172353Z 16013G21KT 10SM SCT030 BKN065 OVC250 26/19 A2989 RMK AO2 SLP120 T02560194 10294 20256 55007","lat":29.9844,"lon":-95.3607,"elev":27,"name":"Houston/Bush Intl, TX, US","cover":"OVC","clouds":[{"cover":"SCT","base":3000},{"cover":"BKN","base":6500},{"cover":"OVC","base":25000}],"fltCat":"VFR"},{"icaoId":"KMSY","receiptTime":"2026-04-17T23:56:32.775Z","obsTime":1776469980,"reportTime":"2026-04-18T00:00:00.000Z","temp":25,"dewp":17.2,"wdir":150,"wspd":9,"visib":"10+","altim":1015,"slp":1015,"qcField":4,"presTend":-1,"maxT":28.3,"minT":25,"metarType":"METAR","rawOb":"METAR KMSY 172353Z 15009KT 10SM FEW045 BKN270 25/17 A2997 RMK AO2 SLP150 T02500172 10283 20250 56010","lat":29.9974,"lon":-90.2777,"elev":0,"name":"New Orleans/Armstrong Intl, LA, US","cover":"BKN","clouds":[{"cover":"FEW","base":4500},{"cover":"BKN","base":27000}],"fltCat":"VFR"},{"icaoId":"KMYF","receiptTime":"2026-04-17T23:56:32.847Z","obsTime":1776469980,"reportTime":"2026-04-18T00:00:00.000Z","temp":20,"dewp":12.2,"wdir":290,"wspd":8,"visib":"10+","altim":1014,"slp":1013.7,"qcField":4,"presTend":-0.7,"maxT":21.7,"minT":19.4,"metarType":"METAR","rawOb":"METAR KMYF 172353Z 29008KT 10SM CLR 20/12 A2994 RMK AO2 SLP137 T02000122 10217 20194 55007","lat":32.8145,"lon":-117.1375,"elev":128,"name":"San Diego/Montgomery Arpt, CA, US","cover":"CLR","clouds":[],"fltCat":"VFR"},{"icaoId":"KOGD","receiptTime":"2026-04-17T23:56:32.913Z","obsTime":1776469980,"reportTime":"2026-04-18T00:00:00.000Z","temp":6.7,"dewp":-12.8,"wdir":"VRB","wspd":5,"visib":"10+","altim":1022.8,"slp":1022.9,"qcField":4,"presTend":-1.2,"maxT":7.2,"minT":2.8,"metarType":"METAR","rawOb":"METAR KOGD 172353Z VRB05KT 10SM CLR 07/M13 A3020 RMK AO2 SLP229 T00671128 10072 20028 56012","lat":41.1941,"lon":-112.0168,"elev":1356,"name":"Ogden/Hinckley Arpt, UT, US","cover":"CLR","clouds":[],"fltCat":"VFR"},{"icaoId":"KMFE","receiptTime":"2026-04-17T23:56:36.776Z","obsTime":1776469980,"reportTime":"2026-04-18T00:00:00.000Z","temp":28.9,"dewp":18.9,"wdir":150,"wspd":17,"wgst":29,"visib":"10+","altim":1008.5,"slp":1008.4,"qcField":4,"presTend":-0.8,"maxT":31.7,"minT":28.9,"metarType":"METAR","rawOb":"METAR KMFE 172353Z 15017G29KT 10SM CLR 29/19 A2978 RMK AO2 PK WND 15035/2331 SLP084 T02890189 10317 20289 55008","lat":26.1791,"lon":-98.2445,"elev":29,"name":"McAllen/Miller Intl, TX, US","cover":"CLR","clouds":[],"fltCat":"VFR"},{"icaoId":"KMFR","receiptTime":"2026-04-17T23:56:31.012Z","obsTime":1776469980,"reportTime":"2026-04-18T00:00:00.000Z","temp":19.4,"dewp":-6.7,"wdir":340,"wspd":4,"visib":"10+","altim":1018,"slp":1017.9,"qcField":4,"presTend":-2.4,"maxT":20,"minT":7.2,"metarType":"METAR","rawOb":"METAR KMFR 172353Z 34004KT 10SM CLR 19/M07 A3006 RMK AO2 SLP179 T01941067 10200 20072 58024","lat":42.375,"lon":-122.877,"elev":397,"name":"Medford/Rogue Valley Intl, OR, US","cover":"CLR","clouds":[],"fltCat":"VFR"},{"icaoId":"KMLS","receiptTime":"2026-04-17T23:56:31.192Z","obsTime":1776469980,"reportTime":"2026-04-18T00:00:00.000Z","temp":5,"dewp":-11.1,"wdir":330,"wspd":16,"wgst":26,"visib":"10+","altim":1017,"slp":1019.2,"qcField":6,"maxT":6.1,"minT":1.7,"pcp6hr":0.005,"metarType":"METAR","rawOb":"METAR KMLS 172353Z AUTO 33016G26KT 10SM CLR 05/M11 A3003 RMK AO2 PK WND 33029/2317 SLP192 60000 T00501111 10061 20017 55000","lat":46.4265,"lon":-105.8834,"elev":800,"name":"Miles City/Wiley Fld, MT, US","cover":"CLR","clouds":[],"fltCat":"VFR"},{"icaoId":"KHIO","receiptTime":"2026-04-17T23:56:35.230Z","obsTime":1776469980,"reportTime":"2026-04-18T00:00:00.000Z","temp":14.4,"dewp":0.6,"wdir":300,"wspd":4,"visib":"10+","altim":1021.8,"slp":1021.9,"qcField":4,"presTend":-2.4,"maxT":15,"minT":9.4,"metarType":"METAR","rawOb":"METAR KHIO 172353Z 30004KT 10SM CLR 14/01 A3017 RMK AO2 SLP219 T01440006 10150 20094 58024","lat":45.5476,"lon":-122.9557,"elev":62,"name":"Portland/Hillsboro Arpt, OR, US","cover":"CLR","clouds":[],"fltCat":"VFR"},{"icaoId":"KHOU","receiptTime":"2026-04-17T23:56:30.341Z","obsTime":1776469980,"reportTime":"2026-04-18T00:00:00.000Z","temp":25,"dewp":19.4,"wdir":160,"wspd":14,"visib":"10+","altim":1012.3,"slp":1012.6,"qcField":4,"presTend":-0.9,"maxT":29.4,"minT":25,"metarType":"METAR","rawOb":"METAR KHOU 172353Z 16014KT 10SM FEW026 SCT036 SCT070 BKN250 25/19 A2989 RMK AO2 PK WND 17026/2301 SLP126 T02500194 10294 20250 55009","lat":29.6458,"lon":-95.2821,"elev":13,"name":"Houston/Hobby Arpt, TX, US","cover":"BKN","clouds":[{"cover":"FEW","base":2600},{"cover":"SCT","base":3600},{"cover":"SCT","base":7000},{"cover":"BKN","base":25000}],"fltCat":"VFR"},{"icaoId":"KLAR","receiptTime":"2026-04-17T23:56:29.270Z","obsTime":1776469980,"reportTime":"2026-04-18T00:00:00.000Z","temp":-0.6,"dewp":-13.3,"wdir":300,"wspd":18,"wgst":29,"visib":"10+","altim":1016.3,"slp":1017.6,"qcField":6,"presTend":0.4,"maxT":0,"minT":-3.9,"precip":0.005,"pcp6hr":0.005,"metarType":"METAR","rawOb":"METAR KLAR 172353Z AUTO 30018G29KT 10SM SCT075 SCT085 M01/M13 A3001 RMK AO2 PK WND 29029/2344 SNB06E19 SLP176 P0000 60000 T10061133 10000 21039 50004","lat":41.3165,"lon":-105.6729,"elev":2217,"name":"Laramie Rgnl, WY, US","cover":"SCT","clouds":[{"cover":"SCT","base":7500},{"cover":"SCT","base":8500}],"fltCat":"VFR"},{"icaoId":"KLAX","receiptTime":"2026-04-17T23:56:28.413Z","obsTime":1776469980,"reportTime":"2026-04-18T00:00:00.000Z","temp":20,"dewp":12.2,"wdir":270,"wspd":15,"visib":"10+","altim":1014.3,"slp":1014,"qcField":4,"presTend":-1.1,"maxT":22.8,"minT":18.9,"metarType":"METAR","rawOb":"METAR KLAX 172353Z 27015KT 10SM FEW060 20/12 A2995 RMK AO2 SLP140 T02000122 10228 20189 58011","lat":33.9382,"lon":-118.3866,"elev":30,"name":"Los Angeles Intl, CA, US","cover":"FEW","clouds":[{"cover":"FEW","base":6000}],"fltCat":"VFR"},{"icaoId":"KLGB","receiptTime":"2026-04-17T23:56:29.388Z","obsTime":1776469980,"reportTime":"2026-04-18T00:00:00.000Z","temp":23.3,"dewp":11.1,"wdir":290,"wspd":11,"visib":"10+","altim":1013.3,"slp":1013.1,"qcField":12,"presTend":-1.5,"maxT":23.9,"minT":20,"metarType":"METAR","rawOb":"METAR KLGB 172353Z 29011KT 10SM CLR 23/11 A2992 RMK AO2 WSHFT 2336 SLP131 T02330111 10239 20200 58015 $","lat":33.8118,"lon":-118.1472,"elev":10,"name":"Long Beach Arpt, CA, US","cover":"CLR","clouds":[],"fltCat":"VFR"},{"icaoId":"KVGT","receiptTime":"2026-04-17T23:56:26.894Z","obsTime":1776469980,"reportTime":"2026-04-18T00:00:00.000Z","temp":20,"dewp":-21.1,"wdir":30,"wspd":7,"wgst":14,"visib":"10+","altim":1017.4,"slp":1018.1,"qcField":4,"presTend":-2.5,"maxT":20.6,"minT":13.9,"metarType":"METAR","rawOb":"METAR KVGT 172353Z 03007G14KT 10SM CLR 20/M21 A3004 RMK AO2 SLP181 T02001211 10206 20139 56025","lat":36.212,"lon":-115.194,"elev":664,"name":"Las Vegas/North Arpt, NV, US","cover":"CLR","clouds":[],"fltCat":"VFR"},{"icaoId":"KTPA","receiptTime":"2026-04-17T23:56:37.044Z","obsTime":1776469980,"reportTime":"2026-04-18T00:00:00.000Z","temp":25.6,"dewp":14.4,"wdir":290,"wspd":7,"visib":"10+","altim":1016,"slp":1015.8,"qcField":4,"presTend":-0.2,"maxT":29.4,"minT":25.6,"metarType":"METAR","rawOb":"METAR KTPA 172353Z 29007KT 10SM FEW250 26/14 A3000 RMK AO2 SLP158 T02560144 10294 20256 55002","lat":27.9633,"lon":-82.54,"elev":2,"name":"Tampa Intl Arpt, FL, US","cover":"FEW","clouds":[{"cover":"FEW","base":25000}],"fltCat":"VFR"},{"icaoId":"KPSC","receiptTime":"2026-04-17T23:56:33.348Z","obsTime":1776469980,"reportTime":"2026-04-18T00:00:00.000Z","temp":15.6,"dewp":-2.8,"wdir":"VRB","wspd":3,"visib":"10+","altim":1023.1,"slp":1023.2,"qcField":4,"presTend":-1.5,"maxT":16.1,"minT":12.2,"metarType":"METAR","rawOb":"METAR KPSC 172353Z VRB03KT 10SM CLR 16/M03 A3021 RMK AO2 SLP232 T01561028 10161 20122 56015","lat":46.2695,"lon":-119.1182,"elev":121,"name":"Pasco/Tri Cities Arpt, WA, US","cover":"CLR","clouds":[],"fltCat":"VFR"},{"icaoId":"KMDW","receiptTime":"2026-04-17T23:56:30.985Z","obsTime":1776469980,"reportTime":"2026-04-18T00:00:00.000Z","temp":26.1,"dewp":16.7,"wdir":180,"wspd":20,"wgst":34,"visib":"10+","altim":1003.8,"slp":1003,"qcField":4,"presTend":-2.7,"maxT":27.8,"minT":25,"metarType":"METAR","rawOb":"METAR KMDW 172353Z 18020G34KT 10SM FEW050 BKN180 OVC250 26/17 A2964 RMK AO2 PK WND 18034/2353 SLP030 T02610167 10278 20250 56027","lat":41.7841,"lon":-87.7552,"elev":186,"name":"Chicago/Midway Intl, IL, US","cover":"OVC","clouds":[{"cover":"FEW","base":5000},{"cover":"BKN","base":18000},{"cover":"OVC","base":25000}],"fltCat":"VFR"},{"icaoId":"KPBI","receiptTime":"2026-04-17T23:56:32.588Z","obsTime":1776469980,"reportTime":"2026-04-18T00:00:00.000Z","temp":25,"dewp":20.6,"wdir":60,"wspd":8,"visib":"10+","altim":1016.7,"slp":1016.4,"qcField":12,"presTend":-0.1,"maxT":27.2,"minT":25,"metarType":"METAR","rawOb":"METAR KPBI 172353Z 06008KT 10SM SCT025 BKN060 25/21 A3002 RMK AO2 SLP164 T02500206 10272 20250 55001 $","lat":26.6851,"lon":-80.0992,"elev":4,"name":"Palm Beach Intl, FL, US","cover":"BKN","clouds":[{"cover":"SCT","base":2500},{"cover":"BKN","base":6000}],"fltCat":"VFR"},{"icaoId":"KPGA","receiptTime":"2026-04-17T23:56:28.538Z","obsTime":1776469980,"reportTime":"2026-04-18T00:00:00.000Z","temp":12.2,"dewp":-24.4,"wdir":0,"wspd":0,"visib":"10+","altim":1019.7,"slp":1017.4,"qcField":14,"presTend":-1.3,"maxT":13.3,"minT":8.3,"metarType":"METAR","rawOb":"METAR KPGA 172353Z AUTO 00000KT 10SM CLR 12/M24 A3011 RMK AO2 SLP174 T01221244 10133 20083 56013 $","lat":36.9211,"lon":-111.4487,"elev":1310,"name":"Page Muni, AZ, US","cover":"CLR","clouds":[],"fltCat":"VFR"},{"icaoId":"KGTF","receiptTime":"2026-04-17T23:56:35.218Z","obsTime":1776469980,"reportTime":"2026-04-18T00:00:00.000Z","temp":2.8,"dewp":-2.8,"wdir":350,"wspd":8,"visib":8,"altim":1020.1,"slp":1024.6,"qcField":4,"presTend":0.4,"maxT":5,"minT":0.6,"pcp6hr":0.005,"metarType":"METAR","rawOb":"METAR KGTF 172353Z 35008KT 8SM FEW027 BKN041 OVC050 03/M03 A3012 RMK AO2 SLP246 60000 T00281028 10050 20006 51004","lat":47.4733,"lon":-111.3828,"elev":1117,"name":"Great Falls Intl, MT, US","cover":"OVC","clouds":[{"cover":"FEW","base":2700},{"cover":"BKN","base":4100},{"cover":"OVC","base":5000}],"fltCat":"VFR"},{"icaoId":"KDVT","receiptTime":"2026-04-17T23:56:35.167Z","obsTime":1776469980,"reportTime":"2026-04-18T00:00:00.000Z","temp":28.3,"dewp":-1.1,"wdir":220,"wspd":9,"wgst":19,"visib":"10+","altim":1010.2,"slp":1008.4,"qcField":4,"presTend":-2.1,"maxT":28.9,"minT":24.4,"metarType":"METAR","rawOb":"METAR KDVT 172353Z 22009G19KT 10SM CLR 28/M01 A2983 RMK AO2 SLP084 T02831011 10289 20244 56021","lat":33.6902,"lon":-112.0662,"elev":454,"name":"Phoenix/Deer Valley Arpt, AZ, US","cover":"CLR","clouds":[],"fltCat":"VFR"},{"icaoId":"KONT","receiptTime":"2026-04-17T23:56:32.974Z","obsTime":1776469980,"reportTime":"2026-04-18T00:00:00.000Z","temp":26.1,"dewp":1.1,"wdir":240,"wspd":3,"visib":"10+","altim":1013.3,"slp":1012.4,"qcField":12,"presTend":-1.5,"maxT":26.7,"minT":18.3,"metarType":"METAR","rawOb":"METAR KONT 172353Z 24003KT 10SM FEW070 26/01 A2992 RMK AO2 SLP124 T02610011 10267 20183 58015 $","lat":34.0531,"lon":-117.5769,"elev":279,"name":"Ontario Intl, CA, US","cover":"FEW","clouds":[{"cover":"FEW","base":7000}],"fltCat":"VFR"},{"icaoId":"KASE","receiptTime":"2026-04-17T23:56:34.771Z","obsTime":1776469980,"reportTime":"2026-04-18T00:00:00.000Z","temp":-1.1,"dewp":-12.2,"wdir":320,"wspd":7,"visib":"10+","altim":1019.4,"slp":1017.6,"qcField":4,"presTend":-0.2,"maxT":0,"minT":-6.1,"pcp6hr":0.005,"metarType":"METAR","rawOb":"METAR KASE 172353Z 32007KT 10SM BKN065 M01/M12 A3010 RMK AO2 SLP176 60000 T10111122 10000 21061 55002","lat":39.2299,"lon":-106.8705,"elev":2384,"name":"Aspen/Pitkin Cnty, CO, US","cover":"BKN","clouds":[{"cover":"BKN","base":6500}],"fltCat":"VFR"},{"icaoId":"KBIL","receiptTime":"2026-04-17T23:56:28.883Z","obsTime":1776469980,"reportTime":"2026-04-18T00:00:00.000Z","temp":4.4,"dewp":-3.9,"wdir":300,"wspd":15,"visib":"10+","altim":1018.4,"slp":1021,"qcField":12,"maxT":9.4,"minT":2.2,"pcp6hr":0.005,"metarType":"METAR","rawOb":"METAR KBIL 172353Z 30015KT 10SM FEW045 SCT070 BKN100 04/M04 A3007 RMK AO2 PK WND 27029/2258 SLP210 SHRASN DSNT E-S W-N 60000 T00441039 10094 20022 55000 $","lat":45.8072,"lon":-108.5462,"elev":1089,"name":"Billings/Logan Intl, MT, US","cover":"BKN","clouds":[{"cover":"FEW","base":4500},{"cover":"SCT","base":7000},{"cover":"BKN","base":10000}],"fltCat":"VFR"},{"icaoId":"KCNY","receiptTime":"2026-04-17T23:56:28.965Z","obsTime":1776469980,"reportTime":"2026-04-18T00:00:00.000Z","temp":8.9,"dewp":-13.9,"wdir":170,"wspd":4,"visib":"10+","altim":1020.1,"slp":1019.6,"qcField":14,"presTend":-1.3,"maxT":9.4,"minT":5.6,"metarType":"METAR","rawOb":"METAR KCNY 172353Z AUTO 17004KT 10SM CLR 09/M14 A3012 RMK AO2 SLP196 T00891139 10094 20056 56013 $","lat":38.7501,"lon":-109.7627,"elev":1392,"name":"Moab/Canyonland Fld, UT, US","cover":"CLR","clouds":[],"fltCat":"VFR"},{"icaoId":"KCPR","receiptTime":"2026-04-17T23:56:33.708Z","obsTime":1776469980,"reportTime":"2026-04-18T00:00:00.000Z","temp":3.3,"dewp":-7.2,"wdir":300,"wspd":10,"wgst":15,"visib":"10+","altim":1016.7,"slp":1018.7,"qcField":4,"presTend":-0.8,"maxT":3.3,"minT":-1.1,"metarType":"METAR","rawOb":"METAR KCPR 172353Z 30010G15KT 10SM CLR 03/M07 A3002 RMK AO2 SLP187 T00331072 10033 21011 56008","lat":42.8978,"lon":-106.4736,"elev":1623,"name":"Casper/Natrona Cnty, WY, US","cover":"CLR","clouds":[],"fltCat":"VFR"},{"icaoId":"KBNA","receiptTime":"2026-04-17T23:56:36.481Z","obsTime":1776469980,"reportTime":"2026-04-18T00:00:00.000Z","temp":26.7,"dewp":15,"wdir":180,"wspd":7,"visib":"10+","altim":1013,"slp":1012.2,"qcField":4,"presTend":-2.5,"maxT":29.4,"minT":26.7,"metarType":"METAR","rawOb":"METAR KBNA 172353Z 18007KT 10SM FEW050 SCT250 27/15 A2991 RMK AO2 SLP122 T02670150 10294 20267 56025","lat":36.1105,"lon":-86.6881,"elev":168,"name":"Nashville Intl, TN, US","cover":"SCT","clouds":[{"cover":"FEW","base":5000},{"cover":"SCT","base":25000}],"fltCat":"VFR"},{"icaoId":"KBUR","receiptTime":"2026-04-17T23:56:35.097Z","obsTime":1776469980,"reportTime":"2026-04-18T00:00:00.000Z","temp":25,"dewp":7.8,"wdir":210,"wspd":8,"visib":"10+","altim":1013.6,"slp":1012.5,"qcField":4,"presTend":-1.5,"maxT":25.6,"minT":18.3,"metarType":"METAR","rawOb":"METAR KBUR 172353Z 21008KT 10SM CLR 25/08 A2993 RMK AO2 SLP125 T02500078 10256 20183 58015","lat":34.1996,"lon":-118.3654,"elev":221,"name":"Burbank/Bob Hope Arpt, CA, US","cover":"CLR","clouds":[],"fltCat":"VFR"},{"icaoId":"KACV","receiptTime":"2026-04-17T23:56:34.184Z","obsTime":1776469980,"reportTime":"2026-04-18T00:00:00.000Z","temp":13.3,"dewp":6.7,"wdir":320,"wspd":13,"visib":"10+","altim":1018.4,"slp":1019.1,"qcField":6,"presTend":-1,"maxT":15,"minT":12.2,"metarType":"METAR","rawOb":"METAR KACV 172353Z AUTO 32013KT 10SM CLR 13/07 A3007 RMK AO2 SLP191 T01330067 10150 20122 58010","lat":40.9784,"lon":-124.1048,"elev":63,"name":"Arcata Arpt, CA, US","cover":"CLR","clouds":[],"fltCat":"VFR"},{"icaoId":"KVEL","receiptTime":"2026-04-17T23:56:27.559Z","obsTime":1776469980,"reportTime":"2026-04-18T00:00:00.000Z","temp":6.1,"dewp":-9.4,"wdir":140,"wspd":9,"wgst":16,"visib":"10+","altim":1019.7,"slp":1021,"qcField":6,"presTend":-1.2,"maxT":6.1,"minT":0,"metarType":"METAR","rawOb":"METAR KVEL 172353Z AUTO 14009G16KT 10SM CLR 06/M09 A3011 RMK AO2 SLP210 T00611094 10061 20000 56012","lat":40.4429,"lon":-109.5128,"elev":1604,"name":"Vernal Rgnl, UT, US","cover":"CLR","clouds":[],"fltCat":"VFR"},{"icaoId":"KPSP","receiptTime":"2026-04-17T23:56:33.358Z","obsTime":1776469980,"reportTime":"2026-04-18T00:00:00.000Z","temp":27.8,"dewp":-12.2,"wdir":30,"wspd":5,"visib":"10+","altim":1013.6,"slp":1013.3,"qcField":12,"presTend":-2.4,"maxT":27.8,"minT":23.9,"metarType":"METAR","rawOb":"METAR KPSP 172353Z 03005KT 10SM CLR 28/M12 A2993 RMK AO2 SLP133 T02781122 10278 20239 56024 $","lat":33.8222,"lon":-116.5043,"elev":123,"name":"Palm Springs Intl, CA, US","cover":"CLR","clouds":[],"fltCat":"VFR"},{"icaoId":"KLBB","receiptTime":"2026-04-17T23:56:28.428Z","obsTime":1776469980,"reportTime":"2026-04-18T00:00:00.000Z","temp":30.6,"dewp":-5,"wdir":240,"wspd":22,"wgst":32,"visib":"10+","altim":1006.2,"slp":1000.9,"qcField":4,"presTend":-1.3,"maxT":31.7,"minT":28.3,"metarType":"METAR","rawOb":"METAR KLBB 172353Z 24022G32KT 10SM FEW140 SCT250 31/M05 A2971 RMK AO2 PK WND 22036/2305 SLP009 T03061050 10317 20283 55013","lat":33.6658,"lon":-101.8233,"elev":996,"name":"Lubbock Intl Arpt, TX, US","cover":"SCT","clouds":[{"cover":"FEW","base":14000},{"cover":"SCT","base":25000}],"fltCat":"VFR"},{"icaoId":"KPDX","receiptTime":"2026-04-17T23:56:28.525Z","obsTime":1776469980,"reportTime":"2026-04-18T00:00:00.000Z","temp":14.4,"dewp":2.2,"wdir":300,"wspd":9,"visib":"10+","altim":1022.1,"slp":1021.9,"qcField":12,"presTend":-2.3,"maxT":15.6,"minT":9.4,"metarType":"METAR","rawOb":"METAR KPDX 172353Z 30009KT 10SM FEW045 BKN190 BKN250 14/02 A3018 RMK AO2 SLP219 T01440022 10156 20094 56023 $","lat":45.5958,"lon":-122.6092,"elev":7,"name":"Portland Intl, OR, US","cover":"BKN","clouds":[{"cover":"FEW","base":4500},{"cover":"BKN","base":19000},{"cover":"BKN","base":25000}],"fltCat":"VFR"},{"icaoId":"KMSO","receiptTime":"2026-04-18T00:12:03.947Z","obsTime":1776469980,"reportTime":"2026-04-18T00:00:00.000Z","temp":7.8,"dewp":-7.2,"wdir":300,"wspd":16,"wgst":21,"visib":"10+","altim":1021.4,"slp":1022.9,"qcField":13,"presTend":0.2,"maxT":9.4,"minT":6.7,"pcp6hr":0.005,"metarType":"METAR","rawOb":"METAR KMSO 172353Z COR 30016G21KT 10SM BKN075 08/M07 A3016 RMK AO2 SLP229 60000 T00781072 10094 20067 53002 $","lat":46.9208,"lon":-114.0938,"elev":974,"name":"Missoula Intl, MT, US","cover":"BKN","clouds":[{"cover":"BKN","base":7500}],"fltCat":"VFR"},{"icaoId":"KSEA","receiptTime":"2026-04-17T23:56:28.648Z","obsTime":1776469980,"reportTime":"2026-04-18T00:00:00.000Z","temp":12.8,"dewp":2.2,"wdir":300,"wspd":8,"visib":"10+","altim":1023.5,"slp":1024,"qcField":4,"presTend":-1.7,"maxT":13.3,"minT":8.9,"metarType":"METAR","rawOb":"METAR KSEA 172353Z 30008KT 10SM FEW060 SCT180 BKN240 13/02 A3022 RMK AO2 SLP240 T01280022 10133 20089 56017","lat":47.4447,"lon":-122.3144,"elev":115,"name":"Seattle-Tacoma Intl, WA, US","cover":"BKN","clouds":[{"cover":"FEW","base":6000},{"cover":"SCT","base":18000},{"cover":"BKN","base":24000}],"fltCat":"VFR"},{"icaoId":"KTUS","receiptTime":"2026-04-17T23:56:28.713Z","obsTime":1776469980,"reportTime":"2026-04-18T00:00:00.000Z","temp":27.2,"dewp":-2.8,"wdir":320,"wspd":11,"wgst":19,"visib":"10+","altim":1011.9,"slp":1008.3,"qcField":12,"presTend":-1.5,"maxT":28.3,"minT":23.9,"metarType":"METAR","rawOb":"METAR KTUS 172353Z 32011G19KT 10SM CLR 27/M03 A2988 RMK AO2 SLP083 T02721028 10283 20239 56015 $","lat":32.1315,"lon":-110.9564,"elev":776,"name":"Tucson Intl Arpt, AZ, US","cover":"CLR","clouds":[],"fltCat":"VFR"},{"icaoId":"KCLL","receiptTime":"2026-04-17T23:56:28.955Z","obsTime":1776469980,"reportTime":"2026-04-18T00:00:00.000Z","temp":26.7,"dewp":20.6,"wdir":170,"wspd":14,"wgst":26,"visib":"10+","altim":1010.2,"slp":1009.8,"qcField":4,"presTend":-0.7,"maxT":30,"minT":26.7,"metarType":"METAR","rawOb":"METAR KCLL 172353Z 17014G26KT 10SM SCT032 27/21 A2983 RMK AO2 PK WND 15026/2347 SLP098 T02670206 10300 20267 55007","lat":30.5912,"lon":-96.3631,"elev":96,"name":"College Station/Easterwood Arpt, TX, US","cover":"SCT","clouds":[{"cover":"SCT","base":3200}],"fltCat":"VFR"},{"icaoId":"KDAL","receiptTime":"2026-04-17T23:56:29.018Z","obsTime":1776469980,"reportTime":"2026-04-18T00:00:00.000Z","temp":27.8,"dewp":17.8,"wdir":160,"wspd":12,"wgst":22,"visib":"10+","altim":1007.5,"slp":1006.8,"qcField":4,"presTend":-1.6,"maxT":28.3,"minT":26.1,"metarType":"METAR","rawOb":"METAR KDAL 172353Z 16012G22KT 10SM BKN075 OVC140 28/18 A2975 RMK AO2 SLP068 T02780178 10283 20261 56016","lat":32.8384,"lon":-96.8358,"elev":148,"name":"Dallas/Love Fld, TX, US","cover":"OVC","clouds":[{"cover":"BKN","base":7500},{"cover":"OVC","base":14000}],"fltCat":"VFR"},{"icaoId":"KLAW","receiptTime":"2026-04-17T23:56:29.282Z","obsTime":1776469980,"reportTime":"2026-04-18T00:00:00.000Z","temp":23.9,"dewp":18.9,"wdir":170,"wspd":14,"wgst":23,"visib":"10+","altim":1005.2,"slp":1004,"qcField":6,"presTend":-1.7,"maxT":24.4,"minT":22.8,"metarType":"METAR","rawOb":"METAR KLAW 172353Z AUTO 17014G23KT 10SM CLR 24/19 A2968 RMK AO2 PK WND 17026/2340 SLP040 T02390189 10244 20228 55017","lat":34.5577,"lon":-98.4172,"elev":328,"name":"Lawton-Fort Sill Rgnl, OK, US","cover":"CLR","clouds":[],"fltCat":"VFR"},{"icaoId":"KLOL","receiptTime":"2026-04-17T23:56:29.456Z","obsTime":1776469980,"reportTime":"2026-04-18T00:00:00.000Z","temp":13.9,"dewp":-24.4,"wdir":60,"wspd":3,"visib":"10+","altim":1020.4,"slp":1021.6,"qcField":6,"presTend":-2.1,"maxT":13.9,"minT":6.1,"metarType":"METAR","rawOb":"METAR KLOL 172353Z AUTO 06003KT 10SM CLR 14/M24 A3013 RMK AO2 SLP216 T01391244 10139 20061 56021","lat":40.0684,"lon":-118.5702,"elev":1191,"name":"Lovelock/Derby Fld, NV, US","cover":"CLR","clouds":[],"fltCat":"VFR"},{"icaoId":"KMAF","receiptTime":"2026-04-17T23:56:36.740Z","obsTime":1776469980,"reportTime":"2026-04-18T00:00:00.000Z","temp":31.1,"dewp":-1.1,"wdir":260,"wspd":18,"wgst":26,"visib":"10+","altim":1007.9,"slp":1002.8,"qcField":4,"presTend":-0.8,"maxT":32.8,"minT":29.4,"metarType":"METAR","rawOb":"METAR KMAF 172353Z 26018G26KT 10SM CLR 31/M01 A2976 RMK AO2 PK WND 25031/2313 SLP028 T03111011 10328 20294 55008","lat":31.9475,"lon":-102.2086,"elev":874,"name":"Midland Intl, TX, US","cover":"CLR","clouds":[],"fltCat":"VFR"},{"icaoId":"KDTW","receiptTime":"2026-04-17T23:56:30.801Z","obsTime":1776469980,"reportTime":"2026-04-18T00:00:00.000Z","temp":17.2,"dewp":11.7,"wdir":150,"wspd":5,"visib":"10+","altim":1011.3,"slp":1011.1,"qcField":4,"presTend":-3.4,"maxT":20.6,"minT":17.2,"metarType":"METAR","rawOb":"METAR KDTW 172353Z 15005KT 10SM FEW180 BKN230 17/12 A2986 RMK AO2 SLP111 T01720117 10206 20172 56034","lat":42.2311,"lon":-83.3312,"elev":192,"name":"Detroit/Metro Wayne Cnty, MI, US","cover":"BKN","clouds":[{"cover":"FEW","base":18000},{"cover":"BKN","base":23000}],"fltCat":"VFR"},{"icaoId":"KMLC","receiptTime":"2026-04-17T23:56:31.163Z","obsTime":1776469980,"reportTime":"2026-04-18T00:00:00.000Z","temp":22.8,"dewp":18.3,"wdir":170,"wspd":7,"visib":"10+","altim":1007.5,"slp":1006.5,"qcField":6,"wxString":"-RA","presTend":-1.9,"maxT":26.1,"minT":22.8,"precip":0.005,"pcp6hr":0.01,"metarType":"METAR","rawOb":"METAR KMLC 172353Z AUTO 17007KT 130V210 10SM -RA FEW038 BKN045 OVC060 23/18 A2975 RMK AO2 RAE22B44 SLP065 P0000 60001 T02280183 10261 20228 58019","lat":34.8824,"lon":-95.7815,"elev":231,"name":"McAlester Rgnl, OK, US","cover":"OVC","clouds":[{"cover":"FEW","base":3800},{"cover":"BKN","base":4500},{"cover":"OVC","base":6000}],"fltCat":"VFR"},{"icaoId":"KGSP","receiptTime":"2026-04-17T23:56:32.044Z","obsTime":1776469980,"reportTime":"2026-04-18T00:00:00.000Z","temp":26.7,"dewp":8.3,"wdir":160,"wspd":4,"visib":"10+","altim":1014.6,"slp":1013.6,"qcField":4,"presTend":-0.4,"maxT":30,"minT":26.7,"metarType":"METAR","rawOb":"METAR KGSP 172353Z 16004KT 10SM CLR 27/08 A2996 RMK AO2 SLP136 T02670083 10300 20267 55004","lat":34.8842,"lon":-82.2209,"elev":285,"name":"Greenville-Spartanburg Intl, SC, US","cover":"CLR","clouds":[],"fltCat":"VFR"},{"icaoId":"KPAE","receiptTime":"2026-04-17T23:56:32.508Z","obsTime":1776469980,"reportTime":"2026-04-18T00:00:00.000Z","temp":11.7,"dewp":1.1,"wdir":330,"wspd":5,"visib":"10+","altim":1023.8,"slp":1023.8,"qcField":4,"presTend":-1.7,"maxT":12.2,"minT":8.3,"metarType":"METAR","rawOb":"METAR KPAE 172353Z 33005KT 10SM CLR 12/01 A3023 RMK AO2 SLP238 T01170011 10122 20083 56017","lat":47.9232,"lon":-122.2831,"elev":166,"name":"Everett/Paine Fld, WA, US","cover":"CLR","clouds":[],"fltCat":"VFR"},{"icaoId":"KMTJ","receiptTime":"2026-04-17T23:56:32.797Z","obsTime":1776469980,"reportTime":"2026-04-18T00:00:00.000Z","temp":5,"dewp":-13.3,"wdir":250,"wspd":3,"visib":"10+","altim":1021.4,"slp":1020.2,"qcField":6,"presTend":-0.2,"maxT":5.6,"minT":-0.6,"metarType":"METAR","rawOb":"METAR KMTJ 172353Z AUTO 25003KT 10SM CLR 05/M13 A3016 RMK AO2 SLP202 T00501133 10056 21006 55002","lat":38.5054,"lon":-107.8981,"elev":1755,"name":"Montrose Rgnl, CO, US","cover":"CLR","clouds":[],"fltCat":"VFR"},{"icaoId":"KOAK","receiptTime":"2026-04-17T23:56:32.879Z","obsTime":1776469980,"reportTime":"2026-04-18T00:00:00.000Z","temp":19.4,"dewp":5,"wdir":240,"wspd":13,"visib":"10+","altim":1017.4,"slp":1017,"qcField":12,"presTend":-1.2,"maxT":21.7,"minT":17.2,"metarType":"METAR","rawOb":"METAR KOAK 172353Z 24013KT 10SM BKN250 19/05 A3004 RMK AO2 SLP170 T01940050 10217 20172 58012 $","lat":37.7178,"lon":-122.233,"elev":3,"name":"Oakland Intl, CA, US","cover":"BKN","clouds":[{"cover":"BKN","base":25000}],"fltCat":"VFR"},{"icaoId":"KRTN","receiptTime":"2026-04-17T23:56:33.046Z","obsTime":1776469980,"reportTime":"2026-04-18T00:00:00.000Z","temp":6.1,"dewp":-2.8,"wdir":50,"wspd":25,"wgst":38,"visib":"10+","altim":1014,"slp":1011.1,"qcField":6,"presTend":3.9,"maxT":21.1,"minT":6.1,"metarType":"METAR","rawOb":"METAR KRTN 172353Z AUTO 05025G38KT 10SM CLR 06/M03 A2994 RMK AO2 PK WND 05041/2316 WSHFT 2240 SLP111 T00611028 10211 20061 53039","lat":36.7418,"lon":-104.5076,"elev":1939,"name":"Raton/Crews Fld, NM, US","cover":"CLR","clouds":[],"fltCat":"VFR"},{"icaoId":"KSAF","receiptTime":"2026-04-17T23:56:33.140Z","obsTime":1776469980,"reportTime":"2026-04-18T00:00:00.000Z","temp":15,"dewp":-12.2,"wdir":280,"wspd":24,"wgst":41,"visib":"10+","altim":1015.3,"slp":1010.2,"qcField":4,"presTend":1.4,"maxT":18.9,"minT":15,"metarType":"METAR","rawOb":"METAR KSAF 172353Z 28024G41KT 10SM CLR 15/M12 A2998 RMK AO2 PK WND 29046/2315 SLP102 T01501122 10189 20150 53014","lat":35.611,"lon":-106.0957,"elev":1918,"name":"Santa Fe Cnty Muni, NM, US","cover":"CLR","clouds":[],"fltCat":"VFR"},{"icaoId":"KSDL","receiptTime":"2026-04-17T23:56:33.165Z","obsTime":1776469980,"reportTime":"2026-04-18T00:00:00.000Z","temp":28.3,"dewp":-2.2,"wdir":"VRB","wspd":6,"visib":"10+","altim":1010.9,"slp":1008.7,"qcField":4,"presTend":-1.9,"maxT":28.9,"minT":23.9,"metarType":"METAR","rawOb":"METAR KSDL 172353Z VRB06KT 10SM CLR 28/M02 A2985 RMK AO2 SLP087 T02831022 10289 20239 56019","lat":33.6123,"lon":-111.9232,"elev":438,"name":"Scottsdale Muni, AZ, US","cover":"CLR","clouds":[],"fltCat":"VFR"},{"icaoId":"KSHR","receiptTime":"2026-04-17T23:56:33.245Z","obsTime":1776469980,"reportTime":"2026-04-18T00:00:00.000Z","temp":2.8,"dewp":-2.8,"wdir":350,"wspd":17,"wgst":27,"visib":"10+","altim":1018,"slp":1021.3,"qcField":6,"presTend":1.1,"maxT":6.7,"minT":1.7,"metarType":"METAR","rawOb":"METAR KSHR 172353Z AUTO 35017G27KT 10SM FEW050 03/M03 A3006 RMK AO2 PK WND 33031/2334 SLP213 T00281028 10067 20017 53011","lat":44.7603,"lon":-106.9741,"elev":1212,"name":"Sheridan Cnty Arpt, WY, US","cover":"FEW","clouds":[{"cover":"FEW","base":5000}],"fltCat":"VFR"},{"icaoId":"KPRC","receiptTime":"2026-04-17T23:56:33.337Z","obsTime":1776469980,"reportTime":"2026-04-18T00:00:00.000Z","temp":18.3,"dewp":-9.4,"wdir":40,"wspd":4,"visib":"10+","altim":1016,"slp":1010.6,"qcField":4,"presTend":-1.5,"maxT":19.4,"minT":13.3,"metarType":"METAR","rawOb":"METAR KPRC 172353Z 04004KT 10SM CLR 18/M09 A3000 RMK AO2 SLP106 T01831094 10194 20133 56015","lat":34.6491,"lon":-112.4223,"elev":1528,"name":"Prescott/Love Fld, AZ, US","cover":"CLR","clouds":[],"fltCat":"VFR"},{"icaoId":"KCDC","receiptTime":"2026-04-17T23:56:35.119Z","obsTime":1776469980,"reportTime":"2026-04-18T00:00:00.000Z","temp":8.9,"dewp":-13.9,"wdir":360,"wspd":11,"wgst":20,"visib":"10+","altim":1020.7,"slp":1020.1,"qcField":6,"presTend":-1.2,"maxT":9.4,"minT":2.2,"metarType":"METAR","rawOb":"METAR KCDC 172353Z AUTO 36011G20KT 10SM CLR 09/M14 A3014 RMK AO2 SLP201 T00891139 10094 20022 56012","lat":37.7067,"lon":-113.097,"elev":1703,"name":"Cedar City Muni, UT, US","cover":"CLR","clouds":[],"fltCat":"VFR"},{"icaoId":"KAMA","receiptTime":"2026-04-17T23:56:36.384Z","obsTime":1776469980,"reportTime":"2026-04-18T00:00:00.000Z","temp":28.3,"dewp":-8.3,"wdir":270,"wspd":23,"wgst":32,"visib":"10+","altim":1006.5,"slp":1001.1,"qcField":4,"presTend":-0.3,"maxT":30.6,"minT":27.8,"metarType":"METAR","rawOb":"METAR KAMA 172353Z 27023G32KT 10SM CLR 28/M08 A2972 RMK AO2 PK WND 27039/2319 SLP011 T02831083 10306 20278 55003","lat":35.2203,"lon":-101.7173,"elev":1102,"name":"Amarillo Intl Arpt, TX, US","cover":"CLR","clouds":[],"fltCat":"VFR"},{"icaoId":"KBLI","receiptTime":"2026-04-17T23:56:34.470Z","obsTime":1776469980,"reportTime":"2026-04-18T00:00:00.000Z","temp":13.3,"dewp":2.8,"wdir":310,"wspd":5,"visib":"10+","altim":1023.8,"slp":1024.5,"qcField":4,"presTend":-1.8,"maxT":13.3,"minT":9.4,"metarType":"METAR","rawOb":"METAR KBLI 172353Z 31005KT 10SM CLR 13/03 A3023 RMK AO2 SLP245 T01330028 10133 20094 58018","lat":48.7991,"lon":-122.5407,"elev":46,"name":"Bellingham Intl, WA, US","cover":"CLR","clouds":[],"fltCat":"VFR"},{"icaoId":"KMSP","receiptTime":"2026-04-17T23:56:34.655Z","obsTime":1776469980,"reportTime":"2026-04-18T00:00:00.000Z","temp":6.7,"dewp":-2.2,"wdir":320,"wspd":11,"wgst":24,"visib":"10+","altim":1004.8,"slp":1004.9,"qcField":4,"presTend":-0.4,"maxT":11.7,"minT":4.4,"pcp6hr":0.05,"metarType":"METAR","rawOb":"METAR KMSP 172353Z 32011G24KT 10SM BKN075 07/M02 A2967 RMK AO2 PK WND 33030/2324 SLP049 60005 T00671022 10117 20044 58004","lat":44.8852,"lon":-93.2313,"elev":255,"name":"Minneapolis-St Paul Intl, MN, US","cover":"BKN","clouds":[{"cover":"BKN","base":7500}],"fltCat":"VFR"},{"icaoId":"KBRO","receiptTime":"2026-04-17T23:56:34.701Z","obsTime":1776469980,"reportTime":"2026-04-18T00:00:00.000Z","temp":27.2,"dewp":20.6,"wdir":140,"wspd":18,"wgst":27,"visib":"10+","altim":1010.2,"slp":1009.9,"qcField":4,"presTend":-0.2,"maxT":31.7,"minT":27.2,"metarType":"METAR","rawOb":"METAR KBRO 172353Z 14018G27KT 10SM BKN024 BKN029 27/21 A2983 RMK AO2 PK WND 16030/2255 SLP099 T02720206 10317 20272 55002","lat":25.9146,"lon":-97.4231,"elev":6,"name":"Brownsville Intl, TX, US","cover":"BKN","clouds":[{"cover":"BKN","base":2400},{"cover":"BKN","base":2900}],"fltCat":"MVFR"},{"icaoId":"KBCE","receiptTime":"2026-04-17T23:56:34.908Z","obsTime":1776469980,"reportTime":"2026-04-18T00:00:00.000Z","temp":5,"dewp":-16.7,"wdir":0,"wspd":0,"visib":"10+","altim":1020.7,"slp":1018.2,"qcField":6,"presTend":-0.7,"maxT":6.1,"minT":0,"metarType":"METAR","rawOb":"METAR KBCE 172353Z AUTO 00000KT 10SM CLR 05/M17 A3014 RMK AO2 SLP182 T00501167 10061 20000 56007","lat":37.7013,"lon":-112.149,"elev":2311,"name":"Bryce Canyon Arpt, UT, US","cover":"CLR","clouds":[],"fltCat":"VFR"},{"icaoId":"KBFI","receiptTime":"2026-04-17T23:56:34.985Z","obsTime":1776469980,"reportTime":"2026-04-18T00:00:00.000Z","temp":13.3,"dewp":1.1,"wdir":310,"wspd":6,"visib":"10+","altim":1023.5,"slp":1023.3,"qcField":4,"presTend":-2,"maxT":13.9,"minT":10.6,"metarType":"METAR","rawOb":"METAR KBFI 172353Z 31006KT 10SM FEW050 BKN200 13/01 A3022 RMK AO2 SLP233 T01330011 10139 20106 56020","lat":47.5455,"lon":-122.3148,"elev":7,"name":"Seattle/Boeing Fld, WA, US","cover":"BKN","clouds":[{"cover":"FEW","base":5000},{"cover":"BKN","base":20000}],"fltCat":"VFR"},{"icaoId":"KBOI","receiptTime":"2026-04-17T23:56:35.071Z","obsTime":1776469980,"reportTime":"2026-04-18T00:00:00.000Z","temp":11.1,"dewp":-6.7,"wdir":10,"wspd":3,"visib":"10+","altim":1022.8,"slp":1023.7,"qcField":4,"presTend":-1.3,"maxT":11.7,"minT":7.2,"metarType":"METAR","rawOb":"METAR KBOI 172353Z 01003KT 10SM CLR 11/M07 A3020 RMK AO2 SLP237 T01111067 10117 20072 56013","lat":43.567,"lon":-116.2406,"elev":860,"name":"Boise Arpt, ID, US","cover":"CLR","clouds":[],"fltCat":"VFR"},{"icaoId":"KCRQ","receiptTime":"2026-04-17T23:56:35.145Z","obsTime":1776469980,"reportTime":"2026-04-18T00:00:00.000Z","temp":18.9,"dewp":12.2,"wdir":280,"wspd":7,"visib":"10+","altim":1013.6,"slp":1013.4,"qcField":6,"presTend":-1.1,"maxT":20,"minT":18.9,"metarType":"METAR","rawOb":"METAR KCRQ 172353Z AUTO 28007KT 10SM CLR 19/12 A2993 RMK AO2 SLP134 T01890122 10200 20189 56011","lat":33.1299,"lon":-117.2765,"elev":96,"name":"Carlsbad/Palomar Arpt, CA, US","cover":"CLR","clouds":[],"fltCat":"VFR"},{"icaoId":"KELY","receiptTime":"2026-04-17T23:56:35.634Z","obsTime":1776469980,"reportTime":"2026-04-18T00:00:00.000Z","temp":8.9,"dewp":-21.1,"wdir":"VRB","wspd":3,"visib":"10+","altim":1020.7,"slp":1021,"qcField":6,"presTend":-1.5,"maxT":9.4,"minT":0.6,"metarType":"METAR","rawOb":"METAR KELY 172353Z AUTO VRB03KT 10SM CLR 09/M21 A3014 RMK AO2 SLP210 T00891211 10094 20006 56015","lat":39.2954,"lon":-114.8466,"elev":1906,"name":"Ely/Yelland Fld, NV, US","cover":"CLR","clouds":[],"fltCat":"VFR"},{"icaoId":"KHLN","receiptTime":"2026-04-17T23:56:35.241Z","obsTime":1776469980,"reportTime":"2026-04-18T00:00:00.000Z","temp":5,"dewp":-3.9,"wdir":360,"wspd":9,"visib":"10+","altim":1018.7,"slp":1022,"qcField":4,"presTend":0.2,"maxT":8.9,"minT":3.3,"metarType":"METAR","rawOb":"METAR KHLN 172353Z 36009KT 10SM BKN080 OVC100 05/M04 A3008 RMK AO2 PK WND 32030/2328 SLP220 T00501039 10089 20033 53002","lat":46.6045,"lon":-111.9892,"elev":1178,"name":"Helena Rgnl, MT, US","cover":"OVC","clouds":[{"cover":"BKN","base":8000},{"cover":"OVC","base":10000}],"fltCat":"VFR"},{"icaoId":"KFAT","receiptTime":"2026-04-17T23:56:35.470Z","obsTime":1776469980,"reportTime":"2026-04-18T00:00:00.000Z","temp":24.4,"dewp":1.1,"wdir":"VRB","wspd":5,"visib":"10+","altim":1016,"slp":1015.5,"qcField":4,"presTend":-1.6,"maxT":24.4,"minT":16.7,"metarType":"METAR","rawOb":"METAR KFAT 172353Z VRB05KT 10SM FEW060 FEW130 24/01 A3000 RMK AO2 SLP155 T02440011 10244 20167 56016","lat":36.78,"lon":-119.7202,"elev":102,"name":"Fresno/Yosemite Intl, CA, US","cover":"FEW","clouds":[{"cover":"FEW","base":6000},{"cover":"FEW","base":13000}],"fltCat":"VFR"},{"icaoId":"KAUS","receiptTime":"2026-04-17T23:56:36.443Z","obsTime":1776469980,"reportTime":"2026-04-18T00:00:00.000Z","temp":28.9,"dewp":17.8,"wdir":160,"wspd":19,"wgst":29,"visib":"10+","altim":1008.5,"slp":1007.5,"qcField":4,"presTend":-0.7,"maxT":31.7,"minT":28.3,"metarType":"METAR","rawOb":"METAR KAUS 172353Z 16019G29KT 10SM SCT070 BKN250 29/18 A2978 RMK AO2 PK WND 15029/2352 SLP075 T02890178 10317 20283 56007","lat":30.1831,"lon":-97.6806,"elev":148,"name":"Austin/Bergstrom Intl, TX, US","cover":"BKN","clouds":[{"cover":"SCT","base":7000},{"cover":"BKN","base":25000}],"fltCat":"VFR"},{"icaoId":"KSWO","receiptTime":"2026-04-17T23:56:36.517Z","obsTime":1776469980,"reportTime":"2026-04-18T00:00:00.000Z","temp":23.3,"dewp":18.3,"wdir":220,"wspd":17,"wgst":24,"visib":9,"altim":1003.8,"slp":1002.7,"qcField":4,"presTend":-2,"maxT":25.6,"minT":22.8,"pcp6hr":0.01,"metarType":"METAR","rawOb":"METAR KSWO 172353Z 22017G24KT 9SM OVC026 23/18 A2964 RMK AO2 PK WND 19029/2254 LTG DSNT N AND NW SLP027 60001 T02330183 10256 20228 55020","lat":36.1624,"lon":-97.0832,"elev":293,"name":"Stillwater Muni, OK, US","cover":"OVC","clouds":[{"cover":"OVC","base":2600}],"fltCat":"MVFR"},{"icaoId":"KRDD","receiptTime":"2026-04-17T23:56:36.936Z","obsTime":1776469980,"reportTime":"2026-04-18T00:00:00.000Z","temp":23.3,"dewp":-8.3,"wdir":"VRB","wspd":5,"visib":"10+","altim":1015.3,"slp":1014.9,"qcField":4,"presTend":-1.9,"maxT":23.9,"minT":16.1,"metarType":"METAR","rawOb":"METAR KRDD 172353Z VRB05KT 10SM CLR 23/M08 A2998 RMK AO2 SLP149 T02331083 10239 20161 56019","lat":40.5146,"lon":-122.2977,"elev":152,"name":"Redding Muni, CA, US","cover":"CLR","clouds":[],"fltCat":"VFR"},{"icaoId":"KTUL","receiptTime":"2026-04-17T23:56:37.100Z","obsTime":1776469980,"reportTime":"2026-04-18T00:00:00.000Z","temp":23.3,"dewp":18.3,"wdir":170,"wspd":25,"wgst":37,"visib":"10+","altim":1003.8,"slp":1003,"qcField":4,"presTend":-2.2,"maxT":26.1,"minT":23.3,"metarType":"METAR","rawOb":"METAR KTUL 172353Z 17025G37KT 10SM SCT024 BKN031 BKN045 23/18 A2964 RMK AO2 PK WND 17042/2320 SLP030 T02330183 10261 20233 58022","lat":36.1985,"lon":-95.8782,"elev":196,"name":"Tulsa Intl Arpt, OK, US","cover":"BKN","clouds":[{"cover":"SCT","base":2400},{"cover":"BKN","base":3100},{"cover":"BKN","base":4500}],"fltCat":"VFR"},{"icaoId":"KTWF","receiptTime":"2026-04-17T23:56:37.152Z","obsTime":1776469980,"reportTime":"2026-04-18T00:00:00.000Z","temp":8.9,"dewp":-8.3,"wdir":280,"wspd":13,"wgst":21,"visib":"10+","altim":1022.1,"slp":1021.6,"qcField":4,"presTend":-1.5,"maxT":9.4,"minT":3.9,"metarType":"METAR","rawOb":"METAR KTWF 172353Z 28013G21KT 10SM SCT070 09/M08 A3018 RMK AO2 SLP216 T00891083 10094 20039 56015","lat":42.4785,"lon":-114.4775,"elev":1269,"name":"Twin Falls/Joslin Fld, ID, US","cover":"SCT","clouds":[{"cover":"SCT","base":7000}],"fltCat":"VFR"},{"icaoId":"KYKM","receiptTime":"2026-04-17T23:56:37.761Z","obsTime":1776469980,"reportTime":"2026-04-18T00:00:00.000Z","temp":14.4,"dewp":-4.4,"wdir":"VRB","wspd":4,"visib":"10+","altim":1022.1,"slp":1022.5,"qcField":4,"presTend":-1.5,"maxT":15.6,"minT":11.1,"metarType":"METAR","rawOb":"METAR KYKM 172353Z VRB04KT 10SM CLR 14/M04 A3018 RMK AO2 SLP225 T01441044 10156 20111 58015","lat":46.564,"lon":-120.5349,"elev":319,"name":"Yakima/McAllister Fld, WA, US","cover":"CLR","clouds":[],"fltCat":"VFR"},{"icaoId":"KCYS","receiptTime":"2026-04-17T23:56:30.552Z","obsTime":1776469980,"reportTime":"2026-04-18T00:00:00.000Z","temp":1.7,"dewp":-12.2,"wdir":320,"wspd":16,"wgst":33,"visib":"10+","altim":1016.7,"slp":1018.4,"qcField":4,"presTend":-0.4,"maxT":2.8,"minT":-4.4,"pcp6hr":0.02,"metarType":"METAR","rawOb":"METAR KCYS 172353Z 32016G33KT 10SM CLR 02/M12 A3002 RMK AO2 PK WND 33033/2344 SLP184 60002 T00171122 10028 21044 55004","lat":41.1579,"lon":-104.8081,"elev":1868,"name":"Cheyenne Rgnl, WY, US","cover":"CLR","clouds":[],"fltCat":"VFR"},{"icaoId":"KDEN","receiptTime":"2026-04-17T23:56:30.588Z","obsTime":1776469980,"reportTime":"2026-04-18T00:00:00.000Z","temp":2.2,"dewp":-4.4,"wdir":350,"wspd":7,"visib":"10+","altim":1018.4,"slp":1018.7,"qcField":12,"presTend":0.3,"maxT":2.2,"minT":-2.2,"pcp6hr":0.15,"metarType":"METAR","rawOb":"METAR KDEN 172353Z 35007KT 10SM FEW020 SCT040 BKN070 02/M04 A3007 RMK AO2 SLP187 60015 T00221044 10022 21022 53003 $","lat":39.8466,"lon":-104.6562,"elev":1656,"name":"Denver Intl, CO, US","cover":"BKN","clouds":[{"cover":"FEW","base":2000},{"cover":"SCT","base":4000},{"cover":"BKN","base":7000}],"fltCat":"VFR"},{"icaoId":"KGJT","receiptTime":"2026-04-17T23:56:30.444Z","obsTime":1776469980,"reportTime":"2026-04-18T00:00:00.000Z","temp":6.7,"dewp":-10.6,"wdir":"VRB","wspd":3,"visib":"10+","altim":1021.1,"slp":1020.9,"qcField":4,"presTend":-1.6,"maxT":7.2,"minT":0,"pcp6hr":0.02,"metarType":"METAR","rawOb":"METAR KGJT 172353Z VRB03KT 10SM CLR 07/M11 A3015 RMK AO2 SLP209 60002 T00671106 10072 20000 56016","lat":39.1344,"lon":-108.5408,"elev":1475,"name":"Grand Junction Rgnl, CO, US","cover":"CLR","clouds":[],"fltCat":"VFR"},{"icaoId":"KPIH","receiptTime":"2026-04-17T23:56:34.742Z","obsTime":1776469980,"reportTime":"2026-04-18T00:00:00.000Z","temp":7.2,"dewp":-11.7,"wdir":240,"wspd":11,"visib":"10+","altim":1021.1,"slp":1022.4,"qcField":4,"presTend":-1.2,"maxT":8.3,"minT":2.8,"metarType":"METAR","rawOb":"METAR KPIH 172353Z 24011KT 10SM CLR 07/M12 A3015 RMK AO2 SLP224 T00721117 10083 20028 56012","lat":42.9197,"lon":-112.5723,"elev":1357,"name":"Pocatello Rgnl, ID, US","cover":"CLR","clouds":[],"fltCat":"VFR"},{"icaoId":"KFMN","receiptTime":"2026-04-17T23:56:29.121Z","obsTime":1776469980,"reportTime":"2026-04-18T00:00:00.000Z","temp":10,"dewp":-17.8,"wdir":290,"wspd":16,"wgst":26,"visib":"10+","altim":1018.4,"slp":1015.8,"qcField":6,"presTend":-0.4,"maxT":11.1,"minT":7.2,"metarType":"METAR","rawOb":"METAR KFMN 172353Z AUTO 29016G26KT 10SM CLR 10/M18 A3007 RMK AO2 PK WND 27030/2309 SLP158 T01001178 10111 20072 55004","lat":36.7435,"lon":-108.2293,"elev":1677,"name":"Farmington/Four Corners Rgnl, NM, US","cover":"CLR","clouds":[],"fltCat":"VFR"},{"icaoId":"KGEG","receiptTime":"2026-04-17T23:56:35.498Z","obsTime":1776469980,"reportTime":"2026-04-18T00:00:00.000Z","temp":10.6,"dewp":-5,"wdir":210,"wspd":8,"visib":"10+","altim":1022.4,"slp":1023.5,"qcField":4,"presTend":-0.5,"maxT":11.1,"minT":6.1,"metarType":"METAR","rawOb":"METAR KGEG 172353Z 21008KT 10SM FEW060 BKN075 11/M05 A3019 RMK AO2 SLP235 T01061050 10111 20061 58005","lat":47.6217,"lon":-117.528,"elev":718,"name":"Spokane Intl, WA, US","cover":"BKN","clouds":[{"cover":"FEW","base":6000},{"cover":"BKN","base":7500}],"fltCat":"VFR"},{"icaoId":"KIDA","receiptTime":"2026-04-17T23:56:34.014Z","obsTime":1776469980,"reportTime":"2026-04-18T00:00:00.000Z","temp":4.4,"dewp":-9.4,"wdir":250,"wspd":11,"wgst":20,"visib":"10+","altim":1021.4,"slp":1024,"qcField":4,"presTend":-0.6,"maxT":6.7,"minT":2.8,"metarType":"METAR","rawOb":"METAR KIDA 172353Z 25011G20KT 10SM FEW048 SCT070 OVC090 04/M09 A3016 RMK AO2 SLP240 T00441094 10067 20028 55006","lat":43.5204,"lon":-112.0675,"elev":1444,"name":"Idaho Falls Rgnl, ID, US","cover":"OVC","clouds":[{"cover":"FEW","base":4800},{"cover":"SCT","base":7000},{"cover":"OVC","base":9000}],"fltCat":"VFR"},{"icaoId":"KMOD","receiptTime":"2026-04-17T23:56:31.241Z","obsTime":1776469980,"reportTime":"2026-04-18T00:00:00.000Z","temp":22.8,"dewp":-2.8,"visib":"10+","altim":1016,"slp":1015.9,"qcField":4,"presTend":-1.4,"maxT":22.8,"minT":16.1,"metarType":"METAR","rawOb":"METAR KMOD 172353Z 10SM CLR 23/M03 A3000 RMK AO2 SLP159 T02281028 10228 20161 58014","lat":37.6254,"lon":-120.9549,"elev":25,"name":"Modesto/Sham Fld, CA, US","cover":"CLR","clouds":[],"fltCat":"VFR"},{"icaoId":"PANC","receiptTime":"2026-04-17T23:56:37.927Z","obsTime":1776469980,"reportTime":"2026-04-18T00:00:00.000Z","temp":3.9,"dewp":1.1,"wdir":10,"wspd":5,"visib":"10+","altim":1008.5,"slp":1008.6,"qcField":4,"maxT":4.4,"minT":1.1,"pcp6hr":0.02,"metarType":"METAR","rawOb":"METAR PANC 172353Z 01005KT 10SM SCT005 BKN049 OVC060 04/01 A2978 RMK AO2 SLP086 60002 T00390011 10044 20011 50000","lat":61.1691,"lon":-150.0277,"elev":39,"name":"Anchorage Intl, AK, US","cover":"OVC","clouds":[{"cover":"SCT","base":500},{"cover":"BKN","base":4900},{"cover":"OVC","base":6000}],"fltCat":"VFR"},{"icaoId":"KSJC","receiptTime":"2026-04-17T23:56:26.980Z","obsTime":1776469980,"reportTime":"2026-04-18T00:00:00.000Z","temp":21.1,"dewp":0,"wdir":320,"wspd":10,"visib":"10+","altim":1016.3,"slp":1016.2,"qcField":4,"presTend":-1.3,"maxT":22.2,"minT":18.3,"metarType":"METAR","rawOb":"METAR KSJC 172353Z 32010KT 10SM FEW110 FEW160 21/00 A3001 RMK AO2 SLP162 T02110000 10222 20183 58013","lat":37.3594,"lon":-121.9244,"elev":13,"name":"San Jose Intl Arpt, CA, US","cover":"FEW","clouds":[{"cover":"FEW","base":11000},{"cover":"FEW","base":16000}],"fltCat":"VFR"},{"icaoId":"KSMF","receiptTime":"2026-04-17T23:56:27.008Z","obsTime":1776469980,"reportTime":"2026-04-18T00:00:00.000Z","temp":22.8,"dewp":-5,"wdir":"VRB","wspd":4,"visib":"10+","altim":1015.7,"slp":1015.6,"qcField":4,"presTend":-1.5,"maxT":22.8,"minT":17.8,"metarType":"METAR","rawOb":"METAR KSMF 172353Z VRB04KT 10SM BKN250 23/M05 A2999 RMK AO2 SLP156 T02281050 10228 20178 58015","lat":38.7007,"lon":-121.5948,"elev":7,"name":"Sacramento Intl, CA, US","cover":"BKN","clouds":[{"cover":"BKN","base":25000}],"fltCat":"VFR"},{"icaoId":"KSNA","receiptTime":"2026-04-17T23:56:27.035Z","obsTime":1776469980,"reportTime":"2026-04-18T00:00:00.000Z","temp":22.2,"dewp":11.7,"wdir":210,"wspd":8,"visib":"10+","altim":1013.6,"slp":1013.4,"qcField":4,"presTend":-1.5,"maxT":22.8,"minT":20,"metarType":"METAR","rawOb":"METAR KSNA 172353Z 21008KT 10SM CLR 22/12 A2993 RMK AO2 SLP134 T02220117 10228 20200 58015","lat":33.6798,"lon":-117.8675,"elev":14,"name":"Santa Ana/Wayne Arpt, CA, US","cover":"CLR","clouds":[],"fltCat":"VFR"},{"icaoId":"KSTS","receiptTime":"2026-04-17T23:56:27.160Z","obsTime":1776469980,"reportTime":"2026-04-18T00:00:00.000Z","temp":20.6,"dewp":-3.3,"wdir":190,"wspd":10,"visib":"10+","altim":1016.7,"slp":1015.9,"qcField":4,"presTend":-0.9,"maxT":22.8,"minT":17.8,"metarType":"METAR","rawOb":"METAR KSTS 172353Z 19010KT 10SM CLR 21/M03 A3002 RMK AO2 SLP159 T02061033 10228 20178 58009","lat":38.5037,"lon":-122.811,"elev":35,"name":"Santa Rosa/Schulz Arpt, CA, US","cover":"CLR","clouds":[],"fltCat":"VFR"},{"icaoId":"KMKE","receiptTime":"2026-04-17T23:56:31.585Z","obsTime":1776469920,"reportTime":"2026-04-18T00:00:00.000Z","temp":17.2,"dewp":12.2,"wdir":130,"wspd":11,"visib":"10+","altim":1002.5,"slp":1002.3,"qcField":12,"wxString":"TS","presTend":-3.8,"maxT":21.7,"minT":17.2,"metarType":"METAR","rawOb":"METAR KMKE 172352Z 13011KT 10SM TS FEW060 SCT095CB SCT110 OVC130 17/12 A2960 RMK AO2 SLP023 OCNL LTGCGICCC SW-NW TS SW-NW MOV NE OCNL LTG DSNT SW-NW T01720122 10217 20172 56038 $","lat":42.9549,"lon":-87.9045,"elev":203,"name":"Milwaukee/Mitchell Intl, WI, US","cover":"OVC","clouds":[{"cover":"FEW","base":6000},{"cover":"SCT","base":9500},{"cover":"SCT","base":11000},{"cover":"OVC","base":13000}],"fltCat":"VFR"},{"icaoId":"KABI","receiptTime":"2026-04-17T23:56:35.344Z","obsTime":1776469920,"reportTime":"2026-04-18T00:00:00.000Z","temp":26.7,"dewp":18.9,"wdir":170,"wspd":13,"wgst":19,"visib":"10+","altim":1006.9,"slp":1004.2,"qcField":12,"presTend":-1.3,"maxT":27.8,"minT":25,"metarType":"METAR","rawOb":"METAR KABI 172352Z 17013G19KT 10SM CLR 27/19 A2973 RMK AO2 SLP042 T02670189 10278 20250 56013 $","lat":32.4106,"lon":-99.6821,"elev":543,"name":"Abilene Rgnl, TX, US","cover":"CLR","clouds":[],"fltCat":"VFR"},{"icaoId":"KSPS","receiptTime":"2026-04-17T23:56:35.304Z","obsTime":1776469920,"reportTime":"2026-04-18T00:00:00.000Z","temp":26.1,"dewp":19.4,"wdir":170,"wspd":16,"wgst":23,"visib":"10+","altim":1005.5,"slp":1004,"qcField":4,"presTend":-1.2,"maxT":26.7,"minT":25,"metarType":"METAR","rawOb":"METAR KSPS 172352Z 17016G23KT 10SM CLR 26/19 A2969 RMK AO2 PK WND 18028/2336 SLP040 T02610194 10267 20250 55012","lat":33.9785,"lon":-98.493,"elev":310,"name":"Wichita Falls Rgnl, TX, US","cover":"CLR","clouds":[],"fltCat":"VFR"},{"icaoId":"KDCA","receiptTime":"2026-04-17T23:56:35.966Z","obsTime":1776469920,"reportTime":"2026-04-18T00:00:00.000Z","temp":23.3,"dewp":11.1,"wdir":360,"wspd":7,"visib":"10+","altim":1013.6,"slp":1013.5,"qcField":4,"presTend":0.5,"maxT":27.2,"minT":23.3,"metarType":"METAR","rawOb":"METAR KDCA 172352Z 36007KT 10SM FEW065 SCT250 23/11 A2993 RMK AO2 SLP135 T02330111 10272 20233 53005","lat":38.8472,"lon":-77.0345,"elev":4,"name":"Washington/Reagan-National Arpt, VA, US","cover":"SCT","clouds":[{"cover":"FEW","base":6500},{"cover":"SCT","base":25000}],"fltCat":"VFR"},{"icaoId":"KATL","receiptTime":"2026-04-17T23:56:35.834Z","obsTime":1776469920,"reportTime":"2026-04-18T00:00:00.000Z","temp":28.3,"dewp":8.9,"wdir":260,"wspd":4,"visib":"10+","altim":1015.3,"slp":1014.1,"qcField":4,"presTend":-0.7,"maxT":32.2,"minT":28.3,"metarType":"METAR","rawOb":"METAR KATL 172352Z 26004KT 10SM FEW080 FEW250 28/09 A2998 RMK AO2 SLP141 T02830089 10322 20283 56007","lat":33.6297,"lon":-84.4422,"elev":309,"name":"Atlanta/Hartsfield-Jackson Intl, GA, US","cover":"FEW","clouds":[{"cover":"FEW","base":8000},{"cover":"FEW","base":25000}],"fltCat":"VFR"},{"icaoId":"KOKC","receiptTime":"2026-04-17T23:56:31.648Z","obsTime":1776469920,"reportTime":"2026-04-18T00:00:00.000Z","temp":22.8,"dewp":18.9,"wdir":180,"wspd":20,"wgst":34,"visib":"10+","altim":1004.1,"slp":1002.9,"qcField":4,"presTend":-2.6,"maxT":25,"minT":22.2,"pcp6hr":0.005,"metarType":"METAR","rawOb":"METAR KOKC 172352Z 18020G34KT 10SM SCT019 BKN250 23/19 A2965 RMK AO2 PK WND 18039/2301 SLP029 60000 T02280189 10250 20222 55026","lat":35.3843,"lon":-97.6003,"elev":391,"name":"Oklahoma City/Will Rogers Intl, OK, US","cover":"BKN","clouds":[{"cover":"SCT","base":1900},{"cover":"BKN","base":25000}],"fltCat":"VFR"},{"icaoId":"KCVG","receiptTime":"2026-04-17T23:56:35.954Z","obsTime":1776469920,"reportTime":"2026-04-18T00:00:00.000Z","temp":22.8,"dewp":11.1,"wdir":170,"wspd":9,"visib":"10+","altim":1011.6,"slp":1010.6,"qcField":4,"presTend":-2.6,"maxT":27.2,"minT":22.8,"metarType":"METAR","rawOb":"METAR KCVG 172352Z 17009KT 10SM BKN250 23/11 A2987 RMK AO2 SLP106 T02280111 10272 20228 58026","lat":39.0444,"lon":-84.6724,"elev":264,"name":"Cincinnati Intl, KY, US","cover":"BKN","clouds":[{"cover":"BKN","base":25000}],"fltCat":"VFR"},{"icaoId":"KCLT","receiptTime":"2026-04-17T23:56:35.928Z","obsTime":1776469920,"reportTime":"2026-04-18T00:00:00.000Z","temp":27.2,"dewp":10.6,"wdir":210,"wspd":3,"visib":"10+","altim":1014.3,"slp":1014.9,"qcField":4,"presTend":-0.6,"maxT":30,"minT":27.2,"metarType":"METAR","rawOb":"METAR KCLT 172352Z 21003KT 10SM FEW070 SCT250 27/11 A2995 RMK AO2 SLP149 T02720106 10300 20272 56006","lat":35.2225,"lon":-80.9543,"elev":223,"name":"Charlotte/Douglas Intl, NC, US","cover":"SCT","clouds":[{"cover":"FEW","base":7000},{"cover":"SCT","base":25000}],"fltCat":"VFR"},{"icaoId":"KABQ","receiptTime":"2026-04-17T23:56:35.356Z","obsTime":1776469920,"reportTime":"2026-04-18T00:00:00.000Z","temp":17.2,"dewp":-7.8,"wdir":350,"wspd":21,"wgst":29,"visib":"10+","altim":1015,"slp":1009.3,"qcField":4,"presTend":1.6,"maxT":22.2,"minT":17.2,"metarType":"METAR","rawOb":"METAR KABQ 172352Z 35021G29KT 10SM FEW110 17/M08 A2997 RMK AO2 PK WND 32031/2326 SLP093 T01721078 10222 20172 53016","lat":35.0419,"lon":-106.6154,"elev":1620,"name":"Albuquerque Intl, NM, US","cover":"FEW","clouds":[{"cover":"FEW","base":11000}],"fltCat":"VFR"},{"icaoId":"KMLF","receiptTime":"2026-04-17T23:56:35.293Z","obsTime":1776469920,"reportTime":"2026-04-18T00:00:00.000Z","temp":9.4,"dewp":-17.8,"wdir":350,"wspd":10,"wgst":17,"visib":"10+","altim":1021.8,"slp":1021.7,"qcField":6,"presTend":-1.3,"maxT":10,"minT":3.3,"metarType":"METAR","rawOb":"METAR KMLF 172352Z AUTO 35010G17KT 10SM CLR 09/M18 A3017 RMK AO2 SLP217 T00941178 10100 20033 56013","lat":38.4225,"lon":-113.0109,"elev":1537,"name":"Milford Muni, UT, US","cover":"CLR","clouds":[],"fltCat":"VFR"},{"icaoId":"KIAD","receiptTime":"2026-04-17T23:56:31.495Z","obsTime":1776469920,"reportTime":"2026-04-18T00:00:00.000Z","temp":23.9,"dewp":10,"wdir":30,"wspd":7,"visib":"10+","altim":1014,"slp":1013.6,"qcField":4,"presTend":0.6,"maxT":26.7,"minT":23.9,"metarType":"METAR","rawOb":"METAR KIAD 172352Z 03007KT 10SM FEW060 FEW250 24/10 A2994 RMK AO2 SLP136 T02390100 10267 20239 51006","lat":38.9348,"lon":-77.4473,"elev":90,"name":"Washington/Dulles Intl, VA, US","cover":"FEW","clouds":[{"cover":"FEW","base":6000},{"cover":"FEW","base":25000}],"fltCat":"VFR"},{"icaoId":"KHRL","receiptTime":"2026-04-17T23:56:31.469Z","obsTime":1776469920,"reportTime":"2026-04-18T00:00:00.000Z","temp":27.2,"dewp":20,"wdir":150,"wspd":17,"wgst":26,"visib":"10+","altim":1009.6,"slp":1009.3,"qcField":4,"presTend":-0.3,"maxT":31.7,"minT":27.2,"metarType":"METAR","rawOb":"METAR KHRL 172352Z 15017G26KT 10SM FEW032 27/20 A2981 RMK AO2 PK WND 14031/2310 SLP093 T02720200 10317 20272 55003","lat":26.2303,"lon":-97.6556,"elev":9,"name":"Harlingen/Valley Intl, TX, US","cover":"FEW","clouds":[{"cover":"FEW","base":3200}],"fltCat":"VFR"},{"icaoId":"KLGU","receiptTime":"2026-04-17T23:54:09.760Z","obsTime":1776469860,"reportTime":"2026-04-18T00:00:00.000Z","temp":5.6,"dewp":-10,"wdir":0,"wspd":0,"visib":"10+","altim":1022.4,"slp":1023.4,"qcField":6,"presTend":-1.2,"maxT":6.1,"minT":2.2,"metarType":"METAR","rawOb":"METAR KLGU 172351Z AUTO 00000KT 10SM FEW060 BKN070 OVC090 06/M10 A3019 RMK AO2 SLP234 T00561100 10061 20022 57012","lat":41.7865,"lon":-111.8519,"elev":1359,"name":"Logan/Cache Arpt, UT, US","cover":"OVC","clouds":[{"cover":"FEW","base":6000},{"cover":"BKN","base":7000},{"cover":"OVC","base":9000}],"fltCat":"VFR"},{"icaoId":"KLGA","receiptTime":"2026-04-17T23:54:09.743Z","obsTime":1776469860,"reportTime":"2026-04-18T00:00:00.000Z","temp":18.3,"dewp":12.8,"wdir":40,"wspd":12,"wgst":21,"visib":"10+","altim":1013.6,"slp":1013.3,"qcField":4,"presTend":2.3,"maxT":25.6,"minT":18.3,"pcp6hr":0.005,"metarType":"METAR","rawOb":"METAR KLGA 172351Z 04012G21KT 10SM FEW050 FEW100 BKN150 BKN250 18/13 A2993 RMK AO2 SLP133 CB DSNT NW 60000 T01830128 10256 20183 53023","lat":40.7794,"lon":-73.8803,"elev":9,"name":"New York/La Guardia Arpt, NY, US","cover":"BKN","clouds":[{"cover":"FEW","base":5000},{"cover":"FEW","base":10000},{"cover":"BKN","base":15000},{"cover":"BKN","base":25000}],"fltCat":"VFR"},{"icaoId":"KJFK","receiptTime":"2026-04-17T23:54:09.730Z","obsTime":1776469860,"reportTime":"2026-04-18T00:00:00.000Z","temp":22.8,"dewp":12.8,"wdir":70,"wspd":10,"visib":"10+","altim":1013.6,"slp":1013.4,"qcField":4,"presTend":2.3,"maxT":26.1,"minT":20.6,"pcp6hr":0.02,"metarType":"METAR","rawOb":"METAR KJFK 172351Z 07010KT 10SM SCT055 SCT100 SCT250 23/13 A2993 RMK AO2 SLP134 60002 T02280128 10261 20206 53023","lat":40.6392,"lon":-73.7639,"elev":3,"name":"New York/JF Kennedy Intl, NY, US","cover":"SCT","clouds":[{"cover":"SCT","base":5500},{"cover":"SCT","base":10000},{"cover":"SCT","base":25000}],"fltCat":"VFR"},{"icaoId":"KIGM","receiptTime":"2026-04-17T23:54:09.661Z","obsTime":1776469860,"reportTime":"2026-04-18T00:00:00.000Z","temp":18.3,"dewp":-16.1,"wdir":360,"wspd":12,"wgst":21,"visib":"10+","altim":1016.3,"slp":1011.8,"qcField":6,"presTend":-1.7,"maxT":18.9,"minT":13.3,"metarType":"METAR","rawOb":"METAR KIGM 172351Z AUTO 36012G21KT 10SM CLR 18/M16 A3001 RMK AO2 SLP118 T01831161 10189 20133 56017","lat":35.2575,"lon":-113.9341,"elev":1045,"name":"Kingman Arpt, AZ, US","cover":"CLR","clouds":[],"fltCat":"VFR"},{"icaoId":"KEWR","receiptTime":"2026-04-17T23:54:09.591Z","obsTime":1776469860,"reportTime":"2026-04-18T00:00:00.000Z","temp":22.8,"dewp":11.1,"wdir":20,"wspd":8,"visib":"10+","altim":1013.3,"slp":1013,"qcField":4,"presTend":1.6,"maxT":27.2,"minT":22.8,"pcp6hr":0.005,"metarType":"METAR","rawOb":"METAR KEWR 172351Z 02008KT 10SM FEW050 SCT100 SCT250 23/11 A2992 RMK AO2 SLP130 CB DSNT NW MOV SE TCU DSNT E 60000 T02280111 10272 20228 53016","lat":40.6828,"lon":-74.1692,"elev":2,"name":"Newark Intl, NJ, US","cover":"SCT","clouds":[{"cover":"FEW","base":5000},{"cover":"SCT","base":10000},{"cover":"SCT","base":25000}],"fltCat":"VFR"},{"icaoId":"KELP","receiptTime":"2026-04-17T23:54:09.551Z","obsTime":1776469860,"reportTime":"2026-04-18T00:00:00.000Z","temp":27.2,"dewp":-3.3,"wdir":250,"wspd":20,"wgst":32,"visib":"10+","altim":1010.6,"slp":1003.9,"qcField":4,"presTend":-1.3,"maxT":28.9,"minT":24.4,"metarType":"METAR","rawOb":"METAR KELP 172351Z 25020G32KT 10SM FEW120 27/M03 A2984 RMK AO2 PK WND 27032/2343 SLP039 T02721033 10289 20244 56013","lat":31.8123,"lon":-106.3774,"elev":1205,"name":"El Paso Intl, TX, US","cover":"FEW","clouds":[{"cover":"FEW","base":12000}],"fltCat":"VFR"},{"icaoId":"KVNY","receiptTime":"2026-04-17T23:54:09.413Z","obsTime":1776469860,"reportTime":"2026-04-18T00:00:00.000Z","temp":25.6,"dewp":7.8,"wdir":150,"wspd":10,"visib":"10+","altim":1013.3,"slp":1012.3,"qcField":12,"presTend":-1.6,"maxT":26.1,"minT":19.4,"metarType":"METAR","rawOb":"METAR KVNY 172351Z 15010KT 10SM CLR 26/08 A2992 RMK AO2 SLP123 T02560078 10261 20194 58016 $","lat":34.2121,"lon":-118.4915,"elev":241,"name":"Van Nuys Arpt, CA, US","cover":"CLR","clouds":[],"fltCat":"VFR"},{"icaoId":"KROW","receiptTime":"2026-04-17T23:54:09.885Z","obsTime":1776469860,"reportTime":"2026-04-18T00:00:00.000Z","temp":29.4,"dewp":-7.2,"wdir":270,"wspd":18,"wgst":28,"visib":"10+","altim":1007.2,"slp":1001.7,"qcField":12,"maxT":31.1,"minT":28.9,"metarType":"METAR","rawOb":"METAR KROW 172351Z 27018G28KT 10SM CLR 29/M07 A2974 RMK AO2 PK WND 27030/2308 SLP017 T02941072 10311 20289 53000 $","lat":33.3074,"lon":-104.5082,"elev":1105,"name":"Roswell/Ind Arpt, NM, US","cover":"CLR","clouds":[],"fltCat":"VFR"},{"icaoId":"KMYL","receiptTime":"2026-04-17T23:54:09.774Z","obsTime":1776469860,"reportTime":"2026-04-18T00:00:00.000Z","temp":2.8,"dewp":-7.2,"wdir":120,"wspd":3,"visib":"10+","altim":1022.4,"slp":1024.9,"qcField":6,"presTend":-0.2,"maxT":2.8,"minT":0,"metarType":"METAR","rawOb":"METAR KMYL 172351Z AUTO 12003KT 10SM OVC050 03/M07 A3019 RMK AO2 SLP249 T00281072 10028 20000 58002","lat":44.8943,"lon":-116.0998,"elev":1532,"name":"McCall Muni, ID, US","cover":"OVC","clouds":[{"cover":"OVC","base":5000}],"fltCat":"VFR"},{"icaoId":"KCRP","receiptTime":"2026-04-17T23:54:10.846Z","obsTime":1776469860,"reportTime":"2026-04-18T00:00:00.000Z","temp":26.7,"dewp":20.6,"wdir":150,"wspd":22,"wgst":30,"visib":"10+","altim":1009.9,"slp":1009.7,"qcField":4,"presTend":-0.6,"maxT":31.1,"minT":26.7,"metarType":"METAR","rawOb":"METAR KCRP 172351Z 15022G30KT 10SM FEW015 BKN250 27/21 A2982 RMK AO2 PK WND 15037/2256 SLP097 T02670206 10311 20267 55006","lat":27.7734,"lon":-97.513,"elev":11,"name":"Corpus Christi Intl, TX, US","cover":"BKN","clouds":[{"cover":"FEW","base":1500},{"cover":"BKN","base":25000}],"fltCat":"VFR"},{"icaoId":"KPVD","receiptTime":"2026-04-17T23:54:10.436Z","obsTime":1776469860,"reportTime":"2026-04-18T00:00:00.000Z","temp":12.8,"dewp":10,"wdir":50,"wspd":5,"visib":"10+","altim":1016,"slp":1015.8,"qcField":4,"presTend":2.1,"maxT":23.3,"minT":12.8,"pcp6hr":0.1,"metarType":"METAR","rawOb":"METAR KPVD 172351Z 05005KT 10SM FEW014 BKN100 13/10 A3000 RMK AO2 SLP158 60010 T01280100 10233 20128 51021","lat":41.7225,"lon":-71.4325,"elev":15,"name":"Providence/Green Mem, RI, US","cover":"BKN","clouds":[{"cover":"FEW","base":1400},{"cover":"BKN","base":10000}],"fltCat":"VFR"},{"icaoId":"KACT","receiptTime":"2026-04-17T23:54:10.641Z","obsTime":1776469860,"reportTime":"2026-04-18T00:00:00.000Z","temp":27.8,"dewp":18.9,"wdir":150,"wspd":15,"wgst":22,"visib":"10+","altim":1007.9,"slp":1006.9,"qcField":4,"presTend":-2,"maxT":29.4,"minT":26.1,"metarType":"METAR","rawOb":"METAR KACT 172351Z 15015G22KT 10SM BKN075 28/19 A2976 RMK AO2 SLP069 T02780189 10294 20261 56020","lat":31.618,"lon":-97.2283,"elev":150,"name":"Waco Rgnl, TX, US","cover":"BKN","clouds":[{"cover":"BKN","base":7500}],"fltCat":"VFR"},{"icaoId":"KBDL","receiptTime":"2026-04-17T23:54:10.138Z","obsTime":1776469860,"reportTime":"2026-04-18T00:00:00.000Z","temp":18.3,"dewp":12.2,"wdir":90,"wspd":7,"visib":"10+","altim":1014.6,"slp":1014.6,"qcField":4,"presTend":2.3,"maxT":23.3,"minT":18.3,"pcp6hr":0.005,"metarType":"METAR","rawOb":"METAR KBDL 172351Z 09007KT 10SM FEW030 SCT100 18/12 A2996 RMK AO2 SLP146 60000 T01830122 10233 20183 53023","lat":41.9374,"lon":-72.682,"elev":52,"name":"Hartford/Bradley Intl, CT, US","cover":"SCT","clouds":[{"cover":"FEW","base":3000},{"cover":"SCT","base":10000}],"fltCat":"VFR"},{"icaoId":"KSTL","receiptTime":"2026-04-17T23:54:09.988Z","obsTime":1776469860,"reportTime":"2026-04-18T00:00:00.000Z","temp":27.2,"dewp":15.6,"wdir":180,"wspd":11,"wgst":24,"visib":"10+","altim":1004.8,"slp":1004,"qcField":12,"presTend":-2.9,"maxT":30,"minT":23.9,"pcp6hr":0.005,"metarType":"METAR","rawOb":"METAR KSTL 172351Z 18011G24KT 10SM SCT065 OVC240 27/16 A2967 RMK AO2 PK WND 16029/2256 SLP040 60000 T02720156 10300 20239 55029 $","lat":38.7525,"lon":-90.3734,"elev":163,"name":"St Louis/Lambert Intl, MO, US","cover":"OVC","clouds":[{"cover":"SCT","base":6500},{"cover":"OVC","base":24000}],"fltCat":"VFR"},{"icaoId":"KSAT","receiptTime":"2026-04-17T23:54:09.923Z","obsTime":1776469860,"reportTime":"2026-04-18T00:00:00.000Z","temp":28.3,"dewp":19.4,"wdir":140,"wspd":18,"wgst":27,"visib":"10+","altim":1009.2,"slp":1007.3,"qcField":4,"presTend":-0.7,"maxT":32.8,"minT":26.7,"metarType":"METAR","rawOb":"METAR KSAT 172351Z 14018G27KT 10SM FEW050 BKN250 28/19 A2980 RMK AO2 PK WND 14029/2321 SLP073 T02830194 10328 20267 55007","lat":29.5443,"lon":-98.4839,"elev":246,"name":"San Antonio Intl, TX, US","cover":"BKN","clouds":[{"cover":"FEW","base":5000},{"cover":"BKN","base":25000}],"fltCat":"VFR"},{"icaoId":"KSAN","receiptTime":"2026-04-17T23:54:09.907Z","obsTime":1776469860,"reportTime":"2026-04-18T00:00:00.000Z","temp":20,"dewp":12.2,"wdir":"VRB","wspd":6,"visib":"10+","altim":1014.6,"slp":1014.4,"qcField":12,"presTend":-0.9,"maxT":21.1,"minT":19.4,"metarType":"METAR","rawOb":"METAR KSAN 172351Z VRB06KT 10SM CLR 20/12 A2996 RMK AO2 SLP144 T02000122 10211 20194 56009 $","lat":32.7364,"lon":-117.1973,"elev":3,"name":"San Diego Intl Arpt, CA, US","cover":"CLR","clouds":[],"fltCat":"VFR"},{"icaoId":"KSAD","receiptTime":"2026-04-17T23:54:09.895Z","obsTime":1776469860,"reportTime":"2026-04-18T00:00:00.000Z","temp":26.7,"dewp":-7.8,"wdir":290,"wspd":20,"wgst":26,"visib":"10+","altim":1010.9,"slp":1006.5,"qcField":6,"presTend":-1.4,"maxT":27.8,"minT":23.3,"metarType":"METAR","rawOb":"METAR KSAD 172351Z AUTO 29020G26KT 10SM CLR 27/M08 A2985 RMK AO2 PK WND 31030/2329 SLP065 T02671078 10278 20233 56014","lat":32.8565,"lon":-109.636,"elev":937,"name":"Safford Rgnl, AZ, US","cover":"CLR","clouds":[],"fltCat":"VFR"},{"icaoId":"KRDU","receiptTime":"2026-04-17T23:54:09.872Z","obsTime":1776469860,"reportTime":"2026-04-18T00:00:00.000Z","temp":26.1,"dewp":10.6,"wdir":260,"wspd":3,"visib":"10+","altim":1014,"slp":1013.4,"qcField":4,"presTend":-0.1,"maxT":31.1,"minT":26.1,"metarType":"METAR","rawOb":"METAR KRDU 172351Z 26003KT 10SM FEW085 OVC250 26/11 A2994 RMK AO2 SLP134 T02610106 10311 20261 55001","lat":35.8923,"lon":-78.782,"elev":121,"name":"Raleigh-Durham Intl, NC, US","cover":"OVC","clouds":[{"cover":"FEW","base":8500},{"cover":"OVC","base":25000}],"fltCat":"VFR"},{"icaoId":"KPIT","receiptTime":"2026-04-17T23:54:09.855Z","obsTime":1776469860,"reportTime":"2026-04-18T00:00:00.000Z","temp":22.8,"dewp":10.6,"wdir":170,"wspd":4,"visib":"10+","altim":1014,"slp":1014,"qcField":4,"presTend":-1.6,"maxT":24.4,"minT":20.6,"metarType":"METAR","rawOb":"METAR KPIT 172351Z 17004KT 10SM FEW040 BKN250 23/11 A2994 RMK AO2 SLP140 T02280106 10244 20206 56016","lat":40.4814,"lon":-80.2083,"elev":339,"name":"Pittsburgh Intl, PA, US","cover":"BKN","clouds":[{"cover":"FEW","base":4000},{"cover":"BKN","base":25000}],"fltCat":"VFR"},{"icaoId":"KPHX","receiptTime":"2026-04-17T23:54:09.830Z","obsTime":1776469860,"reportTime":"2026-04-18T00:00:00.000Z","temp":29.4,"dewp":-1.1,"wdir":260,"wspd":11,"visib":"10+","altim":1009.9,"slp":1008.2,"qcField":4,"presTend":-2.2,"maxT":30.6,"minT":25.6,"metarType":"METAR","rawOb":"METAR KPHX 172351Z 26011KT 10SM CLR 29/M01 A2982 RMK AO2 SLP082 T02941011 10306 20256 56022","lat":33.4278,"lon":-112.0037,"elev":338,"name":"Phoenix/Sky Harbor Intl, AZ, US","cover":"CLR","clouds":[],"fltCat":"VFR"},{"icaoId":"KOXR","receiptTime":"2026-04-17T23:54:09.817Z","obsTime":1776469860,"reportTime":"2026-04-18T00:00:00.000Z","temp":19.4,"dewp":12.2,"wdir":280,"wspd":13,"visib":"10+","altim":1014.6,"slp":1014.4,"qcField":12,"presTend":-1.4,"maxT":23.9,"minT":18.9,"metarType":"METAR","rawOb":"METAR KOXR 172351Z 28013KT 10SM CLR 19/12 A2996 RMK AO2 SLP144 T01940122 10239 20189 58014 $","lat":34.2001,"lon":-119.2042,"elev":12,"name":"Oxnard Arpt, CA, US","cover":"CLR","clouds":[],"fltCat":"VFR"},{"icaoId":"KORF","receiptTime":"2026-04-17T23:54:09.803Z","obsTime":1776469860,"reportTime":"2026-04-18T00:00:00.000Z","temp":24.4,"dewp":12.2,"wdir":170,"wspd":6,"visib":"10+","altim":1013.3,"slp":1013.2,"qcField":4,"presTend":0.9,"maxT":28.9,"minT":24.4,"metarType":"METAR","rawOb":"METAR KORF 172351Z 17006KT 10SM BKN095 24/12 A2992 RMK AO2 SLP132 T02440122 10289 20244 53009","lat":36.9037,"lon":-76.1927,"elev":5,"name":"Norfolk Intl, VA, US","cover":"BKN","clouds":[{"cover":"BKN","base":9500}],"fltCat":"VFR"},{"icaoId":"KORD","receiptTime":"2026-04-17T23:54:09.791Z","obsTime":1776469860,"reportTime":"2026-04-18T00:00:00.000Z","temp":25.6,"dewp":16.7,"wdir":170,"wspd":18,"wgst":28,"visib":"10+","altim":1002.8,"slp":1002.5,"qcField":12,"presTend":-3.3,"maxT":27.2,"minT":25,"metarType":"METAR","rawOb":"METAR KORD 172351Z 17018G28KT 10SM FEW055 SCT150 OVC250 26/17 A2961 RMK AO2 PK WND 18033/2306 SLP025 T02560167 10272 20250 56033 $","lat":41.9602,"lon":-87.9316,"elev":202,"name":"Chicago/O'Hare Intl, IL, US","cover":"OVC","clouds":[{"cover":"FEW","base":5500},{"cover":"SCT","base":15000},{"cover":"OVC","base":25000}],"fltCat":"VFR"},{"icaoId":"KCMH","receiptTime":"2026-04-17T23:54:10.823Z","obsTime":1776469860,"reportTime":"2026-04-18T00:00:00.000Z","temp":24.4,"dewp":8.3,"wdir":190,"wspd":6,"visib":"10+","altim":1012.3,"slp":1011.7,"qcField":4,"presTend":-2.2,"maxT":26.7,"minT":24.4,"metarType":"METAR","rawOb":"METAR KCMH 172351Z 19006KT 10SM FEW100 SCT250 24/08 A2989 RMK AO2 SLP117 T02440083 10267 20244 56022","lat":39.9907,"lon":-82.877,"elev":257,"name":"Columbus/Glenn Intl, OH, US","cover":"SCT","clouds":[{"cover":"FEW","base":10000},{"cover":"SCT","base":25000}],"fltCat":"VFR"},{"icaoId":"KCLE","receiptTime":"2026-04-17T23:54:10.798Z","obsTime":1776469860,"reportTime":"2026-04-18T00:00:00.000Z","temp":17.2,"dewp":7.8,"wdir":40,"wspd":6,"visib":"10+","altim":1012.3,"slp":1013.6,"qcField":12,"presTend":-2.6,"maxT":21.1,"minT":17.2,"metarType":"METAR","rawOb":"METAR KCLE 172351Z 04006KT 10SM BKN250 17/08 A2989 RMK AO2 SLP136 T01720078 10211 20172 56026 $","lat":41.4057,"lon":-81.8519,"elev":237,"name":"Cleveland/Hopkins Intl, OH, US","cover":"BKN","clouds":[{"cover":"BKN","base":25000}],"fltCat":"VFR"},{"icaoId":"KAEG","receiptTime":"2026-04-17T23:52:06.863Z","obsTime":1776469800,"reportTime":"2026-04-18T00:00:00.000Z","temp":15,"dewp":-9,"wdir":310,"wspd":24,"wgst":28,"visib":"10+","altim":1015.3,"qcField":0,"metarType":"METAR","rawOb":"METAR KAEG 172350Z 31024G28KT 10SM CLR 15/M09 A2998","lat":35.15,"lon":-106.7929,"elev":1771,"name":"Albuquerque/Double Eagle Arpt, NM, US","cover":"CLR","clouds":[],"fltCat":"VFR"},{"icaoId":"KADM","receiptTime":"2026-04-18T00:16:09.630Z","obsTime":1776469800,"reportTime":"2026-04-18T00:00:00.000Z","temp":23,"dewp":21,"wdir":130,"wspd":9,"visib":"10+","altim":1006.5,"qcField":0,"metarType":"METAR","rawOb":"METAR KADM 172350Z 13009KT 10SM SCT042 23/21 A2972","lat":34.3007,"lon":-97.0089,"elev":223,"name":"Ardmore Muni, OK, US","cover":"SCT","clouds":[{"cover":"SCT","base":4200}],"fltCat":"VFR"},{"icaoId":"KBJC","receiptTime":"2026-04-17T23:47:48.724Z","obsTime":1776469620,"reportTime":"2026-04-18T00:00:00.000Z","temp":2,"dewp":-1,"wdir":10,"wspd":7,"visib":"10+","altim":1018.7,"qcField":0,"metarType":"METAR","rawOb":"METAR KBJC 172347Z 01007KT 10SM BKN015 02/M01 A3008","lat":39.9008,"lon":-105.1042,"elev":1694,"name":"Rocky Mtn Metro, CO, US","cover":"BKN","clouds":[{"cover":"BKN","base":1500}],"fltCat":"MVFR"},{"icaoId":"KGEU","receiptTime":"2026-04-17T23:46:58.973Z","obsTime":1776469620,"reportTime":"2026-04-18T00:00:00.000Z","temp":29,"dewp":-3,"wdir":200,"wspd":9,"visib":"10+","altim":1009.2,"qcField":0,"metarType":"METAR","rawOb":"METAR KGEU 172347Z 20009KT 10SM CLR 29/M03 A2980","lat":33.528,"lon":-112.293,"elev":319,"name":"Glendale Muni, AZ, US","cover":"CLR","clouds":[],"fltCat":"VFR"}]