[{"icaoId":"KBVU","receiptTime":"2026-04-13T04:56:23.294Z","obsTime":1776056100,"reportTime":"2026-04-13T05:00:00.000Z","temp":17,"dewp":0,"wdir":220,"wspd":11,"visib":"10+","altim":1011.6,"qcField":6,"metarType":"METAR","rawOb":"METAR KBVU 130455Z AUTO 22011KT 10SM CLR 17/00 A2987 RMK AO2","lat":35.9489,"lon":-114.8633,"elev":654,"name":"Boulder City Muni, NV, US","cover":"CLR","clouds":[],"fltCat":"VFR"},{"icaoId":"KSOW","receiptTime":"2026-04-13T04:57:06.949Z","obsTime":1776056100,"reportTime":"2026-04-13T05:00:00.000Z","temp":11,"dewp":2,"wdir":200,"wspd":21,"wgst":27,"visib":"10+","altim":1019,"qcField":6,"metarType":"METAR","rawOb":"METAR KSOW 130455Z AUTO 20021G27KT 10SM FEW046 11/02 A3009 RMK AO2","lat":34.2686,"lon":-110.0019,"elev":1954,"name":"Show Low Muni, AZ, US","cover":"FEW","clouds":[{"cover":"FEW","base":4600}],"fltCat":"VFR"},{"icaoId":"KLRU","receiptTime":"2026-04-13T04:57:08.019Z","obsTime":1776056100,"reportTime":"2026-04-13T05:00:00.000Z","temp":18.5,"dewp":-1.1,"wdir":260,"wspd":12,"visib":"10+","altim":1019.7,"qcField":6,"metarType":"METAR","rawOb":"METAR KLRU 130455Z AUTO 26012KT 10SM CLR 19/M01 A3011 RMK AO2 T01851011","lat":32.2884,"lon":-106.9131,"elev":1355,"name":"Las Cruces Intl, NM, US","cover":"CLR","clouds":[],"fltCat":"VFR"},{"icaoId":"KBUF","receiptTime":"2026-04-13T04:57:07.566Z","obsTime":1776056040,"reportTime":"2026-04-13T05:00:00.000Z","temp":20,"dewp":9.4,"wdir":200,"wspd":15,"visib":"10+","altim":1012.6,"slp":1012.5,"qcField":12,"maxT24":21.1,"minT24":0.6,"metarType":"METAR","rawOb":"METAR KBUF 130454Z 20015KT 10SM BKN250 20/09 A2990 RMK AO2 SLP125 T02000094 402110006 $","lat":42.94,"lon":-78.7361,"elev":217,"name":"Buffalo-Niagara Intl, NY, US","cover":"BKN","clouds":[{"cover":"BKN","base":25000}],"fltCat":"VFR"},{"icaoId":"KOLS","receiptTime":"2026-04-13T04:57:08.541Z","obsTime":1776056040,"reportTime":"2026-04-13T05:00:00.000Z","temp":18.3,"dewp":1.1,"wdir":210,"wspd":8,"visib":"10+","altim":1020.1,"slp":1014.5,"qcField":6,"metarType":"METAR","rawOb":"METAR KOLS 130454Z AUTO 21008KT 10SM BKN055 18/01 A3012 RMK AO2 SLP145 T01830011","lat":31.4208,"lon":-110.8465,"elev":1194,"name":"Nogales Intl, AZ, US","cover":"BKN","clouds":[{"cover":"BKN","base":5500}],"fltCat":"VFR"},{"icaoId":"KRIC","receiptTime":"2026-04-13T04:57:08.829Z","obsTime":1776056040,"reportTime":"2026-04-13T05:00:00.000Z","temp":17.8,"dewp":13.3,"wdir":180,"wspd":13,"visib":"10+","altim":1025.1,"slp":1025.3,"qcField":12,"maxT24":24.4,"minT24":11.1,"metarType":"METAR","rawOb":"METAR KRIC 130454Z 18013KT 10SM BKN300 18/13 A3027 RMK AO2 SLP253 T01780133 402440111 $","lat":37.5115,"lon":-77.3234,"elev":51,"name":"Richmond Intl, VA, US","cover":"BKN","clouds":[{"cover":"BKN","base":30000}],"fltCat":"VFR"},{"icaoId":"KFFZ","receiptTime":"2026-04-13T04:57:09.679Z","obsTime":1776056040,"reportTime":"2026-04-13T05:00:00.000Z","temp":22.2,"dewp":3.3,"wdir":270,"wspd":7,"visib":"10+","altim":1015,"slp":1012.9,"qcField":38,"metarType":"METAR","rawOb":"METAR KFFZ 130454Z AUTO 27007KT 10SM CLR 22/03 A2997 RMK AO2 SLP129 T02220033 TSNO","lat":33.4659,"lon":-111.7212,"elev":420,"name":"Mesa/Falcon Fld, AZ, US","cover":"CLR","clouds":[],"fltCat":"VFR"},{"icaoId":"KGCN","receiptTime":"2026-04-13T04:57:09.823Z","obsTime":1776056040,"reportTime":"2026-04-13T05:00:00.000Z","temp":6.7,"dewp":-6.1,"wdir":220,"wspd":11,"wgst":20,"visib":"10+","altim":1017.4,"slp":1011.7,"qcField":6,"metarType":"METAR","rawOb":"METAR KGCN 130454Z AUTO 22011G20KT 10SM CLR 07/M06 A3004 RMK AO2 SLP117 T00671061","lat":35.9458,"lon":-112.1554,"elev":1993,"name":"Grand Canyon Park Arpt, AZ, US","cover":"CLR","clouds":[],"fltCat":"VFR"},{"icaoId":"KIND","receiptTime":"2026-04-13T04:56:37.904Z","obsTime":1776056040,"reportTime":"2026-04-13T05:00:00.000Z","temp":22.2,"dewp":9.4,"wdir":190,"wspd":16,"wgst":27,"visib":"10+","altim":1014,"slp":1013.1,"qcField":4,"maxT24":26.7,"minT24":11.1,"precip":0.005,"metarType":"METAR","rawOb":"METAR KIND 130454Z 19016G27KT 10SM OVC070 22/09 A2994 RMK AO2 PK WND 19028/0436 RAE04 SLP131 P0000 T02220094 402670111","lat":39.7252,"lon":-86.2816,"elev":242,"name":"Indianapolis Intl, IN, US","cover":"OVC","clouds":[{"cover":"OVC","base":7000}],"fltCat":"VFR"},{"icaoId":"KPHL","receiptTime":"2026-04-13T04:57:08.647Z","obsTime":1776056040,"reportTime":"2026-04-13T05:00:00.000Z","temp":10.6,"dewp":4.4,"wdir":140,"wspd":4,"visib":"10+","altim":1025.8,"slp":1025.5,"qcField":12,"maxT24":19.4,"minT24":6.7,"metarType":"METAR","rawOb":"METAR KPHL 130454Z 14004KT 10SM BKN280 11/04 A3029 RMK AO2 SLP255 T01060044 401940067 $","lat":39.8733,"lon":-75.2268,"elev":2,"name":"Philadelphia Intl, PA, US","cover":"BKN","clouds":[{"cover":"BKN","base":28000}],"fltCat":"VFR"},{"icaoId":"KBFL","receiptTime":"2026-04-13T04:57:06.198Z","obsTime":1776056040,"reportTime":"2026-04-13T05:00:00.000Z","temp":13.3,"dewp":5.6,"wdir":340,"wspd":9,"visib":"10+","altim":1016.3,"slp":1015.9,"qcField":12,"metarType":"METAR","rawOb":"METAR KBFL 130454Z 34009KT 10SM BKN070 13/06 A3001 RMK AO2 SLP159 T01330056 $","lat":35.4342,"lon":-119.0552,"elev":146,"name":"Bakersfield/Meadows Arpt, CA, US","cover":"BKN","clouds":[{"cover":"BKN","base":7000}],"fltCat":"VFR"},{"icaoId":"KDSM","receiptTime":"2026-04-13T04:57:09.523Z","obsTime":1776056040,"reportTime":"2026-04-13T05:00:00.000Z","temp":16.7,"dewp":15.6,"wdir":210,"wspd":10,"visib":"10+","altim":1007.9,"slp":1007.3,"qcField":4,"metarType":"METAR","rawOb":"METAR KDSM 130454Z 21010KT 10SM CLR 17/16 A2976 RMK AO2 SLP073 T01670156","lat":41.5339,"lon":-93.6531,"elev":286,"name":"Des Moines Intl, IA, US","cover":"CLR","clouds":[],"fltCat":"VFR"},{"icaoId":"KRKS","receiptTime":"2026-04-13T04:57:08.843Z","obsTime":1776056040,"reportTime":"2026-04-13T05:00:00.000Z","temp":6.1,"dewp":-2.8,"wdir":330,"wspd":3,"visib":"10+","altim":1010.9,"slp":1006.1,"qcField":6,"metarType":"METAR","rawOb":"METAR KRKS 130454Z AUTO 33003KT 10SM FEW055 BKN070 OVC110 06/M03 A2985 RMK AO2 SLP061 T00611028","lat":41.5947,"lon":-109.0529,"elev":2062,"name":"Rock Springs/SW Wyoming Rgnl, WY, US","cover":"OVC","clouds":[{"cover":"FEW","base":5500},{"cover":"BKN","base":7000},{"cover":"OVC","base":11000}],"fltCat":"VFR"},{"icaoId":"KSLC","receiptTime":"2026-04-13T04:57:06.901Z","obsTime":1776056040,"reportTime":"2026-04-13T05:00:00.000Z","temp":6.7,"dewp":3.9,"wdir":270,"wspd":20,"wgst":31,"visib":4,"altim":1014,"slp":1011.4,"qcField":12,"wxString":"RA BR","precip":0.01,"metarType":"METAR","rawOb":"METAR KSLC 130454Z 27020G31KT 4SM RA BR SCT020 OVC028 07/04 A2994 RMK AO2 PK WND 27031/0454 RAB06 PRESRR SLP114 P0001 T00670039 $","lat":40.7707,"lon":-111.965,"elev":1286,"name":"Salt Lake City Intl, UT, US","cover":"OVC","clouds":[{"cover":"SCT","base":2000},{"cover":"OVC","base":2800}],"fltCat":"MVFR"},{"icaoId":"KGSO","receiptTime":"2026-04-13T04:57:09.871Z","obsTime":1776056040,"reportTime":"2026-04-13T05:00:00.000Z","temp":20,"dewp":12.8,"wdir":200,"wspd":14,"visib":"10+","altim":1025.8,"slp":1024.7,"qcField":12,"maxT24":27.2,"minT24":11.1,"metarType":"METAR","rawOb":"METAR KGSO 130454Z 20014KT 10SM OVC250 20/13 A3029 RMK AO2 SLP247 T02000128 402720111 $","lat":36.0969,"lon":-79.9432,"elev":275,"name":"Greensboro Intl, NC, US","cover":"OVC","clouds":[{"cover":"OVC","base":25000}],"fltCat":"VFR"},{"icaoId":"KEUG","receiptTime":"2026-04-13T04:57:09.603Z","obsTime":1776056040,"reportTime":"2026-04-13T05:00:00.000Z","temp":10.6,"dewp":7.2,"wdir":230,"wspd":8,"visib":"10+","altim":1014.3,"slp":1014.3,"qcField":4,"metarType":"METAR","rawOb":"METAR KEUG 130454Z 23008KT 10SM FEW025 BKN049 OVC070 11/07 A2995 RMK AO2 SLP143 T01060072","lat":44.1331,"lon":-123.2156,"elev":109,"name":"Eugene/Mahlon Sweet Fld, OR, US","cover":"OVC","clouds":[{"cover":"FEW","base":2500},{"cover":"BKN","base":4900},{"cover":"OVC","base":7000}],"fltCat":"VFR"},{"icaoId":"KOLM","receiptTime":"2026-04-13T04:57:08.528Z","obsTime":1776056040,"reportTime":"2026-04-13T05:00:00.000Z","temp":9.4,"dewp":6.1,"wdir":210,"wspd":6,"visib":"10+","altim":1010.9,"slp":1010.9,"qcField":14,"metarType":"METAR","rawOb":"METAR KOLM 130454Z AUTO 21006KT 10SM OVC075 09/06 A2985 RMK AO2 SLP109 T00940061 $","lat":46.9737,"lon":-122.9049,"elev":58,"name":"Olympia Rgnl, WA, US","cover":"OVC","clouds":[{"cover":"OVC","base":7500}],"fltCat":"VFR"},{"icaoId":"KMEM","receiptTime":"2026-04-13T04:57:08.192Z","obsTime":1776056040,"reportTime":"2026-04-13T05:00:00.000Z","temp":23.3,"dewp":12.2,"wdir":200,"wspd":6,"visib":"10+","altim":1019.7,"slp":1019.1,"qcField":12,"metarType":"METAR","rawOb":"METAR KMEM 130454Z 20006KT 10SM OVC170 23/12 A3011 RMK AO2 SLP191 T02330122 $","lat":35.0564,"lon":-89.9864,"elev":78,"name":"Memphis Intl, TN, US","cover":"OVC","clouds":[{"cover":"OVC","base":17000}],"fltCat":"VFR"},{"icaoId":"KSYR","receiptTime":"2026-04-13T04:57:07.067Z","obsTime":1776056040,"reportTime":"2026-04-13T05:00:00.000Z","temp":16.7,"dewp":6.1,"wdir":180,"wspd":20,"wgst":33,"visib":"10+","altim":1015.3,"slp":1014.9,"qcField":12,"maxT24":17.8,"minT24":-1.1,"metarType":"METAR","rawOb":"METAR KSYR 130454Z 18020G33KT 10SM FEW090 BKN220 17/06 A2998 RMK AO2 PK WND 19033/0449 SLP149 T01670061 401781011 $","lat":43.1111,"lon":-76.1038,"elev":125,"name":"Syracuse/Hancock Intl, NY, US","cover":"BKN","clouds":[{"cover":"FEW","base":9000},{"cover":"BKN","base":22000}],"fltCat":"VFR"},{"icaoId":"KSJN","receiptTime":"2026-04-13T04:57:06.889Z","obsTime":1776056040,"reportTime":"2026-04-13T05:00:00.000Z","temp":13.3,"dewp":1.1,"wdir":220,"wspd":8,"visib":"10+","altim":1018,"slp":1010.8,"qcField":6,"metarType":"METAR","rawOb":"METAR KSJN 130454Z AUTO 22008KT 10SM CLR 13/01 A3006 RMK AO2 SLP108 T01330011","lat":34.5184,"lon":-109.3801,"elev":1747,"name":"St Johns Ind Arpt, AZ, US","cover":"CLR","clouds":[],"fltCat":"VFR"},{"icaoId":"KROC","receiptTime":"2026-04-13T04:57:06.611Z","obsTime":1776056040,"reportTime":"2026-04-13T05:00:00.000Z","temp":18.3,"dewp":8.3,"wdir":200,"wspd":13,"wgst":20,"visib":"10+","altim":1013.3,"slp":1013.3,"qcField":4,"maxT24":18.9,"minT24":-0.6,"metarType":"METAR","rawOb":"METAR KROC 130454Z 20013G20KT 10SM BKN250 18/08 A2992 RMK AO2 SLP133 T01830083 401891006","lat":43.1172,"lon":-77.6754,"elev":166,"name":"Rochester Intl Arpt, NY, US","cover":"BKN","clouds":[{"cover":"BKN","base":25000}],"fltCat":"VFR"},{"icaoId":"KBWI","receiptTime":"2026-04-13T04:57:06.278Z","obsTime":1776056040,"reportTime":"2026-04-13T05:00:00.000Z","temp":12.2,"dewp":9.4,"wdir":130,"wspd":3,"visib":"10+","altim":1024.1,"slp":1023.8,"qcField":12,"maxT24":20,"minT24":6.1,"metarType":"METAR","rawOb":"METAR KBWI 130454Z 13003KT 10SM BKN250 12/09 A3024 RMK AO2 SLP238 T01220094 402000061 $","lat":39.1733,"lon":-76.684,"elev":42,"name":"Baltimore-Washington Intl, MD, US","cover":"BKN","clouds":[{"cover":"BKN","base":25000}],"fltCat":"VFR"},{"icaoId":"KBOS","receiptTime":"2026-04-13T04:57:06.213Z","obsTime":1776056040,"reportTime":"2026-04-13T05:00:00.000Z","temp":6.7,"dewp":3.9,"wdir":190,"wspd":7,"visib":"10+","altim":1027.5,"slp":1027.2,"qcField":4,"maxT24":10,"minT24":4.4,"metarType":"METAR","rawOb":"METAR KBOS 130454Z 19007KT 10SM FEW019 OVC075 07/04 A3034 RMK AO2 SLP272 T00670039 401000044","lat":42.3606,"lon":-71.0097,"elev":4,"name":"Boston/Logan Intl, MA, US","cover":"OVC","clouds":[{"cover":"FEW","base":1900},{"cover":"OVC","base":7500}],"fltCat":"VFR"},{"icaoId":"KBTV","receiptTime":"2026-04-13T04:57:06.250Z","obsTime":1776056040,"reportTime":"2026-04-13T05:00:00.000Z","temp":6.7,"dewp":4.4,"wdir":150,"wspd":4,"visib":"10+","altim":1018.4,"slp":1018.4,"qcField":14,"wxString":"-RA","maxT24":10.6,"minT24":-2.2,"precip":0.03,"metarType":"METAR","rawOb":"METAR KBTV 130454Z AUTO 15004KT 10SM -RA OVC060 07/04 A3007 RMK AO2 SLP184 P0003 T00670044 401061022 $","lat":44.4682,"lon":-73.1499,"elev":101,"name":"Burlington Intl, VT, US","cover":"OVC","clouds":[{"cover":"OVC","base":6000}],"fltCat":"VFR"},{"icaoId":"KCOS","receiptTime":"2026-04-13T04:57:09.334Z","obsTime":1776056040,"reportTime":"2026-04-13T05:00:00.000Z","temp":15.6,"dewp":-8.9,"wdir":230,"wspd":14,"visib":"10+","altim":1012.6,"slp":1005.4,"qcField":4,"metarType":"METAR","rawOb":"METAR KCOS 130454Z 23014KT 10SM FEW130 BKN250 16/M09 A2990 RMK AO2 SLP054 T01561089","lat":38.8095,"lon":-104.6887,"elev":1886,"name":"Colorado Spring Arpt, CO, US","cover":"BKN","clouds":[{"cover":"FEW","base":13000},{"cover":"BKN","base":25000}],"fltCat":"VFR"},{"icaoId":"KAPC","receiptTime":"2026-04-13T04:57:06.074Z","obsTime":1776056040,"reportTime":"2026-04-13T05:00:00.000Z","temp":11.1,"dewp":8.9,"wdir":280,"wspd":3,"visib":"10+","altim":1016.3,"slp":1015.4,"qcField":6,"metarType":"METAR","rawOb":"METAR KAPC 130454Z AUTO 28003KT 10SM FEW048 SCT065 BKN085 11/09 A3001 RMK AO2 SLP154 T01110089","lat":38.2075,"lon":-122.2804,"elev":5,"name":"Napa Cnty Arpt, CA, US","cover":"BKN","clouds":[{"cover":"FEW","base":4800},{"cover":"SCT","base":6500},{"cover":"BKN","base":8500}],"fltCat":"VFR"},{"icaoId":"KMDW","receiptTime":"2026-04-13T04:56:30.689Z","obsTime":1776055980,"reportTime":"2026-04-13T05:00:00.000Z","temp":17.2,"dewp":15,"wdir":220,"wspd":15,"wgst":29,"visib":"10+","altim":1008.9,"slp":1007.8,"qcField":4,"wxString":"-RA","precip":0.01,"metarType":"METAR","rawOb":"METAR KMDW 130453Z 22015G29KT 10SM -RA BKN041 BKN049 OVC060 17/15 A2979 RMK AO2 PK WND 21029/0447 SLP078 P0001 T01720150","lat":41.7841,"lon":-87.7552,"elev":186,"name":"Chicago/Midway Intl, IL, US","cover":"OVC","clouds":[{"cover":"BKN","base":4100},{"cover":"BKN","base":4900},{"cover":"OVC","base":6000}],"fltCat":"VFR"},{"icaoId":"KSWO","receiptTime":"2026-04-13T04:57:07.049Z","obsTime":1776055980,"reportTime":"2026-04-13T05:00:00.000Z","temp":21.1,"dewp":18.3,"wdir":190,"wspd":13,"visib":"10+","altim":1012.6,"slp":1011.3,"qcField":6,"metarType":"METAR","rawOb":"METAR KSWO 130453Z AUTO 19013KT 10SM OVC017 21/18 A2990 RMK AO2 SLP113 T02110183","lat":36.1624,"lon":-97.0832,"elev":293,"name":"Stillwater Muni, OK, US","cover":"OVC","clouds":[{"cover":"OVC","base":1700}],"fltCat":"MVFR"},{"icaoId":"KMSP","receiptTime":"2026-04-13T04:56:29.927Z","obsTime":1776055980,"reportTime":"2026-04-13T05:00:00.000Z","temp":17.2,"dewp":9.4,"wdir":270,"wspd":5,"visib":"10+","altim":1003.1,"slp":1002.7,"qcField":4,"metarType":"METAR","rawOb":"METAR KMSP 130453Z 27005KT 10SM CLR 17/09 A2962 RMK AO2 SLP027 T01720094","lat":44.8852,"lon":-93.2313,"elev":255,"name":"Minneapolis-St Paul Intl, MN, US","cover":"CLR","clouds":[],"fltCat":"VFR"},{"icaoId":"KLGB","receiptTime":"2026-04-13T04:56:30.180Z","obsTime":1776055980,"reportTime":"2026-04-13T05:00:00.000Z","temp":15.6,"dewp":10,"wdir":290,"wspd":5,"visib":"10+","altim":1017,"slp":1016.8,"qcField":14,"metarType":"METAR","rawOb":"METAR KLGB 130453Z AUTO 29005KT 10SM CLR 16/10 A3003 RMK AO2 SLP168 T01560100 $","lat":33.8118,"lon":-118.1472,"elev":10,"name":"Long Beach Arpt, CA, US","cover":"CLR","clouds":[],"fltCat":"VFR"},{"icaoId":"KMYF","receiptTime":"2026-04-13T04:56:30.051Z","obsTime":1776055980,"reportTime":"2026-04-13T05:00:00.000Z","temp":16.1,"dewp":12.2,"wdir":200,"wspd":4,"visib":"10+","altim":1017.7,"slp":1017.1,"qcField":6,"metarType":"METAR","rawOb":"METAR KMYF 130453Z AUTO 20004KT 10SM OVC041 16/12 A3005 RMK AO2 SLP171 T01610122","lat":32.8145,"lon":-117.1375,"elev":128,"name":"San Diego/Montgomery Arpt, CA, US","cover":"OVC","clouds":[{"cover":"OVC","base":4100}],"fltCat":"VFR"},{"icaoId":"KFUL","receiptTime":"2026-04-13T04:56:32.478Z","obsTime":1776055980,"reportTime":"2026-04-13T05:00:00.000Z","temp":15.6,"dewp":10,"wdir":270,"wspd":3,"visib":"10+","altim":1017,"slp":1016.8,"qcField":6,"metarType":"METAR","rawOb":"METAR KFUL 130453Z AUTO 27003KT 10SM CLR 16/10 A3003 RMK AO2 SLP168 T01560100","lat":33.8715,"lon":-117.9856,"elev":23,"name":"Fullerton Muni, CA, US","cover":"CLR","clouds":[],"fltCat":"VFR"},{"icaoId":"KEVW","receiptTime":"2026-04-13T04:56:31.758Z","obsTime":1776055980,"reportTime":"2026-04-13T05:00:00.000Z","temp":1.1,"dewp":0,"wdir":220,"wspd":7,"visib":9,"altim":1012.3,"slp":1008.4,"qcField":14,"wxString":"-SN","precip":0.005,"metarType":"METAR","rawOb":"METAR KEVW 130453Z AUTO 22007KT 9SM -SN OVC028 01/00 A2989 RMK AO2 UPB17E25SNB25 SLP084 P0000 T00110000 $","lat":41.2727,"lon":-111.0305,"elev":2178,"name":"Evanston/Uinta Cnty, WY, US","cover":"OVC","clouds":[{"cover":"OVC","base":2800}],"fltCat":"MVFR"},{"icaoId":"PANC","receiptTime":"2026-04-13T04:56:26.813Z","obsTime":1776055980,"reportTime":"2026-04-13T05:00:00.000Z","temp":1.7,"dewp":-0.6,"wdir":190,"wspd":5,"visib":"10+","altim":1000.1,"slp":1000.2,"qcField":12,"metarType":"METAR","rawOb":"METAR PANC 130453Z 19005KT 10SM OVC050 02/M01 A2953 RMK AO2 SLP002 T00171006 $","lat":61.1691,"lon":-150.0277,"elev":39,"name":"Anchorage Intl, AK, US","cover":"OVC","clouds":[{"cover":"OVC","base":5000}],"fltCat":"VFR"},{"icaoId":"KPIH","receiptTime":"2026-04-13T04:56:29.396Z","obsTime":1776055980,"reportTime":"2026-04-13T05:00:00.000Z","temp":6.1,"dewp":-0.6,"wdir":200,"wspd":11,"visib":"10+","altim":1011.3,"slp":1009.5,"qcField":6,"metarType":"METAR","rawOb":"METAR KPIH 130453Z AUTO 20011KT 10SM OVC095 06/M01 A2986 RMK AO2 SLP095 T00611006","lat":42.9197,"lon":-112.5723,"elev":1357,"name":"Pocatello Rgnl, ID, US","cover":"OVC","clouds":[{"cover":"OVC","base":9500}],"fltCat":"VFR"},{"icaoId":"KDFW","receiptTime":"2026-04-13T04:56:32.003Z","obsTime":1776055980,"reportTime":"2026-04-13T05:00:00.000Z","temp":21.7,"dewp":17.8,"wdir":180,"wspd":22,"wgst":35,"visib":"10+","altim":1016.3,"slp":1015.6,"qcField":4,"metarType":"METAR","rawOb":"METAR KDFW 130453Z 18022G35KT 10SM BKN018 BKN200 22/18 A3001 RMK AO2 PK WND 18035/0451 SLP156 T02170178","lat":32.8974,"lon":-97.022,"elev":168,"name":"Dallas-Ft Worth Intl, TX, US","cover":"BKN","clouds":[{"cover":"BKN","base":1800},{"cover":"BKN","base":20000}],"fltCat":"MVFR"},{"icaoId":"KBNA","receiptTime":"2026-04-13T04:56:34.834Z","obsTime":1776055980,"reportTime":"2026-04-13T05:00:00.000Z","temp":23.3,"dewp":8.9,"wdir":190,"wspd":11,"visib":"10+","altim":1021.1,"slp":1020.3,"qcField":12,"metarType":"METAR","rawOb":"METAR KBNA 130453Z 19011KT 10SM BKN110 23/09 A3015 RMK AO2 SLP203 T02330089 $","lat":36.1105,"lon":-86.6881,"elev":168,"name":"Nashville Intl, TN, US","cover":"BKN","clouds":[{"cover":"BKN","base":11000}],"fltCat":"VFR"},{"icaoId":"KMFE","receiptTime":"2026-04-13T04:56:30.706Z","obsTime":1776055980,"reportTime":"2026-04-13T05:00:00.000Z","temp":25,"dewp":21.1,"wdir":270,"wspd":9,"visib":"10+","altim":1016,"slp":1015.5,"qcField":14,"metarType":"METAR","rawOb":"METAR KMFE 130453Z AUTO 27009KT 10SM BKN019 25/21 A3000 RMK AO2 PK WND 15035/0357 SLP155 T02500211 $","lat":26.1791,"lon":-98.2445,"elev":29,"name":"McAllen/Miller Intl, TX, US","cover":"BKN","clouds":[{"cover":"BKN","base":1900}],"fltCat":"MVFR"},{"icaoId":"KBRO","receiptTime":"2026-04-13T04:56:34.184Z","obsTime":1776055980,"reportTime":"2026-04-13T05:00:00.000Z","temp":25.6,"dewp":22.8,"wdir":160,"wspd":19,"wgst":26,"visib":"10+","altim":1018,"slp":1017.7,"qcField":6,"metarType":"METAR","rawOb":"METAR KBRO 130453Z AUTO 16019G26KT 10SM BKN010 BKN017 26/23 A3006 RMK AO2 PK WND 16027/0431 SLP177 T02560228","lat":25.9146,"lon":-97.4231,"elev":6,"name":"Brownsville Intl, TX, US","cover":"BKN","clouds":[{"cover":"BKN","base":1000},{"cover":"BKN","base":1700}],"fltCat":"MVFR"},{"icaoId":"KFAT","receiptTime":"2026-04-13T04:56:32.124Z","obsTime":1776055980,"reportTime":"2026-04-13T05:00:00.000Z","temp":13.3,"dewp":6.7,"wdir":350,"wspd":7,"visib":"10+","altim":1017.4,"slp":1017,"qcField":12,"metarType":"METAR","rawOb":"METAR KFAT 130453Z 35007KT 10SM BKN075 BKN120 BKN200 13/07 A3004 RMK AO2 SLP170 T01330067 $","lat":36.78,"lon":-119.7202,"elev":102,"name":"Fresno/Yosemite Intl, CA, US","cover":"BKN","clouds":[{"cover":"BKN","base":7500},{"cover":"BKN","base":12000},{"cover":"BKN","base":20000}],"fltCat":"VFR"},{"icaoId":"KSEA","receiptTime":"2026-04-13T04:56:27.683Z","obsTime":1776055980,"reportTime":"2026-04-13T05:00:00.000Z","temp":10,"dewp":7.2,"wdir":210,"wspd":9,"visib":"10+","altim":1010.2,"slp":1010.9,"qcField":4,"metarType":"METAR","rawOb":"METAR KSEA 130453Z 21009KT 10SM SCT014 BKN045 OVC055 10/07 A2983 RMK AO2 SLP109 T01000072","lat":47.4447,"lon":-122.3144,"elev":115,"name":"Seattle-Tacoma Intl, WA, US","cover":"OVC","clouds":[{"cover":"SCT","base":1400},{"cover":"BKN","base":4500},{"cover":"OVC","base":5500}],"fltCat":"VFR"},{"icaoId":"KSHR","receiptTime":"2026-04-13T04:56:27.788Z","obsTime":1776055980,"reportTime":"2026-04-13T05:00:00.000Z","temp":6.7,"dewp":5,"wdir":330,"wspd":5,"visib":"10+","altim":1007.9,"slp":1006.9,"qcField":6,"metarType":"METAR","rawOb":"METAR KSHR 130453Z AUTO 33005KT 10SM BKN110 07/05 A2976 RMK AO2 SLP069 T00670050","lat":44.7603,"lon":-106.9741,"elev":1212,"name":"Sheridan Cnty Arpt, WY, US","cover":"BKN","clouds":[{"cover":"BKN","base":11000}],"fltCat":"VFR"},{"icaoId":"KLBB","receiptTime":"2026-04-13T04:56:33.011Z","obsTime":1776055980,"reportTime":"2026-04-13T05:00:00.000Z","temp":21.1,"dewp":0,"wdir":230,"wspd":13,"visib":"10+","altim":1015,"slp":1010.3,"qcField":12,"metarType":"METAR","rawOb":"METAR KLBB 130453Z 23013KT 10SM FEW200 21/00 A2997 RMK AO2 SLP103 T02110000 $","lat":33.6658,"lon":-101.8233,"elev":996,"name":"Lubbock Intl Arpt, TX, US","cover":"FEW","clouds":[{"cover":"FEW","base":20000}],"fltCat":"VFR"},{"icaoId":"KLOL","receiptTime":"2026-04-13T04:56:30.301Z","obsTime":1776055980,"reportTime":"2026-04-13T05:00:00.000Z","temp":6.7,"dewp":-1.7,"wdir":280,"wspd":3,"visib":"10+","altim":1013.6,"slp":1013.1,"qcField":14,"precip":0.005,"metarType":"METAR","rawOb":"METAR KLOL 130453Z AUTO 28003KT 10SM BKN065 07/M02 A2993 RMK AO2 RAB0355E04 SLP131 P0000 T00671017 $","lat":40.0684,"lon":-118.5702,"elev":1191,"name":"Lovelock/Derby Fld, NV, US","cover":"BKN","clouds":[{"cover":"BKN","base":6500}],"fltCat":"VFR"},{"icaoId":"KLVS","receiptTime":"2026-04-13T04:56:30.432Z","obsTime":1776055980,"reportTime":"2026-04-13T05:00:00.000Z","temp":12.2,"dewp":-7.8,"wdir":210,"wspd":18,"wgst":25,"visib":"10+","altim":1017.7,"slp":1008.9,"qcField":14,"metarType":"METAR","rawOb":"METAR KLVS 130453Z AUTO 21018G25KT 10SM CLR 12/M08 A3005 RMK AO2 SLP089 T01221078 PNO $","lat":35.6558,"lon":-105.1385,"elev":2095,"name":"Las Vegas Muni, NM, US","cover":"CLR","clouds":[],"fltCat":"VFR"},{"icaoId":"KMCO","receiptTime":"2026-04-13T04:56:30.655Z","obsTime":1776055980,"reportTime":"2026-04-13T05:00:00.000Z","temp":18.3,"dewp":13.9,"wdir":80,"wspd":4,"visib":"10+","altim":1026.8,"slp":1026.6,"qcField":4,"maxT24":27.2,"minT24":15,"metarType":"METAR","rawOb":"METAR KMCO 130453Z 08004KT 10SM FEW040 18/14 A3032 RMK AO2 SLP266 T01830139 402720150","lat":28.4182,"lon":-81.3241,"elev":27,"name":"Orlando Intl, FL, US","cover":"FEW","clouds":[{"cover":"FEW","base":4000}],"fltCat":"VFR"},{"icaoId":"KOAK","receiptTime":"2026-04-13T04:56:30.082Z","obsTime":1776055980,"reportTime":"2026-04-13T05:00:00.000Z","temp":12.2,"dewp":9.4,"wdir":250,"wspd":6,"visib":7,"altim":1017,"slp":1016.9,"qcField":12,"wxString":"-RA","precip":0.02,"metarType":"METAR","rawOb":"METAR KOAK 130453Z 25006KT 7SM -RA FEW010 SCT018 BKN032 12/09 A3003 RMK AO2 RAB33 SLP169 P0002 T01220094 $","lat":37.7178,"lon":-122.233,"elev":3,"name":"Oakland Intl, CA, US","cover":"BKN","clouds":[{"cover":"FEW","base":1000},{"cover":"SCT","base":1800},{"cover":"BKN","base":3200}],"fltCat":"VFR"},{"icaoId":"KONT","receiptTime":"2026-04-13T04:56:29.063Z","obsTime":1776055980,"reportTime":"2026-04-13T05:00:00.000Z","temp":13.3,"dewp":8.3,"wdir":250,"wspd":4,"visib":"10+","altim":1017.4,"slp":1016.8,"qcField":12,"metarType":"METAR","rawOb":"METAR KONT 130453Z 25004KT 10SM FEW040 FEW075 13/08 A3004 RMK AO2 SLP168 T01330083 $","lat":34.0531,"lon":-117.5769,"elev":279,"name":"Ontario Intl, CA, US","cover":"FEW","clouds":[{"cover":"FEW","base":4000},{"cover":"FEW","base":7500}],"fltCat":"VFR"},{"icaoId":"KFMN","receiptTime":"2026-04-13T04:56:32.279Z","obsTime":1776055980,"reportTime":"2026-04-13T05:00:00.000Z","temp":15.6,"dewp":-8.9,"wdir":230,"wspd":15,"wgst":24,"visib":"10+","altim":1015.3,"slp":1010.7,"qcField":6,"metarType":"METAR","rawOb":"METAR KFMN 130453Z AUTO 23015G24KT 10SM CLR 16/M09 A2998 RMK AO2 SLP107 T01561089","lat":36.7435,"lon":-108.2293,"elev":1677,"name":"Farmington/Four Corners Rgnl, NM, US","cover":"CLR","clouds":[],"fltCat":"VFR"},{"icaoId":"KGEG","receiptTime":"2026-04-13T04:56:31.374Z","obsTime":1776055980,"reportTime":"2026-04-13T05:00:00.000Z","temp":9.4,"dewp":6.7,"wdir":210,"wspd":9,"visib":"10+","altim":1004.8,"slp":1004.7,"qcField":12,"metarType":"METAR","rawOb":"METAR KGEG 130453Z 21009KT 10SM FEW010 SCT060 BKN075 OVC170 09/07 A2967 RMK AO2 SLP047 T00940067 $","lat":47.6217,"lon":-117.528,"elev":718,"name":"Spokane Intl, WA, US","cover":"OVC","clouds":[{"cover":"FEW","base":1000},{"cover":"SCT","base":6000},{"cover":"BKN","base":7500},{"cover":"OVC","base":17000}],"fltCat":"VFR"},{"icaoId":"KAMA","receiptTime":"2026-04-13T04:56:33.885Z","obsTime":1776055980,"reportTime":"2026-04-13T05:00:00.000Z","temp":16.7,"dewp":-2.2,"wdir":220,"wspd":12,"visib":"10+","altim":1013.3,"slp":1008.7,"qcField":4,"metarType":"METAR","rawOb":"METAR KAMA 130453Z 22012KT 10SM CLR 17/M02 A2992 RMK AO2 SLP087 T01671022","lat":35.2203,"lon":-101.7173,"elev":1102,"name":"Amarillo Intl Arpt, TX, US","cover":"CLR","clouds":[],"fltCat":"VFR"},{"icaoId":"KAPA","receiptTime":"2026-04-13T04:56:33.972Z","obsTime":1776055980,"reportTime":"2026-04-13T05:00:00.000Z","temp":16.1,"dewp":-10.6,"wdir":270,"wspd":9,"visib":"10+","altim":1010.2,"slp":1004.2,"qcField":4,"metarType":"METAR","rawOb":"METAR KAPA 130453Z 27009KT 10SM FEW100 BKN220 16/M11 A2983 RMK AO2 SLP042 T01611106","lat":39.5599,"lon":-104.8484,"elev":1791,"name":"Denver/Centennial Arpt, CO, US","cover":"BKN","clouds":[{"cover":"FEW","base":10000},{"cover":"BKN","base":22000}],"fltCat":"VFR"},{"icaoId":"KCPR","receiptTime":"2026-04-13T04:56:33.447Z","obsTime":1776055980,"reportTime":"2026-04-13T05:00:00.000Z","temp":6.1,"dewp":-7.8,"wdir":260,"wspd":3,"visib":"10+","altim":1008.2,"slp":1004.5,"qcField":6,"metarType":"METAR","rawOb":"METAR KCPR 130453Z AUTO 26003KT 10SM CLR 06/M08 A2977 RMK AO2 SLP045 T00611078","lat":42.8978,"lon":-106.4736,"elev":1623,"name":"Casper/Natrona Cnty, WY, US","cover":"CLR","clouds":[],"fltCat":"VFR"},{"icaoId":"KPSC","receiptTime":"2026-04-13T04:56:27.135Z","obsTime":1776055980,"reportTime":"2026-04-13T05:00:00.000Z","temp":13.9,"dewp":7.8,"wdir":220,"wspd":9,"visib":"10+","altim":1004.8,"slp":1004.8,"qcField":6,"metarType":"METAR","rawOb":"METAR KPSC 130453Z AUTO 22009KT 10SM BKN065 OVC095 14/08 A2967 RMK AO2 SLP048 T01390078","lat":46.2695,"lon":-119.1182,"elev":121,"name":"Pasco/Tri Cities Arpt, WA, US","cover":"OVC","clouds":[{"cover":"BKN","base":6500},{"cover":"OVC","base":9500}],"fltCat":"VFR"},{"icaoId":"KSDL","receiptTime":"2026-04-13T04:56:27.652Z","obsTime":1776055980,"reportTime":"2026-04-13T05:00:00.000Z","temp":21.7,"dewp":2.8,"wdir":250,"wspd":6,"visib":"10+","altim":1015.3,"slp":1013.2,"qcField":6,"metarType":"METAR","rawOb":"METAR KSDL 130453Z AUTO 25006KT 10SM CLR 22/03 A2998 RMK AO2 SLP132 T02170028","lat":33.6123,"lon":-111.9232,"elev":438,"name":"Scottsdale Muni, AZ, US","cover":"CLR","clouds":[],"fltCat":"VFR"},{"icaoId":"KPBI","receiptTime":"2026-04-13T04:56:29.259Z","obsTime":1776055980,"reportTime":"2026-04-13T05:00:00.000Z","temp":22.8,"dewp":13.3,"wdir":70,"wspd":13,"visib":"10+","altim":1025.1,"slp":1025,"qcField":12,"maxT24":27.2,"minT24":22.2,"metarType":"METAR","rawOb":"METAR KPBI 130453Z 07013KT 10SM SCT043 23/13 A3027 RMK AO2 SLP250 T02280133 402720222 $","lat":26.6851,"lon":-80.0992,"elev":4,"name":"Palm Beach Intl, FL, US","cover":"SCT","clouds":[{"cover":"SCT","base":4300}],"fltCat":"VFR"},{"icaoId":"KCNM","receiptTime":"2026-04-13T04:56:33.388Z","obsTime":1776055980,"reportTime":"2026-04-13T05:00:00.000Z","temp":20,"dewp":-1.1,"wdir":230,"wspd":8,"visib":"10+","altim":1015.7,"slp":1010.7,"qcField":6,"metarType":"METAR","rawOb":"METAR KCNM 130453Z AUTO 23008KT 10SM CLR 20/M01 A2999 RMK AO2 SLP107 T02001011","lat":32.3336,"lon":-104.2584,"elev":993,"name":"Carlsbad/Cavern City Air Term, NM, US","cover":"CLR","clouds":[],"fltCat":"VFR"},{"icaoId":"KMAF","receiptTime":"2026-04-13T04:56:30.531Z","obsTime":1776055980,"reportTime":"2026-04-13T05:00:00.000Z","temp":22.2,"dewp":13.9,"wdir":170,"wspd":12,"visib":"10+","altim":1016.3,"slp":1012,"qcField":6,"metarType":"METAR","rawOb":"METAR KMAF 130453Z AUTO 17012KT 10SM CLR 22/14 A3001 RMK AO2 SLP120 T02220139","lat":31.9475,"lon":-102.2086,"elev":874,"name":"Midland Intl, TX, US","cover":"CLR","clouds":[],"fltCat":"VFR"},{"icaoId":"KMLC","receiptTime":"2026-04-13T04:56:29.729Z","obsTime":1776055980,"reportTime":"2026-04-13T05:00:00.000Z","temp":21.1,"dewp":18.9,"wdir":180,"wspd":8,"visib":"10+","altim":1015.7,"slp":1015,"qcField":6,"metarType":"METAR","rawOb":"METAR KMLC 130453Z AUTO 18008KT 140V220 10SM FEW014 SCT031 21/19 A2999 RMK AO2 SLP150 T02110189","lat":34.8824,"lon":-95.7815,"elev":231,"name":"McAlester Rgnl, OK, US","cover":"SCT","clouds":[{"cover":"FEW","base":1400},{"cover":"SCT","base":3100}],"fltCat":"VFR"},{"icaoId":"KMSY","receiptTime":"2026-04-13T04:56:29.959Z","obsTime":1776055980,"reportTime":"2026-04-13T05:00:00.000Z","temp":21.7,"dewp":17.2,"wdir":130,"wspd":10,"visib":"10+","altim":1023.5,"slp":1023.5,"qcField":4,"metarType":"METAR","rawOb":"METAR KMSY 130453Z 13010KT 10SM FEW024 SCT250 22/17 A3022 RMK AO2 SLP235 T02170172","lat":29.9974,"lon":-90.2777,"elev":0,"name":"New Orleans/Armstrong Intl, LA, US","cover":"SCT","clouds":[{"cover":"FEW","base":2400},{"cover":"SCT","base":25000}],"fltCat":"VFR"},{"icaoId":"KMYR","receiptTime":"2026-04-13T04:56:22.771Z","obsTime":1776055980,"reportTime":"2026-04-13T05:00:00.000Z","temp":19.4,"dewp":18.3,"wdir":180,"wspd":4,"visib":"10+","altim":1028.5,"slp":1028.4,"qcField":14,"metarType":"METAR","rawOb":"METAR KMYR 130453Z AUTO 18004KT 10SM BKN024 19/18 A3037 RMK AO2 SLP284 T01940183 $","lat":33.6769,"lon":-78.9325,"elev":7,"name":"Myrtle Beach Intl, SC, US","cover":"BKN","clouds":[{"cover":"BKN","base":2400}],"fltCat":"MVFR"},{"icaoId":"KMFR","receiptTime":"2026-04-13T04:56:30.724Z","obsTime":1776055980,"reportTime":"2026-04-13T05:00:00.000Z","temp":11.1,"dewp":5,"wdir":280,"wspd":7,"visib":"10+","altim":1013.6,"slp":1013.7,"qcField":14,"metarType":"METAR","rawOb":"METAR KMFR 130453Z AUTO 28007KT 10SM BKN042 OVC055 11/05 A2993 RMK AO2 SLP137 T01110050 $","lat":42.375,"lon":-122.877,"elev":397,"name":"Medford/Rogue Valley Intl, OR, US","cover":"OVC","clouds":[{"cover":"BKN","base":4200},{"cover":"OVC","base":5500}],"fltCat":"VFR"},{"icaoId":"KMOD","receiptTime":"2026-04-13T04:56:29.841Z","obsTime":1776055980,"reportTime":"2026-04-13T05:00:00.000Z","temp":12.8,"dewp":10,"wdir":90,"wspd":5,"visib":"10+","altim":1017,"slp":1016.8,"qcField":6,"metarType":"METAR","rawOb":"METAR KMOD 130453Z AUTO 09005KT 10SM BKN055 BKN120 13/10 A3003 RMK AO2 SLP168 T01280100","lat":37.6254,"lon":-120.9549,"elev":25,"name":"Modesto/Sham Fld, CA, US","cover":"BKN","clouds":[{"cover":"BKN","base":5500},{"cover":"BKN","base":12000}],"fltCat":"VFR"},{"icaoId":"KPAE","receiptTime":"2026-04-13T04:56:29.206Z","obsTime":1776055980,"reportTime":"2026-04-13T05:00:00.000Z","temp":9.4,"dewp":8.3,"wdir":10,"wspd":5,"visib":4,"altim":1009.9,"slp":1010.1,"qcField":6,"wxString":"BR","metarType":"METAR","rawOb":"METAR KPAE 130453Z AUTO 01005KT 4SM BR OVC010 09/08 A2982 RMK AO2 SLP101 T00940083","lat":47.9232,"lon":-122.2831,"elev":166,"name":"Everett/Paine Fld, WA, US","cover":"OVC","clouds":[{"cover":"OVC","base":1000}],"fltCat":"MVFR"},{"icaoId":"KELY","receiptTime":"2026-04-13T04:56:31.667Z","obsTime":1776055980,"reportTime":"2026-04-13T05:00:00.000Z","temp":-1.1,"dewp":-1.1,"wdir":250,"wspd":3,"visib":"10+","altim":1014.6,"slp":1012,"qcField":6,"precip":0.01,"metarType":"METAR","rawOb":"METAR KELY 130453Z AUTO 25003KT 10SM FEW027 SCT031 OVC100 M01/M01 A2996 RMK AO2 SNE11 SLP120 P0001 T10111011","lat":39.2954,"lon":-114.8466,"elev":1906,"name":"Ely/Yelland Fld, NV, US","cover":"OVC","clouds":[{"cover":"FEW","base":2700},{"cover":"SCT","base":3100},{"cover":"OVC","base":10000}],"fltCat":"VFR"},{"icaoId":"KBLI","receiptTime":"2026-04-13T04:56:34.781Z","obsTime":1776055980,"reportTime":"2026-04-13T05:00:00.000Z","temp":11.1,"dewp":7.8,"wdir":170,"wspd":11,"visib":"10+","altim":1008.9,"slp":1009.4,"qcField":6,"metarType":"METAR","rawOb":"METAR KBLI 130453Z AUTO 17011KT 10SM OVC065 11/08 A2979 RMK AO2 SLP094 T01110078","lat":48.7991,"lon":-122.5407,"elev":46,"name":"Bellingham Intl, WA, US","cover":"OVC","clouds":[{"cover":"OVC","base":6500}],"fltCat":"VFR"},{"icaoId":"KBOI","receiptTime":"2026-04-13T04:56:34.864Z","obsTime":1776055980,"reportTime":"2026-04-13T05:00:00.000Z","temp":6.1,"dewp":2.8,"wdir":140,"wspd":5,"visib":"10+","altim":1010.6,"slp":1010.7,"qcField":6,"metarType":"METAR","rawOb":"METAR KBOI 130453Z AUTO 14005KT 10SM BKN100 06/03 A2984 RMK AO2 SLP107 T00610028","lat":43.567,"lon":-116.2406,"elev":860,"name":"Boise Arpt, ID, US","cover":"BKN","clouds":[{"cover":"BKN","base":10000}],"fltCat":"VFR"},{"icaoId":"KTPA","receiptTime":"2026-04-13T04:56:28.266Z","obsTime":1776055980,"reportTime":"2026-04-13T05:00:00.000Z","temp":20.6,"dewp":15.6,"wdir":"VRB","wspd":3,"visib":"10+","altim":1026.2,"slp":1025.9,"qcField":4,"maxT24":30,"minT24":17.8,"metarType":"METAR","rawOb":"METAR KTPA 130453Z VRB03KT 10SM CLR 21/16 A3030 RMK AO2 SLP259 T02060156 403000178","lat":27.9633,"lon":-82.54,"elev":2,"name":"Tampa Intl Arpt, FL, US","cover":"CLR","clouds":[],"fltCat":"VFR"},{"icaoId":"KTUL","receiptTime":"2026-04-13T04:56:28.338Z","obsTime":1776055980,"reportTime":"2026-04-13T05:00:00.000Z","temp":21.7,"dewp":18.3,"wdir":160,"wspd":10,"wgst":22,"visib":"10+","altim":1014.3,"slp":1013.4,"qcField":4,"metarType":"METAR","rawOb":"METAR KTUL 130453Z 16010G22KT 10SM BKN018 OVC023 22/18 A2995 RMK AO2 SLP134 T02170183","lat":36.1985,"lon":-95.8782,"elev":196,"name":"Tulsa Intl Arpt, OK, US","cover":"OVC","clouds":[{"cover":"BKN","base":1800},{"cover":"OVC","base":2300}],"fltCat":"MVFR"},{"icaoId":"KPDX","receiptTime":"2026-04-13T04:56:29.304Z","obsTime":1776055980,"reportTime":"2026-04-13T05:00:00.000Z","temp":11.7,"dewp":9.4,"wdir":280,"wspd":5,"visib":"10+","altim":1012.3,"slp":1012,"qcField":12,"metarType":"METAR","rawOb":"METAR KPDX 130453Z 28005KT 10SM FEW009 BKN038 OVC075 12/09 A2989 RMK AO2 SLP120 T01170094 $","lat":45.5958,"lon":-122.6092,"elev":7,"name":"Portland Intl, OR, US","cover":"OVC","clouds":[{"cover":"FEW","base":900},{"cover":"BKN","base":3800},{"cover":"OVC","base":7500}],"fltCat":"VFR"},{"icaoId":"KASE","receiptTime":"2026-04-13T04:56:34.053Z","obsTime":1776055980,"reportTime":"2026-04-13T05:00:00.000Z","temp":9.4,"dewp":-5.6,"wdir":120,"wspd":9,"visib":"10+","altim":1014.6,"slp":1005.1,"qcField":6,"metarType":"METAR","rawOb":"METAR KASE 130453Z AUTO 12009KT 10SM SCT090 BKN100 09/M06 A2996 RMK AO2 PK WND 18026/0423 SLP051 T00941056","lat":39.2299,"lon":-106.8705,"elev":2384,"name":"Aspen/Pitkin Cnty, CO, US","cover":"BKN","clouds":[{"cover":"SCT","base":9000},{"cover":"BKN","base":10000}],"fltCat":"VFR"},{"icaoId":"KBUR","receiptTime":"2026-04-13T04:56:34.257Z","obsTime":1776055980,"reportTime":"2026-04-13T05:00:00.000Z","temp":14.4,"dewp":5,"wdir":300,"wspd":5,"visib":"10+","altim":1017.4,"slp":1016.4,"qcField":4,"metarType":"METAR","rawOb":"METAR KBUR 130453Z 30005KT 10SM BKN055 14/05 A3004 RMK AO2 SLP164 T01440050","lat":34.1996,"lon":-118.3654,"elev":221,"name":"Burbank/Bob Hope Arpt, CA, US","cover":"BKN","clouds":[{"cover":"BKN","base":5500}],"fltCat":"VFR"},{"icaoId":"KVEL","receiptTime":"2026-04-13T04:56:28.565Z","obsTime":1776055980,"reportTime":"2026-04-13T05:00:00.000Z","temp":13.9,"dewp":-6.1,"wdir":260,"wspd":7,"wgst":15,"visib":"10+","altim":1008.2,"slp":1003.6,"qcField":6,"metarType":"METAR","rawOb":"METAR KVEL 130453Z AUTO 26007G15KT 10SM SCT110 14/M06 A2977 RMK AO2 SLP036 T01391061","lat":40.4429,"lon":-109.5128,"elev":1604,"name":"Vernal Rgnl, UT, US","cover":"SCT","clouds":[{"cover":"SCT","base":11000}],"fltCat":"VFR"},{"icaoId":"KDTW","receiptTime":"2026-04-13T04:56:31.505Z","obsTime":1776055980,"reportTime":"2026-04-13T05:00:00.000Z","temp":21.1,"dewp":10,"wdir":200,"wspd":14,"visib":9,"altim":1011.3,"slp":1011.1,"qcField":4,"maxT24":27.8,"minT24":5.6,"precip":0.005,"metarType":"METAR","rawOb":"METAR KDTW 130453Z 20014KT 9SM SCT060 BKN090 OVC140 21/10 A2986 RMK AO2 PK WND 19026/0400 RAE42 SLP111 P0000 T02110100 402780056","lat":42.2311,"lon":-83.3312,"elev":192,"name":"Detroit/Metro Wayne Cnty, MI, US","cover":"OVC","clouds":[{"cover":"SCT","base":6000},{"cover":"BKN","base":9000},{"cover":"OVC","base":14000}],"fltCat":"VFR"},{"icaoId":"KPSP","receiptTime":"2026-04-13T04:56:27.149Z","obsTime":1776055980,"reportTime":"2026-04-13T05:00:00.000Z","temp":18.9,"dewp":6.1,"wdir":330,"wspd":6,"visib":"10+","altim":1014.6,"slp":1014.4,"qcField":4,"metarType":"METAR","rawOb":"METAR KPSP 130453Z 33006KT 10SM CLR 19/06 A2996 RMK AO2 SLP144 T01890061","lat":33.8222,"lon":-116.5043,"elev":123,"name":"Palm Springs Intl, CA, US","cover":"CLR","clouds":[],"fltCat":"VFR"},{"icaoId":"KPUB","receiptTime":"2026-04-13T04:56:27.179Z","obsTime":1776055980,"reportTime":"2026-04-13T05:00:00.000Z","temp":13.9,"dewp":-8.3,"wdir":260,"wspd":9,"visib":"10+","altim":1010.2,"slp":1004.9,"qcField":14,"metarType":"METAR","rawOb":"METAR KPUB 130453Z AUTO 26009KT 10SM CLR 14/M08 A2983 RMK AO2 SLP049 T01391083 $","lat":38.2887,"lon":-104.5057,"elev":1441,"name":"Pueblo Mem Arpt, CO, US","cover":"CLR","clouds":[],"fltCat":"VFR"},{"icaoId":"KRDD","receiptTime":"2026-04-13T04:56:27.318Z","obsTime":1776055980,"reportTime":"2026-04-13T05:00:00.000Z","temp":7.2,"dewp":5.6,"wdir":0,"wspd":0,"visib":"10+","altim":1015.7,"slp":1015.4,"qcField":12,"metarType":"METAR","rawOb":"METAR KRDD 130453Z 00000KT 10SM FEW032 07/06 A2999 RMK AO2 SLP154 T00720056 $","lat":40.5146,"lon":-122.2977,"elev":152,"name":"Redding Muni, CA, US","cover":"FEW","clouds":[{"cover":"FEW","base":3200}],"fltCat":"VFR"},{"icaoId":"KGSP","receiptTime":"2026-04-13T04:56:31.002Z","obsTime":1776055980,"reportTime":"2026-04-13T05:00:00.000Z","temp":19.4,"dewp":9.4,"wdir":190,"wspd":11,"visib":"10+","altim":1026.2,"slp":1025.2,"qcField":6,"maxT24":28.3,"minT24":9.4,"metarType":"METAR","rawOb":"METAR KGSP 130453Z AUTO 19011KT 10SM CLR 19/09 A3030 RMK AO2 SLP252 T01940094 402830094","lat":34.8842,"lon":-82.2209,"elev":285,"name":"Greenville-Spartanburg Intl, SC, US","cover":"CLR","clouds":[],"fltCat":"VFR"},{"icaoId":"KHIO","receiptTime":"2026-04-13T04:56:31.191Z","obsTime":1776055980,"reportTime":"2026-04-13T05:00:00.000Z","temp":10.6,"dewp":8.3,"wdir":290,"wspd":5,"visib":"10+","altim":1011.9,"slp":1011.9,"qcField":4,"metarType":"METAR","rawOb":"METAR KHIO 130453Z 29005KT 10SM OVC034 11/08 A2988 RMK AO2 SLP119 T01060083","lat":45.5476,"lon":-122.9557,"elev":62,"name":"Portland/Hillsboro Arpt, OR, US","cover":"OVC","clouds":[{"cover":"OVC","base":3400}],"fltCat":"VFR"},{"icaoId":"KSMF","receiptTime":"2026-04-13T04:56:27.869Z","obsTime":1776055980,"reportTime":"2026-04-13T05:00:00.000Z","temp":11.7,"dewp":9.4,"wdir":"VRB","wspd":3,"visib":"10+","altim":1016,"slp":1015.7,"qcField":12,"metarType":"METAR","rawOb":"METAR KSMF 130453Z VRB03KT 10SM SCT055 BKN075 BKN110 12/09 A3000 RMK AO2 SLP157 T01170094 $","lat":38.7007,"lon":-121.5948,"elev":7,"name":"Sacramento Intl, CA, US","cover":"BKN","clouds":[{"cover":"SCT","base":5500},{"cover":"BKN","base":7500},{"cover":"BKN","base":11000}],"fltCat":"VFR"},{"icaoId":"KCYS","receiptTime":"2026-04-13T04:56:33.609Z","obsTime":1776055980,"reportTime":"2026-04-13T05:00:00.000Z","temp":10,"dewp":-10.6,"wdir":280,"wspd":7,"visib":"10+","altim":1009.9,"slp":1003.4,"qcField":14,"metarType":"METAR","rawOb":"METAR KCYS 130453Z AUTO 28007KT 10SM CLR 10/M11 A2982 RMK AO2 SLP034 T01001106 $","lat":41.1579,"lon":-104.8081,"elev":1868,"name":"Cheyenne Rgnl, WY, US","cover":"CLR","clouds":[],"fltCat":"VFR"},{"icaoId":"KCLL","receiptTime":"2026-04-13T04:56:33.328Z","obsTime":1776055980,"reportTime":"2026-04-13T05:00:00.000Z","temp":20,"dewp":18.9,"wdir":0,"wspd":0,"visib":"10+","altim":1020.1,"slp":1019.5,"qcField":6,"wxString":"TS","precip":0.02,"metarType":"METAR","rawOb":"METAR KCLL 130453Z AUTO 00000KT 10SM TS BKN011 BKN016 OVC039 20/19 A3012 RMK AO2 LTG DSNT N-E RAE00B15E45 TSB05E20B25 SLP195 P0002 T02000189","lat":30.5912,"lon":-96.3631,"elev":96,"name":"College Station/Easterwood Arpt, TX, US","cover":"OVC","clouds":[{"cover":"BKN","base":1100},{"cover":"BKN","base":1600},{"cover":"OVC","base":3900}],"fltCat":"MVFR"},{"icaoId":"KCRQ","receiptTime":"2026-04-13T04:56:33.503Z","obsTime":1776055980,"reportTime":"2026-04-13T05:00:00.000Z","temp":16.1,"dewp":12.8,"wdir":0,"wspd":0,"visib":"10+","altim":1017,"slp":1016.7,"qcField":4,"metarType":"METAR","rawOb":"METAR KCRQ 130453Z 00000KT 10SM FEW024 BKN034 OVC055 16/13 A3003 RMK AO2 SLP167 T01610128","lat":33.1299,"lon":-117.2765,"elev":96,"name":"Carlsbad/Palomar Arpt, CA, US","cover":"OVC","clouds":[{"cover":"FEW","base":2400},{"cover":"BKN","base":3400},{"cover":"OVC","base":5500}],"fltCat":"VFR"},{"icaoId":"KBCE","receiptTime":"2026-04-13T04:56:34.540Z","obsTime":1776055980,"reportTime":"2026-04-13T05:00:00.000Z","temp":3.3,"dewp":-10,"wdir":210,"wspd":9,"visib":"10+","altim":1015,"slp":1007.7,"qcField":6,"metarType":"METAR","rawOb":"METAR KBCE 130453Z AUTO 21009KT 10SM CLR 03/M10 A2997 RMK AO2 SLP077 T00331100","lat":37.7013,"lon":-112.149,"elev":2311,"name":"Bryce Canyon Arpt, UT, US","cover":"CLR","clouds":[],"fltCat":"VFR"},{"icaoId":"KBFI","receiptTime":"2026-04-13T04:56:34.620Z","obsTime":1776055980,"reportTime":"2026-04-13T05:00:00.000Z","temp":11.1,"dewp":7.8,"wdir":"VRB","wspd":3,"visib":"10+","altim":1010.2,"slp":1010.1,"qcField":12,"metarType":"METAR","rawOb":"METAR KBFI 130453Z VRB03KT 10SM FEW048 SCT065 OVC085 11/08 A2983 RMK AO2 SLP101 T01110078 $","lat":47.5455,"lon":-122.3148,"elev":7,"name":"Seattle/Boeing Fld, WA, US","cover":"OVC","clouds":[{"cover":"FEW","base":4800},{"cover":"SCT","base":6500},{"cover":"OVC","base":8500}],"fltCat":"VFR"},{"icaoId":"KIAH","receiptTime":"2026-04-13T04:56:32.730Z","obsTime":1776055980,"reportTime":"2026-04-13T05:00:00.000Z","temp":22.2,"dewp":21.1,"wdir":170,"wspd":7,"visib":"10+","altim":1020.4,"slp":1020.1,"qcField":4,"precip":0.005,"metarType":"METAR","rawOb":"METAR KIAH 130453Z 17007KT 10SM FEW008 BKN110 OVC250 22/21 A3013 RMK AO2 RAE35 SLP201 P0000 T02220211","lat":29.9844,"lon":-95.3607,"elev":27,"name":"Houston/Bush Intl, TX, US","cover":"OVC","clouds":[{"cover":"FEW","base":800},{"cover":"BKN","base":11000},{"cover":"OVC","base":25000}],"fltCat":"VFR"},{"icaoId":"KLAR","receiptTime":"2026-04-13T04:56:32.971Z","obsTime":1776055980,"reportTime":"2026-04-13T05:00:00.000Z","temp":4.4,"dewp":-10.6,"wdir":200,"wspd":10,"visib":"10+","altim":1011.9,"slp":1005.1,"qcField":14,"metarType":"METAR","rawOb":"METAR KLAR 130453Z AUTO 20010KT 10SM SCT110 04/M11 A2988 RMK AO2 SLP051 T00441106 $","lat":41.3165,"lon":-105.6729,"elev":2217,"name":"Laramie Rgnl, WY, US","cover":"SCT","clouds":[{"cover":"SCT","base":11000}],"fltCat":"VFR"},{"icaoId":"KPRC","receiptTime":"2026-04-13T04:56:27.119Z","obsTime":1776055980,"reportTime":"2026-04-13T05:00:00.000Z","temp":11.1,"dewp":-3.3,"wdir":190,"wspd":15,"wgst":20,"visib":"10+","altim":1017.7,"slp":1012,"qcField":6,"metarType":"METAR","rawOb":"METAR KPRC 130453Z AUTO 19015G20KT 10SM CLR 11/M03 A3005 RMK AO2 SLP120 T01111033","lat":34.6491,"lon":-112.4223,"elev":1528,"name":"Prescott/Love Fld, AZ, US","cover":"CLR","clouds":[],"fltCat":"VFR"},{"icaoId":"KPUW","receiptTime":"2026-04-13T04:56:27.218Z","obsTime":1776055980,"reportTime":"2026-04-13T05:00:00.000Z","temp":7.8,"dewp":7.2,"wdir":270,"wspd":5,"visib":"10+","altim":1005.8,"slp":1006.1,"qcField":6,"wxString":"-RA","precip":0.01,"metarType":"METAR","rawOb":"METAR KPUW 130453Z AUTO 27005KT 10SM -RA OVC008 08/07 A2970 RMK AO2 SLP061 P0001 T00780072","lat":46.7438,"lon":-117.1158,"elev":774,"name":"Pullman/Moscow Rgnl, WA, US","cover":"OVC","clouds":[{"cover":"OVC","base":800}],"fltCat":"IFR"},{"icaoId":"KRTN","receiptTime":"2026-04-13T04:56:27.476Z","obsTime":1776055980,"reportTime":"2026-04-13T05:00:00.000Z","temp":9.4,"dewp":-6.7,"wdir":280,"wspd":5,"visib":"10+","altim":1014.6,"slp":1007.9,"qcField":6,"metarType":"METAR","rawOb":"METAR KRTN 130453Z AUTO 28005KT 10SM CLR 09/M07 A2996 RMK AO2 SLP079 T00941067","lat":36.7418,"lon":-104.5076,"elev":1939,"name":"Raton/Crews Fld, NM, US","cover":"CLR","clouds":[],"fltCat":"VFR"},{"icaoId":"KSAF","receiptTime":"2026-04-13T04:56:27.576Z","obsTime":1776055980,"reportTime":"2026-04-13T05:00:00.000Z","temp":12.2,"dewp":-9.4,"wdir":0,"wspd":0,"visib":"","altim":1017.7,"slp":1010,"qcField":14,"metarType":"METAR","rawOb":"METAR KSAF 130453Z AUTO 00000KT FEW120 12/M09 A3005 RMK AO2 SLP100 T01221094 $","lat":35.611,"lon":-106.0957,"elev":1918,"name":"Santa Fe Cnty Muni, NM, US","cover":"FEW","clouds":[{"cover":"FEW","base":12000}]},{"icaoId":"KSBA","receiptTime":"2026-04-13T04:56:27.621Z","obsTime":1776055980,"reportTime":"2026-04-13T05:00:00.000Z","temp":12.8,"dewp":7.2,"wdir":0,"wspd":0,"visib":"10+","altim":1017,"slp":1016.8,"qcField":12,"metarType":"METAR","rawOb":"METAR KSBA 130453Z 00000KT 10SM CLR 13/07 A3003 RMK AO2 SLP168 T01280072 $","lat":34.4241,"lon":-119.8425,"elev":2,"name":"Santa Barbara Muni, CA, US","cover":"CLR","clouds":[],"fltCat":"VFR"},{"icaoId":"KSJC","receiptTime":"2026-04-13T04:56:27.843Z","obsTime":1776055980,"reportTime":"2026-04-13T05:00:00.000Z","temp":13.3,"dewp":7.2,"wdir":220,"wspd":5,"visib":"10+","altim":1017.4,"slp":1017.2,"qcField":12,"metarType":"METAR","rawOb":"METAR KSJC 130453Z 22005KT 10SM FEW016 FEW045 SCT055 13/07 A3004 RMK AO2 SLP172 T01330072 $","lat":37.3594,"lon":-121.9244,"elev":13,"name":"San Jose Intl Arpt, CA, US","cover":"SCT","clouds":[{"cover":"FEW","base":1600},{"cover":"FEW","base":4500},{"cover":"SCT","base":5500}],"fltCat":"VFR"},{"icaoId":"KSNA","receiptTime":"2026-04-13T04:56:27.900Z","obsTime":1776055980,"reportTime":"2026-04-13T05:00:00.000Z","temp":16.1,"dewp":8.9,"wdir":270,"wspd":3,"visib":"10+","altim":1017.4,"slp":1017.1,"qcField":12,"metarType":"METAR","rawOb":"METAR KSNA 130453Z 27003KT 10SM FEW038 16/09 A3004 RMK AO2 SLP171 T01610089 $","lat":33.6798,"lon":-117.8675,"elev":14,"name":"Santa Ana/Wayne Arpt, CA, US","cover":"FEW","clouds":[{"cover":"FEW","base":3800}],"fltCat":"VFR"},{"icaoId":"KTUS","receiptTime":"2026-04-13T04:56:28.365Z","obsTime":1776055980,"reportTime":"2026-04-13T05:00:00.000Z","temp":21.7,"dewp":2.2,"wdir":0,"wspd":0,"visib":"10+","altim":1017.7,"slp":1013.6,"qcField":4,"metarType":"METAR","rawOb":"METAR KTUS 130453Z 00000KT 10SM CLR 22/02 A3005 RMK AO2 SLP136 T02170022","lat":32.1315,"lon":-110.9564,"elev":776,"name":"Tucson Intl Arpt, AZ, US","cover":"CLR","clouds":[],"fltCat":"VFR"},{"icaoId":"KTWF","receiptTime":"2026-04-13T04:56:28.433Z","obsTime":1776055980,"reportTime":"2026-04-13T05:00:00.000Z","temp":2.2,"dewp":1.1,"wdir":170,"wspd":8,"visib":"10+","altim":1012.3,"slp":1010.6,"qcField":6,"metarType":"METAR","rawOb":"METAR KTWF 130453Z AUTO 17008KT 10SM CLR 02/01 A2989 RMK AO2 SLP106 T00220011","lat":42.4785,"lon":-114.4775,"elev":1269,"name":"Twin Falls/Joslin Fld, ID, US","cover":"CLR","clouds":[],"fltCat":"VFR"},{"icaoId":"KVGT","receiptTime":"2026-04-13T04:56:28.577Z","obsTime":1776055980,"reportTime":"2026-04-13T05:00:00.000Z","temp":17.8,"dewp":-3.9,"wdir":210,"wspd":18,"visib":"10+","altim":1010.9,"slp":1011.1,"qcField":6,"metarType":"METAR","rawOb":"METAR KVGT 130453Z AUTO 21018KT 10SM CLR 18/M04 A2985 RMK AO2 SLP111 T01781039","lat":36.212,"lon":-115.194,"elev":664,"name":"Las Vegas/North Arpt, NV, US","cover":"CLR","clouds":[],"fltCat":"VFR"},{"icaoId":"KYKM","receiptTime":"2026-04-13T04:56:28.706Z","obsTime":1776055980,"reportTime":"2026-04-13T05:00:00.000Z","temp":12.2,"dewp":3.9,"wdir":350,"wspd":7,"visib":"10+","altim":1006.2,"slp":1006.3,"qcField":12,"metarType":"METAR","rawOb":"METAR KYKM 130453Z 35007KT 10SM CLR 12/04 A2971 RMK AO2 SLP063 T01220039 $","lat":46.564,"lon":-120.5349,"elev":319,"name":"Yakima/McAllister Fld, WA, US","cover":"CLR","clouds":[],"fltCat":"VFR"},{"icaoId":"KOGD","receiptTime":"2026-04-13T04:56:28.986Z","obsTime":1776055980,"reportTime":"2026-04-13T05:00:00.000Z","temp":4.4,"dewp":2.8,"wdir":330,"wspd":11,"visib":8,"altim":1012.6,"slp":1010.4,"qcField":6,"wxString":"-RA","precip":0.1,"metarType":"METAR","rawOb":"METAR KOGD 130453Z AUTO 33011KT 8SM -RA SCT014 OVC023 04/03 A2990 RMK AO2 WSHFT 0348 SLP104 P0010 T00440028","lat":41.1941,"lon":-112.0168,"elev":1356,"name":"Ogden/Hinckley Arpt, UT, US","cover":"OVC","clouds":[{"cover":"SCT","base":1400},{"cover":"OVC","base":2300}],"fltCat":"MVFR"},{"icaoId":"KPGA","receiptTime":"2026-04-13T04:56:29.337Z","obsTime":1776055980,"reportTime":"2026-04-13T05:00:00.000Z","temp":16.7,"dewp":-11.1,"wdir":230,"wspd":9,"wgst":16,"visib":"10+","altim":1012.6,"slp":1007.6,"qcField":14,"metarType":"METAR","rawOb":"METAR KPGA 130453Z AUTO 23009G16KT 190V270 10SM CLR 17/M11 A2990 RMK AO2 SLP076 T01671111 $","lat":36.9211,"lon":-111.4487,"elev":1310,"name":"Page Muni, AZ, US","cover":"CLR","clouds":[],"fltCat":"VFR"},{"icaoId":"KPNC","receiptTime":"2026-04-13T04:56:29.507Z","obsTime":1776055980,"reportTime":"2026-04-13T05:00:00.000Z","temp":21.1,"dewp":18.3,"wdir":180,"wspd":13,"wgst":22,"visib":"10+","altim":1011.3,"slp":1010.3,"qcField":6,"metarType":"METAR","rawOb":"METAR KPNC 130453Z AUTO 18013G22KT 10SM SCT018 21/18 A2986 RMK AO2 SLP103 T02110183","lat":36.7369,"lon":-97.1024,"elev":304,"name":"Ponca City Rgnl, OK, US","cover":"SCT","clouds":[{"cover":"SCT","base":1800}],"fltCat":"VFR"},{"icaoId":"KMTJ","receiptTime":"2026-04-13T04:56:29.988Z","obsTime":1776055980,"reportTime":"2026-04-13T05:00:00.000Z","temp":13.9,"dewp":-10.6,"wdir":190,"wspd":7,"visib":"10+","altim":1013.3,"slp":1006.8,"qcField":6,"metarType":"METAR","rawOb":"METAR KMTJ 130453Z AUTO 19007KT 10SM CLR 14/M11 A2992 RMK AO2 SLP068 T01391106","lat":38.5054,"lon":-107.8981,"elev":1755,"name":"Montrose Rgnl, CO, US","cover":"CLR","clouds":[],"fltCat":"VFR"},{"icaoId":"KMCI","receiptTime":"2026-04-13T04:56:30.603Z","obsTime":1776055980,"reportTime":"2026-04-13T05:00:00.000Z","temp":20.6,"dewp":17.2,"wdir":190,"wspd":16,"wgst":21,"visib":"10+","altim":1010.2,"slp":1009.4,"qcField":4,"metarType":"METAR","rawOb":"METAR KMCI 130453Z 19016G21KT 10SM CLR 21/17 A2983 RMK AO2 SLP094 T02060172","lat":39.2975,"lon":-94.7309,"elev":308,"name":"Kansas City Intl, MO, US","cover":"CLR","clouds":[],"fltCat":"VFR"},{"icaoId":"KGJT","receiptTime":"2026-04-13T04:56:30.789Z","obsTime":1776055980,"reportTime":"2026-04-13T05:00:00.000Z","temp":17.8,"dewp":-6.1,"wdir":180,"wspd":17,"wgst":27,"visib":"10+","altim":1009.6,"slp":1003.9,"qcField":6,"metarType":"METAR","rawOb":"METAR KGJT 130453Z AUTO 18017G27KT 10SM FEW110 18/M06 A2981 RMK AO2 PK WND 19038/0409 SLP039 T01781061","lat":39.1344,"lon":-108.5408,"elev":1475,"name":"Grand Junction Rgnl, CO, US","cover":"FEW","clouds":[{"cover":"FEW","base":11000}],"fltCat":"VFR"},{"icaoId":"KHOU","receiptTime":"2026-04-13T04:56:31.300Z","obsTime":1776055980,"reportTime":"2026-04-13T05:00:00.000Z","temp":22.8,"dewp":21.7,"wdir":150,"wspd":12,"visib":6,"altim":1020.4,"slp":1020.7,"qcField":12,"wxString":"BR","precip":0.02,"metarType":"METAR","rawOb":"METAR KHOU 130453Z 15012KT 6SM BR SCT017 BKN060 OVC120 23/22 A3013 RMK AO2 RAE38 SLP207 P0002 T02280217 $","lat":29.6458,"lon":-95.2821,"elev":13,"name":"Houston/Hobby Arpt, TX, US","cover":"OVC","clouds":[{"cover":"SCT","base":1700},{"cover":"BKN","base":6000},{"cover":"OVC","base":12000}],"fltCat":"VFR"},{"icaoId":"KDMN","receiptTime":"2026-04-13T04:56:31.389Z","obsTime":1776055980,"reportTime":"2026-04-13T05:00:00.000Z","temp":18.9,"dewp":2.2,"wdir":240,"wspd":7,"visib":"10+","altim":1019.7,"slp":1013,"qcField":6,"metarType":"METAR","rawOb":"METAR KDMN 130453Z AUTO 24007KT 10SM CLR 19/02 A3011 RMK AO2 SLP130 T01890022","lat":32.2592,"lon":-107.7206,"elev":1310,"name":"Deming Muni, NM, US","cover":"CLR","clouds":[],"fltCat":"VFR"},{"icaoId":"KDRO","receiptTime":"2026-04-13T04:56:31.431Z","obsTime":1776055980,"reportTime":"2026-04-13T05:00:00.000Z","temp":11.1,"dewp":-10.6,"wdir":230,"wspd":7,"visib":"10+","altim":1017,"slp":1011.5,"qcField":6,"metarType":"METAR","rawOb":"METAR KDRO 130453Z AUTO 23007KT 10SM CLR 11/M11 A3003 RMK AO2 SLP115 T01111106","lat":37.1431,"lon":-107.7602,"elev":2021,"name":"Durango/La Plata Cnty, CO, US","cover":"CLR","clouds":[],"fltCat":"VFR"},{"icaoId":"KDVT","receiptTime":"2026-04-13T04:56:31.541Z","obsTime":1776055980,"reportTime":"2026-04-13T05:00:00.000Z","temp":20.6,"dewp":1.7,"wdir":240,"wspd":4,"visib":"10+","altim":1015,"slp":1013.1,"qcField":14,"metarType":"METAR","rawOb":"METAR KDVT 130453Z AUTO 24004KT 10SM CLR 21/02 A2997 RMK AO2 SLP131 T02060017 $","lat":33.6902,"lon":-112.0662,"elev":454,"name":"Phoenix/Deer Valley Arpt, AZ, US","cover":"CLR","clouds":[],"fltCat":"VFR"},{"icaoId":"KDAL","receiptTime":"2026-04-13T04:56:31.885Z","obsTime":1776055980,"reportTime":"2026-04-13T05:00:00.000Z","temp":21.1,"dewp":18.9,"wdir":180,"wspd":11,"wgst":27,"visib":"10+","altim":1017.4,"slp":1016.6,"qcField":4,"metarType":"METAR","rawOb":"METAR KDAL 130453Z 18011G27KT 10SM FEW018 SCT050 BKN250 21/19 A3004 RMK AO2 PK WND 19027/0447 SLP166 T02110189","lat":32.8384,"lon":-96.8358,"elev":148,"name":"Dallas/Love Fld, TX, US","cover":"BKN","clouds":[{"cover":"FEW","base":1800},{"cover":"SCT","base":5000},{"cover":"BKN","base":25000}],"fltCat":"VFR"},{"icaoId":"KDEN","receiptTime":"2026-04-13T04:56:31.944Z","obsTime":1776055980,"reportTime":"2026-04-13T05:00:00.000Z","temp":15.6,"dewp":-8.3,"wdir":240,"wspd":5,"visib":"10+","altim":1009.2,"slp":1002.6,"qcField":4,"metarType":"METAR","rawOb":"METAR KDEN 130453Z 24005KT 10SM FEW140 SCT220 16/M08 A2980 RMK AO2 SLP026 T01561083","lat":39.8466,"lon":-104.6562,"elev":1656,"name":"Denver Intl, CO, US","cover":"SCT","clouds":[{"cover":"FEW","base":14000},{"cover":"SCT","base":22000}],"fltCat":"VFR"},{"icaoId":"KIDA","receiptTime":"2026-04-13T04:56:32.775Z","obsTime":1776055980,"reportTime":"2026-04-13T05:00:00.000Z","temp":6.7,"dewp":-1.7,"wdir":200,"wspd":12,"visib":"10+","altim":1010.6,"slp":1009.3,"qcField":6,"metarType":"METAR","rawOb":"METAR KIDA 130453Z AUTO 20012KT 10SM OVC100 07/M02 A2984 RMK AO2 SLP093 T00671017","lat":43.5204,"lon":-112.0675,"elev":1444,"name":"Idaho Falls Rgnl, ID, US","cover":"OVC","clouds":[{"cover":"OVC","base":10000}],"fltCat":"VFR"},{"icaoId":"KLAW","receiptTime":"2026-04-13T04:56:32.984Z","obsTime":1776055980,"reportTime":"2026-04-13T05:00:00.000Z","temp":20.6,"dewp":19.4,"wdir":170,"wspd":12,"wgst":21,"visib":"10+","altim":1013.6,"slp":1012.5,"qcField":14,"metarType":"METAR","rawOb":"METAR KLAW 130453Z AUTO 17012G21KT 10SM FEW014 21/19 A2993 RMK AO2 SLP125 T02060194 $","lat":34.5577,"lon":-98.4172,"elev":328,"name":"Lawton-Fort Sill Rgnl, OK, US","cover":"FEW","clouds":[{"cover":"FEW","base":1400}],"fltCat":"VFR"},{"icaoId":"KLAX","receiptTime":"2026-04-13T04:56:32.997Z","obsTime":1776055980,"reportTime":"2026-04-13T05:00:00.000Z","temp":15.6,"dewp":9.4,"wdir":270,"wspd":11,"visib":"10+","altim":1017.4,"slp":1016.9,"qcField":12,"metarType":"METAR","rawOb":"METAR KLAX 130453Z 27011KT 10SM FEW020 FEW080 16/09 A3004 RMK AO2 SLP169 T01560094 $","lat":33.9382,"lon":-118.3866,"elev":30,"name":"Los Angeles Intl, CA, US","cover":"FEW","clouds":[{"cover":"FEW","base":2000},{"cover":"FEW","base":8000}],"fltCat":"VFR"},{"icaoId":"KCDC","receiptTime":"2026-04-13T04:56:33.187Z","obsTime":1776055980,"reportTime":"2026-04-13T05:00:00.000Z","temp":8.3,"dewp":1.1,"wdir":190,"wspd":15,"wgst":27,"visib":"10+","altim":1013.3,"slp":1009,"qcField":6,"wxString":"-RA","precip":0.005,"metarType":"METAR","rawOb":"METAR KCDC 130453Z AUTO 19015G27KT 10SM -RA BKN046 BKN065 08/01 A2992 RMK AO2 PK WND 22036/0421 RAB43 SLP090 P0000 T00830011","lat":37.7067,"lon":-113.097,"elev":1703,"name":"Cedar City Muni, UT, US","cover":"BKN","clouds":[{"cover":"BKN","base":4600},{"cover":"BKN","base":6500}],"fltCat":"VFR"},{"icaoId":"KCNY","receiptTime":"2026-04-13T04:56:33.418Z","obsTime":1776055980,"reportTime":"2026-04-13T05:00:00.000Z","temp":17.2,"dewp":-7.8,"wdir":240,"wspd":16,"wgst":26,"visib":"10+","altim":1008.5,"slp":1003.9,"qcField":14,"metarType":"METAR","rawOb":"METAR KCNY 130453Z AUTO 24016G26KT 10SM FEW110 17/M08 A2978 RMK AO2 PK WND 26044/0419 SLP039 T01721078 $","lat":38.7501,"lon":-109.7627,"elev":1392,"name":"Moab/Canyonland Fld, UT, US","cover":"FEW","clouds":[{"cover":"FEW","base":11000}],"fltCat":"VFR"},{"icaoId":"KACV","receiptTime":"2026-04-13T04:56:33.759Z","obsTime":1776055980,"reportTime":"2026-04-13T05:00:00.000Z","temp":8.3,"dewp":7.2,"wdir":0,"wspd":0,"visib":"10+","altim":1016.3,"slp":1016.9,"qcField":6,"metarType":"METAR","rawOb":"METAR KACV 130453Z AUTO 00000KT 10SM SCT039 BKN050 08/07 A3001 RMK AO2 SLP169 T00830072","lat":40.9784,"lon":-124.1048,"elev":63,"name":"Arcata Arpt, CA, US","cover":"BKN","clouds":[{"cover":"SCT","base":3900},{"cover":"BKN","base":5000}],"fltCat":"VFR"},{"icaoId":"KAUS","receiptTime":"2026-04-13T04:56:34.128Z","obsTime":1776055980,"reportTime":"2026-04-13T05:00:00.000Z","temp":21.7,"dewp":20.6,"wdir":140,"wspd":8,"visib":"10+","altim":1018.7,"slp":1017.9,"qcField":4,"precip":0.005,"metarType":"METAR","rawOb":"METAR KAUS 130453Z 14008KT 10SM OVC008 22/21 A3008 RMK AO2 RAE30 SLP179 P0000 T02170206","lat":30.1831,"lon":-97.6806,"elev":148,"name":"Austin/Bergstrom Intl, TX, US","cover":"OVC","clouds":[{"cover":"OVC","base":800}],"fltCat":"IFR"},{"icaoId":"KBHM","receiptTime":"2026-04-13T04:56:34.684Z","obsTime":1776055980,"reportTime":"2026-04-13T05:00:00.000Z","temp":22.2,"dewp":9.4,"wdir":210,"wspd":11,"visib":"10+","altim":1024.8,"slp":1023.8,"qcField":4,"metarType":"METAR","rawOb":"METAR KBHM 130453Z 21011KT 10SM CLR 22/09 A3026 RMK AO2 SLP238 T02220094","lat":33.5655,"lon":-86.7449,"elev":191,"name":"Birmingham Intl, AL, US","cover":"CLR","clouds":[],"fltCat":"VFR"},{"icaoId":"KMKE","receiptTime":"2026-04-13T04:56:14.422Z","obsTime":1776055920,"reportTime":"2026-04-13T05:00:00.000Z","temp":15.6,"dewp":14.4,"wdir":230,"wspd":11,"visib":"10+","altim":1007.2,"slp":1006.8,"qcField":12,"wxString":"-RA","precip":0.02,"metarType":"METAR","rawOb":"METAR KMKE 130452Z 23011KT 10SM -RA SCT011 BKN017 OVC065 16/14 A2974 RMK AO2 SLP068 P0002 T01560144 $","lat":42.9549,"lon":-87.9045,"elev":203,"name":"Milwaukee/Mitchell Intl, WI, US","cover":"OVC","clouds":[{"cover":"SCT","base":1100},{"cover":"BKN","base":1700},{"cover":"OVC","base":6500}],"fltCat":"MVFR"},{"icaoId":"KHRL","receiptTime":"2026-04-13T04:56:14.253Z","obsTime":1776055920,"reportTime":"2026-04-13T05:00:00.000Z","temp":24.4,"dewp":22.8,"wdir":160,"wspd":23,"wgst":34,"visib":"10+","altim":1017,"slp":1016.7,"qcField":4,"precip":0.005,"metarType":"METAR","rawOb":"METAR KHRL 130452Z 16023G34KT 10SM BKN014 OVC043 24/23 A3003 RMK AO2 PK WND 16034/0446 RAB31E47 SLP167 P0000 T02440228","lat":26.2303,"lon":-97.6556,"elev":9,"name":"Harlingen/Valley Intl, TX, US","cover":"OVC","clouds":[{"cover":"BKN","base":1400},{"cover":"OVC","base":4300}],"fltCat":"MVFR"},{"icaoId":"KSPS","receiptTime":"2026-04-13T04:56:25.061Z","obsTime":1776055920,"reportTime":"2026-04-13T05:00:00.000Z","temp":21.7,"dewp":19.4,"wdir":180,"wspd":18,"visib":"10+","altim":1014,"slp":1012.7,"qcField":6,"metarType":"METAR","rawOb":"METAR KSPS 130452Z AUTO 18018KT 10SM CLR 22/19 A2994 RMK AO2 PK WND 18029/0401 SLP127 T02170194","lat":33.9785,"lon":-98.493,"elev":310,"name":"Wichita Falls Rgnl, TX, US","cover":"CLR","clouds":[],"fltCat":"VFR"},{"icaoId":"KIAD","receiptTime":"2026-04-13T04:56:14.284Z","obsTime":1776055920,"reportTime":"2026-04-13T05:00:00.000Z","temp":15,"dewp":10,"wdir":160,"wspd":6,"visib":"10+","altim":1023.5,"slp":1023.1,"qcField":12,"maxT24":22.8,"minT24":5.6,"metarType":"METAR","rawOb":"METAR KIAD 130452Z 16006KT 10SM BKN250 15/10 A3022 RMK AO2 SLP231 T01500100 402280056 $","lat":38.9348,"lon":-77.4473,"elev":90,"name":"Washington/Dulles Intl, VA, US","cover":"BKN","clouds":[{"cover":"BKN","base":25000}],"fltCat":"VFR"},{"icaoId":"KDCA","receiptTime":"2026-04-13T04:56:14.062Z","obsTime":1776055920,"reportTime":"2026-04-13T05:00:00.000Z","temp":15,"dewp":10.6,"wdir":170,"wspd":8,"visib":"10+","altim":1023.8,"slp":1023.6,"qcField":4,"maxT24":21.7,"minT24":9.4,"metarType":"METAR","rawOb":"METAR KDCA 130452Z 17008KT 10SM BKN250 15/11 A3023 RMK AO2 SLP236 T01500106 402170094","lat":38.8472,"lon":-77.0345,"elev":4,"name":"Washington/Reagan-National Arpt, VA, US","cover":"BKN","clouds":[{"cover":"BKN","base":25000}],"fltCat":"VFR"},{"icaoId":"KCVG","receiptTime":"2026-04-13T04:56:14.017Z","obsTime":1776055920,"reportTime":"2026-04-13T05:00:00.000Z","temp":23.3,"dewp":6.7,"wdir":200,"wspd":15,"wgst":25,"visib":"10+","altim":1017,"slp":1015.8,"qcField":12,"maxT24":27.2,"minT24":10,"metarType":"METAR","rawOb":"METAR KCVG 130452Z 20015G25KT 10SM BKN110 BKN140 23/07 A3003 RMK AO2 SLP158 T02330067 402720100 $","lat":39.0444,"lon":-84.6724,"elev":264,"name":"Cincinnati Intl, KY, US","cover":"BKN","clouds":[{"cover":"BKN","base":11000},{"cover":"BKN","base":14000}],"fltCat":"VFR"},{"icaoId":"KOKC","receiptTime":"2026-04-13T04:56:22.801Z","obsTime":1776055920,"reportTime":"2026-04-13T05:00:00.000Z","temp":20.6,"dewp":18.3,"wdir":180,"wspd":14,"wgst":24,"visib":"10+","altim":1013.3,"slp":1012.2,"qcField":4,"metarType":"METAR","rawOb":"METAR KOKC 130452Z 18014G24KT 10SM BKN013 BKN250 21/18 A2992 RMK AO2 PK WND 18029/0358 SLP122 T02060183","lat":35.3843,"lon":-97.6003,"elev":391,"name":"Oklahoma City/Will Rogers Intl, OK, US","cover":"BKN","clouds":[{"cover":"BKN","base":1300},{"cover":"BKN","base":25000}],"fltCat":"MVFR"},{"icaoId":"KABI","receiptTime":"2026-04-13T04:56:24.879Z","obsTime":1776055920,"reportTime":"2026-04-13T05:00:00.000Z","temp":21.1,"dewp":18.9,"wdir":160,"wspd":18,"wgst":25,"visib":"10+","altim":1016,"slp":1013.5,"qcField":12,"metarType":"METAR","rawOb":"METAR KABI 130452Z 16018G25KT 10SM CLR 21/19 A3000 RMK AO2 PK WND 14026/0434 SLP135 T02110189 $","lat":32.4106,"lon":-99.6821,"elev":543,"name":"Abilene Rgnl, TX, US","cover":"CLR","clouds":[],"fltCat":"VFR"},{"icaoId":"KCLT","receiptTime":"2026-04-13T04:56:23.308Z","obsTime":1776055920,"reportTime":"2026-04-13T05:00:00.000Z","temp":21.1,"dewp":11.1,"wdir":190,"wspd":10,"visib":"10+","altim":1026.2,"slp":1027,"qcField":4,"maxT24":29.4,"minT24":11.7,"metarType":"METAR","rawOb":"METAR KCLT 130452Z 19010KT 10SM BKN250 21/11 A3030 RMK AO2 SLP270 T02110111 402940117","lat":35.2225,"lon":-80.9543,"elev":223,"name":"Charlotte/Douglas Intl, NC, US","cover":"BKN","clouds":[{"cover":"BKN","base":25000}],"fltCat":"VFR"},{"icaoId":"KATL","receiptTime":"2026-04-13T04:56:23.272Z","obsTime":1776055920,"reportTime":"2026-04-13T05:00:00.000Z","temp":19.4,"dewp":5,"wdir":190,"wspd":4,"visib":"10+","altim":1025.5,"slp":1024.5,"qcField":12,"maxT24":30,"minT24":13.3,"metarType":"METAR","rawOb":"METAR KATL 130452Z 19004KT 10SM BKN250 19/05 A3028 RMK AO2 SLP245 T01940050 403000133 $","lat":33.6297,"lon":-84.4422,"elev":309,"name":"Atlanta/Hartsfield-Jackson Intl, GA, US","cover":"BKN","clouds":[{"cover":"BKN","base":25000}],"fltCat":"VFR"},{"icaoId":"KABQ","receiptTime":"2026-04-13T04:56:24.894Z","obsTime":1776055920,"reportTime":"2026-04-13T05:00:00.000Z","temp":18.3,"dewp":-8.9,"wdir":210,"wspd":8,"visib":"10+","altim":1016.7,"slp":1010.2,"qcField":12,"metarType":"METAR","rawOb":"METAR KABQ 130452Z 21008KT 10SM BKN140 18/M09 A3002 RMK AO2 SLP102 T01831089 $","lat":35.0419,"lon":-106.6154,"elev":1620,"name":"Albuquerque Intl, NM, US","cover":"BKN","clouds":[{"cover":"BKN","base":14000}],"fltCat":"VFR"},{"icaoId":"KMLF","receiptTime":"2026-04-13T04:56:25.047Z","obsTime":1776055920,"reportTime":"2026-04-13T05:00:00.000Z","temp":10,"dewp":-2.2,"wdir":210,"wspd":13,"visib":"10+","altim":1011.9,"slp":1008.2,"qcField":6,"metarType":"METAR","rawOb":"METAR KMLF 130452Z AUTO 21013KT 10SM BKN070 BKN090 BKN110 10/M02 A2988 RMK AO2 SLP082 T01001022","lat":38.4225,"lon":-113.0109,"elev":1537,"name":"Milford Muni, UT, US","cover":"BKN","clouds":[{"cover":"BKN","base":7000},{"cover":"BKN","base":9000},{"cover":"BKN","base":11000}],"fltCat":"VFR"},{"icaoId":"KELP","receiptTime":"2026-04-13T04:54:12.759Z","obsTime":1776055860,"reportTime":"2026-04-13T05:00:00.000Z","temp":22.2,"dewp":1.1,"wdir":280,"wspd":15,"wgst":20,"visib":"10+","altim":1018.4,"slp":1011.8,"qcField":4,"metarType":"METAR","rawOb":"METAR KELP 130451Z 28015G20KT 10SM FEW120 BKN250 22/01 A3007 RMK AO2 PK WND 28031/0400 SLP118 T02220011","lat":31.8123,"lon":-106.3774,"elev":1205,"name":"El Paso Intl, TX, US","cover":"BKN","clouds":[{"cover":"FEW","base":12000},{"cover":"BKN","base":25000}],"fltCat":"VFR"},{"icaoId":"KCMH","receiptTime":"2026-04-13T04:54:12.468Z","obsTime":1776055860,"reportTime":"2026-04-13T05:00:00.000Z","temp":21.1,"dewp":7.8,"wdir":170,"wspd":6,"visib":"10+","altim":1016.3,"slp":1015.8,"qcField":4,"maxT24":27.8,"minT24":9.4,"metarType":"METAR","rawOb":"METAR KCMH 130451Z 17006KT 10SM BKN150 21/08 A3001 RMK AO2 SLP158 T02110078 402780094","lat":39.9907,"lon":-82.877,"elev":257,"name":"Columbus/Glenn Intl, OH, US","cover":"BKN","clouds":[{"cover":"BKN","base":15000}],"fltCat":"VFR"},{"icaoId":"KCLE","receiptTime":"2026-04-13T04:54:12.430Z","obsTime":1776055860,"reportTime":"2026-04-13T05:00:00.000Z","temp":22.2,"dewp":8.3,"wdir":210,"wspd":14,"wgst":21,"visib":"10+","altim":1014,"slp":1015,"qcField":12,"wxString":"-RA","maxT24":26.1,"minT24":4.4,"precip":0.005,"metarType":"METAR","rawOb":"METAR KCLE 130451Z 21014G21KT 10SM -RA FEW090 SCT110 OVC140 22/08 A2994 RMK AO2 RAB51 SLP150 P0000 T02220083 402610044 $","lat":41.4057,"lon":-81.8519,"elev":237,"name":"Cleveland/Hopkins Intl, OH, US","cover":"OVC","clouds":[{"cover":"FEW","base":9000},{"cover":"SCT","base":11000},{"cover":"OVC","base":14000}],"fltCat":"VFR"},{"icaoId":"KSAN","receiptTime":"2026-04-13T04:56:27.593Z","obsTime":1776055860,"reportTime":"2026-04-13T05:00:00.000Z","temp":17.2,"dewp":13.3,"wdir":220,"wspd":3,"visib":"10+","altim":1018,"slp":1017.8,"qcField":13,"metarType":"METAR","rawOb":"METAR KSAN 130451Z COR 22003KT 10SM FEW017 BKN042 BKN250 17/13 A3006 RMK AO2 SLP178 T01720133 $","lat":32.7364,"lon":-117.1973,"elev":3,"name":"San Diego Intl Arpt, CA, US","cover":"BKN","clouds":[{"cover":"FEW","base":1700},{"cover":"BKN","base":4200},{"cover":"BKN","base":25000}],"fltCat":"VFR"},{"icaoId":"KRDU","receiptTime":"2026-04-13T04:54:10.343Z","obsTime":1776055860,"reportTime":"2026-04-13T05:00:00.000Z","temp":19.4,"dewp":15,"wdir":180,"wspd":10,"visib":"10+","altim":1026.8,"slp":1026.4,"qcField":12,"maxT24":29.4,"minT24":14.4,"metarType":"METAR","rawOb":"METAR KRDU 130451Z 18010KT 10SM FEW080 BKN250 19/15 A3032 RMK AO2 SLP264 T01940150 402940144 $","lat":35.8923,"lon":-78.782,"elev":121,"name":"Raleigh-Durham Intl, NC, US","cover":"BKN","clouds":[{"cover":"FEW","base":8000},{"cover":"BKN","base":25000}],"fltCat":"VFR"},{"icaoId":"KACT","receiptTime":"2026-04-13T04:54:11.956Z","obsTime":1776055860,"reportTime":"2026-04-13T05:00:00.000Z","temp":20.6,"dewp":18.9,"wdir":170,"wspd":21,"wgst":27,"visib":"10+","altim":1018.4,"slp":1017.5,"qcField":6,"wxString":"VCTS","precip":0.05,"metarType":"METAR","rawOb":"METAR KACT 130451Z AUTO 17021G27KT 10SM VCTS FEW032 21/19 A3007 RMK AO2 PK WND 15032/0429 LTG DSNT ALQDS RAE44 TSE42 SLP175 P0005 T02060189","lat":31.618,"lon":-97.2283,"elev":150,"name":"Waco Rgnl, TX, US","cover":"FEW","clouds":[{"cover":"FEW","base":3200}],"fltCat":"VFR"},{"icaoId":"KPVD","receiptTime":"2026-04-13T04:54:10.257Z","obsTime":1776055860,"reportTime":"2026-04-13T05:00:00.000Z","temp":6.7,"dewp":5.6,"wdir":180,"wspd":8,"visib":"10+","altim":1027.5,"slp":1027.6,"qcField":12,"maxT24":11.7,"minT24":1.7,"precip":0.005,"metarType":"METAR","rawOb":"METAR KPVD 130451Z 18008KT 10SM OVC015 07/06 A3034 RMK AO2 RAB35E47 SLP276 P0000 T00670056 401170017 $","lat":41.7225,"lon":-71.4325,"elev":15,"name":"Providence/Green Mem, RI, US","cover":"OVC","clouds":[{"cover":"OVC","base":1500}],"fltCat":"MVFR"},{"icaoId":"KSAD","receiptTime":"2026-04-13T04:54:10.412Z","obsTime":1776055860,"reportTime":"2026-04-13T05:00:00.000Z","temp":18.9,"dewp":2.8,"wdir":360,"wspd":3,"visib":"10+","altim":1017,"slp":1012.7,"qcField":6,"metarType":"METAR","rawOb":"METAR KSAD 130451Z AUTO 36003KT 10SM CLR 19/03 A3003 RMK AO2 SLP127 T01890028","lat":32.8565,"lon":-109.636,"elev":937,"name":"Safford Rgnl, AZ, US","cover":"CLR","clouds":[],"fltCat":"VFR"},{"icaoId":"KORD","receiptTime":"2026-04-13T04:54:09.986Z","obsTime":1776055860,"reportTime":"2026-04-13T05:00:00.000Z","temp":16.1,"dewp":15,"wdir":210,"wspd":10,"visib":7,"altim":1008.5,"slp":1007.9,"qcField":12,"wxString":"-RA","precip":0.03,"metarType":"METAR","rawOb":"METAR KORD 130451Z 21010KT 7SM -RA BKN019 BKN027 OVC050 16/15 A2978 RMK AO2 RAE01B21 SLP079 P0003 T01610150 $","lat":41.9602,"lon":-87.9316,"elev":202,"name":"Chicago/O'Hare Intl, IL, US","cover":"OVC","clouds":[{"cover":"BKN","base":1900},{"cover":"BKN","base":2700},{"cover":"OVC","base":5000}],"fltCat":"MVFR"},{"icaoId":"KMYL","receiptTime":"2026-04-13T04:54:09.939Z","obsTime":1776055860,"reportTime":"2026-04-13T05:00:00.000Z","temp":1.7,"dewp":-0.6,"wdir":160,"wspd":6,"visib":"10+","altim":1008.5,"slp":1009.1,"qcField":6,"metarType":"METAR","rawOb":"METAR KMYL 130451Z AUTO 16006KT 10SM BKN028 BKN032 OVC100 02/M01 A2978 RMK AO2 SLP091 T00171006","lat":44.8943,"lon":-116.0998,"elev":1532,"name":"McCall Muni, ID, US","cover":"OVC","clouds":[{"cover":"BKN","base":2800},{"cover":"BKN","base":3200},{"cover":"OVC","base":10000}],"fltCat":"MVFR"},{"icaoId":"KLGU","receiptTime":"2026-04-13T04:54:09.871Z","obsTime":1776055860,"reportTime":"2026-04-13T05:00:00.000Z","temp":3.9,"dewp":2.2,"wdir":300,"wspd":11,"visib":7,"altim":1013.3,"slp":1011.7,"qcField":6,"wxString":"-RA","precip":0.1,"metarType":"METAR","rawOb":"METAR KLGU 130451Z AUTO 30011KT 7SM -RA OVC023 04/02 A2992 RMK AO2 SLP117 P0010 T00390022","lat":41.7865,"lon":-111.8519,"elev":1359,"name":"Logan/Cache Arpt, UT, US","cover":"OVC","clouds":[{"cover":"OVC","base":2300}],"fltCat":"MVFR"},{"icaoId":"KLGA","receiptTime":"2026-04-13T04:54:09.842Z","obsTime":1776055860,"reportTime":"2026-04-13T05:00:00.000Z","temp":9.4,"dewp":4.4,"wdir":180,"wspd":7,"visib":"10+","altim":1025.8,"slp":1025.8,"qcField":12,"maxT24":12.2,"minT24":6.7,"metarType":"METAR","rawOb":"METAR KLGA 130451Z 18007KT 10SM FEW150 SCT250 09/04 A3029 RMK AO2 SLP258 T00940044 401220067 $","lat":40.7794,"lon":-73.8803,"elev":9,"name":"New York/La Guardia Arpt, NY, US","cover":"SCT","clouds":[{"cover":"FEW","base":15000},{"cover":"SCT","base":25000}],"fltCat":"VFR"},{"icaoId":"KVNY","receiptTime":"2026-04-13T04:54:10.932Z","obsTime":1776055860,"reportTime":"2026-04-13T05:00:00.000Z","temp":13.3,"dewp":6.7,"wdir":260,"wspd":3,"visib":"10+","altim":1017,"slp":1016.4,"qcField":12,"metarType":"METAR","rawOb":"METAR KVNY 130451Z 26003KT 10SM SCT055 13/07 A3003 RMK AO2 SLP164 T01330067 $","lat":34.2121,"lon":-118.4915,"elev":241,"name":"Van Nuys Arpt, CA, US","cover":"SCT","clouds":[{"cover":"SCT","base":5500}],"fltCat":"VFR"},{"icaoId":"KPHX","receiptTime":"2026-04-13T04:54:10.126Z","obsTime":1776055860,"reportTime":"2026-04-13T05:00:00.000Z","temp":22.8,"dewp":3.9,"wdir":290,"wspd":15,"visib":"10+","altim":1014.3,"slp":1012.7,"qcField":12,"metarType":"METAR","rawOb":"METAR KPHX 130451Z 29015KT 10SM FEW160 SCT210 BKN250 23/04 A2995 RMK AO2 SLP127 T02280039 $","lat":33.4278,"lon":-112.0037,"elev":338,"name":"Phoenix/Sky Harbor Intl, AZ, US","cover":"BKN","clouds":[{"cover":"FEW","base":16000},{"cover":"SCT","base":21000},{"cover":"BKN","base":25000}],"fltCat":"VFR"},{"icaoId":"KSAT","receiptTime":"2026-04-13T04:54:11.377Z","obsTime":1776055860,"reportTime":"2026-04-13T05:00:00.000Z","temp":22.8,"dewp":20.6,"wdir":140,"wspd":13,"visib":"10+","altim":1019,"slp":1017.1,"qcField":12,"metarType":"METAR","rawOb":"METAR KSAT 130451Z 14013KT 10SM OVC013 23/21 A3009 RMK AO2 SLP171 T02280206 $","lat":29.5443,"lon":-98.4839,"elev":246,"name":"San Antonio Intl, TX, US","cover":"OVC","clouds":[{"cover":"OVC","base":1300}],"fltCat":"MVFR"},{"icaoId":"KBDL","receiptTime":"2026-04-13T04:54:12.168Z","obsTime":1776055860,"reportTime":"2026-04-13T05:00:00.000Z","temp":7.2,"dewp":3.9,"wdir":170,"wspd":8,"visib":"10+","altim":1026.2,"slp":1026,"qcField":4,"maxT24":15,"minT24":-0.6,"metarType":"METAR","rawOb":"METAR KBDL 130451Z 17008KT 10SM BKN110 BKN140 07/04 A3030 RMK AO2 SLP260 T00720039 401501006","lat":41.9374,"lon":-72.682,"elev":52,"name":"Hartford/Bradley Intl, CT, US","cover":"BKN","clouds":[{"cover":"BKN","base":11000},{"cover":"BKN","base":14000}],"fltCat":"VFR"},{"icaoId":"KCRP","receiptTime":"2026-04-13T04:54:12.562Z","obsTime":1776055860,"reportTime":"2026-04-13T05:00:00.000Z","temp":24.4,"dewp":22.2,"wdir":150,"wspd":18,"wgst":26,"visib":"10+","altim":1018.4,"slp":1018,"qcField":4,"metarType":"METAR","rawOb":"METAR KCRP 130451Z 15018G26KT 10SM FEW012 BKN015 OVC022 24/22 A3007 RMK AO2 PK WND 15026/0425 SLP180 T02440222","lat":27.7734,"lon":-97.513,"elev":11,"name":"Corpus Christi Intl, TX, US","cover":"OVC","clouds":[{"cover":"FEW","base":1200},{"cover":"BKN","base":1500},{"cover":"OVC","base":2200}],"fltCat":"MVFR"},{"icaoId":"KROW","receiptTime":"2026-04-13T04:54:10.370Z","obsTime":1776055860,"reportTime":"2026-04-13T05:00:00.000Z","temp":18.3,"dewp":-2.8,"wdir":210,"wspd":9,"visib":"10+","altim":1015,"slp":1009.2,"qcField":14,"metarType":"METAR","rawOb":"METAR KROW 130451Z AUTO 21009KT 10SM CLR 18/M03 A2997 RMK AO2 SLP092 T01831028 $","lat":33.3074,"lon":-104.5082,"elev":1105,"name":"Roswell/Ind Arpt, NM, US","cover":"CLR","clouds":[],"fltCat":"VFR"},{"icaoId":"KEWR","receiptTime":"2026-04-13T04:54:12.833Z","obsTime":1776055860,"reportTime":"2026-04-13T05:00:00.000Z","temp":8.9,"dewp":3.9,"wdir":"VRB","wspd":3,"visib":"10+","altim":1026.2,"slp":1025.9,"qcField":4,"maxT24":11.7,"minT24":3.9,"metarType":"METAR","rawOb":"METAR KEWR 130451Z VRB03KT 10SM FEW120 SCT150 BKN250 09/04 A3030 RMK AO2 SLP259 T00890039 401170039","lat":40.6828,"lon":-74.1692,"elev":2,"name":"Newark Intl, NJ, US","cover":"BKN","clouds":[{"cover":"FEW","base":12000},{"cover":"SCT","base":15000},{"cover":"BKN","base":25000}],"fltCat":"VFR"},{"icaoId":"KOXR","receiptTime":"2026-04-13T04:54:10.087Z","obsTime":1776055860,"reportTime":"2026-04-13T05:00:00.000Z","temp":14.4,"dewp":9.4,"wdir":270,"wspd":10,"visib":"10+","altim":1017,"slp":1016.8,"qcField":6,"metarType":"METAR","rawOb":"METAR KOXR 130451Z AUTO 27010KT 10SM CLR 14/09 A3003 RMK AO2 SLP168 T01440094","lat":34.2001,"lon":-119.2042,"elev":12,"name":"Oxnard Arpt, CA, US","cover":"CLR","clouds":[],"fltCat":"VFR"},{"icaoId":"KORF","receiptTime":"2026-04-13T04:54:10.042Z","obsTime":1776055860,"reportTime":"2026-04-13T05:00:00.000Z","temp":16.1,"dewp":13.3,"wdir":190,"wspd":12,"wgst":22,"visib":"10+","altim":1026.8,"slp":1026.6,"qcField":4,"maxT24":20,"minT24":10,"metarType":"METAR","rawOb":"METAR KORF 130451Z 19012G22KT 10SM CLR 16/13 A3032 RMK AO2 SLP266 T01610133 402000100","lat":36.9037,"lon":-76.1927,"elev":5,"name":"Norfolk Intl, VA, US","cover":"CLR","clouds":[],"fltCat":"VFR"},{"icaoId":"KJFK","receiptTime":"2026-04-13T04:54:09.812Z","obsTime":1776055860,"reportTime":"2026-04-13T05:00:00.000Z","temp":7.8,"dewp":5.6,"wdir":190,"wspd":5,"visib":"10+","altim":1026.8,"slp":1026.6,"qcField":12,"maxT24":11.1,"minT24":5,"metarType":"METAR","rawOb":"METAR KJFK 130451Z 19005KT 10SM FEW140 SCT170 SCT250 08/06 A3032 RMK AO2 SLP266 T00780056 401110050 $","lat":40.6392,"lon":-73.7639,"elev":3,"name":"New York/JF Kennedy Intl, NY, US","cover":"SCT","clouds":[{"cover":"FEW","base":14000},{"cover":"SCT","base":17000},{"cover":"SCT","base":25000}],"fltCat":"VFR"},{"icaoId":"KPIT","receiptTime":"2026-04-13T04:54:11.876Z","obsTime":1776055860,"reportTime":"2026-04-13T05:00:00.000Z","temp":21.1,"dewp":7.2,"wdir":180,"wspd":5,"visib":"10+","altim":1017.4,"slp":1017.1,"qcField":12,"maxT24":26.1,"minT24":5.6,"metarType":"METAR","rawOb":"METAR KPIT 130451Z 18005KT 10SM FEW150 BKN240 21/07 A3004 RMK AO2 SLP171 T02110072 402610056 $","lat":40.4814,"lon":-80.2083,"elev":339,"name":"Pittsburgh Intl, PA, US","cover":"BKN","clouds":[{"cover":"FEW","base":15000},{"cover":"BKN","base":24000}],"fltCat":"VFR"},{"icaoId":"KSTL","receiptTime":"2026-04-13T04:54:10.768Z","obsTime":1776055860,"reportTime":"2026-04-13T05:00:00.000Z","temp":21.1,"dewp":15.6,"wdir":200,"wspd":9,"visib":"10+","altim":1014.6,"slp":1013.3,"qcField":12,"metarType":"METAR","rawOb":"METAR KSTL 130451Z 20009KT 10SM FEW040 OVC250 21/16 A2996 RMK AO2 SLP133 T02110156 $","lat":38.7525,"lon":-90.3734,"elev":163,"name":"St Louis/Lambert Intl, MO, US","cover":"OVC","clouds":[{"cover":"FEW","base":4000},{"cover":"OVC","base":25000}],"fltCat":"VFR"},{"icaoId":"KIGM","receiptTime":"2026-04-13T04:54:09.701Z","obsTime":1776055860,"reportTime":"2026-04-13T05:00:00.000Z","temp":15,"dewp":1.1,"wdir":190,"wspd":12,"visib":"10+","altim":1014.6,"slp":1009.3,"qcField":6,"metarType":"METAR","rawOb":"METAR KIGM 130451Z AUTO 19012KT 10SM FEW060 SCT080 15/01 A2996 RMK AO2 SLP093 T01500011","lat":35.2575,"lon":-113.9341,"elev":1045,"name":"Kingman Arpt, AZ, US","cover":"SCT","clouds":[{"cover":"FEW","base":6000},{"cover":"SCT","base":8000}],"fltCat":"VFR"},{"icaoId":"KPWT","receiptTime":"2026-04-13T04:48:14.267Z","obsTime":1776055500,"reportTime":"2026-04-13T04:45:00.000Z","temp":9,"dewp":8,"wdir":190,"wspd":7,"visib":"10+","altim":1010.2,"qcField":6,"precip":0.005,"metarType":"SPECI","rawOb":"SPECI KPWT 130445Z AUTO 19007KT 10SM SCT013 SCT031 09/08 A2983 RMK AO2 RAE19 P0000","lat":47.4942,"lon":-122.7594,"elev":143,"name":"Bremerton Arpt, WA, US","cover":"SCT","clouds":[{"cover":"SCT","base":1300},{"cover":"SCT","base":3100}],"fltCat":"VFR"},{"icaoId":"KHCR","receiptTime":"2026-04-13T04:38:16.032Z","obsTime":1776054900,"reportTime":"2026-04-13T04:35:00.000Z","temp":8.4,"dewp":-1.5,"wdir":180,"wspd":5,"visib":9,"altim":1011.3,"qcField":14,"wxString":"-RA","precip":0.005,"metarType":"METAR","rawOb":"METAR KHCR 130435Z AUTO 18005KT 9SM -RA BKN040 BKN047 OVC055 08/M02 A2986 RMK AO2 RAE0400B0421 P0000 T00841015 $","lat":40.4774,"lon":-111.4329,"elev":1708,"name":"Heber City Muni, UT, US","cover":"OVC","clouds":[{"cover":"BKN","base":4000},{"cover":"BKN","base":4700},{"cover":"OVC","base":5500}],"fltCat":"VFR"},{"icaoId":"KHOB","receiptTime":"2026-04-13T04:38:16.098Z","obsTime":1776054900,"reportTime":"2026-04-13T04:35:00.000Z","temp":16,"dewp":-6,"wdir":210,"wspd":9,"visib":"10+","altim":1016.7,"qcField":6,"metarType":"METAR","rawOb":"METAR KHOB 130435Z AUTO 21009KT 10SM FEW055 BKN070 BKN080 16/M06 A3002 RMK AO2","lat":32.6797,"lon":-103.2222,"elev":1112,"name":"Hobbs Arpt, NM, US","cover":"BKN","clouds":[{"cover":"FEW","base":5500},{"cover":"BKN","base":7000},{"cover":"BKN","base":8000}],"fltCat":"VFR"},{"icaoId":"KCXP","receiptTime":"2026-04-13T04:40:30.792Z","obsTime":1776054900,"reportTime":"2026-04-13T04:35:00.000Z","temp":2,"dewp":1,"wdir":210,"wspd":3,"visib":8,"altim":1015.3,"qcField":6,"wxString":"-SN","metarType":"METAR","rawOb":"METAR KCXP 130435Z AUTO 21003KT 8SM -SN BKN005 BKN009 OVC031 02/01 A2998 RMK AO2","lat":39.1905,"lon":-119.7319,"elev":1431,"name":"Carson City Arpt, NV, US","cover":"OVC","clouds":[{"cover":"BKN","base":500},{"cover":"BKN","base":900},{"cover":"OVC","base":3100}],"fltCat":"IFR"},{"icaoId":"KADM","receiptTime":"2026-04-13T04:42:07.637Z","obsTime":1776054900,"reportTime":"2026-04-13T04:35:00.000Z","temp":21,"dewp":20,"wdir":180,"wspd":11,"wgst":16,"visib":"10+","altim":1015.3,"qcField":6,"metarType":"METAR","rawOb":"METAR KADM 130435Z AUTO 18011G16KT 10SM OVC018 21/20 A2998 RMK AO2","lat":34.3007,"lon":-97.0089,"elev":223,"name":"Ardmore Muni, OK, US","cover":"OVC","clouds":[{"cover":"OVC","base":1800}],"fltCat":"MVFR"},{"icaoId":"KAEG","receiptTime":"2026-04-13T04:42:07.687Z","obsTime":1776054900,"reportTime":"2026-04-13T04:35:00.000Z","temp":15,"dewp":-7.6,"wdir":240,"wspd":10,"visib":"10+","altim":1017.7,"qcField":6,"metarType":"METAR","rawOb":"METAR KAEG 130435Z AUTO 24010KT 10SM CLR 15/M08 A3005 RMK AO2 T01501076","lat":35.15,"lon":-106.7929,"elev":1771,"name":"Albuquerque/Double Eagle Arpt, NM, US","cover":"CLR","clouds":[],"fltCat":"VFR"},{"icaoId":"KIFP","receiptTime":"2026-04-13T04:40:24.599Z","obsTime":1776054900,"reportTime":"2026-04-13T04:35:00.000Z","temp":23,"dewp":3,"wdir":190,"wspd":15,"wgst":21,"visib":"10+","altim":1010.6,"qcField":6,"metarType":"METAR","rawOb":"METAR KIFP 130435Z AUTO 19015G21KT 10SM OVC090 23/03 A2984 RMK AO2","lat":35.1487,"lon":-114.5611,"elev":210,"name":"Bullhead City Intl, AZ, US","cover":"OVC","clouds":[{"cover":"OVC","base":9000}],"fltCat":"VFR"},{"icaoId":"KSEZ","receiptTime":"2026-04-13T04:40:28.590Z","obsTime":1776054900,"reportTime":"2026-04-13T04:35:00.000Z","temp":13,"dewp":-4,"wdir":190,"wspd":12,"wgst":20,"visib":"10+","altim":1017.4,"qcField":6,"metarType":"METAR","rawOb":"METAR KSEZ 130435Z AUTO 19012G20KT 150V220 10SM CLR 13/M04 A3004 RMK AO2","lat":34.8467,"lon":-111.7884,"elev":1455,"name":"Sedona Arpt, AZ, US","cover":"CLR","clouds":[],"fltCat":"VFR"},{"icaoId":"KBJC","receiptTime":"2026-04-13T04:40:30.174Z","obsTime":1776054900,"reportTime":"2026-04-13T04:35:00.000Z","temp":15,"dewp":-12,"wdir":260,"wspd":5,"visib":"10+","altim":1009.9,"qcField":6,"metarType":"METAR","rawOb":"METAR KBJC 130435Z AUTO 26005KT 10SM CLR 15/M12 A2982 RMK AO2","lat":39.9008,"lon":-105.1042,"elev":1694,"name":"Rocky Mtn Metro, CO, US","cover":"CLR","clouds":[],"fltCat":"VFR"},{"icaoId":"KHII","receiptTime":"2026-04-13T04:42:11.721Z","obsTime":1776054900,"reportTime":"2026-04-13T04:35:00.000Z","temp":22,"dewp":6,"wdir":200,"wspd":12,"wgst":18,"visib":"10+","altim":1012.3,"qcField":6,"metarType":"METAR","rawOb":"METAR KHII 130435Z AUTO 20012G18KT 10SM CLR 22/06 A2989 RMK AO2","lat":34.5659,"lon":-114.3522,"elev":241,"name":"Lake Havasu City Arpt, AZ, US","cover":"CLR","clouds":[],"fltCat":"VFR"},{"icaoId":"KMHR","receiptTime":"2026-04-13T04:40:22.544Z","obsTime":1776054900,"reportTime":"2026-04-13T04:35:00.000Z","temp":11,"dewp":11,"wdir":130,"wspd":8,"visib":"10+","altim":1015.7,"qcField":6,"metarType":"METAR","rawOb":"METAR KMHR 130435Z AUTO 13008KT 10SM FEW055 SCT080 OVC110 11/11 A2999 RMK AO2","lat":38.56,"lon":-121.284,"elev":30,"name":"Sacramento/Mather Fld, CA, US","cover":"OVC","clouds":[{"cover":"FEW","base":5500},{"cover":"SCT","base":8000},{"cover":"OVC","base":11000}],"fltCat":"VFR"},{"icaoId":"KHTH","receiptTime":"2026-04-13T04:40:24.397Z","obsTime":1776054900,"reportTime":"2026-04-13T04:35:00.000Z","temp":8,"dewp":-7,"wdir":220,"wspd":8,"visib":"10+","altim":1013.3,"qcField":6,"metarType":"METAR","rawOb":"METAR KHTH 130435Z AUTO 22008KT 10SM FEW070 BKN110 08/M07 A2992 RMK A01","lat":38.5448,"lon":-118.6314,"elev":1281,"name":"Hawthorne Muni, NV, US","cover":"BKN","clouds":[{"cover":"FEW","base":7000},{"cover":"BKN","base":11000}],"fltCat":"VFR"},{"icaoId":"KHAF","receiptTime":"2026-04-13T04:38:15.973Z","obsTime":1776054900,"reportTime":"2026-04-13T04:35:00.000Z","temp":11,"dewp":11,"wdir":280,"wspd":5,"wgst":11,"visib":2.5,"altim":1017,"qcField":6,"wxString":"BR","metarType":"METAR","rawOb":"METAR KHAF 130435Z AUTO 28005G11KT 2 1/2SM BR SCT022 BKN033 OVC055 11/11 A3003 RMK AO2","lat":37.5136,"lon":-122.4996,"elev":11,"name":"Half Moon Bay Arpt, CA, US","cover":"OVC","clouds":[{"cover":"SCT","base":2200},{"cover":"BKN","base":3300},{"cover":"OVC","base":5500}],"fltCat":"IFR"},{"icaoId":"KCHD","receiptTime":"2026-04-13T04:38:14.878Z","obsTime":1776054900,"reportTime":"2026-04-13T04:35:00.000Z","temp":22.3,"dewp":4.8,"wdir":200,"wspd":8,"visib":"10+","altim":1015,"qcField":14,"metarType":"METAR","rawOb":"METAR KCHD 130435Z AUTO 20008KT 10SM CLR 22/05 A2997 RMK AO2 T02230048 $","lat":33.2669,"lon":-111.8086,"elev":378,"name":"Chandler Muni, AZ, US","cover":"CLR","clouds":[],"fltCat":"VFR"},{"icaoId":"KRTS","receiptTime":"2026-04-13T04:40:27.962Z","obsTime":1776054900,"reportTime":"2026-04-13T04:35:00.000Z","temp":0,"dewp":-4,"wdir":360,"wspd":4,"visib":"10+","altim":1014,"qcField":6,"metarType":"METAR","rawOb":"METAR KRTS 130435Z AUTO 36004KT 10SM SCT047 00/M04 A2994 RMK AO2","lat":39.6658,"lon":-119.8731,"elev":1537,"name":"Reno/Stead Arpt, NV, US","cover":"SCT","clouds":[{"cover":"SCT","base":4700}],"fltCat":"VFR"},{"icaoId":"KTPH","receiptTime":"2026-04-13T04:34:03.843Z","obsTime":1776054600,"reportTime":"2026-04-13T04:30:00.000Z","temp":7.2,"dewp":-9.4,"wdir":320,"wspd":16,"wgst":26,"visib":"10+","altim":1012.3,"qcField":6,"metarType":"SPECI","rawOb":"SPECI KTPH 130430Z AUTO 32016G26KT 10SM CLR 07/M09 A2989 RMK AO2 PK WND 36029/0406 WSHFT 0410 T00721094","lat":38.0505,"lon":-117.0906,"elev":1647,"name":"Tonopah Arpt, NV, US","cover":"CLR","clouds":[],"fltCat":"VFR"},{"icaoId":"KCEC","receiptTime":"2026-04-13T04:28:02.913Z","obsTime":1776054240,"reportTime":"2026-04-13T04:24:00.000Z","temp":9.4,"dewp":7.8,"wdir":0,"wspd":0,"visib":"10+","altim":1016.3,"qcField":6,"metarType":"SPECI","rawOb":"SPECI KCEC 130424Z AUTO 00000KT 10SM BKN019 09/08 A3001 RMK AO2 T00940078","lat":41.7836,"lon":-124.238,"elev":17,"name":"Crescent City/McNama, CA, US","cover":"BKN","clouds":[{"cover":"BKN","base":1900}],"fltCat":"MVFR"},{"icaoId":"KSBP","receiptTime":"2026-04-13T04:20:24.362Z","obsTime":1776053760,"reportTime":"2026-04-13T04:16:00.000Z","temp":11.7,"dewp":7.8,"wdir":0,"wspd":0,"visib":"10+","altim":1017.4,"qcField":6,"metarType":"SPECI","rawOb":"SPECI KSBP 130416Z AUTO 00000KT 10SM SCT026 12/08 A3004 RMK AO2 T01170078","lat":35.2381,"lon":-120.644,"elev":52,"name":"San Luis Obispo/San Luis Cnty, CA, US","cover":"SCT","clouds":[{"cover":"SCT","base":2600}],"fltCat":"VFR"},{"icaoId":"KJAC","receiptTime":"2026-04-13T04:14:27.549Z","obsTime":1776053520,"reportTime":"2026-04-13T04:12:00.000Z","temp":3,"dewp":1,"wdir":"VRB","wspd":3,"visib":"10+","altim":1010.6,"qcField":6,"wxString":"-RA","precip":0.01,"metarType":"SPECI","rawOb":"SPECI KJAC 130412Z AUTO VRB03KT 10SM -RA BKN014 OVC023 03/01 A2984 RMK AO2 P0001","lat":43.6129,"lon":-110.7366,"elev":1967,"name":"Jackson Hole Arpt, WY, US","cover":"OVC","clouds":[{"cover":"BKN","base":1400},{"cover":"OVC","base":2300}],"fltCat":"MVFR"},{"icaoId":"KLWS","receiptTime":"2026-04-13T04:12:06.331Z","obsTime":1776053340,"reportTime":"2026-04-13T04:09:00.000Z","temp":10,"dewp":9.4,"wdir":250,"wspd":4,"visib":7,"altim":1005.5,"qcField":4,"wxString":"-RA","precip":0.02,"metarType":"SPECI","rawOb":"SPECI KLWS 130409Z 25004KT 7SM -RA FEW008 BKN017 OVC023 10/09 A2969 RMK AO2 P0002 T01000094","lat":46.3746,"lon":-117.0153,"elev":435,"name":"Lewiston/Nez Perce Cnty, ID, US","cover":"OVC","clouds":[{"cover":"FEW","base":800},{"cover":"BKN","base":1700},{"cover":"OVC","base":2300}],"fltCat":"MVFR"},{"icaoId":"KMEV","receiptTime":"2026-04-13T04:40:22.496Z","obsTime":1776053100,"reportTime":"2026-04-13T04:05:00.000Z","temp":1,"dewp":0,"wdir":0,"wspd":0,"visib":8,"altim":1014.6,"qcField":6,"wxString":"-SN","metarType":"METAR","rawOb":"METAR KMEV 130405Z AUTO 00000KT 8SM -SN SCT006 SCT009 OVC024 01/00 A2996 RMK AO2","lat":38.9963,"lon":-119.75,"elev":1437,"name":"Minden-Tahoe Arpt, NV, US","cover":"OVC","clouds":[{"cover":"SCT","base":600},{"cover":"SCT","base":900},{"cover":"OVC","base":2400}],"fltCat":"MVFR"},{"icaoId":"KNFL","receiptTime":"2026-04-13T04:00:21.732Z","obsTime":1776052620,"reportTime":"2026-04-13T04:00:00.000Z","temp":7.2,"dewp":-2.8,"wdir":300,"wspd":9,"visib":"10+","altim":1012.6,"slp":1010,"qcField":14,"metarType":"METAR","rawOb":"METAR KNFL 130357Z AUTO 30009KT 10SM BKN080 OVC090 07/M03 A2990 RMK AO2 SLP100 T00721028 PNO $","lat":39.417,"lon":-118.705,"elev":1199,"name":"Fallon , NV, US","cover":"OVC","clouds":[{"cover":"BKN","base":8000},{"cover":"OVC","base":9000}],"fltCat":"VFR"},{"icaoId":"KFLG","receiptTime":"2026-04-13T04:00:28.447Z","obsTime":1776052620,"reportTime":"2026-04-13T04:00:00.000Z","temp":7.8,"dewp":-5,"wdir":220,"wspd":16,"wgst":30,"visib":"10+","altim":1017.4,"slp":1011.1,"qcField":14,"metarType":"METAR","rawOb":"METAR KFLG 130357Z AUTO 22016G30KT 10SM CLR 08/M05 A3004 RMK AO2 PK WND 23035/0334 SLP111 T00781050 $","lat":35.1443,"lon":-111.6664,"elev":2134,"name":"Flagstaff/Pulliam Arpt, AZ, US","cover":"CLR","clouds":[],"fltCat":"VFR"},{"icaoId":"KNYL","receiptTime":"2026-04-13T04:00:23.581Z","obsTime":1776052620,"reportTime":"2026-04-13T04:00:00.000Z","temp":22.2,"dewp":6.7,"wdir":290,"wspd":10,"visib":"10+","altim":1014,"slp":1013.7,"qcField":6,"metarType":"METAR","rawOb":"METAR KNYL 130357Z AUTO 29010KT 10SM CLR 22/07 A2994 RMK AO2 SLP137 T02220067","lat":32.66,"lon":-114.6078,"elev":58,"name":"Yuma , AZ, US","cover":"CLR","clouds":[],"fltCat":"VFR"},{"icaoId":"KPVU","receiptTime":"2026-04-13T03:58:22.842Z","obsTime":1776052560,"reportTime":"2026-04-13T04:00:00.000Z","temp":11.7,"dewp":0,"wdir":330,"wspd":6,"visib":"10+","altim":1010.2,"slp":1007.5,"qcField":6,"metarType":"METAR","rawOb":"METAR KPVU 130356Z AUTO 33006KT 10SM OVC095 12/00 A2983 RMK AO2 SLP075 T01170000","lat":40.224,"lon":-111.7252,"elev":1370,"name":"Provo Muni, UT, US","cover":"OVC","clouds":[{"cover":"OVC","base":9500}],"fltCat":"VFR"},{"icaoId":"KENV","receiptTime":"2026-04-13T03:58:29.883Z","obsTime":1776052560,"reportTime":"2026-04-13T04:00:00.000Z","temp":8.3,"dewp":-0.6,"wdir":70,"wspd":13,"visib":"10+","altim":1012.6,"slp":1011.1,"qcField":6,"metarType":"METAR","rawOb":"METAR KENV 130356Z AUTO 07013KT 10SM FEW055 BKN070 OVC120 08/M01 A2990 RMK AO2 SLP111 T00831006","lat":40.7211,"lon":-114.0312,"elev":1291,"name":"Wendover Arpt, UT, US","cover":"OVC","clouds":[{"cover":"FEW","base":5500},{"cover":"BKN","base":7000},{"cover":"OVC","base":12000}],"fltCat":"VFR"},{"icaoId":"KGUC","receiptTime":"2026-04-13T03:58:30.480Z","obsTime":1776052560,"reportTime":"2026-04-13T04:00:00.000Z","temp":10,"dewp":-6.1,"wdir":190,"wspd":8,"visib":"10+","altim":1016.3,"slp":1010.7,"qcField":14,"metarType":"METAR","rawOb":"METAR KGUC 130356Z AUTO 19008KT 10SM FEW100 10/M06 A3001 RMK AO2 SLP107 T01001061 $","lat":38.5322,"lon":-106.9419,"elev":2337,"name":"Gunnison Arpt, CO, US","cover":"FEW","clouds":[{"cover":"FEW","base":10000}],"fltCat":"VFR"},{"icaoId":"KHDN","receiptTime":"2026-04-13T03:58:30.605Z","obsTime":1776052560,"reportTime":"2026-04-13T04:00:00.000Z","temp":9.4,"dewp":-3.9,"wdir":150,"wspd":4,"visib":"10+","altim":1012.3,"slp":1008,"qcField":6,"metarType":"METAR","rawOb":"METAR KHDN 130356Z AUTO 15004KT 10SM FEW080 09/M04 A2989 RMK AO2 PK WND 21030/0309 SLP080 T00941039","lat":40.4842,"lon":-107.2296,"elev":2012,"name":"Hayden/Yampa Valley Arpt, CO, US","cover":"FEW","clouds":[{"cover":"FEW","base":8000}],"fltCat":"VFR"},{"icaoId":"KHND","receiptTime":"2026-04-13T03:58:30.720Z","obsTime":1776052560,"reportTime":"2026-04-13T04:00:00.000Z","temp":16.7,"dewp":0,"wdir":200,"wspd":11,"visib":"10+","altim":1012.6,"slp":1013,"qcField":12,"metarType":"METAR","rawOb":"METAR KHND 130356Z 20011KT 10SM CLR 17/00 A2990 RMK AO2 SLP130 T01670000 $","lat":35.9657,"lon":-115.1343,"elev":740,"name":"Henderson Exec, NV, US","cover":"CLR","clouds":[],"fltCat":"VFR"},{"icaoId":"KCOD","receiptTime":"2026-04-13T03:58:21.032Z","obsTime":1776052560,"reportTime":"2026-04-13T04:00:00.000Z","temp":8.3,"dewp":-1.7,"wdir":240,"wspd":7,"visib":"10+","altim":1008.9,"slp":1006.6,"qcField":14,"metarType":"METAR","rawOb":"METAR KCOD 130356Z AUTO 24007KT 10SM CLR 08/M02 A2979 RMK AO2 SLP066 T00831017 $","lat":44.52,"lon":-109.0268,"elev":1550,"name":"Cody/Yellowstone Rgnl, WY, US","cover":"CLR","clouds":[],"fltCat":"VFR"},{"icaoId":"KSLE","receiptTime":"2026-04-13T04:00:08.561Z","obsTime":1776052560,"reportTime":"2026-04-13T04:00:00.000Z","temp":10,"dewp":7.8,"wdir":290,"wspd":5,"visib":"10+","altim":1012.3,"slp":1012.1,"qcField":6,"metarType":"METAR","rawOb":"METAR KSLE 130356Z AUTO 29005KT 10SM OVC026 10/08 A2989 RMK AO2 SLP121 T01000078","lat":44.9049,"lon":-123.001,"elev":63,"name":"Salem Muni, OR, US","cover":"OVC","clouds":[{"cover":"OVC","base":2600}],"fltCat":"MVFR"},{"icaoId":"KCOE","receiptTime":"2026-04-13T03:58:24.510Z","obsTime":1776052560,"reportTime":"2026-04-13T04:00:00.000Z","temp":11.7,"dewp":7.2,"wdir":220,"wspd":5,"visib":"10+","altim":1004.5,"slp":1006.1,"qcField":14,"metarType":"METAR","rawOb":"METAR KCOE 130356Z AUTO 22005KT 10SM OVC060 12/07 A2966 RMK AO2 SLP061 T01170072 PNO $","lat":47.7719,"lon":-116.8332,"elev":693,"name":"Coeur DAlene Arpt, ID, US","cover":"OVC","clouds":[{"cover":"OVC","base":6000}],"fltCat":"VFR"},{"icaoId":"KEGE","receiptTime":"2026-04-13T03:58:29.752Z","obsTime":1776052560,"reportTime":"2026-04-13T04:00:00.000Z","temp":10.6,"dewp":-5.6,"wdir":"VRB","wspd":3,"visib":"10+","altim":1013.6,"slp":1008.7,"qcField":6,"metarType":"METAR","rawOb":"METAR KEGE 130356Z AUTO VRB03KT 10SM CLR 11/M06 A2993 RMK AO2 SLP087 T01061056","lat":39.6448,"lon":-106.9176,"elev":1993,"name":"Eagle Cnty Rgnl, CO, US","cover":"CLR","clouds":[],"fltCat":"VFR"},{"icaoId":"KINW","receiptTime":"2026-04-13T04:00:20.788Z","obsTime":1776052560,"reportTime":"2026-04-13T04:00:00.000Z","temp":13.9,"dewp":-1.7,"wdir":220,"wspd":12,"visib":"10+","altim":1016,"slp":1011.1,"qcField":6,"metarType":"METAR","rawOb":"METAR KINW 130356Z AUTO 22012KT 10SM CLR 14/M02 A3000 RMK AO2 PK WND 22027/0258 SLP111 T01391017","lat":35.0279,"lon":-110.7221,"elev":1492,"name":"Winslow/Lindberg Rgnl, AZ, US","cover":"CLR","clouds":[],"fltCat":"VFR"},{"icaoId":"KSDF","receiptTime":"2026-04-13T04:00:19.348Z","obsTime":1776052560,"reportTime":"2026-04-13T04:00:00.000Z","temp":25,"dewp":6.7,"wdir":190,"wspd":13,"wgst":21,"visib":"10+","altim":1017.4,"slp":1016.7,"qcField":4,"metarType":"METAR","rawOb":"METAR KSDF 130356Z 19013G21KT 10SM OVC110 25/07 A3004 RMK AO2 SLP167 T02500067","lat":38.1774,"lon":-85.7308,"elev":146,"name":"Louisville Intl, KY, US","cover":"OVC","clouds":[{"cover":"OVC","base":11000}],"fltCat":"VFR"},{"icaoId":"KVIS","receiptTime":"2026-04-13T03:58:26.287Z","obsTime":1776052560,"reportTime":"2026-04-13T04:00:00.000Z","temp":13.9,"dewp":10,"wdir":280,"wspd":4,"visib":"10+","altim":1016.3,"slp":1016.2,"qcField":14,"metarType":"METAR","rawOb":"METAR KVIS 130356Z AUTO 28004KT 10SM BKN055 OVC085 14/10 A3001 RMK AO2 SLP162 T01390100 PNO $","lat":36.3135,"lon":-119.3884,"elev":92,"name":"Visalia Muni, CA, US","cover":"OVC","clouds":[{"cover":"BKN","base":5500},{"cover":"OVC","base":8500}],"fltCat":"VFR"},{"icaoId":"KDUG","receiptTime":"2026-04-13T04:02:23.529Z","obsTime":1776052560,"reportTime":"2026-04-13T04:00:00.000Z","temp":19.4,"dewp":0,"wdir":230,"wspd":13,"visib":"10+","altim":1019.4,"slp":1013.7,"qcField":38,"metarType":"METAR","rawOb":"METAR KDUG 130356Z AUTO 23013KT 10SM CLR 19/00 A3010 RMK AO2 SLP137 T01940000 TSNO","lat":31.4725,"lon":-109.6022,"elev":1260,"name":"Douglas/Bisbee Intl, AZ, US","cover":"CLR","clouds":[],"fltCat":"VFR"},{"icaoId":"KUKI","receiptTime":"2026-04-13T04:00:08.596Z","obsTime":1776052560,"reportTime":"2026-04-13T04:00:00.000Z","temp":8.9,"dewp":5.6,"wdir":0,"wspd":0,"visib":"10+","altim":1015,"slp":1014.8,"qcField":6,"metarType":"METAR","rawOb":"METAR KUKI 130356Z AUTO 00000KT 10SM FEW060 09/06 A2997 RMK AO2 SLP148 T00890056","lat":39.1278,"lon":-123.2001,"elev":183,"name":"Ukiah Muni, CA, US","cover":"FEW","clouds":[{"cover":"FEW","base":6000}],"fltCat":"VFR"},{"icaoId":"KEKO","receiptTime":"2026-04-13T04:00:08.445Z","obsTime":1776052560,"reportTime":"2026-04-13T04:00:00.000Z","temp":3.9,"dewp":-2.2,"wdir":240,"wspd":3,"visib":"10+","altim":1011.9,"slp":1012.4,"qcField":6,"metarType":"METAR","rawOb":"METAR KEKO 130356Z AUTO 24003KT 10SM CLR 04/M02 A2988 RMK AO2 SLP124 T00391022","lat":40.824,"lon":-115.7863,"elev":1541,"name":"Elko Rgnl, NV, US","cover":"CLR","clouds":[],"fltCat":"VFR"},{"icaoId":"KLAS","receiptTime":"2026-04-13T04:00:08.464Z","obsTime":1776052560,"reportTime":"2026-04-13T04:00:00.000Z","temp":17.8,"dewp":-1.7,"wdir":210,"wspd":11,"wgst":20,"visib":"10+","altim":1011.6,"slp":1010.2,"qcField":4,"metarType":"METAR","rawOb":"METAR KLAS 130356Z 21011G20KT 10SM FEW050 BKN100 18/M02 A2987 RMK AO2 PK WND 23029/0257 SLP102 T01781017","lat":36.0719,"lon":-115.1634,"elev":662,"name":"Las Vegas/Reid Intl, NV, US","cover":"BKN","clouds":[{"cover":"FEW","base":5000},{"cover":"BKN","base":10000}],"fltCat":"VFR"},{"icaoId":"KRDM","receiptTime":"2026-04-13T04:00:08.524Z","obsTime":1776052560,"reportTime":"2026-04-13T04:00:00.000Z","temp":8.3,"dewp":-0.6,"wdir":300,"wspd":4,"visib":"10+","altim":1009.2,"slp":1009.2,"qcField":4,"metarType":"METAR","rawOb":"METAR KRDM 130356Z 30004KT 10SM OVC055 08/M01 A2980 RMK AO2 SLP092 T00831006","lat":44.2558,"lon":-121.1407,"elev":930,"name":"Redmond Muni, OR, US","cover":"OVC","clouds":[{"cover":"OVC","base":5500}],"fltCat":"VFR"},{"icaoId":"KSFO","receiptTime":"2026-04-13T04:00:21.148Z","obsTime":1776052560,"reportTime":"2026-04-13T04:00:00.000Z","temp":12.8,"dewp":8.9,"wdir":190,"wspd":5,"visib":"10+","altim":1016,"slp":1015.8,"qcField":12,"metarType":"METAR","rawOb":"METAR KSFO 130356Z 19005KT 10SM FEW017 SCT024 BKN036 13/09 A3000 RMK AO2 SLP158 T01280089 $","lat":37.6196,"lon":-122.3656,"elev":2,"name":"San Francisco Intl, CA, US","cover":"BKN","clouds":[{"cover":"FEW","base":1700},{"cover":"SCT","base":2400},{"cover":"BKN","base":3600}],"fltCat":"VFR"},{"icaoId":"KSGU","receiptTime":"2026-04-13T03:58:24.894Z","obsTime":1776052560,"reportTime":"2026-04-13T04:00:00.000Z","temp":18.3,"dewp":1.1,"wdir":280,"wspd":8,"visib":"10+","altim":1011.3,"slp":1009.1,"qcField":6,"metarType":"METAR","rawOb":"METAR KSGU 130356Z AUTO 28008KT 10SM OVC095 18/01 A2986 RMK AO2 SLP091 T01830011","lat":37.0444,"lon":-113.5034,"elev":877,"name":"Saint George Muni, UT, US","cover":"OVC","clouds":[{"cover":"OVC","base":9500}],"fltCat":"VFR"},{"icaoId":"KCGZ","receiptTime":"2026-04-13T03:58:20.792Z","obsTime":1776052560,"reportTime":"2026-04-13T04:00:00.000Z","temp":22.2,"dewp":5.6,"visib":"10+","altim":1015.7,"slp":1014.3,"qcField":14,"metarType":"METAR","rawOb":"METAR KCGZ 130356Z AUTO 10SM CLR 22/06 A2999 RMK AO2 SLP143 T02220056 $","lat":32.9531,"lon":-111.7725,"elev":444,"name":"Casa Granda Muni, AZ, US","cover":"CLR","clouds":[],"fltCat":"VFR"},{"icaoId":"KCHS","receiptTime":"2026-04-13T04:00:20.567Z","obsTime":1776052560,"reportTime":"2026-04-13T04:00:00.000Z","temp":17.8,"dewp":16.7,"wdir":150,"wspd":4,"visib":"10+","altim":1028.2,"slp":1027.8,"qcField":12,"metarType":"METAR","rawOb":"METAR KCHS 130356Z 15004KT 10SM CLR 18/17 A3036 RMK AO2 SLP278 T01780167 $","lat":32.8995,"lon":-80.0407,"elev":12,"name":"Charleston Intl, SC, US","cover":"CLR","clouds":[],"fltCat":"VFR"},{"icaoId":"KJAX","receiptTime":"2026-04-13T04:00:20.807Z","obsTime":1776052560,"reportTime":"2026-04-13T04:00:00.000Z","temp":16.1,"dewp":14.4,"wdir":40,"wspd":3,"visib":"10+","altim":1027.2,"slp":1027.1,"qcField":12,"metarType":"METAR","rawOb":"METAR KJAX 130356Z 04003KT 10SM FEW034 16/14 A3033 RMK AO2 SLP271 T01610144 $","lat":30.4953,"lon":-81.6937,"elev":8,"name":"Jacksonville Intl, FL, US","cover":"FEW","clouds":[{"cover":"FEW","base":3400}],"fltCat":"VFR"},{"icaoId":"KFNL","receiptTime":"2026-04-13T03:58:30.074Z","obsTime":1776052560,"reportTime":"2026-04-13T04:00:00.000Z","temp":17.2,"dewp":-10,"wdir":0,"wspd":0,"visib":"10+","altim":1008.5,"slp":1003.4,"qcField":14,"metarType":"METAR","rawOb":"METAR KFNL 130356Z AUTO 00000KT 10SM CLR 17/M10 A2978 RMK AO2 SLP034 T01721100 $","lat":40.4427,"lon":-105.0097,"elev":1529,"name":"Fort Collins/N Colorado Rgnl, CO, US","cover":"CLR","clouds":[],"fltCat":"VFR"},{"icaoId":"KLUF","receiptTime":"2026-04-13T04:16:19.157Z","obsTime":1776052500,"reportTime":"2026-04-13T04:00:00.000Z","temp":23.3,"dewp":2.7,"wdir":230,"wspd":7,"visib":"10+","altim":1013.6,"slp":1012.6,"qcField":14,"metarType":"METAR","rawOb":"METAR KLUF 130355Z AUTO 23007KT 10SM CLR 23/03 A2993 RMK AO2 SLP126 T02330027 $","lat":33.538,"lon":-112.38,"elev":333,"name":"Phoenix/Luke AFB, AZ, US","cover":"CLR","clouds":[],"fltCat":"VFR"},{"icaoId":"KEND","receiptTime":"2026-04-13T04:04:06.574Z","obsTime":1776052500,"reportTime":"2026-04-13T04:00:00.000Z","temp":22.1,"dewp":19.2,"wdir":190,"wspd":17,"wgst":22,"visib":"10+","altim":1009.9,"slp":1008.9,"qcField":12,"metarType":"METAR","rawOb":"METAR KEND 130355Z 19017G22KT 10SM CLR 22/19 A2982 RMK AO2A PK WND 17027/0257 SLP089 T02210192 $","lat":36.338,"lon":-97.919,"elev":392,"name":"Enid/Vance AFB, OK, US","cover":"CLR","clouds":[],"fltCat":"VFR"},{"icaoId":"KCMA","receiptTime":"2026-04-13T03:58:21.002Z","obsTime":1776052500,"reportTime":"2026-04-13T04:00:00.000Z","temp":15,"dewp":8.9,"wdir":240,"wspd":5,"visib":"10+","altim":1016.7,"slp":1017.3,"qcField":6,"metarType":"METAR","rawOb":"METAR KCMA 130355Z AUTO 24005KT 10SM CLR 15/09 A3002 RMK AO2 SLP173 T01500089","lat":34.2114,"lon":-119.0876,"elev":20,"name":"Camarillo Arpt, CA, US","cover":"CLR","clouds":[],"fltCat":"VFR"},{"icaoId":"KAST","receiptTime":"2026-04-13T03:58:24.432Z","obsTime":1776052500,"reportTime":"2026-04-13T04:00:00.000Z","temp":10,"dewp":6.7,"wdir":250,"wspd":4,"visib":"10+","altim":1011.9,"slp":1011.8,"qcField":6,"metarType":"METAR","rawOb":"METAR KAST 130355Z AUTO 25004KT 10SM OVC036 10/07 A2988 RMK AO2 SLP118 T01000067","lat":46.157,"lon":-123.8833,"elev":3,"name":"Astoria Rgnl, OR, US","cover":"OVC","clouds":[{"cover":"OVC","base":3600}],"fltCat":"VFR"},{"icaoId":"KRNO","receiptTime":"2026-04-13T03:58:25.727Z","obsTime":1776052500,"reportTime":"2026-04-13T04:00:00.000Z","temp":4.4,"dewp":-1.1,"wdir":210,"wspd":4,"visib":"10+","altim":1013.6,"slp":1013,"qcField":4,"metarType":"METAR","rawOb":"METAR KRNO 130355Z 21004KT 10SM BKN048 BKN070 04/M01 A2993 RMK AO2 SLP130 T00441011","lat":39.5077,"lon":-119.7683,"elev":1344,"name":"Reno/Tahoe Intl, NV, US","cover":"BKN","clouds":[{"cover":"BKN","base":4800},{"cover":"BKN","base":7000}],"fltCat":"VFR"},{"icaoId":"KMIA","receiptTime":"2026-04-13T03:56:32.934Z","obsTime":1776052380,"reportTime":"2026-04-13T04:00:00.000Z","temp":23.3,"dewp":13.9,"wdir":70,"wspd":8,"wgst":18,"visib":"10+","altim":1024.5,"slp":1024.3,"qcField":0,"metarType":"METAR","rawOb":"METAR KMIA 130353Z 07008G18KT 10SM FEW040 23/14 A3025 RMK SLP243 T02330139","lat":25.7881,"lon":-80.3169,"elev":1,"name":"Miami Intl, FL, US","cover":"FEW","clouds":[{"cover":"FEW","base":4000}],"fltCat":"VFR"},{"icaoId":"KIWA","receiptTime":"2026-04-13T03:50:23.450Z","obsTime":1776052020,"reportTime":"2026-04-13T04:00:00.000Z","temp":23,"dewp":4,"wdir":190,"wspd":14,"visib":"10+","altim":1015,"qcField":0,"metarType":"METAR","rawOb":"METAR KIWA 130347Z 19014KT 10SM CLR 23/04 A2997 RMK LTG DSNT E","lat":33.3008,"lon":-111.6437,"elev":420,"name":"Phoenix/Mesa Gateway Arpt, AZ, US","cover":"CLR","clouds":[],"fltCat":"VFR"},{"icaoId":"KGYR","receiptTime":"2026-04-13T03:50:23.577Z","obsTime":1776052020,"reportTime":"2026-04-13T04:00:00.000Z","temp":22,"dewp":5,"wdir":230,"wspd":9,"visib":"10+","altim":1014.3,"qcField":0,"metarType":"METAR","rawOb":"METAR KGYR 130347Z 23009KT 10SM BKN180 OVC250 22/05 A2995 RMK LAST","lat":33.428,"lon":-112.368,"elev":292,"name":"Phoenix/Goodyear Muni, AZ, US","cover":"OVC","clouds":[{"cover":"BKN","base":18000},{"cover":"OVC","base":25000}],"fltCat":"VFR"},{"icaoId":"KSUN","receiptTime":"2026-04-13T03:48:23.713Z","obsTime":1776052020,"reportTime":"2026-04-13T04:00:00.000Z","temp":3,"dewp":-3,"wdir":160,"wspd":8,"visib":"10+","altim":1010.9,"qcField":0,"metarType":"METAR","rawOb":"METAR KSUN 130347Z 16008KT 10SM CLR 03/M03 A2985","lat":43.4969,"lon":-114.2923,"elev":1619,"name":"Hailey/Friedman Mem, ID, US","cover":"CLR","clouds":[],"fltCat":"VFR"}]