[{"icaoId":"KNFL","receiptTime":"2026-04-18T23:00:50.881Z","obsTime":1776553020,"reportTime":"2026-04-18T23:00:00.000Z","temp":22.2,"dewp":-18.9,"wdir":"VRB","wspd":5,"visib":"10+","altim":1015,"slp":1012,"qcField":6,"metarType":"METAR","rawOb":"METAR KNFL 182257Z AUTO VRB05KT 10SM CLR 22/M19 A2997 RMK AO2 SLP120 T02221189","lat":39.417,"lon":-118.705,"elev":1199,"name":"Fallon , NV, US","cover":"CLR","clouds":[],"fltCat":"VFR"},{"icaoId":"KFLG","receiptTime":"2026-04-18T23:00:53.311Z","obsTime":1776553020,"reportTime":"2026-04-18T23:00:00.000Z","temp":13.9,"dewp":-19.4,"wdir":90,"wspd":11,"wgst":17,"visib":"10+","altim":1022.8,"slp":1017.5,"qcField":4,"metarType":"METAR","rawOb":"METAR KFLG 182257Z 09011G17KT 10SM CLR 14/M19 A3020 RMK AO2 SLP175 T01391194","lat":35.1443,"lon":-111.6664,"elev":2134,"name":"Flagstaff/Pulliam Arpt, AZ, US","cover":"CLR","clouds":[],"fltCat":"VFR"},{"icaoId":"KPWT","receiptTime":"2026-04-18T22:58:24.803Z","obsTime":1776552960,"reportTime":"2026-04-18T23:00:00.000Z","temp":19.4,"dewp":2.2,"wdir":200,"wspd":8,"visib":"10+","altim":1014.6,"slp":1014.8,"qcField":6,"metarType":"METAR","rawOb":"METAR KPWT 182256Z AUTO 20008KT 170V230 10SM CLR 19/02 A2996 RMK AO2 SLP148 T01940022","lat":47.4942,"lon":-122.7594,"elev":143,"name":"Bremerton Arpt, WA, US","cover":"CLR","clouds":[],"fltCat":"VFR"},{"icaoId":"KJAX","receiptTime":"2026-04-18T23:00:41.810Z","obsTime":1776552960,"reportTime":"2026-04-18T23:00:00.000Z","temp":28.9,"dewp":12.8,"wdir":130,"wspd":8,"visib":"10+","altim":1014,"slp":1013.8,"qcField":12,"metarType":"METAR","rawOb":"METAR KJAX 182256Z 13008KT 10SM SCT090 SCT250 29/13 A2994 RMK AO2 SLP138 T02890128 $","lat":30.4953,"lon":-81.6937,"elev":8,"name":"Jacksonville Intl, FL, US","cover":"SCT","clouds":[{"cover":"SCT","base":9000},{"cover":"SCT","base":25000}],"fltCat":"VFR"},{"icaoId":"KEAR","receiptTime":"2026-04-18T22:58:20.341Z","obsTime":1776552960,"reportTime":"2026-04-18T23:00:00.000Z","temp":13.3,"dewp":-9.4,"wdir":300,"wspd":13,"visib":"10+","altim":1021.1,"slp":1021.8,"qcField":6,"metarType":"METAR","rawOb":"METAR KEAR 182256Z AUTO 30013KT 10SM BKN085 13/M09 A3015 RMK AO2 PK WND 30029/2220 SLP218 T01331094","lat":40.7193,"lon":-99.0086,"elev":649,"name":"Kearney Rgnl, NE, US","cover":"BKN","clouds":[{"cover":"BKN","base":8500}],"fltCat":"VFR"},{"icaoId":"KSDF","receiptTime":"2026-04-18T23:00:48.291Z","obsTime":1776552960,"reportTime":"2026-04-18T23:00:00.000Z","temp":10,"dewp":5.6,"wdir":320,"wspd":9,"visib":"10+","altim":1016.7,"slp":1016.5,"qcField":4,"precip":0.005,"metarType":"METAR","rawOb":"METAR KSDF 182256Z 32009KT 10SM FEW015 SCT033 OVC045 10/06 A3002 RMK AO2 RAB02E13 SLP165 P0000 T01000056","lat":38.1774,"lon":-85.7308,"elev":146,"name":"Louisville Intl, KY, US","cover":"OVC","clouds":[{"cover":"FEW","base":1500},{"cover":"SCT","base":3300},{"cover":"OVC","base":4500}],"fltCat":"VFR"},{"icaoId":"KCGZ","receiptTime":"2026-04-18T22:58:19.923Z","obsTime":1776552960,"reportTime":"2026-04-18T23:00:00.000Z","temp":31.1,"dewp":-6.7,"wdir":70,"wspd":4,"visib":"10+","altim":1011.6,"slp":1010.2,"qcField":14,"metarType":"METAR","rawOb":"METAR KCGZ 182256Z AUTO 07004KT 10SM CLR 31/M07 A2987 RMK AO2 SLP102 T03111067 $","lat":32.9531,"lon":-111.7725,"elev":444,"name":"Casa Granda Muni, AZ, US","cover":"CLR","clouds":[],"fltCat":"VFR"},{"icaoId":"KSBP","receiptTime":"2026-04-18T23:00:48.238Z","obsTime":1776552960,"reportTime":"2026-04-18T23:00:00.000Z","temp":23.3,"dewp":7.8,"wdir":300,"wspd":9,"visib":"10+","altim":1013.3,"slp":1013.2,"qcField":6,"metarType":"METAR","rawOb":"METAR KSBP 182256Z AUTO 30009KT 10SM CLR 23/08 A2992 RMK AO2 SLP132 T02330078","lat":35.2381,"lon":-120.644,"elev":52,"name":"San Luis Obispo/San Luis Cnty, CA, US","cover":"CLR","clouds":[],"fltCat":"VFR"},{"icaoId":"KRDM","receiptTime":"2026-04-18T23:00:47.961Z","obsTime":1776552960,"reportTime":"2026-04-18T23:00:00.000Z","temp":21.7,"dewp":-7.8,"wdir":70,"wspd":6,"visib":"10+","altim":1013.6,"slp":1012.9,"qcField":4,"metarType":"METAR","rawOb":"METAR KRDM 182256Z 07006KT 10SM CLR 22/M08 A2993 RMK AO2 SLP129 T02171078","lat":44.2558,"lon":-121.1407,"elev":930,"name":"Redmond Muni, OR, US","cover":"CLR","clouds":[],"fltCat":"VFR"},{"icaoId":"KFNL","receiptTime":"2026-04-18T22:58:25.481Z","obsTime":1776552960,"reportTime":"2026-04-18T23:00:00.000Z","temp":15,"dewp":-12.2,"wdir":160,"wspd":8,"visib":"10+","altim":1021.4,"slp":1019.3,"qcField":12,"metarType":"METAR","rawOb":"METAR KFNL 182256Z 16008KT 10SM CLR 15/M12 A3016 RMK AO2 SLP193 T01501122 $","lat":40.4427,"lon":-105.0097,"elev":1529,"name":"Fort Collins/N Colorado Rgnl, CO, US","cover":"CLR","clouds":[],"fltCat":"VFR"},{"icaoId":"KCOD","receiptTime":"2026-04-18T22:58:20.020Z","obsTime":1776552960,"reportTime":"2026-04-18T23:00:00.000Z","temp":14.4,"dewp":-12.2,"wdir":240,"wspd":9,"wgst":14,"visib":"10+","altim":1019.7,"slp":1020.5,"qcField":14,"metarType":"METAR","rawOb":"METAR KCOD 182256Z AUTO 24009G14KT 10SM CLR 14/M12 A3011 RMK AO2 SLP205 T01441122 $","lat":44.52,"lon":-109.0268,"elev":1550,"name":"Cody/Yellowstone Rgnl, WY, US","cover":"CLR","clouds":[],"fltCat":"VFR"},{"icaoId":"KEGE","receiptTime":"2026-04-18T22:58:20.444Z","obsTime":1776552960,"reportTime":"2026-04-18T23:00:00.000Z","temp":10.6,"dewp":-12.2,"wdir":0,"wspd":0,"visib":"10+","altim":1025.1,"slp":1024.7,"qcField":4,"metarType":"METAR","rawOb":"METAR KEGE 182256Z 00000KT 10SM CLR 11/M12 A3027 RMK AO2 SLP247 T01061122","lat":39.6448,"lon":-106.9176,"elev":1993,"name":"Eagle Cnty Rgnl, CO, US","cover":"CLR","clouds":[],"fltCat":"VFR"},{"icaoId":"KDVL","receiptTime":"2026-04-18T22:58:20.284Z","obsTime":1776552960,"reportTime":"2026-04-18T23:00:00.000Z","temp":3.9,"dewp":-4.4,"wdir":10,"wspd":8,"visib":"10+","altim":1013.6,"slp":1016.2,"qcField":6,"metarType":"METAR","rawOb":"METAR KDVL 182256Z AUTO 01008KT 10SM FEW044 SCT060 BKN075 04/M04 A2993 RMK AO2 SLP162 T00391044","lat":48.1136,"lon":-98.9034,"elev":439,"name":"Devils Lake Rgnl, ND, US","cover":"BKN","clouds":[{"cover":"FEW","base":4400},{"cover":"SCT","base":6000},{"cover":"BKN","base":7500}],"fltCat":"VFR"},{"icaoId":"KEKO","receiptTime":"2026-04-18T23:00:37.027Z","obsTime":1776552960,"reportTime":"2026-04-18T23:00:00.000Z","temp":17.8,"dewp":-18.3,"wdir":"VRB","wspd":4,"visib":"10+","altim":1018,"slp":1017.2,"qcField":6,"metarType":"METAR","rawOb":"METAR KEKO 182256Z AUTO VRB04KT 10SM CLR 18/M18 A3006 RMK AO2 SLP172 T01781183","lat":40.824,"lon":-115.7863,"elev":1541,"name":"Elko Rgnl, NV, US","cover":"CLR","clouds":[],"fltCat":"VFR"},{"icaoId":"KFOD","receiptTime":"2026-04-18T22:58:25.495Z","obsTime":1776552960,"reportTime":"2026-04-18T23:00:00.000Z","temp":10,"dewp":-15,"wdir":300,"wspd":14,"wgst":23,"visib":"10+","altim":1018.4,"slp":1020.4,"qcField":14,"metarType":"METAR","rawOb":"METAR KFOD 182256Z AUTO 30014G23KT 10SM CLR 10/M15 A3007 RMK AO2 PK WND 29032/2218 SLP204 T01001150 $","lat":42.549,"lon":-94.182,"elev":347,"name":"Fort Dodge Rgnl, IA, US","cover":"CLR","clouds":[],"fltCat":"VFR"},{"icaoId":"KCEC","receiptTime":"2026-04-18T23:00:37.093Z","obsTime":1776552960,"reportTime":"2026-04-18T23:00:00.000Z","temp":12.8,"dewp":9.4,"wdir":290,"wspd":6,"visib":"10+","altim":1015.7,"slp":1015.6,"qcField":6,"metarType":"METAR","rawOb":"METAR KCEC 182256Z AUTO 29006KT 10SM CLR 13/09 A2999 RMK AO2 SLP156 T01280094","lat":41.7836,"lon":-124.238,"elev":17,"name":"Crescent City/McNama, CA, US","cover":"CLR","clouds":[],"fltCat":"VFR"},{"icaoId":"KGUC","receiptTime":"2026-04-18T22:58:25.751Z","obsTime":1776552960,"reportTime":"2026-04-18T23:00:00.000Z","temp":10.6,"dewp":-15.6,"wdir":240,"wspd":9,"visib":"10+","altim":1024.5,"slp":1024.9,"qcField":14,"metarType":"METAR","rawOb":"METAR KGUC 182256Z AUTO 24009KT 10SM CLR 11/M16 A3025 RMK AO2 SLP249 T01061156 $","lat":38.5322,"lon":-106.9419,"elev":2337,"name":"Gunnison Arpt, CO, US","cover":"CLR","clouds":[],"fltCat":"VFR"},{"icaoId":"KHDN","receiptTime":"2026-04-18T22:58:21.828Z","obsTime":1776552960,"reportTime":"2026-04-18T23:00:00.000Z","temp":7.8,"dewp":-11.7,"wdir":0,"wspd":0,"visib":"10+","altim":1025.5,"slp":1026.7,"qcField":6,"metarType":"METAR","rawOb":"METAR KHDN 182256Z AUTO 00000KT 10SM CLR 08/M12 A3028 RMK AO2 SLP267 T00781117","lat":40.4842,"lon":-107.2296,"elev":2012,"name":"Hayden/Yampa Valley Arpt, CO, US","cover":"CLR","clouds":[],"fltCat":"VFR"},{"icaoId":"KJAC","receiptTime":"2026-04-18T22:58:22.213Z","obsTime":1776552960,"reportTime":"2026-04-18T23:00:00.000Z","temp":8.3,"dewp":-10,"wdir":270,"wspd":11,"visib":"10+","altim":1022.8,"slp":1025.8,"qcField":4,"metarType":"METAR","rawOb":"METAR KJAC 182256Z 27011KT 10SM CLR 08/M10 A3020 RMK AO2 SLP258 T00831100","lat":43.6129,"lon":-110.7366,"elev":1967,"name":"Jackson Hole Arpt, WY, US","cover":"CLR","clouds":[],"fltCat":"VFR"},{"icaoId":"KROC","receiptTime":"2026-04-18T23:00:37.546Z","obsTime":1776552960,"reportTime":"2026-04-18T22:56:00.000Z","temp":16.7,"dewp":15.6,"wdir":270,"wspd":12,"visib":3,"altim":1006.5,"qcField":12,"wxString":"+RA BR","precip":0.01,"metarType":"SPECI","rawOb":"SPECI KROC 182256Z 27012KT 3SM +RA BR BKN013 BKN020 OVC026 17/16 A2972 RMK AO2 P0001 T01670156 $","lat":43.1172,"lon":-77.6754,"elev":166,"name":"Rochester Intl Arpt, NY, US","cover":"OVC","clouds":[{"cover":"BKN","base":1300},{"cover":"BKN","base":2000},{"cover":"OVC","base":2600}],"fltCat":"MVFR"},{"icaoId":"KSLE","receiptTime":"2026-04-18T23:00:48.432Z","obsTime":1776552960,"reportTime":"2026-04-18T23:00:00.000Z","temp":20.6,"dewp":6.7,"wdir":60,"wspd":5,"visib":"10+","altim":1013,"slp":1012.9,"qcField":4,"metarType":"METAR","rawOb":"METAR KSLE 182256Z 06005KT 10SM CLR 21/07 A2991 RMK AO2 SLP129 T02060067","lat":44.9049,"lon":-123.001,"elev":63,"name":"Salem Muni, OR, US","cover":"CLR","clouds":[],"fltCat":"VFR"},{"icaoId":"KUKI","receiptTime":"2026-04-18T23:00:37.622Z","obsTime":1776552960,"reportTime":"2026-04-18T23:00:00.000Z","temp":25,"dewp":2.2,"visib":"10+","altim":1012.6,"slp":1012.2,"qcField":6,"metarType":"METAR","rawOb":"METAR KUKI 182256Z AUTO 10SM CLR 25/02 A2990 RMK AO2 SLP122 T02500022","lat":39.1278,"lon":-123.2001,"elev":183,"name":"Ukiah Muni, CA, US","cover":"CLR","clouds":[],"fltCat":"VFR"},{"icaoId":"KSGU","receiptTime":"2026-04-18T22:58:21.101Z","obsTime":1776552960,"reportTime":"2026-04-18T23:00:00.000Z","temp":25,"dewp":-18.9,"wdir":80,"wspd":8,"wgst":15,"visib":"10+","altim":1016.7,"slp":1015,"qcField":6,"metarType":"METAR","rawOb":"METAR KSGU 182256Z AUTO 08008G15KT 10SM CLR 25/M19 A3002 RMK AO2 SLP150 T02501189","lat":37.0444,"lon":-113.5034,"elev":877,"name":"Saint George Muni, UT, US","cover":"CLR","clouds":[],"fltCat":"VFR"},{"icaoId":"KTPH","receiptTime":"2026-04-18T23:00:37.607Z","obsTime":1776552960,"reportTime":"2026-04-18T23:00:00.000Z","temp":19.4,"dewp":-17.8,"wdir":210,"wspd":13,"wgst":23,"visib":"10+","altim":1017.7,"slp":1014.9,"qcField":6,"metarType":"METAR","rawOb":"METAR KTPH 182256Z AUTO 21013G23KT 10SM CLR 19/M18 A3005 RMK AO2 SLP149 T01941178","lat":38.0505,"lon":-117.0906,"elev":1647,"name":"Tonopah Arpt, NV, US","cover":"CLR","clouds":[],"fltCat":"VFR"},{"icaoId":"KCOE","receiptTime":"2026-04-18T22:58:20.033Z","obsTime":1776552960,"reportTime":"2026-04-18T23:00:00.000Z","temp":16.1,"dewp":-0.6,"wdir":"VRB","wspd":3,"visib":"10+","altim":1018.4,"slp":1020.6,"qcField":14,"metarType":"METAR","rawOb":"METAR KCOE 182256Z AUTO VRB03KT 10SM CLR 16/M01 A3007 RMK AO2 SLP206 T01611006 PNO $","lat":47.7719,"lon":-116.8332,"elev":693,"name":"Coeur DAlene Arpt, ID, US","cover":"CLR","clouds":[],"fltCat":"VFR"},{"icaoId":"KDIK","receiptTime":"2026-04-18T23:00:38.348Z","obsTime":1776552960,"reportTime":"2026-04-18T23:00:00.000Z","temp":7.2,"dewp":-5,"wdir":310,"wspd":16,"wgst":31,"visib":"10+","altim":1016,"slp":1018.6,"qcField":14,"metarType":"METAR","rawOb":"METAR KDIK 182256Z AUTO 31016G31KT 10SM OVC100 07/M05 A3000 RMK AO2 PK WND 33031/2250 WSHFT 2203 SLP186 T00721050 $","lat":46.7997,"lon":-102.7971,"elev":788,"name":"Dickinson/Roosevelt , ND, US","cover":"OVC","clouds":[{"cover":"OVC","base":10000}],"fltCat":"VFR"},{"icaoId":"KJMS","receiptTime":"2026-04-18T23:00:38.373Z","obsTime":1776552960,"reportTime":"2026-04-18T23:00:00.000Z","temp":5.6,"dewp":-5.6,"wdir":280,"wspd":19,"wgst":28,"visib":"10+","altim":1014.6,"slp":1016.5,"qcField":6,"metarType":"METAR","rawOb":"METAR KJMS 182256Z AUTO 28019G28KT 10SM SCT060 BKN070 06/M06 A2996 RMK AO2 PK WND 29032/2235 SLP165 T00561056","lat":46.9259,"lon":-98.6704,"elev":455,"name":"Jamestown Rgnl, ND, US","cover":"BKN","clouds":[{"cover":"SCT","base":6000},{"cover":"BKN","base":7000}],"fltCat":"VFR"},{"icaoId":"KLBL","receiptTime":"2026-04-18T22:58:22.448Z","obsTime":1776552960,"reportTime":"2026-04-18T23:00:00.000Z","temp":17.2,"dewp":-13.3,"wdir":350,"wspd":11,"wgst":22,"visib":"10+","altim":1023.5,"slp":1023.5,"qcField":14,"metarType":"METAR","rawOb":"METAR KLBL 182256Z AUTO 35011G22KT 10SM CLR 17/M13 A3022 RMK AO2 SLP235 T01721133 $","lat":37.0375,"lon":-100.9574,"elev":877,"name":"Liberal/Mid America Rgnl, KS, US","cover":"CLR","clouds":[],"fltCat":"VFR"},{"icaoId":"KVIS","receiptTime":"2026-04-18T22:58:21.491Z","obsTime":1776552960,"reportTime":"2026-04-18T23:00:00.000Z","temp":27.2,"dewp":-1.1,"wdir":"VRB","wspd":6,"visib":"10+","altim":1013.3,"slp":1012.9,"qcField":14,"metarType":"METAR","rawOb":"METAR KVIS 182256Z AUTO VRB06KT 10SM CLR 27/M01 A2992 RMK AO2 SLP129 T02721011 PNO $","lat":36.3135,"lon":-119.3884,"elev":92,"name":"Visalia Muni, CA, US","cover":"CLR","clouds":[],"fltCat":"VFR"},{"icaoId":"KFSD","receiptTime":"2026-04-18T23:00:41.292Z","obsTime":1776552960,"reportTime":"2026-04-18T23:00:00.000Z","temp":8.9,"dewp":-15.6,"wdir":300,"wspd":16,"wgst":33,"visib":"10+","altim":1018,"slp":1019.5,"qcField":4,"metarType":"METAR","rawOb":"METAR KFSD 182256Z 30016G33KT 10SM FEW100 09/M16 A3006 RMK AO2 PK WND 31033/2249 SLP195 T00891156","lat":43.5775,"lon":-96.7539,"elev":433,"name":"Sioux Falls/Foss Fld, SD, US","cover":"FEW","clouds":[{"cover":"FEW","base":10000}],"fltCat":"VFR"},{"icaoId":"KBZN","receiptTime":"2026-04-18T23:00:41.371Z","obsTime":1776552960,"reportTime":"2026-04-18T23:00:00.000Z","temp":11.1,"dewp":-4.4,"wdir":80,"wspd":7,"visib":"10+","altim":1020.1,"slp":1022.4,"qcField":4,"metarType":"METAR","rawOb":"METAR KBZN 182256Z 08007KT 10SM CLR 11/M04 A3012 RMK AO2 SLP224 T01111044","lat":45.7876,"lon":-111.1615,"elev":1349,"name":"Bozeman/Gallatin Fld, MT, US","cover":"CLR","clouds":[],"fltCat":"VFR"},{"icaoId":"KCHS","receiptTime":"2026-04-18T23:00:41.422Z","obsTime":1776552960,"reportTime":"2026-04-18T23:00:00.000Z","temp":26.1,"dewp":16.7,"wdir":190,"wspd":8,"visib":"10+","altim":1013.6,"slp":1013.5,"qcField":4,"metarType":"METAR","rawOb":"METAR KCHS 182256Z 19008KT 10SM FEW080 SCT090 BKN200 OVC250 26/17 A2993 RMK AO2 SLP135 T02610167","lat":32.8995,"lon":-80.0407,"elev":12,"name":"Charleston Intl, SC, US","cover":"OVC","clouds":[{"cover":"FEW","base":8000},{"cover":"SCT","base":9000},{"cover":"BKN","base":20000},{"cover":"OVC","base":25000}],"fltCat":"VFR"},{"icaoId":"KHND","receiptTime":"2026-04-18T22:58:21.930Z","obsTime":1776552960,"reportTime":"2026-04-18T23:00:00.000Z","temp":23.9,"dewp":-15.6,"wdir":120,"wspd":3,"visib":"10+","altim":1016.7,"slp":1017.2,"qcField":12,"metarType":"METAR","rawOb":"METAR KHND 182256Z 12003KT 10SM CLR 24/M16 A3002 RMK AO2 SLP172 T02391156 $","lat":35.9657,"lon":-115.1343,"elev":740,"name":"Henderson Exec, NV, US","cover":"CLR","clouds":[],"fltCat":"VFR"},{"icaoId":"KBKX","receiptTime":"2026-04-18T22:58:23.088Z","obsTime":1776552960,"reportTime":"2026-04-18T23:00:00.000Z","temp":7.2,"dewp":-15,"wdir":290,"wspd":18,"wgst":28,"visib":"10+","altim":1017.4,"slp":1019.9,"qcField":6,"metarType":"METAR","rawOb":"METAR KBKX 182256Z AUTO 29018G28KT 10SM BKN095 07/M15 A3004 RMK AO2 PK WND 30028/2249 SLP199 T00721150","lat":44.3075,"lon":-96.8183,"elev":494,"name":"Brookings Rgnl, SD, US","cover":"BKN","clouds":[{"cover":"BKN","base":9500}],"fltCat":"VFR"},{"icaoId":"KMKT","receiptTime":"2026-04-18T22:58:26.269Z","obsTime":1776552960,"reportTime":"2026-04-18T23:00:00.000Z","temp":7.8,"dewp":-11.7,"wdir":300,"wspd":13,"wgst":20,"visib":"10+","altim":1016.3,"slp":1017.4,"qcField":6,"metarType":"METAR","rawOb":"METAR KMKT 182256Z AUTO 30013G20KT 10SM FEW080 08/M12 A3001 RMK AO2 PK WND 30028/2221 SLP174 T00781117","lat":44.2184,"lon":-93.9179,"elev":309,"name":"Mankato Rgnl, MN, US","cover":"FEW","clouds":[{"cover":"FEW","base":8000}],"fltCat":"VFR"},{"icaoId":"KINW","receiptTime":"2026-04-18T23:00:41.748Z","obsTime":1776552960,"reportTime":"2026-04-18T23:00:00.000Z","temp":18.9,"dewp":-20,"wdir":0,"wspd":0,"visib":"10+","altim":1020.1,"slp":1018,"qcField":6,"metarType":"METAR","rawOb":"METAR KINW 182256Z AUTO 00000KT 10SM CLR 19/M20 A3012 RMK AO2 SLP180 T01891200","lat":35.0279,"lon":-110.7221,"elev":1492,"name":"Winslow/Lindberg Rgnl, AZ, US","cover":"CLR","clouds":[],"fltCat":"VFR"},{"icaoId":"KLWS","receiptTime":"2026-04-18T23:00:41.826Z","obsTime":1776552960,"reportTime":"2026-04-18T23:00:00.000Z","temp":18.3,"dewp":3.3,"wdir":100,"wspd":9,"visib":"10+","altim":1017.4,"slp":1017.5,"qcField":4,"metarType":"METAR","rawOb":"METAR KLWS 182256Z 10009KT 10SM CLR 18/03 A3004 RMK AO2 SLP175 T01830033","lat":46.3746,"lon":-117.0153,"elev":435,"name":"Lewiston/Nez Perce Cnty, ID, US","cover":"CLR","clouds":[],"fltCat":"VFR"},{"icaoId":"KOFK","receiptTime":"2026-04-18T23:00:41.979Z","obsTime":1776552960,"reportTime":"2026-04-18T23:00:00.000Z","temp":12.2,"dewp":-10,"wdir":310,"wspd":19,"wgst":27,"visib":"10+","altim":1019.4,"slp":1020.5,"qcField":14,"metarType":"METAR","rawOb":"METAR KOFK 182256Z AUTO 31019G27KT 10SM FEW095 12/M10 A3010 RMK AO2 PK WND 30029/2205 SLP205 T01221100 $","lat":41.9799,"lon":-97.4335,"elev":476,"name":"Norfolk/Stefan Mem, NE, US","cover":"FEW","clouds":[{"cover":"FEW","base":9500}],"fltCat":"VFR"},{"icaoId":"KSFO","receiptTime":"2026-04-18T23:00:42.032Z","obsTime":1776552960,"reportTime":"2026-04-18T23:00:00.000Z","temp":21.7,"dewp":8.9,"wdir":300,"wspd":13,"visib":"10+","altim":1013.6,"slp":1013.6,"qcField":12,"metarType":"METAR","rawOb":"METAR KSFO 182256Z 30013KT 10SM BKN200 22/09 A2993 RMK AO2 SLP136 T02170089 $","lat":37.6196,"lon":-122.3656,"elev":2,"name":"San Francisco Intl, CA, US","cover":"BKN","clouds":[{"cover":"BKN","base":20000}],"fltCat":"VFR"},{"icaoId":"KSHV","receiptTime":"2026-04-18T23:00:42.050Z","obsTime":1776552960,"reportTime":"2026-04-18T23:00:00.000Z","temp":14,"dewp":13,"wdir":340,"wspd":11,"wgst":22,"visib":8,"altim":1019.7,"qcField":0,"wxString":"-RA","metarType":"METAR","rawOb":"METAR KSHV 182256Z 34011G22KT 8SM -RA BKN008 OVC012 14/13 A3011 RMK RAB07 SLPNO","lat":32.4473,"lon":-93.8244,"elev":70,"name":"Shreveport Rgnl, LA, US","cover":"OVC","clouds":[{"cover":"BKN","base":800},{"cover":"OVC","base":1200}],"fltCat":"IFR"},{"icaoId":"KYKN","receiptTime":"2026-04-18T22:58:23.322Z","obsTime":1776552960,"reportTime":"2026-04-18T23:00:00.000Z","temp":10,"dewp":-14.4,"wdir":290,"wspd":21,"wgst":27,"visib":"10+","altim":1019.7,"slp":1021.8,"qcField":6,"metarType":"METAR","rawOb":"METAR KYKN 182256Z AUTO 29021G27KT 10SM CLR 10/M14 A3011 RMK AO2 PK WND 29032/2220 SLP218 T01001144","lat":42.9141,"lon":-97.3807,"elev":388,"name":"Yankton/Gurney Muni, SD, US","cover":"CLR","clouds":[],"fltCat":"VFR"},{"icaoId":"KPVU","receiptTime":"2026-04-18T22:58:24.772Z","obsTime":1776552960,"reportTime":"2026-04-18T23:00:00.000Z","temp":14.4,"dewp":-10.6,"wdir":0,"wspd":0,"visib":"10+","altim":1021.8,"slp":1021.2,"qcField":4,"metarType":"METAR","rawOb":"METAR KPVU 182256Z 00000KT 10SM CLR 14/M11 A3017 RMK AO2 SLP212 T01441106","lat":40.224,"lon":-111.7252,"elev":1370,"name":"Provo Muni, UT, US","cover":"CLR","clouds":[],"fltCat":"VFR"},{"icaoId":"KSDY","receiptTime":"2026-04-18T22:58:25.038Z","obsTime":1776552960,"reportTime":"2026-04-18T23:00:00.000Z","temp":9.4,"dewp":-4.4,"wdir":330,"wspd":14,"visib":"10+","altim":1017.4,"slp":1020.1,"qcField":14,"metarType":"METAR","rawOb":"METAR KSDY 182256Z AUTO 33014KT 10SM BKN060 OVC075 09/M04 A3004 RMK AO2 SLP201 T00941044 $","lat":47.7029,"lon":-104.1951,"elev":600,"name":"Sidney/Richland Muni, MT, US","cover":"OVC","clouds":[{"cover":"BKN","base":6000},{"cover":"OVC","base":7500}],"fltCat":"VFR"},{"icaoId":"KDUG","receiptTime":"2026-04-18T23:00:36.975Z","obsTime":1776552960,"reportTime":"2026-04-18T23:00:00.000Z","temp":27.2,"dewp":-6.1,"wdir":60,"wspd":11,"wgst":18,"visib":"10+","altim":1015.7,"slp":1010.1,"qcField":38,"metarType":"METAR","rawOb":"METAR KDUG 182256Z AUTO 06011G18KT 10SM CLR 27/M06 A2999 RMK AO2 SLP101 T02721061 TSNO","lat":31.4725,"lon":-109.6022,"elev":1260,"name":"Douglas/Bisbee Intl, AZ, US","cover":"CLR","clouds":[],"fltCat":"VFR"},{"icaoId":"KENV","receiptTime":"2026-04-18T22:58:25.223Z","obsTime":1776552960,"reportTime":"2026-04-18T23:00:00.000Z","temp":15,"dewp":-16.7,"wdir":110,"wspd":9,"wgst":15,"visib":"10+","altim":1022.1,"slp":1022.7,"qcField":6,"metarType":"METAR","rawOb":"METAR KENV 182256Z AUTO 11009G15KT 10SM CLR 15/M17 A3018 RMK AO2 SLP227 T01501167","lat":40.7211,"lon":-114.0312,"elev":1291,"name":"Wendover Arpt, UT, US","cover":"CLR","clouds":[],"fltCat":"VFR"},{"icaoId":"KLAS","receiptTime":"2026-04-18T23:00:37.221Z","obsTime":1776552960,"reportTime":"2026-04-18T23:00:00.000Z","temp":24.4,"dewp":-17.8,"wdir":"VRB","wspd":3,"visib":"10+","altim":1016,"slp":1014.7,"qcField":4,"metarType":"METAR","rawOb":"METAR KLAS 182256Z VRB03KT 10SM FEW120 BKN250 24/M18 A3000 RMK AO2 SLP147 T02441178","lat":36.0719,"lon":-115.1634,"elev":662,"name":"Las Vegas/Reid Intl, NV, US","cover":"BKN","clouds":[{"cover":"FEW","base":12000},{"cover":"BKN","base":25000}],"fltCat":"VFR"},{"icaoId":"KCMA","receiptTime":"2026-04-18T22:58:19.978Z","obsTime":1776552900,"reportTime":"2026-04-18T23:00:00.000Z","temp":22.2,"dewp":12.8,"wdir":230,"wspd":10,"visib":"10+","altim":1013.3,"slp":1014,"qcField":4,"metarType":"METAR","rawOb":"METAR KCMA 182255Z 23010KT 10SM CLR 22/13 A2992 RMK AO2 SLP140 T02220128","lat":34.2114,"lon":-119.0876,"elev":20,"name":"Camarillo Arpt, CA, US","cover":"CLR","clouds":[],"fltCat":"VFR"},{"icaoId":"KADM","receiptTime":"2026-04-18T23:00:18.340Z","obsTime":1776552900,"reportTime":"2026-04-18T23:00:00.000Z","temp":18,"dewp":-1,"wdir":360,"wspd":14,"visib":"10+","altim":1022.8,"qcField":6,"metarType":"METAR","rawOb":"METAR KADM 182255Z AUTO 36014KT 10SM CLR 18/M01 A3020 RMK AO2","lat":34.3007,"lon":-97.0089,"elev":223,"name":"Ardmore Muni, OK, US","cover":"CLR","clouds":[],"fltCat":"VFR"},{"icaoId":"KHAF","receiptTime":"2026-04-18T22:58:18.586Z","obsTime":1776552900,"reportTime":"2026-04-18T23:00:00.000Z","temp":15,"dewp":14,"wdir":280,"wspd":6,"visib":8,"altim":1015,"qcField":6,"metarType":"METAR","rawOb":"METAR KHAF 182255Z AUTO 28006KT 8SM CLR 15/14 A2997 RMK AO2","lat":37.5136,"lon":-122.4996,"elev":11,"name":"Half Moon Bay Arpt, CA, US","cover":"CLR","clouds":[],"fltCat":"VFR"},{"icaoId":"KHII","receiptTime":"2026-04-18T23:00:52.269Z","obsTime":1776552900,"reportTime":"2026-04-18T23:00:00.000Z","temp":30,"dewp":-12,"wdir":"VRB","wspd":5,"visib":"10+","altim":1011.9,"qcField":6,"metarType":"METAR","rawOb":"METAR KHII 182255Z AUTO VRB05KT 10SM CLR 30/M12 A2988 RMK AO2","lat":34.5659,"lon":-114.3522,"elev":241,"name":"Lake Havasu City Arpt, AZ, US","cover":"CLR","clouds":[],"fltCat":"VFR"},{"icaoId":"KSOW","receiptTime":"2026-04-18T22:58:17.586Z","obsTime":1776552900,"reportTime":"2026-04-18T23:00:00.000Z","temp":19,"dewp":-16,"wdir":"VRB","wspd":3,"wgst":13,"visib":"10+","altim":1021.1,"qcField":6,"metarType":"METAR","rawOb":"METAR KSOW 182255Z AUTO VRB03G13KT 10SM CLR 19/M16 A3015 RMK AO2","lat":34.2686,"lon":-110.0019,"elev":1954,"name":"Show Low Muni, AZ, US","cover":"CLR","clouds":[],"fltCat":"VFR"},{"icaoId":"KMEV","receiptTime":"2026-04-18T23:00:37.295Z","obsTime":1776552900,"reportTime":"2026-04-18T23:00:00.000Z","temp":20,"dewp":-6,"wdir":240,"wspd":6,"visib":"10+","altim":1015.3,"qcField":6,"metarType":"METAR","rawOb":"METAR KMEV 182255Z AUTO 24006KT 10SM CLR 20/M06 A2998 RMK AO2","lat":38.9963,"lon":-119.75,"elev":1437,"name":"Minden-Tahoe Arpt, NV, US","cover":"CLR","clouds":[],"fltCat":"VFR"},{"icaoId":"KBJI","receiptTime":"2026-04-18T23:00:38.265Z","obsTime":1776552900,"reportTime":"2026-04-18T23:00:00.000Z","temp":1.7,"dewp":-10.5,"wdir":300,"wspd":20,"wgst":25,"visib":"10+","altim":1013,"qcField":6,"metarType":"METAR","rawOb":"METAR KBJI 182255Z AUTO 30020G25KT 10SM SCT060 02/M10 A2991 RMK AO2 T00171105","lat":47.5076,"lon":-94.9279,"elev":422,"name":"Bemidji Municip, MN, US","cover":"SCT","clouds":[{"cover":"SCT","base":6000}],"fltCat":"VFR"},{"icaoId":"KHTH","receiptTime":"2026-04-18T23:00:41.625Z","obsTime":1776552900,"reportTime":"2026-04-18T23:00:00.000Z","temp":22,"dewp":-20,"wdir":20,"wspd":7,"visib":"10+","altim":1015,"qcField":6,"metarType":"METAR","rawOb":"METAR KHTH 182255Z AUTO 02007KT 10SM CLR 22/M20 A2997 RMK A01","lat":38.5448,"lon":-118.6314,"elev":1281,"name":"Hawthorne Muni, NV, US","cover":"CLR","clouds":[],"fltCat":"VFR"},{"icaoId":"KBVU","receiptTime":"2026-04-18T22:58:09.262Z","obsTime":1776552900,"reportTime":"2026-04-18T23:00:00.000Z","temp":25,"dewp":-19,"wdir":"VRB","wspd":3,"visib":"10+","altim":1015,"qcField":6,"metarType":"METAR","rawOb":"METAR KBVU 182255Z AUTO VRB03KT 10SM CLR 25/M19 A2997 RMK AO2","lat":35.9489,"lon":-114.8633,"elev":654,"name":"Boulder City Muni, NV, US","cover":"CLR","clouds":[],"fltCat":"VFR"},{"icaoId":"KLRU","receiptTime":"2026-04-18T22:58:10.001Z","obsTime":1776552900,"reportTime":"2026-04-18T23:00:00.000Z","temp":22.5,"dewp":-8.5,"wdir":140,"wspd":9,"wgst":19,"visib":"10+","altim":1020.1,"qcField":6,"metarType":"METAR","rawOb":"METAR KLRU 182255Z AUTO 14009G19KT 10SM CLR 23/M08 A3012 RMK AO2 T02251085","lat":32.2884,"lon":-106.9131,"elev":1355,"name":"Las Cruces Intl, NM, US","cover":"CLR","clouds":[],"fltCat":"VFR"},{"icaoId":"KRTS","receiptTime":"2026-04-18T23:00:48.115Z","obsTime":1776552900,"reportTime":"2026-04-18T23:00:00.000Z","temp":19,"dewp":-13,"wdir":"VRB","wspd":4,"visib":"10+","altim":1016.3,"qcField":6,"metarType":"METAR","rawOb":"METAR KRTS 182255Z AUTO VRB04KT 10SM CLR 19/M13 A3001 RMK AO2","lat":39.6658,"lon":-119.8731,"elev":1537,"name":"Reno/Stead Arpt, NV, US","cover":"CLR","clouds":[],"fltCat":"VFR"},{"icaoId":"KSEZ","receiptTime":"2026-04-18T23:00:48.386Z","obsTime":1776552900,"reportTime":"2026-04-18T23:00:00.000Z","temp":22,"dewp":-16,"wdir":40,"wspd":7,"wgst":15,"visib":"10+","altim":1018.7,"qcField":6,"metarType":"METAR","rawOb":"METAR KSEZ 182255Z AUTO 04007G15KT 020V090 10SM CLR 22/M16 A3008 RMK AO2","lat":34.8467,"lon":-111.7884,"elev":1455,"name":"Sedona Arpt, AZ, US","cover":"CLR","clouds":[],"fltCat":"VFR"},{"icaoId":"KIRK","receiptTime":"2026-04-18T22:58:22.134Z","obsTime":1776552900,"reportTime":"2026-04-18T23:00:00.000Z","temp":11.7,"dewp":-6.1,"wdir":270,"wspd":17,"wgst":25,"visib":"10+","altim":1020.7,"slp":1021.2,"qcField":6,"metarType":"METAR","rawOb":"METAR KIRK 182255Z AUTO 27017G25KT 10SM CLR 12/M06 A3014 RMK AO2 PK WND 27036/2236 SLP212 T01171061","lat":40.0966,"lon":-92.5469,"elev":292,"name":"Kirksville Rgnl, MO, US","cover":"CLR","clouds":[],"fltCat":"VFR"},{"icaoId":"KCXP","receiptTime":"2026-04-18T23:00:37.201Z","obsTime":1776552900,"reportTime":"2026-04-18T23:00:00.000Z","temp":20,"dewp":-13,"wdir":"VRB","wspd":5,"wgst":11,"visib":"10+","altim":1016.3,"qcField":6,"metarType":"METAR","rawOb":"METAR KCXP 182255Z AUTO VRB05G11KT 10SM CLR 20/M13 A3001 RMK AO2","lat":39.1905,"lon":-119.7319,"elev":1431,"name":"Carson City Arpt, NV, US","cover":"CLR","clouds":[],"fltCat":"VFR"},{"icaoId":"KMHR","receiptTime":"2026-04-18T23:00:37.316Z","obsTime":1776552900,"reportTime":"2026-04-18T23:00:00.000Z","temp":26,"dewp":2,"wdir":170,"wspd":6,"visib":"10+","altim":1013,"qcField":6,"metarType":"METAR","rawOb":"METAR KMHR 182255Z AUTO 17006KT 10SM CLR 26/02 A2991 RMK AO2","lat":38.56,"lon":-121.284,"elev":30,"name":"Sacramento/Mather Fld, CA, US","cover":"CLR","clouds":[],"fltCat":"VFR"},{"icaoId":"KHCR","receiptTime":"2026-04-18T22:58:25.855Z","obsTime":1776552900,"reportTime":"2026-04-18T23:00:00.000Z","temp":14,"dewp":-10.4,"wdir":0,"wspd":0,"visib":"10+","altim":1021.1,"qcField":14,"metarType":"METAR","rawOb":"METAR KHCR 182255Z AUTO 00000KT 10SM FEW150 14/M10 A3015 RMK AO2 T01401104 $","lat":40.4774,"lon":-111.4329,"elev":1708,"name":"Heber City Muni, UT, US","cover":"FEW","clouds":[{"cover":"FEW","base":15000}],"fltCat":"VFR"},{"icaoId":"KGPI","receiptTime":"2026-04-18T22:58:25.681Z","obsTime":1776552900,"reportTime":"2026-04-18T23:00:00.000Z","temp":12.8,"dewp":-2.8,"wdir":170,"wspd":10,"visib":"10+","altim":1018.7,"slp":1020,"qcField":12,"metarType":"METAR","rawOb":"METAR KGPI 182255Z 17010KT 10SM CLR 13/M03 A3008 RMK AO2 SLP200 T01281028 $","lat":48.3041,"lon":-114.2643,"elev":903,"name":"Kalispell/Glacier Park Intl, MT, US","cover":"CLR","clouds":[],"fltCat":"VFR"},{"icaoId":"KRNO","receiptTime":"2026-04-18T22:58:24.903Z","obsTime":1776552900,"reportTime":"2026-04-18T23:00:00.000Z","temp":21.1,"dewp":-12.2,"wdir":"VRB","wspd":4,"visib":"10+","altim":1015.3,"slp":1012.7,"qcField":4,"metarType":"METAR","rawOb":"METAR KRNO 182255Z VRB04KT 10SM FEW110 FEW230 21/M12 A2998 RMK AO2 SLP127 T02111122","lat":39.5077,"lon":-119.7683,"elev":1344,"name":"Reno/Tahoe Intl, NV, US","cover":"FEW","clouds":[{"cover":"FEW","base":11000},{"cover":"FEW","base":23000}],"fltCat":"VFR"},{"icaoId":"KHON","receiptTime":"2026-04-18T22:58:21.944Z","obsTime":1776552900,"reportTime":"2026-04-18T23:00:00.000Z","temp":9.4,"dewp":-11.1,"wdir":320,"wspd":21,"wgst":30,"visib":"10+","altim":1018,"slp":1019,"qcField":6,"metarType":"METAR","rawOb":"METAR KHON 182255Z AUTO 32021G30KT 10SM FEW090 09/M11 A3006 RMK AO2 PK WND 33037/2227 SLP190 T00941111","lat":44.3792,"lon":-98.2227,"elev":391,"name":"Huron Rgnl, SD, US","cover":"FEW","clouds":[{"cover":"FEW","base":9000}],"fltCat":"VFR"},{"icaoId":"KAST","receiptTime":"2026-04-18T22:58:22.877Z","obsTime":1776552900,"reportTime":"2026-04-18T23:00:00.000Z","temp":16.1,"dewp":3.9,"wdir":220,"wspd":11,"visib":"10+","altim":1014.3,"slp":1014,"qcField":14,"metarType":"METAR","rawOb":"METAR KAST 182255Z AUTO 22011KT 10SM CLR 16/04 A2995 RMK AO2 SLP140 T01610039 $","lat":46.157,"lon":-123.8833,"elev":3,"name":"Astoria Rgnl, OR, US","cover":"CLR","clouds":[],"fltCat":"VFR"},{"icaoId":"KDLH","receiptTime":"2026-04-18T22:58:20.210Z","obsTime":1776552900,"reportTime":"2026-04-18T23:00:00.000Z","temp":1.7,"dewp":-10,"wdir":300,"wspd":18,"wgst":30,"visib":"10+","altim":1010.6,"slp":1012.6,"qcField":12,"metarType":"METAR","rawOb":"METAR KDLH 182255Z 30018G30KT 10SM BKN055 02/M10 A2984 RMK AO2 PK WND 29032/2205 SLP126 T00171100 $","lat":46.8435,"lon":-92.1866,"elev":434,"name":"Duluth Intl Arpt, MN, US","cover":"BKN","clouds":[{"cover":"BKN","base":5500}],"fltCat":"VFR"},{"icaoId":"KGAF","receiptTime":"2026-04-18T22:56:22.810Z","obsTime":1776552900,"reportTime":"2026-04-18T23:00:00.000Z","temp":5,"dewp":-8,"wdir":320,"wspd":14,"wgst":19,"visib":"10+","altim":1014,"qcField":134,"metarType":"METAR","rawOb":"METAR KGAF 182255Z AUTO 32014G19KT 10SM FEW065 FEW075 05/M08 A2994 RMK AO2 PWINO","lat":48.4081,"lon":-97.3694,"elev":250,"name":"Grafton/Hutson Fld, ND, US","cover":"FEW","clouds":[{"cover":"FEW","base":6500},{"cover":"FEW","base":7500}],"fltCat":"VFR"},{"icaoId":"KSJN","receiptTime":"2026-04-18T22:58:07.315Z","obsTime":1776552840,"reportTime":"2026-04-18T23:00:00.000Z","temp":20.6,"dewp":-18.3,"wdir":360,"wspd":8,"visib":"10+","altim":1019,"slp":1014.6,"qcField":6,"metarType":"METAR","rawOb":"METAR KSJN 182254Z AUTO 36008KT 10SM CLR 21/M18 A3009 RMK AO2 SLP146 T02061183","lat":34.5184,"lon":-109.3801,"elev":1747,"name":"St Johns Ind Arpt, AZ, US","cover":"CLR","clouds":[],"fltCat":"VFR"},{"icaoId":"KAPC","receiptTime":"2026-04-18T22:58:09.056Z","obsTime":1776552840,"reportTime":"2026-04-18T23:00:00.000Z","temp":23.3,"dewp":1.1,"wdir":220,"wspd":5,"visib":"10+","altim":1013.6,"slp":1012.7,"qcField":4,"metarType":"METAR","rawOb":"METAR KAPC 182254Z 22005KT 10SM CLR 23/01 A2993 RMK AO2 SLP127 T02330011","lat":38.2075,"lon":-122.2804,"elev":5,"name":"Napa Cnty Arpt, CA, US","cover":"CLR","clouds":[],"fltCat":"VFR"},{"icaoId":"KALO","receiptTime":"2026-04-18T22:58:09.044Z","obsTime":1776552840,"reportTime":"2026-04-18T23:00:00.000Z","temp":9.4,"dewp":-9.4,"wdir":300,"wspd":21,"wgst":28,"visib":"10+","altim":1017.4,"slp":1017.7,"qcField":4,"metarType":"METAR","rawOb":"METAR KALO 182254Z 30021G28KT 10SM FEW085 09/M09 A3004 RMK AO2 PK WND 29029/2217 SLP177 T00941094","lat":42.5544,"lon":-92.4013,"elev":264,"name":"Waterloo Rgnl, IA, US","cover":"FEW","clouds":[{"cover":"FEW","base":8500}],"fltCat":"VFR"},{"icaoId":"KSUS","receiptTime":"2026-04-18T22:58:17.603Z","obsTime":1776552840,"reportTime":"2026-04-18T23:00:00.000Z","temp":14.4,"dewp":-3.3,"wdir":330,"wspd":12,"visib":"10+","altim":1019.4,"slp":1019.1,"qcField":12,"metarType":"METAR","rawOb":"METAR KSUS 182254Z 33012KT 10SM CLR 14/M03 A3010 RMK AO2 SLP191 T01441033 $","lat":38.6575,"lon":-90.6557,"elev":140,"name":"St Louis/Spirit of St Louis Arpt, MO, US","cover":"CLR","clouds":[],"fltCat":"VFR"},{"icaoId":"KGCN","receiptTime":"2026-04-18T22:58:06.366Z","obsTime":1776552840,"reportTime":"2026-04-18T23:00:00.000Z","temp":15,"dewp":-19.4,"wdir":80,"wspd":14,"wgst":21,"visib":"10+","altim":1022.4,"slp":1017.6,"qcField":4,"metarType":"METAR","rawOb":"METAR KGCN 182254Z 08014G21KT 040V110 10SM CLR 15/M19 A3019 RMK AO2 SLP176 T01501194","lat":35.9458,"lon":-112.1554,"elev":1993,"name":"Grand Canyon Park Arpt, AZ, US","cover":"CLR","clouds":[],"fltCat":"VFR"},{"icaoId":"KSYR","receiptTime":"2026-04-18T22:58:17.622Z","obsTime":1776552840,"reportTime":"2026-04-18T23:00:00.000Z","temp":23.9,"dewp":11.1,"wdir":160,"wspd":18,"wgst":27,"visib":"10+","altim":1003.8,"slp":1003.3,"qcField":4,"wxString":"-RA","precip":0.005,"metarType":"METAR","rawOb":"METAR KSYR 182254Z 16018G27KT 10SM -RA FEW060 SCT075 BKN100 BKN240 24/11 A2964 RMK AO2 PK WND 16036/2234 RAB38 SLP033 PCPN VRY LGT P0000 T02390111","lat":43.1111,"lon":-76.1038,"elev":125,"name":"Syracuse/Hancock Intl, NY, US","cover":"BKN","clouds":[{"cover":"FEW","base":6000},{"cover":"SCT","base":7500},{"cover":"BKN","base":10000},{"cover":"BKN","base":24000}],"fltCat":"VFR"},{"icaoId":"KRST","receiptTime":"2026-04-18T22:58:08.406Z","obsTime":1776552840,"reportTime":"2026-04-18T23:00:00.000Z","temp":6.7,"dewp":-9.4,"wdir":290,"wspd":23,"wgst":32,"visib":"10+","altim":1016,"slp":1017.1,"qcField":4,"metarType":"METAR","rawOb":"METAR KRST 182254Z 29023G32KT 10SM FEW070 07/M09 A3000 RMK AO2 PK WND 28035/2228 SLP171 T00671094","lat":43.904,"lon":-92.4921,"elev":398,"name":"Rochester Intl, MN, US","cover":"FEW","clouds":[{"cover":"FEW","base":7000}],"fltCat":"VFR"},{"icaoId":"KGCK","receiptTime":"2026-04-18T22:58:07.881Z","obsTime":1776552840,"reportTime":"2026-04-18T23:00:00.000Z","temp":16.7,"dewp":-13.9,"wdir":310,"wspd":16,"wgst":24,"visib":"10+","altim":1022.4,"slp":1022.2,"qcField":4,"metarType":"METAR","rawOb":"METAR KGCK 182254Z 31016G24KT 290V350 10SM CLR 17/M14 A3019 RMK AO2 SLP222 T01671139","lat":37.9221,"lon":-100.723,"elev":877,"name":"Garden City Rgnl, KS, US","cover":"CLR","clouds":[],"fltCat":"VFR"},{"icaoId":"KRIC","receiptTime":"2026-04-18T22:58:17.483Z","obsTime":1776552840,"reportTime":"2026-04-18T23:00:00.000Z","temp":27.8,"dewp":13.9,"wdir":140,"wspd":12,"visib":"10+","altim":1010.2,"slp":1010.5,"qcField":12,"metarType":"METAR","rawOb":"METAR KRIC 182254Z 14012KT 10SM SCT080 BKN250 28/14 A2983 RMK AO2 SLP105 T02780139 $","lat":37.5115,"lon":-77.3234,"elev":51,"name":"Richmond Intl, VA, US","cover":"BKN","clouds":[{"cover":"SCT","base":8000},{"cover":"BKN","base":25000}],"fltCat":"VFR"},{"icaoId":"KDSM","receiptTime":"2026-04-18T22:58:17.318Z","obsTime":1776552840,"reportTime":"2026-04-18T23:00:00.000Z","temp":11.1,"dewp":-11.1,"wdir":280,"wspd":16,"wgst":26,"visib":"10+","altim":1019.7,"slp":1020.3,"qcField":12,"metarType":"METAR","rawOb":"METAR KDSM 182254Z 28016G26KT 10SM FEW080 11/M11 A3011 RMK AO2 PK WND 29037/2223 SLP203 T01111111 $","lat":41.5339,"lon":-93.6531,"elev":286,"name":"Des Moines Intl, IA, US","cover":"FEW","clouds":[{"cover":"FEW","base":8000}],"fltCat":"VFR"},{"icaoId":"KCOU","receiptTime":"2026-04-18T22:58:17.291Z","obsTime":1776552840,"reportTime":"2026-04-18T23:00:00.000Z","temp":13.3,"dewp":-2.8,"wdir":310,"wspd":12,"wgst":22,"visib":"10+","altim":1021.1,"slp":1021,"qcField":4,"metarType":"METAR","rawOb":"METAR KCOU 182254Z 31012G22KT 10SM CLR 13/M03 A3015 RMK AO2 PK WND 32028/2206 SLP210 T01331028","lat":38.8171,"lon":-92.2148,"elev":272,"name":"Columbia Rgnl, MO, US","cover":"CLR","clouds":[],"fltCat":"VFR"},{"icaoId":"KPHL","receiptTime":"2026-04-18T22:58:06.844Z","obsTime":1776552840,"reportTime":"2026-04-18T23:00:00.000Z","temp":18.9,"dewp":11.1,"wdir":120,"wspd":13,"visib":"10+","altim":1013.3,"slp":1013.1,"qcField":12,"metarType":"METAR","rawOb":"METAR KPHL 182254Z 12013KT 10SM BKN210 BKN300 19/11 A2992 RMK AO2 SLP131 T01890111 $","lat":39.8733,"lon":-75.2268,"elev":2,"name":"Philadelphia Intl, PA, US","cover":"BKN","clouds":[{"cover":"BKN","base":21000},{"cover":"BKN","base":30000}],"fltCat":"VFR"},{"icaoId":"KBTV","receiptTime":"2026-04-18T22:58:17.236Z","obsTime":1776552840,"reportTime":"2026-04-18T23:00:00.000Z","temp":20,"dewp":6.7,"wdir":150,"wspd":12,"wgst":25,"visib":"10+","altim":1008.5,"slp":1008.5,"qcField":4,"metarType":"METAR","rawOb":"METAR KBTV 182254Z 15012G25KT 10SM SCT070 BKN120 BKN150 20/07 A2978 RMK AO2 PK WND 15030/2213 SLP085 T02000067","lat":44.4682,"lon":-73.1499,"elev":101,"name":"Burlington Intl, VT, US","cover":"BKN","clouds":[{"cover":"SCT","base":7000},{"cover":"BKN","base":12000},{"cover":"BKN","base":15000}],"fltCat":"VFR"},{"icaoId":"KOLM","receiptTime":"2026-04-18T22:58:06.695Z","obsTime":1776552840,"reportTime":"2026-04-18T23:00:00.000Z","temp":21.7,"dewp":1.1,"wdir":140,"wspd":6,"visib":"10+","altim":1013.6,"slp":1013.5,"qcField":4,"metarType":"METAR","rawOb":"METAR KOLM 182254Z 14006KT 10SM CLR 22/01 A2993 RMK AO2 SLP135 T02170011","lat":46.9737,"lon":-122.9049,"elev":58,"name":"Olympia Rgnl, WA, US","cover":"CLR","clouds":[],"fltCat":"VFR"},{"icaoId":"KGSO","receiptTime":"2026-04-18T22:58:17.343Z","obsTime":1776552840,"reportTime":"2026-04-18T23:00:00.000Z","temp":28.9,"dewp":8.9,"wdir":230,"wspd":9,"visib":"10+","altim":1011.3,"slp":1010,"qcField":4,"metarType":"METAR","rawOb":"METAR KGSO 182254Z 23009KT 10SM SCT170 BKN250 29/09 A2986 RMK AO2 SLP100 T02890089","lat":36.0969,"lon":-79.9432,"elev":275,"name":"Greensboro Intl, NC, US","cover":"BKN","clouds":[{"cover":"SCT","base":17000},{"cover":"BKN","base":25000}],"fltCat":"VFR"},{"icaoId":"KCOS","receiptTime":"2026-04-18T22:58:17.277Z","obsTime":1776552840,"reportTime":"2026-04-18T23:00:00.000Z","temp":11.7,"dewp":-13.3,"wdir":130,"wspd":7,"visib":"10+","altim":1022.8,"slp":1023.7,"qcField":4,"metarType":"METAR","rawOb":"METAR KCOS 182254Z 13007KT 10SM FEW080 BKN220 12/M13 A3020 RMK AO2 SLP237 T01171133","lat":38.8095,"lon":-104.6887,"elev":1886,"name":"Colorado Spring Arpt, CO, US","cover":"BKN","clouds":[{"cover":"FEW","base":8000},{"cover":"BKN","base":22000}],"fltCat":"VFR"},{"icaoId":"KFFZ","receiptTime":"2026-04-18T22:58:06.193Z","obsTime":1776552840,"reportTime":"2026-04-18T23:00:00.000Z","temp":31.1,"dewp":-10,"wdir":210,"wspd":7,"visib":"10+","altim":1010.9,"slp":1008.7,"qcField":6,"metarType":"METAR","rawOb":"METAR KFFZ 182254Z AUTO 21007KT 10SM CLR 31/M10 A2985 RMK AO2 SLP087 T03111100","lat":33.4659,"lon":-111.7212,"elev":420,"name":"Mesa/Falcon Fld, AZ, US","cover":"CLR","clouds":[],"fltCat":"VFR"},{"icaoId":"KEUG","receiptTime":"2026-04-18T22:58:06.139Z","obsTime":1776552840,"reportTime":"2026-04-18T23:00:00.000Z","temp":20.6,"dewp":8.9,"wdir":340,"wspd":6,"visib":"10+","altim":1013,"slp":1012.8,"qcField":4,"metarType":"METAR","rawOb":"METAR KEUG 182254Z 34006KT 10SM SCT250 21/09 A2991 RMK AO2 SLP128 T02060089","lat":44.1331,"lon":-123.2156,"elev":109,"name":"Eugene/Mahlon Sweet Fld, OR, US","cover":"SCT","clouds":[{"cover":"SCT","base":25000}],"fltCat":"VFR"},{"icaoId":"KMOT","receiptTime":"2026-04-18T22:58:10.393Z","obsTime":1776552840,"reportTime":"2026-04-18T23:00:00.000Z","temp":7.2,"dewp":-7.2,"wdir":290,"wspd":21,"wgst":31,"visib":"10+","altim":1015,"slp":1017.2,"qcField":12,"metarType":"METAR","rawOb":"METAR KMOT 182254Z 29021G31KT 10SM BKN060 BKN070 07/M07 A2997 RMK AO2 PK WND 27036/2206 SLP172 T00721072 $","lat":48.252,"lon":-101.269,"elev":507,"name":"Minot Intl, ND, US","cover":"BKN","clouds":[{"cover":"BKN","base":6000},{"cover":"BKN","base":7000}],"fltCat":"VFR"},{"icaoId":"KOLS","receiptTime":"2026-04-18T22:58:06.712Z","obsTime":1776552840,"reportTime":"2026-04-18T23:00:00.000Z","temp":28.9,"dewp":-2.8,"wdir":180,"wspd":6,"visib":"10+","altim":1014,"slp":1008.3,"qcField":6,"metarType":"METAR","rawOb":"METAR KOLS 182254Z AUTO 18006KT 10SM SCT120 29/M03 A2994 RMK AO2 SLP083 T02891028","lat":31.4208,"lon":-110.8465,"elev":1194,"name":"Nogales Intl, AZ, US","cover":"SCT","clouds":[{"cover":"SCT","base":12000}],"fltCat":"VFR"},{"icaoId":"KSLC","receiptTime":"2026-04-18T22:58:07.327Z","obsTime":1776552840,"reportTime":"2026-04-18T23:00:00.000Z","temp":14.4,"dewp":-9.4,"wdir":"VRB","wspd":4,"visib":"10+","altim":1021.8,"slp":1020.7,"qcField":4,"metarType":"METAR","rawOb":"METAR KSLC 182254Z VRB04KT 10SM SCT140 SCT170 BKN250 14/M09 A3017 RMK AO2 SLP207 T01441094","lat":40.7707,"lon":-111.965,"elev":1286,"name":"Salt Lake City Intl, UT, US","cover":"BKN","clouds":[{"cover":"SCT","base":14000},{"cover":"SCT","base":17000},{"cover":"BKN","base":25000}],"fltCat":"VFR"},{"icaoId":"KLNK","receiptTime":"2026-04-18T22:58:09.969Z","obsTime":1776552840,"reportTime":"2026-04-18T23:00:00.000Z","temp":13.9,"dewp":-6.1,"wdir":300,"wspd":14,"wgst":25,"visib":"10+","altim":1021.1,"slp":1021.5,"qcField":4,"metarType":"METAR","rawOb":"METAR KLNK 182254Z 30014G25KT 10SM FEW060 SCT085 14/M06 A3015 RMK AO2 SLP215 T01391061","lat":40.8478,"lon":-96.7647,"elev":357,"name":"Lincoln Arpt, NE, US","cover":"SCT","clouds":[{"cover":"FEW","base":6000},{"cover":"SCT","base":8500}],"fltCat":"VFR"},{"icaoId":"KBUF","receiptTime":"2026-04-18T22:58:17.249Z","obsTime":1776552840,"reportTime":"2026-04-18T23:00:00.000Z","temp":13.3,"dewp":12.8,"wdir":230,"wspd":12,"visib":5,"altim":1005.8,"slp":1005.8,"qcField":12,"wxString":"RA BR","precip":0.29,"metarType":"METAR","rawOb":"METAR KBUF 182254Z 23012KT 5SM RA BR OVC003 13/13 A2970 RMK AO2 SLP058 P0029 T01330128 $","lat":42.94,"lon":-78.7361,"elev":217,"name":"Buffalo-Niagara Intl, NY, US","cover":"OVC","clouds":[{"cover":"OVC","base":300}],"fltCat":"LIFR"},{"icaoId":"KRKS","receiptTime":"2026-04-18T22:58:08.389Z","obsTime":1776552840,"reportTime":"2026-04-18T23:00:00.000Z","temp":10.6,"dewp":-16.1,"wdir":210,"wspd":10,"visib":"10+","altim":1023.1,"slp":1023.1,"qcField":6,"metarType":"METAR","rawOb":"METAR KRKS 182254Z AUTO 21010KT 10SM CLR 11/M16 A3021 RMK AO2 SLP231 T01061161","lat":41.5947,"lon":-109.0529,"elev":2062,"name":"Rock Springs/SW Wyoming Rgnl, WY, US","cover":"CLR","clouds":[],"fltCat":"VFR"},{"icaoId":"KIND","receiptTime":"2026-04-18T22:58:09.579Z","obsTime":1776552840,"reportTime":"2026-04-18T23:00:00.000Z","temp":10.6,"dewp":1.7,"wdir":300,"wspd":14,"wgst":21,"visib":"10+","altim":1016,"slp":1016,"qcField":4,"metarType":"METAR","rawOb":"METAR KIND 182254Z 30014G21KT 10SM FEW025 SCT085 BKN110 BKN250 11/02 A3000 RMK AO2 SLP160 T01060017","lat":39.7252,"lon":-86.2816,"elev":242,"name":"Indianapolis Intl, IN, US","cover":"BKN","clouds":[{"cover":"FEW","base":2500},{"cover":"SCT","base":8500},{"cover":"BKN","base":11000},{"cover":"BKN","base":25000}],"fltCat":"VFR"},{"icaoId":"KMEM","receiptTime":"2026-04-18T22:58:10.205Z","obsTime":1776552840,"reportTime":"2026-04-18T23:00:00.000Z","temp":10,"dewp":8.3,"wdir":20,"wspd":9,"wgst":17,"visib":7,"altim":1019.4,"slp":1019,"qcField":12,"metarType":"METAR","rawOb":"METAR KMEM 182254Z 02009G17KT 7SM BKN015 OVC035 10/08 A3010 RMK AO2 SLP190 T01000083 $","lat":35.0564,"lon":-89.9864,"elev":78,"name":"Memphis Intl, TN, US","cover":"OVC","clouds":[{"cover":"BKN","base":1500},{"cover":"OVC","base":3500}],"fltCat":"MVFR"},{"icaoId":"KBFL","receiptTime":"2026-04-18T22:58:09.162Z","obsTime":1776552840,"reportTime":"2026-04-18T23:00:00.000Z","temp":29.4,"dewp":-5,"wdir":300,"wspd":9,"wgst":16,"visib":"10+","altim":1011.9,"slp":1011.3,"qcField":12,"metarType":"METAR","rawOb":"METAR KBFL 182254Z 30009G16KT 10SM CLR 29/M05 A2988 RMK AO2 SLP113 T02941050 $","lat":35.4342,"lon":-119.0552,"elev":146,"name":"Bakersfield/Meadows Arpt, CA, US","cover":"CLR","clouds":[],"fltCat":"VFR"},{"icaoId":"KBWI","receiptTime":"2026-04-18T22:58:09.275Z","obsTime":1776552840,"reportTime":"2026-04-18T23:00:00.000Z","temp":19.4,"dewp":13.3,"wdir":90,"wspd":12,"visib":"10+","altim":1011.6,"slp":1011.3,"qcField":4,"metarType":"METAR","rawOb":"METAR KBWI 182254Z 09012KT 10SM SCT220 BKN250 19/13 A2987 RMK AO2 SLP113 T01940133","lat":39.1733,"lon":-76.684,"elev":42,"name":"Baltimore-Washington Intl, MD, US","cover":"BKN","clouds":[{"cover":"SCT","base":22000},{"cover":"BKN","base":25000}],"fltCat":"VFR"},{"icaoId":"KBOS","receiptTime":"2026-04-18T22:58:09.193Z","obsTime":1776552840,"reportTime":"2026-04-18T23:00:00.000Z","temp":6.7,"dewp":6.1,"wdir":60,"wspd":9,"visib":1.5,"altim":1017.7,"slp":1017.5,"qcField":4,"wxString":"BR","metarType":"METAR","rawOb":"METAR KBOS 182254Z 06009KT 1 1/2SM BR OVC003 07/06 A3005 RMK AO2 TWR VIS 2 SLP175 T00670061","lat":42.3606,"lon":-71.0097,"elev":4,"name":"Boston/Logan Intl, MA, US","cover":"OVC","clouds":[{"cover":"OVC","base":300}],"fltCat":"LIFR"},{"icaoId":"KINL","receiptTime":"2026-04-18T22:58:17.356Z","obsTime":1776552840,"reportTime":"2026-04-18T23:00:00.000Z","temp":0,"dewp":-11.1,"wdir":290,"wspd":16,"wgst":28,"visib":"10+","altim":1009.9,"slp":1011.9,"qcField":14,"metarType":"METAR","rawOb":"METAR KINL 182254Z AUTO 29016G28KT 10SM BKN050 OVC060 00/M11 A2982 RMK AO2 PK WND 30032/2237 SLP119 T00001111 $","lat":48.5594,"lon":-93.3955,"elev":353,"name":"International Falls/Einarson Fld, MN, US","cover":"OVC","clouds":[{"cover":"BKN","base":5000},{"cover":"OVC","base":6000}],"fltCat":"VFR"},{"icaoId":"KJLN","receiptTime":"2026-04-18T22:58:17.368Z","obsTime":1776552780,"reportTime":"2026-04-18T23:00:00.000Z","temp":14.4,"dewp":-2.2,"wdir":340,"wspd":11,"visib":"10+","altim":1023.1,"slp":1023.1,"qcField":5,"metarType":"METAR","rawOb":"METAR KJLN 182253Z COR 34011KT 10SM CLR 14/M02 A3021 RMK AO2 SLP231 T01441022","lat":37.1522,"lon":-94.4952,"elev":297,"name":"Joplin Rgnl, MO, US","cover":"CLR","clouds":[],"fltCat":"VFR"},{"icaoId":"KMYR","receiptTime":"2026-04-18T22:56:26.523Z","obsTime":1776552780,"reportTime":"2026-04-18T23:00:00.000Z","temp":22.2,"dewp":18.3,"wdir":180,"wspd":12,"visib":"10+","altim":1014.3,"slp":1014.1,"qcField":12,"metarType":"METAR","rawOb":"METAR KMYR 182253Z 18012KT 10SM CLR 22/18 A2995 RMK AO2 SLP141 T02220183 $","lat":33.6769,"lon":-78.9325,"elev":7,"name":"Myrtle Beach Intl, SC, US","cover":"CLR","clouds":[],"fltCat":"VFR"},{"icaoId":"KSWO","receiptTime":"2026-04-18T22:56:26.751Z","obsTime":1776552780,"reportTime":"2026-04-18T23:00:00.000Z","temp":16.7,"dewp":-1.7,"wdir":50,"wspd":8,"visib":"10+","altim":1023.8,"slp":1023.4,"qcField":4,"metarType":"METAR","rawOb":"METAR KSWO 182253Z 05008KT 10SM CLR 17/M02 A3023 RMK AO2 SLP234 T01671017","lat":36.1624,"lon":-97.0832,"elev":293,"name":"Stillwater Muni, OK, US","cover":"CLR","clouds":[],"fltCat":"VFR"},{"icaoId":"KCGI","receiptTime":"2026-04-18T22:56:22.614Z","obsTime":1776552780,"reportTime":"2026-04-18T23:00:00.000Z","temp":12.8,"dewp":3.9,"wdir":350,"wspd":8,"visib":"10+","altim":1019,"slp":1018.6,"qcField":6,"metarType":"METAR","rawOb":"METAR KCGI 182253Z AUTO 35008KT 10SM FEW075 SCT110 13/04 A3009 RMK AO2 SLP186 T01280039","lat":37.2254,"lon":-89.5785,"elev":103,"name":"Cape Girardeau Rgnl, MO, US","cover":"SCT","clouds":[{"cover":"FEW","base":7500},{"cover":"SCT","base":11000}],"fltCat":"VFR"},{"icaoId":"KPUB","receiptTime":"2026-04-18T22:56:19.232Z","obsTime":1776552780,"reportTime":"2026-04-18T23:00:00.000Z","temp":17.2,"dewp":-15,"wdir":120,"wspd":5,"visib":"10+","altim":1021.4,"slp":1020.5,"qcField":12,"metarType":"METAR","rawOb":"METAR KPUB 182253Z 12005KT 10SM CLR 17/M15 A3016 RMK AO2 SLP205 T01721150 $","lat":38.2887,"lon":-104.5057,"elev":1441,"name":"Pueblo Mem Arpt, CO, US","cover":"CLR","clouds":[],"fltCat":"VFR"},{"icaoId":"KPUW","receiptTime":"2026-04-18T22:56:27.307Z","obsTime":1776552780,"reportTime":"2026-04-18T23:00:00.000Z","temp":15.6,"dewp":-1.1,"wdir":90,"wspd":7,"visib":"10+","altim":1018.7,"slp":1019.2,"qcField":6,"metarType":"METAR","rawOb":"METAR KPUW 182253Z AUTO 09007KT 10SM CLR 16/M01 A3008 RMK AO2 SLP192 T01561011","lat":46.7438,"lon":-117.1158,"elev":774,"name":"Pullman/Moscow Rgnl, WA, US","cover":"CLR","clouds":[],"fltCat":"VFR"},{"icaoId":"KEVW","receiptTime":"2026-04-18T22:56:25.326Z","obsTime":1776552780,"reportTime":"2026-04-18T23:00:00.000Z","temp":10.6,"dewp":-16.7,"wdir":230,"wspd":9,"wgst":15,"visib":"10+","altim":1023.1,"slp":1022,"qcField":14,"metarType":"METAR","rawOb":"METAR KEVW 182253Z AUTO 23009G15KT 10SM CLR 11/M17 A3021 RMK AO2 SLP220 T01061167 $","lat":41.2727,"lon":-111.0305,"elev":2178,"name":"Evanston/Uinta Cnty, WY, US","cover":"CLR","clouds":[],"fltCat":"VFR"},{"icaoId":"KGEG","receiptTime":"2026-04-18T22:56:19.929Z","obsTime":1776552780,"reportTime":"2026-04-18T23:00:00.000Z","temp":15.6,"dewp":-3.9,"wdir":240,"wspd":4,"visib":"10+","altim":1018,"slp":1018.5,"qcField":12,"metarType":"METAR","rawOb":"METAR KGEG 182253Z 24004KT 10SM FEW090 FEW160 SCT260 16/M04 A3006 RMK AO2 SLP185 T01561039 $","lat":47.6217,"lon":-117.528,"elev":718,"name":"Spokane Intl, WA, US","cover":"SCT","clouds":[{"cover":"FEW","base":9000},{"cover":"FEW","base":16000},{"cover":"SCT","base":26000}],"fltCat":"VFR"},{"icaoId":"KLIT","receiptTime":"2026-04-18T22:56:20.053Z","obsTime":1776552780,"reportTime":"2026-04-18T23:00:00.000Z","temp":12.2,"dewp":8.3,"wdir":20,"wspd":7,"visib":"10+","altim":1020.7,"slp":1020.9,"qcField":4,"metarType":"METAR","rawOb":"METAR KLIT 182253Z 02007KT 10SM BKN055 12/08 A3014 RMK AO2 SLP209 T01220083","lat":34.7273,"lon":-92.2358,"elev":77,"name":"Little Rock/Clinton Natl, AR, US","cover":"BKN","clouds":[{"cover":"BKN","base":5500}],"fltCat":"VFR"},{"icaoId":"KMFE","receiptTime":"2026-04-18T22:56:20.323Z","obsTime":1776552780,"reportTime":"2026-04-18T23:00:00.000Z","temp":30.6,"dewp":21.1,"wdir":90,"wspd":8,"visib":"10+","altim":1011.6,"slp":1011.3,"qcField":4,"metarType":"METAR","rawOb":"METAR KMFE 182253Z 09008KT 10SM CLR 31/21 A2987 RMK AO2 SLP113 T03060211","lat":26.1791,"lon":-98.2445,"elev":29,"name":"McAllen/Miller Intl, TX, US","cover":"CLR","clouds":[],"fltCat":"VFR"},{"icaoId":"KMLS","receiptTime":"2026-04-18T22:56:20.488Z","obsTime":1776552780,"reportTime":"2026-04-18T23:00:00.000Z","temp":12.8,"dewp":-6.1,"wdir":320,"wspd":20,"wgst":30,"visib":"10+","altim":1017,"slp":1018.6,"qcField":6,"metarType":"METAR","rawOb":"METAR KMLS 182253Z AUTO 32020G30KT 10SM OVC090 13/M06 A3003 RMK AO2 PK WND 29031/2218 SLP186 T01281061","lat":46.4265,"lon":-105.8834,"elev":800,"name":"Miles City/Wiley Fld, MT, US","cover":"OVC","clouds":[{"cover":"OVC","base":9000}],"fltCat":"VFR"},{"icaoId":"KMOD","receiptTime":"2026-04-18T22:56:20.546Z","obsTime":1776552780,"reportTime":"2026-04-18T23:00:00.000Z","temp":26.1,"dewp":2.2,"visib":"10+","altim":1013,"slp":1012.7,"qcField":4,"metarType":"METAR","rawOb":"METAR KMOD 182253Z 10SM CLR 26/02 A2991 RMK AO2 SLP127 T02610022","lat":37.6254,"lon":-120.9549,"elev":25,"name":"Modesto/Sham Fld, CA, US","cover":"CLR","clouds":[],"fltCat":"VFR"},{"icaoId":"KOAK","receiptTime":"2026-04-18T22:56:20.719Z","obsTime":1776552780,"reportTime":"2026-04-18T23:00:00.000Z","temp":22.8,"dewp":8.3,"wdir":270,"wspd":11,"visib":"10+","altim":1014,"slp":1013.9,"qcField":12,"metarType":"METAR","rawOb":"METAR KOAK 182253Z 27011KT 10SM FEW180 BKN250 23/08 A2994 RMK AO2 SLP139 T02280083 $","lat":37.7178,"lon":-122.233,"elev":3,"name":"Oakland Intl, CA, US","cover":"BKN","clouds":[{"cover":"FEW","base":18000},{"cover":"BKN","base":25000}],"fltCat":"VFR"},{"icaoId":"KOGD","receiptTime":"2026-04-18T22:56:20.753Z","obsTime":1776552780,"reportTime":"2026-04-18T23:00:00.000Z","temp":12.8,"dewp":-7.8,"wdir":280,"wspd":5,"visib":"10+","altim":1022.4,"slp":1021.3,"qcField":4,"metarType":"METAR","rawOb":"METAR KOGD 182253Z 28005KT 10SM CLR 13/M08 A3019 RMK AO2 SLP213 T01281078","lat":41.1941,"lon":-112.0168,"elev":1356,"name":"Ogden/Hinckley Arpt, UT, US","cover":"CLR","clouds":[],"fltCat":"VFR"},{"icaoId":"KGTF","receiptTime":"2026-04-18T22:56:21.260Z","obsTime":1776552780,"reportTime":"2026-04-18T23:00:00.000Z","temp":16.1,"dewp":-7.2,"wdir":260,"wspd":11,"wgst":20,"visib":"10+","altim":1017,"slp":1018.2,"qcField":12,"metarType":"METAR","rawOb":"METAR KGTF 182253Z 26011G20KT 10SM CLR 16/M07 A3003 RMK AO2 SLP182 T01611072 $","lat":47.4733,"lon":-111.3828,"elev":1117,"name":"Great Falls Intl, MT, US","cover":"CLR","clouds":[],"fltCat":"VFR"},{"icaoId":"KHIO","receiptTime":"2026-04-18T22:56:21.421Z","obsTime":1776552780,"reportTime":"2026-04-18T23:00:00.000Z","temp":21.1,"dewp":2.2,"wdir":"VRB","wspd":3,"visib":"10+","altim":1013.3,"slp":1013.3,"qcField":4,"metarType":"METAR","rawOb":"METAR KHIO 182253Z VRB03KT 10SM CLR 21/02 A2992 RMK AO2 SLP133 T02110022","lat":45.5476,"lon":-122.9557,"elev":62,"name":"Portland/Hillsboro Arpt, OR, US","cover":"CLR","clouds":[],"fltCat":"VFR"},{"icaoId":"KHLN","receiptTime":"2026-04-18T22:56:21.490Z","obsTime":1776552780,"reportTime":"2026-04-18T23:00:00.000Z","temp":15,"dewp":-6.1,"wdir":110,"wspd":7,"wgst":18,"visib":"10+","altim":1018,"slp":1019.9,"qcField":4,"metarType":"METAR","rawOb":"METAR KHLN 182253Z 11007G18KT 10SM CLR 15/M06 A3006 RMK AO2 SLP199 T01501061","lat":46.6045,"lon":-111.9892,"elev":1178,"name":"Helena Rgnl, MT, US","cover":"CLR","clouds":[],"fltCat":"VFR"},{"icaoId":"KHOT","receiptTime":"2026-04-18T22:56:21.501Z","obsTime":1776552780,"reportTime":"2026-04-18T23:00:00.000Z","temp":15,"dewp":6.7,"wdir":360,"wspd":6,"visib":"10+","altim":1020.7,"slp":1020.2,"qcField":6,"metarType":"METAR","rawOb":"METAR KHOT 182253Z AUTO 36006KT 10SM FEW090 15/07 A3014 RMK AO2 SLP202 T01500067","lat":34.4755,"lon":-93.1041,"elev":153,"name":"Hot Springs Mem, AR, US","cover":"FEW","clouds":[{"cover":"FEW","base":9000}],"fltCat":"VFR"},{"icaoId":"KHOU","receiptTime":"2026-04-18T22:56:21.512Z","obsTime":1776552780,"reportTime":"2026-04-18T23:00:00.000Z","temp":21.1,"dewp":20,"wdir":100,"wspd":8,"visib":7,"altim":1015,"slp":1015.4,"qcField":12,"wxString":"-RA","metarType":"METAR","rawOb":"METAR KHOU 182253Z 10008KT 7SM -RA FEW012 SCT040 OVC070 21/20 A2997 RMK AO2 TSE2159B00E19 SLP154 CB DSNT NW AND E MOV E T02110200 PNO $","lat":29.6458,"lon":-95.2821,"elev":13,"name":"Houston/Hobby Arpt, TX, US","cover":"OVC","clouds":[{"cover":"FEW","base":1200},{"cover":"SCT","base":4000},{"cover":"OVC","base":7000}],"fltCat":"VFR"},{"icaoId":"KICR","receiptTime":"2026-04-18T22:56:21.654Z","obsTime":1776552780,"reportTime":"2026-04-18T23:00:00.000Z","temp":9.4,"dewp":-11.1,"wdir":300,"wspd":13,"wgst":23,"visib":"10+","altim":1019.7,"slp":1021.2,"qcField":6,"metarType":"METAR","rawOb":"METAR KICR 182253Z AUTO 30013G23KT 10SM SCT110 09/M11 A3011 RMK AO2 PK WND 31034/2215 SLP212 T00941111","lat":43.391,"lon":-99.8462,"elev":618,"name":"Winner/Wiley Fld, SD, US","cover":"SCT","clouds":[{"cover":"SCT","base":11000}],"fltCat":"VFR"},{"icaoId":"KAMA","receiptTime":"2026-04-18T22:56:22.249Z","obsTime":1776552780,"reportTime":"2026-04-18T23:00:00.000Z","temp":16.1,"dewp":-10.6,"wdir":50,"wspd":8,"visib":"10+","altim":1024.5,"slp":1022.9,"qcField":4,"metarType":"METAR","rawOb":"METAR KAMA 182253Z 05008KT 020V080 10SM CLR 16/M11 A3025 RMK AO2 SLP229 T01611106","lat":35.2203,"lon":-101.7173,"elev":1102,"name":"Amarillo Intl Arpt, TX, US","cover":"CLR","clouds":[],"fltCat":"VFR"},{"icaoId":"KBPK","receiptTime":"2026-04-18T22:56:25.421Z","obsTime":1776552780,"reportTime":"2026-04-18T23:00:00.000Z","temp":13.3,"dewp":-2.2,"wdir":"VRB","wspd":4,"visib":"10+","altim":1021.1,"slp":1020.7,"qcField":142,"metarType":"METAR","rawOb":"METAR KBPK 182253Z AUTO VRB04KT 10SM CLR 13/M02 A3015 RMK AO2 SLP207 T01331022 PWINO $","lat":36.3706,"lon":-92.4719,"elev":279,"name":"Mountain Home/Baxter Cnty, AR, US","cover":"CLR","clouds":[],"fltCat":"VFR"},{"icaoId":"KRTN","receiptTime":"2026-04-18T22:56:23.361Z","obsTime":1776552780,"reportTime":"2026-04-18T23:00:00.000Z","temp":13.3,"dewp":-14.4,"wdir":0,"wspd":0,"visib":"10+","altim":1023.1,"slp":1022,"qcField":6,"metarType":"METAR","rawOb":"METAR KRTN 182253Z AUTO 00000KT 10SM CLR 13/M14 A3021 RMK AO2 SLP220 T01331144","lat":36.7418,"lon":-104.5076,"elev":1939,"name":"Raton/Crews Fld, NM, US","cover":"CLR","clouds":[],"fltCat":"VFR"},{"icaoId":"KTXK","receiptTime":"2026-04-18T22:56:28.217Z","obsTime":1776552780,"reportTime":"2026-04-18T23:00:00.000Z","temp":12.8,"dewp":11.7,"wdir":10,"wspd":3,"visib":"10+","altim":1021.8,"slp":1021.2,"qcField":12,"wxString":"-RA","precip":0.06,"metarType":"METAR","rawOb":"METAR KTXK 182253Z 01003KT 10SM -RA OVC035 13/12 A3017 RMK AO2 SLP212 P0006 T01280117 $","lat":33.456,"lon":-93.9878,"elev":118,"name":"Texarkana Rgnl, AR, US","cover":"OVC","clouds":[{"cover":"OVC","base":3500}],"fltCat":"VFR"},{"icaoId":"KFSM","receiptTime":"2026-04-18T22:56:23.919Z","obsTime":1776552780,"reportTime":"2026-04-18T23:00:00.000Z","temp":16.7,"dewp":0,"wdir":330,"wspd":8,"visib":"10+","altim":1022.4,"slp":1022.1,"qcField":4,"metarType":"METAR","rawOb":"METAR KFSM 182253Z 33008KT 10SM CLR 17/00 A3019 RMK AO2 SLP221 T01670000","lat":35.3335,"lon":-94.3653,"elev":136,"name":"Fort Smith Rgnl, AR, US","cover":"CLR","clouds":[],"fltCat":"VFR"},{"icaoId":"KFUL","receiptTime":"2026-04-18T22:56:23.963Z","obsTime":1776552780,"reportTime":"2026-04-18T23:00:00.000Z","temp":27.2,"dewp":3.3,"wdir":230,"wspd":8,"visib":"10+","altim":1011.9,"slp":1011.8,"qcField":4,"metarType":"METAR","rawOb":"METAR KFUL 182253Z 23008KT 210V270 10SM CLR 27/03 A2988 RMK AO2 SLP118 T02720033","lat":33.8715,"lon":-117.9856,"elev":23,"name":"Fullerton Muni, CA, US","cover":"CLR","clouds":[],"fltCat":"VFR"},{"icaoId":"KBFF","receiptTime":"2026-04-18T22:56:24.558Z","obsTime":1776552780,"reportTime":"2026-04-18T23:00:00.000Z","temp":13.9,"dewp":-13.9,"wdir":290,"wspd":12,"wgst":21,"visib":"10+","altim":1020.1,"slp":1020.4,"qcField":6,"precip":0.005,"metarType":"METAR","rawOb":"METAR KBFF 182253Z AUTO 29012G21KT 10SM CLR 14/M14 A3012 RMK AO2 PK WND 29028/2159 RAB02E11 SLP204 P0000 T01391139","lat":41.8747,"lon":-103.6011,"elev":1204,"name":"Scottsbluff/Western Nebraska Rgnl, NE, US","cover":"CLR","clouds":[],"fltCat":"VFR"},{"icaoId":"KBTR","receiptTime":"2026-04-18T22:56:24.595Z","obsTime":1776552780,"reportTime":"2026-04-18T23:00:00.000Z","temp":27.8,"dewp":18.3,"wdir":0,"wspd":0,"visib":"10+","altim":1014.3,"slp":1014.1,"qcField":12,"metarType":"METAR","rawOb":"METAR KBTR 182253Z 00000KT 10SM CLR 28/18 A2995 RMK AO2 SLP141 T02780183 $","lat":30.5378,"lon":-91.1468,"elev":20,"name":"Baton Rouge/Ryan Fld, LA, US","cover":"CLR","clouds":[],"fltCat":"VFR"},{"icaoId":"KCLL","receiptTime":"2026-04-18T22:56:24.630Z","obsTime":1776552780,"reportTime":"2026-04-18T23:00:00.000Z","temp":14.4,"dewp":9.4,"wdir":350,"wspd":19,"wgst":28,"visib":"10+","altim":1019.4,"slp":1018.9,"qcField":4,"wxString":"-RA","precip":0.005,"metarType":"METAR","rawOb":"METAR KCLL 182253Z 35019G28KT 10SM -RA BKN021 OVC027 14/09 A3010 RMK AO2 PK WND 35028/2248 SLP189 P0000 T01440094","lat":30.5912,"lon":-96.3631,"elev":96,"name":"College Station/Easterwood Arpt, TX, US","cover":"OVC","clouds":[{"cover":"BKN","base":2100},{"cover":"OVC","base":2700}],"fltCat":"MVFR"},{"icaoId":"KCNY","receiptTime":"2026-04-18T22:56:24.642Z","obsTime":1776552780,"reportTime":"2026-04-18T23:00:00.000Z","temp":14.4,"dewp":-15,"wdir":70,"wspd":6,"visib":"10+","altim":1023.5,"slp":1022.4,"qcField":14,"metarType":"METAR","rawOb":"METAR KCNY 182253Z AUTO 07006KT 10SM CLR 14/M15 A3022 RMK AO2 SLP224 T01441150 $","lat":38.7501,"lon":-109.7627,"elev":1392,"name":"Moab/Canyonland Fld, UT, US","cover":"CLR","clouds":[],"fltCat":"VFR"},{"icaoId":"KDAL","receiptTime":"2026-04-18T22:56:24.687Z","obsTime":1776552780,"reportTime":"2026-04-18T23:00:00.000Z","temp":15,"dewp":3.9,"wdir":20,"wspd":6,"visib":"10+","altim":1022.1,"slp":1021.5,"qcField":4,"metarType":"METAR","rawOb":"METAR KDAL 182253Z 02006KT 10SM FEW100 FEW120 BKN140 BKN250 15/04 A3018 RMK AO2 SLP215 T01500039","lat":32.8384,"lon":-96.8358,"elev":148,"name":"Dallas/Love Fld, TX, US","cover":"BKN","clouds":[{"cover":"FEW","base":10000},{"cover":"FEW","base":12000},{"cover":"BKN","base":14000},{"cover":"BKN","base":25000}],"fltCat":"VFR"},{"icaoId":"KCYS","receiptTime":"2026-04-18T22:56:24.932Z","obsTime":1776552780,"reportTime":"2026-04-18T23:00:00.000Z","temp":10.6,"dewp":-17.2,"wdir":320,"wspd":18,"wgst":27,"visib":"10+","altim":1021.1,"slp":1020.7,"qcField":4,"metarType":"METAR","rawOb":"METAR KCYS 182253Z 32018G27KT 10SM CLR 11/M17 A3015 RMK AO2 PK WND 33031/2234 SLP207 T01061172","lat":41.1579,"lon":-104.8081,"elev":1868,"name":"Cheyenne Rgnl, WY, US","cover":"CLR","clouds":[],"fltCat":"VFR"},{"icaoId":"KDBQ","receiptTime":"2026-04-18T22:56:24.755Z","obsTime":1776552780,"reportTime":"2026-04-18T23:00:00.000Z","temp":6.7,"dewp":-4.4,"wdir":290,"wspd":17,"wgst":30,"visib":"10+","altim":1016.7,"slp":1017.4,"qcField":4,"metarType":"METAR","rawOb":"METAR KDBQ 182253Z 29017G30KT 10SM CLR 07/M04 A3002 RMK AO2 PK WND 28031/2205 SLP174 T00671044","lat":42.3984,"lon":-90.7091,"elev":317,"name":"Dubuque Rgnl, IA, US","cover":"CLR","clouds":[],"fltCat":"VFR"},{"icaoId":"KFAR","receiptTime":"2026-04-18T22:56:24.814Z","obsTime":1776552780,"reportTime":"2026-04-18T23:00:00.000Z","temp":6.1,"dewp":-7.8,"wdir":290,"wspd":20,"wgst":28,"visib":"10+","altim":1015,"slp":1015.9,"qcField":12,"metarType":"METAR","rawOb":"METAR KFAR 182253Z 29020G28KT 10SM BKN060 BKN070 BKN085 06/M08 A2997 RMK AO2 PK WND 29031/2236 SLP159 T00611078 $","lat":46.9242,"lon":-96.8119,"elev":276,"name":"Fargo/Hector Intl, ND, US","cover":"BKN","clouds":[{"cover":"BKN","base":6000},{"cover":"BKN","base":7000},{"cover":"BKN","base":8500}],"fltCat":"VFR"},{"icaoId":"KFOE","receiptTime":"2026-04-18T22:56:24.838Z","obsTime":1776552780,"reportTime":"2026-04-18T23:00:00.000Z","temp":15.6,"dewp":-3.9,"wdir":280,"wspd":14,"wgst":21,"visib":"10+","altim":1021.4,"slp":1021.2,"qcField":12,"metarType":"METAR","rawOb":"METAR KFOE 182253Z 28014G21KT 10SM SCT095 16/M04 A3016 RMK AO2 SLP212 T01561039 $","lat":38.9414,"lon":-95.6513,"elev":315,"name":"Topeka/Forbes Fld, KS, US","cover":"SCT","clouds":[{"cover":"SCT","base":9500}],"fltCat":"VFR"},{"icaoId":"KGFK","receiptTime":"2026-04-18T22:56:24.861Z","obsTime":1776552780,"reportTime":"2026-04-18T23:00:00.000Z","temp":4.4,"dewp":-6.7,"wdir":330,"wspd":18,"visib":"10+","altim":1014,"slp":1015,"qcField":12,"wxString":"-SN","precip":0.005,"metarType":"METAR","rawOb":"METAR KGFK 182253Z 33018KT 10SM -SN SCT050 BKN065 BKN080 04/M07 A2994 RMK AO2 PK WND 30027/2223 SNB51 SLP150 P0000 T00441067 $","lat":47.9428,"lon":-97.1829,"elev":256,"name":"Grand Forks Intl, ND, US","cover":"BKN","clouds":[{"cover":"SCT","base":5000},{"cover":"BKN","base":6500},{"cover":"BKN","base":8000}],"fltCat":"VFR"},{"icaoId":"KGJT","receiptTime":"2026-04-18T22:56:24.872Z","obsTime":1776552780,"reportTime":"2026-04-18T23:00:00.000Z","temp":12.8,"dewp":-11.7,"wdir":0,"wspd":0,"visib":"10+","altim":1024.1,"slp":1023.2,"qcField":4,"metarType":"METAR","rawOb":"METAR KGJT 182253Z 00000KT 10SM CLR 13/M12 A3024 RMK AO2 SLP232 T01281117","lat":39.1344,"lon":-108.5408,"elev":1475,"name":"Grand Junction Rgnl, CO, US","cover":"CLR","clouds":[],"fltCat":"VFR"},{"icaoId":"KDEN","receiptTime":"2026-04-18T22:56:24.966Z","obsTime":1776552780,"reportTime":"2026-04-18T23:00:00.000Z","temp":12.2,"dewp":-14.4,"wdir":"VRB","wspd":3,"visib":"10+","altim":1021.4,"slp":1020.6,"qcField":12,"metarType":"METAR","rawOb":"METAR KDEN 182253Z VRB03KT 10SM CLR 12/M14 A3016 RMK AO2 SLP206 T01221144 $","lat":39.8466,"lon":-104.6562,"elev":1656,"name":"Denver Intl, CO, US","cover":"CLR","clouds":[],"fltCat":"VFR"},{"icaoId":"KELD","receiptTime":"2026-04-18T22:56:25.254Z","obsTime":1776552780,"reportTime":"2026-04-18T23:00:00.000Z","temp":12.2,"dewp":11.1,"wdir":330,"wspd":12,"visib":"10+","altim":1020.7,"slp":1020.5,"qcField":6,"wxString":"-RA","precip":0.01,"metarType":"METAR","rawOb":"METAR KELD 182253Z AUTO 33012KT 10SM -RA BKN009 OVC029 12/11 A3014 RMK AO2 CIG 006V013 SLP205 P0001 T01220111","lat":33.2207,"lon":-92.814,"elev":76,"name":"El Dorado/S Arkansas Rgnl, AR, US","cover":"OVC","clouds":[{"cover":"BKN","base":900},{"cover":"OVC","base":2900}],"fltCat":"IFR"},{"icaoId":"KBOI","receiptTime":"2026-04-18T22:56:25.399Z","obsTime":1776552780,"reportTime":"2026-04-18T23:00:00.000Z","temp":17.2,"dewp":-6.1,"wdir":130,"wspd":10,"visib":"10+","altim":1019,"slp":1018.6,"qcField":4,"metarType":"METAR","rawOb":"METAR KBOI 182253Z 13010KT 10SM CLR 17/M06 A3009 RMK AO2 SLP186 T01721061","lat":43.567,"lon":-116.2406,"elev":860,"name":"Boise Arpt, ID, US","cover":"CLR","clouds":[],"fltCat":"VFR"},{"icaoId":"KBRD","receiptTime":"2026-04-18T22:56:25.447Z","obsTime":1776552780,"reportTime":"2026-04-18T23:00:00.000Z","temp":5,"dewp":-12.8,"wdir":300,"wspd":18,"wgst":29,"visib":"10+","altim":1013.3,"slp":1014.5,"qcField":14,"metarType":"METAR","rawOb":"METAR KBRD 182253Z AUTO 30018G29KT 10SM FEW075 05/M13 A2992 RMK AO2 PK WND 30032/2217 SLP145 T00501128 $","lat":46.4021,"lon":-94.1273,"elev":372,"name":"Brainerd/Lakes Rgnl, MN, US","cover":"FEW","clouds":[{"cover":"FEW","base":7500}],"fltCat":"VFR"},{"icaoId":"KBRL","receiptTime":"2026-04-18T22:56:25.462Z","obsTime":1776552780,"reportTime":"2026-04-18T23:00:00.000Z","temp":10.6,"dewp":-5,"wdir":320,"wspd":12,"wgst":27,"visib":"10+","altim":1019,"slp":1019.2,"qcField":14,"metarType":"METAR","rawOb":"METAR KBRL 182253Z AUTO 32012G27KT 10SM CLR 11/M05 A3009 RMK AO2 PK WND 32028/2200 SLP192 T01061050 $","lat":40.7729,"lon":-91.1255,"elev":208,"name":"Burlington/SE Iowa Rgnl, IA, US","cover":"CLR","clouds":[],"fltCat":"VFR"},{"icaoId":"KBUR","receiptTime":"2026-04-18T22:56:25.521Z","obsTime":1776552780,"reportTime":"2026-04-18T23:00:00.000Z","temp":27.8,"dewp":2.2,"wdir":200,"wspd":11,"wgst":16,"visib":"10+","altim":1012.6,"slp":1011.4,"qcField":4,"metarType":"METAR","rawOb":"METAR KBUR 182253Z 20011G16KT 10SM CLR 28/02 A2990 RMK AO2 SLP114 T02780022","lat":34.1996,"lon":-118.3654,"elev":221,"name":"Burbank/Bob Hope Arpt, CA, US","cover":"CLR","clouds":[],"fltCat":"VFR"},{"icaoId":"KCNM","receiptTime":"2026-04-18T22:56:25.755Z","obsTime":1776552780,"reportTime":"2026-04-18T23:00:00.000Z","temp":20.6,"dewp":-7.2,"wdir":50,"wspd":5,"visib":"10+","altim":1023.1,"slp":1019.8,"qcField":6,"metarType":"METAR","rawOb":"METAR KCNM 182253Z AUTO 05005KT 10SM CLR 21/M07 A3021 RMK AO2 SLP198 T02061072","lat":32.3336,"lon":-104.2584,"elev":993,"name":"Carlsbad/Cavern City Air Term, NM, US","cover":"CLR","clouds":[],"fltCat":"VFR"},{"icaoId":"KSLN","receiptTime":"2026-04-18T22:56:26.173Z","obsTime":1776552780,"reportTime":"2026-04-18T23:00:00.000Z","temp":17.8,"dewp":-7.8,"wdir":330,"wspd":10,"visib":"10+","altim":1021.4,"slp":1021.5,"qcField":12,"metarType":"METAR","rawOb":"METAR KSLN 182253Z 33010KT 10SM FEW110 18/M08 A3016 RMK AO2 PK WND 29027/2221 WSHFT 2200 SLP215 T01781078 $","lat":38.78,"lon":-97.6446,"elev":377,"name":"Salina Rgnl, KS, US","cover":"FEW","clouds":[{"cover":"FEW","base":11000}],"fltCat":"VFR"},{"icaoId":"KXNA","receiptTime":"2026-04-18T22:56:26.265Z","obsTime":1776552780,"reportTime":"2026-04-18T23:00:00.000Z","temp":15,"dewp":-0.6,"wdir":360,"wspd":11,"wgst":17,"visib":"10+","altim":1022.8,"slp":1022.6,"qcField":4,"metarType":"METAR","rawOb":"METAR KXNA 182253Z 36011G17KT 10SM CLR 15/M01 A3020 RMK AO2 SLP226 T01501006","lat":36.2897,"lon":-94.3115,"elev":390,"name":"Fayetteville/NW Arkansas Rgnl, AR, US","cover":"CLR","clouds":[],"fltCat":"VFR"},{"icaoId":"KBRO","receiptTime":"2026-04-18T22:56:26.892Z","obsTime":1776552780,"reportTime":"2026-04-18T23:00:00.000Z","temp":28.3,"dewp":21.7,"wdir":100,"wspd":12,"visib":"10+","altim":1012.6,"slp":1012.2,"qcField":4,"metarType":"METAR","rawOb":"METAR KBRO 182253Z 10012KT 10SM OVC065 28/22 A2990 RMK AO2 SLP122 T02830217","lat":25.9146,"lon":-97.4231,"elev":6,"name":"Brownsville Intl, TX, US","cover":"OVC","clouds":[{"cover":"OVC","base":6500}],"fltCat":"VFR"},{"icaoId":"KMSP","receiptTime":"2026-04-18T22:56:26.950Z","obsTime":1776552780,"reportTime":"2026-04-18T23:00:00.000Z","temp":7.2,"dewp":-11.7,"wdir":290,"wspd":19,"wgst":31,"visib":"10+","altim":1015.3,"slp":1015.8,"qcField":4,"metarType":"METAR","rawOb":"METAR KMSP 182253Z 29019G31KT 10SM FEW075 07/M12 A2998 RMK AO2 PK WND 27036/2219 SLP158 T00721117","lat":44.8852,"lon":-93.2313,"elev":255,"name":"Minneapolis-St Paul Intl, MN, US","cover":"FEW","clouds":[{"cover":"FEW","base":7500}],"fltCat":"VFR"},{"icaoId":"KMSY","receiptTime":"2026-04-18T22:56:27.019Z","obsTime":1776552780,"reportTime":"2026-04-18T23:00:00.000Z","temp":27.2,"dewp":20.6,"wdir":180,"wspd":6,"visib":"10+","altim":1014.3,"slp":1014.5,"qcField":4,"metarType":"METAR","rawOb":"METAR KMSY 182253Z 18006KT 10SM FEW045 FEW090 BKN250 27/21 A2995 RMK AO2 SLP145 T02720206","lat":29.9974,"lon":-90.2777,"elev":0,"name":"New Orleans/Armstrong Intl, LA, US","cover":"BKN","clouds":[{"cover":"FEW","base":4500},{"cover":"FEW","base":9000},{"cover":"BKN","base":25000}],"fltCat":"VFR"},{"icaoId":"KNEW","receiptTime":"2026-04-18T22:56:27.046Z","obsTime":1776552780,"reportTime":"2026-04-18T23:00:00.000Z","temp":27.8,"dewp":17.8,"wdir":0,"wspd":0,"visib":"10+","altim":1014.6,"slp":1013.8,"qcField":4,"metarType":"METAR","rawOb":"METAR KNEW 182253Z 00000KT 10SM CLR 28/18 A2996 RMK AO1 SLP138 T02780178","lat":30.0494,"lon":-90.029,"elev":1,"name":"New Orleans/Lakefront Arpt, LA, US","cover":"CLR","clouds":[],"fltCat":"VFR"},{"icaoId":"KSAF","receiptTime":"2026-04-18T22:56:27.188Z","obsTime":1776552780,"reportTime":"2026-04-18T23:00:00.000Z","temp":16.7,"dewp":-22.8,"wdir":150,"wspd":9,"wgst":15,"visib":"10+","altim":1022.4,"slp":1018.5,"qcField":4,"metarType":"METAR","rawOb":"METAR KSAF 182253Z 15009G15KT 10SM CLR 17/M23 A3019 RMK AO2 SLP185 T01671228","lat":35.611,"lon":-106.0957,"elev":1918,"name":"Santa Fe Cnty Muni, NM, US","cover":"CLR","clouds":[],"fltCat":"VFR"},{"icaoId":"KTPA","receiptTime":"2026-04-18T22:56:27.210Z","obsTime":1776552780,"reportTime":"2026-04-18T23:00:00.000Z","temp":26.7,"dewp":18.3,"wdir":280,"wspd":11,"wgst":18,"visib":"10+","altim":1015.3,"slp":1015.2,"qcField":4,"metarType":"METAR","rawOb":"METAR KTPA 182253Z 28011G18KT 10SM FEW050 BKN250 27/18 A2998 RMK AO2 SLP152 T02670183","lat":27.9633,"lon":-82.54,"elev":2,"name":"Tampa Intl Arpt, FL, US","cover":"BKN","clouds":[{"cover":"FEW","base":5000},{"cover":"BKN","base":25000}],"fltCat":"VFR"},{"icaoId":"KPDX","receiptTime":"2026-04-18T22:56:27.222Z","obsTime":1776552780,"reportTime":"2026-04-18T23:00:00.000Z","temp":21.7,"dewp":-0.6,"wdir":70,"wspd":5,"visib":"10+","altim":1013.3,"slp":1013.2,"qcField":12,"metarType":"METAR","rawOb":"METAR KPDX 182253Z 07005KT 10SM FEW070 FEW180 BKN250 22/M01 A2992 RMK AO2 SLP132 T02171006 $","lat":45.5958,"lon":-122.6092,"elev":7,"name":"Portland Intl, OR, US","cover":"BKN","clouds":[{"cover":"FEW","base":7000},{"cover":"FEW","base":18000},{"cover":"BKN","base":25000}],"fltCat":"VFR"},{"icaoId":"KSDL","receiptTime":"2026-04-18T22:56:27.377Z","obsTime":1776552780,"reportTime":"2026-04-18T23:00:00.000Z","temp":31.7,"dewp":-13.3,"wdir":120,"wspd":6,"visib":"10+","altim":1011.6,"slp":1009.4,"qcField":4,"metarType":"METAR","rawOb":"METAR KSDL 182253Z 12006KT 10SM CLR 32/M13 A2987 RMK AO2 SLP094 T03171133","lat":33.6123,"lon":-111.9232,"elev":438,"name":"Scottsdale Muni, AZ, US","cover":"CLR","clouds":[],"fltCat":"VFR"},{"icaoId":"KSBA","receiptTime":"2026-04-18T22:56:27.366Z","obsTime":1776552780,"reportTime":"2026-04-18T23:00:00.000Z","temp":21.7,"dewp":6.1,"wdir":250,"wspd":10,"visib":"10+","altim":1013.6,"slp":1013.4,"qcField":12,"metarType":"METAR","rawOb":"METAR KSBA 182253Z 25010KT 10SM CLR 22/06 A2993 RMK AO2 SLP134 T02170061 $","lat":34.4241,"lon":-119.8425,"elev":2,"name":"Santa Barbara Muni, CA, US","cover":"CLR","clouds":[],"fltCat":"VFR"},{"icaoId":"KSEA","receiptTime":"2026-04-18T22:56:27.401Z","obsTime":1776552780,"reportTime":"2026-04-18T23:00:00.000Z","temp":19.4,"dewp":0,"wdir":260,"wspd":7,"visib":"10+","altim":1014.3,"slp":1014.9,"qcField":4,"metarType":"METAR","rawOb":"METAR KSEA 182253Z 26007KT 10SM FEW100 SCT200 19/00 A2995 RMK AO2 SLP149 T01940000","lat":47.4447,"lon":-122.3144,"elev":115,"name":"Seattle-Tacoma Intl, WA, US","cover":"SCT","clouds":[{"cover":"FEW","base":10000},{"cover":"SCT","base":20000}],"fltCat":"VFR"},{"icaoId":"KAPA","receiptTime":"2026-04-18T22:56:27.730Z","obsTime":1776552780,"reportTime":"2026-04-18T23:00:00.000Z","temp":12.8,"dewp":-15,"wdir":"VRB","wspd":3,"visib":"10+","altim":1021.8,"slp":1022,"qcField":4,"metarType":"METAR","rawOb":"METAR KAPA 182253Z VRB03KT 10SM FEW070 FEW220 13/M15 A3017 RMK AO2 SLP220 T01281150","lat":39.5599,"lon":-104.8484,"elev":1791,"name":"Denver/Centennial Arpt, CO, US","cover":"FEW","clouds":[{"cover":"FEW","base":7000},{"cover":"FEW","base":22000}],"fltCat":"VFR"},{"icaoId":"KARA","receiptTime":"2026-04-18T22:56:27.757Z","obsTime":1776552780,"reportTime":"2026-04-18T23:00:00.000Z","temp":26.1,"dewp":19.4,"wdir":270,"wspd":10,"visib":"10+","altim":1014.6,"slp":1014.3,"qcField":4,"metarType":"METAR","rawOb":"METAR KARA 182253Z 27010KT 220V300 10SM SCT031 BKN060 BKN080 26/19 A2996 RMK AO2 SLP143 T02610194","lat":30.0292,"lon":-91.8845,"elev":5,"name":"New Iberia/Acadiana Rgnl, LA, US","cover":"BKN","clouds":[{"cover":"SCT","base":3100},{"cover":"BKN","base":6000},{"cover":"BKN","base":8000}],"fltCat":"VFR"},{"icaoId":"KASE","receiptTime":"2026-04-18T22:56:27.797Z","obsTime":1776552780,"reportTime":"2026-04-18T23:00:00.000Z","temp":8.9,"dewp":-18.3,"wdir":340,"wspd":9,"visib":"10+","altim":1024.8,"slp":1021.9,"qcField":4,"metarType":"METAR","rawOb":"METAR KASE 182253Z 34009KT 10SM CLR 09/M18 A3026 RMK AO2 SLP219 T00891183","lat":39.2299,"lon":-106.8705,"elev":2384,"name":"Aspen/Pitkin Cnty, CO, US","cover":"CLR","clouds":[],"fltCat":"VFR"},{"icaoId":"KATY","receiptTime":"2026-04-18T22:56:27.828Z","obsTime":1776552780,"reportTime":"2026-04-18T23:00:00.000Z","temp":6.7,"dewp":-15,"wdir":300,"wspd":18,"wgst":26,"visib":"10+","altim":1016.7,"slp":1018.3,"qcField":6,"metarType":"METAR","rawOb":"METAR KATY 182253Z AUTO 30018G26KT 10SM CLR 07/M15 A3002 RMK AO2 PK WND 30029/2231 SLP183 T00671150","lat":44.9045,"lon":-97.1496,"elev":531,"name":"Watertown Rgnl, SD, US","cover":"CLR","clouds":[],"fltCat":"VFR"},{"icaoId":"KAXN","receiptTime":"2026-04-18T22:56:27.881Z","obsTime":1776552780,"reportTime":"2026-04-18T23:00:00.000Z","temp":5.6,"dewp":-10.6,"wdir":300,"wspd":17,"wgst":29,"visib":"10+","altim":1015,"slp":1016.5,"qcField":6,"metarType":"METAR","rawOb":"METAR KAXN 182253Z AUTO 30017G29KT 10SM BKN080 06/M11 A2997 RMK AO2 PK WND 29032/2229 SLP165 T00561106","lat":45.868,"lon":-95.394,"elev":433,"name":"Alexandria/Chandler Fld, MN, US","cover":"BKN","clouds":[{"cover":"BKN","base":8000}],"fltCat":"VFR"},{"icaoId":"KBLI","receiptTime":"2026-04-18T22:56:28.129Z","obsTime":1776552780,"reportTime":"2026-04-18T23:00:00.000Z","temp":17.2,"dewp":5.6,"wdir":290,"wspd":4,"visib":"10+","altim":1014.6,"slp":1015.4,"qcField":6,"metarType":"METAR","rawOb":"METAR KBLI 182253Z AUTO 29004KT 10SM OVC095 17/06 A2996 RMK AO2 SLP154 T01720056","lat":48.7991,"lon":-122.5407,"elev":46,"name":"Bellingham Intl, WA, US","cover":"OVC","clouds":[{"cover":"OVC","base":9500}],"fltCat":"VFR"},{"icaoId":"KBNA","receiptTime":"2026-04-18T22:56:28.167Z","obsTime":1776552780,"reportTime":"2026-04-18T23:00:00.000Z","temp":12.8,"dewp":8.3,"wdir":320,"wspd":13,"wgst":20,"visib":"10+","altim":1017.4,"slp":1016.9,"qcField":12,"metarType":"METAR","rawOb":"METAR KBNA 182253Z 32013G20KT 10SM BKN015 BKN055 OVC100 13/08 A3004 RMK AO2 PK WND 36029/2221 SLP169 T01280083 $","lat":36.1105,"lon":-86.6881,"elev":168,"name":"Nashville Intl, TN, US","cover":"OVC","clouds":[{"cover":"BKN","base":1500},{"cover":"BKN","base":5500},{"cover":"OVC","base":10000}],"fltCat":"MVFR"},{"icaoId":"KTUL","receiptTime":"2026-04-18T22:56:28.193Z","obsTime":1776552780,"reportTime":"2026-04-18T23:00:00.000Z","temp":16.7,"dewp":-0.6,"wdir":20,"wspd":6,"visib":"10+","altim":1024.1,"slp":1023.8,"qcField":12,"metarType":"METAR","rawOb":"METAR KTUL 182253Z 02006KT 10SM FEW250 17/M01 A3024 RMK AO2 SLP238 T01671006 $","lat":36.1985,"lon":-95.8782,"elev":196,"name":"Tulsa Intl Arpt, OK, US","cover":"FEW","clouds":[{"cover":"FEW","base":25000}],"fltCat":"VFR"},{"icaoId":"KHIB","receiptTime":"2026-04-18T22:56:28.613Z","obsTime":1776552780,"reportTime":"2026-04-18T23:00:00.000Z","temp":1.1,"dewp":-10,"wdir":280,"wspd":9,"wgst":25,"visib":"10+","altim":1010.9,"slp":1012.8,"qcField":14,"metarType":"METAR","rawOb":"METAR KHIB 182253Z AUTO 28009G25KT 10SM OVC055 01/M10 A2985 RMK AO2 PK WND 32027/2222 SLP128 T00111100 $","lat":47.3804,"lon":-92.8325,"elev":409,"name":"Hibbing/Chisholm Arpt, MN, US","cover":"OVC","clouds":[{"cover":"OVC","base":5500}],"fltCat":"VFR"},{"icaoId":"KIXD","receiptTime":"2026-04-18T22:56:28.664Z","obsTime":1776552780,"reportTime":"2026-04-18T23:00:00.000Z","temp":14.4,"dewp":-3.3,"wdir":290,"wspd":10,"visib":"10+","altim":1022.1,"slp":1021.9,"qcField":12,"metarType":"METAR","rawOb":"METAR KIXD 182253Z 29010KT 10SM CLR 14/M03 A3018 RMK AO2 SLP219 T01441033 $","lat":38.8221,"lon":-94.8902,"elev":322,"name":"Olathe/New Century Arpt, KS, US","cover":"CLR","clouds":[],"fltCat":"VFR"},{"icaoId":"KLAR","receiptTime":"2026-04-18T22:56:28.714Z","obsTime":1776552780,"reportTime":"2026-04-18T23:00:00.000Z","temp":8.9,"dewp":-17.2,"wdir":320,"wspd":11,"wgst":20,"visib":"10+","altim":1021.8,"slp":1021.4,"qcField":6,"metarType":"METAR","rawOb":"METAR KLAR 182253Z AUTO 32011G20KT 10SM CLR 09/M17 A3017 RMK AO2 PK WND 31028/2233 SLP214 T00891172","lat":41.3165,"lon":-105.6729,"elev":2217,"name":"Laramie Rgnl, WY, US","cover":"CLR","clouds":[],"fltCat":"VFR"},{"icaoId":"KMCI","receiptTime":"2026-04-18T22:56:28.825Z","obsTime":1776552780,"reportTime":"2026-04-18T23:00:00.000Z","temp":13.9,"dewp":-5,"wdir":280,"wspd":13,"wgst":18,"visib":"10+","altim":1021.4,"slp":1021.3,"qcField":12,"metarType":"METAR","rawOb":"METAR KMCI 182253Z 28013G18KT 10SM OVC095 14/M05 A3016 RMK AO2 SLP213 T01391050 $","lat":39.2975,"lon":-94.7309,"elev":308,"name":"Kansas City Intl, MO, US","cover":"OVC","clouds":[{"cover":"OVC","base":9500}],"fltCat":"VFR"},{"icaoId":"KMIA","receiptTime":"2026-04-18T22:56:26.863Z","obsTime":1776552780,"reportTime":"2026-04-18T23:00:00.000Z","temp":27.2,"dewp":20.6,"wdir":120,"wspd":11,"visib":"10+","altim":1014.6,"slp":1014.5,"qcField":0,"metarType":"METAR","rawOb":"METAR KMIA 182253Z 12011KT 10SM FEW025 SCT250 27/21 A2996 RMK SLP145 T02720206","lat":25.7881,"lon":-80.3169,"elev":1,"name":"Miami Intl, FL, US","cover":"SCT","clouds":[{"cover":"FEW","base":2500},{"cover":"SCT","base":25000}],"fltCat":"VFR"},{"icaoId":"KELY","receiptTime":"2026-04-18T22:56:19.833Z","obsTime":1776552780,"reportTime":"2026-04-18T23:00:00.000Z","temp":17.2,"dewp":-21.7,"wdir":120,"wspd":12,"wgst":20,"visib":"10+","altim":1019.4,"slp":1017.1,"qcField":14,"metarType":"METAR","rawOb":"METAR KELY 182253Z AUTO 12012G20KT 10SM CLR 17/M22 A3010 RMK AO2 PK WND 16026/2226 SLP171 T01721217 $","lat":39.2954,"lon":-114.8466,"elev":1906,"name":"Ely/Yelland Fld, NV, US","cover":"CLR","clouds":[],"fltCat":"VFR"},{"icaoId":"PANC","receiptTime":"2026-04-18T22:56:27.488Z","obsTime":1776552780,"reportTime":"2026-04-18T23:00:00.000Z","temp":5,"dewp":0.6,"wdir":220,"wspd":6,"visib":"10+","altim":1012.3,"slp":1012.5,"qcField":4,"metarType":"METAR","rawOb":"METAR PANC 182253Z 22006KT 10SM SCT060 05/01 A2989 RMK AO2 SLP125 T00500006","lat":61.1691,"lon":-150.0277,"elev":39,"name":"Anchorage Intl, AK, US","cover":"SCT","clouds":[{"cover":"SCT","base":6000}],"fltCat":"VFR"},{"icaoId":"KDMN","receiptTime":"2026-04-18T22:56:24.713Z","obsTime":1776552780,"reportTime":"2026-04-18T23:00:00.000Z","temp":25.6,"dewp":-6.1,"wdir":100,"wspd":10,"wgst":18,"visib":"10+","altim":1018.7,"slp":1012.5,"qcField":6,"metarType":"METAR","rawOb":"METAR KDMN 182253Z AUTO 10010G18KT 10SM CLR 26/M06 A3008 RMK AO2 SLP125 T02561061","lat":32.2592,"lon":-107.7206,"elev":1310,"name":"Deming Muni, NM, US","cover":"CLR","clouds":[],"fltCat":"VFR"},{"icaoId":"KDRO","receiptTime":"2026-04-18T22:56:25.117Z","obsTime":1776552780,"reportTime":"2026-04-18T23:00:00.000Z","temp":14.4,"dewp":-17.2,"wdir":290,"wspd":9,"visib":"10+","altim":1023.1,"slp":1023.4,"qcField":6,"metarType":"METAR","rawOb":"METAR KDRO 182253Z AUTO 29009KT 10SM CLR 14/M17 A3021 RMK AO2 SLP234 T01441172","lat":37.1431,"lon":-107.7602,"elev":2021,"name":"Durango/La Plata Cnty, CO, US","cover":"CLR","clouds":[],"fltCat":"VFR"},{"icaoId":"KVEL","receiptTime":"2026-04-18T22:56:26.150Z","obsTime":1776552780,"reportTime":"2026-04-18T23:00:00.000Z","temp":10,"dewp":-12.2,"wdir":"VRB","wspd":3,"visib":"10+","altim":1024.8,"slp":1025.2,"qcField":6,"metarType":"METAR","rawOb":"METAR KVEL 182253Z AUTO VRB03KT 10SM CLR 10/M12 A3026 RMK AO2 SLP252 T01001122","lat":40.4429,"lon":-109.5128,"elev":1604,"name":"Vernal Rgnl, UT, US","cover":"CLR","clouds":[],"fltCat":"VFR"},{"icaoId":"KVGT","receiptTime":"2026-04-18T22:56:20.797Z","obsTime":1776552780,"reportTime":"2026-04-18T23:00:00.000Z","temp":23.9,"dewp":-17.8,"wdir":"VRB","wspd":3,"visib":"10+","altim":1015.7,"slp":1016.3,"qcField":4,"metarType":"METAR","rawOb":"METAR KVGT 182253Z VRB03KT 10SM CLR 24/M18 A2999 RMK AO2 SLP163 T02391178","lat":36.212,"lon":-115.194,"elev":664,"name":"Las Vegas/North Arpt, NV, US","cover":"CLR","clouds":[],"fltCat":"VFR"},{"icaoId":"KVIH","receiptTime":"2026-04-18T22:56:20.809Z","obsTime":1776552780,"reportTime":"2026-04-18T23:00:00.000Z","temp":12.8,"dewp":-3.3,"wdir":340,"wspd":13,"wgst":21,"visib":"10+","altim":1020.7,"slp":1020.7,"qcField":6,"metarType":"METAR","rawOb":"METAR KVIH 182253Z AUTO 34013G21KT 10SM CLR 13/M03 A3014 RMK AO2 PK WND 32026/2212 SLP207 T01281033","lat":38.1318,"lon":-91.7647,"elev":342,"name":"Vichy/Rolla Arpt, MO, US","cover":"CLR","clouds":[],"fltCat":"VFR"},{"icaoId":"KACV","receiptTime":"2026-04-18T22:56:22.057Z","obsTime":1776552780,"reportTime":"2026-04-18T23:00:00.000Z","temp":13.3,"dewp":10,"wdir":270,"wspd":8,"visib":"10+","altim":1015,"slp":1015.7,"qcField":6,"metarType":"METAR","rawOb":"METAR KACV 182253Z AUTO 27008KT 10SM CLR 13/10 A2997 RMK AO2 SLP157 T01330100","lat":40.9784,"lon":-124.1048,"elev":63,"name":"Arcata Arpt, CA, US","cover":"CLR","clouds":[],"fltCat":"VFR"},{"icaoId":"KAUS","receiptTime":"2026-04-18T22:56:27.856Z","obsTime":1776552780,"reportTime":"2026-04-18T23:00:00.000Z","temp":13.9,"dewp":6.7,"wdir":350,"wspd":21,"wgst":29,"visib":"10+","altim":1019.7,"slp":1019.2,"qcField":12,"metarType":"METAR","rawOb":"METAR KAUS 182253Z 35021G29KT 10SM OVC033 14/07 A3011 RMK AO2 PK WND 36030/2227 LTG DSNT N SLP192 OCNL LTG DSNT N T01390067 $","lat":30.1831,"lon":-97.6806,"elev":148,"name":"Austin/Bergstrom Intl, TX, US","cover":"OVC","clouds":[{"cover":"OVC","base":3300}],"fltCat":"VFR"},{"icaoId":"KBCE","receiptTime":"2026-04-18T22:56:27.934Z","obsTime":1776552780,"reportTime":"2026-04-18T23:00:00.000Z","temp":11.1,"dewp":-18.3,"wdir":160,"wspd":16,"wgst":21,"visib":"10+","altim":1024.1,"slp":1021,"qcField":6,"metarType":"METAR","rawOb":"METAR KBCE 182253Z AUTO 16016G21KT 10SM CLR 11/M18 A3024 RMK AO2 SLP210 T01111183","lat":37.7013,"lon":-112.149,"elev":2311,"name":"Bryce Canyon Arpt, UT, US","cover":"CLR","clouds":[],"fltCat":"VFR"},{"icaoId":"KBFI","receiptTime":"2026-04-18T22:56:28.006Z","obsTime":1776552780,"reportTime":"2026-04-18T23:00:00.000Z","temp":20.6,"dewp":-1.1,"wdir":0,"wspd":0,"visib":"10+","altim":1014,"slp":1013.9,"qcField":4,"metarType":"METAR","rawOb":"METAR KBFI 182253Z 00000KT 10SM CLR 21/M01 A2994 RMK AO2 SLP139 T02061011","lat":47.5455,"lon":-122.3148,"elev":7,"name":"Seattle/Boeing Fld, WA, US","cover":"CLR","clouds":[],"fltCat":"VFR"},{"icaoId":"KBIL","receiptTime":"2026-04-18T22:56:24.571Z","obsTime":1776552780,"reportTime":"2026-04-18T23:00:00.000Z","temp":15,"dewp":-8.9,"wdir":310,"wspd":12,"wgst":22,"visib":"10+","altim":1018,"slp":1018.4,"qcField":4,"metarType":"METAR","rawOb":"METAR KBIL 182253Z 31012G22KT 10SM FEW090 FEW200 15/M09 A3006 RMK AO2 PK WND 30027/2203 SLP184 T01501089","lat":45.8072,"lon":-108.5462,"elev":1089,"name":"Billings/Logan Intl, MT, US","cover":"FEW","clouds":[{"cover":"FEW","base":9000},{"cover":"FEW","base":20000}],"fltCat":"VFR"},{"icaoId":"KSNA","receiptTime":"2026-04-18T22:56:20.986Z","obsTime":1776552780,"reportTime":"2026-04-18T23:00:00.000Z","temp":25.6,"dewp":1.7,"wdir":210,"wspd":6,"visib":"10+","altim":1012.6,"slp":1012.2,"qcField":12,"metarType":"METAR","rawOb":"METAR KSNA 182253Z 21006KT 10SM FEW060 FEW250 26/02 A2990 RMK AO2 SLP122 T02560017 $","lat":33.6798,"lon":-117.8675,"elev":14,"name":"Santa Ana/Wayne Arpt, CA, US","cover":"FEW","clouds":[{"cover":"FEW","base":6000},{"cover":"FEW","base":25000}],"fltCat":"VFR"},{"icaoId":"KSPW","receiptTime":"2026-04-18T22:56:21.048Z","obsTime":1776552780,"reportTime":"2026-04-18T23:00:00.000Z","temp":8.9,"dewp":-14.4,"wdir":280,"wspd":17,"wgst":30,"visib":"10+","altim":1018,"slp":1019.1,"qcField":14,"metarType":"METAR","rawOb":"METAR KSPW 182253Z AUTO 28017G30KT 10SM CLR 09/M14 A3006 RMK AO2 PK WND 29031/2243 SLP191 T00891144 $","lat":43.1682,"lon":-95.2101,"elev":407,"name":"Spencer Muni, IA, US","cover":"CLR","clouds":[],"fltCat":"VFR"},{"icaoId":"KSTJ","receiptTime":"2026-04-18T22:56:26.209Z","obsTime":1776552780,"reportTime":"2026-04-18T23:00:00.000Z","temp":13.9,"dewp":-6.1,"wdir":300,"wspd":7,"visib":"10+","altim":1021.4,"slp":1021.5,"qcField":4,"metarType":"METAR","rawOb":"METAR KSTJ 182253Z 30007KT 10SM BKN100 14/M06 A3016 RMK AO2 SLP215 T01391061","lat":39.7683,"lon":-94.9095,"elev":247,"name":"St Joseph/Rosecrans Mem, MO, US","cover":"BKN","clouds":[{"cover":"BKN","base":10000}],"fltCat":"VFR"},{"icaoId":"KSTS","receiptTime":"2026-04-18T22:56:21.108Z","obsTime":1776552780,"reportTime":"2026-04-18T23:00:00.000Z","temp":23.9,"dewp":0,"wdir":220,"wspd":6,"visib":"10+","altim":1013.6,"slp":1012.8,"qcField":4,"metarType":"METAR","rawOb":"METAR KSTS 182253Z 22006KT 10SM CLR 24/00 A2993 RMK AO2 SLP128 T02390000","lat":38.5037,"lon":-122.811,"elev":35,"name":"Santa Rosa/Schulz Arpt, CA, US","cover":"CLR","clouds":[],"fltCat":"VFR"},{"icaoId":"KBTM","receiptTime":"2026-04-18T22:56:25.507Z","obsTime":1776552780,"reportTime":"2026-04-18T23:00:00.000Z","temp":12.8,"dewp":-14.4,"wdir":200,"wspd":10,"wgst":15,"visib":"10+","altim":1019,"slp":1019.4,"qcField":6,"metarType":"METAR","rawOb":"METAR KBTM 182253Z AUTO 20010G15KT 10SM CLR 13/M14 A3009 RMK AO2 SLP194 T01281144","lat":45.9644,"lon":-112.5015,"elev":1680,"name":"Butte/Mooney Arpt, MT, US","cover":"CLR","clouds":[],"fltCat":"VFR"},{"icaoId":"KPBF","receiptTime":"2026-04-18T22:56:27.081Z","obsTime":1776552780,"reportTime":"2026-04-18T23:00:00.000Z","temp":11.7,"dewp":7.8,"wdir":360,"wspd":6,"wgst":18,"visib":"10+","altim":1021.1,"slp":1021,"qcField":6,"precip":0.005,"metarType":"METAR","rawOb":"METAR KPBF 182253Z AUTO 36006G18KT 10SM OVC034 12/08 A3015 RMK AO2 PK WND 01027/2218 RAB20E37 SLP210 P0000 T01170078","lat":34.1798,"lon":-91.9344,"elev":63,"name":"Pine Bluff/Grider Fld, AR, US","cover":"OVC","clouds":[{"cover":"OVC","base":3400}],"fltCat":"VFR"},{"icaoId":"KPBI","receiptTime":"2026-04-18T22:56:27.093Z","obsTime":1776552780,"reportTime":"2026-04-18T23:00:00.000Z","temp":26.7,"dewp":21.1,"wdir":90,"wspd":12,"visib":"10+","altim":1015.3,"slp":1015.1,"qcField":12,"metarType":"METAR","rawOb":"METAR KPBI 182253Z 09012KT 10SM SCT028 27/21 A2998 RMK AO2 SLP151 T02670211 $","lat":26.6851,"lon":-80.0992,"elev":4,"name":"Palm Beach Intl, FL, US","cover":"SCT","clouds":[{"cover":"SCT","base":2800}],"fltCat":"VFR"},{"icaoId":"KPNC","receiptTime":"2026-04-18T22:56:27.138Z","obsTime":1776552780,"reportTime":"2026-04-18T23:00:00.000Z","temp":16.1,"dewp":-2.8,"wdir":0,"wspd":0,"visib":"10+","altim":1023.1,"slp":1022.7,"qcField":6,"metarType":"METAR","rawOb":"METAR KPNC 182253Z AUTO 00000KT 10SM CLR 16/M03 A3021 RMK AO2 SLP227 T01611028","lat":36.7369,"lon":-97.1024,"elev":304,"name":"Ponca City Rgnl, OK, US","cover":"CLR","clouds":[],"fltCat":"VFR"},{"icaoId":"KPSC","receiptTime":"2026-04-18T22:56:27.286Z","obsTime":1776552780,"reportTime":"2026-04-18T23:00:00.000Z","temp":20,"dewp":1.7,"wdir":320,"wspd":4,"visib":"10+","altim":1016.3,"slp":1016.3,"qcField":4,"metarType":"METAR","rawOb":"METAR KPSC 182253Z 32004KT 10SM CLR 20/02 A3001 RMK AO2 SLP163 T02000017","lat":46.2695,"lon":-119.1182,"elev":121,"name":"Pasco/Tri Cities Arpt, WA, US","cover":"CLR","clouds":[],"fltCat":"VFR"},{"icaoId":"KMYF","receiptTime":"2026-04-18T22:56:20.684Z","obsTime":1776552780,"reportTime":"2026-04-18T23:00:00.000Z","temp":21.7,"dewp":12.8,"wdir":220,"wspd":9,"visib":"10+","altim":1013.6,"slp":1013.2,"qcField":4,"metarType":"METAR","rawOb":"METAR KMYF 182253Z 22009KT 10SM CLR 22/13 A2993 RMK AO2 SLP132 T02170128","lat":32.8145,"lon":-117.1375,"elev":128,"name":"San Diego/Montgomery Arpt, CA, US","cover":"CLR","clouds":[],"fltCat":"VFR"},{"icaoId":"KOTM","receiptTime":"2026-04-18T22:56:18.842Z","obsTime":1776552780,"reportTime":"2026-04-18T23:00:00.000Z","temp":10.6,"dewp":-8.3,"wdir":290,"wspd":15,"wgst":27,"visib":"10+","altim":1019.4,"slp":1019.8,"qcField":6,"metarType":"METAR","rawOb":"METAR KOTM 182253Z AUTO 29015G27KT 10SM CLR 11/M08 A3010 RMK AO2 PK WND 32030/2235 SLP198 T01061083","lat":41.1008,"lon":-92.4445,"elev":254,"name":"Ottumwa Rgnl, IA, US","cover":"CLR","clouds":[],"fltCat":"VFR"},{"icaoId":"KMCO","receiptTime":"2026-04-18T22:56:20.287Z","obsTime":1776552780,"reportTime":"2026-04-18T23:00:00.000Z","temp":30.6,"dewp":13.9,"wdir":160,"wspd":3,"visib":"10+","altim":1015,"slp":1014.8,"qcField":4,"metarType":"METAR","rawOb":"METAR KMCO 182253Z 16003KT 10SM FEW065 BKN250 31/14 A2997 RMK AO2 SLP148 T03060139","lat":28.4182,"lon":-81.3241,"elev":27,"name":"Orlando Intl, FL, US","cover":"BKN","clouds":[{"cover":"FEW","base":6500},{"cover":"BKN","base":25000}],"fltCat":"VFR"},{"icaoId":"KMCW","receiptTime":"2026-04-18T22:56:20.300Z","obsTime":1776552780,"reportTime":"2026-04-18T23:00:00.000Z","temp":8.3,"dewp":-11.1,"wdir":300,"wspd":21,"wgst":30,"visib":"10+","altim":1016.7,"slp":1017.1,"qcField":6,"metarType":"METAR","rawOb":"METAR KMCW 182253Z AUTO 30021G30KT 10SM FEW085 08/M11 A3002 RMK AO2 PK WND 31031/2237 SLP171 T00831111","lat":43.1543,"lon":-93.3262,"elev":363,"name":"Mason City Muni, IA, US","cover":"FEW","clouds":[{"cover":"FEW","base":8500}],"fltCat":"VFR"},{"icaoId":"KMFR","receiptTime":"2026-04-18T22:56:20.337Z","obsTime":1776552780,"reportTime":"2026-04-18T23:00:00.000Z","temp":23.9,"dewp":-1.7,"wdir":300,"wspd":5,"visib":"10+","altim":1011.6,"slp":1011.2,"qcField":4,"metarType":"METAR","rawOb":"METAR KMFR 182253Z 30005KT 10SM CLR 24/M02 A2987 RMK AO2 SLP112 T02391017","lat":42.375,"lon":-122.877,"elev":397,"name":"Medford/Rogue Valley Intl, OR, US","cover":"CLR","clouds":[],"fltCat":"VFR"},{"icaoId":"KMSO","receiptTime":"2026-04-18T22:56:20.133Z","obsTime":1776552780,"reportTime":"2026-04-18T23:00:00.000Z","temp":15.6,"dewp":-5.6,"wdir":"VRB","wspd":5,"visib":"10+","altim":1018.4,"slp":1019.2,"qcField":4,"metarType":"METAR","rawOb":"METAR KMSO 182253Z VRB05KT 10SM CLR 16/M06 A3007 RMK AO2 SLP192 T01561056","lat":46.9208,"lon":-114.0938,"elev":974,"name":"Missoula Intl, MT, US","cover":"CLR","clouds":[],"fltCat":"VFR"},{"icaoId":"KLOL","receiptTime":"2026-04-18T22:56:18.521Z","obsTime":1776552780,"reportTime":"2026-04-18T23:00:00.000Z","temp":20.6,"dewp":-16.7,"wdir":100,"wspd":6,"visib":"10+","altim":1016,"slp":1015.2,"qcField":6,"metarType":"METAR","rawOb":"METAR KLOL 182253Z AUTO 10006KT 10SM CLR 21/M17 A3000 RMK AO2 SLP152 T02061167","lat":40.0684,"lon":-118.5702,"elev":1191,"name":"Lovelock/Derby Fld, NV, US","cover":"CLR","clouds":[],"fltCat":"VFR"},{"icaoId":"KMAF","receiptTime":"2026-04-18T22:56:18.673Z","obsTime":1776552780,"reportTime":"2026-04-18T23:00:00.000Z","temp":20,"dewp":-8.9,"wdir":50,"wspd":16,"wgst":23,"visib":"10+","altim":1023.1,"slp":1020.2,"qcField":12,"metarType":"METAR","rawOb":"METAR KMAF 182253Z 05016G23KT 10SM CLR 20/M09 A3021 RMK AO2 SLP202 T02001089 $","lat":31.9475,"lon":-102.2086,"elev":874,"name":"Midland Intl, TX, US","cover":"CLR","clouds":[],"fltCat":"VFR"},{"icaoId":"KHRO","receiptTime":"2026-04-18T22:56:21.548Z","obsTime":1776552780,"reportTime":"2026-04-18T23:00:00.000Z","temp":15,"dewp":-2.8,"wdir":340,"wspd":9,"wgst":17,"visib":"10+","altim":1021.8,"slp":1021.2,"qcField":38,"wxString":"-RA","precip":0.005,"metarType":"METAR","rawOb":"METAR KHRO 182253Z AUTO 34009G17KT 10SM -RA CLR 15/M03 A3017 RMK AO2 SLP212 P0000 T01501028 TSNO","lat":36.2673,"lon":-93.1566,"elev":417,"name":"Harrison/Boone Cnty, AR, US","cover":"CLR","clouds":[],"fltCat":"VFR"},{"icaoId":"KHSI","receiptTime":"2026-04-18T22:56:21.560Z","obsTime":1776552780,"reportTime":"2026-04-18T23:00:00.000Z","temp":13.9,"dewp":-10,"wdir":300,"wspd":18,"wgst":26,"visib":"10+","altim":1020.7,"slp":1021.6,"qcField":6,"metarType":"METAR","rawOb":"METAR KHSI 182253Z AUTO 30018G26KT 10SM BKN110 14/M10 A3014 RMK AO2 PK WND 32030/2209 SLP216 T01391100","lat":40.6002,"lon":-98.4264,"elev":592,"name":"Hastings Muni, NE, US","cover":"BKN","clouds":[{"cover":"BKN","base":11000}],"fltCat":"VFR"},{"icaoId":"KIAH","receiptTime":"2026-04-18T22:56:21.644Z","obsTime":1776552780,"reportTime":"2026-04-18T23:00:00.000Z","temp":20,"dewp":18.9,"wdir":320,"wspd":17,"wgst":26,"visib":2.5,"altim":1016.3,"slp":1016.1,"qcField":4,"wxString":"-TSRA BR","precip":0.03,"metarType":"METAR","rawOb":"METAR KIAH 182253Z 32017G26KT 2 1/2SM -TSRA BR FEW008 BKN013CB OVC050 20/19 A3001 RMK AO2 RAB08 TSB44 PRESRR SLP161 OCNL LTGICCG SW TS SW MOV NE P0003 T02000189","lat":29.9844,"lon":-95.3607,"elev":27,"name":"Houston/Bush Intl, TX, US","cover":"OVC","clouds":[{"cover":"FEW","base":800},{"cover":"BKN","base":1300},{"cover":"OVC","base":5000}],"fltCat":"IFR"},{"icaoId":"KIDA","receiptTime":"2026-04-18T22:56:21.676Z","obsTime":1776552780,"reportTime":"2026-04-18T23:00:00.000Z","temp":10.6,"dewp":-8.9,"wdir":240,"wspd":5,"visib":"10+","altim":1022.8,"slp":1024,"qcField":4,"metarType":"METAR","rawOb":"METAR KIDA 182253Z 24005KT 10SM CLR 11/M09 A3020 RMK AO2 SLP240 T01061089","lat":43.5204,"lon":-112.0675,"elev":1444,"name":"Idaho Falls Rgnl, ID, US","cover":"CLR","clouds":[],"fltCat":"VFR"},{"icaoId":"KLCH","receiptTime":"2026-04-18T22:56:18.404Z","obsTime":1776552780,"reportTime":"2026-04-18T23:00:00.000Z","temp":23.3,"dewp":21.7,"wdir":150,"wspd":7,"visib":6,"altim":1014.6,"slp":1015.4,"qcField":4,"wxString":"BR","metarType":"METAR","rawOb":"METAR KLCH 182253Z 15007KT 6SM BR OVC090 23/22 A2996 RMK AO2 LTG DSNT W SLP154 T02330217","lat":30.1255,"lon":-93.2277,"elev":2,"name":"Lake Charles Rgnl, LA, US","cover":"OVC","clouds":[{"cover":"OVC","base":9000}],"fltCat":"VFR"},{"icaoId":"KESF","receiptTime":"2026-04-18T22:56:25.314Z","obsTime":1776552780,"reportTime":"2026-04-18T23:00:00.000Z","temp":24.4,"dewp":20,"wdir":"VRB","wspd":3,"visib":"10+","altim":1014.3,"slp":1014.1,"qcField":6,"precip":0.01,"metarType":"METAR","rawOb":"METAR KESF 182253Z AUTO VRB03KT 10SM 24/20 A2995 RMK AO2 RAE21 SLP141 P0001 T02440200","lat":31.3963,"lon":-92.2828,"elev":27,"name":"Alexandria/Esler Rgnl, LA, US"},{"icaoId":"KFAT","receiptTime":"2026-04-18T22:56:19.869Z","obsTime":1776552780,"reportTime":"2026-04-18T23:00:00.000Z","temp":26.7,"dewp":0,"wdir":0,"wspd":0,"visib":"10+","altim":1013,"slp":1012.7,"qcField":12,"metarType":"METAR","rawOb":"METAR KFAT 182253Z 00000KT 10SM FEW100 BKN200 BKN250 27/00 A2991 RMK AO2 SLP127 T02670000 $","lat":36.78,"lon":-119.7202,"elev":102,"name":"Fresno/Yosemite Intl, CA, US","cover":"BKN","clouds":[{"cover":"FEW","base":10000},{"cover":"BKN","base":20000},{"cover":"BKN","base":25000}],"fltCat":"VFR"},{"icaoId":"KGRI","receiptTime":"2026-04-18T22:56:24.907Z","obsTime":1776552780,"reportTime":"2026-04-18T23:00:00.000Z","temp":13.9,"dewp":-10,"wdir":320,"wspd":17,"wgst":32,"visib":"10+","altim":1020.7,"slp":1022.1,"qcField":12,"metarType":"METAR","rawOb":"METAR KGRI 182253Z 32017G32KT 10SM SCT100 BKN120 14/M10 A3014 RMK AO2 PK WND 33032/2249 SLP221 T01391100 $","lat":40.9615,"lon":-98.313,"elev":562,"name":"Grand Island Rgnl, NE, US","cover":"BKN","clouds":[{"cover":"SCT","base":10000},{"cover":"BKN","base":12000}],"fltCat":"VFR"},{"icaoId":"KGSP","receiptTime":"2026-04-18T22:56:24.245Z","obsTime":1776552780,"reportTime":"2026-04-18T23:00:00.000Z","temp":27.8,"dewp":13.3,"wdir":220,"wspd":12,"visib":"10+","altim":1013,"slp":1011.8,"qcField":4,"metarType":"METAR","rawOb":"METAR KGSP 182253Z 22012KT 10SM CLR 28/13 A2991 RMK AO2 SLP118 T02780133","lat":34.8842,"lon":-82.2209,"elev":285,"name":"Greenville-Spartanburg Intl, SC, US","cover":"CLR","clouds":[],"fltCat":"VFR"},{"icaoId":"KHEI","receiptTime":"2026-04-18T22:56:21.364Z","obsTime":1776552780,"reportTime":"2026-04-18T23:00:00.000Z","temp":7.8,"dewp":-6.7,"wdir":300,"wspd":16,"visib":"10+","altim":1017,"slp":1019.7,"qcField":6,"metarType":"METAR","rawOb":"METAR KHEI 182253Z AUTO 30016KT 10SM BKN080 BKN100 08/M07 A3003 RMK AO2 PK WND 29032/2207 SLP197 T00781067","lat":46.0108,"lon":-102.6518,"elev":824,"name":"Hettinger Muni, ND, US","cover":"BKN","clouds":[{"cover":"BKN","base":8000},{"cover":"BKN","base":10000}],"fltCat":"VFR"},{"icaoId":"KDFW","receiptTime":"2026-04-18T22:56:25.013Z","obsTime":1776552780,"reportTime":"2026-04-18T23:00:00.000Z","temp":15.6,"dewp":3.3,"wdir":10,"wspd":11,"visib":"10+","altim":1021.4,"slp":1021,"qcField":12,"metarType":"METAR","rawOb":"METAR KDFW 182253Z 01011KT 10SM FEW120 BKN150 BKN250 16/03 A3016 RMK AO2 SLP210 T01560033 $","lat":32.8974,"lon":-97.022,"elev":168,"name":"Dallas-Ft Worth Intl, TX, US","cover":"BKN","clouds":[{"cover":"FEW","base":12000},{"cover":"BKN","base":15000},{"cover":"BKN","base":25000}],"fltCat":"VFR"},{"icaoId":"KDLN","receiptTime":"2026-04-18T22:56:25.072Z","obsTime":1776552780,"reportTime":"2026-04-18T23:00:00.000Z","temp":13.9,"dewp":-9.4,"wdir":180,"wspd":13,"wgst":19,"visib":"10+","altim":1018.7,"slp":1018.3,"qcField":6,"metarType":"METAR","rawOb":"METAR KDLN 182253Z AUTO 18013G19KT 150V220 10SM CLR 14/M09 A3008 RMK AO2 SLP183 T01391094","lat":45.2584,"lon":-112.5546,"elev":1586,"name":"Dillon Arpt, MT, US","cover":"CLR","clouds":[],"fltCat":"VFR"},{"icaoId":"KDTW","receiptTime":"2026-04-18T22:56:25.157Z","obsTime":1776552780,"reportTime":"2026-04-18T23:00:00.000Z","temp":9.4,"dewp":2.2,"wdir":270,"wspd":13,"wgst":24,"visib":"10+","altim":1010.9,"slp":1010.8,"qcField":12,"metarType":"METAR","rawOb":"METAR KDTW 182253Z 27013G24KT 10SM SCT030 BKN085 BKN130 09/02 A2985 RMK AO2 PK WND 26026/2239 SLP108 T00940022 $","lat":42.2311,"lon":-83.3312,"elev":192,"name":"Detroit/Metro Wayne Cnty, MI, US","cover":"BKN","clouds":[{"cover":"SCT","base":3000},{"cover":"BKN","base":8500},{"cover":"BKN","base":13000}],"fltCat":"VFR"},{"icaoId":"KDVT","receiptTime":"2026-04-18T22:56:25.181Z","obsTime":1776552780,"reportTime":"2026-04-18T23:00:00.000Z","temp":31.7,"dewp":-9.4,"wdir":350,"wspd":7,"visib":"10+","altim":1011.6,"slp":1009.3,"qcField":4,"metarType":"METAR","rawOb":"METAR KDVT 182253Z 35007KT 10SM CLR 32/M09 A2987 RMK AO2 SLP093 T03171094","lat":33.6902,"lon":-112.0662,"elev":454,"name":"Phoenix/Deer Valley Arpt, AZ, US","cover":"CLR","clouds":[],"fltCat":"VFR"},{"icaoId":"KCDC","receiptTime":"2026-04-18T22:56:25.629Z","obsTime":1776552780,"reportTime":"2026-04-18T23:00:00.000Z","temp":17.8,"dewp":-13.3,"wdir":240,"wspd":10,"wgst":15,"visib":"10+","altim":1020.1,"slp":1017.6,"qcField":6,"metarType":"METAR","rawOb":"METAR KCDC 182253Z AUTO 24010G15KT 10SM CLR 18/M13 A3012 RMK AO2 SLP176 T01781133","lat":37.7067,"lon":-113.097,"elev":1703,"name":"Cedar City Muni, UT, US","cover":"CLR","clouds":[],"fltCat":"VFR"},{"icaoId":"KCPR","receiptTime":"2026-04-18T22:56:25.789Z","obsTime":1776552780,"reportTime":"2026-04-18T23:00:00.000Z","temp":12.8,"dewp":-10.6,"wdir":300,"wspd":14,"wgst":25,"visib":"10+","altim":1020.1,"slp":1020,"qcField":4,"metarType":"METAR","rawOb":"METAR KCPR 182253Z 30014G25KT 10SM CLR 13/M11 A3012 RMK AO2 PK WND 28027/2232 SLP200 T01281106","lat":42.8978,"lon":-106.4736,"elev":1623,"name":"Casper/Natrona Cnty, WY, US","cover":"CLR","clouds":[],"fltCat":"VFR"},{"icaoId":"KCRQ","receiptTime":"2026-04-18T22:56:24.653Z","obsTime":1776552780,"reportTime":"2026-04-18T23:00:00.000Z","temp":20.6,"dewp":13.3,"wdir":260,"wspd":8,"visib":"10+","altim":1013,"slp":1012.7,"qcField":6,"metarType":"METAR","rawOb":"METAR KCRQ 182253Z AUTO 26008KT 10SM CLR 21/13 A2991 RMK AO2 SLP127 T02060133","lat":33.1299,"lon":-117.2765,"elev":96,"name":"Carlsbad/Palomar Arpt, CA, US","cover":"CLR","clouds":[],"fltCat":"VFR"},{"icaoId":"KABR","receiptTime":"2026-04-18T22:56:26.049Z","obsTime":1776552780,"reportTime":"2026-04-18T23:00:00.000Z","temp":8.3,"dewp":-10.6,"wdir":310,"wspd":17,"wgst":24,"visib":"10+","altim":1017,"slp":1018.4,"qcField":14,"metarType":"METAR","rawOb":"METAR KABR 182253Z AUTO 31017G24KT 10SM CLR 08/M11 A3003 RMK AO2 PK WND 32028/2226 SLP184 T00831106 $","lat":45.4436,"lon":-98.4138,"elev":397,"name":"Aberdeen Rgnl, SD, US","cover":"CLR","clouds":[],"fltCat":"VFR"},{"icaoId":"KAEX","receiptTime":"2026-04-18T22:56:22.087Z","obsTime":1776552780,"reportTime":"2026-04-18T23:00:00.000Z","temp":22.8,"dewp":20.6,"wdir":0,"wspd":0,"visib":9,"altim":1014.6,"slp":1014.7,"qcField":4,"precip":0.005,"metarType":"METAR","rawOb":"METAR KAEX 182253Z 00000KT 9SM OVC095 23/21 A2996 RMK AO2 LTG DSNT SW RAE48 SLP147 P0000 T02280206","lat":31.3346,"lon":-92.5585,"elev":25,"name":"Alexandria Intl, LA, US","cover":"OVC","clouds":[{"cover":"OVC","base":9500}],"fltCat":"VFR"},{"icaoId":"KTUS","receiptTime":"2026-04-18T22:56:18.159Z","obsTime":1776552780,"reportTime":"2026-04-18T23:00:00.000Z","temp":31.1,"dewp":-3.3,"wdir":350,"wspd":8,"wgst":14,"visib":"10+","altim":1012.3,"slp":1008.1,"qcField":4,"metarType":"METAR","rawOb":"METAR KTUS 182253Z 35008G14KT 10SM CLR 31/M03 A2989 RMK AO2 SLP081 T03111033","lat":32.1315,"lon":-110.9564,"elev":776,"name":"Tucson Intl Arpt, AZ, US","cover":"CLR","clouds":[],"fltCat":"VFR"},{"icaoId":"KSMF","receiptTime":"2026-04-18T22:56:20.962Z","obsTime":1776552780,"reportTime":"2026-04-18T23:00:00.000Z","temp":24.4,"dewp":2.2,"wdir":150,"wspd":4,"visib":"10+","altim":1013.3,"slp":1013.2,"qcField":12,"metarType":"METAR","rawOb":"METAR KSMF 182253Z 15004KT 10SM BKN250 24/02 A2992 RMK AO2 SLP132 T02440022 $","lat":38.7007,"lon":-121.5948,"elev":7,"name":"Sacramento Intl, CA, US","cover":"BKN","clouds":[{"cover":"BKN","base":25000}],"fltCat":"VFR"},{"icaoId":"KPRC","receiptTime":"2026-04-18T22:56:27.276Z","obsTime":1776552780,"reportTime":"2026-04-18T23:00:00.000Z","temp":21.1,"dewp":-13.3,"wdir":"VRB","wspd":6,"visib":"10+","altim":1018.7,"slp":1013.7,"qcField":4,"metarType":"METAR","rawOb":"METAR KPRC 182253Z VRB06KT 10SM CLR 21/M13 A3008 RMK AO2 SLP137 T02111133","lat":34.6491,"lon":-112.4223,"elev":1528,"name":"Prescott/Love Fld, AZ, US","cover":"CLR","clouds":[],"fltCat":"VFR"},{"icaoId":"KPSP","receiptTime":"2026-04-18T22:56:27.296Z","obsTime":1776552780,"reportTime":"2026-04-18T23:00:00.000Z","temp":30,"dewp":-13.3,"wdir":130,"wspd":3,"wgst":14,"visib":"10+","altim":1011.9,"slp":1011.6,"qcField":12,"metarType":"METAR","rawOb":"METAR KPSP 182253Z 13003G14KT 10SM CLR 30/M13 A2988 RMK AO2 SLP116 T03001133 $","lat":33.8222,"lon":-116.5043,"elev":123,"name":"Palm Springs Intl, CA, US","cover":"CLR","clouds":[],"fltCat":"VFR"},{"icaoId":"KRDD","receiptTime":"2026-04-18T22:56:27.328Z","obsTime":1776552780,"reportTime":"2026-04-18T23:00:00.000Z","temp":24.4,"dewp":1.1,"wdir":160,"wspd":5,"visib":"10+","altim":1012.6,"slp":1012.4,"qcField":12,"metarType":"METAR","rawOb":"METAR KRDD 182253Z 16005KT 10SM CLR 24/01 A2990 RMK AO2 SLP124 T02440011 $","lat":40.5146,"lon":-122.2977,"elev":152,"name":"Redding Muni, CA, US","cover":"CLR","clouds":[],"fltCat":"VFR"},{"icaoId":"KRIW","receiptTime":"2026-04-18T22:56:20.192Z","obsTime":1776552780,"reportTime":"2026-04-18T23:00:00.000Z","temp":15,"dewp":-17.2,"wdir":120,"wspd":8,"wgst":14,"visib":"10+","altim":1018.7,"slp":1017.3,"qcField":6,"metarType":"METAR","rawOb":"METAR KRIW 182253Z AUTO 12008G14KT 10SM CLR 15/M17 A3008 RMK AO2 SLP173 T01501172","lat":43.0622,"lon":-108.4471,"elev":1662,"name":"Riverton Rgnl, WY, US","cover":"CLR","clouds":[],"fltCat":"VFR"},{"icaoId":"KPGA","receiptTime":"2026-04-18T22:56:27.232Z","obsTime":1776552780,"reportTime":"2026-04-18T23:00:00.000Z","temp":16.7,"dewp":-16.1,"wdir":10,"wspd":9,"wgst":16,"visib":"10+","altim":1021.8,"slp":1019.3,"qcField":14,"metarType":"METAR","rawOb":"METAR KPGA 182253Z AUTO 01009G16KT 10SM CLR 17/M16 A3017 RMK AO2 SLP193 T01671161 $","lat":36.9211,"lon":-111.4487,"elev":1310,"name":"Page Muni, AZ, US","cover":"CLR","clouds":[],"fltCat":"VFR"},{"icaoId":"KPIH","receiptTime":"2026-04-18T22:56:27.245Z","obsTime":1776552780,"reportTime":"2026-04-18T23:00:00.000Z","temp":13.3,"dewp":-8.3,"wdir":40,"wspd":4,"visib":"10+","altim":1021.4,"slp":1022.1,"qcField":4,"metarType":"METAR","rawOb":"METAR KPIH 182253Z 04004KT 10SM CLR 13/M08 A3016 RMK AO2 SLP221 T01331083","lat":42.9197,"lon":-112.5723,"elev":1357,"name":"Pocatello Rgnl, ID, US","cover":"CLR","clouds":[],"fltCat":"VFR"},{"icaoId":"KPIR","receiptTime":"2026-04-18T22:56:19.055Z","obsTime":1776552780,"reportTime":"2026-04-18T23:00:00.000Z","temp":10.6,"dewp":-9.4,"wdir":320,"wspd":18,"visib":"10+","altim":1018.7,"slp":1020,"qcField":6,"metarType":"METAR","rawOb":"METAR KPIR 182253Z AUTO 32018KT 10SM CLR 11/M09 A3008 RMK AO2 PK WND 32032/2155 SLP200 T01061094","lat":44.3819,"lon":-100.2864,"elev":524,"name":"Pierre Muni, SD, US","cover":"CLR","clouds":[],"fltCat":"VFR"},{"icaoId":"KLBB","receiptTime":"2026-04-18T22:56:20.043Z","obsTime":1776552780,"reportTime":"2026-04-18T23:00:00.000Z","temp":17.8,"dewp":-12.8,"wdir":40,"wspd":10,"wgst":18,"visib":"10+","altim":1023.8,"slp":1021.7,"qcField":4,"metarType":"METAR","rawOb":"METAR KLBB 182253Z 04010G18KT 10SM FEW110 FEW250 18/M13 A3023 RMK AO2 SLP217 T01781128","lat":33.6658,"lon":-101.8233,"elev":996,"name":"Lubbock Intl Arpt, TX, US","cover":"FEW","clouds":[{"cover":"FEW","base":11000},{"cover":"FEW","base":25000}],"fltCat":"VFR"},{"icaoId":"KLBF","receiptTime":"2026-04-18T22:56:28.725Z","obsTime":1776552780,"reportTime":"2026-04-18T23:00:00.000Z","temp":13.9,"dewp":-8.3,"wdir":290,"wspd":19,"wgst":27,"visib":"10+","altim":1020.7,"slp":1022.3,"qcField":6,"precip":0.005,"metarType":"METAR","rawOb":"METAR KLBF 182253Z AUTO 29019G27KT 10SM SCT100 14/M08 A3014 RMK AO2 PK WND 30027/2246 RAE2155 SLP223 P0000 T01391083","lat":41.122,"lon":-100.6689,"elev":843,"name":"N Platte/Lee Bird Fld, NE, US","cover":"SCT","clouds":[{"cover":"SCT","base":10000}],"fltCat":"VFR"},{"icaoId":"KTWF","receiptTime":"2026-04-18T22:56:23.697Z","obsTime":1776552780,"reportTime":"2026-04-18T23:00:00.000Z","temp":17.2,"dewp":-7.8,"wdir":50,"wspd":8,"wgst":17,"visib":"10+","altim":1019,"slp":1017.2,"qcField":4,"metarType":"METAR","rawOb":"METAR KTWF 182253Z 05008G17KT 10SM CLR 17/M08 A3009 RMK AO2 SLP172 T01721078","lat":42.4785,"lon":-114.4775,"elev":1269,"name":"Twin Falls/Joslin Fld, ID, US","cover":"CLR","clouds":[],"fltCat":"VFR"},{"icaoId":"KICT","receiptTime":"2026-04-18T22:56:28.652Z","obsTime":1776552780,"reportTime":"2026-04-18T23:00:00.000Z","temp":17.8,"dewp":-5,"wdir":300,"wspd":10,"visib":"10+","altim":1022.1,"slp":1021.9,"qcField":12,"metarType":"METAR","rawOb":"METAR KICT 182253Z 30010KT 10SM SCT100 18/M05 A3018 RMK AO2 SLP219 T01781050 $","lat":37.6475,"lon":-97.43,"elev":428,"name":"Wichita/Eisenhower Arpt, KS, US","cover":"SCT","clouds":[{"cover":"SCT","base":10000}],"fltCat":"VFR"},{"icaoId":"KBHM","receiptTime":"2026-04-18T22:56:28.058Z","obsTime":1776552780,"reportTime":"2026-04-18T23:00:00.000Z","temp":25.6,"dewp":16.1,"wdir":250,"wspd":10,"visib":"10+","altim":1015,"slp":1014.3,"qcField":4,"metarType":"METAR","rawOb":"METAR KBHM 182253Z 25010KT 10SM FEW042 BKN060 OVC250 26/16 A2997 RMK AO2 SLP143 T02560161","lat":33.5655,"lon":-86.7449,"elev":191,"name":"Birmingham Intl, AL, US","cover":"OVC","clouds":[{"cover":"FEW","base":4200},{"cover":"BKN","base":6000},{"cover":"OVC","base":25000}],"fltCat":"VFR"},{"icaoId":"KMDW","receiptTime":"2026-04-18T22:56:20.311Z","obsTime":1776552780,"reportTime":"2026-04-18T23:00:00.000Z","temp":8.9,"dewp":-3.3,"wdir":290,"wspd":25,"wgst":34,"visib":"10+","altim":1015,"slp":1015.2,"qcField":4,"metarType":"METAR","rawOb":"METAR KMDW 182253Z 29025G34KT 10SM FEW050 FEW250 09/M03 A2997 RMK AO2 PK WND 28035/2156 SLP152 T00891033","lat":41.7841,"lon":-87.7552,"elev":186,"name":"Chicago/Midway Intl, IL, US","cover":"FEW","clouds":[{"cover":"FEW","base":5000},{"cover":"FEW","base":25000}],"fltCat":"VFR"},{"icaoId":"KMLU","receiptTime":"2026-04-18T23:00:41.845Z","obsTime":1776552780,"reportTime":"2026-04-18T23:00:00.000Z","temp":23.3,"dewp":18.3,"wdir":350,"wspd":14,"wgst":23,"visib":"10+","altim":1016.7,"slp":1016.4,"qcField":4,"metarType":"METAR","rawOb":"METAR KMLU 182253Z 35014G23KT 10SM OVC110 23/18 A3002 RMK AO2 SLP164 T02330183","lat":32.5155,"lon":-92.0299,"elev":22,"name":"Monroe Rgnl, LA, US","cover":"OVC","clouds":[{"cover":"OVC","base":11000}],"fltCat":"VFR"},{"icaoId":"KJBR","receiptTime":"2026-04-18T22:56:20.000Z","obsTime":1776552780,"reportTime":"2026-04-18T23:00:00.000Z","temp":13.3,"dewp":6.1,"wdir":350,"wspd":5,"visib":"10+","altim":1020.1,"slp":1019.7,"qcField":14,"metarType":"METAR","rawOb":"METAR KJBR 182253Z AUTO 35005KT 10SM OVC060 13/06 A3012 RMK AO2 SLP197 T01330061 $","lat":35.8357,"lon":-90.6442,"elev":79,"name":"Jonesboro Muni, AR, US","cover":"OVC","clouds":[{"cover":"OVC","base":6000}],"fltCat":"VFR"},{"icaoId":"KLFT","receiptTime":"2026-04-18T22:56:18.440Z","obsTime":1776552780,"reportTime":"2026-04-18T23:00:00.000Z","temp":23.9,"dewp":21.1,"wdir":160,"wspd":4,"visib":"10+","altim":1014.6,"slp":1014.3,"qcField":4,"metarType":"METAR","rawOb":"METAR KLFT 182253Z 16004KT 10SM OVC075 24/21 A2996 RMK AO2 SLP143 T02390211","lat":30.1986,"lon":-91.9896,"elev":9,"name":"Lafayette Rgnl, LA, US","cover":"OVC","clouds":[{"cover":"OVC","base":7500}],"fltCat":"VFR"},{"icaoId":"KLVS","receiptTime":"2026-04-18T22:56:18.626Z","obsTime":1776552780,"reportTime":"2026-04-18T23:00:00.000Z","temp":12.2,"dewp":-11.1,"wdir":120,"wspd":8,"wgst":18,"visib":"10+","altim":1024.5,"slp":1022.1,"qcField":14,"metarType":"METAR","rawOb":"METAR KLVS 182253Z AUTO 12008G18KT 10SM CLR 12/M11 A3025 RMK AO2 SLP221 T01221111 $","lat":35.6558,"lon":-105.1385,"elev":2095,"name":"Las Vegas Muni, NM, US","cover":"CLR","clouds":[],"fltCat":"VFR"},{"icaoId":"KMLC","receiptTime":"2026-04-18T22:56:20.461Z","obsTime":1776552780,"reportTime":"2026-04-18T23:00:00.000Z","temp":17.2,"dewp":0.6,"wdir":20,"wspd":13,"wgst":19,"visib":"10+","altim":1023.5,"slp":1023,"qcField":6,"metarType":"METAR","rawOb":"METAR KMLC 182253Z AUTO 02013G19KT 10SM CLR 17/01 A3022 RMK AO2 SLP230 T01720006","lat":34.8824,"lon":-95.7815,"elev":231,"name":"McAlester Rgnl, OK, US","cover":"CLR","clouds":[],"fltCat":"VFR"},{"icaoId":"KFMN","receiptTime":"2026-04-18T22:56:19.880Z","obsTime":1776552780,"reportTime":"2026-04-18T23:00:00.000Z","temp":16.1,"dewp":-20,"wdir":40,"wspd":5,"visib":"10+","altim":1022.4,"slp":1021.4,"qcField":4,"metarType":"METAR","rawOb":"METAR KFMN 182253Z 04005KT 10SM CLR 16/M20 A3019 RMK AO2 SLP214 T01611200","lat":36.7435,"lon":-108.2293,"elev":1677,"name":"Farmington/Four Corners Rgnl, NM, US","cover":"CLR","clouds":[],"fltCat":"VFR"},{"icaoId":"KSHR","receiptTime":"2026-04-18T22:56:20.918Z","obsTime":1776552780,"reportTime":"2026-04-18T23:00:00.000Z","temp":11.7,"dewp":-4.4,"wdir":340,"wspd":7,"visib":"10+","altim":1019,"slp":1020.1,"qcField":6,"metarType":"METAR","rawOb":"METAR KSHR 182253Z AUTO 34007KT 290V360 10SM CLR 12/M04 A3009 RMK AO2 SLP201 T01171044","lat":44.7603,"lon":-106.9741,"elev":1212,"name":"Sheridan Cnty Arpt, WY, US","cover":"CLR","clouds":[],"fltCat":"VFR"},{"icaoId":"KSJC","receiptTime":"2026-04-18T22:56:20.940Z","obsTime":1776552780,"reportTime":"2026-04-18T23:00:00.000Z","temp":23.9,"dewp":5.6,"wdir":310,"wspd":12,"visib":"10+","altim":1013.3,"slp":1012.9,"qcField":4,"metarType":"METAR","rawOb":"METAR KSJC 182253Z 31012KT 10SM BKN100 24/06 A2992 RMK AO2 SLP129 T02390056","lat":37.3594,"lon":-121.9244,"elev":13,"name":"San Jose Intl Arpt, CA, US","cover":"BKN","clouds":[{"cover":"BKN","base":10000}],"fltCat":"VFR"},{"icaoId":"KMTJ","receiptTime":"2026-04-18T22:56:20.636Z","obsTime":1776552780,"reportTime":"2026-04-18T23:00:00.000Z","temp":12.2,"dewp":-13.3,"wdir":290,"wspd":7,"visib":"10+","altim":1025.1,"slp":1023.3,"qcField":6,"metarType":"METAR","rawOb":"METAR KMTJ 182253Z AUTO 29007KT 10SM CLR 12/M13 A3027 RMK AO2 SLP233 T01221133","lat":38.5054,"lon":-107.8981,"elev":1755,"name":"Montrose Rgnl, CO, US","cover":"CLR","clouds":[],"fltCat":"VFR"},{"icaoId":"KLAX","receiptTime":"2026-04-18T22:56:20.033Z","obsTime":1776552780,"reportTime":"2026-04-18T23:00:00.000Z","temp":21.7,"dewp":13.9,"wdir":250,"wspd":11,"visib":"10+","altim":1013,"slp":1012.8,"qcField":12,"metarType":"METAR","rawOb":"METAR KLAX 182253Z 25011KT 10SM SCT250 22/14 A2991 RMK AO2 SLP128 T02170139 $","lat":33.9382,"lon":-118.3866,"elev":30,"name":"Los Angeles Intl, CA, US","cover":"SCT","clouds":[{"cover":"SCT","base":25000}],"fltCat":"VFR"},{"icaoId":"KPAE","receiptTime":"2026-04-18T22:56:18.898Z","obsTime":1776552780,"reportTime":"2026-04-18T23:00:00.000Z","temp":18.9,"dewp":0.6,"wdir":240,"wspd":7,"visib":"10+","altim":1014.6,"slp":1014.6,"qcField":4,"metarType":"METAR","rawOb":"METAR KPAE 182253Z 24007KT 10SM FEW110 19/01 A2996 RMK AO2 SLP146 T01890006","lat":47.9232,"lon":-122.2831,"elev":166,"name":"Everett/Paine Fld, WA, US","cover":"FEW","clouds":[{"cover":"FEW","base":11000}],"fltCat":"VFR"},{"icaoId":"KSTC","receiptTime":"2026-04-18T22:56:26.197Z","obsTime":1776552780,"reportTime":"2026-04-18T23:00:00.000Z","temp":6.7,"dewp":-11.7,"wdir":290,"wspd":22,"wgst":27,"visib":"10+","altim":1014.3,"slp":1016.1,"qcField":4,"metarType":"METAR","rawOb":"METAR KSTC 182253Z 29022G27KT 10SM FEW080 07/M12 A2995 RMK AO2 PK WND 30033/2156 SLP161 T00671117","lat":45.5442,"lon":-94.0516,"elev":302,"name":"St Cloud Rgnl, MN, US","cover":"FEW","clouds":[{"cover":"FEW","base":8000}],"fltCat":"VFR"},{"icaoId":"KYKM","receiptTime":"2026-04-18T22:56:18.237Z","obsTime":1776552780,"reportTime":"2026-04-18T23:00:00.000Z","temp":18.3,"dewp":-1.7,"wdir":170,"wspd":6,"visib":"10+","altim":1016.3,"slp":1016.4,"qcField":4,"metarType":"METAR","rawOb":"METAR KYKM 182253Z 17006KT 10SM SCT100 18/M02 A3001 RMK AO2 SLP164 T01831017","lat":46.564,"lon":-120.5349,"elev":319,"name":"Yakima/McAllister Fld, WA, US","cover":"SCT","clouds":[{"cover":"SCT","base":10000}],"fltCat":"VFR"},{"icaoId":"KLAW","receiptTime":"2026-04-18T22:56:18.365Z","obsTime":1776552780,"reportTime":"2026-04-18T23:00:00.000Z","temp":18.3,"dewp":-3.9,"wdir":30,"wspd":14,"visib":"10+","altim":1023.8,"slp":1023.5,"qcField":4,"metarType":"METAR","rawOb":"METAR KLAW 182253Z 03014KT 10SM CLR 18/M04 A3023 RMK AO2 SLP235 T01831039","lat":34.5577,"lon":-98.4172,"elev":328,"name":"Lawton-Fort Sill Rgnl, OK, US","cover":"CLR","clouds":[],"fltCat":"VFR"},{"icaoId":"KLGB","receiptTime":"2026-04-18T22:56:18.451Z","obsTime":1776552780,"reportTime":"2026-04-18T23:00:00.000Z","temp":26.7,"dewp":0.6,"wdir":210,"wspd":7,"visib":"10+","altim":1012.3,"slp":1012.1,"qcField":14,"metarType":"METAR","rawOb":"METAR KLGB 182253Z AUTO 21007KT 10SM CLR 27/01 A2989 RMK AO2 SLP121 T02670006 $","lat":33.8118,"lon":-118.1472,"elev":10,"name":"Long Beach Arpt, CA, US","cover":"CLR","clouds":[],"fltCat":"VFR"},{"icaoId":"KONT","receiptTime":"2026-04-18T22:56:18.783Z","obsTime":1776552780,"reportTime":"2026-04-18T23:00:00.000Z","temp":29.4,"dewp":0,"wdir":250,"wspd":12,"wgst":16,"visib":"10+","altim":1012.3,"slp":1010.7,"qcField":12,"metarType":"METAR","rawOb":"METAR KONT 182253Z 25012G16KT 10SM SCT250 29/00 A2989 RMK AO2 SLP107 T02940000 $","lat":34.0531,"lon":-117.5769,"elev":279,"name":"Ontario Intl, CA, US","cover":"SCT","clouds":[{"cover":"SCT","base":25000}],"fltCat":"VFR"},{"icaoId":"KABQ","receiptTime":"2026-04-18T22:56:17.149Z","obsTime":1776552720,"reportTime":"2026-04-18T23:00:00.000Z","temp":17.8,"dewp":-16.7,"wdir":"VRB","wspd":3,"visib":"10+","altim":1021.8,"slp":1018.1,"qcField":12,"metarType":"METAR","rawOb":"METAR KABQ 182252Z VRB03KT 10SM FEW250 18/M17 A3017 RMK AO2 SLP181 T01781167 $","lat":35.0419,"lon":-106.6154,"elev":1620,"name":"Albuquerque Intl, NM, US","cover":"FEW","clouds":[{"cover":"FEW","base":25000}],"fltCat":"VFR"},{"icaoId":"KATL","receiptTime":"2026-04-18T22:56:22.532Z","obsTime":1776552720,"reportTime":"2026-04-18T23:00:00.000Z","temp":26.7,"dewp":11.1,"wdir":200,"wspd":10,"visib":"10+","altim":1014,"slp":1013,"qcField":12,"metarType":"METAR","rawOb":"METAR KATL 182252Z 20010KT 10SM FEW065 FEW150 SCT200 OVC250 27/11 A2994 RMK AO2 SLP130 T02670111 $","lat":33.6297,"lon":-84.4422,"elev":309,"name":"Atlanta/Hartsfield-Jackson Intl, GA, US","cover":"OVC","clouds":[{"cover":"FEW","base":6500},{"cover":"FEW","base":15000},{"cover":"SCT","base":20000},{"cover":"OVC","base":25000}],"fltCat":"VFR"},{"icaoId":"KCID","receiptTime":"2026-04-18T22:56:17.195Z","obsTime":1776552720,"reportTime":"2026-04-18T23:00:00.000Z","temp":8.9,"dewp":-5.6,"wdir":280,"wspd":21,"wgst":29,"visib":"10+","altim":1017.7,"slp":1018.2,"qcField":4,"metarType":"METAR","rawOb":"METAR KCID 182252Z 28021G29KT 10SM FEW080 09/M06 A3005 RMK AO2 PK WND 29032/2207 SLP182 T00891056","lat":41.8829,"lon":-91.7246,"elev":257,"name":"Cedar Rapids/E Iowa Arpt, IA, US","cover":"FEW","clouds":[{"cover":"FEW","base":8000}],"fltCat":"VFR"},{"icaoId":"KCNU","receiptTime":"2026-04-18T22:56:17.210Z","obsTime":1776552720,"reportTime":"2026-04-18T23:00:00.000Z","temp":15,"dewp":-2.2,"wdir":300,"wspd":6,"visib":"10+","altim":1023.1,"slp":1023,"qcField":14,"metarType":"METAR","rawOb":"METAR KCNU 182252Z AUTO 30006KT 10SM CLR 15/M02 A3021 RMK AO2 SLP230 T01501022 $","lat":37.6705,"lon":-95.4846,"elev":301,"name":"Chanute/Johnson Arpt, KS, US","cover":"CLR","clouds":[],"fltCat":"VFR"},{"icaoId":"KCVG","receiptTime":"2026-04-18T22:56:22.663Z","obsTime":1776552720,"reportTime":"2026-04-18T23:00:00.000Z","temp":9.4,"dewp":5.6,"wdir":290,"wspd":10,"visib":"10+","altim":1015.3,"slp":1014.7,"qcField":4,"metarType":"METAR","rawOb":"METAR KCVG 182252Z 29010KT 10SM FEW011 OVC043 09/06 A2998 RMK AO2 SLP147 T00940056","lat":39.0444,"lon":-84.6724,"elev":264,"name":"Cincinnati Intl, KY, US","cover":"OVC","clouds":[{"cover":"FEW","base":1100},{"cover":"OVC","base":4300}],"fltCat":"VFR"},{"icaoId":"KHRL","receiptTime":"2026-04-18T22:56:22.879Z","obsTime":1776552720,"reportTime":"2026-04-18T23:00:00.000Z","temp":27.2,"dewp":21.7,"wdir":100,"wspd":14,"visib":"10+","altim":1012.3,"slp":1012,"qcField":4,"metarType":"METAR","rawOb":"METAR KHRL 182252Z 10014KT 10SM BKN065 27/22 A2989 RMK AO2 SLP120 T02720217","lat":26.2303,"lon":-97.6556,"elev":9,"name":"Harlingen/Valley Intl, TX, US","cover":"BKN","clouds":[{"cover":"BKN","base":6500}],"fltCat":"VFR"},{"icaoId":"KABI","receiptTime":"2026-04-18T22:56:17.137Z","obsTime":1776552720,"reportTime":"2026-04-18T23:00:00.000Z","temp":16.1,"dewp":2.8,"wdir":10,"wspd":12,"wgst":18,"visib":"10+","altim":1023.1,"slp":1022.2,"qcField":12,"metarType":"METAR","rawOb":"METAR KABI 182252Z 01012G18KT 10SM FEW110 16/03 A3021 RMK AO2 SLP222 T01610028 $","lat":32.4106,"lon":-99.6821,"elev":543,"name":"Abilene Rgnl, TX, US","cover":"FEW","clouds":[{"cover":"FEW","base":11000}],"fltCat":"VFR"},{"icaoId":"KDDC","receiptTime":"2026-04-18T22:56:22.707Z","obsTime":1776552720,"reportTime":"2026-04-18T23:00:00.000Z","temp":16.7,"dewp":-11.7,"wdir":330,"wspd":9,"wgst":19,"visib":8,"altim":1022.4,"slp":1022.3,"qcField":6,"metarType":"METAR","rawOb":"METAR KDDC 182252Z AUTO 33009G19KT 8SM CLR 17/M12 A3019 RMK AO2 PK WND 32028/2200 SLP223 T01671117","lat":37.7711,"lon":-99.9692,"elev":786,"name":"Dodge City Arpt, KS, US","cover":"CLR","clouds":[],"fltCat":"VFR"},{"icaoId":"KHUT","receiptTime":"2026-04-18T22:56:22.891Z","obsTime":1776552720,"reportTime":"2026-04-18T23:00:00.000Z","temp":17.8,"dewp":-7.2,"wdir":310,"wspd":13,"wgst":18,"visib":"10+","altim":1021.8,"slp":1020.9,"qcField":12,"metarType":"METAR","rawOb":"METAR KHUT 182252Z 31013G18KT 10SM SCT080 18/M07 A3017 RMK AO2 SLP209 T01781072 $","lat":38.0682,"lon":-97.8607,"elev":464,"name":"Hutchinson Muni, KS, US","cover":"SCT","clouds":[{"cover":"SCT","base":8000}],"fltCat":"VFR"},{"icaoId":"KMHK","receiptTime":"2026-04-18T22:56:17.250Z","obsTime":1776552720,"reportTime":"2026-04-18T23:00:00.000Z","temp":16.7,"dewp":-4.4,"wdir":320,"wspd":11,"wgst":20,"visib":"10+","altim":1021.1,"slp":1021.3,"qcField":12,"metarType":"METAR","rawOb":"METAR KMHK 182252Z 32011G20KT 10SM BKN100 17/M04 A3015 RMK AO2 SLP213 T01671044 $","lat":39.1346,"lon":-96.6789,"elev":320,"name":"Manhattan Rgnl, KS, US","cover":"BKN","clouds":[{"cover":"BKN","base":10000}],"fltCat":"VFR"},{"icaoId":"KMBG","receiptTime":"2026-04-18T22:56:17.222Z","obsTime":1776552720,"reportTime":"2026-04-18T23:00:00.000Z","temp":10,"dewp":-7.2,"wdir":310,"wspd":16,"wgst":23,"visib":"10+","altim":1016,"slp":1017.5,"qcField":6,"metarType":"METAR","rawOb":"METAR KMBG 182252Z AUTO 31016G23KT 10SM BKN090 10/M07 A3000 RMK AO2 PK WND 33027/2204 SLP175 T01001072","lat":45.543,"lon":-100.404,"elev":515,"name":"Mobridge Muni, SD, US","cover":"BKN","clouds":[{"cover":"BKN","base":9000}],"fltCat":"VFR"},{"icaoId":"KMLF","receiptTime":"2026-04-18T22:56:17.264Z","obsTime":1776552720,"reportTime":"2026-04-18T23:00:00.000Z","temp":18.3,"dewp":-16.1,"wdir":10,"wspd":11,"wgst":16,"visib":"10+","altim":1019.7,"slp":1018.6,"qcField":6,"metarType":"METAR","rawOb":"METAR KMLF 182252Z AUTO 01011G16KT 10SM CLR 18/M16 A3011 RMK AO2 SLP186 T01831161","lat":38.4225,"lon":-113.0109,"elev":1537,"name":"Milford Muni, UT, US","cover":"CLR","clouds":[],"fltCat":"VFR"},{"icaoId":"KDCA","receiptTime":"2026-04-18T22:56:22.694Z","obsTime":1776552720,"reportTime":"2026-04-18T23:00:00.000Z","temp":23.9,"dewp":13.9,"wdir":160,"wspd":13,"visib":"10+","altim":1010.6,"slp":1010.3,"qcField":4,"metarType":"METAR","rawOb":"METAR KDCA 182252Z 16013KT 10SM FEW150 BKN250 24/14 A2984 RMK AO2 SLP103 T02390139","lat":38.8472,"lon":-77.0345,"elev":4,"name":"Washington/Reagan-National Arpt, VA, US","cover":"BKN","clouds":[{"cover":"FEW","base":15000},{"cover":"BKN","base":25000}],"fltCat":"VFR"},{"icaoId":"KSUX","receiptTime":"2026-04-18T22:56:26.739Z","obsTime":1776552720,"reportTime":"2026-04-18T23:00:00.000Z","temp":11.7,"dewp":-12.2,"wdir":300,"wspd":15,"wgst":30,"visib":"10+","altim":1019,"slp":1019.7,"qcField":4,"metarType":"METAR","rawOb":"METAR KSUX 182252Z 30015G30KT 10SM FEW100 12/M12 A3009 RMK AO2 PK WND 29034/2222 SLP197 T01171122","lat":42.3917,"lon":-96.3795,"elev":332,"name":"Sioux City/Day Fld, IA, US","cover":"FEW","clouds":[{"cover":"FEW","base":10000}],"fltCat":"VFR"},{"icaoId":"KSGF","receiptTime":"2026-04-18T22:56:26.685Z","obsTime":1776552720,"reportTime":"2026-04-18T23:00:00.000Z","temp":13.9,"dewp":-1.7,"wdir":300,"wspd":8,"visib":"10+","altim":1021.8,"slp":1021.5,"qcField":4,"metarType":"METAR","rawOb":"METAR KSGF 182252Z 30008KT 10SM CLR 14/M02 A3017 RMK AO2 SLP215 T01391017","lat":37.2398,"lon":-93.3899,"elev":387,"name":"Springfield Muni, MO, US","cover":"CLR","clouds":[],"fltCat":"VFR"},{"icaoId":"KIAD","receiptTime":"2026-04-18T22:56:22.904Z","obsTime":1776552720,"reportTime":"2026-04-18T23:00:00.000Z","temp":25,"dewp":15,"wdir":130,"wspd":13,"wgst":24,"visib":"10+","altim":1009.2,"slp":1008.8,"qcField":12,"metarType":"METAR","rawOb":"METAR KIAD 182252Z 13013G24KT 10SM FEW140 SCT220 BKN260 25/15 A2980 RMK AO2 SLP088 T02500150 $","lat":38.9348,"lon":-77.4473,"elev":90,"name":"Washington/Dulles Intl, VA, US","cover":"BKN","clouds":[{"cover":"FEW","base":14000},{"cover":"SCT","base":22000},{"cover":"BKN","base":26000}],"fltCat":"VFR"},{"icaoId":"KCLT","receiptTime":"2026-04-18T22:56:22.637Z","obsTime":1776552720,"reportTime":"2026-04-18T23:00:00.000Z","temp":29.4,"dewp":12.8,"wdir":220,"wspd":8,"visib":"10+","altim":1011.9,"slp":1012.5,"qcField":4,"metarType":"METAR","rawOb":"METAR KCLT 182252Z 22008KT 10SM FEW085 BKN250 29/13 A2988 RMK AO2 SLP125 T02940128","lat":35.2225,"lon":-80.9543,"elev":223,"name":"Charlotte/Douglas Intl, NC, US","cover":"BKN","clouds":[{"cover":"FEW","base":8500},{"cover":"BKN","base":25000}],"fltCat":"VFR"},{"icaoId":"KOMA","receiptTime":"2026-04-18T22:56:26.560Z","obsTime":1776552720,"reportTime":"2026-04-18T23:00:00.000Z","temp":12.8,"dewp":-3.9,"wdir":310,"wspd":11,"wgst":20,"visib":"10+","altim":1020.4,"slp":1020.8,"qcField":12,"metarType":"METAR","rawOb":"METAR KOMA 182252Z 31011G20KT 10SM FEW080 SCT095 13/M04 A3013 RMK AO2 PK WND 29030/2231 SLP208 T01281039 $","lat":41.3119,"lon":-95.9018,"elev":299,"name":"Omaha/Eppley Fld, NE, US","cover":"SCT","clouds":[{"cover":"FEW","base":8000},{"cover":"SCT","base":9500}],"fltCat":"VFR"},{"icaoId":"KBIS","receiptTime":"2026-04-18T22:56:22.547Z","obsTime":1776552720,"reportTime":"2026-04-18T23:00:00.000Z","temp":6.7,"dewp":-4.4,"wdir":320,"wspd":18,"wgst":27,"visib":"10+","altim":1016.7,"slp":1018.6,"qcField":12,"metarType":"METAR","rawOb":"METAR KBIS 182252Z 32018G27KT 10SM BKN055 OVC070 07/M04 A3002 RMK AO2 PK WND 31027/2246 SLP186 T00671044 $","lat":46.7823,"lon":-100.7575,"elev":506,"name":"Bismarck Arpt, ND, US","cover":"OVC","clouds":[{"cover":"BKN","base":5500},{"cover":"OVC","base":7000}],"fltCat":"VFR"},{"icaoId":"KRAP","receiptTime":"2026-04-18T22:56:26.649Z","obsTime":1776552720,"reportTime":"2026-04-18T23:00:00.000Z","temp":10.6,"dewp":-6.7,"wdir":320,"wspd":17,"wgst":22,"visib":"10+","altim":1019.4,"slp":1021.5,"qcField":4,"metarType":"METAR","rawOb":"METAR KRAP 182252Z 32017G22KT 10SM FEW090 11/M07 A3010 RMK AO2 PK WND 31029/2153 SLP215 T01061067","lat":44.0458,"lon":-103.0544,"elev":965,"name":"Rapid City Rgnl, SD, US","cover":"FEW","clouds":[{"cover":"FEW","base":9000}],"fltCat":"VFR"},{"icaoId":"KOKC","receiptTime":"2026-04-18T22:56:26.548Z","obsTime":1776552720,"reportTime":"2026-04-18T23:00:00.000Z","temp":16.7,"dewp":-2.8,"wdir":360,"wspd":12,"wgst":20,"visib":"10+","altim":1023.8,"slp":1023.5,"qcField":12,"metarType":"METAR","rawOb":"METAR KOKC 182252Z 36012G20KT 10SM FEW250 17/M03 A3023 RMK AO2 SLP235 T01671028 $","lat":35.3843,"lon":-97.6003,"elev":391,"name":"Oklahoma City/Will Rogers Intl, OK, US","cover":"FEW","clouds":[{"cover":"FEW","base":25000}],"fltCat":"VFR"},{"icaoId":"KIFP","receiptTime":"2026-04-18T22:52:40.049Z","obsTime":1776552720,"reportTime":"2026-04-18T23:00:00.000Z","temp":29,"dewp":-14,"wdir":340,"wspd":8,"visib":20,"altim":1012.3,"qcField":0,"metarType":"METAR","rawOb":"METAR KIFP 182252Z 34008KT 20SM BKN170 29/M14 A2989","lat":35.1487,"lon":-114.5611,"elev":210,"name":"Bullhead City Intl, AZ, US","cover":"BKN","clouds":[{"cover":"BKN","base":17000}],"fltCat":"VFR"},{"icaoId":"KMKE","receiptTime":"2026-04-18T22:56:26.485Z","obsTime":1776552720,"reportTime":"2026-04-18T23:00:00.000Z","temp":8.3,"dewp":-4.4,"wdir":300,"wspd":15,"wgst":27,"visib":"10+","altim":1013.3,"slp":1013.5,"qcField":4,"metarType":"METAR","rawOb":"METAR KMKE 182252Z 30015G27KT 10SM BKN055 08/M04 A2992 RMK AO2 PK WND 26033/2153 SLP135 T00831044","lat":42.9549,"lon":-87.9045,"elev":203,"name":"Milwaukee/Mitchell Intl, WI, US","cover":"BKN","clouds":[{"cover":"BKN","base":5500}],"fltCat":"VFR"},{"icaoId":"KSPS","receiptTime":"2026-04-18T22:56:17.277Z","obsTime":1776552720,"reportTime":"2026-04-18T23:00:00.000Z","temp":18.3,"dewp":-3.9,"wdir":30,"wspd":15,"wgst":23,"visib":"10+","altim":1023.5,"slp":1022.9,"qcField":14,"metarType":"METAR","rawOb":"METAR KSPS 182252Z AUTO 03015G23KT 10SM CLR 18/M04 A3022 RMK AO2 SLP229 T01831039 $","lat":33.9785,"lon":-98.493,"elev":310,"name":"Wichita Falls Rgnl, TX, US","cover":"CLR","clouds":[],"fltCat":"VFR"},{"icaoId":"KPHX","receiptTime":"2026-04-18T22:54:06.664Z","obsTime":1776552660,"reportTime":"2026-04-18T23:00:00.000Z","temp":32.2,"dewp":-10.6,"wdir":"VRB","wspd":4,"visib":"10+","altim":1010.6,"slp":1008.9,"qcField":12,"metarType":"METAR","rawOb":"METAR KPHX 182251Z VRB04KT 10SM FEW250 32/M11 A2984 RMK AO2 SLP089 T03221106 $","lat":33.4278,"lon":-112.0037,"elev":338,"name":"Phoenix/Sky Harbor Intl, AZ, US","cover":"FEW","clouds":[{"cover":"FEW","base":25000}],"fltCat":"VFR"},{"icaoId":"KSAD","receiptTime":"2026-04-18T22:54:06.867Z","obsTime":1776552660,"reportTime":"2026-04-18T23:00:00.000Z","temp":28.3,"dewp":-7.2,"wdir":"VRB","wspd":3,"wgst":15,"visib":"10+","altim":1013.6,"slp":1009.7,"qcField":6,"metarType":"METAR","rawOb":"METAR KSAD 182251Z AUTO VRB03G15KT 10SM CLR 28/M07 A2993 RMK AO2 SLP097 T02831072","lat":32.8565,"lon":-109.636,"elev":937,"name":"Safford Rgnl, AZ, US","cover":"CLR","clouds":[],"fltCat":"VFR"},{"icaoId":"KLGU","receiptTime":"2026-04-18T22:54:06.292Z","obsTime":1776552660,"reportTime":"2026-04-18T23:00:00.000Z","temp":12.2,"dewp":-5.6,"wdir":"VRB","wspd":5,"visib":"10+","altim":1022.8,"slp":1022.8,"qcField":6,"metarType":"METAR","rawOb":"METAR KLGU 182251Z AUTO VRB05KT 10SM CLR 12/M06 A3020 RMK AO2 SLP228 T01221056","lat":41.7865,"lon":-111.8519,"elev":1359,"name":"Logan/Cache Arpt, UT, US","cover":"CLR","clouds":[],"fltCat":"VFR"},{"icaoId":"KEWR","receiptTime":"2026-04-18T22:54:08.787Z","obsTime":1776552660,"reportTime":"2026-04-18T23:00:00.000Z","temp":11.1,"dewp":8.9,"wdir":140,"wspd":9,"visib":"10+","altim":1015.7,"slp":1015.3,"qcField":4,"metarType":"METAR","rawOb":"METAR KEWR 182251Z 14009KT 10SM BKN009 BKN025 BKN250 11/09 A2999 RMK AO2 SLP153 T01110089","lat":40.6828,"lon":-74.1692,"elev":2,"name":"Newark Intl, NJ, US","cover":"BKN","clouds":[{"cover":"BKN","base":900},{"cover":"BKN","base":2500},{"cover":"BKN","base":25000}],"fltCat":"IFR"},{"icaoId":"KELP","receiptTime":"2026-04-18T22:54:08.721Z","obsTime":1776552660,"reportTime":"2026-04-18T23:00:00.000Z","temp":22.2,"dewp":-5.6,"wdir":120,"wspd":16,"wgst":24,"visib":"10+","altim":1019.4,"slp":1014,"qcField":4,"metarType":"METAR","rawOb":"METAR KELP 182251Z 12016G24KT 10SM FEW250 22/M06 A3010 RMK AO2 SLP140 T02221056","lat":31.8123,"lon":-106.3774,"elev":1205,"name":"El Paso Intl, TX, US","cover":"FEW","clouds":[{"cover":"FEW","base":25000}],"fltCat":"VFR"},{"icaoId":"KCRP","receiptTime":"2026-04-18T22:54:08.525Z","obsTime":1776552660,"reportTime":"2026-04-18T23:00:00.000Z","temp":26.7,"dewp":22.2,"wdir":100,"wspd":12,"visib":"10+","altim":1013.6,"slp":1013.4,"qcField":12,"metarType":"METAR","rawOb":"METAR KCRP 182251Z 10012KT 10SM FEW021 SCT028 BKN035 OVC250 27/22 A2993 RMK AO2 SLP134 T02670222 $","lat":27.7734,"lon":-97.513,"elev":11,"name":"Corpus Christi Intl, TX, US","cover":"OVC","clouds":[{"cover":"FEW","base":2100},{"cover":"SCT","base":2800},{"cover":"BKN","base":3500},{"cover":"OVC","base":25000}],"fltCat":"VFR"},{"icaoId":"KCMH","receiptTime":"2026-04-18T22:54:08.402Z","obsTime":1776552660,"reportTime":"2026-04-18T23:00:00.000Z","temp":11.1,"dewp":8.3,"wdir":290,"wspd":13,"wgst":27,"visib":6,"altim":1013,"slp":1012.7,"qcField":4,"wxString":"-RA","precip":0.005,"metarType":"METAR","rawOb":"METAR KCMH 182251Z 29013G27KT 6SM -RA SCT019 OVC033 11/08 A2991 RMK AO2 PK WND 29027/2156 RAB01E21B48 SLP127 P0000 T01110083","lat":39.9907,"lon":-82.877,"elev":257,"name":"Columbus/Glenn Intl, OH, US","cover":"OVC","clouds":[{"cover":"SCT","base":1900},{"cover":"OVC","base":3300}],"fltCat":"VFR"},{"icaoId":"KCLE","receiptTime":"2026-04-18T22:54:08.266Z","obsTime":1776552660,"reportTime":"2026-04-18T23:00:00.000Z","temp":11.7,"dewp":7.8,"wdir":270,"wspd":12,"wgst":21,"visib":"10+","altim":1010.6,"slp":1011.7,"qcField":12,"precip":0.005,"metarType":"METAR","rawOb":"METAR KCLE 182251Z 27012G21KT 10SM OVC037 12/08 A2984 RMK AO2 RAE2158 PRESRR SLP117 P0000 T01170078 $","lat":41.4057,"lon":-81.8519,"elev":237,"name":"Cleveland/Hopkins Intl, OH, US","cover":"OVC","clouds":[{"cover":"OVC","base":3700}],"fltCat":"VFR"},{"icaoId":"KBDL","receiptTime":"2026-04-18T22:54:08.014Z","obsTime":1776552660,"reportTime":"2026-04-18T23:00:00.000Z","temp":16.1,"dewp":9.4,"wdir":120,"wspd":7,"visib":"10+","altim":1014.6,"slp":1014.6,"qcField":4,"metarType":"METAR","rawOb":"METAR KBDL 182251Z 12007KT 10SM OVC028 16/09 A2996 RMK AO2 SLP146 T01610094","lat":41.9374,"lon":-72.682,"elev":52,"name":"Hartford/Bradley Intl, CT, US","cover":"OVC","clouds":[{"cover":"OVC","base":2800}],"fltCat":"MVFR"},{"icaoId":"KACT","receiptTime":"2026-04-18T22:54:07.823Z","obsTime":1776552660,"reportTime":"2026-04-18T23:00:00.000Z","temp":12.2,"dewp":6.7,"wdir":360,"wspd":12,"visib":"10+","altim":1022.1,"slp":1021.7,"qcField":4,"precip":0.005,"metarType":"METAR","rawOb":"METAR KACT 182251Z 36012KT 10SM SCT110 12/07 A3018 RMK AO2 LTG DSNT E AND SE RAE27 SLP217 P0000 T01220067","lat":31.618,"lon":-97.2283,"elev":150,"name":"Waco Rgnl, TX, US","cover":"SCT","clouds":[{"cover":"SCT","base":11000}],"fltCat":"VFR"},{"icaoId":"KXWA","receiptTime":"2026-04-18T22:54:07.301Z","obsTime":1776552660,"reportTime":"2026-04-18T23:00:00.000Z","temp":7.8,"dewp":-7.2,"wdir":330,"wspd":18,"wgst":31,"visib":"10+","altim":1016.3,"slp":1020,"qcField":6,"metarType":"METAR","rawOb":"METAR KXWA 182251Z AUTO 33018G31KT 10SM FEW065 08/M07 A3001 RMK AO2 PK WND 33031/2251 SLP200 T00781072","lat":48.2542,"lon":-103.7469,"elev":717,"name":"Williston/Basin Intl, ND, US","cover":"FEW","clouds":[{"cover":"FEW","base":6500}],"fltCat":"VFR"},{"icaoId":"KVNY","receiptTime":"2026-04-18T22:54:07.271Z","obsTime":1776552660,"reportTime":"2026-04-18T23:00:00.000Z","temp":27.2,"dewp":2.2,"wdir":160,"wspd":11,"wgst":15,"visib":"10+","altim":1012.3,"slp":1011.4,"qcField":12,"metarType":"METAR","rawOb":"METAR KVNY 182251Z 16011G15KT 10SM CLR 27/02 A2989 RMK AO2 SLP114 T02720022 $","lat":34.2121,"lon":-118.4915,"elev":241,"name":"Van Nuys Arpt, CA, US","cover":"CLR","clouds":[],"fltCat":"VFR"},{"icaoId":"KSTL","receiptTime":"2026-04-18T22:54:07.159Z","obsTime":1776552660,"reportTime":"2026-04-18T23:00:00.000Z","temp":14.4,"dewp":-2.2,"wdir":300,"wspd":14,"wgst":22,"visib":"10+","altim":1019,"slp":1019.1,"qcField":12,"metarType":"METAR","rawOb":"METAR KSTL 182251Z 30014G22KT 10SM FEW250 14/M02 A3009 RMK AO2 SLP191 T01441022 $","lat":38.7525,"lon":-90.3734,"elev":163,"name":"St Louis/Lambert Intl, MO, US","cover":"FEW","clouds":[{"cover":"FEW","base":25000}],"fltCat":"VFR"},{"icaoId":"KMYL","receiptTime":"2026-04-18T22:54:06.553Z","obsTime":1776552660,"reportTime":"2026-04-18T23:00:00.000Z","temp":9.4,"dewp":-5.6,"wdir":210,"wspd":10,"visib":"10+","altim":1020.7,"slp":1021.9,"qcField":6,"metarType":"METAR","rawOb":"METAR KMYL 182251Z AUTO 21010KT 10SM FEW120 09/M06 A3014 RMK AO2 SLP219 T00941056","lat":44.8943,"lon":-116.0998,"elev":1532,"name":"McCall Muni, ID, US","cover":"FEW","clouds":[{"cover":"FEW","base":12000}],"fltCat":"VFR"},{"icaoId":"KSAT","receiptTime":"2026-04-18T22:54:06.940Z","obsTime":1776552660,"reportTime":"2026-04-18T23:00:00.000Z","temp":15,"dewp":7.2,"wdir":360,"wspd":21,"wgst":30,"visib":"10+","altim":1018.4,"slp":1017,"qcField":4,"metarType":"METAR","rawOb":"METAR KSAT 182251Z 36021G30KT 10SM OVC037 15/07 A3007 RMK AO2 PK WND 36030/2249 LTG DSNT W AND NW SLP170 CB DSNT W MOV NE T01500072","lat":29.5443,"lon":-98.4839,"elev":246,"name":"San Antonio Intl, TX, US","cover":"OVC","clouds":[{"cover":"OVC","base":3700}],"fltCat":"VFR"},{"icaoId":"KSAN","receiptTime":"2026-04-18T22:54:06.894Z","obsTime":1776552660,"reportTime":"2026-04-18T23:00:00.000Z","temp":21.7,"dewp":13.9,"wdir":280,"wspd":5,"visib":"10+","altim":1014,"slp":1013.9,"qcField":12,"metarType":"METAR","rawOb":"METAR KSAN 182251Z 28005KT 10SM FEW250 22/14 A2994 RMK AO2 SLP139 T02170139 $","lat":32.7364,"lon":-117.1973,"elev":3,"name":"San Diego Intl Arpt, CA, US","cover":"FEW","clouds":[{"cover":"FEW","base":25000}],"fltCat":"VFR"},{"icaoId":"KORF","receiptTime":"2026-04-18T22:54:06.611Z","obsTime":1776552660,"reportTime":"2026-04-18T23:00:00.000Z","temp":26.1,"dewp":15,"wdir":170,"wspd":7,"visib":"10+","altim":1011.6,"slp":1011.4,"qcField":4,"metarType":"METAR","rawOb":"METAR KORF 182251Z 17007KT 10SM CLR 26/15 A2987 RMK AO2 SLP114 T02610150","lat":36.9037,"lon":-76.1927,"elev":5,"name":"Norfolk Intl, VA, US","cover":"CLR","clouds":[],"fltCat":"VFR"},{"icaoId":"KROW","receiptTime":"2026-04-18T22:54:06.849Z","obsTime":1776552660,"reportTime":"2026-04-18T23:00:00.000Z","temp":18.9,"dewp":-10,"visib":"10+","altim":1022.8,"slp":1019.6,"qcField":12,"metarType":"METAR","rawOb":"METAR KROW 182251Z 10SM CLR 19/M10 A3020 RMK AO2 SLP196 T01891100 $","lat":33.3074,"lon":-104.5082,"elev":1105,"name":"Roswell/Ind Arpt, NM, US","cover":"CLR","clouds":[],"fltCat":"VFR"},{"icaoId":"KRDU","receiptTime":"2026-04-18T22:54:06.828Z","obsTime":1776552660,"reportTime":"2026-04-18T23:00:00.000Z","temp":30.6,"dewp":8.3,"wdir":160,"wspd":6,"visib":"10+","altim":1010.9,"slp":1010.3,"qcField":12,"metarType":"METAR","rawOb":"METAR KRDU 182251Z 16006KT 10SM FEW085 BKN250 31/08 A2985 RMK AO2 SLP103 T03060083 $","lat":35.8923,"lon":-78.782,"elev":121,"name":"Raleigh-Durham Intl, NC, US","cover":"BKN","clouds":[{"cover":"FEW","base":8500},{"cover":"BKN","base":25000}],"fltCat":"VFR"},{"icaoId":"KPVD","receiptTime":"2026-04-18T22:54:06.771Z","obsTime":1776552660,"reportTime":"2026-04-18T23:00:00.000Z","temp":10.6,"dewp":6.7,"wdir":40,"wspd":5,"visib":"10+","altim":1016.7,"slp":1016.7,"qcField":4,"metarType":"METAR","rawOb":"METAR KPVD 182251Z 04005KT 10SM OVC017 11/07 A3002 RMK AO2 SLP167 T01060067","lat":41.7225,"lon":-71.4325,"elev":15,"name":"Providence/Green Mem, RI, US","cover":"OVC","clouds":[{"cover":"OVC","base":1700}],"fltCat":"MVFR"},{"icaoId":"KOXR","receiptTime":"2026-04-18T22:54:06.645Z","obsTime":1776552660,"reportTime":"2026-04-18T23:00:00.000Z","temp":21.1,"dewp":13.9,"wdir":270,"wspd":9,"visib":"10+","altim":1013.3,"slp":1013.2,"qcField":12,"metarType":"METAR","rawOb":"METAR KOXR 182251Z 27009KT 10SM CLR 21/14 A2992 RMK AO2 SLP132 T02110139 $","lat":34.2001,"lon":-119.2042,"elev":12,"name":"Oxnard Arpt, CA, US","cover":"CLR","clouds":[],"fltCat":"VFR"},{"icaoId":"KPIT","receiptTime":"2026-04-18T22:54:06.696Z","obsTime":1776552660,"reportTime":"2026-04-18T23:00:00.000Z","temp":16.1,"dewp":15.6,"wdir":270,"wspd":6,"visib":4,"altim":1010.2,"slp":1010.5,"qcField":4,"wxString":"-RA BR","precip":0.11,"metarType":"METAR","rawOb":"METAR KPIT 182251Z 27006KT 4SM -RA BR SCT007 BKN019 OVC044 16/16 A2983 RMK AO2 SLP105 P0011 T01610156","lat":40.4814,"lon":-80.2083,"elev":339,"name":"Pittsburgh Intl, PA, US","cover":"OVC","clouds":[{"cover":"SCT","base":700},{"cover":"BKN","base":1900},{"cover":"OVC","base":4400}],"fltCat":"MVFR"},{"icaoId":"KORD","receiptTime":"2026-04-18T22:54:06.585Z","obsTime":1776552660,"reportTime":"2026-04-18T23:00:00.000Z","temp":8.9,"dewp":-3.3,"wdir":290,"wspd":17,"wgst":28,"visib":"10+","altim":1014.6,"slp":1014.7,"qcField":12,"metarType":"METAR","rawOb":"METAR KORD 182251Z 29017G28KT 10SM FEW050 FEW250 09/M03 A2996 RMK AO2 PK WND 26034/2227 SLP147 T00891033 $","lat":41.9602,"lon":-87.9316,"elev":202,"name":"Chicago/O'Hare Intl, IL, US","cover":"FEW","clouds":[{"cover":"FEW","base":5000},{"cover":"FEW","base":25000}],"fltCat":"VFR"},{"icaoId":"KLGA","receiptTime":"2026-04-18T22:54:06.263Z","obsTime":1776552660,"reportTime":"2026-04-18T23:00:00.000Z","temp":13.3,"dewp":9.4,"wdir":140,"wspd":11,"wgst":19,"visib":"10+","altim":1015,"slp":1014.7,"qcField":12,"metarType":"METAR","rawOb":"METAR KLGA 182251Z 14011G19KT 10SM FEW010 SCT018 BKN170 BKN250 13/09 A2997 RMK AO2 SLP147 T01330094 $","lat":40.7794,"lon":-73.8803,"elev":9,"name":"New York/La Guardia Arpt, NY, US","cover":"BKN","clouds":[{"cover":"FEW","base":1000},{"cover":"SCT","base":1800},{"cover":"BKN","base":17000},{"cover":"BKN","base":25000}],"fltCat":"VFR"},{"icaoId":"KIGM","receiptTime":"2026-04-18T22:54:06.176Z","obsTime":1776552660,"reportTime":"2026-04-18T23:00:00.000Z","temp":25.6,"dewp":-13.9,"wdir":200,"wspd":7,"visib":"10+","altim":1015.7,"slp":1010.6,"qcField":6,"metarType":"METAR","rawOb":"METAR KIGM 182251Z AUTO 20007KT 10SM CLR 26/M14 A2999 RMK AO2 SLP106 T02561139","lat":35.2575,"lon":-113.9341,"elev":1045,"name":"Kingman Arpt, AZ, US","cover":"CLR","clouds":[],"fltCat":"VFR"},{"icaoId":"KIWA","receiptTime":"2026-04-18T22:51:29.309Z","obsTime":1776552600,"reportTime":"2026-04-18T23:00:00.000Z","temp":31,"dewp":-11,"wdir":"VRB","wspd":6,"visib":"10+","altim":1011.6,"qcField":0,"metarType":"METAR","rawOb":"METAR KIWA 182250Z VRB06KT 10SM CLR 31/M11 A2987","lat":33.3008,"lon":-111.6437,"elev":420,"name":"Phoenix/Mesa Gateway Arpt, AZ, US","cover":"CLR","clouds":[],"fltCat":"VFR"},{"icaoId":"KHOB","receiptTime":"2026-04-18T22:50:50.057Z","obsTime":1776552600,"reportTime":"2026-04-18T23:00:00.000Z","temp":19,"dewp":-11,"wdir":40,"wspd":9,"wgst":15,"visib":"10+","altim":1023.5,"qcField":0,"metarType":"METAR","rawOb":"METAR KHOB 182250Z 04009G15KT 10SM CLR 19/M11 A3022","lat":32.6797,"lon":-103.2222,"elev":1112,"name":"Hobbs Arpt, NM, US","cover":"CLR","clouds":[],"fltCat":"VFR"},{"icaoId":"KBJC","receiptTime":"2026-04-18T22:54:15.918Z","obsTime":1776552480,"reportTime":"2026-04-18T23:00:00.000Z","temp":15,"dewp":-15,"wdir":340,"wspd":7,"wgst":17,"visib":"10+","altim":1021.4,"qcField":0,"metarType":"METAR","rawOb":"METAR KBJC 182248Z 34007G17KT 10SM CLR 15/M15 A3016","lat":39.9008,"lon":-105.1042,"elev":1694,"name":"Rocky Mtn Metro, CO, US","cover":"CLR","clouds":[],"fltCat":"VFR"},{"icaoId":"KGEU","receiptTime":"2026-04-18T22:49:11.861Z","obsTime":1776552480,"reportTime":"2026-04-18T23:00:00.000Z","temp":31,"dewp":-11,"wdir":50,"wspd":3,"visib":"10+","altim":1010.2,"qcField":0,"metarType":"METAR","rawOb":"METAR KGEU 182248Z 05003KT 10SM CLR 31/M11 A2983","lat":33.528,"lon":-112.293,"elev":319,"name":"Glendale Muni, AZ, US","cover":"CLR","clouds":[],"fltCat":"VFR"},{"icaoId":"KAEG","receiptTime":"2026-04-18T22:47:00.674Z","obsTime":1776552420,"reportTime":"2026-04-18T23:00:00.000Z","temp":16,"dewp":-26,"wdir":190,"wspd":3,"visib":"10+","altim":1022.4,"qcField":0,"metarType":"METAR","rawOb":"METAR KAEG 182247Z 19003KT 10SM CLR 16/M26 A3019","lat":35.15,"lon":-106.7929,"elev":1771,"name":"Albuquerque/Double Eagle Arpt, NM, US","cover":"CLR","clouds":[],"fltCat":"VFR"},{"icaoId":"KSUN","receiptTime":"2026-04-18T22:54:14.605Z","obsTime":1776552420,"reportTime":"2026-04-18T23:00:00.000Z","temp":11,"dewp":-11,"wdir":120,"wspd":8,"visib":"10+","altim":1022.4,"qcField":0,"metarType":"METAR","rawOb":"METAR KSUN 182247Z 12008KT 10SM CLR 11/M11 A3019","lat":43.4969,"lon":-114.2923,"elev":1619,"name":"Hailey/Friedman Mem, ID, US","cover":"CLR","clouds":[],"fltCat":"VFR"},{"icaoId":"KGYR","receiptTime":"2026-04-18T22:47:50.415Z","obsTime":1776552420,"reportTime":"2026-04-18T23:00:00.000Z","temp":32,"dewp":-8,"wdir":"VRB","wspd":4,"visib":"10+","altim":1011.3,"qcField":0,"metarType":"METAR","rawOb":"METAR KGYR 182247Z VRB04KT 10SM SKC 32/M08 A2986","lat":33.428,"lon":-112.368,"elev":292,"name":"Phoenix/Goodyear Muni, AZ, US","cover":"SKC","clouds":[],"fltCat":"VFR"},{"icaoId":"KCHD","receiptTime":"2026-04-18T22:50:49.743Z","obsTime":1776552420,"reportTime":"2026-04-18T23:00:00.000Z","temp":31,"dewp":-7,"wdir":"VRB","wspd":4,"visib":"10+","altim":1011.3,"qcField":0,"metarType":"METAR","rawOb":"METAR KCHD 182247Z VRB04KT 10SM CLR 31/M07 A2986","lat":33.2669,"lon":-111.8086,"elev":378,"name":"Chandler Muni, AZ, US","cover":"CLR","clouds":[],"fltCat":"VFR"},{"icaoId":"KRYN","receiptTime":"2026-04-18T22:46:19.213Z","obsTime":1776552300,"reportTime":"2026-04-18T23:00:00.000Z","temp":32,"dewp":-5,"wdir":20,"wspd":4,"wgst":13,"visib":"10+","altim":1011.3,"qcField":0,"metarType":"METAR","rawOb":"METAR KRYN 182245Z 02004G13KT 10SM CLR 32/M05 A2986","lat":32.1418,"lon":-111.1767,"elev":731,"name":"Tucson/Ryan Fld, AZ, US","cover":"CLR","clouds":[],"fltCat":"VFR"},{"icaoId":"KANW","receiptTime":"2026-04-18T22:38:23.564Z","obsTime":1776551700,"reportTime":"2026-04-18T22:35:00.000Z","temp":10.6,"dewp":-9.7,"wdir":310,"wspd":20,"wgst":27,"visib":"10+","altim":1020.7,"qcField":6,"metarType":"METAR","rawOb":"METAR KANW 182235Z AUTO 31020G27KT 10SM SCT075 BKN090 BKN100 11/M10 A3014 RMK AO2 T01061097","lat":42.5748,"lon":-99.9984,"elev":788,"name":"Ainsworth Muni, NE, US","cover":"BKN","clouds":[{"cover":"SCT","base":7500},{"cover":"BKN","base":9000},{"cover":"BKN","base":10000}],"fltCat":"VFR"},{"icaoId":"KBIE","receiptTime":"2026-04-18T22:38:21.730Z","obsTime":1776551700,"reportTime":"2026-04-18T22:35:00.000Z","temp":14.4,"dewp":-5,"wdir":290,"wspd":11,"wgst":17,"visib":"10+","altim":1020.4,"qcField":6,"metarType":"METAR","rawOb":"METAR KBIE 182235Z AUTO 29011G17KT 10SM SCT065 SCT080 BKN090 14/M05 A3013 RMK AO2 T01441050","lat":40.3005,"lon":-96.7517,"elev":398,"name":"Beatrice Muni, NE, US","cover":"BKN","clouds":[{"cover":"SCT","base":6500},{"cover":"SCT","base":8000},{"cover":"BKN","base":9000}],"fltCat":"VFR"},{"icaoId":"KJFK","receiptTime":"2026-04-18T22:08:18.036Z","obsTime":1776549840,"reportTime":"2026-04-18T22:04:00.000Z","temp":12.2,"dewp":8.9,"wdir":130,"wspd":10,"visib":"10+","altim":1016.3,"qcField":0,"metarType":"SPECI","rawOb":"SPECI KJFK 182204Z 13010KT 10SM OVC009 12/09 A3001 RMK T01220089","lat":40.6392,"lon":-73.7639,"elev":3,"name":"New York/JF Kennedy Intl, NY, US","cover":"OVC","clouds":[{"cover":"OVC","base":900}],"fltCat":"IFR"},{"icaoId":"KNYL","receiptTime":"2026-04-18T22:00:57.109Z","obsTime":1776549420,"reportTime":"2026-04-18T22:00:00.000Z","temp":30.6,"dewp":-7.8,"wdir":0,"wspd":0,"visib":"10+","altim":1011.6,"slp":1011.2,"qcField":4,"metarType":"METAR","rawOb":"METAR KNYL 182157Z 00000KT 10SM CLR 31/M08 A2987 RMK AO2 SLP112 T03061078","lat":32.66,"lon":-114.6078,"elev":58,"name":"Yuma , AZ, US","cover":"CLR","clouds":[],"fltCat":"VFR"},{"icaoId":"KLUF","receiptTime":"2026-04-18T22:08:13.978Z","obsTime":1776549300,"reportTime":"2026-04-18T22:00:00.000Z","temp":31.6,"dewp":-12.7,"wdir":350,"wspd":3,"visib":"10+","altim":1011.3,"slp":1010,"qcField":14,"metarType":"METAR","rawOb":"METAR KLUF 182155Z AUTO 35003KT 10SM CLR 32/M13 A2986 RMK AO2 SLP100 T03161127 $","lat":33.538,"lon":-112.38,"elev":333,"name":"Phoenix/Luke AFB, AZ, US","cover":"CLR","clouds":[],"fltCat":"VFR"},{"icaoId":"KEND","receiptTime":"2026-04-18T22:16:05.028Z","obsTime":1776549300,"reportTime":"2026-04-18T22:00:00.000Z","temp":17.1,"dewp":-2.6,"wdir":210,"wspd":3,"visib":"10+","altim":1022.4,"slp":1022.4,"qcField":14,"metarType":"METAR","rawOb":"METAR KEND 182155Z AUTO 21003KT 10SM CLR 17/M03 A3019 RMK AO2 SLP224 T01711026 $","lat":36.338,"lon":-97.919,"elev":392,"name":"Enid/Vance AFB, OK, US","cover":"CLR","clouds":[],"fltCat":"VFR"}]