[{"icaoId":"KAUS","receiptTime":"2026-04-19T01:27:03.460Z","obsTime":1776561840,"reportTime":"2026-04-19T01:24:00.000Z","temp":10.6,"dewp":7.8,"wdir":30,"wspd":16,"wgst":24,"visib":7,"altim":1022.1,"qcField":12,"wxString":"-TSRA","precip":0.04,"metarType":"SPECI","rawOb":"SPECI KAUS 190124Z 03016G24KT 7SM -TSRA FEW030 SCT050CB BKN080 11/08 A3018 RMK AO2 WSHFT 0104 LTG DSNT N-SE OCNL LTGICCCCG SE TS SE MOV NE P0004 T01060078 $","lat":30.1831,"lon":-97.6806,"elev":148,"name":"Austin/Bergstrom Intl, TX, US","cover":"BKN","clouds":[{"cover":"FEW","base":3000},{"cover":"SCT","base":5000},{"cover":"BKN","base":8000}],"fltCat":"VFR"},{"icaoId":"KPHL","receiptTime":"2026-04-19T01:24:08.422Z","obsTime":1776561660,"reportTime":"2026-04-19T01:21:00.000Z","temp":12.2,"dewp":10,"wdir":120,"wspd":10,"visib":"10+","altim":1013.6,"qcField":12,"metarType":"SPECI","rawOb":"SPECI KPHL 190121Z 12010KT 10SM OVC009 12/10 A2993 RMK AO2 T01220100 $","lat":39.8733,"lon":-75.2268,"elev":2,"name":"Philadelphia Intl, PA, US","cover":"OVC","clouds":[{"cover":"OVC","base":900}],"fltCat":"IFR"},{"icaoId":"KPIT","receiptTime":"2026-04-19T01:22:05.167Z","obsTime":1776561480,"reportTime":"2026-04-19T01:18:00.000Z","temp":15.6,"dewp":14.4,"wdir":300,"wspd":17,"wgst":26,"visib":3,"altim":1011.6,"qcField":12,"wxString":"-RA BR","precip":0.005,"metarType":"SPECI","rawOb":"SPECI KPIT 190118Z 30017G26KT 3SM -RA BR FEW005 OVC017 16/14 A2987 RMK AO2 PK WND 29026/0116 RAB09 PRESRR P0000 T01560144 $","lat":40.4814,"lon":-80.2083,"elev":339,"name":"Pittsburgh Intl, PA, US","cover":"OVC","clouds":[{"cover":"FEW","base":500},{"cover":"OVC","base":1700}],"fltCat":"MVFR"},{"icaoId":"KBJI","receiptTime":"2026-04-19T01:18:18.940Z","obsTime":1776561300,"reportTime":"2026-04-19T01:15:00.000Z","temp":0,"dewp":-9.5,"wdir":310,"wspd":8,"visib":"10+","altim":1013.6,"qcField":6,"metarType":"METAR","rawOb":"METAR KBJI 190115Z AUTO 31008KT 10SM CLR 00/M09 A2993 RMK AO2 T00001095","lat":47.5076,"lon":-94.9279,"elev":422,"name":"Bemidji Municip, MN, US","cover":"CLR","clouds":[],"fltCat":"VFR"},{"icaoId":"KIFP","receiptTime":"2026-04-19T01:20:46.299Z","obsTime":1776561300,"reportTime":"2026-04-19T01:15:00.000Z","temp":29,"dewp":-15,"wdir":0,"wspd":0,"visib":"10+","altim":1011.3,"qcField":6,"metarType":"METAR","rawOb":"METAR KIFP 190115Z AUTO 00000KT 10SM CLR 29/M15 A2986 RMK AO2","lat":35.1487,"lon":-114.5611,"elev":210,"name":"Bullhead City Intl, AZ, US","cover":"CLR","clouds":[],"fltCat":"VFR"},{"icaoId":"KHOB","receiptTime":"2026-04-19T01:18:08.190Z","obsTime":1776561300,"reportTime":"2026-04-19T01:15:00.000Z","temp":15,"dewp":-11,"wdir":90,"wspd":10,"visib":"10+","altim":1024.5,"qcField":6,"metarType":"METAR","rawOb":"METAR KHOB 190115Z AUTO 09010KT 10SM CLR 15/M11 A3025 RMK AO2","lat":32.6797,"lon":-103.2222,"elev":1112,"name":"Hobbs Arpt, NM, US","cover":"CLR","clouds":[],"fltCat":"VFR"},{"icaoId":"KHTH","receiptTime":"2026-04-19T01:20:34.985Z","obsTime":1776561300,"reportTime":"2026-04-19T01:15:00.000Z","temp":22,"dewp":-21,"wdir":330,"wspd":5,"wgst":11,"visib":"10+","altim":1013.6,"qcField":6,"metarType":"METAR","rawOb":"METAR KHTH 190115Z AUTO 33005G11KT 10SM CLR 22/M21 A2993 RMK A01","lat":38.5448,"lon":-118.6314,"elev":1281,"name":"Hawthorne Muni, NV, US","cover":"CLR","clouds":[],"fltCat":"VFR"},{"icaoId":"KMEV","receiptTime":"2026-04-19T01:20:46.338Z","obsTime":1776561300,"reportTime":"2026-04-19T01:15:00.000Z","temp":19,"dewp":1,"wdir":260,"wspd":11,"visib":"10+","altim":1014.6,"qcField":6,"metarType":"METAR","rawOb":"METAR KMEV 190115Z AUTO 26011KT 10SM CLR 19/01 A2996 RMK AO2","lat":38.9963,"lon":-119.75,"elev":1437,"name":"Minden-Tahoe Arpt, NV, US","cover":"CLR","clouds":[],"fltCat":"VFR"},{"icaoId":"KMHR","receiptTime":"2026-04-19T01:20:46.357Z","obsTime":1776561300,"reportTime":"2026-04-19T01:15:00.000Z","temp":24,"dewp":3,"wdir":210,"wspd":5,"visib":"10+","altim":1011.9,"qcField":6,"metarType":"METAR","rawOb":"METAR KMHR 190115Z AUTO 21005KT 10SM CLR 24/03 A2988 RMK AO2","lat":38.56,"lon":-121.284,"elev":30,"name":"Sacramento/Mather Fld, CA, US","cover":"CLR","clouds":[],"fltCat":"VFR"},{"icaoId":"KBIE","receiptTime":"2026-04-19T01:18:18.901Z","obsTime":1776561300,"reportTime":"2026-04-19T01:15:00.000Z","temp":8.6,"dewp":-2.4,"wdir":350,"wspd":5,"visib":"10+","altim":1021.1,"qcField":6,"metarType":"METAR","rawOb":"METAR KBIE 190115Z AUTO 35005KT 10SM CLR 09/M02 A3015 RMK AO2 T00861024","lat":40.3005,"lon":-96.7517,"elev":398,"name":"Beatrice Muni, NE, US","cover":"CLR","clouds":[],"fltCat":"VFR"},{"icaoId":"KANW","receiptTime":"2026-04-19T01:18:18.746Z","obsTime":1776561300,"reportTime":"2026-04-19T01:15:00.000Z","temp":7.8,"dewp":-10.6,"wdir":300,"wspd":6,"visib":"10+","altim":1020.7,"qcField":6,"metarType":"METAR","rawOb":"METAR KANW 190115Z AUTO 30006KT 10SM CLR 08/M11 A3014 RMK AO2 T00781106","lat":42.5748,"lon":-99.9984,"elev":788,"name":"Ainsworth Muni, NE, US","cover":"CLR","clouds":[],"fltCat":"VFR"},{"icaoId":"KHII","receiptTime":"2026-04-19T01:22:07.380Z","obsTime":1776561300,"reportTime":"2026-04-19T01:15:00.000Z","temp":30,"dewp":-11,"wdir":0,"wspd":0,"visib":"10+","altim":1011.3,"qcField":6,"metarType":"METAR","rawOb":"METAR KHII 190115Z AUTO 00000KT 10SM CLR 30/M11 A2986 RMK AO2","lat":34.5659,"lon":-114.3522,"elev":241,"name":"Lake Havasu City Arpt, AZ, US","cover":"CLR","clouds":[],"fltCat":"VFR"},{"icaoId":"KGAF","receiptTime":"2026-04-19T01:16:03.889Z","obsTime":1776561300,"reportTime":"2026-04-19T01:15:00.000Z","temp":1,"dewp":-5,"wdir":40,"wspd":7,"visib":"10+","altim":1015.3,"qcField":134,"metarType":"METAR","rawOb":"METAR KGAF 190115Z AUTO 04007KT 10SM CLR 01/M05 A2998 RMK AO2 PWINO","lat":48.4081,"lon":-97.3694,"elev":250,"name":"Grafton/Hutson Fld, ND, US","cover":"CLR","clouds":[],"fltCat":"VFR"},{"icaoId":"KBVU","receiptTime":"2026-04-19T01:18:04.426Z","obsTime":1776561300,"reportTime":"2026-04-19T01:15:00.000Z","temp":25,"dewp":-19,"wdir":350,"wspd":5,"visib":"10+","altim":1014,"qcField":6,"metarType":"METAR","rawOb":"METAR KBVU 190115Z AUTO 35005KT 10SM CLR 25/M19 A2994 RMK AO2","lat":35.9489,"lon":-114.8633,"elev":654,"name":"Boulder City Muni, NV, US","cover":"CLR","clouds":[],"fltCat":"VFR"},{"icaoId":"KLRU","receiptTime":"2026-04-19T01:18:13.230Z","obsTime":1776561300,"reportTime":"2026-04-19T01:15:00.000Z","temp":18.7,"dewp":-8.5,"wdir":120,"wspd":15,"wgst":19,"visib":"10+","altim":1020.4,"qcField":6,"metarType":"METAR","rawOb":"METAR KLRU 190115Z AUTO 12015G19KT 10SM CLR 19/M08 A3013 RMK AO2 T01871085","lat":32.2884,"lon":-106.9131,"elev":1355,"name":"Las Cruces Intl, NM, US","cover":"CLR","clouds":[],"fltCat":"VFR"},{"icaoId":"KSOW","receiptTime":"2026-04-19T01:18:08.786Z","obsTime":1776561300,"reportTime":"2026-04-19T01:15:00.000Z","temp":17,"dewp":-19,"wdir":360,"wspd":8,"visib":"10+","altim":1021.4,"qcField":6,"metarType":"METAR","rawOb":"METAR KSOW 190115Z AUTO 36008KT 10SM CLR 17/M19 A3016 RMK AO2","lat":34.2686,"lon":-110.0019,"elev":1954,"name":"Show Low Muni, AZ, US","cover":"CLR","clouds":[],"fltCat":"VFR"},{"icaoId":"KCXP","receiptTime":"2026-04-19T01:20:46.134Z","obsTime":1776561300,"reportTime":"2026-04-19T01:15:00.000Z","temp":20,"dewp":-1,"wdir":270,"wspd":7,"visib":"10+","altim":1015,"qcField":6,"metarType":"METAR","rawOb":"METAR KCXP 190115Z AUTO 27007KT 230V290 10SM CLR 20/M01 A2997 RMK AO2","lat":39.1905,"lon":-119.7319,"elev":1431,"name":"Carson City Arpt, NV, US","cover":"CLR","clouds":[],"fltCat":"VFR"},{"icaoId":"KSEZ","receiptTime":"2026-04-19T01:20:46.278Z","obsTime":1776561300,"reportTime":"2026-04-19T01:15:00.000Z","temp":20,"dewp":-16,"wdir":50,"wspd":8,"visib":"10+","altim":1018,"qcField":6,"metarType":"METAR","rawOb":"METAR KSEZ 190115Z AUTO 05008KT 10SM CLR 20/M16 A3006 RMK AO2","lat":34.8467,"lon":-111.7884,"elev":1455,"name":"Sedona Arpt, AZ, US","cover":"CLR","clouds":[],"fltCat":"VFR"},{"icaoId":"KHCR","receiptTime":"2026-04-19T01:18:16.863Z","obsTime":1776561300,"reportTime":"2026-04-19T01:15:00.000Z","temp":13.9,"dewp":-6.7,"wdir":210,"wspd":4,"visib":"10+","altim":1020.4,"qcField":14,"metarType":"METAR","rawOb":"METAR KHCR 190115Z AUTO 21004KT 10SM CLR 14/M07 A3013 RMK AO2 T01391067 $","lat":40.4774,"lon":-111.4329,"elev":1708,"name":"Heber City Muni, UT, US","cover":"CLR","clouds":[],"fltCat":"VFR"},{"icaoId":"KHAF","receiptTime":"2026-04-19T01:18:16.824Z","obsTime":1776561300,"reportTime":"2026-04-19T01:15:00.000Z","temp":15,"dewp":13,"wdir":260,"wspd":5,"visib":9,"altim":1014,"qcField":6,"metarType":"METAR","rawOb":"METAR KHAF 190115Z AUTO 26005KT 9SM CLR 15/13 A2994 RMK AO2","lat":37.5136,"lon":-122.4996,"elev":11,"name":"Half Moon Bay Arpt, CA, US","cover":"CLR","clouds":[],"fltCat":"VFR"},{"icaoId":"KCRP","receiptTime":"2026-04-19T01:18:06.937Z","obsTime":1776561240,"reportTime":"2026-04-19T01:14:00.000Z","temp":21.7,"dewp":16.7,"wdir":30,"wspd":19,"wgst":26,"visib":"10+","altim":1016.3,"qcField":12,"wxString":"-RA","precip":0.005,"metarType":"SPECI","rawOb":"SPECI KCRP 190114Z 03019G26KT 10SM -RA SCT022 SCT029 BKN042 OVC250 22/17 A3001 RMK AO2 PK WND 02027/0052 RAB13 P0000 T02170167 $","lat":27.7734,"lon":-97.513,"elev":11,"name":"Corpus Christi Intl, TX, US","cover":"OVC","clouds":[{"cover":"SCT","base":2200},{"cover":"SCT","base":2900},{"cover":"BKN","base":4200},{"cover":"OVC","base":25000}],"fltCat":"VFR"},{"icaoId":"KLCH","receiptTime":"2026-04-19T01:16:09.434Z","obsTime":1776561180,"reportTime":"2026-04-19T01:13:00.000Z","temp":22.2,"dewp":21.7,"wdir":340,"wspd":14,"wgst":19,"visib":4,"altim":1017,"qcField":4,"wxString":"-RA BR","precip":0.01,"metarType":"SPECI","rawOb":"SPECI KLCH 190113Z 34014G19KT 4SM -RA BR FEW007 BKN015 OVC110 22/22 A3003 RMK AO2 LTG DSNT N P0001 T02220217","lat":30.1255,"lon":-93.2277,"elev":2,"name":"Lake Charles Rgnl, LA, US","cover":"OVC","clouds":[{"cover":"FEW","base":700},{"cover":"BKN","base":1500},{"cover":"OVC","base":11000}],"fltCat":"MVFR"},{"icaoId":"KROC","receiptTime":"2026-04-19T01:16:09.448Z","obsTime":1776561180,"reportTime":"2026-04-19T01:13:00.000Z","temp":15,"dewp":13.9,"wdir":240,"wspd":8,"visib":"10+","altim":1007.9,"qcField":12,"wxString":"-RA","precip":0.005,"metarType":"SPECI","rawOb":"SPECI KROC 190113Z 24008KT 10SM -RA SCT017 BKN024 OVC065 15/14 A2976 RMK AO2 P0000 T01500139 $","lat":43.1172,"lon":-77.6754,"elev":166,"name":"Rochester Intl Arpt, NY, US","cover":"OVC","clouds":[{"cover":"SCT","base":1700},{"cover":"BKN","base":2400},{"cover":"OVC","base":6500}],"fltCat":"MVFR"},{"icaoId":"KBHM","receiptTime":"2026-04-19T01:10:15.964Z","obsTime":1776560820,"reportTime":"2026-04-19T01:07:00.000Z","temp":18.3,"dewp":16.7,"wdir":310,"wspd":5,"visib":1.5,"altim":1017.4,"qcField":4,"wxString":"+TSRA BR","precip":0.13,"metarType":"SPECI","rawOb":"SPECI KBHM 190107Z 31005KT 1 1/2SM +TSRA BR BKN027 BKN035CB OVC047 18/17 A3004 RMK AO2 PRESRR OCNL LTGIC SW TS SW MOV NE P0013 T01830167","lat":33.5655,"lon":-86.7449,"elev":191,"name":"Birmingham Intl, AL, US","cover":"OVC","clouds":[{"cover":"BKN","base":2700},{"cover":"BKN","base":3500},{"cover":"OVC","base":4700}],"fltCat":"IFR"},{"icaoId":"KRTS","receiptTime":"2026-04-19T01:20:45.387Z","obsTime":1776560700,"reportTime":"2026-04-19T01:05:00.000Z","temp":19,"dewp":-12,"wdir":70,"wspd":6,"visib":"10+","altim":1015.7,"qcField":6,"metarType":"METAR","rawOb":"METAR KRTS 190105Z AUTO 07006KT 10SM CLR 19/M12 A2999 RMK AO2","lat":39.6658,"lon":-119.8731,"elev":1537,"name":"Reno/Stead Arpt, NV, US","cover":"CLR","clouds":[],"fltCat":"VFR"},{"icaoId":"KSYR","receiptTime":"2026-04-19T01:04:07.123Z","obsTime":1776560460,"reportTime":"2026-04-19T01:01:00.000Z","temp":18.3,"dewp":13.9,"wdir":300,"wspd":11,"visib":"10+","altim":1007.2,"qcField":4,"wxString":"-RA","precip":0.005,"metarType":"SPECI","rawOb":"SPECI KSYR 190101Z 30011KT 10SM -RA BKN055 OVC080 18/14 A2974 RMK AO2 WSHFT 0041 P0000 T01830139","lat":43.1111,"lon":-76.1038,"elev":125,"name":"Syracuse/Hancock Intl, NY, US","cover":"OVC","clouds":[{"cover":"BKN","base":5500},{"cover":"OVC","base":8000}],"fltCat":"VFR"},{"icaoId":"KNFL","receiptTime":"2026-04-19T01:01:07.619Z","obsTime":1776560220,"reportTime":"2026-04-19T01:00:00.000Z","temp":22.2,"dewp":-17.2,"wdir":20,"wspd":7,"visib":"10+","altim":1013.6,"slp":1010.9,"qcField":6,"metarType":"METAR","rawOb":"METAR KNFL 190057Z AUTO 02007KT 10SM CLR 22/M17 A2993 RMK AO2 SLP109 T02221172","lat":39.417,"lon":-118.705,"elev":1199,"name":"Fallon , NV, US","cover":"CLR","clouds":[],"fltCat":"VFR"},{"icaoId":"KNYL","receiptTime":"2026-04-19T01:01:07.682Z","obsTime":1776560220,"reportTime":"2026-04-19T01:00:00.000Z","temp":30,"dewp":-6.1,"wdir":280,"wspd":6,"visib":"10+","altim":1010.2,"slp":1009.9,"qcField":4,"metarType":"METAR","rawOb":"METAR KNYL 190057Z 28006KT 10SM CLR 30/M06 A2983 RMK AO2 SLP099 T03001061","lat":32.66,"lon":-114.6078,"elev":58,"name":"Yuma , AZ, US","cover":"CLR","clouds":[],"fltCat":"VFR"},{"icaoId":"KFLG","receiptTime":"2026-04-19T01:01:06.320Z","obsTime":1776560220,"reportTime":"2026-04-19T01:00:00.000Z","temp":12.2,"dewp":-20,"wdir":70,"wspd":8,"visib":"10+","altim":1022.4,"slp":1017.5,"qcField":6,"metarType":"METAR","rawOb":"METAR KFLG 190057Z AUTO 07008KT 10SM CLR 12/M20 A3019 RMK AO2 SLP175 T01221200","lat":35.1443,"lon":-111.6664,"elev":2134,"name":"Flagstaff/Pulliam Arpt, AZ, US","cover":"CLR","clouds":[],"fltCat":"VFR"},{"icaoId":"KLWS","receiptTime":"2026-04-19T01:00:44.723Z","obsTime":1776560160,"reportTime":"2026-04-19T01:00:00.000Z","temp":18.9,"dewp":2.2,"wdir":80,"wspd":7,"visib":"10+","altim":1016.3,"slp":1016.3,"qcField":4,"metarType":"METAR","rawOb":"METAR KLWS 190056Z 08007KT 10SM CLR 19/02 A3001 RMK AO2 SLP163 T01890022","lat":46.3746,"lon":-117.0153,"elev":435,"name":"Lewiston/Nez Perce Cnty, ID, US","cover":"CLR","clouds":[],"fltCat":"VFR"},{"icaoId":"KPVU","receiptTime":"2026-04-19T00:58:25.119Z","obsTime":1776560160,"reportTime":"2026-04-19T01:00:00.000Z","temp":13.9,"dewp":-4.4,"wdir":260,"wspd":5,"visib":"10+","altim":1020.7,"slp":1020.5,"qcField":4,"metarType":"METAR","rawOb":"METAR KPVU 190056Z 26005KT 10SM CLR 14/M04 A3014 RMK AO2 SLP205 T01391044","lat":40.224,"lon":-111.7252,"elev":1370,"name":"Provo Muni, UT, US","cover":"CLR","clouds":[],"fltCat":"VFR"},{"icaoId":"KSHV","receiptTime":"2026-04-19T01:00:44.528Z","obsTime":1776560160,"reportTime":"2026-04-19T01:00:00.000Z","temp":13,"dewp":11,"wdir":10,"wspd":11,"wgst":18,"visib":7,"altim":1021.8,"qcField":0,"wxString":"-RA","metarType":"METAR","rawOb":"METAR KSHV 190056Z 01011G18KT 7SM -RA BKN009 BKN012 OVC024 13/11 A3017 RMK RAB24 SLPNO","lat":32.4473,"lon":-93.8244,"elev":70,"name":"Shreveport Rgnl, LA, US","cover":"OVC","clouds":[{"cover":"BKN","base":900},{"cover":"BKN","base":1200},{"cover":"OVC","base":2400}],"fltCat":"IFR"},{"icaoId":"KFNL","receiptTime":"2026-04-19T00:58:23.478Z","obsTime":1776560160,"reportTime":"2026-04-19T01:00:00.000Z","temp":13.3,"dewp":-12.8,"wdir":170,"wspd":9,"visib":"10+","altim":1021.8,"slp":1019.8,"qcField":14,"metarType":"METAR","rawOb":"METAR KFNL 190056Z AUTO 17009KT 10SM CLR 13/M13 A3017 RMK AO2 SLP198 T01331128 $","lat":40.4427,"lon":-105.0097,"elev":1529,"name":"Fort Collins/N Colorado Rgnl, CO, US","cover":"CLR","clouds":[],"fltCat":"VFR"},{"icaoId":"KJAC","receiptTime":"2026-04-19T00:58:22.215Z","obsTime":1776560160,"reportTime":"2026-04-19T01:00:00.000Z","temp":7.8,"dewp":-9.4,"wdir":250,"wspd":5,"visib":"10+","altim":1022.4,"slp":1025.5,"qcField":4,"metarType":"METAR","rawOb":"METAR KJAC 190056Z 25005KT 10SM CLR 08/M09 A3019 RMK AO2 SLP255 T00781094","lat":43.6129,"lon":-110.7366,"elev":1967,"name":"Jackson Hole Arpt, WY, US","cover":"CLR","clouds":[],"fltCat":"VFR"},{"icaoId":"KJMS","receiptTime":"2026-04-19T01:00:39.515Z","obsTime":1776560160,"reportTime":"2026-04-19T01:00:00.000Z","temp":4.4,"dewp":-2.8,"wdir":270,"wspd":15,"visib":"10+","altim":1015,"slp":1016.7,"qcField":6,"metarType":"METAR","rawOb":"METAR KJMS 190056Z AUTO 27015KT 10SM FEW065 BKN090 04/M03 A2997 RMK AO2 PK WND 30027/0005 SLP167 T00441028","lat":46.9259,"lon":-98.6704,"elev":455,"name":"Jamestown Rgnl, ND, US","cover":"BKN","clouds":[{"cover":"FEW","base":6500},{"cover":"BKN","base":9000}],"fltCat":"VFR"},{"icaoId":"KSBP","receiptTime":"2026-04-19T01:00:38.355Z","obsTime":1776560160,"reportTime":"2026-04-19T01:00:00.000Z","temp":20,"dewp":4.4,"wdir":310,"wspd":10,"visib":"10+","altim":1013.3,"slp":1013.1,"qcField":4,"metarType":"METAR","rawOb":"METAR KSBP 190056Z 31010KT 10SM CLR 20/04 A2992 RMK AO2 SLP131 T02000044","lat":35.2381,"lon":-120.644,"elev":52,"name":"San Luis Obispo/San Luis Cnty, CA, US","cover":"CLR","clouds":[],"fltCat":"VFR"},{"icaoId":"KFOD","receiptTime":"2026-04-19T00:58:23.488Z","obsTime":1776560160,"reportTime":"2026-04-19T01:00:00.000Z","temp":7.8,"dewp":-13.9,"wdir":310,"wspd":7,"visib":"10+","altim":1018.7,"slp":1020.9,"qcField":14,"metarType":"METAR","rawOb":"METAR KFOD 190056Z AUTO 31007KT 10SM CLR 08/M14 A3008 RMK AO2 SLP209 T00781139 $","lat":42.549,"lon":-94.182,"elev":347,"name":"Fort Dodge Rgnl, IA, US","cover":"CLR","clouds":[],"fltCat":"VFR"},{"icaoId":"KLAS","receiptTime":"2026-04-19T01:00:38.295Z","obsTime":1776560160,"reportTime":"2026-04-19T01:00:00.000Z","temp":24.4,"dewp":-17.2,"wdir":0,"wspd":0,"visib":"10+","altim":1015,"slp":1013.8,"qcField":4,"metarType":"METAR","rawOb":"METAR KLAS 190056Z 00000KT 10SM FEW120 BKN250 24/M17 A2997 RMK AO2 SLP138 T02441172","lat":36.0719,"lon":-115.1634,"elev":662,"name":"Las Vegas/Reid Intl, NV, US","cover":"BKN","clouds":[{"cover":"FEW","base":12000},{"cover":"BKN","base":25000}],"fltCat":"VFR"},{"icaoId":"KEGE","receiptTime":"2026-04-19T00:58:23.128Z","obsTime":1776560160,"reportTime":"2026-04-19T01:00:00.000Z","temp":10,"dewp":-10.6,"wdir":330,"wspd":5,"visib":"10+","altim":1025.5,"slp":1025.4,"qcField":4,"metarType":"METAR","rawOb":"METAR KEGE 190056Z 33005KT 10SM CLR 10/M11 A3028 RMK AO2 SLP254 T01001106","lat":39.6448,"lon":-106.9176,"elev":1993,"name":"Eagle Cnty Rgnl, CO, US","cover":"CLR","clouds":[],"fltCat":"VFR"},{"icaoId":"KENV","receiptTime":"2026-04-19T00:58:23.281Z","obsTime":1776560160,"reportTime":"2026-04-19T01:00:00.000Z","temp":13.9,"dewp":-16.7,"wdir":80,"wspd":6,"visib":"10+","altim":1021.1,"slp":1021.4,"qcField":6,"metarType":"METAR","rawOb":"METAR KENV 190056Z AUTO 08006KT 10SM CLR 14/M17 A3015 RMK AO2 SLP214 T01391167","lat":40.7211,"lon":-114.0312,"elev":1291,"name":"Wendover Arpt, UT, US","cover":"CLR","clouds":[],"fltCat":"VFR"},{"icaoId":"KYKN","receiptTime":"2026-04-19T00:58:21.133Z","obsTime":1776560160,"reportTime":"2026-04-19T01:00:00.000Z","temp":8.9,"dewp":-9.4,"wdir":290,"wspd":16,"visib":"10+","altim":1020.1,"slp":1022.1,"qcField":6,"metarType":"METAR","rawOb":"METAR KYKN 190056Z AUTO 29016KT 10SM CLR 09/M09 A3012 RMK AO2 SLP221 T00891094","lat":42.9141,"lon":-97.3807,"elev":388,"name":"Yankton/Gurney Muni, SD, US","cover":"CLR","clouds":[],"fltCat":"VFR"},{"icaoId":"KHND","receiptTime":"2026-04-19T00:58:24.659Z","obsTime":1776560160,"reportTime":"2026-04-19T01:00:00.000Z","temp":23.9,"dewp":-15.6,"wdir":360,"wspd":6,"visib":"10+","altim":1015.7,"slp":1016.4,"qcField":12,"metarType":"METAR","rawOb":"METAR KHND 190056Z 36006KT 10SM CLR 24/M16 A2999 RMK AO2 SLP164 T02391156 $","lat":35.9657,"lon":-115.1343,"elev":740,"name":"Henderson Exec, NV, US","cover":"CLR","clouds":[],"fltCat":"VFR"},{"icaoId":"KCOE","receiptTime":"2026-04-19T00:58:20.048Z","obsTime":1776560160,"reportTime":"2026-04-19T01:00:00.000Z","temp":16.1,"dewp":0,"wdir":10,"wspd":5,"visib":"10+","altim":1017.4,"slp":1019.7,"qcField":14,"metarType":"METAR","rawOb":"METAR KCOE 190056Z AUTO 01005KT 10SM CLR 16/00 A3004 RMK AO2 SLP197 T01610000 PNO $","lat":47.7719,"lon":-116.8332,"elev":693,"name":"Coeur DAlene Arpt, ID, US","cover":"CLR","clouds":[],"fltCat":"VFR"},{"icaoId":"KCGZ","receiptTime":"2026-04-19T00:58:19.914Z","obsTime":1776560160,"reportTime":"2026-04-19T01:00:00.000Z","temp":30.6,"dewp":-7.2,"wdir":300,"wspd":11,"visib":"10+","altim":1010.9,"slp":1009.6,"qcField":14,"metarType":"METAR","rawOb":"METAR KCGZ 190056Z AUTO 30011KT 10SM CLR 31/M07 A2985 RMK AO2 SLP096 T03061072 $","lat":32.9531,"lon":-111.7725,"elev":444,"name":"Casa Granda Muni, AZ, US","cover":"CLR","clouds":[],"fltCat":"VFR"},{"icaoId":"KCOD","receiptTime":"2026-04-19T00:58:20.036Z","obsTime":1776560160,"reportTime":"2026-04-19T01:00:00.000Z","temp":12.2,"dewp":-11.1,"wdir":270,"wspd":7,"wgst":16,"visib":"10+","altim":1020.4,"slp":1021.5,"qcField":14,"metarType":"METAR","rawOb":"METAR KCOD 190056Z AUTO 27007G16KT 10SM CLR 12/M11 A3013 RMK AO2 SLP215 T01221111 $","lat":44.52,"lon":-109.0268,"elev":1550,"name":"Cody/Yellowstone Rgnl, WY, US","cover":"CLR","clouds":[],"fltCat":"VFR"},{"icaoId":"KDUG","receiptTime":"2026-04-19T01:04:04.538Z","obsTime":1776560160,"reportTime":"2026-04-19T01:00:00.000Z","temp":26.1,"dewp":-5,"wdir":100,"wspd":12,"visib":"10+","altim":1015.3,"slp":1010.5,"qcField":38,"metarType":"METAR","rawOb":"METAR KDUG 190056Z AUTO 10012KT 10SM CLR 26/M05 A2998 RMK AO2 SLP105 T02611050 TSNO","lat":31.4725,"lon":-109.6022,"elev":1260,"name":"Douglas/Bisbee Intl, AZ, US","cover":"CLR","clouds":[],"fltCat":"VFR"},{"icaoId":"KPWT","receiptTime":"2026-04-19T00:58:21.398Z","obsTime":1776560160,"reportTime":"2026-04-19T01:00:00.000Z","temp":18.3,"dewp":3.3,"wdir":230,"wspd":4,"visib":"10+","altim":1013.6,"slp":1013.8,"qcField":6,"metarType":"METAR","rawOb":"METAR KPWT 190056Z AUTO 23004KT 10SM FEW095 18/03 A2993 RMK AO2 SLP138 T01830033","lat":47.4942,"lon":-122.7594,"elev":143,"name":"Bremerton Arpt, WA, US","cover":"FEW","clouds":[{"cover":"FEW","base":9500}],"fltCat":"VFR"},{"icaoId":"KSDY","receiptTime":"2026-04-19T00:58:21.629Z","obsTime":1776560160,"reportTime":"2026-04-19T01:00:00.000Z","temp":10,"dewp":-6.1,"wdir":350,"wspd":11,"visib":"10+","altim":1017.4,"slp":1019.8,"qcField":14,"metarType":"METAR","rawOb":"METAR KSDY 190056Z AUTO 35011KT 10SM OVC090 10/M06 A3004 RMK AO2 WSHFT 2359 SLP198 T01001061 $","lat":47.7029,"lon":-104.1951,"elev":600,"name":"Sidney/Richland Muni, MT, US","cover":"OVC","clouds":[{"cover":"OVC","base":9000}],"fltCat":"VFR"},{"icaoId":"KMKT","receiptTime":"2026-04-19T00:58:21.795Z","obsTime":1776560160,"reportTime":"2026-04-19T01:00:00.000Z","temp":6.1,"dewp":-11.1,"wdir":300,"wspd":13,"visib":"10+","altim":1017,"slp":1018.1,"qcField":6,"metarType":"METAR","rawOb":"METAR KMKT 190056Z AUTO 30013KT 10SM CLR 06/M11 A3003 RMK AO2 SLP181 T00611111","lat":44.2184,"lon":-93.9179,"elev":309,"name":"Mankato Rgnl, MN, US","cover":"CLR","clouds":[],"fltCat":"VFR"},{"icaoId":"KLBL","receiptTime":"2026-04-19T00:58:22.440Z","obsTime":1776560160,"reportTime":"2026-04-19T01:00:00.000Z","temp":13.9,"dewp":-12.8,"wdir":330,"wspd":5,"visib":"10+","altim":1024.1,"slp":1024.2,"qcField":14,"metarType":"METAR","rawOb":"METAR KLBL 190056Z AUTO 33005KT 10SM CLR 14/M13 A3024 RMK AO2 SLP242 T01391128 $","lat":37.0375,"lon":-100.9574,"elev":877,"name":"Liberal/Mid America Rgnl, KS, US","cover":"CLR","clouds":[],"fltCat":"VFR"},{"icaoId":"KTPH","receiptTime":"2026-04-19T01:01:02.830Z","obsTime":1776560160,"reportTime":"2026-04-19T01:00:00.000Z","temp":18.3,"dewp":-20,"wdir":190,"wspd":9,"wgst":19,"visib":"10+","altim":1017.4,"slp":1014.8,"qcField":6,"metarType":"METAR","rawOb":"METAR KTPH 190056Z AUTO 19009G19KT 10SM CLR 18/M20 A3004 RMK AO2 SLP148 T01831200","lat":38.0505,"lon":-117.0906,"elev":1647,"name":"Tonopah Arpt, NV, US","cover":"CLR","clouds":[],"fltCat":"VFR"},{"icaoId":"KDVL","receiptTime":"2026-04-19T00:58:22.972Z","obsTime":1776560160,"reportTime":"2026-04-19T01:00:00.000Z","temp":2.2,"dewp":-2.8,"wdir":360,"wspd":4,"visib":"10+","altim":1014.6,"slp":1017.2,"qcField":70,"precip":0.005,"metarType":"METAR","rawOb":"METAR KDVL 190056Z AUTO 36004KT 10SM FEW027 BKN065 OVC080 02/M03 A2996 RMK AO2 RAB42E52 SLP172 P0000 T00221028 FZRANO","lat":48.1136,"lon":-98.9034,"elev":439,"name":"Devils Lake Rgnl, ND, US","cover":"OVC","clouds":[{"cover":"FEW","base":2700},{"cover":"BKN","base":6500},{"cover":"OVC","base":8000}],"fltCat":"VFR"},{"icaoId":"KSGU","receiptTime":"2026-04-19T00:58:23.906Z","obsTime":1776560160,"reportTime":"2026-04-19T01:00:00.000Z","temp":25,"dewp":-17.2,"wdir":100,"wspd":6,"visib":"10+","altim":1015.7,"slp":1014.1,"qcField":6,"metarType":"METAR","rawOb":"METAR KSGU 190056Z AUTO 10006KT 10SM CLR 25/M17 A2999 RMK AO2 SLP141 T02501172","lat":37.0444,"lon":-113.5034,"elev":877,"name":"Saint George Muni, UT, US","cover":"CLR","clouds":[],"fltCat":"VFR"},{"icaoId":"KVIS","receiptTime":"2026-04-19T00:58:24.240Z","obsTime":1776560160,"reportTime":"2026-04-19T01:00:00.000Z","temp":27.2,"dewp":0,"wdir":360,"wspd":4,"visib":"10+","altim":1012.3,"slp":1011.9,"qcField":14,"metarType":"METAR","rawOb":"METAR KVIS 190056Z AUTO 36004KT 10SM CLR 27/00 A2989 RMK AO2 SLP119 T02720000 PNO $","lat":36.3135,"lon":-119.3884,"elev":92,"name":"Visalia Muni, CA, US","cover":"CLR","clouds":[],"fltCat":"VFR"},{"icaoId":"KGUC","receiptTime":"2026-04-19T00:58:24.502Z","obsTime":1776560160,"reportTime":"2026-04-19T01:00:00.000Z","temp":9.4,"dewp":-18.3,"wdir":180,"wspd":4,"visib":"10+","altim":1024.5,"slp":1025.8,"qcField":14,"metarType":"METAR","rawOb":"METAR KGUC 190056Z AUTO 18004KT 10SM CLR 09/M18 A3025 RMK AO2 SLP258 T00941183 $","lat":38.5322,"lon":-106.9419,"elev":2337,"name":"Gunnison Arpt, CO, US","cover":"CLR","clouds":[],"fltCat":"VFR"},{"icaoId":"KHDN","receiptTime":"2026-04-19T00:58:24.596Z","obsTime":1776560160,"reportTime":"2026-04-19T01:00:00.000Z","temp":7.8,"dewp":-11.1,"wdir":350,"wspd":5,"visib":"10+","altim":1025.5,"slp":1026.7,"qcField":6,"metarType":"METAR","rawOb":"METAR KHDN 190056Z AUTO 35005KT 10SM CLR 08/M11 A3028 RMK AO2 SLP267 T00781111","lat":40.4842,"lon":-107.2296,"elev":2012,"name":"Hayden/Yampa Valley Arpt, CO, US","cover":"CLR","clouds":[],"fltCat":"VFR"},{"icaoId":"KFSD","receiptTime":"2026-04-19T01:00:44.698Z","obsTime":1776560160,"reportTime":"2026-04-19T01:00:00.000Z","temp":7.2,"dewp":-12.8,"wdir":310,"wspd":12,"wgst":21,"visib":"10+","altim":1018.4,"slp":1019.9,"qcField":4,"metarType":"METAR","rawOb":"METAR KFSD 190056Z 31012G21KT 10SM FEW100 07/M13 A3007 RMK AO2 PK WND 31027/0008 SLP199 T00721128","lat":43.5775,"lon":-96.7539,"elev":433,"name":"Sioux Falls/Foss Fld, SD, US","cover":"FEW","clouds":[{"cover":"FEW","base":10000}],"fltCat":"VFR"},{"icaoId":"KRDM","receiptTime":"2026-04-19T01:00:38.342Z","obsTime":1776560160,"reportTime":"2026-04-19T01:00:00.000Z","temp":20.6,"dewp":-3.9,"wdir":20,"wspd":11,"wgst":17,"visib":"10+","altim":1012.6,"slp":1012,"qcField":4,"metarType":"METAR","rawOb":"METAR KRDM 190056Z 02011G17KT 10SM CLR 21/M04 A2990 RMK AO2 SLP120 T02061039","lat":44.2558,"lon":-121.1407,"elev":930,"name":"Redmond Muni, OR, US","cover":"CLR","clouds":[],"fltCat":"VFR"},{"icaoId":"KBZN","receiptTime":"2026-04-19T01:00:44.621Z","obsTime":1776560160,"reportTime":"2026-04-19T01:00:00.000Z","temp":11.7,"dewp":-3.9,"wdir":120,"wspd":5,"visib":"10+","altim":1018.7,"slp":1020.4,"qcField":4,"metarType":"METAR","rawOb":"METAR KBZN 190056Z 12005KT 10SM CLR 12/M04 A3008 RMK AO2 SLP204 T01171039","lat":45.7876,"lon":-111.1615,"elev":1349,"name":"Bozeman/Gallatin Fld, MT, US","cover":"CLR","clouds":[],"fltCat":"VFR"},{"icaoId":"KCEC","receiptTime":"2026-04-19T01:00:38.244Z","obsTime":1776560160,"reportTime":"2026-04-19T01:00:00.000Z","temp":12.8,"dewp":9.4,"wdir":310,"wspd":3,"visib":"10+","altim":1014.3,"slp":1014.3,"qcField":6,"metarType":"METAR","rawOb":"METAR KCEC 190056Z AUTO 31003KT 10SM CLR 13/09 A2995 RMK AO2 SLP143 T01280094","lat":41.7836,"lon":-124.238,"elev":17,"name":"Crescent City/McNama, CA, US","cover":"CLR","clouds":[],"fltCat":"VFR"},{"icaoId":"KCHS","receiptTime":"2026-04-19T01:00:44.654Z","obsTime":1776560160,"reportTime":"2026-04-19T01:00:00.000Z","temp":22.2,"dewp":16.7,"wdir":160,"wspd":7,"visib":"10+","altim":1013.6,"slp":1013.5,"qcField":12,"metarType":"METAR","rawOb":"METAR KCHS 190056Z 16007KT 10SM SCT090 SCT200 22/17 A2993 RMK AO2 SLP135 T02220167 $","lat":32.8995,"lon":-80.0407,"elev":12,"name":"Charleston Intl, SC, US","cover":"SCT","clouds":[{"cover":"SCT","base":9000},{"cover":"SCT","base":20000}],"fltCat":"VFR"},{"icaoId":"KDIK","receiptTime":"2026-04-19T01:00:39.451Z","obsTime":1776560160,"reportTime":"2026-04-19T01:00:00.000Z","temp":6.1,"dewp":-3.9,"wdir":330,"wspd":9,"visib":"10+","altim":1016.3,"slp":1019,"qcField":14,"metarType":"METAR","rawOb":"METAR KDIK 190056Z AUTO 33009KT 10SM FEW050 06/M04 A3001 RMK AO2 SLP190 T00611039 $","lat":46.7997,"lon":-102.7971,"elev":788,"name":"Dickinson/Roosevelt , ND, US","cover":"FEW","clouds":[{"cover":"FEW","base":5000}],"fltCat":"VFR"},{"icaoId":"KEKO","receiptTime":"2026-04-19T01:00:38.284Z","obsTime":1776560160,"reportTime":"2026-04-19T01:00:00.000Z","temp":18.3,"dewp":-15.6,"wdir":90,"wspd":6,"visib":"10+","altim":1016.7,"slp":1015.8,"qcField":6,"metarType":"METAR","rawOb":"METAR KEKO 190056Z AUTO 09006KT 10SM CLR 18/M16 A3002 RMK AO2 SLP158 T01831156","lat":40.824,"lon":-115.7863,"elev":1541,"name":"Elko Rgnl, NV, US","cover":"CLR","clouds":[],"fltCat":"VFR"},{"icaoId":"KJAX","receiptTime":"2026-04-19T01:00:44.711Z","obsTime":1776560160,"reportTime":"2026-04-19T01:00:00.000Z","temp":25,"dewp":10.6,"wdir":170,"wspd":7,"visib":"10+","altim":1014.6,"slp":1014.5,"qcField":4,"metarType":"METAR","rawOb":"METAR KJAX 190056Z 17007KT 10SM SCT085 BKN250 25/11 A2996 RMK AO2 SLP145 T02500106","lat":30.4953,"lon":-81.6937,"elev":8,"name":"Jacksonville Intl, FL, US","cover":"BKN","clouds":[{"cover":"SCT","base":8500},{"cover":"BKN","base":25000}],"fltCat":"VFR"},{"icaoId":"KSFO","receiptTime":"2026-04-19T01:01:02.806Z","obsTime":1776560160,"reportTime":"2026-04-19T01:00:00.000Z","temp":21.7,"dewp":5,"wdir":260,"wspd":12,"visib":"10+","altim":1013,"slp":1012.7,"qcField":12,"metarType":"METAR","rawOb":"METAR KSFO 190056Z 26012KT 10SM FEW180 BKN200 22/05 A2991 RMK AO2 SLP127 T02170050 $","lat":37.6196,"lon":-122.3656,"elev":2,"name":"San Francisco Intl, CA, US","cover":"BKN","clouds":[{"cover":"FEW","base":18000},{"cover":"BKN","base":20000}],"fltCat":"VFR"},{"icaoId":"KINW","receiptTime":"2026-04-19T01:00:44.275Z","obsTime":1776560160,"reportTime":"2026-04-19T01:00:00.000Z","temp":19.4,"dewp":-20,"wdir":280,"wspd":6,"visib":"10+","altim":1019.7,"slp":1017.3,"qcField":6,"metarType":"METAR","rawOb":"METAR KINW 190056Z AUTO 28006KT 10SM CLR 19/M20 A3011 RMK AO2 SLP173 T01941200","lat":35.0279,"lon":-110.7221,"elev":1492,"name":"Winslow/Lindberg Rgnl, AZ, US","cover":"CLR","clouds":[],"fltCat":"VFR"},{"icaoId":"KSLE","receiptTime":"2026-04-19T01:01:02.819Z","obsTime":1776560160,"reportTime":"2026-04-19T01:00:00.000Z","temp":21.1,"dewp":6.1,"wdir":50,"wspd":7,"visib":"10+","altim":1011.6,"slp":1011.5,"qcField":4,"metarType":"METAR","rawOb":"METAR KSLE 190056Z 05007KT 10SM CLR 21/06 A2987 RMK AO2 SLP115 T02110061","lat":44.9049,"lon":-123.001,"elev":63,"name":"Salem Muni, OR, US","cover":"CLR","clouds":[],"fltCat":"VFR"},{"icaoId":"KUKI","receiptTime":"2026-04-19T01:01:02.842Z","obsTime":1776560160,"reportTime":"2026-04-19T01:00:00.000Z","temp":22.2,"dewp":3.9,"wdir":"VRB","wspd":3,"visib":"10+","altim":1012.3,"slp":1011.8,"qcField":6,"metarType":"METAR","rawOb":"METAR KUKI 190056Z AUTO VRB03KT 10SM CLR 22/04 A2989 RMK AO2 SLP118 T02220039","lat":39.1278,"lon":-123.2001,"elev":183,"name":"Ukiah Muni, CA, US","cover":"CLR","clouds":[],"fltCat":"VFR"},{"icaoId":"KBKX","receiptTime":"2026-04-19T00:58:19.613Z","obsTime":1776560160,"reportTime":"2026-04-19T01:00:00.000Z","temp":5.6,"dewp":-13.3,"wdir":310,"wspd":16,"wgst":21,"visib":"10+","altim":1017.7,"slp":1020.2,"qcField":6,"metarType":"METAR","rawOb":"METAR KBKX 190056Z AUTO 31016G21KT 10SM CLR 06/M13 A3005 RMK AO2 PK WND 28026/0001 SLP202 T00561133","lat":44.3075,"lon":-96.8183,"elev":494,"name":"Brookings Rgnl, SD, US","cover":"CLR","clouds":[],"fltCat":"VFR"},{"icaoId":"KEAR","receiptTime":"2026-04-19T00:58:23.029Z","obsTime":1776560160,"reportTime":"2026-04-19T01:00:00.000Z","temp":11.1,"dewp":-7.8,"wdir":350,"wspd":12,"visib":"10+","altim":1021.8,"slp":1022.6,"qcField":6,"metarType":"METAR","rawOb":"METAR KEAR 190056Z AUTO 35012KT 10SM FEW100 11/M08 A3017 RMK AO2 SLP226 T01111078","lat":40.7193,"lon":-99.0086,"elev":649,"name":"Kearney Rgnl, NE, US","cover":"FEW","clouds":[{"cover":"FEW","base":10000}],"fltCat":"VFR"},{"icaoId":"KSDF","receiptTime":"2026-04-19T01:00:39.573Z","obsTime":1776560160,"reportTime":"2026-04-19T01:00:00.000Z","temp":10,"dewp":2.8,"wdir":310,"wspd":8,"visib":"10+","altim":1018.4,"slp":1018.1,"qcField":4,"metarType":"METAR","rawOb":"METAR KSDF 190056Z 31008KT 10SM OVC065 10/03 A3007 RMK AO2 SLP181 T01000028","lat":38.1774,"lon":-85.7308,"elev":146,"name":"Louisville Intl, KY, US","cover":"OVC","clouds":[{"cover":"OVC","base":6500}],"fltCat":"VFR"},{"icaoId":"KOFK","receiptTime":"2026-04-19T01:00:44.761Z","obsTime":1776560160,"reportTime":"2026-04-19T01:00:00.000Z","temp":9.4,"dewp":-8.9,"wdir":320,"wspd":13,"visib":"10+","altim":1020.4,"slp":1021.4,"qcField":14,"metarType":"METAR","rawOb":"METAR KOFK 190056Z AUTO 32013KT 10SM FEW080 BKN095 BKN110 09/M09 A3013 RMK AO2 SLP214 T00941089 $","lat":41.9799,"lon":-97.4335,"elev":476,"name":"Norfolk/Stefan Mem, NE, US","cover":"BKN","clouds":[{"cover":"FEW","base":8000},{"cover":"BKN","base":9500},{"cover":"BKN","base":11000}],"fltCat":"VFR"},{"icaoId":"KCMA","receiptTime":"2026-04-19T00:58:19.994Z","obsTime":1776560100,"reportTime":"2026-04-19T01:00:00.000Z","temp":22.8,"dewp":6.7,"wdir":260,"wspd":4,"visib":"10+","altim":1012.6,"slp":1013.3,"qcField":6,"metarType":"METAR","rawOb":"METAR KCMA 190055Z AUTO 26004KT 10SM CLR 23/07 A2990 RMK AO2 SLP133 T02280067","lat":34.2114,"lon":-119.0876,"elev":20,"name":"Camarillo Arpt, CA, US","cover":"CLR","clouds":[],"fltCat":"VFR"},{"icaoId":"KLUF","receiptTime":"2026-04-19T01:14:08.439Z","obsTime":1776560100,"reportTime":"2026-04-19T01:00:00.000Z","temp":31.8,"dewp":-15.3,"wdir":270,"wspd":3,"visib":"10+","altim":1009.6,"slp":1008.4,"qcField":14,"metarType":"METAR","rawOb":"METAR KLUF 190055Z AUTO 27003KT 10SM CLR 32/M15 A2981 RMK AO2 SLP084 T03181153 $","lat":33.538,"lon":-112.38,"elev":333,"name":"Phoenix/Luke AFB, AZ, US","cover":"CLR","clouds":[],"fltCat":"VFR"},{"icaoId":"KEND","receiptTime":"2026-04-19T01:06:03.324Z","obsTime":1776560100,"reportTime":"2026-04-19T01:00:00.000Z","temp":14.2,"dewp":1.5,"wdir":140,"wspd":8,"visib":"10+","altim":1022.1,"slp":1022.3,"qcField":12,"metarType":"METAR","rawOb":"METAR KEND 190055Z 14008KT 10SM CLR 14/02 A3018 RMK AO2A SLP223 T01420015 $","lat":36.338,"lon":-97.919,"elev":392,"name":"Enid/Vance AFB, OK, US","cover":"CLR","clouds":[],"fltCat":"VFR"},{"icaoId":"KIRK","receiptTime":"2026-04-19T00:58:24.855Z","obsTime":1776560100,"reportTime":"2026-04-19T01:00:00.000Z","temp":9.4,"dewp":-6.1,"wdir":290,"wspd":10,"visib":"10+","altim":1021.1,"slp":1021.8,"qcField":6,"metarType":"METAR","rawOb":"METAR KIRK 190055Z AUTO 29010KT 10SM CLR 09/M06 A3015 RMK AO2 SLP218 T00941061","lat":40.0966,"lon":-92.5469,"elev":292,"name":"Kirksville Rgnl, MO, US","cover":"CLR","clouds":[],"fltCat":"VFR"},{"icaoId":"KHON","receiptTime":"2026-04-19T00:58:24.690Z","obsTime":1776560100,"reportTime":"2026-04-19T01:00:00.000Z","temp":7.8,"dewp":-10,"wdir":310,"wspd":9,"visib":"10+","altim":1018.4,"slp":1019.4,"qcField":6,"metarType":"METAR","rawOb":"METAR KHON 190055Z AUTO 31009KT 10SM CLR 08/M10 A3007 RMK AO2 SLP194 T00781100","lat":44.3792,"lon":-98.2227,"elev":391,"name":"Huron Rgnl, SD, US","cover":"CLR","clouds":[],"fltCat":"VFR"},{"icaoId":"KRNO","receiptTime":"2026-04-19T00:58:21.527Z","obsTime":1776560100,"reportTime":"2026-04-19T01:00:00.000Z","temp":21.1,"dewp":-11.7,"wdir":130,"wspd":5,"visib":"10+","altim":1014.3,"slp":1011.8,"qcField":4,"metarType":"METAR","rawOb":"METAR KRNO 190055Z 13005KT 10SM FEW100 SCT230 21/M12 A2995 RMK AO2 SLP118 T02111117","lat":39.5077,"lon":-119.7683,"elev":1344,"name":"Reno/Tahoe Intl, NV, US","cover":"SCT","clouds":[{"cover":"FEW","base":10000},{"cover":"SCT","base":23000}],"fltCat":"VFR"},{"icaoId":"KDLH","receiptTime":"2026-04-19T00:58:22.903Z","obsTime":1776560100,"reportTime":"2026-04-19T01:00:00.000Z","temp":1.1,"dewp":-11.1,"wdir":290,"wspd":18,"wgst":25,"visib":"10+","altim":1011.3,"slp":1013.4,"qcField":12,"metarType":"METAR","rawOb":"METAR KDLH 190055Z 29018G25KT 10SM SCT065 01/M11 A2986 RMK AO2 PK WND 29033/0039 SLP134 T00111111 $","lat":46.8435,"lon":-92.1866,"elev":434,"name":"Duluth Intl Arpt, MN, US","cover":"SCT","clouds":[{"cover":"SCT","base":6500}],"fltCat":"VFR"},{"icaoId":"KADM","receiptTime":"2026-04-19T01:01:01.409Z","obsTime":1776560100,"reportTime":"2026-04-19T01:00:00.000Z","temp":14,"dewp":1,"wdir":0,"wspd":0,"visib":"10+","altim":1024.1,"qcField":6,"metarType":"METAR","rawOb":"METAR KADM 190055Z AUTO 00000KT 10SM CLR 14/01 A3024 RMK AO2","lat":34.3007,"lon":-97.0089,"elev":223,"name":"Ardmore Muni, OK, US","cover":"CLR","clouds":[],"fltCat":"VFR"},{"icaoId":"KAST","receiptTime":"2026-04-19T00:58:20.842Z","obsTime":1776560100,"reportTime":"2026-04-19T01:00:00.000Z","temp":15.6,"dewp":4.4,"wdir":240,"wspd":7,"visib":"10+","altim":1013,"slp":1012.9,"qcField":14,"metarType":"METAR","rawOb":"METAR KAST 190055Z AUTO 24007KT 10SM CLR 16/04 A2991 RMK AO2 SLP129 T01560044 $","lat":46.157,"lon":-123.8833,"elev":3,"name":"Astoria Rgnl, OR, US","cover":"CLR","clouds":[],"fltCat":"VFR"},{"icaoId":"KGPI","receiptTime":"2026-04-19T00:58:22.770Z","obsTime":1776560100,"reportTime":"2026-04-19T01:00:00.000Z","temp":12.8,"dewp":-3.3,"wdir":190,"wspd":8,"visib":"10+","altim":1017.7,"slp":1019.1,"qcField":12,"metarType":"METAR","rawOb":"METAR KGPI 190055Z 19008KT 10SM CLR 13/M03 A3005 RMK AO2 SLP191 T01281033 $","lat":48.3041,"lon":-114.2643,"elev":903,"name":"Kalispell/Glacier Park Intl, MT, US","cover":"CLR","clouds":[],"fltCat":"VFR"},{"icaoId":"KAPC","receiptTime":"2026-04-19T00:58:13.118Z","obsTime":1776560040,"reportTime":"2026-04-19T01:00:00.000Z","temp":21.7,"dewp":6.7,"wdir":220,"wspd":6,"visib":"10+","altim":1012.6,"slp":1011.6,"qcField":4,"metarType":"METAR","rawOb":"METAR KAPC 190054Z 22006KT 10SM CLR 22/07 A2990 RMK AO2 SLP116 T02170067","lat":38.2075,"lon":-122.2804,"elev":5,"name":"Napa Cnty Arpt, CA, US","cover":"CLR","clouds":[],"fltCat":"VFR"},{"icaoId":"KEUG","receiptTime":"2026-04-19T00:58:13.130Z","obsTime":1776560040,"reportTime":"2026-04-19T01:00:00.000Z","temp":20,"dewp":10,"wdir":10,"wspd":6,"visib":"10+","altim":1011.6,"slp":1011.7,"qcField":4,"metarType":"METAR","rawOb":"METAR KEUG 190054Z 01006KT 10SM FEW100 SCT250 20/10 A2987 RMK AO2 SLP117 T02000100","lat":44.1331,"lon":-123.2156,"elev":109,"name":"Eugene/Mahlon Sweet Fld, OR, US","cover":"SCT","clouds":[{"cover":"FEW","base":10000},{"cover":"SCT","base":25000}],"fltCat":"VFR"},{"icaoId":"KSLC","receiptTime":"2026-04-19T00:58:13.171Z","obsTime":1776560040,"reportTime":"2026-04-19T01:00:00.000Z","temp":13.9,"dewp":-6.1,"wdir":340,"wspd":9,"visib":"10+","altim":1020.7,"slp":1019.6,"qcField":4,"metarType":"METAR","rawOb":"METAR KSLC 190054Z 34009KT 10SM FEW140 SCT170 BKN260 14/M06 A3014 RMK AO2 SLP196 T01391061","lat":40.7707,"lon":-111.965,"elev":1286,"name":"Salt Lake City Intl, UT, US","cover":"BKN","clouds":[{"cover":"FEW","base":14000},{"cover":"SCT","base":17000},{"cover":"BKN","base":26000}],"fltCat":"VFR"},{"icaoId":"KOLS","receiptTime":"2026-04-19T00:58:13.185Z","obsTime":1776560040,"reportTime":"2026-04-19T01:00:00.000Z","temp":27.8,"dewp":-2.2,"wdir":90,"wspd":8,"visib":"10+","altim":1013.6,"slp":1008.5,"qcField":6,"metarType":"METAR","rawOb":"METAR KOLS 190054Z AUTO 09008KT 10SM SCT120 28/M02 A2993 RMK AO2 SLP085 T02781022","lat":31.4208,"lon":-110.8465,"elev":1194,"name":"Nogales Intl, AZ, US","cover":"SCT","clouds":[{"cover":"SCT","base":12000}],"fltCat":"VFR"},{"icaoId":"KOLM","receiptTime":"2026-04-19T00:58:13.250Z","obsTime":1776560040,"reportTime":"2026-04-19T01:00:00.000Z","temp":20,"dewp":4.4,"wdir":360,"wspd":9,"visib":"10+","altim":1012.6,"slp":1012.5,"qcField":4,"metarType":"METAR","rawOb":"METAR KOLM 190054Z 36009KT 10SM BKN100 20/04 A2990 RMK AO2 SLP125 T02000044","lat":46.9737,"lon":-122.9049,"elev":58,"name":"Olympia Rgnl, WA, US","cover":"BKN","clouds":[{"cover":"BKN","base":10000}],"fltCat":"VFR"},{"icaoId":"KRKS","receiptTime":"2026-04-19T00:58:05.343Z","obsTime":1776560040,"reportTime":"2026-04-19T01:00:00.000Z","temp":9.4,"dewp":-17.2,"wdir":220,"wspd":9,"visib":"10+","altim":1022.8,"slp":1023.5,"qcField":6,"metarType":"METAR","rawOb":"METAR KRKS 190054Z AUTO 22009KT 10SM CLR 09/M17 A3020 RMK AO2 SLP235 T00941172","lat":41.5947,"lon":-109.0529,"elev":2062,"name":"Rock Springs/SW Wyoming Rgnl, WY, US","cover":"CLR","clouds":[],"fltCat":"VFR"},{"icaoId":"KSJN","receiptTime":"2026-04-19T00:58:10.733Z","obsTime":1776560040,"reportTime":"2026-04-19T01:00:00.000Z","temp":20,"dewp":-19.4,"wdir":360,"wspd":9,"visib":"10+","altim":1018.7,"slp":1014.7,"qcField":6,"metarType":"METAR","rawOb":"METAR KSJN 190054Z AUTO 36009KT 10SM CLR 20/M19 A3008 RMK AO2 SLP147 T02001194","lat":34.5184,"lon":-109.3801,"elev":1747,"name":"St Johns Ind Arpt, AZ, US","cover":"CLR","clouds":[],"fltCat":"VFR"},{"icaoId":"KGSO","receiptTime":"2026-04-19T00:58:15.977Z","obsTime":1776560040,"reportTime":"2026-04-19T01:00:00.000Z","temp":24.4,"dewp":10,"wdir":180,"wspd":5,"visib":"10+","altim":1010.9,"slp":1009.7,"qcField":4,"metarType":"METAR","rawOb":"METAR KGSO 190054Z 18005KT 10SM FEW085 SCT200 BKN250 24/10 A2985 RMK AO2 SLP097 T02440100","lat":36.0969,"lon":-79.9432,"elev":275,"name":"Greensboro Intl, NC, US","cover":"BKN","clouds":[{"cover":"FEW","base":8500},{"cover":"SCT","base":20000},{"cover":"BKN","base":25000}],"fltCat":"VFR"},{"icaoId":"KRIC","receiptTime":"2026-04-19T00:58:16.133Z","obsTime":1776560040,"reportTime":"2026-04-19T01:00:00.000Z","temp":22.2,"dewp":16.1,"wdir":120,"wspd":9,"visib":"10+","altim":1010.2,"slp":1010.4,"qcField":12,"metarType":"METAR","rawOb":"METAR KRIC 190054Z 12009KT 10SM SCT250 22/16 A2983 RMK AO2 SLP104 T02220161 $","lat":37.5115,"lon":-77.3234,"elev":51,"name":"Richmond Intl, VA, US","cover":"SCT","clouds":[{"cover":"SCT","base":25000}],"fltCat":"VFR"},{"icaoId":"KINL","receiptTime":"2026-04-19T00:58:16.189Z","obsTime":1776560040,"reportTime":"2026-04-19T01:00:00.000Z","temp":-1.7,"dewp":-11.1,"wdir":310,"wspd":12,"wgst":20,"visib":"10+","altim":1011.6,"slp":1013.6,"qcField":14,"metarType":"METAR","rawOb":"METAR KINL 190054Z AUTO 31012G20KT 10SM OVC049 M02/M11 A2987 RMK AO2 PK WND 32029/0001 SLP136 T10171111 $","lat":48.5594,"lon":-93.3955,"elev":353,"name":"International Falls/Einarson Fld, MN, US","cover":"OVC","clouds":[{"cover":"OVC","base":4900}],"fltCat":"VFR"},{"icaoId":"KBTV","receiptTime":"2026-04-19T00:58:16.244Z","obsTime":1776560040,"reportTime":"2026-04-19T01:00:00.000Z","temp":19.4,"dewp":5.6,"wdir":150,"wspd":10,"wgst":24,"visib":"10+","altim":1007.9,"slp":1007.8,"qcField":4,"metarType":"METAR","rawOb":"METAR KBTV 190054Z 15010G24KT 10SM CLR 19/06 A2976 RMK AO2 PK WND 17026/0027 SLP078 T01940056","lat":44.4682,"lon":-73.1499,"elev":101,"name":"Burlington Intl, VT, US","cover":"CLR","clouds":[],"fltCat":"VFR"},{"icaoId":"KLNK","receiptTime":"2026-04-19T00:58:17.663Z","obsTime":1776560040,"reportTime":"2026-04-19T01:00:00.000Z","temp":12.2,"dewp":-5.6,"wdir":310,"wspd":9,"visib":"10+","altim":1021.1,"slp":1021.5,"qcField":4,"metarType":"METAR","rawOb":"METAR KLNK 190054Z 31009KT 10SM SCT120 12/M06 A3015 RMK AO2 SLP215 T01221056","lat":40.8478,"lon":-96.7647,"elev":357,"name":"Lincoln Arpt, NE, US","cover":"SCT","clouds":[{"cover":"SCT","base":12000}],"fltCat":"VFR"},{"icaoId":"KCOU","receiptTime":"2026-04-19T00:58:16.298Z","obsTime":1776560040,"reportTime":"2026-04-19T01:00:00.000Z","temp":10,"dewp":-2.2,"wdir":310,"wspd":7,"visib":"10+","altim":1022.1,"slp":1022.2,"qcField":4,"metarType":"METAR","rawOb":"METAR KCOU 190054Z 31007KT 10SM CLR 10/M02 A3018 RMK AO2 SLP222 T01001022","lat":38.8171,"lon":-92.2148,"elev":272,"name":"Columbia Rgnl, MO, US","cover":"CLR","clouds":[],"fltCat":"VFR"},{"icaoId":"KMEM","receiptTime":"2026-04-19T00:58:18.267Z","obsTime":1776560040,"reportTime":"2026-04-19T01:00:00.000Z","temp":10.6,"dewp":8.3,"wdir":20,"wspd":6,"visib":7,"altim":1020.7,"slp":1020.6,"qcField":12,"precip":0.005,"metarType":"METAR","rawOb":"METAR KMEM 190054Z 02006KT 7SM SCT046 BKN050 11/08 A3014 RMK AO2 RAE2355 SLP206 P0000 T01060083 $","lat":35.0564,"lon":-89.9864,"elev":78,"name":"Memphis Intl, TN, US","cover":"BKN","clouds":[{"cover":"SCT","base":4600},{"cover":"BKN","base":5000}],"fltCat":"VFR"},{"icaoId":"KCOS","receiptTime":"2026-04-19T00:58:16.284Z","obsTime":1776560040,"reportTime":"2026-04-19T01:00:00.000Z","temp":10.6,"dewp":-14.4,"wdir":160,"wspd":7,"visib":"10+","altim":1023.5,"slp":1023.8,"qcField":4,"metarType":"METAR","rawOb":"METAR KCOS 190054Z 16007KT 10SM SCT180 BKN220 11/M14 A3022 RMK AO2 SLP238 T01061144","lat":38.8095,"lon":-104.6887,"elev":1886,"name":"Colorado Spring Arpt, CO, US","cover":"BKN","clouds":[{"cover":"SCT","base":18000},{"cover":"BKN","base":22000}],"fltCat":"VFR"},{"icaoId":"KBOS","receiptTime":"2026-04-19T00:58:17.771Z","obsTime":1776560040,"reportTime":"2026-04-19T01:00:00.000Z","temp":6.7,"dewp":6.1,"wdir":60,"wspd":9,"visib":2,"altim":1017,"slp":1016.8,"qcField":4,"wxString":"-DZ BR","precip":0.005,"metarType":"METAR","rawOb":"METAR KBOS 190054Z 06009KT 2SM -DZ BR OVC004 07/06 A3003 RMK AO2 SFC VIS 6 SLP168 P0000 T00670061","lat":42.3606,"lon":-71.0097,"elev":4,"name":"Boston/Logan Intl, MA, US","cover":"OVC","clouds":[{"cover":"OVC","base":400}],"fltCat":"LIFR"},{"icaoId":"KGCN","receiptTime":"2026-04-19T00:58:13.141Z","obsTime":1776560040,"reportTime":"2026-04-19T01:00:00.000Z","temp":13.9,"dewp":-20.6,"wdir":50,"wspd":13,"visib":"10+","altim":1022.1,"slp":1017.7,"qcField":4,"metarType":"METAR","rawOb":"METAR KGCN 190054Z 05013KT 10SM CLR 14/M21 A3018 RMK AO2 SLP177 T01391206","lat":35.9458,"lon":-112.1554,"elev":1993,"name":"Grand Canyon Park Arpt, AZ, US","cover":"CLR","clouds":[],"fltCat":"VFR"},{"icaoId":"KGCK","receiptTime":"2026-04-19T00:58:10.513Z","obsTime":1776560040,"reportTime":"2026-04-19T01:00:00.000Z","temp":13.3,"dewp":-13.3,"wdir":310,"wspd":6,"visib":"10+","altim":1022.8,"slp":1023,"qcField":4,"metarType":"METAR","rawOb":"METAR KGCK 190054Z 31006KT 10SM CLR 13/M13 A3020 RMK AO2 SLP230 T01331133","lat":37.9221,"lon":-100.723,"elev":877,"name":"Garden City Rgnl, KS, US","cover":"CLR","clouds":[],"fltCat":"VFR"},{"icaoId":"KMOT","receiptTime":"2026-04-19T00:58:12.449Z","obsTime":1776560040,"reportTime":"2026-04-19T01:00:00.000Z","temp":4.4,"dewp":-6.7,"wdir":310,"wspd":15,"wgst":26,"visib":"10+","altim":1016,"slp":1018,"qcField":12,"metarType":"METAR","rawOb":"METAR KMOT 190054Z 31015G26KT 10SM FEW070 OVC100 04/M07 A3000 RMK AO2 PK WND 31027/0005 SLP180 T00441067 $","lat":48.252,"lon":-101.269,"elev":507,"name":"Minot Intl, ND, US","cover":"OVC","clouds":[{"cover":"FEW","base":7000},{"cover":"OVC","base":10000}],"fltCat":"VFR"},{"icaoId":"KALO","receiptTime":"2026-04-19T00:58:10.061Z","obsTime":1776560040,"reportTime":"2026-04-19T01:00:00.000Z","temp":7.8,"dewp":-9.4,"wdir":300,"wspd":8,"visib":"10+","altim":1017.7,"slp":1018.4,"qcField":6,"metarType":"METAR","rawOb":"METAR KALO 190054Z AUTO 30008KT 10SM FEW100 08/M09 A3005 RMK AO2 PK WND 28026/2358 SLP184 T00781094","lat":42.5544,"lon":-92.4013,"elev":264,"name":"Waterloo Rgnl, IA, US","cover":"FEW","clouds":[{"cover":"FEW","base":10000}],"fltCat":"VFR"},{"icaoId":"KIND","receiptTime":"2026-04-19T00:58:05.633Z","obsTime":1776560040,"reportTime":"2026-04-19T01:00:00.000Z","temp":10,"dewp":1.1,"wdir":320,"wspd":10,"wgst":19,"visib":"10+","altim":1016.7,"slp":1016.7,"qcField":4,"metarType":"METAR","rawOb":"METAR KIND 190054Z 32010G19KT 10SM FEW044 BKN120 BKN250 10/01 A3002 RMK AO2 SLP167 T01000011","lat":39.7252,"lon":-86.2816,"elev":242,"name":"Indianapolis Intl, IN, US","cover":"BKN","clouds":[{"cover":"FEW","base":4400},{"cover":"BKN","base":12000},{"cover":"BKN","base":25000}],"fltCat":"VFR"},{"icaoId":"KFFZ","receiptTime":"2026-04-19T00:58:10.366Z","obsTime":1776560040,"reportTime":"2026-04-19T01:00:00.000Z","temp":31.1,"dewp":-10,"wdir":300,"wspd":6,"visib":"10+","altim":1010.2,"slp":1008,"qcField":6,"metarType":"METAR","rawOb":"METAR KFFZ 190054Z AUTO 30006KT 10SM CLR 31/M10 A2983 RMK AO2 SLP080 T03111100","lat":33.4659,"lon":-111.7212,"elev":420,"name":"Mesa/Falcon Fld, AZ, US","cover":"CLR","clouds":[],"fltCat":"VFR"},{"icaoId":"KDSM","receiptTime":"2026-04-19T00:58:15.950Z","obsTime":1776560040,"reportTime":"2026-04-19T01:00:00.000Z","temp":9.4,"dewp":-11.1,"wdir":300,"wspd":10,"visib":"10+","altim":1020.1,"slp":1020.3,"qcField":12,"metarType":"METAR","rawOb":"METAR KDSM 190054Z 30010KT 10SM SCT110 09/M11 A3012 RMK AO2 PK WND 30026/0002 SLP203 T00941111 $","lat":41.5339,"lon":-93.6531,"elev":286,"name":"Des Moines Intl, IA, US","cover":"SCT","clouds":[{"cover":"SCT","base":11000}],"fltCat":"VFR"},{"icaoId":"KSUS","receiptTime":"2026-04-19T00:58:16.047Z","obsTime":1776560040,"reportTime":"2026-04-19T01:00:00.000Z","temp":11.7,"dewp":-2.8,"wdir":280,"wspd":7,"visib":"10+","altim":1020.7,"slp":1020.7,"qcField":12,"metarType":"METAR","rawOb":"METAR KSUS 190054Z 28007KT 10SM CLR 12/M03 A3014 RMK AO2 SLP207 T01171028 $","lat":38.6575,"lon":-90.6557,"elev":140,"name":"St Louis/Spirit of St Louis Arpt, MO, US","cover":"CLR","clouds":[],"fltCat":"VFR"},{"icaoId":"KRST","receiptTime":"2026-04-19T00:58:05.391Z","obsTime":1776560040,"reportTime":"2026-04-19T01:00:00.000Z","temp":5,"dewp":-10,"wdir":300,"wspd":12,"wgst":21,"visib":"10+","altim":1016.3,"slp":1017.6,"qcField":4,"metarType":"METAR","rawOb":"METAR KRST 190054Z 30012G21KT 10SM CLR 05/M10 A3001 RMK AO2 PK WND 31028/2355 SLP176 T00501100","lat":43.904,"lon":-92.4921,"elev":398,"name":"Rochester Intl, MN, US","cover":"CLR","clouds":[],"fltCat":"VFR"},{"icaoId":"KBWI","receiptTime":"2026-04-19T00:58:17.852Z","obsTime":1776560040,"reportTime":"2026-04-19T01:00:00.000Z","temp":16.1,"dewp":12.8,"wdir":80,"wspd":9,"visib":"10+","altim":1010.9,"slp":1010.9,"qcField":4,"metarType":"METAR","rawOb":"METAR KBWI 190054Z 08009KT 10SM FEW009 FEW180 BKN200 BKN250 16/13 A2985 RMK AO2 SLP109 T01610128","lat":39.1733,"lon":-76.684,"elev":42,"name":"Baltimore-Washington Intl, MD, US","cover":"BKN","clouds":[{"cover":"FEW","base":900},{"cover":"FEW","base":18000},{"cover":"BKN","base":20000},{"cover":"BKN","base":25000}],"fltCat":"VFR"},{"icaoId":"KBUF","receiptTime":"2026-04-19T00:58:16.257Z","obsTime":1776560040,"reportTime":"2026-04-19T01:00:00.000Z","temp":8.9,"dewp":8.3,"wdir":230,"wspd":10,"visib":3,"altim":1009.2,"slp":1009.1,"qcField":12,"wxString":"-RA BR","precip":0.01,"metarType":"METAR","rawOb":"METAR KBUF 190054Z 23010KT 3SM -RA BR OVC003 09/08 A2980 RMK AO2 PRESRR SLP091 P0001 T00890083 $","lat":42.94,"lon":-78.7361,"elev":217,"name":"Buffalo-Niagara Intl, NY, US","cover":"OVC","clouds":[{"cover":"OVC","base":300}],"fltCat":"LIFR"},{"icaoId":"KBFL","receiptTime":"2026-04-19T00:58:17.740Z","obsTime":1776560040,"reportTime":"2026-04-19T01:00:00.000Z","temp":28.3,"dewp":-1.7,"wdir":340,"wspd":11,"visib":"10+","altim":1010.9,"slp":1010.3,"qcField":12,"metarType":"METAR","rawOb":"METAR KBFL 190054Z 34011KT 10SM CLR 28/M02 A2985 RMK AO2 SLP103 T02831017 $","lat":35.4342,"lon":-119.0552,"elev":146,"name":"Bakersfield/Meadows Arpt, CA, US","cover":"CLR","clouds":[],"fltCat":"VFR"},{"icaoId":"KBRO","receiptTime":"2026-04-19T00:56:26.302Z","obsTime":1776559980,"reportTime":"2026-04-19T01:00:00.000Z","temp":26.7,"dewp":22.8,"wdir":90,"wspd":8,"visib":"10+","altim":1013.3,"slp":1013,"qcField":4,"metarType":"METAR","rawOb":"METAR KBRO 190053Z 09008KT 10SM CLR 27/23 A2992 RMK AO2 SLP130 T02670228","lat":25.9146,"lon":-97.4231,"elev":6,"name":"Brownsville Intl, TX, US","cover":"CLR","clouds":[],"fltCat":"VFR"},{"icaoId":"KMLU","receiptTime":"2026-04-19T01:00:44.736Z","obsTime":1776559980,"reportTime":"2026-04-19T01:00:00.000Z","temp":14.4,"dewp":11.7,"wdir":30,"wspd":9,"wgst":24,"visib":"10+","altim":1020.1,"slp":1019.9,"qcField":4,"wxString":"-RA","precip":0.005,"metarType":"METAR","rawOb":"METAR KMLU 190053Z 03009G24KT 10SM -RA OVC009 14/12 A3012 RMK AO2 PK WND 36032/2357 SLP199 P0000 T01440117","lat":32.5155,"lon":-92.0299,"elev":22,"name":"Monroe Rgnl, LA, US","cover":"OVC","clouds":[{"cover":"OVC","base":900}],"fltCat":"IFR"},{"icaoId":"KMIA","receiptTime":"2026-04-19T01:08:05.232Z","obsTime":1776559980,"reportTime":"2026-04-19T01:00:00.000Z","temp":25.6,"dewp":21.1,"wdir":110,"wspd":8,"visib":"10+","altim":1015,"slp":1014.9,"qcField":1,"metarType":"METAR","rawOb":"METAR KMIA 190053Z COR 11008KT 10SM FEW023 FEW250 26/21 A2997 RMK SLP149 T02560211","lat":25.7881,"lon":-80.3169,"elev":1,"name":"Miami Intl, FL, US","cover":"FEW","clouds":[{"cover":"FEW","base":2300},{"cover":"FEW","base":25000}],"fltCat":"VFR"},{"icaoId":"KDVT","receiptTime":"2026-04-19T00:56:20.334Z","obsTime":1776559980,"reportTime":"2026-04-19T01:00:00.000Z","temp":30.6,"dewp":-10,"wdir":180,"wspd":6,"visib":"10+","altim":1010.9,"slp":1008.7,"qcField":4,"metarType":"METAR","rawOb":"METAR KDVT 190053Z 18006KT 10SM CLR 31/M10 A2985 RMK AO2 SLP087 T03061100","lat":33.6902,"lon":-112.0662,"elev":454,"name":"Phoenix/Deer Valley Arpt, AZ, US","cover":"CLR","clouds":[],"fltCat":"VFR"},{"icaoId":"KIDA","receiptTime":"2026-04-19T00:56:20.574Z","obsTime":1776559980,"reportTime":"2026-04-19T01:00:00.000Z","temp":11.7,"dewp":-8.3,"wdir":160,"wspd":5,"visib":"10+","altim":1021.4,"slp":1022.4,"qcField":4,"metarType":"METAR","rawOb":"METAR KIDA 190053Z 16005KT 10SM CLR 12/M08 A3016 RMK AO2 SLP224 T01171083","lat":43.5204,"lon":-112.0675,"elev":1444,"name":"Idaho Falls Rgnl, ID, US","cover":"CLR","clouds":[],"fltCat":"VFR"},{"icaoId":"KLFT","receiptTime":"2026-04-19T00:56:20.782Z","obsTime":1776559980,"reportTime":"2026-04-19T01:00:00.000Z","temp":23.9,"dewp":21.1,"wdir":280,"wspd":4,"visib":"10+","altim":1016,"slp":1015.9,"qcField":4,"metarType":"METAR","rawOb":"METAR KLFT 190053Z 28004KT 10SM FEW044 SCT050 OVC085 24/21 A3000 RMK AO2 SLP159 T02390211","lat":30.1986,"lon":-91.9896,"elev":9,"name":"Lafayette Rgnl, LA, US","cover":"OVC","clouds":[{"cover":"FEW","base":4400},{"cover":"SCT","base":5000},{"cover":"OVC","base":8500}],"fltCat":"VFR"},{"icaoId":"KLOL","receiptTime":"2026-04-19T00:56:20.859Z","obsTime":1776559980,"reportTime":"2026-04-19T01:00:00.000Z","temp":20,"dewp":-16.1,"wdir":300,"wspd":4,"visib":"10+","altim":1014.6,"slp":1014.3,"qcField":6,"metarType":"METAR","rawOb":"METAR KLOL 190053Z AUTO 30004KT 10SM CLR 20/M16 A2996 RMK AO2 SLP143 T02001161","lat":40.0684,"lon":-118.5702,"elev":1191,"name":"Lovelock/Derby Fld, NV, US","cover":"CLR","clouds":[],"fltCat":"VFR"},{"icaoId":"KHIB","receiptTime":"2026-04-19T00:56:24.452Z","obsTime":1776559980,"reportTime":"2026-04-19T01:00:00.000Z","temp":0.6,"dewp":-11.7,"wdir":290,"wspd":13,"wgst":27,"visib":"10+","altim":1011.6,"slp":1013.6,"qcField":14,"metarType":"METAR","rawOb":"METAR KHIB 190053Z AUTO 29013G27KT 10SM BKN055 01/M12 A2987 RMK AO2 PK WND 29031/0008 SLP136 T00061117 $","lat":47.3804,"lon":-92.8325,"elev":409,"name":"Hibbing/Chisholm Arpt, MN, US","cover":"BKN","clouds":[{"cover":"BKN","base":5500}],"fltCat":"VFR"},{"icaoId":"KICT","receiptTime":"2026-04-19T00:56:21.511Z","obsTime":1776559980,"reportTime":"2026-04-19T01:00:00.000Z","temp":14.4,"dewp":-4.4,"wdir":300,"wspd":4,"visib":"10+","altim":1022.1,"slp":1022.2,"qcField":12,"metarType":"METAR","rawOb":"METAR KICT 190053Z 30004KT 10SM CLR 14/M04 A3018 RMK AO2 SLP222 T01441044 $","lat":37.6475,"lon":-97.43,"elev":428,"name":"Wichita/Eisenhower Arpt, KS, US","cover":"CLR","clouds":[],"fltCat":"VFR"},{"icaoId":"KSMF","receiptTime":"2026-04-19T00:56:26.367Z","obsTime":1776559980,"reportTime":"2026-04-19T01:00:00.000Z","temp":23.9,"dewp":2.8,"wdir":180,"wspd":7,"visib":"10+","altim":1012.3,"slp":1012.2,"qcField":12,"metarType":"METAR","rawOb":"METAR KSMF 190053Z 18007KT 10SM BKN250 24/03 A2989 RMK AO2 SLP122 T02390028 $","lat":38.7007,"lon":-121.5948,"elev":7,"name":"Sacramento Intl, CA, US","cover":"BKN","clouds":[{"cover":"BKN","base":25000}],"fltCat":"VFR"},{"icaoId":"KSLN","receiptTime":"2026-04-19T00:56:26.583Z","obsTime":1776559980,"reportTime":"2026-04-19T01:00:00.000Z","temp":15,"dewp":-5,"wdir":330,"wspd":9,"wgst":17,"visib":"10+","altim":1021.8,"slp":1021.9,"qcField":12,"metarType":"METAR","rawOb":"METAR KSLN 190053Z 33009G17KT 10SM CLR 15/M05 A3017 RMK AO2 SLP219 T01501050 $","lat":38.78,"lon":-97.6446,"elev":377,"name":"Salina Rgnl, KS, US","cover":"CLR","clouds":[],"fltCat":"VFR"},{"icaoId":"KTXK","receiptTime":"2026-04-19T00:56:21.993Z","obsTime":1776559980,"reportTime":"2026-04-19T01:00:00.000Z","temp":12.8,"dewp":11.7,"wdir":0,"wspd":0,"visib":"10+","altim":1022.4,"slp":1022.1,"qcField":12,"precip":0.005,"metarType":"METAR","rawOb":"METAR KTXK 190053Z 00000KT 10SM CLR 13/12 A3019 RMK AO2 RAE06 SLP221 P0000 T01280117 $","lat":33.456,"lon":-93.9878,"elev":118,"name":"Texarkana Rgnl, AR, US","cover":"CLR","clouds":[],"fltCat":"VFR"},{"icaoId":"KVEL","receiptTime":"2026-04-19T00:56:26.661Z","obsTime":1776559980,"reportTime":"2026-04-19T01:00:00.000Z","temp":10,"dewp":-15.6,"wdir":90,"wspd":6,"visib":"10+","altim":1024.1,"slp":1024.3,"qcField":6,"metarType":"METAR","rawOb":"METAR KVEL 190053Z AUTO 09006KT 10SM CLR 10/M16 A3024 RMK AO2 SLP243 T01001156","lat":40.4429,"lon":-109.5128,"elev":1604,"name":"Vernal Rgnl, UT, US","cover":"CLR","clouds":[],"fltCat":"VFR"},{"icaoId":"KVIH","receiptTime":"2026-04-19T00:56:22.093Z","obsTime":1776559980,"reportTime":"2026-04-19T01:00:00.000Z","temp":10,"dewp":-2.8,"wdir":310,"wspd":8,"wgst":17,"visib":"10+","altim":1022.1,"slp":1022.3,"qcField":6,"metarType":"METAR","rawOb":"METAR KVIH 190053Z AUTO 31008G17KT 10SM CLR 10/M03 A3018 RMK AO2 SLP223 T01001028","lat":38.1318,"lon":-91.7647,"elev":342,"name":"Vichy/Rolla Arpt, MO, US","cover":"CLR","clouds":[],"fltCat":"VFR"},{"icaoId":"KMLS","receiptTime":"2026-04-19T00:56:22.106Z","obsTime":1776559980,"reportTime":"2026-04-19T01:00:00.000Z","temp":11.1,"dewp":-5,"wdir":320,"wspd":10,"visib":"10+","altim":1017.4,"slp":1019.1,"qcField":6,"metarType":"METAR","rawOb":"METAR KMLS 190053Z AUTO 32010KT 10SM FEW090 11/M05 A3004 RMK AO2 SLP191 T01111050","lat":46.4265,"lon":-105.8834,"elev":800,"name":"Miles City/Wiley Fld, MT, US","cover":"FEW","clouds":[{"cover":"FEW","base":9000}],"fltCat":"VFR"},{"icaoId":"KMSP","receiptTime":"2026-04-19T00:56:26.519Z","obsTime":1776559980,"reportTime":"2026-04-19T01:00:00.000Z","temp":6.1,"dewp":-11.1,"wdir":310,"wspd":18,"wgst":24,"visib":"10+","altim":1016,"slp":1016.6,"qcField":4,"metarType":"METAR","rawOb":"METAR KMSP 190053Z 31018G24KT 10SM SCT080 06/M11 A3000 RMK AO2 PK WND 26031/0003 SLP166 T00611111","lat":44.8852,"lon":-93.2313,"elev":255,"name":"Minneapolis-St Paul Intl, MN, US","cover":"SCT","clouds":[{"cover":"SCT","base":8000}],"fltCat":"VFR"},{"icaoId":"KMSY","receiptTime":"2026-04-19T00:56:22.229Z","obsTime":1776559980,"reportTime":"2026-04-19T01:00:00.000Z","temp":24.4,"dewp":20.6,"wdir":190,"wspd":5,"visib":"10+","altim":1015,"slp":1015.3,"qcField":4,"metarType":"METAR","rawOb":"METAR KMSY 190053Z 19005KT 10SM FEW040 FEW090 BKN250 24/21 A2997 RMK AO2 SLP153 T02440206","lat":29.9974,"lon":-90.2777,"elev":0,"name":"New Orleans/Armstrong Intl, LA, US","cover":"BKN","clouds":[{"cover":"FEW","base":4000},{"cover":"FEW","base":9000},{"cover":"BKN","base":25000}],"fltCat":"VFR"},{"icaoId":"KNEW","receiptTime":"2026-04-19T00:56:22.324Z","obsTime":1776559980,"reportTime":"2026-04-19T01:00:00.000Z","temp":25.6,"dewp":20.6,"wdir":200,"wspd":10,"visib":"10+","altim":1015.3,"slp":1014.5,"qcField":4,"metarType":"METAR","rawOb":"METAR KNEW 190053Z 20010KT 10SM CLR 26/21 A2998 RMK AO1 SLP145 T02560206","lat":30.0494,"lon":-90.029,"elev":1,"name":"New Orleans/Lakefront Arpt, LA, US","cover":"CLR","clouds":[],"fltCat":"VFR"},{"icaoId":"KRTN","receiptTime":"2026-04-19T00:56:22.369Z","obsTime":1776559980,"reportTime":"2026-04-19T01:00:00.000Z","temp":12.2,"dewp":-13.3,"wdir":230,"wspd":9,"visib":"10+","altim":1023.5,"slp":1022.4,"qcField":6,"precip":0.005,"metarType":"METAR","rawOb":"METAR KRTN 190053Z AUTO 23009KT 10SM CLR 12/M13 A3022 RMK AO2 RAB09E12 SLP224 P0000 T01221133","lat":36.7418,"lon":-104.5076,"elev":1939,"name":"Raton/Crews Fld, NM, US","cover":"CLR","clouds":[],"fltCat":"VFR"},{"icaoId":"KSBA","receiptTime":"2026-04-19T00:56:22.468Z","obsTime":1776559980,"reportTime":"2026-04-19T01:00:00.000Z","temp":20.6,"dewp":7.2,"wdir":250,"wspd":8,"visib":"10+","altim":1012.6,"slp":1012.5,"qcField":12,"metarType":"METAR","rawOb":"METAR KSBA 190053Z 25008KT 10SM CLR 21/07 A2990 RMK AO2 SLP125 T02060072 $","lat":34.4241,"lon":-119.8425,"elev":2,"name":"Santa Barbara Muni, CA, US","cover":"CLR","clouds":[],"fltCat":"VFR"},{"icaoId":"KSJC","receiptTime":"2026-04-19T00:56:22.592Z","obsTime":1776559980,"reportTime":"2026-04-19T01:00:00.000Z","temp":22.8,"dewp":5.6,"wdir":330,"wspd":12,"visib":"10+","altim":1012.6,"slp":1012.4,"qcField":4,"metarType":"METAR","rawOb":"METAR KSJC 190053Z 33012KT 10SM SCT100 23/06 A2990 RMK AO2 SLP124 T02280056","lat":37.3594,"lon":-121.9244,"elev":13,"name":"San Jose Intl Arpt, CA, US","cover":"SCT","clouds":[{"cover":"SCT","base":10000}],"fltCat":"VFR"},{"icaoId":"KBTR","receiptTime":"2026-04-19T00:56:26.312Z","obsTime":1776559980,"reportTime":"2026-04-19T01:00:00.000Z","temp":24.4,"dewp":20.6,"wdir":310,"wspd":3,"visib":"10+","altim":1015.3,"slp":1015.2,"qcField":12,"metarType":"METAR","rawOb":"METAR KBTR 190053Z 31003KT 10SM OVC100 24/21 A2998 RMK AO2 SLP152 T02440206 $","lat":30.5378,"lon":-91.1468,"elev":20,"name":"Baton Rouge/Ryan Fld, LA, US","cover":"OVC","clouds":[{"cover":"OVC","base":10000}],"fltCat":"VFR"},{"icaoId":"KDMN","receiptTime":"2026-04-19T00:56:22.767Z","obsTime":1776559980,"reportTime":"2026-04-19T01:00:00.000Z","temp":23.3,"dewp":-5.6,"wdir":110,"wspd":11,"wgst":19,"visib":"10+","altim":1018.7,"slp":1013,"qcField":6,"metarType":"METAR","rawOb":"METAR KDMN 190053Z AUTO 11011G19KT 10SM CLR 23/M06 A3008 RMK AO2 SLP130 T02331056","lat":32.2592,"lon":-107.7206,"elev":1310,"name":"Deming Muni, NM, US","cover":"CLR","clouds":[],"fltCat":"VFR"},{"icaoId":"KJBR","receiptTime":"2026-04-19T00:56:22.962Z","obsTime":1776559980,"reportTime":"2026-04-19T01:00:00.000Z","temp":12.2,"dewp":6.1,"wdir":0,"wspd":0,"visib":"10+","altim":1021.4,"slp":1021.4,"qcField":14,"metarType":"METAR","rawOb":"METAR KJBR 190053Z AUTO 00000KT 10SM FEW080 12/06 A3016 RMK AO2 SLP214 T01220061 $","lat":35.8357,"lon":-90.6442,"elev":79,"name":"Jonesboro Muni, AR, US","cover":"FEW","clouds":[{"cover":"FEW","base":8000}],"fltCat":"VFR"},{"icaoId":"KLBB","receiptTime":"2026-04-19T00:56:22.995Z","obsTime":1776559980,"reportTime":"2026-04-19T01:00:00.000Z","temp":15.6,"dewp":-11.7,"wdir":90,"wspd":10,"visib":"10+","altim":1024.5,"slp":1022.9,"qcField":4,"metarType":"METAR","rawOb":"METAR KLBB 190053Z 09010KT 10SM FEW110 FEW250 16/M12 A3025 RMK AO2 SLP229 T01561117","lat":33.6658,"lon":-101.8233,"elev":996,"name":"Lubbock Intl Arpt, TX, US","cover":"FEW","clouds":[{"cover":"FEW","base":11000},{"cover":"FEW","base":25000}],"fltCat":"VFR"},{"icaoId":"KLVS","receiptTime":"2026-04-19T00:56:23.063Z","obsTime":1776559980,"reportTime":"2026-04-19T01:00:00.000Z","temp":10,"dewp":-12.8,"wdir":120,"wspd":14,"visib":"10+","altim":1025.1,"slp":1023.1,"qcField":14,"metarType":"METAR","rawOb":"METAR KLVS 190053Z AUTO 12014KT 10SM CLR 10/M13 A3027 RMK AO2 SLP231 T01001128 $","lat":35.6558,"lon":-105.1385,"elev":2095,"name":"Las Vegas Muni, NM, US","cover":"CLR","clouds":[],"fltCat":"VFR"},{"icaoId":"KMAF","receiptTime":"2026-04-19T00:56:23.101Z","obsTime":1776559980,"reportTime":"2026-04-19T01:00:00.000Z","temp":17.8,"dewp":-8.3,"wdir":80,"wspd":13,"visib":"10+","altim":1023.8,"slp":1021.2,"qcField":12,"metarType":"METAR","rawOb":"METAR KMAF 190053Z 08013KT 10SM CLR 18/M08 A3023 RMK AO2 SLP212 T01781083 $","lat":31.9475,"lon":-102.2086,"elev":874,"name":"Midland Intl, TX, US","cover":"CLR","clouds":[],"fltCat":"VFR"},{"icaoId":"KPRC","receiptTime":"2026-04-19T00:56:23.389Z","obsTime":1776559980,"reportTime":"2026-04-19T01:00:00.000Z","temp":20.6,"dewp":-14.4,"wdir":0,"wspd":0,"visib":"10+","altim":1018.4,"slp":1013.9,"qcField":4,"metarType":"METAR","rawOb":"METAR KPRC 190053Z 00000KT 10SM CLR 21/M14 A3007 RMK AO2 SLP139 T02061144","lat":34.6491,"lon":-112.4223,"elev":1528,"name":"Prescott/Love Fld, AZ, US","cover":"CLR","clouds":[],"fltCat":"VFR"},{"icaoId":"KPSC","receiptTime":"2026-04-19T00:56:23.400Z","obsTime":1776559980,"reportTime":"2026-04-19T01:00:00.000Z","temp":20.6,"dewp":1.1,"wdir":350,"wspd":3,"visib":"10+","altim":1015,"slp":1014.8,"qcField":4,"metarType":"METAR","rawOb":"METAR KPSC 190053Z 35003KT 10SM CLR 21/01 A2997 RMK AO2 SLP148 T02060011","lat":46.2695,"lon":-119.1182,"elev":121,"name":"Pasco/Tri Cities Arpt, WA, US","cover":"CLR","clouds":[],"fltCat":"VFR"},{"icaoId":"KPUB","receiptTime":"2026-04-19T00:56:28.112Z","obsTime":1776559980,"reportTime":"2026-04-19T01:00:00.000Z","visib":"","altim":1021.8,"qcField":12,"metarType":"METAR","rawOb":"METAR KPUB 190053Z A3017 RMK AO2 SLPNO RVRNO $","lat":38.2887,"lon":-104.5057,"elev":1441,"name":"Pueblo Mem Arpt, CO, US"},{"icaoId":"KPUW","receiptTime":"2026-04-19T00:56:23.454Z","obsTime":1776559980,"reportTime":"2026-04-19T01:00:00.000Z","temp":15.6,"dewp":0.6,"wdir":120,"wspd":7,"visib":"10+","altim":1017.7,"slp":1018,"qcField":6,"metarType":"METAR","rawOb":"METAR KPUW 190053Z AUTO 12007KT 10SM CLR 16/01 A3005 RMK AO2 SLP180 T01560006","lat":46.7438,"lon":-117.1158,"elev":774,"name":"Pullman/Moscow Rgnl, WA, US","cover":"CLR","clouds":[],"fltCat":"VFR"},{"icaoId":"KRDD","receiptTime":"2026-04-19T00:56:23.520Z","obsTime":1776559980,"reportTime":"2026-04-19T01:00:00.000Z","temp":24.4,"dewp":3.9,"wdir":160,"wspd":6,"visib":"10+","altim":1011.6,"slp":1011.3,"qcField":12,"metarType":"METAR","rawOb":"METAR KRDD 190053Z 16006KT 10SM CLR 24/04 A2987 RMK AO2 SLP113 T02440039 $","lat":40.5146,"lon":-122.2977,"elev":152,"name":"Redding Muni, CA, US","cover":"CLR","clouds":[],"fltCat":"VFR"},{"icaoId":"KGRI","receiptTime":"2026-04-19T00:56:24.249Z","obsTime":1776559980,"reportTime":"2026-04-19T01:00:00.000Z","temp":11.1,"dewp":-8.3,"wdir":330,"wspd":10,"visib":"10+","altim":1021.4,"slp":1022.9,"qcField":12,"metarType":"METAR","rawOb":"METAR KGRI 190053Z 33010KT 10SM CLR 11/M08 A3016 RMK AO2 PK WND 33026/0014 SLP229 T01111083 $","lat":40.9615,"lon":-98.313,"elev":562,"name":"Grand Island Rgnl, NE, US","cover":"CLR","clouds":[],"fltCat":"VFR"},{"icaoId":"KGSP","receiptTime":"2026-04-19T00:56:24.273Z","obsTime":1776559980,"reportTime":"2026-04-19T01:00:00.000Z","temp":24.4,"dewp":13.3,"wdir":210,"wspd":9,"visib":"10+","altim":1012.6,"slp":1011.4,"qcField":4,"metarType":"METAR","rawOb":"METAR KGSP 190053Z 21009KT 10SM CLR 24/13 A2990 RMK AO2 SLP114 T02440133","lat":34.8842,"lon":-82.2209,"elev":285,"name":"Greenville-Spartanburg Intl, SC, US","cover":"CLR","clouds":[],"fltCat":"VFR"},{"icaoId":"KHIO","receiptTime":"2026-04-19T00:56:24.463Z","obsTime":1776559980,"reportTime":"2026-04-19T01:00:00.000Z","temp":21.7,"dewp":2.2,"wdir":0,"wspd":0,"visib":"10+","altim":1011.9,"slp":1011.9,"qcField":4,"metarType":"METAR","rawOb":"METAR KHIO 190053Z 00000KT 10SM CLR 22/02 A2988 RMK AO2 SLP119 T02170022","lat":45.5476,"lon":-122.9557,"elev":62,"name":"Portland/Hillsboro Arpt, OR, US","cover":"CLR","clouds":[],"fltCat":"VFR"},{"icaoId":"KHOT","receiptTime":"2026-04-19T00:56:25.275Z","obsTime":1776559980,"reportTime":"2026-04-19T01:00:00.000Z","temp":12.8,"dewp":6.7,"wdir":0,"wspd":0,"visib":"10+","altim":1021.8,"slp":1021.4,"qcField":6,"metarType":"METAR","rawOb":"METAR KHOT 190053Z AUTO 00000KT 10SM CLR 13/07 A3017 RMK AO2 SLP214 T01280067","lat":34.4755,"lon":-93.1041,"elev":153,"name":"Hot Springs Mem, AR, US","cover":"CLR","clouds":[],"fltCat":"VFR"},{"icaoId":"KHRO","receiptTime":"2026-04-19T00:56:25.297Z","obsTime":1776559980,"reportTime":"2026-04-19T01:00:00.000Z","temp":11.1,"dewp":-1.7,"wdir":310,"wspd":5,"visib":"10+","altim":1023.1,"slp":1022.9,"qcField":38,"precip":0.005,"metarType":"METAR","rawOb":"METAR KHRO 190053Z AUTO 31005KT 10SM CLR 11/M02 A3021 RMK AO2 RAE46 SLP229 P0000 T01111017 TSNO","lat":36.2673,"lon":-93.1566,"elev":417,"name":"Harrison/Boone Cnty, AR, US","cover":"CLR","clouds":[],"fltCat":"VFR"},{"icaoId":"KELD","receiptTime":"2026-04-19T00:56:25.346Z","obsTime":1776559980,"reportTime":"2026-04-19T01:00:00.000Z","temp":10,"dewp":8.9,"wdir":30,"wspd":4,"visib":8,"altim":1022.1,"slp":1021.9,"qcField":6,"wxString":"RA","precip":0.01,"metarType":"METAR","rawOb":"METAR KELD 190053Z AUTO 03004KT 8SM RA OVC035 10/09 A3018 RMK AO2 PRESRR SLP219 P0001 T01000089","lat":33.2207,"lon":-92.814,"elev":76,"name":"El Dorado/S Arkansas Rgnl, AR, US","cover":"OVC","clouds":[{"cover":"OVC","base":3500}],"fltCat":"VFR"},{"icaoId":"KFSM","receiptTime":"2026-04-19T00:56:25.656Z","obsTime":1776559980,"reportTime":"2026-04-19T01:00:00.000Z","temp":15,"dewp":-0.6,"wdir":340,"wspd":7,"visib":"10+","altim":1023.5,"slp":1023.1,"qcField":4,"metarType":"METAR","rawOb":"METAR KFSM 190053Z 34007KT 10SM CLR 15/M01 A3022 RMK AO2 SLP231 T01501006","lat":35.3335,"lon":-94.3653,"elev":136,"name":"Fort Smith Rgnl, AR, US","cover":"CLR","clouds":[],"fltCat":"VFR"},{"icaoId":"KFUL","receiptTime":"2026-04-19T00:56:25.708Z","obsTime":1776559980,"reportTime":"2026-04-19T01:00:00.000Z","temp":25.6,"dewp":5,"wdir":"VRB","wspd":5,"visib":"10+","altim":1011.6,"slp":1011.3,"qcField":4,"metarType":"METAR","rawOb":"METAR KFUL 190053Z VRB05KT 10SM CLR 26/05 A2987 RMK AO2 SLP113 T02560050","lat":33.8715,"lon":-117.9856,"elev":23,"name":"Fullerton Muni, CA, US","cover":"CLR","clouds":[],"fltCat":"VFR"},{"icaoId":"KGFK","receiptTime":"2026-04-19T00:56:25.788Z","obsTime":1776559980,"reportTime":"2026-04-19T01:00:00.000Z","temp":3.3,"dewp":-4.4,"wdir":300,"wspd":7,"visib":"10+","altim":1014.3,"slp":1015.4,"qcField":12,"metarType":"METAR","rawOb":"METAR KGFK 190053Z 30007KT 10SM BKN070 BKN090 03/M04 A2995 RMK AO2 SLP154 VIRGA ALQDS T00331044 $","lat":47.9428,"lon":-97.1829,"elev":256,"name":"Grand Forks Intl, ND, US","cover":"BKN","clouds":[{"cover":"BKN","base":7000},{"cover":"BKN","base":9000}],"fltCat":"VFR"},{"icaoId":"KPIH","receiptTime":"2026-04-19T00:56:26.020Z","obsTime":1776559980,"reportTime":"2026-04-19T01:00:00.000Z","temp":14.4,"dewp":-10.6,"wdir":180,"wspd":11,"visib":"10+","altim":1020.4,"slp":1020.7,"qcField":4,"metarType":"METAR","rawOb":"METAR KPIH 190053Z 18011KT 10SM CLR 14/M11 A3013 RMK AO2 SLP207 T01441106","lat":42.9197,"lon":-112.5723,"elev":1357,"name":"Pocatello Rgnl, ID, US","cover":"CLR","clouds":[],"fltCat":"VFR"},{"icaoId":"KACV","receiptTime":"2026-04-19T00:56:26.087Z","obsTime":1776559980,"reportTime":"2026-04-19T01:00:00.000Z","temp":11.7,"dewp":8.9,"wdir":300,"wspd":4,"visib":"10+","altim":1014,"slp":1014.5,"qcField":6,"metarType":"METAR","rawOb":"METAR KACV 190053Z AUTO 30004KT 10SM CLR 12/09 A2994 RMK AO2 SLP145 T01170089","lat":40.9784,"lon":-124.1048,"elev":63,"name":"Arcata Arpt, CA, US","cover":"CLR","clouds":[],"fltCat":"VFR"},{"icaoId":"KDFW","receiptTime":"2026-04-19T00:56:26.245Z","obsTime":1776559980,"reportTime":"2026-04-19T01:00:00.000Z","temp":14.4,"dewp":4.4,"wdir":40,"wspd":5,"visib":"10+","altim":1023.1,"slp":1022.5,"qcField":12,"metarType":"METAR","rawOb":"METAR KDFW 190053Z 04005KT 10SM FEW150 SCT200 BKN250 14/04 A3021 RMK AO2 SLP225 T01440044 $","lat":32.8974,"lon":-97.022,"elev":168,"name":"Dallas-Ft Worth Intl, TX, US","cover":"BKN","clouds":[{"cover":"FEW","base":15000},{"cover":"SCT","base":20000},{"cover":"BKN","base":25000}],"fltCat":"VFR"},{"icaoId":"KBPK","receiptTime":"2026-04-19T00:56:26.277Z","obsTime":1776559980,"reportTime":"2026-04-19T01:00:00.000Z","temp":11.7,"dewp":-1.1,"wdir":"VRB","wspd":3,"visib":"10+","altim":1022.1,"slp":1021.9,"qcField":142,"metarType":"METAR","rawOb":"METAR KBPK 190053Z AUTO VRB03KT 10SM CLR 12/M01 A3018 RMK AO2 SLP219 T01171011 PWINO $","lat":36.3706,"lon":-92.4719,"elev":279,"name":"Mountain Home/Baxter Cnty, AR, US","cover":"CLR","clouds":[],"fltCat":"VFR"},{"icaoId":"KSNA","receiptTime":"2026-04-19T00:56:26.377Z","obsTime":1776559980,"reportTime":"2026-04-19T01:00:00.000Z","temp":23.9,"dewp":9.4,"wdir":220,"wspd":8,"visib":"10+","altim":1012.3,"slp":1012,"qcField":12,"metarType":"METAR","rawOb":"METAR KSNA 190053Z 22008KT 10SM CLR 24/09 A2989 RMK AO2 SLP120 T02390094 $","lat":33.6798,"lon":-117.8675,"elev":14,"name":"Santa Ana/Wayne Arpt, CA, US","cover":"CLR","clouds":[],"fltCat":"VFR"},{"icaoId":"KTUS","receiptTime":"2026-04-19T00:56:28.452Z","obsTime":1776559980,"reportTime":"2026-04-19T01:00:00.000Z","temp":30,"dewp":-3.9,"wdir":0,"wspd":0,"visib":"10+","altim":1011.9,"slp":1007.9,"qcField":4,"metarType":"METAR","rawOb":"METAR KTUS 190053Z 00000KT 10SM CLR 30/M04 A2988 RMK AO2 SLP079 T03001039","lat":32.1315,"lon":-110.9564,"elev":776,"name":"Tucson Intl Arpt, AZ, US","cover":"CLR","clouds":[],"fltCat":"VFR"},{"icaoId":"KOTM","receiptTime":"2026-04-19T00:56:26.486Z","obsTime":1776559980,"reportTime":"2026-04-19T01:00:00.000Z","temp":8.3,"dewp":-9.4,"wdir":290,"wspd":9,"visib":"10+","altim":1019.7,"slp":1020.1,"qcField":6,"metarType":"METAR","rawOb":"METAR KOTM 190053Z AUTO 29009KT 10SM CLR 08/M09 A3011 RMK AO2 SLP201 T00831094","lat":41.1008,"lon":-92.4445,"elev":254,"name":"Ottumwa Rgnl, IA, US","cover":"CLR","clouds":[],"fltCat":"VFR"},{"icaoId":"KMTJ","receiptTime":"2026-04-19T00:56:26.529Z","obsTime":1776559980,"reportTime":"2026-04-19T01:00:00.000Z","temp":12.2,"dewp":-15,"wdir":330,"wspd":5,"visib":"10+","altim":1024.5,"slp":1022.9,"qcField":6,"metarType":"METAR","rawOb":"METAR KMTJ 190053Z AUTO 33005KT 10SM CLR 12/M15 A3025 RMK AO2 SLP229 T01221150","lat":38.5054,"lon":-107.8981,"elev":1755,"name":"Montrose Rgnl, CO, US","cover":"CLR","clouds":[],"fltCat":"VFR"},{"icaoId":"KSTC","receiptTime":"2026-04-19T00:56:28.398Z","obsTime":1776559980,"reportTime":"2026-04-19T01:00:00.000Z","temp":5,"dewp":-10.6,"wdir":300,"wspd":14,"visib":"10+","altim":1015,"slp":1016.9,"qcField":4,"metarType":"METAR","rawOb":"METAR KSTC 190053Z 30014KT 10SM BKN080 OVC095 05/M11 A2997 RMK AO2 PK WND 31027/0006 SLP169 T00501106","lat":45.5442,"lon":-94.0516,"elev":302,"name":"St Cloud Rgnl, MN, US","cover":"OVC","clouds":[{"cover":"BKN","base":8000},{"cover":"OVC","base":9500}],"fltCat":"VFR"},{"icaoId":"KLAR","receiptTime":"2026-04-19T00:56:27.973Z","obsTime":1776559980,"reportTime":"2026-04-19T01:00:00.000Z","temp":7.2,"dewp":-16.1,"wdir":270,"wspd":16,"visib":"10+","altim":1022.4,"slp":1022.4,"qcField":6,"metarType":"METAR","rawOb":"METAR KLAR 190053Z AUTO 27016KT 10SM CLR 07/M16 A3019 RMK AO2 SLP224 T00721161","lat":41.3165,"lon":-105.6729,"elev":2217,"name":"Laramie Rgnl, WY, US","cover":"CLR","clouds":[],"fltCat":"VFR"},{"icaoId":"KMCW","receiptTime":"2026-04-19T00:56:28.079Z","obsTime":1776559980,"reportTime":"2026-04-19T01:00:00.000Z","temp":6.7,"dewp":-12.8,"wdir":300,"wspd":13,"wgst":22,"visib":"10+","altim":1017.4,"slp":1017.6,"qcField":6,"metarType":"METAR","rawOb":"METAR KMCW 190053Z AUTO 30013G22KT 10SM CLR 07/M13 A3004 RMK AO2 PK WND 29027/0018 SLP176 T00671128","lat":43.1543,"lon":-93.3262,"elev":363,"name":"Mason City Muni, IA, US","cover":"CLR","clouds":[],"fltCat":"VFR"},{"icaoId":"KPDX","receiptTime":"2026-04-19T00:56:28.310Z","obsTime":1776559980,"reportTime":"2026-04-19T01:00:00.000Z","temp":22.2,"dewp":-1.1,"wdir":0,"wspd":0,"visib":"10+","altim":1011.9,"slp":1011.9,"qcField":12,"metarType":"METAR","rawOb":"METAR KPDX 190053Z 00000KT 10SM FEW070 SCT180 BKN250 22/M01 A2988 RMK AO2 SLP119 T02221011 $","lat":45.5958,"lon":-122.6092,"elev":7,"name":"Portland Intl, OR, US","cover":"BKN","clouds":[{"cover":"FEW","base":7000},{"cover":"SCT","base":18000},{"cover":"BKN","base":25000}],"fltCat":"VFR"},{"icaoId":"KMSO","receiptTime":"2026-04-19T00:56:28.342Z","obsTime":1776559980,"reportTime":"2026-04-19T01:00:00.000Z","temp":15,"dewp":-5.6,"wdir":"VRB","wspd":6,"visib":"10+","altim":1017.7,"slp":1018.9,"qcField":4,"metarType":"METAR","rawOb":"METAR KMSO 190053Z VRB06KT 10SM CLR 15/M06 A3005 RMK AO2 SLP189 T01501056","lat":46.9208,"lon":-114.0938,"elev":974,"name":"Missoula Intl, MT, US","cover":"CLR","clouds":[],"fltCat":"VFR"},{"icaoId":"KSEA","receiptTime":"2026-04-19T00:56:28.387Z","obsTime":1776559980,"reportTime":"2026-04-19T01:00:00.000Z","temp":19.4,"dewp":1.7,"wdir":270,"wspd":5,"visib":"10+","altim":1013.3,"slp":1013.8,"qcField":4,"metarType":"METAR","rawOb":"METAR KSEA 190053Z 27005KT 10SM BKN120 19/02 A2992 RMK AO2 SLP138 T01940017","lat":47.4447,"lon":-122.3144,"elev":115,"name":"Seattle-Tacoma Intl, WA, US","cover":"BKN","clouds":[{"cover":"BKN","base":12000}],"fltCat":"VFR"},{"icaoId":"KYKM","receiptTime":"2026-04-19T00:56:28.473Z","obsTime":1776559980,"reportTime":"2026-04-19T01:00:00.000Z","temp":18.9,"dewp":-1.1,"wdir":0,"wspd":0,"visib":"10+","altim":1015,"slp":1015.1,"qcField":4,"metarType":"METAR","rawOb":"METAR KYKM 190053Z 00000KT 10SM CLR 19/M01 A2997 RMK AO2 SLP151 T01891011","lat":46.564,"lon":-120.5349,"elev":319,"name":"Yakima/McAllister Fld, WA, US","cover":"CLR","clouds":[],"fltCat":"VFR"},{"icaoId":"PANC","receiptTime":"2026-04-19T00:56:28.608Z","obsTime":1776559980,"reportTime":"2026-04-19T01:00:00.000Z","temp":6.1,"dewp":-1.1,"wdir":180,"wspd":4,"visib":"10+","altim":1011.3,"slp":1011.5,"qcField":4,"metarType":"METAR","rawOb":"METAR PANC 190053Z 18004KT 10SM SCT040 BKN060 OVC130 06/M01 A2986 RMK AO2 SLP115 T00611011","lat":61.1691,"lon":-150.0277,"elev":39,"name":"Anchorage Intl, AK, US","cover":"OVC","clouds":[{"cover":"SCT","base":4000},{"cover":"BKN","base":6000},{"cover":"OVC","base":13000}],"fltCat":"VFR"},{"icaoId":"KIWA","receiptTime":"2026-04-19T00:54:10.652Z","obsTime":1776559980,"reportTime":"2026-04-19T01:00:00.000Z","temp":31,"dewp":-9,"wdir":270,"wspd":6,"visib":"10+","altim":1010.6,"qcField":0,"metarType":"METAR","rawOb":"METAR KIWA 190053Z 27006KT 10SM CLR 31/M09 A2984","lat":33.3008,"lon":-111.6437,"elev":420,"name":"Phoenix/Mesa Gateway Arpt, AZ, US","cover":"CLR","clouds":[],"fltCat":"VFR"},{"icaoId":"KMYR","receiptTime":"2026-04-19T00:56:23.583Z","obsTime":1776559980,"reportTime":"2026-04-19T01:00:00.000Z","temp":21.1,"dewp":18.9,"wdir":180,"wspd":10,"visib":"10+","altim":1014,"slp":1013.8,"qcField":12,"metarType":"METAR","rawOb":"METAR KMYR 190053Z 18010KT 10SM CLR 21/19 A2994 RMK AO2 SLP138 T02110189 $","lat":33.6769,"lon":-78.9325,"elev":7,"name":"Myrtle Beach Intl, SC, US","cover":"CLR","clouds":[],"fltCat":"VFR"},{"icaoId":"KJLN","receiptTime":"2026-04-19T00:56:24.712Z","obsTime":1776559980,"reportTime":"2026-04-19T01:00:00.000Z","temp":11.1,"dewp":1.1,"wdir":0,"wspd":0,"visib":"10+","altim":1023.5,"slp":1023.5,"qcField":4,"metarType":"METAR","rawOb":"METAR KJLN 190053Z 00000KT 10SM CLR 11/01 A3022 RMK AO2 SLP235 T01110011","lat":37.1522,"lon":-94.4952,"elev":297,"name":"Joplin Rgnl, MO, US","cover":"CLR","clouds":[],"fltCat":"VFR"},{"icaoId":"KPNC","receiptTime":"2026-04-19T00:56:23.665Z","obsTime":1776559980,"reportTime":"2026-04-19T01:00:00.000Z","temp":14.4,"dewp":0,"wdir":0,"wspd":0,"visib":"10+","altim":1023.1,"slp":1022.9,"qcField":6,"metarType":"METAR","rawOb":"METAR KPNC 190053Z AUTO 00000KT 10SM CLR 14/00 A3021 RMK AO2 SLP229 T01440000","lat":36.7369,"lon":-97.1024,"elev":304,"name":"Ponca City Rgnl, OK, US","cover":"CLR","clouds":[],"fltCat":"VFR"},{"icaoId":"KDBQ","receiptTime":"2026-04-19T00:56:24.834Z","obsTime":1776559980,"reportTime":"2026-04-19T01:00:00.000Z","temp":5.6,"dewp":-5.6,"wdir":300,"wspd":12,"visib":"10+","altim":1017.7,"slp":1018.3,"qcField":4,"metarType":"METAR","rawOb":"METAR KDBQ 190053Z 30012KT 10SM CLR 06/M06 A3005 RMK AO2 PK WND 29029/2355 SLP183 T00561056","lat":42.3984,"lon":-90.7091,"elev":317,"name":"Dubuque Rgnl, IA, US","cover":"CLR","clouds":[],"fltCat":"VFR"},{"icaoId":"KLGB","receiptTime":"2026-04-19T00:56:20.792Z","obsTime":1776559980,"reportTime":"2026-04-19T01:00:00.000Z","temp":23.3,"dewp":11.1,"wdir":290,"wspd":9,"visib":"10+","altim":1011.6,"slp":1011.6,"qcField":12,"metarType":"METAR","rawOb":"METAR KLGB 190053Z 29009KT 10SM CLR 23/11 A2987 RMK AO2 SLP116 T02330111 $","lat":33.8118,"lon":-118.1472,"elev":10,"name":"Long Beach Arpt, CA, US","cover":"CLR","clouds":[],"fltCat":"VFR"},{"icaoId":"KMFE","receiptTime":"2026-04-19T00:56:23.209Z","obsTime":1776559980,"reportTime":"2026-04-19T01:00:00.000Z","temp":27.8,"dewp":21.1,"wdir":100,"wspd":7,"visib":"10+","altim":1014,"slp":1013.6,"qcField":4,"metarType":"METAR","rawOb":"METAR KMFE 190053Z 10007KT 10SM BKN050 28/21 A2994 RMK AO2 SLP136 T02780211","lat":26.1791,"lon":-98.2445,"elev":29,"name":"McAllen/Miller Intl, TX, US","cover":"BKN","clouds":[{"cover":"BKN","base":5000}],"fltCat":"VFR"},{"icaoId":"KHSI","receiptTime":"2026-04-19T00:56:24.593Z","obsTime":1776559980,"reportTime":"2026-04-19T01:00:00.000Z","temp":11.1,"dewp":-7.8,"wdir":320,"wspd":10,"visib":"10+","altim":1021.4,"slp":1022.3,"qcField":6,"metarType":"METAR","rawOb":"METAR KHSI 190053Z AUTO 32010KT 10SM BKN100 11/M08 A3016 RMK AO2 SLP223 T01111078","lat":40.6002,"lon":-98.4264,"elev":592,"name":"Hastings Muni, NE, US","cover":"BKN","clouds":[{"cover":"BKN","base":10000}],"fltCat":"VFR"},{"icaoId":"KIXD","receiptTime":"2026-04-19T00:56:21.523Z","obsTime":1776559980,"reportTime":"2026-04-19T01:00:00.000Z","temp":11.7,"dewp":-2.2,"wdir":280,"wspd":5,"visib":"10+","altim":1022.4,"slp":1022.6,"qcField":12,"precip":0.005,"metarType":"METAR","rawOb":"METAR KIXD 190053Z 28005KT 10SM SCT050 SCT065 BKN100 12/M02 A3019 RMK AO2 PK WND 28028/0035 RAB35E49 SLP226 P0000 T01171022 $","lat":38.8221,"lon":-94.8902,"elev":322,"name":"Olathe/New Century Arpt, KS, US","cover":"BKN","clouds":[{"cover":"SCT","base":5000},{"cover":"SCT","base":6500},{"cover":"BKN","base":10000}],"fltCat":"VFR"},{"icaoId":"KLAW","receiptTime":"2026-04-19T00:56:20.698Z","obsTime":1776559980,"reportTime":"2026-04-19T01:00:00.000Z","temp":14.4,"dewp":0,"wdir":60,"wspd":5,"visib":"10+","altim":1024.5,"slp":1024.4,"qcField":6,"metarType":"METAR","rawOb":"METAR KLAW 190053Z AUTO 06005KT 10SM CLR 14/00 A3025 RMK AO2 SLP244 T01440000","lat":34.5577,"lon":-98.4172,"elev":328,"name":"Lawton-Fort Sill Rgnl, OK, US","cover":"CLR","clouds":[],"fltCat":"VFR"},{"icaoId":"KLAX","receiptTime":"2026-04-19T00:56:22.985Z","obsTime":1776559980,"reportTime":"2026-04-19T01:00:00.000Z","temp":20,"dewp":12.2,"wdir":260,"wspd":12,"visib":"10+","altim":1012.6,"slp":1012.3,"qcField":12,"metarType":"METAR","rawOb":"METAR KLAX 190053Z 26012KT 10SM SCT250 20/12 A2990 RMK AO2 SLP123 T02000122 $","lat":33.9382,"lon":-118.3866,"elev":30,"name":"Los Angeles Intl, CA, US","cover":"SCT","clouds":[{"cover":"SCT","base":25000}],"fltCat":"VFR"},{"icaoId":"KLBF","receiptTime":"2026-04-19T00:56:27.984Z","obsTime":1776559980,"reportTime":"2026-04-19T01:00:00.000Z","temp":10,"dewp":-6.7,"wdir":20,"wspd":11,"visib":"10+","altim":1021.1,"slp":1022.5,"qcField":6,"metarType":"METAR","rawOb":"METAR KLBF 190053Z AUTO 02011KT 10SM CLR 10/M07 A3015 RMK AO2 SLP225 T01001067","lat":41.122,"lon":-100.6689,"elev":843,"name":"N Platte/Lee Bird Fld, NE, US","cover":"CLR","clouds":[],"fltCat":"VFR"},{"icaoId":"KLIT","receiptTime":"2026-04-19T00:56:23.006Z","obsTime":1776559980,"reportTime":"2026-04-19T01:00:00.000Z","temp":11.7,"dewp":7.8,"wdir":20,"wspd":5,"visib":"10+","altim":1022.1,"slp":1022,"qcField":4,"metarType":"METAR","rawOb":"METAR KLIT 190053Z 02005KT 10SM FEW060 SCT100 BKN250 12/08 A3018 RMK AO2 SLP220 T01170078","lat":34.7273,"lon":-92.2358,"elev":77,"name":"Little Rock/Clinton Natl, AR, US","cover":"BKN","clouds":[{"cover":"FEW","base":6000},{"cover":"SCT","base":10000},{"cover":"BKN","base":25000}],"fltCat":"VFR"},{"icaoId":"KFAR","receiptTime":"2026-04-19T00:56:22.816Z","obsTime":1776559980,"reportTime":"2026-04-19T01:00:00.000Z","temp":5,"dewp":-5,"wdir":320,"wspd":16,"wgst":24,"visib":"10+","altim":1015,"slp":1016.1,"qcField":12,"metarType":"METAR","rawOb":"METAR KFAR 190053Z 32016G24KT 10SM OVC048 05/M05 A2997 RMK AO2 SLP161 T00501050 $","lat":46.9242,"lon":-96.8119,"elev":276,"name":"Fargo/Hector Intl, ND, US","cover":"OVC","clouds":[{"cover":"OVC","base":4800}],"fltCat":"VFR"},{"icaoId":"KFMN","receiptTime":"2026-04-19T00:56:22.837Z","obsTime":1776559980,"reportTime":"2026-04-19T01:00:00.000Z","temp":16.1,"dewp":-22.2,"wdir":310,"wspd":3,"visib":"10+","altim":1021.8,"slp":1020.8,"qcField":4,"metarType":"METAR","rawOb":"METAR KFMN 190053Z 31003KT 10SM CLR 16/M22 A3017 RMK AO2 SLP208 T01611222","lat":36.7435,"lon":-108.2293,"elev":1677,"name":"Farmington/Four Corners Rgnl, NM, US","cover":"CLR","clouds":[],"fltCat":"VFR"},{"icaoId":"KGJT","receiptTime":"2026-04-19T00:56:25.829Z","obsTime":1776559980,"reportTime":"2026-04-19T01:00:00.000Z","temp":13.3,"dewp":-10.6,"wdir":0,"wspd":0,"visib":"10+","altim":1023.5,"slp":1022.5,"qcField":4,"metarType":"METAR","rawOb":"METAR KGJT 190053Z 00000KT 10SM CLR 13/M11 A3022 RMK AO2 SLP225 T01331106","lat":39.1344,"lon":-108.5408,"elev":1475,"name":"Grand Junction Rgnl, CO, US","cover":"CLR","clouds":[],"fltCat":"VFR"},{"icaoId":"KGTF","receiptTime":"2026-04-19T00:56:24.286Z","obsTime":1776559980,"reportTime":"2026-04-19T01:00:00.000Z","temp":14.4,"dewp":-6.7,"wdir":160,"wspd":6,"visib":"10+","altim":1016,"slp":1017.8,"qcField":12,"metarType":"METAR","rawOb":"METAR KGTF 190053Z 16006KT 10SM CLR 14/M07 A3000 RMK AO2 SLP178 T01441067 $","lat":47.4733,"lon":-111.3828,"elev":1117,"name":"Great Falls Intl, MT, US","cover":"CLR","clouds":[],"fltCat":"VFR"},{"icaoId":"KHEI","receiptTime":"2026-04-19T00:56:24.407Z","obsTime":1776559980,"reportTime":"2026-04-19T01:00:00.000Z","temp":7.2,"dewp":-4.4,"wdir":320,"wspd":13,"visib":"10+","altim":1017.4,"slp":1019.9,"qcField":6,"metarType":"METAR","rawOb":"METAR KHEI 190053Z AUTO 32013KT 10SM BKN070 OVC085 07/M04 A3004 RMK AO2 SLP199 T00721044","lat":46.0108,"lon":-102.6518,"elev":824,"name":"Hettinger Muni, ND, US","cover":"OVC","clouds":[{"cover":"BKN","base":7000},{"cover":"OVC","base":8500}],"fltCat":"VFR"},{"icaoId":"KBTM","receiptTime":"2026-04-19T00:56:20.005Z","obsTime":1776559980,"reportTime":"2026-04-19T01:00:00.000Z","temp":13.3,"dewp":-15,"wdir":210,"wspd":5,"visib":"10+","altim":1018,"slp":1019.3,"qcField":6,"metarType":"METAR","rawOb":"METAR KBTM 190053Z AUTO 21005KT 10SM CLR 13/M15 A3006 RMK AO2 SLP193 T01331150","lat":45.9644,"lon":-112.5015,"elev":1680,"name":"Butte/Mooney Arpt, MT, US","cover":"CLR","clouds":[],"fltCat":"VFR"},{"icaoId":"KCGI","receiptTime":"2026-04-19T00:56:20.155Z","obsTime":1776559980,"reportTime":"2026-04-19T01:00:00.000Z","temp":11.7,"dewp":2.8,"wdir":340,"wspd":5,"visib":"10+","altim":1020.4,"slp":1020.2,"qcField":6,"metarType":"METAR","rawOb":"METAR KCGI 190053Z AUTO 34005KT 10SM SCT110 12/03 A3013 RMK AO2 SLP202 T01170028","lat":37.2254,"lon":-89.5785,"elev":103,"name":"Cape Girardeau Rgnl, MO, US","cover":"SCT","clouds":[{"cover":"SCT","base":11000}],"fltCat":"VFR"},{"icaoId":"KDRO","receiptTime":"2026-04-19T00:56:21.326Z","obsTime":1776559980,"reportTime":"2026-04-19T01:00:00.000Z","temp":13.9,"dewp":-17.2,"wdir":240,"wspd":6,"visib":"10+","altim":1022.8,"slp":1023.1,"qcField":6,"metarType":"METAR","rawOb":"METAR KDRO 190053Z AUTO 24006KT 10SM CLR 14/M17 A3020 RMK AO2 SLP231 T01391172","lat":37.1431,"lon":-107.7602,"elev":2021,"name":"Durango/La Plata Cnty, CO, US","cover":"CLR","clouds":[],"fltCat":"VFR"},{"icaoId":"KELY","receiptTime":"2026-04-19T00:56:26.042Z","obsTime":1776559980,"reportTime":"2026-04-19T01:00:00.000Z","temp":16.1,"dewp":-18.9,"wdir":160,"wspd":6,"visib":"10+","altim":1018.7,"slp":1016.3,"qcField":14,"metarType":"METAR","rawOb":"METAR KELY 190053Z AUTO 16006KT 10SM CLR 16/M19 A3008 RMK AO2 SLP163 T01611189 $","lat":39.2954,"lon":-114.8466,"elev":1906,"name":"Ely/Yelland Fld, NV, US","cover":"CLR","clouds":[],"fltCat":"VFR"},{"icaoId":"KESF","receiptTime":"2026-04-19T00:56:25.404Z","obsTime":1776559980,"reportTime":"2026-04-19T01:00:00.000Z","temp":21.7,"dewp":20.6,"wdir":0,"wspd":0,"visib":5,"altim":1016.7,"slp":1016.3,"qcField":6,"wxString":"-RA BR","precip":0.03,"metarType":"METAR","rawOb":"METAR KESF 190053Z AUTO 00000KT 5SM -RA BR 22/21 A3002 RMK AO2 SLP163 P0003 T02170206","lat":31.3963,"lon":-92.2828,"elev":27,"name":"Alexandria/Esler Rgnl, LA, US"},{"icaoId":"KAXN","receiptTime":"2026-04-19T00:56:19.842Z","obsTime":1776559980,"reportTime":"2026-04-19T01:00:00.000Z","temp":3.9,"dewp":-8.3,"wdir":320,"wspd":13,"wgst":22,"visib":"10+","altim":1015.3,"slp":1017.1,"qcField":6,"metarType":"METAR","rawOb":"METAR KAXN 190053Z AUTO 32013G22KT 10SM FEW055 SCT070 BKN090 04/M08 A2998 RMK AO2 PK WND 28033/0003 SLP171 T00391083","lat":45.868,"lon":-95.394,"elev":433,"name":"Alexandria/Chandler Fld, MN, US","cover":"BKN","clouds":[{"cover":"FEW","base":5500},{"cover":"SCT","base":7000},{"cover":"BKN","base":9000}],"fltCat":"VFR"},{"icaoId":"KBFF","receiptTime":"2026-04-19T00:56:22.614Z","obsTime":1776559980,"reportTime":"2026-04-19T01:00:00.000Z","temp":13.3,"dewp":-14.4,"wdir":310,"wspd":8,"visib":"10+","altim":1019.7,"slp":1020.4,"qcField":6,"metarType":"METAR","rawOb":"METAR KBFF 190053Z AUTO 31008KT 10SM CLR 13/M14 A3011 RMK AO2 SLP204 T01331144","lat":41.8747,"lon":-103.6011,"elev":1204,"name":"Scottsbluff/Western Nebraska Rgnl, NE, US","cover":"CLR","clouds":[],"fltCat":"VFR"},{"icaoId":"KBFI","receiptTime":"2026-04-19T00:56:26.120Z","obsTime":1776559980,"reportTime":"2026-04-19T01:00:00.000Z","temp":20.6,"dewp":1.1,"wdir":"VRB","wspd":3,"visib":"10+","altim":1013,"slp":1012.8,"qcField":4,"metarType":"METAR","rawOb":"METAR KBFI 190053Z VRB03KT 10SM BKN110 21/01 A2991 RMK AO2 SLP128 T02060011","lat":47.5455,"lon":-122.3148,"elev":7,"name":"Seattle/Boeing Fld, WA, US","cover":"BKN","clouds":[{"cover":"BKN","base":11000}],"fltCat":"VFR"},{"icaoId":"KBLI","receiptTime":"2026-04-19T00:56:26.154Z","obsTime":1776559980,"reportTime":"2026-04-19T01:00:00.000Z","temp":16.7,"dewp":7.2,"wdir":330,"wspd":3,"visib":"10+","altim":1013.6,"slp":1014.3,"qcField":6,"metarType":"METAR","rawOb":"METAR KBLI 190053Z AUTO 33003KT 10SM OVC090 17/07 A2993 RMK AO2 SLP143 T01670072","lat":48.7991,"lon":-122.5407,"elev":46,"name":"Bellingham Intl, WA, US","cover":"OVC","clouds":[{"cover":"OVC","base":9000}],"fltCat":"VFR"},{"icaoId":"KBOI","receiptTime":"2026-04-19T00:56:26.176Z","obsTime":1776559980,"reportTime":"2026-04-19T01:00:00.000Z","temp":17.8,"dewp":-8.3,"wdir":140,"wspd":7,"visib":"10+","altim":1017.7,"slp":1017,"qcField":4,"metarType":"METAR","rawOb":"METAR KBOI 190053Z 14007KT 10SM CLR 18/M08 A3005 RMK AO2 SLP170 T01781083","lat":43.567,"lon":-116.2406,"elev":860,"name":"Boise Arpt, ID, US","cover":"CLR","clouds":[],"fltCat":"VFR"},{"icaoId":"KCNY","receiptTime":"2026-04-19T00:56:22.646Z","obsTime":1776559980,"reportTime":"2026-04-19T01:00:00.000Z","temp":13.9,"dewp":-14.4,"wdir":60,"wspd":6,"visib":"10+","altim":1022.4,"slp":1021.7,"qcField":14,"metarType":"METAR","rawOb":"METAR KCNY 190053Z AUTO 06006KT 10SM CLR 14/M14 A3019 RMK AO2 SLP217 T01391144 $","lat":38.7501,"lon":-109.7627,"elev":1392,"name":"Moab/Canyonland Fld, UT, US","cover":"CLR","clouds":[],"fltCat":"VFR"},{"icaoId":"KCPR","receiptTime":"2026-04-19T00:56:18.709Z","obsTime":1776559980,"reportTime":"2026-04-19T01:00:00.000Z","temp":11.1,"dewp":-11.1,"wdir":310,"wspd":9,"visib":"10+","altim":1020.1,"slp":1020.4,"qcField":4,"metarType":"METAR","rawOb":"METAR KCPR 190053Z 31009KT 10SM CLR 11/M11 A3012 RMK AO2 SLP204 T01111111","lat":42.8978,"lon":-106.4736,"elev":1623,"name":"Casper/Natrona Cnty, WY, US","cover":"CLR","clouds":[],"fltCat":"VFR"},{"icaoId":"KCRQ","receiptTime":"2026-04-19T00:56:26.187Z","obsTime":1776559980,"reportTime":"2026-04-19T01:00:00.000Z","temp":20,"dewp":12.2,"wdir":230,"wspd":7,"visib":"10+","altim":1013.3,"slp":1012.8,"qcField":6,"metarType":"METAR","rawOb":"METAR KCRQ 190053Z AUTO 23007KT 10SM CLR 20/12 A2992 RMK AO2 SLP128 T02000122","lat":33.1299,"lon":-117.2765,"elev":96,"name":"Carlsbad/Palomar Arpt, CA, US","cover":"CLR","clouds":[],"fltCat":"VFR"},{"icaoId":"KAEX","receiptTime":"2026-04-19T00:56:19.551Z","obsTime":1776559980,"reportTime":"2026-04-19T01:00:00.000Z","temp":22.2,"dewp":21.1,"wdir":280,"wspd":6,"visib":9,"altim":1017,"slp":1017.1,"qcField":4,"precip":0.02,"metarType":"METAR","rawOb":"METAR KAEX 190053Z 28006KT 9SM SCT027 BKN043 OVC100 22/21 A3003 RMK AO2 LTG DSNT S RAB14E50 SLP171 P0002 T02220211","lat":31.3346,"lon":-92.5585,"elev":25,"name":"Alexandria Intl, LA, US","cover":"OVC","clouds":[{"cover":"SCT","base":2700},{"cover":"BKN","base":4300},{"cover":"OVC","base":10000}],"fltCat":"VFR"},{"icaoId":"KAMA","receiptTime":"2026-04-19T00:56:19.639Z","obsTime":1776559980,"reportTime":"2026-04-19T01:00:00.000Z","temp":13.9,"dewp":-12.8,"wdir":50,"wspd":7,"visib":"10+","altim":1025.1,"slp":1024.2,"qcField":4,"metarType":"METAR","rawOb":"METAR KAMA 190053Z 05007KT 10SM CLR 14/M13 A3027 RMK AO2 SLP242 T01391128","lat":35.2203,"lon":-101.7173,"elev":1102,"name":"Amarillo Intl Arpt, TX, US","cover":"CLR","clouds":[],"fltCat":"VFR"},{"icaoId":"KAPA","receiptTime":"2026-04-19T00:56:19.707Z","obsTime":1776559980,"reportTime":"2026-04-19T01:00:00.000Z","temp":12.2,"dewp":-15.6,"wdir":300,"wspd":4,"visib":"10+","altim":1022.1,"slp":1022.3,"qcField":4,"metarType":"METAR","rawOb":"METAR KAPA 190053Z 30004KT 10SM FEW070 BKN220 12/M16 A3018 RMK AO2 SLP223 T01221156","lat":39.5599,"lon":-104.8484,"elev":1791,"name":"Denver/Centennial Arpt, CO, US","cover":"BKN","clouds":[{"cover":"FEW","base":7000},{"cover":"BKN","base":22000}],"fltCat":"VFR"},{"icaoId":"KASE","receiptTime":"2026-04-19T00:56:19.764Z","obsTime":1776559980,"reportTime":"2026-04-19T01:00:00.000Z","temp":7.2,"dewp":-16.1,"wdir":310,"wspd":4,"visib":"10+","altim":1025.5,"slp":1022.7,"qcField":4,"metarType":"METAR","rawOb":"METAR KASE 190053Z 31004KT 10SM CLR 07/M16 A3028 RMK AO2 SLP227 T00721161","lat":39.2299,"lon":-106.8705,"elev":2384,"name":"Aspen/Pitkin Cnty, CO, US","cover":"CLR","clouds":[],"fltCat":"VFR"},{"icaoId":"KMOD","receiptTime":"2026-04-19T00:56:22.157Z","obsTime":1776559980,"reportTime":"2026-04-19T01:00:00.000Z","temp":25.6,"dewp":2.2,"wdir":100,"wspd":4,"visib":"10+","altim":1011.6,"slp":1011.6,"qcField":4,"metarType":"METAR","rawOb":"METAR KMOD 190053Z 10004KT 10SM CLR 26/02 A2987 RMK AO2 SLP116 T02560022","lat":37.6254,"lon":-120.9549,"elev":25,"name":"Modesto/Sham Fld, CA, US","cover":"CLR","clouds":[],"fltCat":"VFR"},{"icaoId":"KSDL","receiptTime":"2026-04-19T00:56:22.493Z","obsTime":1776559980,"reportTime":"2026-04-19T01:00:00.000Z","temp":30.6,"dewp":-12.8,"wdir":210,"wspd":5,"visib":"10+","altim":1011.3,"slp":1009.1,"qcField":4,"metarType":"METAR","rawOb":"METAR KSDL 190053Z 21005KT 10SM CLR 31/M13 A2986 RMK AO2 SLP091 T03061128","lat":33.6123,"lon":-111.9232,"elev":438,"name":"Scottsdale Muni, AZ, US","cover":"CLR","clouds":[],"fltCat":"VFR"},{"icaoId":"KSTJ","receiptTime":"2026-04-19T00:56:26.617Z","obsTime":1776559980,"reportTime":"2026-04-19T01:00:00.000Z","temp":12.8,"dewp":-3.9,"wdir":340,"wspd":5,"visib":"10+","altim":1022.1,"slp":1022.1,"qcField":4,"metarType":"METAR","rawOb":"METAR KSTJ 190053Z 34005KT 10SM OVC085 13/M04 A3018 RMK AO2 SLP221 T01281039","lat":39.7683,"lon":-94.9095,"elev":247,"name":"St Joseph/Rosecrans Mem, MO, US","cover":"OVC","clouds":[{"cover":"OVC","base":8500}],"fltCat":"VFR"},{"icaoId":"KTPA","receiptTime":"2026-04-19T00:56:21.878Z","obsTime":1776559980,"reportTime":"2026-04-19T01:00:00.000Z","temp":23.9,"dewp":19.4,"wdir":330,"wspd":10,"visib":"10+","altim":1016,"slp":1015.9,"qcField":4,"metarType":"METAR","rawOb":"METAR KTPA 190053Z 33010KT 10SM BKN250 24/19 A3000 RMK AO2 SLP159 T02390194","lat":27.9633,"lon":-82.54,"elev":2,"name":"Tampa Intl Arpt, FL, US","cover":"BKN","clouds":[{"cover":"BKN","base":25000}],"fltCat":"VFR"},{"icaoId":"KTUL","receiptTime":"2026-04-19T00:56:21.931Z","obsTime":1776559980,"reportTime":"2026-04-19T01:00:00.000Z","temp":13.9,"dewp":0.6,"wdir":80,"wspd":3,"visib":"10+","altim":1024.1,"slp":1023.9,"qcField":12,"metarType":"METAR","rawOb":"METAR KTUL 190053Z 08003KT 10SM FEW250 14/01 A3024 RMK AO2 SLP239 T01390006 $","lat":36.1985,"lon":-95.8782,"elev":196,"name":"Tulsa Intl Arpt, OK, US","cover":"FEW","clouds":[{"cover":"FEW","base":25000}],"fltCat":"VFR"},{"icaoId":"KVGT","receiptTime":"2026-04-19T00:56:26.465Z","obsTime":1776559980,"reportTime":"2026-04-19T01:00:00.000Z","temp":23.9,"dewp":-16.7,"wdir":0,"wspd":0,"visib":"10+","altim":1014.6,"slp":1015.3,"qcField":4,"metarType":"METAR","rawOb":"METAR KVGT 190053Z 00000KT 10SM CLR 24/M17 A2996 RMK AO2 SLP153 T02391167","lat":36.212,"lon":-115.194,"elev":664,"name":"Las Vegas/North Arpt, NV, US","cover":"CLR","clouds":[],"fltCat":"VFR"},{"icaoId":"KXNA","receiptTime":"2026-04-19T00:56:28.199Z","obsTime":1776559980,"reportTime":"2026-04-19T01:00:00.000Z","temp":10.6,"dewp":0,"wdir":310,"wspd":4,"visib":"10+","altim":1023.8,"slp":1023.6,"qcField":6,"metarType":"METAR","rawOb":"METAR KXNA 190053Z AUTO 31004KT 10SM CLR 11/00 A3023 RMK AO2 SLP236 T01060000","lat":36.2897,"lon":-94.3115,"elev":390,"name":"Fayetteville/NW Arkansas Rgnl, AR, US","cover":"CLR","clouds":[],"fltCat":"VFR"},{"icaoId":"KDAL","receiptTime":"2026-04-19T00:56:26.234Z","obsTime":1776559980,"reportTime":"2026-04-19T01:00:00.000Z","temp":15,"dewp":5,"wdir":0,"wspd":0,"visib":"10+","altim":1023.5,"slp":1023.1,"qcField":4,"metarType":"METAR","rawOb":"METAR KDAL 190053Z 00000KT 10SM SCT140 BKN250 15/05 A3022 RMK AO2 SLP231 T01500050","lat":32.8384,"lon":-96.8358,"elev":148,"name":"Dallas/Love Fld, TX, US","cover":"BKN","clouds":[{"cover":"SCT","base":14000},{"cover":"BKN","base":25000}],"fltCat":"VFR"},{"icaoId":"KPAE","receiptTime":"2026-04-19T00:56:19.224Z","obsTime":1776559980,"reportTime":"2026-04-19T01:00:00.000Z","temp":17.8,"dewp":0,"wdir":240,"wspd":5,"visib":"10+","altim":1013.6,"slp":1013.7,"qcField":4,"metarType":"METAR","rawOb":"METAR KPAE 190053Z 24005KT 10SM FEW095 BKN120 18/00 A2993 RMK AO2 SLP137 T01780000","lat":47.9232,"lon":-122.2831,"elev":166,"name":"Everett/Paine Fld, WA, US","cover":"BKN","clouds":[{"cover":"FEW","base":9500},{"cover":"BKN","base":12000}],"fltCat":"VFR"},{"icaoId":"KMYF","receiptTime":"2026-04-19T00:56:22.302Z","obsTime":1776559980,"reportTime":"2026-04-19T01:00:00.000Z","temp":20.6,"dewp":13.3,"wdir":250,"wspd":7,"visib":"10+","altim":1013.6,"slp":1013.2,"qcField":4,"metarType":"METAR","rawOb":"METAR KMYF 190053Z 25007KT 10SM CLR 21/13 A2993 RMK AO2 SLP132 T02060133","lat":32.8145,"lon":-117.1375,"elev":128,"name":"San Diego/Montgomery Arpt, CA, US","cover":"CLR","clouds":[],"fltCat":"VFR"},{"icaoId":"KSHR","receiptTime":"2026-04-19T00:56:22.571Z","obsTime":1776559980,"reportTime":"2026-04-19T01:00:00.000Z","temp":11.7,"dewp":-3.3,"wdir":310,"wspd":4,"visib":"10+","altim":1019,"slp":1020.4,"qcField":6,"metarType":"METAR","rawOb":"METAR KSHR 190053Z AUTO 31004KT 10SM CLR 12/M03 A3009 RMK AO2 SLP204 T01171033","lat":44.7603,"lon":-106.9741,"elev":1212,"name":"Sheridan Cnty Arpt, WY, US","cover":"CLR","clouds":[],"fltCat":"VFR"},{"icaoId":"KMCO","receiptTime":"2026-04-19T00:56:23.172Z","obsTime":1776559980,"reportTime":"2026-04-19T01:00:00.000Z","temp":25.6,"dewp":18.9,"wdir":120,"wspd":6,"wgst":16,"visib":"10+","altim":1016.3,"slp":1016,"qcField":4,"metarType":"METAR","rawOb":"METAR KMCO 190053Z 12006G16KT 10SM FEW050 SCT250 26/19 A3001 RMK AO2 SLP160 T02560189","lat":28.4182,"lon":-81.3241,"elev":27,"name":"Orlando Intl, FL, US","cover":"SCT","clouds":[{"cover":"FEW","base":5000},{"cover":"SCT","base":25000}],"fltCat":"VFR"},{"icaoId":"KMDW","receiptTime":"2026-04-19T00:56:28.090Z","obsTime":1776559980,"reportTime":"2026-04-19T01:00:00.000Z","temp":7.2,"dewp":-4.4,"wdir":290,"wspd":18,"wgst":30,"visib":"10+","altim":1016.3,"slp":1016.6,"qcField":4,"metarType":"METAR","rawOb":"METAR KMDW 190053Z 29018G30KT 10SM FEW050 07/M04 A3001 RMK AO2 PK WND 29034/2356 SLP166 T00721044","lat":41.7841,"lon":-87.7552,"elev":186,"name":"Chicago/Midway Intl, IL, US","cover":"FEW","clouds":[{"cover":"FEW","base":5000}],"fltCat":"VFR"},{"icaoId":"KPIR","receiptTime":"2026-04-19T00:56:28.102Z","obsTime":1776559980,"reportTime":"2026-04-19T01:00:00.000Z","temp":7.8,"dewp":-7.8,"wdir":300,"wspd":6,"visib":"10+","altim":1018,"slp":1019.2,"qcField":6,"metarType":"METAR","rawOb":"METAR KPIR 190053Z AUTO 30006KT 10SM CLR 08/M08 A3006 RMK AO2 SLP192 T00781078","lat":44.3819,"lon":-100.2864,"elev":524,"name":"Pierre Muni, SD, US","cover":"CLR","clouds":[],"fltCat":"VFR"},{"icaoId":"KHOU","receiptTime":"2026-04-19T00:56:25.286Z","obsTime":1776559980,"reportTime":"2026-04-19T01:00:00.000Z","temp":18.3,"dewp":16.7,"wdir":340,"wspd":10,"visib":"10+","altim":1018,"slp":1018.2,"qcField":12,"wxString":"-RA","precip":0.005,"metarType":"METAR","rawOb":"METAR KHOU 190053Z 34010KT 10SM -RA FEW012 BKN020 OVC090 18/17 A3006 RMK AO2 RAE02B24 SLP182 CB DSNT SW MOV E P0000 T01830167 $","lat":29.6458,"lon":-95.2821,"elev":13,"name":"Houston/Hobby Arpt, TX, US","cover":"OVC","clouds":[{"cover":"FEW","base":1200},{"cover":"BKN","base":2000},{"cover":"OVC","base":9000}],"fltCat":"MVFR"},{"icaoId":"KSPW","receiptTime":"2026-04-19T00:56:21.683Z","obsTime":1776559980,"reportTime":"2026-04-19T01:00:00.000Z","temp":6.7,"dewp":-14.4,"wdir":300,"wspd":14,"wgst":26,"visib":"10+","altim":1018.4,"slp":1019.4,"qcField":14,"metarType":"METAR","rawOb":"METAR KSPW 190053Z AUTO 30014G26KT 10SM CLR 07/M14 A3007 RMK AO2 PK WND 29029/2356 SLP194 T00671144 $","lat":43.1682,"lon":-95.2101,"elev":407,"name":"Spencer Muni, IA, US","cover":"CLR","clouds":[],"fltCat":"VFR"},{"icaoId":"KSTS","receiptTime":"2026-04-19T00:56:26.401Z","obsTime":1776559980,"reportTime":"2026-04-19T01:00:00.000Z","temp":22.8,"dewp":3.3,"wdir":220,"wspd":4,"visib":"10+","altim":1012.6,"slp":1011.9,"qcField":4,"metarType":"METAR","rawOb":"METAR KSTS 190053Z 22004KT 10SM CLR 23/03 A2990 RMK AO2 SLP119 T02280033","lat":38.5037,"lon":-122.811,"elev":35,"name":"Santa Rosa/Schulz Arpt, CA, US","cover":"CLR","clouds":[],"fltCat":"VFR"},{"icaoId":"KSWO","receiptTime":"2026-04-19T00:56:21.750Z","obsTime":1776559980,"reportTime":"2026-04-19T01:00:00.000Z","temp":14.4,"dewp":-0.6,"wdir":120,"wspd":3,"visib":"10+","altim":1023.8,"slp":1023.4,"qcField":4,"metarType":"METAR","rawOb":"METAR KSWO 190053Z 12003KT 10SM CLR 14/M01 A3023 RMK AO2 SLP234 T01441006","lat":36.1624,"lon":-97.0832,"elev":293,"name":"Stillwater Muni, OK, US","cover":"CLR","clouds":[],"fltCat":"VFR"},{"icaoId":"KTWF","receiptTime":"2026-04-19T00:56:26.444Z","obsTime":1776559980,"reportTime":"2026-04-19T01:00:00.000Z","temp":16.7,"dewp":-11.1,"wdir":110,"wspd":7,"wgst":16,"visib":"10+","altim":1018,"slp":1016.2,"qcField":4,"metarType":"METAR","rawOb":"METAR KTWF 190053Z 11007G16KT 10SM CLR 17/M11 A3006 RMK AO2 SLP162 T01671111","lat":42.4785,"lon":-114.4775,"elev":1269,"name":"Twin Falls/Joslin Fld, ID, US","cover":"CLR","clouds":[],"fltCat":"VFR"},{"icaoId":"KPSP","receiptTime":"2026-04-19T00:56:23.411Z","obsTime":1776559980,"reportTime":"2026-04-19T01:00:00.000Z","temp":30,"dewp":-13.3,"wdir":120,"wspd":5,"visib":"10+","altim":1011.3,"slp":1010.8,"qcField":12,"metarType":"METAR","rawOb":"METAR KPSP 190053Z 12005KT 10SM CLR 30/M13 A2986 RMK AO2 SLP108 T03001133 $","lat":33.8222,"lon":-116.5043,"elev":123,"name":"Palm Springs Intl, CA, US","cover":"CLR","clouds":[],"fltCat":"VFR"},{"icaoId":"KRIW","receiptTime":"2026-04-19T00:56:28.265Z","obsTime":1776559980,"reportTime":"2026-04-19T01:00:00.000Z","temp":14.4,"dewp":-17.2,"wdir":320,"wspd":14,"wgst":22,"visib":"10+","altim":1018.7,"slp":1018.2,"qcField":6,"metarType":"METAR","rawOb":"METAR KRIW 190053Z AUTO 32014G22KT 10SM CLR 14/M17 A3008 RMK AO2 SLP182 T01441172","lat":43.0622,"lon":-108.4471,"elev":1662,"name":"Riverton Rgnl, WY, US","cover":"CLR","clouds":[],"fltCat":"VFR"},{"icaoId":"KONT","receiptTime":"2026-04-19T00:56:19.106Z","obsTime":1776559980,"reportTime":"2026-04-19T01:00:00.000Z","temp":26.7,"dewp":0,"wdir":230,"wspd":9,"wgst":19,"visib":"10+","altim":1011.9,"slp":1010.8,"qcField":12,"metarType":"METAR","rawOb":"METAR KONT 190053Z 23009G19KT 10SM SCT250 27/00 A2988 RMK AO2 SLP108 T02670000 $","lat":34.0531,"lon":-117.5769,"elev":279,"name":"Ontario Intl, CA, US","cover":"SCT","clouds":[{"cover":"SCT","base":25000}],"fltCat":"VFR"},{"icaoId":"KCDC","receiptTime":"2026-04-19T00:56:20.099Z","obsTime":1776559980,"reportTime":"2026-04-19T01:00:00.000Z","temp":16.7,"dewp":-13.9,"wdir":230,"wspd":13,"wgst":21,"visib":"10+","altim":1019.4,"slp":1016.9,"qcField":6,"metarType":"METAR","rawOb":"METAR KCDC 190053Z AUTO 23013G21KT 10SM CLR 17/M14 A3010 RMK AO2 SLP169 T01671139","lat":37.7067,"lon":-113.097,"elev":1703,"name":"Cedar City Muni, UT, US","cover":"CLR","clouds":[],"fltCat":"VFR"},{"icaoId":"KCLL","receiptTime":"2026-04-19T00:56:26.357Z","obsTime":1776559980,"reportTime":"2026-04-19T01:00:00.000Z","temp":12.8,"dewp":7.8,"wdir":360,"wspd":13,"wgst":23,"visib":"10+","altim":1020.7,"slp":1020.4,"qcField":4,"wxString":"-RA","precip":0.005,"metarType":"METAR","rawOb":"METAR KCLL 190053Z 36013G23KT 10SM -RA OVC090 13/08 A3014 RMK AO2 PK WND 35026/0012 LTG DSNT SE AND NW SLP204 P0000 T01280078","lat":30.5912,"lon":-96.3631,"elev":96,"name":"College Station/Easterwood Arpt, TX, US","cover":"OVC","clouds":[{"cover":"OVC","base":9000}],"fltCat":"VFR"},{"icaoId":"KDLN","receiptTime":"2026-04-19T00:56:20.235Z","obsTime":1776559980,"reportTime":"2026-04-19T01:00:00.000Z","temp":13.3,"dewp":-8.9,"wdir":180,"wspd":13,"visib":"10+","altim":1017.7,"slp":1017.8,"qcField":6,"metarType":"METAR","rawOb":"METAR KDLN 190053Z AUTO 18013KT 10SM CLR 13/M09 A3005 RMK AO2 SLP178 T01331089","lat":45.2584,"lon":-112.5546,"elev":1586,"name":"Dillon Arpt, MT, US","cover":"CLR","clouds":[],"fltCat":"VFR"},{"icaoId":"KDTW","receiptTime":"2026-04-19T00:56:21.337Z","obsTime":1776559980,"reportTime":"2026-04-19T01:00:00.000Z","temp":8.3,"dewp":0.6,"wdir":290,"wspd":16,"wgst":22,"visib":"10+","altim":1013,"slp":1013,"qcField":12,"metarType":"METAR","rawOb":"METAR KDTW 190053Z 29016G22KT 10SM BKN045 BKN250 08/01 A2991 RMK AO2 SLP130 T00830006 $","lat":42.2311,"lon":-83.3312,"elev":192,"name":"Detroit/Metro Wayne Cnty, MI, US","cover":"BKN","clouds":[{"cover":"BKN","base":4500},{"cover":"BKN","base":25000}],"fltCat":"VFR"},{"icaoId":"KATY","receiptTime":"2026-04-19T00:56:19.792Z","obsTime":1776559980,"reportTime":"2026-04-19T01:00:00.000Z","temp":5,"dewp":-11.1,"wdir":290,"wspd":9,"wgst":19,"visib":"10+","altim":1016.7,"slp":1018.5,"qcField":6,"metarType":"METAR","rawOb":"METAR KATY 190053Z AUTO 29009G19KT 10SM CLR 05/M11 A3002 RMK AO2 PK WND 31026/0015 SLP185 T00501111","lat":44.9045,"lon":-97.1496,"elev":531,"name":"Watertown Rgnl, SD, US","cover":"CLR","clouds":[],"fltCat":"VFR"},{"icaoId":"KBCE","receiptTime":"2026-04-19T00:56:26.108Z","obsTime":1776559980,"reportTime":"2026-04-19T01:00:00.000Z","temp":9.4,"dewp":-19.4,"wdir":160,"wspd":11,"visib":"10+","altim":1023.8,"slp":1021.8,"qcField":6,"metarType":"METAR","rawOb":"METAR KBCE 190053Z AUTO 16011KT 10SM CLR 09/M19 A3023 RMK AO2 SLP218 T00941194","lat":37.7013,"lon":-112.149,"elev":2311,"name":"Bryce Canyon Arpt, UT, US","cover":"CLR","clouds":[],"fltCat":"VFR"},{"icaoId":"KBIL","receiptTime":"2026-04-19T00:56:26.131Z","obsTime":1776559980,"reportTime":"2026-04-19T01:00:00.000Z","temp":14.4,"dewp":-7.8,"wdir":310,"wspd":10,"visib":"10+","altim":1018,"slp":1018.9,"qcField":4,"metarType":"METAR","rawOb":"METAR KBIL 190053Z 31010KT 10SM FEW080 SCT200 14/M08 A3006 RMK AO2 SLP189 T01441078","lat":45.8072,"lon":-108.5462,"elev":1089,"name":"Billings/Logan Intl, MT, US","cover":"SCT","clouds":[{"cover":"FEW","base":8000},{"cover":"SCT","base":20000}],"fltCat":"VFR"},{"icaoId":"KIAH","receiptTime":"2026-04-19T00:56:25.322Z","obsTime":1776559980,"reportTime":"2026-04-19T01:00:00.000Z","temp":16.1,"dewp":13.9,"wdir":360,"wspd":17,"wgst":22,"visib":7,"altim":1018,"slp":1017.8,"qcField":4,"wxString":"-RA","precip":0.005,"metarType":"METAR","rawOb":"METAR KIAH 190053Z 36017G22KT 7SM -RA FEW010 BKN018 OVC100 16/14 A3006 RMK AO2 RAB32 SLP178 CB DSNT SE S AND NW MOV NE P0000 T01610139","lat":29.9844,"lon":-95.3607,"elev":27,"name":"Houston/Bush Intl, TX, US","cover":"OVC","clouds":[{"cover":"FEW","base":1000},{"cover":"BKN","base":1800},{"cover":"OVC","base":10000}],"fltCat":"MVFR"},{"icaoId":"KICR","receiptTime":"2026-04-19T00:56:20.552Z","obsTime":1776559980,"reportTime":"2026-04-19T01:00:00.000Z","temp":8.3,"dewp":-10.6,"wdir":310,"wspd":9,"visib":"10+","altim":1019.7,"slp":1021.3,"qcField":6,"metarType":"METAR","rawOb":"METAR KICR 190053Z AUTO 31009KT 10SM CLR 08/M11 A3011 RMK AO2 SLP213 T00831106","lat":43.391,"lon":-99.8462,"elev":618,"name":"Winner/Wiley Fld, SD, US","cover":"CLR","clouds":[],"fltCat":"VFR"},{"icaoId":"KEVW","receiptTime":"2026-04-19T00:56:25.434Z","obsTime":1776559980,"reportTime":"2026-04-19T01:00:00.000Z","temp":10,"dewp":-15,"wdir":250,"wspd":7,"visib":"10+","altim":1022.4,"slp":1021.4,"qcField":14,"metarType":"METAR","rawOb":"METAR KEVW 190053Z AUTO 25007KT 10SM CLR 10/M15 A3019 RMK AO2 SLP214 T01001150 $","lat":41.2727,"lon":-111.0305,"elev":2178,"name":"Evanston/Uinta Cnty, WY, US","cover":"CLR","clouds":[],"fltCat":"VFR"},{"icaoId":"KFAT","receiptTime":"2026-04-19T00:56:25.999Z","obsTime":1776559980,"reportTime":"2026-04-19T01:00:00.000Z","temp":27.2,"dewp":-0.6,"wdir":340,"wspd":6,"visib":"10+","altim":1011.9,"slp":1011.5,"qcField":12,"metarType":"METAR","rawOb":"METAR KFAT 190053Z 34006KT 10SM FEW100 SCT150 BKN200 BKN250 27/M01 A2988 RMK AO2 SLP115 T02721006 $","lat":36.78,"lon":-119.7202,"elev":102,"name":"Fresno/Yosemite Intl, CA, US","cover":"BKN","clouds":[{"cover":"FEW","base":10000},{"cover":"SCT","base":15000},{"cover":"BKN","base":20000},{"cover":"BKN","base":25000}],"fltCat":"VFR"},{"icaoId":"KFOE","receiptTime":"2026-04-19T00:56:25.613Z","obsTime":1776559980,"reportTime":"2026-04-19T01:00:00.000Z","temp":12.2,"dewp":-1.7,"wdir":20,"wspd":5,"visib":"10+","altim":1021.8,"slp":1021.9,"qcField":12,"precip":0.005,"metarType":"METAR","rawOb":"METAR KFOE 190053Z 02005KT 10SM BKN110 12/M02 A3017 RMK AO2 RAE2359 SLP219 P0000 T01221017 $","lat":38.9414,"lon":-95.6513,"elev":315,"name":"Topeka/Forbes Fld, KS, US","cover":"BKN","clouds":[{"cover":"BKN","base":11000}],"fltCat":"VFR"},{"icaoId":"KMFR","receiptTime":"2026-04-19T00:56:23.220Z","obsTime":1776559980,"reportTime":"2026-04-19T01:00:00.000Z","temp":23.3,"dewp":2.2,"wdir":290,"wspd":10,"visib":"10+","altim":1010.6,"slp":1010.2,"qcField":4,"metarType":"METAR","rawOb":"METAR KMFR 190053Z 29010KT 10SM CLR 23/02 A2984 RMK AO2 SLP102 T02330022","lat":42.375,"lon":-122.877,"elev":397,"name":"Medford/Rogue Valley Intl, OR, US","cover":"CLR","clouds":[],"fltCat":"VFR"},{"icaoId":"KOAK","receiptTime":"2026-04-19T00:56:19.020Z","obsTime":1776559980,"reportTime":"2026-04-19T01:00:00.000Z","temp":19.4,"dewp":7.2,"wdir":280,"wspd":9,"visib":"10+","altim":1013.3,"slp":1013.2,"qcField":12,"metarType":"METAR","rawOb":"METAR KOAK 190053Z 28009KT 10SM FEW180 BKN250 19/07 A2992 RMK AO2 SLP132 T01940072 $","lat":37.7178,"lon":-122.233,"elev":3,"name":"Oakland Intl, CA, US","cover":"BKN","clouds":[{"cover":"FEW","base":18000},{"cover":"BKN","base":25000}],"fltCat":"VFR"},{"icaoId":"KOGD","receiptTime":"2026-04-19T00:56:19.052Z","obsTime":1776559980,"reportTime":"2026-04-19T01:00:00.000Z","temp":12.8,"dewp":-6.7,"wdir":350,"wspd":7,"visib":"10+","altim":1021.1,"slp":1020.1,"qcField":4,"metarType":"METAR","rawOb":"METAR KOGD 190053Z 35007KT 10SM CLR 13/M07 A3015 RMK AO2 SLP201 T01281067","lat":41.1941,"lon":-112.0168,"elev":1356,"name":"Ogden/Hinckley Arpt, UT, US","cover":"CLR","clouds":[],"fltCat":"VFR"},{"icaoId":"KMLC","receiptTime":"2026-04-19T00:56:19.451Z","obsTime":1776559980,"reportTime":"2026-04-19T01:00:00.000Z","temp":13.9,"dewp":1.1,"wdir":20,"wspd":4,"visib":"10+","altim":1023.8,"slp":1023.6,"qcField":6,"metarType":"METAR","rawOb":"METAR KMLC 190053Z AUTO 02004KT 10SM CLR 14/01 A3023 RMK AO2 SLP236 T01390011","lat":34.8824,"lon":-95.7815,"elev":231,"name":"McAlester Rgnl, OK, US","cover":"CLR","clouds":[],"fltCat":"VFR"},{"icaoId":"KSAF","receiptTime":"2026-04-19T00:56:22.458Z","obsTime":1776559980,"reportTime":"2026-04-19T01:00:00.000Z","temp":16.1,"dewp":-16.7,"wdir":150,"wspd":17,"wgst":22,"visib":"10+","altim":1022.8,"slp":1019.2,"qcField":4,"metarType":"METAR","rawOb":"METAR KSAF 190053Z 15017G22KT 10SM CLR 16/M17 A3020 RMK AO2 SLP192 T01611167","lat":35.611,"lon":-106.0957,"elev":1918,"name":"Santa Fe Cnty Muni, NM, US","cover":"CLR","clouds":[],"fltCat":"VFR"},{"icaoId":"KPGA","receiptTime":"2026-04-19T00:56:28.320Z","obsTime":1776559980,"reportTime":"2026-04-19T01:00:00.000Z","temp":16.7,"dewp":-17.8,"wdir":30,"wspd":10,"visib":"10+","altim":1020.7,"slp":1018.4,"qcField":14,"metarType":"METAR","rawOb":"METAR KPGA 190053Z AUTO 03010KT 10SM CLR 17/M18 A3014 RMK AO2 SLP184 T01671178 $","lat":36.9211,"lon":-111.4487,"elev":1310,"name":"Page Muni, AZ, US","cover":"CLR","clouds":[],"fltCat":"VFR"},{"icaoId":"KARA","receiptTime":"2026-04-19T00:56:19.729Z","obsTime":1776559980,"reportTime":"2026-04-19T01:00:00.000Z","temp":23.3,"dewp":21.7,"wdir":0,"wspd":0,"visib":"10+","altim":1016,"slp":1015.7,"qcField":4,"metarType":"METAR","rawOb":"METAR KARA 190053Z 00000KT 10SM FEW035 BKN080 OVC100 23/22 A3000 RMK AO2 SLP157 T02330217","lat":30.0292,"lon":-91.8845,"elev":5,"name":"New Iberia/Acadiana Rgnl, LA, US","cover":"OVC","clouds":[{"cover":"FEW","base":3500},{"cover":"BKN","base":8000},{"cover":"OVC","base":10000}],"fltCat":"VFR"},{"icaoId":"KCNM","receiptTime":"2026-04-19T00:56:18.675Z","obsTime":1776559980,"reportTime":"2026-04-19T01:00:00.000Z","temp":19.4,"dewp":-8.3,"wdir":100,"wspd":7,"visib":"10+","altim":1023.1,"slp":1020.1,"qcField":6,"metarType":"METAR","rawOb":"METAR KCNM 190053Z AUTO 10007KT 10SM CLR 19/M08 A3021 RMK AO2 SLP201 T01941083","lat":32.3336,"lon":-104.2584,"elev":993,"name":"Carlsbad/Cavern City Air Term, NM, US","cover":"CLR","clouds":[],"fltCat":"VFR"},{"icaoId":"KCYS","receiptTime":"2026-04-19T00:56:18.810Z","obsTime":1776559980,"reportTime":"2026-04-19T01:00:00.000Z","temp":9.4,"dewp":-15,"wdir":310,"wspd":13,"wgst":23,"visib":"10+","altim":1022.1,"slp":1022.1,"qcField":4,"metarType":"METAR","rawOb":"METAR KCYS 190053Z 31013G23KT 10SM CLR 09/M15 A3018 RMK AO2 PK WND 34029/2357 SLP221 T00941150","lat":41.1579,"lon":-104.8081,"elev":1868,"name":"Cheyenne Rgnl, WY, US","cover":"CLR","clouds":[],"fltCat":"VFR"},{"icaoId":"KHLN","receiptTime":"2026-04-19T00:56:24.527Z","obsTime":1776559980,"reportTime":"2026-04-19T01:00:00.000Z","temp":15,"dewp":-6.7,"wdir":110,"wspd":11,"visib":"10+","altim":1017,"slp":1019.1,"qcField":4,"metarType":"METAR","rawOb":"METAR KHLN 190053Z 11011KT 10SM CLR 15/M07 A3003 RMK AO2 SLP191 T01501067","lat":46.6045,"lon":-111.9892,"elev":1178,"name":"Helena Rgnl, MT, US","cover":"CLR","clouds":[],"fltCat":"VFR"},{"icaoId":"KMCI","receiptTime":"2026-04-19T00:56:28.057Z","obsTime":1776559980,"reportTime":"2026-04-19T01:00:00.000Z","temp":11.7,"dewp":-3.9,"wdir":260,"wspd":9,"visib":"10+","altim":1021.8,"slp":1021.7,"qcField":12,"metarType":"METAR","rawOb":"METAR KMCI 190053Z 26009KT 10SM BKN100 12/M04 A3017 RMK AO2 SLP217 T01171039 $","lat":39.2975,"lon":-94.7309,"elev":308,"name":"Kansas City Intl, MO, US","cover":"BKN","clouds":[{"cover":"BKN","base":10000}],"fltCat":"VFR"},{"icaoId":"KGEG","receiptTime":"2026-04-19T00:56:26.010Z","obsTime":1776559980,"reportTime":"2026-04-19T01:00:00.000Z","temp":16.1,"dewp":-3.9,"wdir":180,"wspd":9,"visib":"10+","altim":1017,"slp":1017.6,"qcField":12,"metarType":"METAR","rawOb":"METAR KGEG 190053Z 18009KT 10SM FEW070 FEW160 FEW260 16/M04 A3003 RMK AO2 SLP176 T01611039 $","lat":47.6217,"lon":-117.528,"elev":718,"name":"Spokane Intl, WA, US","cover":"FEW","clouds":[{"cover":"FEW","base":7000},{"cover":"FEW","base":16000},{"cover":"FEW","base":26000}],"fltCat":"VFR"},{"icaoId":"KBNA","receiptTime":"2026-04-19T00:56:18.653Z","obsTime":1776559980,"reportTime":"2026-04-19T01:00:00.000Z","temp":9.4,"dewp":5,"wdir":350,"wspd":12,"wgst":27,"visib":"10+","altim":1018.7,"slp":1018.3,"qcField":12,"precip":0.005,"metarType":"METAR","rawOb":"METAR KBNA 190053Z 35012G27KT 10SM SCT016 OVC032 09/05 A3008 RMK AO2 PK WND 34037/0020 RAB29E38 SLP183 P0000 T00940050 $","lat":36.1105,"lon":-86.6881,"elev":168,"name":"Nashville Intl, TN, US","cover":"OVC","clouds":[{"cover":"SCT","base":1600},{"cover":"OVC","base":3200}],"fltCat":"VFR"},{"icaoId":"KDEN","receiptTime":"2026-04-19T00:56:18.844Z","obsTime":1776559980,"reportTime":"2026-04-19T01:00:00.000Z","temp":11.1,"dewp":-10,"wdir":110,"wspd":7,"visib":"10+","altim":1022.1,"slp":1021.1,"qcField":12,"metarType":"METAR","rawOb":"METAR KDEN 190053Z 11007KT 10SM BKN220 11/M10 A3018 RMK AO2 SLP211 T01111100 $","lat":39.8466,"lon":-104.6562,"elev":1656,"name":"Denver Intl, CO, US","cover":"BKN","clouds":[{"cover":"BKN","base":22000}],"fltCat":"VFR"},{"icaoId":"KPBF","receiptTime":"2026-04-19T00:56:19.250Z","obsTime":1776559980,"reportTime":"2026-04-19T01:00:00.000Z","temp":11.7,"dewp":8.9,"wdir":350,"wspd":5,"visib":"10+","altim":1021.4,"slp":1021.3,"qcField":6,"precip":0.005,"metarType":"METAR","rawOb":"METAR KPBF 190053Z AUTO 35005KT 10SM BKN055 OVC065 12/09 A3016 RMK AO2 RAB17E31 SLP213 P0000 T01170089","lat":34.1798,"lon":-91.9344,"elev":63,"name":"Pine Bluff/Grider Fld, AR, US","cover":"OVC","clouds":[{"cover":"BKN","base":5500},{"cover":"OVC","base":6500}],"fltCat":"VFR"},{"icaoId":"KPBI","receiptTime":"2026-04-19T00:56:19.275Z","obsTime":1776559980,"reportTime":"2026-04-19T01:00:00.000Z","temp":25.6,"dewp":21.1,"wdir":90,"wspd":9,"visib":"10+","altim":1015.7,"slp":1015.6,"qcField":12,"metarType":"METAR","rawOb":"METAR KPBI 190053Z 09009KT 10SM FEW018 26/21 A2999 RMK AO2 SLP156 T02560211 $","lat":26.6851,"lon":-80.0992,"elev":4,"name":"Palm Beach Intl, FL, US","cover":"FEW","clouds":[{"cover":"FEW","base":1800}],"fltCat":"VFR"},{"icaoId":"KABR","receiptTime":"2026-04-19T00:56:19.487Z","obsTime":1776559980,"reportTime":"2026-04-19T01:00:00.000Z","temp":6.7,"dewp":-9.4,"wdir":310,"wspd":11,"visib":"10+","altim":1016.3,"slp":1017.7,"qcField":14,"metarType":"METAR","rawOb":"METAR KABR 190053Z AUTO 31011KT 10SM BKN080 07/M09 A3001 RMK AO2 SLP177 T00671094 $","lat":45.4436,"lon":-98.4138,"elev":397,"name":"Aberdeen Rgnl, SD, US","cover":"BKN","clouds":[{"cover":"BKN","base":8000}],"fltCat":"VFR"},{"icaoId":"KBRD","receiptTime":"2026-04-19T00:56:19.960Z","obsTime":1776559980,"reportTime":"2026-04-19T01:00:00.000Z","temp":3.9,"dewp":-11.7,"wdir":320,"wspd":12,"wgst":21,"visib":"10+","altim":1014,"slp":1015.3,"qcField":14,"metarType":"METAR","rawOb":"METAR KBRD 190053Z AUTO 32012G21KT 10SM SCT075 04/M12 A2994 RMK AO2 PK WND 31026/0014 SLP153 T00391117 $","lat":46.4021,"lon":-94.1273,"elev":372,"name":"Brainerd/Lakes Rgnl, MN, US","cover":"SCT","clouds":[{"cover":"SCT","base":7500}],"fltCat":"VFR"},{"icaoId":"KBRL","receiptTime":"2026-04-19T00:56:19.970Z","obsTime":1776559980,"reportTime":"2026-04-19T01:00:00.000Z","temp":8.9,"dewp":-6.1,"wdir":310,"wspd":9,"visib":"10+","altim":1019.7,"slp":1020.1,"qcField":14,"metarType":"METAR","rawOb":"METAR KBRL 190053Z AUTO 31009KT 10SM CLR 09/M06 A3011 RMK AO2 SLP201 T00891061 $","lat":40.7729,"lon":-91.1255,"elev":208,"name":"Burlington/SE Iowa Rgnl, IA, US","cover":"CLR","clouds":[],"fltCat":"VFR"},{"icaoId":"KBUR","receiptTime":"2026-04-19T00:56:20.015Z","obsTime":1776559980,"reportTime":"2026-04-19T01:00:00.000Z","temp":26.1,"dewp":5.6,"wdir":200,"wspd":8,"visib":"10+","altim":1012.3,"slp":1011,"qcField":4,"metarType":"METAR","rawOb":"METAR KBUR 190053Z 20008KT 10SM CLR 26/06 A2989 RMK AO2 SLP110 T02610056","lat":34.1996,"lon":-118.3654,"elev":221,"name":"Burbank/Bob Hope Arpt, CA, US","cover":"CLR","clouds":[],"fltCat":"VFR"},{"icaoId":"KRAP","receiptTime":"2026-04-19T00:56:23.717Z","obsTime":1776559920,"reportTime":"2026-04-19T01:00:00.000Z","temp":8.9,"dewp":-5,"wdir":10,"wspd":9,"visib":"10+","altim":1018.7,"slp":1020.9,"qcField":4,"metarType":"METAR","rawOb":"METAR KRAP 190052Z 01009KT 10SM CLR 09/M05 A3008 RMK AO2 SLP209 T00891050","lat":44.0458,"lon":-103.0544,"elev":965,"name":"Rapid City Rgnl, SD, US","cover":"CLR","clouds":[],"fltCat":"VFR"},{"icaoId":"KCID","receiptTime":"2026-04-19T00:56:24.689Z","obsTime":1776559920,"reportTime":"2026-04-19T01:00:00.000Z","temp":6.1,"dewp":-6.1,"wdir":290,"wspd":11,"visib":"10+","altim":1018.4,"slp":1018.8,"qcField":4,"metarType":"METAR","rawOb":"METAR KCID 190052Z 29011KT 10SM CLR 06/M06 A3007 RMK AO2 SLP188 T00611061","lat":41.8829,"lon":-91.7246,"elev":257,"name":"Cedar Rapids/E Iowa Arpt, IA, US","cover":"CLR","clouds":[],"fltCat":"VFR"},{"icaoId":"KCNU","receiptTime":"2026-04-19T00:56:24.701Z","obsTime":1776559920,"reportTime":"2026-04-19T01:00:00.000Z","temp":10.6,"dewp":2.8,"wdir":190,"wspd":6,"visib":"10+","altim":1022.8,"slp":1022.7,"qcField":14,"metarType":"METAR","rawOb":"METAR KCNU 190052Z AUTO 19006KT 10SM CLR 11/03 A3020 RMK AO2 SLP227 T01060028 $","lat":37.6705,"lon":-95.4846,"elev":301,"name":"Chanute/Johnson Arpt, KS, US","cover":"CLR","clouds":[],"fltCat":"VFR"},{"icaoId":"KCVG","receiptTime":"2026-04-19T00:56:26.887Z","obsTime":1776559920,"reportTime":"2026-04-19T01:00:00.000Z","temp":8.9,"dewp":4.4,"wdir":310,"wspd":6,"visib":"10+","altim":1016.3,"slp":1015.6,"qcField":4,"metarType":"METAR","rawOb":"METAR KCVG 190052Z 31006KT 10SM OVC065 09/04 A3001 RMK AO2 SLP156 T00890044","lat":39.0444,"lon":-84.6724,"elev":264,"name":"Cincinnati Intl, KY, US","cover":"OVC","clouds":[{"cover":"OVC","base":6500}],"fltCat":"VFR"},{"icaoId":"KMHK","receiptTime":"2026-04-19T00:56:24.736Z","obsTime":1776559920,"reportTime":"2026-04-19T01:00:00.000Z","temp":12.2,"dewp":-3.3,"wdir":0,"wspd":0,"visib":"10+","altim":1021.4,"slp":1021.8,"qcField":12,"metarType":"METAR","rawOb":"METAR KMHK 190052Z 00000KT 10SM CLR 12/M03 A3016 RMK AO2 SLP218 T01221033 $","lat":39.1346,"lon":-96.6789,"elev":320,"name":"Manhattan Rgnl, KS, US","cover":"CLR","clouds":[],"fltCat":"VFR"},{"icaoId":"KABI","receiptTime":"2026-04-19T00:56:24.644Z","obsTime":1776559920,"reportTime":"2026-04-19T01:00:00.000Z","temp":14.4,"dewp":3.3,"wdir":80,"wspd":5,"visib":"10+","altim":1024.5,"slp":1023.6,"qcField":12,"metarType":"METAR","rawOb":"METAR KABI 190052Z 08005KT 10SM CLR 14/03 A3025 RMK AO2 SLP236 T01440033 $","lat":32.4106,"lon":-99.6821,"elev":543,"name":"Abilene Rgnl, TX, US","cover":"CLR","clouds":[],"fltCat":"VFR"},{"icaoId":"KDCA","receiptTime":"2026-04-19T00:56:26.920Z","obsTime":1776559920,"reportTime":"2026-04-19T01:00:00.000Z","temp":20,"dewp":13.3,"wdir":160,"wspd":10,"visib":"10+","altim":1010.2,"slp":1010.1,"qcField":4,"metarType":"METAR","rawOb":"METAR KDCA 190052Z 16010KT 10SM SCT180 OVC250 20/13 A2983 RMK AO2 SLP101 T02000133","lat":38.8472,"lon":-77.0345,"elev":4,"name":"Washington/Reagan-National Arpt, VA, US","cover":"OVC","clouds":[{"cover":"SCT","base":18000},{"cover":"OVC","base":25000}],"fltCat":"VFR"},{"icaoId":"KHRL","receiptTime":"2026-04-19T00:56:27.109Z","obsTime":1776559920,"reportTime":"2026-04-19T01:00:00.000Z","temp":25.6,"dewp":22.8,"wdir":100,"wspd":11,"visib":"10+","altim":1013.3,"slp":1013.1,"qcField":4,"metarType":"METAR","rawOb":"METAR KHRL 190052Z 10011KT 10SM CLR 26/23 A2992 RMK AO2 SLP131 T02560228","lat":26.2303,"lon":-97.6556,"elev":9,"name":"Harlingen/Valley Intl, TX, US","cover":"CLR","clouds":[],"fltCat":"VFR"},{"icaoId":"KHUT","receiptTime":"2026-04-19T00:56:27.121Z","obsTime":1776559920,"reportTime":"2026-04-19T01:00:00.000Z","temp":15,"dewp":-7.2,"wdir":300,"wspd":8,"visib":"10+","altim":1021.8,"slp":1021.3,"qcField":12,"metarType":"METAR","rawOb":"METAR KHUT 190052Z 30008KT 10SM CLR 15/M07 A3017 RMK AO2 SLP213 T01501072 $","lat":38.0682,"lon":-97.8607,"elev":464,"name":"Hutchinson Muni, KS, US","cover":"CLR","clouds":[],"fltCat":"VFR"},{"icaoId":"KIAD","receiptTime":"2026-04-19T00:56:27.133Z","obsTime":1776559920,"reportTime":"2026-04-19T01:00:00.000Z","temp":21.7,"dewp":13.9,"wdir":150,"wspd":10,"visib":"10+","altim":1009.2,"slp":1008.9,"qcField":12,"metarType":"METAR","rawOb":"METAR KIAD 190052Z 15010KT 10SM BKN170 BKN220 22/14 A2980 RMK AO2 SLP089 T02170139 $","lat":38.9348,"lon":-77.4473,"elev":90,"name":"Washington/Dulles Intl, VA, US","cover":"BKN","clouds":[{"cover":"BKN","base":17000},{"cover":"BKN","base":22000}],"fltCat":"VFR"},{"icaoId":"KMKE","receiptTime":"2026-04-19T00:56:23.545Z","obsTime":1776559920,"reportTime":"2026-04-19T01:00:00.000Z","temp":6.1,"dewp":-5.6,"wdir":280,"wspd":12,"wgst":25,"visib":"10+","altim":1015,"slp":1015.5,"qcField":4,"metarType":"METAR","rawOb":"METAR KMKE 190052Z 28012G25KT 10SM BKN055 06/M06 A2997 RMK AO2 PK WND 29030/0001 SLP155 T00611056","lat":42.9549,"lon":-87.9045,"elev":203,"name":"Milwaukee/Mitchell Intl, WI, US","cover":"BKN","clouds":[{"cover":"BKN","base":5500}],"fltCat":"VFR"},{"icaoId":"KOKC","receiptTime":"2026-04-19T00:56:23.594Z","obsTime":1776559920,"reportTime":"2026-04-19T01:00:00.000Z","temp":14.4,"dewp":-3.3,"wdir":10,"wspd":6,"visib":"10+","altim":1024.1,"slp":1023.9,"qcField":4,"metarType":"METAR","rawOb":"METAR KOKC 190052Z 01006KT 10SM FEW070 FEW250 14/M03 A3024 RMK AO2 SLP239 FU FEW070 T01441033","lat":35.3843,"lon":-97.6003,"elev":391,"name":"Oklahoma City/Will Rogers Intl, OK, US","cover":"FEW","clouds":[{"cover":"FEW","base":7000},{"cover":"FEW","base":25000}],"fltCat":"VFR"},{"icaoId":"KSGF","receiptTime":"2026-04-19T00:56:23.750Z","obsTime":1776559920,"reportTime":"2026-04-19T01:00:00.000Z","temp":10,"dewp":-1.1,"wdir":320,"wspd":7,"visib":"10+","altim":1022.8,"slp":1023,"qcField":4,"metarType":"METAR","rawOb":"METAR KSGF 190052Z 32007KT 10SM CLR 10/M01 A3020 RMK AO2 SLP230 T01001011","lat":37.2398,"lon":-93.3899,"elev":387,"name":"Springfield Muni, MO, US","cover":"CLR","clouds":[],"fltCat":"VFR"},{"icaoId":"KCLT","receiptTime":"2026-04-19T00:56:24.034Z","obsTime":1776559920,"reportTime":"2026-04-19T01:00:00.000Z","temp":26.1,"dewp":13.3,"wdir":230,"wspd":6,"visib":"10+","altim":1011.6,"slp":1012.2,"qcField":4,"metarType":"METAR","rawOb":"METAR KCLT 190052Z 23006KT 10SM FEW070 BKN250 26/13 A2987 RMK AO2 SLP122 T02610133","lat":35.2225,"lon":-80.9543,"elev":223,"name":"Charlotte/Douglas Intl, NC, US","cover":"BKN","clouds":[{"cover":"FEW","base":7000},{"cover":"BKN","base":25000}],"fltCat":"VFR"},{"icaoId":"KOMA","receiptTime":"2026-04-19T00:56:23.607Z","obsTime":1776559920,"reportTime":"2026-04-19T01:00:00.000Z","temp":10,"dewp":-5.6,"wdir":310,"wspd":10,"visib":"10+","altim":1020.4,"slp":1020.7,"qcField":12,"metarType":"METAR","rawOb":"METAR KOMA 190052Z 31010KT 10SM CLR 10/M06 A3013 RMK AO2 SLP207 T01001056 $","lat":41.3119,"lon":-95.9018,"elev":299,"name":"Omaha/Eppley Fld, NE, US","cover":"CLR","clouds":[],"fltCat":"VFR"},{"icaoId":"KDDC","receiptTime":"2026-04-19T00:56:26.931Z","obsTime":1776559920,"reportTime":"2026-04-19T01:00:00.000Z","temp":13.3,"dewp":-11.7,"wdir":320,"wspd":6,"visib":8,"altim":1023.1,"slp":1023.2,"qcField":6,"metarType":"METAR","rawOb":"METAR KDDC 190052Z AUTO 32006KT 8SM CLR 13/M12 A3021 RMK AO2 SLP232 T01331117","lat":37.7711,"lon":-99.9692,"elev":786,"name":"Dodge City Arpt, KS, US","cover":"CLR","clouds":[],"fltCat":"VFR"},{"icaoId":"KBIS","receiptTime":"2026-04-19T00:56:26.801Z","obsTime":1776559920,"reportTime":"2026-04-19T01:00:00.000Z","temp":5,"dewp":-2.2,"wdir":290,"wspd":5,"visib":"10+","altim":1017,"slp":1018.8,"qcField":12,"metarType":"METAR","rawOb":"METAR KBIS 190052Z 29005KT 10SM FEW055 05/M02 A3003 RMK AO2 WSHFT 0001 SLP188 T00501022 $","lat":46.7823,"lon":-100.7575,"elev":506,"name":"Bismarck Arpt, ND, US","cover":"FEW","clouds":[{"cover":"FEW","base":5500}],"fltCat":"VFR"},{"icaoId":"KATL","receiptTime":"2026-04-19T00:56:24.005Z","obsTime":1776559920,"reportTime":"2026-04-19T01:00:00.000Z","temp":23.9,"dewp":12.8,"wdir":250,"wspd":8,"visib":"10+","altim":1015,"slp":1014,"qcField":12,"metarType":"METAR","rawOb":"METAR KATL 190052Z 25008KT 10SM FEW065 SCT200 BKN250 24/13 A2997 RMK AO2 SLP140 T02390128 $","lat":33.6297,"lon":-84.4422,"elev":309,"name":"Atlanta/Hartsfield-Jackson Intl, GA, US","cover":"BKN","clouds":[{"cover":"FEW","base":6500},{"cover":"SCT","base":20000},{"cover":"BKN","base":25000}],"fltCat":"VFR"},{"icaoId":"KABQ","receiptTime":"2026-04-19T00:56:24.663Z","obsTime":1776559920,"reportTime":"2026-04-19T01:00:00.000Z","temp":18.3,"dewp":-15.6,"wdir":200,"wspd":7,"visib":"10+","altim":1021.8,"slp":1018.3,"qcField":12,"metarType":"METAR","rawOb":"METAR KABQ 190052Z 20007KT 10SM FEW250 18/M16 A3017 RMK AO2 SLP183 T01831156 $","lat":35.0419,"lon":-106.6154,"elev":1620,"name":"Albuquerque Intl, NM, US","cover":"FEW","clouds":[{"cover":"FEW","base":25000}],"fltCat":"VFR"},{"icaoId":"KMBG","receiptTime":"2026-04-19T00:56:24.724Z","obsTime":1776559920,"reportTime":"2026-04-19T01:00:00.000Z","temp":8.3,"dewp":-4.4,"wdir":310,"wspd":12,"visib":"10+","altim":1016,"slp":1017.4,"qcField":6,"metarType":"METAR","rawOb":"METAR KMBG 190052Z AUTO 31012KT 10SM FEW050 BKN080 OVC110 08/M04 A3000 RMK AO2 SLP174 T00831044","lat":45.543,"lon":-100.404,"elev":515,"name":"Mobridge Muni, SD, US","cover":"OVC","clouds":[{"cover":"FEW","base":5000},{"cover":"BKN","base":8000},{"cover":"OVC","base":11000}],"fltCat":"VFR"},{"icaoId":"KSPS","receiptTime":"2026-04-19T00:56:24.746Z","obsTime":1776559920,"reportTime":"2026-04-19T01:00:00.000Z","temp":13.9,"dewp":-0.6,"wdir":30,"wspd":9,"visib":"10+","altim":1024.5,"slp":1024.1,"qcField":6,"metarType":"METAR","rawOb":"METAR KSPS 190052Z AUTO 03009KT 10SM CLR 14/M01 A3025 RMK AO2 SLP241 T01391006","lat":33.9785,"lon":-98.493,"elev":310,"name":"Wichita Falls Rgnl, TX, US","cover":"CLR","clouds":[],"fltCat":"VFR"},{"icaoId":"KMLF","receiptTime":"2026-04-19T00:56:24.974Z","obsTime":1776559920,"reportTime":"2026-04-19T01:00:00.000Z","temp":17.2,"dewp":-16.7,"wdir":360,"wspd":11,"visib":"10+","altim":1019,"slp":1017.8,"qcField":6,"metarType":"METAR","rawOb":"METAR KMLF 190052Z AUTO 36011KT 10SM CLR 17/M17 A3009 RMK AO2 SLP178 T01721167","lat":38.4225,"lon":-113.0109,"elev":1537,"name":"Milford Muni, UT, US","cover":"CLR","clouds":[],"fltCat":"VFR"},{"icaoId":"KSUX","receiptTime":"2026-04-19T00:56:23.794Z","obsTime":1776559920,"reportTime":"2026-04-19T01:00:00.000Z","temp":9.4,"dewp":-12.2,"wdir":320,"wspd":12,"wgst":22,"visib":"10+","altim":1019.7,"slp":1020.3,"qcField":4,"metarType":"METAR","rawOb":"METAR KSUX 190052Z 32012G22KT 10SM CLR 09/M12 A3011 RMK AO2 PK WND 32029/2353 SLP203 T00941122","lat":42.3917,"lon":-96.3795,"elev":332,"name":"Sioux City/Day Fld, IA, US","cover":"CLR","clouds":[],"fltCat":"VFR"},{"icaoId":"KLGA","receiptTime":"2026-04-19T00:54:12.962Z","obsTime":1776559860,"reportTime":"2026-04-19T01:00:00.000Z","temp":11.7,"dewp":8.9,"wdir":120,"wspd":13,"visib":"10+","altim":1015.3,"slp":1015.1,"qcField":12,"metarType":"METAR","rawOb":"METAR KLGA 190051Z 12013KT 10SM OVC008 12/09 A2998 RMK AO2 SLP151 T01170089 $","lat":40.7794,"lon":-73.8803,"elev":9,"name":"New York/La Guardia Arpt, NY, US","cover":"OVC","clouds":[{"cover":"OVC","base":800}],"fltCat":"IFR"},{"icaoId":"KLGU","receiptTime":"2026-04-19T00:54:12.979Z","obsTime":1776559860,"reportTime":"2026-04-19T01:00:00.000Z","temp":11.7,"dewp":-6.7,"wdir":350,"wspd":3,"visib":"10+","altim":1021.8,"slp":1022.2,"qcField":6,"metarType":"METAR","rawOb":"METAR KLGU 190051Z AUTO 35003KT 10SM CLR 12/M07 A3017 RMK AO2 SLP222 T01171067","lat":41.7865,"lon":-111.8519,"elev":1359,"name":"Logan/Cache Arpt, UT, US","cover":"CLR","clouds":[],"fltCat":"VFR"},{"icaoId":"KORF","receiptTime":"2026-04-19T00:54:13.044Z","obsTime":1776559860,"reportTime":"2026-04-19T01:00:00.000Z","temp":25,"dewp":13.9,"wdir":170,"wspd":10,"visib":"10+","altim":1011.6,"slp":1011.3,"qcField":4,"metarType":"METAR","rawOb":"METAR KORF 190051Z 17010KT 10SM CLR 25/14 A2987 RMK AO2 SLP113 T02500139","lat":36.9037,"lon":-76.1927,"elev":5,"name":"Norfolk Intl, VA, US","cover":"CLR","clouds":[],"fltCat":"VFR"},{"icaoId":"KSTL","receiptTime":"2026-04-19T00:54:12.280Z","obsTime":1776559860,"reportTime":"2026-04-19T01:00:00.000Z","temp":11.1,"dewp":-2.2,"wdir":300,"wspd":8,"wgst":17,"visib":"10+","altim":1020.4,"slp":1020.5,"qcField":12,"metarType":"METAR","rawOb":"METAR KSTL 190051Z 30008G17KT 10SM FEW035 FEW250 11/M02 A3013 RMK AO2 SLP205 T01111022 $","lat":38.7525,"lon":-90.3734,"elev":163,"name":"St Louis/Lambert Intl, MO, US","cover":"FEW","clouds":[{"cover":"FEW","base":3500},{"cover":"FEW","base":25000}],"fltCat":"VFR"},{"icaoId":"KORD","receiptTime":"2026-04-19T00:54:13.033Z","obsTime":1776559860,"reportTime":"2026-04-19T01:00:00.000Z","temp":7.2,"dewp":-3.9,"wdir":280,"wspd":12,"wgst":26,"visib":"10+","altim":1016,"slp":1016.3,"qcField":12,"metarType":"METAR","rawOb":"METAR KORD 190051Z 28012G26KT 10SM FEW050 FEW250 07/M04 A3000 RMK AO2 PK WND 30035/0012 SLP163 T00721039 $","lat":41.9602,"lon":-87.9316,"elev":202,"name":"Chicago/O'Hare Intl, IL, US","cover":"FEW","clouds":[{"cover":"FEW","base":5000},{"cover":"FEW","base":25000}],"fltCat":"VFR"},{"icaoId":"KVNY","receiptTime":"2026-04-19T00:54:12.336Z","obsTime":1776559860,"reportTime":"2026-04-19T01:00:00.000Z","temp":26.1,"dewp":-0.6,"wdir":170,"wspd":11,"visib":"10+","altim":1011.9,"slp":1011,"qcField":12,"metarType":"METAR","rawOb":"METAR KVNY 190051Z 17011KT 10SM CLR 26/M01 A2988 RMK AO2 SLP110 T02611006 $","lat":34.2121,"lon":-118.4915,"elev":241,"name":"Van Nuys Arpt, CA, US","cover":"CLR","clouds":[],"fltCat":"VFR"},{"icaoId":"KJFK","receiptTime":"2026-04-19T01:02:06.451Z","obsTime":1776559860,"reportTime":"2026-04-19T01:00:00.000Z","temp":9.4,"dewp":8.9,"wdir":120,"wspd":10,"visib":1.5,"altim":1016,"slp":1015.7,"qcField":0,"wxString":"BR","metarType":"METAR","rawOb":"METAR KJFK 190051Z 12010KT 1 1/2SM BR OVC003 09/09 A3000 RMK SFC VIS 2 1/2 SLP157 T00940089","lat":40.6392,"lon":-73.7639,"elev":3,"name":"New York/JF Kennedy Intl, NY, US","cover":"OVC","clouds":[{"cover":"OVC","base":300}],"fltCat":"LIFR"},{"icaoId":"KMYL","receiptTime":"2026-04-19T00:54:13.014Z","obsTime":1776559860,"reportTime":"2026-04-19T01:00:00.000Z","temp":9.4,"dewp":-5.6,"wdir":210,"wspd":7,"visib":"10+","altim":1019.7,"slp":1021.4,"qcField":6,"metarType":"METAR","rawOb":"METAR KMYL 190051Z AUTO 21007KT 10SM CLR 09/M06 A3011 RMK AO2 SLP214 T00941056","lat":44.8943,"lon":-116.0998,"elev":1532,"name":"McCall Muni, ID, US","cover":"CLR","clouds":[],"fltCat":"VFR"},{"icaoId":"KROW","receiptTime":"2026-04-19T00:54:12.145Z","obsTime":1776559860,"reportTime":"2026-04-19T01:00:00.000Z","temp":18.9,"dewp":-10.6,"visib":"10+","altim":1023.1,"slp":1019.8,"qcField":12,"metarType":"METAR","rawOb":"METAR KROW 190051Z 10SM CLR 19/M11 A3021 RMK AO2 SLP198 T01891106 $","lat":33.3074,"lon":-104.5082,"elev":1105,"name":"Roswell/Ind Arpt, NM, US","cover":"CLR","clouds":[],"fltCat":"VFR"},{"icaoId":"KCMH","receiptTime":"2026-04-19T00:54:12.693Z","obsTime":1776559860,"reportTime":"2026-04-19T01:00:00.000Z","temp":10.6,"dewp":5,"wdir":270,"wspd":13,"visib":"10+","altim":1014.3,"slp":1013.9,"qcField":4,"metarType":"METAR","rawOb":"METAR KCMH 190051Z 27013KT 10SM OVC055 11/05 A2995 RMK AO2 SLP139 T01060050","lat":39.9907,"lon":-82.877,"elev":257,"name":"Columbus/Glenn Intl, OH, US","cover":"OVC","clouds":[{"cover":"OVC","base":5500}],"fltCat":"VFR"},{"icaoId":"KSAD","receiptTime":"2026-04-19T00:54:12.159Z","obsTime":1776559860,"reportTime":"2026-04-19T01:00:00.000Z","temp":28.3,"dewp":-6.7,"wdir":150,"wspd":11,"visib":"10+","altim":1013.3,"slp":1009.7,"qcField":6,"metarType":"METAR","rawOb":"METAR KSAD 190051Z AUTO 15011KT 10SM CLR 28/M07 A2992 RMK AO2 SLP097 T02831067","lat":32.8565,"lon":-109.636,"elev":937,"name":"Safford Rgnl, AZ, US","cover":"CLR","clouds":[],"fltCat":"VFR"},{"icaoId":"KOXR","receiptTime":"2026-04-19T00:54:13.055Z","obsTime":1776559860,"reportTime":"2026-04-19T01:00:00.000Z","temp":20.6,"dewp":10.6,"wdir":270,"wspd":8,"visib":"10+","altim":1012.6,"slp":1012.5,"qcField":12,"metarType":"METAR","rawOb":"METAR KOXR 190051Z 27008KT 10SM CLR 21/11 A2990 RMK AO2 SLP125 T02060106 $","lat":34.2001,"lon":-119.2042,"elev":12,"name":"Oxnard Arpt, CA, US","cover":"CLR","clouds":[],"fltCat":"VFR"},{"icaoId":"KBDL","receiptTime":"2026-04-19T00:54:12.591Z","obsTime":1776559860,"reportTime":"2026-04-19T01:00:00.000Z","temp":14.4,"dewp":9.4,"wdir":120,"wspd":7,"visib":"10+","altim":1014.6,"slp":1014.6,"qcField":4,"metarType":"METAR","rawOb":"METAR KBDL 190051Z 12007KT 10SM OVC026 14/09 A2996 RMK AO2 SLP146 T01440094","lat":41.9374,"lon":-72.682,"elev":52,"name":"Hartford/Bradley Intl, CT, US","cover":"OVC","clouds":[{"cover":"OVC","base":2600}],"fltCat":"MVFR"},{"icaoId":"KSAT","receiptTime":"2026-04-19T00:54:12.192Z","obsTime":1776559860,"reportTime":"2026-04-19T01:00:00.000Z","temp":11.1,"dewp":7.2,"wdir":10,"wspd":16,"wgst":28,"visib":"10+","altim":1020.1,"slp":1018.7,"qcField":4,"wxString":"-RA","precip":0.005,"metarType":"METAR","rawOb":"METAR KSAT 190051Z 01016G28KT 10SM -RA BKN015 OVC045 11/07 A3012 RMK AO2 PK WND 01030/0018 RAB2354E23B50 SLP187 CB OCNL LTGIC DSNT NE MOVG NE P0000 T01110072","lat":29.5443,"lon":-98.4839,"elev":246,"name":"San Antonio Intl, TX, US","cover":"OVC","clouds":[{"cover":"BKN","base":1500},{"cover":"OVC","base":4500}],"fltCat":"MVFR"},{"icaoId":"KSAN","receiptTime":"2026-04-19T00:54:12.175Z","obsTime":1776559860,"reportTime":"2026-04-19T01:00:00.000Z","temp":20,"dewp":14.4,"wdir":210,"wspd":8,"visib":"10+","altim":1014,"slp":1013.9,"qcField":12,"metarType":"METAR","rawOb":"METAR KSAN 190051Z 21008KT 10SM FEW020 SCT250 20/14 A2994 RMK AO2 SLP139 T02000144 $","lat":32.7364,"lon":-117.1973,"elev":3,"name":"San Diego Intl Arpt, CA, US","cover":"SCT","clouds":[{"cover":"FEW","base":2000},{"cover":"SCT","base":25000}],"fltCat":"VFR"},{"icaoId":"KPHX","receiptTime":"2026-04-19T00:54:12.064Z","obsTime":1776559860,"reportTime":"2026-04-19T01:00:00.000Z","temp":31.1,"dewp":-11.1,"wdir":250,"wspd":3,"visib":"10+","altim":1009.9,"slp":1008.3,"qcField":12,"metarType":"METAR","rawOb":"METAR KPHX 190051Z 25003KT 10SM FEW250 31/M11 A2982 RMK AO2 SLP083 T03111111 $","lat":33.4278,"lon":-112.0037,"elev":338,"name":"Phoenix/Sky Harbor Intl, AZ, US","cover":"FEW","clouds":[{"cover":"FEW","base":25000}],"fltCat":"VFR"},{"icaoId":"KPVD","receiptTime":"2026-04-19T00:54:12.105Z","obsTime":1776559860,"reportTime":"2026-04-19T01:00:00.000Z","temp":9.4,"dewp":6.7,"wdir":70,"wspd":8,"visib":"10+","altim":1016,"slp":1016,"qcField":4,"metarType":"METAR","rawOb":"METAR KPVD 190051Z 07008KT 10SM OVC013 09/07 A3000 RMK AO2 SLP160 T00940067","lat":41.7225,"lon":-71.4325,"elev":15,"name":"Providence/Green Mem, RI, US","cover":"OVC","clouds":[{"cover":"OVC","base":1300}],"fltCat":"MVFR"},{"icaoId":"KRDU","receiptTime":"2026-04-19T00:54:12.131Z","obsTime":1776559860,"reportTime":"2026-04-19T01:00:00.000Z","temp":27.2,"dewp":9.4,"wdir":170,"wspd":6,"visib":"10+","altim":1010.9,"slp":1010.2,"qcField":12,"metarType":"METAR","rawOb":"METAR KRDU 190051Z 17006KT 10SM FEW095 OVC250 27/09 A2985 RMK AO2 SLP102 T02720094 $","lat":35.8923,"lon":-78.782,"elev":121,"name":"Raleigh-Durham Intl, NC, US","cover":"OVC","clouds":[{"cover":"FEW","base":9500},{"cover":"OVC","base":25000}],"fltCat":"VFR"},{"icaoId":"KXWA","receiptTime":"2026-04-19T00:54:12.352Z","obsTime":1776559860,"reportTime":"2026-04-19T01:00:00.000Z","temp":5.6,"dewp":-6.7,"wdir":330,"wspd":16,"visib":"10+","altim":1016.7,"slp":1020.4,"qcField":6,"metarType":"METAR","rawOb":"METAR KXWA 190051Z AUTO 33016KT 10SM SCT070 06/M07 A3002 RMK AO2 PK WND 34027/2353 SLP204 T00561067","lat":48.2542,"lon":-103.7469,"elev":717,"name":"Williston/Basin Intl, ND, US","cover":"SCT","clouds":[{"cover":"SCT","base":7000}],"fltCat":"VFR"},{"icaoId":"KACT","receiptTime":"2026-04-19T00:54:12.522Z","obsTime":1776559860,"reportTime":"2026-04-19T01:00:00.000Z","temp":11.1,"dewp":7.8,"wdir":360,"wspd":11,"visib":8,"altim":1022.8,"slp":1022.3,"qcField":4,"wxString":"-RA","precip":0.04,"metarType":"METAR","rawOb":"METAR KACT 190051Z 36011KT 8SM -RA BKN110 11/08 A3020 RMK AO2 RAB04 PRESFR SLP223 P0004 T01110078","lat":31.618,"lon":-97.2283,"elev":150,"name":"Waco Rgnl, TX, US","cover":"BKN","clouds":[{"cover":"BKN","base":11000}],"fltCat":"VFR"},{"icaoId":"KCLE","receiptTime":"2026-04-19T00:54:12.673Z","obsTime":1776559860,"reportTime":"2026-04-19T01:00:00.000Z","temp":10,"dewp":5,"wdir":280,"wspd":12,"visib":"10+","altim":1012.6,"slp":1014,"qcField":12,"metarType":"METAR","rawOb":"METAR KCLE 190051Z 28012KT 10SM SCT028 OVC070 10/05 A2990 RMK AO2 SLP140 T01000050 $","lat":41.4057,"lon":-81.8519,"elev":237,"name":"Cleveland/Hopkins Intl, OH, US","cover":"OVC","clouds":[{"cover":"SCT","base":2800},{"cover":"OVC","base":7000}],"fltCat":"VFR"},{"icaoId":"KELP","receiptTime":"2026-04-19T00:54:12.786Z","obsTime":1776559860,"reportTime":"2026-04-19T01:00:00.000Z","temp":20,"dewp":-6.1,"wdir":110,"wspd":17,"wgst":22,"visib":"10+","altim":1020.1,"slp":1015.4,"qcField":4,"metarType":"METAR","rawOb":"METAR KELP 190051Z 11017G22KT 10SM CLR 20/M06 A3012 RMK AO2 PK WND 11026/0010 SLP154 T02001061","lat":31.8123,"lon":-106.3774,"elev":1205,"name":"El Paso Intl, TX, US","cover":"CLR","clouds":[],"fltCat":"VFR"},{"icaoId":"KEWR","receiptTime":"2026-04-19T00:54:12.827Z","obsTime":1776559860,"reportTime":"2026-04-19T01:00:00.000Z","temp":10.6,"dewp":9.4,"wdir":140,"wspd":9,"wgst":15,"visib":7,"altim":1015.3,"slp":1015.3,"qcField":4,"metarType":"METAR","rawOb":"METAR KEWR 190051Z 14009G15KT 7SM OVC005 11/09 A2998 RMK AO2 SLP153 T01060094","lat":40.6828,"lon":-74.1692,"elev":2,"name":"Newark Intl, NJ, US","cover":"OVC","clouds":[{"cover":"OVC","base":500}],"fltCat":"IFR"},{"icaoId":"KIGM","receiptTime":"2026-04-19T00:54:12.894Z","obsTime":1776559860,"reportTime":"2026-04-19T01:00:00.000Z","temp":23.9,"dewp":-14.4,"wdir":270,"wspd":8,"visib":"10+","altim":1015.3,"slp":1010.6,"qcField":6,"metarType":"METAR","rawOb":"METAR KIGM 190051Z AUTO 27008KT 10SM CLR 24/M14 A2998 RMK AO2 SLP106 T02391144","lat":35.2575,"lon":-113.9341,"elev":1045,"name":"Kingman Arpt, AZ, US","cover":"CLR","clouds":[],"fltCat":"VFR"},{"icaoId":"KAEG","receiptTime":"2026-04-19T00:55:26.314Z","obsTime":1776559620,"reportTime":"2026-04-19T01:00:00.000Z","temp":16,"dewp":-23,"wdir":190,"wspd":3,"visib":"10+","altim":1022.4,"qcField":0,"metarType":"METAR","rawOb":"METAR KAEG 190047Z 19003KT 10SM CLR 16/M23 A3019","lat":35.15,"lon":-106.7929,"elev":1771,"name":"Albuquerque/Double Eagle Arpt, NM, US","cover":"CLR","clouds":[],"fltCat":"VFR"},{"icaoId":"KSUN","receiptTime":"2026-04-19T00:50:46.045Z","obsTime":1776559620,"reportTime":"2026-04-19T01:00:00.000Z","temp":12,"dewp":-12,"wdir":150,"wspd":6,"visib":"10+","altim":1021.4,"qcField":0,"metarType":"METAR","rawOb":"METAR KSUN 190047Z 15006KT 10SM CLR 12/M12 A3016","lat":43.4969,"lon":-114.2923,"elev":1619,"name":"Hailey/Friedman Mem, ID, US","cover":"CLR","clouds":[],"fltCat":"VFR"},{"icaoId":"KCHD","receiptTime":"2026-04-19T00:46:36.209Z","obsTime":1776559620,"reportTime":"2026-04-19T01:00:00.000Z","temp":31,"dewp":-9,"wdir":240,"wspd":7,"visib":"10+","altim":1010.2,"qcField":0,"metarType":"METAR","rawOb":"METAR KCHD 190047Z 24007KT 10SM CLR 31/M09 A2983","lat":33.2669,"lon":-111.8086,"elev":378,"name":"Chandler Muni, AZ, US","cover":"CLR","clouds":[],"fltCat":"VFR"},{"icaoId":"KGEU","receiptTime":"2026-04-19T00:49:07.961Z","obsTime":1776559620,"reportTime":"2026-04-19T01:00:00.000Z","temp":31,"dewp":-13,"wdir":"VRB","wspd":3,"visib":"10+","altim":1009.2,"qcField":0,"metarType":"METAR","rawOb":"METAR KGEU 190047Z VRB03KT 10SM CLR 31/M13 A2980","lat":33.528,"lon":-112.293,"elev":319,"name":"Glendale Muni, AZ, US","cover":"CLR","clouds":[],"fltCat":"VFR"},{"icaoId":"KGYR","receiptTime":"2026-04-19T00:48:18.605Z","obsTime":1776559620,"reportTime":"2026-04-19T01:00:00.000Z","temp":32,"dewp":-9,"wdir":"VRB","wspd":3,"visib":"10+","altim":1010.2,"qcField":0,"metarType":"METAR","rawOb":"METAR KGYR 190047Z VRB03KT 10SM SKC 32/M09 A2983","lat":33.428,"lon":-112.368,"elev":292,"name":"Phoenix/Goodyear Muni, AZ, US","cover":"SKC","clouds":[],"fltCat":"VFR"},{"icaoId":"KRYN","receiptTime":"2026-04-19T00:47:16.343Z","obsTime":1776559500,"reportTime":"2026-04-19T01:00:00.000Z","temp":31,"dewp":-6,"wdir":300,"wspd":11,"wgst":18,"visib":"10+","altim":1010.6,"qcField":0,"metarType":"METAR","rawOb":"METAR KRYN 190045Z 30011G18KT 10SM CLR 31/M06 A2984","lat":32.1418,"lon":-111.1767,"elev":731,"name":"Tucson/Ryan Fld, AZ, US","cover":"CLR","clouds":[],"fltCat":"VFR"},{"icaoId":"KBJC","receiptTime":"2026-04-19T00:48:18.559Z","obsTime":1776559500,"reportTime":"2026-04-19T01:00:00.000Z","temp":14,"dewp":-15,"wdir":280,"wspd":11,"visib":"10+","altim":1022.4,"qcField":0,"metarType":"METAR","rawOb":"METAR KBJC 190045Z 28011KT 10SM CLR 14/M15 A3019","lat":39.9008,"lon":-105.1042,"elev":1694,"name":"Rocky Mtn Metro, CO, US","cover":"CLR","clouds":[],"fltCat":"VFR"}]