[{"icaoId":"KFLG","receiptTime":"2026-04-06T16:00:26.382Z","obsTime":1775491020,"reportTime":"2026-04-06T16:00:00.000Z","temp":11.7,"dewp":-1.1,"wdir":230,"wspd":5,"visib":"10+","altim":1023.8,"slp":1016.9,"qcField":4,"metarType":"METAR","rawOb":"METAR KFLG 061557Z 23005KT 10SM OVC100 12/M01 A3023 RMK AO2 SLP169 T01171011","lat":35.1443,"lon":-111.6664,"elev":2134,"name":"Flagstaff/Pulliam Arpt, AZ, US","cover":"OVC","clouds":[{"cover":"OVC","base":10000}],"fltCat":"VFR"},{"icaoId":"KINW","receiptTime":"2026-04-06T16:00:13.635Z","obsTime":1775490960,"reportTime":"2026-04-06T16:00:00.000Z","temp":16.1,"dewp":-2.2,"wdir":110,"wspd":9,"visib":"10+","altim":1021.8,"slp":1017,"qcField":6,"metarType":"METAR","rawOb":"METAR KINW 061556Z AUTO 11009KT 10SM FEW110 16/M02 A3017 RMK AO2 SLP170 T01611022","lat":35.0279,"lon":-110.7221,"elev":1492,"name":"Winslow/Lindberg Rgnl, AZ, US","cover":"FEW","clouds":[{"cover":"FEW","base":11000}],"fltCat":"VFR"},{"icaoId":"KCGZ","receiptTime":"2026-04-06T15:58:31.707Z","obsTime":1775490960,"reportTime":"2026-04-06T16:00:00.000Z","temp":24.4,"dewp":5.6,"wdir":90,"wspd":15,"visib":"10+","altim":1015,"slp":1013.4,"qcField":14,"metarType":"METAR","rawOb":"METAR KCGZ 061556Z AUTO 09015KT 10SM CLR 24/06 A2997 RMK AO2 SLP134 T02440056 $","lat":32.9531,"lon":-111.7725,"elev":444,"name":"Casa Granda Muni, AZ, US","cover":"CLR","clouds":[],"fltCat":"VFR"},{"icaoId":"KDUG","receiptTime":"2026-04-06T16:02:40.904Z","obsTime":1775490960,"reportTime":"2026-04-06T16:00:00.000Z","temp":16.1,"dewp":5,"wdir":100,"wspd":12,"visib":"10+","altim":1021.8,"slp":1016.4,"qcField":38,"metarType":"METAR","rawOb":"METAR KDUG 061556Z AUTO 10012KT 10SM CLR 16/05 A3017 RMK AO2 SLP164 T01610050 TSNO","lat":31.4725,"lon":-109.6022,"elev":1260,"name":"Douglas/Bisbee Intl, AZ, US","cover":"CLR","clouds":[],"fltCat":"VFR"},{"icaoId":"KSOW","receiptTime":"2026-04-06T15:58:04.749Z","obsTime":1775490900,"reportTime":"2026-04-06T16:00:00.000Z","temp":13,"dewp":-1,"wdir":190,"wspd":11,"visib":"10+","altim":1024.1,"qcField":6,"metarType":"METAR","rawOb":"METAR KSOW 061555Z AUTO 19011KT 10SM CLR 13/M01 A3024 RMK AO2","lat":34.2686,"lon":-110.0019,"elev":1954,"name":"Show Low Muni, AZ, US","cover":"CLR","clouds":[],"fltCat":"VFR"},{"icaoId":"KLUF","receiptTime":"2026-04-06T16:04:05.612Z","obsTime":1775490900,"reportTime":"2026-04-06T16:00:00.000Z","temp":26.9,"dewp":3.4,"wdir":100,"wspd":10,"visib":"10+","altim":1013.6,"slp":1012.1,"qcField":12,"metarType":"METAR","rawOb":"METAR KLUF 061555Z 10010KT 10SM SCT140 BKN200 27/03 A2993 RMK AO2A SLP121 T02690034 $","lat":33.538,"lon":-112.38,"elev":333,"name":"Phoenix/Luke AFB, AZ, US","cover":"BKN","clouds":[{"cover":"SCT","base":14000},{"cover":"BKN","base":20000}],"fltCat":"VFR"},{"icaoId":"KSEZ","receiptTime":"2026-04-06T15:58:29.170Z","obsTime":1775490900,"reportTime":"2026-04-06T16:00:00.000Z","temp":17,"dewp":1,"wdir":0,"wspd":0,"visib":"10+","altim":1020.7,"qcField":6,"metarType":"METAR","rawOb":"METAR KSEZ 061555Z AUTO 00000KT 10SM CLR 17/01 A3014 RMK AO2","lat":34.8467,"lon":-111.7884,"elev":1455,"name":"Sedona Arpt, AZ, US","cover":"CLR","clouds":[],"fltCat":"VFR"},{"icaoId":"KHII","receiptTime":"2026-04-06T16:00:26.826Z","obsTime":1775490900,"reportTime":"2026-04-06T16:00:00.000Z","temp":23,"dewp":-8,"wdir":0,"wspd":0,"visib":"10+","altim":1012.6,"qcField":6,"metarType":"METAR","rawOb":"METAR KHII 061555Z AUTO 00000KT 10SM CLR 23/M08 A2990 RMK AO2","lat":34.5659,"lon":-114.3522,"elev":241,"name":"Lake Havasu City Arpt, AZ, US","cover":"CLR","clouds":[],"fltCat":"VFR"},{"icaoId":"KGCN","receiptTime":"2026-04-06T15:58:10.450Z","obsTime":1775490840,"reportTime":"2026-04-06T16:00:00.000Z","temp":13.9,"dewp":0,"wdir":"VRB","wspd":3,"visib":"10+","altim":1023.1,"slp":1017.1,"qcField":4,"metarType":"METAR","rawOb":"METAR KGCN 061554Z VRB03KT 10SM SCT095 BKN110 14/00 A3021 RMK AO2 SLP171 T01390000","lat":35.9458,"lon":-112.1554,"elev":1993,"name":"Grand Canyon Park Arpt, AZ, US","cover":"BKN","clouds":[{"cover":"SCT","base":9500},{"cover":"BKN","base":11000}],"fltCat":"VFR"},{"icaoId":"KOLS","receiptTime":"2026-04-06T15:58:10.539Z","obsTime":1775490840,"reportTime":"2026-04-06T16:00:00.000Z","temp":19.4,"dewp":5.6,"wdir":190,"wspd":3,"visib":"10+","altim":1019.4,"slp":1013.1,"qcField":6,"metarType":"METAR","rawOb":"METAR KOLS 061554Z AUTO 19003KT 10SM CLR 19/06 A3010 RMK AO2 SLP131 T01940056","lat":31.4208,"lon":-110.8465,"elev":1194,"name":"Nogales Intl, AZ, US","cover":"CLR","clouds":[],"fltCat":"VFR"},{"icaoId":"KSJN","receiptTime":"2026-04-06T15:58:08.133Z","obsTime":1775490840,"reportTime":"2026-04-06T16:00:00.000Z","temp":16.1,"dewp":-3.3,"wdir":130,"wspd":4,"visib":"10+","altim":1022.1,"slp":1014.5,"qcField":6,"metarType":"METAR","rawOb":"METAR KSJN 061554Z AUTO 13004KT 10SM CLR 16/M03 A3018 RMK AO2 SLP145 T01611033","lat":34.5184,"lon":-109.3801,"elev":1747,"name":"St Johns Ind Arpt, AZ, US","cover":"CLR","clouds":[],"fltCat":"VFR"},{"icaoId":"KFFZ","receiptTime":"2026-04-06T15:58:22.443Z","obsTime":1775490840,"reportTime":"2026-04-06T16:00:00.000Z","temp":25.6,"dewp":3.9,"wdir":0,"wspd":0,"visib":9,"altim":1014.6,"slp":1012.1,"qcField":4,"metarType":"METAR","rawOb":"METAR KFFZ 061554Z 00000KT 9SM CLR 26/04 A2996 RMK AO2 SLP121 T02560039","lat":33.4659,"lon":-111.7212,"elev":420,"name":"Mesa/Falcon Fld, AZ, US","cover":"CLR","clouds":[],"fltCat":"VFR"},{"icaoId":"KSDL","receiptTime":"2026-04-06T15:56:48.627Z","obsTime":1775490780,"reportTime":"2026-04-06T16:00:00.000Z","temp":25.6,"dewp":3.3,"wdir":100,"wspd":8,"visib":"10+","altim":1015.3,"slp":1012.7,"qcField":4,"metarType":"METAR","rawOb":"METAR KSDL 061553Z 10008KT 10SM CLR 26/03 A2998 RMK AO2 SLP127 T02560033","lat":33.6123,"lon":-111.9232,"elev":438,"name":"Scottsdale Muni, AZ, US","cover":"CLR","clouds":[],"fltCat":"VFR"},{"icaoId":"KPGA","receiptTime":"2026-04-06T15:56:42.592Z","obsTime":1775490780,"reportTime":"2026-04-06T16:00:00.000Z","temp":14.4,"dewp":-7.8,"wdir":0,"wspd":0,"visib":"10+","altim":1020.4,"slp":1016.3,"qcField":14,"metarType":"METAR","rawOb":"METAR KPGA 061553Z AUTO 00000KT 10SM BKN110 14/M08 A3013 RMK AO2 SLP163 T01441078 $","lat":36.9211,"lon":-111.4487,"elev":1310,"name":"Page Muni, AZ, US","cover":"BKN","clouds":[{"cover":"BKN","base":11000}],"fltCat":"VFR"},{"icaoId":"KDVT","receiptTime":"2026-04-06T15:56:33.585Z","obsTime":1775490780,"reportTime":"2026-04-06T16:00:00.000Z","temp":26.1,"dewp":3.3,"wdir":100,"wspd":8,"visib":"10+","altim":1015,"slp":1012.5,"qcField":12,"metarType":"METAR","rawOb":"METAR KDVT 061553Z 10008KT 10SM 26/03 A2997 RMK AO2 SLP125 T02610033 $","lat":33.6902,"lon":-112.0662,"elev":454,"name":"Phoenix/Deer Valley Arpt, AZ, US"},{"icaoId":"KTUS","receiptTime":"2026-04-06T15:56:42.659Z","obsTime":1775490780,"reportTime":"2026-04-06T16:00:00.000Z","temp":21.7,"dewp":4.4,"wdir":110,"wspd":18,"wgst":26,"visib":"10+","altim":1017.7,"slp":1013.5,"qcField":4,"metarType":"METAR","rawOb":"METAR KTUS 061553Z 11018G26KT 10SM CLR 22/04 A3005 RMK AO2 PK WND 12026/1553 SLP135 T02170044","lat":32.1315,"lon":-110.9564,"elev":776,"name":"Tucson Intl Arpt, AZ, US","cover":"CLR","clouds":[],"fltCat":"VFR"},{"icaoId":"KPRC","receiptTime":"2026-04-06T15:56:43.601Z","obsTime":1775490780,"reportTime":"2026-04-06T16:00:00.000Z","temp":16.7,"dewp":-0.6,"wdir":120,"wspd":12,"wgst":17,"visib":"10+","altim":1020.4,"slp":1013.8,"qcField":4,"metarType":"METAR","rawOb":"METAR KPRC 061553Z 12012G17KT 10SM FEW110 17/M01 A3013 RMK AO2 SLP138 T01671006","lat":34.6491,"lon":-112.4223,"elev":1528,"name":"Prescott/Love Fld, AZ, US","cover":"FEW","clouds":[{"cover":"FEW","base":11000}],"fltCat":"VFR"},{"icaoId":"KPHX","receiptTime":"2026-04-06T15:54:07.708Z","obsTime":1775490660,"reportTime":"2026-04-06T16:00:00.000Z","temp":26.7,"dewp":4.4,"wdir":120,"wspd":11,"visib":"10+","altim":1014,"slp":1012,"qcField":4,"metarType":"METAR","rawOb":"METAR KPHX 061551Z 12011KT 10SM FEW140 FEW170 OVC250 27/04 A2994 RMK AO2 SLP120 T02670044","lat":33.4278,"lon":-112.0037,"elev":338,"name":"Phoenix/Sky Harbor Intl, AZ, US","cover":"OVC","clouds":[{"cover":"FEW","base":14000},{"cover":"FEW","base":17000},{"cover":"OVC","base":25000}],"fltCat":"VFR"},{"icaoId":"KIGM","receiptTime":"2026-04-06T15:54:07.556Z","obsTime":1775490660,"reportTime":"2026-04-06T16:00:00.000Z","temp":20,"dewp":-7.2,"wdir":230,"wspd":6,"visib":"10+","altim":1017,"slp":1010.8,"qcField":6,"metarType":"METAR","rawOb":"METAR KIGM 061551Z AUTO 23006KT 10SM CLR 20/M07 A3003 RMK AO2 SLP108 T02001072","lat":35.2575,"lon":-113.9341,"elev":1045,"name":"Kingman Arpt, AZ, US","cover":"CLR","clouds":[],"fltCat":"VFR"},{"icaoId":"KSAD","receiptTime":"2026-04-06T15:54:07.805Z","obsTime":1775490660,"reportTime":"2026-04-06T16:00:00.000Z","temp":16.7,"dewp":0.6,"wdir":150,"wspd":13,"wgst":19,"visib":"10+","altim":1022.4,"slp":1018.5,"qcField":6,"precip":0.005,"metarType":"METAR","rawOb":"METAR KSAD 061551Z AUTO 15013G19KT 10SM FEW055 SCT110 17/01 A3019 RMK AO2 RAB18E31 SLP185 P0000 T01670006","lat":32.8565,"lon":-109.636,"elev":937,"name":"Safford Rgnl, AZ, US","cover":"SCT","clouds":[{"cover":"FEW","base":5500},{"cover":"SCT","base":11000}],"fltCat":"VFR"},{"icaoId":"KGEU","receiptTime":"2026-04-06T15:51:54.447Z","obsTime":1775490600,"reportTime":"2026-04-06T16:00:00.000Z","temp":26,"dewp":4,"wdir":60,"wspd":8,"visib":"10+","altim":1013.6,"qcField":0,"metarType":"METAR","rawOb":"METAR KGEU 061550Z 06008KT 10SM FEW140 SCT360 26/04 A2993","lat":33.528,"lon":-112.293,"elev":319,"name":"Glendale Muni, AZ, US","cover":"SCT","clouds":[{"cover":"FEW","base":14000},{"cover":"SCT","base":36000}],"fltCat":"VFR"},{"icaoId":"KIWA","receiptTime":"2026-04-06T15:51:54.498Z","obsTime":1775490600,"reportTime":"2026-04-06T16:00:00.000Z","temp":25,"dewp":3,"wdir":110,"wspd":17,"visib":"10+","altim":1015,"qcField":0,"metarType":"METAR","rawOb":"METAR KIWA 061550Z 11017KT 10SM CLR 25/03 A2997","lat":33.3008,"lon":-111.6437,"elev":420,"name":"Phoenix/Mesa Gateway Arpt, AZ, US","cover":"CLR","clouds":[],"fltCat":"VFR"},{"icaoId":"KGYR","receiptTime":"2026-04-06T15:49:37.142Z","obsTime":1775490420,"reportTime":"2026-04-06T16:00:00.000Z","temp":26,"dewp":6,"wdir":100,"wspd":9,"visib":"10+","altim":1014.3,"qcField":0,"metarType":"METAR","rawOb":"METAR KGYR 061547Z 10009KT 10SM SCT140 BKN200 26/06 A2995","lat":33.428,"lon":-112.368,"elev":292,"name":"Phoenix/Goodyear Muni, AZ, US","cover":"BKN","clouds":[{"cover":"SCT","base":14000},{"cover":"BKN","base":20000}],"fltCat":"VFR"},{"icaoId":"KCHD","receiptTime":"2026-04-06T15:51:54.417Z","obsTime":1775490420,"reportTime":"2026-04-06T16:00:00.000Z","temp":24,"dewp":7,"wdir":100,"wspd":10,"visib":"10+","altim":1015,"qcField":0,"metarType":"METAR","rawOb":"METAR KCHD 061547Z 10010KT 10SM SCT140 BKN180 24/07 A2997","lat":33.2669,"lon":-111.8086,"elev":378,"name":"Chandler Muni, AZ, US","cover":"BKN","clouds":[{"cover":"SCT","base":14000},{"cover":"BKN","base":18000}],"fltCat":"VFR"},{"icaoId":"KIFP","receiptTime":"2026-04-06T15:48:19.595Z","obsTime":1775490420,"reportTime":"2026-04-06T16:00:00.000Z","temp":22,"dewp":-6,"visib":"10+","altim":1012.6,"qcField":0,"metarType":"METAR","rawOb":"METAR KIFP 061547Z CALMKT 10SM CLR 22/M06 A2990","lat":35.1487,"lon":-114.5611,"elev":210,"name":"Bullhead City Intl, AZ, US","cover":"CLR","clouds":[],"fltCat":"VFR"},{"icaoId":"KRYN","receiptTime":"2026-04-06T15:45:53.857Z","obsTime":1775490300,"reportTime":"2026-04-06T16:00:00.000Z","temp":23,"dewp":4,"wdir":90,"wspd":16,"visib":"10+","altim":1016.3,"qcField":0,"metarType":"METAR","rawOb":"METAR KRYN 061545Z 09016KT 10SM CLR 23/04 A3001","lat":32.1418,"lon":-111.1767,"elev":731,"name":"Tucson/Ryan Fld, AZ, US","cover":"CLR","clouds":[],"fltCat":"VFR"},{"icaoId":"KNYL","receiptTime":"2026-04-06T15:00:32.783Z","obsTime":1775487420,"reportTime":"2026-04-06T15:00:00.000Z","temp":21.7,"dewp":-0.6,"wdir":190,"wspd":4,"visib":"10+","altim":1011.9,"slp":1011.5,"qcField":12,"presTend":1.1,"metarType":"METAR","rawOb":"METAR KNYL 061457Z 19004KT 10SM OVC120 22/M01 A2988 RMK AO2 SLP115 T02171006 53011 $","lat":32.66,"lon":-114.6078,"elev":58,"name":"Yuma , AZ, US","cover":"OVC","clouds":[{"cover":"OVC","base":12000}],"fltCat":"VFR"}]