[{"icaoId":"KAUS","receiptTime":"2026-04-14T04:22:04.318Z","obsTime":1776140280,"reportTime":"2026-04-14T04:18:00.000Z","temp":23.3,"dewp":20,"wdir":170,"wspd":12,"visib":"10+","altim":1017.7,"qcField":4,"metarType":"SPECI","rawOb":"SPECI KAUS 140418Z 17012KT 10SM BKN019 23/20 A3005 RMK AO2 T02330200","lat":30.1831,"lon":-97.6806,"elev":148,"name":"Austin/Bergstrom Intl, TX, US","cover":"BKN","clouds":[{"cover":"BKN","base":1900}],"fltCat":"MVFR"},{"icaoId":"KMLF","receiptTime":"2026-04-14T04:22:04.483Z","obsTime":1776140280,"reportTime":"2026-04-14T04:18:00.000Z","temp":5.6,"dewp":4.4,"wdir":0,"wspd":0,"visib":6,"altim":1013.6,"qcField":6,"wxString":"-RA BR","precip":0.02,"metarType":"SPECI","rawOb":"SPECI KMLF 140418Z AUTO 00000KT 6SM -RA BR BKN024 OVC036 06/04 A2993 RMK AO2 P0002 T00560044","lat":38.4225,"lon":-113.0109,"elev":1537,"name":"Milford Muni, UT, US","cover":"OVC","clouds":[{"cover":"BKN","base":2400},{"cover":"OVC","base":3600}],"fltCat":"MVFR"},{"icaoId":"KRTS","receiptTime":"2026-04-14T04:20:27.427Z","obsTime":1776140100,"reportTime":"2026-04-14T04:15:00.000Z","temp":6,"dewp":-2,"wdir":290,"wspd":10,"visib":"10+","altim":1018.7,"qcField":6,"metarType":"METAR","rawOb":"METAR KRTS 140415Z AUTO 29010KT 10SM CLR 06/M02 A3008 RMK AO2","lat":39.6658,"lon":-119.8731,"elev":1537,"name":"Reno/Stead Arpt, NV, US","cover":"CLR","clouds":[],"fltCat":"VFR"},{"icaoId":"KMEV","receiptTime":"2026-04-14T04:20:27.282Z","obsTime":1776140100,"reportTime":"2026-04-14T04:15:00.000Z","temp":3,"dewp":-1,"wdir":120,"wspd":6,"visib":"10+","altim":1018,"qcField":6,"metarType":"METAR","rawOb":"METAR KMEV 140415Z AUTO 12006KT 10SM FEW060 03/M01 A3006 RMK AO2","lat":38.9963,"lon":-119.75,"elev":1437,"name":"Minden-Tahoe Arpt, NV, US","cover":"FEW","clouds":[{"cover":"FEW","base":6000}],"fltCat":"VFR"},{"icaoId":"KPRC","receiptTime":"2026-04-14T04:18:15.587Z","obsTime":1776140100,"reportTime":"2026-04-14T04:15:00.000Z","temp":6.7,"dewp":3.9,"visib":"10+","altim":1015.7,"qcField":4,"wxString":"-RA","precip":0.01,"metarType":"SPECI","rawOb":"SPECI KPRC 140415Z 10SM -RA BKN030 BKN047 OVC065 07/04 A2999 RMK AO2 P0001 T00670039","lat":34.6491,"lon":-112.4223,"elev":1528,"name":"Prescott/Love Fld, AZ, US","cover":"OVC","clouds":[{"cover":"BKN","base":3000},{"cover":"BKN","base":4700},{"cover":"OVC","base":6500}],"fltCat":"MVFR"},{"icaoId":"KBCE","receiptTime":"2026-04-14T04:18:15.547Z","obsTime":1776140100,"reportTime":"2026-04-14T04:15:00.000Z","temp":1.1,"dewp":0.6,"wdir":0,"wspd":0,"visib":"10+","altim":1014.3,"qcField":6,"wxString":"-RA","precip":0.005,"metarType":"SPECI","rawOb":"SPECI KBCE 140415Z AUTO 00000KT 10SM -RA BKN009 OVC020 01/01 A2995 RMK AO2 RAB08 P0000 T00110006","lat":37.7013,"lon":-112.149,"elev":2311,"name":"Bryce Canyon Arpt, UT, US","cover":"OVC","clouds":[{"cover":"BKN","base":900},{"cover":"OVC","base":2000}],"fltCat":"IFR"},{"icaoId":"KCHD","receiptTime":"2026-04-14T04:18:05.284Z","obsTime":1776140100,"reportTime":"2026-04-14T04:15:00.000Z","temp":21,"dewp":5.8,"wdir":270,"wspd":14,"visib":"10+","altim":1013,"qcField":14,"metarType":"METAR","rawOb":"METAR KCHD 140415Z AUTO 27014KT 10SM BKN080 BKN110 21/06 A2991 RMK AO2 T02100058 $","lat":33.2669,"lon":-111.8086,"elev":378,"name":"Chandler Muni, AZ, US","cover":"BKN","clouds":[{"cover":"BKN","base":8000},{"cover":"BKN","base":11000}],"fltCat":"VFR"},{"icaoId":"KHCR","receiptTime":"2026-04-14T04:18:06.463Z","obsTime":1776140100,"reportTime":"2026-04-14T04:15:00.000Z","temp":4.3,"dewp":0,"wdir":110,"wspd":4,"visib":"10+","altim":1014,"qcField":14,"metarType":"METAR","rawOb":"METAR KHCR 140415Z AUTO 11004KT 10SM CLR 04/M00 A2994 RMK AO2 T00431000 $","lat":40.4774,"lon":-111.4329,"elev":1708,"name":"Heber City Muni, UT, US","cover":"CLR","clouds":[],"fltCat":"VFR"},{"icaoId":"KLRU","receiptTime":"2026-04-14T04:18:12.740Z","obsTime":1776140100,"reportTime":"2026-04-14T04:15:00.000Z","temp":17.5,"dewp":1.5,"wdir":250,"wspd":7,"visib":"10+","altim":1018.4,"qcField":6,"metarType":"METAR","rawOb":"METAR KLRU 140415Z AUTO 25007KT 10SM SCT120 18/02 A3007 RMK AO2 T01750015","lat":32.2884,"lon":-106.9131,"elev":1355,"name":"Las Cruces Intl, NM, US","cover":"SCT","clouds":[{"cover":"SCT","base":12000}],"fltCat":"VFR"},{"icaoId":"KBVU","receiptTime":"2026-04-14T04:16:06.635Z","obsTime":1776140100,"reportTime":"2026-04-14T04:15:00.000Z","temp":15,"dewp":-2,"wdir":250,"wspd":7,"wgst":17,"visib":"10+","altim":1012.3,"qcField":6,"metarType":"METAR","rawOb":"METAR KBVU 140415Z AUTO 25007G17KT 10SM CLR 15/M02 A2989 RMK AO2","lat":35.9489,"lon":-114.8633,"elev":654,"name":"Boulder City Muni, NV, US","cover":"CLR","clouds":[],"fltCat":"VFR"},{"icaoId":"KMHR","receiptTime":"2026-04-14T04:20:29.012Z","obsTime":1776140100,"reportTime":"2026-04-14T04:15:00.000Z","temp":12,"dewp":10,"wdir":190,"wspd":6,"visib":"10+","altim":1018.4,"qcField":6,"metarType":"METAR","rawOb":"METAR KMHR 140415Z AUTO 19006KT 10SM CLR 12/10 A3007 RMK AO2","lat":38.56,"lon":-121.284,"elev":30,"name":"Sacramento/Mather Fld, CA, US","cover":"CLR","clouds":[],"fltCat":"VFR"},{"icaoId":"KHAF","receiptTime":"2026-04-14T04:18:13.466Z","obsTime":1776140100,"reportTime":"2026-04-14T04:15:00.000Z","temp":12,"dewp":11,"wdir":340,"wspd":12,"visib":"10+","altim":1020.7,"qcField":6,"metarType":"METAR","rawOb":"METAR KHAF 140415Z AUTO 34012KT 10SM BKN017 12/11 A3014 RMK AO2","lat":37.5136,"lon":-122.4996,"elev":11,"name":"Half Moon Bay Arpt, CA, US","cover":"BKN","clouds":[{"cover":"BKN","base":1700}],"fltCat":"MVFR"},{"icaoId":"KCXP","receiptTime":"2026-04-14T04:20:34.883Z","obsTime":1776140100,"reportTime":"2026-04-14T04:15:00.000Z","temp":8,"dewp":-2,"wdir":260,"wspd":6,"wgst":11,"visib":"10+","altim":1018.4,"qcField":6,"metarType":"METAR","rawOb":"METAR KCXP 140415Z AUTO 26006G11KT 10SM CLR 08/M02 A3007 RMK AO2","lat":39.1905,"lon":-119.7319,"elev":1431,"name":"Carson City Arpt, NV, US","cover":"CLR","clouds":[],"fltCat":"VFR"},{"icaoId":"KHII","receiptTime":"2026-04-14T04:22:04.838Z","obsTime":1776140100,"reportTime":"2026-04-14T04:15:00.000Z","temp":19,"dewp":0,"wdir":260,"wspd":6,"wgst":13,"visib":"10+","altim":1013.3,"qcField":6,"metarType":"METAR","rawOb":"METAR KHII 140415Z AUTO 26006G13KT 10SM BKN110 19/00 A2992 RMK AO2","lat":34.5659,"lon":-114.3522,"elev":241,"name":"Lake Havasu City Arpt, AZ, US","cover":"BKN","clouds":[{"cover":"BKN","base":11000}],"fltCat":"VFR"},{"icaoId":"KBJC","receiptTime":"2026-04-14T04:20:34.239Z","obsTime":1776140100,"reportTime":"2026-04-14T04:15:00.000Z","temp":16,"dewp":-9,"wdir":10,"wspd":5,"visib":"10+","altim":1011.3,"qcField":6,"metarType":"METAR","rawOb":"METAR KBJC 140415Z AUTO 01005KT 10SM SCT110 16/M09 A2986 RMK AO2","lat":39.9008,"lon":-105.1042,"elev":1694,"name":"Rocky Mtn Metro, CO, US","cover":"SCT","clouds":[{"cover":"SCT","base":11000}],"fltCat":"VFR"},{"icaoId":"KHTH","receiptTime":"2026-04-14T04:20:25.758Z","obsTime":1776140100,"reportTime":"2026-04-14T04:15:00.000Z","temp":10,"dewp":-5,"wdir":340,"wspd":6,"visib":"10+","altim":1016.7,"qcField":6,"metarType":"METAR","rawOb":"METAR KHTH 140415Z AUTO 34006KT 10SM BKN075 OVC085 10/M05 A3002 RMK A01","lat":38.5448,"lon":-118.6314,"elev":1281,"name":"Hawthorne Muni, NV, US","cover":"OVC","clouds":[{"cover":"BKN","base":7500},{"cover":"OVC","base":8500}],"fltCat":"VFR"},{"icaoId":"KSEZ","receiptTime":"2026-04-14T04:20:27.924Z","obsTime":1776140100,"reportTime":"2026-04-14T04:15:00.000Z","temp":8,"dewp":7,"wdir":0,"wspd":0,"visib":3,"altim":1015.3,"qcField":6,"wxString":"-RA BR","metarType":"METAR","rawOb":"METAR KSEZ 140415Z AUTO 00000KT 3SM -RA BR SCT015 BKN020 OVC050 08/07 A2998 RMK AO2","lat":34.8467,"lon":-111.7884,"elev":1455,"name":"Sedona Arpt, AZ, US","cover":"OVC","clouds":[{"cover":"SCT","base":1500},{"cover":"BKN","base":2000},{"cover":"OVC","base":5000}],"fltCat":"MVFR"},{"icaoId":"KSOW","receiptTime":"2026-04-14T04:18:08.347Z","obsTime":1776140100,"reportTime":"2026-04-14T04:15:00.000Z","temp":10,"dewp":2,"wdir":200,"wspd":21,"wgst":36,"visib":"10+","altim":1016,"qcField":6,"metarType":"METAR","rawOb":"METAR KSOW 140415Z AUTO 20021G36KT 10SM CLR 10/02 A3000 RMK AO2","lat":34.2686,"lon":-110.0019,"elev":1954,"name":"Show Low Muni, AZ, US","cover":"CLR","clouds":[],"fltCat":"VFR"},{"icaoId":"KIFP","receiptTime":"2026-04-14T04:20:25.998Z","obsTime":1776140100,"reportTime":"2026-04-14T04:15:00.000Z","temp":19,"dewp":0,"wdir":200,"wspd":11,"wgst":16,"visib":"10+","altim":1012.3,"qcField":6,"metarType":"METAR","rawOb":"METAR KIFP 140415Z AUTO 20011G16KT 10SM SCT070 BKN080 OVC120 19/M00 A2989 RMK AO2","lat":35.1487,"lon":-114.5611,"elev":210,"name":"Bullhead City Intl, AZ, US","cover":"OVC","clouds":[{"cover":"SCT","base":7000},{"cover":"BKN","base":8000},{"cover":"OVC","base":12000}],"fltCat":"VFR"},{"icaoId":"KFLG","receiptTime":"2026-04-14T04:14:13.799Z","obsTime":1776139800,"reportTime":"2026-04-14T04:10:00.000Z","temp":3.3,"dewp":1.7,"wdir":230,"wspd":10,"wgst":18,"visib":"10+","altim":1015.7,"qcField":14,"precip":0.005,"metarType":"SPECI","rawOb":"SPECI KFLG 140410Z AUTO 23010G18KT 10SM SCT012 BKN026 OVC049 03/02 A2999 RMK AO2 RAE04UPB04E06 P0000 T00330017 $","lat":35.1443,"lon":-111.6664,"elev":2134,"name":"Flagstaff/Pulliam Arpt, AZ, US","cover":"OVC","clouds":[{"cover":"SCT","base":1200},{"cover":"BKN","base":2600},{"cover":"OVC","base":4900}],"fltCat":"MVFR"},{"icaoId":"KPAE","receiptTime":"2026-04-14T04:12:10.538Z","obsTime":1776139740,"reportTime":"2026-04-14T04:09:00.000Z","temp":7.2,"dewp":6.1,"wdir":60,"wspd":4,"visib":"10+","altim":1019,"qcField":6,"metarType":"SPECI","rawOb":"SPECI KPAE 140409Z AUTO 06004KT 10SM BKN022 OVC028 07/06 A3009 RMK AO2 T00720061","lat":47.9232,"lon":-122.2831,"elev":166,"name":"Everett/Paine Fld, WA, US","cover":"OVC","clouds":[{"cover":"BKN","base":2200},{"cover":"OVC","base":2800}],"fltCat":"MVFR"},{"icaoId":"KGCN","receiptTime":"2026-04-14T04:10:08.514Z","obsTime":1776139620,"reportTime":"2026-04-14T04:07:00.000Z","temp":3.3,"dewp":1.7,"wdir":230,"wspd":11,"visib":"10+","altim":1015.3,"qcField":6,"wxString":"-RA","precip":0.005,"metarType":"SPECI","rawOb":"SPECI KGCN 140407Z AUTO 23011KT 10SM -RA FEW010 BKN026 OVC070 03/02 A2998 RMK AO2 P0000 T00330017","lat":35.9458,"lon":-112.1554,"elev":1993,"name":"Grand Canyon Park Arpt, AZ, US","cover":"OVC","clouds":[{"cover":"FEW","base":1000},{"cover":"BKN","base":2600},{"cover":"OVC","base":7000}],"fltCat":"MVFR"},{"icaoId":"KCNY","receiptTime":"2026-04-14T04:06:08.217Z","obsTime":1776139380,"reportTime":"2026-04-14T04:03:00.000Z","temp":12.8,"dewp":-0.6,"wdir":200,"wspd":10,"wgst":19,"visib":"10+","altim":1011.3,"qcField":14,"metarType":"SPECI","rawOb":"SPECI KCNY 140403Z AUTO 20010G19KT 10SM BKN070 OVC090 13/M01 A2986 RMK AO2 WSHFT 0349 PRESRR T01281006 $","lat":38.7501,"lon":-109.7627,"elev":1392,"name":"Moab/Canyonland Fld, UT, US","cover":"OVC","clouds":[{"cover":"BKN","base":7000},{"cover":"OVC","base":9000}],"fltCat":"VFR"},{"icaoId":"KNYL","receiptTime":"2026-04-14T04:00:37.390Z","obsTime":1776139020,"reportTime":"2026-04-14T04:00:00.000Z","temp":18.3,"dewp":3.3,"wdir":280,"wspd":16,"wgst":24,"visib":"10+","altim":1014.3,"slp":1014,"qcField":4,"wxString":"BLDU","metarType":"METAR","rawOb":"METAR KNYL 140357Z 28016G24KT 10SM BLDU CLR 18/03 A2995 RMK AO2 SLP140 T01830033","lat":32.66,"lon":-114.6078,"elev":58,"name":"Yuma , AZ, US","cover":"CLR","clouds":[],"fltCat":"VFR"},{"icaoId":"KNFL","receiptTime":"2026-04-14T04:00:37.407Z","obsTime":1776139020,"reportTime":"2026-04-14T04:00:00.000Z","temp":10.6,"dewp":-7.2,"wdir":300,"wspd":8,"visib":"10+","altim":1016,"slp":1013,"qcField":4,"metarType":"METAR","rawOb":"METAR KNFL 140357Z 30008KT 10SM SCT080 11/M07 A3000 RMK AO2 SLP130 T01061072","lat":39.417,"lon":-118.705,"elev":1199,"name":"Fallon , NV, US","cover":"SCT","clouds":[{"cover":"SCT","base":8000}],"fltCat":"VFR"},{"icaoId":"KDUG","receiptTime":"2026-04-14T04:02:07.402Z","obsTime":1776138960,"reportTime":"2026-04-14T04:00:00.000Z","temp":19.4,"dewp":0.6,"wdir":220,"wspd":13,"visib":"10+","altim":1017.7,"slp":1012.1,"qcField":38,"metarType":"METAR","rawOb":"METAR KDUG 140356Z AUTO 22013KT 10SM BKN120 19/01 A3005 RMK AO2 SLP121 T01940006 TSNO","lat":31.4725,"lon":-109.6022,"elev":1260,"name":"Douglas/Bisbee Intl, AZ, US","cover":"BKN","clouds":[{"cover":"BKN","base":12000}],"fltCat":"VFR"},{"icaoId":"KHND","receiptTime":"2026-04-14T03:58:24.934Z","obsTime":1776138960,"reportTime":"2026-04-14T04:00:00.000Z","temp":14.4,"dewp":-0.6,"wdir":250,"wspd":8,"visib":"10+","altim":1013.6,"slp":1014.2,"qcField":14,"metarType":"METAR","rawOb":"METAR KHND 140356Z AUTO 25008KT 10SM SCT100 14/M01 A2993 RMK AO2 SLP142 T01441006 $","lat":35.9657,"lon":-115.1343,"elev":740,"name":"Henderson Exec, NV, US","cover":"SCT","clouds":[{"cover":"SCT","base":10000}],"fltCat":"VFR"},{"icaoId":"KHDN","receiptTime":"2026-04-14T03:58:24.875Z","obsTime":1776138960,"reportTime":"2026-04-14T04:00:00.000Z","temp":6.1,"dewp":-3.9,"wdir":140,"wspd":4,"visib":"10+","altim":1014.3,"slp":1011.4,"qcField":6,"metarType":"METAR","rawOb":"METAR KHDN 140356Z AUTO 14004KT 10SM CLR 06/M04 A2995 RMK AO2 SLP114 T00611039","lat":40.4842,"lon":-107.2296,"elev":2012,"name":"Hayden/Yampa Valley Arpt, CO, US","cover":"CLR","clouds":[],"fltCat":"VFR"},{"icaoId":"KCGZ","receiptTime":"2026-04-14T03:58:26.103Z","obsTime":1776138960,"reportTime":"2026-04-14T04:00:00.000Z","temp":20.6,"dewp":5.6,"visib":"10+","qcField":14,"metarType":"METAR","rawOb":"METAR KCGZ 140356Z AUTO 10SM SCT075 BKN100 21/06 RMK AO2 SLPNO T02060056 $","lat":32.9531,"lon":-111.7725,"elev":444,"name":"Casa Granda Muni, AZ, US","cover":"BKN","clouds":[{"cover":"SCT","base":7500},{"cover":"BKN","base":10000}],"fltCat":"VFR"},{"icaoId":"KSFO","receiptTime":"2026-04-14T04:00:10.708Z","obsTime":1776138960,"reportTime":"2026-04-14T04:00:00.000Z","temp":12.8,"dewp":8.9,"wdir":270,"wspd":17,"visib":"10+","altim":1020.1,"slp":1020,"qcField":12,"metarType":"METAR","rawOb":"METAR KSFO 140356Z 27017KT 10SM FEW035 13/09 A3012 RMK AO2 SLP200 T01280089 $","lat":37.6196,"lon":-122.3656,"elev":2,"name":"San Francisco Intl, CA, US","cover":"FEW","clouds":[{"cover":"FEW","base":3500}],"fltCat":"VFR"},{"icaoId":"KJAX","receiptTime":"2026-04-14T04:00:10.298Z","obsTime":1776138960,"reportTime":"2026-04-14T04:00:00.000Z","temp":16.7,"dewp":15,"wdir":0,"wspd":0,"visib":"10+","altim":1024.5,"slp":1024.3,"qcField":12,"metarType":"METAR","rawOb":"METAR KJAX 140356Z 00000KT 10SM BKN250 17/15 A3025 RMK AO2 SLP243 T01670150 $","lat":30.4953,"lon":-81.6937,"elev":8,"name":"Jacksonville Intl, FL, US","cover":"BKN","clouds":[{"cover":"BKN","base":25000}],"fltCat":"VFR"},{"icaoId":"KVIS","receiptTime":"2026-04-14T03:58:19.985Z","obsTime":1776138960,"reportTime":"2026-04-14T04:00:00.000Z","temp":13.9,"dewp":8.3,"wdir":0,"wspd":0,"visib":"10+","altim":1019,"slp":1018.9,"qcField":14,"metarType":"METAR","rawOb":"METAR KVIS 140356Z AUTO 00000KT 10SM CLR 14/08 A3009 RMK AO2 SLP189 T01390083 PNO $","lat":36.3135,"lon":-119.3884,"elev":92,"name":"Visalia Muni, CA, US","cover":"CLR","clouds":[],"fltCat":"VFR"},{"icaoId":"KSDY","receiptTime":"2026-04-14T03:58:22.790Z","obsTime":1776138960,"reportTime":"2026-04-14T04:00:00.000Z","temp":8.9,"dewp":7.2,"wdir":150,"wspd":5,"visib":"10+","altim":1006.5,"slp":1007.7,"qcField":14,"precip":0.005,"metarType":"METAR","rawOb":"METAR KSDY 140356Z AUTO 15005KT 10SM OVC012 09/07 A2972 RMK AO2 RAE27 SLP077 P0000 T00890072 $","lat":47.7029,"lon":-104.1951,"elev":600,"name":"Sidney/Richland Muni, MT, US","cover":"OVC","clouds":[{"cover":"OVC","base":1200}],"fltCat":"MVFR"},{"icaoId":"KSGU","receiptTime":"2026-04-14T03:58:22.888Z","obsTime":1776138960,"reportTime":"2026-04-14T04:00:00.000Z","temp":10,"dewp":6.1,"wdir":"VRB","wspd":4,"visib":"10+","altim":1014,"slp":1012.8,"qcField":6,"wxString":"-RA","precip":0.03,"metarType":"METAR","rawOb":"METAR KSGU 140356Z AUTO VRB04KT 10SM -RA BKN048 OVC060 10/06 A2994 RMK AO2 SLP128 P0003 T01000061","lat":37.0444,"lon":-113.5034,"elev":877,"name":"Saint George Muni, UT, US","cover":"OVC","clouds":[{"cover":"BKN","base":4800},{"cover":"OVC","base":6000}],"fltCat":"VFR"},{"icaoId":"KLAS","receiptTime":"2026-04-14T04:00:27.296Z","obsTime":1776138960,"reportTime":"2026-04-14T04:00:00.000Z","temp":15.6,"dewp":0,"wdir":240,"wspd":11,"visib":"10+","altim":1013,"slp":1011.7,"qcField":4,"metarType":"METAR","rawOb":"METAR KLAS 140356Z 24011KT 10SM SCT060 BKN100 16/00 A2991 RMK AO2 WSHFT 0307 SLP117 T01560000","lat":36.0719,"lon":-115.1634,"elev":662,"name":"Las Vegas/Reid Intl, NV, US","cover":"BKN","clouds":[{"cover":"SCT","base":6000},{"cover":"BKN","base":10000}],"fltCat":"VFR"},{"icaoId":"KINW","receiptTime":"2026-04-14T04:00:10.284Z","obsTime":1776138960,"reportTime":"2026-04-14T04:00:00.000Z","temp":12.2,"dewp":1.1,"wdir":200,"wspd":19,"wgst":28,"visib":"10+","altim":1013.3,"slp":1009.3,"qcField":6,"metarType":"METAR","rawOb":"METAR KINW 140356Z AUTO 20019G28KT 10SM CLR 12/01 A2992 RMK AO2 PK WND 21032/0336 SLP093 T01220011","lat":35.0279,"lon":-110.7221,"elev":1492,"name":"Winslow/Lindberg Rgnl, AZ, US","cover":"CLR","clouds":[],"fltCat":"VFR"},{"icaoId":"KEKO","receiptTime":"2026-04-14T04:00:24.047Z","obsTime":1776138960,"reportTime":"2026-04-14T04:00:00.000Z","temp":6.7,"dewp":-3.9,"wdir":0,"wspd":0,"visib":"10+","altim":1015.3,"slp":1014.8,"qcField":6,"metarType":"METAR","rawOb":"METAR KEKO 140356Z AUTO 00000KT 10SM SCT070 07/M04 A2998 RMK AO2 SLP148 T00671039","lat":40.824,"lon":-115.7863,"elev":1541,"name":"Elko Rgnl, NV, US","cover":"SCT","clouds":[{"cover":"SCT","base":7000}],"fltCat":"VFR"},{"icaoId":"KLWS","receiptTime":"2026-04-14T04:00:10.311Z","obsTime":1776138960,"reportTime":"2026-04-14T04:00:00.000Z","temp":10,"dewp":6.7,"wdir":90,"wspd":7,"visib":"10+","altim":1014.6,"slp":1015,"qcField":12,"metarType":"METAR","rawOb":"METAR KLWS 140356Z 09007KT 10SM FEW075 10/07 A2996 RMK AO2 SLP150 T01000067 $","lat":46.3746,"lon":-117.0153,"elev":435,"name":"Lewiston/Nez Perce Cnty, ID, US","cover":"FEW","clouds":[{"cover":"FEW","base":7500}],"fltCat":"VFR"},{"icaoId":"KJAC","receiptTime":"2026-04-14T03:58:25.229Z","obsTime":1776138960,"reportTime":"2026-04-14T04:00:00.000Z","temp":-0.6,"dewp":-1.1,"wdir":190,"wspd":5,"visib":3,"altim":1015,"slp":1017.1,"qcField":6,"wxString":"-SN BR","precip":0.02,"metarType":"METAR","rawOb":"METAR KJAC 140356Z AUTO 19005KT 3SM -SN BR BKN004 OVC009 M01/M01 A2997 RMK AO2 SLP171 P0002 T10061011","lat":43.6129,"lon":-110.7366,"elev":1967,"name":"Jackson Hole Arpt, WY, US","cover":"OVC","clouds":[{"cover":"BKN","base":400},{"cover":"OVC","base":900}],"fltCat":"LIFR"},{"icaoId":"KPWT","receiptTime":"2026-04-14T03:58:22.244Z","obsTime":1776138960,"reportTime":"2026-04-14T04:00:00.000Z","temp":7.8,"dewp":3.9,"wdir":190,"wspd":9,"wgst":19,"visib":"10+","altim":1018.7,"slp":1019.1,"qcField":6,"metarType":"METAR","rawOb":"METAR KPWT 140356Z AUTO 19009G19KT 10SM CLR 08/04 A3008 RMK AO2 SLP191 T00780039","lat":47.4942,"lon":-122.7594,"elev":143,"name":"Bremerton Arpt, WA, US","cover":"CLR","clouds":[],"fltCat":"VFR"},{"icaoId":"KRDM","receiptTime":"2026-04-14T04:00:22.526Z","obsTime":1776138960,"reportTime":"2026-04-14T04:00:00.000Z","temp":5,"dewp":-0.6,"wdir":330,"wspd":4,"visib":"10+","altim":1017.7,"slp":1018.1,"qcField":4,"metarType":"METAR","rawOb":"METAR KRDM 140356Z 33004KT 10SM CLR 05/M01 A3005 RMK AO2 SLP181 T00501006","lat":44.2558,"lon":-121.1407,"elev":930,"name":"Redmond Muni, OR, US","cover":"CLR","clouds":[],"fltCat":"VFR"},{"icaoId":"KSBP","receiptTime":"2026-04-14T04:00:22.830Z","obsTime":1776138960,"reportTime":"2026-04-14T04:00:00.000Z","temp":12.8,"dewp":9.4,"wdir":320,"wspd":8,"visib":"10+","altim":1019.4,"slp":1019.2,"qcField":6,"metarType":"METAR","rawOb":"METAR KSBP 140356Z AUTO 32008KT 10SM CLR 13/09 A3010 RMK AO2 SLP192 T01280094","lat":35.2381,"lon":-120.644,"elev":52,"name":"San Luis Obispo/San Luis Cnty, CA, US","cover":"CLR","clouds":[],"fltCat":"VFR"},{"icaoId":"KSDF","receiptTime":"2026-04-14T04:00:22.882Z","obsTime":1776138960,"reportTime":"2026-04-14T04:00:00.000Z","temp":22.2,"dewp":14.4,"wdir":170,"wspd":10,"visib":"10+","altim":1017.7,"slp":1017.1,"qcField":4,"metarType":"METAR","rawOb":"METAR KSDF 140356Z 17010KT 10SM FEW055 FEW250 22/14 A3005 RMK AO2 SLP171 T02220144","lat":38.1774,"lon":-85.7308,"elev":146,"name":"Louisville Intl, KY, US","cover":"FEW","clouds":[{"cover":"FEW","base":5500},{"cover":"FEW","base":25000}],"fltCat":"VFR"},{"icaoId":"KSLE","receiptTime":"2026-04-14T04:00:22.943Z","obsTime":1776138960,"reportTime":"2026-04-14T04:00:00.000Z","temp":8.9,"dewp":3.3,"wdir":270,"wspd":5,"visib":"10+","altim":1022.1,"slp":1021.9,"qcField":6,"metarType":"METAR","rawOb":"METAR KSLE 140356Z AUTO 27005KT 10SM FEW060 09/03 A3018 RMK AO2 SLP219 T00890033","lat":44.9049,"lon":-123.001,"elev":63,"name":"Salem Muni, OR, US","cover":"FEW","clouds":[{"cover":"FEW","base":6000}],"fltCat":"VFR"},{"icaoId":"KCEC","receiptTime":"2026-04-14T04:00:23.594Z","obsTime":1776138960,"reportTime":"2026-04-14T04:00:00.000Z","temp":9.4,"dewp":5,"wdir":330,"wspd":7,"visib":"10+","altim":1023.8,"slp":1023.6,"qcField":14,"metarType":"METAR","rawOb":"METAR KCEC 140356Z AUTO 33007KT 10SM CLR 09/05 A3023 RMK AO2 SLP236 T00940050 $","lat":41.7836,"lon":-124.238,"elev":17,"name":"Crescent City/McNama, CA, US","cover":"CLR","clouds":[],"fltCat":"VFR"},{"icaoId":"KTPH","receiptTime":"2026-04-14T04:00:25.139Z","obsTime":1776138960,"reportTime":"2026-04-14T04:00:00.000Z","temp":5.6,"dewp":-0.6,"wdir":20,"wspd":7,"visib":"10+","altim":1015.7,"slp":1014.2,"qcField":6,"metarType":"METAR","rawOb":"METAR KTPH 140356Z AUTO 02007KT 10SM SCT100 06/M01 A2999 RMK AO2 SLP142 T00561006","lat":38.0505,"lon":-117.0906,"elev":1647,"name":"Tonopah Arpt, NV, US","cover":"SCT","clouds":[{"cover":"SCT","base":10000}],"fltCat":"VFR"},{"icaoId":"KUKI","receiptTime":"2026-04-14T04:00:25.242Z","obsTime":1776138960,"reportTime":"2026-04-14T04:00:00.000Z","temp":11.7,"dewp":6.1,"wdir":20,"wspd":7,"visib":"10+","altim":1020.4,"slp":1020.1,"qcField":6,"metarType":"METAR","rawOb":"METAR KUKI 140356Z AUTO 02007KT 10SM CLR 12/06 A3013 RMK AO2 SLP201 T01170061","lat":39.1278,"lon":-123.2001,"elev":183,"name":"Ukiah Muni, CA, US","cover":"CLR","clouds":[],"fltCat":"VFR"},{"icaoId":"KCHS","receiptTime":"2026-04-14T04:00:10.118Z","obsTime":1776138960,"reportTime":"2026-04-14T04:00:00.000Z","temp":18.3,"dewp":15.6,"wdir":200,"wspd":3,"visib":"10+","altim":1024.5,"slp":1024.4,"qcField":4,"metarType":"METAR","rawOb":"METAR KCHS 140356Z 20003KT 10SM SCT200 18/16 A3025 RMK AO2 SLP244 T01830156","lat":32.8995,"lon":-80.0407,"elev":12,"name":"Charleston Intl, SC, US","cover":"SCT","clouds":[{"cover":"SCT","base":20000}],"fltCat":"VFR"},{"icaoId":"KGUC","receiptTime":"2026-04-14T03:58:24.764Z","obsTime":1776138960,"reportTime":"2026-04-14T04:00:00.000Z","temp":7.8,"dewp":-5,"wdir":130,"wspd":4,"visib":"10+","altim":1015.3,"slp":1010.8,"qcField":14,"metarType":"METAR","rawOb":"METAR KGUC 140356Z AUTO 13004KT 10SM CLR 08/M05 A2998 RMK AO2 SLP108 T00781050 $","lat":38.5322,"lon":-106.9419,"elev":2337,"name":"Gunnison Arpt, CO, US","cover":"CLR","clouds":[],"fltCat":"VFR"},{"icaoId":"KCOD","receiptTime":"2026-04-14T03:58:26.242Z","obsTime":1776138960,"reportTime":"2026-04-14T04:00:00.000Z","temp":7.2,"dewp":-7.2,"wdir":270,"wspd":7,"visib":"10+","altim":1012.3,"slp":1011.5,"qcField":14,"metarType":"METAR","rawOb":"METAR KCOD 140356Z AUTO 27007KT 10SM CLR 07/M07 A2989 RMK AO2 SLP115 T00721072 $","lat":44.52,"lon":-109.0268,"elev":1550,"name":"Cody/Yellowstone Rgnl, WY, US","cover":"CLR","clouds":[],"fltCat":"VFR"},{"icaoId":"KCOE","receiptTime":"2026-04-14T03:58:21.709Z","obsTime":1776138960,"reportTime":"2026-04-14T04:00:00.000Z","temp":9.4,"dewp":2.8,"wdir":170,"wspd":9,"visib":"10+","altim":1013,"slp":1015.1,"qcField":14,"metarType":"METAR","rawOb":"METAR KCOE 140356Z AUTO 17009KT 10SM FEW065 OVC080 09/03 A2991 RMK AO2 SLP151 T00940028 PNO $","lat":47.7719,"lon":-116.8332,"elev":693,"name":"Coeur DAlene Arpt, ID, US","cover":"OVC","clouds":[{"cover":"FEW","base":6500},{"cover":"OVC","base":8000}],"fltCat":"VFR"},{"icaoId":"KPVU","receiptTime":"2026-04-14T03:58:22.443Z","obsTime":1776138960,"reportTime":"2026-04-14T04:00:00.000Z","temp":7.8,"dewp":2.8,"wdir":170,"wspd":9,"visib":"10+","altim":1014,"slp":1013,"qcField":6,"metarType":"METAR","rawOb":"METAR KPVU 140356Z AUTO 17009KT 10SM CLR 08/03 A2994 RMK AO2 SLP130 T00780028","lat":40.224,"lon":-111.7252,"elev":1370,"name":"Provo Muni, UT, US","cover":"CLR","clouds":[],"fltCat":"VFR"},{"icaoId":"KENV","receiptTime":"2026-04-14T03:58:24.156Z","obsTime":1776138960,"reportTime":"2026-04-14T04:00:00.000Z","temp":11.1,"dewp":-1.1,"wdir":360,"wspd":14,"visib":"10+","altim":1014.3,"slp":1013.8,"qcField":6,"metarType":"METAR","rawOb":"METAR KENV 140356Z AUTO 36014KT 10SM SCT100 11/M01 A2995 RMK AO2 SLP138 T01111011","lat":40.7211,"lon":-114.0312,"elev":1291,"name":"Wendover Arpt, UT, US","cover":"SCT","clouds":[{"cover":"SCT","base":10000}],"fltCat":"VFR"},{"icaoId":"KFNL","receiptTime":"2026-04-14T03:58:24.446Z","obsTime":1776138960,"reportTime":"2026-04-14T04:00:00.000Z","temp":15,"dewp":-6.7,"wdir":80,"wspd":13,"visib":"10+","altim":1010.6,"slp":1005.2,"qcField":12,"metarType":"METAR","rawOb":"METAR KFNL 140356Z 08013KT 10SM CLR 15/M07 A2984 RMK AO2 SLP052 T01501067 $","lat":40.4427,"lon":-105.0097,"elev":1529,"name":"Fort Collins/N Colorado Rgnl, CO, US","cover":"CLR","clouds":[],"fltCat":"VFR"},{"icaoId":"KEGE","receiptTime":"2026-04-14T03:58:26.652Z","obsTime":1776138960,"reportTime":"2026-04-14T04:00:00.000Z","temp":8.9,"dewp":-6.1,"wdir":70,"wspd":6,"visib":"10+","altim":1013.6,"slp":1009.2,"qcField":6,"metarType":"METAR","rawOb":"METAR KEGE 140356Z AUTO 07006KT 10SM SCT090 09/M06 A2993 RMK AO2 SLP092 T00891061","lat":39.6448,"lon":-106.9176,"elev":1993,"name":"Eagle Cnty Rgnl, CO, US","cover":"SCT","clouds":[{"cover":"SCT","base":9000}],"fltCat":"VFR"},{"icaoId":"KEND","receiptTime":"2026-04-14T04:04:01.888Z","obsTime":1776138900,"reportTime":"2026-04-14T04:00:00.000Z","temp":24.4,"dewp":19.7,"wdir":180,"wspd":19,"visib":"10+","altim":1008.5,"slp":1007.2,"qcField":12,"metarType":"METAR","rawOb":"METAR KEND 140355Z 18019KT 10SM CLR 24/20 A2978 RMK AO2A PK WND 17028/35 SLP072 T02440197 $","lat":36.338,"lon":-97.919,"elev":392,"name":"Enid/Vance AFB, OK, US","cover":"CLR","clouds":[],"fltCat":"VFR"},{"icaoId":"KHOB","receiptTime":"2026-04-14T03:58:16.878Z","obsTime":1776138900,"reportTime":"2026-04-14T04:00:00.000Z","temp":21,"dewp":-2,"wdir":240,"wspd":10,"visib":"10+","altim":1016.3,"qcField":6,"metarType":"METAR","rawOb":"METAR KHOB 140355Z AUTO 24010KT 10SM CLR 21/M02 A3001 RMK AO2","lat":32.6797,"lon":-103.2222,"elev":1112,"name":"Hobbs Arpt, NM, US","cover":"CLR","clouds":[],"fltCat":"VFR"},{"icaoId":"KCMA","receiptTime":"2026-04-14T03:58:26.213Z","obsTime":1776138900,"reportTime":"2026-04-14T04:00:00.000Z","temp":14.4,"dewp":10,"wdir":290,"wspd":5,"visib":"10+","altim":1017.4,"slp":1018,"qcField":6,"metarType":"METAR","rawOb":"METAR KCMA 140355Z AUTO 29005KT 10SM CLR 14/10 A3004 RMK AO2 SLP180 T01440100","lat":34.2114,"lon":-119.0876,"elev":20,"name":"Camarillo Arpt, CA, US","cover":"CLR","clouds":[],"fltCat":"VFR"},{"icaoId":"KAST","receiptTime":"2026-04-14T03:58:21.497Z","obsTime":1776138900,"reportTime":"2026-04-14T04:00:00.000Z","temp":8.9,"dewp":5,"wdir":160,"wspd":5,"visib":"10+","altim":1021.4,"slp":1021.1,"qcField":6,"metarType":"METAR","rawOb":"METAR KAST 140355Z AUTO 16005KT 10SM FEW027 SCT032 OVC045 09/05 A3016 RMK AO2 SLP211 T00890050","lat":46.157,"lon":-123.8833,"elev":3,"name":"Astoria Rgnl, OR, US","cover":"OVC","clouds":[{"cover":"FEW","base":2700},{"cover":"SCT","base":3200},{"cover":"OVC","base":4500}],"fltCat":"VFR"},{"icaoId":"KAEG","receiptTime":"2026-04-14T04:00:34.434Z","obsTime":1776138900,"reportTime":"2026-04-14T04:00:00.000Z","temp":9.2,"dewp":1.2,"wdir":250,"wspd":7,"visib":"10+","altim":1017.4,"qcField":6,"metarType":"METAR","rawOb":"METAR KAEG 140355Z AUTO 25007KT 10SM SCT080 09/01 A3004 RMK AO2 T00920012","lat":35.15,"lon":-106.7929,"elev":1771,"name":"Albuquerque/Double Eagle Arpt, NM, US","cover":"SCT","clouds":[{"cover":"SCT","base":8000}],"fltCat":"VFR"},{"icaoId":"KGPI","receiptTime":"2026-04-14T03:58:24.704Z","obsTime":1776138900,"reportTime":"2026-04-14T04:00:00.000Z","temp":8.9,"dewp":3.3,"wdir":200,"wspd":7,"visib":"10+","altim":1011.3,"slp":1011.9,"qcField":4,"metarType":"METAR","rawOb":"METAR KGPI 140355Z 20007KT 10SM OVC065 09/03 A2986 RMK AO2 SLP119 T00890033","lat":48.3041,"lon":-114.2643,"elev":903,"name":"Kalispell/Glacier Park Intl, MT, US","cover":"OVC","clouds":[{"cover":"OVC","base":6500}],"fltCat":"VFR"},{"icaoId":"KRNO","receiptTime":"2026-04-14T03:58:22.569Z","obsTime":1776138900,"reportTime":"2026-04-14T04:00:00.000Z","temp":9.4,"dewp":-2.2,"wdir":290,"wspd":10,"visib":"10+","altim":1017.7,"slp":1016.4,"qcField":4,"metarType":"METAR","rawOb":"METAR KRNO 140355Z 29010KT 10SM BKN075 09/M02 A3005 RMK AO2 SLP164 T00941022","lat":39.5077,"lon":-119.7683,"elev":1344,"name":"Reno/Tahoe Intl, NV, US","cover":"BKN","clouds":[{"cover":"BKN","base":7500}],"fltCat":"VFR"},{"icaoId":"KADM","receiptTime":"2026-04-14T04:00:34.396Z","obsTime":1776138900,"reportTime":"2026-04-14T04:00:00.000Z","temp":24,"dewp":21,"wdir":160,"wspd":8,"wgst":14,"visib":"10+","altim":1014,"qcField":6,"metarType":"METAR","rawOb":"METAR KADM 140355Z AUTO 16008G14KT 10SM BKN036 24/21 A2994 RMK AO2","lat":34.3007,"lon":-97.0089,"elev":223,"name":"Ardmore Muni, OK, US","cover":"BKN","clouds":[{"cover":"BKN","base":3600}],"fltCat":"VFR"},{"icaoId":"KLUF","receiptTime":"2026-04-14T04:06:08.024Z","obsTime":1776138900,"reportTime":"2026-04-14T04:00:00.000Z","temp":21.6,"dewp":3.7,"wdir":240,"wspd":12,"visib":"10+","altim":1012.3,"slp":1011.4,"qcField":12,"metarType":"METAR","rawOb":"METAR KLUF 140355Z 24012KT 10SM SCT080 SCT100 22/04 A2989 RMK AO2A SLP114 T02160037 $","lat":33.538,"lon":-112.38,"elev":333,"name":"Phoenix/Luke AFB, AZ, US","cover":"SCT","clouds":[{"cover":"SCT","base":8000},{"cover":"SCT","base":10000}],"fltCat":"VFR"},{"icaoId":"KSLC","receiptTime":"2026-04-14T03:58:05.774Z","obsTime":1776138840,"reportTime":"2026-04-14T04:00:00.000Z","temp":10,"dewp":-1.7,"wdir":0,"wspd":0,"visib":"10+","altim":1013.6,"slp":1011.7,"qcField":12,"metarType":"METAR","rawOb":"METAR KSLC 140354Z 00000KT 10SM SCT150 SCT220 10/M02 A2993 RMK AO2 SLP117 T01001017 $","lat":40.7707,"lon":-111.965,"elev":1286,"name":"Salt Lake City Intl, UT, US","cover":"SCT","clouds":[{"cover":"SCT","base":15000},{"cover":"SCT","base":22000}],"fltCat":"VFR"},{"icaoId":"KOLS","receiptTime":"2026-04-14T03:58:18.031Z","obsTime":1776138840,"reportTime":"2026-04-14T04:00:00.000Z","temp":16.1,"dewp":2.2,"wdir":200,"wspd":7,"visib":"10+","altim":1017.4,"slp":1012.4,"qcField":6,"metarType":"METAR","rawOb":"METAR KOLS 140354Z AUTO 20007KT 10SM CLR 16/02 A3004 RMK AO2 SLP124 T01610022","lat":31.4208,"lon":-110.8465,"elev":1194,"name":"Nogales Intl, AZ, US","cover":"CLR","clouds":[],"fltCat":"VFR"},{"icaoId":"KRIC","receiptTime":"2026-04-14T03:58:07.132Z","obsTime":1776138840,"reportTime":"2026-04-14T04:00:00.000Z","temp":18.3,"dewp":11.7,"wdir":200,"wspd":8,"visib":"10+","altim":1019.7,"slp":1020,"qcField":4,"metarType":"METAR","rawOb":"METAR KRIC 140354Z 20008KT 10SM SCT300 18/12 A3011 RMK AO2 SLP200 T01830117","lat":37.5115,"lon":-77.3234,"elev":51,"name":"Richmond Intl, VA, US","cover":"SCT","clouds":[{"cover":"SCT","base":30000}],"fltCat":"VFR"},{"icaoId":"KAPC","receiptTime":"2026-04-14T03:58:06.399Z","obsTime":1776138840,"reportTime":"2026-04-14T04:00:00.000Z","temp":11.7,"dewp":8.9,"wdir":"VRB","wspd":3,"visib":"10+","altim":1019.7,"slp":1018.6,"qcField":6,"metarType":"METAR","rawOb":"METAR KAPC 140354Z AUTO VRB03KT 10SM CLR 12/09 A3011 RMK AO2 SLP186 T01170089","lat":38.2075,"lon":-122.2804,"elev":5,"name":"Napa Cnty Arpt, CA, US","cover":"CLR","clouds":[],"fltCat":"VFR"},{"icaoId":"KBUF","receiptTime":"2026-04-14T03:58:07.354Z","obsTime":1776138840,"reportTime":"2026-04-14T04:00:00.000Z","temp":12.8,"dewp":11.1,"wdir":120,"wspd":5,"visib":"10+","altim":1015,"slp":1014.8,"qcField":12,"metarType":"METAR","rawOb":"METAR KBUF 140354Z 12005KT 10SM FEW150 BKN250 13/11 A2997 RMK AO2 SLP148 T01280111 $","lat":42.94,"lon":-78.7361,"elev":217,"name":"Buffalo-Niagara Intl, NY, US","cover":"BKN","clouds":[{"cover":"FEW","base":15000},{"cover":"BKN","base":25000}],"fltCat":"VFR"},{"icaoId":"KROC","receiptTime":"2026-04-14T03:58:07.406Z","obsTime":1776138840,"reportTime":"2026-04-14T04:00:00.000Z","temp":13.9,"dewp":12.8,"wdir":80,"wspd":3,"visib":"10+","altim":1015.3,"slp":1015.6,"qcField":4,"metarType":"METAR","rawOb":"METAR KROC 140354Z 08003KT 10SM BKN250 14/13 A2998 RMK AO2 SLP156 T01390128","lat":43.1172,"lon":-77.6754,"elev":166,"name":"Rochester Intl Arpt, NY, US","cover":"BKN","clouds":[{"cover":"BKN","base":25000}],"fltCat":"VFR"},{"icaoId":"KMEM","receiptTime":"2026-04-14T03:58:17.699Z","obsTime":1776138840,"reportTime":"2026-04-14T04:00:00.000Z","temp":22.2,"dewp":16.1,"wdir":180,"wspd":7,"visib":"10+","altim":1018.7,"slp":1018.3,"qcField":4,"metarType":"METAR","rawOb":"METAR KMEM 140354Z 18007KT 10SM CLR 22/16 A3008 RMK AO2 SLP183 T02220161","lat":35.0564,"lon":-89.9864,"elev":78,"name":"Memphis Intl, TN, US","cover":"CLR","clouds":[],"fltCat":"VFR"},{"icaoId":"KEUG","receiptTime":"2026-04-14T03:58:16.551Z","obsTime":1776138840,"reportTime":"2026-04-14T04:00:00.000Z","temp":7.2,"dewp":3.3,"wdir":270,"wspd":5,"visib":"10+","altim":1022.8,"slp":1022.7,"qcField":4,"metarType":"METAR","rawOb":"METAR KEUG 140354Z 27005KT 10SM FEW045 SCT060 SCT250 07/03 A3020 RMK AO2 SLP227 T00720033","lat":44.1331,"lon":-123.2156,"elev":109,"name":"Eugene/Mahlon Sweet Fld, OR, US","cover":"SCT","clouds":[{"cover":"FEW","base":4500},{"cover":"SCT","base":6000},{"cover":"SCT","base":25000}],"fltCat":"VFR"},{"icaoId":"KFFZ","receiptTime":"2026-04-14T03:58:16.605Z","obsTime":1776138840,"reportTime":"2026-04-14T04:00:00.000Z","temp":20.6,"dewp":6.1,"wdir":280,"wspd":13,"wgst":19,"visib":"10+","altim":1012.3,"slp":1010.4,"qcField":6,"metarType":"METAR","rawOb":"METAR KFFZ 140354Z AUTO 28013G19KT 10SM SCT075 BKN095 21/06 A2989 RMK AO2 SLP104 T02060061","lat":33.4659,"lon":-111.7212,"elev":420,"name":"Mesa/Falcon Fld, AZ, US","cover":"BKN","clouds":[{"cover":"SCT","base":7500},{"cover":"BKN","base":9500}],"fltCat":"VFR"},{"icaoId":"KBTV","receiptTime":"2026-04-14T03:58:06.850Z","obsTime":1776138840,"reportTime":"2026-04-14T04:00:00.000Z","temp":16.7,"dewp":11.1,"wdir":270,"wspd":7,"visib":"10+","altim":1013,"slp":1012.9,"qcField":4,"metarType":"METAR","rawOb":"METAR KBTV 140354Z 27007KT 10SM OVC060 17/11 A2991 RMK AO2 SLP129 LAST T01670111","lat":44.4682,"lon":-73.1499,"elev":101,"name":"Burlington Intl, VT, US","cover":"OVC","clouds":[{"cover":"OVC","base":6000}],"fltCat":"VFR"},{"icaoId":"KRKS","receiptTime":"2026-04-14T03:58:18.311Z","obsTime":1776138840,"reportTime":"2026-04-14T04:00:00.000Z","temp":3.9,"dewp":-6.7,"wdir":250,"wspd":10,"visib":"10+","altim":1014.6,"slp":1012.7,"qcField":6,"metarType":"METAR","rawOb":"METAR KRKS 140354Z AUTO 25010KT 10SM CLR 04/M07 A2996 RMK AO2 SLP127 T00391067","lat":41.5947,"lon":-109.0529,"elev":2062,"name":"Rock Springs/SW Wyoming Rgnl, WY, US","cover":"CLR","clouds":[],"fltCat":"VFR"},{"icaoId":"KDSM","receiptTime":"2026-04-14T03:58:06.936Z","obsTime":1776138840,"reportTime":"2026-04-14T04:00:00.000Z","temp":23.3,"dewp":17.8,"wdir":200,"wspd":15,"wgst":25,"visib":"10+","altim":1004.1,"slp":1003.2,"qcField":12,"metarType":"METAR","rawOb":"METAR KDSM 140354Z 20015G25KT 10SM CLR 23/18 A2965 RMK AO2 PK WND 19029/0302 SLP032 T02330178 $","lat":41.5339,"lon":-93.6531,"elev":286,"name":"Des Moines Intl, IA, US","cover":"CLR","clouds":[],"fltCat":"VFR"},{"icaoId":"KCOS","receiptTime":"2026-04-14T03:58:06.907Z","obsTime":1776138840,"reportTime":"2026-04-14T04:00:00.000Z","temp":13.3,"dewp":-11.1,"wdir":230,"wspd":7,"visib":"10+","altim":1011.9,"slp":1005.7,"qcField":4,"metarType":"METAR","rawOb":"METAR KCOS 140354Z 23007KT 10SM SCT180 13/M11 A2988 RMK AO2 SLP057 T01331111","lat":38.8095,"lon":-104.6887,"elev":1886,"name":"Colorado Spring Arpt, CO, US","cover":"SCT","clouds":[{"cover":"SCT","base":18000}],"fltCat":"VFR"},{"icaoId":"KBFL","receiptTime":"2026-04-14T03:58:15.986Z","obsTime":1776138840,"reportTime":"2026-04-14T04:00:00.000Z","temp":14.4,"dewp":6.1,"wdir":100,"wspd":3,"visib":"10+","altim":1018.4,"slp":1018,"qcField":4,"metarType":"METAR","rawOb":"METAR KBFL 140354Z 10003KT 10SM FEW085 14/06 A3007 RMK AO2 SLP180 T01440061","lat":35.4342,"lon":-119.0552,"elev":146,"name":"Bakersfield/Meadows Arpt, CA, US","cover":"FEW","clouds":[{"cover":"FEW","base":8500}],"fltCat":"VFR"},{"icaoId":"KIND","receiptTime":"2026-04-14T03:58:17.024Z","obsTime":1776138840,"reportTime":"2026-04-14T04:00:00.000Z","temp":22.2,"dewp":16.1,"wdir":180,"wspd":16,"visib":"10+","altim":1014,"slp":1013.3,"qcField":4,"metarType":"METAR","rawOb":"METAR KIND 140354Z 18016KT 10SM BKN048 22/16 A2994 RMK AO2 SLP133 T02220161","lat":39.7252,"lon":-86.2816,"elev":242,"name":"Indianapolis Intl, IN, US","cover":"BKN","clouds":[{"cover":"BKN","base":4800}],"fltCat":"VFR"},{"icaoId":"KPHL","receiptTime":"2026-04-14T03:58:18.758Z","obsTime":1776138840,"reportTime":"2026-04-14T04:00:00.000Z","temp":19.4,"dewp":11.7,"wdir":250,"wspd":5,"visib":"10+","altim":1016.7,"slp":1016.6,"qcField":12,"metarType":"METAR","rawOb":"METAR KPHL 140354Z 25005KT 10SM FEW075 SCT110 19/12 A3002 RMK AO2 SLP166 T01940117 $","lat":39.8733,"lon":-75.2268,"elev":2,"name":"Philadelphia Intl, PA, US","cover":"SCT","clouds":[{"cover":"FEW","base":7500},{"cover":"SCT","base":11000}],"fltCat":"VFR"},{"icaoId":"KBOS","receiptTime":"2026-04-14T03:58:16.022Z","obsTime":1776138840,"reportTime":"2026-04-14T04:00:00.000Z","temp":16.7,"dewp":12.8,"wdir":210,"wspd":10,"visib":"10+","altim":1013,"slp":1012.7,"qcField":4,"metarType":"METAR","rawOb":"METAR KBOS 140354Z 21010KT 10SM FEW070 17/13 A2991 RMK AO2 SLP127 T01670128","lat":42.3606,"lon":-71.0097,"elev":4,"name":"Boston/Logan Intl, MA, US","cover":"FEW","clouds":[{"cover":"FEW","base":7000}],"fltCat":"VFR"},{"icaoId":"KSYR","receiptTime":"2026-04-14T03:58:07.256Z","obsTime":1776138840,"reportTime":"2026-04-14T04:00:00.000Z","temp":13.9,"dewp":12.8,"wdir":290,"wspd":3,"visib":"10+","altim":1015.7,"slp":1015.1,"qcField":4,"metarType":"METAR","rawOb":"METAR KSYR 140354Z 29003KT 10SM FEW028 SCT046 14/13 A2999 RMK AO2 SLP151 T01390128","lat":43.1111,"lon":-76.1038,"elev":125,"name":"Syracuse/Hancock Intl, NY, US","cover":"SCT","clouds":[{"cover":"FEW","base":2800},{"cover":"SCT","base":4600}],"fltCat":"VFR"},{"icaoId":"KOLM","receiptTime":"2026-04-14T03:58:18.016Z","obsTime":1776138840,"reportTime":"2026-04-14T04:00:00.000Z","temp":7.8,"dewp":4.4,"wdir":220,"wspd":7,"visib":"10+","altim":1020.4,"slp":1020.3,"qcField":6,"metarType":"METAR","rawOb":"METAR KOLM 140354Z AUTO 22007KT 10SM FEW044 08/04 A3013 RMK AO2 SLP203 T00780044","lat":46.9737,"lon":-122.9049,"elev":58,"name":"Olympia Rgnl, WA, US","cover":"FEW","clouds":[{"cover":"FEW","base":4400}],"fltCat":"VFR"},{"icaoId":"KBWI","receiptTime":"2026-04-14T03:58:16.073Z","obsTime":1776138840,"reportTime":"2026-04-14T04:00:00.000Z","temp":19.4,"dewp":10.6,"wdir":230,"wspd":4,"visib":"10+","altim":1017.4,"slp":1016.9,"qcField":4,"metarType":"METAR","rawOb":"METAR KBWI 140354Z 23004KT 10SM CLR 19/11 A3004 RMK AO2 SLP169 T01940106","lat":39.1733,"lon":-76.684,"elev":42,"name":"Baltimore-Washington Intl, MD, US","cover":"CLR","clouds":[],"fltCat":"VFR"},{"icaoId":"KSJN","receiptTime":"2026-04-14T03:58:05.760Z","obsTime":1776138840,"reportTime":"2026-04-14T04:00:00.000Z","temp":10,"dewp":0.6,"wdir":270,"wspd":3,"visib":"10+","altim":1014.6,"slp":1008.9,"qcField":6,"metarType":"METAR","rawOb":"METAR KSJN 140354Z AUTO 27003KT 10SM CLR 10/01 A2996 RMK AO2 SLP089 T01000006","lat":34.5184,"lon":-109.3801,"elev":1747,"name":"St Johns Ind Arpt, AZ, US","cover":"CLR","clouds":[],"fltCat":"VFR"},{"icaoId":"KGSO","receiptTime":"2026-04-14T03:58:06.968Z","obsTime":1776138840,"reportTime":"2026-04-14T04:00:00.000Z","temp":18.9,"dewp":11.7,"wdir":220,"wspd":7,"visib":"10+","altim":1022.1,"slp":1021.1,"qcField":4,"metarType":"METAR","rawOb":"METAR KGSO 140354Z 22007KT 10SM FEW050 BKN250 19/12 A3018 RMK AO2 SLP211 T01890117","lat":36.0969,"lon":-79.9432,"elev":275,"name":"Greensboro Intl, NC, US","cover":"BKN","clouds":[{"cover":"FEW","base":5000},{"cover":"BKN","base":25000}],"fltCat":"VFR"},{"icaoId":"KAPA","receiptTime":"2026-04-14T03:56:33.548Z","obsTime":1776138780,"reportTime":"2026-04-14T04:00:00.000Z","temp":15.6,"dewp":-11.1,"wdir":60,"wspd":3,"visib":"10+","altim":1010.9,"slp":1005.6,"qcField":4,"metarType":"METAR","rawOb":"METAR KAPA 140353Z 06003KT 10SM SCT100 BKN140 16/M11 A2985 RMK AO2 SLP056 VIRGA W T01561111","lat":39.5599,"lon":-104.8484,"elev":1791,"name":"Denver/Centennial Arpt, CO, US","cover":"BKN","clouds":[{"cover":"SCT","base":10000},{"cover":"BKN","base":14000}],"fltCat":"VFR"},{"icaoId":"KASE","receiptTime":"2026-04-14T03:57:10.258Z","obsTime":1776138780,"reportTime":"2026-04-14T04:00:00.000Z","temp":6.7,"dewp":-6.1,"wdir":"VRB","wspd":3,"visib":"10+","altim":1015.3,"slp":1007.5,"qcField":6,"metarType":"METAR","rawOb":"METAR KASE 140353Z AUTO VRB03KT 10SM SCT070 OVC095 07/M06 A2998 RMK AO2 SLP075 T00671061","lat":39.2299,"lon":-106.8705,"elev":2384,"name":"Aspen/Pitkin Cnty, CO, US","cover":"OVC","clouds":[{"cover":"SCT","base":7000},{"cover":"OVC","base":9500}],"fltCat":"VFR"},{"icaoId":"KSHR","receiptTime":"2026-04-14T03:56:34.560Z","obsTime":1776138780,"reportTime":"2026-04-14T04:00:00.000Z","temp":8.3,"dewp":-4.4,"wdir":300,"wspd":11,"visib":"10+","altim":1009.9,"slp":1009.3,"qcField":6,"metarType":"METAR","rawOb":"METAR KSHR 140353Z AUTO 30011KT 10SM CLR 08/M04 A2982 RMK AO2 SLP093 T00831044","lat":44.7603,"lon":-106.9741,"elev":1212,"name":"Sheridan Cnty Arpt, WY, US","cover":"CLR","clouds":[],"fltCat":"VFR"},{"icaoId":"KCPR","receiptTime":"2026-04-14T03:57:12.620Z","obsTime":1776138780,"reportTime":"2026-04-14T04:00:00.000Z","temp":3.3,"dewp":-12.2,"wdir":0,"wspd":0,"visib":"10+","altim":1011.3,"slp":1009.3,"qcField":6,"metarType":"METAR","rawOb":"METAR KCPR 140353Z AUTO 00000KT 10SM CLR 03/M12 A2986 RMK AO2 SLP093 T00331122","lat":42.8978,"lon":-106.4736,"elev":1623,"name":"Casper/Natrona Cnty, WY, US","cover":"CLR","clouds":[],"fltCat":"VFR"},{"icaoId":"KTWF","receiptTime":"2026-04-14T03:56:35.781Z","obsTime":1776138780,"reportTime":"2026-04-14T04:00:00.000Z","temp":3.9,"dewp":1.1,"wdir":240,"wspd":10,"visib":"10+","altim":1016,"slp":1014.7,"qcField":6,"metarType":"METAR","rawOb":"METAR KTWF 140353Z AUTO 24010KT 10SM CLR 04/01 A3000 RMK AO2 SLP147 T00390011","lat":42.4785,"lon":-114.4775,"elev":1269,"name":"Twin Falls/Joslin Fld, ID, US","cover":"CLR","clouds":[],"fltCat":"VFR"},{"icaoId":"KMYF","receiptTime":"2026-04-14T03:56:41.605Z","obsTime":1776138780,"reportTime":"2026-04-14T04:00:00.000Z","temp":15,"dewp":7.8,"wdir":240,"wspd":5,"visib":"10+","altim":1018.7,"slp":1018.5,"qcField":4,"metarType":"METAR","rawOb":"METAR KMYF 140353Z 24005KT 10SM CLR 15/08 A3008 RMK AO2 SLP185 T01500078","lat":32.8145,"lon":-117.1375,"elev":128,"name":"San Diego/Montgomery Arpt, CA, US","cover":"CLR","clouds":[],"fltCat":"VFR"},{"icaoId":"KHOU","receiptTime":"2026-04-14T03:57:04.565Z","obsTime":1776138780,"reportTime":"2026-04-14T04:00:00.000Z","temp":22.8,"dewp":21.1,"wdir":160,"wspd":8,"visib":"10+","altim":1019.7,"slp":1020,"qcField":12,"metarType":"METAR","rawOb":"METAR KHOU 140353Z 16008KT 10SM FEW013 FEW040 SCT250 23/21 A3011 RMK AO2 SLP200 T02280211 $","lat":29.6458,"lon":-95.2821,"elev":13,"name":"Houston/Hobby Arpt, TX, US","cover":"SCT","clouds":[{"cover":"FEW","base":1300},{"cover":"FEW","base":4000},{"cover":"SCT","base":25000}],"fltCat":"VFR"},{"icaoId":"KMTJ","receiptTime":"2026-04-14T03:56:41.399Z","obsTime":1776138780,"reportTime":"2026-04-14T04:00:00.000Z","temp":12.2,"dewp":-1.7,"wdir":230,"wspd":10,"visib":"10+","altim":1013.3,"slp":1007.8,"qcField":6,"metarType":"METAR","rawOb":"METAR KMTJ 140353Z AUTO 23010KT 10SM SCT100 12/M02 A2992 RMK AO2 SLP078 T01221017","lat":38.5054,"lon":-107.8981,"elev":1755,"name":"Montrose Rgnl, CO, US","cover":"SCT","clouds":[{"cover":"SCT","base":10000}],"fltCat":"VFR"},{"icaoId":"KBLI","receiptTime":"2026-04-14T03:56:56.968Z","obsTime":1776138780,"reportTime":"2026-04-14T04:00:00.000Z","temp":10,"dewp":3.9,"wdir":180,"wspd":5,"visib":"10+","altim":1017.4,"slp":1017.9,"qcField":6,"metarType":"METAR","rawOb":"METAR KBLI 140353Z AUTO 18005KT 10SM OVC050 10/04 A3004 RMK AO2 SLP179 T01000039","lat":48.7991,"lon":-122.5407,"elev":46,"name":"Bellingham Intl, WA, US","cover":"OVC","clouds":[{"cover":"OVC","base":5000}],"fltCat":"VFR"},{"icaoId":"KPGA","receiptTime":"2026-04-14T03:56:58.934Z","obsTime":1776138780,"reportTime":"2026-04-14T04:00:00.000Z","temp":10.6,"dewp":3.9,"wdir":220,"wspd":10,"wgst":24,"visib":9,"altim":1013,"slp":1009.8,"qcField":6,"wxString":"-RA","precip":0.005,"metarType":"METAR","rawOb":"METAR KPGA 140353Z AUTO 22010G24KT 9SM -RA BKN048 OVC065 11/04 A2991 RMK AO2 RAB36 PRESRR SLP098 P0000 T01060039","lat":36.9211,"lon":-111.4487,"elev":1310,"name":"Page Muni, AZ, US","cover":"OVC","clouds":[{"cover":"BKN","base":4800},{"cover":"OVC","base":6500}],"fltCat":"VFR"},{"icaoId":"KPUW","receiptTime":"2026-04-14T03:56:58.978Z","obsTime":1776138780,"reportTime":"2026-04-14T04:00:00.000Z","temp":5.6,"dewp":-0.6,"wdir":190,"wspd":3,"visib":"10+","altim":1015,"slp":1016,"qcField":6,"metarType":"METAR","rawOb":"METAR KPUW 140353Z AUTO 19003KT 10SM CLR 06/M01 A2997 RMK AO2 SLP160 T00561006","lat":46.7438,"lon":-117.1158,"elev":774,"name":"Pullman/Moscow Rgnl, WA, US","cover":"CLR","clouds":[],"fltCat":"VFR"},{"icaoId":"KDTW","receiptTime":"2026-04-14T03:57:03.586Z","obsTime":1776138780,"reportTime":"2026-04-14T04:00:00.000Z","temp":16.1,"dewp":14.4,"wdir":160,"wspd":6,"visib":"10+","altim":1013.6,"slp":1013.2,"qcField":12,"metarType":"METAR","rawOb":"METAR KDTW 140353Z 16006KT 10SM FEW060 BKN180 OVC230 16/14 A2993 RMK AO2 SLP132 T01610144 $","lat":42.2311,"lon":-83.3312,"elev":192,"name":"Detroit/Metro Wayne Cnty, MI, US","cover":"OVC","clouds":[{"cover":"FEW","base":6000},{"cover":"BKN","base":18000},{"cover":"OVC","base":23000}],"fltCat":"VFR"},{"icaoId":"KMSO","receiptTime":"2026-04-14T03:57:11.696Z","obsTime":1776138780,"reportTime":"2026-04-14T04:00:00.000Z","temp":8.3,"dewp":1.1,"wdir":310,"wspd":3,"visib":"10+","altim":1013.6,"slp":1014.3,"qcField":12,"metarType":"METAR","rawOb":"METAR KMSO 140353Z 31003KT 10SM OVC043 08/01 A2993 RMK AO2 SLP143 T00830011 $","lat":46.9208,"lon":-114.0938,"elev":974,"name":"Missoula Intl, MT, US","cover":"OVC","clouds":[{"cover":"OVC","base":4300}],"fltCat":"VFR"},{"icaoId":"KMCO","receiptTime":"2026-04-14T03:57:04.604Z","obsTime":1776138780,"reportTime":"2026-04-14T04:00:00.000Z","temp":19.4,"dewp":15,"wdir":80,"wspd":4,"visib":"10+","altim":1024.5,"slp":1024.2,"qcField":4,"metarType":"METAR","rawOb":"METAR KMCO 140353Z 08004KT 10SM BKN250 19/15 A3025 RMK AO2 SLP242 T01940150","lat":28.4182,"lon":-81.3241,"elev":27,"name":"Orlando Intl, FL, US","cover":"BKN","clouds":[{"cover":"BKN","base":25000}],"fltCat":"VFR"},{"icaoId":"KBNA","receiptTime":"2026-04-14T03:57:02.690Z","obsTime":1776138780,"reportTime":"2026-04-14T04:00:00.000Z","temp":20,"dewp":13.3,"wdir":190,"wspd":6,"visib":"10+","altim":1020.4,"slp":1019.9,"qcField":12,"metarType":"METAR","rawOb":"METAR KBNA 140353Z 19006KT 10SM BKN120 20/13 A3013 RMK AO2 SLP199 T02000133 $","lat":36.1105,"lon":-86.6881,"elev":168,"name":"Nashville Intl, TN, US","cover":"BKN","clouds":[{"cover":"BKN","base":12000}],"fltCat":"VFR"},{"icaoId":"KBHM","receiptTime":"2026-04-14T03:57:02.676Z","obsTime":1776138780,"reportTime":"2026-04-14T04:00:00.000Z","temp":19.4,"dewp":13.3,"wdir":0,"wspd":0,"visib":"10+","altim":1023.8,"slp":1022.9,"qcField":4,"metarType":"METAR","rawOb":"METAR KBHM 140353Z 00000KT 10SM SCT250 19/13 A3023 RMK AO2 SLP229 T01940133","lat":33.5655,"lon":-86.7449,"elev":191,"name":"Birmingham Intl, AL, US","cover":"SCT","clouds":[{"cover":"SCT","base":25000}],"fltCat":"VFR"},{"icaoId":"KSWO","receiptTime":"2026-04-14T03:57:02.339Z","obsTime":1776138780,"reportTime":"2026-04-14T04:00:00.000Z","temp":24.4,"dewp":20,"wdir":190,"wspd":16,"wgst":25,"visib":"10+","altim":1010.6,"slp":1009.2,"qcField":6,"metarType":"METAR","rawOb":"METAR KSWO 140353Z AUTO 19016G25KT 10SM CLR 24/20 A2984 RMK AO2 PK WND 18030/0254 SLP092 T02440200","lat":36.1624,"lon":-97.0832,"elev":293,"name":"Stillwater Muni, OK, US","cover":"CLR","clouds":[],"fltCat":"VFR"},{"icaoId":"KLVS","receiptTime":"2026-04-14T03:57:08.778Z","obsTime":1776138780,"reportTime":"2026-04-14T04:00:00.000Z","temp":10.6,"dewp":0.6,"wdir":190,"wspd":15,"wgst":23,"visib":"10+","altim":1017.7,"slp":1009.6,"qcField":14,"metarType":"METAR","rawOb":"METAR KLVS 140353Z AUTO 19015G23KT 10SM CLR 11/01 A3005 RMK AO2 SLP096 T01060006 PNO $","lat":35.6558,"lon":-105.1385,"elev":2095,"name":"Las Vegas Muni, NM, US","cover":"CLR","clouds":[],"fltCat":"VFR"},{"icaoId":"KTUL","receiptTime":"2026-04-14T03:57:02.475Z","obsTime":1776138780,"reportTime":"2026-04-14T04:00:00.000Z","temp":24.4,"dewp":19.4,"wdir":180,"wspd":18,"wgst":29,"visib":"10+","altim":1011.6,"slp":1010.8,"qcField":4,"metarType":"METAR","rawOb":"METAR KTUL 140353Z 18018G29KT 10SM SCT250 24/19 A2987 RMK AO2 PK WND 16030/0254 SLP108 T02440194","lat":36.1985,"lon":-95.8782,"elev":196,"name":"Tulsa Intl Arpt, OK, US","cover":"SCT","clouds":[{"cover":"SCT","base":25000}],"fltCat":"VFR"},{"icaoId":"KSAF","receiptTime":"2026-04-14T03:57:02.202Z","obsTime":1776138780,"reportTime":"2026-04-14T04:00:00.000Z","temp":10.6,"dewp":2.8,"wdir":360,"wspd":6,"visib":"","altim":1018,"slp":1011,"qcField":14,"precip":0.005,"metarType":"METAR","rawOb":"METAR KSAF 140353Z AUTO 36006KT BKN065 BKN090 11/03 A3006 RMK AO2 RAB0259E10 SLP110 P0000 T01060028 $","lat":35.611,"lon":-106.0957,"elev":1918,"name":"Santa Fe Cnty Muni, NM, US","cover":"BKN","clouds":[{"cover":"BKN","base":6500},{"cover":"BKN","base":9000}]},{"icaoId":"KLOL","receiptTime":"2026-04-14T03:57:11.354Z","obsTime":1776138780,"reportTime":"2026-04-14T04:00:00.000Z","temp":11.7,"dewp":-5.6,"wdir":360,"wspd":7,"visib":"10+","altim":1016,"slp":1015.5,"qcField":14,"metarType":"METAR","rawOb":"METAR KLOL 140353Z AUTO 36007KT 10SM SCT080 12/M06 A3000 RMK AO2 SLP155 T01171056 $","lat":40.0684,"lon":-118.5702,"elev":1191,"name":"Lovelock/Derby Fld, NV, US","cover":"SCT","clouds":[{"cover":"SCT","base":8000}],"fltCat":"VFR"},{"icaoId":"KMSY","receiptTime":"2026-04-14T03:57:02.110Z","obsTime":1776138780,"reportTime":"2026-04-14T04:00:00.000Z","temp":21.7,"dewp":18.3,"wdir":130,"wspd":9,"visib":"10+","altim":1022.4,"slp":1022.6,"qcField":4,"metarType":"METAR","rawOb":"METAR KMSY 140353Z 13009KT 10SM CLR 22/18 A3019 RMK AO2 SLP226 T02170183","lat":29.9974,"lon":-90.2777,"elev":0,"name":"New Orleans/Armstrong Intl, LA, US","cover":"CLR","clouds":[],"fltCat":"VFR"},{"icaoId":"KEVW","receiptTime":"2026-04-14T03:57:00.830Z","obsTime":1776138780,"reportTime":"2026-04-14T04:00:00.000Z","temp":1.1,"dewp":-7.8,"wdir":240,"wspd":6,"visib":"10+","altim":1015,"slp":1014.3,"qcField":6,"metarType":"METAR","rawOb":"METAR KEVW 140353Z AUTO 24006KT 10SM CLR 01/M08 A2997 RMK AO2 SLP143 T00111078","lat":41.2727,"lon":-111.0305,"elev":2178,"name":"Evanston/Uinta Cnty, WY, US","cover":"CLR","clouds":[],"fltCat":"VFR"},{"icaoId":"KDFW","receiptTime":"2026-04-14T03:57:02.798Z","obsTime":1776138780,"reportTime":"2026-04-14T04:00:00.000Z","temp":24.4,"dewp":20,"wdir":170,"wspd":11,"wgst":24,"visib":"10+","altim":1015,"slp":1014.1,"qcField":4,"metarType":"METAR","rawOb":"METAR KDFW 140353Z 17011G24KT 10SM BKN250 24/20 A2997 RMK AO2 SLP141 T02440200","lat":32.8974,"lon":-97.022,"elev":168,"name":"Dallas-Ft Worth Intl, TX, US","cover":"BKN","clouds":[{"cover":"BKN","base":25000}],"fltCat":"VFR"},{"icaoId":"KTUS","receiptTime":"2026-04-14T03:56:59.728Z","obsTime":1776138780,"reportTime":"2026-04-14T04:00:00.000Z","temp":20,"dewp":5,"wdir":230,"wspd":9,"wgst":19,"visib":"10+","altim":1016,"slp":1012.2,"qcField":4,"metarType":"METAR","rawOb":"METAR KTUS 140353Z 23009G19KT 10SM CLR 20/05 A3000 RMK AO2 PK WND 23028/0256 SLP122 T02000050","lat":32.1315,"lon":-110.9564,"elev":776,"name":"Tucson Intl Arpt, AZ, US","cover":"CLR","clouds":[],"fltCat":"VFR"},{"icaoId":"KYKM","receiptTime":"2026-04-14T03:56:59.088Z","obsTime":1776138780,"reportTime":"2026-04-14T04:00:00.000Z","temp":11.1,"dewp":-1.1,"wdir":350,"wspd":7,"visib":"10+","altim":1014.6,"slp":1014.5,"qcField":12,"metarType":"METAR","rawOb":"METAR KYKM 140353Z 35007KT 10SM CLR 11/M01 A2996 RMK AO2 SLP145 T01111011 $","lat":46.564,"lon":-120.5349,"elev":319,"name":"Yakima/McAllister Fld, WA, US","cover":"CLR","clouds":[],"fltCat":"VFR"},{"icaoId":"KVGT","receiptTime":"2026-04-14T03:56:59.050Z","obsTime":1776138780,"reportTime":"2026-04-14T04:00:00.000Z","temp":15.6,"dewp":1.1,"wdir":10,"wspd":13,"wgst":22,"visib":"10+","altim":1012.6,"slp":1013.5,"qcField":4,"wxString":"-RA","precip":0.005,"metarType":"METAR","rawOb":"METAR KVGT 140353Z 01013G22KT 10SM -RA BKN055 BKN070 OVC085 16/01 A2990 RMK AO2 RAB51 SLP135 P0000 T01560011","lat":36.212,"lon":-115.194,"elev":664,"name":"Las Vegas/North Arpt, NV, US","cover":"OVC","clouds":[{"cover":"BKN","base":5500},{"cover":"BKN","base":7000},{"cover":"OVC","base":8500}],"fltCat":"VFR"},{"icaoId":"KRDD","receiptTime":"2026-04-14T03:56:59.009Z","obsTime":1776138780,"reportTime":"2026-04-14T04:00:00.000Z","temp":13.3,"dewp":6.1,"wdir":0,"wspd":0,"visib":"10+","altim":1017.4,"slp":1017.1,"qcField":4,"metarType":"METAR","rawOb":"METAR KRDD 140353Z 00000KT 10SM CLR 13/06 A3004 RMK AO2 SLP171 T01330061","lat":40.5146,"lon":-122.2977,"elev":152,"name":"Redding Muni, CA, US","cover":"CLR","clouds":[],"fltCat":"VFR"},{"icaoId":"KPSC","receiptTime":"2026-04-14T03:56:58.963Z","obsTime":1776138780,"reportTime":"2026-04-14T04:00:00.000Z","temp":12.2,"dewp":2.8,"wdir":240,"wspd":11,"visib":"10+","altim":1014.3,"slp":1014.2,"qcField":4,"metarType":"METAR","rawOb":"METAR KPSC 140353Z 24011KT 10SM FEW095 12/03 A2995 RMK AO2 PK WND 23027/0255 SLP142 T01220028","lat":46.2695,"lon":-119.1182,"elev":121,"name":"Pasco/Tri Cities Arpt, WA, US","cover":"FEW","clouds":[{"cover":"FEW","base":9500}],"fltCat":"VFR"},{"icaoId":"KBOI","receiptTime":"2026-04-14T03:57:08.038Z","obsTime":1776138780,"reportTime":"2026-04-14T04:00:00.000Z","temp":6.7,"dewp":3.9,"wdir":140,"wspd":3,"visib":"10+","altim":1016.3,"slp":1017,"qcField":4,"metarType":"METAR","rawOb":"METAR KBOI 140353Z 14003KT 10SM SCT075 07/04 A3001 RMK AO2 SLP170 T00670039","lat":43.567,"lon":-116.2406,"elev":860,"name":"Boise Arpt, ID, US","cover":"SCT","clouds":[{"cover":"SCT","base":7500}],"fltCat":"VFR"},{"icaoId":"KCRQ","receiptTime":"2026-04-14T03:56:58.741Z","obsTime":1776138780,"reportTime":"2026-04-14T04:00:00.000Z","temp":15.6,"dewp":8.9,"wdir":270,"wspd":4,"visib":"10+","altim":1018.4,"slp":1017.9,"qcField":4,"metarType":"METAR","rawOb":"METAR KCRQ 140353Z 27004KT 10SM BKN034 BKN044 16/09 A3007 RMK AO2 SLP179 T01560089","lat":33.1299,"lon":-117.2765,"elev":96,"name":"Carlsbad/Palomar Arpt, CA, US","cover":"BKN","clouds":[{"cover":"BKN","base":3400},{"cover":"BKN","base":4400}],"fltCat":"VFR"},{"icaoId":"KPIH","receiptTime":"2026-04-14T03:57:07.952Z","obsTime":1776138780,"reportTime":"2026-04-14T04:00:00.000Z","temp":4.4,"dewp":0.6,"wdir":230,"wspd":10,"visib":"10+","altim":1015,"slp":1014.4,"qcField":4,"metarType":"METAR","rawOb":"METAR KPIH 140353Z 23010KT 10SM CLR 04/01 A2997 RMK AO2 SLP144 T00440006","lat":42.9197,"lon":-112.5723,"elev":1357,"name":"Pocatello Rgnl, ID, US","cover":"CLR","clouds":[],"fltCat":"VFR"},{"icaoId":"KBIL","receiptTime":"2026-04-14T03:56:54.207Z","obsTime":1776138780,"reportTime":"2026-04-14T04:00:00.000Z","temp":9.4,"dewp":-2.2,"wdir":230,"wspd":7,"visib":"10+","altim":1009.2,"slp":1009.3,"qcField":4,"metarType":"METAR","rawOb":"METAR KBIL 140353Z 23007KT 10SM SCT095 09/M02 A2980 RMK AO2 SLP093 T00941022","lat":45.8072,"lon":-108.5462,"elev":1089,"name":"Billings/Logan Intl, MT, US","cover":"SCT","clouds":[{"cover":"SCT","base":9500}],"fltCat":"VFR"},{"icaoId":"KCDC","receiptTime":"2026-04-14T03:56:57.303Z","obsTime":1776138780,"reportTime":"2026-04-14T04:00:00.000Z","temp":0.6,"dewp":0,"wdir":0,"wspd":0,"visib":1.5,"altim":1015.3,"slp":1013.7,"qcField":6,"wxString":"-SN BR","precip":0.17,"metarType":"METAR","rawOb":"METAR KCDC 140353Z AUTO 00000KT 1 1/2SM -SN BR SCT004 OVC010 01/00 A2998 RMK AO2 RAE24UPB00E05SNB24 SLP137 P0017 T00060000","lat":37.7067,"lon":-113.097,"elev":1703,"name":"Cedar City Muni, UT, US","cover":"OVC","clouds":[{"cover":"SCT","base":400},{"cover":"OVC","base":1000}],"fltCat":"IFR"},{"icaoId":"KSMF","receiptTime":"2026-04-14T03:56:34.658Z","obsTime":1776138780,"reportTime":"2026-04-14T04:00:00.000Z","temp":13.3,"dewp":7.8,"wdir":80,"wspd":3,"visib":"10+","altim":1018.4,"slp":1018.1,"qcField":12,"metarType":"METAR","rawOb":"METAR KSMF 140353Z 08003KT 10SM CLR 13/08 A3007 RMK AO2 SLP181 T01330078 $","lat":38.7007,"lon":-121.5948,"elev":7,"name":"Sacramento Intl, CA, US","cover":"CLR","clouds":[],"fltCat":"VFR"},{"icaoId":"KSEA","receiptTime":"2026-04-14T03:56:54.817Z","obsTime":1776138780,"reportTime":"2026-04-14T04:00:00.000Z","temp":9.4,"dewp":3.3,"wdir":210,"wspd":10,"visib":"10+","altim":1019,"slp":1019.7,"qcField":4,"metarType":"METAR","rawOb":"METAR KSEA 140353Z 21010KT 10SM OVC050 09/03 A3009 RMK AO2 SLP197 T00940033","lat":47.4447,"lon":-122.3144,"elev":115,"name":"Seattle-Tacoma Intl, WA, US","cover":"OVC","clouds":[{"cover":"OVC","base":5000}],"fltCat":"VFR"},{"icaoId":"KPUB","receiptTime":"2026-04-14T03:56:52.271Z","obsTime":1776138780,"reportTime":"2026-04-14T04:00:00.000Z","temp":16.1,"dewp":-3.3,"wdir":170,"wspd":9,"visib":"10+","altim":1010.2,"slp":1005.1,"qcField":12,"metarType":"METAR","rawOb":"METAR KPUB 140353Z 17009KT 10SM CLR 16/M03 A2983 RMK AO2 SLP051 T01611033 $","lat":38.2887,"lon":-104.5057,"elev":1441,"name":"Pueblo Mem Arpt, CO, US","cover":"CLR","clouds":[],"fltCat":"VFR"},{"icaoId":"KTPA","receiptTime":"2026-04-14T03:57:02.449Z","obsTime":1776138780,"reportTime":"2026-04-14T04:00:00.000Z","temp":22.8,"dewp":15.6,"wdir":90,"wspd":9,"wgst":17,"visib":"10+","altim":1023.8,"slp":1023.5,"qcField":4,"metarType":"METAR","rawOb":"METAR KTPA 140353Z 09009G17KT 10SM SCT250 23/16 A3023 RMK AO2 SLP235 T02280156","lat":27.9633,"lon":-82.54,"elev":2,"name":"Tampa Intl Arpt, FL, US","cover":"SCT","clouds":[{"cover":"SCT","base":25000}],"fltCat":"VFR"},{"icaoId":"KGSP","receiptTime":"2026-04-14T03:57:09.956Z","obsTime":1776138780,"reportTime":"2026-04-14T04:00:00.000Z","temp":16.7,"dewp":12.2,"wdir":220,"wspd":5,"visib":"10+","altim":1023.5,"slp":1022.4,"qcField":14,"metarType":"METAR","rawOb":"METAR KGSP 140353Z AUTO 22005KT 10SM CLR 17/12 A3022 RMK AO2 SLP224 T01670122 $","lat":34.8842,"lon":-82.2209,"elev":285,"name":"Greenville-Spartanburg Intl, SC, US","cover":"CLR","clouds":[],"fltCat":"VFR"},{"icaoId":"PANC","receiptTime":"2026-04-14T03:57:07.513Z","obsTime":1776138780,"reportTime":"2026-04-14T04:00:00.000Z","temp":4.4,"dewp":-5,"wdir":330,"wspd":5,"visib":"10+","altim":1005.5,"slp":1005.7,"qcField":4,"metarType":"METAR","rawOb":"METAR PANC 140353Z 33005KT 10SM SCT075 04/M05 A2969 RMK AO2 SLP057 T00441050","lat":61.1691,"lon":-150.0277,"elev":39,"name":"Anchorage Intl, AK, US","cover":"SCT","clouds":[{"cover":"SCT","base":7500}],"fltCat":"VFR"},{"icaoId":"KMFR","receiptTime":"2026-04-14T03:57:11.513Z","obsTime":1776138780,"reportTime":"2026-04-14T04:00:00.000Z","temp":10.6,"dewp":6.1,"wdir":340,"wspd":7,"visib":"10+","altim":1020.7,"slp":1020.8,"qcField":12,"metarType":"METAR","rawOb":"METAR KMFR 140353Z 34007KT 10SM OVC034 11/06 A3014 RMK AO2 SLP208 T01060061 $","lat":42.375,"lon":-122.877,"elev":397,"name":"Medford/Rogue Valley Intl, OR, US","cover":"OVC","clouds":[{"cover":"OVC","base":3400}],"fltCat":"VFR"},{"icaoId":"KBFI","receiptTime":"2026-04-14T03:56:56.829Z","obsTime":1776138780,"reportTime":"2026-04-14T04:00:00.000Z","temp":10.6,"dewp":2.8,"wdir":210,"wspd":5,"visib":"10+","altim":1019.4,"slp":1019.1,"qcField":4,"metarType":"METAR","rawOb":"METAR KBFI 140353Z 21005KT 10SM OVC055 11/03 A3010 RMK AO2 SLP191 T01060028","lat":47.5455,"lon":-122.3148,"elev":7,"name":"Seattle/Boeing Fld, WA, US","cover":"OVC","clouds":[{"cover":"OVC","base":5500}],"fltCat":"VFR"},{"icaoId":"KSNA","receiptTime":"2026-04-14T03:56:32.013Z","obsTime":1776138780,"reportTime":"2026-04-14T04:00:00.000Z","temp":16.1,"dewp":8.9,"wdir":240,"wspd":4,"visib":"10+","altim":1018,"slp":1017.8,"qcField":12,"metarType":"METAR","rawOb":"METAR KSNA 140353Z 24004KT 10SM FEW025 FEW035 SCT080 16/09 A3006 RMK AO2 SLP178 T01610089 $","lat":33.6798,"lon":-117.8675,"elev":14,"name":"Santa Ana/Wayne Arpt, CA, US","cover":"SCT","clouds":[{"cover":"FEW","base":2500},{"cover":"FEW","base":3500},{"cover":"SCT","base":8000}],"fltCat":"VFR"},{"icaoId":"KOGD","receiptTime":"2026-04-14T03:56:34.335Z","obsTime":1776138780,"reportTime":"2026-04-14T04:00:00.000Z","temp":7.8,"dewp":-1.7,"wdir":180,"wspd":4,"visib":"10+","altim":1013.3,"slp":1011.7,"qcField":6,"metarType":"METAR","rawOb":"METAR KOGD 140353Z AUTO 18004KT 10SM CLR 08/M02 A2992 RMK AO2 SLP117 T00781017","lat":41.1941,"lon":-112.0168,"elev":1356,"name":"Ogden/Hinckley Arpt, UT, US","cover":"CLR","clouds":[],"fltCat":"VFR"},{"icaoId":"KSDL","receiptTime":"2026-04-14T03:56:31.854Z","obsTime":1776138780,"reportTime":"2026-04-14T04:00:00.000Z","temp":20.6,"dewp":6.1,"wdir":270,"wspd":9,"wgst":20,"visib":"10+","altim":1013,"slp":1011.2,"qcField":6,"precip":0.005,"metarType":"METAR","rawOb":"METAR KSDL 140353Z AUTO 27009G20KT 10SM BKN110 21/06 A2991 RMK AO2 RAB43E53 SLP112 P0000 T02060061","lat":33.6123,"lon":-111.9232,"elev":438,"name":"Scottsdale Muni, AZ, US","cover":"BKN","clouds":[{"cover":"BKN","base":11000}],"fltCat":"VFR"},{"icaoId":"KMYR","receiptTime":"2026-04-14T03:57:09.142Z","obsTime":1776138780,"reportTime":"2026-04-14T04:00:00.000Z","temp":18.9,"dewp":16.7,"wdir":210,"wspd":6,"visib":"10+","altim":1024.8,"slp":1024.6,"qcField":14,"maxT24":24.4,"minT24":15.6,"metarType":"METAR","rawOb":"METAR KMYR 140353Z AUTO 21006KT 10SM CLR 19/17 A3026 RMK AO2 SLP246 T01890167 402440156 $","lat":33.6769,"lon":-78.9325,"elev":7,"name":"Myrtle Beach Intl, SC, US","cover":"CLR","clouds":[],"fltCat":"VFR"},{"icaoId":"KGEG","receiptTime":"2026-04-14T03:57:09.718Z","obsTime":1776138780,"reportTime":"2026-04-14T04:00:00.000Z","temp":9.4,"dewp":-0.6,"wdir":210,"wspd":17,"wgst":28,"visib":"10+","altim":1011.9,"slp":1012.3,"qcField":12,"metarType":"METAR","rawOb":"METAR KGEG 140353Z 21017G28KT 10SM FEW070 SCT200 09/M01 A2988 RMK AO2 PK WND 20031/0325 SLP123 T00941006 $","lat":47.6217,"lon":-117.528,"elev":718,"name":"Spokane Intl, WA, US","cover":"SCT","clouds":[{"cover":"FEW","base":7000},{"cover":"SCT","base":20000}],"fltCat":"VFR"},{"icaoId":"KBUR","receiptTime":"2026-04-14T03:57:12.357Z","obsTime":1776138780,"reportTime":"2026-04-14T04:00:00.000Z","temp":13.9,"dewp":7.2,"wdir":320,"wspd":4,"visib":"10+","altim":1017.7,"slp":1016.7,"qcField":4,"metarType":"METAR","rawOb":"METAR KBUR 140353Z 32004KT 10SM CLR 14/07 A3005 RMK AO2 SLP167 T01390072","lat":34.1996,"lon":-118.3654,"elev":221,"name":"Burbank/Bob Hope Arpt, CA, US","cover":"CLR","clouds":[],"fltCat":"VFR"},{"icaoId":"KLAX","receiptTime":"2026-04-14T03:57:08.483Z","obsTime":1776138780,"reportTime":"2026-04-14T04:00:00.000Z","temp":15.6,"dewp":10.6,"wdir":260,"wspd":18,"visib":"10+","altim":1017.7,"slp":1017.4,"qcField":12,"metarType":"METAR","rawOb":"METAR KLAX 140353Z 26018KT 10SM CLR 16/11 A3005 RMK AO2 SLP174 T01560106 $","lat":33.9382,"lon":-118.3866,"elev":30,"name":"Los Angeles Intl, CA, US","cover":"CLR","clouds":[],"fltCat":"VFR"},{"icaoId":"KBTM","receiptTime":"2026-04-14T03:56:57.181Z","obsTime":1776138780,"reportTime":"2026-04-14T04:00:00.000Z","temp":6.1,"dewp":-2.2,"wdir":310,"wspd":11,"visib":"10+","altim":1012.3,"slp":1011.9,"qcField":6,"metarType":"METAR","rawOb":"METAR KBTM 140353Z AUTO 31011KT 10SM OVC080 06/M02 A2989 RMK AO2 SLP119 T00611022","lat":45.9644,"lon":-112.5015,"elev":1680,"name":"Butte/Mooney Arpt, MT, US","cover":"OVC","clouds":[{"cover":"OVC","base":8000}],"fltCat":"VFR"},{"icaoId":"KDLN","receiptTime":"2026-04-14T03:56:13.242Z","obsTime":1776138780,"reportTime":"2026-04-14T04:00:00.000Z","temp":3.9,"dewp":-2.2,"wdir":200,"wspd":12,"visib":"10+","altim":1011.6,"slp":1010.9,"qcField":6,"metarType":"METAR","rawOb":"METAR KDLN 140353Z AUTO 20012KT 10SM FEW090 04/M02 A2987 RMK AO2 SLP109 T00391022","lat":45.2584,"lon":-112.5546,"elev":1586,"name":"Dillon Arpt, MT, US","cover":"FEW","clouds":[{"cover":"FEW","base":9000}],"fltCat":"VFR"},{"icaoId":"KRTN","receiptTime":"2026-04-14T03:56:13.838Z","obsTime":1776138780,"reportTime":"2026-04-14T04:00:00.000Z","temp":8.3,"dewp":-0.6,"wdir":210,"wspd":6,"visib":"10+","altim":1015.7,"slp":1009.6,"qcField":6,"metarType":"METAR","rawOb":"METAR KRTN 140353Z AUTO 21006KT 10SM CLR 08/M01 A2999 RMK AO2 SLP096 T00831006","lat":36.7418,"lon":-104.5076,"elev":1939,"name":"Raton/Crews Fld, NM, US","cover":"CLR","clouds":[],"fltCat":"VFR"},{"icaoId":"KSTS","receiptTime":"2026-04-14T03:56:35.029Z","obsTime":1776138780,"reportTime":"2026-04-14T04:00:00.000Z","temp":12.8,"dewp":7.8,"wdir":150,"wspd":3,"visib":"10+","altim":1019.4,"slp":1018.6,"qcField":6,"metarType":"METAR","rawOb":"METAR KSTS 140353Z AUTO 15003KT 10SM CLR 13/08 A3010 RMK AO2 SLP186 T01280078","lat":38.5037,"lon":-122.811,"elev":35,"name":"Santa Rosa/Schulz Arpt, CA, US","cover":"CLR","clouds":[],"fltCat":"VFR"},{"icaoId":"KSJC","receiptTime":"2026-04-14T03:56:34.643Z","obsTime":1776138780,"reportTime":"2026-04-14T04:00:00.000Z","temp":13.3,"dewp":8.3,"wdir":340,"wspd":8,"visib":"10+","altim":1020.4,"slp":1020,"qcField":12,"metarType":"METAR","rawOb":"METAR KSJC 140353Z 34008KT 10SM FEW035 13/08 A3013 RMK AO2 SLP200 T01330083 $","lat":37.3594,"lon":-121.9244,"elev":13,"name":"San Jose Intl Arpt, CA, US","cover":"FEW","clouds":[{"cover":"FEW","base":3500}],"fltCat":"VFR"},{"icaoId":"KAMA","receiptTime":"2026-04-14T03:56:29.498Z","obsTime":1776138780,"reportTime":"2026-04-14T04:00:00.000Z","temp":17.8,"dewp":1.1,"wdir":210,"wspd":10,"visib":"10+","altim":1013.3,"slp":1008.2,"qcField":4,"metarType":"METAR","rawOb":"METAR KAMA 140353Z 21010KT 10SM CLR 18/01 A2992 RMK AO2 SLP082 T01780011","lat":35.2203,"lon":-101.7173,"elev":1102,"name":"Amarillo Intl Arpt, TX, US","cover":"CLR","clouds":[],"fltCat":"VFR"},{"icaoId":"KFAT","receiptTime":"2026-04-14T03:57:07.680Z","obsTime":1776138780,"reportTime":"2026-04-14T04:00:00.000Z","temp":15.6,"dewp":6.7,"wdir":320,"wspd":7,"visib":"10+","altim":1018.4,"slp":1018.2,"qcField":4,"metarType":"METAR","rawOb":"METAR KFAT 140353Z 32007KT 10SM FEW090 FEW150 16/07 A3007 RMK AO2 SLP182 T01560067","lat":36.78,"lon":-119.7202,"elev":102,"name":"Fresno/Yosemite Intl, CA, US","cover":"FEW","clouds":[{"cover":"FEW","base":9000},{"cover":"FEW","base":15000}],"fltCat":"VFR"},{"icaoId":"KSBA","receiptTime":"2026-04-14T03:56:31.788Z","obsTime":1776138780,"reportTime":"2026-04-14T04:00:00.000Z","temp":15,"dewp":7.8,"wdir":270,"wspd":4,"visib":"10+","altim":1017.4,"slp":1017.1,"qcField":12,"metarType":"METAR","rawOb":"METAR KSBA 140353Z 27004KT 10SM CLR 15/08 A3004 RMK AO2 SLP171 T01500078 $","lat":34.4241,"lon":-119.8425,"elev":2,"name":"Santa Barbara Muni, CA, US","cover":"CLR","clouds":[],"fltCat":"VFR"},{"icaoId":"KOAK","receiptTime":"2026-04-14T03:56:34.258Z","obsTime":1776138780,"reportTime":"2026-04-14T04:00:00.000Z","temp":13.3,"dewp":8.9,"wdir":270,"wspd":10,"visib":"10+","altim":1020.4,"slp":1020.1,"qcField":12,"metarType":"METAR","rawOb":"METAR KOAK 140353Z 27010KT 10SM FEW020 13/09 A3013 RMK AO2 SLP201 T01330089 $","lat":37.7178,"lon":-122.233,"elev":3,"name":"Oakland Intl, CA, US","cover":"FEW","clouds":[{"cover":"FEW","base":2000}],"fltCat":"VFR"},{"icaoId":"KIAH","receiptTime":"2026-04-14T03:57:04.579Z","obsTime":1776138780,"reportTime":"2026-04-14T04:00:00.000Z","temp":22.8,"dewp":20.6,"wdir":160,"wspd":5,"visib":"10+","altim":1019.7,"slp":1019.7,"qcField":4,"metarType":"METAR","rawOb":"METAR KIAH 140353Z 16005KT 10SM FEW018 BKN040 23/21 A3011 RMK AO2 SLP197 T02280206","lat":29.9844,"lon":-95.3607,"elev":27,"name":"Houston/Bush Intl, TX, US","cover":"BKN","clouds":[{"cover":"FEW","base":1800},{"cover":"BKN","base":4000}],"fltCat":"VFR"},{"icaoId":"KMDW","receiptTime":"2026-04-14T03:56:40.230Z","obsTime":1776138780,"reportTime":"2026-04-14T04:00:00.000Z","temp":22.8,"dewp":16.7,"wdir":200,"wspd":16,"wgst":26,"visib":"10+","altim":1008.9,"slp":1007.8,"qcField":4,"metarType":"METAR","rawOb":"METAR KMDW 140353Z 20016G26KT 10SM FEW250 23/17 A2979 RMK AO2 PK WND 22029/0317 SLP078 T02280167","lat":41.7841,"lon":-87.7552,"elev":186,"name":"Chicago/Midway Intl, IL, US","cover":"FEW","clouds":[{"cover":"FEW","base":25000}],"fltCat":"VFR"},{"icaoId":"KACV","receiptTime":"2026-04-14T03:56:56.338Z","obsTime":1776138780,"reportTime":"2026-04-14T04:00:00.000Z","temp":8.9,"dewp":4.4,"wdir":360,"wspd":4,"visib":"10+","altim":1023.1,"slp":1023.6,"qcField":6,"metarType":"METAR","rawOb":"METAR KACV 140353Z AUTO 36004KT 10SM BKN050 09/04 A3021 RMK AO2 SLP236 T00890044","lat":40.9784,"lon":-124.1048,"elev":63,"name":"Arcata Arpt, CA, US","cover":"BKN","clouds":[{"cover":"BKN","base":5000}],"fltCat":"VFR"},{"icaoId":"KDMN","receiptTime":"2026-04-14T03:56:59.807Z","obsTime":1776138780,"reportTime":"2026-04-14T04:00:00.000Z","temp":18.9,"dewp":2.2,"wdir":220,"wspd":5,"visib":"10+","altim":1017.7,"slp":1011.4,"qcField":6,"metarType":"METAR","rawOb":"METAR KDMN 140353Z AUTO 22005KT 10SM SCT120 19/02 A3005 RMK AO2 SLP114 T01890022","lat":32.2592,"lon":-107.7206,"elev":1310,"name":"Deming Muni, NM, US","cover":"SCT","clouds":[{"cover":"SCT","base":12000}],"fltCat":"VFR"},{"icaoId":"KMIA","receiptTime":"2026-04-14T03:56:46.960Z","obsTime":1776138780,"reportTime":"2026-04-14T04:00:00.000Z","temp":23.9,"dewp":13.9,"wdir":70,"wspd":12,"wgst":20,"visib":"10+","altim":1022.1,"slp":1022.1,"qcField":0,"metarType":"METAR","rawOb":"METAR KMIA 140353Z 07012G20KT 10SM FEW035 FEW046 24/13 A3018 RMK SLP221 T02390139","lat":25.7881,"lon":-80.3169,"elev":1,"name":"Miami Intl, FL, US","cover":"FEW","clouds":[{"cover":"FEW","base":3500},{"cover":"FEW","base":4600}],"fltCat":"VFR"},{"icaoId":"KVEL","receiptTime":"2026-04-14T03:57:02.004Z","obsTime":1776138780,"reportTime":"2026-04-14T04:00:00.000Z","temp":9.4,"dewp":-2.2,"wdir":10,"wspd":3,"visib":"10+","altim":1013,"slp":1010,"qcField":6,"metarType":"METAR","rawOb":"METAR KVEL 140353Z AUTO 01003KT 10SM SCT085 09/M02 A2991 RMK AO2 SLP100 T00941022","lat":40.4429,"lon":-109.5128,"elev":1604,"name":"Vernal Rgnl, UT, US","cover":"SCT","clouds":[{"cover":"SCT","base":8500}],"fltCat":"VFR"},{"icaoId":"KDVT","receiptTime":"2026-04-14T03:56:14.542Z","obsTime":1776138780,"reportTime":"2026-04-14T04:00:00.000Z","temp":20.6,"dewp":5.6,"wdir":270,"wspd":16,"wgst":20,"visib":"10+","altim":1013,"slp":1011,"qcField":12,"metarType":"METAR","rawOb":"METAR KDVT 140353Z 27016G20KT 10SM 21/06 A2991 RMK AO2 SLP110 T02060056 $","lat":33.6902,"lon":-112.0662,"elev":454,"name":"Phoenix/Deer Valley Arpt, AZ, US"},{"icaoId":"KDAL","receiptTime":"2026-04-14T03:57:02.775Z","obsTime":1776138780,"reportTime":"2026-04-14T04:00:00.000Z","temp":25,"dewp":20.6,"wdir":160,"wspd":12,"wgst":19,"visib":"10+","altim":1015.7,"slp":1014.8,"qcField":4,"metarType":"METAR","rawOb":"METAR KDAL 140353Z 16012G19KT 10SM BKN250 25/21 A2999 RMK AO2 SLP148 T02500206","lat":32.8384,"lon":-96.8358,"elev":148,"name":"Dallas/Love Fld, TX, US","cover":"BKN","clouds":[{"cover":"BKN","base":25000}],"fltCat":"VFR"},{"icaoId":"KPDX","receiptTime":"2026-04-14T03:56:58.911Z","obsTime":1776138780,"reportTime":"2026-04-14T04:00:00.000Z","temp":10.6,"dewp":3.3,"wdir":280,"wspd":6,"visib":"10+","altim":1021.4,"slp":1021.3,"qcField":4,"metarType":"METAR","rawOb":"METAR KPDX 140353Z 28006KT 10SM FEW020 BKN055 11/03 A3016 RMK AO2 SLP213 T01060033","lat":45.5958,"lon":-122.6092,"elev":7,"name":"Portland Intl, OR, US","cover":"BKN","clouds":[{"cover":"FEW","base":2000},{"cover":"BKN","base":5500}],"fltCat":"VFR"},{"icaoId":"KELY","receiptTime":"2026-04-14T03:57:07.966Z","obsTime":1776138780,"reportTime":"2026-04-14T04:00:00.000Z","temp":3.3,"dewp":-1.1,"wdir":150,"wspd":7,"visib":"10+","altim":1014.6,"slp":1014.9,"qcField":14,"metarType":"METAR","rawOb":"METAR KELY 140353Z AUTO 15007KT 10SM FEW070 BKN085 03/M01 A2996 RMK AO2 SLP149 T00331011 $","lat":39.2954,"lon":-114.8466,"elev":1906,"name":"Ely/Yelland Fld, NV, US","cover":"BKN","clouds":[{"cover":"FEW","base":7000},{"cover":"BKN","base":8500}],"fltCat":"VFR"},{"icaoId":"KHLN","receiptTime":"2026-04-14T03:57:10.134Z","obsTime":1776138780,"reportTime":"2026-04-14T04:00:00.000Z","temp":10,"dewp":-0.6,"wdir":270,"wspd":10,"visib":"10+","altim":1010.2,"slp":1012.2,"qcField":6,"metarType":"METAR","rawOb":"METAR KHLN 140353Z AUTO 27010KT 10SM BKN090 OVC110 10/M01 A2983 RMK AO2 SLP122 T01001006","lat":46.6045,"lon":-111.9892,"elev":1178,"name":"Helena Rgnl, MT, US","cover":"OVC","clouds":[{"cover":"BKN","base":9000},{"cover":"OVC","base":11000}],"fltCat":"VFR"},{"icaoId":"KPSP","receiptTime":"2026-04-14T03:57:10.962Z","obsTime":1776138780,"reportTime":"2026-04-14T04:00:00.000Z","temp":17.8,"dewp":3.9,"wdir":330,"wspd":10,"visib":"10+","altim":1015,"slp":1014.9,"qcField":6,"metarType":"METAR","rawOb":"METAR KPSP 140353Z AUTO 33010KT 10SM CLR 18/04 A2997 RMK AO2 SLP149 T01780039","lat":33.8222,"lon":-116.5043,"elev":123,"name":"Palm Springs Intl, CA, US","cover":"CLR","clouds":[],"fltCat":"VFR"},{"icaoId":"KDRO","receiptTime":"2026-04-14T03:56:28.810Z","obsTime":1776138780,"reportTime":"2026-04-14T04:00:00.000Z","temp":6.1,"dewp":4.4,"wdir":90,"wspd":6,"visib":"10+","altim":1016.7,"slp":1013.9,"qcField":6,"precip":0.01,"metarType":"METAR","rawOb":"METAR KDRO 140353Z AUTO 09006KT 10SM BKN060 BKN075 OVC090 06/04 A3002 RMK AO2 RAB12E32 SLP139 P0001 T00610044","lat":37.1431,"lon":-107.7602,"elev":2021,"name":"Durango/La Plata Cnty, CO, US","cover":"OVC","clouds":[{"cover":"BKN","base":6000},{"cover":"BKN","base":7500},{"cover":"OVC","base":9000}],"fltCat":"VFR"},{"icaoId":"KMSP","receiptTime":"2026-04-14T03:57:08.022Z","obsTime":1776138780,"reportTime":"2026-04-14T04:00:00.000Z","temp":13.9,"dewp":10,"wdir":340,"wspd":6,"visib":"10+","altim":1005.8,"slp":1005.7,"qcField":4,"metarType":"METAR","rawOb":"METAR KMSP 140353Z 34006KT 10SM FEW110 SCT140 BKN250 14/10 A2970 RMK AO2 SLP057 T01390100","lat":44.8852,"lon":-93.2313,"elev":255,"name":"Minneapolis-St Paul Intl, MN, US","cover":"BKN","clouds":[{"cover":"FEW","base":11000},{"cover":"SCT","base":14000},{"cover":"BKN","base":25000}],"fltCat":"VFR"},{"icaoId":"KCNM","receiptTime":"2026-04-14T03:57:12.589Z","obsTime":1776138780,"reportTime":"2026-04-14T04:00:00.000Z","temp":21.1,"dewp":0.6,"wdir":230,"wspd":5,"visib":"10+","altim":1015.7,"slp":1010.4,"qcField":6,"metarType":"METAR","rawOb":"METAR KCNM 140353Z AUTO 23005KT 10SM CLR 21/01 A2999 RMK AO2 SLP104 T02110006","lat":32.3336,"lon":-104.2584,"elev":993,"name":"Carlsbad/Cavern City Air Term, NM, US","cover":"CLR","clouds":[],"fltCat":"VFR"},{"icaoId":"KFMN","receiptTime":"2026-04-14T03:56:59.903Z","obsTime":1776138780,"reportTime":"2026-04-14T04:00:00.000Z","temp":11.1,"dewp":0,"wdir":90,"wspd":6,"visib":"10+","altim":1014,"slp":1010.8,"qcField":6,"metarType":"METAR","rawOb":"METAR KFMN 140353Z AUTO 09006KT 10SM CLR 11/00 A2994 RMK AO2 SLP108 T01110000","lat":36.7435,"lon":-108.2293,"elev":1677,"name":"Farmington/Four Corners Rgnl, NM, US","cover":"CLR","clouds":[],"fltCat":"VFR"},{"icaoId":"KCLL","receiptTime":"2026-04-14T03:57:04.222Z","obsTime":1776138780,"reportTime":"2026-04-14T04:00:00.000Z","temp":22.8,"dewp":20,"wdir":160,"wspd":13,"visib":"10+","altim":1018.4,"slp":1017.7,"qcField":6,"metarType":"METAR","rawOb":"METAR KCLL 140353Z AUTO 16013KT 10SM SCT017 23/20 A3007 RMK AO2 SLP177 T02280200","lat":30.5912,"lon":-96.3631,"elev":96,"name":"College Station/Easterwood Arpt, TX, US","cover":"SCT","clouds":[{"cover":"SCT","base":1700}],"fltCat":"VFR"},{"icaoId":"KRIW","receiptTime":"2026-04-14T03:57:01.972Z","obsTime":1776138780,"reportTime":"2026-04-14T04:00:00.000Z","temp":5,"dewp":-8.3,"wdir":310,"wspd":13,"visib":"10+","altim":1011.9,"slp":1009.9,"qcField":6,"metarType":"METAR","rawOb":"METAR KRIW 140353Z AUTO 31013KT 10SM CLR 05/M08 A2988 RMK AO2 SLP099 T00501083","lat":43.0622,"lon":-108.4471,"elev":1662,"name":"Riverton Rgnl, WY, US","cover":"CLR","clouds":[],"fltCat":"VFR"},{"icaoId":"KLAR","receiptTime":"2026-04-14T03:57:08.466Z","obsTime":1776138780,"reportTime":"2026-04-14T04:00:00.000Z","temp":3.3,"dewp":-8.3,"wdir":100,"wspd":4,"visib":"10+","altim":1013.6,"slp":1008.4,"qcField":6,"metarType":"METAR","rawOb":"METAR KLAR 140353Z AUTO 10004KT 10SM CLR 03/M08 A2993 RMK AO2 SLP084 T00331083","lat":41.3165,"lon":-105.6729,"elev":2217,"name":"Laramie Rgnl, WY, US","cover":"CLR","clouds":[],"fltCat":"VFR"},{"icaoId":"KGTF","receiptTime":"2026-04-14T03:57:09.974Z","obsTime":1776138780,"reportTime":"2026-04-14T04:00:00.000Z","temp":6.1,"dewp":0,"wdir":230,"wspd":10,"visib":"10+","altim":1007.9,"slp":1008.9,"qcField":4,"metarType":"METAR","rawOb":"METAR KGTF 140353Z 23010KT 10SM CLR 06/00 A2976 RMK AO2 SLP089 T00610000","lat":47.4733,"lon":-111.3828,"elev":1117,"name":"Great Falls Intl, MT, US","cover":"CLR","clouds":[],"fltCat":"VFR"},{"icaoId":"KHIO","receiptTime":"2026-04-14T03:57:10.059Z","obsTime":1776138780,"reportTime":"2026-04-14T04:00:00.000Z","temp":8.9,"dewp":3.3,"wdir":230,"wspd":7,"visib":"10+","altim":1021.4,"slp":1021.2,"qcField":4,"metarType":"METAR","rawOb":"METAR KHIO 140353Z 23007KT 10SM SCT050 09/03 A3016 RMK AO2 SLP212 T00890033","lat":45.5476,"lon":-122.9557,"elev":62,"name":"Portland/Hillsboro Arpt, OR, US","cover":"SCT","clouds":[{"cover":"SCT","base":5000}],"fltCat":"VFR"},{"icaoId":"KONT","receiptTime":"2026-04-14T03:57:10.554Z","obsTime":1776138780,"reportTime":"2026-04-14T04:00:00.000Z","temp":13.9,"dewp":6.1,"wdir":250,"wspd":7,"visib":"10+","altim":1017.7,"slp":1017.2,"qcField":12,"metarType":"METAR","rawOb":"METAR KONT 140353Z 25007KT 10SM FEW043 SCT060 14/06 A3005 RMK AO2 SLP172 T01390061 $","lat":34.0531,"lon":-117.5769,"elev":279,"name":"Ontario Intl, CA, US","cover":"SCT","clouds":[{"cover":"FEW","base":4300},{"cover":"SCT","base":6000}],"fltCat":"VFR"},{"icaoId":"KPBI","receiptTime":"2026-04-14T03:57:10.733Z","obsTime":1776138780,"reportTime":"2026-04-14T04:00:00.000Z","temp":23.9,"dewp":17.2,"wdir":80,"wspd":14,"visib":"10+","altim":1022.8,"slp":1022.6,"qcField":12,"metarType":"METAR","rawOb":"METAR KPBI 140353Z 08014KT 10SM SCT030 SCT055 24/17 A3020 RMK AO2 SLP226 T02390172 $","lat":26.6851,"lon":-80.0992,"elev":4,"name":"Palm Beach Intl, FL, US","cover":"SCT","clouds":[{"cover":"SCT","base":3000},{"cover":"SCT","base":5500}],"fltCat":"VFR"},{"icaoId":"KPNC","receiptTime":"2026-04-14T03:57:10.882Z","obsTime":1776138780,"reportTime":"2026-04-14T04:00:00.000Z","temp":25,"dewp":19.4,"wdir":180,"wspd":11,"wgst":26,"visib":"10+","altim":1009.6,"slp":1008.1,"qcField":6,"metarType":"METAR","rawOb":"METAR KPNC 140353Z AUTO 18011G26KT 10SM CLR 25/19 A2981 RMK AO2 PK WND 21026/0348 SLP081 T02500194","lat":36.7369,"lon":-97.1024,"elev":304,"name":"Ponca City Rgnl, OK, US","cover":"CLR","clouds":[],"fltCat":"VFR"},{"icaoId":"KMCI","receiptTime":"2026-04-14T03:57:07.879Z","obsTime":1776138780,"reportTime":"2026-04-14T04:00:00.000Z","temp":20,"dewp":12.2,"wdir":170,"wspd":17,"wgst":23,"visib":"10+","altim":1008.5,"slp":1007.3,"qcField":4,"metarType":"METAR","rawOb":"METAR KMCI 140353Z 17017G23KT 10SM FEW100 SCT250 20/12 A2978 RMK AO2 SLP073 CONS LTGICCCCACG DSNT NE-SE-S T02000122","lat":39.2975,"lon":-94.7309,"elev":308,"name":"Kansas City Intl, MO, US","cover":"SCT","clouds":[{"cover":"FEW","base":10000},{"cover":"SCT","base":25000}],"fltCat":"VFR"},{"icaoId":"KIDA","receiptTime":"2026-04-14T03:57:11.173Z","obsTime":1776138780,"reportTime":"2026-04-14T04:00:00.000Z","temp":3.9,"dewp":1.1,"wdir":190,"wspd":8,"visib":"10+","altim":1014.6,"slp":1014.8,"qcField":6,"metarType":"METAR","rawOb":"METAR KIDA 140353Z AUTO 19008KT 10SM CLR 04/01 A2996 RMK AO2 SLP148 T00390011","lat":43.5204,"lon":-112.0675,"elev":1444,"name":"Idaho Falls Rgnl, ID, US","cover":"CLR","clouds":[],"fltCat":"VFR"},{"icaoId":"KMFE","receiptTime":"2026-04-14T03:57:04.619Z","obsTime":1776138780,"reportTime":"2026-04-14T04:00:00.000Z","temp":23.9,"dewp":21.7,"wdir":120,"wspd":12,"visib":"10+","altim":1016.7,"slp":1016.2,"qcField":4,"metarType":"METAR","rawOb":"METAR KMFE 140353Z 12012KT 10SM CLR 24/22 A3002 RMK AO2 SLP162 T02390217","lat":26.1791,"lon":-98.2445,"elev":29,"name":"McAllen/Miller Intl, TX, US","cover":"CLR","clouds":[],"fltCat":"VFR"},{"icaoId":"KLAW","receiptTime":"2026-04-14T03:57:11.238Z","obsTime":1776138780,"reportTime":"2026-04-14T04:00:00.000Z","temp":24.4,"dewp":19.4,"wdir":150,"wspd":11,"wgst":19,"visib":"10+","altim":1011.3,"slp":1010,"qcField":6,"metarType":"METAR","rawOb":"METAR KLAW 140353Z AUTO 15011G19KT 10SM CLR 24/19 A2986 RMK AO2 SLP100 T02440194","lat":34.5577,"lon":-98.4172,"elev":328,"name":"Lawton-Fort Sill Rgnl, OK, US","cover":"CLR","clouds":[],"fltCat":"VFR"},{"icaoId":"KLBB","receiptTime":"2026-04-14T03:57:11.257Z","obsTime":1776138780,"reportTime":"2026-04-14T04:00:00.000Z","temp":23.9,"dewp":0.6,"wdir":180,"wspd":16,"wgst":26,"visib":"10+","altim":1014.6,"slp":1009.5,"qcField":4,"metarType":"METAR","rawOb":"METAR KLBB 140353Z 18016G26KT 10SM FEW250 24/01 A2996 RMK AO2 PK WND 21026/0350 SLP095 T02390006","lat":33.6658,"lon":-101.8233,"elev":996,"name":"Lubbock Intl Arpt, TX, US","cover":"FEW","clouds":[{"cover":"FEW","base":25000}],"fltCat":"VFR"},{"icaoId":"KMAF","receiptTime":"2026-04-14T03:57:11.441Z","obsTime":1776138780,"reportTime":"2026-04-14T04:00:00.000Z","temp":22.2,"dewp":16.7,"wdir":190,"wspd":11,"visib":"10+","altim":1016,"slp":1011.8,"qcField":6,"metarType":"METAR","rawOb":"METAR KMAF 140353Z AUTO 19011KT 10SM CLR 22/17 A3000 RMK AO2 SLP118 T02220167","lat":31.9475,"lon":-102.2086,"elev":874,"name":"Midland Intl, TX, US","cover":"CLR","clouds":[],"fltCat":"VFR"},{"icaoId":"KMLS","receiptTime":"2026-04-14T03:57:11.636Z","obsTime":1776138780,"reportTime":"2026-04-14T04:00:00.000Z","temp":7.2,"dewp":6.1,"wdir":220,"wspd":15,"visib":8,"altim":1008.2,"slp":1008.6,"qcField":6,"wxString":"-RA","precip":0.07,"metarType":"METAR","rawOb":"METAR KMLS 140353Z AUTO 22015KT 8SM -RA OVC048 07/06 A2977 RMK AO2 SLP086 P0007 T00720061","lat":46.4265,"lon":-105.8834,"elev":800,"name":"Miles City/Wiley Fld, MT, US","cover":"OVC","clouds":[{"cover":"OVC","base":4800}],"fltCat":"VFR"},{"icaoId":"KMOD","receiptTime":"2026-04-14T03:57:11.664Z","obsTime":1776138780,"reportTime":"2026-04-14T04:00:00.000Z","temp":13.9,"dewp":7.2,"wdir":320,"wspd":5,"visib":"10+","altim":1018.4,"slp":1018.4,"qcField":6,"metarType":"METAR","rawOb":"METAR KMOD 140353Z AUTO 32005KT 10SM CLR 14/07 A3007 RMK AO2 SLP184 T01390072","lat":37.6254,"lon":-120.9549,"elev":25,"name":"Modesto/Sham Fld, CA, US","cover":"CLR","clouds":[],"fltCat":"VFR"},{"icaoId":"KBRO","receiptTime":"2026-04-14T03:57:12.324Z","obsTime":1776138780,"reportTime":"2026-04-14T04:00:00.000Z","temp":25,"dewp":22.2,"wdir":130,"wspd":13,"visib":"10+","altim":1017.4,"slp":1017,"qcField":4,"metarType":"METAR","rawOb":"METAR KBRO 140353Z 13013KT 10SM CLR 25/22 A3004 RMK AO2 SLP170 T02500222","lat":25.9146,"lon":-97.4231,"elev":6,"name":"Brownsville Intl, TX, US","cover":"CLR","clouds":[],"fltCat":"VFR"},{"icaoId":"KCYS","receiptTime":"2026-04-14T03:57:12.714Z","obsTime":1776138780,"reportTime":"2026-04-14T04:00:00.000Z","temp":10.6,"dewp":-8.3,"wdir":50,"wspd":7,"visib":"10+","altim":1013,"slp":1007,"qcField":6,"metarType":"METAR","rawOb":"METAR KCYS 140353Z AUTO 05007KT 10SM OVC110 11/M08 A2991 RMK AO2 SLP070 T01061083","lat":41.1579,"lon":-104.8081,"elev":1868,"name":"Cheyenne Rgnl, WY, US","cover":"OVC","clouds":[{"cover":"OVC","base":11000}],"fltCat":"VFR"},{"icaoId":"KFUL","receiptTime":"2026-04-14T03:57:12.856Z","obsTime":1776138780,"reportTime":"2026-04-14T04:00:00.000Z","temp":16.1,"dewp":8.3,"wdir":"VRB","wspd":4,"visib":"10+","altim":1017.4,"slp":1017.2,"qcField":6,"metarType":"METAR","rawOb":"METAR KFUL 140353Z AUTO VRB04KT 10SM FEW060 16/08 A3004 RMK AO2 SLP172 T01610083","lat":33.8715,"lon":-117.9856,"elev":23,"name":"Fullerton Muni, CA, US","cover":"FEW","clouds":[{"cover":"FEW","base":6000}],"fltCat":"VFR"},{"icaoId":"KGJT","receiptTime":"2026-04-14T03:57:13.090Z","obsTime":1776138780,"reportTime":"2026-04-14T04:00:00.000Z","temp":13.9,"dewp":-4.4,"wdir":50,"wspd":6,"visib":"10+","altim":1010.2,"slp":1005.8,"qcField":6,"metarType":"METAR","rawOb":"METAR KGJT 140353Z AUTO 05006KT 10SM BKN100 OVC120 14/M04 A2983 RMK AO2 SLP058 T01391044","lat":39.1344,"lon":-108.5408,"elev":1475,"name":"Grand Junction Rgnl, CO, US","cover":"OVC","clouds":[{"cover":"BKN","base":10000},{"cover":"OVC","base":12000}],"fltCat":"VFR"},{"icaoId":"KMLC","receiptTime":"2026-04-14T03:57:11.599Z","obsTime":1776138780,"reportTime":"2026-04-14T04:00:00.000Z","temp":23.9,"dewp":20,"wdir":"VRB","wspd":6,"wgst":20,"visib":"10+","altim":1014,"slp":1013.1,"qcField":6,"metarType":"METAR","rawOb":"METAR KMLC 140353Z AUTO VRB06G20KT 10SM FEW022 24/20 A2994 RMK AO2 SLP131 T02390200","lat":34.8824,"lon":-95.7815,"elev":231,"name":"McAlester Rgnl, OK, US","cover":"FEW","clouds":[{"cover":"FEW","base":2200}],"fltCat":"VFR"},{"icaoId":"KDEN","receiptTime":"2026-04-14T03:57:12.806Z","obsTime":1776138780,"reportTime":"2026-04-14T04:00:00.000Z","temp":13.3,"dewp":-8.9,"wdir":50,"wspd":8,"visib":"10+","altim":1010.2,"slp":1004.4,"qcField":4,"metarType":"METAR","rawOb":"METAR KDEN 140353Z 05008KT 10SM BKN140 13/M09 A2983 RMK AO2 SLP044 T01331089","lat":39.8466,"lon":-104.6562,"elev":1656,"name":"Denver Intl, CO, US","cover":"BKN","clouds":[{"cover":"BKN","base":14000}],"fltCat":"VFR"},{"icaoId":"KLGB","receiptTime":"2026-04-14T03:57:08.650Z","obsTime":1776138780,"reportTime":"2026-04-14T04:00:00.000Z","temp":16.1,"dewp":9.4,"wdir":260,"wspd":6,"visib":"10+","altim":1017.4,"slp":1017.3,"qcField":12,"metarType":"METAR","rawOb":"METAR KLGB 140353Z 26006KT 10SM CLR 16/09 A3004 RMK AO2 SLP173 T01610094 $","lat":33.8118,"lon":-118.1472,"elev":10,"name":"Long Beach Arpt, CA, US","cover":"CLR","clouds":[],"fltCat":"VFR"},{"icaoId":"KMKE","receiptTime":"2026-04-14T03:57:03.736Z","obsTime":1776138720,"reportTime":"2026-04-14T04:00:00.000Z","temp":13.3,"dewp":10,"wdir":160,"wspd":6,"visib":"10+","altim":1005.8,"slp":1005.6,"qcField":4,"metarType":"METAR","rawOb":"METAR KMKE 140352Z 16006KT 10SM FEW048 SCT150 13/10 A2970 RMK AO2 SLP056 T01330100","lat":42.9549,"lon":-87.9045,"elev":203,"name":"Milwaukee/Mitchell Intl, WI, US","cover":"SCT","clouds":[{"cover":"FEW","base":4800},{"cover":"SCT","base":15000}],"fltCat":"VFR"},{"icaoId":"KIAD","receiptTime":"2026-04-14T03:57:09.126Z","obsTime":1776138720,"reportTime":"2026-04-14T04:00:00.000Z","temp":19.4,"dewp":11.1,"wdir":210,"wspd":9,"visib":"10+","altim":1017.7,"slp":1017.5,"qcField":4,"metarType":"METAR","rawOb":"METAR KIAD 140352Z 21009KT 10SM CLR 19/11 A3005 RMK AO2 SLP175 T01940111","lat":38.9348,"lon":-77.4473,"elev":90,"name":"Washington/Dulles Intl, VA, US","cover":"CLR","clouds":[],"fltCat":"VFR"},{"icaoId":"KCVG","receiptTime":"2026-04-14T03:57:09.252Z","obsTime":1776138720,"reportTime":"2026-04-14T04:00:00.000Z","temp":19.4,"dewp":13.3,"wdir":180,"wspd":10,"visib":"10+","altim":1017.4,"slp":1016.3,"qcField":4,"metarType":"METAR","rawOb":"METAR KCVG 140352Z 18010KT 10SM FEW060 SCT250 19/13 A3004 RMK AO2 SLP163 T01940133","lat":39.0444,"lon":-84.6724,"elev":264,"name":"Cincinnati Intl, KY, US","cover":"SCT","clouds":[{"cover":"FEW","base":6000},{"cover":"SCT","base":25000}],"fltCat":"VFR"},{"icaoId":"KDCA","receiptTime":"2026-04-14T03:57:09.268Z","obsTime":1776138720,"reportTime":"2026-04-14T04:00:00.000Z","temp":19.4,"dewp":13.3,"wdir":180,"wspd":6,"visib":"10+","altim":1017.7,"slp":1017.6,"qcField":4,"metarType":"METAR","rawOb":"METAR KDCA 140352Z 18006KT 10SM SCT250 19/13 A3005 RMK AO2 SLP176 T01940133","lat":38.8472,"lon":-77.0345,"elev":4,"name":"Washington/Reagan-National Arpt, VA, US","cover":"SCT","clouds":[{"cover":"SCT","base":25000}],"fltCat":"VFR"},{"icaoId":"KCLT","receiptTime":"2026-04-14T03:57:09.284Z","obsTime":1776138720,"reportTime":"2026-04-14T04:00:00.000Z","temp":18.9,"dewp":12.2,"wdir":200,"wspd":4,"visib":"10+","altim":1023.1,"slp":1023.8,"qcField":4,"metarType":"METAR","rawOb":"METAR KCLT 140352Z 20004KT 10SM CLR 19/12 A3021 RMK AO2 SLP238 T01890122","lat":35.2225,"lon":-80.9543,"elev":223,"name":"Charlotte/Douglas Intl, NC, US","cover":"CLR","clouds":[],"fltCat":"VFR"},{"icaoId":"KHRL","receiptTime":"2026-04-14T03:56:46.685Z","obsTime":1776138720,"reportTime":"2026-04-14T04:00:00.000Z","temp":22.8,"dewp":21.7,"wdir":140,"wspd":11,"visib":"10+","altim":1017,"slp":1016.8,"qcField":4,"metarType":"METAR","rawOb":"METAR KHRL 140352Z 14011KT 10SM CLR 23/22 A3003 RMK AO2 SLP168 T02280217","lat":26.2303,"lon":-97.6556,"elev":9,"name":"Harlingen/Valley Intl, TX, US","cover":"CLR","clouds":[],"fltCat":"VFR"},{"icaoId":"KATL","receiptTime":"2026-04-14T03:56:46.940Z","obsTime":1776138720,"reportTime":"2026-04-14T04:00:00.000Z","temp":20,"dewp":10.6,"wdir":190,"wspd":3,"visib":"10+","altim":1023.8,"slp":1023,"qcField":12,"metarType":"METAR","rawOb":"METAR KATL 140352Z 19003KT 10SM CLR 20/11 A3023 RMK AO2 SLP230 T02000106 $","lat":33.6297,"lon":-84.4422,"elev":309,"name":"Atlanta/Hartsfield-Jackson Intl, GA, US","cover":"CLR","clouds":[],"fltCat":"VFR"},{"icaoId":"KABI","receiptTime":"2026-04-14T03:56:57.809Z","obsTime":1776138720,"reportTime":"2026-04-14T04:00:00.000Z","temp":23.3,"dewp":18.3,"wdir":170,"wspd":11,"visib":"10+","altim":1015.3,"slp":1012.8,"qcField":4,"metarType":"METAR","rawOb":"METAR KABI 140352Z 17011KT 10SM CLR 23/18 A2998 RMK AO2 SLP128 T02330183","lat":32.4106,"lon":-99.6821,"elev":543,"name":"Abilene Rgnl, TX, US","cover":"CLR","clouds":[],"fltCat":"VFR"},{"icaoId":"KABQ","receiptTime":"2026-04-14T03:56:57.824Z","obsTime":1776138720,"reportTime":"2026-04-14T04:00:00.000Z","temp":16.1,"dewp":1.7,"wdir":220,"wspd":8,"visib":"10+","altim":1016.7,"slp":1011.1,"qcField":4,"precip":0.005,"metarType":"METAR","rawOb":"METAR KABQ 140352Z 22008KT 10SM FEW080 BKN110 BKN250 16/02 A3002 RMK AO2 RAB03E16 SLP111 P0000 T01610017","lat":35.0419,"lon":-106.6154,"elev":1620,"name":"Albuquerque Intl, NM, US","cover":"BKN","clouds":[{"cover":"FEW","base":8000},{"cover":"BKN","base":11000},{"cover":"BKN","base":25000}],"fltCat":"VFR"},{"icaoId":"KOKC","receiptTime":"2026-04-14T03:56:46.705Z","obsTime":1776138720,"reportTime":"2026-04-14T04:00:00.000Z","temp":23.3,"dewp":19.4,"wdir":170,"wspd":15,"wgst":27,"visib":"10+","altim":1011.6,"slp":1010.1,"qcField":4,"metarType":"METAR","rawOb":"METAR KOKC 140352Z 17015G27KT 10SM SCT250 23/19 A2987 RMK AO2 PK WND 16028/0325 SLP101 T02330194","lat":35.3843,"lon":-97.6003,"elev":391,"name":"Oklahoma City/Will Rogers Intl, OK, US","cover":"SCT","clouds":[{"cover":"SCT","base":25000}],"fltCat":"VFR"},{"icaoId":"KSPS","receiptTime":"2026-04-14T03:56:57.758Z","obsTime":1776138720,"reportTime":"2026-04-14T04:00:00.000Z","temp":25.6,"dewp":18.9,"wdir":190,"wspd":18,"wgst":29,"visib":"10+","altim":1011.9,"slp":1010.4,"qcField":6,"metarType":"METAR","rawOb":"METAR KSPS 140352Z AUTO 19018G29KT 10SM CLR 26/19 A2988 RMK AO2 PK WND 17029/0352 SLP104 T02560189","lat":33.9785,"lon":-98.493,"elev":310,"name":"Wichita Falls Rgnl, TX, US","cover":"CLR","clouds":[],"fltCat":"VFR"},{"icaoId":"KCMH","receiptTime":"2026-04-14T03:54:14.222Z","obsTime":1776138660,"reportTime":"2026-04-14T04:00:00.000Z","temp":20,"dewp":10,"wdir":200,"wspd":12,"visib":"10+","altim":1017.4,"slp":1016.8,"qcField":4,"metarType":"METAR","rawOb":"METAR KCMH 140351Z 20012KT 10SM FEW050 SCT250 20/10 A3004 RMK AO2 SLP168 T02000100","lat":39.9907,"lon":-82.877,"elev":257,"name":"Columbus/Glenn Intl, OH, US","cover":"SCT","clouds":[{"cover":"FEW","base":5000},{"cover":"SCT","base":25000}],"fltCat":"VFR"},{"icaoId":"KVNY","receiptTime":"2026-04-14T03:54:13.941Z","obsTime":1776138660,"reportTime":"2026-04-14T04:00:00.000Z","temp":14.4,"dewp":7.8,"wdir":280,"wspd":5,"visib":"10+","altim":1017.4,"slp":1016.8,"qcField":12,"metarType":"METAR","rawOb":"METAR KVNY 140351Z 28005KT 10SM CLR 14/08 A3004 RMK AO2 SLP168 T01440078 $","lat":34.2121,"lon":-118.4915,"elev":241,"name":"Van Nuys Arpt, CA, US","cover":"CLR","clouds":[],"fltCat":"VFR"},{"icaoId":"KSAT","receiptTime":"2026-04-14T03:54:13.816Z","obsTime":1776138660,"reportTime":"2026-04-14T04:00:00.000Z","temp":23.9,"dewp":20,"wdir":130,"wspd":12,"wgst":24,"visib":"10+","altim":1017.7,"slp":1015.9,"qcField":12,"metarType":"METAR","rawOb":"METAR KSAT 140351Z 13012G24KT 10SM OVC019 24/20 A3005 RMK AO2 SLP159 T02390200 $","lat":29.5443,"lon":-98.4839,"elev":246,"name":"San Antonio Intl, TX, US","cover":"OVC","clouds":[{"cover":"OVC","base":1900}],"fltCat":"MVFR"},{"icaoId":"KJFK","receiptTime":"2026-04-14T03:54:13.426Z","obsTime":1776138660,"reportTime":"2026-04-14T04:00:00.000Z","temp":19.4,"dewp":11.1,"wdir":240,"wspd":13,"visib":"10+","altim":1016,"slp":1015.7,"qcField":4,"precip":0.005,"metarType":"METAR","rawOb":"METAR KJFK 140351Z 24013KT 10SM BKN100 BKN130 BKN250 19/11 A3000 RMK AO2 RAE0256 SLP157 P0000 T01940111","lat":40.6392,"lon":-73.7639,"elev":3,"name":"New York/JF Kennedy Intl, NY, US","cover":"BKN","clouds":[{"cover":"BKN","base":10000},{"cover":"BKN","base":13000},{"cover":"BKN","base":25000}],"fltCat":"VFR"},{"icaoId":"KBDL","receiptTime":"2026-04-14T03:54:14.101Z","obsTime":1776138660,"reportTime":"2026-04-14T04:00:00.000Z","temp":16.1,"dewp":12.8,"wdir":200,"wspd":4,"visib":"10+","altim":1014.3,"slp":1014.2,"qcField":4,"metarType":"METAR","rawOb":"METAR KBDL 140351Z 20004KT 10SM FEW120 SCT250 16/13 A2995 RMK AO2 SLP142 T01610128","lat":41.9374,"lon":-72.682,"elev":52,"name":"Hartford/Bradley Intl, CT, US","cover":"SCT","clouds":[{"cover":"FEW","base":12000},{"cover":"SCT","base":25000}],"fltCat":"VFR"},{"icaoId":"KEWR","receiptTime":"2026-04-14T03:54:13.304Z","obsTime":1776138660,"reportTime":"2026-04-14T04:00:00.000Z","temp":22.8,"dewp":11.7,"wdir":250,"wspd":11,"visib":"10+","altim":1015.7,"slp":1015.3,"qcField":4,"metarType":"METAR","rawOb":"METAR KEWR 140351Z 25011KT 10SM FEW080 SCT095 SCT250 23/12 A2999 RMK AO2 SLP153 T02280117","lat":40.6828,"lon":-74.1692,"elev":2,"name":"Newark Intl, NJ, US","cover":"SCT","clouds":[{"cover":"FEW","base":8000},{"cover":"SCT","base":9500},{"cover":"SCT","base":25000}],"fltCat":"VFR"},{"icaoId":"KLGU","receiptTime":"2026-04-14T03:54:13.453Z","obsTime":1776138660,"reportTime":"2026-04-14T04:00:00.000Z","temp":6.7,"dewp":2.8,"wdir":340,"wspd":10,"visib":"10+","altim":1014.3,"slp":1013.3,"qcField":6,"metarType":"METAR","rawOb":"METAR KLGU 140351Z AUTO 34010KT 10SM FEW080 OVC100 07/03 A2995 RMK AO2 SLP133 T00670028","lat":41.7865,"lon":-111.8519,"elev":1359,"name":"Logan/Cache Arpt, UT, US","cover":"OVC","clouds":[{"cover":"FEW","base":8000},{"cover":"OVC","base":10000}],"fltCat":"VFR"},{"icaoId":"KRDU","receiptTime":"2026-04-14T03:54:13.758Z","obsTime":1776138660,"reportTime":"2026-04-14T04:00:00.000Z","temp":20,"dewp":11.7,"wdir":210,"wspd":8,"visib":"10+","altim":1022.4,"slp":1021.8,"qcField":4,"metarType":"METAR","rawOb":"METAR KRDU 140351Z 21008KT 10SM FEW250 20/12 A3019 RMK AO2 SLP218 T02000117","lat":35.8923,"lon":-78.782,"elev":121,"name":"Raleigh-Durham Intl, NC, US","cover":"FEW","clouds":[{"cover":"FEW","base":25000}],"fltCat":"VFR"},{"icaoId":"KSAN","receiptTime":"2026-04-14T03:54:13.793Z","obsTime":1776138660,"reportTime":"2026-04-14T04:00:00.000Z","temp":15.6,"dewp":8.9,"wdir":300,"wspd":5,"visib":"10+","altim":1019.4,"slp":1019.2,"qcField":12,"metarType":"METAR","rawOb":"METAR KSAN 140351Z 30005KT 10SM SCT035 SCT070 16/09 A3010 RMK AO2 SLP192 T01560089 $","lat":32.7364,"lon":-117.1973,"elev":3,"name":"San Diego Intl Arpt, CA, US","cover":"SCT","clouds":[{"cover":"SCT","base":3500},{"cover":"SCT","base":7000}],"fltCat":"VFR"},{"icaoId":"KSAD","receiptTime":"2026-04-14T03:54:13.781Z","obsTime":1776138660,"reportTime":"2026-04-14T04:00:00.000Z","temp":21.1,"dewp":0.6,"wdir":200,"wspd":15,"visib":"10+","altim":1013.6,"slp":1009.5,"qcField":6,"metarType":"METAR","rawOb":"METAR KSAD 140351Z AUTO 20015KT 10SM CLR 21/01 A2993 RMK AO2 PK WND 20028/0252 SLP095 T02110006","lat":32.8565,"lon":-109.636,"elev":937,"name":"Safford Rgnl, AZ, US","cover":"CLR","clouds":[],"fltCat":"VFR"},{"icaoId":"KROW","receiptTime":"2026-04-14T03:54:13.770Z","obsTime":1776138660,"reportTime":"2026-04-14T04:00:00.000Z","temp":17.8,"dewp":0.6,"wdir":230,"wspd":6,"visib":"10+","altim":1015.3,"slp":1009.9,"qcField":6,"metarType":"METAR","rawOb":"METAR KROW 140351Z AUTO 23006KT 10SM CLR 18/01 A2998 RMK AO2 SLP099 T01780006","lat":33.3074,"lon":-104.5082,"elev":1105,"name":"Roswell/Ind Arpt, NM, US","cover":"CLR","clouds":[],"fltCat":"VFR"},{"icaoId":"KPVD","receiptTime":"2026-04-14T03:54:13.734Z","obsTime":1776138660,"reportTime":"2026-04-14T04:00:00.000Z","temp":11.1,"dewp":8.9,"wdir":210,"wspd":3,"visib":9,"altim":1014.3,"slp":1014.1,"qcField":4,"metarType":"METAR","rawOb":"METAR KPVD 140351Z 21003KT 9SM FEW120 11/09 A2995 RMK AO2 SLP141 LAST T01110089","lat":41.7225,"lon":-71.4325,"elev":15,"name":"Providence/Green Mem, RI, US","cover":"FEW","clouds":[{"cover":"FEW","base":12000}],"fltCat":"VFR"},{"icaoId":"KPIT","receiptTime":"2026-04-14T03:54:13.720Z","obsTime":1776138660,"reportTime":"2026-04-14T04:00:00.000Z","temp":20,"dewp":12.2,"wdir":210,"wspd":9,"wgst":16,"visib":"10+","altim":1017.7,"slp":1017.7,"qcField":4,"metarType":"METAR","rawOb":"METAR KPIT 140351Z 21009G16KT 10SM FEW150 SCT250 20/12 A3005 RMK AO2 SLP177 T02000122","lat":40.4814,"lon":-80.2083,"elev":339,"name":"Pittsburgh Intl, PA, US","cover":"SCT","clouds":[{"cover":"FEW","base":15000},{"cover":"SCT","base":25000}],"fltCat":"VFR"},{"icaoId":"KPHX","receiptTime":"2026-04-14T03:54:13.696Z","obsTime":1776138660,"reportTime":"2026-04-14T04:00:00.000Z","temp":21.7,"dewp":5.6,"wdir":280,"wspd":24,"wgst":29,"visib":"10+","altim":1012.3,"slp":1010.7,"qcField":4,"metarType":"METAR","rawOb":"METAR KPHX 140351Z 28024G29KT 10SM BKN110 BKN150 22/06 A2989 RMK AO2 PK WND 27030/0257 SLP107 T02170056","lat":33.4278,"lon":-112.0037,"elev":338,"name":"Phoenix/Sky Harbor Intl, AZ, US","cover":"BKN","clouds":[{"cover":"BKN","base":11000},{"cover":"BKN","base":15000}],"fltCat":"VFR"},{"icaoId":"KORD","receiptTime":"2026-04-14T03:54:13.654Z","obsTime":1776138660,"reportTime":"2026-04-14T04:00:00.000Z","temp":22.2,"dewp":16.7,"wdir":190,"wspd":14,"wgst":24,"visib":"10+","altim":1007.9,"slp":1007.5,"qcField":4,"metarType":"METAR","rawOb":"METAR KORD 140351Z 19014G24KT 10SM SCT250 22/17 A2976 RMK AO2 PK WND 19029/0300 SLP075 T02220167","lat":41.9602,"lon":-87.9316,"elev":202,"name":"Chicago/O'Hare Intl, IL, US","cover":"SCT","clouds":[{"cover":"SCT","base":25000}],"fltCat":"VFR"},{"icaoId":"KLGA","receiptTime":"2026-04-14T03:54:13.440Z","obsTime":1776138660,"reportTime":"2026-04-14T04:00:00.000Z","temp":22.8,"dewp":11.1,"wdir":240,"wspd":7,"visib":"10+","altim":1015.3,"slp":1015.1,"qcField":12,"metarType":"METAR","rawOb":"METAR KLGA 140351Z 24007KT 10SM FEW075 SCT110 SCT250 23/11 A2998 RMK AO2 SLP151 T02280111 $","lat":40.7794,"lon":-73.8803,"elev":9,"name":"New York/La Guardia Arpt, NY, US","cover":"SCT","clouds":[{"cover":"FEW","base":7500},{"cover":"SCT","base":11000},{"cover":"SCT","base":25000}],"fltCat":"VFR"},{"icaoId":"KIGM","receiptTime":"2026-04-14T03:54:13.376Z","obsTime":1776138660,"reportTime":"2026-04-14T04:00:00.000Z","temp":8.9,"dewp":3.3,"wdir":180,"wspd":7,"visib":"10+","altim":1014.3,"slp":1010.3,"qcField":6,"precip":0.005,"metarType":"METAR","rawOb":"METAR KIGM 140351Z AUTO 18007KT 10SM SCT060 09/03 A2995 RMK AO2 RAB13E22 SLP103 P0000 T00890033","lat":35.2575,"lon":-113.9341,"elev":1045,"name":"Kingman Arpt, AZ, US","cover":"SCT","clouds":[{"cover":"SCT","base":6000}],"fltCat":"VFR"},{"icaoId":"KCRP","receiptTime":"2026-04-14T03:54:13.207Z","obsTime":1776138660,"reportTime":"2026-04-14T04:00:00.000Z","temp":23.3,"dewp":21.7,"wdir":140,"wspd":17,"visib":"10+","altim":1017.7,"slp":1017.4,"qcField":4,"metarType":"METAR","rawOb":"METAR KCRP 140351Z 14017KT 10SM FEW012 FEW018 23/22 A3005 RMK AO2 SLP174 T02330217","lat":27.7734,"lon":-97.513,"elev":11,"name":"Corpus Christi Intl, TX, US","cover":"FEW","clouds":[{"cover":"FEW","base":1200},{"cover":"FEW","base":1800}],"fltCat":"VFR"},{"icaoId":"KOXR","receiptTime":"2026-04-14T03:54:13.684Z","obsTime":1776138660,"reportTime":"2026-04-14T04:00:00.000Z","temp":15,"dewp":10.6,"wdir":260,"wspd":10,"visib":"10+","altim":1017.4,"slp":1017,"qcField":12,"metarType":"METAR","rawOb":"METAR KOXR 140351Z 26010KT 10SM CLR 15/11 A3004 RMK AO2 SLP170 T01500106 $","lat":34.2001,"lon":-119.2042,"elev":12,"name":"Oxnard Arpt, CA, US","cover":"CLR","clouds":[],"fltCat":"VFR"},{"icaoId":"KMYL","receiptTime":"2026-04-14T03:54:13.641Z","obsTime":1776138660,"reportTime":"2026-04-14T04:00:00.000Z","temp":1.7,"dewp":1.7,"wdir":0,"wspd":0,"visib":"10+","altim":1016.3,"slp":1017.9,"qcField":6,"metarType":"METAR","rawOb":"METAR KMYL 140351Z AUTO 00000KT 10SM OVC006 02/02 A3001 RMK AO2 SLP179 T00170017","lat":44.8943,"lon":-116.0998,"elev":1532,"name":"McCall Muni, ID, US","cover":"OVC","clouds":[{"cover":"OVC","base":600}],"fltCat":"IFR"},{"icaoId":"KSTL","receiptTime":"2026-04-14T03:54:13.886Z","obsTime":1776138660,"reportTime":"2026-04-14T04:00:00.000Z","temp":24.4,"dewp":16.7,"wdir":190,"wspd":13,"wgst":22,"visib":"10+","altim":1012.3,"slp":1011.2,"qcField":12,"metarType":"METAR","rawOb":"METAR KSTL 140351Z 19013G22KT 10SM FEW150 OVC250 24/17 A2989 RMK AO2 SLP112 T02440167 $","lat":38.7525,"lon":-90.3734,"elev":163,"name":"St Louis/Lambert Intl, MO, US","cover":"OVC","clouds":[{"cover":"FEW","base":15000},{"cover":"OVC","base":25000}],"fltCat":"VFR"},{"icaoId":"KCLE","receiptTime":"2026-04-14T03:54:14.200Z","obsTime":1776138660,"reportTime":"2026-04-14T04:00:00.000Z","temp":16.7,"dewp":15,"wdir":180,"wspd":7,"visib":"10+","altim":1015.7,"slp":1016.6,"qcField":12,"precip":0.05,"metarType":"METAR","rawOb":"METAR KCLE 140351Z 18007KT 10SM BKN100 OVC140 17/15 A2999 RMK AO2 RAE37 TSE32 SLP166 P0005 T01670150 $","lat":41.4057,"lon":-81.8519,"elev":237,"name":"Cleveland/Hopkins Intl, OH, US","cover":"OVC","clouds":[{"cover":"BKN","base":10000},{"cover":"OVC","base":14000}],"fltCat":"VFR"},{"icaoId":"KORF","receiptTime":"2026-04-14T03:54:13.669Z","obsTime":1776138660,"reportTime":"2026-04-14T04:00:00.000Z","temp":21.1,"dewp":13.9,"wdir":210,"wspd":11,"visib":"10+","altim":1020.7,"slp":1020.5,"qcField":4,"metarType":"METAR","rawOb":"METAR KORF 140351Z 21011KT 10SM CLR 21/14 A3014 RMK AO2 SLP205 T02110139","lat":36.9037,"lon":-76.1927,"elev":5,"name":"Norfolk Intl, VA, US","cover":"CLR","clouds":[],"fltCat":"VFR"},{"icaoId":"KELP","receiptTime":"2026-04-14T03:54:13.271Z","obsTime":1776138660,"reportTime":"2026-04-14T04:00:00.000Z","temp":22.2,"dewp":1.7,"wdir":240,"wspd":13,"wgst":26,"visib":"10+","altim":1017.4,"slp":1010.9,"qcField":4,"metarType":"METAR","rawOb":"METAR KELP 140351Z 24013G26KT 10SM FEW110 FEW170 BKN250 22/02 A3004 RMK AO2 PK WND 24029/0339 SLP109 T02220017","lat":31.8123,"lon":-106.3774,"elev":1205,"name":"El Paso Intl, TX, US","cover":"BKN","clouds":[{"cover":"FEW","base":11000},{"cover":"FEW","base":17000},{"cover":"BKN","base":25000}],"fltCat":"VFR"},{"icaoId":"KACT","receiptTime":"2026-04-14T03:54:14.000Z","obsTime":1776138660,"reportTime":"2026-04-14T04:00:00.000Z","temp":23.9,"dewp":20,"wdir":160,"wspd":13,"visib":"10+","altim":1016.7,"slp":1015.7,"qcField":4,"metarType":"METAR","rawOb":"METAR KACT 140351Z 16013KT 10SM CLR 24/20 A3002 RMK AO2 SLP157 T02390200","lat":31.618,"lon":-97.2283,"elev":150,"name":"Waco Rgnl, TX, US","cover":"CLR","clouds":[],"fltCat":"VFR"},{"icaoId":"KIWA","receiptTime":"2026-04-14T03:51:12.885Z","obsTime":1776138600,"reportTime":"2026-04-14T04:00:00.000Z","temp":22,"dewp":7,"wdir":220,"wspd":11,"visib":"10+","altim":1013,"qcField":0,"metarType":"METAR","rawOb":"METAR KIWA 140350Z 22011KT 10SM OVC075 22/07 A2991","lat":33.3008,"lon":-111.6437,"elev":420,"name":"Phoenix/Mesa Gateway Arpt, AZ, US","cover":"OVC","clouds":[{"cover":"OVC","base":7500}],"fltCat":"VFR"},{"icaoId":"KSUN","receiptTime":"2026-04-14T03:54:12.810Z","obsTime":1776138420,"reportTime":"2026-04-14T04:00:00.000Z","temp":6,"dewp":-1,"wdir":310,"wspd":4,"visib":"10+","altim":1015,"qcField":0,"metarType":"METAR","rawOb":"METAR KSUN 140347Z 31004KT 10SM CLR 06/M01 A2997","lat":43.4969,"lon":-114.2923,"elev":1619,"name":"Hailey/Friedman Mem, ID, US","cover":"CLR","clouds":[],"fltCat":"VFR"},{"icaoId":"KGYR","receiptTime":"2026-04-14T03:58:16.771Z","obsTime":1776138420,"reportTime":"2026-04-14T04:00:00.000Z","temp":21,"dewp":7,"wdir":250,"wspd":13,"visib":"10+","altim":1011.9,"qcField":0,"metarType":"METAR","rawOb":"METAR KGYR 140347Z 25013KT 10SM SCT065 BKN180 21/07 A2988 RMK LAST","lat":33.428,"lon":-112.368,"elev":292,"name":"Phoenix/Goodyear Muni, AZ, US","cover":"BKN","clouds":[{"cover":"SCT","base":6500},{"cover":"BKN","base":18000}],"fltCat":"VFR"}]