[{"icaoId":"KHII","receiptTime":"2026-04-07T12:40:19.024Z","obsTime":1775565300,"reportTime":"2026-04-07T12:35:00.000Z","temp":18,"dewp":-3,"wdir":0,"wspd":0,"visib":"10+","altim":1011.9,"qcField":6,"metarType":"METAR","rawOb":"METAR KHII 071235Z AUTO 00000KT 10SM CLR 18/M03 A2988 RMK AO2","lat":34.5659,"lon":-114.3522,"elev":241,"name":"Lake Havasu City Arpt, AZ, US","cover":"CLR","clouds":[],"fltCat":"VFR"},{"icaoId":"KSEZ","receiptTime":"2026-04-07T12:40:26.210Z","obsTime":1775565300,"reportTime":"2026-04-07T12:35:00.000Z","temp":10,"dewp":3,"wdir":30,"wspd":7,"visib":"10+","altim":1018,"qcField":6,"metarType":"METAR","rawOb":"METAR KSEZ 071235Z AUTO 03007KT 10SM CLR 10/03 A3006 RMK AO2","lat":34.8467,"lon":-111.7884,"elev":1455,"name":"Sedona Arpt, AZ, US","cover":"CLR","clouds":[],"fltCat":"VFR"},{"icaoId":"KSOW","receiptTime":"2026-04-07T12:38:18.144Z","obsTime":1775565300,"reportTime":"2026-04-07T12:35:00.000Z","temp":7,"dewp":7,"wdir":20,"wspd":4,"visib":"10+","altim":1020.1,"qcField":6,"metarType":"METAR","rawOb":"METAR KSOW 071235Z AUTO 02004KT 10SM BKN003 BKN007 OVC019 07/07 A3012 RMK AO2","lat":34.2686,"lon":-110.0019,"elev":1954,"name":"Show Low Muni, AZ, US","cover":"OVC","clouds":[{"cover":"BKN","base":300},{"cover":"BKN","base":700},{"cover":"OVC","base":1900}],"fltCat":"LIFR"},{"icaoId":"KIFP","receiptTime":"2026-04-07T12:40:21.618Z","obsTime":1775565300,"reportTime":"2026-04-07T12:35:00.000Z","temp":18,"dewp":-6,"wdir":0,"wspd":0,"visib":"10+","altim":1011.6,"qcField":6,"metarType":"METAR","rawOb":"METAR KIFP 071235Z AUTO 00000KT 10SM CLR 18/M06 A2987 RMK AO2","lat":35.1487,"lon":-114.5611,"elev":210,"name":"Bullhead City Intl, AZ, US","cover":"CLR","clouds":[],"fltCat":"VFR"},{"icaoId":"KCHD","receiptTime":"2026-04-07T12:38:21.849Z","obsTime":1775565300,"reportTime":"2026-04-07T12:35:00.000Z","temp":18.6,"dewp":7.7,"wdir":360,"wspd":4,"visib":"10+","altim":1013,"qcField":6,"metarType":"METAR","rawOb":"METAR KCHD 071235Z AUTO 36004KT 10SM CLR 19/08 A2991 RMK AO2 T01860077","lat":33.2669,"lon":-111.8086,"elev":378,"name":"Chandler Muni, AZ, US","cover":"CLR","clouds":[],"fltCat":"VFR"},{"icaoId":"KINW","receiptTime":"2026-04-07T12:32:05.251Z","obsTime":1775564880,"reportTime":"2026-04-07T12:28:00.000Z","temp":6.7,"dewp":6.7,"wdir":210,"wspd":3,"visib":3,"altim":1018.7,"qcField":6,"wxString":"BR","metarType":"SPECI","rawOb":"SPECI KINW 071228Z AUTO 21003KT 3SM BR FEW001 07/07 A3008 RMK AO2 T00670067","lat":35.0279,"lon":-110.7221,"elev":1492,"name":"Winslow/Lindberg Rgnl, AZ, US","cover":"FEW","clouds":[{"cover":"FEW","base":100}],"fltCat":"MVFR"},{"icaoId":"KSJN","receiptTime":"2026-04-07T12:10:05.573Z","obsTime":1775563380,"reportTime":"2026-04-07T12:03:00.000Z","temp":8.3,"dewp":6.7,"wdir":70,"wspd":3,"visib":"10+","altim":1018.7,"qcField":6,"metarType":"SPECI","rawOb":"SPECI KSJN 071203Z AUTO 07003KT 10SM OVC030 08/07 A3008 RMK AO2 T00830067","lat":34.5184,"lon":-109.3801,"elev":1747,"name":"St Johns Ind Arpt, AZ, US","cover":"OVC","clouds":[{"cover":"OVC","base":3000}],"fltCat":"MVFR"},{"icaoId":"KNYL","receiptTime":"2026-04-07T12:00:21.927Z","obsTime":1775563020,"reportTime":"2026-04-07T12:00:00.000Z","temp":18.9,"dewp":6.1,"wdir":90,"wspd":3,"visib":"10+","altim":1010.9,"slp":1010.5,"qcField":6,"presTend":-0.4,"maxT":23.9,"minT":17.8,"metarType":"METAR","rawOb":"METAR KNYL 071157Z AUTO 09003KT 10SM CLR 19/06 A2985 RMK AO2 SLP105 T01890061 10239 20178 56004","lat":32.66,"lon":-114.6078,"elev":58,"name":"Yuma , AZ, US","cover":"CLR","clouds":[],"fltCat":"VFR"},{"icaoId":"KFLG","receiptTime":"2026-04-07T12:00:27.495Z","obsTime":1775563020,"reportTime":"2026-04-07T12:00:00.000Z","temp":0,"dewp":-0.6,"wdir":0,"wspd":0,"visib":"10+","altim":1020.7,"slp":1016.8,"qcField":6,"presTend":-0.5,"maxT":5.6,"minT":-0.6,"pcp24hr":0.08,"metarType":"METAR","rawOb":"METAR KFLG 071157Z AUTO 00000KT 10SM CLR 00/M01 A3014 RMK AO2 SLP168 70008 T00001006 10056 21006 56005","lat":35.1443,"lon":-111.6664,"elev":2134,"name":"Flagstaff/Pulliam Arpt, AZ, US","cover":"CLR","clouds":[],"fltCat":"VFR"},{"icaoId":"KCGZ","receiptTime":"2026-04-07T11:58:23.895Z","obsTime":1775562960,"reportTime":"2026-04-07T12:00:00.000Z","temp":16.1,"dewp":6.1,"wdir":90,"wspd":4,"visib":"10+","altim":1013.6,"slp":1012.3,"qcField":14,"presTend":0.1,"maxT":23.3,"minT":15.6,"metarType":"METAR","rawOb":"METAR KCGZ 071156Z AUTO 09004KT 10SM CLR 16/06 A2993 RMK AO2 SLP123 6//// 7//// T01610061 10233 20156 53001 $","lat":32.9531,"lon":-111.7725,"elev":444,"name":"Casa Granda Muni, AZ, US","cover":"CLR","clouds":[],"fltCat":"VFR"},{"icaoId":"KDUG","receiptTime":"2026-04-07T12:02:07.548Z","obsTime":1775562960,"reportTime":"2026-04-07T12:00:00.000Z","temp":7.2,"dewp":3.9,"wdir":0,"wspd":0,"visib":"10+","altim":1015.7,"slp":1011.4,"qcField":38,"presTend":-0.3,"maxT":16.1,"minT":7.2,"metarType":"METAR","rawOb":"METAR KDUG 071156Z AUTO 00000KT 10SM CLR 07/04 A2999 RMK AO2 SLP114 T00720039 10161 20072 55003 TSNO","lat":31.4725,"lon":-109.6022,"elev":1260,"name":"Douglas/Bisbee Intl, AZ, US","cover":"CLR","clouds":[],"fltCat":"VFR"},{"icaoId":"KIWA","receiptTime":"2026-04-07T11:57:14.841Z","obsTime":1775562900,"reportTime":"2026-04-07T12:00:00.000Z","temp":17,"dewp":6,"wdir":170,"wspd":4,"visib":"10+","altim":1013.3,"qcField":0,"metarType":"METAR","rawOb":"METAR KIWA 071155Z 17004KT 10SM CLR 17/06 A2992","lat":33.3008,"lon":-111.6437,"elev":420,"name":"Phoenix/Mesa Gateway Arpt, AZ, US","cover":"CLR","clouds":[],"fltCat":"VFR"},{"icaoId":"KOLS","receiptTime":"2026-04-07T11:58:18.042Z","obsTime":1775562840,"reportTime":"2026-04-07T12:00:00.000Z","temp":9.4,"dewp":0.6,"wdir":80,"wspd":3,"visib":"10+","altim":1015.7,"slp":1010.6,"qcField":6,"presTend":-0.5,"maxT":17.2,"minT":9.4,"metarType":"METAR","rawOb":"METAR KOLS 071154Z AUTO 08003KT 10SM CLR 09/01 A2999 RMK AO2 SLP106 T00940006 10172 20094 55005","lat":31.4208,"lon":-110.8465,"elev":1194,"name":"Nogales Intl, AZ, US","cover":"CLR","clouds":[],"fltCat":"VFR"},{"icaoId":"KGCN","receiptTime":"2026-04-07T11:58:22.019Z","obsTime":1775562840,"reportTime":"2026-04-07T12:00:00.000Z","temp":0,"dewp":-0.6,"wdir":60,"wspd":5,"visib":"10+","altim":1020.7,"slp":1017.7,"qcField":6,"presTend":-0.4,"maxT":5.6,"minT":-1.1,"pcp24hr":0.11,"metarType":"METAR","rawOb":"METAR KGCN 071154Z AUTO 06005KT 10SM CLR 00/M01 A3014 RMK AO2 SLP177 70011 T00001006 10056 21011 58004","lat":35.9458,"lon":-112.1554,"elev":1993,"name":"Grand Canyon Park Arpt, AZ, US","cover":"CLR","clouds":[],"fltCat":"VFR"},{"icaoId":"KFFZ","receiptTime":"2026-04-07T11:58:18.203Z","obsTime":1775562840,"reportTime":"2026-04-07T12:00:00.000Z","temp":18.9,"dewp":7.8,"wdir":310,"wspd":4,"visib":"10+","altim":1013,"slp":1010.8,"qcField":4,"presTend":-0.2,"maxT":22.8,"minT":18.9,"metarType":"METAR","rawOb":"METAR KFFZ 071154Z 31004KT 10SM CLR 19/08 A2991 RMK AO2 SLP108 T01890078 10228 20189 55002","lat":33.4659,"lon":-111.7212,"elev":420,"name":"Mesa/Falcon Fld, AZ, US","cover":"CLR","clouds":[],"fltCat":"VFR"},{"icaoId":"KPGA","receiptTime":"2026-04-07T11:56:42.197Z","obsTime":1775562780,"reportTime":"2026-04-07T12:00:00.000Z","temp":12.2,"dewp":4.4,"wdir":190,"wspd":5,"visib":"10+","altim":1017,"slp":1012.5,"qcField":14,"maxT":16.7,"minT":12.2,"metarType":"METAR","rawOb":"METAR KPGA 071153Z AUTO 19005KT 10SM CLR 12/04 A3003 RMK AO2 SLP125 T01220044 10167 20122 53000 $","lat":36.9211,"lon":-111.4487,"elev":1310,"name":"Page Muni, AZ, US","cover":"CLR","clouds":[],"fltCat":"VFR"},{"icaoId":"KTUS","receiptTime":"2026-04-07T11:56:39.727Z","obsTime":1775562780,"reportTime":"2026-04-07T12:00:00.000Z","temp":14.4,"dewp":3.9,"wdir":150,"wspd":4,"visib":"10+","altim":1015,"slp":1011.6,"qcField":4,"presTend":0.3,"maxT":20,"minT":14.4,"metarType":"METAR","rawOb":"METAR KTUS 071153Z 15004KT 10SM CLR 14/04 A2997 RMK AO2 SLP116 T01440039 10200 20144 53003","lat":32.1315,"lon":-110.9564,"elev":776,"name":"Tucson Intl Arpt, AZ, US","cover":"CLR","clouds":[],"fltCat":"VFR"},{"icaoId":"KSDL","receiptTime":"2026-04-07T11:56:36.493Z","obsTime":1775562780,"reportTime":"2026-04-07T12:00:00.000Z","temp":17.2,"dewp":7.2,"wdir":270,"wspd":3,"visib":"10+","altim":1013.3,"slp":1011.1,"qcField":6,"presTend":-0.2,"maxT":22.8,"minT":17.2,"metarType":"METAR","rawOb":"METAR KSDL 071153Z AUTO 27003KT 10SM CLR 17/07 A2992 RMK AO2 SLP111 T01720072 10228 20172 55002","lat":33.6123,"lon":-111.9232,"elev":438,"name":"Scottsdale Muni, AZ, US","cover":"CLR","clouds":[],"fltCat":"VFR"},{"icaoId":"KDVT","receiptTime":"2026-04-07T11:56:40.820Z","obsTime":1775562780,"reportTime":"2026-04-07T12:00:00.000Z","temp":16.7,"dewp":5.6,"wdir":0,"wspd":0,"visib":"10+","altim":1013,"slp":1011.1,"qcField":6,"presTend":-0.2,"maxT":22.8,"minT":16.1,"metarType":"METAR","rawOb":"METAR KDVT 071153Z AUTO 00000KT 10SM CLR 17/06 A2991 RMK AO2 SLP111 T01670056 10228 20161 56002","lat":33.6902,"lon":-112.0662,"elev":454,"name":"Phoenix/Deer Valley Arpt, AZ, US","cover":"CLR","clouds":[],"fltCat":"VFR"},{"icaoId":"KPRC","receiptTime":"2026-04-07T11:56:42.435Z","obsTime":1775562780,"reportTime":"2026-04-07T12:00:00.000Z","temp":6.1,"dewp":0.6,"wdir":190,"wspd":7,"visib":"10+","altim":1018.7,"slp":1013.8,"qcField":6,"presTend":-0.3,"maxT":10.6,"minT":5.6,"metarType":"METAR","rawOb":"METAR KPRC 071153Z AUTO 19007KT 10SM CLR 06/01 A3008 RMK AO2 SLP138 T00610006 10106 20056 58003","lat":34.6491,"lon":-112.4223,"elev":1528,"name":"Prescott/Love Fld, AZ, US","cover":"CLR","clouds":[],"fltCat":"VFR"},{"icaoId":"KSAD","receiptTime":"2026-04-07T11:54:07.763Z","obsTime":1775562660,"reportTime":"2026-04-07T12:00:00.000Z","temp":13.3,"dewp":6.1,"wdir":280,"wspd":4,"visib":"10+","altim":1014.3,"slp":1010.9,"qcField":6,"presTend":-0.7,"maxT":17.8,"minT":13.3,"metarType":"METAR","rawOb":"METAR KSAD 071151Z AUTO 28004KT 10SM CLR 13/06 A2995 RMK AO2 SLP109 T01330061 10178 20133 55007","lat":32.8565,"lon":-109.636,"elev":937,"name":"Safford Rgnl, AZ, US","cover":"CLR","clouds":[],"fltCat":"VFR"},{"icaoId":"KIGM","receiptTime":"2026-04-07T11:54:07.400Z","obsTime":1775562660,"reportTime":"2026-04-07T12:00:00.000Z","temp":13.9,"dewp":-0.6,"wdir":140,"wspd":11,"visib":"10+","altim":1015.7,"slp":1009.6,"qcField":6,"presTend":-0.4,"maxT":17.2,"minT":11.7,"metarType":"METAR","rawOb":"METAR KIGM 071151Z AUTO 14011KT 10SM CLR 14/M01 A2999 RMK AO2 SLP096 T01391006 10172 20117 55004","lat":35.2575,"lon":-113.9341,"elev":1045,"name":"Kingman Arpt, AZ, US","cover":"CLR","clouds":[],"fltCat":"VFR"},{"icaoId":"KPHX","receiptTime":"2026-04-07T11:54:07.628Z","obsTime":1775562660,"reportTime":"2026-04-07T12:00:00.000Z","temp":20,"dewp":7.8,"wdir":0,"wspd":0,"visib":"10+","altim":1012.3,"slp":1010.8,"qcField":4,"maxT":23.3,"minT":19.4,"metarType":"METAR","rawOb":"METAR KPHX 071151Z 00000KT 10SM CLR 20/08 A2989 RMK AO2 SLP108 T02000078 10233 20194 55000","lat":33.4278,"lon":-112.0037,"elev":338,"name":"Phoenix/Sky Harbor Intl, AZ, US","cover":"CLR","clouds":[],"fltCat":"VFR"}]