[{"icaoId":"KSEZ","receiptTime":"2026-04-06T15:20:44.214Z","obsTime":1775488500,"reportTime":"2026-04-06T15:15:00.000Z","temp":16,"dewp":0,"wdir":0,"wspd":0,"visib":"10+","altim":1020.7,"qcField":6,"metarType":"METAR","rawOb":"METAR KSEZ 061515Z AUTO 00000KT 10SM FEW110 16/M00 A3014 RMK AO2","lat":34.8467,"lon":-111.7884,"elev":1455,"name":"Sedona Arpt, AZ, US","cover":"FEW","clouds":[{"cover":"FEW","base":11000}],"fltCat":"VFR"},{"icaoId":"KHII","receiptTime":"2026-04-06T15:22:08.777Z","obsTime":1775488500,"reportTime":"2026-04-06T15:15:00.000Z","temp":22,"dewp":-10,"wdir":0,"wspd":0,"visib":"10+","altim":1012.6,"qcField":6,"metarType":"METAR","rawOb":"METAR KHII 061515Z AUTO 00000KT 10SM CLR 22/M10 A2990 RMK AO2","lat":34.5659,"lon":-114.3522,"elev":241,"name":"Lake Havasu City Arpt, AZ, US","cover":"CLR","clouds":[],"fltCat":"VFR"},{"icaoId":"KSOW","receiptTime":"2026-04-06T15:20:35.579Z","obsTime":1775488500,"reportTime":"2026-04-06T15:15:00.000Z","temp":12,"dewp":-2,"wdir":180,"wspd":7,"visib":"10+","altim":1024.1,"qcField":6,"metarType":"METAR","rawOb":"METAR KSOW 061515Z AUTO 18007KT 10SM CLR 12/M02 A3024 RMK AO2","lat":34.2686,"lon":-110.0019,"elev":1954,"name":"Show Low Muni, AZ, US","cover":"CLR","clouds":[],"fltCat":"VFR"},{"icaoId":"KNYL","receiptTime":"2026-04-06T15:00:32.783Z","obsTime":1775487420,"reportTime":"2026-04-06T15:00:00.000Z","temp":21.7,"dewp":-0.6,"wdir":190,"wspd":4,"visib":"10+","altim":1011.9,"slp":1011.5,"qcField":12,"presTend":1.1,"metarType":"METAR","rawOb":"METAR KNYL 061457Z 19004KT 10SM OVC120 22/M01 A2988 RMK AO2 SLP115 T02171006 53011 $","lat":32.66,"lon":-114.6078,"elev":58,"name":"Yuma , AZ, US","cover":"OVC","clouds":[{"cover":"OVC","base":12000}],"fltCat":"VFR"},{"icaoId":"KFLG","receiptTime":"2026-04-06T15:00:31.921Z","obsTime":1775487420,"reportTime":"2026-04-06T15:00:00.000Z","temp":7.8,"dewp":1.1,"wdir":0,"wspd":0,"visib":"10+","altim":1023.5,"slp":1017.2,"qcField":4,"presTend":0.2,"metarType":"METAR","rawOb":"METAR KFLG 061457Z 00000KT 10SM BKN100 08/01 A3022 RMK AO2 SLP172 T00780011 53002","lat":35.1443,"lon":-111.6664,"elev":2134,"name":"Flagstaff/Pulliam Arpt, AZ, US","cover":"BKN","clouds":[{"cover":"BKN","base":10000}],"fltCat":"VFR"},{"icaoId":"KDUG","receiptTime":"2026-04-06T15:02:14.600Z","obsTime":1775487360,"reportTime":"2026-04-06T15:00:00.000Z","temp":16.1,"dewp":5,"wdir":90,"wspd":12,"visib":"10+","altim":1021.8,"slp":1016.2,"qcField":38,"presTend":0.8,"metarType":"METAR","rawOb":"METAR KDUG 061456Z AUTO 09012KT 10SM CLR 16/05 A3017 RMK AO2 SLP162 T01610050 53008 TSNO","lat":31.4725,"lon":-109.6022,"elev":1260,"name":"Douglas/Bisbee Intl, AZ, US","cover":"CLR","clouds":[],"fltCat":"VFR"},{"icaoId":"KINW","receiptTime":"2026-04-06T15:00:14.687Z","obsTime":1775487360,"reportTime":"2026-04-06T15:00:00.000Z","temp":13.9,"dewp":-2.2,"wdir":130,"wspd":11,"visib":"10+","altim":1021.8,"slp":1017.4,"qcField":6,"presTend":0.4,"metarType":"METAR","rawOb":"METAR KINW 061456Z AUTO 13011KT 10SM FEW095 SCT120 14/M02 A3017 RMK AO2 SLP174 T01391022 53004","lat":35.0279,"lon":-110.7221,"elev":1492,"name":"Winslow/Lindberg Rgnl, AZ, US","cover":"SCT","clouds":[{"cover":"FEW","base":9500},{"cover":"SCT","base":12000}],"fltCat":"VFR"},{"icaoId":"KCGZ","receiptTime":"2026-04-06T14:58:23.975Z","obsTime":1775487360,"reportTime":"2026-04-06T15:00:00.000Z","temp":23.9,"dewp":5,"wdir":80,"wspd":13,"visib":"10+","altim":1015,"slp":1013.3,"qcField":14,"presTend":1.3,"metarType":"METAR","rawOb":"METAR KCGZ 061456Z AUTO 08013KT 10SM CLR 24/05 A2997 RMK AO2 SLP133 6//// T02390050 53013 $","lat":32.9531,"lon":-111.7725,"elev":444,"name":"Casa Granda Muni, AZ, US","cover":"CLR","clouds":[],"fltCat":"VFR"},{"icaoId":"KFFZ","receiptTime":"2026-04-06T14:58:18.017Z","obsTime":1775487240,"reportTime":"2026-04-06T15:00:00.000Z","temp":25,"dewp":3.3,"wdir":0,"wspd":0,"visib":7,"altim":1014.3,"slp":1011.9,"qcField":4,"presTend":1.2,"metarType":"METAR","rawOb":"METAR KFFZ 061454Z 00000KT 7SM CLR 25/03 A2995 RMK AO2 SLP119 T02500033 53012","lat":33.4659,"lon":-111.7212,"elev":420,"name":"Mesa/Falcon Fld, AZ, US","cover":"CLR","clouds":[],"fltCat":"VFR"},{"icaoId":"KOLS","receiptTime":"2026-04-06T14:58:17.418Z","obsTime":1775487240,"reportTime":"2026-04-06T15:00:00.000Z","temp":18.3,"dewp":5.6,"wdir":0,"wspd":0,"visib":"10+","altim":1019,"slp":1013.1,"qcField":6,"presTend":1.1,"metarType":"METAR","rawOb":"METAR KOLS 061454Z AUTO 00000KT 10SM CLR 18/06 A3009 RMK AO2 SLP131 T01830056 53011","lat":31.4208,"lon":-110.8465,"elev":1194,"name":"Nogales Intl, AZ, US","cover":"CLR","clouds":[],"fltCat":"VFR"},{"icaoId":"KSJN","receiptTime":"2026-04-06T14:58:15.520Z","obsTime":1775487240,"reportTime":"2026-04-06T15:00:00.000Z","temp":13.9,"dewp":-3.3,"wdir":110,"wspd":7,"visib":"10+","altim":1022.4,"slp":1015.1,"qcField":6,"presTend":0.1,"metarType":"METAR","rawOb":"METAR KSJN 061454Z AUTO 11007KT 10SM CLR 14/M03 A3019 RMK AO2 SLP151 T01391033 53001","lat":34.5184,"lon":-109.3801,"elev":1747,"name":"St Johns Ind Arpt, AZ, US","cover":"CLR","clouds":[],"fltCat":"VFR"},{"icaoId":"KGCN","receiptTime":"2026-04-06T14:58:17.374Z","obsTime":1775487240,"reportTime":"2026-04-06T15:00:00.000Z","temp":8.9,"dewp":0.6,"wdir":0,"wspd":0,"visib":"10+","altim":1023.1,"slp":1017.5,"qcField":4,"presTend":0.4,"metarType":"METAR","rawOb":"METAR KGCN 061454Z 00000KT 10SM BKN100 09/01 A3021 RMK AO2 SLP175 T00890006 51004","lat":35.9458,"lon":-112.1554,"elev":1993,"name":"Grand Canyon Park Arpt, AZ, US","cover":"BKN","clouds":[{"cover":"BKN","base":10000}],"fltCat":"VFR"},{"icaoId":"KPRC","receiptTime":"2026-04-06T14:56:45.911Z","obsTime":1775487180,"reportTime":"2026-04-06T15:00:00.000Z","temp":16.1,"dewp":-0.6,"wdir":130,"wspd":6,"visib":"10+","altim":1020.4,"slp":1013.9,"qcField":4,"presTend":0.5,"metarType":"METAR","rawOb":"METAR KPRC 061453Z 13006KT 10SM CLR 16/M01 A3013 RMK AO2 SLP139 T01611006 51005","lat":34.6491,"lon":-112.4223,"elev":1528,"name":"Prescott/Love Fld, AZ, US","cover":"CLR","clouds":[],"fltCat":"VFR"},{"icaoId":"KPGA","receiptTime":"2026-04-06T14:56:48.480Z","obsTime":1775487180,"reportTime":"2026-04-06T15:00:00.000Z","temp":12.2,"dewp":-7.8,"wdir":290,"wspd":5,"visib":"10+","altim":1020.7,"slp":1016.7,"qcField":14,"presTend":1,"metarType":"METAR","rawOb":"METAR KPGA 061453Z AUTO 29005KT 10SM FEW090 BKN110 12/M08 A3014 RMK AO2 SLP167 T01221078 53010 $","lat":36.9211,"lon":-111.4487,"elev":1310,"name":"Page Muni, AZ, US","cover":"BKN","clouds":[{"cover":"FEW","base":9000},{"cover":"BKN","base":11000}],"fltCat":"VFR"},{"icaoId":"KTUS","receiptTime":"2026-04-06T14:56:47.790Z","obsTime":1775487180,"reportTime":"2026-04-06T15:00:00.000Z","temp":21.7,"dewp":4.4,"wdir":110,"wspd":18,"wgst":25,"visib":"10+","altim":1017.4,"slp":1012.9,"qcField":4,"presTend":0.9,"metarType":"METAR","rawOb":"METAR KTUS 061453Z 11018G25KT 10SM CLR 22/04 A3004 RMK AO2 PK WND 12027/1443 SLP129 T02170044 51009","lat":32.1315,"lon":-110.9564,"elev":776,"name":"Tucson Intl Arpt, AZ, US","cover":"CLR","clouds":[],"fltCat":"VFR"},{"icaoId":"KSDL","receiptTime":"2026-04-06T14:56:45.707Z","obsTime":1775487180,"reportTime":"2026-04-06T15:00:00.000Z","temp":25,"dewp":3.3,"wdir":100,"wspd":9,"wgst":19,"visib":"10+","altim":1015,"slp":1012.3,"qcField":4,"presTend":1.2,"metarType":"METAR","rawOb":"METAR KSDL 061453Z 10009G19KT 10SM CLR 25/03 A2997 RMK AO2 SLP123 T02500033 53012","lat":33.6123,"lon":-111.9232,"elev":438,"name":"Scottsdale Muni, AZ, US","cover":"CLR","clouds":[],"fltCat":"VFR"},{"icaoId":"KDVT","receiptTime":"2026-04-06T14:56:50.770Z","obsTime":1775487180,"reportTime":"2026-04-06T15:00:00.000Z","temp":25,"dewp":3.3,"wdir":120,"wspd":3,"visib":"10+","altim":1014.6,"slp":1012.2,"qcField":4,"presTend":1.1,"metarType":"METAR","rawOb":"METAR KDVT 061453Z 12003KT 10SM CLR 25/03 A2996 RMK AO2 SLP122 T02500033 53011","lat":33.6902,"lon":-112.0662,"elev":454,"name":"Phoenix/Deer Valley Arpt, AZ, US","cover":"CLR","clouds":[],"fltCat":"VFR"},{"icaoId":"KSAD","receiptTime":"2026-04-06T14:54:11.956Z","obsTime":1775487060,"reportTime":"2026-04-06T15:00:00.000Z","temp":16.1,"dewp":0,"wdir":160,"wspd":13,"visib":"10+","altim":1022.1,"slp":1018.4,"qcField":6,"presTend":0.4,"metarType":"METAR","rawOb":"METAR KSAD 061451Z AUTO 16013KT 10SM CLR 16/00 A3018 RMK AO2 SLP184 T01610000 53004","lat":32.8565,"lon":-109.636,"elev":937,"name":"Safford Rgnl, AZ, US","cover":"CLR","clouds":[],"fltCat":"VFR"},{"icaoId":"KPHX","receiptTime":"2026-04-06T14:54:11.862Z","obsTime":1775487060,"reportTime":"2026-04-06T15:00:00.000Z","temp":26.1,"dewp":3.9,"wdir":130,"wspd":12,"wgst":20,"visib":"10+","altim":1013.6,"slp":1011.7,"qcField":4,"presTend":1.2,"metarType":"METAR","rawOb":"METAR KPHX 061451Z 13012G20KT 10SM FEW140 SCT170 OVC250 26/04 A2993 RMK AO2 SLP117 T02610039 53012","lat":33.4278,"lon":-112.0037,"elev":338,"name":"Phoenix/Sky Harbor Intl, AZ, US","cover":"OVC","clouds":[{"cover":"FEW","base":14000},{"cover":"SCT","base":17000},{"cover":"OVC","base":25000}],"fltCat":"VFR"},{"icaoId":"KIGM","receiptTime":"2026-04-06T14:54:11.690Z","obsTime":1775487060,"reportTime":"2026-04-06T15:00:00.000Z","temp":20,"dewp":-6.7,"wdir":170,"wspd":8,"visib":"10+","altim":1016.7,"slp":1010.6,"qcField":6,"presTend":0.6,"metarType":"METAR","rawOb":"METAR KIGM 061451Z AUTO 17008KT 10SM CLR 20/M07 A3002 RMK AO2 SLP106 T02001067 53006","lat":35.2575,"lon":-113.9341,"elev":1045,"name":"Kingman Arpt, AZ, US","cover":"CLR","clouds":[],"fltCat":"VFR"},{"icaoId":"KGEU","receiptTime":"2026-04-06T14:50:26.450Z","obsTime":1775486880,"reportTime":"2026-04-06T15:00:00.000Z","temp":25,"dewp":4,"wdir":"VRB","wspd":4,"visib":"10+","altim":1013.3,"qcField":0,"metarType":"METAR","rawOb":"METAR KGEU 061448Z VRB04KT 10SM FEW160 25/04 A2992","lat":33.528,"lon":-112.293,"elev":319,"name":"Glendale Muni, AZ, US","cover":"FEW","clouds":[{"cover":"FEW","base":16000}],"fltCat":"VFR"},{"icaoId":"KIFP","receiptTime":"2026-04-06T14:48:06.704Z","obsTime":1775486820,"reportTime":"2026-04-06T15:00:00.000Z","temp":19,"dewp":-3,"visib":"10+","altim":1012.3,"qcField":0,"metarType":"METAR","rawOb":"METAR KIFP 061447Z 0000KT 10SM CLR 19/M03 A2989","lat":35.1487,"lon":-114.5611,"elev":210,"name":"Bullhead City Intl, AZ, US","cover":"CLR","clouds":[],"fltCat":"VFR"},{"icaoId":"KCHD","receiptTime":"2026-04-06T14:48:53.699Z","obsTime":1775486820,"reportTime":"2026-04-06T15:00:00.000Z","temp":23,"dewp":6,"wdir":100,"wspd":12,"visib":"10+","altim":1014.3,"qcField":0,"metarType":"METAR","rawOb":"METAR KCHD 061447Z 10012KT 10SM SCT140 BKN180 23/06 A2995","lat":33.2669,"lon":-111.8086,"elev":378,"name":"Chandler Muni, AZ, US","cover":"BKN","clouds":[{"cover":"SCT","base":14000},{"cover":"BKN","base":18000}],"fltCat":"VFR"},{"icaoId":"KIWA","receiptTime":"2026-04-06T14:48:12.946Z","obsTime":1775486820,"reportTime":"2026-04-06T15:00:00.000Z","temp":24,"dewp":4,"wdir":100,"wspd":15,"wgst":19,"visib":"10+","altim":1015,"qcField":0,"metarType":"METAR","rawOb":"METAR KIWA 061447Z 10015G19KT 10SM SCT120 24/04 A2997","lat":33.3008,"lon":-111.6437,"elev":420,"name":"Phoenix/Mesa Gateway Arpt, AZ, US","cover":"SCT","clouds":[{"cover":"SCT","base":12000}],"fltCat":"VFR"},{"icaoId":"KGYR","receiptTime":"2026-04-06T14:47:42.535Z","obsTime":1775486820,"reportTime":"2026-04-06T15:00:00.000Z","temp":24,"dewp":6,"wdir":90,"wspd":8,"visib":"10+","altim":1014,"qcField":0,"metarType":"METAR","rawOb":"METAR KGYR 061447Z 09008KT 10SM FEW120 BKN180 24/06 A2994","lat":33.428,"lon":-112.368,"elev":292,"name":"Phoenix/Goodyear Muni, AZ, US","cover":"BKN","clouds":[{"cover":"FEW","base":12000},{"cover":"BKN","base":18000}],"fltCat":"VFR"},{"icaoId":"KRYN","receiptTime":"2026-04-06T14:45:43.396Z","obsTime":1775486700,"reportTime":"2026-04-06T15:00:00.000Z","temp":22,"dewp":4,"wdir":100,"wspd":18,"visib":"10+","altim":1015.7,"qcField":0,"metarType":"METAR","rawOb":"METAR KRYN 061445Z 10018KT 10SM CLR 22/04 A2999","lat":32.1418,"lon":-111.1767,"elev":731,"name":"Tucson/Ryan Fld, AZ, US","cover":"CLR","clouds":[],"fltCat":"VFR"}]