[{"icaoId":"KMEV","receiptTime":"2026-04-18T17:40:32.619Z","obsTime":1776533700,"reportTime":"2026-04-18T17:35:00.000Z","temp":12,"dewp":-12,"wdir":320,"wspd":5,"visib":"10+","altim":1020.4,"qcField":6,"metarType":"METAR","rawOb":"METAR KMEV 181735Z AUTO 32005KT 10SM CLR 12/M12 A3013 RMK AO2","lat":38.9963,"lon":-119.75,"elev":1437,"name":"Minden-Tahoe Arpt, NV, US","cover":"CLR","clouds":[],"fltCat":"VFR"},{"icaoId":"KBVU","receiptTime":"2026-04-18T17:36:06.641Z","obsTime":1776533700,"reportTime":"2026-04-18T17:35:00.000Z","temp":20,"dewp":-18,"wdir":20,"wspd":16,"visib":"10+","altim":1019.7,"qcField":6,"metarType":"METAR","rawOb":"METAR KBVU 181735Z AUTO 02016KT 10SM CLR 20/M18 A3011 RMK AO2","lat":35.9489,"lon":-114.8633,"elev":654,"name":"Boulder City Muni, NV, US","cover":"CLR","clouds":[],"fltCat":"VFR"},{"icaoId":"KCXP","receiptTime":"2026-04-18T17:40:38.051Z","obsTime":1776533700,"reportTime":"2026-04-18T17:35:00.000Z","temp":12,"dewp":-15,"wdir":"VRB","wspd":3,"visib":"10+","altim":1020.7,"qcField":6,"metarType":"METAR","rawOb":"METAR KCXP 181735Z AUTO VRB03KT 10SM CLR 12/M15 A3014 RMK AO2","lat":39.1905,"lon":-119.7319,"elev":1431,"name":"Carson City Arpt, NV, US","cover":"CLR","clouds":[],"fltCat":"VFR"},{"icaoId":"KLRU","receiptTime":"2026-04-18T17:38:15.575Z","obsTime":1776533700,"reportTime":"2026-04-18T17:35:00.000Z","temp":19.1,"dewp":-12.1,"wdir":20,"wspd":6,"wgst":14,"visib":"10+","altim":1022.8,"qcField":6,"metarType":"METAR","rawOb":"METAR KLRU 181735Z AUTO 02006G14KT 10SM CLR 19/M12 A3020 RMK AO2 T01911121","lat":32.2884,"lon":-106.9131,"elev":1355,"name":"Las Cruces Intl, NM, US","cover":"CLR","clouds":[],"fltCat":"VFR"},{"icaoId":"KHTH","receiptTime":"2026-04-18T17:40:22.650Z","obsTime":1776533700,"reportTime":"2026-04-18T17:35:00.000Z","temp":13,"dewp":-21,"wdir":0,"wspd":0,"visib":"10+","altim":1020.7,"qcField":6,"metarType":"METAR","rawOb":"METAR KHTH 181735Z AUTO 00000KT 10SM CLR 13/M21 A3014 RMK A01","lat":38.5448,"lon":-118.6314,"elev":1281,"name":"Hawthorne Muni, NV, US","cover":"CLR","clouds":[],"fltCat":"VFR"},{"icaoId":"KSEZ","receiptTime":"2026-04-18T17:40:32.390Z","obsTime":1776533700,"reportTime":"2026-04-18T17:35:00.000Z","temp":19,"dewp":-15,"wdir":100,"wspd":9,"wgst":19,"visib":"10+","altim":1022.4,"qcField":6,"metarType":"METAR","rawOb":"METAR KSEZ 181735Z AUTO 10009G19KT 070V150 10SM CLR 19/M15 A3019 RMK AO2","lat":34.8467,"lon":-111.7884,"elev":1455,"name":"Sedona Arpt, AZ, US","cover":"CLR","clouds":[],"fltCat":"VFR"},{"icaoId":"KHCR","receiptTime":"2026-04-18T17:38:17.766Z","obsTime":1776533700,"reportTime":"2026-04-18T17:35:00.000Z","temp":4.8,"dewp":-9.7,"wdir":0,"wspd":0,"visib":"10+","altim":1025.8,"qcField":14,"metarType":"METAR","rawOb":"METAR KHCR 181735Z AUTO 00000KT 10SM CLR 05/M10 A3029 RMK AO2 T00481097 $","lat":40.4774,"lon":-111.4329,"elev":1708,"name":"Heber City Muni, UT, US","cover":"CLR","clouds":[],"fltCat":"VFR"},{"icaoId":"KSOW","receiptTime":"2026-04-18T17:38:16.132Z","obsTime":1776533700,"reportTime":"2026-04-18T17:35:00.000Z","temp":12,"dewp":-17,"wdir":40,"wspd":10,"wgst":19,"visib":"10+","altim":1025.1,"qcField":6,"metarType":"METAR","rawOb":"METAR KSOW 181735Z AUTO 04010G19KT 10SM CLR 12/M17 A3027 RMK AO2","lat":34.2686,"lon":-110.0019,"elev":1954,"name":"Show Low Muni, AZ, US","cover":"CLR","clouds":[],"fltCat":"VFR"},{"icaoId":"KHAF","receiptTime":"2026-04-18T17:38:14.825Z","obsTime":1776533700,"reportTime":"2026-04-18T17:35:00.000Z","temp":14,"dewp":12,"wdir":"VRB","wspd":5,"visib":7,"altim":1016,"qcField":6,"metarType":"METAR","rawOb":"METAR KHAF 181735Z AUTO VRB05KT 7SM CLR 14/12 A3000 RMK AO2","lat":37.5136,"lon":-122.4996,"elev":11,"name":"Half Moon Bay Arpt, CA, US","cover":"CLR","clouds":[],"fltCat":"VFR"},{"icaoId":"KMHR","receiptTime":"2026-04-18T17:40:32.455Z","obsTime":1776533700,"reportTime":"2026-04-18T17:35:00.000Z","temp":20,"dewp":7,"wdir":0,"wspd":0,"visib":"10+","altim":1016,"qcField":6,"metarType":"METAR","rawOb":"METAR KMHR 181735Z AUTO 00000KT 10SM CLR 20/07 A3000 RMK AO2","lat":38.56,"lon":-121.284,"elev":30,"name":"Sacramento/Mather Fld, CA, US","cover":"CLR","clouds":[],"fltCat":"VFR"},{"icaoId":"KHII","receiptTime":"2026-04-18T17:40:39.586Z","obsTime":1776533700,"reportTime":"2026-04-18T17:35:00.000Z","temp":24,"dewp":-14,"wdir":310,"wspd":11,"wgst":17,"visib":"10+","altim":1016.7,"qcField":6,"metarType":"METAR","rawOb":"METAR KHII 181735Z AUTO 31011G17KT 10SM CLR 24/M14 A3002 RMK AO2","lat":34.5659,"lon":-114.3522,"elev":241,"name":"Lake Havasu City Arpt, AZ, US","cover":"CLR","clouds":[],"fltCat":"VFR"},{"icaoId":"KRTS","receiptTime":"2026-04-18T17:40:29.587Z","obsTime":1776533700,"reportTime":"2026-04-18T17:35:00.000Z","temp":11,"dewp":-20,"wdir":130,"wspd":9,"visib":"10+","altim":1020.4,"qcField":6,"metarType":"METAR","rawOb":"METAR KRTS 181735Z AUTO 13009KT 10SM CLR 11/M20 A3013 RMK AO2","lat":39.6658,"lon":-119.8731,"elev":1537,"name":"Reno/Stead Arpt, NV, US","cover":"CLR","clouds":[],"fltCat":"VFR"},{"icaoId":"KDAL","receiptTime":"2026-04-18T17:36:11.401Z","obsTime":1776533580,"reportTime":"2026-04-18T17:33:00.000Z","temp":10,"dewp":7.2,"wdir":"VRB","wspd":5,"wgst":22,"visib":"10+","altim":1022.8,"qcField":4,"wxString":"-RA","precip":0.01,"metarType":"SPECI","rawOb":"SPECI KDAL 181733Z VRB05G22KT 10SM -RA FEW028 FEW041 SCT095 OVC130 10/07 A3020 RMK AO2 PK WND 25032/1711 WSHFT 1713 P0001 T01000072","lat":32.8384,"lon":-96.8358,"elev":148,"name":"Dallas/Love Fld, TX, US","cover":"OVC","clouds":[{"cover":"FEW","base":2800},{"cover":"FEW","base":4100},{"cover":"SCT","base":9500},{"cover":"OVC","base":13000}],"fltCat":"VFR"},{"icaoId":"KDFW","receiptTime":"2026-04-18T17:36:08.511Z","obsTime":1776533520,"reportTime":"2026-04-18T17:32:00.000Z","temp":10.6,"dewp":6.1,"wdir":350,"wspd":19,"wgst":23,"visib":"10+","altim":1021.1,"qcField":12,"wxString":"-RA","precip":0.005,"metarType":"SPECI","rawOb":"SPECI KDFW 181732Z 35019G23KT 10SM -RA FEW080 BKN100 OVC120 11/06 A3015 RMK AO2 PK WND 25032/1707 WSHFT 1712 P0000 T01060061 $","lat":32.8974,"lon":-97.022,"elev":168,"name":"Dallas-Ft Worth Intl, TX, US","cover":"OVC","clouds":[{"cover":"FEW","base":8000},{"cover":"BKN","base":10000},{"cover":"OVC","base":12000}],"fltCat":"VFR"},{"icaoId":"PANC","receiptTime":"2026-04-18T17:32:18.409Z","obsTime":1776533280,"reportTime":"2026-04-18T17:28:00.000Z","temp":0.6,"dewp":0.6,"wdir":150,"wspd":3,"visib":0.5,"altim":1013,"qcField":4,"wxString":"FG","metarType":"SPECI","rawOb":"SPECI PANC 181728Z 15003KT 1/2SM R07R/3500VP6000FT FG OVC003 01/01 A2991 RMK AO2 T00060006","lat":61.1691,"lon":-150.0277,"elev":39,"name":"Anchorage Intl, AK, US","cover":"OVC","clouds":[{"cover":"OVC","base":300}],"fltCat":"LIFR"},{"icaoId":"KDTW","receiptTime":"2026-04-18T17:30:05.421Z","obsTime":1776533160,"reportTime":"2026-04-18T17:26:00.000Z","temp":15,"dewp":13.3,"wdir":270,"wspd":13,"visib":9,"altim":1006.2,"qcField":12,"precip":0.005,"metarType":"SPECI","rawOb":"SPECI KDTW 181726Z 27013KT 9SM FEW010 BKN030 OVC050 15/13 A2971 RMK AO2 WSHFT 1651 RAB1656E20 P0000 T01500133 $","lat":42.2311,"lon":-83.3312,"elev":192,"name":"Detroit/Metro Wayne Cnty, MI, US","cover":"OVC","clouds":[{"cover":"FEW","base":1000},{"cover":"BKN","base":3000},{"cover":"OVC","base":5000}],"fltCat":"MVFR"},{"icaoId":"KCRP","receiptTime":"2026-04-18T17:26:09.650Z","obsTime":1776532980,"reportTime":"2026-04-18T17:23:00.000Z","temp":28.3,"dewp":21.7,"wdir":120,"wspd":12,"visib":"10+","altim":1013,"qcField":4,"metarType":"SPECI","rawOb":"SPECI KCRP 181723Z 12012KT 10SM SCT023 BKN034 BKN049 OVC250 28/22 A2991 RMK AO2 T02830217","lat":27.7734,"lon":-97.513,"elev":11,"name":"Corpus Christi Intl, TX, US","cover":"OVC","clouds":[{"cover":"SCT","base":2300},{"cover":"BKN","base":3400},{"cover":"BKN","base":4900},{"cover":"OVC","base":25000}],"fltCat":"VFR"},{"icaoId":"KCVG","receiptTime":"2026-04-18T17:22:16.336Z","obsTime":1776532740,"reportTime":"2026-04-18T17:19:00.000Z","temp":16.7,"dewp":15,"wdir":190,"wspd":8,"visib":8,"altim":1010.6,"qcField":4,"wxString":"-RA","precip":0.01,"metarType":"SPECI","rawOb":"SPECI KCVG 181719Z 19008KT 8SM -RA FEW007 SCT065 OVC080 17/15 A2984 RMK AO2 RAB1654 P0001 T01670150","lat":39.0444,"lon":-84.6724,"elev":264,"name":"Cincinnati Intl, KY, US","cover":"OVC","clouds":[{"cover":"FEW","base":700},{"cover":"SCT","base":6500},{"cover":"OVC","base":8000}],"fltCat":"VFR"},{"icaoId":"KBJC","receiptTime":"2026-04-18T17:18:34.424Z","obsTime":1776532500,"reportTime":"2026-04-18T17:15:00.000Z","temp":8,"dewp":-11,"wdir":70,"wspd":9,"wgst":15,"visib":"10+","altim":1024.5,"qcField":0,"metarType":"SPECI","rawOb":"SPECI KBJC 181715Z 07009G15KT 10SM CLR 08/M11 A3025","lat":39.9008,"lon":-105.1042,"elev":1694,"name":"Rocky Mtn Metro, CO, US","cover":"CLR","clouds":[],"fltCat":"VFR"},{"icaoId":"KIND","receiptTime":"2026-04-18T17:18:12.013Z","obsTime":1776532440,"reportTime":"2026-04-18T17:14:00.000Z","temp":8.9,"dewp":6.7,"wdir":300,"wspd":12,"wgst":25,"visib":9,"altim":1013.3,"qcField":4,"precip":0.005,"metarType":"SPECI","rawOb":"SPECI KIND 181714Z 30012G25KT 9SM SCT008 OVC013 09/07 A2992 RMK AO2 PK WND 29029/1700 RAE11 P0000 T00890067","lat":39.7252,"lon":-86.2816,"elev":242,"name":"Indianapolis Intl, IN, US","cover":"OVC","clouds":[{"cover":"SCT","base":800},{"cover":"OVC","base":1300}],"fltCat":"MVFR"},{"icaoId":"KSWO","receiptTime":"2026-04-18T17:14:13.851Z","obsTime":1776532260,"reportTime":"2026-04-18T17:11:00.000Z","temp":13.9,"dewp":-1.1,"wdir":10,"wspd":15,"wgst":25,"visib":"10+","altim":1024.8,"qcField":4,"metarType":"SPECI","rawOb":"SPECI KSWO 181711Z 01015G25KT 10SM CLR 14/M01 A3026 RMK AO2 WSHFT 1651 T01391011","lat":36.1624,"lon":-97.0832,"elev":293,"name":"Stillwater Muni, OK, US","cover":"CLR","clouds":[],"fltCat":"VFR"},{"icaoId":"KCLL","receiptTime":"2026-04-18T17:06:07.225Z","obsTime":1776531780,"reportTime":"2026-04-18T17:03:00.000Z","temp":20,"dewp":18.3,"wdir":360,"wspd":14,"visib":8,"altim":1016.3,"qcField":4,"wxString":"-RA","precip":0.005,"metarType":"SPECI","rawOb":"SPECI KCLL 181703Z 36014KT 8SM -RA FEW015 BKN034 OVC048 20/18 A3001 RMK AO2 P0000 T02000183","lat":30.5912,"lon":-96.3631,"elev":96,"name":"College Station/Easterwood Arpt, TX, US","cover":"OVC","clouds":[{"cover":"FEW","base":1500},{"cover":"BKN","base":3400},{"cover":"OVC","base":4800}],"fltCat":"VFR"},{"icaoId":"KBOS","receiptTime":"2026-04-18T17:04:11.204Z","obsTime":1776531660,"reportTime":"2026-04-18T17:01:00.000Z","temp":9.4,"dewp":6.1,"wdir":70,"wspd":15,"visib":"10+","altim":1021.1,"qcField":4,"metarType":"SPECI","rawOb":"SPECI KBOS 181701Z 07015KT 10SM OVC022 09/06 A3015 RMK AO2 T00940061","lat":42.3606,"lon":-71.0097,"elev":4,"name":"Boston/Logan Intl, MA, US","cover":"OVC","clouds":[{"cover":"OVC","base":2200}],"fltCat":"MVFR"},{"icaoId":"KFLG","receiptTime":"2026-04-18T17:00:34.550Z","obsTime":1776531420,"reportTime":"2026-04-18T17:00:00.000Z","temp":7.2,"dewp":-17.8,"wdir":60,"wspd":14,"wgst":25,"visib":"10+","altim":1025.1,"slp":1020.8,"qcField":4,"metarType":"METAR","rawOb":"METAR KFLG 181657Z 06014G25KT 10SM CLR 07/M18 A3027 RMK AO2 PK WND 04028/1640 SLP208 T00721178","lat":35.1443,"lon":-111.6664,"elev":2134,"name":"Flagstaff/Pulliam Arpt, AZ, US","cover":"CLR","clouds":[],"fltCat":"VFR"},{"icaoId":"KNFL","receiptTime":"2026-04-18T17:00:34.352Z","obsTime":1776531420,"reportTime":"2026-04-18T17:00:00.000Z","temp":13.3,"dewp":-16.1,"wdir":120,"wspd":9,"wgst":15,"visib":"10+","altim":1020.7,"slp":1017.1,"qcField":6,"metarType":"METAR","rawOb":"METAR KNFL 181657Z AUTO 12009G15KT 10SM CLR 13/M16 A3014 RMK AO2 SLP171 T01331161","lat":39.417,"lon":-118.705,"elev":1199,"name":"Fallon , NV, US","cover":"CLR","clouds":[],"fltCat":"VFR"},{"icaoId":"KVIS","receiptTime":"2026-04-18T16:58:22.821Z","obsTime":1776531360,"reportTime":"2026-04-18T17:00:00.000Z","temp":15.6,"dewp":6.7,"wdir":190,"wspd":5,"visib":"10+","altim":1017,"slp":1017,"qcField":14,"metarType":"METAR","rawOb":"METAR KVIS 181656Z AUTO 19005KT 10SM CLR 16/07 A3003 RMK AO2 SLP170 T01560067 PNO $","lat":36.3135,"lon":-119.3884,"elev":92,"name":"Visalia Muni, CA, US","cover":"CLR","clouds":[],"fltCat":"VFR"},{"icaoId":"KFNL","receiptTime":"2026-04-18T16:58:20.186Z","obsTime":1776531360,"reportTime":"2026-04-18T17:00:00.000Z","temp":8.3,"dewp":-13.9,"wdir":240,"wspd":11,"visib":"10+","altim":1023.5,"slp":1023.1,"qcField":12,"metarType":"METAR","rawOb":"METAR KFNL 181656Z 24011KT 10SM CLR 08/M14 A3022 RMK AO2 SLP231 T00831139 $","lat":40.4427,"lon":-105.0097,"elev":1529,"name":"Fort Collins/N Colorado Rgnl, CO, US","cover":"CLR","clouds":[],"fltCat":"VFR"},{"icaoId":"KSFO","receiptTime":"2026-04-18T17:00:33.889Z","obsTime":1776531360,"reportTime":"2026-04-18T17:00:00.000Z","temp":13.9,"dewp":8.9,"wdir":50,"wspd":4,"visib":"10+","altim":1016,"slp":1016,"qcField":12,"metarType":"METAR","rawOb":"METAR KSFO 181656Z 05004KT 10SM SCT200 14/09 A3000 RMK AO2 SLP160 T01390089 $","lat":37.6196,"lon":-122.3656,"elev":2,"name":"San Francisco Intl, CA, US","cover":"SCT","clouds":[{"cover":"SCT","base":20000}],"fltCat":"VFR"},{"icaoId":"KCHS","receiptTime":"2026-04-18T17:00:32.792Z","obsTime":1776531360,"reportTime":"2026-04-18T17:00:00.000Z","temp":31.1,"dewp":17.2,"wdir":"VRB","wspd":5,"visib":"10+","altim":1014.6,"slp":1014.5,"qcField":4,"metarType":"METAR","rawOb":"METAR KCHS 181656Z VRB05KT 10SM FEW050 BKN200 BKN250 31/17 A2996 RMK AO2 SLP145 T03110172","lat":32.8995,"lon":-80.0407,"elev":12,"name":"Charleston Intl, SC, US","cover":"BKN","clouds":[{"cover":"FEW","base":5000},{"cover":"BKN","base":20000},{"cover":"BKN","base":25000}],"fltCat":"VFR"},{"icaoId":"KEGE","receiptTime":"2026-04-18T16:58:19.892Z","obsTime":1776531360,"reportTime":"2026-04-18T17:00:00.000Z","temp":3.3,"dewp":-11.1,"wdir":30,"wspd":4,"visib":"10+","altim":1028.5,"slp":1029.8,"qcField":4,"metarType":"METAR","rawOb":"METAR KEGE 181656Z 03004KT 10SM CLR 03/M11 A3037 RMK AO2 SLP298 T00331111","lat":39.6448,"lon":-106.9176,"elev":1993,"name":"Eagle Cnty Rgnl, CO, US","cover":"CLR","clouds":[],"fltCat":"VFR"},{"icaoId":"KCOE","receiptTime":"2026-04-18T16:58:20.429Z","obsTime":1776531360,"reportTime":"2026-04-18T17:00:00.000Z","temp":7.8,"dewp":0,"wdir":10,"wspd":3,"visib":"10+","altim":1022.1,"slp":1024.7,"qcField":14,"metarType":"METAR","rawOb":"METAR KCOE 181656Z AUTO 01003KT 10SM CLR 08/00 A3018 RMK AO2 SLP247 T00780000 PNO $","lat":47.7719,"lon":-116.8332,"elev":693,"name":"Coeur DAlene Arpt, ID, US","cover":"CLR","clouds":[],"fltCat":"VFR"},{"icaoId":"KCOD","receiptTime":"2026-04-18T16:58:20.418Z","obsTime":1776531360,"reportTime":"2026-04-18T17:00:00.000Z","temp":6.7,"dewp":-12.2,"wdir":230,"wspd":6,"visib":"10+","altim":1021.8,"slp":1022.7,"qcField":14,"metarType":"METAR","rawOb":"METAR KCOD 181656Z AUTO 23006KT 10SM CLR 07/M12 A3017 RMK AO2 SLP227 T00671122 $","lat":44.52,"lon":-109.0268,"elev":1550,"name":"Cody/Yellowstone Rgnl, WY, US","cover":"CLR","clouds":[],"fltCat":"VFR"},{"icaoId":"KBZN","receiptTime":"2026-04-18T17:00:33.553Z","obsTime":1776531360,"reportTime":"2026-04-18T17:00:00.000Z","temp":0.6,"dewp":-6.1,"wdir":0,"wspd":0,"visib":"10+","altim":1023.8,"slp":1027.4,"qcField":4,"metarType":"METAR","rawOb":"METAR KBZN 181656Z 00000KT 10SM CLR 01/M06 A3023 RMK AO2 SLP274 T00061061","lat":45.7876,"lon":-111.1615,"elev":1349,"name":"Bozeman/Gallatin Fld, MT, US","cover":"CLR","clouds":[],"fltCat":"VFR"},{"icaoId":"KSLE","receiptTime":"2026-04-18T17:00:31.991Z","obsTime":1776531360,"reportTime":"2026-04-18T17:00:00.000Z","temp":11.1,"dewp":5,"wdir":0,"wspd":0,"visib":"10+","altim":1017.4,"slp":1017.2,"qcField":4,"metarType":"METAR","rawOb":"METAR KSLE 181656Z 00000KT 10SM CLR 11/05 A3004 RMK AO2 SLP172 T01110050","lat":44.9049,"lon":-123.001,"elev":63,"name":"Salem Muni, OR, US","cover":"CLR","clouds":[],"fltCat":"VFR"},{"icaoId":"KCGZ","receiptTime":"2026-04-18T16:58:24.825Z","obsTime":1776531360,"reportTime":"2026-04-18T17:00:00.000Z","temp":25.6,"dewp":-11.1,"wdir":110,"wspd":7,"visib":"10+","qcField":14,"metarType":"METAR","rawOb":"METAR KCGZ 181656Z AUTO 11007KT 10SM CLR 26/M11 RMK AO2 SLPNO T02561111 $","lat":32.9531,"lon":-111.7725,"elev":444,"name":"Casa Granda Muni, AZ, US","cover":"CLR","clouds":[],"fltCat":"VFR"},{"icaoId":"KJAC","receiptTime":"2026-04-18T16:58:19.826Z","obsTime":1776531360,"reportTime":"2026-04-18T17:00:00.000Z","temp":2.8,"dewp":-9.4,"wdir":180,"wspd":5,"wgst":14,"visib":"10+","altim":1024.8,"slp":1028,"qcField":4,"metarType":"METAR","rawOb":"METAR KJAC 181656Z 18005G14KT 10SM CLR 03/M09 A3026 RMK AO2 SLP280 T00281094","lat":43.6129,"lon":-110.7366,"elev":1967,"name":"Jackson Hole Arpt, WY, US","cover":"CLR","clouds":[],"fltCat":"VFR"},{"icaoId":"KGUC","receiptTime":"2026-04-18T16:58:20.722Z","obsTime":1776531360,"reportTime":"2026-04-18T17:00:00.000Z","temp":1.7,"dewp":-15,"wdir":"VRB","wspd":4,"visib":"10+","altim":1027.2,"slp":1029.8,"qcField":78,"metarType":"METAR","rawOb":"METAR KGUC 181656Z AUTO VRB04KT 10SM CLR 02/M15 A3033 RMK AO2 SLP298 T00171150 FZRANO $","lat":38.5322,"lon":-106.9419,"elev":2337,"name":"Gunnison Arpt, CO, US","cover":"CLR","clouds":[],"fltCat":"VFR"},{"icaoId":"KHDN","receiptTime":"2026-04-18T16:58:20.793Z","obsTime":1776531360,"reportTime":"2026-04-18T17:00:00.000Z","temp":0.6,"dewp":-11.1,"wdir":"VRB","wspd":4,"visib":"10+","altim":1028.2,"slp":1030.8,"qcField":70,"metarType":"METAR","rawOb":"METAR KHDN 181656Z AUTO VRB04KT 10SM CLR 01/M11 A3036 RMK AO2 SLP308 T00061111 FZRANO","lat":40.4842,"lon":-107.2296,"elev":2012,"name":"Hayden/Yampa Valley Arpt, CO, US","cover":"CLR","clouds":[],"fltCat":"VFR"},{"icaoId":"KHND","receiptTime":"2026-04-18T16:58:20.857Z","obsTime":1776531360,"reportTime":"2026-04-18T17:00:00.000Z","temp":17.8,"dewp":-16.1,"wdir":30,"wspd":9,"wgst":14,"visib":"10+","altim":1021.4,"slp":1022,"qcField":12,"metarType":"METAR","rawOb":"METAR KHND 181656Z 03009G14KT 10SM CLR 18/M16 A3016 RMK AO2 SLP220 T01781161 $","lat":35.9657,"lon":-115.1343,"elev":740,"name":"Henderson Exec, NV, US","cover":"CLR","clouds":[],"fltCat":"VFR"},{"icaoId":"KPVU","receiptTime":"2026-04-18T16:58:23.826Z","obsTime":1776531360,"reportTime":"2026-04-18T17:00:00.000Z","temp":6.1,"dewp":-10,"wdir":280,"wspd":5,"visib":"10+","altim":1026.8,"slp":1027.1,"qcField":4,"metarType":"METAR","rawOb":"METAR KPVU 181656Z 28005KT 10SM CLR 06/M10 A3032 RMK AO2 SLP271 T00611100","lat":40.224,"lon":-111.7252,"elev":1370,"name":"Provo Muni, UT, US","cover":"CLR","clouds":[],"fltCat":"VFR"},{"icaoId":"KPWT","receiptTime":"2026-04-18T16:58:23.850Z","obsTime":1776531360,"reportTime":"2026-04-18T17:00:00.000Z","temp":12.8,"dewp":3.9,"wdir":0,"wspd":0,"visib":"10+","altim":1017.7,"slp":1018.1,"qcField":6,"metarType":"METAR","rawOb":"METAR KPWT 181656Z AUTO 00000KT 10SM CLR 13/04 A3005 RMK AO2 SLP181 T01280039","lat":47.4942,"lon":-122.7594,"elev":143,"name":"Bremerton Arpt, WA, US","cover":"CLR","clouds":[],"fltCat":"VFR"},{"icaoId":"KJAX","receiptTime":"2026-04-18T17:00:33.069Z","obsTime":1776531360,"reportTime":"2026-04-18T17:00:00.000Z","temp":30.6,"dewp":13.3,"wdir":260,"wspd":8,"visib":"10+","altim":1016,"slp":1015.8,"qcField":12,"metarType":"METAR","rawOb":"METAR KJAX 181656Z 26008KT 10SM FEW250 31/13 A3000 RMK AO2 SLP158 T03060133 $","lat":30.4953,"lon":-81.6937,"elev":8,"name":"Jacksonville Intl, FL, US","cover":"FEW","clouds":[{"cover":"FEW","base":25000}],"fltCat":"VFR"},{"icaoId":"KLWS","receiptTime":"2026-04-18T17:00:33.785Z","obsTime":1776531360,"reportTime":"2026-04-18T17:00:00.000Z","temp":8.9,"dewp":0.6,"wdir":80,"wspd":11,"visib":"10+","altim":1021.8,"slp":1022.2,"qcField":4,"metarType":"METAR","rawOb":"METAR KLWS 181656Z 08011KT 10SM CLR 09/01 A3017 RMK AO2 SLP222 T00890006","lat":46.3746,"lon":-117.0153,"elev":435,"name":"Lewiston/Nez Perce Cnty, ID, US","cover":"CLR","clouds":[],"fltCat":"VFR"},{"icaoId":"KCEC","receiptTime":"2026-04-18T17:00:33.577Z","obsTime":1776531360,"reportTime":"2026-04-18T17:00:00.000Z","temp":11.7,"dewp":8.3,"wdir":240,"wspd":3,"visib":"10+","altim":1017,"slp":1017,"qcField":6,"metarType":"METAR","rawOb":"METAR KCEC 181656Z AUTO 24003KT 10SM CLR 12/08 A3003 RMK AO2 SLP170 T01170083","lat":41.7836,"lon":-124.238,"elev":17,"name":"Crescent City/McNama, CA, US","cover":"CLR","clouds":[],"fltCat":"VFR"},{"icaoId":"KLAS","receiptTime":"2026-04-18T17:00:33.766Z","obsTime":1776531360,"reportTime":"2026-04-18T17:00:00.000Z","temp":18.3,"dewp":-18.3,"wdir":50,"wspd":9,"visib":"10+","altim":1020.7,"slp":1019.4,"qcField":4,"metarType":"METAR","rawOb":"METAR KLAS 181656Z 05009KT 10SM SCT250 18/M18 A3014 RMK AO2 SLP194 T01831183","lat":36.0719,"lon":-115.1634,"elev":662,"name":"Las Vegas/Reid Intl, NV, US","cover":"SCT","clouds":[{"cover":"SCT","base":25000}],"fltCat":"VFR"},{"icaoId":"KEKO","receiptTime":"2026-04-18T17:00:33.664Z","obsTime":1776531360,"reportTime":"2026-04-18T17:00:00.000Z","temp":5,"dewp":-11.1,"wdir":70,"wspd":7,"visib":"10+","altim":1023.1,"slp":1024,"qcField":6,"metarType":"METAR","rawOb":"METAR KEKO 181656Z AUTO 07007KT 10SM CLR 05/M11 A3021 RMK AO2 SLP240 T00501111","lat":40.824,"lon":-115.7863,"elev":1541,"name":"Elko Rgnl, NV, US","cover":"CLR","clouds":[],"fltCat":"VFR"},{"icaoId":"KINW","receiptTime":"2026-04-18T17:00:33.753Z","obsTime":1776531360,"reportTime":"2026-04-18T17:00:00.000Z","temp":10,"dewp":-17.2,"wdir":0,"wspd":0,"visib":"10+","altim":1025.8,"slp":1023.4,"qcField":6,"metarType":"METAR","rawOb":"METAR KINW 181656Z AUTO 00000KT 10SM CLR 10/M17 A3029 RMK AO2 SLP234 T01001172","lat":35.0279,"lon":-110.7221,"elev":1492,"name":"Winslow/Lindberg Rgnl, AZ, US","cover":"CLR","clouds":[],"fltCat":"VFR"},{"icaoId":"KSBP","receiptTime":"2026-04-18T17:00:33.849Z","obsTime":1776531360,"reportTime":"2026-04-18T17:00:00.000Z","temp":18.9,"dewp":5,"wdir":0,"wspd":0,"visib":"10+","altim":1014.6,"slp":1014.4,"qcField":4,"metarType":"METAR","rawOb":"METAR KSBP 181656Z 00000KT 10SM CLR 19/05 A2996 RMK AO2 SLP144 T01890050","lat":35.2381,"lon":-120.644,"elev":52,"name":"San Luis Obispo/San Luis Cnty, CA, US","cover":"CLR","clouds":[],"fltCat":"VFR"},{"icaoId":"KTPH","receiptTime":"2026-04-18T17:00:32.005Z","obsTime":1776531360,"reportTime":"2026-04-18T17:00:00.000Z","temp":10.6,"dewp":-20.6,"wdir":"VRB","wspd":5,"visib":"10+","altim":1022.4,"slp":1020.8,"qcField":6,"metarType":"METAR","rawOb":"METAR KTPH 181656Z AUTO VRB05KT 10SM CLR 11/M21 A3019 RMK AO2 SLP208 T01061206","lat":38.0505,"lon":-117.0906,"elev":1647,"name":"Tonopah Arpt, NV, US","cover":"CLR","clouds":[],"fltCat":"VFR"},{"icaoId":"KSDF","receiptTime":"2026-04-18T17:00:32.494Z","obsTime":1776531360,"reportTime":"2026-04-18T17:00:00.000Z","temp":17.2,"dewp":15.6,"wdir":160,"wspd":9,"visib":"10+","altim":1011.6,"slp":1011.1,"qcField":4,"wxString":"-RA","precip":0.005,"metarType":"METAR","rawOb":"METAR KSDF 181656Z 16009KT 10SM -RA FEW011 BKN080 OVC095 17/16 A2987 RMK AO2 RAE07B43 PRESFR SLP111 P0000 T01720156","lat":38.1774,"lon":-85.7308,"elev":146,"name":"Louisville Intl, KY, US","cover":"OVC","clouds":[{"cover":"FEW","base":1100},{"cover":"BKN","base":8000},{"cover":"OVC","base":9500}],"fltCat":"VFR"},{"icaoId":"KSGU","receiptTime":"2026-04-18T16:58:22.305Z","obsTime":1776531360,"reportTime":"2026-04-18T17:00:00.000Z","temp":14.4,"dewp":-11.1,"wdir":220,"wspd":5,"visib":"10+","altim":1022.4,"slp":1021.3,"qcField":6,"metarType":"METAR","rawOb":"METAR KSGU 181656Z AUTO 22005KT 10SM CLR 14/M11 A3019 RMK AO2 SLP213 T01441111","lat":37.0444,"lon":-113.5034,"elev":877,"name":"Saint George Muni, UT, US","cover":"CLR","clouds":[],"fltCat":"VFR"},{"icaoId":"KENV","receiptTime":"2026-04-18T16:58:19.959Z","obsTime":1776531360,"reportTime":"2026-04-18T17:00:00.000Z","temp":6.7,"dewp":-12.2,"wdir":90,"wspd":6,"visib":"10+","altim":1026.5,"slp":1027.5,"qcField":6,"metarType":"METAR","rawOb":"METAR KENV 181656Z AUTO 09006KT 10SM CLR 07/M12 A3031 RMK AO2 SLP275 T00671122","lat":40.7211,"lon":-114.0312,"elev":1291,"name":"Wendover Arpt, UT, US","cover":"CLR","clouds":[],"fltCat":"VFR"},{"icaoId":"KSDY","receiptTime":"2026-04-18T16:58:24.030Z","obsTime":1776531360,"reportTime":"2026-04-18T17:00:00.000Z","temp":6.7,"dewp":-6.7,"wdir":290,"wspd":9,"wgst":21,"visib":"10+","altim":1018.7,"slp":1021.3,"qcField":14,"metarType":"METAR","rawOb":"METAR KSDY 181656Z AUTO 29009G21KT 140V010 10SM BKN110 07/M07 A3008 RMK AO2 SLP213 T00671067 $","lat":47.7029,"lon":-104.1951,"elev":600,"name":"Sidney/Richland Muni, MT, US","cover":"BKN","clouds":[{"cover":"BKN","base":11000}],"fltCat":"VFR"},{"icaoId":"KRDM","receiptTime":"2026-04-18T17:00:33.832Z","obsTime":1776531360,"reportTime":"2026-04-18T17:00:00.000Z","temp":11.1,"dewp":-5,"wdir":"VRB","wspd":5,"visib":"10+","altim":1018.4,"slp":1017.9,"qcField":4,"metarType":"METAR","rawOb":"METAR KRDM 181656Z VRB05KT 10SM CLR 11/M05 A3007 RMK AO2 SLP179 T01111050","lat":44.2558,"lon":-121.1407,"elev":930,"name":"Redmond Muni, OR, US","cover":"CLR","clouds":[],"fltCat":"VFR"},{"icaoId":"KDUG","receiptTime":"2026-04-18T17:02:06.495Z","obsTime":1776531360,"reportTime":"2026-04-18T17:00:00.000Z","temp":22.8,"dewp":-3.9,"wdir":80,"wspd":9,"wgst":14,"visib":"10+","altim":1019,"slp":1013.4,"qcField":38,"metarType":"METAR","rawOb":"METAR KDUG 181656Z AUTO 08009G14KT 10SM CLR 23/M04 A3009 RMK AO2 SLP134 T02281039 TSNO","lat":31.4725,"lon":-109.6022,"elev":1260,"name":"Douglas/Bisbee Intl, AZ, US","cover":"CLR","clouds":[],"fltCat":"VFR"},{"icaoId":"KUKI","receiptTime":"2026-04-18T17:00:32.073Z","obsTime":1776531360,"reportTime":"2026-04-18T17:00:00.000Z","temp":13.3,"dewp":4.4,"wdir":0,"wspd":0,"visib":"10+","altim":1016.7,"slp":1016.2,"qcField":6,"metarType":"METAR","rawOb":"METAR KUKI 181656Z AUTO 00000KT 10SM CLR 13/04 A3002 RMK AO2 SLP162 T01330044","lat":39.1278,"lon":-123.2001,"elev":183,"name":"Ukiah Muni, CA, US","cover":"CLR","clouds":[],"fltCat":"VFR"},{"icaoId":"KRNO","receiptTime":"2026-04-18T16:58:23.965Z","obsTime":1776531300,"reportTime":"2026-04-18T17:00:00.000Z","temp":9.4,"dewp":-12.8,"wdir":0,"wspd":0,"visib":"10+","altim":1020.4,"slp":1018.3,"qcField":4,"metarType":"METAR","rawOb":"METAR KRNO 181655Z 00000KT 10SM FEW180 SCT250 09/M13 A3013 RMK AO2 SLP183 T00941128","lat":39.5077,"lon":-119.7683,"elev":1344,"name":"Reno/Tahoe Intl, NV, US","cover":"SCT","clouds":[{"cover":"FEW","base":18000},{"cover":"SCT","base":25000}],"fltCat":"VFR"},{"icaoId":"KEND","receiptTime":"2026-04-18T17:16:05.280Z","obsTime":1776531300,"reportTime":"2026-04-18T17:00:00.000Z","temp":13.6,"dewp":-2.8,"wdir":350,"wspd":13,"visib":"10+","altim":1024.1,"slp":1024,"qcField":14,"metarType":"METAR","rawOb":"METAR KEND 181655Z AUTO 35013KT 10SM CLR 14/M03 A3024 RMK AO2 SLP240 T01361028 $","lat":36.338,"lon":-97.919,"elev":392,"name":"Enid/Vance AFB, OK, US","cover":"CLR","clouds":[],"fltCat":"VFR"},{"icaoId":"KLUF","receiptTime":"2026-04-18T17:14:06.166Z","obsTime":1776531300,"reportTime":"2026-04-18T17:00:00.000Z","temp":26.5,"dewp":-14,"wdir":60,"wspd":7,"visib":"10+","altim":1015.3,"slp":1014,"qcField":14,"metarType":"METAR","rawOb":"METAR KLUF 181655Z AUTO 06007KT 10SM CLR 27/M14 A2998 RMK AO2 SLP140 T02651140 $","lat":33.538,"lon":-112.38,"elev":333,"name":"Phoenix/Luke AFB, AZ, US","cover":"CLR","clouds":[],"fltCat":"VFR"},{"icaoId":"KGPI","receiptTime":"2026-04-18T16:58:20.375Z","obsTime":1776531300,"reportTime":"2026-04-18T17:00:00.000Z","temp":3.3,"dewp":-0.6,"wdir":0,"wspd":0,"visib":"10+","altim":1022.8,"slp":1024.8,"qcField":4,"metarType":"METAR","rawOb":"METAR KGPI 181655Z 00000KT 10SM CLR 03/M01 A3020 RMK AO2 SLP248 T00331006","lat":48.3041,"lon":-114.2643,"elev":903,"name":"Kalispell/Glacier Park Intl, MT, US","cover":"CLR","clouds":[],"fltCat":"VFR"},{"icaoId":"KCMA","receiptTime":"2026-04-18T16:58:24.852Z","obsTime":1776531300,"reportTime":"2026-04-18T17:00:00.000Z","temp":21.7,"dewp":-2.2,"wdir":260,"wspd":4,"visib":"10+","altim":1015,"slp":1015.5,"qcField":4,"metarType":"METAR","rawOb":"METAR KCMA 181655Z 26004KT 10SM CLR 22/M02 A2997 RMK AO2 SLP155 T02171022","lat":34.2114,"lon":-119.0876,"elev":20,"name":"Camarillo Arpt, CA, US","cover":"CLR","clouds":[],"fltCat":"VFR"},{"icaoId":"KAST","receiptTime":"2026-04-18T16:58:24.397Z","obsTime":1776531300,"reportTime":"2026-04-18T17:00:00.000Z","temp":13.9,"dewp":5.6,"wdir":70,"wspd":7,"visib":"10+","altim":1015.7,"slp":1015.6,"qcField":14,"metarType":"METAR","rawOb":"METAR KAST 181655Z AUTO 07007KT 10SM SCT110 14/06 A2999 RMK AO2 SLP156 T01390056 $","lat":46.157,"lon":-123.8833,"elev":3,"name":"Astoria Rgnl, OR, US","cover":"SCT","clouds":[{"cover":"SCT","base":11000}],"fltCat":"VFR"},{"icaoId":"KOLS","receiptTime":"2026-04-18T16:58:14.935Z","obsTime":1776531240,"reportTime":"2026-04-18T17:00:00.000Z","temp":22.2,"dewp":-1.1,"wdir":"VRB","wspd":3,"visib":"10+","altim":1018,"slp":1012.7,"qcField":6,"precip":0.005,"metarType":"METAR","rawOb":"METAR KOLS 181654Z AUTO VRB03KT 10SM CLR 22/M01 A3006 RMK AO2 RAB05E19 SLP127 P0000 T02221011","lat":31.4208,"lon":-110.8465,"elev":1194,"name":"Nogales Intl, AZ, US","cover":"CLR","clouds":[],"fltCat":"VFR"},{"icaoId":"KSYR","receiptTime":"2026-04-18T16:58:18.327Z","obsTime":1776531240,"reportTime":"2026-04-18T17:00:00.000Z","temp":23.9,"dewp":11.1,"wdir":140,"wspd":12,"wgst":20,"visib":"10+","altim":1010.2,"slp":1009.6,"qcField":4,"metarType":"METAR","rawOb":"METAR KSYR 181654Z 14012G20KT 10SM SCT130 BKN230 24/11 A2983 RMK AO2 PK WND 16027/1630 SLP096 T02390111","lat":43.1111,"lon":-76.1038,"elev":125,"name":"Syracuse/Hancock Intl, NY, US","cover":"BKN","clouds":[{"cover":"SCT","base":13000},{"cover":"BKN","base":23000}],"fltCat":"VFR"},{"icaoId":"KSJN","receiptTime":"2026-04-18T16:58:18.480Z","obsTime":1776531240,"reportTime":"2026-04-18T17:00:00.000Z","temp":12.2,"dewp":-10.6,"wdir":"VRB","wspd":3,"visib":"10+","altim":1024.1,"slp":1020.4,"qcField":6,"metarType":"METAR","rawOb":"METAR KSJN 181654Z AUTO VRB03KT 10SM CLR 12/M11 A3024 RMK AO2 SLP204 T01221106","lat":34.5184,"lon":-109.3801,"elev":1747,"name":"St Johns Ind Arpt, AZ, US","cover":"CLR","clouds":[],"fltCat":"VFR"},{"icaoId":"KSLC","receiptTime":"2026-04-18T16:58:18.493Z","obsTime":1776531240,"reportTime":"2026-04-18T17:00:00.000Z","temp":9.4,"dewp":-10.6,"wdir":160,"wspd":6,"visib":"10+","altim":1026.2,"slp":1025.3,"qcField":4,"metarType":"METAR","rawOb":"METAR KSLC 181654Z 16006KT 10SM SCT190 BKN250 09/M11 A3030 RMK AO2 SLP253 T00941106","lat":40.7707,"lon":-111.965,"elev":1286,"name":"Salt Lake City Intl, UT, US","cover":"BKN","clouds":[{"cover":"SCT","base":19000},{"cover":"BKN","base":25000}],"fltCat":"VFR"},{"icaoId":"KMEM","receiptTime":"2026-04-18T16:58:10.960Z","obsTime":1776531240,"reportTime":"2026-04-18T17:00:00.000Z","temp":18.9,"dewp":16.1,"wdir":0,"wspd":0,"visib":"10+","altim":1016,"slp":1015.4,"qcField":12,"precip":0.005,"metarType":"METAR","rawOb":"METAR KMEM 181654Z 00000KT 10SM OVC050 19/16 A3000 RMK AO2 RAB43E52 SLP154 P0000 T01890161 $","lat":35.0564,"lon":-89.9864,"elev":78,"name":"Memphis Intl, TN, US","cover":"OVC","clouds":[{"cover":"OVC","base":5000}],"fltCat":"VFR"},{"icaoId":"KOLM","receiptTime":"2026-04-18T16:58:14.922Z","obsTime":1776531240,"reportTime":"2026-04-18T17:00:00.000Z","temp":10.6,"dewp":5,"wdir":0,"wspd":0,"visib":"10+","altim":1017.7,"slp":1017.6,"qcField":4,"metarType":"METAR","rawOb":"METAR KOLM 181654Z 00000KT 10SM CLR 11/05 A3005 RMK AO2 SLP176 T01060050","lat":46.9737,"lon":-122.9049,"elev":58,"name":"Olympia Rgnl, WA, US","cover":"CLR","clouds":[],"fltCat":"VFR"},{"icaoId":"KBTV","receiptTime":"2026-04-18T16:58:17.944Z","obsTime":1776531240,"reportTime":"2026-04-18T17:00:00.000Z","temp":23.9,"dewp":6.1,"wdir":200,"wspd":16,"wgst":26,"visib":"10+","altim":1013.3,"slp":1013.1,"qcField":4,"metarType":"METAR","rawOb":"METAR KBTV 181654Z 20016G26KT 10SM BKN150 BKN250 24/06 A2992 RMK AO2 PK WND 17029/1625 SLP131 T02390061","lat":44.4682,"lon":-73.1499,"elev":101,"name":"Burlington Intl, VT, US","cover":"BKN","clouds":[{"cover":"BKN","base":15000},{"cover":"BKN","base":25000}],"fltCat":"VFR"},{"icaoId":"KRIC","receiptTime":"2026-04-18T16:58:18.205Z","obsTime":1776531240,"reportTime":"2026-04-18T17:00:00.000Z","temp":30,"dewp":12.2,"wdir":240,"wspd":9,"wgst":15,"visib":"10+","altim":1013.6,"slp":1013.8,"qcField":12,"metarType":"METAR","rawOb":"METAR KRIC 181654Z 24009G15KT 10SM FEW030 BKN250 30/12 A2993 RMK AO2 SLP138 T03000122 $","lat":37.5115,"lon":-77.3234,"elev":51,"name":"Richmond Intl, VA, US","cover":"BKN","clouds":[{"cover":"FEW","base":3000},{"cover":"BKN","base":25000}],"fltCat":"VFR"},{"icaoId":"KIFP","receiptTime":"2026-04-18T16:54:43.613Z","obsTime":1776531240,"reportTime":"2026-04-18T17:00:00.000Z","temp":21,"dewp":-14,"wdir":350,"wspd":24,"visib":20,"altim":1016.3,"qcField":0,"metarType":"METAR","rawOb":"METAR KIFP 181654Z 35024KT 20SM CLR 21/M14 A3001","lat":35.1487,"lon":-114.5611,"elev":210,"name":"Bullhead City Intl, AZ, US","cover":"CLR","clouds":[],"fltCat":"VFR"},{"icaoId":"KDSM","receiptTime":"2026-04-18T16:58:18.046Z","obsTime":1776531240,"reportTime":"2026-04-18T17:00:00.000Z","temp":6.7,"dewp":-6.7,"wdir":300,"wspd":24,"wgst":32,"visib":"10+","altim":1020.1,"slp":1020.3,"qcField":12,"metarType":"METAR","rawOb":"METAR KDSM 181654Z 30024G32KT 10SM CLR 07/M07 A3012 RMK AO2 PK WND 29033/1621 SLP203 T00671067 $","lat":41.5339,"lon":-93.6531,"elev":286,"name":"Des Moines Intl, IA, US","cover":"CLR","clouds":[],"fltCat":"VFR"},{"icaoId":"KCOS","receiptTime":"2026-04-18T16:58:17.982Z","obsTime":1776531240,"reportTime":"2026-04-18T17:00:00.000Z","temp":5.6,"dewp":-18.9,"wdir":310,"wspd":6,"visib":"10+","altim":1025.5,"slp":1028,"qcField":4,"metarType":"METAR","rawOb":"METAR KCOS 181654Z 31006KT 10SM CLR 06/M19 A3028 RMK AO2 SLP280 T00561189","lat":38.8095,"lon":-104.6887,"elev":1886,"name":"Colorado Spring Arpt, CO, US","cover":"CLR","clouds":[],"fltCat":"VFR"},{"icaoId":"KROC","receiptTime":"2026-04-18T16:58:18.230Z","obsTime":1776531240,"reportTime":"2026-04-18T17:00:00.000Z","temp":23.9,"dewp":11.1,"wdir":190,"wspd":17,"wgst":26,"visib":"10+","altim":1006.9,"slp":1006.8,"qcField":12,"metarType":"METAR","rawOb":"METAR KROC 181654Z 19017G26KT 10SM SCT130 OVC150 24/11 A2973 RMK AO2 PK WND 20027/1602 SLP068 T02390111 $","lat":43.1172,"lon":-77.6754,"elev":166,"name":"Rochester Intl Arpt, NY, US","cover":"OVC","clouds":[{"cover":"SCT","base":13000},{"cover":"OVC","base":15000}],"fltCat":"VFR"},{"icaoId":"KFFZ","receiptTime":"2026-04-18T16:58:13.575Z","obsTime":1776531240,"reportTime":"2026-04-18T17:00:00.000Z","temp":25.6,"dewp":-12.2,"wdir":40,"wspd":13,"wgst":21,"visib":"10+","altim":1015.7,"slp":1013.5,"qcField":4,"metarType":"METAR","rawOb":"METAR KFFZ 181654Z 04013G21KT 10SM CLR 26/M12 A2999 RMK AO2 SLP135 T02561122","lat":33.4659,"lon":-111.7212,"elev":420,"name":"Mesa/Falcon Fld, AZ, US","cover":"CLR","clouds":[],"fltCat":"VFR"},{"icaoId":"KGCN","receiptTime":"2026-04-18T16:58:11.345Z","obsTime":1776531240,"reportTime":"2026-04-18T17:00:00.000Z","temp":7.8,"dewp":-17.2,"wdir":60,"wspd":17,"wgst":25,"visib":"10+","altim":1025.5,"slp":1023.1,"qcField":4,"metarType":"METAR","rawOb":"METAR KGCN 181654Z 06017G25KT 10SM CLR 08/M17 A3028 RMK AO2 PK WND 11030/1622 SLP231 T00781172","lat":35.9458,"lon":-112.1554,"elev":1993,"name":"Grand Canyon Park Arpt, AZ, US","cover":"CLR","clouds":[],"fltCat":"VFR"},{"icaoId":"KBUF","receiptTime":"2026-04-18T16:58:17.957Z","obsTime":1776531240,"reportTime":"2026-04-18T17:00:00.000Z","temp":25.6,"dewp":9.4,"wdir":180,"wspd":27,"wgst":37,"visib":"10+","altim":1004.8,"slp":1004.6,"qcField":12,"metarType":"METAR","rawOb":"METAR KBUF 181654Z 18027G37KT 10SM FEW040 FEW110 SCT130 BKN170 BKN200 26/09 A2967 RMK AO2 PK WND 18041/1611 SLP046 T02560094 $","lat":42.94,"lon":-78.7361,"elev":217,"name":"Buffalo-Niagara Intl, NY, US","cover":"BKN","clouds":[{"cover":"FEW","base":4000},{"cover":"FEW","base":11000},{"cover":"SCT","base":13000},{"cover":"BKN","base":17000}],"fltCat":"VFR"},{"icaoId":"KAPC","receiptTime":"2026-04-18T16:58:04.481Z","obsTime":1776531240,"reportTime":"2026-04-18T17:00:00.000Z","temp":15.6,"dewp":6.7,"wdir":360,"wspd":4,"visib":"10+","altim":1016.3,"slp":1015.5,"qcField":4,"metarType":"METAR","rawOb":"METAR KAPC 181654Z 36004KT 10SM CLR 16/07 A3001 RMK AO2 SLP155 T01560067","lat":38.2075,"lon":-122.2804,"elev":5,"name":"Napa Cnty Arpt, CA, US","cover":"CLR","clouds":[],"fltCat":"VFR"},{"icaoId":"KRKS","receiptTime":"2026-04-18T16:58:15.452Z","obsTime":1776531240,"reportTime":"2026-04-18T17:00:00.000Z","temp":1.7,"dewp":-12.2,"wdir":250,"wspd":13,"wgst":21,"visib":"10+","altim":1025.8,"slp":1028.1,"qcField":6,"metarType":"METAR","rawOb":"METAR KRKS 181654Z AUTO 25013G21KT 10SM CLR 02/M12 A3029 RMK AO2 SLP281 T00171122","lat":41.5947,"lon":-109.0529,"elev":2062,"name":"Rock Springs/SW Wyoming Rgnl, WY, US","cover":"CLR","clouds":[],"fltCat":"VFR"},{"icaoId":"KBWI","receiptTime":"2026-04-18T16:58:14.153Z","obsTime":1776531240,"reportTime":"2026-04-18T17:00:00.000Z","temp":22.2,"dewp":15,"wdir":70,"wspd":11,"wgst":17,"visib":9,"altim":1015,"slp":1014.8,"qcField":4,"metarType":"METAR","rawOb":"METAR KBWI 181654Z 07011G17KT 9SM FEW015 FEW250 22/15 A2997 RMK AO2 SLP148 T02220150","lat":39.1733,"lon":-76.684,"elev":42,"name":"Baltimore-Washington Intl, MD, US","cover":"FEW","clouds":[{"cover":"FEW","base":1500},{"cover":"FEW","base":25000}],"fltCat":"VFR"},{"icaoId":"KEUG","receiptTime":"2026-04-18T16:58:13.420Z","obsTime":1776531240,"reportTime":"2026-04-18T17:00:00.000Z","temp":11.1,"dewp":4.4,"wdir":0,"wspd":0,"visib":"10+","altim":1017.4,"slp":1017.4,"qcField":4,"metarType":"METAR","rawOb":"METAR KEUG 181654Z 00000KT 10SM BKN250 11/04 A3004 RMK AO2 SLP174 T01110044","lat":44.1331,"lon":-123.2156,"elev":109,"name":"Eugene/Mahlon Sweet Fld, OR, US","cover":"BKN","clouds":[{"cover":"BKN","base":25000}],"fltCat":"VFR"},{"icaoId":"KBFL","receiptTime":"2026-04-18T16:58:14.015Z","obsTime":1776531240,"reportTime":"2026-04-18T17:00:00.000Z","temp":18.9,"dewp":0.6,"wdir":220,"wspd":5,"visib":"10+","altim":1016.7,"slp":1016,"qcField":12,"metarType":"METAR","rawOb":"METAR KBFL 181654Z 22005KT 10SM CLR 19/01 A3002 RMK AO2 SLP160 T01890006 $","lat":35.4342,"lon":-119.0552,"elev":146,"name":"Bakersfield/Meadows Arpt, CA, US","cover":"CLR","clouds":[],"fltCat":"VFR"},{"icaoId":"KPHL","receiptTime":"2026-04-18T16:58:15.171Z","obsTime":1776531240,"reportTime":"2026-04-18T17:00:00.000Z","temp":22.8,"dewp":12.8,"wdir":110,"wspd":9,"visib":"10+","altim":1016.3,"slp":1016.3,"qcField":12,"metarType":"METAR","rawOb":"METAR KPHL 181654Z 11009KT 10SM FEW038 BKN300 23/13 A3001 RMK AO2 SLP163 T02280128 $","lat":39.8733,"lon":-75.2268,"elev":2,"name":"Philadelphia Intl, PA, US","cover":"BKN","clouds":[{"cover":"FEW","base":3800},{"cover":"BKN","base":30000}],"fltCat":"VFR"},{"icaoId":"KGSO","receiptTime":"2026-04-18T16:58:18.071Z","obsTime":1776531240,"reportTime":"2026-04-18T17:00:00.000Z","temp":29.4,"dewp":10.6,"wdir":230,"wspd":7,"wgst":20,"visib":"10+","altim":1014.6,"slp":1013.4,"qcField":4,"metarType":"METAR","rawOb":"METAR KGSO 181654Z 23007G20KT 10SM SCT070 SCT250 29/11 A2996 RMK AO2 SLP134 T02940106","lat":36.0969,"lon":-79.9432,"elev":275,"name":"Greensboro Intl, NC, US","cover":"SCT","clouds":[{"cover":"SCT","base":7000},{"cover":"SCT","base":25000}],"fltCat":"VFR"},{"icaoId":"KDEN","receiptTime":"2026-04-18T16:56:25.802Z","obsTime":1776531180,"reportTime":"2026-04-18T17:00:00.000Z","temp":5.6,"dewp":-12.8,"wdir":"VRB","wspd":5,"visib":"10+","altim":1024.5,"slp":1024.7,"qcField":12,"metarType":"METAR","rawOb":"METAR KDEN 181653Z VRB05KT 10SM FEW075 06/M13 A3025 RMK AO2 SLP247 T00561128 $","lat":39.8466,"lon":-104.6562,"elev":1656,"name":"Denver Intl, CO, US","cover":"FEW","clouds":[{"cover":"FEW","base":7500}],"fltCat":"VFR"},{"icaoId":"KHOU","receiptTime":"2026-04-18T16:56:26.989Z","obsTime":1776531180,"reportTime":"2026-04-18T17:00:00.000Z","temp":27.8,"dewp":20.6,"wdir":300,"wspd":6,"visib":"10+","altim":1015,"slp":1015.3,"qcField":12,"metarType":"METAR","rawOb":"METAR KHOU 181653Z 30006KT 10SM SCT033 BKN050 28/21 A2997 RMK AO2 SLP153 T02780206 $","lat":29.6458,"lon":-95.2821,"elev":13,"name":"Houston/Hobby Arpt, TX, US","cover":"BKN","clouds":[{"cover":"SCT","base":3300},{"cover":"BKN","base":5000}],"fltCat":"VFR"},{"icaoId":"KIAH","receiptTime":"2026-04-18T16:56:27.139Z","obsTime":1776531180,"reportTime":"2026-04-18T17:00:00.000Z","temp":27.8,"dewp":21.7,"wdir":350,"wspd":6,"visib":"10+","altim":1015.3,"slp":1015,"qcField":4,"metarType":"METAR","rawOb":"METAR KIAH 181653Z 35006KT 10SM SCT025 BKN038 BKN080 28/22 A2998 RMK AO2 SLP150 T02780217","lat":29.9844,"lon":-95.3607,"elev":27,"name":"Houston/Bush Intl, TX, US","cover":"BKN","clouds":[{"cover":"SCT","base":2500},{"cover":"BKN","base":3800},{"cover":"BKN","base":8000}],"fltCat":"VFR"},{"icaoId":"KIDA","receiptTime":"2026-04-18T16:56:27.182Z","obsTime":1776531180,"reportTime":"2026-04-18T17:00:00.000Z","temp":5.6,"dewp":-8.9,"wdir":230,"wspd":9,"visib":"10+","altim":1026.2,"slp":1027.2,"qcField":4,"metarType":"METAR","rawOb":"METAR KIDA 181653Z 23009KT 10SM CLR 06/M09 A3030 RMK AO2 SLP272 T00561089","lat":43.5204,"lon":-112.0675,"elev":1444,"name":"Idaho Falls Rgnl, ID, US","cover":"CLR","clouds":[],"fltCat":"VFR"},{"icaoId":"KSTS","receiptTime":"2026-04-18T16:56:27.413Z","obsTime":1776531180,"reportTime":"2026-04-18T17:00:00.000Z","temp":15,"dewp":5,"wdir":0,"wspd":0,"visib":"10+","altim":1016.3,"slp":1015.7,"qcField":4,"metarType":"METAR","rawOb":"METAR KSTS 181653Z 00000KT 10SM CLR 15/05 A3001 RMK AO2 SLP157 T01500050","lat":38.5037,"lon":-122.811,"elev":35,"name":"Santa Rosa/Schulz Arpt, CA, US","cover":"CLR","clouds":[],"fltCat":"VFR"},{"icaoId":"KTPA","receiptTime":"2026-04-18T16:56:27.546Z","obsTime":1776531180,"reportTime":"2026-04-18T17:00:00.000Z","temp":28.3,"dewp":20,"wdir":250,"wspd":8,"visib":"10+","altim":1017,"slp":1016.7,"qcField":4,"metarType":"METAR","rawOb":"METAR KTPA 181653Z 25008KT 10SM SCT033 28/20 A3003 RMK AO2 SLP167 T02830200","lat":27.9633,"lon":-82.54,"elev":2,"name":"Tampa Intl Arpt, FL, US","cover":"SCT","clouds":[{"cover":"SCT","base":3300}],"fltCat":"VFR"},{"icaoId":"KTWF","receiptTime":"2026-04-18T16:56:27.653Z","obsTime":1776531180,"reportTime":"2026-04-18T17:00:00.000Z","temp":7.2,"dewp":-3.3,"wdir":70,"wspd":7,"visib":"10+","altim":1024.5,"slp":1024.1,"qcField":4,"metarType":"METAR","rawOb":"METAR KTWF 181653Z 07007KT 10SM CLR 07/M03 A3025 RMK AO2 SLP241 T00721033","lat":42.4785,"lon":-114.4775,"elev":1269,"name":"Twin Falls/Joslin Fld, ID, US","cover":"CLR","clouds":[],"fltCat":"VFR"},{"icaoId":"KVEL","receiptTime":"2026-04-18T16:56:27.754Z","obsTime":1776531180,"reportTime":"2026-04-18T17:00:00.000Z","temp":4.4,"dewp":-9.4,"wdir":120,"wspd":5,"visib":"10+","altim":1028.2,"slp":1029.2,"qcField":6,"metarType":"METAR","rawOb":"METAR KVEL 181653Z AUTO 12005KT 10SM CLR 04/M09 A3036 RMK AO2 SLP292 T00441094","lat":40.4429,"lon":-109.5128,"elev":1604,"name":"Vernal Rgnl, UT, US","cover":"CLR","clouds":[],"fltCat":"VFR"},{"icaoId":"KVGT","receiptTime":"2026-04-18T16:56:27.765Z","obsTime":1776531180,"reportTime":"2026-04-18T17:00:00.000Z","temp":17.2,"dewp":-15.6,"wdir":160,"wspd":6,"visib":"10+","altim":1020.4,"slp":1021.1,"qcField":4,"metarType":"METAR","rawOb":"METAR KVGT 181653Z 16006KT 10SM CLR 17/M16 A3013 RMK AO2 SLP211 T01721156","lat":36.212,"lon":-115.194,"elev":664,"name":"Las Vegas/North Arpt, NV, US","cover":"CLR","clouds":[],"fltCat":"VFR"},{"icaoId":"KFUL","receiptTime":"2026-04-18T16:56:28.254Z","obsTime":1776531180,"reportTime":"2026-04-18T17:00:00.000Z","temp":20.6,"dewp":10,"wdir":"VRB","wspd":3,"visib":"10+","altim":1015,"slp":1014.7,"qcField":4,"metarType":"METAR","rawOb":"METAR KFUL 181653Z VRB03KT 10SM CLR 21/10 A2997 RMK AO2 SLP147 T02060100","lat":33.8715,"lon":-117.9856,"elev":23,"name":"Fullerton Muni, CA, US","cover":"CLR","clouds":[],"fltCat":"VFR"},{"icaoId":"KGJT","receiptTime":"2026-04-18T16:56:28.389Z","obsTime":1776531180,"reportTime":"2026-04-18T17:00:00.000Z","temp":6.7,"dewp":-8.3,"wdir":110,"wspd":6,"visib":"10+","altim":1028.2,"slp":1028.1,"qcField":4,"metarType":"METAR","rawOb":"METAR KGJT 181653Z 11006KT 10SM CLR 07/M08 A3036 RMK AO2 SLP281 T00671083","lat":39.1344,"lon":-108.5408,"elev":1475,"name":"Grand Junction Rgnl, CO, US","cover":"CLR","clouds":[],"fltCat":"VFR"},{"icaoId":"KGTF","receiptTime":"2026-04-18T16:56:28.582Z","obsTime":1776531180,"reportTime":"2026-04-18T17:00:00.000Z","temp":7.2,"dewp":-4.4,"wdir":240,"wspd":13,"wgst":20,"visib":"10+","altim":1020.4,"slp":1023,"qcField":4,"metarType":"METAR","rawOb":"METAR KGTF 181653Z 24013G20KT 10SM CLR 07/M04 A3013 RMK AO2 SLP230 T00721044","lat":47.4733,"lon":-111.3828,"elev":1117,"name":"Great Falls Intl, MT, US","cover":"CLR","clouds":[],"fltCat":"VFR"},{"icaoId":"KTUL","receiptTime":"2026-04-18T16:56:27.597Z","obsTime":1776531180,"reportTime":"2026-04-18T17:00:00.000Z","temp":13.3,"dewp":-1.7,"wdir":360,"wspd":17,"wgst":25,"visib":"10+","altim":1024.1,"slp":1023.7,"qcField":12,"metarType":"METAR","rawOb":"METAR KTUL 181653Z 36017G25KT 10SM FEW250 13/M02 A3024 RMK AO2 PK WND 02028/1602 SLP237 T01331017 $","lat":36.1985,"lon":-95.8782,"elev":196,"name":"Tulsa Intl Arpt, OK, US","cover":"FEW","clouds":[{"cover":"FEW","base":25000}],"fltCat":"VFR"},{"icaoId":"KHIO","receiptTime":"2026-04-18T16:56:26.888Z","obsTime":1776531180,"reportTime":"2026-04-18T17:00:00.000Z","temp":10.6,"dewp":4.4,"wdir":0,"wspd":0,"visib":"10+","altim":1017.4,"slp":1017.2,"qcField":4,"metarType":"METAR","rawOb":"METAR KHIO 181653Z 00000KT 10SM CLR 11/04 A3004 RMK AO2 SLP172 T01060044","lat":45.5476,"lon":-122.9557,"elev":62,"name":"Portland/Hillsboro Arpt, OR, US","cover":"CLR","clouds":[],"fltCat":"VFR"},{"icaoId":"KMYR","receiptTime":"2026-04-18T16:56:21.476Z","obsTime":1776531180,"reportTime":"2026-04-18T17:00:00.000Z","temp":25.6,"dewp":18.3,"wdir":180,"wspd":11,"visib":"10+","altim":1016,"slp":1015.8,"qcField":12,"metarType":"METAR","rawOb":"METAR KMYR 181653Z 18011KT 10SM CLR 26/18 A3000 RMK AO2 SLP158 T02560183 $","lat":33.6769,"lon":-78.9325,"elev":7,"name":"Myrtle Beach Intl, SC, US","cover":"CLR","clouds":[],"fltCat":"VFR"},{"icaoId":"KHLN","receiptTime":"2026-04-18T16:56:26.964Z","obsTime":1776531180,"reportTime":"2026-04-18T17:00:00.000Z","temp":7.8,"dewp":-8.3,"wdir":360,"wspd":6,"visib":"10+","altim":1021.8,"slp":1024.9,"qcField":4,"metarType":"METAR","rawOb":"METAR KHLN 181653Z 36006KT 10SM CLR 08/M08 A3017 RMK AO2 SLP249 T00781083","lat":46.6045,"lon":-111.9892,"elev":1178,"name":"Helena Rgnl, MT, US","cover":"CLR","clouds":[],"fltCat":"VFR"},{"icaoId":"KBNA","receiptTime":"2026-04-18T16:56:25.291Z","obsTime":1776531180,"reportTime":"2026-04-18T17:00:00.000Z","temp":17.8,"dewp":13.3,"wdir":"VRB","wspd":4,"visib":"10+","altim":1016,"slp":1015.5,"qcField":12,"precip":0.005,"metarType":"METAR","rawOb":"METAR KBNA 181653Z VRB04KT 10SM OVC055 18/13 A3000 RMK AO2 RAE13 SLP155 P0000 T01780133 $","lat":36.1105,"lon":-86.6881,"elev":168,"name":"Nashville Intl, TN, US","cover":"OVC","clouds":[{"cover":"OVC","base":5500}],"fltCat":"VFR"},{"icaoId":"KMIA","receiptTime":"2026-04-18T16:58:23.278Z","obsTime":1776531180,"reportTime":"2026-04-18T17:00:00.000Z","temp":27.8,"dewp":20.6,"wdir":100,"wspd":8,"visib":"10+","altim":1016.7,"slp":1016.6,"qcField":0,"metarType":"METAR","rawOb":"METAR KMIA 181653Z 10008KT 10SM BKN030 BKN250 28/21 A3002 RMK SLP166 T02780206","lat":25.7881,"lon":-80.3169,"elev":1,"name":"Miami Intl, FL, US","cover":"BKN","clouds":[{"cover":"BKN","base":3000},{"cover":"BKN","base":25000}],"fltCat":"MVFR"},{"icaoId":"KTUS","receiptTime":"2026-04-18T16:56:26.670Z","obsTime":1776531180,"reportTime":"2026-04-18T17:00:00.000Z","temp":24.4,"dewp":-1.7,"wdir":320,"wspd":5,"visib":"10+","altim":1017,"slp":1013,"qcField":4,"metarType":"METAR","rawOb":"METAR KTUS 181653Z 32005KT 10SM CLR 24/M02 A3003 RMK AO2 SLP130 T02441017","lat":32.1315,"lon":-110.9564,"elev":776,"name":"Tucson Intl Arpt, AZ, US","cover":"CLR","clouds":[],"fltCat":"VFR"},{"icaoId":"KDLN","receiptTime":"2026-04-18T16:56:24.440Z","obsTime":1776531180,"reportTime":"2026-04-18T17:00:00.000Z","temp":3.3,"dewp":-10.6,"wdir":"VRB","wspd":3,"visib":"10+","altim":1023.1,"slp":1025.1,"qcField":6,"metarType":"METAR","rawOb":"METAR KDLN 181653Z AUTO VRB03KT 10SM CLR 03/M11 A3021 RMK AO2 SLP251 T00331106","lat":45.2584,"lon":-112.5546,"elev":1586,"name":"Dillon Arpt, MT, US","cover":"CLR","clouds":[],"fltCat":"VFR"},{"icaoId":"KBCE","receiptTime":"2026-04-18T16:56:25.072Z","obsTime":1776531180,"reportTime":"2026-04-18T17:00:00.000Z","temp":4.4,"dewp":-17.8,"wdir":150,"wspd":11,"wgst":17,"visib":"10+","altim":1026.5,"slp":1024.1,"qcField":6,"metarType":"METAR","rawOb":"METAR KBCE 181653Z AUTO 15011G17KT 120V180 10SM CLR 04/M18 A3031 RMK AO2 SLP241 T00441178","lat":37.7013,"lon":-112.149,"elev":2311,"name":"Bryce Canyon Arpt, UT, US","cover":"CLR","clouds":[],"fltCat":"VFR"},{"icaoId":"KMSO","receiptTime":"2026-04-18T16:56:20.728Z","obsTime":1776531180,"reportTime":"2026-04-18T17:00:00.000Z","temp":5.6,"dewp":-5,"wdir":190,"wspd":6,"visib":"10+","altim":1023.8,"slp":1025.5,"qcField":12,"metarType":"METAR","rawOb":"METAR KMSO 181653Z 19006KT 10SM CLR 06/M05 A3023 RMK AO2 SLP255 T00561050 $","lat":46.9208,"lon":-114.0938,"elev":974,"name":"Missoula Intl, MT, US","cover":"CLR","clouds":[],"fltCat":"VFR"},{"icaoId":"KBRO","receiptTime":"2026-04-18T16:56:25.374Z","obsTime":1776531180,"reportTime":"2026-04-18T17:00:00.000Z","temp":28.9,"dewp":21.7,"wdir":150,"wspd":21,"wgst":27,"visib":"10+","altim":1010.9,"slp":1010.5,"qcField":4,"metarType":"METAR","rawOb":"METAR KBRO 181653Z 15021G27KT 10SM SCT028 BKN038 29/22 A2985 RMK AO2 PK WND 15027/1653 SLP105 T02890217","lat":25.9146,"lon":-97.4231,"elev":6,"name":"Brownsville Intl, TX, US","cover":"BKN","clouds":[{"cover":"SCT","base":2800},{"cover":"BKN","base":3800}],"fltCat":"VFR"},{"icaoId":"KSHR","receiptTime":"2026-04-18T16:56:23.704Z","obsTime":1776531180,"reportTime":"2026-04-18T17:00:00.000Z","temp":6.7,"dewp":-5.6,"wdir":340,"wspd":14,"wgst":25,"visib":"10+","altim":1021.4,"slp":1023.5,"qcField":6,"metarType":"METAR","rawOb":"METAR KSHR 181653Z AUTO 34014G25KT 10SM CLR 07/M06 A3016 RMK AO2 SLP235 T00671056","lat":44.7603,"lon":-106.9741,"elev":1212,"name":"Sheridan Cnty Arpt, WY, US","cover":"CLR","clouds":[],"fltCat":"VFR"},{"icaoId":"KCNY","receiptTime":"2026-04-18T16:56:19.813Z","obsTime":1776531180,"reportTime":"2026-04-18T17:00:00.000Z","temp":8.9,"dewp":-11.1,"wdir":50,"wspd":9,"visib":"10+","altim":1027.2,"slp":1026.6,"qcField":14,"metarType":"METAR","rawOb":"METAR KCNY 181653Z AUTO 05009KT 10SM CLR 09/M11 A3033 RMK AO2 SLP266 T00891111 $","lat":38.7501,"lon":-109.7627,"elev":1392,"name":"Moab/Canyonland Fld, UT, US","cover":"CLR","clouds":[],"fltCat":"VFR"},{"icaoId":"KPUB","receiptTime":"2026-04-18T16:56:20.507Z","obsTime":1776531180,"reportTime":"2026-04-18T17:00:00.000Z","temp":8.3,"dewp":-11.1,"wdir":180,"wspd":6,"visib":"10+","altim":1025.8,"slp":1025.5,"qcField":12,"metarType":"METAR","rawOb":"METAR KPUB 181653Z 18006KT 10SM CLR 08/M11 A3029 RMK AO2 SLP255 T00831111 $","lat":38.2887,"lon":-104.5057,"elev":1441,"name":"Pueblo Mem Arpt, CO, US","cover":"CLR","clouds":[],"fltCat":"VFR"},{"icaoId":"KPIH","receiptTime":"2026-04-18T16:56:21.582Z","obsTime":1776531180,"reportTime":"2026-04-18T17:00:00.000Z","temp":7.8,"dewp":-9.4,"wdir":"VRB","wspd":3,"visib":"10+","altim":1025.1,"slp":1025.7,"qcField":4,"metarType":"METAR","rawOb":"METAR KPIH 181653Z VRB03KT 10SM CLR 08/M09 A3027 RMK AO2 SLP257 T00781094","lat":42.9197,"lon":-112.5723,"elev":1357,"name":"Pocatello Rgnl, ID, US","cover":"CLR","clouds":[],"fltCat":"VFR"},{"icaoId":"KLOL","receiptTime":"2026-04-18T16:56:22.355Z","obsTime":1776531180,"reportTime":"2026-04-18T17:00:00.000Z","temp":10.6,"dewp":-15.6,"wdir":0,"wspd":0,"visib":"10+","altim":1021.1,"slp":1020.7,"qcField":6,"metarType":"METAR","rawOb":"METAR KLOL 181653Z AUTO 00000KT 10SM CLR 11/M16 A3015 RMK AO2 SLP207 T01061156","lat":40.0684,"lon":-118.5702,"elev":1191,"name":"Lovelock/Derby Fld, NV, US","cover":"CLR","clouds":[],"fltCat":"VFR"},{"icaoId":"KAPA","receiptTime":"2026-04-18T16:56:24.884Z","obsTime":1776531180,"reportTime":"2026-04-18T17:00:00.000Z","temp":3.9,"dewp":-11.7,"wdir":180,"wspd":8,"visib":"10+","altim":1024.5,"slp":1027.2,"qcField":4,"metarType":"METAR","rawOb":"METAR KAPA 181653Z 18008KT 10SM FEW070 FEW120 04/M12 A3025 RMK AO2 SLP272 T00391117","lat":39.5599,"lon":-104.8484,"elev":1791,"name":"Denver/Centennial Arpt, CO, US","cover":"FEW","clouds":[{"cover":"FEW","base":7000},{"cover":"FEW","base":12000}],"fltCat":"VFR"},{"icaoId":"KPDX","receiptTime":"2026-04-18T16:56:20.752Z","obsTime":1776531180,"reportTime":"2026-04-18T17:00:00.000Z","temp":12.8,"dewp":2.2,"wdir":80,"wspd":4,"visib":"10+","altim":1017.4,"slp":1017.1,"qcField":12,"metarType":"METAR","rawOb":"METAR KPDX 181653Z 08004KT 10SM FEW110 BKN250 13/02 A3004 RMK AO2 SLP171 T01280022 $","lat":45.5958,"lon":-122.6092,"elev":7,"name":"Portland Intl, OR, US","cover":"BKN","clouds":[{"cover":"FEW","base":11000},{"cover":"BKN","base":25000}],"fltCat":"VFR"},{"icaoId":"KMFR","receiptTime":"2026-04-18T16:56:23.829Z","obsTime":1776531180,"reportTime":"2026-04-18T17:00:00.000Z","temp":8.9,"dewp":1.7,"wdir":0,"wspd":0,"visib":"10+","altim":1017.7,"slp":1017.7,"qcField":4,"metarType":"METAR","rawOb":"METAR KMFR 181653Z 00000KT 10SM CLR 09/02 A3005 RMK AO2 SLP177 T00890017","lat":42.375,"lon":-122.877,"elev":397,"name":"Medford/Rogue Valley Intl, OR, US","cover":"CLR","clouds":[],"fltCat":"VFR"},{"icaoId":"KLAR","receiptTime":"2026-04-18T16:56:22.169Z","obsTime":1776531180,"reportTime":"2026-04-18T17:00:00.000Z","temp":2.2,"dewp":-13.9,"wdir":260,"wspd":16,"wgst":26,"visib":"10+","altim":1022.4,"slp":1023.9,"qcField":6,"metarType":"METAR","rawOb":"METAR KLAR 181653Z AUTO 26016G26KT 10SM CLR 02/M14 A3019 RMK AO2 PK WND 27032/1620 SLP239 T00221139","lat":41.3165,"lon":-105.6729,"elev":2217,"name":"Laramie Rgnl, WY, US","cover":"CLR","clouds":[],"fltCat":"VFR"},{"icaoId":"KLAX","receiptTime":"2026-04-18T16:56:20.617Z","obsTime":1776531180,"reportTime":"2026-04-18T17:00:00.000Z","temp":20.6,"dewp":10.6,"wdir":0,"wspd":0,"visib":"10+","altim":1015.3,"slp":1014.9,"qcField":12,"metarType":"METAR","rawOb":"METAR KLAX 181653Z 00000KT 10SM FEW250 SCT300 21/11 A2998 RMK AO2 SLP149 T02060106 $","lat":33.9382,"lon":-118.3866,"elev":30,"name":"Los Angeles Intl, CA, US","cover":"SCT","clouds":[{"cover":"FEW","base":25000},{"cover":"SCT","base":30000}],"fltCat":"VFR"},{"icaoId":"KLBB","receiptTime":"2026-04-18T16:56:20.632Z","obsTime":1776531180,"reportTime":"2026-04-18T17:00:00.000Z","temp":12.8,"dewp":-9.4,"wdir":40,"wspd":13,"wgst":25,"visib":"10+","altim":1025.8,"slp":1023.1,"qcField":4,"metarType":"METAR","rawOb":"METAR KLBB 181653Z 04013G25KT 10SM FEW250 13/M09 A3029 RMK AO2 PK WND 03026/1612 SLP231 T01281094","lat":33.6658,"lon":-101.8233,"elev":996,"name":"Lubbock Intl Arpt, TX, US","cover":"FEW","clouds":[{"cover":"FEW","base":25000}],"fltCat":"VFR"},{"icaoId":"KLGB","receiptTime":"2026-04-18T16:56:22.286Z","obsTime":1776531180,"reportTime":"2026-04-18T17:00:00.000Z","temp":20.6,"dewp":11.1,"wdir":0,"wspd":0,"visib":"10+","altim":1015,"slp":1014.8,"qcField":14,"metarType":"METAR","rawOb":"METAR KLGB 181653Z AUTO 00000KT 10SM CLR 21/11 A2997 RMK AO2 SLP148 T02060111 $","lat":33.8118,"lon":-118.1472,"elev":10,"name":"Long Beach Arpt, CA, US","cover":"CLR","clouds":[],"fltCat":"VFR"},{"icaoId":"KELY","receiptTime":"2026-04-18T16:56:23.101Z","obsTime":1776531180,"reportTime":"2026-04-18T17:00:00.000Z","temp":5.6,"dewp":-17.2,"wdir":"VRB","wspd":4,"visib":"10+","altim":1024.1,"slp":1023.6,"qcField":14,"metarType":"METAR","rawOb":"METAR KELY 181653Z AUTO VRB04KT 10SM CLR 06/M17 A3024 RMK AO2 SLP236 T00561172 $","lat":39.2954,"lon":-114.8466,"elev":1906,"name":"Ely/Yelland Fld, NV, US","cover":"CLR","clouds":[],"fltCat":"VFR"},{"icaoId":"KGSP","receiptTime":"2026-04-18T16:56:28.568Z","obsTime":1776531180,"reportTime":"2026-04-18T17:00:00.000Z","temp":28.9,"dewp":13.3,"wdir":240,"wspd":7,"visib":"10+","altim":1015.7,"slp":1014.4,"qcField":4,"metarType":"METAR","rawOb":"METAR KGSP 181653Z 24007KT 10SM FEW065 29/13 A2999 RMK AO2 SLP144 T02890133","lat":34.8842,"lon":-82.2209,"elev":285,"name":"Greenville-Spartanburg Intl, SC, US","cover":"FEW","clouds":[{"cover":"FEW","base":6500}],"fltCat":"VFR"},{"icaoId":"KSJC","receiptTime":"2026-04-18T16:56:23.724Z","obsTime":1776531180,"reportTime":"2026-04-18T17:00:00.000Z","temp":16.7,"dewp":2.8,"wdir":0,"wspd":0,"visib":"10+","altim":1016,"slp":1015.9,"qcField":4,"metarType":"METAR","rawOb":"METAR KSJC 181653Z 00000KT 10SM SCT100 17/03 A3000 RMK AO2 SLP159 T01670028","lat":37.3594,"lon":-121.9244,"elev":13,"name":"San Jose Intl Arpt, CA, US","cover":"SCT","clouds":[{"cover":"SCT","base":10000}],"fltCat":"VFR"},{"icaoId":"KSNA","receiptTime":"2026-04-18T16:56:23.771Z","obsTime":1776531180,"reportTime":"2026-04-18T17:00:00.000Z","temp":20,"dewp":12.8,"wdir":200,"wspd":4,"visib":"10+","altim":1015,"slp":1014.9,"qcField":4,"metarType":"METAR","rawOb":"METAR KSNA 181653Z 20004KT 10SM FEW080 FEW250 20/13 A2997 RMK AO2 SLP149 T02000128","lat":33.6798,"lon":-117.8675,"elev":14,"name":"Santa Ana/Wayne Arpt, CA, US","cover":"FEW","clouds":[{"cover":"FEW","base":8000},{"cover":"FEW","base":25000}],"fltCat":"VFR"},{"icaoId":"KSAF","receiptTime":"2026-04-18T17:00:33.084Z","obsTime":1776531180,"reportTime":"2026-04-18T17:00:00.000Z","temp":6.7,"dewp":-17.8,"wdir":"VRB","wspd":3,"visib":"10+","altim":1026.2,"slp":1023.2,"qcField":5,"metarType":"METAR","rawOb":"METAR KSAF 181653Z COR VRB03KT 10SM CLR 07/M18 A3030 RMK AO2 SLP232 T00671178","lat":35.611,"lon":-106.0957,"elev":1918,"name":"Santa Fe Cnty Muni, NM, US","cover":"CLR","clouds":[],"fltCat":"VFR"},{"icaoId":"KCDC","receiptTime":"2026-04-18T16:56:25.508Z","obsTime":1776531180,"reportTime":"2026-04-18T17:00:00.000Z","temp":6.7,"dewp":-11.7,"wdir":110,"wspd":3,"visib":"10+","altim":1024.5,"slp":1023,"qcField":6,"metarType":"METAR","rawOb":"METAR KCDC 181653Z AUTO 11003KT 10SM CLR 07/M12 A3025 RMK AO2 SLP230 T00671117","lat":37.7067,"lon":-113.097,"elev":1703,"name":"Cedar City Muni, UT, US","cover":"CLR","clouds":[],"fltCat":"VFR"},{"icaoId":"KBTM","receiptTime":"2026-04-18T16:56:25.401Z","obsTime":1776531180,"reportTime":"2026-04-18T17:00:00.000Z","temp":2.8,"dewp":-10.6,"wdir":0,"wspd":0,"visib":"10+","altim":1022.4,"slp":1024.4,"qcField":6,"metarType":"METAR","rawOb":"METAR KBTM 181653Z AUTO 00000KT 10SM CLR 03/M11 A3019 RMK AO2 SLP244 T00281106","lat":45.9644,"lon":-112.5015,"elev":1680,"name":"Butte/Mooney Arpt, MT, US","cover":"CLR","clouds":[],"fltCat":"VFR"},{"icaoId":"KBUR","receiptTime":"2026-04-18T16:56:25.411Z","obsTime":1776531180,"reportTime":"2026-04-18T17:00:00.000Z","temp":20.6,"dewp":-1.7,"wdir":330,"wspd":3,"visib":"10+","altim":1015.7,"slp":1014.4,"qcField":4,"metarType":"METAR","rawOb":"METAR KBUR 181653Z 33003KT 10SM CLR 21/M02 A2999 RMK AO2 SLP144 T02061017","lat":34.1996,"lon":-118.3654,"elev":221,"name":"Burbank/Bob Hope Arpt, CA, US","cover":"CLR","clouds":[],"fltCat":"VFR"},{"icaoId":"KLVS","receiptTime":"2026-04-18T16:56:22.462Z","obsTime":1776531180,"reportTime":"2026-04-18T17:00:00.000Z","temp":3.9,"dewp":-9.4,"wdir":"VRB","wspd":6,"visib":"10+","altim":1027.2,"slp":1025.4,"qcField":14,"metarType":"METAR","rawOb":"METAR KLVS 181653Z AUTO VRB06KT 10SM CLR 04/M09 A3033 RMK AO2 SLP254 T00391094 $","lat":35.6558,"lon":-105.1385,"elev":2095,"name":"Las Vegas Muni, NM, US","cover":"CLR","clouds":[],"fltCat":"VFR"},{"icaoId":"KMAF","receiptTime":"2026-04-18T16:56:22.508Z","obsTime":1776531180,"reportTime":"2026-04-18T17:00:00.000Z","temp":13.9,"dewp":-6.1,"wdir":20,"wspd":18,"wgst":24,"visib":"10+","altim":1024.1,"slp":1020.5,"qcField":4,"metarType":"METAR","rawOb":"METAR KMAF 181653Z 02018G24KT 10SM CLR 14/M06 A3024 RMK AO2 PK WND 04027/1555 SLP205 T01391061","lat":31.9475,"lon":-102.2086,"elev":874,"name":"Midland Intl, TX, US","cover":"CLR","clouds":[],"fltCat":"VFR"},{"icaoId":"KFAT","receiptTime":"2026-04-18T16:56:23.018Z","obsTime":1776531180,"reportTime":"2026-04-18T17:00:00.000Z","temp":18.3,"dewp":5,"wdir":160,"wspd":4,"visib":"10+","altim":1016.7,"slp":1016.2,"qcField":12,"metarType":"METAR","rawOb":"METAR KFAT 181653Z 16004KT 10SM BKN200 18/05 A3002 RMK AO2 SLP162 T01830050 $","lat":36.78,"lon":-119.7202,"elev":102,"name":"Fresno/Yosemite Intl, CA, US","cover":"BKN","clouds":[{"cover":"BKN","base":20000}],"fltCat":"VFR"},{"icaoId":"KBOI","receiptTime":"2026-04-18T16:56:25.302Z","obsTime":1776531180,"reportTime":"2026-04-18T17:00:00.000Z","temp":10.6,"dewp":-5.6,"wdir":110,"wspd":12,"visib":"10+","altim":1023.8,"slp":1023.9,"qcField":4,"metarType":"METAR","rawOb":"METAR KBOI 181653Z 11012KT 10SM CLR 11/M06 A3023 RMK AO2 SLP239 T01061056","lat":43.567,"lon":-116.2406,"elev":860,"name":"Boise Arpt, ID, US","cover":"CLR","clouds":[],"fltCat":"VFR"},{"icaoId":"KPGA","receiptTime":"2026-04-18T16:56:20.763Z","obsTime":1776531180,"reportTime":"2026-04-18T17:00:00.000Z","temp":11.1,"dewp":-15,"wdir":50,"wspd":8,"visib":"10+","altim":1026.5,"slp":1024.2,"qcField":14,"metarType":"METAR","rawOb":"METAR KPGA 181653Z AUTO 05008KT 020V080 10SM CLR 11/M15 A3031 RMK AO2 SLP242 T01111150 $","lat":36.9211,"lon":-111.4487,"elev":1310,"name":"Page Muni, AZ, US","cover":"CLR","clouds":[],"fltCat":"VFR"},{"icaoId":"KCYS","receiptTime":"2026-04-18T16:56:25.767Z","obsTime":1776531180,"reportTime":"2026-04-18T17:00:00.000Z","temp":4.4,"dewp":-13.9,"wdir":300,"wspd":17,"wgst":33,"visib":"10+","altim":1022.4,"slp":1023.8,"qcField":4,"metarType":"METAR","rawOb":"METAR KCYS 181653Z 30017G33KT 10SM CLR 04/M14 A3019 RMK AO2 PK WND 31034/1619 SLP238 T00441139","lat":41.1579,"lon":-104.8081,"elev":1868,"name":"Cheyenne Rgnl, WY, US","cover":"CLR","clouds":[],"fltCat":"VFR"},{"icaoId":"KAMA","receiptTime":"2026-04-18T16:56:22.102Z","obsTime":1776531180,"reportTime":"2026-04-18T17:00:00.000Z","temp":11.7,"dewp":-8.9,"wdir":50,"wspd":10,"wgst":16,"visib":"10+","altim":1027.2,"slp":1025.8,"qcField":4,"metarType":"METAR","rawOb":"METAR KAMA 181653Z 05010G16KT 10SM CLR 12/M09 A3033 RMK AO2 SLP258 T01171089","lat":35.2203,"lon":-101.7173,"elev":1102,"name":"Amarillo Intl Arpt, TX, US","cover":"CLR","clouds":[],"fltCat":"VFR"},{"icaoId":"KSDL","receiptTime":"2026-04-18T16:56:23.630Z","obsTime":1776531180,"reportTime":"2026-04-18T17:00:00.000Z","temp":25,"dewp":-10.6,"wdir":"VRB","wspd":3,"visib":"10+","altim":1016.7,"slp":1014.3,"qcField":4,"metarType":"METAR","rawOb":"METAR KSDL 181653Z VRB03KT 10SM CLR 25/M11 A3002 RMK AO2 SLP143 T02501106","lat":33.6123,"lon":-111.9232,"elev":438,"name":"Scottsdale Muni, AZ, US","cover":"CLR","clouds":[],"fltCat":"VFR"},{"icaoId":"KMDW","receiptTime":"2026-04-18T16:56:22.608Z","obsTime":1776531180,"reportTime":"2026-04-18T17:00:00.000Z","temp":8.3,"dewp":-0.6,"wdir":290,"wspd":15,"wgst":24,"visib":"10+","altim":1011.9,"slp":1011.9,"qcField":4,"metarType":"METAR","rawOb":"METAR KMDW 181653Z 29015G24KT 10SM FEW031 FEW075 BKN250 08/M01 A2988 RMK AO2 SLP119 T00831006","lat":41.7841,"lon":-87.7552,"elev":186,"name":"Chicago/Midway Intl, IL, US","cover":"BKN","clouds":[{"cover":"FEW","base":3100},{"cover":"FEW","base":7500},{"cover":"BKN","base":25000}],"fltCat":"VFR"},{"icaoId":"KBIL","receiptTime":"2026-04-18T16:56:19.742Z","obsTime":1776531180,"reportTime":"2026-04-18T17:00:00.000Z","temp":7.8,"dewp":-7.2,"wdir":290,"wspd":13,"visib":"10+","altim":1021.4,"slp":1023.1,"qcField":4,"metarType":"METAR","rawOb":"METAR KBIL 181653Z 29013KT 10SM FEW050 08/M07 A3016 RMK AO2 SLP231 T00781072","lat":45.8072,"lon":-108.5462,"elev":1089,"name":"Billings/Logan Intl, MT, US","cover":"FEW","clouds":[{"cover":"FEW","base":5000}],"fltCat":"VFR"},{"icaoId":"KCRQ","receiptTime":"2026-04-18T16:56:19.824Z","obsTime":1776531180,"reportTime":"2026-04-18T17:00:00.000Z","temp":20,"dewp":11.1,"wdir":"VRB","wspd":3,"visib":"10+","altim":1014.6,"slp":1014.2,"qcField":6,"metarType":"METAR","rawOb":"METAR KCRQ 181653Z AUTO VRB03KT 10SM CLR 20/11 A2996 RMK AO2 SLP142 T02000111","lat":33.1299,"lon":-117.2765,"elev":96,"name":"Carlsbad/Palomar Arpt, CA, US","cover":"CLR","clouds":[],"fltCat":"VFR"},{"icaoId":"KDMN","receiptTime":"2026-04-18T16:56:19.884Z","obsTime":1776531180,"reportTime":"2026-04-18T17:00:00.000Z","temp":18.9,"dewp":-12.8,"wdir":50,"wspd":20,"wgst":29,"visib":"10+","altim":1022.1,"slp":1016.7,"qcField":6,"metarType":"METAR","rawOb":"METAR KDMN 181653Z AUTO 05020G29KT 10SM CLR 19/M13 A3018 RMK AO2 PK WND 05032/1609 SLP167 T01891128","lat":32.2592,"lon":-107.7206,"elev":1310,"name":"Deming Muni, NM, US","cover":"CLR","clouds":[],"fltCat":"VFR"},{"icaoId":"KFMN","receiptTime":"2026-04-18T16:56:19.960Z","obsTime":1776531180,"reportTime":"2026-04-18T17:00:00.000Z","temp":7.2,"dewp":-14.4,"wdir":"VRB","wspd":4,"visib":"10+","altim":1026.2,"slp":1025.9,"qcField":4,"metarType":"METAR","rawOb":"METAR KFMN 181653Z VRB04KT 10SM CLR 07/M14 A3030 RMK AO2 SLP259 T00721144","lat":36.7435,"lon":-108.2293,"elev":1677,"name":"Farmington/Four Corners Rgnl, NM, US","cover":"CLR","clouds":[],"fltCat":"VFR"},{"icaoId":"KONT","receiptTime":"2026-04-18T16:56:20.045Z","obsTime":1776531180,"reportTime":"2026-04-18T17:00:00.000Z","temp":21.1,"dewp":2.2,"wdir":220,"wspd":4,"visib":"10+","altim":1015.3,"slp":1014.1,"qcField":12,"metarType":"METAR","rawOb":"METAR KONT 181653Z 22004KT 10SM BKN250 21/02 A2998 RMK AO2 SLP141 T02110022 $","lat":34.0531,"lon":-117.5769,"elev":279,"name":"Ontario Intl, CA, US","cover":"BKN","clouds":[{"cover":"BKN","base":25000}],"fltCat":"VFR"},{"icaoId":"KPAE","receiptTime":"2026-04-18T16:56:20.191Z","obsTime":1776531180,"reportTime":"2026-04-18T17:00:00.000Z","temp":12.2,"dewp":2.2,"wdir":0,"wspd":0,"visib":"10+","altim":1017.7,"slp":1017.6,"qcField":6,"metarType":"METAR","rawOb":"METAR KPAE 181653Z AUTO 00000KT 10SM CLR 12/02 A3005 RMK AO2 SLP176 T01220022","lat":47.9232,"lon":-122.2831,"elev":166,"name":"Everett/Paine Fld, WA, US","cover":"CLR","clouds":[],"fltCat":"VFR"},{"icaoId":"KPBI","receiptTime":"2026-04-18T16:56:20.236Z","obsTime":1776531180,"reportTime":"2026-04-18T17:00:00.000Z","temp":28.3,"dewp":20,"wdir":110,"wspd":5,"visib":"10+","altim":1017,"slp":1016.8,"qcField":12,"metarType":"METAR","rawOb":"METAR KPBI 181653Z 11005KT 10SM SCT028 SCT250 28/20 A3003 RMK AO2 SLP168 T02830200 $","lat":26.6851,"lon":-80.0992,"elev":4,"name":"Palm Beach Intl, FL, US","cover":"SCT","clouds":[{"cover":"SCT","base":2800},{"cover":"SCT","base":25000}],"fltCat":"VFR"},{"icaoId":"KPNC","receiptTime":"2026-04-18T16:56:20.402Z","obsTime":1776531180,"reportTime":"2026-04-18T17:00:00.000Z","temp":12.2,"dewp":-1.7,"wdir":350,"wspd":14,"wgst":23,"visib":"10+","altim":1024.8,"slp":1024.6,"qcField":6,"metarType":"METAR","rawOb":"METAR KPNC 181653Z AUTO 35014G23KT 10SM CLR 12/M02 A3026 RMK AO2 SLP246 T01221017","lat":36.7369,"lon":-97.1024,"elev":304,"name":"Ponca City Rgnl, OK, US","cover":"CLR","clouds":[],"fltCat":"VFR"},{"icaoId":"KPRC","receiptTime":"2026-04-18T16:56:20.462Z","obsTime":1776531180,"reportTime":"2026-04-18T17:00:00.000Z","temp":13.9,"dewp":-14.4,"wdir":0,"wspd":0,"visib":"10+","altim":1021.8,"slp":1016.8,"qcField":4,"metarType":"METAR","rawOb":"METAR KPRC 181653Z 00000KT 10SM CLR 14/M14 A3017 RMK AO2 SLP168 T01391144","lat":34.6491,"lon":-112.4223,"elev":1528,"name":"Prescott/Love Fld, AZ, US","cover":"CLR","clouds":[],"fltCat":"VFR"},{"icaoId":"KPSC","receiptTime":"2026-04-18T16:56:20.472Z","obsTime":1776531180,"reportTime":"2026-04-18T17:00:00.000Z","temp":8.3,"dewp":1.7,"wdir":310,"wspd":5,"visib":"10+","altim":1021.4,"slp":1021.5,"qcField":4,"metarType":"METAR","rawOb":"METAR KPSC 181653Z 31005KT 10SM CLR 08/02 A3016 RMK AO2 SLP215 T00830017","lat":46.2695,"lon":-119.1182,"elev":121,"name":"Pasco/Tri Cities Arpt, WA, US","cover":"CLR","clouds":[],"fltCat":"VFR"},{"icaoId":"KPSP","receiptTime":"2026-04-18T16:56:20.482Z","obsTime":1776531180,"reportTime":"2026-04-18T17:00:00.000Z","temp":25.6,"dewp":-18.3,"wdir":"VRB","wspd":5,"visib":"10+","altim":1016.3,"slp":1015.8,"qcField":12,"metarType":"METAR","rawOb":"METAR KPSP 181653Z VRB05KT 10SM CLR 26/M18 A3001 RMK AO2 SLP158 T02561183 $","lat":33.8222,"lon":-116.5043,"elev":123,"name":"Palm Springs Intl, CA, US","cover":"CLR","clouds":[],"fltCat":"VFR"},{"icaoId":"KRIW","receiptTime":"2026-04-18T16:56:20.785Z","obsTime":1776531180,"reportTime":"2026-04-18T17:00:00.000Z","temp":6.7,"dewp":-15,"wdir":300,"wspd":14,"wgst":24,"visib":"10+","altim":1021.8,"slp":1022.3,"qcField":6,"metarType":"METAR","rawOb":"METAR KRIW 181653Z AUTO 30014G24KT 10SM CLR 07/M15 A3017 RMK AO2 PK WND 28027/1616 SLP223 T00671150","lat":43.0622,"lon":-108.4471,"elev":1662,"name":"Riverton Rgnl, WY, US","cover":"CLR","clouds":[],"fltCat":"VFR"},{"icaoId":"KSEA","receiptTime":"2026-04-18T16:56:20.860Z","obsTime":1776531180,"reportTime":"2026-04-18T17:00:00.000Z","temp":11.7,"dewp":3.9,"wdir":0,"wspd":0,"visib":"10+","altim":1017.4,"slp":1018,"qcField":4,"metarType":"METAR","rawOb":"METAR KSEA 181653Z 00000KT 10SM FEW100 SCT180 12/04 A3004 RMK AO2 SLP180 T01170039","lat":47.4447,"lon":-122.3144,"elev":115,"name":"Seattle-Tacoma Intl, WA, US","cover":"SCT","clouds":[{"cover":"FEW","base":10000},{"cover":"SCT","base":18000}],"fltCat":"VFR"},{"icaoId":"KYKM","receiptTime":"2026-04-18T16:56:26.729Z","obsTime":1776531180,"reportTime":"2026-04-18T17:00:00.000Z","temp":10.6,"dewp":-1.7,"wdir":"VRB","wspd":3,"visib":"10+","altim":1020.4,"slp":1020.7,"qcField":4,"metarType":"METAR","rawOb":"METAR KYKM 181653Z VRB03KT 10SM CLR 11/M02 A3013 RMK AO2 SLP207 T01061017","lat":46.564,"lon":-120.5349,"elev":319,"name":"Yakima/McAllister Fld, WA, US","cover":"CLR","clouds":[],"fltCat":"VFR"},{"icaoId":"KACV","receiptTime":"2026-04-18T16:56:21.980Z","obsTime":1776531180,"reportTime":"2026-04-18T17:00:00.000Z","temp":10.6,"dewp":7.8,"wdir":310,"wspd":3,"visib":"10+","altim":1016.7,"slp":1017.2,"qcField":6,"metarType":"METAR","rawOb":"METAR KACV 181653Z AUTO 31003KT 10SM CLR 11/08 A3002 RMK AO2 SLP172 T01060078","lat":40.9784,"lon":-124.1048,"elev":63,"name":"Arcata Arpt, CA, US","cover":"CLR","clouds":[],"fltCat":"VFR"},{"icaoId":"KLAW","receiptTime":"2026-04-18T16:56:22.182Z","obsTime":1776531180,"reportTime":"2026-04-18T17:00:00.000Z","temp":15,"dewp":-0.6,"wdir":20,"wspd":14,"wgst":28,"visib":"10+","altim":1024.5,"slp":1024.1,"qcField":4,"metarType":"METAR","rawOb":"METAR KLAW 181653Z 02014G28KT 10SM CLR 15/M01 A3025 RMK AO2 PK WND 02029/1628 SLP241 T01501006","lat":34.5577,"lon":-98.4172,"elev":328,"name":"Lawton-Fort Sill Rgnl, OK, US","cover":"CLR","clouds":[],"fltCat":"VFR"},{"icaoId":"KMCI","receiptTime":"2026-04-18T16:56:22.558Z","obsTime":1776531180,"reportTime":"2026-04-18T17:00:00.000Z","temp":10,"dewp":-4.4,"wdir":310,"wspd":11,"wgst":19,"visib":"10+","altim":1022.8,"slp":1022.7,"qcField":12,"metarType":"METAR","rawOb":"METAR KMCI 181653Z 31011G19KT 10SM CLR 10/M04 A3020 RMK AO2 PK WND 30026/1628 SLP227 T01001044 $","lat":39.2975,"lon":-94.7309,"elev":308,"name":"Kansas City Intl, MO, US","cover":"CLR","clouds":[],"fltCat":"VFR"},{"icaoId":"KMCO","receiptTime":"2026-04-18T16:56:22.584Z","obsTime":1776531180,"reportTime":"2026-04-18T17:00:00.000Z","temp":28.3,"dewp":16.7,"wdir":220,"wspd":6,"visib":"10+","altim":1017.7,"slp":1017.4,"qcField":4,"metarType":"METAR","rawOb":"METAR KMCO 181653Z 22006KT 10SM FEW039 SCT049 SCT250 28/17 A3005 RMK AO2 SLP174 T02830167","lat":28.4182,"lon":-81.3241,"elev":27,"name":"Orlando Intl, FL, US","cover":"SCT","clouds":[{"cover":"FEW","base":3900},{"cover":"SCT","base":4900},{"cover":"SCT","base":25000}],"fltCat":"VFR"},{"icaoId":"KMFE","receiptTime":"2026-04-18T16:56:22.620Z","obsTime":1776531180,"reportTime":"2026-04-18T17:00:00.000Z","temp":29.4,"dewp":21.1,"wdir":150,"wspd":15,"visib":"10+","altim":1010.6,"slp":1010.1,"qcField":4,"metarType":"METAR","rawOb":"METAR KMFE 181653Z 15015KT 10SM BKN036 29/21 A2984 RMK AO2 SLP101 T02940211","lat":26.1791,"lon":-98.2445,"elev":29,"name":"McAllen/Miller Intl, TX, US","cover":"BKN","clouds":[{"cover":"BKN","base":3600}],"fltCat":"VFR"},{"icaoId":"KGEG","receiptTime":"2026-04-18T16:56:23.030Z","obsTime":1776531180,"reportTime":"2026-04-18T17:00:00.000Z","temp":7.2,"dewp":-1.1,"wdir":40,"wspd":7,"visib":"10+","altim":1021.4,"slp":1022.2,"qcField":12,"metarType":"METAR","rawOb":"METAR KGEG 181653Z 04007KT 10SM FEW200 SCT260 07/M01 A3016 RMK AO2 SLP222 T00721011 $","lat":47.6217,"lon":-117.528,"elev":718,"name":"Spokane Intl, WA, US","cover":"SCT","clouds":[{"cover":"FEW","base":20000},{"cover":"SCT","base":26000}],"fltCat":"VFR"},{"icaoId":"KPUW","receiptTime":"2026-04-18T16:56:23.324Z","obsTime":1776531180,"reportTime":"2026-04-18T17:00:00.000Z","temp":7.8,"dewp":0,"wdir":100,"wspd":16,"visib":"10+","altim":1021.4,"slp":1022.6,"qcField":6,"metarType":"METAR","rawOb":"METAR KPUW 181653Z AUTO 10016KT 10SM CLR 08/00 A3016 RMK AO2 SLP226 T00780000","lat":46.7438,"lon":-117.1158,"elev":774,"name":"Pullman/Moscow Rgnl, WA, US","cover":"CLR","clouds":[],"fltCat":"VFR"},{"icaoId":"KRDD","receiptTime":"2026-04-18T16:56:23.398Z","obsTime":1776531180,"reportTime":"2026-04-18T17:00:00.000Z","temp":16.1,"dewp":2.2,"wdir":10,"wspd":4,"visib":"10+","altim":1016.7,"slp":1016.3,"qcField":12,"metarType":"METAR","rawOb":"METAR KRDD 181653Z 01004KT 10SM CLR 16/02 A3002 RMK AO2 SLP163 T01610022 $","lat":40.5146,"lon":-122.2977,"elev":152,"name":"Redding Muni, CA, US","cover":"CLR","clouds":[],"fltCat":"VFR"},{"icaoId":"KRTN","receiptTime":"2026-04-18T16:56:23.502Z","obsTime":1776531180,"reportTime":"2026-04-18T17:00:00.000Z","temp":5.6,"dewp":-8.9,"visib":"10+","altim":1026.5,"slp":1026.2,"qcField":6,"metarType":"METAR","rawOb":"METAR KRTN 181653Z AUTO 10SM CLR 06/M09 A3031 RMK AO2 SLP262 T00561089","lat":36.7418,"lon":-104.5076,"elev":1939,"name":"Raton/Crews Fld, NM, US","cover":"CLR","clouds":[],"fltCat":"VFR"},{"icaoId":"KSBA","receiptTime":"2026-04-18T16:56:23.605Z","obsTime":1776531180,"reportTime":"2026-04-18T17:00:00.000Z","temp":18.9,"dewp":10,"wdir":150,"wspd":6,"visib":"10+","altim":1015,"slp":1014.8,"qcField":12,"metarType":"METAR","rawOb":"METAR KSBA 181653Z 15006KT 10SM CLR 19/10 A2997 RMK AO2 SLP148 T01890100 $","lat":34.4241,"lon":-119.8425,"elev":2,"name":"Santa Barbara Muni, CA, US","cover":"CLR","clouds":[],"fltCat":"VFR"},{"icaoId":"KSMF","receiptTime":"2026-04-18T16:56:23.747Z","obsTime":1776531180,"reportTime":"2026-04-18T17:00:00.000Z","temp":16.7,"dewp":6.1,"wdir":30,"wspd":6,"visib":"10+","altim":1016.7,"slp":1016.4,"qcField":12,"metarType":"METAR","rawOb":"METAR KSMF 181653Z 03006KT 10SM FEW200 17/06 A3002 RMK AO2 SLP164 T01670061 $","lat":38.7007,"lon":-121.5948,"elev":7,"name":"Sacramento Intl, CA, US","cover":"FEW","clouds":[{"cover":"FEW","base":20000}],"fltCat":"VFR"},{"icaoId":"KMLC","receiptTime":"2026-04-18T16:56:23.978Z","obsTime":1776531180,"reportTime":"2026-04-18T17:00:00.000Z","temp":13.3,"dewp":0,"wdir":20,"wspd":15,"wgst":24,"visib":"10+","altim":1022.4,"slp":1021.8,"qcField":6,"metarType":"METAR","rawOb":"METAR KMLC 181653Z AUTO 02015G24KT 10SM CLR 13/00 A3019 RMK AO2 PK WND 01026/1619 SLP218 T01330000","lat":34.8824,"lon":-95.7815,"elev":231,"name":"McAlester Rgnl, OK, US","cover":"CLR","clouds":[],"fltCat":"VFR"},{"icaoId":"KMLS","receiptTime":"2026-04-18T16:56:24.015Z","obsTime":1776531180,"reportTime":"2026-04-18T17:00:00.000Z","temp":7.2,"dewp":-6.1,"wdir":310,"wspd":10,"wgst":19,"visib":"10+","altim":1020.7,"slp":1022.4,"qcField":6,"metarType":"METAR","rawOb":"METAR KMLS 181653Z AUTO 31010G19KT 10SM BKN085 BKN110 07/M06 A3014 RMK AO2 SLP224 T00721061","lat":46.4265,"lon":-105.8834,"elev":800,"name":"Miles City/Wiley Fld, MT, US","cover":"BKN","clouds":[{"cover":"BKN","base":8500},{"cover":"BKN","base":11000}],"fltCat":"VFR"},{"icaoId":"KMOD","receiptTime":"2026-04-18T16:56:24.084Z","obsTime":1776531180,"reportTime":"2026-04-18T17:00:00.000Z","temp":18.3,"dewp":3.3,"wdir":0,"wspd":0,"visib":"10+","altim":1016,"slp":1015.9,"qcField":4,"metarType":"METAR","rawOb":"METAR KMOD 181653Z 00000KT 10SM CLR 18/03 A3000 RMK AO2 SLP159 T01830033","lat":37.6254,"lon":-120.9549,"elev":25,"name":"Modesto/Sham Fld, CA, US","cover":"CLR","clouds":[],"fltCat":"VFR"},{"icaoId":"KMSP","receiptTime":"2026-04-18T16:56:24.146Z","obsTime":1776531180,"reportTime":"2026-04-18T17:00:00.000Z","temp":3.3,"dewp":-8.9,"wdir":290,"wspd":14,"wgst":26,"visib":"10+","altim":1014.6,"slp":1015.3,"qcField":4,"metarType":"METAR","rawOb":"METAR KMSP 181653Z 29014G26KT 10SM BKN042 BKN050 03/M09 A2996 RMK AO2 PK WND 31029/1637 SLP153 T00331089","lat":44.8852,"lon":-93.2313,"elev":255,"name":"Minneapolis-St Paul Intl, MN, US","cover":"BKN","clouds":[{"cover":"BKN","base":4200},{"cover":"BKN","base":5000}],"fltCat":"VFR"},{"icaoId":"KMSY","receiptTime":"2026-04-18T16:56:24.174Z","obsTime":1776531180,"reportTime":"2026-04-18T17:00:00.000Z","temp":26.1,"dewp":18.9,"wdir":240,"wspd":4,"visib":"10+","altim":1016.7,"slp":1017,"qcField":4,"metarType":"METAR","rawOb":"METAR KMSY 181653Z 24004KT 10SM SCT029 BKN055 BKN250 26/19 A3002 RMK AO2 SLP170 T02610189","lat":29.9974,"lon":-90.2777,"elev":0,"name":"New Orleans/Armstrong Intl, LA, US","cover":"BKN","clouds":[{"cover":"SCT","base":2900},{"cover":"BKN","base":5500},{"cover":"BKN","base":25000}],"fltCat":"VFR"},{"icaoId":"KMTJ","receiptTime":"2026-04-18T16:56:24.200Z","obsTime":1776531180,"reportTime":"2026-04-18T17:00:00.000Z","temp":5,"dewp":-11.7,"wdir":0,"wspd":0,"visib":"10+","altim":1028.2,"slp":1027.4,"qcField":6,"metarType":"METAR","rawOb":"METAR KMTJ 181653Z AUTO 00000KT 10SM CLR 05/M12 A3036 RMK AO2 SLP274 T00501117","lat":38.5054,"lon":-107.8981,"elev":1755,"name":"Montrose Rgnl, CO, US","cover":"CLR","clouds":[],"fltCat":"VFR"},{"icaoId":"KMYF","receiptTime":"2026-04-18T16:56:24.249Z","obsTime":1776531180,"reportTime":"2026-04-18T17:00:00.000Z","temp":20.6,"dewp":10,"wdir":0,"wspd":0,"visib":"10+","altim":1015,"slp":1014.3,"qcField":4,"metarType":"METAR","rawOb":"METAR KMYF 181653Z 00000KT 10SM CLR 21/10 A2997 RMK AO2 SLP143 T02060100","lat":32.8145,"lon":-117.1375,"elev":128,"name":"San Diego/Montgomery Arpt, CA, US","cover":"CLR","clouds":[],"fltCat":"VFR"},{"icaoId":"KOAK","receiptTime":"2026-04-18T16:56:24.287Z","obsTime":1776531180,"reportTime":"2026-04-18T17:00:00.000Z","temp":15,"dewp":8.9,"wdir":220,"wspd":4,"visib":"10+","altim":1016.7,"slp":1016.5,"qcField":12,"metarType":"METAR","rawOb":"METAR KOAK 181653Z 22004KT 10SM BKN250 15/09 A3002 RMK AO2 SLP165 T01500089 $","lat":37.7178,"lon":-122.233,"elev":3,"name":"Oakland Intl, CA, US","cover":"BKN","clouds":[{"cover":"BKN","base":25000}],"fltCat":"VFR"},{"icaoId":"KOGD","receiptTime":"2026-04-18T16:56:24.327Z","obsTime":1776531180,"reportTime":"2026-04-18T17:00:00.000Z","temp":7.8,"dewp":-12.2,"wdir":"VRB","wspd":3,"visib":"10+","altim":1026.2,"slp":1025.6,"qcField":4,"metarType":"METAR","rawOb":"METAR KOGD 181653Z VRB03KT 10SM CLR 08/M12 A3030 RMK AO2 SLP256 T00781122","lat":41.1941,"lon":-112.0168,"elev":1356,"name":"Ogden/Hinckley Arpt, UT, US","cover":"CLR","clouds":[],"fltCat":"VFR"},{"icaoId":"KDRO","receiptTime":"2026-04-18T16:56:24.488Z","obsTime":1776531180,"reportTime":"2026-04-18T17:00:00.000Z","temp":5.6,"dewp":-13.9,"wdir":160,"wspd":3,"visib":"10+","altim":1026.2,"slp":1026.6,"qcField":6,"metarType":"METAR","rawOb":"METAR KDRO 181653Z AUTO 16003KT 10SM CLR 06/M14 A3030 RMK AO2 SLP266 T00561139","lat":37.1431,"lon":-107.7602,"elev":2021,"name":"Durango/La Plata Cnty, CO, US","cover":"CLR","clouds":[],"fltCat":"VFR"},{"icaoId":"KDVT","receiptTime":"2026-04-18T16:56:24.549Z","obsTime":1776531180,"reportTime":"2026-04-18T17:00:00.000Z","temp":26.1,"dewp":-12.2,"wdir":100,"wspd":13,"wgst":21,"visib":"10+","altim":1016,"slp":1014,"qcField":4,"metarType":"METAR","rawOb":"METAR KDVT 181653Z 10013G21KT 10SM CLR 26/M12 A3000 RMK AO2 SLP140 T02611122","lat":33.6902,"lon":-112.0662,"elev":454,"name":"Phoenix/Deer Valley Arpt, AZ, US","cover":"CLR","clouds":[],"fltCat":"VFR"},{"icaoId":"KEVW","receiptTime":"2026-04-18T16:56:24.711Z","obsTime":1776531180,"reportTime":"2026-04-18T17:00:00.000Z","temp":1.1,"dewp":-12.2,"visib":"10+","altim":1025.8,"slp":1027.2,"qcField":14,"metarType":"METAR","rawOb":"METAR KEVW 181653Z AUTO 10SM CLR 01/M12 A3029 RMK AO2 SLP272 T00111122 $","lat":41.2727,"lon":-111.0305,"elev":2178,"name":"Evanston/Uinta Cnty, WY, US","cover":"CLR","clouds":[],"fltCat":"VFR"},{"icaoId":"KASE","receiptTime":"2026-04-18T16:56:24.947Z","obsTime":1776531180,"reportTime":"2026-04-18T17:00:00.000Z","temp":0.6,"dewp":-18.3,"wdir":"VRB","wspd":3,"visib":"10+","altim":1026.8,"slp":1027,"qcField":4,"metarType":"METAR","rawOb":"METAR KASE 181653Z VRB03KT 10SM CLR 01/M18 A3032 RMK AO2 SLP270 T00061183","lat":39.2299,"lon":-106.8705,"elev":2384,"name":"Aspen/Pitkin Cnty, CO, US","cover":"CLR","clouds":[],"fltCat":"VFR"},{"icaoId":"KAUS","receiptTime":"2026-04-18T16:56:24.997Z","obsTime":1776531180,"reportTime":"2026-04-18T17:00:00.000Z","temp":17.8,"dewp":13.9,"wdir":10,"wspd":16,"visib":"10+","altim":1017.7,"slp":1016.8,"qcField":4,"precip":0.005,"metarType":"METAR","rawOb":"METAR KAUS 181653Z 01016KT 10SM OVC017 18/14 A3005 RMK AO2 PK WND 35027/1557 RAE26 SLP168 P0000 T01780139","lat":30.1831,"lon":-97.6806,"elev":148,"name":"Austin/Bergstrom Intl, TX, US","cover":"OVC","clouds":[{"cover":"OVC","base":1700}],"fltCat":"MVFR"},{"icaoId":"KBFI","receiptTime":"2026-04-18T16:56:25.138Z","obsTime":1776531180,"reportTime":"2026-04-18T17:00:00.000Z","temp":11.7,"dewp":5,"wdir":0,"wspd":0,"visib":"10+","altim":1017.7,"slp":1017.6,"qcField":4,"metarType":"METAR","rawOb":"METAR KBFI 181653Z 00000KT 10SM CLR 12/05 A3005 RMK AO2 SLP176 T01170050","lat":47.5455,"lon":-122.3148,"elev":7,"name":"Seattle/Boeing Fld, WA, US","cover":"CLR","clouds":[],"fltCat":"VFR"},{"icaoId":"KBHM","receiptTime":"2026-04-18T16:56:25.187Z","obsTime":1776531180,"reportTime":"2026-04-18T17:00:00.000Z","temp":27.2,"dewp":16.1,"wdir":230,"wspd":7,"visib":"10+","altim":1016.7,"slp":1015.6,"qcField":4,"metarType":"METAR","rawOb":"METAR KBHM 181653Z 23007KT 200V260 10SM SCT039 SCT050 BKN250 27/16 A3002 RMK AO2 SLP156 T02720161","lat":33.5655,"lon":-86.7449,"elev":191,"name":"Birmingham Intl, AL, US","cover":"BKN","clouds":[{"cover":"SCT","base":3900},{"cover":"SCT","base":5000},{"cover":"BKN","base":25000}],"fltCat":"VFR"},{"icaoId":"KBLI","receiptTime":"2026-04-18T16:56:25.251Z","obsTime":1776531180,"reportTime":"2026-04-18T17:00:00.000Z","temp":11.1,"dewp":3.9,"wdir":0,"wspd":0,"visib":"10+","altim":1018,"slp":1018.7,"qcField":4,"metarType":"METAR","rawOb":"METAR KBLI 181653Z 00000KT 10SM CLR 11/04 A3006 RMK AO2 SLP187 T01110039","lat":48.7991,"lon":-122.5407,"elev":46,"name":"Bellingham Intl, WA, US","cover":"CLR","clouds":[],"fltCat":"VFR"},{"icaoId":"KCNM","receiptTime":"2026-04-18T16:56:25.636Z","obsTime":1776531180,"reportTime":"2026-04-18T17:00:00.000Z","temp":12.8,"dewp":-6.1,"wdir":10,"wspd":12,"wgst":16,"visib":"10+","altim":1026.8,"slp":1022.9,"qcField":6,"metarType":"METAR","rawOb":"METAR KCNM 181653Z AUTO 01012G16KT 10SM CLR 13/M06 A3032 RMK AO2 SLP229 T01281061","lat":32.3336,"lon":-104.2584,"elev":993,"name":"Carlsbad/Cavern City Air Term, NM, US","cover":"CLR","clouds":[],"fltCat":"VFR"},{"icaoId":"KCPR","receiptTime":"2026-04-18T16:56:25.670Z","obsTime":1776531180,"reportTime":"2026-04-18T17:00:00.000Z","temp":3.9,"dewp":-7.8,"wdir":260,"wspd":16,"visib":"10+","altim":1022.8,"slp":1024.4,"qcField":4,"metarType":"METAR","rawOb":"METAR KCPR 181653Z 26016KT 10SM CLR 04/M08 A3020 RMK AO2 SLP244 T00391078","lat":42.8978,"lon":-106.4736,"elev":1623,"name":"Casper/Natrona Cnty, WY, US","cover":"CLR","clouds":[],"fltCat":"VFR"},{"icaoId":"KABQ","receiptTime":"2026-04-18T16:56:22.783Z","obsTime":1776531120,"reportTime":"2026-04-18T17:00:00.000Z","temp":10,"dewp":-16.1,"wdir":360,"wspd":7,"visib":"10+","altim":1025.8,"slp":1022.5,"qcField":12,"metarType":"METAR","rawOb":"METAR KABQ 181652Z 36007KT 10SM CLR 10/M16 A3029 RMK AO2 SLP225 T01001161 $","lat":35.0419,"lon":-106.6154,"elev":1620,"name":"Albuquerque Intl, NM, US","cover":"CLR","clouds":[],"fltCat":"VFR"},{"icaoId":"KMKE","receiptTime":"2026-04-18T16:56:21.439Z","obsTime":1776531120,"reportTime":"2026-04-18T17:00:00.000Z","temp":7.2,"dewp":-2.2,"wdir":260,"wspd":16,"wgst":23,"visib":"10+","altim":1010.2,"slp":1010.4,"qcField":4,"metarType":"METAR","rawOb":"METAR KMKE 181652Z 26016G23KT 10SM BKN034 07/M02 A2983 RMK AO2 SLP104 T00721022","lat":42.9549,"lon":-87.9045,"elev":203,"name":"Milwaukee/Mitchell Intl, WI, US","cover":"BKN","clouds":[{"cover":"BKN","base":3400}],"fltCat":"VFR"},{"icaoId":"KHRL","receiptTime":"2026-04-18T16:56:21.225Z","obsTime":1776531120,"reportTime":"2026-04-18T17:00:00.000Z","temp":28.9,"dewp":21.7,"wdir":160,"wspd":17,"visib":"10+","altim":1010.2,"slp":1010.1,"qcField":4,"metarType":"METAR","rawOb":"METAR KHRL 181652Z 16017KT 10SM BKN035 BKN043 29/22 A2983 RMK AO2 SLP101 T02890217","lat":26.2303,"lon":-97.6556,"elev":9,"name":"Harlingen/Valley Intl, TX, US","cover":"BKN","clouds":[{"cover":"BKN","base":3500},{"cover":"BKN","base":4300}],"fltCat":"VFR"},{"icaoId":"KIAD","receiptTime":"2026-04-18T16:56:21.248Z","obsTime":1776531120,"reportTime":"2026-04-18T17:00:00.000Z","temp":26.7,"dewp":12.8,"wdir":150,"wspd":8,"wgst":18,"visib":"10+","altim":1013.6,"slp":1013.2,"qcField":4,"metarType":"METAR","rawOb":"METAR KIAD 181652Z 15008G18KT 10SM FEW050 FEW160 BKN250 27/13 A2993 RMK AO2 SLP132 T02670128","lat":38.9348,"lon":-77.4473,"elev":90,"name":"Washington/Dulles Intl, VA, US","cover":"BKN","clouds":[{"cover":"FEW","base":5000},{"cover":"FEW","base":16000},{"cover":"BKN","base":25000}],"fltCat":"VFR"},{"icaoId":"KOKC","receiptTime":"2026-04-18T16:56:26.183Z","obsTime":1776531120,"reportTime":"2026-04-18T17:00:00.000Z","temp":12.8,"dewp":-2.8,"wdir":20,"wspd":17,"wgst":29,"visib":"10+","altim":1024.1,"slp":1023.7,"qcField":12,"metarType":"METAR","rawOb":"METAR KOKC 181652Z 02017G29KT 10SM FEW100 FEW250 13/M03 A3024 RMK AO2 PK WND 04029/1645 SLP237 T01281028 $","lat":35.3843,"lon":-97.6003,"elev":391,"name":"Oklahoma City/Will Rogers Intl, OK, US","cover":"FEW","clouds":[{"cover":"FEW","base":10000},{"cover":"FEW","base":25000}],"fltCat":"VFR"},{"icaoId":"KATL","receiptTime":"2026-04-18T16:56:25.965Z","obsTime":1776531120,"reportTime":"2026-04-18T17:00:00.000Z","temp":27.2,"dewp":15,"wdir":270,"wspd":8,"wgst":17,"visib":"10+","altim":1016.3,"slp":1015.4,"qcField":4,"metarType":"METAR","rawOb":"METAR KATL 181652Z 27008G17KT 10SM FEW045 SCT200 BKN250 27/15 A3001 RMK AO2 SLP154 T02720150","lat":33.6297,"lon":-84.4422,"elev":309,"name":"Atlanta/Hartsfield-Jackson Intl, GA, US","cover":"BKN","clouds":[{"cover":"FEW","base":4500},{"cover":"SCT","base":20000},{"cover":"BKN","base":25000}],"fltCat":"VFR"},{"icaoId":"KDCA","receiptTime":"2026-04-18T16:56:26.133Z","obsTime":1776531120,"reportTime":"2026-04-18T17:00:00.000Z","temp":26.7,"dewp":15.6,"wdir":130,"wspd":8,"visib":"10+","altim":1013.6,"slp":1013.6,"qcField":4,"metarType":"METAR","rawOb":"METAR KDCA 181652Z 13008KT 10SM FEW060 SCT250 27/16 A2993 RMK AO2 SLP136 T02670156","lat":38.8472,"lon":-77.0345,"elev":4,"name":"Washington/Reagan-National Arpt, VA, US","cover":"SCT","clouds":[{"cover":"FEW","base":6000},{"cover":"SCT","base":25000}],"fltCat":"VFR"},{"icaoId":"KABI","receiptTime":"2026-04-18T16:56:22.767Z","obsTime":1776531120,"reportTime":"2026-04-18T17:00:00.000Z","temp":11.7,"dewp":1.1,"wdir":360,"wspd":20,"wgst":25,"visib":"10+","altim":1022.8,"slp":1021.1,"qcField":4,"metarType":"METAR","rawOb":"METAR KABI 181652Z 36020G25KT 10SM CLR 12/01 A3020 RMK AO2 PK WND 02028/1631 SLP211 T01170011","lat":32.4106,"lon":-99.6821,"elev":543,"name":"Abilene Rgnl, TX, US","cover":"CLR","clouds":[],"fltCat":"VFR"},{"icaoId":"KSPS","receiptTime":"2026-04-18T16:56:22.857Z","obsTime":1776531120,"reportTime":"2026-04-18T17:00:00.000Z","temp":14.4,"dewp":-0.6,"wdir":20,"wspd":15,"wgst":23,"visib":"10+","altim":1024.8,"slp":1023.9,"qcField":14,"metarType":"METAR","rawOb":"METAR KSPS 181652Z AUTO 02015G23KT 10SM CLR 14/M01 A3026 RMK AO2 PK WND 02029/1621 SLP239 T01441006 $","lat":33.9785,"lon":-98.493,"elev":310,"name":"Wichita Falls Rgnl, TX, US","cover":"CLR","clouds":[],"fltCat":"VFR"},{"icaoId":"KCLT","receiptTime":"2026-04-18T16:56:26.067Z","obsTime":1776531120,"reportTime":"2026-04-18T17:00:00.000Z","temp":30.6,"dewp":10,"wdir":210,"wspd":9,"visib":"10+","altim":1015.3,"slp":1015.5,"qcField":4,"metarType":"METAR","rawOb":"METAR KCLT 181652Z 21009KT 10SM FEW065 FEW150 FEW250 31/10 A2998 RMK AO2 SLP155 T03060100","lat":35.2225,"lon":-80.9543,"elev":223,"name":"Charlotte/Douglas Intl, NC, US","cover":"FEW","clouds":[{"cover":"FEW","base":6500},{"cover":"FEW","base":15000},{"cover":"FEW","base":25000}],"fltCat":"VFR"},{"icaoId":"KMLF","receiptTime":"2026-04-18T16:56:22.960Z","obsTime":1776531120,"reportTime":"2026-04-18T17:00:00.000Z","temp":7.2,"dewp":-16.7,"wdir":20,"wspd":6,"visib":"10+","altim":1024.8,"slp":1024.3,"qcField":6,"metarType":"METAR","rawOb":"METAR KMLF 181652Z AUTO 02006KT 10SM CLR 07/M17 A3026 RMK AO2 SLP243 T00721167","lat":38.4225,"lon":-113.0109,"elev":1537,"name":"Milford Muni, UT, US","cover":"CLR","clouds":[],"fltCat":"VFR"},{"icaoId":"KBDL","receiptTime":"2026-04-18T16:54:10.036Z","obsTime":1776531060,"reportTime":"2026-04-18T17:00:00.000Z","temp":14.4,"dewp":9.4,"wdir":60,"wspd":4,"visib":"10+","altim":1019,"slp":1019,"qcField":4,"metarType":"METAR","rawOb":"METAR KBDL 181651Z 06004KT 10SM OVC021 14/09 A3009 RMK AO2 SLP190 T01440094","lat":41.9374,"lon":-72.682,"elev":52,"name":"Hartford/Bradley Intl, CT, US","cover":"OVC","clouds":[{"cover":"OVC","base":2100}],"fltCat":"MVFR"},{"icaoId":"KELP","receiptTime":"2026-04-18T16:54:10.120Z","obsTime":1776531060,"reportTime":"2026-04-18T17:00:00.000Z","temp":17.2,"dewp":-5.6,"wdir":90,"wspd":12,"wgst":18,"visib":"10+","altim":1022.1,"slp":1016.5,"qcField":4,"metarType":"METAR","rawOb":"METAR KELP 181651Z 09012G18KT 10SM CLR 17/M06 A3018 RMK AO2 SLP165 T01721056","lat":31.8123,"lon":-106.3774,"elev":1205,"name":"El Paso Intl, TX, US","cover":"CLR","clouds":[],"fltCat":"VFR"},{"icaoId":"KORF","receiptTime":"2026-04-18T16:54:10.192Z","obsTime":1776531060,"reportTime":"2026-04-18T17:00:00.000Z","temp":26.7,"dewp":16.1,"wdir":50,"wspd":9,"visib":"10+","altim":1014.3,"slp":1014,"qcField":4,"metarType":"METAR","rawOb":"METAR KORF 181651Z 05009KT 10SM CLR 27/16 A2995 RMK AO2 SLP140 T02670161","lat":36.9037,"lon":-76.1927,"elev":5,"name":"Norfolk Intl, VA, US","cover":"CLR","clouds":[],"fltCat":"VFR"},{"icaoId":"KPHX","receiptTime":"2026-04-18T16:54:10.208Z","obsTime":1776531060,"reportTime":"2026-04-18T17:00:00.000Z","temp":26.1,"dewp":-11.1,"wdir":70,"wspd":12,"visib":"10+","altim":1015.7,"slp":1013.9,"qcField":4,"metarType":"METAR","rawOb":"METAR KPHX 181651Z 07012KT 10SM CLR 26/M11 A2999 RMK AO2 SLP139 T02611111","lat":33.4278,"lon":-112.0037,"elev":338,"name":"Phoenix/Sky Harbor Intl, AZ, US","cover":"CLR","clouds":[],"fltCat":"VFR"},{"icaoId":"KPVD","receiptTime":"2026-04-18T16:54:10.229Z","obsTime":1776531060,"reportTime":"2026-04-18T17:00:00.000Z","temp":12.2,"dewp":8.9,"wdir":40,"wspd":12,"visib":"10+","altim":1019.7,"slp":1019.7,"qcField":4,"metarType":"METAR","rawOb":"METAR KPVD 181651Z 04012KT 10SM OVC012 12/09 A3011 RMK AO2 SLP197 T01220089","lat":41.7225,"lon":-71.4325,"elev":15,"name":"Providence/Green Mem, RI, US","cover":"OVC","clouds":[{"cover":"OVC","base":1200}],"fltCat":"MVFR"},{"icaoId":"KROW","receiptTime":"2026-04-18T16:54:10.287Z","obsTime":1776531060,"reportTime":"2026-04-18T17:00:00.000Z","temp":10.6,"dewp":-7.2,"visib":"10+","altim":1027.2,"slp":1023.2,"qcField":12,"metarType":"METAR","rawOb":"METAR KROW 181651Z 10SM CLR 11/M07 A3033 RMK AO2 SLP232 T01061072 $","lat":33.3074,"lon":-104.5082,"elev":1105,"name":"Roswell/Ind Arpt, NM, US","cover":"CLR","clouds":[],"fltCat":"VFR"},{"icaoId":"KCLE","receiptTime":"2026-04-18T16:54:10.567Z","obsTime":1776531060,"reportTime":"2026-04-18T17:00:00.000Z","temp":20,"dewp":13.3,"wdir":270,"wspd":20,"wgst":37,"visib":"10+","altim":1006.2,"slp":1007.4,"qcField":12,"metarType":"METAR","rawOb":"METAR KCLE 181651Z 27020G37KT 10SM BKN035 BKN110 OVC220 20/13 A2971 RMK AO2 PK WND 25037/1648 SLP074 T02000133 $","lat":41.4057,"lon":-81.8519,"elev":237,"name":"Cleveland/Hopkins Intl, OH, US","cover":"OVC","clouds":[{"cover":"BKN","base":3500},{"cover":"BKN","base":11000},{"cover":"OVC","base":22000}],"fltCat":"VFR"},{"icaoId":"KCMH","receiptTime":"2026-04-18T16:54:10.599Z","obsTime":1776531060,"reportTime":"2026-04-18T17:00:00.000Z","temp":20.6,"dewp":15,"wdir":280,"wspd":11,"visib":"10+","altim":1008.5,"slp":1007.9,"qcField":4,"wxString":"-RA","precip":0.005,"metarType":"METAR","rawOb":"METAR KCMH 181651Z 28011KT 10SM -RA SCT027 OVC044 21/15 A2978 RMK AO2 WSHFT 1621 RAB04 SLP079 P0000 T02060150","lat":39.9907,"lon":-82.877,"elev":257,"name":"Columbus/Glenn Intl, OH, US","cover":"OVC","clouds":[{"cover":"SCT","base":2700},{"cover":"OVC","base":4400}],"fltCat":"VFR"},{"icaoId":"KIGM","receiptTime":"2026-04-18T16:54:10.783Z","obsTime":1776531060,"reportTime":"2026-04-18T17:00:00.000Z","temp":17.8,"dewp":-18.3,"wdir":20,"wspd":8,"visib":"10+","altim":1019.7,"slp":1015.1,"qcField":6,"metarType":"METAR","rawOb":"METAR KIGM 181651Z AUTO 02008KT 10SM CLR 18/M18 A3011 RMK AO2 SLP151 T01781183","lat":35.2575,"lon":-113.9341,"elev":1045,"name":"Kingman Arpt, AZ, US","cover":"CLR","clouds":[],"fltCat":"VFR"},{"icaoId":"KSTL","receiptTime":"2026-04-18T16:54:09.918Z","obsTime":1776531060,"reportTime":"2026-04-18T17:00:00.000Z","temp":11.1,"dewp":2.8,"wdir":320,"wspd":12,"wgst":22,"visib":"10+","altim":1018.4,"slp":1017.9,"qcField":12,"metarType":"METAR","rawOb":"METAR KSTL 181651Z 32012G22KT 10SM SCT031 BKN150 11/03 A3007 RMK AO2 SLP179 T01110028 $","lat":38.7525,"lon":-90.3734,"elev":163,"name":"St Louis/Lambert Intl, MO, US","cover":"BKN","clouds":[{"cover":"SCT","base":3100},{"cover":"BKN","base":15000}],"fltCat":"VFR"},{"icaoId":"KEWR","receiptTime":"2026-04-18T16:54:10.721Z","obsTime":1776531060,"reportTime":"2026-04-18T17:00:00.000Z","temp":15,"dewp":10,"wdir":150,"wspd":12,"visib":"10+","altim":1018.4,"slp":1018.1,"qcField":4,"metarType":"METAR","rawOb":"METAR KEWR 181651Z 15012KT 10SM FEW015 FEW025 BKN250 15/10 A3007 RMK AO2 SLP181 T01500100","lat":40.6828,"lon":-74.1692,"elev":2,"name":"Newark Intl, NJ, US","cover":"BKN","clouds":[{"cover":"FEW","base":1500},{"cover":"FEW","base":2500},{"cover":"BKN","base":25000}],"fltCat":"VFR"},{"icaoId":"KSAD","receiptTime":"2026-04-18T16:54:10.301Z","obsTime":1776531060,"reportTime":"2026-04-18T17:00:00.000Z","temp":20.6,"dewp":-7.8,"wdir":"VRB","wspd":3,"visib":"10+","altim":1018.7,"slp":1014.7,"qcField":6,"metarType":"METAR","rawOb":"METAR KSAD 181651Z AUTO VRB03KT 10SM CLR 21/M08 A3008 RMK AO2 SLP147 T02061078","lat":32.8565,"lon":-109.636,"elev":937,"name":"Safford Rgnl, AZ, US","cover":"CLR","clouds":[],"fltCat":"VFR"},{"icaoId":"KSAN","receiptTime":"2026-04-18T16:54:09.815Z","obsTime":1776531060,"reportTime":"2026-04-18T17:00:00.000Z","temp":20,"dewp":11.7,"wdir":0,"wspd":0,"visib":"10+","altim":1015.3,"slp":1015.1,"qcField":12,"metarType":"METAR","rawOb":"METAR KSAN 181651Z 00000KT 10SM CLR 20/12 A2998 RMK AO2 SLP151 T02000117 $","lat":32.7364,"lon":-117.1973,"elev":3,"name":"San Diego Intl Arpt, CA, US","cover":"CLR","clouds":[],"fltCat":"VFR"},{"icaoId":"KLGA","receiptTime":"2026-04-18T16:54:09.674Z","obsTime":1776531060,"reportTime":"2026-04-18T17:00:00.000Z","temp":15,"dewp":10,"wdir":40,"wspd":11,"visib":"10+","altim":1018.4,"slp":1018.3,"qcField":12,"metarType":"METAR","rawOb":"METAR KLGA 181651Z 04011KT 10SM SCT027 SCT250 15/10 A3007 RMK AO2 SLP183 T01500100 $","lat":40.7794,"lon":-73.8803,"elev":9,"name":"New York/La Guardia Arpt, NY, US","cover":"SCT","clouds":[{"cover":"SCT","base":2700},{"cover":"SCT","base":25000}],"fltCat":"VFR"},{"icaoId":"KLGU","receiptTime":"2026-04-18T16:54:09.696Z","obsTime":1776531060,"reportTime":"2026-04-18T17:00:00.000Z","temp":4.4,"dewp":-5,"wdir":0,"wspd":0,"visib":"10+","altim":1026.5,"slp":1027,"qcField":6,"metarType":"METAR","rawOb":"METAR KLGU 181651Z AUTO 00000KT 10SM CLR 04/M05 A3031 RMK AO2 SLP270 T00441050","lat":41.7865,"lon":-111.8519,"elev":1359,"name":"Logan/Cache Arpt, UT, US","cover":"CLR","clouds":[],"fltCat":"VFR"},{"icaoId":"KMYL","receiptTime":"2026-04-18T16:54:09.748Z","obsTime":1776531060,"reportTime":"2026-04-18T17:00:00.000Z","temp":1.7,"dewp":-5,"wdir":0,"wspd":0,"visib":"10+","altim":1023.5,"slp":1025.9,"qcField":6,"metarType":"METAR","rawOb":"METAR KMYL 181651Z AUTO 00000KT 10SM CLR 02/M05 A3022 RMK AO2 SLP259 T00171050","lat":44.8943,"lon":-116.0998,"elev":1532,"name":"McCall Muni, ID, US","cover":"CLR","clouds":[],"fltCat":"VFR"},{"icaoId":"KOXR","receiptTime":"2026-04-18T16:54:09.767Z","obsTime":1776531060,"reportTime":"2026-04-18T17:00:00.000Z","temp":20.6,"dewp":-1.1,"wdir":"VRB","wspd":6,"visib":"10+","altim":1015,"slp":1014.8,"qcField":12,"metarType":"METAR","rawOb":"METAR KOXR 181651Z VRB06KT 10SM CLR 21/M01 A2997 RMK AO2 SLP148 T02061011 $","lat":34.2001,"lon":-119.2042,"elev":12,"name":"Oxnard Arpt, CA, US","cover":"CLR","clouds":[],"fltCat":"VFR"},{"icaoId":"KPIT","receiptTime":"2026-04-18T16:54:09.798Z","obsTime":1776531060,"reportTime":"2026-04-18T17:00:00.000Z","temp":26.1,"dewp":11.1,"wdir":200,"wspd":14,"wgst":26,"visib":"10+","altim":1008.9,"slp":1008.8,"qcField":4,"metarType":"METAR","rawOb":"METAR KPIT 181651Z 20014G26KT 10SM SCT050 SCT100 BKN200 OVC250 26/11 A2979 RMK AO2 PK WND 20026/1639 SLP088 T02610111","lat":40.4814,"lon":-80.2083,"elev":339,"name":"Pittsburgh Intl, PA, US","cover":"OVC","clouds":[{"cover":"SCT","base":5000},{"cover":"SCT","base":10000},{"cover":"BKN","base":20000},{"cover":"OVC","base":25000}],"fltCat":"VFR"},{"icaoId":"KSAT","receiptTime":"2026-04-18T16:54:09.846Z","obsTime":1776531060,"reportTime":"2026-04-18T17:00:00.000Z","temp":17.8,"dewp":13.9,"wdir":350,"wspd":16,"wgst":25,"visib":"10+","altim":1016.7,"slp":1015.1,"qcField":4,"precip":0.005,"metarType":"METAR","rawOb":"METAR KSAT 181651Z 35016G25KT 10SM BKN016 OVC025 18/14 A3002 RMK AO2 PK WND 35030/1614 RAE22 SLP151 P0000 T01780139","lat":29.5443,"lon":-98.4839,"elev":246,"name":"San Antonio Intl, TX, US","cover":"OVC","clouds":[{"cover":"BKN","base":1600},{"cover":"OVC","base":2500}],"fltCat":"MVFR"},{"icaoId":"KVNY","receiptTime":"2026-04-18T16:54:09.972Z","obsTime":1776531060,"reportTime":"2026-04-18T17:00:00.000Z","temp":21.1,"dewp":-5,"wdir":0,"wspd":0,"visib":"10+","altim":1015.3,"slp":1014.4,"qcField":12,"metarType":"METAR","rawOb":"METAR KVNY 181651Z 00000KT 10SM R16R/2800VP6000FT CLR 21/M05 A2998 RMK AO2 SLP144 T02111050 $","lat":34.2121,"lon":-118.4915,"elev":241,"name":"Van Nuys Arpt, CA, US","cover":"CLR","clouds":[],"fltCat":"VFR"},{"icaoId":"KRDU","receiptTime":"2026-04-18T16:54:10.269Z","obsTime":1776531060,"reportTime":"2026-04-18T17:00:00.000Z","temp":31.7,"dewp":8.9,"wdir":250,"wspd":6,"wgst":18,"visib":"10+","altim":1014.6,"slp":1014.1,"qcField":4,"metarType":"METAR","rawOb":"METAR KRDU 181651Z 25006G18KT 10SM FEW090 SCT250 32/09 A2996 RMK AO2 SLP141 T03170089","lat":35.8923,"lon":-78.782,"elev":121,"name":"Raleigh-Durham Intl, NC, US","cover":"SCT","clouds":[{"cover":"FEW","base":9000},{"cover":"SCT","base":25000}],"fltCat":"VFR"},{"icaoId":"KORD","receiptTime":"2026-04-18T16:54:10.169Z","obsTime":1776531060,"reportTime":"2026-04-18T17:00:00.000Z","temp":7.8,"dewp":-0.6,"wdir":280,"wspd":15,"wgst":22,"visib":"10+","altim":1011.6,"slp":1011.6,"qcField":12,"metarType":"METAR","rawOb":"METAR KORD 181651Z 28015G22KT 10SM SCT029 SCT250 08/M01 A2987 RMK AO2 SLP116 T00781006 $","lat":41.9602,"lon":-87.9316,"elev":202,"name":"Chicago/O'Hare Intl, IL, US","cover":"SCT","clouds":[{"cover":"SCT","base":2900},{"cover":"SCT","base":25000}],"fltCat":"VFR"},{"icaoId":"KACT","receiptTime":"2026-04-18T16:54:10.015Z","obsTime":1776531060,"reportTime":"2026-04-18T17:00:00.000Z","temp":13.9,"dewp":8.9,"wdir":360,"wspd":19,"wgst":31,"visib":"10+","altim":1020.1,"slp":1019.4,"qcField":4,"precip":0.005,"metarType":"METAR","rawOb":"METAR KACT 181651Z 36019G31KT 10SM BKN016 OVC085 14/09 A3012 RMK AO2 PK WND 36032/1626 RAE1553 SLP194 P0000 T01390089","lat":31.618,"lon":-97.2283,"elev":150,"name":"Waco Rgnl, TX, US","cover":"OVC","clouds":[{"cover":"BKN","base":1600},{"cover":"OVC","base":8500}],"fltCat":"MVFR"},{"icaoId":"KJFK","receiptTime":"2026-04-18T17:00:35.387Z","obsTime":1776531060,"reportTime":"2026-04-18T17:00:00.000Z","temp":15.6,"dewp":10.6,"wdir":140,"wspd":15,"visib":"10+","altim":1018.7,"slp":1018.5,"qcField":0,"metarType":"METAR","rawOb":"METAR KJFK 181651Z 14015KT 10SM SCT025 BKN250 16/11 A3008 RMK SLP185 T01560106","lat":40.6392,"lon":-73.7639,"elev":3,"name":"New York/JF Kennedy Intl, NY, US","cover":"BKN","clouds":[{"cover":"SCT","base":2500},{"cover":"BKN","base":25000}],"fltCat":"VFR"},{"icaoId":"KADM","receiptTime":"2026-04-18T16:59:48.445Z","obsTime":1776531000,"reportTime":"2026-04-18T17:00:00.000Z","temp":15,"dewp":-1,"wdir":20,"wspd":18,"wgst":24,"visib":"10+","altim":1023.1,"qcField":0,"metarType":"METAR","rawOb":"METAR KADM 181650Z 02018G24KT 10SM CLR 15/M01 A3021","lat":34.3007,"lon":-97.0089,"elev":223,"name":"Ardmore Muni, OK, US","cover":"CLR","clouds":[],"fltCat":"VFR"},{"icaoId":"KHOB","receiptTime":"2026-04-18T16:51:54.061Z","obsTime":1776531000,"reportTime":"2026-04-18T17:00:00.000Z","temp":13,"dewp":-9,"wdir":20,"wspd":10,"wgst":20,"visib":"10+","altim":1026.2,"qcField":0,"metarType":"METAR","rawOb":"METAR KHOB 181650Z 02010G20KT 10SM CLR 13/M09 A3030","lat":32.6797,"lon":-103.2222,"elev":1112,"name":"Hobbs Arpt, NM, US","cover":"CLR","clouds":[],"fltCat":"VFR"},{"icaoId":"KAEG","receiptTime":"2026-04-18T16:54:15.777Z","obsTime":1776531000,"reportTime":"2026-04-18T17:00:00.000Z","temp":9,"dewp":-20,"wdir":30,"wspd":8,"wgst":16,"visib":"10+","altim":1026.2,"qcField":0,"metarType":"METAR","rawOb":"METAR KAEG 181650Z 03008G16KT 10SM CLR 09/M20 A3030","lat":35.15,"lon":-106.7929,"elev":1771,"name":"Albuquerque/Double Eagle Arpt, NM, US","cover":"CLR","clouds":[],"fltCat":"VFR"},{"icaoId":"KIWA","receiptTime":"2026-04-18T16:50:15.098Z","obsTime":1776530880,"reportTime":"2026-04-18T17:00:00.000Z","temp":25,"dewp":-9,"wdir":0,"wspd":0,"visib":"10+","altim":1016.3,"qcField":0,"metarType":"METAR","rawOb":"METAR KIWA 181648Z 00000KT 10SM CLR 25/M09 A3001","lat":33.3008,"lon":-111.6437,"elev":420,"name":"Phoenix/Mesa Gateway Arpt, AZ, US","cover":"CLR","clouds":[],"fltCat":"VFR"},{"icaoId":"KCHD","receiptTime":"2026-04-18T16:47:54.129Z","obsTime":1776530820,"reportTime":"2026-04-18T17:00:00.000Z","temp":25,"dewp":-10,"wdir":60,"wspd":4,"visib":"10+","altim":1016,"qcField":0,"metarType":"METAR","rawOb":"METAR KCHD 181647Z 06004KT 10SM CLR 25/M10 A3000","lat":33.2669,"lon":-111.8086,"elev":378,"name":"Chandler Muni, AZ, US","cover":"CLR","clouds":[],"fltCat":"VFR"},{"icaoId":"KGYR","receiptTime":"2026-04-18T16:47:54.150Z","obsTime":1776530820,"reportTime":"2026-04-18T17:00:00.000Z","temp":25,"dewp":-8,"wdir":60,"wspd":6,"visib":"10+","altim":1016,"qcField":0,"metarType":"METAR","rawOb":"METAR KGYR 181647Z 06006KT 10SM SKC 25/M08 A3000","lat":33.428,"lon":-112.368,"elev":292,"name":"Phoenix/Goodyear Muni, AZ, US","cover":"SKC","clouds":[],"fltCat":"VFR"},{"icaoId":"KGEU","receiptTime":"2026-04-18T16:48:33.292Z","obsTime":1776530820,"reportTime":"2026-04-18T17:00:00.000Z","temp":25,"dewp":-11,"wdir":50,"wspd":9,"visib":"10+","altim":1015.3,"qcField":0,"metarType":"METAR","rawOb":"METAR KGEU 181647Z 05009KT 10SM CLR 25/M11 A2998","lat":33.528,"lon":-112.293,"elev":319,"name":"Glendale Muni, AZ, US","cover":"CLR","clouds":[],"fltCat":"VFR"},{"icaoId":"KSUN","receiptTime":"2026-04-18T16:50:16.497Z","obsTime":1776530820,"reportTime":"2026-04-18T17:00:00.000Z","temp":3,"dewp":-12,"wdir":0,"wspd":0,"visib":"10+","altim":1025.8,"qcField":0,"metarType":"METAR","rawOb":"METAR KSUN 181647Z 00000KT 10SM CLR 03/M12 A3029","lat":43.4969,"lon":-114.2923,"elev":1619,"name":"Hailey/Friedman Mem, ID, US","cover":"CLR","clouds":[],"fltCat":"VFR"},{"icaoId":"KRYN","receiptTime":"2026-04-18T16:46:52.960Z","obsTime":1776530700,"reportTime":"2026-04-18T17:00:00.000Z","temp":25,"dewp":-6,"wdir":70,"wspd":3,"visib":"10+","altim":1016,"qcField":0,"metarType":"METAR","rawOb":"METAR KRYN 181645Z 07003KT 10SM CLR 25/M06 A3000","lat":32.1418,"lon":-111.1767,"elev":731,"name":"Tucson/Ryan Fld, AZ, US","cover":"CLR","clouds":[],"fltCat":"VFR"}]