[{"icaoId":"KFLG","receiptTime":"2026-04-12T04:00:24.718Z","obsTime":1775966220,"reportTime":"2026-04-12T04:00:00.000Z","temp":9.4,"dewp":-5,"wdir":220,"wspd":10,"wgst":18,"visib":"10+","altim":1017.7,"slp":1011.2,"qcField":12,"metarType":"METAR","rawOb":"METAR KFLG 120357Z 22010G18KT 10SM CLR 09/M05 A3005 RMK AO2 SLP112 T00941050 $","lat":35.1443,"lon":-111.6664,"elev":2134,"name":"Flagstaff/Pulliam Arpt, AZ, US","cover":"CLR","clouds":[],"fltCat":"VFR"},{"icaoId":"KNYL","receiptTime":"2026-04-12T04:01:13.598Z","obsTime":1775966220,"reportTime":"2026-04-12T04:00:00.000Z","temp":25,"dewp":5,"wdir":300,"wspd":7,"visib":"10+","altim":1009.9,"slp":1009.5,"qcField":4,"metarType":"METAR","rawOb":"METAR KNYL 120357Z 30007KT 10SM CLR 25/05 A2982 RMK AO2 SLP095 T02500050","lat":32.66,"lon":-114.6078,"elev":58,"name":"Yuma , AZ, US","cover":"CLR","clouds":[],"fltCat":"VFR"},{"icaoId":"KNFL","receiptTime":"2026-04-12T04:01:13.535Z","obsTime":1775966220,"reportTime":"2026-04-12T04:00:00.000Z","temp":12.8,"dewp":-2.2,"wdir":320,"wspd":6,"visib":"10+","altim":1004.8,"slp":1003.1,"qcField":14,"metarType":"METAR","rawOb":"METAR KNFL 120357Z AUTO 32006KT 10SM CLR 13/M02 A2967 RMK AO2 SLP031 T01281022 PNO $","lat":39.417,"lon":-118.705,"elev":1199,"name":"Fallon , NV, US","cover":"CLR","clouds":[],"fltCat":"VFR"},{"icaoId":"KJAX","receiptTime":"2026-04-12T04:00:11.902Z","obsTime":1775966160,"reportTime":"2026-04-12T04:00:00.000Z","temp":14.4,"dewp":12.2,"wdir":0,"wspd":0,"visib":"10+","altim":1025.5,"slp":1025.4,"qcField":12,"metarType":"METAR","rawOb":"METAR KJAX 120356Z 00000KT 10SM CLR 14/12 A3028 RMK AO2 SLP254 T01440122 $","lat":30.4953,"lon":-81.6937,"elev":8,"name":"Jacksonville Intl, FL, US","cover":"CLR","clouds":[],"fltCat":"VFR"},{"icaoId":"KVIS","receiptTime":"2026-04-12T03:58:20.488Z","obsTime":1775966160,"reportTime":"2026-04-12T04:00:00.000Z","temp":17.8,"dewp":9.4,"wdir":220,"wspd":8,"visib":"10+","altim":1010.6,"slp":1010.3,"qcField":14,"metarType":"METAR","rawOb":"METAR KVIS 120356Z AUTO 22008KT 10SM CLR 18/09 A2984 RMK AO2 SLP103 T01780094 $","lat":36.3135,"lon":-119.3884,"elev":92,"name":"Visalia Muni, CA, US","cover":"CLR","clouds":[],"fltCat":"VFR"},{"icaoId":"KDUG","receiptTime":"2026-04-12T04:01:11.943Z","obsTime":1775966160,"reportTime":"2026-04-12T04:00:00.000Z","temp":18.9,"dewp":-0.6,"wdir":260,"wspd":6,"visib":"10+","altim":1017.7,"slp":1012,"qcField":38,"metarType":"METAR","rawOb":"METAR KDUG 120356Z AUTO 26006KT 10SM CLR 19/M01 A3005 RMK AO2 SLP120 T01891006 TSNO","lat":31.4725,"lon":-109.6022,"elev":1260,"name":"Douglas/Bisbee Intl, AZ, US","cover":"CLR","clouds":[],"fltCat":"VFR"},{"icaoId":"KSFO","receiptTime":"2026-04-12T04:00:12.262Z","obsTime":1775966160,"reportTime":"2026-04-12T04:00:00.000Z","temp":11.7,"dewp":8.9,"wdir":140,"wspd":11,"visib":"10+","altim":1008.2,"slp":1008,"qcField":12,"metarType":"METAR","rawOb":"METAR KSFO 120356Z 14011KT 10SM SCT018 BKN026 OVC041 12/09 A2977 RMK AO2 SLP080 T01170089 $","lat":37.6196,"lon":-122.3656,"elev":2,"name":"San Francisco Intl, CA, US","cover":"OVC","clouds":[{"cover":"SCT","base":1800},{"cover":"BKN","base":2600},{"cover":"OVC","base":4100}],"fltCat":"MVFR"},{"icaoId":"KCHS","receiptTime":"2026-04-12T04:00:11.858Z","obsTime":1775966160,"reportTime":"2026-04-12T04:00:00.000Z","temp":16.1,"dewp":12.8,"wdir":200,"wspd":4,"visib":"10+","altim":1025.5,"slp":1025.4,"qcField":4,"metarType":"METAR","rawOb":"METAR KCHS 120356Z 20004KT 10SM CLR 16/13 A3028 RMK AO2 SLP254 T01610128","lat":32.8995,"lon":-80.0407,"elev":12,"name":"Charleston Intl, SC, US","cover":"CLR","clouds":[],"fltCat":"VFR"},{"icaoId":"KLAS","receiptTime":"2026-04-12T04:00:17.960Z","obsTime":1775966160,"reportTime":"2026-04-12T04:00:00.000Z","temp":22.2,"dewp":-1.7,"wdir":200,"wspd":7,"visib":"10+","altim":1009.6,"slp":1007.6,"qcField":4,"metarType":"METAR","rawOb":"METAR KLAS 120356Z 20007KT 10SM FEW150 22/M02 A2981 RMK AO2 SLP076 T02221017","lat":36.0719,"lon":-115.1634,"elev":662,"name":"Las Vegas/Reid Intl, NV, US","cover":"FEW","clouds":[{"cover":"FEW","base":15000}],"fltCat":"VFR"},{"icaoId":"KTPH","receiptTime":"2026-04-12T04:00:18.116Z","obsTime":1775966160,"reportTime":"2026-04-12T04:00:00.000Z","temp":12.2,"dewp":-4.4,"wdir":170,"wspd":13,"visib":"10+","altim":1009.2,"slp":1005.3,"qcField":6,"metarType":"METAR","rawOb":"METAR KTPH 120356Z AUTO 17013KT 10SM CLR 12/M04 A2980 RMK AO2 SLP053 T01221044","lat":38.0505,"lon":-117.0906,"elev":1647,"name":"Tonopah Arpt, NV, US","cover":"CLR","clouds":[],"fltCat":"VFR"},{"icaoId":"KCEC","receiptTime":"2026-04-12T04:00:13.515Z","obsTime":1775966160,"reportTime":"2026-04-12T04:00:00.000Z","temp":9.4,"dewp":8.3,"wdir":80,"wspd":5,"visib":"10+","altim":1004.5,"slp":1004.5,"qcField":6,"metarType":"METAR","rawOb":"METAR KCEC 120356Z AUTO 08005KT 10SM BKN050 OVC060 09/08 A2966 RMK AO2 SLP045 T00940083","lat":41.7836,"lon":-124.238,"elev":17,"name":"Crescent City/McNama, CA, US","cover":"OVC","clouds":[{"cover":"BKN","base":5000},{"cover":"OVC","base":6000}],"fltCat":"VFR"},{"icaoId":"KHND","receiptTime":"2026-04-12T03:58:20.142Z","obsTime":1775966160,"reportTime":"2026-04-12T04:00:00.000Z","temp":21.1,"dewp":-1.1,"wdir":220,"wspd":6,"visib":"10+","altim":1010.6,"slp":1010.4,"qcField":14,"metarType":"METAR","rawOb":"METAR KHND 120356Z AUTO 22006KT 10SM CLR 21/M01 A2984 RMK AO2 SLP104 T02111011 $","lat":35.9657,"lon":-115.1343,"elev":740,"name":"Henderson Exec, NV, US","cover":"CLR","clouds":[],"fltCat":"VFR"},{"icaoId":"KSBP","receiptTime":"2026-04-12T04:00:18.048Z","obsTime":1775966160,"reportTime":"2026-04-12T04:00:00.000Z","temp":15.6,"dewp":10.6,"wdir":170,"wspd":14,"wgst":20,"visib":"10+","altim":1011.9,"slp":1011.8,"qcField":6,"metarType":"METAR","rawOb":"METAR KSBP 120356Z AUTO 17014G20KT 10SM OVC060 16/11 A2988 RMK AO2 SLP118 T01560106","lat":35.2381,"lon":-120.644,"elev":52,"name":"San Luis Obispo/San Luis Cnty, CA, US","cover":"OVC","clouds":[{"cover":"OVC","base":6000}],"fltCat":"VFR"},{"icaoId":"KSDF","receiptTime":"2026-04-12T04:00:18.064Z","obsTime":1775966160,"reportTime":"2026-04-12T04:00:00.000Z","temp":16.7,"dewp":11.7,"wdir":100,"wspd":3,"visib":"10+","altim":1024.5,"slp":1024.2,"qcField":4,"metarType":"METAR","rawOb":"METAR KSDF 120356Z 10003KT 10SM BKN300 17/12 A3025 RMK AO2 SLP242 T01670117","lat":38.1774,"lon":-85.7308,"elev":146,"name":"Louisville Intl, KY, US","cover":"BKN","clouds":[{"cover":"BKN","base":30000}],"fltCat":"VFR"},{"icaoId":"KENV","receiptTime":"2026-04-12T03:58:21.186Z","obsTime":1775966160,"reportTime":"2026-04-12T04:00:00.000Z","temp":12.2,"dewp":-1.1,"wdir":60,"wspd":6,"visib":"10+","altim":1008.9,"slp":1007.4,"qcField":6,"metarType":"METAR","rawOb":"METAR KENV 120356Z AUTO 06006KT 10SM CLR 12/M01 A2979 RMK AO2 SLP074 T01221011","lat":40.7211,"lon":-114.0312,"elev":1291,"name":"Wendover Arpt, UT, US","cover":"CLR","clouds":[],"fltCat":"VFR"},{"icaoId":"KINW","receiptTime":"2026-04-12T04:00:12.178Z","obsTime":1775966160,"reportTime":"2026-04-12T04:00:00.000Z","temp":12.2,"dewp":-2.2,"wdir":210,"wspd":6,"visib":"10+","altim":1015.7,"slp":1011.2,"qcField":6,"metarType":"METAR","rawOb":"METAR KINW 120356Z AUTO 21006KT 10SM CLR 12/M02 A2999 RMK AO2 SLP112 T01221022","lat":35.0279,"lon":-110.7221,"elev":1492,"name":"Winslow/Lindberg Rgnl, AZ, US","cover":"CLR","clouds":[],"fltCat":"VFR"},{"icaoId":"KUKI","receiptTime":"2026-04-12T04:00:18.133Z","obsTime":1775966160,"reportTime":"2026-04-12T04:00:00.000Z","temp":7.8,"dewp":6.7,"wdir":150,"wspd":5,"visib":"10+","altim":1005.5,"slp":1005.1,"qcField":6,"precip":0.06,"metarType":"METAR","rawOb":"METAR KUKI 120356Z AUTO 15005KT 10SM FEW025 BKN033 OVC050 08/07 A2969 RMK AO2 RAB02E56 SLP051 P0006 T00780067","lat":39.1278,"lon":-123.2001,"elev":183,"name":"Ukiah Muni, CA, US","cover":"OVC","clouds":[{"cover":"FEW","base":2500},{"cover":"BKN","base":3300},{"cover":"OVC","base":5000}],"fltCat":"VFR"},{"icaoId":"KEKO","receiptTime":"2026-04-12T04:00:17.758Z","obsTime":1775966160,"reportTime":"2026-04-12T04:00:00.000Z","temp":8.9,"dewp":0.6,"wdir":120,"wspd":3,"visib":"10+","altim":1007.5,"slp":1006.1,"qcField":6,"metarType":"METAR","rawOb":"METAR KEKO 120356Z AUTO 12003KT 10SM CLR 09/01 A2975 RMK AO2 SLP061 T00890006","lat":40.824,"lon":-115.7863,"elev":1541,"name":"Elko Rgnl, NV, US","cover":"CLR","clouds":[],"fltCat":"VFR"},{"icaoId":"KCGZ","receiptTime":"2026-04-12T03:58:19.643Z","obsTime":1775966160,"reportTime":"2026-04-12T04:00:00.000Z","temp":26.1,"dewp":1.1,"wdir":210,"wspd":9,"visib":"10+","altim":1011.9,"slp":1010.4,"qcField":14,"metarType":"METAR","rawOb":"METAR KCGZ 120356Z AUTO 21009KT 10SM CLR 26/01 A2988 RMK AO2 SLP104 T02610011 $","lat":32.9531,"lon":-111.7725,"elev":444,"name":"Casa Granda Muni, AZ, US","cover":"CLR","clouds":[],"fltCat":"VFR"},{"icaoId":"KHTH","receiptTime":"2026-04-12T04:00:11.611Z","obsTime":1775966100,"reportTime":"2026-04-12T04:00:00.000Z","temp":13,"dewp":-5,"wdir":210,"wspd":22,"wgst":28,"visib":"10+","altim":1006.2,"qcField":6,"metarType":"METAR","rawOb":"METAR KHTH 120355Z AUTO 21022G28KT 10SM CLR 13/M05 A2971 RMK A01","lat":38.5448,"lon":-118.6314,"elev":1281,"name":"Hawthorne Muni, NV, US","cover":"CLR","clouds":[],"fltCat":"VFR"},{"icaoId":"KRTS","receiptTime":"2026-04-12T04:00:09.199Z","obsTime":1775966100,"reportTime":"2026-04-12T04:00:00.000Z","temp":8,"dewp":-2,"wdir":170,"wspd":14,"wgst":20,"visib":"10+","altim":1005.8,"qcField":6,"metarType":"METAR","rawOb":"METAR KRTS 120355Z AUTO 17014G20KT 10SM CLR 08/M02 A2970 RMK AO2","lat":39.6658,"lon":-119.8731,"elev":1537,"name":"Reno/Stead Arpt, NV, US","cover":"CLR","clouds":[],"fltCat":"VFR"},{"icaoId":"KIFP","receiptTime":"2026-04-12T04:00:15.652Z","obsTime":1775966100,"reportTime":"2026-04-12T04:00:00.000Z","temp":25,"dewp":-4,"wdir":140,"wspd":13,"visib":"10+","altim":1007.5,"qcField":6,"metarType":"METAR","rawOb":"METAR KIFP 120355Z AUTO 14013KT 10SM CLR 25/M04 A2975 RMK AO2","lat":35.1487,"lon":-114.5611,"elev":210,"name":"Bullhead City Intl, AZ, US","cover":"CLR","clouds":[],"fltCat":"VFR"},{"icaoId":"KRNO","receiptTime":"2026-04-12T03:58:19.994Z","obsTime":1775966100,"reportTime":"2026-04-12T04:00:00.000Z","temp":9.4,"dewp":-1.1,"wdir":150,"wspd":11,"visib":"10+","altim":1005.8,"slp":1003.5,"qcField":4,"metarType":"METAR","rawOb":"METAR KRNO 120355Z 15011KT 10SM FEW050 SCT080 BKN130 09/M01 A2970 RMK AO2 SLP035 T00941011","lat":39.5077,"lon":-119.7683,"elev":1344,"name":"Reno/Tahoe Intl, NV, US","cover":"BKN","clouds":[{"cover":"FEW","base":5000},{"cover":"SCT","base":8000},{"cover":"BKN","base":13000}],"fltCat":"VFR"},{"icaoId":"KCMA","receiptTime":"2026-04-12T03:58:19.669Z","obsTime":1775966100,"reportTime":"2026-04-12T04:00:00.000Z","temp":16.1,"dewp":12.2,"wdir":210,"wspd":6,"visib":"10+","altim":1014.3,"slp":1015.1,"qcField":6,"metarType":"METAR","rawOb":"METAR KCMA 120355Z AUTO 21006KT 10SM BKN047 16/12 A2995 RMK AO2 SLP151 T01610122","lat":34.2114,"lon":-119.0876,"elev":20,"name":"Camarillo Arpt, CA, US","cover":"BKN","clouds":[{"cover":"BKN","base":4700}],"fltCat":"VFR"},{"icaoId":"KSOW","receiptTime":"2026-04-12T03:58:08.826Z","obsTime":1775966100,"reportTime":"2026-04-12T04:00:00.000Z","temp":11,"dewp":-3,"wdir":170,"wspd":8,"visib":"10+","altim":1019,"qcField":6,"metarType":"METAR","rawOb":"METAR KSOW 120355Z AUTO 17008KT 10SM CLR 11/M03 A3009 RMK AO2","lat":34.2686,"lon":-110.0019,"elev":1954,"name":"Show Low Muni, AZ, US","cover":"CLR","clouds":[],"fltCat":"VFR"},{"icaoId":"KCXP","receiptTime":"2026-04-12T04:00:16.915Z","obsTime":1775966100,"reportTime":"2026-04-12T04:00:00.000Z","temp":8,"dewp":0,"wdir":180,"wspd":10,"visib":"10+","altim":1006.9,"qcField":6,"metarType":"METAR","rawOb":"METAR KCXP 120355Z AUTO 18010KT 10SM FEW055 SCT065 08/M00 A2973 RMK AO2 LTG DSNT SW","lat":39.1905,"lon":-119.7319,"elev":1431,"name":"Carson City Arpt, NV, US","cover":"SCT","clouds":[{"cover":"FEW","base":5500},{"cover":"SCT","base":6500}],"fltCat":"VFR"},{"icaoId":"KMEV","receiptTime":"2026-04-12T04:00:12.961Z","obsTime":1775966100,"reportTime":"2026-04-12T04:00:00.000Z","temp":6,"dewp":1,"wdir":150,"wspd":9,"visib":"10+","altim":1006.2,"qcField":6,"metarType":"METAR","rawOb":"METAR KMEV 120355Z AUTO 15009KT 10SM FEW025 FEW038 BKN120 06/01 A2971 RMK AO2 LTG DSNT SW AND W","lat":38.9963,"lon":-119.75,"elev":1437,"name":"Minden-Tahoe Arpt, NV, US","cover":"BKN","clouds":[{"cover":"FEW","base":2500},{"cover":"FEW","base":3800},{"cover":"BKN","base":12000}],"fltCat":"VFR"},{"icaoId":"KMHR","receiptTime":"2026-04-12T04:00:03.053Z","obsTime":1775966100,"reportTime":"2026-04-12T04:00:00.000Z","temp":10,"dewp":10,"wdir":160,"wspd":9,"visib":5,"altim":1007.9,"qcField":6,"wxString":"-RA","precip":0.14,"metarType":"METAR","rawOb":"METAR KMHR 120355Z AUTO 16009KT 5SM -RA SCT035 BKN050 OVC055 10/10 A2976 RMK AO2 LTG DSNT NE-SE P0014","lat":38.56,"lon":-121.284,"elev":30,"name":"Sacramento/Mather Fld, CA, US","cover":"OVC","clouds":[{"cover":"SCT","base":3500},{"cover":"BKN","base":5000},{"cover":"OVC","base":5500}],"fltCat":"MVFR"},{"icaoId":"KSEZ","receiptTime":"2026-04-12T04:00:21.563Z","obsTime":1775966100,"reportTime":"2026-04-12T04:00:00.000Z","temp":16,"dewp":-5,"wdir":190,"wspd":8,"wgst":13,"visib":"10+","altim":1015.7,"qcField":6,"metarType":"METAR","rawOb":"METAR KSEZ 120355Z AUTO 19008G13KT 10SM CLR 16/M05 A2999 RMK AO2","lat":34.8467,"lon":-111.7884,"elev":1455,"name":"Sedona Arpt, AZ, US","cover":"CLR","clouds":[],"fltCat":"VFR"},{"icaoId":"KBVU","receiptTime":"2026-04-12T03:56:31.594Z","obsTime":1775966100,"reportTime":"2026-04-12T04:00:00.000Z","temp":21,"dewp":-4,"wdir":220,"wspd":6,"visib":"10+","altim":1009.2,"qcField":6,"metarType":"METAR","rawOb":"METAR KBVU 120355Z AUTO 22006KT 10SM CLR 21/M04 A2980 RMK AO2","lat":35.9489,"lon":-114.8633,"elev":654,"name":"Boulder City Muni, NV, US","cover":"CLR","clouds":[],"fltCat":"VFR"},{"icaoId":"KHAF","receiptTime":"2026-04-12T03:58:13.117Z","obsTime":1775966100,"reportTime":"2026-04-12T04:00:00.000Z","temp":12,"dewp":12,"wdir":170,"wspd":10,"visib":9,"altim":1008.2,"qcField":6,"metarType":"METAR","rawOb":"METAR KHAF 120355Z AUTO 17010KT 9SM SCT042 SCT050 OVC065 12/12 A2977 RMK AO2","lat":37.5136,"lon":-122.4996,"elev":11,"name":"Half Moon Bay Arpt, CA, US","cover":"OVC","clouds":[{"cover":"SCT","base":4200},{"cover":"SCT","base":5000},{"cover":"OVC","base":6500}],"fltCat":"VFR"},{"icaoId":"KHII","receiptTime":"2026-04-12T04:01:07.270Z","obsTime":1775966100,"reportTime":"2026-04-12T04:00:00.000Z","temp":26,"dewp":0,"wdir":160,"wspd":11,"visib":"10+","altim":1008.9,"qcField":6,"metarType":"METAR","rawOb":"METAR KHII 120355Z AUTO 16011KT 10SM CLR 26/00 A2979 RMK AO2","lat":34.5659,"lon":-114.3522,"elev":241,"name":"Lake Havasu City Arpt, AZ, US","cover":"CLR","clouds":[],"fltCat":"VFR"},{"icaoId":"KCHD","receiptTime":"2026-04-12T03:58:07.899Z","obsTime":1775966100,"reportTime":"2026-04-12T04:00:00.000Z","temp":25.6,"dewp":1.6,"wdir":230,"wspd":5,"visib":"10+","altim":1010.9,"qcField":14,"metarType":"METAR","rawOb":"METAR KCHD 120355Z AUTO 23005KT 10SM CLR 26/02 A2985 RMK AO2 T02560016 $","lat":33.2669,"lon":-111.8086,"elev":378,"name":"Chandler Muni, AZ, US","cover":"CLR","clouds":[],"fltCat":"VFR"},{"icaoId":"KOLS","receiptTime":"2026-04-12T03:58:16.154Z","obsTime":1775966040,"reportTime":"2026-04-12T04:00:00.000Z","temp":18.9,"dewp":0.6,"wdir":210,"wspd":6,"visib":"10+","altim":1017.4,"slp":1011.7,"qcField":6,"metarType":"METAR","rawOb":"METAR KOLS 120354Z AUTO 21006KT 10SM CLR 19/01 A3004 RMK AO2 SLP117 T01890006","lat":31.4208,"lon":-110.8465,"elev":1194,"name":"Nogales Intl, AZ, US","cover":"CLR","clouds":[],"fltCat":"VFR"},{"icaoId":"KBUF","receiptTime":"2026-04-12T03:58:17.808Z","obsTime":1775966040,"reportTime":"2026-04-12T04:00:00.000Z","temp":2.2,"dewp":-1.7,"wdir":180,"wspd":3,"visib":"10+","altim":1030.6,"slp":1031,"qcField":12,"metarType":"METAR","rawOb":"METAR KBUF 120354Z 18003KT 10SM CLR 02/M02 A3043 RMK AO2 SLP310 T00221017 $","lat":42.94,"lon":-78.7361,"elev":217,"name":"Buffalo-Niagara Intl, NY, US","cover":"CLR","clouds":[],"fltCat":"VFR"},{"icaoId":"KMEM","receiptTime":"2026-04-12T03:58:15.936Z","obsTime":1775966040,"reportTime":"2026-04-12T04:00:00.000Z","temp":19.4,"dewp":10.6,"wdir":170,"wspd":5,"visib":"10+","altim":1022.4,"slp":1022,"qcField":12,"metarType":"METAR","rawOb":"METAR KMEM 120354Z 17005KT 10SM BKN250 19/11 A3019 RMK AO2 SLP220 T01940106 $","lat":35.0564,"lon":-89.9864,"elev":78,"name":"Memphis Intl, TN, US","cover":"BKN","clouds":[{"cover":"BKN","base":25000}],"fltCat":"VFR"},{"icaoId":"KIND","receiptTime":"2026-04-12T03:58:12.058Z","obsTime":1775966040,"reportTime":"2026-04-12T04:00:00.000Z","temp":13.9,"dewp":4.4,"wdir":120,"wspd":9,"visib":"10+","altim":1024.1,"slp":1023.9,"qcField":4,"metarType":"METAR","rawOb":"METAR KIND 120354Z 12009KT 10SM SCT250 14/04 A3024 RMK AO2 SLP239 T01390044","lat":39.7252,"lon":-86.2816,"elev":242,"name":"Indianapolis Intl, IN, US","cover":"SCT","clouds":[{"cover":"SCT","base":25000}],"fltCat":"VFR"},{"icaoId":"KSJN","receiptTime":"2026-04-12T03:58:15.673Z","obsTime":1775966040,"reportTime":"2026-04-12T04:00:00.000Z","temp":13.3,"dewp":-3.9,"wdir":220,"wspd":8,"visib":"10+","altim":1017,"slp":1010.5,"qcField":6,"metarType":"METAR","rawOb":"METAR KSJN 120354Z AUTO 22008KT 10SM CLR 13/M04 A3003 RMK AO2 SLP105 T01331039","lat":34.5184,"lon":-109.3801,"elev":1747,"name":"St Johns Ind Arpt, AZ, US","cover":"CLR","clouds":[],"fltCat":"VFR"},{"icaoId":"KBFL","receiptTime":"2026-04-12T03:58:11.507Z","obsTime":1775966040,"reportTime":"2026-04-12T04:00:00.000Z","temp":18.3,"dewp":6.7,"wdir":340,"wspd":8,"visib":"10+","altim":1009.9,"slp":1009.5,"qcField":12,"metarType":"METAR","rawOb":"METAR KBFL 120354Z 34008KT 10SM CLR 18/07 A2982 RMK AO2 SLP095 T01830067 $","lat":35.4342,"lon":-119.0552,"elev":146,"name":"Bakersfield/Meadows Arpt, CA, US","cover":"CLR","clouds":[],"fltCat":"VFR"},{"icaoId":"KSLC","receiptTime":"2026-04-12T03:58:15.687Z","obsTime":1775966040,"reportTime":"2026-04-12T04:00:00.000Z","temp":12.8,"dewp":1.7,"wdir":120,"wspd":5,"visib":"10+","altim":1009.9,"slp":1006.5,"qcField":12,"metarType":"METAR","rawOb":"METAR KSLC 120354Z 12005KT 10SM FEW120 SCT250 13/02 A2982 RMK AO2 SLP065 T01280017 $","lat":40.7707,"lon":-111.965,"elev":1286,"name":"Salt Lake City Intl, UT, US","cover":"SCT","clouds":[{"cover":"FEW","base":12000},{"cover":"SCT","base":25000}],"fltCat":"VFR"},{"icaoId":"KROC","receiptTime":"2026-04-12T03:58:18.020Z","obsTime":1775966040,"reportTime":"2026-04-12T04:00:00.000Z","temp":2.2,"dewp":-1.7,"wdir":0,"wspd":0,"visib":"10+","altim":1030.9,"slp":1031.6,"qcField":4,"metarType":"METAR","rawOb":"METAR KROC 120354Z 00000KT 10SM CLR 02/M02 A3044 RMK AO2 SLP316 T00221017","lat":43.1172,"lon":-77.6754,"elev":166,"name":"Rochester Intl Arpt, NY, US","cover":"CLR","clouds":[],"fltCat":"VFR"},{"icaoId":"KFFZ","receiptTime":"2026-04-12T03:58:11.905Z","obsTime":1775966040,"reportTime":"2026-04-12T04:00:00.000Z","temp":26.1,"dewp":0,"wdir":270,"wspd":5,"visib":"10+","altim":1010.6,"slp":1008.3,"qcField":38,"metarType":"METAR","rawOb":"METAR KFFZ 120354Z AUTO 27005KT 10SM SCT100 26/00 A2984 RMK AO2 SLP083 T02610000 TSNO","lat":33.4659,"lon":-111.7212,"elev":420,"name":"Mesa/Falcon Fld, AZ, US","cover":"SCT","clouds":[{"cover":"SCT","base":10000}],"fltCat":"VFR"},{"icaoId":"KRIC","receiptTime":"2026-04-12T03:58:18.287Z","obsTime":1775966040,"reportTime":"2026-04-12T04:00:00.000Z","temp":12.2,"dewp":9.4,"wdir":120,"wspd":6,"visib":"10+","altim":1028.2,"slp":1028.4,"qcField":4,"metarType":"METAR","rawOb":"METAR KRIC 120354Z 12006KT 10SM CLR 12/09 A3036 RMK AO2 SLP284 T01220094","lat":37.5115,"lon":-77.3234,"elev":51,"name":"Richmond Intl, VA, US","cover":"CLR","clouds":[],"fltCat":"VFR"},{"icaoId":"KBWI","receiptTime":"2026-04-12T03:58:11.554Z","obsTime":1775966040,"reportTime":"2026-04-12T04:00:00.000Z","temp":10.6,"dewp":3.3,"wdir":0,"wspd":0,"visib":"10+","altim":1028.2,"slp":1027.9,"qcField":4,"metarType":"METAR","rawOb":"METAR KBWI 120354Z 00000KT 10SM FEW250 11/03 A3036 RMK AO2 SLP279 T01060033","lat":39.1733,"lon":-76.684,"elev":42,"name":"Baltimore-Washington Intl, MD, US","cover":"FEW","clouds":[{"cover":"FEW","base":25000}],"fltCat":"VFR"},{"icaoId":"KGCN","receiptTime":"2026-04-12T03:58:11.952Z","obsTime":1775966040,"reportTime":"2026-04-12T04:00:00.000Z","temp":10,"dewp":-5.6,"wdir":200,"wspd":9,"visib":"10+","altim":1016.7,"slp":1010.4,"qcField":6,"metarType":"METAR","rawOb":"METAR KGCN 120354Z AUTO 20009KT 10SM CLR 10/M06 A3002 RMK AO2 SLP104 T01001056","lat":35.9458,"lon":-112.1554,"elev":1993,"name":"Grand Canyon Park Arpt, AZ, US","cover":"CLR","clouds":[],"fltCat":"VFR"},{"icaoId":"KSYR","receiptTime":"2026-04-12T03:58:18.113Z","obsTime":1775966040,"reportTime":"2026-04-12T04:00:00.000Z","temp":1.7,"dewp":-2.2,"wdir":120,"wspd":4,"visib":"10+","altim":1031.2,"slp":1031.2,"qcField":12,"metarType":"METAR","rawOb":"METAR KSYR 120354Z 12004KT 10SM CLR 02/M02 A3045 RMK AO2 SLP312 T00171022 $","lat":43.1111,"lon":-76.1038,"elev":125,"name":"Syracuse/Hancock Intl, NY, US","cover":"CLR","clouds":[],"fltCat":"VFR"},{"icaoId":"KGSO","receiptTime":"2026-04-12T03:58:17.924Z","obsTime":1775966040,"reportTime":"2026-04-12T04:00:00.000Z","temp":18.3,"dewp":10,"wdir":30,"wspd":3,"visib":"10+","altim":1025.1,"slp":1024.2,"qcField":4,"metarType":"METAR","rawOb":"METAR KGSO 120354Z 03003KT 10SM FEW090 FEW130 BKN250 18/10 A3027 RMK AO2 SLP242 T01830100","lat":36.0969,"lon":-79.9432,"elev":275,"name":"Greensboro Intl, NC, US","cover":"BKN","clouds":[{"cover":"FEW","base":9000},{"cover":"FEW","base":13000},{"cover":"BKN","base":25000}],"fltCat":"VFR"},{"icaoId":"KIWA","receiptTime":"2026-04-12T03:55:39.806Z","obsTime":1775966040,"reportTime":"2026-04-12T04:00:00.000Z","temp":26,"dewp":1,"wdir":240,"wspd":6,"visib":"10+","altim":1011.3,"qcField":0,"metarType":"METAR","rawOb":"METAR KIWA 120354Z 24006KT 10SM BKN110 26/01 A2986","lat":33.3008,"lon":-111.6437,"elev":420,"name":"Phoenix/Mesa Gateway Arpt, AZ, US","cover":"BKN","clouds":[{"cover":"BKN","base":11000}],"fltCat":"VFR"},{"icaoId":"KDSM","receiptTime":"2026-04-12T03:58:17.895Z","obsTime":1775966040,"reportTime":"2026-04-12T04:00:00.000Z","temp":15,"dewp":12.8,"wdir":150,"wspd":12,"visib":"10+","altim":1014,"slp":1014.1,"qcField":4,"metarType":"METAR","rawOb":"METAR KDSM 120354Z 15012KT 10SM OVC190 15/13 A2994 RMK AO2 SLP141 T01500128","lat":41.5339,"lon":-93.6531,"elev":286,"name":"Des Moines Intl, IA, US","cover":"OVC","clouds":[{"cover":"OVC","base":19000}],"fltCat":"VFR"},{"icaoId":"KBTV","receiptTime":"2026-04-12T03:58:17.789Z","obsTime":1775966040,"reportTime":"2026-04-12T04:00:00.000Z","temp":3.9,"dewp":-5.6,"wdir":0,"wspd":0,"visib":"10+","altim":1030.2,"slp":1030.4,"qcField":4,"metarType":"METAR","rawOb":"METAR KBTV 120354Z 00000KT 10SM CLR 04/M06 A3042 RMK AO2 SLP304 LAST T00391056","lat":44.4682,"lon":-73.1499,"elev":101,"name":"Burlington Intl, VT, US","cover":"CLR","clouds":[],"fltCat":"VFR"},{"icaoId":"KBOS","receiptTime":"2026-04-12T03:58:11.520Z","obsTime":1775966040,"reportTime":"2026-04-12T04:00:00.000Z","temp":7.2,"dewp":-5.6,"wdir":340,"wspd":14,"wgst":25,"visib":"10+","altim":1029.2,"slp":1028.9,"qcField":4,"metarType":"METAR","rawOb":"METAR KBOS 120354Z 34014G25KT 10SM CLR 07/M06 A3039 RMK AO2 SLP289 T00721056","lat":42.3606,"lon":-71.0097,"elev":4,"name":"Boston/Logan Intl, MA, US","cover":"CLR","clouds":[],"fltCat":"VFR"},{"icaoId":"KAPC","receiptTime":"2026-04-12T03:58:11.456Z","obsTime":1775966040,"reportTime":"2026-04-12T04:00:00.000Z","temp":10.6,"dewp":8.9,"wdir":160,"wspd":9,"visib":"10+","altim":1007.2,"slp":1006.3,"qcField":6,"metarType":"METAR","rawOb":"METAR KAPC 120354Z AUTO 16009KT 10SM SCT020 11/09 A2974 RMK AO2 SLP063 T01060089","lat":38.2075,"lon":-122.2804,"elev":5,"name":"Napa Cnty Arpt, CA, US","cover":"SCT","clouds":[{"cover":"SCT","base":2000}],"fltCat":"VFR"},{"icaoId":"KPHL","receiptTime":"2026-04-12T03:58:16.183Z","obsTime":1775966040,"reportTime":"2026-04-12T04:00:00.000Z","temp":11.7,"dewp":-1.1,"wdir":50,"wspd":6,"visib":"10+","altim":1028.9,"slp":1028.8,"qcField":12,"metarType":"METAR","rawOb":"METAR KPHL 120354Z 05006KT 10SM CLR 12/M01 A3038 RMK AO2 SLP288 T01171011 $","lat":39.8733,"lon":-75.2268,"elev":2,"name":"Philadelphia Intl, PA, US","cover":"CLR","clouds":[],"fltCat":"VFR"},{"icaoId":"PANC","receiptTime":"2026-04-12T03:56:42.663Z","obsTime":1775965980,"reportTime":"2026-04-12T04:00:00.000Z","temp":1.7,"dewp":-1.1,"wdir":0,"wspd":0,"visib":"10+","altim":1010.9,"slp":1010.9,"qcField":12,"metarType":"METAR","rawOb":"METAR PANC 120353Z 00000KT 10SM BKN029 OVC050 02/M01 A2985 RMK AO2 SLP109 T00171011 $","lat":61.1691,"lon":-150.0277,"elev":39,"name":"Anchorage Intl, AK, US","cover":"OVC","clouds":[{"cover":"BKN","base":2900},{"cover":"OVC","base":5000}],"fltCat":"MVFR"},{"icaoId":"KACV","receiptTime":"2026-04-12T03:56:44.550Z","obsTime":1775965980,"reportTime":"2026-04-12T04:00:00.000Z","temp":8.3,"dewp":5,"wdir":120,"wspd":4,"visib":"10+","altim":1003.5,"slp":1003.9,"qcField":6,"metarType":"METAR","rawOb":"METAR KACV 120353Z AUTO 12004KT 10SM CLR 08/05 A2963 RMK AO2 SLP039 T00830050","lat":40.9784,"lon":-124.1048,"elev":63,"name":"Arcata Arpt, CA, US","cover":"CLR","clouds":[],"fltCat":"VFR"},{"icaoId":"KAUS","receiptTime":"2026-04-12T03:56:33.282Z","obsTime":1775965980,"reportTime":"2026-04-12T04:00:00.000Z","temp":22.8,"dewp":19.4,"wdir":150,"wspd":14,"wgst":22,"visib":"10+","altim":1017.7,"slp":1016.8,"qcField":4,"metarType":"METAR","rawOb":"METAR KAUS 120353Z 15014G22KT 10SM OVC022 23/19 A3005 RMK AO2 PK WND 16026/0338 SLP168 T02280194","lat":30.1831,"lon":-97.6806,"elev":148,"name":"Austin/Bergstrom Intl, TX, US","cover":"OVC","clouds":[{"cover":"OVC","base":2200}],"fltCat":"MVFR"},{"icaoId":"KBHM","receiptTime":"2026-04-12T03:56:40.762Z","obsTime":1775965980,"reportTime":"2026-04-12T04:00:00.000Z","temp":15.6,"dewp":10.6,"wdir":0,"wspd":0,"visib":"10+","altim":1025.1,"slp":1024.5,"qcField":4,"metarType":"METAR","rawOb":"METAR KBHM 120353Z 00000KT 10SM CLR 16/11 A3027 RMK AO2 SLP245 T01560106","lat":33.5655,"lon":-86.7449,"elev":191,"name":"Birmingham Intl, AL, US","cover":"CLR","clouds":[],"fltCat":"VFR"},{"icaoId":"KBNA","receiptTime":"2026-04-12T03:56:40.887Z","obsTime":1775965980,"reportTime":"2026-04-12T04:00:00.000Z","temp":18.3,"dewp":13.3,"wdir":0,"wspd":0,"visib":"10+","altim":1024.1,"slp":1023.6,"qcField":12,"metarType":"METAR","rawOb":"METAR KBNA 120353Z 00000KT 10SM FEW250 18/13 A3024 RMK AO2 SLP236 T01830133 $","lat":36.1105,"lon":-86.6881,"elev":168,"name":"Nashville Intl, TN, US","cover":"FEW","clouds":[{"cover":"FEW","base":25000}],"fltCat":"VFR"},{"icaoId":"KBUR","receiptTime":"2026-04-12T03:56:38.452Z","obsTime":1775965980,"reportTime":"2026-04-12T04:00:00.000Z","temp":15.6,"dewp":9.4,"wdir":170,"wspd":5,"visib":"10+","altim":1015,"slp":1014,"qcField":4,"metarType":"METAR","rawOb":"METAR KBUR 120353Z 17005KT 10SM SCT031 16/09 A2997 RMK AO2 SLP140 T01560094","lat":34.1996,"lon":-118.3654,"elev":221,"name":"Burbank/Bob Hope Arpt, CA, US","cover":"SCT","clouds":[{"cover":"SCT","base":3100}],"fltCat":"VFR"},{"icaoId":"KCRQ","receiptTime":"2026-04-12T03:56:30.166Z","obsTime":1775965980,"reportTime":"2026-04-12T04:00:00.000Z","temp":16.7,"dewp":12.8,"wdir":280,"wspd":3,"visib":"10+","altim":1015.3,"slp":1015,"qcField":6,"metarType":"METAR","rawOb":"METAR KCRQ 120353Z AUTO 28003KT 10SM FEW020 FEW028 FEW034 17/13 A2998 RMK AO2 SLP150 T01670128","lat":33.1299,"lon":-117.2765,"elev":96,"name":"Carlsbad/Palomar Arpt, CA, US","cover":"FEW","clouds":[{"cover":"FEW","base":2000},{"cover":"FEW","base":2800},{"cover":"FEW","base":3400}],"fltCat":"VFR"},{"icaoId":"KDAL","receiptTime":"2026-04-12T03:56:39.890Z","obsTime":1775965980,"reportTime":"2026-04-12T04:00:00.000Z","temp":21.7,"dewp":17.8,"wdir":140,"wspd":10,"visib":"10+","altim":1018.4,"slp":1017.7,"qcField":4,"metarType":"METAR","rawOb":"METAR KDAL 120353Z 14010KT 10SM BKN080 BKN120 OVC250 22/18 A3007 RMK AO2 SLP177 T02170178","lat":32.8384,"lon":-96.8358,"elev":148,"name":"Dallas/Love Fld, TX, US","cover":"OVC","clouds":[{"cover":"BKN","base":8000},{"cover":"BKN","base":12000},{"cover":"OVC","base":25000}],"fltCat":"VFR"},{"icaoId":"KDEN","receiptTime":"2026-04-12T03:56:37.708Z","obsTime":1775965980,"reportTime":"2026-04-12T04:00:00.000Z","temp":14.4,"dewp":0.6,"wdir":220,"wspd":6,"visib":"10+","altim":1010.6,"slp":1004.6,"qcField":4,"metarType":"METAR","rawOb":"METAR KDEN 120353Z 22006KT 10SM FEW075 FEW110 BKN200 14/01 A2984 RMK AO2 SLP046 T01440006","lat":39.8466,"lon":-104.6562,"elev":1656,"name":"Denver Intl, CO, US","cover":"BKN","clouds":[{"cover":"FEW","base":7500},{"cover":"FEW","base":11000},{"cover":"BKN","base":20000}],"fltCat":"VFR"},{"icaoId":"KDFW","receiptTime":"2026-04-12T03:56:32.461Z","obsTime":1775965980,"reportTime":"2026-04-12T04:00:00.000Z","temp":21.7,"dewp":16.7,"wdir":150,"wspd":14,"visib":"10+","altim":1017.7,"slp":1017,"qcField":4,"metarType":"METAR","rawOb":"METAR KDFW 120353Z 15014KT 10SM BKN080 BKN250 22/17 A3005 RMK AO2 SLP170 T02170167","lat":32.8974,"lon":-97.022,"elev":168,"name":"Dallas-Ft Worth Intl, TX, US","cover":"BKN","clouds":[{"cover":"BKN","base":8000},{"cover":"BKN","base":25000}],"fltCat":"VFR"},{"icaoId":"KDTW","receiptTime":"2026-04-12T03:56:34.928Z","obsTime":1775965980,"reportTime":"2026-04-12T04:00:00.000Z","temp":5,"dewp":-1.7,"wdir":100,"wspd":4,"visib":"10+","altim":1028.5,"slp":1028.6,"qcField":4,"metarType":"METAR","rawOb":"METAR KDTW 120353Z 10004KT 10SM SCT100 BKN150 BKN230 05/M02 A3037 RMK AO2 SLP286 T00501017","lat":42.2311,"lon":-83.3312,"elev":192,"name":"Detroit/Metro Wayne Cnty, MI, US","cover":"BKN","clouds":[{"cover":"SCT","base":10000},{"cover":"BKN","base":15000},{"cover":"BKN","base":23000}],"fltCat":"VFR"},{"icaoId":"KDVT","receiptTime":"2026-04-12T03:56:34.338Z","obsTime":1775965980,"reportTime":"2026-04-12T04:00:00.000Z","temp":25,"dewp":-3.3,"wdir":300,"wspd":6,"visib":"10+","altim":1010.9,"slp":1008.6,"qcField":4,"metarType":"METAR","rawOb":"METAR KDVT 120353Z 30006KT 10SM CLR 25/M03 A2985 RMK AO2 SLP086 T02501033","lat":33.6902,"lon":-112.0662,"elev":454,"name":"Phoenix/Deer Valley Arpt, AZ, US","cover":"CLR","clouds":[],"fltCat":"VFR"},{"icaoId":"KELY","receiptTime":"2026-04-12T03:56:37.001Z","obsTime":1775965980,"reportTime":"2026-04-12T04:00:00.000Z","temp":6.1,"dewp":-9.4,"wdir":170,"wspd":13,"visib":"10+","altim":1010.6,"slp":1005.7,"qcField":6,"metarType":"METAR","rawOb":"METAR KELY 120353Z AUTO 17013KT 10SM CLR 06/M09 A2984 RMK AO2 SLP057 T00611094","lat":39.2954,"lon":-114.8466,"elev":1906,"name":"Ely/Yelland Fld, NV, US","cover":"CLR","clouds":[],"fltCat":"VFR"},{"icaoId":"KFAT","receiptTime":"2026-04-12T03:56:36.839Z","obsTime":1775965980,"reportTime":"2026-04-12T04:00:00.000Z","temp":18.3,"dewp":7.8,"wdir":190,"wspd":11,"wgst":18,"visib":"10+","altim":1009.9,"slp":1009.5,"qcField":12,"metarType":"METAR","rawOb":"METAR KFAT 120353Z 19011G18KT 10SM BKN080 BKN090 BKN180 18/08 A2982 RMK AO2 SLP095 T01830078 $","lat":36.78,"lon":-119.7202,"elev":102,"name":"Fresno/Yosemite Intl, CA, US","cover":"BKN","clouds":[{"cover":"BKN","base":8000},{"cover":"BKN","base":9000},{"cover":"BKN","base":18000}],"fltCat":"VFR"},{"icaoId":"KFUL","receiptTime":"2026-04-12T03:56:32.773Z","obsTime":1775965980,"reportTime":"2026-04-12T04:00:00.000Z","temp":16.7,"dewp":11.7,"wdir":240,"wspd":4,"visib":"10+","altim":1015,"slp":1014.7,"qcField":4,"metarType":"METAR","rawOb":"METAR KFUL 120353Z 24004KT 10SM CLR 17/12 A2997 RMK AO2 SLP147 T01670117","lat":33.8715,"lon":-117.9856,"elev":23,"name":"Fullerton Muni, CA, US","cover":"CLR","clouds":[],"fltCat":"VFR"},{"icaoId":"KGEG","receiptTime":"2026-04-12T03:56:40.083Z","obsTime":1775965980,"reportTime":"2026-04-12T04:00:00.000Z","temp":11.7,"dewp":6.7,"wdir":180,"wspd":5,"visib":"10+","altim":1004.5,"slp":1004.4,"qcField":12,"metarType":"METAR","rawOb":"METAR KGEG 120353Z 18005KT 10SM SCT043 BKN055 BKN090 12/07 A2966 RMK AO2 SLP044 VCSH T01170067 $","lat":47.6217,"lon":-117.528,"elev":718,"name":"Spokane Intl, WA, US","cover":"BKN","clouds":[{"cover":"SCT","base":4300},{"cover":"BKN","base":5500},{"cover":"BKN","base":9000}],"fltCat":"VFR"},{"icaoId":"KGSP","receiptTime":"2026-04-12T03:56:38.147Z","obsTime":1775965980,"reportTime":"2026-04-12T04:00:00.000Z","temp":15,"dewp":8.3,"wdir":0,"wspd":0,"visib":"10+","altim":1025.1,"slp":1024.3,"qcField":6,"metarType":"METAR","rawOb":"METAR KGSP 120353Z AUTO 00000KT 10SM CLR 15/08 A3027 RMK AO2 SLP243 T01500083","lat":34.8842,"lon":-82.2209,"elev":285,"name":"Greenville-Spartanburg Intl, SC, US","cover":"CLR","clouds":[],"fltCat":"VFR"},{"icaoId":"KHOU","receiptTime":"2026-04-12T03:56:45.094Z","obsTime":1775965980,"reportTime":"2026-04-12T04:00:00.000Z","temp":22.8,"dewp":20,"wdir":130,"wspd":11,"visib":9,"altim":1020.4,"slp":1020.8,"qcField":12,"metarType":"METAR","rawOb":"METAR KHOU 120353Z 13011KT 9SM BKN016 OVC028 23/20 A3013 RMK AO2 SLP208 T02280200 $","lat":29.6458,"lon":-95.2821,"elev":13,"name":"Houston/Hobby Arpt, TX, US","cover":"OVC","clouds":[{"cover":"BKN","base":1600},{"cover":"OVC","base":2800}],"fltCat":"MVFR"},{"icaoId":"KIAH","receiptTime":"2026-04-12T03:56:45.263Z","obsTime":1775965980,"reportTime":"2026-04-12T04:00:00.000Z","temp":22.2,"dewp":20,"wdir":140,"wspd":12,"visib":"10+","altim":1020.4,"slp":1020.2,"qcField":4,"metarType":"METAR","rawOb":"METAR KIAH 120353Z 14012KT 10SM SCT017 SCT250 22/20 A3013 RMK AO2 SLP202 T02220200","lat":29.9844,"lon":-95.3607,"elev":27,"name":"Houston/Bush Intl, TX, US","cover":"SCT","clouds":[{"cover":"SCT","base":1700},{"cover":"SCT","base":25000}],"fltCat":"VFR"},{"icaoId":"KLAX","receiptTime":"2026-04-12T03:56:30.200Z","obsTime":1775965980,"reportTime":"2026-04-12T04:00:00.000Z","temp":16.7,"dewp":12.2,"wdir":230,"wspd":7,"visib":"10+","altim":1015.3,"slp":1014.9,"qcField":12,"metarType":"METAR","rawOb":"METAR KLAX 120353Z 23007KT 10SM SCT020 17/12 A2998 RMK AO2 SLP149 T01670122 $","lat":33.9382,"lon":-118.3866,"elev":30,"name":"Los Angeles Intl, CA, US","cover":"SCT","clouds":[{"cover":"SCT","base":2000}],"fltCat":"VFR"},{"icaoId":"KLBB","receiptTime":"2026-04-12T03:56:33.953Z","obsTime":1775965980,"reportTime":"2026-04-12T04:00:00.000Z","temp":15.6,"dewp":14.4,"wdir":130,"wspd":10,"visib":"10+","altim":1016,"slp":1012.5,"qcField":4,"metarType":"METAR","rawOb":"METAR KLBB 120353Z 13010KT 10SM FEW140 BKN170 OVC200 16/14 A3000 RMK AO2 SLP125 T01560144","lat":33.6658,"lon":-101.8233,"elev":996,"name":"Lubbock Intl Arpt, TX, US","cover":"OVC","clouds":[{"cover":"FEW","base":14000},{"cover":"BKN","base":17000},{"cover":"OVC","base":20000}],"fltCat":"VFR"},{"icaoId":"KLGB","receiptTime":"2026-04-12T03:56:30.220Z","obsTime":1775965980,"reportTime":"2026-04-12T04:00:00.000Z","temp":17.2,"dewp":11.7,"wdir":270,"wspd":7,"visib":"10+","altim":1015,"slp":1014.8,"qcField":12,"metarType":"METAR","rawOb":"METAR KLGB 120353Z 27007KT 10SM CLR 17/12 A2997 RMK AO2 SLP148 T01720117 $","lat":33.8118,"lon":-118.1472,"elev":10,"name":"Long Beach Arpt, CA, US","cover":"CLR","clouds":[],"fltCat":"VFR"},{"icaoId":"KLOL","receiptTime":"2026-04-12T03:56:29.544Z","obsTime":1775965980,"reportTime":"2026-04-12T04:00:00.000Z","temp":12.2,"dewp":1.1,"wdir":40,"wspd":4,"visib":"10+","altim":1005.2,"slp":1003.6,"qcField":6,"metarType":"METAR","rawOb":"METAR KLOL 120353Z AUTO 04004KT 10SM OVC075 12/01 A2968 RMK AO2 SLP036 T01220011","lat":40.0684,"lon":-118.5702,"elev":1191,"name":"Lovelock/Derby Fld, NV, US","cover":"OVC","clouds":[{"cover":"OVC","base":7500}],"fltCat":"VFR"},{"icaoId":"KMAF","receiptTime":"2026-04-12T03:56:39.292Z","obsTime":1775965980,"reportTime":"2026-04-12T04:00:00.000Z","temp":15.6,"dewp":14.4,"wdir":210,"wspd":4,"visib":"10+","altim":1016,"slp":1012.4,"qcField":6,"metarType":"METAR","rawOb":"METAR KMAF 120353Z AUTO 21004KT 10SM CLR 16/14 A3000 RMK AO2 SLP124 T01560144","lat":31.9475,"lon":-102.2086,"elev":874,"name":"Midland Intl, TX, US","cover":"CLR","clouds":[],"fltCat":"VFR"},{"icaoId":"KMCI","receiptTime":"2026-04-12T03:56:41.515Z","obsTime":1775965980,"reportTime":"2026-04-12T04:00:00.000Z","temp":21.7,"dewp":15.6,"wdir":190,"wspd":15,"wgst":22,"visib":"10+","altim":1015.3,"slp":1014.6,"qcField":4,"wxString":"-RA","precip":0.005,"metarType":"METAR","rawOb":"METAR KMCI 120353Z 19015G22KT 10SM -RA OVC100 22/16 A2998 RMK AO2 RAB15 SLP146 P0000 T02170156","lat":39.2975,"lon":-94.7309,"elev":308,"name":"Kansas City Intl, MO, US","cover":"OVC","clouds":[{"cover":"OVC","base":10000}],"fltCat":"VFR"},{"icaoId":"KMCO","receiptTime":"2026-04-12T03:56:39.375Z","obsTime":1775965980,"reportTime":"2026-04-12T04:00:00.000Z","temp":19.4,"dewp":14.4,"wdir":40,"wspd":6,"visib":"10+","altim":1025.8,"slp":1025.4,"qcField":4,"metarType":"METAR","rawOb":"METAR KMCO 120353Z 04006KT 10SM FEW030 19/14 A3029 RMK AO2 SLP254 T01940144","lat":28.4182,"lon":-81.3241,"elev":27,"name":"Orlando Intl, FL, US","cover":"FEW","clouds":[{"cover":"FEW","base":3000}],"fltCat":"VFR"},{"icaoId":"KMDW","receiptTime":"2026-04-12T03:56:41.554Z","obsTime":1775965980,"reportTime":"2026-04-12T04:00:00.000Z","temp":12.8,"dewp":5,"wdir":160,"wspd":6,"visib":"10+","altim":1021.8,"slp":1021.8,"qcField":4,"metarType":"METAR","rawOb":"METAR KMDW 120353Z 16006KT 10SM OVC100 13/05 A3017 RMK AO2 SLP218 T01280050","lat":41.7841,"lon":-87.7552,"elev":186,"name":"Chicago/Midway Intl, IL, US","cover":"OVC","clouds":[{"cover":"OVC","base":10000}],"fltCat":"VFR"},{"icaoId":"KMIA","receiptTime":"2026-04-12T03:58:12.626Z","obsTime":1775965980,"reportTime":"2026-04-12T04:00:00.000Z","temp":22.8,"dewp":16.7,"wdir":60,"wspd":11,"visib":"10+","altim":1022.4,"slp":1022.4,"qcField":4,"metarType":"METAR","rawOb":"METAR KMIA 120353Z 06011KT 10SM FEW035 23/17 A3019 RMK AO2 SLP224 T02280167","lat":25.7881,"lon":-80.3169,"elev":1,"name":"Miami Intl, FL, US","cover":"FEW","clouds":[{"cover":"FEW","base":3500}],"fltCat":"VFR"},{"icaoId":"KMOD","receiptTime":"2026-04-12T03:56:30.280Z","obsTime":1775965980,"reportTime":"2026-04-12T04:00:00.000Z","temp":13.3,"dewp":11.7,"wdir":230,"wspd":7,"visib":5,"altim":1008.9,"slp":1008.9,"qcField":6,"wxString":"RA BR","precip":0.17,"metarType":"METAR","rawOb":"METAR KMOD 120353Z AUTO 23007KT 5SM RA BR FEW029 OVC055 13/12 A2979 RMK AO2 PK WND 21026/0307 LTG DSNT NE SLP089 P0017 T01330117","lat":37.6254,"lon":-120.9549,"elev":25,"name":"Modesto/Sham Fld, CA, US","cover":"OVC","clouds":[{"cover":"FEW","base":2900},{"cover":"OVC","base":5500}],"fltCat":"MVFR"},{"icaoId":"KMSP","receiptTime":"2026-04-12T03:56:37.608Z","obsTime":1775965980,"reportTime":"2026-04-12T04:00:00.000Z","temp":10,"dewp":7.8,"wdir":160,"wspd":10,"wgst":21,"visib":9,"altim":1013,"slp":1013.3,"qcField":4,"metarType":"METAR","rawOb":"METAR KMSP 120353Z 16010G21KT 9SM OVC013 10/08 A2991 RMK AO2 SLP133 T01000078","lat":44.8852,"lon":-93.2313,"elev":255,"name":"Minneapolis-St Paul Intl, MN, US","cover":"OVC","clouds":[{"cover":"OVC","base":1300}],"fltCat":"MVFR"},{"icaoId":"KMSY","receiptTime":"2026-04-12T03:56:34.090Z","obsTime":1775965980,"reportTime":"2026-04-12T04:00:00.000Z","temp":20.6,"dewp":16.1,"wdir":140,"wspd":6,"visib":"10+","altim":1023.5,"slp":1023.5,"qcField":4,"metarType":"METAR","rawOb":"METAR KMSY 120353Z 14006KT 10SM CLR 21/16 A3022 RMK AO2 SLP235 T02060161","lat":29.9974,"lon":-90.2777,"elev":0,"name":"New Orleans/Armstrong Intl, LA, US","cover":"CLR","clouds":[],"fltCat":"VFR"},{"icaoId":"KMYF","receiptTime":"2026-04-12T03:56:43.722Z","obsTime":1775965980,"reportTime":"2026-04-12T04:00:00.000Z","temp":16.7,"dewp":12.2,"wdir":290,"wspd":5,"visib":"10+","altim":1015.7,"slp":1015.4,"qcField":4,"metarType":"METAR","rawOb":"METAR KMYF 120353Z 29005KT 10SM CLR 17/12 A2999 RMK AO2 SLP154 T01670122","lat":32.8145,"lon":-117.1375,"elev":128,"name":"San Diego/Montgomery Arpt, CA, US","cover":"CLR","clouds":[],"fltCat":"VFR"},{"icaoId":"KMYR","receiptTime":"2026-04-12T03:56:42.184Z","obsTime":1775965980,"reportTime":"2026-04-12T04:00:00.000Z","temp":18.3,"dewp":9.4,"wdir":0,"wspd":0,"visib":"10+","altim":1025.8,"slp":1025.6,"qcField":14,"maxT24":27.2,"minT24":12.2,"metarType":"METAR","rawOb":"METAR KMYR 120353Z AUTO 00000KT 10SM CLR 18/09 A3029 RMK AO2 SLP256 T01830094 402720122 $","lat":33.6769,"lon":-78.9325,"elev":7,"name":"Myrtle Beach Intl, SC, US","cover":"CLR","clouds":[],"fltCat":"VFR"},{"icaoId":"KOAK","receiptTime":"2026-04-12T03:56:43.751Z","obsTime":1775965980,"reportTime":"2026-04-12T04:00:00.000Z","temp":11.7,"dewp":8.9,"wdir":140,"wspd":8,"visib":"10+","altim":1008.9,"slp":1008.6,"qcField":12,"metarType":"METAR","rawOb":"METAR KOAK 120353Z 14008KT 10SM FEW015 SCT025 BKN048 12/09 A2979 RMK AO2 SLP086 T01170089 $","lat":37.7178,"lon":-122.233,"elev":3,"name":"Oakland Intl, CA, US","cover":"BKN","clouds":[{"cover":"FEW","base":1500},{"cover":"SCT","base":2500},{"cover":"BKN","base":4800}],"fltCat":"VFR"},{"icaoId":"KONT","receiptTime":"2026-04-12T03:56:43.851Z","obsTime":1775965980,"reportTime":"2026-04-12T04:00:00.000Z","temp":15.6,"dewp":9.4,"wdir":240,"wspd":10,"visib":"10+","altim":1015,"slp":1014.2,"qcField":12,"metarType":"METAR","rawOb":"METAR KONT 120353Z 24010KT 10SM SCT060 16/09 A2997 RMK AO2 SLP142 T01560094 $","lat":34.0531,"lon":-117.5769,"elev":279,"name":"Ontario Intl, CA, US","cover":"SCT","clouds":[{"cover":"SCT","base":6000}],"fltCat":"VFR"},{"icaoId":"KPBI","receiptTime":"2026-04-12T03:56:41.099Z","obsTime":1775965980,"reportTime":"2026-04-12T04:00:00.000Z","temp":23.3,"dewp":15,"wdir":60,"wspd":11,"visib":"10+","altim":1023.8,"slp":1023.7,"qcField":12,"metarType":"METAR","rawOb":"METAR KPBI 120353Z 06011KT 10SM SCT034 23/15 A3023 RMK AO2 SLP237 T02330150 $","lat":26.6851,"lon":-80.0992,"elev":4,"name":"Palm Beach Intl, FL, US","cover":"SCT","clouds":[{"cover":"SCT","base":3400}],"fltCat":"VFR"},{"icaoId":"KPDX","receiptTime":"2026-04-12T03:56:40.188Z","obsTime":1775965980,"reportTime":"2026-04-12T04:00:00.000Z","temp":12.8,"dewp":10.6,"wdir":200,"wspd":14,"visib":"10+","altim":1005.8,"slp":1005.6,"qcField":12,"wxString":"-RA","precip":0.005,"metarType":"METAR","rawOb":"METAR KPDX 120353Z 20014KT 10SM -RA SCT015 BKN028 OVC046 13/11 A2970 RMK AO2 RAB13E28B50 SLP056 P0000 T01280106 $","lat":45.5958,"lon":-122.6092,"elev":7,"name":"Portland Intl, OR, US","cover":"OVC","clouds":[{"cover":"SCT","base":1500},{"cover":"BKN","base":2800},{"cover":"OVC","base":4600}],"fltCat":"MVFR"},{"icaoId":"KPGA","receiptTime":"2026-04-12T03:56:40.200Z","obsTime":1775965980,"reportTime":"2026-04-12T04:00:00.000Z","temp":20,"dewp":-13.3,"wdir":220,"wspd":6,"visib":"10+","altim":1011.3,"slp":1006.1,"qcField":14,"metarType":"METAR","rawOb":"METAR KPGA 120353Z AUTO 22006KT 10SM CLR 20/M13 A2986 RMK AO2 SLP061 T02001133 $","lat":36.9211,"lon":-111.4487,"elev":1310,"name":"Page Muni, AZ, US","cover":"CLR","clouds":[],"fltCat":"VFR"},{"icaoId":"KPRC","receiptTime":"2026-04-12T03:56:43.899Z","obsTime":1775965980,"reportTime":"2026-04-12T04:00:00.000Z","temp":13.9,"dewp":-5.6,"wdir":200,"wspd":4,"visib":"10+","altim":1016,"slp":1010.3,"qcField":6,"metarType":"METAR","rawOb":"METAR KPRC 120353Z AUTO 20004KT 10SM CLR 14/M06 A3000 RMK AO2 SLP103 T01391056","lat":34.6491,"lon":-112.4223,"elev":1528,"name":"Prescott/Love Fld, AZ, US","cover":"CLR","clouds":[],"fltCat":"VFR"},{"icaoId":"KPSP","receiptTime":"2026-04-12T03:56:43.943Z","obsTime":1775965980,"reportTime":"2026-04-12T04:00:00.000Z","temp":22.8,"dewp":5.6,"wdir":330,"wspd":16,"wgst":27,"visib":"10+","altim":1010.2,"slp":1010.1,"qcField":4,"metarType":"METAR","rawOb":"METAR KPSP 120353Z 33016G27KT 10SM CLR 23/06 A2983 RMK AO2 PK WND 32027/0350 SLP101 T02280056","lat":33.8222,"lon":-116.5043,"elev":123,"name":"Palm Springs Intl, CA, US","cover":"CLR","clouds":[],"fltCat":"VFR"},{"icaoId":"KRDD","receiptTime":"2026-04-12T03:56:44.107Z","obsTime":1775965980,"reportTime":"2026-04-12T04:00:00.000Z","temp":9.4,"dewp":7.8,"wdir":100,"wspd":10,"visib":"10+","altim":1004.5,"slp":1004.2,"qcField":12,"precip":0.03,"metarType":"METAR","rawOb":"METAR KRDD 120353Z 10010KT 10SM SCT050 BKN055 OVC110 09/08 A2966 RMK AO2 RAE38 PRESRR SLP042 P0003 T00940078 $","lat":40.5146,"lon":-122.2977,"elev":152,"name":"Redding Muni, CA, US","cover":"OVC","clouds":[{"cover":"SCT","base":5000},{"cover":"BKN","base":5500},{"cover":"OVC","base":11000}],"fltCat":"VFR"},{"icaoId":"KSBA","receiptTime":"2026-04-12T03:56:45.455Z","obsTime":1775965980,"reportTime":"2026-04-12T04:00:00.000Z","temp":15.6,"dewp":12.2,"wdir":190,"wspd":6,"visib":"10+","altim":1014.3,"slp":1014.1,"qcField":12,"metarType":"METAR","rawOb":"METAR KSBA 120353Z 19006KT 10SM SCT020 BKN050 OVC060 16/12 A2995 RMK AO2 SLP141 T01560122 $","lat":34.4241,"lon":-119.8425,"elev":2,"name":"Santa Barbara Muni, CA, US","cover":"OVC","clouds":[{"cover":"SCT","base":2000},{"cover":"BKN","base":5000},{"cover":"OVC","base":6000}],"fltCat":"VFR"},{"icaoId":"KSDL","receiptTime":"2026-04-12T03:56:38.612Z","obsTime":1775965980,"reportTime":"2026-04-12T04:00:00.000Z","temp":26.1,"dewp":-0.6,"wdir":270,"wspd":3,"visib":"10+","altim":1011.3,"slp":1008.8,"qcField":6,"metarType":"METAR","rawOb":"METAR KSDL 120353Z AUTO 27003KT 10SM CLR 26/M01 A2986 RMK AO2 SLP088 T02611006","lat":33.6123,"lon":-111.9232,"elev":438,"name":"Scottsdale Muni, AZ, US","cover":"CLR","clouds":[],"fltCat":"VFR"},{"icaoId":"KSEA","receiptTime":"2026-04-12T03:56:40.302Z","obsTime":1775965980,"reportTime":"2026-04-12T04:00:00.000Z","temp":11.1,"dewp":7.8,"wdir":340,"wspd":4,"visib":"10+","altim":1006.5,"slp":1007.1,"qcField":4,"metarType":"METAR","rawOb":"METAR KSEA 120353Z 34004KT 10SM BKN025 BKN100 BKN200 11/08 A2972 RMK AO2 SLP071 T01110078","lat":47.4447,"lon":-122.3144,"elev":115,"name":"Seattle-Tacoma Intl, WA, US","cover":"BKN","clouds":[{"cover":"BKN","base":2500},{"cover":"BKN","base":10000},{"cover":"BKN","base":20000}],"fltCat":"MVFR"},{"icaoId":"KSJC","receiptTime":"2026-04-12T03:56:38.733Z","obsTime":1775965980,"reportTime":"2026-04-12T04:00:00.000Z","temp":11.7,"dewp":10,"wdir":170,"wspd":7,"visib":"10+","altim":1009.2,"slp":1009.1,"qcField":12,"precip":0.005,"metarType":"METAR","rawOb":"METAR KSJC 120353Z 17007KT 10SM BKN035 OVC070 12/10 A2980 RMK AO2 RAE12 SLP091 P0000 T01170100 $","lat":37.3594,"lon":-121.9244,"elev":13,"name":"San Jose Intl Arpt, CA, US","cover":"OVC","clouds":[{"cover":"BKN","base":3500},{"cover":"OVC","base":7000}],"fltCat":"VFR"},{"icaoId":"KSMF","receiptTime":"2026-04-12T03:56:38.768Z","obsTime":1775965980,"reportTime":"2026-04-12T04:00:00.000Z","temp":10,"dewp":7.8,"wdir":180,"wspd":10,"visib":"10+","altim":1007.5,"slp":1007.4,"qcField":12,"precip":0.02,"metarType":"METAR","rawOb":"METAR KSMF 120353Z 18010KT 10SM FEW070 SCT090 OVC110 10/08 A2975 RMK AO2 RAE30 SLP074 P0002 T01000078 $","lat":38.7007,"lon":-121.5948,"elev":7,"name":"Sacramento Intl, CA, US","cover":"OVC","clouds":[{"cover":"FEW","base":7000},{"cover":"SCT","base":9000},{"cover":"OVC","base":11000}],"fltCat":"VFR"},{"icaoId":"KSNA","receiptTime":"2026-04-12T03:56:38.806Z","obsTime":1775965980,"reportTime":"2026-04-12T04:00:00.000Z","temp":17.2,"dewp":11.7,"wdir":250,"wspd":6,"visib":"10+","altim":1015.3,"slp":1015.2,"qcField":12,"metarType":"METAR","rawOb":"METAR KSNA 120353Z 25006KT 10SM FEW023 FEW050 17/12 A2998 RMK AO2 SLP152 T01720117 $","lat":33.6798,"lon":-117.8675,"elev":14,"name":"Santa Ana/Wayne Arpt, CA, US","cover":"FEW","clouds":[{"cover":"FEW","base":2300},{"cover":"FEW","base":5000}],"fltCat":"VFR"},{"icaoId":"KSTS","receiptTime":"2026-04-12T03:56:38.939Z","obsTime":1775965980,"reportTime":"2026-04-12T04:00:00.000Z","temp":9.4,"dewp":7.8,"wdir":150,"wspd":7,"visib":6,"altim":1006.5,"slp":1005.6,"qcField":6,"wxString":"RA BR","precip":0.03,"metarType":"METAR","rawOb":"METAR KSTS 120353Z AUTO 15007KT 6SM RA BR FEW016 BKN035 OVC048 09/08 A2972 RMK AO2 RAB0256E07B40 SLP056 P0003 T00940078","lat":38.5037,"lon":-122.811,"elev":35,"name":"Santa Rosa/Schulz Arpt, CA, US","cover":"OVC","clouds":[{"cover":"FEW","base":1600},{"cover":"BKN","base":3500},{"cover":"OVC","base":4800}],"fltCat":"VFR"},{"icaoId":"KTPA","receiptTime":"2026-04-12T03:56:43.440Z","obsTime":1775965980,"reportTime":"2026-04-12T04:00:00.000Z","temp":21.7,"dewp":13.9,"wdir":60,"wspd":6,"visib":"10+","altim":1024.8,"slp":1024.6,"qcField":4,"metarType":"METAR","rawOb":"METAR KTPA 120353Z 06006KT 10SM CLR 22/14 A3026 RMK AO2 SLP246 T02170139","lat":27.9633,"lon":-82.54,"elev":2,"name":"Tampa Intl Arpt, FL, US","cover":"CLR","clouds":[],"fltCat":"VFR"},{"icaoId":"KTUL","receiptTime":"2026-04-12T03:56:43.496Z","obsTime":1775965980,"reportTime":"2026-04-12T04:00:00.000Z","temp":22.2,"dewp":16.1,"wdir":170,"wspd":11,"wgst":20,"visib":"10+","altim":1017.7,"slp":1016.7,"qcField":4,"metarType":"METAR","rawOb":"METAR KTUL 120353Z 17011G20KT 10SM FEW110 SCT250 22/16 A3005 RMK AO2 SLP167 T02220161","lat":36.1985,"lon":-95.8782,"elev":196,"name":"Tulsa Intl Arpt, OK, US","cover":"SCT","clouds":[{"cover":"FEW","base":11000},{"cover":"SCT","base":25000}],"fltCat":"VFR"},{"icaoId":"KTUS","receiptTime":"2026-04-12T03:56:32.972Z","obsTime":1775965980,"reportTime":"2026-04-12T04:00:00.000Z","temp":23.9,"dewp":-1.7,"wdir":230,"wspd":10,"visib":"10+","altim":1014.6,"slp":1010.5,"qcField":4,"metarType":"METAR","rawOb":"METAR KTUS 120353Z 23010KT 10SM CLR 24/M02 A2996 RMK AO2 SLP105 T02391017","lat":32.1315,"lon":-110.9564,"elev":776,"name":"Tucson Intl Arpt, AZ, US","cover":"CLR","clouds":[],"fltCat":"VFR"},{"icaoId":"KVGT","receiptTime":"2026-04-12T03:56:39.004Z","obsTime":1775965980,"reportTime":"2026-04-12T04:00:00.000Z","temp":21.7,"dewp":-3.3,"wdir":190,"wspd":8,"visib":"10+","altim":1008.9,"slp":1008.9,"qcField":4,"metarType":"METAR","rawOb":"METAR KVGT 120353Z 19008KT 10SM CLR 22/M03 A2979 RMK AO2 SLP089 T02171033","lat":36.212,"lon":-115.194,"elev":664,"name":"Las Vegas/North Arpt, NV, US","cover":"CLR","clouds":[],"fltCat":"VFR"},{"icaoId":"KDCA","receiptTime":"2026-04-12T03:56:41.828Z","obsTime":1775965920,"reportTime":"2026-04-12T04:00:00.000Z","temp":14.4,"dewp":6.1,"wdir":0,"wspd":0,"visib":"10+","altim":1027.9,"slp":1027.8,"qcField":4,"metarType":"METAR","rawOb":"METAR KDCA 120352Z 00000KT 10SM CLR 14/06 A3035 RMK AO2 SLP278 T01440061","lat":38.8472,"lon":-77.0345,"elev":4,"name":"Washington/Reagan-National Arpt, VA, US","cover":"CLR","clouds":[],"fltCat":"VFR"},{"icaoId":"KOKC","receiptTime":"2026-04-12T03:56:42.225Z","obsTime":1775965920,"reportTime":"2026-04-12T04:00:00.000Z","temp":20.6,"dewp":16.7,"wdir":160,"wspd":12,"visib":"10+","altim":1016.7,"slp":1015.7,"qcField":4,"precip":0.005,"metarType":"METAR","rawOb":"METAR KOKC 120352Z 16012KT 10SM SCT050 SCT120 OVC250 21/17 A3002 RMK AO2 RAB0255E07 SLP157 P0000 T02060167","lat":35.3843,"lon":-97.6003,"elev":391,"name":"Oklahoma City/Will Rogers Intl, OK, US","cover":"OVC","clouds":[{"cover":"SCT","base":5000},{"cover":"SCT","base":12000},{"cover":"OVC","base":25000}],"fltCat":"VFR"},{"icaoId":"KATL","receiptTime":"2026-04-12T03:56:41.662Z","obsTime":1775965920,"reportTime":"2026-04-12T04:00:00.000Z","temp":20.6,"dewp":5.6,"wdir":320,"wspd":7,"visib":"10+","altim":1024.8,"slp":1024,"qcField":12,"metarType":"METAR","rawOb":"METAR KATL 120352Z 32007KT 10SM FEW250 21/06 A3026 RMK AO2 SLP240 T02060056 $","lat":33.6297,"lon":-84.4422,"elev":309,"name":"Atlanta/Hartsfield-Jackson Intl, GA, US","cover":"FEW","clouds":[{"cover":"FEW","base":25000}],"fltCat":"VFR"},{"icaoId":"KIAD","receiptTime":"2026-04-12T03:56:41.999Z","obsTime":1775965920,"reportTime":"2026-04-12T04:00:00.000Z","temp":9.4,"dewp":3.9,"wdir":0,"wspd":0,"visib":"10+","altim":1028.2,"slp":1028,"qcField":4,"metarType":"METAR","rawOb":"METAR KIAD 120352Z 00000KT 10SM FEW250 09/04 A3036 RMK AO2 SLP280 T00940039","lat":38.9348,"lon":-77.4473,"elev":90,"name":"Washington/Dulles Intl, VA, US","cover":"FEW","clouds":[{"cover":"FEW","base":25000}],"fltCat":"VFR"},{"icaoId":"KCLT","receiptTime":"2026-04-12T03:56:41.781Z","obsTime":1775965920,"reportTime":"2026-04-12T04:00:00.000Z","temp":19.4,"dewp":9.4,"wdir":0,"wspd":0,"visib":"10+","altim":1024.8,"slp":1025.5,"qcField":4,"metarType":"METAR","rawOb":"METAR KCLT 120352Z 00000KT 10SM FEW250 19/09 A3026 RMK AO2 SLP255 T01940094","lat":35.2225,"lon":-80.9543,"elev":223,"name":"Charlotte/Douglas Intl, NC, US","cover":"FEW","clouds":[{"cover":"FEW","base":25000}],"fltCat":"VFR"},{"icaoId":"KABQ","receiptTime":"2026-04-12T03:56:35.802Z","obsTime":1775965920,"reportTime":"2026-04-12T04:00:00.000Z","temp":15.6,"dewp":5.6,"wdir":180,"wspd":7,"visib":"10+","altim":1017,"slp":1010.9,"qcField":12,"metarType":"METAR","rawOb":"METAR KABQ 120352Z 18007KT 10SM SCT110 16/06 A3003 RMK AO2 SLP109 T01560056 $","lat":35.0419,"lon":-106.6154,"elev":1620,"name":"Albuquerque Intl, NM, US","cover":"SCT","clouds":[{"cover":"SCT","base":11000}],"fltCat":"VFR"},{"icaoId":"KCVG","receiptTime":"2026-04-12T03:56:41.814Z","obsTime":1775965920,"reportTime":"2026-04-12T04:00:00.000Z","temp":12.2,"dewp":4.4,"wdir":100,"wspd":6,"visib":"10+","altim":1025.5,"slp":1025.1,"qcField":4,"metarType":"METAR","rawOb":"METAR KCVG 120352Z 10006KT 10SM SCT200 12/04 A3028 RMK AO2 SLP251 T01220044","lat":39.0444,"lon":-84.6724,"elev":264,"name":"Cincinnati Intl, KY, US","cover":"SCT","clouds":[{"cover":"SCT","base":20000}],"fltCat":"VFR"},{"icaoId":"KMKE","receiptTime":"2026-04-12T03:56:42.124Z","obsTime":1775965920,"reportTime":"2026-04-12T04:00:00.000Z","temp":8.9,"dewp":2.8,"wdir":150,"wspd":7,"visib":"10+","altim":1021.4,"slp":1021.7,"qcField":4,"metarType":"METAR","rawOb":"METAR KMKE 120352Z 15007KT 10SM OVC035 09/03 A3016 RMK AO2 SLP217 T00890028","lat":42.9549,"lon":-87.9045,"elev":203,"name":"Milwaukee/Mitchell Intl, WI, US","cover":"OVC","clouds":[{"cover":"OVC","base":3500}],"fltCat":"VFR"},{"icaoId":"KORD","receiptTime":"2026-04-12T03:54:10.464Z","obsTime":1775965860,"reportTime":"2026-04-12T04:00:00.000Z","temp":11.1,"dewp":3.9,"wdir":130,"wspd":6,"visib":"10+","altim":1021.4,"slp":1021.6,"qcField":12,"metarType":"METAR","rawOb":"METAR KORD 120351Z 13006KT 10SM SCT049 OVC090 11/04 A3016 RMK AO2 SLP216 T01110039 $","lat":41.9602,"lon":-87.9316,"elev":202,"name":"Chicago/O'Hare Intl, IL, US","cover":"OVC","clouds":[{"cover":"SCT","base":4900},{"cover":"OVC","base":9000}],"fltCat":"VFR"},{"icaoId":"KORF","receiptTime":"2026-04-12T03:54:10.483Z","obsTime":1775965860,"reportTime":"2026-04-12T04:00:00.000Z","temp":11.7,"dewp":8.9,"wdir":150,"wspd":5,"visib":"10+","altim":1027.9,"slp":1027.8,"qcField":4,"metarType":"METAR","rawOb":"METAR KORF 120351Z 15005KT 10SM CLR 12/09 A3035 RMK AO2 SLP278 T01170089","lat":36.9037,"lon":-76.1927,"elev":5,"name":"Norfolk Intl, VA, US","cover":"CLR","clouds":[],"fltCat":"VFR"},{"icaoId":"KOXR","receiptTime":"2026-04-12T03:54:09.127Z","obsTime":1775965860,"reportTime":"2026-04-12T04:00:00.000Z","temp":15.6,"dewp":12.2,"wdir":280,"wspd":4,"visib":"10+","altim":1014.6,"slp":1014.3,"qcField":6,"metarType":"METAR","rawOb":"METAR KOXR 120351Z AUTO 28004KT 10SM SCT025 16/12 A2996 RMK AO2 SLP143 T01560122","lat":34.2001,"lon":-119.2042,"elev":12,"name":"Oxnard Arpt, CA, US","cover":"SCT","clouds":[{"cover":"SCT","base":2500}],"fltCat":"VFR"},{"icaoId":"KCRP","receiptTime":"2026-04-12T03:54:08.784Z","obsTime":1775965860,"reportTime":"2026-04-12T04:00:00.000Z","temp":23.9,"dewp":21.7,"wdir":140,"wspd":19,"visib":"10+","altim":1018.4,"slp":1018.2,"qcField":4,"metarType":"METAR","rawOb":"METAR KCRP 120351Z 14019KT 10SM BKN014 BKN022 OVC030 24/22 A3007 RMK AO2 SLP182 T02390217","lat":27.7734,"lon":-97.513,"elev":11,"name":"Corpus Christi Intl, TX, US","cover":"OVC","clouds":[{"cover":"BKN","base":1400},{"cover":"BKN","base":2200},{"cover":"OVC","base":3000}],"fltCat":"MVFR"},{"icaoId":"KJFK","receiptTime":"2026-04-12T03:54:09.011Z","obsTime":1775965860,"reportTime":"2026-04-12T04:00:00.000Z","temp":10,"dewp":-3.3,"wdir":40,"wspd":10,"visib":"10+","altim":1029.2,"slp":1029.1,"qcField":4,"metarType":"METAR","rawOb":"METAR KJFK 120351Z 04010KT 10SM CLR 10/M03 A3039 RMK AO2 SLP291 T01001033","lat":40.6392,"lon":-73.7639,"elev":3,"name":"New York/JF Kennedy Intl, NY, US","cover":"CLR","clouds":[],"fltCat":"VFR"},{"icaoId":"KSAD","receiptTime":"2026-04-12T03:54:08.356Z","obsTime":1775965860,"reportTime":"2026-04-12T04:00:00.000Z","temp":21.1,"dewp":-1.7,"wdir":300,"wspd":8,"visib":"10+","altim":1013.6,"slp":1009.5,"qcField":6,"metarType":"METAR","rawOb":"METAR KSAD 120351Z AUTO 30008KT 10SM CLR 21/M02 A2993 RMK AO2 SLP095 T02111017","lat":32.8565,"lon":-109.636,"elev":937,"name":"Safford Rgnl, AZ, US","cover":"CLR","clouds":[],"fltCat":"VFR"},{"icaoId":"KSAN","receiptTime":"2026-04-12T03:54:09.187Z","obsTime":1775965860,"reportTime":"2026-04-12T04:00:00.000Z","temp":17.2,"dewp":12.2,"wdir":310,"wspd":4,"visib":"10+","altim":1016.3,"slp":1016,"qcField":12,"metarType":"METAR","rawOb":"METAR KSAN 120351Z 31004KT 10SM FEW020 17/12 A3001 RMK AO2 SLP160 T01720122 $","lat":32.7364,"lon":-117.1973,"elev":3,"name":"San Diego Intl Arpt, CA, US","cover":"FEW","clouds":[{"cover":"FEW","base":2000}],"fltCat":"VFR"},{"icaoId":"KSAT","receiptTime":"2026-04-12T03:54:09.617Z","obsTime":1775965860,"reportTime":"2026-04-12T04:00:00.000Z","temp":23.3,"dewp":18.9,"wdir":130,"wspd":16,"wgst":26,"visib":"10+","altim":1017.4,"slp":1015.6,"qcField":4,"metarType":"METAR","rawOb":"METAR KSAT 120351Z 13016G26KT 10SM BKN023 OVC031 23/19 A3004 RMK AO2 PK WND 16027/0255 SLP156 T02330189","lat":29.5443,"lon":-98.4839,"elev":246,"name":"San Antonio Intl, TX, US","cover":"OVC","clouds":[{"cover":"BKN","base":2300},{"cover":"OVC","base":3100}],"fltCat":"MVFR"},{"icaoId":"KBDL","receiptTime":"2026-04-12T03:54:10.079Z","obsTime":1775965860,"reportTime":"2026-04-12T04:00:00.000Z","temp":6.7,"dewp":-3.3,"wdir":330,"wspd":9,"visib":"10+","altim":1029.9,"slp":1029.7,"qcField":4,"metarType":"METAR","rawOb":"METAR KBDL 120351Z 33009KT 10SM CLR 07/M03 A3041 RMK AO2 SLP297 T00671033","lat":41.9374,"lon":-72.682,"elev":52,"name":"Hartford/Bradley Intl, CT, US","cover":"CLR","clouds":[],"fltCat":"VFR"},{"icaoId":"KEWR","receiptTime":"2026-04-12T03:54:08.850Z","obsTime":1775965860,"reportTime":"2026-04-12T04:00:00.000Z","temp":10.6,"dewp":-3.9,"wdir":10,"wspd":8,"visib":"10+","altim":1029.2,"slp":1028.9,"qcField":4,"metarType":"METAR","rawOb":"METAR KEWR 120351Z 01008KT 10SM CLR 11/M04 A3039 RMK AO2 SLP289 T01061039","lat":40.6828,"lon":-74.1692,"elev":2,"name":"Newark Intl, NJ, US","cover":"CLR","clouds":[],"fltCat":"VFR"},{"icaoId":"KELP","receiptTime":"2026-04-12T03:54:10.373Z","obsTime":1775965860,"reportTime":"2026-04-12T04:00:00.000Z","temp":17.2,"dewp":9.4,"wdir":150,"wspd":6,"visib":"10+","altim":1017.4,"slp":1012.1,"qcField":4,"metarType":"METAR","rawOb":"METAR KELP 120351Z 15006KT 10SM FEW120 SCT190 OVC250 17/09 A3004 RMK AO2 SLP121 T01720094","lat":31.8123,"lon":-106.3774,"elev":1205,"name":"El Paso Intl, TX, US","cover":"OVC","clouds":[{"cover":"FEW","base":12000},{"cover":"SCT","base":19000},{"cover":"OVC","base":25000}],"fltCat":"VFR"},{"icaoId":"KCLE","receiptTime":"2026-04-12T03:54:08.740Z","obsTime":1775965860,"reportTime":"2026-04-12T04:00:00.000Z","temp":5,"dewp":-7.2,"wdir":100,"wspd":3,"visib":"10+","altim":1028.2,"slp":1030.1,"qcField":12,"metarType":"METAR","rawOb":"METAR KCLE 120351Z 10003KT 10SM SCT140 SCT250 05/M07 A3036 RMK AO2 SLP301 T00501072 $","lat":41.4057,"lon":-81.8519,"elev":237,"name":"Cleveland/Hopkins Intl, OH, US","cover":"SCT","clouds":[{"cover":"SCT","base":14000},{"cover":"SCT","base":25000}],"fltCat":"VFR"},{"icaoId":"KLGA","receiptTime":"2026-04-12T03:54:09.030Z","obsTime":1775965860,"reportTime":"2026-04-12T04:00:00.000Z","temp":10.6,"dewp":-2.8,"wdir":30,"wspd":9,"visib":"10+","altim":1029.2,"slp":1029,"qcField":4,"metarType":"METAR","rawOb":"METAR KLGA 120351Z 03009KT 10SM CLR 11/M03 A3039 RMK AO2 SLP290 T01061028","lat":40.7794,"lon":-73.8803,"elev":9,"name":"New York/La Guardia Arpt, NY, US","cover":"CLR","clouds":[],"fltCat":"VFR"},{"icaoId":"KIGM","receiptTime":"2026-04-12T03:54:08.937Z","obsTime":1775965860,"reportTime":"2026-04-12T04:00:00.000Z","temp":16.1,"dewp":-9.4,"wdir":170,"wspd":9,"visib":"10+","altim":1012.3,"slp":1007,"qcField":6,"metarType":"METAR","rawOb":"METAR KIGM 120351Z AUTO 17009KT 10SM CLR 16/M09 A2989 RMK AO2 SLP070 T01611094","lat":35.2575,"lon":-113.9341,"elev":1045,"name":"Kingman Arpt, AZ, US","cover":"CLR","clouds":[],"fltCat":"VFR"},{"icaoId":"KPHX","receiptTime":"2026-04-12T03:54:10.502Z","obsTime":1775965860,"reportTime":"2026-04-12T04:00:00.000Z","temp":27.8,"dewp":-1.7,"wdir":270,"wspd":14,"visib":"10+","altim":1009.9,"slp":1008.1,"qcField":4,"metarType":"METAR","rawOb":"METAR KPHX 120351Z 27014KT 10SM FEW100 FEW250 28/M02 A2982 RMK AO2 SLP081 T02781017","lat":33.4278,"lon":-112.0037,"elev":338,"name":"Phoenix/Sky Harbor Intl, AZ, US","cover":"FEW","clouds":[{"cover":"FEW","base":10000},{"cover":"FEW","base":25000}],"fltCat":"VFR"},{"icaoId":"KPIT","receiptTime":"2026-04-12T03:54:09.938Z","obsTime":1775965860,"reportTime":"2026-04-12T04:00:00.000Z","temp":8.3,"dewp":-1.7,"wdir":80,"wspd":4,"visib":"10+","altim":1027.9,"slp":1029,"qcField":12,"metarType":"METAR","rawOb":"METAR KPIT 120351Z 08004KT 10SM SCT250 08/M02 A3035 RMK AO2 SLP290 T00831017 $","lat":40.4814,"lon":-80.2083,"elev":339,"name":"Pittsburgh Intl, PA, US","cover":"SCT","clouds":[{"cover":"SCT","base":25000}],"fltCat":"VFR"},{"icaoId":"KVNY","receiptTime":"2026-04-12T03:54:09.383Z","obsTime":1775965860,"reportTime":"2026-04-12T04:00:00.000Z","temp":15.6,"dewp":8.9,"wdir":"VRB","wspd":5,"visib":"10+","altim":1014.6,"slp":1014,"qcField":12,"metarType":"METAR","rawOb":"METAR KVNY 120351Z VRB05KT 10SM FEW026 16/09 A2996 RMK AO2 SLP140 T01560089 $","lat":34.2121,"lon":-118.4915,"elev":241,"name":"Van Nuys Arpt, CA, US","cover":"FEW","clouds":[{"cover":"FEW","base":2600}],"fltCat":"VFR"},{"icaoId":"KCMH","receiptTime":"2026-04-12T03:54:09.898Z","obsTime":1775965860,"reportTime":"2026-04-12T04:00:00.000Z","temp":10,"dewp":2.2,"wdir":90,"wspd":5,"visib":"10+","altim":1026.5,"slp":1026.6,"qcField":4,"metarType":"METAR","rawOb":"METAR KCMH 120351Z 09005KT 10SM SCT250 10/02 A3031 RMK AO2 SLP266 T01000022","lat":39.9907,"lon":-82.877,"elev":257,"name":"Columbus/Glenn Intl, OH, US","cover":"SCT","clouds":[{"cover":"SCT","base":25000}],"fltCat":"VFR"},{"icaoId":"KPVD","receiptTime":"2026-04-12T03:54:10.550Z","obsTime":1775965860,"reportTime":"2026-04-12T04:00:00.000Z","temp":8.9,"dewp":-2.2,"wdir":320,"wspd":7,"visib":"10+","altim":1028.5,"slp":1028.4,"qcField":12,"metarType":"METAR","rawOb":"METAR KPVD 120351Z 32007KT 10SM CLR 09/M02 A3037 RMK AO2 SLP284 LAST T00891022 $","lat":41.7225,"lon":-71.4325,"elev":15,"name":"Providence/Green Mem, RI, US","cover":"CLR","clouds":[],"fltCat":"VFR"},{"icaoId":"KSTL","receiptTime":"2026-04-12T03:54:09.324Z","obsTime":1775965860,"reportTime":"2026-04-12T04:00:00.000Z","temp":20,"dewp":13.9,"wdir":150,"wspd":12,"visib":"10+","altim":1020.7,"slp":1020,"qcField":12,"metarType":"METAR","rawOb":"METAR KSTL 120351Z 15012KT 10SM FEW120 SCT220 20/14 A3014 RMK AO2 SLP200 T02000139 $","lat":38.7525,"lon":-90.3734,"elev":163,"name":"St Louis/Lambert Intl, MO, US","cover":"SCT","clouds":[{"cover":"FEW","base":12000},{"cover":"SCT","base":22000}],"fltCat":"VFR"},{"icaoId":"KRDU","receiptTime":"2026-04-12T03:54:08.282Z","obsTime":1775965860,"reportTime":"2026-04-12T04:00:00.000Z","temp":20,"dewp":10.6,"wdir":130,"wspd":15,"wgst":20,"visib":"10+","altim":1025.8,"slp":1025.2,"qcField":4,"metarType":"METAR","rawOb":"METAR KRDU 120351Z 13015G20KT 10SM BKN090 BKN110 20/11 A3029 RMK AO2 SLP252 T02000106","lat":35.8923,"lon":-78.782,"elev":121,"name":"Raleigh-Durham Intl, NC, US","cover":"BKN","clouds":[{"cover":"BKN","base":9000},{"cover":"BKN","base":11000}],"fltCat":"VFR"},{"icaoId":"KGYR","receiptTime":"2026-04-12T03:50:41.150Z","obsTime":1775965620,"reportTime":"2026-04-12T04:00:00.000Z","temp":26,"dewp":-2,"wdir":250,"wspd":8,"visib":"10+","altim":1010.6,"qcField":0,"metarType":"METAR","rawOb":"METAR KGYR 120347Z 25008KT 10SM FEW120 SCT250 26/M02 A2984 RMK LAST","lat":33.428,"lon":-112.368,"elev":292,"name":"Phoenix/Goodyear Muni, AZ, US","cover":"SCT","clouds":[{"cover":"FEW","base":12000},{"cover":"SCT","base":25000}],"fltCat":"VFR"},{"icaoId":"KRYN","receiptTime":"2026-04-12T02:46:45.585Z","obsTime":1775961900,"reportTime":"2026-04-12T03:00:00.000Z","temp":25,"dewp":-3,"wdir":210,"wspd":6,"visib":"10+","altim":1012.6,"qcField":0,"metarType":"METAR","rawOb":"METAR KRYN 120245Z 21006KT 10SM CLR 25/M03 A2990","lat":32.1418,"lon":-111.1767,"elev":731,"name":"Tucson/Ryan Fld, AZ, US","cover":"CLR","clouds":[],"fltCat":"VFR"}]