[{"icaoId":"KBTV","receiptTime":"2026-04-16T02:22:06.619Z","obsTime":1776305880,"reportTime":"2026-04-16T02:18:00.000Z","temp":10,"dewp":8.9,"wdir":0,"wspd":0,"visib":3,"altim":1011.9,"qcField":4,"wxString":"BR","metarType":"SPECI","rawOb":"SPECI KBTV 160218Z 00000KT 3SM BR FEW004 SCT014 OVC100 10/09 A2988 RMK AO2 SFC VIS 4 T01000089","lat":44.4682,"lon":-73.1499,"elev":101,"name":"Burlington Intl, VT, US","cover":"OVC","clouds":[{"cover":"FEW","base":400},{"cover":"SCT","base":1400},{"cover":"OVC","base":10000}],"fltCat":"MVFR"},{"icaoId":"KBOI","receiptTime":"2026-04-16T02:22:06.664Z","obsTime":1776305880,"reportTime":"2026-04-16T02:18:00.000Z","temp":6.1,"dewp":3.9,"wdir":330,"wspd":16,"wgst":25,"visib":"10+","altim":1008.5,"qcField":4,"wxString":"-RA","precip":0.005,"metarType":"SPECI","rawOb":"SPECI KBOI 160218Z 33016G25KT 10SM -RA FEW015 SCT026 OVC038 06/04 A2978 RMK AO2 P0000 T00610039","lat":43.567,"lon":-116.2406,"elev":860,"name":"Boise Arpt, ID, US","cover":"OVC","clouds":[{"cover":"FEW","base":1500},{"cover":"SCT","base":2600},{"cover":"OVC","base":3800}],"fltCat":"VFR"},{"icaoId":"KMYL","receiptTime":"2026-04-16T02:22:06.690Z","obsTime":1776305880,"reportTime":"2026-04-16T02:18:00.000Z","temp":0.6,"dewp":-1.1,"wdir":0,"wspd":0,"visib":"10+","altim":1006.9,"qcField":6,"precip":0.01,"metarType":"SPECI","rawOb":"SPECI KMYL 160218Z AUTO 00000KT 10SM FEW009 SCT021 OVC075 01/M01 A2973 RMK AO2 SNE08 P0001 T00061011","lat":44.8943,"lon":-116.0998,"elev":1532,"name":"McCall Muni, ID, US","cover":"OVC","clouds":[{"cover":"FEW","base":900},{"cover":"SCT","base":2100},{"cover":"OVC","base":7500}],"fltCat":"VFR"},{"icaoId":"KPSP","receiptTime":"2026-04-16T02:20:17.027Z","obsTime":1776305760,"reportTime":"2026-04-16T02:16:00.000Z","temp":27.2,"dewp":5,"wdir":330,"wspd":12,"visib":"10+","altim":1010.9,"qcField":12,"metarType":"SPECI","rawOb":"SPECI KPSP 160216Z 33012KT 10SM CLR 27/05 A2985 RMK AO2 WSHFT 0156 T02720050 $","lat":33.8222,"lon":-116.5043,"elev":123,"name":"Palm Springs Intl, CA, US","cover":"CLR","clouds":[],"fltCat":"VFR"},{"icaoId":"KORD","receiptTime":"2026-04-16T02:20:17.000Z","obsTime":1776305760,"reportTime":"2026-04-16T02:16:00.000Z","temp":21.7,"dewp":16.1,"wdir":210,"wspd":16,"wgst":24,"visib":"10+","altim":1007.5,"qcField":4,"metarType":"SPECI","rawOb":"SPECI KORD 160216Z 21016G24KT 10SM BKN027 BKN035 OVC047 22/16 A2975 RMK AO2 PK WND 22028/0204 T02170161","lat":41.9602,"lon":-87.9316,"elev":202,"name":"Chicago/O'Hare Intl, IL, US","cover":"OVC","clouds":[{"cover":"BKN","base":2700},{"cover":"BKN","base":3500},{"cover":"OVC","base":4700}],"fltCat":"MVFR"},{"icaoId":"KHCR","receiptTime":"2026-04-16T02:18:17.334Z","obsTime":1776305700,"reportTime":"2026-04-16T02:15:00.000Z","temp":15.9,"dewp":-6.7,"wdir":220,"wspd":12,"wgst":21,"visib":9,"altim":1009.6,"qcField":14,"metarType":"METAR","rawOb":"METAR KHCR 160215Z AUTO 22012G21KT 9SM OVC100 16/M07 A2981 RMK AO2 T01591067 $","lat":40.4774,"lon":-111.4329,"elev":1708,"name":"Heber City Muni, UT, US","cover":"OVC","clouds":[{"cover":"OVC","base":10000}],"fltCat":"VFR"},{"icaoId":"KMHR","receiptTime":"2026-04-16T02:20:59.043Z","obsTime":1776305700,"reportTime":"2026-04-16T02:15:00.000Z","temp":17,"dewp":11,"wdir":190,"wspd":7,"visib":"10+","altim":1015.3,"qcField":6,"metarType":"METAR","rawOb":"METAR KMHR 160215Z AUTO 19007KT 10SM SCT095 17/11 A2998 RMK AO2","lat":38.56,"lon":-121.284,"elev":30,"name":"Sacramento/Mather Fld, CA, US","cover":"SCT","clouds":[{"cover":"SCT","base":9500}],"fltCat":"VFR"},{"icaoId":"KRTS","receiptTime":"2026-04-16T02:21:07.440Z","obsTime":1776305700,"reportTime":"2026-04-16T02:15:00.000Z","temp":10,"dewp":-2,"wdir":240,"wspd":18,"wgst":23,"visib":"10+","altim":1014.3,"qcField":6,"metarType":"METAR","rawOb":"METAR KRTS 160215Z AUTO 24018G23KT 10SM CLR 10/M02 A2995 RMK AO2","lat":39.6658,"lon":-119.8731,"elev":1537,"name":"Reno/Stead Arpt, NV, US","cover":"CLR","clouds":[],"fltCat":"VFR"},{"icaoId":"KSOW","receiptTime":"2026-04-16T02:18:15.588Z","obsTime":1776305700,"reportTime":"2026-04-16T02:15:00.000Z","temp":14,"dewp":-7,"wdir":210,"wspd":8,"visib":"10+","altim":1019,"qcField":6,"metarType":"METAR","rawOb":"METAR KSOW 160215Z AUTO 21008KT 10SM CLR 14/M07 A3009 RMK AO2","lat":34.2686,"lon":-110.0019,"elev":1954,"name":"Show Low Muni, AZ, US","cover":"CLR","clouds":[],"fltCat":"VFR"},{"icaoId":"KIFP","receiptTime":"2026-04-16T02:21:13.040Z","obsTime":1776305700,"reportTime":"2026-04-16T02:15:00.000Z","temp":29,"dewp":-6,"wdir":180,"wspd":10,"visib":"10+","altim":1009.6,"qcField":6,"metarType":"METAR","rawOb":"METAR KIFP 160215Z AUTO 18010KT 10SM CLR 29/M06 A2981 RMK AO2","lat":35.1487,"lon":-114.5611,"elev":210,"name":"Bullhead City Intl, AZ, US","cover":"CLR","clouds":[],"fltCat":"VFR"},{"icaoId":"KHTH","receiptTime":"2026-04-16T02:21:12.488Z","obsTime":1776305700,"reportTime":"2026-04-16T02:15:00.000Z","temp":18,"dewp":-4,"wdir":270,"wspd":11,"wgst":17,"visib":"10+","altim":1013,"qcField":6,"metarType":"METAR","rawOb":"METAR KHTH 160215Z AUTO 27011G17KT 10SM CLR 18/M04 A2991 RMK A01","lat":38.5448,"lon":-118.6314,"elev":1281,"name":"Hawthorne Muni, NV, US","cover":"CLR","clouds":[],"fltCat":"VFR"},{"icaoId":"KCXP","receiptTime":"2026-04-16T02:21:05.439Z","obsTime":1776305700,"reportTime":"2026-04-16T02:15:00.000Z","temp":12,"dewp":-2,"wdir":230,"wspd":15,"wgst":25,"visib":"10+","altim":1015,"qcField":6,"metarType":"METAR","rawOb":"METAR KCXP 160215Z AUTO 23015G25KT 10SM FEW060 12/M02 A2997 RMK AO2","lat":39.1905,"lon":-119.7319,"elev":1431,"name":"Carson City Arpt, NV, US","cover":"FEW","clouds":[{"cover":"FEW","base":6000}],"fltCat":"VFR"},{"icaoId":"KBJC","receiptTime":"2026-04-16T02:21:03.356Z","obsTime":1776305700,"reportTime":"2026-04-16T02:15:00.000Z","temp":14,"dewp":-7,"wdir":260,"wspd":11,"wgst":21,"visib":"10+","altim":1012.3,"qcField":6,"metarType":"METAR","rawOb":"METAR KBJC 160215Z AUTO 26011G21KT 10SM CLR 14/M07 A2989 RMK AO2","lat":39.9008,"lon":-105.1042,"elev":1694,"name":"Rocky Mtn Metro, CO, US","cover":"CLR","clouds":[],"fltCat":"VFR"},{"icaoId":"KSEZ","receiptTime":"2026-04-16T02:21:08.619Z","obsTime":1776305700,"reportTime":"2026-04-16T02:15:00.000Z","temp":18,"dewp":-5,"wdir":220,"wspd":6,"wgst":15,"visib":"10+","altim":1016.3,"qcField":6,"metarType":"METAR","rawOb":"METAR KSEZ 160215Z AUTO 22006G15KT 10SM CLR 18/M05 A3001 RMK AO2","lat":34.8467,"lon":-111.7884,"elev":1455,"name":"Sedona Arpt, AZ, US","cover":"CLR","clouds":[],"fltCat":"VFR"},{"icaoId":"KMEV","receiptTime":"2026-04-16T02:20:58.937Z","obsTime":1776305700,"reportTime":"2026-04-16T02:15:00.000Z","temp":12,"dewp":-2,"wdir":210,"wspd":14,"wgst":20,"visib":"10+","altim":1015.3,"qcField":6,"metarType":"METAR","rawOb":"METAR KMEV 160215Z AUTO 21014G20KT 10SM BKN070 BKN075 12/M02 A2998 RMK AO2","lat":38.9963,"lon":-119.75,"elev":1437,"name":"Minden-Tahoe Arpt, NV, US","cover":"BKN","clouds":[{"cover":"BKN","base":7000},{"cover":"BKN","base":7500}],"fltCat":"VFR"},{"icaoId":"KLRU","receiptTime":"2026-04-16T02:18:20.421Z","obsTime":1776305700,"reportTime":"2026-04-16T02:15:00.000Z","temp":16.9,"dewp":-26,"wdir":260,"wspd":8,"visib":"10+","altim":1016.3,"qcField":6,"metarType":"METAR","rawOb":"METAR KLRU 160215Z AUTO 26008KT 10SM CLR 17/M26 A3001 RMK AO2 T01691260","lat":32.2884,"lon":-106.9131,"elev":1355,"name":"Las Cruces Intl, NM, US","cover":"CLR","clouds":[],"fltCat":"VFR"},{"icaoId":"KBVU","receiptTime":"2026-04-16T02:16:08.468Z","obsTime":1776305700,"reportTime":"2026-04-16T02:15:00.000Z","temp":25,"dewp":-9,"wdir":180,"wspd":5,"visib":"10+","altim":1010.2,"qcField":6,"metarType":"METAR","rawOb":"METAR KBVU 160215Z AUTO 18005KT 10SM CLR 25/M09 A2983 RMK AO2","lat":35.9489,"lon":-114.8633,"elev":654,"name":"Boulder City Muni, NV, US","cover":"CLR","clouds":[],"fltCat":"VFR"},{"icaoId":"KHII","receiptTime":"2026-04-16T02:21:11.837Z","obsTime":1776305700,"reportTime":"2026-04-16T02:15:00.000Z","temp":28,"dewp":-3,"wdir":190,"wspd":7,"visib":"10+","altim":1010.6,"qcField":6,"metarType":"METAR","rawOb":"METAR KHII 160215Z AUTO 19007KT 10SM CLR 28/M03 A2984 RMK AO2","lat":34.5659,"lon":-114.3522,"elev":241,"name":"Lake Havasu City Arpt, AZ, US","cover":"CLR","clouds":[],"fltCat":"VFR"},{"icaoId":"KHAF","receiptTime":"2026-04-16T02:18:17.299Z","obsTime":1776305700,"reportTime":"2026-04-16T02:15:00.000Z","temp":13,"dewp":12,"wdir":320,"wspd":12,"visib":9,"altim":1019,"qcField":6,"metarType":"METAR","rawOb":"METAR KHAF 160215Z AUTO 32012KT 9SM SCT017 BKN022 13/12 A3009 RMK AO2","lat":37.5136,"lon":-122.4996,"elev":11,"name":"Half Moon Bay Arpt, CA, US","cover":"BKN","clouds":[{"cover":"SCT","base":1700},{"cover":"BKN","base":2200}],"fltCat":"MVFR"},{"icaoId":"KHOB","receiptTime":"2026-04-16T02:18:19.121Z","obsTime":1776305700,"reportTime":"2026-04-16T02:15:00.000Z","temp":19,"dewp":-14,"wdir":270,"wspd":9,"visib":"10+","altim":1014,"qcField":6,"metarType":"METAR","rawOb":"METAR KHOB 160215Z AUTO 27009KT 10SM CLR 19/M14 A2994 RMK AO2","lat":32.6797,"lon":-103.2222,"elev":1112,"name":"Hobbs Arpt, NM, US","cover":"CLR","clouds":[],"fltCat":"VFR"},{"icaoId":"KPNC","receiptTime":"2026-04-16T02:14:20.617Z","obsTime":1776305460,"reportTime":"2026-04-16T02:11:00.000Z","temp":22.2,"dewp":10,"wdir":0,"wspd":0,"visib":"10+","altim":1007.9,"qcField":6,"wxString":"TS","metarType":"SPECI","rawOb":"SPECI KPNC 160211Z AUTO 00000KT 10SM TS SCT070 BKN100 22/10 A2976 RMK AO2 LTG DSNT E AND SW TSB11 T02220100","lat":36.7369,"lon":-97.1024,"elev":304,"name":"Ponca City Rgnl, OK, US","cover":"BKN","clouds":[{"cover":"SCT","base":7000},{"cover":"BKN","base":10000}],"fltCat":"VFR"},{"icaoId":"KSEA","receiptTime":"2026-04-16T02:14:20.889Z","obsTime":1776305400,"reportTime":"2026-04-16T02:10:00.000Z","temp":3.9,"dewp":2.2,"wdir":60,"wspd":8,"visib":6,"altim":1013.3,"qcField":12,"wxString":"-RA BR","precip":0.01,"metarType":"SPECI","rawOb":"SPECI KSEA 160210Z 06008KT 6SM -RA BR BKN028 OVC036 04/02 A2992 RMK AO2 P0001 T00390022 $","lat":47.4447,"lon":-122.3144,"elev":115,"name":"Seattle-Tacoma Intl, WA, US","cover":"OVC","clouds":[{"cover":"BKN","base":2800},{"cover":"OVC","base":3600}],"fltCat":"MVFR"},{"icaoId":"KSTL","receiptTime":"2026-04-16T02:12:05.373Z","obsTime":1776305280,"reportTime":"2026-04-16T02:08:00.000Z","temp":20,"dewp":18.3,"wdir":220,"wspd":9,"visib":1.5,"altim":1011.6,"qcField":4,"wxString":"+TSRA BR","precip":0.04,"metarType":"SPECI","rawOb":"SPECI KSTL 160208Z 22009KT 1 1/2SM +TSRA BR FEW027 BKN055CB OVC110 20/18 A2987 RMK AO2 CONS LTGCCCG ALQDS TS ALQDS MOV NE P0004 T02000183","lat":38.7525,"lon":-90.3734,"elev":163,"name":"St Louis/Lambert Intl, MO, US","cover":"OVC","clouds":[{"cover":"FEW","base":2700},{"cover":"BKN","base":5500},{"cover":"OVC","base":11000}],"fltCat":"IFR"},{"icaoId":"KMKE","receiptTime":"2026-04-16T02:08:22.000Z","obsTime":1776305100,"reportTime":"2026-04-16T02:05:00.000Z","temp":15.6,"dewp":15,"wdir":300,"wspd":8,"visib":4,"altim":1006.5,"qcField":12,"wxString":"+TSRA BR","precip":0.08,"metarType":"SPECI","rawOb":"SPECI KMKE 160205Z 30008KT 4SM +TSRA BR SCT003 SCT024 OVC041CB 16/15 A2972 RMK AO2 FRQ LTGCGICCC OHD TS OHD MOV NE FRQ LTG DSNT ALQDS P0008 T01560150 $","lat":42.9549,"lon":-87.9045,"elev":203,"name":"Milwaukee/Mitchell Intl, WI, US","cover":"OVC","clouds":[{"cover":"SCT","base":300},{"cover":"SCT","base":2400},{"cover":"OVC","base":4100}],"fltCat":"MVFR"},{"icaoId":"KROC","receiptTime":"2026-04-16T02:08:21.852Z","obsTime":1776305040,"reportTime":"2026-04-16T02:04:00.000Z","temp":15,"dewp":14.4,"wdir":170,"wspd":9,"visib":8,"altim":1011.9,"qcField":12,"wxString":"-RA","precip":0.005,"metarType":"SPECI","rawOb":"SPECI KROC 160204Z 17009KT 8SM -RA BKN004 BKN032 OVC046 15/14 A2988 RMK AO2 CIG 003V010 P0000 T01500144 $","lat":43.1172,"lon":-77.6754,"elev":166,"name":"Rochester Intl Arpt, NY, US","cover":"OVC","clouds":[{"cover":"BKN","base":400},{"cover":"BKN","base":3200},{"cover":"OVC","base":4600}],"fltCat":"LIFR"},{"icaoId":"KMLC","receiptTime":"2026-04-16T02:06:14.055Z","obsTime":1776304980,"reportTime":"2026-04-16T02:03:00.000Z","temp":16.7,"dewp":15,"wdir":"VRB","wspd":3,"visib":"10+","altim":1010.9,"qcField":6,"wxString":"VCTS -RA","precip":0.005,"metarType":"SPECI","rawOb":"SPECI KMLC 160203Z AUTO VRB03KT 10SM VCTS -RA FEW080 OVC100 17/15 A2985 RMK AO2 LTG DSNT ALQDS PRESFR P0000 T01670150","lat":34.8824,"lon":-95.7815,"elev":231,"name":"McAlester Rgnl, OK, US","cover":"OVC","clouds":[{"cover":"FEW","base":8000},{"cover":"OVC","base":10000}],"fltCat":"VFR"},{"icaoId":"KNFL","receiptTime":"2026-04-16T02:01:19.926Z","obsTime":1776304620,"reportTime":"2026-04-16T02:00:00.000Z","temp":15.6,"dewp":-2.2,"wdir":280,"wspd":12,"visib":"10+","altim":1012.6,"slp":1009.9,"qcField":4,"metarType":"METAR","rawOb":"METAR KNFL 160157Z 28012KT 10SM SCT070 SCT100 BKN150 BKN220 16/M02 A2990 RMK AO2 PK WND 26026/0117 SLP099 ACSL DSNT ALQDS T01561022","lat":39.417,"lon":-118.705,"elev":1199,"name":"Fallon , NV, US","cover":"BKN","clouds":[{"cover":"SCT","base":7000},{"cover":"SCT","base":10000},{"cover":"BKN","base":15000},{"cover":"BKN","base":22000}],"fltCat":"VFR"},{"icaoId":"KFLG","receiptTime":"2026-04-16T02:01:20.389Z","obsTime":1776304620,"reportTime":"2026-04-16T02:00:00.000Z","temp":11.1,"dewp":-5.6,"wdir":210,"wspd":6,"visib":"10+","altim":1019.4,"slp":1015.1,"qcField":6,"metarType":"METAR","rawOb":"METAR KFLG 160157Z AUTO 21006KT 10SM CLR 11/M06 A3010 RMK AO2 SLP151 T01111056","lat":35.1443,"lon":-111.6664,"elev":2134,"name":"Flagstaff/Pulliam Arpt, AZ, US","cover":"CLR","clouds":[],"fltCat":"VFR"},{"icaoId":"KEGE","receiptTime":"2026-04-16T02:01:01.480Z","obsTime":1776304560,"reportTime":"2026-04-16T02:00:00.000Z","temp":10.6,"dewp":-3.9,"wdir":240,"wspd":5,"visib":"10+","altim":1016.3,"slp":1013.4,"qcField":6,"metarType":"METAR","rawOb":"METAR KEGE 160156Z AUTO 24005KT 10SM CLR 11/M04 A3001 RMK AO2 SLP134 T01061039","lat":39.6448,"lon":-106.9176,"elev":1993,"name":"Eagle Cnty Rgnl, CO, US","cover":"CLR","clouds":[],"fltCat":"VFR"},{"icaoId":"KDUG","receiptTime":"2026-04-16T02:02:13.614Z","obsTime":1776304560,"reportTime":"2026-04-16T02:00:00.000Z","temp":21.7,"dewp":-11.7,"wdir":270,"wspd":4,"visib":"10+","altim":1015.7,"slp":1011.3,"qcField":38,"metarType":"METAR","rawOb":"METAR KDUG 160156Z AUTO 27004KT 10SM CLR 22/M12 A2999 RMK AO2 SLP113 T02171117 TSNO","lat":31.4725,"lon":-109.6022,"elev":1260,"name":"Douglas/Bisbee Intl, AZ, US","cover":"CLR","clouds":[],"fltCat":"VFR"},{"icaoId":"KVIS","receiptTime":"2026-04-16T02:00:42.740Z","obsTime":1776304560,"reportTime":"2026-04-16T02:00:00.000Z","temp":23.3,"dewp":7.2,"wdir":300,"wspd":9,"visib":"10+","altim":1015,"slp":1014.8,"qcField":14,"metarType":"METAR","rawOb":"METAR KVIS 160156Z AUTO 30009KT 10SM CLR 23/07 A2997 RMK AO2 SLP148 T02330072 PNO $","lat":36.3135,"lon":-119.3884,"elev":92,"name":"Visalia Muni, CA, US","cover":"CLR","clouds":[],"fltCat":"VFR"},{"icaoId":"KRDM","receiptTime":"2026-04-16T02:00:12.219Z","obsTime":1776304560,"reportTime":"2026-04-16T02:00:00.000Z","temp":2.2,"dewp":-4.4,"wdir":310,"wspd":13,"visib":"10+","altim":1013.6,"slp":1014.3,"qcField":4,"metarType":"METAR","rawOb":"METAR KRDM 160156Z 31013KT 10SM FEW030 BKN095 BKN120 02/M04 A2993 RMK AO2 PK WND 29029/0126 SLP143 T00221044","lat":44.2558,"lon":-121.1407,"elev":930,"name":"Redmond Muni, OR, US","cover":"BKN","clouds":[{"cover":"FEW","base":3000},{"cover":"BKN","base":9500},{"cover":"BKN","base":12000}],"fltCat":"VFR"},{"icaoId":"KSBP","receiptTime":"2026-04-16T02:00:12.474Z","obsTime":1776304560,"reportTime":"2026-04-16T02:00:00.000Z","temp":14.4,"dewp":9.4,"wdir":320,"wspd":13,"visib":"10+","altim":1016,"slp":1016,"qcField":4,"metarType":"METAR","rawOb":"METAR KSBP 160156Z 32013KT 10SM CLR 14/09 A3000 RMK AO2 SLP160 T01440094","lat":35.2381,"lon":-120.644,"elev":52,"name":"San Luis Obispo/San Luis Cnty, CA, US","cover":"CLR","clouds":[],"fltCat":"VFR"},{"icaoId":"KGUC","receiptTime":"2026-04-16T02:01:07.808Z","obsTime":1776304560,"reportTime":"2026-04-16T02:00:00.000Z","temp":7.8,"dewp":-5.6,"wdir":340,"wspd":6,"visib":"10+","altim":1018,"slp":1016.2,"qcField":14,"metarType":"METAR","rawOb":"METAR KGUC 160156Z AUTO 34006KT 10SM CLR 08/M06 A3006 RMK AO2 SLP162 T00781056 $","lat":38.5322,"lon":-106.9419,"elev":2337,"name":"Gunnison Arpt, CO, US","cover":"CLR","clouds":[],"fltCat":"VFR"},{"icaoId":"KHDN","receiptTime":"2026-04-16T02:00:13.536Z","obsTime":1776304560,"reportTime":"2026-04-16T02:00:00.000Z","temp":8.3,"dewp":-2.8,"wdir":220,"wspd":6,"visib":"10+","altim":1014.6,"slp":1013,"qcField":6,"metarType":"METAR","rawOb":"METAR KHDN 160156Z AUTO 22006KT 10SM BKN075 08/M03 A2996 RMK AO2 SLP130 T00831028","lat":40.4842,"lon":-107.2296,"elev":2012,"name":"Hayden/Yampa Valley Arpt, CO, US","cover":"BKN","clouds":[{"cover":"BKN","base":7500}],"fltCat":"VFR"},{"icaoId":"KHND","receiptTime":"2026-04-16T02:00:13.674Z","obsTime":1776304560,"reportTime":"2026-04-16T02:00:00.000Z","temp":25,"dewp":-9.4,"wdir":240,"wspd":10,"visib":"10+","altim":1011.9,"slp":1011.9,"qcField":12,"metarType":"METAR","rawOb":"METAR KHND 160156Z 24010KT 10SM CLR 25/M09 A2988 RMK AO2 SLP119 T02501094 $","lat":35.9657,"lon":-115.1343,"elev":740,"name":"Henderson Exec, NV, US","cover":"CLR","clouds":[],"fltCat":"VFR"},{"icaoId":"KJAC","receiptTime":"2026-04-16T02:00:14.391Z","obsTime":1776304560,"reportTime":"2026-04-16T02:00:00.000Z","temp":3.9,"dewp":0.6,"wdir":210,"wspd":10,"visib":"10+","altim":1009.6,"slp":1010.2,"qcField":4,"wxString":"-RA","precip":0.005,"metarType":"METAR","rawOb":"METAR KJAC 160156Z 21010KT 10SM -RA FEW035 BKN050 OVC065 04/01 A2981 RMK AO2 SLP102 P0000 T00390006","lat":43.6129,"lon":-110.7366,"elev":1967,"name":"Jackson Hole Arpt, WY, US","cover":"OVC","clouds":[{"cover":"FEW","base":3500},{"cover":"BKN","base":5000},{"cover":"OVC","base":6500}],"fltCat":"VFR"},{"icaoId":"KCGZ","receiptTime":"2026-04-16T02:00:15.669Z","obsTime":1776304560,"reportTime":"2026-04-16T02:00:00.000Z","temp":26.1,"dewp":-6.1,"wdir":320,"wspd":3,"visib":"10+","altim":1012.3,"slp":1011.4,"qcField":14,"metarType":"METAR","rawOb":"METAR KCGZ 160156Z AUTO 32003KT 10SM CLR 26/M06 A2989 RMK AO2 SLP114 T02611061 $","lat":32.9531,"lon":-111.7725,"elev":444,"name":"Casa Granda Muni, AZ, US","cover":"CLR","clouds":[],"fltCat":"VFR"},{"icaoId":"KCOD","receiptTime":"2026-04-16T02:00:15.893Z","obsTime":1776304560,"reportTime":"2026-04-16T02:00:00.000Z","temp":11.1,"dewp":-2.2,"wdir":230,"wspd":6,"visib":"10+","altim":1004.8,"slp":1002.7,"qcField":14,"metarType":"METAR","rawOb":"METAR KCOD 160156Z AUTO 23006KT 10SM CLR 11/M02 A2967 RMK AO2 SLP027 T01111022 $","lat":44.52,"lon":-109.0268,"elev":1550,"name":"Cody/Yellowstone Rgnl, WY, US","cover":"CLR","clouds":[],"fltCat":"VFR"},{"icaoId":"KFNL","receiptTime":"2026-04-16T02:00:16.390Z","obsTime":1776304560,"reportTime":"2026-04-16T02:00:00.000Z","temp":15.6,"dewp":-5,"wdir":260,"wspd":7,"visib":"10+","altim":1010.6,"slp":1007,"qcField":14,"metarType":"METAR","rawOb":"METAR KFNL 160156Z AUTO 26007KT 10SM CLR 16/M05 A2984 RMK AO2 SLP070 T01561050 $","lat":40.4427,"lon":-105.0097,"elev":1529,"name":"Fort Collins/N Colorado Rgnl, CO, US","cover":"CLR","clouds":[],"fltCat":"VFR"},{"icaoId":"KPWT","receiptTime":"2026-04-16T02:00:32.682Z","obsTime":1776304560,"reportTime":"2026-04-16T02:00:00.000Z","temp":4.4,"dewp":2.8,"wdir":70,"wspd":6,"visib":"10+","altim":1013.3,"slp":1013.8,"qcField":6,"metarType":"METAR","rawOb":"METAR KPWT 160156Z AUTO 07006KT 10SM OVC043 04/03 A2992 RMK AO2 SLP138 T00440028","lat":47.4942,"lon":-122.7594,"elev":143,"name":"Bremerton Arpt, WA, US","cover":"OVC","clouds":[{"cover":"OVC","base":4300}],"fltCat":"VFR"},{"icaoId":"KSDY","receiptTime":"2026-04-16T02:00:38.882Z","obsTime":1776304560,"reportTime":"2026-04-16T02:00:00.000Z","temp":14.4,"dewp":0.6,"wdir":0,"wspd":0,"visib":"10+","altim":1001.4,"slp":1001.9,"qcField":14,"metarType":"METAR","rawOb":"METAR KSDY 160156Z AUTO 00000KT 10SM CLR 14/01 A2957 RMK AO2 SLP019 T01440006 $","lat":47.7029,"lon":-104.1951,"elev":600,"name":"Sidney/Richland Muni, MT, US","cover":"CLR","clouds":[],"fltCat":"VFR"},{"icaoId":"KSGU","receiptTime":"2026-04-16T02:00:39.443Z","obsTime":1776304560,"reportTime":"2026-04-16T02:00:00.000Z","temp":22.8,"dewp":-6.7,"wdir":270,"wspd":11,"visib":"10+","altim":1011.9,"slp":1010,"qcField":6,"metarType":"METAR","rawOb":"METAR KSGU 160156Z AUTO 27011KT 10SM CLR 23/M07 A2988 RMK AO2 SLP100 T02281067","lat":37.0444,"lon":-113.5034,"elev":877,"name":"Saint George Muni, UT, US","cover":"CLR","clouds":[],"fltCat":"VFR"},{"icaoId":"KCOE","receiptTime":"2026-04-16T02:00:45.718Z","obsTime":1776304560,"reportTime":"2026-04-16T02:00:00.000Z","temp":6.7,"dewp":-7.2,"wdir":230,"wspd":20,"wgst":27,"visib":"10+","altim":1004.5,"slp":1007.1,"qcField":14,"metarType":"METAR","rawOb":"METAR KCOE 160156Z AUTO 23020G27KT 10SM SCT090 07/M07 A2966 RMK AO2 PK WND 26029/0059 SLP071 T00671072 PNO $","lat":47.7719,"lon":-116.8332,"elev":693,"name":"Coeur DAlene Arpt, ID, US","cover":"SCT","clouds":[{"cover":"SCT","base":9000}],"fltCat":"VFR"},{"icaoId":"KCEC","receiptTime":"2026-04-16T02:00:58.912Z","obsTime":1776304560,"reportTime":"2026-04-16T02:00:00.000Z","temp":10,"dewp":3.3,"wdir":330,"wspd":15,"wgst":23,"visib":"10+","altim":1021.4,"slp":1021.5,"qcField":6,"metarType":"METAR","rawOb":"METAR KCEC 160156Z AUTO 33015G23KT 10SM CLR 10/03 A3016 RMK AO2 SLP215 T01000033","lat":41.7836,"lon":-124.238,"elev":17,"name":"Crescent City/McNama, CA, US","cover":"CLR","clouds":[],"fltCat":"VFR"},{"icaoId":"KENV","receiptTime":"2026-04-16T02:01:01.908Z","obsTime":1776304560,"reportTime":"2026-04-16T02:00:00.000Z","temp":18.3,"dewp":-2.2,"wdir":250,"wspd":19,"wgst":24,"visib":"10+","altim":1008.2,"slp":1006.7,"qcField":6,"metarType":"METAR","rawOb":"METAR KENV 160156Z AUTO 25019G24KT 10SM CLR 18/M02 A2977 RMK AO2 PK WND 26030/0127 SLP067 T01831022","lat":40.7211,"lon":-114.0312,"elev":1291,"name":"Wendover Arpt, UT, US","cover":"CLR","clouds":[],"fltCat":"VFR"},{"icaoId":"KBZN","receiptTime":"2026-04-16T02:01:02.740Z","obsTime":1776304560,"reportTime":"2026-04-16T02:00:00.000Z","temp":10,"dewp":0.6,"wdir":150,"wspd":10,"visib":"10+","altim":1000.4,"slp":999.2,"qcField":4,"metarType":"METAR","rawOb":"METAR KBZN 160156Z 15010KT 10SM BKN090 OVC110 10/01 A2954 RMK AO2 SLP992 T01000006","lat":45.7876,"lon":-111.1615,"elev":1349,"name":"Bozeman/Gallatin Fld, MT, US","cover":"OVC","clouds":[{"cover":"BKN","base":9000},{"cover":"OVC","base":11000}],"fltCat":"VFR"},{"icaoId":"KINW","receiptTime":"2026-04-16T02:01:03.762Z","obsTime":1776304560,"reportTime":"2026-04-16T02:00:00.000Z","temp":17.8,"dewp":-6.7,"wdir":"VRB","wspd":5,"visib":"10+","altim":1016,"slp":1012.6,"qcField":6,"metarType":"METAR","rawOb":"METAR KINW 160156Z AUTO VRB05KT 10SM CLR 18/M07 A3000 RMK AO2 SLP126 T01781067","lat":35.0279,"lon":-110.7221,"elev":1492,"name":"Winslow/Lindberg Rgnl, AZ, US","cover":"CLR","clouds":[],"fltCat":"VFR"},{"icaoId":"KJAX","receiptTime":"2026-04-16T02:01:03.794Z","obsTime":1776304560,"reportTime":"2026-04-16T02:00:00.000Z","temp":20.6,"dewp":15.6,"wdir":150,"wspd":9,"visib":"10+","altim":1020.1,"slp":1020.1,"qcField":12,"metarType":"METAR","rawOb":"METAR KJAX 160156Z 15009KT 10SM CLR 21/16 A3012 RMK AO2 SLP201 T02060156 $","lat":30.4953,"lon":-81.6937,"elev":8,"name":"Jacksonville Intl, FL, US","cover":"CLR","clouds":[],"fltCat":"VFR"},{"icaoId":"KSFO","receiptTime":"2026-04-16T02:01:04.011Z","obsTime":1776304560,"reportTime":"2026-04-16T02:00:00.000Z","temp":14.4,"dewp":9.4,"wdir":280,"wspd":17,"wgst":25,"visib":"10+","altim":1018.4,"slp":1018.3,"qcField":12,"metarType":"METAR","rawOb":"METAR KSFO 160156Z 28017G25KT 10SM FEW020 FEW032 BKN200 14/09 A3007 RMK AO2 PK WND 28031/0130 SLP183 T01440094 $","lat":37.6196,"lon":-122.3656,"elev":2,"name":"San Francisco Intl, CA, US","cover":"BKN","clouds":[{"cover":"FEW","base":2000},{"cover":"FEW","base":3200},{"cover":"BKN","base":20000}],"fltCat":"VFR"},{"icaoId":"KLWS","receiptTime":"2026-04-16T02:01:05.948Z","obsTime":1776304560,"reportTime":"2026-04-16T02:00:00.000Z","temp":7.8,"dewp":-2.2,"wdir":230,"wspd":12,"visib":"10+","altim":1008.5,"slp":1008.8,"qcField":6,"precip":0.005,"metarType":"METAR","rawOb":"METAR KLWS 160156Z AUTO 23012KT 10SM OVC090 08/M02 A2978 RMK AO2 PK WND 24033/0135 WSHFT 0129 RAB17E46 SLP088 P0000 T00781022","lat":46.3746,"lon":-117.0153,"elev":435,"name":"Lewiston/Nez Perce Cnty, ID, US","cover":"OVC","clouds":[{"cover":"OVC","base":9000}],"fltCat":"VFR"},{"icaoId":"KCHS","receiptTime":"2026-04-16T02:01:06.054Z","obsTime":1776304560,"reportTime":"2026-04-16T02:00:00.000Z","temp":18.9,"dewp":15,"wdir":200,"wspd":5,"visib":"10+","altim":1020.1,"slp":1019.8,"qcField":4,"metarType":"METAR","rawOb":"METAR KCHS 160156Z 20005KT 10SM SCT250 19/15 A3012 RMK AO2 SLP198 T01890150","lat":32.8995,"lon":-80.0407,"elev":12,"name":"Charleston Intl, SC, US","cover":"SCT","clouds":[{"cover":"SCT","base":25000}],"fltCat":"VFR"},{"icaoId":"KLAS","receiptTime":"2026-04-16T02:01:10.803Z","obsTime":1776304560,"reportTime":"2026-04-16T02:00:00.000Z","temp":25.6,"dewp":-10.6,"wdir":240,"wspd":14,"wgst":21,"visib":"10+","altim":1010.9,"slp":1009.3,"qcField":4,"metarType":"METAR","rawOb":"METAR KLAS 160156Z 24014G21KT 10SM SCT200 BKN250 26/M11 A2985 RMK AO2 SLP093 T02561106","lat":36.0719,"lon":-115.1634,"elev":662,"name":"Las Vegas/Reid Intl, NV, US","cover":"BKN","clouds":[{"cover":"SCT","base":20000},{"cover":"BKN","base":25000}],"fltCat":"VFR"},{"icaoId":"KSDF","receiptTime":"2026-04-16T02:01:11.616Z","obsTime":1776304560,"reportTime":"2026-04-16T02:00:00.000Z","temp":25.6,"dewp":13.3,"wdir":190,"wspd":7,"visib":"10+","altim":1014,"slp":1013.4,"qcField":4,"metarType":"METAR","rawOb":"METAR KSDF 160156Z 19007KT 10SM BKN250 26/13 A2994 RMK AO2 SLP134 T02560133","lat":38.1774,"lon":-85.7308,"elev":146,"name":"Louisville Intl, KY, US","cover":"BKN","clouds":[{"cover":"BKN","base":25000}],"fltCat":"VFR"},{"icaoId":"KEKO","receiptTime":"2026-04-16T02:00:59.332Z","obsTime":1776304560,"reportTime":"2026-04-16T02:00:00.000Z","temp":14.4,"dewp":-6.7,"wdir":260,"wspd":16,"wgst":24,"visib":"10+","altim":1009.2,"slp":1008.2,"qcField":6,"metarType":"METAR","rawOb":"METAR KEKO 160156Z AUTO 26016G24KT 10SM CLR 14/M07 A2980 RMK AO2 PK WND 26031/0100 SLP082 T01441067","lat":40.824,"lon":-115.7863,"elev":1541,"name":"Elko Rgnl, NV, US","cover":"CLR","clouds":[],"fltCat":"VFR"},{"icaoId":"KTPH","receiptTime":"2026-04-16T02:00:26.119Z","obsTime":1776304560,"reportTime":"2026-04-16T02:00:00.000Z","temp":16.7,"dewp":-7.8,"wdir":200,"wspd":13,"visib":"10+","altim":1013.6,"slp":1010.9,"qcField":6,"metarType":"METAR","rawOb":"METAR KTPH 160156Z AUTO 20013KT 10SM CLR 17/M08 A2993 RMK AO2 SLP109 T01671078","lat":38.0505,"lon":-117.0906,"elev":1647,"name":"Tonopah Arpt, NV, US","cover":"CLR","clouds":[],"fltCat":"VFR"},{"icaoId":"KUKI","receiptTime":"2026-04-16T02:00:26.194Z","obsTime":1776304560,"reportTime":"2026-04-16T02:00:00.000Z","temp":13.3,"dewp":8.9,"wdir":350,"wspd":6,"visib":"10+","altim":1017.7,"slp":1017.4,"qcField":6,"metarType":"METAR","rawOb":"METAR KUKI 160156Z AUTO 35006KT 10SM FEW027 FEW043 SCT055 13/09 A3005 RMK AO2 SLP174 T01330089","lat":39.1278,"lon":-123.2001,"elev":183,"name":"Ukiah Muni, CA, US","cover":"SCT","clouds":[{"cover":"FEW","base":2700},{"cover":"FEW","base":4300},{"cover":"SCT","base":5500}],"fltCat":"VFR"},{"icaoId":"KPVU","receiptTime":"2026-04-16T02:00:49.646Z","obsTime":1776304560,"reportTime":"2026-04-16T02:00:00.000Z","temp":17.2,"dewp":3.3,"wdir":220,"wspd":9,"visib":"10+","altim":1009.6,"slp":1007.3,"qcField":4,"metarType":"METAR","rawOb":"METAR KPVU 160156Z 22009KT 10SM OVC120 17/03 A2981 RMK AO2 SLP073 T01720033","lat":40.224,"lon":-111.7252,"elev":1370,"name":"Provo Muni, UT, US","cover":"OVC","clouds":[{"cover":"OVC","base":12000}],"fltCat":"VFR"},{"icaoId":"KSLE","receiptTime":"2026-04-16T02:00:56.625Z","obsTime":1776304560,"reportTime":"2026-04-16T02:00:00.000Z","temp":6.1,"dewp":1.1,"wdir":300,"wspd":6,"visib":"10+","altim":1017.4,"slp":1017.2,"qcField":4,"precip":0.005,"metarType":"METAR","rawOb":"METAR KSLE 160156Z 30006KT 10SM FEW050 FEW075 SCT095 06/01 A3004 RMK AO2 RAE33 SLP172 P0000 T00610011","lat":44.9049,"lon":-123.001,"elev":63,"name":"Salem Muni, OR, US","cover":"SCT","clouds":[{"cover":"FEW","base":5000},{"cover":"FEW","base":7500},{"cover":"SCT","base":9500}],"fltCat":"VFR"},{"icaoId":"KLUF","receiptTime":"2026-04-16T02:08:18.506Z","obsTime":1776304500,"reportTime":"2026-04-16T02:00:00.000Z","temp":28.1,"dewp":-9.3,"wdir":200,"wspd":7,"visib":"10+","altim":1010.9,"slp":1009.9,"qcField":14,"metarType":"METAR","rawOb":"METAR KLUF 160155Z AUTO 20007KT 10SM CLR 28/M09 A2985 RMK AO2 SLP099 T02811093 $","lat":33.538,"lon":-112.38,"elev":333,"name":"Phoenix/Luke AFB, AZ, US","cover":"CLR","clouds":[],"fltCat":"VFR"},{"icaoId":"KGPI","receiptTime":"2026-04-16T02:01:07.052Z","obsTime":1776304500,"reportTime":"2026-04-16T02:00:00.000Z","temp":5,"dewp":1.7,"wdir":150,"wspd":13,"visib":"10+","altim":1003.1,"slp":1004.3,"qcField":4,"metarType":"METAR","rawOb":"METAR KGPI 160155Z 15013KT 10SM BKN075 OVC095 05/02 A2962 RMK AO2 SLP043 T00500017","lat":48.3041,"lon":-114.2643,"elev":903,"name":"Kalispell/Glacier Park Intl, MT, US","cover":"OVC","clouds":[{"cover":"BKN","base":7500},{"cover":"OVC","base":9500}],"fltCat":"VFR"},{"icaoId":"KAST","receiptTime":"2026-04-16T02:01:02.715Z","obsTime":1776304500,"reportTime":"2026-04-16T02:00:00.000Z","temp":5,"dewp":2.8,"wdir":230,"wspd":9,"visib":"10+","altim":1016,"slp":1015.9,"qcField":6,"precip":0.01,"metarType":"METAR","rawOb":"METAR KAST 160155Z AUTO 23009KT 10SM FEW027 BKN041 OVC110 05/03 A3000 RMK AO2 RAE48 SLP159 P0001 T00500028","lat":46.157,"lon":-123.8833,"elev":3,"name":"Astoria Rgnl, OR, US","cover":"OVC","clouds":[{"cover":"FEW","base":2700},{"cover":"BKN","base":4100},{"cover":"OVC","base":11000}],"fltCat":"VFR"},{"icaoId":"KCMA","receiptTime":"2026-04-16T02:00:15.833Z","obsTime":1776304500,"reportTime":"2026-04-16T02:00:00.000Z","temp":17.2,"dewp":9.4,"wdir":260,"wspd":8,"visib":"10+","altim":1015,"slp":1015.8,"qcField":6,"metarType":"METAR","rawOb":"METAR KCMA 160155Z AUTO 26008KT 10SM CLR 17/09 A2997 RMK AO2 SLP158 T01720094","lat":34.2114,"lon":-119.0876,"elev":20,"name":"Camarillo Arpt, CA, US","cover":"CLR","clouds":[],"fltCat":"VFR"},{"icaoId":"KRNO","receiptTime":"2026-04-16T02:01:02.913Z","obsTime":1776304500,"reportTime":"2026-04-16T02:00:00.000Z","temp":14.4,"dewp":-1.7,"wdir":270,"wspd":9,"wgst":30,"visib":"10+","altim":1013.6,"slp":1011.7,"qcField":4,"metarType":"METAR","rawOb":"METAR KRNO 160155Z 27009G30KT 220V310 10SM SCT075 SCT120 BKN200 14/M02 A2993 RMK AO2 PK WND 31030/0146 SLP117 ACSL ALQDS T01441017","lat":39.5077,"lon":-119.7683,"elev":1344,"name":"Reno/Tahoe Intl, NV, US","cover":"BKN","clouds":[{"cover":"SCT","base":7500},{"cover":"SCT","base":12000},{"cover":"BKN","base":20000}],"fltCat":"VFR"},{"icaoId":"KEND","receiptTime":"2026-04-16T02:16:05.484Z","obsTime":1776304500,"reportTime":"2026-04-16T02:00:00.000Z","temp":25.1,"dewp":12.6,"wdir":210,"wspd":12,"visib":"10+","altim":1006.9,"slp":1005.7,"qcField":14,"metarType":"METAR","rawOb":"METAR KEND 160155Z AUTO 21012KT 10SM CLR 25/13 A2973 RMK AO2 SLP057 T02510126 $","lat":36.338,"lon":-97.919,"elev":392,"name":"Enid/Vance AFB, OK, US","cover":"CLR","clouds":[],"fltCat":"VFR"},{"icaoId":"KDSM","receiptTime":"2026-04-16T01:58:08.137Z","obsTime":1776304440,"reportTime":"2026-04-16T02:00:00.000Z","temp":17.8,"dewp":15,"wdir":260,"wspd":8,"wgst":21,"visib":"10+","altim":1004.8,"slp":1004.3,"qcField":4,"precip":0.005,"metarType":"METAR","rawOb":"METAR KDSM 160154Z 26008G21KT 10SM FEW040 SCT100 SCT150 18/15 A2967 RMK AO2 RAB40E52 SLP043 OCNL LTGICCG DSNT W-NW CB DSNT W-NW MOV NE P0000 T01780150","lat":41.5339,"lon":-93.6531,"elev":286,"name":"Des Moines Intl, IA, US","cover":"SCT","clouds":[{"cover":"FEW","base":4000},{"cover":"SCT","base":10000},{"cover":"SCT","base":15000}],"fltCat":"VFR"},{"icaoId":"KRKS","receiptTime":"2026-04-16T01:58:08.004Z","obsTime":1776304440,"reportTime":"2026-04-16T02:00:00.000Z","temp":11.1,"dewp":-3.3,"wdir":190,"wspd":10,"wgst":21,"visib":"10+","altim":1011.6,"slp":1008.2,"qcField":6,"metarType":"METAR","rawOb":"METAR KRKS 160154Z AUTO 19010G21KT 10SM BKN070 OVC090 11/M03 A2987 RMK AO2 PK WND 21028/0112 SLP082 T01111033","lat":41.5947,"lon":-109.0529,"elev":2062,"name":"Rock Springs/SW Wyoming Rgnl, WY, US","cover":"OVC","clouds":[{"cover":"BKN","base":7000},{"cover":"OVC","base":9000}],"fltCat":"VFR"},{"icaoId":"KOLM","receiptTime":"2026-04-16T01:58:07.624Z","obsTime":1776304440,"reportTime":"2026-04-16T02:00:00.000Z","temp":7.2,"dewp":0.6,"wdir":230,"wspd":8,"visib":"10+","altim":1014,"slp":1013.8,"qcField":4,"precip":0.005,"metarType":"METAR","rawOb":"METAR KOLM 160154Z 23008KT 10SM FEW032 07/01 A2994 RMK AO2 RAB14E25 SLP138 P0000 T00720006","lat":46.9737,"lon":-122.9049,"elev":58,"name":"Olympia Rgnl, WA, US","cover":"FEW","clouds":[{"cover":"FEW","base":3200}],"fltCat":"VFR"},{"icaoId":"KGCN","receiptTime":"2026-04-16T01:58:07.606Z","obsTime":1776304440,"reportTime":"2026-04-16T02:00:00.000Z","temp":13.9,"dewp":-7.8,"wdir":210,"wspd":12,"visib":"10+","altim":1018,"slp":1014.5,"qcField":6,"metarType":"METAR","rawOb":"METAR KGCN 160154Z AUTO 21012KT 10SM CLR 14/M08 A3006 RMK AO2 SLP145 T01391078","lat":35.9458,"lon":-112.1554,"elev":1993,"name":"Grand Canyon Park Arpt, AZ, US","cover":"CLR","clouds":[],"fltCat":"VFR"},{"icaoId":"KSLC","receiptTime":"2026-04-16T02:01:04.264Z","obsTime":1776304440,"reportTime":"2026-04-16T02:00:00.000Z","temp":16.7,"dewp":0.6,"wdir":340,"wspd":12,"visib":"10+","altim":1008.2,"slp":1005.3,"qcField":4,"metarType":"METAR","rawOb":"METAR KSLC 160154Z 34012KT 10SM FEW090 BKN110 BKN140 17/01 A2977 RMK AO2 SLP053 VIRGA T01670006","lat":40.7707,"lon":-111.965,"elev":1286,"name":"Salt Lake City Intl, UT, US","cover":"BKN","clouds":[{"cover":"FEW","base":9000},{"cover":"BKN","base":11000},{"cover":"BKN","base":14000}],"fltCat":"VFR"},{"icaoId":"KGSO","receiptTime":"2026-04-16T01:58:03.285Z","obsTime":1776304440,"reportTime":"2026-04-16T02:00:00.000Z","temp":22.8,"dewp":8.9,"wdir":230,"wspd":6,"visib":"10+","altim":1017.4,"slp":1016.3,"qcField":4,"metarType":"METAR","rawOb":"METAR KGSO 160154Z 23006KT 10SM BKN250 23/09 A3004 RMK AO2 SLP163 T02280089","lat":36.0969,"lon":-79.9432,"elev":275,"name":"Greensboro Intl, NC, US","cover":"BKN","clouds":[{"cover":"BKN","base":25000}],"fltCat":"VFR"},{"icaoId":"KBUF","receiptTime":"2026-04-16T01:58:03.185Z","obsTime":1776304440,"reportTime":"2026-04-16T02:00:00.000Z","temp":17.2,"dewp":16.1,"wdir":220,"wspd":7,"visib":"10+","altim":1011.3,"slp":1010.9,"qcField":12,"metarType":"METAR","rawOb":"METAR KBUF 160154Z 22007KT 10SM FEW003 OVC019 17/16 A2986 RMK AO2 SLP109 T01720161 $","lat":42.94,"lon":-78.7361,"elev":217,"name":"Buffalo-Niagara Intl, NY, US","cover":"OVC","clouds":[{"cover":"FEW","base":300},{"cover":"OVC","base":1900}],"fltCat":"MVFR"},{"icaoId":"KPHL","receiptTime":"2026-04-16T01:58:06.678Z","obsTime":1776304440,"reportTime":"2026-04-16T02:00:00.000Z","temp":26.7,"dewp":15,"wdir":210,"wspd":7,"visib":"10+","altim":1013,"slp":1012.7,"qcField":12,"metarType":"METAR","rawOb":"METAR KPHL 160154Z 21007KT 10SM SCT200 BKN280 27/15 A2991 RMK AO2 SLP127 T02670150 $","lat":39.8733,"lon":-75.2268,"elev":2,"name":"Philadelphia Intl, PA, US","cover":"BKN","clouds":[{"cover":"SCT","base":20000},{"cover":"BKN","base":28000}],"fltCat":"VFR"},{"icaoId":"KBWI","receiptTime":"2026-04-16T01:58:06.168Z","obsTime":1776304440,"reportTime":"2026-04-16T02:00:00.000Z","temp":23.3,"dewp":15.6,"wdir":160,"wspd":3,"visib":"10+","altim":1012.6,"slp":1012.3,"qcField":4,"metarType":"METAR","rawOb":"METAR KBWI 160154Z 16003KT 10SM SCT250 23/16 A2990 RMK AO2 SLP123 T02330156","lat":39.1733,"lon":-76.684,"elev":42,"name":"Baltimore-Washington Intl, MD, US","cover":"SCT","clouds":[{"cover":"SCT","base":25000}],"fltCat":"VFR"},{"icaoId":"KSJN","receiptTime":"2026-04-16T02:01:04.235Z","obsTime":1776304440,"reportTime":"2026-04-16T02:00:00.000Z","temp":15,"dewp":-10,"wdir":360,"wspd":5,"visib":"10+","altim":1017,"slp":1012.3,"qcField":6,"metarType":"METAR","rawOb":"METAR KSJN 160154Z AUTO 36005KT 10SM CLR 15/M10 A3003 RMK AO2 SLP123 T01501100","lat":34.5184,"lon":-109.3801,"elev":1747,"name":"St Johns Ind Arpt, AZ, US","cover":"CLR","clouds":[],"fltCat":"VFR"},{"icaoId":"KBOS","receiptTime":"2026-04-16T01:58:06.120Z","obsTime":1776304440,"reportTime":"2026-04-16T02:00:00.000Z","temp":7.8,"dewp":7.8,"wdir":40,"wspd":7,"visib":0.5,"altim":1014,"slp":1013.8,"qcField":12,"wxString":"FG","metarType":"METAR","rawOb":"METAR KBOS 160154Z 04007KT 1/2SM R04R/P6000FT FG OVC002 08/08 A2994 RMK AO2 SLP138 T00780078 $","lat":42.3606,"lon":-71.0097,"elev":4,"name":"Boston/Logan Intl, MA, US","cover":"OVC","clouds":[{"cover":"OVC","base":200}],"fltCat":"LIFR"},{"icaoId":"KFFZ","receiptTime":"2026-04-16T01:58:04.606Z","obsTime":1776304440,"reportTime":"2026-04-16T02:00:00.000Z","temp":26.7,"dewp":-5,"wdir":0,"wspd":0,"visib":"10+","altim":1011.6,"slp":1009.7,"qcField":6,"metarType":"METAR","rawOb":"METAR KFFZ 160154Z AUTO 00000KT 10SM CLR 27/M05 A2987 RMK AO2 SLP097 T02671050","lat":33.4659,"lon":-111.7212,"elev":420,"name":"Mesa/Falcon Fld, AZ, US","cover":"CLR","clouds":[],"fltCat":"VFR"},{"icaoId":"KEUG","receiptTime":"2026-04-16T02:00:36.181Z","obsTime":1776304440,"reportTime":"2026-04-16T02:00:00.000Z","temp":6.7,"dewp":2.2,"wdir":250,"wspd":17,"wgst":27,"visib":"10+","altim":1019.4,"slp":1019.5,"qcField":12,"wxString":"-RA","precip":0.005,"metarType":"METAR","rawOb":"METAR KEUG 160154Z 25017G27KT 10SM -RA FEW035CB BKN050 BKN120 07/02 A3010 RMK AO2 PK WND 26027/0149 RAB51 SLP195 CB W MOV E P0000 T00670022 $","lat":44.1331,"lon":-123.2156,"elev":109,"name":"Eugene/Mahlon Sweet Fld, OR, US","cover":"BKN","clouds":[{"cover":"FEW","base":3500},{"cover":"BKN","base":5000},{"cover":"BKN","base":12000}],"fltCat":"VFR"},{"icaoId":"KAPC","receiptTime":"2026-04-16T02:00:35.035Z","obsTime":1776304440,"reportTime":"2026-04-16T02:00:00.000Z","temp":15,"dewp":10.6,"wdir":260,"wspd":10,"wgst":20,"visib":"10+","altim":1017,"slp":1016.1,"qcField":4,"metarType":"METAR","rawOb":"METAR KAPC 160154Z 26010G20KT 10SM CLR 15/11 A3003 RMK AO2 SLP161 T01500106","lat":38.2075,"lon":-122.2804,"elev":5,"name":"Napa Cnty Arpt, CA, US","cover":"CLR","clouds":[],"fltCat":"VFR"},{"icaoId":"KSYR","receiptTime":"2026-04-16T02:01:06.267Z","obsTime":1776304440,"reportTime":"2026-04-16T02:00:00.000Z","temp":16.7,"dewp":13.9,"wdir":0,"wspd":0,"visib":"10+","altim":1012.3,"slp":1011.8,"qcField":4,"wxString":"-RA","precip":0.005,"metarType":"METAR","rawOb":"METAR KSYR 160154Z 00000KT 10SM -RA SCT085 OVC110 17/14 A2989 RMK AO2 RAB27 SLP118 P0000 T01670139","lat":43.1111,"lon":-76.1038,"elev":125,"name":"Syracuse/Hancock Intl, NY, US","cover":"OVC","clouds":[{"cover":"SCT","base":8500},{"cover":"OVC","base":11000}],"fltCat":"VFR"},{"icaoId":"KOLS","receiptTime":"2026-04-16T01:58:07.640Z","obsTime":1776304440,"reportTime":"2026-04-16T02:00:00.000Z","temp":21.7,"dewp":-15,"wdir":270,"wspd":4,"visib":"10+","altim":1015,"slp":1010.9,"qcField":6,"metarType":"METAR","rawOb":"METAR KOLS 160154Z AUTO 27004KT 10SM CLR 22/M15 A2997 RMK AO2 SLP109 T02171150","lat":31.4208,"lon":-110.8465,"elev":1194,"name":"Nogales Intl, AZ, US","cover":"CLR","clouds":[],"fltCat":"VFR"},{"icaoId":"KIND","receiptTime":"2026-04-16T01:58:08.197Z","obsTime":1776304440,"reportTime":"2026-04-16T02:00:00.000Z","temp":18.9,"dewp":16.7,"wdir":0,"wspd":0,"visib":"10+","altim":1010.9,"slp":1010.4,"qcField":4,"metarType":"METAR","rawOb":"METAR KIND 160154Z 00000KT 10SM FEW100 BKN160 BKN210 19/17 A2985 RMK AO2 SLP104 T01890167","lat":39.7252,"lon":-86.2816,"elev":242,"name":"Indianapolis Intl, IN, US","cover":"BKN","clouds":[{"cover":"FEW","base":10000},{"cover":"BKN","base":16000},{"cover":"BKN","base":21000}],"fltCat":"VFR"},{"icaoId":"KMEM","receiptTime":"2026-04-16T01:58:07.577Z","obsTime":1776304440,"reportTime":"2026-04-16T02:00:00.000Z","temp":23.9,"dewp":11.7,"wdir":180,"wspd":7,"visib":"10+","altim":1015,"slp":1014.5,"qcField":4,"metarType":"METAR","rawOb":"METAR KMEM 160154Z 18007KT 10SM SCT070 BKN250 24/12 A2997 RMK AO2 SLP145 T02390117","lat":35.0564,"lon":-89.9864,"elev":78,"name":"Memphis Intl, TN, US","cover":"BKN","clouds":[{"cover":"SCT","base":7000},{"cover":"BKN","base":25000}],"fltCat":"VFR"},{"icaoId":"KRIC","receiptTime":"2026-04-16T01:58:06.732Z","obsTime":1776304440,"reportTime":"2026-04-16T02:00:00.000Z","temp":21.7,"dewp":12.8,"wdir":200,"wspd":8,"visib":"10+","altim":1015,"slp":1015.2,"qcField":4,"metarType":"METAR","rawOb":"METAR KRIC 160154Z 20008KT 10SM BKN250 22/13 A2997 RMK AO2 SLP152 T02170128","lat":37.5115,"lon":-77.3234,"elev":51,"name":"Richmond Intl, VA, US","cover":"BKN","clouds":[{"cover":"BKN","base":25000}],"fltCat":"VFR"},{"icaoId":"KCOS","receiptTime":"2026-04-16T01:58:08.090Z","obsTime":1776304440,"reportTime":"2026-04-16T02:00:00.000Z","temp":15.6,"dewp":-10,"wdir":320,"wspd":7,"visib":"10+","altim":1012.6,"slp":1007.8,"qcField":4,"metarType":"METAR","rawOb":"METAR KCOS 160154Z 32007KT 10SM FEW120 16/M10 A2990 RMK AO2 SLP078 T01561100","lat":38.8095,"lon":-104.6887,"elev":1886,"name":"Colorado Spring Arpt, CO, US","cover":"FEW","clouds":[{"cover":"FEW","base":12000}],"fltCat":"VFR"},{"icaoId":"KBFL","receiptTime":"2026-04-16T01:58:07.592Z","obsTime":1776304440,"reportTime":"2026-04-16T02:00:00.000Z","temp":22.2,"dewp":6.7,"wdir":320,"wspd":8,"visib":"10+","altim":1014.3,"slp":1013.9,"qcField":4,"metarType":"METAR","rawOb":"METAR KBFL 160154Z 32008KT 10SM CLR 22/07 A2995 RMK AO2 SLP139 T02220067","lat":35.4342,"lon":-119.0552,"elev":146,"name":"Bakersfield/Meadows Arpt, CA, US","cover":"CLR","clouds":[],"fltCat":"VFR"},{"icaoId":"PANC","receiptTime":"2026-04-16T01:56:28.913Z","obsTime":1776304380,"reportTime":"2026-04-16T02:00:00.000Z","temp":1.1,"dewp":-1.7,"wdir":80,"wspd":5,"visib":"10+","altim":1013,"slp":1012.9,"qcField":4,"metarType":"METAR","rawOb":"METAR PANC 160153Z 08005KT 10SM OVC041 01/M02 A2991 RMK AO2 SLP129 T00111017","lat":61.1691,"lon":-150.0277,"elev":39,"name":"Anchorage Intl, AK, US","cover":"OVC","clouds":[{"cover":"OVC","base":4100}],"fltCat":"VFR"},{"icaoId":"KSNA","receiptTime":"2026-04-16T01:56:29.961Z","obsTime":1776304380,"reportTime":"2026-04-16T02:00:00.000Z","temp":19.4,"dewp":12.2,"wdir":240,"wspd":7,"visib":"10+","altim":1014.3,"slp":1014.3,"qcField":12,"metarType":"METAR","rawOb":"METAR KSNA 160153Z 24007KT 10SM FEW020 FEW200 19/12 A2995 RMK AO2 SLP143 T01940122 $","lat":33.6798,"lon":-117.8675,"elev":14,"name":"Santa Ana/Wayne Arpt, CA, US","cover":"FEW","clouds":[{"cover":"FEW","base":2000},{"cover":"FEW","base":20000}],"fltCat":"VFR"},{"icaoId":"KTUL","receiptTime":"2026-04-16T01:56:26.688Z","obsTime":1776304380,"reportTime":"2026-04-16T02:00:00.000Z","temp":22.8,"dewp":18.9,"wdir":180,"wspd":14,"visib":"10+","altim":1008.2,"slp":1007.6,"qcField":4,"metarType":"METAR","rawOb":"METAR KTUL 160153Z 18014KT 10SM FEW022 SCT150 OVC200 23/19 A2977 RMK AO2 SLP076 T02280189","lat":36.1985,"lon":-95.8782,"elev":196,"name":"Tulsa Intl Arpt, OK, US","cover":"OVC","clouds":[{"cover":"FEW","base":2200},{"cover":"SCT","base":15000},{"cover":"OVC","base":20000}],"fltCat":"VFR"},{"icaoId":"KPUB","receiptTime":"2026-04-16T01:56:29.271Z","obsTime":1776304380,"reportTime":"2026-04-16T02:00:00.000Z","temp":18.3,"dewp":-12.2,"wdir":210,"wspd":3,"visib":"10+","altim":1009.9,"slp":1006.6,"qcField":12,"metarType":"METAR","rawOb":"METAR KPUB 160153Z 21003KT 10SM CLR 18/M12 A2982 RMK AO2 SLP066 T01831122 $","lat":38.2887,"lon":-104.5057,"elev":1441,"name":"Pueblo Mem Arpt, CO, US","cover":"CLR","clouds":[],"fltCat":"VFR"},{"icaoId":"KRTN","receiptTime":"2026-04-16T01:56:29.728Z","obsTime":1776304380,"reportTime":"2026-04-16T02:00:00.000Z","temp":12.8,"dewp":-12.2,"wdir":290,"wspd":10,"visib":"10+","altim":1014,"slp":1010.1,"qcField":6,"metarType":"METAR","rawOb":"METAR KRTN 160153Z AUTO 29010KT 10SM CLR 13/M12 A2994 RMK AO2 SLP101 T01281122","lat":36.7418,"lon":-104.5076,"elev":1939,"name":"Raton/Crews Fld, NM, US","cover":"CLR","clouds":[],"fltCat":"VFR"},{"icaoId":"KPRC","receiptTime":"2026-04-16T01:56:27.913Z","obsTime":1776304380,"reportTime":"2026-04-16T02:00:00.000Z","temp":16.7,"dewp":-7.2,"wdir":240,"wspd":9,"visib":"10+","altim":1016.7,"slp":1012.2,"qcField":4,"metarType":"METAR","rawOb":"METAR KPRC 160153Z 24009KT 10SM CLR 17/M07 A3002 RMK AO2 SLP122 T01671072","lat":34.6491,"lon":-112.4223,"elev":1528,"name":"Prescott/Love Fld, AZ, US","cover":"CLR","clouds":[],"fltCat":"VFR"},{"icaoId":"KLAW","receiptTime":"2026-04-16T01:56:34.465Z","obsTime":1776304380,"reportTime":"2026-04-16T02:00:00.000Z","temp":18.3,"dewp":16.1,"wdir":190,"wspd":4,"visib":"10+","altim":1010.2,"slp":1009.2,"qcField":6,"metarType":"METAR","rawOb":"METAR KLAW 160153Z AUTO 19004KT 10SM CLR 18/16 A2983 RMK AO2 SLP092 T01830161","lat":34.5577,"lon":-98.4172,"elev":328,"name":"Lawton-Fort Sill Rgnl, OK, US","cover":"CLR","clouds":[],"fltCat":"VFR"},{"icaoId":"KLOL","receiptTime":"2026-04-16T01:56:34.618Z","obsTime":1776304380,"reportTime":"2026-04-16T02:00:00.000Z","temp":17.2,"dewp":-2.8,"wdir":240,"wspd":18,"wgst":27,"visib":"10+","altim":1010.9,"slp":1009.8,"qcField":6,"metarType":"METAR","rawOb":"METAR KLOL 160153Z AUTO 24018G27KT 10SM BKN090 17/M03 A2985 RMK AO2 PK WND 27027/0147 SLP098 T01721028","lat":40.0684,"lon":-118.5702,"elev":1191,"name":"Lovelock/Derby Fld, NV, US","cover":"BKN","clouds":[{"cover":"BKN","base":9000}],"fltCat":"VFR"},{"icaoId":"KMSP","receiptTime":"2026-04-16T01:56:32.608Z","obsTime":1776304380,"reportTime":"2026-04-16T02:00:00.000Z","temp":17.2,"dewp":4.4,"wdir":80,"wspd":6,"visib":"10+","altim":1006.2,"slp":1006.1,"qcField":4,"metarType":"METAR","rawOb":"METAR KMSP 160153Z 08006KT 10SM FEW120 FEW250 17/04 A2971 RMK AO2 SLP061 T01720044","lat":44.8852,"lon":-93.2313,"elev":255,"name":"Minneapolis-St Paul Intl, MN, US","cover":"FEW","clouds":[{"cover":"FEW","base":12000},{"cover":"FEW","base":25000}],"fltCat":"VFR"},{"icaoId":"KDAL","receiptTime":"2026-04-16T01:56:34.325Z","obsTime":1776304380,"reportTime":"2026-04-16T02:00:00.000Z","temp":23.9,"dewp":20,"wdir":180,"wspd":8,"visib":"10+","altim":1011.9,"slp":1011.3,"qcField":4,"precip":0.005,"metarType":"METAR","rawOb":"METAR KDAL 160153Z 18008KT 10SM BKN060 24/20 A2988 RMK AO2 RAB15E26 TSB11E31 SLP113 FRQ LTGICCC DSNT NW-NE TS MOVD NE CB DSNT NW-NE MOV NE P0000 T02390200","lat":32.8384,"lon":-96.8358,"elev":148,"name":"Dallas/Love Fld, TX, US","cover":"BKN","clouds":[{"cover":"BKN","base":6000}],"fltCat":"VFR"},{"icaoId":"KELY","receiptTime":"2026-04-16T01:56:33.009Z","obsTime":1776304380,"reportTime":"2026-04-16T02:00:00.000Z","temp":13.9,"dewp":-5.6,"wdir":250,"wspd":13,"wgst":22,"visib":"10+","altim":1013.3,"slp":1009.1,"qcField":6,"metarType":"METAR","rawOb":"METAR KELY 160153Z AUTO 25013G22KT 10SM OVC095 14/M06 A2992 RMK AO2 PK WND 21028/0141 SLP091 T01391056","lat":39.2954,"lon":-114.8466,"elev":1906,"name":"Ely/Yelland Fld, NV, US","cover":"OVC","clouds":[{"cover":"OVC","base":9500}],"fltCat":"VFR"},{"icaoId":"KAPA","receiptTime":"2026-04-16T01:56:25.614Z","obsTime":1776304380,"reportTime":"2026-04-16T02:00:00.000Z","temp":13.9,"dewp":-7.2,"wdir":350,"wspd":7,"visib":"10+","altim":1011.9,"slp":1008.6,"qcField":4,"metarType":"METAR","rawOb":"METAR KAPA 160153Z 35007KT 10SM FEW100 FEW220 14/M07 A2988 RMK AO2 SLP086 T01391072","lat":39.5599,"lon":-104.8484,"elev":1791,"name":"Denver/Centennial Arpt, CO, US","cover":"FEW","clouds":[{"cover":"FEW","base":10000},{"cover":"FEW","base":22000}],"fltCat":"VFR"},{"icaoId":"KASE","receiptTime":"2026-04-16T01:56:25.644Z","obsTime":1776304380,"reportTime":"2026-04-16T02:00:00.000Z","temp":5,"dewp":-5.6,"wdir":230,"wspd":5,"visib":"10+","altim":1017,"slp":1012.5,"qcField":6,"metarType":"METAR","rawOb":"METAR KASE 160153Z AUTO 23005KT 10SM CLR 05/M06 A3003 RMK AO2 SLP125 T00501056","lat":39.2299,"lon":-106.8705,"elev":2384,"name":"Aspen/Pitkin Cnty, CO, US","cover":"CLR","clouds":[],"fltCat":"VFR"},{"icaoId":"KACV","receiptTime":"2026-04-16T01:56:25.866Z","obsTime":1776304380,"reportTime":"2026-04-16T02:00:00.000Z","temp":10,"dewp":3.3,"wdir":360,"wspd":13,"wgst":21,"visib":"10+","altim":1020.7,"slp":1021.4,"qcField":6,"metarType":"METAR","rawOb":"METAR KACV 160153Z AUTO 36013G21KT 10SM SCT034 SCT041 10/03 A3014 RMK AO2 SLP214 T01000033","lat":40.9784,"lon":-124.1048,"elev":63,"name":"Arcata Arpt, CA, US","cover":"SCT","clouds":[{"cover":"SCT","base":3400},{"cover":"SCT","base":4100}],"fltCat":"VFR"},{"icaoId":"KAUS","receiptTime":"2026-04-16T01:56:26.118Z","obsTime":1776304380,"reportTime":"2026-04-16T02:00:00.000Z","temp":25.6,"dewp":18.3,"wdir":150,"wspd":14,"wgst":19,"visib":"10+","altim":1012.6,"slp":1011.5,"qcField":4,"metarType":"METAR","rawOb":"METAR KAUS 160153Z 15014G19KT 10SM FEW060 SCT100 26/18 A2990 RMK AO2 SLP115 T02560183","lat":30.1831,"lon":-97.6806,"elev":148,"name":"Austin/Bergstrom Intl, TX, US","cover":"SCT","clouds":[{"cover":"FEW","base":6000},{"cover":"SCT","base":10000}],"fltCat":"VFR"},{"icaoId":"KBCE","receiptTime":"2026-04-16T01:56:26.152Z","obsTime":1776304380,"reportTime":"2026-04-16T02:00:00.000Z","temp":8.3,"dewp":-5,"wdir":240,"wspd":4,"visib":"10+","altim":1018,"slp":1013.5,"qcField":6,"metarType":"METAR","rawOb":"METAR KBCE 160153Z AUTO 24004KT 10SM CLR 08/M05 A3006 RMK AO2 SLP135 T00831050","lat":37.7013,"lon":-112.149,"elev":2311,"name":"Bryce Canyon Arpt, UT, US","cover":"CLR","clouds":[],"fltCat":"VFR"},{"icaoId":"KBFI","receiptTime":"2026-04-16T01:56:26.187Z","obsTime":1776304380,"reportTime":"2026-04-16T02:00:00.000Z","temp":5,"dewp":2.2,"wdir":130,"wspd":6,"visib":6,"altim":1013.6,"slp":1013.5,"qcField":4,"wxString":"HZ","precip":0.04,"metarType":"METAR","rawOb":"METAR KBFI 160153Z 13006KT 6SM HZ BKN034 BKN050 OVC075 05/02 A2993 RMK AO2 RAB0058E48 SLP135 P0004 T00500022","lat":47.5455,"lon":-122.3148,"elev":7,"name":"Seattle/Boeing Fld, WA, US","cover":"OVC","clouds":[{"cover":"BKN","base":3400},{"cover":"BKN","base":5000},{"cover":"OVC","base":7500}],"fltCat":"VFR"},{"icaoId":"KBIL","receiptTime":"2026-04-16T01:56:26.237Z","obsTime":1776304380,"reportTime":"2026-04-16T02:00:00.000Z","temp":14.4,"dewp":-0.6,"wdir":270,"wspd":10,"visib":"10+","altim":1000.4,"slp":999.4,"qcField":4,"metarType":"METAR","rawOb":"METAR KBIL 160153Z 27010KT 10SM SCT120 SCT240 14/M01 A2954 RMK AO2 SLP994 SHRA DSNT SW-N T01441006","lat":45.8072,"lon":-108.5462,"elev":1089,"name":"Billings/Logan Intl, MT, US","cover":"SCT","clouds":[{"cover":"SCT","base":12000},{"cover":"SCT","base":24000}],"fltCat":"VFR"},{"icaoId":"KONT","receiptTime":"2026-04-16T01:56:27.546Z","obsTime":1776304380,"reportTime":"2026-04-16T02:00:00.000Z","temp":21.7,"dewp":10,"wdir":240,"wspd":9,"wgst":17,"visib":"10+","altim":1014,"slp":1013.2,"qcField":12,"metarType":"METAR","rawOb":"METAR KONT 160153Z 24009G17KT 10SM FEW250 22/10 A2994 RMK AO2 SLP132 T02170100 $","lat":34.0531,"lon":-117.5769,"elev":279,"name":"Ontario Intl, CA, US","cover":"FEW","clouds":[{"cover":"FEW","base":25000}],"fltCat":"VFR"},{"icaoId":"KCNM","receiptTime":"2026-04-16T01:56:28.206Z","obsTime":1776304380,"reportTime":"2026-04-16T02:00:00.000Z","temp":23.3,"dewp":-10,"wdir":270,"wspd":11,"visib":"10+","altim":1013.6,"slp":1009,"qcField":6,"metarType":"METAR","rawOb":"METAR KCNM 160153Z AUTO 27011KT 10SM CLR 23/M10 A2993 RMK AO2 SLP090 T02331100","lat":32.3336,"lon":-104.2584,"elev":993,"name":"Carlsbad/Cavern City Air Term, NM, US","cover":"CLR","clouds":[],"fltCat":"VFR"},{"icaoId":"KDEN","receiptTime":"2026-04-16T01:56:28.420Z","obsTime":1776304380,"reportTime":"2026-04-16T02:00:00.000Z","temp":15,"dewp":-7.8,"wdir":280,"wspd":9,"visib":"10+","altim":1011.3,"slp":1006.7,"qcField":4,"metarType":"METAR","rawOb":"METAR KDEN 160153Z 28009KT 10SM FEW090 FEW120 FEW220 15/M08 A2986 RMK AO2 SLP067 T01501078","lat":39.8466,"lon":-104.6562,"elev":1656,"name":"Denver Intl, CO, US","cover":"FEW","clouds":[{"cover":"FEW","base":9000},{"cover":"FEW","base":12000},{"cover":"FEW","base":22000}],"fltCat":"VFR"},{"icaoId":"KDVT","receiptTime":"2026-04-16T01:56:28.581Z","obsTime":1776304380,"reportTime":"2026-04-16T02:00:00.000Z","temp":26.1,"dewp":-5,"wdir":230,"wspd":6,"visib":"10+","altim":1011.9,"slp":1010,"qcField":4,"metarType":"METAR","rawOb":"METAR KDVT 160153Z 23006KT 10SM CLR 26/M05 A2988 RMK AO2 SLP100 T02611050","lat":33.6902,"lon":-112.0662,"elev":454,"name":"Phoenix/Deer Valley Arpt, AZ, US","cover":"CLR","clouds":[],"fltCat":"VFR"},{"icaoId":"KVGT","receiptTime":"2026-04-16T01:56:29.495Z","obsTime":1776304380,"reportTime":"2026-04-16T02:00:00.000Z","temp":25.6,"dewp":-9.4,"wdir":230,"wspd":15,"visib":"10+","altim":1010.6,"slp":1010.6,"qcField":4,"metarType":"METAR","rawOb":"METAR KVGT 160153Z 23015KT 10SM CLR 26/M09 A2984 RMK AO2 SLP106 T02561094","lat":36.212,"lon":-115.194,"elev":664,"name":"Las Vegas/North Arpt, NV, US","cover":"CLR","clouds":[],"fltCat":"VFR"},{"icaoId":"KLAX","receiptTime":"2026-04-16T01:56:30.518Z","obsTime":1776304380,"reportTime":"2026-04-16T02:00:00.000Z","temp":16.7,"dewp":12.8,"wdir":260,"wspd":12,"visib":"10+","altim":1014.6,"slp":1014.6,"qcField":4,"metarType":"METAR","rawOb":"METAR KLAX 160153Z 26012KT 10SM FEW015 FEW250 17/13 A2996 RMK AO2 SLP146 T01670128","lat":33.9382,"lon":-118.3866,"elev":30,"name":"Los Angeles Intl, CA, US","cover":"FEW","clouds":[{"cover":"FEW","base":1500},{"cover":"FEW","base":25000}],"fltCat":"VFR"},{"icaoId":"KLVS","receiptTime":"2026-04-16T01:56:30.708Z","obsTime":1776304380,"reportTime":"2026-04-16T02:00:00.000Z","temp":11.7,"dewp":-10.6,"wdir":210,"wspd":13,"visib":"10+","altim":1016.7,"slp":1010.5,"qcField":14,"metarType":"METAR","rawOb":"METAR KLVS 160153Z AUTO 21013KT 10SM CLR 12/M11 A3002 RMK AO2 SLP105 T01171106 PNO $","lat":35.6558,"lon":-105.1385,"elev":2095,"name":"Las Vegas Muni, NM, US","cover":"CLR","clouds":[],"fltCat":"VFR"},{"icaoId":"KFUL","receiptTime":"2026-04-16T01:56:30.786Z","obsTime":1776304380,"reportTime":"2026-04-16T02:00:00.000Z","temp":21.7,"dewp":9.4,"wdir":280,"wspd":7,"visib":"10+","altim":1013.6,"slp":1013.5,"qcField":4,"metarType":"METAR","rawOb":"METAR KFUL 160153Z 28007KT 10SM CLR 22/09 A2993 RMK AO2 SLP135 T02170094","lat":33.8715,"lon":-117.9856,"elev":23,"name":"Fullerton Muni, CA, US","cover":"CLR","clouds":[],"fltCat":"VFR"},{"icaoId":"KGJT","receiptTime":"2026-04-16T01:56:30.995Z","obsTime":1776304380,"reportTime":"2026-04-16T02:00:00.000Z","temp":15,"dewp":1.1,"wdir":30,"wspd":3,"visib":"10+","altim":1013.6,"slp":1010.5,"qcField":4,"metarType":"METAR","rawOb":"METAR KGJT 160153Z 03003KT 10SM CLR 15/01 A2993 RMK AO2 SLP105 T01500011","lat":39.1344,"lon":-108.5408,"elev":1475,"name":"Grand Junction Rgnl, CO, US","cover":"CLR","clouds":[],"fltCat":"VFR"},{"icaoId":"KMCI","receiptTime":"2026-04-16T01:56:31.417Z","obsTime":1776304380,"reportTime":"2026-04-16T02:00:00.000Z","temp":21.7,"dewp":7.8,"wdir":290,"wspd":13,"wgst":20,"visib":"10+","altim":1007.5,"slp":1006.7,"qcField":4,"metarType":"METAR","rawOb":"METAR KMCI 160153Z 29013G20KT 10SM FEW075 22/08 A2975 RMK AO2 SLP067 T02170078","lat":39.2975,"lon":-94.7309,"elev":308,"name":"Kansas City Intl, MO, US","cover":"FEW","clouds":[{"cover":"FEW","base":7500}],"fltCat":"VFR"},{"icaoId":"KMCO","receiptTime":"2026-04-16T01:56:31.448Z","obsTime":1776304380,"reportTime":"2026-04-16T02:00:00.000Z","temp":20.6,"dewp":15,"wdir":100,"wspd":8,"visib":"10+","altim":1021.4,"slp":1021.2,"qcField":4,"metarType":"METAR","rawOb":"METAR KMCO 160153Z 10008KT 10SM CLR 21/15 A3016 RMK AO2 SLP212 T02060150","lat":28.4182,"lon":-81.3241,"elev":27,"name":"Orlando Intl, FL, US","cover":"CLR","clouds":[],"fltCat":"VFR"},{"icaoId":"KVEL","receiptTime":"2026-04-16T01:56:32.058Z","obsTime":1776304380,"reportTime":"2026-04-16T02:00:00.000Z","temp":14.4,"dewp":-2.2,"wdir":210,"wspd":15,"wgst":24,"visib":"10+","altim":1011.6,"slp":1009.1,"qcField":6,"metarType":"METAR","rawOb":"METAR KVEL 160153Z AUTO 21015G24KT 10SM OVC110 14/M02 A2987 RMK AO2 PK WND 21028/0135 SLP091 T01441022","lat":40.4429,"lon":-109.5128,"elev":1604,"name":"Vernal Rgnl, UT, US","cover":"OVC","clouds":[{"cover":"OVC","base":11000}],"fltCat":"VFR"},{"icaoId":"KSHR","receiptTime":"2026-04-16T01:56:32.357Z","obsTime":1776304380,"reportTime":"2026-04-16T02:00:00.000Z","temp":14.4,"dewp":-1.1,"wdir":200,"wspd":6,"visib":"10+","altim":1001.1,"slp":1000,"qcField":6,"metarType":"METAR","rawOb":"METAR KSHR 160153Z AUTO 20006KT 10SM CLR 14/M01 A2956 RMK AO2 SLP000 T01441011","lat":44.7603,"lon":-106.9741,"elev":1212,"name":"Sheridan Cnty Arpt, WY, US","cover":"CLR","clouds":[],"fltCat":"VFR"},{"icaoId":"KSTS","receiptTime":"2026-04-16T01:56:32.503Z","obsTime":1776304380,"reportTime":"2026-04-16T02:00:00.000Z","temp":17.8,"dewp":9.4,"wdir":270,"wspd":10,"visib":"10+","altim":1017,"slp":1016.2,"qcField":4,"metarType":"METAR","rawOb":"METAR KSTS 160153Z 27010KT 10SM SCT045 18/09 A3003 RMK AO2 SLP162 T01780094","lat":38.5037,"lon":-122.811,"elev":35,"name":"Santa Rosa/Schulz Arpt, CA, US","cover":"SCT","clouds":[{"cover":"SCT","base":4500}],"fltCat":"VFR"},{"icaoId":"KMLS","receiptTime":"2026-04-16T01:56:32.546Z","obsTime":1776304380,"reportTime":"2026-04-16T02:00:00.000Z","temp":15,"dewp":3.9,"wdir":100,"wspd":4,"visib":"10+","altim":999.4,"slp":999.4,"qcField":6,"metarType":"METAR","rawOb":"METAR KMLS 160153Z AUTO 10004KT 10SM FEW110 15/04 A2951 RMK AO2 SLP994 T01500039","lat":46.4265,"lon":-105.8834,"elev":800,"name":"Miles City/Wiley Fld, MT, US","cover":"FEW","clouds":[{"cover":"FEW","base":11000}],"fltCat":"VFR"},{"icaoId":"KOAK","receiptTime":"2026-04-16T01:56:32.690Z","obsTime":1776304380,"reportTime":"2026-04-16T02:00:00.000Z","temp":15,"dewp":10,"wdir":260,"wspd":19,"visib":"10+","altim":1018.4,"slp":1018.3,"qcField":12,"metarType":"METAR","rawOb":"METAR KOAK 160153Z 26019KT 10SM FEW015 FEW030 BKN250 15/10 A3007 RMK AO2 SLP183 SCSL N-E AND NW T01500100 $","lat":37.7178,"lon":-122.233,"elev":3,"name":"Oakland Intl, CA, US","cover":"BKN","clouds":[{"cover":"FEW","base":1500},{"cover":"FEW","base":3000},{"cover":"BKN","base":25000}],"fltCat":"VFR"},{"icaoId":"KPAE","receiptTime":"2026-04-16T01:56:32.811Z","obsTime":1776304380,"reportTime":"2026-04-16T02:00:00.000Z","temp":5,"dewp":1.1,"wdir":"VRB","wspd":3,"wgst":15,"visib":7,"altim":1013,"slp":1013.3,"qcField":4,"wxString":"-RA","precip":0.005,"metarType":"METAR","rawOb":"METAR KPAE 160153Z VRB03G15KT 7SM -RA FEW022 OVC029 05/01 A2991 RMK AO2 RAE0055B45 SLP133 P0000 T00500011","lat":47.9232,"lon":-122.2831,"elev":166,"name":"Everett/Paine Fld, WA, US","cover":"OVC","clouds":[{"cover":"FEW","base":2200},{"cover":"OVC","base":2900}],"fltCat":"MVFR"},{"icaoId":"KPSC","receiptTime":"2026-04-16T01:56:33.319Z","obsTime":1776304380,"reportTime":"2026-04-16T02:00:00.000Z","temp":11.1,"dewp":-5.6,"wdir":250,"wspd":14,"wgst":22,"visib":"10+","altim":1009.6,"slp":1009.5,"qcField":4,"metarType":"METAR","rawOb":"METAR KPSC 160153Z 25014G22KT 10SM CLR 11/M06 A2981 RMK AO2 SLP095 T01111056","lat":46.2695,"lon":-119.1182,"elev":121,"name":"Pasco/Tri Cities Arpt, WA, US","cover":"CLR","clouds":[],"fltCat":"VFR"},{"icaoId":"KRIW","receiptTime":"2026-04-16T01:56:33.448Z","obsTime":1776304380,"reportTime":"2026-04-16T02:00:00.000Z","temp":12.2,"dewp":-2.8,"wdir":220,"wspd":19,"wgst":27,"visib":"10+","altim":1006.5,"slp":1004.3,"qcField":6,"metarType":"METAR","rawOb":"METAR KRIW 160153Z AUTO 22019G27KT 10SM CLR 12/M03 A2972 RMK AO2 PK WND 22037/0115 SLP043 T01221028","lat":43.0622,"lon":-108.4471,"elev":1662,"name":"Riverton Rgnl, WY, US","cover":"CLR","clouds":[],"fltCat":"VFR"},{"icaoId":"KMFE","receiptTime":"2026-04-16T01:56:33.498Z","obsTime":1776304380,"reportTime":"2026-04-16T02:00:00.000Z","temp":26.1,"dewp":19.4,"wdir":130,"wspd":12,"visib":"10+","altim":1012.6,"slp":1012.2,"qcField":4,"metarType":"METAR","rawOb":"METAR KMFE 160153Z 13012KT 10SM CLR 26/19 A2990 RMK AO2 SLP122 T02610194","lat":26.1791,"lon":-98.2445,"elev":29,"name":"McAllen/Miller Intl, TX, US","cover":"CLR","clouds":[],"fltCat":"VFR"},{"icaoId":"KGTF","receiptTime":"2026-04-16T01:56:33.762Z","obsTime":1776304380,"reportTime":"2026-04-16T02:00:00.000Z","temp":10,"dewp":1.1,"wdir":300,"wspd":4,"visib":"10+","altim":998.7,"slp":999.1,"qcField":4,"metarType":"METAR","rawOb":"METAR KGTF 160153Z 30004KT 10SM BKN100 10/01 A2949 RMK AO2 SLP991 T01000011","lat":47.4733,"lon":-111.3828,"elev":1117,"name":"Great Falls Intl, MT, US","cover":"BKN","clouds":[{"cover":"BKN","base":10000}],"fltCat":"VFR"},{"icaoId":"KCDC","receiptTime":"2026-04-16T01:56:34.133Z","obsTime":1776304380,"reportTime":"2026-04-16T02:00:00.000Z","temp":13.9,"dewp":-4.4,"wdir":210,"wspd":10,"visib":"10+","altim":1015.7,"slp":1011.8,"qcField":6,"metarType":"METAR","rawOb":"METAR KCDC 160153Z AUTO 21010KT 10SM CLR 14/M04 A2999 RMK AO2 SLP118 T01391044","lat":37.7067,"lon":-113.097,"elev":1703,"name":"Cedar City Muni, UT, US","cover":"CLR","clouds":[],"fltCat":"VFR"},{"icaoId":"KCNY","receiptTime":"2026-04-16T01:56:34.233Z","obsTime":1776304380,"reportTime":"2026-04-16T02:00:00.000Z","temp":17.2,"dewp":-2.8,"wdir":190,"wspd":9,"visib":"10+","altim":1012.3,"slp":1009.8,"qcField":6,"metarType":"METAR","rawOb":"METAR KCNY 160153Z AUTO 19009KT 10SM CLR 17/M03 A2989 RMK AO2 SLP098 T01721028","lat":38.7501,"lon":-109.7627,"elev":1392,"name":"Moab/Canyonland Fld, UT, US","cover":"CLR","clouds":[],"fltCat":"VFR"},{"icaoId":"KDFW","receiptTime":"2026-04-16T01:56:34.402Z","obsTime":1776304380,"reportTime":"2026-04-16T02:00:00.000Z","temp":23.3,"dewp":20,"wdir":180,"wspd":10,"visib":"10+","altim":1011.6,"slp":1010.6,"qcField":4,"precip":0.005,"metarType":"METAR","rawOb":"METAR KDFW 160153Z 18010KT 10SM SCT050 BKN060 BKN100 BKN250 23/20 A2987 RMK AO2 RAE01 TSE0057 SLP106 OCNL LTGIC DSNT N CB DSNT N MOV NE P0000 T02330200","lat":32.8974,"lon":-97.022,"elev":168,"name":"Dallas-Ft Worth Intl, TX, US","cover":"BKN","clouds":[{"cover":"SCT","base":5000},{"cover":"BKN","base":6000},{"cover":"BKN","base":10000},{"cover":"BKN","base":25000}],"fltCat":"VFR"},{"icaoId":"KLBB","receiptTime":"2026-04-16T01:56:34.480Z","obsTime":1776304380,"reportTime":"2026-04-16T02:00:00.000Z","temp":20.6,"dewp":-9.4,"wdir":260,"wspd":5,"visib":"10+","altim":1012.6,"slp":1008.9,"qcField":4,"metarType":"METAR","rawOb":"METAR KLBB 160153Z 26005KT 10SM CLR 21/M09 A2990 RMK AO2 SLP089 T02061094","lat":33.6658,"lon":-101.8233,"elev":996,"name":"Lubbock Intl Arpt, TX, US","cover":"CLR","clouds":[],"fltCat":"VFR"},{"icaoId":"KMYR","receiptTime":"2026-04-16T01:56:08.219Z","obsTime":1776304380,"reportTime":"2026-04-16T02:00:00.000Z","temp":19.4,"dewp":17.2,"wdir":180,"wspd":5,"visib":"10+","altim":1020.1,"slp":1019.8,"qcField":12,"metarType":"METAR","rawOb":"METAR KMYR 160153Z 18005KT 10SM CLR 19/17 A3012 RMK AO2 SLP198 T01940172 $","lat":33.6769,"lon":-78.9325,"elev":7,"name":"Myrtle Beach Intl, SC, US","cover":"CLR","clouds":[],"fltCat":"VFR"},{"icaoId":"KPIH","receiptTime":"2026-04-16T01:56:31.625Z","obsTime":1776304380,"reportTime":"2026-04-16T02:00:00.000Z","temp":8.3,"dewp":5,"wdir":150,"wspd":6,"visib":"10+","altim":1006.9,"slp":1005.7,"qcField":4,"metarType":"METAR","rawOb":"METAR KPIH 160153Z 15006KT 10SM FEW080 08/05 A2973 RMK AO2 SLP057 T00830050","lat":42.9197,"lon":-112.5723,"elev":1357,"name":"Pocatello Rgnl, ID, US","cover":"FEW","clouds":[{"cover":"FEW","base":8000}],"fltCat":"VFR"},{"icaoId":"KLGB","receiptTime":"2026-04-16T01:56:30.585Z","obsTime":1776304380,"reportTime":"2026-04-16T02:00:00.000Z","temp":19.4,"dewp":10.6,"wdir":300,"wspd":8,"visib":"10+","altim":1014,"slp":1013.9,"qcField":4,"metarType":"METAR","rawOb":"METAR KLGB 160153Z 30008KT 10SM CLR 19/11 A2994 RMK AO2 SLP139 T01940106","lat":33.8118,"lon":-118.1472,"elev":10,"name":"Long Beach Arpt, CA, US","cover":"CLR","clouds":[],"fltCat":"VFR"},{"icaoId":"KMDW","receiptTime":"2026-04-16T01:56:31.477Z","obsTime":1776304380,"reportTime":"2026-04-16T02:00:00.000Z","temp":21.7,"dewp":16.1,"wdir":210,"wspd":17,"wgst":28,"visib":"10+","altim":1007.2,"slp":1006.4,"qcField":4,"metarType":"METAR","rawOb":"METAR KMDW 160153Z 21017G28KT 10SM BKN037 OVC045 22/16 A2974 RMK AO2 PK WND 22030/0059 SLP064 T02170161","lat":41.7841,"lon":-87.7552,"elev":186,"name":"Chicago/Midway Intl, IL, US","cover":"OVC","clouds":[{"cover":"BKN","base":3700},{"cover":"OVC","base":4500}],"fltCat":"VFR"},{"icaoId":"KMTJ","receiptTime":"2026-04-16T01:56:27.433Z","obsTime":1776304380,"reportTime":"2026-04-16T02:00:00.000Z","temp":13.9,"dewp":-6.1,"wdir":240,"wspd":5,"visib":"10+","altim":1016.3,"slp":1012.5,"qcField":6,"metarType":"METAR","rawOb":"METAR KMTJ 160153Z AUTO 24005KT 10SM CLR 14/M06 A3001 RMK AO2 SLP125 T01391061","lat":38.5054,"lon":-107.8981,"elev":1755,"name":"Montrose Rgnl, CO, US","cover":"CLR","clouds":[],"fltCat":"VFR"},{"icaoId":"KMYF","receiptTime":"2026-04-16T01:56:27.488Z","obsTime":1776304380,"reportTime":"2026-04-16T02:00:00.000Z","temp":17.8,"dewp":11.7,"wdir":320,"wspd":7,"visib":"10+","altim":1015,"slp":1014.7,"qcField":4,"metarType":"METAR","rawOb":"METAR KMYF 160153Z 32007KT 10SM CLR 18/12 A2997 RMK AO2 SLP147 T01780117","lat":32.8145,"lon":-117.1375,"elev":128,"name":"San Diego/Montgomery Arpt, CA, US","cover":"CLR","clouds":[],"fltCat":"VFR"},{"icaoId":"KDRO","receiptTime":"2026-04-16T01:56:28.512Z","obsTime":1776304380,"reportTime":"2026-04-16T02:00:00.000Z","temp":11.1,"dewp":-5,"wdir":250,"wspd":10,"visib":"10+","altim":1017.7,"slp":1016.2,"qcField":6,"metarType":"METAR","rawOb":"METAR KDRO 160153Z AUTO 25010KT 10SM CLR 11/M05 A3005 RMK AO2 SLP162 T01111050","lat":37.1431,"lon":-107.7602,"elev":2021,"name":"Durango/La Plata Cnty, CO, US","cover":"CLR","clouds":[],"fltCat":"VFR"},{"icaoId":"KFMN","receiptTime":"2026-04-16T01:56:25.299Z","obsTime":1776304380,"reportTime":"2026-04-16T02:00:00.000Z","temp":14.4,"dewp":-7.8,"wdir":310,"wspd":4,"visib":"10+","altim":1016.7,"slp":1014.9,"qcField":4,"metarType":"METAR","rawOb":"METAR KFMN 160153Z 31004KT 10SM CLR 14/M08 A3002 RMK AO2 SLP149 T01441078","lat":36.7435,"lon":-108.2293,"elev":1677,"name":"Farmington/Four Corners Rgnl, NM, US","cover":"CLR","clouds":[],"fltCat":"VFR"},{"icaoId":"KAMA","receiptTime":"2026-04-16T01:56:25.549Z","obsTime":1776304380,"reportTime":"2026-04-16T02:00:00.000Z","temp":18.3,"dewp":-10.6,"wdir":230,"wspd":10,"visib":"10+","altim":1012.3,"slp":1008.5,"qcField":4,"metarType":"METAR","rawOb":"METAR KAMA 160153Z 23010KT 10SM CLR 18/M11 A2989 RMK AO2 SLP085 T01831106","lat":35.2203,"lon":-101.7173,"elev":1102,"name":"Amarillo Intl Arpt, TX, US","cover":"CLR","clouds":[],"fltCat":"VFR"},{"icaoId":"KBUR","receiptTime":"2026-04-16T01:56:27.975Z","obsTime":1776304380,"reportTime":"2026-04-16T02:00:00.000Z","temp":21.1,"dewp":5,"wdir":180,"wspd":6,"visib":"10+","altim":1014.3,"slp":1013.2,"qcField":6,"metarType":"METAR","rawOb":"METAR KBUR 160153Z AUTO 18006KT 10SM CLR 21/05 A2995 RMK AO2 SLP132 T02110050","lat":34.1996,"lon":-118.3654,"elev":221,"name":"Burbank/Bob Hope Arpt, CA, US","cover":"CLR","clouds":[],"fltCat":"VFR"},{"icaoId":"KCPR","receiptTime":"2026-04-16T01:56:28.235Z","obsTime":1776304380,"reportTime":"2026-04-16T02:00:00.000Z","temp":15.6,"dewp":-6.1,"wdir":240,"wspd":22,"wgst":32,"visib":"10+","altim":1006.2,"slp":1002.9,"qcField":4,"metarType":"METAR","rawOb":"METAR KCPR 160153Z 24022G32KT 10SM CLR 16/M06 A2971 RMK AO2 PK WND 23037/0117 SLP029 T01561061","lat":42.8978,"lon":-106.4736,"elev":1623,"name":"Casper/Natrona Cnty, WY, US","cover":"CLR","clouds":[],"fltCat":"VFR"},{"icaoId":"KCRQ","receiptTime":"2026-04-16T01:56:28.294Z","obsTime":1776304380,"reportTime":"2026-04-16T02:00:00.000Z","temp":17.8,"dewp":11.7,"wdir":280,"wspd":4,"visib":"10+","altim":1014.6,"slp":1014.4,"qcField":6,"metarType":"METAR","rawOb":"METAR KCRQ 160153Z AUTO 28004KT 10SM CLR 18/12 A2996 RMK AO2 SLP144 T01780117","lat":33.1299,"lon":-117.2765,"elev":96,"name":"Carlsbad/Palomar Arpt, CA, US","cover":"CLR","clouds":[],"fltCat":"VFR"},{"icaoId":"KCYS","receiptTime":"2026-04-16T01:56:28.339Z","obsTime":1776304380,"reportTime":"2026-04-16T02:00:00.000Z","temp":11.7,"dewp":-5.6,"wdir":270,"wspd":11,"visib":"10+","altim":1011.6,"slp":1007.2,"qcField":4,"metarType":"METAR","rawOb":"METAR KCYS 160153Z 27011KT 10SM CLR 12/M06 A2987 RMK AO2 SLP072 T01171056","lat":41.1579,"lon":-104.8081,"elev":1868,"name":"Cheyenne Rgnl, WY, US","cover":"CLR","clouds":[],"fltCat":"VFR"},{"icaoId":"KSAF","receiptTime":"2026-04-16T01:56:29.799Z","obsTime":1776304380,"reportTime":"2026-04-16T02:00:00.000Z","temp":12.8,"dewp":-11.7,"wdir":250,"wspd":9,"visib":"10+","altim":1017,"slp":1011.7,"qcField":4,"metarType":"METAR","rawOb":"METAR KSAF 160153Z 25009KT 10SM CLR 13/M12 A3003 RMK AO2 SLP117 T01281117","lat":35.611,"lon":-106.0957,"elev":1918,"name":"Santa Fe Cnty Muni, NM, US","cover":"CLR","clouds":[],"fltCat":"VFR"},{"icaoId":"KSBA","receiptTime":"2026-04-16T01:56:29.834Z","obsTime":1776304380,"reportTime":"2026-04-16T02:00:00.000Z","temp":18.9,"dewp":8.3,"wdir":250,"wspd":5,"visib":"10+","altim":1014.6,"slp":1014.4,"qcField":12,"metarType":"METAR","rawOb":"METAR KSBA 160153Z 25005KT 10SM CLR 19/08 A2996 RMK AO2 SLP144 T01890083 $","lat":34.4241,"lon":-119.8425,"elev":2,"name":"Santa Barbara Muni, CA, US","cover":"CLR","clouds":[],"fltCat":"VFR"},{"icaoId":"KSDL","receiptTime":"2026-04-16T01:56:29.864Z","obsTime":1776304380,"reportTime":"2026-04-16T02:00:00.000Z","temp":27.2,"dewp":-5.6,"wdir":260,"wspd":4,"visib":"10+","altim":1012.3,"slp":1010.2,"qcField":4,"metarType":"METAR","rawOb":"METAR KSDL 160153Z 26004KT 10SM CLR 27/M06 A2989 RMK AO2 SLP102 T02721056","lat":33.6123,"lon":-111.9232,"elev":438,"name":"Scottsdale Muni, AZ, US","cover":"CLR","clouds":[],"fltCat":"VFR"},{"icaoId":"KSWO","receiptTime":"2026-04-16T01:56:26.511Z","obsTime":1776304380,"reportTime":"2026-04-16T02:00:00.000Z","temp":21.7,"dewp":19.4,"wdir":190,"wspd":9,"visib":"10+","altim":1007.9,"slp":1006.8,"qcField":4,"metarType":"METAR","rawOb":"METAR KSWO 160153Z 19009KT 10SM CLR 22/19 A2976 RMK AO2 SLP068 T02170194","lat":36.1624,"lon":-97.0832,"elev":293,"name":"Stillwater Muni, OK, US","cover":"CLR","clouds":[],"fltCat":"VFR"},{"icaoId":"KTPA","receiptTime":"2026-04-16T01:56:26.655Z","obsTime":1776304380,"reportTime":"2026-04-16T02:00:00.000Z","temp":22.2,"dewp":16.1,"wdir":340,"wspd":4,"visib":"10+","altim":1020.4,"slp":1020.2,"qcField":4,"metarType":"METAR","rawOb":"METAR KTPA 160153Z 34004KT 10SM CLR 22/16 A3013 RMK AO2 SLP202 T02220161","lat":27.9633,"lon":-82.54,"elev":2,"name":"Tampa Intl Arpt, FL, US","cover":"CLR","clouds":[],"fltCat":"VFR"},{"icaoId":"KTUS","receiptTime":"2026-04-16T01:56:26.722Z","obsTime":1776304380,"reportTime":"2026-04-16T02:00:00.000Z","temp":25,"dewp":-11.7,"wdir":350,"wspd":6,"visib":"10+","altim":1013.6,"slp":1010.5,"qcField":12,"metarType":"METAR","rawOb":"METAR KTUS 160153Z 35006KT 10SM CLR 25/M12 A2993 RMK AO2 SLP105 T02501117 $","lat":32.1315,"lon":-110.9564,"elev":776,"name":"Tucson Intl Arpt, AZ, US","cover":"CLR","clouds":[],"fltCat":"VFR"},{"icaoId":"KPBI","receiptTime":"2026-04-16T01:56:27.759Z","obsTime":1776304380,"reportTime":"2026-04-16T02:00:00.000Z","temp":23.9,"dewp":13.9,"wdir":80,"wspd":10,"visib":"10+","altim":1020.7,"slp":1020.5,"qcField":12,"metarType":"METAR","rawOb":"METAR KPBI 160153Z 08010KT 10SM BKN041 24/14 A3014 RMK AO2 SLP205 T02390139 $","lat":26.6851,"lon":-80.0992,"elev":4,"name":"Palm Beach Intl, FL, US","cover":"BKN","clouds":[{"cover":"BKN","base":4100}],"fltCat":"VFR"},{"icaoId":"KRDD","receiptTime":"2026-04-16T01:56:33.420Z","obsTime":1776304380,"reportTime":"2026-04-16T02:00:00.000Z","temp":18.3,"dewp":5,"wdir":250,"wspd":8,"wgst":18,"visib":"10+","altim":1013.6,"slp":1013.3,"qcField":4,"metarType":"METAR","rawOb":"METAR KRDD 160153Z 25008G18KT 10SM FEW042 FEW050 18/05 A2993 RMK AO2 SLP133 T01830050","lat":40.5146,"lon":-122.2977,"elev":152,"name":"Redding Muni, CA, US","cover":"FEW","clouds":[{"cover":"FEW","base":4200},{"cover":"FEW","base":5000}],"fltCat":"VFR"},{"icaoId":"KSMF","receiptTime":"2026-04-16T01:56:32.402Z","obsTime":1776304380,"reportTime":"2026-04-16T02:00:00.000Z","temp":19.4,"dewp":10,"wdir":180,"wspd":10,"visib":"10+","altim":1015,"slp":1014.8,"qcField":4,"metarType":"METAR","rawOb":"METAR KSMF 160153Z 18010KT 10SM SCT100 BKN250 19/10 A2997 RMK AO2 SLP148 T01940100","lat":38.7007,"lon":-121.5948,"elev":7,"name":"Sacramento Intl, CA, US","cover":"BKN","clouds":[{"cover":"SCT","base":10000},{"cover":"BKN","base":25000}],"fltCat":"VFR"},{"icaoId":"KTWF","receiptTime":"2026-04-16T01:56:31.904Z","obsTime":1776304380,"reportTime":"2026-04-16T02:00:00.000Z","temp":12.8,"dewp":5,"visib":"","altim":1005.8,"slp":1003.3,"qcField":12,"precip":0.005,"metarType":"METAR","rawOb":"METAR KTWF 160153Z 13/05 A2970 RMK AO2 RAB0054E04 SLP033 P0000 T01280050 $","lat":42.4785,"lon":-114.4775,"elev":1269,"name":"Twin Falls/Joslin Fld, ID, US"},{"icaoId":"KYKM","receiptTime":"2026-04-16T01:56:32.139Z","obsTime":1776304380,"reportTime":"2026-04-16T02:00:00.000Z","temp":8.9,"dewp":-7.8,"wdir":300,"wspd":17,"wgst":24,"visib":"10+","altim":1009.2,"slp":1009.4,"qcField":4,"metarType":"METAR","rawOb":"METAR KYKM 160153Z 30017G24KT 10SM CLR 09/M08 A2980 RMK AO2 SLP094 T00891078","lat":46.564,"lon":-120.5349,"elev":319,"name":"Yakima/McAllister Fld, WA, US","cover":"CLR","clouds":[],"fltCat":"VFR"},{"icaoId":"KDLN","receiptTime":"2026-04-16T01:56:32.843Z","obsTime":1776304380,"reportTime":"2026-04-16T02:00:00.000Z","temp":7.8,"dewp":0.6,"wdir":260,"wspd":6,"visib":"10+","altim":1000.8,"slp":998.8,"qcField":6,"precip":0.005,"metarType":"METAR","rawOb":"METAR KDLN 160153Z AUTO 26006KT 10SM BKN070 OVC090 08/01 A2955 RMK AO2 PK WND 21033/0106 WSHFT 0115 RAB07E19 SLP988 P0000 T00780006","lat":45.2584,"lon":-112.5546,"elev":1586,"name":"Dillon Arpt, MT, US","cover":"OVC","clouds":[{"cover":"BKN","base":7000},{"cover":"OVC","base":9000}],"fltCat":"VFR"},{"icaoId":"KEVW","receiptTime":"2026-04-16T01:56:33.077Z","obsTime":1776304380,"reportTime":"2026-04-16T02:00:00.000Z","temp":7.8,"dewp":-3.9,"wdir":270,"wspd":13,"visib":"10+","altim":1011.6,"slp":1008.1,"qcField":14,"metarType":"METAR","rawOb":"METAR KEVW 160153Z AUTO 27013KT 10SM OVC075 08/M04 A2987 RMK AO2 PK WND 22029/0110 SLP081 T00781039 $","lat":41.2727,"lon":-111.0305,"elev":2178,"name":"Evanston/Uinta Cnty, WY, US","cover":"OVC","clouds":[{"cover":"OVC","base":7500}],"fltCat":"VFR"},{"icaoId":"KMSO","receiptTime":"2026-04-16T01:56:32.593Z","obsTime":1776304380,"reportTime":"2026-04-16T02:00:00.000Z","temp":3.3,"dewp":0,"wdir":0,"wspd":0,"visib":"10+","altim":1006.5,"slp":1007.9,"qcField":4,"precip":0.005,"metarType":"METAR","rawOb":"METAR KMSO 160153Z 00000KT 10SM OVC085 03/00 A2972 RMK AO2 PK WND 33027/0059 RAE00 SLP079 P0000 T00330000","lat":46.9208,"lon":-114.0938,"elev":974,"name":"Missoula Intl, MT, US","cover":"OVC","clouds":[{"cover":"OVC","base":8500}],"fltCat":"VFR"},{"icaoId":"KPDX","receiptTime":"2026-04-16T01:56:31.579Z","obsTime":1776304380,"reportTime":"2026-04-16T02:00:00.000Z","temp":6.7,"dewp":1.7,"wdir":330,"wspd":4,"visib":"10+","altim":1017,"slp":1016.6,"qcField":12,"wxString":"-RA","precip":0.005,"metarType":"METAR","rawOb":"METAR KPDX 160153Z 33004KT 10SM -RA FEW015 SCT034 BKN044 07/02 A3003 RMK AO2 RAB22 SLP166 P0000 T00670017 $","lat":45.5958,"lon":-122.6092,"elev":7,"name":"Portland Intl, OR, US","cover":"BKN","clouds":[{"cover":"FEW","base":1500},{"cover":"SCT","base":3400},{"cover":"BKN","base":4400}],"fltCat":"VFR"},{"icaoId":"KBRO","receiptTime":"2026-04-16T01:56:26.420Z","obsTime":1776304380,"reportTime":"2026-04-16T02:00:00.000Z","temp":25,"dewp":21.7,"wdir":140,"wspd":8,"visib":"10+","altim":1013,"slp":1012.9,"qcField":4,"metarType":"METAR","rawOb":"METAR KBRO 160153Z 14008KT 10SM CLR 25/22 A2991 RMK AO2 SLP129 T02500217","lat":25.9146,"lon":-97.4231,"elev":6,"name":"Brownsville Intl, TX, US","cover":"CLR","clouds":[],"fltCat":"VFR"},{"icaoId":"KBTM","receiptTime":"2026-04-16T01:56:26.439Z","obsTime":1776304380,"reportTime":"2026-04-16T02:00:00.000Z","temp":6.7,"dewp":-1.1,"wdir":200,"wspd":10,"wgst":18,"visib":"10+","altim":1001.8,"slp":1000.5,"qcField":6,"metarType":"METAR","rawOb":"METAR KBTM 160153Z AUTO 20010G18KT 10SM FEW050 SCT075 OVC095 07/M01 A2958 RMK AO2 SLP005 T00671011","lat":45.9644,"lon":-112.5015,"elev":1680,"name":"Butte/Mooney Arpt, MT, US","cover":"OVC","clouds":[{"cover":"FEW","base":5000},{"cover":"SCT","base":7500},{"cover":"OVC","base":9500}],"fltCat":"VFR"},{"icaoId":"KCLL","receiptTime":"2026-04-16T01:56:34.184Z","obsTime":1776304380,"reportTime":"2026-04-16T02:00:00.000Z","temp":23.9,"dewp":18.9,"wdir":160,"wspd":10,"visib":"10+","altim":1014,"slp":1013.3,"qcField":6,"metarType":"METAR","rawOb":"METAR KCLL 160153Z AUTO 16010KT 10SM CLR 24/19 A2994 RMK AO2 SLP133 T02390189","lat":30.5912,"lon":-96.3631,"elev":96,"name":"College Station/Easterwood Arpt, TX, US","cover":"CLR","clouds":[],"fltCat":"VFR"},{"icaoId":"KMAF","receiptTime":"2026-04-16T01:56:34.719Z","obsTime":1776304380,"reportTime":"2026-04-16T02:00:00.000Z","temp":25,"dewp":0.6,"wdir":200,"wspd":5,"visib":"10+","altim":1012.3,"slp":1008.3,"qcField":4,"metarType":"METAR","rawOb":"METAR KMAF 160153Z 20005KT 10SM CLR 25/01 A2989 RMK AO2 SLP083 T02500006","lat":31.9475,"lon":-102.2086,"elev":874,"name":"Midland Intl, TX, US","cover":"CLR","clouds":[],"fltCat":"VFR"},{"icaoId":"KMFR","receiptTime":"2026-04-16T01:56:33.512Z","obsTime":1776304380,"reportTime":"2026-04-16T02:00:00.000Z","temp":8.9,"dewp":-0.6,"wdir":320,"wspd":14,"wgst":20,"visib":"10+","altim":1017.7,"slp":1017.8,"qcField":4,"metarType":"METAR","rawOb":"METAR KMFR 160153Z 32014G20KT 10SM SCT080 09/M01 A3005 RMK AO2 SLP178 T00891006","lat":42.375,"lon":-122.877,"elev":397,"name":"Medford/Rogue Valley Intl, OR, US","cover":"SCT","clouds":[{"cover":"SCT","base":8000}],"fltCat":"VFR"},{"icaoId":"KHLN","receiptTime":"2026-04-16T01:56:33.893Z","obsTime":1776304380,"reportTime":"2026-04-16T02:00:00.000Z","temp":12.2,"dewp":-2.2,"wdir":200,"wspd":10,"wgst":18,"visib":"10+","altim":998.7,"slp":999.5,"qcField":4,"metarType":"METAR","rawOb":"METAR KHLN 160153Z 20010G18KT 10SM FEW080 12/M02 A2949 RMK AO2 SLP995 T01221022","lat":46.6045,"lon":-111.9892,"elev":1178,"name":"Helena Rgnl, MT, US","cover":"FEW","clouds":[{"cover":"FEW","base":8000}],"fltCat":"VFR"},{"icaoId":"KIAH","receiptTime":"2026-04-16T01:56:34.088Z","obsTime":1776304380,"reportTime":"2026-04-16T02:00:00.000Z","temp":23.9,"dewp":19.4,"wdir":160,"wspd":10,"visib":"10+","altim":1015.3,"slp":1015.1,"qcField":4,"metarType":"METAR","rawOb":"METAR KIAH 160153Z 16010KT 10SM FEW025 FEW250 24/19 A2998 RMK AO2 SLP151 T02390194","lat":29.9844,"lon":-95.3607,"elev":27,"name":"Houston/Bush Intl, TX, US","cover":"FEW","clouds":[{"cover":"FEW","base":2500},{"cover":"FEW","base":25000}],"fltCat":"VFR"},{"icaoId":"KIDA","receiptTime":"2026-04-16T01:56:34.119Z","obsTime":1776304380,"reportTime":"2026-04-16T02:00:00.000Z","temp":6.7,"dewp":5,"wdir":190,"wspd":14,"visib":"10+","altim":1007.5,"slp":1006.9,"qcField":4,"precip":0.01,"metarType":"METAR","rawOb":"METAR KIDA 160153Z 19014KT 10SM FEW014 SCT040 BKN110 07/05 A2975 RMK AO2 RAE19 SLP069 P0001 T00670050","lat":43.5204,"lon":-112.0675,"elev":1444,"name":"Idaho Falls Rgnl, ID, US","cover":"BKN","clouds":[{"cover":"FEW","base":1400},{"cover":"SCT","base":4000},{"cover":"BKN","base":11000}],"fltCat":"VFR"},{"icaoId":"KBLI","receiptTime":"2026-04-16T01:56:26.289Z","obsTime":1776304380,"reportTime":"2026-04-16T02:00:00.000Z","temp":7.2,"dewp":1.1,"wdir":290,"wspd":6,"visib":"10+","altim":1012.6,"slp":1013.3,"qcField":4,"metarType":"METAR","rawOb":"METAR KBLI 160153Z 29006KT 10SM SCT041 07/01 A2990 RMK AO2 SLP133 T00720011","lat":48.7991,"lon":-122.5407,"elev":46,"name":"Bellingham Intl, WA, US","cover":"SCT","clouds":[{"cover":"SCT","base":4100}],"fltCat":"VFR"},{"icaoId":"KBNA","receiptTime":"2026-04-16T01:56:30.147Z","obsTime":1776304380,"reportTime":"2026-04-16T02:00:00.000Z","temp":21.7,"dewp":10.6,"wdir":190,"wspd":5,"visib":"10+","altim":1016.7,"slp":1015.9,"qcField":4,"metarType":"METAR","rawOb":"METAR KBNA 160153Z 19005KT 10SM SCT250 22/11 A3002 RMK AO2 SLP159 T02170106","lat":36.1105,"lon":-86.6881,"elev":168,"name":"Nashville Intl, TN, US","cover":"SCT","clouds":[{"cover":"SCT","base":25000}],"fltCat":"VFR"},{"icaoId":"KGSP","receiptTime":"2026-04-16T01:56:33.745Z","obsTime":1776304380,"reportTime":"2026-04-16T02:00:00.000Z","temp":21.1,"dewp":12.2,"wdir":210,"wspd":7,"visib":"10+","altim":1019,"slp":1017.8,"qcField":4,"metarType":"METAR","rawOb":"METAR KGSP 160153Z 21007KT 10SM CLR 21/12 A3009 RMK AO2 SLP178 T02110122","lat":34.8842,"lon":-82.2209,"elev":285,"name":"Greenville-Spartanburg Intl, SC, US","cover":"CLR","clouds":[],"fltCat":"VFR"},{"icaoId":"KHOU","receiptTime":"2026-04-16T01:56:33.925Z","obsTime":1776304380,"reportTime":"2026-04-16T02:00:00.000Z","temp":23.9,"dewp":20.6,"wdir":170,"wspd":9,"visib":"10+","altim":1015.3,"slp":1015.7,"qcField":4,"metarType":"METAR","rawOb":"METAR KHOU 160153Z 17009KT 10SM SCT070 SCT250 24/21 A2998 RMK AO2 SLP157 T02390206","lat":29.6458,"lon":-95.2821,"elev":13,"name":"Houston/Hobby Arpt, TX, US","cover":"SCT","clouds":[{"cover":"SCT","base":7000},{"cover":"SCT","base":25000}],"fltCat":"VFR"},{"icaoId":"KDTW","receiptTime":"2026-04-16T01:56:32.920Z","obsTime":1776304380,"reportTime":"2026-04-16T02:00:00.000Z","temp":20,"dewp":16.1,"wdir":230,"wspd":9,"visib":"10+","altim":1010.9,"slp":1010.7,"qcField":12,"metarType":"METAR","rawOb":"METAR KDTW 160153Z 23009KT 10SM SCT090 BKN220 20/16 A2985 RMK AO2 SLP107 T02000161 $","lat":42.2311,"lon":-83.3312,"elev":192,"name":"Detroit/Metro Wayne Cnty, MI, US","cover":"BKN","clouds":[{"cover":"SCT","base":9000},{"cover":"BKN","base":22000}],"fltCat":"VFR"},{"icaoId":"KMIA","receiptTime":"2026-04-16T01:56:08.144Z","obsTime":1776304380,"reportTime":"2026-04-16T02:00:00.000Z","temp":23.9,"dewp":15,"wdir":50,"wspd":7,"visib":"10+","altim":1020.1,"slp":1019.8,"qcField":0,"metarType":"METAR","rawOb":"METAR KMIA 160153Z 05007KT 10SM BKN043 24/15 A3012 RMK SLP198 T02390150","lat":25.7881,"lon":-80.3169,"elev":1,"name":"Miami Intl, FL, US","cover":"BKN","clouds":[{"cover":"BKN","base":4300}],"fltCat":"VFR"},{"icaoId":"KMSY","receiptTime":"2026-04-16T01:56:32.623Z","obsTime":1776304380,"reportTime":"2026-04-16T02:00:00.000Z","temp":23.3,"dewp":18.9,"wdir":150,"wspd":7,"visib":"10+","altim":1018.4,"slp":1018.5,"qcField":4,"metarType":"METAR","rawOb":"METAR KMSY 160153Z 15007KT 10SM FEW025 SCT065 23/19 A3007 RMK AO2 SLP185 T02330189","lat":29.9974,"lon":-90.2777,"elev":0,"name":"New Orleans/Armstrong Intl, LA, US","cover":"SCT","clouds":[{"cover":"FEW","base":2500},{"cover":"SCT","base":6500}],"fltCat":"VFR"},{"icaoId":"KSJC","receiptTime":"2026-04-16T01:56:32.387Z","obsTime":1776304380,"reportTime":"2026-04-16T02:00:00.000Z","temp":15.6,"dewp":8.3,"wdir":340,"wspd":13,"wgst":20,"visib":"10+","altim":1018.4,"slp":1018.2,"qcField":12,"metarType":"METAR","rawOb":"METAR KSJC 160153Z 34013G20KT 10SM FEW035 SCT070 BKN100 16/08 A3007 RMK AO2 SLP182 T01560083 $","lat":37.3594,"lon":-121.9244,"elev":13,"name":"San Jose Intl Arpt, CA, US","cover":"BKN","clouds":[{"cover":"FEW","base":3500},{"cover":"SCT","base":7000},{"cover":"BKN","base":10000}],"fltCat":"VFR"},{"icaoId":"KFAT","receiptTime":"2026-04-16T01:56:33.108Z","obsTime":1776304380,"reportTime":"2026-04-16T02:00:00.000Z","temp":22.8,"dewp":3.3,"wdir":300,"wspd":10,"visib":"10+","altim":1015,"slp":1014.7,"qcField":12,"metarType":"METAR","rawOb":"METAR KFAT 160153Z 30010KT 10SM FEW050 SCT130 BKN200 23/03 A2997 RMK AO2 SLP147 T02280033 $","lat":36.78,"lon":-119.7202,"elev":102,"name":"Fresno/Yosemite Intl, CA, US","cover":"BKN","clouds":[{"cover":"FEW","base":5000},{"cover":"SCT","base":13000},{"cover":"BKN","base":20000}],"fltCat":"VFR"},{"icaoId":"KPGA","receiptTime":"2026-04-16T01:56:27.774Z","obsTime":1776304380,"reportTime":"2026-04-16T02:00:00.000Z","temp":20,"dewp":-5.6,"wdir":60,"wspd":4,"visib":"10+","altim":1013,"slp":1009.1,"qcField":14,"metarType":"METAR","rawOb":"METAR KPGA 160153Z AUTO 06004KT 10SM CLR 20/M06 A2991 RMK AO2 SLP091 T02001056 $","lat":36.9211,"lon":-111.4487,"elev":1310,"name":"Page Muni, AZ, US","cover":"CLR","clouds":[],"fltCat":"VFR"},{"icaoId":"KBHM","receiptTime":"2026-04-16T01:56:26.219Z","obsTime":1776304380,"reportTime":"2026-04-16T02:00:00.000Z","temp":22.8,"dewp":11.1,"wdir":180,"wspd":4,"visib":"10+","altim":1019.4,"slp":1018.5,"qcField":4,"metarType":"METAR","rawOb":"METAR KBHM 160153Z 18004KT 10SM FEW250 23/11 A3010 RMK AO2 SLP185 T02280111","lat":33.5655,"lon":-86.7449,"elev":191,"name":"Birmingham Intl, AL, US","cover":"FEW","clouds":[{"cover":"FEW","base":25000}],"fltCat":"VFR"},{"icaoId":"KGEG","receiptTime":"2026-04-16T01:56:33.240Z","obsTime":1776304380,"reportTime":"2026-04-16T02:00:00.000Z","temp":6.1,"dewp":-6.7,"wdir":290,"wspd":17,"wgst":24,"visib":"10+","altim":1005.2,"slp":1006,"qcField":4,"metarType":"METAR","rawOb":"METAR KGEG 160153Z 29017G24KT 10SM FEW030 SCT045 SCT110 06/M07 A2968 RMK AO2 PK WND 27033/0056 SLP060 VIRGA VCSH N T00611067","lat":47.6217,"lon":-117.528,"elev":718,"name":"Spokane Intl, WA, US","cover":"SCT","clouds":[{"cover":"FEW","base":3000},{"cover":"SCT","base":4500},{"cover":"SCT","base":11000}],"fltCat":"VFR"},{"icaoId":"KDMN","receiptTime":"2026-04-16T01:56:28.477Z","obsTime":1776304380,"reportTime":"2026-04-16T02:00:00.000Z","temp":20.6,"dewp":-13.9,"wdir":290,"wspd":8,"visib":"10+","altim":1016,"slp":1011.3,"qcField":6,"metarType":"METAR","rawOb":"METAR KDMN 160153Z AUTO 29008KT 10SM CLR 21/M14 A3000 RMK AO2 SLP113 T02061139","lat":32.2592,"lon":-107.7206,"elev":1310,"name":"Deming Muni, NM, US","cover":"CLR","clouds":[],"fltCat":"VFR"},{"icaoId":"KMOD","receiptTime":"2026-04-16T01:56:32.577Z","obsTime":1776304380,"reportTime":"2026-04-16T02:00:00.000Z","temp":19.4,"dewp":5.6,"wdir":310,"wspd":10,"visib":"10+","altim":1015.7,"slp":1015.7,"qcField":4,"metarType":"METAR","rawOb":"METAR KMOD 160153Z 31010KT 10SM CLR 19/06 A2999 RMK AO2 SLP157 T01940056","lat":37.6254,"lon":-120.9549,"elev":25,"name":"Modesto/Sham Fld, CA, US","cover":"CLR","clouds":[],"fltCat":"VFR"},{"icaoId":"KOGD","receiptTime":"2026-04-16T01:56:32.736Z","obsTime":1776304380,"reportTime":"2026-04-16T02:00:00.000Z","temp":15.6,"dewp":-0.6,"wdir":290,"wspd":6,"visib":"10+","altim":1008.9,"slp":1006,"qcField":4,"metarType":"METAR","rawOb":"METAR KOGD 160153Z 29006KT 10SM OVC090 16/M01 A2979 RMK AO2 SLP060 T01561006","lat":41.1941,"lon":-112.0168,"elev":1356,"name":"Ogden/Hinckley Arpt, UT, US","cover":"OVC","clouds":[{"cover":"OVC","base":9000}],"fltCat":"VFR"},{"icaoId":"KPUW","receiptTime":"2026-04-16T01:56:33.360Z","obsTime":1776304380,"reportTime":"2026-04-16T02:00:00.000Z","temp":3.9,"dewp":-0.6,"wdir":220,"wspd":10,"visib":"10+","altim":1007.9,"slp":1009,"qcField":6,"precip":0.005,"metarType":"METAR","rawOb":"METAR KPUW 160153Z AUTO 22010KT 10SM OVC075 04/M01 A2976 RMK AO2 RAE0056 SLP090 P0000 T00391006","lat":46.7438,"lon":-117.1158,"elev":774,"name":"Pullman/Moscow Rgnl, WA, US","cover":"OVC","clouds":[{"cover":"OVC","base":7500}],"fltCat":"VFR"},{"icaoId":"KABI","receiptTime":"2026-04-16T01:56:12.774Z","obsTime":1776304320,"reportTime":"2026-04-16T02:00:00.000Z","temp":23.3,"dewp":19.4,"wdir":170,"wspd":12,"visib":"10+","altim":1011.9,"slp":1009.6,"qcField":12,"metarType":"METAR","rawOb":"METAR KABI 160152Z 17012KT 10SM CLR 23/19 A2988 RMK AO2 SLP096 T02330194 $","lat":32.4106,"lon":-99.6821,"elev":543,"name":"Abilene Rgnl, TX, US","cover":"CLR","clouds":[],"fltCat":"VFR"},{"icaoId":"KHRL","receiptTime":"2026-04-16T01:56:07.951Z","obsTime":1776304320,"reportTime":"2026-04-16T02:00:00.000Z","temp":23.9,"dewp":20.6,"wdir":130,"wspd":10,"visib":"10+","altim":1013,"slp":1012.7,"qcField":4,"metarType":"METAR","rawOb":"METAR KHRL 160152Z 13010KT 10SM CLR 24/21 A2991 RMK AO2 SLP127 T02390206","lat":26.2303,"lon":-97.6556,"elev":9,"name":"Harlingen/Valley Intl, TX, US","cover":"CLR","clouds":[],"fltCat":"VFR"},{"icaoId":"KMLF","receiptTime":"2026-04-16T01:56:12.744Z","obsTime":1776304320,"reportTime":"2026-04-16T02:00:00.000Z","temp":15.6,"dewp":-6.1,"wdir":200,"wspd":16,"wgst":24,"visib":"10+","altim":1013,"slp":1010,"qcField":6,"metarType":"METAR","rawOb":"METAR KMLF 160152Z AUTO 20016G24KT 10SM CLR 16/M06 A2991 RMK AO2 PK WND 18030/0118 SLP100 T01561061","lat":38.4225,"lon":-113.0109,"elev":1537,"name":"Milford Muni, UT, US","cover":"CLR","clouds":[],"fltCat":"VFR"},{"icaoId":"KOKC","receiptTime":"2026-04-16T01:56:08.257Z","obsTime":1776304320,"reportTime":"2026-04-16T02:00:00.000Z","temp":19.4,"dewp":17.8,"wdir":180,"wspd":8,"visib":"10+","altim":1008.5,"slp":1007.4,"qcField":4,"metarType":"METAR","rawOb":"METAR KOKC 160152Z 18008KT 10SM FEW017 FEW180 BKN250 19/18 A2978 RMK AO2 SLP074 T01940178","lat":35.3843,"lon":-97.6003,"elev":391,"name":"Oklahoma City/Will Rogers Intl, OK, US","cover":"BKN","clouds":[{"cover":"FEW","base":1700},{"cover":"FEW","base":18000},{"cover":"BKN","base":25000}],"fltCat":"VFR"},{"icaoId":"KIAD","receiptTime":"2026-04-16T01:56:07.990Z","obsTime":1776304320,"reportTime":"2026-04-16T02:00:00.000Z","temp":26.7,"dewp":11.7,"wdir":190,"wspd":8,"visib":"10+","altim":1013,"slp":1012.5,"qcField":4,"metarType":"METAR","rawOb":"METAR KIAD 160152Z 19008KT 10SM BKN250 27/12 A2991 RMK AO2 SLP125 T02670117","lat":38.9348,"lon":-77.4473,"elev":90,"name":"Washington/Dulles Intl, VA, US","cover":"BKN","clouds":[{"cover":"BKN","base":25000}],"fltCat":"VFR"},{"icaoId":"KATL","receiptTime":"2026-04-16T01:56:08.379Z","obsTime":1776304320,"reportTime":"2026-04-16T02:00:00.000Z","temp":23.9,"dewp":11.1,"wdir":220,"wspd":4,"visib":"10+","altim":1019.4,"slp":1018.5,"qcField":12,"metarType":"METAR","rawOb":"METAR KATL 160152Z 22004KT 10SM SCT250 24/11 A3010 RMK AO2 SLP185 T02390111 $","lat":33.6297,"lon":-84.4422,"elev":309,"name":"Atlanta/Hartsfield-Jackson Intl, GA, US","cover":"SCT","clouds":[{"cover":"SCT","base":25000}],"fltCat":"VFR"},{"icaoId":"KCLT","receiptTime":"2026-04-16T01:56:08.512Z","obsTime":1776304320,"reportTime":"2026-04-16T02:00:00.000Z","temp":24.4,"dewp":11.1,"wdir":210,"wspd":5,"visib":"10+","altim":1018.4,"slp":1018.7,"qcField":4,"metarType":"METAR","rawOb":"METAR KCLT 160152Z 21005KT 10SM BKN250 24/11 A3007 RMK AO2 SLP187 T02440111","lat":35.2225,"lon":-80.9543,"elev":223,"name":"Charlotte/Douglas Intl, NC, US","cover":"BKN","clouds":[{"cover":"BKN","base":25000}],"fltCat":"VFR"},{"icaoId":"KCVG","receiptTime":"2026-04-16T01:56:08.545Z","obsTime":1776304320,"reportTime":"2026-04-16T02:00:00.000Z","temp":22.8,"dewp":15.6,"wdir":190,"wspd":7,"visib":"10+","altim":1014,"slp":1012.8,"qcField":4,"metarType":"METAR","rawOb":"METAR KCVG 160152Z 19007KT 10SM SCT070 BKN250 23/16 A2994 RMK AO2 SLP128 T02280156","lat":39.0444,"lon":-84.6724,"elev":264,"name":"Cincinnati Intl, KY, US","cover":"BKN","clouds":[{"cover":"SCT","base":7000},{"cover":"BKN","base":25000}],"fltCat":"VFR"},{"icaoId":"KDCA","receiptTime":"2026-04-16T01:56:08.561Z","obsTime":1776304320,"reportTime":"2026-04-16T02:00:00.000Z","temp":27.8,"dewp":12.8,"wdir":200,"wspd":11,"visib":"10+","altim":1012.6,"slp":1012.6,"qcField":4,"metarType":"METAR","rawOb":"METAR KDCA 160152Z 20011KT 10SM FEW110 SCT250 28/13 A2990 RMK AO2 SLP126 T02780128","lat":38.8472,"lon":-77.0345,"elev":4,"name":"Washington/Reagan-National Arpt, VA, US","cover":"SCT","clouds":[{"cover":"FEW","base":11000},{"cover":"SCT","base":25000}],"fltCat":"VFR"},{"icaoId":"KSPS","receiptTime":"2026-04-16T01:56:12.932Z","obsTime":1776304320,"reportTime":"2026-04-16T02:00:00.000Z","temp":17.2,"dewp":15,"wdir":170,"wspd":8,"visib":"10+","altim":1010.2,"slp":1009.2,"qcField":4,"metarType":"METAR","rawOb":"METAR KSPS 160152Z 17008KT 10SM SCT200 17/15 A2983 RMK AO2 SLP092 T01720150","lat":33.9785,"lon":-98.493,"elev":310,"name":"Wichita Falls Rgnl, TX, US","cover":"SCT","clouds":[{"cover":"SCT","base":20000}],"fltCat":"VFR"},{"icaoId":"KABQ","receiptTime":"2026-04-16T01:56:12.789Z","obsTime":1776304320,"reportTime":"2026-04-16T02:00:00.000Z","temp":18.3,"dewp":-10.6,"wdir":290,"wspd":4,"visib":"10+","altim":1016,"slp":1011.3,"qcField":4,"metarType":"METAR","rawOb":"METAR KABQ 160152Z 29004KT 10SM CLR 18/M11 A3000 RMK AO2 SLP113 T01831106","lat":35.0419,"lon":-106.6154,"elev":1620,"name":"Albuquerque Intl, NM, US","cover":"CLR","clouds":[],"fltCat":"VFR"},{"icaoId":"KLGU","receiptTime":"2026-04-16T01:54:12.579Z","obsTime":1776304260,"reportTime":"2026-04-16T02:00:00.000Z","temp":12.8,"dewp":2.2,"wdir":160,"wspd":13,"wgst":28,"visib":"10+","altim":1009.2,"slp":1007.5,"qcField":6,"wxString":"-RA","precip":0.005,"metarType":"METAR","rawOb":"METAR KLGU 160151Z AUTO 16013G28KT 10SM -RA BKN050 OVC065 13/02 A2980 RMK AO2 PK WND 22029/0141 RAB0052 SLP075 P0000 T01280022","lat":41.7865,"lon":-111.8519,"elev":1359,"name":"Logan/Cache Arpt, UT, US","cover":"OVC","clouds":[{"cover":"BKN","base":5000},{"cover":"OVC","base":6500}],"fltCat":"VFR"},{"icaoId":"KJFK","receiptTime":"2026-04-16T01:54:12.543Z","obsTime":1776304260,"reportTime":"2026-04-16T02:00:00.000Z","temp":16.7,"dewp":12.2,"wdir":180,"wspd":4,"visib":"10+","altim":1012.3,"slp":1012.1,"qcField":4,"metarType":"METAR","rawOb":"METAR KJFK 160151Z 18004KT 10SM FEW060 BKN250 17/12 A2989 RMK AO2 SLP121 OCNL LTGIC DSNT N CB DSNT N T01670122","lat":40.6392,"lon":-73.7639,"elev":3,"name":"New York/JF Kennedy Intl, NY, US","cover":"BKN","clouds":[{"cover":"FEW","base":6000},{"cover":"BKN","base":25000}],"fltCat":"VFR"},{"icaoId":"KCMH","receiptTime":"2026-04-16T01:54:11.724Z","obsTime":1776304260,"reportTime":"2026-04-16T02:00:00.000Z","temp":25,"dewp":15.6,"wdir":200,"wspd":6,"visib":"10+","altim":1013,"slp":1012.3,"qcField":4,"metarType":"METAR","rawOb":"METAR KCMH 160151Z 20006KT 10SM FEW080 BKN150 BKN250 25/16 A2991 RMK AO2 SLP123 T02500156","lat":39.9907,"lon":-82.877,"elev":257,"name":"Columbus/Glenn Intl, OH, US","cover":"BKN","clouds":[{"cover":"FEW","base":8000},{"cover":"BKN","base":15000},{"cover":"BKN","base":25000}],"fltCat":"VFR"},{"icaoId":"KLGA","receiptTime":"2026-04-16T01:56:08.054Z","obsTime":1776304260,"reportTime":"2026-04-16T02:00:00.000Z","temp":28.9,"dewp":15,"wdir":210,"wspd":8,"visib":"10+","altim":1011.3,"slp":1011.1,"qcField":4,"metarType":"METAR","rawOb":"METAR KLGA 160151Z 21008KT 10SM FEW050 SCT085 BKN250 29/15 A2986 RMK AO2 SLP111 OCNL LTGICCC DSNT N CB DSNT N T02890150","lat":40.7794,"lon":-73.8803,"elev":9,"name":"New York/La Guardia Arpt, NY, US","cover":"BKN","clouds":[{"cover":"FEW","base":5000},{"cover":"SCT","base":8500},{"cover":"BKN","base":25000}],"fltCat":"VFR"},{"icaoId":"KCLE","receiptTime":"2026-04-16T01:54:11.677Z","obsTime":1776304260,"reportTime":"2026-04-16T02:00:00.000Z","temp":18.9,"dewp":17.2,"wdir":190,"wspd":5,"visib":"10+","altim":1011.9,"slp":1013.1,"qcField":12,"metarType":"METAR","rawOb":"METAR KCLE 160151Z 19005KT 10SM BKN095 BKN250 19/17 A2988 RMK AO2 SLP131 T01890172 $","lat":41.4057,"lon":-81.8519,"elev":237,"name":"Cleveland/Hopkins Intl, OH, US","cover":"BKN","clouds":[{"cover":"BKN","base":9500},{"cover":"BKN","base":25000}],"fltCat":"VFR"},{"icaoId":"KEWR","receiptTime":"2026-04-16T01:54:12.162Z","obsTime":1776304260,"reportTime":"2026-04-16T02:00:00.000Z","temp":28.3,"dewp":14.4,"wdir":220,"wspd":12,"visib":"10+","altim":1011.6,"slp":1011.4,"qcField":4,"metarType":"METAR","rawOb":"METAR KEWR 160151Z 22012KT 10SM FEW060 FEW120 BKN250 28/14 A2987 RMK AO2 SLP114 FRQ LTGIC DSNT NE CB DSNT NE MOV E T02830144","lat":40.6828,"lon":-74.1692,"elev":2,"name":"Newark Intl, NJ, US","cover":"BKN","clouds":[{"cover":"FEW","base":6000},{"cover":"FEW","base":12000},{"cover":"BKN","base":25000}],"fltCat":"VFR"},{"icaoId":"KACT","receiptTime":"2026-04-16T01:54:11.086Z","obsTime":1776304260,"reportTime":"2026-04-16T02:00:00.000Z","temp":22.8,"dewp":19.4,"wdir":160,"wspd":5,"visib":"10+","altim":1012.6,"slp":1011.8,"qcField":4,"metarType":"METAR","rawOb":"METAR KACT 160151Z 16005KT 10SM FEW080 23/19 A2990 RMK AO2 SLP118 T02280194","lat":31.618,"lon":-97.2283,"elev":150,"name":"Waco Rgnl, TX, US","cover":"FEW","clouds":[{"cover":"FEW","base":8000}],"fltCat":"VFR"},{"icaoId":"KOXR","receiptTime":"2026-04-16T01:54:12.808Z","obsTime":1776304260,"reportTime":"2026-04-16T02:00:00.000Z","temp":15.6,"dewp":12.8,"wdir":260,"wspd":12,"visib":"10+","altim":1015,"slp":1014.8,"qcField":14,"metarType":"METAR","rawOb":"METAR KOXR 160151Z AUTO 26012KT 10SM CLR 16/13 A2997 RMK AO2 SLP148 T01560128 $","lat":34.2001,"lon":-119.2042,"elev":12,"name":"Oxnard Arpt, CA, US","cover":"CLR","clouds":[],"fltCat":"VFR"},{"icaoId":"KPHX","receiptTime":"2026-04-16T01:54:12.846Z","obsTime":1776304260,"reportTime":"2026-04-16T02:00:00.000Z","temp":28.3,"dewp":-2.8,"wdir":280,"wspd":4,"visib":"10+","altim":1010.9,"slp":1009.3,"qcField":4,"metarType":"METAR","rawOb":"METAR KPHX 160151Z 28004KT 10SM FEW200 28/M03 A2985 RMK AO2 SLP093 T02831028","lat":33.4278,"lon":-112.0037,"elev":338,"name":"Phoenix/Sky Harbor Intl, AZ, US","cover":"FEW","clouds":[{"cover":"FEW","base":20000}],"fltCat":"VFR"},{"icaoId":"KPIT","receiptTime":"2026-04-16T01:54:12.900Z","obsTime":1776304260,"reportTime":"2026-04-16T02:00:00.000Z","temp":23.3,"dewp":15,"wdir":0,"wspd":0,"visib":"10+","altim":1014,"slp":1013.7,"qcField":12,"precip":0.005,"metarType":"METAR","rawOb":"METAR KPIT 160151Z 00000KT 10SM FEW050 SCT100 23/15 A2994 RMK AO2 RAB04E21 SLP137 P0000 T02330150 $","lat":40.4814,"lon":-80.2083,"elev":339,"name":"Pittsburgh Intl, PA, US","cover":"SCT","clouds":[{"cover":"FEW","base":5000},{"cover":"SCT","base":10000}],"fltCat":"VFR"},{"icaoId":"KPVD","receiptTime":"2026-04-16T01:54:12.934Z","obsTime":1776304260,"reportTime":"2026-04-16T02:00:00.000Z","temp":14.4,"dewp":10.6,"wdir":0,"wspd":0,"visib":"10+","altim":1013,"slp":1012.7,"qcField":12,"metarType":"METAR","rawOb":"METAR KPVD 160151Z 00000KT 10SM FEW045 SCT070 BKN095 BKN250 14/11 A2991 RMK AO2 SLP127 T01440106 $","lat":41.7225,"lon":-71.4325,"elev":15,"name":"Providence/Green Mem, RI, US","cover":"BKN","clouds":[{"cover":"FEW","base":4500},{"cover":"SCT","base":7000},{"cover":"BKN","base":9500},{"cover":"BKN","base":25000}],"fltCat":"VFR"},{"icaoId":"KRDU","receiptTime":"2026-04-16T01:54:12.981Z","obsTime":1776304260,"reportTime":"2026-04-16T02:00:00.000Z","temp":26.1,"dewp":11.1,"wdir":210,"wspd":10,"visib":"10+","altim":1017.4,"slp":1016.7,"qcField":4,"metarType":"METAR","rawOb":"METAR KRDU 160151Z 21010KT 10SM BKN250 26/11 A3004 RMK AO2 SLP167 T02610111","lat":35.8923,"lon":-78.782,"elev":121,"name":"Raleigh-Durham Intl, NC, US","cover":"BKN","clouds":[{"cover":"BKN","base":25000}],"fltCat":"VFR"},{"icaoId":"KROW","receiptTime":"2026-04-16T01:54:13.014Z","obsTime":1776304260,"reportTime":"2026-04-16T02:00:00.000Z","temp":21.1,"dewp":-13.3,"wdir":260,"wspd":10,"visib":"10+","altim":1013,"slp":1008.2,"qcField":4,"metarType":"METAR","rawOb":"METAR KROW 160151Z 26010KT 10SM CLR 21/M13 A2991 RMK AO2 SLP082 T02111133","lat":33.3074,"lon":-104.5082,"elev":1105,"name":"Roswell/Ind Arpt, NM, US","cover":"CLR","clouds":[],"fltCat":"VFR"},{"icaoId":"KSAD","receiptTime":"2026-04-16T01:54:13.043Z","obsTime":1776304260,"reportTime":"2026-04-16T02:00:00.000Z","temp":23.3,"dewp":-9.4,"wdir":290,"wspd":5,"visib":"10+","altim":1013.3,"slp":1010.1,"qcField":6,"metarType":"METAR","rawOb":"METAR KSAD 160151Z AUTO 29005KT 10SM CLR 23/M09 A2992 RMK AO2 SLP101 T02331094","lat":32.8565,"lon":-109.636,"elev":937,"name":"Safford Rgnl, AZ, US","cover":"CLR","clouds":[],"fltCat":"VFR"},{"icaoId":"KSAN","receiptTime":"2026-04-16T01:54:13.100Z","obsTime":1776304260,"reportTime":"2026-04-16T02:00:00.000Z","temp":17.8,"dewp":13.3,"wdir":300,"wspd":7,"visib":"10+","altim":1015.7,"slp":1015.4,"qcField":12,"metarType":"METAR","rawOb":"METAR KSAN 160151Z 30007KT 10SM FEW025 FEW200 18/13 A2999 RMK AO2 SLP154 T01780133 $","lat":32.7364,"lon":-117.1973,"elev":3,"name":"San Diego Intl Arpt, CA, US","cover":"FEW","clouds":[{"cover":"FEW","base":2500},{"cover":"FEW","base":20000}],"fltCat":"VFR"},{"icaoId":"KSAT","receiptTime":"2026-04-16T01:54:13.169Z","obsTime":1776304260,"reportTime":"2026-04-16T02:00:00.000Z","temp":26.7,"dewp":18.3,"wdir":160,"wspd":16,"visib":"10+","altim":1013,"slp":1011,"qcField":4,"metarType":"METAR","rawOb":"METAR KSAT 160151Z 16016KT 10SM FEW050 BKN085 BKN200 27/18 A2991 RMK AO2 SLP110 T02670183","lat":29.5443,"lon":-98.4839,"elev":246,"name":"San Antonio Intl, TX, US","cover":"BKN","clouds":[{"cover":"FEW","base":5000},{"cover":"BKN","base":8500},{"cover":"BKN","base":20000}],"fltCat":"VFR"},{"icaoId":"KVNY","receiptTime":"2026-04-16T01:54:13.559Z","obsTime":1776304260,"reportTime":"2026-04-16T02:00:00.000Z","temp":21.7,"dewp":7.2,"wdir":280,"wspd":6,"visib":"10+","altim":1014,"slp":1013.2,"qcField":12,"metarType":"METAR","rawOb":"METAR KVNY 160151Z 28006KT 10SM CLR 22/07 A2994 RMK AO2 SLP132 T02170072 $","lat":34.2121,"lon":-118.4915,"elev":241,"name":"Van Nuys Arpt, CA, US","cover":"CLR","clouds":[],"fltCat":"VFR"},{"icaoId":"KORF","receiptTime":"2026-04-16T01:54:12.748Z","obsTime":1776304260,"reportTime":"2026-04-16T02:00:00.000Z","temp":23.9,"dewp":15,"wdir":210,"wspd":6,"visib":"10+","altim":1015.7,"slp":1015.4,"qcField":4,"metarType":"METAR","rawOb":"METAR KORF 160151Z 21006KT 10SM CLR 24/15 A2999 RMK AO2 SLP154 T02390150","lat":36.9037,"lon":-76.1927,"elev":5,"name":"Norfolk Intl, VA, US","cover":"CLR","clouds":[],"fltCat":"VFR"},{"icaoId":"KCRP","receiptTime":"2026-04-16T01:54:11.827Z","obsTime":1776304260,"reportTime":"2026-04-16T02:00:00.000Z","temp":23.9,"dewp":21.1,"wdir":150,"wspd":13,"visib":"10+","altim":1013.3,"slp":1013.1,"qcField":4,"metarType":"METAR","rawOb":"METAR KCRP 160151Z 15013KT 10SM FEW018 SCT250 24/21 A2992 RMK AO2 SLP131 T02390211","lat":27.7734,"lon":-97.513,"elev":11,"name":"Corpus Christi Intl, TX, US","cover":"SCT","clouds":[{"cover":"FEW","base":1800},{"cover":"SCT","base":25000}],"fltCat":"VFR"},{"icaoId":"KBDL","receiptTime":"2026-04-16T01:54:11.437Z","obsTime":1776304260,"reportTime":"2026-04-16T02:00:00.000Z","temp":22.2,"dewp":15.6,"wdir":180,"wspd":7,"visib":"10+","altim":1010.9,"slp":1010.8,"qcField":4,"metarType":"METAR","rawOb":"METAR KBDL 160151Z 18007KT 10SM FEW085 BKN250 22/16 A2985 RMK AO2 SLP108 T02220156","lat":41.9374,"lon":-72.682,"elev":52,"name":"Hartford/Bradley Intl, CT, US","cover":"BKN","clouds":[{"cover":"FEW","base":8500},{"cover":"BKN","base":25000}],"fltCat":"VFR"},{"icaoId":"KELP","receiptTime":"2026-04-16T01:54:12.037Z","obsTime":1776304260,"reportTime":"2026-04-16T02:00:00.000Z","temp":22.2,"dewp":-13.3,"wdir":290,"wspd":7,"visib":"10+","altim":1014.6,"slp":1009.5,"qcField":4,"metarType":"METAR","rawOb":"METAR KELP 160151Z 29007KT 10SM FEW140 22/M13 A2996 RMK AO2 SLP095 T02221133","lat":31.8123,"lon":-106.3774,"elev":1205,"name":"El Paso Intl, TX, US","cover":"FEW","clouds":[{"cover":"FEW","base":14000}],"fltCat":"VFR"},{"icaoId":"KIGM","receiptTime":"2026-04-16T01:54:12.399Z","obsTime":1776304260,"reportTime":"2026-04-16T02:00:00.000Z","temp":20.6,"dewp":-9.4,"wdir":240,"wspd":11,"visib":"10+","altim":1014.6,"slp":1010.1,"qcField":6,"metarType":"METAR","rawOb":"METAR KIGM 160151Z AUTO 24011KT 10SM CLR 21/M09 A2996 RMK AO2 SLP101 T02061094","lat":35.2575,"lon":-113.9341,"elev":1045,"name":"Kingman Arpt, AZ, US","cover":"CLR","clouds":[],"fltCat":"VFR"},{"icaoId":"KADM","receiptTime":"2026-04-16T02:02:13.886Z","obsTime":1776304200,"reportTime":"2026-04-16T02:00:00.000Z","temp":16,"dewp":16,"wdir":0,"wspd":0,"visib":"10+","altim":1010.6,"qcField":0,"wxString":"-RA","metarType":"METAR","rawOb":"METAR KADM 160150Z 00000KT 10SM -RA OVC009 16/16 A2984 RMK LTG ALQDS","lat":34.3007,"lon":-97.0089,"elev":223,"name":"Ardmore Muni, OK, US","cover":"OVC","clouds":[{"cover":"OVC","base":900}],"fltCat":"IFR"},{"icaoId":"KAEG","receiptTime":"2026-04-16T01:52:47.222Z","obsTime":1776304200,"reportTime":"2026-04-16T02:00:00.000Z","temp":14,"dewp":-11,"wdir":350,"wspd":5,"visib":"10+","altim":1017,"qcField":0,"metarType":"METAR","rawOb":"METAR KAEG 160150Z 35005KT 10SM CLR 14/M11 A3003","lat":35.15,"lon":-106.7929,"elev":1771,"name":"Albuquerque/Double Eagle Arpt, NM, US","cover":"CLR","clouds":[],"fltCat":"VFR"},{"icaoId":"KIWA","receiptTime":"2026-04-16T01:51:10.853Z","obsTime":1776304200,"reportTime":"2026-04-16T02:00:00.000Z","temp":27,"dewp":-5,"wdir":0,"wspd":0,"visib":"10+","altim":1012.3,"qcField":0,"metarType":"METAR","rawOb":"METAR KIWA 160150Z 00000KT 10SM CLR 27/M05 A2989","lat":33.3008,"lon":-111.6437,"elev":420,"name":"Phoenix/Mesa Gateway Arpt, AZ, US","cover":"CLR","clouds":[],"fltCat":"VFR"},{"icaoId":"KCHD","receiptTime":"2026-04-16T01:47:46.748Z","obsTime":1776304020,"reportTime":"2026-04-16T02:00:00.000Z","temp":27,"dewp":-5,"wdir":0,"wspd":0,"visib":"10+","altim":1011.6,"qcField":0,"metarType":"METAR","rawOb":"METAR KCHD 160147Z 00000KT 10SM CLR 27/M05 A2987","lat":33.2669,"lon":-111.8086,"elev":378,"name":"Chandler Muni, AZ, US","cover":"CLR","clouds":[],"fltCat":"VFR"},{"icaoId":"KGYR","receiptTime":"2026-04-16T01:55:14.568Z","obsTime":1776304020,"reportTime":"2026-04-16T02:00:00.000Z","temp":28,"dewp":-3,"wdir":270,"wspd":6,"visib":"10+","altim":1011.6,"qcField":0,"metarType":"METAR","rawOb":"METAR KGYR 160147Z 27006KT 10SM FEW080 FEW250 28/M03 A2987","lat":33.428,"lon":-112.368,"elev":292,"name":"Phoenix/Goodyear Muni, AZ, US","cover":"FEW","clouds":[{"cover":"FEW","base":8000},{"cover":"FEW","base":25000}],"fltCat":"VFR"},{"icaoId":"KSUN","receiptTime":"2026-04-16T01:53:46.456Z","obsTime":1776304020,"reportTime":"2026-04-16T02:00:00.000Z","temp":3,"dewp":2,"wdir":120,"wspd":6,"visib":3,"altim":1008.2,"qcField":0,"wxString":"-RA","metarType":"METAR","rawOb":"METAR KSUN 160147Z 12006KT 3SM -RA SCT006 BKN009 OVC015 03/02 A2977","lat":43.4969,"lon":-114.2923,"elev":1619,"name":"Hailey/Friedman Mem, ID, US","cover":"OVC","clouds":[{"cover":"SCT","base":600},{"cover":"BKN","base":900},{"cover":"OVC","base":1500}],"fltCat":"IFR"},{"icaoId":"KRYN","receiptTime":"2026-04-16T01:46:15.518Z","obsTime":1776303900,"reportTime":"2026-04-16T02:00:00.000Z","temp":25,"dewp":-15,"wdir":320,"wspd":5,"visib":"10+","altim":1012.6,"qcField":0,"metarType":"METAR","rawOb":"METAR KRYN 160145Z 32005KT 10SM CLR 25/M15 A2990","lat":32.1418,"lon":-111.1767,"elev":731,"name":"Tucson/Ryan Fld, AZ, US","cover":"CLR","clouds":[],"fltCat":"VFR"},{"icaoId":"KNYL","receiptTime":"2026-04-16T01:01:09.365Z","obsTime":1776301020,"reportTime":"2026-04-16T01:00:00.000Z","temp":29.4,"dewp":0.6,"wdir":290,"wspd":6,"visib":"10+","altim":1010.6,"slp":1010.3,"qcField":4,"metarType":"METAR","rawOb":"METAR KNYL 160057Z 29006KT 10SM CLR 29/01 A2984 RMK AO2 SLP103 T02940006","lat":32.66,"lon":-114.6078,"elev":58,"name":"Yuma , AZ, US","cover":"CLR","clouds":[],"fltCat":"VFR"},{"icaoId":"KLAR","receiptTime":"2026-04-16T00:56:36.063Z","obsTime":1776300780,"reportTime":"2026-04-16T01:00:00.000Z","temp":9.4,"dewp":-5,"wdir":230,"wspd":16,"visib":"10+","altim":1012.6,"slp":1008.2,"qcField":14,"metarType":"METAR","rawOb":"METAR KLAR 160053Z AUTO 23016KT 10SM FEW080 09/M05 A2990 RMK AO2 PK WND 25026/0002 SLP082 T00941050 $","lat":41.3165,"lon":-105.6729,"elev":2217,"name":"Laramie Rgnl, WY, US","cover":"FEW","clouds":[{"cover":"FEW","base":8000}],"fltCat":"VFR"}]