[{"icaoId":"KSOW","receiptTime":"2026-04-15T22:57:09.368Z","obsTime":1776293700,"reportTime":"2026-04-15T23:00:00.000Z","temp":18,"dewp":-8,"wdir":240,"wspd":6,"visib":"10+","altim":1019,"qcField":6,"metarType":"METAR","rawOb":"METAR KSOW 152255Z AUTO 24006KT 10SM CLR 18/M08 A3009 RMK AO2","lat":34.2686,"lon":-110.0019,"elev":1954,"name":"Show Low Muni, AZ, US","cover":"CLR","clouds":[],"fltCat":"VFR"},{"icaoId":"KBVU","receiptTime":"2026-04-15T22:56:34.440Z","obsTime":1776293700,"reportTime":"2026-04-15T23:00:00.000Z","temp":27,"dewp":-9,"wdir":140,"wspd":13,"wgst":19,"visib":"10+","altim":1011.6,"qcField":6,"metarType":"METAR","rawOb":"METAR KBVU 152255Z AUTO 14013G19KT 10SM CLR 27/M09 A2987 RMK AO2","lat":35.9489,"lon":-114.8633,"elev":654,"name":"Boulder City Muni, NV, US","cover":"CLR","clouds":[],"fltCat":"VFR"},{"icaoId":"KLRU","receiptTime":"2026-04-15T22:57:08.119Z","obsTime":1776293700,"reportTime":"2026-04-15T23:00:00.000Z","temp":23.1,"dewp":-19.4,"wdir":250,"wspd":9,"wgst":21,"visib":"10+","altim":1016.7,"qcField":6,"metarType":"METAR","rawOb":"METAR KLRU 152255Z AUTO 25009G21KT 230V290 10SM CLR 23/M19 A3002 RMK AO2 T02311194","lat":32.2884,"lon":-106.9131,"elev":1355,"name":"Las Cruces Intl, NM, US","cover":"CLR","clouds":[],"fltCat":"VFR"},{"icaoId":"KOLS","receiptTime":"2026-04-15T22:57:08.758Z","obsTime":1776293640,"reportTime":"2026-04-15T23:00:00.000Z","temp":25.6,"dewp":-12.8,"wdir":230,"wspd":7,"visib":"10+","altim":1015.7,"slp":1011,"qcField":6,"metarType":"METAR","rawOb":"METAR KOLS 152254Z AUTO 23007KT 10SM CLR 26/M13 A2999 RMK AO2 SLP110 T02561128","lat":31.4208,"lon":-110.8465,"elev":1194,"name":"Nogales Intl, AZ, US","cover":"CLR","clouds":[],"fltCat":"VFR"},{"icaoId":"KSLC","receiptTime":"2026-04-15T22:57:09.312Z","obsTime":1776293640,"reportTime":"2026-04-15T23:00:00.000Z","temp":18.9,"dewp":-2.8,"wdir":170,"wspd":7,"visib":"10+","altim":1010.2,"slp":1007.1,"qcField":4,"metarType":"METAR","rawOb":"METAR KSLC 152254Z 17007KT 10SM FEW070 BKN100 BKN200 19/M03 A2983 RMK AO2 SLP071 VIRGA ACSL DSNT SW T01891028","lat":40.7707,"lon":-111.965,"elev":1286,"name":"Salt Lake City Intl, UT, US","cover":"BKN","clouds":[{"cover":"FEW","base":7000},{"cover":"BKN","base":10000},{"cover":"BKN","base":20000}],"fltCat":"VFR"},{"icaoId":"KRIC","receiptTime":"2026-04-15T22:57:08.986Z","obsTime":1776293640,"reportTime":"2026-04-15T23:00:00.000Z","temp":30.6,"dewp":11.1,"wdir":210,"wspd":8,"visib":"10+","altim":1014,"slp":1014.2,"qcField":4,"metarType":"METAR","rawOb":"METAR KRIC 152254Z 21008KT 10SM BKN250 31/11 A2994 RMK AO2 SLP142 T03060111","lat":37.5115,"lon":-77.3234,"elev":51,"name":"Richmond Intl, VA, US","cover":"BKN","clouds":[{"cover":"BKN","base":25000}],"fltCat":"VFR"},{"icaoId":"KMEM","receiptTime":"2026-04-15T22:57:08.361Z","obsTime":1776293640,"reportTime":"2026-04-15T23:00:00.000Z","temp":27.2,"dewp":10.6,"wdir":190,"wspd":14,"wgst":19,"visib":"10+","altim":1014.6,"slp":1014.2,"qcField":4,"metarType":"METAR","rawOb":"METAR KMEM 152254Z 19014G19KT 10SM FEW060 BKN250 27/11 A2996 RMK AO2 SLP142 T02720106","lat":35.0564,"lon":-89.9864,"elev":78,"name":"Memphis Intl, TN, US","cover":"BKN","clouds":[{"cover":"FEW","base":6000},{"cover":"BKN","base":25000}],"fltCat":"VFR"},{"icaoId":"KGSO","receiptTime":"2026-04-15T22:56:43.217Z","obsTime":1776293640,"reportTime":"2026-04-15T23:00:00.000Z","temp":29.4,"dewp":6.7,"wdir":220,"wspd":10,"visib":"10+","altim":1016.3,"slp":1015.3,"qcField":4,"metarType":"METAR","rawOb":"METAR KGSO 152254Z 22010KT 10SM OVC250 29/07 A3001 RMK AO2 SLP153 T02940067","lat":36.0969,"lon":-79.9432,"elev":275,"name":"Greensboro Intl, NC, US","cover":"OVC","clouds":[{"cover":"OVC","base":25000}],"fltCat":"VFR"},{"icaoId":"KGCN","receiptTime":"2026-04-15T22:56:43.119Z","obsTime":1776293640,"reportTime":"2026-04-15T23:00:00.000Z","temp":16.7,"dewp":-6.1,"wdir":250,"wspd":6,"wgst":14,"visib":"10+","altim":1018.7,"slp":1014.6,"qcField":4,"metarType":"METAR","rawOb":"METAR KGCN 152254Z 25006G14KT 10SM CLR 17/M06 A3008 RMK AO2 SLP146 T01671061","lat":35.9458,"lon":-112.1554,"elev":1993,"name":"Grand Canyon Park Arpt, AZ, US","cover":"CLR","clouds":[],"fltCat":"VFR"},{"icaoId":"KBTV","receiptTime":"2026-04-15T22:56:40.474Z","obsTime":1776293640,"reportTime":"2026-04-15T23:00:00.000Z","temp":10.6,"dewp":8.9,"wdir":30,"wspd":3,"visib":3,"altim":1011.9,"slp":1012,"qcField":4,"wxString":"BR","metarType":"METAR","rawOb":"METAR KBTV 152254Z 03003KT 3SM BR BKN004 OVC041 11/09 A2988 RMK AO2 SLP120 T01060089","lat":44.4682,"lon":-73.1499,"elev":101,"name":"Burlington Intl, VT, US","cover":"OVC","clouds":[{"cover":"BKN","base":400},{"cover":"OVC","base":4100}],"fltCat":"LIFR"},{"icaoId":"KBFL","receiptTime":"2026-04-15T22:56:40.335Z","obsTime":1776293640,"reportTime":"2026-04-15T23:00:00.000Z","temp":23.3,"dewp":7.8,"wdir":250,"wspd":7,"visib":"10+","altim":1015.3,"slp":1014.8,"qcField":4,"metarType":"METAR","rawOb":"METAR KBFL 152254Z 25007KT 10SM CLR 23/08 A2998 RMK AO2 SLP148 T02330078","lat":35.4342,"lon":-119.0552,"elev":146,"name":"Bakersfield/Meadows Arpt, CA, US","cover":"CLR","clouds":[],"fltCat":"VFR"},{"icaoId":"KDSM","receiptTime":"2026-04-15T22:57:10.262Z","obsTime":1776293640,"reportTime":"2026-04-15T23:00:00.000Z","temp":18.9,"dewp":14.4,"wdir":"VRB","wspd":4,"visib":"10+","altim":1003.5,"slp":1003.2,"qcField":4,"precip":0.37,"metarType":"METAR","rawOb":"METAR KDSM 152254Z VRB04KT 10SM FEW030 FEW090 SCT120 19/14 A2963 RMK AO2 PK WND 30027/2155 RAE21 TSE44 SLP032 OCNL LTGICCG DSNT NE-SE TS MOV NE CB DSNT E-SE MOV NE TCU DSNT S P0037 T01890144","lat":41.5339,"lon":-93.6531,"elev":286,"name":"Des Moines Intl, IA, US","cover":"SCT","clouds":[{"cover":"FEW","base":3000},{"cover":"FEW","base":9000},{"cover":"SCT","base":12000}],"fltCat":"VFR"},{"icaoId":"KAPC","receiptTime":"2026-04-15T22:56:40.167Z","obsTime":1776293640,"reportTime":"2026-04-15T23:00:00.000Z","temp":17.8,"dewp":10,"wdir":260,"wspd":17,"visib":"10+","altim":1017.7,"slp":1016.5,"qcField":4,"metarType":"METAR","rawOb":"METAR KAPC 152254Z 26017KT 10SM CLR 18/10 A3005 RMK AO2 SLP165 T01780100","lat":38.2075,"lon":-122.2804,"elev":5,"name":"Napa Cnty Arpt, CA, US","cover":"CLR","clouds":[],"fltCat":"VFR"},{"icaoId":"KRKS","receiptTime":"2026-04-15T22:57:09.000Z","obsTime":1776293640,"reportTime":"2026-04-15T23:00:00.000Z","temp":13.3,"dewp":-6.1,"wdir":230,"wspd":18,"wgst":27,"visib":"10+","altim":1011.6,"slp":1008.1,"qcField":6,"metarType":"METAR","rawOb":"METAR KRKS 152254Z AUTO 23018G27KT 10SM OVC085 13/M06 A2987 RMK AO2 PK WND 26032/2226 SLP081 T01331061","lat":41.5947,"lon":-109.0529,"elev":2062,"name":"Rock Springs/SW Wyoming Rgnl, WY, US","cover":"OVC","clouds":[{"cover":"OVC","base":8500}],"fltCat":"VFR"},{"icaoId":"KFFZ","receiptTime":"2026-04-15T22:57:10.488Z","obsTime":1776293640,"reportTime":"2026-04-15T23:00:00.000Z","temp":27.8,"dewp":-3.9,"wdir":260,"wspd":5,"visib":"10+","altim":1012.6,"slp":1010.6,"qcField":6,"metarType":"METAR","rawOb":"METAR KFFZ 152254Z AUTO 26005KT 10SM CLR 28/M04 A2990 RMK AO2 SLP106 T02781039","lat":33.4659,"lon":-111.7212,"elev":420,"name":"Mesa/Falcon Fld, AZ, US","cover":"CLR","clouds":[],"fltCat":"VFR"},{"icaoId":"KSJN","receiptTime":"2026-04-15T22:57:09.297Z","obsTime":1776293640,"reportTime":"2026-04-15T23:00:00.000Z","temp":17.2,"dewp":-8.9,"wdir":300,"wspd":5,"visib":"10+","altim":1017.7,"slp":1012.7,"qcField":6,"metarType":"METAR","rawOb":"METAR KSJN 152254Z AUTO 30005KT 10SM CLR 17/M09 A3005 RMK AO2 SLP127 T01721089","lat":34.5184,"lon":-109.3801,"elev":1747,"name":"St Johns Ind Arpt, AZ, US","cover":"CLR","clouds":[],"fltCat":"VFR"},{"icaoId":"KOLM","receiptTime":"2026-04-15T22:57:07.784Z","obsTime":1776293640,"reportTime":"2026-04-15T23:00:00.000Z","temp":7.2,"dewp":1.1,"wdir":250,"wspd":10,"wgst":19,"visib":"10+","altim":1012.3,"slp":1012.2,"qcField":4,"precip":0.005,"metarType":"METAR","rawOb":"METAR KOLM 152254Z 25010G19KT 220V280 10SM FEW032 SCT100 07/01 A2989 RMK AO2 RAE2158 SLP122 P0000 T00720011","lat":46.9737,"lon":-122.9049,"elev":58,"name":"Olympia Rgnl, WA, US","cover":"SCT","clouds":[{"cover":"FEW","base":3200},{"cover":"SCT","base":10000}],"fltCat":"VFR"},{"icaoId":"KEUG","receiptTime":"2026-04-15T22:57:07.194Z","obsTime":1776293640,"reportTime":"2026-04-15T23:00:00.000Z","temp":9.4,"dewp":2.8,"wdir":230,"wspd":14,"wgst":19,"visib":"10+","altim":1017.7,"slp":1017.8,"qcField":12,"metarType":"METAR","rawOb":"METAR KEUG 152254Z 23014G19KT 10SM SCT035 BKN045 BKN070 09/03 A3005 RMK AO2 SLP178 CB DSNT N T00940028 $","lat":44.1331,"lon":-123.2156,"elev":109,"name":"Eugene/Mahlon Sweet Fld, OR, US","cover":"BKN","clouds":[{"cover":"SCT","base":3500},{"cover":"BKN","base":4500},{"cover":"BKN","base":7000}],"fltCat":"VFR"},{"icaoId":"KBUF","receiptTime":"2026-04-15T22:57:07.113Z","obsTime":1776293640,"reportTime":"2026-04-15T23:00:00.000Z","temp":18.3,"dewp":14.4,"wdir":230,"wspd":3,"visib":"10+","altim":1009.9,"slp":1009.7,"qcField":12,"wxString":"-TSRA","precip":0.005,"metarType":"METAR","rawOb":"METAR KBUF 152254Z 23003KT 10SM -TSRA SCT048CB BKN065 OVC110 18/14 A2982 RMK AO2 RAB25 TSB45 SLP097 FRQ LTGCGICCC VC W-NW-N TS VC W-NW-N MOV E P0000 T01830144 $","lat":42.94,"lon":-78.7361,"elev":217,"name":"Buffalo-Niagara Intl, NY, US","cover":"OVC","clouds":[{"cover":"SCT","base":4800},{"cover":"BKN","base":6500},{"cover":"OVC","base":11000}],"fltCat":"VFR"},{"icaoId":"KROC","receiptTime":"2026-04-15T22:57:06.375Z","obsTime":1776293640,"reportTime":"2026-04-15T23:00:00.000Z","temp":16.7,"dewp":12.2,"wdir":40,"wspd":9,"visib":"10+","altim":1010.9,"slp":1011.1,"qcField":12,"metarType":"METAR","rawOb":"METAR KROC 152254Z 04009KT 10SM BKN060 BKN080 BKN100 OVC250 17/12 A2985 RMK AO2 WSHFT 2158 SLP111 T01670122 $","lat":43.1172,"lon":-77.6754,"elev":166,"name":"Rochester Intl Arpt, NY, US","cover":"OVC","clouds":[{"cover":"BKN","base":6000},{"cover":"BKN","base":8000},{"cover":"BKN","base":10000},{"cover":"OVC","base":25000}],"fltCat":"VFR"},{"icaoId":"KIND","receiptTime":"2026-04-15T22:56:43.643Z","obsTime":1776293640,"reportTime":"2026-04-15T23:00:00.000Z","temp":22.8,"dewp":16.1,"wdir":210,"wspd":15,"wgst":23,"visib":"10+","altim":1013.3,"slp":1012.6,"qcField":4,"wxString":"-RA","precip":0.005,"metarType":"METAR","rawOb":"METAR KIND 152254Z 21015G23KT 10SM -RA BKN045 BKN120 OVC130 23/16 A2992 RMK AO2 RAE09B48 SLP126 P0000 T02280161","lat":39.7252,"lon":-86.2816,"elev":242,"name":"Indianapolis Intl, IN, US","cover":"OVC","clouds":[{"cover":"BKN","base":4500},{"cover":"BKN","base":12000},{"cover":"OVC","base":13000}],"fltCat":"VFR"},{"icaoId":"KPHL","receiptTime":"2026-04-15T22:57:10.831Z","obsTime":1776293640,"reportTime":"2026-04-15T23:00:00.000Z","temp":30,"dewp":13.9,"wdir":230,"wspd":11,"visib":"10+","altim":1011.6,"slp":1011.5,"qcField":12,"metarType":"METAR","rawOb":"METAR KPHL 152254Z 23011KT 10SM FEW060 SCT220 BKN300 30/14 A2987 RMK AO2 SLP115 T03000139 $","lat":39.8733,"lon":-75.2268,"elev":2,"name":"Philadelphia Intl, PA, US","cover":"BKN","clouds":[{"cover":"FEW","base":6000},{"cover":"SCT","base":22000},{"cover":"BKN","base":30000}],"fltCat":"VFR"},{"icaoId":"KBWI","receiptTime":"2026-04-15T22:56:40.537Z","obsTime":1776293640,"reportTime":"2026-04-15T23:00:00.000Z","temp":30.6,"dewp":14.4,"wdir":210,"wspd":5,"visib":"10+","altim":1011.6,"slp":1011.5,"qcField":4,"metarType":"METAR","rawOb":"METAR KBWI 152254Z 21005KT 10SM FEW075 BKN250 31/14 A2987 RMK AO2 SLP115 T03060144","lat":39.1733,"lon":-76.684,"elev":42,"name":"Baltimore-Washington Intl, MD, US","cover":"BKN","clouds":[{"cover":"FEW","base":7500},{"cover":"BKN","base":25000}],"fltCat":"VFR"},{"icaoId":"KCOS","receiptTime":"2026-04-15T22:57:10.037Z","obsTime":1776293640,"reportTime":"2026-04-15T23:00:00.000Z","temp":18.3,"dewp":-11.7,"wdir":150,"wspd":13,"wgst":17,"visib":"10+","altim":1011.9,"slp":1007.7,"qcField":4,"metarType":"METAR","rawOb":"METAR KCOS 152254Z 15013G17KT 10SM FEW090 18/M12 A2988 RMK AO2 SLP077 T01831117","lat":38.8095,"lon":-104.6887,"elev":1886,"name":"Colorado Spring Arpt, CO, US","cover":"FEW","clouds":[{"cover":"FEW","base":9000}],"fltCat":"VFR"},{"icaoId":"KSYR","receiptTime":"2026-04-15T22:57:09.461Z","obsTime":1776293640,"reportTime":"2026-04-15T23:00:00.000Z","temp":20.6,"dewp":14.4,"wdir":340,"wspd":7,"visib":"10+","altim":1011.3,"slp":1010.8,"qcField":4,"metarType":"METAR","rawOb":"METAR KSYR 152254Z 34007KT 10SM FEW085 SCT140 BKN230 21/14 A2986 RMK AO2 SLP108 T02060144","lat":43.1111,"lon":-76.1038,"elev":125,"name":"Syracuse/Hancock Intl, NY, US","cover":"BKN","clouds":[{"cover":"FEW","base":8500},{"cover":"SCT","base":14000},{"cover":"BKN","base":23000}],"fltCat":"VFR"},{"icaoId":"KHOU","receiptTime":"2026-04-15T22:56:32.451Z","obsTime":1776293580,"reportTime":"2026-04-15T23:00:00.000Z","temp":26.7,"dewp":19.4,"wdir":160,"wspd":13,"wgst":21,"visib":"10+","altim":1015,"slp":1015.2,"qcField":4,"metarType":"METAR","rawOb":"METAR KHOU 152253Z 16013G21KT 10SM SCT040 BKN070 BKN250 27/19 A2997 RMK AO2 SLP152 T02670194","lat":29.6458,"lon":-95.2821,"elev":13,"name":"Houston/Hobby Arpt, TX, US","cover":"BKN","clouds":[{"cover":"SCT","base":4000},{"cover":"BKN","base":7000},{"cover":"BKN","base":25000}],"fltCat":"VFR"},{"icaoId":"KIAH","receiptTime":"2026-04-15T22:56:32.618Z","obsTime":1776293580,"reportTime":"2026-04-15T23:00:00.000Z","temp":27.2,"dewp":18.9,"wdir":160,"wspd":13,"wgst":19,"visib":"10+","altim":1014.6,"slp":1014.4,"qcField":4,"metarType":"METAR","rawOb":"METAR KIAH 152253Z 16013G19KT 10SM SCT039 BKN075 BKN250 27/19 A2996 RMK AO2 SLP144 T02720189","lat":29.9844,"lon":-95.3607,"elev":27,"name":"Houston/Bush Intl, TX, US","cover":"BKN","clouds":[{"cover":"SCT","base":3900},{"cover":"BKN","base":7500},{"cover":"BKN","base":25000}],"fltCat":"VFR"},{"icaoId":"KLVS","receiptTime":"2026-04-15T22:56:27.003Z","obsTime":1776293580,"reportTime":"2026-04-15T23:00:00.000Z","temp":17.2,"dewp":-12.2,"wdir":210,"wspd":16,"wgst":27,"visib":"10+","altim":1015.3,"slp":1008.3,"qcField":14,"metarType":"METAR","rawOb":"METAR KLVS 152253Z AUTO 21016G27KT 10SM CLR 17/M12 A2998 RMK AO2 PK WND 21028/2230 SLP083 T01721122 PNO $","lat":35.6558,"lon":-105.1385,"elev":2095,"name":"Las Vegas Muni, NM, US","cover":"CLR","clouds":[],"fltCat":"VFR"},{"icaoId":"KDRO","receiptTime":"2026-04-15T22:56:28.628Z","obsTime":1776293580,"reportTime":"2026-04-15T23:00:00.000Z","temp":14.4,"dewp":-5,"wdir":240,"wspd":13,"wgst":19,"visib":"10+","altim":1017.4,"slp":1015.2,"qcField":6,"metarType":"METAR","rawOb":"METAR KDRO 152253Z AUTO 24013G19KT 10SM FEW085 14/M05 A3004 RMK AO2 SLP152 T01441050","lat":37.1431,"lon":-107.7602,"elev":2021,"name":"Durango/La Plata Cnty, CO, US","cover":"FEW","clouds":[{"cover":"FEW","base":8500}],"fltCat":"VFR"},{"icaoId":"KDTW","receiptTime":"2026-04-15T22:56:28.674Z","obsTime":1776293580,"reportTime":"2026-04-15T23:00:00.000Z","temp":20.6,"dewp":18.3,"wdir":220,"wspd":9,"visib":"10+","altim":1010.6,"slp":1010.1,"qcField":12,"metarType":"METAR","rawOb":"METAR KDTW 152253Z 22009KT 10SM FEW020 SCT160 OVC200 21/18 A2984 RMK AO2 SLP101 T02060183 $","lat":42.2311,"lon":-83.3312,"elev":192,"name":"Detroit/Metro Wayne Cnty, MI, US","cover":"OVC","clouds":[{"cover":"FEW","base":2000},{"cover":"SCT","base":16000},{"cover":"OVC","base":20000}],"fltCat":"VFR"},{"icaoId":"KONT","receiptTime":"2026-04-15T22:56:30.457Z","obsTime":1776293580,"reportTime":"2026-04-15T23:00:00.000Z","temp":25,"dewp":7.8,"wdir":260,"wspd":10,"wgst":18,"visib":"10+","altim":1014.6,"slp":1013.6,"qcField":12,"metarType":"METAR","rawOb":"METAR KONT 152253Z 26010G18KT 10SM FEW100 FEW250 25/08 A2996 RMK AO2 SLP136 T02500078 $","lat":34.0531,"lon":-117.5769,"elev":279,"name":"Ontario Intl, CA, US","cover":"FEW","clouds":[{"cover":"FEW","base":10000},{"cover":"FEW","base":25000}],"fltCat":"VFR"},{"icaoId":"KLAW","receiptTime":"2026-04-15T22:56:26.647Z","obsTime":1776293580,"reportTime":"2026-04-15T23:00:00.000Z","temp":25.6,"dewp":20,"wdir":160,"wspd":16,"wgst":25,"visib":"10+","altim":1009.6,"slp":1008.2,"qcField":4,"metarType":"METAR","rawOb":"METAR KLAW 152253Z 16016G25KT 10SM FEW065 FEW080 SCT110 26/20 A2981 RMK AO2 SLP082 T02560200","lat":34.5577,"lon":-98.4172,"elev":328,"name":"Lawton-Fort Sill Rgnl, OK, US","cover":"SCT","clouds":[{"cover":"FEW","base":6500},{"cover":"FEW","base":8000},{"cover":"SCT","base":11000}],"fltCat":"VFR"},{"icaoId":"KBFI","receiptTime":"2026-04-15T22:56:31.472Z","obsTime":1776293580,"reportTime":"2026-04-15T23:00:00.000Z","temp":7.2,"dewp":2.2,"wdir":320,"wspd":5,"visib":9,"altim":1011.3,"slp":1011,"qcField":4,"wxString":"VCTS -RA","precip":0.005,"metarType":"METAR","rawOb":"METAR KBFI 152253Z 32005KT 9SM VCTS -RA BKN030 BKN042 07/02 A2986 RMK AO2 RAE2155B53 SLP110 P0000 T00720022","lat":47.5455,"lon":-122.3148,"elev":7,"name":"Seattle/Boeing Fld, WA, US","cover":"BKN","clouds":[{"cover":"BKN","base":3000},{"cover":"BKN","base":4200}],"fltCat":"MVFR"},{"icaoId":"KBHM","receiptTime":"2026-04-15T22:56:31.531Z","obsTime":1776293580,"reportTime":"2026-04-15T23:00:00.000Z","temp":28.3,"dewp":10.6,"wdir":220,"wspd":11,"wgst":17,"visib":"10+","altim":1018.7,"slp":1017.8,"qcField":4,"metarType":"METAR","rawOb":"METAR KBHM 152253Z 22011G17KT 10SM BKN250 28/11 A3008 RMK AO2 SLP178 T02830106","lat":33.5655,"lon":-86.7449,"elev":191,"name":"Birmingham Intl, AL, US","cover":"BKN","clouds":[{"cover":"BKN","base":25000}],"fltCat":"VFR"},{"icaoId":"KBNA","receiptTime":"2026-04-15T22:56:31.649Z","obsTime":1776293580,"reportTime":"2026-04-15T23:00:00.000Z","temp":28.3,"dewp":9.4,"wdir":190,"wspd":12,"visib":"10+","altim":1016,"slp":1015.1,"qcField":4,"metarType":"METAR","rawOb":"METAR KBNA 152253Z 19012KT 10SM BKN250 28/09 A3000 RMK AO2 SLP151 T02830094","lat":36.1105,"lon":-86.6881,"elev":168,"name":"Nashville Intl, TN, US","cover":"BKN","clouds":[{"cover":"BKN","base":25000}],"fltCat":"VFR"},{"icaoId":"KDFW","receiptTime":"2026-04-15T22:56:28.084Z","obsTime":1776293580,"reportTime":"2026-04-15T23:00:00.000Z","temp":25.6,"dewp":18.3,"wdir":190,"wspd":16,"wgst":25,"visib":"10+","altim":1011.3,"slp":1010.4,"qcField":4,"metarType":"METAR","rawOb":"METAR KDFW 152253Z 19016G25KT 10SM BKN034 BKN060 BKN150 OVC250 26/18 A2986 RMK AO2 PK WND 19028/2217 SLP104 T02560183","lat":32.8974,"lon":-97.022,"elev":168,"name":"Dallas-Ft Worth Intl, TX, US","cover":"OVC","clouds":[{"cover":"BKN","base":3400},{"cover":"BKN","base":6000},{"cover":"BKN","base":15000},{"cover":"OVC","base":25000}],"fltCat":"VFR"},{"icaoId":"KDMN","receiptTime":"2026-04-15T22:56:33.313Z","obsTime":1776293580,"reportTime":"2026-04-15T23:00:00.000Z","temp":25,"dewp":-15,"wdir":250,"wspd":15,"wgst":20,"visib":"10+","altim":1016,"slp":1010.9,"qcField":6,"metarType":"METAR","rawOb":"METAR KDMN 152253Z AUTO 25015G20KT 10SM CLR 25/M15 A3000 RMK AO2 SLP109 T02501150","lat":32.2592,"lon":-107.7206,"elev":1310,"name":"Deming Muni, NM, US","cover":"CLR","clouds":[],"fltCat":"VFR"},{"icaoId":"KBTM","receiptTime":"2026-04-15T22:56:28.253Z","obsTime":1776293580,"reportTime":"2026-04-15T23:00:00.000Z","temp":11.1,"dewp":-2.8,"wdir":260,"wspd":16,"wgst":30,"visib":"10+","altim":1001.8,"slp":999.4,"qcField":6,"metarType":"METAR","rawOb":"METAR KBTM 152253Z AUTO 26016G30KT 10SM SCT055 11/M03 A2958 RMK AO2 PK WND 23036/2221 SLP994 T01111028","lat":45.9644,"lon":-112.5015,"elev":1680,"name":"Butte/Mooney Arpt, MT, US","cover":"SCT","clouds":[{"cover":"SCT","base":5500}],"fltCat":"VFR"},{"icaoId":"KAMA","receiptTime":"2026-04-15T22:56:31.917Z","obsTime":1776293580,"reportTime":"2026-04-15T23:00:00.000Z","temp":25.6,"dewp":-8.9,"wdir":290,"wspd":16,"wgst":21,"visib":"10+","altim":1011.6,"slp":1006.9,"qcField":4,"metarType":"METAR","rawOb":"METAR KAMA 152253Z 29016G21KT 10SM CLR 26/M09 A2987 RMK AO2 PK WND 28028/2159 SLP069 T02561089","lat":35.2203,"lon":-101.7173,"elev":1102,"name":"Amarillo Intl Arpt, TX, US","cover":"CLR","clouds":[],"fltCat":"VFR"},{"icaoId":"KAPA","receiptTime":"2026-04-15T22:56:35.140Z","obsTime":1776293580,"reportTime":"2026-04-15T23:00:00.000Z","temp":17.8,"dewp":-7.8,"wdir":10,"wspd":11,"visib":"10+","altim":1011.3,"slp":1008.2,"qcField":4,"metarType":"METAR","rawOb":"METAR KAPA 152253Z 01011KT 10SM FEW100 FEW220 18/M08 A2986 RMK AO2 PK WND 32027/2154 SLP082 T01781078","lat":39.5599,"lon":-104.8484,"elev":1791,"name":"Denver/Centennial Arpt, CO, US","cover":"FEW","clouds":[{"cover":"FEW","base":10000},{"cover":"FEW","base":22000}],"fltCat":"VFR"},{"icaoId":"KCPR","receiptTime":"2026-04-15T22:56:35.221Z","obsTime":1776293580,"reportTime":"2026-04-15T23:00:00.000Z","temp":18.3,"dewp":-6.1,"wdir":250,"wspd":24,"wgst":35,"visib":"10+","altim":1006.5,"slp":1003,"qcField":4,"metarType":"METAR","rawOb":"METAR KCPR 152253Z 25024G35KT 10SM CLR 18/M06 A2972 RMK AO2 PK WND 24038/2200 SLP030 T01831061","lat":42.8978,"lon":-106.4736,"elev":1623,"name":"Casper/Natrona Cnty, WY, US","cover":"CLR","clouds":[],"fltCat":"VFR"},{"icaoId":"KDAL","receiptTime":"2026-04-15T22:56:24.130Z","obsTime":1776293580,"reportTime":"2026-04-15T23:00:00.000Z","temp":25.6,"dewp":18.9,"wdir":190,"wspd":14,"wgst":25,"visib":"10+","altim":1011.9,"slp":1011.1,"qcField":4,"metarType":"METAR","rawOb":"METAR KDAL 152253Z 19014G25KT 10SM FEW029 SCT045 BKN070 BKN250 26/19 A2988 RMK AO2 SLP111 T02560189","lat":32.8384,"lon":-96.8358,"elev":148,"name":"Dallas/Love Fld, TX, US","cover":"BKN","clouds":[{"cover":"FEW","base":2900},{"cover":"SCT","base":4500},{"cover":"BKN","base":7000},{"cover":"BKN","base":25000}],"fltCat":"VFR"},{"icaoId":"KSJC","receiptTime":"2026-04-15T22:56:29.935Z","obsTime":1776293580,"reportTime":"2026-04-15T23:00:00.000Z","temp":17.2,"dewp":8.9,"wdir":330,"wspd":16,"wgst":23,"visib":"10+","altim":1018.4,"slp":1018.2,"qcField":12,"metarType":"METAR","rawOb":"METAR KSJC 152253Z 33016G23KT 10SM FEW035 SCT080 BKN100 17/09 A3007 RMK AO2 SLP182 T01720089 $","lat":37.3594,"lon":-121.9244,"elev":13,"name":"San Jose Intl Arpt, CA, US","cover":"BKN","clouds":[{"cover":"FEW","base":3500},{"cover":"SCT","base":8000},{"cover":"BKN","base":10000}],"fltCat":"VFR"},{"icaoId":"KRDD","receiptTime":"2026-04-15T22:56:26.027Z","obsTime":1776293580,"reportTime":"2026-04-15T23:00:00.000Z","temp":18.9,"dewp":7.8,"wdir":190,"wspd":13,"visib":"10+","altim":1014.3,"slp":1013.8,"qcField":4,"metarType":"METAR","rawOb":"METAR KRDD 152253Z 19013KT 10SM SCT055 OVC070 19/08 A2995 RMK AO2 SLP138 T01890078","lat":40.5146,"lon":-122.2977,"elev":152,"name":"Redding Muni, CA, US","cover":"OVC","clouds":[{"cover":"SCT","base":5500},{"cover":"OVC","base":7000}],"fltCat":"VFR"},{"icaoId":"KPUW","receiptTime":"2026-04-15T22:56:25.940Z","obsTime":1776293580,"reportTime":"2026-04-15T23:00:00.000Z","temp":6.1,"dewp":0.6,"wdir":250,"wspd":16,"wgst":23,"visib":"10+","altim":1005.8,"slp":1006.8,"qcField":6,"metarType":"METAR","rawOb":"METAR KPUW 152253Z AUTO 25016G23KT 10SM BKN032 OVC048 06/01 A2970 RMK AO2 PK WND 24029/2154 SLP068 T00610006","lat":46.7438,"lon":-117.1158,"elev":774,"name":"Pullman/Moscow Rgnl, WA, US","cover":"OVC","clouds":[{"cover":"BKN","base":3200},{"cover":"OVC","base":4800}],"fltCat":"VFR"},{"icaoId":"KPSC","receiptTime":"2026-04-15T22:56:25.868Z","obsTime":1776293580,"reportTime":"2026-04-15T23:00:00.000Z","temp":15,"dewp":-7.2,"wdir":280,"wspd":21,"wgst":32,"visib":"10+","altim":1007.5,"slp":1007.2,"qcField":4,"metarType":"METAR","rawOb":"METAR KPSC 152253Z 28021G32KT 10SM CLR 15/M07 A2975 RMK AO2 PK WND 29033/2228 SLP072 T01501072","lat":46.2695,"lon":-119.1182,"elev":121,"name":"Pasco/Tri Cities Arpt, WA, US","cover":"CLR","clouds":[],"fltCat":"VFR"},{"icaoId":"KPRC","receiptTime":"2026-04-15T22:56:25.855Z","obsTime":1776293580,"reportTime":"2026-04-15T23:00:00.000Z","temp":20,"dewp":-7.2,"wdir":"VRB","wspd":6,"visib":"10+","altim":1017,"slp":1012,"qcField":4,"metarType":"METAR","rawOb":"METAR KPRC 152253Z VRB06KT 10SM CLR 20/M07 A3003 RMK AO2 SLP120 T02001072","lat":34.6491,"lon":-112.4223,"elev":1528,"name":"Prescott/Love Fld, AZ, US","cover":"CLR","clouds":[],"fltCat":"VFR"},{"icaoId":"KGEG","receiptTime":"2026-04-15T22:56:33.522Z","obsTime":1776293580,"reportTime":"2026-04-15T23:00:00.000Z","temp":10.6,"dewp":-8.9,"wdir":240,"wspd":22,"wgst":37,"visib":"10+","altim":1002.5,"slp":1002.8,"qcField":4,"metarType":"METAR","rawOb":"METAR KGEG 152253Z 24022G37KT 10SM FEW020 SCT040 SCT120 11/M09 A2960 RMK AO2 PK WND 26038/2232 SLP028 SHRA DSNT N AND W T01061089","lat":47.6217,"lon":-117.528,"elev":718,"name":"Spokane Intl, WA, US","cover":"SCT","clouds":[{"cover":"FEW","base":2000},{"cover":"SCT","base":4000},{"cover":"SCT","base":12000}],"fltCat":"VFR"},{"icaoId":"KPAE","receiptTime":"2026-04-15T22:56:30.629Z","obsTime":1776293580,"reportTime":"2026-04-15T23:00:00.000Z","temp":4.4,"dewp":1.7,"wdir":110,"wspd":3,"visib":"10+","altim":1011.3,"slp":1011.6,"qcField":4,"precip":0.01,"metarType":"METAR","rawOb":"METAR KPAE 152253Z 11003KT 10SM SCT015 BKN041 04/02 A2986 RMK AO2 LTG DSNT S RAE08 SLP116 P0001 T00440017","lat":47.9232,"lon":-122.2831,"elev":166,"name":"Everett/Paine Fld, WA, US","cover":"BKN","clouds":[{"cover":"SCT","base":1500},{"cover":"BKN","base":4100}],"fltCat":"VFR"},{"icaoId":"KGSP","receiptTime":"2026-04-15T22:56:32.124Z","obsTime":1776293580,"reportTime":"2026-04-15T23:00:00.000Z","temp":28.3,"dewp":10.6,"wdir":230,"wspd":8,"visib":"10+","altim":1018,"slp":1016.8,"qcField":4,"metarType":"METAR","rawOb":"METAR KGSP 152253Z 23008KT 10SM CLR 28/11 A3006 RMK AO2 SLP168 T02830106","lat":34.8842,"lon":-82.2209,"elev":285,"name":"Greenville-Spartanburg Intl, SC, US","cover":"CLR","clouds":[],"fltCat":"VFR"},{"icaoId":"KLAX","receiptTime":"2026-04-15T22:56:33.667Z","obsTime":1776293580,"reportTime":"2026-04-15T23:00:00.000Z","temp":19.4,"dewp":12.8,"wdir":270,"wspd":13,"visib":"10+","altim":1016,"slp":1015.7,"qcField":4,"metarType":"METAR","rawOb":"METAR KLAX 152253Z 27013KT 10SM FEW050 FEW250 19/13 A3000 RMK AO2 SLP157 T01940128","lat":33.9382,"lon":-118.3866,"elev":30,"name":"Los Angeles Intl, CA, US","cover":"FEW","clouds":[{"cover":"FEW","base":5000},{"cover":"FEW","base":25000}],"fltCat":"VFR"},{"icaoId":"KHLN","receiptTime":"2026-04-15T22:56:32.422Z","obsTime":1776293580,"reportTime":"2026-04-15T23:00:00.000Z","temp":12.2,"dewp":2.8,"wdir":290,"wspd":12,"wgst":23,"visib":"10+","altim":999.7,"slp":1000.6,"qcField":4,"metarType":"METAR","rawOb":"METAR KHLN 152253Z 29012G23KT 10SM SCT075 12/03 A2952 RMK AO2 SLP006 T01220028","lat":46.6045,"lon":-111.9892,"elev":1178,"name":"Helena Rgnl, MT, US","cover":"SCT","clouds":[{"cover":"SCT","base":7500}],"fltCat":"VFR"},{"icaoId":"KFAT","receiptTime":"2026-04-15T22:56:33.443Z","obsTime":1776293580,"reportTime":"2026-04-15T23:00:00.000Z","temp":23.9,"dewp":5.6,"wdir":310,"wspd":4,"visib":"10+","altim":1015.7,"slp":1015.3,"qcField":12,"metarType":"METAR","rawOb":"METAR KFAT 152253Z 31004KT 10SM FEW050 SCT130 BKN200 24/06 A2999 RMK AO2 SLP153 T02390056 $","lat":36.78,"lon":-119.7202,"elev":102,"name":"Fresno/Yosemite Intl, CA, US","cover":"BKN","clouds":[{"cover":"FEW","base":5000},{"cover":"SCT","base":13000},{"cover":"BKN","base":20000}],"fltCat":"VFR"},{"icaoId":"KSAF","receiptTime":"2026-04-15T22:56:30.167Z","obsTime":1776293580,"reportTime":"2026-04-15T23:00:00.000Z","temp":17.8,"dewp":-10,"wdir":230,"wspd":16,"wgst":30,"visib":"10+","altim":1016.3,"slp":1010.6,"qcField":4,"metarType":"METAR","rawOb":"METAR KSAF 152253Z 23016G30KT 10SM SCT070 18/M10 A3001 RMK AO2 PK WND 22030/2249 SLP106 T01781100","lat":35.611,"lon":-106.0957,"elev":1918,"name":"Santa Fe Cnty Muni, NM, US","cover":"SCT","clouds":[{"cover":"SCT","base":7000}],"fltCat":"VFR"},{"icaoId":"KAST","receiptTime":"2026-04-15T22:56:27.635Z","obsTime":1776293580,"reportTime":"2026-04-15T22:53:00.000Z","temp":6,"dewp":3,"wdir":280,"wspd":6,"visib":"10+","altim":1015.3,"qcField":6,"wxString":"-RA","precip":0.005,"metarType":"SPECI","rawOb":"SPECI KAST 152253Z AUTO 28006KT 10SM -RA SCT025 BKN033 OVC080 06/03 A2998 RMK AO2 WSHFT 2213 RAB21E31B35 TSB32E47 P0000","lat":46.157,"lon":-123.8833,"elev":3,"name":"Astoria Rgnl, OR, US","cover":"OVC","clouds":[{"cover":"SCT","base":2500},{"cover":"BKN","base":3300},{"cover":"OVC","base":8000}],"fltCat":"VFR"},{"icaoId":"KCYS","receiptTime":"2026-04-15T22:56:35.238Z","obsTime":1776293580,"reportTime":"2026-04-15T23:00:00.000Z","temp":16.1,"dewp":-6.7,"wdir":270,"wspd":18,"wgst":29,"visib":"10+","altim":1010.6,"slp":1005.9,"qcField":4,"metarType":"METAR","rawOb":"METAR KCYS 152253Z 27018G29KT 10SM CLR 16/M07 A2984 RMK AO2 PK WND 25032/2210 SLP059 T01611067","lat":41.1579,"lon":-104.8081,"elev":1868,"name":"Cheyenne Rgnl, WY, US","cover":"CLR","clouds":[],"fltCat":"VFR"},{"icaoId":"KASE","receiptTime":"2026-04-15T22:56:35.162Z","obsTime":1776293580,"reportTime":"2026-04-15T23:00:00.000Z","temp":10,"dewp":-6.7,"wdir":250,"wspd":4,"wgst":12,"visib":"10+","altim":1017,"slp":1010.9,"qcField":4,"metarType":"METAR","rawOb":"METAR KASE 152253Z 25004G12KT 10SM OVC075 10/M07 A3003 RMK AO2 SLP109 T01001067","lat":39.2299,"lon":-106.8705,"elev":2384,"name":"Aspen/Pitkin Cnty, CO, US","cover":"OVC","clouds":[{"cover":"OVC","base":7500}],"fltCat":"VFR"},{"icaoId":"KBRO","receiptTime":"2026-04-15T22:56:34.170Z","obsTime":1776293580,"reportTime":"2026-04-15T23:00:00.000Z","temp":28.3,"dewp":19.4,"wdir":140,"wspd":17,"wgst":24,"visib":"10+","altim":1012.3,"slp":1011.9,"qcField":4,"metarType":"METAR","rawOb":"METAR KBRO 152253Z 14017G24KT 10SM FEW030 28/19 A2989 RMK AO2 PK WND 13026/2202 SLP119 T02830194","lat":25.9146,"lon":-97.4231,"elev":6,"name":"Brownsville Intl, TX, US","cover":"FEW","clouds":[{"cover":"FEW","base":3000}],"fltCat":"VFR"},{"icaoId":"KELY","receiptTime":"2026-04-15T22:56:33.398Z","obsTime":1776293580,"reportTime":"2026-04-15T23:00:00.000Z","temp":15.6,"dewp":-6.1,"wdir":210,"wspd":17,"wgst":27,"visib":"10+","altim":1013.6,"slp":1009.5,"qcField":6,"metarType":"METAR","rawOb":"METAR KELY 152253Z AUTO 21017G27KT 10SM OVC090 16/M06 A2993 RMK AO2 PK WND 21027/2252 SLP095 T01561061","lat":39.2954,"lon":-114.8466,"elev":1906,"name":"Ely/Yelland Fld, NV, US","cover":"OVC","clouds":[{"cover":"OVC","base":9000}],"fltCat":"VFR"},{"icaoId":"KEVW","receiptTime":"2026-04-15T22:56:32.678Z","obsTime":1776293580,"reportTime":"2026-04-15T23:00:00.000Z","temp":11.1,"dewp":-4.4,"wdir":250,"wspd":27,"wgst":38,"visib":"10+","altim":1013,"slp":1009.6,"qcField":14,"metarType":"METAR","rawOb":"METAR KEVW 152253Z AUTO 25027G38KT 10SM FEW060 11/M04 A2991 RMK AO2 PK WND 25039/2201 SLP096 T01111044 $","lat":41.2727,"lon":-111.0305,"elev":2178,"name":"Evanston/Uinta Cnty, WY, US","cover":"FEW","clouds":[{"cover":"FEW","base":6000}],"fltCat":"VFR"},{"icaoId":"KPBI","receiptTime":"2026-04-15T22:56:31.365Z","obsTime":1776293580,"reportTime":"2026-04-15T23:00:00.000Z","temp":24.4,"dewp":14.4,"wdir":90,"wspd":11,"visib":"10+","altim":1019.4,"slp":1019.3,"qcField":12,"metarType":"METAR","rawOb":"METAR KPBI 152253Z 09011KT 10SM BKN042 24/14 A3010 RMK AO2 SLP193 T02440144 $","lat":26.6851,"lon":-80.0992,"elev":4,"name":"Palm Beach Intl, FL, US","cover":"BKN","clouds":[{"cover":"BKN","base":4200}],"fltCat":"VFR"},{"icaoId":"KMAF","receiptTime":"2026-04-15T22:56:30.701Z","obsTime":1776293580,"reportTime":"2026-04-15T23:00:00.000Z","temp":29.4,"dewp":-2.2,"wdir":260,"wspd":14,"wgst":21,"visib":"10+","altim":1012.3,"slp":1008,"qcField":4,"metarType":"METAR","rawOb":"METAR KMAF 152253Z 26014G21KT 10SM CLR 29/M02 A2989 RMK AO2 SLP080 T02941022","lat":31.9475,"lon":-102.2086,"elev":874,"name":"Midland Intl, TX, US","cover":"CLR","clouds":[],"fltCat":"VFR"},{"icaoId":"KMYF","receiptTime":"2026-04-15T22:56:30.302Z","obsTime":1776293580,"reportTime":"2026-04-15T23:00:00.000Z","temp":20,"dewp":12.2,"wdir":300,"wspd":8,"visib":"10+","altim":1015.7,"slp":1015.3,"qcField":4,"metarType":"METAR","rawOb":"METAR KMYF 152253Z 30008KT 10SM CLR 20/12 A2999 RMK AO2 SLP153 T02000122","lat":32.8145,"lon":-117.1375,"elev":128,"name":"San Diego/Montgomery Arpt, CA, US","cover":"CLR","clouds":[],"fltCat":"VFR"},{"icaoId":"KSHR","receiptTime":"2026-04-15T22:56:29.909Z","obsTime":1776293580,"reportTime":"2026-04-15T23:00:00.000Z","temp":16.7,"dewp":0,"wdir":0,"wspd":0,"visib":"10+","altim":1002.5,"slp":1002,"qcField":6,"metarType":"METAR","rawOb":"METAR KSHR 152253Z AUTO 00000KT 10SM CLR 17/00 A2960 RMK AO2 SLP020 T01670000","lat":44.7603,"lon":-106.9741,"elev":1212,"name":"Sheridan Cnty Arpt, WY, US","cover":"CLR","clouds":[],"fltCat":"VFR"},{"icaoId":"KSEA","receiptTime":"2026-04-15T22:56:28.938Z","obsTime":1776293580,"reportTime":"2026-04-15T23:00:00.000Z","temp":8.3,"dewp":1.7,"wdir":190,"wspd":16,"wgst":22,"visib":"10+","altim":1010.9,"slp":1011.5,"qcField":4,"wxString":"VCTS","metarType":"METAR","rawOb":"METAR KSEA 152253Z 19016G22KT 10SM VCTS FEW035CB SCT050 BKN065 08/02 A2985 RMK AO2 SLP115 OCNL LTGICCCCG VC NW TS NW MOV E T00830017","lat":47.4447,"lon":-122.3144,"elev":115,"name":"Seattle-Tacoma Intl, WA, US","cover":"BKN","clouds":[{"cover":"FEW","base":3500},{"cover":"SCT","base":5000},{"cover":"BKN","base":6500}],"fltCat":"VFR"},{"icaoId":"KBUR","receiptTime":"2026-04-15T22:56:28.267Z","obsTime":1776293580,"reportTime":"2026-04-15T23:00:00.000Z","temp":23.3,"dewp":5.6,"wdir":220,"wspd":10,"visib":"10+","altim":1015.3,"slp":1014.1,"qcField":6,"metarType":"METAR","rawOb":"METAR KBUR 152253Z AUTO 22010KT 10SM CLR 23/06 A2998 RMK AO2 SLP141 T02330056","lat":34.1996,"lon":-118.3654,"elev":221,"name":"Burbank/Bob Hope Arpt, CA, US","cover":"CLR","clouds":[],"fltCat":"VFR"},{"icaoId":"KDEN","receiptTime":"2026-04-15T22:56:28.021Z","obsTime":1776293580,"reportTime":"2026-04-15T23:00:00.000Z","temp":18.9,"dewp":-8.9,"wdir":"VRB","wspd":6,"visib":"10+","altim":1010.6,"slp":1006,"qcField":4,"metarType":"METAR","rawOb":"METAR KDEN 152253Z VRB06KT 10SM FEW090 FEW140 FEW220 19/M09 A2984 RMK AO2 SLP060 T01891089","lat":39.8466,"lon":-104.6562,"elev":1656,"name":"Denver Intl, CO, US","cover":"FEW","clouds":[{"cover":"FEW","base":9000},{"cover":"FEW","base":14000},{"cover":"FEW","base":22000}],"fltCat":"VFR"},{"icaoId":"KLOL","receiptTime":"2026-04-15T22:56:26.868Z","obsTime":1776293580,"reportTime":"2026-04-15T23:00:00.000Z","temp":18.9,"dewp":-4.4,"wdir":230,"wspd":17,"visib":"10+","altim":1011.6,"slp":1009.7,"qcField":6,"metarType":"METAR","rawOb":"METAR KLOL 152253Z AUTO 23017KT 10SM FEW095 19/M04 A2987 RMK AO2 PK WND 23033/2157 SLP097 T01891044","lat":40.0684,"lon":-118.5702,"elev":1191,"name":"Lovelock/Derby Fld, NV, US","cover":"FEW","clouds":[{"cover":"FEW","base":9500}],"fltCat":"VFR"},{"icaoId":"KRTN","receiptTime":"2026-04-15T22:56:26.161Z","obsTime":1776293580,"reportTime":"2026-04-15T23:00:00.000Z","temp":18.9,"dewp":-12.2,"wdir":240,"wspd":8,"wgst":18,"visib":"10+","altim":1013,"slp":1008.3,"qcField":6,"metarType":"METAR","rawOb":"METAR KRTN 152253Z AUTO 24008G18KT 200V280 10SM CLR 19/M12 A2991 RMK AO2 PK WND 22027/2200 SLP083 T01891122","lat":36.7418,"lon":-104.5076,"elev":1939,"name":"Raton/Crews Fld, NM, US","cover":"CLR","clouds":[],"fltCat":"VFR"},{"icaoId":"KSDL","receiptTime":"2026-04-15T22:56:30.210Z","obsTime":1776293580,"reportTime":"2026-04-15T23:00:00.000Z","temp":27.8,"dewp":-3.3,"wdir":"VRB","wspd":3,"visib":"10+","altim":1013.3,"slp":1011.2,"qcField":4,"metarType":"METAR","rawOb":"METAR KSDL 152253Z VRB03KT 10SM CLR 28/M03 A2992 RMK AO2 SLP112 T02781033","lat":33.6123,"lon":-111.9232,"elev":438,"name":"Scottsdale Muni, AZ, US","cover":"CLR","clouds":[],"fltCat":"VFR"},{"icaoId":"KCLL","receiptTime":"2026-04-15T22:56:33.358Z","obsTime":1776293580,"reportTime":"2026-04-15T23:00:00.000Z","temp":28.9,"dewp":18.9,"wdir":180,"wspd":11,"visib":"10+","altim":1013.3,"slp":1012.7,"qcField":4,"metarType":"METAR","rawOb":"METAR KCLL 152253Z 18011KT 10SM FEW047 SCT085 29/19 A2992 RMK AO2 SLP127 T02890189","lat":30.5912,"lon":-96.3631,"elev":96,"name":"College Station/Easterwood Arpt, TX, US","cover":"SCT","clouds":[{"cover":"FEW","base":4700},{"cover":"SCT","base":8500}],"fltCat":"VFR"},{"icaoId":"KAUS","receiptTime":"2026-04-15T22:56:27.806Z","obsTime":1776293580,"reportTime":"2026-04-15T23:00:00.000Z","temp":29.4,"dewp":17.8,"wdir":160,"wspd":9,"visib":"10+","altim":1012.3,"slp":1011,"qcField":4,"precip":0.005,"metarType":"METAR","rawOb":"METAR KAUS 152253Z 16009KT 10SM SCT065 BKN085 BKN200 29/18 A2989 RMK AO2 RAB06E16 SLP110 P0000 T02940178","lat":30.1831,"lon":-97.6806,"elev":148,"name":"Austin/Bergstrom Intl, TX, US","cover":"BKN","clouds":[{"cover":"SCT","base":6500},{"cover":"BKN","base":8500},{"cover":"BKN","base":20000}],"fltCat":"VFR"},{"icaoId":"KOGD","receiptTime":"2026-04-15T22:56:30.387Z","obsTime":1776293580,"reportTime":"2026-04-15T23:00:00.000Z","temp":16.1,"dewp":-2.2,"wdir":170,"wspd":8,"wgst":15,"visib":"10+","altim":1010.6,"slp":1007.9,"qcField":4,"metarType":"METAR","rawOb":"METAR KOGD 152253Z 17008G15KT 10SM OVC090 16/M02 A2984 RMK AO2 SLP079 T01611022","lat":41.1941,"lon":-112.0168,"elev":1356,"name":"Ogden/Hinckley Arpt, UT, US","cover":"OVC","clouds":[{"cover":"OVC","base":9000}],"fltCat":"VFR"},{"icaoId":"KMSP","receiptTime":"2026-04-15T22:56:34.978Z","obsTime":1776293580,"reportTime":"2026-04-15T23:00:00.000Z","temp":19.4,"dewp":5.6,"wdir":140,"wspd":5,"visib":"10+","altim":1005.8,"slp":1005.7,"qcField":4,"metarType":"METAR","rawOb":"METAR KMSP 152253Z 14005KT 10SM FEW170 FEW250 19/06 A2970 RMK AO2 SLP057 T01940056","lat":44.8852,"lon":-93.2313,"elev":255,"name":"Minneapolis-St Paul Intl, MN, US","cover":"FEW","clouds":[{"cover":"FEW","base":17000},{"cover":"FEW","base":25000}],"fltCat":"VFR"},{"icaoId":"KCRQ","receiptTime":"2026-04-15T22:56:23.181Z","obsTime":1776293580,"reportTime":"2026-04-15T23:00:00.000Z","temp":18.3,"dewp":12.2,"wdir":290,"wspd":8,"wgst":16,"visib":"10+","altim":1015.7,"slp":1015.2,"qcField":4,"metarType":"METAR","rawOb":"METAR KCRQ 152253Z 29008G16KT 10SM CLR 18/12 A2999 RMK AO2 SLP152 T01830122","lat":33.1299,"lon":-117.2765,"elev":96,"name":"Carlsbad/Palomar Arpt, CA, US","cover":"CLR","clouds":[],"fltCat":"VFR"},{"icaoId":"KCNY","receiptTime":"2026-04-15T22:56:33.371Z","obsTime":1776293580,"reportTime":"2026-04-15T23:00:00.000Z","temp":19.4,"dewp":-4.4,"visib":"10+","altim":1013.6,"slp":1011.1,"qcField":6,"metarType":"METAR","rawOb":"METAR KCNY 152253Z AUTO 10SM CLR 19/M04 A2993 RMK AO2 SLP111 T01941044","lat":38.7501,"lon":-109.7627,"elev":1392,"name":"Moab/Canyonland Fld, UT, US","cover":"CLR","clouds":[],"fltCat":"VFR"},{"icaoId":"KDLN","receiptTime":"2026-04-15T22:56:28.163Z","obsTime":1776293580,"reportTime":"2026-04-15T23:00:00.000Z","temp":12.2,"dewp":-2.2,"wdir":250,"wspd":19,"wgst":32,"visib":"10+","altim":1002.1,"slp":999.5,"qcField":6,"metarType":"METAR","rawOb":"METAR KDLN 152253Z AUTO 25019G32KT 10SM FEW070 12/M02 A2959 RMK AO2 PK WND 25037/2231 SLP995 T01221022","lat":45.2584,"lon":-112.5546,"elev":1586,"name":"Dillon Arpt, MT, US","cover":"FEW","clouds":[{"cover":"FEW","base":7000}],"fltCat":"VFR"},{"icaoId":"KACV","receiptTime":"2026-04-15T22:56:31.785Z","obsTime":1776293580,"reportTime":"2026-04-15T23:00:00.000Z","temp":9.4,"dewp":7.2,"wdir":350,"wspd":11,"wgst":19,"visib":"10+","altim":1020.1,"slp":1020.7,"qcField":6,"precip":0.005,"metarType":"METAR","rawOb":"METAR KACV 152253Z AUTO 35011G19KT 10SM FEW014 BKN035 OVC050 09/07 A3012 RMK AO2 RAB38E47 SLP207 P0000 T00940072","lat":40.9784,"lon":-124.1048,"elev":63,"name":"Arcata Arpt, CA, US","cover":"OVC","clouds":[{"cover":"FEW","base":1400},{"cover":"BKN","base":3500},{"cover":"OVC","base":5000}],"fltCat":"VFR"},{"icaoId":"KBIL","receiptTime":"2026-04-15T22:56:23.138Z","obsTime":1776293580,"reportTime":"2026-04-15T23:00:00.000Z","temp":17.8,"dewp":-1.7,"wdir":260,"wspd":13,"visib":"10+","altim":1001.1,"slp":999.3,"qcField":4,"metarType":"METAR","rawOb":"METAR KBIL 152253Z 26013KT 10SM SCT085 BKN140 18/M02 A2956 RMK AO2 PK WND 21031/2213 SLP993 SHRA DSNT N-NE SW T01781017","lat":45.8072,"lon":-108.5462,"elev":1089,"name":"Billings/Logan Intl, MT, US","cover":"BKN","clouds":[{"cover":"SCT","base":8500},{"cover":"BKN","base":14000}],"fltCat":"VFR"},{"icaoId":"KBLI","receiptTime":"2026-04-15T22:56:31.605Z","obsTime":1776293580,"reportTime":"2026-04-15T23:00:00.000Z","temp":8.9,"dewp":-1.7,"wdir":260,"wspd":7,"visib":"10+","altim":1010.6,"slp":1011.2,"qcField":4,"metarType":"METAR","rawOb":"METAR KBLI 152253Z 26007KT 210V310 10SM CLR 09/M02 A2984 RMK AO2 SLP112 T00891017","lat":48.7991,"lon":-122.5407,"elev":46,"name":"Bellingham Intl, WA, US","cover":"CLR","clouds":[],"fltCat":"VFR"},{"icaoId":"KGJT","receiptTime":"2026-04-15T22:56:33.208Z","obsTime":1776293580,"reportTime":"2026-04-15T23:00:00.000Z","temp":17.2,"dewp":-1.7,"wdir":270,"wspd":3,"visib":"10+","altim":1014.6,"slp":1011.3,"qcField":4,"metarType":"METAR","rawOb":"METAR KGJT 152253Z 27003KT 10SM CLR 17/M02 A2996 RMK AO2 SLP113 T01721017","lat":39.1344,"lon":-108.5408,"elev":1475,"name":"Grand Junction Rgnl, CO, US","cover":"CLR","clouds":[],"fltCat":"VFR"},{"icaoId":"KTWF","receiptTime":"2026-04-15T22:56:29.647Z","obsTime":1776293580,"reportTime":"2026-04-15T23:00:00.000Z","temp":10,"dewp":7.2,"wdir":80,"wspd":6,"visib":"10+","altim":1009.2,"slp":1007,"qcField":4,"precip":0.02,"metarType":"METAR","rawOb":"METAR KTWF 152253Z 08006KT 10SM BKN055 OVC070 10/07 A2980 RMK AO2 RAE47 SLP070 P0002 T01000072","lat":42.4785,"lon":-114.4775,"elev":1269,"name":"Twin Falls/Joslin Fld, ID, US","cover":"OVC","clouds":[{"cover":"BKN","base":5500},{"cover":"OVC","base":7000}],"fltCat":"VFR"},{"icaoId":"KTUL","receiptTime":"2026-04-15T22:56:29.588Z","obsTime":1776293580,"reportTime":"2026-04-15T23:00:00.000Z","temp":24.4,"dewp":17.8,"wdir":190,"wspd":20,"wgst":29,"visib":"10+","altim":1008.5,"slp":1007.9,"qcField":4,"metarType":"METAR","rawOb":"METAR KTUL 152253Z 19020G29KT 10SM SCT027 BKN250 24/18 A2978 RMK AO2 PK WND 18033/2226 SLP079 CB DSNT NW-N MOV NE T02440178","lat":36.1985,"lon":-95.8782,"elev":196,"name":"Tulsa Intl Arpt, OK, US","cover":"BKN","clouds":[{"cover":"SCT","base":2700},{"cover":"BKN","base":25000}],"fltCat":"VFR"},{"icaoId":"KSMF","receiptTime":"2026-04-15T22:56:29.960Z","obsTime":1776293580,"reportTime":"2026-04-15T23:00:00.000Z","temp":21.1,"dewp":7.8,"wdir":170,"wspd":12,"wgst":20,"visib":"10+","altim":1015.7,"slp":1015.6,"qcField":4,"metarType":"METAR","rawOb":"METAR KSMF 152253Z 17012G20KT 10SM BKN250 21/08 A2999 RMK AO2 SLP156 T02110078","lat":38.7007,"lon":-121.5948,"elev":7,"name":"Sacramento Intl, CA, US","cover":"BKN","clouds":[{"cover":"BKN","base":25000}],"fltCat":"VFR"},{"icaoId":"KPIH","receiptTime":"2026-04-15T22:56:34.156Z","obsTime":1776293580,"reportTime":"2026-04-15T23:00:00.000Z","temp":10,"dewp":2.8,"wdir":270,"wspd":18,"visib":"10+","altim":1010.2,"slp":1008.5,"qcField":4,"metarType":"METAR","rawOb":"METAR KPIH 152253Z 27018KT 10SM OVC060 10/03 A2983 RMK AO2 SLP085 T01000028","lat":42.9197,"lon":-112.5723,"elev":1357,"name":"Pocatello Rgnl, ID, US","cover":"OVC","clouds":[{"cover":"OVC","base":6000}],"fltCat":"VFR"},{"icaoId":"KPSP","receiptTime":"2026-04-15T22:56:25.883Z","obsTime":1776293580,"reportTime":"2026-04-15T23:00:00.000Z","temp":30.6,"dewp":1.1,"wdir":120,"wspd":12,"visib":"10+","altim":1011.9,"slp":1011.4,"qcField":12,"metarType":"METAR","rawOb":"METAR KPSP 152253Z 12012KT 10SM CLR 31/01 A2988 RMK AO2 SLP114 T03060011 $","lat":33.8222,"lon":-116.5043,"elev":123,"name":"Palm Springs Intl, CA, US","cover":"CLR","clouds":[],"fltCat":"VFR"},{"icaoId":"KMFR","receiptTime":"2026-04-15T22:56:30.850Z","obsTime":1776293580,"reportTime":"2026-04-15T23:00:00.000Z","temp":10.6,"dewp":5,"wdir":340,"wspd":10,"visib":"10+","altim":1016.3,"slp":1016.2,"qcField":4,"metarType":"METAR","rawOb":"METAR KMFR 152253Z 34010KT 10SM FEW026 BKN043 OVC070 11/05 A3001 RMK AO2 SLP162 T01060050","lat":42.375,"lon":-122.877,"elev":397,"name":"Medford/Rogue Valley Intl, OR, US","cover":"OVC","clouds":[{"cover":"FEW","base":2600},{"cover":"BKN","base":4300},{"cover":"OVC","base":7000}],"fltCat":"VFR"},{"icaoId":"KLBB","receiptTime":"2026-04-15T22:56:33.686Z","obsTime":1776293580,"reportTime":"2026-04-15T23:00:00.000Z","temp":26.7,"dewp":-9.4,"wdir":250,"wspd":13,"wgst":31,"visib":"10+","altim":1012.3,"slp":1007.7,"qcField":4,"metarType":"METAR","rawOb":"METAR KLBB 152253Z 25013G31KT 10SM FEW120 FEW250 27/M09 A2989 RMK AO2 PK WND 26034/2203 SLP077 T02671094","lat":33.6658,"lon":-101.8233,"elev":996,"name":"Lubbock Intl Arpt, TX, US","cover":"FEW","clouds":[{"cover":"FEW","base":12000},{"cover":"FEW","base":25000}],"fltCat":"VFR"},{"icaoId":"KLGB","receiptTime":"2026-04-15T22:56:26.777Z","obsTime":1776293580,"reportTime":"2026-04-15T23:00:00.000Z","temp":23.3,"dewp":10,"wdir":190,"wspd":9,"visib":"10+","altim":1015,"slp":1014.8,"qcField":4,"metarType":"METAR","rawOb":"METAR KLGB 152253Z 19009KT 10SM CLR 23/10 A2997 RMK AO2 SLP148 T02330100","lat":33.8118,"lon":-118.1472,"elev":10,"name":"Long Beach Arpt, CA, US","cover":"CLR","clouds":[],"fltCat":"VFR"},{"icaoId":"KMLS","receiptTime":"2026-04-15T22:56:31.135Z","obsTime":1776293580,"reportTime":"2026-04-15T23:00:00.000Z","temp":18.3,"dewp":1.7,"wdir":120,"wspd":8,"visib":"10+","altim":1001.4,"slp":1001,"qcField":6,"metarType":"METAR","rawOb":"METAR KMLS 152253Z AUTO 12008KT 10SM CLR 18/02 A2957 RMK AO2 SLP010 T01830017","lat":46.4265,"lon":-105.8834,"elev":800,"name":"Miles City/Wiley Fld, MT, US","cover":"CLR","clouds":[],"fltCat":"VFR"},{"icaoId":"KTPA","receiptTime":"2026-04-15T22:56:29.527Z","obsTime":1776293580,"reportTime":"2026-04-15T23:00:00.000Z","temp":24.4,"dewp":16.1,"wdir":270,"wspd":10,"wgst":18,"visib":"10+","altim":1019,"slp":1018.8,"qcField":4,"metarType":"METAR","rawOb":"METAR KTPA 152253Z 27010G18KT 10SM FEW065 FEW250 24/16 A3009 RMK AO2 SLP188 T02440161","lat":27.9633,"lon":-82.54,"elev":2,"name":"Tampa Intl Arpt, FL, US","cover":"FEW","clouds":[{"cover":"FEW","base":6500},{"cover":"FEW","base":25000}],"fltCat":"VFR"},{"icaoId":"KMTJ","receiptTime":"2026-04-15T22:56:31.349Z","obsTime":1776293580,"reportTime":"2026-04-15T23:00:00.000Z","temp":15.6,"dewp":-5,"wdir":310,"wspd":4,"visib":"10+","altim":1016.7,"slp":1012.6,"qcField":6,"metarType":"METAR","rawOb":"METAR KMTJ 152253Z AUTO 31004KT 10SM SCT085 16/M05 A3002 RMK AO2 SLP126 T01561050","lat":38.5054,"lon":-107.8981,"elev":1755,"name":"Montrose Rgnl, CO, US","cover":"SCT","clouds":[{"cover":"SCT","base":8500}],"fltCat":"VFR"},{"icaoId":"KIDA","receiptTime":"2026-04-15T22:56:26.498Z","obsTime":1776293580,"reportTime":"2026-04-15T23:00:00.000Z","temp":8.9,"dewp":3.9,"wdir":230,"wspd":16,"wgst":29,"visib":"10+","altim":1009.9,"slp":1009.3,"qcField":4,"wxString":"-RA","precip":0.005,"metarType":"METAR","rawOb":"METAR KIDA 152253Z 23016G29KT 10SM -RA SCT032 OVC045 09/04 A2982 RMK AO2 PK WND 22029/2245 SLP093 P0000 T00890039","lat":43.5204,"lon":-112.0675,"elev":1444,"name":"Idaho Falls Rgnl, ID, US","cover":"OVC","clouds":[{"cover":"SCT","base":3200},{"cover":"OVC","base":4500}],"fltCat":"VFR"},{"icaoId":"KVEL","receiptTime":"2026-04-15T22:56:29.753Z","obsTime":1776293580,"reportTime":"2026-04-15T23:00:00.000Z","temp":16.7,"dewp":-2.2,"wdir":200,"wspd":14,"wgst":20,"visib":"10+","altim":1012.3,"slp":1009.7,"qcField":6,"metarType":"METAR","rawOb":"METAR KVEL 152253Z AUTO 20014G20KT 10SM BKN080 OVC090 17/M02 A2989 RMK AO2 SLP097 T01671022","lat":40.4429,"lon":-109.5128,"elev":1604,"name":"Vernal Rgnl, UT, US","cover":"OVC","clouds":[{"cover":"BKN","base":8000},{"cover":"OVC","base":9000}],"fltCat":"VFR"},{"icaoId":"KVGT","receiptTime":"2026-04-15T22:56:29.766Z","obsTime":1776293580,"reportTime":"2026-04-15T23:00:00.000Z","temp":27.8,"dewp":-6.7,"wdir":180,"wspd":15,"wgst":19,"visib":"10+","altim":1011.3,"slp":1011.4,"qcField":4,"metarType":"METAR","rawOb":"METAR KVGT 152253Z 18015G19KT 10SM CLR 28/M07 A2986 RMK AO2 PK WND 14026/2200 SLP114 T02781067","lat":36.212,"lon":-115.194,"elev":664,"name":"Las Vegas/North Arpt, NV, US","cover":"CLR","clouds":[],"fltCat":"VFR"},{"icaoId":"KSNA","receiptTime":"2026-04-15T22:56:29.986Z","obsTime":1776293580,"reportTime":"2026-04-15T23:00:00.000Z","temp":21.1,"dewp":11.7,"wdir":240,"wspd":6,"visib":"10+","altim":1015.3,"slp":1015.2,"qcField":12,"metarType":"METAR","rawOb":"METAR KSNA 152253Z 24006KT 10SM FEW025 FEW180 21/12 A2998 RMK AO2 SLP152 T02110117 $","lat":33.6798,"lon":-117.8675,"elev":14,"name":"Santa Ana/Wayne Arpt, CA, US","cover":"FEW","clouds":[{"cover":"FEW","base":2500},{"cover":"FEW","base":18000}],"fltCat":"VFR"},{"icaoId":"KSTS","receiptTime":"2026-04-15T22:56:26.453Z","obsTime":1776293580,"reportTime":"2026-04-15T23:00:00.000Z","temp":20,"dewp":10.6,"wdir":170,"wspd":7,"visib":"10+","altim":1017,"slp":1016.3,"qcField":4,"metarType":"METAR","rawOb":"METAR KSTS 152253Z 17007KT 10SM FEW040 SCT050 20/11 A3003 RMK AO2 SLP163 T02000106","lat":38.5037,"lon":-122.811,"elev":35,"name":"Santa Rosa/Schulz Arpt, CA, US","cover":"SCT","clouds":[{"cover":"FEW","base":4000},{"cover":"SCT","base":5000}],"fltCat":"VFR"},{"icaoId":"KYKM","receiptTime":"2026-04-15T22:56:29.104Z","obsTime":1776293580,"reportTime":"2026-04-15T23:00:00.000Z","temp":11.1,"dewp":-6.1,"wdir":260,"wspd":17,"wgst":24,"visib":"10+","altim":1007.5,"slp":1007.8,"qcField":4,"metarType":"METAR","rawOb":"METAR KYKM 152253Z 26017G24KT 10SM CLR 11/M06 A2975 RMK AO2 PK WND 28033/2154 SLP078 T01111061","lat":46.564,"lon":-120.5349,"elev":319,"name":"Yakima/McAllister Fld, WA, US","cover":"CLR","clouds":[],"fltCat":"VFR"},{"icaoId":"PANC","receiptTime":"2026-04-15T22:56:29.295Z","obsTime":1776293580,"reportTime":"2026-04-15T23:00:00.000Z","temp":0.6,"dewp":-0.6,"wdir":"VRB","wspd":3,"visib":2,"altim":1012.3,"slp":1012.5,"qcField":4,"wxString":"-SN BR","precip":0.01,"metarType":"METAR","rawOb":"METAR PANC 152253Z VRB03KT 2SM -SN BR SCT014 BKN031 OVC060 01/M01 A2989 RMK AO2 SLP125 P0001 T00061006","lat":61.1691,"lon":-150.0277,"elev":39,"name":"Anchorage Intl, AK, US","cover":"OVC","clouds":[{"cover":"SCT","base":1400},{"cover":"BKN","base":3100},{"cover":"OVC","base":6000}],"fltCat":"IFR"},{"icaoId":"KRIW","receiptTime":"2026-04-15T22:56:33.892Z","obsTime":1776293580,"reportTime":"2026-04-15T23:00:00.000Z","temp":15,"dewp":-5,"wdir":230,"wspd":14,"visib":"10+","altim":1006.9,"slp":1004.3,"qcField":6,"metarType":"METAR","rawOb":"METAR KRIW 152253Z AUTO 23014KT 10SM CLR 15/M05 A2973 RMK AO2 SLP043 T01501050","lat":43.0622,"lon":-108.4471,"elev":1662,"name":"Riverton Rgnl, WY, US","cover":"CLR","clouds":[],"fltCat":"VFR"},{"icaoId":"KDVT","receiptTime":"2026-04-15T22:56:28.704Z","obsTime":1776293580,"reportTime":"2026-04-15T23:00:00.000Z","temp":28.3,"dewp":-3.9,"wdir":270,"wspd":5,"visib":"10+","altim":1013,"slp":1010.9,"qcField":6,"metarType":"METAR","rawOb":"METAR KDVT 152253Z AUTO 27005KT 10SM CLR 28/M04 A2991 RMK AO2 SLP109 T02831039","lat":33.6902,"lon":-112.0662,"elev":454,"name":"Phoenix/Deer Valley Arpt, AZ, US","cover":"CLR","clouds":[],"fltCat":"VFR"},{"icaoId":"KSBA","receiptTime":"2026-04-15T22:56:30.180Z","obsTime":1776293580,"reportTime":"2026-04-15T23:00:00.000Z","temp":18.9,"dewp":10,"wdir":250,"wspd":9,"visib":"10+","altim":1016,"slp":1015.7,"qcField":12,"metarType":"METAR","rawOb":"METAR KSBA 152253Z 25009KT 10SM CLR 19/10 A3000 RMK AO2 SLP157 T01890100 $","lat":34.4241,"lon":-119.8425,"elev":2,"name":"Santa Barbara Muni, CA, US","cover":"CLR","clouds":[],"fltCat":"VFR"},{"icaoId":"KMFE","receiptTime":"2026-04-15T22:56:30.834Z","obsTime":1776293580,"reportTime":"2026-04-15T23:00:00.000Z","temp":30,"dewp":19.4,"wdir":150,"wspd":19,"wgst":23,"visib":"10+","altim":1011.6,"slp":1011.1,"qcField":4,"metarType":"METAR","rawOb":"METAR KMFE 152253Z 15019G23KT 10SM FEW040 FEW070 30/19 A2987 RMK AO2 SLP111 T03000194","lat":26.1791,"lon":-98.2445,"elev":29,"name":"McAllen/Miller Intl, TX, US","cover":"FEW","clouds":[{"cover":"FEW","base":4000},{"cover":"FEW","base":7000}],"fltCat":"VFR"},{"icaoId":"KMCI","receiptTime":"2026-04-15T22:56:35.002Z","obsTime":1776293580,"reportTime":"2026-04-15T23:00:00.000Z","temp":27.2,"dewp":6.1,"wdir":260,"wspd":15,"wgst":28,"visib":"10+","altim":1005.2,"slp":1004,"qcField":4,"wxString":"TS","metarType":"METAR","rawOb":"METAR KMCI 152253Z 26015G28KT 10SM TS SCT075CB SCT250 27/06 A2968 RMK AO2 PK WND 25030/2236 TSB51 SLP040 OCNL LTGICCCCG E-SE TS E-SE MOV NE T02720061","lat":39.2975,"lon":-94.7309,"elev":308,"name":"Kansas City Intl, MO, US","cover":"SCT","clouds":[{"cover":"SCT","base":7500},{"cover":"SCT","base":25000}],"fltCat":"VFR"},{"icaoId":"KBCE","receiptTime":"2026-04-15T22:56:34.937Z","obsTime":1776293580,"reportTime":"2026-04-15T23:00:00.000Z","temp":13.3,"dewp":-6.1,"wdir":270,"wspd":9,"wgst":20,"visib":"10+","altim":1018,"slp":1012.3,"qcField":6,"metarType":"METAR","rawOb":"METAR KBCE 152253Z AUTO 27009G20KT 10SM CLR 13/M06 A3006 RMK AO2 SLP123 T01331061","lat":37.7013,"lon":-112.149,"elev":2311,"name":"Bryce Canyon Arpt, UT, US","cover":"CLR","clouds":[],"fltCat":"VFR"},{"icaoId":"KPGA","receiptTime":"2026-04-15T22:56:33.865Z","obsTime":1776293580,"reportTime":"2026-04-15T23:00:00.000Z","temp":21.1,"dewp":-7.2,"wdir":"VRB","wspd":3,"visib":"10+","altim":1014.3,"slp":1010.4,"qcField":14,"metarType":"METAR","rawOb":"METAR KPGA 152253Z AUTO VRB03KT 10SM CLR 21/M07 A2995 RMK AO2 SLP104 T02111072 $","lat":36.9211,"lon":-111.4487,"elev":1310,"name":"Page Muni, AZ, US","cover":"CLR","clouds":[],"fltCat":"VFR"},{"icaoId":"KPDX","receiptTime":"2026-04-15T22:56:33.853Z","obsTime":1776293580,"reportTime":"2026-04-15T23:00:00.000Z","temp":10,"dewp":1.7,"wdir":280,"wspd":10,"visib":"10+","altim":1014.6,"slp":1014.5,"qcField":4,"wxString":"-RA","precip":0.005,"metarType":"METAR","rawOb":"METAR KPDX 152253Z 28010KT 10SM -RA SCT035 SCT046CB BKN060 10/02 A2996 RMK AO2 RAB49 SLP145 CB VC-N MOV E P0000 T01000017","lat":45.5958,"lon":-122.6092,"elev":7,"name":"Portland Intl, OR, US","cover":"BKN","clouds":[{"cover":"SCT","base":3500},{"cover":"SCT","base":4600},{"cover":"BKN","base":6000}],"fltCat":"VFR"},{"icaoId":"KFMN","receiptTime":"2026-04-15T22:56:33.459Z","obsTime":1776293580,"reportTime":"2026-04-15T23:00:00.000Z","temp":17.2,"dewp":-10.6,"wdir":260,"wspd":13,"wgst":21,"visib":"10+","altim":1017.4,"slp":1015.5,"qcField":4,"metarType":"METAR","rawOb":"METAR KFMN 152253Z 26013G21KT 10SM CLR 17/M11 A3004 RMK AO2 SLP155 T01721106","lat":36.7435,"lon":-108.2293,"elev":1677,"name":"Farmington/Four Corners Rgnl, NM, US","cover":"CLR","clouds":[],"fltCat":"VFR"},{"icaoId":"KFUL","receiptTime":"2026-04-15T22:56:33.020Z","obsTime":1776293580,"reportTime":"2026-04-15T23:00:00.000Z","temp":23.9,"dewp":10.6,"wdir":240,"wspd":6,"visib":"10+","altim":1014.6,"slp":1014.5,"qcField":4,"metarType":"METAR","rawOb":"METAR KFUL 152253Z 24006KT 10SM CLR 24/11 A2996 RMK AO2 SLP145 T02390106","lat":33.8715,"lon":-117.9856,"elev":23,"name":"Fullerton Muni, CA, US","cover":"CLR","clouds":[],"fltCat":"VFR"},{"icaoId":"KGTF","receiptTime":"2026-04-15T22:56:32.142Z","obsTime":1776293580,"reportTime":"2026-04-15T23:00:00.000Z","temp":14.4,"dewp":1.1,"wdir":240,"wspd":19,"wgst":25,"visib":"10+","altim":999.4,"slp":999,"qcField":4,"metarType":"METAR","rawOb":"METAR KGTF 152253Z 24019G25KT 10SM FEW055 SCT110 14/01 A2951 RMK AO2 PK WND 23027/2232 SLP990 T01440011","lat":47.4733,"lon":-111.3828,"elev":1117,"name":"Great Falls Intl, MT, US","cover":"SCT","clouds":[{"cover":"FEW","base":5500},{"cover":"SCT","base":11000}],"fltCat":"VFR"},{"icaoId":"KMSY","receiptTime":"2026-04-15T22:56:31.320Z","obsTime":1776293580,"reportTime":"2026-04-15T23:00:00.000Z","temp":26.1,"dewp":16.7,"wdir":160,"wspd":9,"visib":"10+","altim":1017.7,"slp":1017.8,"qcField":4,"metarType":"METAR","rawOb":"METAR KMSY 152253Z 16009KT 10SM FEW042 SCT075 SCT250 26/17 A3005 RMK AO2 SLP178 T02610167","lat":29.9974,"lon":-90.2777,"elev":0,"name":"New Orleans/Armstrong Intl, LA, US","cover":"SCT","clouds":[{"cover":"FEW","base":4200},{"cover":"SCT","base":7500},{"cover":"SCT","base":25000}],"fltCat":"VFR"},{"icaoId":"KMOD","receiptTime":"2026-04-15T22:56:31.229Z","obsTime":1776293580,"reportTime":"2026-04-15T23:00:00.000Z","temp":22.2,"dewp":3.9,"wdir":310,"wspd":8,"visib":"10+","altim":1016,"slp":1016,"qcField":4,"metarType":"METAR","rawOb":"METAR KMOD 152253Z 31008KT 10SM CLR 22/04 A3000 RMK AO2 SLP160 T02220039","lat":37.6254,"lon":-120.9549,"elev":25,"name":"Modesto/Sham Fld, CA, US","cover":"CLR","clouds":[],"fltCat":"VFR"},{"icaoId":"KMLC","receiptTime":"2026-04-15T22:56:31.086Z","obsTime":1776293580,"reportTime":"2026-04-15T23:00:00.000Z","temp":23.9,"dewp":19.4,"wdir":"VRB","wspd":6,"visib":"10+","altim":1011.3,"slp":1010.2,"qcField":6,"metarType":"METAR","rawOb":"METAR KMLC 152253Z AUTO VRB06KT 10SM OVC046 24/19 A2986 RMK AO2 SLP102 T02390194","lat":34.8824,"lon":-95.7815,"elev":231,"name":"McAlester Rgnl, OK, US","cover":"OVC","clouds":[{"cover":"OVC","base":4600}],"fltCat":"VFR"},{"icaoId":"KMIA","receiptTime":"2026-04-15T22:56:30.944Z","obsTime":1776293580,"reportTime":"2026-04-15T23:00:00.000Z","temp":24.4,"dewp":14.4,"wdir":80,"wspd":11,"visib":"10+","altim":1019,"slp":1018.8,"qcField":0,"metarType":"METAR","rawOb":"METAR KMIA 152253Z 08011KT 10SM BKN043 24/14 A3009 RMK SLP188 T02440144","lat":25.7881,"lon":-80.3169,"elev":1,"name":"Miami Intl, FL, US","cover":"BKN","clouds":[{"cover":"BKN","base":4300}],"fltCat":"VFR"},{"icaoId":"KMDW","receiptTime":"2026-04-15T22:56:30.819Z","obsTime":1776293580,"reportTime":"2026-04-15T23:00:00.000Z","temp":22.8,"dewp":17.8,"wdir":210,"wspd":12,"wgst":20,"visib":"10+","altim":1007.9,"slp":1007.1,"qcField":4,"metarType":"METAR","rawOb":"METAR KMDW 152253Z 21012G20KT 10SM BKN027 BKN033 BKN250 23/18 A2976 RMK AO2 SLP071 T02280178","lat":41.7841,"lon":-87.7552,"elev":186,"name":"Chicago/Midway Intl, IL, US","cover":"BKN","clouds":[{"cover":"BKN","base":2700},{"cover":"BKN","base":3300},{"cover":"BKN","base":25000}],"fltCat":"MVFR"},{"icaoId":"KMCO","receiptTime":"2026-04-15T22:56:30.790Z","obsTime":1776293580,"reportTime":"2026-04-15T23:00:00.000Z","temp":25.6,"dewp":13.9,"wdir":120,"wspd":11,"visib":"10+","altim":1020.4,"slp":1020.2,"qcField":4,"metarType":"METAR","rawOb":"METAR KMCO 152253Z 12011KT 10SM FEW250 26/14 A3013 RMK AO2 SLP202 T02560139","lat":28.4182,"lon":-81.3241,"elev":27,"name":"Orlando Intl, FL, US","cover":"FEW","clouds":[{"cover":"FEW","base":25000}],"fltCat":"VFR"},{"icaoId":"KOAK","receiptTime":"2026-04-15T22:56:30.345Z","obsTime":1776293580,"reportTime":"2026-04-15T23:00:00.000Z","temp":17.8,"dewp":9.4,"wdir":260,"wspd":17,"visib":"10+","altim":1019,"slp":1018.9,"qcField":12,"metarType":"METAR","rawOb":"METAR KOAK 152253Z 26017KT 10SM FEW020 FEW040 BKN200 18/09 A3009 RMK AO2 SLP189 T01780094 $","lat":37.7178,"lon":-122.233,"elev":3,"name":"Oakland Intl, CA, US","cover":"BKN","clouds":[{"cover":"FEW","base":2000},{"cover":"FEW","base":4000},{"cover":"BKN","base":20000}],"fltCat":"VFR"},{"icaoId":"KCDC","receiptTime":"2026-04-15T22:56:28.390Z","obsTime":1776293580,"reportTime":"2026-04-15T23:00:00.000Z","temp":16.7,"dewp":-4.4,"wdir":200,"wspd":18,"wgst":25,"visib":"10+","altim":1016,"slp":1012.3,"qcField":6,"metarType":"METAR","rawOb":"METAR KCDC 152253Z AUTO 20018G25KT 10SM CLR 17/M04 A3000 RMK AO2 PK WND 20026/2210 SLP123 T01671044","lat":37.7067,"lon":-113.097,"elev":1703,"name":"Cedar City Muni, UT, US","cover":"CLR","clouds":[],"fltCat":"VFR"},{"icaoId":"KCNM","receiptTime":"2026-04-15T22:56:28.554Z","obsTime":1776293580,"reportTime":"2026-04-15T23:00:00.000Z","temp":28.3,"dewp":-9.4,"wdir":260,"wspd":21,"wgst":27,"visib":"10+","altim":1012.6,"slp":1007.5,"qcField":6,"metarType":"METAR","rawOb":"METAR KCNM 152253Z AUTO 26021G27KT 10SM CLR 28/M09 A2990 RMK AO2 PK WND 25028/2211 SLP075 T02831094","lat":32.3336,"lon":-104.2584,"elev":993,"name":"Carlsbad/Cavern City Air Term, NM, US","cover":"CLR","clouds":[],"fltCat":"VFR"},{"icaoId":"KBOI","receiptTime":"2026-04-15T22:56:34.188Z","obsTime":1776293580,"reportTime":"2026-04-15T23:00:00.000Z","temp":13.9,"dewp":6.1,"wdir":170,"wspd":16,"wgst":23,"visib":"10+","altim":1006.2,"slp":1005.3,"qcField":4,"precip":0.005,"metarType":"METAR","rawOb":"METAR KBOI 152253Z 17016G23KT 10SM BKN060 OVC110 14/06 A2971 RMK AO2 PK WND 15027/2156 RAE2154 SLP053 P0000 T01390061","lat":43.567,"lon":-116.2406,"elev":860,"name":"Boise Arpt, ID, US","cover":"OVC","clouds":[{"cover":"BKN","base":6000},{"cover":"OVC","base":11000}],"fltCat":"VFR"},{"icaoId":"KTUS","receiptTime":"2026-04-15T22:56:29.008Z","obsTime":1776293580,"reportTime":"2026-04-15T23:00:00.000Z","temp":27.2,"dewp":-17.2,"wdir":230,"wspd":7,"visib":"10+","altim":1014.6,"slp":1011.1,"qcField":12,"metarType":"METAR","rawOb":"METAR KTUS 152253Z 23007KT 10SM CLR 27/M17 A2996 RMK AO2 SLP111 T02721172 $","lat":32.1315,"lon":-110.9564,"elev":776,"name":"Tucson Intl Arpt, AZ, US","cover":"CLR","clouds":[],"fltCat":"VFR"},{"icaoId":"KMYR","receiptTime":"2026-04-15T22:56:33.939Z","obsTime":1776293580,"reportTime":"2026-04-15T23:00:00.000Z","temp":21.1,"dewp":17.8,"wdir":190,"wspd":15,"visib":"10+","altim":1019.7,"slp":1019.5,"qcField":12,"metarType":"METAR","rawOb":"METAR KMYR 152253Z 19015KT 10SM CLR 21/18 A3011 RMK AO2 SLP195 T02110178 $","lat":33.6769,"lon":-78.9325,"elev":7,"name":"Myrtle Beach Intl, SC, US","cover":"CLR","clouds":[],"fltCat":"VFR"},{"icaoId":"KPUB","receiptTime":"2026-04-15T22:56:25.912Z","obsTime":1776293580,"reportTime":"2026-04-15T23:00:00.000Z","temp":22.8,"dewp":-12.8,"wdir":260,"wspd":9,"wgst":20,"visib":"10+","altim":1009.6,"slp":1006.1,"qcField":12,"metarType":"METAR","rawOb":"METAR KPUB 152253Z 26009G20KT 210V290 10SM CLR 23/M13 A2981 RMK AO2 SLP061 T02281128 $","lat":38.2887,"lon":-104.5057,"elev":1441,"name":"Pueblo Mem Arpt, CO, US","cover":"CLR","clouds":[],"fltCat":"VFR"},{"icaoId":"KMSO","receiptTime":"2026-04-15T22:56:33.838Z","obsTime":1776293580,"reportTime":"2026-04-15T23:00:00.000Z","temp":5.6,"dewp":3.3,"wdir":320,"wspd":11,"wgst":20,"visib":"10+","altim":1002.1,"slp":1003,"qcField":4,"wxString":"-RA","precip":0.03,"metarType":"METAR","rawOb":"METAR KMSO 152253Z 32011G20KT 10SM -RA BKN032 OVC039 06/03 A2959 RMK AO2 PK WND 34034/2221 SLP030 P0003 T00560033","lat":46.9208,"lon":-114.0938,"elev":974,"name":"Missoula Intl, MT, US","cover":"OVC","clouds":[{"cover":"BKN","base":3200},{"cover":"OVC","base":3900}],"fltCat":"VFR"},{"icaoId":"KPNC","receiptTime":"2026-04-15T22:56:25.796Z","obsTime":1776293580,"reportTime":"2026-04-15T23:00:00.000Z","temp":26.7,"dewp":8.9,"wdir":270,"wspd":5,"visib":"10+","altim":1007.5,"slp":1006,"qcField":6,"metarType":"METAR","rawOb":"METAR KPNC 152253Z AUTO 27005KT 10SM BKN075 BKN100 27/09 A2975 RMK AO2 SLP060 T02670089","lat":36.7369,"lon":-97.1024,"elev":304,"name":"Ponca City Rgnl, OK, US","cover":"BKN","clouds":[{"cover":"BKN","base":7500},{"cover":"BKN","base":10000}],"fltCat":"VFR"},{"icaoId":"KOKC","receiptTime":"2026-04-15T22:56:33.973Z","obsTime":1776293520,"reportTime":"2026-04-15T23:00:00.000Z","temp":24.4,"dewp":20,"wdir":170,"wspd":17,"wgst":26,"visib":"10+","altim":1009.2,"slp":1007.7,"qcField":4,"metarType":"METAR","rawOb":"METAR KOKC 152252Z 17017G26KT 10SM SCT028 SCT065 BKN095 BKN250 24/20 A2980 RMK AO2 PK WND 16026/2247 SLP077 T02440200","lat":35.3843,"lon":-97.6003,"elev":391,"name":"Oklahoma City/Will Rogers Intl, OK, US","cover":"BKN","clouds":[{"cover":"SCT","base":2800},{"cover":"SCT","base":6500},{"cover":"BKN","base":9500},{"cover":"BKN","base":25000}],"fltCat":"VFR"},{"icaoId":"KCLT","receiptTime":"2026-04-15T22:56:35.480Z","obsTime":1776293520,"reportTime":"2026-04-15T23:00:00.000Z","temp":30,"dewp":8.3,"wdir":210,"wspd":8,"visib":"10+","altim":1017.4,"slp":1017.9,"qcField":4,"metarType":"METAR","rawOb":"METAR KCLT 152252Z 21008KT 10SM BKN250 30/08 A3004 RMK AO2 SLP179 T03000083","lat":35.2225,"lon":-80.9543,"elev":223,"name":"Charlotte/Douglas Intl, NC, US","cover":"BKN","clouds":[{"cover":"BKN","base":25000}],"fltCat":"VFR"},{"icaoId":"KMLF","receiptTime":"2026-04-15T22:56:22.831Z","obsTime":1776293520,"reportTime":"2026-04-15T23:00:00.000Z","temp":19.4,"dewp":-5,"wdir":210,"wspd":22,"wgst":32,"visib":"10+","altim":1013.6,"slp":1010.1,"qcField":6,"metarType":"METAR","rawOb":"METAR KMLF 152252Z AUTO 21022G32KT 10SM CLR 19/M05 A2993 RMK AO2 PK WND 19037/2218 SLP101 T01941050","lat":38.4225,"lon":-113.0109,"elev":1537,"name":"Milford Muni, UT, US","cover":"CLR","clouds":[],"fltCat":"VFR"},{"icaoId":"KSPS","receiptTime":"2026-04-15T22:56:22.849Z","obsTime":1776293520,"reportTime":"2026-04-15T23:00:00.000Z","temp":19.4,"dewp":17.2,"wdir":140,"wspd":9,"visib":"10+","altim":1009.6,"slp":1008.4,"qcField":4,"wxString":"-TSRA","precip":0.005,"metarType":"METAR","rawOb":"METAR KSPS 152252Z 14009KT 10SM -TSRA FEW046 BKN080 OVC095 19/17 A2981 RMK AO2 LTG DSNT E-SW RAB45 SLP084 P0000 T01940172","lat":33.9785,"lon":-98.493,"elev":310,"name":"Wichita Falls Rgnl, TX, US","cover":"OVC","clouds":[{"cover":"FEW","base":4600},{"cover":"BKN","base":8000},{"cover":"OVC","base":9500}],"fltCat":"VFR"},{"icaoId":"KCVG","receiptTime":"2026-04-15T22:56:35.539Z","obsTime":1776293520,"reportTime":"2026-04-15T23:00:00.000Z","temp":26.7,"dewp":15,"wdir":240,"wspd":8,"visib":"10+","altim":1014,"slp":1012.8,"qcField":4,"metarType":"METAR","rawOb":"METAR KCVG 152252Z 24008KT 10SM FEW060 SCT250 27/15 A2994 RMK AO2 SLP128 T02670150","lat":39.0444,"lon":-84.6724,"elev":264,"name":"Cincinnati Intl, KY, US","cover":"SCT","clouds":[{"cover":"FEW","base":6000},{"cover":"SCT","base":25000}],"fltCat":"VFR"},{"icaoId":"KHRL","receiptTime":"2026-04-15T22:56:35.806Z","obsTime":1776293520,"reportTime":"2026-04-15T23:00:00.000Z","temp":28.3,"dewp":19.4,"wdir":160,"wspd":17,"wgst":25,"visib":"10+","altim":1011.9,"slp":1011.7,"qcField":4,"metarType":"METAR","rawOb":"METAR KHRL 152252Z 16017G25KT 10SM SCT043 28/19 A2988 RMK AO2 SLP117 T02830194","lat":26.2303,"lon":-97.6556,"elev":9,"name":"Harlingen/Valley Intl, TX, US","cover":"SCT","clouds":[{"cover":"SCT","base":4300}],"fltCat":"VFR"},{"icaoId":"KABI","receiptTime":"2026-04-15T22:56:22.631Z","obsTime":1776293520,"reportTime":"2026-04-15T23:00:00.000Z","temp":27.8,"dewp":18.9,"wdir":190,"wspd":12,"wgst":20,"visib":"10+","altim":1010.6,"slp":1008,"qcField":4,"metarType":"METAR","rawOb":"METAR KABI 152252Z 19012G20KT 10SM FEW045 SCT055 28/19 A2984 RMK AO2 WSHFT 2156 LTG DSNT NE TSE12 SLP080 T02780189","lat":32.4106,"lon":-99.6821,"elev":543,"name":"Abilene Rgnl, TX, US","cover":"SCT","clouds":[{"cover":"FEW","base":4500},{"cover":"SCT","base":5500}],"fltCat":"VFR"},{"icaoId":"KABQ","receiptTime":"2026-04-15T22:56:22.650Z","obsTime":1776293520,"reportTime":"2026-04-15T23:00:00.000Z","temp":19.4,"dewp":-8.9,"wdir":250,"wspd":10,"visib":"10+","altim":1016.3,"slp":1011.4,"qcField":4,"metarType":"METAR","rawOb":"METAR KABQ 152252Z 25010KT 10SM BKN110 19/M09 A3001 RMK AO2 SLP114 T01941089","lat":35.0419,"lon":-106.6154,"elev":1620,"name":"Albuquerque Intl, NM, US","cover":"BKN","clouds":[{"cover":"BKN","base":11000}],"fltCat":"VFR"},{"icaoId":"KATL","receiptTime":"2026-04-15T22:56:35.348Z","obsTime":1776293520,"reportTime":"2026-04-15T23:00:00.000Z","temp":27.8,"dewp":11.1,"wdir":220,"wspd":12,"visib":"10+","altim":1018.7,"slp":1017.8,"qcField":12,"metarType":"METAR","rawOb":"METAR KATL 152252Z 22012KT 10SM BKN250 28/11 A3008 RMK AO2 SLP178 T02780111 $","lat":33.6297,"lon":-84.4422,"elev":309,"name":"Atlanta/Hartsfield-Jackson Intl, GA, US","cover":"BKN","clouds":[{"cover":"BKN","base":25000}],"fltCat":"VFR"},{"icaoId":"KDCA","receiptTime":"2026-04-15T22:56:35.560Z","obsTime":1776293520,"reportTime":"2026-04-15T23:00:00.000Z","temp":27.2,"dewp":16.7,"wdir":180,"wspd":10,"visib":"10+","altim":1011.9,"slp":1011.7,"qcField":4,"metarType":"METAR","rawOb":"METAR KDCA 152252Z 18010KT 10SM FEW090 BKN250 27/17 A2988 RMK AO2 SLP117 T02720167","lat":38.8472,"lon":-77.0345,"elev":4,"name":"Washington/Reagan-National Arpt, VA, US","cover":"BKN","clouds":[{"cover":"FEW","base":9000},{"cover":"BKN","base":25000}],"fltCat":"VFR"},{"icaoId":"KIAD","receiptTime":"2026-04-15T22:56:35.841Z","obsTime":1776293520,"reportTime":"2026-04-15T23:00:00.000Z","temp":30.6,"dewp":12.8,"wdir":200,"wspd":10,"visib":"10+","altim":1012.3,"slp":1011.7,"qcField":4,"metarType":"METAR","rawOb":"METAR KIAD 152252Z 20010KT 10SM FEW120 BKN250 31/13 A2989 RMK AO2 SLP117 T03060128","lat":38.9348,"lon":-77.4473,"elev":90,"name":"Washington/Dulles Intl, VA, US","cover":"BKN","clouds":[{"cover":"FEW","base":12000},{"cover":"BKN","base":25000}],"fltCat":"VFR"},{"icaoId":"KMKE","receiptTime":"2026-04-15T22:56:36.001Z","obsTime":1776293520,"reportTime":"2026-04-15T23:00:00.000Z","temp":20.6,"dewp":15.6,"wdir":230,"wspd":9,"visib":"10+","altim":1007.2,"slp":1007,"qcField":12,"metarType":"METAR","rawOb":"METAR KMKE 152252Z 23009KT 10SM SCT028 OVC085 21/16 A2974 RMK AO2 SLP070 T02060156 $","lat":42.9549,"lon":-87.9045,"elev":203,"name":"Milwaukee/Mitchell Intl, WI, US","cover":"OVC","clouds":[{"cover":"SCT","base":2800},{"cover":"OVC","base":8500}],"fltCat":"VFR"},{"icaoId":"KSAD","receiptTime":"2026-04-15T22:54:11.741Z","obsTime":1776293460,"reportTime":"2026-04-15T23:00:00.000Z","temp":25.6,"dewp":-10,"wdir":250,"wspd":8,"visib":"10+","altim":1014,"slp":1010.5,"qcField":6,"metarType":"METAR","rawOb":"METAR KSAD 152251Z AUTO 25008KT 10SM CLR 26/M10 A2994 RMK AO2 SLP105 T02561100","lat":32.8565,"lon":-109.636,"elev":937,"name":"Safford Rgnl, AZ, US","cover":"CLR","clouds":[],"fltCat":"VFR"},{"icaoId":"KIGM","receiptTime":"2026-04-15T22:54:11.330Z","obsTime":1776293460,"reportTime":"2026-04-15T23:00:00.000Z","temp":23.3,"dewp":-7.8,"wdir":250,"wspd":14,"wgst":28,"visib":"10+","altim":1015,"slp":1009.7,"qcField":6,"metarType":"METAR","rawOb":"METAR KIGM 152251Z AUTO 25014G28KT 10SM CLR 23/M08 A2997 RMK AO2 PK WND 28029/2233 SLP097 T02331078","lat":35.2575,"lon":-113.9341,"elev":1045,"name":"Kingman Arpt, AZ, US","cover":"CLR","clouds":[],"fltCat":"VFR"},{"icaoId":"KJFK","receiptTime":"2026-04-15T22:54:11.461Z","obsTime":1776293460,"reportTime":"2026-04-15T23:00:00.000Z","temp":18.3,"dewp":12.2,"wdir":160,"wspd":3,"visib":"10+","altim":1010.9,"slp":1010.9,"qcField":4,"metarType":"METAR","rawOb":"METAR KJFK 152251Z 16003KT 10SM FEW070 FEW210 BKN250 18/12 A2985 RMK AO2 SLP109 T01830122","lat":40.6392,"lon":-73.7639,"elev":3,"name":"New York/JF Kennedy Intl, NY, US","cover":"BKN","clouds":[{"cover":"FEW","base":7000},{"cover":"FEW","base":21000},{"cover":"BKN","base":25000}],"fltCat":"VFR"},{"icaoId":"KLGA","receiptTime":"2026-04-15T22:56:35.912Z","obsTime":1776293460,"reportTime":"2026-04-15T23:00:00.000Z","temp":29.4,"dewp":15,"wdir":180,"wspd":9,"visib":"10+","altim":1009.9,"slp":1009.8,"qcField":4,"metarType":"METAR","rawOb":"METAR KLGA 152251Z 18009KT 10SM BKN075 BKN150 BKN250 29/15 A2982 RMK AO2 SLP098 T02940150","lat":40.7794,"lon":-73.8803,"elev":9,"name":"New York/La Guardia Arpt, NY, US","cover":"BKN","clouds":[{"cover":"BKN","base":7500},{"cover":"BKN","base":15000},{"cover":"BKN","base":25000}],"fltCat":"VFR"},{"icaoId":"KELP","receiptTime":"2026-04-15T22:54:11.104Z","obsTime":1776293460,"reportTime":"2026-04-15T23:00:00.000Z","temp":25,"dewp":-9.4,"wdir":240,"wspd":12,"wgst":30,"visib":"10+","altim":1015,"slp":1009.5,"qcField":4,"metarType":"METAR","rawOb":"METAR KELP 152251Z 24012G30KT 10SM FEW130 25/M09 A2997 RMK AO2 PK WND 25030/2242 SLP095 T02501094","lat":31.8123,"lon":-106.3774,"elev":1205,"name":"El Paso Intl, TX, US","cover":"FEW","clouds":[{"cover":"FEW","base":13000}],"fltCat":"VFR"},{"icaoId":"KCRP","receiptTime":"2026-04-15T22:54:10.995Z","obsTime":1776293460,"reportTime":"2026-04-15T23:00:00.000Z","temp":28.3,"dewp":18.9,"wdir":140,"wspd":22,"visib":"10+","altim":1012.6,"slp":1012.4,"qcField":4,"metarType":"METAR","rawOb":"METAR KCRP 152251Z 14022KT 10SM FEW035 FEW150 BKN250 28/19 A2990 RMK AO2 PK WND 16032/2158 SLP124 T02830189","lat":27.7734,"lon":-97.513,"elev":11,"name":"Corpus Christi Intl, TX, US","cover":"BKN","clouds":[{"cover":"FEW","base":3500},{"cover":"FEW","base":15000},{"cover":"BKN","base":25000}],"fltCat":"VFR"},{"icaoId":"KCMH","receiptTime":"2026-04-15T22:54:10.951Z","obsTime":1776293460,"reportTime":"2026-04-15T23:00:00.000Z","temp":27.8,"dewp":13.9,"wdir":240,"wspd":13,"wgst":24,"visib":"10+","altim":1012.6,"slp":1011.9,"qcField":4,"metarType":"METAR","rawOb":"METAR KCMH 152251Z 24013G24KT 10SM BKN065 OVC150 28/14 A2990 RMK AO2 PK WND 24027/2156 SLP119 T02780139","lat":39.9907,"lon":-82.877,"elev":257,"name":"Columbus/Glenn Intl, OH, US","cover":"OVC","clouds":[{"cover":"BKN","base":6500},{"cover":"OVC","base":15000}],"fltCat":"VFR"},{"icaoId":"KLGU","receiptTime":"2026-04-15T22:54:11.513Z","obsTime":1776293460,"reportTime":"2026-04-15T23:00:00.000Z","temp":14.4,"dewp":0,"wdir":180,"wspd":15,"wgst":22,"visib":"10+","altim":1010.6,"slp":1009.3,"qcField":6,"metarType":"METAR","rawOb":"METAR KLGU 152251Z AUTO 18015G22KT 10SM BKN085 14/00 A2984 RMK AO2 SLP093 T01440000","lat":41.7865,"lon":-111.8519,"elev":1359,"name":"Logan/Cache Arpt, UT, US","cover":"BKN","clouds":[{"cover":"BKN","base":8500}],"fltCat":"VFR"},{"icaoId":"KCLE","receiptTime":"2026-04-15T22:54:10.892Z","obsTime":1776293460,"reportTime":"2026-04-15T23:00:00.000Z","temp":20,"dewp":17.8,"wdir":260,"wspd":12,"visib":"10+","altim":1011.3,"slp":1012.2,"qcField":12,"wxString":"TS","precip":0.17,"metarType":"METAR","rawOb":"METAR KCLE 152251Z 26012KT 10SM TS SCT040CB BKN070 OVC110 20/18 A2986 RMK AO2 WSHFT 2204 RAE37 SLP122 OCNL LTGICCC OHD TS OHD MOV NE P0017 T02000178 $","lat":41.4057,"lon":-81.8519,"elev":237,"name":"Cleveland/Hopkins Intl, OH, US","cover":"OVC","clouds":[{"cover":"SCT","base":4000},{"cover":"BKN","base":7000},{"cover":"OVC","base":11000}],"fltCat":"VFR"},{"icaoId":"KPHX","receiptTime":"2026-04-15T22:54:11.630Z","obsTime":1776293460,"reportTime":"2026-04-15T23:00:00.000Z","temp":29.4,"dewp":-4.4,"wdir":"VRB","wspd":6,"visib":"10+","altim":1011.9,"slp":1010.5,"qcField":4,"metarType":"METAR","rawOb":"METAR KPHX 152251Z VRB06KT 10SM FEW080 29/M04 A2988 RMK AO2 SLP105 T02941044","lat":33.4278,"lon":-112.0037,"elev":338,"name":"Phoenix/Sky Harbor Intl, AZ, US","cover":"FEW","clouds":[{"cover":"FEW","base":8000}],"fltCat":"VFR"},{"icaoId":"KPIT","receiptTime":"2026-04-15T22:54:11.675Z","obsTime":1776293460,"reportTime":"2026-04-15T23:00:00.000Z","temp":27.8,"dewp":13.9,"wdir":230,"wspd":8,"wgst":23,"visib":"10+","altim":1012.6,"slp":1012.1,"qcField":12,"metarType":"METAR","rawOb":"METAR KPIT 152251Z 23008G23KT 10SM SCT050 BKN120 OVC250 28/14 A2990 RMK AO2 PK WND 24028/2203 SLP121 T02780139 $","lat":40.4814,"lon":-80.2083,"elev":339,"name":"Pittsburgh Intl, PA, US","cover":"OVC","clouds":[{"cover":"SCT","base":5000},{"cover":"BKN","base":12000},{"cover":"OVC","base":25000}],"fltCat":"VFR"},{"icaoId":"KIWA","receiptTime":"2026-04-15T22:53:41.208Z","obsTime":1776293460,"reportTime":"2026-04-15T23:00:00.000Z","temp":28,"dewp":-4,"wdir":250,"wspd":7,"visib":"10+","altim":1013.3,"qcField":0,"metarType":"METAR","rawOb":"METAR KIWA 152251Z 25007KT 10SM CLR 28/M04 A2992","lat":33.3008,"lon":-111.6437,"elev":420,"name":"Phoenix/Mesa Gateway Arpt, AZ, US","cover":"CLR","clouds":[],"fltCat":"VFR"},{"icaoId":"KVNY","receiptTime":"2026-04-15T22:54:12.253Z","obsTime":1776293460,"reportTime":"2026-04-15T23:00:00.000Z","temp":23.9,"dewp":6.7,"wdir":170,"wspd":9,"visib":"10+","altim":1014.6,"slp":1013.9,"qcField":12,"metarType":"METAR","rawOb":"METAR KVNY 152251Z 17009KT 140V220 10SM CLR 24/07 A2996 RMK AO2 SLP139 T02390067 $","lat":34.2121,"lon":-118.4915,"elev":241,"name":"Van Nuys Arpt, CA, US","cover":"CLR","clouds":[],"fltCat":"VFR"},{"icaoId":"KSTL","receiptTime":"2026-04-15T22:54:12.084Z","obsTime":1776293460,"reportTime":"2026-04-15T23:00:00.000Z","temp":22.8,"dewp":18.3,"wdir":190,"wspd":10,"wgst":15,"visib":"10+","altim":1010.9,"slp":1009.9,"qcField":4,"metarType":"METAR","rawOb":"METAR KSTL 152251Z 19010G15KT 10SM FEW020 BKN050 BKN130 OVC250 23/18 A2985 RMK AO2 SLP099 T02280183","lat":38.7525,"lon":-90.3734,"elev":163,"name":"St Louis/Lambert Intl, MO, US","cover":"OVC","clouds":[{"cover":"FEW","base":2000},{"cover":"BKN","base":5000},{"cover":"BKN","base":13000},{"cover":"OVC","base":25000}],"fltCat":"VFR"},{"icaoId":"KRDU","receiptTime":"2026-04-15T22:54:14.567Z","obsTime":1776293460,"reportTime":"2026-04-15T23:00:00.000Z","temp":30.6,"dewp":10.6,"wdir":210,"wspd":10,"visib":"10+","altim":1016.3,"slp":1015.7,"qcField":4,"metarType":"METAR","rawOb":"METAR KRDU 152251Z 21010KT 10SM BKN250 31/11 A3001 RMK AO2 SLP157 T03060106","lat":35.8923,"lon":-78.782,"elev":121,"name":"Raleigh-Durham Intl, NC, US","cover":"BKN","clouds":[{"cover":"BKN","base":25000}],"fltCat":"VFR"},{"icaoId":"KROW","receiptTime":"2026-04-15T22:54:11.717Z","obsTime":1776293460,"reportTime":"2026-04-15T23:00:00.000Z","temp":26.7,"dewp":-15.6,"visib":"10+","altim":1012.3,"slp":1006.6,"qcField":4,"metarType":"METAR","rawOb":"METAR KROW 152251Z 10SM CLR 27/M16 A2989 RMK AO2 SLP066 T02671156","lat":33.3074,"lon":-104.5082,"elev":1105,"name":"Roswell/Ind Arpt, NM, US","cover":"CLR","clouds":[],"fltCat":"VFR"},{"icaoId":"KMYL","receiptTime":"2026-04-15T22:54:11.560Z","obsTime":1776293460,"reportTime":"2026-04-15T23:00:00.000Z","temp":5,"dewp":2.8,"wdir":180,"wspd":16,"wgst":24,"visib":"10+","altim":1004.1,"slp":1004,"qcField":6,"wxString":"-RA","precip":0.02,"metarType":"METAR","rawOb":"METAR KMYL 152251Z AUTO 18016G24KT 10SM -RA BKN018 BKN024 OVC032 05/03 A2965 RMK AO2 LTG DSNT W RAE07B34 SLP040 P0002 T00500028","lat":44.8943,"lon":-116.0998,"elev":1532,"name":"McCall Muni, ID, US","cover":"OVC","clouds":[{"cover":"BKN","base":1800},{"cover":"BKN","base":2400},{"cover":"OVC","base":3200}],"fltCat":"MVFR"},{"icaoId":"KPVD","receiptTime":"2026-04-15T22:54:14.340Z","obsTime":1776293460,"reportTime":"2026-04-15T23:00:00.000Z","temp":19.4,"dewp":12.8,"wdir":120,"wspd":8,"visib":"10+","altim":1011.3,"slp":1011.2,"qcField":12,"metarType":"METAR","rawOb":"METAR KPVD 152251Z 12008KT 10SM FEW045 FEW085 SCT120 BKN250 19/13 A2986 RMK AO2 SLP112 T01940128 $","lat":41.7225,"lon":-71.4325,"elev":15,"name":"Providence/Green Mem, RI, US","cover":"BKN","clouds":[{"cover":"FEW","base":4500},{"cover":"FEW","base":8500},{"cover":"SCT","base":12000},{"cover":"BKN","base":25000}],"fltCat":"VFR"},{"icaoId":"KORD","receiptTime":"2026-04-15T22:54:14.078Z","obsTime":1776293460,"reportTime":"2026-04-15T23:00:00.000Z","temp":22.2,"dewp":17.2,"wdir":190,"wspd":9,"visib":"10+","altim":1007.9,"slp":1007.2,"qcField":4,"metarType":"METAR","rawOb":"METAR KORD 152251Z 19009KT 10SM SCT028 BKN100 BKN170 BKN250 22/17 A2976 RMK AO2 SLP072 T02220172","lat":41.9602,"lon":-87.9316,"elev":202,"name":"Chicago/O'Hare Intl, IL, US","cover":"BKN","clouds":[{"cover":"SCT","base":2800},{"cover":"BKN","base":10000},{"cover":"BKN","base":17000},{"cover":"BKN","base":25000}],"fltCat":"VFR"},{"icaoId":"KBDL","receiptTime":"2026-04-15T22:54:12.727Z","obsTime":1776293460,"reportTime":"2026-04-15T23:00:00.000Z","temp":25,"dewp":17.2,"wdir":140,"wspd":6,"visib":"10+","altim":1009.9,"slp":1009.7,"qcField":4,"precip":0.005,"metarType":"METAR","rawOb":"METAR KBDL 152251Z 14006KT 10SM FEW070 FEW120 OVC250 25/17 A2982 RMK AO2 RAB00E09 SLP097 P0000 T02500172","lat":41.9374,"lon":-72.682,"elev":52,"name":"Hartford/Bradley Intl, CT, US","cover":"OVC","clouds":[{"cover":"FEW","base":7000},{"cover":"FEW","base":12000},{"cover":"OVC","base":25000}],"fltCat":"VFR"},{"icaoId":"KSAT","receiptTime":"2026-04-15T22:54:11.849Z","obsTime":1776293460,"reportTime":"2026-04-15T23:00:00.000Z","temp":28.9,"dewp":17.2,"wdir":180,"wspd":8,"visib":"10+","altim":1012.3,"slp":1010.3,"qcField":4,"metarType":"METAR","rawOb":"METAR KSAT 152251Z 18008KT 10SM SCT047 BKN085 BKN220 29/17 A2989 RMK AO2 SLP103 T02890172","lat":29.5443,"lon":-98.4839,"elev":246,"name":"San Antonio Intl, TX, US","cover":"BKN","clouds":[{"cover":"SCT","base":4700},{"cover":"BKN","base":8500},{"cover":"BKN","base":22000}],"fltCat":"VFR"},{"icaoId":"KSAN","receiptTime":"2026-04-15T22:54:11.790Z","obsTime":1776293460,"reportTime":"2026-04-15T23:00:00.000Z","temp":20,"dewp":13.3,"wdir":320,"wspd":8,"visib":"10+","altim":1016.3,"slp":1016.1,"qcField":12,"metarType":"METAR","rawOb":"METAR KSAN 152251Z 32008KT 10SM FEW025 FEW200 20/13 A3001 RMK AO2 SLP161 T02000133 $","lat":32.7364,"lon":-117.1973,"elev":3,"name":"San Diego Intl Arpt, CA, US","cover":"FEW","clouds":[{"cover":"FEW","base":2500},{"cover":"FEW","base":20000}],"fltCat":"VFR"},{"icaoId":"KEWR","receiptTime":"2026-04-15T22:54:11.224Z","obsTime":1776293460,"reportTime":"2026-04-15T23:00:00.000Z","temp":30.6,"dewp":15,"wdir":240,"wspd":14,"wgst":23,"visib":"10+","altim":1010.2,"slp":1010,"qcField":4,"metarType":"METAR","rawOb":"METAR KEWR 152251Z 24014G23KT 10SM FEW060 FEW150 BKN250 31/15 A2983 RMK AO2 PK WND 22028/2220 SLP100 T03060150","lat":40.6828,"lon":-74.1692,"elev":2,"name":"Newark Intl, NJ, US","cover":"BKN","clouds":[{"cover":"FEW","base":6000},{"cover":"FEW","base":15000},{"cover":"BKN","base":25000}],"fltCat":"VFR"},{"icaoId":"KOXR","receiptTime":"2026-04-15T22:54:11.601Z","obsTime":1776293460,"reportTime":"2026-04-15T23:00:00.000Z","temp":18.9,"dewp":11.1,"wdir":260,"wspd":9,"visib":"10+","altim":1016,"slp":1015.7,"qcField":12,"metarType":"METAR","rawOb":"METAR KOXR 152251Z 26009KT 10SM CLR 19/11 A3000 RMK AO2 SLP157 T01890111 $","lat":34.2001,"lon":-119.2042,"elev":12,"name":"Oxnard Arpt, CA, US","cover":"CLR","clouds":[],"fltCat":"VFR"},{"icaoId":"KACT","receiptTime":"2026-04-15T22:54:10.530Z","obsTime":1776293460,"reportTime":"2026-04-15T23:00:00.000Z","temp":26.1,"dewp":20.6,"wdir":180,"wspd":5,"visib":"10+","altim":1012.6,"slp":1011.8,"qcField":4,"metarType":"METAR","rawOb":"METAR KACT 152251Z 18005KT 10SM CLR 26/21 A2990 RMK AO2 SLP118 T02610206","lat":31.618,"lon":-97.2283,"elev":150,"name":"Waco Rgnl, TX, US","cover":"CLR","clouds":[],"fltCat":"VFR"},{"icaoId":"KORF","receiptTime":"2026-04-15T22:54:14.148Z","obsTime":1776293460,"reportTime":"2026-04-15T23:00:00.000Z","temp":30.6,"dewp":15.6,"wdir":220,"wspd":11,"visib":"10+","altim":1014.6,"slp":1014.4,"qcField":4,"metarType":"METAR","rawOb":"METAR KORF 152251Z 22011KT 10SM CLR 31/16 A2996 RMK AO2 SLP144 T03060156","lat":36.9037,"lon":-76.1927,"elev":5,"name":"Norfolk Intl, VA, US","cover":"CLR","clouds":[],"fltCat":"VFR"},{"icaoId":"KGEU","receiptTime":"2026-04-15T22:51:07.183Z","obsTime":1776293400,"reportTime":"2026-04-15T23:00:00.000Z","temp":29,"dewp":-6,"wdir":260,"wspd":5,"visib":"10+","altim":1011.6,"qcField":0,"metarType":"METAR","rawOb":"METAR KGEU 152250Z 26005KT 10SM CLR 29/M06 A2987","lat":33.528,"lon":-112.293,"elev":319,"name":"Glendale Muni, AZ, US","cover":"CLR","clouds":[],"fltCat":"VFR"},{"icaoId":"KHOB","receiptTime":"2026-04-15T22:54:17.994Z","obsTime":1776293400,"reportTime":"2026-04-15T23:00:00.000Z","temp":26,"dewp":-8,"wdir":220,"wspd":12,"wgst":20,"visib":"10+","altim":1013.3,"qcField":0,"metarType":"METAR","rawOb":"METAR KHOB 152250Z 22012G20KT 10SM FEW120 26/M08 A2992","lat":32.6797,"lon":-103.2222,"elev":1112,"name":"Hobbs Arpt, NM, US","cover":"FEW","clouds":[{"cover":"FEW","base":12000}],"fltCat":"VFR"},{"icaoId":"KAEG","receiptTime":"2026-04-15T22:52:19.648Z","obsTime":1776293400,"reportTime":"2026-04-15T23:00:00.000Z","temp":19,"dewp":-9,"wdir":"VRB","wspd":6,"wgst":15,"visib":"10+","altim":1017,"qcField":0,"metarType":"METAR","rawOb":"METAR KAEG 152250Z VRB06G15KT 10SM SCT100 19/M09 A3003","lat":35.15,"lon":-106.7929,"elev":1771,"name":"Albuquerque/Double Eagle Arpt, NM, US","cover":"SCT","clouds":[{"cover":"SCT","base":10000}],"fltCat":"VFR"},{"icaoId":"KADM","receiptTime":"2026-04-15T22:54:07.366Z","obsTime":1776293400,"reportTime":"2026-04-15T23:00:00.000Z","temp":22,"dewp":20,"wdir":190,"wspd":8,"wgst":16,"visib":"10+","altim":1011.3,"qcField":0,"wxString":"RA","metarType":"METAR","rawOb":"METAR KADM 152250Z 19008G16KT 10SM RA BKN025 OVC047 22/20 A2986 RMK LTG DSNT ALQDS","lat":34.3007,"lon":-97.0089,"elev":223,"name":"Ardmore Muni, OK, US","cover":"OVC","clouds":[{"cover":"BKN","base":2500},{"cover":"OVC","base":4700}],"fltCat":"MVFR"},{"icaoId":"KGYR","receiptTime":"2026-04-15T22:49:58.379Z","obsTime":1776293220,"reportTime":"2026-04-15T23:00:00.000Z","temp":29,"dewp":-2,"wdir":"VRB","wspd":4,"visib":"10+","altim":1012.6,"qcField":0,"metarType":"METAR","rawOb":"METAR KGYR 152247Z VRB04KT 10SM SKC 29/M02 A2990","lat":33.428,"lon":-112.368,"elev":292,"name":"Phoenix/Goodyear Muni, AZ, US","cover":"SKC","clouds":[],"fltCat":"VFR"},{"icaoId":"KCHD","receiptTime":"2026-04-15T22:50:29.954Z","obsTime":1776293220,"reportTime":"2026-04-15T23:00:00.000Z","temp":28,"dewp":-5,"wdir":"VRB","wspd":4,"visib":"10+","altim":1013,"qcField":0,"metarType":"METAR","rawOb":"METAR KCHD 152247Z VRB04KT 10SM CLR 28/M05 A2991","lat":33.2669,"lon":-111.8086,"elev":378,"name":"Chandler Muni, AZ, US","cover":"CLR","clouds":[],"fltCat":"VFR"},{"icaoId":"KIFP","receiptTime":"2026-04-15T22:47:47.557Z","obsTime":1776293220,"reportTime":"2026-04-15T23:00:00.000Z","temp":30,"dewp":-6,"wdir":200,"wspd":5,"wgst":20,"visib":"10+","altim":1010.9,"qcField":0,"metarType":"METAR","rawOb":"METAR KIFP 152247Z 20005G20KT 10SM CLR 30/M06 A2985","lat":35.1487,"lon":-114.5611,"elev":210,"name":"Bullhead City Intl, AZ, US","cover":"CLR","clouds":[],"fltCat":"VFR"},{"icaoId":"KBJC","receiptTime":"2026-04-15T22:47:47.446Z","obsTime":1776293100,"reportTime":"2026-04-15T23:00:00.000Z","temp":19,"dewp":-9,"wdir":280,"wspd":17,"wgst":24,"visib":"10+","altim":1011.3,"qcField":0,"metarType":"METAR","rawOb":"METAR KBJC 152245Z 28017G24KT 10SM CLR 19/M09 A2986","lat":39.9008,"lon":-105.1042,"elev":1694,"name":"Rocky Mtn Metro, CO, US","cover":"CLR","clouds":[],"fltCat":"VFR"},{"icaoId":"KRYN","receiptTime":"2026-04-15T22:47:06.977Z","obsTime":1776293100,"reportTime":"2026-04-15T23:00:00.000Z","temp":28,"dewp":-21,"wdir":280,"wspd":4,"wgst":11,"visib":"10+","altim":1013.6,"qcField":0,"metarType":"METAR","rawOb":"METAR KRYN 152245Z 28004G11KT 10SM CLR 28/M21 A2993","lat":32.1418,"lon":-111.1767,"elev":731,"name":"Tucson/Ryan Fld, AZ, US","cover":"CLR","clouds":[],"fltCat":"VFR"},{"icaoId":"KSUN","receiptTime":"2026-04-15T22:41:37.322Z","obsTime":1776292800,"reportTime":"2026-04-15T22:40:00.000Z","temp":5,"dewp":3,"wdir":120,"wspd":8,"visib":"10+","altim":1010.2,"qcField":0,"metarType":"SPECI","rawOb":"SPECI KSUN 152240Z 12008KT 10SM SCT009 OVC011 05/03 A2983","lat":43.4969,"lon":-114.2923,"elev":1619,"name":"Hailey/Friedman Mem, ID, US","cover":"OVC","clouds":[{"cover":"SCT","base":900},{"cover":"OVC","base":1100}],"fltCat":"MVFR"},{"icaoId":"KPWT","receiptTime":"2026-04-15T22:40:51.328Z","obsTime":1776292680,"reportTime":"2026-04-15T22:38:00.000Z","temp":6,"dewp":3,"wdir":40,"wspd":9,"visib":"10+","altim":1010.9,"qcField":6,"wxString":"-RA","precip":0.005,"metarType":"SPECI","rawOb":"SPECI KPWT 152238Z AUTO 04009KT 10SM -RA OVC029 06/03 A2985 RMK AO2 LTG DSNT NE RAB36 P0000","lat":47.4942,"lon":-122.7594,"elev":143,"name":"Bremerton Arpt, WA, US","cover":"OVC","clouds":[{"cover":"OVC","base":2900}],"fltCat":"MVFR"},{"icaoId":"KHCR","receiptTime":"2026-04-15T22:38:25.831Z","obsTime":1776292500,"reportTime":"2026-04-15T22:35:00.000Z","temp":16,"dewp":-5,"wdir":230,"wspd":14,"wgst":20,"visib":"10+","altim":1012.3,"qcField":14,"metarType":"METAR","rawOb":"METAR KHCR 152235Z AUTO 23014G20KT 10SM SCT095 16/M05 A2989 RMK AO2 T01601050 $","lat":40.4774,"lon":-111.4329,"elev":1708,"name":"Heber City Muni, UT, US","cover":"SCT","clouds":[{"cover":"SCT","base":9500}],"fltCat":"VFR"},{"icaoId":"KSEZ","receiptTime":"2026-04-15T22:41:02.930Z","obsTime":1776292500,"reportTime":"2026-04-15T22:35:00.000Z","temp":21,"dewp":-5,"wdir":"VRB","wspd":4,"visib":"10+","altim":1017.4,"qcField":6,"metarType":"METAR","rawOb":"METAR KSEZ 152235Z AUTO VRB04KT 10SM CLR 21/M05 A3004 RMK AO2","lat":34.8467,"lon":-111.7884,"elev":1455,"name":"Sedona Arpt, AZ, US","cover":"CLR","clouds":[],"fltCat":"VFR"},{"icaoId":"KMEV","receiptTime":"2026-04-15T22:40:53.139Z","obsTime":1776292500,"reportTime":"2026-04-15T22:35:00.000Z","temp":17,"dewp":-3,"wdir":260,"wspd":15,"wgst":29,"visib":"10+","altim":1015.3,"qcField":6,"metarType":"METAR","rawOb":"METAR KMEV 152235Z AUTO 26015G29KT 10SM FEW095 17/M03 A2998 RMK AO2","lat":38.9963,"lon":-119.75,"elev":1437,"name":"Minden-Tahoe Arpt, NV, US","cover":"FEW","clouds":[{"cover":"FEW","base":9500}],"fltCat":"VFR"},{"icaoId":"KHAF","receiptTime":"2026-04-15T22:38:25.801Z","obsTime":1776292500,"reportTime":"2026-04-15T22:35:00.000Z","temp":15,"dewp":12,"wdir":330,"wspd":14,"wgst":20,"visib":"10+","altim":1019.7,"qcField":6,"metarType":"METAR","rawOb":"METAR KHAF 152235Z AUTO 33014G20KT 10SM FEW016 15/12 A3011 RMK AO2","lat":37.5136,"lon":-122.4996,"elev":11,"name":"Half Moon Bay Arpt, CA, US","cover":"FEW","clouds":[{"cover":"FEW","base":1600}],"fltCat":"VFR"},{"icaoId":"KCXP","receiptTime":"2026-04-15T22:40:58.443Z","obsTime":1776292500,"reportTime":"2026-04-15T22:35:00.000Z","temp":14,"dewp":-3,"wdir":220,"wspd":13,"wgst":30,"visib":"10+","altim":1015.7,"qcField":6,"metarType":"METAR","rawOb":"METAR KCXP 152235Z AUTO 22013G30KT 10SM CLR 14/M03 A2999 RMK AO2","lat":39.1905,"lon":-119.7319,"elev":1431,"name":"Carson City Arpt, NV, US","cover":"CLR","clouds":[],"fltCat":"VFR"},{"icaoId":"KRTS","receiptTime":"2026-04-15T22:41:02.204Z","obsTime":1776292500,"reportTime":"2026-04-15T22:35:00.000Z","temp":14,"dewp":-2,"wdir":260,"wspd":20,"wgst":29,"visib":"10+","altim":1014.6,"qcField":6,"metarType":"METAR","rawOb":"METAR KRTS 152235Z AUTO 26020G29KT 10SM CLR 14/M02 A2996 RMK AO2","lat":39.6658,"lon":-119.8731,"elev":1537,"name":"Reno/Stead Arpt, NV, US","cover":"CLR","clouds":[],"fltCat":"VFR"},{"icaoId":"KHII","receiptTime":"2026-04-15T22:40:29.488Z","obsTime":1776292500,"reportTime":"2026-04-15T22:35:00.000Z","temp":30,"dewp":-5,"wdir":190,"wspd":7,"visib":"10+","altim":1011.9,"qcField":6,"metarType":"METAR","rawOb":"METAR KHII 152235Z AUTO 19007KT 160V220 10SM CLR 30/M05 A2988 RMK AO2","lat":34.5659,"lon":-114.3522,"elev":241,"name":"Lake Havasu City Arpt, AZ, US","cover":"CLR","clouds":[],"fltCat":"VFR"},{"icaoId":"KHTH","receiptTime":"2026-04-15T22:40:42.391Z","obsTime":1776292500,"reportTime":"2026-04-15T22:35:00.000Z","temp":20,"dewp":-6,"wdir":290,"wspd":9,"visib":"10+","altim":1013.6,"qcField":6,"metarType":"METAR","rawOb":"METAR KHTH 152235Z AUTO 29009KT 10SM CLR 20/M06 A2993 RMK A01","lat":38.5448,"lon":-118.6314,"elev":1281,"name":"Hawthorne Muni, NV, US","cover":"CLR","clouds":[],"fltCat":"VFR"},{"icaoId":"KMHR","receiptTime":"2026-04-15T22:40:53.241Z","obsTime":1776292500,"reportTime":"2026-04-15T22:35:00.000Z","temp":22,"dewp":7,"wdir":210,"wspd":11,"visib":"10+","altim":1016,"qcField":6,"metarType":"METAR","rawOb":"METAR KMHR 152235Z AUTO 21011KT 10SM CLR 22/07 A3000 RMK AO2","lat":38.56,"lon":-121.284,"elev":30,"name":"Sacramento/Mather Fld, CA, US","cover":"CLR","clouds":[],"fltCat":"VFR"},{"icaoId":"KBOS","receiptTime":"2026-04-15T22:32:11.639Z","obsTime":1776292140,"reportTime":"2026-04-15T22:29:00.000Z","temp":8.9,"dewp":7.8,"wdir":60,"wspd":10,"visib":2,"altim":1013,"qcField":12,"wxString":"BR","metarType":"SPECI","rawOb":"SPECI KBOS 152229Z 06010KT 2SM BR BKN003 OVC011 09/08 A2991 RMK AO2 TWR VIS 3 VIS NW 4 T00890078 $","lat":42.3606,"lon":-71.0097,"elev":4,"name":"Boston/Logan Intl, MA, US","cover":"OVC","clouds":[{"cover":"BKN","base":300},{"cover":"OVC","base":1100}],"fltCat":"LIFR"},{"icaoId":"KJAC","receiptTime":"2026-04-15T22:28:03.548Z","obsTime":1776291900,"reportTime":"2026-04-15T22:25:00.000Z","temp":5,"dewp":2,"wdir":200,"wspd":12,"visib":"10+","altim":1010.6,"qcField":4,"wxString":"-RA","precip":0.005,"metarType":"SPECI","rawOb":"SPECI KJAC 152225Z 20012KT 10SM -RA SCT025 BKN031 OVC039 05/02 A2984 RMK AO2 P0000","lat":43.6129,"lon":-110.7366,"elev":1967,"name":"Jackson Hole Arpt, WY, US","cover":"OVC","clouds":[{"cover":"SCT","base":2500},{"cover":"BKN","base":3100},{"cover":"OVC","base":3900}],"fltCat":"VFR"},{"icaoId":"KFLG","receiptTime":"2026-04-15T22:01:08.691Z","obsTime":1776290220,"reportTime":"2026-04-15T22:00:00.000Z","temp":14.4,"dewp":-6.1,"wdir":200,"wspd":12,"wgst":20,"visib":"10+","altim":1020.1,"slp":1015.2,"qcField":6,"metarType":"METAR","rawOb":"METAR KFLG 152157Z AUTO 20012G20KT 10SM CLR 14/M06 A3012 RMK AO2 SLP152 T01441061","lat":35.1443,"lon":-111.6664,"elev":2134,"name":"Flagstaff/Pulliam Arpt, AZ, US","cover":"CLR","clouds":[],"fltCat":"VFR"},{"icaoId":"KNFL","receiptTime":"2026-04-15T22:02:12.650Z","obsTime":1776290220,"reportTime":"2026-04-15T22:00:00.000Z","temp":18.9,"dewp":-8.3,"wdir":260,"wspd":14,"visib":"10+","altim":1013.6,"slp":1010.9,"qcField":5,"metarType":"METAR","rawOb":"METAR KNFL 152157Z COR 26014KT 10SM SCT070 BKN090 BKN120 BKN150 19/M08 A2993 RMK AO2 SLP109 ACSL DSNT SW-W-N-NE T01891083","lat":39.417,"lon":-118.705,"elev":1199,"name":"Fallon , NV, US","cover":"BKN","clouds":[{"cover":"SCT","base":7000},{"cover":"BKN","base":9000},{"cover":"BKN","base":12000},{"cover":"BKN","base":15000}],"fltCat":"VFR"},{"icaoId":"KINW","receiptTime":"2026-04-15T22:00:15.365Z","obsTime":1776290160,"reportTime":"2026-04-15T22:00:00.000Z","temp":20,"dewp":-6.7,"wdir":90,"wspd":6,"visib":"10+","altim":1017.7,"slp":1013.9,"qcField":6,"metarType":"METAR","rawOb":"METAR KINW 152156Z AUTO 09006KT 10SM CLR 20/M07 A3005 RMK AO2 SLP139 T02001067","lat":35.0279,"lon":-110.7221,"elev":1492,"name":"Winslow/Lindberg Rgnl, AZ, US","cover":"CLR","clouds":[],"fltCat":"VFR"},{"icaoId":"KDUG","receiptTime":"2026-04-15T22:02:11.103Z","obsTime":1776290160,"reportTime":"2026-04-15T22:00:00.000Z","temp":22.8,"dewp":-11.1,"wdir":0,"wspd":0,"visib":"10+","altim":1016.7,"slp":1012.6,"qcField":38,"metarType":"METAR","rawOb":"METAR KDUG 152156Z AUTO 00000KT 10SM CLR 23/M11 A3002 RMK AO2 SLP126 T02281111 TSNO","lat":31.4725,"lon":-109.6022,"elev":1260,"name":"Douglas/Bisbee Intl, AZ, US","cover":"CLR","clouds":[],"fltCat":"VFR"},{"icaoId":"KCOE","receiptTime":"2026-04-15T21:58:24.306Z","obsTime":1776290160,"reportTime":"2026-04-15T22:00:00.000Z","temp":7.2,"dewp":3.9,"wdir":180,"wspd":8,"visib":"10+","altim":1002.8,"slp":1005,"qcField":14,"metarType":"METAR","rawOb":"METAR KCOE 152156Z AUTO 18008KT 10SM FEW017 BKN042 OVC050 07/04 A2961 RMK AO2 SLP050 T00720039 PNO $","lat":47.7719,"lon":-116.8332,"elev":693,"name":"Coeur DAlene Arpt, ID, US","cover":"OVC","clouds":[{"cover":"FEW","base":1700},{"cover":"BKN","base":4200},{"cover":"OVC","base":5000}],"fltCat":"VFR"},{"icaoId":"KCOD","receiptTime":"2026-04-15T21:58:24.291Z","obsTime":1776290160,"reportTime":"2026-04-15T22:00:00.000Z","temp":16.7,"dewp":-3.9,"wdir":230,"wspd":11,"wgst":18,"visib":"10+","altim":1005.5,"slp":1002.5,"qcField":14,"metarType":"METAR","rawOb":"METAR KCOD 152156Z AUTO 23011G18KT 10SM OVC085 17/M04 A2969 RMK AO2 SLP025 T01671039 $","lat":44.52,"lon":-109.0268,"elev":1550,"name":"Cody/Yellowstone Rgnl, WY, US","cover":"OVC","clouds":[{"cover":"OVC","base":8500}],"fltCat":"VFR"},{"icaoId":"KSGU","receiptTime":"2026-04-15T21:58:22.870Z","obsTime":1776290160,"reportTime":"2026-04-15T22:00:00.000Z","temp":23.3,"dewp":-2.2,"wdir":"VRB","wspd":3,"visib":"10+","altim":1014,"slp":1012.1,"qcField":6,"metarType":"METAR","rawOb":"METAR KSGU 152156Z AUTO VRB03KT 10SM CLR 23/M02 A2994 RMK AO2 SLP121 T02331022","lat":37.0444,"lon":-113.5034,"elev":877,"name":"Saint George Muni, UT, US","cover":"CLR","clouds":[],"fltCat":"VFR"},{"icaoId":"KHDN","receiptTime":"2026-04-15T21:58:24.857Z","obsTime":1776290160,"reportTime":"2026-04-15T22:00:00.000Z","temp":13.3,"dewp":-3.9,"wdir":250,"wspd":18,"wgst":24,"visib":"10+","altim":1015.3,"slp":1013.2,"qcField":6,"metarType":"METAR","rawOb":"METAR KHDN 152156Z AUTO 25018G24KT 10SM SCT075 13/M04 A2998 RMK AO2 PK WND 26026/2134 SLP132 T01331039","lat":40.4842,"lon":-107.2296,"elev":2012,"name":"Hayden/Yampa Valley Arpt, CO, US","cover":"SCT","clouds":[{"cover":"SCT","base":7500}],"fltCat":"VFR"},{"icaoId":"KGUC","receiptTime":"2026-04-15T21:58:24.814Z","obsTime":1776290160,"reportTime":"2026-04-15T22:00:00.000Z","temp":11.1,"dewp":-6.7,"wdir":260,"wspd":13,"visib":"10+","altim":1018,"slp":1015.7,"qcField":14,"metarType":"METAR","rawOb":"METAR KGUC 152156Z AUTO 26013KT 10SM BKN075 11/M07 A3006 RMK AO2 SLP157 T01111067 $","lat":38.5322,"lon":-106.9419,"elev":2337,"name":"Gunnison Arpt, CO, US","cover":"BKN","clouds":[{"cover":"BKN","base":7500}],"fltCat":"VFR"},{"icaoId":"KPVU","receiptTime":"2026-04-15T21:58:22.655Z","obsTime":1776290160,"reportTime":"2026-04-15T22:00:00.000Z","temp":18.9,"dewp":-0.6,"wdir":220,"wspd":9,"visib":"10+","altim":1011.9,"slp":1009.3,"qcField":4,"metarType":"METAR","rawOb":"METAR KPVU 152156Z 22009KT 10SM SCT090 BKN100 BKN200 19/M01 A2988 RMK AO2 SLP093 T01891006","lat":40.224,"lon":-111.7252,"elev":1370,"name":"Provo Muni, UT, US","cover":"BKN","clouds":[{"cover":"SCT","base":9000},{"cover":"BKN","base":10000},{"cover":"BKN","base":20000}],"fltCat":"VFR"},{"icaoId":"KHND","receiptTime":"2026-04-15T21:58:24.921Z","obsTime":1776290160,"reportTime":"2026-04-15T22:00:00.000Z","temp":27.2,"dewp":-5.6,"wdir":190,"wspd":11,"wgst":15,"visib":"10+","altim":1014,"slp":1013.5,"qcField":12,"metarType":"METAR","rawOb":"METAR KHND 152156Z 19011G15KT 170V230 10SM CLR 27/M06 A2994 RMK AO2 SLP135 T02721056 $","lat":35.9657,"lon":-115.1343,"elev":740,"name":"Henderson Exec, NV, US","cover":"CLR","clouds":[],"fltCat":"VFR"},{"icaoId":"KENV","receiptTime":"2026-04-15T21:58:24.547Z","obsTime":1776290160,"reportTime":"2026-04-15T22:00:00.000Z","temp":21.1,"dewp":-3.9,"wdir":250,"wspd":20,"wgst":31,"visib":"10+","altim":1010.2,"slp":1008.3,"qcField":6,"metarType":"METAR","rawOb":"METAR KENV 152156Z AUTO 25020G31KT 10SM FEW100 21/M04 A2983 RMK AO2 PK WND 26031/2149 SLP083 T02111039","lat":40.7211,"lon":-114.0312,"elev":1291,"name":"Wendover Arpt, UT, US","cover":"FEW","clouds":[{"cover":"FEW","base":10000}],"fltCat":"VFR"},{"icaoId":"KRDM","receiptTime":"2026-04-15T22:00:46.807Z","obsTime":1776290160,"reportTime":"2026-04-15T22:00:00.000Z","temp":8.9,"dewp":-4.4,"wdir":300,"wspd":22,"wgst":30,"visib":"10+","altim":1010.2,"slp":1010.1,"qcField":4,"metarType":"METAR","rawOb":"METAR KRDM 152156Z 30022G30KT 10SM FEW080 09/M04 A2983 RMK AO2 PK WND 29037/2136 SLP101 T00891044","lat":44.2558,"lon":-121.1407,"elev":930,"name":"Redmond Muni, OR, US","cover":"FEW","clouds":[{"cover":"FEW","base":8000}],"fltCat":"VFR"},{"icaoId":"KEKO","receiptTime":"2026-04-15T22:00:46.699Z","obsTime":1776290160,"reportTime":"2026-04-15T22:00:00.000Z","temp":15.6,"dewp":-2.2,"wdir":250,"wspd":19,"wgst":28,"visib":"10+","altim":1012.6,"slp":1011.2,"qcField":6,"metarType":"METAR","rawOb":"METAR KEKO 152156Z AUTO 25019G28KT 10SM OVC075 16/M02 A2990 RMK AO2 PK WND 29035/2115 SLP112 T01561022","lat":40.824,"lon":-115.7863,"elev":1541,"name":"Elko Rgnl, NV, US","cover":"OVC","clouds":[{"cover":"OVC","base":7500}],"fltCat":"VFR"},{"icaoId":"KCGZ","receiptTime":"2026-04-15T21:58:24.231Z","obsTime":1776290160,"reportTime":"2026-04-15T22:00:00.000Z","temp":28.3,"dewp":-3.9,"visib":"10+","altim":1014.3,"slp":1013.2,"qcField":14,"metarType":"METAR","rawOb":"METAR KCGZ 152156Z AUTO 10SM CLR 28/M04 A2995 RMK AO2 SLP132 T02831039 $","lat":32.9531,"lon":-111.7725,"elev":444,"name":"Casa Granda Muni, AZ, US","cover":"CLR","clouds":[],"fltCat":"VFR"},{"icaoId":"KFNL","receiptTime":"2026-04-15T21:58:24.652Z","obsTime":1776290160,"reportTime":"2026-04-15T22:00:00.000Z","temp":20,"dewp":-6.7,"wdir":250,"wspd":9,"wgst":15,"visib":"10+","altim":1010.2,"slp":1006.3,"qcField":12,"metarType":"METAR","rawOb":"METAR KFNL 152156Z 25009G15KT 10SM CLR 20/M07 A2983 RMK AO2 SLP063 T02001067 $","lat":40.4427,"lon":-105.0097,"elev":1529,"name":"Fort Collins/N Colorado Rgnl, CO, US","cover":"CLR","clouds":[],"fltCat":"VFR"},{"icaoId":"KSLE","receiptTime":"2026-04-15T22:00:46.907Z","obsTime":1776290160,"reportTime":"2026-04-15T22:00:00.000Z","temp":10,"dewp":2.8,"wdir":290,"wspd":10,"visib":"10+","altim":1015.3,"slp":1015.3,"qcField":4,"metarType":"METAR","rawOb":"METAR KSLE 152156Z 29010KT 10SM CLR 10/03 A2998 RMK AO2 SLP153 T01000028","lat":44.9049,"lon":-123.001,"elev":63,"name":"Salem Muni, OR, US","cover":"CLR","clouds":[],"fltCat":"VFR"},{"icaoId":"KSFO","receiptTime":"2026-04-15T22:00:46.889Z","obsTime":1776290160,"reportTime":"2026-04-15T22:00:00.000Z","temp":16.7,"dewp":8.3,"wdir":280,"wspd":22,"visib":"10+","altim":1019.4,"slp":1019.4,"qcField":12,"metarType":"METAR","rawOb":"METAR KSFO 152156Z 28022KT 10SM SCT023 BKN200 17/08 A3010 RMK AO2 PK WND 28029/2130 SLP194 T01670083 $","lat":37.6196,"lon":-122.3656,"elev":2,"name":"San Francisco Intl, CA, US","cover":"BKN","clouds":[{"cover":"SCT","base":2300},{"cover":"BKN","base":20000}],"fltCat":"VFR"},{"icaoId":"KSBP","receiptTime":"2026-04-15T22:00:46.825Z","obsTime":1776290160,"reportTime":"2026-04-15T22:00:00.000Z","temp":18.9,"dewp":10,"wdir":320,"wspd":20,"visib":"10+","altim":1016.7,"slp":1016.4,"qcField":4,"metarType":"METAR","rawOb":"METAR KSBP 152156Z 32020KT 10SM CLR 19/10 A3002 RMK AO2 SLP164 T01890100","lat":35.2381,"lon":-120.644,"elev":52,"name":"San Luis Obispo/San Luis Cnty, CA, US","cover":"CLR","clouds":[],"fltCat":"VFR"},{"icaoId":"KCHS","receiptTime":"2026-04-15T22:00:47.496Z","obsTime":1776290160,"reportTime":"2026-04-15T22:00:00.000Z","temp":27.2,"dewp":15,"wdir":190,"wspd":14,"visib":"10+","altim":1019.4,"slp":1019,"qcField":4,"metarType":"METAR","rawOb":"METAR KCHS 152156Z 19014KT 10SM FEW250 27/15 A3010 RMK AO2 SLP190 T02720150","lat":32.8995,"lon":-80.0407,"elev":12,"name":"Charleston Intl, SC, US","cover":"FEW","clouds":[{"cover":"FEW","base":25000}],"fltCat":"VFR"},{"icaoId":"KJAX","receiptTime":"2026-04-15T22:00:45.246Z","obsTime":1776290160,"reportTime":"2026-04-15T22:00:00.000Z","temp":27.8,"dewp":12.8,"wdir":100,"wspd":9,"visib":"10+","altim":1019.4,"slp":1019.4,"qcField":12,"metarType":"METAR","rawOb":"METAR KJAX 152156Z 10009KT 10SM FEW040 SCT250 28/13 A3010 RMK AO2 SLP194 T02780128 $","lat":30.4953,"lon":-81.6937,"elev":8,"name":"Jacksonville Intl, FL, US","cover":"SCT","clouds":[{"cover":"FEW","base":4000},{"cover":"SCT","base":25000}],"fltCat":"VFR"},{"icaoId":"KTPH","receiptTime":"2026-04-15T22:00:42.634Z","obsTime":1776290160,"reportTime":"2026-04-15T22:00:00.000Z","temp":19.4,"dewp":-7.8,"wdir":200,"wspd":14,"wgst":24,"visib":"10+","altim":1015,"slp":1011.5,"qcField":142,"metarType":"METAR","rawOb":"METAR KTPH 152156Z AUTO 20014G24KT 10SM CLR 19/M08 A2997 RMK AO2 PK WND 20026/2138 SLP115 T01941078 PWINO PNO $","lat":38.0505,"lon":-117.0906,"elev":1647,"name":"Tonopah Arpt, NV, US","cover":"CLR","clouds":[],"fltCat":"VFR"},{"icaoId":"KSDF","receiptTime":"2026-04-15T22:00:15.667Z","obsTime":1776290160,"reportTime":"2026-04-15T22:00:00.000Z","temp":28.9,"dewp":13.9,"wdir":220,"wspd":12,"visib":"10+","altim":1014,"slp":1013.2,"qcField":4,"metarType":"METAR","rawOb":"METAR KSDF 152156Z 22012KT 10SM SCT070 OVC250 29/14 A2994 RMK AO2 SLP132 T02890139","lat":38.1774,"lon":-85.7308,"elev":146,"name":"Louisville Intl, KY, US","cover":"OVC","clouds":[{"cover":"SCT","base":7000},{"cover":"OVC","base":25000}],"fltCat":"VFR"},{"icaoId":"KUKI","receiptTime":"2026-04-15T22:00:42.708Z","obsTime":1776290160,"reportTime":"2026-04-15T22:00:00.000Z","temp":17.2,"dewp":7.8,"wdir":330,"wspd":14,"wgst":20,"visib":"10+","altim":1018.7,"slp":1018.1,"qcField":6,"metarType":"METAR","rawOb":"METAR KUKI 152156Z AUTO 33014G20KT 10SM SCT040 SCT060 BKN080 17/08 A3008 RMK AO2 SLP181 T01720078","lat":39.1278,"lon":-123.2001,"elev":183,"name":"Ukiah Muni, CA, US","cover":"BKN","clouds":[{"cover":"SCT","base":4000},{"cover":"SCT","base":6000},{"cover":"BKN","base":8000}],"fltCat":"VFR"},{"icaoId":"KEGE","receiptTime":"2026-04-15T21:58:24.491Z","obsTime":1776290160,"reportTime":"2026-04-15T22:00:00.000Z","temp":13.3,"dewp":-4.4,"wdir":290,"wspd":17,"wgst":22,"visib":8,"altim":1016.7,"slp":1013.9,"qcField":4,"metarType":"METAR","rawOb":"METAR KEGE 152156Z 29017G22KT 8SM CLR 13/M04 A3002 RMK AO2 SLP139 T01331044","lat":39.6448,"lon":-106.9176,"elev":1993,"name":"Eagle Cnty Rgnl, CO, US","cover":"CLR","clouds":[],"fltCat":"VFR"},{"icaoId":"KVIS","receiptTime":"2026-04-15T21:58:23.013Z","obsTime":1776290160,"reportTime":"2026-04-15T22:00:00.000Z","temp":23.9,"dewp":7.8,"wdir":"VRB","wspd":3,"visib":"10+","altim":1016.7,"slp":1016.5,"qcField":14,"metarType":"METAR","rawOb":"METAR KVIS 152156Z AUTO VRB03KT 10SM CLR 24/08 A3002 RMK AO2 SLP165 T02390078 PNO $","lat":36.3135,"lon":-119.3884,"elev":92,"name":"Visalia Muni, CA, US","cover":"CLR","clouds":[],"fltCat":"VFR"},{"icaoId":"KSDY","receiptTime":"2026-04-15T21:58:22.780Z","obsTime":1776290160,"reportTime":"2026-04-15T22:00:00.000Z","temp":18.3,"dewp":-1.1,"wdir":250,"wspd":7,"wgst":16,"visib":"10+","altim":1002.8,"slp":1003.3,"qcField":14,"metarType":"METAR","rawOb":"METAR KSDY 152156Z AUTO 25007G16KT 10SM SCT085 18/M01 A2961 RMK AO2 SLP033 T01831011 $","lat":47.7029,"lon":-104.1951,"elev":600,"name":"Sidney/Richland Muni, MT, US","cover":"SCT","clouds":[{"cover":"SCT","base":8500}],"fltCat":"VFR"},{"icaoId":"KLAS","receiptTime":"2026-04-15T22:00:46.712Z","obsTime":1776290160,"reportTime":"2026-04-15T22:00:00.000Z","temp":26.7,"dewp":-6.1,"wdir":180,"wspd":7,"wgst":18,"visib":"10+","altim":1013,"slp":1011.2,"qcField":4,"metarType":"METAR","rawOb":"METAR KLAS 152156Z 18007G18KT 140V200 10SM FEW250 27/M06 A2991 RMK AO2 SLP112 T02671061","lat":36.0719,"lon":-115.1634,"elev":662,"name":"Las Vegas/Reid Intl, NV, US","cover":"FEW","clouds":[{"cover":"FEW","base":25000}],"fltCat":"VFR"},{"icaoId":"KCEC","receiptTime":"2026-04-15T22:00:43.029Z","obsTime":1776290160,"reportTime":"2026-04-15T22:00:00.000Z","temp":12.2,"dewp":4.4,"wdir":340,"wspd":12,"wgst":24,"visib":"10+","altim":1020.7,"slp":1020.7,"qcField":6,"metarType":"METAR","rawOb":"METAR KCEC 152156Z AUTO 34012G24KT 10SM FEW045 12/04 A3014 RMK AO2 SLP207 T01220044","lat":41.7836,"lon":-124.238,"elev":17,"name":"Crescent City/McNama, CA, US","cover":"FEW","clouds":[{"cover":"FEW","base":4500}],"fltCat":"VFR"},{"icaoId":"KBZN","receiptTime":"2026-04-15T22:00:15.576Z","obsTime":1776290160,"reportTime":"2026-04-15T22:00:00.000Z","temp":15,"dewp":-1.1,"wdir":250,"wspd":18,"wgst":26,"visib":"10+","altim":1001.1,"slp":999.1,"qcField":4,"metarType":"METAR","rawOb":"METAR KBZN 152156Z 25018G26KT 10SM FEW110 15/M01 A2956 RMK AO2 PK WND 26033/2120 SLP991 T01501011","lat":45.7876,"lon":-111.1615,"elev":1349,"name":"Bozeman/Gallatin Fld, MT, US","cover":"FEW","clouds":[{"cover":"FEW","base":11000}],"fltCat":"VFR"},{"icaoId":"KLWS","receiptTime":"2026-04-15T22:00:46.790Z","obsTime":1776290160,"reportTime":"2026-04-15T22:00:00.000Z","temp":9.4,"dewp":-2.8,"wdir":250,"wspd":12,"visib":"10+","altim":1005.8,"slp":1006.1,"qcField":6,"metarType":"METAR","rawOb":"METAR KLWS 152156Z AUTO 25012KT 10SM OVC100 09/M03 A2970 RMK AO2 PK WND 24036/2108 SLP061 T00941028","lat":46.3746,"lon":-117.0153,"elev":435,"name":"Lewiston/Nez Perce Cnty, ID, US","cover":"OVC","clouds":[{"cover":"OVC","base":10000}],"fltCat":"VFR"},{"icaoId":"KEND","receiptTime":"2026-04-15T22:06:05.956Z","obsTime":1776290100,"reportTime":"2026-04-15T22:00:00.000Z","temp":28.4,"dewp":10.1,"wdir":0,"wspd":0,"visib":"10+","altim":1006.5,"slp":1005.2,"qcField":12,"metarType":"METAR","rawOb":"METAR KEND 152155Z 00000KT 10SM FEW090 SCT200 28/10 A2972 RMK AO2A LTG DSNT S SLP052 T02840101 $","lat":36.338,"lon":-97.919,"elev":392,"name":"Enid/Vance AFB, OK, US","cover":"SCT","clouds":[{"cover":"FEW","base":9000},{"cover":"SCT","base":20000}],"fltCat":"VFR"},{"icaoId":"KCMA","receiptTime":"2026-04-15T21:58:24.263Z","obsTime":1776290100,"reportTime":"2026-04-15T22:00:00.000Z","temp":20.6,"dewp":11.1,"wdir":200,"wspd":7,"visib":"10+","altim":1016.3,"slp":1017,"qcField":4,"metarType":"METAR","rawOb":"METAR KCMA 152155Z 20007KT 10SM CLR 21/11 A3001 RMK AO2 SLP170 T02060111","lat":34.2114,"lon":-119.0876,"elev":20,"name":"Camarillo Arpt, CA, US","cover":"CLR","clouds":[],"fltCat":"VFR"},{"icaoId":"KLUF","receiptTime":"2026-04-15T22:08:15.010Z","obsTime":1776290100,"reportTime":"2026-04-15T22:00:00.000Z","temp":28.8,"dewp":-5.9,"wdir":210,"wspd":6,"visib":"10+","altim":1012.6,"slp":1011.5,"qcField":14,"metarType":"METAR","rawOb":"METAR KLUF 152155Z AUTO 21006KT 10SM CLR 29/M06 A2990 RMK AO2 SLP115 T02881059 $","lat":33.538,"lon":-112.38,"elev":333,"name":"Phoenix/Luke AFB, AZ, US","cover":"CLR","clouds":[],"fltCat":"VFR"},{"icaoId":"KGPI","receiptTime":"2026-04-15T21:58:24.756Z","obsTime":1776290100,"reportTime":"2026-04-15T22:00:00.000Z","temp":7.8,"dewp":2.8,"wdir":110,"wspd":4,"visib":"10+","altim":1001.1,"slp":1001.7,"qcField":4,"precip":0.01,"metarType":"METAR","rawOb":"METAR KGPI 152155Z 11004KT 10SM FEW041 BKN055 08/03 A2956 RMK AO2 RAB01E28 SLP017 P0001 T00780028","lat":48.3041,"lon":-114.2643,"elev":903,"name":"Kalispell/Glacier Park Intl, MT, US","cover":"BKN","clouds":[{"cover":"FEW","base":4100},{"cover":"BKN","base":5500}],"fltCat":"VFR"},{"icaoId":"KRNO","receiptTime":"2026-04-15T21:58:22.720Z","obsTime":1776290100,"reportTime":"2026-04-15T22:00:00.000Z","temp":16.1,"dewp":-1.7,"wdir":250,"wspd":17,"wgst":28,"visib":"10+","altim":1014.3,"slp":1011.8,"qcField":4,"metarType":"METAR","rawOb":"METAR KRNO 152155Z 25017G28KT 10SM FEW070 SCT110 BKN210 16/M02 A2995 RMK AO2 PK WND 23031/2142 SLP118 ACSL ALQDS T01611017","lat":39.5077,"lon":-119.7683,"elev":1344,"name":"Reno/Tahoe Intl, NV, US","cover":"BKN","clouds":[{"cover":"FEW","base":7000},{"cover":"SCT","base":11000},{"cover":"BKN","base":21000}],"fltCat":"VFR"}]