[{"icaoId":"KSEZ","receiptTime":"2026-04-06T22:40:19.930Z","obsTime":1775514900,"reportTime":"2026-04-06T22:35:00.000Z","temp":18,"dewp":2,"wdir":"VRB","wspd":3,"visib":"10+","altim":1018.7,"qcField":6,"metarType":"METAR","rawOb":"METAR KSEZ 062235Z AUTO VRB03KT 10SM CLR 18/02 A3008 RMK AO2","lat":34.8467,"lon":-111.7884,"elev":1455,"name":"Sedona Arpt, AZ, US","cover":"CLR","clouds":[],"fltCat":"VFR"},{"icaoId":"KSOW","receiptTime":"2026-04-06T22:38:13.591Z","obsTime":1775514900,"reportTime":"2026-04-06T22:35:00.000Z","temp":12,"dewp":7,"wdir":190,"wspd":13,"visib":8,"altim":1021.8,"qcField":6,"wxString":"-DZ","metarType":"METAR","rawOb":"METAR KSOW 062235Z AUTO 19013KT 8SM -DZ SCT029 BKN036 BKN047 12/07 A3017 RMK AO2","lat":34.2686,"lon":-110.0019,"elev":1954,"name":"Show Low Muni, AZ, US","cover":"BKN","clouds":[{"cover":"SCT","base":2900},{"cover":"BKN","base":3600},{"cover":"BKN","base":4700}],"fltCat":"VFR"},{"icaoId":"KHII","receiptTime":"2026-04-06T22:42:07.957Z","obsTime":1775514900,"reportTime":"2026-04-06T22:35:00.000Z","temp":32,"dewp":-5,"wdir":180,"wspd":8,"visib":"10+","altim":1010.2,"qcField":6,"metarType":"METAR","rawOb":"METAR KHII 062235Z AUTO 18008KT 140V200 10SM CLR 32/M05 A2983 RMK AO2","lat":34.5659,"lon":-114.3522,"elev":241,"name":"Lake Havasu City Arpt, AZ, US","cover":"CLR","clouds":[],"fltCat":"VFR"},{"icaoId":"KGEU","receiptTime":"2026-04-06T21:59:51.158Z","obsTime":1775512680,"reportTime":"2026-04-06T22:00:00.000Z","temp":29,"dewp":3,"wdir":90,"wspd":5,"visib":"10+","altim":1011.3,"qcField":0,"metarType":"METAR","rawOb":"METAR KGEU 062158Z 09005KT 10SM SCT140 SCT330 29/03 A2986","lat":33.528,"lon":-112.293,"elev":319,"name":"Glendale Muni, AZ, US","cover":"SCT","clouds":[{"cover":"SCT","base":14000},{"cover":"SCT","base":33000}],"fltCat":"VFR"},{"icaoId":"KFLG","receiptTime":"2026-04-06T22:00:22.948Z","obsTime":1775512620,"reportTime":"2026-04-06T22:00:00.000Z","temp":11.7,"dewp":1.7,"wdir":"VRB","wspd":4,"visib":"10+","altim":1021.8,"slp":1016,"qcField":4,"metarType":"METAR","rawOb":"METAR KFLG 062157Z VRB04KT 10SM BKN050 OVC060 12/02 A3017 RMK AO2 SLP160 T01170017","lat":35.1443,"lon":-111.6664,"elev":2134,"name":"Flagstaff/Pulliam Arpt, AZ, US","cover":"OVC","clouds":[{"cover":"BKN","base":5000},{"cover":"OVC","base":6000}],"fltCat":"VFR"},{"icaoId":"KDUG","receiptTime":"2026-04-06T22:02:21.801Z","obsTime":1775512560,"reportTime":"2026-04-06T22:00:00.000Z","temp":21.7,"dewp":5.6,"wdir":160,"wspd":8,"wgst":15,"visib":"10+","altim":1018,"slp":1012.7,"qcField":38,"metarType":"METAR","rawOb":"METAR KDUG 062156Z AUTO 16008G15KT 10SM BKN110 22/06 A3006 RMK AO2 SLP127 T02170056 TSNO","lat":31.4725,"lon":-109.6022,"elev":1260,"name":"Douglas/Bisbee Intl, AZ, US","cover":"BKN","clouds":[{"cover":"BKN","base":11000}],"fltCat":"VFR"},{"icaoId":"KINW","receiptTime":"2026-04-06T22:00:17.030Z","obsTime":1775512560,"reportTime":"2026-04-06T22:00:00.000Z","temp":16.1,"dewp":5.6,"wdir":250,"wspd":20,"visib":"10+","altim":1019.7,"slp":1014.8,"qcField":6,"metarType":"METAR","rawOb":"METAR KINW 062156Z AUTO 25020KT 10SM OVC090 16/06 A3011 RMK AO2 SLP148 T01610056","lat":35.0279,"lon":-110.7221,"elev":1492,"name":"Winslow/Lindberg Rgnl, AZ, US","cover":"OVC","clouds":[{"cover":"OVC","base":9000}],"fltCat":"VFR"},{"icaoId":"KLUF","receiptTime":"2026-04-06T22:06:04.518Z","obsTime":1775512500,"reportTime":"2026-04-06T22:00:00.000Z","temp":29.6,"dewp":2.7,"wdir":140,"wspd":10,"wgst":16,"visib":"10+","altim":1011.3,"slp":1009.8,"qcField":12,"metarType":"METAR","rawOb":"METAR KLUF 062155Z 14010G16KT 10SM FEW110 SCT140 BKN210 30/03 A2986 RMK AO2A SLP098 T02960027 $","lat":33.538,"lon":-112.38,"elev":333,"name":"Phoenix/Luke AFB, AZ, US","cover":"BKN","clouds":[{"cover":"FEW","base":11000},{"cover":"SCT","base":14000},{"cover":"BKN","base":21000}],"fltCat":"VFR"},{"icaoId":"KGCN","receiptTime":"2026-04-06T21:58:18.001Z","obsTime":1775512440,"reportTime":"2026-04-06T22:00:00.000Z","temp":10,"dewp":3.9,"wdir":110,"wspd":9,"wgst":16,"visib":"10+","altim":1021.1,"slp":1017.4,"qcField":4,"precip":0.02,"metarType":"METAR","rawOb":"METAR KGCN 062154Z 11009G16KT 10SM OVC070 10/04 A3015 RMK AO2 RAE35 SLP174 SECTOR VIS SE-S 2NM P0002 T01000039","lat":35.9458,"lon":-112.1554,"elev":1993,"name":"Grand Canyon Park Arpt, AZ, US","cover":"OVC","clouds":[{"cover":"OVC","base":7000}],"fltCat":"VFR"},{"icaoId":"KFFZ","receiptTime":"2026-04-06T21:58:32.898Z","obsTime":1775512440,"reportTime":"2026-04-06T22:00:00.000Z","temp":27.2,"dewp":5,"wdir":60,"wspd":14,"wgst":23,"visib":"10+","altim":1011.9,"slp":1009.5,"qcField":4,"metarType":"METAR","rawOb":"METAR KFFZ 062154Z 06014G23KT 10SM FEW036 FEW065 SCT100 27/05 A2988 RMK AO2 SLP095 T02720050","lat":33.4659,"lon":-111.7212,"elev":420,"name":"Mesa/Falcon Fld, AZ, US","cover":"SCT","clouds":[{"cover":"FEW","base":3600},{"cover":"FEW","base":6500},{"cover":"SCT","base":10000}],"fltCat":"VFR"},{"icaoId":"KOLS","receiptTime":"2026-04-06T21:58:18.053Z","obsTime":1775512440,"reportTime":"2026-04-06T22:00:00.000Z","temp":23.9,"dewp":-5,"wdir":220,"wspd":8,"visib":"10+","altim":1016.3,"slp":1010.1,"qcField":6,"metarType":"METAR","rawOb":"METAR KOLS 062154Z AUTO 22008KT 10SM OVC100 24/M05 A3001 RMK AO2 SLP101 T02391050","lat":31.4208,"lon":-110.8465,"elev":1194,"name":"Nogales Intl, AZ, US","cover":"OVC","clouds":[{"cover":"OVC","base":10000}],"fltCat":"VFR"},{"icaoId":"KSJN","receiptTime":"2026-04-06T21:58:08.959Z","obsTime":1775512440,"reportTime":"2026-04-06T22:00:00.000Z","temp":15,"dewp":3.9,"wdir":240,"wspd":15,"wgst":22,"visib":"10+","altim":1020.1,"slp":1013.7,"qcField":6,"metarType":"METAR","rawOb":"METAR KSJN 062154Z AUTO 24015G22KT 10SM BKN065 OVC080 15/04 A3012 RMK AO2 PK WND 23026/2123 SLP137 T01500039","lat":34.5184,"lon":-109.3801,"elev":1747,"name":"St Johns Ind Arpt, AZ, US","cover":"OVC","clouds":[{"cover":"BKN","base":6500},{"cover":"OVC","base":8000}],"fltCat":"VFR"},{"icaoId":"KPGA","receiptTime":"2026-04-06T21:56:26.477Z","obsTime":1775512380,"reportTime":"2026-04-06T22:00:00.000Z","temp":21.1,"dewp":-5.6,"wdir":250,"wspd":5,"visib":"10+","altim":1017.4,"slp":1012.9,"qcField":14,"metarType":"METAR","rawOb":"METAR KPGA 062153Z AUTO 25005KT 10SM CLR 21/M06 A3004 RMK AO2 SLP129 T02111056 $","lat":36.9211,"lon":-111.4487,"elev":1310,"name":"Page Muni, AZ, US","cover":"CLR","clouds":[],"fltCat":"VFR"},{"icaoId":"KDVT","receiptTime":"2026-04-06T21:56:33.950Z","obsTime":1775512380,"reportTime":"2026-04-06T22:00:00.000Z","temp":28.3,"dewp":2.2,"wdir":90,"wspd":8,"wgst":17,"visib":"10+","altim":1012.3,"slp":1010,"qcField":4,"metarType":"METAR","rawOb":"METAR KDVT 062153Z 09008G17KT 10SM CLR 28/02 A2989 RMK AO2 SLP100 T02830022","lat":33.6902,"lon":-112.0662,"elev":454,"name":"Phoenix/Deer Valley Arpt, AZ, US","cover":"CLR","clouds":[],"fltCat":"VFR"},{"icaoId":"KTUS","receiptTime":"2026-04-06T21:56:31.456Z","obsTime":1775512380,"reportTime":"2026-04-06T22:00:00.000Z","temp":26.7,"dewp":0.6,"wdir":0,"wspd":0,"visib":"10+","altim":1014.3,"slp":1009.8,"qcField":4,"metarType":"METAR","rawOb":"METAR KTUS 062153Z 00000KT 10SM FEW120 27/01 A2995 RMK AO2 SLP098 T02670006","lat":32.1315,"lon":-110.9564,"elev":776,"name":"Tucson Intl Arpt, AZ, US","cover":"FEW","clouds":[{"cover":"FEW","base":12000}],"fltCat":"VFR"},{"icaoId":"KPRC","receiptTime":"2026-04-06T21:56:33.364Z","obsTime":1775512380,"reportTime":"2026-04-06T22:00:00.000Z","temp":17.2,"dewp":-1.1,"wdir":220,"wspd":11,"wgst":19,"visib":"10+","altim":1019.4,"slp":1013.7,"qcField":4,"metarType":"METAR","rawOb":"METAR KPRC 062153Z 22011G19KT 10SM FEW049 BKN065 OVC085 17/M01 A3010 RMK AO2 PK WND 24029/2137 SLP137 T01721011","lat":34.6491,"lon":-112.4223,"elev":1528,"name":"Prescott/Love Fld, AZ, US","cover":"OVC","clouds":[{"cover":"FEW","base":4900},{"cover":"BKN","base":6500},{"cover":"OVC","base":8500}],"fltCat":"VFR"},{"icaoId":"KSDL","receiptTime":"2026-04-06T21:56:29.494Z","obsTime":1775512380,"reportTime":"2026-04-06T22:00:00.000Z","temp":27.8,"dewp":4.4,"wdir":90,"wspd":14,"wgst":23,"visib":"10+","altim":1012.6,"slp":1010.1,"qcField":4,"metarType":"METAR","rawOb":"METAR KSDL 062153Z 09014G23KT 10SM CLR 28/04 A2990 RMK AO2 SLP101 T02780044","lat":33.6123,"lon":-111.9232,"elev":438,"name":"Scottsdale Muni, AZ, US","cover":"CLR","clouds":[],"fltCat":"VFR"},{"icaoId":"KPHX","receiptTime":"2026-04-06T21:54:08.539Z","obsTime":1775512260,"reportTime":"2026-04-06T22:00:00.000Z","temp":30,"dewp":4.4,"wdir":120,"wspd":9,"visib":"10+","altim":1011.6,"slp":1009.7,"qcField":4,"metarType":"METAR","rawOb":"METAR KPHX 062151Z 12009KT 10SM BKN130 OVC250 30/04 A2987 RMK AO2 SLP097 VIRGA T03000044","lat":33.4278,"lon":-112.0037,"elev":338,"name":"Phoenix/Sky Harbor Intl, AZ, US","cover":"OVC","clouds":[{"cover":"BKN","base":13000},{"cover":"OVC","base":25000}],"fltCat":"VFR"},{"icaoId":"KSAD","receiptTime":"2026-04-06T21:54:08.702Z","obsTime":1775512260,"reportTime":"2026-04-06T22:00:00.000Z","temp":20.6,"dewp":5,"wdir":120,"wspd":12,"wgst":20,"visib":"10+","altim":1017.7,"slp":1014.1,"qcField":6,"metarType":"METAR","rawOb":"METAR KSAD 062151Z AUTO 12012G20KT 10SM BKN110 21/05 A3005 RMK AO2 SLP141 T02060050","lat":32.8565,"lon":-109.636,"elev":937,"name":"Safford Rgnl, AZ, US","cover":"BKN","clouds":[{"cover":"BKN","base":11000}],"fltCat":"VFR"},{"icaoId":"KIGM","receiptTime":"2026-04-06T21:54:10.585Z","obsTime":1775512260,"reportTime":"2026-04-06T22:00:00.000Z","temp":26.1,"dewp":-6.1,"wdir":240,"wspd":14,"wgst":22,"visib":"10+","altim":1015,"slp":1008.9,"qcField":6,"metarType":"METAR","rawOb":"METAR KIGM 062151Z AUTO 24014G22KT 10SM CLR 26/M06 A2997 RMK AO2 PK WND 29027/2126 SLP089 T02611061","lat":35.2575,"lon":-113.9341,"elev":1045,"name":"Kingman Arpt, AZ, US","cover":"CLR","clouds":[],"fltCat":"VFR"},{"icaoId":"KIWA","receiptTime":"2026-04-06T21:56:41.255Z","obsTime":1775512140,"reportTime":"2026-04-06T22:00:00.000Z","temp":28,"dewp":4,"wdir":90,"wspd":15,"visib":"10+","altim":1013,"qcField":0,"metarType":"METAR","rawOb":"METAR KIWA 062149Z 09015KT 10SM CLR 28/04 A2991","lat":33.3008,"lon":-111.6437,"elev":420,"name":"Phoenix/Mesa Gateway Arpt, AZ, US","cover":"CLR","clouds":[],"fltCat":"VFR"},{"icaoId":"KCHD","receiptTime":"2026-04-06T21:49:50.312Z","obsTime":1775512020,"reportTime":"2026-04-06T22:00:00.000Z","temp":27,"dewp":5,"wdir":80,"wspd":14,"wgst":24,"visib":"10+","altim":1011.9,"qcField":0,"metarType":"METAR","rawOb":"METAR KCHD 062147Z 08014G24KT 10SM SCT140 OVC180 27/05 A2988","lat":33.2669,"lon":-111.8086,"elev":378,"name":"Chandler Muni, AZ, US","cover":"OVC","clouds":[{"cover":"SCT","base":14000},{"cover":"OVC","base":18000}],"fltCat":"VFR"},{"icaoId":"KIFP","receiptTime":"2026-04-06T21:47:51.413Z","obsTime":1775512020,"reportTime":"2026-04-06T22:00:00.000Z","temp":32,"dewp":-8,"wdir":220,"wspd":9,"visib":"10+","altim":1010.2,"qcField":0,"metarType":"METAR","rawOb":"METAR KIFP 062147Z 22009KT 10SM CLR 32/M08 A2983","lat":35.1487,"lon":-114.5611,"elev":210,"name":"Bullhead City Intl, AZ, US","cover":"CLR","clouds":[],"fltCat":"VFR"},{"icaoId":"KGYR","receiptTime":"2026-04-06T21:47:51.320Z","obsTime":1775512020,"reportTime":"2026-04-06T22:00:00.000Z","temp":29,"dewp":6,"wdir":120,"wspd":10,"visib":"10+","altim":1011.9,"qcField":0,"metarType":"METAR","rawOb":"METAR KGYR 062147Z 12010KT 10SM BKN140 BKN200 29/06 A2988","lat":33.428,"lon":-112.368,"elev":292,"name":"Phoenix/Goodyear Muni, AZ, US","cover":"BKN","clouds":[{"cover":"BKN","base":14000},{"cover":"BKN","base":20000}],"fltCat":"VFR"},{"icaoId":"KRYN","receiptTime":"2026-04-06T21:46:13.151Z","obsTime":1775511900,"reportTime":"2026-04-06T22:00:00.000Z","temp":27,"dewp":1,"wdir":80,"wspd":7,"wgst":13,"visib":"10+","altim":1013,"qcField":0,"metarType":"METAR","rawOb":"METAR KRYN 062145Z 08007G13KT 10SM SCT120 27/01 A2991","lat":32.1418,"lon":-111.1767,"elev":731,"name":"Tucson/Ryan Fld, AZ, US","cover":"SCT","clouds":[{"cover":"SCT","base":12000}],"fltCat":"VFR"}]