[{"icaoId":"KGEU","receiptTime":"2026-04-07T15:47:01.562Z","obsTime":1775576820,"reportTime":"2026-04-07T16:00:00.000Z","temp":23,"dewp":7,"wdir":70,"wspd":3,"visib":"10+","altim":1013.3,"qcField":0,"metarType":"METAR","rawOb":"METAR KGEU 071547Z 07003KT 10SM CLR 23/07 A2992","lat":33.528,"lon":-112.293,"elev":319,"name":"Glendale Muni, AZ, US","cover":"CLR","clouds":[],"fltCat":"VFR"},{"icaoId":"KGYR","receiptTime":"2026-04-07T15:48:43.915Z","obsTime":1775576820,"reportTime":"2026-04-07T16:00:00.000Z","temp":24,"dewp":7,"wdir":"VRB","wspd":5,"visib":"10+","altim":1014.3,"qcField":0,"metarType":"METAR","rawOb":"METAR KGYR 071547Z VRB05KT 10SM SKC 24/07 A2995","lat":33.428,"lon":-112.368,"elev":292,"name":"Phoenix/Goodyear Muni, AZ, US","cover":"SKC","clouds":[],"fltCat":"VFR"},{"icaoId":"KRYN","receiptTime":"2026-04-07T15:46:20.412Z","obsTime":1775576700,"reportTime":"2026-04-07T16:00:00.000Z","temp":22,"dewp":5,"wdir":250,"wspd":5,"visib":"10+","altim":1015.3,"qcField":0,"metarType":"METAR","rawOb":"METAR KRYN 071545Z 25005KT 10SM CLR 22/05 A2998","lat":32.1418,"lon":-111.1767,"elev":731,"name":"Tucson/Ryan Fld, AZ, US","cover":"CLR","clouds":[],"fltCat":"VFR"},{"icaoId":"KSOW","receiptTime":"2026-04-07T15:38:16.556Z","obsTime":1775576100,"reportTime":"2026-04-07T15:35:00.000Z","temp":10,"dewp":7,"wdir":80,"wspd":8,"visib":"10+","altim":1021.4,"qcField":6,"metarType":"METAR","rawOb":"METAR KSOW 071535Z AUTO 08008KT 10SM SCT014 BKN018 10/07 A3016 RMK AO2","lat":34.2686,"lon":-110.0019,"elev":1954,"name":"Show Low Muni, AZ, US","cover":"BKN","clouds":[{"cover":"SCT","base":1400},{"cover":"BKN","base":1800}],"fltCat":"MVFR"},{"icaoId":"KHII","receiptTime":"2026-04-07T15:40:27.289Z","obsTime":1775576100,"reportTime":"2026-04-07T15:35:00.000Z","temp":21,"dewp":-1,"wdir":0,"wspd":0,"visib":"10+","altim":1013.6,"qcField":6,"metarType":"METAR","rawOb":"METAR KHII 071535Z AUTO 00000KT 10SM CLR 21/M01 A2993 RMK AO2","lat":34.5659,"lon":-114.3522,"elev":241,"name":"Lake Havasu City Arpt, AZ, US","cover":"CLR","clouds":[],"fltCat":"VFR"},{"icaoId":"KSEZ","receiptTime":"2026-04-07T15:40:31.497Z","obsTime":1775576100,"reportTime":"2026-04-07T15:35:00.000Z","temp":15,"dewp":4,"wdir":0,"wspd":0,"visib":"10+","altim":1019.4,"qcField":6,"metarType":"METAR","rawOb":"METAR KSEZ 071535Z AUTO 00000KT 10SM CLR 15/04 A3010 RMK AO2","lat":34.8467,"lon":-111.7884,"elev":1455,"name":"Sedona Arpt, AZ, US","cover":"CLR","clouds":[],"fltCat":"VFR"},{"icaoId":"KFLG","receiptTime":"2026-04-07T15:00:20.053Z","obsTime":1775573820,"reportTime":"2026-04-07T15:00:00.000Z","temp":7.2,"dewp":3.3,"wdir":0,"wspd":0,"visib":"10+","altim":1021.8,"slp":1016.5,"qcField":4,"presTend":0.9,"metarType":"METAR","rawOb":"METAR KFLG 071457Z 00000KT 10SM CLR 07/03 A3017 RMK AO2 SLP165 T00720033 53009","lat":35.1443,"lon":-111.6664,"elev":2134,"name":"Flagstaff/Pulliam Arpt, AZ, US","cover":"CLR","clouds":[],"fltCat":"VFR"},{"icaoId":"KCGZ","receiptTime":"2026-04-07T14:58:32.322Z","obsTime":1775573760,"reportTime":"2026-04-07T15:00:00.000Z","temp":21.1,"dewp":7.8,"wdir":360,"wspd":4,"visib":"10+","altim":1015,"slp":1013.6,"qcField":14,"presTend":1.3,"metarType":"METAR","rawOb":"METAR KCGZ 071456Z AUTO 36004KT 10SM CLR 21/08 A2997 RMK AO2 SLP136 6//// T02110078 53013 $","lat":32.9531,"lon":-111.7725,"elev":444,"name":"Casa Granda Muni, AZ, US","cover":"CLR","clouds":[],"fltCat":"VFR"},{"icaoId":"KDUG","receiptTime":"2026-04-07T15:02:19.768Z","obsTime":1775573760,"reportTime":"2026-04-07T15:00:00.000Z","temp":13.3,"dewp":5,"wdir":0,"wspd":0,"visib":"10+","altim":1017.4,"slp":1012.3,"qcField":38,"presTend":1.2,"metarType":"METAR","rawOb":"METAR KDUG 071456Z AUTO 00000KT 10SM CLR 13/05 A3004 RMK AO2 SLP123 T01330050 53012 TSNO","lat":31.4725,"lon":-109.6022,"elev":1260,"name":"Douglas/Bisbee Intl, AZ, US","cover":"CLR","clouds":[],"fltCat":"VFR"},{"icaoId":"KINW","receiptTime":"2026-04-07T15:00:05.350Z","obsTime":1775573760,"reportTime":"2026-04-07T15:00:00.000Z","temp":8.9,"dewp":8.9,"wdir":0,"wspd":0,"visib":"10+","altim":1020.1,"slp":1017.4,"qcField":6,"presTend":1,"metarType":"METAR","rawOb":"METAR KINW 071456Z AUTO 00000KT 10SM CLR 09/09 A3012 RMK AO2 SLP174 T00890089 53010","lat":35.0279,"lon":-110.7221,"elev":1492,"name":"Winslow/Lindberg Rgnl, AZ, US","cover":"CLR","clouds":[],"fltCat":"VFR"},{"icaoId":"KLUF","receiptTime":"2026-04-07T15:04:02.813Z","obsTime":1775573700,"reportTime":"2026-04-07T15:00:00.000Z","temp":21.2,"dewp":4.7,"wdir":20,"wspd":5,"visib":"10+","altim":1013.6,"slp":1012.5,"qcField":12,"presTend":1.3,"metarType":"METAR","rawOb":"METAR KLUF 071455Z 02005KT 10SM CLR 21/05 A2993 RMK AO2A SLP125 T02120047 52013 $","lat":33.538,"lon":-112.38,"elev":333,"name":"Phoenix/Luke AFB, AZ, US","cover":"CLR","clouds":[],"fltCat":"VFR"},{"icaoId":"KOLS","receiptTime":"2026-04-07T14:58:15.119Z","obsTime":1775573640,"reportTime":"2026-04-07T15:00:00.000Z","temp":14.4,"dewp":1.7,"wdir":0,"wspd":0,"visib":"10+","altim":1017,"slp":1012.1,"qcField":6,"presTend":1.4,"metarType":"METAR","rawOb":"METAR KOLS 071454Z AUTO 00000KT 10SM CLR 14/02 A3003 RMK AO2 SLP121 T01440017 51014","lat":31.4208,"lon":-110.8465,"elev":1194,"name":"Nogales Intl, AZ, US","cover":"CLR","clouds":[],"fltCat":"VFR"},{"icaoId":"KFFZ","receiptTime":"2026-04-07T14:58:05.039Z","obsTime":1775573640,"reportTime":"2026-04-07T15:00:00.000Z","temp":21.1,"dewp":7.8,"wdir":20,"wspd":6,"visib":"10+","altim":1014.3,"slp":1012.1,"qcField":4,"presTend":1.3,"metarType":"METAR","rawOb":"METAR KFFZ 071454Z 02006KT 10SM CLR 21/08 A2995 RMK AO2 SLP121 T02110078 53013","lat":33.4659,"lon":-111.7212,"elev":420,"name":"Mesa/Falcon Fld, AZ, US","cover":"CLR","clouds":[],"fltCat":"VFR"},{"icaoId":"KSJN","receiptTime":"2026-04-07T14:58:14.167Z","obsTime":1775573640,"reportTime":"2026-04-07T15:00:00.000Z","temp":9.4,"dewp":5,"wdir":40,"wspd":4,"visib":"10+","altim":1020.1,"slp":1015.8,"qcField":6,"presTend":1.2,"metarType":"METAR","rawOb":"METAR KSJN 071454Z AUTO 04004KT 10SM CLR 09/05 A3012 RMK AO2 SLP158 T00940050 52012","lat":34.5184,"lon":-109.3801,"elev":1747,"name":"St Johns Ind Arpt, AZ, US","cover":"CLR","clouds":[],"fltCat":"VFR"},{"icaoId":"KGCN","receiptTime":"2026-04-07T14:58:15.039Z","obsTime":1775573640,"reportTime":"2026-04-07T15:00:00.000Z","temp":5,"dewp":2.8,"wdir":0,"wspd":0,"visib":"10+","altim":1021.4,"slp":1017.9,"qcField":4,"presTend":0.8,"metarType":"METAR","rawOb":"METAR KGCN 071454Z 00000KT 10SM CLR 05/03 A3016 RMK AO2 SLP179 T00500028 53008","lat":35.9458,"lon":-112.1554,"elev":1993,"name":"Grand Canyon Park Arpt, AZ, US","cover":"CLR","clouds":[],"fltCat":"VFR"},{"icaoId":"KDVT","receiptTime":"2026-04-07T14:56:40.451Z","obsTime":1775573580,"reportTime":"2026-04-07T15:00:00.000Z","temp":20,"dewp":5.6,"wdir":0,"wspd":0,"visib":"10+","altim":1014.6,"slp":1012.6,"qcField":4,"presTend":1.4,"metarType":"METAR","rawOb":"METAR KDVT 071453Z 00000KT 10SM CLR 20/06 A2996 RMK AO2 SLP126 T02000056 53014","lat":33.6902,"lon":-112.0662,"elev":454,"name":"Phoenix/Deer Valley Arpt, AZ, US","cover":"CLR","clouds":[],"fltCat":"VFR"},{"icaoId":"KPGA","receiptTime":"2026-04-07T14:56:43.482Z","obsTime":1775573580,"reportTime":"2026-04-07T15:00:00.000Z","temp":13.9,"dewp":5,"wdir":250,"wspd":4,"visib":"10+","altim":1018,"slp":1013.8,"qcField":14,"presTend":1.1,"metarType":"METAR","rawOb":"METAR KPGA 071453Z AUTO 25004KT 10SM CLR 14/05 A3006 RMK AO2 SLP138 T01390050 53011 $","lat":36.9211,"lon":-111.4487,"elev":1310,"name":"Page Muni, AZ, US","cover":"CLR","clouds":[],"fltCat":"VFR"},{"icaoId":"KSDL","receiptTime":"2026-04-07T14:56:42.121Z","obsTime":1775573580,"reportTime":"2026-04-07T15:00:00.000Z","temp":20,"dewp":7.2,"wdir":0,"wspd":0,"visib":"10+","altim":1014.6,"slp":1012.7,"qcField":4,"presTend":1.4,"metarType":"METAR","rawOb":"METAR KSDL 071453Z 00000KT 10SM CLR 20/07 A2996 RMK AO2 SLP127 T02000072 53014","lat":33.6123,"lon":-111.9232,"elev":438,"name":"Scottsdale Muni, AZ, US","cover":"CLR","clouds":[],"fltCat":"VFR"},{"icaoId":"KTUS","receiptTime":"2026-04-07T14:56:43.564Z","obsTime":1775573580,"reportTime":"2026-04-07T15:00:00.000Z","temp":16.7,"dewp":3.9,"wdir":0,"wspd":0,"visib":"10+","altim":1016,"slp":1012.4,"qcField":4,"presTend":0.8,"metarType":"METAR","rawOb":"METAR KTUS 071453Z 00000KT 10SM CLR 17/04 A3000 RMK AO2 SLP124 T01670039 53008","lat":32.1315,"lon":-110.9564,"elev":776,"name":"Tucson Intl Arpt, AZ, US","cover":"CLR","clouds":[],"fltCat":"VFR"},{"icaoId":"KPRC","receiptTime":"2026-04-07T14:56:48.165Z","obsTime":1775573580,"reportTime":"2026-04-07T15:00:00.000Z","temp":10,"dewp":2.8,"wdir":"VRB","wspd":3,"visib":"10+","altim":1019.7,"slp":1014.7,"qcField":4,"presTend":0.9,"metarType":"METAR","rawOb":"METAR KPRC 071453Z VRB03KT 10SM CLR 10/03 A3011 RMK AO2 SLP147 T01000028 53009","lat":34.6491,"lon":-112.4223,"elev":1528,"name":"Prescott/Love Fld, AZ, US","cover":"CLR","clouds":[],"fltCat":"VFR"},{"icaoId":"KIGM","receiptTime":"2026-04-07T14:54:08.616Z","obsTime":1775573460,"reportTime":"2026-04-07T15:00:00.000Z","temp":18.3,"dewp":0,"wdir":130,"wspd":6,"visib":"10+","altim":1017,"slp":1011.2,"qcField":6,"presTend":1.2,"metarType":"METAR","rawOb":"METAR KIGM 071451Z AUTO 13006KT 10SM CLR 18/00 A3003 RMK AO2 SLP112 T01830000 53012","lat":35.2575,"lon":-113.9341,"elev":1045,"name":"Kingman Arpt, AZ, US","cover":"CLR","clouds":[],"fltCat":"VFR"},{"icaoId":"KSAD","receiptTime":"2026-04-07T14:54:09.661Z","obsTime":1775573460,"reportTime":"2026-04-07T15:00:00.000Z","temp":15,"dewp":6.1,"wdir":310,"wspd":4,"visib":"10+","altim":1016,"slp":1012.5,"qcField":6,"presTend":1.5,"metarType":"METAR","rawOb":"METAR KSAD 071451Z AUTO 31004KT 10SM CLR 15/06 A3000 RMK AO2 SLP125 T01500061 53015","lat":32.8565,"lon":-109.636,"elev":937,"name":"Safford Rgnl, AZ, US","cover":"CLR","clouds":[],"fltCat":"VFR"},{"icaoId":"KPHX","receiptTime":"2026-04-07T14:54:09.507Z","obsTime":1775573460,"reportTime":"2026-04-07T15:00:00.000Z","temp":22.2,"dewp":8.3,"wdir":110,"wspd":4,"visib":"10+","altim":1013.6,"slp":1012.2,"qcField":4,"presTend":1.3,"metarType":"METAR","rawOb":"METAR KPHX 071451Z 11004KT 10SM FEW210 22/08 A2993 RMK AO2 SLP122 T02220083 53013","lat":33.4278,"lon":-112.0037,"elev":338,"name":"Phoenix/Sky Harbor Intl, AZ, US","cover":"FEW","clouds":[{"cover":"FEW","base":21000}],"fltCat":"VFR"},{"icaoId":"KIWA","receiptTime":"2026-04-07T14:58:41.069Z","obsTime":1775573400,"reportTime":"2026-04-07T15:00:00.000Z","temp":21,"dewp":8,"wdir":0,"wspd":0,"visib":"10+","altim":1014.6,"qcField":0,"metarType":"METAR","rawOb":"METAR KIWA 071450Z 00000KT 10SM CLR 21/08 A2996","lat":33.3008,"lon":-111.6437,"elev":420,"name":"Phoenix/Mesa Gateway Arpt, AZ, US","cover":"CLR","clouds":[],"fltCat":"VFR"},{"icaoId":"KCHD","receiptTime":"2026-04-07T14:50:43.249Z","obsTime":1775573220,"reportTime":"2026-04-07T15:00:00.000Z","temp":21,"dewp":9,"wdir":20,"wspd":5,"visib":"10+","altim":1014.3,"qcField":0,"metarType":"METAR","rawOb":"METAR KCHD 071447Z 02005KT 10SM CLR 21/09 A2995","lat":33.2669,"lon":-111.8086,"elev":378,"name":"Chandler Muni, AZ, US","cover":"CLR","clouds":[],"fltCat":"VFR"},{"icaoId":"KIFP","receiptTime":"2026-04-07T14:48:04.424Z","obsTime":1775573220,"reportTime":"2026-04-07T15:00:00.000Z","temp":18,"dewp":-5,"visib":"10+","altim":1013,"qcField":0,"metarType":"METAR","rawOb":"METAR KIFP 071447Z 0000KT 10SM CLR 18/M05 A2991","lat":35.1487,"lon":-114.5611,"elev":210,"name":"Bullhead City Intl, AZ, US","cover":"CLR","clouds":[],"fltCat":"VFR"}]