[{"icaoId":"KSAT","receiptTime":"2026-04-18T12:08:18.368Z","obsTime":1776513900,"reportTime":"2026-04-18T12:05:00.000Z","temp":21.1,"dewp":19.4,"wdir":0,"wspd":0,"visib":"10+","altim":1010.9,"qcField":4,"metarType":"SPECI","rawOb":"SPECI KSAT 181205Z 00000KT 10SM BKN013 BKN021 OVC250 21/19 A2985 RMK AO2 T02110194","lat":29.5443,"lon":-98.4839,"elev":246,"name":"San Antonio Intl, TX, US","cover":"OVC","clouds":[{"cover":"BKN","base":1300},{"cover":"BKN","base":2100},{"cover":"OVC","base":25000}],"fltCat":"MVFR"},{"icaoId":"KNFL","receiptTime":"2026-04-18T12:00:22.427Z","obsTime":1776513420,"reportTime":"2026-04-18T12:00:00.000Z","temp":-1.1,"dewp":-16.1,"wdir":0,"wspd":0,"visib":"10+","altim":1020.1,"slp":1016.6,"qcField":6,"maxT":3.9,"minT":-2.8,"metarType":"METAR","rawOb":"METAR KNFL 181157Z AUTO 00000KT 10SM CLR M01/M16 A3012 RMK AO2 SLP166 7//// T10111161 10039 21028 55000","lat":39.417,"lon":-118.705,"elev":1199,"name":"Fallon , NV, US","cover":"CLR","clouds":[],"fltCat":"VFR"},{"icaoId":"KFLG","receiptTime":"2026-04-18T12:00:22.367Z","obsTime":1776513420,"reportTime":"2026-04-18T12:00:00.000Z","temp":-0.6,"dewp":-22.2,"wdir":70,"wspd":5,"visib":"10+","altim":1022.4,"slp":1018.2,"qcField":6,"presTend":0.2,"maxT":3.3,"minT":-0.6,"metarType":"METAR","rawOb":"METAR KFLG 181157Z AUTO 07005KT 10SM CLR M01/M22 A3019 RMK AO2 SLP182 T10061222 10033 21006 53002","lat":35.1443,"lon":-111.6664,"elev":2134,"name":"Flagstaff/Pulliam Arpt, AZ, US","cover":"CLR","clouds":[],"fltCat":"VFR"},{"icaoId":"KFNL","receiptTime":"2026-04-18T11:58:23.641Z","obsTime":1776513360,"reportTime":"2026-04-18T12:00:00.000Z","temp":1.1,"dewp":-13.3,"wdir":330,"wspd":4,"visib":"10+","altim":1022.4,"slp":1022.4,"qcField":78,"presTend":0.9,"maxT":1.7,"minT":-1.7,"pcp24hr":0.01,"metarType":"METAR","rawOb":"METAR KFNL 181156Z AUTO 33004KT 10SM CLR 01/M13 A3019 RMK AO2 SLP224 70001 T00111133 10017 21017 53009 FZRANO $","lat":40.4427,"lon":-105.0097,"elev":1529,"name":"Fort Collins/N Colorado Rgnl, CO, US","cover":"CLR","clouds":[],"fltCat":"VFR"},{"icaoId":"KEGE","receiptTime":"2026-04-18T11:58:25.155Z","obsTime":1776513360,"reportTime":"2026-04-18T12:00:00.000Z","temp":-5.6,"dewp":-8.3,"wdir":120,"wspd":3,"visib":"10+","altim":1026.5,"slp":1028.3,"qcField":68,"presTend":1.5,"maxT":-4.4,"minT":-5.6,"pcp6hr":0.005,"pcp24hr":0.11,"metarType":"METAR","rawOb":"METAR KEGE 181156Z 12003KT 10SM OVC075 M06/M08 A3031 RMK AO2 SLP283 60000 70011 T10561083 11044 21056 53015 FZRANO","lat":39.6448,"lon":-106.9176,"elev":1993,"name":"Eagle Cnty Rgnl, CO, US","cover":"OVC","clouds":[{"cover":"OVC","base":7500}],"fltCat":"VFR"},{"icaoId":"KUKI","receiptTime":"2026-04-18T12:00:18.524Z","obsTime":1776513360,"reportTime":"2026-04-18T12:00:00.000Z","temp":5.6,"dewp":3.3,"wdir":0,"wspd":0,"visib":"10+","altim":1016.7,"slp":1016.2,"qcField":6,"presTend":-0.7,"maxT":10.6,"minT":4.4,"metarType":"METAR","rawOb":"METAR KUKI 181156Z AUTO 00000KT 10SM CLR 06/03 A3002 RMK AO2 SLP162 T00560033 10106 20044 56007","lat":39.1278,"lon":-123.2001,"elev":183,"name":"Ukiah Muni, CA, US","cover":"CLR","clouds":[],"fltCat":"VFR"},{"icaoId":"KENV","receiptTime":"2026-04-18T11:58:25.355Z","obsTime":1776513360,"reportTime":"2026-04-18T12:00:00.000Z","temp":-1.1,"dewp":-13.3,"wdir":260,"wspd":3,"visib":"10+","altim":1025.1,"slp":1026.2,"qcField":70,"presTend":0.3,"maxT":4.4,"minT":-1.7,"metarType":"METAR","rawOb":"METAR KENV 181156Z AUTO 26003KT 10SM CLR M01/M13 A3027 RMK AO2 SLP262 T10111133 10044 21017 53003 FZRANO","lat":40.7211,"lon":-114.0312,"elev":1291,"name":"Wendover Arpt, UT, US","cover":"CLR","clouds":[],"fltCat":"VFR"},{"icaoId":"KPWT","receiptTime":"2026-04-18T11:58:21.733Z","obsTime":1776513360,"reportTime":"2026-04-18T12:00:00.000Z","temp":5,"dewp":3.3,"wdir":0,"wspd":0,"visib":"10+","altim":1018.7,"slp":1019.1,"qcField":6,"presTend":-1.2,"maxT":7.8,"minT":4.4,"metarType":"METAR","rawOb":"METAR KPWT 181156Z AUTO 00000KT 10SM SCT110 05/03 A3008 RMK AO2 SLP191 T00500033 10078 20044 56012","lat":47.4942,"lon":-122.7594,"elev":143,"name":"Bremerton Arpt, WA, US","cover":"SCT","clouds":[{"cover":"SCT","base":11000}],"fltCat":"VFR"},{"icaoId":"KEKO","receiptTime":"2026-04-18T12:00:21.448Z","obsTime":1776513360,"reportTime":"2026-04-18T12:00:00.000Z","temp":-7.2,"dewp":-12.8,"wdir":0,"wspd":0,"visib":"10+","altim":1022.8,"slp":1024.1,"qcField":6,"presTend":0.1,"maxT":0.6,"minT":-7.8,"metarType":"METAR","rawOb":"METAR KEKO 181156Z AUTO 00000KT 10SM CLR M07/M13 A3020 RMK AO2 SLP241 T10721128 10006 21078 53001","lat":40.824,"lon":-115.7863,"elev":1541,"name":"Elko Rgnl, NV, US","cover":"CLR","clouds":[],"fltCat":"VFR"},{"icaoId":"KCEC","receiptTime":"2026-04-18T12:00:17.726Z","obsTime":1776513360,"reportTime":"2026-04-18T12:00:00.000Z","temp":8.9,"dewp":7.8,"wdir":110,"wspd":3,"visib":"10+","altim":1018,"slp":1018,"qcField":6,"presTend":-0.9,"maxT":10.6,"minT":8.9,"metarType":"METAR","rawOb":"METAR KCEC 181156Z AUTO 11003KT 10SM OVC013 09/08 A3006 RMK AO2 SLP180 T00890078 10106 20089 58009","lat":41.7836,"lon":-124.238,"elev":17,"name":"Crescent City/McNama, CA, US","cover":"OVC","clouds":[{"cover":"OVC","base":1300}],"fltCat":"MVFR"},{"icaoId":"KRDM","receiptTime":"2026-04-18T12:00:18.048Z","obsTime":1776513360,"reportTime":"2026-04-18T12:00:00.000Z","temp":-1.1,"dewp":-7.2,"wdir":170,"wspd":4,"visib":"10+","altim":1019,"slp":1019.4,"qcField":6,"presTend":-0.5,"maxT":7.8,"minT":-1.7,"metarType":"METAR","rawOb":"METAR KRDM 181156Z AUTO 17004KT 10SM CLR M01/M07 A3009 RMK AO2 SLP194 T10111072 10078 21017 58005","lat":44.2558,"lon":-121.1407,"elev":930,"name":"Redmond Muni, OR, US","cover":"CLR","clouds":[],"fltCat":"VFR"},{"icaoId":"KTPH","receiptTime":"2026-04-18T12:00:18.499Z","obsTime":1776513360,"reportTime":"2026-04-18T12:00:00.000Z","temp":0,"dewp":-21.1,"wdir":350,"wspd":9,"visib":"10+","altim":1021.1,"slp":1019.7,"qcField":6,"presTend":-0.5,"maxT":2.2,"minT":-0.6,"metarType":"METAR","rawOb":"METAR KTPH 181156Z AUTO 35009KT 10SM CLR 00/M21 A3015 RMK AO2 SLP197 T00001211 10022 21006 56005","lat":38.0505,"lon":-117.0906,"elev":1647,"name":"Tonopah Arpt, NV, US","cover":"CLR","clouds":[],"fltCat":"VFR"},{"icaoId":"KSBP","receiptTime":"2026-04-18T12:00:18.646Z","obsTime":1776513360,"reportTime":"2026-04-18T12:00:00.000Z","temp":7.2,"dewp":3.3,"wdir":120,"wspd":4,"visib":"10+","altim":1014.6,"slp":1014.4,"qcField":6,"presTend":-1.8,"maxT":11.1,"minT":6.1,"metarType":"METAR","rawOb":"METAR KSBP 181156Z AUTO 12004KT 10SM CLR 07/03 A2996 RMK AO2 SLP144 T00720033 10111 20061 56018","lat":35.2381,"lon":-120.644,"elev":52,"name":"San Luis Obispo/San Luis Cnty, CA, US","cover":"CLR","clouds":[],"fltCat":"VFR"},{"icaoId":"KDUG","receiptTime":"2026-04-18T12:02:08.118Z","obsTime":1776513360,"reportTime":"2026-04-18T12:00:00.000Z","temp":8.9,"dewp":-5,"wdir":360,"wspd":8,"visib":"10+","altim":1017,"slp":1011.7,"qcField":38,"presTend":0.4,"maxT":15,"minT":7.8,"metarType":"METAR","rawOb":"METAR KDUG 181156Z AUTO 36008KT 10SM CLR 09/M05 A3003 RMK AO2 SLP117 T00891050 10150 20078 53004 TSNO","lat":31.4725,"lon":-109.6022,"elev":1260,"name":"Douglas/Bisbee Intl, AZ, US","cover":"CLR","clouds":[],"fltCat":"VFR"},{"icaoId":"KBZN","receiptTime":"2026-04-18T12:00:19.418Z","obsTime":1776513360,"reportTime":"2026-04-18T12:00:00.000Z","temp":-5,"dewp":-8.3,"wdir":150,"wspd":7,"visib":"10+","altim":1023.1,"slp":1027.4,"qcField":4,"presTend":0.7,"maxT":-2.2,"minT":-8.9,"pcp24hr":0.02,"metarType":"METAR","rawOb":"METAR KBZN 181156Z 15007KT 10SM CLR M05/M08 A3021 RMK AO2 SLP274 70002 T10501083 11022 21089 53007","lat":45.7876,"lon":-111.1615,"elev":1349,"name":"Bozeman/Gallatin Fld, MT, US","cover":"CLR","clouds":[],"fltCat":"VFR"},{"icaoId":"KCHS","receiptTime":"2026-04-18T12:00:19.498Z","obsTime":1776513360,"reportTime":"2026-04-18T12:00:00.000Z","temp":20.6,"dewp":17.8,"wdir":180,"wspd":3,"visib":"10+","altim":1015.3,"slp":1015.1,"qcField":12,"presTend":0.7,"maxT":20.6,"minT":18.3,"metarType":"METAR","rawOb":"METAR KCHS 181156Z 18003KT 10SM FEW090 SCT250 21/18 A2998 RMK AO2 SLP151 T02060178 10206 20183 53007 $","lat":32.8995,"lon":-80.0407,"elev":12,"name":"Charleston Intl, SC, US","cover":"SCT","clouds":[{"cover":"FEW","base":9000},{"cover":"SCT","base":25000}],"fltCat":"VFR"},{"icaoId":"KJAX","receiptTime":"2026-04-18T12:00:19.529Z","obsTime":1776513360,"reportTime":"2026-04-18T12:00:00.000Z","temp":18.3,"dewp":14.4,"wdir":0,"wspd":0,"visib":"10+","altim":1016.7,"slp":1016.5,"qcField":12,"presTend":1.4,"maxT":20.6,"minT":14.4,"metarType":"METAR","rawOb":"METAR KJAX 181156Z 00000KT 10SM FEW030 FEW200 BKN250 18/14 A3002 RMK AO2 SLP165 T01830144 10206 20144 53014 $","lat":30.4953,"lon":-81.6937,"elev":8,"name":"Jacksonville Intl, FL, US","cover":"BKN","clouds":[{"cover":"FEW","base":3000},{"cover":"FEW","base":20000},{"cover":"BKN","base":25000}],"fltCat":"VFR"},{"icaoId":"KCOD","receiptTime":"2026-04-18T11:58:28.460Z","obsTime":1776513360,"reportTime":"2026-04-18T12:00:00.000Z","temp":-7.8,"dewp":-10,"wdir":0,"wspd":0,"visib":"10+","altim":1021.8,"slp":1025.3,"qcField":78,"presTend":0.5,"maxT":-0.6,"minT":-7.8,"metarType":"METAR","rawOb":"METAR KCOD 181156Z AUTO 00000KT 10SM CLR M08/M10 A3017 RMK AO2 SLP253 T10781100 11006 21078 53005 FZRANO $","lat":44.52,"lon":-109.0268,"elev":1550,"name":"Cody/Yellowstone Rgnl, WY, US","cover":"CLR","clouds":[],"fltCat":"VFR"},{"icaoId":"KCOE","receiptTime":"2026-04-18T11:58:28.473Z","obsTime":1776513360,"reportTime":"2026-04-18T12:00:00.000Z","temp":-2.2,"dewp":-3.3,"wdir":60,"wspd":5,"visib":"10+","altim":1023.1,"slp":1026.1,"qcField":78,"presTend":-0.1,"maxT":3.9,"minT":-2.2,"metarType":"METAR","rawOb":"METAR KCOE 181156Z AUTO 06005KT 10SM CLR M02/M03 A3021 RMK AO2 SLP261 6//// 7//// T10221033 10039 21022 55001 FZRANO PNO $","lat":47.7719,"lon":-116.8332,"elev":693,"name":"Coeur DAlene Arpt, ID, US","cover":"CLR","clouds":[],"fltCat":"VFR"},{"icaoId":"KSFO","receiptTime":"2026-04-18T12:00:20.192Z","obsTime":1776513360,"reportTime":"2026-04-18T12:00:00.000Z","temp":10,"dewp":8.3,"wdir":290,"wspd":5,"visib":"10+","altim":1016.3,"slp":1016.1,"qcField":12,"presTend":-0.9,"maxT":12.2,"minT":10,"metarType":"METAR","rawOb":"METAR KSFO 181156Z 29005KT 10SM SCT200 10/08 A3001 RMK AO2 SLP161 T01000083 10122 20100 56009 $","lat":37.6196,"lon":-122.3656,"elev":2,"name":"San Francisco Intl, CA, US","cover":"SCT","clouds":[{"cover":"SCT","base":20000}],"fltCat":"VFR"},{"icaoId":"KCGZ","receiptTime":"2026-04-18T11:58:28.271Z","obsTime":1776513360,"reportTime":"2026-04-18T12:00:00.000Z","temp":13.9,"dewp":-10.6,"wdir":0,"wspd":0,"visib":"10+","altim":1014,"slp":1013,"qcField":14,"presTend":0.6,"maxT":21.1,"minT":13.9,"metarType":"METAR","rawOb":"METAR KCGZ 181156Z AUTO 00000KT 10SM CLR 14/M11 A2994 RMK AO2 SLP130 6//// 7//// T01391106 10211 20139 51006 $","lat":32.9531,"lon":-111.7725,"elev":444,"name":"Casa Granda Muni, AZ, US","cover":"CLR","clouds":[],"fltCat":"VFR"},{"icaoId":"KLAS","receiptTime":"2026-04-18T12:00:21.279Z","obsTime":1776513360,"reportTime":"2026-04-18T12:00:00.000Z","temp":10.6,"dewp":-15,"wdir":0,"wspd":0,"visib":"10+","altim":1018.7,"slp":1017.8,"qcField":4,"maxT":16.1,"minT":10.6,"metarType":"METAR","rawOb":"METAR KLAS 181156Z 00000KT 10SM FEW250 11/M15 A3008 RMK AO2 SLP178 T01061150 10161 20106 50000","lat":36.0719,"lon":-115.1634,"elev":662,"name":"Las Vegas/Reid Intl, NV, US","cover":"FEW","clouds":[{"cover":"FEW","base":25000}],"fltCat":"VFR"},{"icaoId":"KSGU","receiptTime":"2026-04-18T11:58:21.666Z","obsTime":1776513360,"reportTime":"2026-04-18T12:00:00.000Z","temp":6.1,"dewp":-10.6,"wdir":120,"wspd":3,"visib":"10+","altim":1021.8,"slp":1021,"qcField":6,"presTend":0.8,"maxT":12.8,"minT":6.1,"metarType":"METAR","rawOb":"METAR KSGU 181156Z AUTO 12003KT 10SM CLR 06/M11 A3017 RMK AO2 SLP210 T00611106 10128 20061 51008","lat":37.0444,"lon":-113.5034,"elev":877,"name":"Saint George Muni, UT, US","cover":"CLR","clouds":[],"fltCat":"VFR"},{"icaoId":"KVIS","receiptTime":"2026-04-18T11:58:24.720Z","obsTime":1776513360,"reportTime":"2026-04-18T12:00:00.000Z","temp":9.4,"dewp":6.7,"wdir":130,"wspd":5,"visib":"10+","altim":1016.7,"slp":1016.5,"qcField":14,"presTend":-0.3,"maxT":15.6,"minT":9.4,"metarType":"METAR","rawOb":"METAR KVIS 181156Z AUTO 13005KT 10SM CLR 09/07 A3002 RMK AO2 SLP165 6//// 7//// T00940067 10156 20094 55003 PNO $","lat":36.3135,"lon":-119.3884,"elev":92,"name":"Visalia Muni, CA, US","cover":"CLR","clouds":[],"fltCat":"VFR"},{"icaoId":"KGUC","receiptTime":"2026-04-18T11:58:29.203Z","obsTime":1776513360,"reportTime":"2026-04-18T12:00:00.000Z","temp":-10.6,"dewp":-13.9,"wdir":290,"wspd":8,"visib":"10+","altim":1024.8,"slp":1029,"qcField":78,"presTend":1.3,"maxT":-6.1,"minT":-11.1,"metarType":"METAR","rawOb":"METAR KGUC 181156Z AUTO 29008KT 10SM CLR M11/M14 A3026 RMK AO2 SLP290 T11061139 11061 21111 53013 FZRANO $","lat":38.5322,"lon":-106.9419,"elev":2337,"name":"Gunnison Arpt, CO, US","cover":"CLR","clouds":[],"fltCat":"VFR"},{"icaoId":"KHDN","receiptTime":"2026-04-18T11:58:29.329Z","obsTime":1776513360,"reportTime":"2026-04-18T12:00:00.000Z","temp":-8.3,"dewp":-11.1,"wdir":180,"wspd":3,"visib":"10+","altim":1025.5,"slp":1028.8,"qcField":70,"presTend":1.2,"maxT":-2.2,"minT":-8.3,"pcp24hr":0.02,"metarType":"METAR","rawOb":"METAR KHDN 181156Z AUTO 18003KT 10SM CLR M08/M11 A3028 RMK AO2 SLP288 70002 T10831111 11022 21083 53012 FZRANO","lat":40.4842,"lon":-107.2296,"elev":2012,"name":"Hayden/Yampa Valley Arpt, CO, US","cover":"CLR","clouds":[],"fltCat":"VFR"},{"icaoId":"KHND","receiptTime":"2026-04-18T11:58:29.426Z","obsTime":1776513360,"reportTime":"2026-04-18T12:00:00.000Z","temp":7.2,"dewp":-13.9,"wdir":180,"wspd":4,"visib":"10+","altim":1019.4,"slp":1020.3,"qcField":14,"presTend":-0.1,"maxT":12.8,"minT":6.7,"metarType":"METAR","rawOb":"METAR KHND 181156Z AUTO 18004KT 10SM CLR 07/M14 A3010 RMK AO2 SLP203 T00721139 10128 20067 58001 $","lat":35.9657,"lon":-115.1343,"elev":740,"name":"Henderson Exec, NV, US","cover":"CLR","clouds":[],"fltCat":"VFR"},{"icaoId":"KSDF","receiptTime":"2026-04-18T12:00:18.477Z","obsTime":1776513360,"reportTime":"2026-04-18T12:00:00.000Z","temp":22.2,"dewp":15.6,"wdir":200,"wspd":8,"visib":"10+","altim":1009.2,"slp":1008.6,"qcField":4,"presTend":0.1,"maxT":23.9,"minT":21.1,"metarType":"METAR","rawOb":"METAR KSDF 181156Z 20008KT 10SM BKN050 OVC100 22/16 A2980 RMK AO2 SLP086 T02220156 10239 20211 53001","lat":38.1774,"lon":-85.7308,"elev":146,"name":"Louisville Intl, KY, US","cover":"OVC","clouds":[{"cover":"BKN","base":5000},{"cover":"OVC","base":10000}],"fltCat":"VFR"},{"icaoId":"KSLE","receiptTime":"2026-04-18T12:00:18.746Z","obsTime":1776513360,"reportTime":"2026-04-18T12:00:00.000Z","temp":3.9,"dewp":2.2,"wdir":0,"wspd":0,"visib":"10+","altim":1018,"slp":1017.9,"qcField":6,"presTend":-0.5,"maxT":7.8,"minT":3.3,"metarType":"METAR","rawOb":"METAR KSLE 181156Z AUTO 00000KT 10SM CLR 04/02 A3006 RMK AO2 SLP179 T00390022 10078 20033 56005","lat":44.9049,"lon":-123.001,"elev":63,"name":"Salem Muni, OR, US","cover":"CLR","clouds":[],"fltCat":"VFR"},{"icaoId":"KINW","receiptTime":"2026-04-18T12:00:19.511Z","obsTime":1776513360,"reportTime":"2026-04-18T12:00:00.000Z","temp":-1.1,"dewp":-18.9,"wdir":250,"wspd":8,"visib":"10+","altim":1023.1,"slp":1021.4,"qcField":6,"presTend":0.6,"maxT":5.6,"minT":-2.8,"metarType":"METAR","rawOb":"METAR KINW 181156Z AUTO 25008KT 10SM CLR M01/M19 A3021 RMK AO2 SLP214 T10111189 10056 21028 50006","lat":35.0279,"lon":-110.7221,"elev":1492,"name":"Winslow/Lindberg Rgnl, AZ, US","cover":"CLR","clouds":[],"fltCat":"VFR"},{"icaoId":"KLWS","receiptTime":"2026-04-18T12:00:19.970Z","obsTime":1776513360,"reportTime":"2026-04-18T12:00:00.000Z","temp":2.2,"dewp":-0.6,"wdir":110,"wspd":4,"visib":"10+","altim":1022.8,"slp":1023.3,"qcField":6,"presTend":-0.5,"maxT":5.6,"minT":1.7,"metarType":"METAR","rawOb":"METAR KLWS 181156Z AUTO 11004KT 10SM CLR 02/M01 A3020 RMK AO2 SLP233 T00221006 10056 20017 56005","lat":46.3746,"lon":-117.0153,"elev":435,"name":"Lewiston/Nez Perce Cnty, ID, US","cover":"CLR","clouds":[],"fltCat":"VFR"},{"icaoId":"KSDY","receiptTime":"2026-04-18T11:58:21.968Z","obsTime":1776513360,"reportTime":"2026-04-18T12:00:00.000Z","temp":-11.1,"dewp":-12.8,"wdir":240,"wspd":4,"visib":"10+","altim":1018.7,"slp":1022.4,"qcField":78,"presTend":-0.1,"maxT":-8.3,"minT":-11.1,"metarType":"METAR","rawOb":"METAR KSDY 181156Z AUTO 24004KT 10SM SCT028 M11/M13 A3008 RMK AO2 SLP224 T11111128 11083 21111 55001 FZRANO $","lat":47.7029,"lon":-104.1951,"elev":600,"name":"Sidney/Richland Muni, MT, US","cover":"SCT","clouds":[{"cover":"SCT","base":2800}],"fltCat":"VFR"},{"icaoId":"KJAC","receiptTime":"2026-04-18T11:58:22.128Z","obsTime":1776513360,"reportTime":"2026-04-18T12:00:00.000Z","temp":-8.9,"dewp":-10,"wdir":20,"wspd":3,"visib":"10+","altim":1023.5,"slp":1029.3,"qcField":70,"presTend":0.8,"maxT":-3.3,"minT":-9.4,"pcp6hr":0.005,"metarType":"METAR","rawOb":"METAR KJAC 181156Z AUTO 02003KT 10SM CLR M09/M10 A3022 RMK AO2 SLP293 60000 T10891100 11033 21094 53008 FZRANO","lat":43.6129,"lon":-110.7366,"elev":1967,"name":"Jackson Hole Arpt, WY, US","cover":"CLR","clouds":[],"fltCat":"VFR"},{"icaoId":"KPVU","receiptTime":"2026-04-18T11:58:24.056Z","obsTime":1776513360,"reportTime":"2026-04-18T12:00:00.000Z","temp":-2.2,"dewp":-6.1,"wdir":0,"wspd":0,"visib":"10+","altim":1025.5,"slp":1026.4,"qcField":68,"presTend":0.3,"maxT":2.2,"minT":-2.2,"metarType":"METAR","rawOb":"METAR KPVU 181156Z 00000KT 10SM CLR M02/M06 A3028 RMK AO2 SLP264 T10221061 10022 21022 51003 FZRANO","lat":40.224,"lon":-111.7252,"elev":1370,"name":"Provo Muni, UT, US","cover":"CLR","clouds":[],"fltCat":"VFR"},{"icaoId":"KGPI","receiptTime":"2026-04-18T11:58:23.957Z","obsTime":1776513300,"reportTime":"2026-04-18T12:00:00.000Z","temp":-4.4,"dewp":-5,"wdir":0,"wspd":0,"visib":"10+","altim":1022.4,"slp":1025.1,"qcField":6,"presTend":0.3,"maxT":1.7,"minT":-5,"pcp24hr":0.06,"metarType":"METAR","rawOb":"METAR KGPI 181155Z AUTO 00000KT 10SM CLR M04/M05 A3019 RMK AO2 SLP251 70006 I1000 I6000 T10441050 10017 21050 51003","lat":48.3041,"lon":-114.2643,"elev":903,"name":"Kalispell/Glacier Park Intl, MT, US","cover":"CLR","clouds":[],"fltCat":"VFR"},{"icaoId":"KCMA","receiptTime":"2026-04-18T11:58:28.387Z","obsTime":1776513300,"reportTime":"2026-04-18T12:00:00.000Z","temp":10.6,"dewp":-1.1,"wdir":0,"wspd":0,"visib":"10+","altim":1013.3,"slp":1014.1,"qcField":6,"presTend":-0.7,"maxT":14.4,"minT":9.4,"metarType":"METAR","rawOb":"METAR KCMA 181155Z AUTO 00000KT 10SM CLR 11/M01 A2992 RMK AO2 SLP141 T01061011 10144 20094 56007","lat":34.2114,"lon":-119.0876,"elev":20,"name":"Camarillo Arpt, CA, US","cover":"CLR","clouds":[],"fltCat":"VFR"},{"icaoId":"KBVU","receiptTime":"2026-04-18T11:58:07.048Z","obsTime":1776513300,"reportTime":"2026-04-18T12:00:00.000Z","temp":12,"dewp":-21,"wdir":350,"wspd":5,"visib":"10+","altim":1017.7,"qcField":6,"metarType":"METAR","rawOb":"METAR KBVU 181155Z AUTO 35005KT 10SM CLR 12/M21 A3005 RMK AO2","lat":35.9489,"lon":-114.8633,"elev":654,"name":"Boulder City Muni, NV, US","cover":"CLR","clouds":[],"fltCat":"VFR"},{"icaoId":"KBJC","receiptTime":"2026-04-18T11:58:27.737Z","obsTime":1776513300,"reportTime":"2026-04-18T12:00:00.000Z","temp":0,"dewp":-10,"wdir":270,"wspd":13,"visib":"10+","altim":1022.4,"qcField":6,"metarType":"METAR","rawOb":"METAR KBJC 181155Z AUTO 27013KT 10SM CLR 00/M10 A3019 RMK AO2","lat":39.9008,"lon":-105.1042,"elev":1694,"name":"Rocky Mtn Metro, CO, US","cover":"CLR","clouds":[],"fltCat":"VFR"},{"icaoId":"KRNO","receiptTime":"2026-04-18T11:58:21.834Z","obsTime":1776513300,"reportTime":"2026-04-18T12:00:00.000Z","temp":2.2,"dewp":-11.1,"wdir":0,"wspd":0,"visib":"10+","altim":1020.4,"slp":1018.7,"qcField":4,"presTend":-0.1,"maxT":8.3,"minT":1.7,"metarType":"METAR","rawOb":"METAR KRNO 181155Z 00000KT 10SM FEW200 02/M11 A3013 RMK AO2 SLP187 T00221111 10083 20017 56001","lat":39.5077,"lon":-119.7683,"elev":1344,"name":"Reno/Tahoe Intl, NV, US","cover":"FEW","clouds":[{"cover":"FEW","base":20000}],"fltCat":"VFR"},{"icaoId":"KHAF","receiptTime":"2026-04-18T11:56:22.147Z","obsTime":1776513300,"reportTime":"2026-04-18T12:00:00.000Z","temp":5,"dewp":5,"wdir":0,"wspd":0,"visib":"10+","altim":1016.3,"qcField":6,"metarType":"METAR","rawOb":"METAR KHAF 181155Z AUTO 00000KT 10SM CLR 05/05 A3001 RMK AO2","lat":37.5136,"lon":-122.4996,"elev":11,"name":"Half Moon Bay Arpt, CA, US","cover":"CLR","clouds":[],"fltCat":"VFR"},{"icaoId":"KSUN","receiptTime":"2026-04-18T11:58:24.146Z","obsTime":1776513300,"reportTime":"2026-04-18T12:00:00.000Z","wdir":320,"wspd":10,"visib":"10+","altim":1024.5,"qcField":6,"metarType":"METAR","rawOb":"METAR KSUN 181155Z AUTO 32010KT 10SM CLR A3025 RMK AO2","lat":43.4969,"lon":-114.2923,"elev":1619,"name":"Hailey/Friedman Mem, ID, US","cover":"CLR","clouds":[],"fltCat":"VFR"},{"icaoId":"KAST","receiptTime":"2026-04-18T11:58:27.515Z","obsTime":1776513300,"reportTime":"2026-04-18T12:00:00.000Z","temp":6.7,"dewp":5,"wdir":130,"wspd":3,"visib":"10+","altim":1017.4,"slp":1017.1,"qcField":14,"presTend":-1,"maxT":7.8,"minT":6.1,"metarType":"METAR","rawOb":"METAR KAST 181155Z AUTO 13003KT 10SM CLR 07/05 A3004 RMK AO2 SLP171 T00670050 10078 20061 56010 $","lat":46.157,"lon":-123.8833,"elev":3,"name":"Astoria Rgnl, OR, US","cover":"CLR","clouds":[],"fltCat":"VFR"},{"icaoId":"KLUF","receiptTime":"2026-04-18T12:06:05.914Z","obsTime":1776513300,"reportTime":"2026-04-18T12:00:00.000Z","temp":16.3,"dewp":-13.2,"wdir":320,"wspd":5,"visib":"10+","altim":1013,"slp":1011.9,"qcField":14,"presTend":0.7,"maxT":23.2,"minT":16.1,"metarType":"METAR","rawOb":"METAR KLUF 181155Z AUTO 32005KT 10SM CLR 16/M13 A2991 RMK AO2 SLP119 T01631132 10232 20161 52007 $","lat":33.538,"lon":-112.38,"elev":333,"name":"Phoenix/Luke AFB, AZ, US","cover":"CLR","clouds":[],"fltCat":"VFR"},{"icaoId":"KLRU","receiptTime":"2026-04-18T11:58:09.349Z","obsTime":1776513300,"reportTime":"2026-04-18T12:00:00.000Z","temp":10,"dewp":-19,"wdir":350,"wspd":13,"wgst":20,"visib":"10+","altim":1018.4,"qcField":6,"maxT":16.2,"minT":10,"metarType":"METAR","rawOb":"METAR KLRU 181155Z AUTO 35013G20KT 10SM CLR 10/M19 A3007 RMK AO2 T01001190 10162 20100","lat":32.2884,"lon":-106.9131,"elev":1355,"name":"Las Cruces Intl, NM, US","cover":"CLR","clouds":[],"fltCat":"VFR"},{"icaoId":"KMHR","receiptTime":"2026-04-18T12:00:18.196Z","obsTime":1776513300,"reportTime":"2026-04-18T12:00:00.000Z","temp":9,"dewp":8,"wdir":0,"wspd":0,"visib":"10+","altim":1015.7,"qcField":6,"metarType":"METAR","rawOb":"METAR KMHR 181155Z AUTO 00000KT 10SM CLR 09/08 A2999 RMK AO2","lat":38.56,"lon":-121.284,"elev":30,"name":"Sacramento/Mather Fld, CA, US","cover":"CLR","clouds":[],"fltCat":"VFR"},{"icaoId":"KSOW","receiptTime":"2026-04-18T11:58:14.871Z","obsTime":1776513300,"reportTime":"2026-04-18T12:00:00.000Z","temp":-1,"dewp":-17,"wdir":0,"wspd":0,"visib":"10+","altim":1022.8,"qcField":6,"metarType":"METAR","rawOb":"METAR KSOW 181155Z AUTO 00000KT 10SM CLR M01/M17 A3020 RMK AO2","lat":34.2686,"lon":-110.0019,"elev":1954,"name":"Show Low Muni, AZ, US","cover":"CLR","clouds":[],"fltCat":"VFR"},{"icaoId":"KMAF","receiptTime":"2026-04-18T11:58:28.818Z","obsTime":1776513300,"reportTime":"2026-04-18T11:55:00.000Z","temp":9.4,"dewp":-5.6,"wdir":40,"wspd":21,"wgst":33,"visib":"10+","altim":1019.4,"qcField":4,"metarType":"SPECI","rawOb":"SPECI KMAF 181155Z 04021G33KT 10SM CLR 09/M06 A3010 RMK AO2 PK WND 05027/1154 T00941056","lat":31.9475,"lon":-102.2086,"elev":874,"name":"Midland Intl, TX, US","cover":"CLR","clouds":[],"fltCat":"VFR"},{"icaoId":"KRTS","receiptTime":"2026-04-18T12:00:15.628Z","obsTime":1776513300,"reportTime":"2026-04-18T12:00:00.000Z","temp":-1,"dewp":-11,"wdir":0,"wspd":0,"visib":"10+","altim":1020.4,"qcField":6,"metarType":"METAR","rawOb":"METAR KRTS 181155Z AUTO 00000KT 10SM CLR M01/M11 A3013 RMK AO2","lat":39.6658,"lon":-119.8731,"elev":1537,"name":"Reno/Stead Arpt, NV, US","cover":"CLR","clouds":[],"fltCat":"VFR"},{"icaoId":"KHTH","receiptTime":"2026-04-18T12:00:19.778Z","obsTime":1776513300,"reportTime":"2026-04-18T12:00:00.000Z","temp":2,"dewp":-18,"wdir":250,"wspd":4,"visib":"10+","altim":1020.4,"qcField":6,"metarType":"METAR","rawOb":"METAR KHTH 181155Z AUTO 25004KT 10SM CLR 02/M18 A3013 RMK A01","lat":38.5448,"lon":-118.6314,"elev":1281,"name":"Hawthorne Muni, NV, US","cover":"CLR","clouds":[],"fltCat":"VFR"},{"icaoId":"KIFP","receiptTime":"2026-04-18T12:00:20.742Z","obsTime":1776513300,"reportTime":"2026-04-18T12:00:00.000Z","temp":17,"dewp":-15,"wdir":20,"wspd":21,"wgst":28,"visib":"10+","altim":1014.6,"qcField":6,"metarType":"METAR","rawOb":"METAR KIFP 181155Z AUTO 02021G28KT 10SM CLR 17/M15 A2996 RMK AO2","lat":35.1487,"lon":-114.5611,"elev":210,"name":"Bullhead City Intl, AZ, US","cover":"CLR","clouds":[],"fltCat":"VFR"},{"icaoId":"KSEZ","receiptTime":"2026-04-18T12:00:18.702Z","obsTime":1776513300,"reportTime":"2026-04-18T12:00:00.000Z","temp":9,"dewp":-22,"wdir":40,"wspd":16,"visib":"10+","altim":1020.1,"qcField":6,"metarType":"METAR","rawOb":"METAR KSEZ 181155Z AUTO 04016KT 10SM CLR 09/M22 A3012 RMK AO2","lat":34.8467,"lon":-111.7884,"elev":1455,"name":"Sedona Arpt, AZ, US","cover":"CLR","clouds":[],"fltCat":"VFR"},{"icaoId":"KCXP","receiptTime":"2026-04-18T12:00:17.802Z","obsTime":1776513300,"reportTime":"2026-04-18T12:00:00.000Z","temp":-1,"dewp":-11,"wdir":0,"wspd":0,"visib":"10+","altim":1021.1,"qcField":6,"metarType":"METAR","rawOb":"METAR KCXP 181155Z AUTO 00000KT 10SM CLR M01/M11 A3015 RMK AO2","lat":39.1905,"lon":-119.7319,"elev":1431,"name":"Carson City Arpt, NV, US","cover":"CLR","clouds":[],"fltCat":"VFR"},{"icaoId":"KMEV","receiptTime":"2026-04-18T12:00:18.153Z","obsTime":1776513300,"reportTime":"2026-04-18T12:00:00.000Z","temp":-5,"dewp":-11,"wdir":0,"wspd":0,"visib":"10+","altim":1020.4,"qcField":6,"metarType":"METAR","rawOb":"METAR KMEV 181155Z AUTO 00000KT 10SM FEW050 SCT085 M05/M11 A3013 RMK AO2","lat":38.9963,"lon":-119.75,"elev":1437,"name":"Minden-Tahoe Arpt, NV, US","cover":"SCT","clouds":[{"cover":"FEW","base":5000},{"cover":"SCT","base":8500}],"fltCat":"VFR"},{"icaoId":"KHCR","receiptTime":"2026-04-18T11:58:29.315Z","obsTime":1776513300,"reportTime":"2026-04-18T12:00:00.000Z","temp":-8.2,"dewp":-11.2,"wdir":0,"wspd":0,"visib":"10+","altim":1025.1,"qcField":14,"presTend":0.6,"maxT":-4.2,"minT":-8.6,"pcp24hr":0.02,"metarType":"METAR","rawOb":"METAR KHCR 181155Z AUTO 00000KT 10SM CLR M08/M11 A3027 RMK AO2 70002 T10821112 11042 21086 51006 $","lat":40.4774,"lon":-111.4329,"elev":1708,"name":"Heber City Muni, UT, US","cover":"CLR","clouds":[],"fltCat":"VFR"},{"icaoId":"KCHD","receiptTime":"2026-04-18T11:58:28.286Z","obsTime":1776513300,"reportTime":"2026-04-18T12:00:00.000Z","temp":15,"dewp":-3.1,"wdir":0,"wspd":0,"visib":"10+","altim":1014,"qcField":14,"metarType":"METAR","rawOb":"METAR KCHD 181155Z AUTO 00000KT 10SM CLR 15/M03 A2994 RMK AO2 T01501031 $","lat":33.2669,"lon":-111.8086,"elev":378,"name":"Chandler Muni, AZ, US","cover":"CLR","clouds":[],"fltCat":"VFR"},{"icaoId":"KEUG","receiptTime":"2026-04-18T11:58:12.061Z","obsTime":1776513240,"reportTime":"2026-04-18T12:00:00.000Z","temp":3.3,"dewp":2.8,"wdir":230,"wspd":3,"visib":"10+","altim":1018,"slp":1018.1,"qcField":6,"presTend":-1.1,"maxT":7.2,"minT":2.8,"metarType":"METAR","rawOb":"METAR KEUG 181154Z AUTO 23003KT 10SM CLR 03/03 A3006 RMK AO2 SLP181 T00330028 10072 20028 56011","lat":44.1331,"lon":-123.2156,"elev":109,"name":"Eugene/Mahlon Sweet Fld, OR, US","cover":"CLR","clouds":[],"fltCat":"VFR"},{"icaoId":"KGSO","receiptTime":"2026-04-18T11:58:11.149Z","obsTime":1776513240,"reportTime":"2026-04-18T12:00:00.000Z","temp":17.2,"dewp":12.8,"wdir":40,"wspd":3,"visib":"10+","altim":1015.3,"slp":1014.3,"qcField":4,"presTend":0.6,"maxT":17.2,"minT":13.9,"metarType":"METAR","rawOb":"METAR KGSO 181154Z 04003KT 10SM BKN250 17/13 A2998 RMK AO2 SLP143 T01720128 10172 20139 53006","lat":36.0969,"lon":-79.9432,"elev":275,"name":"Greensboro Intl, NC, US","cover":"BKN","clouds":[{"cover":"BKN","base":25000}],"fltCat":"VFR"},{"icaoId":"KBOS","receiptTime":"2026-04-18T11:58:11.044Z","obsTime":1776513240,"reportTime":"2026-04-18T12:00:00.000Z","temp":9.4,"dewp":8.9,"wdir":50,"wspd":13,"visib":3,"altim":1020.4,"slp":1020.3,"qcField":4,"wxString":"BR","presTend":1.4,"maxT":10,"minT":7.8,"precip":0.01,"pcp6hr":0.01,"pcp24hr":0.01,"metarType":"METAR","rawOb":"METAR KBOS 181154Z 05013KT 3SM BR BKN003 OVC006 09/09 A3013 RMK AO2 SLP203 P0001 60001 70001 T00940089 10100 20078 50014","lat":42.3606,"lon":-71.0097,"elev":4,"name":"Boston/Logan Intl, MA, US","cover":"OVC","clouds":[{"cover":"BKN","base":300},{"cover":"OVC","base":600}],"fltCat":"LIFR"},{"icaoId":"KBUF","receiptTime":"2026-04-18T11:58:11.075Z","obsTime":1776513240,"reportTime":"2026-04-18T12:00:00.000Z","temp":17.2,"dewp":10,"wdir":160,"wspd":12,"wgst":18,"visib":"10+","altim":1008.9,"slp":1008.5,"qcField":12,"presTend":-1.8,"maxT":17.2,"minT":11.7,"metarType":"METAR","rawOb":"METAR KBUF 181154Z 16012G18KT 10SM FEW090 BKN130 BKN220 OVC280 17/10 A2979 RMK AO2 SLP085 T01720100 10172 20117 57018 $","lat":42.94,"lon":-78.7361,"elev":217,"name":"Buffalo-Niagara Intl, NY, US","cover":"OVC","clouds":[{"cover":"FEW","base":9000},{"cover":"BKN","base":13000},{"cover":"BKN","base":22000},{"cover":"OVC","base":28000}],"fltCat":"VFR"},{"icaoId":"KABI","receiptTime":"2026-04-18T11:58:16.325Z","obsTime":1776513240,"reportTime":"2026-04-18T11:54:00.000Z","temp":8.9,"dewp":7.2,"wdir":20,"wspd":20,"wgst":33,"visib":5,"altim":1016.3,"qcField":12,"wxString":"VCTS RA BR","precip":0.01,"metarType":"SPECI","rawOb":"SPECI KABI 181154Z 02020G33KT 5SM VCTS RA BR FEW050 BKN080 OVC100 09/07 A3001 RMK AO2 PK WND 01030/1153 WSHFT 1139 LTG DSNT E-S TSE54 PRESFR P0001 T00890072 $","lat":32.4106,"lon":-99.6821,"elev":543,"name":"Abilene Rgnl, TX, US","cover":"OVC","clouds":[{"cover":"FEW","base":5000},{"cover":"BKN","base":8000},{"cover":"OVC","base":10000}],"fltCat":"MVFR"},{"icaoId":"KGCN","receiptTime":"2026-04-18T11:58:12.270Z","obsTime":1776513240,"reportTime":"2026-04-18T12:00:00.000Z","temp":2.2,"dewp":-20.6,"wdir":60,"wspd":11,"visib":"10+","altim":1022.4,"slp":1018.6,"qcField":6,"presTend":0.2,"maxT":2.2,"minT":-3.3,"metarType":"METAR","rawOb":"METAR KGCN 181154Z AUTO 06011KT 10SM CLR 02/M21 A3019 RMK AO2 SLP186 T00221206 10022 21033 52002","lat":35.9458,"lon":-112.1554,"elev":1993,"name":"Grand Canyon Park Arpt, AZ, US","cover":"CLR","clouds":[],"fltCat":"VFR"},{"icaoId":"KOLM","receiptTime":"2026-04-18T11:58:09.223Z","obsTime":1776513240,"reportTime":"2026-04-18T12:00:00.000Z","temp":4.4,"dewp":3.3,"wdir":0,"wspd":0,"visib":"10+","altim":1018.7,"slp":1018.8,"qcField":6,"presTend":-1,"maxT":6.7,"minT":3.3,"metarType":"METAR","rawOb":"METAR KOLM 181154Z AUTO 00000KT 10SM CLR 04/03 A3008 RMK AO2 SLP188 T00440033 10067 20033 56010","lat":46.9737,"lon":-122.9049,"elev":58,"name":"Olympia Rgnl, WA, US","cover":"CLR","clouds":[],"fltCat":"VFR"},{"icaoId":"KBWI","receiptTime":"2026-04-18T11:58:11.088Z","obsTime":1776513240,"reportTime":"2026-04-18T12:00:00.000Z","temp":17.2,"dewp":14.4,"wdir":80,"wspd":8,"visib":"10+","altim":1016,"slp":1015.7,"qcField":4,"presTend":1,"maxT":17.2,"minT":13.3,"metarType":"METAR","rawOb":"METAR KBWI 181154Z 08008KT 10SM FEW007 SCT250 17/14 A3000 RMK AO2 SLP157 T01720144 10172 20133 53010","lat":39.1733,"lon":-76.684,"elev":42,"name":"Baltimore-Washington Intl, MD, US","cover":"SCT","clouds":[{"cover":"FEW","base":700},{"cover":"SCT","base":25000}],"fltCat":"VFR"},{"icaoId":"KMEM","receiptTime":"2026-04-18T11:58:09.363Z","obsTime":1776513240,"reportTime":"2026-04-18T12:00:00.000Z","temp":22.2,"dewp":15.6,"wdir":230,"wspd":12,"wgst":20,"visib":"10+","altim":1011.6,"slp":1010.9,"qcField":12,"wxString":"-RA","presTend":1.5,"maxT":23.9,"minT":22.2,"precip":0.005,"pcp6hr":0.005,"metarType":"METAR","rawOb":"METAR KMEM 181154Z 23012G20KT 10SM -RA BKN043 BKN050 OVC060 22/16 A2987 RMK AO2 RAB1057E09B54 SLP109 P0000 60000 T02220156 10239 20222 53015 $","lat":35.0564,"lon":-89.9864,"elev":78,"name":"Memphis Intl, TN, US","cover":"OVC","clouds":[{"cover":"BKN","base":4300},{"cover":"BKN","base":5000},{"cover":"OVC","base":6000}],"fltCat":"VFR"},{"icaoId":"KCOS","receiptTime":"2026-04-18T11:58:11.246Z","obsTime":1776513240,"reportTime":"2026-04-18T12:00:00.000Z","temp":-5.6,"dewp":-11.1,"wdir":330,"wspd":7,"visib":"10+","altim":1022.4,"slp":1026.5,"qcField":4,"presTend":1,"maxT":-2.2,"minT":-6.7,"pcp24hr":0.03,"metarType":"METAR","rawOb":"METAR KCOS 181154Z 33007KT 10SM FEW030 FEW060 SCT140 M06/M11 A3019 RMK AO2 SLP265 70003 T10561111 11022 21067 53010","lat":38.8095,"lon":-104.6887,"elev":1886,"name":"Colorado Spring Arpt, CO, US","cover":"SCT","clouds":[{"cover":"FEW","base":3000},{"cover":"FEW","base":6000},{"cover":"SCT","base":14000}],"fltCat":"VFR"},{"icaoId":"KSYR","receiptTime":"2026-04-18T11:58:14.903Z","obsTime":1776513240,"reportTime":"2026-04-18T12:00:00.000Z","temp":16.7,"dewp":10.6,"wdir":140,"wspd":11,"wgst":19,"visib":"10+","altim":1014,"slp":1013.4,"qcField":4,"presTend":-0.1,"maxT":16.7,"minT":7.8,"metarType":"METAR","rawOb":"METAR KSYR 181154Z 14011G19KT 10SM FEW035 FEW180 BKN230 17/11 A2994 RMK AO2 SLP134 T01670106 10167 20078 58001","lat":43.1111,"lon":-76.1038,"elev":125,"name":"Syracuse/Hancock Intl, NY, US","cover":"BKN","clouds":[{"cover":"FEW","base":3500},{"cover":"FEW","base":18000},{"cover":"BKN","base":23000}],"fltCat":"VFR"},{"icaoId":"KPHL","receiptTime":"2026-04-18T11:58:10.187Z","obsTime":1776513240,"reportTime":"2026-04-18T12:00:00.000Z","temp":13.9,"dewp":11.7,"wdir":80,"wspd":11,"visib":"10+","altim":1017.7,"slp":1017.7,"qcField":12,"presTend":1.4,"maxT":17.8,"minT":13.9,"metarType":"METAR","rawOb":"METAR KPHL 181154Z 08011KT 10SM OVC008 14/12 A3005 RMK AO2 SLP177 T01390117 10178 20139 53014 $","lat":39.8733,"lon":-75.2268,"elev":2,"name":"Philadelphia Intl, PA, US","cover":"OVC","clouds":[{"cover":"OVC","base":800}],"fltCat":"IFR"},{"icaoId":"KRKS","receiptTime":"2026-04-18T11:58:10.040Z","obsTime":1776513240,"reportTime":"2026-04-18T12:00:00.000Z","temp":-7.2,"dewp":-12.2,"wdir":250,"wspd":5,"visib":"10+","altim":1023.8,"slp":1027.3,"qcField":6,"presTend":0.8,"maxT":-5,"minT":-7.8,"metarType":"METAR","rawOb":"METAR KRKS 181154Z AUTO 25005KT 10SM CLR M07/M12 A3023 RMK AO2 SLP273 T10721122 11050 21078 51008","lat":41.5947,"lon":-109.0529,"elev":2062,"name":"Rock Springs/SW Wyoming Rgnl, WY, US","cover":"CLR","clouds":[],"fltCat":"VFR"},{"icaoId":"KFFZ","receiptTime":"2026-04-18T11:58:12.120Z","obsTime":1776513240,"reportTime":"2026-04-18T12:00:00.000Z","temp":17.8,"dewp":-8.9,"wdir":60,"wspd":8,"visib":"10+","altim":1013.6,"slp":1011.5,"qcField":6,"presTend":0.8,"maxT":22.2,"minT":17.8,"metarType":"METAR","rawOb":"METAR KFFZ 181154Z AUTO 06008KT 10SM CLR 18/M09 A2993 RMK AO2 SLP115 T01781089 10222 20178 53008","lat":33.4659,"lon":-111.7212,"elev":420,"name":"Mesa/Falcon Fld, AZ, US","cover":"CLR","clouds":[],"fltCat":"VFR"},{"icaoId":"KIND","receiptTime":"2026-04-18T11:58:11.331Z","obsTime":1776513240,"reportTime":"2026-04-18T12:00:00.000Z","temp":15.6,"dewp":14.4,"wdir":220,"wspd":7,"visib":9,"altim":1008.5,"slp":1008,"qcField":4,"wxString":"-RA","presTend":0.9,"maxT":22.8,"minT":15.6,"precip":0.01,"pcp6hr":0.07,"pcp24hr":0.07,"metarType":"METAR","rawOb":"METAR KIND 181154Z 22007KT 9SM -RA OVC080 16/14 A2978 RMK AO2 RAB00 SLP080 P0001 60007 70007 T01560144 10228 20156 53009","lat":39.7252,"lon":-86.2816,"elev":242,"name":"Indianapolis Intl, IN, US","cover":"OVC","clouds":[{"cover":"OVC","base":8000}],"fltCat":"VFR"},{"icaoId":"KRIC","receiptTime":"2026-04-18T11:58:10.225Z","obsTime":1776513240,"reportTime":"2026-04-18T12:00:00.000Z","temp":17.2,"dewp":14.4,"wdir":0,"wspd":0,"visib":"10+","altim":1015,"slp":1015.1,"qcField":12,"presTend":0.4,"maxT":17.8,"minT":13.3,"metarType":"METAR","rawOb":"METAR KRIC 181154Z 00000KT 10SM BKN250 17/14 A2997 RMK AO2 SLP151 T01720144 10178 20133 53004 $","lat":37.5115,"lon":-77.3234,"elev":51,"name":"Richmond Intl, VA, US","cover":"BKN","clouds":[{"cover":"BKN","base":25000}],"fltCat":"VFR"},{"icaoId":"KBTV","receiptTime":"2026-04-18T11:58:11.059Z","obsTime":1776513240,"reportTime":"2026-04-18T12:00:00.000Z","temp":12.8,"dewp":7.8,"wdir":210,"wspd":8,"visib":"10+","altim":1017.4,"slp":1017.3,"qcField":4,"presTend":-0.1,"maxT":12.8,"minT":6.7,"metarType":"METAR","rawOb":"METAR KBTV 181154Z 21008KT 10SM SCT150 SCT250 13/08 A3004 RMK AO2 SLP173 T01280078 10128 20067 55001","lat":44.4682,"lon":-73.1499,"elev":101,"name":"Burlington Intl, VT, US","cover":"SCT","clouds":[{"cover":"SCT","base":15000},{"cover":"SCT","base":25000}],"fltCat":"VFR"},{"icaoId":"KSJN","receiptTime":"2026-04-18T11:58:07.599Z","obsTime":1776513240,"reportTime":"2026-04-18T12:00:00.000Z","temp":-0.6,"dewp":-15.6,"wdir":240,"wspd":3,"visib":"10+","altim":1021.8,"slp":1017.9,"qcField":6,"presTend":0.3,"maxT":4.4,"minT":-1.7,"metarType":"METAR","rawOb":"METAR KSJN 181154Z AUTO 24003KT 10SM CLR M01/M16 A3017 RMK AO2 SLP179 T10061156 10044 21017 53003","lat":34.5184,"lon":-109.3801,"elev":1747,"name":"St Johns Ind Arpt, AZ, US","cover":"CLR","clouds":[],"fltCat":"VFR"},{"icaoId":"KOLS","receiptTime":"2026-04-18T11:58:09.235Z","obsTime":1776513240,"reportTime":"2026-04-18T12:00:00.000Z","temp":8.3,"dewp":-3.3,"wdir":0,"wspd":0,"visib":"10+","altim":1016,"slp":1011.3,"qcField":6,"presTend":0.2,"maxT":14.4,"minT":8.3,"metarType":"METAR","rawOb":"METAR KOLS 181154Z AUTO 00000KT 10SM CLR 08/M03 A3000 RMK AO2 SLP113 T00831033 10144 20083 53002","lat":31.4208,"lon":-110.8465,"elev":1194,"name":"Nogales Intl, AZ, US","cover":"CLR","clouds":[],"fltCat":"VFR"},{"icaoId":"KSLC","receiptTime":"2026-04-18T11:58:09.247Z","obsTime":1776513240,"reportTime":"2026-04-18T12:00:00.000Z","temp":1.1,"dewp":-8.9,"wdir":160,"wspd":7,"visib":"10+","altim":1024.5,"slp":1024.3,"qcField":4,"presTend":0.1,"maxT":2.8,"minT":0.6,"metarType":"METAR","rawOb":"METAR KSLC 181154Z 16007KT 10SM CLR 01/M09 A3025 RMK AO2 SLP243 T00111089 10028 20006 50001","lat":40.7707,"lon":-111.965,"elev":1286,"name":"Salt Lake City Intl, UT, US","cover":"CLR","clouds":[],"fltCat":"VFR"},{"icaoId":"KAPC","receiptTime":"2026-04-18T11:58:09.141Z","obsTime":1776513240,"reportTime":"2026-04-18T12:00:00.000Z","temp":4.4,"dewp":3.3,"wdir":0,"wspd":0,"visib":"10+","altim":1016.3,"slp":1015.5,"qcField":6,"presTend":-0.5,"maxT":10,"minT":3.9,"metarType":"METAR","rawOb":"METAR KAPC 181154Z AUTO 00000KT 10SM CLR 04/03 A3001 RMK AO2 SLP155 T00440033 10100 20039 56005","lat":38.2075,"lon":-122.2804,"elev":5,"name":"Napa Cnty Arpt, CA, US","cover":"CLR","clouds":[],"fltCat":"VFR"},{"icaoId":"KROC","receiptTime":"2026-04-18T11:58:10.252Z","obsTime":1776513240,"reportTime":"2026-04-18T12:00:00.000Z","temp":15.6,"dewp":10,"wdir":190,"wspd":8,"visib":"10+","altim":1010.9,"slp":1011.1,"qcField":12,"presTend":-1.3,"maxT":15.6,"minT":9.4,"pcp24hr":0.01,"metarType":"METAR","rawOb":"METAR KROC 181154Z 19008KT 10SM CLR 16/10 A2985 RMK AO2 SLP111 70001 T01560100 10156 20094 56013 $","lat":43.1172,"lon":-77.6754,"elev":166,"name":"Rochester Intl Arpt, NY, US","cover":"CLR","clouds":[],"fltCat":"VFR"},{"icaoId":"KBFL","receiptTime":"2026-04-18T11:58:10.617Z","obsTime":1776513240,"reportTime":"2026-04-18T12:00:00.000Z","temp":12.2,"dewp":-2.8,"wdir":90,"wspd":5,"visib":"10+","altim":1016.3,"slp":1015.8,"qcField":14,"presTend":-0.2,"maxT":19.4,"minT":10.6,"metarType":"METAR","rawOb":"METAR KBFL 181154Z AUTO 09005KT 10SM CLR 12/M03 A3001 RMK AO2 SLP158 T01221028 10194 20106 56002 $","lat":35.4342,"lon":-119.0552,"elev":146,"name":"Bakersfield/Meadows Arpt, CA, US","cover":"CLR","clouds":[],"fltCat":"VFR"},{"icaoId":"KDSM","receiptTime":"2026-04-18T11:58:11.283Z","obsTime":1776513240,"reportTime":"2026-04-18T12:00:00.000Z","temp":1.1,"dewp":-6.1,"wdir":300,"wspd":16,"wgst":23,"visib":"10+","altim":1016.7,"slp":1017.1,"qcField":12,"presTend":2.2,"maxT":6.1,"minT":0.6,"pcp24hr":0.07,"metarType":"METAR","rawOb":"METAR KDSM 181154Z 30016G23KT 10SM FEW100 01/M06 A3002 RMK AO2 SLP171 70007 T00111061 10061 20006 53022 $","lat":41.5339,"lon":-93.6531,"elev":286,"name":"Des Moines Intl, IA, US","cover":"FEW","clouds":[{"cover":"FEW","base":10000}],"fltCat":"VFR"},{"icaoId":"KIWA","receiptTime":"2026-04-18T11:55:24.247Z","obsTime":1776513180,"reportTime":"2026-04-18T12:00:00.000Z","temp":14,"dewp":-3,"wdir":160,"wspd":5,"visib":"10+","altim":1014.3,"qcField":0,"metarType":"METAR","rawOb":"METAR KIWA 181153Z 16005KT 10SM CLR 14/M03 A2995","lat":33.3008,"lon":-111.6437,"elev":420,"name":"Phoenix/Mesa Gateway Arpt, AZ, US","cover":"CLR","clouds":[],"fltCat":"VFR"},{"icaoId":"KDEN","receiptTime":"2026-04-18T11:56:24.272Z","obsTime":1776513180,"reportTime":"2026-04-18T12:00:00.000Z","temp":-2.8,"dewp":-7.8,"wdir":270,"wspd":6,"visib":"10+","altim":1022.1,"slp":1023.2,"qcField":12,"presTend":1.2,"maxT":-1.7,"minT":-5.6,"pcp24hr":0.16,"metarType":"METAR","rawOb":"METAR KDEN 181153Z 27006KT 10SM FEW070 FEW110 SCT220 M03/M08 A3018 RMK AO2 SLP232 70016 T10281078 11017 21056 53012 $","lat":39.8466,"lon":-104.6562,"elev":1656,"name":"Denver Intl, CO, US","cover":"SCT","clouds":[{"cover":"FEW","base":7000},{"cover":"FEW","base":11000},{"cover":"SCT","base":22000}],"fltCat":"VFR"},{"icaoId":"KDLN","receiptTime":"2026-04-18T11:56:24.383Z","obsTime":1776513180,"reportTime":"2026-04-18T12:00:00.000Z","temp":-5,"dewp":-8.9,"wdir":220,"wspd":10,"visib":"10+","altim":1022.4,"slp":1024.6,"qcField":6,"presTend":0.4,"maxT":-1.7,"minT":-5,"metarType":"METAR","rawOb":"METAR KDLN 181153Z AUTO 22010KT 10SM CLR M05/M09 A3019 RMK AO2 SLP246 T10501089 11017 21050 53004","lat":45.2584,"lon":-112.5546,"elev":1586,"name":"Dillon Arpt, MT, US","cover":"CLR","clouds":[],"fltCat":"VFR"},{"icaoId":"KGSP","receiptTime":"2026-04-18T11:56:25.135Z","obsTime":1776513180,"reportTime":"2026-04-18T12:00:00.000Z","temp":14.4,"dewp":12.2,"wdir":0,"wspd":0,"visib":"10+","altim":1015.3,"slp":1014.2,"qcField":4,"presTend":0.5,"maxT":16.1,"minT":12.2,"metarType":"METAR","rawOb":"METAR KGSP 181153Z 00000KT 10SM CLR 14/12 A2998 RMK AO2 SLP142 T01440122 10161 20122 53005","lat":34.8842,"lon":-82.2209,"elev":285,"name":"Greenville-Spartanburg Intl, SC, US","cover":"CLR","clouds":[],"fltCat":"VFR"},{"icaoId":"KSWO","receiptTime":"2026-04-18T11:56:24.140Z","obsTime":1776513180,"reportTime":"2026-04-18T12:00:00.000Z","temp":6.7,"dewp":0,"wdir":20,"wspd":8,"visib":"10+","altim":1020.7,"slp":1020.1,"qcField":6,"presTend":4.5,"maxT":10,"minT":6.7,"pcp24hr":0.92,"metarType":"METAR","rawOb":"METAR KSWO 181153Z AUTO 02008KT 10SM CLR 07/00 A3014 RMK AO2 PRESRR SLP201 70092 T00670000 10100 20067 53045","lat":36.1624,"lon":-97.0832,"elev":293,"name":"Stillwater Muni, OK, US","cover":"CLR","clouds":[],"fltCat":"VFR"},{"icaoId":"KPBI","receiptTime":"2026-04-18T11:56:22.994Z","obsTime":1776513180,"reportTime":"2026-04-18T12:00:00.000Z","temp":25,"dewp":21.1,"wdir":100,"wspd":7,"visib":"10+","altim":1016.7,"slp":1016.5,"qcField":12,"presTend":1.5,"maxT":25,"minT":23.9,"pcp6hr":0.005,"pcp24hr":0.39,"metarType":"METAR","rawOb":"METAR KPBI 181153Z 10007KT 10SM FEW018 SCT065 SCT250 25/21 A3002 RMK AO2 SLP165 60000 70039 T02500211 10250 20239 53015 $","lat":26.6851,"lon":-80.0992,"elev":4,"name":"Palm Beach Intl, FL, US","cover":"SCT","clouds":[{"cover":"FEW","base":1800},{"cover":"SCT","base":6500},{"cover":"SCT","base":25000}],"fltCat":"VFR"},{"icaoId":"KLAX","receiptTime":"2026-04-18T11:56:26.379Z","obsTime":1776513180,"reportTime":"2026-04-18T12:00:00.000Z","temp":15,"dewp":11.7,"wdir":"VRB","wspd":4,"visib":"10+","altim":1014,"slp":1013.6,"qcField":4,"presTend":-0.9,"maxT":17.2,"minT":14.4,"metarType":"METAR","rawOb":"METAR KLAX 181153Z VRB04KT 10SM CLR 15/12 A2994 RMK AO2 SLP136 T01500117 10172 20144 56009","lat":33.9382,"lon":-118.3866,"elev":30,"name":"Los Angeles Intl, CA, US","cover":"CLR","clouds":[],"fltCat":"VFR"},{"icaoId":"KLOL","receiptTime":"2026-04-18T11:56:27.916Z","obsTime":1776513180,"reportTime":"2026-04-18T12:00:00.000Z","temp":-3.3,"dewp":-16.1,"wdir":260,"wspd":4,"visib":"10+","altim":1020.4,"slp":1020.8,"qcField":6,"presTend":-0.1,"maxT":3.9,"minT":-3.9,"metarType":"METAR","rawOb":"METAR KLOL 181153Z AUTO 26004KT 10SM CLR M03/M16 A3013 RMK AO2 SLP208 T10331161 10039 21039 56001","lat":40.0684,"lon":-118.5702,"elev":1191,"name":"Lovelock/Derby Fld, NV, US","cover":"CLR","clouds":[],"fltCat":"VFR"},{"icaoId":"KLVS","receiptTime":"2026-04-18T11:56:25.518Z","obsTime":1776513180,"reportTime":"2026-04-18T12:00:00.000Z","temp":-7.2,"dewp":-8.3,"wdir":70,"wspd":4,"visib":"10+","altim":1022.8,"slp":1019.3,"qcField":14,"presTend":0.7,"maxT":-2.8,"minT":-7.8,"metarType":"METAR","rawOb":"METAR KLVS 181153Z AUTO 07004KT 10SM CLR M07/M08 A3020 RMK AO2 SLP193 I1000 I6000 T10721083 11028 21078 53007 $","lat":35.6558,"lon":-105.1385,"elev":2095,"name":"Las Vegas Muni, NM, US","cover":"CLR","clouds":[],"fltCat":"VFR"},{"icaoId":"KMDW","receiptTime":"2026-04-18T11:56:16.491Z","obsTime":1776513180,"reportTime":"2026-04-18T12:00:00.000Z","temp":8.9,"dewp":5,"wdir":280,"wspd":14,"wgst":23,"visib":"10+","altim":1007.2,"slp":1006.7,"qcField":4,"presTend":3.6,"maxT":17.2,"minT":8.9,"pcp6hr":0.06,"pcp24hr":0.95,"metarType":"METAR","rawOb":"METAR KMDW 181153Z 28014G23KT 10SM OVC017 09/05 A2974 RMK AO2 SLP067 60006 70095 T00890050 10172 20089 53036","lat":41.7841,"lon":-87.7552,"elev":186,"name":"Chicago/Midway Intl, IL, US","cover":"OVC","clouds":[{"cover":"OVC","base":1700}],"fltCat":"MVFR"},{"icaoId":"KVEL","receiptTime":"2026-04-18T11:56:23.198Z","obsTime":1776513180,"reportTime":"2026-04-18T12:00:00.000Z","temp":-3.9,"dewp":-10,"wdir":0,"wspd":0,"visib":"10+","altim":1025.5,"slp":1027,"qcField":6,"presTend":1.2,"maxT":0,"minT":-4.4,"metarType":"METAR","rawOb":"METAR KVEL 181153Z AUTO 00000KT 10SM CLR M04/M10 A3028 RMK AO2 SLP270 T10391100 10000 21044 51012","lat":40.4429,"lon":-109.5128,"elev":1604,"name":"Vernal Rgnl, UT, US","cover":"CLR","clouds":[],"fltCat":"VFR"},{"icaoId":"KVGT","receiptTime":"2026-04-18T11:56:23.210Z","obsTime":1776513180,"reportTime":"2026-04-18T12:00:00.000Z","temp":10.6,"dewp":-13.3,"wdir":290,"wspd":4,"visib":"10+","altim":1018.4,"slp":1019.4,"qcField":6,"presTend":0.1,"maxT":15,"minT":10,"metarType":"METAR","rawOb":"METAR KVGT 181153Z AUTO 29004KT 10SM CLR 11/M13 A3007 RMK AO2 SLP194 T01061133 10150 20100 50001","lat":36.212,"lon":-115.194,"elev":664,"name":"Las Vegas/North Arpt, NV, US","cover":"CLR","clouds":[],"fltCat":"VFR"},{"icaoId":"KLAR","receiptTime":"2026-04-18T11:56:27.730Z","obsTime":1776513180,"reportTime":"2026-04-18T12:00:00.000Z","temp":-9.4,"dewp":-13.9,"wdir":200,"wspd":7,"visib":"10+","altim":1020.7,"slp":1023.7,"qcField":6,"presTend":1,"maxT":-5,"minT":-10.6,"pcp24hr":0.01,"metarType":"METAR","rawOb":"METAR KLAR 181153Z AUTO 20007KT 10SM CLR M09/M14 A3014 RMK AO2 SLP237 70001 T10941139 11050 21106 53010","lat":41.3165,"lon":-105.6729,"elev":2217,"name":"Laramie Rgnl, WY, US","cover":"CLR","clouds":[],"fltCat":"VFR"},{"icaoId":"KDMN","receiptTime":"2026-04-18T11:56:25.683Z","obsTime":1776513180,"reportTime":"2026-04-18T12:00:00.000Z","temp":12.8,"dewp":-15,"wdir":40,"wspd":18,"wgst":27,"visib":"10+","altim":1018,"slp":1011.9,"qcField":6,"presTend":1.4,"maxT":15,"minT":8.3,"metarType":"METAR","rawOb":"METAR KDMN 181153Z AUTO 04018G27KT 10SM CLR 13/M15 A3006 RMK AO2 PK WND 05028/1122 SLP119 T01281150 10150 20083 51014","lat":32.2592,"lon":-107.7206,"elev":1310,"name":"Deming Muni, NM, US","cover":"CLR","clouds":[],"fltCat":"VFR"},{"icaoId":"KFMN","receiptTime":"2026-04-18T11:56:25.752Z","obsTime":1776513180,"reportTime":"2026-04-18T12:00:00.000Z","temp":-1.7,"dewp":-15,"wdir":270,"wspd":11,"wgst":16,"visib":"10+","altim":1022.8,"slp":1022.9,"qcField":4,"presTend":0.5,"maxT":3.3,"minT":-2.2,"metarType":"METAR","rawOb":"METAR KFMN 181153Z 27011G16KT 10SM CLR M02/M15 A3020 RMK AO2 SLP229 T10171150 10033 21022 53005","lat":36.7435,"lon":-108.2293,"elev":1677,"name":"Farmington/Four Corners Rgnl, NM, US","cover":"CLR","clouds":[],"fltCat":"VFR"},{"icaoId":"KDVT","receiptTime":"2026-04-18T11:56:24.495Z","obsTime":1776513180,"reportTime":"2026-04-18T12:00:00.000Z","temp":16.7,"dewp":-10.6,"wdir":0,"wspd":0,"visib":"10+","altim":1014,"slp":1011.8,"qcField":6,"presTend":0.7,"maxT":19.4,"minT":15,"metarType":"METAR","rawOb":"METAR KDVT 181153Z AUTO 00000KT 10SM CLR 17/M11 A2994 RMK AO2 SLP118 T01671106 10194 20150 51007","lat":33.6902,"lon":-112.0662,"elev":454,"name":"Phoenix/Deer Valley Arpt, AZ, US","cover":"CLR","clouds":[],"fltCat":"VFR"},{"icaoId":"KEVW","receiptTime":"2026-04-18T11:56:24.648Z","obsTime":1776513180,"reportTime":"2026-04-18T12:00:00.000Z","temp":-7.8,"dewp":-13.9,"wdir":170,"wspd":6,"visib":"10+","altim":1024.1,"slp":1026.9,"qcField":14,"presTend":0.2,"maxT":-4.4,"minT":-7.8,"metarType":"METAR","rawOb":"METAR KEVW 181153Z AUTO 17006KT 10SM CLR M08/M14 A3024 RMK AO2 SLP269 T10781139 11044 21078 51002 $","lat":41.2727,"lon":-111.0305,"elev":2178,"name":"Evanston/Uinta Cnty, WY, US","cover":"CLR","clouds":[],"fltCat":"VFR"},{"icaoId":"KGJT","receiptTime":"2026-04-18T11:56:28.313Z","obsTime":1776513180,"reportTime":"2026-04-18T12:00:00.000Z","temp":-1.7,"dewp":-6.1,"wdir":0,"wspd":0,"visib":"10+","altim":1026.2,"slp":1026.3,"qcField":4,"presTend":1.7,"maxT":1.1,"minT":-2.2,"precip":0.005,"pcp6hr":0.005,"pcp24hr":0.03,"metarType":"METAR","rawOb":"METAR KGJT 181153Z 00000KT 10SM CLR M02/M06 A3030 RMK AO2 SNB00E10 SLP263 P0000 60000 70003 T10171061 10011 21022 53017","lat":39.1344,"lon":-108.5408,"elev":1475,"name":"Grand Junction Rgnl, CO, US","cover":"CLR","clouds":[],"fltCat":"VFR"},{"icaoId":"KBNA","receiptTime":"2026-04-18T11:56:13.858Z","obsTime":1776513180,"reportTime":"2026-04-18T12:00:00.000Z","temp":20.6,"dewp":15,"wdir":200,"wspd":8,"visib":"10+","altim":1012.6,"slp":1011.9,"qcField":12,"presTend":1.2,"maxT":20.6,"minT":17.8,"metarType":"METAR","rawOb":"METAR KBNA 181153Z 20008KT 10SM BKN060 BKN080 BKN210 21/15 A2990 RMK AO2 SLP119 T02060150 10206 20178 53012 $","lat":36.1105,"lon":-86.6881,"elev":168,"name":"Nashville Intl, TN, US","cover":"BKN","clouds":[{"cover":"BKN","base":6000},{"cover":"BKN","base":8000},{"cover":"BKN","base":21000}],"fltCat":"VFR"},{"icaoId":"KBUR","receiptTime":"2026-04-18T11:56:14.030Z","obsTime":1776513180,"reportTime":"2026-04-18T12:00:00.000Z","temp":13.3,"dewp":-1.7,"wdir":0,"wspd":0,"visib":"10+","altim":1014.3,"slp":1013,"qcField":4,"presTend":-1.1,"maxT":18.9,"minT":13.3,"metarType":"METAR","rawOb":"METAR KBUR 181153Z 00000KT 10SM CLR 13/M02 A2995 RMK AO2 SLP130 T01331017 10189 20133 56011","lat":34.1996,"lon":-118.3654,"elev":221,"name":"Burbank/Bob Hope Arpt, CA, US","cover":"CLR","clouds":[],"fltCat":"VFR"},{"icaoId":"PANC","receiptTime":"2026-04-18T11:56:21.770Z","obsTime":1776513180,"reportTime":"2026-04-18T12:00:00.000Z","temp":0.6,"dewp":0,"wdir":0,"wspd":0,"visib":"10+","altim":1011.6,"slp":1011.8,"qcField":4,"wxString":"-RA","presTend":0.6,"maxT":2.2,"minT":0.6,"precip":0.005,"pcp6hr":0.005,"pcp24hr":0.03,"snow":11,"metarType":"METAR","rawOb":"METAR PANC 181153Z 00000KT 10SM -RA BKN006 BKN024 OVC060 01/00 A2987 RMK AO2 RAE49B51 SLP118 4/011 P0000 60000 70003 T00060000 10022 20006 51006","lat":61.1691,"lon":-150.0277,"elev":39,"name":"Anchorage Intl, AK, US","cover":"OVC","clouds":[{"cover":"BKN","base":600},{"cover":"BKN","base":2400},{"cover":"OVC","base":6000}],"fltCat":"IFR"},{"icaoId":"KTUS","receiptTime":"2026-04-18T11:56:26.654Z","obsTime":1776513180,"reportTime":"2026-04-18T12:00:00.000Z","temp":13.9,"dewp":-3.3,"wdir":0,"wspd":0,"visib":"10+","altim":1015.3,"slp":1011.8,"qcField":4,"presTend":0.4,"maxT":18.9,"minT":13.9,"metarType":"METAR","rawOb":"METAR KTUS 181153Z 00000KT 10SM CLR 14/M03 A2998 RMK AO2 SLP118 T01391033 10189 20139 51004","lat":32.1315,"lon":-110.9564,"elev":776,"name":"Tucson Intl Arpt, AZ, US","cover":"CLR","clouds":[],"fltCat":"VFR"},{"icaoId":"KPGA","receiptTime":"2026-04-18T11:56:26.546Z","obsTime":1776513180,"reportTime":"2026-04-18T12:00:00.000Z","temp":3.3,"dewp":-17.2,"wdir":0,"wspd":0,"visib":"10+","altim":1023.8,"slp":1022.1,"qcField":14,"presTend":1,"maxT":7.8,"minT":3.3,"metarType":"METAR","rawOb":"METAR KPGA 181153Z AUTO 00000KT 10SM CLR 03/M17 A3023 RMK AO2 SLP221 T00331172 10078 20033 53010 $","lat":36.9211,"lon":-111.4487,"elev":1310,"name":"Page Muni, AZ, US","cover":"CLR","clouds":[],"fltCat":"VFR"},{"icaoId":"KCNY","receiptTime":"2026-04-18T11:56:25.579Z","obsTime":1776513180,"reportTime":"2026-04-18T12:00:00.000Z","temp":1.1,"dewp":-9.4,"wdir":0,"wspd":0,"visib":"10+","altim":1024.5,"slp":1024.6,"qcField":14,"presTend":1.2,"maxT":3.3,"minT":-2.8,"metarType":"METAR","rawOb":"METAR KCNY 181153Z AUTO 00000KT 10SM CLR 01/M09 A3025 RMK AO2 SLP246 T00111094 10033 21028 53012 $","lat":38.7501,"lon":-109.7627,"elev":1392,"name":"Moab/Canyonland Fld, UT, US","cover":"CLR","clouds":[],"fltCat":"VFR"},{"icaoId":"KCPR","receiptTime":"2026-04-18T11:56:12.431Z","obsTime":1776513180,"reportTime":"2026-04-18T12:00:00.000Z","temp":-5,"dewp":-8.9,"wdir":300,"wspd":4,"visib":"10+","altim":1021.1,"slp":1023.2,"qcField":4,"presTend":1,"maxT":-3.3,"minT":-5.6,"pcp24hr":0.08,"metarType":"METAR","rawOb":"METAR KCPR 181153Z 30004KT 10SM CLR M05/M09 A3015 RMK AO2 SLP232 70008 T10501089 11033 21056 53010","lat":42.8978,"lon":-106.4736,"elev":1623,"name":"Casper/Natrona Cnty, WY, US","cover":"CLR","clouds":[],"fltCat":"VFR"},{"icaoId":"KMSO","receiptTime":"2026-04-18T11:56:26.437Z","obsTime":1776513180,"reportTime":"2026-04-18T12:00:00.000Z","temp":-1.7,"dewp":-5.6,"wdir":140,"wspd":3,"visib":"10+","altim":1024.1,"slp":1026.2,"qcField":12,"presTend":0.6,"maxT":1.1,"minT":-3.3,"metarType":"METAR","rawOb":"METAR KMSO 181153Z 14003KT 10SM CLR M02/M06 A3024 RMK AO2 SLP262 T10171056 10011 21033 51006 $","lat":46.9208,"lon":-114.0938,"elev":974,"name":"Missoula Intl, MT, US","cover":"CLR","clouds":[],"fltCat":"VFR"},{"icaoId":"KBOI","receiptTime":"2026-04-18T11:56:24.763Z","obsTime":1776513180,"reportTime":"2026-04-18T12:00:00.000Z","temp":4.4,"dewp":-5,"wdir":130,"wspd":10,"visib":"10+","altim":1022.8,"slp":1022.9,"qcField":4,"presTend":-0.2,"maxT":5.6,"minT":3.9,"metarType":"METAR","rawOb":"METAR KBOI 181153Z 13010KT 10SM CLR 04/M05 A3020 RMK AO2 SLP229 T00441050 10056 20039 56002","lat":43.567,"lon":-116.2406,"elev":860,"name":"Boise Arpt, ID, US","cover":"CLR","clouds":[],"fltCat":"VFR"},{"icaoId":"KBCE","receiptTime":"2026-04-18T11:56:12.037Z","obsTime":1776513180,"reportTime":"2026-04-18T12:00:00.000Z","temp":-11.7,"dewp":-15,"wdir":260,"wspd":7,"visib":"10+","altim":1024.5,"slp":1023.5,"qcField":6,"presTend":0.4,"maxT":-6.7,"minT":-12.2,"metarType":"METAR","rawOb":"METAR KBCE 181153Z AUTO 26007KT 10SM CLR M12/M15 A3025 RMK AO2 SLP235 T11171150 11067 21122 51004","lat":37.7013,"lon":-112.149,"elev":2311,"name":"Bryce Canyon Arpt, UT, US","cover":"CLR","clouds":[],"fltCat":"VFR"},{"icaoId":"KPUB","receiptTime":"2026-04-18T11:56:22.713Z","obsTime":1776513180,"reportTime":"2026-04-18T12:00:00.000Z","temp":-4.4,"dewp":-5.6,"wdir":270,"wspd":7,"visib":"10+","altim":1022.8,"slp":1025.1,"qcField":12,"presTend":0.8,"maxT":0,"minT":-4.4,"pcp24hr":0.01,"metarType":"METAR","rawOb":"METAR KPUB 181153Z 27007KT 10SM CLR M04/M06 A3020 RMK AO2 SLP251 70001 T10441056 10000 21044 53008 $","lat":38.2887,"lon":-104.5057,"elev":1441,"name":"Pueblo Mem Arpt, CO, US","cover":"CLR","clouds":[],"fltCat":"VFR"},{"icaoId":"KMYR","receiptTime":"2026-04-18T11:56:22.535Z","obsTime":1776513180,"reportTime":"2026-04-18T12:00:00.000Z","temp":20.6,"dewp":19.4,"wdir":170,"wspd":5,"visib":"10+","altim":1016,"slp":1016,"qcField":12,"presTend":0.8,"maxT":20.6,"minT":17.2,"metarType":"METAR","rawOb":"METAR KMYR 181153Z 17005KT 10SM FEW095 21/19 A3000 RMK AO2 SLP160 T02060194 10206 20172 53008 $","lat":33.6769,"lon":-78.9325,"elev":7,"name":"Myrtle Beach Intl, SC, US","cover":"FEW","clouds":[{"cover":"FEW","base":9500}],"fltCat":"VFR"},{"icaoId":"KOGD","receiptTime":"2026-04-18T11:56:22.298Z","obsTime":1776513180,"reportTime":"2026-04-18T12:00:00.000Z","temp":-1.7,"dewp":-9.4,"wdir":170,"wspd":6,"visib":"10+","altim":1024.5,"slp":1024.5,"qcField":6,"presTend":0.1,"maxT":0.6,"minT":-1.7,"metarType":"METAR","rawOb":"METAR KOGD 181153Z AUTO 17006KT 10SM CLR M02/M09 A3025 RMK AO2 SLP245 T10171094 10006 21017 53001","lat":41.1941,"lon":-112.0168,"elev":1356,"name":"Ogden/Hinckley Arpt, UT, US","cover":"CLR","clouds":[],"fltCat":"VFR"},{"icaoId":"KOAK","receiptTime":"2026-04-18T11:56:22.287Z","obsTime":1776513180,"reportTime":"2026-04-18T12:00:00.000Z","temp":8.3,"dewp":6.7,"wdir":50,"wspd":4,"visib":"10+","altim":1016.7,"slp":1016.5,"qcField":12,"presTend":-0.9,"maxT":13.9,"minT":7.8,"metarType":"METAR","rawOb":"METAR KOAK 181153Z 05004KT 10SM FEW200 08/07 A3002 RMK AO2 SLP165 T00830067 10139 20078 56009 $","lat":37.7178,"lon":-122.233,"elev":3,"name":"Oakland Intl, CA, US","cover":"FEW","clouds":[{"cover":"FEW","base":20000}],"fltCat":"VFR"},{"icaoId":"KMFR","receiptTime":"2026-04-18T11:56:22.266Z","obsTime":1776513180,"reportTime":"2026-04-18T12:00:00.000Z","temp":3.9,"dewp":0.6,"wdir":0,"wspd":0,"visib":"10+","altim":1018.4,"slp":1018.2,"qcField":6,"presTend":-0.3,"maxT":10,"minT":3.9,"metarType":"METAR","rawOb":"METAR KMFR 181153Z AUTO 00000KT 10SM CLR 04/01 A3007 RMK AO2 SLP182 T00390006 10100 20039 56003","lat":42.375,"lon":-122.877,"elev":397,"name":"Medford/Rogue Valley Intl, OR, US","cover":"CLR","clouds":[],"fltCat":"VFR"},{"icaoId":"KBRO","receiptTime":"2026-04-18T11:56:21.588Z","obsTime":1776513180,"reportTime":"2026-04-18T12:00:00.000Z","temp":25,"dewp":22.2,"wdir":160,"wspd":13,"visib":"10+","altim":1008.2,"slp":1007.8,"qcField":4,"presTend":-0.6,"maxT":25,"minT":24.4,"metarType":"METAR","rawOb":"METAR KBRO 181153Z 16013KT 10SM OVC014 25/22 A2977 RMK AO2 SLP078 T02500222 10250 20244 55006","lat":25.9146,"lon":-97.4231,"elev":6,"name":"Brownsville Intl, TX, US","cover":"OVC","clouds":[{"cover":"OVC","base":1400}],"fltCat":"MVFR"},{"icaoId":"KPNC","receiptTime":"2026-04-18T11:56:21.532Z","obsTime":1776513180,"reportTime":"2026-04-18T12:00:00.000Z","temp":5,"dewp":0,"wdir":360,"wspd":7,"visib":"10+","altim":1020.4,"slp":1019.9,"qcField":6,"presTend":3.1,"maxT":10,"minT":5,"pcp24hr":1.22,"metarType":"METAR","rawOb":"METAR KPNC 181153Z AUTO 36007KT 10SM CLR 05/00 A3013 RMK AO2 PRESRR SLP199 70122 T00500000 10100 20050 53031","lat":36.7369,"lon":-97.1024,"elev":304,"name":"Ponca City Rgnl, OK, US","cover":"CLR","clouds":[],"fltCat":"VFR"},{"icaoId":"KDFW","receiptTime":"2026-04-18T11:56:24.320Z","obsTime":1776513180,"reportTime":"2026-04-18T12:00:00.000Z","temp":13.3,"dewp":11.7,"wdir":20,"wspd":19,"wgst":26,"visib":4,"altim":1013.6,"slp":1012.9,"qcField":12,"wxString":"TSRA BR","presTend":4.3,"maxT":23.9,"minT":12.8,"precip":0.08,"pcp6hr":0.26,"pcp24hr":0.26,"metarType":"METAR","rawOb":"METAR KDFW 181153Z 02019G26KT 4SM TSRA BR BKN009 BKN015CB OVC037 13/12 A2993 RMK AO2 PK WND 34029/1137 SLP129 OCNL LTGICCG ALQDS TS ALQDS MOV E P0008 60026 70026 T01330117 10239 20128 51043 $","lat":32.8974,"lon":-97.022,"elev":168,"name":"Dallas-Ft Worth Intl, TX, US","cover":"OVC","clouds":[{"cover":"BKN","base":900},{"cover":"BKN","base":1500},{"cover":"OVC","base":3700}],"fltCat":"IFR"},{"icaoId":"KDTW","receiptTime":"2026-04-18T11:56:24.469Z","obsTime":1776513180,"reportTime":"2026-04-18T12:00:00.000Z","temp":16.1,"dewp":15.6,"wdir":220,"wspd":11,"visib":4,"altim":1004.8,"slp":1004.6,"qcField":4,"wxString":"-RA BR","presTend":-0.2,"maxT":18.3,"minT":15.6,"precip":0.22,"pcp6hr":0.22,"pcp24hr":0.22,"metarType":"METAR","rawOb":"METAR KDTW 181153Z 22011KT 4SM -RA BR SCT012 BKN025 OVC090 16/16 A2967 RMK AO2 SLP046 OCNL LTGIC DSNT E-SE CB DSNT E-SE MOV NE P0022 60022 70022 T01610156 10183 20156 55002","lat":42.2311,"lon":-83.3312,"elev":192,"name":"Detroit/Metro Wayne Cnty, MI, US","cover":"OVC","clouds":[{"cover":"SCT","base":1200},{"cover":"BKN","base":2500},{"cover":"OVC","base":9000}],"fltCat":"MVFR"},{"icaoId":"KMCI","receiptTime":"2026-04-18T11:56:24.777Z","obsTime":1776513180,"reportTime":"2026-04-18T12:00:00.000Z","temp":3.3,"dewp":-5.6,"wdir":330,"wspd":10,"wgst":18,"visib":"10+","altim":1019,"slp":1018.9,"qcField":4,"presTend":3,"maxT":9.4,"minT":3.3,"pcp24hr":0.02,"metarType":"METAR","rawOb":"METAR KMCI 181153Z 33010G18KT 10SM FEW120 03/M06 A3009 RMK AO2 SLP189 70002 T00331056 10094 20033 53030","lat":39.2975,"lon":-94.7309,"elev":308,"name":"Kansas City Intl, MO, US","cover":"FEW","clouds":[{"cover":"FEW","base":12000}],"fltCat":"VFR"},{"icaoId":"KASE","receiptTime":"2026-04-18T11:56:25.094Z","obsTime":1776513180,"reportTime":"2026-04-18T12:00:00.000Z","temp":-6.7,"dewp":-8.3,"wdir":0,"wspd":0,"visib":9,"altim":1024.5,"slp":1024.8,"qcField":6,"wxString":"-SN","presTend":1.3,"maxT":-5,"minT":-7.8,"precip":0.005,"pcp6hr":0.005,"pcp24hr":0.05,"metarType":"METAR","rawOb":"METAR KASE 181153Z AUTO 00000KT 9SM -SN BKN022 OVC029 M07/M08 A3025 RMK AO2 SNE00B29 SLP248 P0000 60000 70005 T10671083 11050 21078 53013","lat":39.2299,"lon":-106.8705,"elev":2384,"name":"Aspen/Pitkin Cnty, CO, US","cover":"OVC","clouds":[{"cover":"BKN","base":2200},{"cover":"OVC","base":2900}],"fltCat":"MVFR"},{"icaoId":"KFAT","receiptTime":"2026-04-18T11:56:25.742Z","obsTime":1776513180,"reportTime":"2026-04-18T12:00:00.000Z","temp":12.2,"dewp":6.7,"wdir":0,"wspd":0,"visib":"10+","altim":1016.3,"slp":1015.9,"qcField":4,"presTend":-0.4,"maxT":17.8,"minT":12.2,"metarType":"METAR","rawOb":"METAR KFAT 181153Z 00000KT 10SM CLR 12/07 A3001 RMK AO2 SLP159 T01220067 10178 20122 56004","lat":36.78,"lon":-119.7202,"elev":102,"name":"Fresno/Yosemite Intl, CA, US","cover":"CLR","clouds":[],"fltCat":"VFR"},{"icaoId":"KGEG","receiptTime":"2026-04-18T11:56:25.847Z","obsTime":1776513180,"reportTime":"2026-04-18T12:00:00.000Z","temp":1.1,"dewp":-2.8,"wdir":0,"wspd":0,"visib":"10+","altim":1022.1,"slp":1022.9,"qcField":12,"presTend":-0.2,"maxT":4.4,"minT":1.1,"metarType":"METAR","rawOb":"METAR KGEG 181153Z 00000KT 10SM SCT240 01/M03 A3018 RMK AO2 SLP229 T00111028 10044 20011 55002 $","lat":47.6217,"lon":-117.528,"elev":718,"name":"Spokane Intl, WA, US","cover":"SCT","clouds":[{"cover":"SCT","base":24000}],"fltCat":"VFR"},{"icaoId":"KPRC","receiptTime":"2026-04-18T11:56:26.073Z","obsTime":1776513180,"reportTime":"2026-04-18T12:00:00.000Z","temp":1.7,"dewp":-9.4,"wdir":0,"wspd":0,"visib":"10+","altim":1019.7,"slp":1015.6,"qcField":6,"presTend":0.3,"maxT":9.4,"minT":1.7,"metarType":"METAR","rawOb":"METAR KPRC 181153Z AUTO 00000KT 10SM CLR 02/M09 A3011 RMK AO2 SLP156 T00171094 10094 20017 53003","lat":34.6491,"lon":-112.4223,"elev":1528,"name":"Prescott/Love Fld, AZ, US","cover":"CLR","clouds":[],"fltCat":"VFR"},{"icaoId":"KTUL","receiptTime":"2026-04-18T11:56:26.208Z","obsTime":1776513180,"reportTime":"2026-04-18T12:00:00.000Z","temp":8.3,"dewp":1.1,"wdir":360,"wspd":13,"wgst":22,"visib":"10+","altim":1018.7,"slp":1018.2,"qcField":4,"presTend":3.3,"maxT":11.7,"minT":8.3,"pcp6hr":0.24,"pcp24hr":1.06,"metarType":"METAR","rawOb":"METAR KTUL 181153Z 36013G22KT 10SM FEW095 SCT150 SCT200 08/01 A3008 RMK AO2 PK WND 36026/1103 SLP182 60024 70106 T00830011 10117 20083 53033","lat":36.1985,"lon":-95.8782,"elev":196,"name":"Tulsa Intl Arpt, OK, US","cover":"SCT","clouds":[{"cover":"FEW","base":9500},{"cover":"SCT","base":15000},{"cover":"SCT","base":20000}],"fltCat":"VFR"},{"icaoId":"KTWF","receiptTime":"2026-04-18T11:56:26.262Z","obsTime":1776513180,"reportTime":"2026-04-18T12:00:00.000Z","temp":-1.7,"dewp":-7.2,"wdir":190,"wspd":9,"visib":"10+","altim":1023.1,"slp":1022.7,"qcField":4,"presTend":-0.4,"maxT":0,"minT":-2.2,"metarType":"METAR","rawOb":"METAR KTWF 181153Z 19009KT 10SM CLR M02/M07 A3021 RMK AO2 SLP227 T10171072 10000 21022 56004","lat":42.4785,"lon":-114.4775,"elev":1269,"name":"Twin Falls/Joslin Fld, ID, US","cover":"CLR","clouds":[],"fltCat":"VFR"},{"icaoId":"KSEA","receiptTime":"2026-04-18T11:56:26.475Z","obsTime":1776513180,"reportTime":"2026-04-18T12:00:00.000Z","temp":6.7,"dewp":3.9,"wdir":0,"wspd":0,"visib":"10+","altim":1018.7,"slp":1019.3,"qcField":4,"presTend":-1,"maxT":10,"minT":6.1,"metarType":"METAR","rawOb":"METAR KSEA 181153Z 00000KT 10SM BKN140 OVC250 07/04 A3008 RMK AO2 SLP193 T00670039 10100 20061 56010","lat":47.4447,"lon":-122.3144,"elev":115,"name":"Seattle-Tacoma Intl, WA, US","cover":"OVC","clouds":[{"cover":"BKN","base":14000},{"cover":"OVC","base":25000}],"fltCat":"VFR"},{"icaoId":"KRIW","receiptTime":"2026-04-18T11:56:26.487Z","obsTime":1776513180,"reportTime":"2026-04-18T12:00:00.000Z","temp":-4.4,"dewp":-13.9,"wdir":230,"wspd":8,"visib":"10+","altim":1021.1,"slp":1022.9,"qcField":6,"presTend":0.4,"maxT":-0.6,"minT":-5,"metarType":"METAR","rawOb":"METAR KRIW 181153Z AUTO 23008KT 10SM CLR M04/M14 A3015 RMK AO2 SLP229 T10441139 11006 21050 53004","lat":43.0622,"lon":-108.4471,"elev":1662,"name":"Riverton Rgnl, WY, US","cover":"CLR","clouds":[],"fltCat":"VFR"},{"icaoId":"KPDX","receiptTime":"2026-04-18T11:56:26.535Z","obsTime":1776513180,"reportTime":"2026-04-18T12:00:00.000Z","temp":6.7,"dewp":4.4,"wdir":0,"wspd":0,"visib":"10+","altim":1018.4,"slp":1018.1,"qcField":12,"presTend":-0.5,"maxT":10.6,"minT":6.1,"metarType":"METAR","rawOb":"METAR KPDX 181153Z 00000KT 10SM SCT180 07/04 A3007 RMK AO2 SLP181 T00670044 10106 20061 58005 $","lat":45.5958,"lon":-122.6092,"elev":7,"name":"Portland Intl, OR, US","cover":"SCT","clouds":[{"cover":"SCT","base":18000}],"fltCat":"VFR"},{"icaoId":"KYKM","receiptTime":"2026-04-18T11:56:26.569Z","obsTime":1776513180,"reportTime":"2026-04-18T12:00:00.000Z","temp":2.2,"dewp":-2.2,"wdir":270,"wspd":5,"visib":"10+","altim":1021.1,"slp":1021.5,"qcField":6,"presTend":-0.5,"maxT":4.4,"minT":0.6,"metarType":"METAR","rawOb":"METAR KYKM 181153Z AUTO 27005KT 10SM CLR 02/M02 A3015 RMK AO2 SLP215 T00221022 10044 20006 56005","lat":46.564,"lon":-120.5349,"elev":319,"name":"Yakima/McAllister Fld, WA, US","cover":"CLR","clouds":[],"fltCat":"VFR"},{"icaoId":"KMOD","receiptTime":"2026-04-18T11:56:26.870Z","obsTime":1776513180,"reportTime":"2026-04-18T12:00:00.000Z","temp":8.9,"dewp":5,"wdir":0,"wspd":0,"visib":"10+","altim":1016,"slp":1015.7,"qcField":6,"presTend":-0.5,"maxT":15,"minT":8.9,"metarType":"METAR","rawOb":"METAR KMOD 181153Z AUTO 00000KT 10SM CLR 09/05 A3000 RMK AO2 SLP157 T00890050 10150 20089 56005","lat":37.6254,"lon":-120.9549,"elev":25,"name":"Modesto/Sham Fld, CA, US","cover":"CLR","clouds":[],"fltCat":"VFR"},{"icaoId":"KMSY","receiptTime":"2026-04-18T11:56:26.952Z","obsTime":1776513180,"reportTime":"2026-04-18T12:00:00.000Z","temp":20.6,"dewp":18.3,"wdir":90,"wspd":3,"visib":"10+","altim":1013.3,"slp":1013.6,"qcField":4,"presTend":0.6,"maxT":21.7,"minT":19.4,"metarType":"METAR","rawOb":"METAR KMSY 181153Z 09003KT 10SM FEW040 SCT200 21/18 A2992 RMK AO2 SLP136 T02060183 10217 20194 53006","lat":29.9974,"lon":-90.2777,"elev":0,"name":"New Orleans/Armstrong Intl, LA, US","cover":"SCT","clouds":[{"cover":"FEW","base":4000},{"cover":"SCT","base":20000}],"fltCat":"VFR"},{"icaoId":"KSDL","receiptTime":"2026-04-18T11:56:27.085Z","obsTime":1776513180,"reportTime":"2026-04-18T12:00:00.000Z","temp":15,"dewp":-1.7,"wdir":0,"wspd":0,"visib":"10+","altim":1014,"slp":1012,"qcField":4,"presTend":0.7,"maxT":21.7,"minT":14.4,"metarType":"METAR","rawOb":"METAR KSDL 181153Z 00000KT 10SM CLR 15/M02 A2994 RMK AO2 SLP120 T01501017 10217 20144 53007","lat":33.6123,"lon":-111.9232,"elev":438,"name":"Scottsdale Muni, AZ, US","cover":"CLR","clouds":[],"fltCat":"VFR"},{"icaoId":"KSHR","receiptTime":"2026-04-18T11:56:27.160Z","obsTime":1776513180,"reportTime":"2026-04-18T12:00:00.000Z","temp":-2.2,"dewp":-3.9,"wdir":220,"wspd":4,"visib":"10+","altim":1020.7,"slp":1023.5,"qcField":6,"maxT":-0.6,"minT":-3.9,"pcp6hr":0.005,"metarType":"METAR","rawOb":"METAR KSHR 181153Z AUTO 22004KT 10SM OVC055 M02/M04 A3014 RMK AO2 SLP235 60000 T10221039 11006 21039 54000","lat":44.7603,"lon":-106.9741,"elev":1212,"name":"Sheridan Cnty Arpt, WY, US","cover":"OVC","clouds":[{"cover":"OVC","base":5500}],"fltCat":"VFR"},{"icaoId":"KSMF","receiptTime":"2026-04-18T11:56:27.211Z","obsTime":1776513180,"reportTime":"2026-04-18T12:00:00.000Z","temp":8.3,"dewp":4.4,"wdir":0,"wspd":0,"visib":"10+","altim":1016,"slp":1015.7,"qcField":4,"presTend":-0.3,"maxT":13.3,"minT":6.7,"metarType":"METAR","rawOb":"METAR KSMF 181153Z 00000KT 10SM FEW190 08/04 A3000 RMK AO2 SLP157 T00830044 10133 20067 56003","lat":38.7007,"lon":-121.5948,"elev":7,"name":"Sacramento Intl, CA, US","cover":"FEW","clouds":[{"cover":"FEW","base":19000}],"fltCat":"VFR"},{"icaoId":"KMIA","receiptTime":"2026-04-18T12:00:22.381Z","obsTime":1776513180,"reportTime":"2026-04-18T12:00:00.000Z","temp":24.4,"dewp":21.7,"wdir":100,"wspd":4,"visib":"10+","altim":1016,"slp":1016,"qcField":0,"presTend":1.6,"maxT":24.4,"minT":23.3,"metarType":"METAR","rawOb":"METAR KMIA 181153Z 10004KT 10SM FEW016 BKN250 24/22 A3000 RMK SLP160 T02440217 10244 20233 53016","lat":25.7881,"lon":-80.3169,"elev":1,"name":"Miami Intl, FL, US","cover":"BKN","clouds":[{"cover":"FEW","base":1600},{"cover":"BKN","base":25000}],"fltCat":"VFR"},{"icaoId":"KONT","receiptTime":"2026-04-18T11:58:21.379Z","obsTime":1776513180,"reportTime":"2026-04-18T12:00:00.000Z","temp":13.9,"dewp":8.9,"wdir":140,"wspd":3,"visib":"10+","altim":1014,"slp":1012.9,"qcField":4,"presTend":-0.9,"maxT":18.9,"minT":13.9,"metarType":"METAR","rawOb":"METAR KONT 181153Z 14003KT 10SM CLR 14/09 A2994 RMK AO2 SLP129 T01390089 10189 20139 56009","lat":34.0531,"lon":-117.5769,"elev":279,"name":"Ontario Intl, CA, US","cover":"CLR","clouds":[],"fltCat":"VFR"},{"icaoId":"KPIH","receiptTime":"2026-04-18T11:56:25.944Z","obsTime":1776513180,"reportTime":"2026-04-18T12:00:00.000Z","temp":-6.7,"dewp":-11.1,"wdir":320,"wspd":3,"visib":"10+","altim":1024.1,"slp":1025.9,"qcField":4,"presTend":0.4,"maxT":-1.1,"minT":-7.2,"metarType":"METAR","rawOb":"METAR KPIH 181153Z 32003KT 10SM CLR M07/M11 A3024 RMK AO2 SLP259 T10671111 11011 21072 53004","lat":42.9197,"lon":-112.5723,"elev":1357,"name":"Pocatello Rgnl, ID, US","cover":"CLR","clouds":[],"fltCat":"VFR"},{"icaoId":"KPAE","receiptTime":"2026-04-18T11:56:18.661Z","obsTime":1776513180,"reportTime":"2026-04-18T12:00:00.000Z","temp":5.6,"dewp":3.9,"wdir":0,"wspd":0,"visib":"10+","altim":1018.7,"slp":1018.9,"qcField":6,"presTend":-1.1,"maxT":8.3,"minT":5,"metarType":"METAR","rawOb":"METAR KPAE 181153Z AUTO 00000KT 10SM CLR 06/04 A3008 RMK AO2 SLP189 T00560039 10083 20050 56011","lat":47.9232,"lon":-122.2831,"elev":166,"name":"Everett/Paine Fld, WA, US","cover":"CLR","clouds":[],"fltCat":"VFR"},{"icaoId":"KRDD","receiptTime":"2026-04-18T11:56:17.761Z","obsTime":1776513180,"reportTime":"2026-04-18T12:00:00.000Z","temp":6.7,"dewp":2.2,"wdir":340,"wspd":3,"visib":"10+","altim":1016.3,"slp":1015.9,"qcField":6,"presTend":-0.5,"maxT":11.7,"minT":6.1,"metarType":"METAR","rawOb":"METAR KRDD 181153Z AUTO 34003KT 10SM CLR 07/02 A3001 RMK AO2 SLP159 T00670022 10117 20061 56005","lat":40.5146,"lon":-122.2977,"elev":152,"name":"Redding Muni, CA, US","cover":"CLR","clouds":[],"fltCat":"VFR"},{"icaoId":"KPUW","receiptTime":"2026-04-18T11:56:17.683Z","obsTime":1776513180,"reportTime":"2026-04-18T12:00:00.000Z","temp":2.2,"dewp":-1.7,"wdir":100,"wspd":14,"visib":"10+","altim":1021.8,"slp":1023.2,"qcField":6,"presTend":-0.8,"maxT":2.2,"minT":0.6,"metarType":"METAR","rawOb":"METAR KPUW 181153Z AUTO 10014KT 10SM CLR 02/M02 A3017 RMK AO2 SLP232 T00221017 10022 20006 56008","lat":46.7438,"lon":-117.1158,"elev":774,"name":"Pullman/Moscow Rgnl, WA, US","cover":"CLR","clouds":[],"fltCat":"VFR"},{"icaoId":"KPSP","receiptTime":"2026-04-18T11:56:17.631Z","obsTime":1776513180,"reportTime":"2026-04-18T12:00:00.000Z","temp":17.8,"dewp":-12.2,"wdir":290,"wspd":5,"visib":"10+","altim":1015,"slp":1014.6,"qcField":14,"presTend":-0.3,"maxT":22.8,"minT":16.1,"metarType":"METAR","rawOb":"METAR KPSP 181153Z AUTO 29005KT 10SM CLR 18/M12 A2997 RMK AO2 SLP146 T01781122 10228 20161 55003 $","lat":33.8222,"lon":-116.5043,"elev":123,"name":"Palm Springs Intl, CA, US","cover":"CLR","clouds":[],"fltCat":"VFR"},{"icaoId":"KPSC","receiptTime":"2026-04-18T11:56:17.619Z","obsTime":1776513180,"reportTime":"2026-04-18T12:00:00.000Z","temp":2.8,"dewp":0,"wdir":0,"wspd":0,"visib":"10+","altim":1021.4,"slp":1021.6,"qcField":6,"presTend":-0.2,"maxT":4.4,"minT":0,"metarType":"METAR","rawOb":"METAR KPSC 181153Z AUTO 00000KT 10SM CLR 03/00 A3016 RMK AO2 SLP216 T00280000 10044 20000 56002","lat":46.2695,"lon":-119.1182,"elev":121,"name":"Pasco/Tri Cities Arpt, WA, US","cover":"CLR","clouds":[],"fltCat":"VFR"},{"icaoId":"KMYF","receiptTime":"2026-04-18T11:56:16.606Z","obsTime":1776513180,"reportTime":"2026-04-18T12:00:00.000Z","temp":13.9,"dewp":11.1,"wdir":0,"wspd":0,"visib":"10+","altim":1014,"slp":1013.4,"qcField":6,"presTend":-1.6,"maxT":15.6,"minT":12.8,"metarType":"METAR","rawOb":"METAR KMYF 181153Z AUTO 00000KT 10SM CLR 14/11 A2994 RMK AO2 SLP134 T01390111 10156 20128 56016","lat":32.8145,"lon":-117.1375,"elev":128,"name":"San Diego/Montgomery Arpt, CA, US","cover":"CLR","clouds":[],"fltCat":"VFR"},{"icaoId":"KMTJ","receiptTime":"2026-04-18T11:56:16.559Z","obsTime":1776513180,"reportTime":"2026-04-18T12:00:00.000Z","temp":-5,"dewp":-8.3,"wdir":150,"wspd":5,"visib":"10+","altim":1025.8,"slp":1026,"qcField":6,"presTend":1.4,"maxT":-1.1,"minT":-5,"pcp24hr":0.03,"metarType":"METAR","rawOb":"METAR KMTJ 181153Z AUTO 15005KT 10SM CLR M05/M08 A3029 RMK AO2 SLP260 70003 T10501083 11011 21050 53014","lat":38.5054,"lon":-107.8981,"elev":1755,"name":"Montrose Rgnl, CO, US","cover":"CLR","clouds":[],"fltCat":"VFR"},{"icaoId":"KMCO","receiptTime":"2026-04-18T11:56:16.467Z","obsTime":1776513180,"reportTime":"2026-04-18T12:00:00.000Z","temp":20.6,"dewp":20,"wdir":90,"wspd":3,"visib":"10+","altim":1017.7,"slp":1017.5,"qcField":4,"presTend":1.7,"maxT":21.1,"minT":18.9,"metarType":"METAR","rawOb":"METAR KMCO 181153Z 09003KT 10SM SCT250 21/20 A3005 RMK AO2 SLP175 T02060200 10211 20189 51017","lat":28.4182,"lon":-81.3241,"elev":27,"name":"Orlando Intl, FL, US","cover":"SCT","clouds":[{"cover":"SCT","base":25000}],"fltCat":"VFR"},{"icaoId":"KCDC","receiptTime":"2026-04-18T11:56:14.134Z","obsTime":1776513180,"reportTime":"2026-04-18T12:00:00.000Z","temp":-4.4,"dewp":-9.4,"wdir":0,"wspd":0,"visib":"10+","altim":1023.1,"slp":1022.9,"qcField":6,"presTend":0.2,"maxT":0.6,"minT":-5,"metarType":"METAR","rawOb":"METAR KCDC 181153Z AUTO 00000KT 10SM CLR M04/M09 A3021 RMK AO2 SLP229 T10441094 10006 21050 53002","lat":37.7067,"lon":-113.097,"elev":1703,"name":"Cedar City Muni, UT, US","cover":"CLR","clouds":[],"fltCat":"VFR"},{"icaoId":"KBTM","receiptTime":"2026-04-18T11:56:14.007Z","obsTime":1776513180,"reportTime":"2026-04-18T12:00:00.000Z","temp":-6.7,"dewp":-9.4,"wdir":0,"wspd":0,"visib":"10+","altim":1022.4,"slp":1025.8,"qcField":6,"presTend":0.1,"maxT":-0.6,"minT":-7.2,"metarType":"METAR","rawOb":"METAR KBTM 181153Z AUTO 00000KT 10SM CLR M07/M09 A3019 RMK AO2 SLP258 T10671094 11006 21072 53001","lat":45.9644,"lon":-112.5015,"elev":1680,"name":"Butte/Mooney Arpt, MT, US","cover":"CLR","clouds":[],"fltCat":"VFR"},{"icaoId":"KCRQ","receiptTime":"2026-04-18T11:56:25.592Z","obsTime":1776513180,"reportTime":"2026-04-18T12:00:00.000Z","temp":13.9,"dewp":11.7,"wdir":0,"wspd":0,"visib":"10+","altim":1013.6,"slp":1013.2,"qcField":6,"presTend":-1.5,"maxT":16.1,"minT":13.9,"metarType":"METAR","rawOb":"METAR KCRQ 181153Z AUTO 00000KT 10SM CLR 14/12 A2993 RMK AO2 SLP132 T01390117 10161 20139 56015","lat":33.1299,"lon":-117.2765,"elev":96,"name":"Carlsbad/Palomar Arpt, CA, US","cover":"CLR","clouds":[],"fltCat":"VFR"},{"icaoId":"KAUS","receiptTime":"2026-04-18T11:56:13.635Z","obsTime":1776513180,"reportTime":"2026-04-18T12:00:00.000Z","temp":20.6,"dewp":19.4,"wdir":190,"wspd":7,"visib":8,"altim":1009.6,"slp":1008.5,"qcField":4,"presTend":-0.4,"maxT":23.3,"minT":20,"metarType":"METAR","rawOb":"METAR KAUS 181153Z 19007KT 8SM FEW019 BKN250 21/19 A2981 RMK AO2 SLP085 T02060194 10233 20200 58004","lat":30.1831,"lon":-97.6806,"elev":148,"name":"Austin/Bergstrom Intl, TX, US","cover":"BKN","clouds":[{"cover":"FEW","base":1900},{"cover":"BKN","base":25000}],"fltCat":"VFR"},{"icaoId":"KAPA","receiptTime":"2026-04-18T11:56:25.029Z","obsTime":1776513180,"reportTime":"2026-04-18T12:00:00.000Z","temp":-2.8,"dewp":-10,"wdir":260,"wspd":9,"visib":"10+","altim":1022.4,"slp":1025.7,"qcField":4,"presTend":1.4,"maxT":-2.8,"minT":-7.8,"pcp24hr":0.12,"metarType":"METAR","rawOb":"METAR KAPA 181153Z 26009KT 10SM FEW080 FEW120 SCT200 M03/M10 A3019 RMK AO2 SLP257 70012 T10281100 11028 21078 53014","lat":39.5599,"lon":-104.8484,"elev":1791,"name":"Denver/Centennial Arpt, CO, US","cover":"SCT","clouds":[{"cover":"FEW","base":8000},{"cover":"FEW","base":12000},{"cover":"SCT","base":20000}],"fltCat":"VFR"},{"icaoId":"KAMA","receiptTime":"2026-04-18T11:56:24.960Z","obsTime":1776513180,"reportTime":"2026-04-18T12:00:00.000Z","temp":1.1,"dewp":-4.4,"wdir":10,"wspd":7,"visib":"10+","altim":1023.5,"slp":1020.4,"qcField":4,"presTend":2.3,"maxT":5.6,"minT":1.1,"metarType":"METAR","rawOb":"METAR KAMA 181153Z 01007KT 10SM CLR 01/M04 A3022 RMK AO2 SLP204 T00111044 10056 20011 53023","lat":35.2203,"lon":-101.7173,"elev":1102,"name":"Amarillo Intl Arpt, TX, US","cover":"CLR","clouds":[],"fltCat":"VFR"},{"icaoId":"KCNM","receiptTime":"2026-04-18T11:56:12.380Z","obsTime":1776513180,"reportTime":"2026-04-18T12:00:00.000Z","temp":7.8,"dewp":-5,"wdir":330,"wspd":16,"visib":"10+","altim":1022.8,"slp":1018.7,"qcField":6,"presTend":3.7,"maxT":22.8,"minT":7.8,"metarType":"METAR","rawOb":"METAR KCNM 181153Z AUTO 33016KT 10SM CLR 08/M05 A3020 RMK AO2 PK WND 34026/1100 SLP187 T00781050 10228 20078 51037","lat":32.3336,"lon":-104.2584,"elev":993,"name":"Carlsbad/Cavern City Air Term, NM, US","cover":"CLR","clouds":[],"fltCat":"VFR"},{"icaoId":"KBHM","receiptTime":"2026-04-18T11:56:12.169Z","obsTime":1776513180,"reportTime":"2026-04-18T12:00:00.000Z","temp":20,"dewp":15,"wdir":220,"wspd":5,"visib":"10+","altim":1015.7,"slp":1014.9,"qcField":4,"presTend":1.7,"maxT":21.7,"minT":18.3,"metarType":"METAR","rawOb":"METAR KBHM 181153Z 22005KT 10SM BKN250 20/15 A2999 RMK AO2 SLP149 T02000150 10217 20183 53017","lat":33.5655,"lon":-86.7449,"elev":191,"name":"Birmingham Intl, AL, US","cover":"BKN","clouds":[{"cover":"BKN","base":25000}],"fltCat":"VFR"},{"icaoId":"KSNA","receiptTime":"2026-04-18T11:56:27.236Z","obsTime":1776513180,"reportTime":"2026-04-18T12:00:00.000Z","temp":15,"dewp":12.2,"wdir":0,"wspd":0,"visib":"10+","altim":1014,"slp":1013.6,"qcField":6,"presTend":-1,"maxT":17.8,"minT":15,"metarType":"METAR","rawOb":"METAR KSNA 181153Z AUTO 00000KT 10SM CLR 15/12 A2994 RMK AO2 SLP136 T01500122 10178 20150 56010","lat":33.6798,"lon":-117.8675,"elev":14,"name":"Santa Ana/Wayne Arpt, CA, US","cover":"CLR","clouds":[],"fltCat":"VFR"},{"icaoId":"KELY","receiptTime":"2026-04-18T11:56:25.706Z","obsTime":1776513180,"reportTime":"2026-04-18T12:00:00.000Z","temp":-8.9,"dewp":-15,"wdir":180,"wspd":8,"visib":"10+","altim":1023.1,"slp":1023.4,"qcField":14,"maxT":-3.9,"minT":-10,"metarType":"METAR","rawOb":"METAR KELY 181153Z AUTO 18008KT 10SM CLR M09/M15 A3021 RMK AO2 SLP234 T10891150 11039 21100 50000 $","lat":39.2954,"lon":-114.8466,"elev":1906,"name":"Ely/Yelland Fld, NV, US","cover":"CLR","clouds":[],"fltCat":"VFR"},{"icaoId":"KBIL","receiptTime":"2026-04-18T11:56:12.181Z","obsTime":1776513180,"reportTime":"2026-04-18T12:00:00.000Z","temp":-0.6,"dewp":-3.9,"wdir":240,"wspd":10,"visib":"10+","altim":1020.4,"slp":1022.8,"qcField":12,"presTend":0.2,"maxT":1.1,"minT":-1.1,"metarType":"METAR","rawOb":"METAR KBIL 181153Z 24010KT 10SM FEW055 SCT090 M01/M04 A3013 RMK AO2 SLP228 T10061039 10011 21011 52002 $","lat":45.8072,"lon":-108.5462,"elev":1089,"name":"Billings/Logan Intl, MT, US","cover":"SCT","clouds":[{"cover":"FEW","base":5500},{"cover":"SCT","base":9000}],"fltCat":"VFR"},{"icaoId":"KBLI","receiptTime":"2026-04-18T11:56:13.817Z","obsTime":1776513180,"reportTime":"2026-04-18T12:00:00.000Z","temp":3.3,"dewp":2.2,"wdir":0,"wspd":0,"visib":"10+","altim":1019.4,"slp":1020,"qcField":6,"presTend":-0.7,"maxT":7.2,"minT":2.2,"metarType":"METAR","rawOb":"METAR KBLI 181153Z AUTO 00000KT 10SM CLR 03/02 A3010 RMK AO2 SLP200 T00330022 10072 20022 56007","lat":48.7991,"lon":-122.5407,"elev":46,"name":"Bellingham Intl, WA, US","cover":"CLR","clouds":[],"fltCat":"VFR"},{"icaoId":"KMFE","receiptTime":"2026-04-18T11:56:16.507Z","obsTime":1776513180,"reportTime":"2026-04-18T12:00:00.000Z","temp":24.4,"dewp":21.7,"wdir":150,"wspd":10,"wgst":20,"visib":"10+","altim":1007.9,"slp":1007.5,"qcField":4,"presTend":-0.3,"maxT":25.6,"minT":24.4,"metarType":"METAR","rawOb":"METAR KMFE 181153Z 15010G20KT 10SM BKN016 OVC022 24/22 A2976 RMK AO2 SLP075 T02440217 10256 20244 55003","lat":26.1791,"lon":-98.2445,"elev":29,"name":"McAllen/Miller Intl, TX, US","cover":"OVC","clouds":[{"cover":"BKN","base":1600},{"cover":"OVC","base":2200}],"fltCat":"MVFR"},{"icaoId":"KSAF","receiptTime":"2026-04-18T11:56:27.047Z","obsTime":1776513180,"reportTime":"2026-04-18T12:00:00.000Z","temp":-3.3,"dewp":-17.8,"wdir":170,"wspd":3,"visib":"10+","altim":1022.4,"slp":1019.1,"qcField":6,"presTend":0.9,"maxT":2.2,"minT":-3.3,"metarType":"METAR","rawOb":"METAR KSAF 181153Z AUTO 17003KT 10SM CLR M03/M18 A3019 RMK AO2 SLP191 T10331178 10022 21033 53009","lat":35.611,"lon":-106.0957,"elev":1918,"name":"Santa Fe Cnty Muni, NM, US","cover":"CLR","clouds":[],"fltCat":"VFR"},{"icaoId":"KACV","receiptTime":"2026-04-18T11:56:24.832Z","obsTime":1776513180,"reportTime":"2026-04-18T12:00:00.000Z","temp":4.4,"dewp":3.9,"wdir":80,"wspd":5,"visib":"10+","altim":1017.7,"slp":1018.1,"qcField":6,"presTend":-0.8,"maxT":6.1,"minT":3.9,"metarType":"METAR","rawOb":"METAR KACV 181153Z AUTO 08005KT 10SM OVC010 04/04 A3005 RMK AO2 SLP181 T00440039 10061 20039 57008","lat":40.9784,"lon":-124.1048,"elev":63,"name":"Arcata Arpt, CA, US","cover":"OVC","clouds":[{"cover":"OVC","base":1000}],"fltCat":"MVFR"},{"icaoId":"KMLC","receiptTime":"2026-04-18T11:56:28.078Z","obsTime":1776513180,"reportTime":"2026-04-18T12:00:00.000Z","temp":9.4,"dewp":6.7,"wdir":360,"wspd":11,"visib":"10+","altim":1016.7,"slp":1016,"qcField":6,"presTend":3.6,"maxT":14.4,"minT":9.4,"pcp6hr":0.54,"pcp24hr":0.55,"metarType":"METAR","rawOb":"METAR KMLC 181153Z AUTO 36011KT 10SM BKN070 OVC095 09/07 A3002 RMK AO2 SLP160 60054 70055 T00940067 10144 20094 51036","lat":34.8824,"lon":-95.7815,"elev":231,"name":"McAlester Rgnl, OK, US","cover":"OVC","clouds":[{"cover":"BKN","base":7000},{"cover":"OVC","base":9500}],"fltCat":"VFR"},{"icaoId":"KIDA","receiptTime":"2026-04-18T11:56:28.137Z","obsTime":1776513180,"reportTime":"2026-04-18T12:00:00.000Z","temp":-3.9,"dewp":-9.4,"wdir":210,"wspd":5,"visib":"10+","altim":1024.5,"slp":1026.6,"qcField":6,"presTend":0.7,"maxT":0.6,"minT":-5.6,"metarType":"METAR","rawOb":"METAR KIDA 181153Z AUTO 21005KT 10SM CLR M04/M09 A3025 RMK AO2 SLP266 T10391094 10006 21056 51007","lat":43.5204,"lon":-112.0675,"elev":1444,"name":"Idaho Falls Rgnl, ID, US","cover":"CLR","clouds":[],"fltCat":"VFR"},{"icaoId":"KDRO","receiptTime":"2026-04-18T11:56:24.432Z","obsTime":1776513180,"reportTime":"2026-04-18T12:00:00.000Z","temp":-8.9,"dewp":-13.3,"wdir":60,"wspd":5,"visib":"10+","altim":1022.8,"slp":1024.6,"qcField":6,"presTend":1.1,"maxT":-2.8,"minT":-10,"metarType":"METAR","rawOb":"METAR KDRO 181153Z AUTO 06005KT 10SM CLR M09/M13 A3020 RMK AO2 SLP246 T10891133 11028 21100 53011","lat":37.1431,"lon":-107.7602,"elev":2021,"name":"Durango/La Plata Cnty, CO, US","cover":"CLR","clouds":[],"fltCat":"VFR"},{"icaoId":"KCYS","receiptTime":"2026-04-18T11:56:13.803Z","obsTime":1776513180,"reportTime":"2026-04-18T12:00:00.000Z","temp":-5.6,"dewp":-11.1,"wdir":280,"wspd":6,"visib":"10+","altim":1020.7,"slp":1023.8,"qcField":4,"presTend":1,"maxT":-2.2,"minT":-5.6,"pcp24hr":0.05,"metarType":"METAR","rawOb":"METAR KCYS 181153Z 28006KT 10SM CLR M06/M11 A3014 RMK AO2 SLP238 70005 T10561111 11022 21056 53010","lat":41.1579,"lon":-104.8081,"elev":1868,"name":"Cheyenne Rgnl, WY, US","cover":"CLR","clouds":[],"fltCat":"VFR"},{"icaoId":"KLAW","receiptTime":"2026-04-18T11:56:27.743Z","obsTime":1776513180,"reportTime":"2026-04-18T12:00:00.000Z","temp":8.3,"dewp":0,"wdir":360,"wspd":14,"wgst":24,"visib":"10+","altim":1019,"slp":1018.7,"qcField":6,"presTend":4.1,"maxT":12.8,"minT":8.3,"pcp6hr":0.03,"pcp24hr":0.36,"metarType":"METAR","rawOb":"METAR KLAW 181153Z AUTO 36014G24KT 10SM FEW075 08/00 A3009 RMK AO2 PRESRR SLP187 60003 70036 T00830000 10128 20083 51041","lat":34.5577,"lon":-98.4172,"elev":328,"name":"Lawton-Fort Sill Rgnl, OK, US","cover":"FEW","clouds":[{"cover":"FEW","base":7500}],"fltCat":"VFR"},{"icaoId":"KSJC","receiptTime":"2026-04-18T11:56:27.188Z","obsTime":1776513180,"reportTime":"2026-04-18T12:00:00.000Z","temp":8.9,"dewp":2.8,"wdir":170,"wspd":3,"visib":"10+","altim":1016.3,"slp":1016,"qcField":6,"presTend":-1.1,"maxT":13.9,"minT":8.3,"metarType":"METAR","rawOb":"METAR KSJC 181153Z AUTO 17003KT 10SM CLR 09/03 A3001 RMK AO2 SLP160 T00890028 10139 20083 56011","lat":37.3594,"lon":-121.9244,"elev":13,"name":"San Jose Intl Arpt, CA, US","cover":"CLR","clouds":[],"fltCat":"VFR"},{"icaoId":"KBFI","receiptTime":"2026-04-18T11:56:12.114Z","obsTime":1776513180,"reportTime":"2026-04-18T12:00:00.000Z","temp":7.2,"dewp":4.4,"wdir":0,"wspd":0,"visib":"10+","altim":1019,"slp":1018.8,"qcField":4,"presTend":-1,"maxT":10.6,"minT":7.2,"metarType":"METAR","rawOb":"METAR KBFI 181153Z 00000KT 10SM CLR 07/04 A3009 RMK AO2 SLP188 T00720044 10106 20072 56010","lat":47.5455,"lon":-122.3148,"elev":7,"name":"Seattle/Boeing Fld, WA, US","cover":"CLR","clouds":[],"fltCat":"VFR"},{"icaoId":"KSTS","receiptTime":"2026-04-18T11:56:23.387Z","obsTime":1776513180,"reportTime":"2026-04-18T12:00:00.000Z","temp":5,"dewp":4.4,"wdir":0,"wspd":0,"visib":7,"altim":1016.3,"slp":1015.6,"qcField":6,"presTend":-0.8,"maxT":9.4,"minT":5,"metarType":"METAR","rawOb":"METAR KSTS 181153Z AUTO 00000KT 7SM CLR 05/04 A3001 RMK AO2 SLP156 T00500044 10094 20050 56008","lat":38.5037,"lon":-122.811,"elev":35,"name":"Santa Rosa/Schulz Arpt, CA, US","cover":"CLR","clouds":[],"fltCat":"VFR"},{"icaoId":"KSBA","receiptTime":"2026-04-18T11:56:27.058Z","obsTime":1776513180,"reportTime":"2026-04-18T12:00:00.000Z","temp":10,"dewp":5.6,"wdir":0,"wspd":0,"visib":"10+","altim":1013.3,"slp":1013.2,"qcField":12,"presTend":-0.9,"maxT":16.1,"minT":9.4,"metarType":"METAR","rawOb":"METAR KSBA 181153Z 00000KT 10SM CLR 10/06 A2992 RMK AO2 SLP132 T01000056 10161 20094 56009 $","lat":34.4241,"lon":-119.8425,"elev":2,"name":"Santa Barbara Muni, CA, US","cover":"CLR","clouds":[],"fltCat":"VFR"},{"icaoId":"KMSP","receiptTime":"2026-04-18T11:56:26.924Z","obsTime":1776513180,"reportTime":"2026-04-18T12:00:00.000Z","temp":-1.1,"dewp":-10,"wdir":310,"wspd":16,"wgst":25,"visib":"10+","altim":1011.9,"slp":1012.6,"qcField":4,"presTend":1.9,"maxT":1.7,"minT":-1.1,"pcp24hr":0.11,"metarType":"METAR","rawOb":"METAR KMSP 181153Z 31016G25KT 10SM OVC036 M01/M10 A2988 RMK AO2 PK WND 30028/1102 SLP126 70011 T10111100 10017 21011 53019","lat":44.8852,"lon":-93.2313,"elev":255,"name":"Minneapolis-St Paul Intl, MN, US","cover":"OVC","clouds":[{"cover":"OVC","base":3600}],"fltCat":"VFR"},{"icaoId":"KCLL","receiptTime":"2026-04-18T11:56:25.568Z","obsTime":1776513180,"reportTime":"2026-04-18T12:00:00.000Z","temp":21.1,"dewp":20,"wdir":190,"wspd":6,"visib":8,"altim":1010.6,"slp":1009.9,"qcField":6,"presTend":0.6,"maxT":22.2,"minT":21.1,"metarType":"METAR","rawOb":"METAR KCLL 181153Z AUTO 19006KT 8SM OVC006 21/20 A2984 RMK AO2 SLP099 T02110200 10222 20211 53006","lat":30.5912,"lon":-96.3631,"elev":96,"name":"College Station/Easterwood Arpt, TX, US","cover":"OVC","clouds":[{"cover":"OVC","base":600}],"fltCat":"IFR"},{"icaoId":"KRTN","receiptTime":"2026-04-18T11:56:18.634Z","obsTime":1776513180,"reportTime":"2026-04-18T12:00:00.000Z","temp":-6.7,"dewp":-8.3,"wdir":30,"wspd":3,"visib":"10+","altim":1022.8,"slp":1023.3,"qcField":6,"presTend":1.3,"maxT":-1.7,"minT":-7.2,"metarType":"METAR","rawOb":"METAR KRTN 181153Z AUTO 03003KT 10SM CLR M07/M08 A3020 RMK AO2 SLP233 T10671083 11017 21072 53013","lat":36.7418,"lon":-104.5076,"elev":1939,"name":"Raton/Crews Fld, NM, US","cover":"CLR","clouds":[],"fltCat":"VFR"},{"icaoId":"KDAL","receiptTime":"2026-04-18T11:56:25.659Z","obsTime":1776513180,"reportTime":"2026-04-18T12:00:00.000Z","temp":14,"dewp":13,"wdir":360,"wspd":16,"wgst":28,"visib":6,"altim":1014.3,"slp":1013.7,"qcField":4,"wxString":"TSRA BR","precip":0.06,"pcp6hr":0.22,"metarType":"METAR","rawOb":"METAR KDAL 181153Z 36016G28KT 6SM TSRA BR FEW008 BKN013CB OVC065 14/13 A2995 RMK AO2 PK WND 33028/1149 WSHFT 1127 TSE19B39 SLP137 OCNL LTGICCC OHD ALQDS AND DSNT NE SW-W TS OHD ALQDS MOV NE CB DSNT NE SW-W MOV NE P0006 60022 7","lat":32.8384,"lon":-96.8358,"elev":148,"name":"Dallas/Love Fld, TX, US","cover":"OVC","clouds":[{"cover":"FEW","base":800},{"cover":"BKN","base":1300},{"cover":"OVC","base":6500}],"fltCat":"MVFR"},{"icaoId":"KLBB","receiptTime":"2026-04-18T11:56:26.390Z","obsTime":1776513180,"reportTime":"2026-04-18T12:00:00.000Z","temp":4.4,"dewp":-5.6,"wdir":10,"wspd":12,"visib":"10+","altim":1021.4,"slp":1017.8,"qcField":4,"presTend":1.9,"maxT":11.7,"minT":4.4,"metarType":"METAR","rawOb":"METAR KLBB 181153Z 01012KT 10SM FEW040 SCT150 04/M06 A3016 RMK AO2 SLP178 T00441056 10117 20044 51019","lat":33.6658,"lon":-101.8233,"elev":996,"name":"Lubbock Intl Arpt, TX, US","cover":"SCT","clouds":[{"cover":"FEW","base":4000},{"cover":"SCT","base":15000}],"fltCat":"VFR"},{"icaoId":"KMLS","receiptTime":"2026-04-18T11:56:26.803Z","obsTime":1776513180,"reportTime":"2026-04-18T12:00:00.000Z","temp":-5,"dewp":-6.7,"wdir":280,"wspd":4,"visib":"10+","altim":1019.4,"slp":1021.7,"qcField":6,"presTend":0.2,"maxT":-1.1,"minT":-5.6,"metarType":"METAR","rawOb":"METAR KMLS 181153Z AUTO 28004KT 10SM CLR M05/M07 A3010 RMK AO2 SLP217 T10501067 11011 21056 53002","lat":46.4265,"lon":-105.8834,"elev":800,"name":"Miles City/Wiley Fld, MT, US","cover":"CLR","clouds":[],"fltCat":"VFR"},{"icaoId":"KFUL","receiptTime":"2026-04-18T11:56:27.520Z","obsTime":1776513180,"reportTime":"2026-04-18T12:00:00.000Z","temp":15,"dewp":12.2,"wdir":0,"wspd":0,"visib":"10+","altim":1013.6,"slp":1013.5,"qcField":6,"presTend":-1,"maxT":18.3,"minT":14.4,"metarType":"METAR","rawOb":"METAR KFUL 181153Z AUTO 00000KT 10SM CLR 15/12 A2993 RMK AO2 SLP135 T01500122 10183 20144 56010","lat":33.8715,"lon":-117.9856,"elev":23,"name":"Fullerton Muni, CA, US","cover":"CLR","clouds":[],"fltCat":"VFR"},{"icaoId":"KGTF","receiptTime":"2026-04-18T11:56:25.149Z","obsTime":1776513180,"reportTime":"2026-04-18T12:00:00.000Z","temp":-3.3,"dewp":-5.6,"wdir":210,"wspd":9,"visib":"10+","altim":1019.7,"slp":1023.9,"qcField":4,"presTend":0.3,"maxT":-0.6,"minT":-3.3,"metarType":"METAR","rawOb":"METAR KGTF 181153Z 21009KT 10SM CLR M03/M06 A3011 RMK AO2 SLP239 T10331056 11006 21033 51003","lat":47.4733,"lon":-111.3828,"elev":1117,"name":"Great Falls Intl, MT, US","cover":"CLR","clouds":[],"fltCat":"VFR"},{"icaoId":"KHIO","receiptTime":"2026-04-18T11:56:25.323Z","obsTime":1776513180,"reportTime":"2026-04-18T12:00:00.000Z","temp":3.9,"dewp":2.8,"wdir":270,"wspd":4,"visib":"10+","altim":1018.4,"slp":1018.1,"qcField":6,"presTend":-0.6,"maxT":6.7,"minT":3.3,"metarType":"METAR","rawOb":"METAR KHIO 181153Z AUTO 27004KT 10SM CLR 04/03 A3007 RMK AO2 SLP181 T00390028 10067 20033 55006","lat":45.5476,"lon":-122.9557,"elev":62,"name":"Portland/Hillsboro Arpt, OR, US","cover":"CLR","clouds":[],"fltCat":"VFR"},{"icaoId":"KTPA","receiptTime":"2026-04-18T11:56:24.224Z","obsTime":1776513180,"reportTime":"2026-04-18T12:00:00.000Z","temp":22.8,"dewp":20,"wdir":150,"wspd":3,"visib":"10+","altim":1016.7,"slp":1016.6,"qcField":4,"presTend":1,"maxT":22.8,"minT":20.6,"metarType":"METAR","rawOb":"METAR KTPA 181153Z 15003KT 10SM FEW060 SCT110 SCT250 23/20 A3002 RMK AO2 SLP166 T02280200 10228 20206 53010","lat":27.9633,"lon":-82.54,"elev":2,"name":"Tampa Intl Arpt, FL, US","cover":"SCT","clouds":[{"cover":"FEW","base":6000},{"cover":"SCT","base":11000},{"cover":"SCT","base":25000}],"fltCat":"VFR"},{"icaoId":"KHLN","receiptTime":"2026-04-18T11:56:25.401Z","obsTime":1776513180,"reportTime":"2026-04-18T12:00:00.000Z","temp":0,"dewp":-8.9,"wdir":0,"wspd":0,"visib":"10+","altim":1021.8,"slp":1025.6,"qcField":4,"presTend":0.3,"maxT":2.8,"minT":-1.1,"metarType":"METAR","rawOb":"METAR KHLN 181153Z 00000KT 10SM CLR 00/M09 A3017 RMK AO2 SLP256 T00001089 10028 21011 53003","lat":46.6045,"lon":-111.9892,"elev":1178,"name":"Helena Rgnl, MT, US","cover":"CLR","clouds":[],"fltCat":"VFR"},{"icaoId":"KHOU","receiptTime":"2026-04-18T11:56:25.425Z","obsTime":1776513180,"reportTime":"2026-04-18T12:00:00.000Z","temp":21.7,"dewp":20.6,"wdir":190,"wspd":5,"visib":8,"altim":1010.2,"slp":1010.6,"qcField":4,"presTend":-0.3,"maxT":21.7,"minT":20.6,"metarType":"METAR","rawOb":"METAR KHOU 181153Z 19005KT 8SM OVC024 22/21 A2983 RMK AO2 SLP106 T02170206 10217 20206 55003","lat":29.6458,"lon":-95.2821,"elev":13,"name":"Houston/Hobby Arpt, TX, US","cover":"OVC","clouds":[{"cover":"OVC","base":2400}],"fltCat":"MVFR"},{"icaoId":"KIAH","receiptTime":"2026-04-18T11:56:28.103Z","obsTime":1776513180,"reportTime":"2026-04-18T12:00:00.000Z","temp":22.8,"dewp":20.6,"wdir":190,"wspd":3,"visib":7,"altim":1010.6,"slp":1010.3,"qcField":4,"presTend":-0.1,"maxT":22.8,"minT":20.6,"metarType":"METAR","rawOb":"METAR KIAH 181153Z 19003KT 7SM OVC023 23/21 A2984 RMK AO2 SLP103 T02280206 10228 20206 55001","lat":29.9844,"lon":-95.3607,"elev":27,"name":"Houston/Bush Intl, TX, US","cover":"OVC","clouds":[{"cover":"OVC","base":2300}],"fltCat":"MVFR"},{"icaoId":"KIAD","receiptTime":"2026-04-18T11:56:23.824Z","obsTime":1776513120,"reportTime":"2026-04-18T12:00:00.000Z","temp":16.1,"dewp":12.8,"wdir":290,"wspd":4,"visib":"10+","altim":1016,"slp":1015.6,"qcField":4,"presTend":1,"maxT":16.1,"minT":10.6,"metarType":"METAR","rawOb":"METAR KIAD 181152Z 29004KT 10SM FEW090 BKN250 16/13 A3000 RMK AO2 SLP156 T01610128 10161 20106 53010","lat":38.9348,"lon":-77.4473,"elev":90,"name":"Washington/Dulles Intl, VA, US","cover":"BKN","clouds":[{"cover":"FEW","base":9000},{"cover":"BKN","base":25000}],"fltCat":"VFR"},{"icaoId":"KSPS","receiptTime":"2026-04-18T11:56:21.545Z","obsTime":1776513120,"reportTime":"2026-04-18T12:00:00.000Z","temp":8.9,"dewp":1.7,"wdir":360,"wspd":13,"visib":"10+","altim":1018.7,"slp":1017.9,"qcField":14,"presTend":3.4,"maxT":15.6,"minT":8.9,"pcp6hr":0.15,"pcp24hr":0.15,"metarType":"METAR","rawOb":"METAR KSPS 181152Z AUTO 36013KT 10SM CLR 09/02 A3008 RMK AO2 SLP179 60015 70015 T00890017 10156 20089 51034 $","lat":33.9785,"lon":-98.493,"elev":310,"name":"Wichita Falls Rgnl, TX, US","cover":"CLR","clouds":[],"fltCat":"VFR"},{"icaoId":"KATL","receiptTime":"2026-04-18T11:56:24.092Z","obsTime":1776513120,"reportTime":"2026-04-18T12:00:00.000Z","temp":18.9,"dewp":15,"wdir":200,"wspd":3,"visib":"10+","altim":1015.3,"slp":1014.2,"qcField":4,"presTend":0.2,"maxT":21.7,"minT":17.8,"metarType":"METAR","rawOb":"METAR KATL 181152Z 20003KT 10SM SCT200 BKN250 19/15 A2998 RMK AO2 SLP142 VIRGA OHD-E-S-W T01890150 10217 20178 53002","lat":33.6297,"lon":-84.4422,"elev":309,"name":"Atlanta/Hartsfield-Jackson Intl, GA, US","cover":"BKN","clouds":[{"cover":"SCT","base":20000},{"cover":"BKN","base":25000}],"fltCat":"VFR"},{"icaoId":"KCVG","receiptTime":"2026-04-18T11:56:22.507Z","obsTime":1776513120,"reportTime":"2026-04-18T12:00:00.000Z","temp":20.6,"dewp":15,"wdir":200,"wspd":7,"visib":"10+","altim":1008.5,"slp":1007.5,"qcField":4,"presTend":-0.2,"maxT":20.6,"minT":19.4,"metarType":"METAR","rawOb":"METAR KCVG 181152Z 20007KT 10SM FEW049 BKN060 BKN200 21/15 A2978 RMK AO2 SLP075 T02060150 10206 20194 55002","lat":39.0444,"lon":-84.6724,"elev":264,"name":"Cincinnati Intl, KY, US","cover":"BKN","clouds":[{"cover":"FEW","base":4900},{"cover":"BKN","base":6000},{"cover":"BKN","base":20000}],"fltCat":"VFR"},{"icaoId":"KMLF","receiptTime":"2026-04-18T11:56:09.958Z","obsTime":1776513120,"reportTime":"2026-04-18T12:00:00.000Z","temp":-7.8,"dewp":-16.7,"wdir":230,"wspd":4,"visib":"10+","altim":1023.8,"slp":1024.6,"qcField":6,"presTend":0.4,"maxT":-1.1,"minT":-7.8,"metarType":"METAR","rawOb":"METAR KMLF 181152Z AUTO 23004KT 10SM CLR M08/M17 A3023 RMK AO2 SLP246 T10781167 11011 21078 53004","lat":38.4225,"lon":-113.0109,"elev":1537,"name":"Milford Muni, UT, US","cover":"CLR","clouds":[],"fltCat":"VFR"},{"icaoId":"KDCA","receiptTime":"2026-04-18T11:56:23.630Z","obsTime":1776513120,"reportTime":"2026-04-18T12:00:00.000Z","temp":17.8,"dewp":13.9,"wdir":40,"wspd":7,"visib":"10+","altim":1015.7,"slp":1015.4,"qcField":4,"presTend":0.7,"maxT":18.9,"minT":15.6,"metarType":"METAR","rawOb":"METAR KDCA 181152Z 04007KT 10SM BKN250 18/14 A2999 RMK AO2 SLP154 T01780139 10189 20156 53007","lat":38.8472,"lon":-77.0345,"elev":4,"name":"Washington/Reagan-National Arpt, VA, US","cover":"BKN","clouds":[{"cover":"BKN","base":25000}],"fltCat":"VFR"},{"icaoId":"KMKE","receiptTime":"2026-04-18T11:56:03.112Z","obsTime":1776513120,"reportTime":"2026-04-18T12:00:00.000Z","temp":6.7,"dewp":2.2,"wdir":290,"wspd":11,"visib":"10+","altim":1005.8,"slp":1005.9,"qcField":12,"presTend":3.5,"maxT":17.2,"minT":6.7,"pcp6hr":0.01,"pcp24hr":0.98,"metarType":"METAR","rawOb":"METAR KMKE 181152Z 29011KT 10SM BKN024 OVC230 07/02 A2970 RMK AO2 SLP059 60001 70098 T00670022 10172 20067 51035 $","lat":42.9549,"lon":-87.9045,"elev":203,"name":"Milwaukee/Mitchell Intl, WI, US","cover":"OVC","clouds":[{"cover":"BKN","base":2400},{"cover":"OVC","base":23000}],"fltCat":"MVFR"},{"icaoId":"KABQ","receiptTime":"2026-04-18T11:56:21.474Z","obsTime":1776513120,"reportTime":"2026-04-18T12:00:00.000Z","temp":3.3,"dewp":-17.8,"wdir":30,"wspd":7,"visib":"10+","altim":1022.8,"slp":1019.3,"qcField":12,"presTend":0.6,"maxT":8.9,"minT":3.3,"metarType":"METAR","rawOb":"METAR KABQ 181152Z 03007KT 10SM CLR 03/M18 A3020 RMK AO2 SLP193 T00331178 10089 20033 53006 $","lat":35.0419,"lon":-106.6154,"elev":1620,"name":"Albuquerque Intl, NM, US","cover":"CLR","clouds":[],"fltCat":"VFR"},{"icaoId":"KHRL","receiptTime":"2026-04-18T11:56:23.801Z","obsTime":1776513120,"reportTime":"2026-04-18T12:00:00.000Z","temp":23.3,"dewp":21.7,"wdir":160,"wspd":13,"visib":"10+","altim":1007.9,"slp":1007.5,"qcField":4,"presTend":-0.3,"maxT":24.4,"minT":23.3,"metarType":"METAR","rawOb":"METAR KHRL 181152Z 16013KT 10SM SCT016 23/22 A2976 RMK AO2 SLP075 T02330217 10244 20233 55003","lat":26.2303,"lon":-97.6556,"elev":9,"name":"Harlingen/Valley Intl, TX, US","cover":"SCT","clouds":[{"cover":"SCT","base":1600}],"fltCat":"VFR"},{"icaoId":"KOKC","receiptTime":"2026-04-18T11:56:21.518Z","obsTime":1776513120,"reportTime":"2026-04-18T12:00:00.000Z","temp":7.2,"dewp":0,"wdir":360,"wspd":16,"wgst":24,"visib":"10+","altim":1019.4,"slp":1018.6,"qcField":12,"presTend":2.9,"maxT":10,"minT":7.2,"pcp6hr":0.04,"pcp24hr":0.41,"metarType":"METAR","rawOb":"METAR KOKC 181152Z 36016G24KT 10SM FEW090 FEW150 07/00 A3010 RMK AO2 PK WND 35027/1104 SLP186 60004 70041 T00720000 10100 20072 53029 $","lat":35.3843,"lon":-97.6003,"elev":391,"name":"Oklahoma City/Will Rogers Intl, OK, US","cover":"FEW","clouds":[{"cover":"FEW","base":9000},{"cover":"FEW","base":15000}],"fltCat":"VFR"},{"icaoId":"KCLT","receiptTime":"2026-04-18T11:56:22.494Z","obsTime":1776513120,"reportTime":"2026-04-18T12:00:00.000Z","temp":18.9,"dewp":12.8,"wdir":0,"wspd":0,"visib":8,"altim":1015,"slp":1015.6,"qcField":4,"presTend":0.3,"maxT":20.6,"minT":14.4,"metarType":"METAR","rawOb":"METAR KCLT 181152Z 00000KT 8SM FEW250 19/13 A2997 RMK AO2 SLP156 T01890128 10206 20144 53003","lat":35.2225,"lon":-80.9543,"elev":223,"name":"Charlotte/Douglas Intl, NC, US","cover":"FEW","clouds":[{"cover":"FEW","base":25000}],"fltCat":"VFR"},{"icaoId":"KCRP","receiptTime":"2026-04-18T11:54:08.330Z","obsTime":1776513060,"reportTime":"2026-04-18T12:00:00.000Z","temp":23.9,"dewp":21.7,"wdir":150,"wspd":10,"visib":"10+","altim":1008.5,"slp":1008.4,"qcField":4,"presTend":-0.2,"maxT":24.4,"minT":23.3,"metarType":"METAR","rawOb":"METAR KCRP 181151Z 15010KT 10SM FEW020 BKN028 OVC250 24/22 A2978 RMK AO2 SLP084 T02390217 10244 20233 55002","lat":27.7734,"lon":-97.513,"elev":11,"name":"Corpus Christi Intl, TX, US","cover":"OVC","clouds":[{"cover":"FEW","base":2000},{"cover":"BKN","base":2800},{"cover":"OVC","base":25000}],"fltCat":"MVFR"},{"icaoId":"KCLE","receiptTime":"2026-04-18T11:54:08.220Z","obsTime":1776513060,"reportTime":"2026-04-18T12:00:00.000Z","temp":20.6,"dewp":8.3,"wdir":190,"wspd":14,"wgst":20,"visib":"10+","altim":1006.9,"slp":1007.7,"qcField":12,"presTend":-1.1,"maxT":20.6,"minT":17.8,"metarType":"METAR","rawOb":"METAR KCLE 181151Z 19014G20KT 10SM BKN160 OVC210 21/08 A2973 RMK AO2 SLP077 T02060083 10206 20178 55011 $","lat":41.4057,"lon":-81.8519,"elev":237,"name":"Cleveland/Hopkins Intl, OH, US","cover":"OVC","clouds":[{"cover":"BKN","base":16000},{"cover":"OVC","base":21000}],"fltCat":"VFR"},{"icaoId":"KACT","receiptTime":"2026-04-18T11:54:08.013Z","obsTime":1776513060,"reportTime":"2026-04-18T12:00:00.000Z","temp":19.4,"dewp":17.8,"wdir":0,"wspd":0,"visib":"10+","altim":1011.6,"slp":1010.7,"qcField":4,"presTend":2.7,"maxT":22.8,"minT":19.4,"metarType":"METAR","rawOb":"METAR KACT 181151Z 00000KT 10SM FEW022 SCT032 BKN040 19/18 A2987 RMK AO2 SLP107 T01940178 10228 20194 50027","lat":31.618,"lon":-97.2283,"elev":150,"name":"Waco Rgnl, TX, US","cover":"BKN","clouds":[{"cover":"FEW","base":2200},{"cover":"SCT","base":3200},{"cover":"BKN","base":4000}],"fltCat":"VFR"},{"icaoId":"KSTL","receiptTime":"2026-04-18T11:54:07.837Z","obsTime":1776513060,"reportTime":"2026-04-18T12:00:00.000Z","temp":8.9,"dewp":7.2,"wdir":300,"wspd":7,"visib":"10+","altim":1013,"slp":1012.1,"qcField":12,"presTend":2.7,"maxT":16.7,"minT":8.9,"precip":0.01,"pcp6hr":0.58,"pcp24hr":0.82,"metarType":"METAR","rawOb":"METAR KSTL 181151Z 30007KT 10SM BKN040 OVC080 09/07 A2991 RMK AO2 RAE30 SLP121 P0001 60058 70082 T00890072 10167 20089 53027 $","lat":38.7525,"lon":-90.3734,"elev":163,"name":"St Louis/Lambert Intl, MO, US","cover":"OVC","clouds":[{"cover":"BKN","base":4000},{"cover":"OVC","base":8000}],"fltCat":"VFR"},{"icaoId":"KPVD","receiptTime":"2026-04-18T11:54:07.664Z","obsTime":1776513060,"reportTime":"2026-04-18T12:00:00.000Z","temp":10.6,"dewp":10,"wdir":30,"wspd":8,"visib":7,"altim":1019.4,"slp":1019.4,"qcField":4,"presTend":1.5,"maxT":10.6,"minT":8.9,"pcp24hr":0.11,"metarType":"METAR","rawOb":"METAR KPVD 181151Z 03008KT 7SM OVC006 11/10 A3010 RMK AO2 SLP194 70011 T01060100 10106 20089 50015","lat":41.7225,"lon":-71.4325,"elev":15,"name":"Providence/Green Mem, RI, US","cover":"OVC","clouds":[{"cover":"OVC","base":600}],"fltCat":"IFR"},{"icaoId":"KPIT","receiptTime":"2026-04-18T11:54:07.636Z","obsTime":1776513060,"reportTime":"2026-04-18T12:00:00.000Z","temp":17.2,"dewp":9.4,"wdir":170,"wspd":8,"visib":"10+","altim":1011.6,"slp":1011.7,"qcField":4,"presTend":-0.5,"maxT":17.2,"minT":15,"metarType":"METAR","rawOb":"METAR KPIT 181151Z 17008KT 10SM FEW130 OVC220 17/09 A2987 RMK AO2 SLP117 T01720094 10172 20150 55005","lat":40.4814,"lon":-80.2083,"elev":339,"name":"Pittsburgh Intl, PA, US","cover":"OVC","clouds":[{"cover":"FEW","base":13000},{"cover":"OVC","base":22000}],"fltCat":"VFR"},{"icaoId":"KOXR","receiptTime":"2026-04-18T11:54:07.613Z","obsTime":1776513060,"reportTime":"2026-04-18T12:00:00.000Z","temp":10.6,"dewp":5,"wdir":0,"wspd":0,"visib":"10+","altim":1013.6,"slp":1013.3,"qcField":14,"presTend":-0.8,"maxT":14.4,"minT":10.6,"metarType":"METAR","rawOb":"METAR KOXR 181151Z AUTO 00000KT 10SM CLR 11/05 A2993 RMK AO2 SLP133 T01060050 10144 20106 56008 $","lat":34.2001,"lon":-119.2042,"elev":12,"name":"Oxnard Arpt, CA, US","cover":"CLR","clouds":[],"fltCat":"VFR"},{"icaoId":"KORF","receiptTime":"2026-04-18T11:54:07.593Z","obsTime":1776513060,"reportTime":"2026-04-18T12:00:00.000Z","temp":20,"dewp":16.1,"wdir":190,"wspd":3,"visib":"10+","altim":1015,"slp":1014.9,"qcField":4,"presTend":0.9,"maxT":20,"minT":16.7,"metarType":"METAR","rawOb":"METAR KORF 181151Z 19003KT 10SM CLR 20/16 A2997 RMK AO2 SLP149 T02000161 10200 20167 53009","lat":36.9037,"lon":-76.1927,"elev":5,"name":"Norfolk Intl, VA, US","cover":"CLR","clouds":[],"fltCat":"VFR"},{"icaoId":"KLGA","receiptTime":"2026-04-18T11:54:07.475Z","obsTime":1776513060,"reportTime":"2026-04-18T12:00:00.000Z","temp":11.1,"dewp":10.6,"wdir":60,"wspd":4,"visib":0.25,"altim":1018,"slp":1018,"qcField":12,"wxString":"FG","presTend":0.7,"maxT":12.8,"minT":11.1,"vertVis":2,"metarType":"METAR","rawOb":"METAR KLGA 181151Z 06004KT 1/4SM R04/0800V1400FT FG VV002 11/11 A3006 RMK AO2 SLP180 T01110106 10128 20111 53007 $","lat":40.7794,"lon":-73.8803,"elev":9,"name":"New York/La Guardia Arpt, NY, US","cover":"OVX","clouds":[{"cover":"OVX","base":200}],"fltCat":"LIFR"},{"icaoId":"KJFK","receiptTime":"2026-04-18T11:54:07.463Z","obsTime":1776513060,"reportTime":"2026-04-18T12:00:00.000Z","temp":13.9,"dewp":10.6,"wdir":60,"wspd":5,"visib":"10+","altim":1018.4,"slp":1018.1,"qcField":4,"presTend":0.4,"maxT":13.9,"minT":10.6,"pcp24hr":0.02,"metarType":"METAR","rawOb":"METAR KJFK 181151Z 06005KT 10SM FEW004 SCT250 14/11 A3007 RMK AO2 SLP181 70002 T01390106 10139 20106 53004","lat":40.6392,"lon":-73.7639,"elev":3,"name":"New York/JF Kennedy Intl, NY, US","cover":"SCT","clouds":[{"cover":"FEW","base":400},{"cover":"SCT","base":25000}],"fltCat":"VFR"},{"icaoId":"KPHX","receiptTime":"2026-04-18T11:54:07.624Z","obsTime":1776513060,"reportTime":"2026-04-18T12:00:00.000Z","temp":19.4,"dewp":-8.3,"wdir":0,"wspd":0,"visib":"10+","altim":1013.3,"slp":1011.6,"qcField":12,"presTend":0.9,"maxT":22.8,"minT":18.3,"metarType":"METAR","rawOb":"METAR KPHX 181151Z 00000KT 10SM CLR 19/M08 A2992 RMK AO2 SLP116 T01941083 10228 20183 53009 $","lat":33.4278,"lon":-112.0037,"elev":338,"name":"Phoenix/Sky Harbor Intl, AZ, US","cover":"CLR","clouds":[],"fltCat":"VFR"},{"icaoId":"KEWR","receiptTime":"2026-04-18T11:54:08.448Z","obsTime":1776513060,"reportTime":"2026-04-18T12:00:00.000Z","temp":14.4,"dewp":11.1,"wdir":"VRB","wspd":3,"visib":9,"altim":1018,"slp":1017.9,"qcField":4,"presTend":0.4,"maxT":14.4,"minT":10.6,"metarType":"METAR","rawOb":"METAR KEWR 181151Z VRB03KT 9SM FEW005 FEW250 14/11 A3006 RMK AO2 SLP179 T01440111 10144 20106 53004","lat":40.6828,"lon":-74.1692,"elev":2,"name":"Newark Intl, NJ, US","cover":"FEW","clouds":[{"cover":"FEW","base":500},{"cover":"FEW","base":25000}],"fltCat":"VFR"},{"icaoId":"KMYL","receiptTime":"2026-04-18T11:54:07.565Z","obsTime":1776513060,"reportTime":"2026-04-18T12:00:00.000Z","temp":-5.6,"dewp":-7.2,"wdir":0,"wspd":0,"visib":"10+","altim":1022.8,"slp":1025.6,"qcField":6,"presTend":-0.2,"maxT":-2.2,"minT":-5.6,"metarType":"METAR","rawOb":"METAR KMYL 181151Z AUTO 00000KT 10SM CLR M06/M07 A3020 RMK AO2 SLP256 T10561072 11022 21056 58002","lat":44.8943,"lon":-116.0998,"elev":1532,"name":"McCall Muni, ID, US","cover":"CLR","clouds":[],"fltCat":"VFR"},{"icaoId":"KIGM","receiptTime":"2026-04-18T11:54:08.533Z","obsTime":1776513060,"reportTime":"2026-04-18T12:00:00.000Z","temp":5.6,"dewp":-18.3,"wdir":10,"wspd":4,"visib":"10+","altim":1018,"slp":1014,"qcField":6,"presTend":-0.1,"maxT":9.4,"minT":2.2,"metarType":"METAR","rawOb":"METAR KIGM 181151Z AUTO 01004KT 10SM CLR 06/M18 A3006 RMK AO2 SLP140 T00561183 10094 20022 58001","lat":35.2575,"lon":-113.9341,"elev":1045,"name":"Kingman Arpt, AZ, US","cover":"CLR","clouds":[],"fltCat":"VFR"},{"icaoId":"KELP","receiptTime":"2026-04-18T11:54:08.412Z","obsTime":1776513060,"reportTime":"2026-04-18T12:00:00.000Z","temp":12.8,"dewp":-10,"wdir":360,"wspd":9,"visib":"10+","altim":1017.4,"slp":1011.6,"qcField":4,"presTend":1.9,"maxT":21.1,"minT":12.8,"metarType":"METAR","rawOb":"METAR KELP 181151Z 36009KT 10SM FEW130 FEW250 13/M10 A3004 RMK AO2 SLP116 T01281100 10211 20128 53019","lat":31.8123,"lon":-106.3774,"elev":1205,"name":"El Paso Intl, TX, US","cover":"FEW","clouds":[{"cover":"FEW","base":13000},{"cover":"FEW","base":25000}],"fltCat":"VFR"},{"icaoId":"KRDU","receiptTime":"2026-04-18T11:54:07.691Z","obsTime":1776513060,"reportTime":"2026-04-18T12:00:00.000Z","temp":16.7,"dewp":12.8,"wdir":0,"wspd":0,"visib":"10+","altim":1015.3,"slp":1015,"qcField":4,"presTend":0.9,"maxT":17.8,"minT":13.9,"metarType":"METAR","rawOb":"METAR KRDU 181151Z 00000KT 10SM FEW200 SCT250 17/13 A2998 RMK AO2 SLP150 T01670128 10178 20139 53009","lat":35.8923,"lon":-78.782,"elev":121,"name":"Raleigh-Durham Intl, NC, US","cover":"SCT","clouds":[{"cover":"FEW","base":20000},{"cover":"SCT","base":25000}],"fltCat":"VFR"},{"icaoId":"KCMH","receiptTime":"2026-04-18T11:54:08.280Z","obsTime":1776513060,"reportTime":"2026-04-18T12:00:00.000Z","temp":21.1,"dewp":9.4,"wdir":190,"wspd":12,"wgst":21,"visib":"10+","altim":1008.5,"slp":1007.8,"qcField":4,"presTend":-0.6,"maxT":21.1,"minT":19.4,"metarType":"METAR","rawOb":"METAR KCMH 181151Z 19012G21KT 10SM SCT055 OVC250 21/09 A2978 RMK AO2 SLP078 T02110094 10211 20194 56006","lat":39.9907,"lon":-82.877,"elev":257,"name":"Columbus/Glenn Intl, OH, US","cover":"OVC","clouds":[{"cover":"SCT","base":5500},{"cover":"OVC","base":25000}],"fltCat":"VFR"},{"icaoId":"KSAD","receiptTime":"2026-04-18T11:54:07.717Z","obsTime":1776513060,"reportTime":"2026-04-18T12:00:00.000Z","temp":9.4,"dewp":-7.8,"wdir":140,"wspd":3,"visib":"10+","altim":1015.7,"slp":1012.1,"qcField":6,"presTend":1,"maxT":16.7,"minT":8.9,"metarType":"METAR","rawOb":"METAR KSAD 181151Z AUTO 14003KT 10SM CLR 09/M08 A2999 RMK AO2 SLP121 T00941078 10167 20089 53010","lat":32.8565,"lon":-109.636,"elev":937,"name":"Safford Rgnl, AZ, US","cover":"CLR","clouds":[],"fltCat":"VFR"},{"icaoId":"KLGU","receiptTime":"2026-04-18T11:54:07.489Z","obsTime":1776513060,"reportTime":"2026-04-18T12:00:00.000Z","temp":-4.4,"dewp":-6.7,"wdir":0,"wspd":0,"visib":"10+","altim":1024.8,"slp":1026.4,"qcField":6,"presTend":0.2,"maxT":0.6,"minT":-5,"metarType":"METAR","rawOb":"METAR KLGU 181151Z AUTO 00000KT 10SM CLR M04/M07 A3026 RMK AO2 SLP264 T10441067 10006 21050 53002","lat":41.7865,"lon":-111.8519,"elev":1359,"name":"Logan/Cache Arpt, UT, US","cover":"CLR","clouds":[],"fltCat":"VFR"},{"icaoId":"KBDL","receiptTime":"2026-04-18T11:54:08.106Z","obsTime":1776513060,"reportTime":"2026-04-18T12:00:00.000Z","temp":11.7,"dewp":10.6,"wdir":340,"wspd":4,"visib":"10+","altim":1019,"slp":1018.9,"qcField":4,"presTend":0.7,"maxT":12.2,"minT":8.9,"metarType":"METAR","rawOb":"METAR KBDL 181151Z 34004KT 10SM FEW003 FEW012 SCT250 12/11 A3009 RMK AO2 SLP189 VIS N-NE 1 T01170106 10122 20089 51007","lat":41.9374,"lon":-72.682,"elev":52,"name":"Hartford/Bradley Intl, CT, US","cover":"SCT","clouds":[{"cover":"FEW","base":300},{"cover":"FEW","base":1200},{"cover":"SCT","base":25000}],"fltCat":"VFR"},{"icaoId":"KROW","receiptTime":"2026-04-18T11:54:07.705Z","obsTime":1776513060,"reportTime":"2026-04-18T12:00:00.000Z","temp":5,"dewp":-5.6,"wdir":330,"wspd":13,"wgst":16,"visib":"10+","altim":1023.1,"slp":1018.6,"qcField":12,"presTend":2,"maxT":13.3,"minT":5,"metarType":"METAR","rawOb":"METAR KROW 181151Z 33013G16KT 10SM CLR 05/M06 A3021 RMK AO2 SLP186 T00501056 10133 20050 51020 $","lat":33.3074,"lon":-104.5082,"elev":1105,"name":"Roswell/Ind Arpt, NM, US","cover":"CLR","clouds":[],"fltCat":"VFR"},{"icaoId":"KVNY","receiptTime":"2026-04-18T11:54:07.898Z","obsTime":1776513060,"reportTime":"2026-04-18T12:00:00.000Z","temp":12.8,"dewp":2.8,"wdir":0,"wspd":0,"visib":"10+","altim":1014,"slp":1013,"qcField":14,"presTend":-1.2,"maxT":19.4,"minT":12.8,"metarType":"METAR","rawOb":"METAR KVNY 181151Z AUTO 00000KT 10SM CLR 13/03 A2994 RMK AO2 SLP130 T01280028 10194 20128 56012 $","lat":34.2121,"lon":-118.4915,"elev":241,"name":"Van Nuys Arpt, CA, US","cover":"CLR","clouds":[],"fltCat":"VFR"},{"icaoId":"KORD","receiptTime":"2026-04-18T11:54:07.580Z","obsTime":1776513060,"reportTime":"2026-04-18T12:00:00.000Z","temp":8.3,"dewp":4.4,"wdir":270,"wspd":14,"wgst":22,"visib":"10+","altim":1006.9,"slp":1006.6,"qcField":12,"presTend":3.4,"maxT":17.2,"minT":8.3,"pcp6hr":0.11,"pcp24hr":0.61,"metarType":"METAR","rawOb":"METAR KORD 181151Z 27014G22KT 10SM BKN017 OVC050 08/04 A2973 RMK AO2 SLP066 CIG 015V020 60011 70061 T00830044 10172 20083 53034 $","lat":41.9602,"lon":-87.9316,"elev":202,"name":"Chicago/O'Hare Intl, IL, US","cover":"OVC","clouds":[{"cover":"BKN","base":1700},{"cover":"OVC","base":5000}],"fltCat":"MVFR"},{"icaoId":"KSAN","receiptTime":"2026-04-18T11:54:07.733Z","obsTime":1776513060,"reportTime":"2026-04-18T12:00:00.000Z","temp":13.9,"dewp":11.7,"wdir":0,"wspd":0,"visib":"10+","altim":1014.3,"slp":1014.1,"qcField":12,"presTend":-1.5,"maxT":16.7,"minT":13.9,"metarType":"METAR","rawOb":"METAR KSAN 181151Z 00000KT 10SM CLR 14/12 A2995 RMK AO2 SLP141 T01390117 10167 20139 56015 $","lat":32.7364,"lon":-117.1973,"elev":3,"name":"San Diego Intl Arpt, CA, US","cover":"CLR","clouds":[],"fltCat":"VFR"},{"icaoId":"KADM","receiptTime":"2026-04-18T11:52:11.957Z","obsTime":1776513000,"reportTime":"2026-04-18T12:00:00.000Z","temp":10,"dewp":5,"wdir":10,"wspd":8,"wgst":14,"visib":"10+","altim":1017.7,"qcField":0,"metarType":"METAR","rawOb":"METAR KADM 181150Z 01008G14KT 10SM OVC065 10/05 A3005","lat":34.3007,"lon":-97.0089,"elev":223,"name":"Ardmore Muni, OK, US","cover":"OVC","clouds":[{"cover":"OVC","base":6500}],"fltCat":"VFR"},{"icaoId":"KHOB","receiptTime":"2026-04-18T11:57:50.273Z","obsTime":1776513000,"reportTime":"2026-04-18T12:00:00.000Z","temp":6,"dewp":-7,"wdir":20,"wspd":18,"wgst":27,"visib":"10+","altim":1021.1,"qcField":0,"metarType":"METAR","rawOb":"METAR KHOB 181150Z 02018G27KT 10SM BKN120 06/M07 A3015","lat":32.6797,"lon":-103.2222,"elev":1112,"name":"Hobbs Arpt, NM, US","cover":"BKN","clouds":[{"cover":"BKN","base":12000}],"fltCat":"VFR"},{"icaoId":"KAEG","receiptTime":"2026-04-18T11:52:49.974Z","obsTime":1776513000,"reportTime":"2026-04-18T12:00:00.000Z","temp":0,"dewp":-19,"wdir":310,"wspd":10,"visib":"10+","altim":1022.4,"qcField":0,"metarType":"METAR","rawOb":"METAR KAEG 181150Z 31010KT 10SM CLR 00/M19 A3019","lat":35.15,"lon":-106.7929,"elev":1771,"name":"Albuquerque/Double Eagle Arpt, NM, US","cover":"CLR","clouds":[],"fltCat":"VFR"},{"icaoId":"KHII","receiptTime":"2026-04-18T11:40:50.061Z","obsTime":1776512100,"reportTime":"2026-04-18T11:35:00.000Z","temp":16,"dewp":-16,"wdir":350,"wspd":8,"visib":"10+","altim":1014.3,"qcField":6,"metarType":"METAR","rawOb":"METAR KHII 181135Z AUTO 35008KT 10SM CLR 16/M16 A2995 RMK AO2","lat":34.5659,"lon":-114.3522,"elev":241,"name":"Lake Havasu City Arpt, AZ, US","cover":"CLR","clouds":[],"fltCat":"VFR"},{"icaoId":"KNYL","receiptTime":"2026-04-18T11:00:48.670Z","obsTime":1776509820,"reportTime":"2026-04-18T11:00:00.000Z","temp":17.2,"dewp":-15.6,"wdir":360,"wspd":4,"visib":"10+","altim":1013,"slp":1012.6,"qcField":6,"metarType":"METAR","rawOb":"METAR KNYL 181057Z AUTO 36004KT 10SM CLR 17/M16 A2991 RMK AO2 SLP126 T01721156","lat":32.66,"lon":-114.6078,"elev":58,"name":"Yuma , AZ, US","cover":"CLR","clouds":[],"fltCat":"VFR"},{"icaoId":"KLGB","receiptTime":"2026-04-18T10:56:19.010Z","obsTime":1776509580,"reportTime":"2026-04-18T11:00:00.000Z","temp":15,"dewp":12.2,"wdir":0,"wspd":0,"visib":"10+","altim":1014,"slp":1013.8,"qcField":14,"metarType":"METAR","rawOb":"METAR KLGB 181053Z AUTO 00000KT 10SM CLR 15/12 A2994 RMK AO2 SLP138 T01500122 $","lat":33.8118,"lon":-118.1472,"elev":10,"name":"Long Beach Arpt, CA, US","cover":"CLR","clouds":[],"fltCat":"VFR"}]