[{"icaoId":"KSOW","receiptTime":"2026-04-07T16:38:30.384Z","obsTime":1775579700,"reportTime":"2026-04-07T16:35:00.000Z","temp":11,"dewp":7,"wdir":360,"wspd":7,"visib":"10+","altim":1022.1,"qcField":6,"metarType":"METAR","rawOb":"METAR KSOW 071635Z AUTO 36007KT 10SM FEW020 11/07 A3018 RMK AO2","lat":34.2686,"lon":-110.0019,"elev":1954,"name":"Show Low Muni, AZ, US","cover":"FEW","clouds":[{"cover":"FEW","base":2000}],"fltCat":"VFR"},{"icaoId":"KHII","receiptTime":"2026-04-07T16:42:07.035Z","obsTime":1775579700,"reportTime":"2026-04-07T16:35:00.000Z","temp":24,"dewp":0,"wdir":0,"wspd":0,"visib":"10+","altim":1013.6,"qcField":6,"metarType":"METAR","rawOb":"METAR KHII 071635Z AUTO 00000KT 10SM CLR 24/00 A2993 RMK AO2","lat":34.5659,"lon":-114.3522,"elev":241,"name":"Lake Havasu City Arpt, AZ, US","cover":"CLR","clouds":[],"fltCat":"VFR"},{"icaoId":"KSEZ","receiptTime":"2026-04-07T16:40:11.128Z","obsTime":1775579700,"reportTime":"2026-04-07T16:35:00.000Z","temp":18,"dewp":4,"wdir":"VRB","wspd":5,"visib":"10+","altim":1019.4,"qcField":6,"metarType":"METAR","rawOb":"METAR KSEZ 071635Z AUTO VRB05KT 10SM CLR 18/04 A3010 RMK AO2","lat":34.8467,"lon":-111.7884,"elev":1455,"name":"Sedona Arpt, AZ, US","cover":"CLR","clouds":[],"fltCat":"VFR"},{"icaoId":"KFLG","receiptTime":"2026-04-07T16:00:29.046Z","obsTime":1775577420,"reportTime":"2026-04-07T16:00:00.000Z","temp":11.7,"dewp":1.7,"wdir":0,"wspd":0,"visib":"10+","altim":1022.1,"slp":1015.9,"qcField":4,"metarType":"METAR","rawOb":"METAR KFLG 071557Z 00000KT 10SM CLR 12/02 A3018 RMK AO2 SLP159 T01170017","lat":35.1443,"lon":-111.6664,"elev":2134,"name":"Flagstaff/Pulliam Arpt, AZ, US","cover":"CLR","clouds":[],"fltCat":"VFR"},{"icaoId":"KNYL","receiptTime":"2026-04-07T16:00:30.590Z","obsTime":1775577420,"reportTime":"2026-04-07T16:00:00.000Z","temp":24.4,"dewp":4.4,"wdir":30,"wspd":8,"visib":"10+","altim":1012.6,"slp":1012.1,"qcField":4,"metarType":"METAR","rawOb":"METAR KNYL 071557Z 03008KT 10SM CLR 24/04 A2990 RMK AO2 SLP121 T02440044","lat":32.66,"lon":-114.6078,"elev":58,"name":"Yuma , AZ, US","cover":"CLR","clouds":[],"fltCat":"VFR"},{"icaoId":"KCGZ","receiptTime":"2026-04-07T15:58:24.328Z","obsTime":1775577360,"reportTime":"2026-04-07T16:00:00.000Z","temp":23.9,"dewp":7.2,"wdir":0,"wspd":0,"visib":"10+","altim":1015,"slp":1013.7,"qcField":14,"metarType":"METAR","rawOb":"METAR KCGZ 071556Z AUTO 00000KT 10SM CLR 24/07 A2997 RMK AO2 SLP137 T02390072 $","lat":32.9531,"lon":-111.7725,"elev":444,"name":"Casa Granda Muni, AZ, US","cover":"CLR","clouds":[],"fltCat":"VFR"},{"icaoId":"KDUG","receiptTime":"2026-04-07T16:04:04.929Z","obsTime":1775577360,"reportTime":"2026-04-07T16:00:00.000Z","temp":16.1,"dewp":5.6,"wdir":0,"wspd":0,"visib":"10+","altim":1017.4,"slp":1012.3,"qcField":38,"metarType":"METAR","rawOb":"METAR KDUG 071556Z AUTO 00000KT 10SM CLR 16/06 A3004 RMK AO2 SLP123 T01610056 TSNO","lat":31.4725,"lon":-109.6022,"elev":1260,"name":"Douglas/Bisbee Intl, AZ, US","cover":"CLR","clouds":[],"fltCat":"VFR"},{"icaoId":"KINW","receiptTime":"2026-04-07T16:00:21.554Z","obsTime":1775577360,"reportTime":"2026-04-07T16:00:00.000Z","temp":12.2,"dewp":9.4,"wdir":110,"wspd":4,"visib":"10+","altim":1020.4,"slp":1017.2,"qcField":6,"metarType":"METAR","rawOb":"METAR KINW 071556Z AUTO 11004KT 10SM CLR 12/09 A3013 RMK AO2 SLP172 T01220094","lat":35.0279,"lon":-110.7221,"elev":1492,"name":"Winslow/Lindberg Rgnl, AZ, US","cover":"CLR","clouds":[],"fltCat":"VFR"},{"icaoId":"KLUF","receiptTime":"2026-04-07T16:04:03.773Z","obsTime":1775577300,"reportTime":"2026-04-07T16:00:00.000Z","temp":23.4,"dewp":4.8,"wdir":0,"wspd":0,"visib":"10+","altim":1013.6,"slp":1012.5,"qcField":12,"metarType":"METAR","rawOb":"METAR KLUF 071555Z 00000KT 10SM CLR 23/05 A2993 RMK AO2A SLP125 T02340048 $","lat":33.538,"lon":-112.38,"elev":333,"name":"Phoenix/Luke AFB, AZ, US","cover":"CLR","clouds":[],"fltCat":"VFR"},{"icaoId":"KIWA","receiptTime":"2026-04-07T16:00:37.165Z","obsTime":1775577240,"reportTime":"2026-04-07T16:00:00.000Z","temp":24,"dewp":8,"wdir":40,"wspd":3,"visib":"10+","altim":1014.6,"qcField":0,"metarType":"METAR","rawOb":"METAR KIWA 071554Z 04003KT 10SM CLR 24/08 A2996","lat":33.3008,"lon":-111.6437,"elev":420,"name":"Phoenix/Mesa Gateway Arpt, AZ, US","cover":"CLR","clouds":[],"fltCat":"VFR"},{"icaoId":"KOLS","receiptTime":"2026-04-07T15:58:11.988Z","obsTime":1775577240,"reportTime":"2026-04-07T16:00:00.000Z","temp":17.8,"dewp":2.2,"wdir":0,"wspd":0,"visib":"10+","altim":1017.4,"slp":1012.2,"qcField":6,"metarType":"METAR","rawOb":"METAR KOLS 071554Z AUTO 00000KT 10SM CLR 18/02 A3004 RMK AO2 SLP122 T01780022","lat":31.4208,"lon":-110.8465,"elev":1194,"name":"Nogales Intl, AZ, US","cover":"CLR","clouds":[],"fltCat":"VFR"},{"icaoId":"KSJN","receiptTime":"2026-04-07T15:58:12.220Z","obsTime":1775577240,"reportTime":"2026-04-07T16:00:00.000Z","temp":10.6,"dewp":5,"wdir":70,"wspd":5,"visib":"10+","altim":1020.1,"slp":1015.8,"qcField":6,"metarType":"METAR","rawOb":"METAR KSJN 071554Z AUTO 07005KT 10SM FEW021 11/05 A3012 RMK AO2 SLP158 T01060050","lat":34.5184,"lon":-109.3801,"elev":1747,"name":"St Johns Ind Arpt, AZ, US","cover":"FEW","clouds":[{"cover":"FEW","base":2100}],"fltCat":"VFR"},{"icaoId":"KGCN","receiptTime":"2026-04-07T15:58:19.242Z","obsTime":1775577240,"reportTime":"2026-04-07T16:00:00.000Z","temp":12.2,"dewp":3.3,"wdir":"VRB","wspd":3,"visib":"10+","altim":1021.8,"slp":1016.3,"qcField":4,"metarType":"METAR","rawOb":"METAR KGCN 071554Z VRB03KT 10SM CLR 12/03 A3017 RMK AO2 SLP163 T01220033","lat":35.9458,"lon":-112.1554,"elev":1993,"name":"Grand Canyon Park Arpt, AZ, US","cover":"CLR","clouds":[],"fltCat":"VFR"},{"icaoId":"KFFZ","receiptTime":"2026-04-07T15:58:21.762Z","obsTime":1775577240,"reportTime":"2026-04-07T16:00:00.000Z","temp":23.3,"dewp":7.8,"wdir":20,"wspd":5,"visib":"10+","altim":1014.3,"slp":1012.1,"qcField":4,"metarType":"METAR","rawOb":"METAR KFFZ 071554Z 02005KT 10SM CLR 23/08 A2995 RMK AO2 SLP121 T02330078","lat":33.4659,"lon":-111.7212,"elev":420,"name":"Mesa/Falcon Fld, AZ, US","cover":"CLR","clouds":[],"fltCat":"VFR"},{"icaoId":"KDVT","receiptTime":"2026-04-07T15:56:29.615Z","obsTime":1775577180,"reportTime":"2026-04-07T16:00:00.000Z","temp":23.3,"dewp":6.1,"wdir":0,"wspd":0,"visib":"10+","altim":1014.6,"slp":1012.5,"qcField":4,"metarType":"METAR","rawOb":"METAR KDVT 071553Z 00000KT 10SM CLR 23/06 A2996 RMK AO2 SLP125 T02330061","lat":33.6902,"lon":-112.0662,"elev":454,"name":"Phoenix/Deer Valley Arpt, AZ, US","cover":"CLR","clouds":[],"fltCat":"VFR"},{"icaoId":"KTUS","receiptTime":"2026-04-07T15:56:31.703Z","obsTime":1775577180,"reportTime":"2026-04-07T16:00:00.000Z","temp":20.6,"dewp":5.6,"wdir":260,"wspd":6,"visib":"10+","altim":1016.3,"slp":1012.5,"qcField":4,"metarType":"METAR","rawOb":"METAR KTUS 071553Z 26006KT 10SM CLR 21/06 A3001 RMK AO2 SLP125 T02060056","lat":32.1315,"lon":-110.9564,"elev":776,"name":"Tucson Intl Arpt, AZ, US","cover":"CLR","clouds":[],"fltCat":"VFR"},{"icaoId":"KPGA","receiptTime":"2026-04-07T15:56:34.398Z","obsTime":1775577180,"reportTime":"2026-04-07T16:00:00.000Z","temp":15.6,"dewp":5,"wdir":"VRB","wspd":6,"visib":"10+","altim":1018.4,"slp":1013.7,"qcField":14,"metarType":"METAR","rawOb":"METAR KPGA 071553Z AUTO VRB06KT 10SM CLR 16/05 A3007 RMK AO2 SLP137 T01560050 $","lat":36.9211,"lon":-111.4487,"elev":1310,"name":"Page Muni, AZ, US","cover":"CLR","clouds":[],"fltCat":"VFR"},{"icaoId":"KSDL","receiptTime":"2026-04-07T15:56:25.777Z","obsTime":1775577180,"reportTime":"2026-04-07T16:00:00.000Z","temp":22.8,"dewp":7.8,"wdir":0,"wspd":0,"visib":"10+","altim":1014.6,"slp":1012.7,"qcField":4,"metarType":"METAR","rawOb":"METAR KSDL 071553Z 00000KT 10SM CLR 23/08 A2996 RMK AO2 SLP127 T02280078","lat":33.6123,"lon":-111.9232,"elev":438,"name":"Scottsdale Muni, AZ, US","cover":"CLR","clouds":[],"fltCat":"VFR"},{"icaoId":"KPRC","receiptTime":"2026-04-07T15:56:35.921Z","obsTime":1775577180,"reportTime":"2026-04-07T16:00:00.000Z","temp":12.8,"dewp":4.4,"wdir":40,"wspd":3,"visib":"10+","altim":1020.1,"slp":1014.7,"qcField":4,"metarType":"METAR","rawOb":"METAR KPRC 071553Z 04003KT 10SM CLR 13/04 A3012 RMK AO2 SLP147 T01280044","lat":34.6491,"lon":-112.4223,"elev":1528,"name":"Prescott/Love Fld, AZ, US","cover":"CLR","clouds":[],"fltCat":"VFR"},{"icaoId":"KPHX","receiptTime":"2026-04-07T15:54:09.643Z","obsTime":1775577060,"reportTime":"2026-04-07T16:00:00.000Z","temp":23.9,"dewp":7.8,"wdir":0,"wspd":0,"visib":"10+","altim":1013.6,"slp":1012.1,"qcField":4,"metarType":"METAR","rawOb":"METAR KPHX 071551Z 00000KT 10SM CLR 24/08 A2993 RMK AO2 SLP121 T02390078","lat":33.4278,"lon":-112.0037,"elev":338,"name":"Phoenix/Sky Harbor Intl, AZ, US","cover":"CLR","clouds":[],"fltCat":"VFR"},{"icaoId":"KIGM","receiptTime":"2026-04-07T15:54:09.438Z","obsTime":1775577060,"reportTime":"2026-04-07T16:00:00.000Z","temp":20.6,"dewp":-6.7,"wdir":200,"wspd":4,"visib":"10+","altim":1017,"slp":1011.4,"qcField":6,"metarType":"METAR","rawOb":"METAR KIGM 071551Z AUTO 20004KT 10SM CLR 21/M07 A3003 RMK AO2 SLP114 T02061067","lat":35.2575,"lon":-113.9341,"elev":1045,"name":"Kingman Arpt, AZ, US","cover":"CLR","clouds":[],"fltCat":"VFR"},{"icaoId":"KSAD","receiptTime":"2026-04-07T15:54:09.750Z","obsTime":1775577060,"reportTime":"2026-04-07T16:00:00.000Z","temp":17.2,"dewp":6.7,"wdir":"VRB","wspd":3,"visib":"10+","altim":1016,"slp":1012.6,"qcField":6,"metarType":"METAR","rawOb":"METAR KSAD 071551Z AUTO VRB03KT 10SM CLR 17/07 A3000 RMK AO2 SLP126 T01720067","lat":32.8565,"lon":-109.636,"elev":937,"name":"Safford Rgnl, AZ, US","cover":"CLR","clouds":[],"fltCat":"VFR"},{"icaoId":"KCHD","receiptTime":"2026-04-07T15:49:28.917Z","obsTime":1775576820,"reportTime":"2026-04-07T16:00:00.000Z","temp":24,"dewp":9,"wdir":340,"wspd":4,"visib":"10+","altim":1014.3,"qcField":0,"metarType":"METAR","rawOb":"METAR KCHD 071547Z 34004KT 10SM CLR 24/09 A2995","lat":33.2669,"lon":-111.8086,"elev":378,"name":"Chandler Muni, AZ, US","cover":"CLR","clouds":[],"fltCat":"VFR"},{"icaoId":"KGYR","receiptTime":"2026-04-07T15:48:43.915Z","obsTime":1775576820,"reportTime":"2026-04-07T16:00:00.000Z","temp":24,"dewp":7,"wdir":"VRB","wspd":5,"visib":"10+","altim":1014.3,"qcField":0,"metarType":"METAR","rawOb":"METAR KGYR 071547Z VRB05KT 10SM SKC 24/07 A2995","lat":33.428,"lon":-112.368,"elev":292,"name":"Phoenix/Goodyear Muni, AZ, US","cover":"SKC","clouds":[],"fltCat":"VFR"},{"icaoId":"KIFP","receiptTime":"2026-04-07T15:50:30.191Z","obsTime":1775576820,"reportTime":"2026-04-07T16:00:00.000Z","temp":21,"dewp":-3,"wdir":190,"wspd":4,"visib":"10+","altim":1013.3,"qcField":0,"metarType":"METAR","rawOb":"METAR KIFP 071547Z 19004KT 10SM CLR 21/M03 A2992","lat":35.1487,"lon":-114.5611,"elev":210,"name":"Bullhead City Intl, AZ, US","cover":"CLR","clouds":[],"fltCat":"VFR"},{"icaoId":"KGEU","receiptTime":"2026-04-07T15:47:01.562Z","obsTime":1775576820,"reportTime":"2026-04-07T16:00:00.000Z","temp":23,"dewp":7,"wdir":70,"wspd":3,"visib":"10+","altim":1013.3,"qcField":0,"metarType":"METAR","rawOb":"METAR KGEU 071547Z 07003KT 10SM CLR 23/07 A2992","lat":33.528,"lon":-112.293,"elev":319,"name":"Glendale Muni, AZ, US","cover":"CLR","clouds":[],"fltCat":"VFR"},{"icaoId":"KRYN","receiptTime":"2026-04-07T15:46:20.412Z","obsTime":1775576700,"reportTime":"2026-04-07T16:00:00.000Z","temp":22,"dewp":5,"wdir":250,"wspd":5,"visib":"10+","altim":1015.3,"qcField":0,"metarType":"METAR","rawOb":"METAR KRYN 071545Z 25005KT 10SM CLR 22/05 A2998","lat":32.1418,"lon":-111.1767,"elev":731,"name":"Tucson/Ryan Fld, AZ, US","cover":"CLR","clouds":[],"fltCat":"VFR"}]