[{"icaoId":"KHOB","receiptTime":"2026-04-16T21:50:49.229Z","obsTime":1776376200,"reportTime":"2026-04-16T22:00:00.000Z","temp":29,"dewp":-12,"wdir":200,"wspd":15,"wgst":22,"visib":"10+","altim":1012.6,"qcField":0,"metarType":"METAR","rawOb":"METAR KHOB 162150Z 20015G22KT 10SM CLR 29/M12 A2990","lat":32.6797,"lon":-103.2222,"elev":1112,"name":"Hobbs Arpt, NM, US","cover":"CLR","clouds":[],"fltCat":"VFR"},{"icaoId":"KLGU","receiptTime":"2026-04-16T21:52:05.800Z","obsTime":1776376140,"reportTime":"2026-04-16T21:49:00.000Z","temp":-1,"dewp":-3,"wdir":20,"wspd":7,"visib":0.75,"altim":1015.7,"qcField":6,"wxString":"-SN BR","precip":0.005,"vertVis":14,"metarType":"SPECI","rawOb":"SPECI KLGU 162149Z AUTO 02007KT 3/4SM -SN BR VV014 M01/M03 A2999 RMK AO2 P0000","lat":41.7865,"lon":-111.8519,"elev":1359,"name":"Logan/Cache Arpt, UT, US","cover":"OVX","clouds":[{"cover":"OVX","base":1400}],"fltCat":"LIFR"},{"icaoId":"KROC","receiptTime":"2026-04-16T21:52:05.846Z","obsTime":1776376140,"reportTime":"2026-04-16T21:49:00.000Z","temp":18,"dewp":17,"wdir":310,"wspd":16,"wgst":26,"visib":1.5,"altim":1008.2,"qcField":12,"wxString":"TSRA BR","precip":0.02,"metarType":"SPECI","rawOb":"SPECI KROC 162149Z 31016G26KT 1 1/2SM TSRA BR BKN021CB BKN033 OVC055 18/17 A2977 RMK AO2 PK WND 32026/2148 RAB26 TSE46B49 OCNL LTGICCCCG VC NW-N TS VC NW-N MOV NE P0002 $","lat":43.1172,"lon":-77.6754,"elev":166,"name":"Rochester Intl Arpt, NY, US","cover":"OVC","clouds":[{"cover":"BKN","base":2100},{"cover":"BKN","base":3300},{"cover":"OVC","base":5500}],"fltCat":"IFR"},{"icaoId":"KIWA","receiptTime":"2026-04-16T21:50:48.157Z","obsTime":1776376080,"reportTime":"2026-04-16T22:00:00.000Z","temp":29,"dewp":-8,"wdir":240,"wspd":6,"visib":"10+","altim":1009.9,"qcField":0,"metarType":"METAR","rawOb":"METAR KIWA 162148Z 24006KT 10SM CLR 29/M08 A2982","lat":33.3008,"lon":-111.6437,"elev":420,"name":"Phoenix/Mesa Gateway Arpt, AZ, US","cover":"CLR","clouds":[],"fltCat":"VFR"},{"icaoId":"KIFP","receiptTime":"2026-04-16T21:50:48.092Z","obsTime":1776376020,"reportTime":"2026-04-16T22:00:00.000Z","temp":30,"dewp":-2,"wdir":170,"wspd":26,"wgst":33,"visib":"10+","altim":1005.8,"qcField":0,"metarType":"METAR","rawOb":"METAR KIFP 162147Z 17026G33KT 10SM CLR 30/M02 A2970","lat":35.1487,"lon":-114.5611,"elev":210,"name":"Bullhead City Intl, AZ, US","cover":"CLR","clouds":[],"fltCat":"VFR"},{"icaoId":"KIDA","receiptTime":"2026-04-16T21:50:47.173Z","obsTime":1776376020,"reportTime":"2026-04-16T21:47:00.000Z","temp":-1,"dewp":-3,"wdir":230,"wspd":9,"wgst":24,"visib":7,"altim":1012.6,"qcField":4,"wxString":"-SN","precip":0.005,"metarType":"SPECI","rawOb":"SPECI KIDA 162147Z 23009G24KT 7SM R21/2800VP6000FT -SN BKN024 BKN035 OVC045 M01/M03 A2990 RMK AO2 PK WND 18031/2106 WSHFT 2108 SNB16 P0000","lat":43.5204,"lon":-112.0675,"elev":1444,"name":"Idaho Falls Rgnl, ID, US","cover":"OVC","clouds":[{"cover":"BKN","base":2400},{"cover":"BKN","base":3500},{"cover":"OVC","base":4500}],"fltCat":"MVFR"},{"icaoId":"KCHD","receiptTime":"2026-04-16T21:47:13.982Z","obsTime":1776376020,"reportTime":"2026-04-16T22:00:00.000Z","temp":30,"dewp":-6,"wdir":"VRB","wspd":5,"visib":"10+","altim":1009.2,"qcField":0,"metarType":"METAR","rawOb":"METAR KCHD 162147Z VRB05KT 10SM BKN200 30/M06 A2980","lat":33.2669,"lon":-111.8086,"elev":378,"name":"Chandler Muni, AZ, US","cover":"BKN","clouds":[{"cover":"BKN","base":20000}],"fltCat":"VFR"},{"icaoId":"KSUN","receiptTime":"2026-04-16T21:50:48.217Z","obsTime":1776376020,"reportTime":"2026-04-16T22:00:00.000Z","temp":1,"dewp":-12,"wdir":20,"wspd":8,"wgst":13,"visib":"10+","altim":1013.6,"qcField":0,"metarType":"METAR","rawOb":"METAR KSUN 162147Z 02008G13KT 10SM BKN070 OVC120 01/M12 A2993","lat":43.4969,"lon":-114.2923,"elev":1619,"name":"Hailey/Friedman Mem, ID, US","cover":"OVC","clouds":[{"cover":"BKN","base":7000},{"cover":"OVC","base":12000}],"fltCat":"VFR"},{"icaoId":"KGYR","receiptTime":"2026-04-16T21:47:45.085Z","obsTime":1776376020,"reportTime":"2026-04-16T22:00:00.000Z","temp":30,"dewp":-3,"wdir":"VRB","wspd":4,"visib":"10+","altim":1009.6,"qcField":0,"metarType":"METAR","rawOb":"METAR KGYR 162147Z VRB04KT 10SM FEW160 BKN250 30/M03 A2981","lat":33.428,"lon":-112.368,"elev":292,"name":"Phoenix/Goodyear Muni, AZ, US","cover":"BKN","clouds":[{"cover":"FEW","base":16000},{"cover":"BKN","base":25000}],"fltCat":"VFR"},{"icaoId":"KEVW","receiptTime":"2026-04-16T21:50:47.160Z","obsTime":1776375960,"reportTime":"2026-04-16T21:46:00.000Z","temp":-5,"dewp":-6.1,"wdir":290,"wspd":9,"visib":0.25,"altim":1012.6,"qcField":14,"wxString":"SN FZFG","precip":0.01,"vertVis":10,"metarType":"SPECI","rawOb":"SPECI KEVW 162146Z AUTO 29009KT 1/4SM SN FZFG VV010 M05/M06 A2990 RMK AO2 PK WND 32027/2100 PRESRR P0001 T10501061 $","lat":41.2727,"lon":-111.0305,"elev":2178,"name":"Evanston/Uinta Cnty, WY, US","cover":"OVX","clouds":[{"cover":"OVX","base":1000}],"fltCat":"LIFR"},{"icaoId":"KBJC","receiptTime":"2026-04-16T21:49:42.800Z","obsTime":1776375900,"reportTime":"2026-04-16T22:00:00.000Z","temp":22,"dewp":-9,"wdir":0,"wspd":0,"visib":"10+","altim":1004.5,"qcField":0,"metarType":"METAR","rawOb":"METAR KBJC 162145Z 00000KT 10SM BKN140 22/M09 A2966","lat":39.9008,"lon":-105.1042,"elev":1694,"name":"Rocky Mtn Metro, CO, US","cover":"BKN","clouds":[{"cover":"BKN","base":14000}],"fltCat":"VFR"},{"icaoId":"KRYN","receiptTime":"2026-04-16T21:46:06.050Z","obsTime":1776375900,"reportTime":"2026-04-16T22:00:00.000Z","temp":31,"dewp":-14,"wdir":200,"wspd":16,"visib":"10+","altim":1010.9,"qcField":0,"metarType":"METAR","rawOb":"METAR KRYN 162145Z 20016KT 10SM CLR 31/M14 A2985","lat":32.1418,"lon":-111.1767,"elev":731,"name":"Tucson/Ryan Fld, AZ, US","cover":"CLR","clouds":[],"fltCat":"VFR"},{"icaoId":"KSLC","receiptTime":"2026-04-16T21:46:06.583Z","obsTime":1776375780,"reportTime":"2026-04-16T21:43:00.000Z","temp":0,"dewp":-0.6,"wdir":30,"wspd":13,"visib":0.5,"altim":1016,"qcField":4,"wxString":"SN","precip":0.01,"vertVis":11,"metarType":"SPECI","rawOb":"SPECI KSLC 162143Z 03013KT 1/2SM SN VV011 00/M01 A3000 RMK AO2 P0001 T00001006 RVRNO","lat":40.7707,"lon":-111.965,"elev":1286,"name":"Salt Lake City Intl, UT, US","cover":"OVX","clouds":[{"cover":"OVX","base":1100}],"fltCat":"LIFR"},{"icaoId":"KMKE","receiptTime":"2026-04-16T21:46:05.300Z","obsTime":1776375720,"reportTime":"2026-04-16T21:42:00.000Z","temp":10.6,"dewp":8.9,"wdir":30,"wspd":8,"visib":6,"altim":1011.3,"qcField":4,"wxString":"BR","metarType":"SPECI","rawOb":"SPECI KMKE 162142Z 03008KT 6SM BR OVC006 11/09 A2986 RMK AO2 T01060089","lat":42.9549,"lon":-87.9045,"elev":203,"name":"Milwaukee/Mitchell Intl, WI, US","cover":"OVC","clouds":[{"cover":"OVC","base":600}],"fltCat":"IFR"},{"icaoId":"KSHR","receiptTime":"2026-04-16T21:45:06.801Z","obsTime":1776375660,"reportTime":"2026-04-16T21:41:00.000Z","temp":0,"dewp":0,"wdir":330,"wspd":13,"visib":0.25,"altim":1008.5,"qcField":6,"wxString":"+SN FG","precip":0.09,"vertVis":4,"metarType":"SPECI","rawOb":"SPECI KSHR 162141Z AUTO 33013KT 1/4SM +SN FG VV004 00/00 A2978 RMK AO2 PRESFR P0009 T00000000","lat":44.7603,"lon":-106.9741,"elev":1212,"name":"Sheridan Cnty Arpt, WY, US","cover":"OVX","clouds":[{"cover":"OVX","base":400}],"fltCat":"LIFR"},{"icaoId":"KAST","receiptTime":"2026-04-16T21:40:14.849Z","obsTime":1776375360,"reportTime":"2026-04-16T21:36:00.000Z","temp":11.1,"dewp":5,"wdir":260,"wspd":9,"visib":"10+","altim":1026.8,"qcField":6,"precip":0.005,"metarType":"SPECI","rawOb":"SPECI KAST 162136Z AUTO 26009KT 10SM FEW021 BKN032 OVC043 11/05 A3032 RMK AO2 RAE15 P0000 T01110050","lat":46.157,"lon":-123.8833,"elev":3,"name":"Astoria Rgnl, OR, US","cover":"OVC","clouds":[{"cover":"FEW","base":2100},{"cover":"BKN","base":3200},{"cover":"OVC","base":4300}],"fltCat":"VFR"},{"icaoId":"KAPA","receiptTime":"2026-04-16T21:40:04.430Z","obsTime":1776375360,"reportTime":"2026-04-16T21:36:00.000Z","temp":23.3,"dewp":-10.6,"wdir":220,"wspd":14,"wgst":26,"visib":"10+","altim":1004.5,"qcField":4,"metarType":"SPECI","rawOb":"SPECI KAPA 162136Z 22014G26KT 10SM SCT120 SCT140 BKN220 23/M11 A2966 RMK AO2 PK WND 22028/2102 WSHFT 2116 T02331106","lat":39.5599,"lon":-104.8484,"elev":1791,"name":"Denver/Centennial Arpt, CO, US","cover":"BKN","clouds":[{"cover":"SCT","base":12000},{"cover":"SCT","base":14000},{"cover":"BKN","base":22000}],"fltCat":"VFR"},{"icaoId":"KHCR","receiptTime":"2026-04-16T21:40:13.345Z","obsTime":1776375300,"reportTime":"2026-04-16T21:35:00.000Z","temp":9.8,"dewp":-1.5,"wdir":240,"wspd":15,"visib":"10+","altim":1008.9,"qcField":14,"metarType":"METAR","rawOb":"METAR KHCR 162135Z AUTO 24015KT 10SM SCT070 10/M02 A2979 RMK AO2 T00981015 $","lat":40.4774,"lon":-111.4329,"elev":1708,"name":"Heber City Muni, UT, US","cover":"SCT","clouds":[{"cover":"SCT","base":7000}],"fltCat":"VFR"},{"icaoId":"KSOW","receiptTime":"2026-04-16T21:38:15.439Z","obsTime":1776375300,"reportTime":"2026-04-16T21:35:00.000Z","temp":19,"dewp":-15,"wdir":220,"wspd":19,"wgst":30,"visib":"10+","altim":1016.7,"qcField":6,"metarType":"METAR","rawOb":"METAR KSOW 162135Z AUTO 22019G30KT 10SM CLR 19/M15 A3002 RMK AO2","lat":34.2686,"lon":-110.0019,"elev":1954,"name":"Show Low Muni, AZ, US","cover":"CLR","clouds":[],"fltCat":"VFR"},{"icaoId":"KMEV","receiptTime":"2026-04-16T21:40:15.479Z","obsTime":1776375300,"reportTime":"2026-04-16T21:35:00.000Z","temp":14,"dewp":-14,"wdir":360,"wspd":13,"visib":"10+","altim":1016.3,"qcField":6,"metarType":"METAR","rawOb":"METAR KMEV 162135Z AUTO 36013KT 10SM CLR 14/M14 A3001 RMK AO2","lat":38.9963,"lon":-119.75,"elev":1437,"name":"Minden-Tahoe Arpt, NV, US","cover":"CLR","clouds":[],"fltCat":"VFR"},{"icaoId":"KCXP","receiptTime":"2026-04-16T21:40:13.281Z","obsTime":1776375300,"reportTime":"2026-04-16T21:35:00.000Z","temp":13,"dewp":-17,"wdir":340,"wspd":11,"wgst":17,"visib":"10+","altim":1017.4,"qcField":6,"metarType":"METAR","rawOb":"METAR KCXP 162135Z AUTO 34011G17KT 10SM CLR 13/M17 A3004 RMK AO2","lat":39.1905,"lon":-119.7319,"elev":1431,"name":"Carson City Arpt, NV, US","cover":"CLR","clouds":[],"fltCat":"VFR"},{"icaoId":"KHAF","receiptTime":"2026-04-16T21:40:13.323Z","obsTime":1776375300,"reportTime":"2026-04-16T21:35:00.000Z","temp":15,"dewp":9,"wdir":340,"wspd":15,"wgst":21,"visib":"10+","altim":1018.7,"qcField":6,"metarType":"METAR","rawOb":"METAR KHAF 162135Z AUTO 34015G21KT 10SM 15/09 A3008 RMK AO2","lat":37.5136,"lon":-122.4996,"elev":11,"name":"Half Moon Bay Arpt, CA, US"},{"icaoId":"KBVU","receiptTime":"2026-04-16T21:38:15.545Z","obsTime":1776375300,"reportTime":"2026-04-16T21:35:00.000Z","temp":28,"dewp":-11,"wdir":210,"wspd":17,"wgst":29,"visib":"10+","altim":1007.2,"qcField":6,"metarType":"METAR","rawOb":"METAR KBVU 162135Z AUTO 21017G29KT 10SM CLR 28/M11 A2974 RMK AO2","lat":35.9489,"lon":-114.8633,"elev":654,"name":"Boulder City Muni, NV, US","cover":"CLR","clouds":[],"fltCat":"VFR"},{"icaoId":"KRTS","receiptTime":"2026-04-16T21:40:08.033Z","obsTime":1776375300,"reportTime":"2026-04-16T21:35:00.000Z","temp":9,"dewp":-17,"wdir":360,"wspd":10,"wgst":21,"visib":"10+","altim":1018.4,"qcField":6,"metarType":"METAR","rawOb":"METAR KRTS 162135Z AUTO 36010G21KT 10SM CLR 09/M17 A3007 RMK AO2","lat":39.6658,"lon":-119.8731,"elev":1537,"name":"Reno/Stead Arpt, NV, US","cover":"CLR","clouds":[],"fltCat":"VFR"},{"icaoId":"KLRU","receiptTime":"2026-04-16T21:38:17.493Z","obsTime":1776375300,"reportTime":"2026-04-16T21:35:00.000Z","temp":25.8,"dewp":-9.7,"wdir":210,"wspd":15,"wgst":22,"visib":"10+","altim":1014.6,"qcField":6,"metarType":"METAR","rawOb":"METAR KLRU 162135Z AUTO 21015G22KT 10SM CLR 26/M10 A2996 RMK AO2 T02581097","lat":32.2884,"lon":-106.9131,"elev":1355,"name":"Las Cruces Intl, NM, US","cover":"CLR","clouds":[],"fltCat":"VFR"},{"icaoId":"KSEZ","receiptTime":"2026-04-16T21:40:13.495Z","obsTime":1776375300,"reportTime":"2026-04-16T21:35:00.000Z","temp":22,"dewp":-8,"wdir":170,"wspd":16,"wgst":22,"visib":"10+","altim":1014.6,"qcField":6,"metarType":"METAR","rawOb":"METAR KSEZ 162135Z AUTO 17016G22KT 10SM CLR 22/M08 A2996 RMK AO2","lat":34.8467,"lon":-111.7884,"elev":1455,"name":"Sedona Arpt, AZ, US","cover":"CLR","clouds":[],"fltCat":"VFR"},{"icaoId":"KHTH","receiptTime":"2026-04-16T21:40:04.714Z","obsTime":1776375300,"reportTime":"2026-04-16T21:35:00.000Z","temp":13,"dewp":-12,"wdir":320,"wspd":14,"visib":"10+","altim":1016.3,"qcField":6,"metarType":"METAR","rawOb":"METAR KHTH 162135Z AUTO 32014KT 10SM CLR 13/M12 A3001 RMK A01","lat":38.5448,"lon":-118.6314,"elev":1281,"name":"Hawthorne Muni, NV, US","cover":"CLR","clouds":[],"fltCat":"VFR"},{"icaoId":"KMHR","receiptTime":"2026-04-16T21:40:13.462Z","obsTime":1776375300,"reportTime":"2026-04-16T21:35:00.000Z","temp":21,"dewp":-2,"wdir":330,"wspd":22,"visib":"10+","altim":1016.3,"qcField":6,"metarType":"METAR","rawOb":"METAR KMHR 162135Z AUTO 33022KT 10SM CLR 21/M02 A3001 RMK AO2","lat":38.56,"lon":-121.284,"elev":30,"name":"Sacramento/Mather Fld, CA, US","cover":"CLR","clouds":[],"fltCat":"VFR"},{"icaoId":"KBUF","receiptTime":"2026-04-16T21:34:04.909Z","obsTime":1776375000,"reportTime":"2026-04-16T21:30:00.000Z","temp":13.9,"dewp":13.3,"wdir":220,"wspd":10,"visib":4,"altim":1009.2,"qcField":4,"wxString":"-RA BR","precip":0.16,"metarType":"SPECI","rawOb":"SPECI KBUF 162130Z 22010KT 4SM -RA BR BKN004 OVC033 14/13 A2980 RMK AO2 P0016 T01390133","lat":42.94,"lon":-78.7361,"elev":217,"name":"Buffalo-Niagara Intl, NY, US","cover":"OVC","clouds":[{"cover":"BKN","base":400},{"cover":"OVC","base":3300}],"fltCat":"LIFR"},{"icaoId":"KDEN","receiptTime":"2026-04-16T21:32:13.730Z","obsTime":1776374940,"reportTime":"2026-04-16T21:29:00.000Z","temp":23.9,"dewp":-9.4,"wdir":240,"wspd":13,"wgst":20,"visib":"10+","altim":1003.8,"qcField":12,"metarType":"SPECI","rawOb":"SPECI KDEN 162129Z 24013G20KT 10SM SCT110 SCT140 BKN220 24/M09 A2964 RMK AO2 WSHFT 2109 T02391094 $","lat":39.8466,"lon":-104.6562,"elev":1656,"name":"Denver Intl, CO, US","cover":"BKN","clouds":[{"cover":"SCT","base":11000},{"cover":"SCT","base":14000},{"cover":"BKN","base":22000}],"fltCat":"VFR"},{"icaoId":"KORD","receiptTime":"2026-04-16T21:28:06.145Z","obsTime":1776374700,"reportTime":"2026-04-16T21:25:00.000Z","temp":22.8,"dewp":11.1,"wdir":60,"wspd":8,"visib":"10+","altim":1009.9,"qcField":12,"metarType":"SPECI","rawOb":"SPECI KORD 162125Z 06008KT 10SM BKN045TCU BKN075 23/11 A2982 RMK AO2 WSHFT 13 TCU E-SE T02280111 $","lat":41.9602,"lon":-87.9316,"elev":202,"name":"Chicago/O'Hare Intl, IL, US","cover":"BKN","clouds":[{"cover":"BKN","base":4500},{"cover":"BKN","base":7500}],"fltCat":"VFR"},{"icaoId":"KOAK","receiptTime":"2026-04-16T21:20:23.822Z","obsTime":1776374220,"reportTime":"2026-04-16T21:17:00.000Z","temp":20,"dewp":1.1,"wdir":270,"wspd":17,"visib":"10+","altim":1018,"qcField":12,"metarType":"SPECI","rawOb":"SPECI KOAK 162117Z 27017KT 10SM SCT250 20/01 A3006 RMK AO2 WSHFT 2100 T02000011 $","lat":37.7178,"lon":-122.233,"elev":3,"name":"Oakland Intl, CA, US","cover":"SCT","clouds":[{"cover":"SCT","base":25000}],"fltCat":"VFR"},{"icaoId":"KHII","receiptTime":"2026-04-16T21:20:24.817Z","obsTime":1776374100,"reportTime":"2026-04-16T21:15:00.000Z","temp":29,"dewp":-5,"wdir":160,"wspd":16,"wgst":22,"visib":"10+","altim":1008.5,"qcField":6,"metarType":"METAR","rawOb":"METAR KHII 162115Z AUTO 16016G22KT 10SM CLR 29/M05 A2978 RMK AO2","lat":34.5659,"lon":-114.3522,"elev":241,"name":"Lake Havasu City Arpt, AZ, US","cover":"CLR","clouds":[],"fltCat":"VFR"},{"icaoId":"KAEG","receiptTime":"2026-04-16T21:16:32.775Z","obsTime":1776374040,"reportTime":"2026-04-16T21:14:00.000Z","temp":22,"dewp":-17,"wdir":220,"wspd":6,"wgst":19,"visib":"10+","altim":1014,"qcField":0,"metarType":"SPECI","rawOb":"SPECI KAEG 162114Z 22006G19KT 10SM CLR 22/M17 A2994","lat":35.15,"lon":-106.7929,"elev":1771,"name":"Albuquerque/Double Eagle Arpt, NM, US","cover":"CLR","clouds":[],"fltCat":"VFR"},{"icaoId":"KSBP","receiptTime":"2026-04-16T21:16:12.413Z","obsTime":1776373920,"reportTime":"2026-04-16T21:12:00.000Z","temp":18.9,"dewp":10.6,"wdir":310,"wspd":16,"visib":"10+","altim":1014,"qcField":4,"metarType":"SPECI","rawOb":"SPECI KSBP 162112Z 31016KT 10SM CLR 19/11 A2994 RMK AO2 T01890106","lat":35.2381,"lon":-120.644,"elev":52,"name":"San Luis Obispo/San Luis Cnty, CA, US","cover":"CLR","clouds":[],"fltCat":"VFR"},{"icaoId":"KEKO","receiptTime":"2026-04-16T21:12:13.012Z","obsTime":1776373740,"reportTime":"2026-04-16T21:09:00.000Z","temp":0.6,"dewp":-5.6,"visib":9,"altim":1016.7,"qcField":6,"precip":0.005,"metarType":"SPECI","rawOb":"SPECI KEKO 162109Z AUTO 9SM SCT019 SCT047 BKN090 01/M06 A3002 RMK AO2 SNE09 P0000 T00061056","lat":40.824,"lon":-115.7863,"elev":1541,"name":"Elko Rgnl, NV, US","cover":"BKN","clouds":[{"cover":"SCT","base":1900},{"cover":"SCT","base":4700},{"cover":"BKN","base":9000}],"fltCat":"VFR"},{"icaoId":"KBOS","receiptTime":"2026-04-16T21:10:09.205Z","obsTime":1776373620,"reportTime":"2026-04-16T21:07:00.000Z","temp":8.9,"dewp":7.8,"wdir":80,"wspd":9,"visib":0.5,"altim":1009.6,"qcField":4,"wxString":"BR","metarType":"SPECI","rawOb":"SPECI KBOS 162107Z 08009KT 1/2SM R04R/4000VP6000FT BR OVC002 09/08 A2981 RMK AO2 SFC VIS 2 VIS NE-SE 3/4 T00890078","lat":42.3606,"lon":-71.0097,"elev":4,"name":"Boston/Logan Intl, MA, US","cover":"OVC","clouds":[{"cover":"OVC","base":200}],"fltCat":"LIFR"},{"icaoId":"KMTJ","receiptTime":"2026-04-16T21:10:01.981Z","obsTime":1776373560,"reportTime":"2026-04-16T21:06:00.000Z","temp":18.3,"dewp":-9.4,"wdir":240,"wspd":8,"wgst":19,"visib":"10+","altim":1011.3,"qcField":6,"metarType":"SPECI","rawOb":"SPECI KMTJ 162106Z AUTO 24008G19KT 190V270 10SM FEW003 18/M09 A2986 RMK AO2 T01831094","lat":38.5054,"lon":-107.8981,"elev":1755,"name":"Montrose Rgnl, CO, US","cover":"FEW","clouds":[{"cover":"FEW","base":300}],"fltCat":"VFR"},{"icaoId":"KPIT","receiptTime":"2026-04-16T21:10:02.028Z","obsTime":1776373560,"reportTime":"2026-04-16T21:06:00.000Z","temp":20.6,"dewp":15,"wdir":270,"wspd":13,"wgst":27,"visib":"10+","altim":1010.2,"qcField":4,"wxString":"-RA","precip":0.005,"metarType":"SPECI","rawOb":"SPECI KPIT 162106Z 27013G27KT 10SM -RA BKN055 BKN100 21/15 A2983 RMK AO2 PK WND 26034/2054 WSHFT 2046 P0000 T02060150","lat":40.4814,"lon":-80.2083,"elev":339,"name":"Pittsburgh Intl, PA, US","cover":"BKN","clouds":[{"cover":"BKN","base":5500},{"cover":"BKN","base":10000}],"fltCat":"VFR"},{"icaoId":"KSFO","receiptTime":"2026-04-16T21:06:06.900Z","obsTime":1776373380,"reportTime":"2026-04-16T21:03:00.000Z","temp":18.9,"dewp":6.1,"wdir":290,"wspd":14,"visib":"10+","altim":1018.4,"qcField":12,"metarType":"SPECI","rawOb":"SPECI KSFO 162103Z 29014KT 10SM FEW200 19/06 A3007 RMK AO2 WSHFT 2043 T01890061 $","lat":37.6196,"lon":-122.3656,"elev":2,"name":"San Francisco Intl, CA, US","cover":"FEW","clouds":[{"cover":"FEW","base":20000}],"fltCat":"VFR"},{"icaoId":"KRIW","receiptTime":"2026-04-16T21:04:04.765Z","obsTime":1776373260,"reportTime":"2026-04-16T21:01:00.000Z","temp":12.2,"dewp":-2.2,"wdir":320,"wspd":24,"wgst":34,"visib":"10+","altim":1003.1,"qcField":6,"metarType":"SPECI","rawOb":"SPECI KRIW 162101Z AUTO 32024G34KT 10SM BKN090 BKN110 12/M02 A2962 RMK AO2 PK WND 33031/2100 WSHFT 2041 T01221022","lat":43.0622,"lon":-108.4471,"elev":1662,"name":"Riverton Rgnl, WY, US","cover":"BKN","clouds":[{"cover":"BKN","base":9000},{"cover":"BKN","base":11000}],"fltCat":"VFR"},{"icaoId":"KMSO","receiptTime":"2026-04-16T21:04:04.746Z","obsTime":1776373200,"reportTime":"2026-04-16T21:00:00.000Z","temp":2.8,"dewp":-2.8,"wdir":320,"wspd":15,"wgst":22,"visib":7,"altim":1014.6,"qcField":4,"wxString":"-SN","precip":0.005,"metarType":"SPECI","rawOb":"SPECI KMSO 162100Z 32015G22KT 7SM -SN BKN031 BKN048 OVC065 03/M03 A2996 RMK AO2 P0000 T00281028","lat":46.9208,"lon":-114.0938,"elev":974,"name":"Missoula Intl, MT, US","cover":"OVC","clouds":[{"cover":"BKN","base":3100},{"cover":"BKN","base":4800},{"cover":"OVC","base":6500}],"fltCat":"VFR"},{"icaoId":"KDTW","receiptTime":"2026-04-16T21:04:04.791Z","obsTime":1776373200,"reportTime":"2026-04-16T21:00:00.000Z","temp":18.9,"dewp":12.8,"wdir":310,"wspd":9,"visib":"10+","altim":1008.9,"qcField":12,"metarType":"SPECI","rawOb":"SPECI KDTW 162100Z 31009KT 10SM FEW030 BKN045 BKN060 19/13 A2979 RMK AO2 TSE2058 TS MOV NE T01890128 $","lat":42.2311,"lon":-83.3312,"elev":192,"name":"Detroit/Metro Wayne Cnty, MI, US","cover":"BKN","clouds":[{"cover":"FEW","base":3000},{"cover":"BKN","base":4500},{"cover":"BKN","base":6000}],"fltCat":"VFR"},{"icaoId":"KNYL","receiptTime":"2026-04-16T21:00:20.536Z","obsTime":1776373020,"reportTime":"2026-04-16T21:00:00.000Z","temp":30,"dewp":-2.2,"wdir":0,"wspd":0,"visib":"10+","altim":1008.9,"slp":1008.7,"qcField":4,"presTend":-2.7,"metarType":"METAR","rawOb":"METAR KNYL 162057Z 00000KT 10SM SCT180 BKN200 30/M02 A2979 RMK AO2 SLP087 T03001022 58027","lat":32.66,"lon":-114.6078,"elev":58,"name":"Yuma , AZ, US","cover":"BKN","clouds":[{"cover":"SCT","base":18000},{"cover":"BKN","base":20000}],"fltCat":"VFR"},{"icaoId":"KNFL","receiptTime":"2026-04-16T21:00:20.522Z","obsTime":1776373020,"reportTime":"2026-04-16T21:00:00.000Z","temp":11.7,"dewp":-20.6,"wdir":310,"wspd":14,"wgst":26,"visib":"10+","altim":1017.7,"slp":1014.4,"qcField":4,"presTend":-1.1,"metarType":"METAR","rawOb":"METAR KNFL 162057Z 31014G26KT 10SM FEW080 12/M21 A3005 RMK AO2 PK WND 31026/2057 SLP144 T01171206 56011","lat":39.417,"lon":-118.705,"elev":1199,"name":"Fallon , NV, US","cover":"FEW","clouds":[{"cover":"FEW","base":8000}],"fltCat":"VFR"},{"icaoId":"KFLG","receiptTime":"2026-04-16T21:00:20.563Z","obsTime":1776373020,"reportTime":"2026-04-16T21:00:00.000Z","temp":15,"dewp":-7.8,"wdir":210,"wspd":22,"wgst":35,"visib":"10+","altim":1016.7,"slp":1011.1,"qcField":4,"presTend":-1.6,"metarType":"METAR","rawOb":"METAR KFLG 162057Z 21022G35KT 10SM CLR 15/M08 A3002 RMK AO2 PK WND 22035/2050 SLP111 T01501078 58016","lat":35.1443,"lon":-111.6664,"elev":2134,"name":"Flagstaff/Pulliam Arpt, AZ, US","cover":"CLR","clouds":[],"fltCat":"VFR"},{"icaoId":"KCOE","receiptTime":"2026-04-16T20:58:18.832Z","obsTime":1776372960,"reportTime":"2026-04-16T21:00:00.000Z","temp":6.7,"dewp":-3.9,"wdir":280,"wspd":9,"visib":"10+","altim":1016.7,"slp":1019.8,"qcField":14,"presTend":0.7,"metarType":"METAR","rawOb":"METAR KCOE 162056Z AUTO 28009KT 10SM FEW045 BKN060 OVC080 07/M04 A3002 RMK AO2 SLP198 6//// T00671039 53007 PNO $","lat":47.7719,"lon":-116.8332,"elev":693,"name":"Coeur DAlene Arpt, ID, US","cover":"OVC","clouds":[{"cover":"FEW","base":4500},{"cover":"BKN","base":6000},{"cover":"OVC","base":8000}],"fltCat":"VFR"},{"icaoId":"KFNL","receiptTime":"2026-04-16T20:58:17.467Z","obsTime":1776372960,"reportTime":"2026-04-16T21:00:00.000Z","temp":22.2,"dewp":-7.8,"wdir":210,"wspd":7,"wgst":16,"visib":"10+","altim":1004.8,"slp":999.2,"qcField":12,"presTend":-3,"metarType":"METAR","rawOb":"METAR KFNL 162056Z 21007G16KT 10SM CLR 22/M08 A2967 RMK AO2 SLP992 T02221078 56030 $","lat":40.4427,"lon":-105.0097,"elev":1529,"name":"Fort Collins/N Colorado Rgnl, CO, US","cover":"CLR","clouds":[],"fltCat":"VFR"},{"icaoId":"KDUG","receiptTime":"2026-04-16T21:02:10.388Z","obsTime":1776372960,"reportTime":"2026-04-16T21:00:00.000Z","temp":26.1,"dewp":-12.8,"wdir":240,"wspd":8,"wgst":19,"visib":"10+","altim":1014.6,"slp":1009.8,"qcField":38,"presTend":-2.4,"metarType":"METAR","rawOb":"METAR KDUG 162056Z AUTO 24008G19KT 10SM CLR 26/M13 A2996 RMK AO2 PK WND 19026/2012 SLP098 T02611128 58024 TSNO","lat":31.4725,"lon":-109.6022,"elev":1260,"name":"Douglas/Bisbee Intl, AZ, US","cover":"CLR","clouds":[],"fltCat":"VFR"},{"icaoId":"KCGZ","receiptTime":"2026-04-16T20:58:18.736Z","obsTime":1776372960,"reportTime":"2026-04-16T21:00:00.000Z","temp":30,"dewp":-10.6,"wdir":190,"wspd":7,"wgst":19,"visib":"10+","altim":1010.6,"slp":1009.5,"qcField":14,"metarType":"METAR","rawOb":"METAR KCGZ 162056Z AUTO 19007G19KT 10SM CLR 30/M11 A2984 RMK AO2 SLP095 6//// T03001106 $","lat":32.9531,"lon":-111.7725,"elev":444,"name":"Casa Granda Muni, AZ, US","cover":"CLR","clouds":[],"fltCat":"VFR"},{"icaoId":"KPWT","receiptTime":"2026-04-16T20:58:14.263Z","obsTime":1776372960,"reportTime":"2026-04-16T21:00:00.000Z","temp":11.1,"dewp":0.6,"wdir":"VRB","wspd":3,"visib":"10+","altim":1024.8,"slp":1025.1,"qcField":6,"presTend":-0.3,"metarType":"METAR","rawOb":"METAR KPWT 162056Z AUTO VRB03KT 10SM FEW044 11/01 A3026 RMK AO2 SLP251 T01110006 56003","lat":47.4942,"lon":-122.7594,"elev":143,"name":"Bremerton Arpt, WA, US","cover":"FEW","clouds":[{"cover":"FEW","base":4400}],"fltCat":"VFR"},{"icaoId":"KSDY","receiptTime":"2026-04-16T20:58:15.941Z","obsTime":1776372960,"reportTime":"2026-04-16T21:00:00.000Z","temp":7.2,"dewp":0.6,"wdir":300,"wspd":16,"wgst":21,"visib":"10+","altim":1007.2,"slp":1008.4,"qcField":14,"presTend":2.1,"metarType":"METAR","rawOb":"METAR KSDY 162056Z AUTO 30016G21KT 10SM OVC027 07/01 A2974 RMK AO2 SLP084 T00720006 53021 $","lat":47.7029,"lon":-104.1951,"elev":600,"name":"Sidney/Richland Muni, MT, US","cover":"OVC","clouds":[{"cover":"OVC","base":2700}],"fltCat":"MVFR"},{"icaoId":"KSGU","receiptTime":"2026-04-16T20:58:16.009Z","obsTime":1776372960,"reportTime":"2026-04-16T21:00:00.000Z","temp":25,"dewp":-1.1,"wdir":200,"wspd":18,"wgst":24,"visib":"10+","altim":1008.2,"slp":1005.4,"qcField":6,"presTend":-2.6,"metarType":"METAR","rawOb":"METAR KSGU 162056Z AUTO 20018G24KT 10SM FEW100 25/M01 A2977 RMK AO2 PK WND 20027/2045 SLP054 T02501011 58026","lat":37.0444,"lon":-113.5034,"elev":877,"name":"Saint George Muni, UT, US","cover":"FEW","clouds":[{"cover":"FEW","base":10000}],"fltCat":"VFR"},{"icaoId":"KJAC","receiptTime":"2026-04-16T20:58:16.839Z","obsTime":1776372960,"reportTime":"2026-04-16T21:00:00.000Z","temp":0,"dewp":-9.4,"wdir":200,"wspd":16,"wgst":23,"visib":"10+","altim":1010.2,"slp":1011.1,"qcField":4,"presTend":0.5,"precip":0.005,"pcp3hr":0.005,"metarType":"METAR","rawOb":"METAR KJAC 162056Z 20016G23KT 10SM SCT041 BKN049 OVC070 00/M09 A2983 RMK AO2 SNB10E20 SLP111 P0000 60000 T00001094 51005","lat":43.6129,"lon":-110.7366,"elev":1967,"name":"Jackson Hole Arpt, WY, US","cover":"OVC","clouds":[{"cover":"SCT","base":4100},{"cover":"BKN","base":4900},{"cover":"OVC","base":7000}],"fltCat":"VFR"},{"icaoId":"KGUC","receiptTime":"2026-04-16T20:58:16.399Z","obsTime":1776372960,"reportTime":"2026-04-16T21:00:00.000Z","temp":15.6,"dewp":-8.3,"wdir":250,"wspd":13,"wgst":21,"visib":"10+","altim":1011.6,"slp":1008.1,"qcField":14,"presTend":-2.9,"metarType":"METAR","rawOb":"METAR KGUC 162056Z AUTO 25013G21KT 10SM CLR 16/M08 A2987 RMK AO2 PK WND 25026/2040 SLP081 T01561083 56029 $","lat":38.5322,"lon":-106.9419,"elev":2337,"name":"Gunnison Arpt, CO, US","cover":"CLR","clouds":[],"fltCat":"VFR"},{"icaoId":"KHND","receiptTime":"2026-04-16T20:58:16.501Z","obsTime":1776372960,"reportTime":"2026-04-16T21:00:00.000Z","temp":25.6,"dewp":-3.9,"wdir":220,"wspd":14,"wgst":24,"visib":"10+","altim":1009.2,"slp":1008.7,"qcField":12,"presTend":-1.7,"metarType":"METAR","rawOb":"METAR KHND 162056Z 22014G24KT 10SM CLR 26/M04 A2980 RMK AO2 SLP087 T02561039 58017 $","lat":35.9657,"lon":-115.1343,"elev":740,"name":"Henderson Exec, NV, US","cover":"CLR","clouds":[],"fltCat":"VFR"},{"icaoId":"KCOD","receiptTime":"2026-04-16T20:58:18.812Z","obsTime":1776372960,"reportTime":"2026-04-16T21:00:00.000Z","temp":1.7,"dewp":-2.2,"wdir":10,"wspd":15,"visib":"10+","altim":1008.2,"slp":1008,"qcField":78,"wxString":"UP","presTend":0.9,"precip":0.005,"pcp3hr":0.005,"metarType":"METAR","rawOb":"METAR KCOD 162056Z AUTO 01015KT 10SM UP SCT013 OVC024 02/M02 A2977 RMK AO2 SLP080 P0000 60000 T00171022 51009 FZRANO $","lat":44.52,"lon":-109.0268,"elev":1550,"name":"Cody/Yellowstone Rgnl, WY, US","cover":"OVC","clouds":[{"cover":"SCT","base":1300},{"cover":"OVC","base":2400}],"fltCat":"MVFR"},{"icaoId":"KPVU","receiptTime":"2026-04-16T20:58:14.240Z","obsTime":1776372960,"reportTime":"2026-04-16T21:00:00.000Z","temp":6.7,"dewp":-2.2,"wdir":330,"wspd":30,"wgst":37,"visib":"10+","altim":1011.6,"slp":1009.5,"qcField":4,"presTend":3.4,"metarType":"METAR","rawOb":"METAR KPVU 162056Z 33030G37KT 10SM SCT080 BKN120 07/M02 A2987 RMK AO2 PK WND 33037/2054 SLP095 T00671022 53034","lat":40.224,"lon":-111.7252,"elev":1370,"name":"Provo Muni, UT, US","cover":"BKN","clouds":[{"cover":"SCT","base":8000},{"cover":"BKN","base":12000}],"fltCat":"VFR"},{"icaoId":"KVIS","receiptTime":"2026-04-16T20:58:14.493Z","obsTime":1776372960,"reportTime":"2026-04-16T21:00:00.000Z","temp":22.2,"dewp":8.9,"wdir":310,"wspd":10,"wgst":14,"visib":"10+","altim":1015.3,"slp":1015.3,"qcField":14,"presTend":-1.6,"metarType":"METAR","rawOb":"METAR KVIS 162056Z AUTO 31010G14KT 10SM CLR 22/09 A2998 RMK AO2 SLP153 6//// T02220089 58016 PNO $","lat":36.3135,"lon":-119.3884,"elev":92,"name":"Visalia Muni, CA, US","cover":"CLR","clouds":[],"fltCat":"VFR"},{"icaoId":"KENV","receiptTime":"2026-04-16T20:58:17.177Z","obsTime":1776372960,"reportTime":"2026-04-16T21:00:00.000Z","temp":8.3,"dewp":-11.1,"wdir":300,"wspd":22,"wgst":29,"visib":"10+","altim":1015.3,"slp":1014.3,"qcField":6,"presTend":1.4,"metarType":"METAR","rawOb":"METAR KENV 162056Z AUTO 30022G29KT 10SM CLR 08/M11 A2998 RMK AO2 PK WND 31034/2006 SLP143 T00831111 51014","lat":40.7211,"lon":-114.0312,"elev":1291,"name":"Wendover Arpt, UT, US","cover":"CLR","clouds":[],"fltCat":"VFR"},{"icaoId":"KRDM","receiptTime":"2026-04-16T21:00:19.961Z","obsTime":1776372960,"reportTime":"2026-04-16T21:00:00.000Z","temp":6.1,"dewp":-7.8,"wdir":290,"wspd":8,"visib":"10+","altim":1022.1,"slp":1023.2,"qcField":4,"presTend":0.7,"metarType":"METAR","rawOb":"METAR KRDM 162056Z 29008KT 260V320 10SM SCT065 SCT080 06/M08 A3018 RMK AO2 SLP232 T00611078 51007","lat":44.2558,"lon":-121.1407,"elev":930,"name":"Redmond Muni, OR, US","cover":"SCT","clouds":[{"cover":"SCT","base":6500},{"cover":"SCT","base":8000}],"fltCat":"VFR"},{"icaoId":"KJAX","receiptTime":"2026-04-16T21:00:09.070Z","obsTime":1776372960,"reportTime":"2026-04-16T21:00:00.000Z","temp":31.1,"dewp":11.1,"wdir":"VRB","wspd":3,"visib":"10+","altim":1016.7,"slp":1016.6,"qcField":4,"presTend":-2.9,"metarType":"METAR","rawOb":"METAR KJAX 162056Z VRB03KT 10SM FEW050 BKN250 31/11 A3002 RMK AO2 SLP166 T03110111 58029","lat":30.4953,"lon":-81.6937,"elev":8,"name":"Jacksonville Intl, FL, US","cover":"BKN","clouds":[{"cover":"FEW","base":5000},{"cover":"BKN","base":25000}],"fltCat":"VFR"},{"icaoId":"KBZN","receiptTime":"2026-04-16T21:00:05.246Z","obsTime":1776372960,"reportTime":"2026-04-16T21:00:00.000Z","temp":-0.6,"dewp":-3.9,"wdir":210,"wspd":3,"visib":"10+","altim":1011.9,"slp":1014.7,"qcField":4,"presTend":1.1,"pcp3hr":0.02,"metarType":"METAR","rawOb":"METAR KBZN 162056Z 21003KT 10SM BKN065 BKN085 M01/M04 A2988 RMK AO2 SLP147 60002 T10061039 53011","lat":45.7876,"lon":-111.1615,"elev":1349,"name":"Bozeman/Gallatin Fld, MT, US","cover":"BKN","clouds":[{"cover":"BKN","base":6500},{"cover":"BKN","base":8500}],"fltCat":"VFR"},{"icaoId":"KCEC","receiptTime":"2026-04-16T21:00:06.116Z","obsTime":1776372960,"reportTime":"2026-04-16T21:00:00.000Z","temp":12.8,"dewp":5.6,"wdir":330,"wspd":16,"wgst":30,"visib":"10+","altim":1025.8,"slp":1025.6,"qcField":6,"presTend":-0.7,"metarType":"METAR","rawOb":"METAR KCEC 162056Z AUTO 33016G30KT 10SM CLR 13/06 A3029 RMK AO2 PK WND 32030/2049 SLP256 T01280056 58007","lat":41.7836,"lon":-124.238,"elev":17,"name":"Crescent City/McNama, CA, US","cover":"CLR","clouds":[],"fltCat":"VFR"},{"icaoId":"KEGE","receiptTime":"2026-04-16T20:58:17.109Z","obsTime":1776372960,"reportTime":"2026-04-16T21:00:00.000Z","temp":17.2,"dewp":-7.8,"wdir":230,"wspd":18,"wgst":27,"visib":"10+","altim":1009.2,"slp":1005,"qcField":4,"presTend":-2.1,"metarType":"METAR","rawOb":"METAR KEGE 162056Z 23018G27KT 10SM FEW110 17/M08 A2980 RMK AO2 PK WND 24031/2021 SLP050 T01721078 56021","lat":39.6448,"lon":-106.9176,"elev":1993,"name":"Eagle Cnty Rgnl, CO, US","cover":"FEW","clouds":[{"cover":"FEW","base":11000}],"fltCat":"VFR"},{"icaoId":"KHDN","receiptTime":"2026-04-16T20:58:16.452Z","obsTime":1776372960,"reportTime":"2026-04-16T21:00:00.000Z","temp":15.6,"dewp":-5,"wdir":220,"wspd":24,"wgst":38,"visib":"10+","altim":1008.2,"slp":1003.6,"qcField":6,"presTend":-1.6,"metarType":"METAR","rawOb":"METAR KHDN 162056Z AUTO 22024G38KT 10SM FEW065 BKN095 16/M05 A2977 RMK AO2 PK WND 21038/2053 SLP036 T01561050 55016","lat":40.4842,"lon":-107.2296,"elev":2012,"name":"Hayden/Yampa Valley Arpt, CO, US","cover":"BKN","clouds":[{"cover":"FEW","base":6500},{"cover":"BKN","base":9500}],"fltCat":"VFR"},{"icaoId":"KUKI","receiptTime":"2026-04-16T21:00:15.063Z","obsTime":1776372960,"reportTime":"2026-04-16T21:00:00.000Z","temp":19.4,"dewp":0,"wdir":"VRB","wspd":3,"visib":"10+","altim":1019,"slp":1018.3,"qcField":6,"presTend":-1.6,"metarType":"METAR","rawOb":"METAR KUKI 162056Z AUTO VRB03KT 10SM CLR 19/00 A3009 RMK AO2 SLP183 T01940000 58016","lat":39.1278,"lon":-123.2001,"elev":183,"name":"Ukiah Muni, CA, US","cover":"CLR","clouds":[],"fltCat":"VFR"},{"icaoId":"KTPH","receiptTime":"2026-04-16T21:00:15.049Z","obsTime":1776372960,"reportTime":"2026-04-16T21:00:00.000Z","temp":13.3,"dewp":-9.4,"wdir":350,"wspd":20,"wgst":36,"visib":"10+","altim":1014.3,"slp":1011,"qcField":6,"presTend":-0.2,"metarType":"METAR","rawOb":"METAR KTPH 162056Z AUTO 35020G36KT 10SM CLR 13/M09 A2995 RMK AO2 PK WND 34036/2052 SLP110 T01331094 58002","lat":38.0505,"lon":-117.0906,"elev":1647,"name":"Tonopah Arpt, NV, US","cover":"CLR","clouds":[],"fltCat":"VFR"},{"icaoId":"KSLE","receiptTime":"2026-04-16T21:00:15.036Z","obsTime":1776372960,"reportTime":"2026-04-16T21:00:00.000Z","temp":11.7,"dewp":-0.6,"wdir":"VRB","wspd":3,"visib":"10+","altim":1026.5,"slp":1026.5,"qcField":4,"presTend":0.1,"metarType":"METAR","rawOb":"METAR KSLE 162056Z VRB03KT 10SM BKN055 12/M01 A3031 RMK AO2 SLP265 T01171006 50001","lat":44.9049,"lon":-123.001,"elev":63,"name":"Salem Muni, OR, US","cover":"BKN","clouds":[{"cover":"BKN","base":5500}],"fltCat":"VFR"},{"icaoId":"KLWS","receiptTime":"2026-04-16T21:00:14.826Z","obsTime":1776372960,"reportTime":"2026-04-16T21:00:00.000Z","temp":9.4,"dewp":-4.4,"wdir":310,"wspd":17,"wgst":27,"visib":"10+","altim":1019.4,"slp":1019.8,"qcField":4,"presTend":0.9,"metarType":"METAR","rawOb":"METAR KLWS 162056Z 31017G27KT 10SM BKN080 09/M04 A3010 RMK AO2 PK WND 31027/2056 SLP198 T00941044 51009","lat":46.3746,"lon":-117.0153,"elev":435,"name":"Lewiston/Nez Perce Cnty, ID, US","cover":"BKN","clouds":[{"cover":"BKN","base":8000}],"fltCat":"VFR"},{"icaoId":"KLAS","receiptTime":"2026-04-16T21:00:14.812Z","obsTime":1776372960,"reportTime":"2026-04-16T21:00:00.000Z","temp":26.1,"dewp":-7.2,"wdir":210,"wspd":20,"wgst":31,"visib":"10+","altim":1008.5,"slp":1006.3,"qcField":4,"presTend":-2,"metarType":"METAR","rawOb":"METAR KLAS 162056Z 21020G31KT 10SM FEW120 SCT150 BKN210 26/M07 A2978 RMK AO2 PK WND 20031/2052 SLP063 T02611072 58020","lat":36.0719,"lon":-115.1634,"elev":662,"name":"Las Vegas/Reid Intl, NV, US","cover":"BKN","clouds":[{"cover":"FEW","base":12000},{"cover":"SCT","base":15000},{"cover":"BKN","base":21000}],"fltCat":"VFR"},{"icaoId":"KSDF","receiptTime":"2026-04-16T21:00:14.755Z","obsTime":1776372960,"reportTime":"2026-04-16T21:00:00.000Z","temp":26.7,"dewp":10.6,"wdir":230,"wspd":14,"wgst":22,"visib":"10+","altim":1013.3,"slp":1012.7,"qcField":4,"presTend":-1.2,"metarType":"METAR","rawOb":"METAR KSDF 162056Z 23014G22KT 10SM SCT070 BKN250 27/11 A2992 RMK AO2 PK WND 23026/2007 SLP127 T02670106 58012","lat":38.1774,"lon":-85.7308,"elev":146,"name":"Louisville Intl, KY, US","cover":"BKN","clouds":[{"cover":"SCT","base":7000},{"cover":"BKN","base":25000}],"fltCat":"VFR"},{"icaoId":"KCHS","receiptTime":"2026-04-16T21:00:08.888Z","obsTime":1776372960,"reportTime":"2026-04-16T21:00:00.000Z","temp":28.9,"dewp":18.3,"wdir":180,"wspd":11,"visib":"10+","altim":1016.3,"slp":1016.1,"qcField":4,"presTend":-2.3,"metarType":"METAR","rawOb":"METAR KCHS 162056Z 18011KT 10SM FEW050 SCT250 29/18 A3001 RMK AO2 SLP161 T02890183 57023","lat":32.8995,"lon":-80.0407,"elev":12,"name":"Charleston Intl, SC, US","cover":"SCT","clouds":[{"cover":"FEW","base":5000},{"cover":"SCT","base":25000}],"fltCat":"VFR"},{"icaoId":"KINW","receiptTime":"2026-04-16T21:00:05.513Z","obsTime":1776372960,"reportTime":"2026-04-16T21:00:00.000Z","temp":21.7,"dewp":-11.7,"wdir":230,"wspd":17,"wgst":25,"visib":"10+","altim":1014,"slp":1008.8,"qcField":6,"presTend":-1.9,"metarType":"METAR","rawOb":"METAR KINW 162056Z AUTO 23017G25KT 10SM CLR 22/M12 A2994 RMK AO2 PK WND 21029/2014 SLP088 T02171117 57019","lat":35.0279,"lon":-110.7221,"elev":1492,"name":"Winslow/Lindberg Rgnl, AZ, US","cover":"CLR","clouds":[],"fltCat":"VFR"},{"icaoId":"KCMA","receiptTime":"2026-04-16T20:58:18.769Z","obsTime":1776372900,"reportTime":"2026-04-16T21:00:00.000Z","temp":21.1,"dewp":11.7,"wdir":220,"wspd":11,"wgst":18,"visib":"10+","altim":1013,"slp":1013.5,"qcField":4,"presTend":-1.4,"metarType":"METAR","rawOb":"METAR KCMA 162055Z 22011G18KT 10SM CLR 21/12 A2991 RMK AO2 SLP135 T02110117 58014","lat":34.2114,"lon":-119.0876,"elev":20,"name":"Camarillo Arpt, CA, US","cover":"CLR","clouds":[],"fltCat":"VFR"},{"icaoId":"KEND","receiptTime":"2026-04-16T21:16:11.131Z","obsTime":1776372900,"reportTime":"2026-04-16T21:00:00.000Z","temp":31,"dewp":11.9,"wdir":150,"wspd":13,"visib":"10+","altim":1006.9,"slp":1005.6,"qcField":14,"presTend":-2.7,"metarType":"METAR","rawOb":"METAR KEND 162055Z AUTO 15013KT 10SM CLR 31/12 A2973 RMK AO2 SLP056 T03100119 57027 $","lat":36.338,"lon":-97.919,"elev":392,"name":"Enid/Vance AFB, OK, US","cover":"CLR","clouds":[],"fltCat":"VFR"},{"icaoId":"KLUF","receiptTime":"2026-04-16T21:12:06.588Z","obsTime":1776372900,"reportTime":"2026-04-16T21:00:00.000Z","temp":29.3,"dewp":-8.4,"wdir":240,"wspd":5,"visib":"10+","altim":1009.9,"slp":1008.8,"qcField":12,"presTend":-2.3,"metarType":"METAR","rawOb":"METAR KLUF 162055Z 24005KT 10SM FEW150 BKN200 29/M08 A2982 RMK AO2A SLP088 T02931084 57023 $","lat":33.538,"lon":-112.38,"elev":333,"name":"Phoenix/Luke AFB, AZ, US","cover":"BKN","clouds":[{"cover":"FEW","base":15000},{"cover":"BKN","base":20000}],"fltCat":"VFR"},{"icaoId":"KRNO","receiptTime":"2026-04-16T20:58:14.410Z","obsTime":1776372900,"reportTime":"2026-04-16T21:00:00.000Z","temp":12.2,"dewp":-19.4,"wdir":360,"wspd":15,"wgst":24,"visib":"10+","altim":1018,"slp":1015.9,"qcField":4,"presTend":-1.1,"metarType":"METAR","rawOb":"METAR KRNO 162055Z 36015G24KT 10SM CLR 12/M19 A3006 RMK AO2 SLP159 T01221194 56011","lat":39.5077,"lon":-119.7683,"elev":1344,"name":"Reno/Tahoe Intl, NV, US","cover":"CLR","clouds":[],"fltCat":"VFR"},{"icaoId":"KGPI","receiptTime":"2026-04-16T20:58:16.365Z","obsTime":1776372900,"reportTime":"2026-04-16T21:00:00.000Z","temp":-1.1,"dewp":-4.4,"wdir":0,"wspd":0,"visib":"10+","altim":1014,"slp":1016.5,"qcField":4,"presTend":1.4,"precip":0.005,"pcp3hr":0.12,"metarType":"METAR","rawOb":"METAR KGPI 162055Z 00000KT 10SM BKN047 M01/M04 A2994 RMK AO2 SNE30 SLP165 P0000 60012 T10111044 53014","lat":48.3041,"lon":-114.2643,"elev":903,"name":"Kalispell/Glacier Park Intl, MT, US","cover":"BKN","clouds":[{"cover":"BKN","base":4700}],"fltCat":"VFR"},{"icaoId":"KOLS","receiptTime":"2026-04-16T20:58:11.374Z","obsTime":1776372840,"reportTime":"2026-04-16T21:00:00.000Z","temp":25.6,"dewp":-11.1,"wdir":240,"wspd":11,"wgst":23,"visib":"10+","altim":1015,"slp":1009.9,"qcField":6,"presTend":-1.3,"metarType":"METAR","rawOb":"METAR KOLS 162054Z AUTO 24011G23KT 10SM CLR 26/M11 A2997 RMK AO2 SLP099 T02561111 58013","lat":31.4208,"lon":-110.8465,"elev":1194,"name":"Nogales Intl, AZ, US","cover":"CLR","clouds":[],"fltCat":"VFR"},{"icaoId":"KBFL","receiptTime":"2026-04-16T20:58:11.323Z","obsTime":1776372840,"reportTime":"2026-04-16T21:00:00.000Z","temp":20.6,"dewp":7.8,"wdir":270,"wspd":7,"visib":"10+","altim":1015,"slp":1014.5,"qcField":4,"presTend":-1.8,"metarType":"METAR","rawOb":"METAR KBFL 162054Z 27007KT 10SM CLR 21/08 A2997 RMK AO2 SLP145 T02060078 58018","lat":35.4342,"lon":-119.0552,"elev":146,"name":"Bakersfield/Meadows Arpt, CA, US","cover":"CLR","clouds":[],"fltCat":"VFR"},{"icaoId":"KCOS","receiptTime":"2026-04-16T20:58:12.145Z","obsTime":1776372840,"reportTime":"2026-04-16T21:00:00.000Z","temp":22.2,"dewp":-10,"wdir":250,"wspd":28,"wgst":38,"visib":"10+","altim":1008.2,"slp":1002,"qcField":4,"presTend":-2.6,"metarType":"METAR","rawOb":"METAR KCOS 162054Z 25028G38KT 10SM SCT110 BKN250 22/M10 A2977 RMK AO2 PK WND 21044/2013 SLP020 T02221100 56026","lat":38.8095,"lon":-104.6887,"elev":1886,"name":"Colorado Spring Arpt, CO, US","cover":"BKN","clouds":[{"cover":"SCT","base":11000},{"cover":"BKN","base":25000}],"fltCat":"VFR"},{"icaoId":"KAPC","receiptTime":"2026-04-16T20:58:11.312Z","obsTime":1776372840,"reportTime":"2026-04-16T21:00:00.000Z","temp":21.7,"dewp":-1.7,"wdir":20,"wspd":12,"wgst":19,"visib":"10+","altim":1017.7,"slp":1016.8,"qcField":4,"presTend":-1.6,"metarType":"METAR","rawOb":"METAR KAPC 162054Z 02012G19KT 10SM CLR 22/M02 A3005 RMK AO2 SLP168 T02171017 58016","lat":38.2075,"lon":-122.2804,"elev":5,"name":"Napa Cnty Arpt, CA, US","cover":"CLR","clouds":[],"fltCat":"VFR"},{"icaoId":"KFFZ","receiptTime":"2026-04-16T20:58:08.287Z","obsTime":1776372840,"reportTime":"2026-04-16T21:00:00.000Z","temp":28.3,"dewp":-7.8,"wdir":"VRB","wspd":4,"visib":"10+","altim":1010.2,"slp":1008.3,"qcField":4,"presTend":-2.3,"metarType":"METAR","rawOb":"METAR KFFZ 162054Z VRB04KT 10SM CLR 28/M08 A2983 RMK AO2 SLP083 T02831078 58023","lat":33.4659,"lon":-111.7212,"elev":420,"name":"Mesa/Falcon Fld, AZ, US","cover":"CLR","clouds":[],"fltCat":"VFR"},{"icaoId":"KRIC","receiptTime":"2026-04-16T20:58:11.720Z","obsTime":1776372840,"reportTime":"2026-04-16T21:00:00.000Z","temp":32.8,"dewp":11.1,"wdir":220,"wspd":15,"visib":"10+","altim":1009.9,"slp":1010,"qcField":4,"presTend":-3,"metarType":"METAR","rawOb":"METAR KRIC 162054Z 22015KT 10SM CLR 33/11 A2982 RMK AO2 SLP100 T03280111 56030","lat":37.5115,"lon":-77.3234,"elev":51,"name":"Richmond Intl, VA, US","cover":"CLR","clouds":[],"fltCat":"VFR"},{"icaoId":"KIND","receiptTime":"2026-04-16T20:58:11.944Z","obsTime":1776372840,"reportTime":"2026-04-16T21:00:00.000Z","temp":23.3,"dewp":11.1,"wdir":250,"wspd":17,"wgst":26,"visib":"10+","altim":1011.9,"slp":1011.2,"qcField":12,"presTend":-0.9,"metarType":"METAR","rawOb":"METAR KIND 162054Z 25017G26KT 10SM SCT055 SCT250 23/11 A2988 RMK AO2 PK WND 25031/2008 SLP112 T02330111 58009 $","lat":39.7252,"lon":-86.2816,"elev":242,"name":"Indianapolis Intl, IN, US","cover":"SCT","clouds":[{"cover":"SCT","base":5500},{"cover":"SCT","base":25000}],"fltCat":"VFR"},{"icaoId":"KBTV","receiptTime":"2026-04-16T20:58:07.882Z","obsTime":1776372840,"reportTime":"2026-04-16T21:00:00.000Z","temp":25,"dewp":16.1,"wdir":200,"wspd":9,"visib":"10+","altim":1004.5,"slp":1004.2,"qcField":4,"presTend":-2.5,"metarType":"METAR","rawOb":"METAR KBTV 162054Z 20009KT 10SM BKN070 OVC090 25/16 A2966 RMK AO2 SLP042 T02500161 56025","lat":44.4682,"lon":-73.1499,"elev":101,"name":"Burlington Intl, VT, US","cover":"OVC","clouds":[{"cover":"BKN","base":7000},{"cover":"OVC","base":9000}],"fltCat":"VFR"},{"icaoId":"KSYR","receiptTime":"2026-04-16T20:58:11.869Z","obsTime":1776372840,"reportTime":"2026-04-16T21:00:00.000Z","temp":27.2,"dewp":13.9,"wdir":250,"wspd":13,"visib":"10+","altim":1005.2,"slp":1004.6,"qcField":4,"presTend":-3,"metarType":"METAR","rawOb":"METAR KSYR 162054Z 25013KT 10SM FEW060 SCT080 BKN190 BKN250 27/14 A2968 RMK AO2 PK WND 21027/2040 SLP046 T02720139 56030","lat":43.1111,"lon":-76.1038,"elev":125,"name":"Syracuse/Hancock Intl, NY, US","cover":"BKN","clouds":[{"cover":"FEW","base":6000},{"cover":"SCT","base":8000},{"cover":"BKN","base":19000},{"cover":"BKN","base":25000}],"fltCat":"VFR"},{"icaoId":"KGSO","receiptTime":"2026-04-16T20:58:11.788Z","obsTime":1776372840,"reportTime":"2026-04-16T21:00:00.000Z","temp":30,"dewp":7.8,"wdir":230,"wspd":12,"wgst":21,"visib":"10+","altim":1013.3,"slp":1012,"qcField":4,"presTend":-2.7,"metarType":"METAR","rawOb":"METAR KGSO 162054Z 23012G21KT 10SM FEW065 FEW250 30/08 A2992 RMK AO2 SLP120 T03000078 56027","lat":36.0969,"lon":-79.9432,"elev":275,"name":"Greensboro Intl, NC, US","cover":"FEW","clouds":[{"cover":"FEW","base":6500},{"cover":"FEW","base":25000}],"fltCat":"VFR"},{"icaoId":"KGCN","receiptTime":"2026-04-16T20:58:11.384Z","obsTime":1776372840,"reportTime":"2026-04-16T21:00:00.000Z","temp":16.1,"dewp":-7.8,"wdir":210,"wspd":19,"wgst":31,"visib":"10+","altim":1015.3,"slp":1010.9,"qcField":4,"presTend":-1.8,"metarType":"METAR","rawOb":"METAR KGCN 162054Z 21019G31KT 10SM CLR 16/M08 A2998 RMK AO2 PK WND 22033/2009 SLP109 T01611078 56018","lat":35.9458,"lon":-112.1554,"elev":1993,"name":"Grand Canyon Park Arpt, AZ, US","cover":"CLR","clouds":[],"fltCat":"VFR"},{"icaoId":"KOLM","receiptTime":"2026-04-16T20:58:11.362Z","obsTime":1776372840,"reportTime":"2026-04-16T21:00:00.000Z","temp":12.8,"dewp":-0.6,"wdir":250,"wspd":8,"wgst":16,"visib":"10+","altim":1024.8,"slp":1024.7,"qcField":4,"presTend":-0.1,"metarType":"METAR","rawOb":"METAR KOLM 162054Z 25008G16KT 10SM SCT065 13/M01 A3026 RMK AO2 SLP247 T01281006 55001","lat":46.9737,"lon":-122.9049,"elev":58,"name":"Olympia Rgnl, WA, US","cover":"SCT","clouds":[{"cover":"SCT","base":6500}],"fltCat":"VFR"},{"icaoId":"KEUG","receiptTime":"2026-04-16T20:58:11.335Z","obsTime":1776372840,"reportTime":"2026-04-16T21:00:00.000Z","temp":11.7,"dewp":0.6,"wdir":20,"wspd":6,"visib":"10+","altim":1027.5,"slp":1027.4,"qcField":4,"presTend":0.3,"metarType":"METAR","rawOb":"METAR KEUG 162054Z 02006KT 10SM BKN044 12/01 A3034 RMK AO2 SLP274 T01170006 51003","lat":44.1331,"lon":-123.2156,"elev":109,"name":"Eugene/Mahlon Sweet Fld, OR, US","cover":"BKN","clouds":[{"cover":"BKN","base":4400}],"fltCat":"VFR"},{"icaoId":"KRKS","receiptTime":"2026-04-16T20:58:12.260Z","obsTime":1776372840,"reportTime":"2026-04-16T21:00:00.000Z","temp":9.4,"dewp":-3.3,"wdir":300,"wspd":18,"wgst":28,"visib":"10+","altim":1004.8,"slp":1001.2,"qcField":6,"wxString":"-RA","presTend":-0.6,"precip":0.005,"pcp3hr":0.005,"metarType":"METAR","rawOb":"METAR KRKS 162054Z AUTO 30018G28KT 10SM -RA OVC070 09/M03 A2967 RMK AO2 PK WND 31032/2041 RAB45 SLP012 P0000 60000 T00941033 55006","lat":41.5947,"lon":-109.0529,"elev":2062,"name":"Rock Springs/SW Wyoming Rgnl, WY, US","cover":"OVC","clouds":[{"cover":"OVC","base":7000}],"fltCat":"VFR"},{"icaoId":"KSJN","receiptTime":"2026-04-16T20:58:09.319Z","obsTime":1776372840,"reportTime":"2026-04-16T21:00:00.000Z","temp":21.1,"dewp":-16.7,"wdir":240,"wspd":19,"wgst":28,"visib":"10+","altim":1014.3,"slp":1008,"qcField":6,"presTend":-1.7,"metarType":"METAR","rawOb":"METAR KSJN 162054Z AUTO 24019G28KT 10SM CLR 21/M17 A2995 RMK AO2 PK WND 25029/2044 SLP080 T02111167 56017","lat":34.5184,"lon":-109.3801,"elev":1747,"name":"St Johns Ind Arpt, AZ, US","cover":"CLR","clouds":[],"fltCat":"VFR"},{"icaoId":"KDSM","receiptTime":"2026-04-16T20:58:12.183Z","obsTime":1776372840,"reportTime":"2026-04-16T21:00:00.000Z","temp":27.8,"dewp":6.1,"wdir":220,"wspd":14,"wgst":20,"visib":"10+","altim":1008.5,"slp":1008,"qcField":4,"presTend":-2.1,"metarType":"METAR","rawOb":"METAR KDSM 162054Z 22014G20KT 10SM FEW080 28/06 A2978 RMK AO2 PK WND 22026/2032 SLP080 T02780061 56021","lat":41.5339,"lon":-93.6531,"elev":286,"name":"Des Moines Intl, IA, US","cover":"FEW","clouds":[{"cover":"FEW","base":8000}],"fltCat":"VFR"},{"icaoId":"KPHL","receiptTime":"2026-04-16T20:58:09.187Z","obsTime":1776372840,"reportTime":"2026-04-16T21:00:00.000Z","temp":32.8,"dewp":13.9,"wdir":210,"wspd":13,"wgst":22,"visib":"10+","altim":1007.5,"slp":1007.3,"qcField":12,"presTend":-3.1,"metarType":"METAR","rawOb":"METAR KPHL 162054Z 21013G22KT 10SM FEW070 SCT270 BKN350 33/14 A2975 RMK AO2 SLP073 T03280139 58031 $","lat":39.8733,"lon":-75.2268,"elev":2,"name":"Philadelphia Intl, PA, US","cover":"BKN","clouds":[{"cover":"FEW","base":7000},{"cover":"SCT","base":27000},{"cover":"BKN","base":35000}],"fltCat":"VFR"},{"icaoId":"KBWI","receiptTime":"2026-04-16T20:58:08.973Z","obsTime":1776372840,"reportTime":"2026-04-16T21:00:00.000Z","temp":31.7,"dewp":14.4,"wdir":130,"wspd":8,"visib":"10+","altim":1007.5,"slp":1007.1,"qcField":4,"presTend":-3.6,"metarType":"METAR","rawOb":"METAR KBWI 162054Z 13008KT 10SM FEW075 FEW250 32/14 A2975 RMK AO2 SLP071 T03170144 58036","lat":39.1733,"lon":-76.684,"elev":42,"name":"Baltimore-Washington Intl, MD, US","cover":"FEW","clouds":[{"cover":"FEW","base":7500},{"cover":"FEW","base":25000}],"fltCat":"VFR"},{"icaoId":"KMEM","receiptTime":"2026-04-16T20:58:11.027Z","obsTime":1776372840,"reportTime":"2026-04-16T21:00:00.000Z","temp":27.8,"dewp":15.6,"wdir":200,"wspd":10,"wgst":17,"visib":"10+","altim":1015,"slp":1014.3,"qcField":12,"presTend":-2.9,"metarType":"METAR","rawOb":"METAR KMEM 162054Z 20010G17KT 10SM SCT060 BKN070 28/16 A2997 RMK AO2 SLP143 T02780156 58029 $","lat":35.0564,"lon":-89.9864,"elev":78,"name":"Memphis Intl, TN, US","cover":"BKN","clouds":[{"cover":"SCT","base":6000},{"cover":"BKN","base":7000}],"fltCat":"VFR"},{"icaoId":"KLBB","receiptTime":"2026-04-16T20:56:29.287Z","obsTime":1776372780,"reportTime":"2026-04-16T21:00:00.000Z","temp":31.1,"dewp":-7.8,"wdir":240,"wspd":22,"wgst":29,"visib":"10+","altim":1011.9,"slp":1007.5,"qcField":4,"presTend":-2.9,"metarType":"METAR","rawOb":"METAR KLBB 162053Z 24022G29KT 10SM FEW090 BKN250 31/M08 A2988 RMK AO2 PK WND 21034/2006 SLP075 T03111078 56029","lat":33.6658,"lon":-101.8233,"elev":996,"name":"Lubbock Intl Arpt, TX, US","cover":"BKN","clouds":[{"cover":"FEW","base":9000},{"cover":"BKN","base":25000}],"fltCat":"VFR"},{"icaoId":"KLAX","receiptTime":"2026-04-16T20:56:29.275Z","obsTime":1776372780,"reportTime":"2026-04-16T21:00:00.000Z","temp":20,"dewp":10.6,"wdir":250,"wspd":11,"visib":"10+","altim":1013.3,"slp":1013.1,"qcField":4,"presTend":-1.3,"metarType":"METAR","rawOb":"METAR KLAX 162053Z 25011KT 10SM FEW010 FEW037 SCT100 BKN160 20/11 A2992 RMK AO2 SLP131 T02000106 58013","lat":33.9382,"lon":-118.3866,"elev":30,"name":"Los Angeles Intl, CA, US","cover":"BKN","clouds":[{"cover":"FEW","base":1000},{"cover":"FEW","base":3700},{"cover":"SCT","base":10000},{"cover":"BKN","base":16000}],"fltCat":"VFR"},{"icaoId":"KLGB","receiptTime":"2026-04-16T20:56:25.338Z","obsTime":1776372780,"reportTime":"2026-04-16T21:00:00.000Z","temp":21.1,"dewp":12.8,"wdir":170,"wspd":8,"visib":"10+","altim":1013,"slp":1012.7,"qcField":4,"presTend":-1.6,"metarType":"METAR","rawOb":"METAR KLGB 162053Z 17008KT 10SM CLR 21/13 A2991 RMK AO2 SLP127 T02110128 57016","lat":33.8118,"lon":-118.1472,"elev":10,"name":"Long Beach Arpt, CA, US","cover":"CLR","clouds":[],"fltCat":"VFR"},{"icaoId":"KMYF","receiptTime":"2026-04-16T20:56:25.908Z","obsTime":1776372780,"reportTime":"2026-04-16T21:00:00.000Z","temp":19.4,"dewp":11.1,"wdir":250,"wspd":9,"visib":"10+","altim":1013.6,"slp":1013.2,"qcField":4,"presTend":-1.4,"metarType":"METAR","rawOb":"METAR KMYF 162053Z 25009KT 10SM CLR 19/11 A2993 RMK AO2 SLP132 T01940111 56014","lat":32.8145,"lon":-117.1375,"elev":128,"name":"San Diego/Montgomery Arpt, CA, US","cover":"CLR","clouds":[],"fltCat":"VFR"},{"icaoId":"KDVT","receiptTime":"2026-04-16T20:56:26.700Z","obsTime":1776372780,"reportTime":"2026-04-16T21:00:00.000Z","temp":29.4,"dewp":-6.7,"wdir":320,"wspd":5,"visib":"10+","altim":1010.9,"slp":1008.7,"qcField":12,"presTend":-2.2,"metarType":"METAR","rawOb":"METAR KDVT 162053Z 32005KT 10SM CLR 29/M07 A2985 RMK AO2 SLP087 T02941067 58022 $","lat":33.6902,"lon":-112.0662,"elev":454,"name":"Phoenix/Deer Valley Arpt, AZ, US","cover":"CLR","clouds":[],"fltCat":"VFR"},{"icaoId":"KSEA","receiptTime":"2026-04-16T20:56:19.094Z","obsTime":1776372780,"reportTime":"2026-04-16T21:00:00.000Z","temp":10.6,"dewp":-0.6,"wdir":220,"wspd":8,"wgst":14,"visib":"10+","altim":1025.1,"slp":1025.8,"qcField":4,"presTend":0.2,"metarType":"METAR","rawOb":"METAR KSEA 162053Z 22008G14KT 10SM FEW040 11/M01 A3027 RMK AO2 SLP258 T01061006 51002","lat":47.4447,"lon":-122.3144,"elev":115,"name":"Seattle-Tacoma Intl, WA, US","cover":"FEW","clouds":[{"cover":"FEW","base":4000}],"fltCat":"VFR"},{"icaoId":"KSAF","receiptTime":"2026-04-16T20:56:27.139Z","obsTime":1776372780,"reportTime":"2026-04-16T21:00:00.000Z","temp":20,"dewp":-13.3,"wdir":240,"wspd":14,"wgst":24,"visib":"10+","altim":1015.7,"slp":1009.3,"qcField":4,"presTend":-1.8,"metarType":"METAR","rawOb":"METAR KSAF 162053Z 24014G24KT 10SM CLR 20/M13 A2999 RMK AO2 SLP093 T02001133 56018","lat":35.611,"lon":-106.0957,"elev":1918,"name":"Santa Fe Cnty Muni, NM, US","cover":"CLR","clouds":[],"fltCat":"VFR"},{"icaoId":"KPSP","receiptTime":"2026-04-16T20:56:28.779Z","obsTime":1776372780,"reportTime":"2026-04-16T21:00:00.000Z","temp":28.3,"dewp":0.6,"wdir":0,"wspd":0,"visib":"10+","altim":1009.2,"slp":1008.8,"qcField":12,"presTend":-2.3,"metarType":"METAR","rawOb":"METAR KPSP 162053Z 00000KT 10SM CLR 28/01 A2980 RMK AO2 SLP088 T02830006 58023 $","lat":33.8222,"lon":-116.5043,"elev":123,"name":"Palm Springs Intl, CA, US","cover":"CLR","clouds":[],"fltCat":"VFR"},{"icaoId":"KMLC","receiptTime":"2026-04-16T20:56:26.338Z","obsTime":1776372780,"reportTime":"2026-04-16T21:00:00.000Z","temp":28.3,"dewp":20.6,"wdir":190,"wspd":9,"wgst":19,"visib":"10+","altim":1011.9,"slp":1010.8,"qcField":6,"presTend":-2,"metarType":"METAR","rawOb":"METAR KMLC 162053Z AUTO 19009G19KT 150V220 10SM CLR 28/21 A2988 RMK AO2 PK WND 22027/2024 SLP108 T02830206 57020","lat":34.8824,"lon":-95.7815,"elev":231,"name":"McAlester Rgnl, OK, US","cover":"CLR","clouds":[],"fltCat":"VFR"},{"icaoId":"KMSY","receiptTime":"2026-04-16T20:56:29.769Z","obsTime":1776372780,"reportTime":"2026-04-16T21:00:00.000Z","temp":27.2,"dewp":18.9,"wdir":170,"wspd":11,"visib":"10+","altim":1017.7,"slp":1017.7,"qcField":4,"presTend":-2.2,"pcp3hr":0.005,"metarType":"METAR","rawOb":"METAR KMSY 162053Z 17011KT 10SM FEW038 SCT080 27/19 A3005 RMK AO2 SLP177 60000 T02720189 56022","lat":29.9974,"lon":-90.2777,"elev":0,"name":"New Orleans/Armstrong Intl, LA, US","cover":"SCT","clouds":[{"cover":"FEW","base":3800},{"cover":"SCT","base":8000}],"fltCat":"VFR"},{"icaoId":"KCYS","receiptTime":"2026-04-16T20:56:22.218Z","obsTime":1776372780,"reportTime":"2026-04-16T21:00:00.000Z","temp":20.6,"dewp":-8.9,"wdir":250,"wspd":18,"wgst":28,"visib":"10+","altim":1005.8,"slp":998.6,"qcField":4,"presTend":-2.6,"metarType":"METAR","rawOb":"METAR KCYS 162053Z 25018G28KT 10SM SCT110 21/M09 A2970 RMK AO2 PK WND 21033/2037 SLP986 T02061089 56026","lat":41.1579,"lon":-104.8081,"elev":1868,"name":"Cheyenne Rgnl, WY, US","cover":"SCT","clouds":[{"cover":"SCT","base":11000}],"fltCat":"VFR"},{"icaoId":"KMCI","receiptTime":"2026-04-16T20:56:20.893Z","obsTime":1776372780,"reportTime":"2026-04-16T21:00:00.000Z","temp":27.2,"dewp":9.4,"wdir":200,"wspd":12,"visib":9,"altim":1009.6,"slp":1008.6,"qcField":4,"presTend":-1.6,"metarType":"METAR","rawOb":"METAR KMCI 162053Z 20012KT 9SM FEW055 27/09 A2981 RMK AO2 SLP086 T02720094 58016","lat":39.2975,"lon":-94.7309,"elev":308,"name":"Kansas City Intl, MO, US","cover":"FEW","clouds":[{"cover":"FEW","base":5500}],"fltCat":"VFR"},{"icaoId":"KCLL","receiptTime":"2026-04-16T20:56:18.783Z","obsTime":1776372780,"reportTime":"2026-04-16T21:00:00.000Z","temp":30,"dewp":18.3,"wdir":150,"wspd":13,"visib":"10+","altim":1014,"slp":1013.5,"qcField":4,"presTend":-2.5,"metarType":"METAR","rawOb":"METAR KCLL 162053Z 15013KT 10SM FEW070 30/18 A2994 RMK AO2 SLP135 T03000183 58025","lat":30.5912,"lon":-96.3631,"elev":96,"name":"College Station/Easterwood Arpt, TX, US","cover":"FEW","clouds":[{"cover":"FEW","base":7000}],"fltCat":"VFR"},{"icaoId":"KDAL","receiptTime":"2026-04-16T20:56:18.845Z","obsTime":1776372780,"reportTime":"2026-04-16T21:00:00.000Z","temp":28.9,"dewp":18.9,"wdir":180,"wspd":11,"wgst":23,"visib":"10+","altim":1012.6,"slp":1011.7,"qcField":4,"presTend":-2.2,"metarType":"METAR","rawOb":"METAR KDAL 162053Z 18011G23KT 10SM SCT044 BKN065 29/19 A2990 RMK AO2 SLP117 T02890189 56022","lat":32.8384,"lon":-96.8358,"elev":148,"name":"Dallas/Love Fld, TX, US","cover":"BKN","clouds":[{"cover":"SCT","base":4400},{"cover":"BKN","base":6500}],"fltCat":"VFR"},{"icaoId":"KDMN","receiptTime":"2026-04-16T20:56:18.871Z","obsTime":1776372780,"reportTime":"2026-04-16T21:00:00.000Z","temp":27.8,"dewp":-6.1,"wdir":230,"wspd":11,"wgst":26,"visib":"10+","altim":1014.6,"slp":1009.3,"qcField":6,"presTend":-2.9,"metarType":"METAR","rawOb":"METAR KDMN 162053Z AUTO 23011G26KT 10SM CLR 28/M06 A2996 RMK AO2 PK WND 21026/2044 SLP093 T02781061 56029","lat":32.2592,"lon":-107.7206,"elev":1310,"name":"Deming Muni, NM, US","cover":"CLR","clouds":[],"fltCat":"VFR"},{"icaoId":"KFMN","receiptTime":"2026-04-16T20:56:18.943Z","obsTime":1776372780,"reportTime":"2026-04-16T21:00:00.000Z","temp":22.2,"dewp":-12.8,"wdir":240,"wspd":12,"wgst":20,"visib":"10+","altim":1012.3,"slp":1008.8,"qcField":4,"presTend":-2.6,"metarType":"METAR","rawOb":"METAR KFMN 162053Z 24012G20KT 200V260 10SM CLR 22/M13 A2989 RMK AO2 SLP088 T02221128 58026","lat":36.7435,"lon":-108.2293,"elev":1677,"name":"Farmington/Four Corners Rgnl, NM, US","cover":"CLR","clouds":[],"fltCat":"VFR"},{"icaoId":"KMAF","receiptTime":"2026-04-16T20:56:19.432Z","obsTime":1776372780,"reportTime":"2026-04-16T21:00:00.000Z","temp":29.4,"dewp":8.9,"wdir":170,"wspd":13,"wgst":19,"visib":"10+","altim":1012.6,"slp":1008.2,"qcField":4,"presTend":-2.5,"metarType":"METAR","rawOb":"METAR KMAF 162053Z 17013G19KT 10SM FEW075 29/09 A2990 RMK AO2 SLP082 T02940089 56025","lat":31.9475,"lon":-102.2086,"elev":874,"name":"Midland Intl, TX, US","cover":"FEW","clouds":[{"cover":"FEW","base":7500}],"fltCat":"VFR"},{"icaoId":"KMFE","receiptTime":"2026-04-16T20:56:19.540Z","obsTime":1776372780,"reportTime":"2026-04-16T21:00:00.000Z","temp":32.2,"dewp":20,"wdir":130,"wspd":19,"wgst":26,"visib":"10+","altim":1012.3,"slp":1012.1,"qcField":4,"presTend":-2.1,"metarType":"METAR","rawOb":"METAR KMFE 162053Z 13019G26KT 10SM SCT047 BKN055 32/20 A2989 RMK AO2 PK WND 14027/2020 SLP121 T03220200 58021","lat":26.1791,"lon":-98.2445,"elev":29,"name":"McAllen/Miller Intl, TX, US","cover":"BKN","clouds":[{"cover":"SCT","base":4700},{"cover":"BKN","base":5500}],"fltCat":"VFR"},{"icaoId":"KMFR","receiptTime":"2026-04-16T20:56:19.553Z","obsTime":1776372780,"reportTime":"2026-04-16T21:00:00.000Z","temp":10,"dewp":-3.3,"wdir":0,"wspd":0,"visib":"10+","altim":1025.5,"slp":1026,"qcField":4,"presTend":-0.8,"metarType":"METAR","rawOb":"METAR KMFR 162053Z 00000KT 10SM BKN055 10/M03 A3028 RMK AO2 SLP260 T01001033 58008","lat":42.375,"lon":-122.877,"elev":397,"name":"Medford/Rogue Valley Intl, OR, US","cover":"BKN","clouds":[{"cover":"BKN","base":5500}],"fltCat":"VFR"},{"icaoId":"KGSP","receiptTime":"2026-04-16T20:56:20.207Z","obsTime":1776372780,"reportTime":"2026-04-16T21:00:00.000Z","temp":29.4,"dewp":11.7,"wdir":210,"wspd":16,"wgst":26,"visib":"10+","altim":1015,"slp":1013.9,"qcField":4,"presTend":-2.6,"pcp3hr":0.005,"metarType":"METAR","rawOb":"METAR KGSP 162053Z 21016G26KT 10SM CLR 29/12 A2997 RMK AO2 PK WND 20026/2049 SLP139 60000 T02940117 58026","lat":34.8842,"lon":-82.2209,"elev":285,"name":"Greenville-Spartanburg Intl, SC, US","cover":"CLR","clouds":[],"fltCat":"VFR"},{"icaoId":"KMYR","receiptTime":"2026-04-16T20:56:20.299Z","obsTime":1776372780,"reportTime":"2026-04-16T21:00:00.000Z","temp":22.8,"dewp":18.3,"wdir":190,"wspd":17,"visib":"10+","altim":1016.7,"slp":1016.4,"qcField":12,"presTend":-2.3,"metarType":"METAR","rawOb":"METAR KMYR 162053Z 19017KT 10SM CLR 23/18 A3002 RMK AO2 SLP164 T02280183 56023 $","lat":33.6769,"lon":-78.9325,"elev":7,"name":"Myrtle Beach Intl, SC, US","cover":"CLR","clouds":[],"fltCat":"VFR"},{"icaoId":"KTUL","receiptTime":"2026-04-16T20:56:28.375Z","obsTime":1776372780,"reportTime":"2026-04-16T21:00:00.000Z","temp":26.1,"dewp":18.9,"wdir":170,"wspd":14,"wgst":21,"visib":"10+","altim":1010.9,"slp":1010.1,"qcField":4,"presTend":-1.6,"metarType":"METAR","rawOb":"METAR KTUL 162053Z 17014G21KT 10SM BKN025 BKN041 26/19 A2985 RMK AO2 SLP101 T02610189 58016","lat":36.1985,"lon":-95.8782,"elev":196,"name":"Tulsa Intl Arpt, OK, US","cover":"BKN","clouds":[{"cover":"BKN","base":2500},{"cover":"BKN","base":4100}],"fltCat":"MVFR"},{"icaoId":"KACV","receiptTime":"2026-04-16T20:56:21.447Z","obsTime":1776372780,"reportTime":"2026-04-16T21:00:00.000Z","temp":12.2,"dewp":3.9,"wdir":330,"wspd":15,"wgst":25,"visib":"10+","altim":1024.5,"slp":1025.1,"qcField":6,"presTend":-0.3,"metarType":"METAR","rawOb":"METAR KACV 162053Z AUTO 33015G25KT 10SM CLR 12/04 A3025 RMK AO2 PK WND 33028/2000 SLP251 T01220039 57003","lat":40.9784,"lon":-124.1048,"elev":63,"name":"Arcata Arpt, CA, US","cover":"CLR","clouds":[],"fltCat":"VFR"},{"icaoId":"KMIA","receiptTime":"2026-04-16T20:56:27.883Z","obsTime":1776372780,"reportTime":"2026-04-16T21:00:00.000Z","temp":26.7,"dewp":16.1,"wdir":100,"wspd":13,"wgst":18,"visib":"10+","altim":1017.7,"slp":1017.5,"qcField":0,"presTend":-1.8,"metarType":"METAR","rawOb":"METAR KMIA 162053Z 10013G18KT 10SM SCT045 27/16 A3005 RMK SLP175 T02670161 58018","lat":25.7881,"lon":-80.3169,"elev":1,"name":"Miami Intl, FL, US","cover":"SCT","clouds":[{"cover":"SCT","base":4500}],"fltCat":"VFR"},{"icaoId":"KPBI","receiptTime":"2026-04-16T20:56:28.490Z","obsTime":1776372780,"reportTime":"2026-04-16T21:00:00.000Z","temp":26.1,"dewp":15,"wdir":60,"wspd":9,"visib":"10+","altim":1018.4,"slp":1018.3,"qcField":12,"presTend":-2.1,"metarType":"METAR","rawOb":"METAR KPBI 162053Z 06009KT 10SM FEW045 FEW250 26/15 A3007 RMK AO2 SLP183 T02610150 56021 $","lat":26.6851,"lon":-80.0992,"elev":4,"name":"Palm Beach Intl, FL, US","cover":"FEW","clouds":[{"cover":"FEW","base":4500},{"cover":"FEW","base":25000}],"fltCat":"VFR"},{"icaoId":"KPIH","receiptTime":"2026-04-16T20:56:28.618Z","obsTime":1776372780,"reportTime":"2026-04-16T21:00:00.000Z","temp":5,"dewp":-8.9,"wdir":250,"wspd":20,"wgst":31,"visib":"10+","altim":1013,"slp":1013.4,"qcField":4,"presTend":-0.6,"metarType":"METAR","rawOb":"METAR KPIH 162053Z 25020G31KT 10SM BKN060 BKN080 05/M09 A2991 RMK AO2 PK WND 24034/2002 SLP134 T00501089 58006","lat":42.9197,"lon":-112.5723,"elev":1357,"name":"Pocatello Rgnl, ID, US","cover":"BKN","clouds":[{"cover":"BKN","base":6000},{"cover":"BKN","base":8000}],"fltCat":"VFR"},{"icaoId":"KPRC","receiptTime":"2026-04-16T20:56:28.759Z","obsTime":1776372780,"reportTime":"2026-04-16T21:00:00.000Z","temp":18.3,"dewp":-7.8,"wdir":230,"wspd":18,"wgst":26,"visib":"10+","altim":1015.7,"slp":1010.1,"qcField":4,"presTend":-1.2,"metarType":"METAR","rawOb":"METAR KPRC 162053Z 23018G26KT 10SM CLR 18/M08 A2999 RMK AO2 PK WND 23032/1957 SLP101 T01831078 57012","lat":34.6491,"lon":-112.4223,"elev":1528,"name":"Prescott/Love Fld, AZ, US","cover":"CLR","clouds":[],"fltCat":"VFR"},{"icaoId":"KPSC","receiptTime":"2026-04-16T20:56:28.769Z","obsTime":1776372780,"reportTime":"2026-04-16T21:00:00.000Z","temp":15,"dewp":-5.6,"wdir":230,"wspd":13,"wgst":21,"visib":"10+","altim":1020.7,"slp":1020.9,"qcField":4,"metarType":"METAR","rawOb":"METAR KPSC 162053Z 23013G21KT 10SM SCT085 15/M06 A3014 RMK AO2 SLP209 T01501056 58000","lat":46.2695,"lon":-119.1182,"elev":121,"name":"Pasco/Tri Cities Arpt, WA, US","cover":"SCT","clouds":[{"cover":"SCT","base":8500}],"fltCat":"VFR"},{"icaoId":"KPUB","receiptTime":"2026-04-16T20:56:28.804Z","obsTime":1776372780,"reportTime":"2026-04-16T21:00:00.000Z","temp":25.6,"dewp":-11.1,"wdir":160,"wspd":5,"wgst":18,"visib":"10+","altim":1005.5,"slp":1000.6,"qcField":12,"presTend":-3.5,"metarType":"METAR","rawOb":"METAR KPUB 162053Z 16005G18KT 10SM CLR 26/M11 A2969 RMK AO2 SLP006 T02561111 58035 $","lat":38.2887,"lon":-104.5057,"elev":1441,"name":"Pueblo Mem Arpt, CO, US","cover":"CLR","clouds":[],"fltCat":"VFR"},{"icaoId":"KPUW","receiptTime":"2026-04-16T20:56:28.828Z","obsTime":1776372780,"reportTime":"2026-04-16T21:00:00.000Z","temp":6.7,"dewp":-1.7,"wdir":250,"wspd":17,"wgst":23,"visib":"10+","altim":1018.4,"slp":1019.8,"qcField":6,"presTend":0.6,"metarType":"METAR","rawOb":"METAR KPUW 162053Z AUTO 25017G23KT 10SM FEW042 SCT055 BKN070 07/M02 A3007 RMK AO2 PK WND 24027/2017 SLP198 T00671017 51006","lat":46.7438,"lon":-117.1158,"elev":774,"name":"Pullman/Moscow Rgnl, WA, US","cover":"BKN","clouds":[{"cover":"FEW","base":4200},{"cover":"SCT","base":5500},{"cover":"BKN","base":7000}],"fltCat":"VFR"},{"icaoId":"KRDD","receiptTime":"2026-04-16T20:56:28.903Z","obsTime":1776372780,"reportTime":"2026-04-16T21:00:00.000Z","temp":16.7,"dewp":-6.1,"wdir":40,"wspd":9,"wgst":17,"visib":"10+","altim":1021.1,"slp":1020.7,"qcField":4,"presTend":-1.2,"metarType":"METAR","rawOb":"METAR KRDD 162053Z 04009G17KT 10SM CLR 17/M06 A3015 RMK AO2 SLP207 T01671061 56012","lat":40.5146,"lon":-122.2977,"elev":152,"name":"Redding Muni, CA, US","cover":"CLR","clouds":[],"fltCat":"VFR"},{"icaoId":"KRTN","receiptTime":"2026-04-16T20:56:29.004Z","obsTime":1776372780,"reportTime":"2026-04-16T21:00:00.000Z","temp":21.7,"dewp":-14.4,"wdir":250,"wspd":18,"wgst":31,"visib":"10+","altim":1010.9,"slp":1003.8,"qcField":6,"presTend":-2.2,"metarType":"METAR","rawOb":"METAR KRTN 162053Z AUTO 25018G31KT 10SM CLR 22/M14 A2985 RMK AO2 PK WND 23033/2014 SLP038 T02171144 56022","lat":36.7418,"lon":-104.5076,"elev":1939,"name":"Raton/Crews Fld, NM, US","cover":"CLR","clouds":[],"fltCat":"VFR"},{"icaoId":"PANC","receiptTime":"2026-04-16T20:56:29.543Z","obsTime":1776372780,"reportTime":"2026-04-16T21:00:00.000Z","temp":1.7,"dewp":0.6,"wdir":330,"wspd":3,"visib":"10+","altim":1011.6,"slp":1011.7,"qcField":4,"presTend":-0.6,"metarType":"METAR","rawOb":"METAR PANC 162053Z 33003KT 10SM BKN050 OVC060 02/01 A2987 RMK AO2 SLP117 T00170006 58006","lat":61.1691,"lon":-150.0277,"elev":39,"name":"Anchorage Intl, AK, US","cover":"OVC","clouds":[{"cover":"BKN","base":5000},{"cover":"OVC","base":6000}],"fltCat":"VFR"},{"icaoId":"KMLS","receiptTime":"2026-04-16T20:56:29.623Z","obsTime":1776372780,"reportTime":"2026-04-16T21:00:00.000Z","temp":5,"dewp":-3.9,"wdir":330,"wspd":21,"wgst":28,"visib":"10+","altim":1008.5,"slp":1009.7,"qcField":6,"presTend":1.8,"metarType":"METAR","rawOb":"METAR KMLS 162053Z AUTO 33021G28KT 10SM FEW070 BKN090 05/M04 A2978 RMK AO2 PK WND 32028/2052 SLP097 T00501039 51018","lat":46.4265,"lon":-105.8834,"elev":800,"name":"Miles City/Wiley Fld, MT, US","cover":"BKN","clouds":[{"cover":"FEW","base":7000},{"cover":"BKN","base":9000}],"fltCat":"VFR"},{"icaoId":"KMOD","receiptTime":"2026-04-16T20:56:29.690Z","obsTime":1776372780,"reportTime":"2026-04-16T21:00:00.000Z","temp":20,"dewp":3.9,"wdir":310,"wspd":11,"wgst":21,"visib":"10+","altim":1016.7,"slp":1016.5,"qcField":4,"presTend":-1.4,"metarType":"METAR","rawOb":"METAR KMOD 162053Z 31011G21KT 10SM CLR 20/04 A3002 RMK AO2 SLP165 T02000039 58014","lat":37.6254,"lon":-120.9549,"elev":25,"name":"Modesto/Sham Fld, CA, US","cover":"CLR","clouds":[],"fltCat":"VFR"},{"icaoId":"KVEL","receiptTime":"2026-04-16T20:56:30.025Z","obsTime":1776372780,"reportTime":"2026-04-16T21:00:00.000Z","temp":19.4,"dewp":-7.8,"wdir":220,"wspd":21,"wgst":44,"visib":"10+","altim":1004.1,"slp":999.5,"qcField":6,"presTend":-2.3,"metarType":"METAR","rawOb":"METAR KVEL 162053Z AUTO 22021G44KT 10SM CLR 19/M08 A2965 RMK AO2 PK WND 20044/2047 SLP995 T01941078 58023","lat":40.4429,"lon":-109.5128,"elev":1604,"name":"Vernal Rgnl, UT, US","cover":"CLR","clouds":[],"fltCat":"VFR"},{"icaoId":"KPNC","receiptTime":"2026-04-16T20:56:20.366Z","obsTime":1776372780,"reportTime":"2026-04-16T21:00:00.000Z","temp":28.3,"dewp":19.4,"wdir":170,"wspd":10,"wgst":19,"visib":"10+","altim":1008.9,"slp":1007.7,"qcField":6,"presTend":-2.1,"metarType":"METAR","rawOb":"METAR KPNC 162053Z AUTO 17010G19KT 10SM CLR 28/19 A2979 RMK AO2 SLP077 T02830194 58021","lat":36.7369,"lon":-97.1024,"elev":304,"name":"Ponca City Rgnl, OK, US","cover":"CLR","clouds":[],"fltCat":"VFR"},{"icaoId":"KFAT","receiptTime":"2026-04-16T20:56:24.232Z","obsTime":1776372780,"reportTime":"2026-04-16T21:00:00.000Z","temp":20.6,"dewp":8.3,"wdir":310,"wspd":11,"wgst":18,"visib":"10+","altim":1015.7,"slp":1015.3,"qcField":12,"presTend":-1.3,"metarType":"METAR","rawOb":"METAR KFAT 162053Z 31011G18KT 10SM FEW030 BKN230 21/08 A2999 RMK AO2 SLP153 T02060083 58013 $","lat":36.78,"lon":-119.7202,"elev":102,"name":"Fresno/Yosemite Intl, CA, US","cover":"BKN","clouds":[{"cover":"FEW","base":3000},{"cover":"BKN","base":23000}],"fltCat":"VFR"},{"icaoId":"KBOI","receiptTime":"2026-04-16T20:56:22.841Z","obsTime":1776372780,"reportTime":"2026-04-16T21:00:00.000Z","temp":5.6,"dewp":-6.7,"wdir":310,"wspd":13,"wgst":22,"visib":"10+","altim":1018.4,"slp":1019.2,"qcField":4,"presTend":0.5,"precip":0.005,"pcp3hr":0.005,"metarType":"METAR","rawOb":"METAR KBOI 162053Z 31013G22KT 10SM BKN060 BKN075 06/M07 A3007 RMK AO2 RAB1957E08SNB08E09 SLP192 P0000 60000 T00561067 50005","lat":43.567,"lon":-116.2406,"elev":860,"name":"Boise Arpt, ID, US","cover":"BKN","clouds":[{"cover":"BKN","base":6000},{"cover":"BKN","base":7500}],"fltCat":"VFR"},{"icaoId":"KELY","receiptTime":"2026-04-16T20:56:24.377Z","obsTime":1776372780,"reportTime":"2026-04-16T21:00:00.000Z","temp":11.1,"dewp":-5.6,"wdir":290,"wspd":11,"wgst":22,"visib":"10+","altim":1012.3,"slp":1006.7,"qcField":6,"presTend":0.9,"metarType":"METAR","rawOb":"METAR KELY 162053Z AUTO 29011G22KT 10SM CLR 11/M06 A2989 RMK AO2 PK WND 32031/2016 SLP067 T01111056 53009","lat":39.2954,"lon":-114.8466,"elev":1906,"name":"Ely/Yelland Fld, NV, US","cover":"CLR","clouds":[],"fltCat":"VFR"},{"icaoId":"KBLI","receiptTime":"2026-04-16T20:56:22.792Z","obsTime":1776372780,"reportTime":"2026-04-16T21:00:00.000Z","temp":10,"dewp":0.6,"wdir":180,"wspd":7,"wgst":14,"visib":"10+","altim":1024.5,"slp":1025.3,"qcField":4,"presTend":0.7,"metarType":"METAR","rawOb":"METAR KBLI 162053Z 18007G14KT 10SM SCT038 10/01 A3025 RMK AO2 SLP253 T01000006 51007","lat":48.7991,"lon":-122.5407,"elev":46,"name":"Bellingham Intl, WA, US","cover":"SCT","clouds":[{"cover":"SCT","base":3800}],"fltCat":"VFR"},{"icaoId":"KDFW","receiptTime":"2026-04-16T20:56:22.308Z","obsTime":1776372780,"reportTime":"2026-04-16T21:00:00.000Z","temp":29.4,"dewp":19.4,"wdir":180,"wspd":15,"wgst":22,"visib":"10+","altim":1012.3,"slp":1011.1,"qcField":12,"presTend":-2.1,"metarType":"METAR","rawOb":"METAR KDFW 162053Z 18015G22KT 10SM SCT038 BKN050 29/19 A2989 RMK AO2 SLP111 T02940194 58021 $","lat":32.8974,"lon":-97.022,"elev":168,"name":"Dallas-Ft Worth Intl, TX, US","cover":"BKN","clouds":[{"cover":"SCT","base":3800},{"cover":"BKN","base":5000}],"fltCat":"VFR"},{"icaoId":"KDRO","receiptTime":"2026-04-16T20:56:26.624Z","obsTime":1776372780,"reportTime":"2026-04-16T21:00:00.000Z","temp":16.7,"dewp":-9.4,"wdir":250,"wspd":9,"visib":"10+","altim":1015,"slp":1011.3,"qcField":6,"presTend":-2,"metarType":"METAR","rawOb":"METAR KDRO 162053Z AUTO 25009KT 10SM CLR 17/M09 A2997 RMK AO2 SLP113 T01671094 56020","lat":37.1431,"lon":-107.7602,"elev":2021,"name":"Durango/La Plata Cnty, CO, US","cover":"CLR","clouds":[],"fltCat":"VFR"},{"icaoId":"KAUS","receiptTime":"2026-04-16T20:56:21.752Z","obsTime":1776372780,"reportTime":"2026-04-16T21:00:00.000Z","temp":31.1,"dewp":18.3,"wdir":150,"wspd":12,"wgst":22,"visib":"10+","altim":1013,"slp":1011.9,"qcField":4,"presTend":-3,"metarType":"METAR","rawOb":"METAR KAUS 162053Z 15012G22KT 10SM FEW050 SCT070 31/18 A2991 RMK AO2 SLP119 T03110183 58030","lat":30.1831,"lon":-97.6806,"elev":148,"name":"Austin/Bergstrom Intl, TX, US","cover":"SCT","clouds":[{"cover":"FEW","base":5000},{"cover":"SCT","base":7000}],"fltCat":"VFR"},{"icaoId":"KCNY","receiptTime":"2026-04-16T20:56:18.795Z","obsTime":1776372780,"reportTime":"2026-04-16T21:00:00.000Z","temp":21.1,"dewp":-10,"wdir":210,"wspd":14,"wgst":31,"visib":"10+","altim":1006.5,"slp":1002.3,"qcField":6,"presTend":-2.6,"metarType":"METAR","rawOb":"METAR KCNY 162053Z AUTO 21014G31KT 10SM CLR 21/M10 A2972 RMK AO2 PK WND 21032/1954 SLP023 T02111100 56026","lat":38.7501,"lon":-109.7627,"elev":1392,"name":"Moab/Canyonland Fld, UT, US","cover":"CLR","clouds":[],"fltCat":"VFR"},{"icaoId":"KCRQ","receiptTime":"2026-04-16T20:56:18.808Z","obsTime":1776372780,"reportTime":"2026-04-16T21:00:00.000Z","temp":19.4,"dewp":12.8,"wdir":240,"wspd":8,"visib":"10+","altim":1013.3,"slp":1012.9,"qcField":4,"presTend":-1.3,"metarType":"METAR","rawOb":"METAR KCRQ 162053Z 24008KT 10SM CLR 19/13 A2992 RMK AO2 SLP129 T01940128 56013","lat":33.1299,"lon":-117.2765,"elev":96,"name":"Carlsbad/Palomar Arpt, CA, US","cover":"CLR","clouds":[],"fltCat":"VFR"},{"icaoId":"KOGD","receiptTime":"2026-04-16T20:56:25.979Z","obsTime":1776372780,"reportTime":"2026-04-16T21:00:00.000Z","temp":1.7,"dewp":-3.9,"wdir":340,"wspd":14,"wgst":20,"visib":"10+","altim":1014.3,"slp":1012.3,"qcField":4,"presTend":1.9,"pcp3hr":0.005,"metarType":"METAR","rawOb":"METAR KOGD 162053Z 34014G20KT 10SM OVC060 02/M04 A2995 RMK AO2 SLP123 60000 T00171039 50019","lat":41.1941,"lon":-112.0168,"elev":1356,"name":"Ogden/Hinckley Arpt, UT, US","cover":"OVC","clouds":[{"cover":"OVC","base":6000}],"fltCat":"VFR"},{"icaoId":"KCNM","receiptTime":"2026-04-16T20:56:22.078Z","obsTime":1776372780,"reportTime":"2026-04-16T21:00:00.000Z","temp":30,"dewp":-5.6,"wdir":240,"wspd":17,"wgst":26,"visib":"10+","altim":1012.3,"slp":1007.6,"qcField":6,"presTend":-2.9,"metarType":"METAR","rawOb":"METAR KCNM 162053Z AUTO 24017G26KT 10SM CLR 30/M06 A2989 RMK AO2 PK WND 23030/2029 SLP076 T03001056 56029","lat":32.3336,"lon":-104.2584,"elev":993,"name":"Carlsbad/Cavern City Air Term, NM, US","cover":"CLR","clouds":[],"fltCat":"VFR"},{"icaoId":"KCPR","receiptTime":"2026-04-16T20:56:22.113Z","obsTime":1776372780,"reportTime":"2026-04-16T21:00:00.000Z","temp":19.4,"dewp":-7.2,"wdir":210,"wspd":25,"wgst":38,"visib":"10+","altim":1000.8,"slp":995.5,"qcField":4,"presTend":-2.5,"pcp3hr":0.005,"metarType":"METAR","rawOb":"METAR KCPR 162053Z 21025G38KT 10SM BKN110 19/M07 A2955 RMK AO2 PK WND 20045/2033 SLP955 60000 T01941072 58025","lat":42.8978,"lon":-106.4736,"elev":1623,"name":"Casper/Natrona Cnty, WY, US","cover":"BKN","clouds":[{"cover":"BKN","base":11000}],"fltCat":"VFR"},{"icaoId":"KDLN","receiptTime":"2026-04-16T20:56:22.376Z","obsTime":1776372780,"reportTime":"2026-04-16T21:00:00.000Z","temp":-2.2,"dewp":-6.7,"wdir":240,"wspd":5,"visib":"10+","altim":1011.6,"slp":1014.1,"qcField":6,"presTend":1.9,"pcp3hr":0.01,"metarType":"METAR","rawOb":"METAR KDLN 162053Z AUTO 24005KT 10SM FEW041 SCT049 BKN065 M02/M07 A2987 RMK AO2 SLP141 60001 T10221067 51019","lat":45.2584,"lon":-112.5546,"elev":1586,"name":"Dillon Arpt, MT, US","cover":"BKN","clouds":[{"cover":"FEW","base":4100},{"cover":"SCT","base":4900},{"cover":"BKN","base":6500}],"fltCat":"VFR"},{"icaoId":"KVGT","receiptTime":"2026-04-16T20:56:30.036Z","obsTime":1776372780,"reportTime":"2026-04-16T21:00:00.000Z","temp":25,"dewp":-3.3,"wdir":170,"wspd":18,"wgst":29,"visib":"10+","altim":1007.5,"slp":1007.4,"qcField":4,"presTend":-2,"metarType":"METAR","rawOb":"METAR KVGT 162053Z 17018G29KT 10SM CLR 25/M03 A2975 RMK AO2 PK WND 17029/2047 SLP074 T02501033 58020","lat":36.212,"lon":-115.194,"elev":664,"name":"Las Vegas/North Arpt, NV, US","cover":"CLR","clouds":[],"fltCat":"VFR"},{"icaoId":"KLOL","receiptTime":"2026-04-16T20:56:25.872Z","obsTime":1776372780,"reportTime":"2026-04-16T21:00:00.000Z","temp":8.9,"dewp":-17.2,"wdir":330,"wspd":10,"wgst":23,"visib":"10+","altim":1018.7,"slp":1017.7,"qcField":6,"presTend":-0.7,"metarType":"METAR","rawOb":"METAR KLOL 162053Z AUTO 33010G23KT 10SM CLR 09/M17 A3008 RMK AO2 PK WND 32026/2021 SLP177 T00891172 56007","lat":40.0684,"lon":-118.5702,"elev":1191,"name":"Lovelock/Derby Fld, NV, US","cover":"CLR","clouds":[],"fltCat":"VFR"},{"icaoId":"KGJT","receiptTime":"2026-04-16T20:56:19.794Z","obsTime":1776372780,"reportTime":"2026-04-16T21:00:00.000Z","temp":20,"dewp":-8.9,"wdir":200,"wspd":9,"wgst":19,"visib":"10+","altim":1007.9,"slp":1002.8,"qcField":4,"presTend":-1.9,"metarType":"METAR","rawOb":"METAR KGJT 162053Z 20009G19KT 10SM CLR 20/M09 A2976 RMK AO2 SLP028 T02001089 56019","lat":39.1344,"lon":-108.5408,"elev":1475,"name":"Grand Junction Rgnl, CO, US","cover":"CLR","clouds":[],"fltCat":"VFR"},{"icaoId":"KBRO","receiptTime":"2026-04-16T20:56:22.914Z","obsTime":1776372780,"reportTime":"2026-04-16T21:00:00.000Z","temp":30,"dewp":18.9,"wdir":150,"wspd":19,"wgst":26,"visib":"10+","altim":1013.6,"slp":1013.2,"qcField":4,"presTend":-2,"metarType":"METAR","rawOb":"METAR KBRO 162053Z 15019G26KT 10SM SCT035 30/19 A2993 RMK AO2 PK WND 16030/2031 SLP132 T03000189 56020","lat":25.9146,"lon":-97.4231,"elev":6,"name":"Brownsville Intl, TX, US","cover":"SCT","clouds":[{"cover":"SCT","base":3500}],"fltCat":"VFR"},{"icaoId":"KBTM","receiptTime":"2026-04-16T20:56:22.940Z","obsTime":1776372780,"reportTime":"2026-04-16T21:00:00.000Z","temp":0.6,"dewp":-10.6,"wdir":330,"wspd":16,"wgst":24,"visib":"10+","altim":1010.6,"slp":1012.9,"qcField":6,"presTend":0.7,"pcp3hr":0.005,"metarType":"METAR","rawOb":"METAR KBTM 162053Z AUTO 33016G24KT 10SM BKN048 BKN060 OVC070 01/M11 A2984 RMK AO2 SLP129 60000 T00061106 51007","lat":45.9644,"lon":-112.5015,"elev":1680,"name":"Butte/Mooney Arpt, MT, US","cover":"OVC","clouds":[{"cover":"BKN","base":4800},{"cover":"BKN","base":6000},{"cover":"OVC","base":7000}],"fltCat":"VFR"},{"icaoId":"KBUR","receiptTime":"2026-04-16T20:56:22.952Z","obsTime":1776372780,"reportTime":"2026-04-16T21:00:00.000Z","temp":22.2,"dewp":6.7,"wdir":130,"wspd":5,"visib":"10+","altim":1013,"slp":1011.7,"qcField":4,"presTend":-1.9,"metarType":"METAR","rawOb":"METAR KBUR 162053Z 13005KT 10SM CLR 22/07 A2991 RMK AO2 SLP117 T02220067 58019","lat":34.1996,"lon":-118.3654,"elev":221,"name":"Burbank/Bob Hope Arpt, CA, US","cover":"CLR","clouds":[],"fltCat":"VFR"},{"icaoId":"KMSP","receiptTime":"2026-04-16T20:56:29.742Z","obsTime":1776372780,"reportTime":"2026-04-16T21:00:00.000Z","temp":25.6,"dewp":2.8,"wdir":160,"wspd":12,"wgst":19,"visib":"10+","altim":1006.9,"slp":1006.4,"qcField":4,"presTend":-1.4,"metarType":"METAR","rawOb":"METAR KMSP 162053Z 16012G19KT 10SM CLR 26/03 A2973 RMK AO2 SLP064 T02560028 56014","lat":44.8852,"lon":-93.2313,"elev":255,"name":"Minneapolis-St Paul Intl, MN, US","cover":"CLR","clouds":[],"fltCat":"VFR"},{"icaoId":"KYKM","receiptTime":"2026-04-16T20:56:23.728Z","obsTime":1776372780,"reportTime":"2026-04-16T21:00:00.000Z","temp":13.9,"dewp":-7.8,"wdir":310,"wspd":13,"wgst":22,"visib":"10+","altim":1020.1,"slp":1020.4,"qcField":4,"presTend":0.2,"metarType":"METAR","rawOb":"METAR KYKM 162053Z 31013G22KT 10SM CLR 14/M08 A3012 RMK AO2 PK WND 34026/2003 SLP204 T01391078 51002","lat":46.564,"lon":-120.5349,"elev":319,"name":"Yakima/McAllister Fld, WA, US","cover":"CLR","clouds":[],"fltCat":"VFR"},{"icaoId":"KAMA","receiptTime":"2026-04-16T20:56:21.569Z","obsTime":1776372780,"reportTime":"2026-04-16T21:00:00.000Z","temp":27.8,"dewp":-9.4,"wdir":220,"wspd":19,"wgst":40,"visib":"10+","altim":1010.9,"slp":1007,"qcField":4,"presTend":-2.3,"metarType":"METAR","rawOb":"METAR KAMA 162053Z 22019G40KT 10SM CLR 28/M09 A2985 RMK AO2 PK WND 22043/2020 SLP070 T02781094 56023","lat":35.2203,"lon":-101.7173,"elev":1102,"name":"Amarillo Intl Arpt, TX, US","cover":"CLR","clouds":[],"fltCat":"VFR"},{"icaoId":"KTUS","receiptTime":"2026-04-16T20:56:23.849Z","obsTime":1776372780,"reportTime":"2026-04-16T21:00:00.000Z","temp":29.4,"dewp":-11.7,"wdir":250,"wspd":13,"wgst":22,"visib":"10+","altim":1012.6,"slp":1008.6,"qcField":12,"presTend":-2.2,"metarType":"METAR","rawOb":"METAR KTUS 162053Z 25013G22KT 10SM CLR 29/M12 A2990 RMK AO2 SLP086 T02941117 56022 $","lat":32.1315,"lon":-110.9564,"elev":776,"name":"Tucson Intl Arpt, AZ, US","cover":"CLR","clouds":[],"fltCat":"VFR"},{"icaoId":"KPDX","receiptTime":"2026-04-16T20:56:23.889Z","obsTime":1776372780,"reportTime":"2026-04-16T21:00:00.000Z","temp":11.1,"dewp":0,"wdir":340,"wspd":3,"visib":"10+","altim":1026.5,"slp":1026.3,"qcField":4,"presTend":-0.2,"metarType":"METAR","rawOb":"METAR KPDX 162053Z 34003KT 10SM SCT045 BKN070 11/00 A3031 RMK AO2 SLP263 T01110000 56002","lat":45.5958,"lon":-122.6092,"elev":7,"name":"Portland Intl, OR, US","cover":"BKN","clouds":[{"cover":"SCT","base":4500},{"cover":"BKN","base":7000}],"fltCat":"VFR"},{"icaoId":"KTPA","receiptTime":"2026-04-16T20:56:28.327Z","obsTime":1776372780,"reportTime":"2026-04-16T21:00:00.000Z","temp":26.7,"dewp":15,"wdir":270,"wspd":12,"visib":"10+","altim":1018,"slp":1017.7,"qcField":4,"presTend":-2.5,"metarType":"METAR","rawOb":"METAR KTPA 162053Z 27012KT 10SM FEW250 27/15 A3006 RMK AO2 SLP177 T02670150 56025","lat":27.9633,"lon":-82.54,"elev":2,"name":"Tampa Intl Arpt, FL, US","cover":"FEW","clouds":[{"cover":"FEW","base":25000}],"fltCat":"VFR"},{"icaoId":"KPGA","receiptTime":"2026-04-16T20:56:23.900Z","obsTime":1776372780,"reportTime":"2026-04-16T21:00:00.000Z","temp":22.8,"dewp":-11.7,"wdir":190,"wspd":15,"wgst":26,"visib":"10+","altim":1009.2,"slp":1004.3,"qcField":14,"presTend":-2.5,"metarType":"METAR","rawOb":"METAR KPGA 162053Z AUTO 19015G26KT 10SM CLR 23/M12 A2980 RMK AO2 PK WND 22027/2025 SLP043 T02281117 56025 $","lat":36.9211,"lon":-111.4487,"elev":1310,"name":"Page Muni, AZ, US","cover":"CLR","clouds":[],"fltCat":"VFR"},{"icaoId":"KGEG","receiptTime":"2026-04-16T20:56:24.256Z","obsTime":1776372780,"reportTime":"2026-04-16T21:00:00.000Z","temp":6.7,"dewp":-6.7,"wdir":310,"wspd":10,"visib":"10+","altim":1017,"slp":1018.2,"qcField":4,"presTend":1,"metarType":"METAR","rawOb":"METAR KGEG 162053Z 31010KT 10SM SCT055 BKN070 07/M07 A3003 RMK AO2 SLP182 VCSH NE-SE AND NW-N T00671067 53010","lat":47.6217,"lon":-117.528,"elev":718,"name":"Spokane Intl, WA, US","cover":"BKN","clouds":[{"cover":"SCT","base":5500},{"cover":"BKN","base":7000}],"fltCat":"VFR"},{"icaoId":"KSJC","receiptTime":"2026-04-16T20:56:24.566Z","obsTime":1776372780,"reportTime":"2026-04-16T21:00:00.000Z","temp":20,"dewp":0.6,"wdir":300,"wspd":13,"visib":"10+","altim":1017.4,"slp":1017.1,"qcField":12,"presTend":-1.4,"metarType":"METAR","rawOb":"METAR KSJC 162053Z 30013KT 10SM FEW095 FEW130 20/01 A3004 RMK AO2 SLP171 T02000006 58014 $","lat":37.3594,"lon":-121.9244,"elev":13,"name":"San Jose Intl Arpt, CA, US","cover":"FEW","clouds":[{"cover":"FEW","base":9500},{"cover":"FEW","base":13000}],"fltCat":"VFR"},{"icaoId":"KSMF","receiptTime":"2026-04-16T20:56:24.592Z","obsTime":1776372780,"reportTime":"2026-04-16T21:00:00.000Z","temp":20.6,"dewp":-3.9,"wdir":340,"wspd":21,"wgst":33,"visib":"10+","altim":1018,"slp":1017.7,"qcField":4,"presTend":-1.1,"metarType":"METAR","rawOb":"METAR KSMF 162053Z 34021G33KT 10SM FEW250 21/M04 A3006 RMK AO2 PK WND 32033/2046 SLP177 T02061039 56011","lat":38.7007,"lon":-121.5948,"elev":7,"name":"Sacramento Intl, CA, US","cover":"FEW","clouds":[{"cover":"FEW","base":25000}],"fltCat":"VFR"},{"icaoId":"KSTS","receiptTime":"2026-04-16T20:56:24.743Z","obsTime":1776372780,"reportTime":"2026-04-16T21:00:00.000Z","temp":21.7,"dewp":-7.2,"wdir":10,"wspd":9,"wgst":18,"visib":"10+","altim":1018.4,"slp":1017.7,"qcField":4,"presTend":-1.3,"metarType":"METAR","rawOb":"METAR KSTS 162053Z 01009G18KT 10SM CLR 22/M07 A3007 RMK AO2 SLP177 T02171072 58013","lat":38.5037,"lon":-122.811,"elev":35,"name":"Santa Rosa/Schulz Arpt, CA, US","cover":"CLR","clouds":[],"fltCat":"VFR"},{"icaoId":"KSWO","receiptTime":"2026-04-16T20:56:24.754Z","obsTime":1776372780,"reportTime":"2026-04-16T21:00:00.000Z","temp":28.9,"dewp":17.2,"wdir":190,"wspd":9,"wgst":19,"visib":"10+","altim":1009.2,"slp":1008,"qcField":4,"presTend":-2,"metarType":"METAR","rawOb":"METAR KSWO 162053Z 19009G19KT 10SM CLR 29/17 A2980 RMK AO2 SLP080 T02890172 58020","lat":36.1624,"lon":-97.0832,"elev":293,"name":"Stillwater Muni, OK, US","cover":"CLR","clouds":[],"fltCat":"VFR"},{"icaoId":"KHLN","receiptTime":"2026-04-16T20:56:24.876Z","obsTime":1776372780,"reportTime":"2026-04-16T21:00:00.000Z","temp":6.1,"dewp":-11.1,"wdir":270,"wspd":16,"wgst":29,"visib":"10+","altim":1010.2,"slp":1012.9,"qcField":4,"presTend":0.7,"metarType":"METAR","rawOb":"METAR KHLN 162053Z 27016G29KT 10SM FEW080 FEW100 06/M11 A2983 RMK AO2 PK WND 27029/2049 SLP129 T00611111 51007","lat":46.6045,"lon":-111.9892,"elev":1178,"name":"Helena Rgnl, MT, US","cover":"FEW","clouds":[{"cover":"FEW","base":8000},{"cover":"FEW","base":10000}],"fltCat":"VFR"},{"icaoId":"KHIO","receiptTime":"2026-04-16T20:56:19.226Z","obsTime":1776372780,"reportTime":"2026-04-16T21:00:00.000Z","temp":12.2,"dewp":0.6,"wdir":250,"wspd":7,"visib":"10+","altim":1025.8,"slp":1026,"qcField":4,"presTend":-0.1,"metarType":"METAR","rawOb":"METAR KHIO 162053Z 25007KT 10SM FEW048 BKN070 12/01 A3029 RMK AO2 SLP260 T01220006 58001","lat":45.5476,"lon":-122.9557,"elev":62,"name":"Portland/Hillsboro Arpt, OR, US","cover":"BKN","clouds":[{"cover":"FEW","base":4800},{"cover":"BKN","base":7000}],"fltCat":"VFR"},{"icaoId":"KHOU","receiptTime":"2026-04-16T20:56:24.902Z","obsTime":1776372780,"reportTime":"2026-04-16T21:00:00.000Z","temp":28.9,"dewp":20,"wdir":180,"wspd":16,"wgst":24,"visib":"10+","altim":1015,"slp":1015.4,"qcField":12,"metarType":"METAR","rawOb":"METAR KHOU 162053Z 18016G24KT 10SM SCT035 29/20 A2997 RMK AO2 SLP154 T02890200 $","lat":29.6458,"lon":-95.2821,"elev":13,"name":"Houston/Hobby Arpt, TX, US","cover":"SCT","clouds":[{"cover":"SCT","base":3500}],"fltCat":"VFR"},{"icaoId":"KIAH","receiptTime":"2026-04-16T20:56:25.050Z","obsTime":1776372780,"reportTime":"2026-04-16T21:00:00.000Z","temp":30,"dewp":19.4,"wdir":170,"wspd":12,"wgst":19,"visib":"10+","altim":1014.6,"slp":1014.6,"qcField":4,"presTend":-2.1,"metarType":"METAR","rawOb":"METAR KIAH 162053Z 17012G19KT 10SM SCT040 SCT065 30/19 A2996 RMK AO2 SLP146 T03000194 58021","lat":29.9844,"lon":-95.3607,"elev":27,"name":"Houston/Bush Intl, TX, US","cover":"SCT","clouds":[{"cover":"SCT","base":4000},{"cover":"SCT","base":6500}],"fltCat":"VFR"},{"icaoId":"KLVS","receiptTime":"2026-04-16T20:56:19.386Z","obsTime":1776372780,"reportTime":"2026-04-16T21:00:00.000Z","temp":18.9,"dewp":-12.2,"wdir":210,"wspd":22,"wgst":41,"visib":"10+","altim":1015,"slp":1006.7,"qcField":6,"presTend":-1.8,"metarType":"METAR","rawOb":"METAR KLVS 162053Z AUTO 21022G41KT 10SM CLR 19/M12 A2997 RMK AO2 PK WND 19041/2053 SLP067 T01891122 56018","lat":35.6558,"lon":-105.1385,"elev":2095,"name":"Las Vegas Muni, NM, US","cover":"CLR","clouds":[],"fltCat":"VFR"},{"icaoId":"KLAW","receiptTime":"2026-04-16T20:56:25.226Z","obsTime":1776372780,"reportTime":"2026-04-16T21:00:00.000Z","temp":30.6,"dewp":9.4,"wdir":190,"wspd":9,"visib":"10+","altim":1010.2,"slp":1008.9,"qcField":4,"presTend":-2.2,"metarType":"METAR","rawOb":"METAR KLAW 162053Z 19009KT 10SM CLR 31/09 A2983 RMK AO2 SLP089 T03060094 58022","lat":34.5577,"lon":-98.4172,"elev":328,"name":"Lawton-Fort Sill Rgnl, OK, US","cover":"CLR","clouds":[],"fltCat":"VFR"},{"icaoId":"KMCO","receiptTime":"2026-04-16T20:56:19.505Z","obsTime":1776372780,"reportTime":"2026-04-16T21:00:00.000Z","temp":29.4,"dewp":13.3,"wdir":70,"wspd":8,"visib":"10+","altim":1018.4,"slp":1018,"qcField":4,"presTend":-2.8,"metarType":"METAR","rawOb":"METAR KMCO 162053Z 07008KT 10SM FEW035 SCT300 29/13 A3007 RMK AO2 SLP180 T02940133 58028","lat":28.4182,"lon":-81.3241,"elev":27,"name":"Orlando Intl, FL, US","cover":"SCT","clouds":[{"cover":"FEW","base":3500},{"cover":"SCT","base":30000}],"fltCat":"VFR"},{"icaoId":"KASE","receiptTime":"2026-04-16T20:56:21.700Z","obsTime":1776372780,"reportTime":"2026-04-16T21:00:00.000Z","temp":16.7,"dewp":-7.8,"wdir":220,"wspd":8,"wgst":21,"visib":"10+","altim":1010.9,"slp":1002.9,"qcField":4,"presTend":-2,"metarType":"METAR","rawOb":"METAR KASE 162053Z 22008G21KT 170V260 10SM BKN100 17/M08 A2985 RMK AO2 PK WND 27029/2031 SLP029 T01671078 56020","lat":39.2299,"lon":-106.8705,"elev":2384,"name":"Aspen/Pitkin Cnty, CO, US","cover":"BKN","clouds":[{"cover":"BKN","base":10000}],"fltCat":"VFR"},{"icaoId":"KBCE","receiptTime":"2026-04-16T20:56:22.603Z","obsTime":1776372780,"reportTime":"2026-04-16T21:00:00.000Z","temp":13.3,"dewp":-10.6,"wdir":220,"wspd":18,"wgst":31,"visib":"10+","altim":1013.6,"slp":1005.3,"qcField":6,"presTend":-1.5,"metarType":"METAR","rawOb":"METAR KBCE 162053Z AUTO 22018G31KT 10SM CLR 13/M11 A2993 RMK AO2 PK WND 21039/2020 SLP053 T01331106 56015","lat":37.7013,"lon":-112.149,"elev":2311,"name":"Bryce Canyon Arpt, UT, US","cover":"CLR","clouds":[],"fltCat":"VFR"},{"icaoId":"KBFI","receiptTime":"2026-04-16T20:56:22.668Z","obsTime":1776372780,"reportTime":"2026-04-16T21:00:00.000Z","temp":11.7,"dewp":-0.6,"wdir":170,"wspd":5,"visib":"10+","altim":1025.1,"slp":1025.1,"qcField":12,"metarType":"METAR","rawOb":"METAR KBFI 162053Z 17005KT 10SM SCT046 12/M01 A3027 RMK AO2 SLP251 T01171006 50000 $","lat":47.5455,"lon":-122.3148,"elev":7,"name":"Seattle/Boeing Fld, WA, US","cover":"SCT","clouds":[{"cover":"SCT","base":4600}],"fltCat":"VFR"},{"icaoId":"KBHM","receiptTime":"2026-04-16T20:56:22.720Z","obsTime":1776372780,"reportTime":"2026-04-16T21:00:00.000Z","temp":30.6,"dewp":13.9,"wdir":0,"wspd":0,"visib":"10+","altim":1017.4,"slp":1016.3,"qcField":4,"presTend":-2.7,"metarType":"METAR","rawOb":"METAR KBHM 162053Z 00000KT 10SM SCT060 31/14 A3004 RMK AO2 SLP163 T03060139 58027","lat":33.5655,"lon":-86.7449,"elev":191,"name":"Birmingham Intl, AL, US","cover":"SCT","clouds":[{"cover":"SCT","base":6000}],"fltCat":"VFR"},{"icaoId":"KBIL","receiptTime":"2026-04-16T20:56:18.715Z","obsTime":1776372780,"reportTime":"2026-04-16T21:00:00.000Z","temp":5.6,"dewp":-5.6,"wdir":360,"wspd":16,"wgst":22,"visib":"10+","altim":1009.6,"slp":1010.5,"qcField":4,"presTend":0.2,"pcp3hr":0.005,"metarType":"METAR","rawOb":"METAR KBIL 162053Z 36016G22KT 10SM FEW036 OVC046 06/M06 A2981 RMK AO2 SLP105 VCSH N SHRASN DSNT ALQDS 60000 T00561056 53002","lat":45.8072,"lon":-108.5462,"elev":1089,"name":"Billings/Logan Intl, MT, US","cover":"OVC","clouds":[{"cover":"FEW","base":3600},{"cover":"OVC","base":4600}],"fltCat":"VFR"},{"icaoId":"KBNA","receiptTime":"2026-04-16T20:56:22.829Z","obsTime":1776372780,"reportTime":"2026-04-16T21:00:00.000Z","temp":28.3,"dewp":11.7,"wdir":260,"wspd":10,"visib":"10+","altim":1015.7,"slp":1014.8,"qcField":4,"presTend":-1.6,"metarType":"METAR","rawOb":"METAR KBNA 162053Z 26010KT 10SM FEW050 FEW160 SCT250 28/12 A2999 RMK AO2 SLP148 T02830117 58016","lat":36.1105,"lon":-86.6881,"elev":168,"name":"Nashville Intl, TN, US","cover":"SCT","clouds":[{"cover":"FEW","base":5000},{"cover":"FEW","base":16000},{"cover":"SCT","base":25000}],"fltCat":"VFR"},{"icaoId":"KMDW","receiptTime":"2026-04-16T20:56:19.528Z","obsTime":1776372780,"reportTime":"2026-04-16T21:00:00.000Z","temp":23.3,"dewp":13.3,"wdir":270,"wspd":12,"wgst":18,"visib":"10+","altim":1009.9,"slp":1009.1,"qcField":4,"presTend":0.7,"pcp3hr":0.02,"metarType":"METAR","rawOb":"METAR KMDW 162053Z 27012G18KT 10SM FEW042 SCT050 BKN075 23/13 A2982 RMK AO2 SLP091 60002 T02330133 53007","lat":41.7841,"lon":-87.7552,"elev":186,"name":"Chicago/Midway Intl, IL, US","cover":"BKN","clouds":[{"cover":"FEW","base":4200},{"cover":"SCT","base":5000},{"cover":"BKN","base":7500}],"fltCat":"VFR"},{"icaoId":"KSDL","receiptTime":"2026-04-16T20:56:24.464Z","obsTime":1776372780,"reportTime":"2026-04-16T21:00:00.000Z","temp":28.3,"dewp":-7.2,"wdir":200,"wspd":6,"visib":"10+","altim":1011.3,"slp":1009.1,"qcField":4,"presTend":-2.1,"metarType":"METAR","rawOb":"METAR KSDL 162053Z 20006KT 10SM CLR 28/M07 A2986 RMK AO2 SLP091 T02831072 58021","lat":33.6123,"lon":-111.9232,"elev":438,"name":"Scottsdale Muni, AZ, US","cover":"CLR","clouds":[],"fltCat":"VFR"},{"icaoId":"KSNA","receiptTime":"2026-04-16T20:56:24.616Z","obsTime":1776372780,"reportTime":"2026-04-16T21:00:00.000Z","temp":20.6,"dewp":12.2,"wdir":210,"wspd":12,"visib":"10+","altim":1013.3,"slp":1013,"qcField":4,"presTend":-1.5,"metarType":"METAR","rawOb":"METAR KSNA 162053Z 21012KT 10SM FEW060 OVC180 21/12 A2992 RMK AO2 SLP130 T02060122 56015","lat":33.6798,"lon":-117.8675,"elev":14,"name":"Santa Ana/Wayne Arpt, CA, US","cover":"OVC","clouds":[{"cover":"FEW","base":6000},{"cover":"OVC","base":18000}],"fltCat":"VFR"},{"icaoId":"KFUL","receiptTime":"2026-04-16T20:56:19.638Z","obsTime":1776372780,"reportTime":"2026-04-16T21:00:00.000Z","temp":22.2,"dewp":12.2,"wdir":200,"wspd":6,"visib":"10+","altim":1012.6,"slp":1012.3,"qcField":4,"presTend":-1.8,"metarType":"METAR","rawOb":"METAR KFUL 162053Z 20006KT 10SM CLR 22/12 A2990 RMK AO2 SLP123 T02220122 57018","lat":33.8715,"lon":-117.9856,"elev":23,"name":"Fullerton Muni, CA, US","cover":"CLR","clouds":[],"fltCat":"VFR"},{"icaoId":"KPAE","receiptTime":"2026-04-16T20:56:26.172Z","obsTime":1776372780,"reportTime":"2026-04-16T21:00:00.000Z","temp":9.4,"dewp":-0.6,"wdir":"VRB","wspd":3,"visib":"10+","altim":1025.1,"slp":1025.2,"qcField":4,"presTend":0.7,"metarType":"METAR","rawOb":"METAR KPAE 162053Z VRB03KT 10SM SCT048 09/M01 A3027 RMK AO2 SLP252 T00941006 51007","lat":47.9232,"lon":-122.2831,"elev":166,"name":"Everett/Paine Fld, WA, US","cover":"SCT","clouds":[{"cover":"SCT","base":4800}],"fltCat":"VFR"},{"icaoId":"KGTF","receiptTime":"2026-04-16T20:56:19.977Z","obsTime":1776372780,"reportTime":"2026-04-16T21:00:00.000Z","temp":1.1,"dewp":-6.1,"wdir":310,"wspd":10,"wgst":17,"visib":"10+","altim":1012.3,"slp":1015.5,"qcField":4,"presTend":-0.1,"metarType":"METAR","rawOb":"METAR KGTF 162053Z 31010G17KT 10SM BKN036 01/M06 A2989 RMK AO2 SLP155 T00111061 56001","lat":47.4733,"lon":-111.3828,"elev":1117,"name":"Great Falls Intl, MT, US","cover":"BKN","clouds":[{"cover":"BKN","base":3600}],"fltCat":"VFR"},{"icaoId":"KSBA","receiptTime":"2026-04-16T20:56:27.150Z","obsTime":1776372780,"reportTime":"2026-04-16T21:00:00.000Z","temp":18.9,"dewp":12.2,"wdir":210,"wspd":6,"visib":"10+","altim":1013.3,"slp":1013.1,"qcField":12,"presTend":-1,"metarType":"METAR","rawOb":"METAR KSBA 162053Z 21006KT 10SM CLR 19/12 A2992 RMK AO2 SLP131 T01890122 58010 $","lat":34.4241,"lon":-119.8425,"elev":2,"name":"Santa Barbara Muni, CA, US","cover":"CLR","clouds":[],"fltCat":"VFR"},{"icaoId":"KCDC","receiptTime":"2026-04-16T20:56:21.973Z","obsTime":1776372780,"reportTime":"2026-04-16T21:00:00.000Z","temp":17.8,"dewp":-5.6,"wdir":200,"wspd":23,"wgst":38,"visib":"10+","altim":1010.6,"slp":1005.4,"qcField":6,"presTend":-1.3,"metarType":"METAR","rawOb":"METAR KCDC 162053Z AUTO 20023G38KT 10SM CLR 18/M06 A2984 RMK AO2 PK WND 20041/2021 SLP054 T01781056 56013","lat":37.7067,"lon":-113.097,"elev":1703,"name":"Cedar City Muni, UT, US","cover":"CLR","clouds":[],"fltCat":"VFR"},{"icaoId":"KONT","receiptTime":"2026-04-16T20:56:26.044Z","obsTime":1776372780,"reportTime":"2026-04-16T21:00:00.000Z","temp":22.2,"dewp":7.2,"wdir":260,"wspd":9,"wgst":15,"visib":"10+","altim":1012.6,"slp":1011.7,"qcField":12,"presTend":-1.9,"metarType":"METAR","rawOb":"METAR KONT 162053Z 26009G15KT 10SM FEW070 SCT240 OVC270 22/07 A2990 RMK AO2 SLP117 T02220072 58019 $","lat":34.0531,"lon":-117.5769,"elev":279,"name":"Ontario Intl, CA, US","cover":"OVC","clouds":[{"cover":"FEW","base":7000},{"cover":"SCT","base":24000},{"cover":"OVC","base":27000}],"fltCat":"VFR"},{"icaoId":"KLAR","receiptTime":"2026-04-16T20:56:25.214Z","obsTime":1776372780,"reportTime":"2026-04-16T21:00:00.000Z","temp":15,"dewp":-7.8,"wdir":230,"wspd":22,"wgst":34,"visib":"10+","altim":1006.5,"slp":998.8,"qcField":6,"presTend":-2,"metarType":"METAR","rawOb":"METAR KLAR 162053Z AUTO 23022G34KT 10SM BKN100 15/M08 A2972 RMK AO2 PK WND 21039/2001 SLP988 T01501078 56020","lat":41.3165,"lon":-105.6729,"elev":2217,"name":"Laramie Rgnl, WY, US","cover":"BKN","clouds":[{"cover":"BKN","base":10000}],"fltCat":"VFR"},{"icaoId":"KCVG","receiptTime":"2026-04-16T20:56:23.427Z","obsTime":1776372720,"reportTime":"2026-04-16T21:00:00.000Z","temp":25,"dewp":10.6,"wdir":230,"wspd":15,"wgst":23,"visib":"10+","altim":1012.6,"slp":1011.6,"qcField":4,"presTend":-0.7,"metarType":"METAR","rawOb":"METAR KCVG 162052Z 23015G23KT 10SM BKN070 BKN250 25/11 A2990 RMK AO2 SLP116 T02500106 58007","lat":39.0444,"lon":-84.6724,"elev":264,"name":"Cincinnati Intl, KY, US","cover":"BKN","clouds":[{"cover":"BKN","base":7000},{"cover":"BKN","base":25000}],"fltCat":"VFR"},{"icaoId":"KIAD","receiptTime":"2026-04-16T20:56:23.592Z","obsTime":1776372720,"reportTime":"2026-04-16T21:00:00.000Z","temp":33.3,"dewp":10.6,"wdir":230,"wspd":14,"wgst":22,"visib":"10+","altim":1007.5,"slp":1007.2,"qcField":4,"presTend":-3.5,"metarType":"METAR","rawOb":"METAR KIAD 162052Z 23014G22KT 10SM FEW070 33/11 A2975 RMK AO2 PK WND 20026/2006 SLP072 T03330106 56035","lat":38.9348,"lon":-77.4473,"elev":90,"name":"Washington/Dulles Intl, VA, US","cover":"FEW","clouds":[{"cover":"FEW","base":7000}],"fltCat":"VFR"},{"icaoId":"KHRL","receiptTime":"2026-04-16T20:56:23.567Z","obsTime":1776372720,"reportTime":"2026-04-16T21:00:00.000Z","temp":30,"dewp":20,"wdir":140,"wspd":16,"wgst":23,"visib":"10+","altim":1013,"slp":1012.7,"qcField":4,"presTend":-2.1,"metarType":"METAR","rawOb":"METAR KHRL 162052Z 14016G23KT 10SM SCT049 BKN055 30/20 A2991 RMK AO2 SLP127 T03000200 56021","lat":26.2303,"lon":-97.6556,"elev":9,"name":"Harlingen/Valley Intl, TX, US","cover":"BKN","clouds":[{"cover":"SCT","base":4900},{"cover":"BKN","base":5500}],"fltCat":"VFR"},{"icaoId":"KSPS","receiptTime":"2026-04-16T20:56:24.158Z","obsTime":1776372720,"reportTime":"2026-04-16T21:00:00.000Z","temp":32.2,"dewp":13.3,"wdir":210,"wspd":12,"wgst":21,"visib":"10+","altim":1010.2,"slp":1008.6,"qcField":4,"presTend":-2.4,"metarType":"METAR","rawOb":"METAR KSPS 162052Z 21012G21KT 10SM CLR 32/13 A2983 RMK AO2 SLP086 T03220133 58024","lat":33.9785,"lon":-98.493,"elev":310,"name":"Wichita Falls Rgnl, TX, US","cover":"CLR","clouds":[],"fltCat":"VFR"},{"icaoId":"KABQ","receiptTime":"2026-04-16T20:56:24.042Z","obsTime":1776372720,"reportTime":"2026-04-16T21:00:00.000Z","temp":21.7,"dewp":-13.3,"wdir":180,"wspd":17,"wgst":27,"visib":"10+","altim":1014,"slp":1008.2,"qcField":4,"presTend":-3.1,"metarType":"METAR","rawOb":"METAR KABQ 162052Z 18017G27KT 10SM BKN200 22/M13 A2994 RMK AO2 PK WND 16032/2023 SLP082 T02171133 58031","lat":35.0419,"lon":-106.6154,"elev":1620,"name":"Albuquerque Intl, NM, US","cover":"BKN","clouds":[{"cover":"BKN","base":20000}],"fltCat":"VFR"},{"icaoId":"KCLT","receiptTime":"2026-04-16T20:56:23.400Z","obsTime":1776372720,"reportTime":"2026-04-16T21:00:00.000Z","temp":30.6,"dewp":8.9,"wdir":230,"wspd":9,"wgst":19,"visib":"10+","altim":1014.3,"slp":1014.6,"qcField":4,"presTend":-2.7,"metarType":"METAR","rawOb":"METAR KCLT 162052Z 23009G19KT 10SM CLR 31/09 A2995 RMK AO2 SLP146 T03060089 56027","lat":35.2225,"lon":-80.9543,"elev":223,"name":"Charlotte/Douglas Intl, NC, US","cover":"CLR","clouds":[],"fltCat":"VFR"},{"icaoId":"KATL","receiptTime":"2026-04-16T20:56:23.283Z","obsTime":1776372720,"reportTime":"2026-04-16T21:00:00.000Z","temp":28.9,"dewp":8.3,"wdir":240,"wspd":7,"visib":"10+","altim":1017.4,"slp":1016.3,"qcField":12,"presTend":-2.6,"metarType":"METAR","rawOb":"METAR KATL 162052Z 24007KT 10SM FEW085 29/08 A3004 RMK AO2 SLP163 T02890083 58026 $","lat":33.6297,"lon":-84.4422,"elev":309,"name":"Atlanta/Hartsfield-Jackson Intl, GA, US","cover":"FEW","clouds":[{"cover":"FEW","base":8500}],"fltCat":"VFR"},{"icaoId":"KMLF","receiptTime":"2026-04-16T20:56:24.147Z","obsTime":1776372720,"reportTime":"2026-04-16T21:00:00.000Z","temp":20.6,"dewp":-6.1,"wdir":210,"wspd":27,"wgst":42,"visib":"10+","altim":1007.5,"slp":1002.8,"qcField":6,"presTend":-2.2,"metarType":"METAR","rawOb":"METAR KMLF 162052Z AUTO 21027G42KT 10SM CLR 21/M06 A2975 RMK AO2 PK WND 21047/2026 SLP028 T02061061 56022","lat":38.4225,"lon":-113.0109,"elev":1537,"name":"Milford Muni, UT, US","cover":"CLR","clouds":[],"fltCat":"VFR"},{"icaoId":"KOKC","receiptTime":"2026-04-16T20:56:20.324Z","obsTime":1776372720,"reportTime":"2026-04-16T21:00:00.000Z","temp":28.9,"dewp":14.4,"wdir":180,"wspd":15,"wgst":22,"visib":"10+","altim":1009.9,"slp":1008.5,"qcField":4,"presTend":-2.1,"metarType":"METAR","rawOb":"METAR KOKC 162052Z 18015G22KT 10SM FEW045 FEW250 29/14 A2982 RMK AO2 SLP085 T02890144 58021","lat":35.3843,"lon":-97.6003,"elev":391,"name":"Oklahoma City/Will Rogers Intl, OK, US","cover":"FEW","clouds":[{"cover":"FEW","base":4500},{"cover":"FEW","base":25000}],"fltCat":"VFR"},{"icaoId":"KABI","receiptTime":"2026-04-16T20:56:24.031Z","obsTime":1776372720,"reportTime":"2026-04-16T21:00:00.000Z","temp":29.4,"dewp":18.9,"wdir":170,"wspd":12,"wgst":20,"visib":"10+","altim":1012.6,"slp":1009.9,"qcField":4,"presTend":-2.5,"metarType":"METAR","rawOb":"METAR KABI 162052Z 17012G20KT 10SM FEW110 29/19 A2990 RMK AO2 SLP099 T02940189 56025","lat":32.4106,"lon":-99.6821,"elev":543,"name":"Abilene Rgnl, TX, US","cover":"FEW","clouds":[{"cover":"FEW","base":11000}],"fltCat":"VFR"},{"icaoId":"KDCA","receiptTime":"2026-04-16T20:56:23.439Z","obsTime":1776372720,"reportTime":"2026-04-16T21:00:00.000Z","temp":30.6,"dewp":15.6,"wdir":180,"wspd":14,"visib":"10+","altim":1007.5,"slp":1007.3,"qcField":4,"presTend":-3.8,"metarType":"METAR","rawOb":"METAR KDCA 162052Z 18014KT 10SM FEW070 FEW250 31/16 A2975 RMK AO2 SLP073 T03060156 58038","lat":38.8472,"lon":-77.0345,"elev":4,"name":"Washington/Reagan-National Arpt, VA, US","cover":"FEW","clouds":[{"cover":"FEW","base":7000},{"cover":"FEW","base":25000}],"fltCat":"VFR"},{"icaoId":"KVNY","receiptTime":"2026-04-16T20:54:09.228Z","obsTime":1776372660,"reportTime":"2026-04-16T21:00:00.000Z","temp":23.3,"dewp":4.4,"wdir":"VRB","wspd":5,"visib":"10+","altim":1012.3,"slp":1011.6,"qcField":12,"presTend":-1.8,"metarType":"METAR","rawOb":"METAR KVNY 162051Z VRB05KT 10SM CLR 23/04 A2989 RMK AO2 SLP116 T02330044 58018 $","lat":34.2121,"lon":-118.4915,"elev":241,"name":"Van Nuys Arpt, CA, US","cover":"CLR","clouds":[],"fltCat":"VFR"},{"icaoId":"KSTL","receiptTime":"2026-04-16T20:54:09.177Z","obsTime":1776372660,"reportTime":"2026-04-16T21:00:00.000Z","temp":27.8,"dewp":11.1,"wdir":310,"wspd":6,"visib":"10+","altim":1011.9,"slp":1011,"qcField":12,"presTend":-2,"metarType":"METAR","rawOb":"METAR KSTL 162051Z 31006KT 10SM FEW050 SCT250 28/11 A2988 RMK AO2 SLP110 TCU DSNT W T02780111 58020 $","lat":38.7525,"lon":-90.3734,"elev":163,"name":"St Louis/Lambert Intl, MO, US","cover":"SCT","clouds":[{"cover":"FEW","base":5000},{"cover":"SCT","base":25000}],"fltCat":"VFR"},{"icaoId":"KSAT","receiptTime":"2026-04-16T20:54:09.081Z","obsTime":1776372660,"reportTime":"2026-04-16T21:00:00.000Z","temp":30.6,"dewp":18.3,"wdir":110,"wspd":12,"visib":"10+","altim":1013.3,"slp":1011.4,"qcField":4,"presTend":-2.7,"metarType":"METAR","rawOb":"METAR KSAT 162051Z 11012KT 10SM FEW045 BKN070 BKN250 31/18 A2992 RMK AO2 SLP114 T03060183 58027","lat":29.5443,"lon":-98.4839,"elev":246,"name":"San Antonio Intl, TX, US","cover":"BKN","clouds":[{"cover":"FEW","base":4500},{"cover":"BKN","base":7000},{"cover":"BKN","base":25000}],"fltCat":"VFR"},{"icaoId":"KSAN","receiptTime":"2026-04-16T20:54:09.066Z","obsTime":1776372660,"reportTime":"2026-04-16T21:00:00.000Z","temp":20.6,"dewp":12.2,"wdir":250,"wspd":8,"wgst":24,"visib":"10+","altim":1014,"slp":1013.9,"qcField":12,"presTend":-1.4,"metarType":"METAR","rawOb":"METAR KSAN 162051Z 25008G24KT 10SM BKN250 21/12 A2994 RMK AO2 SLP139 T02060122 56014 $","lat":32.7364,"lon":-117.1973,"elev":3,"name":"San Diego Intl Arpt, CA, US","cover":"BKN","clouds":[{"cover":"BKN","base":25000}],"fltCat":"VFR"},{"icaoId":"KROW","receiptTime":"2026-04-16T20:54:09.045Z","obsTime":1776372660,"reportTime":"2026-04-16T21:00:00.000Z","temp":29.4,"dewp":-11.7,"wdir":200,"wspd":29,"wgst":37,"visib":"10+","altim":1011.3,"slp":1005.2,"qcField":4,"presTend":-3.7,"metarType":"METAR","rawOb":"METAR KROW 162051Z 20029G37KT 10SM CLR 29/M12 A2986 RMK AO2 PK WND 21037/2051 SLP052 T02941117 58037","lat":33.3074,"lon":-104.5082,"elev":1105,"name":"Roswell/Ind Arpt, NM, US","cover":"CLR","clouds":[],"fltCat":"VFR"},{"icaoId":"KRDU","receiptTime":"2026-04-16T20:54:09.032Z","obsTime":1776372660,"reportTime":"2026-04-16T21:00:00.000Z","temp":32.2,"dewp":11.1,"wdir":230,"wspd":12,"wgst":23,"visib":"10+","altim":1012.6,"slp":1012,"qcField":4,"presTend":-2.9,"metarType":"METAR","rawOb":"METAR KRDU 162051Z 23012G23KT 10SM FEW250 32/11 A2990 RMK AO2 PK WND 22031/1955 SLP120 T03220111 57029","lat":35.8923,"lon":-78.782,"elev":121,"name":"Raleigh-Durham Intl, NC, US","cover":"FEW","clouds":[{"cover":"FEW","base":25000}],"fltCat":"VFR"},{"icaoId":"KPHX","receiptTime":"2026-04-16T20:54:08.910Z","obsTime":1776372660,"reportTime":"2026-04-16T21:00:00.000Z","temp":30.6,"dewp":-5.6,"wdir":270,"wspd":5,"visib":"10+","altim":1009.9,"slp":1008.3,"qcField":4,"presTend":-2.3,"metarType":"METAR","rawOb":"METAR KPHX 162051Z 27005KT 10SM FEW160 BKN250 BKN290 31/M06 A2982 RMK AO2 SLP083 T03061056 58023","lat":33.4278,"lon":-112.0037,"elev":338,"name":"Phoenix/Sky Harbor Intl, AZ, US","cover":"BKN","clouds":[{"cover":"FEW","base":16000},{"cover":"BKN","base":25000},{"cover":"BKN","base":29000}],"fltCat":"VFR"},{"icaoId":"KOXR","receiptTime":"2026-04-16T20:54:08.893Z","obsTime":1776372660,"reportTime":"2026-04-16T21:00:00.000Z","temp":19.4,"dewp":12.2,"wdir":200,"wspd":9,"visib":"10+","altim":1013.3,"slp":1013,"qcField":12,"presTend":-1,"metarType":"METAR","rawOb":"METAR KOXR 162051Z 20009KT 10SM CLR 19/12 A2992 RMK AO2 SLP130 T01940122 58010 $","lat":34.2001,"lon":-119.2042,"elev":12,"name":"Oxnard Arpt, CA, US","cover":"CLR","clouds":[],"fltCat":"VFR"},{"icaoId":"KMYL","receiptTime":"2026-04-16T20:54:08.811Z","obsTime":1776372660,"reportTime":"2026-04-16T21:00:00.000Z","temp":0,"dewp":-6.1,"wdir":350,"wspd":6,"visib":"10+","altim":1015.7,"slp":1018,"qcField":6,"presTend":0.7,"precip":0.005,"pcp3hr":0.01,"metarType":"METAR","rawOb":"METAR KMYL 162051Z AUTO 35006KT 10SM SCT029 BKN034 BKN047 00/M06 A2999 RMK AO2 SNB06E18 SLP180 P0000 60001 T00001061 51007","lat":44.8943,"lon":-116.0998,"elev":1532,"name":"McCall Muni, ID, US","cover":"BKN","clouds":[{"cover":"SCT","base":2900},{"cover":"BKN","base":3400},{"cover":"BKN","base":4700}],"fltCat":"VFR"},{"icaoId":"KJFK","receiptTime":"2026-04-16T20:54:08.687Z","obsTime":1776372660,"reportTime":"2026-04-16T21:00:00.000Z","temp":21.1,"dewp":12.8,"wdir":180,"wspd":14,"visib":"10+","altim":1008.5,"slp":1008.5,"qcField":4,"presTend":-2.5,"metarType":"METAR","rawOb":"METAR KJFK 162051Z 18014KT 10SM FEW060 BKN250 21/13 A2978 RMK AO2 SLP085 T02110128 56025","lat":40.6392,"lon":-73.7639,"elev":3,"name":"New York/JF Kennedy Intl, NY, US","cover":"BKN","clouds":[{"cover":"FEW","base":6000},{"cover":"BKN","base":25000}],"fltCat":"VFR"},{"icaoId":"KLGA","receiptTime":"2026-04-16T20:56:23.651Z","obsTime":1776372660,"reportTime":"2026-04-16T21:00:00.000Z","temp":26.1,"dewp":13.9,"wdir":170,"wspd":12,"wgst":24,"visib":"10+","altim":1007.5,"slp":1007.4,"qcField":4,"presTend":-2.3,"metarType":"METAR","rawOb":"METAR KLGA 162051Z 17012G24KT 10SM FEW050 BKN250 26/14 A2975 RMK AO2 SLP074 T02610139 58023","lat":40.7794,"lon":-73.8803,"elev":9,"name":"New York/La Guardia Arpt, NY, US","cover":"BKN","clouds":[{"cover":"FEW","base":5000},{"cover":"BKN","base":25000}],"fltCat":"VFR"},{"icaoId":"KEWR","receiptTime":"2026-04-16T20:54:08.501Z","obsTime":1776372660,"reportTime":"2026-04-16T21:00:00.000Z","temp":31.1,"dewp":14.4,"wdir":140,"wspd":9,"visib":"10+","altim":1007.2,"slp":1006.9,"qcField":4,"presTend":-2.9,"metarType":"METAR","rawOb":"METAR KEWR 162051Z 14009KT 10SM FEW060 FEW200 BKN260 31/14 A2974 RMK AO2 SLP069 T03110144 57029","lat":40.6828,"lon":-74.1692,"elev":2,"name":"Newark Intl, NJ, US","cover":"BKN","clouds":[{"cover":"FEW","base":6000},{"cover":"FEW","base":20000},{"cover":"BKN","base":26000}],"fltCat":"VFR"},{"icaoId":"KELP","receiptTime":"2026-04-16T20:54:08.458Z","obsTime":1776372660,"reportTime":"2026-04-16T21:00:00.000Z","temp":27.2,"dewp":-7.2,"wdir":190,"wspd":9,"wgst":20,"visib":"10+","altim":1013.6,"slp":1007.7,"qcField":12,"presTend":-2.9,"metarType":"METAR","rawOb":"METAR KELP 162051Z 19009G20KT 10SM FEW200 SCT250 27/M07 A2993 RMK AO2 SLP077 T02721072 56029 $","lat":31.8123,"lon":-106.3774,"elev":1205,"name":"El Paso Intl, TX, US","cover":"SCT","clouds":[{"cover":"FEW","base":20000},{"cover":"SCT","base":25000}],"fltCat":"VFR"},{"icaoId":"KCRP","receiptTime":"2026-04-16T20:54:08.370Z","obsTime":1776372660,"reportTime":"2026-04-16T21:00:00.000Z","temp":29.4,"dewp":20.6,"wdir":130,"wspd":21,"wgst":27,"visib":"10+","altim":1014,"slp":1013.6,"qcField":4,"presTend":-1.9,"metarType":"METAR","rawOb":"METAR KCRP 162051Z 13021G27KT 10SM FEW018 SCT028 BKN036 29/21 A2994 RMK AO2 PK WND 14029/1958 SLP136 T02940206 56019","lat":27.7734,"lon":-97.513,"elev":11,"name":"Corpus Christi Intl, TX, US","cover":"BKN","clouds":[{"cover":"FEW","base":1800},{"cover":"SCT","base":2800},{"cover":"BKN","base":3600}],"fltCat":"VFR"},{"icaoId":"KCMH","receiptTime":"2026-04-16T20:54:08.290Z","obsTime":1776372660,"reportTime":"2026-04-16T21:00:00.000Z","temp":23.9,"dewp":14.4,"wdir":240,"wspd":16,"wgst":20,"visib":"10+","altim":1010.6,"slp":1010,"qcField":4,"presTend":-0.3,"pcp3hr":0.005,"metarType":"METAR","rawOb":"METAR KCMH 162051Z 24016G20KT 10SM FEW055 SCT100 BKN130 BKN200 24/14 A2984 RMK AO2 SLP100 60000 T02390144 58003","lat":39.9907,"lon":-82.877,"elev":257,"name":"Columbus/Glenn Intl, OH, US","cover":"BKN","clouds":[{"cover":"FEW","base":5500},{"cover":"SCT","base":10000},{"cover":"BKN","base":13000},{"cover":"BKN","base":20000}],"fltCat":"VFR"},{"icaoId":"KBDL","receiptTime":"2026-04-16T20:54:08.070Z","obsTime":1776372660,"reportTime":"2026-04-16T21:00:00.000Z","temp":30.6,"dewp":15.6,"wdir":150,"wspd":13,"visib":"10+","altim":1006.5,"slp":1006.2,"qcField":4,"presTend":-2.6,"metarType":"METAR","rawOb":"METAR KBDL 162051Z 15013KT 10SM SCT075 BKN095 OVC250 31/16 A2972 RMK AO2 SLP062 T03060156 56026","lat":41.9374,"lon":-72.682,"elev":52,"name":"Hartford/Bradley Intl, CT, US","cover":"OVC","clouds":[{"cover":"SCT","base":7500},{"cover":"BKN","base":9500},{"cover":"OVC","base":25000}],"fltCat":"VFR"},{"icaoId":"KCLE","receiptTime":"2026-04-16T20:54:08.202Z","obsTime":1776372660,"reportTime":"2026-04-16T21:00:00.000Z","temp":18.3,"dewp":15,"wdir":210,"wspd":8,"visib":9,"altim":1009.6,"slp":1010.5,"qcField":12,"wxString":"-RA","presTend":0.2,"precip":0.005,"pcp3hr":0.04,"metarType":"METAR","rawOb":"METAR KCLE 162051Z 21008KT 9SM -RA OVC095 18/15 A2981 RMK AO2 RAB03 SLP105 P0000 60004 T01830150 50002 $","lat":41.4057,"lon":-81.8519,"elev":237,"name":"Cleveland/Hopkins Intl, OH, US","cover":"OVC","clouds":[{"cover":"OVC","base":9500}],"fltCat":"VFR"},{"icaoId":"KACT","receiptTime":"2026-04-16T20:54:07.953Z","obsTime":1776372660,"reportTime":"2026-04-16T21:00:00.000Z","temp":28.9,"dewp":19.4,"wdir":190,"wspd":11,"visib":"10+","altim":1013.3,"slp":1012.5,"qcField":6,"presTend":-2.7,"metarType":"METAR","rawOb":"METAR KACT 162051Z AUTO 19011KT 10SM FEW048 29/19 A2992 RMK AO2 SLP125 T02890194 58027","lat":31.618,"lon":-97.2283,"elev":150,"name":"Waco Rgnl, TX, US","cover":"FEW","clouds":[{"cover":"FEW","base":4800}],"fltCat":"VFR"},{"icaoId":"KSAD","receiptTime":"2026-04-16T20:54:09.055Z","obsTime":1776372660,"reportTime":"2026-04-16T21:00:00.000Z","temp":26.1,"dewp":-10.6,"wdir":0,"wspd":0,"visib":"10+","altim":1011.9,"slp":1008.2,"qcField":6,"presTend":-3,"metarType":"METAR","rawOb":"METAR KSAD 162051Z AUTO 00000KT 10SM CLR 26/M11 A2988 RMK AO2 SLP082 T02611106 58030","lat":32.8565,"lon":-109.636,"elev":937,"name":"Safford Rgnl, AZ, US","cover":"CLR","clouds":[],"fltCat":"VFR"},{"icaoId":"KPVD","receiptTime":"2026-04-16T20:54:08.983Z","obsTime":1776372660,"reportTime":"2026-04-16T21:00:00.000Z","temp":28.3,"dewp":15,"wdir":210,"wspd":16,"wgst":22,"visib":"10+","altim":1007.9,"slp":1007.6,"qcField":12,"presTend":-2.5,"metarType":"METAR","rawOb":"METAR KPVD 162051Z 21016G22KT 10SM FEW050 BKN250 28/15 A2976 RMK AO2 SLP076 T02830150 56025 $","lat":41.7225,"lon":-71.4325,"elev":15,"name":"Providence/Green Mem, RI, US","cover":"BKN","clouds":[{"cover":"FEW","base":5000},{"cover":"BKN","base":25000}],"fltCat":"VFR"},{"icaoId":"KORF","receiptTime":"2026-04-16T20:54:08.879Z","obsTime":1776372660,"reportTime":"2026-04-16T21:00:00.000Z","temp":32.8,"dewp":13.3,"wdir":210,"wspd":19,"wgst":27,"visib":"10+","altim":1010.9,"slp":1010.6,"qcField":4,"presTend":-2.4,"precip":0.005,"pcp3hr":0.005,"metarType":"METAR","rawOb":"METAR KORF 162051Z 21019G27KT 10SM CLR 33/13 A2985 RMK AO2 PK WND 20028/2011 RAE1952 SLP106 P0000 60000 T03280133 56024","lat":36.9037,"lon":-76.1927,"elev":5,"name":"Norfolk Intl, VA, US","cover":"CLR","clouds":[],"fltCat":"VFR"},{"icaoId":"KIGM","receiptTime":"2026-04-16T20:54:08.623Z","obsTime":1776372660,"reportTime":"2026-04-16T21:00:00.000Z","temp":22.8,"dewp":-5.6,"wdir":200,"wspd":26,"wgst":36,"visib":"10+","altim":1012.6,"slp":1006.7,"qcField":6,"presTend":-1.2,"metarType":"METAR","rawOb":"METAR KIGM 162051Z AUTO 20026G36KT 10SM CLR 23/M06 A2990 RMK AO2 PK WND 21039/2026 SLP067 T02281056 56012","lat":35.2575,"lon":-113.9341,"elev":1045,"name":"Kingman Arpt, AZ, US","cover":"CLR","clouds":[],"fltCat":"VFR"},{"icaoId":"KADM","receiptTime":"2026-04-16T20:50:35.348Z","obsTime":1776372600,"reportTime":"2026-04-16T21:00:00.000Z","temp":29,"dewp":20,"wdir":170,"wspd":14,"wgst":20,"visib":"10+","altim":1011.3,"qcField":0,"metarType":"METAR","rawOb":"METAR KADM 162050Z 17014G20KT 10SM FEW039 29/20 A2986","lat":34.3007,"lon":-97.0089,"elev":223,"name":"Ardmore Muni, OK, US","cover":"FEW","clouds":[{"cover":"FEW","base":3900}],"fltCat":"VFR"},{"icaoId":"KGEU","receiptTime":"2026-04-16T20:47:40.586Z","obsTime":1776372420,"reportTime":"2026-04-16T21:00:00.000Z","temp":29,"dewp":-6,"wdir":"VRB","wspd":3,"visib":"10+","altim":1009.6,"qcField":0,"metarType":"METAR","rawOb":"METAR KGEU 162047Z VRB03KT 10SM OVC230 29/M06 A2981","lat":33.528,"lon":-112.293,"elev":319,"name":"Glendale Muni, AZ, US","cover":"OVC","clouds":[{"cover":"OVC","base":23000}],"fltCat":"VFR"}]