[{"icaoId":"KSOW","receiptTime":"2026-04-15T12:37:06.050Z","obsTime":1776256500,"reportTime":"2026-04-15T12:35:00.000Z","temp":-2,"dewp":-7,"wdir":0,"wspd":0,"visib":"10+","altim":1020.1,"qcField":6,"metarType":"METAR","rawOb":"METAR KSOW 151235Z AUTO 00000KT 10SM CLR M02/M07 A3012 RMK AO2","lat":34.2686,"lon":-110.0019,"elev":1954,"name":"Show Low Muni, AZ, US","cover":"CLR","clouds":[],"fltCat":"VFR"},{"icaoId":"KLRU","receiptTime":"2026-04-15T12:37:08.414Z","obsTime":1776256500,"reportTime":"2026-04-15T12:35:00.000Z","temp":6.1,"dewp":-8.4,"wdir":310,"wspd":4,"visib":"10+","altim":1017.4,"qcField":6,"metarType":"METAR","rawOb":"METAR KLRU 151235Z AUTO 31004KT 10SM CLR 06/M08 A3004 RMK AO2 T00611084","lat":32.2884,"lon":-106.9131,"elev":1355,"name":"Las Cruces Intl, NM, US","cover":"CLR","clouds":[],"fltCat":"VFR"},{"icaoId":"KBVU","receiptTime":"2026-04-15T12:36:09.360Z","obsTime":1776256500,"reportTime":"2026-04-15T12:35:00.000Z","temp":12,"dewp":-5,"wdir":0,"wspd":0,"visib":"10+","altim":1015,"qcField":6,"metarType":"METAR","rawOb":"METAR KBVU 151235Z AUTO 00000KT 10SM CLR 12/M05 A2997 RMK AO2","lat":35.9489,"lon":-114.8633,"elev":654,"name":"Boulder City Muni, NV, US","cover":"CLR","clouds":[],"fltCat":"VFR"},{"icaoId":"KHAF","receiptTime":"2026-04-15T12:37:07.892Z","obsTime":1776256500,"reportTime":"2026-04-15T12:35:00.000Z","temp":11,"dewp":10,"wdir":340,"wspd":6,"visib":"10+","altim":1019,"qcField":6,"metarType":"METAR","rawOb":"METAR KHAF 151235Z AUTO 34006KT 10SM OVC018 11/10 A3009 RMK AO2","lat":37.5136,"lon":-122.4996,"elev":11,"name":"Half Moon Bay Arpt, CA, US","cover":"OVC","clouds":[{"cover":"OVC","base":1800}],"fltCat":"MVFR"},{"icaoId":"KHCR","receiptTime":"2026-04-15T12:37:11.020Z","obsTime":1776256500,"reportTime":"2026-04-15T12:35:00.000Z","temp":-4.1,"dewp":-5.9,"wdir":0,"wspd":0,"visib":9,"altim":1016.3,"qcField":14,"metarType":"METAR","rawOb":"METAR KHCR 151235Z AUTO 00000KT 9SM CLR M04/M06 A3001 RMK AO2 T10411059 $","lat":40.4774,"lon":-111.4329,"elev":1708,"name":"Heber City Muni, UT, US","cover":"CLR","clouds":[],"fltCat":"VFR"},{"icaoId":"KSTS","receiptTime":"2026-04-15T12:37:06.575Z","obsTime":1776256440,"reportTime":"2026-04-15T12:34:00.000Z","temp":5,"dewp":5,"wdir":0,"wspd":0,"visib":2,"altim":1018.4,"qcField":6,"wxString":"BR","metarType":"SPECI","rawOb":"SPECI KSTS 151234Z AUTO 00000KT 2SM BR CLR 05/05 A3007 RMK AO2 T00500050","lat":38.5037,"lon":-122.811,"elev":35,"name":"Santa Rosa/Schulz Arpt, CA, US","cover":"CLR","clouds":[],"fltCat":"IFR"},{"icaoId":"KSLE","receiptTime":"2026-04-15T12:36:10.166Z","obsTime":1776256380,"reportTime":"2026-04-15T12:33:00.000Z","temp":8.3,"dewp":7.2,"wdir":270,"wspd":6,"visib":2.5,"altim":1009.6,"qcField":6,"wxString":"+RA BR","precip":0.18,"metarType":"SPECI","rawOb":"SPECI KSLE 151233Z AUTO 27006KT 2 1/2SM +RA BR SCT010 BKN015 OVC037 08/07 A2981 RMK AO2 P0018 T00830072","lat":44.9049,"lon":-123.001,"elev":63,"name":"Salem Muni, OR, US","cover":"OVC","clouds":[{"cover":"SCT","base":1000},{"cover":"BKN","base":1500},{"cover":"OVC","base":3700}],"fltCat":"IFR"},{"icaoId":"KDAL","receiptTime":"2026-04-15T12:36:09.866Z","obsTime":1776256380,"reportTime":"2026-04-15T12:33:00.000Z","temp":21.7,"dewp":18.9,"wdir":160,"wspd":7,"visib":7,"altim":1013,"qcField":4,"precip":0.005,"metarType":"SPECI","rawOb":"SPECI KDAL 151233Z 16007KT 7SM FEW024 OVC035 22/19 A2991 RMK AO2 RAE06 P0000 T02170189","lat":32.8384,"lon":-96.8358,"elev":148,"name":"Dallas/Love Fld, TX, US","cover":"OVC","clouds":[{"cover":"FEW","base":2400},{"cover":"OVC","base":3500}],"fltCat":"VFR"},{"icaoId":"KMFE","receiptTime":"2026-04-15T12:36:05.539Z","obsTime":1776256320,"reportTime":"2026-04-15T12:32:00.000Z","temp":23.9,"dewp":21.7,"wdir":130,"wspd":10,"visib":9,"altim":1012.3,"qcField":4,"metarType":"SPECI","rawOb":"SPECI KMFE 151232Z 13010KT 9SM FEW015 BKN031 BKN042 24/22 A2989 RMK AO2 T02390217","lat":26.1791,"lon":-98.2445,"elev":29,"name":"McAllen/Miller Intl, TX, US","cover":"BKN","clouds":[{"cover":"FEW","base":1500},{"cover":"BKN","base":3100},{"cover":"BKN","base":4200}],"fltCat":"VFR"},{"icaoId":"KCLL","receiptTime":"2026-04-15T12:32:30.511Z","obsTime":1776256080,"reportTime":"2026-04-15T12:28:00.000Z","temp":20,"dewp":19.4,"wdir":150,"wspd":7,"visib":2.5,"altim":1015.7,"qcField":6,"wxString":"BR","metarType":"SPECI","rawOb":"SPECI KCLL 151228Z AUTO 15007KT 2 1/2SM BR OVC002 20/19 A2999 RMK AO2 T02000194","lat":30.5912,"lon":-96.3631,"elev":96,"name":"College Station/Easterwood Arpt, TX, US","cover":"OVC","clouds":[{"cover":"OVC","base":200}],"fltCat":"LIFR"},{"icaoId":"KCEC","receiptTime":"2026-04-15T12:30:09.335Z","obsTime":1776256020,"reportTime":"2026-04-15T12:27:00.000Z","temp":8.9,"dewp":7.8,"wdir":160,"wspd":15,"wgst":27,"visib":9,"altim":1018,"qcField":6,"wxString":"-RA","precip":0.02,"metarType":"SPECI","rawOb":"SPECI KCEC 151227Z AUTO 16015G27KT 9SM -RA FEW008 BKN015 OVC040 09/08 A3006 RMK AO2 PK WND 15027/1220 P0002 T00890078","lat":41.7836,"lon":-124.238,"elev":17,"name":"Crescent City/McNama, CA, US","cover":"OVC","clouds":[{"cover":"FEW","base":800},{"cover":"BKN","base":1500},{"cover":"OVC","base":4000}],"fltCat":"MVFR"},{"icaoId":"KGUC","receiptTime":"2026-04-15T12:30:05.292Z","obsTime":1776256020,"reportTime":"2026-04-15T12:27:00.000Z","temp":-4,"dewp":-4,"wdir":320,"wspd":3,"visib":"10+","altim":1019,"qcField":78,"metarType":"SPECI","rawOb":"SPECI KGUC 151227Z AUTO 32003KT 10SM BKN010 BKN075 M04/M04 A3009 RMK AO2 FZRANO $","lat":38.5322,"lon":-106.9419,"elev":2337,"name":"Gunnison Arpt, CO, US","cover":"BKN","clouds":[{"cover":"BKN","base":1000},{"cover":"BKN","base":7500}],"fltCat":"MVFR"},{"icaoId":"KHRL","receiptTime":"2026-04-15T12:28:06.720Z","obsTime":1776255900,"reportTime":"2026-04-15T12:25:00.000Z","temp":22.8,"dewp":21.7,"wdir":140,"wspd":9,"visib":8,"altim":1013,"qcField":4,"metarType":"SPECI","rawOb":"SPECI KHRL 151225Z 14009KT 8SM SCT014 OVC030 23/22 A2991 RMK AO2 T02280217","lat":26.2303,"lon":-97.6556,"elev":9,"name":"Harlingen/Valley Intl, TX, US","cover":"OVC","clouds":[{"cover":"SCT","base":1400},{"cover":"OVC","base":3000}],"fltCat":"MVFR"},{"icaoId":"KMYL","receiptTime":"2026-04-15T12:26:06.347Z","obsTime":1776255780,"reportTime":"2026-04-15T12:23:00.000Z","temp":2.2,"dewp":1.1,"wdir":160,"wspd":8,"visib":9,"altim":1009.9,"qcField":6,"wxString":"-RA","precip":0.02,"metarType":"SPECI","rawOb":"SPECI KMYL 151223Z AUTO 16008KT 9SM -RA BKN010 OVC016 02/01 A2982 RMK AO2 P0002 T00220011","lat":44.8943,"lon":-116.0998,"elev":1532,"name":"McCall Muni, ID, US","cover":"OVC","clouds":[{"cover":"BKN","base":1000},{"cover":"OVC","base":1600}],"fltCat":"MVFR"},{"icaoId":"KSPS","receiptTime":"2026-04-15T12:24:09.002Z","obsTime":1776255660,"reportTime":"2026-04-15T12:21:00.000Z","temp":21.1,"dewp":18.9,"wdir":190,"wspd":11,"visib":"10+","altim":1009.9,"qcField":4,"metarType":"SPECI","rawOb":"SPECI KSPS 151221Z 19011KT 10SM FEW040 SCT120 BKN250 21/19 A2982 RMK AO2 T02110189","lat":33.9785,"lon":-98.493,"elev":310,"name":"Wichita Falls Rgnl, TX, US","cover":"BKN","clouds":[{"cover":"FEW","base":4000},{"cover":"SCT","base":12000},{"cover":"BKN","base":25000}],"fltCat":"VFR"},{"icaoId":"KORD","receiptTime":"2026-04-15T12:24:08.988Z","obsTime":1776255660,"reportTime":"2026-04-15T12:21:00.000Z","temp":17.2,"dewp":15,"wdir":260,"wspd":7,"visib":8,"altim":1008.9,"qcField":4,"wxString":"-RA","precip":0.06,"metarType":"SPECI","rawOb":"SPECI KORD 151221Z 26007KT 8SM -RA FEW046 BKN095 OVC120 17/15 A2979 RMK AO2 P0006 T01720150","lat":41.9602,"lon":-87.9316,"elev":202,"name":"Chicago/O'Hare Intl, IL, US","cover":"OVC","clouds":[{"cover":"FEW","base":4600},{"cover":"BKN","base":9500},{"cover":"OVC","base":12000}],"fltCat":"VFR"},{"icaoId":"KOAK","receiptTime":"2026-04-15T12:24:05.612Z","obsTime":1776255600,"reportTime":"2026-04-15T12:20:00.000Z","temp":11.1,"dewp":8.9,"wdir":170,"wspd":3,"visib":"10+","altim":1019,"qcField":12,"metarType":"SPECI","rawOb":"SPECI KOAK 151220Z 17003KT 10SM FEW008 BKN016 11/09 A3009 RMK AO2 T01110089 $","lat":37.7178,"lon":-122.233,"elev":3,"name":"Oakland Intl, CA, US","cover":"BKN","clouds":[{"cover":"FEW","base":800},{"cover":"BKN","base":1600}],"fltCat":"MVFR"},{"icaoId":"KSAT","receiptTime":"2026-04-15T12:20:47.217Z","obsTime":1776255360,"reportTime":"2026-04-15T12:16:00.000Z","temp":21.1,"dewp":19.4,"wdir":100,"wspd":9,"visib":"10+","altim":1014,"qcField":4,"metarType":"SPECI","rawOb":"SPECI KSAT 151216Z 10009KT 10SM BKN016 OVC150 21/19 A2994 RMK AO2 TSE16 CB OCNL LTGIC DSNT N TS MOVD NE T02110194","lat":29.5443,"lon":-98.4839,"elev":246,"name":"San Antonio Intl, TX, US","cover":"OVC","clouds":[{"cover":"BKN","base":1600},{"cover":"OVC","base":15000}],"fltCat":"MVFR"},{"icaoId":"KCHD","receiptTime":"2026-04-15T12:18:29.480Z","obsTime":1776255300,"reportTime":"2026-04-15T12:15:00.000Z","temp":13.9,"dewp":0.9,"wdir":0,"wspd":0,"visib":"10+","altim":1015,"qcField":14,"metarType":"METAR","rawOb":"METAR KCHD 151215Z AUTO 00000KT 10SM CLR 14/01 A2997 RMK AO2 T01390009 $","lat":33.2669,"lon":-111.8086,"elev":378,"name":"Chandler Muni, AZ, US","cover":"CLR","clouds":[],"fltCat":"VFR"},{"icaoId":"KSUN","receiptTime":"2026-04-15T12:18:37.796Z","obsTime":1776255300,"reportTime":"2026-04-15T12:15:00.000Z","wdir":330,"wspd":3,"visib":"10+","altim":1012.3,"qcField":6,"metarType":"METAR","rawOb":"METAR KSUN 151215Z AUTO 33003KT 10SM SCT042 OVC060 A2989 RMK AO2","lat":43.4969,"lon":-114.2923,"elev":1619,"name":"Hailey/Friedman Mem, ID, US","cover":"OVC","clouds":[{"cover":"SCT","base":4200},{"cover":"OVC","base":6000}],"fltCat":"VFR"},{"icaoId":"KBJC","receiptTime":"2026-04-15T12:20:15.696Z","obsTime":1776255300,"reportTime":"2026-04-15T12:15:00.000Z","temp":7,"dewp":-7,"wdir":270,"wspd":14,"wgst":18,"visib":"10+","altim":1011.9,"qcField":6,"metarType":"METAR","rawOb":"METAR KBJC 151215Z AUTO 27014G18KT 10SM CLR 07/M07 A2988 RMK AO2","lat":39.9008,"lon":-105.1042,"elev":1694,"name":"Rocky Mtn Metro, CO, US","cover":"CLR","clouds":[],"fltCat":"VFR"},{"icaoId":"KHII","receiptTime":"2026-04-15T12:20:14.424Z","obsTime":1776255300,"reportTime":"2026-04-15T12:15:00.000Z","temp":16,"dewp":-3,"wdir":0,"wspd":0,"visib":"10+","altim":1014.3,"qcField":6,"metarType":"METAR","rawOb":"METAR KHII 151215Z AUTO 00000KT 10SM CLR 16/M03 A2995 RMK AO2","lat":34.5659,"lon":-114.3522,"elev":241,"name":"Lake Havasu City Arpt, AZ, US","cover":"CLR","clouds":[],"fltCat":"VFR"},{"icaoId":"KCXP","receiptTime":"2026-04-15T12:20:52.965Z","obsTime":1776255300,"reportTime":"2026-04-15T12:15:00.000Z","temp":4,"dewp":-1,"wdir":0,"wspd":0,"visib":"10+","altim":1017.4,"qcField":6,"metarType":"METAR","rawOb":"METAR KCXP 151215Z AUTO 00000KT 10SM CLR 04/M01 A3004 RMK AO2","lat":39.1905,"lon":-119.7319,"elev":1431,"name":"Carson City Arpt, NV, US","cover":"CLR","clouds":[],"fltCat":"VFR"},{"icaoId":"KMEV","receiptTime":"2026-04-15T12:20:53.363Z","obsTime":1776255300,"reportTime":"2026-04-15T12:15:00.000Z","temp":-1,"dewp":-3,"wdir":150,"wspd":4,"visib":"10+","altim":1017.4,"qcField":6,"metarType":"METAR","rawOb":"METAR KMEV 151215Z AUTO 15004KT 10SM FEW045 M01/M03 A3004 RMK AO2","lat":38.9963,"lon":-119.75,"elev":1437,"name":"Minden-Tahoe Arpt, NV, US","cover":"FEW","clouds":[{"cover":"FEW","base":4500}],"fltCat":"VFR"},{"icaoId":"KHTH","receiptTime":"2026-04-15T12:20:44.493Z","obsTime":1776255300,"reportTime":"2026-04-15T12:15:00.000Z","temp":5,"dewp":-6,"wdir":180,"wspd":4,"visib":"10+","altim":1016.7,"qcField":6,"metarType":"METAR","rawOb":"METAR KHTH 151215Z AUTO 18004KT 10SM CLR 05/M06 A3002 RMK A01","lat":38.5448,"lon":-118.6314,"elev":1281,"name":"Hawthorne Muni, NV, US","cover":"CLR","clouds":[],"fltCat":"VFR"},{"icaoId":"KMHR","receiptTime":"2026-04-15T12:20:53.491Z","obsTime":1776255300,"reportTime":"2026-04-15T12:15:00.000Z","temp":7,"dewp":7,"wdir":110,"wspd":4,"visib":"10+","altim":1017.7,"qcField":6,"metarType":"METAR","rawOb":"METAR KMHR 151215Z AUTO 11004KT 10SM CLR 07/07 A3005 RMK AO2","lat":38.56,"lon":-121.284,"elev":30,"name":"Sacramento/Mather Fld, CA, US","cover":"CLR","clouds":[],"fltCat":"VFR"},{"icaoId":"KIFP","receiptTime":"2026-04-15T12:20:53.219Z","obsTime":1776255300,"reportTime":"2026-04-15T12:15:00.000Z","temp":15,"dewp":-1,"wdir":330,"wspd":3,"visib":"10+","altim":1014,"qcField":6,"metarType":"METAR","rawOb":"METAR KIFP 151215Z AUTO 33003KT 10SM CLR 15/M01 A2994 RMK AO2","lat":35.1487,"lon":-114.5611,"elev":210,"name":"Bullhead City Intl, AZ, US","cover":"CLR","clouds":[],"fltCat":"VFR"},{"icaoId":"KRTS","receiptTime":"2026-04-15T12:20:59.584Z","obsTime":1776255300,"reportTime":"2026-04-15T12:15:00.000Z","temp":5,"dewp":-3,"wdir":300,"wspd":12,"wgst":18,"visib":"10+","altim":1017,"qcField":6,"metarType":"METAR","rawOb":"METAR KRTS 151215Z AUTO 30012G18KT 10SM CLR 05/M03 A3003 RMK AO2","lat":39.6658,"lon":-119.8731,"elev":1537,"name":"Reno/Stead Arpt, NV, US","cover":"CLR","clouds":[],"fltCat":"VFR"},{"icaoId":"KMLC","receiptTime":"2026-04-15T12:18:08.042Z","obsTime":1776255240,"reportTime":"2026-04-15T12:14:00.000Z","temp":21.1,"dewp":18.9,"wdir":170,"wspd":7,"visib":"10+","altim":1011.9,"qcField":6,"wxString":"-RA","precip":0.005,"metarType":"SPECI","rawOb":"SPECI KMLC 151214Z AUTO 17007KT 110V200 10SM -RA SCT022 BKN110 21/19 A2988 RMK AO2 LTG DSNT S AND SW P0000 T02110189","lat":34.8824,"lon":-95.7815,"elev":231,"name":"McAlester Rgnl, OK, US","cover":"BKN","clouds":[{"cover":"SCT","base":2200},{"cover":"BKN","base":11000}],"fltCat":"VFR"},{"icaoId":"KGEG","receiptTime":"2026-04-15T12:16:03.778Z","obsTime":1776255120,"reportTime":"2026-04-15T12:12:00.000Z","temp":5,"dewp":2.2,"wdir":210,"wspd":16,"wgst":28,"visib":6,"altim":1004.8,"qcField":4,"wxString":"-RA BR","precip":0.01,"metarType":"SPECI","rawOb":"SPECI KGEG 151212Z 21016G28KT 6SM -RA BR OVC025 05/02 A2967 RMK AO2 PK WND 21030/1202 P0001 T00500022","lat":47.6217,"lon":-117.528,"elev":718,"name":"Spokane Intl, WA, US","cover":"OVC","clouds":[{"cover":"OVC","base":2500}],"fltCat":"MVFR"},{"icaoId":"KMSY","receiptTime":"2026-04-15T12:16:04.807Z","obsTime":1776255120,"reportTime":"2026-04-15T12:12:00.000Z","temp":21.7,"dewp":19.4,"wdir":120,"wspd":7,"visib":"10+","altim":1019,"qcField":4,"metarType":"SPECI","rawOb":"SPECI KMSY 151212Z 12007KT 10SM SCT025 BKN060 BKN250 22/19 A3009 RMK AO2 T02170194","lat":29.9974,"lon":-90.2777,"elev":0,"name":"New Orleans/Armstrong Intl, LA, US","cover":"BKN","clouds":[{"cover":"SCT","base":2500},{"cover":"BKN","base":6000},{"cover":"BKN","base":25000}],"fltCat":"VFR"},{"icaoId":"KSYR","receiptTime":"2026-04-15T12:14:12.587Z","obsTime":1776255060,"reportTime":"2026-04-15T12:11:00.000Z","temp":10,"dewp":9.4,"wdir":310,"wspd":9,"visib":2,"altim":1013.3,"qcField":4,"wxString":"-TSRA BR","precip":0.005,"metarType":"SPECI","rawOb":"SPECI KSYR 151211Z 31009KT 2SM -TSRA BR BKN026CB BKN050 OVC080 10/09 A2992 RMK AO2 RAB08 TSB11 OCNL LTGICCC OHD TS OHD MOV E P0000 T01000094","lat":43.1111,"lon":-76.1038,"elev":125,"name":"Syracuse/Hancock Intl, NY, US","cover":"OVC","clouds":[{"cover":"BKN","base":2600},{"cover":"BKN","base":5000},{"cover":"OVC","base":8000}],"fltCat":"IFR"},{"icaoId":"KSEZ","receiptTime":"2026-04-15T12:24:05.474Z","obsTime":1776255000,"reportTime":"2026-04-15T12:10:00.000Z","temp":7,"dewp":-2,"wdir":20,"wspd":10,"visib":"10+","altim":1018.7,"qcField":6,"metarType":"METAR","rawOb":"METAR KSEZ 151210Z AUTO 02010KT 10SM CLR 07/M02 A3008 RMK AO2","lat":34.8467,"lon":-111.7884,"elev":1455,"name":"Sedona Arpt, AZ, US","cover":"CLR","clouds":[],"fltCat":"VFR"},{"icaoId":"KEND","receiptTime":"2026-04-15T12:15:35.050Z","obsTime":1776255000,"reportTime":"2026-04-15T12:10:00.000Z","temp":20,"dewp":19,"wdir":200,"wspd":8,"visib":"10+","altim":1007.2,"slp":1006,"qcField":12,"metarType":"SPECI","rawOb":"SPECI KEND 151210Z 20008KT 10SM FEW009 SCT015 BKN200 20/19 A2974 RMK AO2A SLP060 $","lat":36.338,"lon":-97.919,"elev":392,"name":"Enid/Vance AFB, OK, US","cover":"BKN","clouds":[{"cover":"FEW","base":900},{"cover":"SCT","base":1500},{"cover":"BKN","base":20000}],"fltCat":"VFR"},{"icaoId":"KHOU","receiptTime":"2026-04-15T12:08:18.533Z","obsTime":1776254700,"reportTime":"2026-04-15T12:05:00.000Z","temp":21.7,"dewp":20.6,"wdir":160,"wspd":5,"visib":7,"altim":1016,"qcField":12,"metarType":"SPECI","rawOb":"SPECI KHOU 151205Z 16005KT 7SM FEW020 BKN250 22/21 A3000 RMK AO2 T02170206 $","lat":29.6458,"lon":-95.2821,"elev":13,"name":"Houston/Hobby Arpt, TX, US","cover":"BKN","clouds":[{"cover":"FEW","base":2000},{"cover":"BKN","base":25000}],"fltCat":"VFR"},{"icaoId":"KBFI","receiptTime":"2026-04-15T12:04:07.544Z","obsTime":1776254400,"reportTime":"2026-04-15T12:00:00.000Z","temp":6.1,"dewp":3.9,"wdir":0,"wspd":0,"visib":"10+","altim":1009.2,"qcField":4,"metarType":"SPECI","rawOb":"SPECI KBFI 151200Z 00000KT 10SM OVC050 06/04 A2980 RMK AO2 T00610039","lat":47.5455,"lon":-122.3148,"elev":7,"name":"Seattle/Boeing Fld, WA, US","cover":"OVC","clouds":[{"cover":"OVC","base":5000}],"fltCat":"VFR"},{"icaoId":"KNYL","receiptTime":"2026-04-15T12:00:10.072Z","obsTime":1776254220,"reportTime":"2026-04-15T12:00:00.000Z","temp":14.4,"dewp":2.2,"wdir":0,"wspd":0,"visib":"10+","altim":1013.6,"slp":1013.4,"qcField":6,"presTend":-0.4,"maxT":20,"minT":14.4,"metarType":"METAR","rawOb":"METAR KNYL 151157Z AUTO 00000KT 10SM CLR 14/02 A2993 RMK AO2 SLP134 T01440022 10200 20144 58004","lat":32.66,"lon":-114.6078,"elev":58,"name":"Yuma , AZ, US","cover":"CLR","clouds":[],"fltCat":"VFR"},{"icaoId":"KFLG","receiptTime":"2026-04-15T12:00:11.865Z","obsTime":1776254220,"reportTime":"2026-04-15T12:00:00.000Z","temp":-3.9,"dewp":-5,"wdir":0,"wspd":0,"visib":"10+","altim":1019.7,"slp":1017.3,"qcField":6,"presTend":-0.1,"maxT":-0.6,"minT":-3.9,"metarType":"METAR","rawOb":"METAR KFLG 151157Z AUTO 00000KT 10SM CLR M04/M05 A3011 RMK AO2 SLP173 T10391050 11006 21039 56001","lat":35.1443,"lon":-111.6664,"elev":2134,"name":"Flagstaff/Pulliam Arpt, AZ, US","cover":"CLR","clouds":[],"fltCat":"VFR"},{"icaoId":"KLAS","receiptTime":"2026-04-15T12:00:08.870Z","obsTime":1776254160,"reportTime":"2026-04-15T12:00:00.000Z","temp":14.4,"dewp":-7.2,"wdir":0,"wspd":0,"visib":"10+","altim":1015.3,"slp":1013.9,"qcField":4,"presTend":0.3,"maxT":18.9,"minT":14.4,"metarType":"METAR","rawOb":"METAR KLAS 151156Z 00000KT 10SM CLR 14/M07 A2998 RMK AO2 SLP139 7//// T01441072 10189 20144 51003","lat":36.0719,"lon":-115.1634,"elev":662,"name":"Las Vegas/Reid Intl, NV, US","cover":"CLR","clouds":[],"fltCat":"VFR"},{"icaoId":"KRDM","receiptTime":"2026-04-15T12:00:08.905Z","obsTime":1776254160,"reportTime":"2026-04-15T12:00:00.000Z","temp":5.6,"dewp":0,"wdir":180,"wspd":12,"wgst":23,"visib":"10+","altim":1008.2,"slp":1008.2,"qcField":6,"presTend":-2.2,"maxT":6.1,"minT":5.6,"metarType":"METAR","rawOb":"METAR KRDM 151156Z AUTO 18012G23KT 10SM FEW060 BKN110 06/00 A2977 RMK AO2 PK WND 19029/1119 SLP082 T00560000 10061 20056 58022","lat":44.2558,"lon":-121.1407,"elev":930,"name":"Redmond Muni, OR, US","cover":"BKN","clouds":[{"cover":"FEW","base":6000},{"cover":"BKN","base":11000}],"fltCat":"VFR"},{"icaoId":"KSBP","receiptTime":"2026-04-15T12:00:08.930Z","obsTime":1776254160,"reportTime":"2026-04-15T12:00:00.000Z","temp":10,"dewp":8.9,"wdir":300,"wspd":6,"visib":"10+","altim":1017.4,"slp":1017.2,"qcField":6,"presTend":-0.9,"maxT":11.7,"minT":7.2,"metarType":"METAR","rawOb":"METAR KSBP 151156Z AUTO 30006KT 10SM CLR 10/09 A3004 RMK AO2 SLP172 T01000089 10117 20072 56009","lat":35.2381,"lon":-120.644,"elev":52,"name":"San Luis Obispo/San Luis Cnty, CA, US","cover":"CLR","clouds":[],"fltCat":"VFR"},{"icaoId":"KDUG","receiptTime":"2026-04-15T12:02:15.318Z","obsTime":1776254160,"reportTime":"2026-04-15T12:00:00.000Z","temp":4.4,"dewp":-6.1,"wdir":0,"wspd":0,"visib":"10+","altim":1018,"slp":1013.7,"qcField":38,"presTend":0.3,"maxT":12.2,"minT":4.4,"metarType":"METAR","rawOb":"METAR KDUG 151156Z AUTO 00000KT 10SM CLR 04/M06 A3006 RMK AO2 SLP137 T00441061 10122 20044 53003 TSNO","lat":31.4725,"lon":-109.6022,"elev":1260,"name":"Douglas/Bisbee Intl, AZ, US","cover":"CLR","clouds":[],"fltCat":"VFR"},{"icaoId":"KCHS","receiptTime":"2026-04-15T12:00:09.068Z","obsTime":1776254160,"reportTime":"2026-04-15T12:00:00.000Z","temp":17.8,"dewp":16.7,"wdir":200,"wspd":4,"visib":"10+","altim":1021.8,"slp":1021.7,"qcField":4,"presTend":1.5,"maxT":17.8,"minT":15,"metarType":"METAR","rawOb":"METAR KCHS 151156Z 20004KT 10SM FEW250 18/17 A3017 RMK AO2 SLP217 T01780167 10178 20150 53015","lat":32.8995,"lon":-80.0407,"elev":12,"name":"Charleston Intl, SC, US","cover":"FEW","clouds":[{"cover":"FEW","base":25000}],"fltCat":"VFR"},{"icaoId":"KVIS","receiptTime":"2026-04-15T11:58:39.025Z","obsTime":1776254160,"reportTime":"2026-04-15T12:00:00.000Z","temp":9.4,"dewp":8.3,"wdir":0,"wspd":0,"visib":"10+","altim":1018,"slp":1018.1,"qcField":14,"presTend":-0.3,"maxT":14.4,"minT":9.4,"metarType":"METAR","rawOb":"METAR KVIS 151156Z AUTO 00000KT 10SM CLR 09/08 A3006 RMK AO2 SLP181 6//// 7//// T00940083 10144 20094 56003 PNO $","lat":36.3135,"lon":-119.3884,"elev":92,"name":"Visalia Muni, CA, US","cover":"CLR","clouds":[],"fltCat":"VFR"},{"icaoId":"KPVU","receiptTime":"2026-04-15T11:58:42.957Z","obsTime":1776254160,"reportTime":"2026-04-15T12:00:00.000Z","temp":3.3,"dewp":-1.7,"wdir":140,"wspd":7,"visib":"10+","altim":1016.3,"slp":1015,"qcField":6,"presTend":-0.1,"maxT":7.8,"minT":2.8,"metarType":"METAR","rawOb":"METAR KPVU 151156Z AUTO 14007KT 10SM CLR 03/M02 A3001 RMK AO2 SLP150 T00331017 10078 20028 58001","lat":40.224,"lon":-111.7252,"elev":1370,"name":"Provo Muni, UT, US","cover":"CLR","clouds":[],"fltCat":"VFR"},{"icaoId":"KHDN","receiptTime":"2026-04-15T11:58:34.418Z","obsTime":1776254160,"reportTime":"2026-04-15T12:00:00.000Z","temp":-2.2,"dewp":-2.8,"wdir":60,"wspd":4,"visib":"10+","altim":1017.4,"slp":1017.9,"qcField":70,"presTend":-0.1,"maxT":0.6,"minT":-2.2,"pcp6hr":0.005,"pcp24hr":0.03,"metarType":"METAR","rawOb":"METAR KHDN 151156Z AUTO 06004KT 10SM CLR M02/M03 A3004 RMK AO2 SLP179 60000 70003 T10221028 10006 21022 58001 FZRANO","lat":40.4842,"lon":-107.2296,"elev":2012,"name":"Hayden/Yampa Valley Arpt, CO, US","cover":"CLR","clouds":[],"fltCat":"VFR"},{"icaoId":"KSDY","receiptTime":"2026-04-15T11:58:43.098Z","obsTime":1776254160,"reportTime":"2026-04-15T12:00:00.000Z","temp":6.1,"dewp":2.2,"wdir":170,"wspd":8,"visib":"10+","altim":1003.8,"slp":1004.4,"qcField":14,"presTend":1.4,"maxT":7.8,"minT":5.6,"metarType":"METAR","rawOb":"METAR KSDY 151156Z AUTO 17008KT 10SM OVC120 06/02 A2964 RMK AO2 SLP044 T00610022 10078 20056 53014 $","lat":47.7029,"lon":-104.1951,"elev":600,"name":"Sidney/Richland Muni, MT, US","cover":"OVC","clouds":[{"cover":"OVC","base":12000}],"fltCat":"VFR"},{"icaoId":"KLWS","receiptTime":"2026-04-15T12:00:08.885Z","obsTime":1776254160,"reportTime":"2026-04-15T12:00:00.000Z","temp":10,"dewp":2.8,"wdir":190,"wspd":16,"visib":"10+","altim":1007.2,"slp":1007.1,"qcField":6,"presTend":-2.6,"maxT":11.1,"minT":8.9,"metarType":"METAR","rawOb":"METAR KLWS 151156Z AUTO 19016KT 10SM FEW065 OVC080 10/03 A2974 RMK AO2 SLP071 T01000028 10111 20089 56026","lat":46.3746,"lon":-117.0153,"elev":435,"name":"Lewiston/Nez Perce Cnty, ID, US","cover":"OVC","clouds":[{"cover":"FEW","base":6500},{"cover":"OVC","base":8000}],"fltCat":"VFR"},{"icaoId":"KCGZ","receiptTime":"2026-04-15T11:58:42.138Z","obsTime":1776254160,"reportTime":"2026-04-15T12:00:00.000Z","temp":11.1,"dewp":-4.4,"wdir":0,"wspd":0,"visib":"10+","altim":1015.3,"slp":1014.6,"qcField":14,"presTend":-0.2,"maxT":16.1,"minT":10.6,"metarType":"METAR","rawOb":"METAR KCGZ 151156Z AUTO 00000KT 10SM CLR 11/M04 A2998 RMK AO2 SLP146 6//// 7//// T01111044 10161 20106 58002 $","lat":32.9531,"lon":-111.7725,"elev":444,"name":"Casa Granda Muni, AZ, US","cover":"CLR","clouds":[],"fltCat":"VFR"},{"icaoId":"KSDF","receiptTime":"2026-04-15T12:00:08.641Z","obsTime":1776254160,"reportTime":"2026-04-15T12:00:00.000Z","temp":20.6,"dewp":13.9,"wdir":180,"wspd":9,"visib":"10+","altim":1015.7,"slp":1015.2,"qcField":4,"presTend":1.2,"maxT":23.3,"minT":20.6,"metarType":"METAR","rawOb":"METAR KSDF 151156Z 18009KT 10SM SCT048 SCT150 BKN250 BKN300 21/14 A2999 RMK AO2 SLP152 T02060139 10233 20206 51012","lat":38.1774,"lon":-85.7308,"elev":146,"name":"Louisville Intl, KY, US","cover":"BKN","clouds":[{"cover":"SCT","base":4800},{"cover":"SCT","base":15000},{"cover":"BKN","base":25000},{"cover":"BKN","base":30000}],"fltCat":"VFR"},{"icaoId":"KCOE","receiptTime":"2026-04-15T11:58:42.225Z","obsTime":1776254160,"reportTime":"2026-04-15T12:00:00.000Z","temp":5.6,"dewp":2.8,"wdir":180,"wspd":11,"visib":"10+","altim":1005.8,"slp":1008.2,"qcField":14,"wxString":"-RA","presTend":-1,"maxT":6.7,"minT":5.6,"metarType":"METAR","rawOb":"METAR KCOE 151156Z AUTO 18011KT 10SM -RA OVC027 06/03 A2970 RMK AO2 SLP082 6//// 7//// T00560028 10067 20056 56010 PNO $","lat":47.7719,"lon":-116.8332,"elev":693,"name":"Coeur DAlene Arpt, ID, US","cover":"OVC","clouds":[{"cover":"OVC","base":2700}],"fltCat":"MVFR"},{"icaoId":"KEGE","receiptTime":"2026-04-15T11:58:42.426Z","obsTime":1776254160,"reportTime":"2026-04-15T12:00:00.000Z","temp":1.1,"dewp":-1.1,"wdir":0,"wspd":0,"visib":"10+","altim":1018.7,"slp":1017.6,"qcField":70,"presTend":0.3,"maxT":4.4,"minT":0,"pcp24hr":0.02,"metarType":"METAR","rawOb":"METAR KEGE 151156Z AUTO 00000KT 10SM OVC055 01/M01 A3008 RMK AO2 SLP176 70002 T00111011 10044 20000 53003 FZRANO","lat":39.6448,"lon":-106.9176,"elev":1993,"name":"Eagle Cnty Rgnl, CO, US","cover":"OVC","clouds":[{"cover":"OVC","base":5500}],"fltCat":"VFR"},{"icaoId":"KJAX","receiptTime":"2026-04-15T12:00:07.712Z","obsTime":1776254160,"reportTime":"2026-04-15T12:00:00.000Z","temp":16.1,"dewp":15,"wdir":0,"wspd":0,"visib":"10+","altim":1022.1,"slp":1021.8,"qcField":12,"presTend":1.5,"maxT":17.2,"minT":12.8,"pcp6hr":0.01,"pcp24hr":0.01,"metarType":"METAR","rawOb":"METAR KJAX 151156Z 00000KT 10SM FEW250 16/15 A3018 RMK AO2 SLP218 60001 70001 T01610150 10172 20128 53015 $","lat":30.4953,"lon":-81.6937,"elev":8,"name":"Jacksonville Intl, FL, US","cover":"FEW","clouds":[{"cover":"FEW","base":25000}],"fltCat":"VFR"},{"icaoId":"KEKO","receiptTime":"2026-04-15T12:00:08.827Z","obsTime":1776254160,"reportTime":"2026-04-15T12:00:00.000Z","temp":-1.7,"dewp":-5,"wdir":0,"wspd":0,"visib":"10+","altim":1014.6,"slp":1013.9,"qcField":6,"presTend":-0.6,"maxT":3.3,"minT":-1.7,"metarType":"METAR","rawOb":"METAR KEKO 151156Z AUTO 00000KT 10SM BKN110 M02/M05 A2996 RMK AO2 SLP139 T10171050 10033 21017 58006","lat":40.824,"lon":-115.7863,"elev":1541,"name":"Elko Rgnl, NV, US","cover":"BKN","clouds":[{"cover":"BKN","base":11000}],"fltCat":"VFR"},{"icaoId":"KENV","receiptTime":"2026-04-15T11:58:42.490Z","obsTime":1776254160,"reportTime":"2026-04-15T12:00:00.000Z","temp":7.8,"dewp":-6.1,"wdir":230,"wspd":7,"visib":"10+","altim":1014.3,"slp":1013.1,"qcField":6,"presTend":-0.7,"maxT":9.4,"minT":5,"metarType":"METAR","rawOb":"METAR KENV 151156Z AUTO 23007KT 10SM CLR 08/M06 A2995 RMK AO2 SLP131 T00781061 10094 20050 58007","lat":40.7211,"lon":-114.0312,"elev":1291,"name":"Wendover Arpt, UT, US","cover":"CLR","clouds":[],"fltCat":"VFR"},{"icaoId":"KSFO","receiptTime":"2026-04-15T12:00:08.948Z","obsTime":1776254160,"reportTime":"2026-04-15T12:00:00.000Z","temp":10.6,"dewp":7.8,"wdir":280,"wspd":5,"visib":"10+","altim":1018.7,"slp":1018.6,"qcField":12,"presTend":-1.1,"maxT":12.2,"minT":10.6,"metarType":"METAR","rawOb":"METAR KSFO 151156Z 28005KT 10SM FEW015 11/08 A3008 RMK AO2 SLP186 T01060078 10122 20106 56011 $","lat":37.6196,"lon":-122.3656,"elev":2,"name":"San Francisco Intl, CA, US","cover":"FEW","clouds":[{"cover":"FEW","base":1500}],"fltCat":"VFR"},{"icaoId":"KINW","receiptTime":"2026-04-15T12:00:08.842Z","obsTime":1776254160,"reportTime":"2026-04-15T12:00:00.000Z","temp":0.6,"dewp":-3.9,"wdir":0,"wspd":0,"visib":"10+","altim":1019,"slp":1016.8,"qcField":6,"presTend":0.2,"maxT":6.1,"minT":0.6,"metarType":"METAR","rawOb":"METAR KINW 151156Z AUTO 00000KT 10SM CLR 01/M04 A3009 RMK AO2 SLP168 T00061039 10061 20006 53002","lat":35.0279,"lon":-110.7221,"elev":1492,"name":"Winslow/Lindberg Rgnl, AZ, US","cover":"CLR","clouds":[],"fltCat":"VFR"},{"icaoId":"KUKI","receiptTime":"2026-04-15T12:00:06.438Z","obsTime":1776254160,"reportTime":"2026-04-15T12:00:00.000Z","temp":6.1,"dewp":4.4,"wdir":290,"wspd":3,"visib":"10+","altim":1019.4,"slp":1019,"qcField":6,"presTend":-1.2,"maxT":9.4,"minT":6.1,"metarType":"METAR","rawOb":"METAR KUKI 151156Z AUTO 29003KT 10SM CLR 06/04 A3010 RMK AO2 SLP190 T00610044 10094 20061 56012","lat":39.1278,"lon":-123.2001,"elev":183,"name":"Ukiah Muni, CA, US","cover":"CLR","clouds":[],"fltCat":"VFR"},{"icaoId":"KSGU","receiptTime":"2026-04-15T11:58:38.854Z","obsTime":1776254160,"reportTime":"2026-04-15T12:00:00.000Z","temp":8.3,"dewp":2.8,"wdir":170,"wspd":4,"visib":"10+","altim":1017,"slp":1015.8,"qcField":6,"presTend":0.4,"maxT":13.9,"minT":8.3,"metarType":"METAR","rawOb":"METAR KSGU 151156Z AUTO 17004KT 10SM CLR 08/03 A3003 RMK AO2 SLP158 T00830028 10139 20083 52004","lat":37.0444,"lon":-113.5034,"elev":877,"name":"Saint George Muni, UT, US","cover":"CLR","clouds":[],"fltCat":"VFR"},{"icaoId":"KJAC","receiptTime":"2026-04-15T11:58:34.607Z","obsTime":1776254160,"reportTime":"2026-04-15T12:00:00.000Z","temp":0.6,"dewp":-2.8,"wdir":220,"wspd":3,"visib":"10+","altim":1013,"slp":1014,"qcField":70,"presTend":-0.4,"maxT":1.1,"minT":-2.2,"metarType":"METAR","rawOb":"METAR KJAC 151156Z AUTO 22003KT 10SM OVC046 01/M03 A2991 RMK AO2 SLP140 T00061028 10011 21022 56004 FZRANO","lat":43.6129,"lon":-110.7366,"elev":1967,"name":"Jackson Hole Arpt, WY, US","cover":"OVC","clouds":[{"cover":"OVC","base":4600}],"fltCat":"VFR"},{"icaoId":"KPWT","receiptTime":"2026-04-15T11:58:42.989Z","obsTime":1776254160,"reportTime":"2026-04-15T12:00:00.000Z","temp":3.9,"dewp":2.8,"wdir":100,"wspd":6,"visib":"10+","altim":1008.9,"slp":1009.4,"qcField":14,"presTend":0.3,"maxT":6.7,"minT":3.9,"metarType":"METAR","rawOb":"METAR KPWT 151156Z AUTO 10006KT 10SM FEW034 04/03 A2979 RMK AO2 RAB05E43 SLP094 6//// 7//// T00390028 10067 20039 53003 PNO $","lat":47.4942,"lon":-122.7594,"elev":143,"name":"Bremerton Arpt, WA, US","cover":"FEW","clouds":[{"cover":"FEW","base":3400}],"fltCat":"VFR"},{"icaoId":"KFNL","receiptTime":"2026-04-15T11:58:34.226Z","obsTime":1776254160,"reportTime":"2026-04-15T12:00:00.000Z","temp":3.3,"dewp":-1.1,"wdir":30,"wspd":5,"visib":"10+","altim":1011.6,"slp":1009.5,"qcField":14,"presTend":0.3,"maxT":8.3,"minT":0.6,"metarType":"METAR","rawOb":"METAR KFNL 151156Z AUTO 03005KT 10SM CLR 03/M01 A2987 RMK AO2 SLP095 T00331011 10083 20006 53003 $","lat":40.4427,"lon":-105.0097,"elev":1529,"name":"Fort Collins/N Colorado Rgnl, CO, US","cover":"CLR","clouds":[],"fltCat":"VFR"},{"icaoId":"KHND","receiptTime":"2026-04-15T11:58:34.475Z","obsTime":1776254160,"reportTime":"2026-04-15T12:00:00.000Z","temp":13.3,"dewp":-7.8,"wdir":210,"wspd":11,"visib":"10+","altim":1016,"slp":1016.2,"qcField":14,"presTend":0.1,"maxT":16.7,"minT":12.8,"metarType":"METAR","rawOb":"METAR KHND 151156Z AUTO 21011KT 10SM CLR 13/M08 A3000 RMK AO2 SLP162 T01331078 10167 20128 52001 $","lat":35.9657,"lon":-115.1343,"elev":740,"name":"Henderson Exec, NV, US","cover":"CLR","clouds":[],"fltCat":"VFR"},{"icaoId":"KTPH","receiptTime":"2026-04-15T12:00:06.423Z","obsTime":1776254160,"reportTime":"2026-04-15T12:00:00.000Z","temp":1.1,"dewp":-8.3,"wdir":350,"wspd":9,"visib":"10+","altim":1018,"slp":1015.3,"qcField":6,"presTend":-0.2,"maxT":8.9,"minT":0.6,"metarType":"METAR","rawOb":"METAR KTPH 151156Z AUTO 35009KT 10SM CLR 01/M08 A3006 RMK AO2 SLP153 T00111083 10089 20006 56002","lat":38.0505,"lon":-117.0906,"elev":1647,"name":"Tonopah Arpt, NV, US","cover":"CLR","clouds":[],"fltCat":"VFR"},{"icaoId":"KCOD","receiptTime":"2026-04-15T11:58:42.209Z","obsTime":1776254160,"reportTime":"2026-04-15T12:00:00.000Z","temp":8.9,"dewp":-8.9,"wdir":250,"wspd":14,"wgst":21,"visib":"10+","altim":1009.2,"slp":1007,"qcField":14,"maxT":8.9,"minT":7.8,"metarType":"METAR","rawOb":"METAR KCOD 151156Z AUTO 25014G21KT 10SM BKN095 09/M09 A2980 RMK AO2 SLP070 T00891089 10089 20078 55000 $","lat":44.52,"lon":-109.0268,"elev":1550,"name":"Cody/Yellowstone Rgnl, WY, US","cover":"BKN","clouds":[{"cover":"BKN","base":9500}],"fltCat":"VFR"},{"icaoId":"KBZN","receiptTime":"2026-04-15T12:00:08.727Z","obsTime":1776254160,"reportTime":"2026-04-15T12:00:00.000Z","temp":8.9,"dewp":-4.4,"wdir":250,"wspd":9,"visib":"10+","altim":1007.2,"slp":1005.4,"qcField":4,"presTend":-0.3,"maxT":10.6,"minT":7.2,"metarType":"METAR","rawOb":"METAR KBZN 151156Z 25009KT 10SM OVC080 09/M04 A2974 RMK AO2 SLP054 T00891044 10106 20072 56003","lat":45.7876,"lon":-111.1615,"elev":1349,"name":"Bozeman/Gallatin Fld, MT, US","cover":"OVC","clouds":[{"cover":"OVC","base":8000}],"fltCat":"VFR"},{"icaoId":"KADM","receiptTime":"2026-04-15T12:00:11.457Z","obsTime":1776254100,"reportTime":"2026-04-15T12:00:00.000Z","temp":22,"dewp":19,"wdir":170,"wspd":6,"visib":"10+","altim":1011.3,"qcField":6,"metarType":"METAR","rawOb":"METAR KADM 151155Z AUTO 17006KT 10SM OVC020 22/19 A2986 RMK AO2","lat":34.3007,"lon":-97.0089,"elev":223,"name":"Ardmore Muni, OK, US","cover":"OVC","clouds":[{"cover":"OVC","base":2000}],"fltCat":"MVFR"},{"icaoId":"KCMA","receiptTime":"2026-04-15T11:58:42.174Z","obsTime":1776254100,"reportTime":"2026-04-15T12:00:00.000Z","temp":8.3,"dewp":6.7,"wdir":330,"wspd":3,"visib":"10+","altim":1016,"slp":1016.8,"qcField":6,"presTend":-0.4,"maxT":13.9,"minT":8.3,"metarType":"METAR","rawOb":"METAR KCMA 151155Z AUTO 33003KT 10SM CLR 08/07 A3000 RMK AO2 SLP168 T00830067 10139 20083 56004","lat":34.2114,"lon":-119.0876,"elev":20,"name":"Camarillo Arpt, CA, US","cover":"CLR","clouds":[],"fltCat":"VFR"},{"icaoId":"KAST","receiptTime":"2026-04-15T11:58:35.196Z","obsTime":1776254100,"reportTime":"2026-04-15T12:00:00.000Z","temp":5,"dewp":2.8,"wdir":270,"wspd":4,"visib":"10+","altim":1010.6,"slp":1010.5,"qcField":6,"presTend":0.4,"maxT":8.9,"minT":5,"pcp6hr":0.34,"pcp24hr":1.83,"metarType":"METAR","rawOb":"METAR KAST 151155Z AUTO 27004KT 10SM FEW041 BKN050 05/03 A2984 RMK AO2 SLP105 60034 70183 T00500028 10089 20050 52004","lat":46.157,"lon":-123.8833,"elev":3,"name":"Astoria Rgnl, OR, US","cover":"BKN","clouds":[{"cover":"FEW","base":4100},{"cover":"BKN","base":5000}],"fltCat":"VFR"},{"icaoId":"KRNO","receiptTime":"2026-04-15T11:58:43.034Z","obsTime":1776254100,"reportTime":"2026-04-15T12:00:00.000Z","temp":4.4,"dewp":-0.6,"wdir":0,"wspd":0,"visib":"10+","altim":1017,"slp":1014.6,"qcField":4,"presTend":-1.1,"maxT":9.4,"minT":3.3,"metarType":"METAR","rawOb":"METAR KRNO 151155Z 00000KT 10SM FEW100 BKN200 04/M01 A3003 RMK AO2 SLP146 T00441006 10094 20033 56011","lat":39.5077,"lon":-119.7683,"elev":1344,"name":"Reno/Tahoe Intl, NV, US","cover":"BKN","clouds":[{"cover":"FEW","base":10000},{"cover":"BKN","base":20000}],"fltCat":"VFR"},{"icaoId":"KGPI","receiptTime":"2026-04-15T11:58:34.330Z","obsTime":1776254100,"reportTime":"2026-04-15T12:00:00.000Z","temp":5,"dewp":0,"wdir":170,"wspd":12,"visib":"10+","altim":1005.8,"slp":1006.4,"qcField":6,"presTend":-2,"maxT":6.1,"minT":5,"precip":0.005,"pcp6hr":0.005,"metarType":"METAR","rawOb":"METAR KGPI 151155Z AUTO 17012KT 10SM OVC048 05/00 A2970 RMK AO2 RAB28E43 SLP064 P0000 60000 T00500000 10061 20050 56020","lat":48.3041,"lon":-114.2643,"elev":903,"name":"Kalispell/Glacier Park Intl, MT, US","cover":"OVC","clouds":[{"cover":"OVC","base":4800}],"fltCat":"VFR"},{"icaoId":"KLUF","receiptTime":"2026-04-15T12:06:27.360Z","obsTime":1776254100,"reportTime":"2026-04-15T12:00:00.000Z","temp":14.5,"dewp":-2.4,"wdir":20,"wspd":3,"visib":"10+","altim":1014.3,"slp":1013.5,"qcField":14,"presTend":0.1,"maxT":20.4,"minT":14.3,"metarType":"METAR","rawOb":"METAR KLUF 151155Z AUTO 02003KT 10SM CLR 15/M02 A2995 RMK AO2 SLP135 T01451024 10204 20143 53001 $","lat":33.538,"lon":-112.38,"elev":333,"name":"Phoenix/Luke AFB, AZ, US","cover":"CLR","clouds":[],"fltCat":"VFR"},{"icaoId":"KRKS","receiptTime":"2026-04-15T11:58:17.450Z","obsTime":1776254040,"reportTime":"2026-04-15T12:00:00.000Z","temp":1.1,"dewp":-7.2,"wdir":240,"wspd":10,"visib":"10+","altim":1015,"slp":1011.9,"qcField":6,"presTend":-0.4,"maxT":2.8,"minT":0,"metarType":"METAR","rawOb":"METAR KRKS 151154Z AUTO 24010KT 10SM CLR 01/M07 A2997 RMK AO2 SLP119 T00111072 10028 20000 56004","lat":41.5947,"lon":-109.0529,"elev":2062,"name":"Rock Springs/SW Wyoming Rgnl, WY, US","cover":"CLR","clouds":[],"fltCat":"VFR"},{"icaoId":"KBFL","receiptTime":"2026-04-15T11:58:15.816Z","obsTime":1776254040,"reportTime":"2026-04-15T12:00:00.000Z","temp":9.4,"dewp":5.6,"wdir":0,"wspd":0,"visib":"10+","altim":1018,"slp":1017.6,"qcField":12,"presTend":-0.3,"maxT":15.6,"minT":8.9,"metarType":"METAR","rawOb":"METAR KBFL 151154Z 00000KT 10SM CLR 09/06 A3006 RMK AO2 SLP176 T00940056 10156 20089 58003 $","lat":35.4342,"lon":-119.0552,"elev":146,"name":"Bakersfield/Meadows Arpt, CA, US","cover":"CLR","clouds":[],"fltCat":"VFR"},{"icaoId":"KBWI","receiptTime":"2026-04-15T11:58:15.867Z","obsTime":1776254040,"reportTime":"2026-04-15T12:00:00.000Z","temp":17.8,"dewp":17.2,"wdir":0,"wspd":0,"visib":"10+","altim":1015.7,"slp":1015.3,"qcField":4,"presTend":1.7,"maxT":18.3,"minT":15,"pcp24hr":0.04,"metarType":"METAR","rawOb":"METAR KBWI 151154Z 00000KT 10SM FEW110 BKN180 BKN250 18/17 A2999 RMK AO2 SLP153 70004 T01780172 10183 20150 53017","lat":39.1733,"lon":-76.684,"elev":42,"name":"Baltimore-Washington Intl, MD, US","cover":"BKN","clouds":[{"cover":"FEW","base":11000},{"cover":"BKN","base":18000},{"cover":"BKN","base":25000}],"fltCat":"VFR"},{"icaoId":"KCOS","receiptTime":"2026-04-15T11:58:31.752Z","obsTime":1776254040,"reportTime":"2026-04-15T12:00:00.000Z","temp":3.9,"dewp":-7.8,"wdir":360,"wspd":3,"visib":"10+","altim":1013.3,"slp":1010,"qcField":4,"presTend":0.1,"maxT":7.8,"minT":2.8,"metarType":"METAR","rawOb":"METAR KCOS 151154Z 36003KT 10SM FEW140 04/M08 A2992 RMK AO2 SLP100 T00391078 10078 20028 50001","lat":38.8095,"lon":-104.6887,"elev":1886,"name":"Colorado Spring Arpt, CO, US","cover":"FEW","clouds":[{"cover":"FEW","base":14000}],"fltCat":"VFR"},{"icaoId":"KAPC","receiptTime":"2026-04-15T11:58:15.761Z","obsTime":1776254040,"reportTime":"2026-04-15T12:00:00.000Z","temp":5,"dewp":5,"wdir":0,"wspd":0,"visib":9,"altim":1018.4,"slp":1017.5,"qcField":6,"presTend":-0.9,"maxT":8.9,"minT":4.4,"metarType":"METAR","rawOb":"METAR KAPC 151154Z AUTO 00000KT 9SM FEW007 05/05 A3007 RMK AO2 SLP175 T00500050 10089 20044 57009","lat":38.2075,"lon":-122.2804,"elev":5,"name":"Napa Cnty Arpt, CA, US","cover":"FEW","clouds":[{"cover":"FEW","base":700}],"fltCat":"VFR"},{"icaoId":"KFFZ","receiptTime":"2026-04-15T11:58:17.752Z","obsTime":1776254040,"reportTime":"2026-04-15T12:00:00.000Z","temp":15.6,"dewp":-0.6,"wdir":0,"wspd":0,"visib":"10+","altim":1014.6,"slp":1012.7,"qcField":6,"maxT":18.9,"minT":14.4,"metarType":"METAR","rawOb":"METAR KFFZ 151154Z AUTO 00000KT 10SM CLR 16/M01 A2996 RMK AO2 SLP127 T01561006 10189 20144 55000","lat":33.4659,"lon":-111.7212,"elev":420,"name":"Mesa/Falcon Fld, AZ, US","cover":"CLR","clouds":[],"fltCat":"VFR"},{"icaoId":"KOLS","receiptTime":"2026-04-15T11:58:16.459Z","obsTime":1776254040,"reportTime":"2026-04-15T12:00:00.000Z","temp":5.6,"dewp":-4.4,"wdir":0,"wspd":0,"visib":"10+","altim":1017.4,"slp":1013.1,"qcField":6,"maxT":11.7,"minT":5.6,"metarType":"METAR","rawOb":"METAR KOLS 151154Z AUTO 00000KT 10SM CLR 06/M04 A3004 RMK AO2 SLP131 T00561044 10117 20056 53000","lat":31.4208,"lon":-110.8465,"elev":1194,"name":"Nogales Intl, AZ, US","cover":"CLR","clouds":[],"fltCat":"VFR"},{"icaoId":"KMEM","receiptTime":"2026-04-15T11:58:16.219Z","obsTime":1776254040,"reportTime":"2026-04-15T12:00:00.000Z","temp":19.4,"dewp":15,"wdir":190,"wspd":10,"visib":"10+","altim":1016.3,"slp":1016,"qcField":12,"presTend":0.4,"maxT":22.8,"minT":19.4,"metarType":"METAR","rawOb":"METAR KMEM 151154Z 19010KT 10SM FEW045 FEW250 19/15 A3001 RMK AO2 SLP160 T01940150 10228 20194 53004 $","lat":35.0564,"lon":-89.9864,"elev":78,"name":"Memphis Intl, TN, US","cover":"FEW","clouds":[{"cover":"FEW","base":4500},{"cover":"FEW","base":25000}],"fltCat":"VFR"},{"icaoId":"KSJN","receiptTime":"2026-04-15T11:58:17.549Z","obsTime":1776254040,"reportTime":"2026-04-15T12:00:00.000Z","temp":2.2,"dewp":-3.9,"wdir":190,"wspd":5,"visib":"10+","altim":1018.7,"slp":1014.5,"qcField":6,"presTend":0.1,"maxT":8.3,"minT":1.7,"pcp24hr":0.06,"metarType":"METAR","rawOb":"METAR KSJN 151154Z AUTO 19005KT 10SM CLR 02/M04 A3008 RMK AO2 SLP145 70006 T00221039 10083 20017 50001","lat":34.5184,"lon":-109.3801,"elev":1747,"name":"St Johns Ind Arpt, AZ, US","cover":"CLR","clouds":[],"fltCat":"VFR"},{"icaoId":"KGCN","receiptTime":"2026-04-15T11:58:15.516Z","obsTime":1776254040,"reportTime":"2026-04-15T12:00:00.000Z","temp":-5,"dewp":-6.1,"wdir":0,"wspd":0,"visib":"10+","altim":1020.1,"slp":1018.1,"qcField":6,"maxT":-0.6,"minT":-5,"metarType":"METAR","rawOb":"METAR KGCN 151154Z AUTO 00000KT 10SM CLR M05/M06 A3012 RMK AO2 SLP181 T10501061 11006 21050 58000","lat":35.9458,"lon":-112.1554,"elev":1993,"name":"Grand Canyon Park Arpt, AZ, US","cover":"CLR","clouds":[],"fltCat":"VFR"},{"icaoId":"KGSO","receiptTime":"2026-04-15T11:58:31.577Z","obsTime":1776254040,"reportTime":"2026-04-15T12:00:00.000Z","temp":17.2,"dewp":12.2,"wdir":220,"wspd":4,"visib":"10+","altim":1019.4,"slp":1018.5,"qcField":4,"presTend":1.9,"maxT":18.3,"minT":14.4,"metarType":"METAR","rawOb":"METAR KGSO 151154Z 22004KT 10SM BKN250 17/12 A3010 RMK AO2 SLP185 T01720122 10183 20144 53019","lat":36.0969,"lon":-79.9432,"elev":275,"name":"Greensboro Intl, NC, US","cover":"BKN","clouds":[{"cover":"BKN","base":25000}],"fltCat":"VFR"},{"icaoId":"KOLM","receiptTime":"2026-04-15T11:58:16.442Z","obsTime":1776254040,"reportTime":"2026-04-15T12:00:00.000Z","temp":3.3,"dewp":1.7,"wdir":210,"wspd":6,"visib":"10+","altim":1009.2,"slp":1009.1,"qcField":6,"presTend":0.2,"maxT":7.8,"minT":2.8,"pcp6hr":0.18,"pcp24hr":1.21,"metarType":"METAR","rawOb":"METAR KOLM 151154Z AUTO 21006KT 10SM CLR 03/02 A2980 RMK AO2 SLP091 60018 70121 T00330017 10078 20028 53002","lat":46.9737,"lon":-122.9049,"elev":58,"name":"Olympia Rgnl, WA, US","cover":"CLR","clouds":[],"fltCat":"VFR"},{"icaoId":"KBOS","receiptTime":"2026-04-15T11:58:15.833Z","obsTime":1776254040,"reportTime":"2026-04-15T12:00:00.000Z","temp":15.6,"dewp":12.2,"wdir":0,"wspd":0,"visib":"10+","altim":1012.3,"slp":1012.2,"qcField":4,"presTend":2.5,"maxT":19.4,"minT":10.6,"pcp24hr":0.2,"metarType":"METAR","rawOb":"METAR KBOS 151154Z 00000KT 10SM BKN250 16/12 A2989 RMK AO2 SLP122 70020 T01560122 10194 20106 51025","lat":42.3606,"lon":-71.0097,"elev":4,"name":"Boston/Logan Intl, MA, US","cover":"BKN","clouds":[{"cover":"BKN","base":25000}],"fltCat":"VFR"},{"icaoId":"KPHL","receiptTime":"2026-04-15T11:58:18.713Z","obsTime":1776254040,"reportTime":"2026-04-15T12:00:00.000Z","temp":19.4,"dewp":17.2,"wdir":240,"wspd":6,"visib":"10+","altim":1015,"slp":1014.7,"qcField":12,"presTend":1.3,"maxT":19.4,"minT":16.7,"pcp24hr":0.1,"metarType":"METAR","rawOb":"METAR KPHL 151154Z 24006KT 10SM FEW075 BKN240 BKN280 19/17 A2997 RMK AO2 SLP147 70010 T01940172 10194 20167 53013 $","lat":39.8733,"lon":-75.2268,"elev":2,"name":"Philadelphia Intl, PA, US","cover":"BKN","clouds":[{"cover":"FEW","base":7500},{"cover":"BKN","base":24000},{"cover":"BKN","base":28000}],"fltCat":"VFR"},{"icaoId":"KBUF","receiptTime":"2026-04-15T11:58:31.719Z","obsTime":1776254040,"reportTime":"2026-04-15T12:00:00.000Z","temp":17.8,"dewp":15,"wdir":220,"wspd":10,"wgst":16,"visib":"10+","altim":1009.2,"slp":1009.1,"qcField":4,"presTend":0.8,"maxT":17.8,"minT":12.2,"pcp6hr":0.1,"pcp24hr":0.12,"metarType":"METAR","rawOb":"METAR KBUF 151154Z 22010G16KT 10SM FEW040 FEW100 BKN160 BKN250 18/15 A2980 RMK AO2 SLP091 60010 70012 T01780150 10178 20122 51008","lat":42.94,"lon":-78.7361,"elev":217,"name":"Buffalo-Niagara Intl, NY, US","cover":"BKN","clouds":[{"cover":"FEW","base":4000},{"cover":"FEW","base":10000},{"cover":"BKN","base":16000},{"cover":"BKN","base":25000}],"fltCat":"VFR"},{"icaoId":"KRIC","receiptTime":"2026-04-15T11:58:31.409Z","obsTime":1776254040,"reportTime":"2026-04-15T12:00:00.000Z","temp":17.8,"dewp":12.8,"wdir":180,"wspd":5,"visib":"10+","altim":1017.4,"slp":1017.5,"qcField":4,"presTend":1.9,"maxT":20,"minT":15,"metarType":"METAR","rawOb":"METAR KRIC 151154Z 18005KT 10SM SCT300 18/13 A3004 RMK AO2 SLP175 T01780128 10200 20150 53019","lat":37.5115,"lon":-77.3234,"elev":51,"name":"Richmond Intl, VA, US","cover":"SCT","clouds":[{"cover":"SCT","base":30000}],"fltCat":"VFR"},{"icaoId":"KBTV","receiptTime":"2026-04-15T11:58:31.695Z","obsTime":1776254040,"reportTime":"2026-04-15T12:00:00.000Z","temp":6.7,"dewp":5.6,"wdir":0,"wspd":0,"visib":2,"altim":1014.3,"slp":1014.2,"qcField":4,"wxString":"BR","presTend":0.2,"maxT":6.7,"minT":6.1,"pcp24hr":0.61,"metarType":"METAR","rawOb":"METAR KBTV 151154Z 00000KT 2SM BR OVC004 07/06 A2995 RMK AO2 SFC VIS 3 SLP142 70061 T00670056 10067 20061 50002","lat":44.4682,"lon":-73.1499,"elev":101,"name":"Burlington Intl, VT, US","cover":"OVC","clouds":[{"cover":"OVC","base":400}],"fltCat":"LIFR"},{"icaoId":"KEUG","receiptTime":"2026-04-15T11:58:17.702Z","obsTime":1776254040,"reportTime":"2026-04-15T12:00:00.000Z","temp":8.3,"dewp":6.7,"wdir":150,"wspd":15,"visib":7,"altim":1010.6,"slp":1010.6,"qcField":6,"wxString":"RA","presTend":-3.1,"maxT":8.9,"minT":8.3,"precip":0.08,"pcp6hr":0.19,"pcp24hr":0.23,"metarType":"METAR","rawOb":"METAR KEUG 151154Z AUTO 15015KT 7SM RA OVC039 08/07 A2984 RMK AO2 SLP106 P0008 60019 70023 T00830067 10089 20083 56031","lat":44.1331,"lon":-123.2156,"elev":109,"name":"Eugene/Mahlon Sweet Fld, OR, US","cover":"OVC","clouds":[{"cover":"OVC","base":3900}],"fltCat":"VFR"},{"icaoId":"KDSM","receiptTime":"2026-04-15T11:58:31.543Z","obsTime":1776254040,"reportTime":"2026-04-15T12:00:00.000Z","temp":15,"dewp":14.4,"wdir":160,"wspd":5,"visib":"10+","altim":1005.8,"slp":1005.1,"qcField":4,"maxT":17.8,"minT":15,"precip":0.01,"pcp6hr":0.6,"pcp24hr":0.62,"metarType":"METAR","rawOb":"METAR KDSM 151154Z 16005KT 10SM FEW005 SCT055 BKN070 BKN140 OVC250 15/14 A2970 RMK AO2 LTG DSNT NW RAB37E44 SLP051 FRQ LTGICCG DSNT NW CB DSNT NW MOV NE P0001 60060 70062 T01500144 10178 20150 55000","lat":41.5339,"lon":-93.6531,"elev":286,"name":"Des Moines Intl, IA, US","cover":"BKN","clouds":[{"cover":"FEW","base":500},{"cover":"SCT","base":5500},{"cover":"BKN","base":7000},{"cover":"BKN","base":14000}],"fltCat":"VFR"},{"icaoId":"KIND","receiptTime":"2026-04-15T11:58:17.802Z","obsTime":1776254040,"reportTime":"2026-04-15T12:00:00.000Z","temp":21.7,"dewp":16.1,"wdir":220,"wspd":14,"wgst":21,"visib":"10+","altim":1011.9,"slp":1011.2,"qcField":12,"maxT":23.9,"minT":21.1,"metarType":"METAR","rawOb":"METAR KIND 151154Z 22014G21KT 10SM SCT150 BKN220 BKN300 22/16 A2988 RMK AO2 SLP112 ACC N T02170161 10239 20211 50000 $","lat":39.7252,"lon":-86.2816,"elev":242,"name":"Indianapolis Intl, IN, US","cover":"BKN","clouds":[{"cover":"SCT","base":15000},{"cover":"BKN","base":22000},{"cover":"BKN","base":30000}],"fltCat":"VFR"},{"icaoId":"KSLC","receiptTime":"2026-04-15T11:58:17.563Z","obsTime":1776254040,"reportTime":"2026-04-15T12:00:00.000Z","temp":6.7,"dewp":-1.7,"wdir":140,"wspd":9,"visib":"10+","altim":1014.6,"slp":1012.4,"qcField":12,"presTend":-0.4,"maxT":9.4,"minT":6.7,"metarType":"METAR","rawOb":"METAR KSLC 151154Z 14009KT 10SM FEW200 07/M02 A2996 RMK AO2 SLP124 T00671017 10094 20067 58004 $","lat":40.7707,"lon":-111.965,"elev":1286,"name":"Salt Lake City Intl, UT, US","cover":"FEW","clouds":[{"cover":"FEW","base":20000}],"fltCat":"VFR"},{"icaoId":"KROC","receiptTime":"2026-04-15T11:58:31.441Z","obsTime":1776254040,"reportTime":"2026-04-15T12:00:00.000Z","temp":11.7,"dewp":11.7,"wdir":0,"wspd":0,"visib":8,"altim":1009.6,"slp":1009.6,"qcField":12,"presTend":-0.9,"maxT":11.7,"minT":9.4,"precip":0.03,"pcp6hr":0.14,"pcp24hr":0.2,"metarType":"METAR","rawOb":"METAR KROC 151154Z 00000KT 8SM SCT080 OVC100 12/12 A2981 RMK AO2 RAE44 SLP096 P0003 60014 70020 T01170117 10117 20094 58009 $","lat":43.1172,"lon":-77.6754,"elev":166,"name":"Rochester Intl Arpt, NY, US","cover":"OVC","clouds":[{"cover":"SCT","base":8000},{"cover":"OVC","base":10000}],"fltCat":"VFR"},{"icaoId":"KSMF","receiptTime":"2026-04-15T11:56:29.889Z","obsTime":1776253980,"reportTime":"2026-04-15T12:00:00.000Z","temp":9.4,"dewp":7.2,"wdir":150,"wspd":7,"visib":"10+","altim":1017.7,"slp":1017.3,"qcField":12,"presTend":-0.7,"maxT":11.1,"minT":8.9,"metarType":"METAR","rawOb":"METAR KSMF 151153Z 15007KT 10SM FEW210 SCT250 09/07 A3005 RMK AO2 SLP173 T00940072 10111 20089 56007 $","lat":38.7007,"lon":-121.5948,"elev":7,"name":"Sacramento Intl, CA, US","cover":"SCT","clouds":[{"cover":"FEW","base":21000},{"cover":"SCT","base":25000}],"fltCat":"VFR"},{"icaoId":"KAPA","receiptTime":"2026-04-15T11:56:24.787Z","obsTime":1776253980,"reportTime":"2026-04-15T12:00:00.000Z","temp":2.8,"dewp":-7.8,"wdir":220,"wspd":6,"visib":"10+","altim":1012.3,"slp":1011.5,"qcField":4,"presTend":0.1,"maxT":5.6,"minT":2.8,"metarType":"METAR","rawOb":"METAR KAPA 151153Z 22006KT 10SM FEW120 SCT220 03/M08 A2989 RMK AO2 SLP115 T00281078 10056 20028 53001","lat":39.5599,"lon":-104.8484,"elev":1791,"name":"Denver/Centennial Arpt, CO, US","cover":"SCT","clouds":[{"cover":"FEW","base":12000},{"cover":"SCT","base":22000}],"fltCat":"VFR"},{"icaoId":"KAUS","receiptTime":"2026-04-15T11:56:24.950Z","obsTime":1776253980,"reportTime":"2026-04-15T12:00:00.000Z","temp":21.1,"dewp":19.4,"wdir":160,"wspd":8,"visib":"10+","altim":1014.6,"slp":1013.5,"qcField":4,"presTend":-0.1,"maxT":22.8,"minT":21.1,"metarType":"METAR","rawOb":"METAR KAUS 151153Z 16008KT 10SM BKN050 21/19 A2996 RMK AO2 SLP135 T02110194 10228 20211 56001","lat":30.1831,"lon":-97.6806,"elev":148,"name":"Austin/Bergstrom Intl, TX, US","cover":"BKN","clouds":[{"cover":"BKN","base":5000}],"fltCat":"VFR"},{"icaoId":"KSWO","receiptTime":"2026-04-15T11:56:30.327Z","obsTime":1776253980,"reportTime":"2026-04-15T12:00:00.000Z","temp":20.6,"dewp":18.9,"wdir":210,"wspd":15,"wgst":22,"visib":"10+","altim":1008.2,"slp":1006.8,"qcField":6,"presTend":-0.6,"maxT":20.6,"minT":17.8,"pcp24hr":0.1,"metarType":"METAR","rawOb":"METAR KSWO 151153Z AUTO 21015G22KT 10SM SCT014 21/19 A2977 RMK AO2 SLP068 70010 T02060189 10206 20178 56006","lat":36.1624,"lon":-97.0832,"elev":293,"name":"Stillwater Muni, OK, US","cover":"SCT","clouds":[{"cover":"SCT","base":1400}],"fltCat":"VFR"},{"icaoId":"KTPA","receiptTime":"2026-04-15T11:56:18.376Z","obsTime":1776253980,"reportTime":"2026-04-15T12:00:00.000Z","temp":19.4,"dewp":16.7,"wdir":0,"wspd":0,"visib":"10+","altim":1021.8,"slp":1021.6,"qcField":4,"presTend":1.8,"maxT":21.7,"minT":19.4,"metarType":"METAR","rawOb":"METAR KTPA 151153Z 00000KT 10SM CLR 19/17 A3017 RMK AO2 SLP216 T01940167 10217 20194 51018","lat":27.9633,"lon":-82.54,"elev":2,"name":"Tampa Intl Arpt, FL, US","cover":"CLR","clouds":[],"fltCat":"VFR"},{"icaoId":"KTUS","receiptTime":"2026-04-15T11:56:31.141Z","obsTime":1776253980,"reportTime":"2026-04-15T12:00:00.000Z","temp":10.6,"dewp":-5,"wdir":130,"wspd":3,"visib":"10+","altim":1017,"slp":1014,"qcField":12,"presTend":0.2,"maxT":16.7,"minT":10.6,"metarType":"METAR","rawOb":"METAR KTUS 151153Z 13003KT 10SM CLR 11/M05 A3003 RMK AO2 SLP140 T01061050 10167 20106 52002 $","lat":32.1315,"lon":-110.9564,"elev":776,"name":"Tucson Intl Arpt, AZ, US","cover":"CLR","clouds":[],"fltCat":"VFR"},{"icaoId":"KCDC","receiptTime":"2026-04-15T11:56:30.770Z","obsTime":1776253980,"reportTime":"2026-04-15T12:00:00.000Z","temp":3.9,"dewp":-1.7,"wdir":150,"wspd":6,"visib":"10+","altim":1017.7,"slp":1015.1,"qcField":6,"presTend":-0.3,"maxT":5.6,"minT":2.2,"pcp24hr":0.04,"metarType":"METAR","rawOb":"METAR KCDC 151153Z AUTO 15006KT 10SM CLR 04/M02 A3005 RMK AO2 SLP151 70004 T00391017 10056 20022 58003","lat":37.7067,"lon":-113.097,"elev":1703,"name":"Cedar City Muni, UT, US","cover":"CLR","clouds":[],"fltCat":"VFR"},{"icaoId":"KLAX","receiptTime":"2026-04-15T11:56:28.648Z","obsTime":1776253980,"reportTime":"2026-04-15T12:00:00.000Z","temp":13.3,"dewp":11.7,"wdir":80,"wspd":3,"visib":"10+","altim":1016.3,"slp":1016,"qcField":4,"presTend":-0.6,"maxT":16.1,"minT":12.8,"metarType":"METAR","rawOb":"METAR KLAX 151153Z 08003KT 10SM FEW008 FEW010 SCT250 13/12 A3001 RMK AO2 SLP160 FU FEW010 T01330117 10161 20128 56006","lat":33.9382,"lon":-118.3866,"elev":30,"name":"Los Angeles Intl, CA, US","cover":"SCT","clouds":[{"cover":"FEW","base":800},{"cover":"FEW","base":1000},{"cover":"SCT","base":25000}],"fltCat":"VFR"},{"icaoId":"KDLN","receiptTime":"2026-04-15T11:56:29.099Z","obsTime":1776253980,"reportTime":"2026-04-15T12:00:00.000Z","temp":4.4,"dewp":-5,"wdir":230,"wspd":5,"visib":"10+","altim":1007.5,"slp":1005,"qcField":6,"presTend":-1.2,"maxT":7.8,"minT":4.4,"metarType":"METAR","rawOb":"METAR KDLN 151153Z AUTO 23005KT 10SM BKN065 OVC080 04/M05 A2975 RMK AO2 SLP050 T00441050 10078 20044 56012","lat":45.2584,"lon":-112.5546,"elev":1586,"name":"Dillon Arpt, MT, US","cover":"OVC","clouds":[{"cover":"BKN","base":6500},{"cover":"OVC","base":8000}],"fltCat":"VFR"},{"icaoId":"KMSO","receiptTime":"2026-04-15T11:56:28.362Z","obsTime":1776253980,"reportTime":"2026-04-15T12:00:00.000Z","temp":6.1,"dewp":-0.6,"wdir":80,"wspd":5,"visib":"10+","altim":1007.2,"slp":1007.6,"qcField":4,"presTend":-1.9,"maxT":6.7,"minT":3.9,"pcp6hr":0.005,"metarType":"METAR","rawOb":"METAR KMSO 151153Z 08005KT 10SM BKN080 06/M01 A2974 RMK AO2 SLP076 60000 T00611006 10067 20039 58019","lat":46.9208,"lon":-114.0938,"elev":974,"name":"Missoula Intl, MT, US","cover":"BKN","clouds":[{"cover":"BKN","base":8000}],"fltCat":"VFR"},{"icaoId":"KOGD","receiptTime":"2026-04-15T11:56:21.381Z","obsTime":1776253980,"reportTime":"2026-04-15T12:00:00.000Z","temp":4.4,"dewp":-2.2,"wdir":180,"wspd":10,"visib":"10+","altim":1014,"slp":1012,"qcField":6,"presTend":-0.7,"maxT":7.2,"minT":4.4,"metarType":"METAR","rawOb":"METAR KOGD 151153Z AUTO 18010KT 10SM CLR 04/M02 A2994 RMK AO2 SLP120 T00441022 10072 20044 58007","lat":41.1941,"lon":-112.0168,"elev":1356,"name":"Ogden/Hinckley Arpt, UT, US","cover":"CLR","clouds":[],"fltCat":"VFR"},{"icaoId":"KLAW","receiptTime":"2026-04-15T11:56:22.351Z","obsTime":1776253980,"reportTime":"2026-04-15T12:00:00.000Z","temp":20,"dewp":18.9,"wdir":170,"wspd":8,"visib":"10+","altim":1009.6,"slp":1008.7,"qcField":6,"presTend":0.2,"maxT":20.6,"minT":18.9,"pcp6hr":0.03,"pcp24hr":1.23,"metarType":"METAR","rawOb":"METAR KLAW 151153Z AUTO 17008KT 10SM CLR 20/19 A2981 RMK AO2 SLP087 60003 70123 T02000189 10206 20189 53002","lat":34.5577,"lon":-98.4172,"elev":328,"name":"Lawton-Fort Sill Rgnl, OK, US","cover":"CLR","clouds":[],"fltCat":"VFR"},{"icaoId":"KLOL","receiptTime":"2026-04-15T11:56:22.626Z","obsTime":1776253980,"reportTime":"2026-04-15T12:00:00.000Z","temp":4.4,"dewp":-2.2,"wdir":0,"wspd":0,"visib":"10+","altim":1015.7,"slp":1014.3,"qcField":6,"presTend":-0.6,"maxT":11.7,"minT":3.3,"metarType":"METAR","rawOb":"METAR KLOL 151153Z AUTO 00000KT 10SM CLR 04/M02 A2999 RMK AO2 SLP143 T00441022 10117 20033 56006","lat":40.0684,"lon":-118.5702,"elev":1191,"name":"Lovelock/Derby Fld, NV, US","cover":"CLR","clouds":[],"fltCat":"VFR"},{"icaoId":"KSDL","receiptTime":"2026-04-15T11:56:29.798Z","obsTime":1776253980,"reportTime":"2026-04-15T12:00:00.000Z","temp":15.6,"dewp":1.1,"wdir":0,"wspd":0,"visib":"10+","altim":1015,"slp":1013.2,"qcField":6,"maxT":20,"minT":14.4,"metarType":"METAR","rawOb":"METAR KSDL 151153Z AUTO 00000KT 10SM CLR 16/01 A2997 RMK AO2 SLP132 T01560011 10200 20144 55000","lat":33.6123,"lon":-111.9232,"elev":438,"name":"Scottsdale Muni, AZ, US","cover":"CLR","clouds":[],"fltCat":"VFR"},{"icaoId":"KTWF","receiptTime":"2026-04-15T11:56:29.945Z","obsTime":1776253980,"reportTime":"2026-04-15T12:00:00.000Z","temp":6.7,"dewp":0.6,"wdir":210,"wspd":9,"visib":"10+","altim":1013,"slp":1010.3,"qcField":4,"presTend":0.5,"maxT":10,"minT":5,"metarType":"METAR","rawOb":"METAR KTWF 151153Z 21009KT 10SM OVC095 07/01 A2991 RMK AO2 SLP103 T00670006 10100 20050 50005","lat":42.4785,"lon":-114.4775,"elev":1269,"name":"Twin Falls/Joslin Fld, ID, US","cover":"OVC","clouds":[{"cover":"OVC","base":9500}],"fltCat":"VFR"},{"icaoId":"KACV","receiptTime":"2026-04-15T11:56:24.003Z","obsTime":1776253980,"reportTime":"2026-04-15T12:00:00.000Z","temp":9.4,"dewp":5,"wdir":120,"wspd":7,"visib":"10+","altim":1019,"slp":1019.5,"qcField":6,"wxString":"-RA","presTend":-2,"maxT":9.4,"minT":7.8,"precip":0.005,"pcp6hr":0.005,"metarType":"METAR","rawOb":"METAR KACV 151153Z AUTO 12007KT 10SM -RA OVC025 09/05 A3009 RMK AO2 RAB48 SLP195 P0000 60000 T00940050 10094 20078 56020","lat":40.9784,"lon":-124.1048,"elev":63,"name":"Arcata Arpt, CA, US","cover":"OVC","clouds":[{"cover":"OVC","base":2500}],"fltCat":"MVFR"},{"icaoId":"KCNM","receiptTime":"2026-04-15T11:56:30.939Z","obsTime":1776253980,"reportTime":"2026-04-15T12:00:00.000Z","temp":13.9,"dewp":1.1,"wdir":290,"wspd":8,"visib":"10+","altim":1014.3,"slp":1009.8,"qcField":6,"presTend":1.3,"maxT":19.4,"minT":13.9,"metarType":"METAR","rawOb":"METAR KCNM 151153Z AUTO 29008KT 10SM CLR 14/01 A2995 RMK AO2 WSHFT 1049 SLP098 T01390011 10194 20139 51013","lat":32.3336,"lon":-104.2584,"elev":993,"name":"Carlsbad/Cavern City Air Term, NM, US","cover":"CLR","clouds":[],"fltCat":"VFR"},{"icaoId":"KBCE","receiptTime":"2026-04-15T11:56:25.034Z","obsTime":1776253980,"reportTime":"2026-04-15T12:00:00.000Z","temp":-5,"dewp":-5.6,"wdir":270,"wspd":5,"visib":"10+","altim":1019.7,"slp":1015.9,"qcField":6,"presTend":-0.2,"maxT":-2.8,"minT":-5.6,"pcp24hr":0.05,"metarType":"METAR","rawOb":"METAR KBCE 151153Z AUTO 27005KT 10SM CLR M05/M06 A3011 RMK AO2 SLP159 70005 T10501056 11028 21056 56002","lat":37.7013,"lon":-112.149,"elev":2311,"name":"Bryce Canyon Arpt, UT, US","cover":"CLR","clouds":[],"fltCat":"VFR"},{"icaoId":"PANC","receiptTime":"2026-04-15T11:56:28.526Z","obsTime":1776253980,"reportTime":"2026-04-15T12:00:00.000Z","temp":-1.1,"dewp":-5.6,"wdir":150,"wspd":4,"visib":"10+","altim":1010.9,"slp":1010.9,"qcField":4,"presTend":0.1,"maxT":1.7,"minT":-2.2,"snow":13000,"metarType":"METAR","rawOb":"METAR PANC 151153Z 15004KT 10SM SCT130 M01/M06 A2985 RMK AO2 SLP109 4/013 T10111056 10017 21022 50001","lat":61.1691,"lon":-150.0277,"elev":39,"name":"Anchorage Intl, AK, US","cover":"SCT","clouds":[{"cover":"SCT","base":13000}],"fltCat":"VFR"},{"icaoId":"KDVT","receiptTime":"2026-04-15T11:56:29.239Z","obsTime":1776253980,"reportTime":"2026-04-15T12:00:00.000Z","temp":14.4,"dewp":-1.7,"wdir":30,"wspd":5,"visib":"10+","altim":1015,"slp":1013.2,"qcField":4,"maxT":17.8,"minT":13.9,"metarType":"METAR","rawOb":"METAR KDVT 151153Z 03005KT 10SM CLR 14/M02 A2997 RMK AO2 SLP132 T01441017 10178 20139 55000","lat":33.6902,"lon":-112.0662,"elev":454,"name":"Phoenix/Deer Valley Arpt, AZ, US","cover":"CLR","clouds":[],"fltCat":"VFR"},{"icaoId":"KSHR","receiptTime":"2026-04-15T11:56:29.858Z","obsTime":1776253980,"reportTime":"2026-04-15T12:00:00.000Z","temp":1.1,"dewp":-5,"wdir":170,"wspd":5,"visib":"10+","altim":1006.5,"slp":1006.3,"qcField":6,"maxT":6.7,"minT":-1.7,"metarType":"METAR","rawOb":"METAR KSHR 151153Z AUTO 17005KT 10SM CLR 01/M05 A2972 RMK AO2 SLP063 T00111050 10067 21017 53000","lat":44.7603,"lon":-106.9741,"elev":1212,"name":"Sheridan Cnty Arpt, WY, US","cover":"CLR","clouds":[],"fltCat":"VFR"},{"icaoId":"KBLI","receiptTime":"2026-04-15T11:56:30.484Z","obsTime":1776253980,"reportTime":"2026-04-15T12:00:00.000Z","temp":4.4,"dewp":1.7,"wdir":220,"wspd":3,"visib":"10+","altim":1008.5,"slp":1009.3,"qcField":6,"presTend":0.5,"maxT":6.1,"minT":3.9,"pcp6hr":0.005,"pcp24hr":0.38,"metarType":"METAR","rawOb":"METAR KBLI 151153Z AUTO 22003KT 10SM SCT029 OVC070 04/02 A2978 RMK AO2 SLP093 60000 70038 T00440017 10061 20039 50005","lat":48.7991,"lon":-122.5407,"elev":46,"name":"Bellingham Intl, WA, US","cover":"OVC","clouds":[{"cover":"SCT","base":2900},{"cover":"OVC","base":7000}],"fltCat":"VFR"},{"icaoId":"KBNA","receiptTime":"2026-04-15T11:56:30.528Z","obsTime":1776253980,"reportTime":"2026-04-15T12:00:00.000Z","temp":18.3,"dewp":11.1,"wdir":190,"wspd":9,"visib":"10+","altim":1018.4,"slp":1017.5,"qcField":12,"presTend":0.8,"maxT":20.6,"minT":17.2,"metarType":"METAR","rawOb":"METAR KBNA 151153Z 19009KT 10SM BKN250 18/11 A3007 RMK AO2 SLP175 T01830111 10206 20172 53008 $","lat":36.1105,"lon":-86.6881,"elev":168,"name":"Nashville Intl, TN, US","cover":"BKN","clouds":[{"cover":"BKN","base":25000}],"fltCat":"VFR"},{"icaoId":"KPSC","receiptTime":"2026-04-15T11:56:31.022Z","obsTime":1776253980,"reportTime":"2026-04-15T12:00:00.000Z","temp":12.8,"dewp":1.1,"wdir":220,"wspd":11,"visib":"10+","altim":1006.2,"slp":1006.1,"qcField":6,"presTend":-2.6,"maxT":12.8,"minT":11.1,"pcp6hr":0.005,"metarType":"METAR","rawOb":"METAR KPSC 151153Z AUTO 22011KT 10SM OVC100 13/01 A2971 RMK AO2 SLP061 60000 T01280011 10128 20111 56026","lat":46.2695,"lon":-119.1182,"elev":121,"name":"Pasco/Tri Cities Arpt, WA, US","cover":"OVC","clouds":[{"cover":"OVC","base":10000}],"fltCat":"VFR"},{"icaoId":"KPSP","receiptTime":"2026-04-15T11:56:31.036Z","obsTime":1776253980,"reportTime":"2026-04-15T12:00:00.000Z","temp":17.2,"dewp":6.1,"wdir":320,"wspd":5,"visib":"10+","altim":1015,"slp":1014.7,"qcField":14,"presTend":-0.3,"maxT":22.2,"minT":15.6,"metarType":"METAR","rawOb":"METAR KPSP 151153Z AUTO 32005KT 10SM CLR 17/06 A2997 RMK AO2 SLP147 T01720061 10222 20156 56003 $","lat":33.8222,"lon":-116.5043,"elev":123,"name":"Palm Springs Intl, CA, US","cover":"CLR","clouds":[],"fltCat":"VFR"},{"icaoId":"KGSP","receiptTime":"2026-04-15T11:56:23.384Z","obsTime":1776253980,"reportTime":"2026-04-15T12:00:00.000Z","temp":13.3,"dewp":10.6,"wdir":0,"wspd":0,"visib":"10+","altim":1020.4,"slp":1019.5,"qcField":4,"presTend":1.8,"maxT":18.3,"minT":12.8,"metarType":"METAR","rawOb":"METAR KGSP 151153Z 00000KT 10SM CLR 13/11 A3013 RMK AO2 SLP195 T01330106 10183 20128 53018","lat":34.8842,"lon":-82.2209,"elev":285,"name":"Greenville-Spartanburg Intl, SC, US","cover":"CLR","clouds":[],"fltCat":"VFR"},{"icaoId":"KPIH","receiptTime":"2026-04-15T11:56:30.981Z","obsTime":1776253980,"reportTime":"2026-04-15T12:00:00.000Z","temp":9.4,"dewp":-3.3,"wdir":210,"wspd":14,"visib":"10+","altim":1011.9,"slp":1010,"qcField":4,"maxT":10,"minT":2.2,"metarType":"METAR","rawOb":"METAR KPIH 151153Z 21014KT 10SM BKN080 OVC100 09/M03 A2988 RMK AO2 SLP100 T00941033 10100 20022 55000","lat":42.9197,"lon":-112.5723,"elev":1357,"name":"Pocatello Rgnl, ID, US","cover":"OVC","clouds":[{"cover":"BKN","base":8000},{"cover":"OVC","base":10000}],"fltCat":"VFR"},{"icaoId":"KPRC","receiptTime":"2026-04-15T11:56:31.008Z","obsTime":1776253980,"reportTime":"2026-04-15T12:00:00.000Z","temp":3.9,"dewp":-1.1,"wdir":190,"wspd":6,"visib":"10+","altim":1019,"slp":1014.9,"qcField":6,"maxT":10,"minT":3.3,"metarType":"METAR","rawOb":"METAR KPRC 151153Z AUTO 19006KT 10SM CLR 04/M01 A3009 RMK AO2 SLP149 T00391011 10100 20033 55000","lat":34.6491,"lon":-112.4223,"elev":1528,"name":"Prescott/Love Fld, AZ, US","cover":"CLR","clouds":[],"fltCat":"VFR"},{"icaoId":"KFMN","receiptTime":"2026-04-15T11:56:31.593Z","obsTime":1776253980,"reportTime":"2026-04-15T12:00:00.000Z","temp":1.1,"dewp":-2.2,"wdir":0,"wspd":0,"visib":"10+","altim":1018,"slp":1017.1,"qcField":4,"presTend":0.2,"maxT":5.6,"minT":-1.1,"metarType":"METAR","rawOb":"METAR KFMN 151153Z 00000KT 10SM CLR 01/M02 A3006 RMK AO2 SLP171 T00111022 10056 21011 53002","lat":36.7435,"lon":-108.2293,"elev":1677,"name":"Farmington/Four Corners Rgnl, NM, US","cover":"CLR","clouds":[],"fltCat":"VFR"},{"icaoId":"KAMA","receiptTime":"2026-04-15T11:56:24.693Z","obsTime":1776253980,"reportTime":"2026-04-15T12:00:00.000Z","temp":13.3,"dewp":-6.1,"wdir":340,"wspd":4,"visib":"10+","altim":1013.3,"slp":1008.8,"qcField":4,"presTend":1.2,"maxT":17.8,"minT":12.8,"metarType":"METAR","rawOb":"METAR KAMA 151153Z 34004KT 10SM BKN110 13/M06 A2992 RMK AO2 SLP088 T01331061 10178 20128 53012","lat":35.2203,"lon":-101.7173,"elev":1102,"name":"Amarillo Intl Arpt, TX, US","cover":"BKN","clouds":[{"cover":"BKN","base":11000}],"fltCat":"VFR"},{"icaoId":"KBUR","receiptTime":"2026-04-15T11:56:30.671Z","obsTime":1776253980,"reportTime":"2026-04-15T12:00:00.000Z","temp":11.7,"dewp":7.2,"wdir":0,"wspd":0,"visib":"10+","altim":1016.3,"slp":1015.4,"qcField":4,"presTend":-0.7,"maxT":15.6,"minT":11.7,"metarType":"METAR","rawOb":"METAR KBUR 151153Z 00000KT 10SM CLR 12/07 A3001 RMK AO2 SLP154 T01170072 10156 20117 56007","lat":34.1996,"lon":-118.3654,"elev":221,"name":"Burbank/Bob Hope Arpt, CA, US","cover":"CLR","clouds":[],"fltCat":"VFR"},{"icaoId":"KPBI","receiptTime":"2026-04-15T11:56:17.789Z","obsTime":1776253980,"reportTime":"2026-04-15T12:00:00.000Z","temp":23.3,"dewp":13.3,"wdir":90,"wspd":10,"visib":"10+","altim":1021.1,"slp":1021,"qcField":12,"presTend":1.6,"maxT":23.3,"minT":22.2,"metarType":"METAR","rawOb":"METAR KPBI 151153Z 09010KT 10SM OVC042 23/13 A3015 RMK AO2 SLP210 T02330133 10233 20222 53016 $","lat":26.6851,"lon":-80.0992,"elev":4,"name":"Palm Beach Intl, FL, US","cover":"OVC","clouds":[{"cover":"OVC","base":4200}],"fltCat":"VFR"},{"icaoId":"KFAT","receiptTime":"2026-04-15T11:56:31.578Z","obsTime":1776253980,"reportTime":"2026-04-15T12:00:00.000Z","temp":10,"dewp":7.8,"wdir":300,"wspd":4,"visib":"10+","altim":1018,"slp":1017.7,"qcField":4,"presTend":-0.4,"maxT":16.7,"minT":10,"metarType":"METAR","rawOb":"METAR KFAT 151153Z 30004KT 10SM CLR 10/08 A3006 RMK AO2 SLP177 T01000078 10167 20100 56004","lat":36.78,"lon":-119.7202,"elev":102,"name":"Fresno/Yosemite Intl, CA, US","cover":"CLR","clouds":[],"fltCat":"VFR"},{"icaoId":"KDTW","receiptTime":"2026-04-15T11:56:29.204Z","obsTime":1776253980,"reportTime":"2026-04-15T12:00:00.000Z","temp":16.7,"dewp":15,"wdir":210,"wspd":13,"visib":"10+","altim":1010.6,"slp":1010.2,"qcField":12,"wxString":"-RA","presTend":0.7,"maxT":21.1,"minT":15.6,"precip":0.005,"pcp6hr":0.67,"pcp24hr":0.67,"metarType":"METAR","rawOb":"METAR KDTW 151153Z 21013KT 10SM -RA FEW008 BKN065 OVC100 17/15 A2984 RMK AO2 RAB37 SLP102 P0000 60067 70067 T01670150 10211 20156 53007 $","lat":42.2311,"lon":-83.3312,"elev":192,"name":"Detroit/Metro Wayne Cnty, MI, US","cover":"OVC","clouds":[{"cover":"FEW","base":800},{"cover":"BKN","base":6500},{"cover":"OVC","base":10000}],"fltCat":"VFR"},{"icaoId":"KMIA","receiptTime":"2026-04-15T11:56:15.516Z","obsTime":1776253980,"reportTime":"2026-04-15T12:00:00.000Z","temp":23.3,"dewp":13.9,"wdir":90,"wspd":11,"visib":"10+","altim":1020.4,"slp":1020.3,"qcField":0,"presTend":1.6,"maxT":23.3,"minT":22.2,"metarType":"METAR","rawOb":"METAR KMIA 151153Z 09011KT 10SM OVC042 23/14 A3013 RMK SLP203 T02330139 10233 20222 53016","lat":25.7881,"lon":-80.3169,"elev":1,"name":"Miami Intl, FL, US","cover":"OVC","clouds":[{"cover":"OVC","base":4200}],"fltCat":"VFR"},{"icaoId":"KVEL","receiptTime":"2026-04-15T11:56:17.565Z","obsTime":1776253980,"reportTime":"2026-04-15T12:00:00.000Z","temp":-0.6,"dewp":-2.8,"wdir":0,"wspd":0,"visib":"10+","altim":1017,"slp":1016.4,"qcField":6,"presTend":0.1,"maxT":3.9,"minT":-1.1,"metarType":"METAR","rawOb":"METAR KVEL 151153Z AUTO 00000KT 10SM BKN024 M01/M03 A3003 RMK AO2 SLP164 T10061028 10039 21011 53001","lat":40.4429,"lon":-109.5128,"elev":1604,"name":"Vernal Rgnl, UT, US","cover":"BKN","clouds":[{"cover":"BKN","base":2400}],"fltCat":"MVFR"},{"icaoId":"KPNC","receiptTime":"2026-04-15T11:56:18.040Z","obsTime":1776253980,"reportTime":"2026-04-15T12:00:00.000Z","temp":20.6,"dewp":18.3,"wdir":200,"wspd":7,"visib":"10+","altim":1007.9,"slp":1006.8,"qcField":6,"presTend":0.5,"maxT":20.6,"minT":18.9,"pcp24hr":0.03,"metarType":"METAR","rawOb":"METAR KPNC 151153Z AUTO 20007KT 10SM OVC014 21/18 A2976 RMK AO2 SLP068 70003 T02060183 10206 20189 53005","lat":36.7369,"lon":-97.1024,"elev":304,"name":"Ponca City Rgnl, OK, US","cover":"OVC","clouds":[{"cover":"OVC","base":1400}],"fltCat":"MVFR"},{"icaoId":"KSAF","receiptTime":"2026-04-15T11:56:18.819Z","obsTime":1776253980,"reportTime":"2026-04-15T12:00:00.000Z","temp":1.1,"dewp":-5.6,"wdir":360,"wspd":9,"visib":"","altim":1017.4,"slp":1012.8,"qcField":14,"maxT":6.1,"minT":0.6,"metarType":"METAR","rawOb":"METAR KSAF 151153Z AUTO 36009KT CLR 01/M06 A3004 RMK AO2 SLP128 T00111056 10061 20006 50000 $","lat":35.611,"lon":-106.0957,"elev":1918,"name":"Santa Fe Cnty Muni, NM, US","cover":"CLR","clouds":[]},{"icaoId":"KMAF","receiptTime":"2026-04-15T11:56:19.062Z","obsTime":1776253980,"reportTime":"2026-04-15T12:00:00.000Z","temp":17.2,"dewp":16.7,"wdir":190,"wspd":5,"visib":7,"altim":1013.3,"slp":1009.4,"qcField":4,"presTend":1.1,"maxT":18.9,"minT":16.1,"pcp24hr":0.03,"metarType":"METAR","rawOb":"METAR KMAF 151153Z 19005KT 7SM CLR 17/17 A2992 RMK AO2 SLP094 70003 T01720167 10189 20161 51011","lat":31.9475,"lon":-102.2086,"elev":874,"name":"Midland Intl, TX, US","cover":"CLR","clouds":[],"fltCat":"VFR"},{"icaoId":"KMCO","receiptTime":"2026-04-15T11:56:19.179Z","obsTime":1776253980,"reportTime":"2026-04-15T12:00:00.000Z","temp":17.2,"dewp":15,"wdir":0,"wspd":0,"visib":"10+","altim":1022.4,"slp":1022.3,"qcField":4,"presTend":1.8,"maxT":19.4,"minT":16.1,"metarType":"METAR","rawOb":"METAR KMCO 151153Z 00000KT 10SM FEW040 17/15 A3019 RMK AO2 SLP223 T01720150 10194 20161 53018","lat":28.4182,"lon":-81.3241,"elev":27,"name":"Orlando Intl, FL, US","cover":"FEW","clouds":[{"cover":"FEW","base":4000}],"fltCat":"VFR"},{"icaoId":"KMDW","receiptTime":"2026-04-15T11:56:19.206Z","obsTime":1776253980,"reportTime":"2026-04-15T12:00:00.000Z","temp":18.9,"dewp":15.6,"wdir":250,"wspd":6,"visib":"10+","altim":1009.2,"slp":1008.3,"qcField":4,"presTend":2.8,"maxT":21.1,"minT":17.2,"precip":0.005,"pcp6hr":0.005,"pcp24hr":0.44,"metarType":"METAR","rawOb":"METAR KMDW 151153Z 25006KT 10SM FEW040 BKN065 BKN110 OVC250 19/16 A2980 RMK AO2 RAB29E48 SLP083 P0000 60000 70044 T01890156 10211 20172 53028","lat":41.7841,"lon":-87.7552,"elev":186,"name":"Chicago/Midway Intl, IL, US","cover":"OVC","clouds":[{"cover":"FEW","base":4000},{"cover":"BKN","base":6500},{"cover":"BKN","base":11000},{"cover":"OVC","base":25000}],"fltCat":"VFR"},{"icaoId":"KMFR","receiptTime":"2026-04-15T11:56:28.732Z","obsTime":1776253980,"reportTime":"2026-04-15T12:00:00.000Z","temp":7.2,"dewp":6.7,"wdir":320,"wspd":4,"visib":"10+","altim":1015.7,"slp":1015.6,"qcField":4,"presTend":-1.8,"maxT":8.9,"minT":7.2,"precip":0.005,"pcp6hr":0.01,"pcp24hr":0.01,"metarType":"METAR","rawOb":"METAR KMFR 151153Z 32004KT 10SM OVC060 07/07 A2999 RMK AO2 RAE15 SLP156 P0000 60001 70001 T00720067 10089 20072 56018","lat":42.375,"lon":-122.877,"elev":397,"name":"Medford/Rogue Valley Intl, OR, US","cover":"OVC","clouds":[{"cover":"OVC","base":6000}],"fltCat":"VFR"},{"icaoId":"KMLS","receiptTime":"2026-04-15T11:56:19.863Z","obsTime":1776253980,"reportTime":"2026-04-15T12:00:00.000Z","temp":4.4,"dewp":1.7,"wdir":0,"wspd":0,"visib":"10+","altim":1005.5,"slp":1005.4,"qcField":6,"presTend":1.4,"maxT":10,"minT":3.9,"metarType":"METAR","rawOb":"METAR KMLS 151153Z AUTO 00000KT 10SM CLR 04/02 A2969 RMK AO2 SLP054 T00440017 10100 20039 53014","lat":46.4265,"lon":-105.8834,"elev":800,"name":"Miles City/Wiley Fld, MT, US","cover":"CLR","clouds":[],"fltCat":"VFR"},{"icaoId":"KPGA","receiptTime":"2026-04-15T11:56:30.967Z","obsTime":1776253980,"reportTime":"2026-04-15T12:00:00.000Z","temp":7.2,"dewp":-0.6,"wdir":0,"wspd":0,"visib":"10+","altim":1017.4,"slp":1014.5,"qcField":6,"presTend":0.1,"maxT":11.7,"minT":7.2,"pcp24hr":0.01,"metarType":"METAR","rawOb":"METAR KPGA 151153Z AUTO 00000KT 10SM CLR 07/M01 A3004 RMK AO2 SLP145 70001 T00721006 10117 20072 50001","lat":36.9211,"lon":-111.4487,"elev":1310,"name":"Page Muni, AZ, US","cover":"CLR","clouds":[],"fltCat":"VFR"},{"icaoId":"KMCI","receiptTime":"2026-04-15T11:56:19.137Z","obsTime":1776253980,"reportTime":"2026-04-15T12:00:00.000Z","temp":18.9,"dewp":15.6,"wdir":210,"wspd":11,"wgst":17,"visib":"10+","altim":1007.5,"slp":1006.5,"qcField":4,"presTend":-0.3,"maxT":22.2,"minT":18.9,"pcp6hr":0.01,"pcp24hr":0.01,"metarType":"METAR","rawOb":"METAR KMCI 151153Z 21011G17KT 10SM BKN042 OVC049 19/16 A2975 RMK AO2 TSE04 SLP065 60001 70001 T01890156 10222 20189 55003","lat":39.2975,"lon":-94.7309,"elev":308,"name":"Kansas City Intl, MO, US","cover":"OVC","clouds":[{"cover":"BKN","base":4200},{"cover":"OVC","base":4900}],"fltCat":"VFR"},{"icaoId":"KSBA","receiptTime":"2026-04-15T11:56:29.785Z","obsTime":1776253980,"reportTime":"2026-04-15T12:00:00.000Z","temp":9.4,"dewp":7.2,"wdir":0,"wspd":0,"visib":"10+","altim":1016,"slp":1016,"qcField":14,"presTend":-0.3,"maxT":15.6,"minT":8.9,"metarType":"METAR","rawOb":"METAR KSBA 151153Z AUTO 00000KT 10SM CLR 09/07 A3000 RMK AO2 SLP160 T00940072 10156 20089 55003 $","lat":34.4241,"lon":-119.8425,"elev":2,"name":"Santa Barbara Muni, CA, US","cover":"CLR","clouds":[],"fltCat":"VFR"},{"icaoId":"KSJC","receiptTime":"2026-04-15T11:56:29.874Z","obsTime":1776253980,"reportTime":"2026-04-15T12:00:00.000Z","temp":9.4,"dewp":6.7,"wdir":170,"wspd":3,"visib":"10+","altim":1019.4,"slp":1019.1,"qcField":14,"presTend":-1,"maxT":11.1,"minT":8.3,"metarType":"METAR","rawOb":"METAR KSJC 151153Z AUTO 17003KT 10SM OVC024 09/07 A3010 RMK AO2 SLP191 T00940067 10111 20083 57010 $","lat":37.3594,"lon":-121.9244,"elev":13,"name":"San Jose Intl Arpt, CA, US","cover":"OVC","clouds":[{"cover":"OVC","base":2400}],"fltCat":"MVFR"},{"icaoId":"KRDD","receiptTime":"2026-04-15T11:56:31.082Z","obsTime":1776253980,"reportTime":"2026-04-15T12:00:00.000Z","temp":12.8,"dewp":7.8,"wdir":210,"wspd":3,"visib":"10+","altim":1016.3,"slp":1015.9,"qcField":6,"presTend":-0.6,"maxT":15.6,"minT":12.2,"metarType":"METAR","rawOb":"METAR KRDD 151153Z AUTO 21003KT 10SM SCT055 13/08 A3001 RMK AO2 SLP159 T01280078 10156 20122 56006","lat":40.5146,"lon":-122.2977,"elev":152,"name":"Redding Muni, CA, US","cover":"SCT","clouds":[{"cover":"SCT","base":5500}],"fltCat":"VFR"},{"icaoId":"KRTN","receiptTime":"2026-04-15T11:56:30.197Z","obsTime":1776253980,"reportTime":"2026-04-15T12:00:00.000Z","temp":-2.2,"dewp":-8.3,"wdir":60,"wspd":7,"visib":"10+","altim":1014.3,"slp":1010.7,"qcField":14,"presTend":0.3,"maxT":7.2,"minT":-3.3,"metarType":"METAR","rawOb":"METAR KRTN 151153Z AUTO 06007KT 10SM M02/M08 A2995 RMK AO2 SLP107 T10221083 10072 21033 53003 $","lat":36.7418,"lon":-104.5076,"elev":1939,"name":"Raton/Crews Fld, NM, US"},{"icaoId":"KLGB","receiptTime":"2026-04-15T11:56:28.663Z","obsTime":1776253980,"reportTime":"2026-04-15T12:00:00.000Z","temp":13.3,"dewp":11.7,"wdir":0,"wspd":0,"visib":"10+","altim":1016,"slp":1015.9,"qcField":14,"presTend":-0.8,"maxT":16.1,"minT":13.3,"metarType":"METAR","rawOb":"METAR KLGB 151153Z AUTO 00000KT 10SM CLR 13/12 A3000 RMK AO2 SLP159 T01330117 10161 20133 56008 $","lat":33.8118,"lon":-118.1472,"elev":10,"name":"Long Beach Arpt, CA, US","cover":"CLR","clouds":[],"fltCat":"VFR"},{"icaoId":"KPAE","receiptTime":"2026-04-15T11:56:20.548Z","obsTime":1776253980,"reportTime":"2026-04-15T12:00:00.000Z","temp":4.4,"dewp":1.1,"wdir":330,"wspd":5,"visib":"10+","altim":1008.9,"slp":1009,"qcField":6,"wxString":"-RA","presTend":0.1,"maxT":5.6,"minT":4.4,"precip":0.005,"pcp6hr":0.03,"pcp24hr":0.67,"metarType":"METAR","rawOb":"METAR KPAE 151153Z AUTO 33005KT 10SM -RA FEW023 OVC060 04/01 A2979 RMK AO2 RAB33 SLP090 P0000 60003 70067 T00440011 10056 20044 53001","lat":47.9232,"lon":-122.2831,"elev":166,"name":"Everett/Paine Fld, WA, US","cover":"OVC","clouds":[{"cover":"FEW","base":2300},{"cover":"OVC","base":6000}],"fltCat":"VFR"},{"icaoId":"KCYS","receiptTime":"2026-04-15T11:56:28.924Z","obsTime":1776253980,"reportTime":"2026-04-15T12:00:00.000Z","temp":4.4,"dewp":-6.1,"wdir":290,"wspd":19,"wgst":31,"visib":"10+","altim":1010.9,"slp":1009.3,"qcField":12,"presTend":0.2,"maxT":5,"minT":3.9,"pcp24hr":0.01,"metarType":"METAR","rawOb":"METAR KCYS 151153Z 29019G31KT 10SM CLR 04/M06 A2985 RMK AO2 PK WND 29031/1152 SLP093 70001 T00441061 10050 20039 52002 $","lat":41.1579,"lon":-104.8081,"elev":1868,"name":"Cheyenne Rgnl, WY, US","cover":"CLR","clouds":[],"fltCat":"VFR"},{"icaoId":"KDMN","receiptTime":"2026-04-15T11:56:31.498Z","obsTime":1776253980,"reportTime":"2026-04-15T12:00:00.000Z","temp":6.1,"dewp":-7.2,"wdir":230,"wspd":5,"visib":"10+","altim":1017.7,"slp":1012.7,"qcField":6,"presTend":0.4,"maxT":11.7,"minT":6.1,"metarType":"METAR","rawOb":"METAR KDMN 151153Z AUTO 23005KT 10SM CLR 06/M07 A3005 RMK AO2 SLP127 T00611072 10117 20061 53004","lat":32.2592,"lon":-107.7206,"elev":1310,"name":"Deming Muni, NM, US","cover":"CLR","clouds":[],"fltCat":"VFR"},{"icaoId":"KHLN","receiptTime":"2026-04-15T11:56:28.615Z","obsTime":1776253980,"reportTime":"2026-04-15T12:00:00.000Z","temp":6.7,"dewp":-0.6,"wdir":270,"wspd":10,"visib":"10+","altim":1006.5,"slp":1007.3,"qcField":4,"presTend":-0.3,"maxT":8.9,"minT":6.7,"metarType":"METAR","rawOb":"METAR KHLN 151153Z 27010KT 10SM OVC065 07/M01 A2972 RMK AO2 SLP073 T00671006 10089 20067 56003","lat":46.6045,"lon":-111.9892,"elev":1178,"name":"Helena Rgnl, MT, US","cover":"OVC","clouds":[{"cover":"OVC","base":6500}],"fltCat":"VFR"},{"icaoId":"KDFW","receiptTime":"2026-04-15T11:56:29.026Z","obsTime":1776253980,"reportTime":"2026-04-15T12:00:00.000Z","temp":21.1,"dewp":18.9,"wdir":180,"wspd":13,"visib":7,"altim":1012.3,"slp":1011.3,"qcField":4,"wxString":"-RA","presTend":-0.2,"maxT":23.3,"minT":21.1,"precip":0.005,"pcp6hr":0.005,"metarType":"METAR","rawOb":"METAR KDFW 151153Z 18013KT 7SM -RA BKN019 OVC026 21/19 A2989 RMK AO2 RAB32 SLP113 P0000 60000 T02110189 10233 20211 55002","lat":32.8974,"lon":-97.022,"elev":168,"name":"Dallas-Ft Worth Intl, TX, US","cover":"OVC","clouds":[{"cover":"BKN","base":1900},{"cover":"OVC","base":2600}],"fltCat":"MVFR"},{"icaoId":"KBTM","receiptTime":"2026-04-15T11:56:30.659Z","obsTime":1776253980,"reportTime":"2026-04-15T12:00:00.000Z","temp":5.6,"dewp":-3.9,"wdir":"VRB","wspd":3,"visib":"10+","altim":1007.5,"slp":1005.2,"qcField":6,"presTend":-1,"maxT":7.2,"minT":5,"metarType":"METAR","rawOb":"METAR KBTM 151153Z AUTO VRB03KT 10SM OVC050 06/M04 A2975 RMK AO2 SLP052 T00561039 10072 20050 58010","lat":45.9644,"lon":-112.5015,"elev":1680,"name":"Butte/Mooney Arpt, MT, US","cover":"OVC","clouds":[{"cover":"OVC","base":5000}],"fltCat":"VFR"},{"icaoId":"KCRQ","receiptTime":"2026-04-15T11:56:31.418Z","obsTime":1776253980,"reportTime":"2026-04-15T12:00:00.000Z","temp":12.8,"dewp":10,"wdir":80,"wspd":3,"visib":"10+","altim":1016,"slp":1015.6,"qcField":6,"presTend":-0.8,"maxT":16.1,"minT":12.8,"metarType":"METAR","rawOb":"METAR KCRQ 151153Z AUTO 08003KT 10SM CLR 13/10 A3000 RMK AO2 SLP156 T01280100 10161 20128 56008","lat":33.1299,"lon":-117.2765,"elev":96,"name":"Carlsbad/Palomar Arpt, CA, US","cover":"CLR","clouds":[],"fltCat":"VFR"},{"icaoId":"KEVW","receiptTime":"2026-04-15T11:56:22.064Z","obsTime":1776253980,"reportTime":"2026-04-15T12:00:00.000Z","temp":-2.2,"dewp":-6.7,"wdir":240,"wspd":10,"visib":"10+","altim":1015.3,"slp":1013.7,"qcField":14,"presTend":-0.6,"maxT":0,"minT":-2.2,"metarType":"METAR","rawOb":"METAR KEVW 151153Z AUTO 24010KT 10SM CLR M02/M07 A2998 RMK AO2 SLP137 T10221067 10000 21022 58006 $","lat":41.2727,"lon":-111.0305,"elev":2178,"name":"Evanston/Uinta Cnty, WY, US","cover":"CLR","clouds":[],"fltCat":"VFR"},{"icaoId":"KBOI","receiptTime":"2026-04-15T11:56:30.541Z","obsTime":1776253980,"reportTime":"2026-04-15T12:00:00.000Z","temp":9.4,"dewp":2.8,"wdir":340,"wspd":7,"visib":"10+","altim":1012.3,"slp":1011.1,"qcField":4,"presTend":-0.9,"maxT":11.1,"minT":9.4,"metarType":"METAR","rawOb":"METAR KBOI 151153Z 34007KT 10SM OVC055 09/03 A2989 RMK AO2 SLP111 T00940028 10111 20094 56009","lat":43.567,"lon":-116.2406,"elev":860,"name":"Boise Arpt, ID, US","cover":"OVC","clouds":[{"cover":"OVC","base":5500}],"fltCat":"VFR"},{"icaoId":"KCNY","receiptTime":"2026-04-15T11:56:31.399Z","obsTime":1776253980,"reportTime":"2026-04-15T12:00:00.000Z","temp":2.8,"dewp":1.7,"wdir":0,"wspd":0,"visib":"10+","altim":1016.7,"slp":1015.7,"qcField":14,"presTend":0.2,"maxT":7.8,"minT":2.8,"pcp24hr":0.3,"metarType":"METAR","rawOb":"METAR KCNY 151153Z AUTO 00000KT 10SM CLR 03/02 A3002 RMK AO2 SLP157 70030 T00280017 10078 20028 53002 $","lat":38.7501,"lon":-109.7627,"elev":1392,"name":"Moab/Canyonland Fld, UT, US","cover":"CLR","clouds":[],"fltCat":"VFR"},{"icaoId":"KLBB","receiptTime":"2026-04-15T11:56:28.162Z","obsTime":1776253980,"reportTime":"2026-04-15T12:00:00.000Z","temp":15.6,"dewp":13.9,"wdir":280,"wspd":11,"visib":"10+","altim":1012.6,"slp":1008.1,"qcField":4,"presTend":0.4,"maxT":20.6,"minT":15.6,"metarType":"METAR","rawOb":"METAR KLBB 151153Z 28011KT 10SM FEW120 SCT150 16/14 A2990 RMK AO2 SLP081 T01560139 10206 20156 53004","lat":33.6658,"lon":-101.8233,"elev":996,"name":"Lubbock Intl Arpt, TX, US","cover":"SCT","clouds":[{"cover":"FEW","base":12000},{"cover":"SCT","base":15000}],"fltCat":"VFR"},{"icaoId":"KMYR","receiptTime":"2026-04-15T11:56:09.399Z","obsTime":1776253980,"reportTime":"2026-04-15T12:00:00.000Z","temp":19.4,"dewp":16.7,"wdir":230,"wspd":5,"visib":"10+","altim":1022.1,"slp":1022,"qcField":12,"presTend":1.7,"maxT":19.4,"minT":18.3,"metarType":"METAR","rawOb":"METAR KMYR 151153Z 23005KT 10SM CLR 19/17 A3018 RMK AO2 SLP220 T01940167 10194 20183 53017 $","lat":33.6769,"lon":-78.9325,"elev":7,"name":"Myrtle Beach Intl, SC, US","cover":"CLR","clouds":[],"fltCat":"VFR"},{"icaoId":"KMSP","receiptTime":"2026-04-15T11:56:21.114Z","obsTime":1776253980,"reportTime":"2026-04-15T12:00:00.000Z","temp":7.2,"dewp":6.1,"wdir":10,"wspd":5,"visib":"10+","altim":1007.9,"slp":1007.9,"qcField":4,"presTend":0.7,"maxT":12.2,"minT":7.2,"metarType":"METAR","rawOb":"METAR KMSP 151153Z 01005KT 10SM FEW150 FEW250 07/06 A2976 RMK AO2 SLP079 T00720061 10122 20072 51007","lat":44.8852,"lon":-93.2313,"elev":255,"name":"Minneapolis-St Paul Intl, MN, US","cover":"FEW","clouds":[{"cover":"FEW","base":15000},{"cover":"FEW","base":25000}],"fltCat":"VFR"},{"icaoId":"KLAR","receiptTime":"2026-04-15T11:56:22.337Z","obsTime":1776253980,"reportTime":"2026-04-15T12:00:00.000Z","temp":0,"dewp":-5.6,"wdir":240,"wspd":11,"visib":"10+","altim":1013,"slp":1010.5,"qcField":6,"presTend":-0.4,"maxT":1.1,"minT":-1.1,"pcp24hr":0.17,"metarType":"METAR","rawOb":"METAR KLAR 151153Z AUTO 24011KT 10SM CLR 00/M06 A2991 RMK AO2 SLP105 70017 T00001056 10011 21011 58004","lat":41.3165,"lon":-105.6729,"elev":2217,"name":"Laramie Rgnl, WY, US","cover":"CLR","clouds":[],"fltCat":"VFR"},{"icaoId":"KMYF","receiptTime":"2026-04-15T11:56:21.261Z","obsTime":1776253980,"reportTime":"2026-04-15T12:00:00.000Z","temp":11.1,"dewp":9.4,"wdir":0,"wspd":0,"visib":"10+","altim":1016.3,"slp":1016,"qcField":6,"presTend":-0.8,"maxT":16.1,"minT":11.1,"metarType":"METAR","rawOb":"METAR KMYF 151153Z AUTO 00000KT 10SM CLR 11/09 A3001 RMK AO2 SLP160 T01110094 10161 20111 55008","lat":32.8145,"lon":-117.1375,"elev":128,"name":"San Diego/Montgomery Arpt, CA, US","cover":"CLR","clouds":[],"fltCat":"VFR"},{"icaoId":"KONT","receiptTime":"2026-04-15T11:56:21.451Z","obsTime":1776253980,"reportTime":"2026-04-15T12:00:00.000Z","temp":12.8,"dewp":8.3,"wdir":0,"wspd":0,"visib":"10+","altim":1016.3,"slp":1015.5,"qcField":12,"presTend":-0.8,"maxT":15,"minT":12.2,"metarType":"METAR","rawOb":"METAR KONT 151153Z 00000KT 10SM CLR 13/08 A3001 RMK AO2 SLP155 T01280083 10150 20122 56008 $","lat":34.0531,"lon":-117.5769,"elev":279,"name":"Ontario Intl, CA, US","cover":"CLR","clouds":[],"fltCat":"VFR"},{"icaoId":"KGJT","receiptTime":"2026-04-15T11:56:23.178Z","obsTime":1776253980,"reportTime":"2026-04-15T12:00:00.000Z","temp":4.4,"dewp":2.8,"wdir":100,"wspd":10,"visib":"10+","altim":1017.4,"slp":1015.4,"qcField":4,"maxT":6.7,"minT":4.4,"pcp6hr":0.005,"pcp24hr":0.39,"metarType":"METAR","rawOb":"METAR KGJT 151153Z 10010KT 10SM FEW042 04/03 A3004 RMK AO2 SLP154 60000 70039 T00440028 10067 20044 50000","lat":39.1344,"lon":-108.5408,"elev":1475,"name":"Grand Junction Rgnl, CO, US","cover":"FEW","clouds":[{"cover":"FEW","base":4200}],"fltCat":"VFR"},{"icaoId":"KASE","receiptTime":"2026-04-15T11:56:24.872Z","obsTime":1776253980,"reportTime":"2026-04-15T12:00:00.000Z","temp":0.6,"dewp":-1.1,"wdir":0,"wspd":0,"visib":"10+","altim":1017.7,"slp":1013.3,"qcField":6,"presTend":-0.1,"maxT":0.6,"minT":-0.6,"pcp6hr":0.005,"pcp24hr":0.02,"metarType":"METAR","rawOb":"METAR KASE 151153Z AUTO 00000KT 10SM BKN048 OVC065 01/M01 A3005 RMK AO2 SLP133 60000 70002 T00061011 10006 21006 57001","lat":39.2299,"lon":-106.8705,"elev":2384,"name":"Aspen/Pitkin Cnty, CO, US","cover":"OVC","clouds":[{"cover":"BKN","base":4800},{"cover":"OVC","base":6500}],"fltCat":"VFR"},{"icaoId":"KBHM","receiptTime":"2026-04-15T11:56:25.197Z","obsTime":1776253980,"reportTime":"2026-04-15T12:00:00.000Z","temp":18.3,"dewp":13.9,"wdir":230,"wspd":4,"visib":"10+","altim":1021.8,"slp":1020.9,"qcField":4,"presTend":1.3,"maxT":20.6,"minT":16.7,"metarType":"METAR","rawOb":"METAR KBHM 151153Z 23004KT 10SM FEW180 BKN250 18/14 A3017 RMK AO2 SLP209 T01830139 10206 20167 52013","lat":33.5655,"lon":-86.7449,"elev":191,"name":"Birmingham Intl, AL, US","cover":"BKN","clouds":[{"cover":"FEW","base":18000},{"cover":"BKN","base":25000}],"fltCat":"VFR"},{"icaoId":"KRIW","receiptTime":"2026-04-15T11:56:27.679Z","obsTime":1776253980,"reportTime":"2026-04-15T12:00:00.000Z","temp":3.3,"dewp":-8.3,"wdir":240,"wspd":8,"visib":"10+","altim":1010.2,"slp":1007.5,"qcField":6,"presTend":0.2,"maxT":6.7,"minT":1.7,"metarType":"METAR","rawOb":"METAR KRIW 151153Z AUTO 24008KT 10SM CLR 03/M08 A2983 RMK AO2 SLP075 T00331083 10067 20017 53002","lat":43.0622,"lon":-108.4471,"elev":1662,"name":"Riverton Rgnl, WY, US","cover":"CLR","clouds":[],"fltCat":"VFR"},{"icaoId":"KSEA","receiptTime":"2026-04-15T11:56:29.828Z","obsTime":1776253980,"reportTime":"2026-04-15T12:00:00.000Z","temp":4.4,"dewp":2.2,"wdir":120,"wspd":7,"visib":"10+","altim":1008.9,"slp":1009.6,"qcField":4,"presTend":0.3,"maxT":7.2,"minT":4.4,"precip":0.005,"pcp6hr":0.21,"pcp24hr":1.09,"metarType":"METAR","rawOb":"METAR KSEA 151153Z 12007KT 10SM OVC049 04/02 A2979 RMK AO2 RAE19 SLP096 P0000 60021 70109 T00440022 10072 20044 53003","lat":47.4447,"lon":-122.3144,"elev":115,"name":"Seattle-Tacoma Intl, WA, US","cover":"OVC","clouds":[{"cover":"OVC","base":4900}],"fltCat":"VFR"},{"icaoId":"KPDX","receiptTime":"2026-04-15T11:56:28.540Z","obsTime":1776253980,"reportTime":"2026-04-15T12:00:00.000Z","temp":7.2,"dewp":5.6,"wdir":330,"wspd":11,"wgst":22,"visib":4,"altim":1009.6,"slp":1009.4,"qcField":12,"wxString":"RA BR","presTend":-0.3,"maxT":9.4,"minT":7.2,"precip":0.21,"pcp6hr":0.4,"pcp24hr":0.53,"metarType":"METAR","rawOb":"METAR KPDX 151153Z 33011G22KT 4SM RA BR FEW008 BKN012 OVC026 07/06 A2981 RMK AO2 WSHFT 1057 SLP094 P0021 60040 70053 T00720056 10094 20072 55003 $","lat":45.5958,"lon":-122.6092,"elev":7,"name":"Portland Intl, OR, US","cover":"OVC","clouds":[{"cover":"FEW","base":800},{"cover":"BKN","base":1200},{"cover":"OVC","base":2600}],"fltCat":"MVFR"},{"icaoId":"KGTF","receiptTime":"2026-04-15T11:56:28.583Z","obsTime":1776253980,"reportTime":"2026-04-15T12:00:00.000Z","temp":6.1,"dewp":-2.2,"wdir":210,"wspd":18,"wgst":27,"visib":"10+","altim":1004.5,"slp":1004.7,"qcField":4,"presTend":-0.6,"maxT":8.3,"minT":6.1,"metarType":"METAR","rawOb":"METAR KGTF 151153Z 21018G27KT 10SM CLR 06/M02 A2966 RMK AO2 PK WND 21027/1152 SLP047 T00611022 10083 20061 56006","lat":47.4733,"lon":-111.3828,"elev":1117,"name":"Great Falls Intl, MT, US","cover":"CLR","clouds":[],"fltCat":"VFR"},{"icaoId":"KHIO","receiptTime":"2026-04-15T11:56:28.598Z","obsTime":1776253980,"reportTime":"2026-04-15T12:00:00.000Z","temp":6.1,"dewp":5,"wdir":340,"wspd":6,"visib":7,"altim":1009.6,"slp":1009.6,"qcField":6,"wxString":"-RA","presTend":0.6,"maxT":8.9,"minT":6.1,"precip":0.16,"pcp6hr":0.55,"pcp24hr":0.79,"metarType":"METAR","rawOb":"METAR KHIO 151153Z AUTO 34006KT 7SM -RA OVC039 06/05 A2981 RMK AO2 SLP096 P0016 60055 70079 T00610050 10089 20061 53006","lat":45.5476,"lon":-122.9557,"elev":62,"name":"Portland/Hillsboro Arpt, OR, US","cover":"OVC","clouds":[{"cover":"OVC","base":3900}],"fltCat":"VFR"},{"icaoId":"KIDA","receiptTime":"2026-04-15T11:56:28.760Z","obsTime":1776253980,"reportTime":"2026-04-15T12:00:00.000Z","temp":6.7,"dewp":-1.1,"wdir":240,"wspd":6,"visib":"10+","altim":1011.6,"slp":1010.2,"qcField":6,"presTend":-0.6,"maxT":7.8,"minT":5.6,"metarType":"METAR","rawOb":"METAR KIDA 151153Z AUTO 24006KT 10SM OVC095 07/M01 A2987 RMK AO2 SLP102 T00671011 10078 20056 58006","lat":43.5204,"lon":-112.0675,"elev":1444,"name":"Idaho Falls Rgnl, ID, US","cover":"OVC","clouds":[{"cover":"OVC","base":9500}],"fltCat":"VFR"},{"icaoId":"KCPR","receiptTime":"2026-04-15T11:56:28.788Z","obsTime":1776253980,"reportTime":"2026-04-15T12:00:00.000Z","temp":2.2,"dewp":-6.1,"wdir":210,"wspd":12,"visib":"10+","altim":1009.9,"slp":1007.3,"qcField":4,"presTend":-0.1,"maxT":6.7,"minT":1.7,"metarType":"METAR","rawOb":"METAR KCPR 151153Z 21012KT 10SM CLR 02/M06 A2982 RMK AO2 SLP073 T00221061 10067 20017 55001","lat":42.8978,"lon":-106.4736,"elev":1623,"name":"Casper/Natrona Cnty, WY, US","cover":"CLR","clouds":[],"fltCat":"VFR"},{"icaoId":"KDEN","receiptTime":"2026-04-15T11:56:28.968Z","obsTime":1776253980,"reportTime":"2026-04-15T12:00:00.000Z","temp":5,"dewp":-5,"wdir":230,"wspd":5,"visib":"10+","altim":1011.6,"slp":1009.2,"qcField":4,"presTend":0.1,"maxT":8.9,"minT":2.8,"metarType":"METAR","rawOb":"METAR KDEN 151153Z 23005KT 10SM CLR 05/M05 A2987 RMK AO2 SLP092 T00501050 10089 20028 53001","lat":39.8466,"lon":-104.6562,"elev":1656,"name":"Denver Intl, CO, US","cover":"CLR","clouds":[],"fltCat":"VFR"},{"icaoId":"KDRO","receiptTime":"2026-04-15T11:56:29.157Z","obsTime":1776253980,"reportTime":"2026-04-15T12:00:00.000Z","temp":-2.2,"dewp":-3.9,"wdir":0,"wspd":0,"visib":"10+","altim":1018.4,"slp":1018.1,"qcField":6,"presTend":0.4,"maxT":2.8,"minT":-2.8,"pcp24hr":0.03,"metarType":"METAR","rawOb":"METAR KDRO 151153Z AUTO 00000KT 10SM CLR M02/M04 A3007 RMK AO2 SLP181 70003 T10221039 10028 21028 53004","lat":37.1431,"lon":-107.7602,"elev":2021,"name":"Durango/La Plata Cnty, CO, US","cover":"CLR","clouds":[],"fltCat":"VFR"},{"icaoId":"KSNA","receiptTime":"2026-04-15T11:56:29.903Z","obsTime":1776253980,"reportTime":"2026-04-15T12:00:00.000Z","temp":13.3,"dewp":10.6,"wdir":60,"wspd":4,"visib":"10+","altim":1016,"slp":1016,"qcField":14,"presTend":-0.8,"maxT":17.2,"minT":13.3,"metarType":"METAR","rawOb":"METAR KSNA 151153Z AUTO 06004KT 10SM CLR 13/11 A3000 RMK AO2 SLP160 T01330106 10172 20133 56008 $","lat":33.6798,"lon":-117.8675,"elev":14,"name":"Santa Ana/Wayne Arpt, CA, US","cover":"CLR","clouds":[],"fltCat":"VFR"},{"icaoId":"KVGT","receiptTime":"2026-04-15T11:56:29.970Z","obsTime":1776253980,"reportTime":"2026-04-15T12:00:00.000Z","temp":13.3,"dewp":-2.8,"wdir":0,"wspd":0,"visib":"10+","altim":1015,"slp":1015.6,"qcField":6,"presTend":0.4,"maxT":18.3,"minT":12.8,"metarType":"METAR","rawOb":"METAR KVGT 151153Z AUTO 00000KT 10SM CLR 13/M03 A2997 RMK AO2 SLP156 T01331028 10183 20128 53004","lat":36.212,"lon":-115.194,"elev":664,"name":"Las Vegas/North Arpt, NV, US","cover":"CLR","clouds":[],"fltCat":"VFR"},{"icaoId":"KBRO","receiptTime":"2026-04-15T11:56:30.630Z","obsTime":1776253980,"reportTime":"2026-04-15T12:00:00.000Z","temp":24.4,"dewp":21.7,"wdir":140,"wspd":10,"visib":"10+","altim":1012.3,"slp":1012,"qcField":4,"presTend":0.4,"maxT":25,"minT":23.9,"metarType":"METAR","rawOb":"METAR KBRO 151153Z 14010KT 10SM BKN033 24/22 A2989 RMK AO2 SLP120 T02440217 10250 20239 53004","lat":25.9146,"lon":-97.4231,"elev":6,"name":"Brownsville Intl, TX, US","cover":"BKN","clouds":[{"cover":"BKN","base":3300}],"fltCat":"VFR"},{"icaoId":"KPUW","receiptTime":"2026-04-15T11:56:31.050Z","obsTime":1776253980,"reportTime":"2026-04-15T12:00:00.000Z","temp":5.6,"dewp":2.8,"wdir":210,"wspd":10,"wgst":18,"visib":5,"altim":1007.5,"slp":1008.2,"qcField":6,"wxString":"-RA","presTend":-2,"maxT":6.7,"minT":5,"precip":0.06,"pcp6hr":0.07,"pcp24hr":0.07,"metarType":"METAR","rawOb":"METAR KPUW 151153Z AUTO 21010G18KT 5SM -RA OVC028 06/03 A2975 RMK AO2 SLP082 P0006 60007 70007 T00560028 10067 20050 56020","lat":46.7438,"lon":-117.1158,"elev":774,"name":"Pullman/Moscow Rgnl, WA, US","cover":"OVC","clouds":[{"cover":"OVC","base":2800}],"fltCat":"MVFR"},{"icaoId":"KBIL","receiptTime":"2026-04-15T11:56:31.313Z","obsTime":1776253980,"reportTime":"2026-04-15T12:00:00.000Z","temp":10,"dewp":-5,"wdir":250,"wspd":11,"visib":"10+","altim":1006.2,"slp":1004.7,"qcField":4,"presTend":0.4,"maxT":10.6,"minT":8.3,"metarType":"METAR","rawOb":"METAR KBIL 151153Z 25011KT 10SM SCT090 BKN120 BKN180 10/M05 A2971 RMK AO2 SLP047 T01001050 10106 20083 51004","lat":45.8072,"lon":-108.5462,"elev":1089,"name":"Billings/Logan Intl, MT, US","cover":"BKN","clouds":[{"cover":"SCT","base":9000},{"cover":"BKN","base":12000},{"cover":"BKN","base":18000}],"fltCat":"VFR"},{"icaoId":"KELY","receiptTime":"2026-04-15T11:56:31.527Z","obsTime":1776253980,"reportTime":"2026-04-15T12:00:00.000Z","temp":-0.6,"dewp":-4.4,"wdir":200,"wspd":5,"visib":"10+","altim":1017.4,"slp":1014.1,"qcField":14,"presTend":-0.6,"maxT":1.1,"minT":-1.7,"metarType":"METAR","rawOb":"METAR KELY 151153Z AUTO 20005KT 10SM CLR M01/M04 A3004 RMK AO2 SLP141 T10061044 10011 21017 56006 $","lat":39.2954,"lon":-114.8466,"elev":1906,"name":"Ely/Yelland Fld, NV, US","cover":"CLR","clouds":[],"fltCat":"VFR"},{"icaoId":"KPUB","receiptTime":"2026-04-15T11:56:18.257Z","obsTime":1776253980,"reportTime":"2026-04-15T12:00:00.000Z","temp":0,"dewp":-5.6,"wdir":0,"wspd":0,"visib":"10+","altim":1012.3,"slp":1010.1,"qcField":12,"presTend":0.2,"maxT":10,"minT":0,"metarType":"METAR","rawOb":"METAR KPUB 151153Z 00000KT 10SM CLR 00/M06 A2989 RMK AO2 SLP101 T00001056 10100 20000 50002 $","lat":38.2887,"lon":-104.5057,"elev":1441,"name":"Pueblo Mem Arpt, CO, US","cover":"CLR","clouds":[],"fltCat":"VFR"},{"icaoId":"KMTJ","receiptTime":"2026-04-15T11:56:21.186Z","obsTime":1776253980,"reportTime":"2026-04-15T12:00:00.000Z","temp":2.2,"dewp":0,"wdir":0,"wspd":0,"visib":"10+","altim":1018.4,"slp":1016,"qcField":6,"presTend":-0.1,"maxT":4.4,"minT":2.2,"pcp6hr":0.005,"pcp24hr":0.04,"metarType":"METAR","rawOb":"METAR KMTJ 151153Z AUTO 00000KT 10SM FEW070 SCT085 02/00 A3007 RMK AO2 SLP160 60000 70004 T00220000 10044 20022 58001","lat":38.5054,"lon":-107.8981,"elev":1755,"name":"Montrose Rgnl, CO, US","cover":"SCT","clouds":[{"cover":"FEW","base":7000},{"cover":"SCT","base":8500}],"fltCat":"VFR"},{"icaoId":"KIAH","receiptTime":"2026-04-15T11:56:19.487Z","obsTime":1776253980,"reportTime":"2026-04-15T12:00:00.000Z","temp":20,"dewp":20,"wdir":180,"wspd":4,"visib":7,"altim":1016,"slp":1015.9,"qcField":4,"presTend":1.1,"maxT":21.7,"minT":19.4,"metarType":"METAR","rawOb":"METAR KIAH 151153Z 18004KT 7SM SCT016 BKN023 BKN045 BKN250 20/20 A3000 RMK AO2 SLP159 T02000200 10217 20194 53011","lat":29.9844,"lon":-95.3607,"elev":27,"name":"Houston/Bush Intl, TX, US","cover":"BKN","clouds":[{"cover":"SCT","base":1600},{"cover":"BKN","base":2300},{"cover":"BKN","base":4500},{"cover":"BKN","base":25000}],"fltCat":"MVFR"},{"icaoId":"KYKM","receiptTime":"2026-04-15T11:56:17.708Z","obsTime":1776253980,"reportTime":"2026-04-15T12:00:00.000Z","temp":7.8,"dewp":2.2,"wdir":360,"wspd":8,"visib":"10+","altim":1004.5,"slp":1004.7,"qcField":6,"presTend":-1.1,"maxT":8.9,"minT":7.8,"metarType":"METAR","rawOb":"METAR KYKM 151153Z AUTO 36008KT 10SM OVC060 08/02 A2966 RMK AO2 SLP047 T00780022 10089 20078 55011","lat":46.564,"lon":-120.5349,"elev":319,"name":"Yakima/McAllister Fld, WA, US","cover":"OVC","clouds":[{"cover":"OVC","base":6000}],"fltCat":"VFR"},{"icaoId":"KTUL","receiptTime":"2026-04-15T11:56:18.447Z","obsTime":1776253980,"reportTime":"2026-04-15T12:00:00.000Z","temp":19.4,"dewp":17.8,"wdir":160,"wspd":9,"visib":"10+","altim":1009.9,"slp":1009.1,"qcField":4,"presTend":-1.7,"maxT":20,"minT":17.2,"pcp6hr":0.26,"pcp24hr":1.34,"metarType":"METAR","rawOb":"METAR KTUL 151153Z 16009KT 10SM SCT008 OVC020 19/18 A2982 RMK AO2 SLP091 60026 70134 T01940178 10200 20172 55017","lat":36.1985,"lon":-95.8782,"elev":196,"name":"Tulsa Intl Arpt, OK, US","cover":"OVC","clouds":[{"cover":"SCT","base":800},{"cover":"OVC","base":2000}],"fltCat":"MVFR"},{"icaoId":"KLVS","receiptTime":"2026-04-15T11:56:18.977Z","obsTime":1776253980,"reportTime":"2026-04-15T12:00:00.000Z","temp":-0.6,"dewp":-7.2,"wdir":100,"wspd":6,"visib":"10+","altim":1015.3,"slp":1009.9,"qcField":14,"presTend":-0.4,"maxT":7.2,"minT":-1.1,"metarType":"METAR","rawOb":"METAR KLVS 151153Z AUTO 10006KT 10SM CLR M01/M07 A2998 RMK AO2 SLP099 6//// 7//// T10061072 10072 21011 56004 PNO $","lat":35.6558,"lon":-105.1385,"elev":2095,"name":"Las Vegas Muni, NM, US","cover":"CLR","clouds":[],"fltCat":"VFR"},{"icaoId":"KFUL","receiptTime":"2026-04-15T11:56:20.330Z","obsTime":1776253980,"reportTime":"2026-04-15T12:00:00.000Z","temp":12.2,"dewp":8.9,"wdir":0,"wspd":0,"visib":"10+","altim":1016,"slp":1015.8,"qcField":6,"presTend":-0.7,"maxT":16.1,"minT":11.7,"metarType":"METAR","rawOb":"METAR KFUL 151153Z AUTO 00000KT 10SM CLR 12/09 A3000 RMK AO2 SLP158 T01220089 10161 20117 56007","lat":33.8715,"lon":-117.9856,"elev":23,"name":"Fullerton Muni, CA, US","cover":"CLR","clouds":[],"fltCat":"VFR"},{"icaoId":"KMOD","receiptTime":"2026-04-15T11:56:21.009Z","obsTime":1776253980,"reportTime":"2026-04-15T12:00:00.000Z","temp":8.9,"dewp":6.7,"wdir":340,"wspd":5,"visib":9,"altim":1018,"slp":1017.7,"qcField":6,"presTend":-0.9,"maxT":12.2,"minT":8.9,"metarType":"METAR","rawOb":"METAR KMOD 151153Z AUTO 34005KT 9SM CLR 09/07 A3006 RMK AO2 SLP177 T00890067 10122 20089 56009","lat":37.6254,"lon":-120.9549,"elev":25,"name":"Modesto/Sham Fld, CA, US","cover":"CLR","clouds":[],"fltCat":"VFR"},{"icaoId":"KCLT","receiptTime":"2026-04-15T11:56:16.503Z","obsTime":1776253920,"reportTime":"2026-04-15T12:00:00.000Z","temp":17.2,"dewp":11.1,"wdir":"VRB","wspd":3,"visib":9,"altim":1020.1,"slp":1020.6,"qcField":4,"presTend":1.7,"maxT":19.4,"minT":16.7,"metarType":"METAR","rawOb":"METAR KCLT 151152Z VRB03KT 9SM FEW180 BKN250 17/11 A3012 RMK AO2 SLP206 T01720111 10194 20167 53017","lat":35.2225,"lon":-80.9543,"elev":223,"name":"Charlotte/Douglas Intl, NC, US","cover":"BKN","clouds":[{"cover":"FEW","base":18000},{"cover":"BKN","base":25000}],"fltCat":"VFR"},{"icaoId":"KCVG","receiptTime":"2026-04-15T11:56:16.533Z","obsTime":1776253920,"reportTime":"2026-04-15T12:00:00.000Z","temp":19.4,"dewp":15,"wdir":200,"wspd":8,"wgst":18,"visib":9,"altim":1015,"slp":1014.2,"qcField":4,"presTend":1.2,"maxT":21.7,"minT":18.9,"metarType":"METAR","rawOb":"METAR KCVG 151152Z 20008G18KT 9SM BKN300 19/15 A2997 RMK AO2 SLP142 T01940150 10217 20189 51012","lat":39.0444,"lon":-84.6724,"elev":264,"name":"Cincinnati Intl, KY, US","cover":"BKN","clouds":[{"cover":"BKN","base":30000}],"fltCat":"VFR"},{"icaoId":"KABQ","receiptTime":"2026-04-15T11:56:11.857Z","obsTime":1776253920,"reportTime":"2026-04-15T12:00:00.000Z","temp":7.2,"dewp":-3.9,"wdir":340,"wspd":5,"visib":"10+","altim":1018,"slp":1013.7,"qcField":4,"presTend":0.5,"maxT":12.2,"minT":6.7,"metarType":"METAR","rawOb":"METAR KABQ 151152Z 34005KT 10SM CLR 07/M04 A3006 RMK AO2 SLP137 T00721039 10122 20067 53005","lat":35.0419,"lon":-106.6154,"elev":1620,"name":"Albuquerque Intl, NM, US","cover":"CLR","clouds":[],"fltCat":"VFR"},{"icaoId":"KIAD","receiptTime":"2026-04-15T11:56:09.156Z","obsTime":1776253920,"reportTime":"2026-04-15T12:00:00.000Z","temp":18.3,"dewp":15.6,"wdir":200,"wspd":4,"visib":"10+","altim":1016,"slp":1015.6,"qcField":4,"presTend":1.3,"maxT":18.9,"minT":14.4,"pcp24hr":0.01,"metarType":"METAR","rawOb":"METAR KIAD 151152Z 20004KT 10SM SCT150 BKN250 18/16 A3000 RMK AO2 SLP156 70001 T01830156 10189 20144 53013","lat":38.9348,"lon":-77.4473,"elev":90,"name":"Washington/Dulles Intl, VA, US","cover":"BKN","clouds":[{"cover":"SCT","base":15000},{"cover":"BKN","base":25000}],"fltCat":"VFR"},{"icaoId":"KDCA","receiptTime":"2026-04-15T11:56:16.547Z","obsTime":1776253920,"reportTime":"2026-04-15T12:00:00.000Z","temp":18.9,"dewp":16.7,"wdir":180,"wspd":8,"visib":"10+","altim":1015.7,"slp":1015.6,"qcField":4,"presTend":1.6,"maxT":21.7,"minT":17.8,"metarType":"METAR","rawOb":"METAR KDCA 151152Z 18008KT 10SM SCT110 BKN250 19/17 A2999 RMK AO2 SLP156 T01890167 10217 20178 53016","lat":38.8472,"lon":-77.0345,"elev":4,"name":"Washington/Reagan-National Arpt, VA, US","cover":"BKN","clouds":[{"cover":"SCT","base":11000},{"cover":"BKN","base":25000}],"fltCat":"VFR"},{"icaoId":"KATL","receiptTime":"2026-04-15T11:56:16.387Z","obsTime":1776253920,"reportTime":"2026-04-15T12:00:00.000Z","temp":16.7,"dewp":11.1,"wdir":240,"wspd":7,"visib":"10+","altim":1021.4,"slp":1020.7,"qcField":12,"presTend":1.7,"maxT":19.4,"minT":15.6,"metarType":"METAR","rawOb":"METAR KATL 151152Z 24007KT 10SM FEW250 17/11 A3016 RMK AO2 SLP207 T01670111 10194 20156 53017 $","lat":33.6297,"lon":-84.4422,"elev":309,"name":"Atlanta/Hartsfield-Jackson Intl, GA, US","cover":"FEW","clouds":[{"cover":"FEW","base":25000}],"fltCat":"VFR"},{"icaoId":"KMLF","receiptTime":"2026-04-15T11:56:12.005Z","obsTime":1776253920,"reportTime":"2026-04-15T12:00:00.000Z","temp":4.4,"dewp":-0.6,"wdir":220,"wspd":12,"visib":"10+","altim":1016.3,"slp":1013.9,"qcField":6,"presTend":-0.3,"maxT":6.7,"minT":3.9,"metarType":"METAR","rawOb":"METAR KMLF 151152Z AUTO 22012KT 10SM CLR 04/M01 A3001 RMK AO2 SLP139 T00441006 10067 20039 56003","lat":38.4225,"lon":-113.0109,"elev":1537,"name":"Milford Muni, UT, US","cover":"CLR","clouds":[],"fltCat":"VFR"},{"icaoId":"KMKE","receiptTime":"2026-04-15T11:56:09.329Z","obsTime":1776253920,"reportTime":"2026-04-15T12:00:00.000Z","temp":17.8,"dewp":16.1,"wdir":210,"wspd":13,"wgst":21,"visib":"10+","altim":1007.2,"slp":1006.9,"qcField":4,"wxString":"-RA","presTend":2.3,"maxT":17.8,"minT":11.7,"precip":0.005,"pcp6hr":0.03,"pcp24hr":0.68,"metarType":"METAR","rawOb":"METAR KMKE 151152Z 21013G21KT 10SM -RA OVC100 18/16 A2974 RMK AO2 RAB03 SLP069 P0000 60003 70068 T01780161 10178 20117 53023","lat":42.9549,"lon":-87.9045,"elev":203,"name":"Milwaukee/Mitchell Intl, WI, US","cover":"OVC","clouds":[{"cover":"OVC","base":10000}],"fltCat":"VFR"},{"icaoId":"KOKC","receiptTime":"2026-04-15T11:56:09.433Z","obsTime":1776253920,"reportTime":"2026-04-15T12:00:00.000Z","temp":20,"dewp":18.9,"wdir":170,"wspd":14,"visib":"10+","altim":1009.6,"slp":1008.2,"qcField":4,"presTend":-0.1,"maxT":20.6,"minT":17.8,"pcp6hr":0.01,"pcp24hr":0.39,"metarType":"METAR","rawOb":"METAR KOKC 151152Z 17014KT 10SM OVC016 20/19 A2981 RMK AO2 SLP082 60001 70039 T02000189 10206 20178 55001","lat":35.3843,"lon":-97.6003,"elev":391,"name":"Oklahoma City/Will Rogers Intl, OK, US","cover":"OVC","clouds":[{"cover":"OVC","base":1600}],"fltCat":"MVFR"},{"icaoId":"KABI","receiptTime":"2026-04-15T11:56:11.843Z","obsTime":1776253920,"reportTime":"2026-04-15T12:00:00.000Z","temp":20.6,"dewp":18.9,"wdir":190,"wspd":6,"visib":"10+","altim":1012.3,"slp":1009.8,"qcField":12,"presTend":0.5,"maxT":21.7,"minT":19.4,"metarType":"METAR","rawOb":"METAR KABI 151152Z 19006KT 10SM SCT049 21/19 A2989 RMK AO2 SLP098 T02060189 10217 20194 53005 $","lat":32.4106,"lon":-99.6821,"elev":543,"name":"Abilene Rgnl, TX, US","cover":"SCT","clouds":[{"cover":"SCT","base":4900}],"fltCat":"VFR"},{"icaoId":"KCLE","receiptTime":"2026-04-15T11:54:11.600Z","obsTime":1776253860,"reportTime":"2026-04-15T12:00:00.000Z","temp":17.8,"dewp":13.9,"wdir":200,"wspd":7,"visib":"10+","altim":1012.6,"slp":1013.5,"qcField":12,"presTend":0.2,"maxT":21.1,"minT":15.6,"precip":0.005,"pcp6hr":0.01,"pcp24hr":0.01,"metarType":"METAR","rawOb":"METAR KCLE 151151Z 20007KT 10SM BKN060 OVC250 18/14 A2990 RMK AO2 RAB08E36 SLP135 P0000 60001 70001 T01780139 10211 20156 50002 $","lat":41.4057,"lon":-81.8519,"elev":237,"name":"Cleveland/Hopkins Intl, OH, US","cover":"OVC","clouds":[{"cover":"BKN","base":6000},{"cover":"OVC","base":25000}],"fltCat":"VFR"},{"icaoId":"KLGA","receiptTime":"2026-04-15T11:56:09.228Z","obsTime":1776253860,"reportTime":"2026-04-15T12:00:00.000Z","temp":22.2,"dewp":14.4,"wdir":0,"wspd":0,"visib":"10+","altim":1013.6,"slp":1013.3,"qcField":12,"presTend":1.2,"maxT":23.3,"minT":20,"metarType":"METAR","rawOb":"METAR KLGA 151151Z 00000KT 10SM FEW130 SCT180 BKN250 22/14 A2993 RMK AO2 SLP133 T02220144 10233 20200 53012 $","lat":40.7794,"lon":-73.8803,"elev":9,"name":"New York/La Guardia Arpt, NY, US","cover":"BKN","clouds":[{"cover":"FEW","base":13000},{"cover":"SCT","base":18000},{"cover":"BKN","base":25000}],"fltCat":"VFR"},{"icaoId":"KPVD","receiptTime":"2026-04-15T11:54:11.194Z","obsTime":1776253860,"reportTime":"2026-04-15T12:00:00.000Z","temp":16.1,"dewp":13.9,"wdir":180,"wspd":3,"visib":"10+","altim":1013,"slp":1012.7,"qcField":4,"presTend":1.4,"maxT":16.1,"minT":10.6,"pcp24hr":0.02,"metarType":"METAR","rawOb":"METAR KPVD 151151Z 18003KT 10SM FEW070 FEW120 BKN250 16/14 A2991 RMK AO2 SLP127 70002 T01610139 10161 20106 53014","lat":41.7225,"lon":-71.4325,"elev":15,"name":"Providence/Green Mem, RI, US","cover":"BKN","clouds":[{"cover":"FEW","base":7000},{"cover":"FEW","base":12000},{"cover":"BKN","base":25000}],"fltCat":"VFR"},{"icaoId":"KSTL","receiptTime":"2026-04-15T11:54:11.461Z","obsTime":1776253860,"reportTime":"2026-04-15T12:00:00.000Z","temp":22.2,"dewp":16.1,"wdir":210,"wspd":6,"visib":"10+","altim":1009.9,"slp":1008.5,"qcField":12,"presTend":-0.4,"maxT":23.3,"minT":22.2,"metarType":"METAR","rawOb":"METAR KSTL 151151Z 21006KT 10SM FEW100 BKN150 BKN220 BKN250 22/16 A2982 RMK AO2 PRESRR SLP085 T02220161 10233 20222 55004 $","lat":38.7525,"lon":-90.3734,"elev":163,"name":"St Louis/Lambert Intl, MO, US","cover":"BKN","clouds":[{"cover":"FEW","base":10000},{"cover":"BKN","base":15000},{"cover":"BKN","base":22000},{"cover":"BKN","base":25000}],"fltCat":"VFR"},{"icaoId":"KROW","receiptTime":"2026-04-15T11:54:11.277Z","obsTime":1776253860,"reportTime":"2026-04-15T12:00:00.000Z","temp":12.2,"dewp":-6.1,"wdir":320,"wspd":7,"visib":"10+","altim":1014.6,"slp":1009.5,"qcField":4,"presTend":1.2,"maxT":18.9,"minT":11.7,"metarType":"METAR","rawOb":"METAR KROW 151151Z 32007KT 10SM CLR 12/M06 A2996 RMK AO2 SLP095 T01221061 10189 20117 51012","lat":33.3074,"lon":-104.5082,"elev":1105,"name":"Roswell/Ind Arpt, NM, US","cover":"CLR","clouds":[],"fltCat":"VFR"},{"icaoId":"KORF","receiptTime":"2026-04-15T11:54:11.106Z","obsTime":1776253860,"reportTime":"2026-04-15T12:00:00.000Z","temp":20,"dewp":13.9,"wdir":220,"wspd":12,"visib":"10+","altim":1016.7,"slp":1016.5,"qcField":4,"presTend":0.6,"maxT":21.7,"minT":18.3,"metarType":"METAR","rawOb":"METAR KORF 151151Z 22012KT 10SM CLR 20/14 A3002 RMK AO2 SLP165 T02000139 10217 20183 51006","lat":36.9037,"lon":-76.1927,"elev":5,"name":"Norfolk Intl, VA, US","cover":"CLR","clouds":[],"fltCat":"VFR"},{"icaoId":"KLGU","receiptTime":"2026-04-15T11:54:10.962Z","obsTime":1776253860,"reportTime":"2026-04-15T12:00:00.000Z","temp":1.1,"dewp":-1.1,"wdir":0,"wspd":0,"visib":"10+","altim":1014,"slp":1012.8,"qcField":6,"presTend":-0.7,"maxT":4.4,"minT":-0.6,"metarType":"METAR","rawOb":"METAR KLGU 151151Z AUTO 00000KT 10SM FEW100 01/M01 A2994 RMK AO2 SLP128 T00111011 10044 21006 56007","lat":41.7865,"lon":-111.8519,"elev":1359,"name":"Logan/Cache Arpt, UT, US","cover":"FEW","clouds":[{"cover":"FEW","base":10000}],"fltCat":"VFR"},{"icaoId":"KSAN","receiptTime":"2026-04-15T11:54:11.313Z","obsTime":1776253860,"reportTime":"2026-04-15T12:00:00.000Z","temp":13.3,"dewp":10.6,"wdir":0,"wspd":0,"visib":"10+","altim":1016.7,"slp":1016.7,"qcField":12,"presTend":-0.8,"maxT":16.7,"minT":12.8,"metarType":"METAR","rawOb":"METAR KSAN 151151Z 00000KT 10SM CLR 13/11 A3002 RMK AO2 SLP167 T01330106 10167 20128 55008 $","lat":32.7364,"lon":-117.1973,"elev":3,"name":"San Diego Intl Arpt, CA, US","cover":"CLR","clouds":[],"fltCat":"VFR"},{"icaoId":"KPHX","receiptTime":"2026-04-15T11:54:11.140Z","obsTime":1776253860,"reportTime":"2026-04-15T12:00:00.000Z","temp":16.7,"dewp":0.6,"wdir":100,"wspd":4,"visib":"10+","altim":1014.3,"slp":1012.9,"qcField":4,"presTend":0.1,"maxT":21.7,"minT":16.1,"metarType":"METAR","rawOb":"METAR KPHX 151151Z 10004KT 10SM CLR 17/01 A2995 RMK AO2 SLP129 T01670006 10217 20161 53001","lat":33.4278,"lon":-112.0037,"elev":338,"name":"Phoenix/Sky Harbor Intl, AZ, US","cover":"CLR","clouds":[],"fltCat":"VFR"},{"icaoId":"KRDU","receiptTime":"2026-04-15T11:54:11.257Z","obsTime":1776253860,"reportTime":"2026-04-15T12:00:00.000Z","temp":18.3,"dewp":13.3,"wdir":230,"wspd":8,"visib":"10+","altim":1019.7,"slp":1019.2,"qcField":4,"presTend":1.6,"maxT":20,"minT":16.7,"metarType":"METAR","rawOb":"METAR KRDU 151151Z 23008KT 10SM SCT250 18/13 A3011 RMK AO2 SLP192 T01830133 10200 20167 53016","lat":35.8923,"lon":-78.782,"elev":121,"name":"Raleigh-Durham Intl, NC, US","cover":"SCT","clouds":[{"cover":"SCT","base":25000}],"fltCat":"VFR"},{"icaoId":"KPIT","receiptTime":"2026-04-15T11:54:10.018Z","obsTime":1776253860,"reportTime":"2026-04-15T12:00:00.000Z","temp":19.4,"dewp":15,"wdir":250,"wspd":5,"visib":"10+","altim":1015.3,"slp":1015.5,"qcField":12,"presTend":2.4,"maxT":20.6,"minT":16.7,"pcp24hr":0.27,"metarType":"METAR","rawOb":"METAR KPIT 151151Z 25005KT 10SM BKN032 BKN055 BKN220 19/15 A2998 RMK AO2 SLP155 70027 T01940150 10206 20167 53024 $","lat":40.4814,"lon":-80.2083,"elev":339,"name":"Pittsburgh Intl, PA, US","cover":"BKN","clouds":[{"cover":"BKN","base":3200},{"cover":"BKN","base":5500},{"cover":"BKN","base":22000}],"fltCat":"VFR"},{"icaoId":"KEWR","receiptTime":"2026-04-15T11:54:10.745Z","obsTime":1776253860,"reportTime":"2026-04-15T12:00:00.000Z","temp":21.1,"dewp":15,"wdir":250,"wspd":8,"visib":"10+","altim":1014,"slp":1013.8,"qcField":4,"presTend":1.6,"maxT":22.8,"minT":18.3,"metarType":"METAR","rawOb":"METAR KEWR 151151Z 25008KT 10SM SCT080 BKN130 BKN190 BKN250 21/15 A2994 RMK AO2 SLP138 T02110150 10228 20183 53016","lat":40.6828,"lon":-74.1692,"elev":2,"name":"Newark Intl, NJ, US","cover":"BKN","clouds":[{"cover":"SCT","base":8000},{"cover":"BKN","base":13000},{"cover":"BKN","base":19000},{"cover":"BKN","base":25000}],"fltCat":"VFR"},{"icaoId":"KBDL","receiptTime":"2026-04-15T11:54:10.262Z","obsTime":1776253860,"reportTime":"2026-04-15T12:00:00.000Z","temp":15.6,"dewp":15,"wdir":210,"wspd":4,"visib":"10+","altim":1012.3,"slp":1012.2,"qcField":12,"presTend":1.2,"maxT":18.9,"minT":12.2,"pcp24hr":0.23,"metarType":"METAR","rawOb":"METAR KBDL 151151Z 21004KT 10SM FEW200 BKN250 16/15 A2989 RMK AO2 SLP122 70023 T01560150 10189 20122 50012 $","lat":41.9374,"lon":-72.682,"elev":52,"name":"Hartford/Bradley Intl, CT, US","cover":"BKN","clouds":[{"cover":"FEW","base":20000},{"cover":"BKN","base":25000}],"fltCat":"VFR"},{"icaoId":"KJFK","receiptTime":"2026-04-15T11:54:10.941Z","obsTime":1776253860,"reportTime":"2026-04-15T12:00:00.000Z","temp":20.6,"dewp":15,"wdir":260,"wspd":9,"visib":"10+","altim":1014,"slp":1014,"qcField":4,"presTend":1.4,"maxT":20.6,"minT":15.6,"metarType":"METAR","rawOb":"METAR KJFK 151151Z 26009KT 10SM FEW110 FEW180 BKN250 21/15 A2994 RMK AO2 SLP140 T02060150 10206 20156 53014","lat":40.6392,"lon":-73.7639,"elev":3,"name":"New York/JF Kennedy Intl, NY, US","cover":"BKN","clouds":[{"cover":"FEW","base":11000},{"cover":"FEW","base":18000},{"cover":"BKN","base":25000}],"fltCat":"VFR"},{"icaoId":"KSAD","receiptTime":"2026-04-15T11:54:11.294Z","obsTime":1776253860,"reportTime":"2026-04-15T12:00:00.000Z","temp":6.7,"dewp":-7.8,"wdir":70,"wspd":4,"visib":"10+","altim":1016,"slp":1013.4,"qcField":6,"presTend":0.3,"maxT":15,"minT":6.7,"metarType":"METAR","rawOb":"METAR KSAD 151151Z AUTO 07004KT 10SM CLR 07/M08 A3000 RMK AO2 SLP134 T00671078 10150 20067 53003","lat":32.8565,"lon":-109.636,"elev":937,"name":"Safford Rgnl, AZ, US","cover":"CLR","clouds":[],"fltCat":"VFR"},{"icaoId":"KOXR","receiptTime":"2026-04-15T11:54:11.125Z","obsTime":1776253860,"reportTime":"2026-04-15T12:00:00.000Z","temp":11.1,"dewp":7.2,"wdir":40,"wspd":5,"visib":"10+","altim":1016.3,"slp":1016,"qcField":14,"presTend":-0.4,"maxT":13.9,"minT":11.1,"metarType":"METAR","rawOb":"METAR KOXR 151151Z AUTO 04005KT 10SM CLR 11/07 A3001 RMK AO2 SLP160 T01110072 10139 20111 55004 $","lat":34.2001,"lon":-119.2042,"elev":12,"name":"Oxnard Arpt, CA, US","cover":"CLR","clouds":[],"fltCat":"VFR"},{"icaoId":"KIGM","receiptTime":"2026-04-15T11:54:10.880Z","obsTime":1776253860,"reportTime":"2026-04-15T12:00:00.000Z","temp":6.7,"dewp":-3.9,"wdir":0,"wspd":0,"visib":"10+","altim":1017,"slp":1012.5,"qcField":6,"presTend":-0.1,"maxT":11.7,"minT":6.1,"metarType":"METAR","rawOb":"METAR KIGM 151151Z AUTO 00000KT 10SM CLR 07/M04 A3003 RMK AO2 SLP125 T00671039 10117 20061 58001","lat":35.2575,"lon":-113.9341,"elev":1045,"name":"Kingman Arpt, AZ, US","cover":"CLR","clouds":[],"fltCat":"VFR"},{"icaoId":"KVNY","receiptTime":"2026-04-15T11:54:11.534Z","obsTime":1776253860,"reportTime":"2026-04-15T12:00:00.000Z","temp":11.1,"dewp":7.8,"wdir":210,"wspd":3,"visib":"10+","altim":1016,"slp":1015.5,"qcField":14,"presTend":-0.6,"maxT":15,"minT":11.1,"metarType":"METAR","rawOb":"METAR KVNY 151151Z AUTO 21003KT 10SM CLR 11/08 A3000 RMK AO2 SLP155 T01110078 10150 20111 58006 $","lat":34.2121,"lon":-118.4915,"elev":241,"name":"Van Nuys Arpt, CA, US","cover":"CLR","clouds":[],"fltCat":"VFR"},{"icaoId":"KELP","receiptTime":"2026-04-15T11:54:10.724Z","obsTime":1776253860,"reportTime":"2026-04-15T12:00:00.000Z","temp":9.4,"dewp":0.6,"wdir":60,"wspd":4,"visib":"10+","altim":1015.7,"slp":1010.5,"qcField":12,"presTend":0.4,"maxT":19.4,"minT":9.4,"metarType":"METAR","rawOb":"METAR KELP 151151Z 06004KT 10SM FEW110 09/01 A2999 RMK AO2 SLP105 T00940006 10194 20094 53004 $","lat":31.8123,"lon":-106.3774,"elev":1205,"name":"El Paso Intl, TX, US","cover":"FEW","clouds":[{"cover":"FEW","base":11000}],"fltCat":"VFR"},{"icaoId":"KCRP","receiptTime":"2026-04-15T11:54:10.617Z","obsTime":1776253860,"reportTime":"2026-04-15T12:00:00.000Z","temp":22.8,"dewp":21.1,"wdir":140,"wspd":9,"visib":"10+","altim":1013.6,"slp":1013.5,"qcField":4,"presTend":1.4,"maxT":23.9,"minT":22.8,"metarType":"METAR","rawOb":"METAR KCRP 151151Z 14009KT 10SM FEW015 FEW028 BKN042 BKN250 23/21 A2993 RMK AO2 SLP135 TCU DSNT NE E T02280211 10239 20228 51014","lat":27.7734,"lon":-97.513,"elev":11,"name":"Corpus Christi Intl, TX, US","cover":"BKN","clouds":[{"cover":"FEW","base":1500},{"cover":"FEW","base":2800},{"cover":"BKN","base":4200},{"cover":"BKN","base":25000}],"fltCat":"VFR"},{"icaoId":"KCMH","receiptTime":"2026-04-15T11:54:10.525Z","obsTime":1776253860,"reportTime":"2026-04-15T12:00:00.000Z","temp":20,"dewp":15,"wdir":180,"wspd":7,"visib":"10+","altim":1014.6,"slp":1013.8,"qcField":4,"presTend":2.1,"maxT":21.1,"minT":18.9,"metarType":"METAR","rawOb":"METAR KCMH 151151Z 18007KT 10SM BKN040 OVC050 20/15 A2996 RMK AO2 SLP138 T02000150 10211 20189 51021","lat":39.9907,"lon":-82.877,"elev":257,"name":"Columbus/Glenn Intl, OH, US","cover":"OVC","clouds":[{"cover":"BKN","base":4000},{"cover":"OVC","base":5000}],"fltCat":"VFR"},{"icaoId":"KACT","receiptTime":"2026-04-15T11:54:10.165Z","obsTime":1776253860,"reportTime":"2026-04-15T12:00:00.000Z","temp":21.1,"dewp":18.9,"wdir":150,"wspd":19,"wgst":28,"visib":"10+","altim":1010.9,"slp":1010,"qcField":4,"presTend":-2.1,"maxT":22.8,"minT":21.1,"metarType":"METAR","rawOb":"METAR KACT 151151Z 15019G28KT 10SM BKN011 21/19 A2985 RMK AO2 PK WND 14029/1126 SLP100 T02110189 10228 20211 58021","lat":31.618,"lon":-97.2283,"elev":150,"name":"Waco Rgnl, TX, US","cover":"BKN","clouds":[{"cover":"BKN","base":1100}],"fltCat":"MVFR"},{"icaoId":"KHOB","receiptTime":"2026-04-15T11:58:48.238Z","obsTime":1776253800,"reportTime":"2026-04-15T12:00:00.000Z","temp":10,"dewp":10,"wdir":290,"wspd":9,"visib":"10+","altim":1014.6,"qcField":0,"metarType":"METAR","rawOb":"METAR KHOB 151150Z 29009KT 10SM CLR 10/10 A2996","lat":32.6797,"lon":-103.2222,"elev":1112,"name":"Hobbs Arpt, NM, US","cover":"CLR","clouds":[],"fltCat":"VFR"},{"icaoId":"KIWA","receiptTime":"2026-04-15T11:51:56.413Z","obsTime":1776253800,"reportTime":"2026-04-15T12:00:00.000Z","temp":13,"dewp":-3,"wdir":110,"wspd":5,"visib":"10+","altim":1015.3,"qcField":0,"metarType":"METAR","rawOb":"METAR KIWA 151150Z 11005KT 10SM CLR 13/M03 A2998","lat":33.3008,"lon":-111.6437,"elev":420,"name":"Phoenix/Mesa Gateway Arpt, AZ, US","cover":"CLR","clouds":[],"fltCat":"VFR"},{"icaoId":"KOTH","receiptTime":"2026-04-15T11:50:25.503Z","obsTime":1776253680,"reportTime":"2026-04-15T12:00:00.000Z","temp":10,"dewp":10,"wdir":180,"wspd":15,"wgst":25,"visib":3,"altim":1012.6,"qcField":0,"wxString":"-RA BR","metarType":"METAR","rawOb":"METAR KOTH 151148Z 18015G25KT 3SM -RA BR BKN011 OVC016 10/10 A2990","lat":43.4194,"lon":-124.2438,"elev":3,"name":"North Bend/SW Oregon Rgnl, OR, US","cover":"OVC","clouds":[{"cover":"BKN","base":1100},{"cover":"OVC","base":1600}],"fltCat":"MVFR"},{"icaoId":"KAEG","receiptTime":"2026-04-15T12:36:11.034Z","obsTime":1776253620,"reportTime":"2026-04-15T12:00:00.000Z","temp":0,"dewp":-8,"wdir":280,"wspd":4,"visib":"10+","altim":1018.4,"qcField":0,"metarType":"METAR","rawOb":"METAR KAEG 151147Z 28004KT 10SM CLR 00/M08 A3007","lat":35.15,"lon":-106.7929,"elev":1771,"name":"Albuquerque/Double Eagle Arpt, NM, US","cover":"CLR","clouds":[],"fltCat":"VFR"}]