[{"icaoId":"KMYL","receiptTime":"2026-04-15T06:47:06.675Z","obsTime":1776235440,"reportTime":"2026-04-15T06:44:00.000Z","temp":2.8,"dewp":1.1,"wdir":160,"wspd":3,"visib":"10+","altim":1013.3,"qcField":6,"wxString":"-RA","precip":0.02,"metarType":"SPECI","rawOb":"SPECI KMYL 150644Z AUTO 16003KT 10SM -RA BKN012 BKN018 OVC028 03/01 A2992 RMK AO2 P0002 T00280011","lat":44.8943,"lon":-116.0998,"elev":1532,"name":"McCall Muni, ID, US","cover":"OVC","clouds":[{"cover":"BKN","base":1200},{"cover":"BKN","base":1800},{"cover":"OVC","base":2800}],"fltCat":"MVFR"},{"icaoId":"KIFP","receiptTime":"2026-04-15T06:40:25.980Z","obsTime":1776234900,"reportTime":"2026-04-15T06:35:00.000Z","temp":21,"dewp":-2,"wdir":130,"wspd":4,"visib":"10+","altim":1013.6,"qcField":6,"metarType":"METAR","rawOb":"METAR KIFP 150635Z AUTO 13004KT 10SM CLR 21/M02 A2993 RMK AO2","lat":35.1487,"lon":-114.5611,"elev":210,"name":"Bullhead City Intl, AZ, US","cover":"CLR","clouds":[],"fltCat":"VFR"},{"icaoId":"KHTH","receiptTime":"2026-04-15T06:40:32.521Z","obsTime":1776234900,"reportTime":"2026-04-15T06:35:00.000Z","temp":11,"dewp":-5,"wdir":300,"wspd":7,"visib":"10+","altim":1017.4,"qcField":6,"metarType":"METAR","rawOb":"METAR KHTH 150635Z AUTO 30007KT 10SM CLR 11/M05 A3004 RMK A01","lat":38.5448,"lon":-118.6314,"elev":1281,"name":"Hawthorne Muni, NV, US","cover":"CLR","clouds":[],"fltCat":"VFR"},{"icaoId":"KDTW","receiptTime":"2026-04-15T06:38:38.233Z","obsTime":1776234900,"reportTime":"2026-04-15T06:35:00.000Z","temp":16.1,"dewp":14.4,"wdir":260,"wspd":11,"visib":3,"altim":1010.9,"qcField":12,"wxString":"TSRA BR","precip":0.21,"metarType":"SPECI","rawOb":"SPECI KDTW 150635Z 26011KT 3SM TSRA BR BKN012 OVC035CB 16/14 A2985 RMK AO2 PK WND 29060/0608 WSHFT 0558 TWR VIS 4 RAB02 CONS LTGICCCCG ALQDS TS ALQDS MOV E P0021 T01610144 $","lat":42.2311,"lon":-83.3312,"elev":192,"name":"Detroit/Metro Wayne Cnty, MI, US","cover":"OVC","clouds":[{"cover":"BKN","base":1200},{"cover":"OVC","base":3500}],"fltCat":"MVFR"},{"icaoId":"KMHR","receiptTime":"2026-04-15T06:40:35.143Z","obsTime":1776234900,"reportTime":"2026-04-15T06:35:00.000Z","temp":10,"dewp":10,"wdir":130,"wspd":5,"visib":"10+","altim":1018.7,"qcField":6,"metarType":"METAR","rawOb":"METAR KMHR 150635Z AUTO 13005KT 10SM CLR 10/10 A3008 RMK AO2","lat":38.56,"lon":-121.284,"elev":30,"name":"Sacramento/Mather Fld, CA, US","cover":"CLR","clouds":[],"fltCat":"VFR"},{"icaoId":"KCHD","receiptTime":"2026-04-15T06:38:40.754Z","obsTime":1776234900,"reportTime":"2026-04-15T06:35:00.000Z","temp":18.4,"dewp":0.6,"wdir":140,"wspd":3,"visib":"10+","altim":1015,"qcField":14,"metarType":"METAR","rawOb":"METAR KCHD 150635Z AUTO 14003KT 10SM CLR 18/01 A2997 RMK AO2 T01840006 $","lat":33.2669,"lon":-111.8086,"elev":378,"name":"Chandler Muni, AZ, US","cover":"CLR","clouds":[],"fltCat":"VFR"},{"icaoId":"KHCR","receiptTime":"2026-04-15T06:38:38.487Z","obsTime":1776234900,"reportTime":"2026-04-15T06:35:00.000Z","temp":-1.6,"dewp":-5,"wdir":130,"wspd":4,"visib":"10+","altim":1016.7,"qcField":14,"metarType":"METAR","rawOb":"METAR KHCR 150635Z AUTO 13004KT 10SM CLR M02/M05 A3002 RMK AO2 T10161050 $","lat":40.4774,"lon":-111.4329,"elev":1708,"name":"Heber City Muni, UT, US","cover":"CLR","clouds":[],"fltCat":"VFR"},{"icaoId":"KAEG","receiptTime":"2026-04-15T06:40:47.551Z","obsTime":1776234900,"reportTime":"2026-04-15T06:35:00.000Z","temp":8,"dewp":-5.8,"wdir":310,"wspd":11,"visib":"10+","altim":1017.7,"qcField":6,"metarType":"METAR","rawOb":"METAR KAEG 150635Z AUTO 31011KT 10SM CLR 08/M06 A3005 RMK AO2 T00801058","lat":35.15,"lon":-106.7929,"elev":1771,"name":"Albuquerque/Double Eagle Arpt, NM, US","cover":"CLR","clouds":[],"fltCat":"VFR"},{"icaoId":"KLRU","receiptTime":"2026-04-15T06:38:35.658Z","obsTime":1776234900,"reportTime":"2026-04-15T06:35:00.000Z","temp":11.4,"dewp":-5.7,"wdir":260,"wspd":8,"visib":"10+","altim":1016.7,"qcField":6,"metarType":"METAR","rawOb":"METAR KLRU 150635Z AUTO 26008KT 10SM CLR 11/M06 A3002 RMK AO2 T01141057","lat":32.2884,"lon":-106.9131,"elev":1355,"name":"Las Cruces Intl, NM, US","cover":"CLR","clouds":[],"fltCat":"VFR"},{"icaoId":"KADM","receiptTime":"2026-04-15T06:40:47.514Z","obsTime":1776234900,"reportTime":"2026-04-15T06:35:00.000Z","temp":22,"dewp":20,"wdir":140,"wspd":6,"visib":"10+","altim":1011.9,"qcField":6,"metarType":"METAR","rawOb":"METAR KADM 150635Z AUTO 14006KT 10SM OVC041 22/20 A2988 RMK AO2","lat":34.3007,"lon":-97.0089,"elev":223,"name":"Ardmore Muni, OK, US","cover":"OVC","clouds":[{"cover":"OVC","base":4100}],"fltCat":"VFR"},{"icaoId":"KSUN","receiptTime":"2026-04-15T06:40:26.744Z","obsTime":1776234900,"reportTime":"2026-04-15T06:35:00.000Z","wdir":320,"wspd":5,"visib":"10+","altim":1013.6,"qcField":6,"metarType":"METAR","rawOb":"METAR KSUN 150635Z AUTO 32005KT 10SM SCT080 A2993 RMK AO2","lat":43.4969,"lon":-114.2923,"elev":1619,"name":"Hailey/Friedman Mem, ID, US","cover":"SCT","clouds":[{"cover":"SCT","base":8000}],"fltCat":"VFR"},{"icaoId":"KHAF","receiptTime":"2026-04-15T06:38:21.359Z","obsTime":1776234900,"reportTime":"2026-04-15T06:35:00.000Z","temp":12,"dewp":9,"wdir":330,"wspd":10,"visib":"10+","altim":1020.7,"qcField":6,"metarType":"METAR","rawOb":"METAR KHAF 150635Z AUTO 33010KT 10SM OVC022 12/09 A3014 RMK AO2","lat":37.5136,"lon":-122.4996,"elev":11,"name":"Half Moon Bay Arpt, CA, US","cover":"OVC","clouds":[{"cover":"OVC","base":2200}],"fltCat":"MVFR"},{"icaoId":"KHII","receiptTime":"2026-04-15T06:40:48.710Z","obsTime":1776234900,"reportTime":"2026-04-15T06:35:00.000Z","temp":20,"dewp":-1,"wdir":0,"wspd":0,"visib":"10+","altim":1014.3,"qcField":6,"metarType":"METAR","rawOb":"METAR KHII 150635Z AUTO 00000KT 10SM CLR 20/M01 A2995 RMK AO2","lat":34.5659,"lon":-114.3522,"elev":241,"name":"Lake Havasu City Arpt, AZ, US","cover":"CLR","clouds":[],"fltCat":"VFR"},{"icaoId":"KBVU","receiptTime":"2026-04-15T06:36:06.312Z","obsTime":1776234900,"reportTime":"2026-04-15T06:35:00.000Z","temp":15,"dewp":-2,"wdir":350,"wspd":4,"visib":"10+","altim":1014.6,"qcField":6,"metarType":"METAR","rawOb":"METAR KBVU 150635Z AUTO 35004KT 10SM CLR 15/M02 A2996 RMK AO2","lat":35.9489,"lon":-114.8633,"elev":654,"name":"Boulder City Muni, NV, US","cover":"CLR","clouds":[],"fltCat":"VFR"},{"icaoId":"KHOB","receiptTime":"2026-04-15T06:38:38.621Z","obsTime":1776234900,"reportTime":"2026-04-15T06:35:00.000Z","temp":18,"dewp":15,"wdir":200,"wspd":8,"visib":"10+","altim":1014,"qcField":6,"metarType":"METAR","rawOb":"METAR KHOB 150635Z AUTO 20008KT 10SM SCT060 18/15 A2994 RMK AO2","lat":32.6797,"lon":-103.2222,"elev":1112,"name":"Hobbs Arpt, NM, US","cover":"SCT","clouds":[{"cover":"SCT","base":6000}],"fltCat":"VFR"},{"icaoId":"KSOW","receiptTime":"2026-04-15T06:38:41.716Z","obsTime":1776234900,"reportTime":"2026-04-15T06:35:00.000Z","temp":4,"dewp":-5,"wdir":0,"wspd":0,"visib":"10+","altim":1020.4,"qcField":6,"metarType":"METAR","rawOb":"METAR KSOW 150635Z AUTO 00000KT 10SM BKN065 04/M05 A3013 RMK AO2","lat":34.2686,"lon":-110.0019,"elev":1954,"name":"Show Low Muni, AZ, US","cover":"BKN","clouds":[{"cover":"BKN","base":6500}],"fltCat":"VFR"},{"icaoId":"KSEZ","receiptTime":"2026-04-15T06:40:26.643Z","obsTime":1776234900,"reportTime":"2026-04-15T06:35:00.000Z","temp":10,"dewp":-1,"wdir":40,"wspd":10,"visib":"10+","altim":1018.7,"qcField":6,"metarType":"METAR","rawOb":"METAR KSEZ 150635Z AUTO 04010KT 10SM SCT080 10/M01 A3008 RMK AO2","lat":34.8467,"lon":-111.7884,"elev":1455,"name":"Sedona Arpt, AZ, US","cover":"SCT","clouds":[{"cover":"SCT","base":8000}],"fltCat":"VFR"},{"icaoId":"KBJC","receiptTime":"2026-04-15T06:40:27.513Z","obsTime":1776234900,"reportTime":"2026-04-15T06:35:00.000Z","temp":7,"dewp":-4,"wdir":260,"wspd":3,"visib":"10+","altim":1012.3,"qcField":6,"metarType":"METAR","rawOb":"METAR KBJC 150635Z AUTO 26003KT 10SM BKN110 07/M04 A2989 RMK AO2","lat":39.9008,"lon":-105.1042,"elev":1694,"name":"Rocky Mtn Metro, CO, US","cover":"BKN","clouds":[{"cover":"BKN","base":11000}],"fltCat":"VFR"},{"icaoId":"KMFE","receiptTime":"2026-04-15T06:36:07.045Z","obsTime":1776234780,"reportTime":"2026-04-15T06:33:00.000Z","temp":24.4,"dewp":21.7,"wdir":130,"wspd":13,"visib":"10+","altim":1013,"qcField":6,"metarType":"SPECI","rawOb":"SPECI KMFE 150633Z AUTO 13013KT 10SM FEW015 SCT028 24/22 A2991 RMK AO2 T02440217","lat":26.1791,"lon":-98.2445,"elev":29,"name":"McAllen/Miller Intl, TX, US","cover":"SCT","clouds":[{"cover":"FEW","base":1500},{"cover":"SCT","base":2800}],"fltCat":"VFR"},{"icaoId":"KCXP","receiptTime":"2026-04-15T06:40:25.496Z","obsTime":1776234600,"reportTime":"2026-04-15T06:30:00.000Z","temp":6,"dewp":0,"wdir":0,"wspd":0,"visib":"10+","altim":1019,"qcField":6,"metarType":"METAR","rawOb":"METAR KCXP 150630Z AUTO 00000KT 10SM CLR 06/M00 A3009 RMK AO2","lat":39.1905,"lon":-119.7319,"elev":1431,"name":"Carson City Arpt, NV, US","cover":"CLR","clouds":[],"fltCat":"VFR"},{"icaoId":"KOKC","receiptTime":"2026-04-15T06:34:04.148Z","obsTime":1776234600,"reportTime":"2026-04-15T06:30:00.000Z","temp":20,"dewp":18.9,"wdir":150,"wspd":19,"wgst":27,"visib":"10+","altim":1009.9,"qcField":4,"wxString":"-TSRA","precip":0.005,"metarType":"SPECI","rawOb":"SPECI KOKC 150630Z 15019G27KT 10SM -TSRA SCT009 BKN050CB OVC250 20/19 A2982 RMK AO2 PK WND 16027/0630 RAB20 TSB29 PRESFR FRQ LTGCGIC S-SW TS S-SW MOV NE P0000 T02000189","lat":35.3843,"lon":-97.6003,"elev":391,"name":"Oklahoma City/Will Rogers Intl, OK, US","cover":"OVC","clouds":[{"cover":"SCT","base":900},{"cover":"BKN","base":5000},{"cover":"OVC","base":25000}],"fltCat":"VFR"},{"icaoId":"KAST","receiptTime":"2026-04-15T06:30:08.631Z","obsTime":1776234420,"reportTime":"2026-04-15T06:27:00.000Z","temp":7.8,"dewp":6.7,"wdir":310,"wspd":13,"wgst":21,"visib":3,"altim":1009.2,"qcField":6,"wxString":"RA BR","precip":0.2,"metarType":"SPECI","rawOb":"SPECI KAST 150627Z AUTO 31013G21KT 3SM RA BR BKN005 OVC013 08/07 A2980 RMK AO2 WSHFT 0542 P0020 T00780067","lat":46.157,"lon":-123.8833,"elev":3,"name":"Astoria Rgnl, OR, US","cover":"OVC","clouds":[{"cover":"BKN","base":500},{"cover":"OVC","base":1300}],"fltCat":"IFR"},{"icaoId":"KRTS","receiptTime":"2026-04-15T06:40:03.685Z","obsTime":1776234300,"reportTime":"2026-04-15T06:25:00.000Z","temp":6,"dewp":0,"wdir":260,"wspd":16,"visib":"10+","altim":1019.4,"qcField":6,"metarType":"METAR","rawOb":"METAR KRTS 150625Z AUTO 26016KT 10SM CLR 06/00 A3010 RMK AO2","lat":39.6658,"lon":-119.8731,"elev":1537,"name":"Reno/Stead Arpt, NV, US","cover":"CLR","clouds":[],"fltCat":"VFR"},{"icaoId":"KMEV","receiptTime":"2026-04-15T06:40:26.313Z","obsTime":1776234300,"reportTime":"2026-04-15T06:25:00.000Z","temp":2,"dewp":-1,"wdir":110,"wspd":8,"visib":"10+","altim":1018.7,"qcField":6,"metarType":"METAR","rawOb":"METAR KMEV 150625Z AUTO 11008KT 10SM FEW041 FEW046 02/M01 A3008 RMK AO2","lat":38.9963,"lon":-119.75,"elev":1437,"name":"Minden-Tahoe Arpt, NV, US","cover":"FEW","clouds":[{"cover":"FEW","base":4100},{"cover":"FEW","base":4600}],"fltCat":"VFR"},{"icaoId":"KPAE","receiptTime":"2026-04-15T06:28:07.455Z","obsTime":1776234300,"reportTime":"2026-04-15T06:25:00.000Z","temp":5.6,"dewp":4.4,"wdir":330,"wspd":7,"visib":"10+","altim":1008.2,"qcField":6,"wxString":"-RA","precip":0.03,"metarType":"SPECI","rawOb":"SPECI KPAE 150625Z AUTO 33007KT 10SM -RA FEW007 BKN012 OVC020 06/04 A2977 RMK AO2 P0003 T00560044","lat":47.9232,"lon":-122.2831,"elev":166,"name":"Everett/Paine Fld, WA, US","cover":"OVC","clouds":[{"cover":"FEW","base":700},{"cover":"BKN","base":1200},{"cover":"OVC","base":2000}],"fltCat":"MVFR"},{"icaoId":"KAUS","receiptTime":"2026-04-15T06:28:05.256Z","obsTime":1776234240,"reportTime":"2026-04-15T06:24:00.000Z","temp":22.8,"dewp":19.4,"wdir":170,"wspd":8,"visib":"10+","altim":1014.6,"qcField":4,"metarType":"SPECI","rawOb":"SPECI KAUS 150624Z 17008KT 10SM SCT021 BKN030 OVC036 23/19 A2996 RMK AO2 T02280194","lat":30.1831,"lon":-97.6806,"elev":148,"name":"Austin/Bergstrom Intl, TX, US","cover":"OVC","clouds":[{"cover":"SCT","base":2100},{"cover":"BKN","base":3000},{"cover":"OVC","base":3600}],"fltCat":"MVFR"},{"icaoId":"KIAH","receiptTime":"2026-04-15T06:26:09.820Z","obsTime":1776234180,"reportTime":"2026-04-15T06:23:00.000Z","temp":21.7,"dewp":20,"wdir":150,"wspd":9,"visib":"10+","altim":1015.7,"qcField":4,"metarType":"SPECI","rawOb":"SPECI KIAH 150623Z 15009KT 10SM BKN018 BKN250 22/20 A2999 RMK AO2 T02170200","lat":29.9844,"lon":-95.3607,"elev":27,"name":"Houston/Bush Intl, TX, US","cover":"BKN","clouds":[{"cover":"BKN","base":1800},{"cover":"BKN","base":25000}],"fltCat":"MVFR"},{"icaoId":"KLAW","receiptTime":"2026-04-15T06:24:05.568Z","obsTime":1776234000,"reportTime":"2026-04-15T06:20:00.000Z","temp":19.4,"dewp":18.9,"wdir":110,"wspd":8,"visib":9,"altim":1010.2,"qcField":6,"precip":0.03,"metarType":"SPECI","rawOb":"SPECI KLAW 150620Z AUTO 11008KT 9SM FEW018 SCT090 BKN110 19/19 A2983 RMK AO2 LTG DSNT NE RAE13 TSE14 PRESFR P0003 T01940189","lat":34.5577,"lon":-98.4172,"elev":328,"name":"Lawton-Fort Sill Rgnl, OK, US","cover":"BKN","clouds":[{"cover":"FEW","base":1800},{"cover":"SCT","base":9000},{"cover":"BKN","base":11000}],"fltCat":"VFR"},{"icaoId":"KROC","receiptTime":"2026-04-15T06:24:05.638Z","obsTime":1776234000,"reportTime":"2026-04-15T06:20:00.000Z","temp":9.4,"dewp":8.9,"wdir":100,"wspd":7,"visib":4,"altim":1012.6,"qcField":12,"wxString":"BR","metarType":"SPECI","rawOb":"SPECI KROC 150620Z 10007KT 4SM BR SCT004 OVC020 09/09 A2990 RMK AO2 T00940089 $","lat":43.1172,"lon":-77.6754,"elev":166,"name":"Rochester Intl Arpt, NY, US","cover":"OVC","clouds":[{"cover":"SCT","base":400},{"cover":"OVC","base":2000}],"fltCat":"MVFR"},{"icaoId":"KORD","receiptTime":"2026-04-15T06:18:12.333Z","obsTime":1776233640,"reportTime":"2026-04-15T06:14:00.000Z","temp":18.3,"dewp":16.7,"wdir":150,"wspd":8,"visib":"10+","altim":1006.5,"qcField":4,"precip":0.005,"metarType":"SPECI","rawOb":"SPECI KORD 150614Z 15008KT 10SM BKN032 BKN045 OVC060 18/17 A2972 RMK AO2 RAE0559 TSE12 OCNL LTGICCG DSNT NE CB DSNT NE MOV E P0000 T01830167","lat":41.9602,"lon":-87.9316,"elev":202,"name":"Chicago/O'Hare Intl, IL, US","cover":"OVC","clouds":[{"cover":"BKN","base":3200},{"cover":"BKN","base":4500},{"cover":"OVC","base":6000}],"fltCat":"VFR"},{"icaoId":"KHOU","receiptTime":"2026-04-15T06:14:06.651Z","obsTime":1776233400,"reportTime":"2026-04-15T06:10:00.000Z","temp":22.2,"dewp":20,"wdir":160,"wspd":8,"visib":9,"altim":1016,"qcField":12,"metarType":"SPECI","rawOb":"SPECI KHOU 150610Z 16008KT 9SM BKN018 22/20 A3000 RMK AO2 T02220200 $","lat":29.6458,"lon":-95.2821,"elev":13,"name":"Houston/Hobby Arpt, TX, US","cover":"BKN","clouds":[{"cover":"BKN","base":1800}],"fltCat":"MVFR"},{"icaoId":"KSLE","receiptTime":"2026-04-15T06:10:05.672Z","obsTime":1776233220,"reportTime":"2026-04-15T06:07:00.000Z","temp":8.9,"dewp":6.7,"wdir":180,"wspd":13,"wgst":21,"visib":"10+","altim":1013.3,"qcField":6,"wxString":"-RA","precip":0.01,"metarType":"SPECI","rawOb":"SPECI KSLE 150607Z AUTO 18013G21KT 10SM -RA BKN018 BKN022 OVC040 09/07 A2992 RMK AO2 P0001 T00890067","lat":44.9049,"lon":-123.001,"elev":63,"name":"Salem Muni, OR, US","cover":"OVC","clouds":[{"cover":"BKN","base":1800},{"cover":"BKN","base":2200},{"cover":"OVC","base":4000}],"fltCat":"MVFR"},{"icaoId":"KPWT","receiptTime":"2026-04-15T06:04:07.922Z","obsTime":1776232920,"reportTime":"2026-04-15T06:02:00.000Z","temp":7,"dewp":7,"wdir":220,"wspd":5,"visib":"10+","altim":1007.9,"qcField":14,"wxString":"-RA","metarType":"SPECI","rawOb":"SPECI KPWT 150602Z AUTO 22005KT 10SM -RA BKN007 BKN012 07/07 A2976 RMK AO2 CIG 005V009 PNO $","lat":47.4942,"lon":-122.7594,"elev":143,"name":"Bremerton Arpt, WA, US","cover":"BKN","clouds":[{"cover":"BKN","base":700},{"cover":"BKN","base":1200}],"fltCat":"IFR"},{"icaoId":"KSYR","receiptTime":"2026-04-15T06:04:07.953Z","obsTime":1776232860,"reportTime":"2026-04-15T06:01:00.000Z","temp":11.1,"dewp":10,"wdir":270,"wspd":3,"visib":"10+","altim":1014,"qcField":4,"metarType":"SPECI","rawOb":"SPECI KSYR 150601Z 27003KT 10SM OVC014 11/10 A2994 RMK AO2 T01110100","lat":43.1111,"lon":-76.1038,"elev":125,"name":"Syracuse/Hancock Intl, NY, US","cover":"OVC","clouds":[{"cover":"OVC","base":1400}],"fltCat":"MVFR"},{"icaoId":"KOTH","receiptTime":"2026-04-15T06:01:32.733Z","obsTime":1776232740,"reportTime":"2026-04-15T06:00:00.000Z","temp":9,"dewp":9,"wdir":170,"wspd":9,"visib":8,"altim":1018.4,"qcField":0,"wxString":"-RA","metarType":"METAR","rawOb":"METAR KOTH 150559Z 17009KT 8SM -RA BKN013 BKN017 OVC022 09/09 A3007","lat":43.4194,"lon":-124.2438,"elev":3,"name":"North Bend/SW Oregon Rgnl, OR, US","cover":"OVC","clouds":[{"cover":"BKN","base":1300},{"cover":"BKN","base":1700},{"cover":"OVC","base":2200}],"fltCat":"MVFR"},{"icaoId":"KNFL","receiptTime":"2026-04-15T06:01:16.359Z","obsTime":1776232620,"reportTime":"2026-04-15T06:00:00.000Z","temp":8.3,"dewp":-2.2,"wdir":140,"wspd":4,"visib":"10+","altim":1017,"slp":1013.8,"qcField":4,"presTend":1.3,"maxT":19.4,"minT":8.3,"metarType":"METAR","rawOb":"METAR KNFL 150557Z 14004KT 10SM SCT200 BKN250 08/M02 A3003 RMK AO2 SLP138 T00831022 10194 20083 50013","lat":39.417,"lon":-118.705,"elev":1199,"name":"Fallon , NV, US","cover":"BKN","clouds":[{"cover":"SCT","base":20000},{"cover":"BKN","base":25000}],"fltCat":"VFR"},{"icaoId":"KFLG","receiptTime":"2026-04-15T06:01:20.032Z","obsTime":1776232620,"reportTime":"2026-04-15T06:00:00.000Z","temp":-0.6,"dewp":-2.2,"wdir":0,"wspd":0,"visib":"10+","altim":1020.1,"slp":1017.7,"qcField":6,"presTend":0.7,"maxT":10,"minT":-0.6,"pcp6hr":0.005,"metarType":"METAR","rawOb":"METAR KFLG 150557Z AUTO 00000KT 10SM CLR M01/M02 A3012 RMK AO2 SLP177 60000 T10061022 10100 21006 50007","lat":35.1443,"lon":-111.6664,"elev":2134,"name":"Flagstaff/Pulliam Arpt, AZ, US","cover":"CLR","clouds":[],"fltCat":"VFR"},{"icaoId":"KNYL","receiptTime":"2026-04-15T06:00:58.598Z","obsTime":1776232620,"reportTime":"2026-04-15T06:00:00.000Z","temp":20,"dewp":2.8,"wdir":0,"wspd":0,"visib":"10+","altim":1014.3,"slp":1013.9,"qcField":4,"presTend":1.3,"maxT":26.7,"minT":20,"metarType":"METAR","rawOb":"METAR KNYL 150557Z 00000KT 10SM CLR 20/03 A2995 RMK AO2 SLP139 LAST T02000028 10267 20200 50013","lat":32.66,"lon":-114.6078,"elev":58,"name":"Yuma , AZ, US","cover":"CLR","clouds":[],"fltCat":"VFR"},{"icaoId":"KCEC","receiptTime":"2026-04-15T06:00:15.761Z","obsTime":1776232560,"reportTime":"2026-04-15T06:00:00.000Z","temp":11.1,"dewp":7.2,"wdir":180,"wspd":11,"visib":"10+","altim":1021.8,"slp":1021.8,"qcField":6,"presTend":-0.1,"maxT":12.2,"minT":10.6,"precip":0.005,"pcp6hr":0.005,"metarType":"METAR","rawOb":"METAR KCEC 150556Z AUTO 18011KT 10SM OVC037 11/07 A3017 RMK AO2 RAE31 SLP218 P0000 60000 T01110072 10122 20106 58001","lat":41.7836,"lon":-124.238,"elev":17,"name":"Crescent City/McNama, CA, US","cover":"OVC","clouds":[{"cover":"OVC","base":3700}],"fltCat":"VFR"},{"icaoId":"KCOE","receiptTime":"2026-04-15T05:58:22.197Z","obsTime":1776232560,"reportTime":"2026-04-15T06:00:00.000Z","temp":5.6,"dewp":1.7,"wdir":160,"wspd":8,"visib":"10+","altim":1009.9,"slp":1012.4,"qcField":14,"presTend":-1.2,"maxT":5.6,"minT":4.4,"metarType":"METAR","rawOb":"METAR KCOE 150556Z AUTO 16008KT 10SM OVC039 06/02 A2982 RMK AO2 RAE16 SLP124 6//// T00560017 10056 20044 58012 PNO $","lat":47.7719,"lon":-116.8332,"elev":693,"name":"Coeur DAlene Arpt, ID, US","cover":"OVC","clouds":[{"cover":"OVC","base":3900}],"fltCat":"VFR"},{"icaoId":"KEGE","receiptTime":"2026-04-15T05:58:22.399Z","obsTime":1776232560,"reportTime":"2026-04-15T06:00:00.000Z","temp":4.4,"dewp":-1.1,"wdir":250,"wspd":7,"visib":"10+","altim":1018,"slp":1015.9,"qcField":6,"presTend":0.8,"maxT":5.6,"minT":4.4,"maxT24":10,"minT24":2.8,"metarType":"METAR","rawOb":"METAR KEGE 150556Z AUTO 25007KT 10SM BKN048 OVC075 04/M01 A3006 RMK AO2 SLP159 T00441011 10056 20044 401000028 51008","lat":39.6448,"lon":-106.9176,"elev":1993,"name":"Eagle Cnty Rgnl, CO, US","cover":"OVC","clouds":[{"cover":"BKN","base":4800},{"cover":"OVC","base":7500}],"fltCat":"VFR"},{"icaoId":"KSBP","receiptTime":"2026-04-15T06:00:49.105Z","obsTime":1776232560,"reportTime":"2026-04-15T06:00:00.000Z","temp":11.1,"dewp":9.4,"wdir":300,"wspd":5,"visib":"10+","altim":1019,"slp":1018.9,"qcField":6,"presTend":0.9,"maxT":17.2,"minT":11.1,"metarType":"METAR","rawOb":"METAR KSBP 150556Z AUTO 30005KT 10SM CLR 11/09 A3009 RMK AO2 SLP189 T01110094 10172 20111 50009","lat":35.2381,"lon":-120.644,"elev":52,"name":"San Luis Obispo/San Luis Cnty, CA, US","cover":"CLR","clouds":[],"fltCat":"VFR"},{"icaoId":"KSFO","receiptTime":"2026-04-15T06:00:32.428Z","obsTime":1776232560,"reportTime":"2026-04-15T06:00:00.000Z","temp":11.7,"dewp":7.2,"wdir":270,"wspd":8,"visib":"10+","altim":1020.7,"slp":1020.7,"qcField":12,"presTend":0.2,"maxT":15,"minT":11.7,"metarType":"METAR","rawOb":"METAR KSFO 150556Z 27008KT 10SM SCT021 12/07 A3014 RMK AO2 SLP207 T01170072 10150 20117 50002 $","lat":37.6196,"lon":-122.3656,"elev":2,"name":"San Francisco Intl, CA, US","cover":"SCT","clouds":[{"cover":"SCT","base":2100}],"fltCat":"VFR"},{"icaoId":"KINW","receiptTime":"2026-04-15T06:00:31.145Z","obsTime":1776232560,"reportTime":"2026-04-15T06:00:00.000Z","temp":6.1,"dewp":-2.2,"wdir":270,"wspd":5,"visib":"10+","altim":1018.7,"slp":1015.9,"qcField":6,"presTend":1.3,"maxT":15.6,"minT":6.1,"metarType":"METAR","rawOb":"METAR KINW 150556Z AUTO 27005KT 10SM CLR 06/M02 A3008 RMK AO2 SLP159 T00611022 10156 20061 51013","lat":35.0279,"lon":-110.7221,"elev":1492,"name":"Winslow/Lindberg Rgnl, AZ, US","cover":"CLR","clouds":[],"fltCat":"VFR"},{"icaoId":"KEKO","receiptTime":"2026-04-15T06:00:56.043Z","obsTime":1776232560,"reportTime":"2026-04-15T06:00:00.000Z","temp":2.8,"dewp":-5,"wdir":0,"wspd":0,"visib":"10+","altim":1016,"slp":1015.3,"qcField":6,"presTend":0.5,"maxT":15,"minT":2.8,"metarType":"METAR","rawOb":"METAR KEKO 150556Z AUTO 00000KT 10SM CLR 03/M05 A3000 RMK AO2 SLP153 T00281050 10150 20028 50005","lat":40.824,"lon":-115.7863,"elev":1541,"name":"Elko Rgnl, NV, US","cover":"CLR","clouds":[],"fltCat":"VFR"},{"icaoId":"KLWS","receiptTime":"2026-04-15T06:00:33.856Z","obsTime":1776232560,"reportTime":"2026-04-15T06:00:00.000Z","temp":10,"dewp":3.3,"wdir":210,"wspd":12,"visib":"10+","altim":1011.6,"slp":1011.5,"qcField":4,"presTend":-1.1,"maxT":12.8,"minT":9.4,"precip":0.005,"pcp6hr":0.005,"metarType":"METAR","rawOb":"METAR KLWS 150556Z 21012KT 10SM FEW055 SCT070 OVC095 10/03 A2987 RMK AO2 RAB0457E45 SLP115 P0000 60000 T01000033 10128 20094 58011","lat":46.3746,"lon":-117.0153,"elev":435,"name":"Lewiston/Nez Perce Cnty, ID, US","cover":"OVC","clouds":[{"cover":"FEW","base":5500},{"cover":"SCT","base":7000},{"cover":"OVC","base":9500}],"fltCat":"VFR"},{"icaoId":"KJAC","receiptTime":"2026-04-15T05:58:24.444Z","obsTime":1776232560,"reportTime":"2026-04-15T06:00:00.000Z","temp":1.1,"dewp":-2.2,"wdir":180,"wspd":3,"visib":"10+","altim":1014.6,"slp":1015.8,"qcField":70,"maxT":5,"minT":0.6,"metarType":"METAR","rawOb":"METAR KJAC 150556Z AUTO 18003KT 10SM CLR 01/M02 A2996 RMK AO2 SLP158 T00111022 10050 20006 50000 FZRANO","lat":43.6129,"lon":-110.7366,"elev":1967,"name":"Jackson Hole Arpt, WY, US","cover":"CLR","clouds":[],"fltCat":"VFR"},{"icaoId":"KSGU","receiptTime":"2026-04-15T05:58:20.417Z","obsTime":1776232560,"reportTime":"2026-04-15T06:00:00.000Z","temp":13.9,"dewp":6.7,"wdir":60,"wspd":5,"visib":"10+","altim":1016,"slp":1015,"qcField":6,"presTend":1,"maxT":19.4,"minT":13.9,"metarType":"METAR","rawOb":"METAR KSGU 150556Z AUTO 06005KT 10SM CLR 14/07 A3000 RMK AO2 SLP150 T01390067 10194 20139 50010","lat":37.0444,"lon":-113.5034,"elev":877,"name":"Saint George Muni, UT, US","cover":"CLR","clouds":[],"fltCat":"VFR"},{"icaoId":"KPVU","receiptTime":"2026-04-15T05:58:21.031Z","obsTime":1776232560,"reportTime":"2026-04-15T06:00:00.000Z","temp":7.2,"dewp":1.1,"wdir":0,"wspd":0,"visib":"10+","altim":1016.7,"slp":1015.3,"qcField":6,"presTend":0.8,"maxT":13.9,"minT":6.7,"maxT24":14.4,"minT24":3.9,"metarType":"METAR","rawOb":"METAR KPVU 150556Z AUTO 00000KT 10SM CLR 07/01 A3002 RMK AO2 SLP153 T00720011 10139 20067 401440039 51008","lat":40.224,"lon":-111.7252,"elev":1370,"name":"Provo Muni, UT, US","cover":"CLR","clouds":[],"fltCat":"VFR"},{"icaoId":"KJAX","receiptTime":"2026-04-15T06:00:31.251Z","obsTime":1776232560,"reportTime":"2026-04-15T06:00:00.000Z","temp":16.7,"dewp":15,"wdir":0,"wspd":0,"visib":"10+","altim":1021.1,"slp":1020.9,"qcField":12,"maxT":22.8,"minT":16.7,"metarType":"METAR","rawOb":"METAR KJAX 150556Z 00000KT 10SM CLR 17/15 A3015 RMK AO2 SLP209 T01670150 10228 20167 $","lat":30.4953,"lon":-81.6937,"elev":8,"name":"Jacksonville Intl, FL, US","cover":"CLR","clouds":[],"fltCat":"VFR"},{"icaoId":"KFNL","receiptTime":"2026-04-15T05:58:24.085Z","obsTime":1776232560,"reportTime":"2026-04-15T06:00:00.000Z","temp":8.3,"dewp":-1.1,"wdir":200,"wspd":7,"visib":"10+","altim":1011.3,"slp":1007.7,"qcField":14,"presTend":-0.6,"maxT":11.7,"minT":8.3,"pcp6hr":0.005,"metarType":"METAR","rawOb":"METAR KFNL 150556Z AUTO 20007KT 10SM SCT110 08/M01 A2986 RMK AO2 SLP077 60000 T00831011 10117 20083 57006 $","lat":40.4427,"lon":-105.0097,"elev":1529,"name":"Fort Collins/N Colorado Rgnl, CO, US","cover":"SCT","clouds":[{"cover":"SCT","base":11000}],"fltCat":"VFR"},{"icaoId":"KLAS","receiptTime":"2026-04-15T06:00:43.796Z","obsTime":1776232560,"reportTime":"2026-04-15T06:00:00.000Z","temp":18.9,"dewp":-8.3,"wdir":200,"wspd":4,"visib":"10+","altim":1015,"slp":1013.5,"qcField":4,"presTend":0.9,"maxT":23.9,"minT":18.9,"metarType":"METAR","rawOb":"METAR KLAS 150556Z 20004KT 10SM CLR 19/M08 A2997 RMK AO2 SLP135 T01891083 10239 20189 51009","lat":36.0719,"lon":-115.1634,"elev":662,"name":"Las Vegas/Reid Intl, NV, US","cover":"CLR","clouds":[],"fltCat":"VFR"},{"icaoId":"KDUG","receiptTime":"2026-04-15T06:02:11.489Z","obsTime":1776232560,"reportTime":"2026-04-15T06:00:00.000Z","temp":12.2,"dewp":-2.8,"wdir":340,"wspd":8,"visib":"10+","altim":1017.4,"slp":1012.5,"qcField":38,"presTend":1.4,"maxT":23.3,"minT":12.2,"metarType":"METAR","rawOb":"METAR KDUG 150556Z AUTO 34008KT 10SM CLR 12/M03 A3004 RMK AO2 SLP125 T01221028 10233 20122 51014 TSNO","lat":31.4725,"lon":-109.6022,"elev":1260,"name":"Douglas/Bisbee Intl, AZ, US","cover":"CLR","clouds":[],"fltCat":"VFR"},{"icaoId":"KCHS","receiptTime":"2026-04-15T06:00:30.175Z","obsTime":1776232560,"reportTime":"2026-04-15T06:00:00.000Z","temp":17.2,"dewp":16.1,"wdir":200,"wspd":4,"visib":"10+","altim":1020.7,"slp":1020.4,"qcField":4,"presTend":-1,"maxT":21.7,"minT":17.2,"metarType":"METAR","rawOb":"METAR KCHS 150556Z 20004KT 10SM FEW250 17/16 A3014 RMK AO2 SLP204 T01720161 10217 20172 56010","lat":32.8995,"lon":-80.0407,"elev":12,"name":"Charleston Intl, SC, US","cover":"FEW","clouds":[{"cover":"FEW","base":25000}],"fltCat":"VFR"},{"icaoId":"KENV","receiptTime":"2026-04-15T05:58:22.458Z","obsTime":1776232560,"reportTime":"2026-04-15T06:00:00.000Z","temp":8.3,"dewp":-6.1,"wdir":270,"wspd":7,"visib":"10+","altim":1016,"slp":1015.1,"qcField":6,"presTend":0.6,"maxT":16.7,"minT":8.3,"maxT24":17.2,"minT24":3.3,"metarType":"METAR","rawOb":"METAR KENV 150556Z AUTO 27007KT 10SM CLR 08/M06 A3000 RMK AO2 SLP151 T00831061 10167 20083 401720033 50006","lat":40.7211,"lon":-114.0312,"elev":1291,"name":"Wendover Arpt, UT, US","cover":"CLR","clouds":[],"fltCat":"VFR"},{"icaoId":"KHND","receiptTime":"2026-04-15T05:58:24.331Z","obsTime":1776232560,"reportTime":"2026-04-15T06:00:00.000Z","temp":16.7,"dewp":-8.3,"wdir":170,"wspd":6,"visib":"10+","altim":1016,"slp":1016.2,"qcField":14,"presTend":0.8,"maxT":23.3,"minT":16.7,"metarType":"METAR","rawOb":"METAR KHND 150556Z AUTO 17006KT 10SM CLR 17/M08 A3000 RMK AO2 SLP162 T01671083 10233 20167 50008 $","lat":35.9657,"lon":-115.1343,"elev":740,"name":"Henderson Exec, NV, US","cover":"CLR","clouds":[],"fltCat":"VFR"},{"icaoId":"KSDF","receiptTime":"2026-04-15T06:00:49.192Z","obsTime":1776232560,"reportTime":"2026-04-15T06:00:00.000Z","temp":23.3,"dewp":15.6,"wdir":200,"wspd":9,"visib":"10+","altim":1015,"slp":1014.2,"qcField":4,"presTend":0.2,"maxT":26.7,"minT":23.3,"metarType":"METAR","rawOb":"METAR KSDF 150556Z 20009KT 10SM SCT250 23/16 A2997 RMK AO2 SLP142 T02330156 10267 20233 50002","lat":38.1774,"lon":-85.7308,"elev":146,"name":"Louisville Intl, KY, US","cover":"SCT","clouds":[{"cover":"SCT","base":25000}],"fltCat":"VFR"},{"icaoId":"KCOD","receiptTime":"2026-04-15T05:58:22.183Z","obsTime":1776232560,"reportTime":"2026-04-15T06:00:00.000Z","temp":8.9,"dewp":-6.7,"wdir":250,"wspd":13,"wgst":22,"visib":"10+","altim":1010.2,"slp":1007.8,"qcField":14,"presTend":-0.4,"maxT":12.8,"minT":8.3,"metarType":"METAR","rawOb":"METAR KCOD 150556Z AUTO 25013G22KT 220V290 10SM CLR 09/M07 A2983 RMK AO2 PK WND 25027/0520 SLP078 T00891067 10128 20083 58004 $","lat":44.52,"lon":-109.0268,"elev":1550,"name":"Cody/Yellowstone Rgnl, WY, US","cover":"CLR","clouds":[],"fltCat":"VFR"},{"icaoId":"KSDY","receiptTime":"2026-04-15T05:58:21.132Z","obsTime":1776232560,"reportTime":"2026-04-15T06:00:00.000Z","temp":6.7,"dewp":2.2,"wdir":200,"wspd":7,"visib":"10+","altim":1003.1,"slp":1004.1,"qcField":14,"presTend":-1,"maxT":20,"minT":6.7,"metarType":"METAR","rawOb":"METAR KSDY 150556Z AUTO 20007KT 10SM CLR 07/02 A2962 RMK AO2 SLP041 T00670022 10200 20067 58010 $","lat":47.7029,"lon":-104.1951,"elev":600,"name":"Sidney/Richland Muni, MT, US","cover":"CLR","clouds":[],"fltCat":"VFR"},{"icaoId":"KCGZ","receiptTime":"2026-04-15T05:58:22.105Z","obsTime":1776232560,"reportTime":"2026-04-15T06:00:00.000Z","temp":15.6,"dewp":-4.4,"wdir":0,"wspd":0,"visib":"10+","altim":1015.7,"slp":1014.8,"qcField":14,"presTend":1.1,"maxT":23.9,"minT":15.6,"metarType":"METAR","rawOb":"METAR KCGZ 150556Z AUTO 00000KT 10SM CLR 16/M04 A2999 RMK AO2 SLP148 6//// T01561044 10239 20156 51011 $","lat":32.9531,"lon":-111.7725,"elev":444,"name":"Casa Granda Muni, AZ, US","cover":"CLR","clouds":[],"fltCat":"VFR"},{"icaoId":"KGUC","receiptTime":"2026-04-15T05:58:24.243Z","obsTime":1776232560,"reportTime":"2026-04-15T06:00:00.000Z","temp":0,"dewp":-1.7,"wdir":360,"wspd":3,"visib":"10+","altim":1018,"slp":1018,"qcField":78,"presTend":0.4,"maxT":5,"minT":0,"maxT24":7.8,"metarType":"METAR","rawOb":"METAR KGUC 150556Z AUTO 36003KT 10SM SCT050 OVC090 00/M02 A3006 RMK AO2 SLP180 T00001017 10050 20000 400780000 50004 FZRANO $","lat":38.5322,"lon":-106.9419,"elev":2337,"name":"Gunnison Arpt, CO, US","cover":"OVC","clouds":[{"cover":"SCT","base":5000},{"cover":"OVC","base":9000}],"fltCat":"VFR"},{"icaoId":"KUKI","receiptTime":"2026-04-15T06:00:50.952Z","obsTime":1776232560,"reportTime":"2026-04-15T06:00:00.000Z","temp":8.9,"dewp":5,"wdir":0,"wspd":0,"visib":"10+","altim":1021.1,"slp":1020.8,"qcField":6,"presTend":1.3,"maxT":18.9,"minT":8.9,"metarType":"METAR","rawOb":"METAR KUKI 150556Z AUTO 00000KT 10SM CLR 09/05 A3015 RMK AO2 SLP208 T00890050 10189 20089 50013","lat":39.1278,"lon":-123.2001,"elev":183,"name":"Ukiah Muni, CA, US","cover":"CLR","clouds":[],"fltCat":"VFR"},{"icaoId":"KTPH","receiptTime":"2026-04-15T06:00:50.497Z","obsTime":1776232560,"reportTime":"2026-04-15T06:00:00.000Z","temp":8.3,"dewp":-8.3,"wdir":300,"wspd":10,"visib":"10+","altim":1017.7,"slp":1014.7,"qcField":6,"presTend":0.9,"maxT":16.1,"minT":7.2,"metarType":"METAR","rawOb":"METAR KTPH 150556Z AUTO 30010KT 10SM CLR 08/M08 A3005 RMK AO2 SLP147 T00831083 10161 20072 50009","lat":38.0505,"lon":-117.0906,"elev":1647,"name":"Tonopah Arpt, NV, US","cover":"CLR","clouds":[],"fltCat":"VFR"},{"icaoId":"KRDM","receiptTime":"2026-04-15T06:00:15.096Z","obsTime":1776232560,"reportTime":"2026-04-15T06:00:00.000Z","temp":6.1,"dewp":0,"wdir":210,"wspd":15,"wgst":22,"visib":"10+","altim":1012.6,"slp":1012.7,"qcField":6,"presTend":-0.4,"maxT":10,"minT":6.1,"metarType":"METAR","rawOb":"METAR KRDM 150556Z AUTO 21015G22KT 10SM BKN090 06/00 A2990 RMK AO2 SLP127 T00610000 10100 20061 58004","lat":44.2558,"lon":-121.1407,"elev":930,"name":"Redmond Muni, OR, US","cover":"BKN","clouds":[{"cover":"BKN","base":9000}],"fltCat":"VFR"},{"icaoId":"KBZN","receiptTime":"2026-04-15T06:00:30.031Z","obsTime":1776232560,"reportTime":"2026-04-15T06:00:00.000Z","temp":7.8,"dewp":-3.3,"wdir":190,"wspd":6,"visib":"10+","altim":1007.5,"slp":1006.9,"qcField":4,"maxT":15,"minT":7.2,"metarType":"METAR","rawOb":"METAR KBZN 150556Z 19006KT 10SM OVC090 08/M03 A2975 RMK AO2 SLP069 T00781033 10150 20072 50000","lat":45.7876,"lon":-111.1615,"elev":1349,"name":"Bozeman/Gallatin Fld, MT, US","cover":"OVC","clouds":[{"cover":"OVC","base":9000}],"fltCat":"VFR"},{"icaoId":"KVIS","receiptTime":"2026-04-15T05:58:20.553Z","obsTime":1776232560,"reportTime":"2026-04-15T06:00:00.000Z","temp":14.4,"dewp":7.2,"wdir":320,"wspd":4,"visib":"10+","altim":1018.4,"slp":1018.2,"qcField":14,"presTend":0.6,"maxT":23.3,"minT":14.4,"metarType":"METAR","rawOb":"METAR KVIS 150556Z AUTO 32004KT 10SM CLR 14/07 A3007 RMK AO2 SLP182 6//// T01440072 10233 20144 50006 PNO $","lat":36.3135,"lon":-119.3884,"elev":92,"name":"Visalia Muni, CA, US","cover":"CLR","clouds":[],"fltCat":"VFR"},{"icaoId":"KHDN","receiptTime":"2026-04-15T05:58:24.282Z","obsTime":1776232560,"reportTime":"2026-04-15T06:00:00.000Z","temp":0.6,"dewp":-1.1,"wdir":0,"wspd":0,"visib":"10+","altim":1017.7,"slp":1017.3,"qcField":70,"wxString":"-RA","presTend":0.9,"maxT":4.4,"minT":0,"maxT24":6.1,"precip":0.005,"pcp6hr":0.005,"metarType":"METAR","rawOb":"METAR KHDN 150556Z AUTO 00000KT 10SM -RA OVC043 01/M01 A3005 RMK AO2 UPB45E48RAB48 SLP173 P0000 60000 T00061011 10044 20000 400610000 51009 FZRANO","lat":40.4842,"lon":-107.2296,"elev":2012,"name":"Hayden/Yampa Valley Arpt, CO, US","cover":"OVC","clouds":[{"cover":"OVC","base":4300}],"fltCat":"VFR"},{"icaoId":"KCMA","receiptTime":"2026-04-15T05:58:22.141Z","obsTime":1776232500,"reportTime":"2026-04-15T06:00:00.000Z","temp":13.3,"dewp":11.1,"wdir":0,"wspd":0,"visib":"10+","altim":1017,"slp":1017.8,"qcField":6,"presTend":0.4,"maxT":20,"minT":13.3,"metarType":"METAR","rawOb":"METAR KCMA 150555Z AUTO 00000KT 10SM CLR 13/11 A3003 RMK AO2 SLP178 T01330111 10200 20133 50004","lat":34.2114,"lon":-119.0876,"elev":20,"name":"Camarillo Arpt, CA, US","cover":"CLR","clouds":[],"fltCat":"VFR"},{"icaoId":"KEND","receiptTime":"2026-04-15T06:16:06.465Z","obsTime":1776232500,"reportTime":"2026-04-15T06:00:00.000Z","temp":19.2,"dewp":16.6,"wdir":170,"wspd":16,"visib":"10+","altim":1007.9,"slp":1006.7,"qcField":14,"presTend":0.7,"maxT":25,"minT":18.8,"maxT24":29.8,"minT24":18.8,"pcp6hr":0.01,"metarType":"METAR","rawOb":"METAR KEND 150555Z AUTO 17016KT 10SM CLR 19/17 A2976 RMK AO2 SLP067 60001 T01920166 10250 20188 402980188 50007 $","lat":36.338,"lon":-97.919,"elev":392,"name":"Enid/Vance AFB, OK, US","cover":"CLR","clouds":[],"fltCat":"VFR"},{"icaoId":"KRNO","receiptTime":"2026-04-15T05:58:21.090Z","obsTime":1776232500,"reportTime":"2026-04-15T06:00:00.000Z","temp":9.4,"dewp":-0.6,"wdir":280,"wspd":4,"visib":"10+","altim":1019,"slp":1016.6,"qcField":4,"presTend":1.4,"maxT":16.7,"minT":8.9,"metarType":"METAR","rawOb":"METAR KRNO 150555Z 28004KT 10SM SCT140 09/M01 A3009 RMK AO2 SLP166 T00941006 10167 20089 51014","lat":39.5077,"lon":-119.7683,"elev":1344,"name":"Reno/Tahoe Intl, NV, US","cover":"SCT","clouds":[{"cover":"SCT","base":14000}],"fltCat":"VFR"},{"icaoId":"KGPI","receiptTime":"2026-04-15T05:58:24.187Z","obsTime":1776232500,"reportTime":"2026-04-15T06:00:00.000Z","temp":6.1,"dewp":-2.8,"wdir":240,"wspd":10,"visib":"10+","altim":1008.5,"slp":1009.3,"qcField":4,"presTend":-0.1,"maxT":8.9,"minT":5,"metarType":"METAR","rawOb":"METAR KGPI 150555Z 24010KT 10SM OVC048 06/M03 A2978 RMK AO2 SLP093 T00611028 10089 20050 58001","lat":48.3041,"lon":-114.2643,"elev":903,"name":"Kalispell/Glacier Park Intl, MT, US","cover":"OVC","clouds":[{"cover":"OVC","base":4800}],"fltCat":"VFR"},{"icaoId":"KLUF","receiptTime":"2026-04-15T06:08:13.909Z","obsTime":1776232500,"reportTime":"2026-04-15T06:00:00.000Z","temp":20.5,"dewp":-3.2,"wdir":200,"wspd":6,"visib":"10+","altim":1014,"slp":1013.1,"qcField":14,"presTend":1,"maxT":25.2,"minT":20.4,"metarType":"METAR","rawOb":"METAR KLUF 150555Z AUTO 20006KT 10SM CLR 21/M03 A2994 RMK AO2 SLP131 T02051032 10252 20204 50010 $","lat":33.538,"lon":-112.38,"elev":333,"name":"Phoenix/Luke AFB, AZ, US","cover":"CLR","clouds":[],"fltCat":"VFR"},{"icaoId":"KAPC","receiptTime":"2026-04-15T05:58:09.854Z","obsTime":1776232440,"reportTime":"2026-04-15T06:00:00.000Z","temp":8.9,"dewp":7.8,"wdir":0,"wspd":0,"visib":"10+","altim":1020.1,"slp":1019.1,"qcField":6,"maxT":16.7,"minT":7.8,"metarType":"METAR","rawOb":"METAR KAPC 150554Z AUTO 00000KT 10SM CLR 09/08 A3012 RMK AO2 SLP191 T00890078 10167 20078 50000","lat":38.2075,"lon":-122.2804,"elev":5,"name":"Napa Cnty Arpt, CA, US","cover":"CLR","clouds":[],"fltCat":"VFR"},{"icaoId":"KGCN","receiptTime":"2026-04-15T05:58:10.359Z","obsTime":1776232440,"reportTime":"2026-04-15T06:00:00.000Z","temp":-1.1,"dewp":-3.3,"wdir":60,"wspd":4,"visib":"10+","altim":1020.4,"slp":1018.7,"qcField":6,"presTend":0.9,"maxT":11.1,"minT":-1.7,"metarType":"METAR","rawOb":"METAR KGCN 150554Z AUTO 06004KT 10SM CLR M01/M03 A3013 RMK AO2 SLP187 T10111033 10111 21017 51009","lat":35.9458,"lon":-112.1554,"elev":1993,"name":"Grand Canyon Park Arpt, AZ, US","cover":"CLR","clouds":[],"fltCat":"VFR"},{"icaoId":"KBTV","receiptTime":"2026-04-15T05:58:05.776Z","obsTime":1776232440,"reportTime":"2026-04-15T06:00:00.000Z","temp":6.7,"dewp":5.6,"wdir":40,"wspd":5,"visib":9,"altim":1013.3,"slp":1013.2,"qcField":4,"presTend":1.3,"maxT":12.2,"minT":6.7,"pcp6hr":0.06,"metarType":"METAR","rawOb":"METAR KBTV 150554Z 04005KT 9SM OVC004 07/06 A2992 RMK AO2 SLP132 60006 T00670056 10122 20067 50013","lat":44.4682,"lon":-73.1499,"elev":101,"name":"Burlington Intl, VT, US","cover":"OVC","clouds":[{"cover":"OVC","base":400}],"fltCat":"LIFR"},{"icaoId":"KEUG","receiptTime":"2026-04-15T05:58:10.267Z","obsTime":1776232440,"reportTime":"2026-04-15T06:00:00.000Z","temp":8.9,"dewp":6.7,"wdir":170,"wspd":13,"visib":"10+","altim":1016.3,"slp":1016.3,"qcField":4,"wxString":"-RA","presTend":-1,"maxT":9.4,"minT":8.3,"precip":0.005,"pcp6hr":0.01,"metarType":"METAR","rawOb":"METAR KEUG 150554Z 17013KT 10SM -RA BKN026 BKN035 OVC055 09/07 A3001 RMK AO2 RAB52 SLP163 P0000 60001 T00890067 10094 20083 56010","lat":44.1331,"lon":-123.2156,"elev":109,"name":"Eugene/Mahlon Sweet Fld, OR, US","cover":"OVC","clouds":[{"cover":"BKN","base":2600},{"cover":"BKN","base":3500},{"cover":"OVC","base":5500}],"fltCat":"MVFR"},{"icaoId":"KPHL","receiptTime":"2026-04-15T06:00:48.326Z","obsTime":1776232440,"reportTime":"2026-04-15T06:00:00.000Z","temp":18.9,"dewp":16.7,"wdir":250,"wspd":5,"visib":"10+","altim":1013.6,"slp":1013.5,"qcField":13,"presTend":-0.7,"maxT":27.8,"minT":18.9,"precip":0.005,"pcp6hr":0.1,"metarType":"METAR","rawOb":"METAR KPHL 150554Z COR 25005KT 10SM BKN120 BKN180 19/17 A2993 RMK AO2 RAE13 SLP135 P0000 60010 T01890167 10278 20189 56007 $","lat":39.8733,"lon":-75.2268,"elev":2,"name":"Philadelphia Intl, PA, US","cover":"BKN","clouds":[{"cover":"BKN","base":12000},{"cover":"BKN","base":18000}],"fltCat":"VFR"},{"icaoId":"KOLM","receiptTime":"2026-04-15T05:58:07.967Z","obsTime":1776232440,"reportTime":"2026-04-15T06:00:00.000Z","temp":7.8,"dewp":6.7,"wdir":0,"wspd":0,"visib":3,"altim":1008.5,"slp":1008.6,"qcField":6,"wxString":"RA BR","maxT":8.3,"minT":7.8,"precip":0.2,"pcp6hr":0.54,"metarType":"METAR","rawOb":"METAR KOLM 150554Z AUTO 00000KT 3SM RA BR FEW007 SCT025 OVC034 08/07 A2978 RMK AO2 SLP086 P0020 60054 T00780067 10083 20078 55000","lat":46.9737,"lon":-122.9049,"elev":58,"name":"Olympia Rgnl, WA, US","cover":"OVC","clouds":[{"cover":"FEW","base":700},{"cover":"SCT","base":2500},{"cover":"OVC","base":3400}],"fltCat":"MVFR"},{"icaoId":"KSJN","receiptTime":"2026-04-15T05:58:13.330Z","obsTime":1776232440,"reportTime":"2026-04-15T06:00:00.000Z","temp":7.8,"dewp":-3.3,"wdir":240,"wspd":4,"visib":"10+","altim":1018.7,"slp":1013.9,"qcField":6,"presTend":1.3,"maxT":16.1,"minT":7.8,"metarType":"METAR","rawOb":"METAR KSJN 150554Z AUTO 24004KT 10SM CLR 08/M03 A3008 RMK AO2 SLP139 T00781033 10161 20078 50013","lat":34.5184,"lon":-109.3801,"elev":1747,"name":"St Johns Ind Arpt, AZ, US","cover":"CLR","clouds":[],"fltCat":"VFR"},{"icaoId":"KBUF","receiptTime":"2026-04-15T05:58:05.810Z","obsTime":1776232440,"reportTime":"2026-04-15T06:00:00.000Z","temp":12.2,"dewp":11.1,"wdir":100,"wspd":4,"visib":"10+","altim":1011.6,"slp":1011.3,"qcField":4,"presTend":-2.2,"maxT":14.4,"minT":12.2,"metarType":"METAR","rawOb":"METAR KBUF 150554Z 10004KT 10SM FEW080 BKN250 12/11 A2987 RMK AO2 SLP113 T01220111 10144 20122 58022","lat":42.94,"lon":-78.7361,"elev":217,"name":"Buffalo-Niagara Intl, NY, US","cover":"BKN","clouds":[{"cover":"FEW","base":8000},{"cover":"BKN","base":25000}],"fltCat":"VFR"},{"icaoId":"KSLC","receiptTime":"2026-04-15T05:58:13.344Z","obsTime":1776232440,"reportTime":"2026-04-15T06:00:00.000Z","temp":7.8,"dewp":-2.2,"wdir":130,"wspd":8,"visib":"10+","altim":1015.7,"slp":1013.8,"qcField":12,"presTend":0.3,"maxT":14.4,"minT":7.8,"metarType":"METAR","rawOb":"METAR KSLC 150554Z 13008KT 10SM FEW090 08/M02 A2999 RMK AO2 SLP138 T00781022 10144 20078 50003 $","lat":40.7707,"lon":-111.965,"elev":1286,"name":"Salt Lake City Intl, UT, US","cover":"FEW","clouds":[{"cover":"FEW","base":9000}],"fltCat":"VFR"},{"icaoId":"KCOS","receiptTime":"2026-04-15T05:58:05.862Z","obsTime":1776232440,"reportTime":"2026-04-15T06:00:00.000Z","temp":7.8,"dewp":-7.8,"wdir":300,"wspd":7,"visib":"10+","altim":1013,"slp":1009.3,"qcField":4,"presTend":0.4,"maxT":14.4,"minT":5.6,"metarType":"METAR","rawOb":"METAR KCOS 150554Z 30007KT 10SM FEW150 08/M08 A2991 RMK AO2 SLP093 T00781078 10144 20056 50004","lat":38.8095,"lon":-104.6887,"elev":1886,"name":"Colorado Spring Arpt, CO, US","cover":"FEW","clouds":[{"cover":"FEW","base":15000}],"fltCat":"VFR"},{"icaoId":"KDSM","receiptTime":"2026-04-15T05:58:05.912Z","obsTime":1776232440,"reportTime":"2026-04-15T06:00:00.000Z","temp":17.8,"dewp":15.6,"wdir":40,"wspd":8,"visib":"10+","altim":1006.2,"slp":1005.4,"qcField":4,"wxString":"-TSRA","presTend":0.8,"maxT":27.8,"minT":17.8,"maxT24":31.1,"minT24":17.8,"precip":0.005,"pcp6hr":0.02,"metarType":"METAR","rawOb":"METAR KDSM 150554Z 04008KT 10SM -TSRA SCT015 BKN050CB OVC140 18/16 A2971 RMK AO2 RAB07 PRESRR SLP054 CONS LTGICCCCG OHD-NE-W TS OHD-NE-W MOV NE P0000 60002 T01780156 10278 20178 403110178 53008","lat":41.5339,"lon":-93.6531,"elev":286,"name":"Des Moines Intl, IA, US","cover":"OVC","clouds":[{"cover":"SCT","base":1500},{"cover":"BKN","base":5000},{"cover":"OVC","base":14000}],"fltCat":"VFR"},{"icaoId":"KIND","receiptTime":"2026-04-15T05:58:07.273Z","obsTime":1776232440,"reportTime":"2026-04-15T06:00:00.000Z","temp":23.9,"dewp":15.6,"wdir":210,"wspd":18,"wgst":32,"visib":"10+","altim":1011.3,"slp":1010.5,"qcField":12,"presTend":-0.5,"maxT":25.6,"minT":23.3,"metarType":"METAR","rawOb":"METAR KIND 150554Z 21018G32KT 10SM FEW250 24/16 A2986 RMK AO2 PK WND 21034/0532 SLP105 T02390156 10256 20233 58005 $","lat":39.7252,"lon":-86.2816,"elev":242,"name":"Indianapolis Intl, IN, US","cover":"FEW","clouds":[{"cover":"FEW","base":25000}],"fltCat":"VFR"},{"icaoId":"KOLS","receiptTime":"2026-04-15T05:58:07.984Z","obsTime":1776232440,"reportTime":"2026-04-15T06:00:00.000Z","temp":11.7,"dewp":-4.4,"wdir":80,"wspd":4,"visib":"10+","altim":1017,"slp":1012.7,"qcField":6,"presTend":1.3,"maxT":22.8,"minT":11.1,"metarType":"METAR","rawOb":"METAR KOLS 150554Z AUTO 08004KT 10SM CLR 12/M04 A3003 RMK AO2 SLP127 T01171044 10228 20111 51013","lat":31.4208,"lon":-110.8465,"elev":1194,"name":"Nogales Intl, AZ, US","cover":"CLR","clouds":[],"fltCat":"VFR"},{"icaoId":"KRIC","receiptTime":"2026-04-15T05:58:10.633Z","obsTime":1776232440,"reportTime":"2026-04-15T06:00:00.000Z","temp":20.6,"dewp":10.6,"wdir":210,"wspd":5,"visib":"10+","altim":1015.3,"slp":1015.7,"qcField":4,"presTend":-0.1,"maxT":26.7,"minT":20.6,"metarType":"METAR","rawOb":"METAR KRIC 150554Z 21005KT 10SM CLR 21/11 A2998 RMK AO2 SLP157 T02060106 10267 20206 58001","lat":37.5115,"lon":-77.3234,"elev":51,"name":"Richmond Intl, VA, US","cover":"CLR","clouds":[],"fltCat":"VFR"},{"icaoId":"KFFZ","receiptTime":"2026-04-15T05:58:10.314Z","obsTime":1776232440,"reportTime":"2026-04-15T06:00:00.000Z","temp":18.9,"dewp":0,"wdir":60,"wspd":4,"visib":"10+","altim":1014.6,"slp":1012.9,"qcField":6,"presTend":1.2,"maxT":24.4,"minT":18.9,"metarType":"METAR","rawOb":"METAR KFFZ 150554Z AUTO 06004KT 10SM CLR 19/00 A2996 RMK AO2 SLP129 T01890000 10244 20189 51012","lat":33.4659,"lon":-111.7212,"elev":420,"name":"Mesa/Falcon Fld, AZ, US","cover":"CLR","clouds":[],"fltCat":"VFR"},{"icaoId":"KBOS","receiptTime":"2026-04-15T05:58:09.918Z","obsTime":1776232440,"reportTime":"2026-04-15T06:00:00.000Z","temp":18.9,"dewp":15,"wdir":250,"wspd":11,"visib":"10+","altim":1009.9,"slp":1009.7,"qcField":4,"presTend":-0.5,"maxT":21.1,"minT":13.9,"pcp6hr":0.2,"metarType":"METAR","rawOb":"METAR KBOS 150554Z 25011KT 10SM SCT070 19/15 A2982 RMK AO2 SLP097 60020 T01890150 10211 20139 56005","lat":42.3606,"lon":-71.0097,"elev":4,"name":"Boston/Logan Intl, MA, US","cover":"SCT","clouds":[{"cover":"SCT","base":7000}],"fltCat":"VFR"},{"icaoId":"KGSO","receiptTime":"2026-04-15T05:58:05.960Z","obsTime":1776232440,"reportTime":"2026-04-15T06:00:00.000Z","temp":18.3,"dewp":11.1,"wdir":220,"wspd":5,"visib":"10+","altim":1018,"slp":1016.8,"qcField":4,"presTend":-0.4,"maxT":25,"minT":18.3,"metarType":"METAR","rawOb":"METAR KGSO 150554Z 22005KT 10SM FEW250 18/11 A3006 RMK AO2 SLP168 T01830111 10250 20183 58004","lat":36.0969,"lon":-79.9432,"elev":275,"name":"Greensboro Intl, NC, US","cover":"FEW","clouds":[{"cover":"FEW","base":25000}],"fltCat":"VFR"},{"icaoId":"KBFL","receiptTime":"2026-04-15T05:58:09.905Z","obsTime":1776232440,"reportTime":"2026-04-15T06:00:00.000Z","temp":15,"dewp":6.1,"wdir":120,"wspd":5,"visib":"10+","altim":1018,"slp":1017.5,"qcField":12,"presTend":0.7,"maxT":22.8,"minT":12.8,"metarType":"METAR","rawOb":"METAR KBFL 150554Z 12005KT 10SM CLR 15/06 A3006 RMK AO2 SLP175 T01500061 10228 20128 50007 $","lat":35.4342,"lon":-119.0552,"elev":146,"name":"Bakersfield/Meadows Arpt, CA, US","cover":"CLR","clouds":[],"fltCat":"VFR"},{"icaoId":"KBWI","receiptTime":"2026-04-15T05:58:09.944Z","obsTime":1776232440,"reportTime":"2026-04-15T06:00:00.000Z","temp":18.3,"dewp":17.2,"wdir":190,"wspd":4,"visib":"10+","altim":1014.3,"slp":1013.9,"qcField":4,"presTend":-0.8,"maxT":26.7,"minT":17.8,"pcp6hr":0.04,"metarType":"METAR","rawOb":"METAR KBWI 150554Z 19004KT 10SM FEW100 FEW130 BKN250 18/17 A2995 RMK AO2 SLP139 60004 T01830172 10267 20178 56008","lat":39.1733,"lon":-76.684,"elev":42,"name":"Baltimore-Washington Intl, MD, US","cover":"BKN","clouds":[{"cover":"FEW","base":10000},{"cover":"FEW","base":13000},{"cover":"BKN","base":25000}],"fltCat":"VFR"},{"icaoId":"KMEM","receiptTime":"2026-04-15T05:58:07.661Z","obsTime":1776232440,"reportTime":"2026-04-15T06:00:00.000Z","temp":22.2,"dewp":14.4,"wdir":190,"wspd":7,"visib":"10+","altim":1016,"slp":1015.5,"qcField":12,"presTend":-0.7,"maxT":26.7,"minT":22.2,"maxT24":28.3,"minT24":19.4,"metarType":"METAR","rawOb":"METAR KMEM 150554Z 19007KT 10SM BKN250 22/14 A3000 RMK AO2 SLP155 T02220144 10267 20222 402830194 58007 $","lat":35.0564,"lon":-89.9864,"elev":78,"name":"Memphis Intl, TN, US","cover":"BKN","clouds":[{"cover":"BKN","base":25000}],"fltCat":"VFR"},{"icaoId":"KRKS","receiptTime":"2026-04-15T05:58:13.230Z","obsTime":1776232440,"reportTime":"2026-04-15T06:00:00.000Z","temp":2.8,"dewp":-6.7,"wdir":250,"wspd":13,"visib":"10+","altim":1016,"slp":1013.4,"qcField":6,"presTend":0.9,"maxT":12.2,"minT":1.7,"metarType":"METAR","rawOb":"METAR KRKS 150554Z AUTO 25013KT 10SM CLR 03/M07 A3000 RMK AO2 SLP134 T00281067 10122 20017 50009","lat":41.5947,"lon":-109.0529,"elev":2062,"name":"Rock Springs/SW Wyoming Rgnl, WY, US","cover":"CLR","clouds":[],"fltCat":"VFR"},{"icaoId":"KCPR","receiptTime":"2026-04-15T05:56:27.522Z","obsTime":1776232380,"reportTime":"2026-04-15T06:00:00.000Z","temp":3.9,"dewp":-9.4,"wdir":180,"wspd":11,"visib":"10+","altim":1009.9,"slp":1007.4,"qcField":6,"presTend":1.4,"maxT":16.1,"minT":2.8,"metarType":"METAR","rawOb":"METAR KCPR 150553Z AUTO 18011KT 10SM CLR 04/M09 A2982 RMK AO2 SLP074 T00391094 10161 20028 51014","lat":42.8978,"lon":-106.4736,"elev":1623,"name":"Casper/Natrona Cnty, WY, US","cover":"CLR","clouds":[],"fltCat":"VFR"},{"icaoId":"KLAX","receiptTime":"2026-04-15T05:58:06.044Z","obsTime":1776232380,"reportTime":"2026-04-15T06:00:00.000Z","temp":16.1,"dewp":12.8,"wdir":240,"wspd":6,"visib":"10+","altim":1017.4,"slp":1017,"qcField":5,"presTend":0.4,"maxT":19.4,"minT":15.6,"metarType":"METAR","rawOb":"METAR KLAX 150553Z COR 24006KT 10SM FEW012 16/13 A3004 RMK AO2 SLP170 T01610128 10194 20156 50004","lat":33.9382,"lon":-118.3866,"elev":30,"name":"Los Angeles Intl, CA, US","cover":"FEW","clouds":[{"cover":"FEW","base":1200}],"fltCat":"VFR"},{"icaoId":"KMSP","receiptTime":"2026-04-15T05:56:23.151Z","obsTime":1776232380,"reportTime":"2026-04-15T06:00:00.000Z","temp":11.7,"dewp":7.2,"wdir":30,"wspd":4,"visib":"10+","altim":1007.2,"slp":1007,"qcField":4,"presTend":-0.1,"maxT":17.2,"minT":11.7,"maxT24":17.8,"minT24":9.4,"metarType":"METAR","rawOb":"METAR KMSP 150553Z 03004KT 10SM SCT140 12/07 A2974 RMK AO2 SLP070 T01170072 10172 20117 401780094 58001","lat":44.8852,"lon":-93.2313,"elev":255,"name":"Minneapolis-St Paul Intl, MN, US","cover":"SCT","clouds":[{"cover":"SCT","base":14000}],"fltCat":"VFR"},{"icaoId":"KBRO","receiptTime":"2026-04-15T05:56:23.224Z","obsTime":1776232380,"reportTime":"2026-04-15T06:00:00.000Z","temp":25,"dewp":22.2,"wdir":140,"wspd":11,"wgst":20,"visib":"10+","altim":1014,"slp":1013.6,"qcField":6,"presTend":-0.3,"maxT":27.2,"minT":25,"maxT24":31.1,"minT24":24.4,"metarType":"METAR","rawOb":"METAR KBRO 150553Z AUTO 14011G20KT 10SM BKN014 OVC020 25/22 A2994 RMK AO2 SLP136 T02500222 10272 20250 403110244 58003","lat":25.9146,"lon":-97.4231,"elev":6,"name":"Brownsville Intl, TX, US","cover":"OVC","clouds":[{"cover":"BKN","base":1400},{"cover":"OVC","base":2000}],"fltCat":"MVFR"},{"icaoId":"KVEL","receiptTime":"2026-04-15T05:56:25.291Z","obsTime":1776232380,"reportTime":"2026-04-15T06:00:00.000Z","temp":3.9,"dewp":0.6,"wdir":0,"wspd":0,"visib":"10+","altim":1016.7,"slp":1015.4,"qcField":6,"presTend":0.7,"maxT":9.4,"minT":3.9,"metarType":"METAR","rawOb":"METAR KVEL 150553Z AUTO 00000KT 10SM CLR 04/01 A3002 RMK AO2 SLP154 T00390006 10094 20039 50007","lat":40.4429,"lon":-109.5128,"elev":1604,"name":"Vernal Rgnl, UT, US","cover":"CLR","clouds":[],"fltCat":"VFR"},{"icaoId":"KTUL","receiptTime":"2026-04-15T05:56:25.637Z","obsTime":1776232380,"reportTime":"2026-04-15T06:00:00.000Z","temp":17.2,"dewp":16.7,"wdir":170,"wspd":15,"wgst":23,"visib":"10+","altim":1011.9,"slp":1011.1,"qcField":4,"presTend":-0.7,"maxT":24.4,"minT":17.2,"maxT24":28.3,"minT24":14.4,"precip":0.05,"pcp6hr":1.08,"metarType":"METAR","rawOb":"METAR KTUL 150553Z 17015G23KT 10SM SCT008 SCT070 BKN100 17/17 A2988 RMK AO2 WSHFT 0503 RAE28 TSE48 SLP111 OCNL LTGICCC DSNT NE-S CB DSNT NE-S MOV NE TS MOV NE P0005 60108 T01720167 10244 20172 402830144 58007","lat":36.1985,"lon":-95.8782,"elev":196,"name":"Tulsa Intl Arpt, OK, US","cover":"BKN","clouds":[{"cover":"SCT","base":800},{"cover":"SCT","base":7000},{"cover":"BKN","base":10000}],"fltCat":"VFR"},{"icaoId":"KMCI","receiptTime":"2026-04-15T05:56:26.233Z","obsTime":1776232380,"reportTime":"2026-04-15T06:00:00.000Z","temp":22.2,"dewp":17.8,"wdir":200,"wspd":17,"wgst":26,"visib":"10+","altim":1005.5,"slp":1004.4,"qcField":4,"presTend":-1.6,"maxT":27.2,"minT":22.2,"maxT24":30,"minT24":21.7,"metarType":"METAR","rawOb":"METAR KMCI 150553Z 20017G26KT 10SM OVC240 22/18 A2969 RMK AO2 PK WND 20034/0456 SLP044 T02220178 10272 20222 403000217 56016","lat":39.2975,"lon":-94.7309,"elev":308,"name":"Kansas City Intl, MO, US","cover":"OVC","clouds":[{"cover":"OVC","base":24000}],"fltCat":"VFR"},{"icaoId":"KMFR","receiptTime":"2026-04-15T05:56:26.317Z","obsTime":1776232380,"reportTime":"2026-04-15T06:00:00.000Z","temp":8.9,"dewp":6.1,"wdir":310,"wspd":5,"visib":"10+","altim":1018.7,"slp":1018.8,"qcField":6,"presTend":0.1,"maxT":13.9,"minT":8.9,"pcp6hr":0.005,"metarType":"METAR","rawOb":"METAR KMFR 150553Z AUTO 31005KT 10SM FEW050 OVC075 09/06 A3008 RMK AO2 SLP188 60000 T00890061 10139 20089 50001","lat":42.375,"lon":-122.877,"elev":397,"name":"Medford/Rogue Valley Intl, OR, US","cover":"OVC","clouds":[{"cover":"FEW","base":5000},{"cover":"OVC","base":7500}],"fltCat":"VFR"},{"icaoId":"KMLC","receiptTime":"2026-04-15T05:56:26.480Z","obsTime":1776232380,"reportTime":"2026-04-15T06:00:00.000Z","temp":20.6,"dewp":16.1,"wdir":70,"wspd":4,"visib":"10+","altim":1013.6,"slp":1012.7,"qcField":6,"presTend":0.6,"maxT":23.3,"minT":20,"maxT24":26.7,"minT24":20,"pcp6hr":0.005,"metarType":"METAR","rawOb":"METAR KMLC 150553Z AUTO 07004KT 10SM OVC036 21/16 A2993 RMK AO2 SLP127 60000 T02060161 10233 20200 402670200 50006","lat":34.8824,"lon":-95.7815,"elev":231,"name":"McAlester Rgnl, OK, US","cover":"OVC","clouds":[{"cover":"OVC","base":3600}],"fltCat":"VFR"},{"icaoId":"KMLS","receiptTime":"2026-04-15T05:56:26.512Z","obsTime":1776232380,"reportTime":"2026-04-15T06:00:00.000Z","temp":8.3,"dewp":3.9,"wdir":160,"wspd":7,"visib":"10+","altim":1004.1,"slp":1003.7,"qcField":6,"presTend":-0.5,"maxT":17.8,"minT":8.3,"metarType":"METAR","rawOb":"METAR KMLS 150553Z AUTO 16007KT 10SM SCT100 BKN120 08/04 A2965 RMK AO2 SLP037 T00830039 10178 20083 58005","lat":46.4265,"lon":-105.8834,"elev":800,"name":"Miles City/Wiley Fld, MT, US","cover":"BKN","clouds":[{"cover":"SCT","base":10000},{"cover":"BKN","base":12000}],"fltCat":"VFR"},{"icaoId":"KMOD","receiptTime":"2026-04-15T05:56:26.571Z","obsTime":1776232380,"reportTime":"2026-04-15T06:00:00.000Z","temp":12.2,"dewp":7.2,"wdir":330,"wspd":7,"visib":"10+","altim":1019,"slp":1018.9,"qcField":6,"presTend":0.6,"maxT":21.7,"minT":12.2,"metarType":"METAR","rawOb":"METAR KMOD 150553Z AUTO 33007KT 10SM CLR 12/07 A3009 RMK AO2 SLP189 T01220072 10217 20122 50006","lat":37.6254,"lon":-120.9549,"elev":25,"name":"Modesto/Sham Fld, CA, US","cover":"CLR","clouds":[],"fltCat":"VFR"},{"icaoId":"KDEN","receiptTime":"2026-04-15T05:56:26.687Z","obsTime":1776232380,"reportTime":"2026-04-15T06:00:00.000Z","temp":8.9,"dewp":-3.3,"wdir":210,"wspd":6,"visib":"10+","altim":1011.6,"slp":1007.4,"qcField":4,"presTend":-0.6,"maxT":10.6,"minT":5,"pcp6hr":0.005,"metarType":"METAR","rawOb":"METAR KDEN 150553Z 21006KT 10SM SCT075 BKN095 BKN200 09/M03 A2987 RMK AO2 WSHFT 0440 SLP074 60000 T00891033 10106 20050 58006","lat":39.8466,"lon":-104.6562,"elev":1656,"name":"Denver Intl, CO, US","cover":"BKN","clouds":[{"cover":"SCT","base":7500},{"cover":"BKN","base":9500},{"cover":"BKN","base":20000}],"fltCat":"VFR"},{"icaoId":"KDRO","receiptTime":"2026-04-15T05:56:26.881Z","obsTime":1776232380,"reportTime":"2026-04-15T06:00:00.000Z","temp":2.8,"dewp":-1.7,"wdir":280,"wspd":3,"visib":"10+","altim":1018,"slp":1017.1,"qcField":6,"presTend":0.5,"maxT":8.9,"minT":2.8,"metarType":"METAR","rawOb":"METAR KDRO 150553Z AUTO 28003KT 10SM CLR 03/M02 A3006 RMK AO2 SLP171 T00281017 10089 20028 50005","lat":37.1431,"lon":-107.7602,"elev":2021,"name":"Durango/La Plata Cnty, CO, US","cover":"CLR","clouds":[],"fltCat":"VFR"},{"icaoId":"KGJT","receiptTime":"2026-04-15T05:56:27.036Z","obsTime":1776232380,"reportTime":"2026-04-15T06:00:00.000Z","temp":6.1,"dewp":3.3,"wdir":60,"wspd":7,"visib":"10+","altim":1017.4,"slp":1015.3,"qcField":6,"presTend":0.9,"maxT":10,"minT":6.1,"metarType":"METAR","rawOb":"METAR KGJT 150553Z AUTO 06007KT 10SM SCT040 BKN060 06/03 A3004 RMK AO2 SLP153 T00610033 10100 20061 51009","lat":39.1344,"lon":-108.5408,"elev":1475,"name":"Grand Junction Rgnl, CO, US","cover":"BKN","clouds":[{"cover":"SCT","base":4000},{"cover":"BKN","base":6000}],"fltCat":"VFR"},{"icaoId":"KTUS","receiptTime":"2026-04-15T05:56:27.875Z","obsTime":1776232380,"reportTime":"2026-04-15T06:00:00.000Z","temp":16.7,"dewp":-3.3,"wdir":270,"wspd":5,"visib":"10+","altim":1016.7,"slp":1013.4,"qcField":12,"presTend":1.6,"maxT":23.9,"minT":16.7,"metarType":"METAR","rawOb":"METAR KTUS 150553Z 27005KT 10SM CLR 17/M03 A3002 RMK AO2 SLP134 T01671033 10239 20167 51016 $","lat":32.1315,"lon":-110.9564,"elev":776,"name":"Tucson Intl Arpt, AZ, US","cover":"CLR","clouds":[],"fltCat":"VFR"},{"icaoId":"KTWF","receiptTime":"2026-04-15T05:56:28.057Z","obsTime":1776232380,"reportTime":"2026-04-15T06:00:00.000Z","temp":6.1,"dewp":0,"wdir":190,"wspd":11,"visib":"10+","altim":1013.3,"slp":1011,"qcField":6,"presTend":-0.7,"maxT":13.9,"minT":2.8,"metarType":"METAR","rawOb":"METAR KTWF 150553Z AUTO 19011KT 10SM CLR 06/00 A2992 RMK AO2 SLP110 T00610000 10139 20028 58007","lat":42.4785,"lon":-114.4775,"elev":1269,"name":"Twin Falls/Joslin Fld, ID, US","cover":"CLR","clouds":[],"fltCat":"VFR"},{"icaoId":"KCRQ","receiptTime":"2026-04-15T05:56:28.271Z","obsTime":1776232380,"reportTime":"2026-04-15T06:00:00.000Z","temp":16.1,"dewp":11.7,"wdir":0,"wspd":0,"visib":"10+","altim":1017.7,"slp":1017.3,"qcField":6,"presTend":1,"maxT":18.9,"minT":16.1,"metarType":"METAR","rawOb":"METAR KCRQ 150553Z AUTO 00000KT 10SM CLR 16/12 A3005 RMK AO2 SLP173 T01610117 10189 20161 50010","lat":33.1299,"lon":-117.2765,"elev":96,"name":"Carlsbad/Palomar Arpt, CA, US","cover":"CLR","clouds":[],"fltCat":"VFR"},{"icaoId":"KLBB","receiptTime":"2026-04-15T05:56:28.565Z","obsTime":1776232380,"reportTime":"2026-04-15T06:00:00.000Z","temp":20.6,"dewp":9.4,"wdir":200,"wspd":14,"visib":"10+","altim":1012.6,"slp":1007.7,"qcField":4,"presTend":0.3,"maxT":27.8,"minT":20.6,"maxT24":30,"minT24":18.9,"pcp6hr":0.005,"metarType":"METAR","rawOb":"METAR KLBB 150553Z 20014KT 10SM SCT120 SCT150 21/09 A2990 RMK AO2 SLP077 60000 T02060094 10278 20206 403000189 53003","lat":33.6658,"lon":-101.8233,"elev":996,"name":"Lubbock Intl Arpt, TX, US","cover":"SCT","clouds":[{"cover":"SCT","base":12000},{"cover":"SCT","base":15000}],"fltCat":"VFR"},{"icaoId":"KMSO","receiptTime":"2026-04-15T05:56:28.625Z","obsTime":1776232380,"reportTime":"2026-04-15T06:00:00.000Z","temp":6.1,"dewp":-0.6,"wdir":330,"wspd":3,"visib":"10+","altim":1010.2,"slp":1010.7,"qcField":6,"presTend":0.6,"maxT":12.2,"minT":6.1,"metarType":"METAR","rawOb":"METAR KMSO 150553Z AUTO 33003KT 10SM BKN046 BKN055 OVC070 06/M01 A2983 RMK AO2 SLP107 T00611006 10122 20061 50006","lat":46.9208,"lon":-114.0938,"elev":974,"name":"Missoula Intl, MT, US","cover":"OVC","clouds":[{"cover":"BKN","base":4600},{"cover":"BKN","base":5500},{"cover":"OVC","base":7000}],"fltCat":"VFR"},{"icaoId":"KAPA","receiptTime":"2026-04-15T05:56:22.725Z","obsTime":1776232380,"reportTime":"2026-04-15T06:00:00.000Z","temp":3.9,"dewp":-1.7,"wdir":180,"wspd":4,"visib":"10+","altim":1012.6,"slp":1010.4,"qcField":4,"maxT":9.4,"minT":3.3,"pcp6hr":0.005,"metarType":"METAR","rawOb":"METAR KAPA 150553Z 18004KT 10SM FEW110 FEW140 04/M02 A2990 RMK AO2 SLP104 60000 T00391017 10094 20033 50000","lat":39.5599,"lon":-104.8484,"elev":1791,"name":"Denver/Centennial Arpt, CO, US","cover":"FEW","clouds":[{"cover":"FEW","base":11000},{"cover":"FEW","base":14000}],"fltCat":"VFR"},{"icaoId":"KDAL","receiptTime":"2026-04-15T05:56:28.314Z","obsTime":1776232380,"reportTime":"2026-04-15T06:00:00.000Z","temp":23.3,"dewp":19.4,"wdir":160,"wspd":9,"visib":"10+","altim":1013.3,"slp":1012.5,"qcField":4,"presTend":0.4,"maxT":26.1,"minT":23.3,"maxT24":26.7,"minT24":22.2,"metarType":"METAR","rawOb":"METAR KDAL 150553Z 16009KT 10SM FEW040 SCT170 OVC250 23/19 A2992 RMK AO2 SLP125 T02330194 10261 20233 402670222 50004","lat":32.8384,"lon":-96.8358,"elev":148,"name":"Dallas/Love Fld, TX, US","cover":"OVC","clouds":[{"cover":"FEW","base":4000},{"cover":"SCT","base":17000},{"cover":"OVC","base":25000}],"fltCat":"VFR"},{"icaoId":"KDFW","receiptTime":"2026-04-15T05:56:26.748Z","obsTime":1776232380,"reportTime":"2026-04-15T06:00:00.000Z","temp":23.3,"dewp":18.3,"wdir":170,"wspd":14,"wgst":20,"visib":"10+","altim":1012.6,"slp":1011.7,"qcField":4,"presTend":0.1,"maxT":26.1,"minT":23.3,"maxT24":26.1,"minT24":21.7,"metarType":"METAR","rawOb":"METAR KDFW 150553Z 17014G20KT 10SM SCT160 BKN190 OVC250 23/18 A2990 RMK AO2 SLP117 T02330183 10261 20233 402610217 50001","lat":32.8974,"lon":-97.022,"elev":168,"name":"Dallas-Ft Worth Intl, TX, US","cover":"OVC","clouds":[{"cover":"SCT","base":16000},{"cover":"BKN","base":19000},{"cover":"OVC","base":25000}],"fltCat":"VFR"},{"icaoId":"KPRC","receiptTime":"2026-04-15T05:56:18.585Z","obsTime":1776232380,"reportTime":"2026-04-15T06:00:00.000Z","temp":9.4,"dewp":-1.1,"wdir":90,"wspd":5,"visib":"10+","altim":1018.7,"slp":1014.3,"qcField":6,"presTend":1,"maxT":15,"minT":8.3,"metarType":"METAR","rawOb":"METAR KPRC 150553Z AUTO 09005KT 10SM CLR 09/M01 A3008 RMK AO2 SLP143 T00941011 10150 20083 51010","lat":34.6491,"lon":-112.4223,"elev":1528,"name":"Prescott/Love Fld, AZ, US","cover":"CLR","clouds":[],"fltCat":"VFR"},{"icaoId":"KLOL","receiptTime":"2026-04-15T05:56:25.087Z","obsTime":1776232380,"reportTime":"2026-04-15T06:00:00.000Z","temp":10,"dewp":-1.7,"wdir":130,"wspd":6,"visib":"10+","altim":1016.3,"slp":1014.9,"qcField":6,"presTend":0.8,"maxT":18.9,"minT":9.4,"metarType":"METAR","rawOb":"METAR KLOL 150553Z AUTO 13006KT 10SM CLR 10/M02 A3001 RMK AO2 SLP149 T01001017 10189 20094 50008","lat":40.0684,"lon":-118.5702,"elev":1191,"name":"Lovelock/Derby Fld, NV, US","cover":"CLR","clouds":[],"fltCat":"VFR"},{"icaoId":"KPDX","receiptTime":"2026-04-15T05:56:27.607Z","obsTime":1776232380,"reportTime":"2026-04-15T06:00:00.000Z","temp":9.4,"dewp":6.7,"wdir":190,"wspd":14,"wgst":20,"visib":"10+","altim":1012.6,"slp":1012.3,"qcField":12,"wxString":"-RA","presTend":-1.6,"maxT":9.4,"minT":8.9,"precip":0.03,"pcp6hr":0.09,"metarType":"METAR","rawOb":"METAR KPDX 150553Z 19014G20KT 10SM -RA BKN019 OVC046 09/07 A2990 RMK AO2 SLP123 P0003 60009 T00940067 10094 20089 58016 $","lat":45.5958,"lon":-122.6092,"elev":7,"name":"Portland Intl, OR, US","cover":"OVC","clouds":[{"cover":"BKN","base":1900},{"cover":"OVC","base":4600}],"fltCat":"MVFR"},{"icaoId":"KSTS","receiptTime":"2026-04-15T05:56:24.227Z","obsTime":1776232380,"reportTime":"2026-04-15T06:00:00.000Z","temp":8.3,"dewp":7.8,"wdir":310,"wspd":3,"visib":"10+","altim":1020.4,"slp":1019.5,"qcField":6,"presTend":0.5,"maxT":18.3,"minT":8.3,"metarType":"METAR","rawOb":"METAR KSTS 150553Z AUTO 31003KT 10SM CLR 08/08 A3013 RMK AO2 SLP195 T00830078 10183 20083 50005","lat":38.5037,"lon":-122.811,"elev":35,"name":"Santa Rosa/Schulz Arpt, CA, US","cover":"CLR","clouds":[],"fltCat":"VFR"},{"icaoId":"KBIL","receiptTime":"2026-04-15T05:56:20.848Z","obsTime":1776232380,"reportTime":"2026-04-15T06:00:00.000Z","temp":10.6,"dewp":-5.6,"wdir":240,"wspd":12,"visib":"10+","altim":1005.8,"slp":1004.4,"qcField":4,"presTend":-0.1,"maxT":18.3,"minT":10.6,"metarType":"METAR","rawOb":"METAR KBIL 150553Z 24012KT 10SM CLR 11/M06 A2970 RMK AO2 SLP044 T01061056 10183 20106 58001","lat":45.8072,"lon":-108.5462,"elev":1089,"name":"Billings/Logan Intl, MT, US","cover":"CLR","clouds":[],"fltCat":"VFR"},{"icaoId":"KFUL","receiptTime":"2026-04-15T05:56:20.330Z","obsTime":1776232380,"reportTime":"2026-04-15T06:00:00.000Z","temp":16.1,"dewp":10,"wdir":160,"wspd":3,"visib":"10+","altim":1017,"slp":1016.9,"qcField":6,"presTend":0.8,"maxT":21.7,"minT":16.1,"metarType":"METAR","rawOb":"METAR KFUL 150553Z AUTO 16003KT 10SM CLR 16/10 A3003 RMK AO2 SLP169 T01610100 10217 20161 50008","lat":33.8715,"lon":-117.9856,"elev":23,"name":"Fullerton Muni, CA, US","cover":"CLR","clouds":[],"fltCat":"VFR"},{"icaoId":"KCYS","receiptTime":"2026-04-15T05:56:26.646Z","obsTime":1776232380,"reportTime":"2026-04-15T06:00:00.000Z","temp":5,"dewp":-3.9,"wdir":280,"wspd":15,"wgst":23,"visib":"10+","altim":1010.9,"slp":1007,"qcField":14,"presTend":-0.3,"maxT":6.1,"minT":5,"pcp6hr":0.005,"metarType":"METAR","rawOb":"METAR KCYS 150553Z AUTO 28015G23KT 10SM CLR 05/M04 A2985 RMK AO2 SLP070 60000 T00501039 10061 20050 55003 $","lat":41.1579,"lon":-104.8081,"elev":1868,"name":"Cheyenne Rgnl, WY, US","cover":"CLR","clouds":[],"fltCat":"VFR"},{"icaoId":"KCDC","receiptTime":"2026-04-15T05:56:27.317Z","obsTime":1776232380,"reportTime":"2026-04-15T06:00:00.000Z","temp":5.6,"dewp":0.6,"wdir":"VRB","wspd":3,"visib":"10+","altim":1018,"slp":1015.6,"qcField":6,"presTend":0.6,"maxT":11.7,"minT":5.6,"metarType":"METAR","rawOb":"METAR KCDC 150553Z AUTO VRB03KT 10SM CLR 06/01 A3006 RMK AO2 SLP156 T00560006 10117 20056 50006","lat":37.7067,"lon":-113.097,"elev":1703,"name":"Cedar City Muni, UT, US","cover":"CLR","clouds":[],"fltCat":"VFR"},{"icaoId":"KMYR","receiptTime":"2026-04-15T05:56:23.823Z","obsTime":1776232380,"reportTime":"2026-04-15T06:00:00.000Z","temp":19.4,"dewp":15.6,"wdir":230,"wspd":8,"visib":"10+","altim":1020.4,"slp":1020.3,"qcField":14,"presTend":-0.6,"maxT":21.1,"minT":18.9,"metarType":"METAR","rawOb":"METAR KMYR 150553Z AUTO 23008KT 10SM CLR 19/16 A3013 RMK AO2 SLP203 T01940156 10211 20189 58006 $","lat":33.6769,"lon":-78.9325,"elev":7,"name":"Myrtle Beach Intl, SC, US","cover":"CLR","clouds":[],"fltCat":"VFR"},{"icaoId":"KACV","receiptTime":"2026-04-15T05:56:22.485Z","obsTime":1776232380,"reportTime":"2026-04-15T06:00:00.000Z","temp":7.8,"dewp":6.1,"wdir":90,"wspd":3,"visib":"10+","altim":1022.1,"slp":1022.5,"qcField":6,"presTend":-0.1,"maxT":12.8,"minT":7.8,"metarType":"METAR","rawOb":"METAR KACV 150553Z AUTO 09003KT 10SM FEW110 08/06 A3018 RMK AO2 SLP225 T00780061 10128 20078 58001","lat":40.9784,"lon":-124.1048,"elev":63,"name":"Arcata Arpt, CA, US","cover":"FEW","clouds":[{"cover":"FEW","base":11000}],"fltCat":"VFR"},{"icaoId":"KBLI","receiptTime":"2026-04-15T05:56:21.711Z","obsTime":1776232380,"reportTime":"2026-04-15T06:00:00.000Z","temp":6.1,"dewp":3.9,"wdir":220,"wspd":4,"visib":"10+","altim":1007.5,"slp":1008.1,"qcField":6,"presTend":1.2,"maxT":8.9,"minT":6.1,"pcp6hr":0.17,"metarType":"METAR","rawOb":"METAR KBLI 150553Z AUTO 22004KT 10SM CLR 06/04 A2975 RMK AO2 SLP081 60017 T00610039 10089 20061 51012","lat":48.7991,"lon":-122.5407,"elev":46,"name":"Bellingham Intl, WA, US","cover":"CLR","clouds":[],"fltCat":"VFR"},{"icaoId":"KPNC","receiptTime":"2026-04-15T05:56:18.527Z","obsTime":1776232380,"reportTime":"2026-04-15T06:00:00.000Z","temp":18.9,"dewp":16.7,"wdir":170,"wspd":13,"wgst":22,"visib":"10+","altim":1009.9,"slp":1008.7,"qcField":6,"presTend":3.1,"maxT":25.6,"minT":18.9,"maxT24":28.9,"minT24":18.9,"pcp6hr":0.03,"metarType":"METAR","rawOb":"METAR KPNC 150553Z AUTO 17013G22KT 10SM FEW014 19/17 A2982 RMK AO2 PK WND 18026/0507 SLP087 60003 T01890167 10256 20189 402890189 51031","lat":36.7369,"lon":-97.1024,"elev":304,"name":"Ponca City Rgnl, OK, US","cover":"FEW","clouds":[{"cover":"FEW","base":1400}],"fltCat":"VFR"},{"icaoId":"KSHR","receiptTime":"2026-04-15T05:56:19.161Z","obsTime":1776232380,"reportTime":"2026-04-15T06:00:00.000Z","temp":5.6,"dewp":-3.3,"wdir":270,"wspd":10,"visib":"10+","altim":1007.2,"slp":1006.7,"qcField":6,"presTend":0.1,"maxT":16.1,"minT":2.2,"metarType":"METAR","rawOb":"METAR KSHR 150553Z AUTO 27010KT 10SM CLR 06/M03 A2974 RMK AO2 SLP067 T00561033 10161 20022 50001","lat":44.7603,"lon":-106.9741,"elev":1212,"name":"Sheridan Cnty Arpt, WY, US","cover":"CLR","clouds":[],"fltCat":"VFR"},{"icaoId":"KSWO","receiptTime":"2026-04-15T05:56:19.379Z","obsTime":1776232380,"reportTime":"2026-04-15T06:00:00.000Z","temp":17.8,"dewp":16.1,"wdir":160,"wspd":8,"visib":"10+","altim":1010.2,"slp":1009.1,"qcField":6,"presTend":2.1,"maxT":25,"minT":17.8,"maxT24":29.4,"minT24":17.8,"pcp6hr":0.1,"metarType":"METAR","rawOb":"METAR KSWO 150553Z AUTO 16008KT 10SM CLR 18/16 A2983 RMK AO2 SLP091 60010 T01780161 10250 20178 402940178 50021","lat":36.1624,"lon":-97.0832,"elev":293,"name":"Stillwater Muni, OK, US","cover":"CLR","clouds":[],"fltCat":"VFR"},{"icaoId":"KGSP","receiptTime":"2026-04-15T05:56:19.624Z","obsTime":1776232380,"reportTime":"2026-04-15T06:00:00.000Z","temp":17.8,"dewp":10.6,"wdir":240,"wspd":5,"visib":"10+","altim":1019.4,"slp":1018.4,"qcField":6,"presTend":-0.5,"maxT":25,"minT":17.2,"metarType":"METAR","rawOb":"METAR KGSP 150553Z AUTO 24005KT 10SM CLR 18/11 A3010 RMK AO2 SLP184 T01780106 10250 20172 56005","lat":34.8842,"lon":-82.2209,"elev":285,"name":"Greenville-Spartanburg Intl, SC, US","cover":"CLR","clouds":[],"fltCat":"VFR"},{"icaoId":"PANC","receiptTime":"2026-04-15T05:56:20.572Z","obsTime":1776232380,"reportTime":"2026-04-15T06:00:00.000Z","temp":1.7,"dewp":-5.6,"wdir":230,"wspd":8,"visib":"10+","altim":1011.3,"slp":1011.4,"qcField":4,"presTend":0.5,"maxT":5,"minT":1.7,"snow":14000,"metarType":"METAR","rawOb":"METAR PANC 150553Z 23008KT 10SM FEW180 02/M06 A2986 RMK AO2 SLP114 4/014 T00171056 10050 20017 53005","lat":61.1691,"lon":-150.0277,"elev":39,"name":"Anchorage Intl, AK, US","cover":"FEW","clouds":[{"cover":"FEW","base":18000}],"fltCat":"VFR"},{"icaoId":"KFMN","receiptTime":"2026-04-15T05:56:20.917Z","obsTime":1776232380,"reportTime":"2026-04-15T06:00:00.000Z","temp":5.6,"dewp":-2.2,"wdir":270,"wspd":4,"visib":"10+","altim":1017.7,"slp":1016.5,"qcField":6,"presTend":0.9,"maxT":12.8,"minT":5.6,"metarType":"METAR","rawOb":"METAR KFMN 150553Z AUTO 27004KT 10SM CLR 06/M02 A3005 RMK AO2 SLP165 T00561022 10128 20056 50009","lat":36.7435,"lon":-108.2293,"elev":1677,"name":"Farmington/Four Corners Rgnl, NM, US","cover":"CLR","clouds":[],"fltCat":"VFR"},{"icaoId":"KLGB","receiptTime":"2026-04-15T05:56:21.169Z","obsTime":1776232380,"reportTime":"2026-04-15T06:00:00.000Z","temp":16.1,"dewp":12.2,"wdir":0,"wspd":0,"visib":"10+","altim":1017,"slp":1017,"qcField":12,"presTend":0.7,"maxT":21.1,"minT":16.1,"metarType":"METAR","rawOb":"METAR KLGB 150553Z 00000KT 10SM CLR 16/12 A3003 RMK AO2 SLP170 T01610122 10211 20161 51007 $","lat":33.8118,"lon":-118.1472,"elev":10,"name":"Long Beach Arpt, CA, US","cover":"CLR","clouds":[],"fltCat":"VFR"},{"icaoId":"KMTJ","receiptTime":"2026-04-15T05:56:21.302Z","obsTime":1776232380,"reportTime":"2026-04-15T06:00:00.000Z","temp":4.4,"dewp":1.7,"wdir":0,"wspd":0,"visib":"10+","altim":1018.7,"slp":1015.2,"qcField":6,"presTend":1,"maxT":8.3,"minT":3.9,"pcp6hr":0.01,"metarType":"METAR","rawOb":"METAR KMTJ 150553Z AUTO 00000KT 10SM BKN050 OVC070 04/02 A3008 RMK AO2 SLP152 60001 T00440017 10083 20039 51010","lat":38.5054,"lon":-107.8981,"elev":1755,"name":"Montrose Rgnl, CO, US","cover":"OVC","clouds":[{"cover":"BKN","base":5000},{"cover":"OVC","base":7000}],"fltCat":"VFR"},{"icaoId":"KOAK","receiptTime":"2026-04-15T05:56:21.414Z","obsTime":1776232380,"reportTime":"2026-04-15T06:00:00.000Z","temp":12.2,"dewp":7.8,"wdir":250,"wspd":11,"visib":"10+","altim":1021.1,"slp":1021,"qcField":12,"presTend":0.3,"maxT":16.1,"minT":12.2,"metarType":"METAR","rawOb":"METAR KOAK 150553Z 25011KT 10SM FEW015 12/08 A3015 RMK AO2 SLP210 T01220078 10161 20122 50003 $","lat":37.7178,"lon":-122.233,"elev":3,"name":"Oakland Intl, CA, US","cover":"FEW","clouds":[{"cover":"FEW","base":1500}],"fltCat":"VFR"},{"icaoId":"KBCE","receiptTime":"2026-04-15T05:56:21.486Z","obsTime":1776232380,"reportTime":"2026-04-15T06:00:00.000Z","temp":-2.8,"dewp":-3.9,"wdir":260,"wspd":5,"visib":"10+","altim":1020.4,"slp":1017.1,"qcField":6,"presTend":1,"maxT":7.2,"minT":-3.3,"metarType":"METAR","rawOb":"METAR KBCE 150553Z AUTO 26005KT 10SM CLR M03/M04 A3013 RMK AO2 SLP171 T10281039 10072 21033 51010","lat":37.7013,"lon":-112.149,"elev":2311,"name":"Bryce Canyon Arpt, UT, US","cover":"CLR","clouds":[],"fltCat":"VFR"},{"icaoId":"KASE","receiptTime":"2026-04-15T05:56:22.802Z","obsTime":1776232380,"reportTime":"2026-04-15T06:00:00.000Z","temp":0,"dewp":-0.6,"wdir":0,"wspd":0,"visib":"10+","altim":1018,"slp":1013.5,"qcField":6,"presTend":0.8,"maxT":3.9,"minT":0,"precip":0.005,"pcp6hr":0.005,"metarType":"METAR","rawOb":"METAR KASE 150553Z AUTO 00000KT 10SM SCT028 BKN039 OVC060 00/M01 A3006 RMK AO2 SNB0454E19 SLP135 P0000 60000 T00001006 10039 20000 51008","lat":39.2299,"lon":-106.8705,"elev":2384,"name":"Aspen/Pitkin Cnty, CO, US","cover":"OVC","clouds":[{"cover":"SCT","base":2800},{"cover":"BKN","base":3900},{"cover":"OVC","base":6000}],"fltCat":"VFR"},{"icaoId":"KSMF","receiptTime":"2026-04-15T05:56:24.187Z","obsTime":1776232380,"reportTime":"2026-04-15T06:00:00.000Z","temp":11.1,"dewp":7.8,"wdir":180,"wspd":8,"visib":"10+","altim":1018.7,"slp":1018.5,"qcField":12,"presTend":0.4,"maxT":20.6,"minT":11.1,"metarType":"METAR","rawOb":"METAR KSMF 150553Z 18008KT 10SM CLR 11/08 A3008 RMK AO2 SLP185 T01110078 10206 20111 50004 $","lat":38.7007,"lon":-121.5948,"elev":7,"name":"Sacramento Intl, CA, US","cover":"CLR","clouds":[],"fltCat":"VFR"},{"icaoId":"KIWA","receiptTime":"2026-04-15T05:53:35.707Z","obsTime":1776232380,"reportTime":"2026-04-15T06:00:00.000Z","temp":19,"dewp":-3,"wdir":0,"wspd":0,"visib":"10+","altim":1015.3,"qcField":0,"metarType":"METAR","rawOb":"METAR KIWA 150553Z 00000KT 10SM CLR 19/M03 A2998","lat":33.3008,"lon":-111.6437,"elev":420,"name":"Phoenix/Mesa Gateway Arpt, AZ, US","cover":"CLR","clouds":[],"fltCat":"VFR"},{"icaoId":"KBTM","receiptTime":"2026-04-15T05:56:21.888Z","obsTime":1776232380,"reportTime":"2026-04-15T06:00:00.000Z","temp":7.8,"dewp":-6.1,"wdir":280,"wspd":10,"wgst":17,"visib":"10+","altim":1008.9,"slp":1007.2,"qcField":6,"presTend":0.3,"maxT":11.7,"minT":7.8,"metarType":"METAR","rawOb":"METAR KBTM 150553Z AUTO 28010G17KT 10SM OVC065 08/M06 A2979 RMK AO2 SLP072 T00781061 10117 20078 53003","lat":45.9644,"lon":-112.5015,"elev":1680,"name":"Butte/Mooney Arpt, MT, US","cover":"OVC","clouds":[{"cover":"OVC","base":6500}],"fltCat":"VFR"},{"icaoId":"KBUR","receiptTime":"2026-04-15T05:56:21.902Z","obsTime":1776232380,"reportTime":"2026-04-15T06:00:00.000Z","temp":15,"dewp":8.9,"wdir":320,"wspd":4,"visib":"10+","altim":1017.4,"slp":1016.4,"qcField":4,"presTend":0.8,"maxT":21.1,"minT":15,"metarType":"METAR","rawOb":"METAR KBUR 150553Z 32004KT 10SM CLR 15/09 A3004 RMK AO2 SLP164 T01500089 10211 20150 50008","lat":34.1996,"lon":-118.3654,"elev":221,"name":"Burbank/Bob Hope Arpt, CA, US","cover":"CLR","clouds":[],"fltCat":"VFR"},{"icaoId":"KGEG","receiptTime":"2026-04-15T05:56:28.371Z","obsTime":1776232380,"reportTime":"2026-04-15T06:00:00.000Z","temp":5.6,"dewp":0,"wdir":190,"wspd":13,"wgst":26,"visib":"10+","altim":1008.5,"slp":1009.4,"qcField":4,"presTend":-0.9,"maxT":6.1,"minT":4.4,"pcp6hr":0.03,"metarType":"METAR","rawOb":"METAR KGEG 150553Z 19013G26KT 10SM BKN065 OVC110 06/00 A2978 RMK AO2 PK WND 19030/0455 SLP094 60003 T00560000 10061 20044 58009","lat":47.6217,"lon":-117.528,"elev":718,"name":"Spokane Intl, WA, US","cover":"OVC","clouds":[{"cover":"BKN","base":6500},{"cover":"OVC","base":11000}],"fltCat":"VFR"},{"icaoId":"KBOI","receiptTime":"2026-04-15T05:56:23.168Z","obsTime":1776232380,"reportTime":"2026-04-15T06:00:00.000Z","temp":11.1,"dewp":2.8,"wdir":0,"wspd":0,"visib":"10+","altim":1013,"slp":1012.2,"qcField":4,"presTend":0.8,"maxT":15.6,"minT":11.1,"metarType":"METAR","rawOb":"METAR KBOI 150553Z 00000KT 10SM BKN075 OVC095 11/03 A2991 RMK AO2 SLP122 T01110028 10156 20111 53008","lat":43.567,"lon":-116.2406,"elev":860,"name":"Boise Arpt, ID, US","cover":"OVC","clouds":[{"cover":"BKN","base":7500},{"cover":"OVC","base":9500}],"fltCat":"VFR"},{"icaoId":"KIDA","receiptTime":"2026-04-15T05:56:24.994Z","obsTime":1776232380,"reportTime":"2026-04-15T06:00:00.000Z","temp":7.2,"dewp":-2.2,"wdir":200,"wspd":14,"visib":"10+","altim":1013,"slp":1012.7,"qcField":6,"presTend":-0.1,"maxT":12.2,"minT":6.7,"metarType":"METAR","rawOb":"METAR KIDA 150553Z AUTO 20014KT 10SM CLR 07/M02 A2991 RMK AO2 SLP127 T00721022 10122 20067 58001","lat":43.5204,"lon":-112.0675,"elev":1444,"name":"Idaho Falls Rgnl, ID, US","cover":"CLR","clouds":[],"fltCat":"VFR"},{"icaoId":"KLVS","receiptTime":"2026-04-15T05:56:25.218Z","obsTime":1776232380,"reportTime":"2026-04-15T06:00:00.000Z","temp":7.2,"dewp":-9.4,"wdir":230,"wspd":3,"visib":"10+","altim":1016,"slp":1008.8,"qcField":14,"presTend":0.7,"maxT":15,"minT":5,"metarType":"METAR","rawOb":"METAR KLVS 150553Z AUTO 23003KT 10SM CLR 07/M09 A3000 RMK AO2 SLP088 6//// T00721094 10150 20050 51007 PNO $","lat":35.6558,"lon":-105.1385,"elev":2095,"name":"Las Vegas Muni, NM, US","cover":"CLR","clouds":[],"fltCat":"VFR"},{"icaoId":"KVGT","receiptTime":"2026-04-15T05:56:25.305Z","obsTime":1776232380,"reportTime":"2026-04-15T06:00:00.000Z","temp":18.3,"dewp":-3.9,"wdir":290,"wspd":4,"visib":"10+","altim":1014.6,"slp":1014.8,"qcField":6,"presTend":1,"maxT":23.3,"minT":17.8,"metarType":"METAR","rawOb":"METAR KVGT 150553Z AUTO 29004KT 10SM CLR 18/M04 A2996 RMK AO2 SLP148 T01831039 10233 20178 50010","lat":36.212,"lon":-115.194,"elev":664,"name":"Las Vegas/North Arpt, NV, US","cover":"CLR","clouds":[],"fltCat":"VFR"},{"icaoId":"KTPA","receiptTime":"2026-04-15T05:56:25.576Z","obsTime":1776232380,"reportTime":"2026-04-15T06:00:00.000Z","temp":21.7,"dewp":17.2,"wdir":110,"wspd":8,"visib":"10+","altim":1021.1,"slp":1020.8,"qcField":4,"presTend":-0.8,"maxT":24.4,"minT":21.7,"metarType":"METAR","rawOb":"METAR KTPA 150553Z 11008KT 10SM CLR 22/17 A3015 RMK AO2 SLP208 T02170172 10244 20217 58008","lat":27.9633,"lon":-82.54,"elev":2,"name":"Tampa Intl Arpt, FL, US","cover":"CLR","clouds":[],"fltCat":"VFR"},{"icaoId":"KPBI","receiptTime":"2026-04-15T05:56:25.980Z","obsTime":1776232380,"reportTime":"2026-04-15T06:00:00.000Z","temp":22.8,"dewp":13.3,"wdir":100,"wspd":12,"wgst":20,"visib":"10+","altim":1020.7,"slp":1020.4,"qcField":12,"presTend":-1.4,"maxT":23.9,"minT":22.8,"metarType":"METAR","rawOb":"METAR KPBI 150553Z 10012G20KT 10SM SCT040 23/13 A3014 RMK AO2 SLP204 T02280133 10239 20228 58014 $","lat":26.6851,"lon":-80.0992,"elev":4,"name":"Palm Beach Intl, FL, US","cover":"SCT","clouds":[{"cover":"SCT","base":4000}],"fltCat":"VFR"},{"icaoId":"KPIH","receiptTime":"2026-04-15T05:56:26.062Z","obsTime":1776232380,"reportTime":"2026-04-15T06:00:00.000Z","temp":6.1,"dewp":-1.7,"wdir":210,"wspd":8,"visib":"10+","altim":1013.6,"slp":1012.8,"qcField":6,"presTend":0.2,"maxT":13.3,"minT":5.6,"metarType":"METAR","rawOb":"METAR KPIH 150553Z AUTO 21008KT 10SM CLR 06/M02 A2993 RMK AO2 SLP128 T00611017 10133 20056 50002","lat":42.9197,"lon":-112.5723,"elev":1357,"name":"Pocatello Rgnl, ID, US","cover":"CLR","clouds":[],"fltCat":"VFR"},{"icaoId":"KMDW","receiptTime":"2026-04-15T05:56:26.288Z","obsTime":1776232380,"reportTime":"2026-04-15T06:00:00.000Z","temp":18.9,"dewp":17.8,"wdir":130,"wspd":8,"visib":"10+","altim":1006.9,"slp":1005.9,"qcField":4,"presTend":1.7,"maxT":27.2,"minT":17.8,"maxT24":27.8,"minT24":13.9,"precip":0.01,"pcp6hr":0.41,"metarType":"METAR","rawOb":"METAR KMDW 150553Z 13008KT 10SM FEW016 BKN032 OVC050 19/18 A2973 RMK AO2 RAE03 TSE10 SLP059 CONS LTGICCG DSNT N-E CB DSNT N-E P0001 60041 T01890178 10272 20178 402780139 50017","lat":41.7841,"lon":-87.7552,"elev":186,"name":"Chicago/Midway Intl, IL, US","cover":"OVC","clouds":[{"cover":"FEW","base":1600},{"cover":"BKN","base":3200},{"cover":"OVC","base":5000}],"fltCat":"VFR"},{"icaoId":"KDLN","receiptTime":"2026-04-15T05:56:26.821Z","obsTime":1776232380,"reportTime":"2026-04-15T06:00:00.000Z","temp":7.2,"dewp":-6.1,"wdir":220,"wspd":11,"visib":"10+","altim":1009.2,"slp":1006.8,"qcField":6,"presTend":0.4,"maxT":14.4,"minT":6.7,"metarType":"METAR","rawOb":"METAR KDLN 150553Z AUTO 22011KT 10SM BKN080 BKN090 07/M06 A2980 RMK AO2 SLP068 T00721061 10144 20067 51004","lat":45.2584,"lon":-112.5546,"elev":1586,"name":"Dillon Arpt, MT, US","cover":"BKN","clouds":[{"cover":"BKN","base":8000},{"cover":"BKN","base":9000}],"fltCat":"VFR"},{"icaoId":"KEVW","receiptTime":"2026-04-15T05:56:27.246Z","obsTime":1776232380,"reportTime":"2026-04-15T06:00:00.000Z","temp":0,"dewp":-5.6,"wdir":220,"wspd":9,"visib":"10+","altim":1017,"slp":1015.3,"qcField":14,"presTend":0.3,"maxT":7.2,"minT":-1.7,"metarType":"METAR","rawOb":"METAR KEVW 150553Z AUTO 22009KT 10SM FEW060 00/M06 A3003 RMK AO2 SLP153 T00001056 10072 21017 50003 $","lat":41.2727,"lon":-111.0305,"elev":2178,"name":"Evanston/Uinta Cnty, WY, US","cover":"FEW","clouds":[{"cover":"FEW","base":6000}],"fltCat":"VFR"},{"icaoId":"KSEA","receiptTime":"2026-04-15T05:56:27.721Z","obsTime":1776232380,"reportTime":"2026-04-15T06:00:00.000Z","temp":7.2,"dewp":6.1,"wdir":230,"wspd":7,"visib":6,"altim":1008.2,"slp":1008.8,"qcField":4,"wxString":"-RA BR","presTend":-0.7,"maxT":8.3,"minT":7.2,"precip":0.15,"pcp6hr":0.52,"metarType":"METAR","rawOb":"METAR KSEA 150553Z 23007KT 6SM -RA BR OVC033 07/06 A2977 RMK AO2 SLP088 P0015 60052 T00720061 10083 20072 55007","lat":47.4447,"lon":-122.3144,"elev":115,"name":"Seattle-Tacoma Intl, WA, US","cover":"OVC","clouds":[{"cover":"OVC","base":3300}],"fltCat":"VFR"},{"icaoId":"KCLL","receiptTime":"2026-04-15T05:56:28.243Z","obsTime":1776232380,"reportTime":"2026-04-15T06:00:00.000Z","temp":22.8,"dewp":19.4,"wdir":170,"wspd":13,"visib":"10+","altim":1015.7,"slp":1015,"qcField":6,"presTend":0.6,"maxT":27.8,"minT":22.8,"maxT24":29.4,"minT24":21.1,"metarType":"METAR","rawOb":"METAR KCLL 150553Z AUTO 17013KT 10SM BKN018 OVC040 23/19 A2999 RMK AO2 SLP150 T02280194 10278 20228 402940211 50006","lat":30.5912,"lon":-96.3631,"elev":96,"name":"College Station/Easterwood Arpt, TX, US","cover":"OVC","clouds":[{"cover":"BKN","base":1800},{"cover":"OVC","base":4000}],"fltCat":"MVFR"},{"icaoId":"KCNY","receiptTime":"2026-04-15T05:56:28.257Z","obsTime":1776232380,"reportTime":"2026-04-15T06:00:00.000Z","temp":7.8,"dewp":4.4,"wdir":130,"wspd":5,"visib":"10+","altim":1016.3,"slp":1015.8,"qcField":14,"presTend":0.9,"maxT":11.1,"minT":7.2,"metarType":"METAR","rawOb":"METAR KCNY 150553Z AUTO 13005KT 10SM CLR 08/04 A3001 RMK AO2 SLP158 T00780044 10111 20072 51009 $","lat":38.7501,"lon":-109.7627,"elev":1392,"name":"Moab/Canyonland Fld, UT, US","cover":"CLR","clouds":[],"fltCat":"VFR"},{"icaoId":"KDMN","receiptTime":"2026-04-15T05:56:28.343Z","obsTime":1776232380,"reportTime":"2026-04-15T06:00:00.000Z","temp":11.7,"dewp":-4.4,"wdir":230,"wspd":6,"visib":"10+","altim":1016.7,"slp":1011,"qcField":6,"presTend":2,"maxT":24.4,"minT":11.1,"metarType":"METAR","rawOb":"METAR KDMN 150553Z AUTO 23006KT 10SM CLR 12/M04 A3002 RMK AO2 SLP110 T01171044 10244 20111 51020","lat":32.2592,"lon":-107.7206,"elev":1310,"name":"Deming Muni, NM, US","cover":"CLR","clouds":[],"fltCat":"VFR"},{"icaoId":"KFAT","receiptTime":"2026-04-15T05:56:22.195Z","obsTime":1776232380,"reportTime":"2026-04-15T06:00:00.000Z","temp":16.7,"dewp":7.2,"wdir":310,"wspd":11,"visib":"10+","altim":1018.4,"slp":1017.8,"qcField":4,"presTend":0.5,"maxT":22.8,"minT":16.7,"metarType":"METAR","rawOb":"METAR KFAT 150553Z 31011KT 10SM CLR 17/07 A3007 RMK AO2 SLP178 T01670072 10228 20167 50005","lat":36.78,"lon":-119.7202,"elev":102,"name":"Fresno/Yosemite Intl, CA, US","cover":"CLR","clouds":[],"fltCat":"VFR"},{"icaoId":"KMAF","receiptTime":"2026-04-15T05:56:26.164Z","obsTime":1776232380,"reportTime":"2026-04-15T06:00:00.000Z","temp":16.7,"dewp":15.6,"wdir":160,"wspd":5,"visib":9,"altim":1013.3,"slp":1009.1,"qcField":6,"presTend":-0.3,"maxT":23.9,"minT":16.7,"maxT24":30.6,"minT24":16.7,"pcp6hr":0.03,"metarType":"METAR","rawOb":"METAR KMAF 150553Z AUTO 16005KT 9SM CLR 17/16 A2992 RMK AO2 SLP091 60003 T01670156 10239 20167 403060167 58003","lat":31.9475,"lon":-102.2086,"elev":874,"name":"Midland Intl, TX, US","cover":"CLR","clouds":[],"fltCat":"VFR"},{"icaoId":"KHIO","receiptTime":"2026-04-15T05:56:19.844Z","obsTime":1776232380,"reportTime":"2026-04-15T06:00:00.000Z","temp":8.9,"dewp":7.2,"wdir":170,"wspd":17,"wgst":25,"visib":"10+","altim":1011.3,"slp":1011.3,"qcField":6,"wxString":"-RA","presTend":-1.9,"maxT":9.4,"minT":8.3,"precip":0.04,"pcp6hr":0.19,"metarType":"METAR","rawOb":"METAR KHIO 150553Z AUTO 17017G25KT 10SM -RA SCT013 SCT018 OVC035 09/07 A2986 RMK AO2 SLP113 P0004 60019 T00890072 10094 20083 58019","lat":45.5476,"lon":-122.9557,"elev":62,"name":"Portland/Hillsboro Arpt, OR, US","cover":"OVC","clouds":[{"cover":"SCT","base":1300},{"cover":"SCT","base":1800},{"cover":"OVC","base":3500}],"fltCat":"VFR"},{"icaoId":"KOGD","receiptTime":"2026-04-15T05:56:25.724Z","obsTime":1776232380,"reportTime":"2026-04-15T06:00:00.000Z","temp":6.7,"dewp":-1.1,"wdir":170,"wspd":8,"visib":"10+","altim":1015.3,"slp":1013.2,"qcField":6,"presTend":0.1,"maxT":13.3,"minT":6.7,"metarType":"METAR","rawOb":"METAR KOGD 150553Z AUTO 17008KT 10SM SCT085 07/M01 A2998 RMK AO2 SLP132 T00671011 10133 20067 50001","lat":41.1941,"lon":-112.0168,"elev":1356,"name":"Ogden/Hinckley Arpt, UT, US","cover":"SCT","clouds":[{"cover":"SCT","base":8500}],"fltCat":"VFR"},{"icaoId":"KSNA","receiptTime":"2026-04-15T05:56:24.200Z","obsTime":1776232380,"reportTime":"2026-04-15T06:00:00.000Z","temp":17.2,"dewp":9.4,"wdir":0,"wspd":0,"visib":"10+","altim":1017.4,"slp":1017.3,"qcField":12,"presTend":0.8,"maxT":20,"minT":17.2,"metarType":"METAR","rawOb":"METAR KSNA 150553Z 00000KT 10SM FEW020 17/09 A3004 RMK AO2 SLP173 LAST T01720094 10200 20172 50008 $","lat":33.6798,"lon":-117.8675,"elev":14,"name":"Santa Ana/Wayne Arpt, CA, US","cover":"FEW","clouds":[{"cover":"FEW","base":2000}],"fltCat":"VFR"},{"icaoId":"KPSP","receiptTime":"2026-04-15T05:56:18.613Z","obsTime":1776232380,"reportTime":"2026-04-15T06:00:00.000Z","temp":22.2,"dewp":5.6,"wdir":320,"wspd":12,"wgst":16,"visib":"10+","altim":1014.6,"slp":1014.5,"qcField":14,"presTend":1.6,"maxT":28.3,"minT":22.2,"metarType":"METAR","rawOb":"METAR KPSP 150553Z AUTO 32012G16KT 10SM CLR 22/06 A2996 RMK AO2 SLP145 T02220056 10283 20222 51016 $","lat":33.8222,"lon":-116.5043,"elev":123,"name":"Palm Springs Intl, CA, US","cover":"CLR","clouds":[],"fltCat":"VFR"},{"icaoId":"KRIW","receiptTime":"2026-04-15T05:56:27.646Z","obsTime":1776232380,"reportTime":"2026-04-15T06:00:00.000Z","temp":6.1,"dewp":-7.8,"wdir":310,"wspd":19,"visib":"10+","altim":1010.2,"slp":1007.8,"qcField":6,"presTend":0.7,"maxT":15.6,"minT":6.1,"metarType":"METAR","rawOb":"METAR KRIW 150553Z AUTO 31019KT 10SM CLR 06/M08 A2983 RMK AO2 PK WND 30033/0457 SLP078 T00611078 10156 20061 50007","lat":43.0622,"lon":-108.4471,"elev":1662,"name":"Riverton Rgnl, WY, US","cover":"CLR","clouds":[],"fltCat":"VFR"},{"icaoId":"KSAF","receiptTime":"2026-04-15T05:56:19.010Z","obsTime":1776232380,"reportTime":"2026-04-15T06:00:00.000Z","temp":6.1,"dewp":-8.3,"wdir":320,"wspd":4,"visib":"","altim":1017.4,"slp":1011.2,"qcField":14,"presTend":1.3,"maxT":15,"minT":4.4,"metarType":"METAR","rawOb":"METAR KSAF 150553Z AUTO 32004KT BKN110 06/M08 A3004 RMK AO2 SLP112 T00611083 10150 20044 51013 $","lat":35.611,"lon":-106.0957,"elev":1918,"name":"Santa Fe Cnty Muni, NM, US","cover":"BKN","clouds":[{"cover":"BKN","base":11000}]},{"icaoId":"KMCO","receiptTime":"2026-04-15T05:56:26.261Z","obsTime":1776232380,"reportTime":"2026-04-15T06:00:00.000Z","temp":19.4,"dewp":16.7,"wdir":130,"wspd":6,"visib":"10+","altim":1021.4,"slp":1021.2,"qcField":4,"presTend":-1.3,"maxT":23.9,"minT":19.4,"metarType":"METAR","rawOb":"METAR KMCO 150553Z 13006KT 10SM CLR 19/17 A3016 RMK AO2 SLP212 T01940167 10239 20194 58013","lat":28.4182,"lon":-81.3241,"elev":27,"name":"Orlando Intl, FL, US","cover":"CLR","clouds":[],"fltCat":"VFR"},{"icaoId":"KYKM","receiptTime":"2026-04-15T05:56:27.764Z","obsTime":1776232380,"reportTime":"2026-04-15T06:00:00.000Z","temp":8.9,"dewp":1.7,"wdir":180,"wspd":17,"wgst":26,"visib":"10+","altim":1007.9,"slp":1008.1,"qcField":6,"presTend":-0.8,"maxT":12.2,"minT":8.3,"metarType":"METAR","rawOb":"METAR KYKM 150553Z AUTO 18017G26KT 10SM FEW090 SCT110 09/02 A2976 RMK AO2 PK WND 18028/0514 SLP081 T00890017 10122 20083 58008","lat":46.564,"lon":-120.5349,"elev":319,"name":"Yakima/McAllister Fld, WA, US","cover":"SCT","clouds":[{"cover":"FEW","base":9000},{"cover":"SCT","base":11000}],"fltCat":"VFR"},{"icaoId":"KPGA","receiptTime":"2026-04-15T05:56:27.620Z","obsTime":1776232380,"reportTime":"2026-04-15T06:00:00.000Z","temp":11.7,"dewp":-0.6,"wdir":260,"wspd":5,"visib":"10+","altim":1017.4,"slp":1014.4,"qcField":6,"presTend":1.4,"maxT":16.7,"minT":11.1,"metarType":"METAR","rawOb":"METAR KPGA 150553Z AUTO 26005KT 10SM CLR 12/M01 A3004 RMK AO2 SLP144 T01171006 10167 20111 51014","lat":36.9211,"lon":-111.4487,"elev":1310,"name":"Page Muni, AZ, US","cover":"CLR","clouds":[],"fltCat":"VFR"},{"icaoId":"KSDL","receiptTime":"2026-04-15T05:56:19.057Z","obsTime":1776232380,"reportTime":"2026-04-15T06:00:00.000Z","temp":20,"dewp":-1.1,"wdir":50,"wspd":4,"visib":"10+","altim":1015.3,"slp":1013.4,"qcField":6,"presTend":1.3,"maxT":24.4,"minT":19.4,"metarType":"METAR","rawOb":"METAR KSDL 150553Z AUTO 05004KT 10SM CLR 20/M01 A2998 RMK AO2 SLP134 T02001011 10244 20194 51013","lat":33.6123,"lon":-111.9232,"elev":438,"name":"Scottsdale Muni, AZ, US","cover":"CLR","clouds":[],"fltCat":"VFR"},{"icaoId":"KMIA","receiptTime":"2026-04-15T05:56:26.394Z","obsTime":1776232380,"reportTime":"2026-04-15T06:00:00.000Z","temp":22.8,"dewp":13.9,"wdir":110,"wspd":8,"visib":"10+","altim":1020.1,"slp":1019.8,"qcField":0,"presTend":-1.3,"maxT":24.4,"minT":22.8,"metarType":"METAR","rawOb":"METAR KMIA 150553Z 11008KT 10SM BKN045 23/14 A3012 RMK SLP198 T02280139 10244 20228 58013","lat":25.7881,"lon":-80.3169,"elev":1,"name":"Miami Intl, FL, US","cover":"BKN","clouds":[{"cover":"BKN","base":4500}],"fltCat":"VFR"},{"icaoId":"KLAR","receiptTime":"2026-04-15T05:56:21.038Z","obsTime":1776232380,"reportTime":"2026-04-15T06:00:00.000Z","temp":1.1,"dewp":-3.9,"wdir":220,"wspd":12,"visib":"10+","altim":1013,"slp":1010.2,"qcField":6,"presTend":0.7,"maxT":4.4,"minT":0,"metarType":"METAR","rawOb":"METAR KLAR 150553Z AUTO 22012KT 10SM CLR 01/M04 A2991 RMK AO2 SLP102 T00111039 10044 20000 53007","lat":41.3165,"lon":-105.6729,"elev":2217,"name":"Laramie Rgnl, WY, US","cover":"CLR","clouds":[],"fltCat":"VFR"},{"icaoId":"KMSY","receiptTime":"2026-04-15T05:56:21.273Z","obsTime":1776232380,"reportTime":"2026-04-15T06:00:00.000Z","temp":20.6,"dewp":18.3,"wdir":120,"wspd":9,"visib":"10+","altim":1019,"slp":1019.3,"qcField":12,"presTend":-0.9,"maxT":24.4,"minT":20.6,"maxT24":27.2,"minT24":18.9,"metarType":"METAR","rawOb":"METAR KMSY 150553Z 12009KT 10SM FEW028 21/18 A3009 RMK AO2 SLP193 T02060183 10244 20206 402720189 58009 $","lat":29.9974,"lon":-90.2777,"elev":0,"name":"New Orleans/Armstrong Intl, LA, US","cover":"FEW","clouds":[{"cover":"FEW","base":2800}],"fltCat":"VFR"},{"icaoId":"KONT","receiptTime":"2026-04-15T05:56:25.795Z","obsTime":1776232380,"reportTime":"2026-04-15T06:00:00.000Z","temp":15,"dewp":7.8,"wdir":230,"wspd":3,"visib":"10+","altim":1017.7,"slp":1016.8,"qcField":12,"presTend":1.3,"maxT":22.8,"minT":15,"metarType":"METAR","rawOb":"METAR KONT 150553Z 23003KT 10SM CLR 15/08 A3005 RMK AO2 SLP168 T01500078 10228 20150 50013 $","lat":34.0531,"lon":-117.5769,"elev":279,"name":"Ontario Intl, CA, US","cover":"CLR","clouds":[],"fltCat":"VFR"},{"icaoId":"KCNM","receiptTime":"2026-04-15T05:56:27.482Z","obsTime":1776232380,"reportTime":"2026-04-15T06:00:00.000Z","temp":17.8,"dewp":1.7,"wdir":210,"wspd":4,"visib":"10+","altim":1013,"slp":1007.8,"qcField":6,"presTend":0.9,"maxT":26.1,"minT":16.7,"metarType":"METAR","rawOb":"METAR KCNM 150553Z AUTO 21004KT 10SM CLR 18/02 A2991 RMK AO2 SLP078 T01780017 10261 20167 51009","lat":32.3336,"lon":-104.2584,"elev":993,"name":"Carlsbad/Cavern City Air Term, NM, US","cover":"CLR","clouds":[],"fltCat":"VFR"},{"icaoId":"KAMA","receiptTime":"2026-04-15T05:56:22.633Z","obsTime":1776232380,"reportTime":"2026-04-15T06:00:00.000Z","temp":17.2,"dewp":-0.6,"wdir":230,"wspd":10,"visib":"10+","altim":1011.3,"slp":1006.4,"qcField":6,"presTend":0.4,"maxT":25.6,"minT":16.1,"maxT24":27.2,"minT24":10.6,"metarType":"METAR","rawOb":"METAR KAMA 150553Z AUTO 23010KT 10SM CLR 17/M01 A2986 RMK AO2 SLP064 T01721006 10256 20161 402720106 50004","lat":35.2203,"lon":-101.7173,"elev":1102,"name":"Amarillo Intl Arpt, TX, US","cover":"CLR","clouds":[],"fltCat":"VFR"},{"icaoId":"KELY","receiptTime":"2026-04-15T05:56:28.186Z","obsTime":1776232380,"reportTime":"2026-04-15T06:00:00.000Z","temp":0.6,"dewp":-2.8,"wdir":170,"wspd":7,"visib":"10+","altim":1018.4,"slp":1015.8,"qcField":14,"presTend":1.1,"maxT":12.2,"minT":0.6,"metarType":"METAR","rawOb":"METAR KELY 150553Z AUTO 17007KT 10SM CLR 01/M03 A3007 RMK AO2 SLP158 T00061028 10122 20006 51011 $","lat":39.2954,"lon":-114.8466,"elev":1906,"name":"Ely/Yelland Fld, NV, US","cover":"CLR","clouds":[],"fltCat":"VFR"},{"icaoId":"KBFI","receiptTime":"2026-04-15T05:56:21.572Z","obsTime":1776232380,"reportTime":"2026-04-15T06:00:00.000Z","temp":8.3,"dewp":6.7,"wdir":"VRB","wspd":4,"visib":5,"altim":1008.2,"slp":1008.1,"qcField":4,"wxString":"-RA BR","presTend":-0.7,"maxT":8.9,"minT":8.3,"precip":0.11,"pcp6hr":0.33,"metarType":"METAR","rawOb":"METAR KBFI 150553Z VRB04KT 5SM -RA BR OVC040 08/07 A2977 RMK AO2 SLP081 P0011 60033 T00830067 10089 20083 56007","lat":47.5455,"lon":-122.3148,"elev":7,"name":"Seattle/Boeing Fld, WA, US","cover":"OVC","clouds":[{"cover":"OVC","base":4000}],"fltCat":"MVFR"},{"icaoId":"KRTN","receiptTime":"2026-04-15T05:56:18.879Z","obsTime":1776232380,"reportTime":"2026-04-15T06:00:00.000Z","temp":7.2,"dewp":-9.4,"wdir":300,"wspd":5,"visib":"10+","altim":1015,"slp":1008.8,"qcField":14,"presTend":1.1,"maxT":16.1,"minT":6.1,"metarType":"METAR","rawOb":"METAR KRTN 150553Z AUTO 30005KT 10SM 07/M09 A2997 RMK AO2 SLP088 T00721094 10161 20061 51011 $","lat":36.7418,"lon":-104.5076,"elev":1939,"name":"Raton/Crews Fld, NM, US"},{"icaoId":"KPSC","receiptTime":"2026-04-15T05:56:18.599Z","obsTime":1776232380,"reportTime":"2026-04-15T06:00:00.000Z","temp":11.7,"dewp":1.7,"wdir":220,"wspd":13,"wgst":20,"visib":"10+","altim":1010.9,"slp":1010.9,"qcField":6,"presTend":-0.9,"maxT":12.8,"minT":11.7,"metarType":"METAR","rawOb":"METAR KPSC 150553Z AUTO 22013G20KT 10SM OVC090 12/02 A2985 RMK AO2 SLP109 T01170017 10128 20117 58009","lat":46.2695,"lon":-119.1182,"elev":121,"name":"Pasco/Tri Cities Arpt, WA, US","cover":"OVC","clouds":[{"cover":"OVC","base":9000}],"fltCat":"VFR"},{"icaoId":"KPUB","receiptTime":"2026-04-15T05:56:18.639Z","obsTime":1776232380,"reportTime":"2026-04-15T06:00:00.000Z","temp":9.4,"dewp":-7.8,"wdir":300,"wspd":10,"visib":"10+","altim":1011.9,"slp":1008,"qcField":14,"presTend":0.9,"maxT":18.9,"minT":7.8,"metarType":"METAR","rawOb":"METAR KPUB 150553Z AUTO 30010KT 10SM CLR 09/M08 A2988 RMK AO2 SLP080 T00941078 10189 20078 51009 $","lat":38.2887,"lon":-104.5057,"elev":1441,"name":"Pueblo Mem Arpt, CO, US","cover":"CLR","clouds":[],"fltCat":"VFR"},{"icaoId":"KPUW","receiptTime":"2026-04-15T05:56:18.665Z","obsTime":1776232380,"reportTime":"2026-04-15T06:00:00.000Z","temp":6.7,"dewp":0.6,"wdir":220,"wspd":11,"visib":"10+","altim":1011.6,"slp":1012.2,"qcField":6,"presTend":-1.1,"maxT":8.3,"minT":5,"pcp6hr":0.005,"metarType":"METAR","rawOb":"METAR KPUW 150553Z AUTO 22011KT 10SM FEW047 BKN055 OVC085 07/01 A2987 RMK AO2 SLP122 60000 T00670006 10083 20050 58011","lat":46.7438,"lon":-117.1158,"elev":774,"name":"Pullman/Moscow Rgnl, WA, US","cover":"OVC","clouds":[{"cover":"FEW","base":4700},{"cover":"BKN","base":5500},{"cover":"OVC","base":8500}],"fltCat":"VFR"},{"icaoId":"KRDD","receiptTime":"2026-04-15T05:56:18.763Z","obsTime":1776232380,"reportTime":"2026-04-15T06:00:00.000Z","temp":14.4,"dewp":10,"wdir":0,"wspd":0,"visib":"10+","altim":1017.7,"slp":1017.3,"qcField":4,"presTend":0.7,"maxT":20,"minT":14.4,"metarType":"METAR","rawOb":"METAR KRDD 150553Z 00000KT 10SM BKN060 14/10 A3005 RMK AO2 SLP173 T01440100 10200 20144 51007","lat":40.5146,"lon":-122.2977,"elev":152,"name":"Redding Muni, CA, US","cover":"BKN","clouds":[{"cover":"BKN","base":6000}],"fltCat":"VFR"},{"icaoId":"KSBA","receiptTime":"2026-04-15T05:56:19.025Z","obsTime":1776232380,"reportTime":"2026-04-15T06:00:00.000Z","temp":12.8,"dewp":10,"wdir":0,"wspd":0,"visib":"10+","altim":1016.7,"slp":1016.6,"qcField":14,"presTend":0.9,"maxT":20,"minT":12.8,"metarType":"METAR","rawOb":"METAR KSBA 150553Z AUTO 00000KT 10SM CLR 13/10 A3002 RMK AO2 SLP166 T01280100 10200 20128 51009 $","lat":34.4241,"lon":-119.8425,"elev":2,"name":"Santa Barbara Muni, CA, US","cover":"CLR","clouds":[],"fltCat":"VFR"},{"icaoId":"KSJC","receiptTime":"2026-04-15T05:56:19.187Z","obsTime":1776232380,"reportTime":"2026-04-15T06:00:00.000Z","temp":10.6,"dewp":6.7,"wdir":320,"wspd":6,"visib":"10+","altim":1021.1,"slp":1021,"qcField":12,"presTend":0.6,"maxT":16.7,"minT":10.6,"metarType":"METAR","rawOb":"METAR KSJC 150553Z 32006KT 10SM FEW023 11/07 A3015 RMK AO2 SLP210 T01060067 10167 20106 50006 $","lat":37.3594,"lon":-121.9244,"elev":13,"name":"San Jose Intl Arpt, CA, US","cover":"FEW","clouds":[{"cover":"FEW","base":2300}],"fltCat":"VFR"},{"icaoId":"KGTF","receiptTime":"2026-04-15T05:56:19.640Z","obsTime":1776232380,"reportTime":"2026-04-15T06:00:00.000Z","temp":7.8,"dewp":-3.9,"wdir":240,"wspd":16,"visib":"10+","altim":1004.5,"slp":1004.3,"qcField":4,"presTend":0.2,"maxT":13.3,"minT":7.8,"metarType":"METAR","rawOb":"METAR KGTF 150553Z 24016KT 10SM FEW120 08/M04 A2966 RMK AO2 SLP043 T00781039 10133 20078 50002","lat":47.4733,"lon":-111.3828,"elev":1117,"name":"Great Falls Intl, MT, US","cover":"FEW","clouds":[{"cover":"FEW","base":12000}],"fltCat":"VFR"},{"icaoId":"KHLN","receiptTime":"2026-04-15T05:56:19.928Z","obsTime":1776232380,"reportTime":"2026-04-15T06:00:00.000Z","temp":8.3,"dewp":-3.3,"wdir":270,"wspd":9,"visib":"10+","altim":1006.5,"slp":1007.3,"qcField":6,"presTend":0.6,"maxT":14.4,"minT":8.3,"metarType":"METAR","rawOb":"METAR KHLN 150553Z AUTO 27009KT 10SM CLR 08/M03 A2972 RMK AO2 SLP073 T00831033 10144 20083 50006","lat":46.6045,"lon":-111.9892,"elev":1178,"name":"Helena Rgnl, MT, US","cover":"CLR","clouds":[],"fltCat":"VFR"},{"icaoId":"KDVT","receiptTime":"2026-04-15T05:56:20.425Z","obsTime":1776232380,"reportTime":"2026-04-15T06:00:00.000Z","temp":17.8,"dewp":-1.1,"wdir":0,"wspd":0,"visib":7,"altim":1015,"slp":1013.3,"qcField":4,"presTend":1.3,"maxT":24.4,"minT":17.8,"metarType":"METAR","rawOb":"METAR KDVT 150553Z 00000KT 7SM CLR 18/M01 A2997 RMK AO2 SLP133 T01781011 10244 20178 51013","lat":33.6902,"lon":-112.0662,"elev":454,"name":"Phoenix/Deer Valley Arpt, AZ, US","cover":"CLR","clouds":[],"fltCat":"VFR"},{"icaoId":"KMYF","receiptTime":"2026-04-15T05:56:21.369Z","obsTime":1776232380,"reportTime":"2026-04-15T06:00:00.000Z","temp":16.1,"dewp":12.2,"wdir":330,"wspd":3,"visib":"10+","altim":1018,"slp":1017.8,"qcField":6,"presTend":1.1,"maxT":19.4,"minT":15.6,"metarType":"METAR","rawOb":"METAR KMYF 150553Z AUTO 33003KT 10SM FEW017 16/12 A3006 RMK AO2 SLP178 T01610122 10194 20156 51011","lat":32.8145,"lon":-117.1375,"elev":128,"name":"San Diego/Montgomery Arpt, CA, US","cover":"FEW","clouds":[{"cover":"FEW","base":1700}],"fltCat":"VFR"},{"icaoId":"KBHM","receiptTime":"2026-04-15T05:56:21.636Z","obsTime":1776232380,"reportTime":"2026-04-15T06:00:00.000Z","temp":16.7,"dewp":11.1,"wdir":0,"wspd":0,"visib":"10+","altim":1020.4,"slp":1019.5,"qcField":4,"presTend":-0.9,"maxT":26.7,"minT":16.1,"maxT24":30,"minT24":16.1,"metarType":"METAR","rawOb":"METAR KBHM 150553Z 00000KT 10SM CLR 17/11 A3013 RMK AO2 SLP195 T01670111 10267 20161 403000161 55009","lat":33.5655,"lon":-86.7449,"elev":191,"name":"Birmingham Intl, AL, US","cover":"CLR","clouds":[],"fltCat":"VFR"},{"icaoId":"KBNA","receiptTime":"2026-04-15T05:56:21.758Z","obsTime":1776232380,"reportTime":"2026-04-15T06:00:00.000Z","temp":20,"dewp":9.4,"wdir":190,"wspd":7,"visib":"10+","altim":1018,"slp":1017.1,"qcField":12,"presTend":-0.2,"maxT":26.1,"minT":20,"maxT24":28.9,"minT24":17.2,"metarType":"METAR","rawOb":"METAR KBNA 150553Z 19007KT 10SM CLR 20/09 A3006 RMK AO2 SLP171 T02000094 10261 20200 402890172 56002 $","lat":36.1105,"lon":-86.6881,"elev":168,"name":"Nashville Intl, TN, US","cover":"CLR","clouds":[],"fltCat":"VFR"},{"icaoId":"KMLF","receiptTime":"2026-04-15T05:56:22.122Z","obsTime":1776232320,"reportTime":"2026-04-15T06:00:00.000Z","temp":6.7,"dewp":1.7,"wdir":210,"wspd":10,"visib":"10+","altim":1017,"slp":1014.6,"qcField":6,"presTend":0.8,"maxT":13.9,"minT":6.1,"metarType":"METAR","rawOb":"METAR KMLF 150552Z AUTO 21010KT 10SM CLR 07/02 A3003 RMK AO2 SLP146 T00670017 10139 20061 50008","lat":38.4225,"lon":-113.0109,"elev":1537,"name":"Milford Muni, UT, US","cover":"CLR","clouds":[],"fltCat":"VFR"},{"icaoId":"KIAD","receiptTime":"2026-04-15T05:56:16.508Z","obsTime":1776232320,"reportTime":"2026-04-15T06:00:00.000Z","temp":18.3,"dewp":15.6,"wdir":0,"wspd":0,"visib":"10+","altim":1014.6,"slp":1014.4,"qcField":12,"presTend":-0.8,"maxT":27.2,"minT":17.8,"pcp6hr":0.01,"metarType":"METAR","rawOb":"METAR KIAD 150552Z 00000KT 10SM BKN120 18/16 A2996 RMK AO2 SLP144 60001 T01830156 10272 20178 58008 $","lat":38.9348,"lon":-77.4473,"elev":90,"name":"Washington/Dulles Intl, VA, US","cover":"BKN","clouds":[{"cover":"BKN","base":12000}],"fltCat":"VFR"},{"icaoId":"KABQ","receiptTime":"2026-04-15T05:56:21.934Z","obsTime":1776232320,"reportTime":"2026-04-15T06:00:00.000Z","temp":12.2,"dewp":-5.6,"wdir":340,"wspd":12,"visib":"10+","altim":1017.4,"slp":1012.1,"qcField":4,"presTend":1.8,"maxT":18.9,"minT":12.2,"metarType":"METAR","rawOb":"METAR KABQ 150552Z 34012KT 10SM SCT110 BKN180 12/M06 A3004 RMK AO2 SLP121 T01221056 10189 20122 51018","lat":35.0419,"lon":-106.6154,"elev":1620,"name":"Albuquerque Intl, NM, US","cover":"BKN","clouds":[{"cover":"SCT","base":11000},{"cover":"BKN","base":18000}],"fltCat":"VFR"},{"icaoId":"KSPS","receiptTime":"2026-04-15T05:56:22.014Z","obsTime":1776232320,"reportTime":"2026-04-15T06:00:00.000Z","temp":22.2,"dewp":19.4,"wdir":200,"wspd":7,"visib":"10+","altim":1011.6,"slp":1010,"qcField":4,"presTend":0.5,"maxT":24.4,"minT":18.9,"maxT24":29.4,"minT24":18.9,"pcp6hr":0.005,"metarType":"METAR","rawOb":"METAR KSPS 150552Z 20007KT 10SM BKN045 BKN065 22/19 A2987 RMK AO2 LTG DSNT N SLP100 60000 T02220194 10244 20189 402940189 50005","lat":33.9785,"lon":-98.493,"elev":310,"name":"Wichita Falls Rgnl, TX, US","cover":"BKN","clouds":[{"cover":"BKN","base":4500},{"cover":"BKN","base":6500}],"fltCat":"VFR"},{"icaoId":"KDCA","receiptTime":"2026-04-15T05:56:23.768Z","obsTime":1776232320,"reportTime":"2026-04-15T06:00:00.000Z","temp":20.6,"dewp":16.1,"wdir":0,"wspd":0,"visib":"10+","altim":1014.6,"slp":1014.3,"qcField":4,"maxT":26.1,"minT":20.6,"metarType":"METAR","rawOb":"METAR KDCA 150552Z 00000KT 10SM FEW120 FEW150 SCT250 21/16 A2996 RMK AO2 SLP143 T02060161 10261 20206 50000","lat":38.8472,"lon":-77.0345,"elev":4,"name":"Washington/Reagan-National Arpt, VA, US","cover":"SCT","clouds":[{"cover":"FEW","base":12000},{"cover":"FEW","base":15000},{"cover":"SCT","base":25000}],"fltCat":"VFR"},{"icaoId":"KHRL","receiptTime":"2026-04-15T05:56:15.346Z","obsTime":1776232320,"reportTime":"2026-04-15T06:00:00.000Z","temp":24.4,"dewp":21.7,"wdir":160,"wspd":14,"wgst":23,"visib":"10+","altim":1013.6,"slp":1013.4,"qcField":6,"presTend":-0.4,"maxT":26.7,"minT":23.9,"maxT24":31.1,"minT24":22.2,"metarType":"METAR","rawOb":"METAR KHRL 150552Z AUTO 16014G23KT 10SM SCT020 OVC027 24/22 A2993 RMK AO2 SLP134 T02440217 10267 20239 403110222 58004","lat":26.2303,"lon":-97.6556,"elev":9,"name":"Harlingen/Valley Intl, TX, US","cover":"OVC","clouds":[{"cover":"SCT","base":2000},{"cover":"OVC","base":2700}],"fltCat":"MVFR"},{"icaoId":"KCLT","receiptTime":"2026-04-15T05:56:23.709Z","obsTime":1776232320,"reportTime":"2026-04-15T06:00:00.000Z","temp":19.4,"dewp":10.6,"wdir":210,"wspd":6,"visib":"10+","altim":1018.7,"slp":1019.3,"qcField":4,"presTend":-0.3,"maxT":26.1,"minT":19.4,"metarType":"METAR","rawOb":"METAR KCLT 150552Z 21006KT 10SM FEW250 19/11 A3008 RMK AO2 SLP193 T01940106 10261 20194 58003","lat":35.2225,"lon":-80.9543,"elev":223,"name":"Charlotte/Douglas Intl, NC, US","cover":"FEW","clouds":[{"cover":"FEW","base":25000}],"fltCat":"VFR"},{"icaoId":"KATL","receiptTime":"2026-04-15T05:56:23.599Z","obsTime":1776232320,"reportTime":"2026-04-15T06:00:00.000Z","temp":19.4,"dewp":10.6,"wdir":250,"wspd":4,"visib":"10+","altim":1020.1,"slp":1019.1,"qcField":12,"presTend":-1,"maxT":26.7,"minT":19.4,"metarType":"METAR","rawOb":"METAR KATL 150552Z 25004KT 10SM SCT250 19/11 A3012 RMK AO2 SLP191 T01940106 10267 20194 58010 $","lat":33.6297,"lon":-84.4422,"elev":309,"name":"Atlanta/Hartsfield-Jackson Intl, GA, US","cover":"SCT","clouds":[{"cover":"SCT","base":25000}],"fltCat":"VFR"},{"icaoId":"KMKE","receiptTime":"2026-04-15T05:56:16.652Z","obsTime":1776232320,"reportTime":"2026-04-15T06:00:00.000Z","temp":14.4,"dewp":13.3,"wdir":190,"wspd":7,"visib":"10+","altim":1006.5,"slp":1006,"qcField":12,"wxString":"-RA","presTend":0.4,"maxT":19.4,"minT":13.9,"maxT24":26.7,"minT24":11.1,"precip":0.01,"pcp6hr":0.64,"metarType":"METAR","rawOb":"METAR KMKE 150552Z 19007KT 10SM -RA FEW034 BKN090 OVC110 14/13 A2972 RMK AO2 RAB02 SLP060 OCNL LTG DSNT N AND SW P0001 60064 T01440133 10194 20139 402670111 53004 $","lat":42.9549,"lon":-87.9045,"elev":203,"name":"Milwaukee/Mitchell Intl, WI, US","cover":"OVC","clouds":[{"cover":"FEW","base":3400},{"cover":"BKN","base":9000},{"cover":"OVC","base":11000}],"fltCat":"VFR"},{"icaoId":"KCVG","receiptTime":"2026-04-15T05:56:23.754Z","obsTime":1776232320,"reportTime":"2026-04-15T06:00:00.000Z","temp":21.7,"dewp":15.6,"wdir":220,"wspd":11,"wgst":20,"visib":"10+","altim":1014,"slp":1012.9,"qcField":4,"presTend":-0.5,"maxT":25,"minT":21.7,"metarType":"METAR","rawOb":"METAR KCVG 150552Z 22011G20KT 10SM BKN250 22/16 A2994 RMK AO2 SLP129 T02170156 10250 20217 56005","lat":39.0444,"lon":-84.6724,"elev":264,"name":"Cincinnati Intl, KY, US","cover":"BKN","clouds":[{"cover":"BKN","base":25000}],"fltCat":"VFR"},{"icaoId":"KTRM","receiptTime":"2026-04-15T05:58:11.539Z","obsTime":1776232320,"reportTime":"2026-04-15T06:00:00.000Z","temp":22.2,"dewp":8.3,"wdir":330,"wspd":7,"visib":"10+","altim":1013.6,"slp":1013.7,"qcField":46,"presTend":1.5,"maxT":28.9,"minT":18.3,"metarType":"METAR","rawOb":"METAR KTRM 150552Z AUTO 33007KT 10SM CLR 22/08 A2993 RMK AO2 SLP137 T02220083 10289 20183 50015 TSNO $","lat":33.6317,"lon":-116.1641,"elev":-39,"name":"Thermal Arpt, CA, US","cover":"CLR","clouds":[],"fltCat":"VFR"},{"icaoId":"KABI","receiptTime":"2026-04-15T05:56:21.922Z","obsTime":1776232320,"reportTime":"2026-04-15T06:00:00.000Z","temp":21.7,"dewp":18.3,"wdir":0,"wspd":0,"visib":"10+","altim":1012.6,"slp":1010.2,"qcField":12,"presTend":0.5,"maxT":23.9,"minT":21.1,"maxT24":27.2,"minT24":21.1,"metarType":"METAR","rawOb":"METAR KABI 150552Z 00000KT 10SM SCT039 22/18 A2990 RMK AO2 SLP102 T02170183 10239 20211 402720211 50005 $","lat":32.4106,"lon":-99.6821,"elev":543,"name":"Abilene Rgnl, TX, US","cover":"SCT","clouds":[{"cover":"SCT","base":3900}],"fltCat":"VFR"},{"icaoId":"KOXR","receiptTime":"2026-04-15T05:54:23.235Z","obsTime":1776232260,"reportTime":"2026-04-15T06:00:00.000Z","temp":13.9,"dewp":11.7,"wdir":80,"wspd":5,"visib":"10+","altim":1017.4,"slp":1017,"qcField":14,"presTend":0.6,"maxT":18.3,"minT":13.9,"metarType":"METAR","rawOb":"METAR KOXR 150551Z AUTO 08005KT 10SM CLR 14/12 A3004 RMK AO2 SLP170 T01390117 10183 20139 51006 $","lat":34.2001,"lon":-119.2042,"elev":12,"name":"Oxnard Arpt, CA, US","cover":"CLR","clouds":[],"fltCat":"VFR"},{"icaoId":"KROW","receiptTime":"2026-04-15T05:54:23.437Z","obsTime":1776232260,"reportTime":"2026-04-15T06:00:00.000Z","temp":17.2,"dewp":1.7,"wdir":220,"wspd":9,"visib":"10+","altim":1012.6,"slp":1006.9,"qcField":6,"presTend":1,"maxT":25,"minT":17.2,"metarType":"METAR","rawOb":"METAR KROW 150551Z AUTO 22009KT 10SM FEW120 17/02 A2990 RMK AO2 SLP069 T01720017 10250 20172 51010","lat":33.3074,"lon":-104.5082,"elev":1105,"name":"Roswell/Ind Arpt, NM, US","cover":"FEW","clouds":[{"cover":"FEW","base":12000}],"fltCat":"VFR"},{"icaoId":"KELP","receiptTime":"2026-04-15T05:54:24.780Z","obsTime":1776232260,"reportTime":"2026-04-15T06:00:00.000Z","temp":18.9,"dewp":1.7,"wdir":280,"wspd":22,"wgst":30,"visib":"10+","altim":1015,"slp":1009,"qcField":4,"presTend":1.4,"maxT":25,"minT":18.3,"pcp6hr":0.005,"metarType":"METAR","rawOb":"METAR KELP 150551Z 28022G30KT 10SM FEW090 FEW140 19/02 A2997 RMK AO2 PK WND 25033/0537 SLP090 60000 T01890017 10250 20183 50014","lat":31.8123,"lon":-106.3774,"elev":1205,"name":"El Paso Intl, TX, US","cover":"FEW","clouds":[{"cover":"FEW","base":9000},{"cover":"FEW","base":14000}],"fltCat":"VFR"},{"icaoId":"KBDL","receiptTime":"2026-04-15T05:54:24.353Z","obsTime":1776232260,"reportTime":"2026-04-15T06:00:00.000Z","temp":18.9,"dewp":15,"wdir":210,"wspd":7,"visib":"10+","altim":1011.3,"slp":1011.1,"qcField":12,"presTend":0.5,"maxT":23.9,"minT":18.3,"pcp6hr":0.23,"metarType":"METAR","rawOb":"METAR KBDL 150551Z 21007KT 10SM FEW150 SCT230 19/15 A2986 RMK AO2 SLP111 60023 T01890150 10239 20183 50005 $","lat":41.9374,"lon":-72.682,"elev":52,"name":"Hartford/Bradley Intl, CT, US","cover":"SCT","clouds":[{"cover":"FEW","base":15000},{"cover":"SCT","base":23000}],"fltCat":"VFR"},{"icaoId":"KACT","receiptTime":"2026-04-15T05:54:24.197Z","obsTime":1776232260,"reportTime":"2026-04-15T06:00:00.000Z","temp":22.8,"dewp":18.9,"wdir":170,"wspd":17,"wgst":25,"visib":"10+","altim":1013.6,"slp":1012.8,"qcField":6,"maxT":26.7,"minT":22.8,"maxT24":28.3,"minT24":21.7,"metarType":"METAR","rawOb":"METAR KACT 150551Z AUTO 17017G25KT 10SM CLR 23/19 A2993 RMK AO2 SLP128 T02280189 10267 20228 402830217 58000","lat":31.618,"lon":-97.2283,"elev":150,"name":"Waco Rgnl, TX, US","cover":"CLR","clouds":[],"fltCat":"VFR"},{"icaoId":"KSAN","receiptTime":"2026-04-15T05:54:23.476Z","obsTime":1776232260,"reportTime":"2026-04-15T06:00:00.000Z","temp":16.7,"dewp":12.8,"wdir":310,"wspd":3,"visib":"10+","altim":1018.7,"slp":1018.4,"qcField":12,"presTend":1.2,"maxT":20,"minT":16.7,"metarType":"METAR","rawOb":"METAR KSAN 150551Z 31003KT 10SM SCT020 17/13 A3008 RMK AO2 SLP184 T01670128 10200 20167 51012 $","lat":32.7364,"lon":-117.1973,"elev":3,"name":"San Diego Intl Arpt, CA, US","cover":"SCT","clouds":[{"cover":"SCT","base":2000}],"fltCat":"VFR"},{"icaoId":"KJFK","receiptTime":"2026-04-15T05:54:25.096Z","obsTime":1776232260,"reportTime":"2026-04-15T06:00:00.000Z","temp":18.9,"dewp":12.8,"wdir":260,"wspd":7,"visib":"10+","altim":1013,"slp":1012.7,"qcField":4,"presTend":0.5,"maxT":23.9,"minT":16.1,"metarType":"METAR","rawOb":"METAR KJFK 150551Z 26007KT 10SM SCT070 SCT100 BKN250 19/13 A2991 RMK AO2 SLP127 T01890128 10239 20161 50005","lat":40.6392,"lon":-73.7639,"elev":3,"name":"New York/JF Kennedy Intl, NY, US","cover":"BKN","clouds":[{"cover":"SCT","base":7000},{"cover":"SCT","base":10000},{"cover":"BKN","base":25000}],"fltCat":"VFR"},{"icaoId":"KCMH","receiptTime":"2026-04-15T05:54:24.565Z","obsTime":1776232260,"reportTime":"2026-04-15T06:00:00.000Z","temp":18.9,"dewp":13.9,"wdir":160,"wspd":7,"visib":"10+","altim":1013.3,"slp":1012.4,"qcField":4,"presTend":-1.6,"maxT":26.1,"minT":17.2,"pcp6hr":0.005,"metarType":"METAR","rawOb":"METAR KCMH 150551Z 16007KT 10SM FEW048 SCT130 BKN200 19/14 A2992 RMK AO2 SLP124 60000 T01890139 10261 20172 56016","lat":39.9907,"lon":-82.877,"elev":257,"name":"Columbus/Glenn Intl, OH, US","cover":"BKN","clouds":[{"cover":"FEW","base":4800},{"cover":"SCT","base":13000},{"cover":"BKN","base":20000}],"fltCat":"VFR"},{"icaoId":"KEWR","receiptTime":"2026-04-15T05:54:24.804Z","obsTime":1776232260,"reportTime":"2026-04-15T06:00:00.000Z","temp":22.8,"dewp":15,"wdir":220,"wspd":7,"visib":"10+","altim":1012.6,"slp":1012.4,"qcField":4,"presTend":0.5,"maxT":28.3,"minT":21.7,"pcp6hr":0.005,"metarType":"METAR","rawOb":"METAR KEWR 150551Z 22007KT 10SM FEW070 SCT110 BKN180 BKN230 23/15 A2990 RMK AO2 SLP124 60000 T02280150 10283 20217 50005","lat":40.6828,"lon":-74.1692,"elev":2,"name":"Newark Intl, NJ, US","cover":"BKN","clouds":[{"cover":"FEW","base":7000},{"cover":"SCT","base":11000},{"cover":"BKN","base":18000},{"cover":"BKN","base":23000}],"fltCat":"VFR"},{"icaoId":"KRDU","receiptTime":"2026-04-15T05:54:23.378Z","obsTime":1776232260,"reportTime":"2026-04-15T06:00:00.000Z","temp":18.9,"dewp":11.1,"wdir":220,"wspd":7,"visib":"10+","altim":1018,"slp":1017.5,"qcField":4,"presTend":-0.1,"maxT":26.1,"minT":18.9,"metarType":"METAR","rawOb":"METAR KRDU 150551Z 22007KT 10SM SCT250 19/11 A3006 RMK AO2 SLP175 T01890111 10261 20189 58001","lat":35.8923,"lon":-78.782,"elev":121,"name":"Raleigh-Durham Intl, NC, US","cover":"SCT","clouds":[{"cover":"SCT","base":25000}],"fltCat":"VFR"},{"icaoId":"KVNY","receiptTime":"2026-04-15T05:54:23.828Z","obsTime":1776232260,"reportTime":"2026-04-15T06:00:00.000Z","temp":15,"dewp":6.1,"wdir":0,"wspd":0,"visib":"10+","altim":1017,"slp":1016.4,"qcField":14,"presTend":0.9,"maxT":22.2,"minT":15,"metarType":"METAR","rawOb":"METAR KVNY 150551Z AUTO 00000KT 10SM CLR 15/06 A3003 RMK AO2 SLP164 T01500061 10222 20150 50009 $","lat":34.2121,"lon":-118.4915,"elev":241,"name":"Van Nuys Arpt, CA, US","cover":"CLR","clouds":[],"fltCat":"VFR"},{"icaoId":"KSTL","receiptTime":"2026-04-15T05:54:23.691Z","obsTime":1776232260,"reportTime":"2026-04-15T06:00:00.000Z","temp":22.8,"dewp":17.2,"wdir":200,"wspd":11,"wgst":21,"visib":"10+","altim":1010.6,"slp":1009,"qcField":12,"presTend":-0.8,"maxT":28.9,"minT":22.8,"maxT24":31.7,"minT24":20.6,"metarType":"METAR","rawOb":"METAR KSTL 150551Z 20011G21KT 10SM SCT250 23/17 A2984 RMK AO2 SLP090 T02280172 10289 20228 403170206 58008 $","lat":38.7525,"lon":-90.3734,"elev":163,"name":"St Louis/Lambert Intl, MO, US","cover":"SCT","clouds":[{"cover":"SCT","base":25000}],"fltCat":"VFR"},{"icaoId":"KSAT","receiptTime":"2026-04-15T05:54:23.522Z","obsTime":1776232260,"reportTime":"2026-04-15T06:00:00.000Z","temp":22.8,"dewp":18.9,"wdir":140,"wspd":13,"wgst":21,"visib":"10+","altim":1014.3,"slp":1012.7,"qcField":12,"presTend":-0.1,"maxT":28.3,"minT":22.8,"maxT24":31.1,"minT24":21.7,"metarType":"METAR","rawOb":"METAR KSAT 150551Z 14013G21KT 10SM BKN022 BKN045 23/19 A2995 RMK AO2 PK WND 15027/0508 SLP127 T02280189 10283 20228 403110217 58001 $","lat":29.5443,"lon":-98.4839,"elev":246,"name":"San Antonio Intl, TX, US","cover":"BKN","clouds":[{"cover":"BKN","base":2200},{"cover":"BKN","base":4500}],"fltCat":"MVFR"},{"icaoId":"KSAD","receiptTime":"2026-04-15T05:54:23.451Z","obsTime":1776232260,"reportTime":"2026-04-15T06:00:00.000Z","temp":15.6,"dewp":-6.1,"wdir":300,"wspd":11,"visib":"10+","altim":1015.7,"slp":1012.1,"qcField":6,"presTend":1.7,"maxT":23.3,"minT":15,"metarType":"METAR","rawOb":"METAR KSAD 150551Z AUTO 30011KT 10SM CLR 16/M06 A2999 RMK AO2 SLP121 T01561061 10233 20150 51017","lat":32.8565,"lon":-109.636,"elev":937,"name":"Safford Rgnl, AZ, US","cover":"CLR","clouds":[],"fltCat":"VFR"},{"icaoId":"KPVD","receiptTime":"2026-04-15T05:54:23.302Z","obsTime":1776232260,"reportTime":"2026-04-15T06:00:00.000Z","temp":12.2,"dewp":10,"wdir":150,"wspd":3,"visib":"10+","altim":1011.3,"slp":1011.2,"qcField":4,"presTend":-1.1,"maxT":16.1,"minT":12.2,"pcp6hr":0.02,"metarType":"METAR","rawOb":"METAR KPVD 150551Z 15003KT 10SM CLR 12/10 A2986 RMK AO2 SLP112 60002 T01220100 10161 20122 55011","lat":41.7225,"lon":-71.4325,"elev":15,"name":"Providence/Green Mem, RI, US","cover":"CLR","clouds":[],"fltCat":"VFR"},{"icaoId":"KPIT","receiptTime":"2026-04-15T05:54:24.058Z","obsTime":1776232260,"reportTime":"2026-04-15T06:00:00.000Z","temp":19.4,"dewp":14.4,"wdir":"VRB","wspd":4,"visib":"10+","altim":1013,"slp":1012.6,"qcField":12,"presTend":-1.7,"maxT":20.6,"minT":17.8,"precip":0.005,"pcp6hr":0.005,"metarType":"METAR","rawOb":"METAR KPIT 150551Z VRB04KT 10SM FEW050 SCT070 BKN150 19/14 A2991 RMK AO2 RAE07 SLP126 P0000 60000 T01940144 10206 20178 55017 $","lat":40.4814,"lon":-80.2083,"elev":339,"name":"Pittsburgh Intl, PA, US","cover":"BKN","clouds":[{"cover":"FEW","base":5000},{"cover":"SCT","base":7000},{"cover":"BKN","base":15000}],"fltCat":"VFR"},{"icaoId":"KORF","receiptTime":"2026-04-15T05:54:23.217Z","obsTime":1776232260,"reportTime":"2026-04-15T06:00:00.000Z","temp":21.1,"dewp":14.4,"wdir":220,"wspd":11,"visib":"10+","altim":1016,"slp":1015.9,"qcField":4,"presTend":-0.1,"maxT":26.7,"minT":21.1,"metarType":"METAR","rawOb":"METAR KORF 150551Z 22011KT 10SM CLR 21/14 A3000 RMK AO2 SLP159 T02110144 10267 20211 58001","lat":36.9037,"lon":-76.1927,"elev":5,"name":"Norfolk Intl, VA, US","cover":"CLR","clouds":[],"fltCat":"VFR"},{"icaoId":"KPHX","receiptTime":"2026-04-15T05:54:23.252Z","obsTime":1776232260,"reportTime":"2026-04-15T06:00:00.000Z","temp":21.1,"dewp":-2.2,"wdir":0,"wspd":0,"visib":"10+","altim":1014.3,"slp":1012.7,"qcField":4,"presTend":1.2,"maxT":25.6,"minT":21.1,"metarType":"METAR","rawOb":"METAR KPHX 150551Z 00000KT 10SM CLR 21/M02 A2995 RMK AO2 SLP127 T02111022 10256 20211 51012","lat":33.4278,"lon":-112.0037,"elev":338,"name":"Phoenix/Sky Harbor Intl, AZ, US","cover":"CLR","clouds":[],"fltCat":"VFR"},{"icaoId":"KCLE","receiptTime":"2026-04-15T05:54:23.933Z","obsTime":1776232260,"reportTime":"2026-04-15T06:00:00.000Z","temp":20.6,"dewp":11.7,"wdir":200,"wspd":13,"wgst":19,"visib":"10+","altim":1010.6,"slp":1011.4,"qcField":12,"presTend":-0.9,"maxT":23.3,"minT":19.4,"metarType":"METAR","rawOb":"METAR KCLE 150551Z 20013G19KT 10SM BKN140 OVC250 21/12 A2984 RMK AO2 SLP114 T02060117 10233 20194 55009 $","lat":41.4057,"lon":-81.8519,"elev":237,"name":"Cleveland/Hopkins Intl, OH, US","cover":"OVC","clouds":[{"cover":"BKN","base":14000},{"cover":"OVC","base":25000}],"fltCat":"VFR"},{"icaoId":"KLGU","receiptTime":"2026-04-15T05:54:25.134Z","obsTime":1776232260,"reportTime":"2026-04-15T06:00:00.000Z","temp":3.3,"dewp":1.1,"wdir":0,"wspd":0,"visib":"10+","altim":1015,"slp":1014.4,"qcField":6,"presTend":0.5,"maxT":12.8,"minT":3.3,"pcp6hr":0.005,"metarType":"METAR","rawOb":"METAR KLGU 150551Z AUTO 00000KT 10SM CLR 03/01 A2997 RMK AO2 SLP144 60000 T00330011 10128 20033 50005","lat":41.7865,"lon":-111.8519,"elev":1359,"name":"Logan/Cache Arpt, UT, US","cover":"CLR","clouds":[],"fltCat":"VFR"},{"icaoId":"KIGM","receiptTime":"2026-04-15T05:54:24.993Z","obsTime":1776232260,"reportTime":"2026-04-15T06:00:00.000Z","temp":9.4,"dewp":-5.6,"wdir":180,"wspd":5,"visib":"10+","altim":1017.4,"slp":1013.3,"qcField":6,"presTend":0.8,"maxT":20,"minT":9.4,"metarType":"METAR","rawOb":"METAR KIGM 150551Z AUTO 18005KT 10SM CLR 09/M06 A3004 RMK AO2 SLP133 T00941056 10200 20094 50008","lat":35.2575,"lon":-113.9341,"elev":1045,"name":"Kingman Arpt, AZ, US","cover":"CLR","clouds":[],"fltCat":"VFR"},{"icaoId":"KCRP","receiptTime":"2026-04-15T05:54:24.650Z","obsTime":1776232260,"reportTime":"2026-04-15T06:00:00.000Z","temp":23.3,"dewp":21.1,"wdir":150,"wspd":15,"visib":"10+","altim":1014.3,"slp":1014,"qcField":4,"presTend":-0.3,"maxT":26.1,"minT":23.3,"maxT24":30,"minT24":22.8,"metarType":"METAR","rawOb":"METAR KCRP 150551Z 15015KT 10SM SCT018 BKN024 BKN250 23/21 A2995 RMK AO2 PK WND 15027/0516 SLP140 T02330211 10261 20233 403000228 58003","lat":27.7734,"lon":-97.513,"elev":11,"name":"Corpus Christi Intl, TX, US","cover":"BKN","clouds":[{"cover":"SCT","base":1800},{"cover":"BKN","base":2400},{"cover":"BKN","base":25000}],"fltCat":"MVFR"}]