[{"icaoId":"KSPS","receiptTime":"2026-04-18T06:12:06.468Z","obsTime":1776492540,"reportTime":"2026-04-18T06:09:00.000Z","temp":14.4,"dewp":10.6,"wdir":20,"wspd":31,"wgst":49,"visib":"10+","altim":1011.3,"qcField":12,"wxString":"VCTS","metarType":"SPECI","rawOb":"SPECI KSPS 180609Z 02031G49KT 10SM VCTS OVC035 14/11 A2986 RMK AO2 PK WND 01049/0600 LTG DSNT ALQDS T01440106 $","lat":33.9785,"lon":-98.493,"elev":310,"name":"Wichita Falls Rgnl, TX, US","cover":"OVC","clouds":[{"cover":"OVC","base":3500}],"fltCat":"VFR"},{"icaoId":"KCNM","receiptTime":"2026-04-18T06:10:15.470Z","obsTime":1776492420,"reportTime":"2026-04-18T06:07:00.000Z","temp":21.7,"dewp":-6.1,"wdir":340,"wspd":19,"visib":"10+","altim":1014.3,"qcField":6,"metarType":"SPECI","rawOb":"SPECI KCNM 180607Z AUTO 34019KT 10SM CLR 22/M06 A2995 RMK AO2 WSHFT 0547 T02171061","lat":32.3336,"lon":-104.2584,"elev":993,"name":"Carlsbad/Cavern City Air Term, NM, US","cover":"CLR","clouds":[],"fltCat":"VFR"},{"icaoId":"KSHR","receiptTime":"2026-04-18T06:10:13.889Z","obsTime":1776492360,"reportTime":"2026-04-18T06:06:00.000Z","temp":-0.6,"dewp":-1.7,"wdir":300,"wspd":14,"visib":2,"altim":1020.4,"qcField":6,"wxString":"-SN BR","precip":0.005,"metarType":"SPECI","rawOb":"SPECI KSHR 180606Z AUTO 30014KT 2SM -SN BR OVC027 M01/M02 A3013 RMK AO2 P0000 T10061017","lat":44.7603,"lon":-106.9741,"elev":1212,"name":"Sheridan Cnty Arpt, WY, US","cover":"OVC","clouds":[{"cover":"OVC","base":2700}],"fltCat":"IFR"},{"icaoId":"KLAW","receiptTime":"2026-04-18T06:08:18.185Z","obsTime":1776492240,"reportTime":"2026-04-18T06:04:00.000Z","temp":12.8,"dewp":11.1,"wdir":10,"wspd":17,"wgst":29,"visib":"10+","altim":1013,"qcField":6,"wxString":"-TSRA","precip":0.005,"metarType":"SPECI","rawOb":"SPECI KLAW 180604Z AUTO 01017G29KT 10SM -TSRA BKN015 OVC060 13/11 A2991 RMK AO2 PK WND 35027/0602 LTG DSNT ALQDS P0000 T01280111","lat":34.5577,"lon":-98.4172,"elev":328,"name":"Lawton-Fort Sill Rgnl, OK, US","cover":"OVC","clouds":[{"cover":"BKN","base":1500},{"cover":"OVC","base":6000}],"fltCat":"MVFR"},{"icaoId":"KMLC","receiptTime":"2026-04-18T06:04:02.481Z","obsTime":1776492000,"reportTime":"2026-04-18T06:00:00.000Z","temp":17.8,"dewp":13.3,"wdir":360,"wspd":19,"wgst":33,"visib":"10+","altim":1009.6,"qcField":6,"wxString":"-RA","precip":0.005,"metarType":"SPECI","rawOb":"SPECI KMLC 180600Z AUTO 36019G33KT 10SM -RA BKN023 OVC031 18/13 A2981 RMK AO2 WSHFT 0540 P0000 T01780133","lat":34.8824,"lon":-95.7815,"elev":231,"name":"McAlester Rgnl, OK, US","cover":"OVC","clouds":[{"cover":"BKN","base":2300},{"cover":"OVC","base":3100}],"fltCat":"MVFR"},{"icaoId":"KNFL","receiptTime":"2026-04-18T06:00:42.661Z","obsTime":1776491820,"reportTime":"2026-04-18T06:00:00.000Z","temp":4.4,"dewp":-17.2,"wdir":230,"wspd":4,"visib":"10+","altim":1020.4,"slp":1017,"qcField":4,"presTend":1.1,"maxT":15,"minT":3.3,"metarType":"METAR","rawOb":"METAR KNFL 180557Z 23004KT 10SM SCT250 04/M17 A3013 RMK AO2 SLP170 T00441172 10150 20033 51011","lat":39.417,"lon":-118.705,"elev":1199,"name":"Fallon , NV, US","cover":"SCT","clouds":[{"cover":"SCT","base":25000}],"fltCat":"VFR"},{"icaoId":"KFLG","receiptTime":"2026-04-18T06:00:42.343Z","obsTime":1776491820,"reportTime":"2026-04-18T06:00:00.000Z","temp":3.3,"dewp":-22.8,"wdir":70,"wspd":7,"visib":"10+","altim":1021.8,"slp":1016.2,"qcField":6,"presTend":1.2,"maxT":11.7,"minT":3.3,"metarType":"METAR","rawOb":"METAR KFLG 180557Z AUTO 07007KT 10SM CLR 03/M23 A3017 RMK AO2 SLP162 T00331228 10117 20033 51012","lat":35.1443,"lon":-111.6664,"elev":2134,"name":"Flagstaff/Pulliam Arpt, AZ, US","cover":"CLR","clouds":[],"fltCat":"VFR"},{"icaoId":"KNYL","receiptTime":"2026-04-18T06:08:16.861Z","obsTime":1776491820,"reportTime":"2026-04-18T06:00:00.000Z","temp":21.1,"dewp":-13.3,"wdir":340,"wspd":6,"visib":"10+","altim":1013.3,"slp":1012.8,"qcField":5,"presTend":1.1,"maxT":28.3,"minT":20.6,"metarType":"METAR","rawOb":"METAR KNYL 180557Z COR 34006KT 10SM CLR 21/M13 A2992 RMK AO2 SLP128 LAST T02111133 10283 20206 51011 ","lat":32.66,"lon":-114.6078,"elev":58,"name":"Yuma , AZ, US","cover":"CLR","clouds":[],"fltCat":"VFR"},{"icaoId":"KCEC","receiptTime":"2026-04-18T06:00:20.688Z","obsTime":1776491760,"reportTime":"2026-04-18T06:00:00.000Z","temp":9.4,"dewp":8.3,"wdir":210,"wspd":4,"visib":"10+","altim":1019.4,"slp":1019.4,"qcField":6,"presTend":0.2,"maxT":13.9,"minT":9.4,"metarType":"METAR","rawOb":"METAR KCEC 180556Z AUTO 21004KT 10SM CLR 09/08 A3010 RMK AO2 SLP194 T00940083 10139 20094 53002","lat":41.7836,"lon":-124.238,"elev":17,"name":"Crescent City/McNama, CA, US","cover":"CLR","clouds":[],"fltCat":"VFR"},{"icaoId":"KCHS","receiptTime":"2026-04-18T06:00:23.733Z","obsTime":1776491760,"reportTime":"2026-04-18T06:00:00.000Z","temp":19.4,"dewp":14.4,"wdir":200,"wspd":5,"visib":"10+","altim":1014.6,"slp":1014.5,"qcField":12,"presTend":-0.4,"maxT":25,"minT":18.9,"metarType":"METAR","rawOb":"METAR KCHS 180556Z 20005KT 10SM CLR 19/14 A2996 RMK AO2 SLP145 T01940144 10250 20189 57004 $","lat":32.8995,"lon":-80.0407,"elev":12,"name":"Charleston Intl, SC, US","cover":"CLR","clouds":[],"fltCat":"VFR"},{"icaoId":"KVIS","receiptTime":"2026-04-18T05:58:21.422Z","obsTime":1776491760,"reportTime":"2026-04-18T06:00:00.000Z","temp":15.6,"dewp":6.1,"wdir":310,"wspd":7,"visib":"10+","altim":1016.7,"slp":1016.6,"qcField":14,"presTend":1.3,"maxT":24.4,"minT":15,"metarType":"METAR","rawOb":"METAR KVIS 180556Z AUTO 31007KT 10SM CLR 16/06 A3002 RMK AO2 SLP166 6//// T01560061 10244 20150 51013 PNO $","lat":36.3135,"lon":-119.3884,"elev":92,"name":"Visalia Muni, CA, US","cover":"CLR","clouds":[],"fltCat":"VFR"},{"icaoId":"KCOE","receiptTime":"2026-04-18T05:58:24.335Z","obsTime":1776491760,"reportTime":"2026-04-18T06:00:00.000Z","temp":3.9,"dewp":-1.1,"wdir":170,"wspd":5,"visib":"10+","altim":1022.8,"slp":1025.8,"qcField":14,"presTend":0.7,"maxT":11.1,"minT":3.9,"metarType":"METAR","rawOb":"METAR KCOE 180556Z AUTO 17005KT 10SM CLR 04/M01 A3020 RMK AO2 SLP258 6//// T00391011 10111 20039 50007 PNO $","lat":47.7719,"lon":-116.8332,"elev":693,"name":"Coeur DAlene Arpt, ID, US","cover":"CLR","clouds":[],"fltCat":"VFR"},{"icaoId":"KFNL","receiptTime":"2026-04-18T05:58:20.531Z","obsTime":1776491760,"reportTime":"2026-04-18T06:00:00.000Z","temp":-0.6,"dewp":-2.8,"wdir":240,"wspd":3,"visib":"10+","altim":1020.7,"slp":1021.6,"qcField":78,"presTend":0.4,"maxT":5,"minT":-1.1,"metarType":"METAR","rawOb":"METAR KFNL 180556Z AUTO 24003KT 10SM FEW120 M01/M03 A3014 RMK AO2 SLP216 T10061028 10050 21011 50004 FZRANO $","lat":40.4427,"lon":-105.0097,"elev":1529,"name":"Fort Collins/N Colorado Rgnl, CO, US","cover":"FEW","clouds":[{"cover":"FEW","base":12000}],"fltCat":"VFR"},{"icaoId":"KHND","receiptTime":"2026-04-18T05:58:23.126Z","obsTime":1776491760,"reportTime":"2026-04-18T06:00:00.000Z","temp":12.8,"dewp":-15,"wdir":330,"wspd":3,"visib":"10+","altim":1019.4,"slp":1020.4,"qcField":14,"presTend":1.1,"maxT":19.4,"minT":12.2,"metarType":"METAR","rawOb":"METAR KHND 180556Z AUTO 33003KT 10SM CLR 13/M15 A3010 RMK AO2 SLP204 T01281150 10194 20122 51011 $","lat":35.9657,"lon":-115.1343,"elev":740,"name":"Henderson Exec, NV, US","cover":"CLR","clouds":[],"fltCat":"VFR"},{"icaoId":"KJAX","receiptTime":"2026-04-18T06:00:23.987Z","obsTime":1776491760,"reportTime":"2026-04-18T06:00:00.000Z","temp":20,"dewp":13.3,"wdir":240,"wspd":3,"visib":"10+","altim":1015,"slp":1015,"qcField":12,"presTend":-0.8,"maxT":26.7,"minT":19.4,"metarType":"METAR","rawOb":"METAR KJAX 180556Z 24003KT 10SM FEW050 20/13 A2997 RMK AO2 SLP150 FU FEW050 T02000133 10267 20194 58008 $","lat":30.4953,"lon":-81.6937,"elev":8,"name":"Jacksonville Intl, FL, US","cover":"FEW","clouds":[{"cover":"FEW","base":5000}],"fltCat":"VFR"},{"icaoId":"KLWS","receiptTime":"2026-04-18T06:00:24.048Z","obsTime":1776491760,"reportTime":"2026-04-18T06:00:00.000Z","temp":5.6,"dewp":-1.1,"wdir":160,"wspd":3,"visib":"10+","altim":1023.5,"slp":1023.9,"qcField":6,"presTend":0.6,"maxT":12.8,"minT":5,"metarType":"METAR","rawOb":"METAR KLWS 180556Z AUTO 16003KT 10SM CLR 06/M01 A3022 RMK AO2 SLP239 T00561011 10128 20050 50006","lat":46.3746,"lon":-117.0153,"elev":435,"name":"Lewiston/Nez Perce Cnty, ID, US","cover":"CLR","clouds":[],"fltCat":"VFR"},{"icaoId":"KSFO","receiptTime":"2026-04-18T06:00:24.522Z","obsTime":1776491760,"reportTime":"2026-04-18T06:00:00.000Z","temp":12.2,"dewp":8.9,"wdir":290,"wspd":14,"visib":"10+","altim":1017.4,"slp":1017.3,"qcField":12,"presTend":0.5,"maxT":18.3,"minT":12.2,"metarType":"METAR","rawOb":"METAR KSFO 180556Z 29014KT 10SM BKN200 12/09 A3004 RMK AO2 SLP173 T01220089 10183 20122 50005 $","lat":37.6196,"lon":-122.3656,"elev":2,"name":"San Francisco Intl, CA, US","cover":"BKN","clouds":[{"cover":"BKN","base":20000}],"fltCat":"VFR"},{"icaoId":"KUKI","receiptTime":"2026-04-18T06:00:27.504Z","obsTime":1776491760,"reportTime":"2026-04-18T06:00:00.000Z","temp":10.6,"dewp":3.9,"wdir":0,"wspd":0,"visib":"10+","altim":1017.7,"slp":1017.3,"qcField":6,"presTend":1.6,"maxT":23.9,"minT":10.6,"metarType":"METAR","rawOb":"METAR KUKI 180556Z AUTO 00000KT 10SM CLR 11/04 A3005 RMK AO2 SLP173 T01060039 10239 20106 51016","lat":39.1278,"lon":-123.2001,"elev":183,"name":"Ukiah Muni, CA, US","cover":"CLR","clouds":[],"fltCat":"VFR"},{"icaoId":"KSDF","receiptTime":"2026-04-18T06:00:30.423Z","obsTime":1776491760,"reportTime":"2026-04-18T06:00:00.000Z","temp":22.8,"dewp":16.1,"wdir":160,"wspd":6,"visib":"10+","altim":1010.2,"slp":1009.7,"qcField":4,"presTend":-2.1,"maxT":26.7,"minT":22.2,"metarType":"METAR","rawOb":"METAR KSDF 180556Z 16006KT 10SM BKN250 23/16 A2983 RMK AO2 SLP097 T02280161 10267 20222 56021","lat":38.1774,"lon":-85.7308,"elev":146,"name":"Louisville Intl, KY, US","cover":"BKN","clouds":[{"cover":"BKN","base":25000}],"fltCat":"VFR"},{"icaoId":"KEGE","receiptTime":"2026-04-18T05:58:23.997Z","obsTime":1776491760,"reportTime":"2026-04-18T06:00:00.000Z","temp":-4.4,"dewp":-8.3,"wdir":90,"wspd":3,"visib":"10+","altim":1023.5,"slp":1025.6,"qcField":68,"presTend":1.2,"maxT":2.8,"minT":-5.6,"maxT24":11.1,"minT24":-5.6,"metarType":"METAR","rawOb":"METAR KEGE 180556Z 09003KT 10SM BKN090 M04/M08 A3022 RMK AO2 SLP256 T10441083 10028 21056 401111056 51012 FZRANO","lat":39.6448,"lon":-106.9176,"elev":1993,"name":"Eagle Cnty Rgnl, CO, US","cover":"BKN","clouds":[{"cover":"BKN","base":9000}],"fltCat":"VFR"},{"icaoId":"KLAS","receiptTime":"2026-04-18T06:00:34.579Z","obsTime":1776491760,"reportTime":"2026-04-18T06:00:00.000Z","temp":15.6,"dewp":-16.7,"wdir":240,"wspd":3,"visib":"10+","altim":1018.7,"slp":1017.8,"qcField":4,"presTend":1.2,"maxT":20,"minT":15.6,"metarType":"METAR","rawOb":"METAR KLAS 180556Z 24003KT 10SM CLR 16/M17 A3008 RMK AO2 SLP178 T01561167 10200 20156 51012","lat":36.0719,"lon":-115.1634,"elev":662,"name":"Las Vegas/Reid Intl, NV, US","cover":"CLR","clouds":[],"fltCat":"VFR"},{"icaoId":"KHDN","receiptTime":"2026-04-18T05:58:23.044Z","obsTime":1776491760,"reportTime":"2026-04-18T06:00:00.000Z","temp":-3.3,"dewp":-5.6,"wdir":340,"wspd":3,"visib":"10+","altim":1023.1,"slp":1026.5,"qcField":70,"presTend":1.7,"maxT":1.7,"minT":-3.9,"maxT24":1.7,"minT24":-6.7,"precip":0.005,"pcp6hr":0.01,"metarType":"METAR","rawOb":"METAR KHDN 180556Z AUTO 34003KT 10SM FEW038 OVC048 M03/M06 A3021 RMK AO2 SNE12 SLP265 P0000 60001 T10331056 10017 21039 400171067 51017 FZRANO","lat":40.4842,"lon":-107.2296,"elev":2012,"name":"Hayden/Yampa Valley Arpt, CO, US","cover":"OVC","clouds":[{"cover":"FEW","base":3800},{"cover":"OVC","base":4800}],"fltCat":"VFR"},{"icaoId":"KCGZ","receiptTime":"2026-04-18T05:58:24.997Z","obsTime":1776491760,"reportTime":"2026-04-18T06:00:00.000Z","temp":21.1,"dewp":-9.4,"wdir":290,"wspd":10,"visib":"10+","altim":1013.3,"slp":1012,"qcField":14,"presTend":1.5,"maxT":28.3,"minT":21.1,"metarType":"METAR","rawOb":"METAR KCGZ 180556Z AUTO 29010KT 10SM CLR 21/M09 A2992 RMK AO2 SLP120 6//// T02111094 10283 20211 51015 $","lat":32.9531,"lon":-111.7725,"elev":444,"name":"Casa Granda Muni, AZ, US","cover":"CLR","clouds":[],"fltCat":"VFR"},{"icaoId":"KSGU","receiptTime":"2026-04-18T05:58:20.275Z","obsTime":1776491760,"reportTime":"2026-04-18T06:00:00.000Z","temp":12.8,"dewp":-13.9,"wdir":10,"wspd":11,"visib":"10+","altim":1020.1,"slp":1019.1,"qcField":6,"presTend":1.9,"maxT":17.2,"minT":12.2,"metarType":"METAR","rawOb":"METAR KSGU 180556Z AUTO 01011KT 10SM CLR 13/M14 A3012 RMK AO2 SLP191 T01281139 10172 20122 51019","lat":37.0444,"lon":-113.5034,"elev":877,"name":"Saint George Muni, UT, US","cover":"CLR","clouds":[],"fltCat":"VFR"},{"icaoId":"KPWT","receiptTime":"2026-04-18T05:58:28.132Z","obsTime":1776491760,"reportTime":"2026-04-18T06:00:00.000Z","temp":7.8,"dewp":2.8,"wdir":50,"wspd":4,"visib":"10+","altim":1021.1,"slp":1021.5,"qcField":6,"presTend":-0.9,"maxT":12.8,"minT":5,"metarType":"METAR","rawOb":"METAR KPWT 180556Z AUTO 05004KT 10SM CLR 08/03 A3015 RMK AO2 SLP215 T00780028 10128 20050 58009","lat":47.4942,"lon":-122.7594,"elev":143,"name":"Bremerton Arpt, WA, US","cover":"CLR","clouds":[],"fltCat":"VFR"},{"icaoId":"KENV","receiptTime":"2026-04-18T05:58:24.129Z","obsTime":1776491760,"reportTime":"2026-04-18T06:00:00.000Z","temp":3.9,"dewp":-15.6,"wdir":30,"wspd":3,"visib":"10+","altim":1024.1,"slp":1025.3,"qcField":6,"presTend":1.2,"maxT":10.6,"minT":3.3,"maxT24":10.6,"minT24":-0.6,"metarType":"METAR","rawOb":"METAR KENV 180556Z AUTO 03003KT 10SM CLR 04/M16 A3024 RMK AO2 SLP253 T00391156 10106 20033 401061006 51012","lat":40.7211,"lon":-114.0312,"elev":1291,"name":"Wendover Arpt, UT, US","cover":"CLR","clouds":[],"fltCat":"VFR"},{"icaoId":"KGUC","receiptTime":"2026-04-18T05:58:20.851Z","obsTime":1776491760,"reportTime":"2026-04-18T06:00:00.000Z","temp":-6.1,"dewp":-11.7,"wdir":0,"wspd":0,"visib":"10+","altim":1022.8,"slp":1025.1,"qcField":78,"presTend":0.9,"maxT":0.6,"minT":-6.7,"maxT24":5.6,"minT24":-6.7,"metarType":"METAR","rawOb":"METAR KGUC 180556Z AUTO 00000KT 10SM CLR M06/M12 A3020 RMK AO2 SLP251 T10611117 10006 21067 400561067 51009 FZRANO $","lat":38.5322,"lon":-106.9419,"elev":2337,"name":"Gunnison Arpt, CO, US","cover":"CLR","clouds":[],"fltCat":"VFR"},{"icaoId":"KCOD","receiptTime":"2026-04-18T05:58:25.173Z","obsTime":1776491760,"reportTime":"2026-04-18T06:00:00.000Z","temp":-0.6,"dewp":-6.7,"wdir":280,"wspd":5,"visib":"10+","altim":1021.4,"slp":1022.8,"qcField":78,"presTend":1,"maxT":3.3,"minT":-0.6,"metarType":"METAR","rawOb":"METAR KCOD 180556Z AUTO 28005KT 10SM CLR M01/M07 A3016 RMK AO2 SLP228 T10061067 10033 21006 51010 FZRANO $","lat":44.52,"lon":-109.0268,"elev":1550,"name":"Cody/Yellowstone Rgnl, WY, US","cover":"CLR","clouds":[],"fltCat":"VFR"},{"icaoId":"KJAC","receiptTime":"2026-04-18T05:58:26.111Z","obsTime":1776491760,"reportTime":"2026-04-18T06:00:00.000Z","temp":-3.3,"dewp":-6.1,"wdir":20,"wspd":3,"visib":9,"altim":1022.1,"slp":1026,"qcField":70,"wxString":"-SN","presTend":0.8,"maxT":-1.7,"minT":-5.6,"precip":0.005,"pcp6hr":0.005,"metarType":"METAR","rawOb":"METAR KJAC 180556Z AUTO 02003KT 9SM -SN FEW022 SCT036 OVC046 M03/M06 A3018 RMK AO2 SNB02 SLP260 P0000 60000 T10331061 11017 21056 50008 FZRANO","lat":43.6129,"lon":-110.7366,"elev":1967,"name":"Jackson Hole Arpt, WY, US","cover":"OVC","clouds":[{"cover":"FEW","base":2200},{"cover":"SCT","base":3600},{"cover":"OVC","base":4600}],"fltCat":"VFR"},{"icaoId":"KINW","receiptTime":"2026-04-18T06:00:23.963Z","obsTime":1776491760,"reportTime":"2026-04-18T06:00:00.000Z","temp":5.6,"dewp":-20,"wdir":160,"wspd":5,"visib":"10+","altim":1021.4,"slp":1018.8,"qcField":6,"presTend":2,"maxT":16.7,"minT":5.6,"metarType":"METAR","rawOb":"METAR KINW 180556Z AUTO 16005KT 10SM CLR 06/M20 A3016 RMK AO2 SLP188 T00561200 10167 20056 51020","lat":35.0279,"lon":-110.7221,"elev":1492,"name":"Winslow/Lindberg Rgnl, AZ, US","cover":"CLR","clouds":[],"fltCat":"VFR"},{"icaoId":"KBZN","receiptTime":"2026-04-18T06:00:23.690Z","obsTime":1776491760,"reportTime":"2026-04-18T06:00:00.000Z","temp":-2.8,"dewp":-4.4,"wdir":0,"wspd":0,"visib":"10+","altim":1021.8,"slp":1025.1,"qcField":4,"presTend":1.2,"maxT":1.1,"minT":-3.9,"metarType":"METAR","rawOb":"METAR KBZN 180556Z 00000KT 10SM BKN075 M03/M04 A3017 RMK AO2 SLP251 T10281044 10011 21039 51012","lat":45.7876,"lon":-111.1615,"elev":1349,"name":"Bozeman/Gallatin Fld, MT, US","cover":"BKN","clouds":[{"cover":"BKN","base":7500}],"fltCat":"VFR"},{"icaoId":"KRDM","receiptTime":"2026-04-18T06:00:29.854Z","obsTime":1776491760,"reportTime":"2026-04-18T06:00:00.000Z","temp":7.8,"dewp":-5,"wdir":300,"wspd":7,"visib":"10+","altim":1019.7,"slp":1019.9,"qcField":6,"presTend":0.5,"maxT":14.4,"minT":7.8,"metarType":"METAR","rawOb":"METAR KRDM 180556Z AUTO 30007KT 10SM CLR 08/M05 A3011 RMK AO2 SLP199 T00781050 10144 20078 50005","lat":44.2558,"lon":-121.1407,"elev":930,"name":"Redmond Muni, OR, US","cover":"CLR","clouds":[],"fltCat":"VFR"},{"icaoId":"KTPH","receiptTime":"2026-04-18T06:00:27.204Z","obsTime":1776491760,"reportTime":"2026-04-18T06:00:00.000Z","temp":2.2,"dewp":-22.8,"wdir":360,"wspd":8,"visib":"10+","altim":1021.8,"slp":1021.2,"qcField":6,"presTend":1.3,"maxT":12.8,"minT":1.7,"metarType":"METAR","rawOb":"METAR KTPH 180556Z AUTO 36008KT 10SM CLR 02/M23 A3017 RMK AO2 SLP212 T00221228 10128 20017 51013","lat":38.0505,"lon":-117.0906,"elev":1647,"name":"Tonopah Arpt, NV, US","cover":"CLR","clouds":[],"fltCat":"VFR"},{"icaoId":"KDUG","receiptTime":"2026-04-18T06:02:14.160Z","obsTime":1776491760,"reportTime":"2026-04-18T06:00:00.000Z","temp":15,"dewp":-3.3,"wdir":320,"wspd":9,"visib":"10+","altim":1016.3,"slp":1010.9,"qcField":38,"presTend":1.8,"maxT":26.1,"minT":13.9,"metarType":"METAR","rawOb":"METAR KDUG 180556Z AUTO 32009KT 10SM CLR 15/M03 A3001 RMK AO2 SLP109 T01501033 10261 20139 51018 TSNO","lat":31.4725,"lon":-109.6022,"elev":1260,"name":"Douglas/Bisbee Intl, AZ, US","cover":"CLR","clouds":[],"fltCat":"VFR"},{"icaoId":"KPVU","receiptTime":"2026-04-18T05:58:28.105Z","obsTime":1776491760,"reportTime":"2026-04-18T06:00:00.000Z","temp":2.2,"dewp":-7.2,"wdir":150,"wspd":7,"visib":"10+","altim":1024.5,"slp":1025.2,"qcField":68,"presTend":1.1,"maxT":7.8,"minT":1.7,"maxT24":8.3,"minT24":-2.2,"metarType":"METAR","rawOb":"METAR KPVU 180556Z 15007KT 10SM CLR 02/M07 A3025 RMK AO2 SLP252 T00221072 10078 20017 400831022 51011 FZRANO","lat":40.224,"lon":-111.7252,"elev":1370,"name":"Provo Muni, UT, US","cover":"CLR","clouds":[],"fltCat":"VFR"},{"icaoId":"KSBP","receiptTime":"2026-04-18T06:00:30.344Z","obsTime":1776491760,"reportTime":"2026-04-18T06:00:00.000Z","temp":10.6,"dewp":3.9,"wdir":150,"wspd":3,"visib":"10+","altim":1017,"slp":1016.7,"qcField":6,"presTend":1.1,"maxT":19.4,"minT":10.6,"metarType":"METAR","rawOb":"METAR KSBP 180556Z AUTO 15003KT 10SM CLR 11/04 A3003 RMK AO2 SLP167 T01060039 10194 20106 50011","lat":35.2381,"lon":-120.644,"elev":52,"name":"San Luis Obispo/San Luis Cnty, CA, US","cover":"CLR","clouds":[],"fltCat":"VFR"},{"icaoId":"KSLE","receiptTime":"2026-04-18T06:00:30.642Z","obsTime":1776491760,"reportTime":"2026-04-18T06:00:00.000Z","temp":7.8,"dewp":3.3,"wdir":0,"wspd":0,"visib":"10+","altim":1019,"slp":1019,"qcField":6,"presTend":-0.6,"maxT":14.4,"minT":7.2,"metarType":"METAR","rawOb":"METAR KSLE 180556Z AUTO 00000KT 10SM CLR 08/03 A3009 RMK AO2 SLP190 T00780033 10144 20072 56006","lat":44.9049,"lon":-123.001,"elev":63,"name":"Salem Muni, OR, US","cover":"CLR","clouds":[],"fltCat":"VFR"},{"icaoId":"KSDY","receiptTime":"2026-04-18T05:58:20.123Z","obsTime":1776491760,"reportTime":"2026-04-18T06:00:00.000Z","temp":-8.3,"dewp":-12.8,"wdir":290,"wspd":9,"visib":"10+","altim":1018.7,"slp":1022.1,"qcField":78,"presTend":0.4,"maxT":1.1,"minT":-9.4,"metarType":"METAR","rawOb":"METAR KSDY 180556Z AUTO 29009KT 10SM CLR M08/M13 A3008 RMK AO2 SLP221 T10831128 10011 21094 51004 FZRANO $","lat":47.7029,"lon":-104.1951,"elev":600,"name":"Sidney/Richland Muni, MT, US","cover":"CLR","clouds":[],"fltCat":"VFR"},{"icaoId":"KEKO","receiptTime":"2026-04-18T06:00:20.559Z","obsTime":1776491760,"reportTime":"2026-04-18T06:00:00.000Z","temp":0,"dewp":-15,"wdir":70,"wspd":4,"visib":"10+","altim":1022.8,"slp":1024,"qcField":6,"presTend":1.4,"maxT":10.6,"minT":-1.1,"metarType":"METAR","rawOb":"METAR KEKO 180556Z AUTO 07004KT 10SM CLR 00/M15 A3020 RMK AO2 SLP240 T00001150 10106 21011 51014","lat":40.824,"lon":-115.7863,"elev":1541,"name":"Elko Rgnl, NV, US","cover":"CLR","clouds":[],"fltCat":"VFR"},{"icaoId":"KHAF","receiptTime":"2026-04-18T05:58:18.258Z","obsTime":1776491700,"reportTime":"2026-04-18T06:00:00.000Z","temp":11,"dewp":10,"wdir":10,"wspd":4,"visib":9,"altim":1018,"qcField":6,"metarType":"METAR","rawOb":"METAR KHAF 180555Z AUTO 01004KT 9SM CLR 11/10 A3006 RMK AO2","lat":37.5136,"lon":-122.4996,"elev":11,"name":"Half Moon Bay Arpt, CA, US","cover":"CLR","clouds":[],"fltCat":"VFR"},{"icaoId":"KCXP","receiptTime":"2026-04-18T06:00:20.729Z","obsTime":1776491700,"reportTime":"2026-04-18T06:00:00.000Z","temp":7,"dewp":-17,"wdir":0,"wspd":0,"visib":"10+","altim":1021.4,"qcField":6,"metarType":"METAR","rawOb":"METAR KCXP 180555Z AUTO 00000KT 10SM CLR 07/M17 A3016 RMK AO2","lat":39.1905,"lon":-119.7319,"elev":1431,"name":"Carson City Arpt, NV, US","cover":"CLR","clouds":[],"fltCat":"VFR"},{"icaoId":"KIFP","receiptTime":"2026-04-18T06:00:20.798Z","obsTime":1776491700,"reportTime":"2026-04-18T06:00:00.000Z","temp":20,"dewp":-17,"wdir":20,"wspd":16,"wgst":22,"visib":"10+","altim":1015,"qcField":6,"metarType":"METAR","rawOb":"METAR KIFP 180555Z AUTO 02016G22KT 10SM CLR 20/M17 A2997 RMK AO2","lat":35.1487,"lon":-114.5611,"elev":210,"name":"Bullhead City Intl, AZ, US","cover":"CLR","clouds":[],"fltCat":"VFR"},{"icaoId":"KHOB","receiptTime":"2026-04-18T05:58:16.025Z","obsTime":1776491700,"reportTime":"2026-04-18T06:00:00.000Z","temp":18,"dewp":-3,"wdir":360,"wspd":21,"wgst":28,"visib":5,"altim":1014,"qcField":6,"wxString":"HZ","metarType":"METAR","rawOb":"METAR KHOB 180555Z AUTO 36021G28KT 5SM HZ SCT003 SCT048 18/M03 A2994 RMK AO2","lat":32.6797,"lon":-103.2222,"elev":1112,"name":"Hobbs Arpt, NM, US","cover":"SCT","clouds":[{"cover":"SCT","base":300},{"cover":"SCT","base":4800}],"fltCat":"MVFR"},{"icaoId":"KBJC","receiptTime":"2026-04-18T05:58:24.545Z","obsTime":1776491700,"reportTime":"2026-04-18T06:00:00.000Z","temp":0,"dewp":-8,"wdir":0,"wspd":0,"visib":"10+","altim":1020.4,"qcField":6,"metarType":"METAR","rawOb":"METAR KBJC 180555Z AUTO 00000KT 10SM CLR 00/M08 A3013 RMK AO2","lat":39.9008,"lon":-105.1042,"elev":1694,"name":"Rocky Mtn Metro, CO, US","cover":"CLR","clouds":[],"fltCat":"VFR"},{"icaoId":"KRTS","receiptTime":"2026-04-18T06:00:30.166Z","obsTime":1776491700,"reportTime":"2026-04-18T06:00:00.000Z","temp":0,"dewp":-17,"wdir":10,"wspd":4,"visib":"10+","altim":1021.1,"qcField":6,"metarType":"METAR","rawOb":"METAR KRTS 180555Z AUTO 01004KT 10SM CLR 00/M17 A3015 RMK AO2","lat":39.6658,"lon":-119.8731,"elev":1537,"name":"Reno/Stead Arpt, NV, US","cover":"CLR","clouds":[],"fltCat":"VFR"},{"icaoId":"KCMA","receiptTime":"2026-04-18T05:58:25.123Z","obsTime":1776491700,"reportTime":"2026-04-18T06:00:00.000Z","temp":14.4,"dewp":7.8,"wdir":50,"wspd":4,"visib":"10+","altim":1015.3,"slp":1015.9,"qcField":6,"presTend":1,"maxT":21.1,"minT":13.3,"metarType":"METAR","rawOb":"METAR KCMA 180555Z AUTO 05004KT 10SM CLR 14/08 A2998 RMK AO2 SLP159 T01440078 10211 20133 51010","lat":34.2114,"lon":-119.0876,"elev":20,"name":"Camarillo Arpt, CA, US","cover":"CLR","clouds":[],"fltCat":"VFR"},{"icaoId":"KHCR","receiptTime":"2026-04-18T05:58:23.033Z","obsTime":1776491700,"reportTime":"2026-04-18T06:00:00.000Z","temp":-5,"dewp":-10.1,"wdir":0,"wspd":0,"visib":"10+","altim":1023.8,"qcField":14,"presTend":1.5,"maxT":5.9,"minT":-5.4,"metarType":"METAR","rawOb":"METAR KHCR 180555Z AUTO 00000KT 10SM CLR M05/M10 A3023 RMK AO2 T10501101 10059 21054 51015 $","lat":40.4774,"lon":-111.4329,"elev":1708,"name":"Heber City Muni, UT, US","cover":"CLR","clouds":[],"fltCat":"VFR"},{"icaoId":"KSOW","receiptTime":"2026-04-18T05:58:20.374Z","obsTime":1776491700,"reportTime":"2026-04-18T06:00:00.000Z","temp":4,"dewp":-13,"wdir":0,"wspd":0,"visib":"10+","altim":1021.8,"qcField":6,"metarType":"METAR","rawOb":"METAR KSOW 180555Z AUTO 00000KT 10SM CLR 04/M13 A3017 RMK AO2","lat":34.2686,"lon":-110.0019,"elev":1954,"name":"Show Low Muni, AZ, US","cover":"CLR","clouds":[],"fltCat":"VFR"},{"icaoId":"KRNO","receiptTime":"2026-04-18T05:58:28.245Z","obsTime":1776491700,"reportTime":"2026-04-18T06:00:00.000Z","temp":8.3,"dewp":-15.6,"wdir":200,"wspd":4,"visib":"10+","altim":1020.7,"slp":1018.9,"qcField":4,"presTend":1.2,"maxT":15,"minT":8.3,"metarType":"METAR","rawOb":"METAR KRNO 180555Z 20004KT 10SM FEW200 08/M16 A3014 RMK AO2 SLP189 T00831156 10150 20083 50012","lat":39.5077,"lon":-119.7683,"elev":1344,"name":"Reno/Tahoe Intl, NV, US","cover":"FEW","clouds":[{"cover":"FEW","base":20000}],"fltCat":"VFR"},{"icaoId":"KADM","receiptTime":"2026-04-18T06:00:39.602Z","obsTime":1776491700,"reportTime":"2026-04-18T06:00:00.000Z","temp":21,"dewp":17,"wdir":340,"wspd":20,"visib":"10+","altim":1008.2,"qcField":6,"metarType":"METAR","rawOb":"METAR KADM 180555Z AUTO 34020KT 10SM BKN026 BKN030 21/17 A2977 RMK AO2 LTG DSNT W-NE","lat":34.3007,"lon":-97.0089,"elev":223,"name":"Ardmore Muni, OK, US","cover":"BKN","clouds":[{"cover":"BKN","base":2600},{"cover":"BKN","base":3000}],"fltCat":"MVFR"},{"icaoId":"KBVU","receiptTime":"2026-04-18T05:58:03.824Z","obsTime":1776491700,"reportTime":"2026-04-18T06:00:00.000Z","temp":12,"dewp":-13,"wdir":0,"wspd":0,"visib":"10+","altim":1018,"qcField":6,"metarType":"METAR","rawOb":"METAR KBVU 180555Z AUTO 00000KT 10SM CLR 12/M13 A3006 RMK AO2","lat":35.9489,"lon":-114.8633,"elev":654,"name":"Boulder City Muni, NV, US","cover":"CLR","clouds":[],"fltCat":"VFR"},{"icaoId":"KMEV","receiptTime":"2026-04-18T06:00:35.438Z","obsTime":1776491700,"reportTime":"2026-04-18T06:00:00.000Z","temp":0,"dewp":-6,"wdir":70,"wspd":4,"visib":"10+","altim":1020.7,"qcField":6,"metarType":"METAR","rawOb":"METAR KMEV 180555Z AUTO 07004KT 10SM CLR 00/M06 A3014 RMK AO2","lat":38.9963,"lon":-119.75,"elev":1437,"name":"Minden-Tahoe Arpt, NV, US","cover":"CLR","clouds":[],"fltCat":"VFR"},{"icaoId":"KSEZ","receiptTime":"2026-04-18T06:00:30.567Z","obsTime":1776491700,"reportTime":"2026-04-18T06:00:00.000Z","temp":11,"dewp":-21,"wdir":50,"wspd":17,"wgst":26,"visib":"10+","altim":1019,"qcField":6,"metarType":"METAR","rawOb":"METAR KSEZ 180555Z AUTO 05017G26KT 10SM CLR 11/M21 A3009 RMK AO2","lat":34.8467,"lon":-111.7884,"elev":1455,"name":"Sedona Arpt, AZ, US","cover":"CLR","clouds":[],"fltCat":"VFR"},{"icaoId":"KLUF","receiptTime":"2026-04-18T06:06:10.225Z","obsTime":1776491700,"reportTime":"2026-04-18T06:00:00.000Z","temp":23.2,"dewp":-14.6,"wdir":300,"wspd":12,"visib":"10+","altim":1011.9,"slp":1010.8,"qcField":14,"presTend":1.8,"maxT":29.9,"minT":23.2,"metarType":"METAR","rawOb":"METAR KLUF 180555Z AUTO 30012KT 10SM CLR 23/M15 A2988 RMK AO2 SLP108 T02321146 10299 20232 52018 $","lat":33.538,"lon":-112.38,"elev":333,"name":"Phoenix/Luke AFB, AZ, US","cover":"CLR","clouds":[],"fltCat":"VFR"},{"icaoId":"KAEG","receiptTime":"2026-04-18T06:00:39.636Z","obsTime":1776491700,"reportTime":"2026-04-18T06:00:00.000Z","temp":4.2,"dewp":-20.7,"wdir":330,"wspd":6,"visib":"10+","altim":1020.4,"qcField":6,"maxT":15,"minT":4.1,"metarType":"METAR","rawOb":"METAR KAEG 180555Z AUTO 33006KT 10SM CLR 04/M21 A3013 RMK AO2 T00421207 10150 20041","lat":35.15,"lon":-106.7929,"elev":1771,"name":"Albuquerque/Double Eagle Arpt, NM, US","cover":"CLR","clouds":[],"fltCat":"VFR"},{"icaoId":"KGPI","receiptTime":"2026-04-18T05:58:20.786Z","obsTime":1776491700,"reportTime":"2026-04-18T06:00:00.000Z","temp":1.7,"dewp":-1.1,"wdir":0,"wspd":0,"visib":9,"altim":1021.4,"slp":1023.4,"qcField":4,"presTend":0.7,"maxT":5,"minT":0,"metarType":"METAR","rawOb":"METAR KGPI 180555Z 00000KT 9SM CLR 02/M01 A3016 RMK AO2 SLP234 T00171011 10050 20000 50007","lat":48.3041,"lon":-114.2643,"elev":903,"name":"Kalispell/Glacier Park Intl, MT, US","cover":"CLR","clouds":[],"fltCat":"VFR"},{"icaoId":"KHTH","receiptTime":"2026-04-18T06:00:23.838Z","obsTime":1776491700,"reportTime":"2026-04-18T06:00:00.000Z","temp":8,"dewp":-18,"wdir":230,"wspd":3,"visib":"10+","altim":1020.7,"qcField":6,"metarType":"METAR","rawOb":"METAR KHTH 180555Z AUTO 23003KT 10SM CLR 08/M18 A3014 RMK A01","lat":38.5448,"lon":-118.6314,"elev":1281,"name":"Hawthorne Muni, NV, US","cover":"CLR","clouds":[],"fltCat":"VFR"},{"icaoId":"KMHR","receiptTime":"2026-04-18T06:00:21.654Z","obsTime":1776491700,"reportTime":"2026-04-18T06:00:00.000Z","temp":13,"dewp":6,"wdir":150,"wspd":4,"visib":"10+","altim":1016,"qcField":6,"metarType":"METAR","rawOb":"METAR KMHR 180555Z AUTO 15004KT 10SM CLR 13/06 A3000 RMK AO2","lat":38.56,"lon":-121.284,"elev":30,"name":"Sacramento/Mather Fld, CA, US","cover":"CLR","clouds":[],"fltCat":"VFR"},{"icaoId":"KCHD","receiptTime":"2026-04-18T05:58:25.015Z","obsTime":1776491700,"reportTime":"2026-04-18T06:00:00.000Z","temp":23.2,"dewp":-8,"wdir":300,"wspd":8,"visib":"10+","altim":1012.6,"qcField":14,"metarType":"METAR","rawOb":"METAR KCHD 180555Z AUTO 30008KT 10SM CLR 23/M08 A2990 RMK AO2 T02321080 $","lat":33.2669,"lon":-111.8086,"elev":378,"name":"Chandler Muni, AZ, US","cover":"CLR","clouds":[],"fltCat":"VFR"},{"icaoId":"KHII","receiptTime":"2026-04-18T06:00:38.552Z","obsTime":1776491700,"reportTime":"2026-04-18T06:00:00.000Z","temp":20,"dewp":-17,"wdir":360,"wspd":10,"wgst":17,"visib":"10+","altim":1015,"qcField":6,"metarType":"METAR","rawOb":"METAR KHII 180555Z AUTO 36010G17KT 10SM CLR 20/M17 A2997 RMK AO2","lat":34.5659,"lon":-114.3522,"elev":241,"name":"Lake Havasu City Arpt, AZ, US","cover":"CLR","clouds":[],"fltCat":"VFR"},{"icaoId":"KSUN","receiptTime":"2026-04-18T05:58:21.635Z","obsTime":1776491700,"reportTime":"2026-04-18T06:00:00.000Z","wdir":300,"wspd":6,"visib":"10+","altim":1023.5,"qcField":6,"metarType":"METAR","rawOb":"METAR KSUN 180555Z AUTO 30006KT 10SM CLR A3022 RMK AO2","lat":43.4969,"lon":-114.2923,"elev":1619,"name":"Hailey/Friedman Mem, ID, US","cover":"CLR","clouds":[],"fltCat":"VFR"},{"icaoId":"KEND","receiptTime":"2026-04-18T06:06:04.014Z","obsTime":1776491700,"reportTime":"2026-04-18T06:00:00.000Z","temp":10.3,"dewp":0.3,"wdir":350,"wspd":15,"wgst":23,"visib":"10+","altim":1014.6,"slp":1014.1,"qcField":12,"presTend":4.3,"maxT":17.4,"minT":10.3,"maxT24":26.6,"minT24":10.3,"pcp6hr":0.25,"metarType":"METAR","rawOb":"METAR KEND 180555Z 35015G23KT 10SM CLR 10/00 A2996 RMK AO2A PK WND 01037/02 LTG DSNT SE-S SLP141 60025 T01030003 10174 20103 402660103 52043 $","lat":36.338,"lon":-97.919,"elev":392,"name":"Enid/Vance AFB, OK, US","cover":"CLR","clouds":[],"fltCat":"VFR"},{"icaoId":"KLRU","receiptTime":"2026-04-18T05:58:13.102Z","obsTime":1776491700,"reportTime":"2026-04-18T06:00:00.000Z","temp":14.9,"dewp":-10.6,"wdir":50,"wspd":5,"visib":"10+","altim":1016,"qcField":6,"maxT":24.6,"minT":14.9,"metarType":"METAR","rawOb":"METAR KLRU 180555Z AUTO 05005KT 10SM CLR 15/M11 A3000 RMK AO2 T01491106 10246 20149","lat":32.2884,"lon":-106.9131,"elev":1355,"name":"Las Cruces Intl, NM, US","cover":"CLR","clouds":[],"fltCat":"VFR"},{"icaoId":"KAST","receiptTime":"2026-04-18T05:58:25.699Z","obsTime":1776491700,"reportTime":"2026-04-18T06:00:00.000Z","temp":7.8,"dewp":5.6,"wdir":0,"wspd":0,"visib":"10+","altim":1019.4,"slp":1019.3,"qcField":6,"presTend":-1,"maxT":12.8,"minT":7.8,"metarType":"METAR","rawOb":"METAR KAST 180555Z AUTO 00000KT 10SM CLR 08/06 A3010 RMK AO2 SLP193 T00780056 10128 20078 58010","lat":46.157,"lon":-123.8833,"elev":3,"name":"Astoria Rgnl, OR, US","cover":"CLR","clouds":[],"fltCat":"VFR"},{"icaoId":"KAPC","receiptTime":"2026-04-18T05:58:18.271Z","obsTime":1776491640,"reportTime":"2026-04-18T06:00:00.000Z","temp":9.4,"dewp":6.1,"wdir":210,"wspd":3,"visib":"10+","altim":1017.4,"slp":1016.3,"qcField":6,"presTend":0.8,"maxT":21.1,"minT":8.9,"metarType":"METAR","rawOb":"METAR KAPC 180554Z AUTO 21003KT 10SM CLR 09/06 A3004 RMK AO2 SLP163 T00940061 10211 20089 50008","lat":38.2075,"lon":-122.2804,"elev":5,"name":"Napa Cnty Arpt, CA, US","cover":"CLR","clouds":[],"fltCat":"VFR"},{"icaoId":"KOLM","receiptTime":"2026-04-18T05:58:19.237Z","obsTime":1776491640,"reportTime":"2026-04-18T06:00:00.000Z","temp":6.1,"dewp":2.8,"wdir":0,"wspd":0,"visib":"10+","altim":1020.7,"slp":1020.8,"qcField":6,"presTend":-1,"maxT":13.9,"minT":5,"metarType":"METAR","rawOb":"METAR KOLM 180554Z AUTO 00000KT 10SM CLR 06/03 A3014 RMK AO2 SLP208 T00610028 10139 20050 56010","lat":46.9737,"lon":-122.9049,"elev":58,"name":"Olympia Rgnl, WA, US","cover":"CLR","clouds":[],"fltCat":"VFR"},{"icaoId":"KOLS","receiptTime":"2026-04-18T05:58:19.248Z","obsTime":1776491640,"reportTime":"2026-04-18T06:00:00.000Z","temp":14.4,"dewp":-2.8,"wdir":70,"wspd":4,"visib":"10+","altim":1016,"slp":1010.8,"qcField":6,"presTend":1.6,"maxT":25,"minT":14.4,"metarType":"METAR","rawOb":"METAR KOLS 180554Z AUTO 07004KT 10SM CLR 14/M03 A3000 RMK AO2 SLP108 T01441028 10250 20144 51016","lat":31.4208,"lon":-110.8465,"elev":1194,"name":"Nogales Intl, AZ, US","cover":"CLR","clouds":[],"fltCat":"VFR"},{"icaoId":"KBUF","receiptTime":"2026-04-18T05:58:17.949Z","obsTime":1776491640,"reportTime":"2026-04-18T06:00:00.000Z","temp":11.7,"dewp":10.6,"wdir":120,"wspd":4,"visib":8,"altim":1013.3,"slp":1013.3,"qcField":12,"presTend":-1.3,"maxT":16.7,"minT":11.1,"metarType":"METAR","rawOb":"METAR KBUF 180554Z 12004KT 8SM BKN280 12/11 A2992 RMK AO2 SLP133 T01170106 10167 20111 58013 $","lat":42.94,"lon":-78.7361,"elev":217,"name":"Buffalo-Niagara Intl, NY, US","cover":"BKN","clouds":[{"cover":"BKN","base":28000}],"fltCat":"VFR"},{"icaoId":"KBTV","receiptTime":"2026-04-18T05:58:17.936Z","obsTime":1776491640,"reportTime":"2026-04-18T06:00:00.000Z","temp":8.3,"dewp":6.7,"wdir":0,"wspd":0,"visib":"10+","altim":1016.7,"slp":1016.6,"qcField":6,"presTend":-0.9,"maxT":15.6,"minT":8.3,"metarType":"METAR","rawOb":"METAR KBTV 180554Z AUTO 00000KT 10SM CLR 08/07 A3002 RMK AO2 SLP166 T00830067 10156 20083 58009","lat":44.4682,"lon":-73.1499,"elev":101,"name":"Burlington Intl, VT, US","cover":"CLR","clouds":[],"fltCat":"VFR"},{"icaoId":"KBOS","receiptTime":"2026-04-18T06:12:05.219Z","obsTime":1776491640,"reportTime":"2026-04-18T06:00:00.000Z","temp":9.4,"dewp":8.3,"wdir":330,"wspd":4,"visib":"10+","altim":1018.4,"slp":1018.1,"qcField":0,"presTend":0.5,"maxT":11.1,"minT":8.3,"metarType":"METAR","rawOb":"METAR KBOS 180554Z 33004KT 10SM CLR 09/08 A3007 RMK SLP181 T00940083 10111 20083 51005","lat":42.3606,"lon":-71.0097,"elev":4,"name":"Boston/Logan Intl, MA, US","cover":"CLR","clouds":[],"fltCat":"VFR"},{"icaoId":"KSLC","receiptTime":"2026-04-18T05:58:18.392Z","obsTime":1776491640,"reportTime":"2026-04-18T06:00:00.000Z","temp":2.2,"dewp":-10,"wdir":160,"wspd":6,"visib":"10+","altim":1024.1,"slp":1024,"qcField":4,"presTend":1.1,"maxT":8.3,"minT":2.2,"metarType":"METAR","rawOb":"METAR KSLC 180554Z 16006KT 10SM CLR 02/M10 A3024 RMK AO2 SLP240 T00221100 10083 20022 51011","lat":40.7707,"lon":-111.965,"elev":1286,"name":"Salt Lake City Intl, UT, US","cover":"CLR","clouds":[],"fltCat":"VFR"},{"icaoId":"KSJN","receiptTime":"2026-04-18T05:58:09.451Z","obsTime":1776491640,"reportTime":"2026-04-18T06:00:00.000Z","temp":4.4,"dewp":-12.8,"wdir":300,"wspd":3,"visib":"10+","altim":1020.1,"slp":1015.6,"qcField":6,"presTend":1.8,"maxT":17.8,"minT":3.9,"metarType":"METAR","rawOb":"METAR KSJN 180554Z AUTO 30003KT 10SM CLR 04/M13 A3012 RMK AO2 SLP156 T00441128 10178 20039 51018","lat":34.5184,"lon":-109.3801,"elev":1747,"name":"St Johns Ind Arpt, AZ, US","cover":"CLR","clouds":[],"fltCat":"VFR"},{"icaoId":"KCOS","receiptTime":"2026-04-18T05:58:15.163Z","obsTime":1776491640,"reportTime":"2026-04-18T06:00:00.000Z","temp":-2.2,"dewp":-6.1,"wdir":210,"wspd":4,"visib":"10+","altim":1021.4,"slp":1023.4,"qcField":4,"presTend":1,"maxT":1.7,"minT":-4.4,"metarType":"METAR","rawOb":"METAR KCOS 180554Z 21004KT 10SM FEW020 FEW040 M02/M06 A3016 RMK AO2 SLP234 T10221061 10017 21044 51010","lat":38.8095,"lon":-104.6887,"elev":1886,"name":"Colorado Spring Arpt, CO, US","cover":"FEW","clouds":[{"cover":"FEW","base":2000},{"cover":"FEW","base":4000}],"fltCat":"VFR"},{"icaoId":"KFFZ","receiptTime":"2026-04-18T05:58:11.841Z","obsTime":1776491640,"reportTime":"2026-04-18T06:00:00.000Z","temp":22.8,"dewp":-6.7,"wdir":270,"wspd":5,"visib":"10+","altim":1012.6,"slp":1010.3,"qcField":6,"presTend":1.6,"maxT":28.3,"minT":21.7,"metarType":"METAR","rawOb":"METAR KFFZ 180554Z AUTO 27005KT 10SM CLR 23/M07 A2990 RMK AO2 SLP103 T02281067 10283 20217 51016","lat":33.4659,"lon":-111.7212,"elev":420,"name":"Mesa/Falcon Fld, AZ, US","cover":"CLR","clouds":[],"fltCat":"VFR"},{"icaoId":"KIND","receiptTime":"2026-04-18T05:58:16.184Z","obsTime":1776491640,"reportTime":"2026-04-18T06:00:00.000Z","temp":22.8,"dewp":16.7,"wdir":190,"wspd":15,"wgst":22,"visib":"10+","altim":1007.2,"slp":1006.3,"qcField":4,"presTend":-2.8,"maxT":25,"minT":22.8,"precip":0.005,"pcp6hr":0.005,"metarType":"METAR","rawOb":"METAR KIND 180554Z 19015G22KT 10SM FEW150 OVC230 23/17 A2974 RMK AO2 RAE0459 SLP063 P0000 60000 T02280167 10250 20228 58028","lat":39.7252,"lon":-86.2816,"elev":242,"name":"Indianapolis Intl, IN, US","cover":"OVC","clouds":[{"cover":"FEW","base":15000},{"cover":"OVC","base":23000}],"fltCat":"VFR"},{"icaoId":"KGSO","receiptTime":"2026-04-18T05:58:17.849Z","obsTime":1776491640,"reportTime":"2026-04-18T06:00:00.000Z","temp":16.7,"dewp":12.2,"wdir":0,"wspd":0,"visib":"10+","altim":1015.3,"slp":1014.2,"qcField":4,"presTend":0.7,"maxT":25,"minT":16.7,"metarType":"METAR","rawOb":"METAR KGSO 180554Z 00000KT 10SM FEW085 SCT250 17/12 A2998 RMK AO2 SLP142 T01670122 10250 20167 51007","lat":36.0969,"lon":-79.9432,"elev":275,"name":"Greensboro Intl, NC, US","cover":"SCT","clouds":[{"cover":"FEW","base":8500},{"cover":"SCT","base":25000}],"fltCat":"VFR"},{"icaoId":"KBFL","receiptTime":"2026-04-18T05:58:18.301Z","obsTime":1776491640,"reportTime":"2026-04-18T06:00:00.000Z","temp":18.9,"dewp":-0.6,"wdir":80,"wspd":6,"visib":"10+","altim":1016.3,"slp":1015.7,"qcField":14,"presTend":1.8,"maxT":25.6,"minT":17.2,"metarType":"METAR","rawOb":"METAR KBFL 180554Z AUTO 08006KT 10SM CLR 19/M01 A3001 RMK AO2 SLP157 T01891006 10256 20172 52018 $","lat":35.4342,"lon":-119.0552,"elev":146,"name":"Bakersfield/Meadows Arpt, CA, US","cover":"CLR","clouds":[],"fltCat":"VFR"},{"icaoId":"KROC","receiptTime":"2026-04-18T05:58:18.131Z","obsTime":1776491640,"reportTime":"2026-04-18T06:00:00.000Z","temp":10,"dewp":8.3,"wdir":200,"wspd":3,"visib":"10+","altim":1014.6,"slp":1014.7,"qcField":12,"presTend":-0.9,"maxT":14.4,"minT":9.4,"metarType":"METAR","rawOb":"METAR KROC 180554Z 20003KT 10SM CLR 10/08 A2996 RMK AO2 SLP147 T01000083 10144 20094 55009 $","lat":43.1172,"lon":-77.6754,"elev":166,"name":"Rochester Intl Arpt, NY, US","cover":"CLR","clouds":[],"fltCat":"VFR"},{"icaoId":"KRKS","receiptTime":"2026-04-18T05:58:18.770Z","obsTime":1776491640,"reportTime":"2026-04-18T06:00:00.000Z","temp":-5,"dewp":-10,"wdir":240,"wspd":9,"visib":"10+","altim":1022.4,"slp":1025.9,"qcField":6,"presTend":1.3,"maxT":1.7,"minT":-5,"metarType":"METAR","rawOb":"METAR KRKS 180554Z AUTO 24009KT 10SM CLR M05/M10 A3019 RMK AO2 SLP259 T10501100 10017 21050 51013","lat":41.5947,"lon":-109.0529,"elev":2062,"name":"Rock Springs/SW Wyoming Rgnl, WY, US","cover":"CLR","clouds":[],"fltCat":"VFR"},{"icaoId":"KSYR","receiptTime":"2026-04-18T05:58:18.157Z","obsTime":1776491640,"reportTime":"2026-04-18T06:00:00.000Z","temp":8.9,"dewp":8.3,"wdir":100,"wspd":3,"visib":"10+","altim":1015.3,"slp":1015,"qcField":4,"presTend":-0.5,"maxT":12.8,"minT":8.9,"metarType":"METAR","rawOb":"METAR KSYR 180554Z 10003KT 10SM SCT250 09/08 A2998 RMK AO2 SLP150 T00890083 10128 20089 58005","lat":43.1111,"lon":-76.1038,"elev":125,"name":"Syracuse/Hancock Intl, NY, US","cover":"SCT","clouds":[{"cover":"SCT","base":25000}],"fltCat":"VFR"},{"icaoId":"KRIC","receiptTime":"2026-04-18T05:58:18.102Z","obsTime":1776491640,"reportTime":"2026-04-18T06:00:00.000Z","temp":17.2,"dewp":12.8,"wdir":0,"wspd":0,"visib":"10+","altim":1015,"slp":1015.1,"qcField":12,"presTend":0.4,"maxT":24.4,"minT":16.7,"metarType":"METAR","rawOb":"METAR KRIC 180554Z 00000KT 10SM FEW250 17/13 A2997 RMK AO2 SLP151 T01720128 10244 20167 51004 $","lat":37.5115,"lon":-77.3234,"elev":51,"name":"Richmond Intl, VA, US","cover":"FEW","clouds":[{"cover":"FEW","base":25000}],"fltCat":"VFR"},{"icaoId":"KBWI","receiptTime":"2026-04-18T05:58:17.961Z","obsTime":1776491640,"reportTime":"2026-04-18T06:00:00.000Z","temp":16.1,"dewp":12.8,"wdir":260,"wspd":3,"visib":"10+","altim":1015,"slp":1014.8,"qcField":4,"presTend":0.7,"maxT":23.9,"minT":14.4,"metarType":"METAR","rawOb":"METAR KBWI 180554Z 26003KT 10SM BKN250 16/13 A2997 RMK AO2 SLP148 T01610128 10239 20144 51007","lat":39.1733,"lon":-76.684,"elev":42,"name":"Baltimore-Washington Intl, MD, US","cover":"BKN","clouds":[{"cover":"BKN","base":25000}],"fltCat":"VFR"},{"icaoId":"KMEM","receiptTime":"2026-04-18T05:58:13.280Z","obsTime":1776491640,"reportTime":"2026-04-18T06:00:00.000Z","temp":23.9,"dewp":15.6,"wdir":200,"wspd":14,"wgst":28,"visib":"10+","altim":1009.6,"slp":1008.9,"qcField":12,"presTend":-2.5,"maxT":27.8,"minT":23.3,"maxT24":30,"minT24":18.3,"metarType":"METAR","rawOb":"METAR KMEM 180554Z 20014G28KT 10SM OVC250 24/16 A2981 RMK AO2 PK WND 19028/0549 SLP089 T02390156 10278 20233 403000183 58025 $","lat":35.0564,"lon":-89.9864,"elev":78,"name":"Memphis Intl, TN, US","cover":"OVC","clouds":[{"cover":"OVC","base":25000}],"fltCat":"VFR"},{"icaoId":"KDSM","receiptTime":"2026-04-18T05:58:15.201Z","obsTime":1776491640,"reportTime":"2026-04-18T06:00:00.000Z","temp":6.1,"dewp":-2.8,"wdir":310,"wspd":20,"wgst":30,"visib":"10+","altim":1012.6,"slp":1012.1,"qcField":12,"presTend":1.8,"maxT":10,"minT":6.1,"maxT24":27.8,"minT24":6.1,"pcp6hr":0.005,"metarType":"METAR","rawOb":"METAR KDSM 180554Z 31020G30KT 10SM FEW065 06/M03 A2990 RMK AO2 PK WND 33035/0528 SLP121 60000 T00611028 10100 20061 402780061 53018 $","lat":41.5339,"lon":-93.6531,"elev":286,"name":"Des Moines Intl, IA, US","cover":"FEW","clouds":[{"cover":"FEW","base":6500}],"fltCat":"VFR"},{"icaoId":"KEUG","receiptTime":"2026-04-18T05:58:18.225Z","obsTime":1776491640,"reportTime":"2026-04-18T06:00:00.000Z","temp":7.8,"dewp":4.4,"wdir":0,"wspd":0,"visib":"10+","altim":1019.4,"slp":1019.4,"qcField":4,"presTend":-0.2,"maxT":15,"minT":7.8,"metarType":"METAR","rawOb":"METAR KEUG 180554Z 00000KT 10SM SCT150 08/04 A3010 RMK AO2 SLP194 T00780044 10150 20078 58002","lat":44.1331,"lon":-123.2156,"elev":109,"name":"Eugene/Mahlon Sweet Fld, OR, US","cover":"SCT","clouds":[{"cover":"SCT","base":15000}],"fltCat":"VFR"},{"icaoId":"KPHL","receiptTime":"2026-04-18T05:58:19.464Z","obsTime":1776491640,"reportTime":"2026-04-18T06:00:00.000Z","temp":17.8,"dewp":13.3,"wdir":90,"wspd":9,"visib":"10+","altim":1016.3,"slp":1016,"qcField":12,"presTend":1.9,"maxT":25.6,"minT":17.8,"metarType":"METAR","rawOb":"METAR KPHL 180554Z 09009KT 10SM FEW015 FEW060 18/13 A3001 RMK AO2 SLP160 T01780133 10256 20178 53019 $","lat":39.8733,"lon":-75.2268,"elev":2,"name":"Philadelphia Intl, PA, US","cover":"FEW","clouds":[{"cover":"FEW","base":1500},{"cover":"FEW","base":6000}],"fltCat":"VFR"},{"icaoId":"KGCN","receiptTime":"2026-04-18T05:58:18.242Z","obsTime":1776491640,"reportTime":"2026-04-18T06:00:00.000Z","temp":-2.2,"dewp":-20.6,"wdir":0,"wspd":0,"visib":"10+","altim":1022.1,"slp":1019.9,"qcField":6,"presTend":1.4,"maxT":11.1,"minT":-2.2,"metarType":"METAR","rawOb":"METAR KGCN 180554Z AUTO 00000KT 10SM CLR M02/M21 A3018 RMK AO2 SLP199 T10221206 10111 21022 51014","lat":35.9458,"lon":-112.1554,"elev":1993,"name":"Grand Canyon Park Arpt, AZ, US","cover":"CLR","clouds":[],"fltCat":"VFR"},{"icaoId":"KBNA","receiptTime":"2026-04-18T05:56:30.255Z","obsTime":1776491580,"reportTime":"2026-04-18T06:00:00.000Z","temp":19.4,"dewp":14.4,"wdir":190,"wspd":5,"visib":"10+","altim":1012.6,"slp":1011.8,"qcField":4,"presTend":-1.2,"maxT":26.7,"minT":19.4,"maxT24":29.4,"minT24":13.9,"metarType":"METAR","rawOb":"METAR KBNA 180553Z 19005KT 10SM FEW050 19/14 A2990 RMK AO2 SLP118 T01940144 10267 20194 402940139 58012","lat":36.1105,"lon":-86.6881,"elev":168,"name":"Nashville Intl, TN, US","cover":"FEW","clouds":[{"cover":"FEW","base":5000}],"fltCat":"VFR"},{"icaoId":"KMSO","receiptTime":"2026-04-18T05:56:28.710Z","obsTime":1776491580,"reportTime":"2026-04-18T06:00:00.000Z","temp":0,"dewp":-5.6,"wdir":350,"wspd":6,"visib":"10+","altim":1023.1,"slp":1024.8,"qcField":14,"presTend":1.1,"maxT":8.3,"minT":-0.6,"metarType":"METAR","rawOb":"METAR KMSO 180553Z AUTO 35006KT 10SM FEW075 00/M06 A3021 RMK AO2 SLP248 T00001056 10083 21006 51011 $","lat":46.9208,"lon":-114.0938,"elev":974,"name":"Missoula Intl, MT, US","cover":"FEW","clouds":[{"cover":"FEW","base":7500}],"fltCat":"VFR"},{"icaoId":"KYKM","receiptTime":"2026-04-18T05:56:28.736Z","obsTime":1776491580,"reportTime":"2026-04-18T06:00:00.000Z","temp":3.3,"dewp":-2.8,"wdir":300,"wspd":3,"visib":"10+","altim":1021.8,"slp":1022.2,"qcField":6,"presTend":0.4,"maxT":15,"minT":2.8,"metarType":"METAR","rawOb":"METAR KYKM 180553Z AUTO 30003KT 10SM CLR 03/M03 A3017 RMK AO2 SLP222 T00331028 10150 20028 50004","lat":46.564,"lon":-120.5349,"elev":319,"name":"Yakima/McAllister Fld, WA, US","cover":"CLR","clouds":[],"fltCat":"VFR"},{"icaoId":"KPDX","receiptTime":"2026-04-18T05:56:28.912Z","obsTime":1776491580,"reportTime":"2026-04-18T06:00:00.000Z","temp":10,"dewp":3.9,"wdir":0,"wspd":0,"visib":"10+","altim":1019.4,"slp":1019.3,"qcField":12,"presTend":-0.8,"maxT":15,"minT":10,"metarType":"METAR","rawOb":"METAR KPDX 180553Z 00000KT 10SM BKN200 10/04 A3010 RMK AO2 SLP193 T01000039 10150 20100 58008 $","lat":45.5958,"lon":-122.6092,"elev":7,"name":"Portland Intl, OR, US","cover":"BKN","clouds":[{"cover":"BKN","base":20000}],"fltCat":"VFR"},{"icaoId":"KMDW","receiptTime":"2026-04-18T05:56:29.166Z","obsTime":1776491580,"reportTime":"2026-04-18T06:00:00.000Z","temp":17.2,"dewp":15,"wdir":240,"wspd":16,"wgst":24,"visib":"10+","altim":1003.8,"slp":1002.9,"qcField":4,"wxString":"-RA","presTend":-1.7,"maxT":26.1,"minT":16.1,"maxT24":27.8,"minT24":8.9,"precip":0.005,"pcp6hr":0.89,"metarType":"METAR","rawOb":"METAR KMDW 180553Z 24016G24KT 10SM -RA OVC120 17/15 A2964 RMK AO2 SLP029 P0000 60089 T01720150 10261 20161 402780089 55017","lat":41.7841,"lon":-87.7552,"elev":186,"name":"Chicago/Midway Intl, IL, US","cover":"OVC","clouds":[{"cover":"OVC","base":12000}],"fltCat":"VFR"},{"icaoId":"KMIA","receiptTime":"2026-04-18T05:56:29.255Z","obsTime":1776491580,"reportTime":"2026-04-18T06:00:00.000Z","temp":23.9,"dewp":21.1,"wdir":100,"wspd":6,"visib":"10+","altim":1015.7,"slp":1015.5,"qcField":0,"presTend":-1.3,"maxT":26.1,"minT":23.9,"metarType":"METAR","rawOb":"METAR KMIA 180553Z 10006KT 10SM FEW020 24/21 A2999 RMK SLP155 T02390211 10261 20239 58013","lat":25.7881,"lon":-80.3169,"elev":1,"name":"Miami Intl, FL, US","cover":"FEW","clouds":[{"cover":"FEW","base":2000}],"fltCat":"VFR"},{"icaoId":"KPNC","receiptTime":"2026-04-18T05:56:29.552Z","obsTime":1776491580,"reportTime":"2026-04-18T06:00:00.000Z","temp":10,"dewp":1.7,"wdir":10,"wspd":13,"wgst":24,"visib":"10+","altim":1015.3,"slp":1014.4,"qcField":6,"presTend":4.7,"maxT":20.6,"minT":10,"maxT24":25,"minT24":10,"pcp6hr":1.19,"metarType":"METAR","rawOb":"METAR KPNC 180553Z AUTO 01013G24KT 10SM CLR 10/02 A2998 RMK AO2 PK WND 35033/0509 SLP144 60119 T01000017 10206 20100 402500100 51047","lat":36.7369,"lon":-97.1024,"elev":304,"name":"Ponca City Rgnl, OK, US","cover":"CLR","clouds":[],"fltCat":"VFR"},{"icaoId":"KPRC","receiptTime":"2026-04-18T05:56:29.620Z","obsTime":1776491580,"reportTime":"2026-04-18T06:00:00.000Z","temp":10,"dewp":-17.8,"wdir":280,"wspd":8,"visib":"10+","altim":1018.7,"slp":1014,"qcField":6,"presTend":1.9,"maxT":18.9,"minT":9.4,"metarType":"METAR","rawOb":"METAR KPRC 180553Z AUTO 28008KT 10SM CLR 10/M18 A3008 RMK AO2 SLP140 T01001178 10189 20094 51019","lat":34.6491,"lon":-112.4223,"elev":1528,"name":"Prescott/Love Fld, AZ, US","cover":"CLR","clouds":[],"fltCat":"VFR"},{"icaoId":"KPSC","receiptTime":"2026-04-18T05:56:29.638Z","obsTime":1776491580,"reportTime":"2026-04-18T06:00:00.000Z","temp":5,"dewp":1.1,"wdir":0,"wspd":0,"visib":"10+","altim":1022.4,"slp":1022.3,"qcField":6,"presTend":-0.2,"maxT":16.1,"minT":5,"metarType":"METAR","rawOb":"METAR KPSC 180553Z AUTO 00000KT 10SM CLR 05/01 A3019 RMK AO2 SLP223 T00500011 10161 20050 58002","lat":46.2695,"lon":-119.1182,"elev":121,"name":"Pasco/Tri Cities Arpt, WA, US","cover":"CLR","clouds":[],"fltCat":"VFR"},{"icaoId":"KPSP","receiptTime":"2026-04-18T05:56:29.650Z","obsTime":1776491580,"reportTime":"2026-04-18T06:00:00.000Z","temp":22.8,"dewp":-21.1,"wdir":310,"wspd":8,"visib":"10+","altim":1015.7,"slp":1015.3,"qcField":14,"presTend":2,"maxT":27.8,"minT":22.2,"metarType":"METAR","rawOb":"METAR KPSP 180553Z AUTO 31008KT 10SM CLR 23/M21 A2999 RMK AO2 SLP153 T02281211 10278 20222 51020 $","lat":33.8222,"lon":-116.5043,"elev":123,"name":"Palm Springs Intl, CA, US","cover":"CLR","clouds":[],"fltCat":"VFR"},{"icaoId":"KPUB","receiptTime":"2026-04-18T05:56:29.676Z","obsTime":1776491580,"reportTime":"2026-04-18T06:00:00.000Z","temp":0,"dewp":-3.3,"wdir":230,"wspd":5,"visib":"10+","altim":1022.1,"slp":1021.6,"qcField":14,"presTend":1,"maxT":3.9,"minT":0,"pcp6hr":0.005,"metarType":"METAR","rawOb":"METAR KPUB 180553Z AUTO 23005KT 10SM FEW080 00/M03 A3018 RMK AO2 SLP216 60000 T00001033 10039 20000 51010 $","lat":38.2887,"lon":-104.5057,"elev":1441,"name":"Pueblo Mem Arpt, CO, US","cover":"FEW","clouds":[{"cover":"FEW","base":8000}],"fltCat":"VFR"},{"icaoId":"KPUW","receiptTime":"2026-04-18T05:56:29.698Z","obsTime":1776491580,"reportTime":"2026-04-18T06:00:00.000Z","temp":1.1,"dewp":-2.2,"wdir":0,"wspd":0,"visib":"10+","altim":1023.1,"slp":1024.8,"qcField":6,"maxT":9.4,"minT":1.1,"metarType":"METAR","rawOb":"METAR KPUW 180553Z AUTO 00000KT 10SM CLR 01/M02 A3021 RMK AO2 SLP248 T00111022 10094 20011 50000","lat":46.7438,"lon":-117.1158,"elev":774,"name":"Pullman/Moscow Rgnl, WA, US","cover":"CLR","clouds":[],"fltCat":"VFR"},{"icaoId":"KSAF","receiptTime":"2026-04-18T05:56:29.977Z","obsTime":1776491580,"reportTime":"2026-04-18T06:00:00.000Z","temp":0.6,"dewp":-22.8,"wdir":350,"wspd":9,"visib":"10+","altim":1020.1,"slp":1015.2,"qcField":6,"presTend":1.5,"maxT":15,"minT":0.6,"metarType":"METAR","rawOb":"METAR KSAF 180553Z AUTO 35009KT 10SM CLR 01/M23 A3012 RMK AO2 SLP152 T00061228 10150 20006 51015","lat":35.611,"lon":-106.0957,"elev":1918,"name":"Santa Fe Cnty Muni, NM, US","cover":"CLR","clouds":[],"fltCat":"VFR"},{"icaoId":"KBFI","receiptTime":"2026-04-18T05:56:30.064Z","obsTime":1776491580,"reportTime":"2026-04-18T06:00:00.000Z","temp":10.6,"dewp":2.8,"wdir":0,"wspd":0,"visib":"10+","altim":1021.1,"slp":1020.9,"qcField":4,"presTend":-0.6,"maxT":13.3,"minT":10.6,"metarType":"METAR","rawOb":"METAR KBFI 180553Z 00000KT 10SM CLR 11/03 A3015 RMK AO2 SLP209 T01060028 10133 20106 58006","lat":47.5455,"lon":-122.3148,"elev":7,"name":"Seattle/Boeing Fld, WA, US","cover":"CLR","clouds":[],"fltCat":"VFR"},{"icaoId":"KBLI","receiptTime":"2026-04-18T05:56:30.204Z","obsTime":1776491580,"reportTime":"2026-04-18T06:00:00.000Z","temp":7.2,"dewp":5,"wdir":0,"wspd":0,"visib":"10+","altim":1021.1,"slp":1021.8,"qcField":4,"presTend":-0.9,"maxT":13.3,"minT":6.1,"metarType":"METAR","rawOb":"METAR KBLI 180553Z 00000KT 10SM CLR 07/05 A3015 RMK AO2 SLP218 T00720050 10133 20061 58009","lat":48.7991,"lon":-122.5407,"elev":46,"name":"Bellingham Intl, WA, US","cover":"CLR","clouds":[],"fltCat":"VFR"},{"icaoId":"KBOI","receiptTime":"2026-04-18T05:56:30.272Z","obsTime":1776491580,"reportTime":"2026-04-18T06:00:00.000Z","temp":5.6,"dewp":-5,"wdir":130,"wspd":5,"visib":"10+","altim":1023.1,"slp":1023.5,"qcField":4,"presTend":0.6,"maxT":11.1,"minT":5,"metarType":"METAR","rawOb":"METAR KBOI 180553Z 13005KT 10SM CLR 06/M05 A3021 RMK AO2 SLP235 T00561050 10111 20050 50006","lat":43.567,"lon":-116.2406,"elev":860,"name":"Boise Arpt, ID, US","cover":"CLR","clouds":[],"fltCat":"VFR"},{"icaoId":"KBRO","receiptTime":"2026-04-18T05:56:30.387Z","obsTime":1776491580,"reportTime":"2026-04-18T06:00:00.000Z","temp":25,"dewp":22.8,"wdir":150,"wspd":12,"visib":"10+","altim":1010.9,"slp":1010.5,"qcField":6,"presTend":-0.6,"maxT":27.2,"minT":25,"maxT24":31.7,"minT24":25,"metarType":"METAR","rawOb":"METAR KBRO 180553Z AUTO 15012KT 10SM FEW020 25/23 A2985 RMK AO2 SLP105 T02500228 10272 20250 403170250 58006","lat":25.9146,"lon":-97.4231,"elev":6,"name":"Brownsville Intl, TX, US","cover":"FEW","clouds":[{"cover":"FEW","base":2000}],"fltCat":"VFR"},{"icaoId":"KBUR","receiptTime":"2026-04-18T05:56:30.437Z","obsTime":1776491580,"reportTime":"2026-04-18T06:00:00.000Z","temp":18.9,"dewp":0.6,"wdir":70,"wspd":3,"visib":"10+","altim":1015,"slp":1013.8,"qcField":4,"presTend":1.3,"maxT":25.6,"minT":18.9,"metarType":"METAR","rawOb":"METAR KBUR 180553Z 07003KT 10SM CLR 19/01 A2997 RMK AO2 SLP138 T01890006 10256 20189 51013","lat":34.1996,"lon":-118.3654,"elev":221,"name":"Burbank/Bob Hope Arpt, CA, US","cover":"CLR","clouds":[],"fltCat":"VFR"},{"icaoId":"KMSP","receiptTime":"2026-04-18T05:56:28.091Z","obsTime":1776491580,"reportTime":"2026-04-18T06:00:00.000Z","temp":2.2,"dewp":-6.1,"wdir":300,"wspd":14,"visib":"10+","altim":1009.6,"slp":1010,"qcField":4,"presTend":0.9,"maxT":6.7,"minT":2.2,"maxT24":19.4,"minT24":2.2,"metarType":"METAR","rawOb":"METAR KMSP 180553Z 30014KT 10SM OVC041 02/M06 A2981 RMK AO2 PK WND 30031/0526 SLP100 T00221061 10067 20022 401940022 50009","lat":44.8852,"lon":-93.2313,"elev":255,"name":"Minneapolis-St Paul Intl, MN, US","cover":"OVC","clouds":[{"cover":"OVC","base":4100}],"fltCat":"VFR"},{"icaoId":"KGTF","receiptTime":"2026-04-18T05:56:25.000Z","obsTime":1776491580,"reportTime":"2026-04-18T06:00:00.000Z","temp":-1.1,"dewp":-2.2,"wdir":200,"wspd":7,"visib":"10+","altim":1020.1,"slp":1023.6,"qcField":4,"presTend":-0.1,"maxT":2.8,"minT":-1.1,"pcp6hr":0.005,"metarType":"METAR","rawOb":"METAR KGTF 180553Z 20007KT 10SM BKN070 OVC090 M01/M02 A3012 RMK AO2 SLP236 60000 T10111022 10028 21011 58001","lat":47.4733,"lon":-111.3828,"elev":1117,"name":"Great Falls Intl, MT, US","cover":"OVC","clouds":[{"cover":"BKN","base":7000},{"cover":"OVC","base":9000}],"fltCat":"VFR"},{"icaoId":"KCPR","receiptTime":"2026-04-18T05:56:18.986Z","obsTime":1776491580,"reportTime":"2026-04-18T06:00:00.000Z","temp":-3.9,"dewp":-5.6,"wdir":270,"wspd":4,"visib":"10+","altim":1019.7,"slp":1022.7,"qcField":6,"presTend":1.2,"maxT":3.3,"minT":-3.9,"metarType":"METAR","rawOb":"METAR KCPR 180553Z AUTO 27004KT 10SM CLR M04/M06 A3011 RMK AO2 SLP227 T10391056 10033 21039 51012","lat":42.8978,"lon":-106.4736,"elev":1623,"name":"Casper/Natrona Cnty, WY, US","cover":"CLR","clouds":[],"fltCat":"VFR"},{"icaoId":"KIDA","receiptTime":"2026-04-18T05:56:22.222Z","obsTime":1776491580,"reportTime":"2026-04-18T06:00:00.000Z","temp":1.1,"dewp":-8.3,"wdir":210,"wspd":10,"visib":"10+","altim":1022.4,"slp":1024,"qcField":6,"presTend":1.1,"maxT":5,"minT":0,"metarType":"METAR","rawOb":"METAR KIDA 180553Z AUTO 21010KT 10SM CLR 01/M08 A3019 RMK AO2 SLP240 T00111083 10050 20000 51011","lat":43.5204,"lon":-112.0675,"elev":1444,"name":"Idaho Falls Rgnl, ID, US","cover":"CLR","clouds":[],"fltCat":"VFR"},{"icaoId":"KAMA","receiptTime":"2026-04-18T05:56:24.064Z","obsTime":1776491580,"reportTime":"2026-04-18T06:00:00.000Z","temp":5.6,"dewp":-5.6,"wdir":10,"wspd":19,"wgst":30,"visib":"10+","altim":1019,"slp":1015.2,"qcField":6,"presTend":3.4,"maxT":28.3,"minT":5.6,"maxT24":30.6,"minT24":5.6,"metarType":"METAR","rawOb":"METAR KAMA 180553Z AUTO 01019G30KT 10SM CLR 06/M06 A3009 RMK AO2 PK WND 01037/0455 SLP152 T00561056 10283 20056 403060056 51034","lat":35.2203,"lon":-101.7173,"elev":1102,"name":"Amarillo Intl Arpt, TX, US","cover":"CLR","clouds":[],"fltCat":"VFR"},{"icaoId":"KMFE","receiptTime":"2026-04-18T05:56:29.180Z","obsTime":1776491580,"reportTime":"2026-04-18T06:00:00.000Z","temp":25.6,"dewp":22.2,"wdir":150,"wspd":14,"wgst":23,"visib":"10+","altim":1010.2,"slp":1009.8,"qcField":6,"presTend":-0.5,"maxT":28.9,"minT":25,"maxT24":31.7,"minT24":23.9,"metarType":"METAR","rawOb":"METAR KMFE 180553Z AUTO 15014G23KT 10SM OVC015 26/22 A2983 RMK AO2 SLP098 T02560222 10289 20250 403170239 58005","lat":26.1791,"lon":-98.2445,"elev":29,"name":"McAllen/Miller Intl, TX, US","cover":"OVC","clouds":[{"cover":"OVC","base":1500}],"fltCat":"MVFR"},{"icaoId":"KDAL","receiptTime":"2026-04-18T05:56:25.544Z","obsTime":1776491580,"reportTime":"2026-04-18T06:00:00.000Z","temp":23.9,"dewp":18.9,"wdir":190,"wspd":14,"wgst":25,"visib":"10+","altim":1008.9,"slp":1008.1,"qcField":4,"presTend":0.4,"maxT":27.8,"minT":23.9,"maxT24":28.3,"minT24":20.6,"metarType":"METAR","rawOb":"METAR KDAL 180553Z 19014G25KT 10SM FEW035 BKN250 24/19 A2979 RMK AO2 PK WND 20028/0525 SLP081 T02390189 10278 20239 402830206 50004","lat":32.8384,"lon":-96.8358,"elev":148,"name":"Dallas/Love Fld, TX, US","cover":"BKN","clouds":[{"cover":"FEW","base":3500},{"cover":"BKN","base":25000}],"fltCat":"VFR"},{"icaoId":"KCYS","receiptTime":"2026-04-18T05:56:19.098Z","obsTime":1776491580,"reportTime":"2026-04-18T06:00:00.000Z","temp":-3.3,"dewp":-5.6,"wdir":0,"wspd":0,"visib":"10+","altim":1019,"slp":1023.1,"qcField":6,"presTend":0.6,"maxT":1.7,"minT":-3.9,"metarType":"METAR","rawOb":"METAR KCYS 180553Z AUTO 00000KT 10SM CLR M03/M06 A3009 RMK AO2 SLP231 T10331056 10017 21039 50006","lat":41.1579,"lon":-104.8081,"elev":1868,"name":"Cheyenne Rgnl, WY, US","cover":"CLR","clouds":[],"fltCat":"VFR"},{"icaoId":"KAPA","receiptTime":"2026-04-18T05:56:17.780Z","obsTime":1776491580,"reportTime":"2026-04-18T06:00:00.000Z","temp":-3.3,"dewp":-7.2,"wdir":200,"wspd":8,"visib":"10+","altim":1020.4,"slp":1024,"qcField":4,"presTend":0.2,"maxT":0,"minT":-5,"metarType":"METAR","rawOb":"METAR KAPA 180553Z 20008KT 10SM CLR M03/M07 A3013 RMK AO2 SLP240 T10331072 10000 21050 50002","lat":39.5599,"lon":-104.8484,"elev":1791,"name":"Denver/Centennial Arpt, CO, US","cover":"CLR","clouds":[],"fltCat":"VFR"},{"icaoId":"KSWO","receiptTime":"2026-04-18T05:56:21.190Z","obsTime":1776491580,"reportTime":"2026-04-18T06:00:00.000Z","temp":10,"dewp":6.1,"wdir":60,"wspd":8,"visib":"10+","altim":1015,"slp":1014.1,"qcField":6,"presTend":3.4,"maxT":23.3,"minT":10,"maxT24":25.6,"minT24":10,"precip":0.08,"pcp6hr":0.91,"metarType":"METAR","rawOb":"METAR KSWO 180553Z AUTO 06008KT 10SM FEW055 SCT080 BKN110 10/06 A2997 RMK AO2 PK WND 04033/0522 LTG DSNT SW RAE34 SLP141 P0008 60091 T01000061 10233 20100 402560100 53034","lat":36.1624,"lon":-97.0832,"elev":293,"name":"Stillwater Muni, OK, US","cover":"BKN","clouds":[{"cover":"FEW","base":5500},{"cover":"SCT","base":8000},{"cover":"BKN","base":11000}],"fltCat":"VFR"},{"icaoId":"KIAH","receiptTime":"2026-04-18T05:56:22.189Z","obsTime":1776491580,"reportTime":"2026-04-18T06:00:00.000Z","temp":22.2,"dewp":20,"wdir":160,"wspd":8,"visib":"10+","altim":1011.9,"slp":1011.6,"qcField":4,"presTend":-1.4,"maxT":25.6,"minT":22.2,"maxT24":29.4,"minT24":19.4,"metarType":"METAR","rawOb":"METAR KIAH 180553Z 16008KT 10SM SCT250 22/20 A2988 RMK AO2 SLP116 T02220200 10256 20222 402940194 58014","lat":29.9844,"lon":-95.3607,"elev":27,"name":"Houston/Bush Intl, TX, US","cover":"SCT","clouds":[{"cover":"SCT","base":25000}],"fltCat":"VFR"},{"icaoId":"KLOL","receiptTime":"2026-04-18T05:56:22.328Z","obsTime":1776491580,"reportTime":"2026-04-18T06:00:00.000Z","temp":3.3,"dewp":-19.4,"wdir":0,"wspd":0,"visib":"10+","altim":1020.4,"slp":1021,"qcField":6,"presTend":0.8,"maxT":13.9,"minT":2.8,"metarType":"METAR","rawOb":"METAR KLOL 180553Z AUTO 00000KT 10SM CLR 03/M19 A3013 RMK AO2 SLP210 T00331194 10139 20028 50008","lat":40.0684,"lon":-118.5702,"elev":1191,"name":"Lovelock/Derby Fld, NV, US","cover":"CLR","clouds":[],"fltCat":"VFR"},{"icaoId":"KMAF","receiptTime":"2026-04-18T05:56:22.467Z","obsTime":1776491580,"reportTime":"2026-04-18T06:00:00.000Z","temp":24.4,"dewp":15.6,"wdir":180,"wspd":11,"visib":"10+","altim":1011.3,"slp":1006.2,"qcField":6,"presTend":1.3,"maxT":31.1,"minT":21.7,"maxT24":32.8,"minT24":19.4,"metarType":"METAR","rawOb":"METAR KMAF 180553Z AUTO 18011KT 10SM CLR 24/16 A2986 RMK AO2 SLP062 T02440156 10311 20217 403280194 51013","lat":31.9475,"lon":-102.2086,"elev":874,"name":"Midland Intl, TX, US","cover":"CLR","clouds":[],"fltCat":"VFR"},{"icaoId":"KDTW","receiptTime":"2026-04-18T05:56:22.831Z","obsTime":1776491580,"reportTime":"2026-04-18T06:00:00.000Z","temp":15.6,"dewp":8.9,"wdir":140,"wspd":8,"visib":"10+","altim":1007.5,"slp":1007.3,"qcField":4,"presTend":-3.9,"maxT":17.2,"minT":12.8,"metarType":"METAR","rawOb":"METAR KDTW 180553Z 14008KT 10SM SCT060 SCT080 OVC250 16/09 A2975 RMK AO2 PRESFR SLP073 T01560089 10172 20128 58039","lat":42.2311,"lon":-83.3312,"elev":192,"name":"Detroit/Metro Wayne Cnty, MI, US","cover":"OVC","clouds":[{"cover":"SCT","base":6000},{"cover":"SCT","base":8000},{"cover":"OVC","base":25000}],"fltCat":"VFR"},{"icaoId":"KDVT","receiptTime":"2026-04-18T05:56:22.859Z","obsTime":1776491580,"reportTime":"2026-04-18T06:00:00.000Z","temp":19.4,"dewp":-7.8,"wdir":0,"wspd":0,"visib":"10+","altim":1012.6,"slp":1010.7,"qcField":4,"presTend":1.6,"maxT":28.3,"minT":19.4,"metarType":"METAR","rawOb":"METAR KDVT 180553Z 00000KT 10SM CLR 19/M08 A2990 RMK AO2 SLP107 T01941078 10283 20194 51016","lat":33.6902,"lon":-112.0662,"elev":454,"name":"Phoenix/Deer Valley Arpt, AZ, US","cover":"CLR","clouds":[],"fltCat":"VFR"},{"icaoId":"KEVW","receiptTime":"2026-04-18T05:56:23.021Z","obsTime":1776491580,"reportTime":"2026-04-18T06:00:00.000Z","temp":-4.4,"dewp":-13.9,"wdir":190,"wspd":3,"visib":"10+","altim":1023.5,"slp":1025.8,"qcField":14,"presTend":0.9,"maxT":0,"minT":-5,"metarType":"METAR","rawOb":"METAR KEVW 180553Z AUTO 19003KT 10SM CLR M04/M14 A3022 RMK AO2 SLP258 T10441139 10000 21050 51009 $","lat":41.2727,"lon":-111.0305,"elev":2178,"name":"Evanston/Uinta Cnty, WY, US","cover":"CLR","clouds":[],"fltCat":"VFR"},{"icaoId":"KELY","receiptTime":"2026-04-18T05:56:27.096Z","obsTime":1776491580,"reportTime":"2026-04-18T06:00:00.000Z","temp":-5,"dewp":-15,"wdir":180,"wspd":8,"visib":"10+","altim":1022.4,"slp":1024,"qcField":14,"presTend":1.2,"maxT":9.4,"minT":-5,"metarType":"METAR","rawOb":"METAR KELY 180553Z AUTO 18008KT 10SM CLR M05/M15 A3019 RMK AO2 SLP240 T10501150 10094 21050 51012 $","lat":39.2954,"lon":-114.8466,"elev":1906,"name":"Ely/Yelland Fld, NV, US","cover":"CLR","clouds":[],"fltCat":"VFR"},{"icaoId":"KAUS","receiptTime":"2026-04-18T05:56:24.127Z","obsTime":1776491580,"reportTime":"2026-04-18T06:00:00.000Z","temp":22.8,"dewp":18.9,"wdir":180,"wspd":13,"wgst":19,"visib":"10+","altim":1011.3,"slp":1010.3,"qcField":4,"presTend":0.7,"maxT":28.9,"minT":22.8,"maxT24":31.7,"minT24":21.1,"metarType":"METAR","rawOb":"METAR KAUS 180553Z 18013G19KT 10SM OVC023 23/19 A2986 RMK AO2 SLP103 T02280189 10289 20228 403170211 50007","lat":30.1831,"lon":-97.6806,"elev":148,"name":"Austin/Bergstrom Intl, TX, US","cover":"OVC","clouds":[{"cover":"OVC","base":2300}],"fltCat":"MVFR"},{"icaoId":"KHLN","receiptTime":"2026-04-18T05:56:24.455Z","obsTime":1776491580,"reportTime":"2026-04-18T06:00:00.000Z","temp":2.2,"dewp":-8.9,"wdir":280,"wspd":9,"wgst":18,"visib":"10+","altim":1021.1,"slp":1024.8,"qcField":6,"presTend":1,"maxT":5,"minT":0.6,"metarType":"METAR","rawOb":"METAR KHLN 180553Z AUTO 28009G18KT 10SM CLR 02/M09 A3015 RMK AO2 SLP248 T00221089 10050 20006 50010","lat":46.6045,"lon":-111.9892,"elev":1178,"name":"Helena Rgnl, MT, US","cover":"CLR","clouds":[],"fltCat":"VFR"},{"icaoId":"KBIL","receiptTime":"2026-04-18T05:56:25.413Z","obsTime":1776491580,"reportTime":"2026-04-18T06:00:00.000Z","temp":0.6,"dewp":-2.2,"wdir":260,"wspd":8,"visib":"10+","altim":1020.4,"slp":1022.1,"qcField":12,"presTend":0.8,"maxT":5,"minT":0,"pcp6hr":0.005,"metarType":"METAR","rawOb":"METAR KBIL 180553Z 26008KT 10SM BKN080 OVC110 01/M02 A3013 RMK AO2 SLP221 60000 T00061022 10050 20000 50008 $","lat":45.8072,"lon":-108.5462,"elev":1089,"name":"Billings/Logan Intl, MT, US","cover":"OVC","clouds":[{"cover":"BKN","base":8000},{"cover":"OVC","base":11000}],"fltCat":"VFR"},{"icaoId":"KCNY","receiptTime":"2026-04-18T05:56:25.491Z","obsTime":1776491580,"reportTime":"2026-04-18T06:00:00.000Z","temp":2.2,"dewp":-9.4,"wdir":0,"wspd":0,"visib":"10+","altim":1022.4,"slp":1022.7,"qcField":14,"presTend":1.8,"maxT":9.4,"minT":2.2,"metarType":"METAR","rawOb":"METAR KCNY 180553Z AUTO 00000KT 10SM CLR 02/M09 A3019 RMK AO2 SLP227 T00221094 10094 20022 51018 $","lat":38.7501,"lon":-109.7627,"elev":1392,"name":"Moab/Canyonland Fld, UT, US","cover":"CLR","clouds":[],"fltCat":"VFR"},{"icaoId":"KOGD","receiptTime":"2026-04-18T05:56:26.241Z","obsTime":1776491580,"reportTime":"2026-04-18T06:00:00.000Z","temp":1.1,"dewp":-8.9,"wdir":170,"wspd":6,"visib":"10+","altim":1023.8,"slp":1024.2,"qcField":6,"presTend":1.1,"maxT":6.7,"minT":1.1,"metarType":"METAR","rawOb":"METAR KOGD 180553Z AUTO 17006KT 10SM CLR 01/M09 A3023 RMK AO2 SLP242 T00111089 10067 20011 51011","lat":41.1941,"lon":-112.0168,"elev":1356,"name":"Ogden/Hinckley Arpt, UT, US","cover":"CLR","clouds":[],"fltCat":"VFR"},{"icaoId":"KSMF","receiptTime":"2026-04-18T05:56:26.754Z","obsTime":1776491580,"reportTime":"2026-04-18T06:00:00.000Z","temp":13.9,"dewp":3.3,"wdir":0,"wspd":0,"visib":"10+","altim":1016.3,"slp":1016.1,"qcField":4,"presTend":0.8,"maxT":22.8,"minT":13.9,"metarType":"METAR","rawOb":"METAR KSMF 180553Z 00000KT 10SM BKN230 14/03 A3001 RMK AO2 SLP161 T01390033 10228 20139 50008","lat":38.7007,"lon":-121.5948,"elev":7,"name":"Sacramento Intl, CA, US","cover":"BKN","clouds":[{"cover":"BKN","base":23000}],"fltCat":"VFR"},{"icaoId":"KFMN","receiptTime":"2026-04-18T05:56:27.144Z","obsTime":1776491580,"reportTime":"2026-04-18T06:00:00.000Z","temp":3.3,"dewp":-17.2,"wdir":330,"wspd":8,"visib":"10+","altim":1021.4,"slp":1020.8,"qcField":6,"presTend":1.3,"maxT":10,"minT":2.8,"metarType":"METAR","rawOb":"METAR KFMN 180553Z AUTO 33008KT 10SM CLR 03/M17 A3016 RMK AO2 SLP208 T00331172 10100 20028 51013","lat":36.7435,"lon":-108.2293,"elev":1677,"name":"Farmington/Four Corners Rgnl, NM, US","cover":"CLR","clouds":[],"fltCat":"VFR"},{"icaoId":"KGEG","receiptTime":"2026-04-18T05:56:27.218Z","obsTime":1776491580,"reportTime":"2026-04-18T06:00:00.000Z","temp":4.4,"dewp":-2.8,"wdir":170,"wspd":6,"visib":"10+","altim":1022.4,"slp":1023.4,"qcField":4,"presTend":0.4,"maxT":11.1,"minT":4.4,"metarType":"METAR","rawOb":"METAR KGEG 180553Z 17006KT 10SM CLR 04/M03 A3019 RMK AO2 SLP234 T00441028 10111 20044 50004","lat":47.6217,"lon":-117.528,"elev":718,"name":"Spokane Intl, WA, US","cover":"CLR","clouds":[],"fltCat":"VFR"},{"icaoId":"KSDL","receiptTime":"2026-04-18T05:56:27.787Z","obsTime":1776491580,"reportTime":"2026-04-18T06:00:00.000Z","temp":21.7,"dewp":-3.9,"wdir":0,"wspd":0,"visib":"10+","altim":1013,"slp":1010.8,"qcField":4,"presTend":1.5,"maxT":28.3,"minT":21.7,"metarType":"METAR","rawOb":"METAR KSDL 180553Z 00000KT 10SM CLR 22/M04 A2991 RMK AO2 SLP108 T02171039 10283 20217 51015","lat":33.6123,"lon":-111.9232,"elev":438,"name":"Scottsdale Muni, AZ, US","cover":"CLR","clouds":[],"fltCat":"VFR"},{"icaoId":"KLGB","receiptTime":"2026-04-18T05:56:28.021Z","obsTime":1776491580,"reportTime":"2026-04-18T06:00:00.000Z","temp":17.2,"dewp":11.1,"wdir":130,"wspd":3,"visib":"10+","altim":1014.6,"slp":1014.5,"qcField":12,"presTend":1.6,"maxT":23.3,"minT":16.7,"metarType":"METAR","rawOb":"METAR KLGB 180553Z 13003KT 10SM CLR 17/11 A2996 RMK AO2 SLP145 T01720111 10233 20167 51016 $","lat":33.8118,"lon":-118.1472,"elev":10,"name":"Long Beach Arpt, CA, US","cover":"CLR","clouds":[],"fltCat":"VFR"},{"icaoId":"KMSY","receiptTime":"2026-04-18T05:56:28.118Z","obsTime":1776491580,"reportTime":"2026-04-18T06:00:00.000Z","temp":21.1,"dewp":18.9,"wdir":160,"wspd":4,"visib":"10+","altim":1014.3,"slp":1014.6,"qcField":4,"presTend":-1.1,"maxT":25,"minT":21.1,"maxT24":28.3,"minT24":18.9,"metarType":"METAR","rawOb":"METAR KMSY 180553Z 16004KT 10SM CLR 21/19 A2995 RMK AO2 SLP146 T02110189 10250 20211 402830189 58011","lat":29.9974,"lon":-90.2777,"elev":0,"name":"New Orleans/Armstrong Intl, LA, US","cover":"CLR","clouds":[],"fltCat":"VFR"},{"icaoId":"KMTJ","receiptTime":"2026-04-18T05:56:28.143Z","obsTime":1776491580,"reportTime":"2026-04-18T06:00:00.000Z","temp":-1.1,"dewp":-7.2,"wdir":140,"wspd":9,"visib":"10+","altim":1023.5,"slp":1023.8,"qcField":6,"presTend":0.8,"maxT":5.6,"minT":-1.1,"metarType":"METAR","rawOb":"METAR KMTJ 180553Z AUTO 14009KT 10SM CLR M01/M07 A3022 RMK AO2 SLP238 T10111072 10056 21011 51008","lat":38.5054,"lon":-107.8981,"elev":1755,"name":"Montrose Rgnl, CO, US","cover":"CLR","clouds":[],"fltCat":"VFR"},{"icaoId":"KPIH","receiptTime":"2026-04-18T05:56:28.621Z","obsTime":1776491580,"reportTime":"2026-04-18T06:00:00.000Z","temp":-1.1,"dewp":-11.1,"wdir":190,"wspd":7,"visib":"10+","altim":1023.1,"slp":1024.7,"qcField":6,"presTend":1.4,"maxT":7.8,"minT":-1.1,"metarType":"METAR","rawOb":"METAR KPIH 180553Z AUTO 19007KT 10SM CLR M01/M11 A3021 RMK AO2 SLP247 T10111111 10078 21011 51014","lat":42.9197,"lon":-112.5723,"elev":1357,"name":"Pocatello Rgnl, ID, US","cover":"CLR","clouds":[],"fltCat":"VFR"},{"icaoId":"KLBB","receiptTime":"2026-04-18T05:56:28.659Z","obsTime":1776491580,"reportTime":"2026-04-18T06:00:00.000Z","temp":11.7,"dewp":-0.6,"wdir":10,"wspd":26,"wgst":38,"visib":5,"altim":1015.3,"slp":1011.1,"qcField":4,"wxString":"HZ","presTend":6,"maxT":30.6,"minT":11.7,"maxT24":31.7,"minT24":11.7,"metarType":"METAR","rawOb":"METAR KLBB 180553Z 01026G38KT 5SM HZ BKN020 12/M01 A2998 RMK AO2 PK WND 36041/0530 SLP111 T01171006 10306 20117 403170117 51060","lat":33.6658,"lon":-101.8233,"elev":996,"name":"Lubbock Intl Arpt, TX, US","cover":"BKN","clouds":[{"cover":"BKN","base":2000}],"fltCat":"MVFR"},{"icaoId":"KMFR","receiptTime":"2026-04-18T05:56:29.192Z","obsTime":1776491580,"reportTime":"2026-04-18T06:00:00.000Z","temp":10,"dewp":0.6,"wdir":160,"wspd":4,"visib":"10+","altim":1018,"slp":1018.2,"qcField":6,"presTend":1.1,"maxT":20,"minT":10,"metarType":"METAR","rawOb":"METAR KMFR 180553Z AUTO 16004KT 10SM CLR 10/01 A3006 RMK AO2 SLP182 T01000006 10200 20100 51011","lat":42.375,"lon":-122.877,"elev":397,"name":"Medford/Rogue Valley Intl, OR, US","cover":"CLR","clouds":[],"fltCat":"VFR"},{"icaoId":"KONT","receiptTime":"2026-04-18T06:04:14.652Z","obsTime":1776491580,"reportTime":"2026-04-18T06:00:00.000Z","temp":18.9,"dewp":10,"wdir":180,"wspd":4,"visib":"10+","altim":1015.3,"slp":1014.3,"qcField":13,"presTend":1.9,"maxT":26.1,"minT":18.9,"metarType":"METAR","rawOb":"METAR KONT 180553Z COR 18004KT 10SM CLR 19/10 A2998 RMK AO2 SLP143 T01890100 10261 20189 51019 $","lat":34.0531,"lon":-117.5769,"elev":279,"name":"Ontario Intl, CA, US","cover":"CLR","clouds":[],"fltCat":"VFR"},{"icaoId":"KCLL","receiptTime":"2026-04-18T05:56:25.480Z","obsTime":1776491580,"reportTime":"2026-04-18T06:00:00.000Z","temp":22.2,"dewp":19.4,"wdir":170,"wspd":14,"wgst":20,"visib":"10+","altim":1011.6,"slp":1011.1,"qcField":6,"presTend":0.6,"maxT":26.7,"minT":22.2,"maxT24":30,"minT24":21.1,"metarType":"METAR","rawOb":"METAR KCLL 180553Z AUTO 17014G20KT 10SM OVC016 22/19 A2987 RMK AO2 SLP111 T02220194 10267 20222 403000211 51006","lat":30.5912,"lon":-96.3631,"elev":96,"name":"College Station/Easterwood Arpt, TX, US","cover":"OVC","clouds":[{"cover":"OVC","base":1600}],"fltCat":"MVFR"},{"icaoId":"KOAK","receiptTime":"2026-04-18T05:56:26.203Z","obsTime":1776491580,"reportTime":"2026-04-18T06:00:00.000Z","temp":13.3,"dewp":8.9,"wdir":260,"wspd":7,"visib":"10+","altim":1018,"slp":1017.8,"qcField":12,"presTend":0.7,"maxT":19.4,"minT":12.8,"metarType":"METAR","rawOb":"METAR KOAK 180553Z 26007KT 10SM BKN200 13/09 A3006 RMK AO2 SLP178 T01330089 10194 20128 51007 $","lat":37.7178,"lon":-122.233,"elev":3,"name":"Oakland Intl, CA, US","cover":"BKN","clouds":[{"cover":"BKN","base":20000}],"fltCat":"VFR"},{"icaoId":"KVGT","receiptTime":"2026-04-18T05:56:26.399Z","obsTime":1776491580,"reportTime":"2026-04-18T06:00:00.000Z","temp":14.4,"dewp":-16.1,"wdir":320,"wspd":6,"visib":"10+","altim":1018.4,"slp":1019.6,"qcField":6,"presTend":1.3,"maxT":20,"minT":14.4,"metarType":"METAR","rawOb":"METAR KVGT 180553Z AUTO 32006KT 10SM CLR 14/M16 A3007 RMK AO2 SLP196 T01441161 10200 20144 51013","lat":36.212,"lon":-115.194,"elev":664,"name":"Las Vegas/North Arpt, NV, US","cover":"CLR","clouds":[],"fltCat":"VFR"},{"icaoId":"KSJC","receiptTime":"2026-04-18T05:56:26.731Z","obsTime":1776491580,"reportTime":"2026-04-18T06:00:00.000Z","temp":13.3,"dewp":6.1,"wdir":340,"wspd":6,"visib":"10+","altim":1017.7,"slp":1017.5,"qcField":4,"presTend":1.3,"maxT":21.7,"minT":13.3,"metarType":"METAR","rawOb":"METAR KSJC 180553Z 34006KT 10SM FEW110 13/06 A3005 RMK AO2 SLP175 T01330061 10217 20133 51013","lat":37.3594,"lon":-121.9244,"elev":13,"name":"San Jose Intl Arpt, CA, US","cover":"FEW","clouds":[{"cover":"FEW","base":11000}],"fltCat":"VFR"},{"icaoId":"KSNA","receiptTime":"2026-04-18T05:56:26.781Z","obsTime":1776491580,"reportTime":"2026-04-18T06:00:00.000Z","temp":17.8,"dewp":13.3,"wdir":150,"wspd":5,"visib":"10+","altim":1015.3,"slp":1014.9,"qcField":4,"presTend":1.7,"maxT":22.2,"minT":17.8,"metarType":"METAR","rawOb":"METAR KSNA 180553Z 15005KT 10SM CLR 18/13 A2998 RMK AO2 SLP149 LAST T01780133 10222 20178 52017","lat":33.6798,"lon":-117.8675,"elev":14,"name":"Santa Ana/Wayne Arpt, CA, US","cover":"CLR","clouds":[],"fltCat":"VFR"},{"icaoId":"KSTS","receiptTime":"2026-04-18T05:56:26.904Z","obsTime":1776491580,"reportTime":"2026-04-18T06:00:00.000Z","temp":9.4,"dewp":7.2,"wdir":0,"wspd":0,"visib":"10+","altim":1017.4,"slp":1016.7,"qcField":6,"presTend":0.8,"maxT":21.1,"minT":8.9,"metarType":"METAR","rawOb":"METAR KSTS 180553Z AUTO 00000KT 10SM CLR 09/07 A3004 RMK AO2 SLP167 T00940072 10211 20089 50008","lat":38.5037,"lon":-122.811,"elev":35,"name":"Santa Rosa/Schulz Arpt, CA, US","cover":"CLR","clouds":[],"fltCat":"VFR"},{"icaoId":"KDMN","receiptTime":"2026-04-18T05:56:27.050Z","obsTime":1776491580,"reportTime":"2026-04-18T06:00:00.000Z","temp":15,"dewp":-7.2,"wdir":300,"wspd":7,"visib":"10+","altim":1015.7,"slp":1009.5,"qcField":6,"presTend":1.4,"maxT":25.6,"minT":13.9,"metarType":"METAR","rawOb":"METAR KDMN 180553Z AUTO 30007KT 10SM CLR 15/M07 A2999 RMK AO2 SLP095 T01501072 10256 20139 51014","lat":32.2592,"lon":-107.7206,"elev":1310,"name":"Deming Muni, NM, US","cover":"CLR","clouds":[],"fltCat":"VFR"},{"icaoId":"KFAT","receiptTime":"2026-04-18T05:56:27.132Z","obsTime":1776491580,"reportTime":"2026-04-18T06:00:00.000Z","temp":17.8,"dewp":5.6,"wdir":310,"wspd":6,"visib":"10+","altim":1016.7,"slp":1016.2,"qcField":4,"presTend":1.3,"maxT":24.4,"minT":17.8,"metarType":"METAR","rawOb":"METAR KFAT 180553Z 31006KT 10SM FEW200 18/06 A3002 RMK AO2 SLP162 T01780056 10244 20178 51013","lat":36.78,"lon":-119.7202,"elev":102,"name":"Fresno/Yosemite Intl, CA, US","cover":"FEW","clouds":[{"cover":"FEW","base":20000}],"fltCat":"VFR"},{"icaoId":"KSEA","receiptTime":"2026-04-18T05:56:27.451Z","obsTime":1776491580,"reportTime":"2026-04-18T06:00:00.000Z","temp":9.4,"dewp":1.7,"wdir":20,"wspd":7,"visib":"10+","altim":1021.1,"slp":1021.6,"qcField":4,"presTend":-0.7,"maxT":12.8,"minT":8.9,"metarType":"METAR","rawOb":"METAR KSEA 180553Z 02007KT 10SM BKN190 OVC250 09/02 A3015 RMK AO2 SLP216 T00940017 10128 20089 58007","lat":47.4447,"lon":-122.3144,"elev":115,"name":"Seattle-Tacoma Intl, WA, US","cover":"OVC","clouds":[{"cover":"BKN","base":19000},{"cover":"OVC","base":25000}],"fltCat":"VFR"},{"icaoId":"KLAR","receiptTime":"2026-04-18T05:56:27.885Z","obsTime":1776491580,"reportTime":"2026-04-18T06:00:00.000Z","temp":-6.1,"dewp":-10,"wdir":290,"wspd":10,"visib":"10+","altim":1018.7,"slp":1021.8,"qcField":6,"presTend":0.7,"maxT":-0.6,"minT":-7.2,"pcp6hr":0.005,"metarType":"METAR","rawOb":"METAR KLAR 180553Z AUTO 29010KT 10SM CLR M06/M10 A3008 RMK AO2 WSHFT 0515 SLP218 60000 T10611100 11006 21072 50007","lat":41.3165,"lon":-105.6729,"elev":2217,"name":"Laramie Rgnl, WY, US","cover":"CLR","clouds":[],"fltCat":"VFR"},{"icaoId":"KTPA","receiptTime":"2026-04-18T05:56:28.219Z","obsTime":1776491580,"reportTime":"2026-04-18T06:00:00.000Z","temp":21.7,"dewp":17.2,"wdir":0,"wspd":0,"visib":"10+","altim":1016.7,"slp":1016.4,"qcField":4,"presTend":-0.4,"maxT":25.6,"minT":21.7,"metarType":"METAR","rawOb":"METAR KTPA 180553Z 00000KT 10SM CLR 22/17 A3002 RMK AO2 SLP164 T02170172 10256 20217 58004","lat":27.9633,"lon":-82.54,"elev":2,"name":"Tampa Intl Arpt, FL, US","cover":"CLR","clouds":[],"fltCat":"VFR"},{"icaoId":"KTUL","receiptTime":"2026-04-18T05:56:28.276Z","obsTime":1776491580,"reportTime":"2026-04-18T06:00:00.000Z","temp":11.7,"dewp":10.6,"wdir":360,"wspd":18,"wgst":29,"visib":4,"altim":1013,"slp":1012.4,"qcField":4,"wxString":"TSRA BR","presTend":6.1,"maxT":23.3,"minT":11.7,"maxT24":26.1,"minT24":11.7,"precip":0.08,"pcp6hr":0.82,"metarType":"METAR","rawOb":"METAR KTUL 180553Z 36018G29KT 4SM TSRA BR SCT040CB OVC080 12/11 A2991 RMK AO2 PK WND 35035/0502 PRESRR SLP124 OCNL LTGICCC ALQDS TS ALQDS MOV NE P0008 60082 T01170106 10233 20117 402610117 51061","lat":36.1985,"lon":-95.8782,"elev":196,"name":"Tulsa Intl Arpt, OK, US","cover":"OVC","clouds":[{"cover":"SCT","base":4000},{"cover":"OVC","base":8000}],"fltCat":"MVFR"},{"icaoId":"KPBI","receiptTime":"2026-04-18T05:56:28.535Z","obsTime":1776491580,"reportTime":"2026-04-18T06:00:00.000Z","temp":24.4,"dewp":21.7,"wdir":100,"wspd":8,"visib":"10+","altim":1016,"slp":1015.8,"qcField":12,"presTend":-1.4,"maxT":25.6,"minT":24.4,"metarType":"METAR","rawOb":"METAR KPBI 180553Z 10008KT 10SM FEW017 SCT023 SCT029 24/22 A3000 RMK AO2 SLP158 T02440217 10256 20244 58014 $","lat":26.6851,"lon":-80.0992,"elev":4,"name":"Palm Beach Intl, FL, US","cover":"SCT","clouds":[{"cover":"FEW","base":1700},{"cover":"SCT","base":2300},{"cover":"SCT","base":2900}],"fltCat":"VFR"},{"icaoId":"KLAX","receiptTime":"2026-04-18T05:56:28.648Z","obsTime":1776491580,"reportTime":"2026-04-18T06:00:00.000Z","temp":17.8,"dewp":12.2,"wdir":130,"wspd":4,"visib":"10+","altim":1014.6,"slp":1014.2,"qcField":4,"presTend":1.2,"maxT":20.6,"minT":17.2,"metarType":"METAR","rawOb":"METAR KLAX 180553Z 13004KT 10SM CLR 18/12 A2996 RMK AO2 SLP142 T01780122 10206 20172 51012","lat":33.9382,"lon":-118.3866,"elev":30,"name":"Los Angeles Intl, CA, US","cover":"CLR","clouds":[],"fltCat":"VFR"},{"icaoId":"KTUS","receiptTime":"2026-04-18T05:56:28.870Z","obsTime":1776491580,"reportTime":"2026-04-18T06:00:00.000Z","temp":18.9,"dewp":-1.7,"wdir":250,"wspd":6,"visib":"10+","altim":1015,"slp":1011.2,"qcField":4,"presTend":1.7,"maxT":27.2,"minT":18.9,"metarType":"METAR","rawOb":"METAR KTUS 180553Z 25006KT 10SM CLR 19/M02 A2997 RMK AO2 SLP112 T01891017 10272 20189 51017","lat":32.1315,"lon":-110.9564,"elev":776,"name":"Tucson Intl Arpt, AZ, US","cover":"CLR","clouds":[],"fltCat":"VFR"},{"icaoId":"KMCI","receiptTime":"2026-04-18T05:56:29.106Z","obsTime":1776491580,"reportTime":"2026-04-18T06:00:00.000Z","temp":9.4,"dewp":-2.8,"wdir":330,"wspd":14,"wgst":21,"visib":"10+","altim":1013.3,"slp":1012.4,"qcField":4,"presTend":2.4,"maxT":15,"minT":9.4,"maxT24":27.8,"minT24":9.4,"pcp6hr":0.01,"metarType":"METAR","rawOb":"METAR KMCI 180553Z 33014G21KT 10SM BKN095 OVC110 09/M03 A2992 RMK AO2 SLP124 60001 T00941028 10150 20094 402780094 51024","lat":39.2975,"lon":-94.7309,"elev":308,"name":"Kansas City Intl, MO, US","cover":"OVC","clouds":[{"cover":"BKN","base":9500},{"cover":"OVC","base":11000}],"fltCat":"VFR"},{"icaoId":"KMCO","receiptTime":"2026-04-18T05:56:29.132Z","obsTime":1776491580,"reportTime":"2026-04-18T06:00:00.000Z","temp":20.6,"dewp":19.4,"wdir":190,"wspd":7,"visib":"10+","altim":1016.3,"slp":1016.1,"qcField":4,"presTend":-1.9,"maxT":26.1,"minT":20,"metarType":"METAR","rawOb":"METAR KMCO 180553Z 19007KT 10SM FEW250 21/19 A3001 RMK AO2 SLP161 T02060194 10261 20200 58019","lat":28.4182,"lon":-81.3241,"elev":27,"name":"Orlando Intl, FL, US","cover":"FEW","clouds":[{"cover":"FEW","base":25000}],"fltCat":"VFR"},{"icaoId":"KMOD","receiptTime":"2026-04-18T05:56:29.459Z","obsTime":1776491580,"reportTime":"2026-04-18T06:00:00.000Z","temp":15,"dewp":2.2,"wdir":300,"wspd":3,"visib":"10+","altim":1016.7,"slp":1016.4,"qcField":6,"presTend":0.9,"maxT":22.8,"minT":13.9,"metarType":"METAR","rawOb":"METAR KMOD 180553Z AUTO 30003KT 10SM CLR 15/02 A3002 RMK AO2 SLP164 T01500022 10228 20139 51009","lat":37.6254,"lon":-120.9549,"elev":25,"name":"Modesto/Sham Fld, CA, US","cover":"CLR","clouds":[],"fltCat":"VFR"},{"icaoId":"KRDD","receiptTime":"2026-04-18T05:56:29.776Z","obsTime":1776491580,"reportTime":"2026-04-18T06:00:00.000Z","temp":11.7,"dewp":3.3,"wdir":0,"wspd":0,"visib":"10+","altim":1016,"slp":1015.7,"qcField":6,"presTend":1.3,"maxT":23.3,"minT":11.7,"metarType":"METAR","rawOb":"METAR KRDD 180553Z AUTO 00000KT 10SM CLR 12/03 A3000 RMK AO2 SLP157 T01170033 10233 20117 53013","lat":40.5146,"lon":-122.2977,"elev":152,"name":"Redding Muni, CA, US","cover":"CLR","clouds":[],"fltCat":"VFR"},{"icaoId":"KSBA","receiptTime":"2026-04-18T05:56:29.991Z","obsTime":1776491580,"reportTime":"2026-04-18T06:00:00.000Z","temp":14.4,"dewp":6.7,"wdir":360,"wspd":3,"visib":"10+","altim":1015,"slp":1014.7,"qcField":12,"presTend":1.3,"maxT":20.6,"minT":14.4,"metarType":"METAR","rawOb":"METAR KSBA 180553Z 36003KT 10SM CLR 14/07 A2997 RMK AO2 SLP147 T01440067 10206 20144 53013 $","lat":34.4241,"lon":-119.8425,"elev":2,"name":"Santa Barbara Muni, CA, US","cover":"CLR","clouds":[],"fltCat":"VFR"},{"icaoId":"KMYR","receiptTime":"2026-04-18T05:56:18.537Z","obsTime":1776491580,"reportTime":"2026-04-18T06:00:00.000Z","temp":20.6,"dewp":13.3,"wdir":210,"wspd":3,"visib":"10+","altim":1015.3,"slp":1015.2,"qcField":14,"presTend":0.2,"maxT":23.3,"minT":20.6,"metarType":"METAR","rawOb":"METAR KMYR 180553Z AUTO 21003KT 10SM CLR 21/13 A2998 RMK AO2 SLP152 T02060133 10233 20206 53002 $","lat":33.6769,"lon":-78.9325,"elev":7,"name":"Myrtle Beach Intl, SC, US","cover":"CLR","clouds":[],"fltCat":"VFR"},{"icaoId":"KACV","receiptTime":"2026-04-18T05:56:17.353Z","obsTime":1776491580,"reportTime":"2026-04-18T06:00:00.000Z","temp":6.1,"dewp":5,"wdir":80,"wspd":4,"visib":"10+","altim":1019.4,"slp":1019.9,"qcField":6,"presTend":0.7,"maxT":13.9,"minT":6.1,"metarType":"METAR","rawOb":"METAR KACV 180553Z AUTO 08004KT 10SM CLR 06/05 A3010 RMK AO2 SLP199 T00610050 10139 20061 50007","lat":40.9784,"lon":-124.1048,"elev":63,"name":"Arcata Arpt, CA, US","cover":"CLR","clouds":[],"fltCat":"VFR"},{"icaoId":"KBCE","receiptTime":"2026-04-18T05:56:17.377Z","obsTime":1776491580,"reportTime":"2026-04-18T06:00:00.000Z","temp":-7.2,"dewp":-14.4,"wdir":340,"wspd":5,"visib":"10+","altim":1023.5,"slp":1022.6,"qcField":6,"presTend":1.6,"maxT":6.1,"minT":-9.4,"metarType":"METAR","rawOb":"METAR KBCE 180553Z AUTO 34005KT 10SM CLR M07/M14 A3022 RMK AO2 SLP226 T10721144 10061 21094 51016","lat":37.7013,"lon":-112.149,"elev":2311,"name":"Bryce Canyon Arpt, UT, US","cover":"CLR","clouds":[],"fltCat":"VFR"},{"icaoId":"KBHM","receiptTime":"2026-04-18T05:56:30.134Z","obsTime":1776491580,"reportTime":"2026-04-18T06:00:00.000Z","temp":18.9,"dewp":15.6,"wdir":0,"wspd":0,"visib":"10+","altim":1015,"slp":1014.1,"qcField":4,"presTend":-0.4,"maxT":28.3,"minT":18.9,"maxT24":31.1,"minT24":15,"metarType":"METAR","rawOb":"METAR KBHM 180553Z 00000KT 10SM CLR 19/16 A2997 RMK AO2 SLP141 T01890156 10283 20189 403110150 56004","lat":33.5655,"lon":-86.7449,"elev":191,"name":"Birmingham Intl, AL, US","cover":"CLR","clouds":[],"fltCat":"VFR"},{"icaoId":"KTWF","receiptTime":"2026-04-18T05:56:28.336Z","obsTime":1776491580,"reportTime":"2026-04-18T06:00:00.000Z","temp":-1.1,"dewp":-6.1,"wdir":200,"wspd":8,"visib":"10+","altim":1023.8,"slp":1023.9,"qcField":6,"presTend":1.1,"maxT":8.9,"minT":-2.2,"metarType":"METAR","rawOb":"METAR KTWF 180553Z AUTO 20008KT 10SM CLR M01/M06 A3023 RMK AO2 SLP239 T10111061 10089 21022 51011","lat":42.4785,"lon":-114.4775,"elev":1269,"name":"Twin Falls/Joslin Fld, ID, US","cover":"CLR","clouds":[],"fltCat":"VFR"},{"icaoId":"KPGA","receiptTime":"2026-04-18T05:56:28.924Z","obsTime":1776491580,"reportTime":"2026-04-18T06:00:00.000Z","temp":7.8,"dewp":-19.4,"wdir":0,"wspd":0,"visib":"10+","altim":1021.8,"slp":1019.7,"qcField":14,"presTend":1.7,"maxT":12.8,"minT":7.2,"metarType":"METAR","rawOb":"METAR KPGA 180553Z AUTO 00000KT 10SM CLR 08/M19 A3017 RMK AO2 SLP197 T00781194 10128 20072 51017 $","lat":36.9211,"lon":-111.4487,"elev":1310,"name":"Page Muni, AZ, US","cover":"CLR","clouds":[],"fltCat":"VFR"},{"icaoId":"KBTM","receiptTime":"2026-04-18T05:56:30.424Z","obsTime":1776491580,"reportTime":"2026-04-18T06:00:00.000Z","temp":-0.6,"dewp":-9.4,"wdir":300,"wspd":8,"visib":"10+","altim":1021.8,"slp":1024,"qcField":6,"presTend":1.4,"maxT":3.9,"minT":-0.6,"metarType":"METAR","rawOb":"METAR KBTM 180553Z AUTO 30008KT 10SM OVC055 M01/M09 A3017 RMK AO2 SLP240 T10061094 10039 21006 51014","lat":45.9644,"lon":-112.5015,"elev":1680,"name":"Butte/Mooney Arpt, MT, US","cover":"OVC","clouds":[{"cover":"OVC","base":5500}],"fltCat":"VFR"},{"icaoId":"KCDC","receiptTime":"2026-04-18T05:56:20.266Z","obsTime":1776491580,"reportTime":"2026-04-18T06:00:00.000Z","temp":0.6,"dewp":-11.1,"wdir":10,"wspd":6,"visib":"10+","altim":1022.4,"slp":1022.3,"qcField":6,"presTend":0.8,"maxT":8.9,"minT":0.6,"metarType":"METAR","rawOb":"METAR KCDC 180553Z AUTO 01006KT 10SM CLR 01/M11 A3019 RMK AO2 SLP223 T00061111 10089 20006 51008","lat":37.7067,"lon":-113.097,"elev":1703,"name":"Cedar City Muni, UT, US","cover":"CLR","clouds":[],"fltCat":"VFR"},{"icaoId":"KRTN","receiptTime":"2026-04-18T05:56:29.876Z","obsTime":1776491580,"reportTime":"2026-04-18T06:00:00.000Z","temp":-3.3,"dewp":-6.7,"wdir":40,"wspd":9,"visib":"10+","altim":1020.7,"slp":1017,"qcField":6,"presTend":2.1,"maxT":6.7,"minT":-3.3,"metarType":"METAR","rawOb":"METAR KRTN 180553Z AUTO 04009KT 10SM CLR M03/M07 A3014 RMK AO2 SLP170 T10331067 10067 21033 51021","lat":36.7418,"lon":-104.5076,"elev":1939,"name":"Raton/Crews Fld, NM, US","cover":"CLR","clouds":[],"fltCat":"VFR"},{"icaoId":"KCRQ","receiptTime":"2026-04-18T05:56:25.503Z","obsTime":1776491580,"reportTime":"2026-04-18T06:00:00.000Z","temp":16.1,"dewp":13.3,"wdir":0,"wspd":0,"visib":"10+","altim":1015.7,"slp":1015.3,"qcField":6,"presTend":1.6,"maxT":18.9,"minT":16.1,"metarType":"METAR","rawOb":"METAR KCRQ 180553Z AUTO 00000KT 10SM CLR 16/13 A2999 RMK AO2 SLP153 T01610133 10189 20161 51016","lat":33.1299,"lon":-117.2765,"elev":96,"name":"Carlsbad/Palomar Arpt, CA, US","cover":"CLR","clouds":[],"fltCat":"VFR"},{"icaoId":"KMYF","receiptTime":"2026-04-18T05:56:28.193Z","obsTime":1776491580,"reportTime":"2026-04-18T06:00:00.000Z","temp":15.6,"dewp":12.2,"wdir":30,"wspd":3,"visib":"10+","altim":1016,"slp":1015.5,"qcField":6,"presTend":1.5,"maxT":20,"minT":15.6,"metarType":"METAR","rawOb":"METAR KMYF 180553Z AUTO 03003KT 10SM CLR 16/12 A3000 RMK AO2 SLP155 T01560122 10200 20156 51015","lat":32.8145,"lon":-117.1375,"elev":128,"name":"San Diego/Montgomery Arpt, CA, US","cover":"CLR","clouds":[],"fltCat":"VFR"},{"icaoId":"KMLS","receiptTime":"2026-04-18T05:56:29.389Z","obsTime":1776491580,"reportTime":"2026-04-18T06:00:00.000Z","temp":-1.7,"dewp":-6.1,"wdir":320,"wspd":5,"visib":"10+","altim":1019,"slp":1021.4,"qcField":6,"presTend":1.3,"maxT":5.6,"minT":-2.2,"metarType":"METAR","rawOb":"METAR KMLS 180553Z AUTO 32005KT 10SM OVC070 M02/M06 A3009 RMK AO2 SLP214 T10171061 10056 21022 51013","lat":46.4265,"lon":-105.8834,"elev":800,"name":"Miles City/Wiley Fld, MT, US","cover":"OVC","clouds":[{"cover":"OVC","base":7000}],"fltCat":"VFR"},{"icaoId":"KFUL","receiptTime":"2026-04-18T05:56:24.950Z","obsTime":1776491580,"reportTime":"2026-04-18T06:00:00.000Z","temp":18.3,"dewp":9.4,"wdir":0,"wspd":0,"visib":"10+","altim":1014.6,"slp":1014.5,"qcField":6,"presTend":1.5,"maxT":23.9,"minT":17.8,"metarType":"METAR","rawOb":"METAR KFUL 180553Z AUTO 00000KT 10SM CLR 18/09 A2996 RMK AO2 SLP145 T01830094 10239 20178 52015","lat":33.8715,"lon":-117.9856,"elev":23,"name":"Fullerton Muni, CA, US","cover":"CLR","clouds":[],"fltCat":"VFR"},{"icaoId":"KHOU","receiptTime":"2026-04-18T05:56:24.707Z","obsTime":1776491580,"reportTime":"2026-04-18T06:00:00.000Z","temp":21.1,"dewp":19.4,"wdir":190,"wspd":4,"visib":"10+","altim":1012.3,"slp":1012.4,"qcField":4,"presTend":-0.8,"maxT":25,"minT":21.1,"maxT24":29.4,"minT24":20.6,"metarType":"METAR","rawOb":"METAR KHOU 180553Z 19004KT 10SM SCT250 21/19 A2989 RMK AO2 SLP124 T02110194 10250 20211 402940206 57008","lat":29.6458,"lon":-95.2821,"elev":13,"name":"Houston/Hobby Arpt, TX, US","cover":"SCT","clouds":[{"cover":"SCT","base":25000}],"fltCat":"VFR"},{"icaoId":"KGSP","receiptTime":"2026-04-18T05:56:24.988Z","obsTime":1776491580,"reportTime":"2026-04-18T06:00:00.000Z","temp":16.1,"dewp":11.1,"wdir":0,"wspd":0,"visib":"10+","altim":1015,"slp":1013.9,"qcField":6,"presTend":-0.1,"maxT":26.7,"minT":16.1,"metarType":"METAR","rawOb":"METAR KGSP 180553Z AUTO 00000KT 10SM CLR 16/11 A2997 RMK AO2 SLP139 T01610111 10267 20161 55001","lat":34.8842,"lon":-82.2209,"elev":285,"name":"Greenville-Spartanburg Intl, SC, US","cover":"CLR","clouds":[],"fltCat":"VFR"},{"icaoId":"KASE","receiptTime":"2026-04-18T05:56:17.792Z","obsTime":1776491580,"reportTime":"2026-04-18T06:00:00.000Z","temp":-5.6,"dewp":-12.2,"wdir":170,"wspd":5,"visib":"10+","altim":1021.4,"slp":1022.8,"qcField":6,"presTend":0.4,"maxT":-0.6,"minT":-7.2,"metarType":"METAR","rawOb":"METAR KASE 180553Z AUTO 17005KT 10SM SCT070 OVC080 M06/M12 A3016 RMK AO2 SLP228 T10561122 11006 21072 50004","lat":39.2299,"lon":-106.8705,"elev":2384,"name":"Aspen/Pitkin Cnty, CO, US","cover":"OVC","clouds":[{"cover":"SCT","base":7000},{"cover":"OVC","base":8000}],"fltCat":"VFR"},{"icaoId":"KDEN","receiptTime":"2026-04-18T05:56:19.132Z","obsTime":1776491580,"reportTime":"2026-04-18T06:00:00.000Z","temp":-3.3,"dewp":-5.6,"wdir":200,"wspd":6,"visib":"10+","altim":1020.1,"slp":1022.1,"qcField":12,"presTend":0.2,"maxT":2.2,"minT":-3.3,"metarType":"METAR","rawOb":"METAR KDEN 180553Z 20006KT 10SM CLR M03/M06 A3012 RMK AO2 SLP221 T10331056 10022 21033 50002 $","lat":39.8466,"lon":-104.6562,"elev":1656,"name":"Denver Intl, CO, US","cover":"CLR","clouds":[],"fltCat":"VFR"},{"icaoId":"KDFW","receiptTime":"2026-04-18T05:56:19.178Z","obsTime":1776491580,"reportTime":"2026-04-18T06:00:00.000Z","temp":23.9,"dewp":18.3,"wdir":190,"wspd":20,"wgst":27,"visib":"10+","altim":1008.2,"slp":1007.3,"qcField":4,"presTend":0.3,"maxT":27.2,"minT":23.9,"maxT24":27.8,"minT24":20.6,"metarType":"METAR","rawOb":"METAR KDFW 180553Z 19020G27KT 10SM FEW250 24/18 A2977 RMK AO2 PK WND 18031/0542 SLP073 T02390183 10272 20239 402780206 51003","lat":32.8974,"lon":-97.022,"elev":168,"name":"Dallas-Ft Worth Intl, TX, US","cover":"FEW","clouds":[{"cover":"FEW","base":25000}],"fltCat":"VFR"},{"icaoId":"KRIW","receiptTime":"2026-04-18T05:56:27.669Z","obsTime":1776491580,"reportTime":"2026-04-18T06:00:00.000Z","temp":-2.2,"dewp":-12.2,"wdir":330,"wspd":6,"visib":"10+","altim":1020.4,"slp":1021.9,"qcField":6,"presTend":1.3,"maxT":4.4,"minT":-2.2,"metarType":"METAR","rawOb":"METAR KRIW 180553Z AUTO 33006KT 10SM SCT120 M02/M12 A3013 RMK AO2 SLP219 T10221122 10044 21022 51013","lat":43.0622,"lon":-108.4471,"elev":1662,"name":"Riverton Rgnl, WY, US","cover":"SCT","clouds":[{"cover":"SCT","base":12000}],"fltCat":"VFR"},{"icaoId":"KPAE","receiptTime":"2026-04-18T05:56:28.487Z","obsTime":1776491580,"reportTime":"2026-04-18T06:00:00.000Z","temp":7.8,"dewp":2.8,"wdir":340,"wspd":3,"visib":"10+","altim":1021.1,"slp":1021.3,"qcField":6,"presTend":-0.7,"maxT":12.2,"minT":7.8,"metarType":"METAR","rawOb":"METAR KPAE 180553Z AUTO 34003KT 10SM CLR 08/03 A3015 RMK AO2 SLP213 T00780028 10122 20078 58007","lat":47.9232,"lon":-122.2831,"elev":166,"name":"Everett/Paine Fld, WA, US","cover":"CLR","clouds":[],"fltCat":"VFR"},{"icaoId":"KLVS","receiptTime":"2026-04-18T05:56:22.435Z","obsTime":1776491580,"reportTime":"2026-04-18T06:00:00.000Z","temp":-2.8,"dewp":-5,"wdir":30,"wspd":11,"visib":"10+","altim":1020.1,"slp":1015.2,"qcField":14,"presTend":2.4,"maxT":15.6,"minT":-2.8,"metarType":"METAR","rawOb":"METAR KLVS 180553Z AUTO 03011KT 10SM CLR M03/M05 A3012 RMK AO2 SLP152 T10281050 10156 21028 51024 $","lat":35.6558,"lon":-105.1385,"elev":2095,"name":"Las Vegas Muni, NM, US","cover":"CLR","clouds":[],"fltCat":"VFR"},{"icaoId":"KVEL","receiptTime":"2026-04-18T05:56:26.388Z","obsTime":1776491580,"reportTime":"2026-04-18T06:00:00.000Z","temp":-0.6,"dewp":-6.1,"wdir":0,"wspd":0,"visib":"10+","altim":1023.8,"slp":1025.4,"qcField":6,"presTend":1.7,"maxT":6.1,"minT":-1.1,"metarType":"METAR","rawOb":"METAR KVEL 180553Z AUTO 00000KT 10SM BKN075 M01/M06 A3023 RMK AO2 SLP254 T10061061 10061 21011 51017","lat":40.4429,"lon":-109.5128,"elev":1604,"name":"Vernal Rgnl, UT, US","cover":"BKN","clouds":[{"cover":"BKN","base":7500}],"fltCat":"VFR"},{"icaoId":"KDLN","receiptTime":"2026-04-18T05:56:22.741Z","obsTime":1776491580,"reportTime":"2026-04-18T06:00:00.000Z","temp":-2.2,"dewp":-8.9,"wdir":190,"wspd":9,"visib":"10+","altim":1021.4,"slp":1023.6,"qcField":6,"presTend":1.4,"maxT":5,"minT":-2.2,"metarType":"METAR","rawOb":"METAR KDLN 180553Z AUTO 19009KT 10SM CLR M02/M09 A3016 RMK AO2 SLP236 T10221089 10050 21022 51014","lat":45.2584,"lon":-112.5546,"elev":1586,"name":"Dillon Arpt, MT, US","cover":"CLR","clouds":[],"fltCat":"VFR"},{"icaoId":"KDRO","receiptTime":"2026-04-18T05:56:22.795Z","obsTime":1776491580,"reportTime":"2026-04-18T06:00:00.000Z","temp":-2.8,"dewp":-11.7,"wdir":360,"wspd":4,"visib":"10+","altim":1020.7,"slp":1020.6,"qcField":6,"presTend":1.8,"maxT":8.9,"minT":-2.8,"metarType":"METAR","rawOb":"METAR KDRO 180553Z AUTO 36004KT 10SM CLR M03/M12 A3014 RMK AO2 SLP206 T10281117 10089 21028 51018","lat":37.1431,"lon":-107.7602,"elev":2021,"name":"Durango/La Plata Cnty, CO, US","cover":"CLR","clouds":[],"fltCat":"VFR"},{"icaoId":"KHIO","receiptTime":"2026-04-18T05:56:24.381Z","obsTime":1776491580,"reportTime":"2026-04-18T06:00:00.000Z","temp":6.1,"dewp":2.8,"wdir":310,"wspd":3,"visib":"10+","altim":1019.4,"slp":1019.4,"qcField":6,"presTend":-0.9,"maxT":14.4,"minT":6.1,"metarType":"METAR","rawOb":"METAR KHIO 180553Z AUTO 31003KT 10SM CLR 06/03 A3010 RMK AO2 SLP194 T00610028 10144 20061 56009","lat":45.5476,"lon":-122.9557,"elev":62,"name":"Portland/Hillsboro Arpt, OR, US","cover":"CLR","clouds":[],"fltCat":"VFR"},{"icaoId":"KGJT","receiptTime":"2026-04-18T05:56:24.556Z","obsTime":1776491580,"reportTime":"2026-04-18T06:00:00.000Z","temp":1.1,"dewp":-6.1,"wdir":70,"wspd":6,"visib":"10+","altim":1022.8,"slp":1023,"qcField":6,"presTend":1.4,"maxT":7.2,"minT":0.6,"metarType":"METAR","rawOb":"METAR KGJT 180553Z AUTO 07006KT 10SM CLR 01/M06 A3020 RMK AO2 SLP230 T00111061 10072 20006 51014","lat":39.1344,"lon":-108.5408,"elev":1475,"name":"Grand Junction Rgnl, CO, US","cover":"CLR","clouds":[],"fltCat":"VFR"},{"icaoId":"PANC","receiptTime":"2026-04-18T05:56:25.244Z","obsTime":1776491580,"reportTime":"2026-04-18T06:00:00.000Z","temp":2.2,"dewp":0.6,"wdir":170,"wspd":3,"visib":"10+","altim":1009.9,"slp":1009.8,"qcField":4,"presTend":1.1,"maxT":4.4,"minT":2.2,"snow":11,"metarType":"METAR","rawOb":"METAR PANC 180553Z 17003KT 10SM FEW016 BKN026 OVC040 02/01 A2982 RMK AO2 SLP098 4/011 T00220006 10044 20022 53011","lat":61.1691,"lon":-150.0277,"elev":39,"name":"Anchorage Intl, AK, US","cover":"OVC","clouds":[{"cover":"FEW","base":1600},{"cover":"BKN","base":2600},{"cover":"OVC","base":4000}],"fltCat":"MVFR"},{"icaoId":"KMKE","receiptTime":"2026-04-18T05:56:21.509Z","obsTime":1776491520,"reportTime":"2026-04-18T06:00:00.000Z","temp":16.7,"dewp":15,"wdir":220,"wspd":12,"visib":"10+","altim":1001.1,"slp":1001,"qcField":12,"presTend":-2.6,"maxT":17.8,"minT":13.9,"maxT24":21.7,"minT24":6.7,"precip":0.01,"pcp6hr":0.97,"metarType":"METAR","rawOb":"METAR KMKE 180552Z 22012KT 10SM OVC014 17/15 A2956 RMK AO2 RAE23 SLP010 P0001 60097 T01670150 10178 20139 402170067 55026 $","lat":42.9549,"lon":-87.9045,"elev":203,"name":"Milwaukee/Mitchell Intl, WI, US","cover":"OVC","clouds":[{"cover":"OVC","base":1400}],"fltCat":"MVFR"},{"icaoId":"KCVG","receiptTime":"2026-04-18T05:56:20.674Z","obsTime":1776491520,"reportTime":"2026-04-18T06:00:00.000Z","temp":19.4,"dewp":13.9,"wdir":170,"wspd":7,"visib":"10+","altim":1010.6,"slp":1009.6,"qcField":4,"presTend":-1.3,"maxT":23.3,"minT":19.4,"metarType":"METAR","rawOb":"METAR KCVG 180552Z 17007KT 10SM BKN250 19/14 A2984 RMK AO2 SLP096 T01940139 10233 20194 58013","lat":39.0444,"lon":-84.6724,"elev":264,"name":"Cincinnati Intl, KY, US","cover":"BKN","clouds":[{"cover":"BKN","base":25000}],"fltCat":"VFR"},{"icaoId":"KATL","receiptTime":"2026-04-18T05:56:21.130Z","obsTime":1776491520,"reportTime":"2026-04-18T06:00:00.000Z","temp":21.7,"dewp":12.8,"wdir":0,"wspd":0,"visib":"10+","altim":1015.3,"slp":1014.1,"qcField":4,"presTend":0.3,"maxT":28.3,"minT":21.7,"metarType":"METAR","rawOb":"METAR KATL 180552Z 00000KT 10SM FEW250 22/13 A2998 RMK AO2 SLP141 T02170128 10283 20217 53003","lat":33.6297,"lon":-84.4422,"elev":309,"name":"Atlanta/Hartsfield-Jackson Intl, GA, US","cover":"FEW","clouds":[{"cover":"FEW","base":25000}],"fltCat":"VFR"},{"icaoId":"KHRL","receiptTime":"2026-04-18T05:56:21.156Z","obsTime":1776491520,"reportTime":"2026-04-18T06:00:00.000Z","temp":24.4,"dewp":22.2,"wdir":160,"wspd":15,"wgst":23,"visib":"10+","altim":1010.2,"slp":1010,"qcField":6,"presTend":-0.6,"maxT":27.2,"minT":24.4,"maxT24":31.7,"minT24":23.3,"metarType":"METAR","rawOb":"METAR KHRL 180552Z AUTO 16015G23KT 10SM OVC018 24/22 A2983 RMK AO2 SLP100 T02440222 10272 20244 403170233 58006","lat":26.2303,"lon":-97.6556,"elev":9,"name":"Harlingen/Valley Intl, TX, US","cover":"OVC","clouds":[{"cover":"OVC","base":1800}],"fltCat":"MVFR"},{"icaoId":"KABI","receiptTime":"2026-04-18T05:56:23.378Z","obsTime":1776491520,"reportTime":"2026-04-18T06:00:00.000Z","temp":23.9,"dewp":18.9,"wdir":170,"wspd":11,"visib":"10+","altim":1009.2,"slp":1006.5,"qcField":12,"presTend":0.9,"maxT":26.7,"minT":23.3,"maxT24":27.8,"minT24":20,"metarType":"METAR","rawOb":"METAR KABI 180552Z 17011KT 10SM CLR 24/19 A2980 RMK AO2 SLP065 T02390189 10267 20233 402780200 51009 $","lat":32.4106,"lon":-99.6821,"elev":543,"name":"Abilene Rgnl, TX, US","cover":"CLR","clouds":[],"fltCat":"VFR"},{"icaoId":"KMLF","receiptTime":"2026-04-18T05:56:23.497Z","obsTime":1776491520,"reportTime":"2026-04-18T06:00:00.000Z","temp":-2.8,"dewp":-18.9,"wdir":60,"wspd":6,"visib":"10+","altim":1023.1,"slp":1024.1,"qcField":6,"presTend":1,"maxT":9.4,"minT":-2.8,"metarType":"METAR","rawOb":"METAR KMLF 180552Z AUTO 06006KT 10SM CLR M03/M19 A3021 RMK AO2 SLP241 T10281189 10094 21028 51010","lat":38.4225,"lon":-113.0109,"elev":1537,"name":"Milford Muni, UT, US","cover":"CLR","clouds":[],"fltCat":"VFR"},{"icaoId":"KCLT","receiptTime":"2026-04-18T05:56:20.651Z","obsTime":1776491520,"reportTime":"2026-04-18T06:00:00.000Z","temp":20,"dewp":12.8,"wdir":0,"wspd":0,"visib":"10+","altim":1015.3,"slp":1015.7,"qcField":4,"presTend":0.3,"maxT":27.2,"minT":19.4,"metarType":"METAR","rawOb":"METAR KCLT 180552Z 00000KT 10SM BKN250 20/13 A2998 RMK AO2 SLP157 T02000128 10272 20194 53003","lat":35.2225,"lon":-80.9543,"elev":223,"name":"Charlotte/Douglas Intl, NC, US","cover":"BKN","clouds":[{"cover":"BKN","base":25000}],"fltCat":"VFR"},{"icaoId":"KIAD","receiptTime":"2026-04-18T05:56:20.852Z","obsTime":1776491520,"reportTime":"2026-04-18T06:00:00.000Z","temp":14.4,"dewp":11.1,"wdir":0,"wspd":0,"visib":"10+","altim":1016,"slp":1015.5,"qcField":4,"presTend":0.9,"maxT":23.9,"minT":13.3,"metarType":"METAR","rawOb":"METAR KIAD 180552Z 00000KT 10SM FEW250 14/11 A3000 RMK AO2 SLP155 T01440111 10239 20133 53009","lat":38.9348,"lon":-77.4473,"elev":90,"name":"Washington/Dulles Intl, VA, US","cover":"FEW","clouds":[{"cover":"FEW","base":25000}],"fltCat":"VFR"},{"icaoId":"KDCA","receiptTime":"2026-04-18T05:56:20.704Z","obsTime":1776491520,"reportTime":"2026-04-18T06:00:00.000Z","temp":18.3,"dewp":12.8,"wdir":200,"wspd":3,"visib":"10+","altim":1015.3,"slp":1015.3,"qcField":4,"presTend":1.1,"maxT":23.3,"minT":18.3,"metarType":"METAR","rawOb":"METAR KDCA 180552Z 20003KT 10SM CLR 18/13 A2998 RMK AO2 SLP153 T01830128 10233 20183 53011","lat":38.8472,"lon":-77.0345,"elev":4,"name":"Washington/Reagan-National Arpt, VA, US","cover":"CLR","clouds":[],"fltCat":"VFR"},{"icaoId":"KABQ","receiptTime":"2026-04-18T05:56:23.393Z","obsTime":1776491520,"reportTime":"2026-04-18T06:00:00.000Z","temp":8.9,"dewp":-20,"wdir":330,"wspd":11,"visib":"10+","altim":1020.1,"slp":1014.9,"qcField":4,"presTend":1.7,"maxT":17.2,"minT":8.9,"metarType":"METAR","rawOb":"METAR KABQ 180552Z 33011KT 10SM CLR 09/M20 A3012 RMK AO2 SLP149 T00891200 10172 20089 51017","lat":35.0419,"lon":-106.6154,"elev":1620,"name":"Albuquerque Intl, NM, US","cover":"CLR","clouds":[],"fltCat":"VFR"},{"icaoId":"KOKC","receiptTime":"2026-04-18T05:56:21.168Z","obsTime":1776491520,"reportTime":"2026-04-18T06:00:00.000Z","temp":10,"dewp":7.2,"wdir":10,"wspd":23,"wgst":32,"visib":6,"altim":1014.3,"slp":1013.2,"qcField":4,"wxString":"-TSRA","presTend":6.3,"maxT":22.8,"minT":10,"maxT24":25,"minT24":10,"precip":0.09,"pcp6hr":0.37,"metarType":"METAR","rawOb":"METAR KOKC 180552Z 01023G32KT 6SM -TSRA FEW036CB BKN090 OVC100 10/07 A2995 RMK AO2 PK WND 36038/0453 SLP132 OCNL LTGCGICCC ALQDS TS ALQDS MOV E P0009 60037 T01000072 10228 20100 402500100 51063","lat":35.3843,"lon":-97.6003,"elev":391,"name":"Oklahoma City/Will Rogers Intl, OK, US","cover":"OVC","clouds":[{"cover":"FEW","base":3600},{"cover":"BKN","base":9000},{"cover":"OVC","base":10000}],"fltCat":"VFR"},{"icaoId":"KSTL","receiptTime":"2026-04-18T05:54:08.445Z","obsTime":1776491460,"reportTime":"2026-04-18T06:00:00.000Z","temp":16.7,"dewp":15.6,"wdir":250,"wspd":11,"visib":"10+","altim":1009.2,"slp":1008.2,"qcField":12,"wxString":"-RA","presTend":2.3,"maxT":27.2,"minT":16.7,"maxT24":30,"minT24":16.7,"precip":0.08,"pcp6hr":0.24,"metarType":"METAR","rawOb":"METAR KSTL 180551Z 25011KT 10SM -RA OVC100 17/16 A2980 RMK AO2 PRESRR SLP082 P0008 60024 T01670156 10272 20167 403000167 53023 $","lat":38.7525,"lon":-90.3734,"elev":163,"name":"St Louis/Lambert Intl, MO, US","cover":"OVC","clouds":[{"cover":"OVC","base":10000}],"fltCat":"VFR"},{"icaoId":"KIGM","receiptTime":"2026-04-18T05:54:08.068Z","obsTime":1776491460,"reportTime":"2026-04-18T06:00:00.000Z","temp":8.3,"dewp":-16.1,"wdir":110,"wspd":10,"visib":"10+","altim":1018.7,"slp":1014.6,"qcField":6,"presTend":1.5,"maxT":18.3,"minT":8.3,"metarType":"METAR","rawOb":"METAR KIGM 180551Z AUTO 11010KT 10SM CLR 08/M16 A3008 RMK AO2 SLP146 T00831161 10183 20083 51015","lat":35.2575,"lon":-113.9341,"elev":1045,"name":"Kingman Arpt, AZ, US","cover":"CLR","clouds":[],"fltCat":"VFR"},{"icaoId":"KORD","receiptTime":"2026-04-18T05:54:08.225Z","obsTime":1776491460,"reportTime":"2026-04-18T06:00:00.000Z","temp":17.2,"dewp":15,"wdir":230,"wspd":16,"wgst":25,"visib":"10+","altim":1003.5,"slp":1002.9,"qcField":12,"wxString":"-RA","presTend":-1.2,"maxT":25.6,"minT":16.7,"maxT24":27.2,"minT24":9.4,"precip":0.005,"pcp6hr":0.5,"metarType":"METAR","rawOb":"METAR KORD 180551Z 23016G25KT 10SM -RA FEW070 OVC100 17/15 A2963 RMK AO2 SLP029 RAE0458B41 P0000 60050 T01720150 10256 20167 402720094 55012 $","lat":41.9602,"lon":-87.9316,"elev":202,"name":"Chicago/O'Hare Intl, IL, US","cover":"OVC","clouds":[{"cover":"FEW","base":7000},{"cover":"OVC","base":10000}],"fltCat":"VFR"},{"icaoId":"KOXR","receiptTime":"2026-04-18T05:54:08.253Z","obsTime":1776491460,"reportTime":"2026-04-18T06:00:00.000Z","temp":14.4,"dewp":8.9,"wdir":40,"wspd":4,"visib":"10+","altim":1015.3,"slp":1015,"qcField":14,"presTend":1.1,"maxT":19.4,"minT":14.4,"metarType":"METAR","rawOb":"METAR KOXR 180551Z AUTO 04004KT 10SM CLR 14/09 A2998 RMK AO2 SLP150 T01440089 10194 20144 51011 $","lat":34.2001,"lon":-119.2042,"elev":12,"name":"Oxnard Arpt, CA, US","cover":"CLR","clouds":[],"fltCat":"VFR"},{"icaoId":"KORF","receiptTime":"2026-04-18T05:54:08.241Z","obsTime":1776491460,"reportTime":"2026-04-18T06:00:00.000Z","temp":18.9,"dewp":16.1,"wdir":0,"wspd":0,"visib":"10+","altim":1014.6,"slp":1014.6,"qcField":4,"presTend":0.4,"maxT":24.4,"minT":18.3,"metarType":"METAR","rawOb":"METAR KORF 180551Z 00000KT 10SM CLR 19/16 A2996 RMK AO2 SLP146 T01890161 10244 20183 50004","lat":36.9037,"lon":-76.1927,"elev":5,"name":"Norfolk Intl, VA, US","cover":"CLR","clouds":[],"fltCat":"VFR"},{"icaoId":"KLGU","receiptTime":"2026-04-18T05:54:08.180Z","obsTime":1776491460,"reportTime":"2026-04-18T06:00:00.000Z","temp":0.6,"dewp":-5.6,"wdir":160,"wspd":5,"visib":"10+","altim":1024.1,"slp":1025.2,"qcField":6,"presTend":1.3,"maxT":5.6,"minT":-1.1,"metarType":"METAR","rawOb":"METAR KLGU 180551Z AUTO 16005KT 10SM CLR 01/M06 A3024 RMK AO2 SLP252 T00061056 10056 21011 51013","lat":41.7865,"lon":-111.8519,"elev":1359,"name":"Logan/Cache Arpt, UT, US","cover":"CLR","clouds":[],"fltCat":"VFR"},{"icaoId":"KELP","receiptTime":"2026-04-18T05:54:07.985Z","obsTime":1776491460,"reportTime":"2026-04-18T06:00:00.000Z","temp":21.1,"dewp":-6.1,"wdir":30,"wspd":6,"visib":"10+","altim":1014,"slp":1007.2,"qcField":4,"presTend":1.5,"maxT":27.8,"minT":20,"metarType":"METAR","rawOb":"METAR KELP 180551Z 03006KT 10SM CLR 21/M06 A2994 RMK AO2 SLP072 T02111061 10278 20200 51015","lat":31.8123,"lon":-106.3774,"elev":1205,"name":"El Paso Intl, TX, US","cover":"CLR","clouds":[],"fltCat":"VFR"},{"icaoId":"KPVD","receiptTime":"2026-04-18T05:54:08.293Z","obsTime":1776491460,"reportTime":"2026-04-18T06:00:00.000Z","temp":9.4,"dewp":8.9,"wdir":360,"wspd":5,"visib":"10+","altim":1017.7,"slp":1017.5,"qcField":6,"presTend":0.1,"maxT":12.8,"minT":9.4,"metarType":"METAR","rawOb":"METAR KPVD 180551Z AUTO 36005KT 10SM CLR 09/09 A3005 RMK AO2 SLP175 T00940089 10128 20094 53001","lat":41.7225,"lon":-71.4325,"elev":15,"name":"Providence/Green Mem, RI, US","cover":"CLR","clouds":[],"fltCat":"VFR"},{"icaoId":"KBDL","receiptTime":"2026-04-18T05:54:08.835Z","obsTime":1776491460,"reportTime":"2026-04-18T06:00:00.000Z","temp":11.7,"dewp":11.1,"wdir":0,"wspd":0,"visib":"10+","altim":1018,"slp":1017.8,"qcField":4,"presTend":1,"maxT":18.3,"minT":11.7,"metarType":"METAR","rawOb":"METAR KBDL 180551Z 00000KT 10SM FEW050 12/11 A3006 RMK AO2 SLP178 T01170111 10183 20117 53010","lat":41.9374,"lon":-72.682,"elev":52,"name":"Hartford/Bradley Intl, CT, US","cover":"FEW","clouds":[{"cover":"FEW","base":5000}],"fltCat":"VFR"},{"icaoId":"KPIT","receiptTime":"2026-04-18T05:54:08.579Z","obsTime":1776491460,"reportTime":"2026-04-18T06:00:00.000Z","temp":16.1,"dewp":10.6,"wdir":140,"wspd":3,"visib":"10+","altim":1014.3,"slp":1014.4,"qcField":4,"presTend":-0.3,"maxT":22.8,"minT":16.1,"metarType":"METAR","rawOb":"METAR KPIT 180551Z 14003KT 10SM BKN250 16/11 A2995 RMK AO2 SLP144 T01610106 10228 20161 58003","lat":40.4814,"lon":-80.2083,"elev":339,"name":"Pittsburgh Intl, PA, US","cover":"BKN","clouds":[{"cover":"BKN","base":25000}],"fltCat":"VFR"},{"icaoId":"KRDU","receiptTime":"2026-04-18T05:54:08.318Z","obsTime":1776491460,"reportTime":"2026-04-18T06:00:00.000Z","temp":16.7,"dewp":11.1,"wdir":0,"wspd":0,"visib":"10+","altim":1015,"slp":1014.4,"qcField":4,"presTend":0.3,"maxT":26.1,"minT":16.7,"metarType":"METAR","rawOb":"METAR KRDU 180551Z 00000KT 10SM FEW250 17/11 A2997 RMK AO2 SLP144 T01670111 10261 20167 53003","lat":35.8923,"lon":-78.782,"elev":121,"name":"Raleigh-Durham Intl, NC, US","cover":"FEW","clouds":[{"cover":"FEW","base":25000}],"fltCat":"VFR"},{"icaoId":"KACT","receiptTime":"2026-04-18T05:54:08.760Z","obsTime":1776491460,"reportTime":"2026-04-18T06:00:00.000Z","temp":22.8,"dewp":19.4,"wdir":180,"wspd":15,"wgst":23,"visib":"10+","altim":1009.9,"slp":1009.2,"qcField":6,"presTend":0.3,"maxT":27.8,"minT":22.8,"maxT24":29.4,"minT24":20.6,"metarType":"METAR","rawOb":"METAR KACT 180551Z AUTO 18015G23KT 10SM CLR 23/19 A2982 RMK AO2 PK WND 17027/0521 SLP092 T02280194 10278 20228 402940206 50003","lat":31.618,"lon":-97.2283,"elev":150,"name":"Waco Rgnl, TX, US","cover":"CLR","clouds":[],"fltCat":"VFR"},{"icaoId":"KSAD","receiptTime":"2026-04-18T05:54:08.341Z","obsTime":1776491460,"reportTime":"2026-04-18T06:00:00.000Z","temp":15.6,"dewp":-7.2,"wdir":310,"wspd":7,"visib":"10+","altim":1014,"slp":1010.2,"qcField":6,"presTend":1.4,"maxT":26.7,"minT":15.6,"metarType":"METAR","rawOb":"METAR KSAD 180551Z AUTO 31007KT 10SM CLR 16/M07 A2994 RMK AO2 SLP102 T01561072 10267 20156 51014","lat":32.8565,"lon":-109.636,"elev":937,"name":"Safford Rgnl, AZ, US","cover":"CLR","clouds":[],"fltCat":"VFR"},{"icaoId":"KSAT","receiptTime":"2026-04-18T05:54:08.606Z","obsTime":1776491460,"reportTime":"2026-04-18T06:00:00.000Z","temp":22.8,"dewp":18.9,"wdir":150,"wspd":15,"visib":"10+","altim":1011.6,"slp":1009.7,"qcField":4,"presTend":0.8,"maxT":28.3,"minT":22.8,"maxT24":32.8,"minT24":19.4,"metarType":"METAR","rawOb":"METAR KSAT 180551Z 15015KT 10SM OVC018 23/19 A2987 RMK AO2 SLP097 T02280189 10283 20228 403280194 50008","lat":29.5443,"lon":-98.4839,"elev":246,"name":"San Antonio Intl, TX, US","cover":"OVC","clouds":[{"cover":"OVC","base":1800}],"fltCat":"MVFR"},{"icaoId":"KCMH","receiptTime":"2026-04-18T05:54:08.919Z","obsTime":1776491460,"reportTime":"2026-04-18T06:00:00.000Z","temp":20.6,"dewp":8.3,"wdir":140,"wspd":6,"visib":"10+","altim":1011.6,"slp":1010.8,"qcField":4,"presTend":-1.1,"maxT":24.4,"minT":20,"metarType":"METAR","rawOb":"METAR KCMH 180551Z 14006KT 10SM SCT200 BKN250 21/08 A2987 RMK AO2 SLP108 T02060083 10244 20200 58011","lat":39.9907,"lon":-82.877,"elev":257,"name":"Columbus/Glenn Intl, OH, US","cover":"BKN","clouds":[{"cover":"SCT","base":20000},{"cover":"BKN","base":25000}],"fltCat":"VFR"},{"icaoId":"KSAN","receiptTime":"2026-04-18T05:54:08.354Z","obsTime":1776491460,"reportTime":"2026-04-18T06:00:00.000Z","temp":16.7,"dewp":12.8,"wdir":0,"wspd":0,"visib":"10+","altim":1016.3,"slp":1016.1,"qcField":12,"presTend":1.5,"maxT":20,"minT":16.7,"metarType":"METAR","rawOb":"METAR KSAN 180551Z 00000KT 10SM CLR 17/13 A3001 RMK AO2 SLP161 T01670128 10200 20167 51015 $","lat":32.7364,"lon":-117.1973,"elev":3,"name":"San Diego Intl Arpt, CA, US","cover":"CLR","clouds":[],"fltCat":"VFR"},{"icaoId":"KCRP","receiptTime":"2026-04-18T05:54:08.948Z","obsTime":1776491460,"reportTime":"2026-04-18T06:00:00.000Z","temp":24.4,"dewp":21.7,"wdir":160,"wspd":14,"visib":"10+","altim":1010.9,"slp":1010.7,"qcField":4,"presTend":-0.5,"maxT":26.7,"minT":24.4,"maxT24":31.1,"minT24":22.8,"metarType":"METAR","rawOb":"METAR KCRP 180551Z 16014KT 10SM FEW017 BKN020 BKN029 24/22 A2985 RMK AO2 SLP107 T02440217 10267 20244 403110228 58005","lat":27.7734,"lon":-97.513,"elev":11,"name":"Corpus Christi Intl, TX, US","cover":"BKN","clouds":[{"cover":"FEW","base":1700},{"cover":"BKN","base":2000},{"cover":"BKN","base":2900}],"fltCat":"MVFR"},{"icaoId":"KMYL","receiptTime":"2026-04-18T05:54:08.209Z","obsTime":1776491460,"reportTime":"2026-04-18T06:00:00.000Z","temp":-3.3,"dewp":-5.6,"wdir":50,"wspd":3,"visib":"10+","altim":1023.5,"slp":1026.2,"qcField":6,"presTend":0.8,"maxT":3.3,"minT":-3.9,"metarType":"METAR","rawOb":"METAR KMYL 180551Z AUTO 05003KT 10SM CLR M03/M06 A3022 RMK AO2 SLP262 T10331056 10033 21039 51008","lat":44.8943,"lon":-116.0998,"elev":1532,"name":"McCall Muni, ID, US","cover":"CLR","clouds":[],"fltCat":"VFR"},{"icaoId":"KJFK","receiptTime":"2026-04-18T05:54:08.152Z","obsTime":1776491460,"reportTime":"2026-04-18T06:00:00.000Z","temp":11.1,"dewp":10.6,"wdir":0,"wspd":0,"visib":"10+","altim":1018,"slp":1017.7,"qcField":4,"presTend":1.1,"maxT":22.8,"minT":11.1,"metarType":"METAR","rawOb":"METAR KJFK 180551Z 00000KT 10SM FEW050 FEW250 11/11 A3006 RMK AO2 SLP177 T01110106 10228 20111 53011","lat":40.6392,"lon":-73.7639,"elev":3,"name":"New York/JF Kennedy Intl, NY, US","cover":"FEW","clouds":[{"cover":"FEW","base":5000},{"cover":"FEW","base":25000}],"fltCat":"VFR"},{"icaoId":"KROW","receiptTime":"2026-04-18T05:54:08.329Z","obsTime":1776491460,"reportTime":"2026-04-18T06:00:00.000Z","temp":13.9,"dewp":-1.7,"wdir":40,"wspd":23,"wgst":31,"visib":9,"altim":1016.3,"slp":1010.7,"qcField":12,"presTend":6,"maxT":29.4,"minT":13.9,"metarType":"METAR","rawOb":"METAR KROW 180551Z 04023G31KT 9SM FEW023 14/M02 A3001 RMK AO2 PK WND 01043/0507 SLP107 T01391017 10294 20139 51060 $","lat":33.3074,"lon":-104.5082,"elev":1105,"name":"Roswell/Ind Arpt, NM, US","cover":"FEW","clouds":[{"cover":"FEW","base":2300}],"fltCat":"VFR"},{"icaoId":"KLGA","receiptTime":"2026-04-18T05:54:08.167Z","obsTime":1776491460,"reportTime":"2026-04-18T06:00:00.000Z","temp":12.8,"dewp":11.1,"wdir":30,"wspd":4,"visib":"10+","altim":1017.4,"slp":1017.3,"qcField":4,"presTend":1.3,"maxT":18.3,"minT":12.2,"metarType":"METAR","rawOb":"METAR KLGA 180551Z 03004KT 10SM FEW010 FEW250 13/11 A3004 RMK AO2 SLP173 T01280111 10183 20122 53013","lat":40.7794,"lon":-73.8803,"elev":9,"name":"New York/La Guardia Arpt, NY, US","cover":"FEW","clouds":[{"cover":"FEW","base":1000},{"cover":"FEW","base":25000}],"fltCat":"VFR"},{"icaoId":"KPHX","receiptTime":"2026-04-18T05:54:08.265Z","obsTime":1776491460,"reportTime":"2026-04-18T06:00:00.000Z","temp":22.8,"dewp":-7.2,"wdir":250,"wspd":7,"visib":"10+","altim":1012.3,"slp":1010.6,"qcField":4,"presTend":2.1,"maxT":29.4,"minT":22.8,"metarType":"METAR","rawOb":"METAR KPHX 180551Z 25007KT 10SM CLR 23/M07 A2989 RMK AO2 SLP106 T02281072 10294 20228 51021","lat":33.4278,"lon":-112.0037,"elev":338,"name":"Phoenix/Sky Harbor Intl, AZ, US","cover":"CLR","clouds":[],"fltCat":"VFR"},{"icaoId":"KVNY","receiptTime":"2026-04-18T05:54:08.096Z","obsTime":1776491460,"reportTime":"2026-04-18T06:00:00.000Z","temp":18.3,"dewp":-1.7,"wdir":"VRB","wspd":3,"visib":"10+","altim":1015,"slp":1014.2,"qcField":14,"presTend":1.5,"maxT":26.1,"minT":17.2,"metarType":"METAR","rawOb":"METAR KVNY 180551Z AUTO VRB03KT 10SM CLR 18/M02 A2997 RMK AO2 SLP142 T01831017 10261 20172 51015 $","lat":34.2121,"lon":-118.4915,"elev":241,"name":"Van Nuys Arpt, CA, US","cover":"CLR","clouds":[],"fltCat":"VFR"},{"icaoId":"KEWR","receiptTime":"2026-04-18T05:54:08.017Z","obsTime":1776491460,"reportTime":"2026-04-18T06:00:00.000Z","temp":12.2,"dewp":10.6,"wdir":240,"wspd":7,"visib":9,"altim":1017.7,"slp":1017.6,"qcField":4,"presTend":1.5,"maxT":22.8,"minT":11.7,"metarType":"METAR","rawOb":"METAR KEWR 180551Z 24007KT 9SM FEW008 BKN055 BKN250 12/11 A3005 RMK AO2 SLP176 T01220106 10228 20117 53015","lat":40.6828,"lon":-74.1692,"elev":2,"name":"Newark Intl, NJ, US","cover":"BKN","clouds":[{"cover":"FEW","base":800},{"cover":"BKN","base":5500},{"cover":"BKN","base":25000}],"fltCat":"VFR"},{"icaoId":"KCLE","receiptTime":"2026-04-18T05:54:08.897Z","obsTime":1776491460,"reportTime":"2026-04-18T06:00:00.000Z","temp":18.3,"dewp":10.6,"wdir":160,"wspd":10,"visib":"10+","altim":1010.6,"slp":1011.5,"qcField":12,"presTend":-1.5,"maxT":18.9,"minT":16.1,"metarType":"METAR","rawOb":"METAR KCLE 180551Z 16010KT 10SM BKN250 18/11 A2984 RMK AO2 SLP115 T01830106 10189 20161 58015 $","lat":41.4057,"lon":-81.8519,"elev":237,"name":"Cleveland/Hopkins Intl, OH, US","cover":"BKN","clouds":[{"cover":"BKN","base":25000}],"fltCat":"VFR"},{"icaoId":"KIWA","receiptTime":"2026-04-18T05:47:33.166Z","obsTime":1776491220,"reportTime":"2026-04-18T06:00:00.000Z","temp":22,"dewp":-1,"wdir":280,"wspd":4,"visib":"10+","altim":1013.3,"qcField":0,"metarType":"METAR","rawOb":"METAR KIWA 180547Z 28004KT 10SM CLR 22/M01 A2992","lat":33.3008,"lon":-111.6437,"elev":420,"name":"Phoenix/Mesa Gateway Arpt, AZ, US","cover":"CLR","clouds":[],"fltCat":"VFR"}]