[{"icaoId":"KSEZ","receiptTime":"2026-04-09T04:18:15.863Z","obsTime":1775708100,"reportTime":"2026-04-09T04:15:00.000Z","temp":20,"dewp":-6,"wdir":180,"wspd":3,"visib":"10+","altim":1017,"qcField":6,"metarType":"METAR","rawOb":"METAR KSEZ 090415Z AUTO 18003KT 10SM CLR 20/M06 A3003 RMK AO2","lat":34.8467,"lon":-111.7884,"elev":1455,"name":"Sedona Arpt, AZ, US","cover":"CLR","clouds":[],"fltCat":"VFR"},{"icaoId":"KIFP","receiptTime":"2026-04-09T04:20:20.765Z","obsTime":1775708100,"reportTime":"2026-04-09T04:15:00.000Z","temp":30,"dewp":-8,"wdir":"VRB","wspd":3,"visib":"10+","altim":1007.2,"qcField":6,"metarType":"METAR","rawOb":"METAR KIFP 090415Z AUTO VRB03KT 10SM CLR 30/M08 A2974 RMK AO2","lat":35.1487,"lon":-114.5611,"elev":210,"name":"Bullhead City Intl, AZ, US","cover":"CLR","clouds":[],"fltCat":"VFR"},{"icaoId":"KCHD","receiptTime":"2026-04-09T04:18:18.485Z","obsTime":1775708100,"reportTime":"2026-04-09T04:15:00.000Z","temp":29.1,"dewp":-1.1,"wdir":340,"wspd":3,"visib":"10+","altim":1009.2,"qcField":14,"metarType":"METAR","rawOb":"METAR KCHD 090415Z AUTO 34003KT 10SM CLR 29/M01 A2980 RMK AO2 T02911011 $","lat":33.2669,"lon":-111.8086,"elev":378,"name":"Chandler Muni, AZ, US","cover":"CLR","clouds":[],"fltCat":"VFR"},{"icaoId":"KSOW","receiptTime":"2026-04-09T04:18:11.144Z","obsTime":1775708100,"reportTime":"2026-04-09T04:15:00.000Z","temp":14,"dewp":-5,"wdir":190,"wspd":7,"visib":"10+","altim":1020.4,"qcField":6,"metarType":"METAR","rawOb":"METAR KSOW 090415Z AUTO 19007KT 10SM CLR 14/M05 A3013 RMK AO2","lat":34.2686,"lon":-110.0019,"elev":1954,"name":"Show Low Muni, AZ, US","cover":"CLR","clouds":[],"fltCat":"VFR"},{"icaoId":"KHII","receiptTime":"2026-04-09T04:22:10.047Z","obsTime":1775707800,"reportTime":"2026-04-09T04:10:00.000Z","temp":30,"dewp":-3,"wdir":250,"wspd":4,"visib":"10+","altim":1007.9,"qcField":6,"metarType":"METAR","rawOb":"METAR KHII 090410Z AUTO 25004KT 10SM CLR 30/M03 A2976 RMK AO2","lat":34.5659,"lon":-114.3522,"elev":241,"name":"Lake Havasu City Arpt, AZ, US","cover":"CLR","clouds":[],"fltCat":"VFR"},{"icaoId":"KFLG","receiptTime":"2026-04-09T04:00:28.554Z","obsTime":1775707020,"reportTime":"2026-04-09T04:00:00.000Z","temp":11.1,"dewp":-5.6,"wdir":200,"wspd":4,"visib":"10+","altim":1021.1,"slp":1012.5,"qcField":4,"metarType":"METAR","rawOb":"METAR KFLG 090357Z 20004KT 10SM CLR 11/M06 A3015 RMK AO2 SLP125 T01111056","lat":35.1443,"lon":-111.6664,"elev":2134,"name":"Flagstaff/Pulliam Arpt, AZ, US","cover":"CLR","clouds":[],"fltCat":"VFR"},{"icaoId":"KNYL","receiptTime":"2026-04-09T04:00:30.822Z","obsTime":1775707020,"reportTime":"2026-04-09T04:00:00.000Z","temp":27.8,"dewp":3.3,"wdir":200,"wspd":4,"visib":"10+","altim":1007.9,"slp":1007.5,"qcField":4,"metarType":"METAR","rawOb":"METAR KNYL 090357Z 20004KT 10SM CLR 28/03 A2976 RMK AO2 SLP075 T02780033","lat":32.66,"lon":-114.6078,"elev":58,"name":"Yuma , AZ, US","cover":"CLR","clouds":[],"fltCat":"VFR"},{"icaoId":"KCGZ","receiptTime":"2026-04-09T03:58:29.103Z","obsTime":1775706960,"reportTime":"2026-04-09T04:00:00.000Z","temp":28.3,"dewp":-2.2,"wdir":320,"wspd":7,"visib":"10+","qcField":14,"metarType":"METAR","rawOb":"METAR KCGZ 090356Z AUTO 32007KT 10SM CLR 28/M02 RMK AO2 SLPNO T02831022 $","lat":32.9531,"lon":-111.7725,"elev":444,"name":"Casa Granda Muni, AZ, US","cover":"CLR","clouds":[],"fltCat":"VFR"},{"icaoId":"KINW","receiptTime":"2026-04-09T04:00:06.375Z","obsTime":1775706960,"reportTime":"2026-04-09T04:00:00.000Z","temp":16.1,"dewp":-1.7,"wdir":230,"wspd":9,"visib":"10+","altim":1016,"slp":1011.4,"qcField":6,"metarType":"METAR","rawOb":"METAR KINW 090356Z AUTO 23009KT 10SM CLR 16/M02 A3000 RMK AO2 SLP114 T01611017","lat":35.0279,"lon":-110.7221,"elev":1492,"name":"Winslow/Lindberg Rgnl, AZ, US","cover":"CLR","clouds":[],"fltCat":"VFR"},{"icaoId":"KDUG","receiptTime":"2026-04-09T04:02:24.815Z","obsTime":1775706960,"reportTime":"2026-04-09T04:00:00.000Z","temp":20,"dewp":-2.2,"wdir":0,"wspd":0,"visib":"10+","altim":1015.3,"slp":1009.4,"qcField":38,"metarType":"METAR","rawOb":"METAR KDUG 090356Z AUTO 00000KT 10SM CLR 20/M02 A2998 RMK AO2 SLP094 T02001022 TSNO","lat":31.4725,"lon":-109.6022,"elev":1260,"name":"Douglas/Bisbee Intl, AZ, US","cover":"CLR","clouds":[],"fltCat":"VFR"},{"icaoId":"KLUF","receiptTime":"2026-04-09T04:16:02.283Z","obsTime":1775706900,"reportTime":"2026-04-09T04:00:00.000Z","temp":29.1,"dewp":-2.1,"wdir":0,"wspd":0,"visib":"10+","altim":1007.9,"slp":1006.4,"qcField":44,"metarType":"METAR","rawOb":"METAR KLUF 090355Z 00000KT 10SM CLR 29/M02 A2976 RMK AO2A SLP064 T02911021 TSNO $","lat":33.538,"lon":-112.38,"elev":333,"name":"Phoenix/Luke AFB, AZ, US","cover":"CLR","clouds":[],"fltCat":"VFR"},{"icaoId":"KOLS","receiptTime":"2026-04-09T03:58:12.854Z","obsTime":1775706840,"reportTime":"2026-04-09T04:00:00.000Z","temp":20,"dewp":-3.3,"wdir":90,"wspd":6,"visib":"10+","altim":1015.3,"slp":1009.4,"qcField":6,"metarType":"METAR","rawOb":"METAR KOLS 090354Z AUTO 09006KT 10SM CLR 20/M03 A2998 RMK AO2 SLP094 T02001033","lat":31.4208,"lon":-110.8465,"elev":1194,"name":"Nogales Intl, AZ, US","cover":"CLR","clouds":[],"fltCat":"VFR"},{"icaoId":"KGCN","receiptTime":"2026-04-09T03:58:13.493Z","obsTime":1775706840,"reportTime":"2026-04-09T04:00:00.000Z","temp":9.4,"dewp":-2.2,"wdir":0,"wspd":0,"visib":"10+","altim":1019.7,"slp":1012.5,"qcField":6,"metarType":"METAR","rawOb":"METAR KGCN 090354Z AUTO 00000KT 10SM BKN110 09/M02 A3011 RMK AO2 SLP125 T00941022","lat":35.9458,"lon":-112.1554,"elev":1993,"name":"Grand Canyon Park Arpt, AZ, US","cover":"BKN","clouds":[{"cover":"BKN","base":11000}],"fltCat":"VFR"},{"icaoId":"KSJN","receiptTime":"2026-04-09T03:58:07.787Z","obsTime":1775706840,"reportTime":"2026-04-09T04:00:00.000Z","temp":13.9,"dewp":-2.2,"wdir":180,"wspd":4,"visib":"10+","altim":1017.7,"slp":1011.4,"qcField":6,"metarType":"METAR","rawOb":"METAR KSJN 090354Z AUTO 18004KT 10SM CLR 14/M02 A3005 RMK AO2 SLP114 T01391022","lat":34.5184,"lon":-109.3801,"elev":1747,"name":"St Johns Ind Arpt, AZ, US","cover":"CLR","clouds":[],"fltCat":"VFR"},{"icaoId":"KFFZ","receiptTime":"2026-04-09T03:58:07.253Z","obsTime":1775706840,"reportTime":"2026-04-09T04:00:00.000Z","temp":27.8,"dewp":2.8,"wdir":350,"wspd":3,"visib":"10+","altim":1008.9,"slp":1006.5,"qcField":38,"metarType":"METAR","rawOb":"METAR KFFZ 090354Z AUTO 35003KT 10SM CLR 28/03 A2979 RMK AO2 SLP065 T02780028 TSNO","lat":33.4659,"lon":-111.7212,"elev":420,"name":"Mesa/Falcon Fld, AZ, US","cover":"CLR","clouds":[],"fltCat":"VFR"},{"icaoId":"KDVT","receiptTime":"2026-04-09T03:56:24.427Z","obsTime":1775706780,"reportTime":"2026-04-09T04:00:00.000Z","temp":27.2,"dewp":-4.4,"wdir":20,"wspd":3,"visib":"10+","altim":1009.2,"slp":1007,"qcField":6,"metarType":"METAR","rawOb":"METAR KDVT 090353Z AUTO 02003KT 10SM FEW110 27/M04 A2980 RMK AO2 SLP070 T02721044","lat":33.6902,"lon":-112.0662,"elev":454,"name":"Phoenix/Deer Valley Arpt, AZ, US","cover":"FEW","clouds":[{"cover":"FEW","base":11000}],"fltCat":"VFR"},{"icaoId":"KPGA","receiptTime":"2026-04-09T03:56:24.988Z","obsTime":1775706780,"reportTime":"2026-04-09T04:00:00.000Z","temp":21.7,"dewp":-8.3,"wdir":240,"wspd":3,"visib":"10+","altim":1013,"slp":1007.7,"qcField":14,"metarType":"METAR","rawOb":"METAR KPGA 090353Z AUTO 24003KT 10SM CLR 22/M08 A2991 RMK AO2 SLP077 T02171083 $","lat":36.9211,"lon":-111.4487,"elev":1310,"name":"Page Muni, AZ, US","cover":"CLR","clouds":[],"fltCat":"VFR"},{"icaoId":"KTUS","receiptTime":"2026-04-09T03:56:25.160Z","obsTime":1775706780,"reportTime":"2026-04-09T04:00:00.000Z","temp":25.6,"dewp":-1.1,"wdir":260,"wspd":4,"visib":"10+","altim":1012.3,"slp":1007.9,"qcField":4,"metarType":"METAR","rawOb":"METAR KTUS 090353Z 26004KT 10SM CLR 26/M01 A2989 RMK AO2 SLP079 T02561011","lat":32.1315,"lon":-110.9564,"elev":776,"name":"Tucson Intl Arpt, AZ, US","cover":"CLR","clouds":[],"fltCat":"VFR"},{"icaoId":"KPRC","receiptTime":"2026-04-09T03:56:25.318Z","obsTime":1775706780,"reportTime":"2026-04-09T04:00:00.000Z","temp":17.2,"dewp":-5,"wdir":190,"wspd":7,"visib":"10+","altim":1017,"slp":1010.4,"qcField":4,"metarType":"METAR","rawOb":"METAR KPRC 090353Z 19007KT 10SM CLR 17/M05 A3003 RMK AO2 SLP104 T01721050","lat":34.6491,"lon":-112.4223,"elev":1528,"name":"Prescott/Love Fld, AZ, US","cover":"CLR","clouds":[],"fltCat":"VFR"},{"icaoId":"KSDL","receiptTime":"2026-04-09T03:56:25.744Z","obsTime":1775706780,"reportTime":"2026-04-09T04:00:00.000Z","temp":29.4,"dewp":-3.3,"wdir":20,"wspd":3,"visib":"10+","altim":1009.6,"slp":1007,"qcField":6,"metarType":"METAR","rawOb":"METAR KSDL 090353Z AUTO 02003KT 10SM CLR 29/M03 A2981 RMK AO2 SLP070 T02941033","lat":33.6123,"lon":-111.9232,"elev":438,"name":"Scottsdale Muni, AZ, US","cover":"CLR","clouds":[],"fltCat":"VFR"},{"icaoId":"KPHX","receiptTime":"2026-04-09T03:54:07.126Z","obsTime":1775706660,"reportTime":"2026-04-09T04:00:00.000Z","temp":32.2,"dewp":-2.8,"wdir":330,"wspd":4,"visib":"10+","altim":1008.2,"slp":1006.1,"qcField":4,"metarType":"METAR","rawOb":"METAR KPHX 090351Z 33004KT 10SM CLR 32/M03 A2977 RMK AO2 SLP061 T03221028","lat":33.4278,"lon":-112.0037,"elev":338,"name":"Phoenix/Sky Harbor Intl, AZ, US","cover":"CLR","clouds":[],"fltCat":"VFR"},{"icaoId":"KIGM","receiptTime":"2026-04-09T03:54:08.463Z","obsTime":1775706660,"reportTime":"2026-04-09T04:00:00.000Z","temp":20.6,"dewp":-8.3,"wdir":200,"wspd":11,"visib":"10+","altim":1013.3,"slp":1006.8,"qcField":6,"metarType":"METAR","rawOb":"METAR KIGM 090351Z AUTO 20011KT 10SM CLR 21/M08 A2992 RMK AO2 SLP068 T02061083","lat":35.2575,"lon":-113.9341,"elev":1045,"name":"Kingman Arpt, AZ, US","cover":"CLR","clouds":[],"fltCat":"VFR"},{"icaoId":"KSAD","receiptTime":"2026-04-09T03:54:07.239Z","obsTime":1775706660,"reportTime":"2026-04-09T04:00:00.000Z","temp":23.9,"dewp":-5,"wdir":0,"wspd":0,"visib":"10+","altim":1012.3,"slp":1007.7,"qcField":6,"metarType":"METAR","rawOb":"METAR KSAD 090351Z AUTO 00000KT 10SM CLR 24/M05 A2989 RMK AO2 SLP077 T02391050","lat":32.8565,"lon":-109.636,"elev":937,"name":"Safford Rgnl, AZ, US","cover":"CLR","clouds":[],"fltCat":"VFR"},{"icaoId":"KIWA","receiptTime":"2026-04-09T03:51:38.754Z","obsTime":1775706540,"reportTime":"2026-04-09T04:00:00.000Z","temp":29,"dewp":-3,"wdir":10,"wspd":4,"visib":"10+","altim":1009.6,"qcField":0,"metarType":"METAR","rawOb":"METAR KIWA 090349Z 01004KT 10SM CLR 29/M03 A2981","lat":33.3008,"lon":-111.6437,"elev":420,"name":"Phoenix/Mesa Gateway Arpt, AZ, US","cover":"CLR","clouds":[],"fltCat":"VFR"},{"icaoId":"KGYR","receiptTime":"2026-04-09T03:49:00.542Z","obsTime":1775706420,"reportTime":"2026-04-09T04:00:00.000Z","temp":29,"dewp":1,"wdir":"VRB","wspd":3,"visib":"10+","altim":1008.5,"qcField":0,"metarType":"METAR","rawOb":"METAR KGYR 090347Z VRB03KT 10SM SKC 29/01 A2978 RMK LAST","lat":33.428,"lon":-112.368,"elev":292,"name":"Phoenix/Goodyear Muni, AZ, US","cover":"SKC","clouds":[],"fltCat":"VFR"}]