[{"icaoId":"KDRO","receiptTime":"2026-04-14T00:12:04.531Z","obsTime":1776125280,"reportTime":"2026-04-14T00:08:00.000Z","temp":10.6,"dewp":-0.6,"wdir":280,"wspd":6,"wgst":18,"visib":"10+","altim":1016.7,"qcField":6,"wxString":"-RA","precip":0.005,"metarType":"SPECI","rawOb":"SPECI KDRO 140008Z AUTO 28006G18KT 10SM -RA FEW035 BKN070 11/M01 A3002 RMK AO2 WSHFT 2348 RAB2359 P0000 T01061006","lat":37.1431,"lon":-107.7602,"elev":2021,"name":"Durango/La Plata Cnty, CO, US","cover":"BKN","clouds":[{"cover":"FEW","base":3500},{"cover":"BKN","base":7000}],"fltCat":"VFR"},{"icaoId":"KTPH","receiptTime":"2026-04-14T00:08:07.862Z","obsTime":1776125040,"reportTime":"2026-04-14T00:04:00.000Z","temp":8.9,"dewp":-0.6,"wdir":60,"wspd":17,"wgst":25,"visib":"10+","altim":1014.3,"qcField":6,"metarType":"SPECI","rawOb":"SPECI KTPH 140004Z AUTO 06017G25KT 10SM FEW043 BKN060 OVC075 09/M01 A2995 RMK AO2 WSHFT 2344 T00891006","lat":38.0505,"lon":-117.0906,"elev":1647,"name":"Tonopah Arpt, NV, US","cover":"OVC","clouds":[{"cover":"FEW","base":4300},{"cover":"BKN","base":6000},{"cover":"OVC","base":7500}],"fltCat":"VFR"},{"icaoId":"KROC","receiptTime":"2026-04-14T00:06:05.517Z","obsTime":1776124920,"reportTime":"2026-04-14T00:02:00.000Z","temp":18.3,"dewp":15,"wdir":280,"wspd":6,"visib":"10+","altim":1014,"qcField":4,"precip":0.005,"metarType":"SPECI","rawOb":"SPECI KROC 140002Z 28006KT 10SM SCT028 BKN050 BKN100 BKN200 18/15 A2994 RMK AO2 RAE2357 P0000 T01830150","lat":43.1172,"lon":-77.6754,"elev":166,"name":"Rochester Intl Arpt, NY, US","cover":"BKN","clouds":[{"cover":"SCT","base":2800},{"cover":"BKN","base":5000},{"cover":"BKN","base":10000},{"cover":"BKN","base":20000}],"fltCat":"VFR"},{"icaoId":"KPAE","receiptTime":"2026-04-14T00:02:17.018Z","obsTime":1776124740,"reportTime":"2026-04-13T23:59:00.000Z","temp":8.3,"dewp":6.7,"wdir":330,"wspd":7,"visib":"10+","altim":1018,"qcField":4,"metarType":"SPECI","rawOb":"SPECI KPAE 132359Z 33007KT 10SM SCT006 BKN032 OVC044 08/07 A3006 RMK AO2 T00830067","lat":47.9232,"lon":-122.2831,"elev":166,"name":"Everett/Paine Fld, WA, US","cover":"OVC","clouds":[{"cover":"SCT","base":600},{"cover":"BKN","base":3200},{"cover":"OVC","base":4400}],"fltCat":"VFR"},{"icaoId":"KNFL","receiptTime":"2026-04-14T00:00:34.735Z","obsTime":1776124620,"reportTime":"2026-04-14T00:00:00.000Z","temp":15,"dewp":-7.2,"wdir":240,"wspd":4,"visib":"10+","altim":1014.6,"slp":1011.6,"qcField":4,"presTend":-1.6,"maxT":15.6,"minT":8.9,"metarType":"METAR","rawOb":"METAR KNFL 132357Z 24004KT 10SM SCT070 15/M07 A2996 RMK AO2 SLP116 T01501072 10156 20089 56016","lat":39.417,"lon":-118.705,"elev":1199,"name":"Fallon , NV, US","cover":"SCT","clouds":[{"cover":"SCT","base":7000}],"fltCat":"VFR"},{"icaoId":"KNYL","receiptTime":"2026-04-14T00:00:31.004Z","obsTime":1776124620,"reportTime":"2026-04-14T00:00:00.000Z","temp":23.9,"dewp":3.3,"wdir":290,"wspd":23,"wgst":31,"visib":8,"altim":1012.3,"slp":1011.8,"qcField":4,"wxString":"DZ BLDU","presTend":-1.7,"maxT":25.6,"minT":22.8,"precip":0.005,"pcp6hr":0.005,"metarType":"METAR","rawOb":"METAR KNYL 132357Z 29023G31KT 8SM DZ BLDU FEW090 24/03 A2989 RMK AO2 PK WND 29031/2357 SLP118 P0000 60000 T02390033 10256 20228 58017","lat":32.66,"lon":-114.6078,"elev":58,"name":"Yuma , AZ, US","cover":"FEW","clouds":[{"cover":"FEW","base":9000}],"fltCat":"VFR"},{"icaoId":"KFLG","receiptTime":"2026-04-14T00:00:30.275Z","obsTime":1776124620,"reportTime":"2026-04-14T00:00:00.000Z","temp":11.1,"dewp":-5,"wdir":200,"wspd":17,"wgst":32,"visib":"10+","altim":1014.6,"slp":1009.1,"qcField":14,"presTend":-1.7,"maxT":12.8,"minT":8.9,"metarType":"METAR","rawOb":"METAR KFLG 132357Z AUTO 20017G32KT 10SM FEW060 11/M05 A2996 RMK AO2 PK WND 23040/2325 SLP091 T01111050 10128 20089 56017 $","lat":35.1443,"lon":-111.6664,"elev":2134,"name":"Flagstaff/Pulliam Arpt, AZ, US","cover":"FEW","clouds":[{"cover":"FEW","base":6000}],"fltCat":"VFR"},{"icaoId":"KLWS","receiptTime":"2026-04-14T00:00:22.380Z","obsTime":1776124560,"reportTime":"2026-04-14T00:00:00.000Z","temp":13.9,"dewp":6.7,"wdir":160,"wspd":5,"visib":"10+","altim":1013.3,"slp":1013.3,"qcField":12,"presTend":-0.2,"maxT":13.9,"minT":7.2,"pcp6hr":0.02,"metarType":"METAR","rawOb":"METAR KLWS 132356Z 16005KT 10SM BKN070 OVC090 14/07 A2992 RMK AO2 SLP133 60002 T01390067 10139 20072 55002 $","lat":46.3746,"lon":-117.0153,"elev":435,"name":"Lewiston/Nez Perce Cnty, ID, US","cover":"OVC","clouds":[{"cover":"BKN","base":7000},{"cover":"OVC","base":9000}],"fltCat":"VFR"},{"icaoId":"KEGE","receiptTime":"2026-04-13T23:58:26.016Z","obsTime":1776124560,"reportTime":"2026-04-14T00:00:00.000Z","temp":15,"dewp":-7.8,"wdir":"VRB","wspd":5,"visib":"10+","altim":1013,"slp":1007.6,"qcField":4,"presTend":-1.2,"maxT":16.1,"minT":12.8,"precip":0.005,"pcp6hr":0.005,"metarType":"METAR","rawOb":"METAR KEGE 132356Z VRB05KT 10SM SCT055 OVC090 15/M08 A2991 RMK AO2 RAB20E34 SLP076 P0000 60000 T01501078 10161 20128 56012","lat":39.6448,"lon":-106.9176,"elev":1993,"name":"Eagle Cnty Rgnl, CO, US","cover":"OVC","clouds":[{"cover":"SCT","base":5500},{"cover":"OVC","base":9000}],"fltCat":"VFR"},{"icaoId":"KCOD","receiptTime":"2026-04-13T23:58:29.412Z","obsTime":1776124560,"reportTime":"2026-04-14T00:00:00.000Z","temp":11.7,"dewp":-8.3,"wdir":280,"wspd":10,"wgst":22,"visib":"10+","altim":1010.9,"slp":1009.4,"qcField":14,"presTend":0.2,"maxT":13.9,"minT":8.9,"metarType":"METAR","rawOb":"METAR KCOD 132356Z AUTO 28010G22KT 10SM FEW120 12/M08 A2985 RMK AO2 SLP094 T01171083 10139 20089 53002 $","lat":44.52,"lon":-109.0268,"elev":1550,"name":"Cody/Yellowstone Rgnl, WY, US","cover":"FEW","clouds":[{"cover":"FEW","base":12000}],"fltCat":"VFR"},{"icaoId":"KSDY","receiptTime":"2026-04-13T23:58:25.833Z","obsTime":1776124560,"reportTime":"2026-04-14T00:00:00.000Z","temp":10.6,"dewp":5.6,"wdir":140,"wspd":10,"visib":"10+","altim":1006.2,"slp":1007.6,"qcField":14,"presTend":-0.1,"maxT":13.9,"minT":10.6,"metarType":"METAR","rawOb":"METAR KSDY 132356Z AUTO 14010KT 10SM BKN020 11/06 A2971 RMK AO2 SLP076 T01060056 10139 20106 55001 $","lat":47.7029,"lon":-104.1951,"elev":600,"name":"Sidney/Richland Muni, MT, US","cover":"BKN","clouds":[{"cover":"BKN","base":2000}],"fltCat":"MVFR"},{"icaoId":"KHND","receiptTime":"2026-04-13T23:58:26.447Z","obsTime":1776124560,"reportTime":"2026-04-14T00:00:00.000Z","temp":18.3,"dewp":-5,"wdir":240,"wspd":10,"visib":"10+","altim":1011.6,"slp":1012,"qcField":12,"presTend":-1.4,"maxT":20,"minT":17.2,"metarType":"METAR","rawOb":"METAR KHND 132356Z 24010KT 10SM OVC110 18/M05 A2987 RMK AO2 SLP120 T01831050 10200 20172 56014 $","lat":35.9657,"lon":-115.1343,"elev":740,"name":"Henderson Exec, NV, US","cover":"OVC","clouds":[{"cover":"OVC","base":11000}],"fltCat":"VFR"},{"icaoId":"KCOE","receiptTime":"2026-04-13T23:58:27.701Z","obsTime":1776124560,"reportTime":"2026-04-14T00:00:00.000Z","temp":8.9,"dewp":6.7,"wdir":160,"wspd":11,"visib":"10+","altim":1011.3,"slp":1013.6,"qcField":14,"presTend":-0.2,"maxT":8.9,"minT":6.1,"metarType":"METAR","rawOb":"METAR KCOE 132356Z AUTO 16011KT 10SM OVC048 09/07 A2986 RMK AO2 RAE36 SLP136 6//// T00890067 10089 20061 55002 PNO $","lat":47.7719,"lon":-116.8332,"elev":693,"name":"Coeur DAlene Arpt, ID, US","cover":"OVC","clouds":[{"cover":"OVC","base":4800}],"fltCat":"VFR"},{"icaoId":"KJAC","receiptTime":"2026-04-13T23:58:28.332Z","obsTime":1776124560,"reportTime":"2026-04-14T00:00:00.000Z","temp":2.8,"dewp":-2.2,"wdir":190,"wspd":13,"visib":"10+","altim":1014,"slp":1016,"qcField":4,"presTend":-0.2,"maxT":5.6,"minT":0.6,"pcp6hr":0.005,"metarType":"METAR","rawOb":"METAR KJAC 132356Z 19013KT 10SM BKN030 OVC065 03/M02 A2994 RMK AO2 SLP160 60000 T00281022 10056 20006 56002","lat":43.6129,"lon":-110.7366,"elev":1967,"name":"Jackson Hole Arpt, WY, US","cover":"OVC","clouds":[{"cover":"BKN","base":3000},{"cover":"OVC","base":6500}],"fltCat":"MVFR"},{"icaoId":"KFNL","receiptTime":"2026-04-13T23:58:29.146Z","obsTime":1776124560,"reportTime":"2026-04-14T00:00:00.000Z","temp":20.6,"dewp":-10,"wdir":210,"wspd":3,"visib":"10+","altim":1008.2,"slp":1002.4,"qcField":12,"presTend":-0.9,"maxT":22.8,"minT":19.4,"metarType":"METAR","rawOb":"METAR KFNL 132356Z 21003KT 10SM CLR 21/M10 A2977 RMK AO2 SLP024 T02061100 10228 20194 56009 $","lat":40.4427,"lon":-105.0097,"elev":1529,"name":"Fort Collins/N Colorado Rgnl, CO, US","cover":"CLR","clouds":[],"fltCat":"VFR"},{"icaoId":"KENV","receiptTime":"2026-04-13T23:58:30.354Z","obsTime":1776124560,"reportTime":"2026-04-14T00:00:00.000Z","temp":16.1,"dewp":-5.6,"wdir":170,"wspd":5,"visib":"10+","altim":1013,"slp":1012.4,"qcField":6,"presTend":-2.1,"maxT":16.1,"minT":11.1,"metarType":"METAR","rawOb":"METAR KENV 132356Z AUTO 17005KT 10SM FEW110 16/M06 A2991 RMK AO2 SLP124 T01611056 10161 20111 56021","lat":40.7211,"lon":-114.0312,"elev":1291,"name":"Wendover Arpt, UT, US","cover":"FEW","clouds":[{"cover":"FEW","base":11000}],"fltCat":"VFR"},{"icaoId":"KPWT","receiptTime":"2026-04-13T23:58:23.382Z","obsTime":1776124560,"reportTime":"2026-04-14T00:00:00.000Z","temp":12.8,"dewp":6.1,"wdir":230,"wspd":17,"wgst":21,"visib":"10+","altim":1017.7,"slp":1018,"qcField":6,"maxT":12.8,"minT":8.9,"metarType":"METAR","rawOb":"METAR KPWT 132356Z AUTO 23017G21KT 10SM CLR 13/06 A3005 RMK AO2 SLP180 T01280061 10128 20089 58000","lat":47.4942,"lon":-122.7594,"elev":143,"name":"Bremerton Arpt, WA, US","cover":"CLR","clouds":[],"fltCat":"VFR"},{"icaoId":"KCHS","receiptTime":"2026-04-14T00:00:21.727Z","obsTime":1776124560,"reportTime":"2026-04-14T00:00:00.000Z","temp":20.6,"dewp":15,"wdir":190,"wspd":7,"visib":"10+","altim":1024.5,"slp":1024.2,"qcField":4,"presTend":-0.2,"maxT":27.8,"minT":20.6,"metarType":"METAR","rawOb":"METAR KCHS 132356Z 19007KT 10SM BKN200 21/15 A3025 RMK AO2 SLP242 T02060150 10278 20206 58002","lat":32.8995,"lon":-80.0407,"elev":12,"name":"Charleston Intl, SC, US","cover":"BKN","clouds":[{"cover":"BKN","base":20000}],"fltCat":"VFR"},{"icaoId":"KVIS","receiptTime":"2026-04-13T23:58:24.944Z","obsTime":1776124560,"reportTime":"2026-04-14T00:00:00.000Z","temp":19.4,"dewp":5,"wdir":290,"wspd":7,"visib":"10+","altim":1017.4,"slp":1017.1,"qcField":14,"presTend":-1.6,"maxT":20.6,"minT":13.3,"metarType":"METAR","rawOb":"METAR KVIS 132356Z AUTO 29007KT 10SM CLR 19/05 A3004 RMK AO2 SLP171 6//// T01940050 10206 20133 56016 PNO $","lat":36.3135,"lon":-119.3884,"elev":92,"name":"Visalia Muni, CA, US","cover":"CLR","clouds":[],"fltCat":"VFR"},{"icaoId":"KCGZ","receiptTime":"2026-04-13T23:58:29.252Z","obsTime":1776124560,"reportTime":"2026-04-14T00:00:00.000Z","temp":25,"dewp":4.4,"wdir":230,"wspd":14,"visib":"10+","altim":1011.9,"slp":1010.8,"qcField":14,"presTend":-2.1,"maxT":26.1,"minT":22.2,"metarType":"METAR","rawOb":"METAR KCGZ 132356Z AUTO 23014KT 10SM CLR 25/04 A2988 RMK AO2 SLP108 6//// T02500044 10261 20222 56021 $","lat":32.9531,"lon":-111.7725,"elev":444,"name":"Casa Granda Muni, AZ, US","cover":"CLR","clouds":[],"fltCat":"VFR"},{"icaoId":"KHDN","receiptTime":"2026-04-13T23:58:26.386Z","obsTime":1776124560,"reportTime":"2026-04-14T00:00:00.000Z","temp":12.2,"dewp":-6.7,"wdir":250,"wspd":11,"wgst":21,"visib":"10+","altim":1013.3,"slp":1009.4,"qcField":6,"presTend":-0.8,"maxT":13.9,"minT":9.4,"metarType":"METAR","rawOb":"METAR KHDN 132356Z AUTO 25011G21KT 10SM BKN085 BKN110 12/M07 A2992 RMK AO2 SLP094 T01221067 10139 20094 55008","lat":40.4842,"lon":-107.2296,"elev":2012,"name":"Hayden/Yampa Valley Arpt, CO, US","cover":"BKN","clouds":[{"cover":"BKN","base":8500},{"cover":"BKN","base":11000}],"fltCat":"VFR"},{"icaoId":"KSBP","receiptTime":"2026-04-14T00:00:25.433Z","obsTime":1776124560,"reportTime":"2026-04-14T00:00:00.000Z","temp":16.1,"dewp":9.4,"wdir":300,"wspd":13,"wgst":23,"visib":"10+","altim":1017.7,"slp":1017.6,"qcField":4,"presTend":-1,"maxT":17.8,"minT":15.6,"metarType":"METAR","rawOb":"METAR KSBP 132356Z 30013G23KT 10SM CLR 16/09 A3005 RMK AO2 SLP176 T01610094 10178 20156 56010","lat":35.2381,"lon":-120.644,"elev":52,"name":"San Luis Obispo/San Luis Cnty, CA, US","cover":"CLR","clouds":[],"fltCat":"VFR"},{"icaoId":"KUKI","receiptTime":"2026-04-14T00:00:25.568Z","obsTime":1776124560,"reportTime":"2026-04-14T00:00:00.000Z","temp":17.8,"dewp":6.7,"wdir":290,"wspd":7,"wgst":15,"visib":"10+","altim":1018.4,"slp":1018,"qcField":6,"presTend":-1,"maxT":18.9,"minT":11.1,"metarType":"METAR","rawOb":"METAR KUKI 132356Z AUTO 29007G15KT 260V330 10SM CLR 18/07 A3007 RMK AO2 SLP180 T01780067 10189 20111 56010","lat":39.1278,"lon":-123.2001,"elev":183,"name":"Ukiah Muni, CA, US","cover":"CLR","clouds":[],"fltCat":"VFR"},{"icaoId":"KSLE","receiptTime":"2026-04-14T00:00:17.723Z","obsTime":1776124560,"reportTime":"2026-04-14T00:00:00.000Z","temp":13.3,"dewp":4.4,"wdir":300,"wspd":9,"visib":"10+","altim":1020.4,"slp":1020.5,"qcField":4,"maxT":13.9,"minT":10.6,"pcp6hr":0.005,"metarType":"METAR","rawOb":"METAR KSLE 132356Z 30009KT 10SM BKN043 OVC065 13/04 A3013 RMK AO2 SLP205 60000 T01330044 10139 20106 55000","lat":44.9049,"lon":-123.001,"elev":63,"name":"Salem Muni, OR, US","cover":"OVC","clouds":[{"cover":"BKN","base":4300},{"cover":"OVC","base":6500}],"fltCat":"VFR"},{"icaoId":"KCEC","receiptTime":"2026-04-14T00:00:26.774Z","obsTime":1776124560,"reportTime":"2026-04-14T00:00:00.000Z","temp":12.8,"dewp":5,"wdir":340,"wspd":9,"visib":"10+","altim":1022.8,"slp":1022.8,"qcField":14,"presTend":-0.2,"maxT":14.4,"minT":11.1,"metarType":"METAR","rawOb":"METAR KCEC 132356Z AUTO 34009KT 10SM CLR 13/05 A3020 RMK AO2 SLP228 T01280050 10144 20111 55002 $","lat":41.7836,"lon":-124.238,"elev":17,"name":"Crescent City/McNama, CA, US","cover":"CLR","clouds":[],"fltCat":"VFR"},{"icaoId":"KLAS","receiptTime":"2026-04-14T00:00:18.185Z","obsTime":1776124560,"reportTime":"2026-04-14T00:00:00.000Z","temp":19.4,"dewp":-5,"wdir":200,"wspd":9,"wgst":19,"visib":"10+","altim":1010.6,"slp":1009.4,"qcField":4,"presTend":-1.4,"maxT":21.1,"minT":17.8,"metarType":"METAR","rawOb":"METAR KLAS 132356Z 20009G19KT 10SM BKN070 BKN100 OVC200 19/M05 A2984 RMK AO2 SLP094 T01941050 10211 20178 56014","lat":36.0719,"lon":-115.1634,"elev":662,"name":"Las Vegas/Reid Intl, NV, US","cover":"OVC","clouds":[{"cover":"BKN","base":7000},{"cover":"BKN","base":10000},{"cover":"OVC","base":20000}],"fltCat":"VFR"},{"icaoId":"KSGU","receiptTime":"2026-04-13T23:58:25.937Z","obsTime":1776124560,"reportTime":"2026-04-14T00:00:00.000Z","temp":13.3,"dewp":7.2,"wdir":210,"wspd":16,"wgst":26,"visib":5,"altim":1010.9,"slp":1009.8,"qcField":6,"wxString":"RA","presTend":-0.7,"maxT":18.9,"minT":13.3,"precip":0.005,"pcp6hr":0.005,"metarType":"METAR","rawOb":"METAR KSGU 132356Z AUTO 21016G26KT 5SM RA SCT048 OVC060 13/07 A2985 RMK AO2 PK WND 19026/2347 WSHFT 2329 RAB42 SLP098 P0000 60000 T01330072 10189 20133 55007","lat":37.0444,"lon":-113.5034,"elev":877,"name":"Saint George Muni, UT, US","cover":"OVC","clouds":[{"cover":"SCT","base":4800},{"cover":"OVC","base":6000}],"fltCat":"MVFR"},{"icaoId":"KPVU","receiptTime":"2026-04-13T23:58:25.571Z","obsTime":1776124560,"reportTime":"2026-04-14T00:00:00.000Z","temp":11.7,"dewp":1.7,"wdir":230,"wspd":15,"visib":"10+","altim":1013.3,"slp":1012.4,"qcField":4,"presTend":-0.1,"maxT":15,"minT":10.6,"metarType":"METAR","rawOb":"METAR KPVU 132356Z 23015KT 10SM OVC065 12/02 A2992 RMK AO2 PK WND 27026/2306 SLP124 T01170017 10150 20106 55001","lat":40.224,"lon":-111.7252,"elev":1370,"name":"Provo Muni, UT, US","cover":"OVC","clouds":[{"cover":"OVC","base":6500}],"fltCat":"VFR"},{"icaoId":"KINW","receiptTime":"2026-04-14T00:00:21.880Z","obsTime":1776124560,"reportTime":"2026-04-14T00:00:00.000Z","temp":17.8,"dewp":-0.6,"wdir":200,"wspd":24,"wgst":36,"visib":"10+","altim":1013,"slp":1009.5,"qcField":6,"presTend":-1.4,"maxT":21.1,"minT":16.7,"metarType":"METAR","rawOb":"METAR KINW 132356Z AUTO 20024G36KT 10SM FEW070 18/M01 A2991 RMK AO2 PK WND 22041/2340 SLP095 T01781006 10211 20167 56014","lat":35.0279,"lon":-110.7221,"elev":1492,"name":"Winslow/Lindberg Rgnl, AZ, US","cover":"FEW","clouds":[{"cover":"FEW","base":7000}],"fltCat":"VFR"},{"icaoId":"KJAX","receiptTime":"2026-04-14T00:00:21.899Z","obsTime":1776124560,"reportTime":"2026-04-14T00:00:00.000Z","temp":22.2,"dewp":14.4,"wdir":100,"wspd":6,"visib":"10+","altim":1024.1,"slp":1024.1,"qcField":12,"presTend":-0.4,"maxT":27.8,"minT":22.2,"metarType":"METAR","rawOb":"METAR KJAX 132356Z 10006KT 10SM BKN250 22/14 A3024 RMK AO2 SLP241 T02220144 10278 20222 55004 $","lat":30.4953,"lon":-81.6937,"elev":8,"name":"Jacksonville Intl, FL, US","cover":"BKN","clouds":[{"cover":"BKN","base":25000}],"fltCat":"VFR"},{"icaoId":"KSFO","receiptTime":"2026-04-14T00:00:22.002Z","obsTime":1776124560,"reportTime":"2026-04-14T00:00:00.000Z","temp":16.1,"dewp":7.2,"wdir":280,"wspd":16,"visib":"10+","altim":1019.4,"slp":1019.2,"qcField":12,"presTend":-0.7,"maxT":17.2,"minT":13.9,"metarType":"METAR","rawOb":"METAR KSFO 132356Z 28016KT 10SM FEW038 16/07 A3010 RMK AO2 SLP192 T01610072 10172 20139 58007 $","lat":37.6196,"lon":-122.3656,"elev":2,"name":"San Francisco Intl, CA, US","cover":"FEW","clouds":[{"cover":"FEW","base":3800}],"fltCat":"VFR"},{"icaoId":"KGUC","receiptTime":"2026-04-13T23:58:26.308Z","obsTime":1776124560,"reportTime":"2026-04-14T00:00:00.000Z","temp":12.2,"dewp":-7.8,"wdir":270,"wspd":10,"visib":"10+","altim":1014.6,"slp":1011.3,"qcField":14,"presTend":-0.2,"maxT":14.4,"minT":11.1,"metarType":"METAR","rawOb":"METAR KGUC 132356Z AUTO 27010KT 10SM BKN090 12/M08 A2996 RMK AO2 SLP113 T01221078 10144 20111 55002 $","lat":38.5322,"lon":-106.9419,"elev":2337,"name":"Gunnison Arpt, CO, US","cover":"BKN","clouds":[{"cover":"BKN","base":9000}],"fltCat":"VFR"},{"icaoId":"KRDM","receiptTime":"2026-04-14T00:00:22.635Z","obsTime":1776124560,"reportTime":"2026-04-14T00:00:00.000Z","temp":10.6,"dewp":-2.2,"wdir":300,"wspd":18,"wgst":28,"visib":"10+","altim":1016,"slp":1016,"qcField":4,"presTend":0.1,"maxT":12.8,"minT":10,"metarType":"METAR","rawOb":"METAR KRDM 132356Z 30018G28KT 10SM SCT070 11/M02 A3000 RMK AO2 PK WND 31030/2327 SLP160 T01061022 10128 20100 51001","lat":44.2558,"lon":-121.1407,"elev":930,"name":"Redmond Muni, OR, US","cover":"SCT","clouds":[{"cover":"SCT","base":7000}],"fltCat":"VFR"},{"icaoId":"KSDF","receiptTime":"2026-04-14T00:00:25.472Z","obsTime":1776124560,"reportTime":"2026-04-14T00:00:00.000Z","temp":24.4,"dewp":15,"wdir":190,"wspd":12,"visib":"10+","altim":1018,"slp":1017.5,"qcField":4,"presTend":-0.1,"maxT":27.2,"minT":24.4,"metarType":"METAR","rawOb":"METAR KSDF 132356Z 19012KT 10SM BKN049 BKN250 24/15 A3006 RMK AO2 SLP175 T02440150 10272 20244 55001","lat":38.1774,"lon":-85.7308,"elev":146,"name":"Louisville Intl, KY, US","cover":"BKN","clouds":[{"cover":"BKN","base":4900},{"cover":"BKN","base":25000}],"fltCat":"VFR"},{"icaoId":"KEKO","receiptTime":"2026-04-14T00:00:27.383Z","obsTime":1776124560,"reportTime":"2026-04-14T00:00:00.000Z","temp":12.2,"dewp":-8.3,"wdir":320,"wspd":10,"wgst":15,"visib":"10+","altim":1014.3,"slp":1013.2,"qcField":6,"presTend":-1.2,"maxT":12.8,"minT":8.3,"metarType":"METAR","rawOb":"METAR KEKO 132356Z AUTO 32010G15KT 10SM BKN080 12/M08 A2995 RMK AO2 SLP132 T01221083 10128 20083 56012","lat":40.824,"lon":-115.7863,"elev":1541,"name":"Elko Rgnl, NV, US","cover":"BKN","clouds":[{"cover":"BKN","base":8000}],"fltCat":"VFR"},{"icaoId":"KDUG","receiptTime":"2026-04-14T00:02:13.699Z","obsTime":1776124560,"reportTime":"2026-04-14T00:00:00.000Z","temp":23.3,"dewp":0,"wdir":210,"wspd":22,"wgst":30,"visib":"10+","altim":1017.4,"slp":1011.4,"qcField":38,"presTend":-1.4,"maxT":23.9,"minT":21.1,"metarType":"METAR","rawOb":"METAR KDUG 132356Z AUTO 21022G30KT 10SM OVC100 23/00 A3004 RMK AO2 PK WND 22030/2335 SLP114 T02330000 10239 20211 58014 TSNO","lat":31.4725,"lon":-109.6022,"elev":1260,"name":"Douglas/Bisbee Intl, AZ, US","cover":"OVC","clouds":[{"cover":"OVC","base":10000}],"fltCat":"VFR"},{"icaoId":"KSOW","receiptTime":"2026-04-13T23:58:07.444Z","obsTime":1776124500,"reportTime":"2026-04-14T00:00:00.000Z","temp":15,"dewp":-1,"wdir":210,"wspd":29,"wgst":40,"visib":"10+","altim":1015.7,"qcField":6,"metarType":"METAR","rawOb":"METAR KSOW 132355Z AUTO 21029G40KT 10SM CLR 15/M01 A2999 RMK AO2","lat":34.2686,"lon":-110.0019,"elev":1954,"name":"Show Low Muni, AZ, US","cover":"CLR","clouds":[],"fltCat":"VFR"},{"icaoId":"KMEV","receiptTime":"2026-04-14T00:00:18.264Z","obsTime":1776124500,"reportTime":"2026-04-14T00:00:00.000Z","temp":12,"dewp":-4,"wdir":260,"wspd":7,"wgst":14,"visib":"10+","altim":1016,"qcField":6,"metarType":"METAR","rawOb":"METAR KMEV 132355Z AUTO 26007G14KT 10SM CLR 12/M04 A3000 RMK AO2","lat":38.9963,"lon":-119.75,"elev":1437,"name":"Minden-Tahoe Arpt, NV, US","cover":"CLR","clouds":[],"fltCat":"VFR"},{"icaoId":"KCXP","receiptTime":"2026-04-14T00:00:26.979Z","obsTime":1776124500,"reportTime":"2026-04-14T00:00:00.000Z","temp":13,"dewp":-4,"wdir":280,"wspd":7,"visib":"10+","altim":1016.3,"qcField":6,"metarType":"METAR","rawOb":"METAR KCXP 132355Z AUTO 28007KT 240V310 10SM FEW065 BKN080 13/M04 A3001 RMK AO2","lat":39.1905,"lon":-119.7319,"elev":1431,"name":"Carson City Arpt, NV, US","cover":"BKN","clouds":[{"cover":"FEW","base":6500},{"cover":"BKN","base":8000}],"fltCat":"VFR"},{"icaoId":"KAST","receiptTime":"2026-04-13T23:58:27.562Z","obsTime":1776124500,"reportTime":"2026-04-14T00:00:00.000Z","temp":11.1,"dewp":4.4,"wdir":250,"wspd":13,"visib":"10+","altim":1021.1,"slp":1020.9,"qcField":6,"presTend":0.1,"maxT":12.8,"minT":10,"pcp6hr":0.005,"metarType":"METAR","rawOb":"METAR KAST 132355Z AUTO 25013KT 10SM FEW028 SCT040 11/04 A3015 RMK AO2 SLP209 60000 T01110044 10128 20100 53001","lat":46.157,"lon":-123.8833,"elev":3,"name":"Astoria Rgnl, OR, US","cover":"SCT","clouds":[{"cover":"FEW","base":2800},{"cover":"SCT","base":4000}],"fltCat":"VFR"},{"icaoId":"KHII","receiptTime":"2026-04-14T00:00:31.419Z","obsTime":1776124500,"reportTime":"2026-04-14T00:00:00.000Z","temp":24,"dewp":-2,"wdir":200,"wspd":13,"wgst":22,"visib":"10+","altim":1010.2,"qcField":6,"metarType":"METAR","rawOb":"METAR KHII 132355Z AUTO 20013G22KT 10SM FEW100 SCT120 24/M02 A2983 RMK AO2","lat":34.5659,"lon":-114.3522,"elev":241,"name":"Lake Havasu City Arpt, AZ, US","cover":"SCT","clouds":[{"cover":"FEW","base":10000},{"cover":"SCT","base":12000}],"fltCat":"VFR"},{"icaoId":"KHTH","receiptTime":"2026-04-14T00:00:21.814Z","obsTime":1776124500,"reportTime":"2026-04-14T00:00:00.000Z","temp":14,"dewp":-7,"wdir":330,"wspd":12,"visib":"10+","altim":1014.6,"qcField":6,"metarType":"METAR","rawOb":"METAR KHTH 132355Z AUTO 33012KT 10SM CLR 14/M07 A2996 RMK A01","lat":38.5448,"lon":-118.6314,"elev":1281,"name":"Hawthorne Muni, NV, US","cover":"CLR","clouds":[],"fltCat":"VFR"},{"icaoId":"KGPI","receiptTime":"2026-04-13T23:58:26.249Z","obsTime":1776124500,"reportTime":"2026-04-14T00:00:00.000Z","temp":9.4,"dewp":3.9,"wdir":160,"wspd":12,"visib":"10+","altim":1009.2,"slp":1009.9,"qcField":4,"presTend":-0.3,"maxT":9.4,"minT":7.2,"pcp6hr":0.005,"metarType":"METAR","rawOb":"METAR KGPI 132355Z 16012KT 10SM OVC041 09/04 A2980 RMK AO2 SLP099 60000 T00940039 10094 20072 55003","lat":48.3041,"lon":-114.2643,"elev":903,"name":"Kalispell/Glacier Park Intl, MT, US","cover":"OVC","clouds":[{"cover":"OVC","base":4100}],"fltCat":"VFR"},{"icaoId":"KHCR","receiptTime":"2026-04-13T23:58:26.374Z","obsTime":1776124500,"reportTime":"2026-04-14T00:00:00.000Z","temp":11.7,"dewp":-3.7,"wdir":230,"wspd":7,"visib":"10+","altim":1012.3,"qcField":14,"presTend":-1.1,"maxT":13.7,"minT":9.1,"metarType":"METAR","rawOb":"METAR KHCR 132355Z AUTO 23007KT 10SM FEW100 SCT140 12/M04 A2989 RMK AO2 T01171037 10137 20091 56011 $","lat":40.4774,"lon":-111.4329,"elev":1708,"name":"Heber City Muni, UT, US","cover":"SCT","clouds":[{"cover":"FEW","base":10000},{"cover":"SCT","base":14000}],"fltCat":"VFR"},{"icaoId":"KLRU","receiptTime":"2026-04-13T23:58:11.493Z","obsTime":1776124500,"reportTime":"2026-04-14T00:00:00.000Z","temp":23,"dewp":-0.8,"wdir":230,"wspd":17,"wgst":25,"visib":"10+","altim":1017,"qcField":6,"maxT":25.1,"minT":22,"metarType":"METAR","rawOb":"METAR KLRU 132355Z AUTO 23017G25KT 10SM SCT095 SCT120 23/M01 A3003 RMK AO2 T02301008 10251 20220","lat":32.2884,"lon":-106.9131,"elev":1355,"name":"Las Cruces Intl, NM, US","cover":"SCT","clouds":[{"cover":"SCT","base":9500},{"cover":"SCT","base":12000}],"fltCat":"VFR"},{"icaoId":"KRTS","receiptTime":"2026-04-14T00:00:24.816Z","obsTime":1776124500,"reportTime":"2026-04-14T00:00:00.000Z","temp":11,"dewp":-6,"wdir":290,"wspd":12,"visib":"10+","altim":1017,"qcField":6,"metarType":"METAR","rawOb":"METAR KRTS 132355Z AUTO 29012KT 10SM CLR 11/M06 A3003 RMK AO2","lat":39.6658,"lon":-119.8731,"elev":1537,"name":"Reno/Stead Arpt, NV, US","cover":"CLR","clouds":[],"fltCat":"VFR"},{"icaoId":"KEND","receiptTime":"2026-04-14T00:02:08.341Z","obsTime":1776124500,"reportTime":"2026-04-14T00:00:00.000Z","temp":29,"dewp":15.5,"wdir":170,"wspd":14,"visib":"10+","altim":1006.5,"slp":1005.2,"qcField":12,"presTend":-0.7,"maxT":32.3,"minT":28.5,"metarType":"METAR","rawOb":"METAR KEND 132355Z 17014KT 10SM FEW200 29/16 A2972 RMK AO2A SLP052 T02900155 10323 20285 56007 $","lat":36.338,"lon":-97.919,"elev":392,"name":"Enid/Vance AFB, OK, US","cover":"FEW","clouds":[{"cover":"FEW","base":20000}],"fltCat":"VFR"},{"icaoId":"KLUF","receiptTime":"2026-04-14T00:04:04.953Z","obsTime":1776124500,"reportTime":"2026-04-14T00:00:00.000Z","temp":24.7,"dewp":4.4,"wdir":200,"wspd":14,"visib":"10+","altim":1010.9,"slp":1009.9,"qcField":12,"presTend":-2.1,"maxT":26.5,"minT":22.4,"metarType":"METAR","rawOb":"METAR KLUF 132355Z 20014KT 10SM SCT080 25/04 A2985 RMK AO2A SLP099 T02470044 10265 20224 57021 $","lat":33.538,"lon":-112.38,"elev":333,"name":"Phoenix/Luke AFB, AZ, US","cover":"SCT","clouds":[{"cover":"SCT","base":8000}],"fltCat":"VFR"},{"icaoId":"KSEZ","receiptTime":"2026-04-14T00:00:30.800Z","obsTime":1776124500,"reportTime":"2026-04-14T00:00:00.000Z","temp":17,"dewp":-2,"wdir":190,"wspd":22,"wgst":33,"visib":"10+","altim":1013.3,"qcField":6,"metarType":"METAR","rawOb":"METAR KSEZ 132355Z AUTO 19022G33KT 10SM FEW070 FEW080 17/M02 A2992 RMK AO2","lat":34.8467,"lon":-111.7884,"elev":1455,"name":"Sedona Arpt, AZ, US","cover":"FEW","clouds":[{"cover":"FEW","base":7000},{"cover":"FEW","base":8000}],"fltCat":"VFR"},{"icaoId":"KCMA","receiptTime":"2026-04-13T23:58:29.373Z","obsTime":1776124500,"reportTime":"2026-04-14T00:00:00.000Z","temp":18.3,"dewp":8.9,"wdir":270,"wspd":14,"wgst":22,"visib":"10+","altim":1015.7,"slp":1016.6,"qcField":4,"presTend":-1.4,"maxT":19.4,"minT":17.2,"metarType":"METAR","rawOb":"METAR KCMA 132355Z 27014G22KT 10SM CLR 18/09 A2999 RMK AO2 PK WND 25027/2311 SLP166 T01830089 10194 20172 56014","lat":34.2114,"lon":-119.0876,"elev":20,"name":"Camarillo Arpt, CA, US","cover":"CLR","clouds":[],"fltCat":"VFR"},{"icaoId":"KBVU","receiptTime":"2026-04-13T23:57:02.581Z","obsTime":1776124500,"reportTime":"2026-04-14T00:00:00.000Z","temp":19,"dewp":-4,"wdir":260,"wspd":11,"wgst":16,"visib":"10+","altim":1010.2,"qcField":6,"metarType":"METAR","rawOb":"METAR KBVU 132355Z AUTO 26011G16KT 10SM CLR 19/M04 A2983 RMK AO2","lat":35.9489,"lon":-114.8633,"elev":654,"name":"Boulder City Muni, NV, US","cover":"CLR","clouds":[],"fltCat":"VFR"},{"icaoId":"KHAF","receiptTime":"2026-04-13T23:58:09.957Z","obsTime":1776124500,"reportTime":"2026-04-14T00:00:00.000Z","temp":15,"dewp":11,"wdir":320,"wspd":14,"visib":"10+","altim":1020.1,"qcField":6,"metarType":"METAR","rawOb":"METAR KHAF 132355Z AUTO 32014KT 10SM CLR 15/11 A3012 RMK AO2","lat":37.5136,"lon":-122.4996,"elev":11,"name":"Half Moon Bay Arpt, CA, US","cover":"CLR","clouds":[],"fltCat":"VFR"},{"icaoId":"KGCN","receiptTime":"2026-04-13T23:58:09.923Z","obsTime":1776124440,"reportTime":"2026-04-14T00:00:00.000Z","temp":10.6,"dewp":-3.3,"wdir":240,"wspd":16,"wgst":32,"visib":"10+","altim":1013.6,"slp":1009.3,"qcField":4,"presTend":-1.7,"maxT":14.4,"minT":8.9,"pcp6hr":0.005,"metarType":"METAR","rawOb":"METAR KGCN 132354Z 24016G32KT 10SM SCT065 OVC095 11/M03 A2993 RMK AO2 PK WND 20036/2257 SLP093 60000 T01061033 10144 20089 56017","lat":35.9458,"lon":-112.1554,"elev":1993,"name":"Grand Canyon Park Arpt, AZ, US","cover":"OVC","clouds":[{"cover":"SCT","base":6500},{"cover":"OVC","base":9500}],"fltCat":"VFR"},{"icaoId":"KDSM","receiptTime":"2026-04-13T23:58:07.003Z","obsTime":1776124440,"reportTime":"2026-04-14T00:00:00.000Z","temp":26.7,"dewp":17.2,"wdir":200,"wspd":15,"wgst":21,"visib":"10+","altim":1003.8,"slp":1002.8,"qcField":12,"presTend":-1.3,"maxT":27.8,"minT":23.9,"metarType":"METAR","rawOb":"METAR KDSM 132354Z 20015G21KT 10SM FEW040 BKN250 BKN300 27/17 A2964 RMK AO2 PK WND 20031/2325 SLP028 T02670172 10278 20239 56013 $","lat":41.5339,"lon":-93.6531,"elev":286,"name":"Des Moines Intl, IA, US","cover":"BKN","clouds":[{"cover":"FEW","base":4000},{"cover":"BKN","base":25000},{"cover":"BKN","base":30000}],"fltCat":"VFR"},{"icaoId":"KBTV","receiptTime":"2026-04-13T23:58:09.460Z","obsTime":1776124440,"reportTime":"2026-04-14T00:00:00.000Z","temp":17.2,"dewp":12.8,"wdir":280,"wspd":8,"visib":"10+","altim":1009.9,"slp":1010,"qcField":4,"presTend":2.1,"maxT":17.8,"minT":15,"precip":0.005,"pcp6hr":0.04,"metarType":"METAR","rawOb":"METAR KBTV 132354Z 28008KT 10SM FEW027 BKN042 OVC060 17/13 A2982 RMK AO2 RAB25E49 SLP100 P0000 60004 T01720128 10178 20150 53021","lat":44.4682,"lon":-73.1499,"elev":101,"name":"Burlington Intl, VT, US","cover":"OVC","clouds":[{"cover":"FEW","base":2700},{"cover":"BKN","base":4200},{"cover":"OVC","base":6000}],"fltCat":"VFR"},{"icaoId":"KGSO","receiptTime":"2026-04-13T23:58:09.571Z","obsTime":1776124440,"reportTime":"2026-04-14T00:00:00.000Z","temp":23.3,"dewp":9.4,"wdir":220,"wspd":8,"visib":"10+","altim":1022.1,"slp":1021.3,"qcField":4,"presTend":-0.3,"maxT":27.8,"minT":23.3,"metarType":"METAR","rawOb":"METAR KGSO 132354Z 22008KT 10SM FEW070 FEW110 BKN250 23/09 A3018 RMK AO2 SLP213 T02330094 10278 20233 56003","lat":36.0969,"lon":-79.9432,"elev":275,"name":"Greensboro Intl, NC, US","cover":"BKN","clouds":[{"cover":"FEW","base":7000},{"cover":"FEW","base":11000},{"cover":"BKN","base":25000}],"fltCat":"VFR"},{"icaoId":"KPHL","receiptTime":"2026-04-13T23:58:09.669Z","obsTime":1776124440,"reportTime":"2026-04-14T00:00:00.000Z","temp":25,"dewp":11.1,"wdir":220,"wspd":10,"wgst":18,"visib":"10+","altim":1015.3,"slp":1015.2,"qcField":12,"presTend":-0.4,"maxT":26.7,"minT":23.9,"metarType":"METAR","rawOb":"METAR KPHL 132354Z 22010G18KT 10SM FEW080 FEW160 SCT250 25/11 A2998 RMK AO2 SLP152 T02500111 10267 20239 55004 $","lat":39.8733,"lon":-75.2268,"elev":2,"name":"Philadelphia Intl, PA, US","cover":"SCT","clouds":[{"cover":"FEW","base":8000},{"cover":"FEW","base":16000},{"cover":"SCT","base":25000}],"fltCat":"VFR"},{"icaoId":"KBOS","receiptTime":"2026-04-13T23:58:09.558Z","obsTime":1776124440,"reportTime":"2026-04-14T00:00:00.000Z","temp":20.6,"dewp":12.2,"wdir":220,"wspd":9,"visib":"10+","altim":1010.9,"slp":1010.8,"qcField":4,"presTend":1.5,"maxT":22.2,"minT":17.8,"metarType":"METAR","rawOb":"METAR KBOS 132354Z 22009KT 10SM FEW110 21/12 A2985 RMK AO2 SLP108 T02060122 10222 20178 53015","lat":42.3606,"lon":-71.0097,"elev":4,"name":"Boston/Logan Intl, MA, US","cover":"FEW","clouds":[{"cover":"FEW","base":11000}],"fltCat":"VFR"},{"icaoId":"KMEM","receiptTime":"2026-04-13T23:58:11.512Z","obsTime":1776124440,"reportTime":"2026-04-14T00:00:00.000Z","temp":25,"dewp":17.2,"wdir":190,"wspd":13,"wgst":18,"visib":"10+","altim":1018.7,"slp":1018.1,"qcField":4,"presTend":-0.7,"maxT":27.8,"minT":23.9,"pcp6hr":0.005,"metarType":"METAR","rawOb":"METAR KMEM 132354Z 19013G18KT 10SM FEW047 SCT060 BKN150 25/17 A3008 RMK AO2 SLP181 60000 T02500172 10278 20239 55007","lat":35.0564,"lon":-89.9864,"elev":78,"name":"Memphis Intl, TN, US","cover":"BKN","clouds":[{"cover":"FEW","base":4700},{"cover":"SCT","base":6000},{"cover":"BKN","base":15000}],"fltCat":"VFR"},{"icaoId":"KCOS","receiptTime":"2026-04-13T23:58:06.974Z","obsTime":1776124440,"reportTime":"2026-04-14T00:00:00.000Z","temp":18.9,"dewp":-13.3,"wdir":200,"wspd":16,"visib":"10+","altim":1010.2,"slp":1004.4,"qcField":4,"presTend":-1.5,"maxT":21.7,"minT":17.8,"metarType":"METAR","rawOb":"METAR KCOS 132354Z 20016KT 10SM FEW100 SCT150 BKN250 19/M13 A2983 RMK AO2 PK WND 22034/2313 SLP044 T01891133 10217 20178 56015","lat":38.8095,"lon":-104.6887,"elev":1886,"name":"Colorado Spring Arpt, CO, US","cover":"BKN","clouds":[{"cover":"FEW","base":10000},{"cover":"SCT","base":15000},{"cover":"BKN","base":25000}],"fltCat":"VFR"},{"icaoId":"KOLS","receiptTime":"2026-04-13T23:58:10.003Z","obsTime":1776124440,"reportTime":"2026-04-14T00:00:00.000Z","temp":20.6,"dewp":0.6,"wdir":200,"wspd":17,"wgst":31,"visib":"10+","altim":1017,"slp":1011.8,"qcField":6,"presTend":-1.7,"maxT":22.8,"minT":14.4,"precip":0.005,"pcp6hr":0.02,"metarType":"METAR","rawOb":"METAR KOLS 132354Z AUTO 20017G31KT 10SM FEW047 OVC100 21/01 A3003 RMK AO2 PK WND 22036/2257 RAB07E18 SLP118 P0000 60002 T02060006 10228 20144 56017","lat":31.4208,"lon":-110.8465,"elev":1194,"name":"Nogales Intl, AZ, US","cover":"OVC","clouds":[{"cover":"FEW","base":4700},{"cover":"OVC","base":10000}],"fltCat":"VFR"},{"icaoId":"KSYR","receiptTime":"2026-04-13T23:58:10.864Z","obsTime":1776124440,"reportTime":"2026-04-14T00:00:00.000Z","temp":17.8,"dewp":13.9,"wdir":300,"wspd":6,"visib":"10+","altim":1013.6,"slp":1013.1,"qcField":4,"presTend":1.6,"maxT":22.2,"minT":17.8,"metarType":"METAR","rawOb":"METAR KSYR 132354Z 30006KT 10SM SCT040 BKN070 BKN250 18/14 A2993 RMK AO2 SLP131 T01780139 10222 20178 53016","lat":43.1111,"lon":-76.1038,"elev":125,"name":"Syracuse/Hancock Intl, NY, US","cover":"BKN","clouds":[{"cover":"SCT","base":4000},{"cover":"BKN","base":7000},{"cover":"BKN","base":25000}],"fltCat":"VFR"},{"icaoId":"KSLC","receiptTime":"2026-04-13T23:58:18.632Z","obsTime":1776124440,"reportTime":"2026-04-14T00:00:00.000Z","temp":13.9,"dewp":-3.3,"wdir":350,"wspd":5,"wgst":16,"visib":"10+","altim":1013.6,"slp":1011.8,"qcField":12,"presTend":-1.1,"maxT":15,"minT":11.1,"metarType":"METAR","rawOb":"METAR KSLC 132354Z 35005G16KT 10SM FEW070 SCT100 SCT150 BKN230 14/M03 A2993 RMK AO2 SLP118 T01391033 10150 20111 56011 $","lat":40.7707,"lon":-111.965,"elev":1286,"name":"Salt Lake City Intl, UT, US","cover":"BKN","clouds":[{"cover":"FEW","base":7000},{"cover":"SCT","base":10000},{"cover":"SCT","base":15000},{"cover":"BKN","base":23000}],"fltCat":"VFR"},{"icaoId":"KEUG","receiptTime":"2026-04-13T23:58:13.168Z","obsTime":1776124440,"reportTime":"2026-04-14T00:00:00.000Z","temp":12.8,"dewp":2.2,"wdir":260,"wspd":8,"visib":"10+","altim":1021.4,"slp":1021.4,"qcField":4,"presTend":-0.1,"maxT":14.4,"minT":10,"pcp6hr":0.005,"metarType":"METAR","rawOb":"METAR KEUG 132354Z 26008KT 10SM SCT044 BKN060 13/02 A3016 RMK AO2 SLP214 60000 T01280022 10144 20100 55001","lat":44.1331,"lon":-123.2156,"elev":109,"name":"Eugene/Mahlon Sweet Fld, OR, US","cover":"BKN","clouds":[{"cover":"SCT","base":4400},{"cover":"BKN","base":6000}],"fltCat":"VFR"},{"icaoId":"KBUF","receiptTime":"2026-04-13T23:58:19.217Z","obsTime":1776124440,"reportTime":"2026-04-14T00:00:00.000Z","temp":12.2,"dewp":10,"wdir":180,"wspd":6,"visib":"10+","altim":1014.3,"slp":1014.3,"qcField":12,"presTend":1.7,"maxT":17.2,"minT":12.2,"metarType":"METAR","rawOb":"METAR KBUF 132354Z 18006KT 10SM FEW060 FEW200 BKN280 12/10 A2995 RMK AO2 SLP143 T01220100 10172 20122 51017 $","lat":42.94,"lon":-78.7361,"elev":217,"name":"Buffalo-Niagara Intl, NY, US","cover":"BKN","clouds":[{"cover":"FEW","base":6000},{"cover":"FEW","base":20000},{"cover":"BKN","base":28000}],"fltCat":"VFR"},{"icaoId":"KOLM","receiptTime":"2026-04-13T23:58:13.395Z","obsTime":1776124440,"reportTime":"2026-04-14T00:00:00.000Z","temp":11.7,"dewp":3.3,"wdir":240,"wspd":12,"wgst":19,"visib":"10+","altim":1019,"slp":1019.1,"qcField":4,"presTend":0.2,"maxT":13.9,"minT":10.6,"pcp6hr":0.005,"metarType":"METAR","rawOb":"METAR KOLM 132354Z 24012G19KT 10SM BKN050 12/03 A3009 RMK AO2 SLP191 60000 T01170033 10139 20106 51002","lat":46.9737,"lon":-122.9049,"elev":58,"name":"Olympia Rgnl, WA, US","cover":"BKN","clouds":[{"cover":"BKN","base":5000}],"fltCat":"VFR"},{"icaoId":"KAPC","receiptTime":"2026-04-13T23:58:13.080Z","obsTime":1776124440,"reportTime":"2026-04-14T00:00:00.000Z","temp":17.8,"dewp":9.4,"wdir":210,"wspd":11,"visib":"10+","altim":1018.4,"slp":1017.5,"qcField":4,"presTend":-1,"maxT":18.3,"minT":13.9,"metarType":"METAR","rawOb":"METAR KAPC 132354Z 21011KT 10SM BKN060 18/09 A3007 RMK AO2 SLP175 T01780094 10183 20139 56010","lat":38.2075,"lon":-122.2804,"elev":5,"name":"Napa Cnty Arpt, CA, US","cover":"BKN","clouds":[{"cover":"BKN","base":6000}],"fltCat":"VFR"},{"icaoId":"KIND","receiptTime":"2026-04-13T23:58:08.948Z","obsTime":1776124440,"reportTime":"2026-04-14T00:00:00.000Z","temp":23.9,"dewp":15.6,"wdir":210,"wspd":9,"visib":"10+","altim":1015,"slp":1014.3,"qcField":4,"presTend":-0.6,"maxT":27.2,"minT":23.9,"metarType":"METAR","rawOb":"METAR KIND 132354Z 21009KT 10SM BKN055 24/16 A2997 RMK AO2 SLP143 T02390156 10272 20239 58006","lat":39.7252,"lon":-86.2816,"elev":242,"name":"Indianapolis Intl, IN, US","cover":"BKN","clouds":[{"cover":"BKN","base":5500}],"fltCat":"VFR"},{"icaoId":"KFFZ","receiptTime":"2026-04-13T23:58:08.486Z","obsTime":1776124440,"reportTime":"2026-04-14T00:00:00.000Z","temp":25.6,"dewp":3.3,"wdir":200,"wspd":13,"wgst":18,"visib":"10+","altim":1011.6,"slp":1009.4,"qcField":6,"presTend":-2.4,"maxT":25.6,"minT":22.2,"metarType":"METAR","rawOb":"METAR KFFZ 132354Z AUTO 20013G18KT 10SM FEW075 26/03 A2987 RMK AO2 SLP094 T02560033 10256 20222 56024","lat":33.4659,"lon":-111.7212,"elev":420,"name":"Mesa/Falcon Fld, AZ, US","cover":"FEW","clouds":[{"cover":"FEW","base":7500}],"fltCat":"VFR"},{"icaoId":"KBWI","receiptTime":"2026-04-13T23:58:16.700Z","obsTime":1776124440,"reportTime":"2026-04-14T00:00:00.000Z","temp":25,"dewp":10,"wdir":230,"wspd":10,"visib":"10+","altim":1016.3,"slp":1016,"qcField":4,"presTend":-0.4,"maxT":27.2,"minT":25,"metarType":"METAR","rawOb":"METAR KBWI 132354Z 23010KT 10SM FEW090 FEW250 25/10 A3001 RMK AO2 SLP160 T02500100 10272 20250 55004","lat":39.1733,"lon":-76.684,"elev":42,"name":"Baltimore-Washington Intl, MD, US","cover":"FEW","clouds":[{"cover":"FEW","base":9000},{"cover":"FEW","base":25000}],"fltCat":"VFR"},{"icaoId":"KRKS","receiptTime":"2026-04-13T23:58:18.381Z","obsTime":1776124440,"reportTime":"2026-04-14T00:00:00.000Z","temp":10.6,"dewp":-10.6,"wdir":250,"wspd":11,"visib":"10+","altim":1013.3,"slp":1010.4,"qcField":6,"presTend":-0.9,"maxT":12.2,"minT":7.2,"metarType":"METAR","rawOb":"METAR KRKS 132354Z AUTO 25011KT 10SM BKN090 11/M11 A2992 RMK AO2 PK WND 27027/2315 WSHFT 2252 SLP104 T01061106 10122 20072 55009","lat":41.5947,"lon":-109.0529,"elev":2062,"name":"Rock Springs/SW Wyoming Rgnl, WY, US","cover":"BKN","clouds":[{"cover":"BKN","base":9000}],"fltCat":"VFR"},{"icaoId":"KSJN","receiptTime":"2026-04-13T23:58:18.616Z","obsTime":1776124440,"reportTime":"2026-04-14T00:00:00.000Z","temp":17.2,"dewp":-3.9,"wdir":240,"wspd":13,"wgst":23,"visib":"10+","altim":1014.6,"slp":1009,"qcField":6,"presTend":-1.4,"maxT":19.4,"minT":15,"metarType":"METAR","rawOb":"METAR KSJN 132354Z AUTO 24013G23KT 10SM SCT100 17/M04 A2996 RMK AO2 PK WND 23029/2259 SLP090 T01721039 10194 20150 58014","lat":34.5184,"lon":-109.3801,"elev":1747,"name":"St Johns Ind Arpt, AZ, US","cover":"SCT","clouds":[{"cover":"SCT","base":10000}],"fltCat":"VFR"},{"icaoId":"KBFL","receiptTime":"2026-04-13T23:58:17.644Z","obsTime":1776124440,"reportTime":"2026-04-14T00:00:00.000Z","temp":17.2,"dewp":5,"wdir":0,"wspd":0,"visib":"10+","altim":1017,"slp":1016.8,"qcField":4,"presTend":-1.8,"maxT":17.8,"minT":12.2,"pcp6hr":0.04,"metarType":"METAR","rawOb":"METAR KBFL 132354Z 00000KT 10SM BKN050 17/05 A3003 RMK AO2 SLP168 60004 T01720050 10178 20122 56018","lat":35.4342,"lon":-119.0552,"elev":146,"name":"Bakersfield/Meadows Arpt, CA, US","cover":"BKN","clouds":[{"cover":"BKN","base":5000}],"fltCat":"VFR"},{"icaoId":"KRIC","receiptTime":"2026-04-13T23:58:10.805Z","obsTime":1776124440,"reportTime":"2026-04-14T00:00:00.000Z","temp":25,"dewp":10,"wdir":220,"wspd":9,"visib":"10+","altim":1019.4,"slp":1019.7,"qcField":4,"presTend":-0.2,"maxT":29.4,"minT":25,"metarType":"METAR","rawOb":"METAR KRIC 132354Z 22009KT 10SM BKN200 BKN300 25/10 A3010 RMK AO2 SLP197 T02500100 10294 20250 58002","lat":37.5115,"lon":-77.3234,"elev":51,"name":"Richmond Intl, VA, US","cover":"BKN","clouds":[{"cover":"BKN","base":20000},{"cover":"BKN","base":30000}],"fltCat":"VFR"},{"icaoId":"KBHM","receiptTime":"2026-04-13T23:57:07.480Z","obsTime":1776124380,"reportTime":"2026-04-14T00:00:00.000Z","temp":25.6,"dewp":12.2,"wdir":190,"wspd":10,"visib":"10+","altim":1022.8,"slp":1022.1,"qcField":4,"presTend":-0.7,"maxT":28.3,"minT":25.6,"metarType":"METAR","rawOb":"METAR KBHM 132353Z 19010KT 10SM FEW055 FEW250 26/12 A3020 RMK AO2 SLP221 T02560122 10283 20256 56007","lat":33.5655,"lon":-86.7449,"elev":191,"name":"Birmingham Intl, AL, US","cover":"FEW","clouds":[{"cover":"FEW","base":5500},{"cover":"FEW","base":25000}],"fltCat":"VFR"},{"icaoId":"KMYF","receiptTime":"2026-04-14T00:02:13.747Z","obsTime":1776124380,"reportTime":"2026-04-14T00:00:00.000Z","temp":17.2,"dewp":6.7,"wdir":250,"wspd":11,"visib":"10+","altim":1017.4,"slp":1017,"qcField":5,"presTend":-1.2,"maxT":18.3,"minT":13.9,"pcp6hr":0.11,"metarType":"METAR","rawOb":"METAR KMYF 132353Z COR 25011KT 10SM BKN039 17/07 A3004 RMK AO2 SLP170 60011 T01720067 10183 20139 56012","lat":32.8145,"lon":-117.1375,"elev":128,"name":"San Diego/Montgomery Arpt, CA, US","cover":"BKN","clouds":[{"cover":"BKN","base":3900}],"fltCat":"VFR"},{"icaoId":"KBIL","receiptTime":"2026-04-14T00:00:35.606Z","obsTime":1776124380,"reportTime":"2026-04-14T00:00:00.000Z","temp":12.2,"dewp":-1.7,"wdir":360,"wspd":7,"visib":"10+","altim":1007.5,"slp":1007.4,"qcField":5,"presTend":-0.5,"maxT":13.9,"minT":10.6,"pcp6hr":0.005,"metarType":"METAR","rawOb":"METAR KBIL 132353Z COR 36007KT 10SM FEW060 OVC085 12/M02 A2975 RMK AO2 SLP074 VIRGA ALQDS SHRA DSNT NE-E NW 60000 T01221017 10139 20106 55005","lat":45.8072,"lon":-108.5462,"elev":1089,"name":"Billings/Logan Intl, MT, US","cover":"OVC","clouds":[{"cover":"FEW","base":6000},{"cover":"OVC","base":8500}],"fltCat":"VFR"},{"icaoId":"KMIA","receiptTime":"2026-04-13T23:57:06.438Z","obsTime":1776124380,"reportTime":"2026-04-14T00:00:00.000Z","temp":23.9,"dewp":16.1,"wdir":60,"wspd":13,"wgst":22,"visib":"10+","altim":1021.4,"slp":1021.4,"qcField":0,"presTend":-0.3,"maxT":27.2,"minT":23.9,"metarType":"METAR","rawOb":"METAR KMIA 132353Z 06013G22KT 10SM SCT038 SCT250 24/16 A3016 RMK SLP214 T02390161 10272 20239 58003","lat":25.7881,"lon":-80.3169,"elev":1,"name":"Miami Intl, FL, US","cover":"SCT","clouds":[{"cover":"SCT","base":3800},{"cover":"SCT","base":25000}],"fltCat":"VFR"},{"icaoId":"KRDD","receiptTime":"2026-04-13T23:57:03.412Z","obsTime":1776124380,"reportTime":"2026-04-14T00:00:00.000Z","temp":18.3,"dewp":5,"wdir":"VRB","wspd":5,"visib":"10+","altim":1017.4,"slp":1017.1,"qcField":4,"presTend":-1.7,"maxT":18.3,"minT":12.2,"metarType":"METAR","rawOb":"METAR KRDD 132353Z VRB05KT 10SM CLR 18/05 A3004 RMK AO2 SLP171 T01830050 10183 20122 58017","lat":40.5146,"lon":-122.2977,"elev":152,"name":"Redding Muni, CA, US","cover":"CLR","clouds":[],"fltCat":"VFR"},{"icaoId":"KYKM","receiptTime":"2026-04-13T23:56:54.867Z","obsTime":1776124380,"reportTime":"2026-04-14T00:00:00.000Z","temp":17.8,"dewp":-1.1,"wdir":300,"wspd":14,"wgst":22,"visib":"10+","altim":1012.3,"slp":1012.2,"qcField":12,"presTend":-0.3,"maxT":19.4,"minT":15,"metarType":"METAR","rawOb":"METAR KYKM 132353Z 30014G22KT 10SM CLR 18/M01 A2989 RMK AO2 SLP122 T01781011 10194 20150 55003 $","lat":46.564,"lon":-120.5349,"elev":319,"name":"Yakima/McAllister Fld, WA, US","cover":"CLR","clouds":[],"fltCat":"VFR"},{"icaoId":"KSHR","receiptTime":"2026-04-13T23:56:55.149Z","obsTime":1776124380,"reportTime":"2026-04-14T00:00:00.000Z","temp":13.3,"dewp":-1.7,"wdir":220,"wspd":9,"wgst":15,"visib":"10+","altim":1008.2,"slp":1007.8,"qcField":6,"presTend":-1.3,"maxT":13.3,"minT":7.8,"pcp6hr":0.005,"metarType":"METAR","rawOb":"METAR KSHR 132353Z AUTO 22009G15KT 10SM FEW120 13/M02 A2977 RMK AO2 SLP078 60000 T01331017 10133 20078 56013","lat":44.7603,"lon":-106.9741,"elev":1212,"name":"Sheridan Cnty Arpt, WY, US","cover":"FEW","clouds":[{"cover":"FEW","base":12000}],"fltCat":"VFR"},{"icaoId":"KSMF","receiptTime":"2026-04-13T23:56:55.196Z","obsTime":1776124380,"reportTime":"2026-04-14T00:00:00.000Z","temp":18.9,"dewp":6.1,"wdir":310,"wspd":6,"visib":"10+","altim":1018,"slp":1017.7,"qcField":12,"presTend":-1.4,"maxT":18.9,"minT":14.4,"metarType":"METAR","rawOb":"METAR KSMF 132353Z 31006KT 10SM FEW050 19/06 A3006 RMK AO2 SLP177 T01890061 10189 20144 58014 $","lat":38.7007,"lon":-121.5948,"elev":7,"name":"Sacramento Intl, CA, US","cover":"FEW","clouds":[{"cover":"FEW","base":5000}],"fltCat":"VFR"},{"icaoId":"KSNA","receiptTime":"2026-04-13T23:56:55.232Z","obsTime":1776124380,"reportTime":"2026-04-14T00:00:00.000Z","temp":18.3,"dewp":5.6,"wdir":240,"wspd":9,"wgst":18,"visib":"10+","altim":1016.7,"slp":1016.4,"qcField":12,"presTend":-1.2,"maxT":18.9,"minT":16.1,"metarType":"METAR","rawOb":"METAR KSNA 132353Z 24009G18KT 10SM FEW035 FEW050 SCT065 18/06 A3002 RMK AO2 SLP164 T01830056 10189 20161 56012 $","lat":33.6798,"lon":-117.8675,"elev":14,"name":"Santa Ana/Wayne Arpt, CA, US","cover":"SCT","clouds":[{"cover":"FEW","base":3500},{"cover":"FEW","base":5000},{"cover":"SCT","base":6500}],"fltCat":"VFR"},{"icaoId":"KGSP","receiptTime":"2026-04-13T23:56:56.454Z","obsTime":1776124380,"reportTime":"2026-04-14T00:00:00.000Z","temp":22.2,"dewp":11.1,"wdir":220,"wspd":8,"visib":"10+","altim":1023.1,"slp":1022.2,"qcField":4,"presTend":-0.8,"maxT":26.1,"minT":22.2,"metarType":"METAR","rawOb":"METAR KGSP 132353Z 22008KT 10SM CLR 22/11 A3021 RMK AO2 SLP222 T02220111 10261 20222 58008","lat":34.8842,"lon":-82.2209,"elev":285,"name":"Greenville-Spartanburg Intl, SC, US","cover":"CLR","clouds":[],"fltCat":"VFR"},{"icaoId":"KGTF","receiptTime":"2026-04-13T23:56:56.469Z","obsTime":1776124380,"reportTime":"2026-04-14T00:00:00.000Z","temp":13.9,"dewp":-1.1,"wdir":240,"wspd":13,"wgst":22,"visib":"10+","altim":1006.2,"slp":1006.7,"qcField":4,"presTend":-0.4,"maxT":15.6,"minT":12.2,"metarType":"METAR","rawOb":"METAR KGTF 132353Z 24013G22KT 10SM BKN080 14/M01 A2971 RMK AO2 SLP067 T01391011 10156 20122 56004","lat":47.4733,"lon":-111.3828,"elev":1117,"name":"Great Falls Intl, MT, US","cover":"BKN","clouds":[{"cover":"BKN","base":8000}],"fltCat":"VFR"},{"icaoId":"KHIO","receiptTime":"2026-04-13T23:56:56.621Z","obsTime":1776124380,"reportTime":"2026-04-14T00:00:00.000Z","temp":12.2,"dewp":5,"wdir":320,"wspd":5,"visib":"10+","altim":1019.7,"slp":1019.8,"qcField":4,"wxString":"-RA","presTend":-0.1,"maxT":13.3,"minT":10.6,"precip":0.005,"pcp6hr":0.01,"metarType":"METAR","rawOb":"METAR KHIO 132353Z 32005KT 10SM -RA SCT045 BKN070 12/05 A3011 RMK AO2 RAB50 SLP198 P0000 60001 T01220050 10133 20106 55001","lat":45.5476,"lon":-122.9557,"elev":62,"name":"Portland/Hillsboro Arpt, OR, US","cover":"BKN","clouds":[{"cover":"SCT","base":4500},{"cover":"BKN","base":7000}],"fltCat":"VFR"},{"icaoId":"KMOD","receiptTime":"2026-04-13T23:56:57.049Z","obsTime":1776124380,"reportTime":"2026-04-14T00:00:00.000Z","temp":18.9,"dewp":6.7,"wdir":340,"wspd":11,"wgst":19,"visib":"10+","altim":1017.7,"slp":1017.4,"qcField":6,"presTend":-1.5,"maxT":18.9,"minT":13.9,"metarType":"METAR","rawOb":"METAR KMOD 132353Z AUTO 34011G19KT 10SM SCT048 19/07 A3005 RMK AO2 SLP174 T01890067 10189 20139 56015","lat":37.6254,"lon":-120.9549,"elev":25,"name":"Modesto/Sham Fld, CA, US","cover":"SCT","clouds":[{"cover":"SCT","base":4800}],"fltCat":"VFR"},{"icaoId":"KMSO","receiptTime":"2026-04-13T23:56:57.124Z","obsTime":1776124380,"reportTime":"2026-04-14T00:00:00.000Z","temp":10.6,"dewp":3.3,"wdir":320,"wspd":7,"visib":"10+","altim":1010.9,"slp":1011.5,"qcField":12,"presTend":0.7,"maxT":11.7,"minT":10,"pcp6hr":0.005,"metarType":"METAR","rawOb":"METAR KMSO 132353Z 32007KT 10SM FEW049 OVC065 11/03 A2985 RMK AO2 SLP115 60000 T01060033 10117 20100 53007 $","lat":46.9208,"lon":-114.0938,"elev":974,"name":"Missoula Intl, MT, US","cover":"OVC","clouds":[{"cover":"FEW","base":4900},{"cover":"OVC","base":6500}],"fltCat":"VFR"},{"icaoId":"KOAK","receiptTime":"2026-04-13T23:56:57.285Z","obsTime":1776124380,"reportTime":"2026-04-14T00:00:00.000Z","temp":17.2,"dewp":7.8,"wdir":250,"wspd":14,"visib":"10+","altim":1019.4,"slp":1019.2,"qcField":12,"presTend":-0.8,"maxT":17.8,"minT":14.4,"metarType":"METAR","rawOb":"METAR KOAK 132353Z 25014KT 10SM SCT040 SCT060 17/08 A3010 RMK AO2 SLP192 T01720078 10178 20144 57008 $","lat":37.7178,"lon":-122.233,"elev":3,"name":"Oakland Intl, CA, US","cover":"SCT","clouds":[{"cover":"SCT","base":4000},{"cover":"SCT","base":6000}],"fltCat":"VFR"},{"icaoId":"KOGD","receiptTime":"2026-04-13T23:56:57.343Z","obsTime":1776124380,"reportTime":"2026-04-14T00:00:00.000Z","temp":12.2,"dewp":-3.3,"wdir":300,"wspd":6,"visib":"10+","altim":1013.3,"slp":1011.9,"qcField":4,"presTend":-1.4,"maxT":12.8,"minT":8.9,"metarType":"METAR","rawOb":"METAR KOGD 132353Z 30006KT 10SM CLR 12/M03 A2992 RMK AO2 SLP119 T01221033 10128 20089 56014","lat":41.1941,"lon":-112.0168,"elev":1356,"name":"Ogden/Hinckley Arpt, UT, US","cover":"CLR","clouds":[],"fltCat":"VFR"},{"icaoId":"KPDX","receiptTime":"2026-04-13T23:56:57.702Z","obsTime":1776124380,"reportTime":"2026-04-14T00:00:00.000Z","temp":12.2,"dewp":6.1,"wdir":320,"wspd":10,"visib":"10+","altim":1020.1,"slp":1019.8,"qcField":4,"maxT":13.9,"minT":11.1,"pcp6hr":0.01,"metarType":"METAR","rawOb":"METAR KPDX 132353Z 32010KT 10SM FEW020 SCT060 BKN070 12/06 A3012 RMK AO2 SLP198 60001 T01220061 10139 20111 55000","lat":45.5958,"lon":-122.6092,"elev":7,"name":"Portland Intl, OR, US","cover":"BKN","clouds":[{"cover":"FEW","base":2000},{"cover":"SCT","base":6000},{"cover":"BKN","base":7000}],"fltCat":"VFR"},{"icaoId":"KPGA","receiptTime":"2026-04-13T23:56:57.756Z","obsTime":1776124380,"reportTime":"2026-04-14T00:00:00.000Z","temp":17.8,"dewp":-2.8,"wdir":320,"wspd":9,"visib":"10+","altim":1009.6,"slp":1005.6,"qcField":6,"presTend":-2.9,"maxT":20,"minT":15.6,"precip":0.005,"pcp6hr":0.005,"metarType":"METAR","rawOb":"METAR KPGA 132353Z AUTO 32009KT 10SM BKN100 BKN110 18/M03 A2981 RMK AO2 RAE16 SLP056 P0000 60000 T01781028 10200 20156 56029","lat":36.9211,"lon":-111.4487,"elev":1310,"name":"Page Muni, AZ, US","cover":"BKN","clouds":[{"cover":"BKN","base":10000},{"cover":"BKN","base":11000}],"fltCat":"VFR"},{"icaoId":"KACV","receiptTime":"2026-04-13T23:56:58.920Z","obsTime":1776124380,"reportTime":"2026-04-14T00:00:00.000Z","temp":12.8,"dewp":7.2,"wdir":320,"wspd":16,"visib":"10+","altim":1021.8,"slp":1022.3,"qcField":6,"presTend":-0.4,"maxT":14.4,"minT":11.1,"metarType":"METAR","rawOb":"METAR KACV 132353Z AUTO 32016KT 10SM FEW049 13/07 A3017 RMK AO2 SLP223 T01280072 10144 20111 56004","lat":40.9784,"lon":-124.1048,"elev":63,"name":"Arcata Arpt, CA, US","cover":"FEW","clouds":[{"cover":"FEW","base":4900}],"fltCat":"VFR"},{"icaoId":"KLBB","receiptTime":"2026-04-13T23:56:59.510Z","obsTime":1776124380,"reportTime":"2026-04-14T00:00:00.000Z","temp":28.3,"dewp":0,"wdir":210,"wspd":19,"wgst":27,"visib":"10+","altim":1012.6,"slp":1007.6,"qcField":4,"presTend":-1.2,"maxT":31.7,"minT":28.3,"metarType":"METAR","rawOb":"METAR KLBB 132353Z 21019G27KT 10SM BKN140 BKN250 28/00 A2990 RMK AO2 PK WND 23031/2312 SLP076 VIRGA DSNT NW T02830000 10317 20283 56012","lat":33.6658,"lon":-101.8233,"elev":996,"name":"Lubbock Intl Arpt, TX, US","cover":"BKN","clouds":[{"cover":"BKN","base":14000},{"cover":"BKN","base":25000}],"fltCat":"VFR"},{"icaoId":"KRTN","receiptTime":"2026-04-13T23:57:00.301Z","obsTime":1776124380,"reportTime":"2026-04-14T00:00:00.000Z","temp":20,"dewp":-6.1,"wdir":250,"wspd":14,"visib":"10+","altim":1012.6,"slp":1006.3,"qcField":6,"presTend":-1,"maxT":22.2,"minT":18.3,"metarType":"METAR","rawOb":"METAR KRTN 132353Z AUTO 25014KT 10SM OVC120 20/M06 A2990 RMK AO2 SLP063 T02001061 10222 20183 55010","lat":36.7418,"lon":-104.5076,"elev":1939,"name":"Raton/Crews Fld, NM, US","cover":"OVC","clouds":[{"cover":"OVC","base":12000}],"fltCat":"VFR"},{"icaoId":"KMSY","receiptTime":"2026-04-13T23:57:00.936Z","obsTime":1776124380,"reportTime":"2026-04-14T00:00:00.000Z","temp":25,"dewp":16.7,"wdir":160,"wspd":7,"visib":"10+","altim":1021.4,"slp":1021.4,"qcField":4,"presTend":-0.9,"maxT":27.8,"minT":25,"metarType":"METAR","rawOb":"METAR KMSY 132353Z 16007KT 10SM FEW042 25/17 A3016 RMK AO2 SLP214 T02500167 10278 20250 56009","lat":29.9974,"lon":-90.2777,"elev":0,"name":"New Orleans/Armstrong Intl, LA, US","cover":"FEW","clouds":[{"cover":"FEW","base":4200}],"fltCat":"VFR"},{"icaoId":"KASE","receiptTime":"2026-04-13T23:57:01.860Z","obsTime":1776124380,"reportTime":"2026-04-14T00:00:00.000Z","temp":12.2,"dewp":-8.9,"wdir":260,"wspd":11,"wgst":18,"visib":"10+","altim":1014.3,"slp":1005.5,"qcField":4,"presTend":-0.6,"maxT":14.4,"minT":10.6,"metarType":"METAR","rawOb":"METAR KASE 132353Z 26011G18KT 10SM SCT090 12/M09 A2995 RMK AO2 SLP055 T01221089 10144 20106 56006","lat":39.2299,"lon":-106.8705,"elev":2384,"name":"Aspen/Pitkin Cnty, CO, US","cover":"SCT","clouds":[{"cover":"SCT","base":9000}],"fltCat":"VFR"},{"icaoId":"KCPR","receiptTime":"2026-04-13T23:57:02.021Z","obsTime":1776124380,"reportTime":"2026-04-14T00:00:00.000Z","temp":15,"dewp":-15,"wdir":250,"wspd":22,"wgst":36,"visib":"10+","altim":1010.2,"slp":1007.1,"qcField":4,"presTend":-0.2,"maxT":16.7,"minT":13.9,"metarType":"METAR","rawOb":"METAR KCPR 132353Z 25022G36KT 10SM CLR 15/M15 A2983 RMK AO2 PK WND 25041/2319 SLP071 T01501150 10167 20139 55002","lat":42.8978,"lon":-106.4736,"elev":1623,"name":"Casper/Natrona Cnty, WY, US","cover":"CLR","clouds":[],"fltCat":"VFR"},{"icaoId":"KCYS","receiptTime":"2026-04-13T23:57:02.146Z","obsTime":1776124380,"reportTime":"2026-04-14T00:00:00.000Z","temp":16.1,"dewp":-9.4,"wdir":300,"wspd":10,"wgst":17,"visib":"10+","altim":1010.2,"slp":1004.8,"qcField":4,"presTend":-0.7,"maxT":18.3,"minT":15.6,"metarType":"METAR","rawOb":"METAR KCYS 132353Z 30010G17KT 10SM CLR 16/M09 A2983 RMK AO2 SLP048 T01611094 10183 20156 56007","lat":41.1579,"lon":-104.8081,"elev":1868,"name":"Cheyenne Rgnl, WY, US","cover":"CLR","clouds":[],"fltCat":"VFR"},{"icaoId":"KDEN","receiptTime":"2026-04-13T23:57:02.230Z","obsTime":1776124380,"reportTime":"2026-04-14T00:00:00.000Z","temp":21.1,"dewp":-13.3,"wdir":10,"wspd":17,"wgst":23,"visib":"10+","altim":1007.5,"slp":1001.5,"qcField":4,"presTend":-1.3,"maxT":22.8,"minT":17.8,"metarType":"METAR","rawOb":"METAR KDEN 132353Z 01017G23KT 10SM FEW100 BKN150 BKN220 21/M13 A2975 RMK AO2 SLP015 VIRGA T02111133 10228 20178 55013","lat":39.8466,"lon":-104.6562,"elev":1656,"name":"Denver Intl, CO, US","cover":"BKN","clouds":[{"cover":"FEW","base":10000},{"cover":"BKN","base":15000},{"cover":"BKN","base":22000}],"fltCat":"VFR"},{"icaoId":"KDFW","receiptTime":"2026-04-13T23:57:02.244Z","obsTime":1776124380,"reportTime":"2026-04-14T00:00:00.000Z","temp":27.2,"dewp":20,"wdir":170,"wspd":17,"wgst":23,"visib":"10+","altim":1013.6,"slp":1012.6,"qcField":4,"presTend":-1,"maxT":29.4,"minT":26.7,"metarType":"METAR","rawOb":"METAR KDFW 132353Z 17017G23KT 10SM FEW034 FEW180 BKN250 27/20 A2993 RMK AO2 SLP126 T02720200 10294 20267 56010","lat":32.8974,"lon":-97.022,"elev":168,"name":"Dallas-Ft Worth Intl, TX, US","cover":"BKN","clouds":[{"cover":"FEW","base":3400},{"cover":"FEW","base":18000},{"cover":"BKN","base":25000}],"fltCat":"VFR"},{"icaoId":"KAMA","receiptTime":"2026-04-13T23:57:03.034Z","obsTime":1776124380,"reportTime":"2026-04-14T00:00:00.000Z","temp":27.8,"dewp":-1.1,"wdir":240,"wspd":24,"wgst":34,"visib":"10+","altim":1011.9,"slp":1007.3,"qcField":4,"presTend":-1.3,"maxT":30,"minT":27.8,"metarType":"METAR","rawOb":"METAR KAMA 132353Z 24024G34KT 10SM CLR 28/M01 A2988 RMK AO2 PK WND 25038/2315 SLP073 T02781011 10300 20278 55013","lat":35.2203,"lon":-101.7173,"elev":1102,"name":"Amarillo Intl Arpt, TX, US","cover":"CLR","clouds":[],"fltCat":"VFR"},{"icaoId":"KPRC","receiptTime":"2026-04-13T23:57:03.277Z","obsTime":1776124380,"reportTime":"2026-04-14T00:00:00.000Z","temp":11.7,"dewp":3.9,"wdir":230,"wspd":14,"visib":"10+","altim":1013.6,"slp":1009.3,"qcField":4,"wxString":"-RA","presTend":-1.6,"maxT":17.2,"minT":11.1,"precip":0.005,"pcp6hr":0.005,"metarType":"METAR","rawOb":"METAR KPRC 132353Z 23014KT 10SM -RA BKN055 OVC080 12/04 A2993 RMK AO2 PK WND 17030/2308 RAB31 SLP093 P0000 60000 T01170039 10172 20111 56016","lat":34.6491,"lon":-112.4223,"elev":1528,"name":"Prescott/Love Fld, AZ, US","cover":"OVC","clouds":[{"cover":"BKN","base":5500},{"cover":"OVC","base":8000}],"fltCat":"VFR"},{"icaoId":"KPSP","receiptTime":"2026-04-13T23:57:03.315Z","obsTime":1776124380,"reportTime":"2026-04-14T00:00:00.000Z","temp":20.6,"dewp":1.7,"visib":"10+","altim":1013.3,"slp":1013.1,"qcField":4,"presTend":-1.7,"maxT":22.8,"minT":19.4,"pcp6hr":0.005,"metarType":"METAR","rawOb":"METAR KPSP 132353Z 10SM SCT100 21/02 A2992 RMK AO2 SLP131 60000 T02060017 10228 20194 56017","lat":33.8222,"lon":-116.5043,"elev":123,"name":"Palm Springs Intl, CA, US","cover":"SCT","clouds":[{"cover":"SCT","base":10000}],"fltCat":"VFR"},{"icaoId":"KRIW","receiptTime":"2026-04-13T23:57:03.428Z","obsTime":1776124380,"reportTime":"2026-04-14T00:00:00.000Z","temp":13.3,"dewp":-13.3,"wdir":260,"wspd":14,"wgst":19,"visib":"10+","altim":1010.2,"slp":1007.5,"qcField":6,"presTend":-0.7,"maxT":13.9,"minT":11.7,"metarType":"METAR","rawOb":"METAR KRIW 132353Z AUTO 26014G19KT 10SM CLR 13/M13 A2983 RMK AO2 PK WND 28027/2302 SLP075 T01331133 10139 20117 56007","lat":43.0622,"lon":-108.4471,"elev":1662,"name":"Riverton Rgnl, WY, US","cover":"CLR","clouds":[],"fltCat":"VFR"},{"icaoId":"KRNO","receiptTime":"2026-04-13T23:57:03.480Z","obsTime":1776124380,"reportTime":"2026-04-14T00:00:00.000Z","temp":13.9,"dewp":-5,"wdir":300,"wspd":11,"wgst":17,"visib":"10+","altim":1015.7,"slp":1014,"qcField":4,"presTend":-1.1,"maxT":14.4,"minT":7.8,"metarType":"METAR","rawOb":"METAR KRNO 132353Z 30011G17KT 10SM BKN080 14/M05 A2999 RMK AO2 WSHFT 2333 SLP140 T01391050 10144 20078 56011","lat":39.5077,"lon":-119.7683,"elev":1344,"name":"Reno/Tahoe Intl, NV, US","cover":"BKN","clouds":[{"cover":"BKN","base":8000}],"fltCat":"VFR"},{"icaoId":"KSBA","receiptTime":"2026-04-13T23:57:03.628Z","obsTime":1776124380,"reportTime":"2026-04-14T00:00:00.000Z","temp":19.4,"dewp":7.8,"wdir":270,"wspd":16,"wgst":26,"visib":"10+","altim":1015,"slp":1014.8,"qcField":12,"presTend":-1.2,"maxT":20.6,"minT":17.8,"metarType":"METAR","rawOb":"METAR KSBA 132353Z 27016G26KT 10SM CLR 19/08 A2997 RMK AO2 PK WND 28029/2322 SLP148 T01940078 10206 20178 56012 $","lat":34.4241,"lon":-119.8425,"elev":2,"name":"Santa Barbara Muni, CA, US","cover":"CLR","clouds":[],"fltCat":"VFR"},{"icaoId":"KSEA","receiptTime":"2026-04-13T23:57:03.668Z","obsTime":1776124380,"reportTime":"2026-04-14T00:00:00.000Z","temp":12.8,"dewp":3.9,"wdir":210,"wspd":15,"visib":"10+","altim":1017.7,"slp":1018.3,"qcField":4,"maxT":12.8,"minT":10.6,"metarType":"METAR","rawOb":"METAR KSEA 132353Z 21015KT 10SM FEW030 SCT045 BKN060 13/04 A3005 RMK AO2 SLP183 T01280039 10128 20106 50000","lat":47.4447,"lon":-122.3144,"elev":115,"name":"Seattle-Tacoma Intl, WA, US","cover":"BKN","clouds":[{"cover":"FEW","base":3000},{"cover":"SCT","base":4500},{"cover":"BKN","base":6000}],"fltCat":"VFR"},{"icaoId":"KTUL","receiptTime":"2026-04-13T23:57:04.916Z","obsTime":1776124380,"reportTime":"2026-04-14T00:00:00.000Z","temp":27.2,"dewp":19.4,"wdir":170,"wspd":22,"wgst":31,"visib":"10+","altim":1010.2,"slp":1009.2,"qcField":4,"presTend":-1.2,"maxT":29.4,"minT":26.7,"metarType":"METAR","rawOb":"METAR KTUL 132353Z 17022G31KT 10SM SCT042 BKN250 27/19 A2983 RMK AO2 PK WND 18032/2336 SLP092 T02720194 10294 20267 55012","lat":36.1985,"lon":-95.8782,"elev":196,"name":"Tulsa Intl Arpt, OK, US","cover":"BKN","clouds":[{"cover":"SCT","base":4200},{"cover":"BKN","base":25000}],"fltCat":"VFR"},{"icaoId":"KLVS","receiptTime":"2026-04-13T23:57:05.602Z","obsTime":1776124380,"reportTime":"2026-04-14T00:00:00.000Z","temp":16.1,"dewp":-1.7,"wdir":210,"wspd":17,"wgst":29,"visib":"10+","altim":1016.7,"slp":1008.4,"qcField":14,"presTend":-0.5,"maxT":18.3,"minT":16.1,"metarType":"METAR","rawOb":"METAR KLVS 132353Z AUTO 21017G29KT 10SM FEW070 16/M02 A3002 RMK AO2 PK WND 19036/2255 SLP084 6//// T01611017 10183 20161 55005 PNO $","lat":35.6558,"lon":-105.1385,"elev":2095,"name":"Las Vegas Muni, NM, US","cover":"FEW","clouds":[{"cover":"FEW","base":7000}],"fltCat":"VFR"},{"icaoId":"KMAF","receiptTime":"2026-04-13T23:57:05.688Z","obsTime":1776124380,"reportTime":"2026-04-14T00:00:00.000Z","temp":27.2,"dewp":10,"wdir":170,"wspd":18,"wgst":25,"visib":"10+","altim":1013.6,"slp":1009.4,"qcField":4,"presTend":-1.5,"maxT":31.7,"minT":27.2,"metarType":"METAR","rawOb":"METAR KMAF 132353Z 17018G25KT 10SM CLR 27/10 A2993 RMK AO2 PK WND 16028/2317 WSHFT 2312 SLP094 T02720100 10317 20272 56015","lat":31.9475,"lon":-102.2086,"elev":874,"name":"Midland Intl, TX, US","cover":"CLR","clouds":[],"fltCat":"VFR"},{"icaoId":"KIDA","receiptTime":"2026-04-13T23:57:05.926Z","obsTime":1776124380,"reportTime":"2026-04-14T00:00:00.000Z","temp":6.7,"dewp":-0.6,"wdir":260,"wspd":18,"wgst":25,"visib":"10+","altim":1014,"slp":1014.2,"qcField":4,"presTend":0.3,"maxT":10.6,"minT":6.7,"precip":0.005,"pcp6hr":0.005,"metarType":"METAR","rawOb":"METAR KIDA 132353Z 26018G25KT 10SM BKN050 OVC065 07/M01 A2994 RMK AO2 RAB15E28 SLP142 P0000 60000 T00671006 10106 20067 53003","lat":43.5204,"lon":-112.0675,"elev":1444,"name":"Idaho Falls Rgnl, ID, US","cover":"OVC","clouds":[{"cover":"BKN","base":5000},{"cover":"OVC","base":6500}],"fltCat":"VFR"},{"icaoId":"KLAX","receiptTime":"2026-04-13T23:57:06.028Z","obsTime":1776124380,"reportTime":"2026-04-14T00:00:00.000Z","temp":18.3,"dewp":7.8,"wdir":250,"wspd":19,"visib":"10+","altim":1016.3,"slp":1016.1,"qcField":12,"presTend":-0.9,"maxT":18.9,"minT":16.7,"metarType":"METAR","rawOb":"METAR KLAX 132353Z 25019KT 10SM FEW075 FEW100 18/08 A3001 RMK AO2 SLP161 T01830078 10189 20167 56009 $","lat":33.9382,"lon":-118.3866,"elev":30,"name":"Los Angeles Intl, CA, US","cover":"FEW","clouds":[{"cover":"FEW","base":7500},{"cover":"FEW","base":10000}],"fltCat":"VFR"},{"icaoId":"KLGB","receiptTime":"2026-04-13T23:57:06.068Z","obsTime":1776124380,"reportTime":"2026-04-14T00:00:00.000Z","temp":18.9,"dewp":5,"wdir":270,"wspd":11,"visib":"10+","altim":1016.3,"slp":1016,"qcField":12,"presTend":-0.8,"maxT":20,"minT":17.2,"metarType":"METAR","rawOb":"METAR KLGB 132353Z 27011KT 10SM CLR 19/05 A3001 RMK AO2 SLP160 T01890050 10200 20172 55008 $","lat":33.8118,"lon":-118.1472,"elev":10,"name":"Long Beach Arpt, CA, US","cover":"CLR","clouds":[],"fltCat":"VFR"},{"icaoId":"KLOL","receiptTime":"2026-04-13T23:57:06.176Z","obsTime":1776124380,"reportTime":"2026-04-14T00:00:00.000Z","temp":13.9,"dewp":-6.7,"wdir":0,"wspd":0,"visib":"10+","altim":1014.6,"slp":1014.6,"qcField":14,"presTend":-1.4,"maxT":15,"minT":9.4,"metarType":"METAR","rawOb":"METAR KLOL 132353Z AUTO 00000KT 10SM CLR 14/M07 A2996 RMK AO2 SLP146 T01391067 10150 20094 56014 $","lat":40.0684,"lon":-118.5702,"elev":1191,"name":"Lovelock/Derby Fld, NV, US","cover":"CLR","clouds":[],"fltCat":"VFR"},{"icaoId":"KMCO","receiptTime":"2026-04-13T23:57:06.364Z","obsTime":1776124380,"reportTime":"2026-04-14T00:00:00.000Z","temp":22.8,"dewp":14.4,"wdir":90,"wspd":9,"visib":"10+","altim":1024.5,"slp":1024.3,"qcField":4,"presTend":0.5,"maxT":27.8,"minT":22.8,"metarType":"METAR","rawOb":"METAR KMCO 132353Z 09009KT 10SM FEW042 SCT250 23/14 A3025 RMK AO2 SLP243 T02280144 10278 20228 53005","lat":28.4182,"lon":-81.3241,"elev":27,"name":"Orlando Intl, FL, US","cover":"SCT","clouds":[{"cover":"FEW","base":4200},{"cover":"SCT","base":25000}],"fltCat":"VFR"},{"icaoId":"KMFR","receiptTime":"2026-04-13T23:57:06.384Z","obsTime":1776124380,"reportTime":"2026-04-14T00:00:00.000Z","temp":14.4,"dewp":4.4,"wdir":320,"wspd":9,"visib":"10+","altim":1019,"slp":1018.9,"qcField":12,"presTend":-0.6,"maxT":15.6,"minT":10.6,"pcp6hr":0.005,"metarType":"METAR","rawOb":"METAR KMFR 132353Z 32009KT 10SM BKN060 14/04 A3009 RMK AO2 SLP189 60000 T01440044 10156 20106 56006 $","lat":42.375,"lon":-122.877,"elev":397,"name":"Medford/Rogue Valley Intl, OR, US","cover":"BKN","clouds":[{"cover":"BKN","base":6000}],"fltCat":"VFR"},{"icaoId":"KPIH","receiptTime":"2026-04-13T23:57:06.634Z","obsTime":1776124380,"reportTime":"2026-04-14T00:00:00.000Z","temp":8.3,"dewp":-0.6,"wdir":260,"wspd":13,"wgst":22,"visib":"10+","altim":1014,"slp":1013.8,"qcField":4,"presTend":-0.1,"maxT":13.3,"minT":8.3,"metarType":"METAR","rawOb":"METAR KPIH 132353Z 26013G22KT 10SM BKN075 OVC090 08/M01 A2994 RMK AO2 PK WND 26026/2322 SLP138 T00831006 10133 20083 55001","lat":42.9197,"lon":-112.5723,"elev":1357,"name":"Pocatello Rgnl, ID, US","cover":"OVC","clouds":[{"cover":"BKN","base":7500},{"cover":"OVC","base":9000}],"fltCat":"VFR"},{"icaoId":"KBRO","receiptTime":"2026-04-13T23:57:06.832Z","obsTime":1776124380,"reportTime":"2026-04-14T00:00:00.000Z","temp":26.7,"dewp":21.7,"wdir":120,"wspd":12,"visib":"10+","altim":1015.7,"slp":1015.3,"qcField":4,"presTend":-1,"maxT":30,"minT":26.7,"metarType":"METAR","rawOb":"METAR KBRO 132353Z 12012KT 10SM BKN024 BKN038 27/22 A2999 RMK AO2 SLP153 T02670217 10300 20267 55010","lat":25.9146,"lon":-97.4231,"elev":6,"name":"Brownsville Intl, TX, US","cover":"BKN","clouds":[{"cover":"BKN","base":2400},{"cover":"BKN","base":3800}],"fltCat":"MVFR"},{"icaoId":"KMSP","receiptTime":"2026-04-13T23:57:06.970Z","obsTime":1776124380,"reportTime":"2026-04-14T00:00:00.000Z","temp":16.1,"dewp":10,"wdir":30,"wspd":12,"wgst":21,"visib":"10+","altim":1004.8,"slp":1004.7,"qcField":4,"presTend":-0.8,"maxT":22.2,"minT":16.1,"pcp6hr":0.005,"metarType":"METAR","rawOb":"METAR KMSP 132353Z 03012G21KT 10SM FEW028 SCT110 BKN200 16/10 A2967 RMK AO2 LTG DSNT SE-SW SLP047 VIRGA 60000 T01610100 10222 20161 58008","lat":44.8852,"lon":-93.2313,"elev":255,"name":"Minneapolis-St Paul Intl, MN, US","cover":"BKN","clouds":[{"cover":"FEW","base":2800},{"cover":"SCT","base":11000},{"cover":"BKN","base":20000}],"fltCat":"VFR"},{"icaoId":"KELY","receiptTime":"2026-04-13T23:57:06.991Z","obsTime":1776124380,"reportTime":"2026-04-14T00:00:00.000Z","temp":8.9,"dewp":-3.3,"wdir":10,"wspd":9,"visib":"10+","altim":1013.3,"slp":1012.6,"qcField":6,"presTend":-1.8,"maxT":9.4,"minT":-1.1,"metarType":"METAR","rawOb":"METAR KELY 132353Z AUTO 01009KT 10SM BKN110 09/M03 A2992 RMK AO2 SLP126 T00891033 10094 21011 56018","lat":39.2954,"lon":-114.8466,"elev":1906,"name":"Ely/Yelland Fld, NV, US","cover":"BKN","clouds":[{"cover":"BKN","base":11000}],"fltCat":"VFR"},{"icaoId":"KBCE","receiptTime":"2026-04-13T23:57:07.376Z","obsTime":1776124380,"reportTime":"2026-04-14T00:00:00.000Z","temp":6.7,"dewp":-2.2,"wdir":140,"wspd":7,"visib":"10+","altim":1013.6,"slp":1007.4,"qcField":6,"presTend":-1.7,"maxT":9.4,"minT":3.9,"precip":0.005,"pcp6hr":0.005,"metarType":"METAR","rawOb":"METAR KBCE 132353Z AUTO 14007KT 10SM FEW044 BKN055 BKN070 07/M02 A2993 RMK AO2 PK WND 15027/2258 RAB01E16 SLP074 P0000 60000 T00671022 10094 20039 56017","lat":37.7013,"lon":-112.149,"elev":2311,"name":"Bryce Canyon Arpt, UT, US","cover":"BKN","clouds":[{"cover":"FEW","base":4400},{"cover":"BKN","base":5500},{"cover":"BKN","base":7000}],"fltCat":"VFR"},{"icaoId":"KBOI","receiptTime":"2026-04-13T23:57:07.655Z","obsTime":1776124380,"reportTime":"2026-04-14T00:00:00.000Z","temp":9.4,"dewp":5,"wdir":90,"wspd":3,"visib":"10+","altim":1016,"slp":1015.9,"qcField":4,"presTend":-0.4,"maxT":9.4,"minT":4.4,"pcp6hr":0.03,"metarType":"METAR","rawOb":"METAR KBOI 132353Z 09003KT 10SM SCT070 BKN090 BKN110 09/05 A3000 RMK AO2 SLP159 60003 T00940050 10094 20044 58004","lat":43.567,"lon":-116.2406,"elev":860,"name":"Boise Arpt, ID, US","cover":"BKN","clouds":[{"cover":"SCT","base":7000},{"cover":"BKN","base":9000},{"cover":"BKN","base":11000}],"fltCat":"VFR"},{"icaoId":"KBUR","receiptTime":"2026-04-13T23:57:07.788Z","obsTime":1776124380,"reportTime":"2026-04-14T00:00:00.000Z","temp":16.1,"dewp":5,"wdir":200,"wspd":4,"visib":"10+","altim":1016,"slp":1015.1,"qcField":4,"presTend":-1.1,"maxT":18.3,"minT":12.2,"pcp6hr":0.09,"metarType":"METAR","rawOb":"METAR KBUR 132353Z 20004KT 10SM BKN070 OVC080 16/05 A3000 RMK AO2 SLP151 60009 T01610050 10183 20122 56011","lat":34.1996,"lon":-118.3654,"elev":221,"name":"Burbank/Bob Hope Arpt, CA, US","cover":"OVC","clouds":[{"cover":"BKN","base":7000},{"cover":"OVC","base":8000}],"fltCat":"VFR"},{"icaoId":"KCDC","receiptTime":"2026-04-13T23:57:07.871Z","obsTime":1776124380,"reportTime":"2026-04-14T00:00:00.000Z","temp":6.7,"dewp":3.3,"wdir":10,"wspd":5,"visib":6,"altim":1013,"slp":1010.6,"qcField":6,"wxString":"-RA","presTend":-0.5,"maxT":12.2,"minT":6.1,"precip":0.03,"pcp6hr":0.09,"metarType":"METAR","rawOb":"METAR KCDC 132353Z AUTO 01005KT 6SM -RA FEW017 BKN030 OVC040 07/03 A2991 RMK AO2 RAB01 SLP106 P0003 60009 T00670033 10122 20061 55005","lat":37.7067,"lon":-113.097,"elev":1703,"name":"Cedar City Muni, UT, US","cover":"OVC","clouds":[{"cover":"FEW","base":1700},{"cover":"BKN","base":3000},{"cover":"OVC","base":4000}],"fltCat":"MVFR"},{"icaoId":"KCNY","receiptTime":"2026-04-13T23:57:08.030Z","obsTime":1776124380,"reportTime":"2026-04-14T00:00:00.000Z","temp":18.9,"dewp":-7.8,"wdir":210,"wspd":18,"wgst":25,"visib":"10+","altim":1009.6,"slp":1006.2,"qcField":14,"presTend":-2.3,"maxT":20,"minT":15.6,"metarType":"METAR","rawOb":"METAR KCNY 132353Z AUTO 21018G25KT 10SM CLR 19/M08 A2981 RMK AO2 SLP062 T01891078 10200 20156 56023 $","lat":38.7501,"lon":-109.7627,"elev":1392,"name":"Moab/Canyonland Fld, UT, US","cover":"CLR","clouds":[],"fltCat":"VFR"},{"icaoId":"KGEG","receiptTime":"2026-04-13T23:57:06.543Z","obsTime":1776124380,"reportTime":"2026-04-14T00:00:00.000Z","temp":14.4,"dewp":1.7,"wdir":220,"wspd":20,"wgst":28,"visib":"10+","altim":1010.2,"slp":1010.1,"qcField":12,"presTend":-0.1,"maxT":15,"minT":8.3,"metarType":"METAR","rawOb":"METAR KGEG 132353Z 22020G28KT 10SM FEW007 BKN050 BKN100 14/02 A2983 RMK AO2 PK WND 23028/2352 SLP101 SHRA DSNT NE T01440017 10150 20083 55001 $","lat":47.6217,"lon":-117.528,"elev":718,"name":"Spokane Intl, WA, US","cover":"BKN","clouds":[{"cover":"FEW","base":700},{"cover":"BKN","base":5000},{"cover":"BKN","base":10000}],"fltCat":"VFR"},{"icaoId":"KFAT","receiptTime":"2026-04-13T23:57:06.655Z","obsTime":1776124380,"reportTime":"2026-04-14T00:00:00.000Z","temp":19.4,"dewp":5.6,"wdir":300,"wspd":11,"visib":"10+","altim":1017,"slp":1016.8,"qcField":4,"presTend":-1.3,"maxT":20,"minT":13.9,"metarType":"METAR","rawOb":"METAR KFAT 132353Z 30011KT 10SM SCT055 BKN085 BKN180 19/06 A3003 RMK AO2 SLP168 T01940056 10200 20139 56013","lat":36.78,"lon":-119.7202,"elev":102,"name":"Fresno/Yosemite Intl, CA, US","cover":"BKN","clouds":[{"cover":"SCT","base":5500},{"cover":"BKN","base":8500},{"cover":"BKN","base":18000}],"fltCat":"VFR"},{"icaoId":"KMYR","receiptTime":"2026-04-13T23:56:06.628Z","obsTime":1776124380,"reportTime":"2026-04-14T00:00:00.000Z","temp":20,"dewp":17.2,"wdir":180,"wspd":8,"visib":"10+","altim":1024.8,"slp":1024.6,"qcField":12,"presTend":-0.6,"maxT":24.4,"minT":20,"metarType":"METAR","rawOb":"METAR KMYR 132353Z 18008KT 10SM CLR 20/17 A3026 RMK AO2 SLP246 T02000172 10244 20200 58006 $","lat":33.6769,"lon":-78.9325,"elev":7,"name":"Myrtle Beach Intl, SC, US","cover":"CLR","clouds":[],"fltCat":"VFR"},{"icaoId":"KAPA","receiptTime":"2026-04-13T23:57:01.809Z","obsTime":1776124380,"reportTime":"2026-04-14T00:00:00.000Z","temp":20,"dewp":-13.9,"wdir":360,"wspd":14,"visib":"10+","altim":1008.2,"slp":1003.5,"qcField":4,"presTend":-0.5,"maxT":22.2,"minT":17.8,"metarType":"METAR","rawOb":"METAR KAPA 132353Z 36014KT 10SM SCT100 BKN140 BKN220 20/M14 A2977 RMK AO2 WSHFT 2300 SLP035 VIRGA ALQDS T02001139 10222 20178 55005","lat":39.5599,"lon":-104.8484,"elev":1791,"name":"Denver/Centennial Arpt, CO, US","cover":"BKN","clouds":[{"cover":"SCT","base":10000},{"cover":"BKN","base":14000},{"cover":"BKN","base":22000}],"fltCat":"VFR"},{"icaoId":"KLAR","receiptTime":"2026-04-13T23:56:59.481Z","obsTime":1776124380,"reportTime":"2026-04-14T00:00:00.000Z","temp":12.2,"dewp":-8.3,"wdir":260,"wspd":15,"wgst":25,"visib":"10+","altim":1012.3,"slp":1006.3,"qcField":6,"presTend":-0.6,"maxT":13.9,"minT":10.6,"metarType":"METAR","rawOb":"METAR KLAR 132353Z AUTO 26015G25KT 10SM BKN095 BKN120 12/M08 A2989 RMK AO2 PK WND 27026/2307 SLP063 T01221083 10139 20106 55006","lat":41.3165,"lon":-105.6729,"elev":2217,"name":"Laramie Rgnl, WY, US","cover":"BKN","clouds":[{"cover":"BKN","base":9500},{"cover":"BKN","base":12000}],"fltCat":"VFR"},{"icaoId":"KLAW","receiptTime":"2026-04-13T23:56:59.496Z","obsTime":1776124380,"reportTime":"2026-04-14T00:00:00.000Z","temp":28.3,"dewp":19.4,"wdir":170,"wspd":15,"wgst":26,"visib":"10+","altim":1009.9,"slp":1008.8,"qcField":6,"presTend":-1,"maxT":31.7,"minT":28.3,"metarType":"METAR","rawOb":"METAR KLAW 132353Z AUTO 17015G26KT 10SM CLR 28/19 A2982 RMK AO2 PK WND 16033/2301 SLP088 T02830194 10317 20283 55010","lat":34.5577,"lon":-98.4172,"elev":328,"name":"Lawton-Fort Sill Rgnl, OK, US","cover":"CLR","clouds":[],"fltCat":"VFR"},{"icaoId":"KTUS","receiptTime":"2026-04-13T23:57:04.932Z","obsTime":1776124380,"reportTime":"2026-04-14T00:00:00.000Z","temp":24.4,"dewp":1.1,"wdir":200,"wspd":19,"wgst":27,"visib":"10+","altim":1014.3,"slp":1010.5,"qcField":4,"presTend":-1.4,"maxT":26.1,"minT":23.3,"metarType":"METAR","rawOb":"METAR KTUS 132353Z 20019G27KT 10SM CLR 24/01 A2995 RMK AO2 PK WND 19035/2307 SLP105 T02440011 10261 20233 56014","lat":32.1315,"lon":-110.9564,"elev":776,"name":"Tucson Intl Arpt, AZ, US","cover":"CLR","clouds":[],"fltCat":"VFR"},{"icaoId":"KPNC","receiptTime":"2026-04-13T23:57:00.051Z","obsTime":1776124380,"reportTime":"2026-04-14T00:00:00.000Z","temp":29.4,"dewp":18.3,"wdir":190,"wspd":10,"wgst":19,"visib":"10+","altim":1007.5,"slp":1005.9,"qcField":6,"presTend":-1.1,"maxT":30.6,"minT":26.7,"metarType":"METAR","rawOb":"METAR KPNC 132353Z AUTO 19010G19KT 10SM CLR 29/18 A2975 RMK AO2 PK WND 21026/2306 SLP059 T02940183 10306 20267 55011","lat":36.7369,"lon":-97.1024,"elev":304,"name":"Ponca City Rgnl, OK, US","cover":"CLR","clouds":[],"fltCat":"VFR"},{"icaoId":"KMTJ","receiptTime":"2026-04-13T23:57:00.951Z","obsTime":1776124380,"reportTime":"2026-04-14T00:00:00.000Z","temp":17.8,"dewp":-7.2,"wdir":250,"wspd":15,"wgst":23,"visib":"10+","altim":1012.6,"slp":1006.7,"qcField":6,"presTend":-1.2,"maxT":19.4,"minT":16.1,"metarType":"METAR","rawOb":"METAR KMTJ 132353Z AUTO 25015G23KT 10SM CLR 18/M07 A2990 RMK AO2 PK WND 25028/2259 SLP067 T01781072 10194 20161 56012","lat":38.5054,"lon":-107.8981,"elev":1755,"name":"Montrose Rgnl, CO, US","cover":"CLR","clouds":[],"fltCat":"VFR"},{"icaoId":"KMDW","receiptTime":"2026-04-13T23:57:00.672Z","obsTime":1776124380,"reportTime":"2026-04-14T00:00:00.000Z","temp":23.3,"dewp":13.9,"wdir":180,"wspd":6,"visib":"10+","altim":1010.2,"slp":1009.4,"qcField":4,"wxString":"TS","presTend":-0.9,"maxT":26.1,"minT":22.2,"pcp6hr":0.01,"metarType":"METAR","rawOb":"METAR KMDW 132353Z 18006KT 10SM TS SCT065CB SCT100 BKN150 BKN250 23/14 A2983 RMK AO2 TSB31 SLP094 OCNL LTGICCG N-NE TS N-NE MOV E 60001 T02330139 10261 20222 56009","lat":41.7841,"lon":-87.7552,"elev":186,"name":"Chicago/Midway Intl, IL, US","cover":"BKN","clouds":[{"cover":"SCT","base":6500},{"cover":"SCT","base":10000},{"cover":"BKN","base":15000},{"cover":"BKN","base":25000}],"fltCat":"VFR"},{"icaoId":"KBTM","receiptTime":"2026-04-13T23:57:07.765Z","obsTime":1776124380,"reportTime":"2026-04-14T00:00:00.000Z","temp":9.4,"dewp":-6.1,"wdir":290,"wspd":10,"wgst":16,"visib":"10+","altim":1009.9,"slp":1009.2,"qcField":6,"presTend":-0.4,"maxT":10,"minT":5.6,"metarType":"METAR","rawOb":"METAR KBTM 132353Z AUTO 29010G16KT 10SM FEW070 BKN085 09/M06 A2982 RMK AO2 SLP092 T00941061 10100 20056 55004","lat":45.9644,"lon":-112.5015,"elev":1680,"name":"Butte/Mooney Arpt, MT, US","cover":"BKN","clouds":[{"cover":"FEW","base":7000},{"cover":"BKN","base":8500}],"fltCat":"VFR"},{"icaoId":"KCRQ","receiptTime":"2026-04-13T23:57:08.055Z","obsTime":1776124380,"reportTime":"2026-04-14T00:00:00.000Z","temp":17.2,"dewp":8.3,"wdir":250,"wspd":11,"visib":"10+","altim":1017,"slp":1016.7,"qcField":4,"presTend":-1.2,"maxT":17.2,"minT":15,"pcp6hr":0.01,"metarType":"METAR","rawOb":"METAR KCRQ 132353Z 25011KT 10SM CLR 17/08 A3003 RMK AO2 SLP167 60001 T01720083 10172 20150 56012","lat":33.1299,"lon":-117.2765,"elev":96,"name":"Carlsbad/Palomar Arpt, CA, US","cover":"CLR","clouds":[],"fltCat":"VFR"},{"icaoId":"KPSC","receiptTime":"2026-04-13T23:57:03.297Z","obsTime":1776124380,"reportTime":"2026-04-14T00:00:00.000Z","temp":18.9,"dewp":0.6,"wdir":220,"wspd":23,"wgst":31,"visib":"10+","altim":1012.6,"slp":1012.3,"qcField":4,"presTend":0.2,"maxT":21.1,"minT":18.3,"metarType":"METAR","rawOb":"METAR KPSC 132353Z 22023G31KT 10SM SCT090 19/01 A2990 RMK AO2 PK WND 21031/2348 SLP123 T01890006 10211 20183 53002","lat":46.2695,"lon":-119.1182,"elev":121,"name":"Pasco/Tri Cities Arpt, WA, US","cover":"SCT","clouds":[{"cover":"SCT","base":9000}],"fltCat":"VFR"},{"icaoId":"KPUW","receiptTime":"2026-04-13T23:57:03.356Z","obsTime":1776124380,"reportTime":"2026-04-14T00:00:00.000Z","temp":12.2,"dewp":4.4,"wdir":230,"wspd":17,"wgst":24,"visib":"10+","altim":1013,"slp":1013.5,"qcField":6,"presTend":-0.1,"maxT":12.2,"minT":6.1,"pcp6hr":0.03,"metarType":"METAR","rawOb":"METAR KPUW 132353Z AUTO 23017G24KT 10SM FEW043 BKN070 OVC080 12/04 A2991 RMK AO2 PK WND 23027/2332 SLP135 60003 T01220044 10122 20061 55001","lat":46.7438,"lon":-117.1158,"elev":774,"name":"Pullman/Moscow Rgnl, WA, US","cover":"OVC","clouds":[{"cover":"FEW","base":4300},{"cover":"BKN","base":7000},{"cover":"OVC","base":8000}],"fltCat":"VFR"},{"icaoId":"KSTS","receiptTime":"2026-04-14T00:00:23.978Z","obsTime":1776124380,"reportTime":"2026-04-14T00:00:00.000Z","temp":17.8,"dewp":7.2,"wdir":240,"wspd":6,"visib":"10+","altim":1018.4,"slp":1017.6,"qcField":5,"presTend":-1.1,"maxT":18.9,"minT":14.4,"metarType":"METAR","rawOb":"METAR KSTS 132353Z COR 24006KT 10SM SCT055 18/07 A3007 RMK AO2 SLP176 T01780072 10189 20144 56011","lat":38.5037,"lon":-122.811,"elev":35,"name":"Santa Rosa/Schulz Arpt, CA, US","cover":"SCT","clouds":[{"cover":"SCT","base":5500}],"fltCat":"VFR"},{"icaoId":"KTWF","receiptTime":"2026-04-13T23:56:55.891Z","obsTime":1776124380,"reportTime":"2026-04-14T00:00:00.000Z","temp":10,"dewp":2.8,"wdir":270,"wspd":16,"wgst":27,"visib":"10+","altim":1015,"slp":1013.5,"qcField":4,"presTend":-0.2,"maxT":11.1,"minT":8.9,"metarType":"METAR","rawOb":"METAR KTWF 132353Z 27016G27KT 10SM BKN070 OVC080 10/03 A2997 RMK AO2 PK WND 27027/2349 SLP135 T01000028 10111 20089 55002","lat":42.4785,"lon":-114.4775,"elev":1269,"name":"Twin Falls/Joslin Fld, ID, US","cover":"OVC","clouds":[{"cover":"BKN","base":7000},{"cover":"OVC","base":8000}],"fltCat":"VFR"},{"icaoId":"KVEL","receiptTime":"2026-04-13T23:56:54.649Z","obsTime":1776124380,"reportTime":"2026-04-14T00:00:00.000Z","temp":12.8,"dewp":-5.6,"wdir":320,"wspd":7,"visib":"10+","altim":1012.6,"slp":1009.6,"qcField":6,"presTend":-0.9,"maxT":15.6,"minT":11.7,"metarType":"METAR","rawOb":"METAR KVEL 132353Z AUTO 32007KT 10SM FEW080 SCT090 BKN120 13/M06 A2990 RMK AO2 SLP096 T01281056 10156 20117 56009","lat":40.4429,"lon":-109.5128,"elev":1604,"name":"Vernal Rgnl, UT, US","cover":"BKN","clouds":[{"cover":"FEW","base":8000},{"cover":"SCT","base":9000},{"cover":"BKN","base":12000}],"fltCat":"VFR"},{"icaoId":"KSJC","receiptTime":"2026-04-13T23:56:55.180Z","obsTime":1776124380,"reportTime":"2026-04-14T00:00:00.000Z","temp":17.8,"dewp":5.6,"wdir":320,"wspd":12,"visib":"10+","altim":1018.7,"slp":1018.3,"qcField":12,"presTend":-1,"maxT":18.9,"minT":14.4,"metarType":"METAR","rawOb":"METAR KSJC 132353Z 32012KT 10SM FEW030 FEW040TCU SCT055TCU 18/06 A3008 RMK AO2 SLP183 TCU E AND W T01780056 10189 20144 56010 $","lat":37.3594,"lon":-121.9244,"elev":13,"name":"San Jose Intl Arpt, CA, US","cover":"SCT","clouds":[{"cover":"FEW","base":3000},{"cover":"FEW","base":4000},{"cover":"SCT","base":5500}],"fltCat":"VFR"},{"icaoId":"KPBI","receiptTime":"2026-04-13T23:56:57.644Z","obsTime":1776124380,"reportTime":"2026-04-14T00:00:00.000Z","temp":24.4,"dewp":16.1,"wdir":70,"wspd":13,"wgst":19,"visib":"10+","altim":1022.4,"slp":1022.3,"qcField":12,"presTend":-0.6,"maxT":27.8,"minT":24.4,"metarType":"METAR","rawOb":"METAR KPBI 132353Z 07013G19KT 10SM SCT035 BKN046 BKN250 24/16 A3019 RMK AO2 SLP223 T02440161 10278 20244 56006 $","lat":26.6851,"lon":-80.0992,"elev":4,"name":"Palm Beach Intl, FL, US","cover":"BKN","clouds":[{"cover":"SCT","base":3500},{"cover":"BKN","base":4600},{"cover":"BKN","base":25000}],"fltCat":"VFR"},{"icaoId":"KHLN","receiptTime":"2026-04-13T23:56:56.735Z","obsTime":1776124380,"reportTime":"2026-04-14T00:00:00.000Z","temp":13.3,"dewp":-3.9,"wdir":280,"wspd":14,"visib":"10+","altim":1007.5,"slp":1008.8,"qcField":4,"presTend":-0.4,"maxT":15,"minT":9.4,"metarType":"METAR","rawOb":"METAR KHLN 132353Z 28014KT 10SM OVC095 13/M04 A2975 RMK AO2 SLP088 T01331039 10150 20094 56004","lat":46.6045,"lon":-111.9892,"elev":1178,"name":"Helena Rgnl, MT, US","cover":"OVC","clouds":[{"cover":"OVC","base":9500}],"fltCat":"VFR"},{"icaoId":"KDTW","receiptTime":"2026-04-13T23:57:03.923Z","obsTime":1776124380,"reportTime":"2026-04-14T00:00:00.000Z","temp":25,"dewp":14.4,"wdir":210,"wspd":7,"visib":"10+","altim":1013.3,"slp":1012.7,"qcField":4,"presTend":0.1,"maxT":27.8,"minT":25,"metarType":"METAR","rawOb":"METAR KDTW 132353Z 21007KT 10SM FEW040 FEW060 OVC170 25/14 A2992 RMK AO2 SLP127 T02500144 10278 20250 50001","lat":42.2311,"lon":-83.3312,"elev":192,"name":"Detroit/Metro Wayne Cnty, MI, US","cover":"OVC","clouds":[{"cover":"FEW","base":4000},{"cover":"FEW","base":6000},{"cover":"OVC","base":17000}],"fltCat":"VFR"},{"icaoId":"KDVT","receiptTime":"2026-04-13T23:57:03.949Z","obsTime":1776124380,"reportTime":"2026-04-14T00:00:00.000Z","temp":24.4,"dewp":3.9,"wdir":230,"wspd":16,"wgst":21,"visib":"10+","altim":1011.9,"slp":1010,"qcField":12,"presTend":-1.7,"maxT":26.1,"minT":22.2,"metarType":"METAR","rawOb":"METAR KDVT 132353Z 23016G21KT 10SM 24/04 A2988 RMK AO2 PK WND 26027/2314 SLP100 T02440039 10261 20222 56017 $","lat":33.6902,"lon":-112.0662,"elev":454,"name":"Phoenix/Deer Valley Arpt, AZ, US"},{"icaoId":"KEVW","receiptTime":"2026-04-13T23:57:04.167Z","obsTime":1776124380,"reportTime":"2026-04-14T00:00:00.000Z","temp":6.7,"dewp":-6.7,"wdir":290,"wspd":15,"wgst":22,"visib":"10+","altim":1014,"slp":1012.3,"qcField":6,"presTend":-0.9,"maxT":8.9,"minT":4.4,"metarType":"METAR","rawOb":"METAR KEVW 132353Z AUTO 29015G22KT 10SM FEW070 07/M07 A2994 RMK AO2 SLP123 T00671067 10089 20044 55009","lat":41.2727,"lon":-111.0305,"elev":2178,"name":"Evanston/Uinta Cnty, WY, US","cover":"FEW","clouds":[{"cover":"FEW","base":7000}],"fltCat":"VFR"},{"icaoId":"KAUS","receiptTime":"2026-04-13T23:57:01.894Z","obsTime":1776124380,"reportTime":"2026-04-14T00:00:00.000Z","temp":29.4,"dewp":19.4,"wdir":150,"wspd":12,"visib":"10+","altim":1015,"slp":1013.8,"qcField":4,"presTend":-0.9,"maxT":31.7,"minT":28.3,"metarType":"METAR","rawOb":"METAR KAUS 132353Z 15012KT 10SM FEW047 BKN075 OVC200 29/19 A2997 RMK AO2 SLP138 T02940194 10317 20283 55009","lat":30.1831,"lon":-97.6806,"elev":148,"name":"Austin/Bergstrom Intl, TX, US","cover":"OVC","clouds":[{"cover":"FEW","base":4700},{"cover":"BKN","base":7500},{"cover":"OVC","base":20000}],"fltCat":"VFR"},{"icaoId":"KDMN","receiptTime":"2026-04-13T23:57:02.301Z","obsTime":1776124380,"reportTime":"2026-04-14T00:00:00.000Z","temp":20.6,"dewp":4.4,"wdir":290,"wspd":12,"wgst":22,"visib":"10+","altim":1017.7,"slp":1012.4,"qcField":6,"presTend":-0.3,"maxT":26.1,"minT":19.4,"precip":0.005,"pcp6hr":0.005,"metarType":"METAR","rawOb":"METAR KDMN 132353Z AUTO 29012G22KT 10SM FEW060 FEW075 SCT090 21/04 A3005 RMK AO2 PK WND 29041/2324 RAB27E39 SLP124 P0000 60000 T02060044 10261 20194 55003","lat":32.2592,"lon":-107.7206,"elev":1310,"name":"Deming Muni, NM, US","cover":"SCT","clouds":[{"cover":"FEW","base":6000},{"cover":"FEW","base":7500},{"cover":"SCT","base":9000}],"fltCat":"VFR"},{"icaoId":"KMCI","receiptTime":"2026-04-13T23:57:06.852Z","obsTime":1776124380,"reportTime":"2026-04-14T00:00:00.000Z","temp":25.6,"dewp":18.9,"wdir":190,"wspd":15,"wgst":27,"visib":"10+","altim":1006.2,"slp":1005.1,"qcField":4,"presTend":-1.2,"maxT":27.8,"minT":25,"metarType":"METAR","rawOb":"METAR KMCI 132353Z 19015G27KT 10SM FEW043 FEW150 BKN250 26/19 A2971 RMK AO2 PK WND 18033/2305 SLP051 CB DSNT SW MOV NE T02560189 10278 20250 56012","lat":39.2975,"lon":-94.7309,"elev":308,"name":"Kansas City Intl, MO, US","cover":"BKN","clouds":[{"cover":"FEW","base":4300},{"cover":"FEW","base":15000},{"cover":"BKN","base":25000}],"fltCat":"VFR"},{"icaoId":"KCLL","receiptTime":"2026-04-13T23:57:02.772Z","obsTime":1776124380,"reportTime":"2026-04-14T00:00:00.000Z","temp":27.2,"dewp":20.6,"wdir":150,"wspd":13,"visib":"10+","altim":1016,"slp":1015.4,"qcField":4,"presTend":-1.2,"maxT":30,"minT":27.2,"metarType":"METAR","rawOb":"METAR KCLL 132353Z 15013KT 10SM CLR 27/21 A3000 RMK AO2 SLP154 T02720206 10300 20272 56012","lat":30.5912,"lon":-96.3631,"elev":96,"name":"College Station/Easterwood Arpt, TX, US","cover":"CLR","clouds":[],"fltCat":"VFR"},{"icaoId":"KMFE","receiptTime":"2026-04-13T23:57:00.693Z","obsTime":1776124380,"reportTime":"2026-04-14T00:00:00.000Z","temp":28.3,"dewp":20.6,"wdir":140,"wspd":17,"visib":"10+","altim":1014.3,"slp":1014,"qcField":4,"presTend":-1,"maxT":32.2,"minT":28.3,"metarType":"METAR","rawOb":"METAR KMFE 132353Z 14017KT 10SM SCT039 28/21 A2995 RMK AO2 SLP140 T02830206 10322 20283 55010","lat":26.1791,"lon":-98.2445,"elev":29,"name":"McAllen/Miller Intl, TX, US","cover":"SCT","clouds":[{"cover":"SCT","base":3900}],"fltCat":"VFR"},{"icaoId":"KMLC","receiptTime":"2026-04-13T23:57:00.825Z","obsTime":1776124380,"reportTime":"2026-04-14T00:00:00.000Z","temp":26.1,"dewp":20,"wdir":"VRB","wspd":4,"wgst":20,"visib":"10+","altim":1013,"slp":1011.9,"qcField":6,"presTend":-1.4,"maxT":28.3,"minT":25.6,"metarType":"METAR","rawOb":"METAR KMLC 132353Z AUTO VRB04G20KT 10SM FEW029 FEW040 26/20 A2991 RMK AO2 SLP119 T02610200 10283 20256 56014","lat":34.8824,"lon":-95.7815,"elev":231,"name":"McAlester Rgnl, OK, US","cover":"FEW","clouds":[{"cover":"FEW","base":2900},{"cover":"FEW","base":4000}],"fltCat":"VFR"},{"icaoId":"KDLN","receiptTime":"2026-04-13T23:57:03.865Z","obsTime":1776124380,"reportTime":"2026-04-14T00:00:00.000Z","temp":9.4,"dewp":-3.9,"wdir":220,"wspd":13,"visib":"10+","altim":1009.9,"slp":1008.8,"qcField":6,"presTend":0.6,"maxT":12.8,"minT":8.9,"pcp6hr":0.005,"metarType":"METAR","rawOb":"METAR KDLN 132353Z AUTO 22013KT 10SM SCT100 09/M04 A2982 RMK AO2 SLP088 60000 T00941039 10128 20089 53006","lat":45.2584,"lon":-112.5546,"elev":1586,"name":"Dillon Arpt, MT, US","cover":"SCT","clouds":[{"cover":"SCT","base":10000}],"fltCat":"VFR"},{"icaoId":"KSWO","receiptTime":"2026-04-13T23:56:06.799Z","obsTime":1776124380,"reportTime":"2026-04-14T00:00:00.000Z","temp":28.9,"dewp":18.9,"wdir":190,"wspd":16,"wgst":25,"visib":"10+","altim":1008.5,"slp":1007.2,"qcField":4,"presTend":-1.1,"maxT":31.1,"minT":27.8,"precip":0.005,"pcp6hr":0.005,"metarType":"METAR","rawOb":"METAR KSWO 132353Z 19016G25KT 10SM CLR 29/19 A2978 RMK AO2 PK WND 19030/2307 RAE32 SLP072 P0000 60000 T02890189 10311 20278 56011","lat":36.1624,"lon":-97.0832,"elev":293,"name":"Stillwater Muni, OK, US","cover":"CLR","clouds":[],"fltCat":"VFR"},{"icaoId":"KVGT","receiptTime":"2026-04-13T23:56:54.677Z","obsTime":1776124380,"reportTime":"2026-04-14T00:00:00.000Z","temp":17.8,"dewp":-2.8,"wdir":100,"wspd":9,"visib":"10+","altim":1010.2,"slp":1010.9,"qcField":4,"presTend":-1.3,"maxT":20.6,"minT":17.2,"metarType":"METAR","rawOb":"METAR KVGT 132353Z 10009KT 10SM OVC095 18/M03 A2983 RMK AO2 SLP109 T01781028 10206 20172 56013","lat":36.212,"lon":-115.194,"elev":664,"name":"Las Vegas/North Arpt, NV, US","cover":"OVC","clouds":[{"cover":"OVC","base":9500}],"fltCat":"VFR"},{"icaoId":"KBLI","receiptTime":"2026-04-13T23:57:07.598Z","obsTime":1776124380,"reportTime":"2026-04-14T00:00:00.000Z","temp":10.6,"dewp":5.6,"wdir":180,"wspd":10,"wgst":17,"visib":"10+","altim":1016.7,"slp":1017.3,"qcField":6,"presTend":0.1,"maxT":12.8,"minT":10.6,"metarType":"METAR","rawOb":"METAR KBLI 132353Z AUTO 18010G17KT 10SM OVC047 11/06 A3002 RMK AO2 SLP173 T01060056 10128 20106 51001","lat":48.7991,"lon":-122.5407,"elev":46,"name":"Bellingham Intl, WA, US","cover":"OVC","clouds":[{"cover":"OVC","base":4700}],"fltCat":"VFR"},{"icaoId":"KMLS","receiptTime":"2026-04-13T23:56:56.971Z","obsTime":1776124380,"reportTime":"2026-04-14T00:00:00.000Z","temp":10,"dewp":7.2,"wdir":310,"wspd":7,"visib":"10+","altim":1007.2,"slp":1007.6,"qcField":6,"wxString":"-RA","presTend":1.5,"maxT":15,"minT":10,"precip":0.005,"pcp6hr":0.005,"metarType":"METAR","rawOb":"METAR KMLS 132353Z AUTO 31007KT 10SM -RA BKN040 OVC050 10/07 A2974 RMK AO2 RAB26 SLP076 P0000 60000 T01000072 10150 20100 53015","lat":46.4265,"lon":-105.8834,"elev":800,"name":"Miles City/Wiley Fld, MT, US","cover":"OVC","clouds":[{"cover":"BKN","base":4000},{"cover":"OVC","base":5000}],"fltCat":"VFR"},{"icaoId":"KBNA","receiptTime":"2026-04-13T23:57:07.619Z","obsTime":1776124380,"reportTime":"2026-04-14T00:00:00.000Z","temp":23.3,"dewp":12.8,"wdir":180,"wspd":11,"visib":"10+","altim":1020.7,"slp":1019.9,"qcField":4,"presTend":-0.7,"maxT":26.1,"minT":20.6,"pcp6hr":0.01,"metarType":"METAR","rawOb":"METAR KBNA 132353Z 18011KT 10SM SCT130 BKN180 BKN250 23/13 A3014 RMK AO2 SLP199 60001 T02330128 10261 20206 56007","lat":36.1105,"lon":-86.6881,"elev":168,"name":"Nashville Intl, TN, US","cover":"BKN","clouds":[{"cover":"SCT","base":13000},{"cover":"BKN","base":18000},{"cover":"BKN","base":25000}],"fltCat":"VFR"},{"icaoId":"KSDL","receiptTime":"2026-04-13T23:57:00.397Z","obsTime":1776124380,"reportTime":"2026-04-14T00:00:00.000Z","temp":25,"dewp":2.8,"wdir":260,"wspd":11,"wgst":19,"visib":"10+","altim":1011.9,"slp":1010.2,"qcField":4,"presTend":-1.7,"maxT":25.6,"minT":21.7,"metarType":"METAR","rawOb":"METAR KSDL 132353Z 26011G19KT 10SM FEW080 25/03 A2988 RMK AO2 SLP102 T02500028 10256 20217 56017","lat":33.6123,"lon":-111.9232,"elev":438,"name":"Scottsdale Muni, AZ, US","cover":"FEW","clouds":[{"cover":"FEW","base":8000}],"fltCat":"VFR"},{"icaoId":"KBFI","receiptTime":"2026-04-13T23:57:07.439Z","obsTime":1776124380,"reportTime":"2026-04-14T00:00:00.000Z","temp":13.3,"dewp":4.4,"wdir":230,"wspd":8,"visib":"10+","altim":1017.7,"slp":1017.6,"qcField":4,"maxT":13.3,"minT":10.6,"pcp6hr":0.005,"metarType":"METAR","rawOb":"METAR KBFI 132353Z 23008KT 190V260 10SM BKN046 OVC060 13/04 A3005 RMK AO2 SLP176 60000 T01330044 10133 20106 50000","lat":47.5455,"lon":-122.3148,"elev":7,"name":"Seattle/Boeing Fld, WA, US","cover":"OVC","clouds":[{"cover":"BKN","base":4600},{"cover":"OVC","base":6000}],"fltCat":"VFR"},{"icaoId":"KONT","receiptTime":"2026-04-13T23:56:57.467Z","obsTime":1776124380,"reportTime":"2026-04-14T00:00:00.000Z","temp":15.6,"dewp":5.6,"wdir":280,"wspd":11,"visib":"10+","altim":1016,"slp":1015.6,"qcField":12,"presTend":-0.8,"maxT":18.9,"minT":13.3,"pcp6hr":0.005,"metarType":"METAR","rawOb":"METAR KONT 132353Z 28011KT 10SM FEW050 SCT065 BKN085 16/06 A3000 RMK AO2 LTG DSNT NE SLP156 CB DSNT NE 60000 T01560056 10189 20133 55008 $","lat":34.0531,"lon":-117.5769,"elev":279,"name":"Ontario Intl, CA, US","cover":"BKN","clouds":[{"cover":"FEW","base":5000},{"cover":"SCT","base":6500},{"cover":"BKN","base":8500}],"fltCat":"VFR"},{"icaoId":"KFUL","receiptTime":"2026-04-13T23:57:04.567Z","obsTime":1776124380,"reportTime":"2026-04-14T00:00:00.000Z","temp":19.4,"dewp":4.4,"wdir":250,"wspd":9,"wgst":18,"visib":"10+","altim":1015.7,"slp":1015.6,"qcField":4,"presTend":-1,"maxT":20,"minT":16.7,"pcp6hr":0.005,"metarType":"METAR","rawOb":"METAR KFUL 132353Z 25009G18KT 10SM BKN060 OVC095 19/04 A2999 RMK AO2 SLP156 60000 T01940044 10200 20167 56010","lat":33.8715,"lon":-117.9856,"elev":23,"name":"Fullerton Muni, CA, US","cover":"OVC","clouds":[{"cover":"BKN","base":6000},{"cover":"OVC","base":9500}],"fltCat":"VFR"},{"icaoId":"KTPA","receiptTime":"2026-04-13T23:56:55.629Z","obsTime":1776124380,"reportTime":"2026-04-14T00:00:00.000Z","temp":27.2,"dewp":14.4,"wdir":50,"wspd":6,"visib":"10+","altim":1022.1,"slp":1021.9,"qcField":4,"presTend":-0.3,"maxT":30,"minT":27.2,"metarType":"METAR","rawOb":"METAR KTPA 132353Z 05006KT 10SM SCT060 BKN250 27/14 A3018 RMK AO2 SLP219 T02720144 10300 20272 55003","lat":27.9633,"lon":-82.54,"elev":2,"name":"Tampa Intl Arpt, FL, US","cover":"BKN","clouds":[{"cover":"SCT","base":6000},{"cover":"BKN","base":25000}],"fltCat":"VFR"},{"icaoId":"PANC","receiptTime":"2026-04-13T23:56:58.362Z","obsTime":1776124380,"reportTime":"2026-04-14T00:00:00.000Z","temp":4.4,"dewp":-6.1,"wdir":210,"wspd":9,"visib":"10+","altim":1003.8,"slp":1003.9,"qcField":4,"presTend":0.8,"maxT":5,"minT":1.7,"snow":15000,"metarType":"METAR","rawOb":"METAR PANC 132353Z 21009KT 10SM FEW060 SCT120 BKN200 04/M06 A2964 RMK AO2 SLP039 4/015 T00441061 10050 20017 51008","lat":61.1691,"lon":-150.0277,"elev":39,"name":"Anchorage Intl, AK, US","cover":"BKN","clouds":[{"cover":"FEW","base":6000},{"cover":"SCT","base":12000},{"cover":"BKN","base":20000}],"fltCat":"VFR"},{"icaoId":"KPUB","receiptTime":"2026-04-13T23:57:00.166Z","obsTime":1776124380,"reportTime":"2026-04-14T00:00:00.000Z","temp":24.4,"dewp":-11.1,"wdir":220,"wspd":19,"wgst":27,"visib":"10+","altim":1007.5,"slp":1002.7,"qcField":12,"presTend":-1.1,"maxT":25.6,"minT":21.1,"metarType":"METAR","rawOb":"METAR KPUB 132353Z 22019G27KT 10SM CLR 24/M11 A2975 RMK AO2 PK WND 22032/2334 SLP027 T02441111 10256 20211 55011 $","lat":38.2887,"lon":-104.5057,"elev":1441,"name":"Pueblo Mem Arpt, CO, US","cover":"CLR","clouds":[],"fltCat":"VFR"},{"icaoId":"KHOU","receiptTime":"2026-04-13T23:57:01.629Z","obsTime":1776124380,"reportTime":"2026-04-14T00:00:00.000Z","temp":25,"dewp":20,"wdir":150,"wspd":16,"visib":"10+","altim":1017.7,"slp":1018.2,"qcField":12,"presTend":-1.1,"maxT":27.2,"minT":25,"pcp6hr":0.005,"metarType":"METAR","rawOb":"METAR KHOU 132353Z 15016KT 10SM SCT020 SCT055 BKN250 25/20 A3005 RMK AO2 SLP182 60000 T02500200 10272 20250 55011 $","lat":29.6458,"lon":-95.2821,"elev":13,"name":"Houston/Hobby Arpt, TX, US","cover":"BKN","clouds":[{"cover":"SCT","base":2000},{"cover":"SCT","base":5500},{"cover":"BKN","base":25000}],"fltCat":"VFR"},{"icaoId":"KSAF","receiptTime":"2026-04-13T23:57:00.347Z","obsTime":1776124380,"reportTime":"2026-04-14T00:00:00.000Z","temp":15.6,"dewp":-0.6,"wdir":270,"wspd":9,"wgst":16,"visib":"10+","altim":1017,"slp":1010.5,"qcField":12,"presTend":-0.7,"maxT":18.9,"minT":15,"pcp6hr":0.005,"metarType":"METAR","rawOb":"METAR KSAF 132353Z 27009G16KT 10SM OVC070 16/M01 A3003 RMK AO2 SLP105 60000 T01561006 10189 20150 55007 $","lat":35.611,"lon":-106.0957,"elev":1918,"name":"Santa Fe Cnty Muni, NM, US","cover":"OVC","clouds":[{"cover":"OVC","base":7000}],"fltCat":"VFR"},{"icaoId":"KIAH","receiptTime":"2026-04-13T23:57:00.517Z","obsTime":1776124380,"reportTime":"2026-04-14T00:00:00.000Z","temp":25,"dewp":20.6,"wdir":160,"wspd":13,"visib":"10+","altim":1017.7,"slp":1017.6,"qcField":4,"presTend":-1.1,"maxT":27.2,"minT":25,"pcp6hr":0.005,"metarType":"METAR","rawOb":"METAR KIAH 132353Z 16013KT 10SM FEW025 SCT038 BKN250 25/21 A3005 RMK AO2 SLP176 60000 T02500206 10272 20250 55011","lat":29.9844,"lon":-95.3607,"elev":27,"name":"Houston/Bush Intl, TX, US","cover":"BKN","clouds":[{"cover":"FEW","base":2500},{"cover":"SCT","base":3800},{"cover":"BKN","base":25000}],"fltCat":"VFR"},{"icaoId":"KDAL","receiptTime":"2026-04-13T23:57:02.203Z","obsTime":1776124380,"reportTime":"2026-04-14T00:00:00.000Z","temp":27.2,"dewp":20,"wdir":170,"wspd":10,"wgst":21,"visib":"10+","altim":1014,"slp":1013.3,"qcField":4,"presTend":-1,"maxT":29.4,"minT":26.7,"metarType":"METAR","rawOb":"METAR KDAL 132353Z 17010G21KT 10SM FEW050 BKN250 27/20 A2994 RMK AO2 SLP133 T02720200 10294 20267 56010","lat":32.8384,"lon":-96.8358,"elev":148,"name":"Dallas/Love Fld, TX, US","cover":"BKN","clouds":[{"cover":"FEW","base":5000},{"cover":"BKN","base":25000}],"fltCat":"VFR"},{"icaoId":"KFMN","receiptTime":"2026-04-13T23:57:05.331Z","obsTime":1776124380,"reportTime":"2026-04-14T00:00:00.000Z","temp":17.2,"dewp":0,"wdir":270,"wspd":9,"visib":"10+","altim":1013.6,"slp":1010.3,"qcField":4,"presTend":-1.3,"maxT":19.4,"minT":12.8,"precip":0.01,"pcp6hr":0.01,"metarType":"METAR","rawOb":"METAR KFMN 132353Z 27009KT 220V300 10SM BKN080 BKN100 17/00 A2993 RMK AO2 RAE2256 SLP103 P0001 60001 T01720000 10194 20128 58013","lat":36.7435,"lon":-108.2293,"elev":1677,"name":"Farmington/Four Corners Rgnl, NM, US","cover":"BKN","clouds":[{"cover":"BKN","base":8000},{"cover":"BKN","base":10000}],"fltCat":"VFR"},{"icaoId":"KCNM","receiptTime":"2026-04-13T23:57:01.988Z","obsTime":1776124380,"reportTime":"2026-04-14T00:00:00.000Z","temp":28.9,"dewp":0,"wdir":240,"wspd":19,"wgst":26,"visib":"10+","altim":1013.6,"slp":1008.4,"qcField":6,"presTend":-1.3,"maxT":31.1,"minT":28.9,"metarType":"METAR","rawOb":"METAR KCNM 132353Z AUTO 24019G26KT 10SM CLR 29/00 A2993 RMK AO2 PK WND 24036/2259 SLP084 T02890000 10311 20289 55013","lat":32.3336,"lon":-104.2584,"elev":993,"name":"Carlsbad/Cavern City Air Term, NM, US","cover":"CLR","clouds":[],"fltCat":"VFR"},{"icaoId":"KGJT","receiptTime":"2026-04-13T23:57:01.298Z","obsTime":1776124380,"reportTime":"2026-04-14T00:00:00.000Z","temp":18.9,"dewp":-6.1,"wdir":250,"wspd":14,"wgst":20,"visib":"10+","altim":1010.6,"slp":1006.2,"qcField":4,"presTend":-1.5,"maxT":19.4,"minT":15,"metarType":"METAR","rawOb":"METAR KGJT 132353Z 25014G20KT 10SM CLR 19/M06 A2984 RMK AO2 PK WND 23028/2321 SLP062 T01891061 10194 20150 56015","lat":39.1344,"lon":-108.5408,"elev":1475,"name":"Grand Junction Rgnl, CO, US","cover":"CLR","clouds":[],"fltCat":"VFR"},{"icaoId":"KDCA","receiptTime":"2026-04-13T23:56:08.258Z","obsTime":1776124320,"reportTime":"2026-04-14T00:00:00.000Z","temp":24.4,"dewp":10.6,"wdir":210,"wspd":11,"visib":"10+","altim":1017.4,"slp":1017.2,"qcField":4,"presTend":-0.2,"maxT":27.8,"minT":24.4,"metarType":"METAR","rawOb":"METAR KDCA 132352Z 21011KT 10SM FEW075 SCT250 24/11 A3004 RMK AO2 SLP172 T02440106 10278 20244 56002","lat":38.8472,"lon":-77.0345,"elev":4,"name":"Washington/Reagan-National Arpt, VA, US","cover":"SCT","clouds":[{"cover":"FEW","base":7500},{"cover":"SCT","base":25000}],"fltCat":"VFR"},{"icaoId":"KOKC","receiptTime":"2026-04-13T23:56:06.655Z","obsTime":1776124320,"reportTime":"2026-04-14T00:00:00.000Z","temp":27.8,"dewp":18.9,"wdir":180,"wspd":19,"wgst":29,"visib":"10+","altim":1009.9,"slp":1008.4,"qcField":4,"presTend":-1.1,"maxT":30,"minT":27.2,"metarType":"METAR","rawOb":"METAR KOKC 132352Z 18019G29KT 10SM FEW060 FEW200 BKN250 28/19 A2982 RMK AO2 PK WND 18033/2320 SLP084 T02780189 10300 20272 55011","lat":35.3843,"lon":-97.6003,"elev":391,"name":"Oklahoma City/Will Rogers Intl, OK, US","cover":"BKN","clouds":[{"cover":"FEW","base":6000},{"cover":"FEW","base":20000},{"cover":"BKN","base":25000}],"fltCat":"VFR"},{"icaoId":"KCVG","receiptTime":"2026-04-13T23:56:08.235Z","obsTime":1776124320,"reportTime":"2026-04-14T00:00:00.000Z","temp":22.8,"dewp":15,"wdir":200,"wspd":12,"wgst":21,"visib":"10+","altim":1017.7,"slp":1016.7,"qcField":4,"presTend":-0.2,"maxT":25.6,"minT":22.8,"metarType":"METAR","rawOb":"METAR KCVG 132352Z 20012G21KT 10SM BKN050 23/15 A3005 RMK AO2 PK WND 19027/2336 SLP167 T02280150 10256 20228 57002","lat":39.0444,"lon":-84.6724,"elev":264,"name":"Cincinnati Intl, KY, US","cover":"BKN","clouds":[{"cover":"BKN","base":5000}],"fltCat":"VFR"},{"icaoId":"KHRL","receiptTime":"2026-04-13T23:56:08.354Z","obsTime":1776124320,"reportTime":"2026-04-14T00:00:00.000Z","temp":26.1,"dewp":21.7,"wdir":130,"wspd":19,"wgst":24,"visib":"10+","altim":1015,"slp":1014.7,"qcField":4,"presTend":-0.9,"maxT":28.9,"minT":26.1,"pcp6hr":0.005,"metarType":"METAR","rawOb":"METAR KHRL 132352Z 13019G24KT 10SM FEW036 26/22 A2997 RMK AO2 PK WND 11027/2253 SLP147 60000 T02610217 10289 20261 55009","lat":26.2303,"lon":-97.6556,"elev":9,"name":"Harlingen/Valley Intl, TX, US","cover":"FEW","clouds":[{"cover":"FEW","base":3600}],"fltCat":"VFR"},{"icaoId":"KIAD","receiptTime":"2026-04-13T23:56:08.381Z","obsTime":1776124320,"reportTime":"2026-04-14T00:00:00.000Z","temp":23.3,"dewp":10.6,"wdir":220,"wspd":10,"visib":"10+","altim":1017.7,"slp":1017.3,"qcField":4,"presTend":0.1,"maxT":26.1,"minT":23.3,"metarType":"METAR","rawOb":"METAR KIAD 132352Z 22010KT 10SM FEW050 FEW250 23/11 A3005 RMK AO2 SLP173 T02330106 10261 20233 51001","lat":38.9348,"lon":-77.4473,"elev":90,"name":"Washington/Dulles Intl, VA, US","cover":"FEW","clouds":[{"cover":"FEW","base":5000},{"cover":"FEW","base":25000}],"fltCat":"VFR"},{"icaoId":"KMKE","receiptTime":"2026-04-13T23:54:14.259Z","obsTime":1776124320,"reportTime":"2026-04-14T00:00:00.000Z","temp":21.1,"dewp":16.7,"wdir":140,"wspd":4,"visib":"10+","altim":1008.9,"slp":1008.7,"qcField":4,"presTend":-0.9,"maxT":24.4,"minT":20,"metarType":"METAR","rawOb":"METAR KMKE 132352Z 14004KT 10SM FEW060 FEW100 SCT130 BKN150 BKN250 21/17 A2979 RMK AO2 SLP087 TCU DSNT E T02110167 10244 20200 58009","lat":42.9549,"lon":-87.9045,"elev":203,"name":"Milwaukee/Mitchell Intl, WI, US","cover":"BKN","clouds":[{"cover":"FEW","base":6000},{"cover":"FEW","base":10000},{"cover":"SCT","base":13000},{"cover":"BKN","base":15000}],"fltCat":"VFR"},{"icaoId":"KCLT","receiptTime":"2026-04-13T23:56:08.205Z","obsTime":1776124320,"reportTime":"2026-04-14T00:00:00.000Z","temp":23.9,"dewp":11.7,"wdir":220,"wspd":7,"visib":"10+","altim":1023.1,"slp":1023.7,"qcField":4,"presTend":-0.5,"maxT":27.2,"minT":23.9,"metarType":"METAR","rawOb":"METAR KCLT 132352Z 22007KT 10SM FEW055 FEW150 SCT250 24/12 A3021 RMK AO2 SLP237 T02390117 10272 20239 56005","lat":35.2225,"lon":-80.9543,"elev":223,"name":"Charlotte/Douglas Intl, NC, US","cover":"SCT","clouds":[{"cover":"FEW","base":5500},{"cover":"FEW","base":15000},{"cover":"SCT","base":25000}],"fltCat":"VFR"},{"icaoId":"KATL","receiptTime":"2026-04-13T23:56:08.088Z","obsTime":1776124320,"reportTime":"2026-04-14T00:00:00.000Z","temp":25.6,"dewp":10,"wdir":190,"wspd":8,"visib":"10+","altim":1023.5,"slp":1022.6,"qcField":4,"presTend":-0.7,"maxT":28.3,"minT":25.6,"metarType":"METAR","rawOb":"METAR KATL 132352Z 19008KT 10SM FEW250 26/10 A3022 RMK AO2 SLP226 T02560100 10283 20256 56007","lat":33.6297,"lon":-84.4422,"elev":309,"name":"Atlanta/Hartsfield-Jackson Intl, GA, US","cover":"FEW","clouds":[{"cover":"FEW","base":25000}],"fltCat":"VFR"},{"icaoId":"KMLF","receiptTime":"2026-04-13T23:56:11.006Z","obsTime":1776124320,"reportTime":"2026-04-14T00:00:00.000Z","temp":8.9,"dewp":2.2,"wdir":350,"wspd":8,"visib":"10+","altim":1013,"slp":1011.3,"qcField":6,"presTend":-1.5,"maxT":11.7,"minT":6.1,"pcp6hr":0.05,"metarType":"METAR","rawOb":"METAR KMLF 132352Z AUTO 35008KT 10SM BKN033 BKN060 OVC085 09/02 A2991 RMK AO2 SLP113 60005 T00890022 10117 20061 56015","lat":38.4225,"lon":-113.0109,"elev":1537,"name":"Milford Muni, UT, US","cover":"OVC","clouds":[{"cover":"BKN","base":3300},{"cover":"BKN","base":6000},{"cover":"OVC","base":8500}],"fltCat":"VFR"},{"icaoId":"KSPS","receiptTime":"2026-04-13T23:56:11.034Z","obsTime":1776124320,"reportTime":"2026-04-14T00:00:00.000Z","temp":28.3,"dewp":19.4,"wdir":170,"wspd":18,"wgst":25,"visib":"10+","altim":1011.3,"slp":1009.7,"qcField":6,"presTend":-0.7,"maxT":32.2,"minT":28.3,"metarType":"METAR","rawOb":"METAR KSPS 132352Z AUTO 17018G25KT 10SM CLR 28/19 A2986 RMK AO2 PK WND 17031/2259 SLP097 T02830194 10322 20283 55007","lat":33.9785,"lon":-98.493,"elev":310,"name":"Wichita Falls Rgnl, TX, US","cover":"CLR","clouds":[],"fltCat":"VFR"},{"icaoId":"KABI","receiptTime":"2026-04-13T23:56:10.855Z","obsTime":1776124320,"reportTime":"2026-04-14T00:00:00.000Z","temp":26.1,"dewp":18.3,"wdir":160,"wspd":12,"wgst":22,"visib":"10+","altim":1014,"slp":1011.4,"qcField":4,"presTend":-0.9,"maxT":29.4,"minT":26.1,"metarType":"METAR","rawOb":"METAR KABI 132352Z 16012G22KT 10SM CLR 26/18 A2994 RMK AO2 SLP114 T02610183 10294 20261 55009","lat":32.4106,"lon":-99.6821,"elev":543,"name":"Abilene Rgnl, TX, US","cover":"CLR","clouds":[],"fltCat":"VFR"},{"icaoId":"KABQ","receiptTime":"2026-04-13T23:56:10.870Z","obsTime":1776124320,"reportTime":"2026-04-14T00:00:00.000Z","temp":17.8,"dewp":1.1,"wdir":210,"wspd":13,"wgst":24,"visib":"10+","altim":1015.7,"slp":1009.7,"qcField":4,"wxString":"-RA","presTend":-1.1,"maxT":20.6,"minT":16.1,"precip":0.005,"pcp6hr":0.005,"metarType":"METAR","rawOb":"METAR KABQ 132352Z 21013G24KT 10SM -RA SCT080 BKN110 OVC200 18/01 A2999 RMK AO2 PK WND 22030/2255 RAB03E20B48 SLP097 VIRGA SW-NW P0000 60000 T01780011 10206 20161 55011","lat":35.0419,"lon":-106.6154,"elev":1620,"name":"Albuquerque Intl, NM, US","cover":"OVC","clouds":[{"cover":"SCT","base":8000},{"cover":"BKN","base":11000},{"cover":"OVC","base":20000}],"fltCat":"VFR"},{"icaoId":"KSAD","receiptTime":"2026-04-13T23:54:15.754Z","obsTime":1776124260,"reportTime":"2026-04-14T00:00:00.000Z","temp":23.3,"dewp":2.8,"wdir":190,"wspd":18,"wgst":26,"visib":"10+","altim":1013.3,"slp":1009.5,"qcField":6,"presTend":-0.7,"maxT":26.1,"minT":22.8,"pcp6hr":0.005,"metarType":"METAR","rawOb":"METAR KSAD 132351Z AUTO 19018G26KT 10SM SCT110 23/03 A2992 RMK AO2 PK WND 18027/2327 SLP095 60000 T02330028 10261 20228 58007","lat":32.8565,"lon":-109.636,"elev":937,"name":"Safford Rgnl, AZ, US","cover":"SCT","clouds":[{"cover":"SCT","base":11000}],"fltCat":"VFR"},{"icaoId":"KSAN","receiptTime":"2026-04-13T23:54:13.076Z","obsTime":1776124260,"reportTime":"2026-04-14T00:00:00.000Z","temp":18.3,"dewp":7.8,"wdir":280,"wspd":12,"wgst":17,"visib":"10+","altim":1018,"slp":1017.8,"qcField":12,"presTend":-1.3,"maxT":18.9,"minT":15.6,"pcp6hr":0.01,"metarType":"METAR","rawOb":"METAR KSAN 132351Z 28012G17KT 10SM SCT038 SCT070 18/08 A3006 RMK AO2 SLP178 60001 T01830078 10189 20156 56013 $","lat":32.7364,"lon":-117.1973,"elev":3,"name":"San Diego Intl Arpt, CA, US","cover":"SCT","clouds":[{"cover":"SCT","base":3800},{"cover":"SCT","base":7000}],"fltCat":"VFR"},{"icaoId":"KOXR","receiptTime":"2026-04-13T23:54:15.545Z","obsTime":1776124260,"reportTime":"2026-04-14T00:00:00.000Z","temp":17.8,"dewp":9.4,"wdir":270,"wspd":19,"wgst":26,"visib":"10+","altim":1015.7,"slp":1015.5,"qcField":4,"presTend":-1.4,"maxT":18.9,"minT":16.1,"metarType":"METAR","rawOb":"METAR KOXR 132351Z 27019G26KT 10SM CLR 18/09 A2999 RMK AO2 PK WND 27030/2252 SLP155 T01780094 10189 20161 56014","lat":34.2001,"lon":-119.2042,"elev":12,"name":"Oxnard Arpt, CA, US","cover":"CLR","clouds":[],"fltCat":"VFR"},{"icaoId":"KIGM","receiptTime":"2026-04-13T23:54:15.181Z","obsTime":1776124260,"reportTime":"2026-04-14T00:00:00.000Z","temp":11.7,"dewp":5,"wdir":220,"wspd":8,"visib":"10+","altim":1012.3,"slp":1008.2,"qcField":6,"presTend":-1.3,"maxT":18.3,"minT":10.6,"precip":0.01,"pcp6hr":0.01,"metarType":"METAR","rawOb":"METAR KIGM 132351Z AUTO 22008KT 10SM SCT065 SCT080 12/05 A2989 RMK AO2 PK WND 22041/2301 RAB2252E46 SLP082 P0001 60001 T01170050 10183 20106 58013","lat":35.2575,"lon":-113.9341,"elev":1045,"name":"Kingman Arpt, AZ, US","cover":"SCT","clouds":[{"cover":"SCT","base":6500},{"cover":"SCT","base":8000}],"fltCat":"VFR"},{"icaoId":"KCLE","receiptTime":"2026-04-13T23:54:14.732Z","obsTime":1776124260,"reportTime":"2026-04-14T00:00:00.000Z","temp":25,"dewp":15,"wdir":220,"wspd":10,"wgst":18,"visib":"10+","altim":1014.3,"slp":1015.2,"qcField":12,"presTend":0.3,"maxT":27.2,"minT":24.4,"metarType":"METAR","rawOb":"METAR KCLE 132351Z 22010G18KT 10SM FEW060 SCT080 OVC250 25/15 A2995 RMK AO2 SLP152 T02500150 10272 20244 53003 $","lat":41.4057,"lon":-81.8519,"elev":237,"name":"Cleveland/Hopkins Intl, OH, US","cover":"OVC","clouds":[{"cover":"FEW","base":6000},{"cover":"SCT","base":8000},{"cover":"OVC","base":25000}],"fltCat":"VFR"},{"icaoId":"KCRP","receiptTime":"2026-04-13T23:54:14.828Z","obsTime":1776124260,"reportTime":"2026-04-14T00:00:00.000Z","temp":26.1,"dewp":20.6,"wdir":150,"wspd":18,"visib":"10+","altim":1016,"slp":1015.8,"qcField":4,"presTend":-0.6,"maxT":30.6,"minT":26.1,"metarType":"METAR","rawOb":"METAR KCRP 132351Z 15018KT 10SM FEW015 FEW023 SCT030 26/21 A3000 RMK AO2 PK WND 16028/2302 SLP158 T02610206 10306 20261 55006","lat":27.7734,"lon":-97.513,"elev":11,"name":"Corpus Christi Intl, TX, US","cover":"SCT","clouds":[{"cover":"FEW","base":1500},{"cover":"FEW","base":2300},{"cover":"SCT","base":3000}],"fltCat":"VFR"},{"icaoId":"KPIT","receiptTime":"2026-04-13T23:54:15.966Z","obsTime":1776124260,"reportTime":"2026-04-14T00:00:00.000Z","temp":24.4,"dewp":13.9,"wdir":230,"wspd":11,"wgst":19,"visib":"10+","altim":1016.7,"slp":1016.4,"qcField":4,"presTend":0.4,"maxT":26.7,"minT":24.4,"metarType":"METAR","rawOb":"METAR KPIT 132351Z 23011G19KT 10SM FEW050 SCT250 24/14 A3002 RMK AO2 SLP164 T02440139 10267 20244 53004","lat":40.4814,"lon":-80.2083,"elev":339,"name":"Pittsburgh Intl, PA, US","cover":"SCT","clouds":[{"cover":"FEW","base":5000},{"cover":"SCT","base":25000}],"fltCat":"VFR"},{"icaoId":"KSAT","receiptTime":"2026-04-13T23:54:16.242Z","obsTime":1776124260,"reportTime":"2026-04-14T00:00:00.000Z","temp":30,"dewp":18.3,"wdir":140,"wspd":17,"wgst":25,"visib":"10+","altim":1015,"slp":1012.8,"qcField":12,"presTend":-0.8,"maxT":32.2,"minT":27.2,"metarType":"METAR","rawOb":"METAR KSAT 132351Z 14017G25KT 10SM FEW055 FEW080 BKN250 30/18 A2997 RMK AO2 SLP128 T03000183 10322 20272 55008 $","lat":29.5443,"lon":-98.4839,"elev":246,"name":"San Antonio Intl, TX, US","cover":"BKN","clouds":[{"cover":"FEW","base":5500},{"cover":"FEW","base":8000},{"cover":"BKN","base":25000}],"fltCat":"VFR"},{"icaoId":"KSTL","receiptTime":"2026-04-13T23:54:16.324Z","obsTime":1776124260,"reportTime":"2026-04-14T00:00:00.000Z","temp":27.2,"dewp":16.7,"wdir":180,"wspd":13,"wgst":21,"visib":"10+","altim":1011.9,"slp":1010.8,"qcField":12,"presTend":-0.8,"maxT":29.4,"minT":27.2,"metarType":"METAR","rawOb":"METAR KSTL 132351Z 18013G21KT 10SM SCT055 BKN250 27/17 A2988 RMK AO2 SLP108 T02720167 10294 20272 56008 $","lat":38.7525,"lon":-90.3734,"elev":163,"name":"St Louis/Lambert Intl, MO, US","cover":"BKN","clouds":[{"cover":"SCT","base":5500},{"cover":"BKN","base":25000}],"fltCat":"VFR"},{"icaoId":"KVNY","receiptTime":"2026-04-13T23:54:16.411Z","obsTime":1776124260,"reportTime":"2026-04-14T00:00:00.000Z","temp":16.7,"dewp":6.1,"wdir":160,"wspd":10,"visib":"10+","altim":1015.7,"slp":1015,"qcField":12,"presTend":-1.3,"maxT":18.9,"minT":12.8,"pcp6hr":0.1,"metarType":"METAR","rawOb":"METAR KVNY 132351Z 16010KT 10SM FEW047 BKN055 BKN065 17/06 A2999 RMK AO2 SLP150 60010 T01670061 10189 20128 56013 $","lat":34.2121,"lon":-118.4915,"elev":241,"name":"Van Nuys Arpt, CA, US","cover":"BKN","clouds":[{"cover":"FEW","base":4700},{"cover":"BKN","base":5500},{"cover":"BKN","base":6500}],"fltCat":"VFR"},{"icaoId":"KBDL","receiptTime":"2026-04-13T23:54:16.694Z","obsTime":1776124260,"reportTime":"2026-04-14T00:00:00.000Z","temp":21.7,"dewp":12.8,"wdir":210,"wspd":4,"visib":"10+","altim":1011.3,"slp":1011.3,"qcField":4,"presTend":1.2,"maxT":26.7,"minT":19.4,"pcp6hr":0.005,"metarType":"METAR","rawOb":"METAR KBDL 132351Z 21004KT 10SM SCT075 BKN090 BKN110 22/13 A2986 RMK AO2 SLP113 60000 T02170128 10267 20194 53012","lat":41.9374,"lon":-72.682,"elev":52,"name":"Hartford/Bradley Intl, CT, US","cover":"BKN","clouds":[{"cover":"SCT","base":7500},{"cover":"BKN","base":9000},{"cover":"BKN","base":11000}],"fltCat":"VFR"},{"icaoId":"KROW","receiptTime":"2026-04-13T23:54:15.734Z","obsTime":1776124260,"reportTime":"2026-04-14T00:00:00.000Z","temp":27.2,"dewp":-0.6,"wdir":220,"wspd":22,"wgst":31,"visib":"10+","altim":1012.3,"slp":1006,"qcField":4,"presTend":-1.6,"maxT":29.4,"minT":25.6,"metarType":"METAR","rawOb":"METAR KROW 132351Z 22022G31KT 10SM CLR 27/M01 A2989 RMK AO2 PK WND 23044/2253 SLP060 T02721006 10294 20256 55016","lat":33.3074,"lon":-104.5082,"elev":1105,"name":"Roswell/Ind Arpt, NM, US","cover":"CLR","clouds":[],"fltCat":"VFR"},{"icaoId":"KRDU","receiptTime":"2026-04-13T23:54:15.696Z","obsTime":1776124260,"reportTime":"2026-04-14T00:00:00.000Z","temp":23.9,"dewp":9.4,"wdir":230,"wspd":6,"visib":"10+","altim":1022.1,"slp":1021.8,"qcField":4,"presTend":-0.3,"maxT":30,"minT":23.9,"metarType":"METAR","rawOb":"METAR KRDU 132351Z 23006KT 10SM FEW200 BKN250 24/09 A3018 RMK AO2 SLP218 T02390094 10300 20239 56003","lat":35.8923,"lon":-78.782,"elev":121,"name":"Raleigh-Durham Intl, NC, US","cover":"BKN","clouds":[{"cover":"FEW","base":20000},{"cover":"BKN","base":25000}],"fltCat":"VFR"},{"icaoId":"KPVD","receiptTime":"2026-04-13T23:54:15.637Z","obsTime":1776124260,"reportTime":"2026-04-14T00:00:00.000Z","temp":17.8,"dewp":11.7,"wdir":220,"wspd":6,"visib":"10+","altim":1012.6,"slp":1012.4,"qcField":4,"presTend":0.7,"maxT":20.6,"minT":16.1,"metarType":"METAR","rawOb":"METAR KPVD 132351Z 22006KT 10SM SCT120 SCT250 18/12 A2990 RMK AO2 SLP124 T01780117 10206 20161 53007","lat":41.7225,"lon":-71.4325,"elev":15,"name":"Providence/Green Mem, RI, US","cover":"SCT","clouds":[{"cover":"SCT","base":12000},{"cover":"SCT","base":25000}],"fltCat":"VFR"},{"icaoId":"KCMH","receiptTime":"2026-04-13T23:54:15.908Z","obsTime":1776124260,"reportTime":"2026-04-14T00:00:00.000Z","temp":22.8,"dewp":15.6,"wdir":210,"wspd":11,"wgst":21,"visib":"10+","altim":1017.7,"slp":1016.9,"qcField":4,"presTend":0.5,"maxT":26.7,"minT":22.8,"metarType":"METAR","rawOb":"METAR KCMH 132351Z 21011G21KT 10SM FEW038 SCT080 BKN250 23/16 A3005 RMK AO2 SLP169 T02280156 10267 20228 51005","lat":39.9907,"lon":-82.877,"elev":257,"name":"Columbus/Glenn Intl, OH, US","cover":"BKN","clouds":[{"cover":"FEW","base":3800},{"cover":"SCT","base":8000},{"cover":"BKN","base":25000}],"fltCat":"VFR"},{"icaoId":"KPHX","receiptTime":"2026-04-13T23:54:15.572Z","obsTime":1776124260,"reportTime":"2026-04-14T00:00:00.000Z","temp":26.1,"dewp":3.9,"wdir":260,"wspd":12,"visib":"10+","altim":1010.9,"slp":1009.5,"qcField":4,"presTend":-2,"maxT":27.2,"minT":22.8,"metarType":"METAR","rawOb":"METAR KPHX 132351Z 26012KT 10SM SCT090 BKN170 BKN220 26/04 A2985 RMK AO2 SLP095 VIRGA E T02610039 10272 20228 56020","lat":33.4278,"lon":-112.0037,"elev":338,"name":"Phoenix/Sky Harbor Intl, AZ, US","cover":"BKN","clouds":[{"cover":"SCT","base":9000},{"cover":"BKN","base":17000},{"cover":"BKN","base":22000}],"fltCat":"VFR"},{"icaoId":"KELP","receiptTime":"2026-04-13T23:54:14.964Z","obsTime":1776124260,"reportTime":"2026-04-14T00:00:00.000Z","temp":25.6,"dewp":0.6,"wdir":250,"wspd":14,"wgst":27,"visib":"10+","altim":1015.7,"slp":1009.1,"qcField":4,"presTend":-2,"maxT":27.2,"minT":25,"metarType":"METAR","rawOb":"METAR KELP 132351Z 25014G27KT 10SM SCT110 SCT180 BKN250 26/01 A2999 RMK AO2 PK WND 28031/2254 SLP091 VIRGA S T02560006 10272 20250 56020","lat":31.8123,"lon":-106.3774,"elev":1205,"name":"El Paso Intl, TX, US","cover":"BKN","clouds":[{"cover":"SCT","base":11000},{"cover":"SCT","base":18000},{"cover":"BKN","base":25000}],"fltCat":"VFR"},{"icaoId":"KACT","receiptTime":"2026-04-13T23:54:16.512Z","obsTime":1776124260,"reportTime":"2026-04-14T00:00:00.000Z","temp":27.2,"dewp":20,"wdir":170,"wspd":12,"visib":"10+","altim":1014.6,"slp":1013.7,"qcField":4,"presTend":-1.7,"maxT":29.4,"minT":26.1,"metarType":"METAR","rawOb":"METAR KACT 132351Z 17012KT 10SM CLR 27/20 A2996 RMK AO2 SLP137 T02720200 10294 20261 56017","lat":31.618,"lon":-97.2283,"elev":150,"name":"Waco Rgnl, TX, US","cover":"CLR","clouds":[],"fltCat":"VFR"},{"icaoId":"KIFP","receiptTime":"2026-04-13T23:52:51.781Z","obsTime":1776124260,"reportTime":"2026-04-14T00:00:00.000Z","temp":23,"dewp":-3,"wdir":240,"wspd":10,"wgst":17,"visib":"10+","altim":1009.6,"qcField":0,"metarType":"METAR","rawOb":"METAR KIFP 132351Z 24010G17KT 10SM CLR 23/M03 A2981","lat":35.1487,"lon":-114.5611,"elev":210,"name":"Bullhead City Intl, AZ, US","cover":"CLR","clouds":[],"fltCat":"VFR"},{"icaoId":"KORF","receiptTime":"2026-04-13T23:54:15.511Z","obsTime":1776124260,"reportTime":"2026-04-14T00:00:00.000Z","temp":25.6,"dewp":11.7,"wdir":220,"wspd":10,"visib":"10+","altim":1020.1,"slp":1019.8,"qcField":4,"presTend":-0.4,"maxT":28.9,"minT":25.6,"pcp6hr":0.005,"metarType":"METAR","rawOb":"METAR KORF 132351Z 22010KT 10SM CLR 26/12 A3012 RMK AO2 SLP198 60000 T02560117 10289 20256 55004","lat":36.9037,"lon":-76.1927,"elev":5,"name":"Norfolk Intl, VA, US","cover":"CLR","clouds":[],"fltCat":"VFR"},{"icaoId":"KORD","receiptTime":"2026-04-13T23:54:15.474Z","obsTime":1776124260,"reportTime":"2026-04-14T00:00:00.000Z","temp":22.8,"dewp":13.9,"wdir":180,"wspd":7,"visib":"10+","altim":1009.6,"slp":1009,"qcField":4,"wxString":"-TSRA","presTend":-1,"maxT":26.1,"minT":22.2,"precip":0.05,"pcp6hr":0.05,"metarType":"METAR","rawOb":"METAR KORD 132351Z 18007KT 10SM -TSRA FEW030 FEW060 SCT100CB BKN150 OVC250 23/14 A2981 RMK AO2 RAB25 TSB16 SLP090 OCNL LTGICCG OHD TS OHD MOV E P0005 60005 T02280139 10261 20222 58010","lat":41.9602,"lon":-87.9316,"elev":202,"name":"Chicago/O'Hare Intl, IL, US","cover":"BKN","clouds":[{"cover":"FEW","base":3000},{"cover":"FEW","base":6000},{"cover":"SCT","base":10000},{"cover":"BKN","base":15000}],"fltCat":"VFR"},{"icaoId":"KMYL","receiptTime":"2026-04-13T23:54:15.437Z","obsTime":1776124260,"reportTime":"2026-04-14T00:00:00.000Z","temp":2.8,"dewp":0.6,"wdir":350,"wspd":3,"visib":"10+","altim":1015.3,"slp":1016.8,"qcField":6,"wxString":"UP","presTend":0.8,"maxT":2.8,"minT":0.6,"precip":0.005,"pcp6hr":0.04,"metarType":"METAR","rawOb":"METAR KMYL 132351Z AUTO 35003KT 10SM UP FEW018 SCT033 OVC047 03/01 A2998 RMK AO2 UPB16E24B51RAB24E34B50E51 SLP168 P0000 60004 T00280006 10028 20006 53008","lat":44.8943,"lon":-116.0998,"elev":1532,"name":"McCall Muni, ID, US","cover":"OVC","clouds":[{"cover":"FEW","base":1800},{"cover":"SCT","base":3300},{"cover":"OVC","base":4700}],"fltCat":"VFR"},{"icaoId":"KLGU","receiptTime":"2026-04-13T23:54:15.361Z","obsTime":1776124260,"reportTime":"2026-04-14T00:00:00.000Z","temp":12.8,"dewp":-3.3,"wdir":210,"wspd":9,"visib":"10+","altim":1013.3,"slp":1011.8,"qcField":6,"presTend":-1.5,"maxT":12.8,"minT":5.6,"pcp6hr":0.005,"metarType":"METAR","rawOb":"METAR KLGU 132351Z AUTO 21009KT 10SM CLR 13/M03 A2992 RMK AO2 SLP118 60000 T01281033 10128 20056 56015","lat":41.7865,"lon":-111.8519,"elev":1359,"name":"Logan/Cache Arpt, UT, US","cover":"CLR","clouds":[],"fltCat":"VFR"},{"icaoId":"KLGA","receiptTime":"2026-04-13T23:54:15.320Z","obsTime":1776124260,"reportTime":"2026-04-14T00:00:00.000Z","temp":24.4,"dewp":12.2,"wdir":220,"wspd":10,"wgst":19,"visib":"10+","altim":1013,"slp":1012.9,"qcField":12,"presTend":0.2,"maxT":26.1,"minT":22.2,"pcp6hr":0.005,"metarType":"METAR","rawOb":"METAR KLGA 132351Z 22010G19KT 10SM FEW050 SCT170 SCT250 24/12 A2991 RMK AO2 SLP129 60000 T02440122 10261 20222 53002 $","lat":40.7794,"lon":-73.8803,"elev":9,"name":"New York/La Guardia Arpt, NY, US","cover":"SCT","clouds":[{"cover":"FEW","base":5000},{"cover":"SCT","base":17000},{"cover":"SCT","base":25000}],"fltCat":"VFR"},{"icaoId":"KJFK","receiptTime":"2026-04-13T23:54:15.284Z","obsTime":1776124260,"reportTime":"2026-04-14T00:00:00.000Z","temp":20,"dewp":11.7,"wdir":240,"wspd":15,"visib":"10+","altim":1014,"slp":1013.8,"qcField":4,"presTend":0.1,"maxT":23.9,"minT":14.4,"metarType":"METAR","rawOb":"METAR KJFK 132351Z 24015KT 10SM FEW050 FEW150 FEW250 20/12 A2994 RMK AO2 SLP138 T02000117 10239 20144 53001","lat":40.6392,"lon":-73.7639,"elev":3,"name":"New York/JF Kennedy Intl, NY, US","cover":"FEW","clouds":[{"cover":"FEW","base":5000},{"cover":"FEW","base":15000},{"cover":"FEW","base":25000}],"fltCat":"VFR"},{"icaoId":"KEWR","receiptTime":"2026-04-13T23:54:15.035Z","obsTime":1776124260,"reportTime":"2026-04-14T00:00:00.000Z","temp":24.4,"dewp":12.2,"wdir":230,"wspd":13,"wgst":24,"visib":"10+","altim":1013.6,"slp":1013.3,"qcField":4,"presTend":0.3,"maxT":27.2,"minT":24.4,"pcp6hr":0.005,"metarType":"METAR","rawOb":"METAR KEWR 132351Z 23013G24KT 10SM FEW050 FEW160 FEW250 24/12 A2993 RMK AO2 PK WND 22028/2257 SLP133 60000 T02440122 10272 20244 53003","lat":40.6828,"lon":-74.1692,"elev":2,"name":"Newark Intl, NJ, US","cover":"FEW","clouds":[{"cover":"FEW","base":5000},{"cover":"FEW","base":16000},{"cover":"FEW","base":25000}],"fltCat":"VFR"},{"icaoId":"KADM","receiptTime":"2026-04-13T23:55:13.590Z","obsTime":1776124200,"reportTime":"2026-04-14T00:00:00.000Z","temp":28,"dewp":21,"wdir":170,"wspd":11,"wgst":19,"visib":"10+","altim":1012.6,"qcField":0,"metarType":"METAR","rawOb":"METAR KADM 132350Z 17011G19KT 10SM SCT037 28/21 A2990","lat":34.3007,"lon":-97.0089,"elev":223,"name":"Ardmore Muni, OK, US","cover":"SCT","clouds":[{"cover":"SCT","base":3700}],"fltCat":"VFR"},{"icaoId":"KIWA","receiptTime":"2026-04-13T23:52:23.924Z","obsTime":1776124200,"reportTime":"2026-04-14T00:00:00.000Z","temp":24,"dewp":4,"wdir":260,"wspd":7,"visib":"10+","altim":1012.3,"qcField":0,"metarType":"METAR","rawOb":"METAR KIWA 132350Z 26007KT 10SM CLR 24/04 A2989","lat":33.3008,"lon":-111.6437,"elev":420,"name":"Phoenix/Mesa Gateway Arpt, AZ, US","cover":"CLR","clouds":[],"fltCat":"VFR"},{"icaoId":"KHOB","receiptTime":"2026-04-13T23:51:14.326Z","obsTime":1776124200,"reportTime":"2026-04-14T00:00:00.000Z","temp":28,"dewp":-4,"wdir":210,"wspd":22,"wgst":32,"visib":"10+","altim":1014.3,"qcField":0,"metarType":"METAR","rawOb":"METAR KHOB 132350Z 21022G32KT 10SM CLR 28/M04 A2995","lat":32.6797,"lon":-103.2222,"elev":1112,"name":"Hobbs Arpt, NM, US","cover":"CLR","clouds":[],"fltCat":"VFR"},{"icaoId":"KMHR","receiptTime":"2026-04-14T00:00:21.166Z","obsTime":1776124200,"reportTime":"2026-04-14T00:00:00.000Z","temp":19,"dewp":6,"wdir":290,"wspd":9,"visib":"10+","altim":1017.7,"qcField":6,"metarType":"METAR","rawOb":"METAR KMHR 132350Z AUTO 29009KT 10SM CLR 19/06 A3005 RMK AO2","lat":38.56,"lon":-121.284,"elev":30,"name":"Sacramento/Mather Fld, CA, US","cover":"CLR","clouds":[],"fltCat":"VFR"},{"icaoId":"KCHD","receiptTime":"2026-04-13T23:49:52.483Z","obsTime":1776124020,"reportTime":"2026-04-14T00:00:00.000Z","temp":25,"dewp":4,"wdir":220,"wspd":15,"wgst":22,"visib":"10+","altim":1011.6,"qcField":0,"metarType":"METAR","rawOb":"METAR KCHD 132347Z 22015G22KT 10SM OVC170 25/04 A2987","lat":33.2669,"lon":-111.8086,"elev":378,"name":"Chandler Muni, AZ, US","cover":"OVC","clouds":[{"cover":"OVC","base":17000}],"fltCat":"VFR"},{"icaoId":"KAEG","receiptTime":"2026-04-13T23:49:01.935Z","obsTime":1776124020,"reportTime":"2026-04-14T00:00:00.000Z","temp":16,"dewp":0,"wdir":230,"wspd":6,"wgst":9,"visib":"10+","altim":1016.3,"qcField":0,"wxString":"-RA","metarType":"METAR","rawOb":"METAR KAEG 132347Z 23006G09KT 10SM -RA SCT055 BKN075 OVC090 16/00 A3001","lat":35.15,"lon":-106.7929,"elev":1771,"name":"Albuquerque/Double Eagle Arpt, NM, US","cover":"OVC","clouds":[{"cover":"SCT","base":5500},{"cover":"BKN","base":7500},{"cover":"OVC","base":9000}],"fltCat":"VFR"},{"icaoId":"KSUN","receiptTime":"2026-04-13T23:54:12.022Z","obsTime":1776124020,"reportTime":"2026-04-14T00:00:00.000Z","temp":7,"dewp":2,"wdir":120,"wspd":5,"visib":"10+","altim":1013.3,"qcField":1,"metarType":"METAR","rawOb":"METAR KSUN 132347Z COR 12005KT 10SM SCT033 SCT065 07/02 A2992","lat":43.4969,"lon":-114.2923,"elev":1619,"name":"Hailey/Friedman Mem, ID, US","cover":"SCT","clouds":[{"cover":"SCT","base":3300},{"cover":"SCT","base":6500}],"fltCat":"VFR"},{"icaoId":"KGEU","receiptTime":"2026-04-13T23:49:52.753Z","obsTime":1776124020,"reportTime":"2026-04-14T00:00:00.000Z","temp":25,"dewp":4,"wdir":240,"wspd":12,"visib":"10+","altim":1010.6,"qcField":0,"metarType":"METAR","rawOb":"METAR KGEU 132347Z 24012KT 10SM FEW080 25/04 A2984","lat":33.528,"lon":-112.293,"elev":319,"name":"Glendale Muni, AZ, US","cover":"FEW","clouds":[{"cover":"FEW","base":8000}],"fltCat":"VFR"},{"icaoId":"KGYR","receiptTime":"2026-04-13T23:48:12.218Z","obsTime":1776124020,"reportTime":"2026-04-14T00:00:00.000Z","temp":26,"dewp":6,"wdir":210,"wspd":15,"wgst":21,"visib":"10+","altim":1011.6,"qcField":0,"metarType":"METAR","rawOb":"METAR KGYR 132347Z 21015G21KT 10SM FEW065 SCT180 BKN250 26/06 A2987","lat":33.428,"lon":-112.368,"elev":292,"name":"Phoenix/Goodyear Muni, AZ, US","cover":"BKN","clouds":[{"cover":"FEW","base":6500},{"cover":"SCT","base":18000},{"cover":"BKN","base":25000}],"fltCat":"VFR"},{"icaoId":"KBJC","receiptTime":"2026-04-13T23:50:32.340Z","obsTime":1776123900,"reportTime":"2026-04-14T00:00:00.000Z","temp":20,"dewp":-12,"wdir":360,"wspd":8,"visib":"10+","altim":1008.9,"qcField":0,"metarType":"METAR","rawOb":"METAR KBJC 132345Z 36008KT 10SM CLR 20/M12 A2979","lat":39.9008,"lon":-105.1042,"elev":1694,"name":"Rocky Mtn Metro, CO, US","cover":"CLR","clouds":[],"fltCat":"VFR"},{"icaoId":"KRYN","receiptTime":"2026-04-13T23:46:22.491Z","obsTime":1776123900,"reportTime":"2026-04-14T00:00:00.000Z","temp":25,"dewp":2,"wdir":200,"wspd":22,"wgst":28,"visib":"10+","altim":1013.3,"qcField":0,"metarType":"METAR","rawOb":"METAR KRYN 132345Z 20022G28KT 10SM CLR 25/02 A2992","lat":32.1418,"lon":-111.1767,"elev":731,"name":"Tucson/Ryan Fld, AZ, US","cover":"CLR","clouds":[],"fltCat":"VFR"}]