[{"icaoId":"KFLG","receiptTime":"2026-04-10T17:00:42.686Z","obsTime":1775840220,"reportTime":"2026-04-10T17:00:00.000Z","temp":13.3,"dewp":-2.8,"wdir":200,"wspd":10,"visib":"10+","altim":1022.4,"slp":1016,"qcField":12,"metarType":"METAR","rawOb":"METAR KFLG 101657Z 20010KT 10SM CLR 13/M03 A3019 RMK AO2 SLP160 T01331028 $","lat":35.1443,"lon":-111.6664,"elev":2134,"name":"Flagstaff/Pulliam Arpt, AZ, US","cover":"CLR","clouds":[],"fltCat":"VFR"},{"icaoId":"KNYL","receiptTime":"2026-04-10T17:00:49.929Z","obsTime":1775840220,"reportTime":"2026-04-10T17:00:00.000Z","temp":26.1,"dewp":7.2,"wdir":290,"wspd":11,"wgst":15,"visib":"10+","altim":1013,"slp":1012.6,"qcField":4,"metarType":"METAR","rawOb":"METAR KNYL 101657Z 29011G15KT 10SM FEW110 SCT170 26/07 A2991 RMK AO2 SLP126 T02610072","lat":32.66,"lon":-114.6078,"elev":58,"name":"Yuma , AZ, US","cover":"SCT","clouds":[{"cover":"FEW","base":11000},{"cover":"SCT","base":17000}],"fltCat":"VFR"},{"icaoId":"KDUG","receiptTime":"2026-04-10T17:02:10.179Z","obsTime":1775840160,"reportTime":"2026-04-10T17:00:00.000Z","temp":21.1,"dewp":-0.6,"wdir":0,"wspd":0,"visib":"10+","altim":1019.4,"slp":1013.7,"qcField":38,"metarType":"METAR","rawOb":"METAR KDUG 101656Z AUTO 00000KT 10SM CLR 21/M01 A3010 RMK AO2 SLP137 T02111006 TSNO","lat":31.4725,"lon":-109.6022,"elev":1260,"name":"Douglas/Bisbee Intl, AZ, US","cover":"CLR","clouds":[],"fltCat":"VFR"},{"icaoId":"KINW","receiptTime":"2026-04-10T17:00:40.933Z","obsTime":1775840160,"reportTime":"2026-04-10T17:00:00.000Z","temp":17.8,"dewp":0,"wdir":130,"wspd":7,"visib":"10+","altim":1019.7,"slp":1015.2,"qcField":142,"metarType":"METAR","rawOb":"METAR KINW 101656Z AUTO 13007KT 10SM CLR 18/00 A3011 RMK AO2 SLP152 T01780000 PWINO $","lat":35.0279,"lon":-110.7221,"elev":1492,"name":"Winslow/Lindberg Rgnl, AZ, US","cover":"CLR","clouds":[],"fltCat":"VFR"},{"icaoId":"KCGZ","receiptTime":"2026-04-10T16:58:23.635Z","obsTime":1775840160,"reportTime":"2026-04-10T17:00:00.000Z","temp":27.8,"dewp":2.2,"wdir":0,"wspd":0,"visib":"10+","altim":1014.6,"slp":1013.1,"qcField":14,"metarType":"METAR","rawOb":"METAR KCGZ 101656Z AUTO 00000KT 10SM CLR 28/02 A2996 RMK AO2 SLP131 T02780022 $","lat":32.9531,"lon":-111.7725,"elev":444,"name":"Casa Granda Muni, AZ, US","cover":"CLR","clouds":[],"fltCat":"VFR"},{"icaoId":"KHII","receiptTime":"2026-04-10T17:01:25.917Z","obsTime":1775840100,"reportTime":"2026-04-10T17:00:00.000Z","temp":27,"dewp":7,"wdir":0,"wspd":0,"visib":"10+","altim":1012.3,"qcField":6,"metarType":"METAR","rawOb":"METAR KHII 101655Z AUTO 00000KT 10SM CLR 27/07 A2989 RMK AO2","lat":34.5659,"lon":-114.3522,"elev":241,"name":"Lake Havasu City Arpt, AZ, US","cover":"CLR","clouds":[],"fltCat":"VFR"},{"icaoId":"KSOW","receiptTime":"2026-04-10T16:58:18.945Z","obsTime":1775840100,"reportTime":"2026-04-10T17:00:00.000Z","temp":18,"dewp":-2,"wdir":180,"wspd":8,"visib":7,"altim":1022.8,"qcField":6,"metarType":"METAR","rawOb":"METAR KSOW 101655Z AUTO 18008KT 160V220 7SM CLR 18/M02 A3020 RMK AO2","lat":34.2686,"lon":-110.0019,"elev":1954,"name":"Show Low Muni, AZ, US","cover":"CLR","clouds":[],"fltCat":"VFR"},{"icaoId":"KLUF","receiptTime":"2026-04-10T17:02:11.566Z","obsTime":1775840100,"reportTime":"2026-04-10T17:00:00.000Z","temp":26.4,"dewp":2.3,"wdir":0,"wspd":0,"visib":"10+","altim":1013.3,"slp":1011.9,"qcField":12,"metarType":"METAR","rawOb":"METAR KLUF 101655Z 00000KT 10SM FEW140 SCT180 BKN200 26/02 A2992 RMK AO2A SLP119 T02640023 $","lat":33.538,"lon":-112.38,"elev":333,"name":"Phoenix/Luke AFB, AZ, US","cover":"BKN","clouds":[{"cover":"FEW","base":14000},{"cover":"SCT","base":18000},{"cover":"BKN","base":20000}],"fltCat":"VFR"},{"icaoId":"KSEZ","receiptTime":"2026-04-10T17:00:08.549Z","obsTime":1775840100,"reportTime":"2026-04-10T17:00:00.000Z","temp":20,"dewp":-2,"wdir":160,"wspd":10,"visib":"10+","altim":1019.4,"qcField":6,"metarType":"METAR","rawOb":"METAR KSEZ 101655Z AUTO 16010KT 10SM CLR 20/M02 A3010 RMK AO2","lat":34.8467,"lon":-111.7884,"elev":1455,"name":"Sedona Arpt, AZ, US","cover":"CLR","clouds":[],"fltCat":"VFR"},{"icaoId":"KOLS","receiptTime":"2026-04-10T16:58:12.430Z","obsTime":1775840040,"reportTime":"2026-04-10T17:00:00.000Z","temp":25,"dewp":1.7,"visib":"10+","altim":1018.4,"slp":1012,"qcField":6,"metarType":"METAR","rawOb":"METAR KOLS 101654Z AUTO 10SM CLR 25/02 A3007 RMK AO2 SLP120 T02500017","lat":31.4208,"lon":-110.8465,"elev":1194,"name":"Nogales Intl, AZ, US","cover":"CLR","clouds":[],"fltCat":"VFR"},{"icaoId":"KFFZ","receiptTime":"2026-04-10T16:58:10.594Z","obsTime":1775840040,"reportTime":"2026-04-10T17:00:00.000Z","temp":27.8,"dewp":0,"wdir":150,"wspd":6,"visib":"10+","altim":1014,"slp":1011.5,"qcField":4,"metarType":"METAR","rawOb":"METAR KFFZ 101654Z 15006KT 10SM CLR 28/00 A2994 RMK AO2 SLP115 T02780000","lat":33.4659,"lon":-111.7212,"elev":420,"name":"Mesa/Falcon Fld, AZ, US","cover":"CLR","clouds":[],"fltCat":"VFR"},{"icaoId":"KGCN","receiptTime":"2026-04-10T16:58:12.352Z","obsTime":1775840040,"reportTime":"2026-04-10T17:00:00.000Z","temp":15.6,"dewp":-2.2,"wdir":210,"wspd":14,"wgst":27,"visib":"10+","altim":1020.7,"slp":1013.6,"qcField":4,"metarType":"METAR","rawOb":"METAR KGCN 101654Z 21014G27KT 10SM CLR 16/M02 A3014 RMK AO2 PK WND 21027/1646 SLP136 T01561022","lat":35.9458,"lon":-112.1554,"elev":1993,"name":"Grand Canyon Park Arpt, AZ, US","cover":"CLR","clouds":[],"fltCat":"VFR"},{"icaoId":"KSJN","receiptTime":"2026-04-10T16:58:10.200Z","obsTime":1775840040,"reportTime":"2026-04-10T17:00:00.000Z","temp":18.3,"dewp":-2.2,"wdir":0,"wspd":0,"visib":"10+","altim":1020.7,"slp":1013.6,"qcField":6,"metarType":"METAR","rawOb":"METAR KSJN 101654Z AUTO 00000KT 10SM FEW100 18/M02 A3014 RMK AO2 SLP136 T01831022","lat":34.5184,"lon":-109.3801,"elev":1747,"name":"St Johns Ind Arpt, AZ, US","cover":"FEW","clouds":[{"cover":"FEW","base":10000}],"fltCat":"VFR"},{"icaoId":"KSDL","receiptTime":"2026-04-10T16:56:21.380Z","obsTime":1775839980,"reportTime":"2026-04-10T17:00:00.000Z","temp":26.1,"dewp":1.1,"wdir":"VRB","wspd":3,"visib":"10+","altim":1014.6,"slp":1012.1,"qcField":4,"metarType":"METAR","rawOb":"METAR KSDL 101653Z VRB03KT 10SM CLR 26/01 A2996 RMK AO2 SLP121 T02610011","lat":33.6123,"lon":-111.9232,"elev":438,"name":"Scottsdale Muni, AZ, US","cover":"CLR","clouds":[],"fltCat":"VFR"},{"icaoId":"KPGA","receiptTime":"2026-04-10T16:56:23.616Z","obsTime":1775839980,"reportTime":"2026-04-10T17:00:00.000Z","temp":21.1,"dewp":-3.9,"wdir":0,"wspd":0,"visib":"10+","altim":1016.3,"slp":1010.6,"qcField":6,"metarType":"METAR","rawOb":"METAR KPGA 101653Z AUTO 00000KT 10SM CLR 21/M04 A3001 RMK AO2 SLP106 T02111039","lat":36.9211,"lon":-111.4487,"elev":1310,"name":"Page Muni, AZ, US","cover":"CLR","clouds":[],"fltCat":"VFR"},{"icaoId":"KTUS","receiptTime":"2026-04-10T16:56:21.690Z","obsTime":1775839980,"reportTime":"2026-04-10T17:00:00.000Z","temp":25.6,"dewp":-0.6,"wdir":310,"wspd":4,"visib":"10+","altim":1016.7,"slp":1012.3,"qcField":4,"metarType":"METAR","rawOb":"METAR KTUS 101653Z 31004KT 10SM CLR 26/M01 A3002 RMK AO2 SLP123 T02561006","lat":32.1315,"lon":-110.9564,"elev":776,"name":"Tucson Intl Arpt, AZ, US","cover":"CLR","clouds":[],"fltCat":"VFR"},{"icaoId":"KPRC","receiptTime":"2026-04-10T16:56:23.130Z","obsTime":1775839980,"reportTime":"2026-04-10T17:00:00.000Z","temp":20,"dewp":-0.6,"wdir":200,"wspd":10,"wgst":18,"visib":"10+","altim":1019,"slp":1012.5,"qcField":4,"metarType":"METAR","rawOb":"METAR KPRC 101653Z 20010G18KT 10SM CLR 20/M01 A3009 RMK AO2 SLP125 T02001006","lat":34.6491,"lon":-112.4223,"elev":1528,"name":"Prescott/Love Fld, AZ, US","cover":"CLR","clouds":[],"fltCat":"VFR"},{"icaoId":"KDVT","receiptTime":"2026-04-10T16:56:29.133Z","obsTime":1775839980,"reportTime":"2026-04-10T17:00:00.000Z","temp":26.7,"dewp":1.7,"wdir":140,"wspd":6,"visib":"10+","altim":1014.3,"slp":1011.9,"qcField":4,"metarType":"METAR","rawOb":"METAR KDVT 101653Z 14006KT 10SM CLR 27/02 A2995 RMK AO2 SLP119 T02670017","lat":33.6902,"lon":-112.0662,"elev":454,"name":"Phoenix/Deer Valley Arpt, AZ, US","cover":"CLR","clouds":[],"fltCat":"VFR"},{"icaoId":"KPHX","receiptTime":"2026-04-10T16:54:07.923Z","obsTime":1775839860,"reportTime":"2026-04-10T17:00:00.000Z","temp":27.2,"dewp":3.3,"wdir":150,"wspd":4,"visib":"10+","altim":1013.3,"slp":1011.5,"qcField":4,"metarType":"METAR","rawOb":"METAR KPHX 101651Z 15004KT 10SM FEW210 BKN250 BKN290 27/03 A2992 RMK AO2 SLP115 T02720033","lat":33.4278,"lon":-112.0037,"elev":338,"name":"Phoenix/Sky Harbor Intl, AZ, US","cover":"BKN","clouds":[{"cover":"FEW","base":21000},{"cover":"BKN","base":25000},{"cover":"BKN","base":29000}],"fltCat":"VFR"},{"icaoId":"KSAD","receiptTime":"2026-04-10T16:54:06.540Z","obsTime":1775839860,"reportTime":"2026-04-10T17:00:00.000Z","temp":23.9,"dewp":-3.3,"wdir":110,"wspd":5,"visib":"10+","altim":1016.7,"slp":1011.9,"qcField":6,"metarType":"METAR","rawOb":"METAR KSAD 101651Z AUTO 11005KT 10SM CLR 24/M03 A3002 RMK AO2 SLP119 T02391033","lat":32.8565,"lon":-109.636,"elev":937,"name":"Safford Rgnl, AZ, US","cover":"CLR","clouds":[],"fltCat":"VFR"},{"icaoId":"KIGM","receiptTime":"2026-04-10T16:54:07.639Z","obsTime":1775839860,"reportTime":"2026-04-10T17:00:00.000Z","temp":22.2,"dewp":3.3,"wdir":230,"wspd":13,"wgst":24,"visib":"10+","altim":1015.3,"slp":1009,"qcField":6,"metarType":"METAR","rawOb":"METAR KIGM 101651Z AUTO 23013G24KT 10SM CLR 22/03 A2998 RMK AO2 SLP090 T02220033","lat":35.2575,"lon":-113.9341,"elev":1045,"name":"Kingman Arpt, AZ, US","cover":"CLR","clouds":[],"fltCat":"VFR"},{"icaoId":"KIWA","receiptTime":"2026-04-10T16:53:14.306Z","obsTime":1775839800,"reportTime":"2026-04-10T17:00:00.000Z","temp":27,"dewp":1,"wdir":0,"wspd":0,"visib":"10+","altim":1014.6,"qcField":0,"metarType":"METAR","rawOb":"METAR KIWA 101650Z 00000KT 10SM CLR 27/01 A2996","lat":33.3008,"lon":-111.6437,"elev":420,"name":"Phoenix/Mesa Gateway Arpt, AZ, US","cover":"CLR","clouds":[],"fltCat":"VFR"},{"icaoId":"KIFP","receiptTime":"2026-04-10T16:48:50.207Z","obsTime":1775839680,"reportTime":"2026-04-10T17:00:00.000Z","temp":27,"dewp":6,"wdir":180,"wspd":8,"visib":20,"altim":1011.6,"qcField":0,"metarType":"METAR","rawOb":"METAR KIFP 101648Z 18008KT 20SM SCT100 27/06 A2987","lat":35.1487,"lon":-114.5611,"elev":210,"name":"Bullhead City Intl, AZ, US","cover":"SCT","clouds":[{"cover":"SCT","base":10000}],"fltCat":"VFR"},{"icaoId":"KCHD","receiptTime":"2026-04-10T16:48:50.073Z","obsTime":1775839620,"reportTime":"2026-04-10T17:00:00.000Z","temp":27,"dewp":3,"wdir":190,"wspd":6,"visib":"10+","altim":1014,"qcField":0,"metarType":"METAR","rawOb":"METAR KCHD 101647Z 19006KT 10SM FEW250 27/03 A2994","lat":33.2669,"lon":-111.8086,"elev":378,"name":"Chandler Muni, AZ, US","cover":"FEW","clouds":[{"cover":"FEW","base":25000}],"fltCat":"VFR"},{"icaoId":"KGYR","receiptTime":"2026-04-10T16:48:11.171Z","obsTime":1775839620,"reportTime":"2026-04-10T17:00:00.000Z","temp":26,"dewp":4,"wdir":0,"wspd":0,"visib":"10+","altim":1014,"qcField":0,"metarType":"METAR","rawOb":"METAR KGYR 101647Z 00000KT 10SM BKN250 26/04 A2994","lat":33.428,"lon":-112.368,"elev":292,"name":"Phoenix/Goodyear Muni, AZ, US","cover":"BKN","clouds":[{"cover":"BKN","base":25000}],"fltCat":"VFR"},{"icaoId":"KGEU","receiptTime":"2026-04-10T16:48:11.147Z","obsTime":1775839620,"reportTime":"2026-04-10T17:00:00.000Z","temp":26,"dewp":2,"wdir":40,"wspd":4,"visib":"10+","altim":1013,"qcField":0,"metarType":"METAR","rawOb":"METAR KGEU 101647Z 04004KT 10SM CLR 26/02 A2991","lat":33.528,"lon":-112.293,"elev":319,"name":"Glendale Muni, AZ, US","cover":"CLR","clouds":[],"fltCat":"VFR"},{"icaoId":"KRYN","receiptTime":"2026-04-10T16:46:18.368Z","obsTime":1775839500,"reportTime":"2026-04-10T17:00:00.000Z","temp":27,"dewp":-2,"wdir":0,"wspd":0,"visib":"10+","altim":1015.7,"qcField":0,"metarType":"METAR","rawOb":"METAR KRYN 101645Z 00000KT 10SM CLR 27/M02 A2999","lat":32.1418,"lon":-111.1767,"elev":731,"name":"Tucson/Ryan Fld, AZ, US","cover":"CLR","clouds":[],"fltCat":"VFR"}]