[{"icaoId":"KHII","receiptTime":"2026-04-10T12:40:45.049Z","obsTime":1775824500,"reportTime":"2026-04-10T12:35:00.000Z","temp":23,"dewp":6,"wdir":0,"wspd":0,"visib":"10+","altim":1009.9,"qcField":6,"metarType":"METAR","rawOb":"METAR KHII 101235Z AUTO 00000KT 10SM CLR 23/06 A2982 RMK AO2","lat":34.5659,"lon":-114.3522,"elev":241,"name":"Lake Havasu City Arpt, AZ, US","cover":"CLR","clouds":[],"fltCat":"VFR"},{"icaoId":"KIFP","receiptTime":"2026-04-10T12:40:55.628Z","obsTime":1775824500,"reportTime":"2026-04-10T12:35:00.000Z","temp":22,"dewp":5,"wdir":"VRB","wspd":3,"visib":"10+","altim":1009.2,"qcField":6,"metarType":"METAR","rawOb":"METAR KIFP 101235Z AUTO VRB03KT 10SM CLR 22/05 A2980 RMK AO2","lat":35.1487,"lon":-114.5611,"elev":210,"name":"Bullhead City Intl, AZ, US","cover":"CLR","clouds":[],"fltCat":"VFR"},{"icaoId":"KSOW","receiptTime":"2026-04-10T12:38:15.423Z","obsTime":1775824500,"reportTime":"2026-04-10T12:35:00.000Z","temp":9,"dewp":-4,"wdir":170,"wspd":3,"visib":5,"altim":1020.7,"qcField":6,"wxString":"HZ","metarType":"METAR","rawOb":"METAR KSOW 101235Z AUTO 17003KT 5SM HZ CLR 09/M04 A3014 RMK AO2","lat":34.2686,"lon":-110.0019,"elev":1954,"name":"Show Low Muni, AZ, US","cover":"CLR","clouds":[],"fltCat":"MVFR"},{"icaoId":"KSEZ","receiptTime":"2026-04-10T12:40:50.316Z","obsTime":1775824500,"reportTime":"2026-04-10T12:35:00.000Z","temp":14,"dewp":-4,"wdir":100,"wspd":5,"visib":"10+","altim":1017,"qcField":6,"metarType":"METAR","rawOb":"METAR KSEZ 101235Z AUTO 10005KT 10SM CLR 14/M04 A3003 RMK AO2","lat":34.8467,"lon":-111.7884,"elev":1455,"name":"Sedona Arpt, AZ, US","cover":"CLR","clouds":[],"fltCat":"VFR"},{"icaoId":"KCHD","receiptTime":"2026-04-10T12:38:13.816Z","obsTime":1775824500,"reportTime":"2026-04-10T12:35:00.000Z","temp":17.8,"dewp":1.4,"wdir":120,"wspd":5,"visib":"10+","altim":1011.6,"qcField":14,"metarType":"METAR","rawOb":"METAR KCHD 101235Z AUTO 12005KT 10SM CLR 18/01 A2987 RMK AO2 T01780014 $","lat":33.2669,"lon":-111.8086,"elev":378,"name":"Chandler Muni, AZ, US","cover":"CLR","clouds":[],"fltCat":"VFR"},{"icaoId":"KCGZ","receiptTime":"2026-04-10T12:22:02.191Z","obsTime":1775823540,"reportTime":"2026-04-10T12:19:00.000Z","temp":18,"dewp":-3,"wdir":0,"wspd":0,"visib":"10+","altim":1012.6,"qcField":14,"metarType":"SPECI","rawOb":"SPECI KCGZ 101219Z AUTO 00000KT 10SM FEW001 18/M03 A2990 RMK AO2 $","lat":32.9531,"lon":-111.7725,"elev":444,"name":"Casa Granda Muni, AZ, US","cover":"FEW","clouds":[{"cover":"FEW","base":100}],"fltCat":"VFR"},{"icaoId":"KNYL","receiptTime":"2026-04-10T12:02:07.481Z","obsTime":1775822220,"reportTime":"2026-04-10T12:00:00.000Z","temp":22.2,"dewp":7.2,"wdir":270,"wspd":6,"visib":"10+","altim":1010.2,"slp":1009.9,"qcField":6,"presTend":-0.5,"maxT":26.1,"minT":22.2,"metarType":"METAR","rawOb":"METAR KNYL 101157Z AUTO 27006KT 10SM CLR 22/07 A2983 RMK AO2 SLP099 T02220072 10261 20222 56005","lat":32.66,"lon":-114.6078,"elev":58,"name":"Yuma , AZ, US","cover":"CLR","clouds":[],"fltCat":"VFR"},{"icaoId":"KFLG","receiptTime":"2026-04-10T12:01:11.148Z","obsTime":1775822220,"reportTime":"2026-04-10T12:00:00.000Z","temp":3.3,"dewp":-5,"wdir":0,"wspd":0,"visib":"10+","altim":1020.1,"slp":1013.3,"qcField":14,"presTend":-0.3,"maxT":6.1,"minT":2.8,"metarType":"METAR","rawOb":"METAR KFLG 101157Z AUTO 00000KT 10SM CLR 03/M05 A3012 RMK AO2 SLP133 T00331050 10061 20028 55003 $","lat":35.1443,"lon":-111.6664,"elev":2134,"name":"Flagstaff/Pulliam Arpt, AZ, US","cover":"CLR","clouds":[],"fltCat":"VFR"},{"icaoId":"KINW","receiptTime":"2026-04-10T12:00:36.944Z","obsTime":1775822160,"reportTime":"2026-04-10T12:00:00.000Z","temp":9.4,"dewp":0,"wdir":140,"wspd":3,"visib":"10+","altim":1018,"slp":1012.4,"qcField":6,"maxT":12.8,"minT":8.9,"metarType":"METAR","rawOb":"METAR KINW 101156Z AUTO 14003KT 10SM CLR 09/00 A3006 RMK AO2 SLP124 T00940000 10128 20089 50000","lat":35.0279,"lon":-110.7221,"elev":1492,"name":"Winslow/Lindberg Rgnl, AZ, US","cover":"CLR","clouds":[],"fltCat":"VFR"},{"icaoId":"KDUG","receiptTime":"2026-04-10T12:02:10.434Z","obsTime":1775822160,"reportTime":"2026-04-10T12:00:00.000Z","temp":11.7,"dewp":-2.8,"wdir":10,"wspd":7,"visib":"10+","altim":1017,"slp":1011.4,"qcField":38,"presTend":0.1,"maxT":17.8,"minT":11.1,"metarType":"METAR","rawOb":"METAR KDUG 101156Z AUTO 01007KT 10SM CLR 12/M03 A3003 RMK AO2 SLP114 T01171028 10178 20111 50001 TSNO","lat":31.4725,"lon":-109.6022,"elev":1260,"name":"Douglas/Bisbee Intl, AZ, US","cover":"CLR","clouds":[],"fltCat":"VFR"},{"icaoId":"KLUF","receiptTime":"2026-04-10T12:02:14.115Z","obsTime":1775822100,"reportTime":"2026-04-10T12:00:00.000Z","temp":19.9,"dewp":1.3,"wdir":280,"wspd":4,"visib":"10+","altim":1010.2,"slp":1008.8,"qcField":12,"presTend":0.3,"maxT":26.7,"minT":19.2,"metarType":"METAR","rawOb":"METAR KLUF 101155Z 28004KT 10SM BKN200 20/01 A2983 RMK AO2A SLP088 T01990013 10267 20192 51003 $","lat":33.538,"lon":-112.38,"elev":333,"name":"Phoenix/Luke AFB, AZ, US","cover":"BKN","clouds":[{"cover":"BKN","base":20000}],"fltCat":"VFR"},{"icaoId":"KFFZ","receiptTime":"2026-04-10T11:58:14.522Z","obsTime":1775822040,"reportTime":"2026-04-10T12:00:00.000Z","temp":21.7,"dewp":-1.7,"wdir":100,"wspd":5,"visib":"10+","altim":1011.3,"slp":1008.9,"qcField":38,"maxT":26.7,"minT":20.6,"metarType":"METAR","rawOb":"METAR KFFZ 101154Z AUTO 10005KT 10SM CLR 22/M02 A2986 RMK AO2 SLP089 T02171017 10267 20206 55000 TSNO","lat":33.4659,"lon":-111.7212,"elev":420,"name":"Mesa/Falcon Fld, AZ, US","cover":"CLR","clouds":[],"fltCat":"VFR"},{"icaoId":"KGCN","receiptTime":"2026-04-10T11:58:17.034Z","obsTime":1775822040,"reportTime":"2026-04-10T12:00:00.000Z","temp":2.2,"dewp":-3.9,"wdir":40,"wspd":5,"visib":"10+","altim":1019,"slp":1013.2,"qcField":6,"presTend":-0.3,"maxT":11.7,"minT":0,"metarType":"METAR","rawOb":"METAR KGCN 101154Z AUTO 04005KT 10SM CLR 02/M04 A3009 RMK AO2 SLP132 T00221039 10117 20000 55003","lat":35.9458,"lon":-112.1554,"elev":1993,"name":"Grand Canyon Park Arpt, AZ, US","cover":"CLR","clouds":[],"fltCat":"VFR"},{"icaoId":"KOLS","receiptTime":"2026-04-10T11:58:17.098Z","obsTime":1775822040,"reportTime":"2026-04-10T12:00:00.000Z","temp":12.2,"dewp":-0.6,"wdir":50,"wspd":5,"visib":"10+","altim":1016.3,"slp":1010.7,"qcField":6,"presTend":-0.6,"maxT":19.4,"minT":12.2,"metarType":"METAR","rawOb":"METAR KOLS 101154Z AUTO 05005KT 10SM CLR 12/M01 A3001 RMK AO2 SLP107 T01221006 10194 20122 56006","lat":31.4208,"lon":-110.8465,"elev":1194,"name":"Nogales Intl, AZ, US","cover":"CLR","clouds":[],"fltCat":"VFR"},{"icaoId":"KSJN","receiptTime":"2026-04-10T11:58:14.353Z","obsTime":1775822040,"reportTime":"2026-04-10T12:00:00.000Z","temp":6.1,"dewp":-1.1,"wdir":0,"wspd":0,"visib":"10+","altim":1019.4,"slp":1012.5,"qcField":6,"maxT":12.8,"minT":6.1,"metarType":"METAR","rawOb":"METAR KSJN 101154Z AUTO 00000KT 10SM CLR 06/M01 A3010 RMK AO2 SLP125 T00611011 10128 20061 53000","lat":34.5184,"lon":-109.3801,"elev":1747,"name":"St Johns Ind Arpt, AZ, US","cover":"CLR","clouds":[],"fltCat":"VFR"},{"icaoId":"KPGA","receiptTime":"2026-04-10T11:56:25.709Z","obsTime":1775821980,"reportTime":"2026-04-10T12:00:00.000Z","temp":16.7,"dewp":-5.6,"wdir":200,"wspd":3,"visib":"10+","altim":1014.6,"slp":1008.7,"qcField":6,"maxT":21.1,"minT":16.7,"metarType":"METAR","rawOb":"METAR KPGA 101153Z AUTO 20003KT 10SM CLR 17/M06 A2996 RMK AO2 SLP087 T01671056 10211 20167 51000","lat":36.9211,"lon":-111.4487,"elev":1310,"name":"Page Muni, AZ, US","cover":"CLR","clouds":[],"fltCat":"VFR"},{"icaoId":"KTUS","receiptTime":"2026-04-10T11:56:25.841Z","obsTime":1775821980,"reportTime":"2026-04-10T12:00:00.000Z","temp":18.3,"dewp":-2.2,"wdir":130,"wspd":6,"visib":"10+","altim":1014.6,"slp":1010.3,"qcField":4,"presTend":-0.3,"maxT":23.9,"minT":17.8,"metarType":"METAR","rawOb":"METAR KTUS 101153Z 13006KT 10SM CLR 18/M02 A2996 RMK AO2 SLP103 T01831022 10239 20178 55003","lat":32.1315,"lon":-110.9564,"elev":776,"name":"Tucson Intl Arpt, AZ, US","cover":"CLR","clouds":[],"fltCat":"VFR"},{"icaoId":"KSDL","receiptTime":"2026-04-10T11:56:25.784Z","obsTime":1775821980,"reportTime":"2026-04-10T12:00:00.000Z","temp":21.1,"dewp":0,"wdir":0,"wspd":0,"visib":"10+","altim":1011.9,"slp":1009.3,"qcField":4,"presTend":0.1,"maxT":25.6,"minT":21.1,"metarType":"METAR","rawOb":"METAR KSDL 101153Z 00000KT 10SM CLR 21/00 A2988 RMK AO2 SLP093 T02110000 10256 20211 51001","lat":33.6123,"lon":-111.9232,"elev":438,"name":"Scottsdale Muni, AZ, US","cover":"CLR","clouds":[],"fltCat":"VFR"},{"icaoId":"KPRC","receiptTime":"2026-04-10T11:56:25.748Z","obsTime":1775821980,"reportTime":"2026-04-10T12:00:00.000Z","temp":9.4,"dewp":-2.2,"wdir":190,"wspd":7,"visib":"10+","altim":1017,"slp":1010.8,"qcField":6,"presTend":-0.2,"maxT":15,"minT":9.4,"metarType":"METAR","rawOb":"METAR KPRC 101153Z AUTO 19007KT 10SM CLR 09/M02 A3003 RMK AO2 SLP108 T00941022 10150 20094 56002","lat":34.6491,"lon":-112.4223,"elev":1528,"name":"Prescott/Love Fld, AZ, US","cover":"CLR","clouds":[],"fltCat":"VFR"},{"icaoId":"KDVT","receiptTime":"2026-04-10T11:56:32.097Z","obsTime":1775821980,"reportTime":"2026-04-10T12:00:00.000Z","temp":19.4,"dewp":-1.7,"wdir":0,"wspd":0,"visib":"10+","altim":1011.6,"slp":1009.3,"qcField":6,"presTend":0.1,"maxT":23.9,"minT":18.3,"metarType":"METAR","rawOb":"METAR KDVT 101153Z AUTO 00000KT 10SM CLR 19/M02 A2987 RMK AO2 SLP093 T01941017 10239 20183 51001","lat":33.6902,"lon":-112.0662,"elev":454,"name":"Phoenix/Deer Valley Arpt, AZ, US","cover":"CLR","clouds":[],"fltCat":"VFR"},{"icaoId":"KSAD","receiptTime":"2026-04-10T11:54:08.193Z","obsTime":1775821860,"reportTime":"2026-04-10T12:00:00.000Z","temp":16.7,"dewp":-5,"wdir":130,"wspd":5,"visib":"10+","altim":1014.6,"slp":1009.7,"qcField":6,"presTend":0.3,"maxT":22.8,"minT":16.7,"metarType":"METAR","rawOb":"METAR KSAD 101151Z AUTO 13005KT 10SM CLR 17/M05 A2996 RMK AO2 SLP097 T01671050 10228 20167 53003","lat":32.8565,"lon":-109.636,"elev":937,"name":"Safford Rgnl, AZ, US","cover":"CLR","clouds":[],"fltCat":"VFR"},{"icaoId":"KPHX","receiptTime":"2026-04-10T11:54:08.057Z","obsTime":1775821860,"reportTime":"2026-04-10T12:00:00.000Z","temp":21.7,"dewp":1.1,"wdir":80,"wspd":8,"visib":"10+","altim":1010.6,"slp":1008.7,"qcField":4,"presTend":0.1,"maxT":28.3,"minT":21.7,"metarType":"METAR","rawOb":"METAR KPHX 101151Z 08008KT 10SM BKN250 22/01 A2984 RMK AO2 SLP087 T02170011 10283 20217 53001","lat":33.4278,"lon":-112.0037,"elev":338,"name":"Phoenix/Sky Harbor Intl, AZ, US","cover":"BKN","clouds":[{"cover":"BKN","base":25000}],"fltCat":"VFR"},{"icaoId":"KIGM","receiptTime":"2026-04-10T11:54:08.817Z","obsTime":1775821860,"reportTime":"2026-04-10T12:00:00.000Z","temp":16.1,"dewp":2.2,"wdir":210,"wspd":8,"visib":"10+","altim":1013.6,"slp":1007.2,"qcField":6,"presTend":0.4,"maxT":21.1,"minT":16.1,"metarType":"METAR","rawOb":"METAR KIGM 101151Z AUTO 21008KT 10SM CLR 16/02 A2993 RMK AO2 SLP072 T01610022 10211 20161 53004","lat":35.2575,"lon":-113.9341,"elev":1045,"name":"Kingman Arpt, AZ, US","cover":"CLR","clouds":[],"fltCat":"VFR"},{"icaoId":"KIWA","receiptTime":"2026-04-10T11:48:16.280Z","obsTime":1775821620,"reportTime":"2026-04-10T12:00:00.000Z","temp":19,"dewp":-3,"wdir":120,"wspd":6,"visib":"10+","altim":1012.3,"qcField":0,"metarType":"METAR","rawOb":"METAR KIWA 101147Z 12006KT 10SM CLR 19/M03 A2989","lat":33.3008,"lon":-111.6437,"elev":420,"name":"Phoenix/Mesa Gateway Arpt, AZ, US","cover":"CLR","clouds":[],"fltCat":"VFR"}]