[{"icaoId":"KHAF","receiptTime":"2026-04-17T10:57:08.573Z","obsTime":1776423300,"reportTime":"2026-04-17T11:00:00.000Z","temp":14,"dewp":-6,"wdir":330,"wspd":5,"visib":"10+","altim":1016.7,"qcField":6,"metarType":"METAR","rawOb":"METAR KHAF 171055Z AUTO 33005KT 10SM CLR 14/M06 A3002 RMK AO2","lat":37.5136,"lon":-122.4996,"elev":11,"name":"Half Moon Bay Arpt, CA, US","cover":"CLR","clouds":[],"fltCat":"VFR"},{"icaoId":"KCHD","receiptTime":"2026-04-17T10:56:57.959Z","obsTime":1776423300,"reportTime":"2026-04-17T11:00:00.000Z","temp":18.8,"dewp":-2.8,"wdir":170,"wspd":7,"visib":"10+","altim":1010.2,"qcField":14,"metarType":"METAR","rawOb":"METAR KCHD 171055Z AUTO 17007KT 10SM CLR 19/M03 A2983 RMK AO2 T01881028 $","lat":33.2669,"lon":-111.8086,"elev":378,"name":"Chandler Muni, AZ, US","cover":"CLR","clouds":[],"fltCat":"VFR"},{"icaoId":"KHOB","receiptTime":"2026-04-17T10:56:54.727Z","obsTime":1776423300,"reportTime":"2026-04-17T11:00:00.000Z","temp":16,"dewp":16,"wdir":333,"wspd":5,"wgst":11,"visib":99,"altim":1010.6,"qcField":6,"wxString":"BR","metarType":"METAR","rawOb":"METAR KHOB 171055Z AUTO 5.45833305G11KT 4SM BR CLR 16/16 A2984 RMK AO2","lat":32.6797,"lon":-103.2222,"elev":1112,"name":"Hobbs Arpt, NM, US","cover":"CLR","clouds":[],"fltCat":"VFR"},{"icaoId":"KHCR","receiptTime":"2026-04-17T10:57:08.607Z","obsTime":1776423300,"reportTime":"2026-04-17T11:00:00.000Z","temp":-6.5,"dewp":-10.1,"wdir":100,"wspd":7,"visib":"10+","altim":1018.4,"qcField":14,"metarType":"METAR","rawOb":"METAR KHCR 171055Z AUTO 10007KT 10SM FEW060 M06/M10 A3007 RMK AO2 T10651101 $","lat":40.4774,"lon":-111.4329,"elev":1708,"name":"Heber City Muni, UT, US","cover":"FEW","clouds":[{"cover":"FEW","base":6000}],"fltCat":"VFR"},{"icaoId":"KLRU","receiptTime":"2026-04-17T10:56:53.754Z","obsTime":1776423300,"reportTime":"2026-04-17T11:00:00.000Z","temp":8.7,"dewp":-10.7,"wdir":260,"wspd":8,"visib":"10+","altim":1013.6,"qcField":6,"metarType":"METAR","rawOb":"METAR KLRU 171055Z AUTO 26008KT 10SM CLR 09/M11 A2993 RMK AO2 T00871107","lat":32.2884,"lon":-106.9131,"elev":1355,"name":"Las Cruces Intl, NM, US","cover":"CLR","clouds":[],"fltCat":"VFR"},{"icaoId":"KBVU","receiptTime":"2026-04-17T10:56:19.807Z","obsTime":1776423300,"reportTime":"2026-04-17T11:00:00.000Z","temp":12,"dewp":-17,"wdir":10,"wspd":25,"wgst":34,"visib":"10+","altim":1016,"qcField":6,"metarType":"METAR","rawOb":"METAR KBVU 171055Z AUTO 01025G34KT 10SM CLR 12/M17 A3000 RMK AO2","lat":35.9489,"lon":-114.8633,"elev":654,"name":"Boulder City Muni, NV, US","cover":"CLR","clouds":[],"fltCat":"VFR"},{"icaoId":"KSOW","receiptTime":"2026-04-17T10:57:08.285Z","obsTime":1776423300,"reportTime":"2026-04-17T11:00:00.000Z","temp":9,"dewp":-10,"wdir":210,"wspd":8,"visib":"10+","altim":1014.6,"qcField":6,"metarType":"METAR","rawOb":"METAR KSOW 171055Z AUTO 21008KT 10SM CLR 09/M10 A2996 RMK AO2","lat":34.2686,"lon":-110.0019,"elev":1954,"name":"Show Low Muni, AZ, US","cover":"CLR","clouds":[],"fltCat":"VFR"},{"icaoId":"KFFZ","receiptTime":"2026-04-17T10:56:30.031Z","obsTime":1776423240,"reportTime":"2026-04-17T11:00:00.000Z","temp":17.2,"dewp":-1.1,"wdir":110,"wspd":5,"visib":"10+","altim":1009.9,"slp":1007.6,"qcField":4,"metarType":"METAR","rawOb":"METAR KFFZ 171054Z 11005KT 10SM CLR 17/M01 A2982 RMK AO2 SLP076 T01721011","lat":33.4659,"lon":-111.7212,"elev":420,"name":"Mesa/Falcon Fld, AZ, US","cover":"CLR","clouds":[],"fltCat":"VFR"},{"icaoId":"KEUG","receiptTime":"2026-04-17T10:56:29.931Z","obsTime":1776423240,"reportTime":"2026-04-17T11:00:00.000Z","temp":1.1,"dewp":0,"wdir":130,"wspd":5,"visib":"10+","altim":1027.2,"slp":1027.3,"qcField":6,"metarType":"METAR","rawOb":"METAR KEUG 171054Z AUTO 13005KT 10SM CLR 01/00 A3033 RMK AO2 SLP273 T00110000","lat":44.1331,"lon":-123.2156,"elev":109,"name":"Eugene/Mahlon Sweet Fld, OR, US","cover":"CLR","clouds":[],"fltCat":"VFR"},{"icaoId":"KDSM","receiptTime":"2026-04-17T10:56:29.771Z","obsTime":1776423240,"reportTime":"2026-04-17T11:00:00.000Z","temp":18.3,"dewp":16.7,"wdir":150,"wspd":16,"visib":"10+","altim":1004.8,"slp":1003.9,"qcField":4,"metarType":"METAR","rawOb":"METAR KDSM 171054Z 15016KT 10SM SCT012 OVC250 18/17 A2967 RMK AO2 PK WND 15034/1036 SLP039 T01830167","lat":41.5339,"lon":-93.6531,"elev":286,"name":"Des Moines Intl, IA, US","cover":"OVC","clouds":[{"cover":"SCT","base":1200},{"cover":"OVC","base":25000}],"fltCat":"VFR"},{"icaoId":"KSYR","receiptTime":"2026-04-17T10:57:06.346Z","obsTime":1776423240,"reportTime":"2026-04-17T11:00:00.000Z","temp":14.4,"dewp":13.9,"wdir":270,"wspd":4,"visib":6,"altim":1011.3,"slp":1010.8,"qcField":12,"wxString":"-RA BR","precip":0.01,"metarType":"METAR","rawOb":"METAR KSYR 171054Z 27004KT 6SM -RA BR OVC005 14/14 A2986 RMK AO2 DZE06RAB06 SLP108 P0001 T01440139 $","lat":43.1111,"lon":-76.1038,"elev":125,"name":"Syracuse/Hancock Intl, NY, US","cover":"OVC","clouds":[{"cover":"OVC","base":500}],"fltCat":"IFR"},{"icaoId":"KSLC","receiptTime":"2026-04-17T10:57:06.322Z","obsTime":1776423240,"reportTime":"2026-04-17T11:00:00.000Z","temp":-0.6,"dewp":-5,"wdir":70,"wspd":5,"visib":"10+","altim":1021.1,"slp":1022,"qcField":12,"metarType":"METAR","rawOb":"METAR KSLC 171054Z 07005KT 10SM FEW043 SCT075 BKN090 M01/M05 A3015 RMK AO2 SLP220 T10061050 $","lat":40.7707,"lon":-111.965,"elev":1286,"name":"Salt Lake City Intl, UT, US","cover":"BKN","clouds":[{"cover":"FEW","base":4300},{"cover":"SCT","base":7500},{"cover":"BKN","base":9000}],"fltCat":"VFR"},{"icaoId":"KRKS","receiptTime":"2026-04-17T10:57:06.170Z","obsTime":1776423240,"reportTime":"2026-04-17T11:00:00.000Z","temp":-7.8,"dewp":-11.1,"wdir":260,"wspd":13,"visib":"10+","altim":1015,"slp":1018.1,"qcField":6,"metarType":"METAR","rawOb":"METAR KRKS 171054Z AUTO 26013KT 10SM FEW049 SCT120 M08/M11 A2997 RMK AO2 SLP181 T10781111","lat":41.5947,"lon":-109.0529,"elev":2062,"name":"Rock Springs/SW Wyoming Rgnl, WY, US","cover":"SCT","clouds":[{"cover":"FEW","base":4900},{"cover":"SCT","base":12000}],"fltCat":"VFR"},{"icaoId":"KRIC","receiptTime":"2026-04-17T10:57:06.159Z","obsTime":1776423240,"reportTime":"2026-04-17T11:00:00.000Z","temp":21.1,"dewp":13.9,"wdir":290,"wspd":3,"visib":"10+","altim":1012.6,"slp":1012.7,"qcField":4,"precip":0.005,"metarType":"METAR","rawOb":"METAR KRIC 171054Z 29003KT 10SM FEW070 SCT110 21/14 A2990 RMK AO2 RAB34E49 SLP127 P0000 T02110139","lat":37.5115,"lon":-77.3234,"elev":51,"name":"Richmond Intl, VA, US","cover":"SCT","clouds":[{"cover":"FEW","base":7000},{"cover":"SCT","base":11000}],"fltCat":"VFR"},{"icaoId":"KOLS","receiptTime":"2026-04-17T10:57:05.976Z","obsTime":1776423240,"reportTime":"2026-04-17T11:00:00.000Z","temp":10,"dewp":-6.7,"wdir":80,"wspd":5,"visib":"10+","altim":1013.6,"slp":1008.6,"qcField":6,"metarType":"METAR","rawOb":"METAR KOLS 171054Z AUTO 08005KT 10SM CLR 10/M07 A2993 RMK AO2 SLP086 T01001067","lat":31.4208,"lon":-110.8465,"elev":1194,"name":"Nogales Intl, AZ, US","cover":"CLR","clouds":[],"fltCat":"VFR"},{"icaoId":"KOLM","receiptTime":"2026-04-17T10:56:28.682Z","obsTime":1776423240,"reportTime":"2026-04-17T11:00:00.000Z","temp":4.4,"dewp":2.8,"wdir":0,"wspd":0,"visib":"10+","altim":1026.5,"slp":1026.6,"qcField":6,"metarType":"METAR","rawOb":"METAR KOLM 171054Z AUTO 00000KT 10SM BKN055 04/03 A3031 RMK AO2 SLP266 T00440028","lat":46.9737,"lon":-122.9049,"elev":58,"name":"Olympia Rgnl, WA, US","cover":"BKN","clouds":[{"cover":"BKN","base":5500}],"fltCat":"VFR"},{"icaoId":"KMEM","receiptTime":"2026-04-17T10:56:28.347Z","obsTime":1776423240,"reportTime":"2026-04-17T11:00:00.000Z","temp":19.4,"dewp":12.8,"wdir":170,"wspd":6,"visib":"10+","altim":1015.3,"slp":1014.9,"qcField":12,"metarType":"METAR","rawOb":"METAR KMEM 171054Z 17006KT 10SM BKN060 19/13 A2998 RMK AO2 SLP149 T01940128 $","lat":35.0564,"lon":-89.9864,"elev":78,"name":"Memphis Intl, TN, US","cover":"BKN","clouds":[{"cover":"BKN","base":6000}],"fltCat":"VFR"},{"icaoId":"KBWI","receiptTime":"2026-04-17T10:56:27.746Z","obsTime":1776423240,"reportTime":"2026-04-17T11:00:00.000Z","temp":18.9,"dewp":14.4,"wdir":290,"wspd":6,"visib":"10+","altim":1011.6,"slp":1011.2,"qcField":4,"metarType":"METAR","rawOb":"METAR KBWI 171054Z 29006KT 10SM FEW065 FEW100 SCT130 BKN250 19/14 A2987 RMK AO2 SLP112 CB DSNT S MOV NE T01890144","lat":39.1733,"lon":-76.684,"elev":42,"name":"Baltimore-Washington Intl, MD, US","cover":"BKN","clouds":[{"cover":"FEW","base":6500},{"cover":"FEW","base":10000},{"cover":"SCT","base":13000},{"cover":"BKN","base":25000}],"fltCat":"VFR"},{"icaoId":"KBUF","receiptTime":"2026-04-17T10:56:27.694Z","obsTime":1776423240,"reportTime":"2026-04-17T11:00:00.000Z","temp":11.1,"dewp":10.6,"wdir":340,"wspd":6,"visib":5,"altim":1014,"slp":1014,"qcField":4,"wxString":"BR","metarType":"METAR","rawOb":"METAR KBUF 171054Z 34006KT 5SM R23/5500VP6000FT BR OVC002 11/11 A2994 RMK AO2 SLP140 T01110106","lat":42.94,"lon":-78.7361,"elev":217,"name":"Buffalo-Niagara Intl, NY, US","cover":"OVC","clouds":[{"cover":"OVC","base":200}],"fltCat":"LIFR"},{"icaoId":"KBTV","receiptTime":"2026-04-17T10:56:27.670Z","obsTime":1776423240,"reportTime":"2026-04-17T11:00:00.000Z","temp":8.9,"dewp":7.2,"wdir":350,"wspd":14,"visib":6,"altim":1012.3,"slp":1012.3,"qcField":4,"wxString":"BR","metarType":"METAR","rawOb":"METAR KBTV 171054Z 35014KT 6SM BR OVC004 09/07 A2989 RMK AO2 SLP123 T00890072","lat":44.4682,"lon":-73.1499,"elev":101,"name":"Burlington Intl, VT, US","cover":"OVC","clouds":[{"cover":"OVC","base":400}],"fltCat":"LIFR"},{"icaoId":"KBOS","receiptTime":"2026-04-17T10:56:27.644Z","obsTime":1776423240,"reportTime":"2026-04-17T11:00:00.000Z","temp":10,"dewp":8.3,"wdir":0,"wspd":0,"visib":9,"altim":1009.2,"slp":1009,"qcField":4,"wxString":"-RA","precip":0.005,"metarType":"METAR","rawOb":"METAR KBOS 171054Z 00000KT 9SM -RA FEW080 OVC110 10/08 A2980 RMK AO2 RAB16 SLP090 P0000 T01000083","lat":42.3606,"lon":-71.0097,"elev":4,"name":"Boston/Logan Intl, MA, US","cover":"OVC","clouds":[{"cover":"FEW","base":8000},{"cover":"OVC","base":11000}],"fltCat":"VFR"},{"icaoId":"KAPC","receiptTime":"2026-04-17T10:56:27.436Z","obsTime":1776423240,"reportTime":"2026-04-17T11:00:00.000Z","temp":11.7,"dewp":-5,"wdir":350,"wspd":7,"visib":"10+","altim":1017,"slp":1016,"qcField":6,"metarType":"METAR","rawOb":"METAR KAPC 171054Z AUTO 35007KT 10SM CLR 12/M05 A3003 RMK AO2 SLP160 T01171050","lat":38.2075,"lon":-122.2804,"elev":5,"name":"Napa Cnty Arpt, CA, US","cover":"CLR","clouds":[],"fltCat":"VFR"},{"icaoId":"KBFL","receiptTime":"2026-04-17T10:56:27.617Z","obsTime":1776423240,"reportTime":"2026-04-17T11:00:00.000Z","temp":10.6,"dewp":2.8,"wdir":0,"wspd":0,"visib":"10+","altim":1016.3,"slp":1015.9,"qcField":6,"metarType":"METAR","rawOb":"METAR KBFL 171054Z AUTO 00000KT 10SM CLR 11/03 A3001 RMK AO2 SLP159 T01060028","lat":35.4342,"lon":-119.0552,"elev":146,"name":"Bakersfield/Meadows Arpt, CA, US","cover":"CLR","clouds":[],"fltCat":"VFR"},{"icaoId":"KCOS","receiptTime":"2026-04-17T10:56:27.925Z","obsTime":1776423240,"reportTime":"2026-04-17T11:00:00.000Z","temp":2.2,"dewp":-3.9,"wdir":350,"wspd":21,"wgst":32,"visib":"10+","altim":1008.9,"slp":1004.1,"qcField":4,"metarType":"METAR","rawOb":"METAR KCOS 171054Z 35021G32KT 10SM BKN120 02/M04 A2979 RMK AO2 PK WND 36036/1039 PRESRR SLP041 T00221039","lat":38.8095,"lon":-104.6887,"elev":1886,"name":"Colorado Spring Arpt, CO, US","cover":"BKN","clouds":[{"cover":"BKN","base":12000}],"fltCat":"VFR"},{"icaoId":"KSJN","receiptTime":"2026-04-17T10:57:06.311Z","obsTime":1776423240,"reportTime":"2026-04-17T11:00:00.000Z","temp":7.2,"dewp":-9.4,"wdir":260,"wspd":5,"visib":"10+","altim":1013.6,"slp":1007,"qcField":6,"metarType":"METAR","rawOb":"METAR KSJN 171054Z AUTO 26005KT 10SM CLR 07/M09 A2993 RMK AO2 SLP070 T00721094","lat":34.5184,"lon":-109.3801,"elev":1747,"name":"St Johns Ind Arpt, AZ, US","cover":"CLR","clouds":[],"fltCat":"VFR"},{"icaoId":"KROC","receiptTime":"2026-04-17T10:57:06.196Z","obsTime":1776423240,"reportTime":"2026-04-17T11:00:00.000Z","temp":12.2,"dewp":12.2,"wdir":310,"wspd":7,"visib":0.25,"altim":1013.3,"slp":1013.3,"qcField":12,"wxString":"FG","metarType":"METAR","rawOb":"METAR KROC 171054Z 31007KT 1/4SM R04/P6000FT FG OVC002 12/12 A2992 RMK AO2 SLP133 T01220122 $","lat":43.1172,"lon":-77.6754,"elev":166,"name":"Rochester Intl Arpt, NY, US","cover":"OVC","clouds":[{"cover":"OVC","base":200}],"fltCat":"LIFR"},{"icaoId":"KPHL","receiptTime":"2026-04-17T10:57:06.013Z","obsTime":1776423240,"reportTime":"2026-04-17T11:00:00.000Z","temp":21.1,"dewp":12.8,"wdir":320,"wspd":5,"visib":"10+","altim":1010.6,"slp":1010.5,"qcField":12,"metarType":"METAR","rawOb":"METAR KPHL 171054Z 32005KT 10SM FEW050 BKN120 BKN200 BKN250 21/13 A2984 RMK AO2 SLP105 VCSH T02110128 $","lat":39.8733,"lon":-75.2268,"elev":2,"name":"Philadelphia Intl, PA, US","cover":"BKN","clouds":[{"cover":"FEW","base":5000},{"cover":"BKN","base":12000},{"cover":"BKN","base":20000},{"cover":"BKN","base":25000}],"fltCat":"VFR"},{"icaoId":"KIND","receiptTime":"2026-04-17T10:56:30.404Z","obsTime":1776423240,"reportTime":"2026-04-17T11:00:00.000Z","temp":13.9,"dewp":11.1,"wdir":170,"wspd":3,"visib":"10+","altim":1015,"slp":1014.5,"qcField":4,"metarType":"METAR","rawOb":"METAR KIND 171054Z 17003KT 10SM CLR 14/11 A2997 RMK AO2 SLP145 T01390111","lat":39.7252,"lon":-86.2816,"elev":242,"name":"Indianapolis Intl, IN, US","cover":"CLR","clouds":[],"fltCat":"VFR"},{"icaoId":"KGSO","receiptTime":"2026-04-17T10:56:30.247Z","obsTime":1776423240,"reportTime":"2026-04-17T11:00:00.000Z","temp":17.2,"dewp":15,"wdir":0,"wspd":0,"visib":"10+","altim":1015.3,"slp":1014.1,"qcField":4,"precip":0.005,"metarType":"METAR","rawOb":"METAR KGSO 171054Z 00000KT 10SM SCT100 BKN250 17/15 A2998 RMK AO2 RAE0956 SLP141 P0000 T01720150","lat":36.0969,"lon":-79.9432,"elev":275,"name":"Greensboro Intl, NC, US","cover":"BKN","clouds":[{"cover":"SCT","base":10000},{"cover":"BKN","base":25000}],"fltCat":"VFR"},{"icaoId":"KGCN","receiptTime":"2026-04-17T10:56:30.190Z","obsTime":1776423240,"reportTime":"2026-04-17T11:00:00.000Z","temp":2.8,"dewp":-8.3,"wdir":"VRB","wspd":4,"visib":"10+","altim":1014,"slp":1008.7,"qcField":6,"metarType":"METAR","rawOb":"METAR KGCN 171054Z AUTO VRB04KT 10SM CLR 03/M08 A2994 RMK AO2 SLP087 T00281083","lat":35.9458,"lon":-112.1554,"elev":1993,"name":"Grand Canyon Park Arpt, AZ, US","cover":"CLR","clouds":[],"fltCat":"VFR"},{"icaoId":"KHIO","receiptTime":"2026-04-17T10:56:25.740Z","obsTime":1776423180,"reportTime":"2026-04-17T11:00:00.000Z","temp":1.7,"dewp":1.1,"wdir":0,"wspd":0,"visib":"10+","altim":1027.5,"slp":1027.4,"qcField":6,"metarType":"METAR","rawOb":"METAR KHIO 171053Z AUTO 00000KT 10SM CLR 02/01 A3034 RMK AO2 SLP274 T00170011","lat":45.5476,"lon":-122.9557,"elev":62,"name":"Portland/Hillsboro Arpt, OR, US","cover":"CLR","clouds":[],"fltCat":"VFR"},{"icaoId":"KAMA","receiptTime":"2026-04-17T10:56:22.719Z","obsTime":1776423180,"reportTime":"2026-04-17T11:00:00.000Z","temp":16.7,"dewp":13.3,"wdir":210,"wspd":13,"visib":"10+","altim":1008.9,"slp":1003.7,"qcField":4,"metarType":"METAR","rawOb":"METAR KAMA 171053Z 21013KT 10SM FEW014 17/13 A2979 RMK AO2 SLP037 T01670133","lat":35.2203,"lon":-101.7173,"elev":1102,"name":"Amarillo Intl Arpt, TX, US","cover":"FEW","clouds":[{"cover":"FEW","base":1400}],"fltCat":"VFR"},{"icaoId":"KTPA","receiptTime":"2026-04-17T10:56:25.140Z","obsTime":1776423180,"reportTime":"2026-04-17T11:00:00.000Z","temp":18.9,"dewp":15.6,"wdir":0,"wspd":0,"visib":"10+","altim":1018.7,"slp":1018.4,"qcField":4,"metarType":"METAR","rawOb":"METAR KTPA 171053Z 00000KT 10SM FEW250 19/16 A3008 RMK AO2 SLP184 T01890156","lat":27.9633,"lon":-82.54,"elev":2,"name":"Tampa Intl Arpt, FL, US","cover":"FEW","clouds":[{"cover":"FEW","base":25000}],"fltCat":"VFR"},{"icaoId":"KTUL","receiptTime":"2026-04-17T10:56:24.161Z","obsTime":1776423180,"reportTime":"2026-04-17T11:00:00.000Z","temp":21.7,"dewp":18.3,"wdir":170,"wspd":14,"visib":"10+","altim":1009.2,"slp":1008.1,"qcField":4,"metarType":"METAR","rawOb":"METAR KTUL 171053Z 17014KT 10SM FEW100 SCT150 SCT250 22/18 A2980 RMK AO2 SLP081 T02170183","lat":36.1985,"lon":-95.8782,"elev":196,"name":"Tulsa Intl Arpt, OK, US","cover":"SCT","clouds":[{"cover":"FEW","base":10000},{"cover":"SCT","base":15000},{"cover":"SCT","base":25000}],"fltCat":"VFR"},{"icaoId":"KLOL","receiptTime":"2026-04-17T10:56:17.063Z","obsTime":1776423180,"reportTime":"2026-04-17T11:00:00.000Z","temp":-7.8,"dewp":-14.4,"visib":"10+","altim":1024.1,"slp":1025.8,"qcField":6,"metarType":"METAR","rawOb":"METAR KLOL 171053Z AUTO 10SM CLR M08/M14 A3024 RMK AO2 SLP258 T10781144","lat":40.0684,"lon":-118.5702,"elev":1191,"name":"Lovelock/Derby Fld, NV, US","cover":"CLR","clouds":[],"fltCat":"VFR"},{"icaoId":"KMAF","receiptTime":"2026-04-17T10:56:22.966Z","obsTime":1776423180,"reportTime":"2026-04-17T11:00:00.000Z","temp":20,"dewp":16.1,"wdir":180,"wspd":11,"visib":9,"altim":1009.6,"slp":1004.8,"qcField":4,"metarType":"METAR","rawOb":"METAR KMAF 171053Z 18011KT 9SM CLR 20/16 A2981 RMK AO2 SLP048 T02000161","lat":31.9475,"lon":-102.2086,"elev":874,"name":"Midland Intl, TX, US","cover":"CLR","clouds":[],"fltCat":"VFR"},{"icaoId":"KMDW","receiptTime":"2026-04-17T10:56:17.293Z","obsTime":1776423180,"reportTime":"2026-04-17T11:00:00.000Z","temp":9.4,"dewp":8.9,"wdir":130,"wspd":3,"visib":2,"altim":1013,"slp":1012.8,"qcField":4,"wxString":"BR","metarType":"METAR","rawOb":"METAR KMDW 171053Z 13003KT 2SM BR FEW250 09/09 A2991 RMK AO2 SLP128 T00940089","lat":41.7841,"lon":-87.7552,"elev":186,"name":"Chicago/Midway Intl, IL, US","cover":"FEW","clouds":[{"cover":"FEW","base":25000}],"fltCat":"IFR"},{"icaoId":"KMFE","receiptTime":"2026-04-17T10:56:26.241Z","obsTime":1776423180,"reportTime":"2026-04-17T11:00:00.000Z","temp":23.9,"dewp":22.2,"wdir":150,"wspd":10,"visib":"10+","altim":1010.9,"slp":1010.5,"qcField":6,"metarType":"METAR","rawOb":"METAR KMFE 171053Z AUTO 15010KT 10SM BKN011 OVC022 24/22 A2985 RMK AO2 SLP105 T02390222","lat":26.1791,"lon":-98.2445,"elev":29,"name":"McAllen/Miller Intl, TX, US","cover":"OVC","clouds":[{"cover":"BKN","base":1100},{"cover":"OVC","base":2200}],"fltCat":"MVFR"},{"icaoId":"KBTM","receiptTime":"2026-04-17T10:56:15.254Z","obsTime":1776423180,"reportTime":"2026-04-17T11:00:00.000Z","temp":-3.9,"dewp":-8.9,"wdir":0,"wspd":0,"visib":"10+","altim":1017.4,"slp":1020.6,"qcField":6,"metarType":"METAR","rawOb":"METAR KBTM 171053Z AUTO 00000KT 10SM BKN042 BKN049 M04/M09 A3004 RMK AO2 SLP206 T10391089","lat":45.9644,"lon":-112.5015,"elev":1680,"name":"Butte/Mooney Arpt, MT, US","cover":"BKN","clouds":[{"cover":"BKN","base":4200},{"cover":"BKN","base":4900}],"fltCat":"VFR"},{"icaoId":"KCRQ","receiptTime":"2026-04-17T10:56:23.703Z","obsTime":1776423180,"reportTime":"2026-04-17T11:00:00.000Z","temp":13.9,"dewp":9.4,"wdir":100,"wspd":5,"visib":"10+","altim":1013.3,"slp":1012.9,"qcField":6,"metarType":"METAR","rawOb":"METAR KCRQ 171053Z AUTO 10005KT 10SM CLR 14/09 A2992 RMK AO2 SLP129 T01390094","lat":33.1299,"lon":-117.2765,"elev":96,"name":"Carlsbad/Palomar Arpt, CA, US","cover":"CLR","clouds":[],"fltCat":"VFR"},{"icaoId":"KEVW","receiptTime":"2026-04-17T10:56:23.749Z","obsTime":1776423180,"reportTime":"2026-04-17T11:00:00.000Z","temp":-11.1,"dewp":-12.8,"wdir":240,"wspd":4,"visib":7,"altim":1017,"slp":1022,"qcField":14,"precip":0.005,"metarType":"METAR","rawOb":"METAR KEVW 171053Z AUTO 24004KT 7SM BKN044 OVC060 M11/M13 A3003 RMK AO2 SNE07B41E52 SLP220 P0000 T11111128 $","lat":41.2727,"lon":-111.0305,"elev":2178,"name":"Evanston/Uinta Cnty, WY, US","cover":"OVC","clouds":[{"cover":"BKN","base":4400},{"cover":"OVC","base":6000}],"fltCat":"VFR"},{"icaoId":"KFMN","receiptTime":"2026-04-17T10:56:26.680Z","obsTime":1776423180,"reportTime":"2026-04-17T11:00:00.000Z","temp":11.7,"dewp":-11.7,"wdir":260,"wspd":12,"visib":"10+","altim":1010.6,"slp":1006.2,"qcField":6,"metarType":"METAR","rawOb":"METAR KFMN 171053Z AUTO 26012KT 10SM CLR 12/M12 A2984 RMK AO2 SLP062 T01171117","lat":36.7435,"lon":-108.2293,"elev":1677,"name":"Farmington/Four Corners Rgnl, NM, US","cover":"CLR","clouds":[],"fltCat":"VFR"},{"icaoId":"KMFR","receiptTime":"2026-04-17T10:56:17.319Z","obsTime":1776423180,"reportTime":"2026-04-17T11:00:00.000Z","temp":0.6,"dewp":-1.1,"wdir":0,"wspd":0,"visib":"10+","altim":1025.5,"slp":1026,"qcField":6,"metarType":"METAR","rawOb":"METAR KMFR 171053Z AUTO 00000KT 10SM CLR 01/M01 A3028 RMK AO2 SLP260 T00061011","lat":42.375,"lon":-122.877,"elev":397,"name":"Medford/Rogue Valley Intl, OR, US","cover":"CLR","clouds":[],"fltCat":"VFR"},{"icaoId":"KIDA","receiptTime":"2026-04-17T10:56:26.020Z","obsTime":1776423180,"reportTime":"2026-04-17T11:00:00.000Z","temp":-5,"dewp":-6.7,"wdir":210,"wspd":8,"visib":"10+","altim":1019.7,"slp":1022.7,"qcField":6,"metarType":"METAR","rawOb":"METAR KIDA 171053Z AUTO 21008KT 10SM CLR M05/M07 A3011 RMK AO2 SLP227 T10501067","lat":43.5204,"lon":-112.0675,"elev":1444,"name":"Idaho Falls Rgnl, ID, US","cover":"CLR","clouds":[],"fltCat":"VFR"},{"icaoId":"KPIH","receiptTime":"2026-04-17T10:56:22.113Z","obsTime":1776423180,"reportTime":"2026-04-17T11:00:00.000Z","temp":-4.4,"dewp":-6.7,"wdir":210,"wspd":10,"visib":"10+","altim":1020.7,"slp":1023.6,"qcField":6,"metarType":"METAR","rawOb":"METAR KPIH 171053Z AUTO 21010KT 10SM FEW085 M04/M07 A3014 RMK AO2 SLP236 T10441067","lat":42.9197,"lon":-112.5723,"elev":1357,"name":"Pocatello Rgnl, ID, US","cover":"FEW","clouds":[{"cover":"FEW","base":8500}],"fltCat":"VFR"},{"icaoId":"KBFI","receiptTime":"2026-04-17T10:56:17.745Z","obsTime":1776423180,"reportTime":"2026-04-17T11:00:00.000Z","temp":6.7,"dewp":3.9,"wdir":120,"wspd":5,"visib":"10+","altim":1026.8,"slp":1026.6,"qcField":12,"precip":0.005,"metarType":"METAR","rawOb":"METAR KBFI 171053Z 12005KT 10SM SCT035 SCT049 BKN055 07/04 A3032 RMK AO2 RAB0955E14 SLP266 P0000 T00670039 $","lat":47.5455,"lon":-122.3148,"elev":7,"name":"Seattle/Boeing Fld, WA, US","cover":"BKN","clouds":[{"cover":"SCT","base":3500},{"cover":"SCT","base":4900},{"cover":"BKN","base":5500}],"fltCat":"VFR"},{"icaoId":"KBLI","receiptTime":"2026-04-17T10:56:17.870Z","obsTime":1776423180,"reportTime":"2026-04-17T11:00:00.000Z","temp":6.1,"dewp":2.8,"wdir":"VRB","wspd":3,"visib":"10+","altim":1025.8,"slp":1026.4,"qcField":6,"metarType":"METAR","rawOb":"METAR KBLI 171053Z AUTO VRB03KT 10SM OVC080 06/03 A3029 RMK AO2 SLP264 T00610028","lat":48.7991,"lon":-122.5407,"elev":46,"name":"Bellingham Intl, WA, US","cover":"OVC","clouds":[{"cover":"OVC","base":8000}],"fltCat":"VFR"},{"icaoId":"KBOI","receiptTime":"2026-04-17T10:56:20.294Z","obsTime":1776423180,"reportTime":"2026-04-17T11:00:00.000Z","temp":-1.7,"dewp":-3.9,"wdir":0,"wspd":0,"visib":"10+","altim":1023.5,"slp":1025.1,"qcField":4,"metarType":"METAR","rawOb":"METAR KBOI 171053Z 00000KT 10SM CLR M02/M04 A3022 RMK AO2 SLP251 T10171039","lat":43.567,"lon":-116.2406,"elev":860,"name":"Boise Arpt, ID, US","cover":"CLR","clouds":[],"fltCat":"VFR"},{"icaoId":"KMSO","receiptTime":"2026-04-17T10:56:26.942Z","obsTime":1776423180,"reportTime":"2026-04-17T11:00:00.000Z","temp":0.6,"dewp":-3.9,"wdir":130,"wspd":4,"visib":"10+","altim":1019.4,"slp":1021.3,"qcField":6,"metarType":"METAR","rawOb":"METAR KMSO 171053Z AUTO 13004KT 10SM SCT060 OVC100 01/M04 A3010 RMK AO2 SLP213 T00061039","lat":46.9208,"lon":-114.0938,"elev":974,"name":"Missoula Intl, MT, US","cover":"OVC","clouds":[{"cover":"SCT","base":6000},{"cover":"OVC","base":10000}],"fltCat":"VFR"},{"icaoId":"KCLL","receiptTime":"2026-04-17T10:56:21.933Z","obsTime":1776423180,"reportTime":"2026-04-17T11:00:00.000Z","temp":21.7,"dewp":20,"wdir":170,"wspd":10,"visib":"10+","altim":1013,"slp":1012.3,"qcField":6,"metarType":"METAR","rawOb":"METAR KCLL 171053Z AUTO 17010KT 10SM OVC014 22/20 A2991 RMK AO2 SLP123 T02170200","lat":30.5912,"lon":-96.3631,"elev":96,"name":"College Station/Easterwood Arpt, TX, US","cover":"OVC","clouds":[{"cover":"OVC","base":1400}],"fltCat":"MVFR"},{"icaoId":"KDAL","receiptTime":"2026-04-17T10:56:21.992Z","obsTime":1776423180,"reportTime":"2026-04-17T11:00:00.000Z","temp":21.1,"dewp":17.8,"wdir":180,"wspd":11,"wgst":23,"visib":"10+","altim":1011.6,"slp":1010.8,"qcField":4,"metarType":"METAR","rawOb":"METAR KDAL 171053Z 18011G23KT 10SM BKN018 21/18 A2987 RMK AO2 SLP108 T02110178","lat":32.8384,"lon":-96.8358,"elev":148,"name":"Dallas/Love Fld, TX, US","cover":"BKN","clouds":[{"cover":"BKN","base":1800}],"fltCat":"MVFR"},{"icaoId":"KMYR","receiptTime":"2026-04-17T10:56:21.317Z","obsTime":1776423180,"reportTime":"2026-04-17T11:00:00.000Z","temp":19.4,"dewp":16.1,"wdir":230,"wspd":6,"visib":"10+","altim":1016.3,"slp":1016.1,"qcField":12,"metarType":"METAR","rawOb":"METAR KMYR 171053Z 23006KT 10SM CLR 19/16 A3001 RMK AO2 SLP161 T01940161 $","lat":33.6769,"lon":-78.9325,"elev":7,"name":"Myrtle Beach Intl, SC, US","cover":"CLR","clouds":[],"fltCat":"VFR"},{"icaoId":"KCNM","receiptTime":"2026-04-17T10:56:15.489Z","obsTime":1776423180,"reportTime":"2026-04-17T11:00:00.000Z","temp":14.4,"dewp":1.7,"wdir":280,"wspd":7,"visib":"10+","altim":1010.2,"slp":1004.9,"qcField":6,"metarType":"METAR","rawOb":"METAR KCNM 171053Z AUTO 28007KT 10SM CLR 14/02 A2983 RMK AO2 SLP049 T01440017","lat":32.3336,"lon":-104.2584,"elev":993,"name":"Carlsbad/Cavern City Air Term, NM, US","cover":"CLR","clouds":[],"fltCat":"VFR"},{"icaoId":"KCPR","receiptTime":"2026-04-17T10:56:15.522Z","obsTime":1776423180,"reportTime":"2026-04-17T11:00:00.000Z","temp":-4.4,"dewp":-4.4,"wdir":340,"wspd":6,"visib":3,"altim":1013.3,"slp":1013.9,"qcField":6,"wxString":"-SN BR","precip":0.01,"metarType":"METAR","rawOb":"METAR KCPR 171053Z AUTO 34006KT 3SM -SN BR BKN033 OVC041 M04/M04 A2992 RMK AO2 SNB33 SLP139 P0001 T10441044","lat":42.8978,"lon":-106.4736,"elev":1623,"name":"Casper/Natrona Cnty, WY, US","cover":"OVC","clouds":[{"cover":"BKN","base":3300},{"cover":"OVC","base":4100}],"fltCat":"MVFR"},{"icaoId":"KCYS","receiptTime":"2026-04-17T10:56:15.633Z","obsTime":1776423180,"reportTime":"2026-04-17T11:00:00.000Z","temp":-1.1,"dewp":-10,"wdir":330,"wspd":20,"wgst":34,"visib":"10+","altim":1009.6,"slp":1005.6,"qcField":6,"metarType":"METAR","rawOb":"METAR KCYS 171053Z AUTO 33020G34KT 10SM CLR M01/M10 A2981 RMK AO2 PK WND 32036/0955 SLP056 T10111100","lat":41.1579,"lon":-104.8081,"elev":1868,"name":"Cheyenne Rgnl, WY, US","cover":"CLR","clouds":[],"fltCat":"VFR"},{"icaoId":"KDEN","receiptTime":"2026-04-17T10:56:15.669Z","obsTime":1776423180,"reportTime":"2026-04-17T11:00:00.000Z","temp":0,"dewp":-4.4,"wdir":70,"wspd":6,"visib":"10+","altim":1010.9,"slp":1006.3,"qcField":12,"metarType":"METAR","rawOb":"METAR KDEN 171053Z 07006KT 10SM FEW030 SCT220 00/M04 A2985 RMK AO2 SLP063 T00001044 $","lat":39.8466,"lon":-104.6562,"elev":1656,"name":"Denver Intl, CO, US","cover":"SCT","clouds":[{"cover":"FEW","base":3000},{"cover":"SCT","base":22000}],"fltCat":"VFR"},{"icaoId":"KLGB","receiptTime":"2026-04-17T10:56:16.997Z","obsTime":1776423180,"reportTime":"2026-04-17T11:00:00.000Z","temp":14.4,"dewp":11.7,"wdir":90,"wspd":4,"visib":"10+","altim":1013,"slp":1012.9,"qcField":4,"metarType":"METAR","rawOb":"METAR KLGB 171053Z 09004KT 10SM FEW020 14/12 A2991 RMK AO2 SLP129 T01440117","lat":33.8118,"lon":-118.1472,"elev":10,"name":"Long Beach Arpt, CA, US","cover":"FEW","clouds":[{"cover":"FEW","base":2000}],"fltCat":"VFR"},{"icaoId":"KMCO","receiptTime":"2026-04-17T10:56:26.229Z","obsTime":1776423180,"reportTime":"2026-04-17T11:00:00.000Z","temp":17.2,"dewp":16.1,"wdir":360,"wspd":5,"visib":"10+","altim":1019.4,"slp":1018.9,"qcField":12,"metarType":"METAR","rawOb":"METAR KMCO 171053Z 36005KT 10SM CLR 17/16 A3010 RMK AO2 SLP189 T01720161 $","lat":28.4182,"lon":-81.3241,"elev":27,"name":"Orlando Intl, FL, US","cover":"CLR","clouds":[],"fltCat":"VFR"},{"icaoId":"KAUS","receiptTime":"2026-04-17T10:56:17.607Z","obsTime":1776423180,"reportTime":"2026-04-17T11:00:00.000Z","temp":21.1,"dewp":20,"wdir":170,"wspd":10,"visib":9,"altim":1011.9,"slp":1011,"qcField":4,"metarType":"METAR","rawOb":"METAR KAUS 171053Z 17010KT 9SM BKN011 21/20 A2988 RMK AO2 SLP110 T02110200","lat":30.1831,"lon":-97.6806,"elev":148,"name":"Austin/Bergstrom Intl, TX, US","cover":"BKN","clouds":[{"cover":"BKN","base":1100}],"fltCat":"MVFR"},{"icaoId":"KBCE","receiptTime":"2026-04-17T10:56:17.679Z","obsTime":1776423180,"reportTime":"2026-04-17T11:00:00.000Z","temp":-6.1,"dewp":-8.3,"wdir":330,"wspd":15,"visib":9,"altim":1016.3,"slp":1010.5,"qcField":6,"wxString":"-SN","precip":0.005,"metarType":"METAR","rawOb":"METAR KBCE 171053Z AUTO 33015KT 9SM -SN FEW014 BKN047 OVC080 M06/M08 A3001 RMK AO2 SLP105 P0000 T10611083","lat":37.7013,"lon":-112.149,"elev":2311,"name":"Bryce Canyon Arpt, UT, US","cover":"OVC","clouds":[{"cover":"FEW","base":1400},{"cover":"BKN","base":4700},{"cover":"OVC","base":8000}],"fltCat":"VFR"},{"icaoId":"KBHM","receiptTime":"2026-04-17T10:56:17.796Z","obsTime":1776423180,"reportTime":"2026-04-17T11:00:00.000Z","temp":15.6,"dewp":11.1,"wdir":0,"wspd":0,"visib":"10+","altim":1018.4,"slp":1017.5,"qcField":4,"metarType":"METAR","rawOb":"METAR KBHM 171053Z 00000KT 10SM FEW250 16/11 A3007 RMK AO2 SLP175 T01560111","lat":33.5655,"lon":-86.7449,"elev":191,"name":"Birmingham Intl, AL, US","cover":"FEW","clouds":[{"cover":"FEW","base":25000}],"fltCat":"VFR"},{"icaoId":"KFUL","receiptTime":"2026-04-17T10:56:18.060Z","obsTime":1776423180,"reportTime":"2026-04-17T11:00:00.000Z","temp":13.9,"dewp":11.7,"wdir":0,"wspd":0,"visib":"10+","altim":1013.3,"slp":1012.9,"qcField":6,"metarType":"METAR","rawOb":"METAR KFUL 171053Z AUTO 00000KT 10SM CLR 14/12 A2992 RMK AO2 SLP129 T01390117","lat":33.8715,"lon":-117.9856,"elev":23,"name":"Fullerton Muni, CA, US","cover":"CLR","clouds":[],"fltCat":"VFR"},{"icaoId":"KGJT","receiptTime":"2026-04-17T10:56:18.189Z","obsTime":1776423180,"reportTime":"2026-04-17T11:00:00.000Z","temp":0,"dewp":-1.1,"wdir":260,"wspd":17,"visib":3,"altim":1015,"slp":1011.8,"qcField":6,"wxString":"-SN","precip":0.005,"metarType":"METAR","rawOb":"METAR KGJT 171053Z AUTO 26017KT 3SM -SN FEW005 SCT029 OVC044 00/M01 A2997 RMK AO2 PK WND 26026/1042 SNB11 SLP118 P0000 T00001011","lat":39.1344,"lon":-108.5408,"elev":1475,"name":"Grand Junction Rgnl, CO, US","cover":"OVC","clouds":[{"cover":"FEW","base":500},{"cover":"SCT","base":2900},{"cover":"OVC","base":4400}],"fltCat":"MVFR"},{"icaoId":"KGSP","receiptTime":"2026-04-17T10:56:18.825Z","obsTime":1776423180,"reportTime":"2026-04-17T11:00:00.000Z","temp":13.9,"dewp":11.1,"wdir":0,"wspd":0,"visib":"10+","altim":1016.7,"slp":1015.5,"qcField":4,"metarType":"METAR","rawOb":"METAR KGSP 171053Z 00000KT 10SM CLR 14/11 A3002 RMK AO2 SLP155 T01390111","lat":34.8842,"lon":-82.2209,"elev":285,"name":"Greenville-Spartanburg Intl, SC, US","cover":"CLR","clouds":[],"fltCat":"VFR"},{"icaoId":"KPNC","receiptTime":"2026-04-17T10:56:26.431Z","obsTime":1776423180,"reportTime":"2026-04-17T11:00:00.000Z","temp":21.1,"dewp":17.8,"wdir":170,"wspd":14,"wgst":24,"visib":"10+","altim":1006.9,"slp":1005.3,"qcField":6,"metarType":"METAR","rawOb":"METAR KPNC 171053Z AUTO 17014G24KT 10SM CLR 21/18 A2973 RMK AO2 PK WND 17027/1019 SLP053 T02110178","lat":36.7369,"lon":-97.1024,"elev":304,"name":"Ponca City Rgnl, OK, US","cover":"CLR","clouds":[],"fltCat":"VFR"},{"icaoId":"KPRC","receiptTime":"2026-04-17T10:56:22.134Z","obsTime":1776423180,"reportTime":"2026-04-17T11:00:00.000Z","temp":6.1,"dewp":-4.4,"wdir":0,"wspd":0,"visib":"10+","altim":1013.3,"slp":1008,"qcField":6,"metarType":"METAR","rawOb":"METAR KPRC 171053Z AUTO 00000KT 10SM CLR 06/M04 A2992 RMK AO2 SLP080 T00611044","lat":34.6491,"lon":-112.4223,"elev":1528,"name":"Prescott/Love Fld, AZ, US","cover":"CLR","clouds":[],"fltCat":"VFR"},{"icaoId":"KPUB","receiptTime":"2026-04-17T10:56:26.491Z","obsTime":1776423180,"reportTime":"2026-04-17T11:00:00.000Z","temp":7.8,"dewp":-3.3,"wdir":30,"wspd":21,"wgst":29,"visib":"10+","altim":1006.9,"slp":1001.9,"qcField":14,"metarType":"METAR","rawOb":"METAR KPUB 171053Z AUTO 03021G29KT 10SM CLR 08/M03 A2973 RMK AO2 PK WND 01033/1027 SLP019 T00781033 $","lat":38.2887,"lon":-104.5057,"elev":1441,"name":"Pueblo Mem Arpt, CO, US","cover":"CLR","clouds":[],"fltCat":"VFR"},{"icaoId":"KRTN","receiptTime":"2026-04-17T10:56:19.450Z","obsTime":1776423180,"reportTime":"2026-04-17T11:00:00.000Z","temp":3.9,"dewp":-15.6,"wdir":240,"wspd":6,"visib":"10+","altim":1009.2,"slp":1002.9,"qcField":6,"metarType":"METAR","rawOb":"METAR KRTN 171053Z AUTO 24006KT 10SM CLR 04/M16 A2980 RMK AO2 SLP029 T00391156","lat":36.7418,"lon":-104.5076,"elev":1939,"name":"Raton/Crews Fld, NM, US","cover":"CLR","clouds":[],"fltCat":"VFR"},{"icaoId":"KSWO","receiptTime":"2026-04-17T10:56:19.597Z","obsTime":1776423180,"reportTime":"2026-04-17T11:00:00.000Z","temp":20.6,"dewp":17.8,"wdir":180,"wspd":9,"visib":"10+","altim":1007.9,"slp":1006.5,"qcField":6,"metarType":"METAR","rawOb":"METAR KSWO 171053Z AUTO 18009KT 10SM CLR 21/18 A2976 RMK AO2 SLP065 T02060178","lat":36.1624,"lon":-97.0832,"elev":293,"name":"Stillwater Muni, OK, US","cover":"CLR","clouds":[],"fltCat":"VFR"},{"icaoId":"KMIA","receiptTime":"2026-04-17T10:56:20.058Z","obsTime":1776423180,"reportTime":"2026-04-17T11:00:00.000Z","temp":22.8,"dewp":21.7,"wdir":340,"wspd":3,"visib":"10+","altim":1016.3,"slp":1016.2,"qcField":0,"metarType":"METAR","rawOb":"METAR KMIA 171053Z 34003KT 10SM SCT016 SCT060 SCT250 23/22 A3001 RMK SLP162 T02280217","lat":25.7881,"lon":-80.3169,"elev":1,"name":"Miami Intl, FL, US","cover":"SCT","clouds":[{"cover":"SCT","base":1600},{"cover":"SCT","base":6000},{"cover":"SCT","base":25000}],"fltCat":"VFR"},{"icaoId":"KBRO","receiptTime":"2026-04-17T10:56:20.258Z","obsTime":1776423180,"reportTime":"2026-04-17T11:00:00.000Z","temp":25.6,"dewp":22.2,"wdir":160,"wspd":11,"visib":"10+","altim":1010.9,"slp":1010.8,"qcField":4,"metarType":"METAR","rawOb":"METAR KBRO 171053Z 16011KT 10SM BKN011 OVC017 26/22 A2985 RMK AO2 SLP108 T02560222","lat":25.9146,"lon":-97.4231,"elev":6,"name":"Brownsville Intl, TX, US","cover":"OVC","clouds":[{"cover":"BKN","base":1100},{"cover":"OVC","base":1700}],"fltCat":"MVFR"},{"icaoId":"KDLN","receiptTime":"2026-04-17T10:56:20.363Z","obsTime":1776423180,"reportTime":"2026-04-17T11:00:00.000Z","temp":-4.4,"dewp":-8.3,"wdir":220,"wspd":12,"visib":"10+","altim":1017.4,"slp":1021.2,"qcField":6,"metarType":"METAR","rawOb":"METAR KDLN 171053Z AUTO 22012KT 10SM BKN090 M04/M08 A3004 RMK AO2 SLP212 T10441083","lat":45.2584,"lon":-112.5546,"elev":1586,"name":"Dillon Arpt, MT, US","cover":"BKN","clouds":[{"cover":"BKN","base":9000}],"fltCat":"VFR"},{"icaoId":"KDRO","receiptTime":"2026-04-17T10:56:20.409Z","obsTime":1776423180,"reportTime":"2026-04-17T11:00:00.000Z","temp":7.2,"dewp":-10,"wdir":260,"wspd":7,"visib":"10+","altim":1011.3,"slp":1005.9,"qcField":6,"metarType":"METAR","rawOb":"METAR KDRO 171053Z AUTO 26007KT 10SM CLR 07/M10 A2986 RMK AO2 SLP059 T00721100","lat":37.1431,"lon":-107.7602,"elev":2021,"name":"Durango/La Plata Cnty, CO, US","cover":"CLR","clouds":[],"fltCat":"VFR"},{"icaoId":"KDTW","receiptTime":"2026-04-17T10:56:20.447Z","obsTime":1776423180,"reportTime":"2026-04-17T11:00:00.000Z","temp":11.1,"dewp":11.1,"wdir":0,"wspd":0,"visib":0.25,"altim":1015.3,"slp":1015.4,"qcField":12,"wxString":"FG","vertVis":2,"metarType":"METAR","rawOb":"METAR KDTW 171053Z 00000KT 1/4SM R03R/1200V1400FT FG VV002 11/11 A2998 RMK AO2 TWR VIS 1/4 SLP154 T01110111 $","lat":42.2311,"lon":-83.3312,"elev":192,"name":"Detroit/Metro Wayne Cnty, MI, US","cover":"OVX","clouds":[{"cover":"OVX","base":200}],"fltCat":"LIFR"},{"icaoId":"PANC","receiptTime":"2026-04-17T10:56:21.705Z","obsTime":1776423180,"reportTime":"2026-04-17T11:00:00.000Z","temp":0,"dewp":0,"wdir":"VRB","wspd":3,"visib":1.5,"altim":1009.2,"slp":1009.2,"qcField":4,"wxString":"BR","precip":0.005,"metarType":"METAR","rawOb":"METAR PANC 171053Z VRB03KT 1 1/2SM R07R/4000VP6000FT BR OVC049 00/00 A2980 RMK AO2 RAE40 SLP092 P0000 T00000000","lat":61.1691,"lon":-150.0277,"elev":39,"name":"Anchorage Intl, AK, US","cover":"OVC","clouds":[{"cover":"OVC","base":4900}],"fltCat":"IFR"},{"icaoId":"KBIL","receiptTime":"2026-04-17T10:56:21.876Z","obsTime":1776423180,"reportTime":"2026-04-17T11:00:00.000Z","temp":-3.9,"dewp":-7.8,"wdir":210,"wspd":6,"visib":"10+","altim":1015,"slp":1017.9,"qcField":4,"metarType":"METAR","rawOb":"METAR KBIL 171053Z 21006KT 10SM FEW080 SCT250 M04/M08 A2997 RMK AO2 SLP179 T10391078","lat":45.8072,"lon":-108.5462,"elev":1089,"name":"Billings/Logan Intl, MT, US","cover":"SCT","clouds":[{"cover":"FEW","base":8000},{"cover":"SCT","base":25000}],"fltCat":"VFR"},{"icaoId":"KCNY","receiptTime":"2026-04-17T10:56:21.944Z","obsTime":1776423180,"reportTime":"2026-04-17T11:00:00.000Z","temp":3.3,"dewp":-6.1,"wdir":10,"wspd":8,"wgst":29,"visib":"10+","altim":1015.3,"slp":1013,"qcField":14,"metarType":"METAR","rawOb":"METAR KCNY 171053Z AUTO 01008G29KT 10SM BKN050 OVC065 03/M06 A2998 RMK AO2 PK WND 30031/1023 SLP130 T00331061 $","lat":38.7501,"lon":-109.7627,"elev":1392,"name":"Moab/Canyonland Fld, UT, US","cover":"OVC","clouds":[{"cover":"BKN","base":5000},{"cover":"OVC","base":6500}],"fltCat":"VFR"},{"icaoId":"KDMN","receiptTime":"2026-04-17T10:56:22.016Z","obsTime":1776423180,"reportTime":"2026-04-17T11:00:00.000Z","temp":10.6,"dewp":-7.8,"wdir":290,"wspd":3,"visib":"10+","altim":1013.3,"slp":1007,"qcField":6,"metarType":"METAR","rawOb":"METAR KDMN 171053Z AUTO 29003KT 10SM CLR 11/M08 A2992 RMK AO2 SLP070 T01061078","lat":32.2592,"lon":-107.7206,"elev":1310,"name":"Deming Muni, NM, US","cover":"CLR","clouds":[],"fltCat":"VFR"},{"icaoId":"KPSC","receiptTime":"2026-04-17T10:56:22.146Z","obsTime":1776423180,"reportTime":"2026-04-17T11:00:00.000Z","temp":4.4,"dewp":-0.6,"wdir":0,"wspd":0,"visib":"10+","altim":1024.5,"slp":1024.4,"qcField":6,"metarType":"METAR","rawOb":"METAR KPSC 171053Z AUTO 00000KT 10SM CLR 04/M01 A3025 RMK AO2 SLP244 T00441006","lat":46.2695,"lon":-119.1182,"elev":121,"name":"Pasco/Tri Cities Arpt, WA, US","cover":"CLR","clouds":[],"fltCat":"VFR"},{"icaoId":"KPSP","receiptTime":"2026-04-17T10:56:22.157Z","obsTime":1776423180,"reportTime":"2026-04-17T11:00:00.000Z","temp":18.3,"dewp":6.1,"wdir":0,"wspd":0,"visib":"10+","altim":1010.2,"slp":1009.8,"qcField":14,"metarType":"METAR","rawOb":"METAR KPSP 171053Z AUTO 00000KT 10SM CLR 18/06 A2983 RMK AO2 SLP098 T01830061 $","lat":33.8222,"lon":-116.5043,"elev":123,"name":"Palm Springs Intl, CA, US","cover":"CLR","clouds":[],"fltCat":"VFR"},{"icaoId":"KPUW","receiptTime":"2026-04-17T10:56:22.168Z","obsTime":1776423180,"reportTime":"2026-04-17T11:00:00.000Z","temp":0.6,"dewp":-2.8,"wdir":250,"wspd":5,"visib":"10+","altim":1022.4,"slp":1023.9,"qcField":6,"metarType":"METAR","rawOb":"METAR KPUW 171053Z AUTO 25005KT 10SM CLR 01/M03 A3019 RMK AO2 SLP239 T00061028","lat":46.7438,"lon":-117.1158,"elev":774,"name":"Pullman/Moscow Rgnl, WA, US","cover":"CLR","clouds":[],"fltCat":"VFR"},{"icaoId":"KRDD","receiptTime":"2026-04-17T10:56:22.191Z","obsTime":1776423180,"reportTime":"2026-04-17T11:00:00.000Z","temp":10.6,"dewp":-5,"wdir":350,"wspd":12,"wgst":19,"visib":"10+","altim":1021.1,"slp":1020.6,"qcField":6,"metarType":"METAR","rawOb":"METAR KRDD 171053Z AUTO 35012G19KT 10SM CLR 11/M05 A3015 RMK AO2 SLP206 T01061050","lat":40.5146,"lon":-122.2977,"elev":152,"name":"Redding Muni, CA, US","cover":"CLR","clouds":[],"fltCat":"VFR"},{"icaoId":"KACV","receiptTime":"2026-04-17T10:56:22.598Z","obsTime":1776423180,"reportTime":"2026-04-17T11:00:00.000Z","temp":2.8,"dewp":2.2,"wdir":80,"wspd":6,"visib":"10+","altim":1022.1,"slp":1022.6,"qcField":6,"metarType":"METAR","rawOb":"METAR KACV 171053Z AUTO 08006KT 10SM CLR 03/02 A3018 RMK AO2 SLP226 T00280022","lat":40.9784,"lon":-124.1048,"elev":63,"name":"Arcata Arpt, CA, US","cover":"CLR","clouds":[],"fltCat":"VFR"},{"icaoId":"KLVS","receiptTime":"2026-04-17T10:56:22.955Z","obsTime":1776423180,"reportTime":"2026-04-17T11:00:00.000Z","temp":8.9,"dewp":-12.2,"wdir":200,"wspd":10,"visib":"10+","altim":1011.9,"slp":1003,"qcField":6,"metarType":"METAR","rawOb":"METAR KLVS 171053Z AUTO 20010KT 10SM CLR 09/M12 A2988 RMK AO2 SLP030 T00891122","lat":35.6558,"lon":-105.1385,"elev":2095,"name":"Las Vegas Muni, NM, US","cover":"CLR","clouds":[],"fltCat":"VFR"},{"icaoId":"KMCI","receiptTime":"2026-04-17T10:56:22.978Z","obsTime":1776423180,"reportTime":"2026-04-17T11:00:00.000Z","temp":20.6,"dewp":18.3,"wdir":190,"wspd":18,"wgst":29,"visib":"10+","altim":1005.8,"slp":1004.6,"qcField":4,"metarType":"METAR","rawOb":"METAR KMCI 171053Z 19018G29KT 10SM FEW025 21/18 A2970 RMK AO2 PK WND 18030/1030 SLP046 T02060183","lat":39.2975,"lon":-94.7309,"elev":308,"name":"Kansas City Intl, MO, US","cover":"FEW","clouds":[{"cover":"FEW","base":2500}],"fltCat":"VFR"},{"icaoId":"KAPA","receiptTime":"2026-04-17T10:56:23.104Z","obsTime":1776423180,"reportTime":"2026-04-17T11:00:00.000Z","temp":1.1,"dewp":-3.9,"wdir":80,"wspd":5,"visib":"10+","altim":1011.3,"slp":1008,"qcField":4,"metarType":"METAR","rawOb":"METAR KAPA 171053Z 08005KT 10SM SCT025 BKN220 01/M04 A2986 RMK AO2 SLP080 T00111039","lat":39.5599,"lon":-104.8484,"elev":1791,"name":"Denver/Centennial Arpt, CO, US","cover":"BKN","clouds":[{"cover":"SCT","base":2500},{"cover":"BKN","base":22000}],"fltCat":"VFR"},{"icaoId":"KASE","receiptTime":"2026-04-17T10:56:23.115Z","obsTime":1776423180,"reportTime":"2026-04-17T11:00:00.000Z","temp":-0.6,"dewp":-7.2,"wdir":350,"wspd":8,"visib":"10+","altim":1009.6,"slp":1001.8,"qcField":14,"metarType":"METAR","rawOb":"METAR KASE 171053Z AUTO 35008KT 10SM BKN080 OVC110 M01/M07 A2981 RMK AO2 SLP018 T10061072 $","lat":39.2299,"lon":-106.8705,"elev":2384,"name":"Aspen/Pitkin Cnty, CO, US","cover":"OVC","clouds":[{"cover":"BKN","base":8000},{"cover":"OVC","base":11000}],"fltCat":"VFR"},{"icaoId":"KBUR","receiptTime":"2026-04-17T10:56:23.650Z","obsTime":1776423180,"reportTime":"2026-04-17T11:00:00.000Z","temp":13.9,"dewp":10,"wdir":200,"wspd":3,"visib":"10+","altim":1013.6,"slp":1012.4,"qcField":6,"metarType":"METAR","rawOb":"METAR KBUR 171053Z AUTO 20003KT 10SM CLR 14/10 A2993 RMK AO2 SLP124 T01390100","lat":34.1996,"lon":-118.3654,"elev":221,"name":"Burbank/Bob Hope Arpt, CA, US","cover":"CLR","clouds":[],"fltCat":"VFR"},{"icaoId":"KCDC","receiptTime":"2026-04-17T10:56:23.673Z","obsTime":1776423180,"reportTime":"2026-04-17T11:00:00.000Z","temp":-2.8,"dewp":-8.3,"wdir":30,"wspd":8,"visib":"10+","altim":1019.7,"slp":1017.1,"qcField":6,"metarType":"METAR","rawOb":"METAR KCDC 171053Z AUTO 03008KT 10SM OVC110 M03/M08 A3011 RMK AO2 SLP171 T10281083","lat":37.7067,"lon":-113.097,"elev":1703,"name":"Cedar City Muni, UT, US","cover":"OVC","clouds":[{"cover":"OVC","base":11000}],"fltCat":"VFR"},{"icaoId":"KDVT","receiptTime":"2026-04-17T10:56:23.725Z","obsTime":1776423180,"reportTime":"2026-04-17T11:00:00.000Z","temp":14.4,"dewp":-3.3,"wdir":120,"wspd":3,"visib":"10+","altim":1010.2,"slp":1008.1,"qcField":14,"metarType":"METAR","rawOb":"METAR KDVT 171053Z AUTO 12003KT 10SM CLR 14/M03 A2983 RMK AO2 SLP081 T01441033 $","lat":33.6902,"lon":-112.0662,"elev":454,"name":"Phoenix/Deer Valley Arpt, AZ, US","cover":"CLR","clouds":[],"fltCat":"VFR"},{"icaoId":"KELY","receiptTime":"2026-04-17T10:56:23.737Z","obsTime":1776423180,"reportTime":"2026-04-17T11:00:00.000Z","temp":-7.8,"dewp":-15,"wdir":300,"wspd":5,"visib":"10+","altim":1021.8,"slp":1021.2,"qcField":14,"metarType":"METAR","rawOb":"METAR KELY 171053Z AUTO 30005KT 10SM CLR M08/M15 A3017 RMK AO2 SLP212 T10781150 $","lat":39.2954,"lon":-114.8466,"elev":1906,"name":"Ely/Yelland Fld, NV, US","cover":"CLR","clouds":[],"fltCat":"VFR"},{"icaoId":"KGTF","receiptTime":"2026-04-17T10:56:23.784Z","obsTime":1776423180,"reportTime":"2026-04-17T11:00:00.000Z","temp":-6.7,"dewp":-7.2,"wdir":210,"wspd":7,"visib":"10+","altim":1015.3,"slp":1020.2,"qcField":4,"metarType":"METAR","rawOb":"METAR KGTF 171053Z 21007KT 10SM FEW075 M07/M07 A2998 RMK AO2 SLP202 T10671072","lat":47.4733,"lon":-111.3828,"elev":1117,"name":"Great Falls Intl, MT, US","cover":"FEW","clouds":[{"cover":"FEW","base":7500}],"fltCat":"VFR"},{"icaoId":"KYKM","receiptTime":"2026-04-17T10:56:24.119Z","obsTime":1776423180,"reportTime":"2026-04-17T11:00:00.000Z","temp":-1.7,"dewp":-5,"wdir":270,"wspd":5,"visib":"10+","altim":1023.8,"slp":1024.3,"qcField":6,"metarType":"METAR","rawOb":"METAR KYKM 171053Z AUTO 27005KT 10SM CLR M02/M05 A3023 RMK AO2 SLP243 T10171050","lat":46.564,"lon":-120.5349,"elev":319,"name":"Yakima/McAllister Fld, WA, US","cover":"CLR","clouds":[],"fltCat":"VFR"},{"icaoId":"KTWF","receiptTime":"2026-04-17T10:56:24.211Z","obsTime":1776423180,"reportTime":"2026-04-17T11:00:00.000Z","temp":-3.3,"dewp":-7.2,"wdir":220,"wspd":8,"visib":"10+","altim":1022.1,"slp":1022.6,"qcField":6,"metarType":"METAR","rawOb":"METAR KTWF 171053Z AUTO 22008KT 10SM CLR M03/M07 A3018 RMK AO2 SLP226 T10331072","lat":42.4785,"lon":-114.4775,"elev":1269,"name":"Twin Falls/Joslin Fld, ID, US","cover":"CLR","clouds":[],"fltCat":"VFR"},{"icaoId":"KVEL","receiptTime":"2026-04-17T10:56:24.297Z","obsTime":1776423180,"reportTime":"2026-04-17T11:00:00.000Z","temp":-3.3,"dewp":-4.4,"wdir":120,"wspd":9,"visib":1.5,"altim":1016,"slp":1014.5,"qcField":6,"wxString":"-SN BR","precip":0.005,"metarType":"METAR","rawOb":"METAR KVEL 171053Z AUTO 12009KT 1 1/2SM -SN BR OVC017 M03/M04 A3000 RMK AO2 SLP145 P0000 T10331044","lat":40.4429,"lon":-109.5128,"elev":1604,"name":"Vernal Rgnl, UT, US","cover":"OVC","clouds":[{"cover":"OVC","base":1700}],"fltCat":"IFR"},{"icaoId":"KVGT","receiptTime":"2026-04-17T10:56:24.309Z","obsTime":1776423180,"reportTime":"2026-04-17T11:00:00.000Z","temp":11.7,"dewp":-14.4,"wdir":340,"wspd":26,"wgst":43,"visib":"10+","altim":1016,"slp":1016.2,"qcField":6,"metarType":"METAR","rawOb":"METAR KVGT 171053Z AUTO 34026G43KT 10SM CLR 12/M14 A3000 RMK AO2 PK WND 33045/1000 SLP162 T01171144","lat":36.212,"lon":-115.194,"elev":664,"name":"Las Vegas/North Arpt, NV, US","cover":"CLR","clouds":[],"fltCat":"VFR"},{"icaoId":"KSAF","receiptTime":"2026-04-17T10:56:24.717Z","obsTime":1776423180,"reportTime":"2026-04-17T11:00:00.000Z","temp":7.2,"dewp":-13.9,"wdir":80,"wspd":5,"visib":"10+","altim":1013,"slp":1005.6,"qcField":6,"metarType":"METAR","rawOb":"METAR KSAF 171053Z AUTO 08005KT 10SM CLR 07/M14 A2991 RMK AO2 SLP056 T00721139","lat":35.611,"lon":-106.0957,"elev":1918,"name":"Santa Fe Cnty Muni, NM, US","cover":"CLR","clouds":[],"fltCat":"VFR"},{"icaoId":"KSBA","receiptTime":"2026-04-17T10:56:24.728Z","obsTime":1776423180,"reportTime":"2026-04-17T11:00:00.000Z","temp":10,"dewp":9.4,"wdir":0,"wspd":0,"visib":9,"altim":1013,"slp":1012.6,"qcField":14,"metarType":"METAR","rawOb":"METAR KSBA 171053Z AUTO 00000KT 9SM CLR 10/09 A2991 RMK AO2 SLP126 T01000094 $","lat":34.4241,"lon":-119.8425,"elev":2,"name":"Santa Barbara Muni, CA, US","cover":"CLR","clouds":[],"fltCat":"VFR"},{"icaoId":"KSDL","receiptTime":"2026-04-17T10:56:24.753Z","obsTime":1776423180,"reportTime":"2026-04-17T11:00:00.000Z","temp":18.9,"dewp":-1.7,"wdir":0,"wspd":0,"visib":"10+","altim":1010.6,"slp":1008.3,"qcField":6,"metarType":"METAR","rawOb":"METAR KSDL 171053Z AUTO 00000KT 10SM CLR 19/M02 A2984 RMK AO2 SLP083 T01891017","lat":33.6123,"lon":-111.9232,"elev":438,"name":"Scottsdale Muni, AZ, US","cover":"CLR","clouds":[],"fltCat":"VFR"},{"icaoId":"KSHR","receiptTime":"2026-04-17T10:56:24.826Z","obsTime":1776423180,"reportTime":"2026-04-17T11:00:00.000Z","temp":-4.4,"dewp":-6.1,"wdir":300,"wspd":10,"visib":"10+","altim":1014.3,"slp":1018,"qcField":6,"metarType":"METAR","rawOb":"METAR KSHR 171053Z AUTO 30010KT 10SM CLR M04/M06 A2995 RMK AO2 SLP180 T10441061","lat":44.7603,"lon":-106.9741,"elev":1212,"name":"Sheridan Cnty Arpt, WY, US","cover":"CLR","clouds":[],"fltCat":"VFR"},{"icaoId":"KSJC","receiptTime":"2026-04-17T10:56:24.848Z","obsTime":1776423180,"reportTime":"2026-04-17T11:00:00.000Z","temp":13.3,"dewp":-6.1,"wdir":320,"wspd":11,"visib":"10+","altim":1016.7,"slp":1016.5,"qcField":6,"metarType":"METAR","rawOb":"METAR KSJC 171053Z AUTO 32011KT 10SM CLR 13/M06 A3002 RMK AO2 SLP165 T01331061","lat":37.3594,"lon":-121.9244,"elev":13,"name":"San Jose Intl Arpt, CA, US","cover":"CLR","clouds":[],"fltCat":"VFR"},{"icaoId":"KSMF","receiptTime":"2026-04-17T10:56:24.872Z","obsTime":1776423180,"reportTime":"2026-04-17T11:00:00.000Z","temp":8.3,"dewp":-1.7,"wdir":310,"wspd":13,"visib":"10+","altim":1016.7,"slp":1016.6,"qcField":4,"metarType":"METAR","rawOb":"METAR KSMF 171053Z 31013KT 10SM CLR 08/M02 A3002 RMK AO2 SLP166 T00831017","lat":38.7007,"lon":-121.5948,"elev":7,"name":"Sacramento Intl, CA, US","cover":"CLR","clouds":[],"fltCat":"VFR"},{"icaoId":"KSNA","receiptTime":"2026-04-17T10:56:24.894Z","obsTime":1776423180,"reportTime":"2026-04-17T11:00:00.000Z","temp":15,"dewp":10.6,"wdir":90,"wspd":5,"visib":"10+","altim":1013.3,"slp":1013.1,"qcField":6,"metarType":"METAR","rawOb":"METAR KSNA 171053Z AUTO 09005KT 10SM CLR 15/11 A2992 RMK AO2 SLP131 T01500106","lat":33.6798,"lon":-117.8675,"elev":14,"name":"Santa Ana/Wayne Arpt, CA, US","cover":"CLR","clouds":[],"fltCat":"VFR"},{"icaoId":"KSTS","receiptTime":"2026-04-17T10:56:25.012Z","obsTime":1776423180,"reportTime":"2026-04-17T11:00:00.000Z","temp":8.3,"dewp":-1.1,"wdir":310,"wspd":5,"visib":"10+","altim":1017.4,"slp":1016.7,"qcField":6,"metarType":"METAR","rawOb":"METAR KSTS 171053Z AUTO 31005KT 10SM CLR 08/M01 A3004 RMK AO2 SLP167 T00831011","lat":38.5037,"lon":-122.811,"elev":35,"name":"Santa Rosa/Schulz Arpt, CA, US","cover":"CLR","clouds":[],"fltCat":"VFR"},{"icaoId":"KMLS","receiptTime":"2026-04-17T10:56:25.182Z","obsTime":1776423180,"reportTime":"2026-04-17T11:00:00.000Z","temp":-4.4,"dewp":-8.9,"wdir":320,"wspd":11,"visib":9,"altim":1015.3,"slp":1017.7,"qcField":6,"wxString":"-SN","precip":0.005,"metarType":"METAR","rawOb":"METAR KMLS 171053Z AUTO 32011KT 9SM -SN SCT060 BKN080 M04/M09 A2998 RMK AO2 PK WND 31026/0957 SNB27 SLP177 P0000 T10441089","lat":46.4265,"lon":-105.8834,"elev":800,"name":"Miles City/Wiley Fld, MT, US","cover":"BKN","clouds":[{"cover":"SCT","base":6000},{"cover":"BKN","base":8000}],"fltCat":"VFR"},{"icaoId":"KMOD","receiptTime":"2026-04-17T10:56:25.247Z","obsTime":1776423180,"reportTime":"2026-04-17T11:00:00.000Z","temp":10,"dewp":-2.2,"wdir":320,"wspd":10,"visib":"10+","altim":1015.7,"slp":1015.4,"qcField":14,"metarType":"METAR","rawOb":"METAR KMOD 171053Z AUTO 32010KT 10SM CLR 10/M02 A2999 RMK AO2 SLP154 T01001022 $","lat":37.6254,"lon":-120.9549,"elev":25,"name":"Modesto/Sham Fld, CA, US","cover":"CLR","clouds":[],"fltCat":"VFR"},{"icaoId":"KMTJ","receiptTime":"2026-04-17T10:56:25.357Z","obsTime":1776423180,"reportTime":"2026-04-17T11:00:00.000Z","temp":2.2,"dewp":-5.6,"wdir":330,"wspd":17,"wgst":27,"visib":"10+","altim":1013,"slp":1008.4,"qcField":6,"metarType":"METAR","rawOb":"METAR KMTJ 171053Z AUTO 33017G27KT 10SM OVC110 02/M06 A2991 RMK AO2 PK WND 31027/1047 SLP084 T00221056","lat":38.5054,"lon":-107.8981,"elev":1755,"name":"Montrose Rgnl, CO, US","cover":"OVC","clouds":[{"cover":"OVC","base":11000}],"fltCat":"VFR"},{"icaoId":"KPAE","receiptTime":"2026-04-17T10:56:25.668Z","obsTime":1776423180,"reportTime":"2026-04-17T11:00:00.000Z","temp":6.7,"dewp":2.2,"wdir":0,"wspd":0,"visib":"10+","altim":1026.5,"slp":1026.7,"qcField":4,"metarType":"METAR","rawOb":"METAR KPAE 171053Z 00000KT 10SM FEW025 OVC055 07/02 A3031 RMK AO2 SLP267 T00670022","lat":47.9232,"lon":-122.2831,"elev":166,"name":"Everett/Paine Fld, WA, US","cover":"OVC","clouds":[{"cover":"FEW","base":2500},{"cover":"OVC","base":5500}],"fltCat":"VFR"},{"icaoId":"KHLN","receiptTime":"2026-04-17T10:56:25.815Z","obsTime":1776423180,"reportTime":"2026-04-17T11:00:00.000Z","temp":1.1,"dewp":-7.8,"wdir":300,"wspd":8,"visib":"10+","altim":1016.7,"slp":1020,"qcField":6,"metarType":"METAR","rawOb":"METAR KHLN 171053Z AUTO 30008KT 10SM BKN055 OVC110 01/M08 A3002 RMK AO2 SLP200 T00111078","lat":46.6045,"lon":-111.9892,"elev":1178,"name":"Helena Rgnl, MT, US","cover":"OVC","clouds":[{"cover":"BKN","base":5500},{"cover":"OVC","base":11000}],"fltCat":"VFR"},{"icaoId":"KHOU","receiptTime":"2026-04-17T10:56:25.840Z","obsTime":1776423180,"reportTime":"2026-04-17T11:00:00.000Z","temp":21.1,"dewp":20,"wdir":150,"wspd":5,"visib":8,"altim":1013,"slp":1013.4,"qcField":12,"metarType":"METAR","rawOb":"METAR KHOU 171053Z 15005KT 8SM FEW015 21/20 A2991 RMK AO2 SLP134 T02110200 $","lat":29.6458,"lon":-95.2821,"elev":13,"name":"Houston/Hobby Arpt, TX, US","cover":"FEW","clouds":[{"cover":"FEW","base":1500}],"fltCat":"VFR"},{"icaoId":"KIAH","receiptTime":"2026-04-17T10:56:25.986Z","obsTime":1776423180,"reportTime":"2026-04-17T11:00:00.000Z","temp":19.4,"dewp":19.4,"wdir":160,"wspd":4,"visib":7,"altim":1013.3,"slp":1013.2,"qcField":4,"metarType":"METAR","rawOb":"METAR KIAH 171053Z 16004KT 7SM SCT020 19/19 A2992 RMK AO2 SLP132 T01940194","lat":29.9844,"lon":-95.3607,"elev":27,"name":"Houston/Bush Intl, TX, US","cover":"SCT","clouds":[{"cover":"SCT","base":2000}],"fltCat":"VFR"},{"icaoId":"KLAR","receiptTime":"2026-04-17T10:56:26.142Z","obsTime":1776423180,"reportTime":"2026-04-17T11:00:00.000Z","temp":-3.9,"dewp":-11.7,"wdir":330,"wspd":12,"wgst":20,"visib":"10+","altim":1010.2,"slp":1005.7,"qcField":6,"metarType":"METAR","rawOb":"METAR KLAR 171053Z AUTO 33012G20KT 10SM BKN035 OVC047 M04/M12 A2983 RMK AO2 SLP057 T10391117","lat":41.3165,"lon":-105.6729,"elev":2217,"name":"Laramie Rgnl, WY, US","cover":"OVC","clouds":[{"cover":"BKN","base":3500},{"cover":"OVC","base":4700}],"fltCat":"VFR"},{"icaoId":"KLAW","receiptTime":"2026-04-17T10:56:26.154Z","obsTime":1776423180,"reportTime":"2026-04-17T11:00:00.000Z","temp":20,"dewp":17.8,"wdir":160,"wspd":8,"visib":"10+","altim":1008.5,"slp":1007.2,"qcField":6,"metarType":"METAR","rawOb":"METAR KLAW 171053Z AUTO 16008KT 10SM CLR 20/18 A2978 RMK AO2 SLP072 T02000178","lat":34.5577,"lon":-98.4172,"elev":328,"name":"Lawton-Fort Sill Rgnl, OK, US","cover":"CLR","clouds":[],"fltCat":"VFR"},{"icaoId":"KMSY","receiptTime":"2026-04-17T10:56:26.311Z","obsTime":1776423180,"reportTime":"2026-04-17T11:00:00.000Z","temp":20.6,"dewp":18.9,"wdir":0,"wspd":0,"visib":"10+","altim":1016.3,"slp":1016.4,"qcField":4,"metarType":"METAR","rawOb":"METAR KMSY 171053Z 00000KT 10SM FEW020 21/19 A3001 RMK AO2 SLP164 T02060189","lat":29.9974,"lon":-90.2777,"elev":0,"name":"New Orleans/Armstrong Intl, LA, US","cover":"FEW","clouds":[{"cover":"FEW","base":2000}],"fltCat":"VFR"},{"icaoId":"KPBI","receiptTime":"2026-04-17T10:56:26.384Z","obsTime":1776423180,"reportTime":"2026-04-17T11:00:00.000Z","temp":23.9,"dewp":21.7,"wdir":90,"wspd":8,"visib":"10+","altim":1017,"slp":1016.9,"qcField":12,"precip":0.03,"metarType":"METAR","rawOb":"METAR KPBI 171053Z 09008KT 10SM BKN014 BKN025 BKN039 24/22 A3003 RMK AO2 RAB24E37 SLP169 P0003 T02390217 $","lat":26.6851,"lon":-80.0992,"elev":4,"name":"Palm Beach Intl, FL, US","cover":"BKN","clouds":[{"cover":"BKN","base":1400},{"cover":"BKN","base":2500},{"cover":"BKN","base":3900}],"fltCat":"MVFR"},{"icaoId":"KLAX","receiptTime":"2026-04-17T10:56:26.837Z","obsTime":1776423180,"reportTime":"2026-04-17T11:00:00.000Z","temp":14.4,"dewp":12.2,"wdir":90,"wspd":6,"visib":"10+","altim":1013.3,"slp":1013,"qcField":4,"metarType":"METAR","rawOb":"METAR KLAX 171053Z 09006KT 10SM FEW012 SCT018 14/12 A2992 RMK AO2 SLP130 T01440122","lat":33.9382,"lon":-118.3866,"elev":30,"name":"Los Angeles Intl, CA, US","cover":"SCT","clouds":[{"cover":"FEW","base":1200},{"cover":"SCT","base":1800}],"fltCat":"VFR"},{"icaoId":"KLBB","receiptTime":"2026-04-17T10:56:26.853Z","obsTime":1776423180,"reportTime":"2026-04-17T11:00:00.000Z","temp":18.9,"dewp":16.7,"wdir":200,"wspd":13,"visib":8,"altim":1009.6,"slp":1004.2,"qcField":4,"metarType":"METAR","rawOb":"METAR KLBB 171053Z 20013KT 8SM FEW020 19/17 A2981 RMK AO2 SLP042 T01890167","lat":33.6658,"lon":-101.8233,"elev":996,"name":"Lubbock Intl Arpt, TX, US","cover":"FEW","clouds":[{"cover":"FEW","base":2000}],"fltCat":"VFR"},{"icaoId":"KPDX","receiptTime":"2026-04-17T10:56:26.971Z","obsTime":1776423180,"reportTime":"2026-04-17T11:00:00.000Z","temp":6.7,"dewp":3.9,"wdir":0,"wspd":0,"visib":"10+","altim":1027.5,"slp":1027.3,"qcField":12,"metarType":"METAR","rawOb":"METAR KPDX 171053Z 00000KT 10SM SCT035 BKN060 07/04 A3034 RMK AO2 SLP273 T00670039 $","lat":45.5958,"lon":-122.6092,"elev":7,"name":"Portland Intl, OR, US","cover":"BKN","clouds":[{"cover":"SCT","base":3500},{"cover":"BKN","base":6000}],"fltCat":"VFR"},{"icaoId":"KPGA","receiptTime":"2026-04-17T10:56:26.983Z","obsTime":1776423180,"reportTime":"2026-04-17T11:00:00.000Z","temp":6.7,"dewp":-7.2,"wdir":300,"wspd":11,"wgst":30,"visib":"10+","altim":1014,"slp":1009.9,"qcField":14,"metarType":"METAR","rawOb":"METAR KPGA 171053Z AUTO 30011G30KT 10SM OVC100 07/M07 A2994 RMK AO2 PK WND 31031/1012 SLP099 T00671072 $","lat":36.9211,"lon":-111.4487,"elev":1310,"name":"Page Muni, AZ, US","cover":"OVC","clouds":[{"cover":"OVC","base":10000}],"fltCat":"VFR"},{"icaoId":"KSEA","receiptTime":"2026-04-17T10:56:27.070Z","obsTime":1776423180,"reportTime":"2026-04-17T11:00:00.000Z","temp":6.1,"dewp":2.2,"wdir":120,"wspd":8,"visib":"10+","altim":1026.5,"slp":1027.1,"qcField":4,"metarType":"METAR","rawOb":"METAR KSEA 171053Z 12008KT 10SM SCT027 SCT048 BKN075 06/02 A3031 RMK AO2 SLP271 T00610022","lat":47.4447,"lon":-122.3144,"elev":115,"name":"Seattle-Tacoma Intl, WA, US","cover":"BKN","clouds":[{"cover":"SCT","base":2700},{"cover":"SCT","base":4800},{"cover":"BKN","base":7500}],"fltCat":"VFR"},{"icaoId":"KTUS","receiptTime":"2026-04-17T10:56:27.153Z","obsTime":1776423180,"reportTime":"2026-04-17T11:00:00.000Z","temp":15,"dewp":-4.4,"wdir":130,"wspd":4,"visib":"10+","altim":1012.6,"slp":1008.8,"qcField":12,"metarType":"METAR","rawOb":"METAR KTUS 171053Z 13004KT 10SM CLR 15/M04 A2990 RMK AO2 SLP088 T01501044 $","lat":32.1315,"lon":-110.9564,"elev":776,"name":"Tucson Intl Arpt, AZ, US","cover":"CLR","clouds":[],"fltCat":"VFR"},{"icaoId":"KFAT","receiptTime":"2026-04-17T10:56:26.670Z","obsTime":1776423180,"reportTime":"2026-04-17T11:00:00.000Z","temp":10.6,"dewp":-0.6,"wdir":0,"wspd":0,"visib":"10+","altim":1015.7,"slp":1015.2,"qcField":12,"metarType":"METAR","rawOb":"METAR KFAT 171053Z 00000KT 10SM CLR 11/M01 A2999 RMK AO2 SLP152 T01061006 $","lat":36.78,"lon":-119.7202,"elev":102,"name":"Fresno/Yosemite Intl, CA, US","cover":"CLR","clouds":[],"fltCat":"VFR"},{"icaoId":"KBNA","receiptTime":"2026-04-17T10:56:17.905Z","obsTime":1776423180,"reportTime":"2026-04-17T11:00:00.000Z","temp":14.4,"dewp":12.8,"wdir":120,"wspd":3,"visib":"10+","altim":1017.7,"slp":1016.9,"qcField":4,"metarType":"METAR","rawOb":"METAR KBNA 171053Z 12003KT 10SM FEW050 FEW250 14/13 A3005 RMK AO2 SLP169 T01440128","lat":36.1105,"lon":-86.6881,"elev":168,"name":"Nashville Intl, TN, US","cover":"FEW","clouds":[{"cover":"FEW","base":5000},{"cover":"FEW","base":25000}],"fltCat":"VFR"},{"icaoId":"KDFW","receiptTime":"2026-04-17T10:56:15.717Z","obsTime":1776423180,"reportTime":"2026-04-17T11:00:00.000Z","temp":21.1,"dewp":17.8,"wdir":170,"wspd":15,"visib":"10+","altim":1010.9,"slp":1009.9,"qcField":12,"metarType":"METAR","rawOb":"METAR KDFW 171053Z 17015KT 10SM OVC017 21/18 A2985 RMK AO2 SLP099 T02110178 $","lat":32.8974,"lon":-97.022,"elev":168,"name":"Dallas-Ft Worth Intl, TX, US","cover":"OVC","clouds":[{"cover":"OVC","base":1700}],"fltCat":"MVFR"},{"icaoId":"KMSP","receiptTime":"2026-04-17T10:56:25.303Z","obsTime":1776423180,"reportTime":"2026-04-17T11:00:00.000Z","temp":17.8,"dewp":10.6,"wdir":160,"wspd":10,"visib":"10+","altim":1003.5,"slp":1002.8,"qcField":4,"metarType":"METAR","rawOb":"METAR KMSP 171053Z 16010KT 10SM FEW250 18/11 A2963 RMK AO2 SLP028 T01780106","lat":44.8852,"lon":-93.2313,"elev":255,"name":"Minneapolis-St Paul Intl, MN, US","cover":"FEW","clouds":[{"cover":"FEW","base":25000}],"fltCat":"VFR"},{"icaoId":"KGEG","receiptTime":"2026-04-17T10:56:26.728Z","obsTime":1776423180,"reportTime":"2026-04-17T11:00:00.000Z","temp":0,"dewp":-4.4,"wdir":180,"wspd":7,"visib":"10+","altim":1020.4,"slp":1021.6,"qcField":4,"metarType":"METAR","rawOb":"METAR KGEG 171053Z 18007KT 10SM SCT080 SCT140 00/M04 A3013 RMK AO2 SLP216 T00001044","lat":47.6217,"lon":-117.528,"elev":718,"name":"Spokane Intl, WA, US","cover":"SCT","clouds":[{"cover":"SCT","base":8000},{"cover":"SCT","base":14000}],"fltCat":"VFR"},{"icaoId":"KRIW","receiptTime":"2026-04-17T10:56:27.005Z","obsTime":1776423180,"reportTime":"2026-04-17T11:00:00.000Z","temp":-3.3,"dewp":-4.4,"wdir":260,"wspd":8,"visib":"10+","altim":1014.3,"slp":1014.9,"qcField":6,"precip":0.005,"metarType":"METAR","rawOb":"METAR KRIW 171053Z AUTO 26008KT 10SM SCT055 BKN075 OVC100 M03/M04 A2995 RMK AO2 SNE20 SLP149 P0000 T10331044","lat":43.0622,"lon":-108.4471,"elev":1662,"name":"Riverton Rgnl, WY, US","cover":"OVC","clouds":[{"cover":"SCT","base":5500},{"cover":"BKN","base":7500},{"cover":"OVC","base":10000}],"fltCat":"VFR"},{"icaoId":"KMLC","receiptTime":"2026-04-17T10:56:26.289Z","obsTime":1776423180,"reportTime":"2026-04-17T11:00:00.000Z","temp":21.1,"dewp":18.9,"wdir":180,"wspd":6,"visib":"10+","altim":1010.9,"slp":1010,"qcField":6,"metarType":"METAR","rawOb":"METAR KMLC 171053Z AUTO 18006KT 10SM CLR 21/19 A2985 RMK AO2 SLP100 T02110189","lat":34.8824,"lon":-95.7815,"elev":231,"name":"McAlester Rgnl, OK, US","cover":"CLR","clouds":[],"fltCat":"VFR"},{"icaoId":"KMYF","receiptTime":"2026-04-17T10:56:25.414Z","obsTime":1776423180,"reportTime":"2026-04-17T11:00:00.000Z","temp":13.3,"dewp":9.4,"wdir":110,"wspd":5,"visib":"10+","altim":1013.6,"slp":1013.3,"qcField":6,"metarType":"METAR","rawOb":"METAR KMYF 171053Z AUTO 11005KT 10SM FEW027 13/09 A2993 RMK AO2 SLP133 T01330094","lat":32.8145,"lon":-117.1375,"elev":128,"name":"San Diego/Montgomery Arpt, CA, US","cover":"FEW","clouds":[{"cover":"FEW","base":2700}],"fltCat":"VFR"},{"icaoId":"KOAK","receiptTime":"2026-04-17T10:56:25.448Z","obsTime":1776423180,"reportTime":"2026-04-17T11:00:00.000Z","temp":13.3,"dewp":-2.8,"wdir":320,"wspd":6,"visib":"10+","altim":1017.4,"slp":1017,"qcField":12,"metarType":"METAR","rawOb":"METAR KOAK 171053Z 32006KT 10SM CLR 13/M03 A3004 RMK AO2 SLP170 T01331028 $","lat":37.7178,"lon":-122.233,"elev":3,"name":"Oakland Intl, CA, US","cover":"CLR","clouds":[],"fltCat":"VFR"},{"icaoId":"KOGD","receiptTime":"2026-04-17T10:56:25.482Z","obsTime":1776423180,"reportTime":"2026-04-17T11:00:00.000Z","temp":-1.7,"dewp":-6.7,"wdir":0,"wspd":0,"visib":"10+","altim":1020.4,"slp":1021.4,"qcField":6,"metarType":"METAR","rawOb":"METAR KOGD 171053Z AUTO 00000KT 10SM FEW070 BKN090 M02/M07 A3013 RMK AO2 SLP214 T10171067","lat":41.1941,"lon":-112.0168,"elev":1356,"name":"Ogden/Hinckley Arpt, UT, US","cover":"BKN","clouds":[{"cover":"FEW","base":7000},{"cover":"BKN","base":9000}],"fltCat":"VFR"},{"icaoId":"KONT","receiptTime":"2026-04-17T10:56:25.548Z","obsTime":1776423180,"reportTime":"2026-04-17T11:00:00.000Z","temp":12.8,"dewp":11.1,"wdir":230,"wspd":3,"visib":"10+","altim":1013.3,"slp":1012.3,"qcField":12,"metarType":"METAR","rawOb":"METAR KONT 171053Z 23003KT 10SM CLR 13/11 A2992 RMK AO2 SLP123 T01280111 $","lat":34.0531,"lon":-117.5769,"elev":279,"name":"Ontario Intl, CA, US","cover":"CLR","clouds":[],"fltCat":"VFR"},{"icaoId":"KMKE","receiptTime":"2026-04-17T10:56:21.275Z","obsTime":1776423120,"reportTime":"2026-04-17T11:00:00.000Z","temp":6.7,"dewp":6.7,"wdir":150,"wspd":6,"visib":0.25,"altim":1013.3,"slp":1013.5,"qcField":12,"wxString":"FG","vertVis":2,"metarType":"METAR","rawOb":"METAR KMKE 171052Z 15006KT 1/4SM R01L/1600V2200FT FG VV002 07/07 A2992 RMK AO2 SLP135 T00670067 $","lat":42.9549,"lon":-87.9045,"elev":203,"name":"Milwaukee/Mitchell Intl, WI, US","cover":"OVX","clouds":[{"cover":"OVX","base":200}],"fltCat":"LIFR"},{"icaoId":"KOKC","receiptTime":"2026-04-17T10:56:21.347Z","obsTime":1776423120,"reportTime":"2026-04-17T11:00:00.000Z","temp":20.6,"dewp":17.8,"wdir":170,"wspd":13,"visib":"10+","altim":1008.5,"slp":1007.1,"qcField":4,"metarType":"METAR","rawOb":"METAR KOKC 171052Z 17013KT 10SM SCT050 21/18 A2978 RMK AO2 SLP071 T02060178","lat":35.3843,"lon":-97.6003,"elev":391,"name":"Oklahoma City/Will Rogers Intl, OK, US","cover":"SCT","clouds":[{"cover":"SCT","base":5000}],"fltCat":"VFR"},{"icaoId":"KIAD","receiptTime":"2026-04-17T10:56:21.148Z","obsTime":1776423120,"reportTime":"2026-04-17T11:00:00.000Z","temp":20.6,"dewp":12.2,"wdir":290,"wspd":9,"visib":8,"altim":1012.3,"slp":1011.8,"qcField":4,"metarType":"METAR","rawOb":"METAR KIAD 171052Z 29009KT 8SM BKN100 BKN250 21/12 A2989 RMK AO2 SLP118 T02060122","lat":38.9348,"lon":-77.4473,"elev":90,"name":"Washington/Dulles Intl, VA, US","cover":"BKN","clouds":[{"cover":"BKN","base":10000},{"cover":"BKN","base":25000}],"fltCat":"VFR"},{"icaoId":"KSPS","receiptTime":"2026-04-17T10:56:15.863Z","obsTime":1776423120,"reportTime":"2026-04-17T11:00:00.000Z","temp":20.6,"dewp":17.8,"wdir":180,"wspd":12,"visib":"10+","altim":1008.2,"slp":1006.9,"qcField":4,"metarType":"METAR","rawOb":"METAR KSPS 171052Z 18012KT 10SM CLR 21/18 A2977 RMK AO2 SLP069 T02060178","lat":33.9785,"lon":-98.493,"elev":310,"name":"Wichita Falls Rgnl, TX, US","cover":"CLR","clouds":[],"fltCat":"VFR"},{"icaoId":"KABQ","receiptTime":"2026-04-17T10:56:15.743Z","obsTime":1776423120,"reportTime":"2026-04-17T11:00:00.000Z","temp":13.3,"dewp":-13.9,"wdir":0,"wspd":0,"visib":"10+","altim":1012.3,"slp":1005.4,"qcField":4,"metarType":"METAR","rawOb":"METAR KABQ 171052Z 00000KT 10SM FEW150 13/M14 A2989 RMK AO2 SLP054 T01331139","lat":35.0419,"lon":-106.6154,"elev":1620,"name":"Albuquerque Intl, NM, US","cover":"FEW","clouds":[{"cover":"FEW","base":15000}],"fltCat":"VFR"},{"icaoId":"KABI","receiptTime":"2026-04-17T10:56:15.730Z","obsTime":1776423120,"reportTime":"2026-04-17T11:00:00.000Z","temp":20.6,"dewp":17.8,"wdir":170,"wspd":13,"visib":"10+","altim":1009.6,"slp":1007,"qcField":12,"metarType":"METAR","rawOb":"METAR KABI 171052Z 17013KT 10SM OVC025 21/18 A2981 RMK AO2 SLP070 T02060178 $","lat":32.4106,"lon":-99.6821,"elev":543,"name":"Abilene Rgnl, TX, US","cover":"OVC","clouds":[{"cover":"OVC","base":2500}],"fltCat":"MVFR"},{"icaoId":"KHRL","receiptTime":"2026-04-17T10:56:21.118Z","obsTime":1776423120,"reportTime":"2026-04-17T11:00:00.000Z","temp":23.3,"dewp":22.2,"wdir":150,"wspd":9,"visib":8,"altim":1010.9,"slp":1010.6,"qcField":4,"metarType":"METAR","rawOb":"METAR KHRL 171052Z 15009KT 8SM SCT018 BKN027 23/22 A2985 RMK AO2 SLP106 T02330222","lat":26.2303,"lon":-97.6556,"elev":9,"name":"Harlingen/Valley Intl, TX, US","cover":"BKN","clouds":[{"cover":"SCT","base":1800},{"cover":"BKN","base":2700}],"fltCat":"MVFR"},{"icaoId":"KATL","receiptTime":"2026-04-17T10:56:20.862Z","obsTime":1776423120,"reportTime":"2026-04-17T11:00:00.000Z","temp":17.8,"dewp":12.2,"wdir":310,"wspd":8,"visib":"10+","altim":1017.4,"slp":1016.3,"qcField":12,"metarType":"METAR","rawOb":"METAR KATL 171052Z 31008KT 10SM FEW120 18/12 A3004 RMK AO2 SLP163 T01780122 $","lat":33.6297,"lon":-84.4422,"elev":309,"name":"Atlanta/Hartsfield-Jackson Intl, GA, US","cover":"FEW","clouds":[{"cover":"FEW","base":12000}],"fltCat":"VFR"},{"icaoId":"KCLT","receiptTime":"2026-04-17T10:56:20.950Z","obsTime":1776423120,"reportTime":"2026-04-17T11:00:00.000Z","temp":16.7,"dewp":11.1,"wdir":0,"wspd":0,"visib":"10+","altim":1016,"slp":1016.6,"qcField":4,"metarType":"METAR","rawOb":"METAR KCLT 171052Z 00000KT 10SM FEW100 FEW250 17/11 A3000 RMK AO2 SLP166 T01670111","lat":35.2225,"lon":-80.9543,"elev":223,"name":"Charlotte/Douglas Intl, NC, US","cover":"FEW","clouds":[{"cover":"FEW","base":10000},{"cover":"FEW","base":25000}],"fltCat":"VFR"},{"icaoId":"KCVG","receiptTime":"2026-04-17T10:56:20.976Z","obsTime":1776423120,"reportTime":"2026-04-17T11:00:00.000Z","temp":14.4,"dewp":10.6,"wdir":0,"wspd":0,"visib":"10+","altim":1015.7,"slp":1014.7,"qcField":4,"metarType":"METAR","rawOb":"METAR KCVG 171052Z 00000KT 10SM CLR 14/11 A2999 RMK AO2 SLP147 T01440106","lat":39.0444,"lon":-84.6724,"elev":264,"name":"Cincinnati Intl, KY, US","cover":"CLR","clouds":[],"fltCat":"VFR"},{"icaoId":"KDCA","receiptTime":"2026-04-17T10:56:20.987Z","obsTime":1776423120,"reportTime":"2026-04-17T11:00:00.000Z","temp":20.6,"dewp":15,"wdir":340,"wspd":6,"visib":"10+","altim":1011.6,"slp":1011.5,"qcField":4,"metarType":"METAR","rawOb":"METAR KDCA 171052Z 34006KT 10SM FEW110 BKN140 BKN250 21/15 A2987 RMK AO2 SLP115 VIRGA E AND SW TCU DSNT SE T02060150","lat":38.8472,"lon":-77.0345,"elev":4,"name":"Washington/Reagan-National Arpt, VA, US","cover":"BKN","clouds":[{"cover":"FEW","base":11000},{"cover":"BKN","base":14000},{"cover":"BKN","base":25000}],"fltCat":"VFR"},{"icaoId":"KMLF","receiptTime":"2026-04-17T10:56:15.852Z","obsTime":1776423120,"reportTime":"2026-04-17T11:00:00.000Z","temp":-2.8,"dewp":-8.9,"wdir":350,"wspd":10,"visib":"10+","altim":1020.7,"slp":1020.4,"qcField":6,"metarType":"METAR","rawOb":"METAR KMLF 171052Z AUTO 35010KT 10SM CLR M03/M09 A3014 RMK AO2 SLP204 T10281089","lat":38.4225,"lon":-113.0109,"elev":1537,"name":"Milford Muni, UT, US","cover":"CLR","clouds":[],"fltCat":"VFR"},{"icaoId":"KPVD","receiptTime":"2026-04-17T10:54:07.018Z","obsTime":1776423060,"reportTime":"2026-04-17T11:00:00.000Z","temp":13.3,"dewp":11.7,"wdir":0,"wspd":0,"visib":5,"altim":1008.9,"slp":1008.7,"qcField":12,"wxString":"BR","precip":0.005,"metarType":"METAR","rawOb":"METAR KPVD 171051Z 00000KT 5SM BR FEW010 OVC095 13/12 A2979 RMK AO2 RAB30E50 SLP087 P0000 T01330117 $","lat":41.7225,"lon":-71.4325,"elev":15,"name":"Providence/Green Mem, RI, US","cover":"OVC","clouds":[{"cover":"FEW","base":1000},{"cover":"OVC","base":9500}],"fltCat":"MVFR"},{"icaoId":"KRDU","receiptTime":"2026-04-17T10:54:07.040Z","obsTime":1776423060,"reportTime":"2026-04-17T11:00:00.000Z","temp":16.7,"dewp":10.6,"wdir":0,"wspd":0,"visib":"10+","altim":1014.6,"slp":1014.2,"qcField":4,"metarType":"METAR","rawOb":"METAR KRDU 171051Z 00000KT 10SM FEW090 SCT120 SCT250 17/11 A2996 RMK AO2 SLP142 T01670106","lat":35.8923,"lon":-78.782,"elev":121,"name":"Raleigh-Durham Intl, NC, US","cover":"SCT","clouds":[{"cover":"FEW","base":9000},{"cover":"SCT","base":12000},{"cover":"SCT","base":25000}],"fltCat":"VFR"},{"icaoId":"KMYL","receiptTime":"2026-04-17T10:54:06.919Z","obsTime":1776423060,"reportTime":"2026-04-17T11:00:00.000Z","temp":-4.4,"dewp":-6.1,"wdir":0,"wspd":0,"visib":"10+","altim":1021.4,"slp":1024.7,"qcField":6,"metarType":"METAR","rawOb":"METAR KMYL 171051Z AUTO 00000KT 10SM OVC070 M04/M06 A3016 RMK AO2 SLP247 T10441061","lat":44.8943,"lon":-116.0998,"elev":1532,"name":"McCall Muni, ID, US","cover":"OVC","clouds":[{"cover":"OVC","base":7000}],"fltCat":"VFR"},{"icaoId":"KELP","receiptTime":"2026-04-17T10:54:07.758Z","obsTime":1776423060,"reportTime":"2026-04-17T11:00:00.000Z","temp":17.2,"dewp":-6.7,"wdir":220,"wspd":7,"visib":"10+","altim":1012.3,"slp":1005.5,"qcField":12,"metarType":"METAR","rawOb":"METAR KELP 171051Z 22007KT 10SM SCT240 17/M07 A2989 RMK AO2 SLP055 T01721067 $","lat":31.8123,"lon":-106.3774,"elev":1205,"name":"El Paso Intl, TX, US","cover":"SCT","clouds":[{"cover":"SCT","base":24000}],"fltCat":"VFR"},{"icaoId":"KIGM","receiptTime":"2026-04-17T10:54:07.822Z","obsTime":1776423060,"reportTime":"2026-04-17T11:00:00.000Z","temp":11.7,"dewp":-9.4,"wdir":350,"wspd":27,"wgst":37,"visib":9,"altim":1013,"slp":1007.8,"qcField":6,"metarType":"METAR","rawOb":"METAR KIGM 171051Z AUTO 35027G37KT 9SM CLR 12/M09 A2991 RMK AO2 PK WND 33038/1030 WSHFT 0947 SLP078 T01171094","lat":35.2575,"lon":-113.9341,"elev":1045,"name":"Kingman Arpt, AZ, US","cover":"CLR","clouds":[],"fltCat":"VFR"},{"icaoId":"KACT","receiptTime":"2026-04-17T10:54:07.519Z","obsTime":1776423060,"reportTime":"2026-04-17T11:00:00.000Z","temp":20.6,"dewp":18.3,"wdir":160,"wspd":9,"visib":"10+","altim":1011.9,"slp":1011.1,"qcField":4,"metarType":"METAR","rawOb":"METAR KACT 171051Z 16009KT 10SM FEW029 21/18 A2988 RMK AO2 SLP111 T02060183","lat":31.618,"lon":-97.2283,"elev":150,"name":"Waco Rgnl, TX, US","cover":"FEW","clouds":[{"cover":"FEW","base":2900}],"fltCat":"VFR"},{"icaoId":"KOXR","receiptTime":"2026-04-17T10:54:06.955Z","obsTime":1776423060,"reportTime":"2026-04-17T11:00:00.000Z","temp":12.2,"dewp":10,"wdir":50,"wspd":4,"visib":"10+","altim":1013,"slp":1012.7,"qcField":14,"metarType":"METAR","rawOb":"METAR KOXR 171051Z AUTO 05004KT 10SM CLR 12/10 A2991 RMK AO2 SLP127 T01220100 $","lat":34.2001,"lon":-119.2042,"elev":12,"name":"Oxnard Arpt, CA, US","cover":"CLR","clouds":[],"fltCat":"VFR"},{"icaoId":"KROW","receiptTime":"2026-04-17T10:54:07.049Z","obsTime":1776423060,"reportTime":"2026-04-17T11:00:00.000Z","temp":10,"dewp":-7.8,"wdir":190,"wspd":6,"visib":"10+","altim":1009.9,"slp":1004.3,"qcField":14,"metarType":"METAR","rawOb":"METAR KROW 171051Z AUTO 19006KT 10SM CLR 10/M08 A2982 RMK AO2 SLP043 T01001078 $","lat":33.3074,"lon":-104.5082,"elev":1105,"name":"Roswell/Ind Arpt, NM, US","cover":"CLR","clouds":[],"fltCat":"VFR"},{"icaoId":"KORF","receiptTime":"2026-04-17T10:54:06.945Z","obsTime":1776423060,"reportTime":"2026-04-17T11:00:00.000Z","temp":18.9,"dewp":16.1,"wdir":230,"wspd":7,"visib":"10+","altim":1012.3,"slp":1012.2,"qcField":4,"metarType":"METAR","rawOb":"METAR KORF 171051Z 23007KT 10SM CLR 19/16 A2989 RMK AO2 SLP122 T01890161","lat":36.9037,"lon":-76.1927,"elev":5,"name":"Norfolk Intl, VA, US","cover":"CLR","clouds":[],"fltCat":"VFR"},{"icaoId":"KBDL","receiptTime":"2026-04-17T10:54:07.599Z","obsTime":1776423060,"reportTime":"2026-04-17T11:00:00.000Z","temp":17.2,"dewp":16.1,"wdir":230,"wspd":6,"visib":"10+","altim":1008.2,"slp":1008,"qcField":12,"precip":0.04,"metarType":"METAR","rawOb":"METAR KBDL 171051Z 23006KT 10SM FEW090 BKN110 BKN150 BKN250 17/16 A2977 RMK AO2 RAE19 SLP080 P0004 T01720161 $","lat":41.9374,"lon":-72.682,"elev":52,"name":"Hartford/Bradley Intl, CT, US","cover":"BKN","clouds":[{"cover":"FEW","base":9000},{"cover":"BKN","base":11000},{"cover":"BKN","base":15000},{"cover":"BKN","base":25000}],"fltCat":"VFR"},{"icaoId":"KSAD","receiptTime":"2026-04-17T10:54:07.059Z","obsTime":1776423060,"reportTime":"2026-04-17T11:00:00.000Z","temp":15,"dewp":-13.3,"wdir":290,"wspd":8,"visib":"10+","altim":1010.9,"slp":1006.4,"qcField":6,"metarType":"METAR","rawOb":"METAR KSAD 171051Z AUTO 29008KT 10SM CLR 15/M13 A2985 RMK AO2 SLP064 T01501133","lat":32.8565,"lon":-109.636,"elev":937,"name":"Safford Rgnl, AZ, US","cover":"CLR","clouds":[],"fltCat":"VFR"},{"icaoId":"KSAN","receiptTime":"2026-04-17T10:54:07.070Z","obsTime":1776423060,"reportTime":"2026-04-17T11:00:00.000Z","temp":15.6,"dewp":10,"wdir":120,"wspd":8,"visib":"10+","altim":1014,"slp":1013.9,"qcField":12,"metarType":"METAR","rawOb":"METAR KSAN 171051Z 12008KT 10SM SCT032 16/10 A2994 RMK AO2 SLP139 T01560100 $","lat":32.7364,"lon":-117.1973,"elev":3,"name":"San Diego Intl Arpt, CA, US","cover":"SCT","clouds":[{"cover":"SCT","base":3200}],"fltCat":"VFR"},{"icaoId":"KLGA","receiptTime":"2026-04-17T10:56:21.200Z","obsTime":1776423060,"reportTime":"2026-04-17T11:00:00.000Z","temp":18.3,"dewp":13.3,"wdir":320,"wspd":7,"visib":"10+","altim":1009.2,"slp":1009.1,"qcField":4,"precip":0.005,"metarType":"METAR","rawOb":"METAR KLGA 171051Z 32007KT 10SM FEW060 BKN100 BKN250 18/13 A2980 RMK AO2 RAB0955E04B26E33 SLP091 P0000 T01830133","lat":40.7794,"lon":-73.8803,"elev":9,"name":"New York/La Guardia Arpt, NY, US","cover":"BKN","clouds":[{"cover":"FEW","base":6000},{"cover":"BKN","base":10000},{"cover":"BKN","base":25000}],"fltCat":"VFR"},{"icaoId":"KORD","receiptTime":"2026-04-17T10:54:06.933Z","obsTime":1776423060,"reportTime":"2026-04-17T11:00:00.000Z","temp":10,"dewp":9.4,"wdir":140,"wspd":4,"visib":0.5,"altim":1013,"slp":1012.8,"qcField":12,"wxString":"FG","metarType":"METAR","rawOb":"METAR KORD 171051Z 14004KT 1/2SM R10L/P6000FT FG BKN000 10/09 A2991 RMK AO2 SLP128 FG BKN000 T01000094 $","lat":41.9602,"lon":-87.9316,"elev":202,"name":"Chicago/O'Hare Intl, IL, US","cover":"BKN","clouds":[],"fltCat":"LIFR"},{"icaoId":"KSAT","receiptTime":"2026-04-17T10:54:07.440Z","obsTime":1776423060,"reportTime":"2026-04-17T11:00:00.000Z","temp":20.6,"dewp":18.9,"wdir":150,"wspd":6,"visib":"10+","altim":1012.3,"slp":1010.5,"qcField":4,"metarType":"METAR","rawOb":"METAR KSAT 171051Z 15006KT 10SM BKN020 BKN050 21/19 A2989 RMK AO2 SLP105 T02060189","lat":29.5443,"lon":-98.4839,"elev":246,"name":"San Antonio Intl, TX, US","cover":"BKN","clouds":[{"cover":"BKN","base":2000},{"cover":"BKN","base":5000}],"fltCat":"MVFR"},{"icaoId":"KCLE","receiptTime":"2026-04-17T10:54:07.662Z","obsTime":1776423060,"reportTime":"2026-04-17T11:00:00.000Z","temp":12.2,"dewp":11.7,"wdir":340,"wspd":3,"visib":5,"altim":1015,"slp":1016.2,"qcField":12,"wxString":"BR","metarType":"METAR","rawOb":"METAR KCLE 171051Z 34003KT 5SM BR OVC003 12/12 A2997 RMK AO2 SLP162 T01220117 $","lat":41.4057,"lon":-81.8519,"elev":237,"name":"Cleveland/Hopkins Intl, OH, US","cover":"OVC","clouds":[{"cover":"OVC","base":300}],"fltCat":"LIFR"},{"icaoId":"KJFK","receiptTime":"2026-04-17T10:54:06.891Z","obsTime":1776423060,"reportTime":"2026-04-17T11:00:00.000Z","temp":20,"dewp":15,"wdir":330,"wspd":9,"visib":"10+","altim":1009.6,"slp":1009.4,"qcField":4,"precip":0.005,"metarType":"METAR","rawOb":"METAR KJFK 171051Z 33009KT 10SM FEW060 BKN110 BKN250 20/15 A2981 RMK AO2 RAE0954 SLP094 P0000 T02000150","lat":40.6392,"lon":-73.7639,"elev":3,"name":"New York/JF Kennedy Intl, NY, US","cover":"BKN","clouds":[{"cover":"FEW","base":6000},{"cover":"BKN","base":11000},{"cover":"BKN","base":25000}],"fltCat":"VFR"},{"icaoId":"KLGU","receiptTime":"2026-04-17T10:54:06.907Z","obsTime":1776423060,"reportTime":"2026-04-17T11:00:00.000Z","temp":-3.9,"dewp":-5.6,"wdir":230,"wspd":3,"visib":"10+","altim":1020.7,"slp":1022.9,"qcField":6,"metarType":"METAR","rawOb":"METAR KLGU 171051Z AUTO 23003KT 10SM OVC042 M04/M06 A3014 RMK AO2 SLP229 T10391056","lat":41.7865,"lon":-111.8519,"elev":1359,"name":"Logan/Cache Arpt, UT, US","cover":"OVC","clouds":[{"cover":"OVC","base":4200}],"fltCat":"VFR"},{"icaoId":"KPHX","receiptTime":"2026-04-17T10:54:06.966Z","obsTime":1776423060,"reportTime":"2026-04-17T11:00:00.000Z","temp":22.2,"dewp":-2.8,"wdir":0,"wspd":0,"visib":"10+","altim":1009.2,"slp":1007.5,"qcField":12,"metarType":"METAR","rawOb":"METAR KPHX 171051Z 00000KT 10SM FEW120 FEW170 22/M03 A2980 RMK AO2 SLP075 T02221028 $","lat":33.4278,"lon":-112.0037,"elev":338,"name":"Phoenix/Sky Harbor Intl, AZ, US","cover":"FEW","clouds":[{"cover":"FEW","base":12000},{"cover":"FEW","base":17000}],"fltCat":"VFR"},{"icaoId":"KSTL","receiptTime":"2026-04-17T10:54:07.166Z","obsTime":1776423060,"reportTime":"2026-04-17T11:00:00.000Z","temp":17.8,"dewp":15,"wdir":180,"wspd":6,"visib":"10+","altim":1012.6,"slp":1011.6,"qcField":12,"metarType":"METAR","rawOb":"METAR KSTL 171051Z 18006KT 10SM FEW043 BKN250 18/15 A2990 RMK AO2 SLP116 T01780150 $","lat":38.7525,"lon":-90.3734,"elev":163,"name":"St Louis/Lambert Intl, MO, US","cover":"BKN","clouds":[{"cover":"FEW","base":4300},{"cover":"BKN","base":25000}],"fltCat":"VFR"},{"icaoId":"KVNY","receiptTime":"2026-04-17T10:54:07.212Z","obsTime":1776423060,"reportTime":"2026-04-17T11:00:00.000Z","temp":13.3,"dewp":10,"wdir":80,"wspd":6,"visib":"10+","altim":1013.3,"slp":1012.5,"qcField":14,"metarType":"METAR","rawOb":"METAR KVNY 171051Z AUTO 08006KT 10SM CLR 13/10 A2992 RMK AO2 SLP125 T01330100 $","lat":34.2121,"lon":-118.4915,"elev":241,"name":"Van Nuys Arpt, CA, US","cover":"CLR","clouds":[],"fltCat":"VFR"},{"icaoId":"KPIT","receiptTime":"2026-04-17T10:54:07.497Z","obsTime":1776423060,"reportTime":"2026-04-17T11:00:00.000Z","temp":12.2,"dewp":10.6,"wdir":290,"wspd":5,"visib":"10+","altim":1015,"slp":1015.3,"qcField":4,"metarType":"METAR","rawOb":"METAR KPIT 171051Z 29005KT 10SM FEW020 FEW250 12/11 A2997 RMK AO2 SLP153 T01220106","lat":40.4814,"lon":-80.2083,"elev":339,"name":"Pittsburgh Intl, PA, US","cover":"FEW","clouds":[{"cover":"FEW","base":2000},{"cover":"FEW","base":25000}],"fltCat":"VFR"},{"icaoId":"KCMH","receiptTime":"2026-04-17T10:54:07.678Z","obsTime":1776423060,"reportTime":"2026-04-17T11:00:00.000Z","temp":12.2,"dewp":11.1,"wdir":0,"wspd":0,"visib":7,"altim":1015.7,"slp":1015.2,"qcField":4,"metarType":"METAR","rawOb":"METAR KCMH 171051Z 00000KT 7SM FEW250 12/11 A2999 RMK AO2 SLP152 T01220111","lat":39.9907,"lon":-82.877,"elev":257,"name":"Columbus/Glenn Intl, OH, US","cover":"FEW","clouds":[{"cover":"FEW","base":25000}],"fltCat":"VFR"},{"icaoId":"KCRP","receiptTime":"2026-04-17T10:54:07.708Z","obsTime":1776423060,"reportTime":"2026-04-17T11:00:00.000Z","temp":23.3,"dewp":21.7,"wdir":160,"wspd":12,"visib":"10+","altim":1011.3,"slp":1011.1,"qcField":12,"metarType":"METAR","rawOb":"METAR KCRP 171051Z 16012KT 10SM FEW014 FEW018 SCT250 23/22 A2986 RMK AO2 SLP111 T02330217 $","lat":27.7734,"lon":-97.513,"elev":11,"name":"Corpus Christi Intl, TX, US","cover":"SCT","clouds":[{"cover":"FEW","base":1400},{"cover":"FEW","base":1800},{"cover":"SCT","base":25000}],"fltCat":"VFR"},{"icaoId":"KEWR","receiptTime":"2026-04-17T10:54:07.768Z","obsTime":1776423060,"reportTime":"2026-04-17T11:00:00.000Z","temp":21.1,"dewp":13.9,"wdir":290,"wspd":9,"wgst":19,"visib":"10+","altim":1009.6,"slp":1009.5,"qcField":4,"metarType":"METAR","rawOb":"METAR KEWR 171051Z 29009G19KT 10SM FEW035 FEW060 BKN110 BKN250 21/14 A2981 RMK AO2 SLP095 T02110139","lat":40.6828,"lon":-74.1692,"elev":2,"name":"Newark Intl, NJ, US","cover":"BKN","clouds":[{"cover":"FEW","base":3500},{"cover":"FEW","base":6000},{"cover":"BKN","base":11000},{"cover":"BKN","base":25000}],"fltCat":"VFR"},{"icaoId":"KHDN","receiptTime":"2026-04-17T10:44:15.688Z","obsTime":1776422460,"reportTime":"2026-04-17T10:41:00.000Z","temp":-6,"dewp":-7,"wdir":270,"wspd":9,"visib":1.25,"altim":1015,"qcField":70,"wxString":"-SN BR","precip":0.005,"metarType":"SPECI","rawOb":"SPECI KHDN 171041Z AUTO 27009KT 1 1/4SM -SN BR BKN007 BKN012 OVC030 M06/M07 A2997 RMK AO2 CIG 004V009 P0000 FZRANO","lat":40.4842,"lon":-107.2296,"elev":2012,"name":"Hayden/Yampa Valley Arpt, CO, US","cover":"OVC","clouds":[{"cover":"BKN","base":700},{"cover":"BKN","base":1200},{"cover":"OVC","base":3000}],"fltCat":"IFR"},{"icaoId":"KHTH","receiptTime":"2026-04-17T10:41:38.305Z","obsTime":1776422100,"reportTime":"2026-04-17T10:35:00.000Z","temp":-1,"dewp":-14,"wdir":230,"wspd":6,"visib":"10+","altim":1024.1,"qcField":6,"metarType":"METAR","rawOb":"METAR KHTH 171035Z AUTO 23006KT 10SM CLR M01/M14 A3024 RMK A01","lat":38.5448,"lon":-118.6314,"elev":1281,"name":"Hawthorne Muni, NV, US","cover":"CLR","clouds":[],"fltCat":"VFR"},{"icaoId":"KCXP","receiptTime":"2026-04-17T10:41:37.769Z","obsTime":1776422100,"reportTime":"2026-04-17T10:35:00.000Z","temp":-3,"dewp":-11,"wdir":0,"wspd":0,"visib":"10+","altim":1023.8,"qcField":6,"metarType":"METAR","rawOb":"METAR KCXP 171035Z AUTO 00000KT 10SM CLR M03/M11 A3023 RMK AO2","lat":39.1905,"lon":-119.7319,"elev":1431,"name":"Carson City Arpt, NV, US","cover":"CLR","clouds":[],"fltCat":"VFR"},{"icaoId":"KADM","receiptTime":"2026-04-17T10:41:33.195Z","obsTime":1776422100,"reportTime":"2026-04-17T10:35:00.000Z","temp":20,"dewp":19,"wdir":150,"wspd":3,"wgst":10,"visib":"10+","altim":1010.2,"qcField":6,"metarType":"METAR","rawOb":"METAR KADM 171035Z AUTO 15003G10KT 10SM SCT060 20/19 A2983 RMK AO2","lat":34.3007,"lon":-97.0089,"elev":223,"name":"Ardmore Muni, OK, US","cover":"SCT","clouds":[{"cover":"SCT","base":6000}],"fltCat":"VFR"},{"icaoId":"KAEG","receiptTime":"2026-04-17T10:41:33.220Z","obsTime":1776422100,"reportTime":"2026-04-17T10:35:00.000Z","temp":3.5,"dewp":-15.1,"wdir":240,"wspd":8,"visib":"10+","altim":1013,"qcField":6,"metarType":"METAR","rawOb":"METAR KAEG 171035Z AUTO 24008KT 10SM CLR 04/M15 A2991 RMK AO2 T00351151","lat":35.15,"lon":-106.7929,"elev":1771,"name":"Albuquerque/Double Eagle Arpt, NM, US","cover":"CLR","clouds":[],"fltCat":"VFR"},{"icaoId":"KMHR","receiptTime":"2026-04-17T10:41:31.641Z","obsTime":1776422100,"reportTime":"2026-04-17T10:35:00.000Z","temp":13,"dewp":-6,"wdir":340,"wspd":12,"wgst":18,"visib":"10+","altim":1015.7,"qcField":6,"metarType":"METAR","rawOb":"METAR KMHR 171035Z AUTO 34012G18KT 10SM CLR 13/M06 A2999 RMK AO2","lat":38.56,"lon":-121.284,"elev":30,"name":"Sacramento/Mather Fld, CA, US","cover":"CLR","clouds":[],"fltCat":"VFR"},{"icaoId":"KMEV","receiptTime":"2026-04-17T10:41:33.705Z","obsTime":1776422100,"reportTime":"2026-04-17T10:35:00.000Z","temp":-8,"dewp":-11,"wdir":0,"wspd":0,"visib":"10+","altim":1023.5,"qcField":6,"metarType":"METAR","rawOb":"METAR KMEV 171035Z AUTO 00000KT 10SM SCT027 SCT032 BKN110 M08/M11 A3022 RMK AO2","lat":38.9963,"lon":-119.75,"elev":1437,"name":"Minden-Tahoe Arpt, NV, US","cover":"BKN","clouds":[{"cover":"SCT","base":2700},{"cover":"SCT","base":3200},{"cover":"BKN","base":11000}],"fltCat":"VFR"},{"icaoId":"KHII","receiptTime":"2026-04-17T10:42:09.699Z","obsTime":1776422100,"reportTime":"2026-04-17T10:35:00.000Z","temp":21,"dewp":-5,"wdir":310,"wspd":10,"wgst":21,"visib":"10+","altim":1009.6,"qcField":6,"metarType":"METAR","rawOb":"METAR KHII 171035Z AUTO 31010G21KT 10SM CLR 21/M05 A2981 RMK AO2","lat":34.5659,"lon":-114.3522,"elev":241,"name":"Lake Havasu City Arpt, AZ, US","cover":"CLR","clouds":[],"fltCat":"VFR"},{"icaoId":"KBJC","receiptTime":"2026-04-17T10:41:37.371Z","obsTime":1776422100,"reportTime":"2026-04-17T10:35:00.000Z","temp":1,"dewp":-3,"wdir":140,"wspd":10,"visib":"10+","altim":1011.3,"qcField":6,"metarType":"METAR","rawOb":"METAR KBJC 171035Z AUTO 14010KT 10SM CLR 01/M03 A2986 RMK AO2","lat":39.9008,"lon":-105.1042,"elev":1694,"name":"Rocky Mtn Metro, CO, US","cover":"CLR","clouds":[],"fltCat":"VFR"},{"icaoId":"KIFP","receiptTime":"2026-04-17T10:41:35.958Z","obsTime":1776422100,"reportTime":"2026-04-17T10:35:00.000Z","temp":19,"dewp":-8,"wdir":10,"wspd":34,"wgst":40,"visib":"10+","altim":1010.2,"qcField":6,"metarType":"METAR","rawOb":"METAR KIFP 171035Z AUTO 01034G40KT 10SM CLR 19/M08 A2983 RMK AO2","lat":35.1487,"lon":-114.5611,"elev":210,"name":"Bullhead City Intl, AZ, US","cover":"CLR","clouds":[],"fltCat":"VFR"},{"icaoId":"KSEZ","receiptTime":"2026-04-17T10:41:34.345Z","obsTime":1776422100,"reportTime":"2026-04-17T10:35:00.000Z","temp":11,"dewp":-7,"wdir":250,"wspd":5,"visib":"10+","altim":1012.6,"qcField":6,"metarType":"METAR","rawOb":"METAR KSEZ 171035Z AUTO 25005KT 10SM CLR 11/M07 A2990 RMK AO2","lat":34.8467,"lon":-111.7884,"elev":1455,"name":"Sedona Arpt, AZ, US","cover":"CLR","clouds":[],"fltCat":"VFR"},{"icaoId":"KRTS","receiptTime":"2026-04-17T10:41:34.202Z","obsTime":1776422100,"reportTime":"2026-04-17T10:35:00.000Z","temp":-3,"dewp":-15,"wdir":90,"wspd":7,"visib":"10+","altim":1023.1,"qcField":6,"metarType":"METAR","rawOb":"METAR KRTS 171035Z AUTO 09007KT 10SM CLR M03/M15 A3021 RMK AO2","lat":39.6658,"lon":-119.8731,"elev":1537,"name":"Reno/Stead Arpt, NV, US","cover":"CLR","clouds":[],"fltCat":"VFR"},{"icaoId":"KIWA","receiptTime":"2026-04-17T10:41:21.226Z","obsTime":1776422100,"reportTime":"2026-04-17T10:35:00.000Z","temp":17.1,"dewp":-5.7,"wdir":80,"wspd":6,"visib":"10+","altim":1010.6,"qcField":6,"metarType":"METAR","rawOb":"METAR KIWA 171035Z AUTO 08006KT 10SM CLR 17/M06 A2984 RMK AO2 T01711057","lat":33.3008,"lon":-111.6437,"elev":420,"name":"Phoenix/Mesa Gateway Arpt, AZ, US","cover":"CLR","clouds":[],"fltCat":"VFR"},{"icaoId":"KSUN","receiptTime":"2026-04-17T10:41:22.111Z","obsTime":1776422100,"reportTime":"2026-04-17T10:35:00.000Z","wdir":330,"wspd":7,"visib":"10+","altim":1020.7,"qcField":6,"metarType":"METAR","rawOb":"METAR KSUN 171035Z AUTO 33007KT 10SM CLR A3014 RMK AO2","lat":43.4969,"lon":-114.2923,"elev":1619,"name":"Hailey/Friedman Mem, ID, US","cover":"CLR","clouds":[],"fltCat":"VFR"},{"icaoId":"KPVU","receiptTime":"2026-04-17T10:36:06.395Z","obsTime":1776422040,"reportTime":"2026-04-17T10:34:00.000Z","temp":-1,"dewp":-4,"wdir":330,"wspd":14,"visib":"10+","altim":1020.4,"qcField":68,"metarType":"SPECI","rawOb":"SPECI KPVU 171034Z 33014KT 10SM BKN016 M01/M04 A3013 RMK AO2 FZRANO","lat":40.224,"lon":-111.7252,"elev":1370,"name":"Provo Muni, UT, US","cover":"BKN","clouds":[{"cover":"BKN","base":1600}],"fltCat":"MVFR"},{"icaoId":"KJAC","receiptTime":"2026-04-17T10:30:05.547Z","obsTime":1776421680,"reportTime":"2026-04-17T10:28:00.000Z","temp":-8,"dewp":-9,"wdir":60,"wspd":3,"visib":9,"altim":1016.3,"qcField":70,"wxString":"-SN","precip":0.005,"metarType":"SPECI","rawOb":"SPECI KJAC 171028Z AUTO 06003KT 9SM -SN SCT025 SCT035 M08/M09 A3001 RMK AO2 P0000 FZRANO","lat":43.6129,"lon":-110.7366,"elev":1967,"name":"Jackson Hole Arpt, WY, US","cover":"SCT","clouds":[{"cover":"SCT","base":2500},{"cover":"SCT","base":3500}],"fltCat":"VFR"},{"icaoId":"KSDY","receiptTime":"2026-04-17T10:28:08.420Z","obsTime":1776421500,"reportTime":"2026-04-17T10:25:00.000Z","temp":-4,"dewp":-8,"wdir":340,"wspd":10,"visib":9,"altim":1013,"qcField":78,"wxString":"-SN","precip":0.005,"metarType":"SPECI","rawOb":"SPECI KSDY 171025Z AUTO 34010KT 9SM -SN OVC028 M04/M08 A2991 RMK AO2 P0000 FZRANO $","lat":47.7029,"lon":-104.1951,"elev":600,"name":"Sidney/Richland Muni, MT, US","cover":"OVC","clouds":[{"cover":"OVC","base":2800}],"fltCat":"MVFR"},{"icaoId":"KNFL","receiptTime":"2026-04-17T10:00:13.011Z","obsTime":1776419820,"reportTime":"2026-04-17T10:00:00.000Z","temp":-5.6,"dewp":-13.3,"wdir":170,"wspd":4,"visib":"10+","altim":1024.1,"slp":1020.1,"qcField":6,"metarType":"METAR","rawOb":"METAR KNFL 170957Z AUTO 17004KT 10SM CLR M06/M13 A3024 RMK AO2 SLP201 T10561133","lat":39.417,"lon":-118.705,"elev":1199,"name":"Fallon , NV, US","cover":"CLR","clouds":[],"fltCat":"VFR"},{"icaoId":"KNYL","receiptTime":"2026-04-17T10:00:13.021Z","obsTime":1776419820,"reportTime":"2026-04-17T10:00:00.000Z","temp":18.3,"dewp":2.8,"wdir":0,"wspd":0,"visib":"10+","altim":1008.5,"slp":1008.4,"qcField":6,"metarType":"METAR","rawOb":"METAR KNYL 170957Z AUTO 00000KT 10SM CLR 18/03 A2978 RMK AO2 SLP084 T01830028","lat":32.66,"lon":-114.6078,"elev":58,"name":"Yuma , AZ, US","cover":"CLR","clouds":[],"fltCat":"VFR"},{"icaoId":"KFLG","receiptTime":"2026-04-17T10:00:12.855Z","obsTime":1776419820,"reportTime":"2026-04-17T10:00:00.000Z","temp":4.4,"dewp":-10,"wdir":"VRB","wspd":4,"visib":"10+","altim":1014.3,"slp":1007.2,"qcField":6,"metarType":"METAR","rawOb":"METAR KFLG 170957Z AUTO VRB04KT 10SM CLR 04/M10 A2995 RMK AO2 SLP072 T00441100","lat":35.1443,"lon":-111.6664,"elev":2134,"name":"Flagstaff/Pulliam Arpt, AZ, US","cover":"CLR","clouds":[],"fltCat":"VFR"},{"icaoId":"KGUC","receiptTime":"2026-04-17T09:59:00.548Z","obsTime":1776419760,"reportTime":"2026-04-17T10:00:00.000Z","temp":0.6,"dewp":-7.8,"wdir":0,"wspd":0,"visib":"10+","altim":1009.9,"slp":1005.7,"qcField":78,"metarType":"METAR","rawOb":"METAR KGUC 170956Z AUTO 00000KT 10SM CLR 01/M08 A2982 RMK AO2 SLP057 T00061078 FZRANO $","lat":38.5322,"lon":-106.9419,"elev":2337,"name":"Gunnison Arpt, CO, US","cover":"CLR","clouds":[],"fltCat":"VFR"},{"icaoId":"KRDM","receiptTime":"2026-04-17T10:00:11.746Z","obsTime":1776419760,"reportTime":"2026-04-17T10:00:00.000Z","temp":-4.4,"dewp":-8.3,"wdir":170,"wspd":9,"visib":"10+","altim":1024.1,"slp":1025.6,"qcField":6,"metarType":"METAR","rawOb":"METAR KRDM 170956Z AUTO 17009KT 10SM CLR M04/M08 A3024 RMK AO2 SLP256 T10441083","lat":44.2558,"lon":-121.1407,"elev":930,"name":"Redmond Muni, OR, US","cover":"CLR","clouds":[],"fltCat":"VFR"},{"icaoId":"KFNL","receiptTime":"2026-04-17T09:59:00.277Z","obsTime":1776419760,"reportTime":"2026-04-17T10:00:00.000Z","temp":3.3,"dewp":-6.1,"wdir":340,"wspd":6,"visib":"10+","altim":1007.9,"slp":1003.3,"qcField":14,"metarType":"METAR","rawOb":"METAR KFNL 170956Z AUTO 34006KT 10SM CLR 03/M06 A2976 RMK AO2 SLP033 T00331061 $","lat":40.4427,"lon":-105.0097,"elev":1529,"name":"Fort Collins/N Colorado Rgnl, CO, US","cover":"CLR","clouds":[],"fltCat":"VFR"},{"icaoId":"KBZN","receiptTime":"2026-04-17T10:00:11.590Z","obsTime":1776419760,"reportTime":"2026-04-17T10:00:00.000Z","temp":-2.2,"dewp":-7.8,"wdir":0,"wspd":0,"visib":"10+","altim":1017.4,"slp":1020.7,"qcField":6,"metarType":"METAR","rawOb":"METAR KBZN 170956Z AUTO 00000KT 10SM SCT050 BKN075 OVC100 M02/M08 A3004 RMK AO2 SLP207 T10221078","lat":45.7876,"lon":-111.1615,"elev":1349,"name":"Bozeman/Gallatin Fld, MT, US","cover":"OVC","clouds":[{"cover":"SCT","base":5000},{"cover":"BKN","base":7500},{"cover":"OVC","base":10000}],"fltCat":"VFR"},{"icaoId":"KPWT","receiptTime":"2026-04-17T09:58:57.097Z","obsTime":1776419760,"reportTime":"2026-04-17T10:00:00.000Z","temp":1.1,"dewp":1.1,"wdir":150,"wspd":3,"visib":"10+","altim":1026.2,"slp":1026.8,"qcField":70,"metarType":"METAR","rawOb":"METAR KPWT 170956Z AUTO 15003KT 10SM BKN055 01/01 A3030 RMK AO2 SLP268 T00110011 FZRANO","lat":47.4942,"lon":-122.7594,"elev":143,"name":"Bremerton Arpt, WA, US","cover":"BKN","clouds":[{"cover":"BKN","base":5500}],"fltCat":"VFR"},{"icaoId":"KVIS","receiptTime":"2026-04-17T09:58:59.678Z","obsTime":1776419760,"reportTime":"2026-04-17T10:00:00.000Z","temp":10,"dewp":0,"wdir":320,"wspd":5,"visib":"10+","altim":1016,"slp":1015.8,"qcField":14,"metarType":"METAR","rawOb":"METAR KVIS 170956Z AUTO 32005KT 10SM CLR 10/00 A3000 RMK AO2 SLP158 T01000000 PNO $","lat":36.3135,"lon":-119.3884,"elev":92,"name":"Visalia Muni, CA, US","cover":"CLR","clouds":[],"fltCat":"VFR"},{"icaoId":"KTPH","receiptTime":"2026-04-17T10:00:11.437Z","obsTime":1776419760,"reportTime":"2026-04-17T10:00:00.000Z","temp":-2.8,"dewp":-16.1,"wdir":340,"wspd":9,"visib":"10+","altim":1022.1,"slp":1021.2,"qcField":6,"metarType":"METAR","rawOb":"METAR KTPH 170956Z AUTO 34009KT 10SM CLR M03/M16 A3018 RMK AO2 SLP212 T10281161","lat":38.0505,"lon":-117.0906,"elev":1647,"name":"Tonopah Arpt, NV, US","cover":"CLR","clouds":[],"fltCat":"VFR"},{"icaoId":"KSDF","receiptTime":"2026-04-17T10:00:10.998Z","obsTime":1776419760,"reportTime":"2026-04-17T10:00:00.000Z","temp":15,"dewp":10,"wdir":150,"wspd":5,"visib":"10+","altim":1015.3,"slp":1015,"qcField":4,"metarType":"METAR","rawOb":"METAR KSDF 170956Z 15005KT 10SM CLR 15/10 A2998 RMK AO2 SLP150 T01500100","lat":38.1774,"lon":-85.7308,"elev":146,"name":"Louisville Intl, KY, US","cover":"CLR","clouds":[],"fltCat":"VFR"},{"icaoId":"KJAX","receiptTime":"2026-04-17T10:00:06.040Z","obsTime":1776419760,"reportTime":"2026-04-17T10:00:00.000Z","temp":16.7,"dewp":13.9,"wdir":240,"wspd":3,"visib":"10+","altim":1018,"slp":1017.8,"qcField":12,"metarType":"METAR","rawOb":"METAR KJAX 170956Z 24003KT 10SM CLR 17/14 A3006 RMK AO2 SLP178 T01670139 $","lat":30.4953,"lon":-81.6937,"elev":8,"name":"Jacksonville Intl, FL, US","cover":"CLR","clouds":[],"fltCat":"VFR"},{"icaoId":"KEKO","receiptTime":"2026-04-17T10:00:11.660Z","obsTime":1776419760,"reportTime":"2026-04-17T10:00:00.000Z","temp":-10,"dewp":-12.2,"wdir":170,"wspd":3,"visib":"10+","altim":1023.1,"slp":1026.3,"qcField":6,"metarType":"METAR","rawOb":"METAR KEKO 170956Z AUTO 17003KT 10SM CLR M10/M12 A3021 RMK AO2 SLP263 T11001122","lat":40.824,"lon":-115.7863,"elev":1541,"name":"Elko Rgnl, NV, US","cover":"CLR","clouds":[],"fltCat":"VFR"},{"icaoId":"KLWS","receiptTime":"2026-04-17T10:00:11.800Z","obsTime":1776419760,"reportTime":"2026-04-17T10:00:00.000Z","temp":4.4,"dewp":-2.8,"wdir":160,"wspd":5,"visib":"10+","altim":1022.4,"slp":1023.1,"qcField":6,"metarType":"METAR","rawOb":"METAR KLWS 170956Z AUTO 16005KT 10SM CLR 04/M03 A3019 RMK AO2 SLP231 T00441028","lat":46.3746,"lon":-117.0153,"elev":435,"name":"Lewiston/Nez Perce Cnty, ID, US","cover":"CLR","clouds":[],"fltCat":"VFR"},{"icaoId":"KLAS","receiptTime":"2026-04-17T10:00:11.790Z","obsTime":1776419760,"reportTime":"2026-04-17T10:00:00.000Z","temp":12.8,"dewp":-14.4,"wdir":360,"wspd":28,"wgst":46,"visib":"10+","altim":1015.3,"slp":1013.9,"qcField":12,"metarType":"METAR","rawOb":"METAR KLAS 170956Z 36028G46KT 10SM FEW250 13/M14 A2998 RMK AO2 SLP139 T01281144 $","lat":36.0719,"lon":-115.1634,"elev":662,"name":"Las Vegas/Reid Intl, NV, US","cover":"FEW","clouds":[{"cover":"FEW","base":25000}],"fltCat":"VFR"},{"icaoId":"KSGU","receiptTime":"2026-04-17T09:58:58.912Z","obsTime":1776419760,"reportTime":"2026-04-17T10:00:00.000Z","temp":7.8,"dewp":-4.4,"wdir":180,"wspd":7,"visib":"10+","altim":1016.3,"slp":1014.5,"qcField":6,"metarType":"METAR","rawOb":"METAR KSGU 170956Z AUTO 18007KT 160V230 10SM CLR 08/M04 A3001 RMK AO2 SLP145 T00781044","lat":37.0444,"lon":-113.5034,"elev":877,"name":"Saint George Muni, UT, US","cover":"CLR","clouds":[],"fltCat":"VFR"},{"icaoId":"KSLE","receiptTime":"2026-04-17T10:00:11.780Z","obsTime":1776419760,"reportTime":"2026-04-17T10:00:00.000Z","temp":6.1,"dewp":4.4,"wdir":0,"wspd":0,"visib":"10+","altim":1027.2,"slp":1027.2,"qcField":6,"metarType":"METAR","rawOb":"METAR KSLE 170956Z AUTO 00000KT 10SM BKN040 OVC050 06/04 A3033 RMK AO2 SLP272 T00610044","lat":44.9049,"lon":-123.001,"elev":63,"name":"Salem Muni, OR, US","cover":"OVC","clouds":[{"cover":"BKN","base":4000},{"cover":"OVC","base":5000}],"fltCat":"VFR"},{"icaoId":"KUKI","receiptTime":"2026-04-17T10:00:11.451Z","obsTime":1776419760,"reportTime":"2026-04-17T10:00:00.000Z","temp":5,"dewp":3.3,"wdir":0,"wspd":0,"visib":"10+","altim":1019.7,"slp":1019.2,"qcField":6,"metarType":"METAR","rawOb":"METAR KUKI 170956Z AUTO 00000KT 10SM CLR 05/03 A3011 RMK AO2 SLP192 T00500033","lat":39.1278,"lon":-123.2001,"elev":183,"name":"Ukiah Muni, CA, US","cover":"CLR","clouds":[],"fltCat":"VFR"},{"icaoId":"KINW","receiptTime":"2026-04-17T10:00:11.734Z","obsTime":1776419760,"reportTime":"2026-04-17T10:00:00.000Z","temp":11.7,"dewp":-8.3,"wdir":"VRB","wspd":4,"visib":"10+","altim":1012.3,"slp":1007,"qcField":6,"metarType":"METAR","rawOb":"METAR KINW 170956Z AUTO VRB04KT 10SM CLR 12/M08 A2989 RMK AO2 SLP070 T01171083","lat":35.0279,"lon":-110.7221,"elev":1492,"name":"Winslow/Lindberg Rgnl, AZ, US","cover":"CLR","clouds":[],"fltCat":"VFR"},{"icaoId":"KENV","receiptTime":"2026-04-17T09:58:53.341Z","obsTime":1776419760,"reportTime":"2026-04-17T10:00:00.000Z","temp":0,"dewp":-11.7,"wdir":320,"wspd":14,"wgst":24,"visib":"10+","altim":1022.8,"slp":1023.9,"qcField":70,"metarType":"METAR","rawOb":"METAR KENV 170956Z AUTO 32014G24KT 10SM CLR 00/M12 A3020 RMK AO2 SLP239 T00001117 FZRANO","lat":40.7211,"lon":-114.0312,"elev":1291,"name":"Wendover Arpt, UT, US","cover":"CLR","clouds":[],"fltCat":"VFR"},{"icaoId":"KEGE","receiptTime":"2026-04-17T09:58:53.200Z","obsTime":1776419760,"reportTime":"2026-04-17T10:00:00.000Z","temp":1.7,"dewp":-7.8,"wdir":290,"wspd":11,"visib":"10+","altim":1010.2,"slp":1005.8,"qcField":70,"metarType":"METAR","rawOb":"METAR KEGE 170956Z AUTO 29011KT 10SM FEW075 OVC090 02/M08 A2983 RMK AO2 SLP058 T00171078 FZRANO","lat":39.6448,"lon":-106.9176,"elev":1993,"name":"Eagle Cnty Rgnl, CO, US","cover":"OVC","clouds":[{"cover":"FEW","base":7500},{"cover":"OVC","base":9000}],"fltCat":"VFR"},{"icaoId":"KHND","receiptTime":"2026-04-17T09:59:00.697Z","obsTime":1776419760,"reportTime":"2026-04-17T10:00:00.000Z","temp":12.2,"dewp":-13.9,"wdir":20,"wspd":25,"wgst":35,"visib":"10+","altim":1016.3,"slp":1016.2,"qcField":14,"metarType":"METAR","rawOb":"METAR KHND 170956Z AUTO 02025G35KT 10SM CLR 12/M14 A3001 RMK AO2 PK WND 01045/0945 SLP162 T01221139 $","lat":35.9657,"lon":-115.1343,"elev":740,"name":"Henderson Exec, NV, US","cover":"CLR","clouds":[],"fltCat":"VFR"},{"icaoId":"KCOE","receiptTime":"2026-04-17T09:58:52.718Z","obsTime":1776419760,"reportTime":"2026-04-17T10:00:00.000Z","temp":2.8,"dewp":-1.7,"wdir":190,"wspd":6,"visib":"10+","altim":1020.4,"slp":1023.2,"qcField":14,"metarType":"METAR","rawOb":"METAR KCOE 170956Z AUTO 19006KT 10SM FEW080 OVC090 03/M02 A3013 RMK AO2 SLP232 T00281017 PNO $","lat":47.7719,"lon":-116.8332,"elev":693,"name":"Coeur DAlene Arpt, ID, US","cover":"OVC","clouds":[{"cover":"FEW","base":8000},{"cover":"OVC","base":9000}],"fltCat":"VFR"},{"icaoId":"KCOD","receiptTime":"2026-04-17T09:58:52.705Z","obsTime":1776419760,"reportTime":"2026-04-17T10:00:00.000Z","temp":-5.6,"dewp":-10,"wdir":0,"wspd":0,"visib":"10+","altim":1015.3,"slp":1017.8,"qcField":78,"metarType":"METAR","rawOb":"METAR KCOD 170956Z AUTO 00000KT 10SM CLR M06/M10 A2998 RMK AO2 SLP178 T10561100 FZRANO $","lat":44.52,"lon":-109.0268,"elev":1550,"name":"Cody/Yellowstone Rgnl, WY, US","cover":"CLR","clouds":[],"fltCat":"VFR"},{"icaoId":"KCEC","receiptTime":"2026-04-17T10:00:12.598Z","obsTime":1776419760,"reportTime":"2026-04-17T10:00:00.000Z","temp":6.7,"dewp":0,"wdir":10,"wspd":4,"visib":"10+","altim":1023.8,"slp":1023.6,"qcField":6,"metarType":"METAR","rawOb":"METAR KCEC 170956Z AUTO 01004KT 10SM CLR 07/00 A3023 RMK AO2 SLP236 T00670000","lat":41.7836,"lon":-124.238,"elev":17,"name":"Crescent City/McNama, CA, US","cover":"CLR","clouds":[],"fltCat":"VFR"},{"icaoId":"KSFO","receiptTime":"2026-04-17T10:00:11.769Z","obsTime":1776419760,"reportTime":"2026-04-17T10:00:00.000Z","temp":16.1,"dewp":2.8,"wdir":10,"wspd":16,"visib":"10+","altim":1017,"slp":1016.8,"qcField":12,"metarType":"METAR","rawOb":"METAR KSFO 170956Z 01016KT 10SM CLR 16/03 A3003 RMK AO2 SLP168 T01610028 $","lat":37.6196,"lon":-122.3656,"elev":2,"name":"San Francisco Intl, CA, US","cover":"CLR","clouds":[],"fltCat":"VFR"},{"icaoId":"KSBP","receiptTime":"2026-04-17T10:00:11.758Z","obsTime":1776419760,"reportTime":"2026-04-17T10:00:00.000Z","temp":15,"dewp":-1.1,"wdir":330,"wspd":9,"visib":"10+","altim":1014.3,"slp":1013.9,"qcField":6,"metarType":"METAR","rawOb":"METAR KSBP 170956Z AUTO 33009KT 10SM CLR 15/M01 A2995 RMK AO2 SLP139 T01501011","lat":35.2381,"lon":-120.644,"elev":52,"name":"San Luis Obispo/San Luis Cnty, CA, US","cover":"CLR","clouds":[],"fltCat":"VFR"},{"icaoId":"KCGZ","receiptTime":"2026-04-17T09:58:52.580Z","obsTime":1776419760,"reportTime":"2026-04-17T10:00:00.000Z","temp":16.7,"dewp":-4.4,"wdir":280,"wspd":6,"visib":"10+","altim":1010.6,"slp":1009.2,"qcField":14,"metarType":"METAR","rawOb":"METAR KCGZ 170956Z AUTO 28006KT 10SM CLR 17/M04 A2984 RMK AO2 SLP092 T01671044 $","lat":32.9531,"lon":-111.7725,"elev":444,"name":"Casa Granda Muni, AZ, US","cover":"CLR","clouds":[],"fltCat":"VFR"},{"icaoId":"KDUG","receiptTime":"2026-04-17T10:02:09.014Z","obsTime":1776419760,"reportTime":"2026-04-17T10:00:00.000Z","temp":11.7,"dewp":-6.1,"wdir":80,"wspd":5,"visib":"10+","altim":1014,"slp":1008.1,"qcField":38,"metarType":"METAR","rawOb":"METAR KDUG 170956Z AUTO 08005KT 10SM CLR 12/M06 A2994 RMK AO2 SLP081 T01171061 TSNO","lat":31.4725,"lon":-109.6022,"elev":1260,"name":"Douglas/Bisbee Intl, AZ, US","cover":"CLR","clouds":[],"fltCat":"VFR"},{"icaoId":"KCHS","receiptTime":"2026-04-17T10:00:06.541Z","obsTime":1776419760,"reportTime":"2026-04-17T10:00:00.000Z","temp":18.3,"dewp":16.7,"wdir":210,"wspd":7,"visib":"10+","altim":1016.3,"slp":1016.2,"qcField":4,"metarType":"METAR","rawOb":"METAR KCHS 170956Z 21007KT 10SM FEW250 18/17 A3001 RMK AO2 SLP162 T01830167","lat":32.8995,"lon":-80.0407,"elev":12,"name":"Charleston Intl, SC, US","cover":"FEW","clouds":[{"cover":"FEW","base":25000}],"fltCat":"VFR"},{"icaoId":"KAST","receiptTime":"2026-04-17T09:58:55.140Z","obsTime":1776419700,"reportTime":"2026-04-17T10:00:00.000Z","temp":6.1,"dewp":5.6,"wdir":0,"wspd":0,"visib":"10+","altim":1027.2,"slp":1027,"qcField":6,"metarType":"METAR","rawOb":"METAR KAST 170955Z AUTO 00000KT 10SM OVC047 06/06 A3033 RMK AO2 SLP270 T00610056","lat":46.157,"lon":-123.8833,"elev":3,"name":"Astoria Rgnl, OR, US","cover":"OVC","clouds":[{"cover":"OVC","base":4700}],"fltCat":"VFR"},{"icaoId":"KRNO","receiptTime":"2026-04-17T09:58:57.284Z","obsTime":1776419700,"reportTime":"2026-04-17T10:00:00.000Z","temp":0,"dewp":-12.8,"wdir":130,"wspd":6,"visib":"10+","altim":1023.1,"slp":1022.3,"qcField":4,"metarType":"METAR","rawOb":"METAR KRNO 170955Z 13006KT 10SM CLR 00/M13 A3021 RMK AO2 SLP223 T00001128","lat":39.5077,"lon":-119.7683,"elev":1344,"name":"Reno/Tahoe Intl, NV, US","cover":"CLR","clouds":[],"fltCat":"VFR"},{"icaoId":"KGPI","receiptTime":"2026-04-17T09:59:00.509Z","obsTime":1776419700,"reportTime":"2026-04-17T10:00:00.000Z","temp":-1.1,"dewp":-1.7,"wdir":0,"wspd":0,"visib":"10+","altim":1018,"slp":1020.7,"qcField":6,"metarType":"METAR","rawOb":"METAR KGPI 170955Z AUTO 00000KT 10SM FEW004 OVC046 M01/M02 A3006 RMK AO2 SLP207 T10111017","lat":48.3041,"lon":-114.2643,"elev":903,"name":"Kalispell/Glacier Park Intl, MT, US","cover":"OVC","clouds":[{"cover":"FEW","base":400},{"cover":"OVC","base":4600}],"fltCat":"VFR"},{"icaoId":"KEND","receiptTime":"2026-04-17T10:16:03.806Z","obsTime":1776419700,"reportTime":"2026-04-17T10:00:00.000Z","temp":21.1,"dewp":18.1,"wdir":170,"wspd":15,"visib":"10+","altim":1005.5,"slp":1004.1,"qcField":14,"metarType":"METAR","rawOb":"METAR KEND 170955Z AUTO 17015KT 10SM CLR 21/18 A2969 RMK AO2 SLP041 T02110181 $","lat":36.338,"lon":-97.919,"elev":392,"name":"Enid/Vance AFB, OK, US","cover":"CLR","clouds":[],"fltCat":"VFR"},{"icaoId":"KCMA","receiptTime":"2026-04-17T09:58:52.672Z","obsTime":1776419700,"reportTime":"2026-04-17T10:00:00.000Z","temp":11.1,"dewp":8.9,"wdir":0,"wspd":0,"visib":"10+","altim":1013,"slp":1013.6,"qcField":6,"metarType":"METAR","rawOb":"METAR KCMA 170955Z AUTO 00000KT 10SM CLR 11/09 A2991 RMK AO2 SLP136 T01110089","lat":34.2114,"lon":-119.0876,"elev":20,"name":"Camarillo Arpt, CA, US","cover":"CLR","clouds":[],"fltCat":"VFR"},{"icaoId":"KLUF","receiptTime":"2026-04-17T10:10:04.580Z","obsTime":1776419700,"reportTime":"2026-04-17T10:00:00.000Z","temp":20.3,"dewp":-2.8,"wdir":220,"wspd":8,"visib":"10+","altim":1008.5,"slp":1007.3,"qcField":14,"metarType":"METAR","rawOb":"METAR KLUF 170955Z AUTO 22008KT 10SM CLR 20/M03 A2978 RMK AO2 SLP073 T02031028 $","lat":33.538,"lon":-112.38,"elev":333,"name":"Phoenix/Luke AFB, AZ, US","cover":"CLR","clouds":[],"fltCat":"VFR"}]