[{"icaoId":"KHAF","receiptTime":"2026-04-15T00:57:05.570Z","obsTime":1776214500,"reportTime":"2026-04-15T01:00:00.000Z","wdir":330,"wspd":14,"visib":9,"altim":1022.1,"qcField":6,"metarType":"METAR","rawOb":"METAR KHAF 150055Z AUTO 33014KT 9SM BKN027 A3018 RMK AO2","lat":37.5136,"lon":-122.4996,"elev":11,"name":"Half Moon Bay Arpt, CA, US","cover":"BKN","clouds":[{"cover":"BKN","base":2700}],"fltCat":"MVFR"},{"icaoId":"KBVU","receiptTime":"2026-04-15T00:56:10.798Z","obsTime":1776214500,"reportTime":"2026-04-15T01:00:00.000Z","temp":23,"dewp":-7,"wdir":"VRB","wspd":4,"visib":"10+","altim":1013.3,"qcField":6,"metarType":"METAR","rawOb":"METAR KBVU 150055Z AUTO VRB04KT 10SM CLR 23/M07 A2992 RMK AO2","lat":35.9489,"lon":-114.8633,"elev":654,"name":"Boulder City Muni, NV, US","cover":"CLR","clouds":[],"fltCat":"VFR"},{"icaoId":"KHOB","receiptTime":"2026-04-15T00:57:05.630Z","obsTime":1776214500,"reportTime":"2026-04-15T01:00:00.000Z","temp":23,"dewp":-1,"wdir":270,"wspd":20,"wgst":30,"visib":"10+","altim":1011.6,"qcField":6,"metarType":"METAR","rawOb":"METAR KHOB 150055Z AUTO 27020G30KT 10SM CLR 23/M01 A2987 RMK AO2","lat":32.6797,"lon":-103.2222,"elev":1112,"name":"Hobbs Arpt, NM, US","cover":"CLR","clouds":[],"fltCat":"VFR"},{"icaoId":"KLRU","receiptTime":"2026-04-15T00:57:06.118Z","obsTime":1776214500,"reportTime":"2026-04-15T01:00:00.000Z","temp":20.9,"dewp":-0.5,"wdir":210,"wspd":9,"visib":"10+","altim":1013.6,"qcField":6,"metarType":"METAR","rawOb":"METAR KLRU 150055Z AUTO 21009KT 10SM OVC120 21/00 A2993 RMK AO2 T02091005","lat":32.2884,"lon":-106.9131,"elev":1355,"name":"Las Cruces Intl, NM, US","cover":"OVC","clouds":[{"cover":"OVC","base":12000}],"fltCat":"VFR"},{"icaoId":"KBWI","receiptTime":"2026-04-15T00:57:06.822Z","obsTime":1776214440,"reportTime":"2026-04-15T01:00:00.000Z","temp":26.1,"dewp":13.3,"wdir":0,"wspd":0,"visib":"10+","altim":1012.6,"slp":1012.5,"qcField":4,"metarType":"METAR","rawOb":"METAR KBWI 150054Z 00000KT 10SM FEW100 FEW170 SCT250 26/13 A2990 RMK AO2 SLP125 CB DSNT NW MOV SE T02610133","lat":39.1733,"lon":-76.684,"elev":42,"name":"Baltimore-Washington Intl, MD, US","cover":"SCT","clouds":[{"cover":"FEW","base":10000},{"cover":"FEW","base":17000},{"cover":"SCT","base":25000}],"fltCat":"VFR"},{"icaoId":"KSLC","receiptTime":"2026-04-15T00:57:08.150Z","obsTime":1776214440,"reportTime":"2026-04-15T01:00:00.000Z","temp":13.9,"dewp":-3.9,"wdir":340,"wspd":4,"visib":"10+","altim":1015.7,"slp":1013.8,"qcField":12,"metarType":"METAR","rawOb":"METAR KSLC 150054Z 34004KT 10SM FEW060 FEW080 14/M04 A2999 RMK AO2 SLP138 T01391039 $","lat":40.7707,"lon":-111.965,"elev":1286,"name":"Salt Lake City Intl, UT, US","cover":"FEW","clouds":[{"cover":"FEW","base":6000},{"cover":"FEW","base":8000}],"fltCat":"VFR"},{"icaoId":"KBTV","receiptTime":"2026-04-15T00:57:06.794Z","obsTime":1776214440,"reportTime":"2026-04-15T01:00:00.000Z","temp":10,"dewp":8.9,"wdir":350,"wspd":7,"visib":5,"altim":1009.6,"slp":1009.7,"qcField":4,"wxString":"BR","precip":0.06,"metarType":"METAR","rawOb":"METAR KBTV 150054Z 35007KT 5SM BR OVC002 10/09 A2981 RMK AO2 RAB01E51 SLP097 P0006 T01000089","lat":44.4682,"lon":-73.1499,"elev":101,"name":"Burlington Intl, VT, US","cover":"OVC","clouds":[{"cover":"OVC","base":200}],"fltCat":"LIFR"},{"icaoId":"KSJN","receiptTime":"2026-04-15T00:57:08.136Z","obsTime":1776214440,"reportTime":"2026-04-15T01:00:00.000Z","temp":15,"dewp":-8.3,"wdir":310,"wspd":13,"wgst":18,"visib":"10+","altim":1015.7,"slp":1010.7,"qcField":6,"metarType":"METAR","rawOb":"METAR KSJN 150054Z AUTO 31013G18KT 10SM SCT095 15/M08 A2999 RMK AO2 SLP107 T01501083","lat":34.5184,"lon":-109.3801,"elev":1747,"name":"St Johns Ind Arpt, AZ, US","cover":"SCT","clouds":[{"cover":"SCT","base":9500}],"fltCat":"VFR"},{"icaoId":"KBOS","receiptTime":"2026-04-15T00:57:06.753Z","obsTime":1776214440,"reportTime":"2026-04-15T01:00:00.000Z","temp":19.4,"dewp":15.6,"wdir":320,"wspd":13,"wgst":22,"visib":2,"altim":1012.3,"slp":1012.1,"qcField":4,"wxString":"+RA BR","precip":0.04,"metarType":"METAR","rawOb":"METAR KBOS 150054Z 32013G22KT 2SM +RA BR SCT040 BKN050 OVC110 19/16 A2989 RMK AO2 WSHFT 0039 RAB44 SLP121 P0004 T01940156","lat":42.3606,"lon":-71.0097,"elev":4,"name":"Boston/Logan Intl, MA, US","cover":"OVC","clouds":[{"cover":"SCT","base":4000},{"cover":"BKN","base":5000},{"cover":"OVC","base":11000}],"fltCat":"IFR"},{"icaoId":"KRKS","receiptTime":"2026-04-15T00:57:07.906Z","obsTime":1776214440,"reportTime":"2026-04-15T01:00:00.000Z","temp":10,"dewp":-7.2,"wdir":270,"wspd":22,"wgst":33,"visib":"10+","altim":1013,"slp":1011,"qcField":6,"metarType":"METAR","rawOb":"METAR KRKS 150054Z AUTO 27022G33KT 10SM CLR 10/M07 A2991 RMK AO2 PK WND 26033/0031 SLP110 T01001072","lat":41.5947,"lon":-109.0529,"elev":2062,"name":"Rock Springs/SW Wyoming Rgnl, WY, US","cover":"CLR","clouds":[],"fltCat":"VFR"},{"icaoId":"KMEM","receiptTime":"2026-04-15T00:57:06.298Z","obsTime":1776214440,"reportTime":"2026-04-15T01:00:00.000Z","temp":25.6,"dewp":15,"wdir":160,"wspd":8,"visib":"10+","altim":1016.3,"slp":1015.9,"qcField":12,"metarType":"METAR","rawOb":"METAR KMEM 150054Z 16008KT 10SM FEW150 BKN250 26/15 A3001 RMK AO2 SLP159 T02560150 $","lat":35.0564,"lon":-89.9864,"elev":78,"name":"Memphis Intl, TN, US","cover":"BKN","clouds":[{"cover":"FEW","base":15000},{"cover":"BKN","base":25000}],"fltCat":"VFR"},{"icaoId":"KRIC","receiptTime":"2026-04-15T00:57:07.890Z","obsTime":1776214440,"reportTime":"2026-04-15T01:00:00.000Z","temp":24.4,"dewp":11.1,"wdir":200,"wspd":8,"visib":"10+","altim":1015,"slp":1015.2,"qcField":4,"metarType":"METAR","rawOb":"METAR KRIC 150054Z 20008KT 10SM FEW110 SCT300 24/11 A2997 RMK AO2 SLP152 T02440111","lat":37.5115,"lon":-77.3234,"elev":51,"name":"Richmond Intl, VA, US","cover":"SCT","clouds":[{"cover":"FEW","base":11000},{"cover":"SCT","base":30000}],"fltCat":"VFR"},{"icaoId":"KDSM","receiptTime":"2026-04-15T00:57:07.249Z","obsTime":1776214440,"reportTime":"2026-04-15T01:00:00.000Z","temp":25.6,"dewp":13.3,"wdir":220,"wspd":9,"visib":"10+","altim":1003.1,"slp":1002.2,"qcField":4,"metarType":"METAR","rawOb":"METAR KDSM 150054Z 22009KT 10SM FEW045 FEW200 BKN250 OVC300 26/13 A2962 RMK AO2 SLP022 CB DSNT E MOV E T02560133","lat":41.5339,"lon":-93.6531,"elev":286,"name":"Des Moines Intl, IA, US","cover":"OVC","clouds":[{"cover":"FEW","base":4500},{"cover":"FEW","base":20000},{"cover":"BKN","base":25000},{"cover":"OVC","base":30000}],"fltCat":"VFR"},{"icaoId":"KIND","receiptTime":"2026-04-15T00:57:05.745Z","obsTime":1776214440,"reportTime":"2026-04-15T01:00:00.000Z","temp":25,"dewp":16.1,"wdir":200,"wspd":15,"visib":"10+","altim":1010.6,"slp":1009.7,"qcField":12,"metarType":"METAR","rawOb":"METAR KIND 150054Z 20015KT 10SM FEW100 FEW250 25/16 A2984 RMK AO2 SLP097 T02500161 $","lat":39.7252,"lon":-86.2816,"elev":242,"name":"Indianapolis Intl, IN, US","cover":"FEW","clouds":[{"cover":"FEW","base":10000},{"cover":"FEW","base":25000}],"fltCat":"VFR"},{"icaoId":"KBFL","receiptTime":"2026-04-15T00:57:05.084Z","obsTime":1776214440,"reportTime":"2026-04-15T01:00:00.000Z","temp":22.2,"dewp":4.4,"wdir":300,"wspd":10,"visib":"10+","altim":1017.4,"slp":1016.8,"qcField":4,"metarType":"METAR","rawOb":"METAR KBFL 150054Z 30010KT 10SM CLR 22/04 A3004 RMK AO2 SLP168 T02220044","lat":35.4342,"lon":-119.0552,"elev":146,"name":"Bakersfield/Meadows Arpt, CA, US","cover":"CLR","clouds":[],"fltCat":"VFR"},{"icaoId":"KFFZ","receiptTime":"2026-04-15T00:57:05.341Z","obsTime":1776214440,"reportTime":"2026-04-15T01:00:00.000Z","temp":23.9,"dewp":-3.3,"wdir":260,"wspd":6,"visib":"10+","altim":1013.3,"slp":1011.4,"qcField":4,"metarType":"METAR","rawOb":"METAR KFFZ 150054Z 26006KT 10SM CLR 24/M03 A2992 RMK AO2 SLP114 T02391033","lat":33.4659,"lon":-111.7212,"elev":420,"name":"Mesa/Falcon Fld, AZ, US","cover":"CLR","clouds":[],"fltCat":"VFR"},{"icaoId":"KGCN","receiptTime":"2026-04-15T00:57:05.230Z","obsTime":1776214440,"reportTime":"2026-04-15T01:00:00.000Z","temp":10,"dewp":-5,"visib":"10+","altim":1018.4,"slp":1015.3,"qcField":4,"metarType":"METAR","rawOb":"METAR KGCN 150054Z 10SM FEW060 10/M05 A3007 RMK AO2 SLP153 T01001050","lat":35.9458,"lon":-112.1554,"elev":1993,"name":"Grand Canyon Park Arpt, AZ, US","cover":"FEW","clouds":[{"cover":"FEW","base":6000}],"fltCat":"VFR"},{"icaoId":"KSYR","receiptTime":"2026-04-15T00:57:08.181Z","obsTime":1776214440,"reportTime":"2026-04-15T01:00:00.000Z","temp":17.8,"dewp":10,"wdir":290,"wspd":13,"wgst":23,"visib":"10+","altim":1010.6,"slp":1010.3,"qcField":4,"metarType":"METAR","rawOb":"METAR KSYR 150054Z 29013G23KT 10SM FEW070 SCT100 BKN200 18/10 A2984 RMK AO2 PK WND 26029/2359 WSHFT 2359 SLP103 T01780100","lat":43.1111,"lon":-76.1038,"elev":125,"name":"Syracuse/Hancock Intl, NY, US","cover":"BKN","clouds":[{"cover":"FEW","base":7000},{"cover":"SCT","base":10000},{"cover":"BKN","base":20000}],"fltCat":"VFR"},{"icaoId":"KEUG","receiptTime":"2026-04-15T00:57:05.178Z","obsTime":1776214440,"reportTime":"2026-04-15T01:00:00.000Z","temp":9.4,"dewp":6.7,"wdir":180,"wspd":11,"visib":"10+","altim":1019,"slp":1018.9,"qcField":4,"precip":0.01,"metarType":"METAR","rawOb":"METAR KEUG 150054Z 18011KT 10SM SCT019 SCT029 OVC048 09/07 A3009 RMK AO2 RAB07E43 SLP189 P0001 T00940067","lat":44.1331,"lon":-123.2156,"elev":109,"name":"Eugene/Mahlon Sweet Fld, OR, US","cover":"OVC","clouds":[{"cover":"SCT","base":1900},{"cover":"SCT","base":2900},{"cover":"OVC","base":4800}],"fltCat":"VFR"},{"icaoId":"KBUF","receiptTime":"2026-04-15T00:57:05.099Z","obsTime":1776214440,"reportTime":"2026-04-15T01:00:00.000Z","temp":13.3,"dewp":11.1,"wdir":220,"wspd":7,"visib":"10+","altim":1012.3,"slp":1012,"qcField":4,"metarType":"METAR","rawOb":"METAR KBUF 150054Z 22007KT 10SM FEW095 FEW280 13/11 A2989 RMK AO2 SLP120 T01330111","lat":42.94,"lon":-78.7361,"elev":217,"name":"Buffalo-Niagara Intl, NY, US","cover":"FEW","clouds":[{"cover":"FEW","base":9500},{"cover":"FEW","base":28000}],"fltCat":"VFR"},{"icaoId":"KAPC","receiptTime":"2026-04-15T00:57:05.040Z","obsTime":1776214440,"reportTime":"2026-04-15T01:00:00.000Z","temp":16.1,"dewp":7.2,"wdir":240,"wspd":12,"visib":"10+","altim":1020.4,"slp":1019.4,"qcField":4,"metarType":"METAR","rawOb":"METAR KAPC 150054Z 24012KT 10SM CLR 16/07 A3013 RMK AO2 SLP194 T01610072","lat":38.2075,"lon":-122.2804,"elev":5,"name":"Napa Cnty Arpt, CA, US","cover":"CLR","clouds":[],"fltCat":"VFR"},{"icaoId":"KROC","receiptTime":"2026-04-15T00:57:04.432Z","obsTime":1776214440,"reportTime":"2026-04-15T01:00:00.000Z","temp":17.8,"dewp":10,"wdir":330,"wspd":12,"visib":"10+","altim":1012.3,"slp":1012.2,"qcField":12,"metarType":"METAR","rawOb":"METAR KROC 150054Z 33012KT 10SM FEW180 18/10 A2989 RMK AO2 SLP122 T01780100 $","lat":43.1172,"lon":-77.6754,"elev":166,"name":"Rochester Intl Arpt, NY, US","cover":"FEW","clouds":[{"cover":"FEW","base":18000}],"fltCat":"VFR"},{"icaoId":"KOLM","receiptTime":"2026-04-15T00:57:04.360Z","obsTime":1776214440,"reportTime":"2026-04-15T01:00:00.000Z","temp":7.8,"dewp":6.7,"wdir":190,"wspd":15,"wgst":23,"visib":5,"altim":1010.9,"slp":1010.9,"qcField":4,"wxString":"-RA BR","precip":0.12,"metarType":"METAR","rawOb":"METAR KOLM 150054Z 19015G23KT 5SM -RA BR FEW014 OVC025 08/07 A2985 RMK AO2 PK WND 18026/0023 SLP109 P0012 T00780067","lat":46.9737,"lon":-122.9049,"elev":58,"name":"Olympia Rgnl, WA, US","cover":"OVC","clouds":[{"cover":"FEW","base":1400},{"cover":"OVC","base":2500}],"fltCat":"MVFR"},{"icaoId":"KPHL","receiptTime":"2026-04-15T00:57:04.374Z","obsTime":1776214440,"reportTime":"2026-04-15T01:00:00.000Z","temp":27.2,"dewp":12.2,"wdir":230,"wspd":13,"wgst":24,"visib":"10+","altim":1012.3,"slp":1012,"qcField":12,"metarType":"METAR","rawOb":"METAR KPHL 150054Z 23013G24KT 10SM FEW040 SCT080 BKN160 BKN260 27/12 A2989 RMK AO2 SLP120 T02720122 $","lat":39.8733,"lon":-75.2268,"elev":2,"name":"Philadelphia Intl, PA, US","cover":"BKN","clouds":[{"cover":"FEW","base":4000},{"cover":"SCT","base":8000},{"cover":"BKN","base":16000},{"cover":"BKN","base":26000}],"fltCat":"VFR"},{"icaoId":"KGSO","receiptTime":"2026-04-15T00:57:05.495Z","obsTime":1776214440,"reportTime":"2026-04-15T01:00:00.000Z","temp":23.3,"dewp":9.4,"wdir":200,"wspd":4,"visib":"10+","altim":1018,"slp":1016.9,"qcField":4,"metarType":"METAR","rawOb":"METAR KGSO 150054Z 20004KT 10SM FEW100 BKN250 23/09 A3006 RMK AO2 SLP169 T02330094","lat":36.0969,"lon":-79.9432,"elev":275,"name":"Greensboro Intl, NC, US","cover":"BKN","clouds":[{"cover":"FEW","base":10000},{"cover":"BKN","base":25000}],"fltCat":"VFR"},{"icaoId":"KOLS","receiptTime":"2026-04-15T00:57:07.643Z","obsTime":1776214440,"reportTime":"2026-04-15T01:00:00.000Z","temp":20.6,"dewp":-2.8,"wdir":280,"wspd":9,"wgst":15,"visib":"10+","altim":1015,"slp":1010.7,"qcField":6,"metarType":"METAR","rawOb":"METAR KOLS 150054Z AUTO 28009G15KT 10SM CLR 21/M03 A2997 RMK AO2 SLP107 T02061028","lat":31.4208,"lon":-110.8465,"elev":1194,"name":"Nogales Intl, AZ, US","cover":"CLR","clouds":[],"fltCat":"VFR"},{"icaoId":"KCOS","receiptTime":"2026-04-15T00:57:07.058Z","obsTime":1776214440,"reportTime":"2026-04-15T01:00:00.000Z","temp":14.4,"dewp":-13.9,"wdir":260,"wspd":22,"wgst":28,"visib":"10+","altim":1009.9,"slp":1005,"qcField":4,"metarType":"METAR","rawOb":"METAR KCOS 150054Z 26022G28KT 10SM FEW080 BKN110 14/M14 A2982 RMK AO2 PK WND 26028/0054 SLP050 VIRGA NW-NE T01441139","lat":38.8095,"lon":-104.6887,"elev":1886,"name":"Colorado Spring Arpt, CO, US","cover":"BKN","clouds":[{"cover":"FEW","base":8000},{"cover":"BKN","base":11000}],"fltCat":"VFR"},{"icaoId":"KCNY","receiptTime":"2026-04-15T00:56:33.987Z","obsTime":1776214380,"reportTime":"2026-04-15T01:00:00.000Z","temp":11.1,"dewp":6.1,"wdir":140,"wspd":9,"visib":"10+","altim":1014.6,"slp":1012.8,"qcField":14,"metarType":"METAR","rawOb":"METAR KCNY 150053Z AUTO 14009KT 10SM FEW080 11/06 A2996 RMK AO2 SLP128 T01110061 $","lat":38.7501,"lon":-109.7627,"elev":1392,"name":"Moab/Canyonland Fld, UT, US","cover":"FEW","clouds":[{"cover":"FEW","base":8000}],"fltCat":"VFR"},{"icaoId":"KSDL","receiptTime":"2026-04-15T00:56:26.873Z","obsTime":1776214380,"reportTime":"2026-04-15T01:00:00.000Z","temp":23.9,"dewp":-3.3,"wdir":260,"wspd":5,"visib":"10+","altim":1013.6,"slp":1012,"qcField":4,"metarType":"METAR","rawOb":"METAR KSDL 150053Z 26005KT 10SM CLR 24/M03 A2993 RMK AO2 SLP120 T02391033","lat":33.6123,"lon":-111.9232,"elev":438,"name":"Scottsdale Muni, AZ, US","cover":"CLR","clouds":[],"fltCat":"VFR"},{"icaoId":"KTPA","receiptTime":"2026-04-15T00:56:28.142Z","obsTime":1776214380,"reportTime":"2026-04-15T01:00:00.000Z","temp":23.3,"dewp":17.2,"wdir":350,"wspd":9,"visib":"10+","altim":1020.7,"slp":1020.4,"qcField":4,"metarType":"METAR","rawOb":"METAR KTPA 150053Z 35009KT 10SM FEW060 23/17 A3014 RMK AO2 SLP204 T02330172","lat":27.9633,"lon":-82.54,"elev":2,"name":"Tampa Intl Arpt, FL, US","cover":"FEW","clouds":[{"cover":"FEW","base":6000}],"fltCat":"VFR"},{"icaoId":"KSNA","receiptTime":"2026-04-15T00:56:27.125Z","obsTime":1776214380,"reportTime":"2026-04-15T01:00:00.000Z","temp":19.4,"dewp":11.7,"wdir":240,"wspd":7,"visib":"10+","altim":1016.7,"slp":1016.7,"qcField":12,"metarType":"METAR","rawOb":"METAR KSNA 150053Z 24007KT 10SM FEW034 19/12 A3002 RMK AO2 SLP167 T01940117 $","lat":33.6798,"lon":-117.8675,"elev":14,"name":"Santa Ana/Wayne Arpt, CA, US","cover":"FEW","clouds":[{"cover":"FEW","base":3400}],"fltCat":"VFR"},{"icaoId":"KFMN","receiptTime":"2026-04-15T00:56:31.141Z","obsTime":1776214380,"reportTime":"2026-04-15T01:00:00.000Z","temp":11.7,"dewp":-3.9,"wdir":290,"wspd":15,"visib":"10+","altim":1015.7,"slp":1014,"qcField":4,"metarType":"METAR","rawOb":"METAR KFMN 150053Z 29015KT 10SM BKN100 12/M04 A2999 RMK AO2 SLP140 T01171039","lat":36.7435,"lon":-108.2293,"elev":1677,"name":"Farmington/Four Corners Rgnl, NM, US","cover":"BKN","clouds":[{"cover":"BKN","base":10000}],"fltCat":"VFR"},{"icaoId":"KYKM","receiptTime":"2026-04-15T00:56:28.661Z","obsTime":1776214380,"reportTime":"2026-04-15T01:00:00.000Z","temp":11.7,"dewp":0.6,"wdir":190,"wspd":17,"wgst":27,"visib":"10+","altim":1010.2,"slp":1010.5,"qcField":4,"metarType":"METAR","rawOb":"METAR KYKM 150053Z 19017G27KT 10SM OVC085 12/01 A2983 RMK AO2 PK WND 20029/0015 SLP105 T01170006","lat":46.564,"lon":-120.5349,"elev":319,"name":"Yakima/McAllister Fld, WA, US","cover":"OVC","clouds":[{"cover":"OVC","base":8500}],"fltCat":"VFR"},{"icaoId":"KHLN","receiptTime":"2026-04-15T00:56:29.484Z","obsTime":1776214380,"reportTime":"2026-04-15T01:00:00.000Z","temp":14.4,"dewp":-4.4,"wdir":270,"wspd":17,"wgst":23,"visib":"10+","altim":1006.5,"slp":1007.3,"qcField":4,"metarType":"METAR","rawOb":"METAR KHLN 150053Z 27017G23KT 10SM FEW100 14/M04 A2972 RMK AO2 SLP073 T01441044","lat":46.6045,"lon":-111.9892,"elev":1178,"name":"Helena Rgnl, MT, US","cover":"FEW","clouds":[{"cover":"FEW","base":10000}],"fltCat":"VFR"},{"icaoId":"KAUS","receiptTime":"2026-04-15T00:56:35.102Z","obsTime":1776214380,"reportTime":"2026-04-15T01:00:00.000Z","temp":26.7,"dewp":18.9,"wdir":140,"wspd":16,"wgst":24,"visib":"10+","altim":1012.6,"slp":1011.7,"qcField":4,"metarType":"METAR","rawOb":"METAR KAUS 150053Z 14016G24KT 10SM FEW049 FEW070 BKN250 27/19 A2990 RMK AO2 PK WND 15027/0038 SLP117 T02670189","lat":30.1831,"lon":-97.6806,"elev":148,"name":"Austin/Bergstrom Intl, TX, US","cover":"BKN","clouds":[{"cover":"FEW","base":4900},{"cover":"FEW","base":7000},{"cover":"BKN","base":25000}],"fltCat":"VFR"},{"icaoId":"KVEL","receiptTime":"2026-04-15T00:56:28.497Z","obsTime":1776214380,"reportTime":"2026-04-15T01:00:00.000Z","temp":8.9,"dewp":0,"wdir":170,"wspd":6,"visib":"10+","altim":1015,"slp":1013.2,"qcField":6,"metarType":"METAR","rawOb":"METAR KVEL 150053Z AUTO 17006KT 10SM FEW120 09/00 A2997 RMK AO2 SLP132 T00890000","lat":40.4429,"lon":-109.5128,"elev":1604,"name":"Vernal Rgnl, UT, US","cover":"FEW","clouds":[{"cover":"FEW","base":12000}],"fltCat":"VFR"},{"icaoId":"KMDW","receiptTime":"2026-04-15T00:56:34.146Z","obsTime":1776214380,"reportTime":"2026-04-15T01:00:00.000Z","temp":26.1,"dewp":18.3,"wdir":200,"wspd":15,"wgst":25,"visib":"10+","altim":1005.2,"slp":1004.3,"qcField":4,"metarType":"METAR","rawOb":"METAR KMDW 150053Z 20015G25KT 10SM FEW050 SCT150 BKN250 26/18 A2968 RMK AO2 PK WND 21029/0014 SLP043 T02610183","lat":41.7841,"lon":-87.7552,"elev":186,"name":"Chicago/Midway Intl, IL, US","cover":"BKN","clouds":[{"cover":"FEW","base":5000},{"cover":"SCT","base":15000},{"cover":"BKN","base":25000}],"fltCat":"VFR"},{"icaoId":"KPBI","receiptTime":"2026-04-15T00:56:32.529Z","obsTime":1776214380,"reportTime":"2026-04-15T01:00:00.000Z","temp":23.3,"dewp":15.6,"wdir":70,"wspd":10,"visib":"10+","altim":1021.4,"slp":1021.2,"qcField":12,"metarType":"METAR","rawOb":"METAR KPBI 150053Z 07010KT 10SM SCT036 SCT250 23/16 A3016 RMK AO2 SLP212 T02330156 $","lat":26.6851,"lon":-80.0992,"elev":4,"name":"Palm Beach Intl, FL, US","cover":"SCT","clouds":[{"cover":"SCT","base":3600},{"cover":"SCT","base":25000}],"fltCat":"VFR"},{"icaoId":"KPUB","receiptTime":"2026-04-15T00:56:27.614Z","obsTime":1776214380,"reportTime":"2026-04-15T01:00:00.000Z","temp":17.8,"dewp":-11.7,"wdir":240,"wspd":14,"wgst":24,"visib":"10+","altim":1008.9,"slp":1004.7,"qcField":12,"metarType":"METAR","rawOb":"METAR KPUB 150053Z 24014G24KT 10SM FEW120 18/M12 A2979 RMK AO2 PK WND 21029/0003 SLP047 T01781117 $","lat":38.2887,"lon":-104.5057,"elev":1441,"name":"Pueblo Mem Arpt, CO, US","cover":"FEW","clouds":[{"cover":"FEW","base":12000}],"fltCat":"VFR"},{"icaoId":"KOGD","receiptTime":"2026-04-15T00:56:32.240Z","obsTime":1776214380,"reportTime":"2026-04-15T01:00:00.000Z","temp":12.8,"dewp":-2.2,"wdir":260,"wspd":6,"visib":"10+","altim":1015,"slp":1013.2,"qcField":4,"metarType":"METAR","rawOb":"METAR KOGD 150053Z 26006KT 10SM CLR 13/M02 A2997 RMK AO2 SLP132 T01281022","lat":41.1941,"lon":-112.0168,"elev":1356,"name":"Ogden/Hinckley Arpt, UT, US","cover":"CLR","clouds":[],"fltCat":"VFR"},{"icaoId":"KLOL","receiptTime":"2026-04-15T00:56:33.031Z","obsTime":1776214380,"reportTime":"2026-04-15T01:00:00.000Z","temp":18.3,"dewp":-7.8,"wdir":280,"wspd":6,"visib":"10+","altim":1015.3,"slp":1014.7,"qcField":6,"metarType":"METAR","rawOb":"METAR KLOL 150053Z AUTO 28006KT 10SM CLR 18/M08 A2998 RMK AO2 SLP147 T01831078","lat":40.0684,"lon":-118.5702,"elev":1191,"name":"Lovelock/Derby Fld, NV, US","cover":"CLR","clouds":[],"fltCat":"VFR"},{"icaoId":"KGSP","receiptTime":"2026-04-15T00:56:29.139Z","obsTime":1776214380,"reportTime":"2026-04-15T01:00:00.000Z","temp":22.8,"dewp":10,"wdir":160,"wspd":4,"visib":"10+","altim":1019.7,"slp":1018.6,"qcField":4,"metarType":"METAR","rawOb":"METAR KGSP 150053Z 16004KT 10SM CLR 23/10 A3011 RMK AO2 SLP186 T02280100","lat":34.8842,"lon":-82.2209,"elev":285,"name":"Greenville-Spartanburg Intl, SC, US","cover":"CLR","clouds":[],"fltCat":"VFR"},{"icaoId":"KMFE","receiptTime":"2026-04-15T00:56:34.168Z","obsTime":1776214380,"reportTime":"2026-04-15T01:00:00.000Z","temp":26.7,"dewp":20,"wdir":140,"wspd":16,"visib":"10+","altim":1012.3,"slp":1012,"qcField":4,"metarType":"METAR","rawOb":"METAR KMFE 150053Z 14016KT 10SM CLR 27/20 A2989 RMK AO2 PK WND 13028/0026 SLP120 T02670200","lat":26.1791,"lon":-98.2445,"elev":29,"name":"McAllen/Miller Intl, TX, US","cover":"CLR","clouds":[],"fltCat":"VFR"},{"icaoId":"KMSY","receiptTime":"2026-04-15T00:56:34.683Z","obsTime":1776214380,"reportTime":"2026-04-15T01:00:00.000Z","temp":22.8,"dewp":16.1,"wdir":140,"wspd":7,"visib":"10+","altim":1019,"slp":1019.3,"qcField":4,"metarType":"METAR","rawOb":"METAR KMSY 150053Z 14007KT 10SM FEW040 23/16 A3009 RMK AO2 SLP193 T02280161","lat":29.9974,"lon":-90.2777,"elev":0,"name":"New Orleans/Armstrong Intl, LA, US","cover":"FEW","clouds":[{"cover":"FEW","base":4000}],"fltCat":"VFR"},{"icaoId":"KMYR","receiptTime":"2026-04-15T00:56:15.031Z","obsTime":1776214380,"reportTime":"2026-04-15T01:00:00.000Z","temp":20,"dewp":16.7,"wdir":180,"wspd":8,"visib":"10+","altim":1021.1,"slp":1020.9,"qcField":12,"metarType":"METAR","rawOb":"METAR KMYR 150053Z 18008KT 10SM CLR 20/17 A3015 RMK AO2 SLP209 T02000167 $","lat":33.6769,"lon":-78.9325,"elev":7,"name":"Myrtle Beach Intl, SC, US","cover":"CLR","clouds":[],"fltCat":"VFR"},{"icaoId":"KVGT","receiptTime":"2026-04-15T00:56:28.514Z","obsTime":1776214380,"reportTime":"2026-04-15T01:00:00.000Z","temp":22.8,"dewp":-2.8,"wdir":190,"wspd":5,"visib":"10+","altim":1013.6,"slp":1014.1,"qcField":4,"metarType":"METAR","rawOb":"METAR KVGT 150053Z 19005KT 10SM CLR 23/M03 A2993 RMK AO2 SLP141 T02281028","lat":36.212,"lon":-115.194,"elev":664,"name":"Las Vegas/North Arpt, NV, US","cover":"CLR","clouds":[],"fltCat":"VFR"},{"icaoId":"KOAK","receiptTime":"2026-04-15T00:56:34.833Z","obsTime":1776214380,"reportTime":"2026-04-15T01:00:00.000Z","temp":15,"dewp":6.7,"wdir":250,"wspd":18,"visib":"10+","altim":1021.4,"slp":1021.4,"qcField":12,"metarType":"METAR","rawOb":"METAR KOAK 150053Z 25018KT 10SM FEW030 SCT250 15/07 A3016 RMK AO2 SLP214 T01500067 $","lat":37.7178,"lon":-122.233,"elev":3,"name":"Oakland Intl, CA, US","cover":"SCT","clouds":[{"cover":"FEW","base":3000},{"cover":"SCT","base":25000}],"fltCat":"VFR"},{"icaoId":"KBIL","receiptTime":"2026-04-15T00:56:35.399Z","obsTime":1776214380,"reportTime":"2026-04-15T01:00:00.000Z","temp":16.1,"dewp":-2.8,"wdir":280,"wspd":7,"visib":"10+","altim":1005.5,"slp":1005,"qcField":4,"metarType":"METAR","rawOb":"METAR KBIL 150053Z 28007KT 10SM SCT110 16/M03 A2969 RMK AO2 SLP050 T01611028","lat":45.8072,"lon":-108.5462,"elev":1089,"name":"Billings/Logan Intl, MT, US","cover":"SCT","clouds":[{"cover":"SCT","base":11000}],"fltCat":"VFR"},{"icaoId":"KCDC","receiptTime":"2026-04-15T00:56:33.731Z","obsTime":1776214380,"reportTime":"2026-04-15T01:00:00.000Z","temp":10,"dewp":2.8,"wdir":230,"wspd":12,"visib":"10+","altim":1017.4,"slp":1015.3,"qcField":6,"metarType":"METAR","rawOb":"METAR KCDC 150053Z AUTO 23012KT 10SM SCT060 10/03 A3004 RMK AO2 WSHFT 0037 SLP153 T01000028","lat":37.7067,"lon":-113.097,"elev":1703,"name":"Cedar City Muni, UT, US","cover":"SCT","clouds":[{"cover":"SCT","base":6000}],"fltCat":"VFR"},{"icaoId":"KRIW","receiptTime":"2026-04-15T00:56:27.774Z","obsTime":1776214380,"reportTime":"2026-04-15T01:00:00.000Z","temp":12.8,"dewp":-8.3,"wdir":310,"wspd":20,"wgst":32,"visib":"10+","altim":1008.5,"slp":1006.7,"qcField":6,"metarType":"METAR","rawOb":"METAR KRIW 150053Z AUTO 31020G32KT 10SM CLR 13/M08 A2978 RMK AO2 PK WND 30032/0037 SLP067 T01281083","lat":43.0622,"lon":-108.4471,"elev":1662,"name":"Riverton Rgnl, WY, US","cover":"CLR","clouds":[],"fltCat":"VFR"},{"icaoId":"KPNC","receiptTime":"2026-04-15T00:56:27.484Z","obsTime":1776214380,"reportTime":"2026-04-15T01:00:00.000Z","temp":24.4,"dewp":20,"wdir":170,"wspd":16,"wgst":34,"visib":"10+","altim":1008.2,"slp":1006.8,"qcField":6,"precip":0.005,"metarType":"METAR","rawOb":"METAR KPNC 150053Z AUTO 17016G34KT 10SM FEW038 FEW090 BKN110 24/20 A2977 RMK AO2 PK WND 17034/0049 RAB32E41 SLP068 P0000 T02440200","lat":36.7369,"lon":-97.1024,"elev":304,"name":"Ponca City Rgnl, OK, US","cover":"BKN","clouds":[{"cover":"FEW","base":3800},{"cover":"FEW","base":9000},{"cover":"BKN","base":11000}],"fltCat":"VFR"},{"icaoId":"KSTS","receiptTime":"2026-04-15T00:56:27.295Z","obsTime":1776214380,"reportTime":"2026-04-15T01:00:00.000Z","temp":17.8,"dewp":7.8,"wdir":170,"wspd":7,"visib":"10+","altim":1019.7,"slp":1019.1,"qcField":4,"metarType":"METAR","rawOb":"METAR KSTS 150053Z 17007KT 10SM FEW050 18/08 A3011 RMK AO2 SLP191 T01780078","lat":38.5037,"lon":-122.811,"elev":35,"name":"Santa Rosa/Schulz Arpt, CA, US","cover":"FEW","clouds":[{"cover":"FEW","base":5000}],"fltCat":"VFR"},{"icaoId":"KTWF","receiptTime":"2026-04-15T00:56:28.311Z","obsTime":1776214380,"reportTime":"2026-04-15T01:00:00.000Z","temp":13.3,"dewp":0,"wdir":310,"wspd":9,"visib":"10+","altim":1014,"slp":1012.2,"qcField":4,"metarType":"METAR","rawOb":"METAR KTWF 150053Z 31009KT 10SM CLR 13/00 A2994 RMK AO2 SLP122 T01330000","lat":42.4785,"lon":-114.4775,"elev":1269,"name":"Twin Falls/Joslin Fld, ID, US","cover":"CLR","clouds":[],"fltCat":"VFR"},{"icaoId":"KASE","receiptTime":"2026-04-15T00:56:35.037Z","obsTime":1776214380,"reportTime":"2026-04-15T01:00:00.000Z","temp":2.2,"dewp":-2.2,"wdir":350,"wspd":6,"visib":"10+","altim":1015.7,"slp":1011.7,"qcField":4,"metarType":"METAR","rawOb":"METAR KASE 150053Z 35006KT 10SM SCT055 OVC095 02/M02 A2999 RMK AO2 SLP117 T00221022","lat":39.2299,"lon":-106.8705,"elev":2384,"name":"Aspen/Pitkin Cnty, CO, US","cover":"OVC","clouds":[{"cover":"SCT","base":5500},{"cover":"OVC","base":9500}],"fltCat":"VFR"},{"icaoId":"KAMA","receiptTime":"2026-04-15T00:56:34.860Z","obsTime":1776214380,"reportTime":"2026-04-15T01:00:00.000Z","temp":24.4,"dewp":-0.6,"wdir":230,"wspd":20,"wgst":29,"visib":"10+","altim":1009.2,"slp":1005.1,"qcField":4,"metarType":"METAR","rawOb":"METAR KAMA 150053Z 23020G29KT 10SM CLR 24/M01 A2980 RMK AO2 PK WND 23039/2355 SLP051 T02441006","lat":35.2203,"lon":-101.7173,"elev":1102,"name":"Amarillo Intl Arpt, TX, US","cover":"CLR","clouds":[],"fltCat":"VFR"},{"icaoId":"KBUR","receiptTime":"2026-04-15T00:56:33.653Z","obsTime":1776214380,"reportTime":"2026-04-15T01:00:00.000Z","temp":20,"dewp":8.9,"wdir":200,"wspd":8,"visib":"10+","altim":1016.3,"slp":1015.5,"qcField":4,"metarType":"METAR","rawOb":"METAR KBUR 150053Z 20008KT 10SM CLR 20/09 A3001 RMK AO2 SLP155 T02000089","lat":34.1996,"lon":-118.3654,"elev":221,"name":"Burbank/Bob Hope Arpt, CA, US","cover":"CLR","clouds":[],"fltCat":"VFR"},{"icaoId":"KDAL","receiptTime":"2026-04-15T00:56:30.189Z","obsTime":1776214380,"reportTime":"2026-04-15T01:00:00.000Z","temp":25.6,"dewp":19.4,"wdir":160,"wspd":14,"wgst":17,"visib":"10+","altim":1012.3,"slp":1011.5,"qcField":4,"metarType":"METAR","rawOb":"METAR KDAL 150053Z 16014G17KT 10SM FEW070 FEW200 BKN250 26/19 A2989 RMK AO2 SLP115 T02560194","lat":32.8384,"lon":-96.8358,"elev":148,"name":"Dallas/Love Fld, TX, US","cover":"BKN","clouds":[{"cover":"FEW","base":7000},{"cover":"FEW","base":20000},{"cover":"BKN","base":25000}],"fltCat":"VFR"},{"icaoId":"PANC","receiptTime":"2026-04-15T00:56:31.533Z","obsTime":1776214380,"reportTime":"2026-04-15T01:00:00.000Z","temp":4.4,"dewp":-6.7,"wdir":240,"wspd":7,"visib":"10+","altim":1011.3,"slp":1011.3,"qcField":4,"metarType":"METAR","rawOb":"METAR PANC 150053Z 24007KT 10SM FEW100 FEW200 04/M07 A2986 RMK AO2 SLP113 T00441067","lat":61.1691,"lon":-150.0277,"elev":39,"name":"Anchorage Intl, AK, US","cover":"FEW","clouds":[{"cover":"FEW","base":10000},{"cover":"FEW","base":20000}],"fltCat":"VFR"},{"icaoId":"KCYS","receiptTime":"2026-04-15T00:56:30.161Z","obsTime":1776214380,"reportTime":"2026-04-15T01:00:00.000Z","temp":6.1,"dewp":-0.6,"wdir":290,"wspd":11,"wgst":19,"visib":"10+","altim":1011.3,"slp":1009,"qcField":4,"precip":0.005,"metarType":"METAR","rawOb":"METAR KCYS 150053Z 29011G19KT 10SM FEW070 OVC090 06/M01 A2986 RMK AO2 PK WND 29027/0016 RAE2355 SLP090 P0000 T00611006","lat":41.1579,"lon":-104.8081,"elev":1868,"name":"Cheyenne Rgnl, WY, US","cover":"OVC","clouds":[{"cover":"FEW","base":7000},{"cover":"OVC","base":9000}],"fltCat":"VFR"},{"icaoId":"KLAW","receiptTime":"2026-04-15T00:56:30.048Z","obsTime":1776214380,"reportTime":"2026-04-15T01:00:00.000Z","temp":20,"dewp":17.2,"wdir":60,"wspd":4,"visib":"10+","altim":1011.6,"slp":1010.6,"qcField":6,"wxString":"TS","precip":0.32,"metarType":"METAR","rawOb":"METAR KLAW 150053Z AUTO 06004KT 10SM TS OVC027 20/17 A2987 RMK AO2 PK WND 14031/2354 WSHFT 2351 LTG DSNT ALQDS RAE46 SLP106 P0032 T02000172","lat":34.5577,"lon":-98.4172,"elev":328,"name":"Lawton-Fort Sill Rgnl, OK, US","cover":"OVC","clouds":[{"cover":"OVC","base":2700}],"fltCat":"MVFR"},{"icaoId":"KLAR","receiptTime":"2026-04-15T00:56:30.033Z","obsTime":1776214380,"reportTime":"2026-04-15T01:00:00.000Z","temp":3.9,"dewp":0.6,"wdir":220,"wspd":14,"visib":"10+","altim":1012.3,"slp":1009.8,"qcField":6,"metarType":"METAR","rawOb":"METAR KLAR 150053Z AUTO 22014KT 10SM CLR 04/01 A2989 RMK AO2 SLP098 T00390006","lat":41.3165,"lon":-105.6729,"elev":2217,"name":"Laramie Rgnl, WY, US","cover":"CLR","clouds":[],"fltCat":"VFR"},{"icaoId":"KHIO","receiptTime":"2026-04-15T00:56:29.388Z","obsTime":1776214380,"reportTime":"2026-04-15T01:00:00.000Z","temp":9.4,"dewp":7.2,"wdir":180,"wspd":13,"wgst":21,"visib":"10+","altim":1015,"slp":1014.7,"qcField":4,"wxString":"-RA","precip":0.005,"metarType":"METAR","rawOb":"METAR KHIO 150053Z 18013G21KT 10SM -RA FEW023 BKN043 OVC055 09/07 A2997 RMK AO2 PK WND 16027/0042 SLP147 P0000 T00940072","lat":45.5476,"lon":-122.9557,"elev":62,"name":"Portland/Hillsboro Arpt, OR, US","cover":"OVC","clouds":[{"cover":"FEW","base":2300},{"cover":"BKN","base":4300},{"cover":"OVC","base":5500}],"fltCat":"VFR"},{"icaoId":"KSEA","receiptTime":"2026-04-15T00:56:26.904Z","obsTime":1776214380,"reportTime":"2026-04-15T01:00:00.000Z","temp":8.3,"dewp":6.7,"wdir":180,"wspd":8,"wgst":21,"visib":5,"altim":1010.2,"slp":1010.9,"qcField":4,"wxString":"-RA BR","precip":0.06,"metarType":"METAR","rawOb":"METAR KSEA 150053Z 18008G21KT 5SM -RA BR BKN016 BKN021 OVC029 08/07 A2983 RMK AO2 SLP109 P0006 T00830067","lat":47.4447,"lon":-122.3144,"elev":115,"name":"Seattle-Tacoma Intl, WA, US","cover":"OVC","clouds":[{"cover":"BKN","base":1600},{"cover":"BKN","base":2100},{"cover":"OVC","base":2900}],"fltCat":"MVFR"},{"icaoId":"KLAX","receiptTime":"2026-04-15T00:56:30.062Z","obsTime":1776214380,"reportTime":"2026-04-15T01:00:00.000Z","temp":18.3,"dewp":11.7,"wdir":260,"wspd":13,"visib":"10+","altim":1017,"slp":1016.8,"qcField":4,"metarType":"METAR","rawOb":"METAR KLAX 150053Z 26013KT 10SM FEW015 FEW070 18/12 A3003 RMK AO2 SLP168 T01830117","lat":33.9382,"lon":-118.3866,"elev":30,"name":"Los Angeles Intl, CA, US","cover":"FEW","clouds":[{"cover":"FEW","base":1500},{"cover":"FEW","base":7000}],"fltCat":"VFR"},{"icaoId":"KRDD","receiptTime":"2026-04-15T00:56:27.733Z","obsTime":1776214380,"reportTime":"2026-04-15T01:00:00.000Z","temp":18.9,"dewp":7.8,"wdir":160,"wspd":6,"visib":"10+","altim":1017.7,"slp":1017.5,"qcField":4,"metarType":"METAR","rawOb":"METAR KRDD 150053Z 16006KT 10SM FEW050 19/08 A3005 RMK AO2 SLP175 T01890078","lat":40.5146,"lon":-122.2977,"elev":152,"name":"Redding Muni, CA, US","cover":"FEW","clouds":[{"cover":"FEW","base":5000}],"fltCat":"VFR"},{"icaoId":"KPSP","receiptTime":"2026-04-15T00:56:27.586Z","obsTime":1776214380,"reportTime":"2026-04-15T01:00:00.000Z","temp":27.8,"dewp":3.3,"wdir":320,"wspd":11,"visib":"10+","altim":1013.3,"slp":1013,"qcField":12,"metarType":"METAR","rawOb":"METAR KPSP 150053Z 32011KT 10SM CLR 28/03 A2992 RMK AO2 SLP130 T02780033 $","lat":33.8222,"lon":-116.5043,"elev":123,"name":"Palm Springs Intl, CA, US","cover":"CLR","clouds":[],"fltCat":"VFR"},{"icaoId":"KCPR","receiptTime":"2026-04-15T00:56:34.020Z","obsTime":1776214380,"reportTime":"2026-04-15T01:00:00.000Z","temp":15,"dewp":-11.7,"wdir":310,"wspd":7,"visib":"10+","altim":1007.9,"slp":1006.2,"qcField":4,"metarType":"METAR","rawOb":"METAR KCPR 150053Z 31007KT 10SM CLR 15/M12 A2976 RMK AO2 SLP062 T01501117","lat":42.8978,"lon":-106.4736,"elev":1623,"name":"Casper/Natrona Cnty, WY, US","cover":"CLR","clouds":[],"fltCat":"VFR"},{"icaoId":"KMIA","receiptTime":"2026-04-15T00:56:17.988Z","obsTime":1776214380,"reportTime":"2026-04-15T01:00:00.000Z","temp":23.9,"dewp":15,"wdir":60,"wspd":14,"wgst":17,"visib":"10+","altim":1020.4,"slp":1020.4,"qcField":0,"metarType":"METAR","rawOb":"METAR KMIA 150053Z 06014G17KT 10SM SCT041 24/15 A3013 RMK SLP204 T02390150","lat":25.7881,"lon":-80.3169,"elev":1,"name":"Miami Intl, FL, US","cover":"SCT","clouds":[{"cover":"SCT","base":4100}],"fltCat":"VFR"},{"icaoId":"KGJT","receiptTime":"2026-04-15T00:56:28.911Z","obsTime":1776214380,"reportTime":"2026-04-15T01:00:00.000Z","temp":9.4,"dewp":3.3,"wdir":310,"wspd":6,"visib":"10+","altim":1015.3,"slp":1013.2,"qcField":4,"metarType":"METAR","rawOb":"METAR KGJT 150053Z 31006KT 10SM FEW038 FEW120 09/03 A2998 RMK AO2 SLP132 T00940033","lat":39.1344,"lon":-108.5408,"elev":1475,"name":"Grand Junction Rgnl, CO, US","cover":"FEW","clouds":[{"cover":"FEW","base":3800},{"cover":"FEW","base":12000}],"fltCat":"VFR"},{"icaoId":"KDTW","receiptTime":"2026-04-15T00:56:30.585Z","obsTime":1776214380,"reportTime":"2026-04-15T01:00:00.000Z","temp":23.3,"dewp":16.1,"wdir":160,"wspd":4,"visib":"10+","altim":1009.6,"slp":1009,"qcField":12,"metarType":"METAR","rawOb":"METAR KDTW 150053Z 16004KT 10SM FEW060 FEW100 SCT200 23/16 A2981 RMK AO2 SLP090 T02330161 $","lat":42.2311,"lon":-83.3312,"elev":192,"name":"Detroit/Metro Wayne Cnty, MI, US","cover":"SCT","clouds":[{"cover":"FEW","base":6000},{"cover":"FEW","base":10000},{"cover":"SCT","base":20000}],"fltCat":"VFR"},{"icaoId":"KPIH","receiptTime":"2026-04-15T00:56:32.670Z","obsTime":1776214380,"reportTime":"2026-04-15T01:00:00.000Z","temp":12.2,"dewp":-2.8,"wdir":250,"wspd":14,"visib":"10+","altim":1013.6,"slp":1012.7,"qcField":4,"metarType":"METAR","rawOb":"METAR KPIH 150053Z 25014KT 10SM CLR 12/M03 A2993 RMK AO2 PK WND 27028/0016 SLP127 T01221028","lat":42.9197,"lon":-112.5723,"elev":1357,"name":"Pocatello Rgnl, ID, US","cover":"CLR","clouds":[],"fltCat":"VFR"},{"icaoId":"KFAT","receiptTime":"2026-04-15T00:56:30.985Z","obsTime":1776214380,"reportTime":"2026-04-15T01:00:00.000Z","temp":22.2,"dewp":5.6,"wdir":290,"wspd":11,"visib":"10+","altim":1018,"slp":1017.8,"qcField":4,"metarType":"METAR","rawOb":"METAR KFAT 150053Z 29011KT 10SM SCT050 SCT090 SCT180 22/06 A3006 RMK AO2 SLP178 T02220056","lat":36.78,"lon":-119.7202,"elev":102,"name":"Fresno/Yosemite Intl, CA, US","cover":"SCT","clouds":[{"cover":"SCT","base":5000},{"cover":"SCT","base":9000},{"cover":"SCT","base":18000}],"fltCat":"VFR"},{"icaoId":"KPUW","receiptTime":"2026-04-15T00:56:27.644Z","obsTime":1776214380,"reportTime":"2026-04-15T01:00:00.000Z","temp":7.8,"dewp":-1.1,"wdir":260,"wspd":15,"wgst":24,"visib":"10+","altim":1013.3,"slp":1014.5,"qcField":6,"metarType":"METAR","rawOb":"METAR KPUW 150053Z AUTO 26015G24KT 10SM BKN070 OVC080 08/M01 A2992 RMK AO2 SLP145 T00781011","lat":46.7438,"lon":-117.1158,"elev":774,"name":"Pullman/Moscow Rgnl, WA, US","cover":"OVC","clouds":[{"cover":"BKN","base":7000},{"cover":"OVC","base":8000}],"fltCat":"VFR"},{"icaoId":"KAPA","receiptTime":"2026-04-15T00:56:34.955Z","obsTime":1776214380,"reportTime":"2026-04-15T01:00:00.000Z","temp":8.3,"dewp":0.6,"wdir":330,"wspd":6,"visib":"10+","altim":1011.3,"slp":1009.2,"qcField":4,"precip":0.005,"metarType":"METAR","rawOb":"METAR KAPA 150053Z 33006KT 10SM FEW080 SCT110 SCT160 08/01 A2986 RMK AO2 RAE13 SLP092 VIRGA S-W-NW P0000 T00830006","lat":39.5599,"lon":-104.8484,"elev":1791,"name":"Denver/Centennial Arpt, CO, US","cover":"SCT","clouds":[{"cover":"FEW","base":8000},{"cover":"SCT","base":11000},{"cover":"SCT","base":16000}],"fltCat":"VFR"},{"icaoId":"KEVW","receiptTime":"2026-04-15T00:56:30.896Z","obsTime":1776214380,"reportTime":"2026-04-15T01:00:00.000Z","temp":6.1,"dewp":-5,"wdir":280,"wspd":10,"visib":"10+","altim":1016,"slp":1014.4,"qcField":14,"metarType":"METAR","rawOb":"METAR KEVW 150053Z AUTO 28010KT 10SM OVC055 06/M05 A3000 RMK AO2 PK WND 26026/2356 SLP144 T00611050 $","lat":41.2727,"lon":-111.0305,"elev":2178,"name":"Evanston/Uinta Cnty, WY, US","cover":"OVC","clouds":[{"cover":"OVC","base":5500}],"fltCat":"VFR"},{"icaoId":"KBTM","receiptTime":"2026-04-15T00:56:33.623Z","obsTime":1776214380,"reportTime":"2026-04-15T01:00:00.000Z","temp":10,"dewp":-6.7,"wdir":260,"wspd":9,"visib":"10+","altim":1009.2,"slp":1007.7,"qcField":6,"metarType":"METAR","rawOb":"METAR KBTM 150053Z AUTO 26009KT 10SM FEW075 10/M07 A2980 RMK AO2 SLP077 T01001067","lat":45.9644,"lon":-112.5015,"elev":1680,"name":"Butte/Mooney Arpt, MT, US","cover":"FEW","clouds":[{"cover":"FEW","base":7500}],"fltCat":"VFR"},{"icaoId":"KSWO","receiptTime":"2026-04-15T00:56:27.308Z","obsTime":1776214380,"reportTime":"2026-04-15T01:00:00.000Z","temp":23.3,"dewp":20,"wdir":190,"wspd":14,"wgst":22,"visib":"10+","altim":1010.2,"slp":1009.1,"qcField":4,"wxString":"-RA","precip":0.005,"metarType":"METAR","rawOb":"METAR KSWO 150053Z 19014G22KT 10SM -RA FEW022 OVC120 23/20 A2983 RMK AO2 PK WND 18031/2358 LTG DSNT W AND NW RAB46 SLP091 P0000 T02330200","lat":36.1624,"lon":-97.0832,"elev":293,"name":"Stillwater Muni, OK, US","cover":"OVC","clouds":[{"cover":"FEW","base":2200},{"cover":"OVC","base":12000}],"fltCat":"VFR"},{"icaoId":"KACV","receiptTime":"2026-04-15T00:56:32.015Z","obsTime":1776214380,"reportTime":"2026-04-15T01:00:00.000Z","temp":11.7,"dewp":4.4,"wdir":290,"wspd":7,"visib":"10+","altim":1022.8,"slp":1023.3,"qcField":6,"metarType":"METAR","rawOb":"METAR KACV 150053Z AUTO 29007KT 10SM FEW120 12/04 A3020 RMK AO2 SLP233 T01170044","lat":40.9784,"lon":-124.1048,"elev":63,"name":"Arcata Arpt, CA, US","cover":"FEW","clouds":[{"cover":"FEW","base":12000}],"fltCat":"VFR"},{"icaoId":"KMLC","receiptTime":"2026-04-15T00:56:34.397Z","obsTime":1776214380,"reportTime":"2026-04-15T01:00:00.000Z","temp":22.8,"dewp":19.4,"wdir":"VRB","wspd":3,"visib":"10+","altim":1013,"slp":1012.1,"qcField":6,"precip":0.005,"metarType":"METAR","rawOb":"METAR KMLC 150053Z AUTO VRB03KT 10SM OVC034 23/19 A2991 RMK AO2 RAB13E23 SLP121 P0000 T02280194","lat":34.8824,"lon":-95.7815,"elev":231,"name":"McAlester Rgnl, OK, US","cover":"OVC","clouds":[{"cover":"OVC","base":3400}],"fltCat":"VFR"},{"icaoId":"KDEN","receiptTime":"2026-04-15T00:56:30.247Z","obsTime":1776214380,"reportTime":"2026-04-15T01:00:00.000Z","temp":10.6,"dewp":-0.6,"wdir":210,"wspd":6,"visib":"10+","altim":1010.9,"slp":1007.3,"qcField":4,"precip":0.005,"metarType":"METAR","rawOb":"METAR KDEN 150053Z 21006KT 10SM FEW055 SCT070 BKN100 BKN200 11/M01 A2985 RMK AO2 RAE2355B11E39 SLP073 VIRGA P0000 T01061006","lat":39.8466,"lon":-104.6562,"elev":1656,"name":"Denver Intl, CO, US","cover":"BKN","clouds":[{"cover":"FEW","base":5500},{"cover":"SCT","base":7000},{"cover":"BKN","base":10000},{"cover":"BKN","base":20000}],"fltCat":"VFR"},{"icaoId":"KONT","receiptTime":"2026-04-15T00:56:32.312Z","obsTime":1776214380,"reportTime":"2026-04-15T01:00:00.000Z","temp":21.7,"dewp":9.4,"wdir":250,"wspd":10,"visib":"10+","altim":1016,"slp":1015.2,"qcField":12,"metarType":"METAR","rawOb":"METAR KONT 150053Z 25010KT 10SM FEW055 FEW080 22/09 A3000 RMK AO2 SLP152 T02170094 $","lat":34.0531,"lon":-117.5769,"elev":279,"name":"Ontario Intl, CA, US","cover":"FEW","clouds":[{"cover":"FEW","base":5500},{"cover":"FEW","base":8000}],"fltCat":"VFR"},{"icaoId":"KMTJ","receiptTime":"2026-04-15T00:56:34.716Z","obsTime":1776214380,"reportTime":"2026-04-15T01:00:00.000Z","temp":6.7,"dewp":1.1,"wdir":320,"wspd":12,"wgst":18,"visib":"10+","altim":1017,"slp":1013.7,"qcField":6,"wxString":"-RA","precip":0.01,"metarType":"METAR","rawOb":"METAR KMTJ 150053Z AUTO 32012G18KT 10SM -RA OVC033 07/01 A3003 RMK AO2 RAB17 SLP137 P0001 T00670011","lat":38.5054,"lon":-107.8981,"elev":1755,"name":"Montrose Rgnl, CO, US","cover":"OVC","clouds":[{"cover":"OVC","base":3300}],"fltCat":"VFR"},{"icaoId":"KMLS","receiptTime":"2026-04-15T00:56:34.434Z","obsTime":1776214380,"reportTime":"2026-04-15T01:00:00.000Z","temp":16.7,"dewp":1.7,"wdir":180,"wspd":5,"visib":"10+","altim":1004.8,"slp":1005,"qcField":6,"metarType":"METAR","rawOb":"METAR KMLS 150053Z AUTO 18005KT 10SM CLR 17/02 A2967 RMK AO2 SLP050 T01670017","lat":46.4265,"lon":-105.8834,"elev":800,"name":"Miles City/Wiley Fld, MT, US","cover":"CLR","clouds":[],"fltCat":"VFR"},{"icaoId":"KMFR","receiptTime":"2026-04-15T00:56:34.184Z","obsTime":1776214380,"reportTime":"2026-04-15T01:00:00.000Z","temp":12.8,"dewp":1.7,"wdir":310,"wspd":15,"wgst":23,"visib":"10+","altim":1019,"slp":1019.1,"qcField":4,"metarType":"METAR","rawOb":"METAR KMFR 150053Z 31015G23KT 10SM OVC085 13/02 A3009 RMK AO2 SLP191 T01280017","lat":42.375,"lon":-122.877,"elev":397,"name":"Medford/Rogue Valley Intl, OR, US","cover":"OVC","clouds":[{"cover":"OVC","base":8500}],"fltCat":"VFR"},{"icaoId":"KELY","receiptTime":"2026-04-15T00:56:30.794Z","obsTime":1776214380,"reportTime":"2026-04-15T01:00:00.000Z","temp":11.7,"dewp":-5.6,"wdir":0,"wspd":0,"visib":"10+","altim":1017,"slp":1014.9,"qcField":14,"metarType":"METAR","rawOb":"METAR KELY 150053Z AUTO 00000KT 10SM BKN090 12/M06 A3003 RMK AO2 SLP149 T01171056 $","lat":39.2954,"lon":-114.8466,"elev":1906,"name":"Ely/Yelland Fld, NV, US","cover":"BKN","clouds":[{"cover":"BKN","base":9000}],"fltCat":"VFR"},{"icaoId":"KIDA","receiptTime":"2026-04-15T00:56:29.818Z","obsTime":1776214380,"reportTime":"2026-04-15T01:00:00.000Z","temp":11.1,"dewp":-4.4,"wdir":220,"wspd":19,"wgst":29,"visib":"10+","altim":1013.3,"slp":1012.9,"qcField":4,"metarType":"METAR","rawOb":"METAR KIDA 150053Z 22019G29KT 10SM FEW065 FEW080 11/M04 A2992 RMK AO2 PK WND 22029/0018 SLP129 T01111044","lat":43.5204,"lon":-112.0675,"elev":1444,"name":"Idaho Falls Rgnl, ID, US","cover":"FEW","clouds":[{"cover":"FEW","base":6500},{"cover":"FEW","base":8000}],"fltCat":"VFR"},{"icaoId":"KLGB","receiptTime":"2026-04-15T00:56:32.915Z","obsTime":1776214380,"reportTime":"2026-04-15T01:00:00.000Z","temp":20.6,"dewp":8.9,"wdir":290,"wspd":10,"visib":"10+","altim":1016.3,"slp":1016.2,"qcField":12,"metarType":"METAR","rawOb":"METAR KLGB 150053Z 29010KT 10SM CLR 21/09 A3001 RMK AO2 SLP162 T02060089 $","lat":33.8118,"lon":-118.1472,"elev":10,"name":"Long Beach Arpt, CA, US","cover":"CLR","clouds":[],"fltCat":"VFR"},{"icaoId":"KLBB","receiptTime":"2026-04-15T00:56:32.778Z","obsTime":1776214380,"reportTime":"2026-04-15T01:00:00.000Z","temp":26.1,"dewp":0,"wdir":250,"wspd":15,"visib":"10+","altim":1009.9,"slp":1005,"qcField":4,"metarType":"METAR","rawOb":"METAR KLBB 150053Z 25015KT 10SM SCT120 BKN170 BKN250 26/00 A2982 RMK AO2 PK WND 23035/0022 SLP050 T02610000","lat":33.6658,"lon":-101.8233,"elev":996,"name":"Lubbock Intl Arpt, TX, US","cover":"BKN","clouds":[{"cover":"SCT","base":12000},{"cover":"BKN","base":17000},{"cover":"BKN","base":25000}],"fltCat":"VFR"},{"icaoId":"KBOI","receiptTime":"2026-04-15T00:56:33.495Z","obsTime":1776214380,"reportTime":"2026-04-15T01:00:00.000Z","temp":14.4,"dewp":-0.6,"wdir":70,"wspd":3,"visib":"10+","altim":1013.3,"slp":1012.9,"qcField":4,"metarType":"METAR","rawOb":"METAR KBOI 150053Z 07003KT 10SM CLR 14/M01 A2992 RMK AO2 SLP129 T01441006","lat":43.567,"lon":-116.2406,"elev":860,"name":"Boise Arpt, ID, US","cover":"CLR","clouds":[],"fltCat":"VFR"},{"icaoId":"KDFW","receiptTime":"2026-04-15T00:56:30.320Z","obsTime":1776214380,"reportTime":"2026-04-15T01:00:00.000Z","temp":25,"dewp":18.9,"wdir":170,"wspd":13,"visib":"10+","altim":1011.9,"slp":1011.1,"qcField":4,"metarType":"METAR","rawOb":"METAR KDFW 150053Z 17013KT 10SM FEW070 SCT200 BKN250 25/19 A2988 RMK AO2 SLP111 T02500189","lat":32.8974,"lon":-97.022,"elev":168,"name":"Dallas-Ft Worth Intl, TX, US","cover":"BKN","clouds":[{"cover":"FEW","base":7000},{"cover":"SCT","base":20000},{"cover":"BKN","base":25000}],"fltCat":"VFR"},{"icaoId":"KDRO","receiptTime":"2026-04-15T00:56:30.498Z","obsTime":1776214380,"reportTime":"2026-04-15T01:00:00.000Z","temp":8.3,"dewp":-2.8,"wdir":290,"wspd":10,"visib":"10+","altim":1016.7,"slp":1015.3,"qcField":6,"metarType":"METAR","rawOb":"METAR KDRO 150053Z AUTO 29010KT 10SM BKN060 OVC095 08/M03 A3002 RMK AO2 SLP153 T00831028","lat":37.1431,"lon":-107.7602,"elev":2021,"name":"Durango/La Plata Cnty, CO, US","cover":"OVC","clouds":[{"cover":"BKN","base":6000},{"cover":"OVC","base":9500}],"fltCat":"VFR"},{"icaoId":"KGTF","receiptTime":"2026-04-15T00:56:29.156Z","obsTime":1776214380,"reportTime":"2026-04-15T01:00:00.000Z","temp":11.1,"dewp":-5,"wdir":240,"wspd":24,"wgst":32,"visib":"10+","altim":1004.5,"slp":1005.2,"qcField":4,"metarType":"METAR","rawOb":"METAR KGTF 150053Z 24024G32KT 10SM CLR 11/M05 A2966 RMK AO2 PK WND 25035/0003 SLP052 T01111050","lat":47.4733,"lon":-111.3828,"elev":1117,"name":"Great Falls Intl, MT, US","cover":"CLR","clouds":[],"fltCat":"VFR"},{"icaoId":"KDVT","receiptTime":"2026-04-15T00:56:30.619Z","obsTime":1776214380,"reportTime":"2026-04-15T01:00:00.000Z","temp":23.9,"dewp":-2.2,"wdir":240,"wspd":7,"visib":"10+","altim":1013.3,"slp":1011.8,"qcField":4,"metarType":"METAR","rawOb":"METAR KDVT 150053Z 24007KT 10SM CLR 24/M02 A2992 RMK AO2 SLP118 T02391022","lat":33.6902,"lon":-112.0662,"elev":454,"name":"Phoenix/Deer Valley Arpt, AZ, US","cover":"CLR","clouds":[],"fltCat":"VFR"},{"icaoId":"KBCE","receiptTime":"2026-04-15T00:56:35.195Z","obsTime":1776214380,"reportTime":"2026-04-15T01:00:00.000Z","temp":5.6,"dewp":-5,"wdir":340,"wspd":11,"visib":"10+","altim":1018.7,"slp":1013.9,"qcField":6,"metarType":"METAR","rawOb":"METAR KBCE 150053Z AUTO 34011KT 10SM FEW065 06/M05 A3008 RMK AO2 SLP139 T00561050","lat":37.7013,"lon":-112.149,"elev":2311,"name":"Bryce Canyon Arpt, UT, US","cover":"FEW","clouds":[{"cover":"FEW","base":6500}],"fltCat":"VFR"},{"icaoId":"KBFI","receiptTime":"2026-04-15T00:56:35.302Z","obsTime":1776214380,"reportTime":"2026-04-15T01:00:00.000Z","temp":8.9,"dewp":6.7,"wdir":170,"wspd":15,"wgst":25,"visib":6,"altim":1010.6,"slp":1010.3,"qcField":4,"wxString":"-RA BR","precip":0.07,"metarType":"METAR","rawOb":"METAR KBFI 150053Z 17015G25KT 6SM -RA BR SCT019 OVC030 09/07 A2984 RMK AO2 SLP103 P0007 T00890067","lat":47.5455,"lon":-122.3148,"elev":7,"name":"Seattle/Boeing Fld, WA, US","cover":"OVC","clouds":[{"cover":"SCT","base":1900},{"cover":"OVC","base":3000}],"fltCat":"MVFR"},{"icaoId":"KBHM","receiptTime":"2026-04-15T00:56:35.383Z","obsTime":1776214380,"reportTime":"2026-04-15T01:00:00.000Z","temp":23.9,"dewp":7.8,"wdir":160,"wspd":3,"visib":"10+","altim":1020.7,"slp":1019.8,"qcField":4,"metarType":"METAR","rawOb":"METAR KBHM 150053Z 16003KT 10SM FEW250 24/08 A3014 RMK AO2 SLP198 T02390078","lat":33.5655,"lon":-86.7449,"elev":191,"name":"Birmingham Intl, AL, US","cover":"FEW","clouds":[{"cover":"FEW","base":25000}],"fltCat":"VFR"},{"icaoId":"KRTN","receiptTime":"2026-04-15T00:56:27.906Z","obsTime":1776214380,"reportTime":"2026-04-15T01:00:00.000Z","temp":12.8,"dewp":-9.4,"wdir":270,"wspd":16,"wgst":26,"visib":"10+","altim":1012.3,"slp":1008.2,"qcField":14,"metarType":"METAR","rawOb":"METAR KRTN 150053Z AUTO 27016G26KT 10SM 13/M09 A2989 RMK AO2 PK WND 26036/0012 SLP082 T01281094 $","lat":36.7418,"lon":-104.5076,"elev":1939,"name":"Raton/Crews Fld, NM, US"},{"icaoId":"KSBA","receiptTime":"2026-04-15T00:56:28.112Z","obsTime":1776214380,"reportTime":"2026-04-15T01:00:00.000Z","temp":19.4,"dewp":11.1,"wdir":220,"wspd":3,"visib":"10+","altim":1016.3,"slp":1016.3,"qcField":12,"metarType":"METAR","rawOb":"METAR KSBA 150053Z 22003KT 10SM CLR 19/11 A3001 RMK AO2 SLP163 T01940111 $","lat":34.4241,"lon":-119.8425,"elev":2,"name":"Santa Barbara Muni, CA, US","cover":"CLR","clouds":[],"fltCat":"VFR"},{"icaoId":"KTUL","receiptTime":"2026-04-15T00:56:28.219Z","obsTime":1776214380,"reportTime":"2026-04-15T01:00:00.000Z","temp":23.9,"dewp":18.9,"wdir":180,"wspd":19,"wgst":29,"visib":"10+","altim":1010.9,"slp":1010.1,"qcField":4,"precip":0.005,"metarType":"METAR","rawOb":"METAR KTUL 150053Z 18019G29KT 10SM FEW025 BKN095 OVC120 24/19 A2985 RMK AO2 PK WND 15033/0000 RAE17 SLP101 P0000 T02390189","lat":36.1985,"lon":-95.8782,"elev":196,"name":"Tulsa Intl Arpt, OK, US","cover":"OVC","clouds":[{"cover":"FEW","base":2500},{"cover":"BKN","base":9500},{"cover":"OVC","base":12000}],"fltCat":"VFR"},{"icaoId":"KTUS","receiptTime":"2026-04-15T00:56:28.249Z","obsTime":1776214380,"reportTime":"2026-04-15T01:00:00.000Z","temp":22.8,"dewp":-1.7,"wdir":320,"wspd":10,"wgst":20,"visib":"10+","altim":1014.3,"slp":1011,"qcField":12,"metarType":"METAR","rawOb":"METAR KTUS 150053Z 32010G20KT 10SM CLR 23/M02 A2995 RMK AO2 SLP110 T02281017 $","lat":32.1315,"lon":-110.9564,"elev":776,"name":"Tucson Intl Arpt, AZ, US","cover":"CLR","clouds":[],"fltCat":"VFR"},{"icaoId":"KSHR","receiptTime":"2026-04-15T00:56:27.027Z","obsTime":1776214380,"reportTime":"2026-04-15T01:00:00.000Z","temp":15.6,"dewp":0,"wdir":0,"wspd":0,"visib":"10+","altim":1007.2,"slp":1007.2,"qcField":6,"metarType":"METAR","rawOb":"METAR KSHR 150053Z AUTO 00000KT 10SM CLR 16/00 A2974 RMK AO2 SLP072 T01560000","lat":44.7603,"lon":-106.9741,"elev":1212,"name":"Sheridan Cnty Arpt, WY, US","cover":"CLR","clouds":[],"fltCat":"VFR"},{"icaoId":"KSMF","receiptTime":"2026-04-15T00:56:27.088Z","obsTime":1776214380,"reportTime":"2026-04-15T01:00:00.000Z","temp":20.6,"dewp":6.7,"wdir":160,"wspd":8,"visib":"10+","altim":1018.7,"slp":1018.6,"qcField":12,"metarType":"METAR","rawOb":"METAR KSMF 150053Z 16008KT 10SM FEW250 21/07 A3008 RMK AO2 SLP186 T02060067 $","lat":38.7007,"lon":-121.5948,"elev":7,"name":"Sacramento Intl, CA, US","cover":"FEW","clouds":[{"cover":"FEW","base":25000}],"fltCat":"VFR"},{"icaoId":"KSJC","receiptTime":"2026-04-15T00:56:27.059Z","obsTime":1776214380,"reportTime":"2026-04-15T01:00:00.000Z","temp":15.6,"dewp":7.8,"wdir":340,"wspd":14,"wgst":20,"visib":"10+","altim":1021.1,"slp":1020.8,"qcField":12,"metarType":"METAR","rawOb":"METAR KSJC 150053Z 34014G20KT 10SM FEW034 FEW050 FEW100 16/08 A3015 RMK AO2 SLP208 T01560078 $","lat":37.3594,"lon":-121.9244,"elev":13,"name":"San Jose Intl Arpt, CA, US","cover":"FEW","clouds":[{"cover":"FEW","base":3400},{"cover":"FEW","base":5000},{"cover":"FEW","base":10000}],"fltCat":"VFR"},{"icaoId":"KFUL","receiptTime":"2026-04-15T00:56:31.325Z","obsTime":1776214380,"reportTime":"2026-04-15T01:00:00.000Z","temp":20.6,"dewp":8.3,"wdir":170,"wspd":6,"visib":"10+","altim":1016.3,"slp":1015.9,"qcField":4,"metarType":"METAR","rawOb":"METAR KFUL 150053Z 17006KT 10SM CLR 21/08 A3001 RMK AO2 SLP159 T02060083","lat":33.8715,"lon":-117.9856,"elev":23,"name":"Fullerton Muni, CA, US","cover":"CLR","clouds":[],"fltCat":"VFR"},{"icaoId":"KPDX","receiptTime":"2026-04-15T00:56:32.574Z","obsTime":1776214380,"reportTime":"2026-04-15T01:00:00.000Z","temp":9.4,"dewp":7.2,"wdir":180,"wspd":16,"wgst":24,"visib":9,"altim":1015.7,"slp":1015.6,"qcField":12,"wxString":"-RA","precip":0.01,"metarType":"METAR","rawOb":"METAR KPDX 150053Z 18016G24KT 9SM -RA SCT020 BKN027 OVC055 09/07 A2999 RMK AO2 SLP156 P0001 T00940072 $","lat":45.5958,"lon":-122.6092,"elev":7,"name":"Portland Intl, OR, US","cover":"OVC","clouds":[{"cover":"SCT","base":2000},{"cover":"BKN","base":2700},{"cover":"OVC","base":5500}],"fltCat":"MVFR"},{"icaoId":"KPGA","receiptTime":"2026-04-15T00:56:32.608Z","obsTime":1776214380,"reportTime":"2026-04-15T01:00:00.000Z","temp":16.1,"dewp":-6.1,"wdir":290,"wspd":8,"wgst":15,"visib":"10+","altim":1015,"slp":1012,"qcField":6,"metarType":"METAR","rawOb":"METAR KPGA 150053Z AUTO 29008G15KT 10SM BKN110 16/M06 A2997 RMK AO2 SLP120 T01611061","lat":36.9211,"lon":-111.4487,"elev":1310,"name":"Page Muni, AZ, US","cover":"BKN","clouds":[{"cover":"BKN","base":11000}],"fltCat":"VFR"},{"icaoId":"KPRC","receiptTime":"2026-04-15T00:56:27.561Z","obsTime":1776214380,"reportTime":"2026-04-15T01:00:00.000Z","temp":15,"dewp":-3.9,"wdir":300,"wspd":5,"visib":"10+","altim":1017,"slp":1013.2,"qcField":4,"metarType":"METAR","rawOb":"METAR KPRC 150053Z 30005KT 10SM CLR 15/M04 A3003 RMK AO2 SLP132 T01501039","lat":34.6491,"lon":-112.4223,"elev":1528,"name":"Prescott/Love Fld, AZ, US","cover":"CLR","clouds":[],"fltCat":"VFR"},{"icaoId":"KPSC","receiptTime":"2026-04-15T00:56:27.573Z","obsTime":1776214380,"reportTime":"2026-04-15T01:00:00.000Z","temp":12.2,"dewp":0.6,"wdir":230,"wspd":10,"wgst":18,"visib":"10+","altim":1013.3,"slp":1013.2,"qcField":4,"metarType":"METAR","rawOb":"METAR KPSC 150053Z 23010G18KT 10SM FEW120 12/01 A2992 RMK AO2 SLP132 T01220006","lat":46.2695,"lon":-119.1182,"elev":121,"name":"Pasco/Tri Cities Arpt, WA, US","cover":"FEW","clouds":[{"cover":"FEW","base":12000}],"fltCat":"VFR"},{"icaoId":"KBLI","receiptTime":"2026-04-15T00:56:35.481Z","obsTime":1776214380,"reportTime":"2026-04-15T01:00:00.000Z","temp":8.3,"dewp":5.6,"wdir":180,"wspd":19,"wgst":31,"visib":"10+","altim":1005.8,"slp":1006.6,"qcField":4,"wxString":"-RA","precip":0.005,"metarType":"METAR","rawOb":"METAR KBLI 150053Z 18019G31KT 10SM -RA SCT022 BKN026 OVC060 08/06 A2970 RMK AO2 PK WND 15032/0036 RAE2354B28 SLP066 P0000 T00830056","lat":48.7991,"lon":-122.5407,"elev":46,"name":"Bellingham Intl, WA, US","cover":"OVC","clouds":[{"cover":"SCT","base":2200},{"cover":"BKN","base":2600},{"cover":"OVC","base":6000}],"fltCat":"MVFR"},{"icaoId":"KMYF","receiptTime":"2026-04-15T00:56:34.790Z","obsTime":1776214380,"reportTime":"2026-04-15T01:00:00.000Z","temp":18.3,"dewp":8.3,"wdir":290,"wspd":10,"visib":"10+","altim":1017,"slp":1016.7,"qcField":4,"metarType":"METAR","rawOb":"METAR KMYF 150053Z 29010KT 10SM CLR 18/08 A3003 RMK AO2 SLP167 T01830083","lat":32.8145,"lon":-117.1375,"elev":128,"name":"San Diego/Montgomery Arpt, CA, US","cover":"CLR","clouds":[],"fltCat":"VFR"},{"icaoId":"KMSP","receiptTime":"2026-04-15T00:56:34.650Z","obsTime":1776214380,"reportTime":"2026-04-15T01:00:00.000Z","temp":16.7,"dewp":8.9,"wdir":30,"wspd":3,"visib":"10+","altim":1006.2,"slp":1006.2,"qcField":4,"metarType":"METAR","rawOb":"METAR KMSP 150053Z 03003KT 10SM BKN120 BKN250 17/09 A2971 RMK AO2 SLP062 T01670089","lat":44.8852,"lon":-93.2313,"elev":255,"name":"Minneapolis-St Paul Intl, MN, US","cover":"BKN","clouds":[{"cover":"BKN","base":12000},{"cover":"BKN","base":25000}],"fltCat":"VFR"},{"icaoId":"KMSO","receiptTime":"2026-04-15T00:56:34.630Z","obsTime":1776214380,"reportTime":"2026-04-15T01:00:00.000Z","temp":11.1,"dewp":-3.3,"wdir":290,"wspd":13,"visib":"10+","altim":1009.6,"slp":1010.5,"qcField":4,"metarType":"METAR","rawOb":"METAR KMSO 150053Z 29013KT 10SM OVC070 11/M03 A2981 RMK AO2 SLP105 T01111033","lat":46.9208,"lon":-114.0938,"elev":974,"name":"Missoula Intl, MT, US","cover":"OVC","clouds":[{"cover":"OVC","base":7000}],"fltCat":"VFR"},{"icaoId":"KMOD","receiptTime":"2026-04-15T00:56:34.524Z","obsTime":1776214380,"reportTime":"2026-04-15T01:00:00.000Z","temp":20.6,"dewp":8.3,"wdir":300,"wspd":13,"visib":"10+","altim":1018.7,"slp":1018.5,"qcField":4,"metarType":"METAR","rawOb":"METAR KMOD 150053Z 30013KT 10SM CLR 21/08 A3008 RMK AO2 SLP185 T02060083","lat":37.6254,"lon":-120.9549,"elev":25,"name":"Modesto/Sham Fld, CA, US","cover":"CLR","clouds":[],"fltCat":"VFR"},{"icaoId":"KCNM","receiptTime":"2026-04-15T00:56:33.954Z","obsTime":1776214380,"reportTime":"2026-04-15T01:00:00.000Z","temp":25,"dewp":2.2,"wdir":210,"wspd":16,"wgst":27,"visib":"10+","altim":1011.6,"slp":1006.3,"qcField":6,"metarType":"METAR","rawOb":"METAR KCNM 150053Z AUTO 21016G27KT 10SM CLR 25/02 A2987 RMK AO2 PK WND 23032/2354 SLP063 T02500022","lat":32.3336,"lon":-104.2584,"elev":993,"name":"Carlsbad/Cavern City Air Term, NM, US","cover":"CLR","clouds":[],"fltCat":"VFR"},{"icaoId":"KBRO","receiptTime":"2026-04-15T00:56:33.586Z","obsTime":1776214380,"reportTime":"2026-04-15T01:00:00.000Z","temp":25.6,"dewp":21.1,"wdir":140,"wspd":13,"wgst":24,"visib":"10+","altim":1013,"slp":1012.8,"qcField":4,"metarType":"METAR","rawOb":"METAR KBRO 150053Z 14013G24KT 10SM FEW018 26/21 A2991 RMK AO2 PK WND 13027/2358 SLP128 T02560211","lat":25.9146,"lon":-97.4231,"elev":6,"name":"Brownsville Intl, TX, US","cover":"FEW","clouds":[{"cover":"FEW","base":1800}],"fltCat":"VFR"},{"icaoId":"KBNA","receiptTime":"2026-04-15T00:56:33.462Z","obsTime":1776214380,"reportTime":"2026-04-15T01:00:00.000Z","temp":23.3,"dewp":14.4,"wdir":200,"wspd":6,"visib":"10+","altim":1017.7,"slp":1016.8,"qcField":12,"metarType":"METAR","rawOb":"METAR KBNA 150053Z 20006KT 10SM FEW250 23/14 A3005 RMK AO2 SLP168 T02330144 $","lat":36.1105,"lon":-86.6881,"elev":168,"name":"Nashville Intl, TN, US","cover":"FEW","clouds":[{"cover":"FEW","base":25000}],"fltCat":"VFR"},{"icaoId":"KMCO","receiptTime":"2026-04-15T00:56:33.411Z","obsTime":1776214380,"reportTime":"2026-04-15T01:00:00.000Z","temp":22.2,"dewp":15,"wdir":90,"wspd":7,"visib":"10+","altim":1022.4,"slp":1022,"qcField":4,"metarType":"METAR","rawOb":"METAR KMCO 150053Z 09007KT 10SM FEW040 22/15 A3019 RMK AO2 SLP220 T02220150","lat":28.4182,"lon":-81.3241,"elev":27,"name":"Orlando Intl, FL, US","cover":"FEW","clouds":[{"cover":"FEW","base":4000}],"fltCat":"VFR"},{"icaoId":"KMCI","receiptTime":"2026-04-15T00:56:33.357Z","obsTime":1776214380,"reportTime":"2026-04-15T01:00:00.000Z","temp":25.6,"dewp":19.4,"wdir":180,"wspd":17,"wgst":26,"visib":"10+","altim":1005.5,"slp":1004.5,"qcField":4,"metarType":"METAR","rawOb":"METAR KMCI 150053Z 18017G26KT 10SM FEW035 BKN200 26/19 A2969 RMK AO2 PK WND 18029/0041 SLP045 T02560194","lat":39.2975,"lon":-94.7309,"elev":308,"name":"Kansas City Intl, MO, US","cover":"BKN","clouds":[{"cover":"FEW","base":3500},{"cover":"BKN","base":20000}],"fltCat":"VFR"},{"icaoId":"KMAF","receiptTime":"2026-04-15T00:56:33.278Z","obsTime":1776214380,"reportTime":"2026-04-15T01:00:00.000Z","temp":17.8,"dewp":12.2,"wdir":150,"wspd":15,"wgst":25,"visib":"10+","altim":1013,"slp":1009.3,"qcField":4,"wxString":"-RA","precip":0.03,"metarType":"METAR","rawOb":"METAR KMAF 150053Z 15015G25KT 10SM -RA SCT090 OVC110 18/12 A2991 RMK AO2 PK WND 17043/0025 LTG DSNT NE AND S AND SW RAB2358 PRESRR SLP093 P0003 T01780122","lat":31.9475,"lon":-102.2086,"elev":874,"name":"Midland Intl, TX, US","cover":"OVC","clouds":[{"cover":"SCT","base":9000},{"cover":"OVC","base":11000}],"fltCat":"VFR"},{"icaoId":"KLVS","receiptTime":"2026-04-15T00:56:33.178Z","obsTime":1776214380,"reportTime":"2026-04-15T01:00:00.000Z","temp":13.3,"dewp":-7.2,"wdir":210,"wspd":12,"wgst":23,"visib":"10+","altim":1014,"slp":1006.6,"qcField":14,"metarType":"METAR","rawOb":"METAR KLVS 150053Z AUTO 21012G23KT 10SM CLR 13/M07 A2994 RMK AO2 PK WND 20032/2357 SLP066 T01331072 PNO $","lat":35.6558,"lon":-105.1385,"elev":2095,"name":"Las Vegas Muni, NM, US","cover":"CLR","clouds":[],"fltCat":"VFR"},{"icaoId":"KPAE","receiptTime":"2026-04-15T00:56:32.468Z","obsTime":1776214380,"reportTime":"2026-04-15T01:00:00.000Z","temp":8.3,"dewp":5.6,"wdir":180,"wspd":23,"wgst":34,"visib":"10+","altim":1008.9,"slp":1008.9,"qcField":4,"wxString":"-RA","precip":0.005,"metarType":"METAR","rawOb":"METAR KPAE 150053Z 18023G34KT 10SM -RA BKN009 BKN031 OVC038 08/06 A2979 RMK AO2 PK WND 17036/0002 RAB14 SLP089 P0000 T00830056","lat":47.9232,"lon":-122.2831,"elev":166,"name":"Everett/Paine Fld, WA, US","cover":"OVC","clouds":[{"cover":"BKN","base":900},{"cover":"BKN","base":3100},{"cover":"OVC","base":3800}],"fltCat":"IFR"},{"icaoId":"KGEG","receiptTime":"2026-04-15T00:56:31.430Z","obsTime":1776214380,"reportTime":"2026-04-15T01:00:00.000Z","temp":5,"dewp":2.8,"wdir":220,"wspd":15,"wgst":24,"visib":4,"altim":1011.6,"slp":1012.6,"qcField":4,"wxString":"-RA BR","precip":0.02,"metarType":"METAR","rawOb":"METAR KGEG 150053Z 22015G24KT 4SM -RA BR BKN017 OVC028 05/03 A2987 RMK AO2 PK WND 22028/0043 RAB07 SLP126 P0002 T00500028","lat":47.6217,"lon":-117.528,"elev":718,"name":"Spokane Intl, WA, US","cover":"OVC","clouds":[{"cover":"BKN","base":1700},{"cover":"OVC","base":2800}],"fltCat":"MVFR"},{"icaoId":"KDMN","receiptTime":"2026-04-15T00:56:30.443Z","obsTime":1776214380,"reportTime":"2026-04-15T01:00:00.000Z","temp":22.8,"dewp":-1.7,"wdir":290,"wspd":14,"visib":"10+","altim":1013,"slp":1007.3,"qcField":6,"metarType":"METAR","rawOb":"METAR KDMN 150053Z AUTO 29014KT 10SM CLR 23/M02 A2991 RMK AO2 PK WND 30026/0020 SLP073 T02281017","lat":32.2592,"lon":-107.7206,"elev":1310,"name":"Deming Muni, NM, US","cover":"CLR","clouds":[],"fltCat":"VFR"},{"icaoId":"KIAH","receiptTime":"2026-04-15T00:56:29.769Z","obsTime":1776214380,"reportTime":"2026-04-15T01:00:00.000Z","temp":23.9,"dewp":20.6,"wdir":130,"wspd":14,"visib":"10+","altim":1015.7,"slp":1015.6,"qcField":4,"metarType":"METAR","rawOb":"METAR KIAH 150053Z 13014KT 10SM FEW024 FEW055 SCT250 24/21 A2999 RMK AO2 SLP156 T02390206","lat":29.9844,"lon":-95.3607,"elev":27,"name":"Houston/Bush Intl, TX, US","cover":"SCT","clouds":[{"cover":"FEW","base":2400},{"cover":"FEW","base":5500},{"cover":"SCT","base":25000}],"fltCat":"VFR"},{"icaoId":"KHOU","receiptTime":"2026-04-15T00:56:29.516Z","obsTime":1776214380,"reportTime":"2026-04-15T01:00:00.000Z","temp":24.4,"dewp":20,"wdir":160,"wspd":11,"visib":"10+","altim":1016,"slp":1016.2,"qcField":12,"metarType":"METAR","rawOb":"METAR KHOU 150053Z 16011KT 10SM SCT022 24/20 A3000 RMK AO2 SLP162 T02440200 $","lat":29.6458,"lon":-95.2821,"elev":13,"name":"Houston/Hobby Arpt, TX, US","cover":"SCT","clouds":[{"cover":"SCT","base":2200}],"fltCat":"VFR"},{"icaoId":"KSAF","receiptTime":"2026-04-15T00:56:28.065Z","obsTime":1776214380,"reportTime":"2026-04-15T01:00:00.000Z","temp":14.4,"dewp":-11.1,"wdir":290,"wspd":15,"wgst":22,"visib":"10+","altim":1014.6,"slp":1008,"qcField":12,"metarType":"METAR","rawOb":"METAR KSAF 150053Z 29015G22KT 10SM SCT110 14/M11 A2996 RMK AO2 PK WND 30030/0019 SLP080 T01441111 $","lat":35.611,"lon":-106.0957,"elev":1918,"name":"Santa Fe Cnty Muni, NM, US","cover":"SCT","clouds":[{"cover":"SCT","base":11000}],"fltCat":"VFR"},{"icaoId":"KCRQ","receiptTime":"2026-04-15T00:56:34.091Z","obsTime":1776214380,"reportTime":"2026-04-15T01:00:00.000Z","temp":18.3,"dewp":10,"wdir":260,"wspd":10,"wgst":16,"visib":"10+","altim":1016.7,"slp":1016.3,"qcField":6,"metarType":"METAR","rawOb":"METAR KCRQ 150053Z AUTO 26010G16KT 10SM CLR 18/10 A3002 RMK AO2 SLP163 T01830100","lat":33.1299,"lon":-117.2765,"elev":96,"name":"Carlsbad/Palomar Arpt, CA, US","cover":"CLR","clouds":[],"fltCat":"VFR"},{"icaoId":"KDLN","receiptTime":"2026-04-15T00:56:30.409Z","obsTime":1776214380,"reportTime":"2026-04-15T01:00:00.000Z","temp":12.2,"dewp":-7.8,"wdir":250,"wspd":15,"visib":"10+","altim":1008.5,"slp":1006.7,"qcField":6,"metarType":"METAR","rawOb":"METAR KDLN 150053Z AUTO 25015KT 10SM CLR 12/M08 A2978 RMK AO2 PK WND 26027/0042 SLP067 T01221078","lat":45.2584,"lon":-112.5546,"elev":1586,"name":"Dillon Arpt, MT, US","cover":"CLR","clouds":[],"fltCat":"VFR"},{"icaoId":"KCLL","receiptTime":"2026-04-15T00:56:33.886Z","obsTime":1776214380,"reportTime":"2026-04-15T01:00:00.000Z","temp":25.6,"dewp":18.9,"wdir":160,"wspd":12,"visib":"10+","altim":1014,"slp":1013.3,"qcField":4,"metarType":"METAR","rawOb":"METAR KCLL 150053Z 16012KT 10SM CLR 26/19 A2994 RMK AO2 SLP133 T02560189","lat":30.5912,"lon":-96.3631,"elev":96,"name":"College Station/Easterwood Arpt, TX, US","cover":"CLR","clouds":[],"fltCat":"VFR"},{"icaoId":"KDCA","receiptTime":"2026-04-15T00:56:14.951Z","obsTime":1776214320,"reportTime":"2026-04-15T01:00:00.000Z","temp":24.4,"dewp":15,"wdir":190,"wspd":6,"visib":"10+","altim":1013,"slp":1012.8,"qcField":4,"metarType":"METAR","rawOb":"METAR KDCA 150052Z 19006KT 10SM FEW065 SCT100 BKN250 24/15 A2991 RMK AO2 SLP128 T02440150","lat":38.8472,"lon":-77.0345,"elev":4,"name":"Washington/Reagan-National Arpt, VA, US","cover":"BKN","clouds":[{"cover":"FEW","base":6500},{"cover":"SCT","base":10000},{"cover":"BKN","base":25000}],"fltCat":"VFR"},{"icaoId":"KSPS","receiptTime":"2026-04-15T00:56:17.973Z","obsTime":1776214320,"reportTime":"2026-04-15T01:00:00.000Z","temp":23.9,"dewp":19.4,"wdir":180,"wspd":14,"visib":"10+","altim":1010.9,"slp":1009.6,"qcField":4,"metarType":"METAR","rawOb":"METAR KSPS 150052Z 18014KT 10SM SCT045 SCT060 BKN080 24/19 A2985 RMK AO2 LTG DSNT W-N SLP096 T02390194","lat":33.9785,"lon":-98.493,"elev":310,"name":"Wichita Falls Rgnl, TX, US","cover":"BKN","clouds":[{"cover":"SCT","base":4500},{"cover":"SCT","base":6000},{"cover":"BKN","base":8000}],"fltCat":"VFR"},{"icaoId":"KMKE","receiptTime":"2026-04-15T00:56:12.324Z","obsTime":1776214320,"reportTime":"2026-04-15T01:00:00.000Z","temp":15.6,"dewp":14.4,"wdir":30,"wspd":12,"visib":"10+","altim":1004.1,"slp":1004,"qcField":4,"wxString":"-TSRA","precip":0.16,"metarType":"METAR","rawOb":"METAR KMKE 150052Z 03012KT 10SM -TSRA FEW010 SCT028 OVC035CB 16/14 A2965 RMK AO2 WSHFT 0005 RAB29 SLP040 CONS LTGCGICCC NE AND W-NW TS NE AND W-NW MOV E CONS LTG DSNT N-NE AND W-NW P0016 T01560144","lat":42.9549,"lon":-87.9045,"elev":203,"name":"Milwaukee/Mitchell Intl, WI, US","cover":"OVC","clouds":[{"cover":"FEW","base":1000},{"cover":"SCT","base":2800},{"cover":"OVC","base":3500}],"fltCat":"VFR"},{"icaoId":"KHRL","receiptTime":"2026-04-15T00:56:17.943Z","obsTime":1776214320,"reportTime":"2026-04-15T01:00:00.000Z","temp":25,"dewp":20.6,"wdir":140,"wspd":17,"wgst":24,"visib":"10+","altim":1012.6,"slp":1012.3,"qcField":4,"metarType":"METAR","rawOb":"METAR KHRL 150052Z 14017G24KT 10SM CLR 25/21 A2990 RMK AO2 PK WND 13027/0027 SLP123 T02500206","lat":26.2303,"lon":-97.6556,"elev":9,"name":"Harlingen/Valley Intl, TX, US","cover":"CLR","clouds":[],"fltCat":"VFR"},{"icaoId":"KCLT","receiptTime":"2026-04-15T00:56:14.914Z","obsTime":1776214320,"reportTime":"2026-04-15T01:00:00.000Z","temp":24.4,"dewp":10,"wdir":220,"wspd":5,"visib":"10+","altim":1019,"slp":1019.7,"qcField":4,"metarType":"METAR","rawOb":"METAR KCLT 150052Z 22005KT 10SM FEW250 24/10 A3009 RMK AO2 SLP197 T02440100","lat":35.2225,"lon":-80.9543,"elev":223,"name":"Charlotte/Douglas Intl, NC, US","cover":"FEW","clouds":[{"cover":"FEW","base":25000}],"fltCat":"VFR"},{"icaoId":"KIAD","receiptTime":"2026-04-15T00:56:14.982Z","obsTime":1776214320,"reportTime":"2026-04-15T01:00:00.000Z","temp":25,"dewp":12.8,"wdir":200,"wspd":8,"visib":"10+","altim":1013,"slp":1012.7,"qcField":12,"metarType":"METAR","rawOb":"METAR KIAD 150052Z 20008KT 10SM FEW080 SCT110 25/13 A2991 RMK AO2 SLP127 LTG DSNT N T02500128 $","lat":38.9348,"lon":-77.4473,"elev":90,"name":"Washington/Dulles Intl, VA, US","cover":"SCT","clouds":[{"cover":"FEW","base":8000},{"cover":"SCT","base":11000}],"fltCat":"VFR"},{"icaoId":"KMLF","receiptTime":"2026-04-15T00:56:03.102Z","obsTime":1776214320,"reportTime":"2026-04-15T01:00:00.000Z","temp":13.3,"dewp":-3.9,"wdir":210,"wspd":4,"visib":"10+","altim":1015.7,"slp":1013.8,"qcField":6,"metarType":"METAR","rawOb":"METAR KMLF 150052Z AUTO 21004KT 10SM BKN100 13/M04 A2999 RMK AO2 SLP138 T01331039","lat":38.4225,"lon":-113.0109,"elev":1537,"name":"Milford Muni, UT, US","cover":"BKN","clouds":[{"cover":"BKN","base":10000}],"fltCat":"VFR"},{"icaoId":"KCVG","receiptTime":"2026-04-15T00:56:14.932Z","obsTime":1776214320,"reportTime":"2026-04-15T01:00:00.000Z","temp":23.9,"dewp":15.6,"wdir":200,"wspd":12,"visib":"10+","altim":1013.6,"slp":1012.6,"qcField":4,"metarType":"METAR","rawOb":"METAR KCVG 150052Z 20012KT 10SM FEW050 FEW250 24/16 A2993 RMK AO2 SLP126 T02390156","lat":39.0444,"lon":-84.6724,"elev":264,"name":"Cincinnati Intl, KY, US","cover":"FEW","clouds":[{"cover":"FEW","base":5000},{"cover":"FEW","base":25000}],"fltCat":"VFR"},{"icaoId":"KABI","receiptTime":"2026-04-15T00:56:17.842Z","obsTime":1776214320,"reportTime":"2026-04-15T01:00:00.000Z","temp":23.3,"dewp":18.3,"wdir":180,"wspd":10,"wgst":18,"visib":"10+","altim":1012.3,"slp":1009.8,"qcField":12,"metarType":"METAR","rawOb":"METAR KABI 150052Z 18010G18KT 10SM SCT046 23/18 A2989 RMK AO2 PK WND 18030/2357 SLP098 T02330183 $","lat":32.4106,"lon":-99.6821,"elev":543,"name":"Abilene Rgnl, TX, US","cover":"SCT","clouds":[{"cover":"SCT","base":4600}],"fltCat":"VFR"},{"icaoId":"KABQ","receiptTime":"2026-04-15T00:56:17.857Z","obsTime":1776214320,"reportTime":"2026-04-15T01:00:00.000Z","temp":17.8,"dewp":-10.6,"wdir":290,"wspd":21,"wgst":29,"visib":"10+","altim":1013,"slp":1007.8,"qcField":4,"metarType":"METAR","rawOb":"METAR KABQ 150052Z 29021G29KT 10SM SCT110 BKN160 18/M11 A2991 RMK AO2 PK WND 30029/0050 SLP078 ACSL NW T01781106","lat":35.0419,"lon":-106.6154,"elev":1620,"name":"Albuquerque Intl, NM, US","cover":"BKN","clouds":[{"cover":"SCT","base":11000},{"cover":"BKN","base":16000}],"fltCat":"VFR"},{"icaoId":"KATL","receiptTime":"2026-04-15T00:56:17.876Z","obsTime":1776214320,"reportTime":"2026-04-15T01:00:00.000Z","temp":24.4,"dewp":7.2,"wdir":220,"wspd":4,"visib":"10+","altim":1020.4,"slp":1019.6,"qcField":12,"metarType":"METAR","rawOb":"METAR KATL 150052Z 22004KT 10SM FEW250 24/07 A3013 RMK AO2 SLP196 T02440072 $","lat":33.6297,"lon":-84.4422,"elev":309,"name":"Atlanta/Hartsfield-Jackson Intl, GA, US","cover":"FEW","clouds":[{"cover":"FEW","base":25000}],"fltCat":"VFR"},{"icaoId":"KOKC","receiptTime":"2026-04-15T00:56:17.957Z","obsTime":1776214320,"reportTime":"2026-04-15T01:00:00.000Z","temp":21.7,"dewp":20,"wdir":160,"wspd":16,"wgst":33,"visib":5,"altim":1011.6,"slp":1010.4,"qcField":4,"wxString":"TSRA BR","precip":0.08,"metarType":"METAR","rawOb":"METAR KOKC 150052Z 16016G33KT 5SM TSRA BR FEW065CB OVC090 22/20 A2987 RMK AO2 PK WND 16040/0023 RAB02 TSB50 PRESRR SLP104 OCNL LTGICCG OHD TS OHD MOV NE P0008 T02170200","lat":35.3843,"lon":-97.6003,"elev":391,"name":"Oklahoma City/Will Rogers Intl, OK, US","cover":"OVC","clouds":[{"cover":"FEW","base":6500},{"cover":"OVC","base":9000}],"fltCat":"MVFR"},{"icaoId":"KRDU","receiptTime":"2026-04-15T00:54:14.749Z","obsTime":1776214260,"reportTime":"2026-04-15T01:00:00.000Z","temp":24.4,"dewp":9.4,"wdir":190,"wspd":3,"visib":"10+","altim":1017.7,"slp":1017.2,"qcField":4,"metarType":"METAR","rawOb":"METAR KRDU 150051Z 19003KT 10SM BKN250 24/09 A3005 RMK AO2 SLP172 T02440094","lat":35.8923,"lon":-78.782,"elev":121,"name":"Raleigh-Durham Intl, NC, US","cover":"BKN","clouds":[{"cover":"BKN","base":25000}],"fltCat":"VFR"},{"icaoId":"KOXR","receiptTime":"2026-04-15T00:54:14.358Z","obsTime":1776214260,"reportTime":"2026-04-15T01:00:00.000Z","temp":17.2,"dewp":12.2,"wdir":260,"wspd":11,"visib":"10+","altim":1017,"slp":1016.9,"qcField":12,"metarType":"METAR","rawOb":"METAR KOXR 150051Z 26011KT 10SM CLR 17/12 A3003 RMK AO2 SLP169 T01720122 $","lat":34.2001,"lon":-119.2042,"elev":12,"name":"Oxnard Arpt, CA, US","cover":"CLR","clouds":[],"fltCat":"VFR"},{"icaoId":"KORF","receiptTime":"2026-04-15T00:54:14.303Z","obsTime":1776214260,"reportTime":"2026-04-15T01:00:00.000Z","temp":25,"dewp":13.9,"wdir":200,"wspd":8,"visib":"10+","altim":1016,"slp":1016,"qcField":4,"metarType":"METAR","rawOb":"METAR KORF 150051Z 20008KT 10SM CLR 25/14 A3000 RMK AO2 SLP160 T02500139","lat":36.9037,"lon":-76.1927,"elev":5,"name":"Norfolk Intl, VA, US","cover":"CLR","clouds":[],"fltCat":"VFR"},{"icaoId":"KLGU","receiptTime":"2026-04-15T00:54:13.921Z","obsTime":1776214260,"reportTime":"2026-04-15T01:00:00.000Z","temp":11.7,"dewp":-0.6,"wdir":240,"wspd":6,"visib":"10+","altim":1015,"slp":1013.8,"qcField":6,"precip":0.005,"metarType":"METAR","rawOb":"METAR KLGU 150051Z AUTO 24006KT 10SM BKN060 12/M01 A2997 RMK AO2 RAB2356E08 SLP138 P0000 T01171006","lat":41.7865,"lon":-111.8519,"elev":1359,"name":"Logan/Cache Arpt, UT, US","cover":"BKN","clouds":[{"cover":"BKN","base":6000}],"fltCat":"VFR"},{"icaoId":"KJFK","receiptTime":"2026-04-15T00:54:13.869Z","obsTime":1776214260,"reportTime":"2026-04-15T01:00:00.000Z","temp":16.1,"dewp":11.1,"wdir":170,"wspd":4,"visib":"10+","altim":1011.3,"slp":1011.2,"qcField":4,"metarType":"METAR","rawOb":"METAR KJFK 150051Z 17004KT 10SM SCT110 SCT250 16/11 A2986 RMK AO2 SLP112 T01610111","lat":40.6392,"lon":-73.7639,"elev":3,"name":"New York/JF Kennedy Intl, NY, US","cover":"SCT","clouds":[{"cover":"SCT","base":11000},{"cover":"SCT","base":25000}],"fltCat":"VFR"},{"icaoId":"KSAT","receiptTime":"2026-04-15T00:54:15.016Z","obsTime":1776214260,"reportTime":"2026-04-15T01:00:00.000Z","temp":26.1,"dewp":18.3,"wdir":130,"wspd":20,"wgst":25,"visib":"10+","altim":1013,"slp":1011.1,"qcField":12,"metarType":"METAR","rawOb":"METAR KSAT 150051Z 13020G25KT 10SM FEW060 OVC250 26/18 A2991 RMK AO2 PK WND 13028/0016 SLP111 T02610183 $","lat":29.5443,"lon":-98.4839,"elev":246,"name":"San Antonio Intl, TX, US","cover":"OVC","clouds":[{"cover":"FEW","base":6000},{"cover":"OVC","base":25000}],"fltCat":"VFR"},{"icaoId":"KACT","receiptTime":"2026-04-15T00:54:15.973Z","obsTime":1776214260,"reportTime":"2026-04-15T01:00:00.000Z","temp":25.6,"dewp":18.9,"wdir":140,"wspd":10,"visib":"10+","altim":1011.9,"slp":1011.1,"qcField":4,"metarType":"METAR","rawOb":"METAR KACT 150051Z 14010KT 10SM FEW050 26/19 A2988 RMK AO2 SLP111 T02560189","lat":31.618,"lon":-97.2283,"elev":150,"name":"Waco Rgnl, TX, US","cover":"FEW","clouds":[{"cover":"FEW","base":5000}],"fltCat":"VFR"},{"icaoId":"KELP","receiptTime":"2026-04-15T00:54:11.990Z","obsTime":1776214260,"reportTime":"2026-04-15T01:00:00.000Z","temp":23.9,"dewp":-1.7,"wdir":250,"wspd":14,"wgst":25,"visib":"10+","altim":1012.3,"slp":1005.7,"qcField":4,"metarType":"METAR","rawOb":"METAR KELP 150051Z 25014G25KT 10SM SCT100 SCT140 BKN200 BKN250 24/M02 A2989 RMK AO2 PK WND 24031/2352 SLP057 VIRGA DSNT W-N T02391017","lat":31.8123,"lon":-106.3774,"elev":1205,"name":"El Paso Intl, TX, US","cover":"BKN","clouds":[{"cover":"SCT","base":10000},{"cover":"SCT","base":14000},{"cover":"BKN","base":20000},{"cover":"BKN","base":25000}],"fltCat":"VFR"},{"icaoId":"KIGM","receiptTime":"2026-04-15T00:54:12.380Z","obsTime":1776214260,"reportTime":"2026-04-15T01:00:00.000Z","temp":19.4,"dewp":-5.6,"wdir":240,"wspd":7,"visib":"10+","altim":1016,"slp":1012,"qcField":6,"metarType":"METAR","rawOb":"METAR KIGM 150051Z AUTO 24007KT 230V290 10SM FEW095 19/M06 A3000 RMK AO2 SLP120 T01941056","lat":35.2575,"lon":-113.9341,"elev":1045,"name":"Kingman Arpt, AZ, US","cover":"FEW","clouds":[{"cover":"FEW","base":9500}],"fltCat":"VFR"},{"icaoId":"KMYL","receiptTime":"2026-04-15T00:54:12.876Z","obsTime":1776214260,"reportTime":"2026-04-15T01:00:00.000Z","temp":6.1,"dewp":-1.1,"wdir":200,"wspd":9,"visib":"10+","altim":1014,"slp":1014.7,"qcField":6,"metarType":"METAR","rawOb":"METAR KMYL 150051Z AUTO 20009KT 10SM FEW037 OVC075 06/M01 A2994 RMK AO2 SLP147 T00611011","lat":44.8943,"lon":-116.0998,"elev":1532,"name":"McCall Muni, ID, US","cover":"OVC","clouds":[{"cover":"FEW","base":3700},{"cover":"OVC","base":7500}],"fltCat":"VFR"},{"icaoId":"KCMH","receiptTime":"2026-04-15T00:54:13.643Z","obsTime":1776214260,"reportTime":"2026-04-15T01:00:00.000Z","temp":26.1,"dewp":15.6,"wdir":230,"wspd":10,"wgst":20,"visib":"10+","altim":1014,"slp":1013.1,"qcField":4,"wxString":"VCTS","metarType":"METAR","rawOb":"METAR KCMH 150051Z 23010G20KT 10SM VCTS BKN075 BKN110 OVC200 26/16 A2994 RMK AO2 LTG DSNT W-NE SLP131 T02610156","lat":39.9907,"lon":-82.877,"elev":257,"name":"Columbus/Glenn Intl, OH, US","cover":"OVC","clouds":[{"cover":"BKN","base":7500},{"cover":"BKN","base":11000},{"cover":"OVC","base":20000}],"fltCat":"VFR"},{"icaoId":"KPIT","receiptTime":"2026-04-15T00:54:13.764Z","obsTime":1776214260,"reportTime":"2026-04-15T01:00:00.000Z","temp":18.3,"dewp":17.8,"wdir":150,"wspd":3,"visib":"10+","altim":1014.3,"slp":1014.4,"qcField":12,"metarType":"METAR","rawOb":"METAR KPIT 150051Z 15003KT 10SM FEW060 BKN250 18/18 A2995 RMK AO2 SLP144 T01830178 $","lat":40.4814,"lon":-80.2083,"elev":339,"name":"Pittsburgh Intl, PA, US","cover":"BKN","clouds":[{"cover":"FEW","base":6000},{"cover":"BKN","base":25000}],"fltCat":"VFR"},{"icaoId":"KORD","receiptTime":"2026-04-15T00:54:14.243Z","obsTime":1776214260,"reportTime":"2026-04-15T01:00:00.000Z","temp":26.7,"dewp":17.8,"wdir":200,"wspd":15,"wgst":22,"visib":"10+","altim":1004.8,"slp":1004.3,"qcField":4,"metarType":"METAR","rawOb":"METAR KORD 150051Z 20015G22KT 10SM FEW046 SCT140 BKN240 OVC300 27/18 A2967 RMK AO2 SLP043 T02670178","lat":41.9602,"lon":-87.9316,"elev":202,"name":"Chicago/O'Hare Intl, IL, US","cover":"OVC","clouds":[{"cover":"FEW","base":4600},{"cover":"SCT","base":14000},{"cover":"BKN","base":24000},{"cover":"OVC","base":30000}],"fltCat":"VFR"},{"icaoId":"KPHX","receiptTime":"2026-04-15T00:54:14.400Z","obsTime":1776214260,"reportTime":"2026-04-15T01:00:00.000Z","temp":24.4,"dewp":-1.7,"wdir":220,"wspd":6,"visib":"10+","altim":1013,"slp":1011.4,"qcField":12,"metarType":"METAR","rawOb":"METAR KPHX 150051Z 22006KT 10SM FEW120 FEW150 FEW170 24/M02 A2991 RMK AO2 SLP114 T02441017 $","lat":33.4278,"lon":-112.0037,"elev":338,"name":"Phoenix/Sky Harbor Intl, AZ, US","cover":"FEW","clouds":[{"cover":"FEW","base":12000},{"cover":"FEW","base":15000},{"cover":"FEW","base":17000}],"fltCat":"VFR"},{"icaoId":"KPVD","receiptTime":"2026-04-15T00:54:14.548Z","obsTime":1776214260,"reportTime":"2026-04-15T01:00:00.000Z","temp":12.8,"dewp":9.4,"wdir":160,"wspd":7,"visib":"10+","altim":1010.6,"slp":1010.5,"qcField":4,"metarType":"METAR","rawOb":"METAR KPVD 150051Z 16007KT 10SM BKN250 13/09 A2984 RMK AO2 SLP105 T01280094","lat":41.7225,"lon":-71.4325,"elev":15,"name":"Providence/Green Mem, RI, US","cover":"BKN","clouds":[{"cover":"BKN","base":25000}],"fltCat":"VFR"},{"icaoId":"KROW","receiptTime":"2026-04-15T00:54:14.879Z","obsTime":1776214260,"reportTime":"2026-04-15T01:00:00.000Z","temp":23.3,"dewp":1.1,"wdir":210,"wspd":18,"wgst":23,"visib":"10+","altim":1010.9,"slp":1005.5,"qcField":4,"metarType":"METAR","rawOb":"METAR KROW 150051Z 21018G23KT 10SM CLR 23/01 A2985 RMK AO2 PK WND 23043/2358 SLP055 T02330011","lat":33.3074,"lon":-104.5082,"elev":1105,"name":"Roswell/Ind Arpt, NM, US","cover":"CLR","clouds":[],"fltCat":"VFR"},{"icaoId":"KSAD","receiptTime":"2026-04-15T00:54:14.913Z","obsTime":1776214260,"reportTime":"2026-04-15T01:00:00.000Z","temp":22.2,"dewp":-5.6,"wdir":300,"wspd":14,"wgst":26,"visib":"10+","altim":1012.6,"slp":1009.2,"qcField":6,"metarType":"METAR","rawOb":"METAR KSAD 150051Z AUTO 30014G26KT 10SM CLR 22/M06 A2990 RMK AO2 PK WND 29028/0023 SLP092 T02221056","lat":32.8565,"lon":-109.636,"elev":937,"name":"Safford Rgnl, AZ, US","cover":"CLR","clouds":[],"fltCat":"VFR"},{"icaoId":"KVNY","receiptTime":"2026-04-15T00:54:15.706Z","obsTime":1776214260,"reportTime":"2026-04-15T01:00:00.000Z","temp":21.1,"dewp":9.4,"wdir":140,"wspd":4,"visib":"10+","altim":1016,"slp":1015.2,"qcField":12,"metarType":"METAR","rawOb":"METAR KVNY 150051Z 14004KT 10SM CLR 21/09 A3000 RMK AO2 SLP152 T02110094 $","lat":34.2121,"lon":-118.4915,"elev":241,"name":"Van Nuys Arpt, CA, US","cover":"CLR","clouds":[],"fltCat":"VFR"},{"icaoId":"KLGA","receiptTime":"2026-04-15T00:56:14.998Z","obsTime":1776214260,"reportTime":"2026-04-15T01:00:00.000Z","temp":27.2,"dewp":12.2,"wdir":230,"wspd":9,"visib":"10+","altim":1010.6,"slp":1010.4,"qcField":12,"metarType":"METAR","rawOb":"METAR KLGA 150051Z 23009KT 10SM FEW060 FEW150 BKN220 27/12 A2984 RMK AO2 SLP104 T02720122 $","lat":40.7794,"lon":-73.8803,"elev":9,"name":"New York/La Guardia Arpt, NY, US","cover":"BKN","clouds":[{"cover":"FEW","base":6000},{"cover":"FEW","base":15000},{"cover":"BKN","base":22000}],"fltCat":"VFR"},{"icaoId":"KCLE","receiptTime":"2026-04-15T00:54:12.687Z","obsTime":1776214260,"reportTime":"2026-04-15T01:00:00.000Z","temp":21.1,"dewp":17.8,"wdir":160,"wspd":6,"visib":"10+","altim":1011.3,"slp":1012.4,"qcField":12,"metarType":"METAR","rawOb":"METAR KCLE 150051Z 16006KT 10SM SCT055 BKN200 21/18 A2986 RMK AO2 SLP124 T02110178 $","lat":41.4057,"lon":-81.8519,"elev":237,"name":"Cleveland/Hopkins Intl, OH, US","cover":"BKN","clouds":[{"cover":"SCT","base":5500},{"cover":"BKN","base":20000}],"fltCat":"VFR"},{"icaoId":"KEWR","receiptTime":"2026-04-15T00:54:12.046Z","obsTime":1776214260,"reportTime":"2026-04-15T01:00:00.000Z","temp":27.8,"dewp":12.8,"wdir":220,"wspd":12,"visib":"10+","altim":1010.6,"slp":1010.5,"qcField":4,"metarType":"METAR","rawOb":"METAR KEWR 150051Z 22012KT 10SM FEW060 FEW110 BKN180 BKN250 28/13 A2984 RMK AO2 SLP105 T02780128","lat":40.6828,"lon":-74.1692,"elev":2,"name":"Newark Intl, NJ, US","cover":"BKN","clouds":[{"cover":"FEW","base":6000},{"cover":"FEW","base":11000},{"cover":"BKN","base":18000},{"cover":"BKN","base":25000}],"fltCat":"VFR"},{"icaoId":"KSAN","receiptTime":"2026-04-15T00:54:14.964Z","obsTime":1776214260,"reportTime":"2026-04-15T01:00:00.000Z","temp":18.9,"dewp":11.7,"wdir":290,"wspd":11,"visib":"10+","altim":1017.7,"slp":1017.5,"qcField":12,"metarType":"METAR","rawOb":"METAR KSAN 150051Z 29011KT 10SM FEW020 19/12 A3005 RMK AO2 SLP175 T01890117 $","lat":32.7364,"lon":-117.1973,"elev":3,"name":"San Diego Intl Arpt, CA, US","cover":"FEW","clouds":[{"cover":"FEW","base":2000}],"fltCat":"VFR"},{"icaoId":"KCRP","receiptTime":"2026-04-15T00:54:11.738Z","obsTime":1776214260,"reportTime":"2026-04-15T01:00:00.000Z","temp":24.4,"dewp":21.1,"wdir":140,"wspd":21,"wgst":26,"visib":"10+","altim":1013.3,"slp":1013.1,"qcField":4,"metarType":"METAR","rawOb":"METAR KCRP 150051Z 14021G26KT 10SM SCT017 BKN250 24/21 A2992 RMK AO2 PK WND 13029/0003 SLP131 T02440211","lat":27.7734,"lon":-97.513,"elev":11,"name":"Corpus Christi Intl, TX, US","cover":"BKN","clouds":[{"cover":"SCT","base":1700},{"cover":"BKN","base":25000}],"fltCat":"VFR"},{"icaoId":"KBDL","receiptTime":"2026-04-15T00:54:11.040Z","obsTime":1776214260,"reportTime":"2026-04-15T01:00:00.000Z","temp":23.3,"dewp":13.9,"wdir":60,"wspd":7,"visib":"10+","altim":1010.2,"slp":1009.9,"qcField":4,"metarType":"METAR","rawOb":"METAR KBDL 150051Z 06007KT 10SM SCT075 BKN100 BKN250 23/14 A2983 RMK AO2 SLP099 T02330139","lat":41.9374,"lon":-72.682,"elev":52,"name":"Hartford/Bradley Intl, CT, US","cover":"BKN","clouds":[{"cover":"SCT","base":7500},{"cover":"BKN","base":10000},{"cover":"BKN","base":25000}],"fltCat":"VFR"},{"icaoId":"KGYR","receiptTime":"2026-04-15T00:47:44.170Z","obsTime":1776214020,"reportTime":"2026-04-15T01:00:00.000Z","temp":24,"dewp":-1,"wdir":240,"wspd":8,"visib":"10+","altim":1013.6,"qcField":0,"metarType":"METAR","rawOb":"METAR KGYR 150047Z 24008KT 10SM FEW090 24/M01 A2993","lat":33.428,"lon":-112.368,"elev":292,"name":"Phoenix/Goodyear Muni, AZ, US","cover":"FEW","clouds":[{"cover":"FEW","base":9000}],"fltCat":"VFR"},{"icaoId":"KCHD","receiptTime":"2026-04-15T00:49:22.757Z","obsTime":1776214020,"reportTime":"2026-04-15T01:00:00.000Z","temp":24,"dewp":-4,"wdir":310,"wspd":10,"visib":"10+","altim":1013.6,"qcField":0,"metarType":"METAR","rawOb":"METAR KCHD 150047Z 31010KT 10SM CLR 24/M04 A2993","lat":33.2669,"lon":-111.8086,"elev":378,"name":"Chandler Muni, AZ, US","cover":"CLR","clouds":[],"fltCat":"VFR"},{"icaoId":"KSUN","receiptTime":"2026-04-15T00:51:22.722Z","obsTime":1776214020,"reportTime":"2026-04-15T01:00:00.000Z","temp":11,"dewp":-3,"wdir":210,"wspd":10,"wgst":18,"visib":"10+","altim":1014,"qcField":0,"metarType":"METAR","rawOb":"METAR KSUN 150047Z 21010G18KT 10SM CLR 11/M03 A2994","lat":43.4969,"lon":-114.2923,"elev":1619,"name":"Hailey/Friedman Mem, ID, US","cover":"CLR","clouds":[],"fltCat":"VFR"},{"icaoId":"KRYN","receiptTime":"2026-04-15T00:47:02.768Z","obsTime":1776213900,"reportTime":"2026-04-15T01:00:00.000Z","temp":24,"dewp":-4,"wdir":300,"wspd":18,"visib":"10+","altim":1013.3,"qcField":0,"metarType":"METAR","rawOb":"METAR KRYN 150045Z 30018KT 10SM CLR 24/M04 A2992","lat":32.1418,"lon":-111.1767,"elev":731,"name":"Tucson/Ryan Fld, AZ, US","cover":"CLR","clouds":[],"fltCat":"VFR"},{"icaoId":"KMEV","receiptTime":"2026-04-15T00:40:22.379Z","obsTime":1776213300,"reportTime":"2026-04-15T00:35:00.000Z","temp":14,"dewp":-2,"wdir":280,"wspd":18,"wgst":23,"visib":"10+","altim":1017.7,"qcField":6,"metarType":"METAR","rawOb":"METAR KMEV 150035Z AUTO 28018G23KT 10SM CLR 14/M02 A3005 RMK AO2","lat":38.9963,"lon":-119.75,"elev":1437,"name":"Minden-Tahoe Arpt, NV, US","cover":"CLR","clouds":[],"fltCat":"VFR"},{"icaoId":"KCOE","receiptTime":"2026-04-15T00:38:26.907Z","obsTime":1776213300,"reportTime":"2026-04-15T00:35:00.000Z","temp":5,"dewp":2,"wdir":200,"wspd":11,"visib":"10+","altim":1012.3,"qcField":14,"wxString":"-RA","metarType":"SPECI","rawOb":"SPECI KCOE 150035Z AUTO 20011KT 10SM -RA FEW023 BKN034 OVC045 05/02 A2989 RMK AO2 PNO $","lat":47.7719,"lon":-116.8332,"elev":693,"name":"Coeur DAlene Arpt, ID, US","cover":"OVC","clouds":[{"cover":"FEW","base":2300},{"cover":"BKN","base":3400},{"cover":"OVC","base":4500}],"fltCat":"VFR"},{"icaoId":"KSOW","receiptTime":"2026-04-15T00:38:14.673Z","obsTime":1776213300,"reportTime":"2026-04-15T00:35:00.000Z","temp":13,"dewp":-7,"wdir":240,"wspd":9,"visib":"10+","altim":1017.7,"qcField":6,"metarType":"METAR","rawOb":"METAR KSOW 150035Z AUTO 24009KT 10SM CLR 13/M07 A3005 RMK AO2","lat":34.2686,"lon":-110.0019,"elev":1954,"name":"Show Low Muni, AZ, US","cover":"CLR","clouds":[],"fltCat":"VFR"},{"icaoId":"KRTS","receiptTime":"2026-04-15T00:40:20.351Z","obsTime":1776213300,"reportTime":"2026-04-15T00:35:00.000Z","temp":13,"dewp":-2,"wdir":290,"wspd":19,"wgst":24,"visib":"10+","altim":1018.4,"qcField":6,"metarType":"METAR","rawOb":"METAR KRTS 150035Z AUTO 29019G24KT 10SM CLR 13/M02 A3007 RMK AO2","lat":39.6658,"lon":-119.8731,"elev":1537,"name":"Reno/Stead Arpt, NV, US","cover":"CLR","clouds":[],"fltCat":"VFR"},{"icaoId":"KCXP","receiptTime":"2026-04-15T00:40:11.795Z","obsTime":1776213300,"reportTime":"2026-04-15T00:35:00.000Z","temp":14,"dewp":-3,"wdir":260,"wspd":8,"wgst":15,"visib":"10+","altim":1018.4,"qcField":6,"metarType":"METAR","rawOb":"METAR KCXP 150035Z AUTO 26008G15KT 10SM CLR 14/M03 A3007 RMK AO2","lat":39.1905,"lon":-119.7319,"elev":1431,"name":"Carson City Arpt, NV, US","cover":"CLR","clouds":[],"fltCat":"VFR"},{"icaoId":"KHII","receiptTime":"2026-04-15T00:40:28.494Z","obsTime":1776213300,"reportTime":"2026-04-15T00:35:00.000Z","temp":26,"dewp":-2,"wdir":290,"wspd":5,"wgst":12,"visib":"10+","altim":1013,"qcField":6,"metarType":"METAR","rawOb":"METAR KHII 150035Z AUTO 29005G12KT 10SM CLR 26/M02 A2991 RMK AO2","lat":34.5659,"lon":-114.3522,"elev":241,"name":"Lake Havasu City Arpt, AZ, US","cover":"CLR","clouds":[],"fltCat":"VFR"},{"icaoId":"KHCR","receiptTime":"2026-04-15T00:38:39.500Z","obsTime":1776213300,"reportTime":"2026-04-15T00:35:00.000Z","temp":12.2,"dewp":-4.1,"wdir":200,"wspd":3,"visib":"10+","altim":1015,"qcField":14,"metarType":"METAR","rawOb":"METAR KHCR 150035Z AUTO 20003KT 10SM OVC070 12/M04 A2997 RMK AO2 T01221041 $","lat":40.4774,"lon":-111.4329,"elev":1708,"name":"Heber City Muni, UT, US","cover":"OVC","clouds":[{"cover":"OVC","base":7000}],"fltCat":"VFR"},{"icaoId":"KHTH","receiptTime":"2026-04-15T00:40:23.944Z","obsTime":1776213300,"reportTime":"2026-04-15T00:35:00.000Z","temp":19,"dewp":-9,"wdir":330,"wspd":11,"visib":"10+","altim":1016,"qcField":6,"metarType":"METAR","rawOb":"METAR KHTH 150035Z AUTO 33011KT 10SM CLR 19/M09 A3000 RMK A01","lat":38.5448,"lon":-118.6314,"elev":1281,"name":"Hawthorne Muni, NV, US","cover":"CLR","clouds":[],"fltCat":"VFR"},{"icaoId":"KMHR","receiptTime":"2026-04-15T00:40:23.613Z","obsTime":1776213300,"reportTime":"2026-04-15T00:35:00.000Z","temp":20,"dewp":8,"wdir":210,"wspd":8,"visib":"10+","altim":1019,"qcField":6,"metarType":"METAR","rawOb":"METAR KMHR 150035Z AUTO 21008KT 10SM CLR 20/08 A3009 RMK AO2","lat":38.56,"lon":-121.284,"elev":30,"name":"Sacramento/Mather Fld, CA, US","cover":"CLR","clouds":[],"fltCat":"VFR"},{"icaoId":"KSEZ","receiptTime":"2026-04-15T00:40:20.567Z","obsTime":1776213300,"reportTime":"2026-04-15T00:35:00.000Z","temp":16,"dewp":-3,"wdir":0,"wspd":0,"visib":"10+","altim":1016.7,"qcField":6,"metarType":"METAR","rawOb":"METAR KSEZ 150035Z AUTO 00000KT 10SM CLR 16/M03 A3002 RMK AO2","lat":34.8467,"lon":-111.7884,"elev":1455,"name":"Sedona Arpt, AZ, US","cover":"CLR","clouds":[],"fltCat":"VFR"},{"icaoId":"KAST","receiptTime":"2026-04-15T00:22:03.548Z","obsTime":1776212280,"reportTime":"2026-04-15T00:18:00.000Z","temp":9.4,"dewp":7.8,"wdir":220,"wspd":11,"wgst":27,"visib":3,"altim":1013.3,"qcField":6,"wxString":"-RA BR","precip":0.03,"metarType":"SPECI","rawOb":"SPECI KAST 150018Z AUTO 22011G27KT 3SM -RA BR FEW010 BKN015 OVC030 09/08 A2992 RMK AO2 PK WND 21027/0006 P0003 T00940078","lat":46.157,"lon":-123.8833,"elev":3,"name":"Astoria Rgnl, OR, US","cover":"OVC","clouds":[{"cover":"FEW","base":1000},{"cover":"BKN","base":1500},{"cover":"OVC","base":3000}],"fltCat":"MVFR"},{"icaoId":"KNYL","receiptTime":"2026-04-15T00:00:29.412Z","obsTime":1776211020,"reportTime":"2026-04-15T00:00:00.000Z","temp":26.1,"dewp":1.1,"wdir":270,"wspd":5,"visib":"10+","altim":1013.3,"slp":1012.9,"qcField":4,"presTend":-2.4,"maxT":26.7,"minT":21.7,"metarType":"METAR","rawOb":"METAR KNYL 142357Z 27005KT 10SM CLR 26/01 A2992 RMK AO2 SLP129 T02610011 10267 20217 56024","lat":32.66,"lon":-114.6078,"elev":58,"name":"Yuma , AZ, US","cover":"CLR","clouds":[],"fltCat":"VFR"},{"icaoId":"KNFL","receiptTime":"2026-04-15T00:00:26.560Z","obsTime":1776211020,"reportTime":"2026-04-15T00:00:00.000Z","temp":18.9,"dewp":-7.8,"wdir":280,"wspd":10,"visib":"10+","altim":1015.7,"slp":1012.6,"qcField":4,"presTend":-2,"maxT":19.4,"minT":12.8,"metarType":"METAR","rawOb":"METAR KNFL 142357Z 28010KT 10SM FEW200 SCT250 19/M08 A2999 RMK AO2 SLP126 T01891078 10194 20128 56020","lat":39.417,"lon":-118.705,"elev":1199,"name":"Fallon , NV, US","cover":"SCT","clouds":[{"cover":"FEW","base":20000},{"cover":"SCT","base":25000}],"fltCat":"VFR"},{"icaoId":"KFLG","receiptTime":"2026-04-15T00:00:31.275Z","obsTime":1776211020,"reportTime":"2026-04-15T00:00:00.000Z","temp":8.3,"dewp":-3.9,"wdir":"VRB","wspd":4,"visib":"10+","altim":1018.4,"slp":1014.9,"qcField":4,"presTend":-0.8,"maxT":10,"minT":4.4,"metarType":"METAR","rawOb":"METAR KFLG 142357Z VRB04KT 10SM CLR 08/M04 A3007 RMK AO2 SLP149 T00831039 10100 20044 56008","lat":35.1443,"lon":-111.6664,"elev":2134,"name":"Flagstaff/Pulliam Arpt, AZ, US","cover":"CLR","clouds":[],"fltCat":"VFR"},{"icaoId":"KSGU","receiptTime":"2026-04-14T23:58:42.819Z","obsTime":1776210960,"reportTime":"2026-04-15T00:00:00.000Z","temp":18.9,"dewp":1.7,"wdir":170,"wspd":3,"visib":"10+","altim":1015.3,"slp":1014.1,"qcField":6,"presTend":-1.6,"maxT":20,"minT":12.2,"metarType":"METAR","rawOb":"METAR KSGU 142356Z AUTO 17003KT 10SM CLR 19/02 A2998 RMK AO2 SLP141 T01890017 10200 20122 56016","lat":37.0444,"lon":-113.5034,"elev":877,"name":"Saint George Muni, UT, US","cover":"CLR","clouds":[],"fltCat":"VFR"},{"icaoId":"KENV","receiptTime":"2026-04-14T23:58:44.134Z","obsTime":1776210960,"reportTime":"2026-04-15T00:00:00.000Z","temp":16.1,"dewp":-6.1,"wdir":170,"wspd":4,"visib":"10+","altim":1015.3,"slp":1014.4,"qcField":6,"presTend":-1,"maxT":17.2,"minT":12.2,"metarType":"METAR","rawOb":"METAR KENV 142356Z AUTO 17004KT 10SM FEW095 16/M06 A2998 RMK AO2 SLP144 T01611061 10172 20122 56010","lat":40.7211,"lon":-114.0312,"elev":1291,"name":"Wendover Arpt, UT, US","cover":"FEW","clouds":[{"cover":"FEW","base":9500}],"fltCat":"VFR"},{"icaoId":"KFNL","receiptTime":"2026-04-14T23:58:44.238Z","obsTime":1776210960,"reportTime":"2026-04-15T00:00:00.000Z","temp":11.7,"dewp":-1.7,"wdir":290,"wspd":8,"visib":"10+","altim":1011.3,"slp":1007.9,"qcField":14,"presTend":0.2,"maxT":15.6,"minT":11.7,"metarType":"METAR","rawOb":"METAR KFNL 142356Z AUTO 29008KT 10SM OVC060 12/M02 A2986 RMK AO2 SLP079 T01171017 10156 20117 53002 $","lat":40.4427,"lon":-105.0097,"elev":1529,"name":"Fort Collins/N Colorado Rgnl, CO, US","cover":"OVC","clouds":[{"cover":"OVC","base":6000}],"fltCat":"VFR"},{"icaoId":"KTPH","receiptTime":"2026-04-15T00:00:22.790Z","obsTime":1776210960,"reportTime":"2026-04-15T00:00:00.000Z","temp":16.1,"dewp":-10.6,"wdir":310,"wspd":11,"wgst":22,"visib":"10+","altim":1017,"slp":1014.8,"qcField":6,"presTend":-1.4,"maxT":16.7,"minT":11.1,"metarType":"METAR","rawOb":"METAR KTPH 142356Z AUTO 31011G22KT 10SM CLR 16/M11 A3003 RMK AO2 SLP148 T01611106 10167 20111 56014","lat":38.0505,"lon":-117.0906,"elev":1647,"name":"Tonopah Arpt, NV, US","cover":"CLR","clouds":[],"fltCat":"VFR"},{"icaoId":"KUKI","receiptTime":"2026-04-15T00:00:22.804Z","obsTime":1776210960,"reportTime":"2026-04-15T00:00:00.000Z","temp":18.9,"dewp":7.2,"wdir":340,"wspd":14,"wgst":21,"visib":"10+","altim":1019.4,"slp":1018.8,"qcField":6,"presTend":-1.6,"maxT":20,"minT":11.1,"metarType":"METAR","rawOb":"METAR KUKI 142356Z AUTO 34014G21KT 10SM CLR 19/07 A3010 RMK AO2 SLP188 T01890072 10200 20111 56016","lat":39.1278,"lon":-123.2001,"elev":183,"name":"Ukiah Muni, CA, US","cover":"CLR","clouds":[],"fltCat":"VFR"},{"icaoId":"KCEC","receiptTime":"2026-04-15T00:00:22.876Z","obsTime":1776210960,"reportTime":"2026-04-15T00:00:00.000Z","temp":12.2,"dewp":6.1,"wdir":230,"wspd":7,"visib":"10+","altim":1023.1,"slp":1023.2,"qcField":6,"presTend":-1.1,"maxT":13.9,"minT":11.7,"metarType":"METAR","rawOb":"METAR KCEC 142356Z AUTO 23007KT 10SM OVC041 12/06 A3021 RMK AO2 SLP232 T01220061 10139 20117 57011","lat":41.7836,"lon":-124.238,"elev":17,"name":"Crescent City/McNama, CA, US","cover":"OVC","clouds":[{"cover":"OVC","base":4100}],"fltCat":"VFR"},{"icaoId":"KHDN","receiptTime":"2026-04-14T23:58:32.219Z","obsTime":1776210960,"reportTime":"2026-04-15T00:00:00.000Z","temp":3.9,"dewp":0.6,"wdir":260,"wspd":8,"visib":"10+","altim":1015.7,"slp":1015.3,"qcField":6,"presTend":0.6,"maxT":6.1,"minT":1.1,"pcp6hr":0.02,"metarType":"METAR","rawOb":"METAR KHDN 142356Z AUTO 26008KT 10SM OVC065 04/01 A2999 RMK AO2 SLP153 60002 T00390006 10061 20011 51006","lat":40.4842,"lon":-107.2296,"elev":2012,"name":"Hayden/Yampa Valley Arpt, CO, US","cover":"OVC","clouds":[{"cover":"OVC","base":6500}],"fltCat":"VFR"},{"icaoId":"KJAC","receiptTime":"2026-04-14T23:58:40.109Z","obsTime":1776210960,"reportTime":"2026-04-15T00:00:00.000Z","temp":5,"dewp":-3.3,"wdir":210,"wspd":9,"visib":"10+","altim":1015,"slp":1016.5,"qcField":4,"maxT":7.8,"minT":4.4,"metarType":"METAR","rawOb":"METAR KJAC 142356Z 21009KT 10SM SCT050 OVC070 05/M03 A2997 RMK AO2 SLP165 T00501033 10078 20044 55000","lat":43.6129,"lon":-110.7366,"elev":1967,"name":"Jackson Hole Arpt, WY, US","cover":"OVC","clouds":[{"cover":"SCT","base":5000},{"cover":"OVC","base":7000}],"fltCat":"VFR"},{"icaoId":"KPWT","receiptTime":"2026-04-14T23:58:42.633Z","obsTime":1776210960,"reportTime":"2026-04-15T00:00:00.000Z","temp":7.2,"dewp":7.2,"wdir":190,"wspd":14,"wgst":20,"visib":8,"altim":1009.9,"slp":1010.5,"qcField":14,"wxString":"RA","presTend":-1.7,"maxT":7.8,"minT":6.7,"metarType":"METAR","rawOb":"METAR KPWT 142356Z AUTO 19014G20KT 8SM RA BKN006 OVC012 07/07 A2982 RMK AO2 CIG 005V009 SLP105 6//// T00720072 10078 20067 56017 PNO $","lat":47.4942,"lon":-122.7594,"elev":143,"name":"Bremerton Arpt, WA, US","cover":"OVC","clouds":[{"cover":"BKN","base":600},{"cover":"OVC","base":1200}],"fltCat":"IFR"},{"icaoId":"KHND","receiptTime":"2026-04-14T23:58:39.463Z","obsTime":1776210960,"reportTime":"2026-04-15T00:00:00.000Z","temp":22.8,"dewp":-5,"wdir":"VRB","wspd":3,"visib":"10+","altim":1015,"slp":1015.4,"qcField":12,"presTend":-1.8,"maxT":23.3,"minT":17.8,"metarType":"METAR","rawOb":"METAR KHND 142356Z VRB03KT 10SM CLR 23/M05 A2997 RMK AO2 SLP154 T02281050 10233 20178 56018 $","lat":35.9657,"lon":-115.1343,"elev":740,"name":"Henderson Exec, NV, US","cover":"CLR","clouds":[],"fltCat":"VFR"},{"icaoId":"KGUC","receiptTime":"2026-04-14T23:58:31.967Z","obsTime":1776210960,"reportTime":"2026-04-15T00:00:00.000Z","temp":4.4,"dewp":-3.9,"wdir":230,"wspd":6,"visib":"10+","altim":1016,"slp":1014.5,"qcField":14,"presTend":1,"maxT":7.2,"minT":1.7,"pcp6hr":0.01,"metarType":"METAR","rawOb":"METAR KGUC 142356Z AUTO 23006KT 10SM BKN060 BKN080 04/M04 A3000 RMK AO2 SLP145 60001 T00441039 10072 20017 51010 $","lat":38.5322,"lon":-106.9419,"elev":2337,"name":"Gunnison Arpt, CO, US","cover":"BKN","clouds":[{"cover":"BKN","base":6000},{"cover":"BKN","base":8000}],"fltCat":"VFR"},{"icaoId":"KLWS","receiptTime":"2026-04-15T00:00:23.654Z","obsTime":1776210960,"reportTime":"2026-04-15T00:00:00.000Z","temp":12.8,"dewp":0.6,"wdir":"VRB","wspd":6,"visib":"10+","altim":1012.3,"slp":1012.6,"qcField":4,"presTend":-0.9,"maxT":13.9,"minT":10.6,"metarType":"METAR","rawOb":"METAR KLWS 142356Z VRB06KT 10SM FEW060 BKN080 OVC095 13/01 A2989 RMK AO2 SLP126 T01280006 10139 20106 56009","lat":46.3746,"lon":-117.0153,"elev":435,"name":"Lewiston/Nez Perce Cnty, ID, US","cover":"OVC","clouds":[{"cover":"FEW","base":6000},{"cover":"BKN","base":8000},{"cover":"OVC","base":9500}],"fltCat":"VFR"},{"icaoId":"KVIS","receiptTime":"2026-04-14T23:58:43.009Z","obsTime":1776210960,"reportTime":"2026-04-15T00:00:00.000Z","temp":23.3,"dewp":5.6,"wdir":300,"wspd":7,"visib":"10+","altim":1018.4,"slp":1018.3,"qcField":14,"presTend":-2.2,"maxT":23.3,"minT":17.8,"metarType":"METAR","rawOb":"METAR KVIS 142356Z AUTO 30007KT 10SM CLR 23/06 A3007 RMK AO2 SLP183 6//// T02330056 10233 20178 56022 PNO $","lat":36.3135,"lon":-119.3884,"elev":92,"name":"Visalia Muni, CA, US","cover":"CLR","clouds":[],"fltCat":"VFR"},{"icaoId":"KDUG","receiptTime":"2026-04-15T00:02:04.097Z","obsTime":1776210960,"reportTime":"2026-04-15T00:00:00.000Z","temp":23.9,"dewp":-13.3,"wdir":270,"wspd":17,"wgst":25,"visib":"10+","altim":1014.3,"slp":1008.9,"qcField":38,"presTend":-1,"maxT":25.6,"minT":18.9,"metarType":"METAR","rawOb":"METAR KDUG 142356Z AUTO 27017G25KT 10SM CLR 24/M13 A2995 RMK AO2 PK WND 27029/2317 SLP089 T02391133 10256 20189 55010 TSNO","lat":31.4725,"lon":-109.6022,"elev":1260,"name":"Douglas/Bisbee Intl, AZ, US","cover":"CLR","clouds":[],"fltCat":"VFR"},{"icaoId":"KSBP","receiptTime":"2026-04-15T00:00:23.683Z","obsTime":1776210960,"reportTime":"2026-04-15T00:00:00.000Z","temp":16.7,"dewp":8.9,"wdir":310,"wspd":24,"wgst":31,"visib":"10+","altim":1018.4,"slp":1018.2,"qcField":4,"presTend":-1,"maxT":20.6,"minT":16.7,"metarType":"METAR","rawOb":"METAR KSBP 142356Z 31024G31KT 10SM CLR 17/09 A3007 RMK AO2 PK WND 31032/2313 SLP182 T01670089 10206 20167 56010","lat":35.2381,"lon":-120.644,"elev":52,"name":"San Luis Obispo/San Luis Cnty, CA, US","cover":"CLR","clouds":[],"fltCat":"VFR"},{"icaoId":"KPVU","receiptTime":"2026-04-14T23:58:42.592Z","obsTime":1776210960,"reportTime":"2026-04-15T00:00:00.000Z","temp":13.9,"dewp":-2.2,"wdir":320,"wspd":7,"visib":"10+","altim":1015.7,"slp":1014.3,"qcField":4,"presTend":-0.3,"maxT":14.4,"minT":11.7,"metarType":"METAR","rawOb":"METAR KPVU 142356Z 32007KT 10SM SCT070 14/M02 A2999 RMK AO2 SLP143 T01391022 10144 20117 56003","lat":40.224,"lon":-111.7252,"elev":1370,"name":"Provo Muni, UT, US","cover":"SCT","clouds":[{"cover":"SCT","base":7000}],"fltCat":"VFR"},{"icaoId":"KSDF","receiptTime":"2026-04-15T00:00:22.589Z","obsTime":1776210960,"reportTime":"2026-04-15T00:00:00.000Z","temp":26.7,"dewp":16.1,"wdir":200,"wspd":12,"wgst":21,"visib":"10+","altim":1014.3,"slp":1013.8,"qcField":4,"presTend":-0.8,"maxT":29.4,"minT":26.7,"metarType":"METAR","rawOb":"METAR KSDF 142356Z 20012G21KT 10SM FEW050 27/16 A2995 RMK AO2 PK WND 20027/2302 SLP138 T02670161 10294 20267 56008","lat":38.1774,"lon":-85.7308,"elev":146,"name":"Louisville Intl, KY, US","cover":"FEW","clouds":[{"cover":"FEW","base":5000}],"fltCat":"VFR"},{"icaoId":"KEKO","receiptTime":"2026-04-15T00:00:22.916Z","obsTime":1776210960,"reportTime":"2026-04-15T00:00:00.000Z","temp":15,"dewp":-5.6,"wdir":280,"wspd":10,"visib":"10+","altim":1015.7,"slp":1014.5,"qcField":6,"presTend":-1.2,"maxT":15.6,"minT":9.4,"metarType":"METAR","rawOb":"METAR KEKO 142356Z AUTO 28010KT 10SM FEW080 15/M06 A2999 RMK AO2 SLP145 T01501056 10156 20094 56012","lat":40.824,"lon":-115.7863,"elev":1541,"name":"Elko Rgnl, NV, US","cover":"FEW","clouds":[{"cover":"FEW","base":8000}],"fltCat":"VFR"},{"icaoId":"KSLE","receiptTime":"2026-04-15T00:00:22.778Z","obsTime":1776210960,"reportTime":"2026-04-15T00:00:00.000Z","temp":9.4,"dewp":6.7,"wdir":180,"wspd":14,"wgst":24,"visib":"10+","altim":1017.4,"slp":1017.2,"qcField":4,"wxString":"-RA","presTend":-1.3,"maxT":10,"minT":9.4,"precip":0.01,"pcp6hr":0.05,"metarType":"METAR","rawOb":"METAR KSLE 142356Z 18014G24KT 10SM -RA FEW020 BKN048 OVC055 09/07 A3004 RMK AO2 SLP172 P0001 60005 T00940067 10100 20094 56013","lat":44.9049,"lon":-123.001,"elev":63,"name":"Salem Muni, OR, US","cover":"OVC","clouds":[{"cover":"FEW","base":2000},{"cover":"BKN","base":4800},{"cover":"OVC","base":5500}],"fltCat":"VFR"},{"icaoId":"KSFO","receiptTime":"2026-04-15T00:00:23.701Z","obsTime":1776210960,"reportTime":"2026-04-15T00:00:00.000Z","temp":15,"dewp":6.7,"wdir":290,"wspd":18,"wgst":27,"visib":"10+","altim":1021.8,"slp":1021.5,"qcField":12,"presTend":-1.4,"maxT":16.1,"minT":13.9,"metarType":"METAR","rawOb":"METAR KSFO 142356Z 29018G27KT 10SM FEW027 15/07 A3017 RMK AO2 PK WND 29029/2302 SLP215 T01500067 10161 20139 56014 $","lat":37.6196,"lon":-122.3656,"elev":2,"name":"San Francisco Intl, CA, US","cover":"FEW","clouds":[{"cover":"FEW","base":2700}],"fltCat":"VFR"},{"icaoId":"KINW","receiptTime":"2026-04-15T00:00:23.543Z","obsTime":1776210960,"reportTime":"2026-04-15T00:00:00.000Z","temp":15.6,"dewp":-2.8,"wdir":320,"wspd":11,"visib":"10+","altim":1016.3,"slp":1013.3,"qcField":6,"presTend":-0.6,"maxT":17.2,"minT":12.8,"metarType":"METAR","rawOb":"METAR KINW 142356Z AUTO 32011KT 10SM OVC095 16/M03 A3001 RMK AO2 SLP133 T01561028 10172 20128 56006","lat":35.0279,"lon":-110.7221,"elev":1492,"name":"Winslow/Lindberg Rgnl, AZ, US","cover":"OVC","clouds":[{"cover":"OVC","base":9500}],"fltCat":"VFR"},{"icaoId":"KCGZ","receiptTime":"2026-04-14T23:58:43.889Z","obsTime":1776210960,"reportTime":"2026-04-15T00:00:00.000Z","temp":23.9,"dewp":-5,"wdir":270,"wspd":10,"visib":"10+","altim":1014,"slp":1013.2,"qcField":14,"maxT":24.4,"minT":20.6,"metarType":"METAR","rawOb":"METAR KCGZ 142356Z AUTO 27010KT 10SM CLR 24/M05 A2994 RMK AO2 SLP132 6//// T02391050 10244 20206 $","lat":32.9531,"lon":-111.7725,"elev":444,"name":"Casa Granda Muni, AZ, US","cover":"CLR","clouds":[],"fltCat":"VFR"},{"icaoId":"KEGE","receiptTime":"2026-04-14T23:58:44.077Z","obsTime":1776210960,"reportTime":"2026-04-15T00:00:00.000Z","temp":5.6,"dewp":-1.7,"wdir":220,"wspd":17,"wgst":25,"visib":"10+","altim":1016,"slp":1014.2,"qcField":4,"presTend":0.9,"maxT":10,"minT":4.4,"pcp6hr":0.005,"metarType":"METAR","rawOb":"METAR KEGE 142356Z 22017G25KT 10SM FEW055 06/M02 A3000 RMK AO2 PK WND 23031/2332 SLP142 60000 T00561017 10100 20044 53009","lat":39.6448,"lon":-106.9176,"elev":1993,"name":"Eagle Cnty Rgnl, CO, US","cover":"FEW","clouds":[{"cover":"FEW","base":5500}],"fltCat":"VFR"},{"icaoId":"KLAS","receiptTime":"2026-04-15T00:00:23.639Z","obsTime":1776210960,"reportTime":"2026-04-15T00:00:00.000Z","temp":23.3,"dewp":-4.4,"wdir":"VRB","wspd":3,"visib":"10+","altim":1014.3,"slp":1012.7,"qcField":4,"presTend":-1.9,"maxT":23.9,"minT":18.9,"metarType":"METAR","rawOb":"METAR KLAS 142356Z VRB03KT 10SM FEW100 FEW250 23/M04 A2995 RMK AO2 SLP127 T02331044 10239 20189 56019","lat":36.0719,"lon":-115.1634,"elev":662,"name":"Las Vegas/Reid Intl, NV, US","cover":"FEW","clouds":[{"cover":"FEW","base":10000},{"cover":"FEW","base":25000}],"fltCat":"VFR"},{"icaoId":"KRDM","receiptTime":"2026-04-15T00:00:23.670Z","obsTime":1776210960,"reportTime":"2026-04-15T00:00:00.000Z","temp":10,"dewp":-3.3,"wdir":0,"wspd":0,"visib":"10+","altim":1014.6,"slp":1015.4,"qcField":4,"presTend":-1.3,"maxT":10,"minT":7.8,"metarType":"METAR","rawOb":"METAR KRDM 142356Z 00000KT 10SM BKN090 10/M03 A2996 RMK AO2 SLP154 T01001033 10100 20078 56013","lat":44.2558,"lon":-121.1407,"elev":930,"name":"Redmond Muni, OR, US","cover":"BKN","clouds":[{"cover":"BKN","base":9000}],"fltCat":"VFR"},{"icaoId":"KBZN","receiptTime":"2026-04-15T00:00:22.860Z","obsTime":1776210960,"reportTime":"2026-04-15T00:00:00.000Z","temp":15,"dewp":-5,"wdir":240,"wspd":15,"wgst":25,"visib":"10+","altim":1007.5,"slp":1006.4,"qcField":4,"presTend":-1.2,"maxT":15.6,"minT":9.4,"metarType":"METAR","rawOb":"METAR KBZN 142356Z 24015G25KT 10SM SCT090 15/M05 A2975 RMK AO2 PK WND 26027/2344 SLP064 T01501050 10156 20094 56012","lat":45.7876,"lon":-111.1615,"elev":1349,"name":"Bozeman/Gallatin Fld, MT, US","cover":"SCT","clouds":[{"cover":"SCT","base":9000}],"fltCat":"VFR"},{"icaoId":"KCHS","receiptTime":"2026-04-15T00:00:12.290Z","obsTime":1776210960,"reportTime":"2026-04-15T00:00:00.000Z","temp":21.7,"dewp":14.4,"wdir":180,"wspd":11,"visib":"10+","altim":1021.1,"slp":1021,"qcField":4,"presTend":0.3,"maxT":29.4,"minT":21.7,"metarType":"METAR","rawOb":"METAR KCHS 142356Z 18011KT 10SM FEW250 22/14 A3015 RMK AO2 SLP210 T02170144 10294 20217 51003","lat":32.8995,"lon":-80.0407,"elev":12,"name":"Charleston Intl, SC, US","cover":"FEW","clouds":[{"cover":"FEW","base":25000}],"fltCat":"VFR"},{"icaoId":"KJAX","receiptTime":"2026-04-15T00:00:23.112Z","obsTime":1776210960,"reportTime":"2026-04-15T00:00:00.000Z","temp":22.8,"dewp":13.3,"wdir":130,"wspd":8,"visib":"10+","altim":1021.1,"slp":1021,"qcField":12,"presTend":-0.3,"maxT":30,"minT":22.8,"metarType":"METAR","rawOb":"METAR KJAX 142356Z 13008KT 10SM FEW060 23/13 A3015 RMK AO2 SLP210 T02280133 10300 20228 55003 $","lat":30.4953,"lon":-81.6937,"elev":8,"name":"Jacksonville Intl, FL, US","cover":"FEW","clouds":[{"cover":"FEW","base":6000}],"fltCat":"VFR"},{"icaoId":"KCOD","receiptTime":"2026-04-14T23:58:43.937Z","obsTime":1776210960,"reportTime":"2026-04-15T00:00:00.000Z","temp":12.8,"dewp":-6.7,"wdir":280,"wspd":18,"wgst":28,"visib":"10+","altim":1009.6,"slp":1008.1,"qcField":14,"presTend":0.4,"maxT":16.1,"minT":12.8,"metarType":"METAR","rawOb":"METAR KCOD 142356Z AUTO 28018G28KT 10SM CLR 13/M07 A2981 RMK AO2 PK WND 26028/2347 SLP081 T01281067 10161 20128 53004 $","lat":44.52,"lon":-109.0268,"elev":1550,"name":"Cody/Yellowstone Rgnl, WY, US","cover":"CLR","clouds":[],"fltCat":"VFR"},{"icaoId":"KSDY","receiptTime":"2026-04-14T23:58:42.708Z","obsTime":1776210960,"reportTime":"2026-04-15T00:00:00.000Z","temp":19.4,"dewp":1.1,"wdir":220,"wspd":7,"visib":"10+","altim":1003.8,"slp":1004.3,"qcField":14,"presTend":-1.2,"maxT":20.6,"minT":12.8,"metarType":"METAR","rawOb":"METAR KSDY 142356Z AUTO 22007KT 10SM CLR 19/01 A2964 RMK AO2 SLP043 T01940011 10206 20128 56012 $","lat":47.7029,"lon":-104.1951,"elev":600,"name":"Sidney/Richland Muni, MT, US","cover":"CLR","clouds":[],"fltCat":"VFR"},{"icaoId":"KRNO","receiptTime":"2026-04-14T23:58:42.234Z","obsTime":1776210900,"reportTime":"2026-04-15T00:00:00.000Z","temp":16.1,"dewp":-4.4,"wdir":290,"wspd":20,"wgst":28,"visib":"10+","altim":1016.7,"slp":1014.8,"qcField":4,"presTend":-1.6,"maxT":17.2,"minT":11.1,"metarType":"METAR","rawOb":"METAR KRNO 142355Z 29020G28KT 10SM FEW065 BKN200 16/M04 A3002 RMK AO2 PK WND 29028/2349 SLP148 T01611044 10172 20111 56016","lat":39.5077,"lon":-119.7683,"elev":1344,"name":"Reno/Tahoe Intl, NV, US","cover":"BKN","clouds":[{"cover":"FEW","base":6500},{"cover":"BKN","base":20000}],"fltCat":"VFR"},{"icaoId":"KEND","receiptTime":"2026-04-15T00:16:03.983Z","obsTime":1776210900,"reportTime":"2026-04-15T00:00:00.000Z","temp":24.6,"dewp":19.6,"wdir":170,"wspd":21,"wgst":26,"visib":"10+","altim":1007.2,"slp":1006,"qcField":12,"presTend":0.1,"maxT":29.8,"minT":24.5,"metarType":"METAR","rawOb":"METAR KEND 142355Z 17021G26KT 10SM BKN100 25/20 A2974 RMK AO2A PK WND 17029/17 LTG DSNT S-SW SLP060 T02460196 10298 20245 53001 $","lat":36.338,"lon":-97.919,"elev":392,"name":"Enid/Vance AFB, OK, US","cover":"BKN","clouds":[{"cover":"BKN","base":10000}],"fltCat":"VFR"},{"icaoId":"KGPI","receiptTime":"2026-04-14T23:58:42.089Z","obsTime":1776210900,"reportTime":"2026-04-15T00:00:00.000Z","temp":8.9,"dewp":-3.3,"wdir":270,"wspd":10,"visib":"10+","altim":1008.9,"slp":1009.4,"qcField":4,"presTend":-0.5,"maxT":11.7,"minT":8.3,"metarType":"METAR","rawOb":"METAR KGPI 142355Z 27010KT 10SM BKN065 09/M03 A2979 RMK AO2 SLP094 T00891033 10117 20083 55005","lat":48.3041,"lon":-114.2643,"elev":903,"name":"Kalispell/Glacier Park Intl, MT, US","cover":"BKN","clouds":[{"cover":"BKN","base":6500}],"fltCat":"VFR"},{"icaoId":"KCMA","receiptTime":"2026-04-14T23:58:43.921Z","obsTime":1776210900,"reportTime":"2026-04-15T00:00:00.000Z","temp":20,"dewp":7.8,"wdir":240,"wspd":10,"visib":"10+","altim":1017.4,"slp":1018,"qcField":4,"presTend":-1.4,"maxT":20.6,"minT":17.8,"metarType":"METAR","rawOb":"METAR KCMA 142355Z 24010KT 10SM CLR 20/08 A3004 RMK AO2 SLP180 T02000078 10206 20178 58014","lat":34.2114,"lon":-119.0876,"elev":20,"name":"Camarillo Arpt, CA, US","cover":"CLR","clouds":[],"fltCat":"VFR"},{"icaoId":"KIWA","receiptTime":"2026-04-14T23:58:59.143Z","obsTime":1776210840,"reportTime":"2026-04-15T00:00:00.000Z","temp":24,"dewp":-4,"wdir":350,"wspd":7,"visib":"10+","altim":1014,"qcField":0,"metarType":"METAR","rawOb":"METAR KIWA 142354Z 35007KT 10SM CLR 24/M04 A2994","lat":33.3008,"lon":-111.6437,"elev":420,"name":"Phoenix/Mesa Gateway Arpt, AZ, US","cover":"CLR","clouds":[],"fltCat":"VFR"},{"icaoId":"KSTL","receiptTime":"2026-04-14T23:54:12.727Z","obsTime":1776210660,"reportTime":"2026-04-15T00:00:00.000Z","temp":29.4,"dewp":17.2,"wdir":190,"wspd":15,"wgst":26,"visib":"10+","altim":1009.6,"slp":1008.2,"qcField":12,"presTend":-0.2,"maxT":31.7,"minT":28.3,"metarType":"METAR","rawOb":"METAR KSTL 142351Z 19015G26KT 170V230 10SM FEW065 BKN250 29/17 A2981 RMK AO2 PK WND 21026/2344 SLP082 T02940172 10317 20283 56002 $","lat":38.7525,"lon":-90.3734,"elev":163,"name":"St Louis/Lambert Intl, MO, US","cover":"BKN","clouds":[{"cover":"FEW","base":6500},{"cover":"BKN","base":25000}],"fltCat":"VFR"},{"icaoId":"KADM","receiptTime":"2026-04-14T23:58:03.912Z","obsTime":1776210600,"reportTime":"2026-04-15T00:00:00.000Z","temp":24,"dewp":21,"wdir":170,"wspd":14,"visib":"10+","altim":1011.9,"qcField":0,"metarType":"METAR","rawOb":"METAR KADM 142350Z 17014KT 10SM SCT022 OVC080 24/21 A2988 RMK LTG DSNT W AND NW","lat":34.3007,"lon":-97.0089,"elev":223,"name":"Ardmore Muni, OK, US","cover":"OVC","clouds":[{"cover":"SCT","base":2200},{"cover":"OVC","base":8000}],"fltCat":"VFR"},{"icaoId":"KAEG","receiptTime":"2026-04-14T23:50:29.991Z","obsTime":1776210600,"reportTime":"2026-04-15T00:00:00.000Z","temp":17,"dewp":-13,"wdir":250,"wspd":23,"wgst":31,"visib":"10+","altim":1014.3,"qcField":0,"metarType":"METAR","rawOb":"METAR KAEG 142350Z 25023G31KT 10SM SCT090 17/M13 A2995","lat":35.15,"lon":-106.7929,"elev":1771,"name":"Albuquerque/Double Eagle Arpt, NM, US","cover":"SCT","clouds":[{"cover":"SCT","base":9000}],"fltCat":"VFR"},{"icaoId":"KIFP","receiptTime":"2026-04-14T23:46:40.489Z","obsTime":1776210420,"reportTime":"2026-04-15T00:00:00.000Z","temp":26,"dewp":-2,"wdir":260,"wspd":7,"visib":"10+","altim":1013,"qcField":0,"metarType":"METAR","rawOb":"METAR KIFP 142347Z 26007KT 10SM CLR 26/M02 A2991","lat":35.1487,"lon":-114.5611,"elev":210,"name":"Bullhead City Intl, AZ, US","cover":"CLR","clouds":[],"fltCat":"VFR"},{"icaoId":"KGEU","receiptTime":"2026-04-14T23:59:17.211Z","obsTime":1776210420,"reportTime":"2026-04-15T00:00:00.000Z","temp":25,"dewp":-2,"wdir":220,"wspd":7,"visib":"10+","altim":1012.6,"qcField":0,"metarType":"METAR","rawOb":"METAR KGEU 142347Z 22007KT 10SM CLR 25/M02 A2990","lat":33.528,"lon":-112.293,"elev":319,"name":"Glendale Muni, AZ, US","cover":"CLR","clouds":[],"fltCat":"VFR"},{"icaoId":"KBJC","receiptTime":"2026-04-14T23:52:11.155Z","obsTime":1776210300,"reportTime":"2026-04-15T00:00:00.000Z","temp":7,"dewp":-2,"wdir":250,"wspd":9,"visib":"10+","altim":1011.6,"qcField":0,"wxString":"VCSH","metarType":"METAR","rawOb":"METAR KBJC 142345Z 25009KT 10SM VCSH SCT060 SCT070 OVC095 07/M02 A2987 RMK VIRGA ALQDS","lat":39.9008,"lon":-105.1042,"elev":1694,"name":"Rocky Mtn Metro, CO, US","cover":"OVC","clouds":[{"cover":"SCT","base":6000},{"cover":"SCT","base":7000},{"cover":"OVC","base":9500}],"fltCat":"VFR"}]