[{"icaoId":"KEGE","receiptTime":"2026-04-18T13:57:05.013Z","obsTime":1776520560,"reportTime":"2026-04-18T14:00:00.000Z","temp":-5,"dewp":-8.3,"wdir":70,"wspd":7,"visib":"10+","altim":1028.2,"slp":1030.8,"qcField":4,"metarType":"METAR","rawOb":"METAR KEGE 181356Z 07007KT 10SM CLR M05/M08 A3036 RMK AO2 SLP308 T10501083","lat":39.6448,"lon":-106.9176,"elev":1993,"name":"Eagle Cnty Rgnl, CO, US","cover":"CLR","clouds":[],"fltCat":"VFR"},{"icaoId":"KCOD","receiptTime":"2026-04-18T13:57:04.421Z","obsTime":1776520560,"reportTime":"2026-04-18T14:00:00.000Z","temp":-3.3,"dewp":-7.8,"wdir":0,"wspd":0,"visib":"10+","altim":1022.1,"slp":1024.7,"qcField":78,"metarType":"METAR","rawOb":"METAR KCOD 181356Z AUTO 00000KT 10SM CLR M03/M08 A3018 RMK AO2 SLP247 T10331078 FZRANO $","lat":44.52,"lon":-109.0268,"elev":1550,"name":"Cody/Yellowstone Rgnl, WY, US","cover":"CLR","clouds":[],"fltCat":"VFR"},{"icaoId":"KHAF","receiptTime":"2026-04-18T13:56:31.857Z","obsTime":1776520500,"reportTime":"2026-04-18T14:00:00.000Z","temp":5,"dewp":5,"wdir":0,"wspd":0,"visib":"10+","altim":1016.3,"qcField":6,"metarType":"METAR","rawOb":"METAR KHAF 181355Z AUTO 00000KT 10SM CLR 05/05 A3001 RMK AO2","lat":37.5136,"lon":-122.4996,"elev":11,"name":"Half Moon Bay Arpt, CA, US","cover":"CLR","clouds":[],"fltCat":"VFR"},{"icaoId":"KLRU","receiptTime":"2026-04-18T13:57:09.921Z","obsTime":1776520500,"reportTime":"2026-04-18T14:00:00.000Z","temp":10,"dewp":-19.8,"wdir":340,"wspd":12,"wgst":20,"visib":"10+","altim":1020.4,"qcField":6,"metarType":"METAR","rawOb":"METAR KLRU 181355Z AUTO 34012G20KT 10SM CLR 10/M20 A3013 RMK AO2 T01001198","lat":32.2884,"lon":-106.9131,"elev":1355,"name":"Las Cruces Intl, NM, US","cover":"CLR","clouds":[],"fltCat":"VFR"},{"icaoId":"KSOW","receiptTime":"2026-04-18T13:57:08.141Z","obsTime":1776520500,"reportTime":"2026-04-18T14:00:00.000Z","temp":-1,"dewp":-18,"wdir":0,"wspd":0,"visib":"10+","altim":1024.1,"qcField":6,"metarType":"METAR","rawOb":"METAR KSOW 181355Z AUTO 00000KT 10SM CLR M01/M18 A3024 RMK AO2","lat":34.2686,"lon":-110.0019,"elev":1954,"name":"Show Low Muni, AZ, US","cover":"CLR","clouds":[],"fltCat":"VFR"},{"icaoId":"KBVU","receiptTime":"2026-04-18T13:57:11.772Z","obsTime":1776520500,"reportTime":"2026-04-18T14:00:00.000Z","temp":10,"dewp":-19,"wdir":0,"wspd":0,"visib":"10+","altim":1018.7,"qcField":6,"metarType":"METAR","rawOb":"METAR KBVU 181355Z AUTO 00000KT 10SM CLR 10/M19 A3008 RMK AO2","lat":35.9489,"lon":-114.8633,"elev":654,"name":"Boulder City Muni, NV, US","cover":"CLR","clouds":[],"fltCat":"VFR"},{"icaoId":"KAPC","receiptTime":"2026-04-18T13:57:11.547Z","obsTime":1776520440,"reportTime":"2026-04-18T14:00:00.000Z","temp":5.6,"dewp":2.8,"wdir":20,"wspd":5,"visib":"10+","altim":1016.3,"slp":1015.3,"qcField":4,"metarType":"METAR","rawOb":"METAR KAPC 181354Z 02005KT 10SM CLR 06/03 A3001 RMK AO2 SLP153 T00560028","lat":38.2075,"lon":-122.2804,"elev":5,"name":"Napa Cnty Arpt, CA, US","cover":"CLR","clouds":[],"fltCat":"VFR"},{"icaoId":"KBUF","receiptTime":"2026-04-18T13:57:11.744Z","obsTime":1776520440,"reportTime":"2026-04-18T14:00:00.000Z","temp":21.1,"dewp":10.6,"wdir":180,"wspd":19,"wgst":29,"visib":"10+","altim":1007.5,"slp":1007.1,"qcField":12,"metarType":"METAR","rawOb":"METAR KBUF 181354Z 18019G29KT 10SM FEW090 SCT130 BKN180 BKN240 21/11 A2975 RMK AO2 PK WND 18029/1347 SLP071 T02110106 $","lat":42.94,"lon":-78.7361,"elev":217,"name":"Buffalo-Niagara Intl, NY, US","cover":"BKN","clouds":[{"cover":"FEW","base":9000},{"cover":"SCT","base":13000},{"cover":"BKN","base":18000},{"cover":"BKN","base":24000}],"fltCat":"VFR"},{"icaoId":"KOLS","receiptTime":"2026-04-18T13:57:08.955Z","obsTime":1776520440,"reportTime":"2026-04-18T14:00:00.000Z","temp":10.6,"dewp":-2.2,"wdir":0,"wspd":0,"visib":"10+","altim":1017.4,"slp":1012.4,"qcField":6,"metarType":"METAR","rawOb":"METAR KOLS 181354Z AUTO 00000KT 10SM CLR 11/M02 A3004 RMK AO2 SLP124 T01061022","lat":31.4208,"lon":-110.8465,"elev":1194,"name":"Nogales Intl, AZ, US","cover":"CLR","clouds":[],"fltCat":"VFR"},{"icaoId":"KSYR","receiptTime":"2026-04-18T13:57:08.222Z","obsTime":1776520440,"reportTime":"2026-04-18T14:00:00.000Z","temp":20,"dewp":10.6,"wdir":160,"wspd":16,"wgst":23,"visib":"10+","altim":1013,"slp":1012.3,"qcField":4,"metarType":"METAR","rawOb":"METAR KSYR 181354Z 16016G23KT 10SM BKN230 20/11 A2991 RMK AO2 PK WND 15029/1317 SLP123 T02000106","lat":43.1111,"lon":-76.1038,"elev":125,"name":"Syracuse/Hancock Intl, NY, US","cover":"BKN","clouds":[{"cover":"BKN","base":23000}],"fltCat":"VFR"},{"icaoId":"KSLC","receiptTime":"2026-04-18T13:57:09.556Z","obsTime":1776520440,"reportTime":"2026-04-18T14:00:00.000Z","temp":2.8,"dewp":-6.7,"wdir":150,"wspd":10,"visib":"10+","altim":1025.8,"slp":1025.4,"qcField":4,"metarType":"METAR","rawOb":"METAR KSLC 181354Z 15010KT 10SM FEW200 SCT250 03/M07 A3029 RMK AO2 SLP254 T00281067","lat":40.7707,"lon":-111.965,"elev":1286,"name":"Salt Lake City Intl, UT, US","cover":"SCT","clouds":[{"cover":"FEW","base":20000},{"cover":"SCT","base":25000}],"fltCat":"VFR"},{"icaoId":"KEUG","receiptTime":"2026-04-18T13:57:10.589Z","obsTime":1776520440,"reportTime":"2026-04-18T14:00:00.000Z","temp":2.8,"dewp":2.8,"wdir":150,"wspd":3,"visib":"10+","altim":1018,"slp":1018.1,"qcField":4,"metarType":"METAR","rawOb":"METAR KEUG 181354Z 15003KT 10SM FEW002 SCT250 03/03 A3006 RMK AO2 SLP181 T00280028","lat":44.1331,"lon":-123.2156,"elev":109,"name":"Eugene/Mahlon Sweet Fld, OR, US","cover":"SCT","clouds":[{"cover":"FEW","base":200},{"cover":"SCT","base":25000}],"fltCat":"VFR"},{"icaoId":"KDSM","receiptTime":"2026-04-18T13:57:10.545Z","obsTime":1776520440,"reportTime":"2026-04-18T14:00:00.000Z","temp":2.8,"dewp":-7.2,"wdir":310,"wspd":22,"wgst":30,"visib":"10+","altim":1018.7,"slp":1018.9,"qcField":12,"metarType":"METAR","rawOb":"METAR KDSM 181354Z 31022G30KT 10SM CLR 03/M07 A3008 RMK AO2 PK WND 32035/1309 SLP189 T00281072 $","lat":41.5339,"lon":-93.6531,"elev":286,"name":"Des Moines Intl, IA, US","cover":"CLR","clouds":[],"fltCat":"VFR"},{"icaoId":"KPHL","receiptTime":"2026-04-18T13:57:09.071Z","obsTime":1776520440,"reportTime":"2026-04-18T14:00:00.000Z","temp":15.6,"dewp":11.7,"wdir":60,"wspd":4,"visib":"10+","altim":1018,"slp":1017.9,"qcField":12,"metarType":"METAR","rawOb":"METAR KPHL 181354Z 06004KT 10SM BKN009 16/12 A3006 RMK AO2 SLP179 CIG 007V011 T01560117 $","lat":39.8733,"lon":-75.2268,"elev":2,"name":"Philadelphia Intl, PA, US","cover":"BKN","clouds":[{"cover":"BKN","base":900}],"fltCat":"IFR"},{"icaoId":"KBFL","receiptTime":"2026-04-18T13:57:11.664Z","obsTime":1776520440,"reportTime":"2026-04-18T14:00:00.000Z","temp":11.7,"dewp":-3.3,"wdir":100,"wspd":3,"visib":"10+","altim":1016.3,"slp":1016.1,"qcField":14,"metarType":"METAR","rawOb":"METAR KBFL 181354Z AUTO 10003KT 10SM CLR 12/M03 A3001 RMK AO2 SLP161 T01171033 $","lat":35.4342,"lon":-119.0552,"elev":146,"name":"Bakersfield/Meadows Arpt, CA, US","cover":"CLR","clouds":[],"fltCat":"VFR"},{"icaoId":"KBWI","receiptTime":"2026-04-18T13:57:11.787Z","obsTime":1776520440,"reportTime":"2026-04-18T14:00:00.000Z","temp":18.9,"dewp":14.4,"wdir":70,"wspd":11,"visib":9,"altim":1016,"slp":1015.9,"qcField":4,"metarType":"METAR","rawOb":"METAR KBWI 181354Z 07011KT 9SM BKN012 BKN250 19/14 A3000 RMK AO2 SLP159 T01890144","lat":39.1733,"lon":-76.684,"elev":42,"name":"Baltimore-Washington Intl, MD, US","cover":"BKN","clouds":[{"cover":"BKN","base":1200},{"cover":"BKN","base":25000}],"fltCat":"MVFR"},{"icaoId":"KCOS","receiptTime":"2026-04-18T13:57:10.401Z","obsTime":1776520440,"reportTime":"2026-04-18T14:00:00.000Z","temp":0.6,"dewp":-11.1,"wdir":340,"wspd":8,"visib":"10+","altim":1024.8,"slp":1028,"qcField":4,"metarType":"METAR","rawOb":"METAR KCOS 181354Z 34008KT 10SM FEW080 01/M11 A3026 RMK AO2 SLP280 T00061111","lat":38.8095,"lon":-104.6887,"elev":1886,"name":"Colorado Spring Arpt, CO, US","cover":"FEW","clouds":[{"cover":"FEW","base":8000}],"fltCat":"VFR"},{"icaoId":"KBTV","receiptTime":"2026-04-18T13:57:11.725Z","obsTime":1776520440,"reportTime":"2026-04-18T14:00:00.000Z","temp":17.8,"dewp":7.8,"wdir":200,"wspd":11,"visib":"10+","altim":1016.3,"slp":1016.4,"qcField":4,"metarType":"METAR","rawOb":"METAR KBTV 181354Z 20011KT 10SM FEW060 BKN150 BKN250 18/08 A3001 RMK AO2 SLP164 T01780078","lat":44.4682,"lon":-73.1499,"elev":101,"name":"Burlington Intl, VT, US","cover":"BKN","clouds":[{"cover":"FEW","base":6000},{"cover":"BKN","base":15000},{"cover":"BKN","base":25000}],"fltCat":"VFR"},{"icaoId":"KBOS","receiptTime":"2026-04-18T13:57:11.693Z","obsTime":1776520440,"reportTime":"2026-04-18T14:00:00.000Z","temp":8.9,"dewp":8.3,"wdir":50,"wspd":13,"visib":3,"altim":1021.4,"slp":1021.1,"qcField":4,"wxString":"BR","metarType":"METAR","rawOb":"METAR KBOS 181354Z 05013KT 3SM BR OVC003 09/08 A3016 RMK AO2 SLP211 T00890083","lat":42.3606,"lon":-71.0097,"elev":4,"name":"Boston/Logan Intl, MA, US","cover":"OVC","clouds":[{"cover":"OVC","base":300}],"fltCat":"LIFR"},{"icaoId":"KGSO","receiptTime":"2026-04-18T13:57:10.868Z","obsTime":1776520440,"reportTime":"2026-04-18T14:00:00.000Z","temp":23.3,"dewp":11.7,"wdir":"VRB","wspd":3,"visib":"10+","altim":1015.3,"slp":1014.1,"qcField":4,"metarType":"METAR","rawOb":"METAR KGSO 181354Z VRB03KT 10SM BKN250 23/12 A2998 RMK AO2 SLP141 T02330117","lat":36.0969,"lon":-79.9432,"elev":275,"name":"Greensboro Intl, NC, US","cover":"BKN","clouds":[{"cover":"BKN","base":25000}],"fltCat":"VFR"},{"icaoId":"KGCN","receiptTime":"2026-04-18T13:57:10.818Z","obsTime":1776520440,"reportTime":"2026-04-18T14:00:00.000Z","temp":3.3,"dewp":-19.4,"wdir":70,"wspd":15,"wgst":23,"visib":"10+","altim":1023.8,"slp":1020.4,"qcField":4,"metarType":"METAR","rawOb":"METAR KGCN 181354Z 07015G23KT 10SM CLR 03/M19 A3023 RMK AO2 SLP204 T00331194","lat":35.9458,"lon":-112.1554,"elev":1993,"name":"Grand Canyon Park Arpt, AZ, US","cover":"CLR","clouds":[],"fltCat":"VFR"},{"icaoId":"KMEM","receiptTime":"2026-04-18T13:57:10.068Z","obsTime":1776520440,"reportTime":"2026-04-18T14:00:00.000Z","temp":17.2,"dewp":15.6,"wdir":70,"wspd":8,"visib":"10+","altim":1014.3,"slp":1013.9,"qcField":12,"precip":0.005,"metarType":"METAR","rawOb":"METAR KMEM 181354Z 07008KT 10SM OVC034 17/16 A2995 RMK AO2 RAE11 SLP139 P0000 T01720156 $","lat":35.0564,"lon":-89.9864,"elev":78,"name":"Memphis Intl, TN, US","cover":"OVC","clouds":[{"cover":"OVC","base":3400}],"fltCat":"VFR"},{"icaoId":"KIND","receiptTime":"2026-04-18T13:57:09.626Z","obsTime":1776520440,"reportTime":"2026-04-18T14:00:00.000Z","temp":15.6,"dewp":14.4,"wdir":200,"wspd":12,"visib":"10+","altim":1009.2,"slp":1008.8,"qcField":4,"wxString":"-RA","precip":0.06,"metarType":"METAR","rawOb":"METAR KIND 181354Z 20012KT 10SM -RA FEW014 FEW045 OVC095 16/14 A2980 RMK AO2 SLP088 P0006 T01560144","lat":39.7252,"lon":-86.2816,"elev":242,"name":"Indianapolis Intl, IN, US","cover":"OVC","clouds":[{"cover":"FEW","base":1400},{"cover":"FEW","base":4500},{"cover":"OVC","base":9500}],"fltCat":"VFR"},{"icaoId":"KROC","receiptTime":"2026-04-18T13:57:09.364Z","obsTime":1776520440,"reportTime":"2026-04-18T14:00:00.000Z","temp":21.1,"dewp":11.1,"wdir":180,"wspd":15,"wgst":25,"visib":"10+","altim":1009.6,"slp":1009.5,"qcField":12,"metarType":"METAR","rawOb":"METAR KROC 181354Z 18015G25KT 10SM SCT250 21/11 A2981 RMK AO2 SLP095 T02110111 $","lat":43.1172,"lon":-77.6754,"elev":166,"name":"Rochester Intl Arpt, NY, US","cover":"SCT","clouds":[{"cover":"SCT","base":25000}],"fltCat":"VFR"},{"icaoId":"KRKS","receiptTime":"2026-04-18T13:57:09.321Z","obsTime":1776520440,"reportTime":"2026-04-18T14:00:00.000Z","temp":-3.9,"dewp":-12.8,"wdir":240,"wspd":9,"visib":"10+","altim":1024.8,"slp":1027.8,"qcField":6,"metarType":"METAR","rawOb":"METAR KRKS 181354Z AUTO 24009KT 10SM CLR M04/M13 A3026 RMK AO2 SLP278 T10391128","lat":41.5947,"lon":-109.0529,"elev":2062,"name":"Rock Springs/SW Wyoming Rgnl, WY, US","cover":"CLR","clouds":[],"fltCat":"VFR"},{"icaoId":"KRIC","receiptTime":"2026-04-18T13:57:09.308Z","obsTime":1776520440,"reportTime":"2026-04-18T14:00:00.000Z","temp":24.4,"dewp":14.4,"wdir":160,"wspd":4,"visib":"10+","altim":1014.6,"slp":1014.9,"qcField":12,"metarType":"METAR","rawOb":"METAR KRIC 181354Z 16004KT 10SM FEW250 24/14 A2996 RMK AO2 SLP149 T02440144 $","lat":37.5115,"lon":-77.3234,"elev":51,"name":"Richmond Intl, VA, US","cover":"FEW","clouds":[{"cover":"FEW","base":25000}],"fltCat":"VFR"},{"icaoId":"KSJN","receiptTime":"2026-04-18T13:57:09.545Z","obsTime":1776520440,"reportTime":"2026-04-18T14:00:00.000Z","temp":0.6,"dewp":-12.2,"wdir":0,"wspd":0,"visib":"10+","altim":1023.5,"slp":1020.3,"qcField":6,"metarType":"METAR","rawOb":"METAR KSJN 181354Z AUTO 00000KT 10SM CLR 01/M12 A3022 RMK AO2 SLP203 T00061122","lat":34.5184,"lon":-109.3801,"elev":1747,"name":"St Johns Ind Arpt, AZ, US","cover":"CLR","clouds":[],"fltCat":"VFR"},{"icaoId":"KOLM","receiptTime":"2026-04-18T13:57:08.944Z","obsTime":1776520440,"reportTime":"2026-04-18T14:00:00.000Z","temp":4.4,"dewp":2.8,"wdir":0,"wspd":0,"visib":"10+","altim":1018.4,"slp":1018.3,"qcField":6,"metarType":"METAR","rawOb":"METAR KOLM 181354Z AUTO 00000KT 10SM CLR 04/03 A3007 RMK AO2 SLP183 T00440028","lat":46.9737,"lon":-122.9049,"elev":58,"name":"Olympia Rgnl, WA, US","cover":"CLR","clouds":[],"fltCat":"VFR"},{"icaoId":"KFFZ","receiptTime":"2026-04-18T13:57:10.638Z","obsTime":1776520440,"reportTime":"2026-04-18T14:00:00.000Z","temp":17.8,"dewp":-10.6,"wdir":70,"wspd":6,"visib":"10+","altim":1014.6,"slp":1012.6,"qcField":4,"metarType":"METAR","rawOb":"METAR KFFZ 181354Z 07006KT 10SM CLR 18/M11 A2996 RMK AO2 SLP126 T01781106","lat":33.4659,"lon":-111.7212,"elev":420,"name":"Mesa/Falcon Fld, AZ, US","cover":"CLR","clouds":[],"fltCat":"VFR"},{"icaoId":"KPSC","receiptTime":"2026-04-18T13:56:28.161Z","obsTime":1776520380,"reportTime":"2026-04-18T14:00:00.000Z","temp":1.7,"dewp":0.6,"wdir":360,"wspd":4,"visib":"10+","altim":1021.1,"slp":1021.2,"qcField":4,"metarType":"METAR","rawOb":"METAR KPSC 181353Z 36004KT 10SM CLR 02/01 A3015 RMK AO2 SLP212 T00170006","lat":46.2695,"lon":-119.1182,"elev":121,"name":"Pasco/Tri Cities Arpt, WA, US","cover":"CLR","clouds":[],"fltCat":"VFR"},{"icaoId":"KDRO","receiptTime":"2026-04-18T13:56:20.429Z","obsTime":1776520380,"reportTime":"2026-04-18T14:00:00.000Z","temp":-3.3,"dewp":-11.7,"wdir":40,"wspd":3,"visib":"10+","altim":1025.1,"slp":1026.7,"qcField":6,"metarType":"METAR","rawOb":"METAR KDRO 181353Z AUTO 04003KT 10SM CLR M03/M12 A3027 RMK AO2 SLP267 T10331117","lat":37.1431,"lon":-107.7602,"elev":2021,"name":"Durango/La Plata Cnty, CO, US","cover":"CLR","clouds":[],"fltCat":"VFR"},{"icaoId":"KAUS","receiptTime":"2026-04-18T13:56:26.139Z","obsTime":1776520380,"reportTime":"2026-04-18T14:00:00.000Z","temp":22.2,"dewp":20,"wdir":340,"wspd":7,"visib":7,"altim":1013.6,"slp":1012.8,"qcField":4,"metarType":"METAR","rawOb":"METAR KAUS 181353Z 34007KT 7SM BKN010 OVC018 22/20 A2993 RMK AO2 SLP128 T02220200","lat":30.1831,"lon":-97.6806,"elev":148,"name":"Austin/Bergstrom Intl, TX, US","cover":"OVC","clouds":[{"cover":"BKN","base":1000},{"cover":"OVC","base":1800}],"fltCat":"MVFR"},{"icaoId":"KGJT","receiptTime":"2026-04-18T13:56:20.737Z","obsTime":1776520380,"reportTime":"2026-04-18T14:00:00.000Z","temp":0.6,"dewp":-5.6,"wdir":130,"wspd":8,"visib":"10+","altim":1027.2,"slp":1027.3,"qcField":4,"metarType":"METAR","rawOb":"METAR KGJT 181353Z 13008KT 10SM CLR 01/M06 A3033 RMK AO2 SLP273 T00061056","lat":39.1344,"lon":-108.5408,"elev":1475,"name":"Grand Junction Rgnl, CO, US","cover":"CLR","clouds":[],"fltCat":"VFR"},{"icaoId":"KPBI","receiptTime":"2026-04-18T13:56:30.350Z","obsTime":1776520380,"reportTime":"2026-04-18T14:00:00.000Z","temp":27.2,"dewp":21.1,"wdir":110,"wspd":8,"visib":"10+","altim":1017,"slp":1016.9,"qcField":12,"metarType":"METAR","rawOb":"METAR KPBI 181353Z 11008KT 10SM SCT020 27/21 A3003 RMK AO2 SLP169 T02720211 $","lat":26.6851,"lon":-80.0992,"elev":4,"name":"Palm Beach Intl, FL, US","cover":"SCT","clouds":[{"cover":"SCT","base":2000}],"fltCat":"VFR"},{"icaoId":"KSBA","receiptTime":"2026-04-18T13:56:28.800Z","obsTime":1776520380,"reportTime":"2026-04-18T14:00:00.000Z","temp":9.4,"dewp":5,"wdir":0,"wspd":0,"visib":"10+","altim":1013.6,"slp":1013.6,"qcField":12,"metarType":"METAR","rawOb":"METAR KSBA 181353Z 00000KT 10SM CLR 09/05 A2993 RMK AO2 SLP136 T00940050 $","lat":34.4241,"lon":-119.8425,"elev":2,"name":"Santa Barbara Muni, CA, US","cover":"CLR","clouds":[],"fltCat":"VFR"},{"icaoId":"KSDL","receiptTime":"2026-04-18T13:56:28.827Z","obsTime":1776520380,"reportTime":"2026-04-18T14:00:00.000Z","temp":16.1,"dewp":-2.2,"wdir":240,"wspd":3,"visib":"10+","altim":1015,"slp":1013,"qcField":4,"metarType":"METAR","rawOb":"METAR KSDL 181353Z 24003KT 10SM CLR 16/M02 A2997 RMK AO2 SLP130 T01611022","lat":33.6123,"lon":-111.9232,"elev":438,"name":"Scottsdale Muni, AZ, US","cover":"CLR","clouds":[],"fltCat":"VFR"},{"icaoId":"KDFW","receiptTime":"2026-04-18T13:56:19.982Z","obsTime":1776520380,"reportTime":"2026-04-18T14:00:00.000Z","temp":10.6,"dewp":6.1,"wdir":350,"wspd":18,"wgst":26,"visib":"10+","altim":1019,"slp":1018.3,"qcField":12,"wxString":"VCTS -RA","precip":0.005,"metarType":"METAR","rawOb":"METAR KDFW 181353Z 35018G26KT 10SM VCTS -RA FEW018 BKN040 OVC110 11/06 A3009 RMK AO2 PK WND 35034/1335 RAE16B47 TSE50 SLP183 OCNL LTGIC DSNT S-SW CB DSNT S-SW MOV NE P0000 T01060061 $","lat":32.8974,"lon":-97.022,"elev":168,"name":"Dallas-Ft Worth Intl, TX, US","cover":"OVC","clouds":[{"cover":"FEW","base":1800},{"cover":"BKN","base":4000},{"cover":"OVC","base":11000}],"fltCat":"VFR"},{"icaoId":"KBUR","receiptTime":"2026-04-18T13:56:26.214Z","obsTime":1776520380,"reportTime":"2026-04-18T14:00:00.000Z","temp":12.8,"dewp":1.7,"wdir":0,"wspd":0,"visib":"10+","altim":1014.6,"slp":1013.5,"qcField":4,"metarType":"METAR","rawOb":"METAR KBUR 181353Z 00000KT 10SM CLR 13/02 A2996 RMK AO2 SLP135 T01280017","lat":34.1996,"lon":-118.3654,"elev":221,"name":"Burbank/Bob Hope Arpt, CA, US","cover":"CLR","clouds":[],"fltCat":"VFR"},{"icaoId":"KMIA","receiptTime":"2026-04-18T13:56:29.287Z","obsTime":1776520380,"reportTime":"2026-04-18T14:00:00.000Z","temp":27.2,"dewp":21.1,"wdir":110,"wspd":8,"visib":"10+","altim":1016.7,"slp":1016.6,"qcField":0,"metarType":"METAR","rawOb":"METAR KMIA 181353Z 11008KT 10SM SCT022 BKN041 BKN250 27/21 A3002 RMK SLP166 T02720211","lat":25.7881,"lon":-80.3169,"elev":1,"name":"Miami Intl, FL, US","cover":"BKN","clouds":[{"cover":"SCT","base":2200},{"cover":"BKN","base":4100},{"cover":"BKN","base":25000}],"fltCat":"VFR"},{"icaoId":"KRTN","receiptTime":"2026-04-18T13:56:28.674Z","obsTime":1776520380,"reportTime":"2026-04-18T14:00:00.000Z","temp":-2.8,"dewp":-6.7,"wdir":90,"wspd":3,"visib":"10+","altim":1024.8,"slp":1026.1,"qcField":6,"metarType":"METAR","rawOb":"METAR KRTN 181353Z AUTO 09003KT 10SM CLR M03/M07 A3026 RMK AO2 SLP261 T10281067","lat":36.7418,"lon":-104.5076,"elev":1939,"name":"Raton/Crews Fld, NM, US","cover":"CLR","clouds":[],"fltCat":"VFR"},{"icaoId":"KSEA","receiptTime":"2026-04-18T13:56:32.158Z","obsTime":1776520380,"reportTime":"2026-04-18T14:00:00.000Z","temp":6.1,"dewp":4.4,"wdir":350,"wspd":4,"visib":"10+","altim":1018,"slp":1018.8,"qcField":4,"metarType":"METAR","rawOb":"METAR KSEA 181353Z 35004KT 10SM SCT140 BKN200 06/04 A3006 RMK AO2 SLP188 T00610044","lat":47.4447,"lon":-122.3144,"elev":115,"name":"Seattle-Tacoma Intl, WA, US","cover":"BKN","clouds":[{"cover":"SCT","base":14000},{"cover":"BKN","base":20000}],"fltCat":"VFR"},{"icaoId":"KSHR","receiptTime":"2026-04-18T13:56:28.904Z","obsTime":1776520380,"reportTime":"2026-04-18T14:00:00.000Z","temp":0,"dewp":-2.8,"wdir":200,"wspd":3,"visib":"10+","altim":1021.4,"slp":1024.2,"qcField":6,"metarType":"METAR","rawOb":"METAR KSHR 181353Z AUTO 20003KT 10SM BKN080 00/M03 A3016 RMK AO2 SLP242 T00001028","lat":44.7603,"lon":-106.9741,"elev":1212,"name":"Sheridan Cnty Arpt, WY, US","cover":"BKN","clouds":[{"cover":"BKN","base":8000}],"fltCat":"VFR"},{"icaoId":"KSMF","receiptTime":"2026-04-18T13:56:28.951Z","obsTime":1776520380,"reportTime":"2026-04-18T14:00:00.000Z","temp":6.1,"dewp":4.4,"wdir":300,"wspd":4,"visib":"10+","altim":1016,"slp":1015.9,"qcField":4,"metarType":"METAR","rawOb":"METAR KSMF 181353Z 30004KT 10SM FEW190 06/04 A3000 RMK AO2 SLP159 T00610044","lat":38.7007,"lon":-121.5948,"elev":7,"name":"Sacramento Intl, CA, US","cover":"FEW","clouds":[{"cover":"FEW","base":19000}],"fltCat":"VFR"},{"icaoId":"KVEL","receiptTime":"2026-04-18T13:56:29.116Z","obsTime":1776520380,"reportTime":"2026-04-18T14:00:00.000Z","temp":-1.7,"dewp":-10,"wdir":0,"wspd":0,"visib":"10+","altim":1027.2,"slp":1028.7,"qcField":6,"metarType":"METAR","rawOb":"METAR KVEL 181353Z AUTO 00000KT 10SM CLR M02/M10 A3033 RMK AO2 SLP287 T10171100","lat":40.4429,"lon":-109.5128,"elev":1604,"name":"Vernal Rgnl, UT, US","cover":"CLR","clouds":[],"fltCat":"VFR"},{"icaoId":"KPRC","receiptTime":"2026-04-18T13:56:28.150Z","obsTime":1776520380,"reportTime":"2026-04-18T14:00:00.000Z","temp":3.9,"dewp":-11.1,"wdir":0,"wspd":0,"visib":"10+","altim":1020.7,"slp":1016.4,"qcField":4,"metarType":"METAR","rawOb":"METAR KPRC 181353Z 00000KT 10SM CLR 04/M11 A3014 RMK AO2 SLP164 T00391111","lat":34.6491,"lon":-112.4223,"elev":1528,"name":"Prescott/Love Fld, AZ, US","cover":"CLR","clouds":[],"fltCat":"VFR"},{"icaoId":"KMLC","receiptTime":"2026-04-18T13:56:30.802Z","obsTime":1776520380,"reportTime":"2026-04-18T14:00:00.000Z","temp":10,"dewp":5,"wdir":360,"wspd":11,"wgst":19,"visib":"10+","altim":1019.7,"slp":1018.9,"qcField":6,"metarType":"METAR","rawOb":"METAR KMLC 181353Z AUTO 36011G19KT 10SM OVC085 10/05 A3011 RMK AO2 SLP189 T01000050","lat":34.8824,"lon":-95.7815,"elev":231,"name":"McAlester Rgnl, OK, US","cover":"OVC","clouds":[{"cover":"OVC","base":8500}],"fltCat":"VFR"},{"icaoId":"KMLS","receiptTime":"2026-04-18T13:56:30.834Z","obsTime":1776520380,"reportTime":"2026-04-18T14:00:00.000Z","temp":-0.6,"dewp":-3.3,"wdir":280,"wspd":9,"visib":"10+","altim":1020.4,"slp":1022.7,"qcField":6,"metarType":"METAR","rawOb":"METAR KMLS 181353Z AUTO 28009KT 10SM CLR M01/M03 A3013 RMK AO2 SLP227 T10061033","lat":46.4265,"lon":-105.8834,"elev":800,"name":"Miles City/Wiley Fld, MT, US","cover":"CLR","clouds":[],"fltCat":"VFR"},{"icaoId":"KMSO","receiptTime":"2026-04-18T13:56:27.794Z","obsTime":1776520380,"reportTime":"2026-04-18T14:00:00.000Z","temp":-1.7,"dewp":-4.4,"wdir":150,"wspd":4,"visib":"10+","altim":1024.5,"slp":1026.7,"qcField":12,"metarType":"METAR","rawOb":"METAR KMSO 181353Z 15004KT 10SM CLR M02/M04 A3025 RMK AO2 SLP267 T10171044 $","lat":46.9208,"lon":-114.0938,"elev":974,"name":"Missoula Intl, MT, US","cover":"CLR","clouds":[],"fltCat":"VFR"},{"icaoId":"KOAK","receiptTime":"2026-04-18T13:56:31.094Z","obsTime":1776520380,"reportTime":"2026-04-18T14:00:00.000Z","temp":7.8,"dewp":6.1,"wdir":30,"wspd":5,"visib":"10+","altim":1016.7,"slp":1016.3,"qcField":12,"metarType":"METAR","rawOb":"METAR KOAK 181353Z 03005KT 10SM SCT150 SCT250 08/06 A3002 RMK AO2 SLP163 T00780061 $","lat":37.7178,"lon":-122.233,"elev":3,"name":"Oakland Intl, CA, US","cover":"SCT","clouds":[{"cover":"SCT","base":15000},{"cover":"SCT","base":25000}],"fltCat":"VFR"},{"icaoId":"KCDC","receiptTime":"2026-04-18T13:56:26.321Z","obsTime":1776520380,"reportTime":"2026-04-18T14:00:00.000Z","temp":-2.2,"dewp":-7.2,"wdir":0,"wspd":0,"visib":"10+","altim":1023.5,"slp":1023.4,"qcField":14,"metarType":"METAR","rawOb":"METAR KCDC 181353Z AUTO 00000KT 10SM CLR M02/M07 A3022 RMK AO2 SLP234 T10221072 $","lat":37.7067,"lon":-113.097,"elev":1703,"name":"Cedar City Muni, UT, US","cover":"CLR","clouds":[],"fltCat":"VFR"},{"icaoId":"KDLN","receiptTime":"2026-04-18T13:56:20.381Z","obsTime":1776520380,"reportTime":"2026-04-18T14:00:00.000Z","temp":-3.3,"dewp":-8.9,"wdir":240,"wspd":10,"visib":"10+","altim":1022.8,"slp":1025.2,"qcField":6,"metarType":"METAR","rawOb":"METAR KDLN 181353Z AUTO 24010KT 10SM CLR M03/M09 A3020 RMK AO2 SLP252 T10331089","lat":45.2584,"lon":-112.5546,"elev":1586,"name":"Dillon Arpt, MT, US","cover":"CLR","clouds":[],"fltCat":"VFR"},{"icaoId":"KCPR","receiptTime":"2026-04-18T13:56:19.687Z","obsTime":1776520380,"reportTime":"2026-04-18T14:00:00.000Z","temp":-1.7,"dewp":-8.3,"wdir":230,"wspd":9,"visib":"10+","altim":1021.8,"slp":1024,"qcField":4,"metarType":"METAR","rawOb":"METAR KCPR 181353Z 23009KT 10SM CLR M02/M08 A3017 RMK AO2 SLP240 T10171083","lat":42.8978,"lon":-106.4736,"elev":1623,"name":"Casper/Natrona Cnty, WY, US","cover":"CLR","clouds":[],"fltCat":"VFR"},{"icaoId":"KCYS","receiptTime":"2026-04-18T13:56:19.880Z","obsTime":1776520380,"reportTime":"2026-04-18T14:00:00.000Z","temp":-1.7,"dewp":-11.7,"wdir":270,"wspd":19,"visib":"10+","altim":1021.8,"slp":1024.3,"qcField":4,"metarType":"METAR","rawOb":"METAR KCYS 181353Z 27019KT 10SM CLR M02/M12 A3017 RMK AO2 PK WND 27027/1343 SLP243 T10171117","lat":41.1579,"lon":-104.8081,"elev":1868,"name":"Cheyenne Rgnl, WY, US","cover":"CLR","clouds":[],"fltCat":"VFR"},{"icaoId":"KMTJ","receiptTime":"2026-04-18T13:56:31.003Z","obsTime":1776520380,"reportTime":"2026-04-18T14:00:00.000Z","temp":-1.7,"dewp":-8.9,"wdir":140,"wspd":5,"visib":"10+","altim":1027.2,"slp":1027,"qcField":6,"metarType":"METAR","rawOb":"METAR KMTJ 181353Z AUTO 14005KT 10SM CLR M02/M09 A3033 RMK AO2 SLP270 T10171089","lat":38.5054,"lon":-107.8981,"elev":1755,"name":"Montrose Rgnl, CO, US","cover":"CLR","clouds":[],"fltCat":"VFR"},{"icaoId":"KASE","receiptTime":"2026-04-18T13:56:26.074Z","obsTime":1776520380,"reportTime":"2026-04-18T14:00:00.000Z","temp":-5.6,"dewp":-8.3,"wdir":360,"wspd":4,"visib":"10+","altim":1026.2,"slp":1026.8,"qcField":4,"metarType":"METAR","rawOb":"METAR KASE 181353Z 36004KT 10SM FEW024 M06/M08 A3030 RMK AO2 SLP268 T10561083","lat":39.2299,"lon":-106.8705,"elev":2384,"name":"Aspen/Pitkin Cnty, CO, US","cover":"FEW","clouds":[{"cover":"FEW","base":2400}],"fltCat":"VFR"},{"icaoId":"KDAL","receiptTime":"2026-04-18T13:56:27.989Z","obsTime":1776520380,"reportTime":"2026-04-18T14:00:00.000Z","temp":10.6,"dewp":6.7,"wdir":360,"wspd":19,"wgst":27,"visib":6,"altim":1017.4,"slp":1016.8,"qcField":4,"wxString":"-RA","precip":0.005,"metarType":"METAR","rawOb":"METAR KDAL 181353Z 36019G27KT 6SM -RA FEW046 FEW080 OVC110 11/07 A3004 RMK AO2 PK WND 35033/1328 RAB1258 TSE07 SLP168 OCNL LTGIC DSNT SE CB DSNT SE MOV NE P0000 T01060067","lat":32.8384,"lon":-96.8358,"elev":148,"name":"Dallas/Love Fld, TX, US","cover":"OVC","clouds":[{"cover":"FEW","base":4600},{"cover":"FEW","base":8000},{"cover":"OVC","base":11000}],"fltCat":"VFR"},{"icaoId":"KLVS","receiptTime":"2026-04-18T13:56:19.288Z","obsTime":1776520380,"reportTime":"2026-04-18T14:00:00.000Z","temp":-2.8,"dewp":-4.4,"wdir":0,"wspd":0,"visib":"10+","altim":1025.1,"slp":1022,"qcField":14,"metarType":"METAR","rawOb":"METAR KLVS 181353Z AUTO 00000KT 10SM BKN021 M03/M04 A3027 RMK AO2 SLP220 T10281044 $","lat":35.6558,"lon":-105.1385,"elev":2095,"name":"Las Vegas Muni, NM, US","cover":"BKN","clouds":[{"cover":"BKN","base":2100}],"fltCat":"MVFR"},{"icaoId":"KMAF","receiptTime":"2026-04-18T13:56:19.346Z","obsTime":1776520380,"reportTime":"2026-04-18T14:00:00.000Z","temp":10,"dewp":-5,"wdir":30,"wspd":21,"wgst":27,"visib":"10+","altim":1022.4,"slp":1019.2,"qcField":4,"metarType":"METAR","rawOb":"METAR KMAF 181353Z 03021G27KT 10SM CLR 10/M05 A3019 RMK AO2 PK WND 04039/1311 SLP192 T01001050","lat":31.9475,"lon":-102.2086,"elev":874,"name":"Midland Intl, TX, US","cover":"CLR","clouds":[],"fltCat":"VFR"},{"icaoId":"KRDD","receiptTime":"2026-04-18T13:56:28.311Z","obsTime":1776520380,"reportTime":"2026-04-18T14:00:00.000Z","temp":5.6,"dewp":2.8,"wdir":0,"wspd":0,"visib":"10+","altim":1016.3,"slp":1016.1,"qcField":12,"metarType":"METAR","rawOb":"METAR KRDD 181353Z 00000KT 10SM CLR 06/03 A3001 RMK AO2 SLP161 T00560028 $","lat":40.5146,"lon":-122.2977,"elev":152,"name":"Redding Muni, CA, US","cover":"CLR","clouds":[],"fltCat":"VFR"},{"icaoId":"KCRQ","receiptTime":"2026-04-18T13:56:27.949Z","obsTime":1776520380,"reportTime":"2026-04-18T14:00:00.000Z","temp":13.3,"dewp":11.1,"wdir":90,"wspd":3,"visib":"10+","altim":1014,"slp":1013.6,"qcField":6,"metarType":"METAR","rawOb":"METAR KCRQ 181353Z AUTO 09003KT 10SM CLR 13/11 A2994 RMK AO2 SLP136 T01330111","lat":33.1299,"lon":-117.2765,"elev":96,"name":"Carlsbad/Palomar Arpt, CA, US","cover":"CLR","clouds":[],"fltCat":"VFR"},{"icaoId":"KBCE","receiptTime":"2026-04-18T13:56:20.125Z","obsTime":1776520380,"reportTime":"2026-04-18T14:00:00.000Z","temp":-8.3,"dewp":-12.8,"wdir":270,"wspd":3,"visib":"10+","altim":1025.5,"slp":1024.2,"qcField":6,"metarType":"METAR","rawOb":"METAR KBCE 181353Z AUTO 27003KT 10SM CLR M08/M13 A3028 RMK AO2 SLP242 T10831128","lat":37.7013,"lon":-112.149,"elev":2311,"name":"Bryce Canyon Arpt, UT, US","cover":"CLR","clouds":[],"fltCat":"VFR"},{"icaoId":"KBIL","receiptTime":"2026-04-18T13:56:31.888Z","obsTime":1776520380,"reportTime":"2026-04-18T14:00:00.000Z","temp":-1.1,"dewp":-5.6,"wdir":220,"wspd":7,"visib":"10+","altim":1021.4,"slp":1024.2,"qcField":4,"metarType":"METAR","rawOb":"METAR KBIL 181353Z 22007KT 10SM FEW090 M01/M06 A3016 RMK AO2 SLP242 T10111056","lat":45.8072,"lon":-108.5462,"elev":1089,"name":"Billings/Logan Intl, MT, US","cover":"FEW","clouds":[{"cover":"FEW","base":9000}],"fltCat":"VFR"},{"icaoId":"KPNC","receiptTime":"2026-04-18T13:56:31.170Z","obsTime":1776520380,"reportTime":"2026-04-18T14:00:00.000Z","temp":8.3,"dewp":0,"wdir":10,"wspd":12,"visib":"10+","altim":1022.8,"slp":1022.5,"qcField":6,"metarType":"METAR","rawOb":"METAR KPNC 181353Z AUTO 01012KT 10SM CLR 08/00 A3020 RMK AO2 SLP225 T00830000","lat":36.7369,"lon":-97.1024,"elev":304,"name":"Ponca City Rgnl, OK, US","cover":"CLR","clouds":[],"fltCat":"VFR"},{"icaoId":"KBHM","receiptTime":"2026-04-18T13:56:18.965Z","obsTime":1776520380,"reportTime":"2026-04-18T14:00:00.000Z","temp":22.2,"dewp":16.1,"wdir":250,"wspd":7,"visib":"10+","altim":1017,"slp":1016.3,"qcField":4,"metarType":"METAR","rawOb":"METAR KBHM 181353Z 25007KT 10SM FEW025 SCT044 BKN250 22/16 A3003 RMK AO2 SLP163 T02220161","lat":33.5655,"lon":-86.7449,"elev":191,"name":"Birmingham Intl, AL, US","cover":"BKN","clouds":[{"cover":"FEW","base":2500},{"cover":"SCT","base":4400},{"cover":"BKN","base":25000}],"fltCat":"VFR"},{"icaoId":"KBLI","receiptTime":"2026-04-18T13:56:19.042Z","obsTime":1776520380,"reportTime":"2026-04-18T14:00:00.000Z","temp":2.2,"dewp":1.7,"wdir":10,"wspd":4,"visib":"10+","altim":1018.7,"slp":1019.4,"qcField":4,"metarType":"METAR","rawOb":"METAR KBLI 181353Z 01004KT 10SM CLR 02/02 A3008 RMK AO2 SLP194 T00220017","lat":48.7991,"lon":-122.5407,"elev":46,"name":"Bellingham Intl, WA, US","cover":"CLR","clouds":[],"fltCat":"VFR"},{"icaoId":"KBNA","receiptTime":"2026-04-18T13:56:19.088Z","obsTime":1776520380,"reportTime":"2026-04-18T14:00:00.000Z","temp":22.8,"dewp":15.6,"wdir":"VRB","wspd":5,"visib":"10+","altim":1013.6,"slp":1012.9,"qcField":12,"metarType":"METAR","rawOb":"METAR KBNA 181353Z VRB05KT 10SM BKN095 BKN170 BKN250 23/16 A2993 RMK AO2 SLP129 T02280156 $","lat":36.1105,"lon":-86.6881,"elev":168,"name":"Nashville Intl, TN, US","cover":"BKN","clouds":[{"cover":"BKN","base":9500},{"cover":"BKN","base":17000},{"cover":"BKN","base":25000}],"fltCat":"VFR"},{"icaoId":"KMCO","receiptTime":"2026-04-18T13:56:19.456Z","obsTime":1776520380,"reportTime":"2026-04-18T14:00:00.000Z","temp":25.6,"dewp":20.6,"wdir":140,"wspd":4,"visib":"10+","altim":1018,"slp":1017.9,"qcField":4,"metarType":"METAR","rawOb":"METAR KMCO 181353Z 14004KT 10SM FEW010 SCT250 26/21 A3006 RMK AO2 SLP179 T02560206","lat":28.4182,"lon":-81.3241,"elev":27,"name":"Orlando Intl, FL, US","cover":"SCT","clouds":[{"cover":"FEW","base":1000},{"cover":"SCT","base":25000}],"fltCat":"VFR"},{"icaoId":"KMFE","receiptTime":"2026-04-18T13:56:19.517Z","obsTime":1776520380,"reportTime":"2026-04-18T14:00:00.000Z","temp":25.6,"dewp":21.7,"wdir":160,"wspd":11,"wgst":21,"visib":"10+","altim":1008.9,"slp":1008.6,"qcField":4,"metarType":"METAR","rawOb":"METAR KMFE 181353Z 16011G21KT 10SM BKN016 OVC024 26/22 A2979 RMK AO2 SLP086 T02560217","lat":26.1791,"lon":-98.2445,"elev":29,"name":"McAllen/Miller Intl, TX, US","cover":"OVC","clouds":[{"cover":"BKN","base":1600},{"cover":"OVC","base":2400}],"fltCat":"MVFR"},{"icaoId":"KMFR","receiptTime":"2026-04-18T13:56:19.535Z","obsTime":1776520380,"reportTime":"2026-04-18T14:00:00.000Z","temp":2.8,"dewp":-0.6,"wdir":0,"wspd":0,"visib":"10+","altim":1018.4,"slp":1018.2,"qcField":4,"metarType":"METAR","rawOb":"METAR KMFR 181353Z 00000KT 10SM CLR 03/M01 A3007 RMK AO2 SLP182 T00281006","lat":42.375,"lon":-122.877,"elev":397,"name":"Medford/Rogue Valley Intl, OR, US","cover":"CLR","clouds":[],"fltCat":"VFR"},{"icaoId":"KTUL","receiptTime":"2026-04-18T13:56:19.604Z","obsTime":1776520380,"reportTime":"2026-04-18T14:00:00.000Z","temp":9.4,"dewp":0.6,"wdir":360,"wspd":14,"wgst":25,"visib":"10+","altim":1021.1,"slp":1020.7,"qcField":12,"metarType":"METAR","rawOb":"METAR KTUL 181353Z 36014G25KT 10SM FEW150 FEW250 09/01 A3015 RMK AO2 PK WND 36026/1339 SLP207 T00940006 $","lat":36.1985,"lon":-95.8782,"elev":196,"name":"Tulsa Intl Arpt, OK, US","cover":"FEW","clouds":[{"cover":"FEW","base":15000},{"cover":"FEW","base":25000}],"fltCat":"VFR"},{"icaoId":"KTWF","receiptTime":"2026-04-18T13:56:19.672Z","obsTime":1776520380,"reportTime":"2026-04-18T14:00:00.000Z","temp":0.6,"dewp":-6.1,"wdir":"VRB","wspd":4,"visib":"10+","altim":1023.8,"slp":1023.3,"qcField":4,"metarType":"METAR","rawOb":"METAR KTWF 181353Z VRB04KT 10SM CLR 01/M06 A3023 RMK AO2 SLP233 T00061061","lat":42.4785,"lon":-114.4775,"elev":1269,"name":"Twin Falls/Joslin Fld, ID, US","cover":"CLR","clouds":[],"fltCat":"VFR"},{"icaoId":"KDEN","receiptTime":"2026-04-18T13:56:19.918Z","obsTime":1776520380,"reportTime":"2026-04-18T14:00:00.000Z","temp":1.1,"dewp":-8.9,"wdir":240,"wspd":11,"visib":"10+","altim":1023.8,"slp":1024.7,"qcField":12,"metarType":"METAR","rawOb":"METAR KDEN 181353Z 24011KT 10SM FEW070 FEW110 FEW220 01/M09 A3023 RMK AO2 SLP247 T00111089 $","lat":39.8466,"lon":-104.6562,"elev":1656,"name":"Denver Intl, CO, US","cover":"FEW","clouds":[{"cover":"FEW","base":7000},{"cover":"FEW","base":11000},{"cover":"FEW","base":22000}],"fltCat":"VFR"},{"icaoId":"KBFI","receiptTime":"2026-04-18T13:56:20.202Z","obsTime":1776520380,"reportTime":"2026-04-18T14:00:00.000Z","temp":7.2,"dewp":5,"wdir":0,"wspd":0,"visib":"10+","altim":1018.7,"slp":1018.4,"qcField":4,"metarType":"METAR","rawOb":"METAR KBFI 181353Z 00000KT 10SM CLR 07/05 A3008 RMK AO2 SLP184 T00720050","lat":47.5455,"lon":-122.3148,"elev":7,"name":"Seattle/Boeing Fld, WA, US","cover":"CLR","clouds":[],"fltCat":"VFR"},{"icaoId":"KCNM","receiptTime":"2026-04-18T13:56:20.347Z","obsTime":1776520380,"reportTime":"2026-04-18T14:00:00.000Z","temp":8.9,"dewp":-5,"wdir":330,"wspd":16,"wgst":25,"visib":"10+","altim":1025.8,"slp":1021.9,"qcField":6,"metarType":"METAR","rawOb":"METAR KCNM 181353Z AUTO 33016G25KT 10SM CLR 09/M05 A3029 RMK AO2 SLP219 T00891050","lat":32.3336,"lon":-104.2584,"elev":993,"name":"Carlsbad/Cavern City Air Term, NM, US","cover":"CLR","clouds":[],"fltCat":"VFR"},{"icaoId":"KDTW","receiptTime":"2026-04-18T13:56:20.472Z","obsTime":1776520380,"reportTime":"2026-04-18T14:00:00.000Z","temp":16.1,"dewp":15,"wdir":220,"wspd":13,"visib":9,"altim":1005.2,"slp":1004.8,"qcField":12,"precip":0.01,"metarType":"METAR","rawOb":"METAR KDTW 181353Z 22013KT 9SM FEW012 BKN060 OVC080 16/15 A2968 RMK AO2 RAE49 SLP048 P0001 T01610150 $","lat":42.2311,"lon":-83.3312,"elev":192,"name":"Detroit/Metro Wayne Cnty, MI, US","cover":"OVC","clouds":[{"cover":"FEW","base":1200},{"cover":"BKN","base":6000},{"cover":"OVC","base":8000}],"fltCat":"VFR"},{"icaoId":"KGTF","receiptTime":"2026-04-18T13:56:32.628Z","obsTime":1776520380,"reportTime":"2026-04-18T14:00:00.000Z","temp":0.6,"dewp":-3.9,"wdir":200,"wspd":10,"visib":"10+","altim":1020.1,"slp":1023.8,"qcField":4,"metarType":"METAR","rawOb":"METAR KGTF 181353Z 20010KT 10SM CLR 01/M04 A3012 RMK AO2 SLP238 T00061039","lat":47.4733,"lon":-111.3828,"elev":1117,"name":"Great Falls Intl, MT, US","cover":"CLR","clouds":[],"fltCat":"VFR"},{"icaoId":"KLAW","receiptTime":"2026-04-18T13:56:32.895Z","obsTime":1776520380,"reportTime":"2026-04-18T14:00:00.000Z","temp":10,"dewp":-0.6,"wdir":10,"wspd":14,"wgst":26,"visib":"10+","altim":1021.8,"slp":1021.3,"qcField":4,"metarType":"METAR","rawOb":"METAR KLAW 181353Z 01014G26KT 10SM CLR 10/M01 A3017 RMK AO2 PK WND 02031/1312 SLP213 T01001006","lat":34.5577,"lon":-98.4172,"elev":328,"name":"Lawton-Fort Sill Rgnl, OK, US","cover":"CLR","clouds":[],"fltCat":"VFR"},{"icaoId":"KDMN","receiptTime":"2026-04-18T13:56:27.609Z","obsTime":1776520380,"reportTime":"2026-04-18T14:00:00.000Z","temp":13.9,"dewp":-14.4,"wdir":40,"wspd":17,"wgst":26,"visib":"10+","altim":1020.1,"slp":1014.3,"qcField":6,"metarType":"METAR","rawOb":"METAR KDMN 181353Z AUTO 04017G26KT 10SM CLR 14/M14 A3012 RMK AO2 PK WND 04031/1335 SLP143 T01391144","lat":32.2592,"lon":-107.7206,"elev":1310,"name":"Deming Muni, NM, US","cover":"CLR","clouds":[],"fltCat":"VFR"},{"icaoId":"KDVT","receiptTime":"2026-04-18T13:56:22.953Z","obsTime":1776520380,"reportTime":"2026-04-18T14:00:00.000Z","temp":17.2,"dewp":-11.1,"wdir":30,"wspd":4,"visib":"10+","altim":1015,"slp":1013.1,"qcField":4,"metarType":"METAR","rawOb":"METAR KDVT 181353Z 03004KT 10SM CLR 17/M11 A2997 RMK AO2 SLP131 T01721111","lat":33.6902,"lon":-112.0662,"elev":454,"name":"Phoenix/Deer Valley Arpt, AZ, US","cover":"CLR","clouds":[],"fltCat":"VFR"},{"icaoId":"KEVW","receiptTime":"2026-04-18T13:56:22.983Z","obsTime":1776520380,"reportTime":"2026-04-18T14:00:00.000Z","temp":-5.6,"dewp":-12.8,"wdir":140,"wspd":4,"visib":"10+","altim":1024.8,"slp":1027.5,"qcField":14,"metarType":"METAR","rawOb":"METAR KEVW 181353Z AUTO 14004KT 10SM CLR M06/M13 A3026 RMK AO2 SLP275 T10561128 $","lat":41.2727,"lon":-111.0305,"elev":2178,"name":"Evanston/Uinta Cnty, WY, US","cover":"CLR","clouds":[],"fltCat":"VFR"},{"icaoId":"KPGA","receiptTime":"2026-04-18T13:56:31.992Z","obsTime":1776520380,"reportTime":"2026-04-18T14:00:00.000Z","temp":5,"dewp":-18.9,"wdir":0,"wspd":0,"visib":"10+","altim":1025.1,"slp":1023.4,"qcField":14,"metarType":"METAR","rawOb":"METAR KPGA 181353Z AUTO 00000KT 10SM CLR 05/M19 A3027 RMK AO2 SLP234 T00501189 $","lat":36.9211,"lon":-111.4487,"elev":1310,"name":"Page Muni, AZ, US","cover":"CLR","clouds":[],"fltCat":"VFR"},{"icaoId":"KVGT","receiptTime":"2026-04-18T13:56:29.126Z","obsTime":1776520380,"reportTime":"2026-04-18T14:00:00.000Z","temp":10,"dewp":-12.8,"wdir":0,"wspd":0,"visib":"10+","altim":1019.4,"slp":1020.6,"qcField":4,"metarType":"METAR","rawOb":"METAR KVGT 181353Z 00000KT 10SM CLR 10/M13 A3010 RMK AO2 SLP206 T01001128","lat":36.212,"lon":-115.194,"elev":664,"name":"Las Vegas/North Arpt, NV, US","cover":"CLR","clouds":[],"fltCat":"VFR"},{"icaoId":"KBOI","receiptTime":"2026-04-18T13:56:27.419Z","obsTime":1776520380,"reportTime":"2026-04-18T14:00:00.000Z","temp":4.4,"dewp":-5.6,"wdir":120,"wspd":12,"visib":"10+","altim":1023.1,"slp":1023.4,"qcField":4,"metarType":"METAR","rawOb":"METAR KBOI 181353Z 12012KT 10SM CLR 04/M06 A3021 RMK AO2 SLP234 T00441056","lat":43.567,"lon":-116.2406,"elev":860,"name":"Boise Arpt, ID, US","cover":"CLR","clouds":[],"fltCat":"VFR"},{"icaoId":"KMDW","receiptTime":"2026-04-18T13:56:24.914Z","obsTime":1776520380,"reportTime":"2026-04-18T14:00:00.000Z","temp":7.8,"dewp":2.2,"wdir":280,"wspd":15,"wgst":23,"visib":"10+","altim":1009.6,"slp":1009.3,"qcField":4,"metarType":"METAR","rawOb":"METAR KMDW 181353Z 28015G23KT 10SM FEW024 SCT070 OVC220 08/02 A2981 RMK AO2 SLP093 T00780022","lat":41.7841,"lon":-87.7552,"elev":186,"name":"Chicago/Midway Intl, IL, US","cover":"OVC","clouds":[{"cover":"FEW","base":2400},{"cover":"SCT","base":7000},{"cover":"OVC","base":22000}],"fltCat":"VFR"},{"icaoId":"KIAH","receiptTime":"2026-04-18T13:56:29.675Z","obsTime":1776520380,"reportTime":"2026-04-18T14:00:00.000Z","temp":24.4,"dewp":21.7,"wdir":170,"wspd":5,"visib":"10+","altim":1011.9,"slp":1011.9,"qcField":4,"metarType":"METAR","rawOb":"METAR KIAH 181353Z 17005KT 10SM SCT034 BKN110 BKN250 24/22 A2988 RMK AO2 SLP119 T02440217","lat":29.9844,"lon":-95.3607,"elev":27,"name":"Houston/Bush Intl, TX, US","cover":"BKN","clouds":[{"cover":"SCT","base":3400},{"cover":"BKN","base":11000},{"cover":"BKN","base":25000}],"fltCat":"VFR"},{"icaoId":"KACV","receiptTime":"2026-04-18T13:56:25.776Z","obsTime":1776520380,"reportTime":"2026-04-18T14:00:00.000Z","temp":5,"dewp":4.4,"wdir":0,"wspd":0,"visib":"10+","altim":1017,"slp":1017.6,"qcField":6,"metarType":"METAR","rawOb":"METAR KACV 181353Z AUTO 00000KT 10SM OVC007 05/04 A3003 RMK AO2 SLP176 T00500044","lat":40.9784,"lon":-124.1048,"elev":63,"name":"Arcata Arpt, CA, US","cover":"OVC","clouds":[{"cover":"OVC","base":700}],"fltCat":"IFR"},{"icaoId":"KAMA","receiptTime":"2026-04-18T13:56:25.926Z","obsTime":1776520380,"reportTime":"2026-04-18T14:00:00.000Z","temp":5,"dewp":-4.4,"wdir":10,"wspd":10,"visib":"10+","altim":1024.8,"slp":1023,"qcField":4,"metarType":"METAR","rawOb":"METAR KAMA 181353Z 01010KT 10SM CLR 05/M04 A3026 RMK AO2 SLP230 T00501044","lat":35.2203,"lon":-101.7173,"elev":1102,"name":"Amarillo Intl Arpt, TX, US","cover":"CLR","clouds":[],"fltCat":"VFR"},{"icaoId":"KAPA","receiptTime":"2026-04-18T13:56:25.999Z","obsTime":1776520380,"reportTime":"2026-04-18T14:00:00.000Z","temp":-1.1,"dewp":-10.6,"wdir":280,"wspd":6,"visib":"10+","altim":1024.1,"slp":1027.6,"qcField":4,"metarType":"METAR","rawOb":"METAR KAPA 181353Z 28006KT 10SM FEW080 FEW110 FEW220 M01/M11 A3024 RMK AO2 SLP276 T10111106","lat":39.5599,"lon":-104.8484,"elev":1791,"name":"Denver/Centennial Arpt, CO, US","cover":"FEW","clouds":[{"cover":"FEW","base":8000},{"cover":"FEW","base":11000},{"cover":"FEW","base":22000}],"fltCat":"VFR"},{"icaoId":"KBTM","receiptTime":"2026-04-18T13:56:26.201Z","obsTime":1776520380,"reportTime":"2026-04-18T14:00:00.000Z","temp":-7.2,"dewp":-10,"wdir":0,"wspd":0,"visib":"10+","altim":1022.8,"slp":1026.6,"qcField":6,"metarType":"METAR","rawOb":"METAR KBTM 181353Z AUTO 00000KT 10SM CLR M07/M10 A3020 RMK AO2 SLP266 T10721100","lat":45.9644,"lon":-112.5015,"elev":1680,"name":"Butte/Mooney Arpt, MT, US","cover":"CLR","clouds":[],"fltCat":"VFR"},{"icaoId":"KFAT","receiptTime":"2026-04-18T13:56:27.665Z","obsTime":1776520380,"reportTime":"2026-04-18T14:00:00.000Z","temp":11.1,"dewp":6.7,"wdir":0,"wspd":0,"visib":"10+","altim":1016.3,"slp":1016,"qcField":12,"metarType":"METAR","rawOb":"METAR KFAT 181353Z 00000KT 10SM FEW100 SCT150 SCT200 11/07 A3001 RMK AO2 SLP160 T01110067 $","lat":36.78,"lon":-119.7202,"elev":102,"name":"Fresno/Yosemite Intl, CA, US","cover":"SCT","clouds":[{"cover":"FEW","base":10000},{"cover":"SCT","base":15000},{"cover":"SCT","base":20000}],"fltCat":"VFR"},{"icaoId":"KMYR","receiptTime":"2026-04-18T13:56:26.963Z","obsTime":1776520380,"reportTime":"2026-04-18T14:00:00.000Z","temp":22.8,"dewp":20,"wdir":180,"wspd":8,"visib":"10+","altim":1016.3,"slp":1016,"qcField":12,"metarType":"METAR","rawOb":"METAR KMYR 181353Z 18008KT 10SM CLR 23/20 A3001 RMK AO2 SLP160 T02280200 $","lat":33.6769,"lon":-78.9325,"elev":7,"name":"Myrtle Beach Intl, SC, US","cover":"CLR","clouds":[],"fltCat":"VFR"},{"icaoId":"KSWO","receiptTime":"2026-04-18T13:56:27.198Z","obsTime":1776520380,"reportTime":"2026-04-18T14:00:00.000Z","temp":9.4,"dewp":0,"wdir":40,"wspd":15,"wgst":25,"visib":"10+","altim":1022.1,"slp":1021.5,"qcField":4,"metarType":"METAR","rawOb":"METAR KSWO 181353Z 04015G25KT 10SM CLR 09/00 A3018 RMK AO2 PK WND 04026/1335 SLP215 T00940000","lat":36.1624,"lon":-97.0832,"elev":293,"name":"Stillwater Muni, OK, US","cover":"CLR","clouds":[],"fltCat":"VFR"},{"icaoId":"KMSP","receiptTime":"2026-04-18T13:56:30.952Z","obsTime":1776520380,"reportTime":"2026-04-18T14:00:00.000Z","temp":0,"dewp":-9.4,"wdir":300,"wspd":20,"wgst":28,"visib":"10+","altim":1013.6,"slp":1014.1,"qcField":4,"metarType":"METAR","rawOb":"METAR KMSP 181353Z 30020G28KT 10SM OVC035 00/M09 A2993 RMK AO2 PK WND 28028/1351 SLP141 T00001094","lat":44.8852,"lon":-93.2313,"elev":255,"name":"Minneapolis-St Paul Intl, MN, US","cover":"OVC","clouds":[{"cover":"OVC","base":3500}],"fltCat":"VFR"},{"icaoId":"KBRO","receiptTime":"2026-04-18T13:56:27.372Z","obsTime":1776520380,"reportTime":"2026-04-18T14:00:00.000Z","temp":26.1,"dewp":22.2,"wdir":160,"wspd":17,"visib":"10+","altim":1009.6,"slp":1009.3,"qcField":4,"metarType":"METAR","rawOb":"METAR KBRO 181353Z 16017KT 10SM FEW014 BKN028 26/22 A2981 RMK AO2 SLP093 T02610222","lat":25.9146,"lon":-97.4231,"elev":6,"name":"Brownsville Intl, TX, US","cover":"BKN","clouds":[{"cover":"FEW","base":1400},{"cover":"BKN","base":2800}],"fltCat":"MVFR"},{"icaoId":"KMCI","receiptTime":"2026-04-18T13:56:27.389Z","obsTime":1776520380,"reportTime":"2026-04-18T14:00:00.000Z","temp":5.6,"dewp":-5,"wdir":350,"wspd":14,"wgst":21,"visib":"10+","altim":1020.7,"slp":1020.9,"qcField":4,"metarType":"METAR","rawOb":"METAR KMCI 181353Z 35014G21KT 10SM CLR 06/M05 A3014 RMK AO2 SLP209 T00561050","lat":39.2975,"lon":-94.7309,"elev":308,"name":"Kansas City Intl, MO, US","cover":"CLR","clouds":[],"fltCat":"VFR"},{"icaoId":"KCLL","receiptTime":"2026-04-18T13:56:27.587Z","obsTime":1776520380,"reportTime":"2026-04-18T14:00:00.000Z","temp":22.2,"dewp":20.6,"wdir":0,"wspd":0,"visib":8,"altim":1013.6,"slp":1013.1,"qcField":4,"metarType":"METAR","rawOb":"METAR KCLL 181353Z 00000KT 8SM SCT014 BKN020 OVC033 22/21 A2993 RMK AO2 SLP131 T02220206","lat":30.5912,"lon":-96.3631,"elev":96,"name":"College Station/Easterwood Arpt, TX, US","cover":"OVC","clouds":[{"cover":"SCT","base":1400},{"cover":"BKN","base":2000},{"cover":"OVC","base":3300}],"fltCat":"MVFR"},{"icaoId":"KCNY","receiptTime":"2026-04-18T13:56:27.598Z","obsTime":1776520380,"reportTime":"2026-04-18T14:00:00.000Z","temp":3.3,"dewp":-8.9,"wdir":130,"wspd":4,"visib":"10+","altim":1026.2,"slp":1026.2,"qcField":14,"metarType":"METAR","rawOb":"METAR KCNY 181353Z AUTO 13004KT 10SM CLR 03/M09 A3030 RMK AO2 SLP262 T00331089 $","lat":38.7501,"lon":-109.7627,"elev":1392,"name":"Moab/Canyonland Fld, UT, US","cover":"CLR","clouds":[],"fltCat":"VFR"},{"icaoId":"KELY","receiptTime":"2026-04-18T13:56:27.639Z","obsTime":1776520380,"reportTime":"2026-04-18T14:00:00.000Z","temp":-6.1,"dewp":-14.4,"wdir":180,"wspd":6,"visib":"10+","altim":1024.1,"slp":1023.9,"qcField":14,"metarType":"METAR","rawOb":"METAR KELY 181353Z AUTO 18006KT 10SM CLR M06/M14 A3024 RMK AO2 SLP239 T10611144 $","lat":39.2954,"lon":-114.8466,"elev":1906,"name":"Ely/Yelland Fld, NV, US","cover":"CLR","clouds":[],"fltCat":"VFR"},{"icaoId":"KLAX","receiptTime":"2026-04-18T13:56:27.730Z","obsTime":1776520380,"reportTime":"2026-04-18T14:00:00.000Z","temp":14.4,"dewp":12.2,"wdir":90,"wspd":4,"visib":"10+","altim":1014.3,"slp":1014,"qcField":12,"metarType":"METAR","rawOb":"METAR KLAX 181353Z 09004KT 10SM SCT250 14/12 A2995 RMK AO2 SLP140 T01440122 $","lat":33.9382,"lon":-118.3866,"elev":30,"name":"Los Angeles Intl, CA, US","cover":"SCT","clouds":[{"cover":"SCT","base":25000}],"fltCat":"VFR"},{"icaoId":"KLBB","receiptTime":"2026-04-18T13:56:27.743Z","obsTime":1776520380,"reportTime":"2026-04-18T14:00:00.000Z","temp":7.2,"dewp":-5.6,"wdir":20,"wspd":19,"wgst":27,"visib":"10+","altim":1023.5,"slp":1020,"qcField":4,"metarType":"METAR","rawOb":"METAR KLBB 181353Z 02019G27KT 10SM FEW150 07/M06 A3022 RMK AO2 PK WND 36029/1321 SLP200 T00721056","lat":33.6658,"lon":-101.8233,"elev":996,"name":"Lubbock Intl Arpt, TX, US","cover":"FEW","clouds":[{"cover":"FEW","base":15000}],"fltCat":"VFR"},{"icaoId":"KRIW","receiptTime":"2026-04-18T13:56:27.818Z","obsTime":1776520380,"reportTime":"2026-04-18T14:00:00.000Z","temp":-1.7,"dewp":-14.4,"wdir":250,"wspd":8,"visib":"10+","altim":1021.8,"slp":1023.4,"qcField":6,"metarType":"METAR","rawOb":"METAR KRIW 181353Z AUTO 25008KT 10SM CLR M02/M14 A3017 RMK AO2 SLP234 T10171144","lat":43.0622,"lon":-108.4471,"elev":1662,"name":"Riverton Rgnl, WY, US","cover":"CLR","clouds":[],"fltCat":"VFR"},{"icaoId":"KTUS","receiptTime":"2026-04-18T13:56:27.934Z","obsTime":1776520380,"reportTime":"2026-04-18T14:00:00.000Z","temp":14.4,"dewp":-3.3,"wdir":120,"wspd":6,"visib":"10+","altim":1016.7,"slp":1013.2,"qcField":4,"metarType":"METAR","rawOb":"METAR KTUS 181353Z 12006KT 10SM CLR 14/M03 A3002 RMK AO2 SLP132 T01441033","lat":32.1315,"lon":-110.9564,"elev":776,"name":"Tucson Intl Arpt, AZ, US","cover":"CLR","clouds":[],"fltCat":"VFR"},{"icaoId":"KPSP","receiptTime":"2026-04-18T13:56:28.174Z","obsTime":1776520380,"reportTime":"2026-04-18T14:00:00.000Z","temp":15,"dewp":-10.6,"wdir":340,"wspd":5,"visib":"10+","altim":1015.3,"slp":1015.2,"qcField":12,"metarType":"METAR","rawOb":"METAR KPSP 181353Z 34005KT 10SM CLR 15/M11 A2998 RMK AO2 SLP152 T01501106 $","lat":33.8222,"lon":-116.5043,"elev":123,"name":"Palm Springs Intl, CA, US","cover":"CLR","clouds":[],"fltCat":"VFR"},{"icaoId":"KPUB","receiptTime":"2026-04-18T13:56:28.205Z","obsTime":1776520380,"reportTime":"2026-04-18T14:00:00.000Z","temp":0.6,"dewp":-3.9,"wdir":260,"wspd":5,"visib":"10+","altim":1025.5,"slp":1026.5,"qcField":12,"metarType":"METAR","rawOb":"METAR KPUB 181353Z 26005KT 10SM CLR 01/M04 A3028 RMK AO2 SLP265 T00061039 $","lat":38.2887,"lon":-104.5057,"elev":1441,"name":"Pueblo Mem Arpt, CO, US","cover":"CLR","clouds":[],"fltCat":"VFR"},{"icaoId":"KPUW","receiptTime":"2026-04-18T13:56:28.234Z","obsTime":1776520380,"reportTime":"2026-04-18T14:00:00.000Z","temp":2.8,"dewp":-1.7,"wdir":100,"wspd":13,"visib":"10+","altim":1021.8,"slp":1023,"qcField":6,"metarType":"METAR","rawOb":"METAR KPUW 181353Z AUTO 10013KT 10SM CLR 03/M02 A3017 RMK AO2 SLP230 T00281017","lat":46.7438,"lon":-117.1158,"elev":774,"name":"Pullman/Moscow Rgnl, WA, US","cover":"CLR","clouds":[],"fltCat":"VFR"},{"icaoId":"KTPA","receiptTime":"2026-04-18T13:56:28.602Z","obsTime":1776520380,"reportTime":"2026-04-18T14:00:00.000Z","temp":26.1,"dewp":20.6,"wdir":200,"wspd":6,"visib":"10+","altim":1017,"slp":1016.9,"qcField":4,"metarType":"METAR","rawOb":"METAR KTPA 181353Z 20006KT 10SM FEW018 FEW250 26/21 A3003 RMK AO2 SLP169 T02610206","lat":27.9633,"lon":-82.54,"elev":2,"name":"Tampa Intl Arpt, FL, US","cover":"FEW","clouds":[{"cover":"FEW","base":1800},{"cover":"FEW","base":25000}],"fltCat":"VFR"},{"icaoId":"KSAF","receiptTime":"2026-04-18T13:56:28.787Z","obsTime":1776520380,"reportTime":"2026-04-18T14:00:00.000Z","temp":0.6,"dewp":-17.8,"wdir":50,"wspd":7,"visib":"10+","altim":1024.8,"slp":1022.1,"qcField":4,"metarType":"METAR","rawOb":"METAR KSAF 181353Z 05007KT 10SM CLR 01/M18 A3026 RMK AO2 SLP221 T00061178","lat":35.611,"lon":-106.0957,"elev":1918,"name":"Santa Fe Cnty Muni, NM, US","cover":"CLR","clouds":[],"fltCat":"VFR"},{"icaoId":"KSJC","receiptTime":"2026-04-18T13:56:28.927Z","obsTime":1776520380,"reportTime":"2026-04-18T14:00:00.000Z","temp":8.3,"dewp":2.8,"wdir":0,"wspd":0,"visib":"10+","altim":1016.3,"slp":1016.1,"qcField":4,"metarType":"METAR","rawOb":"METAR KSJC 181353Z 00000KT 10SM SCT110 08/03 A3001 RMK AO2 SLP161 T00830028","lat":37.3594,"lon":-121.9244,"elev":13,"name":"San Jose Intl Arpt, CA, US","cover":"SCT","clouds":[{"cover":"SCT","base":11000}],"fltCat":"VFR"},{"icaoId":"KSNA","receiptTime":"2026-04-18T13:56:28.976Z","obsTime":1776520380,"reportTime":"2026-04-18T14:00:00.000Z","temp":14.4,"dewp":11.7,"wdir":0,"wspd":0,"visib":"10+","altim":1014,"slp":1013.9,"qcField":4,"metarType":"METAR","rawOb":"METAR KSNA 181353Z 00000KT 10SM FEW250 14/12 A2994 RMK AO2 SLP139 T01440117","lat":33.6798,"lon":-117.8675,"elev":14,"name":"Santa Ana/Wayne Arpt, CA, US","cover":"FEW","clouds":[{"cover":"FEW","base":25000}],"fltCat":"VFR"},{"icaoId":"KFUL","receiptTime":"2026-04-18T13:56:29.986Z","obsTime":1776520380,"reportTime":"2026-04-18T14:00:00.000Z","temp":13.9,"dewp":11.1,"wdir":90,"wspd":3,"visib":"10+","altim":1014,"slp":1013.8,"qcField":4,"metarType":"METAR","rawOb":"METAR KFUL 181353Z 09003KT 10SM CLR 14/11 A2994 RMK AO2 SLP138 T01390111","lat":33.8715,"lon":-117.9856,"elev":23,"name":"Fullerton Muni, CA, US","cover":"CLR","clouds":[],"fltCat":"VFR"},{"icaoId":"KOGD","receiptTime":"2026-04-18T13:56:30.113Z","obsTime":1776520380,"reportTime":"2026-04-18T14:00:00.000Z","temp":0.6,"dewp":-10,"wdir":160,"wspd":6,"visib":"10+","altim":1025.5,"slp":1025.6,"qcField":4,"metarType":"METAR","rawOb":"METAR KOGD 181353Z 16006KT 10SM CLR 01/M10 A3028 RMK AO2 SLP256 T00061100","lat":41.1941,"lon":-112.0168,"elev":1356,"name":"Ogden/Hinckley Arpt, UT, US","cover":"CLR","clouds":[],"fltCat":"VFR"},{"icaoId":"KPAE","receiptTime":"2026-04-18T13:56:30.295Z","obsTime":1776520380,"reportTime":"2026-04-18T14:00:00.000Z","temp":5.6,"dewp":2.8,"wdir":50,"wspd":3,"visib":"10+","altim":1018.4,"slp":1018.5,"qcField":6,"metarType":"METAR","rawOb":"METAR KPAE 181353Z AUTO 05003KT 10SM CLR 06/03 A3007 RMK AO2 SLP185 T00560028","lat":47.9232,"lon":-122.2831,"elev":166,"name":"Everett/Paine Fld, WA, US","cover":"CLR","clouds":[],"fltCat":"VFR"},{"icaoId":"KPIH","receiptTime":"2026-04-18T13:56:30.446Z","obsTime":1776520380,"reportTime":"2026-04-18T14:00:00.000Z","temp":-1.7,"dewp":-8.9,"wdir":0,"wspd":0,"visib":"10+","altim":1024.8,"slp":1025.9,"qcField":4,"metarType":"METAR","rawOb":"METAR KPIH 181353Z 00000KT 10SM CLR M02/M09 A3026 RMK AO2 SLP259 T10171089","lat":42.9197,"lon":-112.5723,"elev":1357,"name":"Pocatello Rgnl, ID, US","cover":"CLR","clouds":[],"fltCat":"VFR"},{"icaoId":"KHIO","receiptTime":"2026-04-18T13:56:30.513Z","obsTime":1776520380,"reportTime":"2026-04-18T14:00:00.000Z","temp":3.9,"dewp":2.8,"wdir":0,"wspd":0,"visib":"10+","altim":1018,"slp":1018,"qcField":4,"metarType":"METAR","rawOb":"METAR KHIO 181353Z 00000KT 10SM CLR 04/03 A3006 RMK AO2 SLP180 T00390028","lat":45.5476,"lon":-122.9557,"elev":62,"name":"Portland/Hillsboro Arpt, OR, US","cover":"CLR","clouds":[],"fltCat":"VFR"},{"icaoId":"KHOU","receiptTime":"2026-04-18T13:56:30.616Z","obsTime":1776520380,"reportTime":"2026-04-18T14:00:00.000Z","temp":23.9,"dewp":21.7,"wdir":200,"wspd":3,"visib":7,"altim":1012.3,"slp":1012.7,"qcField":4,"metarType":"METAR","rawOb":"METAR KHOU 181353Z 20003KT 7SM SCT025 OVC037 24/22 A2989 RMK AO2 SLP127 T02390217","lat":29.6458,"lon":-95.2821,"elev":13,"name":"Houston/Hobby Arpt, TX, US","cover":"OVC","clouds":[{"cover":"SCT","base":2500},{"cover":"OVC","base":3700}],"fltCat":"VFR"},{"icaoId":"KMOD","receiptTime":"2026-04-18T13:56:30.897Z","obsTime":1776520380,"reportTime":"2026-04-18T14:00:00.000Z","temp":7.8,"dewp":5.6,"wdir":0,"wspd":0,"visib":"10+","altim":1015.7,"slp":1015.6,"qcField":6,"metarType":"METAR","rawOb":"METAR KMOD 181353Z AUTO 00000KT 10SM CLR 08/06 A2999 RMK AO2 SLP156 T00780056","lat":37.6254,"lon":-120.9549,"elev":25,"name":"Modesto/Sham Fld, CA, US","cover":"CLR","clouds":[],"fltCat":"VFR"},{"icaoId":"KMYF","receiptTime":"2026-04-18T13:56:31.055Z","obsTime":1776520380,"reportTime":"2026-04-18T14:00:00.000Z","temp":12.8,"dewp":11.1,"wdir":0,"wspd":0,"visib":"10+","altim":1014.3,"slp":1013.9,"qcField":4,"metarType":"METAR","rawOb":"METAR KMYF 181353Z 00000KT 10SM CLR 13/11 A2995 RMK AO2 SLP139 T01280111","lat":32.8145,"lon":-117.1375,"elev":128,"name":"San Diego/Montgomery Arpt, CA, US","cover":"CLR","clouds":[],"fltCat":"VFR"},{"icaoId":"KPDX","receiptTime":"2026-04-18T13:56:31.981Z","obsTime":1776520380,"reportTime":"2026-04-18T14:00:00.000Z","temp":6.7,"dewp":4.4,"wdir":0,"wspd":0,"visib":"10+","altim":1018.4,"slp":1018.1,"qcField":12,"metarType":"METAR","rawOb":"METAR KPDX 181353Z 00000KT 10SM FEW120 SCT160 BKN250 07/04 A3007 RMK AO2 SLP181 T00670044 $","lat":45.5958,"lon":-122.6092,"elev":7,"name":"Portland Intl, OR, US","cover":"BKN","clouds":[{"cover":"FEW","base":12000},{"cover":"SCT","base":16000},{"cover":"BKN","base":25000}],"fltCat":"VFR"},{"icaoId":"KFMN","receiptTime":"2026-04-18T13:56:32.044Z","obsTime":1776520380,"reportTime":"2026-04-18T14:00:00.000Z","temp":0,"dewp":-15.6,"wdir":0,"wspd":0,"visib":"10+","altim":1025.5,"slp":1025.7,"qcField":4,"metarType":"METAR","rawOb":"METAR KFMN 181353Z 00000KT 10SM CLR 00/M16 A3028 RMK AO2 SLP257 T00001156","lat":36.7435,"lon":-108.2293,"elev":1677,"name":"Farmington/Four Corners Rgnl, NM, US","cover":"CLR","clouds":[],"fltCat":"VFR"},{"icaoId":"KGEG","receiptTime":"2026-04-18T13:56:32.113Z","obsTime":1776520380,"reportTime":"2026-04-18T14:00:00.000Z","temp":1.1,"dewp":-2.2,"wdir":60,"wspd":5,"visib":"10+","altim":1021.8,"slp":1022.7,"qcField":12,"metarType":"METAR","rawOb":"METAR KGEG 181353Z 06005KT 10SM BKN240 01/M02 A3017 RMK AO2 SLP227 T00111022 $","lat":47.6217,"lon":-117.528,"elev":718,"name":"Spokane Intl, WA, US","cover":"BKN","clouds":[{"cover":"BKN","base":24000}],"fltCat":"VFR"},{"icaoId":"PANC","receiptTime":"2026-04-18T13:56:32.381Z","obsTime":1776520380,"reportTime":"2026-04-18T14:00:00.000Z","temp":0.6,"dewp":0,"wdir":150,"wspd":4,"visib":"10+","altim":1012.3,"slp":1012.4,"qcField":4,"wxString":"-RA","precip":0.005,"metarType":"METAR","rawOb":"METAR PANC 181353Z 15004KT 10SM -RA BKN003 BKN075 01/00 A2989 RMK AO2 SLP124 P0000 T00060000","lat":61.1691,"lon":-150.0277,"elev":39,"name":"Anchorage Intl, AK, US","cover":"BKN","clouds":[{"cover":"BKN","base":300},{"cover":"BKN","base":7500}],"fltCat":"LIFR"},{"icaoId":"KGSP","receiptTime":"2026-04-18T13:56:32.615Z","obsTime":1776520380,"reportTime":"2026-04-18T14:00:00.000Z","temp":22.8,"dewp":11.1,"wdir":0,"wspd":0,"visib":"10+","altim":1015.7,"slp":1014.4,"qcField":4,"metarType":"METAR","rawOb":"METAR KGSP 181353Z 00000KT 10SM CLR 23/11 A2999 RMK AO2 SLP144 T02280111","lat":34.8842,"lon":-82.2209,"elev":285,"name":"Greenville-Spartanburg Intl, SC, US","cover":"CLR","clouds":[],"fltCat":"VFR"},{"icaoId":"KLAR","receiptTime":"2026-04-18T13:56:32.882Z","obsTime":1776520380,"reportTime":"2026-04-18T14:00:00.000Z","temp":-3.3,"dewp":-12.2,"wdir":270,"wspd":17,"visib":"10+","altim":1021.8,"slp":1023.7,"qcField":6,"metarType":"METAR","rawOb":"METAR KLAR 181353Z AUTO 27017KT 10SM CLR M03/M12 A3017 RMK AO2 SLP237 T10331122","lat":41.3165,"lon":-105.6729,"elev":2217,"name":"Laramie Rgnl, WY, US","cover":"CLR","clouds":[],"fltCat":"VFR"},{"icaoId":"KLGB","receiptTime":"2026-04-18T13:56:32.999Z","obsTime":1776520380,"reportTime":"2026-04-18T14:00:00.000Z","temp":13.9,"dewp":12.2,"wdir":0,"wspd":0,"visib":"10+","altim":1014,"slp":1013.8,"qcField":14,"metarType":"METAR","rawOb":"METAR KLGB 181353Z AUTO 00000KT 10SM CLR 14/12 A2994 RMK AO2 SLP138 T01390122 $","lat":33.8118,"lon":-118.1472,"elev":10,"name":"Long Beach Arpt, CA, US","cover":"CLR","clouds":[],"fltCat":"VFR"},{"icaoId":"KIDA","receiptTime":"2026-04-18T13:56:29.713Z","obsTime":1776520380,"reportTime":"2026-04-18T14:00:00.000Z","temp":-2.8,"dewp":-7.8,"wdir":0,"wspd":0,"visib":"10+","altim":1025.1,"slp":1027.2,"qcField":4,"metarType":"METAR","rawOb":"METAR KIDA 181353Z 00000KT 10SM CLR M03/M08 A3027 RMK AO2 SLP272 T10281078","lat":43.5204,"lon":-112.0675,"elev":1444,"name":"Idaho Falls Rgnl, ID, US","cover":"CLR","clouds":[],"fltCat":"VFR"},{"icaoId":"KYKM","receiptTime":"2026-04-18T13:56:32.200Z","obsTime":1776520380,"reportTime":"2026-04-18T14:00:00.000Z","temp":3.3,"dewp":-1.7,"wdir":260,"wspd":7,"visib":"10+","altim":1020.4,"slp":1021,"qcField":4,"metarType":"METAR","rawOb":"METAR KYKM 181353Z 26007KT 10SM CLR 03/M02 A3013 RMK AO2 SLP210 T00331017","lat":46.564,"lon":-120.5349,"elev":319,"name":"Yakima/McAllister Fld, WA, US","cover":"CLR","clouds":[],"fltCat":"VFR"},{"icaoId":"KSTS","receiptTime":"2026-04-18T13:56:28.461Z","obsTime":1776520380,"reportTime":"2026-04-18T14:00:00.000Z","temp":4.4,"dewp":3.3,"wdir":0,"wspd":0,"visib":"10+","altim":1016.3,"slp":1015.6,"qcField":6,"metarType":"METAR","rawOb":"METAR KSTS 181353Z AUTO 00000KT 10SM CLR 04/03 A3001 RMK AO2 SLP156 T00440033","lat":38.5037,"lon":-122.811,"elev":35,"name":"Santa Rosa/Schulz Arpt, CA, US","cover":"CLR","clouds":[],"fltCat":"VFR"},{"icaoId":"KLOL","receiptTime":"2026-04-18T13:56:30.711Z","obsTime":1776520380,"reportTime":"2026-04-18T14:00:00.000Z","temp":-3.9,"dewp":-13.9,"wdir":0,"wspd":0,"visib":"10+","altim":1020.7,"slp":1021.3,"qcField":6,"metarType":"METAR","rawOb":"METAR KLOL 181353Z AUTO 00000KT 10SM CLR M04/M14 A3014 RMK AO2 SLP213 T10391139","lat":40.0684,"lon":-118.5702,"elev":1191,"name":"Lovelock/Derby Fld, NV, US","cover":"CLR","clouds":[],"fltCat":"VFR"},{"icaoId":"KMSY","receiptTime":"2026-04-18T13:56:30.978Z","obsTime":1776520380,"reportTime":"2026-04-18T14:00:00.000Z","temp":24.4,"dewp":20.6,"wdir":150,"wspd":5,"visib":"10+","altim":1014.6,"slp":1014.9,"qcField":4,"metarType":"METAR","rawOb":"METAR KMSY 181353Z 15005KT 10SM SCT044 BKN250 24/21 A2996 RMK AO2 SLP149 T02440206","lat":29.9974,"lon":-90.2777,"elev":0,"name":"New Orleans/Armstrong Intl, LA, US","cover":"BKN","clouds":[{"cover":"SCT","base":4400},{"cover":"BKN","base":25000}],"fltCat":"VFR"},{"icaoId":"KHLN","receiptTime":"2026-04-18T13:56:30.591Z","obsTime":1776520380,"reportTime":"2026-04-18T14:00:00.000Z","temp":1.7,"dewp":-7.8,"wdir":0,"wspd":0,"visib":"10+","altim":1022.4,"slp":1026.1,"qcField":4,"metarType":"METAR","rawOb":"METAR KHLN 181353Z 00000KT 10SM CLR 02/M08 A3019 RMK AO2 SLP261 T00171078","lat":46.6045,"lon":-111.9892,"elev":1178,"name":"Helena Rgnl, MT, US","cover":"CLR","clouds":[],"fltCat":"VFR"},{"icaoId":"KIAD","receiptTime":"2026-04-18T13:56:21.489Z","obsTime":1776520320,"reportTime":"2026-04-18T14:00:00.000Z","temp":22.2,"dewp":13.9,"wdir":100,"wspd":7,"visib":"10+","altim":1015,"slp":1014.8,"qcField":4,"metarType":"METAR","rawOb":"METAR KIAD 181352Z 10007KT 10SM SCT250 22/14 A2997 RMK AO2 SLP148 T02220139","lat":38.9348,"lon":-77.4473,"elev":90,"name":"Washington/Dulles Intl, VA, US","cover":"SCT","clouds":[{"cover":"SCT","base":25000}],"fltCat":"VFR"},{"icaoId":"KCLT","receiptTime":"2026-04-18T13:56:21.231Z","obsTime":1776520320,"reportTime":"2026-04-18T14:00:00.000Z","temp":26.1,"dewp":13.3,"wdir":170,"wspd":7,"visib":"10+","altim":1015,"slp":1015.3,"qcField":4,"metarType":"METAR","rawOb":"METAR KCLT 181352Z 17007KT 10SM FEW250 26/13 A2997 RMK AO2 SLP153 T02610133","lat":35.2225,"lon":-80.9543,"elev":223,"name":"Charlotte/Douglas Intl, NC, US","cover":"FEW","clouds":[{"cover":"FEW","base":25000}],"fltCat":"VFR"},{"icaoId":"KSPS","receiptTime":"2026-04-18T13:56:26.520Z","obsTime":1776520320,"reportTime":"2026-04-18T14:00:00.000Z","temp":9.4,"dewp":0.6,"wdir":10,"wspd":12,"wgst":22,"visib":"10+","altim":1022.4,"slp":1021.5,"qcField":14,"metarType":"METAR","rawOb":"METAR KSPS 181352Z AUTO 01012G22KT 10SM CLR 09/01 A3019 RMK AO2 SLP215 T00940006 $","lat":33.9785,"lon":-98.493,"elev":310,"name":"Wichita Falls Rgnl, TX, US","cover":"CLR","clouds":[],"fltCat":"VFR"},{"icaoId":"KDCA","receiptTime":"2026-04-18T13:56:21.277Z","obsTime":1776520320,"reportTime":"2026-04-18T14:00:00.000Z","temp":22.2,"dewp":15,"wdir":40,"wspd":7,"visib":"10+","altim":1015.3,"slp":1015.1,"qcField":4,"metarType":"METAR","rawOb":"METAR KDCA 181352Z 04007KT 10SM BKN250 22/15 A2998 RMK AO2 SLP151 T02220150","lat":38.8472,"lon":-77.0345,"elev":4,"name":"Washington/Reagan-National Arpt, VA, US","cover":"BKN","clouds":[{"cover":"BKN","base":25000}],"fltCat":"VFR"},{"icaoId":"KOKC","receiptTime":"2026-04-18T13:56:26.989Z","obsTime":1776520320,"reportTime":"2026-04-18T14:00:00.000Z","temp":8.9,"dewp":-1.1,"wdir":10,"wspd":18,"wgst":26,"visib":"10+","altim":1021.8,"slp":1021,"qcField":12,"metarType":"METAR","rawOb":"METAR KOKC 181352Z 01018G26KT 10SM FEW120 SCT200 BKN250 09/M01 A3017 RMK AO2 PK WND 36026/1344 SLP210 T00891011 $","lat":35.3843,"lon":-97.6003,"elev":391,"name":"Oklahoma City/Will Rogers Intl, OK, US","cover":"BKN","clouds":[{"cover":"FEW","base":12000},{"cover":"SCT","base":20000},{"cover":"BKN","base":25000}],"fltCat":"VFR"},{"icaoId":"KMLF","receiptTime":"2026-04-18T13:56:26.493Z","obsTime":1776520320,"reportTime":"2026-04-18T14:00:00.000Z","temp":-5,"dewp":-13.9,"wdir":210,"wspd":4,"visib":"10+","altim":1024.5,"slp":1025.2,"qcField":6,"metarType":"METAR","rawOb":"METAR KMLF 181352Z AUTO 21004KT 10SM CLR M05/M14 A3025 RMK AO2 SLP252 T10501139","lat":38.4225,"lon":-113.0109,"elev":1537,"name":"Milford Muni, UT, US","cover":"CLR","clouds":[],"fltCat":"VFR"},{"icaoId":"KATL","receiptTime":"2026-04-18T13:56:25.502Z","obsTime":1776520320,"reportTime":"2026-04-18T14:00:00.000Z","temp":22.2,"dewp":16.1,"wdir":290,"wspd":9,"visib":"10+","altim":1016.7,"slp":1015.5,"qcField":4,"metarType":"METAR","rawOb":"METAR KATL 181352Z 29009KT 10SM BKN200 OVC250 22/16 A3002 RMK AO2 SLP155 VIRGA SE-SW-W T02220161","lat":33.6297,"lon":-84.4422,"elev":309,"name":"Atlanta/Hartsfield-Jackson Intl, GA, US","cover":"OVC","clouds":[{"cover":"BKN","base":20000},{"cover":"OVC","base":25000}],"fltCat":"VFR"},{"icaoId":"KHRL","receiptTime":"2026-04-18T13:56:25.560Z","obsTime":1776520320,"reportTime":"2026-04-18T14:00:00.000Z","temp":25.6,"dewp":22.2,"wdir":160,"wspd":13,"visib":"10+","altim":1009.2,"slp":1008.9,"qcField":4,"metarType":"METAR","rawOb":"METAR KHRL 181352Z 16013KT 10SM BKN017 OVC023 26/22 A2980 RMK AO2 SLP089 T02560222","lat":26.2303,"lon":-97.6556,"elev":9,"name":"Harlingen/Valley Intl, TX, US","cover":"OVC","clouds":[{"cover":"BKN","base":1700},{"cover":"OVC","base":2300}],"fltCat":"MVFR"},{"icaoId":"KABI","receiptTime":"2026-04-18T13:56:26.363Z","obsTime":1776520320,"reportTime":"2026-04-18T14:00:00.000Z","temp":8.9,"dewp":7.8,"wdir":10,"wspd":14,"wgst":24,"visib":"10+","altim":1020.1,"slp":1018.6,"qcField":4,"precip":0.005,"metarType":"METAR","rawOb":"METAR KABI 181352Z 01014G24KT 10SM BKN110 09/08 A3012 RMK AO2 LTG DSNT E AND SE RAB21E51 SLP186 P0000 T00890078","lat":32.4106,"lon":-99.6821,"elev":543,"name":"Abilene Rgnl, TX, US","cover":"BKN","clouds":[{"cover":"BKN","base":11000}],"fltCat":"VFR"},{"icaoId":"KABQ","receiptTime":"2026-04-18T13:56:26.377Z","obsTime":1776520320,"reportTime":"2026-04-18T14:00:00.000Z","temp":3.9,"dewp":-18.3,"wdir":360,"wspd":11,"visib":"10+","altim":1024.5,"slp":1021.8,"qcField":12,"metarType":"METAR","rawOb":"METAR KABQ 181352Z 36011KT 10SM CLR 04/M18 A3025 RMK AO2 SLP218 T00391183 $","lat":35.0419,"lon":-106.6154,"elev":1620,"name":"Albuquerque Intl, NM, US","cover":"CLR","clouds":[],"fltCat":"VFR"},{"icaoId":"KMKE","receiptTime":"2026-04-18T13:56:26.927Z","obsTime":1776520320,"reportTime":"2026-04-18T14:00:00.000Z","temp":5.6,"dewp":-1.1,"wdir":310,"wspd":15,"wgst":24,"visib":"10+","altim":1007.9,"slp":1008,"qcField":12,"metarType":"METAR","rawOb":"METAR KMKE 181352Z 31015G24KT 10SM SCT029 BKN220 06/M01 A2976 RMK AO2 PK WND 30026/1324 SLP080 T00561011 $","lat":42.9549,"lon":-87.9045,"elev":203,"name":"Milwaukee/Mitchell Intl, WI, US","cover":"BKN","clouds":[{"cover":"SCT","base":2900},{"cover":"BKN","base":22000}],"fltCat":"VFR"},{"icaoId":"KCVG","receiptTime":"2026-04-18T13:56:21.243Z","obsTime":1776520320,"reportTime":"2026-04-18T14:00:00.000Z","temp":20,"dewp":13.3,"wdir":290,"wspd":17,"wgst":21,"visib":"10+","altim":1009.6,"slp":1008.7,"qcField":4,"metarType":"METAR","rawOb":"METAR KCVG 181352Z 29017G21KT 10SM BKN029 OVC034 20/13 A2981 RMK AO2 SLP087 WSHFT 35 T02000133","lat":39.0444,"lon":-84.6724,"elev":264,"name":"Cincinnati Intl, KY, US","cover":"OVC","clouds":[{"cover":"BKN","base":2900},{"cover":"OVC","base":3400}],"fltCat":"MVFR"},{"icaoId":"KLGU","receiptTime":"2026-04-18T13:54:12.601Z","obsTime":1776520260,"reportTime":"2026-04-18T14:00:00.000Z","temp":-4.4,"dewp":-6.1,"wdir":0,"wspd":0,"visib":"10+","altim":1026.2,"slp":1027.7,"qcField":6,"metarType":"METAR","rawOb":"METAR KLGU 181351Z AUTO 00000KT 10SM CLR M04/M06 A3030 RMK AO2 SLP277 T10441061","lat":41.7865,"lon":-111.8519,"elev":1359,"name":"Logan/Cache Arpt, UT, US","cover":"CLR","clouds":[],"fltCat":"VFR"},{"icaoId":"KACT","receiptTime":"2026-04-18T13:54:11.510Z","obsTime":1776520260,"reportTime":"2026-04-18T14:00:00.000Z","temp":16.1,"dewp":13.9,"wdir":330,"wspd":17,"wgst":26,"visib":"10+","altim":1016.7,"slp":1016,"qcField":4,"wxString":"-RA","precip":0.005,"metarType":"METAR","rawOb":"METAR KACT 181351Z 33017G26KT 10SM -RA OVC010 16/14 A3002 RMK AO2 PK WND 36028/1252 RAB45 CIG 008V013 PRESRR SLP160 P0000 T01610139","lat":31.618,"lon":-97.2283,"elev":150,"name":"Waco Rgnl, TX, US","cover":"OVC","clouds":[{"cover":"OVC","base":1000}],"fltCat":"MVFR"},{"icaoId":"KBDL","receiptTime":"2026-04-18T13:54:11.750Z","obsTime":1776520260,"reportTime":"2026-04-18T14:00:00.000Z","temp":13.9,"dewp":8.3,"wdir":70,"wspd":7,"visib":"10+","altim":1019.7,"slp":1019.7,"qcField":4,"metarType":"METAR","rawOb":"METAR KBDL 181351Z 07007KT 10SM BKN019 14/08 A3011 RMK AO2 SLP197 T01390083","lat":41.9374,"lon":-72.682,"elev":52,"name":"Hartford/Bradley Intl, CT, US","cover":"BKN","clouds":[{"cover":"BKN","base":1900}],"fltCat":"MVFR"},{"icaoId":"KCLE","receiptTime":"2026-04-18T13:54:11.985Z","obsTime":1776520260,"reportTime":"2026-04-18T14:00:00.000Z","temp":21.7,"dewp":10.6,"wdir":190,"wspd":15,"wgst":26,"visib":"10+","altim":1005.2,"slp":1006.3,"qcField":12,"metarType":"METAR","rawOb":"METAR KCLE 181351Z 19015G26KT 10SM FEW090 BKN185 OVC240 22/11 A2968 RMK AO2 PK WND 19026/1346 SLP063 T02170106 $","lat":41.4057,"lon":-81.8519,"elev":237,"name":"Cleveland/Hopkins Intl, OH, US","cover":"OVC","clouds":[{"cover":"FEW","base":9000},{"cover":"BKN","base":18500},{"cover":"OVC","base":24000}],"fltCat":"VFR"},{"icaoId":"KCMH","receiptTime":"2026-04-18T13:54:12.045Z","obsTime":1776520260,"reportTime":"2026-04-18T14:00:00.000Z","temp":22.2,"dewp":12.8,"wdir":190,"wspd":13,"wgst":24,"visib":"10+","altim":1008.5,"slp":1007.8,"qcField":4,"metarType":"METAR","rawOb":"METAR KCMH 181351Z 19013G24KT 10SM BKN050 BKN170 22/13 A2978 RMK AO2 SLP078 T02220128","lat":39.9907,"lon":-82.877,"elev":257,"name":"Columbus/Glenn Intl, OH, US","cover":"BKN","clouds":[{"cover":"BKN","base":5000},{"cover":"BKN","base":17000}],"fltCat":"VFR"},{"icaoId":"KMYL","receiptTime":"2026-04-18T13:54:12.712Z","obsTime":1776520260,"reportTime":"2026-04-18T14:00:00.000Z","temp":-3.9,"dewp":-6.7,"wdir":0,"wspd":0,"visib":"10+","altim":1023.1,"slp":1025.5,"qcField":6,"metarType":"METAR","rawOb":"METAR KMYL 181351Z AUTO 00000KT 10SM CLR M04/M07 A3021 RMK AO2 SLP255 T10391067","lat":44.8943,"lon":-116.0998,"elev":1532,"name":"McCall Muni, ID, US","cover":"CLR","clouds":[],"fltCat":"VFR"},{"icaoId":"KOXR","receiptTime":"2026-04-18T13:54:12.803Z","obsTime":1776520260,"reportTime":"2026-04-18T14:00:00.000Z","temp":11.1,"dewp":3.3,"wdir":0,"wspd":0,"visib":"10+","altim":1014,"slp":1013.7,"qcField":12,"metarType":"METAR","rawOb":"METAR KOXR 181351Z 00000KT 10SM CLR 11/03 A2994 RMK AO2 SLP137 T01110033 $","lat":34.2001,"lon":-119.2042,"elev":12,"name":"Oxnard Arpt, CA, US","cover":"CLR","clouds":[],"fltCat":"VFR"},{"icaoId":"KSAN","receiptTime":"2026-04-18T13:54:12.975Z","obsTime":1776520260,"reportTime":"2026-04-18T14:00:00.000Z","temp":13.9,"dewp":11.1,"wdir":0,"wspd":0,"visib":"10+","altim":1014.6,"slp":1014.6,"qcField":12,"metarType":"METAR","rawOb":"METAR KSAN 181351Z 00000KT 10SM CLR 14/11 A2996 RMK AO2 SLP146 T01390111 $","lat":32.7364,"lon":-117.1973,"elev":3,"name":"San Diego Intl Arpt, CA, US","cover":"CLR","clouds":[],"fltCat":"VFR"},{"icaoId":"KJFK","receiptTime":"2026-04-18T13:54:12.566Z","obsTime":1776520260,"reportTime":"2026-04-18T14:00:00.000Z","temp":15,"dewp":10,"wdir":130,"wspd":14,"visib":"10+","altim":1018.4,"slp":1018.4,"qcField":4,"metarType":"METAR","rawOb":"METAR KJFK 181351Z 13014KT 10SM FEW009 FEW020 SCT250 15/10 A3007 RMK AO2 SLP184 T01500100","lat":40.6392,"lon":-73.7639,"elev":3,"name":"New York/JF Kennedy Intl, NY, US","cover":"SCT","clouds":[{"cover":"FEW","base":900},{"cover":"FEW","base":2000},{"cover":"SCT","base":25000}],"fltCat":"VFR"},{"icaoId":"KORD","receiptTime":"2026-04-18T13:54:12.756Z","obsTime":1776520260,"reportTime":"2026-04-18T14:00:00.000Z","temp":7.2,"dewp":1.7,"wdir":280,"wspd":14,"wgst":25,"visib":"10+","altim":1009.2,"slp":1009,"qcField":12,"metarType":"METAR","rawOb":"METAR KORD 181351Z 28014G25KT 10SM SCT024 SCT100 BKN210 OVC250 07/02 A2980 RMK AO2 SLP090 T00720017 $","lat":41.9602,"lon":-87.9316,"elev":202,"name":"Chicago/O'Hare Intl, IL, US","cover":"OVC","clouds":[{"cover":"SCT","base":2400},{"cover":"SCT","base":10000},{"cover":"BKN","base":21000},{"cover":"OVC","base":25000}],"fltCat":"VFR"},{"icaoId":"KPVD","receiptTime":"2026-04-18T13:54:12.879Z","obsTime":1776520260,"reportTime":"2026-04-18T14:00:00.000Z","temp":11.7,"dewp":10,"wdir":40,"wspd":9,"visib":"10+","altim":1020.1,"slp":1019.8,"qcField":4,"metarType":"METAR","rawOb":"METAR KPVD 181351Z 04009KT 10SM BKN010 OVC014 12/10 A3012 RMK AO2 SLP198 T01170100","lat":41.7225,"lon":-71.4325,"elev":15,"name":"Providence/Green Mem, RI, US","cover":"OVC","clouds":[{"cover":"BKN","base":1000},{"cover":"OVC","base":1400}],"fltCat":"MVFR"},{"icaoId":"KSAD","receiptTime":"2026-04-18T13:54:12.955Z","obsTime":1776520260,"reportTime":"2026-04-18T14:00:00.000Z","temp":12.8,"dewp":-7.2,"wdir":0,"wspd":0,"visib":"10+","altim":1017.4,"slp":1014,"qcField":6,"metarType":"METAR","rawOb":"METAR KSAD 181351Z AUTO 00000KT 10SM CLR 13/M07 A3004 RMK AO2 SLP140 T01281072","lat":32.8565,"lon":-109.636,"elev":937,"name":"Safford Rgnl, AZ, US","cover":"CLR","clouds":[],"fltCat":"VFR"},{"icaoId":"KORF","receiptTime":"2026-04-18T13:54:12.776Z","obsTime":1776520260,"reportTime":"2026-04-18T14:00:00.000Z","temp":26.1,"dewp":15,"wdir":"VRB","wspd":3,"visib":"10+","altim":1015,"slp":1014.9,"qcField":4,"metarType":"METAR","rawOb":"METAR KORF 181351Z VRB03KT 10SM CLR 26/15 A2997 RMK AO2 SLP149 T02610150","lat":36.9037,"lon":-76.1927,"elev":5,"name":"Norfolk Intl, VA, US","cover":"CLR","clouds":[],"fltCat":"VFR"},{"icaoId":"KIGM","receiptTime":"2026-04-18T13:54:12.498Z","obsTime":1776520260,"reportTime":"2026-04-18T14:00:00.000Z","temp":8.3,"dewp":-20,"wdir":220,"wspd":3,"visib":"10+","altim":1018.7,"slp":1014.7,"qcField":6,"metarType":"METAR","rawOb":"METAR KIGM 181351Z AUTO 22003KT 10SM CLR 08/M20 A3008 RMK AO2 SLP147 T00831200","lat":35.2575,"lon":-113.9341,"elev":1045,"name":"Kingman Arpt, AZ, US","cover":"CLR","clouds":[],"fltCat":"VFR"},{"icaoId":"KCRP","receiptTime":"2026-04-18T13:54:12.130Z","obsTime":1776520260,"reportTime":"2026-04-18T14:00:00.000Z","temp":25,"dewp":22.2,"wdir":160,"wspd":11,"visib":"10+","altim":1010.6,"slp":1010.2,"qcField":4,"metarType":"METAR","rawOb":"METAR KCRP 181351Z 16011KT 10SM FEW014 SCT025 BKN250 25/22 A2984 RMK AO2 SLP102 T02500222","lat":27.7734,"lon":-97.513,"elev":11,"name":"Corpus Christi Intl, TX, US","cover":"BKN","clouds":[{"cover":"FEW","base":1400},{"cover":"SCT","base":2500},{"cover":"BKN","base":25000}],"fltCat":"VFR"},{"icaoId":"KELP","receiptTime":"2026-04-18T13:54:12.249Z","obsTime":1776520260,"reportTime":"2026-04-18T14:00:00.000Z","temp":12.8,"dewp":-3.3,"wdir":50,"wspd":5,"visib":"10+","altim":1020.1,"slp":1014.8,"qcField":4,"metarType":"METAR","rawOb":"METAR KELP 181351Z 05005KT 10SM FEW110 13/M03 A3012 RMK AO2 SLP148 T01281033","lat":31.8123,"lon":-106.3774,"elev":1205,"name":"El Paso Intl, TX, US","cover":"FEW","clouds":[{"cover":"FEW","base":11000}],"fltCat":"VFR"},{"icaoId":"KSTL","receiptTime":"2026-04-18T13:54:10.653Z","obsTime":1776520260,"reportTime":"2026-04-18T14:00:00.000Z","temp":9.4,"dewp":3.3,"wdir":330,"wspd":12,"visib":"10+","altim":1015.7,"slp":1015.1,"qcField":12,"metarType":"METAR","rawOb":"METAR KSTL 181351Z 33012KT 10SM FEW024 SCT030 OVC050 09/03 A2999 RMK AO2 SLP151 T00940033 $","lat":38.7525,"lon":-90.3734,"elev":163,"name":"St Louis/Lambert Intl, MO, US","cover":"OVC","clouds":[{"cover":"FEW","base":2400},{"cover":"SCT","base":3000},{"cover":"OVC","base":5000}],"fltCat":"VFR"},{"icaoId":"KEWR","receiptTime":"2026-04-18T13:54:12.297Z","obsTime":1776520260,"reportTime":"2026-04-18T14:00:00.000Z","temp":17.2,"dewp":10,"wdir":"VRB","wspd":3,"visib":"10+","altim":1018.4,"slp":1018.3,"qcField":4,"metarType":"METAR","rawOb":"METAR KEWR 181351Z VRB03KT 10SM FEW020 FEW040 SCT250 17/10 A3007 RMK AO2 SLP183 T01720100","lat":40.6828,"lon":-74.1692,"elev":2,"name":"Newark Intl, NJ, US","cover":"SCT","clouds":[{"cover":"FEW","base":2000},{"cover":"FEW","base":4000},{"cover":"SCT","base":25000}],"fltCat":"VFR"},{"icaoId":"KVNY","receiptTime":"2026-04-18T13:54:12.414Z","obsTime":1776520260,"reportTime":"2026-04-18T14:00:00.000Z","temp":11.7,"dewp":3.3,"wdir":0,"wspd":0,"visib":"10+","altim":1014.3,"slp":1013.4,"qcField":12,"metarType":"METAR","rawOb":"METAR KVNY 181351Z 00000KT 10SM CLR 12/03 A2995 RMK AO2 SLP134 T01170033 $","lat":34.2121,"lon":-118.4915,"elev":241,"name":"Van Nuys Arpt, CA, US","cover":"CLR","clouds":[],"fltCat":"VFR"},{"icaoId":"KLGA","receiptTime":"2026-04-18T13:54:12.578Z","obsTime":1776520260,"reportTime":"2026-04-18T14:00:00.000Z","temp":12.2,"dewp":9.4,"wdir":50,"wspd":14,"visib":"10+","altim":1018.4,"slp":1018.2,"qcField":12,"metarType":"METAR","rawOb":"METAR KLGA 181351Z 05014KT 10SM FEW004 SCT250 12/09 A3007 RMK AO2 SLP182 T01220094 $","lat":40.7794,"lon":-73.8803,"elev":9,"name":"New York/La Guardia Arpt, NY, US","cover":"SCT","clouds":[{"cover":"FEW","base":400},{"cover":"SCT","base":25000}],"fltCat":"VFR"},{"icaoId":"KPHX","receiptTime":"2026-04-18T13:54:12.827Z","obsTime":1776520260,"reportTime":"2026-04-18T14:00:00.000Z","temp":17.8,"dewp":-7.8,"wdir":0,"wspd":0,"visib":"10+","altim":1014.3,"slp":1012.7,"qcField":12,"metarType":"METAR","rawOb":"METAR KPHX 181351Z 00000KT 10SM CLR 18/M08 A2995 RMK AO2 SLP127 T01781078 $","lat":33.4278,"lon":-112.0037,"elev":338,"name":"Phoenix/Sky Harbor Intl, AZ, US","cover":"CLR","clouds":[],"fltCat":"VFR"},{"icaoId":"KPIT","receiptTime":"2026-04-18T13:54:12.860Z","obsTime":1776520260,"reportTime":"2026-04-18T14:00:00.000Z","temp":21.1,"dewp":10,"wdir":180,"wspd":6,"visib":"10+","altim":1010.9,"slp":1010.8,"qcField":4,"metarType":"METAR","rawOb":"METAR KPIT 181351Z 18006KT 10SM FEW120 OVC200 21/10 A2985 RMK AO2 SLP108 T02110100","lat":40.4814,"lon":-80.2083,"elev":339,"name":"Pittsburgh Intl, PA, US","cover":"OVC","clouds":[{"cover":"FEW","base":12000},{"cover":"OVC","base":20000}],"fltCat":"VFR"},{"icaoId":"KRDU","receiptTime":"2026-04-18T13:54:12.923Z","obsTime":1776520260,"reportTime":"2026-04-18T14:00:00.000Z","temp":25,"dewp":12.8,"wdir":0,"wspd":0,"visib":"10+","altim":1015.3,"slp":1014.7,"qcField":4,"metarType":"METAR","rawOb":"METAR KRDU 181351Z 00000KT 10SM FEW200 SCT250 25/13 A2998 RMK AO2 SLP147 T02500128","lat":35.8923,"lon":-78.782,"elev":121,"name":"Raleigh-Durham Intl, NC, US","cover":"SCT","clouds":[{"cover":"FEW","base":20000},{"cover":"SCT","base":25000}],"fltCat":"VFR"},{"icaoId":"KSAT","receiptTime":"2026-04-18T13:54:13.000Z","obsTime":1776520260,"reportTime":"2026-04-18T14:00:00.000Z","temp":22.8,"dewp":20,"wdir":0,"wspd":0,"visib":"10+","altim":1011.9,"slp":1010.1,"qcField":4,"metarType":"METAR","rawOb":"METAR KSAT 181351Z 00000KT 10SM BKN011 BKN021 OVC250 23/20 A2988 RMK AO2 SLP101 T02280200","lat":29.5443,"lon":-98.4839,"elev":246,"name":"San Antonio Intl, TX, US","cover":"OVC","clouds":[{"cover":"BKN","base":1100},{"cover":"BKN","base":2100},{"cover":"OVC","base":25000}],"fltCat":"MVFR"},{"icaoId":"KROW","receiptTime":"2026-04-18T13:56:26.508Z","obsTime":1776520260,"reportTime":"2026-04-18T14:00:00.000Z","temp":7.2,"dewp":-6.1,"wdir":350,"wspd":10,"visib":"10+","altim":1025.5,"slp":1021.4,"qcField":13,"metarType":"METAR","rawOb":"METAR KROW 181351Z COR 35010KT 10SM CLR 07/M06 A3028 RMK AO2 SLP214 T00721061 $","lat":33.3074,"lon":-104.5082,"elev":1105,"name":"Roswell/Ind Arpt, NM, US","cover":"CLR","clouds":[],"fltCat":"VFR"},{"icaoId":"KAEG","receiptTime":"2026-04-18T13:46:44.362Z","obsTime":1776520200,"reportTime":"2026-04-18T14:00:00.000Z","temp":4,"dewp":-18,"wdir":320,"wspd":12,"visib":"10+","altim":1024.5,"qcField":0,"metarType":"METAR","rawOb":"METAR KAEG 181350Z 32012KT 10SM CLR 04/M18 A3025","lat":35.15,"lon":-106.7929,"elev":1771,"name":"Albuquerque/Double Eagle Arpt, NM, US","cover":"CLR","clouds":[],"fltCat":"VFR"},{"icaoId":"KHOB","receiptTime":"2026-04-18T13:53:29.774Z","obsTime":1776520200,"reportTime":"2026-04-18T14:00:00.000Z","temp":6,"dewp":-6,"wdir":30,"wspd":16,"wgst":25,"visib":"10+","altim":1024.1,"qcField":0,"metarType":"METAR","rawOb":"METAR KHOB 181350Z 03016G25KT 10SM FEW120 06/M06 A3024","lat":32.6797,"lon":-103.2222,"elev":1112,"name":"Hobbs Arpt, NM, US","cover":"FEW","clouds":[{"cover":"FEW","base":12000}],"fltCat":"VFR"},{"icaoId":"KIWA","receiptTime":"2026-04-18T13:49:24.893Z","obsTime":1776520080,"reportTime":"2026-04-18T14:00:00.000Z","temp":15,"dewp":-4,"wdir":0,"wspd":0,"visib":"10+","altim":1015,"qcField":0,"metarType":"METAR","rawOb":"METAR KIWA 181348Z 00000KT 10SM CLR 15/M04 A2997","lat":33.3008,"lon":-111.6437,"elev":420,"name":"Phoenix/Mesa Gateway Arpt, AZ, US","cover":"CLR","clouds":[],"fltCat":"VFR"},{"icaoId":"KGEU","receiptTime":"2026-04-18T13:50:19.622Z","obsTime":1776520020,"reportTime":"2026-04-18T14:00:00.000Z","temp":17,"dewp":-10,"wdir":20,"wspd":4,"visib":"10+","altim":1014,"qcField":0,"metarType":"METAR","rawOb":"METAR KGEU 181347Z 02004KT 10SM CLR 17/M10 A2994 RMK FIRST","lat":33.528,"lon":-112.293,"elev":319,"name":"Glendale Muni, AZ, US","cover":"CLR","clouds":[],"fltCat":"VFR"},{"icaoId":"KCHD","receiptTime":"2026-04-18T13:49:24.771Z","obsTime":1776520020,"reportTime":"2026-04-18T14:00:00.000Z","temp":15,"dewp":-1,"wdir":"VRB","wspd":3,"visib":"10+","altim":1014.6,"qcField":0,"metarType":"METAR","rawOb":"METAR KCHD 181347Z VRB03KT 10SM CLR 15/M01 A2996","lat":33.2669,"lon":-111.8086,"elev":378,"name":"Chandler Muni, AZ, US","cover":"CLR","clouds":[],"fltCat":"VFR"},{"icaoId":"KGYR","receiptTime":"2026-04-18T13:52:35.787Z","obsTime":1776520020,"reportTime":"2026-04-18T14:00:00.000Z","temp":17,"dewp":-9,"wdir":"VRB","wspd":4,"visib":"10+","altim":1014.6,"qcField":0,"metarType":"METAR","rawOb":"METAR KGYR 181347Z VRB04KT 10SM SKC 17/M09 A2996","lat":33.428,"lon":-112.368,"elev":292,"name":"Phoenix/Goodyear Muni, AZ, US","cover":"SKC","clouds":[],"fltCat":"VFR"},{"icaoId":"KRYN","receiptTime":"2026-04-18T13:46:05.397Z","obsTime":1776519900,"reportTime":"2026-04-18T14:00:00.000Z","temp":13,"dewp":-9,"wdir":0,"wspd":0,"visib":"10+","altim":1015.3,"qcField":0,"metarType":"METAR","rawOb":"METAR KRYN 181345Z 00000KT 10SM CLR 13/M09 A2998","lat":32.1418,"lon":-111.1767,"elev":731,"name":"Tucson/Ryan Fld, AZ, US","cover":"CLR","clouds":[],"fltCat":"VFR"},{"icaoId":"KGPI","receiptTime":"2026-04-18T13:40:45.562Z","obsTime":1776519360,"reportTime":"2026-04-18T13:36:00.000Z","temp":-3.3,"dewp":-4.4,"wdir":0,"wspd":0,"visib":0.25,"altim":1022.8,"qcField":6,"wxString":"FZFG","vertVis":1,"metarType":"SPECI","rawOb":"SPECI KGPI 181336Z AUTO 00000KT 1/4SM FZFG VV001 M03/M04 A3020 RMK AO2 T10331044","lat":48.3041,"lon":-114.2643,"elev":903,"name":"Kalispell/Glacier Park Intl, MT, US","cover":"OVX","clouds":[{"cover":"OVX","base":100}],"fltCat":"LIFR"},{"icaoId":"KSEZ","receiptTime":"2026-04-18T13:40:45.038Z","obsTime":1776519300,"reportTime":"2026-04-18T13:35:00.000Z","temp":9,"dewp":-21,"wdir":60,"wspd":12,"wgst":18,"visib":"10+","altim":1021.1,"qcField":6,"metarType":"METAR","rawOb":"METAR KSEZ 181335Z AUTO 06012G18KT 10SM CLR 09/M21 A3015 RMK AO2","lat":34.8467,"lon":-111.7884,"elev":1455,"name":"Sedona Arpt, AZ, US","cover":"CLR","clouds":[],"fltCat":"VFR"},{"icaoId":"KRTS","receiptTime":"2026-04-18T13:40:36.312Z","obsTime":1776519300,"reportTime":"2026-04-18T13:35:00.000Z","temp":-4,"dewp":-15,"wdir":0,"wspd":0,"visib":"10+","altim":1020.7,"qcField":6,"metarType":"METAR","rawOb":"METAR KRTS 181335Z AUTO 00000KT 10SM CLR M04/M15 A3014 RMK AO2","lat":39.6658,"lon":-119.8731,"elev":1537,"name":"Reno/Stead Arpt, NV, US","cover":"CLR","clouds":[],"fltCat":"VFR"},{"icaoId":"KMEV","receiptTime":"2026-04-18T13:40:44.878Z","obsTime":1776519300,"reportTime":"2026-04-18T13:35:00.000Z","temp":-6,"dewp":-10,"wdir":90,"wspd":4,"visib":"10+","altim":1020.7,"qcField":6,"metarType":"METAR","rawOb":"METAR KMEV 181335Z AUTO 09004KT 10SM CLR M06/M10 A3014 RMK AO2","lat":38.9963,"lon":-119.75,"elev":1437,"name":"Minden-Tahoe Arpt, NV, US","cover":"CLR","clouds":[],"fltCat":"VFR"},{"icaoId":"KIFP","receiptTime":"2026-04-18T13:40:46.533Z","obsTime":1776519300,"reportTime":"2026-04-18T13:35:00.000Z","temp":17,"dewp":-13,"wdir":20,"wspd":22,"wgst":28,"visib":"10+","altim":1015,"qcField":6,"metarType":"METAR","rawOb":"METAR KIFP 181335Z AUTO 02022G28KT 10SM CLR 17/M13 A2997 RMK AO2","lat":35.1487,"lon":-114.5611,"elev":210,"name":"Bullhead City Intl, AZ, US","cover":"CLR","clouds":[],"fltCat":"VFR"},{"icaoId":"KCXP","receiptTime":"2026-04-18T13:40:44.719Z","obsTime":1776519300,"reportTime":"2026-04-18T13:35:00.000Z","temp":-2,"dewp":-9,"wdir":0,"wspd":0,"visib":"10+","altim":1021.4,"qcField":6,"metarType":"METAR","rawOb":"METAR KCXP 181335Z AUTO 00000KT 10SM CLR M02/M09 A3016 RMK AO2","lat":39.1905,"lon":-119.7319,"elev":1431,"name":"Carson City Arpt, NV, US","cover":"CLR","clouds":[],"fltCat":"VFR"},{"icaoId":"KHTH","receiptTime":"2026-04-18T13:40:14.088Z","obsTime":1776519300,"reportTime":"2026-04-18T13:35:00.000Z","temp":1,"dewp":-17,"wdir":0,"wspd":0,"visib":"10+","altim":1021.1,"qcField":6,"metarType":"METAR","rawOb":"METAR KHTH 181335Z AUTO 00000KT 10SM CLR 01/M17 A3015 RMK A01","lat":38.5448,"lon":-118.6314,"elev":1281,"name":"Hawthorne Muni, NV, US","cover":"CLR","clouds":[],"fltCat":"VFR"},{"icaoId":"KMHR","receiptTime":"2026-04-18T13:40:44.907Z","obsTime":1776519300,"reportTime":"2026-04-18T13:35:00.000Z","temp":7,"dewp":7,"wdir":0,"wspd":0,"visib":"10+","altim":1015.3,"qcField":6,"metarType":"METAR","rawOb":"METAR KMHR 181335Z AUTO 00000KT 10SM CLR 07/07 A2998 RMK AO2","lat":38.56,"lon":-121.284,"elev":30,"name":"Sacramento/Mather Fld, CA, US","cover":"CLR","clouds":[],"fltCat":"VFR"},{"icaoId":"KHII","receiptTime":"2026-04-18T13:40:53.756Z","obsTime":1776519300,"reportTime":"2026-04-18T13:35:00.000Z","temp":15,"dewp":-16,"wdir":340,"wspd":6,"visib":"10+","altim":1015.3,"qcField":6,"metarType":"METAR","rawOb":"METAR KHII 181335Z AUTO 34006KT 10SM CLR 15/M16 A2998 RMK AO2","lat":34.5659,"lon":-114.3522,"elev":241,"name":"Lake Havasu City Arpt, AZ, US","cover":"CLR","clouds":[],"fltCat":"VFR"},{"icaoId":"KHCR","receiptTime":"2026-04-18T13:38:07.266Z","obsTime":1776519300,"reportTime":"2026-04-18T13:35:00.000Z","temp":-6.3,"dewp":-9.5,"wdir":0,"wspd":0,"visib":"10+","altim":1026.2,"qcField":14,"metarType":"METAR","rawOb":"METAR KHCR 181335Z AUTO 00000KT 10SM CLR M06/M09 A3030 RMK AO2 T10631095 $","lat":40.4774,"lon":-111.4329,"elev":1708,"name":"Heber City Muni, UT, US","cover":"CLR","clouds":[],"fltCat":"VFR"},{"icaoId":"KSDF","receiptTime":"2026-04-18T13:32:11.429Z","obsTime":1776518940,"reportTime":"2026-04-18T13:29:00.000Z","temp":21.1,"dewp":13.3,"wdir":290,"wspd":11,"visib":"10+","altim":1010.2,"qcField":4,"metarType":"SPECI","rawOb":"SPECI KSDF 181329Z 29011KT 10SM OVC032 21/13 A2983 RMK AO2 WSHFT 1303 T02110133","lat":38.1774,"lon":-85.7308,"elev":146,"name":"Louisville Intl, KY, US","cover":"OVC","clouds":[{"cover":"OVC","base":3200}],"fltCat":"VFR"},{"icaoId":"KSBP","receiptTime":"2026-04-18T13:30:06.791Z","obsTime":1776518760,"reportTime":"2026-04-18T13:26:00.000Z","temp":6.7,"dewp":3.3,"wdir":0,"wspd":0,"visib":"10+","altim":1014.3,"qcField":4,"metarType":"SPECI","rawOb":"SPECI KSBP 181326Z 00000KT 10SM CLR 07/03 A2995 RMK AO2 T00670033","lat":35.2381,"lon":-120.644,"elev":52,"name":"San Luis Obispo/San Luis Cnty, CA, US","cover":"CLR","clouds":[],"fltCat":"VFR"},{"icaoId":"KFLG","receiptTime":"2026-04-18T13:00:51.361Z","obsTime":1776517020,"reportTime":"2026-04-18T13:00:00.000Z","temp":1.1,"dewp":-22.2,"wdir":60,"wspd":10,"visib":"10+","altim":1022.8,"slp":1018.5,"qcField":4,"metarType":"METAR","rawOb":"METAR KFLG 181257Z 06010KT 10SM CLR 01/M22 A3020 RMK AO2 SLP185 T00111222","lat":35.1443,"lon":-111.6664,"elev":2134,"name":"Flagstaff/Pulliam Arpt, AZ, US","cover":"CLR","clouds":[],"fltCat":"VFR"},{"icaoId":"KNFL","receiptTime":"2026-04-18T13:02:06.856Z","obsTime":1776517020,"reportTime":"2026-04-18T13:00:00.000Z","temp":-2.2,"dewp":-17.2,"wdir":70,"wspd":4,"visib":"10+","altim":1020.1,"slp":1016.6,"qcField":6,"metarType":"METAR","rawOb":"METAR KNFL 181257Z AUTO 07004KT 10SM CLR M02/M17 A3012 RMK AO2 SLP166 T10221172","lat":39.417,"lon":-118.705,"elev":1199,"name":"Fallon , NV, US","cover":"CLR","clouds":[],"fltCat":"VFR"},{"icaoId":"KSDY","receiptTime":"2026-04-18T12:58:21.681Z","obsTime":1776516960,"reportTime":"2026-04-18T13:00:00.000Z","temp":-8.3,"dewp":-10.6,"wdir":200,"wspd":4,"visib":"10+","altim":1019.4,"slp":1022.7,"qcField":78,"metarType":"METAR","rawOb":"METAR KSDY 181256Z AUTO 20004KT 10SM CLR M08/M11 A3010 RMK AO2 SLP227 T10831106 FZRANO $","lat":47.7029,"lon":-104.1951,"elev":600,"name":"Sidney/Richland Muni, MT, US","cover":"CLR","clouds":[],"fltCat":"VFR"},{"icaoId":"KEKO","receiptTime":"2026-04-18T13:00:46.094Z","obsTime":1776516960,"reportTime":"2026-04-18T13:00:00.000Z","temp":-5.6,"dewp":-11.7,"wdir":0,"wspd":0,"visib":"10+","altim":1023.1,"slp":1024.2,"qcField":6,"metarType":"METAR","rawOb":"METAR KEKO 181256Z AUTO 00000KT 10SM CLR M06/M12 A3021 RMK AO2 SLP242 T10561117","lat":40.824,"lon":-115.7863,"elev":1541,"name":"Elko Rgnl, NV, US","cover":"CLR","clouds":[],"fltCat":"VFR"},{"icaoId":"KPVU","receiptTime":"2026-04-18T12:58:22.181Z","obsTime":1776516960,"reportTime":"2026-04-18T13:00:00.000Z","temp":-2.2,"dewp":-7.2,"wdir":0,"wspd":0,"visib":"10+","altim":1025.8,"slp":1026.8,"qcField":68,"metarType":"METAR","rawOb":"METAR KPVU 181256Z 00000KT 10SM CLR M02/M07 A3029 RMK AO2 SLP268 T10221072 FZRANO","lat":40.224,"lon":-111.7252,"elev":1370,"name":"Provo Muni, UT, US","cover":"CLR","clouds":[],"fltCat":"VFR"},{"icaoId":"KRDM","receiptTime":"2026-04-18T13:00:46.534Z","obsTime":1776516960,"reportTime":"2026-04-18T13:00:00.000Z","temp":-1.1,"dewp":-7.2,"wdir":0,"wspd":0,"visib":"10+","altim":1018.7,"slp":1019.3,"qcField":6,"metarType":"METAR","rawOb":"METAR KRDM 181256Z AUTO 00000KT 10SM FEW120 M01/M07 A3008 RMK AO2 SLP193 T10111072","lat":44.2558,"lon":-121.1407,"elev":930,"name":"Redmond Muni, OR, US","cover":"FEW","clouds":[{"cover":"FEW","base":12000}],"fltCat":"VFR"},{"icaoId":"KSLE","receiptTime":"2026-04-18T13:00:43.198Z","obsTime":1776516960,"reportTime":"2026-04-18T13:00:00.000Z","temp":2.8,"dewp":1.7,"wdir":0,"wspd":0,"visib":"10+","altim":1018,"slp":1017.8,"qcField":6,"metarType":"METAR","rawOb":"METAR KSLE 181256Z AUTO 00000KT 10SM CLR 03/02 A3006 RMK AO2 SLP178 T00280017","lat":44.9049,"lon":-123.001,"elev":63,"name":"Salem Muni, OR, US","cover":"CLR","clouds":[],"fltCat":"VFR"},{"icaoId":"KDUG","receiptTime":"2026-04-18T13:02:09.743Z","obsTime":1776516960,"reportTime":"2026-04-18T13:00:00.000Z","temp":6.1,"dewp":-5.6,"wdir":320,"wspd":5,"visib":"10+","altim":1017.4,"slp":1012.6,"qcField":38,"metarType":"METAR","rawOb":"METAR KDUG 181256Z AUTO 32005KT 10SM CLR 06/M06 A3004 RMK AO2 SLP126 T00611056 TSNO","lat":31.4725,"lon":-109.6022,"elev":1260,"name":"Douglas/Bisbee Intl, AZ, US","cover":"CLR","clouds":[],"fltCat":"VFR"},{"icaoId":"KCHS","receiptTime":"2026-04-18T13:00:49.051Z","obsTime":1776516960,"reportTime":"2026-04-18T13:00:00.000Z","temp":23.3,"dewp":17.8,"wdir":180,"wspd":5,"visib":"10+","altim":1015.7,"slp":1015.4,"qcField":12,"metarType":"METAR","rawOb":"METAR KCHS 181256Z 18005KT 10SM FEW085 SCT250 23/18 A2999 RMK AO2 SLP154 T02330178 $","lat":32.8995,"lon":-80.0407,"elev":12,"name":"Charleston Intl, SC, US","cover":"SCT","clouds":[{"cover":"FEW","base":8500},{"cover":"SCT","base":25000}],"fltCat":"VFR"},{"icaoId":"KINW","receiptTime":"2026-04-18T13:00:38.022Z","obsTime":1776516960,"reportTime":"2026-04-18T13:00:00.000Z","temp":-1.7,"dewp":-18.9,"wdir":0,"wspd":0,"visib":"10+","altim":1024.1,"slp":1022.7,"qcField":6,"metarType":"METAR","rawOb":"METAR KINW 181256Z AUTO 00000KT 10SM CLR M02/M19 A3024 RMK AO2 SLP227 T10171189","lat":35.0279,"lon":-110.7221,"elev":1492,"name":"Winslow/Lindberg Rgnl, AZ, US","cover":"CLR","clouds":[],"fltCat":"VFR"},{"icaoId":"KJAX","receiptTime":"2026-04-18T13:00:48.551Z","obsTime":1776516960,"reportTime":"2026-04-18T13:00:00.000Z","temp":21.7,"dewp":13.9,"wdir":180,"wspd":4,"visib":"10+","altim":1016.7,"slp":1016.7,"qcField":12,"metarType":"METAR","rawOb":"METAR KJAX 181256Z 18004KT 10SM FEW020 FEW200 SCT250 22/14 A3002 RMK AO2 SLP167 T02170139 $","lat":30.4953,"lon":-81.6937,"elev":8,"name":"Jacksonville Intl, FL, US","cover":"SCT","clouds":[{"cover":"FEW","base":2000},{"cover":"FEW","base":20000},{"cover":"SCT","base":25000}],"fltCat":"VFR"},{"icaoId":"KUKI","receiptTime":"2026-04-18T13:00:43.260Z","obsTime":1776516960,"reportTime":"2026-04-18T13:00:00.000Z","temp":4.4,"dewp":2.8,"wdir":0,"wspd":0,"visib":"10+","altim":1016.7,"slp":1016.3,"qcField":6,"metarType":"METAR","rawOb":"METAR KUKI 181256Z AUTO 00000KT 10SM CLR 04/03 A3002 RMK AO2 SLP163 T00440028","lat":39.1278,"lon":-123.2001,"elev":183,"name":"Ukiah Muni, CA, US","cover":"CLR","clouds":[],"fltCat":"VFR"},{"icaoId":"KHND","receiptTime":"2026-04-18T12:58:25.061Z","obsTime":1776516960,"reportTime":"2026-04-18T13:00:00.000Z","temp":5.6,"dewp":-12.8,"wdir":170,"wspd":5,"visib":"10+","altim":1019.7,"slp":1021,"qcField":14,"metarType":"METAR","rawOb":"METAR KHND 181256Z AUTO 17005KT 10SM CLR 06/M13 A3011 RMK AO2 SLP210 T00561128 $","lat":35.9657,"lon":-115.1343,"elev":740,"name":"Henderson Exec, NV, US","cover":"CLR","clouds":[],"fltCat":"VFR"},{"icaoId":"KBZN","receiptTime":"2026-04-18T13:00:37.940Z","obsTime":1776516960,"reportTime":"2026-04-18T13:00:00.000Z","temp":-5.6,"dewp":-8.9,"wdir":170,"wspd":6,"visib":"10+","altim":1023.5,"slp":1027.3,"qcField":4,"metarType":"METAR","rawOb":"METAR KBZN 181256Z 17006KT 10SM CLR M06/M09 A3022 RMK AO2 SLP273 T10561089","lat":45.7876,"lon":-111.1615,"elev":1349,"name":"Bozeman/Gallatin Fld, MT, US","cover":"CLR","clouds":[],"fltCat":"VFR"},{"icaoId":"KCEC","receiptTime":"2026-04-18T13:00:45.911Z","obsTime":1776516960,"reportTime":"2026-04-18T13:00:00.000Z","temp":7.8,"dewp":6.1,"wdir":100,"wspd":4,"visib":"10+","altim":1017.7,"slp":1017.5,"qcField":6,"metarType":"METAR","rawOb":"METAR KCEC 181256Z AUTO 10004KT 10SM OVC011 08/06 A3005 RMK AO2 SLP175 T00780061","lat":41.7836,"lon":-124.238,"elev":17,"name":"Crescent City/McNama, CA, US","cover":"OVC","clouds":[{"cover":"OVC","base":1100}],"fltCat":"MVFR"},{"icaoId":"KFNL","receiptTime":"2026-04-18T12:58:21.448Z","obsTime":1776516960,"reportTime":"2026-04-18T13:00:00.000Z","temp":2.2,"dewp":-13.9,"wdir":"VRB","wspd":5,"visib":"10+","altim":1023.1,"slp":1022.8,"qcField":78,"metarType":"METAR","rawOb":"METAR KFNL 181256Z AUTO VRB05KT 10SM CLR 02/M14 A3021 RMK AO2 SLP228 T00221139 FZRANO $","lat":40.4427,"lon":-105.0097,"elev":1529,"name":"Fort Collins/N Colorado Rgnl, CO, US","cover":"CLR","clouds":[],"fltCat":"VFR"},{"icaoId":"KGUC","receiptTime":"2026-04-18T12:58:21.593Z","obsTime":1776516960,"reportTime":"2026-04-18T13:00:00.000Z","temp":-10.6,"dewp":-13.3,"wdir":"VRB","wspd":5,"visib":"10+","altim":1026.2,"slp":1030.4,"qcField":78,"metarType":"METAR","rawOb":"METAR KGUC 181256Z AUTO VRB05KT 10SM CLR M11/M13 A3030 RMK AO2 SLP304 T11061133 FZRANO $","lat":38.5322,"lon":-106.9419,"elev":2337,"name":"Gunnison Arpt, CO, US","cover":"CLR","clouds":[],"fltCat":"VFR"},{"icaoId":"KCOE","receiptTime":"2026-04-18T12:58:21.179Z","obsTime":1776516960,"reportTime":"2026-04-18T13:00:00.000Z","temp":-1.7,"dewp":-2.2,"wdir":90,"wspd":4,"visib":"10+","altim":1022.8,"slp":1026,"qcField":78,"metarType":"METAR","rawOb":"METAR KCOE 181256Z AUTO 09004KT 10SM CLR M02/M02 A3020 RMK AO2 SLP260 T10171022 FZRANO PNO $","lat":47.7719,"lon":-116.8332,"elev":693,"name":"Coeur DAlene Arpt, ID, US","cover":"CLR","clouds":[],"fltCat":"VFR"},{"icaoId":"KVIS","receiptTime":"2026-04-18T12:58:21.864Z","obsTime":1776516960,"reportTime":"2026-04-18T13:00:00.000Z","temp":8.3,"dewp":6.7,"wdir":0,"wspd":0,"visib":"10+","altim":1016.3,"slp":1016.3,"qcField":14,"metarType":"METAR","rawOb":"METAR KVIS 181256Z AUTO 00000KT 10SM CLR 08/07 A3001 RMK AO2 SLP163 T00830067 PNO $","lat":36.3135,"lon":-119.3884,"elev":92,"name":"Visalia Muni, CA, US","cover":"CLR","clouds":[],"fltCat":"VFR"},{"icaoId":"KENV","receiptTime":"2026-04-18T12:58:21.373Z","obsTime":1776516960,"reportTime":"2026-04-18T13:00:00.000Z","temp":0,"dewp":-13.3,"wdir":40,"wspd":3,"visib":"10+","altim":1025.1,"slp":1026.4,"qcField":70,"metarType":"METAR","rawOb":"METAR KENV 181256Z AUTO 04003KT 10SM CLR 00/M13 A3027 RMK AO2 SLP264 T00001133 FZRANO","lat":40.7211,"lon":-114.0312,"elev":1291,"name":"Wendover Arpt, UT, US","cover":"CLR","clouds":[],"fltCat":"VFR"},{"icaoId":"KSGU","receiptTime":"2026-04-18T12:58:21.750Z","obsTime":1776516960,"reportTime":"2026-04-18T13:00:00.000Z","temp":5,"dewp":-9.4,"wdir":0,"wspd":0,"visib":"10+","altim":1022.1,"slp":1021.5,"qcField":6,"metarType":"METAR","rawOb":"METAR KSGU 181256Z AUTO 00000KT 10SM CLR 05/M09 A3018 RMK AO2 SLP215 T00501094","lat":37.0444,"lon":-113.5034,"elev":877,"name":"Saint George Muni, UT, US","cover":"CLR","clouds":[],"fltCat":"VFR"},{"icaoId":"KLWS","receiptTime":"2026-04-18T13:00:38.084Z","obsTime":1776516960,"reportTime":"2026-04-18T13:00:00.000Z","temp":1.7,"dewp":-0.6,"wdir":120,"wspd":6,"visib":"10+","altim":1022.4,"slp":1023,"qcField":4,"metarType":"METAR","rawOb":"METAR KLWS 181256Z 12006KT 10SM CLR 02/M01 A3019 RMK AO2 SLP230 T00171006","lat":46.3746,"lon":-117.0153,"elev":435,"name":"Lewiston/Nez Perce Cnty, ID, US","cover":"CLR","clouds":[],"fltCat":"VFR"},{"icaoId":"KSFO","receiptTime":"2026-04-18T13:00:38.277Z","obsTime":1776516960,"reportTime":"2026-04-18T13:00:00.000Z","temp":9.4,"dewp":5.6,"wdir":240,"wspd":3,"visib":"10+","altim":1016,"slp":1015.8,"qcField":12,"metarType":"METAR","rawOb":"METAR KSFO 181256Z 24003KT 10SM FEW200 09/06 A3000 RMK AO2 SLP158 T00940056 $","lat":37.6196,"lon":-122.3656,"elev":2,"name":"San Francisco Intl, CA, US","cover":"FEW","clouds":[{"cover":"FEW","base":20000}],"fltCat":"VFR"},{"icaoId":"KTPH","receiptTime":"2026-04-18T13:00:43.247Z","obsTime":1776516960,"reportTime":"2026-04-18T13:00:00.000Z","temp":-1.1,"dewp":-21.1,"wdir":360,"wspd":8,"visib":"10+","altim":1021.4,"slp":1020.2,"qcField":6,"metarType":"METAR","rawOb":"METAR KTPH 181256Z AUTO 36008KT 10SM CLR M01/M21 A3016 RMK AO2 SLP202 T10111211","lat":38.0505,"lon":-117.0906,"elev":1647,"name":"Tonopah Arpt, NV, US","cover":"CLR","clouds":[],"fltCat":"VFR"},{"icaoId":"KJAC","receiptTime":"2026-04-18T12:58:25.164Z","obsTime":1776516960,"reportTime":"2026-04-18T13:00:00.000Z","temp":-8.9,"dewp":-10.6,"wdir":40,"wspd":6,"visib":"10+","altim":1023.8,"slp":1029.4,"qcField":4,"metarType":"METAR","rawOb":"METAR KJAC 181256Z 04006KT 10SM CLR M09/M11 A3023 RMK AO2 SLP294 T10891106","lat":43.6129,"lon":-110.7366,"elev":1967,"name":"Jackson Hole Arpt, WY, US","cover":"CLR","clouds":[],"fltCat":"VFR"},{"icaoId":"KHDN","receiptTime":"2026-04-18T12:58:25.011Z","obsTime":1776516960,"reportTime":"2026-04-18T13:00:00.000Z","temp":-7.2,"dewp":-9.4,"wdir":0,"wspd":0,"visib":"10+","altim":1026.2,"slp":1029.2,"qcField":70,"metarType":"METAR","rawOb":"METAR KHDN 181256Z AUTO 00000KT 10SM CLR M07/M09 A3030 RMK AO2 SLP292 T10721094 FZRANO","lat":40.4842,"lon":-107.2296,"elev":2012,"name":"Hayden/Yampa Valley Arpt, CO, US","cover":"CLR","clouds":[],"fltCat":"VFR"},{"icaoId":"KCGZ","receiptTime":"2026-04-18T12:58:25.968Z","obsTime":1776516960,"reportTime":"2026-04-18T13:00:00.000Z","temp":12.8,"dewp":-10.6,"wdir":90,"wspd":4,"visib":"10+","altim":1014.3,"slp":1013.3,"qcField":14,"metarType":"METAR","rawOb":"METAR KCGZ 181256Z AUTO 09004KT 10SM CLR 13/M11 A2995 RMK AO2 SLP133 T01281106 $","lat":32.9531,"lon":-111.7725,"elev":444,"name":"Casa Granda Muni, AZ, US","cover":"CLR","clouds":[],"fltCat":"VFR"},{"icaoId":"KPWT","receiptTime":"2026-04-18T12:58:22.208Z","obsTime":1776516960,"reportTime":"2026-04-18T13:00:00.000Z","temp":4.4,"dewp":3.3,"wdir":0,"wspd":0,"visib":"10+","altim":1018.4,"slp":1018.8,"qcField":6,"metarType":"METAR","rawOb":"METAR KPWT 181256Z AUTO 00000KT 10SM CLR 04/03 A3007 RMK AO2 SLP188 T00440033","lat":47.4942,"lon":-122.7594,"elev":143,"name":"Bremerton Arpt, WA, US","cover":"CLR","clouds":[],"fltCat":"VFR"},{"icaoId":"KLAS","receiptTime":"2026-04-18T13:00:46.384Z","obsTime":1776516960,"reportTime":"2026-04-18T13:00:00.000Z","temp":9.4,"dewp":-16.1,"wdir":200,"wspd":6,"visib":"10+","altim":1019,"slp":1018.2,"qcField":4,"metarType":"METAR","rawOb":"METAR KLAS 181256Z 20006KT 10SM FEW250 09/M16 A3009 RMK AO2 SLP182 T00941161","lat":36.0719,"lon":-115.1634,"elev":662,"name":"Las Vegas/Reid Intl, NV, US","cover":"FEW","clouds":[{"cover":"FEW","base":25000}],"fltCat":"VFR"},{"icaoId":"KLUF","receiptTime":"2026-04-18T13:06:10.668Z","obsTime":1776516900,"reportTime":"2026-04-18T13:00:00.000Z","temp":15.6,"dewp":-13.7,"wdir":340,"wspd":7,"visib":"10+","altim":1013.6,"slp":1012.6,"qcField":14,"metarType":"METAR","rawOb":"METAR KLUF 181255Z AUTO 34007KT 10SM CLR 16/M14 A2993 RMK AO2 SLP126 T01561137 $","lat":33.538,"lon":-112.38,"elev":333,"name":"Phoenix/Luke AFB, AZ, US","cover":"CLR","clouds":[],"fltCat":"VFR"},{"icaoId":"KCMA","receiptTime":"2026-04-18T12:58:21.143Z","obsTime":1776516900,"reportTime":"2026-04-18T13:00:00.000Z","temp":11.7,"dewp":-3.3,"wdir":0,"wspd":0,"visib":"10+","altim":1013.3,"slp":1014.1,"qcField":6,"metarType":"METAR","rawOb":"METAR KCMA 181255Z AUTO 00000KT 10SM CLR 12/M03 A2992 RMK AO2 SLP141 T01171033","lat":34.2114,"lon":-119.0876,"elev":20,"name":"Camarillo Arpt, CA, US","cover":"CLR","clouds":[],"fltCat":"VFR"},{"icaoId":"KEND","receiptTime":"2026-04-18T13:16:04.555Z","obsTime":1776516900,"reportTime":"2026-04-18T13:00:00.000Z","temp":6.3,"dewp":-0.2,"wdir":340,"wspd":9,"visib":"10+","altim":1021.4,"slp":1021.4,"qcField":14,"metarType":"METAR","rawOb":"METAR KEND 181255Z AUTO 34009KT 10SM CLR 06/M00 A3016 RMK AO2 SLP214 T00631002 $","lat":36.338,"lon":-97.919,"elev":392,"name":"Enid/Vance AFB, OK, US","cover":"CLR","clouds":[],"fltCat":"VFR"},{"icaoId":"KRNO","receiptTime":"2026-04-18T12:58:22.233Z","obsTime":1776516900,"reportTime":"2026-04-18T13:00:00.000Z","temp":1.1,"dewp":-10,"wdir":150,"wspd":3,"visib":"10+","altim":1020.4,"slp":1019,"qcField":4,"metarType":"METAR","rawOb":"METAR KRNO 181255Z 15003KT 10SM FEW200 01/M10 A3013 RMK AO2 SLP190 T00111100","lat":39.5077,"lon":-119.7683,"elev":1344,"name":"Reno/Tahoe Intl, NV, US","cover":"FEW","clouds":[{"cover":"FEW","base":20000}],"fltCat":"VFR"},{"icaoId":"KAST","receiptTime":"2026-04-18T12:58:25.830Z","obsTime":1776516900,"reportTime":"2026-04-18T13:00:00.000Z","temp":7.2,"dewp":5.6,"wdir":110,"wspd":3,"visib":"10+","altim":1017,"slp":1016.7,"qcField":14,"metarType":"METAR","rawOb":"METAR KAST 181255Z AUTO 11003KT 10SM OVC100 07/06 A3003 RMK AO2 SLP167 T00720056 $","lat":46.157,"lon":-123.8833,"elev":3,"name":"Astoria Rgnl, OR, US","cover":"OVC","clouds":[{"cover":"OVC","base":10000}],"fltCat":"VFR"},{"icaoId":"KONT","receiptTime":"2026-04-18T12:58:23.013Z","obsTime":1776516780,"reportTime":"2026-04-18T13:00:00.000Z","temp":13.3,"dewp":1.7,"wdir":360,"wspd":3,"visib":"10+","altim":1014.3,"slp":1013.2,"qcField":4,"metarType":"METAR","rawOb":"METAR KONT 181253Z 36003KT 10SM FEW300 13/02 A2995 RMK AO2 SLP132 T01330017","lat":34.0531,"lon":-117.5769,"elev":279,"name":"Ontario Intl, CA, US","cover":"FEW","clouds":[{"cover":"FEW","base":30000}],"fltCat":"VFR"},{"icaoId":"KADM","receiptTime":"2026-04-18T12:54:18.858Z","obsTime":1776516600,"reportTime":"2026-04-18T13:00:00.000Z","temp":10,"dewp":4,"wdir":10,"wspd":10,"wgst":19,"visib":"10+","altim":1018.4,"qcField":0,"metarType":"METAR","rawOb":"METAR KADM 181250Z 01010G19KT 10SM OVC070 10/04 A3007","lat":34.3007,"lon":-97.0089,"elev":223,"name":"Ardmore Muni, OK, US","cover":"OVC","clouds":[{"cover":"OVC","base":7000}],"fltCat":"VFR"},{"icaoId":"KSUN","receiptTime":"2026-04-18T12:52:21.769Z","obsTime":1776516600,"reportTime":"2026-04-18T13:00:00.000Z","temp":-4,"dewp":-11,"wdir":310,"wspd":8,"visib":"10+","altim":1024.5,"qcField":0,"metarType":"METAR","rawOb":"METAR KSUN 181250Z 31008KT 10SM CLR M04/M11 A3025","lat":43.4969,"lon":-114.2923,"elev":1619,"name":"Hailey/Friedman Mem, ID, US","cover":"CLR","clouds":[],"fltCat":"VFR"},{"icaoId":"KBJC","receiptTime":"2026-04-18T12:52:51.706Z","obsTime":1776516300,"reportTime":"2026-04-18T13:00:00.000Z","temp":0,"dewp":-9,"wdir":270,"wspd":11,"visib":"10+","altim":1023.1,"qcField":0,"metarType":"METAR","rawOb":"METAR KBJC 181245Z 27011KT 10SM CLR 00/M09 A3021","lat":39.9008,"lon":-105.1042,"elev":1694,"name":"Rocky Mtn Metro, CO, US","cover":"CLR","clouds":[],"fltCat":"VFR"}]