[{"icaoId":"KSEZ","receiptTime":"2026-04-06T23:20:14.193Z","obsTime":1775517300,"reportTime":"2026-04-06T23:15:00.000Z","temp":17,"dewp":3,"wdir":320,"wspd":10,"visib":"10+","altim":1019,"qcField":6,"wxString":"-RA","metarType":"METAR","rawOb":"METAR KSEZ 062315Z AUTO 32010KT 10SM -RA FEW040 BKN060 17/03 A3009 RMK AO2","lat":34.8467,"lon":-111.7884,"elev":1455,"name":"Sedona Arpt, AZ, US","cover":"BKN","clouds":[{"cover":"FEW","base":4000},{"cover":"BKN","base":6000}],"fltCat":"VFR"},{"icaoId":"KSOW","receiptTime":"2026-04-06T23:18:29.860Z","obsTime":1775517300,"reportTime":"2026-04-06T23:15:00.000Z","temp":10,"dewp":8,"wdir":220,"wspd":9,"visib":9,"altim":1021.4,"qcField":6,"metarType":"METAR","rawOb":"METAR KSOW 062315Z AUTO 22009KT 9SM FEW026 SCT033 BKN048 10/08 A3016 RMK AO2","lat":34.2686,"lon":-110.0019,"elev":1954,"name":"Show Low Muni, AZ, US","cover":"BKN","clouds":[{"cover":"FEW","base":2600},{"cover":"SCT","base":3300},{"cover":"BKN","base":4800}],"fltCat":"VFR"},{"icaoId":"KHII","receiptTime":"2026-04-06T23:20:26.084Z","obsTime":1775517300,"reportTime":"2026-04-06T23:15:00.000Z","temp":32,"dewp":-5,"wdir":210,"wspd":8,"visib":"10+","altim":1009.9,"qcField":6,"metarType":"METAR","rawOb":"METAR KHII 062315Z AUTO 21008KT 10SM CLR 32/M05 A2982 RMK AO2","lat":34.5659,"lon":-114.3522,"elev":241,"name":"Lake Havasu City Arpt, AZ, US","cover":"CLR","clouds":[],"fltCat":"VFR"},{"icaoId":"KNYL","receiptTime":"2026-04-06T23:00:39.413Z","obsTime":1775516220,"reportTime":"2026-04-06T23:00:00.000Z","temp":31.7,"dewp":-5,"wdir":310,"wspd":7,"visib":"10+","altim":1009.9,"slp":1009.4,"qcField":4,"metarType":"METAR","rawOb":"METAR KNYL 062257Z 31007KT 10SM BKN150 32/M05 A2982 RMK AO2 SLP094 T03171050","lat":32.66,"lon":-114.6078,"elev":58,"name":"Yuma , AZ, US","cover":"BKN","clouds":[{"cover":"BKN","base":15000}],"fltCat":"VFR"},{"icaoId":"KFLG","receiptTime":"2026-04-06T23:00:31.336Z","obsTime":1775516220,"reportTime":"2026-04-06T23:00:00.000Z","temp":8.9,"dewp":5.6,"wdir":30,"wspd":5,"visib":9,"altim":1021.8,"slp":1016.8,"qcField":4,"wxString":"-RA","precip":0.005,"metarType":"METAR","rawOb":"METAR KFLG 062257Z 03005KT 9SM -RA OVC042 09/06 A3017 RMK AO2 RAB52 SLP168 P0000 T00890056","lat":35.1443,"lon":-111.6664,"elev":2134,"name":"Flagstaff/Pulliam Arpt, AZ, US","cover":"OVC","clouds":[{"cover":"OVC","base":4200}],"fltCat":"VFR"},{"icaoId":"KINW","receiptTime":"2026-04-06T23:00:12.058Z","obsTime":1775516160,"reportTime":"2026-04-06T23:00:00.000Z","temp":13.9,"dewp":8.3,"wdir":210,"wspd":15,"wgst":19,"visib":"10+","altim":1019.4,"slp":1015.2,"qcField":6,"wxString":"-RA","precip":0.005,"metarType":"METAR","rawOb":"METAR KINW 062256Z AUTO 21015G19KT 10SM -RA SCT060 SCT070 OVC090 14/08 A3010 RMK AO2 RAB50 SLP152 P0000 T01390083","lat":35.0279,"lon":-110.7221,"elev":1492,"name":"Winslow/Lindberg Rgnl, AZ, US","cover":"OVC","clouds":[{"cover":"SCT","base":6000},{"cover":"SCT","base":7000},{"cover":"OVC","base":9000}],"fltCat":"VFR"},{"icaoId":"KCGZ","receiptTime":"2026-04-06T22:58:29.254Z","obsTime":1775516160,"reportTime":"2026-04-06T23:00:00.000Z","temp":27.8,"dewp":5,"wdir":70,"wspd":17,"visib":"10+","altim":1011.9,"slp":1010.3,"qcField":14,"metarType":"METAR","rawOb":"METAR KCGZ 062256Z AUTO 07017KT 10SM CLR 28/05 A2988 RMK AO2 SLP103 T02780050 $","lat":32.9531,"lon":-111.7725,"elev":444,"name":"Casa Granda Muni, AZ, US","cover":"CLR","clouds":[],"fltCat":"VFR"},{"icaoId":"KDUG","receiptTime":"2026-04-06T23:04:06.849Z","obsTime":1775516160,"reportTime":"2026-04-06T23:00:00.000Z","temp":21.1,"dewp":5.6,"wdir":110,"wspd":9,"visib":"10+","altim":1017,"slp":1011.5,"qcField":38,"metarType":"METAR","rawOb":"METAR KDUG 062256Z AUTO 11009KT 10SM FEW080 BKN100 21/06 A3003 RMK AO2 SLP115 T02110056 TSNO","lat":31.4725,"lon":-109.6022,"elev":1260,"name":"Douglas/Bisbee Intl, AZ, US","cover":"BKN","clouds":[{"cover":"FEW","base":8000},{"cover":"BKN","base":10000}],"fltCat":"VFR"},{"icaoId":"KLUF","receiptTime":"2026-04-06T23:04:06.181Z","obsTime":1775516100,"reportTime":"2026-04-06T23:00:00.000Z","temp":29.4,"dewp":1.8,"wdir":100,"wspd":6,"visib":"10+","altim":1011.3,"slp":1009.8,"qcField":12,"metarType":"METAR","rawOb":"METAR KLUF 062255Z 10006KT 10SM FEW100 SCT130 BKN210 29/02 A2986 RMK AO2A SLP098 T02940018 $","lat":33.538,"lon":-112.38,"elev":333,"name":"Phoenix/Luke AFB, AZ, US","cover":"BKN","clouds":[{"cover":"FEW","base":10000},{"cover":"SCT","base":13000},{"cover":"BKN","base":21000}],"fltCat":"VFR"},{"icaoId":"KOLS","receiptTime":"2026-04-06T22:58:15.403Z","obsTime":1775516040,"reportTime":"2026-04-06T23:00:00.000Z","temp":24.4,"dewp":-4.4,"wdir":230,"wspd":9,"visib":"10+","altim":1016,"slp":1009.7,"qcField":6,"metarType":"METAR","rawOb":"METAR KOLS 062254Z AUTO 23009KT 10SM OVC100 24/M04 A3000 RMK AO2 SLP097 T02441044","lat":31.4208,"lon":-110.8465,"elev":1194,"name":"Nogales Intl, AZ, US","cover":"OVC","clouds":[{"cover":"OVC","base":10000}],"fltCat":"VFR"},{"icaoId":"KSJN","receiptTime":"2026-04-06T22:58:15.607Z","obsTime":1775516040,"reportTime":"2026-04-06T23:00:00.000Z","temp":15.6,"dewp":2.8,"wdir":270,"wspd":6,"visib":"10+","altim":1019,"slp":1012.9,"qcField":6,"metarType":"METAR","rawOb":"METAR KSJN 062254Z AUTO 27006KT 10SM FEW075 BKN110 16/03 A3009 RMK AO2 SLP129 T01560028","lat":34.5184,"lon":-109.3801,"elev":1747,"name":"St Johns Ind Arpt, AZ, US","cover":"BKN","clouds":[{"cover":"FEW","base":7500},{"cover":"BKN","base":11000}],"fltCat":"VFR"},{"icaoId":"KFFZ","receiptTime":"2026-04-06T22:58:11.783Z","obsTime":1775516040,"reportTime":"2026-04-06T23:00:00.000Z","temp":26.7,"dewp":5,"wdir":40,"wspd":10,"visib":"10+","altim":1011.6,"slp":1009.3,"qcField":4,"metarType":"METAR","rawOb":"METAR KFFZ 062254Z 04010KT 10SM FEW100 27/05 A2987 RMK AO2 SLP093 T02670050","lat":33.4659,"lon":-111.7212,"elev":420,"name":"Mesa/Falcon Fld, AZ, US","cover":"FEW","clouds":[{"cover":"FEW","base":10000}],"fltCat":"VFR"},{"icaoId":"KGCN","receiptTime":"2026-04-06T22:58:05.966Z","obsTime":1775516040,"reportTime":"2026-04-06T23:00:00.000Z","temp":10,"dewp":4.4,"wdir":300,"wspd":8,"visib":"10+","altim":1022.1,"slp":1018.1,"qcField":4,"metarType":"METAR","rawOb":"METAR KGCN 062254Z 30008KT 10SM SCT049 OVC060 10/04 A3018 RMK AO2 SLP181 T01000044","lat":35.9458,"lon":-112.1554,"elev":1993,"name":"Grand Canyon Park Arpt, AZ, US","cover":"OVC","clouds":[{"cover":"SCT","base":4900},{"cover":"OVC","base":6000}],"fltCat":"VFR"},{"icaoId":"KTUS","receiptTime":"2026-04-06T22:56:21.234Z","obsTime":1775515980,"reportTime":"2026-04-06T23:00:00.000Z","temp":26.7,"dewp":0.6,"wdir":360,"wspd":3,"visib":"10+","altim":1013.6,"slp":1009.2,"qcField":4,"metarType":"METAR","rawOb":"METAR KTUS 062253Z 36003KT 10SM OVC110 27/01 A2993 RMK AO2 SLP092 T02670006","lat":32.1315,"lon":-110.9564,"elev":776,"name":"Tucson Intl Arpt, AZ, US","cover":"OVC","clouds":[{"cover":"OVC","base":11000}],"fltCat":"VFR"},{"icaoId":"KPGA","receiptTime":"2026-04-06T22:56:37.343Z","obsTime":1775515980,"reportTime":"2026-04-06T23:00:00.000Z","temp":21.7,"dewp":-1.1,"visib":"10+","altim":1016.3,"slp":1012,"qcField":14,"metarType":"METAR","rawOb":"METAR KPGA 062253Z AUTO 10SM CLR 22/M01 A3001 RMK AO2 SLP120 T02171011 $","lat":36.9211,"lon":-111.4487,"elev":1310,"name":"Page Muni, AZ, US","cover":"CLR","clouds":[],"fltCat":"VFR"},{"icaoId":"KDVT","receiptTime":"2026-04-06T22:56:24.140Z","obsTime":1775515980,"reportTime":"2026-04-06T23:00:00.000Z","temp":28.3,"dewp":4.4,"wdir":120,"wspd":10,"wgst":17,"visib":"10+","altim":1012.3,"slp":1009.8,"qcField":4,"metarType":"METAR","rawOb":"METAR KDVT 062253Z 12010G17KT 10SM CLR 28/04 A2989 RMK AO2 SLP098 T02830044","lat":33.6902,"lon":-112.0662,"elev":454,"name":"Phoenix/Deer Valley Arpt, AZ, US","cover":"CLR","clouds":[],"fltCat":"VFR"},{"icaoId":"KSDL","receiptTime":"2026-04-06T22:56:37.538Z","obsTime":1775515980,"reportTime":"2026-04-06T23:00:00.000Z","temp":27.2,"dewp":5.6,"wdir":100,"wspd":9,"wgst":17,"visib":"10+","altim":1012.6,"slp":1010.2,"qcField":4,"metarType":"METAR","rawOb":"METAR KSDL 062253Z 10009G17KT 10SM FEW110 27/06 A2990 RMK AO2 SLP102 T02720056","lat":33.6123,"lon":-111.9232,"elev":438,"name":"Scottsdale Muni, AZ, US","cover":"FEW","clouds":[{"cover":"FEW","base":11000}],"fltCat":"VFR"},{"icaoId":"KPRC","receiptTime":"2026-04-06T22:56:37.392Z","obsTime":1775515980,"reportTime":"2026-04-06T23:00:00.000Z","temp":17.2,"dewp":0,"wdir":160,"wspd":3,"visib":"10+","altim":1019,"slp":1013.1,"qcField":4,"metarType":"METAR","rawOb":"METAR KPRC 062253Z 16003KT 10SM BKN060 OVC090 17/00 A3009 RMK AO2 SLP131 T01720000","lat":34.6491,"lon":-112.4223,"elev":1528,"name":"Prescott/Love Fld, AZ, US","cover":"OVC","clouds":[{"cover":"BKN","base":6000},{"cover":"OVC","base":9000}],"fltCat":"VFR"},{"icaoId":"KPHX","receiptTime":"2026-04-06T22:54:14.831Z","obsTime":1775515860,"reportTime":"2026-04-06T23:00:00.000Z","temp":28.3,"dewp":5,"wdir":80,"wspd":16,"visib":"10+","altim":1011.6,"slp":1009.6,"qcField":4,"metarType":"METAR","rawOb":"METAR KPHX 062251Z 08016KT 10SM BKN140 OVC250 28/05 A2987 RMK AO2 SLP096 VIRGA T02830050","lat":33.4278,"lon":-112.0037,"elev":338,"name":"Phoenix/Sky Harbor Intl, AZ, US","cover":"OVC","clouds":[{"cover":"BKN","base":14000},{"cover":"OVC","base":25000}],"fltCat":"VFR"},{"icaoId":"KSAD","receiptTime":"2026-04-06T22:54:14.992Z","obsTime":1775515860,"reportTime":"2026-04-06T23:00:00.000Z","temp":21.1,"dewp":5.6,"wdir":90,"wspd":13,"visib":"10+","altim":1016.7,"slp":1013.2,"qcField":6,"metarType":"METAR","rawOb":"METAR KSAD 062251Z AUTO 09013KT 10SM BKN110 21/06 A3002 RMK AO2 SLP132 T02110056","lat":32.8565,"lon":-109.636,"elev":937,"name":"Safford Rgnl, AZ, US","cover":"BKN","clouds":[{"cover":"BKN","base":11000}],"fltCat":"VFR"},{"icaoId":"KIGM","receiptTime":"2026-04-06T22:54:14.635Z","obsTime":1775515860,"reportTime":"2026-04-06T23:00:00.000Z","temp":25,"dewp":-7.8,"wdir":230,"wspd":13,"visib":"10+","altim":1015,"slp":1008.9,"qcField":6,"metarType":"METAR","rawOb":"METAR KIGM 062251Z AUTO 23013KT 10SM CLR 25/M08 A2997 RMK AO2 PK WND 25028/2208 SLP089 T02501078","lat":35.2575,"lon":-113.9341,"elev":1045,"name":"Kingman Arpt, AZ, US","cover":"CLR","clouds":[],"fltCat":"VFR"},{"icaoId":"KIWA","receiptTime":"2026-04-06T22:56:41.124Z","obsTime":1775515800,"reportTime":"2026-04-06T23:00:00.000Z","temp":28,"dewp":4,"wdir":100,"wspd":7,"visib":"10+","altim":1012.6,"qcField":0,"metarType":"METAR","rawOb":"METAR KIWA 062250Z 10007KT 10SM CLR 28/04 A2990","lat":33.3008,"lon":-111.6437,"elev":420,"name":"Phoenix/Mesa Gateway Arpt, AZ, US","cover":"CLR","clouds":[],"fltCat":"VFR"},{"icaoId":"KCHD","receiptTime":"2026-04-06T23:06:07.309Z","obsTime":1775515620,"reportTime":"2026-04-06T23:00:00.000Z","temp":27,"dewp":6,"wdir":80,"wspd":14,"visib":"10+","altim":1011.9,"qcField":1,"metarType":"METAR","rawOb":"METAR KCHD 062247Z COR 08014KT 10SM SCT140 OVC180 27/06 A2988","lat":33.2669,"lon":-111.8086,"elev":378,"name":"Chandler Muni, AZ, US","cover":"OVC","clouds":[{"cover":"SCT","base":14000},{"cover":"OVC","base":18000}],"fltCat":"VFR"},{"icaoId":"KGEU","receiptTime":"2026-04-06T22:50:22.749Z","obsTime":1775515620,"reportTime":"2026-04-06T23:00:00.000Z","temp":29,"dewp":3,"wdir":70,"wspd":8,"visib":"10+","altim":1010.6,"qcField":0,"metarType":"METAR","rawOb":"METAR KGEU 062247Z 07008KT 10SM FWE100 OVC130 29/03 A2984","lat":33.528,"lon":-112.293,"elev":319,"name":"Glendale Muni, AZ, US","cover":"OVC","clouds":[{"cover":"OVC","base":13000}],"fltCat":"VFR"},{"icaoId":"KIFP","receiptTime":"2026-04-06T22:47:46.596Z","obsTime":1775515620,"reportTime":"2026-04-06T23:00:00.000Z","temp":33,"dewp":-11,"wdir":150,"wspd":7,"visib":"10+","altim":1009.2,"qcField":0,"metarType":"METAR","rawOb":"METAR KIFP 062247Z 15007KT 10SM CLR 33/M11 A2980","lat":35.1487,"lon":-114.5611,"elev":210,"name":"Bullhead City Intl, AZ, US","cover":"CLR","clouds":[],"fltCat":"VFR"},{"icaoId":"KGYR","receiptTime":"2026-04-06T22:47:46.505Z","obsTime":1775515620,"reportTime":"2026-04-06T23:00:00.000Z","temp":29,"dewp":5,"wdir":130,"wspd":10,"visib":"10+","altim":1011.6,"qcField":0,"metarType":"METAR","rawOb":"METAR KGYR 062247Z 13010KT 10SM BKN140 BKN200 29/05 A2987","lat":33.428,"lon":-112.368,"elev":292,"name":"Phoenix/Goodyear Muni, AZ, US","cover":"BKN","clouds":[{"cover":"BKN","base":14000},{"cover":"BKN","base":20000}],"fltCat":"VFR"},{"icaoId":"KRYN","receiptTime":"2026-04-06T22:46:34.171Z","obsTime":1775515500,"reportTime":"2026-04-06T23:00:00.000Z","temp":27,"dewp":0,"wdir":0,"wspd":0,"visib":"10+","altim":1012.3,"qcField":0,"metarType":"METAR","rawOb":"METAR KRYN 062245Z 00000KT 10SM OVC110 27/00 A2989","lat":32.1418,"lon":-111.1767,"elev":731,"name":"Tucson/Ryan Fld, AZ, US","cover":"OVC","clouds":[{"cover":"OVC","base":11000}],"fltCat":"VFR"}]