[{"icaoId":"KHOB","receiptTime":"2026-04-17T14:01:31.470Z","obsTime":1776434400,"reportTime":"2026-04-17T14:00:00.000Z","temp":17,"dewp":17,"wdir":210,"wspd":5,"visib":0.5,"altim":1011.9,"qcField":0,"wxString":"FG","metarType":"SPECI","rawOb":"SPECI KHOB 171400Z 21005KT 1/2SM FG OVC002 17/17 A2988","lat":32.6797,"lon":-103.2222,"elev":1112,"name":"Hobbs Arpt, NM, US","cover":"OVC","clouds":[{"cover":"OVC","base":200}],"fltCat":"LIFR"},{"icaoId":"KDAL","receiptTime":"2026-04-17T14:02:06.978Z","obsTime":1776434280,"reportTime":"2026-04-17T13:58:00.000Z","temp":22.2,"dewp":18.9,"wdir":170,"wspd":13,"wgst":21,"visib":"10+","altim":1012.6,"qcField":4,"metarType":"SPECI","rawOb":"SPECI KDAL 171358Z 17013G21KT 10SM BKN016 BKN024 BKN180 BKN280 22/19 A2990 RMK AO2 T02220189","lat":32.8384,"lon":-96.8358,"elev":148,"name":"Dallas/Love Fld, TX, US","cover":"BKN","clouds":[{"cover":"BKN","base":1600},{"cover":"BKN","base":2400},{"cover":"BKN","base":18000},{"cover":"BKN","base":28000}],"fltCat":"MVFR"},{"icaoId":"KFLG","receiptTime":"2026-04-17T14:00:14.651Z","obsTime":1776434220,"reportTime":"2026-04-17T14:00:00.000Z","temp":3.3,"dewp":-8.9,"wdir":270,"wspd":5,"visib":"10+","altim":1017,"slp":1011.6,"qcField":4,"metarType":"METAR","rawOb":"METAR KFLG 171357Z 27005KT 10SM CLR 03/M09 A3003 RMK AO2 SLP116 T00331089","lat":35.1443,"lon":-111.6664,"elev":2134,"name":"Flagstaff/Pulliam Arpt, AZ, US","cover":"CLR","clouds":[],"fltCat":"VFR"},{"icaoId":"KNYL","receiptTime":"2026-04-17T14:00:14.583Z","obsTime":1776434220,"reportTime":"2026-04-17T14:00:00.000Z","temp":17.8,"dewp":4.4,"wdir":0,"wspd":0,"visib":"10+","altim":1011.3,"slp":1010.9,"qcField":4,"metarType":"METAR","rawOb":"METAR KNYL 171357Z 00000KT 10SM FEW150 18/04 A2986 RMK AO2 SLP109 T01780044","lat":32.66,"lon":-114.6078,"elev":58,"name":"Yuma , AZ, US","cover":"FEW","clouds":[{"cover":"FEW","base":15000}],"fltCat":"VFR"},{"icaoId":"KNFL","receiptTime":"2026-04-17T14:00:14.594Z","obsTime":1776434220,"reportTime":"2026-04-17T14:00:00.000Z","temp":-5.6,"dewp":-11.7,"wdir":"VRB","wspd":3,"visib":"10+","altim":1024.8,"slp":1020.7,"qcField":4,"metarType":"METAR","rawOb":"METAR KNFL 171357Z VRB03KT 10SM SCT250 M06/M12 A3026 RMK AO2 SLP207 T10561117","lat":39.417,"lon":-118.705,"elev":1199,"name":"Fallon , NV, US","cover":"SCT","clouds":[{"cover":"SCT","base":25000}],"fltCat":"VFR"},{"icaoId":"KPVU","receiptTime":"2026-04-17T13:58:52.602Z","obsTime":1776434160,"reportTime":"2026-04-17T14:00:00.000Z","temp":0,"dewp":-6.7,"wdir":"VRB","wspd":3,"visib":"10+","altim":1023.1,"slp":1024.3,"qcField":4,"metarType":"METAR","rawOb":"METAR KPVU 171356Z VRB03KT 10SM SCT035 BKN060 00/M07 A3021 RMK AO2 SLP243 T00001067","lat":40.224,"lon":-111.7252,"elev":1370,"name":"Provo Muni, UT, US","cover":"BKN","clouds":[{"cover":"SCT","base":3500},{"cover":"BKN","base":6000}],"fltCat":"VFR"},{"icaoId":"KEGE","receiptTime":"2026-04-17T13:58:51.091Z","obsTime":1776434160,"reportTime":"2026-04-17T14:00:00.000Z","temp":-3.9,"dewp":-5,"wdir":260,"wspd":9,"visib":0.75,"altim":1015,"slp":1013.1,"qcField":4,"wxString":"-SN BR","precip":0.005,"metarType":"METAR","rawOb":"METAR KEGE 171356Z 26009KT 3/4SM -SN BR FEW005 BKN012 OVC017 M04/M05 A2997 RMK AO2 SLP131 P0000 T10391050 RVRNO","lat":39.6448,"lon":-106.9176,"elev":1993,"name":"Eagle Cnty Rgnl, CO, US","cover":"OVC","clouds":[{"cover":"FEW","base":500},{"cover":"BKN","base":1200},{"cover":"OVC","base":1700}],"fltCat":"LIFR"},{"icaoId":"KTPH","receiptTime":"2026-04-17T14:00:13.555Z","obsTime":1776434160,"reportTime":"2026-04-17T14:00:00.000Z","temp":-3.3,"dewp":-16.1,"wdir":360,"wspd":9,"visib":"10+","altim":1023.5,"slp":1023.5,"qcField":6,"metarType":"METAR","rawOb":"METAR KTPH 171356Z AUTO 36009KT 10SM CLR M03/M16 A3022 RMK AO2 SLP235 T10331161","lat":38.0505,"lon":-117.0906,"elev":1647,"name":"Tonopah Arpt, NV, US","cover":"CLR","clouds":[],"fltCat":"VFR"},{"icaoId":"KCEC","receiptTime":"2026-04-17T14:00:13.395Z","obsTime":1776434160,"reportTime":"2026-04-17T14:00:00.000Z","temp":7.2,"dewp":-1.1,"wdir":20,"wspd":5,"visib":"10+","altim":1022.8,"slp":1022.6,"qcField":6,"metarType":"METAR","rawOb":"METAR KCEC 171356Z AUTO 02005KT 10SM CLR 07/M01 A3020 RMK AO2 SLP226 T00721011","lat":41.7836,"lon":-124.238,"elev":17,"name":"Crescent City/McNama, CA, US","cover":"CLR","clouds":[],"fltCat":"VFR"},{"icaoId":"KSGU","receiptTime":"2026-04-17T13:58:53.150Z","obsTime":1776434160,"reportTime":"2026-04-17T14:00:00.000Z","temp":7.2,"dewp":-12.2,"wdir":50,"wspd":22,"wgst":30,"visib":"10+","altim":1019.4,"slp":1018.1,"qcField":6,"metarType":"METAR","rawOb":"METAR KSGU 171356Z AUTO 05022G30KT 10SM CLR 07/M12 A3010 RMK AO2 PK WND 06030/1352 SLP181 T00721122","lat":37.0444,"lon":-113.5034,"elev":877,"name":"Saint George Muni, UT, US","cover":"CLR","clouds":[],"fltCat":"VFR"},{"icaoId":"KLWS","receiptTime":"2026-04-17T14:00:10.398Z","obsTime":1776434160,"reportTime":"2026-04-17T14:00:00.000Z","temp":5,"dewp":-1.7,"wdir":200,"wspd":3,"visib":"10+","altim":1023.8,"slp":1024.2,"qcField":4,"metarType":"METAR","rawOb":"METAR KLWS 171356Z 20003KT 10SM OVC080 05/M02 A3023 RMK AO2 SLP242 T00501017","lat":46.3746,"lon":-117.0153,"elev":435,"name":"Lewiston/Nez Perce Cnty, ID, US","cover":"OVC","clouds":[{"cover":"OVC","base":8000}],"fltCat":"VFR"},{"icaoId":"KFNL","receiptTime":"2026-04-17T13:58:47.957Z","obsTime":1776434160,"reportTime":"2026-04-17T14:00:00.000Z","temp":2.8,"dewp":-5,"wdir":250,"wspd":5,"visib":"10+","altim":1013,"slp":1009.7,"qcField":12,"metarType":"METAR","rawOb":"METAR KFNL 171356Z 25005KT 10SM OVC039 03/M05 A2991 RMK AO2 SLP097 T00281050 $","lat":40.4427,"lon":-105.0097,"elev":1529,"name":"Fort Collins/N Colorado Rgnl, CO, US","cover":"OVC","clouds":[{"cover":"OVC","base":3900}],"fltCat":"VFR"},{"icaoId":"KCGZ","receiptTime":"2026-04-17T13:58:50.534Z","obsTime":1776434160,"reportTime":"2026-04-17T14:00:00.000Z","temp":16.7,"dewp":-1.7,"wdir":0,"wspd":0,"visib":"10+","altim":1013,"slp":1011.6,"qcField":14,"metarType":"METAR","rawOb":"METAR KCGZ 171356Z AUTO 00000KT 10SM CLR 17/M02 A2991 RMK AO2 SLP116 T01671017 $","lat":32.9531,"lon":-111.7725,"elev":444,"name":"Casa Granda Muni, AZ, US","cover":"CLR","clouds":[],"fltCat":"VFR"},{"icaoId":"KCOD","receiptTime":"2026-04-17T13:58:50.631Z","obsTime":1776434160,"reportTime":"2026-04-17T14:00:00.000Z","temp":0,"dewp":-12.2,"wdir":"VRB","wspd":5,"visib":"10+","altim":1017,"slp":1019.3,"qcField":78,"metarType":"METAR","rawOb":"METAR KCOD 171356Z AUTO VRB05KT 10SM SCT090 00/M12 A3003 RMK AO2 SLP193 T00001122 FZRANO $","lat":44.52,"lon":-109.0268,"elev":1550,"name":"Cody/Yellowstone Rgnl, WY, US","cover":"SCT","clouds":[{"cover":"SCT","base":9000}],"fltCat":"VFR"},{"icaoId":"KVIS","receiptTime":"2026-04-17T13:58:52.150Z","obsTime":1776434160,"reportTime":"2026-04-17T14:00:00.000Z","temp":6.7,"dewp":2.8,"wdir":200,"wspd":4,"visib":"10+","altim":1017.7,"slp":1017.6,"qcField":14,"metarType":"METAR","rawOb":"METAR KVIS 171356Z AUTO 20004KT 10SM CLR 07/03 A3005 RMK AO2 SLP176 T00670028 PNO $","lat":36.3135,"lon":-119.3884,"elev":92,"name":"Visalia Muni, CA, US","cover":"CLR","clouds":[],"fltCat":"VFR"},{"icaoId":"KSDY","receiptTime":"2026-04-17T13:58:53.024Z","obsTime":1776434160,"reportTime":"2026-04-17T14:00:00.000Z","temp":-4.4,"dewp":-8.3,"wdir":280,"wspd":13,"wgst":19,"visib":9,"altim":1014.3,"slp":1017.3,"qcField":78,"wxString":"-SN","precip":0.005,"metarType":"METAR","rawOb":"METAR KSDY 171356Z AUTO 28013G19KT 9SM -SN FEW020 BKN025 OVC046 M04/M08 A2995 RMK AO2 SLP173 P0000 T10441083 FZRANO $","lat":47.7029,"lon":-104.1951,"elev":600,"name":"Sidney/Richland Muni, MT, US","cover":"OVC","clouds":[{"cover":"FEW","base":2000},{"cover":"BKN","base":2500},{"cover":"OVC","base":4600}],"fltCat":"MVFR"},{"icaoId":"KSFO","receiptTime":"2026-04-17T14:00:10.498Z","obsTime":1776434160,"reportTime":"2026-04-17T14:00:00.000Z","temp":14.4,"dewp":-0.6,"wdir":30,"wspd":11,"visib":"10+","altim":1017.7,"slp":1017.5,"qcField":12,"metarType":"METAR","rawOb":"METAR KSFO 171356Z 03011KT 10SM FEW200 14/M01 A3005 RMK AO2 SLP175 T01441006 $","lat":37.6196,"lon":-122.3656,"elev":2,"name":"San Francisco Intl, CA, US","cover":"FEW","clouds":[{"cover":"FEW","base":20000}],"fltCat":"VFR"},{"icaoId":"KEKO","receiptTime":"2026-04-17T14:00:11.720Z","obsTime":1776434160,"reportTime":"2026-04-17T14:00:00.000Z","temp":-9.4,"dewp":-12.2,"wdir":0,"wspd":0,"visib":"10+","altim":1024.5,"slp":1028.7,"qcField":14,"metarType":"METAR","rawOb":"METAR KEKO 171356Z AUTO 00000KT 10SM CLR M09/M12 A3025 RMK AO2 SLP287 T10941122 $","lat":40.824,"lon":-115.7863,"elev":1541,"name":"Elko Rgnl, NV, US","cover":"CLR","clouds":[],"fltCat":"VFR"},{"icaoId":"KINW","receiptTime":"2026-04-17T14:00:10.377Z","obsTime":1776434160,"reportTime":"2026-04-17T14:00:00.000Z","temp":10,"dewp":-4.4,"wdir":310,"wspd":11,"visib":"10+","altim":1015.3,"slp":1011.1,"qcField":6,"metarType":"METAR","rawOb":"METAR KINW 171356Z AUTO 31011KT 10SM CLR 10/M04 A2998 RMK AO2 SLP111 T01001044","lat":35.0279,"lon":-110.7221,"elev":1492,"name":"Winslow/Lindberg Rgnl, AZ, US","cover":"CLR","clouds":[],"fltCat":"VFR"},{"icaoId":"KPWT","receiptTime":"2026-04-17T13:58:52.648Z","obsTime":1776434160,"reportTime":"2026-04-17T14:00:00.000Z","temp":1.1,"dewp":1.1,"wdir":0,"wspd":0,"visib":"10+","altim":1026.8,"slp":1027.6,"qcField":70,"metarType":"METAR","rawOb":"METAR KPWT 171356Z AUTO 00000KT 10SM CLR 01/01 A3032 RMK AO2 SLP276 T00110011 FZRANO","lat":47.4942,"lon":-122.7594,"elev":143,"name":"Bremerton Arpt, WA, US","cover":"CLR","clouds":[],"fltCat":"VFR"},{"icaoId":"KDUG","receiptTime":"2026-04-17T14:02:07.904Z","obsTime":1776434160,"reportTime":"2026-04-17T14:00:00.000Z","temp":13.9,"dewp":-3.3,"wdir":0,"wspd":0,"visib":"10+","altim":1015.3,"slp":1010,"qcField":38,"metarType":"METAR","rawOb":"METAR KDUG 171356Z AUTO 00000KT 10SM CLR 14/M03 A2998 RMK AO2 SLP100 T01391033 TSNO","lat":31.4725,"lon":-109.6022,"elev":1260,"name":"Douglas/Bisbee Intl, AZ, US","cover":"CLR","clouds":[],"fltCat":"VFR"},{"icaoId":"KCOE","receiptTime":"2026-04-17T13:58:50.646Z","obsTime":1776434160,"reportTime":"2026-04-17T14:00:00.000Z","temp":0,"dewp":-3.9,"wdir":220,"wspd":4,"visib":"10+","altim":1022.4,"slp":1025.6,"qcField":78,"metarType":"METAR","rawOb":"METAR KCOE 171356Z AUTO 22004KT 10SM FEW120 00/M04 A3019 RMK AO2 SLP256 T00001039 FZRANO PNO $","lat":47.7719,"lon":-116.8332,"elev":693,"name":"Coeur DAlene Arpt, ID, US","cover":"FEW","clouds":[{"cover":"FEW","base":12000}],"fltCat":"VFR"},{"icaoId":"KSDF","receiptTime":"2026-04-17T14:00:09.832Z","obsTime":1776434160,"reportTime":"2026-04-17T14:00:00.000Z","temp":18.9,"dewp":12.2,"wdir":150,"wspd":4,"visib":"10+","altim":1017.4,"slp":1017,"qcField":4,"metarType":"METAR","rawOb":"METAR KSDF 171356Z 15004KT 10SM FEW035 BKN350 19/12 A3004 RMK AO2 SLP170 T01890122","lat":38.1774,"lon":-85.7308,"elev":146,"name":"Louisville Intl, KY, US","cover":"BKN","clouds":[{"cover":"FEW","base":3500},{"cover":"BKN","base":35000}],"fltCat":"VFR"},{"icaoId":"KJAX","receiptTime":"2026-04-17T14:00:09.937Z","obsTime":1776434160,"reportTime":"2026-04-17T14:00:00.000Z","temp":25,"dewp":15,"wdir":290,"wspd":6,"visib":"10+","altim":1018.7,"slp":1018.6,"qcField":12,"metarType":"METAR","rawOb":"METAR KJAX 171356Z 29006KT 10SM CLR 25/15 A3008 RMK AO2 SLP186 T02500150 $","lat":30.4953,"lon":-81.6937,"elev":8,"name":"Jacksonville Intl, FL, US","cover":"CLR","clouds":[],"fltCat":"VFR"},{"icaoId":"KRDM","receiptTime":"2026-04-17T14:00:10.474Z","obsTime":1776434160,"reportTime":"2026-04-17T14:00:00.000Z","temp":-5,"dewp":-8.3,"wdir":150,"wspd":5,"visib":"10+","altim":1024.1,"slp":1026,"qcField":4,"metarType":"METAR","rawOb":"METAR KRDM 171356Z 15005KT 10SM CLR M05/M08 A3024 RMK AO2 SLP260 T10501083","lat":44.2558,"lon":-121.1407,"elev":930,"name":"Redmond Muni, OR, US","cover":"CLR","clouds":[],"fltCat":"VFR"},{"icaoId":"KSLE","receiptTime":"2026-04-17T14:00:10.512Z","obsTime":1776434160,"reportTime":"2026-04-17T14:00:00.000Z","temp":2.2,"dewp":1.7,"wdir":0,"wspd":0,"visib":"10+","altim":1026.5,"slp":1026.5,"qcField":6,"metarType":"METAR","rawOb":"METAR KSLE 171356Z AUTO 00000KT 10SM FEW005 02/02 A3031 RMK AO2 SLP265 T00220017","lat":44.9049,"lon":-123.001,"elev":63,"name":"Salem Muni, OR, US","cover":"FEW","clouds":[{"cover":"FEW","base":500}],"fltCat":"VFR"},{"icaoId":"KUKI","receiptTime":"2026-04-17T14:00:13.568Z","obsTime":1776434160,"reportTime":"2026-04-17T14:00:00.000Z","temp":2.8,"dewp":1.1,"wdir":0,"wspd":0,"visib":"10+","altim":1019,"slp":1018.7,"qcField":6,"metarType":"METAR","rawOb":"METAR KUKI 171356Z AUTO 00000KT 10SM CLR 03/01 A3009 RMK AO2 SLP187 T00280011","lat":39.1278,"lon":-123.2001,"elev":183,"name":"Ukiah Muni, CA, US","cover":"CLR","clouds":[],"fltCat":"VFR"},{"icaoId":"KJAC","receiptTime":"2026-04-17T13:58:42.586Z","obsTime":1776434160,"reportTime":"2026-04-17T14:00:00.000Z","temp":-7.8,"dewp":-8.9,"wdir":0,"wspd":0,"visib":"10+","altim":1018.7,"slp":1024.9,"qcField":4,"wxString":"-SN","precip":0.005,"metarType":"METAR","rawOb":"METAR KJAC 171356Z 00000KT 10SM -SN SCT049 OVC060 M08/M09 A3008 RMK AO2 SNB53 SLP249 P0000 T10781089","lat":43.6129,"lon":-110.7366,"elev":1967,"name":"Jackson Hole Arpt, WY, US","cover":"OVC","clouds":[{"cover":"SCT","base":4900},{"cover":"OVC","base":6000}],"fltCat":"VFR"},{"icaoId":"KCHS","receiptTime":"2026-04-17T14:00:05.013Z","obsTime":1776434160,"reportTime":"2026-04-17T14:00:00.000Z","temp":25,"dewp":15.6,"wdir":250,"wspd":7,"visib":"10+","altim":1017,"slp":1017,"qcField":4,"metarType":"METAR","rawOb":"METAR KCHS 171356Z 25007KT 10SM FEW070 FEW250 25/16 A3003 RMK AO2 SLP170 T02500156","lat":32.8995,"lon":-80.0407,"elev":12,"name":"Charleston Intl, SC, US","cover":"FEW","clouds":[{"cover":"FEW","base":7000},{"cover":"FEW","base":25000}],"fltCat":"VFR"},{"icaoId":"KENV","receiptTime":"2026-04-17T13:58:47.765Z","obsTime":1776434160,"reportTime":"2026-04-17T14:00:00.000Z","temp":0.6,"dewp":-11.7,"wdir":310,"wspd":9,"wgst":15,"visib":"10+","altim":1024.5,"slp":1026.2,"qcField":70,"metarType":"METAR","rawOb":"METAR KENV 171356Z AUTO 31009G15KT 10SM CLR 01/M12 A3025 RMK AO2 SLP262 T00061117 FZRANO","lat":40.7211,"lon":-114.0312,"elev":1291,"name":"Wendover Arpt, UT, US","cover":"CLR","clouds":[],"fltCat":"VFR"},{"icaoId":"KGUC","receiptTime":"2026-04-17T13:58:48.223Z","obsTime":1776434160,"reportTime":"2026-04-17T14:00:00.000Z","temp":2.2,"dewp":-5.6,"wdir":210,"wspd":14,"wgst":19,"visib":"10+","altim":1010.9,"slp":1007.2,"qcField":78,"metarType":"METAR","rawOb":"METAR KGUC 171356Z AUTO 21014G19KT 10SM SCT080 02/M06 A2985 RMK AO2 SLP072 T00221056 FZRANO $","lat":38.5322,"lon":-106.9419,"elev":2337,"name":"Gunnison Arpt, CO, US","cover":"SCT","clouds":[{"cover":"SCT","base":8000}],"fltCat":"VFR"},{"icaoId":"KHDN","receiptTime":"2026-04-17T13:58:48.303Z","obsTime":1776434160,"reportTime":"2026-04-17T14:00:00.000Z","temp":-6.1,"dewp":-7.2,"wdir":270,"wspd":14,"visib":0.75,"altim":1017,"slp":1017.6,"qcField":70,"wxString":"-SN BR","precip":0.005,"metarType":"METAR","rawOb":"METAR KHDN 171356Z AUTO 27014KT 3/4SM -SN BR SCT005 BKN016 OVC023 M06/M07 A3003 RMK AO2 SLP176 P0000 T10611072 FZRANO","lat":40.4842,"lon":-107.2296,"elev":2012,"name":"Hayden/Yampa Valley Arpt, CO, US","cover":"OVC","clouds":[{"cover":"SCT","base":500},{"cover":"BKN","base":1600},{"cover":"OVC","base":2300}],"fltCat":"LIFR"},{"icaoId":"KHND","receiptTime":"2026-04-17T13:58:48.361Z","obsTime":1776434160,"reportTime":"2026-04-17T14:00:00.000Z","temp":9.4,"dewp":-19.4,"wdir":10,"wspd":20,"wgst":25,"visib":"10+","altim":1021.1,"slp":1021.6,"qcField":12,"metarType":"METAR","rawOb":"METAR KHND 171356Z 01020G25KT 10SM CLR 09/M19 A3015 RMK AO2 PK WND 01031/1309 SLP216 T00941194 $","lat":35.9657,"lon":-115.1343,"elev":740,"name":"Henderson Exec, NV, US","cover":"CLR","clouds":[],"fltCat":"VFR"},{"icaoId":"KBZN","receiptTime":"2026-04-17T14:00:10.257Z","obsTime":1776434160,"reportTime":"2026-04-17T14:00:00.000Z","temp":-2.2,"dewp":-8.9,"wdir":250,"wspd":9,"visib":"10+","altim":1018.7,"slp":1022.4,"qcField":4,"metarType":"METAR","rawOb":"METAR KBZN 171356Z 25009KT 10SM OVC080 M02/M09 A3008 RMK AO2 SLP224 T10221089","lat":45.7876,"lon":-111.1615,"elev":1349,"name":"Bozeman/Gallatin Fld, MT, US","cover":"OVC","clouds":[{"cover":"OVC","base":8000}],"fltCat":"VFR"},{"icaoId":"KLAS","receiptTime":"2026-04-17T14:00:10.387Z","obsTime":1776434160,"reportTime":"2026-04-17T14:00:00.000Z","temp":10.6,"dewp":-21.1,"wdir":340,"wspd":21,"wgst":29,"visib":"10+","altim":1020.7,"slp":1019.4,"qcField":12,"metarType":"METAR","rawOb":"METAR KLAS 171356Z 34021G29KT 10SM FEW120 11/M21 A3014 RMK AO2 SLP194 T01061211 $","lat":36.0719,"lon":-115.1634,"elev":662,"name":"Las Vegas/Reid Intl, NV, US","cover":"FEW","clouds":[{"cover":"FEW","base":12000}],"fltCat":"VFR"},{"icaoId":"KSBP","receiptTime":"2026-04-17T14:00:10.486Z","obsTime":1776434160,"reportTime":"2026-04-17T14:00:00.000Z","temp":11.1,"dewp":-2.8,"wdir":200,"wspd":4,"visib":"10+","altim":1015.3,"slp":1015.1,"qcField":4,"metarType":"METAR","rawOb":"METAR KSBP 171356Z 20004KT 10SM CLR 11/M03 A2998 RMK AO2 SLP151 T01111028","lat":35.2381,"lon":-120.644,"elev":52,"name":"San Luis Obispo/San Luis Cnty, CA, US","cover":"CLR","clouds":[],"fltCat":"VFR"},{"icaoId":"KMEV","receiptTime":"2026-04-17T14:00:10.442Z","obsTime":1776434100,"reportTime":"2026-04-17T14:00:00.000Z","temp":-8,"dewp":-12,"wdir":140,"wspd":5,"visib":"10+","altim":1023.5,"qcField":6,"metarType":"METAR","rawOb":"METAR KMEV 171355Z AUTO 14005KT 10SM CLR M08/M12 A3022 RMK AO2","lat":38.9963,"lon":-119.75,"elev":1437,"name":"Minden-Tahoe Arpt, NV, US","cover":"CLR","clouds":[],"fltCat":"VFR"},{"icaoId":"KCXP","receiptTime":"2026-04-17T14:00:13.515Z","obsTime":1776434100,"reportTime":"2026-04-17T14:00:00.000Z","temp":-4,"dewp":-11,"wdir":0,"wspd":0,"visib":"10+","altim":1024.1,"qcField":6,"metarType":"METAR","rawOb":"METAR KCXP 171355Z AUTO 00000KT 10SM CLR M04/M11 A3024 RMK AO2","lat":39.1905,"lon":-119.7319,"elev":1431,"name":"Carson City Arpt, NV, US","cover":"CLR","clouds":[],"fltCat":"VFR"},{"icaoId":"KHCR","receiptTime":"2026-04-17T13:58:48.291Z","obsTime":1776434100,"reportTime":"2026-04-17T14:00:00.000Z","temp":-5.3,"dewp":-8.6,"wdir":0,"wspd":0,"visib":"10+","altim":1021.1,"qcField":14,"metarType":"METAR","rawOb":"METAR KHCR 171355Z AUTO 00000KT 10SM FEW055 M05/M09 A3015 RMK AO2 T10531086 $","lat":40.4774,"lon":-111.4329,"elev":1708,"name":"Heber City Muni, UT, US","cover":"FEW","clouds":[{"cover":"FEW","base":5500}],"fltCat":"VFR"},{"icaoId":"KMHR","receiptTime":"2026-04-17T14:00:10.461Z","obsTime":1776434100,"reportTime":"2026-04-17T14:00:00.000Z","temp":10,"dewp":-3,"wdir":350,"wspd":13,"visib":"10+","altim":1016.3,"qcField":6,"metarType":"METAR","rawOb":"METAR KMHR 171355Z AUTO 35013KT 10SM CLR 10/M03 A3001 RMK AO2","lat":38.56,"lon":-121.284,"elev":30,"name":"Sacramento/Mather Fld, CA, US","cover":"CLR","clouds":[],"fltCat":"VFR"},{"icaoId":"KGPI","receiptTime":"2026-04-17T13:58:48.179Z","obsTime":1776434100,"reportTime":"2026-04-17T14:00:00.000Z","temp":-1.7,"dewp":-2.2,"wdir":0,"wspd":0,"visib":6,"altim":1019.4,"slp":1022.3,"qcField":4,"wxString":"BR","precip":0.005,"metarType":"METAR","rawOb":"METAR KGPI 171355Z 00000KT 6SM BR BKN002 M02/M02 A3010 RMK AO2 VIS 1 NE SNB16E38 SLP223 P0000 T10171022","lat":48.3041,"lon":-114.2643,"elev":903,"name":"Kalispell/Glacier Park Intl, MT, US","cover":"BKN","clouds":[{"cover":"BKN","base":200}],"fltCat":"LIFR"},{"icaoId":"KBVU","receiptTime":"2026-04-17T13:56:22.017Z","obsTime":1776434100,"reportTime":"2026-04-17T14:00:00.000Z","temp":10,"dewp":-24,"wdir":10,"wspd":21,"wgst":30,"visib":"10+","altim":1019,"qcField":6,"metarType":"METAR","rawOb":"METAR KBVU 171355Z AUTO 01021G30KT 10SM CLR 10/M24 A3009 RMK AO2","lat":35.9489,"lon":-114.8633,"elev":654,"name":"Boulder City Muni, NV, US","cover":"CLR","clouds":[],"fltCat":"VFR"},{"icaoId":"KAST","receiptTime":"2026-04-17T13:58:50.068Z","obsTime":1776434100,"reportTime":"2026-04-17T14:00:00.000Z","temp":3.3,"dewp":3.3,"wdir":0,"wspd":0,"visib":5,"altim":1026.5,"slp":1026.5,"qcField":6,"wxString":"BR","metarType":"METAR","rawOb":"METAR KAST 171355Z AUTO 00000KT 5SM BR FEW007 SCT019 03/03 A3031 RMK AO2 SLP265 T00330033","lat":46.157,"lon":-123.8833,"elev":3,"name":"Astoria Rgnl, OR, US","cover":"SCT","clouds":[{"cover":"FEW","base":700},{"cover":"SCT","base":1900}],"fltCat":"MVFR"},{"icaoId":"KRTS","receiptTime":"2026-04-17T14:00:07.746Z","obsTime":1776434100,"reportTime":"2026-04-17T14:00:00.000Z","temp":-3,"dewp":-13,"wdir":80,"wspd":9,"visib":"10+","altim":1023.1,"qcField":6,"metarType":"METAR","rawOb":"METAR KRTS 171355Z AUTO 08009KT 10SM CLR M03/M13 A3021 RMK AO2","lat":39.6658,"lon":-119.8731,"elev":1537,"name":"Reno/Stead Arpt, NV, US","cover":"CLR","clouds":[],"fltCat":"VFR"},{"icaoId":"KHAF","receiptTime":"2026-04-17T13:58:35.886Z","obsTime":1776434100,"reportTime":"2026-04-17T14:00:00.000Z","temp":12,"dewp":-6,"wdir":"VRB","wspd":4,"visib":"10+","altim":1017.4,"qcField":6,"metarType":"METAR","rawOb":"METAR KHAF 171355Z AUTO VRB04KT 10SM CLR 12/M06 A3004 RMK AO2","lat":37.5136,"lon":-122.4996,"elev":11,"name":"Half Moon Bay Arpt, CA, US","cover":"CLR","clouds":[],"fltCat":"VFR"},{"icaoId":"KLRU","receiptTime":"2026-04-17T13:56:25.373Z","obsTime":1776434100,"reportTime":"2026-04-17T14:00:00.000Z","temp":13.7,"dewp":-7.5,"wdir":250,"wspd":5,"visib":"10+","altim":1014.6,"qcField":6,"metarType":"METAR","rawOb":"METAR KLRU 171355Z AUTO 25005KT 10SM CLR 14/M07 A2996 RMK AO2 T01371075","lat":32.2884,"lon":-106.9131,"elev":1355,"name":"Las Cruces Intl, NM, US","cover":"CLR","clouds":[],"fltCat":"VFR"},{"icaoId":"KRNO","receiptTime":"2026-04-17T13:58:52.814Z","obsTime":1776434100,"reportTime":"2026-04-17T14:00:00.000Z","temp":-0.6,"dewp":-13.9,"wdir":120,"wspd":4,"visib":"10+","altim":1023.5,"slp":1023.3,"qcField":4,"metarType":"METAR","rawOb":"METAR KRNO 171355Z 12004KT 10SM FEW250 M01/M14 A3022 RMK AO2 SLP233 T10061139","lat":39.5077,"lon":-119.7683,"elev":1344,"name":"Reno/Tahoe Intl, NV, US","cover":"FEW","clouds":[{"cover":"FEW","base":25000}],"fltCat":"VFR"},{"icaoId":"KHII","receiptTime":"2026-04-17T14:00:07.507Z","obsTime":1776434100,"reportTime":"2026-04-17T14:00:00.000Z","temp":17,"dewp":-12,"wdir":340,"wspd":20,"wgst":31,"visib":"10+","altim":1014.3,"qcField":6,"metarType":"METAR","rawOb":"METAR KHII 171355Z AUTO 34020G31KT 10SM CLR 17/M12 A2995 RMK AO2","lat":34.5659,"lon":-114.3522,"elev":241,"name":"Lake Havasu City Arpt, AZ, US","cover":"CLR","clouds":[],"fltCat":"VFR"},{"icaoId":"KSOW","receiptTime":"2026-04-17T13:58:23.683Z","obsTime":1776434100,"reportTime":"2026-04-17T14:00:00.000Z","temp":9,"dewp":-7,"wdir":220,"wspd":7,"visib":"10+","altim":1016.7,"qcField":6,"metarType":"METAR","rawOb":"METAR KSOW 171355Z AUTO 22007KT 10SM CLR 09/M07 A3002 RMK AO2","lat":34.2686,"lon":-110.0019,"elev":1954,"name":"Show Low Muni, AZ, US","cover":"CLR","clouds":[],"fltCat":"VFR"},{"icaoId":"KSEZ","receiptTime":"2026-04-17T13:58:43.227Z","obsTime":1776434100,"reportTime":"2026-04-17T14:00:00.000Z","temp":12,"dewp":-6,"wdir":150,"wspd":3,"visib":"10+","altim":1015.3,"qcField":6,"metarType":"METAR","rawOb":"METAR KSEZ 171355Z AUTO 15003KT 10SM CLR 12/M06 A2998 RMK AO2","lat":34.8467,"lon":-111.7884,"elev":1455,"name":"Sedona Arpt, AZ, US","cover":"CLR","clouds":[],"fltCat":"VFR"},{"icaoId":"KIFP","receiptTime":"2026-04-17T14:00:12.536Z","obsTime":1776434100,"reportTime":"2026-04-17T14:00:00.000Z","temp":15,"dewp":-11,"wdir":10,"wspd":36,"wgst":46,"visib":"10+","altim":1014.6,"qcField":6,"metarType":"METAR","rawOb":"METAR KIFP 171355Z AUTO 01036G46KT 10SM CLR 15/M11 A2996 RMK AO2","lat":35.1487,"lon":-114.5611,"elev":210,"name":"Bullhead City Intl, AZ, US","cover":"CLR","clouds":[],"fltCat":"VFR"},{"icaoId":"KCMA","receiptTime":"2026-04-17T13:58:50.598Z","obsTime":1776434100,"reportTime":"2026-04-17T14:00:00.000Z","temp":10,"dewp":7.8,"wdir":0,"wspd":0,"visib":"10+","altim":1014.3,"slp":1015.2,"qcField":4,"metarType":"METAR","rawOb":"METAR KCMA 171355Z 00000KT 10SM CLR 10/08 A2995 RMK AO2 SLP152 T01000078","lat":34.2114,"lon":-119.0876,"elev":20,"name":"Camarillo Arpt, CA, US","cover":"CLR","clouds":[],"fltCat":"VFR"},{"icaoId":"KHTH","receiptTime":"2026-04-17T14:00:04.452Z","obsTime":1776434100,"reportTime":"2026-04-17T14:00:00.000Z","temp":-2,"dewp":-13,"wdir":180,"wspd":4,"visib":"10+","altim":1024.8,"qcField":6,"metarType":"METAR","rawOb":"METAR KHTH 171355Z AUTO 18004KT 10SM CLR M02/M13 A3026 RMK A01","lat":38.5448,"lon":-118.6314,"elev":1281,"name":"Hawthorne Muni, NV, US","cover":"CLR","clouds":[],"fltCat":"VFR"},{"icaoId":"KEUG","receiptTime":"2026-04-17T13:58:35.857Z","obsTime":1776434040,"reportTime":"2026-04-17T14:00:00.000Z","temp":0.6,"dewp":0,"wdir":0,"wspd":0,"visib":"10+","altim":1026.5,"slp":1026.6,"qcField":4,"metarType":"METAR","rawOb":"METAR KEUG 171354Z 00000KT 10SM FEW040 SCT250 01/00 A3031 RMK AO2 SLP266 T00060000","lat":44.1331,"lon":-123.2156,"elev":109,"name":"Eugene/Mahlon Sweet Fld, OR, US","cover":"SCT","clouds":[{"cover":"FEW","base":4000},{"cover":"SCT","base":25000}],"fltCat":"VFR"},{"icaoId":"KCOS","receiptTime":"2026-04-17T13:58:26.970Z","obsTime":1776434040,"reportTime":"2026-04-17T14:00:00.000Z","temp":2.2,"dewp":-3.9,"wdir":350,"wspd":15,"visib":"10+","altim":1011.3,"slp":1007.7,"qcField":4,"metarType":"METAR","rawOb":"METAR KCOS 171354Z 35015KT 10SM FEW020 FEW120 SCT210 02/M04 A2986 RMK AO2 SLP077 T00221039","lat":38.8095,"lon":-104.6887,"elev":1886,"name":"Colorado Spring Arpt, CO, US","cover":"SCT","clouds":[{"cover":"FEW","base":2000},{"cover":"FEW","base":12000},{"cover":"SCT","base":21000}],"fltCat":"VFR"},{"icaoId":"KOLM","receiptTime":"2026-04-17T13:58:35.917Z","obsTime":1776434040,"reportTime":"2026-04-17T14:00:00.000Z","temp":2.8,"dewp":2.2,"visib":"10+","altim":1026.8,"slp":1026.9,"qcField":6,"metarType":"METAR","rawOb":"METAR KOLM 171354Z AUTO 10SM OVC023 03/02 A3032 RMK AO2 SLP269 T00280022","lat":46.9737,"lon":-122.9049,"elev":58,"name":"Olympia Rgnl, WA, US","cover":"OVC","clouds":[{"cover":"OVC","base":2300}],"fltCat":"MVFR"},{"icaoId":"KBFL","receiptTime":"2026-04-17T13:58:35.844Z","obsTime":1776434040,"reportTime":"2026-04-17T14:00:00.000Z","temp":8.9,"dewp":1.7,"wdir":110,"wspd":5,"visib":"10+","altim":1017.7,"slp":1017.1,"qcField":4,"metarType":"METAR","rawOb":"METAR KBFL 171354Z 11005KT 10SM CLR 09/02 A3005 RMK AO2 SLP171 T00890017","lat":35.4342,"lon":-119.0552,"elev":146,"name":"Bakersfield/Meadows Arpt, CA, US","cover":"CLR","clouds":[],"fltCat":"VFR"},{"icaoId":"KBTV","receiptTime":"2026-04-17T13:58:36.465Z","obsTime":1776434040,"reportTime":"2026-04-17T14:00:00.000Z","temp":10.6,"dewp":7.2,"wdir":340,"wspd":9,"visib":"10+","altim":1015.3,"slp":1015.2,"qcField":4,"metarType":"METAR","rawOb":"METAR KBTV 171354Z 34009KT 10SM OVC009 11/07 A2998 RMK AO2 SLP152 T01060072","lat":44.4682,"lon":-73.1499,"elev":101,"name":"Burlington Intl, VT, US","cover":"OVC","clouds":[{"cover":"OVC","base":900}],"fltCat":"IFR"},{"icaoId":"KMEM","receiptTime":"2026-04-17T13:58:34.127Z","obsTime":1776434040,"reportTime":"2026-04-17T14:00:00.000Z","temp":22.2,"dewp":16.1,"wdir":200,"wspd":9,"visib":"10+","altim":1016.7,"slp":1016.1,"qcField":4,"metarType":"METAR","rawOb":"METAR KMEM 171354Z 20009KT 10SM FEW150 22/16 A3002 RMK AO2 SLP161 T02220161","lat":35.0564,"lon":-89.9864,"elev":78,"name":"Memphis Intl, TN, US","cover":"FEW","clouds":[{"cover":"FEW","base":15000}],"fltCat":"VFR"},{"icaoId":"KSJN","receiptTime":"2026-04-17T13:58:33.581Z","obsTime":1776434040,"reportTime":"2026-04-17T14:00:00.000Z","temp":10,"dewp":-8.3,"wdir":260,"wspd":8,"visib":"10+","altim":1015,"slp":1008.8,"qcField":6,"metarType":"METAR","rawOb":"METAR KSJN 171354Z AUTO 26008KT 10SM CLR 10/M08 A2997 RMK AO2 SLP088 T01001083","lat":34.5184,"lon":-109.3801,"elev":1747,"name":"St Johns Ind Arpt, AZ, US","cover":"CLR","clouds":[],"fltCat":"VFR"},{"icaoId":"KSYR","receiptTime":"2026-04-17T13:58:35.706Z","obsTime":1776434040,"reportTime":"2026-04-17T14:00:00.000Z","temp":12.8,"dewp":12.2,"wdir":300,"wspd":9,"visib":6,"altim":1014.3,"slp":1013.9,"qcField":4,"wxString":"BR","metarType":"METAR","rawOb":"METAR KSYR 171354Z 30009KT 6SM BR OVC003 13/12 A2995 RMK AO2 SLP139 T01280122","lat":43.1111,"lon":-76.1038,"elev":125,"name":"Syracuse/Hancock Intl, NY, US","cover":"OVC","clouds":[{"cover":"OVC","base":300}],"fltCat":"LIFR"},{"icaoId":"KGCN","receiptTime":"2026-04-17T13:58:35.868Z","obsTime":1776434040,"reportTime":"2026-04-17T14:00:00.000Z","temp":3.3,"dewp":-10,"wdir":20,"wspd":6,"visib":"10+","altim":1017.4,"slp":1012.6,"qcField":4,"metarType":"METAR","rawOb":"METAR KGCN 171354Z 02006KT 10SM CLR 03/M10 A3004 RMK AO2 SLP126 T00331100","lat":35.9458,"lon":-112.1554,"elev":1993,"name":"Grand Canyon Park Arpt, AZ, US","cover":"CLR","clouds":[],"fltCat":"VFR"},{"icaoId":"KSLC","receiptTime":"2026-04-17T13:58:35.946Z","obsTime":1776434040,"reportTime":"2026-04-17T14:00:00.000Z","temp":0,"dewp":-5,"wdir":120,"wspd":3,"visib":"10+","altim":1023.5,"slp":1024,"qcField":12,"metarType":"METAR","rawOb":"METAR KSLC 171354Z 12003KT 10SM FEW030 FEW050 FEW065 00/M05 A3022 RMK AO2 SLP240 TCU DSNT NW SCSL DSNT SE T00001050 $","lat":40.7707,"lon":-111.965,"elev":1286,"name":"Salt Lake City Intl, UT, US","cover":"FEW","clouds":[{"cover":"FEW","base":3000},{"cover":"FEW","base":5000},{"cover":"FEW","base":6500}],"fltCat":"VFR"},{"icaoId":"KRKS","receiptTime":"2026-04-17T13:58:36.195Z","obsTime":1776434040,"reportTime":"2026-04-17T14:00:00.000Z","temp":-7.8,"dewp":-11.1,"wdir":260,"wspd":18,"visib":"10+","altim":1017.4,"slp":1022.2,"qcField":6,"metarType":"METAR","rawOb":"METAR KRKS 171354Z AUTO 26018KT 10SM CLR M08/M11 A3004 RMK AO2 SLP222 T10781111","lat":41.5947,"lon":-109.0529,"elev":2062,"name":"Rock Springs/SW Wyoming Rgnl, WY, US","cover":"CLR","clouds":[],"fltCat":"VFR"},{"icaoId":"KBOS","receiptTime":"2026-04-17T13:58:36.450Z","obsTime":1776434040,"reportTime":"2026-04-17T14:00:00.000Z","temp":11.1,"dewp":10,"wdir":140,"wspd":5,"visib":"10+","altim":1010.9,"slp":1010.6,"qcField":4,"precip":0.005,"metarType":"METAR","rawOb":"METAR KBOS 171354Z 14005KT 10SM BKN022 OVC029 11/10 A2985 RMK AO2 RAB1258E00 SLP106 P0000 T01110100","lat":42.3606,"lon":-71.0097,"elev":4,"name":"Boston/Logan Intl, MA, US","cover":"OVC","clouds":[{"cover":"BKN","base":2200},{"cover":"OVC","base":2900}],"fltCat":"MVFR"},{"icaoId":"KBUF","receiptTime":"2026-04-17T13:58:36.479Z","obsTime":1776434040,"reportTime":"2026-04-17T14:00:00.000Z","temp":12.2,"dewp":10.6,"wdir":240,"wspd":3,"visib":"10+","altim":1016.3,"slp":1016.2,"qcField":4,"precip":0.005,"metarType":"METAR","rawOb":"METAR KBUF 171354Z 24003KT 10SM OVC007 12/11 A3001 RMK AO2 DZE48 CIG 005V011 SLP162 P0000 T01220106","lat":42.94,"lon":-78.7361,"elev":217,"name":"Buffalo-Niagara Intl, NY, US","cover":"OVC","clouds":[{"cover":"OVC","base":700}],"fltCat":"IFR"},{"icaoId":"KBWI","receiptTime":"2026-04-17T13:58:36.492Z","obsTime":1776434040,"reportTime":"2026-04-17T14:00:00.000Z","temp":23.9,"dewp":13.9,"wdir":280,"wspd":10,"wgst":15,"visib":"10+","altim":1013,"slp":1012.6,"qcField":4,"metarType":"METAR","rawOb":"METAR KBWI 171354Z 28010G15KT 10SM FEW065 FEW130 SCT250 24/14 A2991 RMK AO2 SLP126 T02390139","lat":39.1733,"lon":-76.684,"elev":42,"name":"Baltimore-Washington Intl, MD, US","cover":"SCT","clouds":[{"cover":"FEW","base":6500},{"cover":"FEW","base":13000},{"cover":"SCT","base":25000}],"fltCat":"VFR"},{"icaoId":"KIND","receiptTime":"2026-04-17T13:58:36.128Z","obsTime":1776434040,"reportTime":"2026-04-17T14:00:00.000Z","temp":18.9,"dewp":13.3,"wdir":180,"wspd":5,"visib":"10+","altim":1016.3,"slp":1015.9,"qcField":4,"metarType":"METAR","rawOb":"METAR KIND 171354Z 18005KT 10SM BKN250 19/13 A3001 RMK AO2 SLP159 T01890133","lat":39.7252,"lon":-86.2816,"elev":242,"name":"Indianapolis Intl, IN, US","cover":"BKN","clouds":[{"cover":"BKN","base":25000}],"fltCat":"VFR"},{"icaoId":"KPHL","receiptTime":"2026-04-17T13:58:35.614Z","obsTime":1776434040,"reportTime":"2026-04-17T14:00:00.000Z","temp":23.3,"dewp":13.9,"wdir":330,"wspd":7,"visib":"10+","altim":1011.9,"slp":1011.8,"qcField":12,"metarType":"METAR","rawOb":"METAR KPHL 171354Z 33007KT 10SM SCT038 SCT110 BKN230 BKN300 23/14 A2988 RMK AO2 SLP118 T02330139 $","lat":39.8733,"lon":-75.2268,"elev":2,"name":"Philadelphia Intl, PA, US","cover":"BKN","clouds":[{"cover":"SCT","base":3800},{"cover":"SCT","base":11000},{"cover":"BKN","base":23000},{"cover":"BKN","base":30000}],"fltCat":"VFR"},{"icaoId":"KFFZ","receiptTime":"2026-04-17T13:58:34.521Z","obsTime":1776434040,"reportTime":"2026-04-17T14:00:00.000Z","temp":17.8,"dewp":-2.8,"wdir":100,"wspd":6,"visib":"10+","altim":1011.6,"slp":1009.6,"qcField":4,"metarType":"METAR","rawOb":"METAR KFFZ 171354Z 10006KT 10SM CLR 18/M03 A2987 RMK AO2 SLP096 T01781028","lat":33.4659,"lon":-111.7212,"elev":420,"name":"Mesa/Falcon Fld, AZ, US","cover":"CLR","clouds":[],"fltCat":"VFR"},{"icaoId":"KRIC","receiptTime":"2026-04-17T13:58:35.651Z","obsTime":1776434040,"reportTime":"2026-04-17T14:00:00.000Z","temp":26.1,"dewp":12.8,"wdir":270,"wspd":7,"visib":"10+","altim":1014,"slp":1014.2,"qcField":4,"metarType":"METAR","rawOb":"METAR KRIC 171354Z 27007KT 10SM SCT070 SCT110 BKN250 26/13 A2994 RMK AO2 SLP142 T02610128","lat":37.5115,"lon":-77.3234,"elev":51,"name":"Richmond Intl, VA, US","cover":"BKN","clouds":[{"cover":"SCT","base":7000},{"cover":"SCT","base":11000},{"cover":"BKN","base":25000}],"fltCat":"VFR"},{"icaoId":"KROC","receiptTime":"2026-04-17T13:58:35.679Z","obsTime":1776434040,"reportTime":"2026-04-17T14:00:00.000Z","temp":11.7,"dewp":11.1,"wdir":50,"wspd":8,"visib":6,"altim":1016.3,"slp":1016.4,"qcField":12,"wxString":"BR","metarType":"METAR","rawOb":"METAR KROC 171354Z 05008KT 6SM BR BKN005 OVC015 12/11 A3001 RMK AO2 SLP164 T01170111 $","lat":43.1172,"lon":-77.6754,"elev":166,"name":"Rochester Intl Arpt, NY, US","cover":"OVC","clouds":[{"cover":"BKN","base":500},{"cover":"OVC","base":1500}],"fltCat":"IFR"},{"icaoId":"KDSM","receiptTime":"2026-04-17T13:58:31.392Z","obsTime":1776434040,"reportTime":"2026-04-17T14:00:00.000Z","temp":21.7,"dewp":17.8,"wdir":170,"wspd":19,"wgst":28,"visib":"10+","altim":1003.5,"slp":1002.5,"qcField":4,"metarType":"METAR","rawOb":"METAR KDSM 171354Z 17019G28KT 10SM FEW018 BKN023 OVC250 22/18 A2963 RMK AO2 PK WND 15034/1314 SLP025 T02170178","lat":41.5339,"lon":-93.6531,"elev":286,"name":"Des Moines Intl, IA, US","cover":"OVC","clouds":[{"cover":"FEW","base":1800},{"cover":"BKN","base":2300},{"cover":"OVC","base":25000}],"fltCat":"MVFR"},{"icaoId":"KGSO","receiptTime":"2026-04-17T13:58:36.614Z","obsTime":1776434040,"reportTime":"2026-04-17T14:00:00.000Z","temp":22.2,"dewp":14.4,"wdir":300,"wspd":7,"visib":"10+","altim":1017,"slp":1015.7,"qcField":4,"metarType":"METAR","rawOb":"METAR KGSO 171354Z 30007KT 10SM FEW035 SCT160 BKN200 BKN250 22/14 A3003 RMK AO2 SLP157 VIRGA T02220144","lat":36.0969,"lon":-79.9432,"elev":275,"name":"Greensboro Intl, NC, US","cover":"BKN","clouds":[{"cover":"FEW","base":3500},{"cover":"SCT","base":16000},{"cover":"BKN","base":20000},{"cover":"BKN","base":25000}],"fltCat":"VFR"},{"icaoId":"KOLS","receiptTime":"2026-04-17T13:58:35.931Z","obsTime":1776434040,"reportTime":"2026-04-17T14:00:00.000Z","temp":12.2,"dewp":-3.9,"wdir":80,"wspd":3,"visib":"10+","altim":1015,"slp":1010,"qcField":6,"metarType":"METAR","rawOb":"METAR KOLS 171354Z AUTO 08003KT 10SM CLR 12/M04 A2997 RMK AO2 SLP100 T01221039","lat":31.4208,"lon":-110.8465,"elev":1194,"name":"Nogales Intl, AZ, US","cover":"CLR","clouds":[],"fltCat":"VFR"},{"icaoId":"KAPC","receiptTime":"2026-04-17T13:58:35.831Z","obsTime":1776434040,"reportTime":"2026-04-17T14:00:00.000Z","temp":6.7,"dewp":-3.9,"wdir":"VRB","wspd":3,"visib":"10+","altim":1017.7,"slp":1016.7,"qcField":6,"metarType":"METAR","rawOb":"METAR KAPC 171354Z AUTO VRB03KT 10SM CLR 07/M04 A3005 RMK AO2 SLP167 T00671039","lat":38.2075,"lon":-122.2804,"elev":5,"name":"Napa Cnty Arpt, CA, US","cover":"CLR","clouds":[],"fltCat":"VFR"},{"icaoId":"KSEA","receiptTime":"2026-04-17T13:56:24.996Z","obsTime":1776433980,"reportTime":"2026-04-17T14:00:00.000Z","temp":5.6,"dewp":2.2,"wdir":110,"wspd":6,"visib":"10+","altim":1026.8,"slp":1027.3,"qcField":4,"metarType":"METAR","rawOb":"METAR KSEA 171353Z 11006KT 10SM FEW030 FEW080 SCT230 06/02 A3032 RMK AO2 SLP273 T00560022","lat":47.4447,"lon":-122.3144,"elev":115,"name":"Seattle-Tacoma Intl, WA, US","cover":"SCT","clouds":[{"cover":"FEW","base":3000},{"cover":"FEW","base":8000},{"cover":"SCT","base":23000}],"fltCat":"VFR"},{"icaoId":"KLOL","receiptTime":"2026-04-17T13:56:25.321Z","obsTime":1776433980,"reportTime":"2026-04-17T14:00:00.000Z","temp":-8.9,"dewp":-14.4,"wdir":0,"wspd":0,"visib":"10+","altim":1024.8,"slp":1027.2,"qcField":6,"metarType":"METAR","rawOb":"METAR KLOL 171353Z AUTO 00000KT 10SM CLR M09/M14 A3026 RMK AO2 SLP272 T10891144","lat":40.0684,"lon":-118.5702,"elev":1191,"name":"Lovelock/Derby Fld, NV, US","cover":"CLR","clouds":[],"fltCat":"VFR"},{"icaoId":"KFMN","receiptTime":"2026-04-17T13:56:27.912Z","obsTime":1776433980,"reportTime":"2026-04-17T14:00:00.000Z","temp":6.7,"dewp":-8.3,"wdir":280,"wspd":16,"wgst":30,"visib":"10+","altim":1012.6,"slp":1009.5,"qcField":4,"metarType":"METAR","rawOb":"METAR KFMN 171353Z 28016G30KT 10SM CLR 07/M08 A2990 RMK AO2 PK WND 28030/1346 SLP095 T00671083","lat":36.7435,"lon":-108.2293,"elev":1677,"name":"Farmington/Four Corners Rgnl, NM, US","cover":"CLR","clouds":[],"fltCat":"VFR"},{"icaoId":"KTUS","receiptTime":"2026-04-17T13:56:28.229Z","obsTime":1776433980,"reportTime":"2026-04-17T14:00:00.000Z","temp":15,"dewp":-3.9,"wdir":130,"wspd":4,"visib":"10+","altim":1014.3,"slp":1010.9,"qcField":12,"metarType":"METAR","rawOb":"METAR KTUS 171353Z 13004KT 10SM CLR 15/M04 A2995 RMK AO2 SLP109 T01501039 $","lat":32.1315,"lon":-110.9564,"elev":776,"name":"Tucson Intl Arpt, AZ, US","cover":"CLR","clouds":[],"fltCat":"VFR"},{"icaoId":"KRDD","receiptTime":"2026-04-17T13:56:20.681Z","obsTime":1776433980,"reportTime":"2026-04-17T14:00:00.000Z","temp":10,"dewp":-6.1,"wdir":350,"wspd":7,"visib":"10+","altim":1021.1,"slp":1020.7,"qcField":4,"metarType":"METAR","rawOb":"METAR KRDD 171353Z 35007KT 10SM CLR 10/M06 A3015 RMK AO2 SLP207 T01001061","lat":40.5146,"lon":-122.2977,"elev":152,"name":"Redding Muni, CA, US","cover":"CLR","clouds":[],"fltCat":"VFR"},{"icaoId":"KONT","receiptTime":"2026-04-17T13:56:26.905Z","obsTime":1776433980,"reportTime":"2026-04-17T14:00:00.000Z","temp":12.8,"dewp":10.6,"wdir":0,"wspd":0,"visib":9,"altim":1014.6,"slp":1013.9,"qcField":12,"metarType":"METAR","rawOb":"METAR KONT 171353Z 00000KT 9SM OVC012 13/11 A2996 RMK AO2 SLP139 OVC V BKN T01280106 $","lat":34.0531,"lon":-117.5769,"elev":279,"name":"Ontario Intl, CA, US","cover":"OVC","clouds":[{"cover":"OVC","base":1200}],"fltCat":"MVFR"},{"icaoId":"KGEG","receiptTime":"2026-04-17T13:56:25.930Z","obsTime":1776433980,"reportTime":"2026-04-17T14:00:00.000Z","temp":-1.1,"dewp":-5,"wdir":190,"wspd":7,"visib":"10+","altim":1021.8,"slp":1023.1,"qcField":4,"metarType":"METAR","rawOb":"METAR KGEG 171353Z 19007KT 10SM FEW080 FEW140 M01/M05 A3017 RMK AO2 SLP231 T10111050","lat":47.6217,"lon":-117.528,"elev":718,"name":"Spokane Intl, WA, US","cover":"FEW","clouds":[{"cover":"FEW","base":8000},{"cover":"FEW","base":14000}],"fltCat":"VFR"},{"icaoId":"KTPA","receiptTime":"2026-04-17T13:56:14.140Z","obsTime":1776433980,"reportTime":"2026-04-17T14:00:00.000Z","temp":23.9,"dewp":17.8,"wdir":250,"wspd":4,"visib":"10+","altim":1019.7,"slp":1019.6,"qcField":4,"metarType":"METAR","rawOb":"METAR KTPA 171353Z 25004KT 10SM CLR 24/18 A3011 RMK AO2 SLP196 T02390178","lat":27.9633,"lon":-82.54,"elev":2,"name":"Tampa Intl Arpt, FL, US","cover":"CLR","clouds":[],"fltCat":"VFR"},{"icaoId":"KAPA","receiptTime":"2026-04-17T13:56:21.566Z","obsTime":1776433980,"reportTime":"2026-04-17T14:00:00.000Z","temp":1.1,"dewp":-6.7,"wdir":70,"wspd":6,"visib":"10+","altim":1012.6,"slp":1010,"qcField":4,"metarType":"METAR","rawOb":"METAR KAPA 171353Z 07006KT 10SM FEW018 SCT220 01/M07 A2990 RMK AO2 SLP100 T00111067","lat":39.5599,"lon":-104.8484,"elev":1791,"name":"Denver/Centennial Arpt, CO, US","cover":"SCT","clouds":[{"cover":"FEW","base":1800},{"cover":"SCT","base":22000}],"fltCat":"VFR"},{"icaoId":"KGJT","receiptTime":"2026-04-17T13:56:17.476Z","obsTime":1776433980,"reportTime":"2026-04-17T14:00:00.000Z","temp":-1.1,"dewp":-1.7,"wdir":290,"wspd":12,"visib":0.5,"altim":1018,"slp":1015.8,"qcField":4,"wxString":"SN","precip":0.01,"metarType":"METAR","rawOb":"METAR KGJT 171353Z 29012KT 1/2SM SN FEW005 OVC011 M01/M02 A3006 RMK AO2 SLP158 P0001 T10111017 RVRNO","lat":39.1344,"lon":-108.5408,"elev":1475,"name":"Grand Junction Rgnl, CO, US","cover":"OVC","clouds":[{"cover":"FEW","base":500},{"cover":"OVC","base":1100}],"fltCat":"LIFR"},{"icaoId":"KEVW","receiptTime":"2026-04-17T13:56:16.270Z","obsTime":1776433980,"reportTime":"2026-04-17T14:00:00.000Z","temp":-11.1,"dewp":-13.3,"wdir":230,"wspd":5,"visib":"10+","altim":1019,"slp":1024.6,"qcField":14,"metarType":"METAR","rawOb":"METAR KEVW 171353Z AUTO 23005KT 10SM CLR M11/M13 A3009 RMK AO2 SLP246 T11111133 $","lat":41.2727,"lon":-111.0305,"elev":2178,"name":"Evanston/Uinta Cnty, WY, US","cover":"CLR","clouds":[],"fltCat":"VFR"},{"icaoId":"KMSP","receiptTime":"2026-04-17T13:56:27.868Z","obsTime":1776433980,"reportTime":"2026-04-17T14:00:00.000Z","temp":18.3,"dewp":13.3,"wdir":240,"wspd":8,"visib":"10+","altim":1003.1,"slp":1002.6,"qcField":4,"wxString":"VCTS","metarType":"METAR","rawOb":"METAR KMSP 171353Z 24008KT 10SM VCTS SCT027CB BKN220 BKN250 18/13 A2962 RMK AO2 LTG DSNT S-W SLP026 VCTS SW-W MOV NE T01830133","lat":44.8852,"lon":-93.2313,"elev":255,"name":"Minneapolis-St Paul Intl, MN, US","cover":"BKN","clouds":[{"cover":"SCT","base":2700},{"cover":"BKN","base":22000},{"cover":"BKN","base":25000}],"fltCat":"VFR"},{"icaoId":"KRTN","receiptTime":"2026-04-17T13:56:15.699Z","obsTime":1776433980,"reportTime":"2026-04-17T14:00:00.000Z","temp":8.9,"dewp":-12.8,"wdir":0,"wspd":0,"visib":"10+","altim":1010.2,"slp":1004.1,"qcField":6,"metarType":"METAR","rawOb":"METAR KRTN 171353Z AUTO 00000KT 10SM CLR 09/M13 A2983 RMK AO2 SLP041 T00891128","lat":36.7418,"lon":-104.5076,"elev":1939,"name":"Raton/Crews Fld, NM, US","cover":"CLR","clouds":[],"fltCat":"VFR"},{"icaoId":"KSJC","receiptTime":"2026-04-17T13:56:20.757Z","obsTime":1776433980,"reportTime":"2026-04-17T14:00:00.000Z","temp":11.7,"dewp":-6.1,"wdir":330,"wspd":6,"visib":"10+","altim":1017.4,"slp":1017.3,"qcField":4,"metarType":"METAR","rawOb":"METAR KSJC 171353Z 33006KT 10SM FEW080 FEW110 12/M06 A3004 RMK AO2 SLP173 T01171061","lat":37.3594,"lon":-121.9244,"elev":13,"name":"San Jose Intl Arpt, CA, US","cover":"FEW","clouds":[{"cover":"FEW","base":8000},{"cover":"FEW","base":11000}],"fltCat":"VFR"},{"icaoId":"KLAX","receiptTime":"2026-04-17T13:56:28.033Z","obsTime":1776433980,"reportTime":"2026-04-17T14:00:00.000Z","temp":14.4,"dewp":11.7,"wdir":100,"wspd":4,"visib":"10+","altim":1014.6,"slp":1014.3,"qcField":4,"metarType":"METAR","rawOb":"METAR KLAX 171353Z 10004KT 10SM FEW013 SCT025 SCT140 BKN180 14/12 A2996 RMK AO2 SLP143 T01440117","lat":33.9382,"lon":-118.3866,"elev":30,"name":"Los Angeles Intl, CA, US","cover":"BKN","clouds":[{"cover":"FEW","base":1300},{"cover":"SCT","base":2500},{"cover":"SCT","base":14000},{"cover":"BKN","base":18000}],"fltCat":"VFR"},{"icaoId":"KMSO","receiptTime":"2026-04-17T13:56:28.111Z","obsTime":1776433980,"reportTime":"2026-04-17T14:00:00.000Z","temp":1.1,"dewp":-2.8,"wdir":110,"wspd":7,"visib":"10+","altim":1020.4,"slp":1022.7,"qcField":4,"metarType":"METAR","rawOb":"METAR KMSO 171353Z 11007KT 10SM BKN050 BKN120 01/M03 A3013 RMK AO2 SLP227 T00111028","lat":46.9208,"lon":-114.0938,"elev":974,"name":"Missoula Intl, MT, US","cover":"BKN","clouds":[{"cover":"BKN","base":5000},{"cover":"BKN","base":12000}],"fltCat":"VFR"},{"icaoId":"KDFW","receiptTime":"2026-04-17T14:00:14.636Z","obsTime":1776433980,"reportTime":"2026-04-17T14:00:00.000Z","temp":22.2,"dewp":18.3,"wdir":170,"wspd":13,"wgst":23,"visib":"10+","altim":1011.9,"slp":1011,"qcField":12,"metarType":"METAR","rawOb":"METAR KDFW 171353Z 17013G23KT 10SM BKN016 BKN250 22/18 A2988 RMK AO2 SLP110 T02220183 $","lat":32.8974,"lon":-97.022,"elev":168,"name":"Dallas-Ft Worth Intl, TX, US","cover":"BKN","clouds":[{"cover":"BKN","base":1600},{"cover":"BKN","base":25000}],"fltCat":"MVFR"},{"icaoId":"KMIA","receiptTime":"2026-04-17T14:00:14.753Z","obsTime":1776433980,"reportTime":"2026-04-17T14:00:00.000Z","temp":25.6,"dewp":21.7,"wdir":0,"wspd":0,"visib":"10+","altim":1018,"slp":1017.9,"qcField":0,"metarType":"METAR","rawOb":"METAR KMIA 171353Z 00000KT 10SM BKN017 BKN030 BKN042 26/22 A3006 RMK SLP179 T02560217","lat":25.7881,"lon":-80.3169,"elev":1,"name":"Miami Intl, FL, US","cover":"BKN","clouds":[{"cover":"BKN","base":1700},{"cover":"BKN","base":3000},{"cover":"BKN","base":4200}],"fltCat":"MVFR"},{"icaoId":"KPRC","receiptTime":"2026-04-17T13:56:20.657Z","obsTime":1776433980,"reportTime":"2026-04-17T14:00:00.000Z","temp":7.2,"dewp":-5,"wdir":350,"wspd":14,"visib":"10+","altim":1016.3,"slp":1011.2,"qcField":4,"metarType":"METAR","rawOb":"METAR KPRC 171353Z 35014KT 10SM CLR 07/M05 A3001 RMK AO2 SLP112 T00721050","lat":34.6491,"lon":-112.4223,"elev":1528,"name":"Prescott/Love Fld, AZ, US","cover":"CLR","clouds":[],"fltCat":"VFR"},{"icaoId":"KPSP","receiptTime":"2026-04-17T13:56:20.669Z","obsTime":1776433980,"reportTime":"2026-04-17T14:00:00.000Z","temp":18.3,"dewp":5.6,"wdir":310,"wspd":9,"visib":"10+","altim":1013.6,"slp":1013.4,"qcField":12,"metarType":"METAR","rawOb":"METAR KPSP 171353Z 31009KT 10SM CLR 18/06 A2993 RMK AO2 SLP134 T01830056 $","lat":33.8222,"lon":-116.5043,"elev":123,"name":"Palm Springs Intl, CA, US","cover":"CLR","clouds":[],"fltCat":"VFR"},{"icaoId":"KSBA","receiptTime":"2026-04-17T13:56:20.705Z","obsTime":1776433980,"reportTime":"2026-04-17T14:00:00.000Z","temp":10,"dewp":8.9,"wdir":0,"wspd":0,"visib":"10+","altim":1014.6,"slp":1014.4,"qcField":12,"metarType":"METAR","rawOb":"METAR KSBA 171353Z 00000KT 10SM SCT011 10/09 A2996 RMK AO2 SLP144 T01000089 $","lat":34.4241,"lon":-119.8425,"elev":2,"name":"Santa Barbara Muni, CA, US","cover":"SCT","clouds":[{"cover":"SCT","base":1100}],"fltCat":"VFR"},{"icaoId":"KSHR","receiptTime":"2026-04-17T13:56:20.745Z","obsTime":1776433980,"reportTime":"2026-04-17T14:00:00.000Z","temp":-2.8,"dewp":-5,"wdir":290,"wspd":9,"visib":"10+","altim":1016,"slp":1019.5,"qcField":6,"metarType":"METAR","rawOb":"METAR KSHR 171353Z AUTO 29009KT 10SM BKN075 M03/M05 A3000 RMK AO2 SLP195 T10281050","lat":44.7603,"lon":-106.9741,"elev":1212,"name":"Sheridan Cnty Arpt, WY, US","cover":"BKN","clouds":[{"cover":"BKN","base":7500}],"fltCat":"VFR"},{"icaoId":"KSMF","receiptTime":"2026-04-17T13:56:20.770Z","obsTime":1776433980,"reportTime":"2026-04-17T14:00:00.000Z","temp":8.3,"dewp":-2.8,"wdir":330,"wspd":15,"wgst":24,"visib":"10+","altim":1017.4,"slp":1017.2,"qcField":4,"metarType":"METAR","rawOb":"METAR KSMF 171353Z 33015G24KT 10SM FEW250 08/M03 A3004 RMK AO2 SLP172 T00831028","lat":38.7007,"lon":-121.5948,"elev":7,"name":"Sacramento Intl, CA, US","cover":"FEW","clouds":[{"cover":"FEW","base":25000}],"fltCat":"VFR"},{"icaoId":"KVGT","receiptTime":"2026-04-17T13:56:20.858Z","obsTime":1776433980,"reportTime":"2026-04-17T14:00:00.000Z","temp":10,"dewp":-18.9,"wdir":340,"wspd":22,"wgst":31,"visib":"10+","altim":1020.4,"slp":1020.9,"qcField":4,"metarType":"METAR","rawOb":"METAR KVGT 171353Z 34022G31KT 10SM CLR 10/M19 A3013 RMK AO2 PK WND 34034/1338 SLP209 T01001189","lat":36.212,"lon":-115.194,"elev":664,"name":"Las Vegas/North Arpt, NV, US","cover":"CLR","clouds":[],"fltCat":"VFR"},{"icaoId":"KBCE","receiptTime":"2026-04-17T13:56:20.884Z","obsTime":1776433980,"reportTime":"2026-04-17T14:00:00.000Z","temp":-7.2,"dewp":-13.3,"wdir":360,"wspd":11,"visib":"10+","altim":1019.4,"slp":1015.4,"qcField":6,"metarType":"METAR","rawOb":"METAR KBCE 171353Z AUTO 36011KT 10SM CLR M07/M13 A3010 RMK AO2 SLP154 T10721133","lat":37.7013,"lon":-112.149,"elev":2311,"name":"Bryce Canyon Arpt, UT, US","cover":"CLR","clouds":[],"fltCat":"VFR"},{"icaoId":"KMSY","receiptTime":"2026-04-17T13:56:20.972Z","obsTime":1776433980,"reportTime":"2026-04-17T14:00:00.000Z","temp":23.9,"dewp":19.4,"wdir":120,"wspd":7,"visib":"10+","altim":1018.4,"slp":1018.4,"qcField":4,"metarType":"METAR","rawOb":"METAR KMSY 171353Z 12007KT 10SM FEW015 24/19 A3007 RMK AO2 SLP184 T02390194","lat":29.9974,"lon":-90.2777,"elev":0,"name":"New Orleans/Armstrong Intl, LA, US","cover":"FEW","clouds":[{"cover":"FEW","base":1500}],"fltCat":"VFR"},{"icaoId":"KMTJ","receiptTime":"2026-04-17T13:56:20.999Z","obsTime":1776433980,"reportTime":"2026-04-17T14:00:00.000Z","temp":-1.7,"dewp":-2.2,"wdir":310,"wspd":10,"visib":0.5,"altim":1017,"slp":1013.5,"qcField":6,"wxString":"SN FZFG","precip":0.01,"metarType":"METAR","rawOb":"METAR KMTJ 171353Z AUTO 31010KT 1/2SM SN FZFG FEW005 OVC009 M02/M02 A3003 RMK AO2 SLP135 P0001 T10171022","lat":38.5054,"lon":-107.8981,"elev":1755,"name":"Montrose Rgnl, CO, US","cover":"OVC","clouds":[{"cover":"FEW","base":500},{"cover":"OVC","base":900}],"fltCat":"LIFR"},{"icaoId":"KMYF","receiptTime":"2026-04-17T13:56:21.058Z","obsTime":1776433980,"reportTime":"2026-04-17T14:00:00.000Z","temp":12.8,"dewp":8.9,"wdir":100,"wspd":5,"visib":"10+","altim":1014.6,"slp":1014.2,"qcField":4,"metarType":"METAR","rawOb":"METAR KMYF 171353Z 10005KT 10SM CLR 13/09 A2996 RMK AO2 SLP142 T01280089","lat":32.8145,"lon":-117.1375,"elev":128,"name":"San Diego/Montgomery Arpt, CA, US","cover":"CLR","clouds":[],"fltCat":"VFR"},{"icaoId":"KBNA","receiptTime":"2026-04-17T13:56:26.479Z","obsTime":1776433980,"reportTime":"2026-04-17T14:00:00.000Z","temp":18.9,"dewp":14.4,"wdir":130,"wspd":4,"visib":"10+","altim":1018.4,"slp":1017.9,"qcField":4,"metarType":"METAR","rawOb":"METAR KBNA 171353Z 13004KT 10SM FEW055 SCT250 19/14 A3007 RMK AO2 SLP179 T01890144","lat":36.1105,"lon":-86.6881,"elev":168,"name":"Nashville Intl, TN, US","cover":"SCT","clouds":[{"cover":"FEW","base":5500},{"cover":"SCT","base":25000}],"fltCat":"VFR"},{"icaoId":"KBUR","receiptTime":"2026-04-17T13:56:26.061Z","obsTime":1776433980,"reportTime":"2026-04-17T14:00:00.000Z","temp":12.2,"dewp":8.9,"wdir":0,"wspd":0,"visib":"10+","altim":1014.6,"slp":1013.7,"qcField":4,"metarType":"METAR","rawOb":"METAR KBUR 171353Z 00000KT 10SM SCT018 12/09 A2996 RMK AO2 SLP137 T01220089","lat":34.1996,"lon":-118.3654,"elev":221,"name":"Burbank/Bob Hope Arpt, CA, US","cover":"SCT","clouds":[{"cover":"SCT","base":1800}],"fltCat":"VFR"},{"icaoId":"KHOU","receiptTime":"2026-04-17T13:56:22.934Z","obsTime":1776433980,"reportTime":"2026-04-17T14:00:00.000Z","temp":23.3,"dewp":21.7,"wdir":150,"wspd":6,"visib":"10+","altim":1014.6,"slp":1014.9,"qcField":4,"metarType":"METAR","rawOb":"METAR KHOU 171353Z 15006KT 10SM SCT020 SCT250 23/22 A2996 RMK AO2 SLP149 T02330217","lat":29.6458,"lon":-95.2821,"elev":13,"name":"Houston/Hobby Arpt, TX, US","cover":"SCT","clouds":[{"cover":"SCT","base":2000},{"cover":"SCT","base":25000}],"fltCat":"VFR"},{"icaoId":"KIAH","receiptTime":"2026-04-17T13:56:23.061Z","obsTime":1776433980,"reportTime":"2026-04-17T14:00:00.000Z","temp":23.9,"dewp":21.7,"wdir":170,"wspd":8,"visib":7,"altim":1015,"slp":1014.7,"qcField":4,"metarType":"METAR","rawOb":"METAR KIAH 171353Z 17008KT 7SM SCT011 BKN250 24/22 A2997 RMK AO2 SLP147 T02390217","lat":29.9844,"lon":-95.3607,"elev":27,"name":"Houston/Bush Intl, TX, US","cover":"BKN","clouds":[{"cover":"SCT","base":1100},{"cover":"BKN","base":25000}],"fltCat":"VFR"},{"icaoId":"KLAR","receiptTime":"2026-04-17T13:56:23.294Z","obsTime":1776433980,"reportTime":"2026-04-17T14:00:00.000Z","temp":-5,"dewp":-10.6,"wdir":330,"wspd":10,"visib":"10+","altim":1012.3,"slp":1008.9,"qcField":6,"precip":0.005,"metarType":"METAR","rawOb":"METAR KLAR 171353Z AUTO 33010KT 10SM BKN029 OVC041 M05/M11 A2989 RMK AO2 SNB25E44 SLP089 P0000 T10501106","lat":41.3165,"lon":-105.6729,"elev":2217,"name":"Laramie Rgnl, WY, US","cover":"OVC","clouds":[{"cover":"BKN","base":2900},{"cover":"OVC","base":4100}],"fltCat":"MVFR"},{"icaoId":"KLAW","receiptTime":"2026-04-17T13:56:23.312Z","obsTime":1776433980,"reportTime":"2026-04-17T14:00:00.000Z","temp":21.1,"dewp":18.9,"wdir":160,"wspd":14,"wgst":19,"visib":"10+","altim":1009.6,"slp":1008.4,"qcField":4,"metarType":"METAR","rawOb":"METAR KLAW 171353Z 16014G19KT 10SM FEW015 OVC034 21/19 A2981 RMK AO2 SLP084 T02110189","lat":34.5577,"lon":-98.4172,"elev":328,"name":"Lawton-Fort Sill Rgnl, OK, US","cover":"OVC","clouds":[{"cover":"FEW","base":1500},{"cover":"OVC","base":3400}],"fltCat":"VFR"},{"icaoId":"KCPR","receiptTime":"2026-04-17T13:56:23.600Z","obsTime":1776433980,"reportTime":"2026-04-17T14:00:00.000Z","temp":-4.4,"dewp":-4.4,"wdir":0,"wspd":0,"visib":3,"altim":1015.3,"slp":1017.9,"qcField":4,"wxString":"BR","precip":0.01,"metarType":"METAR","rawOb":"METAR KCPR 171353Z 00000KT 3SM BR FEW013 BKN047 OVC055 M04/M04 A2998 RMK AO2 SNE50 SLP179 P0001 T10441044","lat":42.8978,"lon":-106.4736,"elev":1623,"name":"Casper/Natrona Cnty, WY, US","cover":"OVC","clouds":[{"cover":"FEW","base":1300},{"cover":"BKN","base":4700},{"cover":"OVC","base":5500}],"fltCat":"MVFR"},{"icaoId":"KDEN","receiptTime":"2026-04-17T13:56:23.765Z","obsTime":1776433980,"reportTime":"2026-04-17T14:00:00.000Z","temp":1.7,"dewp":-5.6,"wdir":100,"wspd":13,"visib":"10+","altim":1012.6,"slp":1008.6,"qcField":12,"metarType":"METAR","rawOb":"METAR KDEN 171353Z 10013KT 10SM FEW030 FEW180 SCT220 02/M06 A2990 RMK AO2 SLP086 T00171056 $","lat":39.8466,"lon":-104.6562,"elev":1656,"name":"Denver Intl, CO, US","cover":"SCT","clouds":[{"cover":"FEW","base":3000},{"cover":"FEW","base":18000},{"cover":"SCT","base":22000}],"fltCat":"VFR"},{"icaoId":"KDRO","receiptTime":"2026-04-17T13:56:23.867Z","obsTime":1776433980,"reportTime":"2026-04-17T14:00:00.000Z","temp":5.6,"dewp":-7.8,"wdir":0,"wspd":0,"visib":"10+","altim":1013,"slp":1008.8,"qcField":6,"metarType":"METAR","rawOb":"METAR KDRO 171353Z AUTO 00000KT 10SM CLR 06/M08 A2991 RMK AO2 SLP088 T00561078","lat":37.1431,"lon":-107.7602,"elev":2021,"name":"Durango/La Plata Cnty, CO, US","cover":"CLR","clouds":[],"fltCat":"VFR"},{"icaoId":"KMYR","receiptTime":"2026-04-17T13:56:24.310Z","obsTime":1776433980,"reportTime":"2026-04-17T14:00:00.000Z","temp":23.9,"dewp":16.1,"wdir":290,"wspd":7,"visib":"10+","altim":1017,"slp":1016.7,"qcField":12,"metarType":"METAR","rawOb":"METAR KMYR 171353Z 29007KT 10SM CLR 24/16 A3003 RMK AO2 SLP167 T02390161 $","lat":33.6769,"lon":-78.9325,"elev":7,"name":"Myrtle Beach Intl, SC, US","cover":"CLR","clouds":[],"fltCat":"VFR"},{"icaoId":"KLVS","receiptTime":"2026-04-17T13:56:25.431Z","obsTime":1776433980,"reportTime":"2026-04-17T14:00:00.000Z","temp":12.2,"dewp":-11.7,"wdir":190,"wspd":10,"wgst":16,"visib":"10+","altim":1013,"slp":1005.1,"qcField":6,"metarType":"METAR","rawOb":"METAR KLVS 171353Z AUTO 19010G16KT 10SM CLR 12/M12 A2991 RMK AO2 SLP051 T01221117","lat":35.6558,"lon":-105.1385,"elev":2095,"name":"Las Vegas Muni, NM, US","cover":"CLR","clouds":[],"fltCat":"VFR"},{"icaoId":"KMAF","receiptTime":"2026-04-17T13:56:25.483Z","obsTime":1776433980,"reportTime":"2026-04-17T14:00:00.000Z","temp":20.6,"dewp":17.2,"wdir":210,"wspd":14,"visib":8,"altim":1010.9,"slp":1006.7,"qcField":4,"metarType":"METAR","rawOb":"METAR KMAF 171353Z 21014KT 8SM CLR 21/17 A2985 RMK AO2 SLP067 T02060172","lat":31.9475,"lon":-102.2086,"elev":874,"name":"Midland Intl, TX, US","cover":"CLR","clouds":[],"fltCat":"VFR"},{"icaoId":"KMCI","receiptTime":"2026-04-17T13:56:25.587Z","obsTime":1776433980,"reportTime":"2026-04-17T14:00:00.000Z","temp":23.3,"dewp":18.3,"wdir":190,"wspd":20,"wgst":32,"visib":9,"altim":1005.2,"slp":1004.2,"qcField":4,"metarType":"METAR","rawOb":"METAR KMCI 171353Z 19020G32KT 9SM FEW023 BKN250 23/18 A2968 RMK AO2 PK WND 21032/1349 SLP042 T02330183","lat":39.2975,"lon":-94.7309,"elev":308,"name":"Kansas City Intl, MO, US","cover":"BKN","clouds":[{"cover":"FEW","base":2300},{"cover":"BKN","base":25000}],"fltCat":"VFR"},{"icaoId":"KMCO","receiptTime":"2026-04-17T13:56:25.616Z","obsTime":1776433980,"reportTime":"2026-04-17T14:00:00.000Z","temp":23.9,"dewp":17.2,"wdir":210,"wspd":3,"visib":"10+","altim":1020.1,"slp":1019.9,"qcField":4,"metarType":"METAR","rawOb":"METAR KMCO 171353Z 21003KT 10SM CLR 24/17 A3012 RMK AO2 SLP199 T02390172","lat":28.4182,"lon":-81.3241,"elev":27,"name":"Orlando Intl, FL, US","cover":"CLR","clouds":[],"fltCat":"VFR"},{"icaoId":"KMDW","receiptTime":"2026-04-17T13:56:25.681Z","obsTime":1776433980,"reportTime":"2026-04-17T14:00:00.000Z","temp":18.3,"dewp":12.2,"wdir":160,"wspd":9,"visib":"10+","altim":1013.3,"slp":1012.8,"qcField":4,"metarType":"METAR","rawOb":"METAR KMDW 171353Z 16009KT 10SM BKN250 18/12 A2992 RMK AO2 SLP128 T01830122","lat":41.7841,"lon":-87.7552,"elev":186,"name":"Chicago/Midway Intl, IL, US","cover":"BKN","clouds":[{"cover":"BKN","base":25000}],"fltCat":"VFR"},{"icaoId":"KMFE","receiptTime":"2026-04-17T13:56:25.699Z","obsTime":1776433980,"reportTime":"2026-04-17T14:00:00.000Z","temp":26.1,"dewp":22.8,"wdir":130,"wspd":15,"visib":"10+","altim":1011.6,"slp":1011.2,"qcField":4,"metarType":"METAR","rawOb":"METAR KMFE 171353Z 13015KT 10SM SCT012 26/23 A2987 RMK AO2 SLP112 T02610228","lat":26.1791,"lon":-98.2445,"elev":29,"name":"McAllen/Miller Intl, TX, US","cover":"SCT","clouds":[{"cover":"SCT","base":1200}],"fltCat":"VFR"},{"icaoId":"KMLC","receiptTime":"2026-04-17T13:56:25.840Z","obsTime":1776433980,"reportTime":"2026-04-17T14:00:00.000Z","temp":22.2,"dewp":17.8,"wdir":180,"wspd":10,"wgst":20,"visib":"10+","altim":1011.9,"slp":1010.8,"qcField":6,"metarType":"METAR","rawOb":"METAR KMLC 171353Z AUTO 18010G20KT 150V210 10SM CLR 22/18 A2988 RMK AO2 SLP108 T02220178","lat":34.8824,"lon":-95.7815,"elev":231,"name":"McAlester Rgnl, OK, US","cover":"CLR","clouds":[],"fltCat":"VFR"},{"icaoId":"KACV","receiptTime":"2026-04-17T13:56:25.996Z","obsTime":1776433980,"reportTime":"2026-04-17T14:00:00.000Z","temp":2.2,"dewp":1.1,"wdir":0,"wspd":0,"visib":"10+","altim":1021.1,"slp":1021.9,"qcField":6,"metarType":"METAR","rawOb":"METAR KACV 171353Z AUTO 00000KT 10SM CLR 02/01 A3015 RMK AO2 SLP219 T00220011","lat":40.9784,"lon":-124.1048,"elev":63,"name":"Arcata Arpt, CA, US","cover":"CLR","clouds":[],"fltCat":"VFR"},{"icaoId":"KBIL","receiptTime":"2026-04-17T13:56:26.011Z","obsTime":1776433980,"reportTime":"2026-04-17T14:00:00.000Z","temp":1.7,"dewp":-6.1,"wdir":280,"wspd":17,"wgst":24,"visib":"10+","altim":1016,"slp":1018.4,"qcField":4,"metarType":"METAR","rawOb":"METAR KBIL 171353Z 28017G24KT 10SM FEW065 SCT110 02/M06 A3000 RMK AO2 SLP184 T00171061","lat":45.8072,"lon":-108.5462,"elev":1089,"name":"Billings/Logan Intl, MT, US","cover":"SCT","clouds":[{"cover":"FEW","base":6500},{"cover":"SCT","base":11000}],"fltCat":"VFR"},{"icaoId":"KBOI","receiptTime":"2026-04-17T13:56:26.029Z","obsTime":1776433980,"reportTime":"2026-04-17T14:00:00.000Z","temp":-0.6,"dewp":-3.9,"wdir":130,"wspd":7,"visib":"10+","altim":1024.8,"slp":1026.1,"qcField":4,"metarType":"METAR","rawOb":"METAR KBOI 171353Z 13007KT 10SM CLR M01/M04 A3026 RMK AO2 SLP261 T10061039","lat":43.567,"lon":-116.2406,"elev":860,"name":"Boise Arpt, ID, US","cover":"CLR","clouds":[],"fltCat":"VFR"},{"icaoId":"KBTM","receiptTime":"2026-04-17T13:56:26.047Z","obsTime":1776433980,"reportTime":"2026-04-17T14:00:00.000Z","temp":-3.9,"dewp":-7.8,"wdir":60,"wspd":4,"visib":8,"altim":1018.4,"slp":1022,"qcField":6,"precip":0.005,"metarType":"METAR","rawOb":"METAR KBTM 171353Z AUTO 06004KT 8SM BKN034 OVC044 M04/M08 A3007 RMK AO2 SNB22E44 SLP220 P0000 T10391078","lat":45.9644,"lon":-112.5015,"elev":1680,"name":"Butte/Mooney Arpt, MT, US","cover":"OVC","clouds":[{"cover":"BKN","base":3400},{"cover":"OVC","base":4400}],"fltCat":"VFR"},{"icaoId":"KCDC","receiptTime":"2026-04-17T13:56:26.075Z","obsTime":1776433980,"reportTime":"2026-04-17T14:00:00.000Z","temp":-2.8,"dewp":-11.1,"wdir":30,"wspd":9,"visib":"10+","altim":1021.4,"slp":1021.2,"qcField":6,"metarType":"METAR","rawOb":"METAR KCDC 171353Z AUTO 03009KT 10SM CLR M03/M11 A3016 RMK AO2 SLP212 T10281111","lat":37.7067,"lon":-113.097,"elev":1703,"name":"Cedar City Muni, UT, US","cover":"CLR","clouds":[],"fltCat":"VFR"},{"icaoId":"KCRQ","receiptTime":"2026-04-17T13:56:26.092Z","obsTime":1776433980,"reportTime":"2026-04-17T14:00:00.000Z","temp":13.3,"dewp":8.9,"wdir":80,"wspd":4,"visib":"10+","altim":1014.3,"slp":1014.1,"qcField":6,"metarType":"METAR","rawOb":"METAR KCRQ 171353Z AUTO 08004KT 10SM CLR 13/09 A2995 RMK AO2 SLP141 T01330089","lat":33.1299,"lon":-117.2765,"elev":96,"name":"Carlsbad/Palomar Arpt, CA, US","cover":"CLR","clouds":[],"fltCat":"VFR"},{"icaoId":"KDVT","receiptTime":"2026-04-17T13:56:26.110Z","obsTime":1776433980,"reportTime":"2026-04-17T14:00:00.000Z","temp":16.1,"dewp":-2.2,"wdir":110,"wspd":4,"visib":"10+","altim":1011.9,"slp":1010,"qcField":12,"metarType":"METAR","rawOb":"METAR KDVT 171353Z 11004KT 10SM CLR 16/M02 A2988 RMK AO2 SLP100 T01611022 $","lat":33.6902,"lon":-112.0662,"elev":454,"name":"Phoenix/Deer Valley Arpt, AZ, US","cover":"CLR","clouds":[],"fltCat":"VFR"},{"icaoId":"KELY","receiptTime":"2026-04-17T13:56:26.129Z","obsTime":1776433980,"reportTime":"2026-04-17T14:00:00.000Z","temp":-8.9,"dewp":-13.3,"wdir":0,"wspd":0,"visib":"10+","altim":1022.8,"slp":1025,"qcField":14,"wxString":"-SN","precip":0.005,"metarType":"METAR","rawOb":"METAR KELY 171353Z AUTO 00000KT 10SM -SN CLR M09/M13 A3020 RMK AO2 SNB52 SLP250 P0000 T10891133 $","lat":39.2954,"lon":-114.8466,"elev":1906,"name":"Ely/Yelland Fld, NV, US","cover":"CLR","clouds":[],"fltCat":"VFR"},{"icaoId":"KGTF","receiptTime":"2026-04-17T13:56:26.164Z","obsTime":1776433980,"reportTime":"2026-04-17T14:00:00.000Z","temp":-3.9,"dewp":-5.6,"wdir":0,"wspd":0,"visib":"10+","altim":1017,"slp":1022.3,"qcField":4,"metarType":"METAR","rawOb":"METAR KGTF 171353Z 00000KT 10SM CLR M04/M06 A3003 RMK AO2 SLP223 T10391056","lat":47.4733,"lon":-111.3828,"elev":1117,"name":"Great Falls Intl, MT, US","cover":"CLR","clouds":[],"fltCat":"VFR"},{"icaoId":"KTUL","receiptTime":"2026-04-17T13:56:26.178Z","obsTime":1776433980,"reportTime":"2026-04-17T14:00:00.000Z","temp":23.3,"dewp":18.3,"wdir":170,"wspd":15,"wgst":26,"visib":"10+","altim":1009.9,"slp":1009,"qcField":4,"metarType":"METAR","rawOb":"METAR KTUL 171353Z 17015G26KT 10SM BKN080 BKN200 23/18 A2982 RMK AO2 PK WND 18026/1346 SLP090 T02330183","lat":36.1985,"lon":-95.8782,"elev":196,"name":"Tulsa Intl Arpt, OK, US","cover":"BKN","clouds":[{"cover":"BKN","base":8000},{"cover":"BKN","base":20000}],"fltCat":"VFR"},{"icaoId":"KBRO","receiptTime":"2026-04-17T13:56:26.530Z","obsTime":1776433980,"reportTime":"2026-04-17T14:00:00.000Z","temp":26.7,"dewp":22.2,"wdir":160,"wspd":15,"visib":"10+","altim":1012.6,"slp":1012.5,"qcField":4,"metarType":"METAR","rawOb":"METAR KBRO 171353Z 16015KT 10SM SCT015 BKN026 27/22 A2990 RMK AO2 SLP125 T02670222","lat":25.9146,"lon":-97.4231,"elev":6,"name":"Brownsville Intl, TX, US","cover":"BKN","clouds":[{"cover":"SCT","base":1500},{"cover":"BKN","base":2600}],"fltCat":"MVFR"},{"icaoId":"KCLL","receiptTime":"2026-04-17T13:56:26.583Z","obsTime":1776433980,"reportTime":"2026-04-17T14:00:00.000Z","temp":22.8,"dewp":20.6,"wdir":160,"wspd":10,"visib":9,"altim":1014,"slp":1013.4,"qcField":4,"metarType":"METAR","rawOb":"METAR KCLL 171353Z 16010KT 9SM BKN013 OVC018 23/21 A2994 RMK AO2 SLP134 T02280206","lat":30.5912,"lon":-96.3631,"elev":96,"name":"College Station/Easterwood Arpt, TX, US","cover":"OVC","clouds":[{"cover":"BKN","base":1300},{"cover":"OVC","base":1800}],"fltCat":"MVFR"},{"icaoId":"KCNM","receiptTime":"2026-04-17T13:56:26.595Z","obsTime":1776433980,"reportTime":"2026-04-17T14:00:00.000Z","temp":19.4,"dewp":-1.7,"wdir":"VRB","wspd":3,"visib":"10+","altim":1010.9,"slp":1005.9,"qcField":6,"metarType":"METAR","rawOb":"METAR KCNM 171353Z AUTO VRB03KT 10SM CLR 19/M02 A2985 RMK AO2 SLP059 T01941017","lat":32.3336,"lon":-104.2584,"elev":993,"name":"Carlsbad/Cavern City Air Term, NM, US","cover":"CLR","clouds":[],"fltCat":"VFR"},{"icaoId":"KHLN","receiptTime":"2026-04-17T13:56:26.710Z","obsTime":1776433980,"reportTime":"2026-04-17T14:00:00.000Z","temp":1.7,"dewp":-7.2,"wdir":270,"wspd":11,"wgst":20,"visib":"10+","altim":1018,"slp":1021.6,"qcField":4,"metarType":"METAR","rawOb":"METAR KHLN 171353Z 27011G20KT 10SM BKN090 02/M07 A3006 RMK AO2 SLP216 T00171072","lat":46.6045,"lon":-111.9892,"elev":1178,"name":"Helena Rgnl, MT, US","cover":"BKN","clouds":[{"cover":"BKN","base":9000}],"fltCat":"VFR"},{"icaoId":"KMOD","receiptTime":"2026-04-17T14:02:07.459Z","obsTime":1776433980,"reportTime":"2026-04-17T14:00:00.000Z","temp":10,"dewp":-2.2,"wdir":300,"wspd":14,"visib":"10+","altim":1017,"slp":1016.9,"qcField":13,"metarType":"METAR","rawOb":"METAR KMOD 171353Z COR 30014KT 10SM CLR 10/M02 A3003 RMK AO2 SLP169 T01001022 $","lat":37.6254,"lon":-120.9549,"elev":25,"name":"Modesto/Sham Fld, CA, US","cover":"CLR","clouds":[],"fltCat":"VFR"},{"icaoId":"KOAK","receiptTime":"2026-04-17T13:56:26.855Z","obsTime":1776433980,"reportTime":"2026-04-17T14:00:00.000Z","temp":8.3,"dewp":-2.2,"wdir":40,"wspd":3,"visib":"10+","altim":1018,"slp":1018,"qcField":12,"metarType":"METAR","rawOb":"METAR KOAK 171353Z 04003KT 10SM CLR 08/M02 A3006 RMK AO2 SLP180 T00831022 $","lat":37.7178,"lon":-122.233,"elev":3,"name":"Oakland Intl, CA, US","cover":"CLR","clouds":[],"fltCat":"VFR"},{"icaoId":"KOGD","receiptTime":"2026-04-17T13:56:26.869Z","obsTime":1776433980,"reportTime":"2026-04-17T14:00:00.000Z","temp":-1.7,"dewp":-6.7,"wdir":170,"wspd":3,"visib":"10+","altim":1022.8,"slp":1023.8,"qcField":4,"metarType":"METAR","rawOb":"METAR KOGD 171353Z 17003KT 10SM CLR M02/M07 A3020 RMK AO2 SLP238 T10171067","lat":41.1941,"lon":-112.0168,"elev":1356,"name":"Ogden/Hinckley Arpt, UT, US","cover":"CLR","clouds":[],"fltCat":"VFR"},{"icaoId":"KPIH","receiptTime":"2026-04-17T13:56:26.934Z","obsTime":1776433980,"reportTime":"2026-04-17T14:00:00.000Z","temp":-2.2,"dewp":-6.7,"wdir":220,"wspd":14,"visib":"10+","altim":1022.8,"slp":1024.9,"qcField":4,"metarType":"METAR","rawOb":"METAR KPIH 171353Z 22014KT 10SM FEW040 M02/M07 A3020 RMK AO2 SLP249 T10221067","lat":42.9197,"lon":-112.5723,"elev":1357,"name":"Pocatello Rgnl, ID, US","cover":"FEW","clouds":[{"cover":"FEW","base":4000}],"fltCat":"VFR"},{"icaoId":"KMFR","receiptTime":"2026-04-17T13:56:27.762Z","obsTime":1776433980,"reportTime":"2026-04-17T14:00:00.000Z","temp":-1.1,"dewp":-2.2,"wdir":0,"wspd":0,"visib":"10+","altim":1025.5,"slp":1025.9,"qcField":4,"metarType":"METAR","rawOb":"METAR KMFR 171353Z 00000KT 10SM CLR M01/M02 A3028 RMK AO2 SLP259 T10111022","lat":42.375,"lon":-122.877,"elev":397,"name":"Medford/Rogue Valley Intl, OR, US","cover":"CLR","clouds":[],"fltCat":"VFR"},{"icaoId":"KFAT","receiptTime":"2026-04-17T13:56:27.899Z","obsTime":1776433980,"reportTime":"2026-04-17T14:00:00.000Z","temp":9.4,"dewp":0,"wdir":0,"wspd":0,"visib":"10+","altim":1017,"slp":1016.9,"qcField":12,"metarType":"METAR","rawOb":"METAR KFAT 171353Z 00000KT 10SM FEW070 FEW120 09/00 A3003 RMK AO2 SLP169 T00940000 $","lat":36.78,"lon":-119.7202,"elev":102,"name":"Fresno/Yosemite Intl, CA, US","cover":"FEW","clouds":[{"cover":"FEW","base":7000},{"cover":"FEW","base":12000}],"fltCat":"VFR"},{"icaoId":"KPNC","receiptTime":"2026-04-17T13:56:24.358Z","obsTime":1776433980,"reportTime":"2026-04-17T14:00:00.000Z","temp":22.8,"dewp":18.3,"wdir":180,"wspd":11,"wgst":21,"visib":"10+","altim":1007.5,"slp":1006.1,"qcField":6,"metarType":"METAR","rawOb":"METAR KPNC 171353Z AUTO 18011G21KT 10SM CLR 23/18 A2975 RMK AO2 SLP061 T02280183","lat":36.7369,"lon":-97.1024,"elev":304,"name":"Ponca City Rgnl, OK, US","cover":"CLR","clouds":[],"fltCat":"VFR"},{"icaoId":"KDMN","receiptTime":"2026-04-17T13:56:27.105Z","obsTime":1776433980,"reportTime":"2026-04-17T14:00:00.000Z","temp":12.8,"dewp":-5.6,"wdir":250,"wspd":7,"visib":"10+","altim":1014.3,"slp":1008.6,"qcField":6,"metarType":"METAR","rawOb":"METAR KDMN 171353Z AUTO 25007KT 10SM CLR 13/M06 A2995 RMK AO2 SLP086 T01281056","lat":32.2592,"lon":-107.7206,"elev":1310,"name":"Deming Muni, NM, US","cover":"CLR","clouds":[],"fltCat":"VFR"},{"icaoId":"KLGB","receiptTime":"2026-04-17T13:56:26.776Z","obsTime":1776433980,"reportTime":"2026-04-17T14:00:00.000Z","temp":13.3,"dewp":10.6,"wdir":80,"wspd":4,"visib":"10+","altim":1014.3,"slp":1014.2,"qcField":12,"metarType":"METAR","rawOb":"METAR KLGB 171353Z 08004KT 10SM CLR 13/11 A2995 RMK AO2 SLP142 T01330106 $","lat":33.8118,"lon":-118.1472,"elev":10,"name":"Long Beach Arpt, CA, US","cover":"CLR","clouds":[],"fltCat":"VFR"},{"icaoId":"KIDA","receiptTime":"2026-04-17T13:56:26.725Z","obsTime":1776433980,"reportTime":"2026-04-17T14:00:00.000Z","temp":-4.4,"dewp":-5.6,"wdir":200,"wspd":12,"visib":"10+","altim":1022.1,"slp":1025.5,"qcField":4,"metarType":"METAR","rawOb":"METAR KIDA 171353Z 20012KT 10SM BKN005 OVC090 M04/M06 A3018 RMK AO2 SLP255 T10441056","lat":43.5204,"lon":-112.0675,"elev":1444,"name":"Idaho Falls Rgnl, ID, US","cover":"OVC","clouds":[{"cover":"BKN","base":500},{"cover":"OVC","base":9000}],"fltCat":"IFR"},{"icaoId":"KTWF","receiptTime":"2026-04-17T13:56:20.847Z","obsTime":1776433980,"reportTime":"2026-04-17T14:00:00.000Z","temp":-1.7,"dewp":-7.8,"wdir":230,"wspd":12,"visib":"10+","altim":1023.5,"slp":1024.2,"qcField":4,"metarType":"METAR","rawOb":"METAR KTWF 171353Z 23012KT 10SM CLR M02/M08 A3022 RMK AO2 SLP242 T10171078","lat":42.4785,"lon":-114.4775,"elev":1269,"name":"Twin Falls/Joslin Fld, ID, US","cover":"CLR","clouds":[],"fltCat":"VFR"},{"icaoId":"KPGA","receiptTime":"2026-04-17T13:56:28.123Z","obsTime":1776433980,"reportTime":"2026-04-17T14:00:00.000Z","temp":5.6,"dewp":-15.6,"wdir":310,"wspd":15,"wgst":30,"visib":"10+","altim":1018.4,"slp":1015,"qcField":14,"metarType":"METAR","rawOb":"METAR KPGA 171353Z AUTO 31015G30KT 10SM SCT100 BKN120 06/M16 A3007 RMK AO2 PK WND 29030/1348 SLP150 T00561156 $","lat":36.9211,"lon":-111.4487,"elev":1310,"name":"Page Muni, AZ, US","cover":"BKN","clouds":[{"cover":"SCT","base":10000},{"cover":"BKN","base":12000}],"fltCat":"VFR"},{"icaoId":"KSTS","receiptTime":"2026-04-17T13:56:20.809Z","obsTime":1776433980,"reportTime":"2026-04-17T14:00:00.000Z","temp":5.6,"dewp":-1.1,"wdir":0,"wspd":0,"visib":"10+","altim":1017.4,"slp":1016.6,"qcField":4,"metarType":"METAR","rawOb":"METAR KSTS 171353Z 00000KT 10SM CLR 06/M01 A3004 RMK AO2 SLP166 T00561011","lat":38.5037,"lon":-122.811,"elev":35,"name":"Santa Rosa/Schulz Arpt, CA, US","cover":"CLR","clouds":[],"fltCat":"VFR"},{"icaoId":"KYKM","receiptTime":"2026-04-17T13:56:25.176Z","obsTime":1776433980,"reportTime":"2026-04-17T14:00:00.000Z","temp":0,"dewp":-4.4,"wdir":"VRB","wspd":4,"visib":"10+","altim":1024.1,"slp":1024.9,"qcField":4,"metarType":"METAR","rawOb":"METAR KYKM 171353Z VRB04KT 10SM CLR 00/M04 A3024 RMK AO2 SLP249 T00001044","lat":46.564,"lon":-120.5349,"elev":319,"name":"Yakima/McAllister Fld, WA, US","cover":"CLR","clouds":[],"fltCat":"VFR"},{"icaoId":"KPDX","receiptTime":"2026-04-17T13:56:24.951Z","obsTime":1776433980,"reportTime":"2026-04-17T14:00:00.000Z","temp":6.7,"dewp":4.4,"wdir":0,"wspd":0,"visib":"10+","altim":1027.2,"slp":1027,"qcField":12,"metarType":"METAR","rawOb":"METAR KPDX 171353Z 00000KT 10SM BKN038 BKN250 07/04 A3033 RMK AO2 SLP270 T00670044 $","lat":45.5958,"lon":-122.6092,"elev":7,"name":"Portland Intl, OR, US","cover":"BKN","clouds":[{"cover":"BKN","base":3800},{"cover":"BKN","base":25000}],"fltCat":"VFR"},{"icaoId":"KPSC","receiptTime":"2026-04-17T13:56:27.383Z","obsTime":1776433980,"reportTime":"2026-04-17T14:00:00.000Z","temp":5,"dewp":-0.6,"wdir":200,"wspd":9,"visib":"10+","altim":1025.1,"slp":1025.1,"qcField":4,"metarType":"METAR","rawOb":"METAR KPSC 171353Z 20009KT 10SM OVC080 05/M01 A3027 RMK AO2 SLP251 T00501006","lat":46.2695,"lon":-119.1182,"elev":121,"name":"Pasco/Tri Cities Arpt, WA, US","cover":"OVC","clouds":[{"cover":"OVC","base":8000}],"fltCat":"VFR"},{"icaoId":"KPUW","receiptTime":"2026-04-17T13:56:27.405Z","obsTime":1776433980,"reportTime":"2026-04-17T14:00:00.000Z","temp":0.6,"dewp":-2.2,"wdir":250,"wspd":3,"visib":"10+","altim":1023.1,"slp":1024.8,"qcField":6,"metarType":"METAR","rawOb":"METAR KPUW 171353Z AUTO 25003KT 10SM CLR 01/M02 A3021 RMK AO2 SLP248 T00061022","lat":46.7438,"lon":-117.1158,"elev":774,"name":"Pullman/Moscow Rgnl, WA, US","cover":"CLR","clouds":[],"fltCat":"VFR"},{"icaoId":"KBFI","receiptTime":"2026-04-17T13:56:15.146Z","obsTime":1776433980,"reportTime":"2026-04-17T14:00:00.000Z","temp":5,"dewp":2.8,"wdir":230,"wspd":3,"visib":"10+","altim":1027.2,"slp":1026.9,"qcField":4,"metarType":"METAR","rawOb":"METAR KBFI 171353Z 23003KT 10SM SCT045 05/03 A3033 RMK AO2 SLP269 T00500028","lat":47.5455,"lon":-122.3148,"elev":7,"name":"Seattle/Boeing Fld, WA, US","cover":"SCT","clouds":[{"cover":"SCT","base":4500}],"fltCat":"VFR"},{"icaoId":"KBHM","receiptTime":"2026-04-17T13:56:26.344Z","obsTime":1776433980,"reportTime":"2026-04-17T14:00:00.000Z","temp":23.9,"dewp":12.2,"wdir":120,"wspd":6,"visib":"10+","altim":1019.7,"slp":1018.6,"qcField":4,"metarType":"METAR","rawOb":"METAR KBHM 171353Z 12006KT 10SM CLR 24/12 A3011 RMK AO2 SLP186 T02390122","lat":33.5655,"lon":-86.7449,"elev":191,"name":"Birmingham Intl, AL, US","cover":"CLR","clouds":[],"fltCat":"VFR"},{"icaoId":"KCNY","receiptTime":"2026-04-17T13:56:24.908Z","obsTime":1776433980,"reportTime":"2026-04-17T14:00:00.000Z","temp":2.8,"dewp":-12.8,"wdir":310,"wspd":27,"wgst":34,"visib":"10+","altim":1018,"slp":1015.9,"qcField":14,"metarType":"METAR","rawOb":"METAR KCNY 171353Z AUTO 31027G34KT 10SM BKN075 03/M13 A3006 RMK AO2 PK WND 31034/1352 SLP159 T00281128 $","lat":38.7501,"lon":-109.7627,"elev":1392,"name":"Moab/Canyonland Fld, UT, US","cover":"BKN","clouds":[{"cover":"BKN","base":7500}],"fltCat":"VFR"},{"icaoId":"KCYS","receiptTime":"2026-04-17T13:56:23.725Z","obsTime":1776433980,"reportTime":"2026-04-17T14:00:00.000Z","temp":-2.2,"dewp":-10.6,"wdir":330,"wspd":18,"wgst":25,"visib":"10+","altim":1012.3,"slp":1009.3,"qcField":4,"metarType":"METAR","rawOb":"METAR KCYS 171353Z 33018G25KT 10SM OVC055 M02/M11 A2989 RMK AO2 PK WND 33028/1333 SLP093 T10221106","lat":41.1579,"lon":-104.8081,"elev":1868,"name":"Cheyenne Rgnl, WY, US","cover":"OVC","clouds":[{"cover":"OVC","base":5500}],"fltCat":"VFR"},{"icaoId":"KMLS","receiptTime":"2026-04-17T13:56:27.820Z","obsTime":1776433980,"reportTime":"2026-04-17T14:00:00.000Z","temp":-4.4,"dewp":-11.1,"wdir":320,"wspd":12,"visib":"10+","altim":1017,"slp":1019.3,"qcField":6,"precip":0.005,"metarType":"METAR","rawOb":"METAR KMLS 171353Z AUTO 32012KT 10SM CLR M04/M11 A3003 RMK AO2 SNE45 SLP193 P0000 T10441111","lat":46.4265,"lon":-105.8834,"elev":800,"name":"Miles City/Wiley Fld, MT, US","cover":"CLR","clouds":[],"fltCat":"VFR"},{"icaoId":"KDLN","receiptTime":"2026-04-17T13:56:15.390Z","obsTime":1776433980,"reportTime":"2026-04-17T14:00:00.000Z","temp":-3.3,"dewp":-7.8,"wdir":200,"wspd":8,"visib":"10+","altim":1018.4,"slp":1021.5,"qcField":6,"metarType":"METAR","rawOb":"METAR KDLN 171353Z AUTO 20008KT 10SM FEW060 M03/M08 A3007 RMK AO2 SLP215 T10331078","lat":45.2584,"lon":-112.5546,"elev":1586,"name":"Dillon Arpt, MT, US","cover":"FEW","clouds":[{"cover":"FEW","base":6000}],"fltCat":"VFR"},{"icaoId":"PANC","receiptTime":"2026-04-17T13:56:28.383Z","obsTime":1776433980,"reportTime":"2026-04-17T14:00:00.000Z","temp":0,"dewp":0,"wdir":0,"wspd":0,"visib":"10+","altim":1008.5,"slp":1008.6,"qcField":4,"precip":0.005,"metarType":"METAR","rawOb":"METAR PANC 171353Z 00000KT 10SM OVC050 00/00 A2978 RMK AO2 RAE27 SLP086 P0000 T00000000","lat":61.1691,"lon":-150.0277,"elev":39,"name":"Anchorage Intl, AK, US","cover":"OVC","clouds":[{"cover":"OVC","base":5000}],"fltCat":"VFR"},{"icaoId":"KRIW","receiptTime":"2026-04-17T13:56:24.965Z","obsTime":1776433980,"reportTime":"2026-04-17T14:00:00.000Z","temp":-2.2,"dewp":-7.8,"wdir":270,"wspd":12,"visib":"10+","altim":1016.3,"slp":1018,"qcField":6,"metarType":"METAR","rawOb":"METAR KRIW 171353Z AUTO 27012KT 10SM SCT085 M02/M08 A3001 RMK AO2 SLP180 T10221078","lat":43.0622,"lon":-108.4471,"elev":1662,"name":"Riverton Rgnl, WY, US","cover":"SCT","clouds":[{"cover":"SCT","base":8500}],"fltCat":"VFR"},{"icaoId":"KSNA","receiptTime":"2026-04-17T13:56:20.782Z","obsTime":1776433980,"reportTime":"2026-04-17T14:00:00.000Z","temp":14.4,"dewp":10,"wdir":80,"wspd":5,"visib":"10+","altim":1014.6,"slp":1014.4,"qcField":4,"metarType":"METAR","rawOb":"METAR KSNA 171353Z 08005KT 10SM FEW015 14/10 A2996 RMK AO2 SLP144 T01440100","lat":33.6798,"lon":-117.8675,"elev":14,"name":"Santa Ana/Wayne Arpt, CA, US","cover":"FEW","clouds":[{"cover":"FEW","base":1500}],"fltCat":"VFR"},{"icaoId":"KAMA","receiptTime":"2026-04-17T13:56:20.634Z","obsTime":1776433980,"reportTime":"2026-04-17T14:00:00.000Z","temp":19.4,"dewp":15,"wdir":230,"wspd":17,"wgst":22,"visib":9,"altim":1009.6,"slp":1004.7,"qcField":4,"metarType":"METAR","rawOb":"METAR KAMA 171353Z 23017G22KT 9SM CLR 19/15 A2981 RMK AO2 SLP047 T01940150","lat":35.2203,"lon":-101.7173,"elev":1102,"name":"Amarillo Intl Arpt, TX, US","cover":"CLR","clouds":[],"fltCat":"VFR"},{"icaoId":"KASE","receiptTime":"2026-04-17T13:56:21.614Z","obsTime":1776433980,"reportTime":"2026-04-17T14:00:00.000Z","temp":-5.6,"dewp":-6.7,"wdir":350,"wspd":7,"visib":1,"altim":1013,"slp":1007.7,"qcField":4,"wxString":"-SN BR","precip":0.005,"vertVis":12,"metarType":"METAR","rawOb":"METAR KASE 171353Z 35007KT 1SM -SN BR VV012 M06/M07 A2991 RMK AO2 SLP077 P0000 T10561067","lat":39.2299,"lon":-106.8705,"elev":2384,"name":"Aspen/Pitkin Cnty, CO, US","cover":"OVX","clouds":[{"cover":"OVX","base":1200}],"fltCat":"IFR"},{"icaoId":"KAUS","receiptTime":"2026-04-17T13:56:26.453Z","obsTime":1776433980,"reportTime":"2026-04-17T14:00:00.000Z","temp":23.3,"dewp":20,"wdir":160,"wspd":17,"wgst":23,"visib":7,"altim":1012.6,"slp":1011.6,"qcField":4,"metarType":"METAR","rawOb":"METAR KAUS 171353Z 16017G23KT 7SM BKN012 OVC016 23/20 A2990 RMK AO2 SLP116 T02330200","lat":30.1831,"lon":-97.6806,"elev":148,"name":"Austin/Bergstrom Intl, TX, US","cover":"OVC","clouds":[{"cover":"BKN","base":1200},{"cover":"OVC","base":1600}],"fltCat":"MVFR"},{"icaoId":"KBLI","receiptTime":"2026-04-17T13:56:15.194Z","obsTime":1776433980,"reportTime":"2026-04-17T14:00:00.000Z","temp":5,"dewp":3.3,"wdir":0,"wspd":0,"visib":"10+","altim":1026.5,"slp":1027.1,"qcField":4,"metarType":"METAR","rawOb":"METAR KBLI 171353Z 00000KT 10SM OVC050 05/03 A3031 RMK AO2 SLP271 T00500033","lat":48.7991,"lon":-122.5407,"elev":46,"name":"Bellingham Intl, WA, US","cover":"OVC","clouds":[{"cover":"OVC","base":5000}],"fltCat":"VFR"},{"icaoId":"KPBI","receiptTime":"2026-04-17T13:56:21.435Z","obsTime":1776433980,"reportTime":"2026-04-17T14:00:00.000Z","temp":23.3,"dewp":22.2,"wdir":80,"wspd":7,"visib":4,"altim":1018.7,"slp":1018.5,"qcField":12,"wxString":"BR","precip":0.21,"metarType":"METAR","rawOb":"METAR KPBI 171353Z 08007KT 4SM BR SCT010 BKN014 OVC023 23/22 A3008 RMK AO2 RAE43 SLP185 P0021 T02330222 $","lat":26.6851,"lon":-80.0992,"elev":4,"name":"Palm Beach Intl, FL, US","cover":"OVC","clouds":[{"cover":"SCT","base":1000},{"cover":"BKN","base":1400},{"cover":"OVC","base":2300}],"fltCat":"MVFR"},{"icaoId":"KPUB","receiptTime":"2026-04-17T13:56:15.578Z","obsTime":1776433980,"reportTime":"2026-04-17T14:00:00.000Z","temp":6.1,"dewp":-2.8,"wdir":50,"wspd":10,"visib":"10+","altim":1010.9,"slp":1007,"qcField":12,"metarType":"METAR","rawOb":"METAR KPUB 171353Z 05010KT 10SM CLR 06/M03 A2985 RMK AO2 SLP070 T00611028 $","lat":38.2887,"lon":-104.5057,"elev":1441,"name":"Pueblo Mem Arpt, CO, US","cover":"CLR","clouds":[],"fltCat":"VFR"},{"icaoId":"KSWO","receiptTime":"2026-04-17T13:56:14.040Z","obsTime":1776433980,"reportTime":"2026-04-17T14:00:00.000Z","temp":22.8,"dewp":18.3,"wdir":190,"wspd":16,"wgst":24,"visib":"10+","altim":1008.9,"slp":1007.4,"qcField":4,"metarType":"METAR","rawOb":"METAR KSWO 171353Z 19016G24KT 10SM CLR 23/18 A2979 RMK AO2 SLP074 T02280183","lat":36.1624,"lon":-97.0832,"elev":293,"name":"Stillwater Muni, OK, US","cover":"CLR","clouds":[],"fltCat":"VFR"},{"icaoId":"KVEL","receiptTime":"2026-04-17T13:56:14.400Z","obsTime":1776433980,"reportTime":"2026-04-17T14:00:00.000Z","temp":-3.3,"dewp":-6.1,"wdir":200,"wspd":4,"visib":"10+","altim":1018.7,"slp":1019.6,"qcField":6,"metarType":"METAR","rawOb":"METAR KVEL 171353Z AUTO 20004KT 10SM OVC100 M03/M06 A3008 RMK AO2 SLP196 T10331061","lat":40.4429,"lon":-109.5128,"elev":1604,"name":"Vernal Rgnl, UT, US","cover":"OVC","clouds":[{"cover":"OVC","base":10000}],"fltCat":"VFR"},{"icaoId":"KSAF","receiptTime":"2026-04-17T13:56:15.769Z","obsTime":1776433980,"reportTime":"2026-04-17T14:00:00.000Z","temp":8.3,"dewp":-11.7,"wdir":120,"wspd":3,"visib":"10+","altim":1014.3,"slp":1007.7,"qcField":4,"metarType":"METAR","rawOb":"METAR KSAF 171353Z 12003KT 10SM CLR 08/M12 A2995 RMK AO2 SLP077 T00831117","lat":35.611,"lon":-106.0957,"elev":1918,"name":"Santa Fe Cnty Muni, NM, US","cover":"CLR","clouds":[],"fltCat":"VFR"},{"icaoId":"KSDL","receiptTime":"2026-04-17T13:56:20.716Z","obsTime":1776433980,"reportTime":"2026-04-17T14:00:00.000Z","temp":17.8,"dewp":-1.1,"wdir":0,"wspd":0,"visib":"10+","altim":1012.3,"slp":1010.1,"qcField":4,"metarType":"METAR","rawOb":"METAR KSDL 171353Z 00000KT 10SM CLR 18/M01 A2989 RMK AO2 SLP101 T01781011","lat":33.6123,"lon":-111.9232,"elev":438,"name":"Scottsdale Muni, AZ, US","cover":"CLR","clouds":[],"fltCat":"VFR"},{"icaoId":"KDTW","receiptTime":"2026-04-17T13:56:16.152Z","obsTime":1776433980,"reportTime":"2026-04-17T14:00:00.000Z","temp":12.2,"dewp":12.2,"wdir":90,"wspd":4,"visib":0.25,"altim":1016.7,"slp":1016.6,"qcField":4,"wxString":"FG","vertVis":2,"metarType":"METAR","rawOb":"METAR KDTW 171353Z 09004KT 1/4SM R03R/1800V2600FT FG VV002 12/12 A3002 RMK AO2 SLP166 T01220122","lat":42.2311,"lon":-83.3312,"elev":192,"name":"Detroit/Metro Wayne Cnty, MI, US","cover":"OVX","clouds":[{"cover":"OVX","base":200}],"fltCat":"LIFR"},{"icaoId":"KGSP","receiptTime":"2026-04-17T13:56:27.000Z","obsTime":1776433980,"reportTime":"2026-04-17T14:00:00.000Z","temp":23.3,"dewp":13.3,"wdir":30,"wspd":5,"visib":"10+","altim":1018.4,"slp":1017.1,"qcField":4,"metarType":"METAR","rawOb":"METAR KGSP 171353Z 03005KT 10SM CLR 23/13 A3007 RMK AO2 SLP171 T02330133","lat":34.8842,"lon":-82.2209,"elev":285,"name":"Greenville-Spartanburg Intl, SC, US","cover":"CLR","clouds":[],"fltCat":"VFR"},{"icaoId":"KHIO","receiptTime":"2026-04-17T13:56:16.531Z","obsTime":1776433980,"reportTime":"2026-04-17T14:00:00.000Z","temp":1.7,"dewp":1.1,"wdir":300,"wspd":3,"visib":"10+","altim":1026.8,"slp":1027,"qcField":4,"metarType":"METAR","rawOb":"METAR KHIO 171353Z 30003KT 10SM BKN034 02/01 A3032 RMK AO2 SLP270 T00170011","lat":45.5476,"lon":-122.9557,"elev":62,"name":"Portland/Hillsboro Arpt, OR, US","cover":"BKN","clouds":[{"cover":"BKN","base":3400}],"fltCat":"VFR"},{"icaoId":"KPAE","receiptTime":"2026-04-17T13:56:16.571Z","obsTime":1776433980,"reportTime":"2026-04-17T14:00:00.000Z","temp":4.4,"dewp":2.8,"wdir":180,"wspd":4,"visib":"10+","altim":1026.8,"slp":1027,"qcField":4,"metarType":"METAR","rawOb":"METAR KPAE 171353Z 18004KT 10SM CLR 04/03 A3032 RMK AO2 SLP270 T00440028","lat":47.9232,"lon":-122.2831,"elev":166,"name":"Everett/Paine Fld, WA, US","cover":"CLR","clouds":[],"fltCat":"VFR"},{"icaoId":"KLBB","receiptTime":"2026-04-17T13:56:28.045Z","obsTime":1776433980,"reportTime":"2026-04-17T14:00:00.000Z","temp":20,"dewp":16.1,"wdir":220,"wspd":14,"visib":8,"altim":1010.2,"slp":1005.5,"qcField":4,"metarType":"METAR","rawOb":"METAR KLBB 171353Z 22014KT 8SM FEW015 BKN250 20/16 A2983 RMK AO2 SLP055 T02000161","lat":33.6658,"lon":-101.8233,"elev":996,"name":"Lubbock Intl Arpt, TX, US","cover":"BKN","clouds":[{"cover":"FEW","base":1500},{"cover":"BKN","base":25000}],"fltCat":"VFR"},{"icaoId":"KFUL","receiptTime":"2026-04-17T13:56:19.872Z","obsTime":1776433980,"reportTime":"2026-04-17T14:00:00.000Z","temp":14.4,"dewp":11.1,"wdir":80,"wspd":4,"visib":"10+","altim":1014.3,"slp":1014.2,"qcField":4,"metarType":"METAR","rawOb":"METAR KFUL 171353Z 08004KT 10SM BKN028 14/11 A2995 RMK AO2 SLP142 T01440111","lat":33.8715,"lon":-117.9856,"elev":23,"name":"Fullerton Muni, CA, US","cover":"BKN","clouds":[{"cover":"BKN","base":2800}],"fltCat":"MVFR"},{"icaoId":"KABI","receiptTime":"2026-04-17T13:54:06.182Z","obsTime":1776433920,"reportTime":"2026-04-17T14:00:00.000Z","temp":21.7,"dewp":17.2,"wdir":180,"wspd":18,"wgst":23,"visib":"10+","altim":1010.2,"slp":1007.6,"qcField":4,"metarType":"METAR","rawOb":"METAR KABI 171352Z 18018G23KT 10SM CLR 22/17 A2983 RMK AO2 SLP076 T02170172","lat":32.4106,"lon":-99.6821,"elev":543,"name":"Abilene Rgnl, TX, US","cover":"CLR","clouds":[],"fltCat":"VFR"},{"icaoId":"KIAD","receiptTime":"2026-04-17T13:54:06.590Z","obsTime":1776433920,"reportTime":"2026-04-17T14:00:00.000Z","temp":23.3,"dewp":11.7,"wdir":320,"wspd":11,"wgst":17,"visib":"10+","altim":1014,"slp":1013.5,"qcField":4,"metarType":"METAR","rawOb":"METAR KIAD 171352Z 32011G17KT 10SM FEW050 SCT250 23/12 A2994 RMK AO2 SLP135 T02330117","lat":38.9348,"lon":-77.4473,"elev":90,"name":"Washington/Dulles Intl, VA, US","cover":"SCT","clouds":[{"cover":"FEW","base":5000},{"cover":"SCT","base":25000}],"fltCat":"VFR"},{"icaoId":"KMKE","receiptTime":"2026-04-17T13:54:06.720Z","obsTime":1776433920,"reportTime":"2026-04-17T14:00:00.000Z","temp":7.8,"dewp":7.8,"wdir":140,"wspd":7,"visib":0.5,"altim":1013,"slp":1013.3,"qcField":4,"wxString":"BR","metarType":"METAR","rawOb":"METAR KMKE 171352Z 14007KT 1/2SM R01L/6000VP6000FT BR BKN002 08/08 A2991 RMK AO2 SFC VIS 2 SLP133 T00780078","lat":42.9549,"lon":-87.9045,"elev":203,"name":"Milwaukee/Mitchell Intl, WI, US","cover":"BKN","clouds":[{"cover":"BKN","base":200}],"fltCat":"LIFR"},{"icaoId":"KDCA","receiptTime":"2026-04-17T13:54:06.450Z","obsTime":1776433920,"reportTime":"2026-04-17T14:00:00.000Z","temp":23.9,"dewp":12.8,"wdir":300,"wspd":8,"visib":"10+","altim":1013.3,"slp":1013.2,"qcField":4,"metarType":"METAR","rawOb":"METAR KDCA 171352Z 30008KT 10SM FEW040 BKN200 24/13 A2992 RMK AO2 SLP132 T02390128","lat":38.8472,"lon":-77.0345,"elev":4,"name":"Washington/Reagan-National Arpt, VA, US","cover":"BKN","clouds":[{"cover":"FEW","base":4000},{"cover":"BKN","base":20000}],"fltCat":"VFR"},{"icaoId":"KABQ","receiptTime":"2026-04-17T13:54:06.194Z","obsTime":1776433920,"reportTime":"2026-04-17T14:00:00.000Z","temp":12.8,"dewp":-12.2,"wdir":260,"wspd":3,"visib":"10+","altim":1014.3,"slp":1007.9,"qcField":4,"metarType":"METAR","rawOb":"METAR KABQ 171352Z 26003KT 10SM SCT140 13/M12 A2995 RMK AO2 SLP079 T01281122","lat":35.0419,"lon":-106.6154,"elev":1620,"name":"Albuquerque Intl, NM, US","cover":"SCT","clouds":[{"cover":"SCT","base":14000}],"fltCat":"VFR"},{"icaoId":"KCLT","receiptTime":"2026-04-17T13:56:24.170Z","obsTime":1776433920,"reportTime":"2026-04-17T14:00:00.000Z","temp":24.4,"dewp":12.2,"wdir":300,"wspd":5,"visib":"10+","altim":1017.7,"slp":1018.1,"qcField":4,"metarType":"METAR","rawOb":"METAR KCLT 171352Z 30005KT 10SM FEW120 FEW180 SCT250 24/12 A3005 RMK AO2 SLP181 T02440122","lat":35.2225,"lon":-80.9543,"elev":223,"name":"Charlotte/Douglas Intl, NC, US","cover":"SCT","clouds":[{"cover":"FEW","base":12000},{"cover":"FEW","base":18000},{"cover":"SCT","base":25000}],"fltCat":"VFR"},{"icaoId":"KHRL","receiptTime":"2026-04-17T13:56:24.227Z","obsTime":1776433920,"reportTime":"2026-04-17T14:00:00.000Z","temp":25,"dewp":22.2,"wdir":160,"wspd":15,"visib":"10+","altim":1011.9,"slp":1011.8,"qcField":4,"metarType":"METAR","rawOb":"METAR KHRL 171352Z 16015KT 10SM BKN019 BKN027 25/22 A2988 RMK AO2 SLP118 T02500222","lat":26.2303,"lon":-97.6556,"elev":9,"name":"Harlingen/Valley Intl, TX, US","cover":"BKN","clouds":[{"cover":"BKN","base":1900},{"cover":"BKN","base":2700}],"fltCat":"MVFR"},{"icaoId":"KSPS","receiptTime":"2026-04-17T13:56:13.418Z","obsTime":1776433920,"reportTime":"2026-04-17T14:00:00.000Z","temp":22.2,"dewp":18.3,"wdir":180,"wspd":16,"visib":"10+","altim":1008.9,"slp":1007.6,"qcField":4,"metarType":"METAR","rawOb":"METAR KSPS 171352Z 18016KT 10SM CLR 22/18 A2979 RMK AO2 SLP076 T02220183","lat":33.9785,"lon":-98.493,"elev":310,"name":"Wichita Falls Rgnl, TX, US","cover":"CLR","clouds":[],"fltCat":"VFR"},{"icaoId":"KCVG","receiptTime":"2026-04-17T13:56:24.182Z","obsTime":1776433920,"reportTime":"2026-04-17T14:00:00.000Z","temp":19.4,"dewp":11.1,"wdir":260,"wspd":5,"visib":"10+","altim":1017.7,"slp":1016.8,"qcField":4,"metarType":"METAR","rawOb":"METAR KCVG 171352Z 26005KT 10SM FEW050 SCT300 19/11 A3005 RMK AO2 SLP168 T01940111","lat":39.0444,"lon":-84.6724,"elev":264,"name":"Cincinnati Intl, KY, US","cover":"SCT","clouds":[{"cover":"FEW","base":5000},{"cover":"SCT","base":30000}],"fltCat":"VFR"},{"icaoId":"KMLF","receiptTime":"2026-04-17T13:56:13.560Z","obsTime":1776433920,"reportTime":"2026-04-17T14:00:00.000Z","temp":-2.8,"dewp":-12.8,"wdir":10,"wspd":6,"visib":"10+","altim":1022.8,"slp":1023.3,"qcField":6,"metarType":"METAR","rawOb":"METAR KMLF 171352Z AUTO 01006KT 10SM CLR M03/M13 A3020 RMK AO2 SLP233 T10281128","lat":38.4225,"lon":-113.0109,"elev":1537,"name":"Milford Muni, UT, US","cover":"CLR","clouds":[],"fltCat":"VFR"},{"icaoId":"KOKC","receiptTime":"2026-04-17T13:54:07.474Z","obsTime":1776433920,"reportTime":"2026-04-17T14:00:00.000Z","temp":21.1,"dewp":18.3,"wdir":180,"wspd":15,"visib":"10+","altim":1009.6,"slp":1008.3,"qcField":4,"metarType":"METAR","rawOb":"METAR KOKC 171352Z 18015KT 10SM SCT017 BKN023 BKN250 21/18 A2981 RMK AO2 SLP083 T02110183","lat":35.3843,"lon":-97.6003,"elev":391,"name":"Oklahoma City/Will Rogers Intl, OK, US","cover":"BKN","clouds":[{"cover":"SCT","base":1700},{"cover":"BKN","base":2300},{"cover":"BKN","base":25000}],"fltCat":"MVFR"},{"icaoId":"KATL","receiptTime":"2026-04-17T13:56:24.086Z","obsTime":1776433920,"reportTime":"2026-04-17T14:00:00.000Z","temp":23.3,"dewp":12.2,"wdir":330,"wspd":7,"visib":"10+","altim":1019,"slp":1018.2,"qcField":12,"metarType":"METAR","rawOb":"METAR KATL 171352Z 33007KT 10SM FEW250 23/12 A3009 RMK AO2 SLP182 T02330122 $","lat":33.6297,"lon":-84.4422,"elev":309,"name":"Atlanta/Hartsfield-Jackson Intl, GA, US","cover":"FEW","clouds":[{"cover":"FEW","base":25000}],"fltCat":"VFR"},{"icaoId":"KCLE","receiptTime":"2026-04-17T13:54:08.729Z","obsTime":1776433860,"reportTime":"2026-04-17T14:00:00.000Z","temp":16.1,"dewp":8.3,"wdir":70,"wspd":5,"visib":"10+","altim":1016.3,"slp":1017.6,"qcField":12,"metarType":"METAR","rawOb":"METAR KCLE 171351Z 07005KT 10SM CLR 16/08 A3001 RMK AO2 SLP176 T01610083 $","lat":41.4057,"lon":-81.8519,"elev":237,"name":"Cleveland/Hopkins Intl, OH, US","cover":"CLR","clouds":[],"fltCat":"VFR"},{"icaoId":"KCMH","receiptTime":"2026-04-17T13:54:08.761Z","obsTime":1776433860,"reportTime":"2026-04-17T14:00:00.000Z","temp":17.8,"dewp":13.3,"wdir":0,"wspd":0,"visib":"10+","altim":1016.7,"slp":1016.3,"qcField":4,"metarType":"METAR","rawOb":"METAR KCMH 171351Z 00000KT 10SM CLR 18/13 A3002 RMK AO2 SLP163 T01780133","lat":39.9907,"lon":-82.877,"elev":257,"name":"Columbus/Glenn Intl, OH, US","cover":"CLR","clouds":[],"fltCat":"VFR"},{"icaoId":"KELP","receiptTime":"2026-04-17T13:54:08.885Z","obsTime":1776433860,"reportTime":"2026-04-17T14:00:00.000Z","temp":19.4,"dewp":-3.3,"wdir":230,"wspd":6,"visib":"10+","altim":1013.3,"slp":1006.6,"qcField":12,"metarType":"METAR","rawOb":"METAR KELP 171351Z 23006KT 10SM FEW140 FEW250 19/M03 A2992 RMK AO2 SLP066 ACSL NE T01941033 $","lat":31.8123,"lon":-106.3774,"elev":1205,"name":"El Paso Intl, TX, US","cover":"FEW","clouds":[{"cover":"FEW","base":14000},{"cover":"FEW","base":25000}],"fltCat":"VFR"},{"icaoId":"KEWR","receiptTime":"2026-04-17T13:54:08.932Z","obsTime":1776433860,"reportTime":"2026-04-17T14:00:00.000Z","temp":23.9,"dewp":13.9,"wdir":300,"wspd":8,"visib":"10+","altim":1010.9,"slp":1010.7,"qcField":4,"metarType":"METAR","rawOb":"METAR KEWR 171351Z 30008KT 280V340 10SM BKN050 BKN110 BKN250 24/14 A2985 RMK AO2 SLP107 T02390139","lat":40.6828,"lon":-74.1692,"elev":2,"name":"Newark Intl, NJ, US","cover":"BKN","clouds":[{"cover":"BKN","base":5000},{"cover":"BKN","base":11000},{"cover":"BKN","base":25000}],"fltCat":"VFR"},{"icaoId":"KLGU","receiptTime":"2026-04-17T13:54:06.793Z","obsTime":1776433860,"reportTime":"2026-04-17T14:00:00.000Z","temp":-5,"dewp":-6.1,"wdir":0,"wspd":0,"visib":"10+","altim":1023.1,"slp":1025.2,"qcField":6,"metarType":"METAR","rawOb":"METAR KLGU 171351Z AUTO 00000KT 10SM CLR M05/M06 A3021 RMK AO2 SLP252 I1001 T10501061","lat":41.7865,"lon":-111.8519,"elev":1359,"name":"Logan/Cache Arpt, UT, US","cover":"CLR","clouds":[],"fltCat":"VFR"},{"icaoId":"KORF","receiptTime":"2026-04-17T13:54:06.867Z","obsTime":1776433860,"reportTime":"2026-04-17T14:00:00.000Z","temp":25.6,"dewp":14.4,"wdir":360,"wspd":5,"visib":"10+","altim":1014,"slp":1013.7,"qcField":4,"metarType":"METAR","rawOb":"METAR KORF 171351Z 36005KT 10SM CLR 26/14 A2994 RMK AO2 SLP137 T02560144","lat":36.9037,"lon":-76.1927,"elev":5,"name":"Norfolk Intl, VA, US","cover":"CLR","clouds":[],"fltCat":"VFR"},{"icaoId":"KPIT","receiptTime":"2026-04-17T13:54:06.927Z","obsTime":1776433860,"reportTime":"2026-04-17T14:00:00.000Z","temp":15,"dewp":12.2,"wdir":330,"wspd":5,"visib":"10+","altim":1017,"slp":1017.2,"qcField":4,"metarType":"METAR","rawOb":"METAR KPIT 171351Z 33005KT 10SM BKN008 OVC013 15/12 A3003 RMK AO2 SLP172 T01500122","lat":40.4814,"lon":-80.2083,"elev":339,"name":"Pittsburgh Intl, PA, US","cover":"OVC","clouds":[{"cover":"BKN","base":800},{"cover":"OVC","base":1300}],"fltCat":"IFR"},{"icaoId":"KPVD","receiptTime":"2026-04-17T13:54:06.959Z","obsTime":1776433860,"reportTime":"2026-04-17T14:00:00.000Z","temp":18.3,"dewp":14.4,"wdir":"VRB","wspd":3,"visib":9,"altim":1010.2,"slp":1010.2,"qcField":12,"metarType":"METAR","rawOb":"METAR KPVD 171351Z VRB03KT 9SM BKN036 BKN085 BKN150 BKN180 18/14 A2983 RMK AO2 SLP102 T01830144 $","lat":41.7225,"lon":-71.4325,"elev":15,"name":"Providence/Green Mem, RI, US","cover":"BKN","clouds":[{"cover":"BKN","base":3600},{"cover":"BKN","base":8500},{"cover":"BKN","base":15000},{"cover":"BKN","base":18000}],"fltCat":"VFR"},{"icaoId":"KSAD","receiptTime":"2026-04-17T13:54:07.064Z","obsTime":1776433860,"reportTime":"2026-04-17T14:00:00.000Z","temp":15,"dewp":-12.2,"wdir":120,"wspd":5,"visib":"10+","altim":1013,"slp":1008.9,"qcField":6,"metarType":"METAR","rawOb":"METAR KSAD 171351Z AUTO 12005KT 10SM CLR 15/M12 A2991 RMK AO2 SLP089 T01501122","lat":32.8565,"lon":-109.636,"elev":937,"name":"Safford Rgnl, AZ, US","cover":"CLR","clouds":[],"fltCat":"VFR"},{"icaoId":"KSAT","receiptTime":"2026-04-17T13:54:07.112Z","obsTime":1776433860,"reportTime":"2026-04-17T14:00:00.000Z","temp":22.2,"dewp":19.4,"wdir":150,"wspd":10,"visib":"10+","altim":1012.6,"slp":1010.8,"qcField":4,"metarType":"METAR","rawOb":"METAR KSAT 171351Z 15010KT 10SM BKN010 BKN250 22/19 A2990 RMK AO2 SLP108 T02220194","lat":29.5443,"lon":-98.4839,"elev":246,"name":"San Antonio Intl, TX, US","cover":"BKN","clouds":[{"cover":"BKN","base":1000},{"cover":"BKN","base":25000}],"fltCat":"MVFR"},{"icaoId":"KSTL","receiptTime":"2026-04-17T13:54:07.228Z","obsTime":1776433860,"reportTime":"2026-04-17T14:00:00.000Z","temp":21.1,"dewp":16.1,"wdir":190,"wspd":10,"wgst":18,"visib":"10+","altim":1013,"slp":1011.9,"qcField":12,"metarType":"METAR","rawOb":"METAR KSTL 171351Z 19010G18KT 10SM FEW045 SCT250 21/16 A2991 RMK AO2 SLP119 T02110161 $","lat":38.7525,"lon":-90.3734,"elev":163,"name":"St Louis/Lambert Intl, MO, US","cover":"SCT","clouds":[{"cover":"FEW","base":4500},{"cover":"SCT","base":25000}],"fltCat":"VFR"},{"icaoId":"KVNY","receiptTime":"2026-04-17T13:54:07.316Z","obsTime":1776433860,"reportTime":"2026-04-17T14:00:00.000Z","temp":11.7,"dewp":9.4,"wdir":0,"wspd":0,"visib":"10+","altim":1014.3,"slp":1013.6,"qcField":12,"metarType":"METAR","rawOb":"METAR KVNY 171351Z 00000KT 10SM CLR 12/09 A2995 RMK AO2 SLP136 T01170094 $","lat":34.2121,"lon":-118.4915,"elev":241,"name":"Van Nuys Arpt, CA, US","cover":"CLR","clouds":[],"fltCat":"VFR"},{"icaoId":"KJFK","receiptTime":"2026-04-17T13:54:06.755Z","obsTime":1776433860,"reportTime":"2026-04-17T14:00:00.000Z","temp":23.3,"dewp":14.4,"wdir":"VRB","wspd":4,"visib":"10+","altim":1010.9,"slp":1010.8,"qcField":4,"metarType":"METAR","rawOb":"METAR KJFK 171351Z VRB04KT 10SM FEW032 SCT046 BKN110 BKN250 23/14 A2985 RMK AO2 SLP108 T02330144","lat":40.6392,"lon":-73.7639,"elev":3,"name":"New York/JF Kennedy Intl, NY, US","cover":"BKN","clouds":[{"cover":"FEW","base":3200},{"cover":"SCT","base":4600},{"cover":"BKN","base":11000},{"cover":"BKN","base":25000}],"fltCat":"VFR"},{"icaoId":"KLGA","receiptTime":"2026-04-17T13:54:06.770Z","obsTime":1776433860,"reportTime":"2026-04-17T14:00:00.000Z","temp":22.8,"dewp":15,"wdir":0,"wspd":0,"visib":"10+","altim":1010.6,"slp":1010.5,"qcField":4,"metarType":"METAR","rawOb":"METAR KLGA 171351Z 00000KT 10SM SCT044 SCT110 BKN250 23/15 A2984 RMK AO2 SLP105 T02280150","lat":40.7794,"lon":-73.8803,"elev":9,"name":"New York/La Guardia Arpt, NY, US","cover":"BKN","clouds":[{"cover":"SCT","base":4400},{"cover":"SCT","base":11000},{"cover":"BKN","base":25000}],"fltCat":"VFR"},{"icaoId":"KMYL","receiptTime":"2026-04-17T13:54:06.819Z","obsTime":1776433860,"reportTime":"2026-04-17T14:00:00.000Z","temp":-4.4,"dewp":-6.1,"wdir":0,"wspd":0,"visib":"10+","altim":1022.1,"slp":1025.4,"qcField":6,"metarType":"METAR","rawOb":"METAR KMYL 171351Z AUTO 00000KT 10SM BKN060 M04/M06 A3018 RMK AO2 SLP254 T10441061","lat":44.8943,"lon":-116.0998,"elev":1532,"name":"McCall Muni, ID, US","cover":"BKN","clouds":[{"cover":"BKN","base":6000}],"fltCat":"VFR"},{"icaoId":"KORD","receiptTime":"2026-04-17T13:54:06.846Z","obsTime":1776433860,"reportTime":"2026-04-17T14:00:00.000Z","temp":16.7,"dewp":12.2,"wdir":150,"wspd":9,"visib":7,"altim":1013,"slp":1012.7,"qcField":12,"metarType":"METAR","rawOb":"METAR KORD 171351Z 15009KT 7SM BKN250 17/12 A2991 RMK AO2 SLP127 T01670122 $","lat":41.9602,"lon":-87.9316,"elev":202,"name":"Chicago/O'Hare Intl, IL, US","cover":"BKN","clouds":[{"cover":"BKN","base":25000}],"fltCat":"VFR"},{"icaoId":"KOXR","receiptTime":"2026-04-17T13:54:06.883Z","obsTime":1776433860,"reportTime":"2026-04-17T14:00:00.000Z","temp":11.7,"dewp":7.2,"wdir":20,"wspd":6,"visib":"10+","altim":1014.3,"slp":1014.1,"qcField":14,"metarType":"METAR","rawOb":"METAR KOXR 171351Z AUTO 02006KT 10SM CLR 12/07 A2995 RMK AO2 SLP141 T01170072 $","lat":34.2001,"lon":-119.2042,"elev":12,"name":"Oxnard Arpt, CA, US","cover":"CLR","clouds":[],"fltCat":"VFR"},{"icaoId":"KPHX","receiptTime":"2026-04-17T13:54:06.900Z","obsTime":1776433860,"reportTime":"2026-04-17T14:00:00.000Z","temp":17.2,"dewp":0,"wdir":80,"wspd":5,"visib":"10+","altim":1011.3,"slp":1009.6,"qcField":12,"metarType":"METAR","rawOb":"METAR KPHX 171351Z 08005KT 10SM FEW120 17/00 A2986 RMK AO2 SLP096 T01720000 $","lat":33.4278,"lon":-112.0037,"elev":338,"name":"Phoenix/Sky Harbor Intl, AZ, US","cover":"FEW","clouds":[{"cover":"FEW","base":12000}],"fltCat":"VFR"},{"icaoId":"KRDU","receiptTime":"2026-04-17T13:54:07.027Z","obsTime":1776433860,"reportTime":"2026-04-17T14:00:00.000Z","temp":23.9,"dewp":12.2,"wdir":310,"wspd":6,"visib":"10+","altim":1016.3,"slp":1015.7,"qcField":4,"metarType":"METAR","rawOb":"METAR KRDU 171351Z 31006KT 10SM FEW090 SCT110 SCT250 24/12 A3001 RMK AO2 SLP157 T02390122","lat":35.8923,"lon":-78.782,"elev":121,"name":"Raleigh-Durham Intl, NC, US","cover":"SCT","clouds":[{"cover":"FEW","base":9000},{"cover":"SCT","base":11000},{"cover":"SCT","base":25000}],"fltCat":"VFR"},{"icaoId":"KROW","receiptTime":"2026-04-17T13:54:07.046Z","obsTime":1776433860,"reportTime":"2026-04-17T14:00:00.000Z","temp":17.8,"dewp":-7.8,"wdir":180,"wspd":9,"visib":"10+","altim":1010.6,"slp":1005,"qcField":12,"metarType":"METAR","rawOb":"METAR KROW 171351Z 18009KT 10SM CLR 18/M08 A2984 RMK AO2 SLP050 T01781078 $","lat":33.3074,"lon":-104.5082,"elev":1105,"name":"Roswell/Ind Arpt, NM, US","cover":"CLR","clouds":[],"fltCat":"VFR"},{"icaoId":"KSAN","receiptTime":"2026-04-17T13:54:07.084Z","obsTime":1776433860,"reportTime":"2026-04-17T14:00:00.000Z","temp":15.6,"dewp":8.9,"wdir":130,"wspd":7,"visib":"10+","altim":1015,"slp":1014.8,"qcField":12,"metarType":"METAR","rawOb":"METAR KSAN 171351Z 13007KT 10SM SCT031 16/09 A2997 RMK AO2 SLP148 T01560089 $","lat":32.7364,"lon":-117.1973,"elev":3,"name":"San Diego Intl Arpt, CA, US","cover":"SCT","clouds":[{"cover":"SCT","base":3100}],"fltCat":"VFR"},{"icaoId":"KACT","receiptTime":"2026-04-17T13:54:08.491Z","obsTime":1776433860,"reportTime":"2026-04-17T14:00:00.000Z","temp":22.8,"dewp":19.4,"wdir":170,"wspd":14,"wgst":21,"visib":"10+","altim":1012.6,"slp":1011.8,"qcField":4,"metarType":"METAR","rawOb":"METAR KACT 171351Z 17014G21KT 10SM BKN032 23/19 A2990 RMK AO2 SLP118 T02280194","lat":31.618,"lon":-97.2283,"elev":150,"name":"Waco Rgnl, TX, US","cover":"BKN","clouds":[{"cover":"BKN","base":3200}],"fltCat":"VFR"},{"icaoId":"KBDL","receiptTime":"2026-04-17T13:54:08.606Z","obsTime":1776433860,"reportTime":"2026-04-17T14:00:00.000Z","temp":20,"dewp":15,"wdir":30,"wspd":5,"visib":"10+","altim":1010.2,"slp":1010,"qcField":4,"metarType":"METAR","rawOb":"METAR KBDL 171351Z 03005KT 10SM SCT038 BKN048 BKN100 20/15 A2983 RMK AO2 SLP100 T02000150","lat":41.9374,"lon":-72.682,"elev":52,"name":"Hartford/Bradley Intl, CT, US","cover":"BKN","clouds":[{"cover":"SCT","base":3800},{"cover":"BKN","base":4800},{"cover":"BKN","base":10000}],"fltCat":"VFR"},{"icaoId":"KCRP","receiptTime":"2026-04-17T13:54:08.811Z","obsTime":1776433860,"reportTime":"2026-04-17T14:00:00.000Z","temp":25,"dewp":21.7,"wdir":150,"wspd":17,"wgst":23,"visib":"10+","altim":1012.6,"slp":1012.2,"qcField":12,"metarType":"METAR","rawOb":"METAR KCRP 171351Z 15017G23KT 10SM SCT015 BKN021 BKN026 BKN250 25/22 A2990 RMK AO2 SLP122 T02500217 $","lat":27.7734,"lon":-97.513,"elev":11,"name":"Corpus Christi Intl, TX, US","cover":"BKN","clouds":[{"cover":"SCT","base":1500},{"cover":"BKN","base":2100},{"cover":"BKN","base":2600},{"cover":"BKN","base":25000}],"fltCat":"MVFR"},{"icaoId":"KIGM","receiptTime":"2026-04-17T13:54:09.041Z","obsTime":1776433860,"reportTime":"2026-04-17T14:00:00.000Z","temp":8.3,"dewp":-11.1,"wdir":350,"wspd":19,"wgst":25,"visib":"10+","altim":1017.7,"slp":1012.8,"qcField":14,"metarType":"METAR","rawOb":"METAR KIGM 171351Z AUTO 35019G25KT 10SM CLR 08/M11 A3005 RMK AO2 PK WND 33029/1327 SLP128 T00831111 $","lat":35.2575,"lon":-113.9341,"elev":1045,"name":"Kingman Arpt, AZ, US","cover":"CLR","clouds":[],"fltCat":"VFR"},{"icaoId":"KAEG","receiptTime":"2026-04-17T13:48:39.425Z","obsTime":1776433800,"reportTime":"2026-04-17T14:00:00.000Z","temp":10,"dewp":-13,"wdir":210,"wspd":4,"visib":"10+","altim":1014.6,"qcField":0,"metarType":"METAR","rawOb":"METAR KAEG 171350Z 21004KT 10SM CLR 10/M13 A2996","lat":35.15,"lon":-106.7929,"elev":1771,"name":"Albuquerque/Double Eagle Arpt, NM, US","cover":"CLR","clouds":[],"fltCat":"VFR"},{"icaoId":"KADM","receiptTime":"2026-04-17T13:58:58.898Z","obsTime":1776433800,"reportTime":"2026-04-17T14:00:00.000Z","temp":21,"dewp":19,"wdir":170,"wspd":9,"wgst":15,"visib":"10+","altim":1011.3,"qcField":0,"metarType":"METAR","rawOb":"METAR KADM 171350Z 17009G15KT 10SM OVC016 21/19 A2986","lat":34.3007,"lon":-97.0089,"elev":223,"name":"Ardmore Muni, OK, US","cover":"OVC","clouds":[{"cover":"OVC","base":1600}],"fltCat":"MVFR"},{"icaoId":"KIWA","receiptTime":"2026-04-17T13:51:50.988Z","obsTime":1776433800,"reportTime":"2026-04-17T14:00:00.000Z","temp":16,"dewp":-3,"wdir":100,"wspd":6,"visib":"10+","altim":1012.6,"qcField":0,"metarType":"METAR","rawOb":"METAR KIWA 171350Z 10006KT 10SM CLR 16/M03 A2990","lat":33.3008,"lon":-111.6437,"elev":420,"name":"Phoenix/Mesa Gateway Arpt, AZ, US","cover":"CLR","clouds":[],"fltCat":"VFR"},{"icaoId":"KGEU","receiptTime":"2026-04-17T13:47:30.335Z","obsTime":1776433620,"reportTime":"2026-04-17T14:00:00.000Z","temp":19,"dewp":-2,"wdir":200,"wspd":5,"visib":"10+","altim":1010.6,"qcField":0,"metarType":"METAR","rawOb":"METAR KGEU 171347Z 20005KT 10SM CLR 19/M02 A2984","lat":33.528,"lon":-112.293,"elev":319,"name":"Glendale Muni, AZ, US","cover":"CLR","clouds":[],"fltCat":"VFR"},{"icaoId":"KGYR","receiptTime":"2026-04-17T13:49:09.907Z","obsTime":1776433620,"reportTime":"2026-04-17T14:00:00.000Z","temp":18,"dewp":0,"wdir":300,"wspd":4,"visib":"10+","altim":1011.3,"qcField":0,"metarType":"METAR","rawOb":"METAR KGYR 171347Z 30004KT 10SM SKC 18/00 A2986","lat":33.428,"lon":-112.368,"elev":292,"name":"Phoenix/Goodyear Muni, AZ, US","cover":"SKC","clouds":[],"fltCat":"VFR"},{"icaoId":"KSUN","receiptTime":"2026-04-17T13:59:16.152Z","obsTime":1776433620,"reportTime":"2026-04-17T14:00:00.000Z","temp":-6,"dewp":-12,"wdir":310,"wspd":8,"visib":"10+","altim":1022.4,"qcField":0,"metarType":"METAR","rawOb":"METAR KSUN 171347Z 31008KT 10SM CLR M06/M12 A3019","lat":43.4969,"lon":-114.2923,"elev":1619,"name":"Hailey/Friedman Mem, ID, US","cover":"CLR","clouds":[],"fltCat":"VFR"},{"icaoId":"KCHD","receiptTime":"2026-04-17T13:50:39.302Z","obsTime":1776433620,"reportTime":"2026-04-17T14:00:00.000Z","temp":18,"dewp":0,"wdir":0,"wspd":0,"visib":"10+","altim":1011.9,"qcField":0,"metarType":"METAR","rawOb":"METAR KCHD 171347Z 00000KT 10SM FEW200 18/00 A2988","lat":33.2669,"lon":-111.8086,"elev":378,"name":"Chandler Muni, AZ, US","cover":"FEW","clouds":[{"cover":"FEW","base":20000}],"fltCat":"VFR"},{"icaoId":"KBJC","receiptTime":"2026-04-17T13:49:09.648Z","obsTime":1776433560,"reportTime":"2026-04-17T14:00:00.000Z","temp":3,"dewp":-7,"wdir":120,"wspd":14,"visib":"10+","altim":1012.3,"qcField":0,"metarType":"METAR","rawOb":"METAR KBJC 171346Z 12014KT 10SM BKN040 03/M07 A2989","lat":39.9008,"lon":-105.1042,"elev":1694,"name":"Rocky Mtn Metro, CO, US","cover":"BKN","clouds":[{"cover":"BKN","base":4000}],"fltCat":"VFR"},{"icaoId":"KRYN","receiptTime":"2026-04-17T13:46:20.277Z","obsTime":1776433500,"reportTime":"2026-04-17T14:00:00.000Z","temp":15,"dewp":-5,"wdir":20,"wspd":3,"visib":"10+","altim":1013.3,"qcField":0,"metarType":"METAR","rawOb":"METAR KRYN 171345Z 02003KT 10SM CLR 15/M05 A2992","lat":32.1418,"lon":-111.1767,"elev":731,"name":"Tucson/Ryan Fld, AZ, US","cover":"CLR","clouds":[],"fltCat":"VFR"},{"icaoId":"KLUF","receiptTime":"2026-04-17T13:10:05.291Z","obsTime":1776430500,"reportTime":"2026-04-17T13:00:00.000Z","temp":19,"dewp":-2.6,"wdir":190,"wspd":5,"visib":"10+","altim":1009.9,"slp":1008.7,"qcField":14,"metarType":"METAR","rawOb":"METAR KLUF 171255Z AUTO 19005KT 10SM CLR 19/M03 A2982 RMK AO2 SLP087 T01901026 $","lat":33.538,"lon":-112.38,"elev":333,"name":"Phoenix/Luke AFB, AZ, US","cover":"CLR","clouds":[],"fltCat":"VFR"}]