[{"icaoId":"KMKE","receiptTime":"2026-04-17T09:22:05.613Z","obsTime":1776417540,"reportTime":"2026-04-17T09:19:00.000Z","temp":6.7,"dewp":6.7,"wdir":120,"wspd":4,"visib":0.25,"altim":1013,"qcField":12,"wxString":"BR","metarType":"SPECI","rawOb":"SPECI KMKE 170919Z 12004KT 1/4SM R01L/1800V2600FT BR OVC002 07/07 A2991 RMK AO2 SFC VIS 2 T00670067 $","lat":42.9549,"lon":-87.9045,"elev":203,"name":"Milwaukee/Mitchell Intl, WI, US","cover":"OVC","clouds":[{"cover":"OVC","base":200}],"fltCat":"LIFR"},{"icaoId":"KCDC","receiptTime":"2026-04-17T09:22:02.867Z","obsTime":1776417480,"reportTime":"2026-04-17T09:18:00.000Z","temp":-3.9,"dewp":-5,"wdir":50,"wspd":13,"visib":1.25,"altim":1019.4,"qcField":6,"wxString":"-SN BR","precip":0.005,"metarType":"SPECI","rawOb":"SPECI KCDC 170918Z AUTO 05013KT 1 1/4SM -SN BR OVC011 M04/M05 A3010 RMK AO2 P0000 T10391050","lat":37.7067,"lon":-113.097,"elev":1703,"name":"Cedar City Muni, UT, US","cover":"OVC","clouds":[{"cover":"OVC","base":1100}],"fltCat":"IFR"},{"icaoId":"KJAC","receiptTime":"2026-04-17T09:20:55.494Z","obsTime":1776417480,"reportTime":"2026-04-17T09:18:00.000Z","temp":-7,"dewp":-8,"wdir":170,"wspd":3,"visib":7,"altim":1015.7,"qcField":70,"wxString":"-SN","precip":0.005,"metarType":"SPECI","rawOb":"SPECI KJAC 170918Z AUTO 17003KT 7SM -SN SCT011 BKN016 OVC033 M07/M08 A2999 RMK AO2 P0000 FZRANO","lat":43.6129,"lon":-110.7366,"elev":1967,"name":"Jackson Hole Arpt, WY, US","cover":"OVC","clouds":[{"cover":"SCT","base":1100},{"cover":"BKN","base":1600},{"cover":"OVC","base":3300}],"fltCat":"MVFR"},{"icaoId":"KORD","receiptTime":"2026-04-17T09:20:55.507Z","obsTime":1776417420,"reportTime":"2026-04-17T09:17:00.000Z","temp":10,"dewp":10,"wdir":170,"wspd":3,"visib":0.13,"altim":1013.3,"qcField":12,"wxString":"FG","vertVis":2,"metarType":"SPECI","rawOb":"SPECI KORD 170917Z 17003KT 1/8SM R10L/1600V3500FT FG VV002 10/10 A2992 RMK AO2 T01000100 $","lat":41.9602,"lon":-87.9316,"elev":202,"name":"Chicago/O'Hare Intl, IL, US","cover":"OVX","clouds":[{"cover":"OVX","base":200}],"fltCat":"LIFR"},{"icaoId":"KMHR","receiptTime":"2026-04-17T09:20:54.235Z","obsTime":1776417300,"reportTime":"2026-04-17T09:15:00.000Z","temp":14,"dewp":-7,"wdir":340,"wspd":14,"visib":"10+","altim":1015.7,"qcField":6,"metarType":"METAR","rawOb":"METAR KMHR 170915Z AUTO 34014KT 10SM CLR 14/M07 A2999 RMK AO2","lat":38.56,"lon":-121.284,"elev":30,"name":"Sacramento/Mather Fld, CA, US","cover":"CLR","clouds":[],"fltCat":"VFR"},{"icaoId":"KHOB","receiptTime":"2026-04-17T09:20:56.499Z","obsTime":1776417300,"reportTime":"2026-04-17T09:15:00.000Z","temp":17,"dewp":16,"wdir":230,"wspd":7,"visib":6,"altim":1010.6,"qcField":6,"wxString":"BR","metarType":"METAR","rawOb":"METAR KHOB 170915Z AUTO 23007KT 6SM BR FEW019 17/16 A2984 RMK AO2","lat":32.6797,"lon":-103.2222,"elev":1112,"name":"Hobbs Arpt, NM, US","cover":"FEW","clouds":[{"cover":"FEW","base":1900}],"fltCat":"VFR"},{"icaoId":"KCHD","receiptTime":"2026-04-17T09:20:54.637Z","obsTime":1776417300,"reportTime":"2026-04-17T09:15:00.000Z","temp":20.2,"dewp":-1.5,"wdir":0,"wspd":0,"visib":"10+","altim":1009.6,"qcField":14,"metarType":"METAR","rawOb":"METAR KCHD 170915Z AUTO 00000KT 10SM FEW170 20/M01 A2981 RMK AO2 T02021015 $","lat":33.2669,"lon":-111.8086,"elev":378,"name":"Chandler Muni, AZ, US","cover":"FEW","clouds":[{"cover":"FEW","base":17000}],"fltCat":"VFR"},{"icaoId":"KMEV","receiptTime":"2026-04-17T09:20:54.219Z","obsTime":1776417300,"reportTime":"2026-04-17T09:15:00.000Z","temp":-3,"dewp":-10,"wdir":0,"wspd":0,"visib":"10+","altim":1023.8,"qcField":6,"metarType":"METAR","rawOb":"METAR KMEV 170915Z AUTO 00000KT 10SM FEW042 SCT050 SCT110 M03/M10 A3023 RMK AO2","lat":38.9963,"lon":-119.75,"elev":1437,"name":"Minden-Tahoe Arpt, NV, US","cover":"SCT","clouds":[{"cover":"FEW","base":4200},{"cover":"SCT","base":5000},{"cover":"SCT","base":11000}],"fltCat":"VFR"},{"icaoId":"KIWA","receiptTime":"2026-04-17T09:20:54.042Z","obsTime":1776417300,"reportTime":"2026-04-17T09:15:00.000Z","temp":17.3,"dewp":-5.2,"wdir":120,"wspd":6,"visib":"10+","altim":1009.9,"qcField":6,"metarType":"METAR","rawOb":"METAR KIWA 170915Z AUTO 12006KT 10SM CLR 17/M05 A2982 RMK AO2 T01731052","lat":33.3008,"lon":-111.6437,"elev":420,"name":"Phoenix/Mesa Gateway Arpt, AZ, US","cover":"CLR","clouds":[],"fltCat":"VFR"},{"icaoId":"KHCR","receiptTime":"2026-04-17T09:20:54.029Z","obsTime":1776417300,"reportTime":"2026-04-17T09:15:00.000Z","temp":-6.8,"dewp":-9,"wdir":120,"wspd":5,"visib":"10+","altim":1017.4,"qcField":14,"metarType":"METAR","rawOb":"METAR KHCR 170915Z AUTO 12005KT 10SM CLR M07/M09 A3004 RMK AO2 T10681090 $","lat":40.4774,"lon":-111.4329,"elev":1708,"name":"Heber City Muni, UT, US","cover":"CLR","clouds":[],"fltCat":"VFR"},{"icaoId":"KRTS","receiptTime":"2026-04-17T09:20:53.576Z","obsTime":1776417300,"reportTime":"2026-04-17T09:15:00.000Z","temp":-3,"dewp":-15,"wdir":60,"wspd":8,"visib":"10+","altim":1023.1,"qcField":6,"metarType":"METAR","rawOb":"METAR KRTS 170915Z AUTO 06008KT 10SM CLR M03/M15 A3021 RMK AO2","lat":39.6658,"lon":-119.8731,"elev":1537,"name":"Reno/Stead Arpt, NV, US","cover":"CLR","clouds":[],"fltCat":"VFR"},{"icaoId":"KBVU","receiptTime":"2026-04-17T09:16:24.270Z","obsTime":1776417300,"reportTime":"2026-04-17T09:15:00.000Z","temp":14,"dewp":-15,"wdir":360,"wspd":20,"wgst":33,"visib":"10+","altim":1013.3,"qcField":6,"metarType":"METAR","rawOb":"METAR KBVU 170915Z AUTO 36020G33KT 10SM CLR 14/M15 A2992 RMK AO2","lat":35.9489,"lon":-114.8633,"elev":654,"name":"Boulder City Muni, NV, US","cover":"CLR","clouds":[],"fltCat":"VFR"},{"icaoId":"KSEZ","receiptTime":"2026-04-17T09:20:54.256Z","obsTime":1776417300,"reportTime":"2026-04-17T09:15:00.000Z","temp":11,"dewp":-9,"wdir":0,"wspd":0,"visib":"10+","altim":1012.6,"qcField":6,"metarType":"METAR","rawOb":"METAR KSEZ 170915Z AUTO 00000KT 10SM CLR 11/M09 A2990 RMK AO2","lat":34.8467,"lon":-111.7884,"elev":1455,"name":"Sedona Arpt, AZ, US","cover":"CLR","clouds":[],"fltCat":"VFR"},{"icaoId":"KHAF","receiptTime":"2026-04-17T09:20:54.012Z","obsTime":1776417300,"reportTime":"2026-04-17T09:15:00.000Z","temp":14,"dewp":-5,"wdir":320,"wspd":3,"visib":"10+","altim":1017,"qcField":6,"metarType":"METAR","rawOb":"METAR KHAF 170915Z AUTO 32003KT 10SM CLR 14/M05 A3003 RMK AO2","lat":37.5136,"lon":-122.4996,"elev":11,"name":"Half Moon Bay Arpt, CA, US","cover":"CLR","clouds":[],"fltCat":"VFR"},{"icaoId":"KBJC","receiptTime":"2026-04-17T09:20:54.376Z","obsTime":1776417300,"reportTime":"2026-04-17T09:15:00.000Z","temp":3,"dewp":-3,"wdir":150,"wspd":8,"visib":"10+","altim":1009.9,"qcField":6,"metarType":"METAR","rawOb":"METAR KBJC 170915Z AUTO 15008KT 10SM CLR 03/M03 A2982 RMK AO2","lat":39.9008,"lon":-105.1042,"elev":1694,"name":"Rocky Mtn Metro, CO, US","cover":"CLR","clouds":[],"fltCat":"VFR"},{"icaoId":"KSUN","receiptTime":"2026-04-17T09:20:54.091Z","obsTime":1776417300,"reportTime":"2026-04-17T09:15:00.000Z","wdir":330,"wspd":3,"visib":"10+","altim":1020.4,"qcField":6,"metarType":"METAR","rawOb":"METAR KSUN 170915Z AUTO 33003KT 10SM CLR A3013 RMK AO2","lat":43.4969,"lon":-114.2923,"elev":1619,"name":"Hailey/Friedman Mem, ID, US","cover":"CLR","clouds":[],"fltCat":"VFR"},{"icaoId":"KIFP","receiptTime":"2026-04-17T09:20:54.186Z","obsTime":1776417300,"reportTime":"2026-04-17T09:15:00.000Z","temp":22,"dewp":-7,"wdir":350,"wspd":30,"wgst":36,"visib":"10+","altim":1008.2,"qcField":6,"metarType":"METAR","rawOb":"METAR KIFP 170915Z AUTO 35030G36KT 10SM CLR 22/M07 A2977 RMK AO2","lat":35.1487,"lon":-114.5611,"elev":210,"name":"Bullhead City Intl, AZ, US","cover":"CLR","clouds":[],"fltCat":"VFR"},{"icaoId":"KAEG","receiptTime":"2026-04-17T09:20:56.689Z","obsTime":1776417300,"reportTime":"2026-04-17T09:15:00.000Z","temp":7.3,"dewp":-14.7,"wdir":240,"wspd":8,"visib":"10+","altim":1012.6,"qcField":6,"metarType":"METAR","rawOb":"METAR KAEG 170915Z AUTO 24008KT 10SM CLR 07/M15 A2990 RMK AO2 T00731147","lat":35.15,"lon":-106.7929,"elev":1771,"name":"Albuquerque/Double Eagle Arpt, NM, US","cover":"CLR","clouds":[],"fltCat":"VFR"},{"icaoId":"KCXP","receiptTime":"2026-04-17T09:20:54.128Z","obsTime":1776417300,"reportTime":"2026-04-17T09:15:00.000Z","temp":-1,"dewp":-12,"wdir":0,"wspd":0,"visib":"10+","altim":1024.5,"qcField":6,"metarType":"METAR","rawOb":"METAR KCXP 170915Z AUTO 00000KT 10SM CLR M01/M12 A3025 RMK AO2","lat":39.1905,"lon":-119.7319,"elev":1431,"name":"Carson City Arpt, NV, US","cover":"CLR","clouds":[],"fltCat":"VFR"},{"icaoId":"KHII","receiptTime":"2026-04-17T09:20:41.190Z","obsTime":1776417300,"reportTime":"2026-04-17T09:15:00.000Z","temp":21,"dewp":0,"wdir":190,"wspd":5,"visib":8,"altim":1008.2,"qcField":6,"metarType":"METAR","rawOb":"METAR KHII 170915Z AUTO 19005KT 8SM CLR 21/00 A2977 RMK AO2","lat":34.5659,"lon":-114.3522,"elev":241,"name":"Lake Havasu City Arpt, AZ, US","cover":"CLR","clouds":[],"fltCat":"VFR"},{"icaoId":"KLRU","receiptTime":"2026-04-17T09:20:56.530Z","obsTime":1776417300,"reportTime":"2026-04-17T09:15:00.000Z","temp":12.5,"dewp":-10.5,"wdir":250,"wspd":6,"visib":"10+","altim":1013.3,"qcField":6,"metarType":"METAR","rawOb":"METAR KLRU 170915Z AUTO 25006KT 10SM CLR 13/M10 A2992 RMK AO2 T01251105","lat":32.2884,"lon":-106.9131,"elev":1355,"name":"Las Cruces Intl, NM, US","cover":"CLR","clouds":[],"fltCat":"VFR"},{"icaoId":"KADM","receiptTime":"2026-04-17T09:20:43.413Z","obsTime":1776417300,"reportTime":"2026-04-17T09:15:00.000Z","temp":19,"dewp":19,"wdir":0,"wspd":0,"visib":"10+","altim":1009.9,"qcField":6,"metarType":"METAR","rawOb":"METAR KADM 170915Z AUTO 00000KT 10SM FEW055 19/19 A2982 RMK AO2","lat":34.3007,"lon":-97.0089,"elev":223,"name":"Ardmore Muni, OK, US","cover":"FEW","clouds":[{"cover":"FEW","base":5500}],"fltCat":"VFR"},{"icaoId":"KHTH","receiptTime":"2026-04-17T09:20:41.933Z","obsTime":1776417300,"reportTime":"2026-04-17T09:15:00.000Z","temp":1,"dewp":-15,"wdir":320,"wspd":4,"visib":"10+","altim":1024.5,"qcField":6,"metarType":"METAR","rawOb":"METAR KHTH 170915Z AUTO 32004KT 10SM CLR 01/M15 A3025 RMK A01","lat":38.5448,"lon":-118.6314,"elev":1281,"name":"Hawthorne Muni, NV, US","cover":"CLR","clouds":[],"fltCat":"VFR"},{"icaoId":"KSOW","receiptTime":"2026-04-17T09:20:41.717Z","obsTime":1776417300,"reportTime":"2026-04-17T09:15:00.000Z","temp":9,"dewp":-10,"wdir":210,"wspd":12,"visib":"10+","altim":1014.6,"qcField":6,"metarType":"METAR","rawOb":"METAR KSOW 170915Z AUTO 21012KT 10SM CLR 09/M10 A2996 RMK AO2","lat":34.2686,"lon":-110.0019,"elev":1954,"name":"Show Low Muni, AZ, US","cover":"CLR","clouds":[],"fltCat":"VFR"},{"icaoId":"KIGM","receiptTime":"2026-04-17T09:18:04.806Z","obsTime":1776417240,"reportTime":"2026-04-17T09:14:00.000Z","temp":13.3,"dewp":-10.6,"wdir":10,"wspd":21,"wgst":30,"visib":"10+","altim":1011.9,"qcField":6,"metarType":"SPECI","rawOb":"SPECI KIGM 170914Z AUTO 01021G30KT 10SM CLR 13/M11 A2988 RMK AO2 PK WND 36030/0913 WSHFT 0858 T01331106","lat":35.2575,"lon":-113.9341,"elev":1045,"name":"Kingman Arpt, AZ, US","cover":"CLR","clouds":[],"fltCat":"VFR"},{"icaoId":"KPWT","receiptTime":"2026-04-17T09:16:04.489Z","obsTime":1776417180,"reportTime":"2026-04-17T09:13:00.000Z","temp":1,"dewp":1,"wdir":0,"wspd":0,"visib":7,"altim":1026.2,"qcField":70,"metarType":"SPECI","rawOb":"SPECI KPWT 170913Z AUTO 00000KT 7SM BKN050 01/01 A3030 RMK AO2 FZRANO","lat":47.4942,"lon":-122.7594,"elev":143,"name":"Bremerton Arpt, WA, US","cover":"BKN","clouds":[{"cover":"BKN","base":5000}],"fltCat":"VFR"},{"icaoId":"KMCI","receiptTime":"2026-04-17T09:16:06.040Z","obsTime":1776417180,"reportTime":"2026-04-17T09:13:00.000Z","temp":21.7,"dewp":18.9,"wdir":180,"wspd":19,"wgst":27,"visib":"10+","altim":1006.2,"qcField":4,"metarType":"SPECI","rawOb":"SPECI KMCI 170913Z 18019G27KT 10SM SCT019 22/19 A2971 RMK AO2 PK WND 17027/0912 T02170189","lat":39.2975,"lon":-94.7309,"elev":308,"name":"Kansas City Intl, MO, US","cover":"SCT","clouds":[{"cover":"SCT","base":1900}],"fltCat":"VFR"},{"icaoId":"KROC","receiptTime":"2026-04-17T09:12:06.585Z","obsTime":1776416940,"reportTime":"2026-04-17T09:09:00.000Z","temp":13.9,"dewp":13.3,"wdir":350,"wspd":4,"visib":"10+","altim":1011.3,"qcField":12,"metarType":"SPECI","rawOb":"SPECI KROC 170909Z 35004KT 10SM BKN003 OVC011 14/13 A2986 RMK AO2 T01390133 $","lat":43.1172,"lon":-77.6754,"elev":166,"name":"Rochester Intl Arpt, NY, US","cover":"OVC","clouds":[{"cover":"BKN","base":300},{"cover":"OVC","base":1100}],"fltCat":"LIFR"},{"icaoId":"KDTW","receiptTime":"2026-04-17T09:12:04.386Z","obsTime":1776416880,"reportTime":"2026-04-17T09:08:00.000Z","temp":11.1,"dewp":11.1,"wdir":0,"wspd":0,"visib":0.13,"altim":1014.6,"qcField":12,"wxString":"FG","vertVis":1,"metarType":"SPECI","rawOb":"SPECI KDTW 170908Z 00000KT 1/8SM R03R/1000V2400FT FG VV001 11/11 A2996 RMK AO2 TWR VIS 1/2 T01110111 $","lat":42.2311,"lon":-83.3312,"elev":192,"name":"Detroit/Metro Wayne Cnty, MI, US","cover":"OVX","clouds":[{"cover":"OVX","base":100}],"fltCat":"LIFR"},{"icaoId":"KMDW","receiptTime":"2026-04-17T09:08:30.975Z","obsTime":1776416700,"reportTime":"2026-04-17T09:05:00.000Z","temp":9.4,"dewp":9.4,"wdir":180,"wspd":3,"visib":1,"altim":1013.6,"qcField":4,"wxString":"BR","metarType":"SPECI","rawOb":"SPECI KMDW 170905Z 18003KT 1SM R04R/P6000FT BR OVC002 09/09 A2993 RMK AO2 T00940094","lat":41.7841,"lon":-87.7552,"elev":186,"name":"Chicago/Midway Intl, IL, US","cover":"OVC","clouds":[{"cover":"OVC","base":200}],"fltCat":"LIFR"},{"icaoId":"KHDN","receiptTime":"2026-04-17T09:06:09.319Z","obsTime":1776416640,"reportTime":"2026-04-17T09:04:00.000Z","temp":-5,"dewp":-8,"wdir":280,"wspd":13,"visib":6,"altim":1015.7,"qcField":70,"wxString":"-SN","precip":0.005,"metarType":"SPECI","rawOb":"SPECI KHDN 170904Z AUTO 28013KT 6SM -SN SCT013 BKN027 OVC033 M05/M08 A2999 RMK AO2 P0000 FZRANO","lat":40.4842,"lon":-107.2296,"elev":2012,"name":"Hayden/Yampa Valley Arpt, CO, US","cover":"OVC","clouds":[{"cover":"SCT","base":1300},{"cover":"BKN","base":2700},{"cover":"OVC","base":3300}],"fltCat":"MVFR"},{"icaoId":"KAST","receiptTime":"2026-04-17T09:06:09.294Z","obsTime":1776416580,"reportTime":"2026-04-17T09:03:00.000Z","temp":6.1,"dewp":5.6,"wdir":110,"wspd":3,"visib":"10+","altim":1027.5,"qcField":6,"metarType":"SPECI","rawOb":"SPECI KAST 170903Z AUTO 11003KT 10SM SCT023 BKN030 OVC048 06/06 A3034 RMK AO2 T00610056","lat":46.157,"lon":-123.8833,"elev":3,"name":"Astoria Rgnl, OR, US","cover":"OVC","clouds":[{"cover":"SCT","base":2300},{"cover":"BKN","base":3000},{"cover":"OVC","base":4800}],"fltCat":"MVFR"},{"icaoId":"KFLG","receiptTime":"2026-04-17T09:00:16.985Z","obsTime":1776416220,"reportTime":"2026-04-17T09:00:00.000Z","temp":6.1,"dewp":-11.1,"wdir":230,"wspd":7,"visib":"10+","altim":1014.3,"slp":1006.9,"qcField":6,"presTend":-0.5,"metarType":"METAR","rawOb":"METAR KFLG 170857Z AUTO 23007KT 10SM CLR 06/M11 A2995 RMK AO2 SLP069 T00611111 56005","lat":35.1443,"lon":-111.6664,"elev":2134,"name":"Flagstaff/Pulliam Arpt, AZ, US","cover":"CLR","clouds":[],"fltCat":"VFR"},{"icaoId":"KNFL","receiptTime":"2026-04-17T09:00:15.656Z","obsTime":1776416220,"reportTime":"2026-04-17T09:00:00.000Z","temp":-1.7,"dewp":-12.2,"wdir":70,"wspd":3,"visib":"10+","altim":1024.5,"slp":1020.5,"qcField":6,"presTend":0.5,"metarType":"METAR","rawOb":"METAR KNFL 170857Z AUTO 07003KT 10SM CLR M02/M12 A3025 RMK AO2 SLP205 T10171122 53005","lat":39.417,"lon":-118.705,"elev":1199,"name":"Fallon , NV, US","cover":"CLR","clouds":[],"fltCat":"VFR"},{"icaoId":"KNYL","receiptTime":"2026-04-17T09:00:15.620Z","obsTime":1776416220,"reportTime":"2026-04-17T09:00:00.000Z","temp":18.3,"dewp":5.6,"wdir":0,"wspd":0,"visib":"10+","altim":1008.9,"slp":1008.5,"qcField":6,"presTend":0.5,"metarType":"METAR","rawOb":"METAR KNYL 170857Z AUTO 00000KT 10SM CLR 18/06 A2979 RMK AO2 SLP085 T01830056 53005","lat":32.66,"lon":-114.6078,"elev":58,"name":"Yuma , AZ, US","cover":"CLR","clouds":[],"fltCat":"VFR"},{"icaoId":"KLWS","receiptTime":"2026-04-17T09:00:04.171Z","obsTime":1776416160,"reportTime":"2026-04-17T09:00:00.000Z","temp":5.6,"dewp":-3.9,"wdir":170,"wspd":3,"visib":"10+","altim":1022.1,"slp":1022.5,"qcField":6,"presTend":0.9,"metarType":"METAR","rawOb":"METAR KLWS 170856Z AUTO 17003KT 10SM CLR 06/M04 A3018 RMK AO2 SLP225 T00561039 53009","lat":46.3746,"lon":-117.0153,"elev":435,"name":"Lewiston/Nez Perce Cnty, ID, US","cover":"CLR","clouds":[],"fltCat":"VFR"},{"icaoId":"KCHS","receiptTime":"2026-04-17T09:00:03.987Z","obsTime":1776416160,"reportTime":"2026-04-17T09:00:00.000Z","temp":17.8,"dewp":16.1,"wdir":210,"wspd":6,"visib":"10+","altim":1016.3,"slp":1016,"qcField":4,"presTend":-0.8,"metarType":"METAR","rawOb":"METAR KCHS 170856Z 21006KT 10SM FEW250 18/16 A3001 RMK AO2 SLP160 T01780161 56008","lat":32.8995,"lon":-80.0407,"elev":12,"name":"Charleston Intl, SC, US","cover":"FEW","clouds":[{"cover":"FEW","base":25000}],"fltCat":"VFR"},{"icaoId":"KGUC","receiptTime":"2026-04-17T08:58:56.112Z","obsTime":1776416160,"reportTime":"2026-04-17T09:00:00.000Z","temp":0.6,"dewp":-6.1,"wdir":"VRB","wspd":3,"visib":"10+","altim":1009.9,"slp":1005.2,"qcField":78,"presTend":-0.5,"metarType":"METAR","rawOb":"METAR KGUC 170856Z AUTO VRB03KT 10SM FEW110 01/M06 A2982 RMK AO2 SLP052 T00061061 58005 FZRANO $","lat":38.5322,"lon":-106.9419,"elev":2337,"name":"Gunnison Arpt, CO, US","cover":"FEW","clouds":[{"cover":"FEW","base":11000}],"fltCat":"VFR"},{"icaoId":"KEGE","receiptTime":"2026-04-17T08:58:49.832Z","obsTime":1776416160,"reportTime":"2026-04-17T09:00:00.000Z","temp":3.9,"dewp":-7.2,"wdir":310,"wspd":12,"wgst":18,"visib":"10+","altim":1009.6,"slp":1004.7,"qcField":6,"presTend":1.6,"metarType":"METAR","rawOb":"METAR KEGE 170856Z AUTO 31012G18KT 10SM BKN100 04/M07 A2981 RMK AO2 SLP047 T00391072 53016","lat":39.6448,"lon":-106.9176,"elev":1993,"name":"Eagle Cnty Rgnl, CO, US","cover":"BKN","clouds":[{"cover":"BKN","base":10000}],"fltCat":"VFR"},{"icaoId":"KRDM","receiptTime":"2026-04-17T09:00:06.537Z","obsTime":1776416160,"reportTime":"2026-04-17T09:00:00.000Z","temp":-4.4,"dewp":-7.8,"wdir":170,"wspd":8,"visib":"10+","altim":1024.5,"slp":1026,"qcField":6,"metarType":"METAR","rawOb":"METAR KRDM 170856Z AUTO 17008KT 10SM CLR M04/M08 A3025 RMK AO2 SLP260 T10441078 50000","lat":44.2558,"lon":-121.1407,"elev":930,"name":"Redmond Muni, OR, US","cover":"CLR","clouds":[],"fltCat":"VFR"},{"icaoId":"KSLE","receiptTime":"2026-04-17T09:00:06.943Z","obsTime":1776416160,"reportTime":"2026-04-17T09:00:00.000Z","temp":6.1,"dewp":3.9,"wdir":0,"wspd":0,"visib":"10+","altim":1027.5,"slp":1027.4,"qcField":6,"metarType":"METAR","rawOb":"METAR KSLE 170856Z AUTO 00000KT 10SM BKN055 06/04 A3034 RMK AO2 SLP274 T00610039 50000","lat":44.9049,"lon":-123.001,"elev":63,"name":"Salem Muni, OR, US","cover":"BKN","clouds":[{"cover":"BKN","base":5500}],"fltCat":"VFR"},{"icaoId":"KHND","receiptTime":"2026-04-17T08:58:50.314Z","obsTime":1776416160,"reportTime":"2026-04-17T09:00:00.000Z","temp":13.9,"dewp":-13.9,"wdir":20,"wspd":18,"wgst":27,"visib":"10+","altim":1014.6,"slp":1014.7,"qcField":14,"presTend":4.4,"metarType":"METAR","rawOb":"METAR KHND 170856Z AUTO 02018G27KT 10SM CLR 14/M14 A2996 RMK AO2 PK WND 36033/0846 SLP147 T01391139 51044 $","lat":35.9657,"lon":-115.1343,"elev":740,"name":"Henderson Exec, NV, US","cover":"CLR","clouds":[],"fltCat":"VFR"},{"icaoId":"KSGU","receiptTime":"2026-04-17T08:58:54.636Z","obsTime":1776416160,"reportTime":"2026-04-17T09:00:00.000Z","temp":8.3,"dewp":-5,"wdir":90,"wspd":9,"visib":"10+","altim":1015.3,"slp":1013.5,"qcField":6,"presTend":4.1,"metarType":"METAR","rawOb":"METAR KSGU 170856Z AUTO 09009KT 060V120 10SM CLR 08/M05 A2998 RMK AO2 SLP135 T00831050 53041","lat":37.0444,"lon":-113.5034,"elev":877,"name":"Saint George Muni, UT, US","cover":"CLR","clouds":[],"fltCat":"VFR"},{"icaoId":"KDUG","receiptTime":"2026-04-17T09:02:09.705Z","obsTime":1776416160,"reportTime":"2026-04-17T09:00:00.000Z","temp":13.9,"dewp":-5.6,"wdir":70,"wspd":3,"visib":"10+","altim":1013.6,"slp":1007.9,"qcField":38,"presTend":-0.2,"metarType":"METAR","rawOb":"METAR KDUG 170856Z AUTO 07003KT 10SM CLR 14/M06 A2993 RMK AO2 SLP079 T01391056 56002 TSNO","lat":31.4725,"lon":-109.6022,"elev":1260,"name":"Douglas/Bisbee Intl, AZ, US","cover":"CLR","clouds":[],"fltCat":"VFR"},{"icaoId":"KLAS","receiptTime":"2026-04-17T09:00:11.210Z","obsTime":1776416160,"reportTime":"2026-04-17T09:00:00.000Z","temp":14.4,"dewp":-15,"wdir":340,"wspd":31,"wgst":41,"visib":"10+","altim":1014,"slp":1012.3,"qcField":12,"presTend":4.7,"metarType":"METAR","rawOb":"METAR KLAS 170856Z 34031G41KT 10SM FEW250 14/M15 A2994 RMK AO2 SLP123 OCNL VCBLDU W T01441150 51047 $","lat":36.0719,"lon":-115.1634,"elev":662,"name":"Las Vegas/Reid Intl, NV, US","cover":"FEW","clouds":[{"cover":"FEW","base":25000}],"fltCat":"VFR"},{"icaoId":"KCOE","receiptTime":"2026-04-17T08:58:52.253Z","obsTime":1776416160,"reportTime":"2026-04-17T09:00:00.000Z","temp":3.3,"dewp":-2.2,"wdir":170,"wspd":7,"visib":"10+","altim":1019.7,"slp":1022.7,"qcField":14,"presTend":0.4,"metarType":"METAR","rawOb":"METAR KCOE 170856Z AUTO 17007KT 10SM OVC090 03/M02 A3011 RMK AO2 SLP227 6//// T00331022 53004 PNO $","lat":47.7719,"lon":-116.8332,"elev":693,"name":"Coeur DAlene Arpt, ID, US","cover":"OVC","clouds":[{"cover":"OVC","base":9000}],"fltCat":"VFR"},{"icaoId":"KSDF","receiptTime":"2026-04-17T09:00:06.821Z","obsTime":1776416160,"reportTime":"2026-04-17T09:00:00.000Z","temp":16.7,"dewp":10,"wdir":220,"wspd":4,"visib":"10+","altim":1015.3,"slp":1014.8,"qcField":4,"presTend":-0.4,"metarType":"METAR","rawOb":"METAR KSDF 170856Z 22004KT 10SM CLR 17/10 A2998 RMK AO2 SLP148 T01670100 58004","lat":38.1774,"lon":-85.7308,"elev":146,"name":"Louisville Intl, KY, US","cover":"CLR","clouds":[],"fltCat":"VFR"},{"icaoId":"KFNL","receiptTime":"2026-04-17T08:58:50.279Z","obsTime":1776416160,"reportTime":"2026-04-17T09:00:00.000Z","temp":5.6,"dewp":-5.6,"wdir":30,"wspd":16,"wgst":22,"visib":"10+","altim":1006.9,"slp":1002.3,"qcField":14,"presTend":2.4,"metarType":"METAR","rawOb":"METAR KFNL 170856Z AUTO 03016G22KT 10SM CLR 06/M06 A2973 RMK AO2 PK WND 03028/0800 SLP023 T00561056 53024 $","lat":40.4427,"lon":-105.0097,"elev":1529,"name":"Fort Collins/N Colorado Rgnl, CO, US","cover":"CLR","clouds":[],"fltCat":"VFR"},{"icaoId":"KCGZ","receiptTime":"2026-04-17T08:58:50.891Z","obsTime":1776416160,"reportTime":"2026-04-17T09:00:00.000Z","temp":19.4,"dewp":-3.9,"wdir":0,"wspd":0,"visib":"10+","qcField":14,"metarType":"METAR","rawOb":"METAR KCGZ 170856Z AUTO 00000KT 10SM CLR 19/M04 RMK AO2 SLPNO 6//// T01941039 $","lat":32.9531,"lon":-111.7725,"elev":444,"name":"Casa Granda Muni, AZ, US","cover":"CLR","clouds":[],"fltCat":"VFR"},{"icaoId":"KVIS","receiptTime":"2026-04-17T08:58:53.628Z","obsTime":1776416160,"reportTime":"2026-04-17T09:00:00.000Z","temp":10.6,"dewp":0.6,"wdir":310,"wspd":4,"visib":"10+","altim":1016,"slp":1015.9,"qcField":14,"presTend":0.7,"metarType":"METAR","rawOb":"METAR KVIS 170856Z AUTO 31004KT 10SM CLR 11/01 A3000 RMK AO2 SLP159 6//// T01060006 51007 PNO $","lat":36.3135,"lon":-119.3884,"elev":92,"name":"Visalia Muni, CA, US","cover":"CLR","clouds":[],"fltCat":"VFR"},{"icaoId":"KPVU","receiptTime":"2026-04-17T08:58:54.093Z","obsTime":1776416160,"reportTime":"2026-04-17T09:00:00.000Z","temp":-0.6,"dewp":-4.4,"wdir":330,"wspd":15,"wgst":22,"visib":"10+","altim":1019.7,"slp":1020.4,"qcField":68,"presTend":0.9,"pcp3hr":0.005,"metarType":"METAR","rawOb":"METAR KPVU 170856Z 33015G22KT 10SM BKN017 BKN026 M01/M04 A3011 RMK AO2 PK WND 34026/0825 SLP204 60000 T10061044 51009 FZRANO","lat":40.224,"lon":-111.7252,"elev":1370,"name":"Provo Muni, UT, US","cover":"BKN","clouds":[{"cover":"BKN","base":1700},{"cover":"BKN","base":2600}],"fltCat":"MVFR"},{"icaoId":"KSDY","receiptTime":"2026-04-17T08:58:54.461Z","obsTime":1776416160,"reportTime":"2026-04-17T09:00:00.000Z","temp":-5,"dewp":-8.3,"wdir":260,"wspd":5,"visib":"10+","altim":1013,"slp":1015.4,"qcField":78,"presTend":-1.1,"metarType":"METAR","rawOb":"METAR KSDY 170856Z AUTO 26005KT 10SM OVC045 M05/M08 A2991 RMK AO2 SLP154 T10501083 56011 FZRANO $","lat":47.7029,"lon":-104.1951,"elev":600,"name":"Sidney/Richland Muni, MT, US","cover":"OVC","clouds":[{"cover":"OVC","base":4500}],"fltCat":"VFR"},{"icaoId":"KBZN","receiptTime":"2026-04-17T09:00:03.955Z","obsTime":1776416160,"reportTime":"2026-04-17T09:00:00.000Z","temp":-2.2,"dewp":-7.2,"wdir":220,"wspd":4,"visib":"10+","altim":1017,"slp":1020.3,"qcField":6,"presTend":0.3,"metarType":"METAR","rawOb":"METAR KBZN 170856Z AUTO 22004KT 10SM OVC065 M02/M07 A3003 RMK AO2 SLP203 T10221072 50003","lat":45.7876,"lon":-111.1615,"elev":1349,"name":"Bozeman/Gallatin Fld, MT, US","cover":"OVC","clouds":[{"cover":"OVC","base":6500}],"fltCat":"VFR"},{"icaoId":"KCEC","receiptTime":"2026-04-17T09:00:10.438Z","obsTime":1776416160,"reportTime":"2026-04-17T09:00:00.000Z","temp":7.2,"dewp":1.7,"wdir":20,"wspd":4,"visib":"10+","altim":1024.1,"slp":1024,"qcField":6,"presTend":0.1,"metarType":"METAR","rawOb":"METAR KCEC 170856Z AUTO 02004KT 10SM CLR 07/02 A3024 RMK AO2 SLP240 T00720017 50001","lat":41.7836,"lon":-124.238,"elev":17,"name":"Crescent City/McNama, CA, US","cover":"CLR","clouds":[],"fltCat":"VFR"},{"icaoId":"KSFO","receiptTime":"2026-04-17T09:00:10.468Z","obsTime":1776416160,"reportTime":"2026-04-17T09:00:00.000Z","temp":16.1,"dewp":2.2,"wdir":350,"wspd":11,"visib":"10+","altim":1017.4,"slp":1017.1,"qcField":12,"presTend":-0.2,"metarType":"METAR","rawOb":"METAR KSFO 170856Z 35011KT 10SM CLR 16/02 A3004 RMK AO2 SLP171 T01610022 57002 $","lat":37.6196,"lon":-122.3656,"elev":2,"name":"San Francisco Intl, CA, US","cover":"CLR","clouds":[],"fltCat":"VFR"},{"icaoId":"KEKO","receiptTime":"2026-04-17T09:00:11.821Z","obsTime":1776416160,"reportTime":"2026-04-17T09:00:00.000Z","temp":-8.9,"dewp":-11.1,"wdir":0,"wspd":0,"visib":"10+","altim":1023.1,"slp":1026.7,"qcField":6,"presTend":0.4,"metarType":"METAR","rawOb":"METAR KEKO 170856Z AUTO 00000KT 10SM CLR M09/M11 A3021 RMK AO2 SLP267 T10891111 50004","lat":40.824,"lon":-115.7863,"elev":1541,"name":"Elko Rgnl, NV, US","cover":"CLR","clouds":[],"fltCat":"VFR"},{"icaoId":"KTPH","receiptTime":"2026-04-17T09:00:12.076Z","obsTime":1776416160,"reportTime":"2026-04-17T09:00:00.000Z","temp":-1.1,"dewp":-15.6,"wdir":350,"wspd":12,"visib":"10+","altim":1022.1,"slp":1020.8,"qcField":6,"presTend":1.5,"metarType":"METAR","rawOb":"METAR KTPH 170856Z AUTO 35012KT 10SM CLR M01/M16 A3018 RMK AO2 SLP208 T10111156 51015","lat":38.0505,"lon":-117.0906,"elev":1647,"name":"Tonopah Arpt, NV, US","cover":"CLR","clouds":[],"fltCat":"VFR"},{"icaoId":"KUKI","receiptTime":"2026-04-17T09:00:12.095Z","obsTime":1776416160,"reportTime":"2026-04-17T09:00:00.000Z","temp":6.1,"dewp":3.9,"wdir":0,"wspd":0,"visib":"10+","altim":1020.1,"slp":1019.5,"qcField":6,"presTend":0.1,"metarType":"METAR","rawOb":"METAR KUKI 170856Z AUTO 00000KT 10SM CLR 06/04 A3012 RMK AO2 SLP195 T00610039 50001","lat":39.1278,"lon":-123.2001,"elev":183,"name":"Ukiah Muni, CA, US","cover":"CLR","clouds":[],"fltCat":"VFR"},{"icaoId":"KSBP","receiptTime":"2026-04-17T09:00:06.777Z","obsTime":1776416160,"reportTime":"2026-04-17T09:00:00.000Z","temp":15.6,"dewp":-1.1,"wdir":330,"wspd":13,"visib":"10+","altim":1014,"slp":1013.8,"qcField":6,"presTend":-0.1,"metarType":"METAR","rawOb":"METAR KSBP 170856Z AUTO 33013KT 10SM CLR 16/M01 A2994 RMK AO2 SLP138 T01561011 58001","lat":35.2381,"lon":-120.644,"elev":52,"name":"San Luis Obispo/San Luis Cnty, CA, US","cover":"CLR","clouds":[],"fltCat":"VFR"},{"icaoId":"KINW","receiptTime":"2026-04-17T09:00:04.115Z","obsTime":1776416160,"reportTime":"2026-04-17T09:00:00.000Z","temp":11.1,"dewp":-7.2,"wdir":210,"wspd":5,"visib":"10+","altim":1012.3,"slp":1006.9,"qcField":6,"presTend":-0.5,"metarType":"METAR","rawOb":"METAR KINW 170856Z AUTO 21005KT 10SM CLR 11/M07 A2989 RMK AO2 SLP069 T01111072 58005","lat":35.0279,"lon":-110.7221,"elev":1492,"name":"Winslow/Lindberg Rgnl, AZ, US","cover":"CLR","clouds":[],"fltCat":"VFR"},{"icaoId":"KJAX","receiptTime":"2026-04-17T09:00:04.132Z","obsTime":1776416160,"reportTime":"2026-04-17T09:00:00.000Z","temp":17.2,"dewp":13.9,"wdir":210,"wspd":3,"visib":"10+","altim":1017.7,"slp":1017.5,"qcField":12,"presTend":-0.4,"metarType":"METAR","rawOb":"METAR KJAX 170856Z 21003KT 10SM CLR 17/14 A3005 RMK AO2 SLP175 T01720139 55004 $","lat":30.4953,"lon":-81.6937,"elev":8,"name":"Jacksonville Intl, FL, US","cover":"CLR","clouds":[],"fltCat":"VFR"},{"icaoId":"KCOD","receiptTime":"2026-04-17T08:58:51.072Z","obsTime":1776416160,"reportTime":"2026-04-17T09:00:00.000Z","temp":-6.1,"dewp":-10,"wdir":170,"wspd":6,"visib":"10+","altim":1015,"slp":1018,"qcField":78,"presTend":0.3,"metarType":"METAR","rawOb":"METAR KCOD 170856Z AUTO 17006KT 10SM CLR M06/M10 A2997 RMK AO2 SLP180 T10611100 53003 FZRANO $","lat":44.52,"lon":-109.0268,"elev":1550,"name":"Cody/Yellowstone Rgnl, WY, US","cover":"CLR","clouds":[],"fltCat":"VFR"},{"icaoId":"KENV","receiptTime":"2026-04-17T08:58:49.965Z","obsTime":1776416160,"reportTime":"2026-04-17T09:00:00.000Z","temp":0.6,"dewp":-12.2,"wdir":310,"wspd":15,"wgst":19,"visib":"10+","altim":1022.1,"slp":1023.4,"qcField":70,"presTend":0.5,"metarType":"METAR","rawOb":"METAR KENV 170856Z AUTO 31015G19KT 10SM CLR 01/M12 A3018 RMK AO2 SLP234 T00061122 53005 FZRANO","lat":40.7211,"lon":-114.0312,"elev":1291,"name":"Wendover Arpt, UT, US","cover":"CLR","clouds":[],"fltCat":"VFR"},{"icaoId":"KEND","receiptTime":"2026-04-17T09:16:04.053Z","obsTime":1776416100,"reportTime":"2026-04-17T09:00:00.000Z","temp":21.4,"dewp":18.2,"wdir":170,"wspd":16,"visib":"10+","altim":1005.5,"slp":1004.1,"qcField":14,"presTend":-1.4,"metarType":"METAR","rawOb":"METAR KEND 170855Z AUTO 17016KT 10SM CLR 21/18 A2969 RMK AO2 SLP041 T02140182 57014 $","lat":36.338,"lon":-97.919,"elev":392,"name":"Enid/Vance AFB, OK, US","cover":"CLR","clouds":[],"fltCat":"VFR"},{"icaoId":"KCMA","receiptTime":"2026-04-17T08:58:51.029Z","obsTime":1776416100,"reportTime":"2026-04-17T09:00:00.000Z","temp":12.2,"dewp":9.4,"wdir":70,"wspd":4,"visib":"10+","altim":1012.6,"slp":1013.4,"qcField":6,"presTend":0.3,"metarType":"METAR","rawOb":"METAR KCMA 170855Z AUTO 07004KT 10SM CLR 12/09 A2990 RMK AO2 SLP134 T01220094 53003","lat":34.2114,"lon":-119.0876,"elev":20,"name":"Camarillo Arpt, CA, US","cover":"CLR","clouds":[],"fltCat":"VFR"},{"icaoId":"KRNO","receiptTime":"2026-04-17T08:58:52.447Z","obsTime":1776416100,"reportTime":"2026-04-17T09:00:00.000Z","temp":1.7,"dewp":-13.9,"wdir":130,"wspd":7,"visib":"10+","altim":1023.8,"slp":1022.5,"qcField":4,"metarType":"METAR","rawOb":"METAR KRNO 170855Z 13007KT 10SM CLR 02/M14 A3023 RMK AO2 SLP225 T00171139 50000","lat":39.5077,"lon":-119.7683,"elev":1344,"name":"Reno/Tahoe Intl, NV, US","cover":"CLR","clouds":[],"fltCat":"VFR"},{"icaoId":"KGPI","receiptTime":"2026-04-17T08:58:56.073Z","obsTime":1776416100,"reportTime":"2026-04-17T09:00:00.000Z","temp":-1.1,"dewp":-1.7,"wdir":0,"wspd":0,"visib":"10+","altim":1017.7,"slp":1020.6,"qcField":6,"presTend":0.4,"metarType":"METAR","rawOb":"METAR KGPI 170855Z AUTO 00000KT 10SM SCT050 OVC060 M01/M02 A3005 RMK AO2 SLP206 T10111017 50004","lat":48.3041,"lon":-114.2643,"elev":903,"name":"Kalispell/Glacier Park Intl, MT, US","cover":"OVC","clouds":[{"cover":"SCT","base":5000},{"cover":"OVC","base":6000}],"fltCat":"VFR"},{"icaoId":"KLUF","receiptTime":"2026-04-17T09:06:09.917Z","obsTime":1776416100,"reportTime":"2026-04-17T09:00:00.000Z","temp":21.6,"dewp":-2.3,"wdir":200,"wspd":11,"visib":"10+","altim":1007.9,"slp":1006.5,"qcField":14,"presTend":0.1,"metarType":"METAR","rawOb":"METAR KLUF 170855Z AUTO 20011KT 10SM BKN200 22/M02 A2976 RMK AO2 SLP065 T02161023 53001 $","lat":33.538,"lon":-112.38,"elev":333,"name":"Phoenix/Luke AFB, AZ, US","cover":"BKN","clouds":[{"cover":"BKN","base":20000}],"fltCat":"VFR"},{"icaoId":"KSLC","receiptTime":"2026-04-17T08:58:26.872Z","obsTime":1776416040,"reportTime":"2026-04-17T09:00:00.000Z","temp":0.6,"dewp":-6.7,"wdir":330,"wspd":4,"visib":"10+","altim":1020.1,"slp":1021,"qcField":12,"presTend":0.6,"metarType":"METAR","rawOb":"METAR KSLC 170854Z 33004KT 10SM SCT065 OVC080 01/M07 A3012 RMK AO2 SLP210 T00061067 53006 $","lat":40.7707,"lon":-111.965,"elev":1286,"name":"Salt Lake City Intl, UT, US","cover":"OVC","clouds":[{"cover":"SCT","base":6500},{"cover":"OVC","base":8000}],"fltCat":"VFR"},{"icaoId":"KBOS","receiptTime":"2026-04-17T08:58:23.248Z","obsTime":1776416040,"reportTime":"2026-04-17T09:00:00.000Z","temp":8.9,"dewp":7.8,"wdir":110,"wspd":3,"visib":"10+","altim":1007.5,"slp":1007.2,"qcField":4,"presTend":-0.4,"metarType":"METAR","rawOb":"METAR KBOS 170854Z 11003KT 10SM FEW070 09/08 A2975 RMK AO2 SLP072 T00890078 58004","lat":42.3606,"lon":-71.0097,"elev":4,"name":"Boston/Logan Intl, MA, US","cover":"FEW","clouds":[{"cover":"FEW","base":7000}],"fltCat":"VFR"},{"icaoId":"KGSO","receiptTime":"2026-04-17T08:58:40.192Z","obsTime":1776416040,"reportTime":"2026-04-17T09:00:00.000Z","temp":18.3,"dewp":12.8,"wdir":290,"wspd":4,"visib":"10+","altim":1014,"slp":1012.8,"qcField":4,"wxString":"-RA","presTend":-0.1,"precip":0.005,"pcp3hr":0.005,"metarType":"METAR","rawOb":"METAR KGSO 170854Z 29004KT 10SM -RA FEW030 BKN080 BKN120 BKN250 18/13 A2994 RMK AO2 RAB49 SLP128 P0000 60000 T01830128 56001","lat":36.0969,"lon":-79.9432,"elev":275,"name":"Greensboro Intl, NC, US","cover":"BKN","clouds":[{"cover":"FEW","base":3000},{"cover":"BKN","base":8000},{"cover":"BKN","base":12000},{"cover":"BKN","base":25000}],"fltCat":"VFR"},{"icaoId":"KGCN","receiptTime":"2026-04-17T08:58:26.826Z","obsTime":1776416040,"reportTime":"2026-04-17T09:00:00.000Z","temp":3.3,"dewp":-9.4,"wdir":230,"wspd":7,"visib":"10+","altim":1013.3,"slp":1007.4,"qcField":6,"presTend":-0.6,"metarType":"METAR","rawOb":"METAR KGCN 170854Z AUTO 23007KT 10SM CLR 03/M09 A2992 RMK AO2 SLP074 T00331094 56006","lat":35.9458,"lon":-112.1554,"elev":1993,"name":"Grand Canyon Park Arpt, AZ, US","cover":"CLR","clouds":[],"fltCat":"VFR"},{"icaoId":"KEUG","receiptTime":"2026-04-17T08:58:32.035Z","obsTime":1776416040,"reportTime":"2026-04-17T09:00:00.000Z","temp":2.8,"dewp":1.7,"wdir":0,"wspd":0,"visib":"10+","altim":1027.9,"slp":1027.8,"qcField":6,"presTend":0.2,"metarType":"METAR","rawOb":"METAR KEUG 170854Z AUTO 00000KT 10SM CLR 03/02 A3035 RMK AO2 SLP278 T00280017 50002","lat":44.1331,"lon":-123.2156,"elev":109,"name":"Eugene/Mahlon Sweet Fld, OR, US","cover":"CLR","clouds":[],"fltCat":"VFR"},{"icaoId":"KOLS","receiptTime":"2026-04-17T08:58:30.898Z","obsTime":1776416040,"reportTime":"2026-04-17T09:00:00.000Z","temp":11.7,"dewp":-7.8,"wdir":0,"wspd":0,"visib":"10+","altim":1013.3,"slp":1008,"qcField":6,"presTend":-0.2,"metarType":"METAR","rawOb":"METAR KOLS 170854Z AUTO 00000KT 10SM CLR 12/M08 A2992 RMK AO2 SLP080 T01171078 58002","lat":31.4208,"lon":-110.8465,"elev":1194,"name":"Nogales Intl, AZ, US","cover":"CLR","clouds":[],"fltCat":"VFR"},{"icaoId":"KDSM","receiptTime":"2026-04-17T08:58:40.180Z","obsTime":1776416040,"reportTime":"2026-04-17T09:00:00.000Z","temp":18.3,"dewp":14.4,"wdir":140,"wspd":12,"visib":"10+","altim":1006.5,"slp":1005.6,"qcField":4,"presTend":-1.8,"metarType":"METAR","rawOb":"METAR KDSM 170854Z 14012KT 10SM SCT250 18/14 A2972 RMK AO2 SLP056 T01830144 58018","lat":41.5339,"lon":-93.6531,"elev":286,"name":"Des Moines Intl, IA, US","cover":"SCT","clouds":[{"cover":"SCT","base":25000}],"fltCat":"VFR"},{"icaoId":"KCOS","receiptTime":"2026-04-17T08:58:39.797Z","obsTime":1776416040,"reportTime":"2026-04-17T09:00:00.000Z","temp":13.3,"dewp":-15,"wdir":170,"wspd":4,"visib":"10+","altim":1006.5,"slp":998.8,"qcField":4,"presTend":-0.5,"metarType":"METAR","rawOb":"METAR KCOS 170854Z 17004KT 10SM SCT250 13/M15 A2972 RMK AO2 SLP988 T01331150 55005","lat":38.8095,"lon":-104.6887,"elev":1886,"name":"Colorado Spring Arpt, CO, US","cover":"SCT","clouds":[{"cover":"SCT","base":25000}],"fltCat":"VFR"},{"icaoId":"KPHL","receiptTime":"2026-04-17T08:58:27.518Z","obsTime":1776416040,"reportTime":"2026-04-17T09:00:00.000Z","temp":22.8,"dewp":13.9,"wdir":310,"wspd":10,"visib":"10+","altim":1008.9,"slp":1008.9,"qcField":12,"presTend":0.6,"metarType":"METAR","rawOb":"METAR KPHL 170854Z 31010KT 10SM FEW035 BKN170 OVC250 23/14 A2979 RMK AO2 SLP089 T02280139 53006 $","lat":39.8733,"lon":-75.2268,"elev":2,"name":"Philadelphia Intl, PA, US","cover":"OVC","clouds":[{"cover":"FEW","base":3500},{"cover":"BKN","base":17000},{"cover":"OVC","base":25000}],"fltCat":"VFR"},{"icaoId":"KBWI","receiptTime":"2026-04-17T08:58:23.390Z","obsTime":1776416040,"reportTime":"2026-04-17T09:00:00.000Z","temp":21.1,"dewp":14.4,"wdir":300,"wspd":7,"visib":"10+","altim":1009.9,"slp":1009.8,"qcField":4,"presTend":0.3,"pcp3hr":0.005,"metarType":"METAR","rawOb":"METAR KBWI 170854Z 30007KT 10SM FEW090 SCT140 BKN250 21/14 A2982 RMK AO2 SLP098 60000 T02110144 52003","lat":39.1733,"lon":-76.684,"elev":42,"name":"Baltimore-Washington Intl, MD, US","cover":"BKN","clouds":[{"cover":"FEW","base":9000},{"cover":"SCT","base":14000},{"cover":"BKN","base":25000}],"fltCat":"VFR"},{"icaoId":"KBTV","receiptTime":"2026-04-17T08:58:39.773Z","obsTime":1776416040,"reportTime":"2026-04-17T09:00:00.000Z","temp":10.6,"wdir":350,"wspd":9,"visib":5,"altim":1009.9,"slp":1009.9,"qcField":12,"wxString":"HZ","presTend":1.8,"metarType":"METAR","rawOb":"METAR KBTV 170854Z 35009KT 5SM HZ OVC003 11/ A2982 RMK AO2 SLP099 T0106 53018 $","lat":44.4682,"lon":-73.1499,"elev":101,"name":"Burlington Intl, VT, US","cover":"OVC","clouds":[{"cover":"OVC","base":300}],"fltCat":"LIFR"},{"icaoId":"KIND","receiptTime":"2026-04-17T08:58:16.652Z","obsTime":1776416040,"reportTime":"2026-04-17T09:00:00.000Z","temp":14.4,"dewp":11.1,"wdir":240,"wspd":4,"visib":"10+","altim":1014.6,"slp":1014.1,"qcField":4,"presTend":-0.1,"metarType":"METAR","rawOb":"METAR KIND 170854Z 24004KT 10SM FEW048 SCT250 14/11 A2996 RMK AO2 SLP141 T01440111 58001","lat":39.7252,"lon":-86.2816,"elev":242,"name":"Indianapolis Intl, IN, US","cover":"SCT","clouds":[{"cover":"FEW","base":4800},{"cover":"SCT","base":25000}],"fltCat":"VFR"},{"icaoId":"KAPC","receiptTime":"2026-04-17T08:58:31.909Z","obsTime":1776416040,"reportTime":"2026-04-17T09:00:00.000Z","temp":12.2,"dewp":-4.4,"wdir":350,"wspd":6,"visib":"10+","altim":1017.4,"slp":1016.4,"qcField":6,"presTend":0.5,"metarType":"METAR","rawOb":"METAR KAPC 170854Z AUTO 35006KT 10SM CLR 12/M04 A3004 RMK AO2 SLP164 T01221044 51005","lat":38.2075,"lon":-122.2804,"elev":5,"name":"Napa Cnty Arpt, CA, US","cover":"CLR","clouds":[],"fltCat":"VFR"},{"icaoId":"KBFL","receiptTime":"2026-04-17T08:58:31.935Z","obsTime":1776416040,"reportTime":"2026-04-17T09:00:00.000Z","temp":11.1,"dewp":3.3,"wdir":0,"wspd":0,"visib":"10+","altim":1016.3,"slp":1015.8,"qcField":6,"presTend":0.8,"metarType":"METAR","rawOb":"METAR KBFL 170854Z AUTO 00000KT 10SM CLR 11/03 A3001 RMK AO2 SLP158 T01110033 51008","lat":35.4342,"lon":-119.0552,"elev":146,"name":"Bakersfield/Meadows Arpt, CA, US","cover":"CLR","clouds":[],"fltCat":"VFR"},{"icaoId":"KFFZ","receiptTime":"2026-04-17T08:58:24.748Z","obsTime":1776416040,"reportTime":"2026-04-17T09:00:00.000Z","temp":20.6,"dewp":-0.6,"wdir":0,"wspd":0,"visib":"10+","altim":1009.2,"slp":1006.9,"qcField":4,"presTend":0.7,"metarType":"METAR","rawOb":"METAR KFFZ 170854Z 00000KT 10SM CLR 21/M01 A2980 RMK AO2 SLP069 T02061006 50007","lat":33.4659,"lon":-111.7212,"elev":420,"name":"Mesa/Falcon Fld, AZ, US","cover":"CLR","clouds":[],"fltCat":"VFR"},{"icaoId":"KRKS","receiptTime":"2026-04-17T08:58:27.806Z","obsTime":1776416040,"reportTime":"2026-04-17T09:00:00.000Z","temp":-6.7,"dewp":-10.6,"wdir":250,"wspd":15,"visib":"10+","altim":1014.6,"slp":1014.8,"qcField":6,"presTend":-0.3,"metarType":"METAR","rawOb":"METAR KRKS 170854Z AUTO 25015KT 10SM BKN110 M07/M11 A2996 RMK AO2 SLP148 T10671106 58003","lat":41.5947,"lon":-109.0529,"elev":2062,"name":"Rock Springs/SW Wyoming Rgnl, WY, US","cover":"BKN","clouds":[{"cover":"BKN","base":11000}],"fltCat":"VFR"},{"icaoId":"KOLM","receiptTime":"2026-04-17T08:58:26.850Z","obsTime":1776416040,"reportTime":"2026-04-17T09:00:00.000Z","temp":5.6,"dewp":2.8,"wdir":200,"wspd":8,"visib":"10+","altim":1026.5,"slp":1026.6,"qcField":6,"presTend":0.2,"metarType":"METAR","rawOb":"METAR KOLM 170854Z AUTO 20008KT 10SM OVC049 06/03 A3031 RMK AO2 SLP266 T00560028 53002","lat":46.9737,"lon":-122.9049,"elev":58,"name":"Olympia Rgnl, WA, US","cover":"OVC","clouds":[{"cover":"OVC","base":4900}],"fltCat":"VFR"},{"icaoId":"KMEM","receiptTime":"2026-04-17T08:58:25.453Z","obsTime":1776416040,"reportTime":"2026-04-17T09:00:00.000Z","temp":20,"dewp":12.8,"wdir":150,"wspd":8,"visib":"10+","altim":1015,"slp":1014.4,"qcField":12,"presTend":-1.3,"metarType":"METAR","rawOb":"METAR KMEM 170854Z 15008KT 10SM BKN250 20/13 A2997 RMK AO2 SLP144 T02000128 56013 $","lat":35.0564,"lon":-89.9864,"elev":78,"name":"Memphis Intl, TN, US","cover":"BKN","clouds":[{"cover":"BKN","base":25000}],"fltCat":"VFR"},{"icaoId":"KBUF","receiptTime":"2026-04-17T08:58:40.157Z","obsTime":1776416040,"reportTime":"2026-04-17T09:00:00.000Z","temp":10.6,"dewp":10,"wdir":200,"wspd":4,"visib":5,"altim":1011.9,"slp":1012,"qcField":4,"wxString":"BR","presTend":1.2,"pcp3hr":0.03,"metarType":"METAR","rawOb":"METAR KBUF 170854Z 20004KT 5SM BR OVC002 11/10 A2988 RMK AO2 SLP120 60003 T01060100 53012","lat":42.94,"lon":-78.7361,"elev":217,"name":"Buffalo-Niagara Intl, NY, US","cover":"OVC","clouds":[{"cover":"OVC","base":200}],"fltCat":"LIFR"},{"icaoId":"KSYR","receiptTime":"2026-04-17T08:58:40.094Z","obsTime":1776416040,"reportTime":"2026-04-17T09:00:00.000Z","temp":14.4,"dewp":13.9,"wdir":300,"wspd":3,"visib":7,"altim":1009.9,"slp":1009.2,"qcField":12,"wxString":"-DZ","presTend":0.2,"precip":0.005,"pcp3hr":0.005,"metarType":"METAR","rawOb":"METAR KSYR 170854Z 30003KT 7SM -DZ BKN007 BKN027 OVC049 14/14 A2982 RMK AO2 DZB22 SLP092 P0000 60000 T01440139 53002 $","lat":43.1111,"lon":-76.1038,"elev":125,"name":"Syracuse/Hancock Intl, NY, US","cover":"OVC","clouds":[{"cover":"BKN","base":700},{"cover":"BKN","base":2700},{"cover":"OVC","base":4900}],"fltCat":"IFR"},{"icaoId":"KSJN","receiptTime":"2026-04-17T08:58:31.699Z","obsTime":1776416040,"reportTime":"2026-04-17T09:00:00.000Z","temp":11.1,"dewp":-11.1,"wdir":240,"wspd":7,"visib":"10+","altim":1013,"slp":1005.7,"qcField":6,"presTend":-0.4,"metarType":"METAR","rawOb":"METAR KSJN 170854Z AUTO 24007KT 10SM CLR 11/M11 A2991 RMK AO2 SLP057 T01111111 58004","lat":34.5184,"lon":-109.3801,"elev":1747,"name":"St Johns Ind Arpt, AZ, US","cover":"CLR","clouds":[],"fltCat":"VFR"},{"icaoId":"KRIC","receiptTime":"2026-04-17T08:58:40.020Z","obsTime":1776416040,"reportTime":"2026-04-17T09:00:00.000Z","temp":22.8,"dewp":11.7,"wdir":320,"wspd":5,"visib":"10+","altim":1011.3,"slp":1011.4,"qcField":4,"presTend":0.8,"metarType":"METAR","rawOb":"METAR KRIC 170854Z 32005KT 10SM FEW120 23/12 A2986 RMK AO2 SLP114 T02280117 53008","lat":37.5115,"lon":-77.3234,"elev":51,"name":"Richmond Intl, VA, US","cover":"FEW","clouds":[{"cover":"FEW","base":12000}],"fltCat":"VFR"},{"icaoId":"KTPA","receiptTime":"2026-04-17T08:56:23.092Z","obsTime":1776415980,"reportTime":"2026-04-17T09:00:00.000Z","temp":20.6,"dewp":16.1,"wdir":100,"wspd":3,"visib":"10+","altim":1017.7,"slp":1017.6,"qcField":4,"presTend":-0.3,"metarType":"METAR","rawOb":"METAR KTPA 170853Z 10003KT 10SM CLR 21/16 A3005 RMK AO2 SLP176 T02060161 55003","lat":27.9633,"lon":-82.54,"elev":2,"name":"Tampa Intl Arpt, FL, US","cover":"CLR","clouds":[],"fltCat":"VFR"},{"icaoId":"KSWO","receiptTime":"2026-04-17T08:58:25.464Z","obsTime":1776415980,"reportTime":"2026-04-17T09:00:00.000Z","temp":21.1,"dewp":17.8,"wdir":180,"wspd":12,"visib":"10+","altim":1007.9,"slp":1006.4,"qcField":6,"presTend":-0.8,"metarType":"METAR","rawOb":"METAR KSWO 170853Z AUTO 18012KT 10SM CLR 21/18 A2976 RMK AO2 SLP064 T02110178 56008","lat":36.1624,"lon":-97.0832,"elev":293,"name":"Stillwater Muni, OK, US","cover":"CLR","clouds":[],"fltCat":"VFR"},{"icaoId":"KBRO","receiptTime":"2026-04-17T08:56:24.031Z","obsTime":1776415980,"reportTime":"2026-04-17T09:00:00.000Z","temp":25.6,"dewp":22.8,"wdir":160,"wspd":13,"visib":"10+","altim":1010.9,"slp":1010.7,"qcField":6,"presTend":-2.5,"metarType":"METAR","rawOb":"METAR KBRO 170853Z AUTO 16013KT 10SM BKN011 OVC019 26/23 A2985 RMK AO2 SLP107 T02560228 58025","lat":25.9146,"lon":-97.4231,"elev":6,"name":"Brownsville Intl, TX, US","cover":"OVC","clouds":[{"cover":"BKN","base":1100},{"cover":"OVC","base":1900}],"fltCat":"MVFR"},{"icaoId":"KBOI","receiptTime":"2026-04-17T08:56:21.928Z","obsTime":1776415980,"reportTime":"2026-04-17T09:00:00.000Z","temp":-0.6,"dewp":-4.4,"wdir":130,"wspd":7,"visib":"10+","altim":1023.1,"slp":1024.4,"qcField":4,"presTend":0.2,"metarType":"METAR","rawOb":"METAR KBOI 170853Z 13007KT 10SM CLR M01/M04 A3021 RMK AO2 SLP244 T10061044 52002","lat":43.567,"lon":-116.2406,"elev":860,"name":"Boise Arpt, ID, US","cover":"CLR","clouds":[],"fltCat":"VFR"},{"icaoId":"KAMA","receiptTime":"2026-04-17T08:56:27.617Z","obsTime":1776415980,"reportTime":"2026-04-17T09:00:00.000Z","temp":17.8,"dewp":12.2,"wdir":200,"wspd":16,"visib":"10+","altim":1008.9,"slp":1003.5,"qcField":4,"presTend":-0.8,"metarType":"METAR","rawOb":"METAR KAMA 170853Z 20016KT 10SM CLR 18/12 A2979 RMK AO2 SLP035 T01780122 58008","lat":35.2203,"lon":-101.7173,"elev":1102,"name":"Amarillo Intl Arpt, TX, US","cover":"CLR","clouds":[],"fltCat":"VFR"},{"icaoId":"KPRC","receiptTime":"2026-04-17T08:56:18.923Z","obsTime":1776415980,"reportTime":"2026-04-17T09:00:00.000Z","temp":10.6,"dewp":-6.7,"wdir":200,"wspd":6,"visib":"10+","altim":1013.6,"slp":1007.7,"qcField":6,"presTend":0.5,"metarType":"METAR","rawOb":"METAR KPRC 170853Z AUTO 20006KT 10SM CLR 11/M07 A2993 RMK AO2 SLP077 T01061067 50005","lat":34.6491,"lon":-112.4223,"elev":1528,"name":"Prescott/Love Fld, AZ, US","cover":"CLR","clouds":[],"fltCat":"VFR"},{"icaoId":"KPSC","receiptTime":"2026-04-17T08:56:18.935Z","obsTime":1776415980,"reportTime":"2026-04-17T09:00:00.000Z","temp":1.1,"dewp":-2.8,"wdir":0,"wspd":0,"visib":"10+","altim":1024.1,"slp":1024.1,"qcField":6,"presTend":1,"metarType":"METAR","rawOb":"METAR KPSC 170853Z AUTO 00000KT 10SM CLR 01/M03 A3024 RMK AO2 SLP241 T00111028 51010","lat":46.2695,"lon":-119.1182,"elev":121,"name":"Pasco/Tri Cities Arpt, WA, US","cover":"CLR","clouds":[],"fltCat":"VFR"},{"icaoId":"KPUB","receiptTime":"2026-04-17T08:56:17.997Z","obsTime":1776415980,"reportTime":"2026-04-17T09:00:00.000Z","temp":7.8,"dewp":-12.2,"wdir":360,"wspd":8,"visib":"10+","altim":1003.8,"slp":998.9,"qcField":14,"presTend":-0.6,"metarType":"METAR","rawOb":"METAR KPUB 170853Z AUTO 36008KT 10SM CLR 08/M12 A2964 RMK AO2 SLP989 T00781122 58006 $","lat":38.2887,"lon":-104.5057,"elev":1441,"name":"Pueblo Mem Arpt, CO, US","cover":"CLR","clouds":[],"fltCat":"VFR"},{"icaoId":"KRDD","receiptTime":"2026-04-17T08:56:18.981Z","obsTime":1776415980,"reportTime":"2026-04-17T09:00:00.000Z","temp":8.3,"dewp":-2.2,"wdir":10,"wspd":6,"visib":"10+","altim":1022.1,"slp":1021.7,"qcField":6,"presTend":0.4,"metarType":"METAR","rawOb":"METAR KRDD 170853Z AUTO 01006KT 10SM CLR 08/M02 A3018 RMK AO2 SLP217 T00831022 53004","lat":40.5146,"lon":-122.2977,"elev":152,"name":"Redding Muni, CA, US","cover":"CLR","clouds":[],"fltCat":"VFR"},{"icaoId":"KRTN","receiptTime":"2026-04-17T08:56:18.201Z","obsTime":1776415980,"reportTime":"2026-04-17T09:00:00.000Z","temp":8.3,"dewp":-15.6,"wdir":260,"wspd":12,"visib":"10+","altim":1009.6,"slp":1002.1,"qcField":6,"presTend":-0.7,"metarType":"METAR","rawOb":"METAR KRTN 170853Z AUTO 26012KT 10SM CLR 08/M16 A2981 RMK AO2 SLP021 T00831156 58007","lat":36.7418,"lon":-104.5076,"elev":1939,"name":"Raton/Crews Fld, NM, US","cover":"CLR","clouds":[],"fltCat":"VFR"},{"icaoId":"KTUL","receiptTime":"2026-04-17T08:56:23.115Z","obsTime":1776415980,"reportTime":"2026-04-17T09:00:00.000Z","temp":22.2,"dewp":18.3,"wdir":180,"wspd":12,"visib":"10+","altim":1009.2,"slp":1008.3,"qcField":4,"presTend":-0.9,"metarType":"METAR","rawOb":"METAR KTUL 170853Z 18012KT 10SM FEW100 SCT150 SCT250 22/18 A2980 RMK AO2 SLP083 T02220183 56009","lat":36.1985,"lon":-95.8782,"elev":196,"name":"Tulsa Intl Arpt, OK, US","cover":"SCT","clouds":[{"cover":"FEW","base":10000},{"cover":"SCT","base":15000},{"cover":"SCT","base":25000}],"fltCat":"VFR"},{"icaoId":"KTUS","receiptTime":"2026-04-17T08:56:19.643Z","obsTime":1776415980,"reportTime":"2026-04-17T09:00:00.000Z","temp":17.2,"dewp":-7.8,"wdir":0,"wspd":0,"visib":"10+","altim":1011.9,"slp":1007.9,"qcField":12,"metarType":"METAR","rawOb":"METAR KTUS 170853Z 00000KT 10SM CLR 17/M08 A2988 RMK AO2 SLP079 T01721078 58000 $","lat":32.1315,"lon":-110.9564,"elev":776,"name":"Tucson Intl Arpt, AZ, US","cover":"CLR","clouds":[],"fltCat":"VFR"},{"icaoId":"KTWF","receiptTime":"2026-04-17T08:56:22.753Z","obsTime":1776415980,"reportTime":"2026-04-17T09:00:00.000Z","temp":-2.8,"dewp":-6.1,"wdir":210,"wspd":10,"visib":"10+","altim":1021.4,"slp":1022.2,"qcField":6,"presTend":0.1,"metarType":"METAR","rawOb":"METAR KTWF 170853Z AUTO 21010KT 10SM CLR M03/M06 A3016 RMK AO2 SLP222 T10281061 50001","lat":42.4785,"lon":-114.4775,"elev":1269,"name":"Twin Falls/Joslin Fld, ID, US","cover":"CLR","clouds":[],"fltCat":"VFR"},{"icaoId":"KPGA","receiptTime":"2026-04-17T08:56:26.025Z","obsTime":1776415980,"reportTime":"2026-04-17T09:00:00.000Z","temp":8.9,"dewp":-5,"wdir":300,"wspd":11,"wgst":22,"visib":"10+","altim":1011.3,"slp":1006.8,"qcField":14,"presTend":2.8,"metarType":"METAR","rawOb":"METAR KPGA 170853Z AUTO 30011G22KT 10SM CLR 09/M05 A2986 RMK AO2 SLP068 T00891050 53028 $","lat":36.9211,"lon":-111.4487,"elev":1310,"name":"Page Muni, AZ, US","cover":"CLR","clouds":[],"fltCat":"VFR"},{"icaoId":"KSAF","receiptTime":"2026-04-17T08:56:23.540Z","obsTime":1776415980,"reportTime":"2026-04-17T09:00:00.000Z","temp":7.8,"dewp":-16.1,"wdir":0,"wspd":0,"visib":"10+","altim":1012.6,"slp":1004.9,"qcField":6,"presTend":-0.6,"metarType":"METAR","rawOb":"METAR KSAF 170853Z AUTO 00000KT 10SM CLR 08/M16 A2990 RMK AO2 SLP049 T00781161 56006","lat":35.611,"lon":-106.0957,"elev":1918,"name":"Santa Fe Cnty Muni, NM, US","cover":"CLR","clouds":[],"fltCat":"VFR"},{"icaoId":"KSBA","receiptTime":"2026-04-17T08:56:20.479Z","obsTime":1776415980,"reportTime":"2026-04-17T09:00:00.000Z","temp":11.1,"dewp":10.6,"wdir":0,"wspd":0,"visib":9,"altim":1012.6,"slp":1012.3,"qcField":14,"presTend":0.3,"metarType":"METAR","rawOb":"METAR KSBA 170853Z AUTO 00000KT 9SM CLR 11/11 A2990 RMK AO2 SLP123 T01110106 51003 $","lat":34.4241,"lon":-119.8425,"elev":2,"name":"Santa Barbara Muni, CA, US","cover":"CLR","clouds":[],"fltCat":"VFR"},{"icaoId":"KSHR","receiptTime":"2026-04-17T08:56:20.580Z","obsTime":1776415980,"reportTime":"2026-04-17T09:00:00.000Z","temp":-2.8,"dewp":-4.4,"wdir":280,"wspd":7,"visib":"10+","altim":1014,"slp":1017.1,"qcField":6,"presTend":-0.3,"metarType":"METAR","rawOb":"METAR KSHR 170853Z AUTO 28007KT 10SM OVC100 M03/M04 A2994 RMK AO2 SLP171 T10281044 56003","lat":44.7603,"lon":-106.9741,"elev":1212,"name":"Sheridan Cnty Arpt, WY, US","cover":"OVC","clouds":[{"cover":"OVC","base":10000}],"fltCat":"VFR"},{"icaoId":"KSJC","receiptTime":"2026-04-17T08:56:20.603Z","obsTime":1776415980,"reportTime":"2026-04-17T09:00:00.000Z","temp":12.8,"dewp":-0.6,"wdir":330,"wspd":7,"visib":"10+","altim":1016.7,"slp":1016.5,"qcField":6,"presTend":-0.4,"metarType":"METAR","rawOb":"METAR KSJC 170853Z AUTO 33007KT 10SM CLR 13/M01 A3002 RMK AO2 SLP165 T01281006 58004","lat":37.3594,"lon":-121.9244,"elev":13,"name":"San Jose Intl Arpt, CA, US","cover":"CLR","clouds":[],"fltCat":"VFR"},{"icaoId":"KSNA","receiptTime":"2026-04-17T08:56:20.647Z","obsTime":1776415980,"reportTime":"2026-04-17T09:00:00.000Z","temp":15.6,"dewp":12.2,"wdir":150,"wspd":5,"visib":"10+","altim":1013.3,"slp":1013,"qcField":6,"presTend":0.3,"metarType":"METAR","rawOb":"METAR KSNA 170853Z AUTO 15005KT 10SM CLR 16/12 A2992 RMK AO2 SLP130 T01560122 51003","lat":33.6798,"lon":-117.8675,"elev":14,"name":"Santa Ana/Wayne Arpt, CA, US","cover":"CLR","clouds":[],"fltCat":"VFR"},{"icaoId":"KLGB","receiptTime":"2026-04-17T08:56:24.144Z","obsTime":1776415980,"reportTime":"2026-04-17T09:00:00.000Z","temp":15,"dewp":12.8,"wdir":100,"wspd":4,"visib":"10+","altim":1013,"slp":1012.8,"qcField":4,"presTend":0.5,"metarType":"METAR","rawOb":"METAR KLGB 170853Z 10004KT 10SM CLR 15/13 A2991 RMK AO2 SLP128 T01500128 50005","lat":33.8118,"lon":-118.1472,"elev":10,"name":"Long Beach Arpt, CA, US","cover":"CLR","clouds":[],"fltCat":"VFR"},{"icaoId":"KMCO","receiptTime":"2026-04-17T08:56:24.912Z","obsTime":1776415980,"reportTime":"2026-04-17T09:00:00.000Z","temp":17.8,"dewp":16.1,"wdir":0,"wspd":0,"visib":"10+","altim":1018.4,"slp":1018,"qcField":4,"presTend":-0.6,"metarType":"METAR","rawOb":"METAR KMCO 170853Z 00000KT 10SM CLR 18/16 A3007 RMK AO2 SLP180 T01780161 55006","lat":28.4182,"lon":-81.3241,"elev":27,"name":"Orlando Intl, FL, US","cover":"CLR","clouds":[],"fltCat":"VFR"},{"icaoId":"KMLS","receiptTime":"2026-04-17T08:56:25.134Z","obsTime":1776415980,"reportTime":"2026-04-17T09:00:00.000Z","temp":-1.1,"dewp":-6.7,"wdir":310,"wspd":10,"visib":"10+","altim":1013.6,"slp":1015.4,"qcField":6,"presTend":-0.4,"metarType":"METAR","rawOb":"METAR KMLS 170853Z AUTO 31010KT 10SM BKN060 OVC075 M01/M07 A2993 RMK AO2 SLP154 T10111067 55004","lat":46.4265,"lon":-105.8834,"elev":800,"name":"Miles City/Wiley Fld, MT, US","cover":"OVC","clouds":[{"cover":"BKN","base":6000},{"cover":"OVC","base":7500}],"fltCat":"VFR"},{"icaoId":"KHIO","receiptTime":"2026-04-17T08:56:21.247Z","obsTime":1776415980,"reportTime":"2026-04-17T09:00:00.000Z","temp":3.9,"dewp":2.2,"wdir":0,"wspd":0,"visib":"10+","altim":1027.5,"slp":1027.4,"qcField":6,"presTend":0.3,"metarType":"METAR","rawOb":"METAR KHIO 170853Z AUTO 00000KT 10SM CLR 04/02 A3034 RMK AO2 SLP274 T00390022 52003","lat":45.5476,"lon":-122.9557,"elev":62,"name":"Portland/Hillsboro Arpt, OR, US","cover":"CLR","clouds":[],"fltCat":"VFR"},{"icaoId":"KHOU","receiptTime":"2026-04-17T08:56:23.319Z","obsTime":1776415980,"reportTime":"2026-04-17T09:00:00.000Z","temp":21.1,"dewp":20,"wdir":170,"wspd":5,"visib":8,"altim":1013.3,"slp":1013.5,"qcField":12,"presTend":-2,"metarType":"METAR","rawOb":"METAR KHOU 170853Z 17005KT 8SM CLR 21/20 A2992 RMK AO2 SLP135 T02110200 56020 $","lat":29.6458,"lon":-95.2821,"elev":13,"name":"Houston/Hobby Arpt, TX, US","cover":"CLR","clouds":[],"fltCat":"VFR"},{"icaoId":"KMSY","receiptTime":"2026-04-17T08:56:27.253Z","obsTime":1776415980,"reportTime":"2026-04-17T09:00:00.000Z","temp":20,"dewp":18.3,"wdir":150,"wspd":3,"visib":"10+","altim":1016.3,"slp":1016.4,"qcField":4,"presTend":-1.3,"metarType":"METAR","rawOb":"METAR KMSY 170853Z 15003KT 10SM FEW015 20/18 A3001 RMK AO2 SLP164 T02000183 56013","lat":29.9974,"lon":-90.2777,"elev":0,"name":"New Orleans/Armstrong Intl, LA, US","cover":"FEW","clouds":[{"cover":"FEW","base":1500}],"fltCat":"VFR"},{"icaoId":"KMTJ","receiptTime":"2026-04-17T08:56:27.279Z","obsTime":1776415980,"reportTime":"2026-04-17T09:00:00.000Z","temp":5,"dewp":-5.6,"wdir":330,"wspd":12,"wgst":20,"visib":"10+","altim":1011.3,"slp":1006,"qcField":6,"presTend":2.3,"metarType":"METAR","rawOb":"METAR KMTJ 170853Z AUTO 33012G20KT 10SM CLR 05/M06 A2986 RMK AO2 SLP060 T00501056 53023","lat":38.5054,"lon":-107.8981,"elev":1755,"name":"Montrose Rgnl, CO, US","cover":"CLR","clouds":[],"fltCat":"VFR"},{"icaoId":"KMYF","receiptTime":"2026-04-17T08:56:27.327Z","obsTime":1776415980,"reportTime":"2026-04-17T09:00:00.000Z","temp":14.4,"dewp":10.6,"wdir":110,"wspd":4,"visib":"10+","altim":1014,"slp":1013.5,"qcField":6,"metarType":"METAR","rawOb":"METAR KMYF 170853Z AUTO 11004KT 10SM OVC024 14/11 A2994 RMK AO2 SLP135 T01440106 50000","lat":32.8145,"lon":-117.1375,"elev":128,"name":"San Diego/Montgomery Arpt, CA, US","cover":"OVC","clouds":[{"cover":"OVC","base":2400}],"fltCat":"MVFR"},{"icaoId":"KOAK","receiptTime":"2026-04-17T08:56:27.359Z","obsTime":1776415980,"reportTime":"2026-04-17T09:00:00.000Z","temp":14.4,"dewp":-4.4,"wdir":310,"wspd":7,"visib":"10+","altim":1017.4,"slp":1017.1,"qcField":12,"presTend":-0.3,"metarType":"METAR","rawOb":"METAR KOAK 170853Z 31007KT 10SM CLR 14/M04 A3004 RMK AO2 SLP171 T01441044 56003 $","lat":37.7178,"lon":-122.233,"elev":3,"name":"Oakland Intl, CA, US","cover":"CLR","clouds":[],"fltCat":"VFR"},{"icaoId":"KOGD","receiptTime":"2026-04-17T08:56:27.394Z","obsTime":1776415980,"reportTime":"2026-04-17T09:00:00.000Z","temp":-1.7,"dewp":-7.8,"wdir":310,"wspd":3,"visib":"10+","altim":1019.7,"slp":1020.6,"qcField":6,"presTend":0.5,"metarType":"METAR","rawOb":"METAR KOGD 170853Z AUTO 31003KT 10SM CLR M02/M08 A3011 RMK AO2 SLP206 T10171078 50005","lat":41.1941,"lon":-112.0168,"elev":1356,"name":"Ogden/Hinckley Arpt, UT, US","cover":"CLR","clouds":[],"fltCat":"VFR"},{"icaoId":"KONT","receiptTime":"2026-04-17T08:56:27.450Z","obsTime":1776415980,"reportTime":"2026-04-17T09:00:00.000Z","temp":13.3,"dewp":11.7,"wdir":0,"wspd":0,"visib":"10+","altim":1013.6,"slp":1012.6,"qcField":12,"presTend":0.6,"metarType":"METAR","rawOb":"METAR KONT 170853Z 00000KT 10SM FEW010 13/12 A2993 RMK AO2 SLP126 T01330117 51006 $","lat":34.0531,"lon":-117.5769,"elev":279,"name":"Ontario Intl, CA, US","cover":"FEW","clouds":[{"cover":"FEW","base":1000}],"fltCat":"VFR"},{"icaoId":"KLAR","receiptTime":"2026-04-17T08:56:19.341Z","obsTime":1776415980,"reportTime":"2026-04-17T09:00:00.000Z","temp":-2.8,"dewp":-11.1,"wdir":330,"wspd":14,"wgst":30,"visib":"10+","altim":1009.9,"slp":1004.8,"qcField":6,"presTend":0.3,"metarType":"METAR","rawOb":"METAR KLAR 170853Z AUTO 33014G30KT 10SM OVC036 M03/M11 A2982 RMK AO2 PK WND 34033/0759 SLP048 T10281111 50003","lat":41.3165,"lon":-105.6729,"elev":2217,"name":"Laramie Rgnl, WY, US","cover":"OVC","clouds":[{"cover":"OVC","base":3600}],"fltCat":"VFR"},{"icaoId":"KLAW","receiptTime":"2026-04-17T08:56:23.373Z","obsTime":1776415980,"reportTime":"2026-04-17T09:00:00.000Z","temp":20,"dewp":17.8,"wdir":150,"wspd":9,"visib":"10+","altim":1008.5,"slp":1007,"qcField":6,"presTend":-1.2,"metarType":"METAR","rawOb":"METAR KLAW 170853Z AUTO 15009KT 10SM CLR 20/18 A2978 RMK AO2 SLP070 T02000178 56012","lat":34.5577,"lon":-98.4172,"elev":328,"name":"Lawton-Fort Sill Rgnl, OK, US","cover":"CLR","clouds":[],"fltCat":"VFR"},{"icaoId":"KBTM","receiptTime":"2026-04-17T08:56:20.211Z","obsTime":1776415980,"reportTime":"2026-04-17T09:00:00.000Z","temp":-3.9,"dewp":-8.9,"wdir":0,"wspd":0,"visib":"10+","altim":1016.7,"slp":1020,"qcField":6,"presTend":0.3,"metarType":"METAR","rawOb":"METAR KBTM 170853Z AUTO 00000KT 10SM SCT060 M04/M09 A3002 RMK AO2 SLP200 T10391089 50003","lat":45.9644,"lon":-112.5015,"elev":1680,"name":"Butte/Mooney Arpt, MT, US","cover":"SCT","clouds":[{"cover":"SCT","base":6000}],"fltCat":"VFR"},{"icaoId":"KGTF","receiptTime":"2026-04-17T08:56:21.059Z","obsTime":1776415980,"reportTime":"2026-04-17T09:00:00.000Z","temp":-5,"dewp":-5.6,"wdir":210,"wspd":5,"visib":"10+","altim":1015.3,"slp":1019.8,"qcField":4,"presTend":-1,"precip":0.005,"pcp3hr":0.005,"metarType":"METAR","rawOb":"METAR KGTF 170853Z 21005KT 10SM FEW055 SCT070 M05/M06 A2998 RMK AO2 SNB31E46 SLP198 P0000 60000 T10501056 58010","lat":47.4733,"lon":-111.3828,"elev":1117,"name":"Great Falls Intl, MT, US","cover":"SCT","clouds":[{"cover":"FEW","base":5500},{"cover":"SCT","base":7000}],"fltCat":"VFR"},{"icaoId":"KBCE","receiptTime":"2026-04-17T08:56:27.867Z","obsTime":1776415980,"reportTime":"2026-04-17T09:00:00.000Z","temp":-5.6,"dewp":-7.8,"wdir":310,"wspd":15,"wgst":23,"visib":"10+","altim":1015,"slp":1009.2,"qcField":6,"presTend":0.2,"precip":0.005,"pcp3hr":0.005,"metarType":"METAR","rawOb":"METAR KBCE 170853Z AUTO 31015G23KT 10SM FEW070 SCT100 M06/M08 A2997 RMK AO2 PK WND 32030/0817 SNE0758 SLP092 P0000 60000 T10561078 52002","lat":37.7013,"lon":-112.149,"elev":2311,"name":"Bryce Canyon Arpt, UT, US","cover":"SCT","clouds":[{"cover":"FEW","base":7000},{"cover":"SCT","base":10000}],"fltCat":"VFR"},{"icaoId":"KBFI","receiptTime":"2026-04-17T08:56:19.962Z","obsTime":1776415980,"reportTime":"2026-04-17T09:00:00.000Z","temp":7.2,"dewp":2.8,"wdir":150,"wspd":7,"visib":"10+","altim":1026.5,"slp":1026.5,"qcField":12,"presTend":1,"metarType":"METAR","rawOb":"METAR KBFI 170853Z 15007KT 10SM BKN024 BKN049 BKN065 07/03 A3031 RMK AO2 SLP265 T00720028 51010 $","lat":47.5455,"lon":-122.3148,"elev":7,"name":"Seattle/Boeing Fld, WA, US","cover":"BKN","clouds":[{"cover":"BKN","base":2400},{"cover":"BKN","base":4900},{"cover":"BKN","base":6500}],"fltCat":"MVFR"},{"icaoId":"KBHM","receiptTime":"2026-04-17T08:56:23.962Z","obsTime":1776415980,"reportTime":"2026-04-17T09:00:00.000Z","temp":15.6,"dewp":11.7,"wdir":0,"wspd":0,"visib":"10+","altim":1018,"slp":1017.3,"qcField":4,"presTend":-0.7,"metarType":"METAR","rawOb":"METAR KBHM 170853Z 00000KT 10SM CLR 16/12 A3006 RMK AO2 SLP173 T01560117 58007","lat":33.5655,"lon":-86.7449,"elev":191,"name":"Birmingham Intl, AL, US","cover":"CLR","clouds":[],"fltCat":"VFR"},{"icaoId":"KBIL","receiptTime":"2026-04-17T08:56:26.936Z","obsTime":1776415980,"reportTime":"2026-04-17T09:00:00.000Z","temp":-2.8,"dewp":-7.8,"wdir":310,"wspd":15,"visib":"10+","altim":1014.6,"slp":1016.9,"qcField":4,"presTend":0.4,"metarType":"METAR","rawOb":"METAR KBIL 170853Z 31015KT 10SM FEW080 M03/M08 A2996 RMK AO2 SLP169 T10281078 51004","lat":45.8072,"lon":-108.5462,"elev":1089,"name":"Billings/Logan Intl, MT, US","cover":"FEW","clouds":[{"cover":"FEW","base":8000}],"fltCat":"VFR"},{"icaoId":"KBNA","receiptTime":"2026-04-17T08:56:23.984Z","obsTime":1776415980,"reportTime":"2026-04-17T09:00:00.000Z","temp":15,"dewp":13.9,"wdir":190,"wspd":5,"visib":"10+","altim":1017,"slp":1016.2,"qcField":4,"presTend":-0.7,"metarType":"METAR","rawOb":"METAR KBNA 170853Z 19005KT 10SM FEW055 SCT090 BKN130 15/14 A3003 RMK AO2 SLP162 T01500139 55007","lat":36.1105,"lon":-86.6881,"elev":168,"name":"Nashville Intl, TN, US","cover":"BKN","clouds":[{"cover":"FEW","base":5500},{"cover":"SCT","base":9000},{"cover":"BKN","base":13000}],"fltCat":"VFR"},{"icaoId":"KCNY","receiptTime":"2026-04-17T08:56:25.568Z","obsTime":1776415980,"reportTime":"2026-04-17T09:00:00.000Z","temp":5,"dewp":-10.6,"wdir":270,"wspd":14,"visib":"10+","altim":1013.3,"slp":1010.1,"qcField":14,"presTend":3.1,"metarType":"METAR","rawOb":"METAR KCNY 170853Z AUTO 27014KT 10SM FEW055 OVC090 05/M11 A2992 RMK AO2 SLP101 T00501106 51031 $","lat":38.7501,"lon":-109.7627,"elev":1392,"name":"Moab/Canyonland Fld, UT, US","cover":"OVC","clouds":[{"cover":"FEW","base":5500},{"cover":"OVC","base":9000}],"fltCat":"VFR"},{"icaoId":"KDFW","receiptTime":"2026-04-17T08:56:28.792Z","obsTime":1776415980,"reportTime":"2026-04-17T09:00:00.000Z","temp":21.7,"dewp":17.8,"wdir":180,"wspd":12,"visib":"10+","altim":1010.6,"slp":1009.6,"qcField":12,"presTend":-0.6,"metarType":"METAR","rawOb":"METAR KDFW 170853Z 18012KT 10SM FEW250 22/18 A2984 RMK AO2 SLP096 T02170178 55006 $","lat":32.8974,"lon":-97.022,"elev":168,"name":"Dallas-Ft Worth Intl, TX, US","cover":"FEW","clouds":[{"cover":"FEW","base":25000}],"fltCat":"VFR"},{"icaoId":"KBLI","receiptTime":"2026-04-17T08:56:20.070Z","obsTime":1776415980,"reportTime":"2026-04-17T09:00:00.000Z","temp":6.1,"dewp":2.2,"wdir":150,"wspd":5,"visib":"10+","altim":1025.5,"slp":1026,"qcField":6,"presTend":0.6,"metarType":"METAR","rawOb":"METAR KBLI 170853Z AUTO 15005KT 10SM SCT070 BKN095 06/02 A3028 RMK AO2 SLP260 T00610022 51006","lat":48.7991,"lon":-122.5407,"elev":46,"name":"Bellingham Intl, WA, US","cover":"BKN","clouds":[{"cover":"SCT","base":7000},{"cover":"BKN","base":9500}],"fltCat":"VFR"},{"icaoId":"KBUR","receiptTime":"2026-04-17T08:56:20.221Z","obsTime":1776415980,"reportTime":"2026-04-17T09:00:00.000Z","temp":14.4,"dewp":8.9,"wdir":100,"wspd":3,"visib":"10+","altim":1013.3,"slp":1012.2,"qcField":4,"presTend":0.7,"metarType":"METAR","rawOb":"METAR KBUR 170853Z 10003KT 10SM CLR 14/09 A2992 RMK AO2 SLP122 T01440089 51007","lat":34.1996,"lon":-118.3654,"elev":221,"name":"Burbank/Bob Hope Arpt, CA, US","cover":"CLR","clouds":[],"fltCat":"VFR"},{"icaoId":"KSDL","receiptTime":"2026-04-17T08:56:20.504Z","obsTime":1776415980,"reportTime":"2026-04-17T09:00:00.000Z","temp":20.6,"dewp":-1.1,"wdir":0,"wspd":0,"visib":"10+","altim":1009.6,"slp":1007.3,"qcField":6,"presTend":0.4,"metarType":"METAR","rawOb":"METAR KSDL 170853Z AUTO 00000KT 10SM CLR 21/M01 A2981 RMK AO2 SLP073 T02061011 53004","lat":33.6123,"lon":-111.9232,"elev":438,"name":"Scottsdale Muni, AZ, US","cover":"CLR","clouds":[],"fltCat":"VFR"},{"icaoId":"KSMF","receiptTime":"2026-04-17T08:56:20.625Z","obsTime":1776415980,"reportTime":"2026-04-17T09:00:00.000Z","temp":11.7,"dewp":-4.4,"wdir":340,"wspd":14,"wgst":24,"visib":"10+","altim":1017,"slp":1016.9,"qcField":4,"presTend":0.5,"metarType":"METAR","rawOb":"METAR KSMF 170853Z 34014G24KT 10SM CLR 12/M04 A3003 RMK AO2 SLP169 T01171044 53005","lat":38.7007,"lon":-121.5948,"elev":7,"name":"Sacramento Intl, CA, US","cover":"CLR","clouds":[],"fltCat":"VFR"},{"icaoId":"KSTS","receiptTime":"2026-04-17T08:56:20.759Z","obsTime":1776415980,"reportTime":"2026-04-17T09:00:00.000Z","temp":11.1,"dewp":-1.7,"wdir":"VRB","wspd":5,"visib":"10+","altim":1018,"slp":1017.3,"qcField":6,"presTend":-0.4,"metarType":"METAR","rawOb":"METAR KSTS 170853Z AUTO VRB05KT 10SM CLR 11/M02 A3006 RMK AO2 SLP173 T01111017 58004","lat":38.5037,"lon":-122.811,"elev":35,"name":"Santa Rosa/Schulz Arpt, CA, US","cover":"CLR","clouds":[],"fltCat":"VFR"},{"icaoId":"KHLN","receiptTime":"2026-04-17T08:56:21.330Z","obsTime":1776415980,"reportTime":"2026-04-17T09:00:00.000Z","temp":0.6,"dewp":-7.2,"wdir":260,"wspd":12,"wgst":19,"visib":"10+","altim":1016,"slp":1019.2,"qcField":6,"metarType":"METAR","rawOb":"METAR KHLN 170853Z AUTO 26012G19KT 10SM BKN110 01/M07 A3000 RMK AO2 SLP192 T00061072 50000","lat":46.6045,"lon":-111.9892,"elev":1178,"name":"Helena Rgnl, MT, US","cover":"BKN","clouds":[{"cover":"BKN","base":11000}],"fltCat":"VFR"},{"icaoId":"KDLN","receiptTime":"2026-04-17T08:56:22.303Z","obsTime":1776415980,"reportTime":"2026-04-17T09:00:00.000Z","temp":-3.9,"dewp":-8.3,"wdir":210,"wspd":10,"visib":"10+","altim":1017,"slp":1020.8,"qcField":6,"presTend":0.6,"metarType":"METAR","rawOb":"METAR KDLN 170853Z AUTO 21010KT 10SM BKN070 BKN080 M04/M08 A3003 RMK AO2 SLP208 T10391083 53006","lat":45.2584,"lon":-112.5546,"elev":1586,"name":"Dillon Arpt, MT, US","cover":"BKN","clouds":[{"cover":"BKN","base":7000},{"cover":"BKN","base":8000}],"fltCat":"VFR"},{"icaoId":"KMAF","receiptTime":"2026-04-17T08:56:27.168Z","obsTime":1776415980,"reportTime":"2026-04-17T09:00:00.000Z","temp":21.7,"dewp":16.1,"wdir":180,"wspd":14,"visib":9,"altim":1009.6,"slp":1004.7,"qcField":6,"presTend":-1.5,"metarType":"METAR","rawOb":"METAR KMAF 170853Z AUTO 18014KT 9SM CLR 22/16 A2981 RMK AO2 SLP047 T02170161 56015","lat":31.9475,"lon":-102.2086,"elev":874,"name":"Midland Intl, TX, US","cover":"CLR","clouds":[],"fltCat":"VFR"},{"icaoId":"KMSO","receiptTime":"2026-04-17T08:56:25.964Z","obsTime":1776415980,"reportTime":"2026-04-17T09:00:00.000Z","temp":0.6,"dewp":-4.4,"wdir":0,"wspd":0,"visib":"10+","altim":1018.7,"slp":1020.9,"qcField":6,"presTend":-0.1,"metarType":"METAR","rawOb":"METAR KMSO 170853Z AUTO 00000KT 10SM FEW048 BKN100 01/M04 A3008 RMK AO2 SLP209 T00061044 58001","lat":46.9208,"lon":-114.0938,"elev":974,"name":"Missoula Intl, MT, US","cover":"BKN","clouds":[{"cover":"FEW","base":4800},{"cover":"BKN","base":10000}],"fltCat":"VFR"},{"icaoId":"KMSP","receiptTime":"2026-04-17T08:56:27.228Z","obsTime":1776415980,"reportTime":"2026-04-17T09:00:00.000Z","temp":17.8,"dewp":8.3,"wdir":150,"wspd":11,"visib":"10+","altim":1003.8,"slp":1003.2,"qcField":4,"presTend":-1.6,"metarType":"METAR","rawOb":"METAR KMSP 170853Z 15011KT 10SM FEW250 18/08 A2964 RMK AO2 SLP032 T01780083 57016","lat":44.8852,"lon":-93.2313,"elev":255,"name":"Minneapolis-St Paul Intl, MN, US","cover":"FEW","clouds":[{"cover":"FEW","base":25000}],"fltCat":"VFR"},{"icaoId":"KGJT","receiptTime":"2026-04-17T08:56:20.895Z","obsTime":1776415980,"reportTime":"2026-04-17T09:00:00.000Z","temp":4.4,"dewp":-4.4,"wdir":270,"wspd":15,"visib":"10+","altim":1012.6,"slp":1008.9,"qcField":6,"presTend":4.4,"metarType":"METAR","rawOb":"METAR KGJT 170853Z AUTO 27015KT 10SM FEW070 OVC100 04/M04 A2990 RMK AO2 SLP089 T00441044 51044","lat":39.1344,"lon":-108.5408,"elev":1475,"name":"Grand Junction Rgnl, CO, US","cover":"OVC","clouds":[{"cover":"FEW","base":7000},{"cover":"OVC","base":10000}],"fltCat":"VFR"},{"icaoId":"KDEN","receiptTime":"2026-04-17T08:56:22.206Z","obsTime":1776415980,"reportTime":"2026-04-17T09:00:00.000Z","temp":1.7,"dewp":-3.3,"wdir":50,"wspd":16,"wgst":26,"visib":"10+","altim":1008.5,"slp":1003.4,"qcField":12,"presTend":2.3,"metarType":"METAR","rawOb":"METAR KDEN 170853Z 05016G26KT 10SM SCT250 02/M03 A2978 RMK AO2 PK WND 06030/0754 SLP034 T00171033 53023 $","lat":39.8466,"lon":-104.6562,"elev":1656,"name":"Denver Intl, CO, US","cover":"SCT","clouds":[{"cover":"SCT","base":25000}],"fltCat":"VFR"},{"icaoId":"KACV","receiptTime":"2026-04-17T08:56:27.498Z","obsTime":1776415980,"reportTime":"2026-04-17T09:00:00.000Z","temp":3.9,"dewp":3.3,"wdir":80,"wspd":4,"visib":"10+","altim":1023.1,"slp":1023.8,"qcField":6,"presTend":-0.1,"metarType":"METAR","rawOb":"METAR KACV 170853Z AUTO 08004KT 10SM CLR 04/03 A3021 RMK AO2 SLP238 T00390033 56001","lat":40.9784,"lon":-124.1048,"elev":63,"name":"Arcata Arpt, CA, US","cover":"CLR","clouds":[],"fltCat":"VFR"},{"icaoId":"KIDA","receiptTime":"2026-04-17T08:56:19.210Z","obsTime":1776415980,"reportTime":"2026-04-17T09:00:00.000Z","temp":-3.9,"dewp":-6.1,"wdir":210,"wspd":6,"visib":"10+","altim":1019,"slp":1021.3,"qcField":6,"presTend":0.6,"metarType":"METAR","rawOb":"METAR KIDA 170853Z AUTO 21006KT 10SM FEW100 M04/M06 A3009 RMK AO2 SLP213 T10391061 51006","lat":43.5204,"lon":-112.0675,"elev":1444,"name":"Idaho Falls Rgnl, ID, US","cover":"FEW","clouds":[{"cover":"FEW","base":10000}],"fltCat":"VFR"},{"icaoId":"KLAX","receiptTime":"2026-04-17T08:56:25.875Z","obsTime":1776415980,"reportTime":"2026-04-17T09:00:00.000Z","temp":15.6,"dewp":12.8,"wdir":0,"wspd":0,"visib":"10+","altim":1013.3,"slp":1012.9,"qcField":4,"presTend":0.5,"metarType":"METAR","rawOb":"METAR KLAX 170853Z 00000KT 10SM FEW014 FEW250 16/13 A2992 RMK AO2 SLP129 T01560128 50005","lat":33.9382,"lon":-118.3866,"elev":30,"name":"Los Angeles Intl, CA, US","cover":"FEW","clouds":[{"cover":"FEW","base":1400},{"cover":"FEW","base":25000}],"fltCat":"VFR"},{"icaoId":"KLBB","receiptTime":"2026-04-17T08:56:25.889Z","obsTime":1776415980,"reportTime":"2026-04-17T09:00:00.000Z","temp":18.9,"dewp":16.7,"wdir":190,"wspd":15,"wgst":23,"visib":"10+","altim":1009.2,"slp":1003.7,"qcField":4,"presTend":-1.5,"metarType":"METAR","rawOb":"METAR KLBB 170853Z 19015G23KT 10SM CLR 19/17 A2980 RMK AO2 SLP037 T01890167 58015","lat":33.6658,"lon":-101.8233,"elev":996,"name":"Lubbock Intl Arpt, TX, US","cover":"CLR","clouds":[],"fltCat":"VFR"},{"icaoId":"KPBI","receiptTime":"2026-04-17T08:56:25.315Z","obsTime":1776415980,"reportTime":"2026-04-17T09:00:00.000Z","temp":24.4,"dewp":20.6,"wdir":70,"wspd":7,"visib":"10+","altim":1016.7,"slp":1016.3,"qcField":12,"presTend":-1.3,"metarType":"METAR","rawOb":"METAR KPBI 170853Z 07007KT 10SM SCT017 BKN055 24/21 A3002 RMK AO2 SLP163 T02440206 56013 $","lat":26.6851,"lon":-80.0992,"elev":4,"name":"Palm Beach Intl, FL, US","cover":"BKN","clouds":[{"cover":"SCT","base":1700},{"cover":"BKN","base":5500}],"fltCat":"VFR"},{"icaoId":"KPUW","receiptTime":"2026-04-17T08:56:18.956Z","obsTime":1776415980,"reportTime":"2026-04-17T09:00:00.000Z","temp":1.7,"dewp":-3.9,"wdir":270,"wspd":8,"wgst":19,"visib":"10+","altim":1021.4,"slp":1022.8,"qcField":6,"presTend":0.7,"metarType":"METAR","rawOb":"METAR KPUW 170853Z AUTO 27008G19KT 10SM CLR 02/M04 A3016 RMK AO2 SLP228 T00171039 51007","lat":46.7438,"lon":-117.1158,"elev":774,"name":"Pullman/Moscow Rgnl, WA, US","cover":"CLR","clouds":[],"fltCat":"VFR"},{"icaoId":"KGSP","receiptTime":"2026-04-17T08:56:24.535Z","obsTime":1776415980,"reportTime":"2026-04-17T09:00:00.000Z","temp":16.1,"dewp":10.6,"wdir":0,"wspd":0,"visib":"10+","altim":1015.7,"slp":1014.6,"qcField":6,"presTend":-0.8,"metarType":"METAR","rawOb":"METAR KGSP 170853Z AUTO 00000KT 10SM CLR 16/11 A2999 RMK AO2 SLP146 T01610106 55008","lat":34.8842,"lon":-82.2209,"elev":285,"name":"Greenville-Spartanburg Intl, SC, US","cover":"CLR","clouds":[],"fltCat":"VFR"},{"icaoId":"KGEG","receiptTime":"2026-04-17T08:56:26.812Z","obsTime":1776415980,"reportTime":"2026-04-17T09:00:00.000Z","temp":1.1,"dewp":-4.4,"wdir":220,"wspd":10,"visib":"10+","altim":1019.4,"slp":1020.8,"qcField":4,"presTend":0.6,"metarType":"METAR","rawOb":"METAR KGEG 170853Z 22010KT 10SM FEW090 01/M04 A3010 RMK AO2 SLP208 T00111044 52006","lat":47.6217,"lon":-117.528,"elev":718,"name":"Spokane Intl, WA, US","cover":"FEW","clouds":[{"cover":"FEW","base":9000}],"fltCat":"VFR"},{"icaoId":"KPSP","receiptTime":"2026-04-17T08:56:18.945Z","obsTime":1776415980,"reportTime":"2026-04-17T09:00:00.000Z","temp":20.6,"dewp":4.4,"wdir":310,"wspd":6,"visib":"10+","altim":1008.9,"slp":1008.4,"qcField":14,"presTend":0.5,"metarType":"METAR","rawOb":"METAR KPSP 170853Z AUTO 31006KT 10SM CLR 21/04 A2979 RMK AO2 SLP084 T02060044 53005 $","lat":33.8222,"lon":-116.5043,"elev":123,"name":"Palm Springs Intl, CA, US","cover":"CLR","clouds":[],"fltCat":"VFR"},{"icaoId":"KDVT","receiptTime":"2026-04-17T08:56:22.402Z","obsTime":1776415980,"reportTime":"2026-04-17T09:00:00.000Z","temp":18.9,"dewp":-2.8,"wdir":50,"wspd":4,"visib":"10+","altim":1009.2,"slp":1007.2,"qcField":14,"presTend":0.4,"metarType":"METAR","rawOb":"METAR KDVT 170853Z AUTO 05004KT 10SM CLR 19/M03 A2980 RMK AO2 SLP072 T01891028 53004 $","lat":33.6902,"lon":-112.0662,"elev":454,"name":"Phoenix/Deer Valley Arpt, AZ, US","cover":"CLR","clouds":[],"fltCat":"VFR"},{"icaoId":"KFAT","receiptTime":"2026-04-17T08:56:26.744Z","obsTime":1776415980,"reportTime":"2026-04-17T09:00:00.000Z","temp":11.1,"dewp":-0.6,"wdir":0,"wspd":0,"visib":"10+","altim":1015.7,"slp":1015.4,"qcField":12,"presTend":1,"metarType":"METAR","rawOb":"METAR KFAT 170853Z 00000KT 10SM CLR 11/M01 A2999 RMK AO2 SLP154 T01111006 51010 $","lat":36.78,"lon":-119.7202,"elev":102,"name":"Fresno/Yosemite Intl, CA, US","cover":"CLR","clouds":[],"fltCat":"VFR"},{"icaoId":"KPDX","receiptTime":"2026-04-17T08:56:26.012Z","obsTime":1776415980,"reportTime":"2026-04-17T09:00:00.000Z","temp":6.1,"dewp":3.3,"wdir":0,"wspd":0,"visib":"10+","altim":1027.9,"slp":1027.7,"qcField":12,"presTend":0.3,"metarType":"METAR","rawOb":"METAR KPDX 170853Z 00000KT 10SM BKN060 06/03 A3035 RMK AO2 SLP277 T00610033 53003 $","lat":45.5958,"lon":-122.6092,"elev":7,"name":"Portland Intl, OR, US","cover":"BKN","clouds":[{"cover":"BKN","base":6000}],"fltCat":"VFR"},{"icaoId":"KYKM","receiptTime":"2026-04-17T08:56:19.683Z","obsTime":1776415980,"reportTime":"2026-04-17T09:00:00.000Z","temp":-0.6,"dewp":-5,"wdir":190,"wspd":4,"visib":"10+","altim":1023.1,"slp":1023.6,"qcField":6,"presTend":0.5,"metarType":"METAR","rawOb":"METAR KYKM 170853Z AUTO 19004KT 10SM CLR M01/M05 A3021 RMK AO2 SLP236 T10061050 52005","lat":46.564,"lon":-120.5349,"elev":319,"name":"Yakima/McAllister Fld, WA, US","cover":"CLR","clouds":[],"fltCat":"VFR"},{"icaoId":"KMYR","receiptTime":"2026-04-17T08:56:21.541Z","obsTime":1776415980,"reportTime":"2026-04-17T09:00:00.000Z","temp":20,"dewp":16.7,"wdir":220,"wspd":5,"visib":"10+","altim":1016,"slp":1015.7,"qcField":14,"presTend":-1,"metarType":"METAR","rawOb":"METAR KMYR 170853Z AUTO 22005KT 10SM CLR 20/17 A3000 RMK AO2 SLP157 T02000167 56010 $","lat":33.6769,"lon":-78.9325,"elev":7,"name":"Myrtle Beach Intl, SC, US","cover":"CLR","clouds":[],"fltCat":"VFR"},{"icaoId":"KPIH","receiptTime":"2026-04-17T08:56:21.938Z","obsTime":1776415980,"reportTime":"2026-04-17T09:00:00.000Z","temp":-3.3,"dewp":-6.7,"wdir":220,"wspd":10,"visib":"10+","altim":1019.7,"slp":1021.2,"qcField":6,"presTend":0.9,"metarType":"METAR","rawOb":"METAR KPIH 170853Z AUTO 22010KT 10SM BKN090 M03/M07 A3011 RMK AO2 SLP212 T10331067 51009","lat":42.9197,"lon":-112.5723,"elev":1357,"name":"Pocatello Rgnl, ID, US","cover":"BKN","clouds":[{"cover":"BKN","base":9000}],"fltCat":"VFR"},{"icaoId":"KCPR","receiptTime":"2026-04-17T08:56:22.058Z","obsTime":1776415980,"reportTime":"2026-04-17T09:00:00.000Z","temp":-3.3,"dewp":-3.3,"wdir":360,"wspd":8,"visib":3,"altim":1012.6,"slp":1010.4,"qcField":6,"wxString":"-SN BR","presTend":0.5,"precip":0.005,"pcp3hr":0.05,"metarType":"METAR","rawOb":"METAR KCPR 170853Z AUTO 36008KT 3SM -SN BR SCT007 OVC011 M03/M03 A2990 RMK AO2 SLP104 P0000 60005 T10331033 53005","lat":42.8978,"lon":-106.4736,"elev":1623,"name":"Casper/Natrona Cnty, WY, US","cover":"OVC","clouds":[{"cover":"SCT","base":700},{"cover":"OVC","base":1100}],"fltCat":"MVFR"},{"icaoId":"KDRO","receiptTime":"2026-04-17T08:56:22.346Z","obsTime":1776415980,"reportTime":"2026-04-17T09:00:00.000Z","temp":8.3,"dewp":-7.2,"wdir":0,"wspd":0,"visib":"10+","altim":1011.6,"slp":1005.7,"qcField":6,"presTend":-0.9,"metarType":"METAR","rawOb":"METAR KDRO 170853Z AUTO 00000KT 10SM OVC110 08/M07 A2987 RMK AO2 SLP057 T00831072 58009","lat":37.1431,"lon":-107.7602,"elev":2021,"name":"Durango/La Plata Cnty, CO, US","cover":"OVC","clouds":[{"cover":"OVC","base":11000}],"fltCat":"VFR"},{"icaoId":"KVGT","receiptTime":"2026-04-17T08:56:22.839Z","obsTime":1776415980,"reportTime":"2026-04-17T09:00:00.000Z","temp":13.9,"dewp":-13.9,"wdir":320,"wspd":30,"wgst":48,"visib":"10+","altim":1013,"slp":1013.2,"qcField":6,"presTend":4.4,"metarType":"METAR","rawOb":"METAR KVGT 170853Z AUTO 32030G48KT 10SM CLR 14/M14 A2991 RMK AO2 PK WND 31048/0847 SLP132 T01391139 51044","lat":36.212,"lon":-115.194,"elev":664,"name":"Las Vegas/North Arpt, NV, US","cover":"CLR","clouds":[],"fltCat":"VFR"},{"icaoId":"KIAH","receiptTime":"2026-04-17T08:56:23.351Z","obsTime":1776415980,"reportTime":"2026-04-17T09:00:00.000Z","temp":21.7,"dewp":20,"wdir":170,"wspd":5,"visib":"10+","altim":1013.3,"slp":1013.2,"qcField":4,"presTend":-1.8,"metarType":"METAR","rawOb":"METAR KIAH 170853Z 17005KT 10SM FEW017 22/20 A2992 RMK AO2 SLP132 T02170200 56018","lat":29.9844,"lon":-95.3607,"elev":27,"name":"Houston/Bush Intl, TX, US","cover":"FEW","clouds":[{"cover":"FEW","base":1700}],"fltCat":"VFR"},{"icaoId":"KPNC","receiptTime":"2026-04-17T08:56:23.504Z","obsTime":1776415980,"reportTime":"2026-04-17T09:00:00.000Z","temp":21.7,"dewp":17.8,"wdir":170,"wspd":9,"wgst":19,"visib":"10+","altim":1007.2,"slp":1005.6,"qcField":6,"presTend":-0.8,"metarType":"METAR","rawOb":"METAR KPNC 170853Z AUTO 17009G19KT 10SM CLR 22/18 A2974 RMK AO2 SLP056 T02170178 58008","lat":36.7369,"lon":-97.1024,"elev":304,"name":"Ponca City Rgnl, OK, US","cover":"CLR","clouds":[],"fltCat":"VFR"},{"icaoId":"KVEL","receiptTime":"2026-04-17T08:56:24.393Z","obsTime":1776415980,"reportTime":"2026-04-17T09:00:00.000Z","temp":-2.8,"dewp":-3.9,"wdir":90,"wspd":8,"visib":0.75,"altim":1015.7,"slp":1013.6,"qcField":6,"wxString":"-SN BR","presTend":0.8,"precip":0.005,"pcp3hr":0.005,"metarType":"METAR","rawOb":"METAR KVEL 170853Z AUTO 09008KT 3/4SM -SN BR FEW005 OVC010 M03/M04 A2999 RMK AO2 SLP136 P0000 60000 T10281039 51008","lat":40.4429,"lon":-109.5128,"elev":1604,"name":"Vernal Rgnl, UT, US","cover":"OVC","clouds":[{"cover":"FEW","base":500},{"cover":"OVC","base":1000}],"fltCat":"LIFR"},{"icaoId":"KMFE","receiptTime":"2026-04-17T08:56:24.946Z","obsTime":1776415980,"reportTime":"2026-04-17T09:00:00.000Z","temp":24.4,"dewp":22.2,"wdir":150,"wspd":12,"visib":"10+","altim":1010.6,"slp":1010.2,"qcField":6,"presTend":-2.5,"metarType":"METAR","rawOb":"METAR KMFE 170853Z AUTO 15012KT 10SM OVC009 24/22 A2984 RMK AO2 SLP102 T02440222 56025","lat":26.1791,"lon":-98.2445,"elev":29,"name":"McAllen/Miller Intl, TX, US","cover":"OVC","clouds":[{"cover":"OVC","base":900}],"fltCat":"IFR"},{"icaoId":"KMFR","receiptTime":"2026-04-17T08:56:24.960Z","obsTime":1776415980,"reportTime":"2026-04-17T09:00:00.000Z","temp":2.2,"dewp":-1.1,"wdir":210,"wspd":4,"visib":"10+","altim":1025.8,"slp":1026.3,"qcField":6,"presTend":0.4,"metarType":"METAR","rawOb":"METAR KMFR 170853Z AUTO 21004KT 10SM CLR 02/M01 A3029 RMK AO2 SLP263 T00221011 50004","lat":42.375,"lon":-122.877,"elev":397,"name":"Medford/Rogue Valley Intl, OR, US","cover":"CLR","clouds":[],"fltCat":"VFR"},{"icaoId":"KMLC","receiptTime":"2026-04-17T08:56:25.103Z","obsTime":1776415980,"reportTime":"2026-04-17T09:00:00.000Z","temp":22.8,"dewp":18.9,"wdir":190,"wspd":8,"wgst":18,"visib":"10+","altim":1010.9,"slp":1009.8,"qcField":6,"presTend":-0.7,"metarType":"METAR","rawOb":"METAR KMLC 170853Z AUTO 19008G18KT 10SM OVC055 23/19 A2985 RMK AO2 SLP098 T02280189 55007","lat":34.8824,"lon":-95.7815,"elev":231,"name":"McAlester Rgnl, OK, US","cover":"OVC","clouds":[{"cover":"OVC","base":5500}],"fltCat":"VFR"},{"icaoId":"KMOD","receiptTime":"2026-04-17T08:56:25.197Z","obsTime":1776415980,"reportTime":"2026-04-17T09:00:00.000Z","temp":12.2,"dewp":-2.2,"wdir":290,"wspd":15,"visib":"10+","altim":1015.3,"slp":1015,"qcField":14,"presTend":-0.1,"metarType":"METAR","rawOb":"METAR KMOD 170853Z AUTO 29015KT 10SM CLR 12/M02 A2998 RMK AO2 SLP150 T01221022 56001 $","lat":37.6254,"lon":-120.9549,"elev":25,"name":"Modesto/Sham Fld, CA, US","cover":"CLR","clouds":[],"fltCat":"VFR"},{"icaoId":"KPAE","receiptTime":"2026-04-17T08:56:25.268Z","obsTime":1776415980,"reportTime":"2026-04-17T09:00:00.000Z","temp":6.7,"dewp":2.2,"wdir":10,"wspd":3,"visib":"10+","altim":1026.2,"slp":1026.4,"qcField":4,"presTend":0.7,"metarType":"METAR","rawOb":"METAR KPAE 170853Z 01003KT 10SM SCT047 OVC070 07/02 A3030 RMK AO2 SLP264 T00670022 53007","lat":47.9232,"lon":-122.2831,"elev":166,"name":"Everett/Paine Fld, WA, US","cover":"OVC","clouds":[{"cover":"SCT","base":4700},{"cover":"OVC","base":7000}],"fltCat":"VFR"},{"icaoId":"PANC","receiptTime":"2026-04-17T08:56:25.515Z","obsTime":1776415980,"reportTime":"2026-04-17T09:00:00.000Z","temp":1.7,"dewp":1.1,"wdir":0,"wspd":0,"visib":"10+","altim":1009.2,"slp":1009.1,"qcField":4,"presTend":-0.5,"maxT24":4.4,"minT24":-0.6,"precip":0.005,"pcp3hr":0.005,"metarType":"METAR","rawOb":"METAR PANC 170853Z 00000KT 10SM OVC055 02/01 A2980 RMK AO2 RAB38E48 SLP091 P0000 60000 T00170011 400441006 58005","lat":61.1691,"lon":-150.0277,"elev":39,"name":"Anchorage Intl, AK, US","cover":"OVC","clouds":[{"cover":"OVC","base":5500}],"fltCat":"VFR"},{"icaoId":"KCRQ","receiptTime":"2026-04-17T08:56:25.579Z","obsTime":1776415980,"reportTime":"2026-04-17T09:00:00.000Z","temp":15,"dewp":10.6,"wdir":140,"wspd":4,"visib":"10+","altim":1013.3,"slp":1013.1,"qcField":6,"presTend":0.4,"metarType":"METAR","rawOb":"METAR KCRQ 170853Z AUTO 14004KT 10SM BKN024 15/11 A2992 RMK AO2 SLP131 T01500106 50004","lat":33.1299,"lon":-117.2765,"elev":96,"name":"Carlsbad/Palomar Arpt, CA, US","cover":"BKN","clouds":[{"cover":"BKN","base":2400}],"fltCat":"MVFR"},{"icaoId":"KDMN","receiptTime":"2026-04-17T08:56:28.823Z","obsTime":1776415980,"reportTime":"2026-04-17T09:00:00.000Z","temp":11.1,"dewp":-9.4,"wdir":0,"wspd":0,"visib":"10+","altim":1013,"slp":1006.5,"qcField":6,"presTend":-0.4,"metarType":"METAR","rawOb":"METAR KDMN 170853Z AUTO 00000KT 10SM CLR 11/M09 A2991 RMK AO2 SLP065 T01111094 58004","lat":32.2592,"lon":-107.7206,"elev":1310,"name":"Deming Muni, NM, US","cover":"CLR","clouds":[],"fltCat":"VFR"},{"icaoId":"KFMN","receiptTime":"2026-04-17T08:56:25.702Z","obsTime":1776415980,"reportTime":"2026-04-17T09:00:00.000Z","temp":12.2,"dewp":-12.2,"wdir":280,"wspd":4,"visib":"10+","altim":1010.6,"slp":1005.7,"qcField":6,"presTend":-0.3,"metarType":"METAR","rawOb":"METAR KFMN 170853Z AUTO 28004KT 10SM FEW120 12/M12 A2984 RMK AO2 SLP057 T01221122 56003","lat":36.7435,"lon":-108.2293,"elev":1677,"name":"Farmington/Four Corners Rgnl, NM, US","cover":"FEW","clouds":[{"cover":"FEW","base":12000}],"fltCat":"VFR"},{"icaoId":"KELY","receiptTime":"2026-04-17T08:56:26.901Z","obsTime":1776415980,"reportTime":"2026-04-17T09:00:00.000Z","temp":-7.8,"dewp":-15,"wdir":330,"wspd":3,"visib":"10+","altim":1021.1,"slp":1020.4,"qcField":14,"presTend":0.7,"metarType":"METAR","rawOb":"METAR KELY 170853Z AUTO 33003KT 10SM CLR M08/M15 A3015 RMK AO2 SLP204 T10781150 51007 $","lat":39.2954,"lon":-114.8466,"elev":1906,"name":"Ely/Yelland Fld, NV, US","cover":"CLR","clouds":[],"fltCat":"VFR"},{"icaoId":"KEVW","receiptTime":"2026-04-17T08:56:26.153Z","obsTime":1776415980,"reportTime":"2026-04-17T09:00:00.000Z","temp":-11.1,"dewp":-14.4,"wdir":260,"wspd":6,"visib":"10+","altim":1016.3,"slp":1020.4,"qcField":14,"presTend":-0.2,"metarType":"METAR","rawOb":"METAR KEVW 170853Z AUTO 26006KT 10SM CLR M11/M14 A3001 RMK AO2 SLP204 T11111144 56002 $","lat":41.2727,"lon":-111.0305,"elev":2178,"name":"Evanston/Uinta Cnty, WY, US","cover":"CLR","clouds":[],"fltCat":"VFR"},{"icaoId":"KFUL","receiptTime":"2026-04-17T08:56:26.419Z","obsTime":1776415980,"reportTime":"2026-04-17T09:00:00.000Z","temp":15.6,"dewp":12.2,"wdir":110,"wspd":4,"visib":"10+","altim":1013,"slp":1012.9,"qcField":6,"presTend":0.6,"metarType":"METAR","rawOb":"METAR KFUL 170853Z AUTO 11004KT 10SM CLR 16/12 A2991 RMK AO2 SLP129 T01560122 51006","lat":33.8715,"lon":-117.9856,"elev":23,"name":"Fullerton Muni, CA, US","cover":"CLR","clouds":[],"fltCat":"VFR"},{"icaoId":"KCLL","receiptTime":"2026-04-17T08:56:26.994Z","obsTime":1776415980,"reportTime":"2026-04-17T09:00:00.000Z","temp":21.7,"dewp":20,"wdir":170,"wspd":12,"visib":"10+","altim":1012.6,"slp":1011.9,"qcField":6,"presTend":-1.4,"metarType":"METAR","rawOb":"METAR KCLL 170853Z AUTO 17012KT 10SM BKN011 OVC018 22/20 A2990 RMK AO2 SLP119 T02170200 58014","lat":30.5912,"lon":-96.3631,"elev":96,"name":"College Station/Easterwood Arpt, TX, US","cover":"OVC","clouds":[{"cover":"BKN","base":1100},{"cover":"OVC","base":1800}],"fltCat":"MVFR"},{"icaoId":"KLOL","receiptTime":"2026-04-17T08:56:27.027Z","obsTime":1776415980,"reportTime":"2026-04-17T09:00:00.000Z","temp":-6.1,"dewp":-13.3,"wdir":0,"wspd":0,"visib":"10+","altim":1024.5,"slp":1026.1,"qcField":6,"presTend":0.2,"metarType":"METAR","rawOb":"METAR KLOL 170853Z AUTO 00000KT 10SM CLR M06/M13 A3025 RMK AO2 SLP261 T10611133 53002","lat":40.0684,"lon":-118.5702,"elev":1191,"name":"Lovelock/Derby Fld, NV, US","cover":"CLR","clouds":[],"fltCat":"VFR"},{"icaoId":"KLVS","receiptTime":"2026-04-17T08:56:27.134Z","obsTime":1776415980,"reportTime":"2026-04-17T09:00:00.000Z","temp":5,"dewp":-14.4,"wdir":140,"wspd":9,"visib":"10+","altim":1011.9,"slp":1003.8,"qcField":6,"presTend":-0.8,"metarType":"METAR","rawOb":"METAR KLVS 170853Z AUTO 14009KT 10SM CLR 05/M14 A2988 RMK AO2 SLP038 T00501144 58008","lat":35.6558,"lon":-105.1385,"elev":2095,"name":"Las Vegas Muni, NM, US","cover":"CLR","clouds":[],"fltCat":"VFR"},{"icaoId":"KAPA","receiptTime":"2026-04-17T08:56:27.688Z","obsTime":1776415980,"reportTime":"2026-04-17T09:00:00.000Z","temp":1.7,"dewp":-3.9,"wdir":50,"wspd":12,"wgst":19,"visib":"10+","altim":1009.6,"slp":1006,"qcField":4,"presTend":3.8,"metarType":"METAR","rawOb":"METAR KAPA 170853Z 05012G19KT 10SM FEW140 SCT220 02/M04 A2981 RMK AO2 PK WND 08028/0758 WSHFT 0831 SLP060 T00171039 51038","lat":39.5599,"lon":-104.8484,"elev":1791,"name":"Denver/Centennial Arpt, CO, US","cover":"SCT","clouds":[{"cover":"FEW","base":14000},{"cover":"SCT","base":22000}],"fltCat":"VFR"},{"icaoId":"KASE","receiptTime":"2026-04-17T08:56:27.745Z","obsTime":1776415980,"reportTime":"2026-04-17T09:00:00.000Z","temp":5,"dewp":-8.9,"wdir":30,"wspd":11,"wgst":19,"visib":"10+","altim":1008.2,"slp":999.3,"qcField":14,"presTend":-0.6,"metarType":"METAR","rawOb":"METAR KASE 170853Z AUTO 03011G19KT 10SM FEW075 BKN095 05/M09 A2977 RMK AO2 PK WND 24027/0815 SLP993 T00501089 56006 $","lat":39.2299,"lon":-106.8705,"elev":2384,"name":"Aspen/Pitkin Cnty, CO, US","cover":"BKN","clouds":[{"cover":"FEW","base":7500},{"cover":"BKN","base":9500}],"fltCat":"VFR"},{"icaoId":"KAUS","receiptTime":"2026-04-17T08:56:27.793Z","obsTime":1776415980,"reportTime":"2026-04-17T09:00:00.000Z","temp":22.2,"dewp":19.4,"wdir":170,"wspd":12,"wgst":19,"visib":"10+","altim":1011.9,"slp":1010.8,"qcField":4,"presTend":-1.5,"metarType":"METAR","rawOb":"METAR KAUS 170853Z 17012G19KT 10SM BKN018 OVC025 22/19 A2988 RMK AO2 SLP108 T02220194 56015","lat":30.1831,"lon":-97.6806,"elev":148,"name":"Austin/Bergstrom Intl, TX, US","cover":"OVC","clouds":[{"cover":"BKN","base":1800},{"cover":"OVC","base":2500}],"fltCat":"MVFR"},{"icaoId":"KCNM","receiptTime":"2026-04-17T08:56:28.691Z","obsTime":1776415980,"reportTime":"2026-04-17T09:00:00.000Z","temp":15.6,"dewp":11.7,"wdir":200,"wspd":7,"visib":"10+","altim":1009.9,"slp":1004.7,"qcField":6,"presTend":-0.8,"metarType":"METAR","rawOb":"METAR KCNM 170853Z AUTO 20007KT 10SM CLR 16/12 A2982 RMK AO2 SLP047 T01560117 56008","lat":32.3336,"lon":-104.2584,"elev":993,"name":"Carlsbad/Cavern City Air Term, NM, US","cover":"CLR","clouds":[],"fltCat":"VFR"},{"icaoId":"KDAL","receiptTime":"2026-04-17T08:56:28.780Z","obsTime":1776415980,"reportTime":"2026-04-17T09:00:00.000Z","temp":22.2,"dewp":17.8,"wdir":170,"wspd":10,"visib":"10+","altim":1010.9,"slp":1010.2,"qcField":4,"presTend":-0.8,"metarType":"METAR","rawOb":"METAR KDAL 170853Z 17010KT 10SM CLR 22/18 A2985 RMK AO2 SLP102 T02220178 58008","lat":32.8384,"lon":-96.8358,"elev":148,"name":"Dallas/Love Fld, TX, US","cover":"CLR","clouds":[],"fltCat":"VFR"},{"icaoId":"KMIA","receiptTime":"2026-04-17T08:58:25.441Z","obsTime":1776415980,"reportTime":"2026-04-17T09:00:00.000Z","temp":22.8,"dewp":21.7,"wdir":0,"wspd":0,"visib":"10+","altim":1016,"slp":1015.7,"qcField":0,"presTend":-1.4,"metarType":"METAR","rawOb":"METAR KMIA 170853Z 00000KT 10SM FEW015 FEW027 SCT036 23/22 A3000 RMK SLP157 T02280217 56014","lat":25.7881,"lon":-80.3169,"elev":1,"name":"Miami Intl, FL, US","cover":"SCT","clouds":[{"cover":"FEW","base":1500},{"cover":"FEW","base":2700},{"cover":"SCT","base":3600}],"fltCat":"VFR"},{"icaoId":"KCYS","receiptTime":"2026-04-17T08:56:22.173Z","obsTime":1776415980,"reportTime":"2026-04-17T09:00:00.000Z","temp":0,"dewp":-7.8,"wdir":360,"wspd":12,"wgst":23,"visib":"10+","altim":1008.9,"slp":1003.7,"qcField":6,"presTend":0.7,"metarType":"METAR","rawOb":"METAR KCYS 170853Z AUTO 36012G23KT 10SM FEW120 00/M08 A2979 RMK AO2 PK WND 32040/0832 SLP037 T00001078 51007","lat":41.1579,"lon":-104.8081,"elev":1868,"name":"Cheyenne Rgnl, WY, US","cover":"FEW","clouds":[{"cover":"FEW","base":12000}],"fltCat":"VFR"},{"icaoId":"KSEA","receiptTime":"2026-04-17T08:56:19.574Z","obsTime":1776415980,"reportTime":"2026-04-17T09:00:00.000Z","temp":6.1,"dewp":2.8,"wdir":150,"wspd":5,"visib":"10+","altim":1026.5,"slp":1027,"qcField":4,"presTend":1,"metarType":"METAR","rawOb":"METAR KSEA 170853Z 15005KT 10SM BKN019 BKN027 06/03 A3031 RMK AO2 SLP270 T00610028 51010","lat":47.4447,"lon":-122.3144,"elev":115,"name":"Seattle-Tacoma Intl, WA, US","cover":"BKN","clouds":[{"cover":"BKN","base":1900},{"cover":"BKN","base":2700}],"fltCat":"MVFR"},{"icaoId":"KRIW","receiptTime":"2026-04-17T08:56:19.514Z","obsTime":1776415980,"reportTime":"2026-04-17T09:00:00.000Z","temp":-2.2,"dewp":-7.2,"wdir":360,"wspd":12,"wgst":20,"visib":"10+","altim":1013.6,"slp":1012.7,"qcField":6,"presTend":1.6,"metarType":"METAR","rawOb":"METAR KRIW 170853Z AUTO 36012G20KT 10SM FEW033 SCT050 M02/M07 A2993 RMK AO2 SLP127 T10221072 53016","lat":43.0622,"lon":-108.4471,"elev":1662,"name":"Riverton Rgnl, WY, US","cover":"SCT","clouds":[{"cover":"FEW","base":3300},{"cover":"SCT","base":5000}],"fltCat":"VFR"},{"icaoId":"KABI","receiptTime":"2026-04-17T08:56:26.547Z","obsTime":1776415920,"reportTime":"2026-04-17T09:00:00.000Z","temp":21.1,"dewp":17.8,"wdir":170,"wspd":12,"wgst":22,"visib":"10+","altim":1009.6,"slp":1006.7,"qcField":6,"presTend":-1.2,"metarType":"METAR","rawOb":"METAR KABI 170852Z AUTO 17012G22KT 10SM CLR 21/18 A2981 RMK AO2 SLP067 T02110178 56012","lat":32.4106,"lon":-99.6821,"elev":543,"name":"Abilene Rgnl, TX, US","cover":"CLR","clouds":[],"fltCat":"VFR"},{"icaoId":"KHRL","receiptTime":"2026-04-17T08:56:28.345Z","obsTime":1776415920,"reportTime":"2026-04-17T09:00:00.000Z","temp":23.3,"dewp":22.2,"wdir":150,"wspd":13,"visib":"10+","altim":1010.6,"slp":1010.3,"qcField":6,"presTend":-2.7,"metarType":"METAR","rawOb":"METAR KHRL 170852Z AUTO 15013KT 10SM FEW017 23/22 A2984 RMK AO2 SLP103 T02330222 56027","lat":26.2303,"lon":-97.6556,"elev":9,"name":"Harlingen/Valley Intl, TX, US","cover":"FEW","clouds":[{"cover":"FEW","base":1700}],"fltCat":"VFR"},{"icaoId":"KABQ","receiptTime":"2026-04-17T08:56:26.559Z","obsTime":1776415920,"reportTime":"2026-04-17T09:00:00.000Z","temp":16.1,"dewp":-13.9,"wdir":0,"wspd":0,"visib":"10+","altim":1011.9,"slp":1005.1,"qcField":4,"presTend":-0.4,"metarType":"METAR","rawOb":"METAR KABQ 170852Z 00000KT 10SM BKN160 16/M14 A2988 RMK AO2 SLP051 T01611139 58004","lat":35.0419,"lon":-106.6154,"elev":1620,"name":"Albuquerque Intl, NM, US","cover":"BKN","clouds":[{"cover":"BKN","base":16000}],"fltCat":"VFR"},{"icaoId":"KCVG","receiptTime":"2026-04-17T08:56:28.145Z","obsTime":1776415920,"reportTime":"2026-04-17T09:00:00.000Z","temp":15,"dewp":10.6,"wdir":270,"wspd":5,"visib":"10+","altim":1015.3,"slp":1014.4,"qcField":4,"presTend":0.4,"metarType":"METAR","rawOb":"METAR KCVG 170852Z 27005KT 10SM FEW250 15/11 A2998 RMK AO2 SLP144 T01500106 53004","lat":39.0444,"lon":-84.6724,"elev":264,"name":"Cincinnati Intl, KY, US","cover":"FEW","clouds":[{"cover":"FEW","base":25000}],"fltCat":"VFR"},{"icaoId":"KCLT","receiptTime":"2026-04-17T08:56:21.830Z","obsTime":1776415920,"reportTime":"2026-04-17T09:00:00.000Z","temp":16.7,"dewp":11.1,"wdir":0,"wspd":0,"visib":"10+","altim":1015,"slp":1015.3,"qcField":4,"presTend":-0.6,"metarType":"METAR","rawOb":"METAR KCLT 170852Z 00000KT 10SM FEW120 17/11 A2997 RMK AO2 SLP153 T01670111 55006","lat":35.2225,"lon":-80.9543,"elev":223,"name":"Charlotte/Douglas Intl, NC, US","cover":"FEW","clouds":[{"cover":"FEW","base":12000}],"fltCat":"VFR"},{"icaoId":"KDCA","receiptTime":"2026-04-17T08:56:28.174Z","obsTime":1776415920,"reportTime":"2026-04-17T09:00:00.000Z","temp":21.7,"dewp":15,"wdir":330,"wspd":5,"visib":"10+","altim":1010.6,"slp":1010.5,"qcField":4,"presTend":0.4,"pcp3hr":0.005,"metarType":"METAR","rawOb":"METAR KDCA 170852Z 33005KT 10SM BKN100 OVC250 22/15 A2984 RMK AO2 SLP105 60000 T02170150 53004","lat":38.8472,"lon":-77.0345,"elev":4,"name":"Washington/Reagan-National Arpt, VA, US","cover":"OVC","clouds":[{"cover":"BKN","base":10000},{"cover":"OVC","base":25000}],"fltCat":"VFR"},{"icaoId":"KIAD","receiptTime":"2026-04-17T08:56:28.372Z","obsTime":1776415920,"reportTime":"2026-04-17T09:00:00.000Z","temp":21.1,"dewp":13.9,"wdir":310,"wspd":6,"visib":8,"altim":1010.9,"slp":1010.5,"qcField":4,"presTend":0.1,"metarType":"METAR","rawOb":"METAR KIAD 170852Z 31006KT 8SM BKN100 21/14 A2985 RMK AO2 SLP105 T02110139 53001","lat":38.9348,"lon":-77.4473,"elev":90,"name":"Washington/Dulles Intl, VA, US","cover":"BKN","clouds":[{"cover":"BKN","base":10000}],"fltCat":"VFR"},{"icaoId":"KOKC","receiptTime":"2026-04-17T08:56:21.564Z","obsTime":1776415920,"reportTime":"2026-04-17T09:00:00.000Z","temp":20.6,"dewp":17.8,"wdir":170,"wspd":13,"visib":"10+","altim":1008.5,"slp":1006.8,"qcField":4,"presTend":-1.2,"metarType":"METAR","rawOb":"METAR KOKC 170852Z 17013KT 10SM CLR 21/18 A2978 RMK AO2 SLP068 T02060178 58012","lat":35.3843,"lon":-97.6003,"elev":391,"name":"Oklahoma City/Will Rogers Intl, OK, US","cover":"CLR","clouds":[],"fltCat":"VFR"},{"icaoId":"KATL","receiptTime":"2026-04-17T08:56:21.820Z","obsTime":1776415920,"reportTime":"2026-04-17T09:00:00.000Z","temp":18.3,"dewp":12.8,"wdir":310,"wspd":8,"visib":"10+","altim":1017,"slp":1016.1,"qcField":12,"presTend":-0.7,"metarType":"METAR","rawOb":"METAR KATL 170852Z 31008KT 10SM FEW120 18/13 A3003 RMK AO2 SLP161 T01830128 56007 $","lat":33.6297,"lon":-84.4422,"elev":309,"name":"Atlanta/Hartsfield-Jackson Intl, GA, US","cover":"FEW","clouds":[{"cover":"FEW","base":12000}],"fltCat":"VFR"},{"icaoId":"KMLF","receiptTime":"2026-04-17T08:56:26.649Z","obsTime":1776415920,"reportTime":"2026-04-17T09:00:00.000Z","temp":-0.6,"dewp":-8.9,"wdir":350,"wspd":6,"visib":"10+","altim":1019.4,"slp":1016.7,"qcField":6,"presTend":0.2,"pcp3hr":0.005,"metarType":"METAR","rawOb":"METAR KMLF 170852Z AUTO 35006KT 10SM BKN110 M01/M09 A3010 RMK AO2 SLP167 60000 T10061089 51002","lat":38.4225,"lon":-113.0109,"elev":1537,"name":"Milford Muni, UT, US","cover":"BKN","clouds":[{"cover":"BKN","base":11000}],"fltCat":"VFR"},{"icaoId":"KSPS","receiptTime":"2026-04-17T08:56:26.660Z","obsTime":1776415920,"reportTime":"2026-04-17T09:00:00.000Z","temp":20.6,"dewp":17.8,"wdir":170,"wspd":11,"visib":"10+","altim":1008.5,"slp":1006.9,"qcField":4,"presTend":-1.2,"metarType":"METAR","rawOb":"METAR KSPS 170852Z 17011KT 10SM CLR 21/18 A2978 RMK AO2 SLP069 T02060178 56012","lat":33.9785,"lon":-98.493,"elev":310,"name":"Wichita Falls Rgnl, TX, US","cover":"CLR","clouds":[],"fltCat":"VFR"},{"icaoId":"KCMH","receiptTime":"2026-04-17T08:54:07.383Z","obsTime":1776415860,"reportTime":"2026-04-17T09:00:00.000Z","temp":13.9,"dewp":12.2,"wdir":0,"wspd":0,"visib":"10+","altim":1014.3,"slp":1014,"qcField":4,"presTend":0.2,"metarType":"METAR","rawOb":"METAR KCMH 170851Z 00000KT 10SM FEW250 14/12 A2995 RMK AO2 SLP140 T01390122 53002","lat":39.9907,"lon":-82.877,"elev":257,"name":"Columbus/Glenn Intl, OH, US","cover":"FEW","clouds":[{"cover":"FEW","base":25000}],"fltCat":"VFR"},{"icaoId":"KPIT","receiptTime":"2026-04-17T08:54:07.126Z","obsTime":1776415860,"reportTime":"2026-04-17T09:00:00.000Z","temp":13.9,"dewp":10.6,"wdir":280,"wspd":3,"visib":"10+","altim":1013.3,"slp":1013.3,"qcField":4,"presTend":0.5,"metarType":"METAR","rawOb":"METAR KPIT 170851Z 28003KT 10SM CLR 14/11 A2992 RMK AO2 SLP133 T01390106 53005","lat":40.4814,"lon":-80.2083,"elev":339,"name":"Pittsburgh Intl, PA, US","cover":"CLR","clouds":[],"fltCat":"VFR"},{"icaoId":"KSAT","receiptTime":"2026-04-17T08:54:07.050Z","obsTime":1776415860,"reportTime":"2026-04-17T09:00:00.000Z","temp":20.6,"dewp":18.9,"wdir":160,"wspd":6,"visib":"10+","altim":1012.3,"slp":1010.5,"qcField":4,"presTend":-1.3,"metarType":"METAR","rawOb":"METAR KSAT 170851Z 16006KT 10SM SCT012 BKN022 BKN250 21/19 A2989 RMK AO2 SLP105 T02060189 58013","lat":29.5443,"lon":-98.4839,"elev":246,"name":"San Antonio Intl, TX, US","cover":"BKN","clouds":[{"cover":"SCT","base":1200},{"cover":"BKN","base":2200},{"cover":"BKN","base":25000}],"fltCat":"MVFR"},{"icaoId":"KCLE","receiptTime":"2026-04-17T08:54:06.841Z","obsTime":1776415860,"reportTime":"2026-04-17T09:00:00.000Z","temp":13.3,"dewp":11.7,"wdir":320,"wspd":5,"visib":"10+","altim":1013.6,"slp":1015,"qcField":12,"presTend":0.7,"metarType":"METAR","rawOb":"METAR KCLE 170851Z 32005KT 10SM SCT006 BKN019 OVC031 13/12 A2993 RMK AO2 SLP150 T01330117 53007 $","lat":41.4057,"lon":-81.8519,"elev":237,"name":"Cleveland/Hopkins Intl, OH, US","cover":"OVC","clouds":[{"cover":"SCT","base":600},{"cover":"BKN","base":1900},{"cover":"OVC","base":3100}],"fltCat":"MVFR"},{"icaoId":"KPHX","receiptTime":"2026-04-17T08:54:06.587Z","obsTime":1776415860,"reportTime":"2026-04-17T09:00:00.000Z","temp":18.9,"dewp":-1.1,"wdir":250,"wspd":13,"visib":"10+","altim":1008.5,"slp":1007,"qcField":12,"presTend":0.6,"metarType":"METAR","rawOb":"METAR KPHX 170851Z 25013KT 10SM BKN180 BKN200 19/M01 A2978 RMK AO2 SLP070 T01891011 53006 $","lat":33.4278,"lon":-112.0037,"elev":338,"name":"Phoenix/Sky Harbor Intl, AZ, US","cover":"BKN","clouds":[{"cover":"BKN","base":18000},{"cover":"BKN","base":20000}],"fltCat":"VFR"},{"icaoId":"KORF","receiptTime":"2026-04-17T08:54:06.575Z","obsTime":1776415860,"reportTime":"2026-04-17T09:00:00.000Z","temp":19.4,"dewp":16.1,"wdir":230,"wspd":9,"visib":"10+","altim":1010.9,"slp":1010.7,"qcField":4,"presTend":-0.4,"metarType":"METAR","rawOb":"METAR KORF 170851Z 23009KT 10SM CLR 19/16 A2985 RMK AO2 SLP107 T01940161 55004","lat":36.9037,"lon":-76.1927,"elev":5,"name":"Norfolk Intl, VA, US","cover":"CLR","clouds":[],"fltCat":"VFR"},{"icaoId":"KJFK","receiptTime":"2026-04-17T08:54:06.446Z","obsTime":1776415860,"reportTime":"2026-04-17T09:00:00.000Z","temp":17.2,"dewp":12.8,"wdir":0,"wspd":0,"visib":"10+","altim":1007.9,"slp":1007.8,"qcField":4,"presTend":0.6,"metarType":"METAR","rawOb":"METAR KJFK 170851Z 00000KT 10SM FEW075 SCT170 SCT250 17/13 A2976 RMK AO2 SLP078 T01720128 53006","lat":40.6392,"lon":-73.7639,"elev":3,"name":"New York/JF Kennedy Intl, NY, US","cover":"SCT","clouds":[{"cover":"FEW","base":7500},{"cover":"SCT","base":17000},{"cover":"SCT","base":25000}],"fltCat":"VFR"},{"icaoId":"KEWR","receiptTime":"2026-04-17T08:54:06.282Z","obsTime":1776415860,"reportTime":"2026-04-17T09:00:00.000Z","temp":21.7,"dewp":14.4,"wdir":290,"wspd":7,"visib":"10+","altim":1008.2,"slp":1008,"qcField":4,"presTend":0.4,"precip":0.005,"pcp3hr":0.005,"metarType":"METAR","rawOb":"METAR KEWR 170851Z 29007KT 10SM BKN120 BKN190 BKN250 22/14 A2977 RMK AO2 RAB31E48 SLP080 P0000 60000 T02170144 53004","lat":40.6828,"lon":-74.1692,"elev":2,"name":"Newark Intl, NJ, US","cover":"BKN","clouds":[{"cover":"BKN","base":12000},{"cover":"BKN","base":19000},{"cover":"BKN","base":25000}],"fltCat":"VFR"},{"icaoId":"KVNY","receiptTime":"2026-04-17T08:54:06.059Z","obsTime":1776415860,"reportTime":"2026-04-17T09:00:00.000Z","temp":14.4,"dewp":8.9,"wdir":"VRB","wspd":3,"visib":"10+","altim":1013,"slp":1012.1,"qcField":14,"presTend":0.5,"metarType":"METAR","rawOb":"METAR KVNY 170851Z AUTO VRB03KT 10SM CLR 14/09 A2991 RMK AO2 SLP121 T01440089 53005 $","lat":34.2121,"lon":-118.4915,"elev":241,"name":"Van Nuys Arpt, CA, US","cover":"CLR","clouds":[],"fltCat":"VFR"},{"icaoId":"KLGU","receiptTime":"2026-04-17T08:54:06.459Z","obsTime":1776415860,"reportTime":"2026-04-17T09:00:00.000Z","temp":-2.8,"dewp":-3.9,"wdir":130,"wspd":4,"visib":"10+","altim":1019.7,"slp":1021.7,"qcField":6,"presTend":0.4,"precip":0.005,"pcp3hr":0.005,"metarType":"METAR","rawOb":"METAR KLGU 170851Z AUTO 13004KT 10SM FEW040 BKN065 M03/M04 A3011 RMK AO2 SNB0752E42 SLP217 P0000 60000 T10281039 50004","lat":41.7865,"lon":-111.8519,"elev":1359,"name":"Logan/Cache Arpt, UT, US","cover":"BKN","clouds":[{"cover":"FEW","base":4000},{"cover":"BKN","base":6500}],"fltCat":"VFR"},{"icaoId":"KACT","receiptTime":"2026-04-17T08:54:07.172Z","obsTime":1776415860,"reportTime":"2026-04-17T09:00:00.000Z","temp":20.6,"dewp":18.3,"wdir":180,"wspd":10,"visib":"10+","altim":1011.9,"slp":1011.1,"qcField":4,"presTend":-1.2,"metarType":"METAR","rawOb":"METAR KACT 170851Z 18010KT 10SM FEW021 21/18 A2988 RMK AO2 SLP111 T02060183 56012","lat":31.618,"lon":-97.2283,"elev":150,"name":"Waco Rgnl, TX, US","cover":"FEW","clouds":[{"cover":"FEW","base":2100}],"fltCat":"VFR"},{"icaoId":"KSAN","receiptTime":"2026-04-17T08:54:06.022Z","obsTime":1776415860,"reportTime":"2026-04-17T09:00:00.000Z","temp":16.1,"dewp":10.6,"wdir":100,"wspd":7,"visib":"10+","altim":1014.3,"slp":1014.1,"qcField":12,"presTend":0.2,"metarType":"METAR","rawOb":"METAR KSAN 170851Z 10007KT 10SM BKN029 BKN250 16/11 A2995 RMK AO2 SLP141 T01610106 51002 $","lat":32.7364,"lon":-117.1973,"elev":3,"name":"San Diego Intl Arpt, CA, US","cover":"BKN","clouds":[{"cover":"BKN","base":2900},{"cover":"BKN","base":25000}],"fltCat":"MVFR"},{"icaoId":"KOXR","receiptTime":"2026-04-17T08:54:06.889Z","obsTime":1776415860,"reportTime":"2026-04-17T09:00:00.000Z","temp":12.8,"dewp":10.6,"wdir":50,"wspd":4,"visib":"10+","altim":1012.6,"slp":1012.5,"qcField":14,"presTend":0.4,"metarType":"METAR","rawOb":"METAR KOXR 170851Z AUTO 05004KT 10SM CLR 13/11 A2990 RMK AO2 SLP125 T01280106 53004 $","lat":34.2001,"lon":-119.2042,"elev":12,"name":"Oxnard Arpt, CA, US","cover":"CLR","clouds":[],"fltCat":"VFR"},{"icaoId":"KROW","receiptTime":"2026-04-17T08:54:06.661Z","obsTime":1776415860,"reportTime":"2026-04-17T09:00:00.000Z","temp":14.4,"dewp":-7.8,"wdir":190,"wspd":8,"visib":"10+","altim":1009.2,"slp":1003.3,"qcField":14,"presTend":-0.6,"metarType":"METAR","rawOb":"METAR KROW 170851Z AUTO 19008KT 10SM SCT120 14/M08 A2980 RMK AO2 SLP033 T01441078 58006 $","lat":33.3074,"lon":-104.5082,"elev":1105,"name":"Roswell/Ind Arpt, NM, US","cover":"SCT","clouds":[{"cover":"SCT","base":12000}],"fltCat":"VFR"},{"icaoId":"KPVD","receiptTime":"2026-04-17T08:54:06.625Z","obsTime":1776415860,"reportTime":"2026-04-17T09:00:00.000Z","temp":12.2,"dewp":10.6,"wdir":0,"wspd":0,"visib":8,"altim":1007.5,"slp":1007.4,"qcField":14,"presTend":0.2,"metarType":"METAR","rawOb":"METAR KPVD 170851Z AUTO 00000KT 8SM BKN100 12/11 A2975 RMK AO2 SLP074 T01220106 51002 $","lat":41.7225,"lon":-71.4325,"elev":15,"name":"Providence/Green Mem, RI, US","cover":"BKN","clouds":[{"cover":"BKN","base":10000}],"fltCat":"VFR"},{"icaoId":"KELP","receiptTime":"2026-04-17T08:54:07.498Z","obsTime":1776415860,"reportTime":"2026-04-17T09:00:00.000Z","temp":19.4,"dewp":-8.3,"wdir":220,"wspd":9,"visib":"10+","altim":1011.9,"slp":1005,"qcField":12,"presTend":-0.3,"metarType":"METAR","rawOb":"METAR KELP 170851Z 22009KT 10SM FEW160 FEW250 19/M08 A2988 RMK AO2 SLP050 T01941083 58003 $","lat":31.8123,"lon":-106.3774,"elev":1205,"name":"El Paso Intl, TX, US","cover":"FEW","clouds":[{"cover":"FEW","base":16000},{"cover":"FEW","base":25000}],"fltCat":"VFR"},{"icaoId":"KSTL","receiptTime":"2026-04-17T08:54:06.745Z","obsTime":1776415860,"reportTime":"2026-04-17T09:00:00.000Z","temp":18.3,"dewp":17.2,"wdir":140,"wspd":7,"visib":"10+","altim":1012.3,"slp":1011.2,"qcField":12,"presTend":-1.5,"metarType":"METAR","rawOb":"METAR KSTL 170851Z 14007KT 10SM BKN250 18/17 A2989 RMK AO2 SLP112 T01830172 58015 $","lat":38.7525,"lon":-90.3734,"elev":163,"name":"St Louis/Lambert Intl, MO, US","cover":"BKN","clouds":[{"cover":"BKN","base":25000}],"fltCat":"VFR"},{"icaoId":"KSAD","receiptTime":"2026-04-17T08:54:06.671Z","obsTime":1776415860,"reportTime":"2026-04-17T09:00:00.000Z","temp":16.7,"dewp":-14.4,"wdir":300,"wspd":7,"visib":"10+","altim":1010.9,"slp":1006.5,"qcField":6,"metarType":"METAR","rawOb":"METAR KSAD 170851Z AUTO 30007KT 10SM CLR 17/M14 A2985 RMK AO2 SLP065 T01671144 52000","lat":32.8565,"lon":-109.636,"elev":937,"name":"Safford Rgnl, AZ, US","cover":"CLR","clouds":[],"fltCat":"VFR"},{"icaoId":"KRDU","receiptTime":"2026-04-17T08:54:06.650Z","obsTime":1776415860,"reportTime":"2026-04-17T09:00:00.000Z","temp":18.3,"dewp":10.6,"wdir":250,"wspd":3,"visib":"10+","altim":1013.6,"slp":1013,"qcField":4,"presTend":-0.1,"metarType":"METAR","rawOb":"METAR KRDU 170851Z 25003KT 10SM FEW110 FEW250 18/11 A2993 RMK AO2 SLP130 T01830106 55001","lat":35.8923,"lon":-78.782,"elev":121,"name":"Raleigh-Durham Intl, NC, US","cover":"FEW","clouds":[{"cover":"FEW","base":11000},{"cover":"FEW","base":25000}],"fltCat":"VFR"},{"icaoId":"KLGA","receiptTime":"2026-04-17T08:56:28.454Z","obsTime":1776415860,"reportTime":"2026-04-17T09:00:00.000Z","temp":20,"dewp":14.4,"wdir":0,"wspd":0,"visib":"10+","altim":1007.5,"slp":1007.5,"qcField":4,"wxString":"-RA","presTend":0.2,"precip":0.005,"pcp3hr":0.005,"metarType":"METAR","rawOb":"METAR KLGA 170851Z 00000KT 10SM -RA FEW060 BKN120 BKN250 20/14 A2975 RMK AO2 RAB47 SLP075 P0000 60000 T02000144 53002","lat":40.7794,"lon":-73.8803,"elev":9,"name":"New York/La Guardia Arpt, NY, US","cover":"BKN","clouds":[{"cover":"FEW","base":6000},{"cover":"BKN","base":12000},{"cover":"BKN","base":25000}],"fltCat":"VFR"},{"icaoId":"KMYL","receiptTime":"2026-04-17T08:54:06.543Z","obsTime":1776415860,"reportTime":"2026-04-17T09:00:00.000Z","temp":-5.6,"dewp":-7.2,"wdir":0,"wspd":0,"visib":"10+","altim":1021.1,"slp":1024.5,"qcField":6,"presTend":0.3,"metarType":"METAR","rawOb":"METAR KMYL 170851Z AUTO 00000KT 10SM SCT070 M06/M07 A3015 RMK AO2 SLP245 T10561072 50003","lat":44.8943,"lon":-116.0998,"elev":1532,"name":"McCall Muni, ID, US","cover":"SCT","clouds":[{"cover":"SCT","base":7000}],"fltCat":"VFR"},{"icaoId":"KBDL","receiptTime":"2026-04-17T08:54:07.241Z","obsTime":1776415860,"reportTime":"2026-04-17T09:00:00.000Z","temp":17.2,"dewp":16.1,"wdir":140,"wspd":3,"visib":"10+","altim":1006.5,"slp":1006.4,"qcField":4,"wxString":"-RA","presTend":-0.9,"precip":0.04,"pcp3hr":0.1,"metarType":"METAR","rawOb":"METAR KBDL 170851Z 14003KT 10SM -RA FEW075 SCT090 OVC110 17/16 A2972 RMK AO2 SLP064 P0004 60010 T01720161 58009","lat":41.9374,"lon":-72.682,"elev":52,"name":"Hartford/Bradley Intl, CT, US","cover":"OVC","clouds":[{"cover":"FEW","base":7500},{"cover":"SCT","base":9000},{"cover":"OVC","base":11000}],"fltCat":"VFR"},{"icaoId":"KCRP","receiptTime":"2026-04-17T08:54:07.435Z","obsTime":1776415860,"reportTime":"2026-04-17T09:00:00.000Z","temp":23.9,"dewp":21.7,"wdir":160,"wspd":14,"visib":"10+","altim":1011.3,"slp":1011.1,"qcField":12,"presTend":-2,"metarType":"METAR","rawOb":"METAR KCRP 170851Z 16014KT 10SM BKN015 BKN022 OVC250 24/22 A2986 RMK AO2 SLP111 T02390217 56020 $","lat":27.7734,"lon":-97.513,"elev":11,"name":"Corpus Christi Intl, TX, US","cover":"OVC","clouds":[{"cover":"BKN","base":1500},{"cover":"BKN","base":2200},{"cover":"OVC","base":25000}],"fltCat":"MVFR"}]