[{"icaoId":"KBNA","receiptTime":"2026-04-17T01:32:10.095Z","obsTime":1776389340,"reportTime":"2026-04-17T01:29:00.000Z","temp":15.6,"dewp":12.2,"wdir":350,"wspd":9,"wgst":19,"visib":8,"altim":1019.4,"qcField":4,"wxString":"RA","precip":0.05,"metarType":"SPECI","rawOb":"SPECI KBNA 170129Z 35009G19KT 8SM RA FEW036 SCT047 OVC100 16/12 A3010 RMK AO2 PK WND 34029/0054 TSE23 OCNL LTGIC BDSNT E-SE CB DSNT E-SE P0005 T01560122","lat":36.1105,"lon":-86.6881,"elev":168,"name":"Nashville Intl, TN, US","cover":"OVC","clouds":[{"cover":"FEW","base":3600},{"cover":"SCT","base":4700},{"cover":"OVC","base":10000}],"fltCat":"VFR"},{"icaoId":"KCDC","receiptTime":"2026-04-17T01:30:09.678Z","obsTime":1776389220,"reportTime":"2026-04-17T01:27:00.000Z","temp":8.3,"dewp":-5,"wdir":30,"wspd":12,"visib":"10+","altim":1010.9,"qcField":6,"metarType":"SPECI","rawOb":"SPECI KCDC 170127Z AUTO 03012KT 10SM OVC090 08/M05 A2985 RMK AO2 PK WND 35027/0111 WSHFT 0107 T00831050","lat":37.7067,"lon":-113.097,"elev":1703,"name":"Cedar City Muni, UT, US","cover":"OVC","clouds":[{"cover":"OVC","base":9000}],"fltCat":"VFR"},{"icaoId":"KGTF","receiptTime":"2026-04-17T01:24:05.231Z","obsTime":1776388800,"reportTime":"2026-04-17T01:20:00.000Z","temp":-2.2,"dewp":-4.4,"wdir":330,"wspd":12,"visib":8,"altim":1014.3,"qcField":4,"precip":0.005,"metarType":"SPECI","rawOb":"SPECI KGTF 170120Z 33012KT 8SM BKN026 BKN035 OVC050 M02/M04 A2995 RMK AO2 SNB0056E20 P0000 T10221044","lat":47.4733,"lon":-111.3828,"elev":1117,"name":"Great Falls Intl, MT, US","cover":"OVC","clouds":[{"cover":"BKN","base":2600},{"cover":"BKN","base":3500},{"cover":"OVC","base":5000}],"fltCat":"MVFR"},{"icaoId":"KMTJ","receiptTime":"2026-04-17T01:24:05.256Z","obsTime":1776388800,"reportTime":"2026-04-17T01:20:00.000Z","temp":17.8,"dewp":-13.3,"wdir":180,"wspd":17,"wgst":28,"visib":"10+","altim":1009.6,"qcField":6,"metarType":"SPECI","rawOb":"SPECI KMTJ 170120Z AUTO 18017G28KT 10SM CLR 18/M13 A2981 RMK AO2 PK WND 17028/0117 WSHFT 0100 T01781133","lat":38.5054,"lon":-107.8981,"elev":1755,"name":"Montrose Rgnl, CO, US","cover":"CLR","clouds":[],"fltCat":"VFR"},{"icaoId":"KROC","receiptTime":"2026-04-17T01:22:10.590Z","obsTime":1776388740,"reportTime":"2026-04-17T01:19:00.000Z","temp":16.7,"dewp":16.1,"wdir":220,"wspd":4,"visib":"10+","altim":1009.9,"qcField":12,"metarType":"SPECI","rawOb":"SPECI KROC 170119Z 22004KT 10SM BKN010 BKN020 OVC045 17/16 A2982 RMK AO2 T01670161 $","lat":43.1172,"lon":-77.6754,"elev":166,"name":"Rochester Intl Arpt, NY, US","cover":"OVC","clouds":[{"cover":"BKN","base":1000},{"cover":"BKN","base":2000},{"cover":"OVC","base":4500}],"fltCat":"MVFR"},{"icaoId":"KSHR","receiptTime":"2026-04-17T01:22:10.621Z","obsTime":1776388740,"reportTime":"2026-04-17T01:19:00.000Z","temp":-1.1,"dewp":-1.1,"wdir":10,"wspd":7,"visib":0.25,"altim":1011.9,"qcField":6,"wxString":"+SN FZFG","precip":0.04,"metarType":"SPECI","rawOb":"SPECI KSHR 170119Z AUTO 01007KT 1/4SM +SN FZFG BKN005 OVC014 M01/M01 A2988 RMK AO2 P0004 T10111011","lat":44.7603,"lon":-106.9741,"elev":1212,"name":"Sheridan Cnty Arpt, WY, US","cover":"OVC","clouds":[{"cover":"BKN","base":500},{"cover":"OVC","base":1400}],"fltCat":"LIFR"},{"icaoId":"KEVW","receiptTime":"2026-04-17T01:22:04.262Z","obsTime":1776388680,"reportTime":"2026-04-17T01:18:00.000Z","temp":-5.6,"dewp":-7.8,"wdir":220,"wspd":11,"visib":9,"altim":1014.6,"qcField":14,"wxString":"-SN","precip":0.005,"metarType":"SPECI","rawOb":"SPECI KEVW 170118Z AUTO 22011KT 9SM -SN SCT015 OVC026 M06/M08 A2996 RMK AO2 SNB16 P0000 T10561078 $","lat":41.2727,"lon":-111.0305,"elev":2178,"name":"Evanston/Uinta Cnty, WY, US","cover":"OVC","clouds":[{"cover":"SCT","base":1500},{"cover":"OVC","base":2600}],"fltCat":"MVFR"},{"icaoId":"KHAF","receiptTime":"2026-04-17T01:16:06.591Z","obsTime":1776388500,"reportTime":"2026-04-17T01:15:00.000Z","wdir":350,"wspd":16,"visib":8,"altim":1017.4,"qcField":6,"metarType":"METAR","rawOb":"METAR KHAF 170115Z AUTO 35016KT 8SM CLR A3004 RMK AO2","lat":37.5136,"lon":-122.4996,"elev":11,"name":"Half Moon Bay Arpt, CA, US","cover":"CLR","clouds":[],"fltCat":"VFR"},{"icaoId":"KHII","receiptTime":"2026-04-17T01:20:22.449Z","obsTime":1776388500,"reportTime":"2026-04-17T01:15:00.000Z","temp":29,"dewp":-4,"wdir":170,"wspd":11,"visib":"10+","altim":1006.2,"qcField":6,"metarType":"METAR","rawOb":"METAR KHII 170115Z AUTO 17011KT 10SM CLR 29/M04 A2971 RMK AO2","lat":34.5659,"lon":-114.3522,"elev":241,"name":"Lake Havasu City Arpt, AZ, US","cover":"CLR","clouds":[],"fltCat":"VFR"},{"icaoId":"KCXP","receiptTime":"2026-04-17T01:20:21.683Z","obsTime":1776388500,"reportTime":"2026-04-17T01:15:00.000Z","temp":10,"dewp":-17,"wdir":350,"wspd":21,"wgst":30,"visib":"10+","altim":1018,"qcField":6,"metarType":"METAR","rawOb":"METAR KCXP 170115Z AUTO 35021G30KT 10SM CLR 10/M17 A3006 RMK AO2","lat":39.1905,"lon":-119.7319,"elev":1431,"name":"Carson City Arpt, NV, US","cover":"CLR","clouds":[],"fltCat":"VFR"},{"icaoId":"KRTS","receiptTime":"2026-04-17T01:20:20.799Z","obsTime":1776388500,"reportTime":"2026-04-17T01:15:00.000Z","temp":7,"dewp":-16,"wdir":350,"wspd":21,"wgst":29,"visib":"10+","altim":1020.1,"qcField":6,"metarType":"METAR","rawOb":"METAR KRTS 170115Z AUTO 35021G29KT 10SM CLR 07/M16 A3012 RMK AO2","lat":39.6658,"lon":-119.8731,"elev":1537,"name":"Reno/Stead Arpt, NV, US","cover":"CLR","clouds":[],"fltCat":"VFR"},{"icaoId":"KSOW","receiptTime":"2026-04-17T01:18:21.015Z","obsTime":1776388500,"reportTime":"2026-04-17T01:15:00.000Z","temp":17,"dewp":-13,"wdir":210,"wspd":15,"wgst":23,"visib":"10+","altim":1015.3,"qcField":6,"metarType":"METAR","rawOb":"METAR KSOW 170115Z AUTO 21015G23KT 10SM CLR 17/M13 A2998 RMK AO2","lat":34.2686,"lon":-110.0019,"elev":1954,"name":"Show Low Muni, AZ, US","cover":"CLR","clouds":[],"fltCat":"VFR"},{"icaoId":"KHCR","receiptTime":"2026-04-17T01:18:18.493Z","obsTime":1776388500,"reportTime":"2026-04-17T01:15:00.000Z","temp":-2.4,"dewp":-4,"wdir":150,"wspd":8,"visib":1.75,"altim":1015.3,"qcField":14,"wxString":"-SN BR","precip":0.01,"metarType":"METAR","rawOb":"METAR KHCR 170115Z AUTO 15008KT 1 3/4SM -SN BR BKN016 BKN020 OVC032 M02/M04 A2998 RMK AO2 P0001 T10241040 $","lat":40.4774,"lon":-111.4329,"elev":1708,"name":"Heber City Muni, UT, US","cover":"OVC","clouds":[{"cover":"BKN","base":1600},{"cover":"BKN","base":2000},{"cover":"OVC","base":3200}],"fltCat":"IFR"},{"icaoId":"KMHR","receiptTime":"2026-04-17T01:20:15.205Z","obsTime":1776388500,"reportTime":"2026-04-17T01:15:00.000Z","temp":20,"dewp":-4,"wdir":330,"wspd":19,"wgst":26,"visib":"10+","altim":1015.3,"qcField":6,"metarType":"METAR","rawOb":"METAR KMHR 170115Z AUTO 33019G26KT 10SM CLR 20/M04 A2998 RMK AO2","lat":38.56,"lon":-121.284,"elev":30,"name":"Sacramento/Mather Fld, CA, US","cover":"CLR","clouds":[],"fltCat":"VFR"},{"icaoId":"KHOB","receiptTime":"2026-04-17T01:24:05.486Z","obsTime":1776388500,"reportTime":"2026-04-17T01:15:00.000Z","temp":25,"dewp":-10,"wdir":200,"wspd":7,"visib":"10+","altim":1011.3,"qcField":6,"metarType":"METAR","rawOb":"METAR KHOB 170115Z AUTO 20007KT 10SM CLR 25/M10 A2986 RMK AO2","lat":32.6797,"lon":-103.2222,"elev":1112,"name":"Hobbs Arpt, NM, US","cover":"CLR","clouds":[],"fltCat":"VFR"},{"icaoId":"KIFP","receiptTime":"2026-04-17T01:20:15.336Z","obsTime":1776388500,"reportTime":"2026-04-17T01:15:00.000Z","temp":29,"dewp":-3,"wdir":190,"wspd":15,"visib":"10+","altim":1004.8,"qcField":6,"metarType":"METAR","rawOb":"METAR KIFP 170115Z AUTO 19015KT 10SM CLR 29/M03 A2967 RMK AO2","lat":35.1487,"lon":-114.5611,"elev":210,"name":"Bullhead City Intl, AZ, US","cover":"CLR","clouds":[],"fltCat":"VFR"},{"icaoId":"KMEV","receiptTime":"2026-04-17T01:20:15.974Z","obsTime":1776388500,"reportTime":"2026-04-17T01:15:00.000Z","temp":11,"dewp":-16,"wdir":350,"wspd":23,"wgst":31,"visib":"10+","altim":1017,"qcField":6,"metarType":"METAR","rawOb":"METAR KMEV 170115Z AUTO 35023G31KT 10SM CLR 11/M16 A3003 RMK AO2","lat":38.9963,"lon":-119.75,"elev":1437,"name":"Minden-Tahoe Arpt, NV, US","cover":"CLR","clouds":[],"fltCat":"VFR"},{"icaoId":"KHTH","receiptTime":"2026-04-17T01:20:21.276Z","obsTime":1776388500,"reportTime":"2026-04-17T01:15:00.000Z","temp":12,"dewp":-20,"wdir":360,"wspd":17,"wgst":27,"visib":"10+","altim":1017.4,"qcField":6,"metarType":"METAR","rawOb":"METAR KHTH 170115Z AUTO 36017G27KT 10SM FEW100 12/M20 A3004 RMK A01","lat":38.5448,"lon":-118.6314,"elev":1281,"name":"Hawthorne Muni, NV, US","cover":"FEW","clouds":[{"cover":"FEW","base":10000}],"fltCat":"VFR"},{"icaoId":"KSEZ","receiptTime":"2026-04-17T01:20:24.059Z","obsTime":1776388500,"reportTime":"2026-04-17T01:15:00.000Z","temp":17,"dewp":-10,"wdir":170,"wspd":10,"wgst":16,"visib":"10+","altim":1012.6,"qcField":6,"metarType":"METAR","rawOb":"METAR KSEZ 170115Z AUTO 17010G16KT 10SM CLR 17/M10 A2990 RMK AO2","lat":34.8467,"lon":-111.7884,"elev":1455,"name":"Sedona Arpt, AZ, US","cover":"CLR","clouds":[],"fltCat":"VFR"},{"icaoId":"KBVU","receiptTime":"2026-04-17T01:16:05.998Z","obsTime":1776388500,"reportTime":"2026-04-17T01:15:00.000Z","temp":26,"dewp":-6,"wdir":240,"wspd":18,"visib":"10+","altim":1005.8,"qcField":6,"metarType":"METAR","rawOb":"METAR KBVU 170115Z AUTO 24018KT 10SM CLR 26/M06 A2970 RMK AO2","lat":35.9489,"lon":-114.8633,"elev":654,"name":"Boulder City Muni, NV, US","cover":"CLR","clouds":[],"fltCat":"VFR"},{"icaoId":"KLRU","receiptTime":"2026-04-17T01:18:20.420Z","obsTime":1776388500,"reportTime":"2026-04-17T01:15:00.000Z","temp":24,"dewp":-14.2,"wdir":220,"wspd":9,"visib":"10+","altim":1012.6,"qcField":6,"metarType":"METAR","rawOb":"METAR KLRU 170115Z AUTO 22009KT 10SM CLR 24/M14 A2990 RMK AO2 T02401142","lat":32.2884,"lon":-106.9131,"elev":1355,"name":"Las Cruces Intl, NM, US","cover":"CLR","clouds":[],"fltCat":"VFR"},{"icaoId":"KSYR","receiptTime":"2026-04-17T01:16:05.904Z","obsTime":1776388380,"reportTime":"2026-04-17T01:13:00.000Z","temp":16.1,"dewp":15,"wdir":180,"wspd":5,"visib":8,"altim":1010.2,"qcField":12,"wxString":"-RA","precip":0.02,"metarType":"SPECI","rawOb":"SPECI KSYR 170113Z 18005KT 8SM -RA SCT020 SCT036 OVC090 16/15 A2983 RMK AO2 TSE07 TS MOVD NE P0002 T01610150 $","lat":43.1111,"lon":-76.1038,"elev":125,"name":"Syracuse/Hancock Intl, NY, US","cover":"OVC","clouds":[{"cover":"SCT","base":2000},{"cover":"SCT","base":3600},{"cover":"OVC","base":9000}],"fltCat":"VFR"},{"icaoId":"KBIL","receiptTime":"2026-04-17T01:18:07.397Z","obsTime":1776388200,"reportTime":"2026-04-17T01:10:00.000Z","temp":1.7,"dewp":-1.1,"wdir":170,"wspd":8,"visib":9,"altim":1011.9,"qcField":13,"precip":0.005,"metarType":"SPECI","rawOb":"SPECI KBIL 170110Z COR 17008KT 9SM BKN040 OVC050 02/M01 A2988 RMK AO2 SNE10 VCSH S-W P0000 T00171011 $","lat":45.8072,"lon":-108.5462,"elev":1089,"name":"Billings/Logan Intl, MT, US","cover":"OVC","clouds":[{"cover":"BKN","base":4000},{"cover":"OVC","base":5000}],"fltCat":"VFR"},{"icaoId":"KASE","receiptTime":"2026-04-17T01:14:17.566Z","obsTime":1776388200,"reportTime":"2026-04-17T01:10:00.000Z","temp":12.2,"dewp":-13.9,"wdir":"VRB","wspd":6,"wgst":17,"visib":"10+","altim":1009.2,"qcField":4,"metarType":"SPECI","rawOb":"SPECI KASE 170110Z VRB06G17KT 10SM CLR 12/M14 A2980 RMK AO2 T01221139","lat":39.2299,"lon":-106.8705,"elev":2384,"name":"Aspen/Pitkin Cnty, CO, US","cover":"CLR","clouds":[],"fltCat":"VFR"},{"icaoId":"KJAC","receiptTime":"2026-04-17T01:12:04.412Z","obsTime":1776388140,"reportTime":"2026-04-17T01:09:00.000Z","temp":-4,"dewp":-8,"wdir":200,"wspd":8,"visib":8,"altim":1011.9,"qcField":4,"wxString":"-SN","precip":0.005,"metarType":"SPECI","rawOb":"SPECI KJAC 170109Z 20008KT 8SM -SN FEW007 SCT027 BKN034 M04/M08 A2988 RMK AO2 P0000","lat":43.6129,"lon":-110.7366,"elev":1967,"name":"Jackson Hole Arpt, WY, US","cover":"BKN","clouds":[{"cover":"FEW","base":700},{"cover":"SCT","base":2700},{"cover":"BKN","base":3400}],"fltCat":"VFR"},{"icaoId":"KRKS","receiptTime":"2026-04-17T01:04:46.965Z","obsTime":1776387660,"reportTime":"2026-04-17T01:01:00.000Z","temp":-3.9,"dewp":-5,"wdir":260,"wspd":20,"wgst":25,"visib":0.25,"altim":1013,"qcField":6,"wxString":"SN FZFG","precip":0.005,"vertVis":8,"metarType":"SPECI","rawOb":"SPECI KRKS 170101Z AUTO 26020G25KT 1/4SM SN FZFG VV008 M04/M05 A2991 RMK AO2 P0000 T10391050","lat":41.5947,"lon":-109.0529,"elev":2062,"name":"Rock Springs/SW Wyoming Rgnl, WY, US","cover":"OVX","clouds":[{"cover":"OVX","base":800}],"fltCat":"LIFR"},{"icaoId":"KCPR","receiptTime":"2026-04-17T01:04:29.751Z","obsTime":1776387600,"reportTime":"2026-04-17T01:00:00.000Z","temp":0,"dewp":-1.1,"wdir":10,"wspd":11,"wgst":20,"visib":0.75,"altim":1008.9,"qcField":4,"wxString":"-SN BR","precip":0.01,"metarType":"SPECI","rawOb":"SPECI KCPR 170100Z 01011G20KT 3/4SM R03/4500V6000FT -SN BR BKN013 BKN023 OVC029 00/M01 A2979 RMK AO2 PRESRR P0001 T00001011","lat":42.8978,"lon":-106.4736,"elev":1623,"name":"Casper/Natrona Cnty, WY, US","cover":"OVC","clouds":[{"cover":"BKN","base":1300},{"cover":"BKN","base":2300},{"cover":"OVC","base":2900}],"fltCat":"LIFR"},{"icaoId":"KFLG","receiptTime":"2026-04-17T01:00:14.453Z","obsTime":1776387420,"reportTime":"2026-04-17T01:00:00.000Z","temp":11.7,"dewp":-10,"wdir":210,"wspd":15,"wgst":31,"visib":"10+","altim":1014.6,"slp":1010.3,"qcField":6,"metarType":"METAR","rawOb":"METAR KFLG 170057Z AUTO 21015G31KT 10SM CLR 12/M10 A2996 RMK AO2 PK WND 21031/0034 SLP103 T01171100","lat":35.1443,"lon":-111.6664,"elev":2134,"name":"Flagstaff/Pulliam Arpt, AZ, US","cover":"CLR","clouds":[],"fltCat":"VFR"},{"icaoId":"KNYL","receiptTime":"2026-04-17T01:00:16.776Z","obsTime":1776387420,"reportTime":"2026-04-17T01:00:00.000Z","temp":30.6,"dewp":1.1,"wdir":160,"wspd":11,"visib":"10+","altim":1006.5,"slp":1006.3,"qcField":4,"metarType":"METAR","rawOb":"METAR KNYL 170057Z 16011KT 10SM CLR 31/01 A2972 RMK AO2 SLP063 T03060011","lat":32.66,"lon":-114.6078,"elev":58,"name":"Yuma , AZ, US","cover":"CLR","clouds":[],"fltCat":"VFR"},{"icaoId":"KSDY","receiptTime":"2026-04-17T00:58:25.731Z","obsTime":1776387360,"reportTime":"2026-04-17T01:00:00.000Z","temp":1.7,"dewp":-3.3,"wdir":340,"wspd":15,"wgst":20,"visib":"10+","altim":1011.6,"slp":1013.8,"qcField":78,"metarType":"METAR","rawOb":"METAR KSDY 170056Z AUTO 34015G20KT 10SM BKN025 BKN085 02/M03 A2987 RMK AO2 SLP138 T00171033 FZRANO $","lat":47.7029,"lon":-104.1951,"elev":600,"name":"Sidney/Richland Muni, MT, US","cover":"BKN","clouds":[{"cover":"BKN","base":2500},{"cover":"BKN","base":8500}],"fltCat":"MVFR"},{"icaoId":"KINW","receiptTime":"2026-04-17T01:00:08.174Z","obsTime":1776387360,"reportTime":"2026-04-17T01:00:00.000Z","temp":18.9,"dewp":-15,"wdir":230,"wspd":14,"wgst":22,"visib":"10+","altim":1012.6,"slp":1009.3,"qcField":6,"metarType":"METAR","rawOb":"METAR KINW 170056Z AUTO 23014G22KT 10SM CLR 19/M15 A2990 RMK AO2 SLP093 T01891150","lat":35.0279,"lon":-110.7221,"elev":1492,"name":"Winslow/Lindberg Rgnl, AZ, US","cover":"CLR","clouds":[],"fltCat":"VFR"},{"icaoId":"KLAS","receiptTime":"2026-04-17T01:00:10.624Z","obsTime":1776387360,"reportTime":"2026-04-17T01:00:00.000Z","temp":25.6,"dewp":-2.2,"wdir":200,"wspd":20,"wgst":29,"visib":"10+","altim":1005.8,"slp":1003.9,"qcField":12,"metarType":"METAR","rawOb":"METAR KLAS 170056Z 20020G29KT 10SM FEW120 FEW170 BKN250 26/M02 A2970 RMK AO2 SLP039 T02561022 $","lat":36.0719,"lon":-115.1634,"elev":662,"name":"Las Vegas/Reid Intl, NV, US","cover":"BKN","clouds":[{"cover":"FEW","base":12000},{"cover":"FEW","base":17000},{"cover":"BKN","base":25000}],"fltCat":"VFR"},{"icaoId":"KGUC","receiptTime":"2026-04-17T00:58:28.536Z","obsTime":1776387360,"reportTime":"2026-04-17T01:00:00.000Z","temp":12.2,"dewp":-10.6,"wdir":250,"wspd":12,"wgst":16,"visib":"10+","altim":1011.3,"slp":1009.4,"qcField":14,"metarType":"METAR","rawOb":"METAR KGUC 170056Z AUTO 25012G16KT 10SM CLR 12/M11 A2986 RMK AO2 SLP094 T01221106 $","lat":38.5322,"lon":-106.9419,"elev":2337,"name":"Gunnison Arpt, CO, US","cover":"CLR","clouds":[],"fltCat":"VFR"},{"icaoId":"KPVU","receiptTime":"2026-04-17T00:58:28.201Z","obsTime":1776387360,"reportTime":"2026-04-17T01:00:00.000Z","temp":3.3,"dewp":-6.7,"wdir":30,"wspd":5,"visib":"10+","altim":1016.3,"slp":1015,"qcField":4,"precip":0.005,"metarType":"METAR","rawOb":"METAR KPVU 170056Z 03005KT 10SM FEW035 BKN055 OVC065 03/M07 A3001 RMK AO2 UPB09E16RAB31E46SNE09 SLP150 P0000 T00331067","lat":40.224,"lon":-111.7252,"elev":1370,"name":"Provo Muni, UT, US","cover":"OVC","clouds":[{"cover":"FEW","base":3500},{"cover":"BKN","base":5500},{"cover":"OVC","base":6500}],"fltCat":"VFR"},{"icaoId":"KENV","receiptTime":"2026-04-17T00:58:26.363Z","obsTime":1776387360,"reportTime":"2026-04-17T01:00:00.000Z","temp":5,"dewp":-14.4,"wdir":320,"wspd":21,"wgst":29,"visib":"10+","altim":1018,"slp":1017.9,"qcField":6,"metarType":"METAR","rawOb":"METAR KENV 170056Z AUTO 32021G29KT 10SM CLR 05/M14 A3006 RMK AO2 PK WND 32033/0038 SLP179 T00501144","lat":40.7211,"lon":-114.0312,"elev":1291,"name":"Wendover Arpt, UT, US","cover":"CLR","clouds":[],"fltCat":"VFR"},{"icaoId":"KCEC","receiptTime":"2026-04-17T01:00:13.509Z","obsTime":1776387360,"reportTime":"2026-04-17T01:00:00.000Z","temp":11.7,"dewp":5.6,"wdir":340,"wspd":17,"wgst":33,"visib":"10+","altim":1024.1,"slp":1024.2,"qcField":6,"metarType":"METAR","rawOb":"METAR KCEC 170056Z AUTO 34017G33KT 10SM CLR 12/06 A3024 RMK AO2 PK WND 34036/0046 SLP242 T01170056","lat":41.7836,"lon":-124.238,"elev":17,"name":"Crescent City/McNama, CA, US","cover":"CLR","clouds":[],"fltCat":"VFR"},{"icaoId":"KSBP","receiptTime":"2026-04-17T01:00:07.457Z","obsTime":1776387360,"reportTime":"2026-04-17T01:00:00.000Z","temp":17.8,"dewp":9.4,"wdir":310,"wspd":13,"visib":"10+","altim":1012.3,"slp":1012.1,"qcField":4,"metarType":"METAR","rawOb":"METAR KSBP 170056Z 31013KT 10SM CLR 18/09 A2989 RMK AO2 SLP121 T01780094","lat":35.2381,"lon":-120.644,"elev":52,"name":"San Luis Obispo/San Luis Cnty, CA, US","cover":"CLR","clouds":[],"fltCat":"VFR"},{"icaoId":"KEGE","receiptTime":"2026-04-17T00:58:28.933Z","obsTime":1776387360,"reportTime":"2026-04-17T01:00:00.000Z","temp":15,"dewp":-10,"wdir":230,"wspd":15,"wgst":27,"visib":"10+","altim":1007.9,"slp":1004.3,"qcField":6,"metarType":"METAR","rawOb":"METAR KEGE 170056Z AUTO 23015G27KT 10SM CLR 15/M10 A2976 RMK AO2 PK WND 23031/0001 SLP043 T01501100","lat":39.6448,"lon":-106.9176,"elev":1993,"name":"Eagle Cnty Rgnl, CO, US","cover":"CLR","clouds":[],"fltCat":"VFR"},{"icaoId":"KUKI","receiptTime":"2026-04-17T01:00:05.943Z","obsTime":1776387360,"reportTime":"2026-04-17T01:00:00.000Z","temp":19.4,"dewp":1.1,"wdir":350,"wspd":5,"visib":"10+","altim":1017.7,"slp":1017.3,"qcField":6,"metarType":"METAR","rawOb":"METAR KUKI 170056Z AUTO 35005KT 10SM CLR 19/01 A3005 RMK AO2 SLP173 T01940011","lat":39.1278,"lon":-123.2001,"elev":183,"name":"Ukiah Muni, CA, US","cover":"CLR","clouds":[],"fltCat":"VFR"},{"icaoId":"KPWT","receiptTime":"2026-04-17T00:58:28.242Z","obsTime":1776387360,"reportTime":"2026-04-17T01:00:00.000Z","temp":12.2,"dewp":0.6,"wdir":220,"wspd":14,"visib":"10+","altim":1024.1,"slp":1024.7,"qcField":6,"metarType":"METAR","rawOb":"METAR KPWT 170056Z AUTO 22014KT 10SM BKN075 12/01 A3024 RMK AO2 SLP247 T01220006","lat":47.4942,"lon":-122.7594,"elev":143,"name":"Bremerton Arpt, WA, US","cover":"BKN","clouds":[{"cover":"BKN","base":7500}],"fltCat":"VFR"},{"icaoId":"KSFO","receiptTime":"2026-04-17T01:00:08.470Z","obsTime":1776387360,"reportTime":"2026-04-17T01:00:00.000Z","temp":17.2,"dewp":6.7,"wdir":280,"wspd":20,"visib":"10+","altim":1016.7,"slp":1016.6,"qcField":12,"metarType":"METAR","rawOb":"METAR KSFO 170056Z 28020KT 10SM FEW200 17/07 A3002 RMK AO2 PK WND 28026/0055 SLP166 T01720067 $","lat":37.6196,"lon":-122.3656,"elev":2,"name":"San Francisco Intl, CA, US","cover":"FEW","clouds":[{"cover":"FEW","base":20000}],"fltCat":"VFR"},{"icaoId":"KFNL","receiptTime":"2026-04-17T00:58:26.576Z","obsTime":1776387360,"reportTime":"2026-04-17T01:00:00.000Z","temp":21.7,"dewp":-7.8,"wdir":280,"wspd":10,"visib":"10+","altim":1002.1,"slp":997,"qcField":14,"metarType":"METAR","rawOb":"METAR KFNL 170056Z AUTO 28010KT 10SM CLR 22/M08 A2959 RMK AO2 SLP970 T02171078 $","lat":40.4427,"lon":-105.0097,"elev":1529,"name":"Fort Collins/N Colorado Rgnl, CO, US","cover":"CLR","clouds":[],"fltCat":"VFR"},{"icaoId":"KCGZ","receiptTime":"2026-04-17T00:58:30.800Z","obsTime":1776387360,"reportTime":"2026-04-17T01:00:00.000Z","temp":29.4,"dewp":-7.2,"wdir":240,"wspd":9,"wgst":17,"visib":"10+","altim":1008.2,"slp":1007.2,"qcField":14,"metarType":"METAR","rawOb":"METAR KCGZ 170056Z AUTO 24009G17KT 10SM CLR 29/M07 A2977 RMK AO2 SLP072 T02941072 $","lat":32.9531,"lon":-111.7725,"elev":444,"name":"Casa Granda Muni, AZ, US","cover":"CLR","clouds":[],"fltCat":"VFR"},{"icaoId":"KCOD","receiptTime":"2026-04-17T00:58:30.869Z","obsTime":1776387360,"reportTime":"2026-04-17T01:00:00.000Z","temp":0,"dewp":-6.7,"wdir":360,"wspd":13,"visib":"10+","altim":1010.2,"slp":1011.8,"qcField":78,"metarType":"METAR","rawOb":"METAR KCOD 170056Z AUTO 36013KT 10SM FEW041 BKN070 OVC085 00/M07 A2983 RMK AO2 PK WND 01027/0046 SLP118 T00001067 FZRANO $","lat":44.52,"lon":-109.0268,"elev":1550,"name":"Cody/Yellowstone Rgnl, WY, US","cover":"OVC","clouds":[{"cover":"FEW","base":4100},{"cover":"BKN","base":7000},{"cover":"OVC","base":8500}],"fltCat":"VFR"},{"icaoId":"KRDM","receiptTime":"2026-04-17T01:00:07.229Z","obsTime":1776387360,"reportTime":"2026-04-17T01:00:00.000Z","temp":7.2,"dewp":-7.8,"wdir":280,"wspd":14,"wgst":23,"visib":"10+","altim":1023.1,"slp":1024.2,"qcField":4,"metarType":"METAR","rawOb":"METAR KRDM 170056Z 28014G23KT 10SM FEW060 07/M08 A3021 RMK AO2 SLP242 T00721078","lat":44.2558,"lon":-121.1407,"elev":930,"name":"Redmond Muni, OR, US","cover":"FEW","clouds":[{"cover":"FEW","base":6000}],"fltCat":"VFR"},{"icaoId":"KJAX","receiptTime":"2026-04-17T01:00:08.189Z","obsTime":1776387360,"reportTime":"2026-04-17T01:00:00.000Z","temp":23.9,"dewp":13.9,"wdir":140,"wspd":7,"visib":"10+","altim":1017,"slp":1017,"qcField":4,"metarType":"METAR","rawOb":"METAR KJAX 170056Z 14007KT 10SM CLR 24/14 A3003 RMK AO2 SLP170 T02390139","lat":30.4953,"lon":-81.6937,"elev":8,"name":"Jacksonville Intl, FL, US","cover":"CLR","clouds":[],"fltCat":"VFR"},{"icaoId":"KVIS","receiptTime":"2026-04-17T00:58:23.936Z","obsTime":1776387360,"reportTime":"2026-04-17T01:00:00.000Z","temp":22.8,"dewp":6.1,"wdir":310,"wspd":11,"visib":"10+","altim":1013.6,"slp":1013.5,"qcField":14,"metarType":"METAR","rawOb":"METAR KVIS 170056Z AUTO 31011KT 10SM CLR 23/06 A2993 RMK AO2 SLP135 T02280061 PNO $","lat":36.3135,"lon":-119.3884,"elev":92,"name":"Visalia Muni, CA, US","cover":"CLR","clouds":[],"fltCat":"VFR"},{"icaoId":"KCHS","receiptTime":"2026-04-17T01:00:10.269Z","obsTime":1776387360,"reportTime":"2026-04-17T01:00:00.000Z","temp":20.6,"dewp":16.7,"wdir":200,"wspd":11,"visib":"10+","altim":1016,"slp":1015.9,"qcField":4,"metarType":"METAR","rawOb":"METAR KCHS 170056Z 20011KT 10SM CLR 21/17 A3000 RMK AO2 SLP159 T02060167","lat":32.8995,"lon":-80.0407,"elev":12,"name":"Charleston Intl, SC, US","cover":"CLR","clouds":[],"fltCat":"VFR"},{"icaoId":"KSDF","receiptTime":"2026-04-17T01:00:07.501Z","obsTime":1776387360,"reportTime":"2026-04-17T01:00:00.000Z","temp":23.9,"dewp":9.4,"wdir":250,"wspd":5,"visib":"10+","altim":1013.6,"slp":1013,"qcField":4,"metarType":"METAR","rawOb":"METAR KSDF 170056Z 25005KT 10SM FEW070 OVC300 24/09 A2993 RMK AO2 SLP130 T02390094","lat":38.1774,"lon":-85.7308,"elev":146,"name":"Louisville Intl, KY, US","cover":"OVC","clouds":[{"cover":"FEW","base":7000},{"cover":"OVC","base":30000}],"fltCat":"VFR"},{"icaoId":"KSGU","receiptTime":"2026-04-17T00:58:25.824Z","obsTime":1776387360,"reportTime":"2026-04-17T01:00:00.000Z","temp":24.4,"dewp":-5.6,"wdir":220,"wspd":18,"wgst":23,"visib":"10+","altim":1005.8,"slp":1003.4,"qcField":6,"metarType":"METAR","rawOb":"METAR KSGU 170056Z AUTO 22018G23KT 10SM CLR 24/M06 A2970 RMK AO2 SLP034 T02441056","lat":37.0444,"lon":-113.5034,"elev":877,"name":"Saint George Muni, UT, US","cover":"CLR","clouds":[],"fltCat":"VFR"},{"icaoId":"KTPH","receiptTime":"2026-04-17T01:00:07.974Z","obsTime":1776387360,"reportTime":"2026-04-17T01:00:00.000Z","temp":11.7,"dewp":-17.8,"wdir":340,"wspd":16,"wgst":36,"visib":"10+","altim":1013.6,"slp":1011.6,"qcField":6,"metarType":"METAR","rawOb":"METAR KTPH 170056Z AUTO 34016G36KT 10SM CLR 12/M18 A2993 RMK AO2 PK WND 31042/2359 SLP116 T01171178","lat":38.0505,"lon":-117.0906,"elev":1647,"name":"Tonopah Arpt, NV, US","cover":"CLR","clouds":[],"fltCat":"VFR"},{"icaoId":"KBZN","receiptTime":"2026-04-17T01:00:08.223Z","obsTime":1776387360,"reportTime":"2026-04-17T01:00:00.000Z","temp":-1.1,"dewp":-4.4,"wdir":170,"wspd":10,"visib":"10+","altim":1013,"slp":1016.1,"qcField":4,"metarType":"METAR","rawOb":"METAR KBZN 170056Z 17010KT 10SM FEW120 M01/M04 A2991 RMK AO2 SLP161 T10111044","lat":45.7876,"lon":-111.1615,"elev":1349,"name":"Bozeman/Gallatin Fld, MT, US","cover":"FEW","clouds":[{"cover":"FEW","base":12000}],"fltCat":"VFR"},{"icaoId":"KEKO","receiptTime":"2026-04-17T01:00:12.050Z","obsTime":1776387360,"reportTime":"2026-04-17T01:00:00.000Z","temp":2.2,"dewp":-16.1,"wdir":310,"wspd":13,"wgst":24,"visib":"10+","altim":1018.7,"slp":1019.6,"qcField":6,"metarType":"METAR","rawOb":"METAR KEKO 170056Z AUTO 31013G24KT 10SM CLR 02/M16 A3008 RMK AO2 SLP196 T00221161","lat":40.824,"lon":-115.7863,"elev":1541,"name":"Elko Rgnl, NV, US","cover":"CLR","clouds":[],"fltCat":"VFR"},{"icaoId":"KSLE","receiptTime":"2026-04-17T01:00:07.611Z","obsTime":1776387360,"reportTime":"2026-04-17T01:00:00.000Z","temp":11.7,"dewp":0,"wdir":300,"wspd":5,"visib":"10+","altim":1026.2,"slp":1026.1,"qcField":4,"metarType":"METAR","rawOb":"METAR KSLE 170056Z 30005KT 10SM BKN060 12/00 A3030 RMK AO2 SLP261 T01170000","lat":44.9049,"lon":-123.001,"elev":63,"name":"Salem Muni, OR, US","cover":"BKN","clouds":[{"cover":"BKN","base":6000}],"fltCat":"VFR"},{"icaoId":"KHND","receiptTime":"2026-04-17T00:58:28.716Z","obsTime":1776387360,"reportTime":"2026-04-17T01:00:00.000Z","temp":24.4,"dewp":-1.7,"wdir":200,"wspd":20,"wgst":25,"visib":"10+","altim":1007.2,"slp":1006.6,"qcField":12,"metarType":"METAR","rawOb":"METAR KHND 170056Z 20020G25KT 10SM CLR 24/M02 A2974 RMK AO2 PK WND 21026/0031 SLP066 T02441017 $","lat":35.9657,"lon":-115.1343,"elev":740,"name":"Henderson Exec, NV, US","cover":"CLR","clouds":[],"fltCat":"VFR"},{"icaoId":"KHDN","receiptTime":"2026-04-17T00:58:28.627Z","obsTime":1776387360,"reportTime":"2026-04-17T01:00:00.000Z","temp":13.9,"dewp":-11.7,"wdir":230,"wspd":24,"wgst":36,"visib":"10+","altim":1006.2,"slp":1001.2,"qcField":6,"metarType":"METAR","rawOb":"METAR KHDN 170056Z AUTO 23024G36KT 10SM CLR 14/M12 A2971 RMK AO2 PK WND 22036/0056 SLP012 T01391117","lat":40.4842,"lon":-107.2296,"elev":2012,"name":"Hayden/Yampa Valley Arpt, CO, US","cover":"CLR","clouds":[],"fltCat":"VFR"},{"icaoId":"KLWS","receiptTime":"2026-04-17T01:00:08.273Z","obsTime":1776387360,"reportTime":"2026-04-17T01:00:00.000Z","temp":10,"dewp":-5,"wdir":290,"wspd":11,"wgst":19,"visib":"10+","altim":1020.1,"slp":1020.6,"qcField":4,"metarType":"METAR","rawOb":"METAR KLWS 170056Z 29011G19KT 10SM OVC110 10/M05 A3012 RMK AO2 PK WND 29027/0025 SLP206 T01001050","lat":46.3746,"lon":-117.0153,"elev":435,"name":"Lewiston/Nez Perce Cnty, ID, US","cover":"OVC","clouds":[{"cover":"OVC","base":11000}],"fltCat":"VFR"},{"icaoId":"KCOE","receiptTime":"2026-04-17T00:58:30.879Z","obsTime":1776387360,"reportTime":"2026-04-17T01:00:00.000Z","temp":7.2,"dewp":-3.9,"wdir":270,"wspd":10,"visib":"10+","altim":1018,"slp":1021.5,"qcField":14,"metarType":"METAR","rawOb":"METAR KCOE 170056Z AUTO 27010KT 10SM OVC085 07/M04 A3006 RMK AO2 SLP215 T00721039 PNO $","lat":47.7719,"lon":-116.8332,"elev":693,"name":"Coeur DAlene Arpt, ID, US","cover":"OVC","clouds":[{"cover":"OVC","base":8500}],"fltCat":"VFR"},{"icaoId":"KDUG","receiptTime":"2026-04-17T01:02:05.395Z","obsTime":1776387360,"reportTime":"2026-04-17T01:00:00.000Z","temp":24.4,"dewp":-10,"wdir":230,"wspd":15,"wgst":20,"visib":"10+","altim":1013,"slp":1008.5,"qcField":38,"metarType":"METAR","rawOb":"METAR KDUG 170056Z AUTO 23015G20KT 10SM CLR 24/M10 A2991 RMK AO2 SLP085 T02441100 TSNO","lat":31.4725,"lon":-109.6022,"elev":1260,"name":"Douglas/Bisbee Intl, AZ, US","cover":"CLR","clouds":[],"fltCat":"VFR"},{"icaoId":"KGPI","receiptTime":"2026-04-17T00:58:28.494Z","obsTime":1776387300,"reportTime":"2026-04-17T01:00:00.000Z","temp":0,"dewp":-1.7,"wdir":190,"wspd":9,"visib":"10+","altim":1016,"slp":1018.1,"qcField":4,"precip":0.005,"metarType":"METAR","rawOb":"METAR KGPI 170055Z 19009KT 10SM FEW005 00/M02 A3000 RMK AO2 SNE29 SLP181 P0000 T00001017","lat":48.3041,"lon":-114.2643,"elev":903,"name":"Kalispell/Glacier Park Intl, MT, US","cover":"FEW","clouds":[{"cover":"FEW","base":500}],"fltCat":"VFR"},{"icaoId":"KCMA","receiptTime":"2026-04-17T00:58:30.844Z","obsTime":1776387300,"reportTime":"2026-04-17T01:00:00.000Z","temp":17.8,"dewp":12.8,"wdir":190,"wspd":6,"visib":"10+","altim":1011.6,"slp":1012.2,"qcField":4,"metarType":"METAR","rawOb":"METAR KCMA 170055Z 19006KT 10SM CLR 18/13 A2987 RMK AO2 SLP122 T01780128","lat":34.2114,"lon":-119.0876,"elev":20,"name":"Camarillo Arpt, CA, US","cover":"CLR","clouds":[],"fltCat":"VFR"},{"icaoId":"KRNO","receiptTime":"2026-04-17T00:58:28.312Z","obsTime":1776387300,"reportTime":"2026-04-17T01:00:00.000Z","temp":10,"dewp":-16.7,"wdir":360,"wspd":20,"wgst":31,"visib":"10+","altim":1018.7,"slp":1016.9,"qcField":4,"metarType":"METAR","rawOb":"METAR KRNO 170055Z 36020G31KT 10SM CLR 10/M17 A3008 RMK AO2 PK WND 01034/0010 SLP169 T01001167","lat":39.5077,"lon":-119.7683,"elev":1344,"name":"Reno/Tahoe Intl, NV, US","cover":"CLR","clouds":[],"fltCat":"VFR"},{"icaoId":"KLUF","receiptTime":"2026-04-17T01:06:04.627Z","obsTime":1776387300,"reportTime":"2026-04-17T01:00:00.000Z","temp":29.7,"dewp":-9.8,"wdir":240,"wspd":7,"visib":"10+","altim":1006.9,"slp":1005.8,"qcField":14,"metarType":"METAR","rawOb":"METAR KLUF 170055Z AUTO 24007KT 10SM FEW180 30/M10 A2973 RMK AO2 SLP058 T02971098 $","lat":33.538,"lon":-112.38,"elev":333,"name":"Phoenix/Luke AFB, AZ, US","cover":"FEW","clouds":[{"cover":"FEW","base":18000}],"fltCat":"VFR"},{"icaoId":"KAST","receiptTime":"2026-04-17T00:58:29.392Z","obsTime":1776387300,"reportTime":"2026-04-17T01:00:00.000Z","temp":10,"dewp":3.9,"wdir":280,"wspd":8,"visib":"10+","altim":1027.2,"slp":1027,"qcField":6,"metarType":"METAR","rawOb":"METAR KAST 170055Z AUTO 28008KT 10SM FEW027 BKN033 BKN048 10/04 A3033 RMK AO2 SLP270 T01000039","lat":46.157,"lon":-123.8833,"elev":3,"name":"Astoria Rgnl, OR, US","cover":"BKN","clouds":[{"cover":"FEW","base":2700},{"cover":"BKN","base":3300},{"cover":"BKN","base":4800}],"fltCat":"VFR"},{"icaoId":"KEND","receiptTime":"2026-04-17T01:16:04.004Z","obsTime":1776387300,"reportTime":"2026-04-17T01:00:00.000Z","temp":25.5,"dewp":8,"wdir":160,"wspd":14,"visib":"10+","altim":1006.2,"slp":1005.1,"qcField":14,"metarType":"METAR","rawOb":"METAR KEND 170055Z AUTO 16014KT 10SM CLR 26/08 A2971 RMK AO2 SLP051 T02550080 $","lat":36.338,"lon":-97.919,"elev":392,"name":"Enid/Vance AFB, OK, US","cover":"CLR","clouds":[],"fltCat":"VFR"},{"icaoId":"KBFL","receiptTime":"2026-04-17T00:58:15.773Z","obsTime":1776387240,"reportTime":"2026-04-17T01:00:00.000Z","temp":22.2,"dewp":6.7,"wdir":320,"wspd":13,"visib":"10+","altim":1012.6,"slp":1012.3,"qcField":4,"metarType":"METAR","rawOb":"METAR KBFL 170054Z 32013KT 10SM CLR 22/07 A2990 RMK AO2 SLP123 T02220067","lat":35.4342,"lon":-119.0552,"elev":146,"name":"Bakersfield/Meadows Arpt, CA, US","cover":"CLR","clouds":[],"fltCat":"VFR"},{"icaoId":"KBWI","receiptTime":"2026-04-17T00:58:15.861Z","obsTime":1776387240,"reportTime":"2026-04-17T01:00:00.000Z","temp":26.1,"dewp":14.4,"wdir":"VRB","wspd":4,"visib":"10+","altim":1007.2,"slp":1006.9,"qcField":4,"metarType":"METAR","rawOb":"METAR KBWI 170054Z VRB04KT 10SM FEW080 FEW250 26/14 A2974 RMK AO2 SLP069 T02610144","lat":39.1733,"lon":-76.684,"elev":42,"name":"Baltimore-Washington Intl, MD, US","cover":"FEW","clouds":[{"cover":"FEW","base":8000},{"cover":"FEW","base":25000}],"fltCat":"VFR"},{"icaoId":"KCOS","receiptTime":"2026-04-17T00:58:16.383Z","obsTime":1776387240,"reportTime":"2026-04-17T01:00:00.000Z","temp":19.4,"dewp":-12.8,"wdir":240,"wspd":25,"wgst":31,"visib":"10+","altim":1006.2,"slp":1001,"qcField":4,"metarType":"METAR","rawOb":"METAR KCOS 170054Z 24025G31KT 10SM SCT110 BKN180 BKN240 19/M13 A2971 RMK AO2 PK WND 21038/0007 SLP010 CCSL SW T01941128","lat":38.8095,"lon":-104.6887,"elev":1886,"name":"Colorado Spring Arpt, CO, US","cover":"BKN","clouds":[{"cover":"SCT","base":11000},{"cover":"BKN","base":18000},{"cover":"BKN","base":24000}],"fltCat":"VFR"},{"icaoId":"KBUF","receiptTime":"2026-04-17T00:58:16.323Z","obsTime":1776387240,"reportTime":"2026-04-17T01:00:00.000Z","temp":15,"dewp":14.4,"wdir":230,"wspd":4,"visib":3,"altim":1009.9,"slp":1009.7,"qcField":4,"wxString":"BR","metarType":"METAR","rawOb":"METAR KBUF 170054Z 23004KT 3SM BR OVC007 15/14 A2982 RMK AO2 SLP097 T01500144","lat":42.94,"lon":-78.7361,"elev":217,"name":"Buffalo-Niagara Intl, NY, US","cover":"OVC","clouds":[{"cover":"OVC","base":700}],"fltCat":"IFR"},{"icaoId":"KIND","receiptTime":"2026-04-17T00:58:16.197Z","obsTime":1776387240,"reportTime":"2026-04-17T01:00:00.000Z","temp":20,"dewp":11.1,"wdir":260,"wspd":6,"visib":"10+","altim":1013,"slp":1012.5,"qcField":4,"metarType":"METAR","rawOb":"METAR KIND 170054Z 26006KT 10SM FEW045 BKN250 20/11 A2991 RMK AO2 SLP125 T02000111","lat":39.7252,"lon":-86.2816,"elev":242,"name":"Indianapolis Intl, IN, US","cover":"BKN","clouds":[{"cover":"FEW","base":4500},{"cover":"BKN","base":25000}],"fltCat":"VFR"},{"icaoId":"KPHL","receiptTime":"2026-04-17T00:58:13.675Z","obsTime":1776387240,"reportTime":"2026-04-17T01:00:00.000Z","temp":27.2,"dewp":13.3,"wdir":210,"wspd":11,"wgst":17,"visib":"10+","altim":1007.5,"slp":1007.4,"qcField":12,"metarType":"METAR","rawOb":"METAR KPHL 170054Z 21011G17KT 10SM SCT170 BKN280 27/13 A2975 RMK AO2 SLP074 T02720133 $","lat":39.8733,"lon":-75.2268,"elev":2,"name":"Philadelphia Intl, PA, US","cover":"BKN","clouds":[{"cover":"SCT","base":17000},{"cover":"BKN","base":28000}],"fltCat":"VFR"},{"icaoId":"KOLS","receiptTime":"2026-04-17T00:58:13.589Z","obsTime":1776387240,"reportTime":"2026-04-17T01:00:00.000Z","temp":24.4,"dewp":-10.6,"wdir":190,"wspd":12,"wgst":22,"visib":"10+","altim":1012.6,"slp":1008,"qcField":6,"metarType":"METAR","rawOb":"METAR KOLS 170054Z AUTO 19012G22KT 10SM CLR 24/M11 A2990 RMK AO2 SLP080 T02441106","lat":31.4208,"lon":-110.8465,"elev":1194,"name":"Nogales Intl, AZ, US","cover":"CLR","clouds":[],"fltCat":"VFR"},{"icaoId":"KOLM","receiptTime":"2026-04-17T00:58:13.577Z","obsTime":1776387240,"reportTime":"2026-04-17T01:00:00.000Z","temp":12.8,"dewp":-2.2,"wdir":270,"wspd":8,"wgst":19,"visib":"10+","altim":1025.1,"slp":1025.1,"qcField":4,"metarType":"METAR","rawOb":"METAR KOLM 170054Z 27008G19KT 10SM CLR 13/M02 A3027 RMK AO2 SLP251 T01281022","lat":46.9737,"lon":-122.9049,"elev":58,"name":"Olympia Rgnl, WA, US","cover":"CLR","clouds":[],"fltCat":"VFR"},{"icaoId":"KSLC","receiptTime":"2026-04-17T00:58:06.480Z","obsTime":1776387240,"reportTime":"2026-04-17T01:00:00.000Z","temp":2.8,"dewp":-1.7,"wdir":"VRB","wspd":3,"visib":"10+","altim":1016.3,"slp":1015.2,"qcField":12,"metarType":"METAR","rawOb":"METAR KSLC 170054Z VRB03KT 10SM FEW070 SCT140 BKN180 03/M02 A3001 RMK AO2 SLP152 T00281017 $","lat":40.7707,"lon":-111.965,"elev":1286,"name":"Salt Lake City Intl, UT, US","cover":"BKN","clouds":[{"cover":"FEW","base":7000},{"cover":"SCT","base":14000},{"cover":"BKN","base":18000}],"fltCat":"VFR"},{"icaoId":"KDSM","receiptTime":"2026-04-17T00:58:16.429Z","obsTime":1776387240,"reportTime":"2026-04-17T01:00:00.000Z","temp":24.4,"dewp":6.7,"wdir":160,"wspd":8,"visib":"10+","altim":1007.9,"slp":1007.5,"qcField":4,"metarType":"METAR","rawOb":"METAR KDSM 170054Z 16008KT 10SM CLR 24/07 A2976 RMK AO2 SLP075 T02440067","lat":41.5339,"lon":-93.6531,"elev":286,"name":"Des Moines Intl, IA, US","cover":"CLR","clouds":[],"fltCat":"VFR"},{"icaoId":"KGCN","receiptTime":"2026-04-17T00:58:15.906Z","obsTime":1776387240,"reportTime":"2026-04-17T01:00:00.000Z","temp":13.9,"dewp":-8.3,"wdir":230,"wspd":16,"wgst":29,"visib":"10+","altim":1013.3,"slp":1009.9,"qcField":4,"metarType":"METAR","rawOb":"METAR KGCN 170054Z 23016G29KT 10SM CLR 14/M08 A2992 RMK AO2 PK WND 24029/0054 SLP099 T01391083","lat":35.9458,"lon":-112.1554,"elev":1993,"name":"Grand Canyon Park Arpt, AZ, US","cover":"CLR","clouds":[],"fltCat":"VFR"},{"icaoId":"KSJN","receiptTime":"2026-04-17T00:58:06.467Z","obsTime":1776387240,"reportTime":"2026-04-17T01:00:00.000Z","temp":18.3,"dewp":-15,"wdir":250,"wspd":17,"wgst":25,"visib":"10+","altim":1013,"slp":1008.4,"qcField":6,"metarType":"METAR","rawOb":"METAR KSJN 170054Z AUTO 25017G25KT 10SM CLR 18/M15 A2991 RMK AO2 PK WND 25029/0005 SLP084 T01831150","lat":34.5184,"lon":-109.3801,"elev":1747,"name":"St Johns Ind Arpt, AZ, US","cover":"CLR","clouds":[],"fltCat":"VFR"},{"icaoId":"KMEM","receiptTime":"2026-04-17T00:58:13.311Z","obsTime":1776387240,"reportTime":"2026-04-17T01:00:00.000Z","temp":26.1,"dewp":13.9,"wdir":210,"wspd":7,"visib":"10+","altim":1014.3,"slp":1014,"qcField":12,"metarType":"METAR","rawOb":"METAR KMEM 170054Z 21007KT 10SM BKN070 OVC085 26/14 A2995 RMK AO2 SLP140 T02610139 $","lat":35.0564,"lon":-89.9864,"elev":78,"name":"Memphis Intl, TN, US","cover":"OVC","clouds":[{"cover":"BKN","base":7000},{"cover":"OVC","base":8500}],"fltCat":"VFR"},{"icaoId":"KFFZ","receiptTime":"2026-04-17T00:58:06.305Z","obsTime":1776387240,"reportTime":"2026-04-17T01:00:00.000Z","temp":28.3,"dewp":-6.1,"wdir":310,"wspd":6,"visib":"10+","altim":1007.5,"slp":1005.6,"qcField":4,"metarType":"METAR","rawOb":"METAR KFFZ 170054Z 31006KT 10SM CLR 28/M06 A2975 RMK AO2 SLP056 T02831061","lat":33.4659,"lon":-111.7212,"elev":420,"name":"Mesa/Falcon Fld, AZ, US","cover":"CLR","clouds":[],"fltCat":"VFR"},{"icaoId":"KRIC","receiptTime":"2026-04-17T00:58:16.615Z","obsTime":1776387240,"reportTime":"2026-04-17T01:00:00.000Z","temp":23.9,"dewp":10.6,"wdir":210,"wspd":8,"visib":"10+","altim":1009.9,"slp":1010.2,"qcField":4,"metarType":"METAR","rawOb":"METAR KRIC 170054Z 21008KT 10SM CLR 24/11 A2982 RMK AO2 SLP102 T02390106","lat":37.5115,"lon":-77.3234,"elev":51,"name":"Richmond Intl, VA, US","cover":"CLR","clouds":[],"fltCat":"VFR"},{"icaoId":"KEUG","receiptTime":"2026-04-17T00:58:06.258Z","obsTime":1776387240,"reportTime":"2026-04-17T01:00:00.000Z","temp":12.8,"dewp":2.2,"wdir":350,"wspd":5,"visib":"10+","altim":1026.8,"slp":1026.8,"qcField":4,"metarType":"METAR","rawOb":"METAR KEUG 170054Z 35005KT 10SM SCT060 13/02 A3032 RMK AO2 SLP268 T01280022","lat":44.1331,"lon":-123.2156,"elev":109,"name":"Eugene/Mahlon Sweet Fld, OR, US","cover":"SCT","clouds":[{"cover":"SCT","base":6000}],"fltCat":"VFR"},{"icaoId":"KGSO","receiptTime":"2026-04-17T00:58:16.354Z","obsTime":1776387240,"reportTime":"2026-04-17T01:00:00.000Z","temp":24.4,"dewp":9.4,"wdir":220,"wspd":5,"visib":"10+","altim":1013,"slp":1011.7,"qcField":4,"metarType":"METAR","rawOb":"METAR KGSO 170054Z 22005KT 10SM FEW250 24/09 A2991 RMK AO2 SLP117 T02440094","lat":36.0969,"lon":-79.9432,"elev":275,"name":"Greensboro Intl, NC, US","cover":"FEW","clouds":[{"cover":"FEW","base":25000}],"fltCat":"VFR"},{"icaoId":"KAPC","receiptTime":"2026-04-17T00:58:15.744Z","obsTime":1776387240,"reportTime":"2026-04-17T01:00:00.000Z","temp":20.6,"dewp":-6.7,"wdir":360,"wspd":13,"visib":"10+","altim":1016.7,"slp":1015.6,"qcField":4,"metarType":"METAR","rawOb":"METAR KAPC 170054Z 36013KT 10SM CLR 21/M07 A3002 RMK AO2 SLP156 T02061067","lat":38.2075,"lon":-122.2804,"elev":5,"name":"Napa Cnty Arpt, CA, US","cover":"CLR","clouds":[],"fltCat":"VFR"},{"icaoId":"KBTV","receiptTime":"2026-04-17T00:58:16.309Z","obsTime":1776387240,"reportTime":"2026-04-17T01:00:00.000Z","temp":20.6,"dewp":15.6,"wdir":360,"wspd":6,"visib":6,"altim":1006.9,"slp":1006.7,"qcField":12,"wxString":"RA BR","precip":0.19,"metarType":"METAR","rawOb":"METAR KBTV 170054Z 36006KT 6SM RA BR FEW008 FEW047 OVC090 21/16 A2973 RMK AO2 PK WND 33028/0010 LTG DSNT SE-SW SLP067 TSB26E41 P0019 T02060156 $","lat":44.4682,"lon":-73.1499,"elev":101,"name":"Burlington Intl, VT, US","cover":"OVC","clouds":[{"cover":"FEW","base":800},{"cover":"FEW","base":4700},{"cover":"OVC","base":9000}],"fltCat":"VFR"},{"icaoId":"KBOS","receiptTime":"2026-04-17T00:58:15.804Z","obsTime":1776387240,"reportTime":"2026-04-17T01:00:00.000Z","temp":7.2,"dewp":7.2,"wdir":20,"wspd":8,"visib":0.5,"altim":1008.2,"slp":1008.1,"qcField":4,"wxString":"BR","metarType":"METAR","rawOb":"METAR KBOS 170054Z 02008KT 1/2SM R04R/P6000FT BR OVC002 07/07 A2977 RMK AO2 SFC VIS 1 SLP081 T00720072","lat":42.3606,"lon":-71.0097,"elev":4,"name":"Boston/Logan Intl, MA, US","cover":"OVC","clouds":[{"cover":"OVC","base":200}],"fltCat":"LIFR"},{"icaoId":"KPIH","receiptTime":"2026-04-17T00:56:28.260Z","obsTime":1776387180,"reportTime":"2026-04-17T01:00:00.000Z","temp":1.7,"dewp":-9.4,"wdir":300,"wspd":20,"wgst":28,"visib":"10+","altim":1015,"slp":1016.4,"qcField":4,"metarType":"METAR","rawOb":"METAR KPIH 170053Z 30020G28KT 10SM BKN055 BKN075 02/M09 A2997 RMK AO2 PK WND 22032/0000 WSHFT 0001 SLP164 T00171094","lat":42.9197,"lon":-112.5723,"elev":1357,"name":"Pocatello Rgnl, ID, US","cover":"BKN","clouds":[{"cover":"BKN","base":5500},{"cover":"BKN","base":7500}],"fltCat":"VFR"},{"icaoId":"KSWO","receiptTime":"2026-04-17T00:56:23.156Z","obsTime":1776387180,"reportTime":"2026-04-17T01:00:00.000Z","temp":25.6,"dewp":13.3,"wdir":180,"wspd":11,"visib":"10+","altim":1008.2,"slp":1007.1,"qcField":4,"metarType":"METAR","rawOb":"METAR KSWO 170053Z 18011KT 10SM CLR 26/13 A2977 RMK AO2 SLP071 T02560133","lat":36.1624,"lon":-97.0832,"elev":293,"name":"Stillwater Muni, OK, US","cover":"CLR","clouds":[],"fltCat":"VFR"},{"icaoId":"KRDD","receiptTime":"2026-04-17T00:56:23.735Z","obsTime":1776387180,"reportTime":"2026-04-17T01:00:00.000Z","temp":18.3,"dewp":-7.2,"wdir":10,"wspd":13,"visib":"10+","altim":1019.4,"slp":1019.1,"qcField":4,"metarType":"METAR","rawOb":"METAR KRDD 170053Z 01013KT 10SM CLR 18/M07 A3010 RMK AO2 SLP191 T01831072","lat":40.5146,"lon":-122.2977,"elev":152,"name":"Redding Muni, CA, US","cover":"CLR","clouds":[],"fltCat":"VFR"},{"icaoId":"KMAF","receiptTime":"2026-04-17T00:56:29.358Z","obsTime":1776387180,"reportTime":"2026-04-17T01:00:00.000Z","temp":26.7,"dewp":14.4,"wdir":160,"wspd":19,"visib":"10+","altim":1010.9,"slp":1006.6,"qcField":4,"metarType":"METAR","rawOb":"METAR KMAF 170053Z 16019KT 10SM CLR 27/14 A2985 RMK AO2 PK WND 17026/0037 SLP066 T02670144","lat":31.9475,"lon":-102.2086,"elev":874,"name":"Midland Intl, TX, US","cover":"CLR","clouds":[],"fltCat":"VFR"},{"icaoId":"KPAE","receiptTime":"2026-04-17T00:56:23.609Z","obsTime":1776387180,"reportTime":"2026-04-17T01:00:00.000Z","temp":10.6,"dewp":0,"wdir":50,"wspd":5,"visib":"10+","altim":1024.8,"slp":1024.9,"qcField":4,"metarType":"METAR","rawOb":"METAR KPAE 170053Z 05005KT 10SM BKN065 BKN080 11/00 A3026 RMK AO2 SLP249 T01060000","lat":47.9232,"lon":-122.2831,"elev":166,"name":"Everett/Paine Fld, WA, US","cover":"BKN","clouds":[{"cover":"BKN","base":6500},{"cover":"BKN","base":8000}],"fltCat":"VFR"},{"icaoId":"KSAF","receiptTime":"2026-04-17T00:56:29.755Z","obsTime":1776387180,"reportTime":"2026-04-17T01:00:00.000Z","temp":18.9,"dewp":-18.3,"wdir":250,"wspd":12,"wgst":20,"visib":"10+","altim":1012.3,"slp":1006.2,"qcField":4,"metarType":"METAR","rawOb":"METAR KSAF 170053Z 25012G20KT 10SM CLR 19/M18 A2989 RMK AO2 PK WND 22028/0007 SLP062 T01891183","lat":35.611,"lon":-106.0957,"elev":1918,"name":"Santa Fe Cnty Muni, NM, US","cover":"CLR","clouds":[],"fltCat":"VFR"},{"icaoId":"KMLC","receiptTime":"2026-04-17T00:56:26.002Z","obsTime":1776387180,"reportTime":"2026-04-17T01:00:00.000Z","temp":25,"dewp":20.6,"wdir":160,"wspd":6,"visib":"10+","altim":1011.3,"slp":1010.3,"qcField":6,"metarType":"METAR","rawOb":"METAR KMLC 170053Z AUTO 16006KT 10SM CLR 25/21 A2986 RMK AO2 SLP103 T02500206","lat":34.8824,"lon":-95.7815,"elev":231,"name":"McAlester Rgnl, OK, US","cover":"CLR","clouds":[],"fltCat":"VFR"},{"icaoId":"KAMA","receiptTime":"2026-04-17T00:56:24.241Z","obsTime":1776387180,"reportTime":"2026-04-17T01:00:00.000Z","temp":25,"dewp":-13.3,"wdir":230,"wspd":15,"wgst":21,"visib":"10+","altim":1009.6,"slp":1005.8,"qcField":4,"metarType":"METAR","rawOb":"METAR KAMA 170053Z 23015G21KT 10SM CLR 25/M13 A2981 RMK AO2 PK WND 23028/2355 SLP058 T02501133","lat":35.2203,"lon":-101.7173,"elev":1102,"name":"Amarillo Intl Arpt, TX, US","cover":"CLR","clouds":[],"fltCat":"VFR"},{"icaoId":"KSNA","receiptTime":"2026-04-17T00:56:23.757Z","obsTime":1776387180,"reportTime":"2026-04-17T01:00:00.000Z","temp":19.4,"dewp":11.1,"wdir":210,"wspd":10,"visib":"10+","altim":1011.6,"slp":1011.5,"qcField":4,"metarType":"METAR","rawOb":"METAR KSNA 170053Z 21010KT 10SM FEW040 BKN200 19/11 A2987 RMK AO2 SLP115 T01940111","lat":33.6798,"lon":-117.8675,"elev":14,"name":"Santa Ana/Wayne Arpt, CA, US","cover":"BKN","clouds":[{"cover":"FEW","base":4000},{"cover":"BKN","base":20000}],"fltCat":"VFR"},{"icaoId":"KAUS","receiptTime":"2026-04-17T00:56:24.300Z","obsTime":1776387180,"reportTime":"2026-04-17T01:00:00.000Z","temp":27.8,"dewp":17.8,"wdir":160,"wspd":12,"wgst":21,"visib":"10+","altim":1011.9,"slp":1011,"qcField":4,"metarType":"METAR","rawOb":"METAR KAUS 170053Z 16012G21KT 10SM FEW070 SCT200 BKN250 28/18 A2988 RMK AO2 SLP110 T02780178","lat":30.1831,"lon":-97.6806,"elev":148,"name":"Austin/Bergstrom Intl, TX, US","cover":"BKN","clouds":[{"cover":"FEW","base":7000},{"cover":"SCT","base":20000},{"cover":"BKN","base":25000}],"fltCat":"VFR"},{"icaoId":"KMDW","receiptTime":"2026-04-17T00:56:24.816Z","obsTime":1776387180,"reportTime":"2026-04-17T01:00:00.000Z","temp":13.3,"dewp":11.1,"wdir":90,"wspd":8,"visib":"10+","altim":1012.3,"slp":1012,"qcField":4,"metarType":"METAR","rawOb":"METAR KMDW 170053Z 09008KT 10SM FEW005 FEW050 13/11 A2989 RMK AO2 SLP120 T01330111","lat":41.7841,"lon":-87.7552,"elev":186,"name":"Chicago/Midway Intl, IL, US","cover":"FEW","clouds":[{"cover":"FEW","base":500},{"cover":"FEW","base":5000}],"fltCat":"VFR"},{"icaoId":"KGSP","receiptTime":"2026-04-17T00:56:24.987Z","obsTime":1776387180,"reportTime":"2026-04-17T01:00:00.000Z","temp":23.9,"dewp":7.8,"wdir":220,"wspd":8,"visib":"10+","altim":1014.6,"slp":1013.3,"qcField":4,"metarType":"METAR","rawOb":"METAR KGSP 170053Z 22008KT 10SM CLR 24/08 A2996 RMK AO2 SLP133 T02390078","lat":34.8842,"lon":-82.2209,"elev":285,"name":"Greenville-Spartanburg Intl, SC, US","cover":"CLR","clouds":[],"fltCat":"VFR"},{"icaoId":"KCYS","receiptTime":"2026-04-17T00:56:25.294Z","obsTime":1776387180,"reportTime":"2026-04-17T01:00:00.000Z","temp":17.8,"dewp":-9.4,"wdir":210,"wspd":12,"wgst":22,"visib":"10+","altim":1003.5,"slp":996.9,"qcField":4,"metarType":"METAR","rawOb":"METAR KCYS 170053Z 21012G22KT 10SM CLR 18/M09 A2963 RMK AO2 WSHFT 2340 SLP969 T01781094","lat":41.1579,"lon":-104.8081,"elev":1868,"name":"Cheyenne Rgnl, WY, US","cover":"CLR","clouds":[],"fltCat":"VFR"},{"icaoId":"KDEN","receiptTime":"2026-04-17T00:56:25.321Z","obsTime":1776387180,"reportTime":"2026-04-17T01:00:00.000Z","temp":22.2,"dewp":-10,"wdir":270,"wspd":17,"visib":"10+","altim":1002.1,"slp":995.8,"qcField":12,"metarType":"METAR","rawOb":"METAR KDEN 170053Z 27017KT 10SM FEW100 BKN130 BKN220 22/M10 A2959 RMK AO2 PK WND 27027/0042 SLP958 T02221100 $","lat":39.8466,"lon":-104.6562,"elev":1656,"name":"Denver Intl, CO, US","cover":"BKN","clouds":[{"cover":"FEW","base":10000},{"cover":"BKN","base":13000},{"cover":"BKN","base":22000}],"fltCat":"VFR"},{"icaoId":"KDRO","receiptTime":"2026-04-17T00:56:25.343Z","obsTime":1776387180,"reportTime":"2026-04-17T01:00:00.000Z","temp":14.4,"dewp":-10,"wdir":210,"wspd":6,"visib":"10+","altim":1012.6,"slp":1010.6,"qcField":6,"metarType":"METAR","rawOb":"METAR KDRO 170053Z AUTO 21006KT 10SM CLR 14/M10 A2990 RMK AO2 SLP106 T01441100","lat":37.1431,"lon":-107.7602,"elev":2021,"name":"Durango/La Plata Cnty, CO, US","cover":"CLR","clouds":[],"fltCat":"VFR"},{"icaoId":"KPUB","receiptTime":"2026-04-17T00:56:25.378Z","obsTime":1776387180,"reportTime":"2026-04-17T01:00:00.000Z","temp":22.8,"dewp":-11.1,"wdir":210,"wspd":21,"wgst":29,"visib":"10+","altim":1003.8,"slp":1000.2,"qcField":12,"metarType":"METAR","rawOb":"METAR KPUB 170053Z 21021G29KT 10SM CLR 23/M11 A2964 RMK AO2 PK WND 21029/0053 SLP002 T02281111 $","lat":38.2887,"lon":-104.5057,"elev":1441,"name":"Pueblo Mem Arpt, CO, US","cover":"CLR","clouds":[],"fltCat":"VFR"},{"icaoId":"KPBI","receiptTime":"2026-04-17T00:56:25.609Z","obsTime":1776387180,"reportTime":"2026-04-17T01:00:00.000Z","temp":23.9,"dewp":17.2,"wdir":80,"wspd":8,"visib":"10+","altim":1018.7,"slp":1018.7,"qcField":12,"metarType":"METAR","rawOb":"METAR KPBI 170053Z 08008KT 10SM SCT035 SCT250 24/17 A3008 RMK AO2 SLP187 T02390172 $","lat":26.6851,"lon":-80.0992,"elev":4,"name":"Palm Beach Intl, FL, US","cover":"SCT","clouds":[{"cover":"SCT","base":3500},{"cover":"SCT","base":25000}],"fltCat":"VFR"},{"icaoId":"KPNC","receiptTime":"2026-04-17T00:56:25.662Z","obsTime":1776387180,"reportTime":"2026-04-17T01:00:00.000Z","temp":26.7,"dewp":13.3,"wdir":170,"wspd":11,"wgst":20,"visib":"10+","altim":1007.5,"slp":1006.2,"qcField":6,"metarType":"METAR","rawOb":"METAR KPNC 170053Z AUTO 17011G20KT 10SM CLR 27/13 A2975 RMK AO2 SLP062 T02670133","lat":36.7369,"lon":-97.1024,"elev":304,"name":"Ponca City Rgnl, OK, US","cover":"CLR","clouds":[],"fltCat":"VFR"},{"icaoId":"KTPA","receiptTime":"2026-04-17T00:56:25.813Z","obsTime":1776387180,"reportTime":"2026-04-17T01:00:00.000Z","temp":22.8,"dewp":15.6,"wdir":330,"wspd":7,"visib":"10+","altim":1018,"slp":1017.9,"qcField":4,"metarType":"METAR","rawOb":"METAR KTPA 170053Z 33007KT 10SM CLR 23/16 A3006 RMK AO2 SLP179 T02280156","lat":27.9633,"lon":-82.54,"elev":2,"name":"Tampa Intl Arpt, FL, US","cover":"CLR","clouds":[],"fltCat":"VFR"},{"icaoId":"KMCO","receiptTime":"2026-04-17T00:56:25.921Z","obsTime":1776387180,"reportTime":"2026-04-17T01:00:00.000Z","temp":22.8,"dewp":15.6,"wdir":120,"wspd":8,"visib":"10+","altim":1019,"slp":1018.8,"qcField":4,"metarType":"METAR","rawOb":"METAR KMCO 170053Z 12008KT 10SM SCT250 23/16 A3009 RMK AO2 SLP188 T02280156","lat":28.4182,"lon":-81.3241,"elev":27,"name":"Orlando Intl, FL, US","cover":"SCT","clouds":[{"cover":"SCT","base":25000}],"fltCat":"VFR"},{"icaoId":"KMIA","receiptTime":"2026-04-17T00:56:25.957Z","obsTime":1776387180,"reportTime":"2026-04-17T01:00:00.000Z","temp":23.9,"dewp":17.8,"wdir":40,"wspd":6,"visib":"10+","altim":1018.4,"slp":1018.1,"qcField":0,"metarType":"METAR","rawOb":"METAR KMIA 170053Z 04006KT 10SM FEW035 24/18 A3007 RMK SLP181 T02390178","lat":25.7881,"lon":-80.3169,"elev":1,"name":"Miami Intl, FL, US","cover":"FEW","clouds":[{"cover":"FEW","base":3500}],"fltCat":"VFR"},{"icaoId":"KMSY","receiptTime":"2026-04-17T00:56:26.027Z","obsTime":1776387180,"reportTime":"2026-04-17T01:00:00.000Z","temp":23.9,"dewp":18.3,"wdir":170,"wspd":9,"visib":"10+","altim":1017,"slp":1017,"qcField":4,"metarType":"METAR","rawOb":"METAR KMSY 170053Z 17009KT 10SM FEW035 FEW080 24/18 A3003 RMK AO2 SLP170 T02390183","lat":29.9974,"lon":-90.2777,"elev":0,"name":"New Orleans/Armstrong Intl, LA, US","cover":"FEW","clouds":[{"cover":"FEW","base":3500},{"cover":"FEW","base":8000}],"fltCat":"VFR"},{"icaoId":"KBTM","receiptTime":"2026-04-17T00:56:26.782Z","obsTime":1776387180,"reportTime":"2026-04-17T01:00:00.000Z","temp":0.6,"dewp":-12.8,"wdir":320,"wspd":12,"wgst":23,"visib":"10+","altim":1013,"slp":1016.1,"qcField":6,"precip":0.005,"metarType":"METAR","rawOb":"METAR KBTM 170053Z AUTO 32012G23KT 10SM FEW029 FEW065 SCT085 01/M13 A2991 RMK AO2 PK WND 34029/2357 SNB02E17 SLP161 P0000 T00061128","lat":45.9644,"lon":-112.5015,"elev":1680,"name":"Butte/Mooney Arpt, MT, US","cover":"SCT","clouds":[{"cover":"FEW","base":2900},{"cover":"FEW","base":6500},{"cover":"SCT","base":8500}],"fltCat":"VFR"},{"icaoId":"KBUR","receiptTime":"2026-04-17T00:56:26.794Z","obsTime":1776387180,"reportTime":"2026-04-17T01:00:00.000Z","temp":20.6,"dewp":7.8,"wdir":210,"wspd":7,"visib":"10+","altim":1011.6,"slp":1010.4,"qcField":4,"metarType":"METAR","rawOb":"METAR KBUR 170053Z 21007KT 10SM CLR 21/08 A2987 RMK AO2 SLP104 T02060078","lat":34.1996,"lon":-118.3654,"elev":221,"name":"Burbank/Bob Hope Arpt, CA, US","cover":"CLR","clouds":[],"fltCat":"VFR"},{"icaoId":"KCRQ","receiptTime":"2026-04-17T00:56:26.842Z","obsTime":1776387180,"reportTime":"2026-04-17T01:00:00.000Z","temp":18.3,"dewp":12.2,"wdir":200,"wspd":5,"visib":"10+","altim":1011.9,"slp":1011.7,"qcField":6,"metarType":"METAR","rawOb":"METAR KCRQ 170053Z AUTO 20005KT 10SM CLR 18/12 A2988 RMK AO2 SLP117 T01830122","lat":33.1299,"lon":-117.2765,"elev":96,"name":"Carlsbad/Palomar Arpt, CA, US","cover":"CLR","clouds":[],"fltCat":"VFR"},{"icaoId":"KLAX","receiptTime":"2026-04-17T00:56:26.972Z","obsTime":1776387180,"reportTime":"2026-04-17T01:00:00.000Z","temp":18.3,"dewp":12.8,"wdir":230,"wspd":9,"visib":"10+","altim":1011.9,"slp":1011.6,"qcField":4,"metarType":"METAR","rawOb":"METAR KLAX 170053Z 23009KT 10SM FEW015 FEW250 18/13 A2988 RMK AO2 SLP116 T01830128","lat":33.9382,"lon":-118.3866,"elev":30,"name":"Los Angeles Intl, CA, US","cover":"FEW","clouds":[{"cover":"FEW","base":1500},{"cover":"FEW","base":25000}],"fltCat":"VFR"},{"icaoId":"KLAW","receiptTime":"2026-04-17T00:56:27.055Z","obsTime":1776387180,"reportTime":"2026-04-17T01:00:00.000Z","temp":26.1,"dewp":18.9,"wdir":160,"wspd":14,"wgst":21,"visib":"10+","altim":1008.5,"slp":1007.5,"qcField":6,"metarType":"METAR","rawOb":"METAR KLAW 170053Z AUTO 16014G21KT 10SM CLR 26/19 A2978 RMK AO2 SLP075 T02610189","lat":34.5577,"lon":-98.4172,"elev":328,"name":"Lawton-Fort Sill Rgnl, OK, US","cover":"CLR","clouds":[],"fltCat":"VFR"},{"icaoId":"KLBB","receiptTime":"2026-04-17T00:56:27.066Z","obsTime":1776387180,"reportTime":"2026-04-17T01:00:00.000Z","temp":27.8,"dewp":-5.6,"wdir":220,"wspd":14,"visib":"10+","altim":1009.9,"slp":1005.9,"qcField":4,"metarType":"METAR","rawOb":"METAR KLBB 170053Z 22014KT 10SM FEW120 FEW250 28/M06 A2982 RMK AO2 SLP059 T02781056","lat":33.6658,"lon":-101.8233,"elev":996,"name":"Lubbock Intl Arpt, TX, US","cover":"FEW","clouds":[{"cover":"FEW","base":12000},{"cover":"FEW","base":25000}],"fltCat":"VFR"},{"icaoId":"KLGB","receiptTime":"2026-04-17T00:56:27.208Z","obsTime":1776387180,"reportTime":"2026-04-17T01:00:00.000Z","temp":21.7,"dewp":9.4,"wdir":"VRB","wspd":6,"visib":"10+","altim":1011.3,"slp":1011,"qcField":4,"metarType":"METAR","rawOb":"METAR KLGB 170053Z VRB06KT 10SM CLR 22/09 A2986 RMK AO2 SLP110 T02170094","lat":33.8118,"lon":-118.1472,"elev":10,"name":"Long Beach Arpt, CA, US","cover":"CLR","clouds":[],"fltCat":"VFR"},{"icaoId":"KMFR","receiptTime":"2026-04-17T00:56:27.336Z","obsTime":1776387180,"reportTime":"2026-04-17T01:00:00.000Z","temp":12.8,"dewp":-3.3,"wdir":360,"wspd":9,"visib":"10+","altim":1024.5,"slp":1024.9,"qcField":4,"precip":0.005,"metarType":"METAR","rawOb":"METAR KMFR 170053Z 36009KT 10SM CLR 13/M03 A3025 RMK AO2 RAB34E46 SLP249 P0000 T01281033","lat":42.375,"lon":-122.877,"elev":397,"name":"Medford/Rogue Valley Intl, OR, US","cover":"CLR","clouds":[],"fltCat":"VFR"},{"icaoId":"KMLS","receiptTime":"2026-04-17T00:56:27.347Z","obsTime":1776387180,"reportTime":"2026-04-17T01:00:00.000Z","temp":3.9,"dewp":-3.9,"wdir":350,"wspd":10,"visib":"10+","altim":1011.6,"slp":1012.7,"qcField":6,"metarType":"METAR","rawOb":"METAR KMLS 170053Z AUTO 35010KT 10SM OVC110 04/M04 A2987 RMK AO2 SLP127 T00391039","lat":46.4265,"lon":-105.8834,"elev":800,"name":"Miles City/Wiley Fld, MT, US","cover":"OVC","clouds":[{"cover":"OVC","base":11000}],"fltCat":"VFR"},{"icaoId":"KMOD","receiptTime":"2026-04-17T00:56:27.360Z","obsTime":1776387180,"reportTime":"2026-04-17T01:00:00.000Z","temp":20.6,"dewp":-3.3,"wdir":320,"wspd":14,"wgst":22,"visib":"10+","altim":1015,"slp":1014.7,"qcField":4,"metarType":"METAR","rawOb":"METAR KMOD 170053Z 32014G22KT 10SM CLR 21/M03 A2997 RMK AO2 PK WND 33026/0005 SLP147 T02061033","lat":37.6254,"lon":-120.9549,"elev":25,"name":"Modesto/Sham Fld, CA, US","cover":"CLR","clouds":[],"fltCat":"VFR"},{"icaoId":"KOAK","receiptTime":"2026-04-17T00:56:27.393Z","obsTime":1776387180,"reportTime":"2026-04-17T01:00:00.000Z","temp":20,"dewp":7.8,"wdir":260,"wspd":15,"visib":"10+","altim":1016.7,"slp":1016.4,"qcField":12,"metarType":"METAR","rawOb":"METAR KOAK 170053Z 26015KT 10SM FEW250 20/08 A3002 RMK AO2 SLP164 T02000078 $","lat":37.7178,"lon":-122.233,"elev":3,"name":"Oakland Intl, CA, US","cover":"FEW","clouds":[{"cover":"FEW","base":25000}],"fltCat":"VFR"},{"icaoId":"KOGD","receiptTime":"2026-04-17T00:56:27.405Z","obsTime":1776387180,"reportTime":"2026-04-17T01:00:00.000Z","temp":3.3,"dewp":-7.8,"wdir":350,"wspd":10,"visib":"10+","altim":1016.3,"slp":1015.4,"qcField":4,"metarType":"METAR","rawOb":"METAR KOGD 170053Z 35010KT 10SM BKN060 03/M08 A3001 RMK AO2 SLP154 T00331078","lat":41.1941,"lon":-112.0168,"elev":1356,"name":"Ogden/Hinckley Arpt, UT, US","cover":"BKN","clouds":[{"cover":"BKN","base":6000}],"fltCat":"VFR"},{"icaoId":"KCNM","receiptTime":"2026-04-17T00:56:27.458Z","obsTime":1776387180,"reportTime":"2026-04-17T01:00:00.000Z","temp":29.4,"dewp":-6.1,"wdir":230,"wspd":9,"visib":"10+","altim":1009.6,"slp":1005.4,"qcField":6,"metarType":"METAR","rawOb":"METAR KCNM 170053Z AUTO 23009KT 10SM CLR 29/M06 A2981 RMK AO2 SLP054 T02941061","lat":32.3336,"lon":-104.2584,"elev":993,"name":"Carlsbad/Cavern City Air Term, NM, US","cover":"CLR","clouds":[],"fltCat":"VFR"},{"icaoId":"KDAL","receiptTime":"2026-04-17T00:56:27.556Z","obsTime":1776387180,"reportTime":"2026-04-17T01:00:00.000Z","temp":27.8,"dewp":17.8,"wdir":170,"wspd":11,"wgst":17,"visib":"10+","altim":1011.6,"slp":1010.7,"qcField":4,"metarType":"METAR","rawOb":"METAR KDAL 170053Z 17011G17KT 10SM FEW055 SCT250 28/18 A2987 RMK AO2 SLP107 T02780178","lat":32.8384,"lon":-96.8358,"elev":148,"name":"Dallas/Love Fld, TX, US","cover":"SCT","clouds":[{"cover":"FEW","base":5500},{"cover":"SCT","base":25000}],"fltCat":"VFR"},{"icaoId":"KDFW","receiptTime":"2026-04-17T00:56:27.567Z","obsTime":1776387180,"reportTime":"2026-04-17T01:00:00.000Z","temp":27.2,"dewp":17.2,"wdir":170,"wspd":12,"visib":"10+","altim":1010.9,"slp":1010.1,"qcField":12,"metarType":"METAR","rawOb":"METAR KDFW 170053Z 17012KT 10SM FEW050 BKN250 27/17 A2985 RMK AO2 SLP101 T02720172 $","lat":32.8974,"lon":-97.022,"elev":168,"name":"Dallas-Ft Worth Intl, TX, US","cover":"BKN","clouds":[{"cover":"FEW","base":5000},{"cover":"BKN","base":25000}],"fltCat":"VFR"},{"icaoId":"KFAT","receiptTime":"2026-04-17T00:56:28.147Z","obsTime":1776387180,"reportTime":"2026-04-17T01:00:00.000Z","temp":21.7,"dewp":4.4,"wdir":320,"wspd":13,"visib":"10+","altim":1014,"slp":1013.5,"qcField":12,"metarType":"METAR","rawOb":"METAR KFAT 170053Z 32013KT 10SM FEW040 SCT110 SCT200 22/04 A2994 RMK AO2 SLP135 T02170044 $","lat":36.78,"lon":-119.7202,"elev":102,"name":"Fresno/Yosemite Intl, CA, US","cover":"SCT","clouds":[{"cover":"FEW","base":4000},{"cover":"SCT","base":11000},{"cover":"SCT","base":20000}],"fltCat":"VFR"},{"icaoId":"KBRO","receiptTime":"2026-04-17T00:56:28.220Z","obsTime":1776387180,"reportTime":"2026-04-17T01:00:00.000Z","temp":26.1,"dewp":21.1,"wdir":140,"wspd":14,"wgst":20,"visib":"10+","altim":1013,"slp":1012.7,"qcField":4,"metarType":"METAR","rawOb":"METAR KBRO 170053Z 14014G20KT 10SM BKN022 26/21 A2991 RMK AO2 SLP127 T02610211","lat":25.9146,"lon":-97.4231,"elev":6,"name":"Brownsville Intl, TX, US","cover":"BKN","clouds":[{"cover":"BKN","base":2200}],"fltCat":"MVFR"},{"icaoId":"KGEG","receiptTime":"2026-04-17T00:56:28.234Z","obsTime":1776387180,"reportTime":"2026-04-17T01:00:00.000Z","temp":8.3,"dewp":-6.7,"wdir":310,"wspd":9,"visib":"10+","altim":1018,"slp":1019.5,"qcField":4,"metarType":"METAR","rawOb":"METAR KGEG 170053Z 31009KT 10SM FEW060 BKN080 08/M07 A3006 RMK AO2 SLP195 T00831067","lat":47.6217,"lon":-117.528,"elev":718,"name":"Spokane Intl, WA, US","cover":"BKN","clouds":[{"cover":"FEW","base":6000},{"cover":"BKN","base":8000}],"fltCat":"VFR"},{"icaoId":"KELY","receiptTime":"2026-04-17T00:56:28.367Z","obsTime":1776387180,"reportTime":"2026-04-17T01:00:00.000Z","temp":4.4,"dewp":-12.8,"wdir":330,"wspd":20,"wgst":31,"visib":"10+","altim":1015.3,"slp":1012.9,"qcField":6,"metarType":"METAR","rawOb":"METAR KELY 170053Z AUTO 33020G31KT 10SM CLR 04/M13 A2998 RMK AO2 PK WND 32031/0051 SLP129 T00441128","lat":39.2954,"lon":-114.8466,"elev":1906,"name":"Ely/Yelland Fld, NV, US","cover":"CLR","clouds":[],"fltCat":"VFR"},{"icaoId":"KLOL","receiptTime":"2026-04-17T00:56:28.871Z","obsTime":1776387180,"reportTime":"2026-04-17T01:00:00.000Z","temp":7.2,"dewp":-13.9,"wdir":30,"wspd":21,"wgst":31,"visib":"10+","altim":1020.1,"slp":1020.1,"qcField":6,"metarType":"METAR","rawOb":"METAR KLOL 170053Z AUTO 03021G31KT 10SM FEW095 07/M14 A3012 RMK AO2 PK WND 04031/0053 WSHFT 2340 SLP201 T00721139","lat":40.0684,"lon":-118.5702,"elev":1191,"name":"Lovelock/Derby Fld, NV, US","cover":"FEW","clouds":[{"cover":"FEW","base":9500}],"fltCat":"VFR"},{"icaoId":"KHIO","receiptTime":"2026-04-17T00:56:28.909Z","obsTime":1776387180,"reportTime":"2026-04-17T01:00:00.000Z","temp":12.8,"dewp":1.1,"wdir":0,"wspd":0,"visib":"10+","altim":1025.8,"slp":1025.8,"qcField":4,"metarType":"METAR","rawOb":"METAR KHIO 170053Z 00000KT 10SM SCT080 13/01 A3029 RMK AO2 SLP258 T01280011","lat":45.5476,"lon":-122.9557,"elev":62,"name":"Portland/Hillsboro Arpt, OR, US","cover":"SCT","clouds":[{"cover":"SCT","base":8000}],"fltCat":"VFR"},{"icaoId":"KHLN","receiptTime":"2026-04-17T00:56:28.982Z","obsTime":1776387180,"reportTime":"2026-04-17T01:00:00.000Z","temp":3.9,"dewp":-10,"wdir":300,"wspd":17,"wgst":23,"visib":"10+","altim":1012.6,"slp":1016.3,"qcField":4,"metarType":"METAR","rawOb":"METAR KHLN 170053Z 30017G23KT 10SM FEW060 SCT075 04/M10 A2990 RMK AO2 PK WND 29031/2354 SLP163 T00391100","lat":46.6045,"lon":-111.9892,"elev":1178,"name":"Helena Rgnl, MT, US","cover":"SCT","clouds":[{"cover":"FEW","base":6000},{"cover":"SCT","base":7500}],"fltCat":"VFR"},{"icaoId":"KHOU","receiptTime":"2026-04-17T00:56:29.006Z","obsTime":1776387180,"reportTime":"2026-04-17T01:00:00.000Z","temp":25,"dewp":19.4,"wdir":170,"wspd":11,"wgst":20,"visib":"10+","altim":1015,"slp":1015.2,"qcField":12,"metarType":"METAR","rawOb":"METAR KHOU 170053Z 17011G20KT 10SM FEW030 25/19 A2997 RMK AO2 SLP152 T02500194 $","lat":29.6458,"lon":-95.2821,"elev":13,"name":"Houston/Hobby Arpt, TX, US","cover":"FEW","clouds":[{"cover":"FEW","base":3000}],"fltCat":"VFR"},{"icaoId":"KIDA","receiptTime":"2026-04-17T00:56:29.196Z","obsTime":1776387180,"reportTime":"2026-04-17T01:00:00.000Z","temp":-1.7,"dewp":-4.4,"wdir":190,"wspd":5,"visib":"10+","altim":1015.3,"slp":1017.4,"qcField":4,"precip":0.01,"metarType":"METAR","rawOb":"METAR KIDA 170053Z 19005KT 10SM SCT040 OVC049 M02/M04 A2998 RMK AO2 PK WND 29026/2359 WSHFT 2350 SNB03E44 SLP174 P0001 T10171044","lat":43.5204,"lon":-112.0675,"elev":1444,"name":"Idaho Falls Rgnl, ID, US","cover":"OVC","clouds":[{"cover":"SCT","base":4000},{"cover":"OVC","base":4900}],"fltCat":"VFR"},{"icaoId":"KSBA","receiptTime":"2026-04-17T00:56:29.767Z","obsTime":1776387180,"reportTime":"2026-04-17T01:00:00.000Z","temp":17.2,"dewp":13.3,"wdir":120,"wspd":6,"visib":9,"altim":1010.9,"slp":1010.7,"qcField":12,"metarType":"METAR","rawOb":"METAR KSBA 170053Z 12006KT 9SM CLR 17/13 A2985 RMK AO2 SLP107 T01720133 $","lat":34.4241,"lon":-119.8425,"elev":2,"name":"Santa Barbara Muni, CA, US","cover":"CLR","clouds":[],"fltCat":"VFR"},{"icaoId":"KSDL","receiptTime":"2026-04-17T00:56:29.792Z","obsTime":1776387180,"reportTime":"2026-04-17T01:00:00.000Z","temp":28.3,"dewp":-5.6,"wdir":"VRB","wspd":6,"visib":"10+","altim":1008.5,"slp":1006.4,"qcField":4,"metarType":"METAR","rawOb":"METAR KSDL 170053Z VRB06KT 10SM CLR 28/M06 A2978 RMK AO2 SLP064 T02831056","lat":33.6123,"lon":-111.9232,"elev":438,"name":"Scottsdale Muni, AZ, US","cover":"CLR","clouds":[],"fltCat":"VFR"},{"icaoId":"KSJC","receiptTime":"2026-04-17T00:56:29.894Z","obsTime":1776387180,"reportTime":"2026-04-17T01:00:00.000Z","temp":20.6,"dewp":0,"wdir":320,"wspd":18,"visib":"10+","altim":1015.3,"slp":1015.3,"qcField":4,"metarType":"METAR","rawOb":"METAR KSJC 170053Z 32018KT 10SM FEW100 21/00 A2998 RMK AO2 SLP153 T02060000","lat":37.3594,"lon":-121.9244,"elev":13,"name":"San Jose Intl Arpt, CA, US","cover":"FEW","clouds":[{"cover":"FEW","base":10000}],"fltCat":"VFR"},{"icaoId":"KTUL","receiptTime":"2026-04-17T00:56:29.919Z","obsTime":1776387180,"reportTime":"2026-04-17T01:00:00.000Z","temp":26.1,"dewp":17.2,"wdir":160,"wspd":8,"visib":"10+","altim":1009.6,"slp":1008.8,"qcField":4,"metarType":"METAR","rawOb":"METAR KTUL 170053Z 16008KT 10SM BKN250 26/17 A2981 RMK AO2 SLP088 T02610172","lat":36.1985,"lon":-95.8782,"elev":196,"name":"Tulsa Intl Arpt, OK, US","cover":"BKN","clouds":[{"cover":"BKN","base":25000}],"fltCat":"VFR"},{"icaoId":"KTWF","receiptTime":"2026-04-17T00:56:29.970Z","obsTime":1776387180,"reportTime":"2026-04-17T01:00:00.000Z","temp":1.1,"dewp":-7.8,"wdir":300,"wspd":20,"wgst":34,"visib":9,"altim":1018,"slp":1018.5,"qcField":4,"wxString":"-SN","precip":0.005,"metarType":"METAR","rawOb":"METAR KTWF 170053Z 30020G34KT 9SM -SN FEW030 SCT048 BKN065 01/M08 A3006 RMK AO2 PK WND 28036/2356 SNB49 SLP185 P0000 T00111078","lat":42.4785,"lon":-114.4775,"elev":1269,"name":"Twin Falls/Joslin Fld, ID, US","cover":"BKN","clouds":[{"cover":"FEW","base":3000},{"cover":"SCT","base":4800},{"cover":"BKN","base":6500}],"fltCat":"VFR"},{"icaoId":"KVEL","receiptTime":"2026-04-17T00:56:30.056Z","obsTime":1776387180,"reportTime":"2026-04-17T01:00:00.000Z","temp":12.8,"dewp":-3.9,"wdir":260,"wspd":13,"visib":"10+","altim":1005.5,"slp":1003,"qcField":6,"precip":0.005,"metarType":"METAR","rawOb":"METAR KVEL 170053Z AUTO 26013KT 10SM FEW065 SCT090 BKN120 13/M04 A2969 RMK AO2 PK WND 23033/0010 RAB11E26 SLP030 P0000 T01281039","lat":40.4429,"lon":-109.5128,"elev":1604,"name":"Vernal Rgnl, UT, US","cover":"BKN","clouds":[{"cover":"FEW","base":6500},{"cover":"SCT","base":9000},{"cover":"BKN","base":12000}],"fltCat":"VFR"},{"icaoId":"KPDX","receiptTime":"2026-04-17T00:56:30.164Z","obsTime":1776387180,"reportTime":"2026-04-17T01:00:00.000Z","temp":12.8,"dewp":-1.1,"wdir":0,"wspd":0,"visib":"10+","altim":1026.2,"slp":1025.9,"qcField":4,"metarType":"METAR","rawOb":"METAR KPDX 170053Z 00000KT 10SM FEW050 FEW070 BKN085 13/M01 A3030 RMK AO2 SLP259 T01281011","lat":45.5958,"lon":-122.6092,"elev":7,"name":"Portland Intl, OR, US","cover":"BKN","clouds":[{"cover":"FEW","base":5000},{"cover":"FEW","base":7000},{"cover":"BKN","base":8500}],"fltCat":"VFR"},{"icaoId":"KMSO","receiptTime":"2026-04-17T00:58:24.491Z","obsTime":1776387180,"reportTime":"2026-04-17T01:00:00.000Z","temp":3.9,"dewp":-4.4,"wdir":290,"wspd":9,"visib":"10+","altim":1016,"slp":1018.4,"qcField":5,"metarType":"METAR","rawOb":"METAR KMSO 170053Z COR 29009KT 10SM BKN060 04/M04 A3000 RMK AO2 SLP184 T00391044","lat":46.9208,"lon":-114.0938,"elev":974,"name":"Missoula Intl, MT, US","cover":"BKN","clouds":[{"cover":"BKN","base":6000}],"fltCat":"VFR"},{"icaoId":"KDTW","receiptTime":"2026-04-17T00:56:22.167Z","obsTime":1776387180,"reportTime":"2026-04-17T01:00:00.000Z","temp":15.6,"dewp":13.3,"wdir":300,"wspd":3,"visib":"10+","altim":1011.6,"slp":1011.2,"qcField":12,"precip":0.01,"metarType":"METAR","rawOb":"METAR KDTW 170053Z 30003KT 10SM FEW020 SCT100 BKN210 16/13 A2987 RMK AO2 RAE15 SLP112 P0001 T01560133 $","lat":42.2311,"lon":-83.3312,"elev":192,"name":"Detroit/Metro Wayne Cnty, MI, US","cover":"BKN","clouds":[{"cover":"FEW","base":2000},{"cover":"SCT","base":10000},{"cover":"BKN","base":21000}],"fltCat":"VFR"},{"icaoId":"KRTN","receiptTime":"2026-04-17T00:56:29.653Z","obsTime":1776387180,"reportTime":"2026-04-17T01:00:00.000Z","temp":16.7,"dewp":-11.7,"wdir":230,"wspd":10,"visib":"10+","altim":1009.9,"slp":1005.8,"qcField":6,"metarType":"METAR","rawOb":"METAR KRTN 170053Z AUTO 23010KT 10SM CLR 17/M12 A2982 RMK AO2 SLP058 T01671117","lat":36.7418,"lon":-104.5076,"elev":1939,"name":"Raton/Crews Fld, NM, US","cover":"CLR","clouds":[],"fltCat":"VFR"},{"icaoId":"KDLN","receiptTime":"2026-04-17T00:56:22.072Z","obsTime":1776387180,"reportTime":"2026-04-17T01:00:00.000Z","temp":0,"dewp":-8.3,"wdir":190,"wspd":6,"visib":"10+","altim":1012.3,"slp":1014.9,"qcField":6,"metarType":"METAR","rawOb":"METAR KDLN 170053Z AUTO 19006KT 10SM FEW070 SCT120 00/M08 A2989 RMK AO2 SLP149 T00001083","lat":45.2584,"lon":-112.5546,"elev":1586,"name":"Dillon Arpt, MT, US","cover":"SCT","clouds":[{"cover":"FEW","base":7000},{"cover":"SCT","base":12000}],"fltCat":"VFR"},{"icaoId":"KLVS","receiptTime":"2026-04-17T00:56:29.307Z","obsTime":1776387180,"reportTime":"2026-04-17T01:00:00.000Z","temp":16.7,"dewp":-14.4,"wdir":190,"wspd":12,"wgst":23,"visib":"10+","altim":1013.3,"slp":1005.6,"qcField":6,"metarType":"METAR","rawOb":"METAR KLVS 170053Z AUTO 19012G23KT 10SM CLR 17/M14 A2992 RMK AO2 PK WND 18031/2356 SLP056 T01671144","lat":35.6558,"lon":-105.1385,"elev":2095,"name":"Las Vegas Muni, NM, US","cover":"CLR","clouds":[],"fltCat":"VFR"},{"icaoId":"KMCI","receiptTime":"2026-04-17T00:56:28.161Z","obsTime":1776387180,"reportTime":"2026-04-17T01:00:00.000Z","temp":22.8,"dewp":15,"wdir":160,"wspd":10,"visib":"10+","altim":1009.2,"slp":1008.3,"qcField":4,"metarType":"METAR","rawOb":"METAR KMCI 170053Z 16010KT 10SM CLR 23/15 A2980 RMK AO2 SLP083 T02280150","lat":39.2975,"lon":-94.7309,"elev":308,"name":"Kansas City Intl, MO, US","cover":"CLR","clouds":[],"fltCat":"VFR"},{"icaoId":"KYKM","receiptTime":"2026-04-17T00:56:30.397Z","obsTime":1776387180,"reportTime":"2026-04-17T01:00:00.000Z","temp":12.2,"dewp":-5,"wdir":280,"wspd":19,"wgst":28,"visib":"10+","altim":1021.1,"slp":1021.6,"qcField":4,"metarType":"METAR","rawOb":"METAR KYKM 170053Z 28019G28KT 10SM CLR 12/M05 A3015 RMK AO2 PK WND 28028/0045 SLP216 T01221050","lat":46.564,"lon":-120.5349,"elev":319,"name":"Yakima/McAllister Fld, WA, US","cover":"CLR","clouds":[],"fltCat":"VFR"},{"icaoId":"PANC","receiptTime":"2026-04-17T00:56:30.552Z","obsTime":1776387180,"reportTime":"2026-04-17T01:00:00.000Z","temp":3.3,"dewp":0.6,"wdir":340,"wspd":6,"visib":"10+","altim":1009.9,"slp":1009.8,"qcField":4,"metarType":"METAR","rawOb":"METAR PANC 170053Z 34006KT 10SM BKN050 OVC060 03/01 A2982 RMK AO2 SLP098 T00330006","lat":61.1691,"lon":-150.0277,"elev":39,"name":"Anchorage Intl, AK, US","cover":"OVC","clouds":[{"cover":"BKN","base":5000},{"cover":"OVC","base":6000}],"fltCat":"VFR"},{"icaoId":"KSEA","receiptTime":"2026-04-17T00:56:30.319Z","obsTime":1776387180,"reportTime":"2026-04-17T01:00:00.000Z","temp":12.2,"dewp":-1.1,"wdir":190,"wspd":9,"visib":"10+","altim":1024.5,"slp":1025,"qcField":4,"metarType":"METAR","rawOb":"METAR KSEA 170053Z 19009KT 10SM FEW060 BKN090 12/M01 A3025 RMK AO2 SLP250 T01221011","lat":47.4447,"lon":-122.3144,"elev":115,"name":"Seattle-Tacoma Intl, WA, US","cover":"BKN","clouds":[{"cover":"FEW","base":6000},{"cover":"BKN","base":9000}],"fltCat":"VFR"},{"icaoId":"KTUS","receiptTime":"2026-04-17T00:56:30.356Z","obsTime":1776387180,"reportTime":"2026-04-17T01:00:00.000Z","temp":27.2,"dewp":-11.1,"wdir":270,"wspd":11,"visib":"10+","altim":1010.2,"slp":1006.8,"qcField":12,"metarType":"METAR","rawOb":"METAR KTUS 170053Z 27011KT 10SM CLR 27/M11 A2983 RMK AO2 WSHFT 0006 SLP068 T02721111 $","lat":32.1315,"lon":-110.9564,"elev":776,"name":"Tucson Intl Arpt, AZ, US","cover":"CLR","clouds":[],"fltCat":"VFR"},{"icaoId":"KVGT","receiptTime":"2026-04-17T00:56:30.067Z","obsTime":1776387180,"reportTime":"2026-04-17T01:00:00.000Z","temp":26.1,"dewp":-2.8,"wdir":220,"wspd":14,"visib":"10+","altim":1005.2,"slp":1004.7,"qcField":4,"metarType":"METAR","rawOb":"METAR KVGT 170053Z 22014KT 10SM CLR 26/M03 A2968 RMK AO2 SLP047 T02611028","lat":36.212,"lon":-115.194,"elev":664,"name":"Las Vegas/North Arpt, NV, US","cover":"CLR","clouds":[],"fltCat":"VFR"},{"icaoId":"KRIW","receiptTime":"2026-04-17T00:56:30.200Z","obsTime":1776387180,"reportTime":"2026-04-17T01:00:00.000Z","temp":6.7,"dewp":-10,"wdir":330,"wspd":20,"wgst":27,"visib":"10+","altim":1007.2,"slp":1005.1,"qcField":6,"metarType":"METAR","rawOb":"METAR KRIW 170053Z AUTO 33020G27KT 10SM OVC080 07/M10 A2974 RMK AO2 PK WND 33027/0053 SLP051 T00671100","lat":43.0622,"lon":-108.4471,"elev":1662,"name":"Riverton Rgnl, WY, US","cover":"OVC","clouds":[{"cover":"OVC","base":8000}],"fltCat":"VFR"},{"icaoId":"KIAH","receiptTime":"2026-04-17T00:56:29.161Z","obsTime":1776387180,"reportTime":"2026-04-17T01:00:00.000Z","temp":25.6,"dewp":20,"wdir":160,"wspd":11,"visib":"10+","altim":1014.6,"slp":1014.5,"qcField":4,"metarType":"METAR","rawOb":"METAR KIAH 170053Z 16011KT 10SM FEW030 FEW250 26/20 A2996 RMK AO2 SLP145 T02560200","lat":29.9844,"lon":-95.3607,"elev":27,"name":"Houston/Bush Intl, TX, US","cover":"FEW","clouds":[{"cover":"FEW","base":3000},{"cover":"FEW","base":25000}],"fltCat":"VFR"},{"icaoId":"KMFE","receiptTime":"2026-04-17T00:56:25.934Z","obsTime":1776387180,"reportTime":"2026-04-17T01:00:00.000Z","temp":27.2,"dewp":18.9,"wdir":130,"wspd":15,"visib":"10+","altim":1011.9,"slp":1011.7,"qcField":4,"metarType":"METAR","rawOb":"METAR KMFE 170053Z 13015KT 10SM CLR 27/19 A2988 RMK AO2 PK WND 13027/0000 SLP117 T02720189","lat":26.1791,"lon":-98.2445,"elev":29,"name":"McAllen/Miller Intl, TX, US","cover":"CLR","clouds":[],"fltCat":"VFR"},{"icaoId":"KBHM","receiptTime":"2026-04-17T00:56:24.330Z","obsTime":1776387180,"reportTime":"2026-04-17T01:00:00.000Z","temp":26.1,"dewp":15,"wdir":220,"wspd":7,"visib":"10+","altim":1017.4,"slp":1016.3,"qcField":4,"metarType":"METAR","rawOb":"METAR KBHM 170053Z 22007KT 10SM FEW046 26/15 A3004 RMK AO2 SLP163 T02610150","lat":33.5655,"lon":-86.7449,"elev":191,"name":"Birmingham Intl, AL, US","cover":"FEW","clouds":[{"cover":"FEW","base":4600}],"fltCat":"VFR"},{"icaoId":"KLAR","receiptTime":"2026-04-17T00:56:21.607Z","obsTime":1776387180,"reportTime":"2026-04-17T01:00:00.000Z","temp":13.9,"dewp":-13.3,"wdir":230,"wspd":27,"wgst":37,"visib":"10+","altim":1004.5,"slp":997.5,"qcField":6,"metarType":"METAR","rawOb":"METAR KLAR 170053Z AUTO 23027G37KT 10SM SCT110 14/M13 A2966 RMK AO2 PK WND 23037/0052 SLP975 T01391133","lat":41.3165,"lon":-105.6729,"elev":2217,"name":"Laramie Rgnl, WY, US","cover":"SCT","clouds":[{"cover":"SCT","base":11000}],"fltCat":"VFR"},{"icaoId":"KCLL","receiptTime":"2026-04-17T00:56:27.446Z","obsTime":1776387180,"reportTime":"2026-04-17T01:00:00.000Z","temp":26.7,"dewp":18.9,"wdir":160,"wspd":11,"visib":"10+","altim":1013.3,"slp":1012.6,"qcField":4,"metarType":"METAR","rawOb":"METAR KCLL 170053Z 16011KT 10SM CLR 27/19 A2992 RMK AO2 SLP126 T02670189","lat":30.5912,"lon":-96.3631,"elev":96,"name":"College Station/Easterwood Arpt, TX, US","cover":"CLR","clouds":[],"fltCat":"VFR"},{"icaoId":"KCNY","receiptTime":"2026-04-17T00:56:25.257Z","obsTime":1776387180,"reportTime":"2026-04-17T01:00:00.000Z","temp":20,"dewp":-11.1,"wdir":200,"wspd":24,"wgst":33,"visib":"10+","altim":1003.8,"slp":1000.1,"qcField":6,"metarType":"METAR","rawOb":"METAR KCNY 170053Z AUTO 20024G33KT 10SM CLR 20/M11 A2964 RMK AO2 PK WND 22036/0024 SLP001 T02001111","lat":38.7501,"lon":-109.7627,"elev":1392,"name":"Moab/Canyonland Fld, UT, US","cover":"CLR","clouds":[],"fltCat":"VFR"},{"icaoId":"KDMN","receiptTime":"2026-04-17T00:56:27.598Z","obsTime":1776387180,"reportTime":"2026-04-17T01:00:00.000Z","temp":25.6,"dewp":-10.6,"wdir":250,"wspd":19,"wgst":27,"visib":"10+","altim":1012.3,"slp":1007.6,"qcField":6,"metarType":"METAR","rawOb":"METAR KDMN 170053Z AUTO 25019G27KT 10SM CLR 26/M11 A2989 RMK AO2 PK WND 26028/0022 SLP076 T02561106","lat":32.2592,"lon":-107.7206,"elev":1310,"name":"Deming Muni, NM, US","cover":"CLR","clouds":[],"fltCat":"VFR"},{"icaoId":"KFMN","receiptTime":"2026-04-17T00:56:27.928Z","obsTime":1776387180,"reportTime":"2026-04-17T01:00:00.000Z","temp":18.3,"dewp":-13.3,"wdir":190,"wspd":6,"visib":"10+","altim":1010.6,"slp":1007.8,"qcField":4,"metarType":"METAR","rawOb":"METAR KFMN 170053Z 19006KT 10SM CLR 18/M13 A2984 RMK AO2 SLP078 T01831133","lat":36.7435,"lon":-108.2293,"elev":1677,"name":"Farmington/Four Corners Rgnl, NM, US","cover":"CLR","clouds":[],"fltCat":"VFR"},{"icaoId":"KFUL","receiptTime":"2026-04-17T00:56:16.334Z","obsTime":1776387180,"reportTime":"2026-04-17T01:00:00.000Z","temp":21.7,"dewp":10,"wdir":210,"wspd":7,"visib":"10+","altim":1011.3,"slp":1010.9,"qcField":6,"metarType":"METAR","rawOb":"METAR KFUL 170053Z AUTO 21007KT 10SM CLR 22/10 A2986 RMK AO2 SLP109 T02170100","lat":33.8715,"lon":-117.9856,"elev":23,"name":"Fullerton Muni, CA, US","cover":"CLR","clouds":[],"fltCat":"VFR"},{"icaoId":"KGJT","receiptTime":"2026-04-17T00:56:16.482Z","obsTime":1776387180,"reportTime":"2026-04-17T01:00:00.000Z","temp":20,"dewp":-11.7,"wdir":190,"wspd":7,"visib":"10+","altim":1005.2,"slp":1000.3,"qcField":4,"metarType":"METAR","rawOb":"METAR KGJT 170053Z 19007KT 10SM CLR 20/M12 A2968 RMK AO2 SLP003 T02001117","lat":39.1344,"lon":-108.5408,"elev":1475,"name":"Grand Junction Rgnl, CO, US","cover":"CLR","clouds":[],"fltCat":"VFR"},{"icaoId":"KSMF","receiptTime":"2026-04-17T00:56:23.746Z","obsTime":1776387180,"reportTime":"2026-04-17T01:00:00.000Z","temp":20,"dewp":-4.4,"wdir":340,"wspd":15,"wgst":27,"visib":"10+","altim":1016.3,"slp":1016,"qcField":4,"metarType":"METAR","rawOb":"METAR KSMF 170053Z 34015G27KT 10SM FEW250 20/M04 A3001 RMK AO2 PK WND 32029/0006 SLP160 T02001044","lat":38.7007,"lon":-121.5948,"elev":7,"name":"Sacramento Intl, CA, US","cover":"FEW","clouds":[{"cover":"FEW","base":25000}],"fltCat":"VFR"},{"icaoId":"KSTS","receiptTime":"2026-04-17T00:56:28.657Z","obsTime":1776387180,"reportTime":"2026-04-17T01:00:00.000Z","temp":21.1,"dewp":-11.1,"wdir":50,"wspd":10,"wgst":23,"visib":"10+","altim":1017,"slp":1016.2,"qcField":4,"metarType":"METAR","rawOb":"METAR KSTS 170053Z 05010G23KT 10SM CLR 21/M11 A3003 RMK AO2 SLP162 T02111111","lat":38.5037,"lon":-122.811,"elev":35,"name":"Santa Rosa/Schulz Arpt, CA, US","cover":"CLR","clouds":[],"fltCat":"VFR"},{"icaoId":"KMYF","receiptTime":"2026-04-17T00:56:19.756Z","obsTime":1776387180,"reportTime":"2026-04-17T01:00:00.000Z","temp":18.3,"dewp":11.7,"wdir":230,"wspd":7,"visib":"10+","altim":1012.6,"slp":1012.2,"qcField":4,"metarType":"METAR","rawOb":"METAR KMYF 170053Z 23007KT 10SM CLR 18/12 A2990 RMK AO2 SLP122 T01830117","lat":32.8145,"lon":-117.1375,"elev":128,"name":"San Diego/Montgomery Arpt, CA, US","cover":"CLR","clouds":[],"fltCat":"VFR"},{"icaoId":"KBOI","receiptTime":"2026-04-17T00:56:28.297Z","obsTime":1776387180,"reportTime":"2026-04-17T01:00:00.000Z","temp":6.1,"dewp":-5.6,"wdir":310,"wspd":10,"visib":9,"altim":1020.1,"slp":1021.2,"qcField":4,"precip":0.005,"metarType":"METAR","rawOb":"METAR KBOI 170053Z 31010KT 9SM FEW043 06/M06 A3012 RMK AO2 SNE52 SLP212 P0000 T00611056","lat":43.567,"lon":-116.2406,"elev":860,"name":"Boise Arpt, ID, US","cover":"FEW","clouds":[{"cover":"FEW","base":4300}],"fltCat":"VFR"},{"icaoId":"KBFI","receiptTime":"2026-04-17T00:56:22.818Z","obsTime":1776387180,"reportTime":"2026-04-17T01:00:00.000Z","temp":13.3,"dewp":-0.6,"wdir":200,"wspd":3,"visib":"10+","altim":1024.5,"slp":1024.2,"qcField":12,"metarType":"METAR","rawOb":"METAR KBFI 170053Z 20003KT 10SM BKN070 13/M01 A3025 RMK AO2 SLP242 T01331006 $","lat":47.5455,"lon":-122.3148,"elev":7,"name":"Seattle/Boeing Fld, WA, US","cover":"BKN","clouds":[{"cover":"BKN","base":7000}],"fltCat":"VFR"},{"icaoId":"KBLI","receiptTime":"2026-04-17T00:56:20.006Z","obsTime":1776387180,"reportTime":"2026-04-17T01:00:00.000Z","temp":10.6,"dewp":-1.1,"wdir":180,"wspd":9,"visib":"10+","altim":1024.5,"slp":1025.2,"qcField":4,"metarType":"METAR","rawOb":"METAR KBLI 170053Z 18009KT 10SM SCT070 11/M01 A3025 RMK AO2 SLP252 T01061011","lat":48.7991,"lon":-122.5407,"elev":46,"name":"Bellingham Intl, WA, US","cover":"SCT","clouds":[{"cover":"SCT","base":7000}],"fltCat":"VFR"},{"icaoId":"KMSP","receiptTime":"2026-04-17T00:56:28.392Z","obsTime":1776387180,"reportTime":"2026-04-17T01:00:00.000Z","temp":22.8,"dewp":6.7,"wdir":150,"wspd":14,"wgst":21,"visib":"10+","altim":1005.8,"slp":1005.4,"qcField":4,"metarType":"METAR","rawOb":"METAR KMSP 170053Z 15014G21KT 10SM FEW180 FEW250 23/07 A2970 RMK AO2 SLP054 T02280067","lat":44.8852,"lon":-93.2313,"elev":255,"name":"Minneapolis-St Paul Intl, MN, US","cover":"FEW","clouds":[{"cover":"FEW","base":18000},{"cover":"FEW","base":25000}],"fltCat":"VFR"},{"icaoId":"KDVT","receiptTime":"2026-04-17T00:56:26.865Z","obsTime":1776387180,"reportTime":"2026-04-17T01:00:00.000Z","temp":28.3,"dewp":-5.6,"wdir":230,"wspd":6,"visib":"10+","altim":1008.2,"slp":1006.2,"qcField":12,"metarType":"METAR","rawOb":"METAR KDVT 170053Z 23006KT 10SM CLR 28/M06 A2977 RMK AO2 SLP062 T02831056 $","lat":33.6902,"lon":-112.0662,"elev":454,"name":"Phoenix/Deer Valley Arpt, AZ, US","cover":"CLR","clouds":[],"fltCat":"VFR"},{"icaoId":"KACV","receiptTime":"2026-04-17T00:56:22.340Z","obsTime":1776387180,"reportTime":"2026-04-17T01:00:00.000Z","temp":12.2,"dewp":5.6,"wdir":360,"wspd":11,"wgst":21,"visib":"10+","altim":1023.5,"slp":1024.2,"qcField":6,"metarType":"METAR","rawOb":"METAR KACV 170053Z AUTO 36011G21KT 10SM CLR 12/06 A3022 RMK AO2 SLP242 T01220056","lat":40.9784,"lon":-124.1048,"elev":63,"name":"Arcata Arpt, CA, US","cover":"CLR","clouds":[],"fltCat":"VFR"},{"icaoId":"KAPA","receiptTime":"2026-04-17T00:56:22.539Z","obsTime":1776387180,"reportTime":"2026-04-17T01:00:00.000Z","temp":21.7,"dewp":-9.4,"wdir":240,"wspd":21,"wgst":26,"visib":"10+","altim":1003.5,"slp":998.1,"qcField":4,"metarType":"METAR","rawOb":"METAR KAPA 170053Z 24021G26KT 10SM SCT100 BKN140 BKN220 22/M09 A2963 RMK AO2 PK WND 19030/0032 SLP981 VIRGA ALQDS T02171094","lat":39.5599,"lon":-104.8484,"elev":1791,"name":"Denver/Centennial Arpt, CO, US","cover":"BKN","clouds":[{"cover":"SCT","base":10000},{"cover":"BKN","base":14000},{"cover":"BKN","base":22000}],"fltCat":"VFR"},{"icaoId":"KBCE","receiptTime":"2026-04-17T00:56:22.735Z","obsTime":1776387180,"reportTime":"2026-04-17T01:00:00.000Z","temp":10.6,"dewp":-7.2,"wdir":230,"wspd":17,"wgst":31,"visib":"10+","altim":1011.9,"slp":1005.3,"qcField":6,"metarType":"METAR","rawOb":"METAR KBCE 170053Z AUTO 23017G31KT 10SM FEW080 11/M07 A2988 RMK AO2 PK WND 24031/0045 SLP053 T01061072","lat":37.7013,"lon":-112.149,"elev":2311,"name":"Bryce Canyon Arpt, UT, US","cover":"FEW","clouds":[{"cover":"FEW","base":8000}],"fltCat":"VFR"},{"icaoId":"KMYR","receiptTime":"2026-04-17T00:56:22.920Z","obsTime":1776387180,"reportTime":"2026-04-17T01:00:00.000Z","temp":20,"dewp":17.8,"wdir":190,"wspd":13,"visib":"10+","altim":1016,"slp":1015.8,"qcField":12,"metarType":"METAR","rawOb":"METAR KMYR 170053Z 19013KT 10SM CLR 20/18 A3000 RMK AO2 SLP158 T02000178 $","lat":33.6769,"lon":-78.9325,"elev":7,"name":"Myrtle Beach Intl, SC, US","cover":"CLR","clouds":[],"fltCat":"VFR"},{"icaoId":"KONT","receiptTime":"2026-04-17T00:56:23.588Z","obsTime":1776387180,"reportTime":"2026-04-17T01:00:00.000Z","temp":21.1,"dewp":8.9,"wdir":240,"wspd":11,"visib":"10+","altim":1011.3,"slp":1010.3,"qcField":12,"metarType":"METAR","rawOb":"METAR KONT 170053Z 24011KT 10SM FEW060 FEW240 BKN270 21/09 A2986 RMK AO2 SLP103 T02110089 $","lat":34.0531,"lon":-117.5769,"elev":279,"name":"Ontario Intl, CA, US","cover":"BKN","clouds":[{"cover":"FEW","base":6000},{"cover":"FEW","base":24000},{"cover":"BKN","base":27000}],"fltCat":"VFR"},{"icaoId":"KPGA","receiptTime":"2026-04-17T00:56:30.175Z","obsTime":1776387180,"reportTime":"2026-04-17T01:00:00.000Z","temp":21.1,"dewp":-11.1,"wdir":230,"wspd":10,"wgst":20,"visib":"10+","altim":1007.5,"slp":1002.8,"qcField":14,"metarType":"METAR","rawOb":"METAR KPGA 170053Z AUTO 23010G20KT 10SM CLR 21/M11 A2975 RMK AO2 SLP028 T02111111 $","lat":36.9211,"lon":-111.4487,"elev":1310,"name":"Page Muni, AZ, US","cover":"CLR","clouds":[],"fltCat":"VFR"},{"icaoId":"KPRC","receiptTime":"2026-04-17T00:56:23.678Z","obsTime":1776387180,"reportTime":"2026-04-17T01:00:00.000Z","temp":17.8,"dewp":-12.2,"wdir":210,"wspd":13,"wgst":20,"visib":"10+","altim":1013.3,"slp":1008.2,"qcField":4,"metarType":"METAR","rawOb":"METAR KPRC 170053Z 21013G20KT 10SM CLR 18/M12 A2992 RMK AO2 SLP082 T01781122","lat":34.6491,"lon":-112.4223,"elev":1528,"name":"Prescott/Love Fld, AZ, US","cover":"CLR","clouds":[],"fltCat":"VFR"},{"icaoId":"KPSC","receiptTime":"2026-04-17T00:56:23.688Z","obsTime":1776387180,"reportTime":"2026-04-17T01:00:00.000Z","temp":15,"dewp":-5.6,"wdir":250,"wspd":8,"visib":"10+","altim":1020.7,"slp":1020.7,"qcField":4,"metarType":"METAR","rawOb":"METAR KPSC 170053Z 25008KT 10SM BKN100 15/M06 A3014 RMK AO2 PK WND 24033/0036 SLP207 T01501056","lat":46.2695,"lon":-119.1182,"elev":121,"name":"Pasco/Tri Cities Arpt, WA, US","cover":"BKN","clouds":[{"cover":"BKN","base":10000}],"fltCat":"VFR"},{"icaoId":"KPUW","receiptTime":"2026-04-17T00:56:23.711Z","obsTime":1776387180,"reportTime":"2026-04-17T01:00:00.000Z","temp":6.1,"dewp":-3.9,"wdir":250,"wspd":9,"wgst":18,"visib":"10+","altim":1019.7,"slp":1021.3,"qcField":6,"metarType":"METAR","rawOb":"METAR KPUW 170053Z AUTO 25009G18KT 10SM OVC075 06/M04 A3011 RMK AO2 SLP213 T00611039","lat":46.7438,"lon":-117.1158,"elev":774,"name":"Pullman/Moscow Rgnl, WA, US","cover":"OVC","clouds":[{"cover":"OVC","base":7500}],"fltCat":"VFR"},{"icaoId":"KPSP","receiptTime":"2026-04-17T00:56:23.700Z","obsTime":1776387180,"reportTime":"2026-04-17T01:00:00.000Z","temp":28.9,"dewp":4.4,"wdir":320,"wspd":12,"wgst":18,"visib":"10+","altim":1006.9,"slp":1006.5,"qcField":12,"metarType":"METAR","rawOb":"METAR KPSP 170053Z 32012G18KT 10SM CLR 29/04 A2973 RMK AO2 SLP065 T02890044 $","lat":33.8222,"lon":-116.5043,"elev":123,"name":"Palm Springs Intl, CA, US","cover":"CLR","clouds":[],"fltCat":"VFR"},{"icaoId":"KDCA","receiptTime":"2026-04-17T00:56:26.353Z","obsTime":1776387120,"reportTime":"2026-04-17T01:00:00.000Z","temp":25,"dewp":15.6,"wdir":190,"wspd":9,"visib":"10+","altim":1007.5,"slp":1007.2,"qcField":4,"metarType":"METAR","rawOb":"METAR KDCA 170052Z 19009KT 10SM FEW070 SCT250 25/16 A2975 RMK AO2 SLP072 T02500156","lat":38.8472,"lon":-77.0345,"elev":4,"name":"Washington/Reagan-National Arpt, VA, US","cover":"SCT","clouds":[{"cover":"FEW","base":7000},{"cover":"SCT","base":25000}],"fltCat":"VFR"},{"icaoId":"KATL","receiptTime":"2026-04-17T00:56:23.402Z","obsTime":1776387120,"reportTime":"2026-04-17T01:00:00.000Z","temp":25,"dewp":8.9,"wdir":210,"wspd":6,"visib":"10+","altim":1016.3,"slp":1015.6,"qcField":12,"metarType":"METAR","rawOb":"METAR KATL 170052Z 21006KT 10SM CLR 25/09 A3001 RMK AO2 SLP156 T02500089 $","lat":33.6297,"lon":-84.4422,"elev":309,"name":"Atlanta/Hartsfield-Jackson Intl, GA, US","cover":"CLR","clouds":[],"fltCat":"VFR"},{"icaoId":"KABI","receiptTime":"2026-04-17T00:56:20.944Z","obsTime":1776387120,"reportTime":"2026-04-17T01:00:00.000Z","temp":25.6,"dewp":17.2,"wdir":150,"wspd":14,"visib":"10+","altim":1011.3,"slp":1008.9,"qcField":4,"metarType":"METAR","rawOb":"METAR KABI 170052Z 15014KT 10SM CLR 26/17 A2986 RMK AO2 PK WND 17027/0006 SLP089 T02560172","lat":32.4106,"lon":-99.6821,"elev":543,"name":"Abilene Rgnl, TX, US","cover":"CLR","clouds":[],"fltCat":"VFR"},{"icaoId":"KABQ","receiptTime":"2026-04-17T00:56:20.961Z","obsTime":1776387120,"reportTime":"2026-04-17T01:00:00.000Z","temp":23.3,"dewp":-19.4,"wdir":220,"wspd":12,"wgst":21,"visib":"10+","altim":1010.6,"slp":1004.8,"qcField":4,"metarType":"METAR","rawOb":"METAR KABQ 170052Z 22012G21KT 10SM SCT150 BKN250 23/M19 A2984 RMK AO2 SLP048 ACSL SW T02331194","lat":35.0419,"lon":-106.6154,"elev":1620,"name":"Albuquerque Intl, NM, US","cover":"BKN","clouds":[{"cover":"SCT","base":15000},{"cover":"BKN","base":25000}],"fltCat":"VFR"},{"icaoId":"KCLT","receiptTime":"2026-04-17T00:56:23.414Z","obsTime":1776387120,"reportTime":"2026-04-17T01:00:00.000Z","temp":25.6,"dewp":8.9,"wdir":210,"wspd":7,"visib":"10+","altim":1014,"slp":1014.6,"qcField":4,"metarType":"METAR","rawOb":"METAR KCLT 170052Z 21007KT 10SM FEW095 26/09 A2994 RMK AO2 SLP146 T02560089","lat":35.2225,"lon":-80.9543,"elev":223,"name":"Charlotte/Douglas Intl, NC, US","cover":"FEW","clouds":[{"cover":"FEW","base":9500}],"fltCat":"VFR"},{"icaoId":"KCVG","receiptTime":"2026-04-17T00:56:26.317Z","obsTime":1776387120,"reportTime":"2026-04-17T01:00:00.000Z","temp":21.7,"dewp":9.4,"wdir":240,"wspd":5,"visib":"10+","altim":1013.3,"slp":1012.3,"qcField":4,"metarType":"METAR","rawOb":"METAR KCVG 170052Z 24005KT 10SM FEW080 BKN250 22/09 A2992 RMK AO2 SLP123 T02170094","lat":39.0444,"lon":-84.6724,"elev":264,"name":"Cincinnati Intl, KY, US","cover":"BKN","clouds":[{"cover":"FEW","base":8000},{"cover":"BKN","base":25000}],"fltCat":"VFR"},{"icaoId":"KHRL","receiptTime":"2026-04-17T00:56:26.572Z","obsTime":1776387120,"reportTime":"2026-04-17T01:00:00.000Z","temp":25.6,"dewp":20,"wdir":130,"wspd":16,"visib":"10+","altim":1012.6,"slp":1012.3,"qcField":4,"metarType":"METAR","rawOb":"METAR KHRL 170052Z 13016KT 10SM CLR 26/20 A2990 RMK AO2 SLP123 T02560200","lat":26.2303,"lon":-97.6556,"elev":9,"name":"Harlingen/Valley Intl, TX, US","cover":"CLR","clouds":[],"fltCat":"VFR"},{"icaoId":"KOKC","receiptTime":"2026-04-17T00:56:22.946Z","obsTime":1776387120,"reportTime":"2026-04-17T01:00:00.000Z","temp":25.6,"dewp":18.3,"wdir":160,"wspd":10,"visib":"10+","altim":1009.2,"slp":1007.7,"qcField":4,"metarType":"METAR","rawOb":"METAR KOKC 170052Z 16010KT 10SM BKN250 26/18 A2980 RMK AO2 SLP077 T02560183","lat":35.3843,"lon":-97.6003,"elev":391,"name":"Oklahoma City/Will Rogers Intl, OK, US","cover":"BKN","clouds":[{"cover":"BKN","base":25000}],"fltCat":"VFR"},{"icaoId":"KMKE","receiptTime":"2026-04-17T00:56:22.893Z","obsTime":1776387120,"reportTime":"2026-04-17T01:00:00.000Z","temp":8.9,"dewp":8.3,"wdir":70,"wspd":4,"visib":"10+","altim":1012.3,"slp":1012.4,"qcField":12,"metarType":"METAR","rawOb":"METAR KMKE 170052Z 07004KT 10SM OVC003 09/08 A2989 RMK AO2 SLP124 T00890083 $","lat":42.9549,"lon":-87.9045,"elev":203,"name":"Milwaukee/Mitchell Intl, WI, US","cover":"OVC","clouds":[{"cover":"OVC","base":300}],"fltCat":"LIFR"},{"icaoId":"KSPS","receiptTime":"2026-04-17T00:56:21.061Z","obsTime":1776387120,"reportTime":"2026-04-17T01:00:00.000Z","temp":26.7,"dewp":18.3,"wdir":180,"wspd":15,"visib":"10+","altim":1009.2,"slp":1007.9,"qcField":4,"metarType":"METAR","rawOb":"METAR KSPS 170052Z 18015KT 10SM SCT250 27/18 A2980 RMK AO2 SLP079 T02670183","lat":33.9785,"lon":-98.493,"elev":310,"name":"Wichita Falls Rgnl, TX, US","cover":"SCT","clouds":[{"cover":"SCT","base":25000}],"fltCat":"VFR"},{"icaoId":"KMLF","receiptTime":"2026-04-17T00:56:16.722Z","obsTime":1776387120,"reportTime":"2026-04-17T01:00:00.000Z","temp":7.8,"dewp":-7.2,"wdir":10,"wspd":29,"wgst":37,"visib":9,"altim":1011.9,"slp":1010.1,"qcField":6,"metarType":"METAR","rawOb":"METAR KMLF 170052Z AUTO 01029G37KT 9SM BKN110 08/M07 A2988 RMK AO2 PK WND 01042/2355 SLP101 T00781072","lat":38.4225,"lon":-113.0109,"elev":1537,"name":"Milford Muni, UT, US","cover":"BKN","clouds":[{"cover":"BKN","base":11000}],"fltCat":"VFR"},{"icaoId":"KIAD","receiptTime":"2026-04-17T00:56:26.599Z","obsTime":1776387120,"reportTime":"2026-04-17T01:00:00.000Z","temp":27.2,"dewp":10,"wdir":210,"wspd":8,"visib":"10+","altim":1007.5,"slp":1007.2,"qcField":4,"metarType":"METAR","rawOb":"METAR KIAD 170052Z 21008KT 10SM FEW060 FEW250 27/10 A2975 RMK AO2 SLP072 T02720100","lat":38.9348,"lon":-77.4473,"elev":90,"name":"Washington/Dulles Intl, VA, US","cover":"FEW","clouds":[{"cover":"FEW","base":6000},{"cover":"FEW","base":25000}],"fltCat":"VFR"},{"icaoId":"KCRP","receiptTime":"2026-04-17T00:54:13.140Z","obsTime":1776387060,"reportTime":"2026-04-17T01:00:00.000Z","temp":25,"dewp":21.1,"wdir":140,"wspd":20,"visib":"10+","altim":1013,"slp":1012.8,"qcField":12,"metarType":"METAR","rawOb":"METAR KCRP 170051Z 14020KT 10SM FEW018 FEW065 SCT250 25/21 A2991 RMK AO2 PK WND 15028/0033 SLP128 T02500211 $","lat":27.7734,"lon":-97.513,"elev":11,"name":"Corpus Christi Intl, TX, US","cover":"SCT","clouds":[{"cover":"FEW","base":1800},{"cover":"FEW","base":6500},{"cover":"SCT","base":25000}],"fltCat":"VFR"},{"icaoId":"KSTL","receiptTime":"2026-04-17T00:54:12.609Z","obsTime":1776387060,"reportTime":"2026-04-17T01:00:00.000Z","temp":23.9,"dewp":7.8,"wdir":220,"wspd":6,"visib":"10+","altim":1011.9,"slp":1011.3,"qcField":12,"metarType":"METAR","rawOb":"METAR KSTL 170051Z 22006KT 10SM SCT250 24/08 A2988 RMK AO2 SLP113 T02390078 $","lat":38.7525,"lon":-90.3734,"elev":163,"name":"St Louis/Lambert Intl, MO, US","cover":"SCT","clouds":[{"cover":"SCT","base":25000}],"fltCat":"VFR"},{"icaoId":"KROW","receiptTime":"2026-04-17T00:54:12.479Z","obsTime":1776387060,"reportTime":"2026-04-17T01:00:00.000Z","temp":27.2,"dewp":-8.3,"wdir":220,"wspd":18,"wgst":24,"visib":"10+","altim":1009.6,"slp":1004.5,"qcField":4,"metarType":"METAR","rawOb":"METAR KROW 170051Z 22018G24KT 10SM CLR 27/M08 A2981 RMK AO2 PK WND 21028/2359 SLP045 T02721083","lat":33.3074,"lon":-104.5082,"elev":1105,"name":"Roswell/Ind Arpt, NM, US","cover":"CLR","clouds":[],"fltCat":"VFR"},{"icaoId":"KRDU","receiptTime":"2026-04-17T00:54:12.469Z","obsTime":1776387060,"reportTime":"2026-04-17T01:00:00.000Z","temp":25,"dewp":10,"wdir":230,"wspd":5,"visib":"10+","altim":1012.6,"slp":1012,"qcField":4,"metarType":"METAR","rawOb":"METAR KRDU 170051Z 23005KT 10SM FEW250 25/10 A2990 RMK AO2 SLP120 T02500100","lat":35.8923,"lon":-78.782,"elev":121,"name":"Raleigh-Durham Intl, NC, US","cover":"FEW","clouds":[{"cover":"FEW","base":25000}],"fltCat":"VFR"},{"icaoId":"KORF","receiptTime":"2026-04-17T00:54:13.454Z","obsTime":1776387060,"reportTime":"2026-04-17T01:00:00.000Z","temp":27.2,"dewp":13.3,"wdir":210,"wspd":11,"visib":"10+","altim":1010.6,"slp":1010.6,"qcField":4,"metarType":"METAR","rawOb":"METAR KORF 170051Z 21011KT 10SM CLR 27/13 A2984 RMK AO2 SLP106 T02720133","lat":36.9037,"lon":-76.1927,"elev":5,"name":"Norfolk Intl, VA, US","cover":"CLR","clouds":[],"fltCat":"VFR"},{"icaoId":"KPVD","receiptTime":"2026-04-17T00:54:12.444Z","obsTime":1776387060,"reportTime":"2026-04-17T01:00:00.000Z","temp":14.4,"dewp":11.7,"wdir":150,"wspd":8,"visib":"10+","altim":1007.9,"slp":1007.6,"qcField":12,"metarType":"METAR","rawOb":"METAR KPVD 170051Z 15008KT 10SM BKN250 14/12 A2976 RMK AO2 SLP076 T01440117 $","lat":41.7225,"lon":-71.4325,"elev":15,"name":"Providence/Green Mem, RI, US","cover":"BKN","clouds":[{"cover":"BKN","base":25000}],"fltCat":"VFR"},{"icaoId":"KCMH","receiptTime":"2026-04-17T00:54:13.091Z","obsTime":1776387060,"reportTime":"2026-04-17T01:00:00.000Z","temp":21.7,"dewp":9.4,"wdir":240,"wspd":6,"visib":"10+","altim":1011.9,"slp":1011.3,"qcField":4,"metarType":"METAR","rawOb":"METAR KCMH 170051Z 24006KT 10SM FEW065 22/09 A2988 RMK AO2 SLP113 T02170094","lat":39.9907,"lon":-82.877,"elev":257,"name":"Columbus/Glenn Intl, OH, US","cover":"FEW","clouds":[{"cover":"FEW","base":6500}],"fltCat":"VFR"},{"icaoId":"KJFK","receiptTime":"2026-04-17T00:54:13.334Z","obsTime":1776387060,"reportTime":"2026-04-17T01:00:00.000Z","temp":15,"dewp":11.7,"wdir":200,"wspd":8,"visib":"10+","altim":1007.5,"slp":1007.4,"qcField":4,"metarType":"METAR","rawOb":"METAR KJFK 170051Z 20008KT 10SM FEW065 BKN250 15/12 A2975 RMK AO2 SLP074 T01500117","lat":40.6392,"lon":-73.7639,"elev":3,"name":"New York/JF Kennedy Intl, NY, US","cover":"BKN","clouds":[{"cover":"FEW","base":6500},{"cover":"BKN","base":25000}],"fltCat":"VFR"},{"icaoId":"KBJC","receiptTime":"2026-04-17T00:50:43.986Z","obsTime":1776387060,"reportTime":"2026-04-17T01:00:00.000Z","temp":21,"dewp":-10,"wdir":240,"wspd":13,"wgst":19,"visib":"10+","altim":1003.5,"qcField":0,"metarType":"METAR","rawOb":"METAR KBJC 170051Z 24013G19KT 10SM CLR 21/M10 A2963","lat":39.9008,"lon":-105.1042,"elev":1694,"name":"Rocky Mtn Metro, CO, US","cover":"CLR","clouds":[],"fltCat":"VFR"},{"icaoId":"KVNY","receiptTime":"2026-04-17T00:54:12.660Z","obsTime":1776387060,"reportTime":"2026-04-17T01:00:00.000Z","temp":21.7,"dewp":8.3,"wdir":160,"wspd":9,"visib":"10+","altim":1010.9,"slp":1010,"qcField":12,"metarType":"METAR","rawOb":"METAR KVNY 170051Z 16009KT 10SM CLR 22/08 A2985 RMK AO2 SLP100 T02170083 $","lat":34.2121,"lon":-118.4915,"elev":241,"name":"Van Nuys Arpt, CA, US","cover":"CLR","clouds":[],"fltCat":"VFR"},{"icaoId":"KEWR","receiptTime":"2026-04-17T00:54:13.213Z","obsTime":1776387060,"reportTime":"2026-04-17T01:00:00.000Z","temp":27.2,"dewp":13.9,"wdir":180,"wspd":9,"visib":"10+","altim":1006.5,"slp":1006.4,"qcField":4,"metarType":"METAR","rawOb":"METAR KEWR 170051Z 18009KT 10SM FEW060 BKN250 27/14 A2972 RMK AO2 SLP064 T02720139","lat":40.6828,"lon":-74.1692,"elev":2,"name":"Newark Intl, NJ, US","cover":"BKN","clouds":[{"cover":"FEW","base":6000},{"cover":"BKN","base":25000}],"fltCat":"VFR"},{"icaoId":"KLGA","receiptTime":"2026-04-17T00:56:26.710Z","obsTime":1776387060,"reportTime":"2026-04-17T01:00:00.000Z","temp":22.2,"dewp":12.2,"wdir":180,"wspd":7,"visib":"10+","altim":1006.9,"slp":1006.7,"qcField":4,"metarType":"METAR","rawOb":"METAR KLGA 170051Z 18007KT 10SM BKN250 22/12 A2973 RMK AO2 SLP067 T02220122","lat":40.7794,"lon":-73.8803,"elev":9,"name":"New York/La Guardia Arpt, NY, US","cover":"BKN","clouds":[{"cover":"BKN","base":25000}],"fltCat":"VFR"},{"icaoId":"KCLE","receiptTime":"2026-04-17T00:54:12.771Z","obsTime":1776387060,"reportTime":"2026-04-17T01:00:00.000Z","temp":17.8,"dewp":11.1,"wdir":290,"wspd":13,"wgst":22,"visib":"10+","altim":1010.9,"slp":1012,"qcField":12,"metarType":"METAR","rawOb":"METAR KCLE 170051Z 29013G22KT 10SM SCT060 BKN075 OVC100 18/11 A2985 RMK AO2 PK WND 29030/0025 SLP120 OCNL LTGICCC DSNT N AND S T01780111 $","lat":41.4057,"lon":-81.8519,"elev":237,"name":"Cleveland/Hopkins Intl, OH, US","cover":"OVC","clouds":[{"cover":"SCT","base":6000},{"cover":"BKN","base":7500},{"cover":"OVC","base":10000}],"fltCat":"VFR"},{"icaoId":"KPHX","receiptTime":"2026-04-17T00:54:12.411Z","obsTime":1776387060,"reportTime":"2026-04-17T01:00:00.000Z","temp":29.4,"dewp":-5,"wdir":"VRB","wspd":6,"visib":"10+","altim":1007.2,"slp":1005.5,"qcField":12,"metarType":"METAR","rawOb":"METAR KPHX 170051Z VRB06KT 10SM FEW140 FEW200 BKN250 29/M05 A2974 RMK AO2 SLP055 T02941050 $","lat":33.4278,"lon":-112.0037,"elev":338,"name":"Phoenix/Sky Harbor Intl, AZ, US","cover":"BKN","clouds":[{"cover":"FEW","base":14000},{"cover":"FEW","base":20000},{"cover":"BKN","base":25000}],"fltCat":"VFR"},{"icaoId":"KIGM","receiptTime":"2026-04-17T00:54:13.287Z","obsTime":1776387060,"reportTime":"2026-04-17T01:00:00.000Z","temp":20.6,"dewp":-6.7,"wdir":210,"wspd":20,"wgst":29,"visib":"10+","altim":1010.2,"slp":1005,"qcField":6,"metarType":"METAR","rawOb":"METAR KIGM 170051Z AUTO 21020G29KT 10SM CLR 21/M07 A2983 RMK AO2 PK WND 22036/0005 SLP050 T02061067","lat":35.2575,"lon":-113.9341,"elev":1045,"name":"Kingman Arpt, AZ, US","cover":"CLR","clouds":[],"fltCat":"VFR"},{"icaoId":"KPIT","receiptTime":"2026-04-17T00:54:12.819Z","obsTime":1776387060,"reportTime":"2026-04-17T01:00:00.000Z","temp":18.9,"dewp":16.7,"wdir":220,"wspd":4,"visib":"10+","altim":1011.9,"slp":1011.7,"qcField":4,"metarType":"METAR","rawOb":"METAR KPIT 170051Z 22004KT 10SM SCT034 BKN090 19/17 A2988 RMK AO2 SLP117 T01890167","lat":40.4814,"lon":-80.2083,"elev":339,"name":"Pittsburgh Intl, PA, US","cover":"BKN","clouds":[{"cover":"SCT","base":3400},{"cover":"BKN","base":9000}],"fltCat":"VFR"},{"icaoId":"KACT","receiptTime":"2026-04-17T00:54:12.865Z","obsTime":1776387060,"reportTime":"2026-04-17T01:00:00.000Z","temp":27.2,"dewp":18.3,"wdir":150,"wspd":10,"visib":"10+","altim":1011.9,"slp":1011,"qcField":4,"metarType":"METAR","rawOb":"METAR KACT 170051Z 15010KT 10SM SCT055 27/18 A2988 RMK AO2 SLP110 T02720183","lat":31.618,"lon":-97.2283,"elev":150,"name":"Waco Rgnl, TX, US","cover":"SCT","clouds":[{"cover":"SCT","base":5500}],"fltCat":"VFR"},{"icaoId":"KBDL","receiptTime":"2026-04-17T00:54:12.955Z","obsTime":1776387060,"reportTime":"2026-04-17T01:00:00.000Z","temp":24.4,"dewp":14.4,"wdir":190,"wspd":10,"visib":"10+","altim":1006.2,"slp":1005.9,"qcField":4,"metarType":"METAR","rawOb":"METAR KBDL 170051Z 19010KT 10SM FEW085 FEW110 BKN250 24/14 A2971 RMK AO2 SLP059 T02440144","lat":41.9374,"lon":-72.682,"elev":52,"name":"Hartford/Bradley Intl, CT, US","cover":"BKN","clouds":[{"cover":"FEW","base":8500},{"cover":"FEW","base":11000},{"cover":"BKN","base":25000}],"fltCat":"VFR"},{"icaoId":"KELP","receiptTime":"2026-04-17T00:54:13.200Z","obsTime":1776387060,"reportTime":"2026-04-17T01:00:00.000Z","temp":26.7,"dewp":-6.7,"wdir":190,"wspd":7,"visib":"10+","altim":1010.9,"slp":1005.3,"qcField":12,"metarType":"METAR","rawOb":"METAR KELP 170051Z 19007KT 10SM FEW250 27/M07 A2985 RMK AO2 SLP053 T02671067 $","lat":31.8123,"lon":-106.3774,"elev":1205,"name":"El Paso Intl, TX, US","cover":"FEW","clouds":[{"cover":"FEW","base":25000}],"fltCat":"VFR"},{"icaoId":"KMYL","receiptTime":"2026-04-17T00:54:13.425Z","obsTime":1776387060,"reportTime":"2026-04-17T01:00:00.000Z","temp":1.1,"dewp":-6.1,"wdir":330,"wspd":8,"wgst":17,"visib":"10+","altim":1018,"slp":1020.8,"qcField":6,"metarType":"METAR","rawOb":"METAR KMYL 170051Z AUTO 33008G17KT 10SM FEW040 SCT048 BKN070 01/M06 A3006 RMK AO2 WSHFT 0016 SLP208 T00111061","lat":44.8943,"lon":-116.0998,"elev":1532,"name":"McCall Muni, ID, US","cover":"BKN","clouds":[{"cover":"FEW","base":4000},{"cover":"SCT","base":4800},{"cover":"BKN","base":7000}],"fltCat":"VFR"},{"icaoId":"KORD","receiptTime":"2026-04-17T00:54:13.441Z","obsTime":1776387060,"reportTime":"2026-04-17T01:00:00.000Z","temp":12.2,"dewp":10.6,"wdir":40,"wspd":6,"visib":"10+","altim":1012.3,"slp":1012.1,"qcField":12,"metarType":"METAR","rawOb":"METAR KORD 170051Z 04006KT 10SM FEW005 FEW045 12/11 A2989 RMK AO2 SLP121 T01220106 $","lat":41.9602,"lon":-87.9316,"elev":202,"name":"Chicago/O'Hare Intl, IL, US","cover":"FEW","clouds":[{"cover":"FEW","base":500},{"cover":"FEW","base":4500}],"fltCat":"VFR"},{"icaoId":"KOXR","receiptTime":"2026-04-17T00:54:13.468Z","obsTime":1776387060,"reportTime":"2026-04-17T01:00:00.000Z","temp":16.1,"dewp":12.2,"wdir":240,"wspd":8,"visib":9,"altim":1011.6,"slp":1011.5,"qcField":12,"metarType":"METAR","rawOb":"METAR KOXR 170051Z 24008KT 9SM CLR 16/12 A2987 RMK AO2 SLP115 T01610122 $","lat":34.2001,"lon":-119.2042,"elev":12,"name":"Oxnard Arpt, CA, US","cover":"CLR","clouds":[],"fltCat":"VFR"},{"icaoId":"KSAT","receiptTime":"2026-04-17T00:54:12.522Z","obsTime":1776387060,"reportTime":"2026-04-17T01:00:00.000Z","temp":28.3,"dewp":16.7,"wdir":140,"wspd":16,"wgst":24,"visib":"10+","altim":1012.3,"slp":1010.3,"qcField":4,"metarType":"METAR","rawOb":"METAR KSAT 170051Z 14016G24KT 10SM BKN065 BKN250 28/17 A2989 RMK AO2 SLP103 T02830167","lat":29.5443,"lon":-98.4839,"elev":246,"name":"San Antonio Intl, TX, US","cover":"BKN","clouds":[{"cover":"BKN","base":6500},{"cover":"BKN","base":25000}],"fltCat":"VFR"},{"icaoId":"KSAN","receiptTime":"2026-04-17T00:54:12.505Z","obsTime":1776387060,"reportTime":"2026-04-17T01:00:00.000Z","temp":18.3,"dewp":12.8,"wdir":200,"wspd":8,"visib":"10+","altim":1013.3,"slp":1013,"qcField":12,"metarType":"METAR","rawOb":"METAR KSAN 170051Z 20008KT 10SM FEW020 BKN250 18/13 A2992 RMK AO2 SLP130 T01830128 $","lat":32.7364,"lon":-117.1973,"elev":3,"name":"San Diego Intl Arpt, CA, US","cover":"BKN","clouds":[{"cover":"FEW","base":2000},{"cover":"BKN","base":25000}],"fltCat":"VFR"},{"icaoId":"KSAD","receiptTime":"2026-04-17T00:54:12.490Z","obsTime":1776387060,"reportTime":"2026-04-17T01:00:00.000Z","temp":27.8,"dewp":-12.2,"wdir":300,"wspd":8,"visib":"10+","altim":1009.2,"slp":1005.5,"qcField":6,"metarType":"METAR","rawOb":"METAR KSAD 170051Z AUTO 30008KT 10SM CLR 28/M12 A2980 RMK AO2 SLP055 T02781122","lat":32.8565,"lon":-109.636,"elev":937,"name":"Safford Rgnl, AZ, US","cover":"CLR","clouds":[],"fltCat":"VFR"},{"icaoId":"KLGU","receiptTime":"2026-04-17T00:54:13.348Z","obsTime":1776387060,"reportTime":"2026-04-17T01:00:00.000Z","temp":1.7,"dewp":-6.1,"wdir":150,"wspd":4,"visib":"10+","altim":1016.7,"slp":1016.7,"qcField":6,"metarType":"METAR","rawOb":"METAR KLGU 170051Z AUTO 15004KT 10SM CLR 02/M06 A3002 RMK AO2 SLP167 T00171061","lat":41.7865,"lon":-111.8519,"elev":1359,"name":"Logan/Cache Arpt, UT, US","cover":"CLR","clouds":[],"fltCat":"VFR"},{"icaoId":"KADM","receiptTime":"2026-04-17T00:47:22.876Z","obsTime":1776387000,"reportTime":"2026-04-17T01:00:00.000Z","temp":26,"dewp":20,"wdir":170,"wspd":9,"visib":"10+","altim":1010.2,"qcField":0,"metarType":"METAR","rawOb":"METAR KADM 170050Z 17009KT 10SM FEW043 26/20 A2983","lat":34.3007,"lon":-97.0089,"elev":223,"name":"Ardmore Muni, OK, US","cover":"FEW","clouds":[{"cover":"FEW","base":4300}],"fltCat":"VFR"},{"icaoId":"KAEG","receiptTime":"2026-04-17T00:52:34.287Z","obsTime":1776387000,"reportTime":"2026-04-17T01:00:00.000Z","temp":23,"dewp":-22,"wdir":250,"wspd":17,"wgst":20,"visib":"10+","altim":1011.6,"qcField":0,"metarType":"METAR","rawOb":"METAR KAEG 170050Z 25017G20KT 10SM CLR 23/M22 A2987","lat":35.15,"lon":-106.7929,"elev":1771,"name":"Albuquerque/Double Eagle Arpt, NM, US","cover":"CLR","clouds":[],"fltCat":"VFR"},{"icaoId":"KIWA","receiptTime":"2026-04-17T00:50:16.239Z","obsTime":1776386880,"reportTime":"2026-04-17T01:00:00.000Z","temp":30,"dewp":-7,"wdir":290,"wspd":9,"wgst":16,"visib":"10+","altim":1008.2,"qcField":0,"metarType":"METAR","rawOb":"METAR KIWA 170048Z 29009G16KT 10SM CLR 30/M07 A2977","lat":33.3008,"lon":-111.6437,"elev":420,"name":"Phoenix/Mesa Gateway Arpt, AZ, US","cover":"CLR","clouds":[],"fltCat":"VFR"},{"icaoId":"KCHD","receiptTime":"2026-04-17T00:50:44.074Z","obsTime":1776386820,"reportTime":"2026-04-17T01:00:00.000Z","temp":30,"dewp":-5,"wdir":250,"wspd":7,"wgst":18,"visib":"10+","altim":1007.9,"qcField":0,"metarType":"METAR","rawOb":"METAR KCHD 170047Z 25007G18KT 10SM CLR 30/M05 A2976","lat":33.2669,"lon":-111.8086,"elev":378,"name":"Chandler Muni, AZ, US","cover":"CLR","clouds":[],"fltCat":"VFR"},{"icaoId":"KGEU","receiptTime":"2026-04-17T00:47:53.183Z","obsTime":1776386820,"reportTime":"2026-04-17T01:00:00.000Z","temp":29,"dewp":-9,"wdir":210,"wspd":8,"visib":"10+","altim":1006.5,"qcField":0,"metarType":"METAR","rawOb":"METAR KGEU 170047Z 21008KT 10SM OVC230 29/M09 A2972","lat":33.528,"lon":-112.293,"elev":319,"name":"Glendale Muni, AZ, US","cover":"OVC","clouds":[{"cover":"OVC","base":23000}],"fltCat":"VFR"},{"icaoId":"KGYR","receiptTime":"2026-04-17T00:50:16.165Z","obsTime":1776386820,"reportTime":"2026-04-17T01:00:00.000Z","temp":29,"dewp":-4,"wdir":250,"wspd":10,"visib":"10+","altim":1007.5,"qcField":0,"metarType":"METAR","rawOb":"METAR KGYR 170047Z 25010KT 10SM FEW160 BKN250 29/M04 A2975","lat":33.428,"lon":-112.368,"elev":292,"name":"Phoenix/Goodyear Muni, AZ, US","cover":"BKN","clouds":[{"cover":"FEW","base":16000},{"cover":"BKN","base":25000}],"fltCat":"VFR"},{"icaoId":"KSUN","receiptTime":"2026-04-17T00:48:23.805Z","obsTime":1776386820,"reportTime":"2026-04-17T01:00:00.000Z","temp":1,"dewp":-14,"wdir":320,"wspd":7,"visib":"10+","altim":1015.3,"qcField":0,"metarType":"METAR","rawOb":"METAR KSUN 170047Z 32007KT 10SM BKN080 01/M14 A2998","lat":43.4969,"lon":-114.2923,"elev":1619,"name":"Hailey/Friedman Mem, ID, US","cover":"BKN","clouds":[{"cover":"BKN","base":8000}],"fltCat":"VFR"},{"icaoId":"KRYN","receiptTime":"2026-04-17T00:47:23.117Z","obsTime":1776386700,"reportTime":"2026-04-17T01:00:00.000Z","temp":29,"dewp":-17,"wdir":210,"wspd":15,"wgst":20,"visib":"10+","altim":1009.6,"qcField":0,"metarType":"METAR","rawOb":"METAR KRYN 170045Z 21015G20KT 10SM CLR 29/M17 A2981","lat":32.1418,"lon":-111.1767,"elev":731,"name":"Tucson/Ryan Fld, AZ, US","cover":"CLR","clouds":[],"fltCat":"VFR"}]