[{"icaoId":"KMKE","receiptTime":"2026-04-18T16:42:04.268Z","obsTime":1776530340,"reportTime":"2026-04-18T16:39:00.000Z","temp":6.1,"dewp":-1.7,"wdir":270,"wspd":12,"wgst":23,"visib":"10+","altim":1010.6,"qcField":4,"metarType":"SPECI","rawOb":"SPECI KMKE 181639Z 27012G23KT 10SM BKN032 06/M02 A2984 RMK AO2 T00611017","lat":42.9549,"lon":-87.9045,"elev":203,"name":"Milwaukee/Mitchell Intl, WI, US","cover":"BKN","clouds":[{"cover":"BKN","base":3200}],"fltCat":"VFR"},{"icaoId":"KCMH","receiptTime":"2026-04-18T16:40:33.325Z","obsTime":1776530220,"reportTime":"2026-04-18T16:37:00.000Z","temp":20,"dewp":15.6,"wdir":280,"wspd":13,"wgst":24,"visib":"10+","altim":1008.5,"qcField":4,"wxString":"-RA","precip":0.005,"metarType":"SPECI","rawOb":"SPECI KCMH 181637Z 28013G24KT 10SM -RA BKN027 BKN037 OVC049 20/16 A2978 RMK AO2 WSHFT 1621 RAB04 P0000 T02000156","lat":39.9907,"lon":-82.877,"elev":257,"name":"Columbus/Glenn Intl, OH, US","cover":"OVC","clouds":[{"cover":"BKN","base":2700},{"cover":"BKN","base":3700},{"cover":"OVC","base":4900}],"fltCat":"MVFR"},{"icaoId":"KIND","receiptTime":"2026-04-18T16:40:32.269Z","obsTime":1776530160,"reportTime":"2026-04-18T16:36:00.000Z","temp":8.3,"dewp":7.2,"wdir":290,"wspd":13,"visib":3,"altim":1012.3,"qcField":4,"wxString":"-RA BR","precip":0.01,"metarType":"SPECI","rawOb":"SPECI KIND 181636Z 29013KT 3SM -RA BR SCT007 BKN011 OVC030 08/07 A2989 RMK AO2 PK WND 29031/1609 P0001 T00830072","lat":39.7252,"lon":-86.2816,"elev":242,"name":"Indianapolis Intl, IN, US","cover":"OVC","clouds":[{"cover":"SCT","base":700},{"cover":"BKN","base":1100},{"cover":"OVC","base":3000}],"fltCat":"MVFR"},{"icaoId":"PANC","receiptTime":"2026-04-18T16:40:25.689Z","obsTime":1776530160,"reportTime":"2026-04-18T16:36:00.000Z","temp":0.6,"dewp":0,"wdir":140,"wspd":3,"visib":3,"altim":1013,"qcField":4,"wxString":"BR","metarType":"SPECI","rawOb":"SPECI PANC 181636Z 14003KT 3SM BR OVC003 01/00 A2991 RMK AO2 T00060000","lat":61.1691,"lon":-150.0277,"elev":39,"name":"Anchorage Intl, AK, US","cover":"OVC","clouds":[{"cover":"OVC","base":300}],"fltCat":"LIFR"},{"icaoId":"KDTW","receiptTime":"2026-04-18T16:38:15.775Z","obsTime":1776530100,"reportTime":"2026-04-18T16:35:00.000Z","temp":18.3,"dewp":15,"wdir":220,"wspd":19,"wgst":26,"visib":9,"altim":1005.2,"qcField":12,"precip":0.005,"metarType":"SPECI","rawOb":"SPECI KDTW 181635Z 22019G26KT 9SM BKN015 BKN020 BKN100 18/15 A2968 RMK AO2 PK WND 22027/1621 RAE29 P0000 T01830150 $","lat":42.2311,"lon":-83.3312,"elev":192,"name":"Detroit/Metro Wayne Cnty, MI, US","cover":"BKN","clouds":[{"cover":"BKN","base":1500},{"cover":"BKN","base":2000},{"cover":"BKN","base":10000}],"fltCat":"MVFR"},{"icaoId":"KCXP","receiptTime":"2026-04-18T16:40:21.762Z","obsTime":1776530100,"reportTime":"2026-04-18T16:35:00.000Z","temp":8,"dewp":-12,"wdir":0,"wspd":0,"visib":"10+","altim":1021.4,"qcField":6,"metarType":"METAR","rawOb":"METAR KCXP 181635Z AUTO 00000KT 10SM CLR 08/M12 A3016 RMK AO2","lat":39.1905,"lon":-119.7319,"elev":1431,"name":"Carson City Arpt, NV, US","cover":"CLR","clouds":[],"fltCat":"VFR"},{"icaoId":"KLRU","receiptTime":"2026-04-18T16:38:09.125Z","obsTime":1776530100,"reportTime":"2026-04-18T16:35:00.000Z","temp":17.4,"dewp":-15.4,"wdir":20,"wspd":9,"wgst":14,"visib":"10+","altim":1022.8,"qcField":6,"metarType":"METAR","rawOb":"METAR KLRU 181635Z AUTO 02009G14KT 10SM CLR 17/M15 A3020 RMK AO2 T01741154","lat":32.2884,"lon":-106.9131,"elev":1355,"name":"Las Cruces Intl, NM, US","cover":"CLR","clouds":[],"fltCat":"VFR"},{"icaoId":"KHAF","receiptTime":"2026-04-18T16:38:04.528Z","obsTime":1776530100,"reportTime":"2026-04-18T16:35:00.000Z","temp":13,"dewp":12,"wdir":310,"wspd":6,"visib":8,"altim":1016.3,"qcField":6,"metarType":"METAR","rawOb":"METAR KHAF 181635Z AUTO 31006KT 8SM CLR 13/12 A3001 RMK AO2","lat":37.5136,"lon":-122.4996,"elev":11,"name":"Half Moon Bay Arpt, CA, US","cover":"CLR","clouds":[],"fltCat":"VFR"},{"icaoId":"KSEZ","receiptTime":"2026-04-18T16:40:26.981Z","obsTime":1776530100,"reportTime":"2026-04-18T16:35:00.000Z","temp":15,"dewp":-17,"wdir":80,"wspd":11,"wgst":22,"visib":"10+","altim":1022.4,"qcField":6,"metarType":"METAR","rawOb":"METAR KSEZ 181635Z AUTO 08011G22KT 360V130 10SM CLR 15/M17 A3019 RMK AO2","lat":34.8467,"lon":-111.7884,"elev":1455,"name":"Sedona Arpt, AZ, US","cover":"CLR","clouds":[],"fltCat":"VFR"},{"icaoId":"KHII","receiptTime":"2026-04-18T16:40:35.044Z","obsTime":1776530100,"reportTime":"2026-04-18T16:35:00.000Z","temp":22,"dewp":-14,"wdir":350,"wspd":9,"visib":"10+","altim":1016.3,"qcField":6,"metarType":"METAR","rawOb":"METAR KHII 181635Z AUTO 35009KT 10SM CLR 22/M14 A3001 RMK AO2","lat":34.5659,"lon":-114.3522,"elev":241,"name":"Lake Havasu City Arpt, AZ, US","cover":"CLR","clouds":[],"fltCat":"VFR"},{"icaoId":"KRTS","receiptTime":"2026-04-18T16:40:26.769Z","obsTime":1776530100,"reportTime":"2026-04-18T16:35:00.000Z","temp":9,"dewp":-20,"wdir":110,"wspd":6,"visib":"10+","altim":1020.7,"qcField":6,"metarType":"METAR","rawOb":"METAR KRTS 181635Z AUTO 11006KT 10SM CLR 09/M20 A3014 RMK AO2","lat":39.6658,"lon":-119.8731,"elev":1537,"name":"Reno/Stead Arpt, NV, US","cover":"CLR","clouds":[],"fltCat":"VFR"},{"icaoId":"KHCR","receiptTime":"2026-04-18T16:38:14.865Z","obsTime":1776530100,"reportTime":"2026-04-18T16:35:00.000Z","temp":1.5,"dewp":-9.4,"wdir":0,"wspd":0,"visib":"10+","altim":1026.5,"qcField":14,"metarType":"METAR","rawOb":"METAR KHCR 181635Z AUTO 00000KT 10SM CLR 02/M09 A3031 RMK AO2 T00151094 $","lat":40.4774,"lon":-111.4329,"elev":1708,"name":"Heber City Muni, UT, US","cover":"CLR","clouds":[],"fltCat":"VFR"},{"icaoId":"KHTH","receiptTime":"2026-04-18T16:40:31.650Z","obsTime":1776530100,"reportTime":"2026-04-18T16:35:00.000Z","temp":10,"dewp":-17,"wdir":280,"wspd":4,"visib":"10+","altim":1021.4,"qcField":6,"metarType":"METAR","rawOb":"METAR KHTH 181635Z AUTO 28004KT 10SM CLR 10/M17 A3016 RMK A01","lat":38.5448,"lon":-118.6314,"elev":1281,"name":"Hawthorne Muni, NV, US","cover":"CLR","clouds":[],"fltCat":"VFR"},{"icaoId":"KBVU","receiptTime":"2026-04-18T16:36:04.185Z","obsTime":1776530100,"reportTime":"2026-04-18T16:35:00.000Z","temp":18,"dewp":-18,"wdir":20,"wspd":15,"wgst":20,"visib":"10+","altim":1019.4,"qcField":6,"metarType":"METAR","rawOb":"METAR KBVU 181635Z AUTO 02015G20KT 10SM CLR 18/M18 A3010 RMK AO2","lat":35.9489,"lon":-114.8633,"elev":654,"name":"Boulder City Muni, NV, US","cover":"CLR","clouds":[],"fltCat":"VFR"},{"icaoId":"KMHR","receiptTime":"2026-04-18T16:40:32.612Z","obsTime":1776530100,"reportTime":"2026-04-18T16:35:00.000Z","temp":17,"dewp":9,"wdir":0,"wspd":0,"visib":"10+","altim":1016,"qcField":6,"metarType":"METAR","rawOb":"METAR KMHR 181635Z AUTO 00000KT 10SM CLR 17/09 A3000 RMK AO2","lat":38.56,"lon":-121.284,"elev":30,"name":"Sacramento/Mather Fld, CA, US","cover":"CLR","clouds":[],"fltCat":"VFR"},{"icaoId":"KMEV","receiptTime":"2026-04-18T16:40:25.532Z","obsTime":1776530100,"reportTime":"2026-04-18T16:35:00.000Z","temp":8,"dewp":-8,"wdir":0,"wspd":0,"visib":"10+","altim":1020.7,"qcField":6,"metarType":"METAR","rawOb":"METAR KMEV 181635Z AUTO 00000KT 10SM CLR 08/M08 A3014 RMK AO2","lat":38.9963,"lon":-119.75,"elev":1437,"name":"Minden-Tahoe Arpt, NV, US","cover":"CLR","clouds":[],"fltCat":"VFR"},{"icaoId":"KSOW","receiptTime":"2026-04-18T16:38:10.743Z","obsTime":1776530100,"reportTime":"2026-04-18T16:35:00.000Z","temp":9,"dewp":-16,"wdir":10,"wspd":8,"wgst":15,"visib":"10+","altim":1024.8,"qcField":6,"metarType":"METAR","rawOb":"METAR KSOW 181635Z AUTO 01008G15KT 10SM CLR 09/M16 A3026 RMK AO2","lat":34.2686,"lon":-110.0019,"elev":1954,"name":"Show Low Muni, AZ, US","cover":"CLR","clouds":[],"fltCat":"VFR"},{"icaoId":"KACT","receiptTime":"2026-04-18T16:38:09.383Z","obsTime":1776530040,"reportTime":"2026-04-18T16:34:00.000Z","temp":13.3,"dewp":8.3,"wdir":360,"wspd":20,"wgst":32,"visib":"10+","altim":1019.7,"qcField":4,"precip":0.005,"metarType":"SPECI","rawOb":"SPECI KACT 181634Z 36020G32KT 10SM BKN015 OVC085 13/08 A3011 RMK AO2 PK WND 36032/1626 RAE1553 PRESRR P0000 T01330083","lat":31.618,"lon":-97.2283,"elev":150,"name":"Waco Rgnl, TX, US","cover":"OVC","clouds":[{"cover":"BKN","base":1500},{"cover":"OVC","base":8500}],"fltCat":"MVFR"},{"icaoId":"KDFW","receiptTime":"2026-04-18T16:32:14.844Z","obsTime":1776529740,"reportTime":"2026-04-18T16:29:00.000Z","temp":9.4,"dewp":6.1,"wdir":20,"wspd":20,"wgst":24,"visib":4,"altim":1018.4,"qcField":12,"wxString":"RA BR","precip":0.07,"metarType":"SPECI","rawOb":"SPECI KDFW 181629Z 02020G24KT 4SM RA BR FEW040 OVC100 09/06 A3007 RMK AO2 WSHFT 1610 OCNL LTGIC DSNT SE CB DSNT SE MOV NE P0007 T00940061 $","lat":32.8974,"lon":-97.022,"elev":168,"name":"Dallas-Ft Worth Intl, TX, US","cover":"OVC","clouds":[{"cover":"FEW","base":4000},{"cover":"OVC","base":10000}],"fltCat":"MVFR"},{"icaoId":"KCRP","receiptTime":"2026-04-18T16:32:14.705Z","obsTime":1776529740,"reportTime":"2026-04-18T16:29:00.000Z","temp":27.8,"dewp":21.7,"wdir":140,"wspd":14,"visib":"10+","altim":1011.9,"qcField":4,"metarType":"SPECI","rawOb":"SPECI KCRP 181629Z 14014KT 10SM BKN024 BKN028 BKN039 OVC250 28/22 A2988 RMK AO2 T02780217","lat":27.7734,"lon":-97.513,"elev":11,"name":"Corpus Christi Intl, TX, US","cover":"OVC","clouds":[{"cover":"BKN","base":2400},{"cover":"BKN","base":2800},{"cover":"BKN","base":3900},{"cover":"OVC","base":25000}],"fltCat":"MVFR"},{"icaoId":"KMFE","receiptTime":"2026-04-18T16:32:14.801Z","obsTime":1776529680,"reportTime":"2026-04-18T16:28:00.000Z","temp":29.4,"dewp":21.1,"wdir":150,"wspd":15,"visib":"10+","altim":1010.2,"qcField":4,"metarType":"SPECI","rawOb":"SPECI KMFE 181628Z 15015KT 10SM BKN032 29/21 A2983 RMK AO2 T02940211","lat":26.1791,"lon":-98.2445,"elev":29,"name":"McAllen/Miller Intl, TX, US","cover":"BKN","clouds":[{"cover":"BKN","base":3200}],"fltCat":"VFR"},{"icaoId":"KCLL","receiptTime":"2026-04-18T16:22:05.246Z","obsTime":1776529080,"reportTime":"2026-04-18T16:18:00.000Z","temp":23.9,"dewp":20.6,"wdir":330,"wspd":4,"visib":"10+","altim":1015.3,"qcField":4,"metarType":"SPECI","rawOb":"SPECI KCLL 181618Z 33004KT 10SM FEW016 BKN039 OVC049 24/21 A2998 RMK AO2 T02390206","lat":30.5912,"lon":-96.3631,"elev":96,"name":"College Station/Easterwood Arpt, TX, US","cover":"OVC","clouds":[{"cover":"FEW","base":1600},{"cover":"BKN","base":3900},{"cover":"OVC","base":4900}],"fltCat":"VFR"},{"icaoId":"KSAT","receiptTime":"2026-04-18T16:18:04.437Z","obsTime":1776528840,"reportTime":"2026-04-18T16:14:00.000Z","temp":17.2,"dewp":15.6,"wdir":360,"wspd":18,"wgst":30,"visib":7,"altim":1016,"qcField":4,"wxString":"-RA","precip":0.005,"metarType":"SPECI","rawOb":"SPECI KSAT 181614Z 36018G30KT 7SM -RA SCT016 BKN023 OVC027 17/16 A3000 RMK AO2 PK WND 35030/1614 P0000 T01720156","lat":29.5443,"lon":-98.4839,"elev":246,"name":"San Antonio Intl, TX, US","cover":"OVC","clouds":[{"cover":"SCT","base":1600},{"cover":"BKN","base":2300},{"cover":"OVC","base":2700}],"fltCat":"MVFR"},{"icaoId":"KCVG","receiptTime":"2026-04-18T16:16:06.234Z","obsTime":1776528780,"reportTime":"2026-04-18T16:13:00.000Z","temp":15.6,"dewp":14.4,"wdir":260,"wspd":6,"visib":6,"altim":1011.6,"qcField":4,"wxString":"-RA BR","precip":0.02,"metarType":"SPECI","rawOb":"SPECI KCVG 181613Z 26006KT 6SM -RA BR FEW034 OVC060 16/14 A2987 RMK AO2 P0002 T01560144","lat":39.0444,"lon":-84.6724,"elev":264,"name":"Cincinnati Intl, KY, US","cover":"OVC","clouds":[{"cover":"FEW","base":3400},{"cover":"OVC","base":6000}],"fltCat":"VFR"},{"icaoId":"KAUS","receiptTime":"2026-04-18T16:12:13.169Z","obsTime":1776528540,"reportTime":"2026-04-18T16:09:00.000Z","temp":17.8,"dewp":15.6,"wdir":360,"wspd":16,"wgst":25,"visib":8,"altim":1016.3,"qcField":4,"wxString":"-RA","precip":0.005,"metarType":"SPECI","rawOb":"SPECI KAUS 181609Z 36016G25KT 8SM -RA OVC013 18/16 A3001 RMK AO2 PK WND 35027/1557 P0000 T01780156","lat":30.1831,"lon":-97.6806,"elev":148,"name":"Austin/Bergstrom Intl, TX, US","cover":"OVC","clouds":[{"cover":"OVC","base":1300}],"fltCat":"MVFR"},{"icaoId":"KBRO","receiptTime":"2026-04-18T16:04:05.275Z","obsTime":1776528000,"reportTime":"2026-04-18T16:00:00.000Z","temp":28.9,"dewp":21.7,"wdir":150,"wspd":19,"wgst":25,"visib":"10+","altim":1010.6,"qcField":4,"metarType":"SPECI","rawOb":"SPECI KBRO 181600Z 15019G25KT 10SM FEW024 BKN035 29/22 A2984 RMK AO2 T02890217","lat":25.9146,"lon":-97.4231,"elev":6,"name":"Brownsville Intl, TX, US","cover":"BKN","clouds":[{"cover":"FEW","base":2400},{"cover":"BKN","base":3500}],"fltCat":"VFR"},{"icaoId":"KHRL","receiptTime":"2026-04-18T16:04:05.352Z","obsTime":1776528000,"reportTime":"2026-04-18T16:00:00.000Z","temp":27.8,"dewp":21.7,"wdir":160,"wspd":16,"wgst":24,"visib":"10+","altim":1010.2,"qcField":4,"metarType":"SPECI","rawOb":"SPECI KHRL 181600Z 16016G24KT 10SM SCT028 BKN036 28/22 A2983 RMK AO2 T02780217","lat":26.2303,"lon":-97.6556,"elev":9,"name":"Harlingen/Valley Intl, TX, US","cover":"BKN","clouds":[{"cover":"SCT","base":2800},{"cover":"BKN","base":3600}],"fltCat":"VFR"},{"icaoId":"KNYL","receiptTime":"2026-04-18T16:02:07.089Z","obsTime":1776527820,"reportTime":"2026-04-18T16:00:00.000Z","temp":22.2,"dewp":-13.9,"wdir":340,"wspd":10,"visib":"10+","altim":1014.6,"slp":1014.4,"qcField":4,"metarType":"METAR","rawOb":"METAR KNYL 181557Z 34010KT 10SM CLR 22/M14 A2996 RMK AO2 SLP144 T02221139","lat":32.66,"lon":-114.6078,"elev":58,"name":"Yuma , AZ, US","cover":"CLR","clouds":[],"fltCat":"VFR"},{"icaoId":"KFLG","receiptTime":"2026-04-18T16:00:58.417Z","obsTime":1776527820,"reportTime":"2026-04-18T16:00:00.000Z","temp":6.1,"dewp":-20,"wdir":50,"wspd":16,"wgst":25,"visib":"10+","altim":1024.8,"slp":1020.9,"qcField":4,"metarType":"METAR","rawOb":"METAR KFLG 181557Z 05016G25KT 10SM CLR 06/M20 A3026 RMK AO2 PK WND 07026/1542 SLP209 T00611200","lat":35.1443,"lon":-111.6664,"elev":2134,"name":"Flagstaff/Pulliam Arpt, AZ, US","cover":"CLR","clouds":[],"fltCat":"VFR"},{"icaoId":"KNFL","receiptTime":"2026-04-18T16:00:59.604Z","obsTime":1776527820,"reportTime":"2026-04-18T16:00:00.000Z","temp":7.8,"dewp":-13.3,"wdir":240,"wspd":3,"visib":"10+","altim":1021.1,"slp":1017.4,"qcField":6,"metarType":"METAR","rawOb":"METAR KNFL 181557Z AUTO 24003KT 10SM CLR 08/M13 A3015 RMK AO2 SLP174 T00781133","lat":39.417,"lon":-118.705,"elev":1199,"name":"Fallon , NV, US","cover":"CLR","clouds":[],"fltCat":"VFR"},{"icaoId":"KGUC","receiptTime":"2026-04-18T15:58:22.253Z","obsTime":1776527760,"reportTime":"2026-04-18T16:00:00.000Z","temp":-0.6,"dewp":-12.8,"wdir":"VRB","wspd":4,"visib":"10+","altim":1027.5,"slp":1029.9,"qcField":78,"metarType":"METAR","rawOb":"METAR KGUC 181556Z AUTO VRB04KT 10SM CLR M01/M13 A3034 RMK AO2 SLP299 T10061128 FZRANO $","lat":38.5322,"lon":-106.9419,"elev":2337,"name":"Gunnison Arpt, CO, US","cover":"CLR","clouds":[],"fltCat":"VFR"},{"icaoId":"KUKI","receiptTime":"2026-04-18T16:00:49.214Z","obsTime":1776527760,"reportTime":"2026-04-18T16:00:00.000Z","temp":10,"dewp":3.9,"wdir":0,"wspd":0,"visib":"10+","altim":1017,"slp":1016.6,"qcField":6,"metarType":"METAR","rawOb":"METAR KUKI 181556Z AUTO 00000KT 10SM CLR 10/04 A3003 RMK AO2 SLP166 T01000039","lat":39.1278,"lon":-123.2001,"elev":183,"name":"Ukiah Muni, CA, US","cover":"CLR","clouds":[],"fltCat":"VFR"},{"icaoId":"KHDN","receiptTime":"2026-04-18T15:58:22.307Z","obsTime":1776527760,"reportTime":"2026-04-18T16:00:00.000Z","temp":1.1,"dewp":-8.9,"wdir":0,"wspd":0,"visib":"10+","altim":1028.2,"slp":1030,"qcField":70,"metarType":"METAR","rawOb":"METAR KHDN 181556Z AUTO 00000KT 10SM CLR 01/M09 A3036 RMK AO2 SLP300 T00111089 FZRANO","lat":40.4842,"lon":-107.2296,"elev":2012,"name":"Hayden/Yampa Valley Arpt, CO, US","cover":"CLR","clouds":[],"fltCat":"VFR"},{"icaoId":"KHND","receiptTime":"2026-04-18T15:58:22.381Z","obsTime":1776527760,"reportTime":"2026-04-18T16:00:00.000Z","temp":15.6,"dewp":-15,"wdir":"VRB","wspd":5,"visib":"10+","altim":1021.4,"slp":1022.1,"qcField":12,"metarType":"METAR","rawOb":"METAR KHND 181556Z VRB05KT 10SM CLR 16/M15 A3016 RMK AO2 SLP221 T01561150 $","lat":35.9657,"lon":-115.1343,"elev":740,"name":"Henderson Exec, NV, US","cover":"CLR","clouds":[],"fltCat":"VFR"},{"icaoId":"KCGZ","receiptTime":"2026-04-18T15:58:22.497Z","obsTime":1776527760,"reportTime":"2026-04-18T16:00:00.000Z","temp":23.3,"dewp":-10.6,"wdir":90,"wspd":7,"visib":"10+","altim":1016,"slp":1014.8,"qcField":14,"metarType":"METAR","rawOb":"METAR KCGZ 181556Z AUTO 09007KT 10SM CLR 23/M11 A3000 RMK AO2 SLP148 T02331106 $","lat":32.9531,"lon":-111.7725,"elev":444,"name":"Casa Granda Muni, AZ, US","cover":"CLR","clouds":[],"fltCat":"VFR"},{"icaoId":"KSFO","receiptTime":"2026-04-18T16:00:50.345Z","obsTime":1776527760,"reportTime":"2026-04-18T16:00:00.000Z","temp":13.9,"dewp":8.3,"wdir":90,"wspd":3,"visib":"10+","altim":1016.3,"slp":1016.2,"qcField":12,"metarType":"METAR","rawOb":"METAR KSFO 181556Z 09003KT 10SM SCT200 14/08 A3001 RMK AO2 SLP162 T01390083 $","lat":37.6196,"lon":-122.3656,"elev":2,"name":"San Francisco Intl, CA, US","cover":"SCT","clouds":[{"cover":"SCT","base":20000}],"fltCat":"VFR"},{"icaoId":"KTPH","receiptTime":"2026-04-18T16:00:48.980Z","obsTime":1776527760,"reportTime":"2026-04-18T16:00:00.000Z","temp":7.8,"dewp":-21.1,"wdir":0,"wspd":0,"visib":"10+","altim":1022.4,"slp":1021.2,"qcField":6,"metarType":"METAR","rawOb":"METAR KTPH 181556Z AUTO 00000KT 10SM CLR 08/M21 A3019 RMK AO2 SLP212 T00781211","lat":38.0505,"lon":-117.0906,"elev":1647,"name":"Tonopah Arpt, NV, US","cover":"CLR","clouds":[],"fltCat":"VFR"},{"icaoId":"KRDM","receiptTime":"2026-04-18T16:00:50.269Z","obsTime":1776527760,"reportTime":"2026-04-18T16:00:00.000Z","temp":7.2,"dewp":-5.6,"wdir":110,"wspd":5,"visib":"10+","altim":1019,"slp":1018.9,"qcField":4,"metarType":"METAR","rawOb":"METAR KRDM 181556Z 11005KT 10SM CLR 07/M06 A3009 RMK AO2 SLP189 T00721056","lat":44.2558,"lon":-121.1407,"elev":930,"name":"Redmond Muni, OR, US","cover":"CLR","clouds":[],"fltCat":"VFR"},{"icaoId":"KCHS","receiptTime":"2026-04-18T16:00:43.636Z","obsTime":1776527760,"reportTime":"2026-04-18T16:00:00.000Z","temp":30.6,"dewp":16.1,"wdir":"VRB","wspd":5,"visib":"10+","altim":1015.3,"slp":1015.1,"qcField":12,"metarType":"METAR","rawOb":"METAR KCHS 181556Z VRB05KT 10SM BKN250 31/16 A2998 RMK AO2 SLP151 T03060161 $","lat":32.8995,"lon":-80.0407,"elev":12,"name":"Charleston Intl, SC, US","cover":"BKN","clouds":[{"cover":"BKN","base":25000}],"fltCat":"VFR"},{"icaoId":"KJAX","receiptTime":"2026-04-18T16:00:43.878Z","obsTime":1776527760,"reportTime":"2026-04-18T16:00:00.000Z","temp":29.4,"dewp":12.8,"wdir":260,"wspd":8,"visib":"10+","altim":1016.7,"slp":1016.7,"qcField":12,"metarType":"METAR","rawOb":"METAR KJAX 181556Z 26008KT 10SM BKN250 29/13 A3002 RMK AO2 SLP167 T02940128 $","lat":30.4953,"lon":-81.6937,"elev":8,"name":"Jacksonville Intl, FL, US","cover":"BKN","clouds":[{"cover":"BKN","base":25000}],"fltCat":"VFR"},{"icaoId":"KINW","receiptTime":"2026-04-18T16:00:50.134Z","obsTime":1776527760,"reportTime":"2026-04-18T16:00:00.000Z","temp":7.8,"dewp":-18.3,"wdir":"VRB","wspd":3,"visib":"10+","altim":1025.8,"slp":1024.3,"qcField":6,"metarType":"METAR","rawOb":"METAR KINW 181556Z AUTO VRB03KT 10SM CLR 08/M18 A3029 RMK AO2 SLP243 T00781183","lat":35.0279,"lon":-110.7221,"elev":1492,"name":"Winslow/Lindberg Rgnl, AZ, US","cover":"CLR","clouds":[],"fltCat":"VFR"},{"icaoId":"KCOD","receiptTime":"2026-04-18T15:58:22.558Z","obsTime":1776527760,"reportTime":"2026-04-18T16:00:00.000Z","temp":5.6,"dewp":-11.7,"wdir":290,"wspd":8,"visib":"10+","altim":1022.1,"slp":1023.3,"qcField":14,"metarType":"METAR","rawOb":"METAR KCOD 181556Z AUTO 29008KT 10SM CLR 06/M12 A3018 RMK AO2 SLP233 T00561117 $","lat":44.52,"lon":-109.0268,"elev":1550,"name":"Cody/Yellowstone Rgnl, WY, US","cover":"CLR","clouds":[],"fltCat":"VFR"},{"icaoId":"KSBP","receiptTime":"2026-04-18T16:00:50.294Z","obsTime":1776527760,"reportTime":"2026-04-18T16:00:00.000Z","temp":15,"dewp":5,"wdir":0,"wspd":0,"visib":"10+","altim":1015,"slp":1014.7,"qcField":4,"metarType":"METAR","rawOb":"METAR KSBP 181556Z 00000KT 10SM CLR 15/05 A2997 RMK AO2 SLP147 T01500050","lat":35.2381,"lon":-120.644,"elev":52,"name":"San Luis Obispo/San Luis Cnty, CA, US","cover":"CLR","clouds":[],"fltCat":"VFR"},{"icaoId":"KEKO","receiptTime":"2026-04-18T16:00:52.255Z","obsTime":1776527760,"reportTime":"2026-04-18T16:00:00.000Z","temp":0.6,"dewp":-11.1,"wdir":110,"wspd":3,"visib":"10+","altim":1023.5,"slp":1025,"qcField":6,"metarType":"METAR","rawOb":"METAR KEKO 181556Z AUTO 11003KT 10SM CLR 01/M11 A3022 RMK AO2 SLP250 T00061111","lat":40.824,"lon":-115.7863,"elev":1541,"name":"Elko Rgnl, NV, US","cover":"CLR","clouds":[],"fltCat":"VFR"},{"icaoId":"KSDF","receiptTime":"2026-04-18T16:00:32.927Z","obsTime":1776527760,"reportTime":"2026-04-18T16:00:00.000Z","temp":17.2,"dewp":15,"wdir":210,"wspd":4,"visib":8,"altim":1012.6,"slp":1012,"qcField":4,"wxString":"-RA","precip":0.04,"metarType":"METAR","rawOb":"METAR KSDF 181556Z 21004KT 8SM -RA FEW045 BKN070 OVC100 17/15 A2990 RMK AO2 SLP120 P0004 T01720150","lat":38.1774,"lon":-85.7308,"elev":146,"name":"Louisville Intl, KY, US","cover":"OVC","clouds":[{"cover":"FEW","base":4500},{"cover":"BKN","base":7000},{"cover":"OVC","base":10000}],"fltCat":"VFR"},{"icaoId":"KCOE","receiptTime":"2026-04-18T15:58:22.572Z","obsTime":1776527760,"reportTime":"2026-04-18T16:00:00.000Z","temp":5,"dewp":0,"wdir":40,"wspd":5,"visib":"10+","altim":1022.4,"slp":1025.3,"qcField":14,"metarType":"METAR","rawOb":"METAR KCOE 181556Z AUTO 04005KT 10SM CLR 05/00 A3019 RMK AO2 SLP253 T00500000 PNO $","lat":47.7719,"lon":-116.8332,"elev":693,"name":"Coeur DAlene Arpt, ID, US","cover":"CLR","clouds":[],"fltCat":"VFR"},{"icaoId":"KSLE","receiptTime":"2026-04-18T16:00:50.365Z","obsTime":1776527760,"reportTime":"2026-04-18T16:00:00.000Z","temp":8.9,"dewp":4.4,"wdir":0,"wspd":0,"visib":"10+","altim":1017.7,"slp":1017.5,"qcField":4,"metarType":"METAR","rawOb":"METAR KSLE 181556Z 00000KT 10SM CLR 09/04 A3005 RMK AO2 SLP175 T00890044","lat":44.9049,"lon":-123.001,"elev":63,"name":"Salem Muni, OR, US","cover":"CLR","clouds":[],"fltCat":"VFR"},{"icaoId":"KENV","receiptTime":"2026-04-18T15:58:21.653Z","obsTime":1776527760,"reportTime":"2026-04-18T16:00:00.000Z","temp":5,"dewp":-11.7,"wdir":150,"wspd":4,"visib":"10+","altim":1026.5,"slp":1027.7,"qcField":6,"metarType":"METAR","rawOb":"METAR KENV 181556Z AUTO 15004KT 10SM CLR 05/M12 A3031 RMK AO2 SLP277 T00501117","lat":40.7211,"lon":-114.0312,"elev":1291,"name":"Wendover Arpt, UT, US","cover":"CLR","clouds":[],"fltCat":"VFR"},{"icaoId":"KCEC","receiptTime":"2026-04-18T16:00:49.937Z","obsTime":1776527760,"reportTime":"2026-04-18T16:00:00.000Z","temp":10.6,"dewp":7.2,"wdir":0,"wspd":0,"visib":"10+","altim":1017.7,"slp":1017.6,"qcField":6,"metarType":"METAR","rawOb":"METAR KCEC 181556Z AUTO 00000KT 10SM CLR 11/07 A3005 RMK AO2 SLP176 T01060072","lat":41.7836,"lon":-124.238,"elev":17,"name":"Crescent City/McNama, CA, US","cover":"CLR","clouds":[],"fltCat":"VFR"},{"icaoId":"KBZN","receiptTime":"2026-04-18T16:00:49.923Z","obsTime":1776527760,"reportTime":"2026-04-18T16:00:00.000Z","temp":-1.7,"dewp":-6.7,"wdir":0,"wspd":0,"visib":"10+","altim":1023.8,"slp":1027.4,"qcField":4,"metarType":"METAR","rawOb":"METAR KBZN 181556Z 00000KT 10SM CLR M02/M07 A3023 RMK AO2 SLP274 T10171067","lat":45.7876,"lon":-111.1615,"elev":1349,"name":"Bozeman/Gallatin Fld, MT, US","cover":"CLR","clouds":[],"fltCat":"VFR"},{"icaoId":"KSDY","receiptTime":"2026-04-18T15:58:20.973Z","obsTime":1776527760,"reportTime":"2026-04-18T16:00:00.000Z","temp":4.4,"dewp":-7.8,"wdir":310,"wspd":10,"visib":"10+","altim":1019,"slp":1021.9,"qcField":14,"metarType":"METAR","rawOb":"METAR KSDY 181556Z AUTO 31010KT 10SM SCT110 04/M08 A3009 RMK AO2 SLP219 T00441078 $","lat":47.7029,"lon":-104.1951,"elev":600,"name":"Sidney/Richland Muni, MT, US","cover":"SCT","clouds":[{"cover":"SCT","base":11000}],"fltCat":"VFR"},{"icaoId":"KVIS","receiptTime":"2026-04-18T15:58:21.261Z","obsTime":1776527760,"reportTime":"2026-04-18T16:00:00.000Z","temp":13.9,"dewp":7.8,"wdir":210,"wspd":5,"visib":"10+","altim":1017,"slp":1016.9,"qcField":14,"metarType":"METAR","rawOb":"METAR KVIS 181556Z AUTO 21005KT 10SM CLR 14/08 A3003 RMK AO2 SLP169 T01390078 PNO $","lat":36.3135,"lon":-119.3884,"elev":92,"name":"Visalia Muni, CA, US","cover":"CLR","clouds":[],"fltCat":"VFR"},{"icaoId":"KLWS","receiptTime":"2026-04-18T16:00:50.169Z","obsTime":1776527760,"reportTime":"2026-04-18T16:00:00.000Z","temp":7.8,"dewp":0.6,"wdir":80,"wspd":12,"visib":"10+","altim":1022.1,"slp":1022.6,"qcField":4,"metarType":"METAR","rawOb":"METAR KLWS 181556Z 08012KT 10SM CLR 08/01 A3018 RMK AO2 SLP226 T00780006","lat":46.3746,"lon":-117.0153,"elev":435,"name":"Lewiston/Nez Perce Cnty, ID, US","cover":"CLR","clouds":[],"fltCat":"VFR"},{"icaoId":"KLAS","receiptTime":"2026-04-18T16:00:50.148Z","obsTime":1776527760,"reportTime":"2026-04-18T16:00:00.000Z","temp":16.1,"dewp":-17.8,"wdir":40,"wspd":6,"visib":"10+","altim":1020.7,"slp":1019.6,"qcField":4,"metarType":"METAR","rawOb":"METAR KLAS 181556Z 04006KT 10SM BKN250 16/M18 A3014 RMK AO2 SLP196 T01611178","lat":36.0719,"lon":-115.1634,"elev":662,"name":"Las Vegas/Reid Intl, NV, US","cover":"BKN","clouds":[{"cover":"BKN","base":25000}],"fltCat":"VFR"},{"icaoId":"KJAC","receiptTime":"2026-04-18T15:58:21.798Z","obsTime":1776527760,"reportTime":"2026-04-18T16:00:00.000Z","temp":0.6,"dewp":-8.3,"wdir":0,"wspd":0,"visib":"10+","altim":1024.8,"slp":1029,"qcField":4,"metarType":"METAR","rawOb":"METAR KJAC 181556Z 00000KT 10SM CLR 01/M08 A3026 RMK AO2 SLP290 T00061083","lat":43.6129,"lon":-110.7366,"elev":1967,"name":"Jackson Hole Arpt, WY, US","cover":"CLR","clouds":[],"fltCat":"VFR"},{"icaoId":"KFNL","receiptTime":"2026-04-18T15:58:23.269Z","obsTime":1776527760,"reportTime":"2026-04-18T16:00:00.000Z","temp":7.2,"dewp":-13.9,"wdir":20,"wspd":12,"wgst":20,"visib":"10+","altim":1023.8,"slp":1023.6,"qcField":12,"metarType":"METAR","rawOb":"METAR KFNL 181556Z 02012G20KT 10SM CLR 07/M14 A3023 RMK AO2 PK WND 36027/1546 SLP236 T00721139 $","lat":40.4427,"lon":-105.0097,"elev":1529,"name":"Fort Collins/N Colorado Rgnl, CO, US","cover":"CLR","clouds":[],"fltCat":"VFR"},{"icaoId":"KPVU","receiptTime":"2026-04-18T15:58:20.814Z","obsTime":1776527760,"reportTime":"2026-04-18T16:00:00.000Z","temp":5,"dewp":-8.9,"wdir":250,"wspd":4,"visib":"10+","altim":1026.8,"slp":1027.1,"qcField":4,"metarType":"METAR","rawOb":"METAR KPVU 181556Z 25004KT 10SM CLR 05/M09 A3032 RMK AO2 SLP271 T00501089","lat":40.224,"lon":-111.7252,"elev":1370,"name":"Provo Muni, UT, US","cover":"CLR","clouds":[],"fltCat":"VFR"},{"icaoId":"KPWT","receiptTime":"2026-04-18T15:58:20.840Z","obsTime":1776527760,"reportTime":"2026-04-18T16:00:00.000Z","temp":10,"dewp":3.9,"wdir":20,"wspd":4,"visib":"10+","altim":1018,"slp":1018.5,"qcField":6,"metarType":"METAR","rawOb":"METAR KPWT 181556Z AUTO 02004KT 10SM CLR 10/04 A3006 RMK AO2 SLP185 T01000039","lat":47.4942,"lon":-122.7594,"elev":143,"name":"Bremerton Arpt, WA, US","cover":"CLR","clouds":[],"fltCat":"VFR"},{"icaoId":"KDUG","receiptTime":"2026-04-18T16:02:22.079Z","obsTime":1776527760,"reportTime":"2026-04-18T16:00:00.000Z","temp":19.4,"dewp":-3.3,"wdir":360,"wspd":3,"visib":"10+","altim":1019,"slp":1013.6,"qcField":38,"metarType":"METAR","rawOb":"METAR KDUG 181556Z AUTO 36003KT 10SM CLR 19/M03 A3009 RMK AO2 SLP136 T01941033 TSNO","lat":31.4725,"lon":-109.6022,"elev":1260,"name":"Douglas/Bisbee Intl, AZ, US","cover":"CLR","clouds":[],"fltCat":"VFR"},{"icaoId":"KSGU","receiptTime":"2026-04-18T15:58:21.081Z","obsTime":1776527760,"reportTime":"2026-04-18T16:00:00.000Z","temp":11.1,"dewp":-10.6,"wdir":0,"wspd":0,"visib":"10+","altim":1022.8,"slp":1022,"qcField":6,"metarType":"METAR","rawOb":"METAR KSGU 181556Z AUTO 00000KT 10SM CLR 11/M11 A3020 RMK AO2 SLP220 T01111106","lat":37.0444,"lon":-113.5034,"elev":877,"name":"Saint George Muni, UT, US","cover":"CLR","clouds":[],"fltCat":"VFR"},{"icaoId":"KEGE","receiptTime":"2026-04-18T15:58:22.758Z","obsTime":1776527760,"reportTime":"2026-04-18T16:00:00.000Z","temp":0,"dewp":-9.4,"wdir":70,"wspd":4,"visib":"10+","altim":1028.5,"slp":1030.3,"qcField":4,"metarType":"METAR","rawOb":"METAR KEGE 181556Z 07004KT 10SM CLR 00/M09 A3037 RMK AO2 SLP303 T00001094","lat":39.6448,"lon":-106.9176,"elev":1993,"name":"Eagle Cnty Rgnl, CO, US","cover":"CLR","clouds":[],"fltCat":"VFR"},{"icaoId":"KEND","receiptTime":"2026-04-18T16:16:05.945Z","obsTime":1776527700,"reportTime":"2026-04-18T16:00:00.000Z","temp":12.3,"dewp":-0.6,"wdir":20,"wspd":14,"visib":"10+","altim":1023.5,"slp":1023.4,"qcField":14,"metarType":"METAR","rawOb":"METAR KEND 181555Z AUTO 02014KT 10SM CLR 12/M01 A3022 RMK AO2 SLP234 T01231006 $","lat":36.338,"lon":-97.919,"elev":392,"name":"Enid/Vance AFB, OK, US","cover":"CLR","clouds":[],"fltCat":"VFR"},{"icaoId":"KLUF","receiptTime":"2026-04-18T16:08:08.809Z","obsTime":1776527700,"reportTime":"2026-04-18T16:00:00.000Z","temp":24.4,"dewp":-17.7,"wdir":30,"wspd":11,"visib":"10+","altim":1015,"slp":1013.8,"qcField":14,"metarType":"METAR","rawOb":"METAR KLUF 181555Z AUTO 03011KT 10SM CLR 24/M18 A2997 RMK AO2 SLP138 T02441177 $","lat":33.538,"lon":-112.38,"elev":333,"name":"Phoenix/Luke AFB, AZ, US","cover":"CLR","clouds":[],"fltCat":"VFR"},{"icaoId":"KAST","receiptTime":"2026-04-18T15:58:23.042Z","obsTime":1776527700,"reportTime":"2026-04-18T16:00:00.000Z","temp":11.1,"dewp":6.1,"wdir":70,"wspd":5,"visib":"10+","altim":1016.3,"slp":1016.1,"qcField":14,"metarType":"METAR","rawOb":"METAR KAST 181555Z AUTO 07005KT 10SM SCT090 11/06 A3001 RMK AO2 SLP161 T01110061 $","lat":46.157,"lon":-123.8833,"elev":3,"name":"Astoria Rgnl, OR, US","cover":"SCT","clouds":[{"cover":"SCT","base":9000}],"fltCat":"VFR"},{"icaoId":"KRNO","receiptTime":"2026-04-18T15:58:20.902Z","obsTime":1776527700,"reportTime":"2026-04-18T16:00:00.000Z","temp":6.7,"dewp":-12.2,"wdir":0,"wspd":0,"visib":"10+","altim":1020.7,"slp":1019.1,"qcField":4,"metarType":"METAR","rawOb":"METAR KRNO 181555Z 00000KT 10SM FEW180 SCT250 07/M12 A3014 RMK AO2 SLP191 T00671122","lat":39.5077,"lon":-119.7683,"elev":1344,"name":"Reno/Tahoe Intl, NV, US","cover":"SCT","clouds":[{"cover":"FEW","base":18000},{"cover":"SCT","base":25000}],"fltCat":"VFR"},{"icaoId":"KCMA","receiptTime":"2026-04-18T15:58:22.530Z","obsTime":1776527700,"reportTime":"2026-04-18T16:00:00.000Z","temp":17.8,"dewp":0.6,"wdir":0,"wspd":0,"visib":"10+","altim":1014.6,"slp":1015.3,"qcField":4,"metarType":"METAR","rawOb":"METAR KCMA 181555Z 00000KT 10SM CLR 18/01 A2996 RMK AO2 SLP153 T01780006","lat":34.2114,"lon":-119.0876,"elev":20,"name":"Camarillo Arpt, CA, US","cover":"CLR","clouds":[],"fltCat":"VFR"},{"icaoId":"KGPI","receiptTime":"2026-04-18T15:58:23.369Z","obsTime":1776527700,"reportTime":"2026-04-18T16:00:00.000Z","temp":1.7,"dewp":-0.6,"wdir":0,"wspd":0,"visib":"10+","altim":1023.1,"slp":1025.4,"qcField":4,"metarType":"METAR","rawOb":"METAR KGPI 181555Z 00000KT 10SM FEW001 02/M01 A3021 RMK AO2 SLP254 T00171006","lat":48.3041,"lon":-114.2643,"elev":903,"name":"Kalispell/Glacier Park Intl, MT, US","cover":"FEW","clouds":[{"cover":"FEW","base":100}],"fltCat":"VFR"},{"icaoId":"KGSO","receiptTime":"2026-04-18T15:58:07.548Z","obsTime":1776527640,"reportTime":"2026-04-18T16:00:00.000Z","temp":28.9,"dewp":10.6,"wdir":170,"wspd":12,"visib":"10+","altim":1015.3,"slp":1013.9,"qcField":4,"metarType":"METAR","rawOb":"METAR KGSO 181554Z 17012KT 10SM SCT250 29/11 A2998 RMK AO2 SLP139 T02890106","lat":36.0969,"lon":-79.9432,"elev":275,"name":"Greensboro Intl, NC, US","cover":"SCT","clouds":[{"cover":"SCT","base":25000}],"fltCat":"VFR"},{"icaoId":"KBUF","receiptTime":"2026-04-18T15:58:07.467Z","obsTime":1776527640,"reportTime":"2026-04-18T16:00:00.000Z","temp":23.3,"dewp":9.4,"wdir":180,"wspd":20,"wgst":34,"visib":"10+","altim":1006.2,"slp":1005.7,"qcField":12,"metarType":"METAR","rawOb":"METAR KBUF 181554Z 18020G34KT 10SM FEW090 SCT130 BKN150 OVC210 23/09 A2971 RMK AO2 PK WND 19034/1550 SLP057 T02330094 $","lat":42.94,"lon":-78.7361,"elev":217,"name":"Buffalo-Niagara Intl, NY, US","cover":"OVC","clouds":[{"cover":"FEW","base":9000},{"cover":"SCT","base":13000},{"cover":"BKN","base":15000},{"cover":"OVC","base":21000}],"fltCat":"VFR"},{"icaoId":"KFFZ","receiptTime":"2026-04-18T15:58:11.685Z","obsTime":1776527640,"reportTime":"2026-04-18T16:00:00.000Z","temp":23.9,"dewp":-13.3,"wdir":30,"wspd":14,"wgst":22,"visib":"10+","altim":1015.7,"slp":1013.4,"qcField":4,"metarType":"METAR","rawOb":"METAR KFFZ 181554Z 03014G22KT 10SM CLR 24/M13 A2999 RMK AO2 SLP134 T02391133","lat":33.4659,"lon":-111.7212,"elev":420,"name":"Mesa/Falcon Fld, AZ, US","cover":"CLR","clouds":[],"fltCat":"VFR"},{"icaoId":"KBTV","receiptTime":"2026-04-18T15:58:07.454Z","obsTime":1776527640,"reportTime":"2026-04-18T16:00:00.000Z","temp":22.2,"dewp":4.4,"wdir":170,"wspd":15,"wgst":24,"visib":"10+","altim":1014.3,"slp":1014.1,"qcField":4,"metarType":"METAR","rawOb":"METAR KBTV 181554Z 17015G24KT 10SM BKN150 BKN250 22/04 A2995 RMK AO2 SLP141 T02220044","lat":44.4682,"lon":-73.1499,"elev":101,"name":"Burlington Intl, VT, US","cover":"BKN","clouds":[{"cover":"BKN","base":15000},{"cover":"BKN","base":25000}],"fltCat":"VFR"},{"icaoId":"KAPC","receiptTime":"2026-04-18T15:58:06.994Z","obsTime":1776527640,"reportTime":"2026-04-18T16:00:00.000Z","temp":12.2,"dewp":5.6,"wdir":0,"wspd":0,"visib":"10+","altim":1016.7,"slp":1015.8,"qcField":4,"metarType":"METAR","rawOb":"METAR KAPC 181554Z 00000KT 10SM CLR 12/06 A3002 RMK AO2 SLP158 T01220056","lat":38.2075,"lon":-122.2804,"elev":5,"name":"Napa Cnty Arpt, CA, US","cover":"CLR","clouds":[],"fltCat":"VFR"},{"icaoId":"KIFP","receiptTime":"2026-04-18T15:55:32.171Z","obsTime":1776527640,"reportTime":"2026-04-18T16:00:00.000Z","temp":19,"dewp":-14,"wdir":300,"wspd":22,"visib":20,"altim":1016,"qcField":0,"metarType":"METAR","rawOb":"METAR KIFP 181554Z 30022KT 20SM CLR 19/M14 A3000","lat":35.1487,"lon":-114.5611,"elev":210,"name":"Bullhead City Intl, AZ, US","cover":"CLR","clouds":[],"fltCat":"VFR"},{"icaoId":"KGCN","receiptTime":"2026-04-18T15:58:11.853Z","obsTime":1776527640,"reportTime":"2026-04-18T16:00:00.000Z","temp":6.7,"dewp":-17.2,"wdir":90,"wspd":14,"wgst":22,"visib":"10+","altim":1024.8,"slp":1021.5,"qcField":4,"metarType":"METAR","rawOb":"METAR KGCN 181554Z 09014G22KT 10SM CLR 07/M17 A3026 RMK AO2 PK WND 08030/1502 SLP215 T00671172","lat":35.9458,"lon":-112.1554,"elev":1993,"name":"Grand Canyon Park Arpt, AZ, US","cover":"CLR","clouds":[],"fltCat":"VFR"},{"icaoId":"KPHL","receiptTime":"2026-04-18T15:58:13.256Z","obsTime":1776527640,"reportTime":"2026-04-18T16:00:00.000Z","temp":21.1,"dewp":12.8,"wdir":80,"wspd":4,"visib":"10+","altim":1017.4,"slp":1017,"qcField":12,"metarType":"METAR","rawOb":"METAR KPHL 181554Z 08004KT 10SM FEW032 BKN300 21/13 A3004 RMK AO2 SLP170 T02110128 $","lat":39.8733,"lon":-75.2268,"elev":2,"name":"Philadelphia Intl, PA, US","cover":"BKN","clouds":[{"cover":"FEW","base":3200},{"cover":"BKN","base":30000}],"fltCat":"VFR"},{"icaoId":"KBFL","receiptTime":"2026-04-18T15:58:10.534Z","obsTime":1776527640,"reportTime":"2026-04-18T16:00:00.000Z","temp":16.7,"dewp":-0.6,"wdir":130,"wspd":5,"visib":"10+","altim":1016.7,"slp":1016.2,"qcField":12,"metarType":"METAR","rawOb":"METAR KBFL 181554Z 13005KT 10SM CLR 17/M01 A3002 RMK AO2 SLP162 T01671006 $","lat":35.4342,"lon":-119.0552,"elev":146,"name":"Bakersfield/Meadows Arpt, CA, US","cover":"CLR","clouds":[],"fltCat":"VFR"},{"icaoId":"KBOS","receiptTime":"2026-04-18T15:58:10.602Z","obsTime":1776527640,"reportTime":"2026-04-18T16:00:00.000Z","temp":10,"dewp":6.7,"wdir":60,"wspd":14,"visib":"10+","altim":1021.8,"slp":1021.4,"qcField":4,"metarType":"METAR","rawOb":"METAR KBOS 181554Z 06014KT 10SM FEW006 SCT013 BKN030 10/07 A3017 RMK AO2 SLP214 T01000067","lat":42.3606,"lon":-71.0097,"elev":4,"name":"Boston/Logan Intl, MA, US","cover":"BKN","clouds":[{"cover":"FEW","base":600},{"cover":"SCT","base":1300},{"cover":"BKN","base":3000}],"fltCat":"MVFR"},{"icaoId":"KSLC","receiptTime":"2026-04-18T15:58:14.374Z","obsTime":1776527640,"reportTime":"2026-04-18T16:00:00.000Z","temp":7.2,"dewp":-8.9,"wdir":150,"wspd":6,"visib":"10+","altim":1026.2,"slp":1025.8,"qcField":4,"metarType":"METAR","rawOb":"METAR KSLC 181554Z 15006KT 10SM SCT200 BKN260 07/M09 A3030 RMK AO2 SLP258 T00721089","lat":40.7707,"lon":-111.965,"elev":1286,"name":"Salt Lake City Intl, UT, US","cover":"BKN","clouds":[{"cover":"SCT","base":20000},{"cover":"BKN","base":26000}],"fltCat":"VFR"},{"icaoId":"KOLM","receiptTime":"2026-04-18T15:58:07.109Z","obsTime":1776527640,"reportTime":"2026-04-18T16:00:00.000Z","temp":8.9,"dewp":5,"wdir":0,"wspd":0,"visib":"10+","altim":1018,"slp":1018,"qcField":4,"metarType":"METAR","rawOb":"METAR KOLM 181554Z 00000KT 10SM FEW120 09/05 A3006 RMK AO2 SLP180 T00890050","lat":46.9737,"lon":-122.9049,"elev":58,"name":"Olympia Rgnl, WA, US","cover":"FEW","clouds":[{"cover":"FEW","base":12000}],"fltCat":"VFR"},{"icaoId":"KMEM","receiptTime":"2026-04-18T15:58:12.507Z","obsTime":1776527640,"reportTime":"2026-04-18T16:00:00.000Z","temp":18.9,"dewp":15.6,"wdir":130,"wspd":7,"visib":"10+","altim":1014.3,"slp":1014,"qcField":12,"metarType":"METAR","rawOb":"METAR KMEM 181554Z 13007KT 10SM OVC049 19/16 A2995 RMK AO2 SLP140 T01890156 $","lat":35.0564,"lon":-89.9864,"elev":78,"name":"Memphis Intl, TN, US","cover":"OVC","clouds":[{"cover":"OVC","base":4900}],"fltCat":"VFR"},{"icaoId":"KSJN","receiptTime":"2026-04-18T15:58:14.363Z","obsTime":1776527640,"reportTime":"2026-04-18T16:00:00.000Z","temp":8.3,"dewp":-12.2,"wdir":30,"wspd":5,"visib":"10+","altim":1024.1,"slp":1020.7,"qcField":6,"metarType":"METAR","rawOb":"METAR KSJN 181554Z AUTO 03005KT 10SM CLR 08/M12 A3024 RMK AO2 SLP207 T00831122","lat":34.5184,"lon":-109.3801,"elev":1747,"name":"St Johns Ind Arpt, AZ, US","cover":"CLR","clouds":[],"fltCat":"VFR"},{"icaoId":"KRKS","receiptTime":"2026-04-18T15:58:14.152Z","obsTime":1776527640,"reportTime":"2026-04-18T16:00:00.000Z","temp":0.6,"dewp":-11.7,"wdir":240,"wspd":15,"wgst":21,"visib":"10+","altim":1025.5,"slp":1027.9,"qcField":6,"metarType":"METAR","rawOb":"METAR KRKS 181554Z AUTO 24015G21KT 10SM CLR 01/M12 A3028 RMK AO2 SLP279 T00061117","lat":41.5947,"lon":-109.0529,"elev":2062,"name":"Rock Springs/SW Wyoming Rgnl, WY, US","cover":"CLR","clouds":[],"fltCat":"VFR"},{"icaoId":"KROC","receiptTime":"2026-04-18T15:58:13.321Z","obsTime":1776527640,"reportTime":"2026-04-18T16:00:00.000Z","temp":23.3,"dewp":11.7,"wdir":190,"wspd":13,"wgst":25,"visib":"10+","altim":1007.5,"slp":1007.7,"qcField":12,"metarType":"METAR","rawOb":"METAR KROC 181554Z 19013G25KT 10SM FEW090 BKN130 BKN200 23/12 A2975 RMK AO2 PK WND 20026/1525 SLP077 T02330117 $","lat":43.1172,"lon":-77.6754,"elev":166,"name":"Rochester Intl Arpt, NY, US","cover":"BKN","clouds":[{"cover":"FEW","base":9000},{"cover":"BKN","base":13000},{"cover":"BKN","base":20000}],"fltCat":"VFR"},{"icaoId":"KRIC","receiptTime":"2026-04-18T15:58:13.297Z","obsTime":1776527640,"reportTime":"2026-04-18T16:00:00.000Z","temp":27.8,"dewp":13.3,"wdir":190,"wspd":9,"visib":"10+","altim":1014.3,"slp":1014.6,"qcField":12,"metarType":"METAR","rawOb":"METAR KRIC 181554Z 19009KT 10SM FEW250 28/13 A2995 RMK AO2 SLP146 T02780133 $","lat":37.5115,"lon":-77.3234,"elev":51,"name":"Richmond Intl, VA, US","cover":"FEW","clouds":[{"cover":"FEW","base":25000}],"fltCat":"VFR"},{"icaoId":"KCOS","receiptTime":"2026-04-18T15:58:12.814Z","obsTime":1776527640,"reportTime":"2026-04-18T16:00:00.000Z","temp":4.4,"dewp":-14.4,"wdir":"VRB","wspd":6,"wgst":20,"visib":"10+","altim":1025.1,"slp":1027.6,"qcField":4,"metarType":"METAR","rawOb":"METAR KCOS 181554Z VRB06G20KT 10SM CLR 04/M14 A3027 RMK AO2 SLP276 T00441144","lat":38.8095,"lon":-104.6887,"elev":1886,"name":"Colorado Spring Arpt, CO, US","cover":"CLR","clouds":[],"fltCat":"VFR"},{"icaoId":"KOLS","receiptTime":"2026-04-18T15:58:07.121Z","obsTime":1776527640,"reportTime":"2026-04-18T16:00:00.000Z","temp":19.4,"dewp":-1.1,"wdir":190,"wspd":5,"visib":"10+","altim":1018,"slp":1012.6,"qcField":6,"metarType":"METAR","rawOb":"METAR KOLS 181554Z AUTO 19005KT 10SM CLR 19/M01 A3006 RMK AO2 SLP126 T01941011","lat":31.4208,"lon":-110.8465,"elev":1194,"name":"Nogales Intl, AZ, US","cover":"CLR","clouds":[],"fltCat":"VFR"},{"icaoId":"KBWI","receiptTime":"2026-04-18T15:58:10.689Z","obsTime":1776527640,"reportTime":"2026-04-18T16:00:00.000Z","temp":20,"dewp":14.4,"wdir":60,"wspd":7,"visib":9,"altim":1016,"slp":1015.7,"qcField":4,"metarType":"METAR","rawOb":"METAR KBWI 181554Z 06007KT 9SM FEW015 FEW250 20/14 A3000 RMK AO2 SLP157 T02000144","lat":39.1733,"lon":-76.684,"elev":42,"name":"Baltimore-Washington Intl, MD, US","cover":"FEW","clouds":[{"cover":"FEW","base":1500},{"cover":"FEW","base":25000}],"fltCat":"VFR"},{"icaoId":"KEUG","receiptTime":"2026-04-18T15:58:11.540Z","obsTime":1776527640,"reportTime":"2026-04-18T16:00:00.000Z","temp":8.3,"dewp":6.1,"wdir":0,"wspd":0,"visib":"10+","altim":1017.7,"slp":1017.5,"qcField":4,"metarType":"METAR","rawOb":"METAR KEUG 181554Z 00000KT 10SM BKN250 08/06 A3005 RMK AO2 SLP175 T00830061","lat":44.1331,"lon":-123.2156,"elev":109,"name":"Eugene/Mahlon Sweet Fld, OR, US","cover":"BKN","clouds":[{"cover":"BKN","base":25000}],"fltCat":"VFR"},{"icaoId":"KSYR","receiptTime":"2026-04-18T15:58:13.345Z","obsTime":1776527640,"reportTime":"2026-04-18T16:00:00.000Z","temp":23.9,"dewp":11.1,"wdir":150,"wspd":15,"wgst":23,"visib":"10+","altim":1011.3,"slp":1010.6,"qcField":4,"metarType":"METAR","rawOb":"METAR KSYR 181554Z 15015G23KT 10SM FEW140 SCT180 BKN230 24/11 A2986 RMK AO2 PK WND 16027/1510 SLP106 T02390111","lat":43.1111,"lon":-76.1038,"elev":125,"name":"Syracuse/Hancock Intl, NY, US","cover":"BKN","clouds":[{"cover":"FEW","base":14000},{"cover":"SCT","base":18000},{"cover":"BKN","base":23000}],"fltCat":"VFR"},{"icaoId":"KDSM","receiptTime":"2026-04-18T15:58:13.514Z","obsTime":1776527640,"reportTime":"2026-04-18T16:00:00.000Z","temp":5.6,"dewp":-6.1,"wdir":310,"wspd":16,"wgst":28,"visib":"10+","altim":1019.4,"slp":1019.6,"qcField":12,"metarType":"METAR","rawOb":"METAR KDSM 181554Z 31016G28KT 10SM CLR 06/M06 A3010 RMK AO2 PK WND 31031/1529 SLP196 T00561061 $","lat":41.5339,"lon":-93.6531,"elev":286,"name":"Des Moines Intl, IA, US","cover":"CLR","clouds":[],"fltCat":"VFR"},{"icaoId":"KTUS","receiptTime":"2026-04-18T15:56:27.580Z","obsTime":1776527580,"reportTime":"2026-04-18T16:00:00.000Z","temp":20.6,"dewp":-2.8,"wdir":0,"wspd":0,"visib":"10+","altim":1017,"slp":1013.4,"qcField":4,"metarType":"METAR","rawOb":"METAR KTUS 181553Z 00000KT 10SM CLR 21/M03 A3003 RMK AO2 SLP134 T02061028","lat":32.1315,"lon":-110.9564,"elev":776,"name":"Tucson Intl Arpt, AZ, US","cover":"CLR","clouds":[],"fltCat":"VFR"},{"icaoId":"KMYR","receiptTime":"2026-04-18T15:56:27.126Z","obsTime":1776527580,"reportTime":"2026-04-18T16:00:00.000Z","temp":25,"dewp":19.4,"wdir":170,"wspd":11,"visib":"10+","altim":1016,"slp":1016,"qcField":12,"metarType":"METAR","rawOb":"METAR KMYR 181553Z 17011KT 10SM CLR 25/19 A3000 RMK AO2 SLP160 T02500194 $","lat":33.6769,"lon":-78.9325,"elev":7,"name":"Myrtle Beach Intl, SC, US","cover":"CLR","clouds":[],"fltCat":"VFR"},{"icaoId":"KPSP","receiptTime":"2026-04-18T15:56:28.257Z","obsTime":1776527580,"reportTime":"2026-04-18T16:00:00.000Z","temp":23.3,"dewp":-15,"wdir":0,"wspd":0,"visib":"10+","altim":1016,"slp":1015.7,"qcField":12,"metarType":"METAR","rawOb":"METAR KPSP 181553Z 00000KT 10SM CLR 23/M15 A3000 RMK AO2 SLP157 T02331150 $","lat":33.8222,"lon":-116.5043,"elev":123,"name":"Palm Springs Intl, CA, US","cover":"CLR","clouds":[],"fltCat":"VFR"},{"icaoId":"KRIW","receiptTime":"2026-04-18T15:56:28.059Z","obsTime":1776527580,"reportTime":"2026-04-18T16:00:00.000Z","temp":4.4,"dewp":-13.9,"wdir":220,"wspd":10,"wgst":19,"visib":"10+","altim":1021.8,"slp":1022.9,"qcField":6,"metarType":"METAR","rawOb":"METAR KRIW 181553Z AUTO 22010G19KT 190V270 10SM CLR 04/M14 A3017 RMK AO2 SLP229 T00441139","lat":43.0622,"lon":-108.4471,"elev":1662,"name":"Riverton Rgnl, WY, US","cover":"CLR","clouds":[],"fltCat":"VFR"},{"icaoId":"KMYF","receiptTime":"2026-04-18T15:56:16.510Z","obsTime":1776527580,"reportTime":"2026-04-18T16:00:00.000Z","temp":17.8,"dewp":11.7,"wdir":340,"wspd":3,"visib":"10+","altim":1014.6,"slp":1014.4,"qcField":4,"metarType":"METAR","rawOb":"METAR KMYF 181553Z 34003KT 10SM CLR 18/12 A2996 RMK AO2 SLP144 T01780117","lat":32.8145,"lon":-117.1375,"elev":128,"name":"San Diego/Montgomery Arpt, CA, US","cover":"CLR","clouds":[],"fltCat":"VFR"},{"icaoId":"KOGD","receiptTime":"2026-04-18T15:56:23.062Z","obsTime":1776527580,"reportTime":"2026-04-18T16:00:00.000Z","temp":5.6,"dewp":-11.1,"wdir":0,"wspd":0,"visib":"10+","altim":1026.2,"slp":1025.7,"qcField":4,"metarType":"METAR","rawOb":"METAR KOGD 181553Z 00000KT 10SM CLR 06/M11 A3030 RMK AO2 SLP257 T00561111","lat":41.1941,"lon":-112.0168,"elev":1356,"name":"Ogden/Hinckley Arpt, UT, US","cover":"CLR","clouds":[],"fltCat":"VFR"},{"icaoId":"KMFR","receiptTime":"2026-04-18T15:56:22.996Z","obsTime":1776527580,"reportTime":"2026-04-18T16:00:00.000Z","temp":6.1,"dewp":1.1,"wdir":0,"wspd":0,"visib":"10+","altim":1018.4,"slp":1018.2,"qcField":4,"metarType":"METAR","rawOb":"METAR KMFR 181553Z 00000KT 10SM CLR 06/01 A3007 RMK AO2 SLP182 T00610011","lat":42.375,"lon":-122.877,"elev":397,"name":"Medford/Rogue Valley Intl, OR, US","cover":"CLR","clouds":[],"fltCat":"VFR"},{"icaoId":"KASE","receiptTime":"2026-04-18T15:56:20.983Z","obsTime":1776527580,"reportTime":"2026-04-18T16:00:00.000Z","temp":-1.1,"dewp":-15.6,"wdir":0,"wspd":0,"visib":"10+","altim":1026.8,"slp":1026.9,"qcField":4,"metarType":"METAR","rawOb":"METAR KASE 181553Z 00000KT 10SM CLR M01/M16 A3032 RMK AO2 SLP269 T10111156","lat":39.2299,"lon":-106.8705,"elev":2384,"name":"Aspen/Pitkin Cnty, CO, US","cover":"CLR","clouds":[],"fltCat":"VFR"},{"icaoId":"KBCE","receiptTime":"2026-04-18T15:56:20.764Z","obsTime":1776527580,"reportTime":"2026-04-18T16:00:00.000Z","temp":2.8,"dewp":-16.7,"wdir":170,"wspd":7,"visib":"10+","altim":1025.8,"slp":1023,"qcField":6,"metarType":"METAR","rawOb":"METAR KBCE 181553Z AUTO 17007KT 10SM CLR 03/M17 A3029 RMK AO2 SLP230 T00281167","lat":37.7013,"lon":-112.149,"elev":2311,"name":"Bryce Canyon Arpt, UT, US","cover":"CLR","clouds":[],"fltCat":"VFR"},{"icaoId":"KBTM","receiptTime":"2026-04-18T15:56:26.631Z","obsTime":1776527580,"reportTime":"2026-04-18T16:00:00.000Z","temp":1.1,"dewp":-10,"wdir":0,"wspd":0,"visib":"10+","altim":1022.8,"slp":1024.7,"qcField":6,"metarType":"METAR","rawOb":"METAR KBTM 181553Z AUTO 00000KT 10SM CLR 01/M10 A3020 RMK AO2 SLP247 T00111100","lat":45.9644,"lon":-112.5015,"elev":1680,"name":"Butte/Mooney Arpt, MT, US","cover":"CLR","clouds":[],"fltCat":"VFR"},{"icaoId":"KHOU","receiptTime":"2026-04-18T15:56:27.908Z","obsTime":1776527580,"reportTime":"2026-04-18T16:00:00.000Z","temp":27.8,"dewp":20.6,"wdir":220,"wspd":7,"visib":"10+","altim":1014.3,"slp":1014.6,"qcField":12,"metarType":"METAR","rawOb":"METAR KHOU 181553Z 22007KT 10SM SCT025 BKN038 28/21 A2995 RMK AO2 SLP146 T02780206 $","lat":29.6458,"lon":-95.2821,"elev":13,"name":"Houston/Hobby Arpt, TX, US","cover":"BKN","clouds":[{"cover":"SCT","base":2500},{"cover":"BKN","base":3800}],"fltCat":"VFR"},{"icaoId":"KRTN","receiptTime":"2026-04-18T15:56:17.197Z","obsTime":1776527580,"reportTime":"2026-04-18T16:00:00.000Z","temp":3.3,"dewp":-6.7,"wdir":"VRB","wspd":6,"visib":"10+","altim":1025.8,"slp":1026,"qcField":6,"metarType":"METAR","rawOb":"METAR KRTN 181553Z AUTO VRB06KT 10SM CLR 03/M07 A3029 RMK AO2 SLP260 T00331067","lat":36.7418,"lon":-104.5076,"elev":1939,"name":"Raton/Crews Fld, NM, US","cover":"CLR","clouds":[],"fltCat":"VFR"},{"icaoId":"KSAF","receiptTime":"2026-04-18T15:56:19.919Z","obsTime":1776527580,"reportTime":"2026-04-18T16:00:00.000Z","temp":4.4,"dewp":-11.7,"wdir":0,"wspd":0,"visib":"10+","altim":1025.8,"slp":1023.1,"qcField":4,"metarType":"METAR","rawOb":"METAR KSAF 181553Z 00000KT 10SM CLR 04/M12 A3029 RMK AO2 SLP231 T00441117","lat":35.611,"lon":-106.0957,"elev":1918,"name":"Santa Fe Cnty Muni, NM, US","cover":"CLR","clouds":[],"fltCat":"VFR"},{"icaoId":"KYKM","receiptTime":"2026-04-18T15:56:27.636Z","obsTime":1776527580,"reportTime":"2026-04-18T16:00:00.000Z","temp":8.3,"dewp":-0.6,"wdir":260,"wspd":4,"visib":"10+","altim":1021.1,"slp":1021.3,"qcField":4,"metarType":"METAR","rawOb":"METAR KYKM 181553Z 26004KT 10SM CLR 08/M01 A3015 RMK AO2 SLP213 T00831006","lat":46.564,"lon":-120.5349,"elev":319,"name":"Yakima/McAllister Fld, WA, US","cover":"CLR","clouds":[],"fltCat":"VFR"},{"icaoId":"KMIA","receiptTime":"2026-04-18T16:00:57.337Z","obsTime":1776527580,"reportTime":"2026-04-18T16:00:00.000Z","temp":28.3,"dewp":21.1,"wdir":90,"wspd":7,"wgst":16,"visib":"10+","altim":1017,"slp":1017,"qcField":0,"metarType":"METAR","rawOb":"METAR KMIA 181553Z 09007G16KT 10SM SCT028 BKN034 BKN250 28/21 A3003 RMK SLP170 T02830211","lat":25.7881,"lon":-80.3169,"elev":1,"name":"Miami Intl, FL, US","cover":"BKN","clouds":[{"cover":"SCT","base":2800},{"cover":"BKN","base":3400},{"cover":"BKN","base":25000}],"fltCat":"VFR"},{"icaoId":"KPDX","receiptTime":"2026-04-18T15:56:23.131Z","obsTime":1776527580,"reportTime":"2026-04-18T16:00:00.000Z","temp":10,"dewp":3.3,"wdir":0,"wspd":0,"visib":"10+","altim":1018,"slp":1018,"qcField":12,"metarType":"METAR","rawOb":"METAR KPDX 181553Z 00000KT 10SM FEW100 FEW160 BKN250 10/03 A3006 RMK AO2 SLP180 T01000033 $","lat":45.5958,"lon":-122.6092,"elev":7,"name":"Portland Intl, OR, US","cover":"BKN","clouds":[{"cover":"FEW","base":10000},{"cover":"FEW","base":16000},{"cover":"BKN","base":25000}],"fltCat":"VFR"},{"icaoId":"KPGA","receiptTime":"2026-04-18T15:56:23.142Z","obsTime":1776527580,"reportTime":"2026-04-18T16:00:00.000Z","temp":9.4,"dewp":-15,"wdir":0,"wspd":0,"visib":"10+","altim":1026.2,"slp":1024.1,"qcField":14,"metarType":"METAR","rawOb":"METAR KPGA 181553Z AUTO 00000KT 10SM CLR 09/M15 A3030 RMK AO2 SLP241 T00941150 $","lat":36.9211,"lon":-111.4487,"elev":1310,"name":"Page Muni, AZ, US","cover":"CLR","clouds":[],"fltCat":"VFR"},{"icaoId":"KDVT","receiptTime":"2026-04-18T16:16:04.177Z","obsTime":1776527580,"reportTime":"2026-04-18T16:00:00.000Z","temp":23.9,"dewp":-11.7,"wdir":60,"wspd":6,"visib":"10+","altim":1016,"slp":1014,"qcField":5,"metarType":"METAR","rawOb":"METAR KDVT 181553Z COR 06006KT 10SM CLR 24/M12 A3000 RMK AO2 SLP140 T02391117","lat":33.6902,"lon":-112.0662,"elev":454,"name":"Phoenix/Deer Valley Arpt, AZ, US","cover":"CLR","clouds":[],"fltCat":"VFR"},{"icaoId":"KMOD","receiptTime":"2026-04-18T15:56:23.018Z","obsTime":1776527580,"reportTime":"2026-04-18T16:00:00.000Z","temp":15,"dewp":4.4,"wdir":0,"wspd":0,"visib":"10+","altim":1016.3,"slp":1016.2,"qcField":4,"metarType":"METAR","rawOb":"METAR KMOD 181553Z 00000KT 10SM CLR 15/04 A3001 RMK AO2 SLP162 T01500044","lat":37.6254,"lon":-120.9549,"elev":25,"name":"Modesto/Sham Fld, CA, US","cover":"CLR","clouds":[],"fltCat":"VFR"},{"icaoId":"KOAK","receiptTime":"2026-04-18T15:56:23.051Z","obsTime":1776527580,"reportTime":"2026-04-18T16:00:00.000Z","temp":13.9,"dewp":8.9,"wdir":190,"wspd":4,"visib":"10+","altim":1017,"slp":1016.8,"qcField":12,"metarType":"METAR","rawOb":"METAR KOAK 181553Z 19004KT 10SM BKN250 14/09 A3003 RMK AO2 SLP168 T01390089 $","lat":37.7178,"lon":-122.233,"elev":3,"name":"Oakland Intl, CA, US","cover":"BKN","clouds":[{"cover":"BKN","base":25000}],"fltCat":"VFR"},{"icaoId":"KPAE","receiptTime":"2026-04-18T15:56:23.107Z","obsTime":1776527580,"reportTime":"2026-04-18T16:00:00.000Z","temp":10.6,"dewp":1.7,"wdir":110,"wspd":7,"visib":"10+","altim":1018,"slp":1018,"qcField":6,"metarType":"METAR","rawOb":"METAR KPAE 181553Z AUTO 11007KT 10SM CLR 11/02 A3006 RMK AO2 SLP180 T01060017","lat":47.9232,"lon":-122.2831,"elev":166,"name":"Everett/Paine Fld, WA, US","cover":"CLR","clouds":[],"fltCat":"VFR"},{"icaoId":"KDMN","receiptTime":"2026-04-18T15:56:23.194Z","obsTime":1776527580,"reportTime":"2026-04-18T16:00:00.000Z","temp":17.2,"dewp":-13.3,"wdir":40,"wspd":22,"wgst":32,"visib":"10+","altim":1021.4,"slp":1015.6,"qcField":6,"metarType":"METAR","rawOb":"METAR KDMN 181553Z AUTO 04022G32KT 10SM CLR 17/M13 A3016 RMK AO2 PK WND 04032/1534 SLP156 T01721133","lat":32.2592,"lon":-107.7206,"elev":1310,"name":"Deming Muni, NM, US","cover":"CLR","clouds":[],"fltCat":"VFR"},{"icaoId":"KLAW","receiptTime":"2026-04-18T15:56:23.555Z","obsTime":1776527580,"reportTime":"2026-04-18T16:00:00.000Z","temp":13.9,"dewp":0.6,"wdir":10,"wspd":17,"wgst":26,"visib":"10+","altim":1023.5,"slp":1022.7,"qcField":4,"metarType":"METAR","rawOb":"METAR KLAW 181553Z 01017G26KT 10SM CLR 14/01 A3022 RMK AO2 PK WND 02032/1515 SLP227 T01390006","lat":34.5577,"lon":-98.4172,"elev":328,"name":"Lawton-Fort Sill Rgnl, OK, US","cover":"CLR","clouds":[],"fltCat":"VFR"},{"icaoId":"KCPR","receiptTime":"2026-04-18T15:56:26.911Z","obsTime":1776527580,"reportTime":"2026-04-18T16:00:00.000Z","temp":2.8,"dewp":-7.8,"wdir":230,"wspd":11,"visib":"10+","altim":1022.4,"slp":1023.8,"qcField":4,"metarType":"METAR","rawOb":"METAR KCPR 181553Z 23011KT 10SM CLR 03/M08 A3019 RMK AO2 SLP238 T00281078","lat":42.8978,"lon":-106.4736,"elev":1623,"name":"Casper/Natrona Cnty, WY, US","cover":"CLR","clouds":[],"fltCat":"VFR"},{"icaoId":"KFUL","receiptTime":"2026-04-18T15:56:25.215Z","obsTime":1776527580,"reportTime":"2026-04-18T16:00:00.000Z","temp":18.3,"dewp":12.8,"wdir":0,"wspd":0,"visib":"10+","altim":1014.6,"slp":1014.3,"qcField":4,"metarType":"METAR","rawOb":"METAR KFUL 181553Z 00000KT 10SM CLR 18/13 A2996 RMK AO2 SLP143 T01830128","lat":33.8715,"lon":-117.9856,"elev":23,"name":"Fullerton Muni, CA, US","cover":"CLR","clouds":[],"fltCat":"VFR"},{"icaoId":"KGJT","receiptTime":"2026-04-18T15:56:25.340Z","obsTime":1776527580,"reportTime":"2026-04-18T16:00:00.000Z","temp":4.4,"dewp":-7.8,"wdir":110,"wspd":8,"visib":"10+","altim":1028.2,"slp":1028.3,"qcField":4,"metarType":"METAR","rawOb":"METAR KGJT 181553Z 11008KT 10SM CLR 04/M08 A3036 RMK AO2 SLP283 T00441078","lat":39.1344,"lon":-108.5408,"elev":1475,"name":"Grand Junction Rgnl, CO, US","cover":"CLR","clouds":[],"fltCat":"VFR"},{"icaoId":"KGTF","receiptTime":"2026-04-18T15:56:25.505Z","obsTime":1776527580,"reportTime":"2026-04-18T16:00:00.000Z","temp":5.6,"dewp":-3.9,"wdir":220,"wspd":13,"visib":"10+","altim":1020.4,"slp":1023.2,"qcField":4,"metarType":"METAR","rawOb":"METAR KGTF 181553Z 22013KT 10SM CLR 06/M04 A3013 RMK AO2 SLP232 T00561039","lat":47.4733,"lon":-111.3828,"elev":1117,"name":"Great Falls Intl, MT, US","cover":"CLR","clouds":[],"fltCat":"VFR"},{"icaoId":"KCYS","receiptTime":"2026-04-18T15:56:25.516Z","obsTime":1776527580,"reportTime":"2026-04-18T16:00:00.000Z","temp":2.2,"dewp":-13.3,"wdir":320,"wspd":18,"wgst":28,"visib":"10+","altim":1022.4,"slp":1024,"qcField":4,"metarType":"METAR","rawOb":"METAR KCYS 181553Z 32018G28KT 10SM CLR 02/M13 A3019 RMK AO2 PK WND 33028/1551 SLP240 T00221133","lat":41.1579,"lon":-104.8081,"elev":1868,"name":"Cheyenne Rgnl, WY, US","cover":"CLR","clouds":[],"fltCat":"VFR"},{"icaoId":"KDEN","receiptTime":"2026-04-18T15:56:25.552Z","obsTime":1776527580,"reportTime":"2026-04-18T16:00:00.000Z","temp":3.9,"dewp":-12.2,"wdir":260,"wspd":13,"visib":"10+","altim":1023.8,"slp":1024.3,"qcField":12,"metarType":"METAR","rawOb":"METAR KDEN 181553Z 26013KT 10SM FEW070 04/M12 A3023 RMK AO2 SLP243 T00391122 $","lat":39.8466,"lon":-104.6562,"elev":1656,"name":"Denver Intl, CO, US","cover":"FEW","clouds":[{"cover":"FEW","base":7000}],"fltCat":"VFR"},{"icaoId":"KDLN","receiptTime":"2026-04-18T15:56:25.663Z","obsTime":1776527580,"reportTime":"2026-04-18T16:00:00.000Z","temp":1.7,"dewp":-8.9,"wdir":170,"wspd":4,"visib":"10+","altim":1023.5,"slp":1025.4,"qcField":6,"metarType":"METAR","rawOb":"METAR KDLN 181553Z AUTO 17004KT 10SM CLR 02/M09 A3022 RMK AO2 SLP254 T00171089","lat":45.2584,"lon":-112.5546,"elev":1586,"name":"Dillon Arpt, MT, US","cover":"CLR","clouds":[],"fltCat":"VFR"},{"icaoId":"KDRO","receiptTime":"2026-04-18T15:56:25.709Z","obsTime":1776527580,"reportTime":"2026-04-18T16:00:00.000Z","temp":3.9,"dewp":-13.3,"wdir":"VRB","wspd":5,"visib":"10+","altim":1025.8,"slp":1026.1,"qcField":6,"metarType":"METAR","rawOb":"METAR KDRO 181553Z AUTO VRB05KT 10SM CLR 04/M13 A3029 RMK AO2 SLP261 T00391133","lat":37.1431,"lon":-107.7602,"elev":2021,"name":"Durango/La Plata Cnty, CO, US","cover":"CLR","clouds":[],"fltCat":"VFR"},{"icaoId":"KEVW","receiptTime":"2026-04-18T15:56:25.911Z","obsTime":1776527580,"reportTime":"2026-04-18T16:00:00.000Z","temp":-0.6,"dewp":-11.7,"wdir":"VRB","wspd":6,"visib":"10+","altim":1025.5,"slp":1027.6,"qcField":14,"metarType":"METAR","rawOb":"METAR KEVW 181553Z AUTO VRB06KT 10SM CLR M01/M12 A3028 RMK AO2 SLP276 T10061117 $","lat":41.2727,"lon":-111.0305,"elev":2178,"name":"Evanston/Uinta Cnty, WY, US","cover":"CLR","clouds":[],"fltCat":"VFR"},{"icaoId":"KFAT","receiptTime":"2026-04-18T15:56:26.302Z","obsTime":1776527580,"reportTime":"2026-04-18T16:00:00.000Z","temp":17.2,"dewp":6.1,"wdir":120,"wspd":6,"visib":"10+","altim":1016.7,"slp":1016.2,"qcField":12,"metarType":"METAR","rawOb":"METAR KFAT 181553Z 12006KT 10SM FEW150 BKN200 17/06 A3002 RMK AO2 SLP162 T01720061 $","lat":36.78,"lon":-119.7202,"elev":102,"name":"Fresno/Yosemite Intl, CA, US","cover":"BKN","clouds":[{"cover":"FEW","base":15000},{"cover":"BKN","base":20000}],"fltCat":"VFR"},{"icaoId":"KBIL","receiptTime":"2026-04-18T15:56:26.392Z","obsTime":1776527580,"reportTime":"2026-04-18T16:00:00.000Z","temp":4.4,"dewp":-5,"wdir":260,"wspd":7,"visib":"10+","altim":1021.8,"slp":1023.7,"qcField":4,"metarType":"METAR","rawOb":"METAR KBIL 181553Z 26007KT 10SM FEW080 04/M05 A3017 RMK AO2 SLP237 T00441050","lat":45.8072,"lon":-108.5462,"elev":1089,"name":"Billings/Logan Intl, MT, US","cover":"FEW","clouds":[{"cover":"FEW","base":8000}],"fltCat":"VFR"},{"icaoId":"KCNY","receiptTime":"2026-04-18T15:56:26.434Z","obsTime":1776527580,"reportTime":"2026-04-18T16:00:00.000Z","temp":7.2,"dewp":-10,"wdir":50,"wspd":11,"visib":"10+","altim":1026.8,"slp":1026.7,"qcField":14,"metarType":"METAR","rawOb":"METAR KCNY 181553Z AUTO 05011KT 10SM CLR 07/M10 A3032 RMK AO2 SLP267 T00721100 $","lat":38.7501,"lon":-109.7627,"elev":1392,"name":"Moab/Canyonland Fld, UT, US","cover":"CLR","clouds":[],"fltCat":"VFR"},{"icaoId":"KBNA","receiptTime":"2026-04-18T15:56:26.546Z","obsTime":1776527580,"reportTime":"2026-04-18T16:00:00.000Z","temp":17.2,"dewp":13.3,"wdir":340,"wspd":7,"visib":5,"altim":1016,"slp":1015.3,"qcField":12,"wxString":"-RA BR","precip":0.005,"metarType":"METAR","rawOb":"METAR KBNA 181553Z 34007KT 5SM -RA BR FEW018 OVC035 17/13 A3000 RMK AO2 PK WND 35027/1507 WSHFT 1445 RAB33 SLP153 P0000 T01720133 $","lat":36.1105,"lon":-86.6881,"elev":168,"name":"Nashville Intl, TN, US","cover":"OVC","clouds":[{"cover":"FEW","base":1800},{"cover":"OVC","base":3500}],"fltCat":"MVFR"},{"icaoId":"KCDC","receiptTime":"2026-04-18T15:56:26.737Z","obsTime":1776527580,"reportTime":"2026-04-18T16:00:00.000Z","temp":3.9,"dewp":-12.2,"wdir":0,"wspd":0,"visib":"10+","altim":1024.1,"slp":1023.4,"qcField":6,"metarType":"METAR","rawOb":"METAR KCDC 181553Z AUTO 00000KT 10SM CLR 04/M12 A3024 RMK AO2 SLP234 T00391122","lat":37.7067,"lon":-113.097,"elev":1703,"name":"Cedar City Muni, UT, US","cover":"CLR","clouds":[],"fltCat":"VFR"},{"icaoId":"KCNM","receiptTime":"2026-04-18T15:56:26.888Z","obsTime":1776527580,"reportTime":"2026-04-18T16:00:00.000Z","temp":11.1,"dewp":-5.6,"wdir":360,"wspd":13,"wgst":21,"visib":"10+","altim":1026.8,"slp":1022.8,"qcField":6,"metarType":"METAR","rawOb":"METAR KCNM 181553Z AUTO 36013G21KT 10SM CLR 11/M06 A3032 RMK AO2 SLP228 T01111056","lat":32.3336,"lon":-104.2584,"elev":993,"name":"Carlsbad/Cavern City Air Term, NM, US","cover":"CLR","clouds":[],"fltCat":"VFR"},{"icaoId":"KBOI","receiptTime":"2026-04-18T15:56:27.477Z","obsTime":1776527580,"reportTime":"2026-04-18T16:00:00.000Z","temp":8.9,"dewp":-6.1,"wdir":110,"wspd":14,"visib":"10+","altim":1023.8,"slp":1023.9,"qcField":4,"metarType":"METAR","rawOb":"METAR KBOI 181553Z 11014KT 10SM CLR 09/M06 A3023 RMK AO2 SLP239 T00891061","lat":43.567,"lon":-116.2406,"elev":860,"name":"Boise Arpt, ID, US","cover":"CLR","clouds":[],"fltCat":"VFR"},{"icaoId":"KMSP","receiptTime":"2026-04-18T15:56:27.502Z","obsTime":1776527580,"reportTime":"2026-04-18T16:00:00.000Z","temp":1.7,"dewp":-8.3,"wdir":290,"wspd":14,"wgst":24,"visib":"10+","altim":1014.3,"slp":1015,"qcField":4,"metarType":"METAR","rawOb":"METAR KMSP 181553Z 29014G24KT 10SM BKN039 02/M08 A2995 RMK AO2 SLP150 T00171083","lat":44.8852,"lon":-93.2313,"elev":255,"name":"Minneapolis-St Paul Intl, MN, US","cover":"BKN","clouds":[{"cover":"BKN","base":3900}],"fltCat":"VFR"},{"icaoId":"KSNA","receiptTime":"2026-04-18T15:56:27.536Z","obsTime":1776527580,"reportTime":"2026-04-18T16:00:00.000Z","temp":17.8,"dewp":13.3,"wdir":190,"wspd":3,"visib":"10+","altim":1014.6,"slp":1014.5,"qcField":4,"metarType":"METAR","rawOb":"METAR KSNA 181553Z 19003KT 10SM FEW250 18/13 A2996 RMK AO2 SLP145 T01780133","lat":33.6798,"lon":-117.8675,"elev":14,"name":"Santa Ana/Wayne Arpt, CA, US","cover":"FEW","clouds":[{"cover":"FEW","base":25000}],"fltCat":"VFR"},{"icaoId":"KSTS","receiptTime":"2026-04-18T15:56:27.558Z","obsTime":1776527580,"reportTime":"2026-04-18T16:00:00.000Z","temp":10.6,"dewp":6.7,"wdir":0,"wspd":0,"visib":"10+","altim":1016.7,"slp":1016.1,"qcField":4,"metarType":"METAR","rawOb":"METAR KSTS 181553Z 00000KT 10SM CLR 11/07 A3002 RMK AO2 SLP161 T01060067","lat":38.5037,"lon":-122.811,"elev":35,"name":"Santa Rosa/Schulz Arpt, CA, US","cover":"CLR","clouds":[],"fltCat":"VFR"},{"icaoId":"KTWF","receiptTime":"2026-04-18T15:56:27.603Z","obsTime":1776527580,"reportTime":"2026-04-18T16:00:00.000Z","temp":3.9,"dewp":-3.9,"wdir":30,"wspd":5,"visib":"10+","altim":1024.5,"slp":1024.2,"qcField":4,"metarType":"METAR","rawOb":"METAR KTWF 181553Z 03005KT 10SM CLR 04/M04 A3025 RMK AO2 SLP242 T00391039","lat":42.4785,"lon":-114.4775,"elev":1269,"name":"Twin Falls/Joslin Fld, ID, US","cover":"CLR","clouds":[],"fltCat":"VFR"},{"icaoId":"KVGT","receiptTime":"2026-04-18T15:56:27.625Z","obsTime":1776527580,"reportTime":"2026-04-18T16:00:00.000Z","temp":16.1,"dewp":-15,"wdir":160,"wspd":5,"visib":"10+","altim":1020.4,"slp":1021.1,"qcField":4,"metarType":"METAR","rawOb":"METAR KVGT 181553Z 16005KT 10SM CLR 16/M15 A3013 RMK AO2 SLP211 T01611150","lat":36.212,"lon":-115.194,"elev":664,"name":"Las Vegas/North Arpt, NV, US","cover":"CLR","clouds":[],"fltCat":"VFR"},{"icaoId":"KIAH","receiptTime":"2026-04-18T15:56:27.919Z","obsTime":1776527580,"reportTime":"2026-04-18T16:00:00.000Z","temp":26.1,"dewp":21.1,"wdir":260,"wspd":4,"visib":"10+","altim":1014.6,"slp":1014.4,"qcField":4,"metarType":"METAR","rawOb":"METAR KIAH 181553Z 26004KT 10SM FEW020 SCT034 OVC045 26/21 A2996 RMK AO2 SLP144 T02610211","lat":29.9844,"lon":-95.3607,"elev":27,"name":"Houston/Bush Intl, TX, US","cover":"OVC","clouds":[{"cover":"FEW","base":2000},{"cover":"SCT","base":3400},{"cover":"OVC","base":4500}],"fltCat":"VFR"},{"icaoId":"KPUB","receiptTime":"2026-04-18T15:56:28.023Z","obsTime":1776527580,"reportTime":"2026-04-18T16:00:00.000Z","temp":7.2,"dewp":-8.3,"wdir":260,"wspd":8,"visib":"10+","altim":1026.2,"slp":1025.9,"qcField":12,"metarType":"METAR","rawOb":"METAR KPUB 181553Z 26008KT 10SM CLR 07/M08 A3030 RMK AO2 SLP259 T00721083 $","lat":38.2887,"lon":-104.5057,"elev":1441,"name":"Pueblo Mem Arpt, CO, US","cover":"CLR","clouds":[],"fltCat":"VFR"},{"icaoId":"KPRC","receiptTime":"2026-04-18T15:56:28.236Z","obsTime":1776527580,"reportTime":"2026-04-18T16:00:00.000Z","temp":11.1,"dewp":-15.6,"wdir":310,"wspd":3,"visib":"10+","altim":1021.4,"slp":1016.9,"qcField":4,"metarType":"METAR","rawOb":"METAR KPRC 181553Z 31003KT 10SM CLR 11/M16 A3016 RMK AO2 SLP169 T01111156","lat":34.6491,"lon":-112.4223,"elev":1528,"name":"Prescott/Love Fld, AZ, US","cover":"CLR","clouds":[],"fltCat":"VFR"},{"icaoId":"KPSC","receiptTime":"2026-04-18T15:56:28.246Z","obsTime":1776527580,"reportTime":"2026-04-18T16:00:00.000Z","temp":6.7,"dewp":0.6,"wdir":320,"wspd":5,"visib":"10+","altim":1021.8,"slp":1021.7,"qcField":4,"metarType":"METAR","rawOb":"METAR KPSC 181553Z 32005KT 10SM CLR 07/01 A3017 RMK AO2 SLP217 T00670006","lat":46.2695,"lon":-119.1182,"elev":121,"name":"Pasco/Tri Cities Arpt, WA, US","cover":"CLR","clouds":[],"fltCat":"VFR"},{"icaoId":"KPUW","receiptTime":"2026-04-18T15:56:28.270Z","obsTime":1776527580,"reportTime":"2026-04-18T16:00:00.000Z","temp":6.7,"dewp":-0.6,"wdir":100,"wspd":14,"visib":"10+","altim":1021.4,"slp":1022.9,"qcField":6,"metarType":"METAR","rawOb":"METAR KPUW 181553Z AUTO 10014KT 10SM CLR 07/M01 A3016 RMK AO2 SLP229 T00671006","lat":46.7438,"lon":-117.1158,"elev":774,"name":"Pullman/Moscow Rgnl, WA, US","cover":"CLR","clouds":[],"fltCat":"VFR"},{"icaoId":"KSBA","receiptTime":"2026-04-18T15:56:28.328Z","obsTime":1776527580,"reportTime":"2026-04-18T16:00:00.000Z","temp":18.3,"dewp":3.9,"wdir":0,"wspd":0,"visib":"10+","altim":1014.6,"slp":1014.6,"qcField":12,"metarType":"METAR","rawOb":"METAR KSBA 181553Z 00000KT 10SM CLR 18/04 A2996 RMK AO2 SLP146 T01830039 $","lat":34.4241,"lon":-119.8425,"elev":2,"name":"Santa Barbara Muni, CA, US","cover":"CLR","clouds":[],"fltCat":"VFR"},{"icaoId":"KSDL","receiptTime":"2026-04-18T15:56:28.339Z","obsTime":1776527580,"reportTime":"2026-04-18T16:00:00.000Z","temp":22.2,"dewp":-8.3,"wdir":230,"wspd":3,"visib":"10+","altim":1016.3,"slp":1014.2,"qcField":4,"metarType":"METAR","rawOb":"METAR KSDL 181553Z 23003KT 10SM CLR 22/M08 A3001 RMK AO2 SLP142 T02221083","lat":33.6123,"lon":-111.9232,"elev":438,"name":"Scottsdale Muni, AZ, US","cover":"CLR","clouds":[],"fltCat":"VFR"},{"icaoId":"KSEA","receiptTime":"2026-04-18T15:56:28.363Z","obsTime":1776527580,"reportTime":"2026-04-18T16:00:00.000Z","temp":9.4,"dewp":4.4,"wdir":360,"wspd":3,"visib":"10+","altim":1018,"slp":1018.5,"qcField":4,"metarType":"METAR","rawOb":"METAR KSEA 181553Z 36003KT 10SM FEW140 BKN180 09/04 A3006 RMK AO2 SLP185 T00940044","lat":47.4447,"lon":-122.3144,"elev":115,"name":"Seattle-Tacoma Intl, WA, US","cover":"BKN","clouds":[{"cover":"FEW","base":14000},{"cover":"BKN","base":18000}],"fltCat":"VFR"},{"icaoId":"KSHR","receiptTime":"2026-04-18T15:56:28.388Z","obsTime":1776527580,"reportTime":"2026-04-18T16:00:00.000Z","temp":5,"dewp":-5,"wdir":350,"wspd":14,"wgst":20,"visib":"10+","altim":1021.8,"slp":1023.9,"qcField":6,"metarType":"METAR","rawOb":"METAR KSHR 181553Z AUTO 35014G20KT 10SM CLR 05/M05 A3017 RMK AO2 SLP239 T00501050","lat":44.7603,"lon":-106.9741,"elev":1212,"name":"Sheridan Cnty Arpt, WY, US","cover":"CLR","clouds":[],"fltCat":"VFR"},{"icaoId":"KSJC","receiptTime":"2026-04-18T15:56:28.399Z","obsTime":1776527580,"reportTime":"2026-04-18T16:00:00.000Z","temp":13.9,"dewp":2.8,"wdir":140,"wspd":3,"visib":"10+","altim":1016.3,"slp":1016.1,"qcField":4,"metarType":"METAR","rawOb":"METAR KSJC 181553Z 14003KT 10SM FEW055 SCT100 14/03 A3001 RMK AO2 SLP161 T01390028","lat":37.3594,"lon":-121.9244,"elev":13,"name":"San Jose Intl Arpt, CA, US","cover":"SCT","clouds":[{"cover":"FEW","base":5500},{"cover":"SCT","base":10000}],"fltCat":"VFR"},{"icaoId":"KSMF","receiptTime":"2026-04-18T15:56:28.410Z","obsTime":1776527580,"reportTime":"2026-04-18T16:00:00.000Z","temp":13.9,"dewp":7.2,"wdir":30,"wspd":4,"visib":"10+","altim":1016.7,"slp":1016.5,"qcField":4,"metarType":"METAR","rawOb":"METAR KSMF 181553Z 03004KT 10SM FEW200 14/07 A3002 RMK AO2 SLP165 T01390072","lat":38.7007,"lon":-121.5948,"elev":7,"name":"Sacramento Intl, CA, US","cover":"FEW","clouds":[{"cover":"FEW","base":20000}],"fltCat":"VFR"},{"icaoId":"KGSP","receiptTime":"2026-04-18T15:56:28.496Z","obsTime":1776527580,"reportTime":"2026-04-18T16:00:00.000Z","temp":28.3,"dewp":12.2,"wdir":220,"wspd":11,"wgst":15,"visib":"10+","altim":1016,"slp":1014.5,"qcField":4,"metarType":"METAR","rawOb":"METAR KGSP 181553Z 22011G15KT 10SM CLR 28/12 A3000 RMK AO2 SLP145 T02830122","lat":34.8842,"lon":-82.2209,"elev":285,"name":"Greenville-Spartanburg Intl, SC, US","cover":"CLR","clouds":[],"fltCat":"VFR"},{"icaoId":"KMSY","receiptTime":"2026-04-18T15:56:28.693Z","obsTime":1776527580,"reportTime":"2026-04-18T16:00:00.000Z","temp":26.7,"dewp":19.4,"wdir":160,"wspd":8,"visib":"10+","altim":1016.7,"slp":1016.7,"qcField":4,"metarType":"METAR","rawOb":"METAR KMSY 181553Z 16008KT 10SM SCT030 BKN045 BKN250 27/19 A3002 RMK AO2 SLP167 T02670194","lat":29.9974,"lon":-90.2777,"elev":0,"name":"New Orleans/Armstrong Intl, LA, US","cover":"BKN","clouds":[{"cover":"SCT","base":3000},{"cover":"BKN","base":4500},{"cover":"BKN","base":25000}],"fltCat":"VFR"},{"icaoId":"KBLI","receiptTime":"2026-04-18T15:56:26.522Z","obsTime":1776527580,"reportTime":"2026-04-18T16:00:00.000Z","temp":8.3,"dewp":3.9,"wdir":60,"wspd":3,"visib":"10+","altim":1018.4,"slp":1018.9,"qcField":4,"metarType":"METAR","rawOb":"METAR KBLI 181553Z 06003KT 10SM CLR 08/04 A3007 RMK AO2 SLP189 T00830039","lat":48.7991,"lon":-122.5407,"elev":46,"name":"Bellingham Intl, WA, US","cover":"CLR","clouds":[],"fltCat":"VFR"},{"icaoId":"KBUR","receiptTime":"2026-04-18T15:56:26.642Z","obsTime":1776527580,"reportTime":"2026-04-18T16:00:00.000Z","temp":17.8,"dewp":3.3,"wdir":280,"wspd":4,"visib":"10+","altim":1015.3,"slp":1014.2,"qcField":4,"metarType":"METAR","rawOb":"METAR KBUR 181553Z 28004KT 10SM CLR 18/03 A2998 RMK AO2 SLP142 T01780033","lat":34.1996,"lon":-118.3654,"elev":221,"name":"Burbank/Bob Hope Arpt, CA, US","cover":"CLR","clouds":[],"fltCat":"VFR"},{"icaoId":"KACV","receiptTime":"2026-04-18T15:56:20.741Z","obsTime":1776527580,"reportTime":"2026-04-18T16:00:00.000Z","temp":8.9,"dewp":7.8,"wdir":320,"wspd":3,"visib":"10+","altim":1017,"slp":1017.5,"qcField":6,"metarType":"METAR","rawOb":"METAR KACV 181553Z AUTO 32003KT 10SM SCT003 09/08 A3003 RMK AO2 SLP175 T00890078","lat":40.9784,"lon":-124.1048,"elev":63,"name":"Arcata Arpt, CA, US","cover":"SCT","clouds":[{"cover":"SCT","base":300}],"fltCat":"VFR"},{"icaoId":"KBFI","receiptTime":"2026-04-18T15:56:20.778Z","obsTime":1776527580,"reportTime":"2026-04-18T16:00:00.000Z","temp":10,"dewp":5,"wdir":0,"wspd":0,"visib":"10+","altim":1018,"slp":1017.9,"qcField":4,"metarType":"METAR","rawOb":"METAR KBFI 181553Z 00000KT 10SM CLR 10/05 A3006 RMK AO2 SLP179 T01000050","lat":47.5455,"lon":-122.3148,"elev":7,"name":"Seattle/Boeing Fld, WA, US","cover":"CLR","clouds":[],"fltCat":"VFR"},{"icaoId":"KFMN","receiptTime":"2026-04-18T15:56:23.273Z","obsTime":1776527580,"reportTime":"2026-04-18T16:00:00.000Z","temp":5,"dewp":-13.9,"wdir":0,"wspd":0,"visib":"10+","altim":1026.2,"slp":1026.1,"qcField":4,"metarType":"METAR","rawOb":"METAR KFMN 181553Z 00000KT 10SM CLR 05/M14 A3030 RMK AO2 SLP261 T00501139","lat":36.7435,"lon":-108.2293,"elev":1677,"name":"Farmington/Four Corners Rgnl, NM, US","cover":"CLR","clouds":[],"fltCat":"VFR"},{"icaoId":"KDAL","receiptTime":"2026-04-18T15:56:21.721Z","obsTime":1776527580,"reportTime":"2026-04-18T16:00:00.000Z","temp":10.6,"dewp":7.8,"wdir":340,"wspd":9,"wgst":18,"visib":"10+","altim":1021.1,"slp":1020.4,"qcField":4,"wxString":"-RA","precip":0.01,"metarType":"METAR","rawOb":"METAR KDAL 181553Z 34009G18KT 10SM -RA FEW050 SCT090 BKN110 11/08 A3015 RMK AO2 RAE11B42 TSE07 SLP204 P0001 T01060078","lat":32.8384,"lon":-96.8358,"elev":148,"name":"Dallas/Love Fld, TX, US","cover":"BKN","clouds":[{"cover":"FEW","base":5000},{"cover":"SCT","base":9000},{"cover":"BKN","base":11000}],"fltCat":"VFR"},{"icaoId":"KMSO","receiptTime":"2026-04-18T15:56:23.029Z","obsTime":1776527580,"reportTime":"2026-04-18T16:00:00.000Z","temp":2.8,"dewp":-4.4,"wdir":0,"wspd":0,"visib":"10+","altim":1024.1,"slp":1026.3,"qcField":12,"metarType":"METAR","rawOb":"METAR KMSO 181553Z 00000KT 10SM CLR 03/M04 A3024 RMK AO2 SLP263 T00281044 $","lat":46.9208,"lon":-114.0938,"elev":974,"name":"Missoula Intl, MT, US","cover":"CLR","clouds":[],"fltCat":"VFR"},{"icaoId":"KONT","receiptTime":"2026-04-18T15:56:23.094Z","obsTime":1776527580,"reportTime":"2026-04-18T16:00:00.000Z","temp":17.8,"dewp":5,"wdir":210,"wspd":4,"visib":"10+","altim":1015,"slp":1013.7,"qcField":12,"metarType":"METAR","rawOb":"METAR KONT 181553Z 21004KT 10SM BKN250 18/05 A2997 RMK AO2 SLP137 T01780050 $","lat":34.0531,"lon":-117.5769,"elev":279,"name":"Ontario Intl, CA, US","cover":"BKN","clouds":[{"cover":"BKN","base":25000}],"fltCat":"VFR"},{"icaoId":"KPIH","receiptTime":"2026-04-18T15:56:28.204Z","obsTime":1776527580,"reportTime":"2026-04-18T16:00:00.000Z","temp":5.6,"dewp":-8.9,"wdir":"VRB","wspd":3,"visib":"10+","altim":1025.1,"slp":1025.9,"qcField":4,"metarType":"METAR","rawOb":"METAR KPIH 181553Z VRB03KT 10SM CLR 06/M09 A3027 RMK AO2 SLP259 T00561089","lat":42.9197,"lon":-112.5723,"elev":1357,"name":"Pocatello Rgnl, ID, US","cover":"CLR","clouds":[],"fltCat":"VFR"},{"icaoId":"KRDD","receiptTime":"2026-04-18T15:56:28.293Z","obsTime":1776527580,"reportTime":"2026-04-18T16:00:00.000Z","temp":13.3,"dewp":3.3,"wdir":30,"wspd":3,"visib":"10+","altim":1017,"slp":1016.6,"qcField":12,"metarType":"METAR","rawOb":"METAR KRDD 181553Z 03003KT 10SM CLR 13/03 A3003 RMK AO2 SLP166 T01330033 $","lat":40.5146,"lon":-122.2977,"elev":152,"name":"Redding Muni, CA, US","cover":"CLR","clouds":[],"fltCat":"VFR"},{"icaoId":"KLOL","receiptTime":"2026-04-18T15:56:17.353Z","obsTime":1776527580,"reportTime":"2026-04-18T16:00:00.000Z","temp":8.3,"dewp":-13.9,"wdir":30,"wspd":6,"visib":"10+","altim":1021.1,"slp":1020.8,"qcField":6,"metarType":"METAR","rawOb":"METAR KLOL 181553Z AUTO 03006KT 10SM CLR 08/M14 A3015 RMK AO2 SLP208 T00831139","lat":40.0684,"lon":-118.5702,"elev":1191,"name":"Lovelock/Derby Fld, NV, US","cover":"CLR","clouds":[],"fltCat":"VFR"},{"icaoId":"KMCO","receiptTime":"2026-04-18T15:56:20.122Z","obsTime":1776527580,"reportTime":"2026-04-18T16:00:00.000Z","temp":28.9,"dewp":17.8,"wdir":"VRB","wspd":4,"visib":"10+","altim":1018,"slp":1017.8,"qcField":4,"metarType":"METAR","rawOb":"METAR KMCO 181553Z VRB04KT 10SM SCT039 SCT250 29/18 A3006 RMK AO2 SLP178 T02890178","lat":28.4182,"lon":-81.3241,"elev":27,"name":"Orlando Intl, FL, US","cover":"SCT","clouds":[{"cover":"SCT","base":3900},{"cover":"SCT","base":25000}],"fltCat":"VFR"},{"icaoId":"KVEL","receiptTime":"2026-04-18T15:56:19.335Z","obsTime":1776527580,"reportTime":"2026-04-18T16:00:00.000Z","temp":2.8,"dewp":-8.9,"wdir":"VRB","wspd":4,"visib":"10+","altim":1028.2,"slp":1029.3,"qcField":6,"metarType":"METAR","rawOb":"METAR KVEL 181553Z AUTO VRB04KT 10SM CLR 03/M09 A3036 RMK AO2 SLP293 T00281089","lat":40.4429,"lon":-109.5128,"elev":1604,"name":"Vernal Rgnl, UT, US","cover":"CLR","clouds":[],"fltCat":"VFR"},{"icaoId":"KTUL","receiptTime":"2026-04-18T15:56:19.642Z","obsTime":1776527580,"reportTime":"2026-04-18T16:00:00.000Z","temp":12.2,"dewp":-2.2,"wdir":360,"wspd":17,"wgst":27,"visib":"10+","altim":1023.1,"slp":1022.9,"qcField":12,"metarType":"METAR","rawOb":"METAR KTUL 181553Z 36017G27KT 10SM FEW250 12/M02 A3021 RMK AO2 PK WND 35028/1508 SLP229 T01221022 $","lat":36.1985,"lon":-95.8782,"elev":196,"name":"Tulsa Intl Arpt, OK, US","cover":"FEW","clouds":[{"cover":"FEW","base":25000}],"fltCat":"VFR"},{"icaoId":"KPBI","receiptTime":"2026-04-18T15:56:19.827Z","obsTime":1776527580,"reportTime":"2026-04-18T16:00:00.000Z","temp":28.3,"dewp":20.6,"wdir":80,"wspd":7,"visib":"10+","altim":1017.4,"slp":1017.3,"qcField":12,"metarType":"METAR","rawOb":"METAR KPBI 181553Z 08007KT 10SM SCT023 SCT250 28/21 A3004 RMK AO2 SLP173 T02830206 $","lat":26.6851,"lon":-80.0992,"elev":4,"name":"Palm Beach Intl, FL, US","cover":"SCT","clouds":[{"cover":"SCT","base":2300},{"cover":"SCT","base":25000}],"fltCat":"VFR"},{"icaoId":"KPNC","receiptTime":"2026-04-18T15:56:19.873Z","obsTime":1776527580,"reportTime":"2026-04-18T16:00:00.000Z","temp":11.1,"dewp":-1.7,"wdir":10,"wspd":19,"visib":"10+","altim":1024.1,"slp":1023.8,"qcField":6,"metarType":"METAR","rawOb":"METAR KPNC 181553Z AUTO 01019KT 10SM CLR 11/M02 A3024 RMK AO2 PK WND 01027/1504 SLP238 T01111017","lat":36.7369,"lon":-97.1024,"elev":304,"name":"Ponca City Rgnl, OK, US","cover":"CLR","clouds":[],"fltCat":"VFR"},{"icaoId":"KTPA","receiptTime":"2026-04-18T15:56:20.021Z","obsTime":1776527580,"reportTime":"2026-04-18T16:00:00.000Z","temp":26.7,"dewp":20,"wdir":250,"wspd":5,"visib":"10+","altim":1017.4,"slp":1017.2,"qcField":4,"metarType":"METAR","rawOb":"METAR KTPA 181553Z 25005KT 10SM FEW023 FEW250 27/20 A3004 RMK AO2 SLP172 T02670200","lat":27.9633,"lon":-82.54,"elev":2,"name":"Tampa Intl Arpt, FL, US","cover":"FEW","clouds":[{"cover":"FEW","base":2300},{"cover":"FEW","base":25000}],"fltCat":"VFR"},{"icaoId":"KLBB","receiptTime":"2026-04-18T15:56:20.032Z","obsTime":1776527580,"reportTime":"2026-04-18T16:00:00.000Z","temp":11.7,"dewp":-7.2,"wdir":40,"wspd":15,"wgst":24,"visib":"10+","altim":1025.1,"slp":1021.9,"qcField":4,"metarType":"METAR","rawOb":"METAR KLBB 181553Z 04015G24KT 10SM FEW250 12/M07 A3027 RMK AO2 PK WND 04026/1523 SLP219 T01171072","lat":33.6658,"lon":-101.8233,"elev":996,"name":"Lubbock Intl Arpt, TX, US","cover":"FEW","clouds":[{"cover":"FEW","base":25000}],"fltCat":"VFR"},{"icaoId":"KLVS","receiptTime":"2026-04-18T15:56:20.084Z","obsTime":1776527580,"reportTime":"2026-04-18T16:00:00.000Z","temp":2.2,"dewp":-7.8,"wdir":0,"wspd":0,"visib":"10+","altim":1026.5,"slp":1024.7,"qcField":14,"metarType":"METAR","rawOb":"METAR KLVS 181553Z AUTO 00000KT 10SM CLR 02/M08 A3031 RMK AO2 SLP247 T00221078 $","lat":35.6558,"lon":-105.1385,"elev":2095,"name":"Las Vegas Muni, NM, US","cover":"CLR","clouds":[],"fltCat":"VFR"},{"icaoId":"KMAF","receiptTime":"2026-04-18T15:56:20.098Z","obsTime":1776527580,"reportTime":"2026-04-18T16:00:00.000Z","temp":12.8,"dewp":-5.6,"wdir":30,"wspd":18,"wgst":26,"visib":"10+","altim":1023.8,"slp":1020.5,"qcField":4,"metarType":"METAR","rawOb":"METAR KMAF 181553Z 03018G26KT 10SM CLR 13/M06 A3023 RMK AO2 PK WND 02030/1518 SLP205 T01281056","lat":31.9475,"lon":-102.2086,"elev":874,"name":"Midland Intl, TX, US","cover":"CLR","clouds":[],"fltCat":"VFR"},{"icaoId":"KMLC","receiptTime":"2026-04-18T15:56:20.171Z","obsTime":1776527580,"reportTime":"2026-04-18T16:00:00.000Z","temp":11.7,"dewp":-0.6,"wdir":10,"wspd":16,"wgst":26,"visib":"10+","altim":1021.4,"slp":1020.7,"qcField":6,"precip":0.005,"metarType":"METAR","rawOb":"METAR KMLC 181553Z AUTO 01016G26KT 10SM CLR 12/M01 A3016 RMK AO2 PK WND 02028/1522 RAB06E33 SLP207 P0000 T01171006","lat":34.8824,"lon":-95.7815,"elev":231,"name":"McAlester Rgnl, OK, US","cover":"CLR","clouds":[],"fltCat":"VFR"},{"icaoId":"KLAR","receiptTime":"2026-04-18T15:56:20.255Z","obsTime":1776527580,"reportTime":"2026-04-18T16:00:00.000Z","temp":0,"dewp":-13.9,"wdir":270,"wspd":17,"wgst":28,"visib":"10+","altim":1022.4,"slp":1023.8,"qcField":6,"metarType":"METAR","rawOb":"METAR KLAR 181553Z AUTO 27017G28KT 10SM FEW050 00/M14 A3019 RMK AO2 PK WND 28031/1523 SLP238 T00001139","lat":41.3165,"lon":-105.6729,"elev":2217,"name":"Laramie Rgnl, WY, US","cover":"FEW","clouds":[{"cover":"FEW","base":5000}],"fltCat":"VFR"},{"icaoId":"KMDW","receiptTime":"2026-04-18T15:56:20.369Z","obsTime":1776527580,"reportTime":"2026-04-18T16:00:00.000Z","temp":8.3,"dewp":0.6,"wdir":290,"wspd":14,"wgst":20,"visib":"10+","altim":1011.3,"slp":1011.2,"qcField":4,"metarType":"METAR","rawOb":"METAR KMDW 181553Z 29014G20KT 10SM FEW028 SCT075 BKN230 08/01 A2986 RMK AO2 SLP112 T00830006","lat":41.7841,"lon":-87.7552,"elev":186,"name":"Chicago/Midway Intl, IL, US","cover":"BKN","clouds":[{"cover":"FEW","base":2800},{"cover":"SCT","base":7500},{"cover":"BKN","base":23000}],"fltCat":"VFR"},{"icaoId":"KMTJ","receiptTime":"2026-04-18T15:56:20.403Z","obsTime":1776527580,"reportTime":"2026-04-18T16:00:00.000Z","temp":2.8,"dewp":-10,"wdir":0,"wspd":0,"visib":"10+","altim":1027.9,"slp":1027.5,"qcField":6,"metarType":"METAR","rawOb":"METAR KMTJ 181553Z AUTO 00000KT 10SM CLR 03/M10 A3035 RMK AO2 SLP275 T00281100","lat":38.5054,"lon":-107.8981,"elev":1755,"name":"Montrose Rgnl, CO, US","cover":"CLR","clouds":[],"fltCat":"VFR"},{"icaoId":"KCRQ","receiptTime":"2026-04-18T15:56:26.447Z","obsTime":1776527580,"reportTime":"2026-04-18T16:00:00.000Z","temp":17.2,"dewp":11.7,"wdir":0,"wspd":0,"visib":"10+","altim":1014.3,"slp":1014.1,"qcField":6,"metarType":"METAR","rawOb":"METAR KCRQ 181553Z AUTO 00000KT 10SM CLR 17/12 A2995 RMK AO2 SLP141 T01720117","lat":33.1299,"lon":-117.2765,"elev":96,"name":"Carlsbad/Palomar Arpt, CA, US","cover":"CLR","clouds":[],"fltCat":"VFR"},{"icaoId":"KHLN","receiptTime":"2026-04-18T15:56:20.558Z","obsTime":1776527580,"reportTime":"2026-04-18T16:00:00.000Z","temp":6.7,"dewp":-8.9,"wdir":280,"wspd":9,"visib":"10+","altim":1022.1,"slp":1025.1,"qcField":4,"metarType":"METAR","rawOb":"METAR KHLN 181553Z 28009KT 10SM CLR 07/M09 A3018 RMK AO2 SLP251 T00671089","lat":46.6045,"lon":-111.9892,"elev":1178,"name":"Helena Rgnl, MT, US","cover":"CLR","clouds":[],"fltCat":"VFR"},{"icaoId":"KHIO","receiptTime":"2026-04-18T15:56:20.544Z","obsTime":1776527580,"reportTime":"2026-04-18T16:00:00.000Z","temp":7.8,"dewp":4.4,"wdir":330,"wspd":3,"visib":"10+","altim":1018,"slp":1017.9,"qcField":4,"metarType":"METAR","rawOb":"METAR KHIO 181553Z 33003KT 10SM CLR 08/04 A3006 RMK AO2 SLP179 T00780044","lat":45.5476,"lon":-122.9557,"elev":62,"name":"Portland/Hillsboro Arpt, OR, US","cover":"CLR","clouds":[],"fltCat":"VFR"},{"icaoId":"KIDA","receiptTime":"2026-04-18T15:56:20.603Z","obsTime":1776527580,"reportTime":"2026-04-18T16:00:00.000Z","temp":3.9,"dewp":-9.4,"wdir":200,"wspd":9,"visib":"10+","altim":1026.2,"slp":1027.4,"qcField":4,"metarType":"METAR","rawOb":"METAR KIDA 181553Z 20009KT 10SM CLR 04/M09 A3030 RMK AO2 SLP274 T00391094","lat":43.5204,"lon":-112.0675,"elev":1444,"name":"Idaho Falls Rgnl, ID, US","cover":"CLR","clouds":[],"fltCat":"VFR"},{"icaoId":"KLAX","receiptTime":"2026-04-18T15:56:20.641Z","obsTime":1776527580,"reportTime":"2026-04-18T16:00:00.000Z","temp":18.9,"dewp":12.8,"wdir":"VRB","wspd":3,"visib":"10+","altim":1015,"slp":1014.7,"qcField":12,"metarType":"METAR","rawOb":"METAR KLAX 181553Z VRB03KT 10SM SCT250 BKN300 19/13 A2997 RMK AO2 SLP147 T01890128 $","lat":33.9382,"lon":-118.3866,"elev":30,"name":"Los Angeles Intl, CA, US","cover":"BKN","clouds":[{"cover":"SCT","base":25000},{"cover":"BKN","base":30000}],"fltCat":"VFR"},{"icaoId":"KELY","receiptTime":"2026-04-18T15:56:26.232Z","obsTime":1776527580,"reportTime":"2026-04-18T16:00:00.000Z","temp":2.8,"dewp":-17.2,"wdir":0,"wspd":0,"visib":"10+","altim":1024.5,"slp":1024,"qcField":14,"metarType":"METAR","rawOb":"METAR KELY 181553Z AUTO 00000KT 10SM CLR 03/M17 A3025 RMK AO2 SLP240 T00281172 $","lat":39.2954,"lon":-114.8466,"elev":1906,"name":"Ely/Yelland Fld, NV, US","cover":"CLR","clouds":[],"fltCat":"VFR"},{"icaoId":"KGEG","receiptTime":"2026-04-18T15:56:26.324Z","obsTime":1776527580,"reportTime":"2026-04-18T16:00:00.000Z","temp":5.6,"dewp":-1.7,"wdir":80,"wspd":6,"visib":"10+","altim":1021.4,"slp":1022.4,"qcField":12,"metarType":"METAR","rawOb":"METAR KGEG 181553Z 08006KT 10SM FEW200 FEW260 06/M02 A3016 RMK AO2 SLP224 T00561017 $","lat":47.6217,"lon":-117.528,"elev":718,"name":"Spokane Intl, WA, US","cover":"FEW","clouds":[{"cover":"FEW","base":20000},{"cover":"FEW","base":26000}],"fltCat":"VFR"},{"icaoId":"KAPA","receiptTime":"2026-04-18T15:56:20.970Z","obsTime":1776527580,"reportTime":"2026-04-18T16:00:00.000Z","temp":2.2,"dewp":-12.8,"wdir":250,"wspd":6,"visib":"10+","altim":1024.5,"slp":1027.5,"qcField":4,"metarType":"METAR","rawOb":"METAR KAPA 181553Z 25006KT 10SM FEW070 FEW120 02/M13 A3025 RMK AO2 SLP275 T00221128","lat":39.5599,"lon":-104.8484,"elev":1791,"name":"Denver/Centennial Arpt, CO, US","cover":"FEW","clouds":[{"cover":"FEW","base":7000},{"cover":"FEW","base":12000}],"fltCat":"VFR"},{"icaoId":"KAMA","receiptTime":"2026-04-18T15:56:21.547Z","obsTime":1776527580,"reportTime":"2026-04-18T16:00:00.000Z","temp":9.4,"dewp":-7.8,"wdir":40,"wspd":10,"wgst":17,"visib":"10+","altim":1026.5,"slp":1025.2,"qcField":4,"metarType":"METAR","rawOb":"METAR KAMA 181553Z 04010G17KT 10SM CLR 09/M08 A3031 RMK AO2 SLP252 T00941078","lat":35.2203,"lon":-101.7173,"elev":1102,"name":"Amarillo Intl Arpt, TX, US","cover":"CLR","clouds":[],"fltCat":"VFR"},{"icaoId":"KBHM","receiptTime":"2026-04-18T15:56:21.581Z","obsTime":1776527580,"reportTime":"2026-04-18T16:00:00.000Z","temp":25.6,"dewp":16.1,"wdir":"VRB","wspd":4,"visib":"10+","altim":1016.7,"slp":1015.9,"qcField":4,"metarType":"METAR","rawOb":"METAR KBHM 181553Z VRB04KT 10SM FEW040 BKN250 26/16 A3002 RMK AO2 SLP159 T02560161","lat":33.5655,"lon":-86.7449,"elev":191,"name":"Birmingham Intl, AL, US","cover":"BKN","clouds":[{"cover":"FEW","base":4000},{"cover":"BKN","base":25000}],"fltCat":"VFR"},{"icaoId":"KSWO","receiptTime":"2026-04-18T15:56:27.360Z","obsTime":1776527580,"reportTime":"2026-04-18T16:00:00.000Z","temp":11.7,"dewp":-1.7,"wdir":40,"wspd":21,"wgst":30,"visib":"10+","altim":1023.5,"slp":1023,"qcField":4,"metarType":"METAR","rawOb":"METAR KSWO 181553Z 04021G30KT 10SM CLR 12/M02 A3022 RMK AO2 PK WND 04030/1454 SLP230 T01171017","lat":36.1624,"lon":-97.0832,"elev":293,"name":"Stillwater Muni, OK, US","cover":"CLR","clouds":[],"fltCat":"VFR"},{"icaoId":"KMCI","receiptTime":"2026-04-18T15:56:22.389Z","obsTime":1776527580,"reportTime":"2026-04-18T16:00:00.000Z","temp":8.9,"dewp":-5,"wdir":340,"wspd":16,"wgst":21,"visib":"10+","altim":1021.8,"slp":1021.8,"qcField":4,"metarType":"METAR","rawOb":"METAR KMCI 181553Z 34016G21KT 10SM CLR 09/M05 A3017 RMK AO2 PK WND 33026/1513 SLP218 T00891050","lat":39.2975,"lon":-94.7309,"elev":308,"name":"Kansas City Intl, MO, US","cover":"CLR","clouds":[],"fltCat":"VFR"},{"icaoId":"KLGB","receiptTime":"2026-04-18T15:56:22.941Z","obsTime":1776527580,"reportTime":"2026-04-18T16:00:00.000Z","temp":18.9,"dewp":12.8,"wdir":30,"wspd":3,"visib":"10+","altim":1014.6,"slp":1014.4,"qcField":14,"metarType":"METAR","rawOb":"METAR KLGB 181553Z AUTO 03003KT 10SM CLR 19/13 A2996 RMK AO2 SLP144 T01890128 $","lat":33.8118,"lon":-118.1472,"elev":10,"name":"Long Beach Arpt, CA, US","cover":"CLR","clouds":[],"fltCat":"VFR"},{"icaoId":"KMLS","receiptTime":"2026-04-18T15:56:23.007Z","obsTime":1776527580,"reportTime":"2026-04-18T16:00:00.000Z","temp":5,"dewp":-5,"wdir":300,"wspd":12,"visib":"10+","altim":1020.7,"slp":1022.7,"qcField":6,"metarType":"METAR","rawOb":"METAR KMLS 181553Z AUTO 30012KT 10SM BKN110 05/M05 A3014 RMK AO2 SLP227 T00501050","lat":46.4265,"lon":-105.8834,"elev":800,"name":"Miles City/Wiley Fld, MT, US","cover":"BKN","clouds":[{"cover":"BKN","base":11000}],"fltCat":"VFR"},{"icaoId":"KABI","receiptTime":"2026-04-18T15:56:25.998Z","obsTime":1776527520,"reportTime":"2026-04-18T16:00:00.000Z","temp":10,"dewp":2.2,"wdir":10,"wspd":12,"wgst":22,"visib":"10+","altim":1022.8,"slp":1021.2,"qcField":4,"precip":0.005,"metarType":"METAR","rawOb":"METAR KABI 181552Z 01012G22KT 10SM SCT110 10/02 A3020 RMK AO2 LTG DSNT S RAB24E34 SLP212 P0000 T01000022","lat":32.4106,"lon":-99.6821,"elev":543,"name":"Abilene Rgnl, TX, US","cover":"SCT","clouds":[{"cover":"SCT","base":11000}],"fltCat":"VFR"},{"icaoId":"KABQ","receiptTime":"2026-04-18T15:56:26.009Z","obsTime":1776527520,"reportTime":"2026-04-18T16:00:00.000Z","temp":7.2,"dewp":-16.1,"wdir":350,"wspd":8,"visib":"10+","altim":1025.5,"slp":1022.8,"qcField":12,"metarType":"METAR","rawOb":"METAR KABQ 181552Z 35008KT 10SM CLR 07/M16 A3028 RMK AO2 SLP228 T00721161 $","lat":35.0419,"lon":-106.6154,"elev":1620,"name":"Albuquerque Intl, NM, US","cover":"CLR","clouds":[],"fltCat":"VFR"},{"icaoId":"KSPS","receiptTime":"2026-04-18T15:56:26.123Z","obsTime":1776527520,"reportTime":"2026-04-18T16:00:00.000Z","temp":13.9,"dewp":-1.1,"wdir":30,"wspd":18,"visib":"10+","altim":1023.5,"slp":1022.4,"qcField":14,"metarType":"METAR","rawOb":"METAR KSPS 181552Z AUTO 03018KT 10SM CLR 14/M01 A3022 RMK AO2 PK WND 01030/1520 PRESRR SLP224 T01391011 $","lat":33.9785,"lon":-98.493,"elev":310,"name":"Wichita Falls Rgnl, TX, US","cover":"CLR","clouds":[],"fltCat":"VFR"},{"icaoId":"KATL","receiptTime":"2026-04-18T15:56:21.991Z","obsTime":1776527520,"reportTime":"2026-04-18T16:00:00.000Z","temp":25.6,"dewp":16.1,"wdir":310,"wspd":6,"visib":"10+","altim":1017,"slp":1016,"qcField":4,"metarType":"METAR","rawOb":"METAR KATL 181552Z 31006KT 10SM SCT200 OVC250 26/16 A3003 RMK AO2 SLP160 VIRGA DSNT SE-S T02560161","lat":33.6297,"lon":-84.4422,"elev":309,"name":"Atlanta/Hartsfield-Jackson Intl, GA, US","cover":"OVC","clouds":[{"cover":"SCT","base":20000},{"cover":"OVC","base":25000}],"fltCat":"VFR"},{"icaoId":"KCLT","receiptTime":"2026-04-18T15:56:21.761Z","obsTime":1776527520,"reportTime":"2026-04-18T16:00:00.000Z","temp":28.9,"dewp":13.3,"wdir":220,"wspd":7,"visib":"10+","altim":1015.7,"slp":1016.1,"qcField":4,"metarType":"METAR","rawOb":"METAR KCLT 181552Z 22007KT 10SM FEW060 FEW150 FEW250 29/13 A2999 RMK AO2 SLP161 T02890133","lat":35.2225,"lon":-80.9543,"elev":223,"name":"Charlotte/Douglas Intl, NC, US","cover":"FEW","clouds":[{"cover":"FEW","base":6000},{"cover":"FEW","base":15000},{"cover":"FEW","base":25000}],"fltCat":"VFR"},{"icaoId":"KDCA","receiptTime":"2026-04-18T15:56:21.789Z","obsTime":1776527520,"reportTime":"2026-04-18T16:00:00.000Z","temp":25.6,"dewp":14.4,"wdir":0,"wspd":0,"visib":"10+","altim":1014.6,"slp":1014.6,"qcField":4,"metarType":"METAR","rawOb":"METAR KDCA 181552Z 00000KT 10SM SCT250 26/14 A2996 RMK AO2 SLP146 T02560144","lat":38.8472,"lon":-77.0345,"elev":4,"name":"Washington/Reagan-National Arpt, VA, US","cover":"SCT","clouds":[{"cover":"SCT","base":25000}],"fltCat":"VFR"},{"icaoId":"KOKC","receiptTime":"2026-04-18T15:56:27.150Z","obsTime":1776527520,"reportTime":"2026-04-18T16:00:00.000Z","temp":12.2,"dewp":-2.8,"wdir":10,"wspd":17,"wgst":27,"visib":"10+","altim":1023.1,"slp":1022.7,"qcField":12,"metarType":"METAR","rawOb":"METAR KOKC 181552Z 01017G27KT 10SM FEW120 FEW250 12/M03 A3021 RMK AO2 PK WND 01032/1502 SLP227 T01221028 $","lat":35.3843,"lon":-97.6003,"elev":391,"name":"Oklahoma City/Will Rogers Intl, OK, US","cover":"FEW","clouds":[{"cover":"FEW","base":12000},{"cover":"FEW","base":25000}],"fltCat":"VFR"},{"icaoId":"KMLF","receiptTime":"2026-04-18T15:56:26.112Z","obsTime":1776527520,"reportTime":"2026-04-18T16:00:00.000Z","temp":4.4,"dewp":-16.7,"wdir":"VRB","wspd":4,"visib":"10+","altim":1024.8,"slp":1025.2,"qcField":6,"metarType":"METAR","rawOb":"METAR KMLF 181552Z AUTO VRB04KT 10SM CLR 04/M17 A3026 RMK AO2 SLP252 T00441167","lat":38.4225,"lon":-113.0109,"elev":1537,"name":"Milford Muni, UT, US","cover":"CLR","clouds":[],"fltCat":"VFR"},{"icaoId":"KIAD","receiptTime":"2026-04-18T15:58:22.447Z","obsTime":1776527520,"reportTime":"2026-04-18T16:00:00.000Z","temp":26.7,"dewp":13.3,"wdir":130,"wspd":7,"visib":"10+","altim":1014.6,"slp":1014.2,"qcField":5,"metarType":"METAR","rawOb":"METAR KIAD 181552Z COR 13007KT 10SM BKN250 27/13 A2996 RMK AO2 SLP142 T02670133","lat":38.9348,"lon":-77.4473,"elev":90,"name":"Washington/Dulles Intl, VA, US","cover":"BKN","clouds":[{"cover":"BKN","base":25000}],"fltCat":"VFR"},{"icaoId":"KCLE","receiptTime":"2026-04-18T15:54:08.427Z","obsTime":1776527460,"reportTime":"2026-04-18T16:00:00.000Z","temp":22.8,"dewp":14.4,"wdir":230,"wspd":12,"wgst":22,"visib":"10+","altim":1005.8,"slp":1006.6,"qcField":12,"metarType":"METAR","rawOb":"METAR KCLE 181551Z 23012G22KT 10SM BKN042 BKN080 OVC230 23/14 A2970 RMK AO2 PK WND 24030/1529 SLP066 T02280144 $","lat":41.4057,"lon":-81.8519,"elev":237,"name":"Cleveland/Hopkins Intl, OH, US","cover":"OVC","clouds":[{"cover":"BKN","base":4200},{"cover":"BKN","base":8000},{"cover":"OVC","base":23000}],"fltCat":"VFR"},{"icaoId":"KBDL","receiptTime":"2026-04-18T15:54:09.417Z","obsTime":1776527460,"reportTime":"2026-04-18T16:00:00.000Z","temp":15,"dewp":9.4,"wdir":80,"wspd":8,"visib":"10+","altim":1019.4,"slp":1019.3,"qcField":4,"metarType":"METAR","rawOb":"METAR KBDL 181551Z 08008KT 10SM OVC020 15/09 A3010 RMK AO2 SLP193 T01500094","lat":41.9374,"lon":-72.682,"elev":52,"name":"Hartford/Bradley Intl, CT, US","cover":"OVC","clouds":[{"cover":"OVC","base":2000}],"fltCat":"MVFR"},{"icaoId":"KSAD","receiptTime":"2026-04-18T15:54:08.292Z","obsTime":1776527460,"reportTime":"2026-04-18T16:00:00.000Z","temp":17.8,"dewp":-8.3,"wdir":210,"wspd":3,"visib":"10+","altim":1018.4,"slp":1014.6,"qcField":6,"metarType":"METAR","rawOb":"METAR KSAD 181551Z AUTO 21003KT 10SM CLR 18/M08 A3007 RMK AO2 SLP146 T01781083","lat":32.8565,"lon":-109.636,"elev":937,"name":"Safford Rgnl, AZ, US","cover":"CLR","clouds":[],"fltCat":"VFR"},{"icaoId":"KELP","receiptTime":"2026-04-18T15:54:09.635Z","obsTime":1776527460,"reportTime":"2026-04-18T16:00:00.000Z","temp":15,"dewp":-4.4,"wdir":60,"wspd":9,"wgst":17,"visib":"10+","altim":1021.8,"slp":1016.4,"qcField":4,"metarType":"METAR","rawOb":"METAR KELP 181551Z 06009G17KT 10SM FEW150 15/M04 A3017 RMK AO2 SLP164 T01501044","lat":31.8123,"lon":-106.3774,"elev":1205,"name":"El Paso Intl, TX, US","cover":"FEW","clouds":[{"cover":"FEW","base":15000}],"fltCat":"VFR"},{"icaoId":"KIGM","receiptTime":"2026-04-18T15:54:09.761Z","obsTime":1776527460,"reportTime":"2026-04-18T16:00:00.000Z","temp":15,"dewp":-20,"wdir":350,"wspd":4,"visib":"10+","altim":1019.7,"slp":1015.3,"qcField":6,"metarType":"METAR","rawOb":"METAR KIGM 181551Z AUTO 35004KT 10SM CLR 15/M20 A3011 RMK AO2 SLP153 T01501200","lat":35.2575,"lon":-113.9341,"elev":1045,"name":"Kingman Arpt, AZ, US","cover":"CLR","clouds":[],"fltCat":"VFR"},{"icaoId":"KROW","receiptTime":"2026-04-18T15:54:08.278Z","obsTime":1776527460,"reportTime":"2026-04-18T16:00:00.000Z","temp":10,"dewp":-7.2,"wdir":350,"wspd":10,"visib":"10+","altim":1026.5,"slp":1022.4,"qcField":12,"metarType":"METAR","rawOb":"METAR KROW 181551Z 35010KT 10SM CLR 10/M07 A3031 RMK AO2 SLP224 T01001072 $","lat":33.3074,"lon":-104.5082,"elev":1105,"name":"Roswell/Ind Arpt, NM, US","cover":"CLR","clouds":[],"fltCat":"VFR"},{"icaoId":"KOXR","receiptTime":"2026-04-18T15:54:08.168Z","obsTime":1776527460,"reportTime":"2026-04-18T16:00:00.000Z","temp":18.9,"dewp":-5.6,"wdir":0,"wspd":0,"visib":"10+","altim":1014.6,"slp":1014.4,"qcField":12,"metarType":"METAR","rawOb":"METAR KOXR 181551Z 00000KT 10SM CLR 19/M06 A2996 RMK AO2 SLP144 T01891056 $","lat":34.2001,"lon":-119.2042,"elev":12,"name":"Oxnard Arpt, CA, US","cover":"CLR","clouds":[],"fltCat":"VFR"},{"icaoId":"KRDU","receiptTime":"2026-04-18T15:54:08.258Z","obsTime":1776527460,"reportTime":"2026-04-18T16:00:00.000Z","temp":30.6,"dewp":10,"wdir":190,"wspd":7,"wgst":15,"visib":"10+","altim":1015.3,"slp":1014.7,"qcField":4,"metarType":"METAR","rawOb":"METAR KRDU 181551Z 19007G15KT 150V210 10SM FEW080 SCT250 31/10 A2998 RMK AO2 SLP147 T03060100","lat":35.8923,"lon":-78.782,"elev":121,"name":"Raleigh-Durham Intl, NC, US","cover":"SCT","clouds":[{"cover":"FEW","base":8000},{"cover":"SCT","base":25000}],"fltCat":"VFR"},{"icaoId":"KPVD","receiptTime":"2026-04-18T15:54:08.213Z","obsTime":1776527460,"reportTime":"2026-04-18T16:00:00.000Z","temp":11.7,"dewp":8.9,"wdir":30,"wspd":10,"visib":"10+","altim":1020.4,"slp":1020.1,"qcField":4,"metarType":"METAR","rawOb":"METAR KPVD 181551Z 03010KT 10SM OVC012 12/09 A3013 RMK AO2 SLP201 T01170089","lat":41.7225,"lon":-71.4325,"elev":15,"name":"Providence/Green Mem, RI, US","cover":"OVC","clouds":[{"cover":"OVC","base":1200}],"fltCat":"MVFR"},{"icaoId":"KPHX","receiptTime":"2026-04-18T15:54:08.188Z","obsTime":1776527460,"reportTime":"2026-04-18T16:00:00.000Z","temp":24.4,"dewp":-11.7,"wdir":70,"wspd":14,"wgst":19,"visib":"10+","altim":1015.3,"slp":1013.7,"qcField":12,"metarType":"METAR","rawOb":"METAR KPHX 181551Z 07014G19KT 10SM CLR 24/M12 A2998 RMK AO2 SLP137 T02441117 $","lat":33.4278,"lon":-112.0037,"elev":338,"name":"Phoenix/Sky Harbor Intl, AZ, US","cover":"CLR","clouds":[],"fltCat":"VFR"},{"icaoId":"KORF","receiptTime":"2026-04-18T15:54:08.144Z","obsTime":1776527460,"reportTime":"2026-04-18T16:00:00.000Z","temp":29.4,"dewp":12.2,"wdir":"VRB","wspd":3,"visib":"10+","altim":1014.6,"slp":1014.6,"qcField":4,"metarType":"METAR","rawOb":"METAR KORF 181551Z VRB03KT 10SM CLR 29/12 A2996 RMK AO2 SLP146 T02940122","lat":36.9037,"lon":-76.1927,"elev":5,"name":"Norfolk Intl, VA, US","cover":"CLR","clouds":[],"fltCat":"VFR"},{"icaoId":"KLGA","receiptTime":"2026-04-18T15:54:08.567Z","obsTime":1776527460,"reportTime":"2026-04-18T16:00:00.000Z","temp":13.9,"dewp":9.4,"wdir":40,"wspd":13,"visib":"10+","altim":1018.7,"slp":1018.5,"qcField":12,"metarType":"METAR","rawOb":"METAR KLGA 181551Z 04013KT 10SM SCT020 SCT250 14/09 A3008 RMK AO2 SLP185 T01390094 $","lat":40.7794,"lon":-73.8803,"elev":9,"name":"New York/La Guardia Arpt, NY, US","cover":"SCT","clouds":[{"cover":"SCT","base":2000},{"cover":"SCT","base":25000}],"fltCat":"VFR"},{"icaoId":"KLGU","receiptTime":"2026-04-18T15:54:08.590Z","obsTime":1776527460,"reportTime":"2026-04-18T16:00:00.000Z","temp":1.7,"dewp":-5,"wdir":340,"wspd":3,"visib":"10+","altim":1026.5,"slp":1027.2,"qcField":6,"metarType":"METAR","rawOb":"METAR KLGU 181551Z AUTO 34003KT 10SM CLR 02/M05 A3031 RMK AO2 SLP272 T00171050","lat":41.7865,"lon":-111.8519,"elev":1359,"name":"Logan/Cache Arpt, UT, US","cover":"CLR","clouds":[],"fltCat":"VFR"},{"icaoId":"KMYL","receiptTime":"2026-04-18T15:54:08.614Z","obsTime":1776527460,"reportTime":"2026-04-18T16:00:00.000Z","temp":0,"dewp":-5.6,"wdir":0,"wspd":0,"visib":"10+","altim":1023.5,"slp":1025.9,"qcField":6,"metarType":"METAR","rawOb":"METAR KMYL 181551Z AUTO 00000KT 10SM CLR 00/M06 A3022 RMK AO2 SLP259 T00001056","lat":44.8943,"lon":-116.0998,"elev":1532,"name":"McCall Muni, ID, US","cover":"CLR","clouds":[],"fltCat":"VFR"},{"icaoId":"KPIT","receiptTime":"2026-04-18T15:54:08.643Z","obsTime":1776527460,"reportTime":"2026-04-18T16:00:00.000Z","temp":25,"dewp":9.4,"wdir":200,"wspd":12,"wgst":19,"visib":"10+","altim":1009.9,"slp":1009.8,"qcField":4,"metarType":"METAR","rawOb":"METAR KPIT 181551Z 20012G19KT 10SM FEW050 BKN190 OVC250 25/09 A2982 RMK AO2 SLP098 T02500094","lat":40.4814,"lon":-80.2083,"elev":339,"name":"Pittsburgh Intl, PA, US","cover":"OVC","clouds":[{"cover":"FEW","base":5000},{"cover":"BKN","base":19000},{"cover":"OVC","base":25000}],"fltCat":"VFR"},{"icaoId":"KJFK","receiptTime":"2026-04-18T15:54:08.550Z","obsTime":1776527460,"reportTime":"2026-04-18T16:00:00.000Z","temp":15.6,"dewp":10.6,"wdir":140,"wspd":12,"visib":"10+","altim":1019,"slp":1018.8,"qcField":4,"metarType":"METAR","rawOb":"METAR KJFK 181551Z 14012KT 10SM SCT025 BKN250 16/11 A3009 RMK AO2 SLP188 T01560106","lat":40.6392,"lon":-73.7639,"elev":3,"name":"New York/JF Kennedy Intl, NY, US","cover":"BKN","clouds":[{"cover":"SCT","base":2500},{"cover":"BKN","base":25000}],"fltCat":"VFR"},{"icaoId":"KSAN","receiptTime":"2026-04-18T15:54:09.093Z","obsTime":1776527460,"reportTime":"2026-04-18T16:00:00.000Z","temp":18.3,"dewp":12.2,"wdir":280,"wspd":3,"visib":"10+","altim":1015.3,"slp":1015,"qcField":12,"metarType":"METAR","rawOb":"METAR KSAN 181551Z 28003KT 10SM CLR 18/12 A2998 RMK AO2 SLP150 T01830122 $","lat":32.7364,"lon":-117.1973,"elev":3,"name":"San Diego Intl Arpt, CA, US","cover":"CLR","clouds":[],"fltCat":"VFR"},{"icaoId":"KSTL","receiptTime":"2026-04-18T15:54:09.240Z","obsTime":1776527460,"reportTime":"2026-04-18T16:00:00.000Z","temp":10,"dewp":3.9,"wdir":320,"wspd":14,"visib":"10+","altim":1017.4,"slp":1017,"qcField":12,"metarType":"METAR","rawOb":"METAR KSTL 181551Z 32014KT 10SM SCT025 BKN050 10/04 A3004 RMK AO2 SLP170 T01000039 $","lat":38.7525,"lon":-90.3734,"elev":163,"name":"St Louis/Lambert Intl, MO, US","cover":"BKN","clouds":[{"cover":"SCT","base":2500},{"cover":"BKN","base":5000}],"fltCat":"VFR"},{"icaoId":"KEWR","receiptTime":"2026-04-18T15:54:08.503Z","obsTime":1776527460,"reportTime":"2026-04-18T16:00:00.000Z","temp":14.4,"dewp":9.4,"wdir":160,"wspd":11,"visib":"10+","altim":1018.4,"slp":1018.3,"qcField":4,"metarType":"METAR","rawOb":"METAR KEWR 181551Z 16011KT 10SM FEW020 FEW030 SCT250 14/09 A3007 RMK AO2 SLP183 T01440094","lat":40.6828,"lon":-74.1692,"elev":2,"name":"Newark Intl, NJ, US","cover":"SCT","clouds":[{"cover":"FEW","base":2000},{"cover":"FEW","base":3000},{"cover":"SCT","base":25000}],"fltCat":"VFR"},{"icaoId":"KVNY","receiptTime":"2026-04-18T15:54:09.309Z","obsTime":1776527460,"reportTime":"2026-04-18T16:00:00.000Z","temp":19.4,"dewp":-9.4,"wdir":0,"wspd":0,"visib":"10+","altim":1015,"slp":1014.2,"qcField":12,"metarType":"METAR","rawOb":"METAR KVNY 181551Z 00000KT 10SM CLR 19/M09 A2997 RMK AO2 SLP142 T01941094 $","lat":34.2121,"lon":-118.4915,"elev":241,"name":"Van Nuys Arpt, CA, US","cover":"CLR","clouds":[],"fltCat":"VFR"},{"icaoId":"KORD","receiptTime":"2026-04-18T15:54:08.124Z","obsTime":1776527460,"reportTime":"2026-04-18T16:00:00.000Z","temp":7.2,"dewp":0,"wdir":280,"wspd":13,"wgst":24,"visib":"10+","altim":1011.3,"slp":1011.1,"qcField":12,"metarType":"METAR","rawOb":"METAR KORD 181551Z 28013G24KT 10SM SCT026 BKN250 07/00 A2986 RMK AO2 SLP111 T00720000 $","lat":41.9602,"lon":-87.9316,"elev":202,"name":"Chicago/O'Hare Intl, IL, US","cover":"BKN","clouds":[{"cover":"SCT","base":2600},{"cover":"BKN","base":25000}],"fltCat":"VFR"},{"icaoId":"KADM","receiptTime":"2026-04-18T15:51:21.514Z","obsTime":1776527400,"reportTime":"2026-04-18T16:00:00.000Z","temp":13,"dewp":0,"wdir":20,"wspd":11,"wgst":21,"visib":"10+","altim":1021.8,"qcField":0,"metarType":"METAR","rawOb":"METAR KADM 181550Z 02011G21KT 10SM CLR 13/00 A3017","lat":34.3007,"lon":-97.0089,"elev":223,"name":"Ardmore Muni, OK, US","cover":"CLR","clouds":[],"fltCat":"VFR"},{"icaoId":"KAEG","receiptTime":"2026-04-18T15:52:41.042Z","obsTime":1776527400,"reportTime":"2026-04-18T16:00:00.000Z","temp":8,"dewp":-20,"wdir":350,"wspd":13,"wgst":20,"visib":"10+","altim":1025.5,"qcField":0,"metarType":"METAR","rawOb":"METAR KAEG 181550Z 35013G20KT 10SM CLR 08/M20 A3028","lat":35.15,"lon":-106.7929,"elev":1771,"name":"Albuquerque/Double Eagle Arpt, NM, US","cover":"CLR","clouds":[],"fltCat":"VFR"},{"icaoId":"KBJC","receiptTime":"2026-04-18T15:51:21.645Z","obsTime":1776527400,"reportTime":"2026-04-18T16:00:00.000Z","temp":6,"dewp":-14,"wdir":220,"wspd":9,"visib":"10+","altim":1023.8,"qcField":0,"metarType":"METAR","rawOb":"METAR KBJC 181550Z 22009KT 10SM CLR 06/M14 A3023","lat":39.9008,"lon":-105.1042,"elev":1694,"name":"Rocky Mtn Metro, CO, US","cover":"CLR","clouds":[],"fltCat":"VFR"},{"icaoId":"KIWA","receiptTime":"2026-04-18T15:50:52.800Z","obsTime":1776527340,"reportTime":"2026-04-18T16:00:00.000Z","temp":22,"dewp":-6,"wdir":0,"wspd":0,"visib":"10+","altim":1016,"qcField":0,"metarType":"METAR","rawOb":"METAR KIWA 181549Z 00000KT 10SM CLR 22/M06 A3000","lat":33.3008,"lon":-111.6437,"elev":420,"name":"Phoenix/Mesa Gateway Arpt, AZ, US","cover":"CLR","clouds":[],"fltCat":"VFR"},{"icaoId":"KSUN","receiptTime":"2026-04-18T15:58:41.494Z","obsTime":1776527220,"reportTime":"2026-04-18T16:00:00.000Z","temp":2,"dewp":-12,"wdir":320,"wspd":6,"visib":"10+","altim":1025.8,"qcField":0,"metarType":"METAR","rawOb":"METAR KSUN 181547Z 32006KT 10SM CLR 02/M12 A3029","lat":43.4969,"lon":-114.2923,"elev":1619,"name":"Hailey/Friedman Mem, ID, US","cover":"CLR","clouds":[],"fltCat":"VFR"},{"icaoId":"KGYR","receiptTime":"2026-04-18T15:49:11.155Z","obsTime":1776527220,"reportTime":"2026-04-18T16:00:00.000Z","temp":23,"dewp":-9,"wdir":40,"wspd":8,"visib":"10+","altim":1015.7,"qcField":0,"metarType":"METAR","rawOb":"METAR KGYR 181547Z 04008KT 10SM SKC 23/M09 A2999","lat":33.428,"lon":-112.368,"elev":292,"name":"Phoenix/Goodyear Muni, AZ, US","cover":"SKC","clouds":[],"fltCat":"VFR"},{"icaoId":"KCHD","receiptTime":"2026-04-18T15:47:11.591Z","obsTime":1776527220,"reportTime":"2026-04-18T16:00:00.000Z","temp":22,"dewp":-7,"wdir":40,"wspd":4,"visib":"10+","altim":1015.7,"qcField":0,"metarType":"METAR","rawOb":"METAR KCHD 181547Z 04004KT 10SM CLR 22/M07 A2999","lat":33.2669,"lon":-111.8086,"elev":378,"name":"Chandler Muni, AZ, US","cover":"CLR","clouds":[],"fltCat":"VFR"},{"icaoId":"KRYN","receiptTime":"2026-04-18T15:46:00.588Z","obsTime":1776527100,"reportTime":"2026-04-18T16:00:00.000Z","temp":21,"dewp":-9,"wdir":60,"wspd":3,"visib":"10+","altim":1016,"qcField":0,"metarType":"METAR","rawOb":"METAR KRYN 181545Z 06003KT 10SM CLR 21/M09 A3000","lat":32.1418,"lon":-111.1767,"elev":731,"name":"Tucson/Ryan Fld, AZ, US","cover":"CLR","clouds":[],"fltCat":"VFR"},{"icaoId":"KGEU","receiptTime":"2026-04-18T15:53:12.219Z","obsTime":1776526860,"reportTime":"2026-04-18T15:41:00.000Z","temp":24,"dewp":-14,"wdir":30,"wspd":7,"visib":"10+","altim":1015,"qcField":0,"metarType":"METAR","rawOb":"METAR KGEU 181541Z 03007KT 10SM CLR 24/M14 A2997","lat":33.528,"lon":-112.293,"elev":319,"name":"Glendale Muni, AZ, US","cover":"CLR","clouds":[],"fltCat":"VFR"}]