[{"icaoId":"KBVU","receiptTime":"2026-04-12T19:56:28.959Z","obsTime":1776023700,"reportTime":"2026-04-12T20:00:00.000Z","temp":23,"dewp":-1,"wdir":200,"wspd":13,"wgst":21,"visib":"10+","altim":1010.2,"qcField":6,"metarType":"METAR","rawOb":"METAR KBVU 121955Z AUTO 20013G21KT 10SM CLR 23/M01 A2983 RMK AO2","lat":35.9489,"lon":-114.8633,"elev":654,"name":"Boulder City Muni, NV, US","cover":"CLR","clouds":[],"fltCat":"VFR"},{"icaoId":"KLRU","receiptTime":"2026-04-12T19:57:06.675Z","obsTime":1776023700,"reportTime":"2026-04-12T20:00:00.000Z","temp":24.4,"dewp":-5.1,"wdir":230,"wspd":10,"wgst":19,"visib":"10+","altim":1018.4,"qcField":6,"metarType":"METAR","rawOb":"METAR KLRU 121955Z AUTO 23010G19KT 10SM CLR 24/M05 A3007 RMK AO2 T02441051","lat":32.2884,"lon":-106.9131,"elev":1355,"name":"Las Cruces Intl, NM, US","cover":"CLR","clouds":[],"fltCat":"VFR"},{"icaoId":"KSOW","receiptTime":"2026-04-12T19:57:03.503Z","obsTime":1776023700,"reportTime":"2026-04-12T20:00:00.000Z","temp":16,"dewp":-7,"wdir":200,"wspd":26,"wgst":36,"visib":"10+","altim":1018.4,"qcField":6,"metarType":"METAR","rawOb":"METAR KSOW 121955Z AUTO 20026G36KT 10SM CLR 16/M07 A3007 RMK AO2","lat":34.2686,"lon":-110.0019,"elev":1954,"name":"Show Low Muni, AZ, US","cover":"CLR","clouds":[],"fltCat":"VFR"},{"icaoId":"KDSM","receiptTime":"2026-04-12T19:57:05.608Z","obsTime":1776023640,"reportTime":"2026-04-12T20:00:00.000Z","temp":17.8,"dewp":16.7,"wdir":190,"wspd":12,"visib":6,"altim":1007.2,"slp":1006.8,"qcField":4,"wxString":"-RA BR","precip":0.06,"metarType":"METAR","rawOb":"METAR KDSM 121954Z 19012KT 6SM -RA BR OVC090 18/17 A2974 RMK AO2 SLP068 P0006 T01780167","lat":41.5339,"lon":-93.6531,"elev":286,"name":"Des Moines Intl, IA, US","cover":"OVC","clouds":[{"cover":"OVC","base":9000}],"fltCat":"VFR"},{"icaoId":"KOLS","receiptTime":"2026-04-12T19:57:07.281Z","obsTime":1776023640,"reportTime":"2026-04-12T20:00:00.000Z","temp":23.3,"dewp":-1.1,"wdir":230,"wspd":18,"wgst":30,"visib":"10+","altim":1018.4,"slp":1012.8,"qcField":6,"metarType":"METAR","rawOb":"METAR KOLS 121954Z AUTO 23018G30KT 10SM CLR 23/M01 A3007 RMK AO2 PK WND 21031/1924 SLP128 T02331011","lat":31.4208,"lon":-110.8465,"elev":1194,"name":"Nogales Intl, AZ, US","cover":"CLR","clouds":[],"fltCat":"VFR"},{"icaoId":"KRIC","receiptTime":"2026-04-12T19:57:07.619Z","obsTime":1776023640,"reportTime":"2026-04-12T20:00:00.000Z","temp":23.3,"dewp":6.1,"wdir":150,"wspd":13,"wgst":18,"visib":"10+","altim":1027.2,"slp":1027.6,"qcField":12,"metarType":"METAR","rawOb":"METAR KRIC 121954Z 15013G18KT 10SM FEW049 OVC300 23/06 A3033 RMK AO2 SLP276 T02330061 $","lat":37.5115,"lon":-77.3234,"elev":51,"name":"Richmond Intl, VA, US","cover":"OVC","clouds":[{"cover":"FEW","base":4900},{"cover":"OVC","base":30000}],"fltCat":"VFR"},{"icaoId":"KFFZ","receiptTime":"2026-04-12T19:57:04.636Z","obsTime":1776023640,"reportTime":"2026-04-12T20:00:00.000Z","temp":26.7,"dewp":0.6,"wdir":240,"wspd":11,"visib":"10+","altim":1013,"slp":1010.9,"qcField":4,"metarType":"METAR","rawOb":"METAR KFFZ 121954Z 24011KT 10SM CLR 27/01 A2991 RMK AO2 SLP109 T02670006","lat":33.4659,"lon":-111.7212,"elev":420,"name":"Mesa/Falcon Fld, AZ, US","cover":"CLR","clouds":[],"fltCat":"VFR"},{"icaoId":"KBWI","receiptTime":"2026-04-12T19:57:05.134Z","obsTime":1776023640,"reportTime":"2026-04-12T20:00:00.000Z","temp":18.9,"dewp":4.4,"wdir":130,"wspd":11,"wgst":20,"visib":"10+","altim":1026.8,"slp":1026.8,"qcField":4,"metarType":"METAR","rawOb":"METAR KBWI 121954Z 13011G20KT 10SM BKN250 19/04 A3032 RMK AO2 SLP268 T01890044","lat":39.1733,"lon":-76.684,"elev":42,"name":"Baltimore-Washington Intl, MD, US","cover":"BKN","clouds":[{"cover":"BKN","base":25000}],"fltCat":"VFR"},{"icaoId":"KGCN","receiptTime":"2026-04-12T19:57:04.810Z","obsTime":1776023640,"reportTime":"2026-04-12T20:00:00.000Z","temp":14.4,"dewp":-5,"wdir":230,"wspd":22,"wgst":37,"visib":"10+","altim":1016,"slp":1011.5,"qcField":4,"metarType":"METAR","rawOb":"METAR KGCN 121954Z 23022G37KT 10SM FEW070 14/M05 A3000 RMK AO2 PK WND 21042/1934 SLP115 T01441050","lat":35.9458,"lon":-112.1554,"elev":1993,"name":"Grand Canyon Park Arpt, AZ, US","cover":"FEW","clouds":[{"cover":"FEW","base":7000}],"fltCat":"VFR"},{"icaoId":"KGSO","receiptTime":"2026-04-12T19:57:04.864Z","obsTime":1776023640,"reportTime":"2026-04-12T20:00:00.000Z","temp":25.6,"dewp":11.7,"wdir":200,"wspd":10,"visib":"10+","altim":1026.2,"slp":1025.2,"qcField":12,"metarType":"METAR","rawOb":"METAR KGSO 121954Z 20010KT 10SM FEW060 OVC250 26/12 A3030 RMK AO2 SLP252 T02560117 $","lat":36.0969,"lon":-79.9432,"elev":275,"name":"Greensboro Intl, NC, US","cover":"OVC","clouds":[{"cover":"FEW","base":6000},{"cover":"OVC","base":25000}],"fltCat":"VFR"},{"icaoId":"KBOS","receiptTime":"2026-04-12T19:57:04.559Z","obsTime":1776023640,"reportTime":"2026-04-12T20:00:00.000Z","temp":8.3,"dewp":-2.2,"wdir":110,"wspd":14,"visib":"10+","altim":1030.6,"slp":1030.4,"qcField":4,"metarType":"METAR","rawOb":"METAR KBOS 121954Z 11014KT 10SM FEW080 BKN130 OVC220 08/M02 A3043 RMK AO2 SLP304 T00831022","lat":42.3606,"lon":-71.0097,"elev":4,"name":"Boston/Logan Intl, MA, US","cover":"OVC","clouds":[{"cover":"FEW","base":8000},{"cover":"BKN","base":13000},{"cover":"OVC","base":22000}],"fltCat":"VFR"},{"icaoId":"KPHL","receiptTime":"2026-04-12T19:57:07.383Z","obsTime":1776023640,"reportTime":"2026-04-12T20:00:00.000Z","temp":18.3,"dewp":2.2,"wdir":180,"wspd":11,"visib":"10+","altim":1028.5,"slp":1028.5,"qcField":12,"metarType":"METAR","rawOb":"METAR KPHL 121954Z 18011KT 10SM FEW110 SCT190 BKN350 18/02 A3037 RMK AO2 SLP285 T01830022 $","lat":39.8733,"lon":-75.2268,"elev":2,"name":"Philadelphia Intl, PA, US","cover":"BKN","clouds":[{"cover":"FEW","base":11000},{"cover":"SCT","base":19000},{"cover":"BKN","base":35000}],"fltCat":"VFR"},{"icaoId":"KRKS","receiptTime":"2026-04-12T19:57:07.637Z","obsTime":1776023640,"reportTime":"2026-04-12T20:00:00.000Z","temp":16.1,"dewp":-7.8,"wdir":210,"wspd":19,"wgst":37,"visib":"10+","altim":1008.5,"slp":1004.1,"qcField":6,"metarType":"METAR","rawOb":"METAR KRKS 121954Z AUTO 21019G37KT 10SM FEW090 16/M08 A2978 RMK AO2 PK WND 19037/1949 SLP041 T01611078","lat":41.5947,"lon":-109.0529,"elev":2062,"name":"Rock Springs/SW Wyoming Rgnl, WY, US","cover":"FEW","clouds":[{"cover":"FEW","base":9000}],"fltCat":"VFR"},{"icaoId":"KIND","receiptTime":"2026-04-12T19:57:06.169Z","obsTime":1776023640,"reportTime":"2026-04-12T20:00:00.000Z","temp":25.6,"dewp":11.7,"wdir":200,"wspd":15,"visib":"10+","altim":1017.7,"slp":1017.1,"qcField":4,"metarType":"METAR","rawOb":"METAR KIND 121954Z 20015KT 10SM SCT065 BKN090 BKN250 26/12 A3005 RMK AO2 PK WND 23028/1923 SLP171 T02560117","lat":39.7252,"lon":-86.2816,"elev":242,"name":"Indianapolis Intl, IN, US","cover":"BKN","clouds":[{"cover":"SCT","base":6500},{"cover":"BKN","base":9000},{"cover":"BKN","base":25000}],"fltCat":"VFR"},{"icaoId":"KBUF","receiptTime":"2026-04-12T19:57:08.190Z","obsTime":1776023640,"reportTime":"2026-04-12T20:00:00.000Z","temp":16.7,"dewp":3.9,"wdir":170,"wspd":7,"visib":"10+","altim":1018.7,"slp":1019,"qcField":12,"precip":0.005,"metarType":"METAR","rawOb":"METAR KBUF 121954Z 17007KT 10SM SCT070 BKN080 OVC100 17/04 A3008 RMK AO2 RAE1855 SLP190 P0000 T01670039 $","lat":42.94,"lon":-78.7361,"elev":217,"name":"Buffalo-Niagara Intl, NY, US","cover":"OVC","clouds":[{"cover":"SCT","base":7000},{"cover":"BKN","base":8000},{"cover":"OVC","base":10000}],"fltCat":"VFR"},{"icaoId":"KBFL","receiptTime":"2026-04-12T19:57:04.520Z","obsTime":1776023640,"reportTime":"2026-04-12T20:00:00.000Z","temp":16.7,"dewp":7.2,"wdir":320,"wspd":13,"visib":"10+","altim":1015,"slp":1014.6,"qcField":12,"metarType":"METAR","rawOb":"METAR KBFL 121954Z 32013KT 10SM FEW050 BKN065 BKN090 17/07 A2997 RMK AO2 SLP146 T01670072 $","lat":35.4342,"lon":-119.0552,"elev":146,"name":"Bakersfield/Meadows Arpt, CA, US","cover":"BKN","clouds":[{"cover":"FEW","base":5000},{"cover":"BKN","base":6500},{"cover":"BKN","base":9000}],"fltCat":"VFR"},{"icaoId":"KCOS","receiptTime":"2026-04-12T19:57:05.388Z","obsTime":1776023640,"reportTime":"2026-04-12T20:00:00.000Z","temp":20.6,"dewp":-7.8,"wdir":170,"wspd":12,"wgst":20,"visib":"10+","altim":1010.6,"slp":1004.6,"qcField":4,"metarType":"METAR","rawOb":"METAR KCOS 121954Z 17012G20KT 10SM FEW095 FEW180 BKN220 21/M08 A2984 RMK AO2 PK WND 22029/1904 SLP046 CCSL SW T02061078","lat":38.8095,"lon":-104.6887,"elev":1886,"name":"Colorado Spring Arpt, CO, US","cover":"BKN","clouds":[{"cover":"FEW","base":9500},{"cover":"FEW","base":18000},{"cover":"BKN","base":22000}],"fltCat":"VFR"},{"icaoId":"KSJN","receiptTime":"2026-04-12T19:57:03.462Z","obsTime":1776023640,"reportTime":"2026-04-12T20:00:00.000Z","temp":20,"dewp":-8.3,"wdir":230,"wspd":26,"wgst":38,"visib":"10+","altim":1015.3,"slp":1008.6,"qcField":6,"metarType":"METAR","rawOb":"METAR KSJN 121954Z AUTO 23026G38KT 10SM CLR 20/M08 A2998 RMK AO2 PK WND 24038/1949 SLP086 T02001083","lat":34.5184,"lon":-109.3801,"elev":1747,"name":"St Johns Ind Arpt, AZ, US","cover":"CLR","clouds":[],"fltCat":"VFR"},{"icaoId":"KROC","receiptTime":"2026-04-12T19:56:56.100Z","obsTime":1776023640,"reportTime":"2026-04-12T20:00:00.000Z","temp":12.2,"dewp":2.8,"wdir":110,"wspd":7,"visib":"10+","altim":1020.4,"slp":1020.9,"qcField":4,"precip":0.005,"metarType":"METAR","rawOb":"METAR KROC 121954Z 11007KT 10SM BKN055 OVC095 12/03 A3013 RMK AO2 RAE47 PRESFR SLP209 P0000 T01220028","lat":43.1172,"lon":-77.6754,"elev":166,"name":"Rochester Intl Arpt, NY, US","cover":"OVC","clouds":[{"cover":"BKN","base":5500},{"cover":"OVC","base":9500}],"fltCat":"VFR"},{"icaoId":"KSYR","receiptTime":"2026-04-12T19:57:03.601Z","obsTime":1776023640,"reportTime":"2026-04-12T20:00:00.000Z","temp":15,"dewp":0,"wdir":170,"wspd":7,"visib":"10+","altim":1023.1,"slp":1022.9,"qcField":12,"metarType":"METAR","rawOb":"METAR KSYR 121954Z 17007KT 10SM OVC085 15/00 A3021 RMK AO2 SLP229 T01500000 $","lat":43.1111,"lon":-76.1038,"elev":125,"name":"Syracuse/Hancock Intl, NY, US","cover":"OVC","clouds":[{"cover":"OVC","base":8500}],"fltCat":"VFR"},{"icaoId":"KAPC","receiptTime":"2026-04-12T19:57:04.410Z","obsTime":1776023640,"reportTime":"2026-04-12T20:00:00.000Z","temp":12.2,"dewp":10.6,"wdir":180,"wspd":16,"wgst":21,"visib":8,"altim":1012.3,"slp":1011.3,"qcField":4,"wxString":"-RA","precip":0.05,"metarType":"METAR","rawOb":"METAR KAPC 121954Z 18016G21KT 8SM -RA BKN020 OVC045 12/11 A2989 RMK AO2 PK WND 20030/1938 SLP113 P0005 T01220106","lat":38.2075,"lon":-122.2804,"elev":5,"name":"Napa Cnty Arpt, CA, US","cover":"OVC","clouds":[{"cover":"BKN","base":2000},{"cover":"OVC","base":4500}],"fltCat":"MVFR"},{"icaoId":"KBTV","receiptTime":"2026-04-12T19:57:05.102Z","obsTime":1776023640,"reportTime":"2026-04-12T20:00:00.000Z","temp":10,"dewp":-5.6,"wdir":210,"wspd":10,"visib":"10+","altim":1027.5,"slp":1027.6,"qcField":4,"metarType":"METAR","rawOb":"METAR KBTV 121954Z 21010KT 10SM SCT080 OVC100 10/M06 A3034 RMK AO2 SLP276 T01001056","lat":44.4682,"lon":-73.1499,"elev":101,"name":"Burlington Intl, VT, US","cover":"OVC","clouds":[{"cover":"SCT","base":8000},{"cover":"OVC","base":10000}],"fltCat":"VFR"},{"icaoId":"KMEM","receiptTime":"2026-04-12T19:57:06.882Z","obsTime":1776023640,"reportTime":"2026-04-12T20:00:00.000Z","temp":26.7,"dewp":10.6,"wdir":190,"wspd":19,"wgst":29,"visib":"10+","altim":1019.7,"slp":1019.4,"qcField":12,"metarType":"METAR","rawOb":"METAR KMEM 121954Z 19019G29KT 10SM SCT080 BKN150 27/11 A3011 RMK AO2 PK WND 19029/1950 SLP194 T02670106 $","lat":35.0564,"lon":-89.9864,"elev":78,"name":"Memphis Intl, TN, US","cover":"BKN","clouds":[{"cover":"SCT","base":8000},{"cover":"BKN","base":15000}],"fltCat":"VFR"},{"icaoId":"KPRC","receiptTime":"2026-04-12T19:56:43.774Z","obsTime":1776023580,"reportTime":"2026-04-12T20:00:00.000Z","temp":17.2,"dewp":-1.7,"wdir":190,"wspd":18,"wgst":28,"visib":"10+","altim":1016.3,"slp":1010.5,"qcField":4,"metarType":"METAR","rawOb":"METAR KPRC 121953Z 19018G28KT 10SM CLR 17/M02 A3001 RMK AO2 PK WND 20033/1902 SLP105 T01721017","lat":34.6491,"lon":-112.4223,"elev":1528,"name":"Prescott/Love Fld, AZ, US","cover":"CLR","clouds":[],"fltCat":"VFR"},{"icaoId":"KMCO","receiptTime":"2026-04-12T19:56:39.669Z","obsTime":1776023580,"reportTime":"2026-04-12T20:00:00.000Z","temp":26.7,"dewp":12.2,"wdir":110,"wspd":13,"wgst":20,"visib":"10+","altim":1025.5,"slp":1025.4,"qcField":4,"metarType":"METAR","rawOb":"METAR KMCO 121953Z 11013G20KT 10SM FEW050 27/12 A3028 RMK AO2 SLP254 T02670122","lat":28.4182,"lon":-81.3241,"elev":27,"name":"Orlando Intl, FL, US","cover":"FEW","clouds":[{"cover":"FEW","base":5000}],"fltCat":"VFR"},{"icaoId":"KBUR","receiptTime":"2026-04-12T19:56:39.343Z","obsTime":1776023580,"reportTime":"2026-04-12T20:00:00.000Z","temp":16.1,"dewp":11.1,"wdir":150,"wspd":6,"visib":"10+","altim":1015.7,"slp":1014.8,"qcField":4,"precip":0.005,"metarType":"METAR","rawOb":"METAR KBUR 121953Z 15006KT 10SM FEW033 BKN048 BKN070 16/11 A2999 RMK AO2 RAE15B38E51 SLP148 P0000 T01610111","lat":34.1996,"lon":-118.3654,"elev":221,"name":"Burbank/Bob Hope Arpt, CA, US","cover":"BKN","clouds":[{"cover":"FEW","base":3300},{"cover":"BKN","base":4800},{"cover":"BKN","base":7000}],"fltCat":"VFR"},{"icaoId":"KFUL","receiptTime":"2026-04-12T19:56:43.545Z","obsTime":1776023580,"reportTime":"2026-04-12T20:00:00.000Z","temp":21.1,"dewp":8.9,"wdir":260,"wspd":8,"visib":"10+","altim":1015.3,"slp":1015,"qcField":4,"metarType":"METAR","rawOb":"METAR KFUL 121953Z 26008KT 10SM FEW047 FEW100 21/09 A2998 RMK AO2 SLP150 T02110089","lat":33.8715,"lon":-117.9856,"elev":23,"name":"Fullerton Muni, CA, US","cover":"FEW","clouds":[{"cover":"FEW","base":4700},{"cover":"FEW","base":10000}],"fltCat":"VFR"},{"icaoId":"KDVT","receiptTime":"2026-04-12T19:56:43.113Z","obsTime":1776023580,"reportTime":"2026-04-12T20:00:00.000Z","temp":26.7,"dewp":1.1,"wdir":"VRB","wspd":4,"visib":"10+","altim":1013.3,"slp":1011.3,"qcField":12,"metarType":"METAR","rawOb":"METAR KDVT 121953Z VRB04KT 10SM CLR 27/01 A2992 RMK AO2 SLP113 T02670011 $","lat":33.6902,"lon":-112.0662,"elev":454,"name":"Phoenix/Deer Valley Arpt, AZ, US","cover":"CLR","clouds":[],"fltCat":"VFR"},{"icaoId":"KSHR","receiptTime":"2026-04-12T19:56:40.747Z","obsTime":1776023580,"reportTime":"2026-04-12T20:00:00.000Z","temp":17.8,"dewp":1.1,"wdir":"VRB","wspd":3,"visib":"10+","altim":1004.5,"slp":1002.6,"qcField":6,"metarType":"METAR","rawOb":"METAR KSHR 121953Z AUTO VRB03KT 10SM CLR 18/01 A2966 RMK AO2 SLP026 T01780011","lat":44.7603,"lon":-106.9741,"elev":1212,"name":"Sheridan Cnty Arpt, WY, US","cover":"CLR","clouds":[],"fltCat":"VFR"},{"icaoId":"KLAW","receiptTime":"2026-04-12T19:56:45.328Z","obsTime":1776023580,"reportTime":"2026-04-12T20:00:00.000Z","temp":27.2,"dewp":18.3,"wdir":200,"wspd":13,"wgst":24,"visib":"10+","altim":1012.3,"slp":1011.1,"qcField":12,"metarType":"METAR","rawOb":"METAR KLAW 121953Z 20013G24KT 10SM FEW039 27/18 A2989 RMK AO2 SLP111 T02720183 $","lat":34.5577,"lon":-98.4172,"elev":328,"name":"Lawton-Fort Sill Rgnl, OK, US","cover":"FEW","clouds":[{"cover":"FEW","base":3900}],"fltCat":"VFR"},{"icaoId":"KOAK","receiptTime":"2026-04-12T19:56:37.954Z","obsTime":1776023580,"reportTime":"2026-04-12T20:00:00.000Z","temp":11.7,"dewp":9.4,"wdir":220,"wspd":15,"wgst":27,"visib":5,"altim":1014,"slp":1013.6,"qcField":12,"wxString":"RA BR","precip":0.06,"metarType":"METAR","rawOb":"METAR KOAK 121953Z 22015G27KT 5SM R30/3000VP6000FT RA BR BKN024 OVC050 12/09 A2994 RMK AO2 PK WND 17027/1910 RAE09B31 SLP136 P0006 T01170094 $","lat":37.7178,"lon":-122.233,"elev":3,"name":"Oakland Intl, CA, US","cover":"OVC","clouds":[{"cover":"BKN","base":2400},{"cover":"OVC","base":5000}],"fltCat":"MVFR"},{"icaoId":"KMCI","receiptTime":"2026-04-12T19:56:44.492Z","obsTime":1776023580,"reportTime":"2026-04-12T20:00:00.000Z","temp":17.8,"dewp":16.7,"wdir":190,"wspd":13,"visib":"10+","altim":1008.9,"slp":1008.1,"qcField":4,"wxString":"-RA","precip":0.06,"metarType":"METAR","rawOb":"METAR KMCI 121953Z 19013KT 10SM -RA BKN014 OVC019 18/17 A2979 RMK AO2 SLP081 P0006 T01780167","lat":39.2975,"lon":-94.7309,"elev":308,"name":"Kansas City Intl, MO, US","cover":"OVC","clouds":[{"cover":"BKN","base":1400},{"cover":"OVC","base":1900}],"fltCat":"MVFR"},{"icaoId":"KDMN","receiptTime":"2026-04-12T19:56:42.485Z","obsTime":1776023580,"reportTime":"2026-04-12T20:00:00.000Z","temp":26.1,"dewp":-3.3,"wdir":260,"wspd":16,"wgst":30,"visib":"10+","altim":1017.7,"slp":1011.1,"qcField":6,"metarType":"METAR","rawOb":"METAR KDMN 121953Z AUTO 26016G30KT 10SM CLR 26/M03 A3005 RMK AO2 PK WND 26030/1947 SLP111 T02611033","lat":32.2592,"lon":-107.7206,"elev":1310,"name":"Deming Muni, NM, US","cover":"CLR","clouds":[],"fltCat":"VFR"},{"icaoId":"KVEL","receiptTime":"2026-04-12T19:56:45.636Z","obsTime":1776023580,"reportTime":"2026-04-12T20:00:00.000Z","temp":17.8,"dewp":-8.3,"wdir":220,"wspd":11,"visib":"10+","altim":1008.5,"slp":1004.7,"qcField":6,"metarType":"METAR","rawOb":"METAR KVEL 121953Z AUTO 22011KT 10SM SCT110 18/M08 A2978 RMK AO2 PK WND 25026/1913 SLP047 T01781083","lat":40.4429,"lon":-109.5128,"elev":1604,"name":"Vernal Rgnl, UT, US","cover":"SCT","clouds":[{"cover":"SCT","base":11000}],"fltCat":"VFR"},{"icaoId":"KLOL","receiptTime":"2026-04-12T19:56:37.646Z","obsTime":1776023580,"reportTime":"2026-04-12T20:00:00.000Z","temp":12.2,"dewp":-7.8,"wdir":230,"wspd":15,"wgst":24,"visib":"10+","altim":1008.9,"slp":1007.6,"qcField":14,"metarType":"METAR","rawOb":"METAR KLOL 121953Z AUTO 23015G24KT 10SM CLR 12/M08 A2979 RMK AO2 SLP076 T01221078 $","lat":40.0684,"lon":-118.5702,"elev":1191,"name":"Lovelock/Derby Fld, NV, US","cover":"CLR","clouds":[],"fltCat":"VFR"},{"icaoId":"KLAX","receiptTime":"2026-04-12T19:56:42.672Z","obsTime":1776023580,"reportTime":"2026-04-12T20:00:00.000Z","temp":18.9,"dewp":7.2,"wdir":260,"wspd":12,"visib":"10+","altim":1016,"slp":1015.7,"qcField":12,"precip":0.005,"metarType":"METAR","rawOb":"METAR KLAX 121953Z 26012KT 10SM FEW028 SCT050 BKN070 19/07 A3000 RMK AO2 RAB1857E06 SLP157 P0000 T01890072 $","lat":33.9382,"lon":-118.3866,"elev":30,"name":"Los Angeles Intl, CA, US","cover":"BKN","clouds":[{"cover":"FEW","base":2800},{"cover":"SCT","base":5000},{"cover":"BKN","base":7000}],"fltCat":"VFR"},{"icaoId":"KPNC","receiptTime":"2026-04-12T19:56:24.861Z","obsTime":1776023580,"reportTime":"2026-04-12T20:00:00.000Z","temp":25.6,"dewp":17.2,"wdir":210,"wspd":16,"wgst":27,"visib":"10+","altim":1009.9,"slp":1008.5,"qcField":6,"metarType":"METAR","rawOb":"METAR KPNC 121953Z AUTO 21016G27KT 10SM CLR 26/17 A2982 RMK AO2 PK WND 22027/1953 SLP085 T02560172","lat":36.7369,"lon":-97.1024,"elev":304,"name":"Ponca City Rgnl, OK, US","cover":"CLR","clouds":[],"fltCat":"VFR"},{"icaoId":"KSMF","receiptTime":"2026-04-12T19:56:40.791Z","obsTime":1776023580,"reportTime":"2026-04-12T20:00:00.000Z","temp":14.4,"dewp":9.4,"wdir":180,"wspd":18,"wgst":25,"visib":"10+","altim":1012.3,"slp":1012,"qcField":12,"precip":0.005,"metarType":"METAR","rawOb":"METAR KSMF 121953Z 18018G25KT 10SM BKN050 OVC095 14/09 A2989 RMK AO2 PK WND 22030/1905 LTG DSNT NE RAB1855E14 SLP120 P0000 T01440094 $","lat":38.7007,"lon":-121.5948,"elev":7,"name":"Sacramento Intl, CA, US","cover":"OVC","clouds":[{"cover":"BKN","base":5000},{"cover":"OVC","base":9500}],"fltCat":"VFR"},{"icaoId":"KSNA","receiptTime":"2026-04-12T19:56:44.189Z","obsTime":1776023580,"reportTime":"2026-04-12T20:00:00.000Z","temp":19.4,"dewp":9.4,"wdir":"VRB","wspd":5,"visib":"10+","altim":1016,"slp":1015.7,"qcField":12,"metarType":"METAR","rawOb":"METAR KSNA 121953Z VRB05KT 10SM FEW022 SCT030 BKN050 19/09 A3000 RMK AO2 SLP157 T01940094 $","lat":33.6798,"lon":-117.8675,"elev":14,"name":"Santa Ana/Wayne Arpt, CA, US","cover":"BKN","clouds":[{"cover":"FEW","base":2200},{"cover":"SCT","base":3000},{"cover":"BKN","base":5000}],"fltCat":"VFR"},{"icaoId":"KGSP","receiptTime":"2026-04-12T19:56:32.824Z","obsTime":1776023580,"reportTime":"2026-04-12T20:00:00.000Z","temp":28.3,"dewp":8.3,"wdir":210,"wspd":13,"wgst":20,"visib":"10+","altim":1025.8,"slp":1024.9,"qcField":4,"metarType":"METAR","rawOb":"METAR KGSP 121953Z 21013G20KT 180V240 10SM BKN085 28/08 A3029 RMK AO2 SLP249 T02830083","lat":34.8842,"lon":-82.2209,"elev":285,"name":"Greenville-Spartanburg Intl, SC, US","cover":"BKN","clouds":[{"cover":"BKN","base":8500}],"fltCat":"VFR"},{"icaoId":"KBHM","receiptTime":"2026-04-12T19:56:34.668Z","obsTime":1776023580,"reportTime":"2026-04-12T20:00:00.000Z","temp":29.4,"dewp":10.6,"wdir":190,"wspd":11,"visib":"10+","altim":1024.1,"slp":1023.5,"qcField":4,"metarType":"METAR","rawOb":"METAR KBHM 121953Z 19011KT 10SM FEW080 SCT250 29/11 A3024 RMK AO2 SLP235 T02940106","lat":33.5655,"lon":-86.7449,"elev":191,"name":"Birmingham Intl, AL, US","cover":"SCT","clouds":[{"cover":"FEW","base":8000},{"cover":"SCT","base":25000}],"fltCat":"VFR"},{"icaoId":"KMTJ","receiptTime":"2026-04-12T19:56:33.645Z","obsTime":1776023580,"reportTime":"2026-04-12T20:00:00.000Z","temp":20.6,"dewp":-11.1,"wdir":250,"wspd":12,"wgst":27,"visib":"10+","altim":1013,"slp":1005.8,"qcField":6,"metarType":"METAR","rawOb":"METAR KMTJ 121953Z AUTO 25012G27KT 230V300 10SM CLR 21/M11 A2991 RMK AO2 PK WND 24027/1922 SLP058 T02061111","lat":38.5054,"lon":-107.8981,"elev":1755,"name":"Montrose Rgnl, CO, US","cover":"CLR","clouds":[],"fltCat":"VFR"},{"icaoId":"KTWF","receiptTime":"2026-04-12T19:56:41.861Z","obsTime":1776023580,"reportTime":"2026-04-12T20:00:00.000Z","temp":10.6,"dewp":1.1,"wdir":260,"wspd":24,"wgst":32,"visib":"10+","altim":1007.2,"slp":1004.9,"qcField":4,"precip":0.02,"metarType":"METAR","rawOb":"METAR KTWF 121953Z 26024G32KT 10SM BKN070 11/01 A2974 RMK AO2 PK WND 24034/1857 LTG DSNT E RAE19 SLP049 P0002 T01060011","lat":42.4785,"lon":-114.4775,"elev":1269,"name":"Twin Falls/Joslin Fld, ID, US","cover":"BKN","clouds":[{"cover":"BKN","base":7000}],"fltCat":"VFR"},{"icaoId":"KCLL","receiptTime":"2026-04-12T19:56:41.532Z","obsTime":1776023580,"reportTime":"2026-04-12T20:00:00.000Z","temp":22.2,"dewp":21.1,"wdir":150,"wspd":7,"visib":9,"altim":1018,"slp":1017.4,"qcField":4,"wxString":"VCTS","precip":0.005,"metarType":"METAR","rawOb":"METAR KCLL 121953Z 15007KT 9SM VCTS FEW029 SCT035 22/21 A3006 RMK AO2 LTG DSNT N RAB1855E08 TSE08 SLP174 P0000 T02220211","lat":30.5912,"lon":-96.3631,"elev":96,"name":"College Station/Easterwood Arpt, TX, US","cover":"SCT","clouds":[{"cover":"FEW","base":2900},{"cover":"SCT","base":3500}],"fltCat":"VFR"},{"icaoId":"KBRO","receiptTime":"2026-04-12T19:56:44.459Z","obsTime":1776023580,"reportTime":"2026-04-12T20:00:00.000Z","temp":28.3,"dewp":21.7,"wdir":140,"wspd":20,"wgst":25,"visib":"10+","altim":1016.7,"slp":1016.3,"qcField":4,"metarType":"METAR","rawOb":"METAR KBRO 121953Z 14020G25KT 10SM BKN022 BKN029 OVC037 28/22 A3002 RMK AO2 PK WND 14028/1939 SLP163 T02830217","lat":25.9146,"lon":-97.4231,"elev":6,"name":"Brownsville Intl, TX, US","cover":"OVC","clouds":[{"cover":"BKN","base":2200},{"cover":"BKN","base":2900},{"cover":"OVC","base":3700}],"fltCat":"MVFR"},{"icaoId":"PANC","receiptTime":"2026-04-12T19:56:41.138Z","obsTime":1776023580,"reportTime":"2026-04-12T20:00:00.000Z","temp":0,"dewp":-0.6,"wdir":320,"wspd":3,"visib":4,"altim":1001.1,"slp":1001.3,"qcField":12,"wxString":"-SN BR","precip":0.01,"metarType":"METAR","rawOb":"METAR PANC 121953Z 32003KT 4SM -SN BR SCT003 BKN030 OVC039 00/M01 A2956 RMK AO2 CIG 002 N SLP013 P0001 T00001006 $","lat":61.1691,"lon":-150.0277,"elev":39,"name":"Anchorage Intl, AK, US","cover":"OVC","clouds":[{"cover":"SCT","base":300},{"cover":"BKN","base":3000},{"cover":"OVC","base":3900}],"fltCat":"MVFR"},{"icaoId":"KMDW","receiptTime":"2026-04-12T19:56:40.648Z","obsTime":1776023580,"reportTime":"2026-04-12T20:00:00.000Z","temp":26.7,"dewp":12.8,"wdir":210,"wspd":19,"wgst":36,"visib":"10+","altim":1011.3,"slp":1010.6,"qcField":4,"metarType":"METAR","rawOb":"METAR KMDW 121953Z 21019G36KT 10SM SCT060 SCT110 BKN150 BKN250 27/13 A2986 RMK AO2 PK WND 22038/1939 SLP106 T02670128","lat":41.7841,"lon":-87.7552,"elev":186,"name":"Chicago/Midway Intl, IL, US","cover":"BKN","clouds":[{"cover":"SCT","base":6000},{"cover":"SCT","base":11000},{"cover":"BKN","base":15000},{"cover":"BKN","base":25000}],"fltCat":"VFR"},{"icaoId":"KLAR","receiptTime":"2026-04-12T19:56:40.514Z","obsTime":1776023580,"reportTime":"2026-04-12T20:00:00.000Z","temp":17.2,"dewp":-12.2,"wdir":230,"wspd":22,"wgst":32,"visib":"10+","altim":1010.2,"slp":1002,"qcField":14,"metarType":"METAR","rawOb":"METAR KLAR 121953Z AUTO 23022G32KT 10SM CLR 17/M12 A2983 RMK AO2 PK WND 23032/1953 SLP020 T01721122 $","lat":41.3165,"lon":-105.6729,"elev":2217,"name":"Laramie Rgnl, WY, US","cover":"CLR","clouds":[],"fltCat":"VFR"},{"icaoId":"KHOU","receiptTime":"2026-04-12T19:56:40.329Z","obsTime":1776023580,"reportTime":"2026-04-12T20:00:00.000Z","temp":25.6,"dewp":20,"wdir":160,"wspd":15,"wgst":21,"visib":"10+","altim":1019,"slp":1019.5,"qcField":12,"metarType":"METAR","rawOb":"METAR KHOU 121953Z 16015G21KT 10SM BKN026 OVC036 26/20 A3009 RMK AO2 SLP195 OCNL LTGIC DSNT W AND NW CB DSNT W AND NW MOV NE T02560200 $","lat":29.6458,"lon":-95.2821,"elev":13,"name":"Houston/Hobby Arpt, TX, US","cover":"OVC","clouds":[{"cover":"BKN","base":2600},{"cover":"OVC","base":3600}],"fltCat":"MVFR"},{"icaoId":"KMFE","receiptTime":"2026-04-12T19:56:39.687Z","obsTime":1776023580,"reportTime":"2026-04-12T20:00:00.000Z","temp":28.9,"dewp":21.7,"wdir":140,"wspd":19,"wgst":27,"visib":"10+","altim":1015.7,"slp":1015.3,"qcField":12,"metarType":"METAR","rawOb":"METAR KMFE 121953Z 14019G27KT 10SM SCT026 BKN035 OVC044 29/22 A2999 RMK AO2 PK WND 15027/1915 SLP153 T02890217 $","lat":26.1791,"lon":-98.2445,"elev":29,"name":"McAllen/Miller Intl, TX, US","cover":"OVC","clouds":[{"cover":"SCT","base":2600},{"cover":"BKN","base":3500},{"cover":"OVC","base":4400}],"fltCat":"VFR"},{"icaoId":"KLVS","receiptTime":"2026-04-12T19:56:39.651Z","obsTime":1776023580,"reportTime":"2026-04-12T20:00:00.000Z","temp":17.2,"dewp":-7.2,"wdir":210,"wspd":20,"wgst":31,"visib":"10+","altim":1017.4,"slp":1010,"qcField":14,"metarType":"METAR","rawOb":"METAR KLVS 121953Z AUTO 21020G31KT 10SM CLR 17/M07 A3004 RMK AO2 PK WND 22037/1859 SLP100 T01721072 PNO $","lat":35.6558,"lon":-105.1385,"elev":2095,"name":"Las Vegas Muni, NM, US","cover":"CLR","clouds":[],"fltCat":"VFR"},{"icaoId":"KGEG","receiptTime":"2026-04-12T19:56:39.310Z","obsTime":1776023580,"reportTime":"2026-04-12T20:00:00.000Z","temp":15.6,"dewp":4.4,"wdir":60,"wspd":4,"visib":"10+","altim":1003.1,"slp":1002.5,"qcField":4,"metarType":"METAR","rawOb":"METAR KGEG 121953Z 06004KT 10SM FEW025 FEW047 FEW100 BKN200 16/04 A2962 RMK AO2 SLP025 SHRA DSNT ALQDS T01560044","lat":47.6217,"lon":-117.528,"elev":718,"name":"Spokane Intl, WA, US","cover":"BKN","clouds":[{"cover":"FEW","base":2500},{"cover":"FEW","base":4700},{"cover":"FEW","base":10000},{"cover":"BKN","base":20000}],"fltCat":"VFR"},{"icaoId":"KFAT","receiptTime":"2026-04-12T19:56:39.297Z","obsTime":1776023580,"reportTime":"2026-04-12T20:00:00.000Z","temp":18.3,"dewp":3.9,"wdir":180,"wspd":13,"wgst":22,"visib":"10+","altim":1014.3,"slp":1014.1,"qcField":12,"metarType":"METAR","rawOb":"METAR KFAT 121953Z 18013G22KT 10SM BKN048 BKN070 BKN110 BKN200 18/04 A2995 RMK AO2 SLP141 TCU DSNT N-NE SE NW T01830039 $","lat":36.78,"lon":-119.7202,"elev":102,"name":"Fresno/Yosemite Intl, CA, US","cover":"BKN","clouds":[{"cover":"BKN","base":4800},{"cover":"BKN","base":7000},{"cover":"BKN","base":11000},{"cover":"BKN","base":20000}],"fltCat":"VFR"},{"icaoId":"KELY","receiptTime":"2026-04-12T19:56:39.263Z","obsTime":1776023580,"reportTime":"2026-04-12T20:00:00.000Z","temp":8.3,"dewp":-2.2,"wdir":"VRB","wspd":6,"visib":"10+","altim":1008.9,"slp":1004.9,"qcField":6,"precip":0.005,"metarType":"METAR","rawOb":"METAR KELY 121953Z AUTO VRB06KT 10SM FEW025 SCT040 BKN065 08/M02 A2979 RMK AO2 PK WND 17030/1925 RAE49 SLP049 P0000 T00831022","lat":39.2954,"lon":-114.8466,"elev":1906,"name":"Ely/Yelland Fld, NV, US","cover":"BKN","clouds":[{"cover":"FEW","base":2500},{"cover":"SCT","base":4000},{"cover":"BKN","base":6500}],"fltCat":"VFR"},{"icaoId":"KCRQ","receiptTime":"2026-04-12T19:56:42.408Z","obsTime":1776023580,"reportTime":"2026-04-12T20:00:00.000Z","temp":17.2,"dewp":13.3,"wdir":250,"wspd":11,"visib":"10+","altim":1016.3,"slp":1015.9,"qcField":6,"precip":0.005,"metarType":"METAR","rawOb":"METAR KCRQ 121953Z AUTO 25011KT 10SM SCT015 BKN038 BKN046 17/13 A3001 RMK AO2 RAB1859E46 SLP159 P0000 T01720133","lat":33.1299,"lon":-117.2765,"elev":96,"name":"Carlsbad/Palomar Arpt, CA, US","cover":"BKN","clouds":[{"cover":"SCT","base":1500},{"cover":"BKN","base":3800},{"cover":"BKN","base":4600}],"fltCat":"VFR"},{"icaoId":"KOGD","receiptTime":"2026-04-12T19:56:37.982Z","obsTime":1776023580,"reportTime":"2026-04-12T20:00:00.000Z","temp":14.4,"dewp":0,"wdir":200,"wspd":18,"wgst":27,"visib":"10+","altim":1006.2,"slp":1002.8,"qcField":4,"precip":0.005,"metarType":"METAR","rawOb":"METAR KOGD 121953Z 20018G27KT 10SM FEW060 SCT090 BKN110 14/00 A2971 RMK AO2 PK WND 23038/1925 LTG DSNT NE RAB20E46 SLP028 P0000 T01440000","lat":41.1941,"lon":-112.0168,"elev":1356,"name":"Ogden/Hinckley Arpt, UT, US","cover":"BKN","clouds":[{"cover":"FEW","base":6000},{"cover":"SCT","base":9000},{"cover":"BKN","base":11000}],"fltCat":"VFR"},{"icaoId":"KMOD","receiptTime":"2026-04-12T19:56:37.907Z","obsTime":1776023580,"reportTime":"2026-04-12T20:00:00.000Z","temp":16.1,"dewp":6.7,"wdir":180,"wspd":10,"wgst":18,"visib":"10+","altim":1013,"slp":1012.9,"qcField":6,"metarType":"METAR","rawOb":"METAR KMOD 121953Z AUTO 18010G18KT 140V210 10SM CLR 16/07 A2991 RMK AO2 SLP129 T01610067","lat":37.6254,"lon":-120.9549,"elev":25,"name":"Modesto/Sham Fld, CA, US","cover":"CLR","clouds":[],"fltCat":"VFR"},{"icaoId":"KMLC","receiptTime":"2026-04-12T19:56:37.836Z","obsTime":1776023580,"reportTime":"2026-04-12T20:00:00.000Z","temp":23.9,"dewp":18.3,"wdir":180,"wspd":9,"wgst":24,"visib":"10+","altim":1014.6,"slp":1013.8,"qcField":6,"metarType":"METAR","rawOb":"METAR KMLC 121953Z AUTO 18009G24KT 140V220 10SM SCT024 24/18 A2996 RMK AO2 PK WND 19026/1939 SLP138 T02390183","lat":34.8824,"lon":-95.7815,"elev":231,"name":"McAlester Rgnl, OK, US","cover":"SCT","clouds":[{"cover":"SCT","base":2400}],"fltCat":"VFR"},{"icaoId":"KRDD","receiptTime":"2026-04-12T19:56:42.077Z","obsTime":1776023580,"reportTime":"2026-04-12T20:00:00.000Z","temp":8.3,"dewp":6.7,"wdir":160,"wspd":10,"visib":7,"altim":1009.6,"slp":1009.5,"qcField":12,"wxString":"-RA","precip":0.07,"metarType":"METAR","rawOb":"METAR KRDD 121953Z 16010KT 7SM -RA FEW021 BKN039 OVC048 08/07 A2981 RMK AO2 PK WND 16034/1929 SLP095 P0007 T00830067 $","lat":40.5146,"lon":-122.2977,"elev":152,"name":"Redding Muni, CA, US","cover":"OVC","clouds":[{"cover":"FEW","base":2100},{"cover":"BKN","base":3900},{"cover":"OVC","base":4800}],"fltCat":"VFR"},{"icaoId":"KMYR","receiptTime":"2026-04-12T19:56:27.962Z","obsTime":1776023580,"reportTime":"2026-04-12T20:00:00.000Z","temp":24.4,"dewp":15,"wdir":110,"wspd":7,"visib":"10+","altim":1028.5,"slp":1028.4,"qcField":12,"metarType":"METAR","rawOb":"METAR KMYR 121953Z 11007KT 070V130 10SM CLR 24/15 A3037 RMK AO2 SLP284 T02440150 $","lat":33.6769,"lon":-78.9325,"elev":7,"name":"Myrtle Beach Intl, SC, US","cover":"CLR","clouds":[],"fltCat":"VFR"},{"icaoId":"KMAF","receiptTime":"2026-04-12T19:56:37.744Z","obsTime":1776023580,"reportTime":"2026-04-12T20:00:00.000Z","temp":28.3,"dewp":9.4,"wdir":220,"wspd":7,"visib":"10+","altim":1015.7,"slp":1011.6,"qcField":4,"metarType":"METAR","rawOb":"METAR KMAF 121953Z 22007KT 170V250 10SM CLR 28/09 A2999 RMK AO2 SLP116 T02830094","lat":31.9475,"lon":-102.2086,"elev":874,"name":"Midland Intl, TX, US","cover":"CLR","clouds":[],"fltCat":"VFR"},{"icaoId":"KRTN","receiptTime":"2026-04-12T19:56:43.962Z","obsTime":1776023580,"reportTime":"2026-04-12T20:00:00.000Z","temp":21.1,"dewp":-7.2,"wdir":230,"wspd":19,"wgst":34,"visib":"10+","altim":1013.6,"slp":1007.1,"qcField":6,"metarType":"METAR","rawOb":"METAR KRTN 121953Z AUTO 23019G34KT 10SM CLR 21/M07 A2993 RMK AO2 PK WND 22036/1935 SLP071 T02111072","lat":36.7418,"lon":-104.5076,"elev":1939,"name":"Raton/Crews Fld, NM, US","cover":"CLR","clouds":[],"fltCat":"VFR"},{"icaoId":"KCDC","receiptTime":"2026-04-12T19:56:35.388Z","obsTime":1776023580,"reportTime":"2026-04-12T20:00:00.000Z","temp":16.1,"dewp":-8.3,"wdir":200,"wspd":20,"wgst":37,"visib":"10+","altim":1010.9,"slp":1005.8,"qcField":6,"metarType":"METAR","rawOb":"METAR KCDC 121953Z AUTO 20020G37KT 10SM FEW095 16/M08 A2985 RMK AO2 PK WND 21043/1924 SLP058 T01611083","lat":37.7067,"lon":-113.097,"elev":1703,"name":"Cedar City Muni, UT, US","cover":"FEW","clouds":[{"cover":"FEW","base":9500}],"fltCat":"VFR"},{"icaoId":"KSJC","receiptTime":"2026-04-12T19:56:40.778Z","obsTime":1776023580,"reportTime":"2026-04-12T20:00:00.000Z","temp":14.4,"dewp":8.9,"wdir":220,"wspd":9,"wgst":23,"visib":8,"altim":1013.6,"slp":1013.3,"qcField":4,"wxString":"-RA","precip":0.005,"metarType":"METAR","rawOb":"METAR KSJC 121953Z 22009G23KT 8SM -RA SCT023 BKN035 BKN045 14/09 A2993 RMK AO2 RAB43 SLP133 P0000 T01440089","lat":37.3594,"lon":-121.9244,"elev":13,"name":"San Jose Intl Arpt, CA, US","cover":"BKN","clouds":[{"cover":"SCT","base":2300},{"cover":"BKN","base":3500},{"cover":"BKN","base":4500}],"fltCat":"VFR"},{"icaoId":"KTUL","receiptTime":"2026-04-12T19:56:34.492Z","obsTime":1776023580,"reportTime":"2026-04-12T20:00:00.000Z","temp":24.4,"dewp":17.8,"wdir":200,"wspd":17,"wgst":26,"visib":"10+","altim":1012.6,"slp":1011.6,"qcField":4,"metarType":"METAR","rawOb":"METAR KTUL 121953Z 20017G26KT 10SM SCT025 BKN070 BKN150 BKN250 24/18 A2990 RMK AO2 PK WND 19028/1933 SLP116 T02440178","lat":36.1985,"lon":-95.8782,"elev":196,"name":"Tulsa Intl Arpt, OK, US","cover":"BKN","clouds":[{"cover":"SCT","base":2500},{"cover":"BKN","base":7000},{"cover":"BKN","base":15000},{"cover":"BKN","base":25000}],"fltCat":"VFR"},{"icaoId":"KLBB","receiptTime":"2026-04-12T19:56:34.254Z","obsTime":1776023580,"reportTime":"2026-04-12T20:00:00.000Z","temp":27.2,"dewp":7.2,"wdir":190,"wspd":10,"wgst":20,"visib":"10+","altim":1014.3,"slp":1009.7,"qcField":12,"metarType":"METAR","rawOb":"METAR KLBB 121953Z 19010G20KT 10SM FEW075 FEW250 27/07 A2995 RMK AO2 SLP097 CB DSNT W MOV NE T02720072 $","lat":33.6658,"lon":-101.8233,"elev":996,"name":"Lubbock Intl Arpt, TX, US","cover":"FEW","clouds":[{"cover":"FEW","base":7500},{"cover":"FEW","base":25000}],"fltCat":"VFR"},{"icaoId":"KLGB","receiptTime":"2026-04-12T19:56:39.426Z","obsTime":1776023580,"reportTime":"2026-04-12T20:00:00.000Z","temp":19.4,"dewp":7.8,"wdir":300,"wspd":7,"wgst":15,"visib":"10+","altim":1015.7,"slp":1015.4,"qcField":12,"metarType":"METAR","rawOb":"METAR KLGB 121953Z 30007G15KT 10SM SCT060 BKN095 19/08 A2999 RMK AO2 SLP154 T01940078 $","lat":33.8118,"lon":-118.1472,"elev":10,"name":"Long Beach Arpt, CA, US","cover":"BKN","clouds":[{"cover":"SCT","base":6000},{"cover":"BKN","base":9500}],"fltCat":"VFR"},{"icaoId":"KBNA","receiptTime":"2026-04-12T19:56:41.409Z","obsTime":1776023580,"reportTime":"2026-04-12T20:00:00.000Z","temp":28.9,"dewp":6.7,"wdir":220,"wspd":10,"wgst":26,"visib":"10+","altim":1021.8,"slp":1021.2,"qcField":12,"metarType":"METAR","rawOb":"METAR KBNA 121953Z 22010G26KT 10SM FEW050 SCT150 BKN250 29/07 A3017 RMK AO2 PK WND 21030/1938 SLP212 T02890067 $","lat":36.1105,"lon":-86.6881,"elev":168,"name":"Nashville Intl, TN, US","cover":"BKN","clouds":[{"cover":"FEW","base":5000},{"cover":"SCT","base":15000},{"cover":"BKN","base":25000}],"fltCat":"VFR"},{"icaoId":"KCYS","receiptTime":"2026-04-12T19:56:29.451Z","obsTime":1776023580,"reportTime":"2026-04-12T20:00:00.000Z","temp":19.4,"dewp":-10.6,"wdir":230,"wspd":17,"wgst":25,"visib":"10+","altim":1009.2,"slp":1002.8,"qcField":12,"metarType":"METAR","rawOb":"METAR KCYS 121953Z 23017G25KT 10SM CLR 19/M11 A2980 RMK AO2 PK WND 23028/1925 SLP028 T01941106 $","lat":41.1579,"lon":-104.8081,"elev":1868,"name":"Cheyenne Rgnl, WY, US","cover":"CLR","clouds":[],"fltCat":"VFR"},{"icaoId":"KDEN","receiptTime":"2026-04-12T19:56:29.568Z","obsTime":1776023580,"reportTime":"2026-04-12T20:00:00.000Z","temp":21.1,"dewp":-8.9,"wdir":0,"wspd":0,"visib":"10+","altim":1008.5,"slp":1002.2,"qcField":4,"metarType":"METAR","rawOb":"METAR KDEN 121953Z 00000KT 10SM FEW100 SCT150 BKN220 21/M09 A2978 RMK AO2 SLP022 T02111089","lat":39.8466,"lon":-104.6562,"elev":1656,"name":"Denver Intl, CO, US","cover":"BKN","clouds":[{"cover":"FEW","base":10000},{"cover":"SCT","base":15000},{"cover":"BKN","base":22000}],"fltCat":"VFR"},{"icaoId":"KCNM","receiptTime":"2026-04-12T19:56:30.253Z","obsTime":1776023580,"reportTime":"2026-04-12T20:00:00.000Z","temp":30,"dewp":2.8,"wdir":250,"wspd":10,"wgst":26,"visib":"10+","altim":1015.3,"slp":1010.2,"qcField":6,"metarType":"METAR","rawOb":"METAR KCNM 121953Z AUTO 25010G26KT 10SM FEW100 30/03 A2998 RMK AO2 PK WND 25032/1932 SLP102 T03000028","lat":32.3336,"lon":-104.2584,"elev":993,"name":"Carlsbad/Cavern City Air Term, NM, US","cover":"FEW","clouds":[{"cover":"FEW","base":10000}],"fltCat":"VFR"},{"icaoId":"KVGT","receiptTime":"2026-04-12T19:56:30.696Z","obsTime":1776023580,"reportTime":"2026-04-12T20:00:00.000Z","temp":21.7,"dewp":1.1,"wdir":230,"wspd":20,"wgst":28,"visib":"10+","altim":1010.2,"slp":1010.4,"qcField":4,"metarType":"METAR","rawOb":"METAR KVGT 121953Z 23020G28KT 10SM CLR 22/01 A2983 RMK AO2 PK WND 24031/1857 SLP104 T02170011","lat":36.212,"lon":-115.194,"elev":664,"name":"Las Vegas/North Arpt, NV, US","cover":"CLR","clouds":[],"fltCat":"VFR"},{"icaoId":"KCNY","receiptTime":"2026-04-12T19:56:31.216Z","obsTime":1776023580,"reportTime":"2026-04-12T20:00:00.000Z","temp":22.2,"dewp":-11.7,"wdir":200,"wspd":23,"wgst":31,"visib":"10+","altim":1009.6,"slp":1005.4,"qcField":14,"metarType":"METAR","rawOb":"METAR KCNY 121953Z AUTO 20023G31KT 10SM CLR 22/M12 A2981 RMK AO2 PK WND 20034/1913 SLP054 T02221117 $","lat":38.7501,"lon":-109.7627,"elev":1392,"name":"Moab/Canyonland Fld, UT, US","cover":"CLR","clouds":[],"fltCat":"VFR"},{"icaoId":"KDAL","receiptTime":"2026-04-12T19:56:45.156Z","obsTime":1776023580,"reportTime":"2026-04-12T20:00:00.000Z","temp":21.1,"dewp":18.9,"wdir":150,"wspd":12,"wgst":21,"visib":"10+","altim":1016.7,"slp":1016.1,"qcField":4,"precip":0.005,"metarType":"METAR","rawOb":"METAR KDAL 121953Z 15012G21KT 10SM BKN010 OVC015 21/19 A3002 RMK AO2 RAE00 SLP161 P0000 T02110189","lat":32.8384,"lon":-96.8358,"elev":148,"name":"Dallas/Love Fld, TX, US","cover":"OVC","clouds":[{"cover":"BKN","base":1000},{"cover":"OVC","base":1500}],"fltCat":"MVFR"},{"icaoId":"KPDX","receiptTime":"2026-04-12T19:56:32.119Z","obsTime":1776023580,"reportTime":"2026-04-12T20:00:00.000Z","temp":10.6,"dewp":8.9,"wdir":210,"wspd":7,"visib":3,"altim":1007.9,"slp":1007.6,"qcField":12,"wxString":"-RA BR","precip":0.005,"metarType":"METAR","rawOb":"METAR KPDX 121953Z 21007KT 3SM -RA BR FEW008 OVC025 11/09 A2976 RMK AO2 SFC VIS 4 SLP076 P0000 T01060089 $","lat":45.5958,"lon":-122.6092,"elev":7,"name":"Portland Intl, OR, US","cover":"OVC","clouds":[{"cover":"FEW","base":800},{"cover":"OVC","base":2500}],"fltCat":"MVFR"},{"icaoId":"KSEA","receiptTime":"2026-04-12T19:56:32.354Z","obsTime":1776023580,"reportTime":"2026-04-12T20:00:00.000Z","temp":12.2,"dewp":8.3,"wdir":250,"wspd":6,"visib":"10+","altim":1006.5,"slp":1007,"qcField":4,"metarType":"METAR","rawOb":"METAR KSEA 121953Z 25006KT 10SM OVC017 12/08 A2972 RMK AO2 SLP070 T01220083","lat":47.4447,"lon":-122.3144,"elev":115,"name":"Seattle-Tacoma Intl, WA, US","cover":"OVC","clouds":[{"cover":"OVC","base":1700}],"fltCat":"MVFR"},{"icaoId":"KACV","receiptTime":"2026-04-12T19:56:33.014Z","obsTime":1776023580,"reportTime":"2026-04-12T20:00:00.000Z","temp":11.7,"dewp":6.1,"wdir":"VRB","wspd":4,"visib":"10+","altim":1009.6,"slp":1010.2,"qcField":6,"precip":0.005,"metarType":"METAR","rawOb":"METAR KACV 121953Z AUTO VRB04KT 10SM BKN049 12/06 A2981 RMK AO2 RAB06E19 SLP102 P0000 T01170061","lat":40.9784,"lon":-124.1048,"elev":63,"name":"Arcata Arpt, CA, US","cover":"BKN","clouds":[{"cover":"BKN","base":4900}],"fltCat":"VFR"},{"icaoId":"KMYF","receiptTime":"2026-04-12T19:56:33.699Z","obsTime":1776023580,"reportTime":"2026-04-12T20:00:00.000Z","temp":18.9,"dewp":11.7,"wdir":200,"wspd":14,"wgst":20,"visib":"10+","altim":1016.3,"slp":1016.1,"qcField":4,"metarType":"METAR","rawOb":"METAR KMYF 121953Z 20014G20KT 10SM SCT026 BKN033 OVC046 19/12 A3001 RMK AO2 SLP161 T01890117","lat":32.8145,"lon":-117.1375,"elev":128,"name":"San Diego/Montgomery Arpt, CA, US","cover":"OVC","clouds":[{"cover":"SCT","base":2600},{"cover":"BKN","base":3300},{"cover":"OVC","base":4600}],"fltCat":"VFR"},{"icaoId":"KTPA","receiptTime":"2026-04-12T19:56:44.381Z","obsTime":1776023580,"reportTime":"2026-04-12T20:00:00.000Z","temp":28.9,"dewp":13.3,"wdir":100,"wspd":12,"wgst":19,"visib":"10+","altim":1023.8,"slp":1023.6,"qcField":4,"metarType":"METAR","rawOb":"METAR KTPA 121953Z 10012G19KT 060V120 10SM FEW070 29/13 A3023 RMK AO2 SLP236 T02890133","lat":27.9633,"lon":-82.54,"elev":2,"name":"Tampa Intl Arpt, FL, US","cover":"FEW","clouds":[{"cover":"FEW","base":7000}],"fltCat":"VFR"},{"icaoId":"KSDL","receiptTime":"2026-04-12T19:56:44.097Z","obsTime":1776023580,"reportTime":"2026-04-12T20:00:00.000Z","temp":26.7,"dewp":0,"wdir":190,"wspd":8,"wgst":16,"visib":"10+","altim":1013.6,"slp":1011.4,"qcField":4,"metarType":"METAR","rawOb":"METAR KSDL 121953Z 19008G16KT 10SM CLR 27/00 A2993 RMK AO2 SLP114 T02670000","lat":33.6123,"lon":-111.9232,"elev":438,"name":"Scottsdale Muni, AZ, US","cover":"CLR","clouds":[],"fltCat":"VFR"},{"icaoId":"KSAF","receiptTime":"2026-04-12T19:56:44.040Z","obsTime":1776023580,"reportTime":"2026-04-12T20:00:00.000Z","temp":18.3,"dewp":-4.4,"wdir":200,"wspd":10,"wgst":19,"visib":"10+","altim":1017.4,"slp":1011,"qcField":12,"metarType":"METAR","rawOb":"METAR KSAF 121953Z 20010G19KT 10SM SCT065 18/M04 A3004 RMK AO2 PK WND 26028/1912 SLP110 T01831044 $","lat":35.611,"lon":-106.0957,"elev":1918,"name":"Santa Fe Cnty Muni, NM, US","cover":"SCT","clouds":[{"cover":"SCT","base":6500}],"fltCat":"VFR"},{"icaoId":"KMSP","receiptTime":"2026-04-12T19:56:45.588Z","obsTime":1776023580,"reportTime":"2026-04-12T20:00:00.000Z","temp":26.7,"dewp":12.8,"wdir":220,"wspd":19,"wgst":32,"visib":"10+","altim":998.4,"slp":997.9,"qcField":4,"metarType":"METAR","rawOb":"METAR KMSP 121953Z 22019G32KT 10SM SCT050 BKN250 27/13 A2948 RMK AO2 PK WND 20032/1946 SLP979 T02670128","lat":44.8852,"lon":-93.2313,"elev":255,"name":"Minneapolis-St Paul Intl, MN, US","cover":"BKN","clouds":[{"cover":"SCT","base":5000},{"cover":"BKN","base":25000}],"fltCat":"VFR"},{"icaoId":"KAUS","receiptTime":"2026-04-12T19:56:44.860Z","obsTime":1776023580,"reportTime":"2026-04-12T20:00:00.000Z","temp":25,"dewp":20,"wdir":160,"wspd":16,"wgst":24,"visib":"10+","altim":1017,"slp":1015.9,"qcField":4,"metarType":"METAR","rawOb":"METAR KAUS 121953Z 16016G24KT 10SM OVC020 25/20 A3003 RMK AO2 SLP159 CB DSNT SW T02500200","lat":30.1831,"lon":-97.6806,"elev":148,"name":"Austin/Bergstrom Intl, TX, US","cover":"OVC","clouds":[{"cover":"OVC","base":2000}],"fltCat":"MVFR"},{"icaoId":"KPUB","receiptTime":"2026-04-12T19:56:43.827Z","obsTime":1776023580,"reportTime":"2026-04-12T20:00:00.000Z","temp":23.9,"dewp":-7.8,"wdir":260,"wspd":8,"visib":"10+","altim":1008.5,"slp":1004.2,"qcField":12,"metarType":"METAR","rawOb":"METAR KPUB 121953Z 26008KT 10SM CLR 24/M08 A2978 RMK AO2 SLP042 T02391078 $","lat":38.2887,"lon":-104.5057,"elev":1441,"name":"Pueblo Mem Arpt, CO, US","cover":"CLR","clouds":[],"fltCat":"VFR"},{"icaoId":"KFMN","receiptTime":"2026-04-12T19:56:42.538Z","obsTime":1776023580,"reportTime":"2026-04-12T20:00:00.000Z","temp":20.6,"dewp":-6.7,"wdir":210,"wspd":16,"wgst":22,"visib":"10+","altim":1014,"slp":1010.6,"qcField":4,"metarType":"METAR","rawOb":"METAR KFMN 121953Z 21016G22KT 10SM BKN100 21/M07 A2994 RMK AO2 SLP106 T02061067","lat":36.7435,"lon":-108.2293,"elev":1677,"name":"Farmington/Four Corners Rgnl, NM, US","cover":"BKN","clouds":[{"cover":"BKN","base":10000}],"fltCat":"VFR"},{"icaoId":"KBCE","receiptTime":"2026-04-12T19:56:33.168Z","obsTime":1776023580,"reportTime":"2026-04-12T20:00:00.000Z","temp":12.2,"dewp":-7.2,"wdir":200,"wspd":22,"wgst":33,"visib":"10+","altim":1014,"slp":1009,"qcField":6,"metarType":"METAR","rawOb":"METAR KBCE 121953Z AUTO 20022G33KT 10SM BKN075 BKN095 12/M07 A2994 RMK AO2 PK WND 20033/1952 SLP090 T01221072","lat":37.7013,"lon":-112.149,"elev":2311,"name":"Bryce Canyon Arpt, UT, US","cover":"BKN","clouds":[{"cover":"BKN","base":7500},{"cover":"BKN","base":9500}],"fltCat":"VFR"},{"icaoId":"KDFW","receiptTime":"2026-04-12T19:56:45.171Z","obsTime":1776023580,"reportTime":"2026-04-12T20:00:00.000Z","temp":21.1,"dewp":18.9,"wdir":160,"wspd":14,"visib":"10+","altim":1016.3,"slp":1015.4,"qcField":4,"metarType":"METAR","rawOb":"METAR KDFW 121953Z 16014KT 10SM OVC011 21/19 A3001 RMK AO2 SLP154 T02110189","lat":32.8974,"lon":-97.022,"elev":168,"name":"Dallas-Ft Worth Intl, TX, US","cover":"OVC","clouds":[{"cover":"OVC","base":1100}],"fltCat":"MVFR"},{"icaoId":"KIAH","receiptTime":"2026-04-12T19:56:40.376Z","obsTime":1776023580,"reportTime":"2026-04-12T20:00:00.000Z","temp":22.8,"dewp":21.7,"wdir":150,"wspd":12,"visib":"10+","altim":1019.4,"slp":1019.2,"qcField":4,"wxString":"-RA","precip":0.005,"metarType":"METAR","rawOb":"METAR KIAH 121953Z 15012KT 10SM -RA BKN025 BKN036 OVC050 23/22 A3010 RMK AO2 RAB1855 SLP192 SHRA DSNT SW-NW CB DSNT SW-NW MOV NE P0000 T02280217","lat":29.9844,"lon":-95.3607,"elev":27,"name":"Houston/Bush Intl, TX, US","cover":"OVC","clouds":[{"cover":"BKN","base":2500},{"cover":"BKN","base":3600},{"cover":"OVC","base":5000}],"fltCat":"MVFR"},{"icaoId":"KSWO","receiptTime":"2026-04-12T19:56:44.289Z","obsTime":1776023580,"reportTime":"2026-04-12T20:00:00.000Z","temp":26.1,"dewp":16.7,"wdir":220,"wspd":16,"wgst":25,"visib":"10+","altim":1010.9,"slp":1009.6,"qcField":4,"precip":0.005,"metarType":"METAR","rawOb":"METAR KSWO 121953Z 22016G25KT 10SM FEW041 26/17 A2985 RMK AO2 PK WND 21029/1909 RAE18 SLP096 P0000 T02610167","lat":36.1624,"lon":-97.0832,"elev":293,"name":"Stillwater Muni, OK, US","cover":"FEW","clouds":[{"cover":"FEW","base":4100}],"fltCat":"VFR"},{"icaoId":"KMSY","receiptTime":"2026-04-12T19:56:39.759Z","obsTime":1776023580,"reportTime":"2026-04-12T20:00:00.000Z","temp":26.1,"dewp":16.1,"wdir":180,"wspd":13,"wgst":20,"visib":"10+","altim":1023.5,"slp":1023.5,"qcField":4,"metarType":"METAR","rawOb":"METAR KMSY 121953Z 18013G20KT 10SM SCT042 BKN250 26/16 A3022 RMK AO2 SLP235 T02610161","lat":29.9974,"lon":-90.2777,"elev":0,"name":"New Orleans/Armstrong Intl, LA, US","cover":"BKN","clouds":[{"cover":"SCT","base":4200},{"cover":"BKN","base":25000}],"fltCat":"VFR"},{"icaoId":"KPSP","receiptTime":"2026-04-12T19:56:43.789Z","obsTime":1776023580,"reportTime":"2026-04-12T20:00:00.000Z","temp":21.7,"dewp":7.2,"wdir":340,"wspd":10,"wgst":17,"visib":"10+","altim":1013.6,"slp":1013.3,"qcField":4,"metarType":"METAR","rawOb":"METAR KPSP 121953Z 34010G17KT 10SM BKN080 22/07 A2993 RMK AO2 SLP133 T02170072","lat":33.8222,"lon":-116.5043,"elev":123,"name":"Palm Springs Intl, CA, US","cover":"BKN","clouds":[{"cover":"BKN","base":8000}],"fltCat":"VFR"},{"icaoId":"KTUS","receiptTime":"2026-04-12T19:56:42.884Z","obsTime":1776023580,"reportTime":"2026-04-12T20:00:00.000Z","temp":27.8,"dewp":2.8,"wdir":240,"wspd":17,"wgst":28,"visib":"10+","altim":1015.7,"slp":1011.5,"qcField":4,"metarType":"METAR","rawOb":"METAR KTUS 121953Z 24017G28KT 10SM SCT095 28/03 A2999 RMK AO2 PK WND 24029/1936 SLP115 T02780028","lat":32.1315,"lon":-110.9564,"elev":776,"name":"Tucson Intl Arpt, AZ, US","cover":"SCT","clouds":[{"cover":"SCT","base":9500}],"fltCat":"VFR"},{"icaoId":"KCPR","receiptTime":"2026-04-12T19:56:29.323Z","obsTime":1776023580,"reportTime":"2026-04-12T20:00:00.000Z","temp":20,"dewp":-5,"wdir":230,"wspd":16,"wgst":26,"visib":"10+","altim":1006.2,"slp":1001.5,"qcField":4,"metarType":"METAR","rawOb":"METAR KCPR 121953Z 23016G26KT 10SM CLR 20/M05 A2971 RMK AO2 PK WND 25036/1913 SLP015 T02001050","lat":42.8978,"lon":-106.4736,"elev":1623,"name":"Casper/Natrona Cnty, WY, US","cover":"CLR","clouds":[],"fltCat":"VFR"},{"icaoId":"KDRO","receiptTime":"2026-04-12T19:56:43.057Z","obsTime":1776023580,"reportTime":"2026-04-12T20:00:00.000Z","temp":17.2,"dewp":-4.4,"wdir":200,"wspd":17,"wgst":23,"visib":"10+","altim":1016.7,"slp":1012.2,"qcField":6,"metarType":"METAR","rawOb":"METAR KDRO 121953Z AUTO 20017G23KT 10SM SCT085 17/M04 A3002 RMK AO2 SLP122 T01721044","lat":37.1431,"lon":-107.7602,"elev":2021,"name":"Durango/La Plata Cnty, CO, US","cover":"SCT","clouds":[{"cover":"SCT","base":8500}],"fltCat":"VFR"},{"icaoId":"KDTW","receiptTime":"2026-04-12T19:56:43.076Z","obsTime":1776023580,"reportTime":"2026-04-12T20:00:00.000Z","temp":27.2,"dewp":11.1,"wdir":210,"wspd":23,"wgst":37,"visib":"10+","altim":1014.3,"slp":1014.2,"qcField":4,"metarType":"METAR","rawOb":"METAR KDTW 121953Z 21023G37KT 10SM FEW060 BKN250 27/11 A2995 RMK AO2 PK WND 22037/1931 SLP142 T02720111","lat":42.2311,"lon":-83.3312,"elev":192,"name":"Detroit/Metro Wayne Cnty, MI, US","cover":"BKN","clouds":[{"cover":"FEW","base":6000},{"cover":"BKN","base":25000}],"fltCat":"VFR"},{"icaoId":"KGJT","receiptTime":"2026-04-12T19:56:43.720Z","obsTime":1776023580,"reportTime":"2026-04-12T20:00:00.000Z","temp":21.1,"dewp":-5.6,"wdir":290,"wspd":9,"visib":"10+","altim":1009.9,"slp":1005,"qcField":4,"metarType":"METAR","rawOb":"METAR KGJT 121953Z 29009KT 250V310 10SM CLR 21/M06 A2982 RMK AO2 SLP050 T02111056","lat":39.1344,"lon":-108.5408,"elev":1475,"name":"Grand Junction Rgnl, CO, US","cover":"CLR","clouds":[],"fltCat":"VFR"},{"icaoId":"KIDA","receiptTime":"2026-04-12T19:56:37.589Z","obsTime":1776023580,"reportTime":"2026-04-12T20:00:00.000Z","temp":13.9,"dewp":-3.3,"wdir":190,"wspd":29,"wgst":43,"visib":"10+","altim":1005.5,"slp":1004,"qcField":4,"metarType":"METAR","rawOb":"METAR KIDA 121953Z 19029G43KT 10SM FEW047 BKN075 BKN095 14/M03 A2969 RMK AO2 PK WND 19043/1953 SLP040 T01391033","lat":43.5204,"lon":-112.0675,"elev":1444,"name":"Idaho Falls Rgnl, ID, US","cover":"BKN","clouds":[{"cover":"FEW","base":4700},{"cover":"BKN","base":7500},{"cover":"BKN","base":9500}],"fltCat":"VFR"},{"icaoId":"KAMA","receiptTime":"2026-04-12T19:56:44.670Z","obsTime":1776023580,"reportTime":"2026-04-12T20:00:00.000Z","temp":26.7,"dewp":-1.1,"wdir":260,"wspd":15,"wgst":27,"visib":"10+","altim":1013,"slp":1008.1,"qcField":6,"metarType":"METAR","rawOb":"METAR KAMA 121953Z AUTO 26015G27KT 10SM SCT110 27/M01 A2991 RMK AO2 PK WND 25032/1934 SLP081 T02671011","lat":35.2203,"lon":-101.7173,"elev":1102,"name":"Amarillo Intl Arpt, TX, US","cover":"SCT","clouds":[{"cover":"SCT","base":11000}],"fltCat":"VFR"},{"icaoId":"KPIH","receiptTime":"2026-04-12T19:56:44.507Z","obsTime":1776023580,"reportTime":"2026-04-12T20:00:00.000Z","temp":19.4,"dewp":-2.8,"wdir":210,"wspd":26,"wgst":34,"visib":"10+","altim":1003.5,"slp":1001.1,"qcField":4,"metarType":"METAR","rawOb":"METAR KPIH 121953Z 21026G34KT 10SM BKN060 BKN110 19/M03 A2963 RMK AO2 PK WND 23035/1905 SLP011 T01941028","lat":42.9197,"lon":-112.5723,"elev":1357,"name":"Pocatello Rgnl, ID, US","cover":"BKN","clouds":[{"cover":"BKN","base":6000},{"cover":"BKN","base":11000}],"fltCat":"VFR"},{"icaoId":"KASE","receiptTime":"2026-04-12T19:56:44.822Z","obsTime":1776023580,"reportTime":"2026-04-12T20:00:00.000Z","temp":14.4,"dewp":-10.6,"wdir":260,"wspd":11,"wgst":23,"visib":"10+","altim":1014,"slp":1004.7,"qcField":4,"metarType":"METAR","rawOb":"METAR KASE 121953Z 26011G23KT 220V280 10SM FEW100 14/M11 A2994 RMK AO2 SLP047 T01441106","lat":39.2299,"lon":-106.8705,"elev":2384,"name":"Aspen/Pitkin Cnty, CO, US","cover":"FEW","clouds":[{"cover":"FEW","base":10000}],"fltCat":"VFR"},{"icaoId":"KAPA","receiptTime":"2026-04-12T19:56:44.742Z","obsTime":1776023580,"reportTime":"2026-04-12T20:00:00.000Z","temp":21.1,"dewp":-10.6,"wdir":"VRB","wspd":5,"visib":"10+","altim":1008.5,"slp":1003.3,"qcField":4,"metarType":"METAR","rawOb":"METAR KAPA 121953Z VRB05KT 10SM SCT120 BKN180 BKN220 21/M11 A2978 RMK AO2 SLP033 T02111106","lat":39.5599,"lon":-104.8484,"elev":1791,"name":"Denver/Centennial Arpt, CO, US","cover":"BKN","clouds":[{"cover":"SCT","base":12000},{"cover":"BKN","base":18000},{"cover":"BKN","base":22000}],"fltCat":"VFR"},{"icaoId":"KMIA","receiptTime":"2026-04-12T19:56:44.423Z","obsTime":1776023580,"reportTime":"2026-04-12T20:00:00.000Z","temp":26.7,"dewp":14.4,"wdir":90,"wspd":15,"wgst":24,"visib":"10+","altim":1022.8,"slp":1022.5,"qcField":0,"metarType":"METAR","rawOb":"METAR KMIA 121953Z 09015G24KT 10SM BKN049 27/14 A3020 RMK SLP225 T02670144","lat":25.7881,"lon":-80.3169,"elev":1,"name":"Miami Intl, FL, US","cover":"BKN","clouds":[{"cover":"BKN","base":4900}],"fltCat":"VFR"},{"icaoId":"KBOI","receiptTime":"2026-04-12T19:56:39.279Z","obsTime":1776023580,"reportTime":"2026-04-12T20:00:00.000Z","temp":7.8,"dewp":5.6,"wdir":80,"wspd":3,"visib":3,"altim":1006.9,"slp":1006.3,"qcField":4,"wxString":"-RA BR","precip":0.03,"metarType":"METAR","rawOb":"METAR KBOI 121953Z 08003KT 3SM -RA BR FEW023 OVC032 08/06 A2973 RMK AO2 SFC VIS 6 RAB1855 SLP063 P0003 T00780056","lat":43.567,"lon":-116.2406,"elev":860,"name":"Boise Arpt, ID, US","cover":"OVC","clouds":[{"cover":"FEW","base":2300},{"cover":"OVC","base":3200}],"fltCat":"MVFR"},{"icaoId":"KONT","receiptTime":"2026-04-12T19:56:39.456Z","obsTime":1776023580,"reportTime":"2026-04-12T20:00:00.000Z","temp":16.7,"dewp":11.7,"wdir":230,"wspd":8,"visib":7,"altim":1015.3,"slp":1014.8,"qcField":12,"wxString":"-RA","precip":0.005,"metarType":"METAR","rawOb":"METAR KONT 121953Z 23008KT 7SM -RA FEW027 BKN037 BKN055 17/12 A2998 RMK AO2 RAB08E12B41 SLP148 P0000 T01670117 $","lat":34.0531,"lon":-117.5769,"elev":279,"name":"Ontario Intl, CA, US","cover":"BKN","clouds":[{"cover":"FEW","base":2700},{"cover":"BKN","base":3700},{"cover":"BKN","base":5500}],"fltCat":"VFR"},{"icaoId":"KPBI","receiptTime":"2026-04-12T19:56:35.822Z","obsTime":1776023580,"reportTime":"2026-04-12T20:00:00.000Z","temp":26.1,"dewp":15.6,"wdir":80,"wspd":18,"wgst":23,"visib":"10+","altim":1023.8,"slp":1023.6,"qcField":12,"metarType":"METAR","rawOb":"METAR KPBI 121953Z 08018G23KT 10SM FEW036 FEW044 SCT055 26/16 A3023 RMK AO2 SLP236 T02610156 $","lat":26.6851,"lon":-80.0992,"elev":4,"name":"Palm Beach Intl, FL, US","cover":"SCT","clouds":[{"cover":"FEW","base":3600},{"cover":"FEW","base":4400},{"cover":"SCT","base":5500}],"fltCat":"VFR"},{"icaoId":"KPGA","receiptTime":"2026-04-12T19:56:42.755Z","obsTime":1776023580,"reportTime":"2026-04-12T20:00:00.000Z","temp":21.7,"dewp":-8.9,"wdir":230,"wspd":10,"wgst":25,"visib":"10+","altim":1010.6,"slp":1005.3,"qcField":14,"metarType":"METAR","rawOb":"METAR KPGA 121953Z AUTO 23010G25KT 10SM CLR 22/M09 A2984 RMK AO2 PK WND 19031/1925 SLP053 T02171089 $","lat":36.9211,"lon":-111.4487,"elev":1310,"name":"Page Muni, AZ, US","cover":"CLR","clouds":[],"fltCat":"VFR"},{"icaoId":"KSBA","receiptTime":"2026-04-12T19:56:44.060Z","obsTime":1776023580,"reportTime":"2026-04-12T20:00:00.000Z","temp":18.3,"dewp":10,"wdir":260,"wspd":11,"wgst":18,"visib":"10+","altim":1015.3,"slp":1015.3,"qcField":12,"metarType":"METAR","rawOb":"METAR KSBA 121953Z 26011G18KT 10SM CLR 18/10 A2998 RMK AO2 SLP153 T01830100 $","lat":34.4241,"lon":-119.8425,"elev":2,"name":"Santa Barbara Muni, CA, US","cover":"CLR","clouds":[],"fltCat":"VFR"},{"icaoId":"KEVW","receiptTime":"2026-04-12T19:56:35.446Z","obsTime":1776023580,"reportTime":"2026-04-12T20:00:00.000Z","temp":10,"dewp":-7.2,"wdir":210,"wspd":23,"wgst":49,"visib":"10+","altim":1008.9,"slp":1004.2,"qcField":14,"wxString":"-RA","precip":0.005,"metarType":"METAR","rawOb":"METAR KEVW 121953Z AUTO 21023G49KT 10SM -RA FEW046 SCT060 BKN090 10/M07 A2979 RMK AO2 PK WND 23049/1948 RAB50 SLP042 P0000 T01001072 $","lat":41.2727,"lon":-111.0305,"elev":2178,"name":"Evanston/Uinta Cnty, WY, US","cover":"BKN","clouds":[{"cover":"FEW","base":4600},{"cover":"SCT","base":6000},{"cover":"BKN","base":9000}],"fltCat":"VFR"},{"icaoId":"KABI","receiptTime":"2026-04-12T19:56:36.025Z","obsTime":1776023520,"reportTime":"2026-04-12T20:00:00.000Z","temp":27.8,"dewp":18.9,"wdir":190,"wspd":14,"wgst":21,"visib":"10+","altim":1015,"slp":1012.6,"qcField":12,"metarType":"METAR","rawOb":"METAR KABI 121952Z 19014G21KT 10SM FEW036 28/19 A2997 RMK AO2 SLP126 T02780189 $","lat":32.4106,"lon":-99.6821,"elev":543,"name":"Abilene Rgnl, TX, US","cover":"FEW","clouds":[{"cover":"FEW","base":3600}],"fltCat":"VFR"},{"icaoId":"KCVG","receiptTime":"2026-04-12T19:56:38.445Z","obsTime":1776023520,"reportTime":"2026-04-12T20:00:00.000Z","temp":25.6,"dewp":10.6,"wdir":220,"wspd":13,"wgst":20,"visib":"10+","altim":1019.7,"slp":1018.8,"qcField":12,"metarType":"METAR","rawOb":"METAR KCVG 121952Z 22013G20KT 10SM SCT075 OVC200 26/11 A3011 RMK AO2 SLP188 T02560106 $","lat":39.0444,"lon":-84.6724,"elev":264,"name":"Cincinnati Intl, KY, US","cover":"OVC","clouds":[{"cover":"SCT","base":7500},{"cover":"OVC","base":20000}],"fltCat":"VFR"},{"icaoId":"KABQ","receiptTime":"2026-04-12T19:56:36.039Z","obsTime":1776023520,"reportTime":"2026-04-12T20:00:00.000Z","temp":21.1,"dewp":-6.1,"wdir":250,"wspd":7,"visib":"10+","altim":1015.7,"slp":1009.4,"qcField":12,"metarType":"METAR","rawOb":"METAR KABQ 121952Z 25007KT 210V270 10SM FEW110 BKN200 BKN250 21/M06 A2999 RMK AO2 PK WND 20030/1921 SLP094 T02111061 $","lat":35.0419,"lon":-106.6154,"elev":1620,"name":"Albuquerque Intl, NM, US","cover":"BKN","clouds":[{"cover":"FEW","base":11000},{"cover":"BKN","base":20000},{"cover":"BKN","base":25000}],"fltCat":"VFR"},{"icaoId":"KCLT","receiptTime":"2026-04-12T19:56:33.417Z","obsTime":1776023520,"reportTime":"2026-04-12T20:00:00.000Z","temp":28.9,"dewp":7.8,"wdir":210,"wspd":11,"wgst":17,"visib":"10+","altim":1025.8,"slp":1026.5,"qcField":5,"metarType":"METAR","rawOb":"METAR KCLT 121952Z COR 21011G17KT 10SM FEW080 FEW250 29/08 A3029 RMK AO2 SLP265 T02890078","lat":35.2225,"lon":-80.9543,"elev":223,"name":"Charlotte/Douglas Intl, NC, US","cover":"FEW","clouds":[{"cover":"FEW","base":8000},{"cover":"FEW","base":25000}],"fltCat":"VFR"},{"icaoId":"KDCA","receiptTime":"2026-04-12T19:56:38.497Z","obsTime":1776023520,"reportTime":"2026-04-12T20:00:00.000Z","temp":21.7,"dewp":8.9,"wdir":180,"wspd":13,"visib":"10+","altim":1026.5,"slp":1026.4,"qcField":4,"metarType":"METAR","rawOb":"METAR KDCA 121952Z 18013KT 10SM BKN250 22/09 A3031 RMK AO2 SLP264 T02170089","lat":38.8472,"lon":-77.0345,"elev":4,"name":"Washington/Reagan-National Arpt, VA, US","cover":"BKN","clouds":[{"cover":"BKN","base":25000}],"fltCat":"VFR"},{"icaoId":"KATL","receiptTime":"2026-04-12T19:56:25.606Z","obsTime":1776023520,"reportTime":"2026-04-12T20:00:00.000Z","temp":29.4,"dewp":4.4,"wdir":170,"wspd":12,"wgst":23,"visib":"10+","altim":1025.1,"slp":1024.3,"qcField":12,"metarType":"METAR","rawOb":"METAR KATL 121952Z 17012G23KT 10SM FEW075 FEW250 29/04 A3027 RMK AO2 PK WND 16027/1907 SLP243 T02940044 $","lat":33.6297,"lon":-84.4422,"elev":309,"name":"Atlanta/Hartsfield-Jackson Intl, GA, US","cover":"FEW","clouds":[{"cover":"FEW","base":7500},{"cover":"FEW","base":25000}],"fltCat":"VFR"},{"icaoId":"KHRL","receiptTime":"2026-04-12T19:56:38.736Z","obsTime":1776023520,"reportTime":"2026-04-12T20:00:00.000Z","temp":27.8,"dewp":21.1,"wdir":150,"wspd":18,"visib":"10+","altim":1016,"slp":1015.8,"qcField":4,"metarType":"METAR","rawOb":"METAR KHRL 121952Z 15018KT 10SM BKN030 BKN037 OVC050 28/21 A3000 RMK AO2 SLP158 T02780211","lat":26.2303,"lon":-97.6556,"elev":9,"name":"Harlingen/Valley Intl, TX, US","cover":"OVC","clouds":[{"cover":"BKN","base":3000},{"cover":"BKN","base":3700},{"cover":"OVC","base":5000}],"fltCat":"MVFR"},{"icaoId":"KSPS","receiptTime":"2026-04-12T19:56:36.177Z","obsTime":1776023520,"reportTime":"2026-04-12T20:00:00.000Z","temp":27.8,"dewp":18.3,"wdir":190,"wspd":21,"wgst":30,"visib":"10+","altim":1012.3,"slp":1011,"qcField":4,"metarType":"METAR","rawOb":"METAR KSPS 121952Z 19021G30KT 10SM SCT041 SCT049 28/18 A2989 RMK AO2 PK WND 18030/1948 SLP110 T02780183","lat":33.9785,"lon":-98.493,"elev":310,"name":"Wichita Falls Rgnl, TX, US","cover":"SCT","clouds":[{"cover":"SCT","base":4100},{"cover":"SCT","base":4900}],"fltCat":"VFR"},{"icaoId":"KOKC","receiptTime":"2026-04-12T19:56:24.796Z","obsTime":1776023520,"reportTime":"2026-04-12T20:00:00.000Z","temp":26.1,"dewp":17.2,"wdir":200,"wspd":22,"wgst":31,"visib":"10+","altim":1011.9,"slp":1010.4,"qcField":4,"metarType":"METAR","rawOb":"METAR KOKC 121952Z 20022G31KT 10SM FEW037 FEW110 SCT250 26/17 A2988 RMK AO2 PK WND 17032/1919 SLP104 T02610172","lat":35.3843,"lon":-97.6003,"elev":391,"name":"Oklahoma City/Will Rogers Intl, OK, US","cover":"SCT","clouds":[{"cover":"FEW","base":3700},{"cover":"FEW","base":11000},{"cover":"SCT","base":25000}],"fltCat":"VFR"},{"icaoId":"KMLF","receiptTime":"2026-04-12T19:56:36.162Z","obsTime":1776023520,"reportTime":"2026-04-12T20:00:00.000Z","temp":18.9,"dewp":-9.4,"wdir":220,"wspd":32,"wgst":46,"visib":"10+","altim":1008.5,"slp":1004.5,"qcField":6,"metarType":"METAR","rawOb":"METAR KMLF 121952Z AUTO 22032G46KT 10SM CLR 19/M09 A2978 RMK AO2 PK WND 22048/1901 SLP045 T01891094","lat":38.4225,"lon":-113.0109,"elev":1537,"name":"Milford Muni, UT, US","cover":"CLR","clouds":[],"fltCat":"VFR"},{"icaoId":"KIAD","receiptTime":"2026-04-12T19:56:38.771Z","obsTime":1776023520,"reportTime":"2026-04-12T20:00:00.000Z","temp":22.2,"dewp":7.2,"wdir":130,"wspd":11,"wgst":20,"visib":"10+","altim":1025.5,"slp":1025.4,"qcField":12,"metarType":"METAR","rawOb":"METAR KIAD 121952Z 13011G20KT 10SM FEW180 BKN250 22/07 A3028 RMK AO2 SLP254 T02220072 $","lat":38.9348,"lon":-77.4473,"elev":90,"name":"Washington/Dulles Intl, VA, US","cover":"BKN","clouds":[{"cover":"FEW","base":18000},{"cover":"BKN","base":25000}],"fltCat":"VFR"},{"icaoId":"KMKE","receiptTime":"2026-04-12T19:56:29.871Z","obsTime":1776023520,"reportTime":"2026-04-12T20:00:00.000Z","temp":23.9,"dewp":15,"wdir":220,"wspd":21,"wgst":37,"visib":"10+","altim":1008.9,"slp":1008.7,"qcField":12,"precip":0.005,"metarType":"METAR","rawOb":"METAR KMKE 121952Z 22021G37KT 10SM FEW046 SCT080 SCT110 BKN150 OVC250 24/15 A2979 RMK AO2 PK WND 22037/1942 RAE00 SLP087 P0000 T02390150 $","lat":42.9549,"lon":-87.9045,"elev":203,"name":"Milwaukee/Mitchell Intl, WI, US","cover":"BKN","clouds":[{"cover":"FEW","base":4600},{"cover":"SCT","base":8000},{"cover":"SCT","base":11000},{"cover":"BKN","base":15000}],"fltCat":"VFR"},{"icaoId":"KIFP","receiptTime":"2026-04-12T19:49:22.222Z","obsTime":1776023460,"reportTime":"2026-04-12T20:00:00.000Z","temp":25,"dewp":-5,"wdir":180,"wspd":16,"wgst":24,"visib":"10+","altim":1010.2,"qcField":0,"metarType":"METAR","rawOb":"METAR KIFP 121951Z 18016G24KT 10SM CLR 25/M05 A2983","lat":35.1487,"lon":-114.5611,"elev":210,"name":"Bullhead City Intl, AZ, US","cover":"CLR","clouds":[],"fltCat":"VFR"},{"icaoId":"KPHX","receiptTime":"2026-04-12T19:54:10.881Z","obsTime":1776023460,"reportTime":"2026-04-12T20:00:00.000Z","temp":27.2,"dewp":0.6,"wdir":210,"wspd":6,"visib":"10+","altim":1012.6,"slp":1010.8,"qcField":12,"metarType":"METAR","rawOb":"METAR KPHX 121951Z 21006KT 10SM FEW100 OVC230 27/01 A2990 RMK AO2 SLP108 T02720006 $","lat":33.4278,"lon":-112.0037,"elev":338,"name":"Phoenix/Sky Harbor Intl, AZ, US","cover":"OVC","clouds":[{"cover":"FEW","base":10000},{"cover":"OVC","base":23000}],"fltCat":"VFR"},{"icaoId":"KPVD","receiptTime":"2026-04-12T19:54:10.968Z","obsTime":1776023460,"reportTime":"2026-04-12T20:00:00.000Z","temp":8.9,"dewp":-2.2,"wdir":150,"wspd":17,"wgst":25,"visib":"10+","altim":1030.6,"slp":1030.6,"qcField":12,"metarType":"METAR","rawOb":"METAR KPVD 121951Z 15017G25KT 10SM SCT130 BKN240 09/M02 A3043 RMK AO2 SLP306 T00891022 $","lat":41.7225,"lon":-71.4325,"elev":15,"name":"Providence/Green Mem, RI, US","cover":"BKN","clouds":[{"cover":"SCT","base":13000},{"cover":"BKN","base":24000}],"fltCat":"VFR"},{"icaoId":"KRDU","receiptTime":"2026-04-12T19:54:11.030Z","obsTime":1776023460,"reportTime":"2026-04-12T20:00:00.000Z","temp":27.8,"dewp":13.3,"wdir":190,"wspd":7,"wgst":14,"visib":"10+","altim":1026.5,"slp":1026,"qcField":12,"metarType":"METAR","rawOb":"METAR KRDU 121951Z 19007G14KT 10SM FEW055 SCT250 28/13 A3031 RMK AO2 SLP260 T02780133 $","lat":35.8923,"lon":-78.782,"elev":121,"name":"Raleigh-Durham Intl, NC, US","cover":"SCT","clouds":[{"cover":"FEW","base":5500},{"cover":"SCT","base":25000}],"fltCat":"VFR"},{"icaoId":"KSAD","receiptTime":"2026-04-12T19:54:11.075Z","obsTime":1776023460,"reportTime":"2026-04-12T20:00:00.000Z","temp":26.7,"dewp":-5,"wdir":"VRB","wspd":5,"visib":"10+","altim":1014.6,"slp":1009.9,"qcField":6,"metarType":"METAR","rawOb":"METAR KSAD 121951Z AUTO VRB05KT 10SM CLR 27/M05 A2996 RMK AO2 SLP099 T02671050","lat":32.8565,"lon":-109.636,"elev":937,"name":"Safford Rgnl, AZ, US","cover":"CLR","clouds":[],"fltCat":"VFR"},{"icaoId":"KSTL","receiptTime":"2026-04-12T19:54:11.265Z","obsTime":1776023460,"reportTime":"2026-04-12T20:00:00.000Z","temp":23.9,"dewp":11.7,"wdir":200,"wspd":13,"wgst":23,"visib":"10+","altim":1015,"slp":1013.9,"qcField":12,"wxString":"-RA","precip":0.005,"metarType":"METAR","rawOb":"METAR KSTL 121951Z 20013G23KT 10SM -RA SCT055 OVC100 24/12 A2997 RMK AO2 PK WND 19031/1920 RAB29 SLP139 P0000 T02390117 $","lat":38.7525,"lon":-90.3734,"elev":163,"name":"St Louis/Lambert Intl, MO, US","cover":"OVC","clouds":[{"cover":"SCT","base":5500},{"cover":"OVC","base":10000}],"fltCat":"VFR"},{"icaoId":"KACT","receiptTime":"2026-04-12T19:54:12.072Z","obsTime":1776023460,"reportTime":"2026-04-12T20:00:00.000Z","temp":22.8,"dewp":21.1,"wdir":170,"wspd":12,"visib":"10+","altim":1016.7,"slp":1016,"qcField":4,"precip":0.005,"metarType":"METAR","rawOb":"METAR KACT 121951Z 17012KT 10SM BKN012 OVC021 23/21 A3002 RMK AO2 RAE00 SLP160 P0000 T02280211","lat":31.618,"lon":-97.2283,"elev":150,"name":"Waco Rgnl, TX, US","cover":"OVC","clouds":[{"cover":"BKN","base":1200},{"cover":"OVC","base":2100}],"fltCat":"MVFR"},{"icaoId":"KELP","receiptTime":"2026-04-12T19:54:12.559Z","obsTime":1776023460,"reportTime":"2026-04-12T20:00:00.000Z","temp":27.2,"dewp":-1.1,"wdir":210,"wspd":15,"wgst":24,"visib":"10+","altim":1017,"slp":1010.8,"qcField":4,"metarType":"METAR","rawOb":"METAR KELP 121951Z 21015G24KT 170V240 10SM FEW100 BKN250 27/M01 A3003 RMK AO2 PK WND 24031/1914 SLP108 T02721011","lat":31.8123,"lon":-106.3774,"elev":1205,"name":"El Paso Intl, TX, US","cover":"BKN","clouds":[{"cover":"FEW","base":10000},{"cover":"BKN","base":25000}],"fltCat":"VFR"},{"icaoId":"KIGM","receiptTime":"2026-04-12T19:54:10.523Z","obsTime":1776023460,"reportTime":"2026-04-12T20:00:00.000Z","temp":20.6,"dewp":-5,"wdir":210,"wspd":26,"wgst":39,"visib":"10+","altim":1013.3,"slp":1007.8,"qcField":6,"metarType":"METAR","rawOb":"METAR KIGM 121951Z AUTO 21026G39KT 10SM CLR 21/M05 A2992 RMK AO2 PK WND 22039/1950 SLP078 T02061050","lat":35.2575,"lon":-113.9341,"elev":1045,"name":"Kingman Arpt, AZ, US","cover":"CLR","clouds":[],"fltCat":"VFR"},{"icaoId":"KJFK","receiptTime":"2026-04-12T19:54:10.629Z","obsTime":1776023460,"reportTime":"2026-04-12T20:00:00.000Z","temp":10,"dewp":-0.6,"wdir":130,"wspd":15,"visib":"10+","altim":1031.2,"slp":1031.1,"qcField":12,"metarType":"METAR","rawOb":"METAR KJFK 121951Z 13015KT 10SM SCT170 SCT250 10/M01 A3045 RMK AO2 SLP311 T01001006 $","lat":40.6392,"lon":-73.7639,"elev":3,"name":"New York/JF Kennedy Intl, NY, US","cover":"SCT","clouds":[{"cover":"SCT","base":17000},{"cover":"SCT","base":25000}],"fltCat":"VFR"},{"icaoId":"KLGA","receiptTime":"2026-04-12T19:54:10.666Z","obsTime":1776023460,"reportTime":"2026-04-12T20:00:00.000Z","temp":12.2,"dewp":-3.3,"wdir":150,"wspd":12,"visib":"10+","altim":1030.2,"slp":1030.1,"qcField":12,"metarType":"METAR","rawOb":"METAR KLGA 121951Z 15012KT 10SM FEW200 SCT250 12/M03 A3042 RMK AO2 SLP301 T01221033 $","lat":40.7794,"lon":-73.8803,"elev":9,"name":"New York/La Guardia Arpt, NY, US","cover":"SCT","clouds":[{"cover":"FEW","base":20000},{"cover":"SCT","base":25000}],"fltCat":"VFR"},{"icaoId":"KLGU","receiptTime":"2026-04-12T19:54:10.698Z","obsTime":1776023460,"reportTime":"2026-04-12T20:00:00.000Z","temp":12.8,"dewp":-1.7,"wdir":170,"wspd":27,"wgst":51,"visib":"10+","altim":1006.9,"slp":1004.9,"qcField":6,"wxString":"-RA","precip":0.005,"metarType":"METAR","rawOb":"METAR KLGU 121951Z AUTO 17027G51KT 10SM -RA FEW047 SCT060 BKN090 13/M02 A2973 RMK AO2 PK WND 21051/1946 LTG DSNT S RAB48 SLP049 P0000 T01281017","lat":41.7865,"lon":-111.8519,"elev":1359,"name":"Logan/Cache Arpt, UT, US","cover":"BKN","clouds":[{"cover":"FEW","base":4700},{"cover":"SCT","base":6000},{"cover":"BKN","base":9000}],"fltCat":"VFR"},{"icaoId":"KMYL","receiptTime":"2026-04-12T19:54:10.763Z","obsTime":1776023460,"reportTime":"2026-04-12T20:00:00.000Z","temp":6.1,"dewp":3.3,"wdir":160,"wspd":7,"visib":"10+","altim":1004.1,"slp":1003.9,"qcField":6,"wxString":"-RA","precip":0.02,"metarType":"METAR","rawOb":"METAR KMYL 121951Z AUTO 16007KT 10SM -RA SCT015 OVC037 06/03 A2965 RMK AO2 SLP039 P0002 T00610033","lat":44.8943,"lon":-116.0998,"elev":1532,"name":"McCall Muni, ID, US","cover":"OVC","clouds":[{"cover":"SCT","base":1500},{"cover":"OVC","base":3700}],"fltCat":"VFR"},{"icaoId":"KORD","receiptTime":"2026-04-12T19:54:10.794Z","obsTime":1776023460,"reportTime":"2026-04-12T20:00:00.000Z","temp":26.1,"dewp":12.8,"wdir":210,"wspd":21,"wgst":34,"visib":"10+","altim":1010.6,"slp":1010.2,"qcField":12,"metarType":"METAR","rawOb":"METAR KORD 121951Z 21021G34KT 10SM SCT060 BKN100 BKN150 BKN250 26/13 A2984 RMK AO2 PK WND 18034/1945 SLP102 T02610128 $","lat":41.9602,"lon":-87.9316,"elev":202,"name":"Chicago/O'Hare Intl, IL, US","cover":"BKN","clouds":[{"cover":"SCT","base":6000},{"cover":"BKN","base":10000},{"cover":"BKN","base":15000},{"cover":"BKN","base":25000}],"fltCat":"VFR"},{"icaoId":"KORF","receiptTime":"2026-04-12T19:54:10.826Z","obsTime":1776023460,"reportTime":"2026-04-12T20:00:00.000Z","temp":19.4,"dewp":8.9,"wdir":130,"wspd":12,"wgst":20,"visib":"10+","altim":1028.9,"slp":1028.8,"qcField":4,"metarType":"METAR","rawOb":"METAR KORF 121951Z 13012G20KT 10SM SCT080 19/09 A3038 RMK AO2 SLP288 T01940089","lat":36.9037,"lon":-76.1927,"elev":5,"name":"Norfolk Intl, VA, US","cover":"SCT","clouds":[{"cover":"SCT","base":8000}],"fltCat":"VFR"},{"icaoId":"KOXR","receiptTime":"2026-04-12T19:54:10.854Z","obsTime":1776023460,"reportTime":"2026-04-12T20:00:00.000Z","temp":17.8,"dewp":7.8,"wdir":240,"wspd":13,"visib":"10+","altim":1016,"slp":1015.6,"qcField":4,"metarType":"METAR","rawOb":"METAR KOXR 121951Z 24013KT 10SM CLR 18/08 A3000 RMK AO2 SLP156 T01780078","lat":34.2001,"lon":-119.2042,"elev":12,"name":"Oxnard Arpt, CA, US","cover":"CLR","clouds":[],"fltCat":"VFR"},{"icaoId":"KROW","receiptTime":"2026-04-12T19:54:11.055Z","obsTime":1776023460,"reportTime":"2026-04-12T20:00:00.000Z","temp":28.9,"dewp":-0.6,"wdir":200,"wspd":16,"wgst":32,"visib":"10+","altim":1013.6,"slp":1007.4,"qcField":12,"metarType":"METAR","rawOb":"METAR KROW 121951Z 20016G32KT 10SM FEW110 29/M01 A2993 RMK AO2 PK WND 23033/1939 SLP074 T02891006 $","lat":33.3074,"lon":-104.5082,"elev":1105,"name":"Roswell/Ind Arpt, NM, US","cover":"FEW","clouds":[{"cover":"FEW","base":11000}],"fltCat":"VFR"},{"icaoId":"KSAN","receiptTime":"2026-04-12T19:54:11.102Z","obsTime":1776023460,"reportTime":"2026-04-12T20:00:00.000Z","temp":20,"dewp":12.8,"wdir":210,"wspd":9,"visib":"10+","altim":1017,"slp":1017,"qcField":12,"precip":0.005,"metarType":"METAR","rawOb":"METAR KSAN 121951Z 21009KT 10SM SCT030 BKN070 BKN250 20/13 A3003 RMK AO2 PK WND 21026/1855 RAB1857E13 SLP170 P0000 T02000128 $","lat":32.7364,"lon":-117.1973,"elev":3,"name":"San Diego Intl Arpt, CA, US","cover":"BKN","clouds":[{"cover":"SCT","base":3000},{"cover":"BKN","base":7000},{"cover":"BKN","base":25000}],"fltCat":"VFR"},{"icaoId":"KVNY","receiptTime":"2026-04-12T19:54:11.376Z","obsTime":1776023460,"reportTime":"2026-04-12T20:00:00.000Z","temp":17.8,"dewp":5,"wdir":240,"wspd":7,"visib":"10+","altim":1015,"slp":1014.5,"qcField":12,"metarType":"METAR","rawOb":"METAR KVNY 121951Z 24007KT 10SM BKN065 18/05 A2997 RMK AO2 SLP145 T01780050 $","lat":34.2121,"lon":-118.4915,"elev":241,"name":"Van Nuys Arpt, CA, US","cover":"BKN","clouds":[{"cover":"BKN","base":6500}],"fltCat":"VFR"},{"icaoId":"KSAT","receiptTime":"2026-04-12T19:54:11.586Z","obsTime":1776023460,"reportTime":"2026-04-12T20:00:00.000Z","temp":25,"dewp":21.1,"wdir":160,"wspd":12,"visib":5,"altim":1016.3,"slp":1014.6,"qcField":4,"wxString":"-TSRA","precip":0.01,"metarType":"METAR","rawOb":"METAR KSAT 121951Z 16012KT 5SM -TSRA BKN029CB BKN045 OVC090 25/21 A3001 RMK AO2 RAE16B40 TSB40 SLP146 OCNL LTGCG TS S-W-NW MOV NE P0001 T02500211","lat":29.5443,"lon":-98.4839,"elev":246,"name":"San Antonio Intl, TX, US","cover":"OVC","clouds":[{"cover":"BKN","base":2900},{"cover":"BKN","base":4500},{"cover":"OVC","base":9000}],"fltCat":"MVFR"},{"icaoId":"KPIT","receiptTime":"2026-04-12T19:54:11.713Z","obsTime":1776023460,"reportTime":"2026-04-12T20:00:00.000Z","temp":25,"dewp":8.3,"wdir":190,"wspd":9,"wgst":18,"visib":"10+","altim":1020.7,"slp":1021.2,"qcField":12,"metarType":"METAR","rawOb":"METAR KPIT 121951Z 19009G18KT 10SM FEW035 FEW110 BKN250 25/08 A3014 RMK AO2 SLP212 T02500083 $","lat":40.4814,"lon":-80.2083,"elev":339,"name":"Pittsburgh Intl, PA, US","cover":"BKN","clouds":[{"cover":"FEW","base":3500},{"cover":"FEW","base":11000},{"cover":"BKN","base":25000}],"fltCat":"VFR"},{"icaoId":"KBDL","receiptTime":"2026-04-12T19:54:12.199Z","obsTime":1776023460,"reportTime":"2026-04-12T20:00:00.000Z","temp":14.4,"dewp":-4.4,"wdir":170,"wspd":14,"wgst":19,"visib":"10+","altim":1028.5,"slp":1028.6,"qcField":4,"metarType":"METAR","rawOb":"METAR KBDL 121951Z 17014G19KT 10SM FEW080 SCT140 BKN250 14/M04 A3037 RMK AO2 SLP286 T01441044","lat":41.9374,"lon":-72.682,"elev":52,"name":"Hartford/Bradley Intl, CT, US","cover":"BKN","clouds":[{"cover":"FEW","base":8000},{"cover":"SCT","base":14000},{"cover":"BKN","base":25000}],"fltCat":"VFR"},{"icaoId":"KCLE","receiptTime":"2026-04-12T19:54:12.334Z","obsTime":1776023460,"reportTime":"2026-04-12T20:00:00.000Z","temp":23.3,"dewp":11.7,"wdir":200,"wspd":13,"wgst":24,"visib":"10+","altim":1017.4,"slp":1018.8,"qcField":12,"metarType":"METAR","rawOb":"METAR KCLE 121951Z 20013G24KT 10SM FEW110 BKN200 23/12 A3004 RMK AO2 SLP188 T02330117 $","lat":41.4057,"lon":-81.8519,"elev":237,"name":"Cleveland/Hopkins Intl, OH, US","cover":"BKN","clouds":[{"cover":"FEW","base":11000},{"cover":"BKN","base":20000}],"fltCat":"VFR"},{"icaoId":"KCMH","receiptTime":"2026-04-12T19:54:12.374Z","obsTime":1776023460,"reportTime":"2026-04-12T20:00:00.000Z","temp":27.2,"dewp":10,"wdir":210,"wspd":15,"wgst":24,"visib":"10+","altim":1019,"slp":1018.8,"qcField":4,"metarType":"METAR","rawOb":"METAR KCMH 121951Z 21015G24KT 10SM SCT070 SCT200 BKN250 27/10 A3009 RMK AO2 PK WND 23027/1932 SLP188 T02720100","lat":39.9907,"lon":-82.877,"elev":257,"name":"Columbus/Glenn Intl, OH, US","cover":"BKN","clouds":[{"cover":"SCT","base":7000},{"cover":"SCT","base":20000},{"cover":"BKN","base":25000}],"fltCat":"VFR"},{"icaoId":"KEWR","receiptTime":"2026-04-12T19:54:12.611Z","obsTime":1776023460,"reportTime":"2026-04-12T20:00:00.000Z","temp":10.6,"dewp":-1.1,"wdir":140,"wspd":12,"wgst":23,"visib":"10+","altim":1030.6,"slp":1030.2,"qcField":4,"metarType":"METAR","rawOb":"METAR KEWR 121951Z 14012G23KT 10SM FEW130 FEW190 SCT250 11/M01 A3043 RMK AO2 SLP302 T01061011","lat":40.6828,"lon":-74.1692,"elev":2,"name":"Newark Intl, NJ, US","cover":"SCT","clouds":[{"cover":"FEW","base":13000},{"cover":"FEW","base":19000},{"cover":"SCT","base":25000}],"fltCat":"VFR"},{"icaoId":"KCRP","receiptTime":"2026-04-12T19:57:05.463Z","obsTime":1776023460,"reportTime":"2026-04-12T20:00:00.000Z","temp":25.6,"dewp":21.7,"wdir":150,"wspd":21,"wgst":27,"visib":"10+","altim":1017,"slp":1016.6,"qcField":5,"precip":0.005,"metarType":"METAR","rawOb":"METAR KCRP 121951Z COR 15021G27KT 10SM BKN023 OVC075 26/22 A3003 RMK AO2 PK WND 17031/1854 RAE1854B34E45 SLP166 P0000 T02560217","lat":27.7734,"lon":-97.513,"elev":11,"name":"Corpus Christi Intl, TX, US","cover":"OVC","clouds":[{"cover":"BKN","base":2300},{"cover":"OVC","base":7500}],"fltCat":"MVFR"},{"icaoId":"KAEG","receiptTime":"2026-04-12T19:56:53.283Z","obsTime":1776023400,"reportTime":"2026-04-12T20:00:00.000Z","temp":21,"dewp":-9,"wdir":230,"wspd":9,"wgst":18,"visib":"10+","altim":1016.7,"qcField":0,"metarType":"METAR","rawOb":"METAR KAEG 121950Z 23009G18KT 10SM CLR 21/M09 A3002","lat":35.15,"lon":-106.7929,"elev":1771,"name":"Albuquerque/Double Eagle Arpt, NM, US","cover":"CLR","clouds":[],"fltCat":"VFR"},{"icaoId":"KHOB","receiptTime":"2026-04-12T19:51:34.152Z","obsTime":1776023400,"reportTime":"2026-04-12T20:00:00.000Z","temp":28,"dewp":0,"wdir":210,"wspd":15,"wgst":23,"visib":"10+","altim":1015.7,"qcField":0,"metarType":"METAR","rawOb":"METAR KHOB 121950Z 21015G23KT 10SM FEW095 28/00 A2999","lat":32.6797,"lon":-103.2222,"elev":1112,"name":"Hobbs Arpt, NM, US","cover":"FEW","clouds":[{"cover":"FEW","base":9500}],"fltCat":"VFR"},{"icaoId":"KIWA","receiptTime":"2026-04-12T19:50:33.363Z","obsTime":1776023280,"reportTime":"2026-04-12T20:00:00.000Z","temp":27,"dewp":0,"wdir":200,"wspd":16,"wgst":24,"visib":"10+","altim":1014,"qcField":0,"metarType":"METAR","rawOb":"METAR KIWA 121948Z 20016G24KT 10SM CLR 27/00 A2994","lat":33.3008,"lon":-111.6437,"elev":420,"name":"Phoenix/Mesa Gateway Arpt, AZ, US","cover":"CLR","clouds":[],"fltCat":"VFR"},{"icaoId":"KBJC","receiptTime":"2026-04-12T19:46:43.516Z","obsTime":1776023220,"reportTime":"2026-04-12T20:00:00.000Z","temp":22,"dewp":-8,"wdir":40,"wspd":9,"wgst":15,"visib":"10+","altim":1008.9,"qcField":0,"metarType":"METAR","rawOb":"METAR KBJC 121947Z 04009G15KT 010V070 10SM CLR 22/M08 A2979","lat":39.9008,"lon":-105.1042,"elev":1694,"name":"Rocky Mtn Metro, CO, US","cover":"CLR","clouds":[],"fltCat":"VFR"},{"icaoId":"KCHD","receiptTime":"2026-04-12T19:48:33.428Z","obsTime":1776023220,"reportTime":"2026-04-12T20:00:00.000Z","temp":28,"dewp":0,"wdir":180,"wspd":14,"visib":"10+","altim":1013.3,"qcField":0,"metarType":"METAR","rawOb":"METAR KCHD 121947Z 18014KT 10SM BKN200 28/00 A2992","lat":33.2669,"lon":-111.8086,"elev":378,"name":"Chandler Muni, AZ, US","cover":"BKN","clouds":[{"cover":"BKN","base":20000}],"fltCat":"VFR"},{"icaoId":"KSUN","receiptTime":"2026-04-12T19:48:33.902Z","obsTime":1776023220,"reportTime":"2026-04-12T20:00:00.000Z","temp":9,"dewp":2,"wdir":200,"wspd":20,"wgst":32,"visib":"10+","altim":1005.8,"qcField":0,"metarType":"METAR","rawOb":"METAR KSUN 121947Z 20020G32KT 10SM SCT048 BKN060 BKN080 09/02 A2970","lat":43.4969,"lon":-114.2923,"elev":1619,"name":"Hailey/Friedman Mem, ID, US","cover":"BKN","clouds":[{"cover":"SCT","base":4800},{"cover":"BKN","base":6000},{"cover":"BKN","base":8000}],"fltCat":"VFR"},{"icaoId":"KGYR","receiptTime":"2026-04-12T19:48:33.621Z","obsTime":1776023220,"reportTime":"2026-04-12T20:00:00.000Z","temp":27,"dewp":2,"wdir":200,"wspd":13,"visib":"10+","altim":1013.3,"qcField":0,"metarType":"METAR","rawOb":"METAR KGYR 121947Z 20013KT 10SM SCT200 BKN250 27/02 A2992","lat":33.428,"lon":-112.368,"elev":292,"name":"Phoenix/Goodyear Muni, AZ, US","cover":"BKN","clouds":[{"cover":"SCT","base":20000},{"cover":"BKN","base":25000}],"fltCat":"VFR"},{"icaoId":"KRYN","receiptTime":"2026-04-12T19:46:07.962Z","obsTime":1776023100,"reportTime":"2026-04-12T20:00:00.000Z","temp":29,"dewp":1,"wdir":210,"wspd":15,"wgst":24,"visib":"10+","altim":1014.3,"qcField":0,"metarType":"METAR","rawOb":"METAR KRYN 121945Z 21015G24KT 10SM CLR 29/01 A2995","lat":32.1418,"lon":-111.1767,"elev":731,"name":"Tucson/Ryan Fld, AZ, US","cover":"CLR","clouds":[],"fltCat":"VFR"},{"icaoId":"KGUC","receiptTime":"2026-04-12T19:40:20.896Z","obsTime":1776022620,"reportTime":"2026-04-12T19:37:00.000Z","temp":16,"dewp":-12,"wdir":270,"wspd":17,"wgst":23,"visib":"10+","altim":1014.3,"qcField":14,"metarType":"SPECI","rawOb":"SPECI KGUC 121937Z AUTO 27017G23KT 10SM CLR 16/M12 A2995 RMK AO2 WSHFT 1912 $","lat":38.5322,"lon":-106.9419,"elev":2337,"name":"Gunnison Arpt, CO, US","cover":"CLR","clouds":[],"fltCat":"VFR"},{"icaoId":"KSEZ","receiptTime":"2026-04-12T19:40:31.961Z","obsTime":1776022500,"reportTime":"2026-04-12T19:35:00.000Z","temp":19,"dewp":-4,"wdir":220,"wspd":10,"wgst":30,"visib":"10+","altim":1016,"qcField":6,"metarType":"METAR","rawOb":"METAR KSEZ 121935Z AUTO 22010G30KT 190V270 10SM BKN075 BKN090 19/M04 A3000 RMK AO2","lat":34.8467,"lon":-111.7884,"elev":1455,"name":"Sedona Arpt, AZ, US","cover":"BKN","clouds":[{"cover":"BKN","base":7500},{"cover":"BKN","base":9000}],"fltCat":"VFR"},{"icaoId":"KHAF","receiptTime":"2026-04-12T19:38:16.667Z","obsTime":1776022500,"reportTime":"2026-04-12T19:35:00.000Z","temp":13,"dewp":12,"wdir":230,"wspd":11,"wgst":17,"visib":7,"altim":1013.6,"qcField":6,"metarType":"METAR","rawOb":"METAR KHAF 121935Z AUTO 23011G17KT 7SM FEW024 FEW031 BKN055 13/12 A2993 RMK AO2","lat":37.5136,"lon":-122.4996,"elev":11,"name":"Half Moon Bay Arpt, CA, US","cover":"BKN","clouds":[{"cover":"FEW","base":2400},{"cover":"FEW","base":3100},{"cover":"BKN","base":5500}],"fltCat":"VFR"},{"icaoId":"KHCR","receiptTime":"2026-04-12T19:38:16.688Z","obsTime":1776022500,"reportTime":"2026-04-12T19:35:00.000Z","temp":14.6,"dewp":-5.5,"wdir":240,"wspd":13,"wgst":21,"visib":"10+","altim":1007.5,"qcField":14,"metarType":"METAR","rawOb":"METAR KHCR 121935Z AUTO 24013G21KT 10SM SCT100 BKN120 15/M05 A2975 RMK AO2 PK WND 16027/1911 T01461055 $","lat":40.4774,"lon":-111.4329,"elev":1708,"name":"Heber City Muni, UT, US","cover":"BKN","clouds":[{"cover":"SCT","base":10000},{"cover":"BKN","base":12000}],"fltCat":"VFR"},{"icaoId":"KRTS","receiptTime":"2026-04-12T19:40:21.767Z","obsTime":1776022500,"reportTime":"2026-04-12T19:35:00.000Z","temp":3,"dewp":-3,"wdir":330,"wspd":3,"visib":"10+","altim":1010.6,"qcField":6,"metarType":"METAR","rawOb":"METAR KRTS 121935Z AUTO 33003KT 10SM FEW036 SCT065 BKN075 03/M03 A2984 RMK AO2","lat":39.6658,"lon":-119.8731,"elev":1537,"name":"Reno/Stead Arpt, NV, US","cover":"BKN","clouds":[{"cover":"FEW","base":3600},{"cover":"SCT","base":6500},{"cover":"BKN","base":7500}],"fltCat":"VFR"},{"icaoId":"KMEV","receiptTime":"2026-04-12T19:40:26.666Z","obsTime":1776022500,"reportTime":"2026-04-12T19:35:00.000Z","temp":7,"dewp":-1,"wdir":170,"wspd":13,"wgst":21,"visib":"10+","altim":1009.9,"qcField":6,"metarType":"METAR","rawOb":"METAR KMEV 121935Z AUTO 17013G21KT 10SM FEW022 FEW044 BKN060 07/M01 A2982 RMK AO2","lat":38.9963,"lon":-119.75,"elev":1437,"name":"Minden-Tahoe Arpt, NV, US","cover":"BKN","clouds":[{"cover":"FEW","base":2200},{"cover":"FEW","base":4400},{"cover":"BKN","base":6000}],"fltCat":"VFR"},{"icaoId":"KCXP","receiptTime":"2026-04-12T19:40:19.568Z","obsTime":1776022500,"reportTime":"2026-04-12T19:35:00.000Z","temp":9,"dewp":-3,"wdir":230,"wspd":9,"wgst":16,"visib":"10+","altim":1010.2,"qcField":6,"metarType":"METAR","rawOb":"METAR KCXP 121935Z AUTO 23009G16KT 10SM FEW030 FEW047 SCT055 09/M03 A2983 RMK AO2","lat":39.1905,"lon":-119.7319,"elev":1431,"name":"Carson City Arpt, NV, US","cover":"SCT","clouds":[{"cover":"FEW","base":3000},{"cover":"FEW","base":4700},{"cover":"SCT","base":5500}],"fltCat":"VFR"},{"icaoId":"KMHR","receiptTime":"2026-04-12T19:40:24.082Z","obsTime":1776022500,"reportTime":"2026-04-12T19:35:00.000Z","temp":12,"dewp":12,"wdir":210,"wspd":12,"visib":5,"altim":1012.3,"qcField":6,"wxString":"VCTS RA","metarType":"METAR","rawOb":"METAR KMHR 121935Z AUTO 21012KT 5SM VCTS RA FEW027 SCT032 BKN038 12/12 A2989 RMK AO2 LTG DSNT N AND NE","lat":38.56,"lon":-121.284,"elev":30,"name":"Sacramento/Mather Fld, CA, US","cover":"BKN","clouds":[{"cover":"FEW","base":2700},{"cover":"SCT","base":3200},{"cover":"BKN","base":3800}],"fltCat":"MVFR"},{"icaoId":"KHII","receiptTime":"2026-04-12T19:42:16.539Z","obsTime":1776022500,"reportTime":"2026-04-12T19:35:00.000Z","temp":26,"dewp":-4,"wdir":220,"wspd":14,"visib":"10+","altim":1011.6,"qcField":6,"metarType":"METAR","rawOb":"METAR KHII 121935Z AUTO 22014KT 10SM CLR 26/M04 A2987 RMK AO2","lat":34.5659,"lon":-114.3522,"elev":241,"name":"Lake Havasu City Arpt, AZ, US","cover":"CLR","clouds":[],"fltCat":"VFR"},{"icaoId":"KHTH","receiptTime":"2026-04-12T19:40:09.967Z","obsTime":1776022200,"reportTime":"2026-04-12T19:30:00.000Z","temp":13,"dewp":-10,"wdir":220,"wspd":15,"wgst":28,"visib":"10+","altim":1009.6,"qcField":6,"metarType":"METAR","rawOb":"METAR KHTH 121930Z AUTO 22015G28KT 10SM CLR 13/M10 A2981 RMK A01","lat":38.5448,"lon":-118.6314,"elev":1281,"name":"Hawthorne Muni, NV, US","cover":"CLR","clouds":[],"fltCat":"VFR"},{"icaoId":"KLWS","receiptTime":"2026-04-12T19:22:07.592Z","obsTime":1776021480,"reportTime":"2026-04-12T19:18:00.000Z","temp":14.4,"dewp":8.3,"wdir":70,"wspd":4,"visib":"10+","altim":1002.8,"qcField":4,"metarType":"SPECI","rawOb":"SPECI KLWS 121918Z 07004KT 10SM SCT023 14/08 A2961 RMK AO2 T01440083","lat":46.3746,"lon":-117.0153,"elev":435,"name":"Lewiston/Nez Perce Cnty, ID, US","cover":"SCT","clouds":[{"cover":"SCT","base":2300}],"fltCat":"VFR"},{"icaoId":"KPVU","receiptTime":"2026-04-12T19:06:17.556Z","obsTime":1776020640,"reportTime":"2026-04-12T19:04:00.000Z","temp":19,"dewp":0,"wdir":220,"wspd":16,"wgst":24,"visib":"10+","altim":1007.5,"qcField":4,"metarType":"SPECI","rawOb":"SPECI KPVU 121904Z 22016G24KT 10SM SCT110 19/00 A2975 RMK AO2 WSHFT 1844","lat":40.224,"lon":-111.7252,"elev":1370,"name":"Provo Muni, UT, US","cover":"SCT","clouds":[{"cover":"SCT","base":11000}],"fltCat":"VFR"},{"icaoId":"KNYL","receiptTime":"2026-04-12T19:02:09.305Z","obsTime":1776020220,"reportTime":"2026-04-12T19:00:00.000Z","temp":22.2,"dewp":4.4,"wdir":300,"wspd":12,"wgst":21,"visib":"10+","altim":1014.3,"slp":1014.1,"qcField":6,"metarType":"METAR","rawOb":"METAR KNYL 121857Z AUTO 30012G21KT 10SM CLR 22/04 A2995 RMK AO2 SLP141 T02220044","lat":32.66,"lon":-114.6078,"elev":58,"name":"Yuma , AZ, US","cover":"CLR","clouds":[],"fltCat":"VFR"},{"icaoId":"KNFL","receiptTime":"2026-04-12T19:00:20.053Z","obsTime":1776020220,"reportTime":"2026-04-12T19:00:00.000Z","temp":11.7,"dewp":-3.9,"wdir":130,"wspd":10,"visib":"10+","altim":1009.2,"slp":1006.8,"qcField":12,"metarType":"METAR","rawOb":"METAR KNFL 121857Z 13010KT 10SM FEW065 SCT080 BKN120 BKN230 12/M04 A2980 RMK AO2 SLP068 SH DSNT SW-N T01171039 PNO $","lat":39.417,"lon":-118.705,"elev":1199,"name":"Fallon , NV, US","cover":"BKN","clouds":[{"cover":"FEW","base":6500},{"cover":"SCT","base":8000},{"cover":"BKN","base":12000},{"cover":"BKN","base":23000}],"fltCat":"VFR"},{"icaoId":"KFLG","receiptTime":"2026-04-12T19:00:21.541Z","obsTime":1776020220,"reportTime":"2026-04-12T19:00:00.000Z","temp":12.8,"dewp":-1.7,"wdir":220,"wspd":20,"wgst":30,"visib":"10+","altim":1017.7,"slp":1010.4,"qcField":12,"metarType":"METAR","rawOb":"METAR KFLG 121857Z 22020G30KT 10SM FEW050 13/M02 A3005 RMK AO2 PK WND 20037/1840 SLP104 T01281017 $","lat":35.1443,"lon":-111.6664,"elev":2134,"name":"Flagstaff/Pulliam Arpt, AZ, US","cover":"FEW","clouds":[{"cover":"FEW","base":5000}],"fltCat":"VFR"},{"icaoId":"KSDF","receiptTime":"2026-04-12T19:00:17.898Z","obsTime":1776020160,"reportTime":"2026-04-12T19:00:00.000Z","temp":27.8,"dewp":7.8,"wdir":220,"wspd":12,"wgst":22,"visib":"10+","altim":1020.4,"slp":1019.8,"qcField":4,"metarType":"METAR","rawOb":"METAR KSDF 121856Z 22012G22KT 10SM FEW080 BKN300 28/08 A3013 RMK AO2 PK WND 18026/1842 SLP198 T02780078","lat":38.1774,"lon":-85.7308,"elev":146,"name":"Louisville Intl, KY, US","cover":"BKN","clouds":[{"cover":"FEW","base":8000},{"cover":"BKN","base":30000}],"fltCat":"VFR"},{"icaoId":"KFNL","receiptTime":"2026-04-12T18:58:22.653Z","obsTime":1776020160,"reportTime":"2026-04-12T19:00:00.000Z","temp":23.3,"dewp":-8.3,"wdir":200,"wspd":5,"visib":"10+","altim":1008.5,"slp":1002.4,"qcField":12,"metarType":"METAR","rawOb":"METAR KFNL 121856Z 20005KT 10SM CLR 23/M08 A2978 RMK AO2 SLP024 T02331083 $","lat":40.4427,"lon":-105.0097,"elev":1529,"name":"Fort Collins/N Colorado Rgnl, CO, US","cover":"CLR","clouds":[],"fltCat":"VFR"},{"icaoId":"KEKO","receiptTime":"2026-04-12T19:00:18.643Z","obsTime":1776020160,"reportTime":"2026-04-12T19:00:00.000Z","temp":5.6,"dewp":-1.1,"wdir":260,"wspd":11,"visib":"10+","altim":1010.6,"slp":1009.9,"qcField":6,"metarType":"METAR","rawOb":"METAR KEKO 121856Z AUTO 26011KT 10SM SCT046 BKN120 06/M01 A2984 RMK AO2 SLP099 T00561011","lat":40.824,"lon":-115.7863,"elev":1541,"name":"Elko Rgnl, NV, US","cover":"BKN","clouds":[{"cover":"SCT","base":4600},{"cover":"BKN","base":12000}],"fltCat":"VFR"},{"icaoId":"KSFO","receiptTime":"2026-04-12T19:00:16.094Z","obsTime":1776020160,"reportTime":"2026-04-12T19:00:00.000Z","temp":13.9,"dewp":8.9,"wdir":210,"wspd":17,"wgst":25,"visib":"10+","altim":1013,"slp":1012.7,"qcField":12,"precip":0.005,"metarType":"METAR","rawOb":"METAR KSFO 121856Z 21017G25KT 10SM FEW029 SCT038 BKN050 14/09 A2991 RMK AO2 RAB16E32 SLP127 P0000 T01390089 VISNO $","lat":37.6196,"lon":-122.3656,"elev":2,"name":"San Francisco Intl, CA, US","cover":"BKN","clouds":[{"cover":"FEW","base":2900},{"cover":"SCT","base":3800},{"cover":"BKN","base":5000}],"fltCat":"VFR"},{"icaoId":"KJAX","receiptTime":"2026-04-12T19:00:15.502Z","obsTime":1776020160,"reportTime":"2026-04-12T19:00:00.000Z","temp":26.7,"dewp":13.3,"wdir":120,"wspd":12,"wgst":20,"visib":"10+","altim":1026.8,"slp":1026.8,"qcField":12,"metarType":"METAR","rawOb":"METAR KJAX 121856Z 12012G20KT 10SM FEW040 27/13 A3032 RMK AO2 SLP268 T02670133 $","lat":30.4953,"lon":-81.6937,"elev":8,"name":"Jacksonville Intl, FL, US","cover":"FEW","clouds":[{"cover":"FEW","base":4000}],"fltCat":"VFR"},{"icaoId":"KCEC","receiptTime":"2026-04-12T19:00:18.627Z","obsTime":1776020160,"reportTime":"2026-04-12T19:00:00.000Z","temp":12.8,"dewp":6.7,"wdir":270,"wspd":4,"visib":"10+","altim":1009.9,"slp":1009.7,"qcField":6,"metarType":"METAR","rawOb":"METAR KCEC 121856Z AUTO 27004KT 10SM OVC055 13/07 A2982 RMK AO2 SLP097 T01280067","lat":41.7836,"lon":-124.238,"elev":17,"name":"Crescent City/McNama, CA, US","cover":"OVC","clouds":[{"cover":"OVC","base":5500}],"fltCat":"VFR"},{"icaoId":"KLAS","receiptTime":"2026-04-12T19:00:15.014Z","obsTime":1776020160,"reportTime":"2026-04-12T19:00:00.000Z","temp":21.7,"dewp":0.6,"wdir":240,"wspd":18,"wgst":28,"visib":"10+","altim":1010.9,"slp":1009.1,"qcField":4,"metarType":"METAR","rawOb":"METAR KLAS 121856Z 24018G28KT 10SM FEW100 SCT200 22/01 A2985 RMK AO2 PK WND 21030/1828 SLP091 T02170006","lat":36.0719,"lon":-115.1634,"elev":662,"name":"Las Vegas/Reid Intl, NV, US","cover":"SCT","clouds":[{"cover":"FEW","base":10000},{"cover":"SCT","base":20000}],"fltCat":"VFR"},{"icaoId":"KCHS","receiptTime":"2026-04-12T19:00:15.372Z","obsTime":1776020160,"reportTime":"2026-04-12T19:00:00.000Z","temp":26.7,"dewp":15,"wdir":140,"wspd":9,"visib":"10+","altim":1027.9,"slp":1027.8,"qcField":4,"metarType":"METAR","rawOb":"METAR KCHS 121856Z 14009KT 10SM FEW050 FEW250 27/15 A3035 RMK AO2 SLP278 T02670150","lat":32.8995,"lon":-80.0407,"elev":12,"name":"Charleston Intl, SC, US","cover":"FEW","clouds":[{"cover":"FEW","base":5000},{"cover":"FEW","base":25000}],"fltCat":"VFR"},{"icaoId":"KTPH","receiptTime":"2026-04-12T19:00:16.984Z","obsTime":1776020160,"reportTime":"2026-04-12T19:00:00.000Z","temp":7.2,"dewp":0,"wdir":140,"wspd":9,"visib":8,"altim":1010.6,"slp":1007.9,"qcField":6,"wxString":"-RA","precip":0.005,"metarType":"METAR","rawOb":"METAR KTPH 121856Z AUTO 14009KT 8SM -RA OVC045 07/00 A2984 RMK AO2 RAB44 SLP079 P0000 T00720000","lat":38.0505,"lon":-117.0906,"elev":1647,"name":"Tonopah Arpt, NV, US","cover":"OVC","clouds":[{"cover":"OVC","base":4500}],"fltCat":"VFR"},{"icaoId":"KVIS","receiptTime":"2026-04-12T18:58:23.400Z","obsTime":1776020160,"reportTime":"2026-04-12T19:00:00.000Z","temp":17.2,"dewp":7.2,"wdir":180,"wspd":13,"visib":"10+","altim":1015.7,"slp":1015.5,"qcField":14,"metarType":"METAR","rawOb":"METAR KVIS 121856Z AUTO 18013KT 10SM BKN100 17/07 A2999 RMK AO2 SLP155 T01720072 PNO $","lat":36.3135,"lon":-119.3884,"elev":92,"name":"Visalia Muni, CA, US","cover":"BKN","clouds":[{"cover":"BKN","base":10000}],"fltCat":"VFR"},{"icaoId":"KHDN","receiptTime":"2026-04-12T18:58:22.857Z","obsTime":1776020160,"reportTime":"2026-04-12T19:00:00.000Z","temp":16.7,"dewp":-6.7,"wdir":220,"wspd":17,"wgst":28,"visib":"10+","altim":1011.6,"slp":1006.8,"qcField":6,"metarType":"METAR","rawOb":"METAR KHDN 121856Z AUTO 22017G28KT 10SM FEW095 17/M07 A2987 RMK AO2 PK WND 23028/1850 SLP068 T01671067","lat":40.4842,"lon":-107.2296,"elev":2012,"name":"Hayden/Yampa Valley Arpt, CO, US","cover":"FEW","clouds":[{"cover":"FEW","base":9500}],"fltCat":"VFR"},{"icaoId":"KEGE","receiptTime":"2026-04-12T18:58:22.490Z","obsTime":1776020160,"reportTime":"2026-04-12T19:00:00.000Z","temp":17.2,"dewp":-8.9,"wdir":230,"wspd":13,"wgst":24,"visib":"10+","altim":1013,"slp":1008.2,"qcField":4,"metarType":"METAR","rawOb":"METAR KEGE 121856Z 23013G24KT 10SM CLR 17/M09 A2991 RMK AO2 PK WND 21038/1816 SLP082 T01721089","lat":39.6448,"lon":-106.9176,"elev":1993,"name":"Eagle Cnty Rgnl, CO, US","cover":"CLR","clouds":[],"fltCat":"VFR"},{"icaoId":"KCOD","receiptTime":"2026-04-12T18:58:21.651Z","obsTime":1776020160,"reportTime":"2026-04-12T19:00:00.000Z","temp":16.1,"dewp":-3.9,"wdir":180,"wspd":8,"wgst":18,"visib":"10+","altim":1005.8,"slp":1002.5,"qcField":14,"metarType":"METAR","rawOb":"METAR KCOD 121856Z AUTO 18008G18KT 10SM FEW080 16/M04 A2970 RMK AO2 SLP025 T01611039 $","lat":44.52,"lon":-109.0268,"elev":1550,"name":"Cody/Yellowstone Rgnl, WY, US","cover":"FEW","clouds":[{"cover":"FEW","base":8000}],"fltCat":"VFR"},{"icaoId":"KCGZ","receiptTime":"2026-04-12T18:58:21.589Z","obsTime":1776020160,"reportTime":"2026-04-12T19:00:00.000Z","temp":27.2,"dewp":-0.6,"wdir":240,"wspd":17,"visib":"10+","altim":1014,"slp":1012.5,"qcField":14,"metarType":"METAR","rawOb":"METAR KCGZ 121856Z AUTO 24017KT 10SM CLR 27/M01 A2994 RMK AO2 SLP125 T02721006 $","lat":32.9531,"lon":-111.7725,"elev":444,"name":"Casa Granda Muni, AZ, US","cover":"CLR","clouds":[],"fltCat":"VFR"},{"icaoId":"KINW","receiptTime":"2026-04-12T19:00:15.480Z","obsTime":1776020160,"reportTime":"2026-04-12T19:00:00.000Z","temp":21.1,"dewp":-6.7,"wdir":210,"wspd":21,"wgst":33,"visib":"10+","altim":1015.3,"slp":1010.5,"qcField":6,"metarType":"METAR","rawOb":"METAR KINW 121856Z AUTO 21021G33KT 10SM CLR 21/M07 A2998 RMK AO2 PK WND 22034/1837 SLP105 T02111067","lat":35.0279,"lon":-110.7221,"elev":1492,"name":"Winslow/Lindberg Rgnl, AZ, US","cover":"CLR","clouds":[],"fltCat":"VFR"},{"icaoId":"KSGU","receiptTime":"2026-04-12T18:58:23.253Z","obsTime":1776020160,"reportTime":"2026-04-12T19:00:00.000Z","temp":23.3,"dewp":-8.9,"wdir":220,"wspd":24,"wgst":35,"visib":9,"altim":1009.6,"slp":1007,"qcField":6,"metarType":"METAR","rawOb":"METAR KSGU 121856Z AUTO 22024G35KT 9SM CLR 23/M09 A2981 RMK AO2 PK WND 22035/1854 SLP070 T02331089","lat":37.0444,"lon":-113.5034,"elev":877,"name":"Saint George Muni, UT, US","cover":"CLR","clouds":[],"fltCat":"VFR"},{"icaoId":"KCOE","receiptTime":"2026-04-12T18:58:21.664Z","obsTime":1776020160,"reportTime":"2026-04-12T19:00:00.000Z","temp":12.8,"dewp":8.3,"wdir":20,"wspd":11,"visib":"10+","altim":1003.5,"slp":1004.9,"qcField":14,"metarType":"METAR","rawOb":"METAR KCOE 121856Z AUTO 02011KT 10SM CLR 13/08 A2963 RMK AO2 SLP049 T01280083 PNO $","lat":47.7719,"lon":-116.8332,"elev":693,"name":"Coeur DAlene Arpt, ID, US","cover":"CLR","clouds":[],"fltCat":"VFR"},{"icaoId":"KHND","receiptTime":"2026-04-12T18:58:22.905Z","obsTime":1776020160,"reportTime":"2026-04-12T19:00:00.000Z","temp":21.1,"dewp":1.7,"wdir":230,"wspd":19,"wgst":25,"visib":"10+","altim":1011.9,"slp":1011.7,"qcField":12,"metarType":"METAR","rawOb":"METAR KHND 121856Z 23019G25KT 10SM CLR 21/02 A2988 RMK AO2 PK WND 24032/1818 SLP117 T02110017 $","lat":35.9657,"lon":-115.1343,"elev":740,"name":"Henderson Exec, NV, US","cover":"CLR","clouds":[],"fltCat":"VFR"},{"icaoId":"KSBP","receiptTime":"2026-04-12T19:00:17.857Z","obsTime":1776020160,"reportTime":"2026-04-12T19:00:00.000Z","temp":16.7,"dewp":8.3,"wdir":210,"wspd":10,"visib":"10+","altim":1015.7,"slp":1015.3,"qcField":4,"metarType":"METAR","rawOb":"METAR KSBP 121856Z 21010KT 10SM FEW033 BKN070 17/08 A2999 RMK AO2 SLP153 T01670083","lat":35.2381,"lon":-120.644,"elev":52,"name":"San Luis Obispo/San Luis Cnty, CA, US","cover":"BKN","clouds":[{"cover":"FEW","base":3300},{"cover":"BKN","base":7000}],"fltCat":"VFR"},{"icaoId":"KUKI","receiptTime":"2026-04-12T19:00:17.012Z","obsTime":1776020160,"reportTime":"2026-04-12T19:00:00.000Z","temp":13.3,"dewp":6.7,"wdir":"VRB","wspd":4,"visib":"10+","altim":1009.6,"slp":1009.2,"qcField":6,"precip":0.005,"metarType":"METAR","rawOb":"METAR KUKI 121856Z AUTO VRB04KT 10SM SCT028 BKN035 BKN055 13/07 A2981 RMK AO2 RAE10 SLP092 P0000 T01330067","lat":39.1278,"lon":-123.2001,"elev":183,"name":"Ukiah Muni, CA, US","cover":"BKN","clouds":[{"cover":"SCT","base":2800},{"cover":"BKN","base":3500},{"cover":"BKN","base":5500}],"fltCat":"VFR"},{"icaoId":"KDUG","receiptTime":"2026-04-12T19:02:23.855Z","obsTime":1776020160,"reportTime":"2026-04-12T19:00:00.000Z","temp":24.4,"dewp":1.7,"wdir":220,"wspd":16,"wgst":28,"visib":"10+","altim":1018.7,"slp":1012.9,"qcField":38,"metarType":"METAR","rawOb":"METAR KDUG 121856Z AUTO 22016G28KT 10SM FEW090 24/02 A3008 RMK AO2 PK WND 25032/1827 SLP129 T02440017 TSNO","lat":31.4725,"lon":-109.6022,"elev":1260,"name":"Douglas/Bisbee Intl, AZ, US","cover":"FEW","clouds":[{"cover":"FEW","base":9000}],"fltCat":"VFR"},{"icaoId":"KENV","receiptTime":"2026-04-12T18:58:22.550Z","obsTime":1776020160,"reportTime":"2026-04-12T19:00:00.000Z","temp":16.1,"dewp":-3.9,"wdir":260,"wspd":30,"wgst":36,"visib":"10+","altim":1007.5,"slp":1005.7,"qcField":6,"metarType":"METAR","rawOb":"METAR KENV 121856Z AUTO 26030G36KT 10SM CLR 16/M04 A2975 RMK AO2 PK WND 25045/1758 SLP057 T01611039","lat":40.7211,"lon":-114.0312,"elev":1291,"name":"Wendover Arpt, UT, US","cover":"CLR","clouds":[],"fltCat":"VFR"},{"icaoId":"KJAC","receiptTime":"2026-04-12T18:58:21.840Z","obsTime":1776020160,"reportTime":"2026-04-12T19:00:00.000Z","temp":5.6,"dewp":-0.6,"wdir":240,"wspd":13,"wgst":30,"visib":"10+","altim":1008.2,"slp":1008,"qcField":4,"wxString":"-RA","precip":0.005,"metarType":"METAR","rawOb":"METAR KJAC 121856Z 24013G30KT 10SM -RA BKN050 BKN065 OVC120 06/M01 A2977 RMK AO2 PK WND 24031/1846 RAB46 SLP080 P0000 T00561006","lat":43.6129,"lon":-110.7366,"elev":1967,"name":"Jackson Hole Arpt, WY, US","cover":"OVC","clouds":[{"cover":"BKN","base":5000},{"cover":"BKN","base":6500},{"cover":"OVC","base":12000}],"fltCat":"VFR"},{"icaoId":"KCMA","receiptTime":"2026-04-12T18:58:21.621Z","obsTime":1776020100,"reportTime":"2026-04-12T19:00:00.000Z","temp":18.3,"dewp":6.1,"wdir":230,"wspd":9,"visib":"10+","altim":1016,"slp":1016.5,"qcField":4,"metarType":"METAR","rawOb":"METAR KCMA 121855Z 23009KT 10SM FEW090 18/06 A3000 RMK AO2 SLP165 T01830061","lat":34.2114,"lon":-119.0876,"elev":20,"name":"Camarillo Arpt, CA, US","cover":"FEW","clouds":[{"cover":"FEW","base":9000}],"fltCat":"VFR"},{"icaoId":"KLUF","receiptTime":"2026-04-12T19:14:03.382Z","obsTime":1776020100,"reportTime":"2026-04-12T19:00:00.000Z","temp":26.1,"dewp":2.1,"wdir":200,"wspd":13,"visib":"10+","altim":1012.6,"slp":1011.5,"qcField":14,"metarType":"METAR","rawOb":"METAR KLUF 121855Z AUTO 20013KT 10SM FEW130 FEW150 SCT190 SCT210 26/02 A2990 RMK AO2 SLP115 T02610021 $","lat":33.538,"lon":-112.38,"elev":333,"name":"Phoenix/Luke AFB, AZ, US","cover":"SCT","clouds":[{"cover":"FEW","base":13000},{"cover":"FEW","base":15000},{"cover":"SCT","base":19000},{"cover":"SCT","base":21000}],"fltCat":"VFR"},{"icaoId":"KRNO","receiptTime":"2026-04-12T18:58:23.121Z","obsTime":1776020100,"reportTime":"2026-04-12T19:00:00.000Z","temp":7.2,"dewp":-2.8,"wdir":190,"wspd":12,"visib":"10+","altim":1010.2,"slp":1009.3,"qcField":4,"precip":0.005,"metarType":"METAR","rawOb":"METAR KRNO 121855Z 19012KT 10SM SCT047 BKN055 BKN085 BKN150 07/M03 A2983 RMK AO2 RAE05 SLP093 VC SH ALQDS P0000 T00721028","lat":39.5077,"lon":-119.7683,"elev":1344,"name":"Reno/Tahoe Intl, NV, US","cover":"BKN","clouds":[{"cover":"SCT","base":4700},{"cover":"BKN","base":5500},{"cover":"BKN","base":8500},{"cover":"BKN","base":15000}],"fltCat":"VFR"},{"icaoId":"KSLC","receiptTime":"2026-04-12T18:58:13.369Z","obsTime":1776020040,"reportTime":"2026-04-12T19:00:00.000Z","temp":18.3,"dewp":-5.6,"wdir":190,"wspd":25,"wgst":38,"visib":"10+","altim":1005.8,"slp":1002.5,"qcField":12,"precip":0.005,"metarType":"METAR","rawOb":"METAR KSLC 121854Z 19025G38KT 10SM SCT090 BKN130 BKN200 18/M06 A2970 RMK AO2 PK WND 19038/1853 RAB24E25 SLP025 OCNL LTGIC DSNT NW VIRGA CB DSNT SW-NW BLDU DSNT W P0000 T01831056 $","lat":40.7707,"lon":-111.965,"elev":1286,"name":"Salt Lake City Intl, UT, US","cover":"BKN","clouds":[{"cover":"SCT","base":9000},{"cover":"BKN","base":13000},{"cover":"BKN","base":20000}],"fltCat":"VFR"},{"icaoId":"KTRM","receiptTime":"2026-04-12T18:58:13.535Z","obsTime":1776019920,"reportTime":"2026-04-12T19:00:00.000Z","temp":25,"dewp":5,"wdir":330,"wspd":7,"wgst":19,"visib":"10+","altim":1013,"slp":1012.8,"qcField":38,"metarType":"METAR","rawOb":"METAR KTRM 121852Z AUTO 33007G19KT 290V010 10SM CLR 25/05 A2991 RMK AO2 SLP128 T02500050 TSNO","lat":33.6317,"lon":-116.1641,"elev":-39,"name":"Thermal Arpt, CA, US","cover":"CLR","clouds":[],"fltCat":"VFR"},{"icaoId":"KADM","receiptTime":"2026-04-12T19:05:02.187Z","obsTime":1776019800,"reportTime":"2026-04-12T19:00:00.000Z","temp":25,"dewp":21,"wdir":190,"wspd":14,"visib":"10+","altim":1014.3,"qcField":0,"metarType":"METAR","rawOb":"METAR KADM 121850Z 19014KT 10SM SCT030 BKN040 25/21 A2995","lat":34.3007,"lon":-97.0089,"elev":223,"name":"Ardmore Muni, OK, US","cover":"BKN","clouds":[{"cover":"SCT","base":3000},{"cover":"BKN","base":4000}],"fltCat":"VFR"},{"icaoId":"KGEU","receiptTime":"2026-04-12T18:48:11.803Z","obsTime":1776019620,"reportTime":"2026-04-12T19:00:00.000Z","temp":26,"dewp":1,"wdir":230,"wspd":12,"wgst":19,"visib":"10+","altim":1012.6,"qcField":0,"metarType":"METAR","rawOb":"METAR KGEU 121847Z 23012G19KT 10SM FEW270 SCT330 SCT360 26/01 A2990","lat":33.528,"lon":-112.293,"elev":319,"name":"Glendale Muni, AZ, US","cover":"SCT","clouds":[{"cover":"FEW","base":27000},{"cover":"SCT","base":33000},{"cover":"SCT","base":36000}],"fltCat":"VFR"}]