[{"icaoId":"KPAE","receiptTime":"2026-04-14T17:26:11.131Z","obsTime":1776187380,"reportTime":"2026-04-14T17:23:00.000Z","temp":6.7,"dewp":5.6,"wdir":170,"wspd":17,"wgst":30,"visib":"10+","altim":1013.6,"qcField":4,"precip":0.005,"metarType":"SPECI","rawOb":"SPECI KPAE 141723Z 17017G30KT 10SM BKN009 BKN015 OVC035 07/06 A2993 RMK AO2 PK WND 18030/1713 RAE15 P0000 T00670056","lat":47.9232,"lon":-122.2831,"elev":166,"name":"Everett/Paine Fld, WA, US","cover":"OVC","clouds":[{"cover":"BKN","base":900},{"cover":"BKN","base":1500},{"cover":"OVC","base":3500}],"fltCat":"IFR"},{"icaoId":"KHDN","receiptTime":"2026-04-14T17:26:11.233Z","obsTime":1776187380,"reportTime":"2026-04-14T17:23:00.000Z","temp":4,"dewp":2,"wdir":270,"wspd":10,"visib":"10+","altim":1013.3,"qcField":6,"metarType":"SPECI","rawOb":"SPECI KHDN 141723Z AUTO 27010KT 10SM SCT016 OVC032 04/02 A2992 RMK AO2","lat":40.4842,"lon":-107.2296,"elev":2012,"name":"Hayden/Yampa Valley Arpt, CO, US","cover":"OVC","clouds":[{"cover":"SCT","base":1600},{"cover":"OVC","base":3200}],"fltCat":"VFR"},{"icaoId":"KBOI","receiptTime":"2026-04-14T17:24:18.752Z","obsTime":1776187260,"reportTime":"2026-04-14T17:21:00.000Z","temp":9.4,"dewp":3.3,"wdir":270,"wspd":4,"visib":"10+","altim":1017.4,"qcField":4,"metarType":"SPECI","rawOb":"SPECI KBOI 141721Z 27004KT 10SM FEW021 SCT027 SCT042 09/03 A3004 RMK AO2 T00940033","lat":43.567,"lon":-116.2406,"elev":860,"name":"Boise Arpt, ID, US","cover":"SCT","clouds":[{"cover":"FEW","base":2100},{"cover":"SCT","base":2700},{"cover":"SCT","base":4200}],"fltCat":"VFR"},{"icaoId":"KLAW","receiptTime":"2026-04-14T17:24:06.664Z","obsTime":1776187200,"reportTime":"2026-04-14T17:20:00.000Z","temp":26.7,"dewp":20,"wdir":190,"wspd":15,"wgst":23,"visib":"10+","altim":1013,"qcField":4,"metarType":"SPECI","rawOb":"SPECI KLAW 141720Z 19015G23KT 10SM FEW027 BKN033 27/20 A2991 RMK AO2 T02670200","lat":34.5577,"lon":-98.4172,"elev":328,"name":"Lawton-Fort Sill Rgnl, OK, US","cover":"BKN","clouds":[{"cover":"FEW","base":2700},{"cover":"BKN","base":3300}],"fltCat":"VFR"},{"icaoId":"KSDY","receiptTime":"2026-04-14T17:22:14.368Z","obsTime":1776187200,"reportTime":"2026-04-14T17:20:00.000Z","temp":11,"dewp":6,"wdir":200,"wspd":6,"visib":"10+","altim":1007.5,"qcField":14,"metarType":"SPECI","rawOb":"SPECI KSDY 141720Z AUTO 20006KT 10SM SCT013 11/06 A2975 RMK AO2 $","lat":47.7029,"lon":-104.1951,"elev":600,"name":"Sidney/Richland Muni, MT, US","cover":"SCT","clouds":[{"cover":"SCT","base":1300}],"fltCat":"VFR"},{"icaoId":"KOLM","receiptTime":"2026-04-14T17:22:14.353Z","obsTime":1776187140,"reportTime":"2026-04-14T17:19:00.000Z","temp":7.8,"dewp":5.6,"wdir":180,"wspd":15,"wgst":23,"visib":"10+","altim":1015.3,"qcField":4,"wxString":"-RA","precip":0.02,"metarType":"SPECI","rawOb":"SPECI KOLM 141719Z 18015G23KT 10SM -RA SCT015 BKN031 OVC041 08/06 A2998 RMK AO2 P0002 T00780056","lat":46.9737,"lon":-122.9049,"elev":58,"name":"Olympia Rgnl, WA, US","cover":"OVC","clouds":[{"cover":"SCT","base":1500},{"cover":"BKN","base":3100},{"cover":"OVC","base":4100}],"fltCat":"VFR"},{"icaoId":"KCNY","receiptTime":"2026-04-14T17:20:24.073Z","obsTime":1776186960,"reportTime":"2026-04-14T17:16:00.000Z","temp":3.3,"dewp":2.2,"wdir":320,"wspd":7,"visib":"10+","altim":1014,"qcField":14,"wxString":"-RA","precip":0.01,"metarType":"SPECI","rawOb":"SPECI KCNY 141716Z AUTO 32007KT 10SM -RA FEW022 BKN036 OVC050 03/02 A2994 RMK AO2 P0001 T00330022 $","lat":38.7501,"lon":-109.7627,"elev":1392,"name":"Moab/Canyonland Fld, UT, US","cover":"OVC","clouds":[{"cover":"FEW","base":2200},{"cover":"BKN","base":3600},{"cover":"OVC","base":5000}],"fltCat":"VFR"},{"icaoId":"KPWT","receiptTime":"2026-04-14T17:18:26.219Z","obsTime":1776186960,"reportTime":"2026-04-14T17:16:00.000Z","temp":7,"dewp":7,"wdir":200,"wspd":12,"wgst":20,"visib":7,"altim":1014,"qcField":14,"wxString":"-RA","metarType":"SPECI","rawOb":"SPECI KPWT 141716Z AUTO 20012G20KT 7SM -RA BKN006 OVC010 07/07 A2994 RMK AO2 CIG 003V008 PNO $","lat":47.4942,"lon":-122.7594,"elev":143,"name":"Bremerton Arpt, WA, US","cover":"OVC","clouds":[{"cover":"BKN","base":600},{"cover":"OVC","base":1000}],"fltCat":"IFR"},{"icaoId":"KEVW","receiptTime":"2026-04-14T17:20:15.992Z","obsTime":1776186960,"reportTime":"2026-04-14T17:16:00.000Z","temp":3.3,"dewp":-3.3,"wdir":0,"wspd":0,"visib":"10+","altim":1015.3,"qcField":14,"metarType":"SPECI","rawOb":"SPECI KEVW 141716Z AUTO 00000KT 10SM BKN024 BKN034 03/M03 A2998 RMK AO2 T00331033 $","lat":41.2727,"lon":-111.0305,"elev":2178,"name":"Evanston/Uinta Cnty, WY, US","cover":"BKN","clouds":[{"cover":"BKN","base":2400},{"cover":"BKN","base":3400}],"fltCat":"MVFR"},{"icaoId":"KMSP","receiptTime":"2026-04-14T17:18:26.087Z","obsTime":1776186900,"reportTime":"2026-04-14T17:15:00.000Z","temp":14.4,"dewp":10,"wdir":0,"wspd":0,"visib":"10+","altim":1007.2,"qcField":4,"metarType":"SPECI","rawOb":"SPECI KMSP 141715Z 00000KT 10SM SCT011 14/10 A2974 RMK AO2 T01440100","lat":44.8852,"lon":-93.2313,"elev":255,"name":"Minneapolis-St Paul Intl, MN, US","cover":"SCT","clouds":[{"cover":"SCT","base":1100}],"fltCat":"VFR"},{"icaoId":"KMHR","receiptTime":"2026-04-14T17:20:23.454Z","obsTime":1776186900,"reportTime":"2026-04-14T17:15:00.000Z","temp":15,"dewp":13,"wdir":200,"wspd":6,"visib":"10+","altim":1021.8,"qcField":6,"metarType":"METAR","rawOb":"METAR KMHR 141715Z AUTO 20006KT 10SM SCT019 15/13 A3017 RMK AO2","lat":38.56,"lon":-121.284,"elev":30,"name":"Sacramento/Mather Fld, CA, US","cover":"SCT","clouds":[{"cover":"SCT","base":1900}],"fltCat":"VFR"},{"icaoId":"KMEV","receiptTime":"2026-04-14T17:20:23.431Z","obsTime":1776186900,"reportTime":"2026-04-14T17:15:00.000Z","temp":9,"dewp":-1,"wdir":"VRB","wspd":5,"visib":"10+","altim":1020.1,"qcField":6,"metarType":"METAR","rawOb":"METAR KMEV 141715Z AUTO VRB05KT 10SM CLR 09/M01 A3012 RMK AO2","lat":38.9963,"lon":-119.75,"elev":1437,"name":"Minden-Tahoe Arpt, NV, US","cover":"CLR","clouds":[],"fltCat":"VFR"},{"icaoId":"KCXP","receiptTime":"2026-04-14T17:20:23.336Z","obsTime":1776186900,"reportTime":"2026-04-14T17:15:00.000Z","temp":10,"dewp":-2,"wdir":"VRB","wspd":5,"visib":"10+","altim":1020.1,"qcField":6,"metarType":"METAR","rawOb":"METAR KCXP 141715Z AUTO VRB05KT 10SM CLR 10/M02 A3012 RMK AO2","lat":39.1905,"lon":-119.7319,"elev":1431,"name":"Carson City Arpt, NV, US","cover":"CLR","clouds":[],"fltCat":"VFR"},{"icaoId":"KHTH","receiptTime":"2026-04-14T17:20:23.702Z","obsTime":1776186900,"reportTime":"2026-04-14T17:15:00.000Z","temp":11,"dewp":-2,"wdir":0,"wspd":0,"visib":"10+","altim":1020.1,"qcField":6,"metarType":"METAR","rawOb":"METAR KHTH 141715Z AUTO 00000KT 10SM CLR 11/M02 A3012 RMK A01","lat":38.5448,"lon":-118.6314,"elev":1281,"name":"Hawthorne Muni, NV, US","cover":"CLR","clouds":[],"fltCat":"VFR"},{"icaoId":"KHCR","receiptTime":"2026-04-14T17:18:36.938Z","obsTime":1776186900,"reportTime":"2026-04-14T17:15:00.000Z","temp":8.1,"dewp":-1.9,"wdir":0,"wspd":0,"visib":"10+","altim":1014.3,"qcField":14,"metarType":"METAR","rawOb":"METAR KHCR 141715Z AUTO 00000KT 10SM BKN060 08/M02 A2995 RMK AO2 T00811019 $","lat":40.4774,"lon":-111.4329,"elev":1708,"name":"Heber City Muni, UT, US","cover":"BKN","clouds":[{"cover":"BKN","base":6000}],"fltCat":"VFR"},{"icaoId":"KHAF","receiptTime":"2026-04-14T17:18:05.610Z","obsTime":1776186900,"reportTime":"2026-04-14T17:15:00.000Z","wdir":310,"wspd":9,"visib":9,"altim":1023.5,"qcField":6,"metarType":"METAR","rawOb":"METAR KHAF 141715Z AUTO 31009KT 9SM FEW022 OVC030 A3022 RMK AO2","lat":37.5136,"lon":-122.4996,"elev":11,"name":"Half Moon Bay Arpt, CA, US","cover":"OVC","clouds":[{"cover":"FEW","base":2200},{"cover":"OVC","base":3000}],"fltCat":"MVFR"},{"icaoId":"KSOW","receiptTime":"2026-04-14T17:18:22.179Z","obsTime":1776186900,"reportTime":"2026-04-14T17:15:00.000Z","temp":8,"dewp":0,"wdir":250,"wspd":13,"wgst":19,"visib":"10+","altim":1019.4,"qcField":6,"metarType":"METAR","rawOb":"METAR KSOW 141715Z AUTO 25013G19KT 10SM FEW036 SCT045 08/M00 A3010 RMK AO2","lat":34.2686,"lon":-110.0019,"elev":1954,"name":"Show Low Muni, AZ, US","cover":"SCT","clouds":[{"cover":"FEW","base":3600},{"cover":"SCT","base":4500}],"fltCat":"VFR"},{"icaoId":"KRTS","receiptTime":"2026-04-14T17:20:26.313Z","obsTime":1776186900,"reportTime":"2026-04-14T17:15:00.000Z","temp":8,"dewp":-3,"wdir":"VRB","wspd":4,"visib":"10+","altim":1020.1,"qcField":6,"metarType":"METAR","rawOb":"METAR KRTS 141715Z AUTO VRB04KT 10SM CLR 08/M03 A3012 RMK AO2","lat":39.6658,"lon":-119.8731,"elev":1537,"name":"Reno/Stead Arpt, NV, US","cover":"CLR","clouds":[],"fltCat":"VFR"},{"icaoId":"KHII","receiptTime":"2026-04-14T17:22:17.828Z","obsTime":1776186900,"reportTime":"2026-04-14T17:15:00.000Z","temp":19,"dewp":1,"wdir":"VRB","wspd":4,"visib":"10+","altim":1017.4,"qcField":6,"metarType":"METAR","rawOb":"METAR KHII 141715Z AUTO VRB04KT 10SM CLR 19/01 A3004 RMK AO2","lat":34.5659,"lon":-114.3522,"elev":241,"name":"Lake Havasu City Arpt, AZ, US","cover":"CLR","clouds":[],"fltCat":"VFR"},{"icaoId":"KBVU","receiptTime":"2026-04-14T17:16:05.392Z","obsTime":1776186900,"reportTime":"2026-04-14T17:15:00.000Z","temp":18,"dewp":0,"wdir":310,"wspd":9,"visib":"10+","altim":1017,"qcField":6,"metarType":"METAR","rawOb":"METAR KBVU 141715Z AUTO 31009KT 10SM CLR 18/M00 A3003 RMK AO2","lat":35.9489,"lon":-114.8633,"elev":654,"name":"Boulder City Muni, NV, US","cover":"CLR","clouds":[],"fltCat":"VFR"},{"icaoId":"KSEZ","receiptTime":"2026-04-14T17:22:08.766Z","obsTime":1776186900,"reportTime":"2026-04-14T17:15:00.000Z","temp":13,"dewp":3,"wdir":140,"wspd":8,"visib":"10+","altim":1018.7,"qcField":6,"metarType":"METAR","rawOb":"METAR KSEZ 141715Z AUTO 14008KT 10SM FEW034 BKN046 13/03 A3008 RMK AO2","lat":34.8467,"lon":-111.7884,"elev":1455,"name":"Sedona Arpt, AZ, US","cover":"BKN","clouds":[{"cover":"FEW","base":3400},{"cover":"BKN","base":4600}],"fltCat":"VFR"},{"icaoId":"KAST","receiptTime":"2026-04-14T17:18:25.633Z","obsTime":1776186900,"reportTime":"2026-04-14T17:15:00.000Z","temp":9.4,"dewp":7.2,"wdir":200,"wspd":13,"visib":9,"altim":1016.3,"qcField":6,"wxString":"-RA","precip":0.005,"metarType":"SPECI","rawOb":"SPECI KAST 141715Z AUTO 20013KT 9SM -RA BKN018 BKN026 OVC043 09/07 A3001 RMK AO2 P0000 T00940072","lat":46.157,"lon":-123.8833,"elev":3,"name":"Astoria Rgnl, OR, US","cover":"OVC","clouds":[{"cover":"BKN","base":1800},{"cover":"BKN","base":2600},{"cover":"OVC","base":4300}],"fltCat":"MVFR"},{"icaoId":"KDFW","receiptTime":"2026-04-14T17:18:25.954Z","obsTime":1776186900,"reportTime":"2026-04-14T17:15:00.000Z","temp":23.9,"dewp":18.9,"wdir":180,"wspd":15,"wgst":24,"visib":"10+","altim":1015.7,"qcField":4,"metarType":"SPECI","rawOb":"SPECI KDFW 141715Z 18015G24KT 10SM SCT023 OVC031 24/19 A2999 RMK AO2 T02390189","lat":32.8974,"lon":-97.022,"elev":168,"name":"Dallas-Ft Worth Intl, TX, US","cover":"OVC","clouds":[{"cover":"SCT","base":2300},{"cover":"OVC","base":3100}],"fltCat":"VFR"},{"icaoId":"KLRU","receiptTime":"2026-04-14T17:18:39.879Z","obsTime":1776186900,"reportTime":"2026-04-14T17:15:00.000Z","temp":19.2,"dewp":0,"wdir":240,"wspd":10,"visib":"10+","altim":1017.4,"qcField":6,"metarType":"METAR","rawOb":"METAR KLRU 141715Z AUTO 24010KT 10SM CLR 19/00 A3004 RMK AO2 T01920000","lat":32.2884,"lon":-106.9131,"elev":1355,"name":"Las Cruces Intl, NM, US","cover":"CLR","clouds":[],"fltCat":"VFR"},{"icaoId":"KSTS","receiptTime":"2026-04-14T17:18:06.874Z","obsTime":1776186840,"reportTime":"2026-04-14T17:14:00.000Z","temp":13.3,"dewp":8.3,"wdir":0,"wspd":0,"visib":"10+","altim":1022.1,"qcField":4,"metarType":"SPECI","rawOb":"SPECI KSTS 141714Z 00000KT 10SM SCT012 BKN025 13/08 A3018 RMK AO2 T01330083","lat":38.5037,"lon":-122.811,"elev":35,"name":"Santa Rosa/Schulz Arpt, CA, US","cover":"BKN","clouds":[{"cover":"SCT","base":1200},{"cover":"BKN","base":2500}],"fltCat":"MVFR"},{"icaoId":"KMYL","receiptTime":"2026-04-14T17:18:06.660Z","obsTime":1776186840,"reportTime":"2026-04-14T17:14:00.000Z","temp":4.4,"dewp":-2.2,"wdir":220,"wspd":8,"visib":"10+","altim":1015.7,"qcField":6,"metarType":"SPECI","rawOb":"SPECI KMYL 141714Z AUTO 22008KT 10SM FEW020 OVC035 04/M02 A2999 RMK AO2 T00441022","lat":44.8943,"lon":-116.0998,"elev":1532,"name":"McCall Muni, ID, US","cover":"OVC","clouds":[{"cover":"FEW","base":2000},{"cover":"OVC","base":3500}],"fltCat":"VFR"},{"icaoId":"KMEM","receiptTime":"2026-04-14T17:18:06.842Z","obsTime":1776186840,"reportTime":"2026-04-14T17:14:00.000Z","temp":26.7,"dewp":16.7,"wdir":210,"wspd":12,"wgst":22,"visib":"10+","altim":1019.4,"qcField":12,"metarType":"SPECI","rawOb":"SPECI KMEM 141714Z 21012G22KT 10SM BKN037 BKN250 27/17 A3010 RMK AO2 PK WND 25031/1659 T02670167 $","lat":35.0564,"lon":-89.9864,"elev":78,"name":"Memphis Intl, TN, US","cover":"BKN","clouds":[{"cover":"BKN","base":3700},{"cover":"BKN","base":25000}],"fltCat":"VFR"},{"icaoId":"KGUC","receiptTime":"2026-04-14T17:16:10.824Z","obsTime":1776186840,"reportTime":"2026-04-14T17:14:00.000Z","temp":1,"dewp":-1,"wdir":0,"wspd":0,"visib":"10+","altim":1015,"qcField":78,"precip":0.03,"metarType":"SPECI","rawOb":"SPECI KGUC 141714Z AUTO 00000KT 10SM BKN010 OVC039 01/M01 A2997 RMK AO2 CIG 008V012 P0003 FZRANO $","lat":38.5322,"lon":-106.9419,"elev":2337,"name":"Gunnison Arpt, CO, US","cover":"OVC","clouds":[{"cover":"BKN","base":1000},{"cover":"OVC","base":3900}],"fltCat":"MVFR"},{"icaoId":"KEGE","receiptTime":"2026-04-14T17:14:12.822Z","obsTime":1776186720,"reportTime":"2026-04-14T17:12:00.000Z","temp":6,"dewp":1,"wdir":260,"wspd":12,"visib":"10+","altim":1014.3,"qcField":4,"metarType":"SPECI","rawOb":"SPECI KEGE 141712Z 26012KT 10SM FEW015 OVC070 06/01 A2995 RMK AO2","lat":39.6448,"lon":-106.9176,"elev":1993,"name":"Eagle Cnty Rgnl, CO, US","cover":"OVC","clouds":[{"cover":"FEW","base":1500},{"cover":"OVC","base":7000}],"fltCat":"VFR"},{"icaoId":"KSAT","receiptTime":"2026-04-14T17:14:14.004Z","obsTime":1776186600,"reportTime":"2026-04-14T17:10:00.000Z","temp":23.9,"dewp":20.6,"wdir":160,"wspd":9,"visib":"10+","altim":1017,"qcField":4,"metarType":"SPECI","rawOb":"SPECI KSAT 141710Z 16009KT 10SM BKN013 BKN029 OVC040 24/21 A3003 RMK AO2 T02390206","lat":29.5443,"lon":-98.4839,"elev":246,"name":"San Antonio Intl, TX, US","cover":"OVC","clouds":[{"cover":"BKN","base":1300},{"cover":"BKN","base":2900},{"cover":"OVC","base":4000}],"fltCat":"MVFR"},{"icaoId":"KACT","receiptTime":"2026-04-14T17:10:06.007Z","obsTime":1776186360,"reportTime":"2026-04-14T17:06:00.000Z","temp":23.9,"dewp":19.4,"wdir":180,"wspd":14,"visib":"10+","altim":1017.4,"qcField":4,"metarType":"SPECI","rawOb":"SPECI KACT 141706Z 18014KT 10SM BKN020 BKN028 OVC038 24/19 A3004 RMK AO2 T02390194","lat":31.618,"lon":-97.2283,"elev":150,"name":"Waco Rgnl, TX, US","cover":"OVC","clouds":[{"cover":"BKN","base":2000},{"cover":"BKN","base":2800},{"cover":"OVC","base":3800}],"fltCat":"MVFR"},{"icaoId":"KCDC","receiptTime":"2026-04-14T17:06:08.565Z","obsTime":1776186180,"reportTime":"2026-04-14T17:03:00.000Z","temp":6.1,"dewp":2.2,"wdir":100,"wspd":3,"visib":"10+","altim":1017.7,"qcField":6,"metarType":"SPECI","rawOb":"SPECI KCDC 141703Z AUTO 10003KT 10SM BKN016 BKN020 BKN026 06/02 A3005 RMK AO2 T00610022","lat":37.7067,"lon":-113.097,"elev":1703,"name":"Cedar City Muni, UT, US","cover":"BKN","clouds":[{"cover":"BKN","base":1600},{"cover":"BKN","base":2000},{"cover":"BKN","base":2600}],"fltCat":"MVFR"},{"icaoId":"KSPS","receiptTime":"2026-04-14T17:06:08.581Z","obsTime":1776186180,"reportTime":"2026-04-14T17:03:00.000Z","temp":25.6,"dewp":19.4,"wdir":200,"wspd":17,"wgst":25,"visib":"10+","altim":1013.3,"qcField":14,"metarType":"SPECI","rawOb":"SPECI KSPS 141703Z AUTO 20017G25KT 10SM SCT026 26/19 A2992 RMK AO2 T02560194 $","lat":33.9785,"lon":-98.493,"elev":310,"name":"Wichita Falls Rgnl, TX, US","cover":"SCT","clouds":[{"cover":"SCT","base":2600}],"fltCat":"VFR"},{"icaoId":"KLAR","receiptTime":"2026-04-14T17:04:04.741Z","obsTime":1776186000,"reportTime":"2026-04-14T17:00:00.000Z","temp":3.9,"dewp":0.6,"wdir":350,"wspd":8,"visib":"10+","altim":1012.3,"qcField":6,"metarType":"SPECI","rawOb":"SPECI KLAR 141700Z AUTO 35008KT 10SM BKN014 BKN080 04/01 A2989 RMK AO2 T00390006","lat":41.3165,"lon":-105.6729,"elev":2217,"name":"Laramie Rgnl, WY, US","cover":"BKN","clouds":[{"cover":"BKN","base":1400},{"cover":"BKN","base":8000}],"fltCat":"MVFR"},{"icaoId":"KMYF","receiptTime":"2026-04-14T17:04:02.370Z","obsTime":1776186000,"reportTime":"2026-04-14T17:00:00.000Z","temp":16.7,"dewp":8.9,"wdir":250,"wspd":4,"visib":"10+","altim":1020.1,"qcField":4,"metarType":"SPECI","rawOb":"SPECI KMYF 141700Z 25004KT 10SM SCT033 17/09 A3012 RMK AO2 T01670089","lat":32.8145,"lon":-117.1375,"elev":128,"name":"San Diego/Montgomery Arpt, CA, US","cover":"SCT","clouds":[{"cover":"SCT","base":3300}],"fltCat":"VFR"},{"icaoId":"KNYL","receiptTime":"2026-04-14T17:00:27.297Z","obsTime":1776185820,"reportTime":"2026-04-14T17:00:00.000Z","temp":20,"dewp":5,"wdir":290,"wspd":6,"visib":"10+","altim":1017.7,"slp":1017.2,"qcField":4,"metarType":"METAR","rawOb":"METAR KNYL 141657Z 29006KT 10SM CLR 20/05 A3005 RMK AO2 SLP172 T02000050","lat":32.66,"lon":-114.6078,"elev":58,"name":"Yuma , AZ, US","cover":"CLR","clouds":[],"fltCat":"VFR"},{"icaoId":"KNFL","receiptTime":"2026-04-14T17:00:27.344Z","obsTime":1776185820,"reportTime":"2026-04-14T17:00:00.000Z","temp":11.1,"dewp":-1.1,"wdir":200,"wspd":4,"visib":"10+","altim":1019,"slp":1015.7,"qcField":4,"metarType":"METAR","rawOb":"METAR KNFL 141657Z 20004KT 10SM FEW055 SCT150 BKN200 BKN240 11/M01 A3009 RMK AO2 SLP157 T01111011","lat":39.417,"lon":-118.705,"elev":1199,"name":"Fallon , NV, US","cover":"BKN","clouds":[{"cover":"FEW","base":5500},{"cover":"SCT","base":15000},{"cover":"BKN","base":20000},{"cover":"BKN","base":24000}],"fltCat":"VFR"},{"icaoId":"KFLG","receiptTime":"2026-04-14T17:00:25.224Z","obsTime":1776185820,"reportTime":"2026-04-14T17:00:00.000Z","temp":4.4,"dewp":-2.8,"wdir":260,"wspd":8,"visib":"10+","altim":1018.4,"slp":1015.2,"qcField":12,"metarType":"METAR","rawOb":"METAR KFLG 141657Z 26008KT 10SM BKN026 04/M03 A3007 RMK AO2 SLP152 T00441028 $","lat":35.1443,"lon":-111.6664,"elev":2134,"name":"Flagstaff/Pulliam Arpt, AZ, US","cover":"BKN","clouds":[{"cover":"BKN","base":2600}],"fltCat":"MVFR"},{"icaoId":"KCGZ","receiptTime":"2026-04-14T16:59:01.394Z","obsTime":1776185760,"reportTime":"2026-04-14T17:00:00.000Z","temp":18.9,"dewp":1.1,"wdir":0,"wspd":0,"visib":"10+","qcField":14,"metarType":"METAR","rawOb":"METAR KCGZ 141656Z AUTO 00000KT 10SM CLR 19/01 RMK AO2 SLPNO T01890011 $","lat":32.9531,"lon":-111.7725,"elev":444,"name":"Casa Granda Muni, AZ, US","cover":"CLR","clouds":[],"fltCat":"VFR"},{"icaoId":"KCHS","receiptTime":"2026-04-14T17:00:13.885Z","obsTime":1776185760,"reportTime":"2026-04-14T17:00:00.000Z","temp":26.7,"dewp":15,"wdir":200,"wspd":5,"visib":"10+","altim":1023.8,"slp":1023.4,"qcField":4,"metarType":"METAR","rawOb":"METAR KCHS 141656Z 20005KT 10SM FEW045 FEW250 27/15 A3023 RMK AO2 SLP234 T02670150","lat":32.8995,"lon":-80.0407,"elev":12,"name":"Charleston Intl, SC, US","cover":"FEW","clouds":[{"cover":"FEW","base":4500},{"cover":"FEW","base":25000}],"fltCat":"VFR"},{"icaoId":"KCOE","receiptTime":"2026-04-14T16:58:35.672Z","obsTime":1776185760,"reportTime":"2026-04-14T17:00:00.000Z","temp":5.6,"dewp":1.1,"wdir":190,"wspd":13,"visib":"10+","altim":1014.6,"slp":1016.9,"qcField":14,"metarType":"METAR","rawOb":"METAR KCOE 141656Z AUTO 19013KT 10SM OVC032 06/01 A2996 RMK AO2 SLP169 T00560011 PNO $","lat":47.7719,"lon":-116.8332,"elev":693,"name":"Coeur DAlene Arpt, ID, US","cover":"OVC","clouds":[{"cover":"OVC","base":3200}],"fltCat":"VFR"},{"icaoId":"KVIS","receiptTime":"2026-04-14T16:58:44.134Z","obsTime":1776185760,"reportTime":"2026-04-14T17:00:00.000Z","temp":15.6,"dewp":8.9,"wdir":310,"wspd":6,"visib":"10+","altim":1022.4,"slp":1022.2,"qcField":14,"metarType":"METAR","rawOb":"METAR KVIS 141656Z AUTO 31006KT 10SM CLR 16/09 A3019 RMK AO2 SLP222 T01560089 PNO $","lat":36.3135,"lon":-119.3884,"elev":92,"name":"Visalia Muni, CA, US","cover":"CLR","clouds":[],"fltCat":"VFR"},{"icaoId":"KFNL","receiptTime":"2026-04-14T16:58:58.240Z","obsTime":1776185760,"reportTime":"2026-04-14T17:00:00.000Z","temp":14.4,"dewp":-5,"wdir":150,"wspd":12,"visib":"10+","altim":1011.9,"slp":1007.3,"qcField":12,"metarType":"METAR","rawOb":"METAR KFNL 141656Z 15012KT 10SM BKN100 14/M05 A2988 RMK AO2 SLP073 T01441050 $","lat":40.4427,"lon":-105.0097,"elev":1529,"name":"Fort Collins/N Colorado Rgnl, CO, US","cover":"BKN","clouds":[{"cover":"BKN","base":10000}],"fltCat":"VFR"},{"icaoId":"KPVU","receiptTime":"2026-04-14T16:58:53.128Z","obsTime":1776185760,"reportTime":"2026-04-14T17:00:00.000Z","temp":10.6,"dewp":1.1,"wdir":310,"wspd":17,"visib":"10+","altim":1015.7,"slp":1014.3,"qcField":4,"metarType":"METAR","rawOb":"METAR KPVU 141656Z 31017KT 10SM SCT055 11/01 A2999 RMK AO2 SLP143 T01060011","lat":40.224,"lon":-111.7252,"elev":1370,"name":"Provo Muni, UT, US","cover":"SCT","clouds":[{"cover":"SCT","base":5500}],"fltCat":"VFR"},{"icaoId":"KJAC","receiptTime":"2026-04-14T16:58:57.906Z","obsTime":1776185760,"reportTime":"2026-04-14T17:00:00.000Z","temp":1.7,"dewp":-1.1,"wdir":180,"wspd":4,"visib":"10+","altim":1014.6,"slp":1016.7,"qcField":4,"metarType":"METAR","rawOb":"METAR KJAC 141656Z 18004KT 10SM SCT011 02/M01 A2996 RMK AO2 SLP167 T00171011","lat":43.6129,"lon":-110.7366,"elev":1967,"name":"Jackson Hole Arpt, WY, US","cover":"SCT","clouds":[{"cover":"SCT","base":1100}],"fltCat":"VFR"},{"icaoId":"KJAX","receiptTime":"2026-04-14T17:00:13.447Z","obsTime":1776185760,"reportTime":"2026-04-14T17:00:00.000Z","temp":27.8,"dewp":12.2,"wdir":"VRB","wspd":4,"visib":"10+","altim":1023.8,"slp":1023.6,"qcField":12,"metarType":"METAR","rawOb":"METAR KJAX 141656Z VRB04KT 10SM FEW050 FEW250 28/12 A3023 RMK AO2 SLP236 T02780122 $","lat":30.4953,"lon":-81.6937,"elev":8,"name":"Jacksonville Intl, FL, US","cover":"FEW","clouds":[{"cover":"FEW","base":5000},{"cover":"FEW","base":25000}],"fltCat":"VFR"},{"icaoId":"KSBP","receiptTime":"2026-04-14T17:00:17.677Z","obsTime":1776185760,"reportTime":"2026-04-14T17:00:00.000Z","temp":16.7,"dewp":7.8,"wdir":340,"wspd":8,"visib":"10+","altim":1021.1,"slp":1021,"qcField":4,"metarType":"METAR","rawOb":"METAR KSBP 141656Z 34008KT 10SM CLR 17/08 A3015 RMK AO2 SLP210 T01670078","lat":35.2381,"lon":-120.644,"elev":52,"name":"San Luis Obispo/San Luis Cnty, CA, US","cover":"CLR","clouds":[],"fltCat":"VFR"},{"icaoId":"KUKI","receiptTime":"2026-04-14T17:00:13.171Z","obsTime":1776185760,"reportTime":"2026-04-14T17:00:00.000Z","temp":10.6,"dewp":6.7,"wdir":"VRB","wspd":4,"visib":"10+","altim":1022.4,"slp":1021.9,"qcField":6,"metarType":"METAR","rawOb":"METAR KUKI 141656Z AUTO VRB04KT 10SM OVC015 11/07 A3019 RMK AO2 SLP219 T01060067","lat":39.1278,"lon":-123.2001,"elev":183,"name":"Ukiah Muni, CA, US","cover":"OVC","clouds":[{"cover":"OVC","base":1500}],"fltCat":"MVFR"},{"icaoId":"KEKO","receiptTime":"2026-04-14T17:00:19.332Z","obsTime":1776185760,"reportTime":"2026-04-14T17:00:00.000Z","temp":9.4,"dewp":-1.1,"wdir":230,"wspd":10,"visib":"10+","altim":1017.7,"slp":1016.6,"qcField":6,"metarType":"METAR","rawOb":"METAR KEKO 141656Z AUTO 23010KT 10SM CLR 09/M01 A3005 RMK AO2 SLP166 T00941011","lat":40.824,"lon":-115.7863,"elev":1541,"name":"Elko Rgnl, NV, US","cover":"CLR","clouds":[],"fltCat":"VFR"},{"icaoId":"KCEC","receiptTime":"2026-04-14T17:00:19.876Z","obsTime":1776185760,"reportTime":"2026-04-14T17:00:00.000Z","temp":11.7,"dewp":4.4,"wdir":"VRB","wspd":4,"visib":"10+","altim":1023.8,"slp":1023.9,"qcField":6,"metarType":"METAR","rawOb":"METAR KCEC 141656Z AUTO VRB04KT 10SM OVC039 12/04 A3023 RMK AO2 SLP239 T01170044","lat":41.7836,"lon":-124.238,"elev":17,"name":"Crescent City/McNama, CA, US","cover":"OVC","clouds":[{"cover":"OVC","base":3900}],"fltCat":"VFR"},{"icaoId":"KHND","receiptTime":"2026-04-14T16:58:59.676Z","obsTime":1776185760,"reportTime":"2026-04-14T17:00:00.000Z","temp":17.2,"dewp":0.6,"wdir":310,"wspd":4,"visib":"10+","altim":1018,"slp":1018.7,"qcField":12,"metarType":"METAR","rawOb":"METAR KHND 141656Z 31004KT 10SM CLR 17/01 A3006 RMK AO2 SLP187 T01720006 $","lat":35.9657,"lon":-115.1343,"elev":740,"name":"Henderson Exec, NV, US","cover":"CLR","clouds":[],"fltCat":"VFR"},{"icaoId":"KENV","receiptTime":"2026-04-14T16:58:59.495Z","obsTime":1776185760,"reportTime":"2026-04-14T17:00:00.000Z","temp":11.7,"dewp":-2.8,"wdir":10,"wspd":7,"wgst":16,"visib":"10+","altim":1017.4,"slp":1016.7,"qcField":6,"metarType":"METAR","rawOb":"METAR KENV 141656Z AUTO 01007G16KT 10SM OVC070 12/M03 A3004 RMK AO2 SLP167 T01171028","lat":40.7211,"lon":-114.0312,"elev":1291,"name":"Wendover Arpt, UT, US","cover":"OVC","clouds":[{"cover":"OVC","base":7000}],"fltCat":"VFR"},{"icaoId":"KINW","receiptTime":"2026-04-14T17:00:14.392Z","obsTime":1776185760,"reportTime":"2026-04-14T17:00:00.000Z","temp":11.7,"dewp":-2.2,"wdir":280,"wspd":10,"wgst":17,"visib":"10+","altim":1018,"slp":1015,"qcField":6,"metarType":"METAR","rawOb":"METAR KINW 141656Z AUTO 28010G17KT 10SM SCT049 12/M02 A3006 RMK AO2 SLP150 T01171022","lat":35.0279,"lon":-110.7221,"elev":1492,"name":"Winslow/Lindberg Rgnl, AZ, US","cover":"SCT","clouds":[{"cover":"SCT","base":4900}],"fltCat":"VFR"},{"icaoId":"KLWS","receiptTime":"2026-04-14T17:00:14.204Z","obsTime":1776185760,"reportTime":"2026-04-14T17:00:00.000Z","temp":10,"dewp":2.2,"wdir":340,"wspd":5,"visib":"10+","altim":1015.7,"slp":1016,"qcField":4,"metarType":"METAR","rawOb":"METAR KLWS 141656Z 34005KT 10SM BKN049 10/02 A2999 RMK AO2 SLP160 T01000022","lat":46.3746,"lon":-117.0153,"elev":435,"name":"Lewiston/Nez Perce Cnty, ID, US","cover":"BKN","clouds":[{"cover":"BKN","base":4900}],"fltCat":"VFR"},{"icaoId":"KLAS","receiptTime":"2026-04-14T17:00:14.184Z","obsTime":1776185760,"reportTime":"2026-04-14T17:00:00.000Z","temp":17.8,"dewp":0.6,"wdir":"VRB","wspd":4,"visib":"10+","altim":1017.4,"slp":1016.3,"qcField":4,"metarType":"METAR","rawOb":"METAR KLAS 141656Z VRB04KT 10SM FEW090 18/01 A3004 RMK AO2 SLP163 T01780006","lat":36.0719,"lon":-115.1634,"elev":662,"name":"Las Vegas/Reid Intl, NV, US","cover":"FEW","clouds":[{"cover":"FEW","base":9000}],"fltCat":"VFR"},{"icaoId":"KRDM","receiptTime":"2026-04-14T17:00:14.407Z","obsTime":1776185760,"reportTime":"2026-04-14T17:00:00.000Z","temp":6.7,"dewp":-3.3,"wdir":200,"wspd":4,"visib":"10+","altim":1016.7,"slp":1017.2,"qcField":4,"metarType":"METAR","rawOb":"METAR KRDM 141656Z 20004KT 10SM FEW100 07/M03 A3002 RMK AO2 SLP172 T00671033","lat":44.2558,"lon":-121.1407,"elev":930,"name":"Redmond Muni, OR, US","cover":"FEW","clouds":[{"cover":"FEW","base":10000}],"fltCat":"VFR"},{"icaoId":"KSDF","receiptTime":"2026-04-14T17:00:18.909Z","obsTime":1776185760,"reportTime":"2026-04-14T17:00:00.000Z","temp":26.7,"dewp":16.1,"wdir":230,"wspd":14,"wgst":24,"visib":"10+","altim":1017.4,"slp":1016.7,"qcField":4,"metarType":"METAR","rawOb":"METAR KSDF 141656Z 23014G24KT 10SM SCT042 BKN060 BKN120 BKN250 27/16 A3004 RMK AO2 PK WND 22027/1559 SLP167 T02670161","lat":38.1774,"lon":-85.7308,"elev":146,"name":"Louisville Intl, KY, US","cover":"BKN","clouds":[{"cover":"SCT","base":4200},{"cover":"BKN","base":6000},{"cover":"BKN","base":12000},{"cover":"BKN","base":25000}],"fltCat":"VFR"},{"icaoId":"KSFO","receiptTime":"2026-04-14T17:00:14.431Z","obsTime":1776185760,"reportTime":"2026-04-14T17:00:00.000Z","temp":13.3,"dewp":7.2,"wdir":280,"wspd":10,"visib":"10+","altim":1023.1,"slp":1022.8,"qcField":12,"metarType":"METAR","rawOb":"METAR KSFO 141656Z 28010KT 10SM BKN028 13/07 A3021 RMK AO2 SLP228 T01330072 $","lat":37.6196,"lon":-122.3656,"elev":2,"name":"San Francisco Intl, CA, US","cover":"BKN","clouds":[{"cover":"BKN","base":2800}],"fltCat":"MVFR"},{"icaoId":"KTPH","receiptTime":"2026-04-14T17:00:13.154Z","obsTime":1776185760,"reportTime":"2026-04-14T17:00:00.000Z","temp":10,"dewp":-5.6,"wdir":"VRB","wspd":4,"visib":"10+","altim":1019.4,"slp":1017.3,"qcField":6,"metarType":"METAR","rawOb":"METAR KTPH 141656Z AUTO VRB04KT 10SM CLR 10/M06 A3010 RMK AO2 SLP173 T01001056","lat":38.0505,"lon":-117.0906,"elev":1647,"name":"Tonopah Arpt, NV, US","cover":"CLR","clouds":[],"fltCat":"VFR"},{"icaoId":"KSLE","receiptTime":"2026-04-14T17:00:13.139Z","obsTime":1776185760,"reportTime":"2026-04-14T17:00:00.000Z","temp":8.9,"dewp":3.9,"wdir":170,"wspd":13,"wgst":20,"visib":"10+","altim":1019.7,"slp":1019.8,"qcField":4,"precip":0.005,"metarType":"METAR","rawOb":"METAR KSLE 141656Z 17013G20KT 10SM OVC041 09/04 A3011 RMK AO2 RAB22E46 SLP198 P0000 T00890039","lat":44.9049,"lon":-123.001,"elev":63,"name":"Salem Muni, OR, US","cover":"OVC","clouds":[{"cover":"OVC","base":4100}],"fltCat":"VFR"},{"icaoId":"KDUG","receiptTime":"2026-04-14T17:04:04.707Z","obsTime":1776185760,"reportTime":"2026-04-14T17:00:00.000Z","temp":17.8,"dewp":3.3,"wdir":160,"wspd":8,"visib":"10+","altim":1017.7,"slp":1012.5,"qcField":38,"metarType":"METAR","rawOb":"METAR KDUG 141656Z AUTO 16008KT 10SM CLR 18/03 A3005 RMK AO2 SLP125 T01780033 TSNO","lat":31.4725,"lon":-109.6022,"elev":1260,"name":"Douglas/Bisbee Intl, AZ, US","cover":"CLR","clouds":[],"fltCat":"VFR"},{"icaoId":"KSGU","receiptTime":"2026-04-14T16:58:36.858Z","obsTime":1776185760,"reportTime":"2026-04-14T17:00:00.000Z","temp":10.6,"dewp":5.6,"wdir":0,"wspd":0,"visib":"10+","altim":1017.7,"slp":1017.2,"qcField":6,"metarType":"METAR","rawOb":"METAR KSGU 141656Z AUTO 00000KT 10SM FEW021 11/06 A3005 RMK AO2 SLP172 T01060056","lat":37.0444,"lon":-113.5034,"elev":877,"name":"Saint George Muni, UT, US","cover":"FEW","clouds":[{"cover":"FEW","base":2100}],"fltCat":"VFR"},{"icaoId":"KCOD","receiptTime":"2026-04-14T16:58:58.750Z","obsTime":1776185760,"reportTime":"2026-04-14T17:00:00.000Z","temp":11.7,"dewp":-7.8,"wdir":230,"wspd":9,"visib":"10+","altim":1011.6,"slp":1010.1,"qcField":14,"metarType":"METAR","rawOb":"METAR KCOD 141656Z AUTO 23009KT 10SM CLR 12/M08 A2987 RMK AO2 SLP101 T01171078 $","lat":44.52,"lon":-109.0268,"elev":1550,"name":"Cody/Yellowstone Rgnl, WY, US","cover":"CLR","clouds":[],"fltCat":"VFR"},{"icaoId":"KGPI","receiptTime":"2026-04-14T16:58:55.038Z","obsTime":1776185700,"reportTime":"2026-04-14T17:00:00.000Z","temp":8.3,"dewp":-0.6,"wdir":210,"wspd":12,"visib":"10+","altim":1011.3,"slp":1011.9,"qcField":4,"metarType":"METAR","rawOb":"METAR KGPI 141655Z 21012KT 10SM OVC060 08/M01 A2986 RMK AO2 PK WND 23026/1558 WSHFT 1547 SLP119 T00831006","lat":48.3041,"lon":-114.2643,"elev":903,"name":"Kalispell/Glacier Park Intl, MT, US","cover":"OVC","clouds":[{"cover":"OVC","base":6000}],"fltCat":"VFR"},{"icaoId":"KCMA","receiptTime":"2026-04-14T16:58:58.685Z","obsTime":1776185700,"reportTime":"2026-04-14T17:00:00.000Z","temp":16.7,"dewp":9.4,"wdir":270,"wspd":3,"visib":"10+","altim":1019.7,"slp":1020.5,"qcField":4,"metarType":"METAR","rawOb":"METAR KCMA 141655Z 27003KT 10SM CLR 17/09 A3011 RMK AO2 SLP205 T01670094","lat":34.2114,"lon":-119.0876,"elev":20,"name":"Camarillo Arpt, CA, US","cover":"CLR","clouds":[],"fltCat":"VFR"},{"icaoId":"KRNO","receiptTime":"2026-04-14T16:58:53.827Z","obsTime":1776185700,"reportTime":"2026-04-14T17:00:00.000Z","temp":8.9,"dewp":-2.8,"wdir":0,"wspd":0,"visib":"10+","altim":1019.7,"slp":1017.8,"qcField":4,"metarType":"METAR","rawOb":"METAR KRNO 141655Z 00000KT 10SM BKN230 09/M03 A3011 RMK AO2 SLP178 T00891028","lat":39.5077,"lon":-119.7683,"elev":1344,"name":"Reno/Tahoe Intl, NV, US","cover":"BKN","clouds":[{"cover":"BKN","base":23000}],"fltCat":"VFR"},{"icaoId":"KBOS","receiptTime":"2026-04-14T16:58:12.669Z","obsTime":1776185640,"reportTime":"2026-04-14T17:00:00.000Z","temp":24.4,"dewp":13.3,"wdir":110,"wspd":10,"visib":"10+","altim":1013,"slp":1012.9,"qcField":4,"metarType":"METAR","rawOb":"METAR KBOS 141654Z 11010KT 10SM CLR 24/13 A2991 RMK AO2 SLP129 T02440133","lat":42.3606,"lon":-71.0097,"elev":4,"name":"Boston/Logan Intl, MA, US","cover":"CLR","clouds":[],"fltCat":"VFR"},{"icaoId":"KGSO","receiptTime":"2026-04-14T16:58:10.795Z","obsTime":1776185640,"reportTime":"2026-04-14T17:00:00.000Z","temp":27.2,"dewp":10.6,"wdir":230,"wspd":4,"visib":"10+","altim":1021.1,"slp":1019.9,"qcField":4,"metarType":"METAR","rawOb":"METAR KGSO 141654Z 23004KT 10SM FEW120 BKN250 27/11 A3015 RMK AO2 SLP199 T02720106","lat":36.0969,"lon":-79.9432,"elev":275,"name":"Greensboro Intl, NC, US","cover":"BKN","clouds":[{"cover":"FEW","base":12000},{"cover":"BKN","base":25000}],"fltCat":"VFR"},{"icaoId":"KBWI","receiptTime":"2026-04-14T16:58:12.703Z","obsTime":1776185640,"reportTime":"2026-04-14T17:00:00.000Z","temp":28.9,"dewp":11.1,"wdir":230,"wspd":11,"visib":"10+","altim":1016,"slp":1015.6,"qcField":4,"metarType":"METAR","rawOb":"METAR KBWI 141654Z 23011KT 10SM SCT100 BKN250 29/11 A3000 RMK AO2 SLP156 T02890111","lat":39.1733,"lon":-76.684,"elev":42,"name":"Baltimore-Washington Intl, MD, US","cover":"BKN","clouds":[{"cover":"SCT","base":10000},{"cover":"BKN","base":25000}],"fltCat":"VFR"},{"icaoId":"KEUG","receiptTime":"2026-04-14T16:58:12.806Z","obsTime":1776185640,"reportTime":"2026-04-14T17:00:00.000Z","temp":9.4,"dewp":3.9,"wdir":180,"wspd":10,"visib":"10+","altim":1021.4,"slp":1021.6,"qcField":4,"metarType":"METAR","rawOb":"METAR KEUG 141654Z 18010KT 10SM FEW025 OVC050 09/04 A3016 RMK AO2 SLP216 T00940039","lat":44.1331,"lon":-123.2156,"elev":109,"name":"Eugene/Mahlon Sweet Fld, OR, US","cover":"OVC","clouds":[{"cover":"FEW","base":2500},{"cover":"OVC","base":5000}],"fltCat":"VFR"},{"icaoId":"KSYR","receiptTime":"2026-04-14T16:58:11.217Z","obsTime":1776185640,"reportTime":"2026-04-14T17:00:00.000Z","temp":25.6,"dewp":14.4,"wdir":210,"wspd":13,"wgst":23,"visib":"10+","altim":1008.2,"slp":1007.5,"qcField":4,"metarType":"METAR","rawOb":"METAR KSYR 141654Z 21013G23KT 10SM FEW040 SCT080 SCT110 BKN170 26/14 A2977 RMK AO2 PK WND 20028/1642 SLP075 T02560144","lat":43.1111,"lon":-76.1038,"elev":125,"name":"Syracuse/Hancock Intl, NY, US","cover":"BKN","clouds":[{"cover":"FEW","base":4000},{"cover":"SCT","base":8000},{"cover":"SCT","base":11000},{"cover":"BKN","base":17000}],"fltCat":"VFR"},{"icaoId":"KAPC","receiptTime":"2026-04-14T16:58:12.624Z","obsTime":1776185640,"reportTime":"2026-04-14T17:00:00.000Z","temp":11.1,"dewp":9.4,"wdir":"VRB","wspd":3,"visib":"10+","altim":1022.4,"slp":1021.4,"qcField":4,"metarType":"METAR","rawOb":"METAR KAPC 141654Z VRB03KT 10SM BKN013 11/09 A3019 RMK AO2 SLP214 T01110094","lat":38.2075,"lon":-122.2804,"elev":5,"name":"Napa Cnty Arpt, CA, US","cover":"BKN","clouds":[{"cover":"BKN","base":1300}],"fltCat":"MVFR"},{"icaoId":"KROC","receiptTime":"2026-04-14T16:58:11.160Z","obsTime":1776185640,"reportTime":"2026-04-14T17:00:00.000Z","temp":24.4,"dewp":15.6,"wdir":250,"wspd":20,"wgst":34,"visib":"10+","altim":1008.5,"slp":1008.4,"qcField":12,"metarType":"METAR","rawOb":"METAR KROC 141654Z 25020G34KT 10SM SCT041 BKN180 BKN250 24/16 A2978 RMK AO2 PK WND 23038/1633 SLP084 T02440156 $","lat":43.1172,"lon":-77.6754,"elev":166,"name":"Rochester Intl Arpt, NY, US","cover":"BKN","clouds":[{"cover":"SCT","base":4100},{"cover":"BKN","base":18000},{"cover":"BKN","base":25000}],"fltCat":"VFR"},{"icaoId":"KBTV","receiptTime":"2026-04-14T16:58:10.965Z","obsTime":1776185640,"reportTime":"2026-04-14T17:00:00.000Z","temp":12.2,"dewp":7.2,"wdir":270,"wspd":3,"visib":"10+","altim":1011.6,"slp":1011.5,"qcField":4,"metarType":"METAR","rawOb":"METAR KBTV 141654Z 27003KT 10SM BKN075 OVC100 12/07 A2987 RMK AO2 SLP115 T01220072","lat":44.4682,"lon":-73.1499,"elev":101,"name":"Burlington Intl, VT, US","cover":"OVC","clouds":[{"cover":"BKN","base":7500},{"cover":"OVC","base":10000}],"fltCat":"VFR"},{"icaoId":"KBFL","receiptTime":"2026-04-14T16:58:12.653Z","obsTime":1776185640,"reportTime":"2026-04-14T17:00:00.000Z","temp":15.6,"dewp":6.7,"wdir":140,"wspd":4,"visib":"10+","altim":1021.8,"slp":1021.4,"qcField":4,"metarType":"METAR","rawOb":"METAR KBFL 141654Z 14004KT 10SM CLR 16/07 A3017 RMK AO2 SLP214 T01560067","lat":35.4342,"lon":-119.0552,"elev":146,"name":"Bakersfield/Meadows Arpt, CA, US","cover":"CLR","clouds":[],"fltCat":"VFR"},{"icaoId":"KDSM","receiptTime":"2026-04-14T16:58:11.042Z","obsTime":1776185640,"reportTime":"2026-04-14T17:00:00.000Z","temp":26.1,"dewp":18.9,"wdir":200,"wspd":10,"visib":"10+","altim":1005.2,"slp":1004.4,"qcField":4,"metarType":"METAR","rawOb":"METAR KDSM 141654Z 20010KT 10SM FEW024 BKN046 26/19 A2968 RMK AO2 SLP044 T02610189","lat":41.5339,"lon":-93.6531,"elev":286,"name":"Des Moines Intl, IA, US","cover":"BKN","clouds":[{"cover":"FEW","base":2400},{"cover":"BKN","base":4600}],"fltCat":"VFR"},{"icaoId":"KGCN","receiptTime":"2026-04-14T16:58:12.234Z","obsTime":1776185640,"reportTime":"2026-04-14T17:00:00.000Z","temp":3.3,"dewp":0.6,"wdir":240,"wspd":9,"visib":"10+","altim":1018.7,"slp":1016.2,"qcField":4,"metarType":"METAR","rawOb":"METAR KGCN 141654Z 24009KT 10SM SCT012 BKN018 OVC039 03/01 A3008 RMK AO2 SLP162 T00330006","lat":35.9458,"lon":-112.1554,"elev":1993,"name":"Grand Canyon Park Arpt, AZ, US","cover":"OVC","clouds":[{"cover":"SCT","base":1200},{"cover":"BKN","base":1800},{"cover":"OVC","base":3900}],"fltCat":"MVFR"},{"icaoId":"KSJN","receiptTime":"2026-04-14T16:58:11.665Z","obsTime":1776185640,"reportTime":"2026-04-14T17:00:00.000Z","temp":10.6,"dewp":3.3,"wdir":290,"wspd":20,"wgst":26,"visib":"10+","altim":1017.7,"slp":1012.7,"qcField":6,"metarType":"METAR","rawOb":"METAR KSJN 141654Z AUTO 29020G26KT 10SM SCT044 BKN060 11/03 A3005 RMK AO2 PK WND 29026/1651 SLP127 T01060033","lat":34.5184,"lon":-109.3801,"elev":1747,"name":"St Johns Ind Arpt, AZ, US","cover":"BKN","clouds":[{"cover":"SCT","base":4400},{"cover":"BKN","base":6000}],"fltCat":"VFR"},{"icaoId":"KRKS","receiptTime":"2026-04-14T16:58:11.604Z","obsTime":1776185640,"reportTime":"2026-04-14T17:00:00.000Z","temp":5,"dewp":-5.6,"wdir":270,"wspd":8,"wgst":15,"visib":"10+","altim":1013.6,"slp":1011.9,"qcField":6,"metarType":"METAR","rawOb":"METAR KRKS 141654Z AUTO 27008G15KT 10SM CLR 05/M06 A2993 RMK AO2 SLP119 T00501056","lat":41.5947,"lon":-109.0529,"elev":2062,"name":"Rock Springs/SW Wyoming Rgnl, WY, US","cover":"CLR","clouds":[],"fltCat":"VFR"},{"icaoId":"KIND","receiptTime":"2026-04-14T16:58:12.308Z","obsTime":1776185640,"reportTime":"2026-04-14T17:00:00.000Z","temp":26.1,"dewp":17.8,"wdir":240,"wspd":11,"wgst":19,"visib":"10+","altim":1014.3,"slp":1013.3,"qcField":4,"metarType":"METAR","rawOb":"METAR KIND 141654Z 24011G19KT 10SM SCT033 BKN170 BKN250 26/18 A2995 RMK AO2 SLP133 T02610178","lat":39.7252,"lon":-86.2816,"elev":242,"name":"Indianapolis Intl, IN, US","cover":"BKN","clouds":[{"cover":"SCT","base":3300},{"cover":"BKN","base":17000},{"cover":"BKN","base":25000}],"fltCat":"VFR"},{"icaoId":"KPHL","receiptTime":"2026-04-14T16:58:11.518Z","obsTime":1776185640,"reportTime":"2026-04-14T17:00:00.000Z","temp":28.9,"dewp":11.7,"wdir":210,"wspd":10,"visib":"10+","altim":1015,"slp":1014.6,"qcField":12,"metarType":"METAR","rawOb":"METAR KPHL 141654Z 21010KT 10SM FEW065 FEW100 BKN240 BKN330 29/12 A2997 RMK AO2 SLP146 T02890117 $","lat":39.8733,"lon":-75.2268,"elev":2,"name":"Philadelphia Intl, PA, US","cover":"BKN","clouds":[{"cover":"FEW","base":6500},{"cover":"FEW","base":10000},{"cover":"BKN","base":24000},{"cover":"BKN","base":33000}],"fltCat":"VFR"},{"icaoId":"KOLS","receiptTime":"2026-04-14T16:58:11.489Z","obsTime":1776185640,"reportTime":"2026-04-14T17:00:00.000Z","temp":16.7,"dewp":5.6,"wdir":140,"wspd":3,"visib":"10+","altim":1017.7,"slp":1013.2,"qcField":6,"metarType":"METAR","rawOb":"METAR KOLS 141654Z AUTO 14003KT 10SM FEW038 17/06 A3005 RMK AO2 SLP132 T01670056","lat":31.4208,"lon":-110.8465,"elev":1194,"name":"Nogales Intl, AZ, US","cover":"FEW","clouds":[{"cover":"FEW","base":3800}],"fltCat":"VFR"},{"icaoId":"KFFZ","receiptTime":"2026-04-14T16:58:11.423Z","obsTime":1776185640,"reportTime":"2026-04-14T17:00:00.000Z","temp":19.4,"dewp":1.1,"visib":"10+","altim":1016.7,"slp":1014.8,"qcField":4,"metarType":"METAR","rawOb":"METAR KFFZ 141654Z 10SM CLR 19/01 A3002 RMK AO2 SLP148 T01940011","lat":33.4659,"lon":-111.7212,"elev":420,"name":"Mesa/Falcon Fld, AZ, US","cover":"CLR","clouds":[],"fltCat":"VFR"},{"icaoId":"KRIC","receiptTime":"2026-04-14T16:58:11.132Z","obsTime":1776185640,"reportTime":"2026-04-14T17:00:00.000Z","temp":28.9,"dewp":10,"wdir":210,"wspd":10,"visib":"10+","altim":1018,"slp":1018.3,"qcField":4,"metarType":"METAR","rawOb":"METAR KRIC 141654Z 21010KT 10SM FEW090 FEW120 SCT250 29/10 A3006 RMK AO2 SLP183 T02890100","lat":37.5115,"lon":-77.3234,"elev":51,"name":"Richmond Intl, VA, US","cover":"SCT","clouds":[{"cover":"FEW","base":9000},{"cover":"FEW","base":12000},{"cover":"SCT","base":25000}],"fltCat":"VFR"},{"icaoId":"KCOS","receiptTime":"2026-04-14T16:58:11.012Z","obsTime":1776185640,"reportTime":"2026-04-14T17:00:00.000Z","temp":14.4,"dewp":-8.3,"wdir":30,"wspd":5,"visib":"10+","altim":1012.3,"slp":1007.1,"qcField":4,"metarType":"METAR","rawOb":"METAR KCOS 141654Z 03005KT 10SM BKN090 14/M08 A2989 RMK AO2 SLP071 VCSH W T01441083","lat":38.8095,"lon":-104.6887,"elev":1886,"name":"Colorado Spring Arpt, CO, US","cover":"BKN","clouds":[{"cover":"BKN","base":9000}],"fltCat":"VFR"},{"icaoId":"KSLC","receiptTime":"2026-04-14T16:58:11.678Z","obsTime":1776185640,"reportTime":"2026-04-14T17:00:00.000Z","temp":10,"dewp":0,"wdir":330,"wspd":7,"visib":"10+","altim":1016,"slp":1014.3,"qcField":12,"metarType":"METAR","rawOb":"METAR KSLC 141654Z 33007KT 10SM FEW035 FEW055 FEW200 10/00 A3000 RMK AO2 SLP143 T01000000 $","lat":40.7707,"lon":-111.965,"elev":1286,"name":"Salt Lake City Intl, UT, US","cover":"FEW","clouds":[{"cover":"FEW","base":3500},{"cover":"FEW","base":5500},{"cover":"FEW","base":20000}],"fltCat":"VFR"},{"icaoId":"KBUF","receiptTime":"2026-04-14T16:58:10.982Z","obsTime":1776185640,"reportTime":"2026-04-14T17:00:00.000Z","temp":21.1,"dewp":15,"wdir":230,"wspd":19,"wgst":32,"visib":"10+","altim":1009.6,"slp":1009.4,"qcField":4,"metarType":"METAR","rawOb":"METAR KBUF 141654Z 23019G32KT 10SM BKN031 BKN043 BKN170 BKN250 21/15 A2981 RMK AO2 PK WND 23042/1632 SLP094 T02110150","lat":42.94,"lon":-78.7361,"elev":217,"name":"Buffalo-Niagara Intl, NY, US","cover":"BKN","clouds":[{"cover":"BKN","base":3100},{"cover":"BKN","base":4300},{"cover":"BKN","base":17000},{"cover":"BKN","base":25000}],"fltCat":"VFR"},{"icaoId":"KPUB","receiptTime":"2026-04-14T16:56:30.687Z","obsTime":1776185580,"reportTime":"2026-04-14T17:00:00.000Z","temp":17.2,"dewp":-9.4,"wdir":0,"wspd":0,"visib":"10+","altim":1010.2,"slp":1006,"qcField":12,"metarType":"METAR","rawOb":"METAR KPUB 141653Z 00000KT 10SM CLR 17/M09 A2983 RMK AO2 SLP060 T01721094 $","lat":38.2887,"lon":-104.5057,"elev":1441,"name":"Pueblo Mem Arpt, CO, US","cover":"CLR","clouds":[],"fltCat":"VFR"},{"icaoId":"KSMF","receiptTime":"2026-04-14T17:00:23.002Z","obsTime":1776185580,"reportTime":"2026-04-14T17:00:00.000Z","temp":14.4,"dewp":9.4,"wdir":180,"wspd":14,"visib":"10+","altim":1021.4,"slp":1021.3,"qcField":13,"metarType":"METAR","rawOb":"METAR KSMF 141653Z COR 18014KT 10SM SCT015 BKN250 14/09 A3016 RMK AO2 SLP213 T01440094 $","lat":38.7007,"lon":-121.5948,"elev":7,"name":"Sacramento Intl, CA, US","cover":"BKN","clouds":[{"cover":"SCT","base":1500},{"cover":"BKN","base":25000}],"fltCat":"VFR"},{"icaoId":"KMIA","receiptTime":"2026-04-14T16:58:49.205Z","obsTime":1776185580,"reportTime":"2026-04-14T17:00:00.000Z","temp":26.7,"dewp":16.7,"wdir":70,"wspd":14,"wgst":24,"visib":"10+","altim":1022.1,"slp":1022,"qcField":0,"metarType":"METAR","rawOb":"METAR KMIA 141653Z 07014G24KT 10SM SCT038 SCT050 BKN250 27/17 A3018 RMK SLP220 T02670167","lat":25.7881,"lon":-80.3169,"elev":1,"name":"Miami Intl, FL, US","cover":"BKN","clouds":[{"cover":"SCT","base":3800},{"cover":"SCT","base":5000},{"cover":"BKN","base":25000}],"fltCat":"VFR"},{"icaoId":"KIDA","receiptTime":"2026-04-14T16:56:31.824Z","obsTime":1776185580,"reportTime":"2026-04-14T17:00:00.000Z","temp":5.6,"dewp":1.1,"wdir":220,"wspd":12,"visib":"10+","altim":1016,"slp":1016.4,"qcField":4,"metarType":"METAR","rawOb":"METAR KIDA 141653Z 22012KT 10SM SCT015 OVC023 06/01 A3000 RMK AO2 SLP164 T00560011","lat":43.5204,"lon":-112.0675,"elev":1444,"name":"Idaho Falls Rgnl, ID, US","cover":"OVC","clouds":[{"cover":"SCT","base":1500},{"cover":"OVC","base":2300}],"fltCat":"MVFR"},{"icaoId":"KLAX","receiptTime":"2026-04-14T16:56:20.738Z","obsTime":1776185580,"reportTime":"2026-04-14T17:00:00.000Z","temp":18.3,"dewp":8.9,"wdir":110,"wspd":3,"visib":"10+","altim":1020.1,"slp":1019.7,"qcField":4,"metarType":"METAR","rawOb":"METAR KLAX 141653Z 11003KT 10SM FEW018 FEW027 18/09 A3012 RMK AO2 SLP197 T01830089","lat":33.9382,"lon":-118.3866,"elev":30,"name":"Los Angeles Intl, CA, US","cover":"FEW","clouds":[{"cover":"FEW","base":1800},{"cover":"FEW","base":2700}],"fltCat":"VFR"},{"icaoId":"KMDW","receiptTime":"2026-04-14T16:56:30.560Z","obsTime":1776185580,"reportTime":"2026-04-14T17:00:00.000Z","temp":25,"dewp":16.1,"wdir":220,"wspd":13,"wgst":22,"visib":"10+","altim":1009.9,"slp":1009,"qcField":4,"metarType":"METAR","rawOb":"METAR KMDW 141653Z 22013G22KT 10SM BKN035 BKN250 25/16 A2982 RMK AO2 PK WND 19026/1559 SLP090 T02500161","lat":41.7841,"lon":-87.7552,"elev":186,"name":"Chicago/Midway Intl, IL, US","cover":"BKN","clouds":[{"cover":"BKN","base":3500},{"cover":"BKN","base":25000}],"fltCat":"VFR"},{"icaoId":"KMFR","receiptTime":"2026-04-14T16:56:21.184Z","obsTime":1776185580,"reportTime":"2026-04-14T17:00:00.000Z","temp":10,"dewp":3.9,"wdir":0,"wspd":0,"visib":"10+","altim":1021.4,"slp":1021.3,"qcField":4,"metarType":"METAR","rawOb":"METAR KMFR 141653Z 00000KT 10SM SCT042 10/04 A3016 RMK AO2 SLP213 T01000039","lat":42.375,"lon":-122.877,"elev":397,"name":"Medford/Rogue Valley Intl, OR, US","cover":"SCT","clouds":[{"cover":"SCT","base":4200}],"fltCat":"VFR"},{"icaoId":"KMTJ","receiptTime":"2026-04-14T16:56:30.613Z","obsTime":1776185580,"reportTime":"2026-04-14T17:00:00.000Z","temp":11.1,"dewp":-6.7,"wdir":220,"wspd":17,"wgst":26,"visib":"10+","altim":1014.3,"slp":1009.3,"qcField":6,"metarType":"METAR","rawOb":"METAR KMTJ 141653Z AUTO 22017G26KT 10SM CLR 11/M07 A2995 RMK AO2 PK WND 22026/1645 SLP093 T01111067","lat":38.5054,"lon":-107.8981,"elev":1755,"name":"Montrose Rgnl, CO, US","cover":"CLR","clouds":[],"fltCat":"VFR"},{"icaoId":"KFUL","receiptTime":"2026-04-14T16:56:22.171Z","obsTime":1776185580,"reportTime":"2026-04-14T17:00:00.000Z","temp":17.2,"dewp":10.6,"wdir":180,"wspd":3,"visib":"10+","altim":1019.7,"slp":1019.5,"qcField":4,"metarType":"METAR","rawOb":"METAR KFUL 141653Z 18003KT 10SM BKN027 17/11 A3011 RMK AO2 SLP195 T01720106","lat":33.8715,"lon":-117.9856,"elev":23,"name":"Fullerton Muni, CA, US","cover":"BKN","clouds":[{"cover":"BKN","base":2700}],"fltCat":"MVFR"},{"icaoId":"KHOU","receiptTime":"2026-04-14T16:56:22.425Z","obsTime":1776185580,"reportTime":"2026-04-14T17:00:00.000Z","temp":26.7,"dewp":20,"wdir":140,"wspd":15,"wgst":20,"visib":"10+","altim":1018.4,"slp":1018.8,"qcField":12,"metarType":"METAR","rawOb":"METAR KHOU 141653Z 14015G20KT 10SM BKN030 BKN050 27/20 A3007 RMK AO2 SLP188 T02670200 $","lat":29.6458,"lon":-95.2821,"elev":13,"name":"Houston/Hobby Arpt, TX, US","cover":"BKN","clouds":[{"cover":"BKN","base":3000},{"cover":"BKN","base":5000}],"fltCat":"MVFR"},{"icaoId":"KRIW","receiptTime":"2026-04-14T16:56:24.383Z","obsTime":1776185580,"reportTime":"2026-04-14T17:00:00.000Z","temp":9.4,"dewp":-7.2,"visib":"10+","altim":1011.3,"slp":1009.8,"qcField":6,"metarType":"METAR","rawOb":"METAR KRIW 141653Z AUTO 10SM CLR 09/M07 A2986 RMK AO2 SLP098 T00941072","lat":43.0622,"lon":-108.4471,"elev":1662,"name":"Riverton Rgnl, WY, US","cover":"CLR","clouds":[],"fltCat":"VFR"},{"icaoId":"KVEL","receiptTime":"2026-04-14T16:56:24.564Z","obsTime":1776185580,"reportTime":"2026-04-14T17:00:00.000Z","temp":7.8,"dewp":0,"wdir":220,"wspd":4,"visib":"10+","altim":1013.3,"slp":1011.4,"qcField":6,"metarType":"METAR","rawOb":"METAR KVEL 141653Z AUTO 22004KT 10SM BKN080 08/00 A2992 RMK AO2 SLP114 T00780000","lat":40.4429,"lon":-109.5128,"elev":1604,"name":"Vernal Rgnl, UT, US","cover":"BKN","clouds":[{"cover":"BKN","base":8000}],"fltCat":"VFR"},{"icaoId":"KCLL","receiptTime":"2026-04-14T16:56:35.391Z","obsTime":1776185580,"reportTime":"2026-04-14T17:00:00.000Z","temp":25.6,"dewp":18.9,"wdir":180,"wspd":11,"visib":"10+","altim":1018,"slp":1017.6,"qcField":4,"metarType":"METAR","rawOb":"METAR KCLL 141653Z 18011KT 10SM FEW030 OVC041 26/19 A3006 RMK AO2 SLP176 T02560189","lat":30.5912,"lon":-96.3631,"elev":96,"name":"College Station/Easterwood Arpt, TX, US","cover":"OVC","clouds":[{"cover":"FEW","base":3000},{"cover":"OVC","base":4100}],"fltCat":"VFR"},{"icaoId":"KCNM","receiptTime":"2026-04-14T16:56:24.700Z","obsTime":1776185580,"reportTime":"2026-04-14T17:00:00.000Z","temp":28.9,"dewp":0,"wdir":240,"wspd":23,"wgst":29,"visib":"10+","altim":1014.3,"slp":1008.8,"qcField":6,"metarType":"METAR","rawOb":"METAR KCNM 141653Z AUTO 24023G29KT 10SM CLR 29/00 A2995 RMK AO2 PK WND 24029/1650 SLP088 T02890000","lat":32.3336,"lon":-104.2584,"elev":993,"name":"Carlsbad/Cavern City Air Term, NM, US","cover":"CLR","clouds":[],"fltCat":"VFR"},{"icaoId":"KDMN","receiptTime":"2026-04-14T16:56:24.875Z","obsTime":1776185580,"reportTime":"2026-04-14T17:00:00.000Z","temp":21.1,"dewp":3.3,"wdir":240,"wspd":10,"wgst":18,"visib":"10+","altim":1017.4,"slp":1011.2,"qcField":6,"metarType":"METAR","rawOb":"METAR KDMN 141653Z AUTO 24010G18KT 10SM CLR 21/03 A3004 RMK AO2 SLP112 T02110033","lat":32.2592,"lon":-107.7206,"elev":1310,"name":"Deming Muni, NM, US","cover":"CLR","clouds":[],"fltCat":"VFR"},{"icaoId":"KAPA","receiptTime":"2026-04-14T16:56:35.803Z","obsTime":1776185580,"reportTime":"2026-04-14T17:00:00.000Z","temp":11.7,"dewp":-8.3,"wdir":320,"wspd":6,"visib":"10+","altim":1011.9,"slp":1008.2,"qcField":4,"metarType":"METAR","rawOb":"METAR KAPA 141653Z 32006KT 10SM FEW050 BKN075 BKN100 BKN220 12/M08 A2988 RMK AO2 SLP082 T01171083","lat":39.5599,"lon":-104.8484,"elev":1791,"name":"Denver/Centennial Arpt, CO, US","cover":"BKN","clouds":[{"cover":"FEW","base":5000},{"cover":"BKN","base":7500},{"cover":"BKN","base":10000},{"cover":"BKN","base":22000}],"fltCat":"VFR"},{"icaoId":"KACV","receiptTime":"2026-04-14T16:56:35.524Z","obsTime":1776185580,"reportTime":"2026-04-14T17:00:00.000Z","temp":11.1,"dewp":5,"wdir":"VRB","wspd":3,"visib":"10+","altim":1023.5,"slp":1024,"qcField":6,"metarType":"METAR","rawOb":"METAR KACV 141653Z AUTO VRB03KT 10SM OVC042 11/05 A3022 RMK AO2 SLP240 T01110050","lat":40.9784,"lon":-124.1048,"elev":63,"name":"Arcata Arpt, CA, US","cover":"OVC","clouds":[{"cover":"OVC","base":4200}],"fltCat":"VFR"},{"icaoId":"KBCE","receiptTime":"2026-04-14T16:56:36.046Z","obsTime":1776185580,"reportTime":"2026-04-14T17:00:00.000Z","temp":1.1,"dewp":-1.1,"wdir":300,"wspd":12,"wgst":22,"visib":"10+","altim":1016.7,"slp":1012.2,"qcField":6,"wxString":"UP","precip":0.01,"metarType":"METAR","rawOb":"METAR KBCE 141653Z AUTO 30012G22KT 10SM UP FEW015 SCT025 OVC033 01/M01 A3002 RMK AO2 UPB36SNB05E36 SLP122 P0001 T00111011","lat":37.7013,"lon":-112.149,"elev":2311,"name":"Bryce Canyon Arpt, UT, US","cover":"OVC","clouds":[{"cover":"FEW","base":1500},{"cover":"SCT","base":2500},{"cover":"OVC","base":3300}],"fltCat":"VFR"},{"icaoId":"KMAF","receiptTime":"2026-04-14T16:56:27.150Z","obsTime":1776185580,"reportTime":"2026-04-14T17:00:00.000Z","temp":26.1,"dewp":14.4,"wdir":180,"wspd":12,"wgst":19,"visib":"10+","altim":1015.3,"slp":1010.7,"qcField":4,"metarType":"METAR","rawOb":"METAR KMAF 141653Z 18012G19KT 10SM CLR 26/14 A2998 RMK AO2 SLP107 T02610144","lat":31.9475,"lon":-102.2086,"elev":874,"name":"Midland Intl, TX, US","cover":"CLR","clouds":[],"fltCat":"VFR"},{"icaoId":"KMCO","receiptTime":"2026-04-14T16:56:27.199Z","obsTime":1776185580,"reportTime":"2026-04-14T17:00:00.000Z","temp":27.2,"dewp":16.7,"wdir":100,"wspd":7,"visib":"10+","altim":1024.1,"slp":1023.8,"qcField":4,"metarType":"METAR","rawOb":"METAR KMCO 141653Z 10007KT 10SM BKN036 BKN060 BKN250 27/17 A3024 RMK AO2 SLP238 T02720167","lat":28.4182,"lon":-81.3241,"elev":27,"name":"Orlando Intl, FL, US","cover":"BKN","clouds":[{"cover":"BKN","base":3600},{"cover":"BKN","base":6000},{"cover":"BKN","base":25000}],"fltCat":"VFR"},{"icaoId":"KMFE","receiptTime":"2026-04-14T16:56:27.216Z","obsTime":1776185580,"reportTime":"2026-04-14T17:00:00.000Z","temp":29.4,"dewp":21.1,"wdir":150,"wspd":15,"wgst":26,"visib":"10+","altim":1015.3,"slp":1015,"qcField":4,"metarType":"METAR","rawOb":"METAR KMFE 141653Z 15015G26KT 10SM BKN035 29/21 A2998 RMK AO2 PK WND 14029/1616 SLP150 T02940211","lat":26.1791,"lon":-98.2445,"elev":29,"name":"McAllen/Miller Intl, TX, US","cover":"BKN","clouds":[{"cover":"BKN","base":3500}],"fltCat":"VFR"},{"icaoId":"KMLC","receiptTime":"2026-04-14T16:56:27.278Z","obsTime":1776185580,"reportTime":"2026-04-14T17:00:00.000Z","temp":25.6,"dewp":19.4,"wdir":190,"wspd":11,"wgst":20,"visib":"10+","altim":1015.3,"slp":1014.2,"qcField":6,"metarType":"METAR","rawOb":"METAR KMLC 141653Z AUTO 19011G20KT 10SM BKN025 OVC030 26/19 A2998 RMK AO2 SLP142 T02560194","lat":34.8824,"lon":-95.7815,"elev":231,"name":"McAlester Rgnl, OK, US","cover":"OVC","clouds":[{"cover":"BKN","base":2500},{"cover":"OVC","base":3000}],"fltCat":"MVFR"},{"icaoId":"KGTF","receiptTime":"2026-04-14T16:56:27.803Z","obsTime":1776185580,"reportTime":"2026-04-14T17:00:00.000Z","temp":11.7,"dewp":-2.2,"wdir":230,"wspd":25,"wgst":34,"visib":"10+","altim":1007.9,"slp":1008.4,"qcField":4,"metarType":"METAR","rawOb":"METAR KGTF 141653Z 23025G34KT 10SM CLR 12/M02 A2976 RMK AO2 PK WND 23034/1652 SLP084 T01171022","lat":47.4733,"lon":-111.3828,"elev":1117,"name":"Great Falls Intl, MT, US","cover":"CLR","clouds":[],"fltCat":"VFR"},{"icaoId":"KHIO","receiptTime":"2026-04-14T16:56:27.835Z","obsTime":1776185580,"reportTime":"2026-04-14T17:00:00.000Z","temp":8.9,"dewp":3.9,"wdir":190,"wspd":12,"wgst":18,"visib":"10+","altim":1018.7,"slp":1018.6,"qcField":4,"metarType":"METAR","rawOb":"METAR KHIO 141653Z 19012G18KT 10SM BKN033 OVC060 09/04 A3008 RMK AO2 SLP186 T00890039","lat":45.5476,"lon":-122.9557,"elev":62,"name":"Portland/Hillsboro Arpt, OR, US","cover":"OVC","clouds":[{"cover":"BKN","base":3300},{"cover":"OVC","base":6000}],"fltCat":"VFR"},{"icaoId":"KCPR","receiptTime":"2026-04-14T16:56:27.996Z","obsTime":1776185580,"reportTime":"2026-04-14T17:00:00.000Z","temp":12.2,"dewp":-7.2,"wdir":210,"wspd":12,"wgst":17,"visib":"10+","altim":1010.9,"slp":1008.5,"qcField":4,"metarType":"METAR","rawOb":"METAR KCPR 141653Z 21012G17KT 10SM CLR 12/M07 A2985 RMK AO2 SLP085 T01221072","lat":42.8978,"lon":-106.4736,"elev":1623,"name":"Casper/Natrona Cnty, WY, US","cover":"CLR","clouds":[],"fltCat":"VFR"},{"icaoId":"KCYS","receiptTime":"2026-04-14T16:56:28.021Z","obsTime":1776185580,"reportTime":"2026-04-14T17:00:00.000Z","temp":11.7,"dewp":-6.7,"wdir":170,"wspd":12,"wgst":22,"visib":"10+","altim":1011.3,"slp":1006.3,"qcField":4,"metarType":"METAR","rawOb":"METAR KCYS 141653Z 17012G22KT 10SM BKN095 12/M07 A2986 RMK AO2 SLP063 T01171067","lat":41.1579,"lon":-104.8081,"elev":1868,"name":"Cheyenne Rgnl, WY, US","cover":"BKN","clouds":[{"cover":"BKN","base":9500}],"fltCat":"VFR"},{"icaoId":"KSWO","receiptTime":"2026-04-14T16:56:29.329Z","obsTime":1776185580,"reportTime":"2026-04-14T17:00:00.000Z","temp":26.7,"dewp":19.4,"wdir":230,"wspd":20,"wgst":27,"visib":"10+","altim":1011.9,"slp":1010.4,"qcField":4,"metarType":"METAR","rawOb":"METAR KSWO 141653Z 23020G27KT 10SM BKN032 27/19 A2988 RMK AO2 PK WND 20029/1559 SLP104 T02670194","lat":36.1624,"lon":-97.0832,"elev":293,"name":"Stillwater Muni, OK, US","cover":"BKN","clouds":[{"cover":"BKN","base":3200}],"fltCat":"VFR"},{"icaoId":"KPGA","receiptTime":"2026-04-14T16:56:29.515Z","obsTime":1776185580,"reportTime":"2026-04-14T17:00:00.000Z","temp":9.4,"dewp":2.2,"wdir":"VRB","wspd":3,"visib":"10+","altim":1015.3,"slp":1013.1,"qcField":6,"metarType":"METAR","rawOb":"METAR KPGA 141653Z AUTO VRB03KT 10SM BKN040 OVC049 09/02 A2998 RMK AO2 SLP131 T00940022","lat":36.9211,"lon":-111.4487,"elev":1310,"name":"Page Muni, AZ, US","cover":"OVC","clouds":[{"cover":"BKN","base":4000},{"cover":"OVC","base":4900}],"fltCat":"VFR"},{"icaoId":"KPUW","receiptTime":"2026-04-14T16:56:29.609Z","obsTime":1776185580,"reportTime":"2026-04-14T17:00:00.000Z","temp":7.8,"dewp":0.6,"wdir":240,"wspd":15,"wgst":24,"visib":"10+","altim":1015.3,"slp":1016,"qcField":6,"metarType":"METAR","rawOb":"METAR KPUW 141653Z AUTO 24015G24KT 10SM CLR 08/01 A2998 RMK AO2 SLP160 T00780006","lat":46.7438,"lon":-117.1158,"elev":774,"name":"Pullman/Moscow Rgnl, WA, US","cover":"CLR","clouds":[],"fltCat":"VFR"},{"icaoId":"KRDD","receiptTime":"2026-04-14T16:56:29.640Z","obsTime":1776185580,"reportTime":"2026-04-14T17:00:00.000Z","temp":12.8,"dewp":7.2,"wdir":0,"wspd":0,"visib":"10+","altim":1021.1,"slp":1020.9,"qcField":4,"metarType":"METAR","rawOb":"METAR KRDD 141653Z 00000KT 10SM OVC055 13/07 A3015 RMK AO2 SLP209 T01280072","lat":40.5146,"lon":-122.2977,"elev":152,"name":"Redding Muni, CA, US","cover":"OVC","clouds":[{"cover":"OVC","base":5500}],"fltCat":"VFR"},{"icaoId":"KOAK","receiptTime":"2026-04-14T16:56:31.179Z","obsTime":1776185580,"reportTime":"2026-04-14T17:00:00.000Z","temp":13.9,"dewp":8.3,"wdir":230,"wspd":8,"visib":"10+","altim":1023.5,"slp":1023.2,"qcField":12,"metarType":"METAR","rawOb":"METAR KOAK 141653Z 23008KT 10SM SCT022 OVC028 14/08 A3022 RMK AO2 SLP232 T01390083 $","lat":37.7178,"lon":-122.233,"elev":3,"name":"Oakland Intl, CA, US","cover":"OVC","clouds":[{"cover":"SCT","base":2200},{"cover":"OVC","base":2800}],"fltCat":"MVFR"},{"icaoId":"KOGD","receiptTime":"2026-04-14T16:56:31.228Z","obsTime":1776185580,"reportTime":"2026-04-14T17:00:00.000Z","temp":8.9,"dewp":0,"wdir":"VRB","wspd":4,"visib":"10+","altim":1015.7,"slp":1013.8,"qcField":4,"metarType":"METAR","rawOb":"METAR KOGD 141653Z VRB04KT 10SM SCT033 09/00 A2999 RMK AO2 SLP138 T00890000","lat":41.1941,"lon":-112.0168,"elev":1356,"name":"Ogden/Hinckley Arpt, UT, US","cover":"SCT","clouds":[{"cover":"SCT","base":3300}],"fltCat":"VFR"},{"icaoId":"KONT","receiptTime":"2026-04-14T16:56:31.302Z","obsTime":1776185580,"reportTime":"2026-04-14T17:00:00.000Z","temp":15,"dewp":7.2,"wdir":210,"wspd":5,"visib":"10+","altim":1020.1,"slp":1019.5,"qcField":12,"metarType":"METAR","rawOb":"METAR KONT 141653Z 21005KT 10SM FEW033 15/07 A3012 RMK AO2 SLP195 T01500072 $","lat":34.0531,"lon":-117.5769,"elev":279,"name":"Ontario Intl, CA, US","cover":"FEW","clouds":[{"cover":"FEW","base":3300}],"fltCat":"VFR"},{"icaoId":"KIAH","receiptTime":"2026-04-14T16:56:31.780Z","obsTime":1776185580,"reportTime":"2026-04-14T17:00:00.000Z","temp":26.7,"dewp":20,"wdir":160,"wspd":11,"wgst":15,"visib":"10+","altim":1018.7,"slp":1018.5,"qcField":4,"metarType":"METAR","rawOb":"METAR KIAH 141653Z 16011G15KT 10SM SCT029 BKN049 27/20 A3008 RMK AO2 SLP185 T02670200","lat":29.9844,"lon":-95.3607,"elev":27,"name":"Houston/Bush Intl, TX, US","cover":"BKN","clouds":[{"cover":"SCT","base":2900},{"cover":"BKN","base":4900}],"fltCat":"VFR"},{"icaoId":"KLGB","receiptTime":"2026-04-14T16:56:32.131Z","obsTime":1776185580,"reportTime":"2026-04-14T17:00:00.000Z","temp":18.3,"dewp":10.6,"wdir":"VRB","wspd":4,"visib":"10+","altim":1019.7,"slp":1019.5,"qcField":12,"metarType":"METAR","rawOb":"METAR KLGB 141653Z VRB04KT 10SM BKN027 18/11 A3011 RMK AO2 SLP195 T01830106 $","lat":33.8118,"lon":-118.1472,"elev":10,"name":"Long Beach Arpt, CA, US","cover":"BKN","clouds":[{"cover":"BKN","base":2700}],"fltCat":"MVFR"},{"icaoId":"KLVS","receiptTime":"2026-04-14T16:56:32.377Z","obsTime":1776185580,"reportTime":"2026-04-14T17:00:00.000Z","temp":13.3,"dewp":-3.9,"wdir":190,"wspd":22,"wgst":38,"visib":"10+","altim":1015.7,"slp":1008.2,"qcField":14,"metarType":"METAR","rawOb":"METAR KLVS 141653Z AUTO 19022G38KT 10SM CLR 13/M04 A2999 RMK AO2 PK WND 20038/1648 SLP082 T01331039 PNO $","lat":35.6558,"lon":-105.1385,"elev":2095,"name":"Las Vegas Muni, NM, US","cover":"CLR","clouds":[],"fltCat":"VFR"},{"icaoId":"KTPA","receiptTime":"2026-04-14T16:56:32.413Z","obsTime":1776185580,"reportTime":"2026-04-14T17:00:00.000Z","temp":27.8,"dewp":15.6,"wdir":"VRB","wspd":6,"visib":"10+","altim":1023.5,"slp":1023.1,"qcField":4,"metarType":"METAR","rawOb":"METAR KTPA 141653Z VRB06KT 10SM BKN049 BKN250 28/16 A3022 RMK AO2 SLP231 T02780156","lat":27.9633,"lon":-82.54,"elev":2,"name":"Tampa Intl Arpt, FL, US","cover":"BKN","clouds":[{"cover":"BKN","base":4900},{"cover":"BKN","base":25000}],"fltCat":"VFR"},{"icaoId":"KRTN","receiptTime":"2026-04-14T16:56:32.531Z","obsTime":1776185580,"reportTime":"2026-04-14T17:00:00.000Z","temp":16.7,"dewp":-6.1,"wdir":250,"wspd":20,"wgst":34,"visib":"10+","altim":1012.6,"slp":1006.7,"qcField":6,"metarType":"METAR","rawOb":"METAR KRTN 141653Z AUTO 25020G34KT 10SM 17/M06 A2990 RMK AO2 PK WND 24041/1633 SLP067 T01671061","lat":36.7418,"lon":-104.5076,"elev":1939,"name":"Raton/Crews Fld, NM, US"},{"icaoId":"KSHR","receiptTime":"2026-04-14T16:56:32.796Z","obsTime":1776185580,"reportTime":"2026-04-14T17:00:00.000Z","temp":12.8,"dewp":-2.2,"wdir":"VRB","wspd":3,"visib":"10+","altim":1010.2,"slp":1010.2,"qcField":6,"metarType":"METAR","rawOb":"METAR KSHR 141653Z AUTO VRB03KT 10SM CLR 13/M02 A2983 RMK AO2 SLP102 T01281022","lat":44.7603,"lon":-106.9741,"elev":1212,"name":"Sheridan Cnty Arpt, WY, US","cover":"CLR","clouds":[],"fltCat":"VFR"},{"icaoId":"KTWF","receiptTime":"2026-04-14T16:56:32.961Z","obsTime":1776185580,"reportTime":"2026-04-14T17:00:00.000Z","temp":10,"dewp":2.2,"wdir":270,"wspd":10,"visib":"10+","altim":1016.7,"slp":1015,"qcField":4,"metarType":"METAR","rawOb":"METAR KTWF 141653Z 27010KT 10SM FEW024 10/02 A3002 RMK AO2 SLP150 T01000022","lat":42.4785,"lon":-114.4775,"elev":1269,"name":"Twin Falls/Joslin Fld, ID, US","cover":"FEW","clouds":[{"cover":"FEW","base":2400}],"fltCat":"VFR"},{"icaoId":"KBFI","receiptTime":"2026-04-14T16:56:33.073Z","obsTime":1776185580,"reportTime":"2026-04-14T17:00:00.000Z","temp":8.3,"dewp":5.6,"wdir":170,"wspd":14,"wgst":23,"visib":8,"altim":1015,"slp":1014.8,"qcField":4,"wxString":"-RA","precip":0.01,"metarType":"METAR","rawOb":"METAR KBFI 141653Z 17014G23KT 8SM -RA BKN020 OVC026 08/06 A2997 RMK AO2 SLP148 P0001 T00830056","lat":47.5455,"lon":-122.3148,"elev":7,"name":"Seattle/Boeing Fld, WA, US","cover":"OVC","clouds":[{"cover":"BKN","base":2000},{"cover":"OVC","base":2600}],"fltCat":"MVFR"},{"icaoId":"KBHM","receiptTime":"2026-04-14T16:56:33.157Z","obsTime":1776185580,"reportTime":"2026-04-14T17:00:00.000Z","temp":26.1,"dewp":6.7,"wdir":190,"wspd":7,"visib":"10+","altim":1024.1,"slp":1023.1,"qcField":4,"metarType":"METAR","rawOb":"METAR KBHM 141653Z 19007KT 10SM FEW250 26/07 A3024 RMK AO2 SLP231 T02610067","lat":33.5655,"lon":-86.7449,"elev":191,"name":"Birmingham Intl, AL, US","cover":"FEW","clouds":[{"cover":"FEW","base":25000}],"fltCat":"VFR"},{"icaoId":"KBLI","receiptTime":"2026-04-14T16:56:33.254Z","obsTime":1776185580,"reportTime":"2026-04-14T17:00:00.000Z","temp":7.8,"dewp":5.6,"wdir":170,"wspd":13,"wgst":24,"visib":"10+","altim":1012.3,"slp":1012.9,"qcField":4,"wxString":"-RA","precip":0.03,"metarType":"METAR","rawOb":"METAR KBLI 141653Z 17013G24KT 10SM -RA OVC017 08/06 A2989 RMK AO2 PK WND 17026/1629 RAB11 SLP129 P0003 T00780056","lat":48.7991,"lon":-122.5407,"elev":46,"name":"Bellingham Intl, WA, US","cover":"OVC","clouds":[{"cover":"OVC","base":1700}],"fltCat":"MVFR"},{"icaoId":"KBUR","receiptTime":"2026-04-14T16:56:33.472Z","obsTime":1776185580,"reportTime":"2026-04-14T17:00:00.000Z","temp":15.6,"dewp":7.2,"wdir":180,"wspd":5,"visib":"10+","altim":1020.1,"slp":1019,"qcField":4,"metarType":"METAR","rawOb":"METAR KBUR 141653Z 18005KT 10SM CLR 16/07 A3012 RMK AO2 SLP190 T01560072","lat":34.1996,"lon":-118.3654,"elev":221,"name":"Burbank/Bob Hope Arpt, CA, US","cover":"CLR","clouds":[],"fltCat":"VFR"},{"icaoId":"KBRO","receiptTime":"2026-04-14T16:56:34.677Z","obsTime":1776185580,"reportTime":"2026-04-14T17:00:00.000Z","temp":29.4,"dewp":21.1,"wdir":160,"wspd":21,"wgst":30,"visib":"10+","altim":1016.3,"slp":1016,"qcField":4,"metarType":"METAR","rawOb":"METAR KBRO 141653Z 16021G30KT 10SM SCT028 BKN037 BKN045 29/21 A3001 RMK AO2 PK WND 15030/1647 SLP160 T02940211","lat":25.9146,"lon":-97.4231,"elev":6,"name":"Brownsville Intl, TX, US","cover":"BKN","clouds":[{"cover":"SCT","base":2800},{"cover":"BKN","base":3700},{"cover":"BKN","base":4500}],"fltCat":"VFR"},{"icaoId":"KELY","receiptTime":"2026-04-14T16:56:35.253Z","obsTime":1776185580,"reportTime":"2026-04-14T17:00:00.000Z","temp":6.1,"dewp":-4.4,"wdir":"VRB","wspd":3,"visib":"10+","altim":1018.4,"slp":1015.7,"qcField":6,"metarType":"METAR","rawOb":"METAR KELY 141653Z AUTO VRB03KT 10SM CLR 06/M04 A3007 RMK AO2 SLP157 T00611044","lat":39.2954,"lon":-114.8466,"elev":1906,"name":"Ely/Yelland Fld, NV, US","cover":"CLR","clouds":[],"fltCat":"VFR"},{"icaoId":"KCRQ","receiptTime":"2026-04-14T16:56:35.422Z","obsTime":1776185580,"reportTime":"2026-04-14T17:00:00.000Z","temp":16.7,"dewp":9.4,"wdir":0,"wspd":0,"visib":"10+","altim":1019.7,"slp":1019.5,"qcField":4,"metarType":"METAR","rawOb":"METAR KCRQ 141653Z 00000KT 10SM SCT032 17/09 A3011 RMK AO2 SLP195 T01670094","lat":33.1299,"lon":-117.2765,"elev":96,"name":"Carlsbad/Palomar Arpt, CA, US","cover":"SCT","clouds":[{"cover":"SCT","base":3200}],"fltCat":"VFR"},{"icaoId":"KASE","receiptTime":"2026-04-14T16:56:35.889Z","obsTime":1776185580,"reportTime":"2026-04-14T17:00:00.000Z","temp":2.2,"dewp":0.6,"wdir":10,"wspd":5,"visib":"10+","altim":1014,"slp":1008.6,"qcField":4,"precip":0.01,"metarType":"METAR","rawOb":"METAR KASE 141653Z 01005KT 10SM SCT014 BKN050 OVC070 02/01 A2994 RMK AO2 RAB1559E10B26E27UPB24E26SNB10E24 SLP086 P0001 T00220006","lat":39.2299,"lon":-106.8705,"elev":2384,"name":"Aspen/Pitkin Cnty, CO, US","cover":"OVC","clouds":[{"cover":"SCT","base":1400},{"cover":"BKN","base":5000},{"cover":"OVC","base":7000}],"fltCat":"VFR"},{"icaoId":"PANC","receiptTime":"2026-04-14T16:56:36.515Z","obsTime":1776185580,"reportTime":"2026-04-14T17:00:00.000Z","temp":0.6,"dewp":-7.8,"wdir":350,"wspd":4,"visib":"10+","altim":1011.3,"slp":1011.2,"qcField":4,"metarType":"METAR","rawOb":"METAR PANC 141653Z 35004KT 10SM FEW100 01/M08 A2986 RMK AO2 SLP112 T00061078","lat":61.1691,"lon":-150.0277,"elev":39,"name":"Anchorage Intl, AK, US","cover":"FEW","clouds":[{"cover":"FEW","base":10000}],"fltCat":"VFR"},{"icaoId":"KPIH","receiptTime":"2026-04-14T16:56:35.437Z","obsTime":1776185580,"reportTime":"2026-04-14T17:00:00.000Z","temp":7.8,"dewp":1.1,"wdir":250,"wspd":15,"visib":"10+","altim":1016,"slp":1015.7,"qcField":4,"metarType":"METAR","rawOb":"METAR KPIH 141653Z 25015KT 10SM BKN023 08/01 A3000 RMK AO2 SLP157 T00780011","lat":42.9197,"lon":-112.5723,"elev":1357,"name":"Pocatello Rgnl, ID, US","cover":"BKN","clouds":[{"cover":"BKN","base":2300}],"fltCat":"MVFR"},{"icaoId":"KMYR","receiptTime":"2026-04-14T16:56:33.803Z","obsTime":1776185580,"reportTime":"2026-04-14T17:00:00.000Z","temp":25,"dewp":16.7,"wdir":170,"wspd":13,"visib":"10+","altim":1023.5,"slp":1023.4,"qcField":12,"metarType":"METAR","rawOb":"METAR KMYR 141653Z 17013KT 10SM FEW055 25/17 A3022 RMK AO2 SLP234 T02500167 $","lat":33.6769,"lon":-78.9325,"elev":7,"name":"Myrtle Beach Intl, SC, US","cover":"FEW","clouds":[{"cover":"FEW","base":5500}],"fltCat":"VFR"},{"icaoId":"KPNC","receiptTime":"2026-04-14T16:56:33.890Z","obsTime":1776185580,"reportTime":"2026-04-14T17:00:00.000Z","temp":27.2,"dewp":18.9,"wdir":220,"wspd":16,"wgst":31,"visib":"10+","altim":1010.2,"slp":1009,"qcField":6,"metarType":"METAR","rawOb":"METAR KPNC 141653Z AUTO 22016G31KT 10SM CLR 27/19 A2983 RMK AO2 PK WND 21032/1558 SLP090 T02720189","lat":36.7369,"lon":-97.1024,"elev":304,"name":"Ponca City Rgnl, OK, US","cover":"CLR","clouds":[],"fltCat":"VFR"},{"icaoId":"KAUS","receiptTime":"2026-04-14T16:56:35.966Z","obsTime":1776185580,"reportTime":"2026-04-14T17:00:00.000Z","temp":26.1,"dewp":20,"wdir":170,"wspd":14,"visib":"10+","altim":1017,"slp":1016,"qcField":4,"precip":0.005,"metarType":"METAR","rawOb":"METAR KAUS 141653Z 17014KT 10SM SCT015 BKN035 OVC042 26/20 A3003 RMK AO2 RAB08E21 SLP160 P0000 T02610200","lat":30.1831,"lon":-97.6806,"elev":148,"name":"Austin/Bergstrom Intl, TX, US","cover":"OVC","clouds":[{"cover":"SCT","base":1500},{"cover":"BKN","base":3500},{"cover":"OVC","base":4200}],"fltCat":"VFR"},{"icaoId":"KBIL","receiptTime":"2026-04-14T16:56:35.318Z","obsTime":1776185580,"reportTime":"2026-04-14T17:00:00.000Z","temp":12.8,"dewp":-0.6,"wdir":190,"wspd":4,"visib":"10+","altim":1009.6,"slp":1008.8,"qcField":12,"metarType":"METAR","rawOb":"METAR KBIL 141653Z 19004KT 10SM FEW060 FEW100 13/M01 A2981 RMK AO2 SLP088 T01281006 $","lat":45.8072,"lon":-108.5462,"elev":1089,"name":"Billings/Logan Intl, MT, US","cover":"FEW","clouds":[{"cover":"FEW","base":6000},{"cover":"FEW","base":10000}],"fltCat":"VFR"},{"icaoId":"KBNA","receiptTime":"2026-04-14T16:56:33.308Z","obsTime":1776185580,"reportTime":"2026-04-14T17:00:00.000Z","temp":27.2,"dewp":14.4,"wdir":200,"wspd":13,"wgst":22,"visib":"10+","altim":1020.7,"slp":1019.9,"qcField":12,"metarType":"METAR","rawOb":"METAR KBNA 141653Z 20013G22KT 10SM BKN042 BKN250 27/14 A3014 RMK AO2 PK WND 20026/1556 SLP199 T02720144 $","lat":36.1105,"lon":-86.6881,"elev":168,"name":"Nashville Intl, TN, US","cover":"BKN","clouds":[{"cover":"BKN","base":4200},{"cover":"BKN","base":25000}],"fltCat":"VFR"},{"icaoId":"KAMA","receiptTime":"2026-04-14T16:56:35.692Z","obsTime":1776185580,"reportTime":"2026-04-14T17:00:00.000Z","temp":24.4,"dewp":2.2,"wdir":230,"wspd":20,"wgst":32,"visib":"10+","altim":1013.6,"slp":1008.8,"qcField":4,"metarType":"METAR","rawOb":"METAR KAMA 141653Z 23020G32KT 10SM CLR 24/02 A2993 RMK AO2 PK WND 23032/1646 SLP088 T02440022","lat":35.2203,"lon":-101.7173,"elev":1102,"name":"Amarillo Intl Arpt, TX, US","cover":"CLR","clouds":[],"fltCat":"VFR"},{"icaoId":"KSBA","receiptTime":"2026-04-14T16:56:32.676Z","obsTime":1776185580,"reportTime":"2026-04-14T17:00:00.000Z","temp":16.7,"dewp":10.6,"wdir":130,"wspd":8,"visib":"10+","altim":1019.7,"slp":1019.5,"qcField":12,"metarType":"METAR","rawOb":"METAR KSBA 141653Z 13008KT 10SM CLR 17/11 A3011 RMK AO2 SLP195 T01670106 $","lat":34.4241,"lon":-119.8425,"elev":2,"name":"Santa Barbara Muni, CA, US","cover":"CLR","clouds":[],"fltCat":"VFR"},{"icaoId":"KSDL","receiptTime":"2026-04-14T16:56:32.703Z","obsTime":1776185580,"reportTime":"2026-04-14T17:00:00.000Z","temp":18.3,"dewp":1.1,"wdir":0,"wspd":0,"visib":"10+","altim":1017.4,"slp":1015.5,"qcField":4,"metarType":"METAR","rawOb":"METAR KSDL 141653Z 00000KT 10SM CLR 18/01 A3004 RMK AO2 SLP155 T01830011","lat":33.6123,"lon":-111.9232,"elev":438,"name":"Scottsdale Muni, AZ, US","cover":"CLR","clouds":[],"fltCat":"VFR"},{"icaoId":"KSJC","receiptTime":"2026-04-14T16:56:32.824Z","obsTime":1776185580,"reportTime":"2026-04-14T17:00:00.000Z","temp":13.3,"dewp":7.8,"wdir":0,"wspd":0,"visib":"10+","altim":1023.1,"slp":1022.9,"qcField":12,"metarType":"METAR","rawOb":"METAR KSJC 141653Z 00000KT 10SM FEW014 BKN026 OVC030 13/08 A3021 RMK AO2 SLP229 T01330078 $","lat":37.3594,"lon":-121.9244,"elev":13,"name":"San Jose Intl Arpt, CA, US","cover":"OVC","clouds":[{"cover":"FEW","base":1400},{"cover":"BKN","base":2600},{"cover":"OVC","base":3000}],"fltCat":"MVFR"},{"icaoId":"KYKM","receiptTime":"2026-04-14T16:56:36.303Z","obsTime":1776185580,"reportTime":"2026-04-14T17:00:00.000Z","temp":8.3,"dewp":-0.6,"wdir":0,"wspd":0,"visib":"10+","altim":1014.6,"slp":1015,"qcField":4,"metarType":"METAR","rawOb":"METAR KYKM 141653Z 00000KT 10SM SCT110 08/M01 A2996 RMK AO2 SLP150 T00831006","lat":46.564,"lon":-120.5349,"elev":319,"name":"Yakima/McAllister Fld, WA, US","cover":"SCT","clouds":[{"cover":"SCT","base":11000}],"fltCat":"VFR"},{"icaoId":"KTUL","receiptTime":"2026-04-14T16:56:32.472Z","obsTime":1776185580,"reportTime":"2026-04-14T17:00:00.000Z","temp":26.7,"dewp":20,"wdir":200,"wspd":13,"wgst":27,"visib":"10+","altim":1012.6,"slp":1011.8,"qcField":4,"metarType":"METAR","rawOb":"METAR KTUL 141653Z 20013G27KT 10SM BKN030 BKN035 BKN250 27/20 A2990 RMK AO2 PK WND 19033/1630 SLP118 T02670200","lat":36.1985,"lon":-95.8782,"elev":196,"name":"Tulsa Intl Arpt, OK, US","cover":"BKN","clouds":[{"cover":"BKN","base":3000},{"cover":"BKN","base":3500},{"cover":"BKN","base":25000}],"fltCat":"MVFR"},{"icaoId":"KMSY","receiptTime":"2026-04-14T16:56:27.308Z","obsTime":1776185580,"reportTime":"2026-04-14T17:00:00.000Z","temp":26.1,"dewp":17.2,"wdir":190,"wspd":10,"visib":"10+","altim":1021.8,"slp":1022.1,"qcField":4,"metarType":"METAR","rawOb":"METAR KMSY 141653Z 19010KT 10SM SCT038 26/17 A3017 RMK AO2 SLP221 T02610172","lat":29.9974,"lon":-90.2777,"elev":0,"name":"New Orleans/Armstrong Intl, LA, US","cover":"SCT","clouds":[{"cover":"SCT","base":3800}],"fltCat":"VFR"},{"icaoId":"KPRC","receiptTime":"2026-04-14T16:56:29.563Z","obsTime":1776185580,"reportTime":"2026-04-14T17:00:00.000Z","temp":10,"dewp":-2.8,"wdir":"VRB","wspd":5,"visib":"10+","altim":1018.7,"slp":1015,"qcField":4,"metarType":"METAR","rawOb":"METAR KPRC 141653Z VRB05KT 10SM CLR 10/M03 A3008 RMK AO2 SLP150 T01001028","lat":34.6491,"lon":-112.4223,"elev":1528,"name":"Prescott/Love Fld, AZ, US","cover":"CLR","clouds":[],"fltCat":"VFR"},{"icaoId":"KPSC","receiptTime":"2026-04-14T16:56:29.580Z","obsTime":1776185580,"reportTime":"2026-04-14T17:00:00.000Z","temp":10.6,"dewp":1.1,"wdir":230,"wspd":16,"wgst":24,"visib":"10+","altim":1016.3,"slp":1016.3,"qcField":4,"metarType":"METAR","rawOb":"METAR KPSC 141653Z 23016G24KT 10SM CLR 11/01 A3001 RMK AO2 SLP163 T01060011","lat":46.2695,"lon":-119.1182,"elev":121,"name":"Pasco/Tri Cities Arpt, WA, US","cover":"CLR","clouds":[],"fltCat":"VFR"},{"icaoId":"KPSP","receiptTime":"2026-04-14T16:56:29.595Z","obsTime":1776185580,"reportTime":"2026-04-14T17:00:00.000Z","temp":20,"dewp":2.8,"wdir":0,"wspd":0,"visib":"10+","altim":1018,"slp":1017.7,"qcField":4,"metarType":"METAR","rawOb":"METAR KPSP 141653Z 00000KT 10SM CLR 20/03 A3006 RMK AO2 SLP177 T02000028","lat":33.8222,"lon":-116.5043,"elev":123,"name":"Palm Springs Intl, CA, US","cover":"CLR","clouds":[],"fltCat":"VFR"},{"icaoId":"KPDX","receiptTime":"2026-04-14T16:56:29.502Z","obsTime":1776185580,"reportTime":"2026-04-14T17:00:00.000Z","temp":9.4,"dewp":3.9,"wdir":190,"wspd":9,"visib":"10+","altim":1019.4,"slp":1019.1,"qcField":12,"metarType":"METAR","rawOb":"METAR KPDX 141653Z 19009KT 10SM OVC042 09/04 A3010 RMK AO2 SLP191 T00940039 $","lat":45.5958,"lon":-122.6092,"elev":7,"name":"Portland Intl, OR, US","cover":"OVC","clouds":[{"cover":"OVC","base":4200}],"fltCat":"VFR"},{"icaoId":"KDAL","receiptTime":"2026-04-14T16:56:24.816Z","obsTime":1776185580,"reportTime":"2026-04-14T17:00:00.000Z","temp":23.9,"dewp":19.4,"wdir":180,"wspd":12,"wgst":18,"visib":"10+","altim":1016.3,"slp":1015.7,"qcField":4,"metarType":"METAR","rawOb":"METAR KDAL 141653Z 18012G18KT 10SM BKN026 OVC036 24/19 A3001 RMK AO2 SLP157 T02390194","lat":32.8384,"lon":-96.8358,"elev":148,"name":"Dallas/Love Fld, TX, US","cover":"OVC","clouds":[{"cover":"BKN","base":2600},{"cover":"OVC","base":3600}],"fltCat":"MVFR"},{"icaoId":"KDEN","receiptTime":"2026-04-14T16:56:28.050Z","obsTime":1776185580,"reportTime":"2026-04-14T17:00:00.000Z","temp":13.3,"dewp":-7.8,"wdir":10,"wspd":3,"visib":"10+","altim":1011.9,"slp":1007.4,"qcField":4,"metarType":"METAR","rawOb":"METAR KDEN 141653Z 01003KT 10SM SCT065 BKN100 BKN200 13/M08 A2988 RMK AO2 SLP074 VIRGA T01331078","lat":39.8466,"lon":-104.6562,"elev":1656,"name":"Denver Intl, CO, US","cover":"BKN","clouds":[{"cover":"SCT","base":6500},{"cover":"BKN","base":10000},{"cover":"BKN","base":20000}],"fltCat":"VFR"},{"icaoId":"KDVT","receiptTime":"2026-04-14T16:56:27.740Z","obsTime":1776185580,"reportTime":"2026-04-14T17:00:00.000Z","temp":18.9,"dewp":1.1,"wdir":220,"wspd":4,"visib":"10+","altim":1017,"slp":1015.3,"qcField":12,"metarType":"METAR","rawOb":"METAR KDVT 141653Z 22004KT 10SM 19/01 A3003 RMK AO2 SLP153 T01890011 $","lat":33.6902,"lon":-112.0662,"elev":454,"name":"Phoenix/Deer Valley Arpt, AZ, US"},{"icaoId":"KFAT","receiptTime":"2026-04-14T16:56:35.066Z","obsTime":1776185580,"reportTime":"2026-04-14T17:00:00.000Z","temp":15,"dewp":7.8,"wdir":"VRB","wspd":3,"visib":"10+","altim":1022.1,"slp":1021.7,"qcField":12,"metarType":"METAR","rawOb":"METAR KFAT 141653Z VRB03KT 10SM FEW050 FEW200 15/08 A3018 RMK AO2 SLP217 T01500078 $","lat":36.78,"lon":-119.7202,"elev":102,"name":"Fresno/Yosemite Intl, CA, US","cover":"FEW","clouds":[{"cover":"FEW","base":5000},{"cover":"FEW","base":20000}],"fltCat":"VFR"},{"icaoId":"KGJT","receiptTime":"2026-04-14T16:56:28.128Z","obsTime":1776185580,"reportTime":"2026-04-14T17:00:00.000Z","temp":4.4,"dewp":2.2,"wdir":10,"wspd":10,"visib":"10+","altim":1014.3,"slp":1011.8,"qcField":4,"precip":0.11,"metarType":"METAR","rawOb":"METAR KGJT 141653Z 01010KT 10SM FEW028 BKN075 OVC090 04/02 A2995 RMK AO2 RAE52 SLP118 P0011 T00440022","lat":39.1344,"lon":-108.5408,"elev":1475,"name":"Grand Junction Rgnl, CO, US","cover":"OVC","clouds":[{"cover":"FEW","base":2800},{"cover":"BKN","base":7500},{"cover":"OVC","base":9000}],"fltCat":"VFR"},{"icaoId":"KGSP","receiptTime":"2026-04-14T16:56:23.254Z","obsTime":1776185580,"reportTime":"2026-04-14T17:00:00.000Z","temp":26.7,"dewp":12.8,"wdir":230,"wspd":6,"wgst":16,"visib":"10+","altim":1022.4,"slp":1021.4,"qcField":4,"metarType":"METAR","rawOb":"METAR KGSP 141653Z 23006G16KT 10SM CLR 27/13 A3019 RMK AO2 SLP214 T02670128","lat":34.8842,"lon":-82.2209,"elev":285,"name":"Greenville-Spartanburg Intl, SC, US","cover":"CLR","clouds":[],"fltCat":"VFR"},{"icaoId":"KBTM","receiptTime":"2026-04-14T16:56:33.458Z","obsTime":1776185580,"reportTime":"2026-04-14T17:00:00.000Z","temp":7.2,"dewp":-7.2,"wdir":220,"wspd":13,"wgst":21,"visib":"10+","altim":1012.3,"slp":1010.9,"qcField":6,"metarType":"METAR","rawOb":"METAR KBTM 141653Z AUTO 22013G21KT 10SM OVC060 07/M07 A2989 RMK AO2 SLP109 T00721072","lat":45.9644,"lon":-112.5015,"elev":1680,"name":"Butte/Mooney Arpt, MT, US","cover":"OVC","clouds":[{"cover":"OVC","base":6000}],"fltCat":"VFR"},{"icaoId":"KTUS","receiptTime":"2026-04-14T16:56:36.250Z","obsTime":1776185580,"reportTime":"2026-04-14T17:00:00.000Z","temp":17.8,"dewp":3.9,"wdir":"VRB","wspd":3,"visib":"10+","altim":1018,"slp":1014.7,"qcField":12,"metarType":"METAR","rawOb":"METAR KTUS 141653Z VRB03KT 10SM CLR 18/04 A3006 RMK AO2 SLP147 T01780039 $","lat":32.1315,"lon":-110.9564,"elev":776,"name":"Tucson Intl Arpt, AZ, US","cover":"CLR","clouds":[],"fltCat":"VFR"},{"icaoId":"KVGT","receiptTime":"2026-04-14T16:56:18.355Z","obsTime":1776185580,"reportTime":"2026-04-14T17:00:00.000Z","temp":18.3,"dewp":-1.7,"wdir":360,"wspd":11,"wgst":19,"visib":"10+","altim":1016.7,"slp":1017.3,"qcField":4,"metarType":"METAR","rawOb":"METAR KVGT 141653Z 36011G19KT 10SM CLR 18/M02 A3002 RMK AO2 SLP173 T01831017","lat":36.212,"lon":-115.194,"elev":664,"name":"Las Vegas/North Arpt, NV, US","cover":"CLR","clouds":[],"fltCat":"VFR"},{"icaoId":"KSAF","receiptTime":"2026-04-14T16:56:32.662Z","obsTime":1776185580,"reportTime":"2026-04-14T17:00:00.000Z","temp":13.3,"dewp":-3.9,"wdir":220,"wspd":17,"wgst":30,"visib":"10+","altim":1016.7,"slp":1010,"qcField":12,"metarType":"METAR","rawOb":"METAR KSAF 141653Z 22017G30KT 10SM BKN060 BKN080 13/M04 A3002 RMK AO2 PK WND 22030/1647 SLP100 T01331039 $","lat":35.611,"lon":-106.0957,"elev":1918,"name":"Santa Fe Cnty Muni, NM, US","cover":"BKN","clouds":[{"cover":"BKN","base":6000},{"cover":"BKN","base":8000}],"fltCat":"VFR"},{"icaoId":"KDTW","receiptTime":"2026-04-14T16:56:28.095Z","obsTime":1776185580,"reportTime":"2026-04-14T17:00:00.000Z","temp":24.4,"dewp":14.4,"wdir":230,"wspd":16,"wgst":25,"visib":"10+","altim":1011.3,"slp":1010.7,"qcField":12,"metarType":"METAR","rawOb":"METAR KDTW 141653Z 23016G25KT 10SM SCT030 OVC180 24/14 A2986 RMK AO2 SLP107 T02440144 $","lat":42.2311,"lon":-83.3312,"elev":192,"name":"Detroit/Metro Wayne Cnty, MI, US","cover":"OVC","clouds":[{"cover":"SCT","base":3000},{"cover":"OVC","base":18000}],"fltCat":"VFR"},{"icaoId":"KGEG","receiptTime":"2026-04-14T16:56:35.128Z","obsTime":1776185580,"reportTime":"2026-04-14T17:00:00.000Z","temp":5.6,"dewp":1.1,"wdir":210,"wspd":13,"visib":"10+","altim":1013.6,"slp":1014.3,"qcField":4,"metarType":"METAR","rawOb":"METAR KGEG 141653Z 21013KT 10SM BKN018 BKN110 BKN200 06/01 A2993 RMK AO2 SLP143 T00560011","lat":47.6217,"lon":-117.528,"elev":718,"name":"Spokane Intl, WA, US","cover":"BKN","clouds":[{"cover":"BKN","base":1800},{"cover":"BKN","base":11000},{"cover":"BKN","base":20000}],"fltCat":"MVFR"},{"icaoId":"KHLN","receiptTime":"2026-04-14T16:56:27.849Z","obsTime":1776185580,"reportTime":"2026-04-14T17:00:00.000Z","temp":11.7,"dewp":-4.4,"wdir":270,"wspd":11,"wgst":14,"visib":"10+","altim":1010.2,"slp":1011.1,"qcField":4,"metarType":"METAR","rawOb":"METAR KHLN 141653Z 27011G14KT 10SM BKN070 12/M04 A2983 RMK AO2 SLP111 T01171044","lat":46.6045,"lon":-111.9892,"elev":1178,"name":"Helena Rgnl, MT, US","cover":"BKN","clouds":[{"cover":"BKN","base":7000}],"fltCat":"VFR"},{"icaoId":"KPBI","receiptTime":"2026-04-14T16:56:31.541Z","obsTime":1776185580,"reportTime":"2026-04-14T17:00:00.000Z","temp":26.7,"dewp":17.2,"wdir":80,"wspd":10,"wgst":20,"visib":"10+","altim":1023.1,"slp":1022.9,"qcField":12,"metarType":"METAR","rawOb":"METAR KPBI 141653Z 08010G20KT 10SM SCT036 SCT055 BKN250 27/17 A3021 RMK AO2 SLP229 T02670172 $","lat":26.6851,"lon":-80.0992,"elev":4,"name":"Palm Beach Intl, FL, US","cover":"BKN","clouds":[{"cover":"SCT","base":3600},{"cover":"SCT","base":5500},{"cover":"BKN","base":25000}],"fltCat":"VFR"},{"icaoId":"KLOL","receiptTime":"2026-04-14T16:56:32.222Z","obsTime":1776185580,"reportTime":"2026-04-14T17:00:00.000Z","temp":10.6,"dewp":-2.2,"wdir":0,"wspd":0,"visib":"10+","altim":1018.7,"slp":1017.6,"qcField":6,"metarType":"METAR","rawOb":"METAR KLOL 141653Z AUTO 00000KT 10SM CLR 11/M02 A3008 RMK AO2 SLP176 T01061022","lat":40.0684,"lon":-118.5702,"elev":1191,"name":"Lovelock/Derby Fld, NV, US","cover":"CLR","clouds":[],"fltCat":"VFR"},{"icaoId":"KSNA","receiptTime":"2026-04-14T16:56:29.656Z","obsTime":1776185580,"reportTime":"2026-04-14T17:00:00.000Z","temp":17.8,"dewp":9.4,"wdir":180,"wspd":5,"visib":"10+","altim":1019.7,"slp":1019.7,"qcField":12,"metarType":"METAR","rawOb":"METAR KSNA 141653Z 18005KT 10SM FEW015 BKN034 18/09 A3011 RMK AO2 SLP197 T01780094 $","lat":33.6798,"lon":-117.8675,"elev":14,"name":"Santa Ana/Wayne Arpt, CA, US","cover":"BKN","clouds":[{"cover":"FEW","base":1500},{"cover":"BKN","base":3400}],"fltCat":"VFR"},{"icaoId":"KMCI","receiptTime":"2026-04-14T16:56:34.644Z","obsTime":1776185580,"reportTime":"2026-04-14T17:00:00.000Z","temp":26.7,"dewp":19.4,"wdir":220,"wspd":16,"wgst":28,"visib":"10+","altim":1007.5,"slp":1006.3,"qcField":4,"metarType":"METAR","rawOb":"METAR KMCI 141653Z 22016G28KT 10SM SCT025 27/19 A2975 RMK AO2 PK WND 21029/1614 SLP063 T02670194","lat":39.2975,"lon":-94.7309,"elev":308,"name":"Kansas City Intl, MO, US","cover":"SCT","clouds":[{"cover":"SCT","base":2500}],"fltCat":"VFR"},{"icaoId":"KMLS","receiptTime":"2026-04-14T16:56:21.391Z","obsTime":1776185580,"reportTime":"2026-04-14T17:00:00.000Z","temp":13.9,"dewp":3.3,"wdir":280,"wspd":9,"visib":"10+","altim":1008.5,"slp":1008.5,"qcField":6,"metarType":"METAR","rawOb":"METAR KMLS 141653Z AUTO 28009KT 10SM CLR 14/03 A2978 RMK AO2 SLP085 T01390033","lat":46.4265,"lon":-105.8834,"elev":800,"name":"Miles City/Wiley Fld, MT, US","cover":"CLR","clouds":[],"fltCat":"VFR"},{"icaoId":"KMOD","receiptTime":"2026-04-14T16:56:21.469Z","obsTime":1776185580,"reportTime":"2026-04-14T17:00:00.000Z","temp":15,"dewp":7.2,"wdir":"VRB","wspd":3,"visib":"10+","altim":1022.1,"slp":1021.9,"qcField":4,"metarType":"METAR","rawOb":"METAR KMOD 141653Z VRB03KT 10SM CLR 15/07 A3018 RMK AO2 SLP219 T01500072","lat":37.6254,"lon":-120.9549,"elev":25,"name":"Modesto/Sham Fld, CA, US","cover":"CLR","clouds":[],"fltCat":"VFR"},{"icaoId":"KMSO","receiptTime":"2026-04-14T16:56:20.878Z","obsTime":1776185580,"reportTime":"2026-04-14T17:00:00.000Z","temp":8.9,"dewp":-1.1,"wdir":0,"wspd":0,"visib":"10+","altim":1012.3,"slp":1013,"qcField":4,"metarType":"METAR","rawOb":"METAR KMSO 141653Z 00000KT 10SM OVC055 09/M01 A2989 RMK AO2 SLP130 T00891011","lat":46.9208,"lon":-114.0938,"elev":974,"name":"Missoula Intl, MT, US","cover":"OVC","clouds":[{"cover":"OVC","base":5500}],"fltCat":"VFR"},{"icaoId":"KDLN","receiptTime":"2026-04-14T16:56:17.347Z","obsTime":1776185580,"reportTime":"2026-04-14T17:00:00.000Z","temp":8.3,"dewp":-3.9,"wdir":220,"wspd":17,"wgst":22,"visib":"10+","altim":1012.3,"slp":1011.1,"qcField":6,"metarType":"METAR","rawOb":"METAR KDLN 141653Z AUTO 22017G22KT 10SM BKN050 OVC060 08/M04 A2989 RMK AO2 SLP111 T00831039","lat":45.2584,"lon":-112.5546,"elev":1586,"name":"Dillon Arpt, MT, US","cover":"OVC","clouds":[{"cover":"BKN","base":5000},{"cover":"OVC","base":6000}],"fltCat":"VFR"},{"icaoId":"KDRO","receiptTime":"2026-04-14T16:56:28.080Z","obsTime":1776185580,"reportTime":"2026-04-14T17:00:00.000Z","temp":5.6,"dewp":-0.6,"wdir":210,"wspd":9,"visib":"10+","altim":1017.7,"slp":1015.9,"qcField":6,"metarType":"METAR","rawOb":"METAR KDRO 141653Z AUTO 21009KT 10SM FEW032 SCT045 OVC110 06/M01 A3005 RMK AO2 SLP159 T00561006","lat":37.1431,"lon":-107.7602,"elev":2021,"name":"Durango/La Plata Cnty, CO, US","cover":"OVC","clouds":[{"cover":"FEW","base":3200},{"cover":"SCT","base":4500},{"cover":"OVC","base":11000}],"fltCat":"VFR"},{"icaoId":"KSEA","receiptTime":"2026-04-14T16:56:36.211Z","obsTime":1776185580,"reportTime":"2026-04-14T17:00:00.000Z","temp":7.8,"dewp":5.6,"wdir":190,"wspd":15,"wgst":22,"visib":8,"altim":1014.6,"slp":1015.3,"qcField":4,"wxString":"-RA","precip":0.02,"metarType":"METAR","rawOb":"METAR KSEA 141653Z 19015G22KT 8SM -RA BKN016 OVC024 08/06 A2996 RMK AO2 SLP153 P0002 T00780056","lat":47.4447,"lon":-122.3144,"elev":115,"name":"Seattle-Tacoma Intl, WA, US","cover":"OVC","clouds":[{"cover":"BKN","base":1600},{"cover":"OVC","base":2400}],"fltCat":"MVFR"},{"icaoId":"KFMN","receiptTime":"2026-04-14T16:56:27.577Z","obsTime":1776185580,"reportTime":"2026-04-14T17:00:00.000Z","temp":8.9,"dewp":-3.9,"wdir":230,"wspd":8,"visib":"10+","altim":1016.3,"slp":1014,"qcField":4,"metarType":"METAR","rawOb":"METAR KFMN 141653Z 23008KT 10SM BKN055 09/M04 A3001 RMK AO2 SLP140 T00891039","lat":36.7435,"lon":-108.2293,"elev":1677,"name":"Farmington/Four Corners Rgnl, NM, US","cover":"BKN","clouds":[{"cover":"BKN","base":5500}],"fltCat":"VFR"},{"icaoId":"KLBB","receiptTime":"2026-04-14T16:56:20.639Z","obsTime":1776185580,"reportTime":"2026-04-14T17:00:00.000Z","temp":24.4,"dewp":12.8,"wdir":200,"wspd":13,"visib":"10+","altim":1014.6,"slp":1009.7,"qcField":4,"metarType":"METAR","rawOb":"METAR KLBB 141653Z 20013KT 10SM SCT130 BKN180 BKN250 24/13 A2996 RMK AO2 SLP097 VIRGA S-W-N T02440128","lat":33.6658,"lon":-101.8233,"elev":996,"name":"Lubbock Intl Arpt, TX, US","cover":"BKN","clouds":[{"cover":"SCT","base":13000},{"cover":"BKN","base":18000},{"cover":"BKN","base":25000}],"fltCat":"VFR"},{"icaoId":"KMKE","receiptTime":"2026-04-14T16:56:26.924Z","obsTime":1776185520,"reportTime":"2026-04-14T17:00:00.000Z","temp":22.8,"dewp":16.1,"wdir":210,"wspd":14,"visib":"10+","altim":1008.5,"slp":1008,"qcField":4,"metarType":"METAR","rawOb":"METAR KMKE 141652Z 21014KT 10SM FEW027 SCT044 BKN210 BKN250 23/16 A2978 RMK AO2 SLP080 T02280161","lat":42.9549,"lon":-87.9045,"elev":203,"name":"Milwaukee/Mitchell Intl, WI, US","cover":"BKN","clouds":[{"cover":"FEW","base":2700},{"cover":"SCT","base":4400},{"cover":"BKN","base":21000},{"cover":"BKN","base":25000}],"fltCat":"VFR"},{"icaoId":"KATL","receiptTime":"2026-04-14T16:56:25.313Z","obsTime":1776185520,"reportTime":"2026-04-14T17:00:00.000Z","temp":26.7,"dewp":10.6,"wdir":240,"wspd":8,"wgst":15,"visib":"10+","altim":1023.8,"slp":1022.9,"qcField":12,"metarType":"METAR","rawOb":"METAR KATL 141652Z 24008G15KT 210V270 10SM FEW050 FEW250 27/11 A3023 RMK AO2 SLP229 T02670106 $","lat":33.6297,"lon":-84.4422,"elev":309,"name":"Atlanta/Hartsfield-Jackson Intl, GA, US","cover":"FEW","clouds":[{"cover":"FEW","base":5000},{"cover":"FEW","base":25000}],"fltCat":"VFR"},{"icaoId":"KCVG","receiptTime":"2026-04-14T16:56:26.493Z","obsTime":1776185520,"reportTime":"2026-04-14T17:00:00.000Z","temp":24.4,"dewp":16.1,"wdir":240,"wspd":11,"wgst":24,"visib":"10+","altim":1016.7,"slp":1015.8,"qcField":4,"metarType":"METAR","rawOb":"METAR KCVG 141652Z 24011G24KT 10SM SCT041 BKN050 BKN300 24/16 A3002 RMK AO2 SLP158 MDT CU S T02440161","lat":39.0444,"lon":-84.6724,"elev":264,"name":"Cincinnati Intl, KY, US","cover":"BKN","clouds":[{"cover":"SCT","base":4100},{"cover":"BKN","base":5000},{"cover":"BKN","base":30000}],"fltCat":"VFR"},{"icaoId":"KHRL","receiptTime":"2026-04-14T16:56:25.371Z","obsTime":1776185520,"reportTime":"2026-04-14T17:00:00.000Z","temp":28.3,"dewp":20.6,"wdir":160,"wspd":17,"wgst":25,"visib":"10+","altim":1015.7,"slp":1015.4,"qcField":4,"metarType":"METAR","rawOb":"METAR KHRL 141652Z 16017G25KT 10SM BKN034 BKN043 28/21 A2999 RMK AO2 PK WND 16027/1611 SLP154 T02830206","lat":26.2303,"lon":-97.6556,"elev":9,"name":"Harlingen/Valley Intl, TX, US","cover":"BKN","clouds":[{"cover":"BKN","base":3400},{"cover":"BKN","base":4300}],"fltCat":"VFR"},{"icaoId":"KABI","receiptTime":"2026-04-14T16:56:34.749Z","obsTime":1776185520,"reportTime":"2026-04-14T17:00:00.000Z","temp":26.1,"dewp":19.4,"wdir":190,"wspd":19,"wgst":27,"visib":"10+","altim":1015.3,"slp":1012.5,"qcField":4,"metarType":"METAR","rawOb":"METAR KABI 141652Z 19019G27KT 10SM BKN029 BKN035 26/19 A2998 RMK AO2 PK WND 19028/1556 SLP125 T02610194","lat":32.4106,"lon":-99.6821,"elev":543,"name":"Abilene Rgnl, TX, US","cover":"BKN","clouds":[{"cover":"BKN","base":2900},{"cover":"BKN","base":3500}],"fltCat":"MVFR"},{"icaoId":"KIAD","receiptTime":"2026-04-14T16:56:26.537Z","obsTime":1776185520,"reportTime":"2026-04-14T17:00:00.000Z","temp":28.9,"dewp":10.6,"wdir":260,"wspd":10,"wgst":21,"visib":"10+","altim":1016.7,"slp":1016.4,"qcField":4,"metarType":"METAR","rawOb":"METAR KIAD 141652Z 26010G21KT 10SM SCT110 SCT250 29/11 A3002 RMK AO2 SLP164 T02890106","lat":38.9348,"lon":-77.4473,"elev":90,"name":"Washington/Dulles Intl, VA, US","cover":"SCT","clouds":[{"cover":"SCT","base":11000},{"cover":"SCT","base":25000}],"fltCat":"VFR"},{"icaoId":"KTRM","receiptTime":"2026-04-14T16:58:41.481Z","obsTime":1776185520,"reportTime":"2026-04-14T17:00:00.000Z","temp":20,"dewp":4.4,"wdir":330,"wspd":4,"visib":"10+","altim":1017,"slp":1017.1,"qcField":46,"metarType":"METAR","rawOb":"METAR KTRM 141652Z AUTO 33004KT 10SM CLR 20/04 A3003 RMK AO2 SLP171 T02000044 TSNO $","lat":33.6317,"lon":-116.1641,"elev":-39,"name":"Thermal Arpt, CA, US","cover":"CLR","clouds":[],"fltCat":"VFR"},{"icaoId":"KDCA","receiptTime":"2026-04-14T16:56:26.507Z","obsTime":1776185520,"reportTime":"2026-04-14T17:00:00.000Z","temp":27.8,"dewp":13.9,"wdir":170,"wspd":10,"visib":"10+","altim":1016.3,"slp":1016.2,"qcField":4,"metarType":"METAR","rawOb":"METAR KDCA 141652Z 17010KT 10SM FEW100 BKN250 28/14 A3001 RMK AO2 SLP162 T02780139","lat":38.8472,"lon":-77.0345,"elev":4,"name":"Washington/Reagan-National Arpt, VA, US","cover":"BKN","clouds":[{"cover":"FEW","base":10000},{"cover":"BKN","base":25000}],"fltCat":"VFR"},{"icaoId":"KCLT","receiptTime":"2026-04-14T16:56:26.477Z","obsTime":1776185520,"reportTime":"2026-04-14T17:00:00.000Z","temp":26.7,"dewp":13.3,"wdir":270,"wspd":5,"visib":"10+","altim":1022.1,"slp":1022.8,"qcField":4,"metarType":"METAR","rawOb":"METAR KCLT 141652Z 27005KT 10SM FEW120 BKN140 BKN250 27/13 A3018 RMK AO2 SLP228 T02670133","lat":35.2225,"lon":-80.9543,"elev":223,"name":"Charlotte/Douglas Intl, NC, US","cover":"BKN","clouds":[{"cover":"FEW","base":12000},{"cover":"BKN","base":14000},{"cover":"BKN","base":25000}],"fltCat":"VFR"},{"icaoId":"KMLF","receiptTime":"2026-04-14T16:56:34.934Z","obsTime":1776185520,"reportTime":"2026-04-14T17:00:00.000Z","temp":8.3,"dewp":2.2,"wdir":"VRB","wspd":3,"visib":"10+","altim":1017,"slp":1015.3,"qcField":6,"metarType":"METAR","rawOb":"METAR KMLF 141652Z AUTO VRB03KT 10SM CLR 08/02 A3003 RMK AO2 SLP153 T00830022","lat":38.4225,"lon":-113.0109,"elev":1537,"name":"Milford Muni, UT, US","cover":"CLR","clouds":[],"fltCat":"VFR"},{"icaoId":"KOKC","receiptTime":"2026-04-14T16:56:33.837Z","obsTime":1776185520,"reportTime":"2026-04-14T17:00:00.000Z","temp":23.9,"dewp":20,"wdir":180,"wspd":16,"wgst":23,"visib":"10+","altim":1013.3,"slp":1011.8,"qcField":4,"metarType":"METAR","rawOb":"METAR KOKC 141652Z 18016G23KT 10SM OVC020 24/20 A2992 RMK AO2 SLP118 T02390200","lat":35.3843,"lon":-97.6003,"elev":391,"name":"Oklahoma City/Will Rogers Intl, OK, US","cover":"OVC","clouds":[{"cover":"OVC","base":2000}],"fltCat":"MVFR"},{"icaoId":"KABQ","receiptTime":"2026-04-14T16:56:34.764Z","obsTime":1776185520,"reportTime":"2026-04-14T17:00:00.000Z","temp":15.6,"dewp":-1.1,"wdir":230,"wspd":14,"wgst":23,"visib":"10+","altim":1016,"slp":1010.5,"qcField":4,"metarType":"METAR","rawOb":"METAR KABQ 141652Z 23014G23KT 10SM SCT070 SCT250 16/M01 A3000 RMK AO2 SLP105 T01561011","lat":35.0419,"lon":-106.6154,"elev":1620,"name":"Albuquerque Intl, NM, US","cover":"SCT","clouds":[{"cover":"SCT","base":7000},{"cover":"SCT","base":25000}],"fltCat":"VFR"},{"icaoId":"KCMH","receiptTime":"2026-04-14T16:54:09.620Z","obsTime":1776185460,"reportTime":"2026-04-14T17:00:00.000Z","temp":23.9,"dewp":16.1,"wdir":240,"wspd":13,"visib":"10+","altim":1015.7,"slp":1014.9,"qcField":4,"metarType":"METAR","rawOb":"METAR KCMH 141651Z 24013KT 10SM FEW035 BKN075 24/16 A2999 RMK AO2 LTG DSNT NE SLP149 T02390161","lat":39.9907,"lon":-82.877,"elev":257,"name":"Columbus/Glenn Intl, OH, US","cover":"BKN","clouds":[{"cover":"FEW","base":3500},{"cover":"BKN","base":7500}],"fltCat":"VFR"},{"icaoId":"KSAN","receiptTime":"2026-04-14T16:54:10.396Z","obsTime":1776185460,"reportTime":"2026-04-14T17:00:00.000Z","temp":17.2,"dewp":9.4,"wdir":200,"wspd":3,"visib":"10+","altim":1020.4,"slp":1020.4,"qcField":12,"metarType":"METAR","rawOb":"METAR KSAN 141651Z 20003KT 10SM SCT033 17/09 A3013 RMK AO2 SLP204 T01720094 $","lat":32.7364,"lon":-117.1973,"elev":3,"name":"San Diego Intl Arpt, CA, US","cover":"SCT","clouds":[{"cover":"SCT","base":3300}],"fltCat":"VFR"},{"icaoId":"KCLE","receiptTime":"2026-04-14T16:54:09.581Z","obsTime":1776185460,"reportTime":"2026-04-14T17:00:00.000Z","temp":23.3,"dewp":17.2,"wdir":210,"wspd":13,"wgst":22,"visib":"10+","altim":1012.3,"slp":1013.2,"qcField":12,"metarType":"METAR","rawOb":"METAR KCLE 141651Z 21013G22KT 10SM FEW030 SCT075 SCT200 23/17 A2989 RMK AO2 PK WND 23027/1616 PRESFR SLP132 T02330172 $","lat":41.4057,"lon":-81.8519,"elev":237,"name":"Cleveland/Hopkins Intl, OH, US","cover":"SCT","clouds":[{"cover":"FEW","base":3000},{"cover":"SCT","base":7500},{"cover":"SCT","base":20000}],"fltCat":"VFR"},{"icaoId":"KBDL","receiptTime":"2026-04-14T16:54:09.422Z","obsTime":1776185460,"reportTime":"2026-04-14T17:00:00.000Z","temp":28.3,"dewp":13.9,"wdir":200,"wspd":14,"wgst":20,"visib":"10+","altim":1012.6,"slp":1012.2,"qcField":4,"metarType":"METAR","rawOb":"METAR KBDL 141651Z 20014G20KT 10SM FEW060 SCT180 SCT250 28/14 A2990 RMK AO2 SLP122 T02830139","lat":41.9374,"lon":-72.682,"elev":52,"name":"Hartford/Bradley Intl, CT, US","cover":"SCT","clouds":[{"cover":"FEW","base":6000},{"cover":"SCT","base":18000},{"cover":"SCT","base":25000}],"fltCat":"VFR"},{"icaoId":"KVNY","receiptTime":"2026-04-14T16:54:09.064Z","obsTime":1776185460,"reportTime":"2026-04-14T17:00:00.000Z","temp":15.6,"dewp":7.8,"wdir":"VRB","wspd":3,"visib":"10+","altim":1019.7,"slp":1019.1,"qcField":12,"metarType":"METAR","rawOb":"METAR KVNY 141651Z VRB03KT 10SM CLR 16/08 A3011 RMK AO2 SLP191 T01560078 $","lat":34.2121,"lon":-118.4915,"elev":241,"name":"Van Nuys Arpt, CA, US","cover":"CLR","clouds":[],"fltCat":"VFR"},{"icaoId":"KSTL","receiptTime":"2026-04-14T16:54:08.957Z","obsTime":1776185460,"reportTime":"2026-04-14T17:00:00.000Z","temp":28.3,"dewp":18.3,"wdir":210,"wspd":12,"wgst":21,"visib":"10+","altim":1011.9,"slp":1010.7,"qcField":12,"metarType":"METAR","rawOb":"METAR KSTL 141651Z 21012G21KT 10SM SCT042 SCT150 BKN250 28/18 A2988 RMK AO2 SLP107 T02830183 $","lat":38.7525,"lon":-90.3734,"elev":163,"name":"St Louis/Lambert Intl, MO, US","cover":"BKN","clouds":[{"cover":"SCT","base":4200},{"cover":"SCT","base":15000},{"cover":"BKN","base":25000}],"fltCat":"VFR"},{"icaoId":"KRDU","receiptTime":"2026-04-14T16:54:10.338Z","obsTime":1776185460,"reportTime":"2026-04-14T17:00:00.000Z","temp":27.8,"dewp":13.3,"wdir":220,"wspd":6,"visib":"10+","altim":1021.1,"slp":1020.4,"qcField":4,"metarType":"METAR","rawOb":"METAR KRDU 141651Z 22006KT 10SM FEW180 SCT250 28/13 A3015 RMK AO2 SLP204 T02780133","lat":35.8923,"lon":-78.782,"elev":121,"name":"Raleigh-Durham Intl, NC, US","cover":"SCT","clouds":[{"cover":"FEW","base":18000},{"cover":"SCT","base":25000}],"fltCat":"VFR"},{"icaoId":"KORD","receiptTime":"2026-04-14T16:54:10.181Z","obsTime":1776185460,"reportTime":"2026-04-14T17:00:00.000Z","temp":23.9,"dewp":16.1,"wdir":210,"wspd":11,"visib":"10+","altim":1009.9,"slp":1009.2,"qcField":4,"metarType":"METAR","rawOb":"METAR KORD 141651Z 21011KT 10SM BKN034 BKN230 24/16 A2982 RMK AO2 SLP092 T02390161","lat":41.9602,"lon":-87.9316,"elev":202,"name":"Chicago/O'Hare Intl, IL, US","cover":"BKN","clouds":[{"cover":"BKN","base":3400},{"cover":"BKN","base":23000}],"fltCat":"VFR"},{"icaoId":"KEWR","receiptTime":"2026-04-14T16:54:09.864Z","obsTime":1776185460,"reportTime":"2026-04-14T17:00:00.000Z","temp":28.9,"dewp":13.3,"wdir":230,"wspd":12,"wgst":23,"visib":"10+","altim":1014,"slp":1013.7,"qcField":4,"metarType":"METAR","rawOb":"METAR KEWR 141651Z 23012G23KT 10SM SCT060 SCT200 BKN250 29/13 A2994 RMK AO2 SLP137 T02890133","lat":40.6828,"lon":-74.1692,"elev":2,"name":"Newark Intl, NJ, US","cover":"BKN","clouds":[{"cover":"SCT","base":6000},{"cover":"SCT","base":20000},{"cover":"BKN","base":25000}],"fltCat":"VFR"},{"icaoId":"KELP","receiptTime":"2026-04-14T16:54:09.781Z","obsTime":1776185460,"reportTime":"2026-04-14T17:00:00.000Z","temp":21.7,"dewp":0.6,"wdir":240,"wspd":17,"wgst":25,"visib":"10+","altim":1016,"slp":1009.8,"qcField":4,"metarType":"METAR","rawOb":"METAR KELP 141651Z 24017G25KT 10SM FEW080 BKN140 BKN250 22/01 A3000 RMK AO2 SLP098 VIRGA DSNT SW ACSL DSNT N-SE T02170006","lat":31.8123,"lon":-106.3774,"elev":1205,"name":"El Paso Intl, TX, US","cover":"BKN","clouds":[{"cover":"FEW","base":8000},{"cover":"BKN","base":14000},{"cover":"BKN","base":25000}],"fltCat":"VFR"},{"icaoId":"KPHX","receiptTime":"2026-04-14T16:54:10.258Z","obsTime":1776185460,"reportTime":"2026-04-14T17:00:00.000Z","temp":18.9,"dewp":1.7,"wdir":350,"wspd":4,"visib":"10+","altim":1016.3,"slp":1015.3,"qcField":12,"metarType":"METAR","rawOb":"METAR KPHX 141651Z 35004KT 10SM FEW070 FEW100 FEW230 19/02 A3001 RMK AO2 SLP153 T01890017 $","lat":33.4278,"lon":-112.0037,"elev":338,"name":"Phoenix/Sky Harbor Intl, AZ, US","cover":"FEW","clouds":[{"cover":"FEW","base":7000},{"cover":"FEW","base":10000},{"cover":"FEW","base":23000}],"fltCat":"VFR"},{"icaoId":"KPIT","receiptTime":"2026-04-14T16:54:10.288Z","obsTime":1776185460,"reportTime":"2026-04-14T17:00:00.000Z","temp":24.4,"dewp":13.9,"wdir":240,"wspd":15,"wgst":22,"visib":"10+","altim":1015,"slp":1015,"qcField":4,"metarType":"METAR","rawOb":"METAR KPIT 141651Z 24015G22KT 10SM BKN041 BKN060 BKN220 24/14 A2997 RMK AO2 SLP150 T02440139","lat":40.4814,"lon":-80.2083,"elev":339,"name":"Pittsburgh Intl, PA, US","cover":"BKN","clouds":[{"cover":"BKN","base":4100},{"cover":"BKN","base":6000},{"cover":"BKN","base":22000}],"fltCat":"VFR"},{"icaoId":"KPVD","receiptTime":"2026-04-14T16:54:10.304Z","obsTime":1776185460,"reportTime":"2026-04-14T17:00:00.000Z","temp":23.3,"dewp":13.3,"wdir":160,"wspd":15,"visib":"10+","altim":1014,"slp":1013.8,"qcField":4,"metarType":"METAR","rawOb":"METAR KPVD 141651Z 16015KT 10SM FEW020 FEW110 FEW130 SCT250 23/13 A2994 RMK AO2 SLP138 T02330133","lat":41.7225,"lon":-71.4325,"elev":15,"name":"Providence/Green Mem, RI, US","cover":"SCT","clouds":[{"cover":"FEW","base":2000},{"cover":"FEW","base":11000},{"cover":"FEW","base":13000},{"cover":"SCT","base":25000}],"fltCat":"VFR"},{"icaoId":"KROW","receiptTime":"2026-04-14T16:54:10.353Z","obsTime":1776185460,"reportTime":"2026-04-14T17:00:00.000Z","temp":23.9,"dewp":0,"wdir":200,"wspd":20,"wgst":28,"visib":"10+","altim":1013.3,"slp":1007.5,"qcField":4,"metarType":"METAR","rawOb":"METAR KROW 141651Z 20020G28KT 10SM CLR 24/00 A2992 RMK AO2 PK WND 20029/1608 SLP075 T02390000","lat":33.3074,"lon":-104.5082,"elev":1105,"name":"Roswell/Ind Arpt, NM, US","cover":"CLR","clouds":[],"fltCat":"VFR"},{"icaoId":"KSAD","receiptTime":"2026-04-14T16:54:10.370Z","obsTime":1776185460,"reportTime":"2026-04-14T17:00:00.000Z","temp":18.9,"dewp":2.2,"wdir":280,"wspd":8,"wgst":16,"visib":"10+","altim":1016.3,"slp":1012.4,"qcField":6,"metarType":"METAR","rawOb":"METAR KSAD 141651Z AUTO 28008G16KT 260V330 10SM CLR 19/02 A3001 RMK AO2 SLP124 T01890022","lat":32.8565,"lon":-109.636,"elev":937,"name":"Safford Rgnl, AZ, US","cover":"CLR","clouds":[],"fltCat":"VFR"},{"icaoId":"KORF","receiptTime":"2026-04-14T16:54:10.203Z","obsTime":1776185460,"reportTime":"2026-04-14T17:00:00.000Z","temp":29.4,"dewp":10,"wdir":260,"wspd":8,"wgst":18,"visib":"10+","altim":1018.4,"slp":1018.3,"qcField":6,"metarType":"METAR","rawOb":"METAR KORF 141651Z AUTO 26008G18KT 10SM CLR 29/10 A3007 RMK AO2 SLP183 T02940100","lat":36.9037,"lon":-76.1927,"elev":5,"name":"Norfolk Intl, VA, US","cover":"CLR","clouds":[],"fltCat":"VFR"},{"icaoId":"KLGU","receiptTime":"2026-04-14T16:54:10.119Z","obsTime":1776185460,"reportTime":"2026-04-14T17:00:00.000Z","temp":7.2,"dewp":1.1,"wdir":0,"wspd":0,"visib":"10+","altim":1016,"slp":1014.7,"qcField":6,"metarType":"METAR","rawOb":"METAR KLGU 141651Z AUTO 00000KT 10SM FEW024 07/01 A3000 RMK AO2 SLP147 T00720011","lat":41.7865,"lon":-111.8519,"elev":1359,"name":"Logan/Cache Arpt, UT, US","cover":"FEW","clouds":[{"cover":"FEW","base":2400}],"fltCat":"VFR"},{"icaoId":"KJFK","receiptTime":"2026-04-14T16:54:10.085Z","obsTime":1776185460,"reportTime":"2026-04-14T17:00:00.000Z","temp":25.6,"dewp":13.9,"wdir":200,"wspd":10,"visib":"10+","altim":1014.3,"slp":1014.3,"qcField":4,"metarType":"METAR","rawOb":"METAR KJFK 141651Z 20010KT 10SM FEW060 BKN200 BKN250 26/14 A2995 RMK AO2 SLP143 T02560139","lat":40.6392,"lon":-73.7639,"elev":3,"name":"New York/JF Kennedy Intl, NY, US","cover":"BKN","clouds":[{"cover":"FEW","base":6000},{"cover":"BKN","base":20000},{"cover":"BKN","base":25000}],"fltCat":"VFR"},{"icaoId":"KIGM","receiptTime":"2026-04-14T16:54:10.033Z","obsTime":1776185460,"reportTime":"2026-04-14T17:00:00.000Z","temp":12.8,"dewp":0.6,"wdir":220,"wspd":3,"visib":"10+","altim":1018.4,"slp":1014.4,"qcField":6,"metarType":"METAR","rawOb":"METAR KIGM 141651Z AUTO 22003KT 10SM CLR 13/01 A3007 RMK AO2 SLP144 T01280006","lat":35.2575,"lon":-113.9341,"elev":1045,"name":"Kingman Arpt, AZ, US","cover":"CLR","clouds":[],"fltCat":"VFR"},{"icaoId":"KOXR","receiptTime":"2026-04-14T16:54:10.228Z","obsTime":1776185460,"reportTime":"2026-04-14T17:00:00.000Z","temp":17.2,"dewp":10,"wdir":"VRB","wspd":5,"visib":"10+","altim":1019.7,"slp":1019.6,"qcField":12,"metarType":"METAR","rawOb":"METAR KOXR 141651Z VRB05KT 10SM CLR 17/10 A3011 RMK AO2 SLP196 T01720100 $","lat":34.2001,"lon":-119.2042,"elev":12,"name":"Oxnard Arpt, CA, US","cover":"CLR","clouds":[],"fltCat":"VFR"},{"icaoId":"KCRP","receiptTime":"2026-04-14T16:54:09.645Z","obsTime":1776185460,"reportTime":"2026-04-14T17:00:00.000Z","temp":28.9,"dewp":21.1,"wdir":150,"wspd":21,"wgst":28,"visib":"10+","altim":1016.7,"slp":1016.5,"qcField":4,"metarType":"METAR","rawOb":"METAR KCRP 141651Z 15021G28KT 10SM SCT025 BKN035 BKN043 BKN250 29/21 A3002 RMK AO2 PK WND 16028/1644 SLP165 T02890211","lat":27.7734,"lon":-97.513,"elev":11,"name":"Corpus Christi Intl, TX, US","cover":"BKN","clouds":[{"cover":"SCT","base":2500},{"cover":"BKN","base":3500},{"cover":"BKN","base":4300},{"cover":"BKN","base":25000}],"fltCat":"VFR"},{"icaoId":"KLGA","receiptTime":"2026-04-14T16:56:26.550Z","obsTime":1776185460,"reportTime":"2026-04-14T17:00:00.000Z","temp":27.2,"dewp":13.9,"wdir":230,"wspd":11,"wgst":17,"visib":"10+","altim":1013.6,"slp":1013.5,"qcField":12,"metarType":"METAR","rawOb":"METAR KLGA 141651Z 23011G17KT 10SM FEW060 FEW150 SCT250 27/14 A2993 RMK AO2 SLP135 T02720139 $","lat":40.7794,"lon":-73.8803,"elev":9,"name":"New York/La Guardia Arpt, NY, US","cover":"SCT","clouds":[{"cover":"FEW","base":6000},{"cover":"FEW","base":15000},{"cover":"SCT","base":25000}],"fltCat":"VFR"},{"icaoId":"KADM","receiptTime":"2026-04-14T17:03:28.632Z","obsTime":1776185400,"reportTime":"2026-04-14T17:00:00.000Z","temp":24,"dewp":21,"wdir":190,"wspd":15,"visib":"10+","altim":1014.6,"qcField":0,"metarType":"METAR","rawOb":"METAR KADM 141650Z 19015KT 10SM OVC026 24/21 A2996","lat":34.3007,"lon":-97.0089,"elev":223,"name":"Ardmore Muni, OK, US","cover":"OVC","clouds":[{"cover":"OVC","base":2600}],"fltCat":"MVFR"},{"icaoId":"KHOB","receiptTime":"2026-04-14T16:53:02.232Z","obsTime":1776185400,"reportTime":"2026-04-14T17:00:00.000Z","temp":25,"dewp":6,"wdir":200,"wspd":14,"wgst":21,"visib":"10+","altim":1015.7,"qcField":0,"metarType":"METAR","rawOb":"METAR KHOB 141650Z 20014G21KT 10SM BKN180 25/06 A2999","lat":32.6797,"lon":-103.2222,"elev":1112,"name":"Hobbs Arpt, NM, US","cover":"BKN","clouds":[{"cover":"BKN","base":18000}],"fltCat":"VFR"},{"icaoId":"KSUN","receiptTime":"2026-04-14T16:48:22.976Z","obsTime":1776185400,"reportTime":"2026-04-14T17:00:00.000Z","temp":6,"dewp":-3,"wdir":120,"wspd":10,"visib":"10+","altim":1016,"qcField":0,"metarType":"METAR","rawOb":"METAR KSUN 141650Z 12010KT 10SM CLR 06/M03 A3000","lat":43.4969,"lon":-114.2923,"elev":1619,"name":"Hailey/Friedman Mem, ID, US","cover":"CLR","clouds":[],"fltCat":"VFR"},{"icaoId":"KIWA","receiptTime":"2026-04-14T16:53:02.311Z","obsTime":1776185400,"reportTime":"2026-04-14T17:00:00.000Z","temp":19,"dewp":2,"wdir":0,"wspd":0,"visib":"10+","altim":1017.4,"qcField":0,"metarType":"METAR","rawOb":"METAR KIWA 141650Z 00000KT 10SM CLR 19/02 A3004","lat":33.3008,"lon":-111.6437,"elev":420,"name":"Phoenix/Mesa Gateway Arpt, AZ, US","cover":"CLR","clouds":[],"fltCat":"VFR"},{"icaoId":"KIFP","receiptTime":"2026-04-14T16:48:22.699Z","obsTime":1776185220,"reportTime":"2026-04-14T17:00:00.000Z","temp":18,"dewp":1,"wdir":180,"wspd":8,"visib":"10+","altim":1017,"qcField":0,"metarType":"METAR","rawOb":"METAR KIFP 141647Z 18008KT 10SM CLR 18/01 A3003","lat":35.1487,"lon":-114.5611,"elev":210,"name":"Bullhead City Intl, AZ, US","cover":"CLR","clouds":[],"fltCat":"VFR"},{"icaoId":"KCHD","receiptTime":"2026-04-14T16:46:18.368Z","obsTime":1776185220,"reportTime":"2026-04-14T17:00:00.000Z","temp":19,"dewp":2,"wdir":190,"wspd":5,"visib":"10+","altim":1017,"qcField":0,"metarType":"METAR","rawOb":"METAR KCHD 141647Z 19005KT 10SM FEW100 19/02 A3003","lat":33.2669,"lon":-111.8086,"elev":378,"name":"Chandler Muni, AZ, US","cover":"FEW","clouds":[{"cover":"FEW","base":10000}],"fltCat":"VFR"},{"icaoId":"KGEU","receiptTime":"2026-04-14T16:48:22.230Z","obsTime":1776185220,"reportTime":"2026-04-14T17:00:00.000Z","temp":19,"dewp":1,"wdir":0,"wspd":0,"visib":"10+","altim":1016.3,"qcField":0,"metarType":"METAR","rawOb":"METAR KGEU 141647Z 00000KT 10SM CLR 19/01 A3001","lat":33.528,"lon":-112.293,"elev":319,"name":"Glendale Muni, AZ, US","cover":"CLR","clouds":[],"fltCat":"VFR"},{"icaoId":"KGYR","receiptTime":"2026-04-14T16:47:30.314Z","obsTime":1776185220,"reportTime":"2026-04-14T17:00:00.000Z","temp":18,"dewp":3,"wdir":210,"wspd":5,"visib":"10+","altim":1017.4,"qcField":0,"metarType":"METAR","rawOb":"METAR KGYR 141647Z 21005KT 10SM FEW070 18/03 A3004","lat":33.428,"lon":-112.368,"elev":292,"name":"Phoenix/Goodyear Muni, AZ, US","cover":"FEW","clouds":[{"cover":"FEW","base":7000}],"fltCat":"VFR"},{"icaoId":"KAEG","receiptTime":"2026-04-14T16:48:38.865Z","obsTime":1776185220,"reportTime":"2026-04-14T17:00:00.000Z","temp":15,"dewp":-2,"wdir":250,"wspd":13,"wgst":21,"visib":"10+","altim":1017,"qcField":0,"metarType":"METAR","rawOb":"METAR KAEG 141647Z 25013G21KT 10SM BKN070 BKN080 15/M02 A3003","lat":35.15,"lon":-106.7929,"elev":1771,"name":"Albuquerque/Double Eagle Arpt, NM, US","cover":"BKN","clouds":[{"cover":"BKN","base":7000},{"cover":"BKN","base":8000}],"fltCat":"VFR"},{"icaoId":"KRYN","receiptTime":"2026-04-14T16:48:22.806Z","obsTime":1776185100,"reportTime":"2026-04-14T17:00:00.000Z","temp":20,"dewp":3,"wdir":"VRB","wspd":4,"visib":"10+","altim":1017,"qcField":0,"metarType":"METAR","rawOb":"METAR KRYN 141645Z VRB04KT 10SM CLR 20/03 A3003","lat":32.1418,"lon":-111.1767,"elev":731,"name":"Tucson/Ryan Fld, AZ, US","cover":"CLR","clouds":[],"fltCat":"VFR"},{"icaoId":"KBJC","receiptTime":"2026-04-14T16:56:26.793Z","obsTime":1776185100,"reportTime":"2026-04-14T17:00:00.000Z","temp":11,"dewp":-3,"wdir":280,"wspd":12,"visib":"10+","altim":1013,"qcField":0,"wxString":"VCSH","metarType":"METAR","rawOb":"METAR KBJC 141645Z 28012KT 10SM VCSH SCT046 BKN055 OVC090 11/M03 A2991 RMK WNDSHFT05 VRGA W-N","lat":39.9008,"lon":-105.1042,"elev":1694,"name":"Rocky Mtn Metro, CO, US","cover":"OVC","clouds":[{"cover":"SCT","base":4600},{"cover":"BKN","base":5500},{"cover":"OVC","base":9000}],"fltCat":"VFR"},{"icaoId":"KOTH","receiptTime":"2026-04-14T16:02:27.951Z","obsTime":1776182400,"reportTime":"2026-04-14T16:00:00.000Z","temp":9,"dewp":6,"wdir":130,"wspd":8,"visib":"10+","altim":1022.8,"qcField":0,"metarType":"METAR","rawOb":"METAR KOTH 141600Z 13008KT 10SM OVC047 09/06 A3020","lat":43.4194,"lon":-124.2438,"elev":3,"name":"North Bend/SW Oregon Rgnl, OR, US","cover":"OVC","clouds":[{"cover":"OVC","base":4700}],"fltCat":"VFR"}]