[{"icaoId":"KABI","receiptTime":"2026-04-14T21:26:07.839Z","obsTime":1776201720,"reportTime":"2026-04-14T21:22:00.000Z","temp":24.4,"dewp":18.9,"wdir":170,"wspd":15,"wgst":24,"visib":"10+","altim":1012.6,"qcField":4,"metarType":"SPECI","rawOb":"SPECI KABI 142122Z 17015G24KT 10SM FEW024 SCT032 24/19 A2990 RMK AO2 T02440189","lat":32.4106,"lon":-99.6821,"elev":543,"name":"Abilene Rgnl, TX, US","cover":"SCT","clouds":[{"cover":"FEW","base":2400},{"cover":"SCT","base":3200}],"fltCat":"VFR"},{"icaoId":"KOLM","receiptTime":"2026-04-14T21:24:04.358Z","obsTime":1776201600,"reportTime":"2026-04-14T21:20:00.000Z","temp":8.3,"dewp":7.2,"wdir":200,"wspd":10,"wgst":20,"visib":"10+","altim":1013.6,"qcField":4,"wxString":"-RA","precip":0.02,"metarType":"SPECI","rawOb":"SPECI KOLM 142120Z 20010G20KT 10SM -RA FEW013 SCT024 OVC032 08/07 A2993 RMK AO2 P0002 T00830072","lat":46.9737,"lon":-122.9049,"elev":58,"name":"Olympia Rgnl, WA, US","cover":"OVC","clouds":[{"cover":"FEW","base":1300},{"cover":"SCT","base":2400},{"cover":"OVC","base":3200}],"fltCat":"VFR"},{"icaoId":"KBTV","receiptTime":"2026-04-14T21:22:13.076Z","obsTime":1776201540,"reportTime":"2026-04-14T21:19:00.000Z","temp":12.8,"dewp":11.7,"wdir":240,"wspd":5,"visib":2.5,"altim":1007.2,"qcField":4,"wxString":"BR","precip":0.04,"metarType":"SPECI","rawOb":"SPECI KBTV 142119Z 24005KT 2 1/2SM BR BKN003 BKN040 OVC080 13/12 A2974 RMK AO2 SFC VIS 6 RAE18 P0004 T01280117","lat":44.4682,"lon":-73.1499,"elev":101,"name":"Burlington Intl, VT, US","cover":"OVC","clouds":[{"cover":"BKN","base":300},{"cover":"BKN","base":4000},{"cover":"OVC","base":8000}],"fltCat":"LIFR"},{"icaoId":"KSPS","receiptTime":"2026-04-14T21:22:06.112Z","obsTime":1776201480,"reportTime":"2026-04-14T21:18:00.000Z","temp":26.7,"dewp":19.4,"wdir":170,"wspd":22,"wgst":29,"visib":"10+","altim":1010.6,"qcField":4,"metarType":"SPECI","rawOb":"SPECI KSPS 142118Z 17022G29KT 10SM FEW035 BKN043 BKN050 27/19 A2984 RMK AO2 PK WND 17029/2115 LTG DSNT W AND NW T02670194","lat":33.9785,"lon":-98.493,"elev":310,"name":"Wichita Falls Rgnl, TX, US","cover":"BKN","clouds":[{"cover":"FEW","base":3500},{"cover":"BKN","base":4300},{"cover":"BKN","base":5000}],"fltCat":"VFR"},{"icaoId":"KDEN","receiptTime":"2026-04-14T21:20:27.894Z","obsTime":1776201360,"reportTime":"2026-04-14T21:16:00.000Z","temp":11.1,"dewp":-0.6,"wdir":220,"wspd":8,"visib":"10+","altim":1011.3,"qcField":4,"precip":0.005,"metarType":"SPECI","rawOb":"SPECI KDEN 142116Z 22008KT 10SM SCT060 BKN090 BKN120 BKN200 11/M01 A2986 RMK AO2 RAE16 VIRGA P0000 T01111006","lat":39.8466,"lon":-104.6562,"elev":1656,"name":"Denver Intl, CO, US","cover":"BKN","clouds":[{"cover":"SCT","base":6000},{"cover":"BKN","base":9000},{"cover":"BKN","base":12000},{"cover":"BKN","base":20000}],"fltCat":"VFR"},{"icaoId":"KCOS","receiptTime":"2026-04-14T21:20:30.024Z","obsTime":1776201360,"reportTime":"2026-04-14T21:16:00.000Z","temp":17.2,"dewp":-7.8,"wdir":200,"wspd":26,"wgst":34,"visib":"10+","altim":1010.2,"qcField":4,"metarType":"SPECI","rawOb":"SPECI KCOS 142116Z 20026G34KT 10SM SCT090 BKN110 17/M08 A2983 RMK AO2 PK WND 20034/2115 T01721078","lat":38.8095,"lon":-104.6887,"elev":1886,"name":"Colorado Spring Arpt, CO, US","cover":"BKN","clouds":[{"cover":"SCT","base":9000},{"cover":"BKN","base":11000}],"fltCat":"VFR"},{"icaoId":"KHTH","receiptTime":"2026-04-14T21:20:20.900Z","obsTime":1776201300,"reportTime":"2026-04-14T21:15:00.000Z","temp":17,"dewp":-7,"wdir":320,"wspd":11,"visib":"10+","altim":1018,"qcField":6,"metarType":"METAR","rawOb":"METAR KHTH 142115Z AUTO 32011KT 10SM CLR 17/M07 A3006 RMK A01","lat":38.5448,"lon":-118.6314,"elev":1281,"name":"Hawthorne Muni, NV, US","cover":"CLR","clouds":[],"fltCat":"VFR"},{"icaoId":"KLRU","receiptTime":"2026-04-14T21:19:00.631Z","obsTime":1776201300,"reportTime":"2026-04-14T21:15:00.000Z","temp":22.1,"dewp":0.6,"wdir":260,"wspd":13,"wgst":23,"visib":"10+","altim":1015,"qcField":6,"metarType":"METAR","rawOb":"METAR KLRU 142115Z AUTO 26013G23KT 10SM CLR 22/01 A2997 RMK AO2 T02210006","lat":32.2884,"lon":-106.9131,"elev":1355,"name":"Las Cruces Intl, NM, US","cover":"CLR","clouds":[],"fltCat":"VFR"},{"icaoId":"KBVU","receiptTime":"2026-04-14T21:16:11.452Z","obsTime":1776201300,"reportTime":"2026-04-14T21:15:00.000Z","temp":22,"dewp":-4,"wdir":"VRB","wspd":4,"wgst":10,"visib":"10+","altim":1015.3,"qcField":6,"metarType":"METAR","rawOb":"METAR KBVU 142115Z AUTO VRB04G10KT 10SM CLR 22/M04 A2998 RMK AO2","lat":35.9489,"lon":-114.8633,"elev":654,"name":"Boulder City Muni, NV, US","cover":"CLR","clouds":[],"fltCat":"VFR"},{"icaoId":"KHAF","receiptTime":"2026-04-14T21:18:07.089Z","obsTime":1776201300,"reportTime":"2026-04-14T21:15:00.000Z","temp":14,"dewp":10,"wdir":320,"wspd":12,"visib":9,"altim":1023.5,"qcField":6,"metarType":"METAR","rawOb":"METAR KHAF 142115Z AUTO 32012KT 9SM SCT021 BKN027 OVC032 14/10 A3022 RMK AO2","lat":37.5136,"lon":-122.4996,"elev":11,"name":"Half Moon Bay Arpt, CA, US","cover":"OVC","clouds":[{"cover":"SCT","base":2100},{"cover":"BKN","base":2700},{"cover":"OVC","base":3200}],"fltCat":"MVFR"},{"icaoId":"KCXP","receiptTime":"2026-04-14T21:20:33.397Z","obsTime":1776201300,"reportTime":"2026-04-14T21:15:00.000Z","temp":15,"dewp":-4,"wdir":270,"wspd":8,"visib":"10+","altim":1019.7,"qcField":6,"metarType":"METAR","rawOb":"METAR KCXP 142115Z AUTO 27008KT 240V300 10SM CLR 15/M04 A3011 RMK AO2","lat":39.1905,"lon":-119.7319,"elev":1431,"name":"Carson City Arpt, NV, US","cover":"CLR","clouds":[],"fltCat":"VFR"},{"icaoId":"KHII","receiptTime":"2026-04-14T21:20:25.362Z","obsTime":1776201300,"reportTime":"2026-04-14T21:15:00.000Z","temp":24,"dewp":0,"wdir":280,"wspd":8,"visib":"10+","altim":1015.3,"qcField":6,"metarType":"METAR","rawOb":"METAR KHII 142115Z AUTO 28008KT 10SM CLR 24/M00 A2998 RMK AO2","lat":34.5659,"lon":-114.3522,"elev":241,"name":"Lake Havasu City Arpt, AZ, US","cover":"CLR","clouds":[],"fltCat":"VFR"},{"icaoId":"KSEZ","receiptTime":"2026-04-14T21:20:26.359Z","obsTime":1776201300,"reportTime":"2026-04-14T21:15:00.000Z","temp":15,"dewp":-1,"wdir":290,"wspd":9,"visib":"10+","altim":1018.4,"qcField":6,"metarType":"METAR","rawOb":"METAR KSEZ 142115Z AUTO 29009KT 10SM FEW060 BKN070 15/M01 A3007 RMK AO2","lat":34.8467,"lon":-111.7884,"elev":1455,"name":"Sedona Arpt, AZ, US","cover":"BKN","clouds":[{"cover":"FEW","base":6000},{"cover":"BKN","base":7000}],"fltCat":"VFR"},{"icaoId":"KMHR","receiptTime":"2026-04-14T21:20:26.330Z","obsTime":1776201300,"reportTime":"2026-04-14T21:15:00.000Z","temp":20,"dewp":12,"wdir":200,"wspd":4,"wgst":11,"visib":"10+","altim":1020.4,"qcField":6,"metarType":"METAR","rawOb":"METAR KMHR 142115Z AUTO 20004G11KT 10SM SCT039 20/12 A3013 RMK AO2","lat":38.56,"lon":-121.284,"elev":30,"name":"Sacramento/Mather Fld, CA, US","cover":"SCT","clouds":[{"cover":"SCT","base":3900}],"fltCat":"VFR"},{"icaoId":"KHCR","receiptTime":"2026-04-14T21:18:44.391Z","obsTime":1776201300,"reportTime":"2026-04-14T21:15:00.000Z","temp":11.7,"dewp":-3,"wdir":240,"wspd":7,"visib":"10+","altim":1014,"qcField":14,"metarType":"METAR","rawOb":"METAR KHCR 142115Z AUTO 24007KT 210V300 10SM FEW070 12/M03 A2994 RMK AO2 T01171030 $","lat":40.4774,"lon":-111.4329,"elev":1708,"name":"Heber City Muni, UT, US","cover":"FEW","clouds":[{"cover":"FEW","base":7000}],"fltCat":"VFR"},{"icaoId":"KRTS","receiptTime":"2026-04-14T21:20:27.662Z","obsTime":1776201300,"reportTime":"2026-04-14T21:15:00.000Z","temp":13,"dewp":-6,"wdir":300,"wspd":8,"wgst":18,"visib":"10+","altim":1019.4,"qcField":6,"metarType":"METAR","rawOb":"METAR KRTS 142115Z AUTO 30008G18KT 10SM CLR 13/M06 A3010 RMK AO2","lat":39.6658,"lon":-119.8731,"elev":1537,"name":"Reno/Stead Arpt, NV, US","cover":"CLR","clouds":[],"fltCat":"VFR"},{"icaoId":"KSOW","receiptTime":"2026-04-14T21:18:42.734Z","obsTime":1776201300,"reportTime":"2026-04-14T21:15:00.000Z","temp":13,"dewp":-5,"wdir":230,"wspd":10,"wgst":21,"visib":"10+","altim":1019,"qcField":6,"metarType":"METAR","rawOb":"METAR KSOW 142115Z AUTO 23010G21KT 10SM CLR 13/M05 A3009 RMK AO2","lat":34.2686,"lon":-110.0019,"elev":1954,"name":"Show Low Muni, AZ, US","cover":"CLR","clouds":[],"fltCat":"VFR"},{"icaoId":"KMEV","receiptTime":"2026-04-14T21:20:26.305Z","obsTime":1776201300,"reportTime":"2026-04-14T21:15:00.000Z","temp":16,"dewp":-6,"wdir":280,"wspd":12,"visib":"10+","altim":1019,"qcField":6,"metarType":"METAR","rawOb":"METAR KMEV 142115Z AUTO 28012KT 10SM CLR 16/M06 A3009 RMK AO2","lat":38.9963,"lon":-119.75,"elev":1437,"name":"Minden-Tahoe Arpt, NV, US","cover":"CLR","clouds":[],"fltCat":"VFR"},{"icaoId":"KLAR","receiptTime":"2026-04-14T21:16:02.685Z","obsTime":1776201120,"reportTime":"2026-04-14T21:12:00.000Z","temp":2.2,"dewp":1.1,"wdir":0,"wspd":0,"visib":2.5,"altim":1013,"qcField":6,"wxString":"RA BR","precip":0.03,"metarType":"SPECI","rawOb":"SPECI KLAR 142112Z AUTO 00000KT 2 1/2SM RA BR BKN014 BKN021 OVC042 02/01 A2991 RMK AO2 P0003 T00220011","lat":41.3165,"lon":-105.6729,"elev":2217,"name":"Laramie Rgnl, WY, US","cover":"OVC","clouds":[{"cover":"BKN","base":1400},{"cover":"BKN","base":2100},{"cover":"OVC","base":4200}],"fltCat":"IFR"},{"icaoId":"KHDN","receiptTime":"2026-04-14T21:06:10.837Z","obsTime":1776200640,"reportTime":"2026-04-14T21:04:00.000Z","temp":2,"dewp":1,"wdir":240,"wspd":16,"visib":9,"altim":1015,"qcField":70,"wxString":"-RA","precip":0.005,"metarType":"SPECI","rawOb":"SPECI KHDN 142104Z AUTO 24016KT 9SM -RA SCT012 SCT019 OVC030 02/01 A2997 RMK AO2 RAB02SNE02 P0000 FZRANO","lat":40.4842,"lon":-107.2296,"elev":2012,"name":"Hayden/Yampa Valley Arpt, CO, US","cover":"OVC","clouds":[{"cover":"SCT","base":1200},{"cover":"SCT","base":1900},{"cover":"OVC","base":3000}],"fltCat":"MVFR"},{"icaoId":"KPHX","receiptTime":"2026-04-14T21:04:09.133Z","obsTime":1776200460,"reportTime":"2026-04-14T21:01:00.000Z","temp":23.9,"dewp":-1.7,"wdir":"VRB","wspd":5,"visib":"10+","altim":1015,"qcField":12,"metarType":"SPECI","rawOb":"SPECI KPHX 142101Z VRB05KT 10SM FEW080 FEW120 FEW250 24/M02 A2997 RMK AO2 WSHFT 2041 T02391017 $","lat":33.4278,"lon":-112.0037,"elev":338,"name":"Phoenix/Sky Harbor Intl, AZ, US","cover":"FEW","clouds":[{"cover":"FEW","base":8000},{"cover":"FEW","base":12000},{"cover":"FEW","base":25000}],"fltCat":"VFR"},{"icaoId":"KPAE","receiptTime":"2026-04-14T21:02:09.911Z","obsTime":1776200340,"reportTime":"2026-04-14T20:59:00.000Z","temp":8.3,"dewp":6.1,"wdir":170,"wspd":18,"wgst":36,"visib":"10+","altim":1011.6,"qcField":4,"wxString":"-RA","precip":0.005,"metarType":"SPECI","rawOb":"SPECI KPAE 142059Z 17018G36KT 10SM -RA BKN008 BKN015 OVC055 08/06 A2987 RMK AO2 PK WND 18030/2054 P0000 T00830061","lat":47.9232,"lon":-122.2831,"elev":166,"name":"Everett/Paine Fld, WA, US","cover":"OVC","clouds":[{"cover":"BKN","base":800},{"cover":"BKN","base":1500},{"cover":"OVC","base":5500}],"fltCat":"IFR"},{"icaoId":"KNYL","receiptTime":"2026-04-14T21:00:27.519Z","obsTime":1776200220,"reportTime":"2026-04-14T21:00:00.000Z","temp":25.6,"dewp":1.7,"wdir":260,"wspd":8,"wgst":16,"visib":"10+","altim":1015.7,"slp":1015.3,"qcField":4,"presTend":-2,"metarType":"METAR","rawOb":"METAR KNYL 142057Z 26008G16KT 10SM CLR 26/02 A2999 RMK AO2 SLP153 T02560017 58020","lat":32.66,"lon":-114.6078,"elev":58,"name":"Yuma , AZ, US","cover":"CLR","clouds":[],"fltCat":"VFR"},{"icaoId":"KFLG","receiptTime":"2026-04-14T21:00:28.453Z","obsTime":1776200220,"reportTime":"2026-04-14T21:00:00.000Z","temp":6.7,"dewp":-2.8,"wdir":320,"wspd":5,"visib":"10+","altim":1019.4,"slp":1015.9,"qcField":4,"presTend":0.2,"metarType":"METAR","rawOb":"METAR KFLG 142057Z 32005KT 10SM BKN039 OVC050 07/M03 A3010 RMK AO2 SLP159 T00671028 50002","lat":35.1443,"lon":-111.6664,"elev":2134,"name":"Flagstaff/Pulliam Arpt, AZ, US","cover":"OVC","clouds":[{"cover":"BKN","base":3900},{"cover":"OVC","base":5000}],"fltCat":"VFR"},{"icaoId":"KNFL","receiptTime":"2026-04-14T21:00:27.503Z","obsTime":1776200220,"reportTime":"2026-04-14T21:00:00.000Z","temp":17.2,"dewp":-4.4,"wdir":260,"wspd":8,"visib":"10+","altim":1017.7,"slp":1014.5,"qcField":4,"presTend":-1.4,"metarType":"METAR","rawOb":"METAR KNFL 142057Z 26008KT 220V310 10SM FEW050 SCT200 SCT250 17/M04 A3005 RMK AO2 SLP145 T01721044 58014","lat":39.417,"lon":-118.705,"elev":1199,"name":"Fallon , NV, US","cover":"SCT","clouds":[{"cover":"FEW","base":5000},{"cover":"SCT","base":20000},{"cover":"SCT","base":25000}],"fltCat":"VFR"},{"icaoId":"KRDM","receiptTime":"2026-04-14T21:00:24.555Z","obsTime":1776200160,"reportTime":"2026-04-14T21:00:00.000Z","temp":8.3,"dewp":-2.8,"wdir":350,"wspd":8,"visib":"10+","altim":1016,"slp":1017.1,"qcField":4,"presTend":-0.4,"metarType":"METAR","rawOb":"METAR KRDM 142056Z 35008KT 10SM FEW120 08/M03 A3000 RMK AO2 SLP171 T00831028 58004","lat":44.2558,"lon":-121.1407,"elev":930,"name":"Redmond Muni, OR, US","cover":"FEW","clouds":[{"cover":"FEW","base":12000}],"fltCat":"VFR"},{"icaoId":"KLWS","receiptTime":"2026-04-14T21:00:24.538Z","obsTime":1776200160,"reportTime":"2026-04-14T21:00:00.000Z","temp":13.3,"dewp":0.6,"wdir":350,"wspd":5,"visib":"10+","altim":1013.3,"slp":1013.4,"qcField":4,"presTend":-1.7,"metarType":"METAR","rawOb":"METAR KLWS 142056Z 35005KT 10SM FEW065 OVC110 13/01 A2992 RMK AO2 SLP134 T01330006 56017","lat":46.3746,"lon":-117.0153,"elev":435,"name":"Lewiston/Nez Perce Cnty, ID, US","cover":"OVC","clouds":[{"cover":"FEW","base":6500},{"cover":"OVC","base":11000}],"fltCat":"VFR"},{"icaoId":"KPWT","receiptTime":"2026-04-14T20:59:04.997Z","obsTime":1776200160,"reportTime":"2026-04-14T21:00:00.000Z","temp":7.2,"dewp":7.2,"wdir":200,"wspd":19,"wgst":24,"visib":"10+","altim":1012.3,"slp":1012.7,"qcField":14,"wxString":"-RA","presTend":-1.5,"metarType":"METAR","rawOb":"METAR KPWT 142056Z AUTO 20019G24KT 10SM -RA BKN010 OVC018 07/07 A2989 RMK AO2 PK WND 21030/2015 CIG 008V013 SLP127 6//// T00720072 58015 PNO $","lat":47.4942,"lon":-122.7594,"elev":143,"name":"Bremerton Arpt, WA, US","cover":"OVC","clouds":[{"cover":"BKN","base":1000},{"cover":"OVC","base":1800}],"fltCat":"MVFR"},{"icaoId":"KCHS","receiptTime":"2026-04-14T21:00:22.630Z","obsTime":1776200160,"reportTime":"2026-04-14T21:00:00.000Z","temp":27.8,"dewp":13.3,"wdir":180,"wspd":12,"visib":"10+","altim":1020.7,"slp":1020.7,"qcField":4,"presTend":-1.9,"metarType":"METAR","rawOb":"METAR KCHS 142056Z 18012KT 10SM FEW050 FEW250 28/13 A3014 RMK AO2 SLP207 T02780133 56019","lat":32.8995,"lon":-80.0407,"elev":12,"name":"Charleston Intl, SC, US","cover":"FEW","clouds":[{"cover":"FEW","base":5000},{"cover":"FEW","base":25000}],"fltCat":"VFR"},{"icaoId":"KBZN","receiptTime":"2026-04-14T21:00:24.432Z","obsTime":1776200160,"reportTime":"2026-04-14T21:00:00.000Z","temp":13.9,"dewp":-5.6,"wdir":250,"wspd":16,"wgst":27,"visib":"10+","altim":1008.9,"slp":1008,"qcField":4,"presTend":-2.1,"metarType":"METAR","rawOb":"METAR KBZN 142056Z 25016G27KT 10SM BKN085 14/M06 A2979 RMK AO2 PK WND 23030/2046 SLP080 T01391056 56021","lat":45.7876,"lon":-111.1615,"elev":1349,"name":"Bozeman/Gallatin Fld, MT, US","cover":"BKN","clouds":[{"cover":"BKN","base":8500}],"fltCat":"VFR"},{"icaoId":"KCOE","receiptTime":"2026-04-14T20:59:09.064Z","obsTime":1776200160,"reportTime":"2026-04-14T21:00:00.000Z","temp":9.4,"dewp":-0.6,"wdir":220,"wspd":17,"visib":"10+","altim":1012.6,"slp":1015,"qcField":14,"presTend":-1.2,"metarType":"METAR","rawOb":"METAR KCOE 142056Z AUTO 22017KT 10SM BKN040 BKN049 OVC100 09/M01 A2990 RMK AO2 SLP150 6//// T00941006 58012 PNO $","lat":47.7719,"lon":-116.8332,"elev":693,"name":"Coeur DAlene Arpt, ID, US","cover":"OVC","clouds":[{"cover":"BKN","base":4000},{"cover":"BKN","base":4900},{"cover":"OVC","base":10000}],"fltCat":"VFR"},{"icaoId":"KVIS","receiptTime":"2026-04-14T20:59:02.218Z","obsTime":1776200160,"reportTime":"2026-04-14T21:00:00.000Z","temp":21.7,"dewp":7.8,"wdir":"VRB","wspd":4,"visib":"10+","altim":1020.7,"slp":1020.5,"qcField":14,"presTend":-1.5,"metarType":"METAR","rawOb":"METAR KVIS 142056Z AUTO VRB04KT 10SM FEW050 22/08 A3014 RMK AO2 SLP205 6//// T02170078 58015 PNO $","lat":36.3135,"lon":-119.3884,"elev":92,"name":"Visalia Muni, CA, US","cover":"FEW","clouds":[{"cover":"FEW","base":5000}],"fltCat":"VFR"},{"icaoId":"KJAC","receiptTime":"2026-04-14T20:59:07.614Z","obsTime":1776200160,"reportTime":"2026-04-14T21:00:00.000Z","temp":5.6,"dewp":-2.2,"wdir":230,"wspd":10,"visib":"10+","altim":1015,"slp":1015.9,"qcField":4,"presTend":0.3,"metarType":"METAR","rawOb":"METAR KJAC 142056Z 23010KT 10SM FEW034 BKN041 OVC070 06/M02 A2997 RMK AO2 SLP159 T00561022 53003","lat":43.6129,"lon":-110.7366,"elev":1967,"name":"Jackson Hole Arpt, WY, US","cover":"OVC","clouds":[{"cover":"FEW","base":3400},{"cover":"BKN","base":4100},{"cover":"OVC","base":7000}],"fltCat":"VFR"},{"icaoId":"KEGE","receiptTime":"2026-04-14T20:59:03.660Z","obsTime":1776200160,"reportTime":"2026-04-14T21:00:00.000Z","temp":5,"dewp":-1.1,"wdir":270,"wspd":21,"wgst":31,"visib":"10+","altim":1015,"slp":1013.1,"qcField":4,"presTend":0.6,"precip":0.005,"pcp3hr":0.005,"metarType":"METAR","rawOb":"METAR KEGE 142056Z 27021G31KT 10SM FEW037 05/M01 A2997 RMK AO2 PK WND 28031/2050 RAE03 SLP131 P0000 60000 T00501011 53006","lat":39.6448,"lon":-106.9176,"elev":1993,"name":"Eagle Cnty Rgnl, CO, US","cover":"FEW","clouds":[{"cover":"FEW","base":3700}],"fltCat":"VFR"},{"icaoId":"KENV","receiptTime":"2026-04-14T20:59:03.731Z","obsTime":1776200160,"reportTime":"2026-04-14T21:00:00.000Z","temp":15.6,"dewp":-3.9,"wdir":200,"wspd":7,"visib":"10+","altim":1016.7,"slp":1015.5,"qcField":6,"presTend":-0.9,"metarType":"METAR","rawOb":"METAR KENV 142056Z AUTO 20007KT 10SM CLR 16/M04 A3002 RMK AO2 SLP155 T01561039 58009","lat":40.7211,"lon":-114.0312,"elev":1291,"name":"Wendover Arpt, UT, US","cover":"CLR","clouds":[],"fltCat":"VFR"},{"icaoId":"KFNL","receiptTime":"2026-04-14T20:59:03.870Z","obsTime":1776200160,"reportTime":"2026-04-14T21:00:00.000Z","temp":13.9,"dewp":-2.2,"wdir":240,"wspd":9,"visib":"10+","altim":1011.3,"slp":1007.3,"qcField":12,"presTend":-0.7,"metarType":"METAR","rawOb":"METAR KFNL 142056Z 24009KT 10SM FEW120 14/M02 A2986 RMK AO2 SLP073 T01391022 56007 $","lat":40.4427,"lon":-105.0097,"elev":1529,"name":"Fort Collins/N Colorado Rgnl, CO, US","cover":"FEW","clouds":[{"cover":"FEW","base":12000}],"fltCat":"VFR"},{"icaoId":"KPVU","receiptTime":"2026-04-14T20:59:04.926Z","obsTime":1776200160,"reportTime":"2026-04-14T21:00:00.000Z","temp":13.9,"dewp":-0.6,"wdir":330,"wspd":14,"visib":"10+","altim":1016,"slp":1014.4,"qcField":4,"presTend":0.2,"metarType":"METAR","rawOb":"METAR KPVU 142056Z 33014KT 10SM SCT060 BKN070 14/M01 A3000 RMK AO2 SLP144 T01391006 53002","lat":40.224,"lon":-111.7252,"elev":1370,"name":"Provo Muni, UT, US","cover":"BKN","clouds":[{"cover":"SCT","base":6000},{"cover":"BKN","base":7000}],"fltCat":"VFR"},{"icaoId":"KHND","receiptTime":"2026-04-14T20:59:07.388Z","obsTime":1776200160,"reportTime":"2026-04-14T21:00:00.000Z","temp":21.7,"dewp":-2.2,"wdir":260,"wspd":5,"visib":"10+","altim":1017,"slp":1017.2,"qcField":12,"presTend":-1.5,"metarType":"METAR","rawOb":"METAR KHND 142056Z 26005KT 10SM CLR 22/M02 A3003 RMK AO2 SLP172 T02171022 58015 $","lat":35.9657,"lon":-115.1343,"elev":740,"name":"Henderson Exec, NV, US","cover":"CLR","clouds":[],"fltCat":"VFR"},{"icaoId":"KSGU","receiptTime":"2026-04-14T20:59:05.404Z","obsTime":1776200160,"reportTime":"2026-04-14T21:00:00.000Z","temp":17.2,"dewp":6.1,"wdir":"VRB","wspd":3,"visib":"10+","altim":1017,"slp":1016,"qcField":6,"presTend":-0.9,"metarType":"METAR","rawOb":"METAR KSGU 142056Z AUTO VRB03KT 10SM BKN100 17/06 A3003 RMK AO2 SLP160 T01720061 56009","lat":37.0444,"lon":-113.5034,"elev":877,"name":"Saint George Muni, UT, US","cover":"BKN","clouds":[{"cover":"BKN","base":10000}],"fltCat":"VFR"},{"icaoId":"KTPH","receiptTime":"2026-04-14T21:00:24.624Z","obsTime":1776200160,"reportTime":"2026-04-14T21:00:00.000Z","temp":15,"dewp":-7.2,"visib":"10+","altim":1018.7,"slp":1016.5,"qcField":6,"presTend":-0.8,"metarType":"METAR","rawOb":"METAR KTPH 142056Z AUTO 10SM CLR 15/M07 A3008 RMK AO2 SLP165 T01501072 58008","lat":38.0505,"lon":-117.0906,"elev":1647,"name":"Tonopah Arpt, NV, US","cover":"CLR","clouds":[],"fltCat":"VFR"},{"icaoId":"KCOD","receiptTime":"2026-04-14T20:59:09.048Z","obsTime":1776200160,"reportTime":"2026-04-14T21:00:00.000Z","temp":15.6,"dewp":-7.2,"wdir":260,"wspd":12,"wgst":20,"visib":"10+","altim":1009.2,"slp":1006.9,"qcField":14,"presTend":-1.4,"metarType":"METAR","rawOb":"METAR KCOD 142056Z AUTO 26012G20KT 10SM CLR 16/M07 A2980 RMK AO2 SLP069 T01561072 56014 $","lat":44.52,"lon":-109.0268,"elev":1550,"name":"Cody/Yellowstone Rgnl, WY, US","cover":"CLR","clouds":[],"fltCat":"VFR"},{"icaoId":"KCGZ","receiptTime":"2026-04-14T20:59:08.956Z","obsTime":1776200160,"reportTime":"2026-04-14T21:00:00.000Z","temp":23.3,"dewp":-1.7,"wdir":230,"wspd":7,"visib":"10+","qcField":14,"metarType":"METAR","rawOb":"METAR KCGZ 142056Z AUTO 23007KT 180V250 10SM CLR 23/M02 RMK AO2 SLPNO 6//// T02331017 $","lat":32.9531,"lon":-111.7725,"elev":444,"name":"Casa Granda Muni, AZ, US","cover":"CLR","clouds":[],"fltCat":"VFR"},{"icaoId":"KSLE","receiptTime":"2026-04-14T21:00:24.607Z","obsTime":1776200160,"reportTime":"2026-04-14T21:00:00.000Z","temp":10,"dewp":5,"wdir":190,"wspd":18,"wgst":28,"visib":7,"altim":1018.7,"slp":1018.5,"qcField":4,"wxString":"-RA","presTend":-1.1,"precip":0.005,"pcp3hr":0.005,"metarType":"METAR","rawOb":"METAR KSLE 142056Z 19018G28KT 7SM -RA BKN030 OVC039 10/05 A3008 RMK AO2 PK WND 20028/2055 RAE32B48 SLP185 P0000 60000 T01000050 58011","lat":44.9049,"lon":-123.001,"elev":63,"name":"Salem Muni, OR, US","cover":"OVC","clouds":[{"cover":"BKN","base":3000},{"cover":"OVC","base":3900}],"fltCat":"MVFR"},{"icaoId":"KLAS","receiptTime":"2026-04-14T21:00:24.516Z","obsTime":1776200160,"reportTime":"2026-04-14T21:00:00.000Z","temp":21.7,"dewp":-2.8,"wdir":270,"wspd":6,"visib":"10+","altim":1016.3,"slp":1014.9,"qcField":4,"presTend":-1.3,"metarType":"METAR","rawOb":"METAR KLAS 142056Z 27006KT 10SM FEW085 22/M03 A3001 RMK AO2 SLP149 T02171028 58013","lat":36.0719,"lon":-115.1634,"elev":662,"name":"Las Vegas/Reid Intl, NV, US","cover":"FEW","clouds":[{"cover":"FEW","base":8500}],"fltCat":"VFR"},{"icaoId":"KCEC","receiptTime":"2026-04-14T21:00:24.449Z","obsTime":1776200160,"reportTime":"2026-04-14T21:00:00.000Z","temp":12.2,"dewp":4.4,"wdir":240,"wspd":8,"visib":"10+","altim":1024.5,"slp":1024.3,"qcField":6,"presTend":-0.2,"metarType":"METAR","rawOb":"METAR KCEC 142056Z AUTO 24008KT 10SM BKN048 12/04 A3025 RMK AO2 SLP243 T01220044 58002","lat":41.7836,"lon":-124.238,"elev":17,"name":"Crescent City/McNama, CA, US","cover":"BKN","clouds":[{"cover":"BKN","base":4800}],"fltCat":"VFR"},{"icaoId":"KSDY","receiptTime":"2026-04-14T20:59:05.162Z","obsTime":1776200160,"reportTime":"2026-04-14T21:00:00.000Z","temp":19.4,"dewp":2.8,"wdir":280,"wspd":8,"wgst":18,"visib":"10+","altim":1005.2,"slp":1005.6,"qcField":14,"presTend":-2.2,"metarType":"METAR","rawOb":"METAR KSDY 142056Z AUTO 28008G18KT 10SM SCT065 19/03 A2968 RMK AO2 SLP056 T01940028 56022 $","lat":47.7029,"lon":-104.1951,"elev":600,"name":"Sidney/Richland Muni, MT, US","cover":"SCT","clouds":[{"cover":"SCT","base":6500}],"fltCat":"VFR"},{"icaoId":"KJAX","receiptTime":"2026-04-14T21:00:22.802Z","obsTime":1776200160,"reportTime":"2026-04-14T21:00:00.000Z","temp":27.8,"dewp":11.7,"wdir":130,"wspd":11,"wgst":16,"visib":"10+","altim":1021.4,"slp":1021.3,"qcField":12,"presTend":-1.5,"metarType":"METAR","rawOb":"METAR KJAX 142056Z 13011G16KT 10SM FEW060 FEW250 28/12 A3016 RMK AO2 SLP213 T02780117 56015 $","lat":30.4953,"lon":-81.6937,"elev":8,"name":"Jacksonville Intl, FL, US","cover":"FEW","clouds":[{"cover":"FEW","base":6000},{"cover":"FEW","base":25000}],"fltCat":"VFR"},{"icaoId":"KINW","receiptTime":"2026-04-14T21:00:24.503Z","obsTime":1776200160,"reportTime":"2026-04-14T21:00:00.000Z","temp":15.6,"dewp":-3.3,"wdir":290,"wspd":12,"wgst":20,"visib":"10+","altim":1017,"slp":1013.9,"qcField":6,"presTend":-0.7,"metarType":"METAR","rawOb":"METAR KINW 142056Z AUTO 29012G20KT 10SM OVC080 16/M03 A3003 RMK AO2 SLP139 T01561033 58007","lat":35.0279,"lon":-110.7221,"elev":1492,"name":"Winslow/Lindberg Rgnl, AZ, US","cover":"OVC","clouds":[{"cover":"OVC","base":8000}],"fltCat":"VFR"},{"icaoId":"KDUG","receiptTime":"2026-04-14T21:02:09.772Z","obsTime":1776200160,"reportTime":"2026-04-14T21:00:00.000Z","temp":24.4,"dewp":-8.9,"wdir":250,"wspd":21,"wgst":32,"visib":"10+","altim":1015.3,"slp":1009.2,"qcField":38,"presTend":-2.2,"metarType":"METAR","rawOb":"METAR KDUG 142056Z AUTO 25021G32KT 10SM CLR 24/M09 A2998 RMK AO2 PK WND 22033/2018 SLP092 T02441089 56022 TSNO","lat":31.4725,"lon":-109.6022,"elev":1260,"name":"Douglas/Bisbee Intl, AZ, US","cover":"CLR","clouds":[],"fltCat":"VFR"},{"icaoId":"KSDF","receiptTime":"2026-04-14T21:00:07.638Z","obsTime":1776200160,"reportTime":"2026-04-14T21:00:00.000Z","temp":28.3,"dewp":16.1,"wdir":210,"wspd":15,"wgst":24,"visib":"10+","altim":1015.3,"slp":1014.6,"qcField":4,"presTend":-1.3,"metarType":"METAR","rawOb":"METAR KSDF 142056Z 21015G24KT 10SM BKN055 28/16 A2998 RMK AO2 SLP146 T02830161 56013","lat":38.1774,"lon":-85.7308,"elev":146,"name":"Louisville Intl, KY, US","cover":"BKN","clouds":[{"cover":"BKN","base":5500}],"fltCat":"VFR"},{"icaoId":"KSFO","receiptTime":"2026-04-14T21:00:24.591Z","obsTime":1776200160,"reportTime":"2026-04-14T21:00:00.000Z","temp":15,"dewp":7.8,"wdir":290,"wspd":13,"visib":"10+","altim":1023.1,"slp":1022.9,"qcField":12,"presTend":-0.3,"metarType":"METAR","rawOb":"METAR KSFO 142056Z 29013KT 10SM FEW024 BKN028 15/08 A3021 RMK AO2 SLP229 T01500078 58003 $","lat":37.6196,"lon":-122.3656,"elev":2,"name":"San Francisco Intl, CA, US","cover":"BKN","clouds":[{"cover":"FEW","base":2400},{"cover":"BKN","base":2800}],"fltCat":"MVFR"},{"icaoId":"KGUC","receiptTime":"2026-04-14T20:59:04.152Z","obsTime":1776200160,"reportTime":"2026-04-14T21:00:00.000Z","temp":6.7,"dewp":-4.4,"wdir":270,"wspd":14,"wgst":20,"visib":"10+","altim":1015,"slp":1011.8,"qcField":14,"presTend":-0.1,"precip":0.01,"pcp3hr":0.01,"metarType":"METAR","rawOb":"METAR KGUC 142056Z AUTO 27014G20KT 10SM CLR 07/M04 A2997 RMK AO2 PK WND 28028/2025 SLP118 P0001 60001 T00671044 55001 $","lat":38.5322,"lon":-106.9419,"elev":2337,"name":"Gunnison Arpt, CO, US","cover":"CLR","clouds":[],"fltCat":"VFR"},{"icaoId":"KSBP","receiptTime":"2026-04-14T21:00:24.573Z","obsTime":1776200160,"reportTime":"2026-04-14T21:00:00.000Z","temp":19.4,"dewp":10,"wdir":310,"wspd":17,"visib":"10+","altim":1019.4,"slp":1019.2,"qcField":4,"presTend":-1.5,"metarType":"METAR","rawOb":"METAR KSBP 142056Z 31017KT 10SM CLR 19/10 A3010 RMK AO2 SLP192 T01940100 56015","lat":35.2381,"lon":-120.644,"elev":52,"name":"San Luis Obispo/San Luis Cnty, CA, US","cover":"CLR","clouds":[],"fltCat":"VFR"},{"icaoId":"KUKI","receiptTime":"2026-04-14T21:00:08.241Z","obsTime":1776200160,"reportTime":"2026-04-14T21:00:00.000Z","temp":18.3,"dewp":8.3,"wdir":350,"wspd":4,"visib":"10+","altim":1021.1,"slp":1020.6,"qcField":14,"presTend":-1.4,"metarType":"METAR","rawOb":"METAR KUKI 142056Z AUTO 35004KT 10SM 18/08 A3015 RMK AO2 SLP206 T01830083 58014 $","lat":39.1278,"lon":-123.2001,"elev":183,"name":"Ukiah Muni, CA, US"},{"icaoId":"KEKO","receiptTime":"2026-04-14T21:00:24.490Z","obsTime":1776200160,"reportTime":"2026-04-14T21:00:00.000Z","temp":12.8,"dewp":-4.4,"wdir":270,"wspd":12,"wgst":19,"visib":"10+","altim":1017,"slp":1016.4,"qcField":6,"presTend":-0.8,"metarType":"METAR","rawOb":"METAR KEKO 142056Z AUTO 27012G19KT 10SM BKN075 13/M04 A3003 RMK AO2 SLP164 T01281044 57008","lat":40.824,"lon":-115.7863,"elev":1541,"name":"Elko Rgnl, NV, US","cover":"BKN","clouds":[{"cover":"BKN","base":7500}],"fltCat":"VFR"},{"icaoId":"KOTH","receiptTime":"2026-04-14T21:23:00.799Z","obsTime":1776200160,"reportTime":"2026-04-14T21:00:00.000Z","temp":12,"dewp":7,"wdir":230,"wspd":12,"wgst":21,"visib":"10+","altim":1022.4,"qcField":0,"metarType":"METAR","rawOb":"METAR KOTH 142056Z 23012G21KT 10SM OVC047 12/07 A3019","lat":43.4194,"lon":-124.2438,"elev":3,"name":"North Bend/SW Oregon Rgnl, OR, US","cover":"OVC","clouds":[{"cover":"OVC","base":4700}],"fltCat":"VFR"},{"icaoId":"KGPI","receiptTime":"2026-04-14T20:59:04.054Z","obsTime":1776200100,"reportTime":"2026-04-14T21:00:00.000Z","temp":10.6,"dewp":-4.4,"wdir":220,"wspd":20,"wgst":30,"visib":"10+","altim":1009.2,"slp":1009.7,"qcField":4,"presTend":-1.7,"metarType":"METAR","rawOb":"METAR KGPI 142055Z 22020G30KT 10SM FEW060 11/M04 A2980 RMK AO2 PK WND 22030/2054 SLP097 T01061044 56017","lat":48.3041,"lon":-114.2643,"elev":903,"name":"Kalispell/Glacier Park Intl, MT, US","cover":"FEW","clouds":[{"cover":"FEW","base":6000}],"fltCat":"VFR"},{"icaoId":"KLUF","receiptTime":"2026-04-14T21:06:05.347Z","obsTime":1776200100,"reportTime":"2026-04-14T21:00:00.000Z","temp":23.8,"dewp":-1.2,"wdir":0,"wspd":0,"visib":"10+","altim":1015,"slp":1014.1,"qcField":12,"presTend":-1.7,"metarType":"METAR","rawOb":"METAR KLUF 142055Z 00000KT 10SM FEW100 24/M01 A2997 RMK AO2A SLP141 T02381012 57017 $","lat":33.538,"lon":-112.38,"elev":333,"name":"Phoenix/Luke AFB, AZ, US","cover":"FEW","clouds":[{"cover":"FEW","base":10000}],"fltCat":"VFR"},{"icaoId":"KRNO","receiptTime":"2026-04-14T20:59:05.057Z","obsTime":1776200100,"reportTime":"2026-04-14T21:00:00.000Z","temp":16.1,"dewp":-6.1,"wdir":290,"wspd":12,"wgst":18,"visib":"10+","altim":1018.4,"slp":1016.1,"qcField":4,"presTend":-1.3,"metarType":"METAR","rawOb":"METAR KRNO 142055Z 29012G18KT 10SM FEW060 16/M06 A3007 RMK AO2 SLP161 T01611061 58013","lat":39.5077,"lon":-119.7683,"elev":1344,"name":"Reno/Tahoe Intl, NV, US","cover":"FEW","clouds":[{"cover":"FEW","base":6000}],"fltCat":"VFR"},{"icaoId":"KAST","receiptTime":"2026-04-14T20:59:08.732Z","obsTime":1776200100,"reportTime":"2026-04-14T21:00:00.000Z","temp":8.9,"dewp":7.2,"wdir":200,"wspd":19,"wgst":29,"visib":4,"altim":1015,"slp":1015,"qcField":6,"wxString":"-RA BR","presTend":-1.2,"precip":0.05,"pcp3hr":0.19,"metarType":"METAR","rawOb":"METAR KAST 142055Z AUTO 20019G29KT 4SM -RA BR SCT016 BKN038 OVC050 09/07 A2997 RMK AO2 PK WND 19032/2034 SLP150 P0005 60019 T00890072 58012","lat":46.157,"lon":-123.8833,"elev":3,"name":"Astoria Rgnl, OR, US","cover":"OVC","clouds":[{"cover":"SCT","base":1600},{"cover":"BKN","base":3800},{"cover":"OVC","base":5000}],"fltCat":"MVFR"},{"icaoId":"KCMA","receiptTime":"2026-04-14T20:59:09.004Z","obsTime":1776200100,"reportTime":"2026-04-14T21:00:00.000Z","temp":20,"dewp":10,"wdir":220,"wspd":9,"visib":"10+","altim":1018.7,"slp":1019.3,"qcField":4,"presTend":-1.3,"metarType":"METAR","rawOb":"METAR KCMA 142055Z 22009KT 10SM CLR 20/10 A3008 RMK AO2 SLP193 T02000100 58013","lat":34.2114,"lon":-119.0876,"elev":20,"name":"Camarillo Arpt, CA, US","cover":"CLR","clouds":[],"fltCat":"VFR"},{"icaoId":"KEND","receiptTime":"2026-04-14T21:16:02.580Z","obsTime":1776200100,"reportTime":"2026-04-14T21:00:00.000Z","temp":29.3,"dewp":20.7,"wdir":180,"wspd":20,"wgst":24,"visib":"10+","altim":1007.2,"slp":1005.8,"qcField":14,"presTend":-1.9,"metarType":"METAR","rawOb":"METAR KEND 142055Z AUTO 18020G24KT 10SM FEW180 29/21 A2974 RMK AO2 PK WND 18028/10 SLP058 T02930207 57019 $","lat":36.338,"lon":-97.919,"elev":392,"name":"Enid/Vance AFB, OK, US","cover":"FEW","clouds":[{"cover":"FEW","base":18000}],"fltCat":"VFR"},{"icaoId":"KBUF","receiptTime":"2026-04-14T20:58:10.320Z","obsTime":1776200040,"reportTime":"2026-04-14T21:00:00.000Z","temp":20,"dewp":13.9,"wdir":240,"wspd":17,"wgst":26,"visib":"10+","altim":1010.2,"slp":1010.1,"qcField":4,"presTend":0.5,"metarType":"METAR","rawOb":"METAR KBUF 142054Z 24017G26KT 10SM FEW040 FEW150 SCT220 BKN270 20/14 A2983 RMK AO2 PK WND 25032/1958 SLP101 CB DSNT SE MOV E T02000139 53005","lat":42.94,"lon":-78.7361,"elev":217,"name":"Buffalo-Niagara Intl, NY, US","cover":"BKN","clouds":[{"cover":"FEW","base":4000},{"cover":"FEW","base":15000},{"cover":"SCT","base":22000},{"cover":"BKN","base":27000}],"fltCat":"VFR"},{"icaoId":"KSJN","receiptTime":"2026-04-14T20:58:07.005Z","obsTime":1776200040,"reportTime":"2026-04-14T21:00:00.000Z","temp":14.4,"dewp":-5.6,"wdir":270,"wspd":18,"wgst":26,"visib":"10+","altim":1016.7,"slp":1011.1,"qcField":6,"presTend":-0.9,"metarType":"METAR","rawOb":"METAR KSJN 142054Z AUTO 27018G26KT 10SM FEW080 FEW090 14/M06 A3002 RMK AO2 PK WND 30038/2016 SLP111 T01441056 56009","lat":34.5184,"lon":-109.3801,"elev":1747,"name":"St Johns Ind Arpt, AZ, US","cover":"FEW","clouds":[{"cover":"FEW","base":8000},{"cover":"FEW","base":9000}],"fltCat":"VFR"},{"icaoId":"KGCN","receiptTime":"2026-04-14T20:58:11.770Z","obsTime":1776200040,"reportTime":"2026-04-14T21:00:00.000Z","temp":8.9,"dewp":-2.2,"wdir":350,"wspd":7,"wgst":16,"visib":"10+","altim":1019,"slp":1016.3,"qcField":4,"metarType":"METAR","rawOb":"METAR KGCN 142054Z 35007G16KT 10SM SCT046 BKN060 09/M02 A3009 RMK AO2 SLP163 T00891022 55000","lat":35.9458,"lon":-112.1554,"elev":1993,"name":"Grand Canyon Park Arpt, AZ, US","cover":"BKN","clouds":[{"cover":"SCT","base":4600},{"cover":"BKN","base":6000}],"fltCat":"VFR"},{"icaoId":"KBFL","receiptTime":"2026-04-14T20:58:11.162Z","obsTime":1776200040,"reportTime":"2026-04-14T21:00:00.000Z","temp":21.7,"dewp":6.1,"wdir":"VRB","wspd":4,"wgst":16,"visib":"10+","altim":1019.7,"slp":1019.4,"qcField":4,"presTend":-1.9,"metarType":"METAR","rawOb":"METAR KBFL 142054Z VRB04G16KT 10SM SCT050 22/06 A3011 RMK AO2 SLP194 T02170061 56019","lat":35.4342,"lon":-119.0552,"elev":146,"name":"Bakersfield/Meadows Arpt, CA, US","cover":"SCT","clouds":[{"cover":"SCT","base":5000}],"fltCat":"VFR"},{"icaoId":"KROC","receiptTime":"2026-04-14T20:58:10.678Z","obsTime":1776200040,"reportTime":"2026-04-14T21:00:00.000Z","temp":24.4,"dewp":13.3,"wdir":270,"wspd":26,"wgst":43,"visib":"10+","altim":1008.5,"slp":1008.6,"qcField":12,"presTend":-0.2,"pcp3hr":0.005,"metarType":"METAR","rawOb":"METAR KROC 142054Z 27026G43KT 10SM FEW009 FEW030 SCT200 BKN250 24/13 A2978 RMK AO2 PK WND 26045/2040 SLP086 60000 T02440133 55002 $","lat":43.1172,"lon":-77.6754,"elev":166,"name":"Rochester Intl Arpt, NY, US","cover":"BKN","clouds":[{"cover":"FEW","base":900},{"cover":"FEW","base":3000},{"cover":"SCT","base":20000},{"cover":"BKN","base":25000}],"fltCat":"VFR"},{"icaoId":"KRIC","receiptTime":"2026-04-14T20:58:10.639Z","obsTime":1776200040,"reportTime":"2026-04-14T21:00:00.000Z","temp":31.1,"dewp":10.6,"wdir":230,"wspd":8,"wgst":15,"visib":"10+","altim":1015,"slp":1015.1,"qcField":4,"presTend":-2.7,"metarType":"METAR","rawOb":"METAR KRIC 142054Z 23008G15KT 10SM FEW085 FEW180 BKN300 31/11 A2997 RMK AO2 SLP151 T03110106 56027","lat":37.5115,"lon":-77.3234,"elev":51,"name":"Richmond Intl, VA, US","cover":"BKN","clouds":[{"cover":"FEW","base":8500},{"cover":"FEW","base":18000},{"cover":"BKN","base":30000}],"fltCat":"VFR"},{"icaoId":"KGSO","receiptTime":"2026-04-14T20:58:10.407Z","obsTime":1776200040,"reportTime":"2026-04-14T21:00:00.000Z","temp":28.3,"dewp":8.9,"wdir":250,"wspd":10,"wgst":17,"visib":"10+","altim":1018.7,"slp":1017.5,"qcField":4,"presTend":-1.8,"metarType":"METAR","rawOb":"METAR KGSO 142054Z 25010G17KT 10SM FEW075 SCT120 OVC250 28/09 A3008 RMK AO2 SLP175 T02830089 56018","lat":36.0969,"lon":-79.9432,"elev":275,"name":"Greensboro Intl, NC, US","cover":"OVC","clouds":[{"cover":"FEW","base":7500},{"cover":"SCT","base":12000},{"cover":"OVC","base":25000}],"fltCat":"VFR"},{"icaoId":"KPHL","receiptTime":"2026-04-14T20:58:12.590Z","obsTime":1776200040,"reportTime":"2026-04-14T21:00:00.000Z","temp":30.6,"dewp":12.2,"wdir":220,"wspd":16,"wgst":23,"visib":"10+","altim":1011.9,"slp":1011.6,"qcField":12,"presTend":-2.6,"metarType":"METAR","rawOb":"METAR KPHL 142054Z 22016G23KT 10SM FEW065 FEW100 SCT240 SCT330 31/12 A2988 RMK AO2 SLP116 T03060122 57026 $","lat":39.8733,"lon":-75.2268,"elev":2,"name":"Philadelphia Intl, PA, US","cover":"SCT","clouds":[{"cover":"FEW","base":6500},{"cover":"FEW","base":10000},{"cover":"SCT","base":24000},{"cover":"SCT","base":33000}],"fltCat":"VFR"},{"icaoId":"KIND","receiptTime":"2026-04-14T20:58:11.998Z","obsTime":1776200040,"reportTime":"2026-04-14T21:00:00.000Z","temp":27.8,"dewp":17.8,"wdir":190,"wspd":17,"visib":"10+","altim":1011.3,"slp":1010.4,"qcField":4,"presTend":-2.3,"metarType":"METAR","rawOb":"METAR KIND 142054Z 19017KT 10SM BKN050 BKN060 28/18 A2986 RMK AO2 PK WND 19026/2034 SLP104 T02780178 58023","lat":39.7252,"lon":-86.2816,"elev":242,"name":"Indianapolis Intl, IN, US","cover":"BKN","clouds":[{"cover":"BKN","base":5000},{"cover":"BKN","base":6000}],"fltCat":"VFR"},{"icaoId":"KSYR","receiptTime":"2026-04-14T20:58:14.673Z","obsTime":1776200040,"reportTime":"2026-04-14T21:00:00.000Z","temp":23.9,"dewp":15.6,"wdir":260,"wspd":16,"wgst":22,"visib":"10+","altim":1007.9,"slp":1007.3,"qcField":4,"presTend":0.2,"precip":0.005,"pcp3hr":0.005,"metarType":"METAR","rawOb":"METAR KSYR 142054Z 26016G22KT 10SM BKN070 BKN100 BKN200 24/16 A2976 RMK AO2 PK WND 28031/2001 RAE09 SLP073 P0000 60000 T02390156 53002","lat":43.1111,"lon":-76.1038,"elev":125,"name":"Syracuse/Hancock Intl, NY, US","cover":"BKN","clouds":[{"cover":"BKN","base":7000},{"cover":"BKN","base":10000},{"cover":"BKN","base":20000}],"fltCat":"VFR"},{"icaoId":"KSLC","receiptTime":"2026-04-14T20:58:09.677Z","obsTime":1776200040,"reportTime":"2026-04-14T21:00:00.000Z","temp":11.7,"dewp":0.6,"wdir":270,"wspd":10,"visib":"10+","altim":1016.7,"slp":1015,"qcField":12,"presTend":0.2,"metarType":"METAR","rawOb":"METAR KSLC 142054Z 27010KT 10SM FEW042 BKN060 12/01 A3002 RMK AO2 SLP150 T01170006 53002 $","lat":40.7707,"lon":-111.965,"elev":1286,"name":"Salt Lake City Intl, UT, US","cover":"BKN","clouds":[{"cover":"FEW","base":4200},{"cover":"BKN","base":6000}],"fltCat":"VFR"},{"icaoId":"KDSM","receiptTime":"2026-04-14T20:58:10.913Z","obsTime":1776200040,"reportTime":"2026-04-14T21:00:00.000Z","temp":30,"dewp":13.3,"wdir":220,"wspd":15,"wgst":31,"visib":"10+","altim":1002.5,"slp":1001.5,"qcField":4,"presTend":-2,"metarType":"METAR","rawOb":"METAR KDSM 142054Z 22015G31KT 10SM FEW050TCU BKN075 BKN250 30/13 A2960 RMK AO2 PK WND 22032/2032 SLP015 CB DSNT NE MOV E TCU W TCU DSNT NW-E T03000133 58020","lat":41.5339,"lon":-93.6531,"elev":286,"name":"Des Moines Intl, IA, US","cover":"BKN","clouds":[{"cover":"FEW","base":5000},{"cover":"BKN","base":7500},{"cover":"BKN","base":25000}],"fltCat":"VFR"},{"icaoId":"KBWI","receiptTime":"2026-04-14T20:58:11.244Z","obsTime":1776200040,"reportTime":"2026-04-14T21:00:00.000Z","temp":31.1,"dewp":11.1,"wdir":210,"wspd":12,"wgst":19,"visib":"10+","altim":1012.6,"slp":1012.3,"qcField":4,"presTend":-2.5,"metarType":"METAR","rawOb":"METAR KBWI 142054Z 21012G19KT 10SM FEW075 SCT100 SCT250 31/11 A2990 RMK AO2 SLP123 T03110111 57025","lat":39.1733,"lon":-76.684,"elev":42,"name":"Baltimore-Washington Intl, MD, US","cover":"SCT","clouds":[{"cover":"FEW","base":7500},{"cover":"SCT","base":10000},{"cover":"SCT","base":25000}],"fltCat":"VFR"},{"icaoId":"KFFZ","receiptTime":"2026-04-14T20:58:11.695Z","obsTime":1776200040,"reportTime":"2026-04-14T21:00:00.000Z","temp":22.8,"dewp":-3.9,"wdir":240,"wspd":6,"visib":"10+","altim":1015.3,"slp":1013.6,"qcField":4,"presTend":-1.5,"metarType":"METAR","rawOb":"METAR KFFZ 142054Z 24006KT 10SM CLR 23/M04 A2998 RMK AO2 SLP136 T02281039 58015","lat":33.4659,"lon":-111.7212,"elev":420,"name":"Mesa/Falcon Fld, AZ, US","cover":"CLR","clouds":[],"fltCat":"VFR"},{"icaoId":"KMEM","receiptTime":"2026-04-14T20:58:12.256Z","obsTime":1776200040,"reportTime":"2026-04-14T21:00:00.000Z","temp":28.3,"dewp":16.1,"wdir":180,"wspd":15,"wgst":23,"visib":"10+","altim":1017,"slp":1016.5,"qcField":12,"presTend":-1.6,"metarType":"METAR","rawOb":"METAR KMEM 142054Z 18015G23KT 10SM SCT047 SCT160 BKN250 28/16 A3003 RMK AO2 SLP165 T02830161 58016 $","lat":35.0564,"lon":-89.9864,"elev":78,"name":"Memphis Intl, TN, US","cover":"BKN","clouds":[{"cover":"SCT","base":4700},{"cover":"SCT","base":16000},{"cover":"BKN","base":25000}],"fltCat":"VFR"},{"icaoId":"KOLS","receiptTime":"2026-04-14T20:58:12.535Z","obsTime":1776200040,"reportTime":"2026-04-14T21:00:00.000Z","temp":22.8,"dewp":-3.9,"wdir":230,"wspd":14,"wgst":20,"visib":"10+","altim":1016.3,"slp":1011.6,"qcField":6,"presTend":-1.3,"metarType":"METAR","rawOb":"METAR KOLS 142054Z AUTO 23014G20KT 10SM CLR 23/M04 A3001 RMK AO2 SLP116 T02281039 56013","lat":31.4208,"lon":-110.8465,"elev":1194,"name":"Nogales Intl, AZ, US","cover":"CLR","clouds":[],"fltCat":"VFR"},{"icaoId":"KRKS","receiptTime":"2026-04-14T20:58:10.095Z","obsTime":1776200040,"reportTime":"2026-04-14T21:00:00.000Z","temp":11.7,"dewp":-9.4,"wdir":280,"wspd":10,"wgst":23,"visib":"10+","altim":1012.3,"slp":1009.5,"qcField":6,"presTend":-0.9,"metarType":"METAR","rawOb":"METAR KRKS 142054Z AUTO 28010G23KT 10SM CLR 12/M09 A2989 RMK AO2 SLP095 T01171094 58009","lat":41.5947,"lon":-109.0529,"elev":2062,"name":"Rock Springs/SW Wyoming Rgnl, WY, US","cover":"CLR","clouds":[],"fltCat":"VFR"},{"icaoId":"KAPC","receiptTime":"2026-04-14T20:58:11.078Z","obsTime":1776200040,"reportTime":"2026-04-14T21:00:00.000Z","temp":17.2,"dewp":9.4,"wdir":210,"wspd":9,"visib":"10+","altim":1021.8,"slp":1020.8,"qcField":4,"presTend":-0.9,"metarType":"METAR","rawOb":"METAR KAPC 142054Z 21009KT 10SM FEW030 17/09 A3017 RMK AO2 SLP208 T01720094 58009","lat":38.2075,"lon":-122.2804,"elev":5,"name":"Napa Cnty Arpt, CA, US","cover":"FEW","clouds":[{"cover":"FEW","base":3000}],"fltCat":"VFR"},{"icaoId":"KBOS","receiptTime":"2026-04-14T20:58:11.199Z","obsTime":1776200040,"reportTime":"2026-04-14T21:00:00.000Z","temp":24.4,"dewp":13.3,"wdir":190,"wspd":20,"wgst":31,"visib":"10+","altim":1008.5,"slp":1008.2,"qcField":4,"presTend":-3.9,"metarType":"METAR","rawOb":"METAR KBOS 142054Z 19020G31KT 10SM FEW065 FEW100 BKN250 24/13 A2978 RMK AO2 PK WND 19031/2047 SLP082 T02440133 58039","lat":42.3606,"lon":-71.0097,"elev":4,"name":"Boston/Logan Intl, MA, US","cover":"BKN","clouds":[{"cover":"FEW","base":6500},{"cover":"FEW","base":10000},{"cover":"BKN","base":25000}],"fltCat":"VFR"},{"icaoId":"KEUG","receiptTime":"2026-04-14T20:58:11.615Z","obsTime":1776200040,"reportTime":"2026-04-14T21:00:00.000Z","temp":10.6,"dewp":5,"wdir":190,"wspd":11,"visib":"10+","altim":1020.4,"slp":1020.5,"qcField":4,"presTend":-0.8,"metarType":"METAR","rawOb":"METAR KEUG 142054Z 19011KT 10SM BKN029 OVC038 11/05 A3013 RMK AO2 SLP205 T01060050 58008","lat":44.1331,"lon":-123.2156,"elev":109,"name":"Eugene/Mahlon Sweet Fld, OR, US","cover":"OVC","clouds":[{"cover":"BKN","base":2900},{"cover":"OVC","base":3800}],"fltCat":"MVFR"},{"icaoId":"KPUB","receiptTime":"2026-04-14T20:56:36.994Z","obsTime":1776199980,"reportTime":"2026-04-14T21:00:00.000Z","temp":19.4,"dewp":-5.6,"wdir":270,"wspd":14,"wgst":22,"visib":"10+","altim":1008.2,"slp":1003.5,"qcField":12,"presTend":-1.2,"metarType":"METAR","rawOb":"METAR KPUB 142053Z 27014G22KT 10SM BKN110 19/M06 A2977 RMK AO2 PK WND 30031/2024 WSHFT 2017 SLP035 T01941056 55012 $","lat":38.2887,"lon":-104.5057,"elev":1441,"name":"Pueblo Mem Arpt, CO, US","cover":"BKN","clouds":[{"cover":"BKN","base":11000}],"fltCat":"VFR"},{"icaoId":"KSNA","receiptTime":"2026-04-14T20:56:27.670Z","obsTime":1776199980,"reportTime":"2026-04-14T21:00:00.000Z","temp":20,"dewp":11.1,"wdir":190,"wspd":10,"wgst":17,"visib":"10+","altim":1018.7,"slp":1018.4,"qcField":12,"presTend":-1.4,"metarType":"METAR","rawOb":"METAR KSNA 142053Z 19010G17KT 10SM SCT038 20/11 A3008 RMK AO2 SLP184 T02000111 58014 $","lat":33.6798,"lon":-117.8675,"elev":14,"name":"Santa Ana/Wayne Arpt, CA, US","cover":"SCT","clouds":[{"cover":"SCT","base":3800}],"fltCat":"VFR"},{"icaoId":"KTUL","receiptTime":"2026-04-14T20:56:27.812Z","obsTime":1776199980,"reportTime":"2026-04-14T21:00:00.000Z","temp":27.2,"dewp":20,"wdir":180,"wspd":16,"wgst":24,"visib":"10+","altim":1010.9,"slp":1009.9,"qcField":4,"presTend":-1.1,"metarType":"METAR","rawOb":"METAR KTUL 142053Z 18016G24KT 10SM FEW037 BKN048 27/20 A2985 RMK AO2 SLP099 T02720200 56011","lat":36.1985,"lon":-95.8782,"elev":196,"name":"Tulsa Intl Arpt, OK, US","cover":"BKN","clouds":[{"cover":"FEW","base":3700},{"cover":"BKN","base":4800}],"fltCat":"VFR"},{"icaoId":"KRTN","receiptTime":"2026-04-14T20:56:27.530Z","obsTime":1776199980,"reportTime":"2026-04-14T21:00:00.000Z","temp":18.9,"dewp":-6.7,"wdir":270,"wspd":22,"wgst":33,"visib":"10+","altim":1011.6,"slp":1005.3,"qcField":14,"presTend":-0.7,"metarType":"METAR","rawOb":"METAR KRTN 142053Z AUTO 27022G33KT 10SM 19/M07 A2987 RMK AO2 PK WND 27035/2025 SLP053 T01891067 56007 $","lat":36.7418,"lon":-104.5076,"elev":1939,"name":"Raton/Crews Fld, NM, US"},{"icaoId":"KLBB","receiptTime":"2026-04-14T20:56:23.846Z","obsTime":1776199980,"reportTime":"2026-04-14T21:00:00.000Z","temp":28.9,"dewp":2.8,"wdir":240,"wspd":20,"wgst":27,"visib":"10+","altim":1011.3,"slp":1006.1,"qcField":4,"presTend":-2,"metarType":"METAR","rawOb":"METAR KLBB 142053Z 24020G27KT 10SM FEW080 FEW140 BKN170 BKN250 29/03 A2986 RMK AO2 PK WND 21029/2013 SLP061 T02890028 58020","lat":33.6658,"lon":-101.8233,"elev":996,"name":"Lubbock Intl Arpt, TX, US","cover":"BKN","clouds":[{"cover":"FEW","base":8000},{"cover":"FEW","base":14000},{"cover":"BKN","base":17000},{"cover":"BKN","base":25000}],"fltCat":"VFR"},{"icaoId":"KCRQ","receiptTime":"2026-04-14T20:56:35.096Z","obsTime":1776199980,"reportTime":"2026-04-14T21:00:00.000Z","temp":18.3,"dewp":10.6,"wdir":260,"wspd":9,"visib":"10+","altim":1018.7,"slp":1018.3,"qcField":4,"presTend":-1.3,"metarType":"METAR","rawOb":"METAR KCRQ 142053Z 26009KT 240V300 10SM CLR 18/11 A3008 RMK AO2 SLP183 T01830106 58013","lat":33.1299,"lon":-117.2765,"elev":96,"name":"Carlsbad/Palomar Arpt, CA, US","cover":"CLR","clouds":[],"fltCat":"VFR"},{"icaoId":"KTPA","receiptTime":"2026-04-14T20:56:38.547Z","obsTime":1776199980,"reportTime":"2026-04-14T21:00:00.000Z","temp":30.6,"dewp":15,"wdir":"VRB","wspd":5,"visib":"10+","altim":1020.1,"slp":1020,"qcField":4,"presTend":-2.4,"metarType":"METAR","rawOb":"METAR KTPA 142053Z VRB05KT 10SM SCT060 SCT250 31/15 A3012 RMK AO2 SLP200 T03060150 56024","lat":27.9633,"lon":-82.54,"elev":2,"name":"Tampa Intl Arpt, FL, US","cover":"SCT","clouds":[{"cover":"SCT","base":6000},{"cover":"SCT","base":25000}],"fltCat":"VFR"},{"icaoId":"KGSP","receiptTime":"2026-04-14T20:56:32.437Z","obsTime":1776199980,"reportTime":"2026-04-14T21:00:00.000Z","temp":28.3,"dewp":11.7,"wdir":230,"wspd":9,"visib":"10+","altim":1019.7,"slp":1018.5,"qcField":4,"presTend":-2,"metarType":"METAR","rawOb":"METAR KGSP 142053Z 23009KT 10SM FEW110 28/12 A3011 RMK AO2 SLP185 T02830117 56020","lat":34.8842,"lon":-82.2209,"elev":285,"name":"Greenville-Spartanburg Intl, SC, US","cover":"FEW","clouds":[{"cover":"FEW","base":11000}],"fltCat":"VFR"},{"icaoId":"KHLN","receiptTime":"2026-04-14T20:56:32.658Z","obsTime":1776199980,"reportTime":"2026-04-14T21:00:00.000Z","temp":14.4,"dewp":-2.8,"wdir":250,"wspd":13,"visib":"10+","altim":1008.2,"slp":1008.6,"qcField":4,"presTend":-2.1,"metarType":"METAR","rawOb":"METAR KHLN 142053Z 25013KT 10SM BKN075 14/M03 A2977 RMK AO2 SLP086 T01441028 56021","lat":46.6045,"lon":-111.9892,"elev":1178,"name":"Helena Rgnl, MT, US","cover":"BKN","clouds":[{"cover":"BKN","base":7500}],"fltCat":"VFR"},{"icaoId":"KBIL","receiptTime":"2026-04-14T20:56:35.350Z","obsTime":1776199980,"reportTime":"2026-04-14T21:00:00.000Z","temp":17.2,"dewp":-5.6,"wdir":220,"wspd":8,"wgst":19,"visib":"10+","altim":1007.2,"slp":1006,"qcField":4,"presTend":-1.8,"metarType":"METAR","rawOb":"METAR KBIL 142053Z 22008G19KT 10SM SCT085 17/M06 A2974 RMK AO2 SLP060 T01721056 58018","lat":45.8072,"lon":-108.5462,"elev":1089,"name":"Billings/Logan Intl, MT, US","cover":"SCT","clouds":[{"cover":"SCT","base":8500}],"fltCat":"VFR"},{"icaoId":"KFMN","receiptTime":"2026-04-14T20:56:23.735Z","obsTime":1776199980,"reportTime":"2026-04-14T21:00:00.000Z","temp":12.8,"dewp":-5.6,"wdir":300,"wspd":14,"wgst":22,"visib":"10+","altim":1015.7,"slp":1013.4,"qcField":4,"presTend":-0.7,"metarType":"METAR","rawOb":"METAR KFMN 142053Z 30014G22KT 10SM SCT080 SCT100 13/M06 A2999 RMK AO2 SLP134 T01281056 56007","lat":36.7435,"lon":-108.2293,"elev":1677,"name":"Farmington/Four Corners Rgnl, NM, US","cover":"SCT","clouds":[{"cover":"SCT","base":8000},{"cover":"SCT","base":10000}],"fltCat":"VFR"},{"icaoId":"KPUW","receiptTime":"2026-04-14T20:56:29.361Z","obsTime":1776199980,"reportTime":"2026-04-14T21:00:00.000Z","temp":8.3,"dewp":0.6,"wdir":260,"wspd":15,"wgst":23,"visib":"10+","altim":1014.3,"slp":1015.1,"qcField":6,"presTend":-0.8,"metarType":"METAR","rawOb":"METAR KPUW 142053Z AUTO 26015G23KT 10SM OVC042 08/01 A2995 RMK AO2 SLP151 T00830006 56008","lat":46.7438,"lon":-117.1158,"elev":774,"name":"Pullman/Moscow Rgnl, WA, US","cover":"OVC","clouds":[{"cover":"OVC","base":4200}],"fltCat":"VFR"},{"icaoId":"KSMF","receiptTime":"2026-04-14T20:56:38.098Z","obsTime":1776199980,"reportTime":"2026-04-14T21:00:00.000Z","temp":18.9,"dewp":8.9,"wdir":180,"wspd":8,"visib":7,"altim":1020.7,"slp":1020.6,"qcField":4,"presTend":-1,"metarType":"METAR","rawOb":"METAR KSMF 142053Z 18008KT 7SM FEW250 19/09 A3014 RMK AO2 SLP206 T01890089 58010","lat":38.7007,"lon":-121.5948,"elev":7,"name":"Sacramento Intl, CA, US","cover":"FEW","clouds":[{"cover":"FEW","base":25000}],"fltCat":"VFR"},{"icaoId":"KIAH","receiptTime":"2026-04-14T20:56:31.924Z","obsTime":1776199980,"reportTime":"2026-04-14T21:00:00.000Z","temp":28.3,"dewp":20,"wdir":150,"wspd":13,"wgst":20,"visib":"10+","altim":1016.3,"slp":1016.1,"qcField":4,"presTend":-1.9,"metarType":"METAR","rawOb":"METAR KIAH 142053Z 15013G20KT 10SM FEW041 BKN070 28/20 A3001 RMK AO2 SLP161 T02830200 58019","lat":29.9844,"lon":-95.3607,"elev":27,"name":"Houston/Bush Intl, TX, US","cover":"BKN","clouds":[{"cover":"FEW","base":4100},{"cover":"BKN","base":7000}],"fltCat":"VFR"},{"icaoId":"KLVS","receiptTime":"2026-04-14T20:56:30.925Z","obsTime":1776199980,"reportTime":"2026-04-14T21:00:00.000Z","temp":16.7,"dewp":-5.6,"wdir":210,"wspd":23,"wgst":37,"visib":"10+","altim":1014.3,"slp":1006.5,"qcField":14,"presTend":-0.6,"metarType":"METAR","rawOb":"METAR KLVS 142053Z AUTO 21023G37KT 10SM BKN090 17/M06 A2995 RMK AO2 PK WND 16038/1956 SLP065 6//// T01671056 56006 PNO $","lat":35.6558,"lon":-105.1385,"elev":2095,"name":"Las Vegas Muni, NM, US","cover":"BKN","clouds":[{"cover":"BKN","base":9000}],"fltCat":"VFR"},{"icaoId":"KMDW","receiptTime":"2026-04-14T20:56:36.928Z","obsTime":1776199980,"reportTime":"2026-04-14T21:00:00.000Z","temp":27.8,"dewp":18.3,"wdir":220,"wspd":14,"wgst":24,"visib":"10+","altim":1007.2,"slp":1006.1,"qcField":4,"presTend":-2.1,"metarType":"METAR","rawOb":"METAR KMDW 142053Z 22014G24KT 10SM SCT040 BKN140 BKN250 28/18 A2974 RMK AO2 PK WND 22027/1956 SLP061 T02780183 58021","lat":41.7841,"lon":-87.7552,"elev":186,"name":"Chicago/Midway Intl, IL, US","cover":"BKN","clouds":[{"cover":"SCT","base":4000},{"cover":"BKN","base":14000},{"cover":"BKN","base":25000}],"fltCat":"VFR"},{"icaoId":"KPBI","receiptTime":"2026-04-14T20:56:29.122Z","obsTime":1776199980,"reportTime":"2026-04-14T21:00:00.000Z","temp":26.7,"dewp":15,"wdir":60,"wspd":14,"wgst":22,"visib":"10+","altim":1020.7,"slp":1020.6,"qcField":12,"presTend":-1.7,"metarType":"METAR","rawOb":"METAR KPBI 142053Z 06014G22KT 10SM SCT036 SCT250 27/15 A3014 RMK AO2 SLP206 T02670150 56017 $","lat":26.6851,"lon":-80.0992,"elev":4,"name":"Palm Beach Intl, FL, US","cover":"SCT","clouds":[{"cover":"SCT","base":3600},{"cover":"SCT","base":25000}],"fltCat":"VFR"},{"icaoId":"KIDA","receiptTime":"2026-04-14T20:56:32.863Z","obsTime":1776199980,"reportTime":"2026-04-14T21:00:00.000Z","temp":11.1,"dewp":-1.7,"wdir":200,"wspd":15,"wgst":23,"visib":"10+","altim":1015,"slp":1014.4,"qcField":4,"presTend":-1.1,"metarType":"METAR","rawOb":"METAR KIDA 142053Z 20015G23KT 10SM SCT044 BKN060 11/M02 A2997 RMK AO2 SLP144 T01111017 58011","lat":43.5204,"lon":-112.0675,"elev":1444,"name":"Idaho Falls Rgnl, ID, US","cover":"BKN","clouds":[{"cover":"SCT","base":4400},{"cover":"BKN","base":6000}],"fltCat":"VFR"},{"icaoId":"KSAF","receiptTime":"2026-04-14T20:56:27.557Z","obsTime":1776199980,"reportTime":"2026-04-14T21:00:00.000Z","temp":16.1,"dewp":-4.4,"wdir":240,"wspd":12,"wgst":28,"visib":"10+","altim":1015.3,"slp":1008.6,"qcField":12,"presTend":-1,"metarType":"METAR","rawOb":"METAR KSAF 142053Z 24012G28KT 10SM BKN080 16/M04 A2998 RMK AO2 PK WND 25031/2033 SLP086 T01611044 56010 $","lat":35.611,"lon":-106.0957,"elev":1918,"name":"Santa Fe Cnty Muni, NM, US","cover":"BKN","clouds":[{"cover":"BKN","base":8000}],"fltCat":"VFR"},{"icaoId":"KCNM","receiptTime":"2026-04-14T20:56:32.913Z","obsTime":1776199980,"reportTime":"2026-04-14T21:00:00.000Z","temp":30,"dewp":0,"wdir":250,"wspd":20,"wgst":29,"visib":"10+","altim":1012.3,"slp":1006.6,"qcField":6,"presTend":-1.6,"metarType":"METAR","rawOb":"METAR KCNM 142053Z AUTO 25020G29KT 10SM CLR 30/00 A2989 RMK AO2 PK WND 25029/2027 SLP066 T03000000 56016","lat":32.3336,"lon":-104.2584,"elev":993,"name":"Carlsbad/Cavern City Air Term, NM, US","cover":"CLR","clouds":[],"fltCat":"VFR"},{"icaoId":"KPSP","receiptTime":"2026-04-14T20:56:27.371Z","obsTime":1776199980,"reportTime":"2026-04-14T21:00:00.000Z","temp":26.1,"dewp":0.6,"wdir":"VRB","wspd":3,"visib":"10+","altim":1016,"slp":1015.7,"qcField":12,"presTend":-2,"metarType":"METAR","rawOb":"METAR KPSP 142053Z VRB03KT 10SM CLR 26/01 A3000 RMK AO2 SLP157 T02610006 58020 $","lat":33.8222,"lon":-116.5043,"elev":123,"name":"Palm Springs Intl, CA, US","cover":"CLR","clouds":[],"fltCat":"VFR"},{"icaoId":"KAPA","receiptTime":"2026-04-14T20:56:28.413Z","obsTime":1776199980,"reportTime":"2026-04-14T21:00:00.000Z","temp":8.9,"dewp":-0.6,"wdir":340,"wspd":7,"visib":"10+","altim":1011.9,"slp":1009.8,"qcField":4,"wxString":"-DZ","presTend":0.4,"precip":0.005,"pcp3hr":0.005,"metarType":"METAR","rawOb":"METAR KAPA 142053Z 34007KT 10SM -DZ BKN060 OVC100 09/M01 A2988 RMK AO2 DZE08B45 SLP098 P0000 60000 T00891006 53004","lat":39.5599,"lon":-104.8484,"elev":1791,"name":"Denver/Centennial Arpt, CO, US","cover":"OVC","clouds":[{"cover":"BKN","base":6000},{"cover":"OVC","base":10000}],"fltCat":"VFR"},{"icaoId":"KCNY","receiptTime":"2026-04-14T20:56:35.427Z","obsTime":1776199980,"reportTime":"2026-04-14T21:00:00.000Z","temp":10,"dewp":5,"wdir":"VRB","wspd":5,"visib":"10+","altim":1014.6,"slp":1013,"qcField":14,"pcp3hr":0.04,"metarType":"METAR","rawOb":"METAR KCNY 142053Z AUTO VRB05KT 10SM OVC025 10/05 A2996 RMK AO2 SLP130 60004 T01000050 56000 $","lat":38.7501,"lon":-109.7627,"elev":1392,"name":"Moab/Canyonland Fld, UT, US","cover":"OVC","clouds":[{"cover":"OVC","base":2500}],"fltCat":"MVFR"},{"icaoId":"KMIA","receiptTime":"2026-04-14T20:58:12.338Z","obsTime":1776199980,"reportTime":"2026-04-14T21:00:00.000Z","temp":26.7,"dewp":16.1,"wdir":90,"wspd":15,"wgst":22,"visib":"10+","altim":1020.1,"slp":1019.9,"qcField":0,"presTend":-1.9,"metarType":"METAR","rawOb":"METAR KMIA 142053Z 09015G22KT 10SM SCT045 BKN250 27/16 A3012 RMK SLP199 T02670161 56019","lat":25.7881,"lon":-80.3169,"elev":1,"name":"Miami Intl, FL, US","cover":"BKN","clouds":[{"cover":"SCT","base":4500},{"cover":"BKN","base":25000}],"fltCat":"VFR"},{"icaoId":"KPGA","receiptTime":"2026-04-14T20:56:23.927Z","obsTime":1776199980,"reportTime":"2026-04-14T21:00:00.000Z","temp":16.1,"dewp":-1.7,"wdir":250,"wspd":12,"wgst":21,"visib":"10+","altim":1015.3,"slp":1012,"qcField":6,"presTend":-0.6,"metarType":"METAR","rawOb":"METAR KPGA 142053Z AUTO 25012G21KT 10SM BKN075 OVC090 16/M02 A2998 RMK AO2 SLP120 T01611017 58006","lat":36.9211,"lon":-111.4487,"elev":1310,"name":"Page Muni, AZ, US","cover":"OVC","clouds":[{"cover":"BKN","base":7500},{"cover":"OVC","base":9000}],"fltCat":"VFR"},{"icaoId":"KTUS","receiptTime":"2026-04-14T20:56:24.101Z","obsTime":1776199980,"reportTime":"2026-04-14T21:00:00.000Z","temp":22.8,"dewp":1.1,"wdir":260,"wspd":5,"visib":"10+","altim":1016,"slp":1012.6,"qcField":12,"presTend":-1.8,"metarType":"METAR","rawOb":"METAR KTUS 142053Z 26005KT 10SM FEW085 23/01 A3000 RMK AO2 SLP126 T02280011 58018 $","lat":32.1315,"lon":-110.9564,"elev":776,"name":"Tucson Intl Arpt, AZ, US","cover":"FEW","clouds":[{"cover":"FEW","base":8500}],"fltCat":"VFR"},{"icaoId":"PANC","receiptTime":"2026-04-14T20:56:24.466Z","obsTime":1776199980,"reportTime":"2026-04-14T21:00:00.000Z","temp":3.9,"dewp":-6.7,"wdir":260,"wspd":7,"visib":"10+","altim":1011.6,"slp":1011.8,"qcField":4,"presTend":0.4,"metarType":"METAR","rawOb":"METAR PANC 142053Z 26007KT 10SM FEW100 FEW200 04/M07 A2987 RMK AO2 SLP118 T00391067 53004","lat":61.1691,"lon":-150.0277,"elev":39,"name":"Anchorage Intl, AK, US","cover":"FEW","clouds":[{"cover":"FEW","base":10000},{"cover":"FEW","base":20000}],"fltCat":"VFR"},{"icaoId":"KTWF","receiptTime":"2026-04-14T20:56:24.814Z","obsTime":1776199980,"reportTime":"2026-04-14T21:00:00.000Z","temp":12.8,"dewp":0,"wdir":250,"wspd":8,"wgst":19,"visib":"10+","altim":1015.7,"slp":1013.9,"qcField":4,"presTend":-1,"metarType":"METAR","rawOb":"METAR KTWF 142053Z 25008G19KT 10SM FEW050 SCT065 13/00 A2999 RMK AO2 SLP139 T01280000 56010","lat":42.4785,"lon":-114.4775,"elev":1269,"name":"Twin Falls/Joslin Fld, ID, US","cover":"SCT","clouds":[{"cover":"FEW","base":5000},{"cover":"SCT","base":6500}],"fltCat":"VFR"},{"icaoId":"KMYR","receiptTime":"2026-04-14T20:56:25.420Z","obsTime":1776199980,"reportTime":"2026-04-14T21:00:00.000Z","temp":23.3,"dewp":16.7,"wdir":190,"wspd":15,"wgst":21,"visib":"10+","altim":1021.1,"slp":1020.9,"qcField":12,"presTend":-1.8,"metarType":"METAR","rawOb":"METAR KMYR 142053Z 19015G21KT 10SM CLR 23/17 A3015 RMK AO2 SLP209 T02330167 56018 $","lat":33.6769,"lon":-78.9325,"elev":7,"name":"Myrtle Beach Intl, SC, US","cover":"CLR","clouds":[],"fltCat":"VFR"},{"icaoId":"KPNC","receiptTime":"2026-04-14T20:56:25.488Z","obsTime":1776199980,"reportTime":"2026-04-14T21:00:00.000Z","temp":28.3,"dewp":19.4,"wdir":190,"wspd":11,"wgst":27,"visib":"10+","altim":1008.5,"slp":1007.2,"qcField":6,"presTend":-1.5,"metarType":"METAR","rawOb":"METAR KPNC 142053Z AUTO 19011G27KT 10SM CLR 28/19 A2978 RMK AO2 PK WND 18027/2047 SLP072 T02830194 58015","lat":36.7369,"lon":-97.1024,"elev":304,"name":"Ponca City Rgnl, OK, US","cover":"CLR","clouds":[],"fltCat":"VFR"},{"icaoId":"KBOI","receiptTime":"2026-04-14T20:56:36.305Z","obsTime":1776199980,"reportTime":"2026-04-14T21:00:00.000Z","temp":12.8,"dewp":0.6,"wdir":0,"wspd":0,"visib":"10+","altim":1016,"slp":1015.7,"qcField":4,"presTend":-1.4,"metarType":"METAR","rawOb":"METAR KBOI 142053Z 00000KT 10SM BKN050 13/01 A3000 RMK AO2 SLP157 T01280006 58014","lat":43.567,"lon":-116.2406,"elev":860,"name":"Boise Arpt, ID, US","cover":"BKN","clouds":[{"cover":"BKN","base":5000}],"fltCat":"VFR"},{"icaoId":"KDFW","receiptTime":"2026-04-14T20:56:26.218Z","obsTime":1776199980,"reportTime":"2026-04-14T21:00:00.000Z","temp":25.6,"dewp":18.9,"wdir":180,"wspd":18,"wgst":27,"visib":"10+","altim":1013.3,"slp":1012.5,"qcField":4,"presTend":-1.9,"metarType":"METAR","rawOb":"METAR KDFW 142053Z 18018G27KT 10SM SCT026 BKN032 OVC040 26/19 A2992 RMK AO2 PK WND 18027/2050 SLP125 T02560189 56019","lat":32.8974,"lon":-97.022,"elev":168,"name":"Dallas-Ft Worth Intl, TX, US","cover":"OVC","clouds":[{"cover":"SCT","base":2600},{"cover":"BKN","base":3200},{"cover":"OVC","base":4000}],"fltCat":"VFR"},{"icaoId":"KDLN","receiptTime":"2026-04-14T20:56:26.263Z","obsTime":1776199980,"reportTime":"2026-04-14T21:00:00.000Z","temp":13.3,"dewp":-7.2,"wdir":220,"wspd":18,"wgst":26,"visib":"10+","altim":1009.9,"slp":1008.4,"qcField":6,"presTend":-1.7,"metarType":"METAR","rawOb":"METAR KDLN 142053Z AUTO 22018G26KT 10SM BKN075 13/M07 A2982 RMK AO2 PK WND 25036/2030 SLP084 T01331072 56017","lat":45.2584,"lon":-112.5546,"elev":1586,"name":"Dillon Arpt, MT, US","cover":"BKN","clouds":[{"cover":"BKN","base":7500}],"fltCat":"VFR"},{"icaoId":"KDTW","receiptTime":"2026-04-14T20:56:26.365Z","obsTime":1776199980,"reportTime":"2026-04-14T21:00:00.000Z","temp":26.1,"dewp":13.9,"wdir":220,"wspd":11,"visib":"10+","altim":1010.6,"slp":1010,"qcField":12,"presTend":-0.5,"metarType":"METAR","rawOb":"METAR KDTW 142053Z 22011KT 10SM FEW055 BKN070 BKN230 26/14 A2984 RMK AO2 SLP100 T02610139 56005 $","lat":42.2311,"lon":-83.3312,"elev":192,"name":"Detroit/Metro Wayne Cnty, MI, US","cover":"BKN","clouds":[{"cover":"FEW","base":5500},{"cover":"BKN","base":7000},{"cover":"BKN","base":23000}],"fltCat":"VFR"},{"icaoId":"KEVW","receiptTime":"2026-04-14T20:56:26.619Z","obsTime":1776199980,"reportTime":"2026-04-14T21:00:00.000Z","temp":7.8,"dewp":-6.1,"wdir":280,"wspd":10,"wgst":16,"visib":"10+","altim":1015,"slp":1012,"qcField":14,"presTend":-0.3,"metarType":"METAR","rawOb":"METAR KEVW 142053Z AUTO 28010G16KT 10SM BKN060 OVC075 08/M06 A2997 RMK AO2 SLP120 T00781061 55003 $","lat":41.2727,"lon":-111.0305,"elev":2178,"name":"Evanston/Uinta Cnty, WY, US","cover":"OVC","clouds":[{"cover":"BKN","base":6000},{"cover":"OVC","base":7500}],"fltCat":"VFR"},{"icaoId":"KAMA","receiptTime":"2026-04-14T20:56:28.337Z","obsTime":1776199980,"reportTime":"2026-04-14T21:00:00.000Z","temp":27.2,"dewp":1.1,"wdir":200,"wspd":24,"wgst":36,"visib":"10+","altim":1010.9,"slp":1006,"qcField":4,"presTend":-2.1,"metarType":"METAR","rawOb":"METAR KAMA 142053Z 20024G36KT 10SM CLR 27/01 A2985 RMK AO2 PK WND 21036/2048 SLP060 T02720011 58021","lat":35.2203,"lon":-101.7173,"elev":1102,"name":"Amarillo Intl Arpt, TX, US","cover":"CLR","clouds":[],"fltCat":"VFR"},{"icaoId":"KSWO","receiptTime":"2026-04-14T20:56:27.729Z","obsTime":1776199980,"reportTime":"2026-04-14T21:00:00.000Z","temp":28.9,"dewp":19.4,"wdir":200,"wspd":15,"wgst":27,"visib":"10+","altim":1009.2,"slp":1007.8,"qcField":4,"presTend":-1.9,"metarType":"METAR","rawOb":"METAR KSWO 142053Z 20015G27KT 10SM CLR 29/19 A2980 RMK AO2 PK WND 20028/2031 SLP078 T02890194 58019","lat":36.1624,"lon":-97.0832,"elev":293,"name":"Stillwater Muni, OK, US","cover":"CLR","clouds":[],"fltCat":"VFR"},{"icaoId":"KASE","receiptTime":"2026-04-14T20:56:28.457Z","obsTime":1776199980,"reportTime":"2026-04-14T21:00:00.000Z","temp":6.7,"dewp":-8.3,"wdir":270,"wspd":10,"wgst":19,"visib":"10+","altim":1013.6,"slp":1007.6,"qcField":4,"presTend":0.7,"metarType":"METAR","rawOb":"METAR KASE 142053Z 27010G19KT 10SM BKN080 BKN095 07/M08 A2993 RMK AO2 SLP076 T00671083 53007","lat":39.2299,"lon":-106.8705,"elev":2384,"name":"Aspen/Pitkin Cnty, CO, US","cover":"BKN","clouds":[{"cover":"BKN","base":8000},{"cover":"BKN","base":9500}],"fltCat":"VFR"},{"icaoId":"KAUS","receiptTime":"2026-04-14T20:56:28.495Z","obsTime":1776199980,"reportTime":"2026-04-14T21:00:00.000Z","temp":30,"dewp":18.9,"wdir":150,"wspd":14,"visib":"10+","altim":1013.6,"slp":1012.5,"qcField":4,"presTend":-2.6,"metarType":"METAR","rawOb":"METAR KAUS 142053Z 15014KT 10SM SCT048 BKN060 BKN070 30/19 A2993 RMK AO2 CIG 048 RWY17R SLP125 T03000189 56026","lat":30.1831,"lon":-97.6806,"elev":148,"name":"Austin/Bergstrom Intl, TX, US","cover":"BKN","clouds":[{"cover":"SCT","base":4800},{"cover":"BKN","base":6000},{"cover":"BKN","base":7000}],"fltCat":"VFR"},{"icaoId":"KBRO","receiptTime":"2026-04-14T20:56:28.673Z","obsTime":1776199980,"reportTime":"2026-04-14T21:00:00.000Z","temp":30,"dewp":20.6,"wdir":150,"wspd":19,"wgst":29,"visib":"10+","altim":1014,"slp":1013.7,"qcField":4,"presTend":-1,"metarType":"METAR","rawOb":"METAR KBRO 142053Z 15019G29KT 10SM BKN033 30/21 A2994 RMK AO2 PK WND 16030/2017 SLP137 T03000206 56010","lat":25.9146,"lon":-97.4231,"elev":6,"name":"Brownsville Intl, TX, US","cover":"BKN","clouds":[{"cover":"BKN","base":3300}],"fltCat":"VFR"},{"icaoId":"KOAK","receiptTime":"2026-04-14T20:56:28.922Z","obsTime":1776199980,"reportTime":"2026-04-14T21:00:00.000Z","temp":16.7,"dewp":7.8,"wdir":250,"wspd":12,"visib":"10+","altim":1023.1,"slp":1023.1,"qcField":12,"presTend":-0.6,"metarType":"METAR","rawOb":"METAR KOAK 142053Z 25012KT 10SM SCT030 SCT250 17/08 A3021 RMK AO2 SLP231 T01670078 58006 $","lat":37.7178,"lon":-122.233,"elev":3,"name":"Oakland Intl, CA, US","cover":"SCT","clouds":[{"cover":"SCT","base":3000},{"cover":"SCT","base":25000}],"fltCat":"VFR"},{"icaoId":"KPSC","receiptTime":"2026-04-14T20:56:29.329Z","obsTime":1776199980,"reportTime":"2026-04-14T21:00:00.000Z","temp":13.3,"dewp":1.1,"wdir":230,"wspd":21,"wgst":31,"visib":"10+","altim":1014.6,"slp":1014.6,"qcField":4,"presTend":-1.1,"metarType":"METAR","rawOb":"METAR KPSC 142053Z 23021G31KT 10SM BKN100 13/01 A2996 RMK AO2 PK WND 22032/2012 SLP146 T01330011 56011","lat":46.2695,"lon":-119.1182,"elev":121,"name":"Pasco/Tri Cities Arpt, WA, US","cover":"BKN","clouds":[{"cover":"BKN","base":10000}],"fltCat":"VFR"},{"icaoId":"KRDD","receiptTime":"2026-04-14T20:56:29.407Z","obsTime":1776199980,"reportTime":"2026-04-14T21:00:00.000Z","temp":18.3,"dewp":7.8,"wdir":200,"wspd":7,"visib":"10+","altim":1020.1,"slp":1019.7,"qcField":4,"presTend":-1.5,"metarType":"METAR","rawOb":"METAR KRDD 142053Z 20007KT 10SM SCT042 SCT055 18/08 A3012 RMK AO2 SLP197 T01830078 58015","lat":40.5146,"lon":-122.2977,"elev":152,"name":"Redding Muni, CA, US","cover":"SCT","clouds":[{"cover":"SCT","base":4200},{"cover":"SCT","base":5500}],"fltCat":"VFR"},{"icaoId":"KLOL","receiptTime":"2026-04-14T20:56:29.603Z","obsTime":1776199980,"reportTime":"2026-04-14T21:00:00.000Z","temp":16.1,"dewp":-4.4,"wdir":240,"wspd":8,"visib":"10+","altim":1017.4,"slp":1016.5,"qcField":6,"presTend":-1.4,"metarType":"METAR","rawOb":"METAR KLOL 142053Z AUTO 24008KT 210V280 10SM CLR 16/M04 A3004 RMK AO2 SLP165 T01611044 58014","lat":40.0684,"lon":-118.5702,"elev":1191,"name":"Lovelock/Derby Fld, NV, US","cover":"CLR","clouds":[],"fltCat":"VFR"},{"icaoId":"KMAF","receiptTime":"2026-04-14T20:56:29.718Z","obsTime":1776199980,"reportTime":"2026-04-14T21:00:00.000Z","temp":29.4,"dewp":7.8,"wdir":170,"wspd":12,"wgst":24,"visib":"10+","altim":1011.6,"slp":1006.8,"qcField":4,"presTend":-2.6,"metarType":"METAR","rawOb":"METAR KMAF 142053Z 17012G24KT 10SM CLR 29/08 A2987 RMK AO2 SLP068 T02940078 56026","lat":31.9475,"lon":-102.2086,"elev":874,"name":"Midland Intl, TX, US","cover":"CLR","clouds":[],"fltCat":"VFR"},{"icaoId":"KMCO","receiptTime":"2026-04-14T20:56:29.820Z","obsTime":1776199980,"reportTime":"2026-04-14T21:00:00.000Z","temp":28.3,"dewp":11.7,"wdir":120,"wspd":10,"wgst":16,"visib":"10+","altim":1021.8,"slp":1021.4,"qcField":4,"presTend":-1.6,"metarType":"METAR","rawOb":"METAR KMCO 142053Z 12010G16KT 10SM FEW055 28/12 A3017 RMK AO2 SLP214 T02830117 56016","lat":28.4182,"lon":-81.3241,"elev":27,"name":"Orlando Intl, FL, US","cover":"FEW","clouds":[{"cover":"FEW","base":5500}],"fltCat":"VFR"},{"icaoId":"KMFR","receiptTime":"2026-04-14T20:56:29.858Z","obsTime":1776199980,"reportTime":"2026-04-14T21:00:00.000Z","temp":15,"dewp":3.9,"wdir":"VRB","wspd":5,"visib":"10+","altim":1019.4,"slp":1019.3,"qcField":4,"presTend":-1.5,"metarType":"METAR","rawOb":"METAR KMFR 142053Z VRB05KT 10SM CLR 15/04 A3010 RMK AO2 SLP193 T01500039 58015","lat":42.375,"lon":-122.877,"elev":397,"name":"Medford/Rogue Valley Intl, OR, US","cover":"CLR","clouds":[],"fltCat":"VFR"},{"icaoId":"KMLC","receiptTime":"2026-04-14T20:56:29.941Z","obsTime":1776199980,"reportTime":"2026-04-14T21:00:00.000Z","temp":25.6,"dewp":19.4,"wdir":200,"wspd":9,"wgst":20,"visib":"10+","altim":1013.3,"slp":1012.3,"qcField":6,"presTend":-0.8,"metarType":"METAR","rawOb":"METAR KMLC 142053Z AUTO 20009G20KT 150V230 10SM SCT028 BKN034 OVC047 26/19 A2992 RMK AO2 SLP123 T02560194 58008","lat":34.8824,"lon":-95.7815,"elev":231,"name":"McAlester Rgnl, OK, US","cover":"OVC","clouds":[{"cover":"SCT","base":2800},{"cover":"BKN","base":3400},{"cover":"OVC","base":4700}],"fltCat":"VFR"},{"icaoId":"KMLS","receiptTime":"2026-04-14T20:56:29.984Z","obsTime":1776199980,"reportTime":"2026-04-14T21:00:00.000Z","temp":17.2,"dewp":2.8,"wdir":280,"wspd":7,"visib":"10+","altim":1006.9,"slp":1006.5,"qcField":6,"presTend":-1.3,"metarType":"METAR","rawOb":"METAR KMLS 142053Z AUTO 28007KT 10SM FEW055 17/03 A2973 RMK AO2 SLP065 T01720028 56013","lat":46.4265,"lon":-105.8834,"elev":800,"name":"Miles City/Wiley Fld, MT, US","cover":"FEW","clouds":[{"cover":"FEW","base":5500}],"fltCat":"VFR"},{"icaoId":"KMOD","receiptTime":"2026-04-14T20:56:30.015Z","obsTime":1776199980,"reportTime":"2026-04-14T21:00:00.000Z","temp":21.1,"dewp":7.8,"wdir":290,"wspd":10,"visib":"10+","altim":1020.4,"slp":1020.4,"qcField":4,"presTend":-1.5,"metarType":"METAR","rawOb":"METAR KMOD 142053Z 29010KT 10SM SCT047 21/08 A3013 RMK AO2 SLP204 T02110078 58015","lat":37.6254,"lon":-120.9549,"elev":25,"name":"Modesto/Sham Fld, CA, US","cover":"SCT","clouds":[{"cover":"SCT","base":4700}],"fltCat":"VFR"},{"icaoId":"KMSP","receiptTime":"2026-04-14T20:56:30.075Z","obsTime":1776199980,"reportTime":"2026-04-14T21:00:00.000Z","temp":16.7,"dewp":8.9,"wdir":10,"wspd":8,"visib":"10+","altim":1005.8,"slp":1005.7,"qcField":4,"presTend":-0.4,"metarType":"METAR","rawOb":"METAR KMSP 142053Z 01008KT 10SM SCT110 BKN140 BKN250 17/09 A2970 RMK AO2 SLP057 VIRGA T01670089 58004","lat":44.8852,"lon":-93.2313,"elev":255,"name":"Minneapolis-St Paul Intl, MN, US","cover":"BKN","clouds":[{"cover":"SCT","base":11000},{"cover":"BKN","base":14000},{"cover":"BKN","base":25000}],"fltCat":"VFR"},{"icaoId":"KMYF","receiptTime":"2026-04-14T20:56:31.329Z","obsTime":1776199980,"reportTime":"2026-04-14T21:00:00.000Z","temp":20.6,"dewp":6.1,"wdir":260,"wspd":11,"wgst":18,"visib":"10+","altim":1018.7,"slp":1018.2,"qcField":4,"presTend":-1.5,"metarType":"METAR","rawOb":"METAR KMYF 142053Z 26011G18KT 10SM CLR 21/06 A3008 RMK AO2 SLP182 T02060061 58015","lat":32.8145,"lon":-117.1375,"elev":128,"name":"San Diego/Montgomery Arpt, CA, US","cover":"CLR","clouds":[],"fltCat":"VFR"},{"icaoId":"KGJT","receiptTime":"2026-04-14T20:56:31.585Z","obsTime":1776199980,"reportTime":"2026-04-14T21:00:00.000Z","temp":7.8,"dewp":2.2,"wdir":330,"wspd":11,"visib":"10+","altim":1014.6,"slp":1012.9,"qcField":4,"wxString":"-RA","presTend":0.7,"precip":0.01,"pcp3hr":0.01,"metarType":"METAR","rawOb":"METAR KGJT 142053Z 33011KT 10SM -RA FEW021 BKN065 BKN080 08/02 A2996 RMK AO2 RAB08 SLP129 P0001 60001 T00780022 53007","lat":39.1344,"lon":-108.5408,"elev":1475,"name":"Grand Junction Rgnl, CO, US","cover":"BKN","clouds":[{"cover":"FEW","base":2100},{"cover":"BKN","base":6500},{"cover":"BKN","base":8000}],"fltCat":"VFR"},{"icaoId":"KHOU","receiptTime":"2026-04-14T20:56:31.871Z","obsTime":1776199980,"reportTime":"2026-04-14T21:00:00.000Z","temp":28.3,"dewp":19.4,"wdir":160,"wspd":14,"wgst":22,"visib":"10+","altim":1016.3,"slp":1016.8,"qcField":12,"presTend":-1.5,"metarType":"METAR","rawOb":"METAR KHOU 142053Z 16014G22KT 10SM BKN035 BKN060 28/19 A3001 RMK AO2 SLP168 T02830194 58015 $","lat":29.6458,"lon":-95.2821,"elev":13,"name":"Houston/Hobby Arpt, TX, US","cover":"BKN","clouds":[{"cover":"BKN","base":3500},{"cover":"BKN","base":6000}],"fltCat":"VFR"},{"icaoId":"KGTF","receiptTime":"2026-04-14T20:56:32.454Z","obsTime":1776199980,"reportTime":"2026-04-14T21:00:00.000Z","temp":14.4,"dewp":-4.4,"wdir":240,"wspd":26,"wgst":36,"visib":"10+","altim":1005.5,"slp":1005.5,"qcField":4,"presTend":-1.9,"metarType":"METAR","rawOb":"METAR KGTF 142053Z 24026G36KT 10SM CLR 14/M04 A2969 RMK AO2 PK WND 24038/2043 SLP055 T01441044 56019","lat":47.4733,"lon":-111.3828,"elev":1117,"name":"Great Falls Intl, MT, US","cover":"CLR","clouds":[],"fltCat":"VFR"},{"icaoId":"KHIO","receiptTime":"2026-04-14T20:56:32.573Z","obsTime":1776199980,"reportTime":"2026-04-14T21:00:00.000Z","temp":8.9,"dewp":6.1,"wdir":190,"wspd":11,"wgst":19,"visib":"10+","altim":1017.4,"slp":1017.3,"qcField":4,"wxString":"-RA","presTend":-1.3,"precip":0.02,"pcp3hr":0.02,"metarType":"METAR","rawOb":"METAR KHIO 142053Z 19011G19KT 10SM -RA SCT021 SCT026 OVC037 09/06 A3004 RMK AO2 PK WND 18027/2008 SLP173 P0002 60002 T00890061 56013","lat":45.5476,"lon":-122.9557,"elev":62,"name":"Portland/Hillsboro Arpt, OR, US","cover":"OVC","clouds":[{"cover":"SCT","base":2100},{"cover":"SCT","base":2600},{"cover":"OVC","base":3700}],"fltCat":"VFR"},{"icaoId":"KDRO","receiptTime":"2026-04-14T20:56:33.198Z","obsTime":1776199980,"reportTime":"2026-04-14T21:00:00.000Z","temp":7.8,"dewp":-3.3,"wdir":250,"wspd":7,"wgst":27,"visib":"10+","altim":1017,"slp":1014.9,"qcField":6,"presTend":-0.4,"precip":0.005,"pcp3hr":0.005,"metarType":"METAR","rawOb":"METAR KDRO 142053Z AUTO 25007G27KT 10SM FEW048 BKN060 OVC090 08/M03 A3003 RMK AO2 PK WND 25027/2050 RAB43E52 SLP149 P0000 60000 T00781033 55004","lat":37.1431,"lon":-107.7602,"elev":2021,"name":"Durango/La Plata Cnty, CO, US","cover":"OVC","clouds":[{"cover":"FEW","base":4800},{"cover":"BKN","base":6000},{"cover":"OVC","base":9000}],"fltCat":"VFR"},{"icaoId":"KFUL","receiptTime":"2026-04-14T20:56:33.532Z","obsTime":1776199980,"reportTime":"2026-04-14T21:00:00.000Z","temp":21.7,"dewp":10.6,"wdir":180,"wspd":7,"wgst":15,"visib":"10+","altim":1018,"slp":1017.7,"qcField":4,"presTend":-1.9,"metarType":"METAR","rawOb":"METAR KFUL 142053Z 18007G15KT 10SM CLR 22/11 A3006 RMK AO2 SLP177 T02170106 58019","lat":33.8715,"lon":-117.9856,"elev":23,"name":"Fullerton Muni, CA, US","cover":"CLR","clouds":[],"fltCat":"VFR"},{"icaoId":"KVGT","receiptTime":"2026-04-14T20:56:33.704Z","obsTime":1776199980,"reportTime":"2026-04-14T21:00:00.000Z","temp":21.1,"dewp":-3.9,"wdir":0,"wspd":0,"visib":"10+","altim":1015.7,"slp":1016.2,"qcField":4,"presTend":-1.3,"metarType":"METAR","rawOb":"METAR KVGT 142053Z 00000KT 10SM FEW100 21/M04 A2999 RMK AO2 SLP162 T02111039 58013","lat":36.212,"lon":-115.194,"elev":664,"name":"Las Vegas/North Arpt, NV, US","cover":"FEW","clouds":[{"cover":"FEW","base":10000}],"fltCat":"VFR"},{"icaoId":"KACV","receiptTime":"2026-04-14T20:56:34.259Z","obsTime":1776199980,"reportTime":"2026-04-14T21:00:00.000Z","temp":12.8,"dewp":5.6,"wdir":310,"wspd":11,"visib":"10+","altim":1023.8,"slp":1024.3,"qcField":6,"presTend":-0.2,"metarType":"METAR","rawOb":"METAR KACV 142053Z AUTO 31011KT 10SM FEW040 13/06 A3023 RMK AO2 SLP243 T01280056 58002","lat":40.9784,"lon":-124.1048,"elev":63,"name":"Arcata Arpt, CA, US","cover":"FEW","clouds":[{"cover":"FEW","base":4000}],"fltCat":"VFR"},{"icaoId":"KELY","receiptTime":"2026-04-14T20:56:35.471Z","obsTime":1776199980,"reportTime":"2026-04-14T21:00:00.000Z","temp":10,"dewp":-5,"wdir":"VRB","wspd":3,"visib":"10+","altim":1018.4,"slp":1016.2,"qcField":6,"metarType":"METAR","rawOb":"METAR KELY 142053Z AUTO VRB03KT 10SM BKN065 10/M05 A3007 RMK AO2 SLP162 T01001050 58000","lat":39.2954,"lon":-114.8466,"elev":1906,"name":"Ely/Yelland Fld, NV, US","cover":"BKN","clouds":[{"cover":"BKN","base":6500}],"fltCat":"VFR"},{"icaoId":"KBCE","receiptTime":"2026-04-14T20:56:36.082Z","obsTime":1776199980,"reportTime":"2026-04-14T21:00:00.000Z","temp":5,"dewp":-1.7,"wdir":320,"wspd":16,"visib":"10+","altim":1018.4,"slp":1013.7,"qcField":6,"presTend":0.7,"pcp3hr":0.005,"metarType":"METAR","rawOb":"METAR KBCE 142053Z AUTO 32016KT 10SM BKN050 05/M02 A3007 RMK AO2 PK WND 30026/2031 SLP137 60000 T00501017 51007","lat":37.7013,"lon":-112.149,"elev":2311,"name":"Bryce Canyon Arpt, UT, US","cover":"BKN","clouds":[{"cover":"BKN","base":5000}],"fltCat":"VFR"},{"icaoId":"KBFI","receiptTime":"2026-04-14T20:56:36.122Z","obsTime":1776199980,"reportTime":"2026-04-14T21:00:00.000Z","temp":8.9,"dewp":6.7,"wdir":180,"wspd":14,"wgst":24,"visib":6,"altim":1013.3,"slp":1013.2,"qcField":4,"wxString":"-RA BR","presTend":-1.3,"precip":0.03,"pcp3hr":0.04,"metarType":"METAR","rawOb":"METAR KBFI 142053Z 18014G24KT 6SM -RA BR BKN016 BKN026 OVC050 09/07 A2992 RMK AO2 SLP132 P0003 60004 T00890067 57013","lat":47.5455,"lon":-122.3148,"elev":7,"name":"Seattle/Boeing Fld, WA, US","cover":"OVC","clouds":[{"cover":"BKN","base":1600},{"cover":"BKN","base":2600},{"cover":"OVC","base":5000}],"fltCat":"MVFR"},{"icaoId":"KCDC","receiptTime":"2026-04-14T20:56:36.510Z","obsTime":1776199980,"reportTime":"2026-04-14T21:00:00.000Z","temp":8.9,"dewp":-0.6,"wdir":60,"wspd":8,"visib":"10+","altim":1018,"slp":1016.5,"qcField":6,"presTend":0.2,"metarType":"METAR","rawOb":"METAR KCDC 142053Z AUTO 06008KT 10SM FEW045 BKN070 BKN080 09/M01 A3006 RMK AO2 SLP165 T00891006 53002","lat":37.7067,"lon":-113.097,"elev":1703,"name":"Cedar City Muni, UT, US","cover":"BKN","clouds":[{"cover":"FEW","base":4500},{"cover":"BKN","base":7000},{"cover":"BKN","base":8000}],"fltCat":"VFR"},{"icaoId":"KMTJ","receiptTime":"2026-04-14T20:56:36.974Z","obsTime":1776199980,"reportTime":"2026-04-14T21:00:00.000Z","temp":10,"dewp":-2.2,"wdir":180,"wspd":6,"visib":"10+","altim":1015.3,"slp":1011.7,"qcField":6,"presTend":0.5,"precip":0.01,"pcp3hr":0.01,"metarType":"METAR","rawOb":"METAR KMTJ 142053Z AUTO 18006KT 10SM FEW080 SCT110 10/M02 A2998 RMK AO2 RAB1958E15 SLP117 P0001 60001 T01001022 50005","lat":38.5054,"lon":-107.8981,"elev":1755,"name":"Montrose Rgnl, CO, US","cover":"SCT","clouds":[{"cover":"FEW","base":8000},{"cover":"SCT","base":11000}],"fltCat":"VFR"},{"icaoId":"KVEL","receiptTime":"2026-04-14T20:56:37.336Z","obsTime":1776199980,"reportTime":"2026-04-14T21:00:00.000Z","temp":6.7,"dewp":1.7,"wdir":240,"wspd":8,"visib":"10+","altim":1015,"slp":1013.6,"qcField":6,"presTend":1.1,"metarType":"METAR","rawOb":"METAR KVEL 142053Z AUTO 24008KT 10SM FEW015 BKN055 07/02 A2997 RMK AO2 SLP136 T00670017 51011","lat":40.4429,"lon":-109.5128,"elev":1604,"name":"Vernal Rgnl, UT, US","cover":"BKN","clouds":[{"cover":"FEW","base":1500},{"cover":"BKN","base":5500}],"fltCat":"VFR"},{"icaoId":"KSHR","receiptTime":"2026-04-14T20:56:38.044Z","obsTime":1776199980,"reportTime":"2026-04-14T21:00:00.000Z","temp":15,"dewp":-2.2,"wdir":0,"wspd":0,"visib":"10+","altim":1008.2,"slp":1007.7,"qcField":6,"presTend":-1.6,"metarType":"METAR","rawOb":"METAR KSHR 142053Z AUTO 00000KT 10SM CLR 15/M02 A2977 RMK AO2 SLP077 T01501022 56016","lat":44.7603,"lon":-106.9741,"elev":1212,"name":"Sheridan Cnty Arpt, WY, US","cover":"CLR","clouds":[],"fltCat":"VFR"},{"icaoId":"KSEA","receiptTime":"2026-04-14T20:56:39.536Z","obsTime":1776199980,"reportTime":"2026-04-14T21:00:00.000Z","temp":7.8,"dewp":6.1,"wdir":190,"wspd":12,"wgst":24,"visib":5,"altim":1013,"slp":1013.7,"qcField":4,"wxString":"-RA BR","presTend":-1.2,"precip":0.03,"pcp3hr":0.08,"metarType":"METAR","rawOb":"METAR KSEA 142053Z 19012G24KT 5SM -RA BR FEW015 BKN025 OVC031 08/06 A2991 RMK AO2 PK WND 19030/2039 SLP137 P0003 60008 T00780061 58012","lat":47.4447,"lon":-122.3144,"elev":115,"name":"Seattle-Tacoma Intl, WA, US","cover":"OVC","clouds":[{"cover":"FEW","base":1500},{"cover":"BKN","base":2500},{"cover":"OVC","base":3100}],"fltCat":"MVFR"},{"icaoId":"KYKM","receiptTime":"2026-04-14T20:56:39.580Z","obsTime":1776199980,"reportTime":"2026-04-14T21:00:00.000Z","temp":11.7,"dewp":0.6,"wdir":180,"wspd":17,"wgst":26,"visib":"10+","altim":1011.9,"slp":1012.2,"qcField":4,"presTend":-2.6,"metarType":"METAR","rawOb":"METAR KYKM 142053Z 18017G26KT 10SM FEW075 SCT100 12/01 A2988 RMK AO2 PK WND 18027/2042 SLP122 T01170006 58026","lat":46.564,"lon":-120.5349,"elev":319,"name":"Yakima/McAllister Fld, WA, US","cover":"SCT","clouds":[{"cover":"FEW","base":7500},{"cover":"SCT","base":10000}],"fltCat":"VFR"},{"icaoId":"KFAT","receiptTime":"2026-04-14T20:56:35.541Z","obsTime":1776199980,"reportTime":"2026-04-14T21:00:00.000Z","temp":20.6,"dewp":6.7,"wdir":320,"wspd":8,"wgst":15,"visib":"10+","altim":1020.4,"slp":1020.2,"qcField":4,"presTend":-1.4,"metarType":"METAR","rawOb":"METAR KFAT 142053Z 32008G15KT 10SM SCT047 BKN200 21/07 A3013 RMK AO2 SLP202 T02060067 58014","lat":36.78,"lon":-119.7202,"elev":102,"name":"Fresno/Yosemite Intl, CA, US","cover":"BKN","clouds":[{"cover":"SCT","base":4700},{"cover":"BKN","base":20000}],"fltCat":"VFR"},{"icaoId":"KSDL","receiptTime":"2026-04-14T20:56:27.600Z","obsTime":1776199980,"reportTime":"2026-04-14T21:00:00.000Z","temp":23.9,"dewp":-2.2,"wdir":250,"wspd":10,"visib":"10+","altim":1016,"slp":1014.1,"qcField":4,"presTend":-1.4,"metarType":"METAR","rawOb":"METAR KSDL 142053Z 25010KT 10SM CLR 24/M02 A3000 RMK AO2 SLP141 T02391022 58014","lat":33.6123,"lon":-111.9232,"elev":438,"name":"Scottsdale Muni, AZ, US","cover":"CLR","clouds":[],"fltCat":"VFR"},{"icaoId":"KCYS","receiptTime":"2026-04-14T20:56:33.058Z","obsTime":1776199980,"reportTime":"2026-04-14T21:00:00.000Z","temp":11.7,"dewp":-4.4,"wdir":200,"wspd":19,"wgst":27,"visib":"10+","altim":1011.3,"slp":1006.4,"qcField":4,"presTend":0.2,"metarType":"METAR","rawOb":"METAR KCYS 142053Z 20019G27KT 10SM FEW100 12/M04 A2986 RMK AO2 PK WND 21030/2020 SLP064 T01171044 53002","lat":41.1579,"lon":-104.8081,"elev":1868,"name":"Cheyenne Rgnl, WY, US","cover":"FEW","clouds":[{"cover":"FEW","base":10000}],"fltCat":"VFR"},{"icaoId":"KDAL","receiptTime":"2026-04-14T20:56:35.146Z","obsTime":1776199980,"reportTime":"2026-04-14T21:00:00.000Z","temp":26.1,"dewp":18.9,"wdir":180,"wspd":14,"wgst":26,"visib":"10+","altim":1014,"slp":1013.2,"qcField":4,"presTend":-1.9,"metarType":"METAR","rawOb":"METAR KDAL 142053Z 18014G26KT 10SM FEW028 BKN035 OVC049 26/19 A2994 RMK AO2 PK WND 17026/2049 SLP132 T02610189 56019","lat":32.8384,"lon":-96.8358,"elev":148,"name":"Dallas/Love Fld, TX, US","cover":"OVC","clouds":[{"cover":"FEW","base":2800},{"cover":"BKN","base":3500},{"cover":"OVC","base":4900}],"fltCat":"VFR"},{"icaoId":"KMSO","receiptTime":"2026-04-14T20:58:09.616Z","obsTime":1776199980,"reportTime":"2026-04-14T21:00:00.000Z","temp":12.2,"dewp":-2.8,"wdir":290,"wspd":14,"wgst":23,"visib":"10+","altim":1010.6,"slp":1011.1,"qcField":5,"presTend":-1.4,"metarType":"METAR","rawOb":"METAR KMSO 142053Z COR 29014G23KT 10SM BKN065 12/M03 A2984 RMK AO2 SLP111 T01221028 56014","lat":46.9208,"lon":-114.0938,"elev":974,"name":"Missoula Intl, MT, US","cover":"BKN","clouds":[{"cover":"BKN","base":6500}],"fltCat":"VFR"},{"icaoId":"KBUR","receiptTime":"2026-04-14T20:56:28.707Z","obsTime":1776199980,"reportTime":"2026-04-14T21:00:00.000Z","temp":21.1,"dewp":6.7,"wdir":"VRB","wspd":4,"visib":"10+","altim":1018,"slp":1017.1,"qcField":4,"presTend":-1.9,"metarType":"METAR","rawOb":"METAR KBUR 142053Z VRB04KT 10SM CLR 21/07 A3006 RMK AO2 SLP171 T02110067 58019","lat":34.1996,"lon":-118.3654,"elev":221,"name":"Burbank/Bob Hope Arpt, CA, US","cover":"CLR","clouds":[],"fltCat":"VFR"},{"icaoId":"KSJC","receiptTime":"2026-04-14T20:56:38.078Z","obsTime":1776199980,"reportTime":"2026-04-14T21:00:00.000Z","temp":17.2,"dewp":8.3,"wdir":340,"wspd":10,"visib":"10+","altim":1022.1,"slp":1021.9,"qcField":12,"presTend":-1.3,"metarType":"METAR","rawOb":"METAR KSJC 142053Z 34010KT 10SM FEW038 FEW048 SCT075 17/08 A3018 RMK AO2 SLP219 T01720083 58013 $","lat":37.3594,"lon":-121.9244,"elev":13,"name":"San Jose Intl Arpt, CA, US","cover":"SCT","clouds":[{"cover":"FEW","base":3800},{"cover":"FEW","base":4800},{"cover":"SCT","base":7500}],"fltCat":"VFR"},{"icaoId":"KBLI","receiptTime":"2026-04-14T20:56:36.269Z","obsTime":1776199980,"reportTime":"2026-04-14T21:00:00.000Z","temp":8.3,"dewp":6.1,"wdir":170,"wspd":14,"wgst":27,"visib":"10+","altim":1009.6,"slp":1010.3,"qcField":4,"wxString":"-RA","presTend":-1.9,"precip":0.01,"pcp3hr":0.06,"metarType":"METAR","rawOb":"METAR KBLI 142053Z 17014G27KT 10SM -RA BKN019 OVC028 08/06 A2981 RMK AO2 PK WND 17031/2043 SLP103 P0001 60006 T00830061 58019","lat":48.7991,"lon":-122.5407,"elev":46,"name":"Bellingham Intl, WA, US","cover":"OVC","clouds":[{"cover":"BKN","base":1900},{"cover":"OVC","base":2800}],"fltCat":"MVFR"},{"icaoId":"KLAW","receiptTime":"2026-04-14T20:56:32.179Z","obsTime":1776199980,"reportTime":"2026-04-14T21:00:00.000Z","temp":25,"dewp":21.1,"wdir":150,"wspd":12,"wgst":19,"visib":"10+","altim":1010.2,"slp":1009.2,"qcField":4,"wxString":"-RA","presTend":-2.1,"precip":0.005,"pcp3hr":0.005,"metarType":"METAR","rawOb":"METAR KLAW 142053Z 15012G19KT 10SM -RA FEW037 SCT075 BKN095 25/21 A2983 RMK AO2 RAB41 SLP092 P0000 60000 T02500211 58021","lat":34.5577,"lon":-98.4172,"elev":328,"name":"Lawton-Fort Sill Rgnl, OK, US","cover":"BKN","clouds":[{"cover":"FEW","base":3700},{"cover":"SCT","base":7500},{"cover":"BKN","base":9500}],"fltCat":"VFR"},{"icaoId":"KMFE","receiptTime":"2026-04-14T20:56:31.069Z","obsTime":1776199980,"reportTime":"2026-04-14T21:00:00.000Z","temp":31.7,"dewp":20.6,"wdir":150,"wspd":17,"wgst":28,"visib":"10+","altim":1012.6,"slp":1012.1,"qcField":4,"presTend":-2.1,"metarType":"METAR","rawOb":"METAR KMFE 142053Z 15017G28KT 10SM FEW039 32/21 A2990 RMK AO2 PK WND 15030/2025 SLP121 T03170206 56021","lat":26.1791,"lon":-98.2445,"elev":29,"name":"McAllen/Miller Intl, TX, US","cover":"FEW","clouds":[{"cover":"FEW","base":3900}],"fltCat":"VFR"},{"icaoId":"KOGD","receiptTime":"2026-04-14T20:56:28.937Z","obsTime":1776199980,"reportTime":"2026-04-14T21:00:00.000Z","temp":11.7,"dewp":0,"wdir":350,"wspd":9,"visib":"10+","altim":1015.7,"slp":1013.9,"qcField":4,"presTend":-0.1,"metarType":"METAR","rawOb":"METAR KOGD 142053Z 35009KT 10SM SCT049 OVC070 12/00 A2999 RMK AO2 SLP139 T01170000 55001","lat":41.1941,"lon":-112.0168,"elev":1356,"name":"Ogden/Hinckley Arpt, UT, US","cover":"OVC","clouds":[{"cover":"SCT","base":4900},{"cover":"OVC","base":7000}],"fltCat":"VFR"},{"icaoId":"KSBA","receiptTime":"2026-04-14T20:56:27.571Z","obsTime":1776199980,"reportTime":"2026-04-14T21:00:00.000Z","temp":18.9,"dewp":9.4,"wdir":150,"wspd":7,"visib":"10+","altim":1019,"slp":1018.8,"qcField":12,"presTend":-0.9,"metarType":"METAR","rawOb":"METAR KSBA 142053Z 15007KT 10SM CLR 19/09 A3009 RMK AO2 SLP188 T01890094 58009 $","lat":34.4241,"lon":-119.8425,"elev":2,"name":"Santa Barbara Muni, CA, US","cover":"CLR","clouds":[],"fltCat":"VFR"},{"icaoId":"KCPR","receiptTime":"2026-04-14T20:56:32.964Z","obsTime":1776199980,"reportTime":"2026-04-14T21:00:00.000Z","temp":15.6,"dewp":-8.9,"wdir":290,"wspd":8,"wgst":17,"visib":"10+","altim":1008.5,"slp":1005.9,"qcField":4,"presTend":-1.6,"metarType":"METAR","rawOb":"METAR KCPR 142053Z 29008G17KT 10SM CLR 16/M09 A2978 RMK AO2 SLP059 T01561089 57016","lat":42.8978,"lon":-106.4736,"elev":1623,"name":"Casper/Natrona Cnty, WY, US","cover":"CLR","clouds":[],"fltCat":"VFR"},{"icaoId":"KGEG","receiptTime":"2026-04-14T20:56:35.608Z","obsTime":1776199980,"reportTime":"2026-04-14T21:00:00.000Z","temp":7.8,"dewp":-0.6,"wdir":210,"wspd":18,"wgst":25,"visib":"10+","altim":1012.6,"slp":1013.5,"qcField":4,"presTend":-0.8,"metarType":"METAR","rawOb":"METAR KGEG 142053Z 21018G25KT 10SM SCT032 OVC090 08/M01 A2990 RMK AO2 PK WND 22026/1956 SLP135 T00781006 58008","lat":47.6217,"lon":-117.528,"elev":718,"name":"Spokane Intl, WA, US","cover":"OVC","clouds":[{"cover":"SCT","base":3200},{"cover":"OVC","base":9000}],"fltCat":"VFR"},{"icaoId":"KPDX","receiptTime":"2026-04-14T20:56:35.879Z","obsTime":1776199980,"reportTime":"2026-04-14T21:00:00.000Z","temp":10.6,"dewp":5,"wdir":200,"wspd":12,"wgst":24,"visib":"10+","altim":1017.7,"slp":1017.4,"qcField":12,"presTend":-1.6,"precip":0.005,"pcp3hr":0.005,"metarType":"METAR","rawOb":"METAR KPDX 142053Z 20012G24KT 10SM BKN033 OVC050 11/05 A3005 RMK AO2 PK WND 22027/1957 RAB1956E51 SLP174 P0000 60000 T01060050 58016 $","lat":45.5958,"lon":-122.6092,"elev":7,"name":"Portland Intl, OR, US","cover":"OVC","clouds":[{"cover":"BKN","base":3300},{"cover":"OVC","base":5000}],"fltCat":"VFR"},{"icaoId":"KBHM","receiptTime":"2026-04-14T20:56:36.185Z","obsTime":1776199980,"reportTime":"2026-04-14T21:00:00.000Z","temp":29.4,"dewp":3.9,"wdir":250,"wspd":5,"wgst":15,"visib":"10+","altim":1021.1,"slp":1020.3,"qcField":4,"presTend":-2.1,"metarType":"METAR","rawOb":"METAR KBHM 142053Z 25005G15KT 10SM FEW250 29/04 A3015 RMK AO2 SLP203 T02940039 56021","lat":33.5655,"lon":-86.7449,"elev":191,"name":"Birmingham Intl, AL, US","cover":"FEW","clouds":[{"cover":"FEW","base":25000}],"fltCat":"VFR"},{"icaoId":"KBTM","receiptTime":"2026-04-14T20:56:36.427Z","obsTime":1776199980,"reportTime":"2026-04-14T21:00:00.000Z","temp":10,"dewp":-6.7,"wdir":260,"wspd":12,"wgst":21,"visib":"10+","altim":1010.2,"slp":1009.1,"qcField":6,"presTend":-1.2,"metarType":"METAR","rawOb":"METAR KBTM 142053Z AUTO 26012G21KT 10SM OVC065 10/M07 A2983 RMK AO2 SLP091 T01001067 56012","lat":45.9644,"lon":-112.5015,"elev":1680,"name":"Butte/Mooney Arpt, MT, US","cover":"OVC","clouds":[{"cover":"OVC","base":6500}],"fltCat":"VFR"},{"icaoId":"KRIW","receiptTime":"2026-04-14T20:56:37.183Z","obsTime":1776199980,"reportTime":"2026-04-14T21:00:00.000Z","temp":14.4,"dewp":-10.6,"wdir":260,"wspd":10,"wgst":17,"visib":"10+","altim":1009.2,"slp":1007.2,"qcField":6,"presTend":-1.4,"metarType":"METAR","rawOb":"METAR KRIW 142053Z AUTO 26010G17KT 10SM CLR 14/M11 A2980 RMK AO2 SLP072 T01441106 56014","lat":43.0622,"lon":-108.4471,"elev":1662,"name":"Riverton Rgnl, WY, US","cover":"CLR","clouds":[],"fltCat":"VFR"},{"icaoId":"KMCI","receiptTime":"2026-04-14T20:56:29.799Z","obsTime":1776199980,"reportTime":"2026-04-14T21:00:00.000Z","temp":30,"dewp":15,"wdir":220,"wspd":22,"wgst":39,"visib":"10+","altim":1005.8,"slp":1004.5,"qcField":4,"presTend":-0.9,"metarType":"METAR","rawOb":"METAR KMCI 142053Z 22022G39KT 10SM FEW060 SCT080 BKN200 30/15 A2970 RMK AO2 PK WND 22039/2050 SLP045 T03000150 56009","lat":39.2975,"lon":-94.7309,"elev":308,"name":"Kansas City Intl, MO, US","cover":"BKN","clouds":[{"cover":"FEW","base":6000},{"cover":"SCT","base":8000},{"cover":"BKN","base":20000}],"fltCat":"VFR"},{"icaoId":"KMSY","receiptTime":"2026-04-14T20:56:30.090Z","obsTime":1776199980,"reportTime":"2026-04-14T21:00:00.000Z","temp":26.7,"dewp":16.7,"wdir":200,"wspd":9,"visib":"10+","altim":1020.1,"slp":1020.2,"qcField":4,"presTend":-1.4,"metarType":"METAR","rawOb":"METAR KMSY 142053Z 20009KT 10SM SCT039 27/17 A3012 RMK AO2 SLP202 T02670167 56014","lat":29.9974,"lon":-90.2777,"elev":0,"name":"New Orleans/Armstrong Intl, LA, US","cover":"SCT","clouds":[{"cover":"SCT","base":3900}],"fltCat":"VFR"},{"icaoId":"KDVT","receiptTime":"2026-04-14T20:56:33.260Z","obsTime":1776199980,"reportTime":"2026-04-14T21:00:00.000Z","temp":22.8,"dewp":-2.2,"visib":"10+","altim":1015.7,"slp":1013.8,"qcField":4,"presTend":-1.5,"metarType":"METAR","rawOb":"METAR KDVT 142053Z 10SM CLR 23/M02 A2999 RMK AO2 SLP138 T02281022 58015","lat":33.6902,"lon":-112.0662,"elev":454,"name":"Phoenix/Deer Valley Arpt, AZ, US","cover":"CLR","clouds":[],"fltCat":"VFR"},{"icaoId":"KLGB","receiptTime":"2026-04-14T20:56:30.831Z","obsTime":1776199980,"reportTime":"2026-04-14T21:00:00.000Z","temp":21.1,"dewp":11.1,"wdir":180,"wspd":8,"visib":"10+","altim":1018.4,"slp":1018.2,"qcField":12,"presTend":-1.5,"metarType":"METAR","rawOb":"METAR KLGB 142053Z 18008KT 10SM CLR 21/11 A3007 RMK AO2 SLP182 T02110111 58015 $","lat":33.8118,"lon":-118.1472,"elev":10,"name":"Long Beach Arpt, CA, US","cover":"CLR","clouds":[],"fltCat":"VFR"},{"icaoId":"KONT","receiptTime":"2026-04-14T20:56:31.440Z","obsTime":1776199980,"reportTime":"2026-04-14T21:00:00.000Z","temp":21.1,"dewp":7.2,"wdir":240,"wspd":6,"visib":"10+","altim":1018,"slp":1017.3,"qcField":12,"presTend":-1.8,"metarType":"METAR","rawOb":"METAR KONT 142053Z 24006KT 10SM FEW055 FEW080 21/07 A3006 RMK AO2 SLP173 T02110072 58018 $","lat":34.0531,"lon":-117.5769,"elev":279,"name":"Ontario Intl, CA, US","cover":"FEW","clouds":[{"cover":"FEW","base":5500},{"cover":"FEW","base":8000}],"fltCat":"VFR"},{"icaoId":"KPRC","receiptTime":"2026-04-14T20:56:27.356Z","obsTime":1776199980,"reportTime":"2026-04-14T21:00:00.000Z","temp":13.3,"dewp":-1.7,"wdir":0,"wspd":0,"visib":"10+","altim":1018.4,"slp":1014.4,"qcField":4,"presTend":-0.6,"metarType":"METAR","rawOb":"METAR KPRC 142053Z 00000KT 10SM SCT060 13/M02 A3007 RMK AO2 SLP144 T01331017 58006","lat":34.6491,"lon":-112.4223,"elev":1528,"name":"Prescott/Love Fld, AZ, US","cover":"SCT","clouds":[{"cover":"SCT","base":6000}],"fltCat":"VFR"},{"icaoId":"KBNA","receiptTime":"2026-04-14T20:56:36.284Z","obsTime":1776199980,"reportTime":"2026-04-14T21:00:00.000Z","temp":28.3,"dewp":15,"wdir":200,"wspd":9,"visib":"10+","altim":1018.4,"slp":1017.7,"qcField":12,"presTend":-1.3,"metarType":"METAR","rawOb":"METAR KBNA 142053Z 20009KT 10SM BKN060 28/15 A3007 RMK AO2 SLP177 T02830150 58013 $","lat":36.1105,"lon":-86.6881,"elev":168,"name":"Nashville Intl, TN, US","cover":"BKN","clouds":[{"cover":"BKN","base":6000}],"fltCat":"VFR"},{"icaoId":"KCLL","receiptTime":"2026-04-14T20:56:35.406Z","obsTime":1776199980,"reportTime":"2026-04-14T21:00:00.000Z","temp":28.9,"dewp":19.4,"wdir":160,"wspd":13,"wgst":20,"visib":"10+","altim":1015,"slp":1014.5,"qcField":4,"presTend":-2.3,"metarType":"METAR","rawOb":"METAR KCLL 142053Z 16013G20KT 10SM SCT040 BKN060 29/19 A2997 RMK AO2 SLP145 T02890194 56023","lat":30.5912,"lon":-96.3631,"elev":96,"name":"College Station/Easterwood Arpt, TX, US","cover":"BKN","clouds":[{"cover":"SCT","base":4000},{"cover":"BKN","base":6000}],"fltCat":"VFR"},{"icaoId":"KPIH","receiptTime":"2026-04-14T20:56:29.232Z","obsTime":1776199980,"reportTime":"2026-04-14T21:00:00.000Z","temp":12.2,"dewp":-2.2,"wdir":260,"wspd":16,"wgst":24,"visib":"10+","altim":1015,"slp":1014.2,"qcField":4,"presTend":-0.8,"metarType":"METAR","rawOb":"METAR KPIH 142053Z 26016G24KT 10SM FEW060 BKN080 12/M02 A2997 RMK AO2 PK WND 26026/2030 SLP142 T01221022 58008","lat":42.9197,"lon":-112.5723,"elev":1357,"name":"Pocatello Rgnl, ID, US","cover":"BKN","clouds":[{"cover":"FEW","base":6000},{"cover":"BKN","base":8000}],"fltCat":"VFR"},{"icaoId":"KSTS","receiptTime":"2026-04-14T20:56:38.388Z","obsTime":1776199980,"reportTime":"2026-04-14T21:00:00.000Z","temp":17.2,"dewp":8.9,"wdir":"VRB","wspd":3,"visib":"10+","altim":1021.8,"slp":1020.9,"qcField":4,"presTend":-0.9,"metarType":"METAR","rawOb":"METAR KSTS 142053Z VRB03KT 10SM SCT030 17/09 A3017 RMK AO2 SLP209 T01720089 58009","lat":38.5037,"lon":-122.811,"elev":35,"name":"Santa Rosa/Schulz Arpt, CA, US","cover":"SCT","clouds":[{"cover":"SCT","base":3000}],"fltCat":"VFR"},{"icaoId":"KDMN","receiptTime":"2026-04-14T20:56:23.712Z","obsTime":1776199980,"reportTime":"2026-04-14T21:00:00.000Z","temp":25,"dewp":-2.8,"wdir":270,"wspd":21,"wgst":37,"visib":9,"altim":1014.6,"slp":1007.8,"qcField":6,"presTend":-2,"metarType":"METAR","rawOb":"METAR KDMN 142053Z AUTO 27021G37KT 9SM CLR 25/M03 A2996 RMK AO2 PK WND 27037/2049 SLP078 T02501028 58020","lat":32.2592,"lon":-107.7206,"elev":1310,"name":"Deming Muni, NM, US","cover":"CLR","clouds":[],"fltCat":"VFR"},{"icaoId":"KLAX","receiptTime":"2026-04-14T20:56:23.823Z","obsTime":1776199980,"reportTime":"2026-04-14T21:00:00.000Z","temp":20,"dewp":10.6,"wdir":240,"wspd":11,"visib":"10+","altim":1018.7,"slp":1018.6,"qcField":4,"presTend":-1.4,"metarType":"METAR","rawOb":"METAR KLAX 142053Z 24011KT 10SM FEW010 FEW035 20/11 A3008 RMK AO2 SLP186 T02000106 58014","lat":33.9382,"lon":-118.3866,"elev":30,"name":"Los Angeles Intl, CA, US","cover":"FEW","clouds":[{"cover":"FEW","base":1000},{"cover":"FEW","base":3500}],"fltCat":"VFR"},{"icaoId":"KHRL","receiptTime":"2026-04-14T20:56:25.234Z","obsTime":1776199920,"reportTime":"2026-04-14T21:00:00.000Z","temp":29.4,"dewp":21.1,"wdir":140,"wspd":20,"wgst":27,"visib":"10+","altim":1013.3,"slp":1013,"qcField":4,"presTend":-1.7,"metarType":"METAR","rawOb":"METAR KHRL 142052Z 14020G27KT 10SM BKN038 OVC049 29/21 A2992 RMK AO2 PK WND 14027/2032 SLP130 T02940211 56017","lat":26.2303,"lon":-97.6556,"elev":9,"name":"Harlingen/Valley Intl, TX, US","cover":"OVC","clouds":[{"cover":"BKN","base":3800},{"cover":"OVC","base":4900}],"fltCat":"VFR"},{"icaoId":"KABQ","receiptTime":"2026-04-14T20:56:34.473Z","obsTime":1776199920,"reportTime":"2026-04-14T21:00:00.000Z","temp":18.9,"dewp":-3.9,"wdir":280,"wspd":18,"wgst":26,"visib":"10+","altim":1014,"slp":1008,"qcField":4,"metarType":"METAR","rawOb":"METAR KABQ 142052Z 28018G26KT 10SM BKN100 BKN250 19/M04 A2994 RMK AO2 PK WND 29027/2033 SLP080 T01891039","lat":35.0419,"lon":-106.6154,"elev":1620,"name":"Albuquerque Intl, NM, US","cover":"BKN","clouds":[{"cover":"BKN","base":10000},{"cover":"BKN","base":25000}],"fltCat":"VFR"},{"icaoId":"KCLT","receiptTime":"2026-04-14T20:56:25.117Z","obsTime":1776199920,"reportTime":"2026-04-14T21:00:00.000Z","temp":30,"dewp":11.1,"wdir":220,"wspd":13,"visib":"10+","altim":1019.4,"slp":1019.8,"qcField":4,"presTend":-2,"metarType":"METAR","rawOb":"METAR KCLT 142052Z 22013KT 10SM FEW075 FEW130 FEW250 30/11 A3010 RMK AO2 SLP198 T03000111 56020","lat":35.2225,"lon":-80.9543,"elev":223,"name":"Charlotte/Douglas Intl, NC, US","cover":"FEW","clouds":[{"cover":"FEW","base":7500},{"cover":"FEW","base":13000},{"cover":"FEW","base":25000}],"fltCat":"VFR"},{"icaoId":"KMLF","receiptTime":"2026-04-14T20:56:34.690Z","obsTime":1776199920,"reportTime":"2026-04-14T21:00:00.000Z","temp":13.3,"dewp":-3.9,"wdir":"VRB","wspd":6,"visib":"10+","altim":1016.7,"slp":1014.6,"qcField":6,"presTend":-0.1,"metarType":"METAR","rawOb":"METAR KMLF 142052Z AUTO VRB06KT 10SM BKN075 BKN090 13/M04 A3002 RMK AO2 SLP146 T01331039 55001","lat":38.4225,"lon":-113.0109,"elev":1537,"name":"Milford Muni, UT, US","cover":"BKN","clouds":[{"cover":"BKN","base":7500},{"cover":"BKN","base":9000}],"fltCat":"VFR"},{"icaoId":"KATL","receiptTime":"2026-04-14T20:56:30.768Z","obsTime":1776199920,"reportTime":"2026-04-14T21:00:00.000Z","temp":29.4,"dewp":7.2,"wdir":250,"wspd":8,"visib":"10+","altim":1021.1,"slp":1020,"qcField":12,"presTend":-2.1,"metarType":"METAR","rawOb":"METAR KATL 142052Z 25008KT 210V280 10SM FEW250 29/07 A3015 RMK AO2 SLP200 T02940072 56021 $","lat":33.6297,"lon":-84.4422,"elev":309,"name":"Atlanta/Hartsfield-Jackson Intl, GA, US","cover":"FEW","clouds":[{"cover":"FEW","base":25000}],"fltCat":"VFR"},{"icaoId":"KOKC","receiptTime":"2026-04-14T20:56:30.583Z","obsTime":1776199920,"reportTime":"2026-04-14T21:00:00.000Z","temp":26.7,"dewp":20,"wdir":170,"wspd":20,"wgst":26,"visib":"10+","altim":1010.9,"slp":1009.2,"qcField":4,"presTend":-1.7,"metarType":"METAR","rawOb":"METAR KOKC 142052Z 17020G26KT 10SM SCT030 SCT037 BKN250 27/20 A2985 RMK AO2 PK WND 19026/2019 SLP092 T02670200 56017","lat":35.3843,"lon":-97.6003,"elev":391,"name":"Oklahoma City/Will Rogers Intl, OK, US","cover":"BKN","clouds":[{"cover":"SCT","base":3000},{"cover":"SCT","base":3700},{"cover":"BKN","base":25000}],"fltCat":"VFR"},{"icaoId":"KCVG","receiptTime":"2026-04-14T20:56:30.323Z","obsTime":1776199920,"reportTime":"2026-04-14T21:00:00.000Z","temp":26.7,"dewp":16.7,"wdir":220,"wspd":16,"wgst":29,"visib":"10+","altim":1014.3,"slp":1013.4,"qcField":4,"presTend":-1.2,"metarType":"METAR","rawOb":"METAR KCVG 142052Z 22016G29KT 10SM BKN045 BKN250 27/17 A2995 RMK AO2 PK WND 24029/2043 SLP134 T02670167 57012","lat":39.0444,"lon":-84.6724,"elev":264,"name":"Cincinnati Intl, KY, US","cover":"BKN","clouds":[{"cover":"BKN","base":4500},{"cover":"BKN","base":25000}],"fltCat":"VFR"},{"icaoId":"KBJC","receiptTime":"2026-04-14T20:58:11.183Z","obsTime":1776199920,"reportTime":"2026-04-14T21:00:00.000Z","temp":11,"dewp":-1,"wdir":220,"wspd":14,"wgst":20,"visib":"10+","altim":1012.6,"qcField":0,"wxString":"VCSH","metarType":"METAR","rawOb":"METAR KBJC 142052Z 22014G20KT 10SM VCSH SCT030 OVC065 11/M01 A2990 RMK VIRGA","lat":39.9008,"lon":-105.1042,"elev":1694,"name":"Rocky Mtn Metro, CO, US","cover":"OVC","clouds":[{"cover":"SCT","base":3000},{"cover":"OVC","base":6500}],"fltCat":"VFR"},{"icaoId":"KMKE","receiptTime":"2026-04-14T20:56:30.550Z","obsTime":1776199920,"reportTime":"2026-04-14T21:00:00.000Z","temp":26.1,"dewp":17.8,"wdir":200,"wspd":15,"wgst":23,"visib":"10+","altim":1006.2,"slp":1005.7,"qcField":4,"presTend":-1.9,"metarType":"METAR","rawOb":"METAR KMKE 142052Z 20015G23KT 10SM FEW040 BKN048 BKN160 26/18 A2971 RMK AO2 SLP057 CB NW MOV NE T02610178 58019","lat":42.9549,"lon":-87.9045,"elev":203,"name":"Milwaukee/Mitchell Intl, WI, US","cover":"BKN","clouds":[{"cover":"FEW","base":4000},{"cover":"BKN","base":4800},{"cover":"BKN","base":16000}],"fltCat":"VFR"},{"icaoId":"KIAD","receiptTime":"2026-04-14T20:56:30.459Z","obsTime":1776199920,"reportTime":"2026-04-14T21:00:00.000Z","temp":30,"dewp":12.8,"wdir":190,"wspd":14,"wgst":20,"visib":"10+","altim":1013.3,"slp":1013,"qcField":4,"presTend":-2.7,"metarType":"METAR","rawOb":"METAR KIAD 142052Z 19014G20KT 10SM FEW065 FEW110 FEW180 SCT250 30/13 A2992 RMK AO2 SLP130 T03000128 56027","lat":38.9348,"lon":-77.4473,"elev":90,"name":"Washington/Dulles Intl, VA, US","cover":"SCT","clouds":[{"cover":"FEW","base":6500},{"cover":"FEW","base":11000},{"cover":"FEW","base":18000},{"cover":"SCT","base":25000}],"fltCat":"VFR"},{"icaoId":"KDCA","receiptTime":"2026-04-14T20:56:30.338Z","obsTime":1776199920,"reportTime":"2026-04-14T21:00:00.000Z","temp":28.3,"dewp":14.4,"wdir":170,"wspd":12,"visib":"10+","altim":1013.3,"slp":1013,"qcField":4,"presTend":-2.7,"metarType":"METAR","rawOb":"METAR KDCA 142052Z 17012KT 10SM FEW070 SCT150 SCT250 28/14 A2992 RMK AO2 SLP130 CB DSNT W-NW MOV E T02830144 56027","lat":38.8472,"lon":-77.0345,"elev":4,"name":"Washington/Reagan-National Arpt, VA, US","cover":"SCT","clouds":[{"cover":"FEW","base":7000},{"cover":"SCT","base":15000},{"cover":"SCT","base":25000}],"fltCat":"VFR"},{"icaoId":"KCRP","receiptTime":"2026-04-14T20:54:06.709Z","obsTime":1776199860,"reportTime":"2026-04-14T21:00:00.000Z","temp":28.3,"dewp":21.1,"wdir":140,"wspd":21,"wgst":30,"visib":"10+","altim":1014.3,"slp":1014.1,"qcField":4,"presTend":-1.7,"metarType":"METAR","rawOb":"METAR KCRP 142051Z 14021G30KT 10SM FEW017 SCT023 BKN030 BKN250 28/21 A2995 RMK AO2 PK WND 16030/2049 SLP141 T02830211 56017","lat":27.7734,"lon":-97.513,"elev":11,"name":"Corpus Christi Intl, TX, US","cover":"BKN","clouds":[{"cover":"FEW","base":1700},{"cover":"SCT","base":2300},{"cover":"BKN","base":3000},{"cover":"BKN","base":25000}],"fltCat":"MVFR"},{"icaoId":"KJFK","receiptTime":"2026-04-14T20:54:07.078Z","obsTime":1776199860,"reportTime":"2026-04-14T21:00:00.000Z","temp":19.4,"dewp":11.1,"wdir":180,"wspd":15,"visib":"10+","altim":1010.9,"slp":1010.7,"qcField":4,"presTend":-3.3,"metarType":"METAR","rawOb":"METAR KJFK 142051Z 18015KT 10SM FEW060 FEW120 SCT250 19/11 A2985 RMK AO2 SLP107 T01940111 58033","lat":40.6392,"lon":-73.7639,"elev":3,"name":"New York/JF Kennedy Intl, NY, US","cover":"SCT","clouds":[{"cover":"FEW","base":6000},{"cover":"FEW","base":12000},{"cover":"SCT","base":25000}],"fltCat":"VFR"},{"icaoId":"KCLE","receiptTime":"2026-04-14T20:54:06.658Z","obsTime":1776199860,"reportTime":"2026-04-14T21:00:00.000Z","temp":22.2,"dewp":16.7,"wdir":230,"wspd":8,"visib":"10+","altim":1011.9,"slp":1012.9,"qcField":12,"presTend":0.4,"pcp3hr":0.005,"metarType":"METAR","rawOb":"METAR KCLE 142051Z 23008KT 10SM SCT200 BKN250 22/17 A2988 RMK AO2 SLP129 60000 T02220167 50004 $","lat":41.4057,"lon":-81.8519,"elev":237,"name":"Cleveland/Hopkins Intl, OH, US","cover":"BKN","clouds":[{"cover":"SCT","base":20000},{"cover":"BKN","base":25000}],"fltCat":"VFR"},{"icaoId":"KSTL","receiptTime":"2026-04-14T20:54:06.281Z","obsTime":1776199860,"reportTime":"2026-04-14T21:00:00.000Z","temp":31.1,"dewp":17.8,"wdir":200,"wspd":15,"wgst":25,"visib":"10+","altim":1009.6,"slp":1008.3,"qcField":12,"presTend":-1.6,"metarType":"METAR","rawOb":"METAR KSTL 142051Z 20015G25KT 10SM FEW060 FEW150 SCT250 31/18 A2981 RMK AO2 SLP083 T03110178 58016 $","lat":38.7525,"lon":-90.3734,"elev":163,"name":"St Louis/Lambert Intl, MO, US","cover":"SCT","clouds":[{"cover":"FEW","base":6000},{"cover":"FEW","base":15000},{"cover":"SCT","base":25000}],"fltCat":"VFR"},{"icaoId":"KMYL","receiptTime":"2026-04-14T20:54:07.177Z","obsTime":1776199860,"reportTime":"2026-04-14T21:00:00.000Z","temp":7.2,"dewp":0,"wdir":200,"wspd":15,"wgst":22,"visib":"10+","altim":1015.3,"slp":1015.6,"qcField":6,"presTend":-0.4,"metarType":"METAR","rawOb":"METAR KMYL 142051Z AUTO 20015G22KT 10SM FEW029 BKN049 07/00 A2998 RMK AO2 SLP156 T00720000 56004","lat":44.8943,"lon":-116.0998,"elev":1532,"name":"McCall Muni, ID, US","cover":"BKN","clouds":[{"cover":"FEW","base":2900},{"cover":"BKN","base":4900}],"fltCat":"VFR"},{"icaoId":"KEWR","receiptTime":"2026-04-14T20:54:06.872Z","obsTime":1776199860,"reportTime":"2026-04-14T21:00:00.000Z","temp":30.6,"dewp":12.8,"wdir":240,"wspd":16,"wgst":29,"visib":"10+","altim":1009.6,"slp":1009.4,"qcField":4,"presTend":-3.4,"metarType":"METAR","rawOb":"METAR KEWR 142051Z 24016G29KT 10SM FEW060 FEW150 BKN250 31/13 A2981 RMK AO2 PK WND 25029/2034 SLP094 T03060128 58034","lat":40.6828,"lon":-74.1692,"elev":2,"name":"Newark Intl, NJ, US","cover":"BKN","clouds":[{"cover":"FEW","base":6000},{"cover":"FEW","base":15000},{"cover":"BKN","base":25000}],"fltCat":"VFR"},{"icaoId":"KVNY","receiptTime":"2026-04-14T20:54:07.540Z","obsTime":1776199860,"reportTime":"2026-04-14T21:00:00.000Z","temp":22.2,"dewp":4.4,"wdir":100,"wspd":3,"visib":"10+","altim":1017.7,"slp":1017.1,"qcField":12,"presTend":-2,"metarType":"METAR","rawOb":"METAR KVNY 142051Z 10003KT 10SM CLR 22/04 A3005 RMK AO2 SLP171 T02220044 58020 $","lat":34.2121,"lon":-118.4915,"elev":241,"name":"Van Nuys Arpt, CA, US","cover":"CLR","clouds":[],"fltCat":"VFR"},{"icaoId":"KPVD","receiptTime":"2026-04-14T20:54:09.065Z","obsTime":1776199860,"reportTime":"2026-04-14T21:00:00.000Z","temp":21.7,"dewp":12.2,"wdir":150,"wspd":13,"visib":"10+","altim":1010.6,"slp":1010.4,"qcField":4,"presTend":-3,"metarType":"METAR","rawOb":"METAR KPVD 142051Z 15013KT 10SM FEW040 FEW080 BKN250 22/12 A2984 RMK AO2 SLP104 T02170122 58030","lat":41.7225,"lon":-71.4325,"elev":15,"name":"Providence/Green Mem, RI, US","cover":"BKN","clouds":[{"cover":"FEW","base":4000},{"cover":"FEW","base":8000},{"cover":"BKN","base":25000}],"fltCat":"VFR"},{"icaoId":"KROW","receiptTime":"2026-04-14T20:54:09.250Z","obsTime":1776199860,"reportTime":"2026-04-14T21:00:00.000Z","temp":27.2,"dewp":-1.7,"wdir":210,"wspd":20,"wgst":33,"visib":"10+","altim":1011.3,"slp":1005.4,"qcField":4,"presTend":-1.7,"metarType":"METAR","rawOb":"METAR KROW 142051Z 21020G33KT 10SM CLR 27/M02 A2986 RMK AO2 PK WND 20033/2045 SLP054 T02721017 56017","lat":33.3074,"lon":-104.5082,"elev":1105,"name":"Roswell/Ind Arpt, NM, US","cover":"CLR","clouds":[],"fltCat":"VFR"},{"icaoId":"KSAD","receiptTime":"2026-04-14T20:54:09.276Z","obsTime":1776199860,"reportTime":"2026-04-14T21:00:00.000Z","temp":22.2,"dewp":-1.1,"wdir":"VRB","wspd":5,"wgst":17,"visib":"10+","altim":1014,"slp":1010.2,"qcField":6,"presTend":-1.9,"metarType":"METAR","rawOb":"METAR KSAD 142051Z AUTO VRB05G17KT 10SM FEW085 22/M01 A2994 RMK AO2 PK WND 30026/2040 SLP102 T02221011 58019","lat":32.8565,"lon":-109.636,"elev":937,"name":"Safford Rgnl, AZ, US","cover":"FEW","clouds":[{"cover":"FEW","base":8500}],"fltCat":"VFR"},{"icaoId":"KCMH","receiptTime":"2026-04-14T20:54:08.470Z","obsTime":1776199860,"reportTime":"2026-04-14T21:00:00.000Z","temp":28.3,"dewp":14.4,"wdir":230,"wspd":16,"wgst":25,"visib":"10+","altim":1013.3,"slp":1012.6,"qcField":4,"presTend":-1,"metarType":"METAR","rawOb":"METAR KCMH 142051Z 23016G25KT 10SM SCT060 BKN250 28/14 A2992 RMK AO2 PK WND 21028/2040 SLP126 T02830144 56010","lat":39.9907,"lon":-82.877,"elev":257,"name":"Columbus/Glenn Intl, OH, US","cover":"BKN","clouds":[{"cover":"SCT","base":6000},{"cover":"BKN","base":25000}],"fltCat":"VFR"},{"icaoId":"KELP","receiptTime":"2026-04-14T20:54:08.686Z","obsTime":1776199860,"reportTime":"2026-04-14T21:00:00.000Z","temp":25,"dewp":0.6,"wdir":210,"wspd":16,"wgst":28,"visib":"10+","altim":1013.6,"slp":1006.9,"qcField":4,"presTend":-1.9,"metarType":"METAR","rawOb":"METAR KELP 142051Z 21016G28KT 10SM SCT095 BKN140 BKN250 25/01 A2993 RMK AO2 PK WND 23033/1958 SLP069 ACSL DSNT E-SE VCSH N T02500006 58019","lat":31.8123,"lon":-106.3774,"elev":1205,"name":"El Paso Intl, TX, US","cover":"BKN","clouds":[{"cover":"SCT","base":9500},{"cover":"BKN","base":14000},{"cover":"BKN","base":25000}],"fltCat":"VFR"},{"icaoId":"KOXR","receiptTime":"2026-04-14T20:54:07.212Z","obsTime":1776199860,"reportTime":"2026-04-14T21:00:00.000Z","temp":18.9,"dewp":11.1,"wdir":220,"wspd":9,"visib":"10+","altim":1019,"slp":1018.7,"qcField":12,"presTend":-1.2,"metarType":"METAR","rawOb":"METAR KOXR 142051Z 22009KT 10SM CLR 19/11 A3009 RMK AO2 SLP187 T01890111 58012 $","lat":34.2001,"lon":-119.2042,"elev":12,"name":"Oxnard Arpt, CA, US","cover":"CLR","clouds":[],"fltCat":"VFR"},{"icaoId":"KLGA","receiptTime":"2026-04-14T20:56:25.278Z","obsTime":1776199860,"reportTime":"2026-04-14T21:00:00.000Z","temp":27.2,"dewp":12.2,"wdir":170,"wspd":9,"wgst":17,"visib":"10+","altim":1009.6,"slp":1009.4,"qcField":12,"presTend":-3.5,"metarType":"METAR","rawOb":"METAR KLGA 142051Z 17009G17KT 10SM FEW060 BKN250 27/12 A2981 RMK AO2 SLP094 T02720122 58035 $","lat":40.7794,"lon":-73.8803,"elev":9,"name":"New York/La Guardia Arpt, NY, US","cover":"BKN","clouds":[{"cover":"FEW","base":6000},{"cover":"BKN","base":25000}],"fltCat":"VFR"},{"icaoId":"KBDL","receiptTime":"2026-04-14T20:58:10.238Z","obsTime":1776199860,"reportTime":"2026-04-14T21:00:00.000Z","temp":27.8,"dewp":13.3,"wdir":180,"wspd":18,"wgst":27,"visib":"10+","altim":1007.9,"slp":1007.5,"qcField":5,"presTend":-3.5,"metarType":"METAR","rawOb":"METAR KBDL 142051Z COR 18018G27KT 10SM FEW080 SCT120 BKN250 28/13 A2976 RMK AO2 PK WND 18032/2005 SLP075 T02780133 58035","lat":41.9374,"lon":-72.682,"elev":52,"name":"Hartford/Bradley Intl, CT, US","cover":"BKN","clouds":[{"cover":"FEW","base":8000},{"cover":"SCT","base":12000},{"cover":"BKN","base":25000}],"fltCat":"VFR"},{"icaoId":"KLGU","receiptTime":"2026-04-14T20:54:07.121Z","obsTime":1776199860,"reportTime":"2026-04-14T21:00:00.000Z","temp":10.6,"dewp":0,"wdir":"VRB","wspd":5,"visib":"10+","altim":1016,"slp":1014.9,"qcField":6,"presTend":-0.2,"precip":0.005,"pcp3hr":0.005,"metarType":"METAR","rawOb":"METAR KLGU 142051Z AUTO VRB05KT 10SM OVC080 11/00 A3000 RMK AO2 RAB00E09 SLP149 P0000 60000 T01060000 55002","lat":41.7865,"lon":-111.8519,"elev":1359,"name":"Logan/Cache Arpt, UT, US","cover":"OVC","clouds":[{"cover":"OVC","base":8000}],"fltCat":"VFR"},{"icaoId":"KIGM","receiptTime":"2026-04-14T20:54:06.933Z","obsTime":1776199860,"reportTime":"2026-04-14T21:00:00.000Z","temp":17.8,"dewp":-2.2,"wdir":360,"wspd":6,"visib":"10+","altim":1017.7,"slp":1013.5,"qcField":6,"presTend":-0.8,"metarType":"METAR","rawOb":"METAR KIGM 142051Z AUTO 36006KT 10SM CLR 18/M02 A3005 RMK AO2 SLP135 T01781022 58008","lat":35.2575,"lon":-113.9341,"elev":1045,"name":"Kingman Arpt, AZ, US","cover":"CLR","clouds":[],"fltCat":"VFR"},{"icaoId":"KRDU","receiptTime":"2026-04-14T20:54:09.189Z","obsTime":1776199860,"reportTime":"2026-04-14T21:00:00.000Z","temp":30.6,"dewp":8.3,"wdir":250,"wspd":11,"wgst":19,"visib":"10+","altim":1018,"slp":1017.4,"qcField":4,"presTend":-2.1,"metarType":"METAR","rawOb":"METAR KRDU 142051Z 25011G19KT 10SM FEW070 FEW180 SCT250 31/08 A3006 RMK AO2 SLP174 T03060083 58021","lat":35.8923,"lon":-78.782,"elev":121,"name":"Raleigh-Durham Intl, NC, US","cover":"SCT","clouds":[{"cover":"FEW","base":7000},{"cover":"FEW","base":18000},{"cover":"SCT","base":25000}],"fltCat":"VFR"},{"icaoId":"KORF","receiptTime":"2026-04-14T20:54:08.972Z","obsTime":1776199860,"reportTime":"2026-04-14T21:00:00.000Z","temp":30,"dewp":12.8,"wdir":210,"wspd":12,"visib":"10+","altim":1015.7,"slp":1015.4,"qcField":4,"presTend":-2.4,"metarType":"METAR","rawOb":"METAR KORF 142051Z 21012KT 10SM CLR 30/13 A2999 RMK AO2 SLP154 T03000128 58024","lat":36.9037,"lon":-76.1927,"elev":5,"name":"Norfolk Intl, VA, US","cover":"CLR","clouds":[],"fltCat":"VFR"},{"icaoId":"KORD","receiptTime":"2026-04-14T20:54:08.934Z","obsTime":1776199860,"reportTime":"2026-04-14T21:00:00.000Z","temp":27.8,"dewp":18.3,"wdir":170,"wspd":16,"wgst":23,"visib":"10+","altim":1006.5,"slp":1006,"qcField":4,"presTend":-2.2,"metarType":"METAR","rawOb":"METAR KORD 142051Z 17016G23KT 10SM FEW041 SCT140 BKN250 28/18 A2972 RMK AO2 SLP060 T02780183 58022","lat":41.9602,"lon":-87.9316,"elev":202,"name":"Chicago/O'Hare Intl, IL, US","cover":"BKN","clouds":[{"cover":"FEW","base":4100},{"cover":"SCT","base":14000},{"cover":"BKN","base":25000}],"fltCat":"VFR"},{"icaoId":"KPIT","receiptTime":"2026-04-14T20:54:07.257Z","obsTime":1776199860,"reportTime":"2026-04-14T21:00:00.000Z","temp":22.8,"dewp":15,"wdir":260,"wspd":8,"visib":"10+","altim":1014,"slp":1013.9,"qcField":4,"wxString":"-TSRA","presTend":-0.9,"precip":0.005,"pcp3hr":0.005,"metarType":"METAR","rawOb":"METAR KPIT 142051Z 26008KT 10SM -TSRA BKN047 BKN060CB 23/15 A2994 RMK AO2 RAB25 TSB07 SLP139 OCNL LTGICCG NW TS NW MOV NE P0000 60000 T02280150 55009","lat":40.4814,"lon":-80.2083,"elev":339,"name":"Pittsburgh Intl, PA, US","cover":"BKN","clouds":[{"cover":"BKN","base":4700},{"cover":"BKN","base":6000}],"fltCat":"VFR"},{"icaoId":"KACT","receiptTime":"2026-04-14T20:54:07.960Z","obsTime":1776199860,"reportTime":"2026-04-14T21:00:00.000Z","temp":26.7,"dewp":19.4,"wdir":180,"wspd":12,"visib":"10+","altim":1014.3,"slp":1013.6,"qcField":6,"presTend":-2.2,"metarType":"METAR","rawOb":"METAR KACT 142051Z AUTO 18012KT 10SM FEW041 OVC060 27/19 A2995 RMK AO2 SLP136 T02670194 56022","lat":31.618,"lon":-97.2283,"elev":150,"name":"Waco Rgnl, TX, US","cover":"OVC","clouds":[{"cover":"FEW","base":4100},{"cover":"OVC","base":6000}],"fltCat":"VFR"},{"icaoId":"KSAT","receiptTime":"2026-04-14T20:54:07.344Z","obsTime":1776199860,"reportTime":"2026-04-14T21:00:00.000Z","temp":30,"dewp":17.8,"wdir":120,"wspd":14,"visib":"10+","altim":1013.6,"slp":1011.6,"qcField":4,"presTend":-2.9,"metarType":"METAR","rawOb":"METAR KSAT 142051Z 12014KT 10SM SCT050 BKN065 BKN250 30/18 A2993 RMK AO2 SLP116 T03000178 57029","lat":29.5443,"lon":-98.4839,"elev":246,"name":"San Antonio Intl, TX, US","cover":"BKN","clouds":[{"cover":"SCT","base":5000},{"cover":"BKN","base":6500},{"cover":"BKN","base":25000}],"fltCat":"VFR"},{"icaoId":"KSAN","receiptTime":"2026-04-14T20:54:07.305Z","obsTime":1776199860,"reportTime":"2026-04-14T21:00:00.000Z","temp":20,"dewp":10.6,"wdir":270,"wspd":10,"visib":"10+","altim":1019.4,"slp":1019.2,"qcField":12,"presTend":-1.3,"metarType":"METAR","rawOb":"METAR KSAN 142051Z 27010KT 10SM FEW040 20/11 A3010 RMK AO2 SLP192 T02000106 58013 $","lat":32.7364,"lon":-117.1973,"elev":3,"name":"San Diego Intl Arpt, CA, US","cover":"FEW","clouds":[{"cover":"FEW","base":4000}],"fltCat":"VFR"},{"icaoId":"KAEG","receiptTime":"2026-04-14T21:04:51.724Z","obsTime":1776199800,"reportTime":"2026-04-14T21:00:00.000Z","temp":18,"dewp":-5,"wdir":260,"wspd":12,"wgst":24,"visib":"10+","altim":1015.3,"qcField":0,"metarType":"METAR","rawOb":"METAR KAEG 142050Z 26012G24KT 10SM SCT100 18/M05 A2998","lat":35.15,"lon":-106.7929,"elev":1771,"name":"Albuquerque/Double Eagle Arpt, NM, US","cover":"SCT","clouds":[{"cover":"SCT","base":10000}],"fltCat":"VFR"},{"icaoId":"KHOB","receiptTime":"2026-04-14T20:51:12.612Z","obsTime":1776199800,"reportTime":"2026-04-14T21:00:00.000Z","temp":29,"dewp":-4,"wdir":210,"wspd":26,"wgst":37,"visib":"10+","altim":1012.6,"qcField":0,"metarType":"METAR","rawOb":"METAR KHOB 142050Z 21026G37KT 10SM BKN200 29/M04 A2990","lat":32.6797,"lon":-103.2222,"elev":1112,"name":"Hobbs Arpt, NM, US","cover":"BKN","clouds":[{"cover":"BKN","base":20000}],"fltCat":"VFR"},{"icaoId":"KSUN","receiptTime":"2026-04-14T20:51:42.311Z","obsTime":1776199800,"reportTime":"2026-04-14T21:00:00.000Z","temp":11,"dewp":-3,"wdir":200,"wspd":8,"wgst":18,"visib":"10+","altim":1014.6,"qcField":0,"metarType":"METAR","rawOb":"METAR KSUN 142050Z 20008G18KT 10SM SCT065 11/M03 A2996","lat":43.4969,"lon":-114.2923,"elev":1619,"name":"Hailey/Friedman Mem, ID, US","cover":"SCT","clouds":[{"cover":"SCT","base":6500}],"fltCat":"VFR"},{"icaoId":"KIWA","receiptTime":"2026-04-14T20:51:41.861Z","obsTime":1776199800,"reportTime":"2026-04-14T21:00:00.000Z","temp":23,"dewp":-3,"wdir":280,"wspd":5,"visib":"10+","altim":1016,"qcField":0,"metarType":"METAR","rawOb":"METAR KIWA 142050Z 28005KT 10SM CLR 23/M03 A3000","lat":33.3008,"lon":-111.6437,"elev":420,"name":"Phoenix/Mesa Gateway Arpt, AZ, US","cover":"CLR","clouds":[],"fltCat":"VFR"},{"icaoId":"KADM","receiptTime":"2026-04-14T20:53:40.225Z","obsTime":1776199800,"reportTime":"2026-04-14T21:00:00.000Z","temp":25,"dewp":21,"wdir":180,"wspd":11,"wgst":17,"visib":"10+","altim":1012.6,"qcField":0,"metarType":"METAR","rawOb":"METAR KADM 142050Z 18011G17KT 10SM BKN031 OVC045 25/21 A2990","lat":34.3007,"lon":-97.0089,"elev":223,"name":"Ardmore Muni, OK, US","cover":"OVC","clouds":[{"cover":"BKN","base":3100},{"cover":"OVC","base":4500}],"fltCat":"VFR"},{"icaoId":"KGYR","receiptTime":"2026-04-14T20:47:39.384Z","obsTime":1776199620,"reportTime":"2026-04-14T21:00:00.000Z","temp":24,"dewp":1,"wdir":190,"wspd":6,"visib":"10+","altim":1015.7,"qcField":0,"metarType":"METAR","rawOb":"METAR KGYR 142047Z 19006KT 10SM FEW090 24/01 A2999","lat":33.428,"lon":-112.368,"elev":292,"name":"Phoenix/Goodyear Muni, AZ, US","cover":"FEW","clouds":[{"cover":"FEW","base":9000}],"fltCat":"VFR"},{"icaoId":"KGEU","receiptTime":"2026-04-14T20:49:00.988Z","obsTime":1776199620,"reportTime":"2026-04-14T21:00:00.000Z","temp":23,"dewp":-1,"wdir":290,"wspd":5,"visib":"10+","altim":1015,"qcField":0,"metarType":"METAR","rawOb":"METAR KGEU 142047Z 29005KT 10SM CLR 23/M01 A2997","lat":33.528,"lon":-112.293,"elev":319,"name":"Glendale Muni, AZ, US","cover":"CLR","clouds":[],"fltCat":"VFR"},{"icaoId":"KIFP","receiptTime":"2026-04-14T20:47:39.416Z","obsTime":1776199620,"reportTime":"2026-04-14T21:00:00.000Z","temp":25,"dewp":-1,"wdir":250,"wspd":4,"visib":"10+","altim":1015.3,"qcField":0,"metarType":"METAR","rawOb":"METAR KIFP 142047Z 25004KT 10SM CLR 25/M01 A2998","lat":35.1487,"lon":-114.5611,"elev":210,"name":"Bullhead City Intl, AZ, US","cover":"CLR","clouds":[],"fltCat":"VFR"},{"icaoId":"KCHD","receiptTime":"2026-04-14T20:52:32.340Z","obsTime":1776199620,"reportTime":"2026-04-14T21:00:00.000Z","temp":24,"dewp":-4,"wdir":250,"wspd":4,"wgst":20,"visib":"10+","altim":1015.7,"qcField":0,"metarType":"METAR","rawOb":"METAR KCHD 142047Z 25004G20KT 10SM FEW100 24/M04 A2999","lat":33.2669,"lon":-111.8086,"elev":378,"name":"Chandler Muni, AZ, US","cover":"FEW","clouds":[{"cover":"FEW","base":10000}],"fltCat":"VFR"},{"icaoId":"KRYN","receiptTime":"2026-04-14T20:46:21.828Z","obsTime":1776199500,"reportTime":"2026-04-14T21:00:00.000Z","temp":24,"dewp":1,"wdir":360,"wspd":4,"wgst":13,"visib":"10+","altim":1015.3,"qcField":0,"metarType":"METAR","rawOb":"METAR KRYN 142045Z 36004G13KT 10SM CLR 24/01 A2998","lat":32.1418,"lon":-111.1767,"elev":731,"name":"Tucson/Ryan Fld, AZ, US","cover":"CLR","clouds":[],"fltCat":"VFR"}]