[{"icaoId":"KPWT","receiptTime":"2026-04-16T04:40:14.787Z","obsTime":1776314220,"reportTime":"2026-04-16T04:37:00.000Z","temp":3,"dewp":3,"wdir":170,"wspd":3,"visib":"10+","altim":1016,"qcField":6,"wxString":"-RA","precip":0.005,"metarType":"SPECI","rawOb":"SPECI KPWT 160437Z AUTO 17003KT 10SM -RA BKN007 OVC013 03/03 A3000 RMK AO2 P0000","lat":47.4942,"lon":-122.7594,"elev":143,"name":"Bremerton Arpt, WA, US","cover":"OVC","clouds":[{"cover":"BKN","base":700},{"cover":"OVC","base":1300}],"fltCat":"IFR"},{"icaoId":"KCRQ","receiptTime":"2026-04-16T04:40:14.731Z","obsTime":1776314160,"reportTime":"2026-04-16T04:36:00.000Z","temp":16.7,"dewp":13.3,"wdir":0,"wspd":0,"visib":"10+","altim":1016,"qcField":6,"metarType":"SPECI","rawOb":"SPECI KCRQ 160436Z AUTO 00000KT 10SM SCT012 17/13 A3000 RMK AO2 T01670133","lat":33.1299,"lon":-117.2765,"elev":96,"name":"Carlsbad/Palomar Arpt, CA, US","cover":"SCT","clouds":[{"cover":"SCT","base":1200}],"fltCat":"VFR"},{"icaoId":"KSLE","receiptTime":"2026-04-16T04:40:14.813Z","obsTime":1776314160,"reportTime":"2026-04-16T04:36:00.000Z","temp":3.9,"dewp":1.7,"wdir":340,"wspd":5,"wgst":20,"visib":6,"altim":1019,"qcField":6,"wxString":"RA BR","precip":0.02,"metarType":"SPECI","rawOb":"SPECI KSLE 160436Z AUTO 34005G20KT 6SM RA BR FEW019 BKN027 04/02 A3009 RMK AO2 RAB03 P0002 T00390017","lat":44.9049,"lon":-123.001,"elev":63,"name":"Salem Muni, OR, US","cover":"BKN","clouds":[{"cover":"FEW","base":1900},{"cover":"BKN","base":2700}],"fltCat":"MVFR"},{"icaoId":"KHII","receiptTime":"2026-04-16T04:41:01.185Z","obsTime":1776314100,"reportTime":"2026-04-16T04:35:00.000Z","temp":25,"dewp":-6,"wdir":100,"wspd":7,"visib":"10+","altim":1011.3,"qcField":6,"metarType":"METAR","rawOb":"METAR KHII 160435Z AUTO 10007KT 10SM CLR 25/M06 A2986 RMK AO2","lat":34.5659,"lon":-114.3522,"elev":241,"name":"Lake Havasu City Arpt, AZ, US","cover":"CLR","clouds":[],"fltCat":"VFR"},{"icaoId":"KCHD","receiptTime":"2026-04-16T04:38:22.446Z","obsTime":1776314100,"reportTime":"2026-04-16T04:35:00.000Z","temp":22.6,"dewp":-2.9,"wdir":0,"wspd":0,"visib":"10+","altim":1013,"qcField":14,"metarType":"METAR","rawOb":"METAR KCHD 160435Z AUTO 00000KT 10SM CLR 23/M03 A2991 RMK AO2 T02261029 $","lat":33.2669,"lon":-111.8086,"elev":378,"name":"Chandler Muni, AZ, US","cover":"CLR","clouds":[],"fltCat":"VFR"},{"icaoId":"KMEV","receiptTime":"2026-04-16T04:41:09.464Z","obsTime":1776314100,"reportTime":"2026-04-16T04:35:00.000Z","temp":12,"dewp":-1,"wdir":250,"wspd":9,"wgst":16,"visib":"10+","altim":1015.3,"qcField":6,"metarType":"METAR","rawOb":"METAR KMEV 160435Z AUTO 25009G16KT 10SM BKN055 OVC070 12/M01 A2998 RMK AO2","lat":38.9963,"lon":-119.75,"elev":1437,"name":"Minden-Tahoe Arpt, NV, US","cover":"OVC","clouds":[{"cover":"BKN","base":5500},{"cover":"OVC","base":7000}],"fltCat":"VFR"},{"icaoId":"KHTH","receiptTime":"2026-04-16T04:41:01.685Z","obsTime":1776314100,"reportTime":"2026-04-16T04:35:00.000Z","temp":16,"dewp":-4,"wdir":240,"wspd":12,"wgst":26,"visib":"10+","altim":1013.6,"qcField":6,"metarType":"METAR","rawOb":"METAR KHTH 160435Z AUTO 24012G26KT 10SM CLR 16/M04 A2993 RMK A01","lat":38.5448,"lon":-118.6314,"elev":1281,"name":"Hawthorne Muni, NV, US","cover":"CLR","clouds":[],"fltCat":"VFR"},{"icaoId":"KIFP","receiptTime":"2026-04-16T04:41:02.415Z","obsTime":1776314100,"reportTime":"2026-04-16T04:35:00.000Z","temp":26,"dewp":-5,"wdir":160,"wspd":10,"visib":"10+","altim":1010.6,"qcField":6,"metarType":"METAR","rawOb":"METAR KIFP 160435Z AUTO 16010KT 10SM CLR 26/M05 A2984 RMK AO2","lat":35.1487,"lon":-114.5611,"elev":210,"name":"Bullhead City Intl, AZ, US","cover":"CLR","clouds":[],"fltCat":"VFR"},{"icaoId":"KSEZ","receiptTime":"2026-04-16T04:40:59.647Z","obsTime":1776314100,"reportTime":"2026-04-16T04:35:00.000Z","temp":15,"dewp":-6,"wdir":150,"wspd":7,"visib":"10+","altim":1018,"qcField":6,"metarType":"METAR","rawOb":"METAR KSEZ 160435Z AUTO 15007KT 10SM CLR 15/M06 A3006 RMK AO2","lat":34.8467,"lon":-111.7884,"elev":1455,"name":"Sedona Arpt, AZ, US","cover":"CLR","clouds":[],"fltCat":"VFR"},{"icaoId":"KHCR","receiptTime":"2026-04-16T04:38:20.871Z","obsTime":1776314100,"reportTime":"2026-04-16T04:35:00.000Z","temp":14.8,"dewp":-4.6,"wdir":220,"wspd":8,"visib":"10+","altim":1010.6,"qcField":14,"metarType":"METAR","rawOb":"METAR KHCR 160435Z AUTO 22008KT 170V240 10SM BKN090 15/M05 A2984 RMK AO2 T01481046 $","lat":40.4774,"lon":-111.4329,"elev":1708,"name":"Heber City Muni, UT, US","cover":"BKN","clouds":[{"cover":"BKN","base":9000}],"fltCat":"VFR"},{"icaoId":"KADM","receiptTime":"2026-04-16T04:41:10.346Z","obsTime":1776314100,"reportTime":"2026-04-16T04:35:00.000Z","temp":15,"dewp":15,"wdir":0,"wspd":0,"visib":"","altim":1012.6,"qcField":166,"metarType":"METAR","rawOb":"METAR KADM 160435Z AUTO 00000KT 15/15 A2990 RMK AO2 PWINO TSNO","lat":34.3007,"lon":-97.0089,"elev":223,"name":"Ardmore Muni, OK, US"},{"icaoId":"KAEG","receiptTime":"2026-04-16T04:41:10.445Z","obsTime":1776314100,"reportTime":"2026-04-16T04:35:00.000Z","temp":9,"dewp":-11,"wdir":320,"wspd":5,"visib":"10+","altim":1018.4,"qcField":6,"metarType":"METAR","rawOb":"METAR KAEG 160435Z AUTO 32005KT 10SM CLR 09/M11 A3007 RMK AO2 T00901110","lat":35.15,"lon":-106.7929,"elev":1771,"name":"Albuquerque/Double Eagle Arpt, NM, US","cover":"CLR","clouds":[],"fltCat":"VFR"},{"icaoId":"KRTS","receiptTime":"2026-04-16T04:40:58.553Z","obsTime":1776314100,"reportTime":"2026-04-16T04:35:00.000Z","temp":7,"dewp":-3,"wdir":100,"wspd":5,"visib":"10+","altim":1015.3,"qcField":6,"metarType":"METAR","rawOb":"METAR KRTS 160435Z AUTO 10005KT 10SM CLR 07/M03 A2998 RMK AO2","lat":39.6658,"lon":-119.8731,"elev":1537,"name":"Reno/Stead Arpt, NV, US","cover":"CLR","clouds":[],"fltCat":"VFR"},{"icaoId":"KSOW","receiptTime":"2026-04-16T04:38:18.102Z","obsTime":1776314100,"reportTime":"2026-04-16T04:35:00.000Z","temp":9,"dewp":-7,"wdir":180,"wspd":8,"visib":"10+","altim":1020.7,"qcField":6,"metarType":"METAR","rawOb":"METAR KSOW 160435Z AUTO 18008KT 10SM CLR 09/M07 A3014 RMK AO2","lat":34.2686,"lon":-110.0019,"elev":1954,"name":"Show Low Muni, AZ, US","cover":"CLR","clouds":[],"fltCat":"VFR"},{"icaoId":"KMHR","receiptTime":"2026-04-16T04:41:02.499Z","obsTime":1776314100,"reportTime":"2026-04-16T04:35:00.000Z","temp":13,"dewp":13,"wdir":140,"wspd":6,"visib":"10+","altim":1016.7,"qcField":6,"metarType":"METAR","rawOb":"METAR KMHR 160435Z AUTO 14006KT 10SM CLR 13/13 A3002 RMK AO2","lat":38.56,"lon":-121.284,"elev":30,"name":"Sacramento/Mather Fld, CA, US","cover":"CLR","clouds":[],"fltCat":"VFR"},{"icaoId":"KCXP","receiptTime":"2026-04-16T04:41:06.018Z","obsTime":1776314100,"reportTime":"2026-04-16T04:35:00.000Z","temp":12,"dewp":0,"wdir":250,"wspd":8,"wgst":17,"visib":"10+","altim":1015.3,"qcField":6,"metarType":"METAR","rawOb":"METAR KCXP 160435Z AUTO 25008G17KT 10SM BKN050 OVC060 12/M00 A2998 RMK AO2","lat":39.1905,"lon":-119.7319,"elev":1431,"name":"Carson City Arpt, NV, US","cover":"OVC","clouds":[{"cover":"BKN","base":5000},{"cover":"OVC","base":6000}],"fltCat":"VFR"},{"icaoId":"KLRU","receiptTime":"2026-04-16T04:42:08.512Z","obsTime":1776314100,"reportTime":"2026-04-16T04:35:00.000Z","temp":11.8,"dewp":-21,"wdir":300,"wspd":7,"visib":"10+","altim":1017.4,"qcField":6,"metarType":"METAR","rawOb":"METAR KLRU 160435Z AUTO 30007KT 10SM CLR 12/M21 A3004 RMK AO2 T01181210","lat":32.2884,"lon":-106.9131,"elev":1355,"name":"Las Cruces Intl, NM, US","cover":"CLR","clouds":[],"fltCat":"VFR"},{"icaoId":"KBVU","receiptTime":"2026-04-16T04:36:21.143Z","obsTime":1776314100,"reportTime":"2026-04-16T04:35:00.000Z","temp":21,"dewp":-9,"wdir":150,"wspd":6,"visib":"10+","altim":1011.6,"qcField":6,"metarType":"METAR","rawOb":"METAR KBVU 160435Z AUTO 15006KT 10SM CLR 21/M09 A2987 RMK AO2","lat":35.9489,"lon":-114.8633,"elev":654,"name":"Boulder City Muni, NV, US","cover":"CLR","clouds":[],"fltCat":"VFR"},{"icaoId":"KHAF","receiptTime":"2026-04-16T04:38:20.845Z","obsTime":1776314100,"reportTime":"2026-04-16T04:35:00.000Z","temp":13,"dewp":12,"wdir":330,"wspd":13,"visib":"10+","altim":1019.4,"qcField":6,"metarType":"METAR","rawOb":"METAR KHAF 160435Z AUTO 33013KT 10SM BKN016 BKN024 13/12 A3010 RMK AO2","lat":37.5136,"lon":-122.4996,"elev":11,"name":"Half Moon Bay Arpt, CA, US","cover":"BKN","clouds":[{"cover":"BKN","base":1600},{"cover":"BKN","base":2400}],"fltCat":"MVFR"},{"icaoId":"KBJC","receiptTime":"2026-04-16T04:40:15.300Z","obsTime":1776314100,"reportTime":"2026-04-16T04:35:00.000Z","temp":10,"dewp":-7,"wdir":240,"wspd":5,"visib":"10+","altim":1012.6,"qcField":6,"metarType":"METAR","rawOb":"METAR KBJC 160435Z AUTO 24005KT 10SM CLR 10/M07 A2990 RMK AO2","lat":39.9008,"lon":-105.1042,"elev":1694,"name":"Rocky Mtn Metro, CO, US","cover":"CLR","clouds":[],"fltCat":"VFR"},{"icaoId":"KBTM","receiptTime":"2026-04-16T04:38:12.241Z","obsTime":1776314040,"reportTime":"2026-04-16T04:34:00.000Z","temp":0,"dewp":-1.1,"wdir":310,"wspd":10,"visib":2,"altim":1005.2,"qcField":6,"wxString":"-SN BR","precip":0.01,"metarType":"SPECI","rawOb":"SPECI KBTM 160434Z AUTO 31010KT 2SM -SN BR OVC019 00/M01 A2968 RMK AO2 P0001 T00001011","lat":45.9644,"lon":-112.5015,"elev":1680,"name":"Butte/Mooney Arpt, MT, US","cover":"OVC","clouds":[{"cover":"OVC","base":1900}],"fltCat":"IFR"},{"icaoId":"KEUG","receiptTime":"2026-04-16T04:38:12.258Z","obsTime":1776314040,"reportTime":"2026-04-16T04:34:00.000Z","temp":4.4,"dewp":3.3,"wdir":280,"wspd":9,"visib":8,"altim":1021.1,"qcField":12,"wxString":"RA","precip":0.005,"metarType":"SPECI","rawOb":"SPECI KEUG 160434Z 28009KT 8SM RA SCT015 BKN025 OVC035 04/03 A3015 RMK AO2 RAB25 PRESRR P0000 T00440033 $","lat":44.1331,"lon":-123.2156,"elev":109,"name":"Eugene/Mahlon Sweet Fld, OR, US","cover":"OVC","clouds":[{"cover":"SCT","base":1500},{"cover":"BKN","base":2500},{"cover":"OVC","base":3500}],"fltCat":"MVFR"},{"icaoId":"KBUF","receiptTime":"2026-04-16T04:38:12.156Z","obsTime":1776314040,"reportTime":"2026-04-16T04:34:00.000Z","temp":12.8,"dewp":12.2,"wdir":220,"wspd":9,"visib":4,"altim":1011.6,"qcField":12,"wxString":"BR","metarType":"SPECI","rawOb":"SPECI KBUF 160434Z 22009KT 4SM BR OVC002 13/12 A2987 RMK AO2 T01280122 $","lat":42.94,"lon":-78.7361,"elev":217,"name":"Buffalo-Niagara Intl, NY, US","cover":"OVC","clouds":[{"cover":"OVC","base":200}],"fltCat":"LIFR"},{"icaoId":"KBTV","receiptTime":"2026-04-16T04:36:21.768Z","obsTime":1776313980,"reportTime":"2026-04-16T04:33:00.000Z","temp":9.4,"dewp":8.9,"wdir":0,"wspd":0,"visib":0.75,"altim":1012.3,"qcField":4,"wxString":"-RA BR","precip":0.02,"vertVis":2,"metarType":"SPECI","rawOb":"SPECI KBTV 160433Z 00000KT 3/4SM R15/2200V3000FT -RA BR VV002 09/09 A2989 RMK AO2 TWR VIS 3 P0002 T00940089","lat":44.4682,"lon":-73.1499,"elev":101,"name":"Burlington Intl, VT, US","cover":"OVX","clouds":[{"cover":"OVX","base":200}],"fltCat":"LIFR"},{"icaoId":"KBDL","receiptTime":"2026-04-16T04:36:21.751Z","obsTime":1776313980,"reportTime":"2026-04-16T04:33:00.000Z","temp":19.4,"dewp":17.8,"wdir":300,"wspd":10,"wgst":23,"visib":6,"altim":1012.6,"qcField":4,"wxString":"TSRA BR","precip":0.36,"metarType":"SPECI","rawOb":"SPECI KBDL 160433Z 30010G23KT 6SM TSRA BR FEW015 SCT032CB OVC080 19/18 A2990 RMK AO2 PK WND 28026/0418 WSHFT 0416 LTG DSNT ALQDS CONS LTGICCGCA NE-S TS NE-S MOV E P0036 T01940178","lat":41.9374,"lon":-72.682,"elev":52,"name":"Hartford/Bradley Intl, CT, US","cover":"OVC","clouds":[{"cover":"FEW","base":1500},{"cover":"SCT","base":3200},{"cover":"OVC","base":8000}],"fltCat":"VFR"},{"icaoId":"KHRL","receiptTime":"2026-04-16T04:34:06.504Z","obsTime":1776313800,"reportTime":"2026-04-16T04:30:00.000Z","temp":23.3,"dewp":22.2,"wdir":130,"wspd":7,"visib":"10+","altim":1014.3,"qcField":4,"metarType":"SPECI","rawOb":"SPECI KHRL 160430Z 13007KT 10SM BKN016 OVC060 23/22 A2995 RMK AO2 T02330222","lat":26.2303,"lon":-97.6556,"elev":9,"name":"Harlingen/Valley Intl, TX, US","cover":"OVC","clouds":[{"cover":"BKN","base":1600},{"cover":"OVC","base":6000}],"fltCat":"MVFR"},{"icaoId":"KPIH","receiptTime":"2026-04-16T04:28:03.339Z","obsTime":1776313440,"reportTime":"2026-04-16T04:24:00.000Z","temp":10.6,"dewp":1.7,"wdir":260,"wspd":11,"wgst":27,"visib":"10+","altim":1006.2,"qcField":6,"metarType":"SPECI","rawOb":"SPECI KPIH 160424Z AUTO 26011G27KT 10SM BKN090 OVC100 11/02 A2971 RMK AO2 PK WND 19031/0356 WSHFT 0404 T01060017","lat":42.9197,"lon":-112.5723,"elev":1357,"name":"Pocatello Rgnl, ID, US","cover":"OVC","clouds":[{"cover":"BKN","base":9000},{"cover":"OVC","base":10000}],"fltCat":"VFR"},{"icaoId":"KBRO","receiptTime":"2026-04-16T04:22:11.589Z","obsTime":1776313140,"reportTime":"2026-04-16T04:19:00.000Z","temp":25,"dewp":22.8,"wdir":150,"wspd":9,"visib":"10+","altim":1014.6,"qcField":4,"metarType":"SPECI","rawOb":"SPECI KBRO 160419Z 15009KT 10SM OVC016 25/23 A2996 RMK AO2 T02500228","lat":25.9146,"lon":-97.4231,"elev":6,"name":"Brownsville Intl, TX, US","cover":"OVC","clouds":[{"cover":"OVC","base":1600}],"fltCat":"MVFR"},{"icaoId":"KTWF","receiptTime":"2026-04-16T04:22:11.656Z","obsTime":1776313140,"reportTime":"2026-04-16T04:19:00.000Z","temp":5.6,"dewp":4.4,"wdir":290,"wspd":16,"wgst":33,"visib":"10+","altim":1008.9,"qcField":14,"wxString":"-RA","precip":0.01,"metarType":"SPECI","rawOb":"SPECI KTWF 160419Z AUTO 29016G33KT 10SM -RA SCT018 BKN027 OVC085 06/04 A2979 RMK AO2 PK WND 28035/0408 WSHFT 0403 PRESRR P0001 T00560044 $","lat":42.4785,"lon":-114.4775,"elev":1269,"name":"Twin Falls/Joslin Fld, ID, US","cover":"OVC","clouds":[{"cover":"SCT","base":1800},{"cover":"BKN","base":2700},{"cover":"OVC","base":8500}],"fltCat":"MVFR"},{"icaoId":"KBOS","receiptTime":"2026-04-16T04:21:10.552Z","obsTime":1776313020,"reportTime":"2026-04-16T04:17:00.000Z","temp":8.9,"dewp":7.8,"wdir":70,"wspd":7,"visib":5,"altim":1013,"qcField":12,"wxString":"BR","metarType":"SPECI","rawOb":"SPECI KBOS 160417Z 07007KT 5SM BR BKN006 OVC011 09/08 A2991 RMK AO2 T00890078 $","lat":42.3606,"lon":-71.0097,"elev":4,"name":"Boston/Logan Intl, MA, US","cover":"OVC","clouds":[{"cover":"BKN","base":600},{"cover":"OVC","base":1100}],"fltCat":"IFR"},{"icaoId":"KROC","receiptTime":"2026-04-16T04:16:04.918Z","obsTime":1776312720,"reportTime":"2026-04-16T04:12:00.000Z","temp":15.6,"dewp":15,"wdir":0,"wspd":0,"visib":"10+","altim":1010.9,"qcField":12,"metarType":"SPECI","rawOb":"SPECI KROC 160412Z 00000KT 10SM BKN028 BKN032 BKN085 16/15 A2985 RMK AO2 T01560150 $","lat":43.1172,"lon":-77.6754,"elev":166,"name":"Rochester Intl Arpt, NY, US","cover":"BKN","clouds":[{"cover":"BKN","base":2800},{"cover":"BKN","base":3200},{"cover":"BKN","base":8500}],"fltCat":"MVFR"},{"icaoId":"KMDW","receiptTime":"2026-04-16T04:18:17.229Z","obsTime":1776312720,"reportTime":"2026-04-16T04:12:00.000Z","temp":16.1,"dewp":14.4,"wdir":340,"wspd":11,"visib":3,"altim":1009.6,"qcField":5,"wxString":"-TSRA BR","precip":0.09,"metarType":"SPECI","rawOb":"SPECI KMDW 160412Z COR 34011KT 3SM -TSRA BR SCT023 BKN028 OVC036CB 16/14 A2981 RMK AO2 WSHFT 0340 RAB0355 TSB12 FRQ LTGIC OHD TS OHD MOV E P0009 T01610144","lat":41.7841,"lon":-87.7552,"elev":186,"name":"Chicago/Midway Intl, IL, US","cover":"OVC","clouds":[{"cover":"SCT","base":2300},{"cover":"BKN","base":2800},{"cover":"OVC","base":3600}],"fltCat":"MVFR"},{"icaoId":"KPNC","receiptTime":"2026-04-16T04:08:18.623Z","obsTime":1776312240,"reportTime":"2026-04-16T04:04:00.000Z","temp":16.7,"dewp":14.4,"wdir":90,"wspd":7,"visib":"10+","altim":1010.2,"qcField":6,"metarType":"SPECI","rawOb":"SPECI KPNC 160404Z AUTO 09007KT 10SM CLR 17/14 A2983 RMK AO2 LTG DSNT E AND SE T01670144","lat":36.7369,"lon":-97.1024,"elev":304,"name":"Ponca City Rgnl, OK, US","cover":"CLR","clouds":[],"fltCat":"VFR"},{"icaoId":"KORD","receiptTime":"2026-04-16T04:06:14.918Z","obsTime":1776312180,"reportTime":"2026-04-16T04:03:00.000Z","temp":16.1,"dewp":14.4,"wdir":310,"wspd":9,"visib":"10+","altim":1009.6,"qcField":4,"wxString":"RA","precip":0.01,"metarType":"SPECI","rawOb":"SPECI KORD 160403Z 31009KT 10SM RA SCT036 BKN044 OVC050 16/14 A2981 RMK AO2 TSE02 OCNL LTGIC DSNT SE CB DSNT SE MOV SE P0001 T01610144","lat":41.9602,"lon":-87.9316,"elev":202,"name":"Chicago/O'Hare Intl, IL, US","cover":"OVC","clouds":[{"cover":"SCT","base":3600},{"cover":"BKN","base":4400},{"cover":"OVC","base":5000}],"fltCat":"VFR"},{"icaoId":"KNFL","receiptTime":"2026-04-16T04:00:54.316Z","obsTime":1776311820,"reportTime":"2026-04-16T04:00:00.000Z","temp":14.4,"dewp":-2.8,"wdir":260,"wspd":6,"visib":"10+","altim":1013,"slp":1010.3,"qcField":4,"metarType":"METAR","rawOb":"METAR KNFL 160357Z 26006KT 10SM SCT070 SCT100 BKN220 14/M03 A2991 RMK AO2 PK WND 24026/0317 SLP103 T01441028","lat":39.417,"lon":-118.705,"elev":1199,"name":"Fallon , NV, US","cover":"BKN","clouds":[{"cover":"SCT","base":7000},{"cover":"SCT","base":10000},{"cover":"BKN","base":22000}],"fltCat":"VFR"},{"icaoId":"KFLG","receiptTime":"2026-04-16T04:00:59.584Z","obsTime":1776311820,"reportTime":"2026-04-16T04:00:00.000Z","temp":5.6,"dewp":-5.6,"wdir":0,"wspd":0,"visib":"10+","altim":1020.4,"slp":1015.2,"qcField":6,"metarType":"METAR","rawOb":"METAR KFLG 160357Z AUTO 00000KT 10SM CLR 06/M06 A3013 RMK AO2 SLP152 T00561056","lat":35.1443,"lon":-111.6664,"elev":2134,"name":"Flagstaff/Pulliam Arpt, AZ, US","cover":"CLR","clouds":[],"fltCat":"VFR"},{"icaoId":"KNYL","receiptTime":"2026-04-16T04:00:54.271Z","obsTime":1776311820,"reportTime":"2026-04-16T04:00:00.000Z","temp":25,"dewp":1.7,"wdir":210,"wspd":6,"visib":"10+","altim":1011.6,"slp":1011.4,"qcField":4,"metarType":"METAR","rawOb":"METAR KNYL 160357Z 21006KT 10SM CLR 25/02 A2987 RMK AO2 SLP114 T02500017","lat":32.66,"lon":-114.6078,"elev":58,"name":"Yuma , AZ, US","cover":"CLR","clouds":[],"fltCat":"VFR"},{"icaoId":"KVIS","receiptTime":"2026-04-16T03:58:36.423Z","obsTime":1776311760,"reportTime":"2026-04-16T04:00:00.000Z","temp":18.9,"dewp":6.7,"wdir":320,"wspd":10,"visib":"10+","altim":1015.7,"slp":1015.5,"qcField":14,"metarType":"METAR","rawOb":"METAR KVIS 160356Z AUTO 32010KT 10SM CLR 19/07 A2999 RMK AO2 SLP155 T01890067 PNO $","lat":36.3135,"lon":-119.3884,"elev":92,"name":"Visalia Muni, CA, US","cover":"CLR","clouds":[],"fltCat":"VFR"},{"icaoId":"KCGZ","receiptTime":"2026-04-16T03:58:27.641Z","obsTime":1776311760,"reportTime":"2026-04-16T04:00:00.000Z","temp":22.2,"dewp":-7.2,"wdir":20,"wspd":4,"visib":"10+","altim":1013.3,"slp":1012.2,"qcField":14,"metarType":"METAR","rawOb":"METAR KCGZ 160356Z AUTO 02004KT 10SM CLR 22/M07 A2992 RMK AO2 SLP122 T02221072 $","lat":32.9531,"lon":-111.7725,"elev":444,"name":"Casa Granda Muni, AZ, US","cover":"CLR","clouds":[],"fltCat":"VFR"},{"icaoId":"KLWS","receiptTime":"2026-04-16T04:00:42.649Z","obsTime":1776311760,"reportTime":"2026-04-16T04:00:00.000Z","temp":5,"dewp":-1.1,"wdir":290,"wspd":14,"wgst":27,"visib":"10+","altim":1010.9,"slp":1011.1,"qcField":6,"metarType":"METAR","rawOb":"METAR KLWS 160356Z AUTO 29014G27KT 10SM SCT050 OVC070 05/M01 A2985 RMK AO2 PK WND 30027/0349 SLP111 T00501011","lat":46.3746,"lon":-117.0153,"elev":435,"name":"Lewiston/Nez Perce Cnty, ID, US","cover":"OVC","clouds":[{"cover":"SCT","base":5000},{"cover":"OVC","base":7000}],"fltCat":"VFR"},{"icaoId":"KEGE","receiptTime":"2026-04-16T03:58:26.188Z","obsTime":1776311760,"reportTime":"2026-04-16T04:00:00.000Z","temp":6.1,"dewp":-2.8,"wdir":100,"wspd":7,"visib":"10+","altim":1017.7,"slp":1015,"qcField":6,"metarType":"METAR","rawOb":"METAR KEGE 160356Z AUTO 10007KT 10SM CLR 06/M03 A3005 RMK AO2 SLP150 T00611028","lat":39.6448,"lon":-106.9176,"elev":1993,"name":"Eagle Cnty Rgnl, CO, US","cover":"CLR","clouds":[],"fltCat":"VFR"},{"icaoId":"KCEC","receiptTime":"2026-04-16T04:00:45.633Z","obsTime":1776311760,"reportTime":"2026-04-16T04:00:00.000Z","temp":8.9,"dewp":2.8,"wdir":350,"wspd":11,"wgst":20,"visib":"10+","altim":1022.8,"slp":1022.6,"qcField":6,"metarType":"METAR","rawOb":"METAR KCEC 160356Z AUTO 35011G20KT 10SM CLR 09/03 A3020 RMK AO2 SLP226 T00890028","lat":41.7836,"lon":-124.238,"elev":17,"name":"Crescent City/McNama, CA, US","cover":"CLR","clouds":[],"fltCat":"VFR"},{"icaoId":"KCOE","receiptTime":"2026-04-16T03:58:22.396Z","obsTime":1776311760,"reportTime":"2026-04-16T04:00:00.000Z","temp":2.8,"dewp":-1.7,"wdir":240,"wspd":7,"visib":"10+","altim":1006.9,"slp":1009.9,"qcField":14,"metarType":"METAR","rawOb":"METAR KCOE 160356Z AUTO 24007KT 10SM FEW080 03/M02 A2973 RMK AO2 SLP099 T00281017 PNO $","lat":47.7719,"lon":-116.8332,"elev":693,"name":"Coeur DAlene Arpt, ID, US","cover":"FEW","clouds":[{"cover":"FEW","base":8000}],"fltCat":"VFR"},{"icaoId":"KDUG","receiptTime":"2026-04-16T04:02:17.115Z","obsTime":1776311760,"reportTime":"2026-04-16T04:00:00.000Z","temp":13.9,"dewp":-12.2,"wdir":340,"wspd":4,"visib":"10+","altim":1016.7,"slp":1012.3,"qcField":38,"metarType":"METAR","rawOb":"METAR KDUG 160356Z AUTO 34004KT 10SM CLR 14/M12 A3002 RMK AO2 SLP123 T01391122 TSNO","lat":31.4725,"lon":-109.6022,"elev":1260,"name":"Douglas/Bisbee Intl, AZ, US","cover":"CLR","clouds":[],"fltCat":"VFR"},{"icaoId":"KTPH","receiptTime":"2026-04-16T04:00:46.441Z","obsTime":1776311760,"reportTime":"2026-04-16T04:00:00.000Z","temp":12.2,"dewp":-6.7,"wdir":180,"wspd":6,"visib":"10+","altim":1014.3,"slp":1011.1,"qcField":6,"metarType":"METAR","rawOb":"METAR KTPH 160356Z AUTO 18006KT 10SM CLR 12/M07 A2995 RMK AO2 SLP111 T01221067","lat":38.0505,"lon":-117.0906,"elev":1647,"name":"Tonopah Arpt, NV, US","cover":"CLR","clouds":[],"fltCat":"VFR"},{"icaoId":"KJAX","receiptTime":"2026-04-16T04:00:41.036Z","obsTime":1776311760,"reportTime":"2026-04-16T04:00:00.000Z","temp":18.9,"dewp":15,"wdir":170,"wspd":6,"visib":"10+","altim":1020.7,"slp":1020.5,"qcField":12,"metarType":"METAR","rawOb":"METAR KJAX 160356Z 17006KT 10SM CLR 19/15 A3014 RMK AO2 SLP205 T01890150 $","lat":30.4953,"lon":-81.6937,"elev":8,"name":"Jacksonville Intl, FL, US","cover":"CLR","clouds":[],"fltCat":"VFR"},{"icaoId":"KPVU","receiptTime":"2026-04-16T03:58:35.277Z","obsTime":1776311760,"reportTime":"2026-04-16T04:00:00.000Z","temp":16.7,"dewp":1.1,"wdir":200,"wspd":7,"visib":"10+","altim":1010.6,"slp":1007.5,"qcField":4,"metarType":"METAR","rawOb":"METAR KPVU 160356Z 20007KT 10SM OVC110 17/01 A2984 RMK AO2 SLP075 T01670011","lat":40.224,"lon":-111.7252,"elev":1370,"name":"Provo Muni, UT, US","cover":"OVC","clouds":[{"cover":"OVC","base":11000}],"fltCat":"VFR"},{"icaoId":"KJAC","receiptTime":"2026-04-16T03:58:30.277Z","obsTime":1776311760,"reportTime":"2026-04-16T04:00:00.000Z","temp":3.3,"dewp":1.1,"wdir":180,"wspd":10,"visib":"10+","altim":1008.9,"slp":1009.5,"qcField":4,"precip":0.005,"metarType":"METAR","rawOb":"METAR KJAC 160356Z 18010KT 10SM SCT030 OVC040 03/01 A2979 RMK AO2 RAE44 SLP095 P0000 T00330011","lat":43.6129,"lon":-110.7366,"elev":1967,"name":"Jackson Hole Arpt, WY, US","cover":"OVC","clouds":[{"cover":"SCT","base":3000},{"cover":"OVC","base":4000}],"fltCat":"VFR"},{"icaoId":"KLAS","receiptTime":"2026-04-16T04:00:45.983Z","obsTime":1776311760,"reportTime":"2026-04-16T04:00:00.000Z","temp":23.9,"dewp":-6.1,"wdir":220,"wspd":7,"visib":"10+","altim":1011.6,"slp":1009.8,"qcField":4,"metarType":"METAR","rawOb":"METAR KLAS 160356Z 22007KT 10SM SCT200 SCT250 24/M06 A2987 RMK AO2 SLP098 T02391061","lat":36.0719,"lon":-115.1634,"elev":662,"name":"Las Vegas/Reid Intl, NV, US","cover":"SCT","clouds":[{"cover":"SCT","base":20000},{"cover":"SCT","base":25000}],"fltCat":"VFR"},{"icaoId":"KINW","receiptTime":"2026-04-16T04:00:45.963Z","obsTime":1776311760,"reportTime":"2026-04-16T04:00:00.000Z","temp":11.7,"dewp":-6.7,"wdir":220,"wspd":4,"visib":"10+","altim":1017.4,"slp":1013.8,"qcField":6,"metarType":"METAR","rawOb":"METAR KINW 160356Z AUTO 22004KT 10SM CLR 12/M07 A3004 RMK AO2 SLP138 T01171067","lat":35.0279,"lon":-110.7221,"elev":1492,"name":"Winslow/Lindberg Rgnl, AZ, US","cover":"CLR","clouds":[],"fltCat":"VFR"},{"icaoId":"KSBP","receiptTime":"2026-04-16T04:00:46.265Z","obsTime":1776311760,"reportTime":"2026-04-16T04:00:00.000Z","temp":12.2,"dewp":10,"wdir":320,"wspd":6,"visib":"10+","altim":1016.7,"slp":1016.4,"qcField":6,"metarType":"METAR","rawOb":"METAR KSBP 160356Z AUTO 32006KT 10SM CLR 12/10 A3002 RMK AO2 SLP164 T01220100","lat":35.2381,"lon":-120.644,"elev":52,"name":"San Luis Obispo/San Luis Cnty, CA, US","cover":"CLR","clouds":[],"fltCat":"VFR"},{"icaoId":"KGUC","receiptTime":"2026-04-16T03:58:32.663Z","obsTime":1776311760,"reportTime":"2026-04-16T04:00:00.000Z","temp":3.9,"dewp":-4.4,"wdir":"VRB","wspd":3,"visib":"10+","altim":1019.4,"slp":1017.7,"qcField":14,"metarType":"METAR","rawOb":"METAR KGUC 160356Z AUTO VRB03KT 10SM CLR 04/M04 A3010 RMK AO2 SLP177 T00391044 $","lat":38.5322,"lon":-106.9419,"elev":2337,"name":"Gunnison Arpt, CO, US","cover":"CLR","clouds":[],"fltCat":"VFR"},{"icaoId":"KHND","receiptTime":"2026-04-16T03:58:32.982Z","obsTime":1776311760,"reportTime":"2026-04-16T04:00:00.000Z","temp":22.8,"dewp":-6.1,"wdir":230,"wspd":8,"visib":"10+","altim":1013,"slp":1012.6,"qcField":12,"metarType":"METAR","rawOb":"METAR KHND 160356Z 23008KT 10SM CLR 23/M06 A2991 RMK AO2 SLP126 T02281061 $","lat":35.9657,"lon":-115.1343,"elev":740,"name":"Henderson Exec, NV, US","cover":"CLR","clouds":[],"fltCat":"VFR"},{"icaoId":"KBZN","receiptTime":"2026-04-16T04:00:45.614Z","obsTime":1776311760,"reportTime":"2026-04-16T04:00:00.000Z","temp":6.1,"dewp":3.3,"wdir":360,"wspd":9,"visib":"10+","altim":1002.1,"slp":1001.2,"qcField":4,"metarType":"METAR","rawOb":"METAR KBZN 160356Z 36009KT 10SM BKN050 OVC065 06/03 A2959 RMK AO2 SLP012 T00610033","lat":45.7876,"lon":-111.1615,"elev":1349,"name":"Bozeman/Gallatin Fld, MT, US","cover":"OVC","clouds":[{"cover":"BKN","base":5000},{"cover":"OVC","base":6500}],"fltCat":"VFR"},{"icaoId":"KCHS","receiptTime":"2026-04-16T04:00:44.699Z","obsTime":1776311760,"reportTime":"2026-04-16T04:00:00.000Z","temp":18.9,"dewp":16.1,"wdir":190,"wspd":8,"visib":"10+","altim":1019.7,"slp":1019.6,"qcField":4,"metarType":"METAR","rawOb":"METAR KCHS 160356Z 19008KT 10SM FEW250 19/16 A3011 RMK AO2 SLP196 T01890161","lat":32.8995,"lon":-80.0407,"elev":12,"name":"Charleston Intl, SC, US","cover":"FEW","clouds":[{"cover":"FEW","base":25000}],"fltCat":"VFR"},{"icaoId":"KSGU","receiptTime":"2026-04-16T03:58:38.605Z","obsTime":1776311760,"reportTime":"2026-04-16T04:00:00.000Z","temp":20,"dewp":-3.3,"wdir":140,"wspd":4,"visib":"10+","altim":1012.6,"slp":1010.8,"qcField":6,"metarType":"METAR","rawOb":"METAR KSGU 160356Z AUTO 14004KT 10SM CLR 20/M03 A2990 RMK AO2 SLP108 T02001033","lat":37.0444,"lon":-113.5034,"elev":877,"name":"Saint George Muni, UT, US","cover":"CLR","clouds":[],"fltCat":"VFR"},{"icaoId":"KSDY","receiptTime":"2026-04-16T03:58:38.448Z","obsTime":1776311760,"reportTime":"2026-04-16T04:00:00.000Z","temp":13.3,"dewp":1.7,"wdir":90,"wspd":6,"visib":"10+","altim":1000.4,"slp":1000.9,"qcField":14,"metarType":"METAR","rawOb":"METAR KSDY 160356Z AUTO 09006KT 10SM OVC100 13/02 A2954 RMK AO2 SLP009 T01330017 $","lat":47.7029,"lon":-104.1951,"elev":600,"name":"Sidney/Richland Muni, MT, US","cover":"OVC","clouds":[{"cover":"OVC","base":10000}],"fltCat":"VFR"},{"icaoId":"KHDN","receiptTime":"2026-04-16T03:58:32.863Z","obsTime":1776311760,"reportTime":"2026-04-16T04:00:00.000Z","temp":7.8,"dewp":-3.9,"wdir":230,"wspd":3,"visib":"10+","altim":1015.7,"slp":1013.1,"qcField":6,"metarType":"METAR","rawOb":"METAR KHDN 160356Z AUTO 23003KT 10SM CLR 08/M04 A2999 RMK AO2 SLP131 T00781039","lat":40.4842,"lon":-107.2296,"elev":2012,"name":"Hayden/Yampa Valley Arpt, CO, US","cover":"CLR","clouds":[],"fltCat":"VFR"},{"icaoId":"KENV","receiptTime":"2026-04-16T03:58:26.413Z","obsTime":1776311760,"reportTime":"2026-04-16T04:00:00.000Z","temp":16.7,"dewp":-3.3,"wdir":260,"wspd":11,"visib":"10+","altim":1008.5,"slp":1006.7,"qcField":6,"metarType":"METAR","rawOb":"METAR KENV 160356Z AUTO 26011KT 10SM CLR 17/M03 A2978 RMK AO2 SLP067 T01671033","lat":40.7211,"lon":-114.0312,"elev":1291,"name":"Wendover Arpt, UT, US","cover":"CLR","clouds":[],"fltCat":"VFR"},{"icaoId":"KFNL","receiptTime":"2026-04-16T03:58:26.769Z","obsTime":1776311760,"reportTime":"2026-04-16T04:00:00.000Z","temp":14.4,"dewp":-5,"wdir":260,"wspd":8,"visib":"10+","altim":1011.3,"slp":1006.9,"qcField":14,"metarType":"METAR","rawOb":"METAR KFNL 160356Z AUTO 26008KT 10SM CLR 14/M05 A2986 RMK AO2 SLP069 T01441050 $","lat":40.4427,"lon":-105.0097,"elev":1529,"name":"Fort Collins/N Colorado Rgnl, CO, US","cover":"CLR","clouds":[],"fltCat":"VFR"},{"icaoId":"KCOD","receiptTime":"2026-04-16T03:58:27.820Z","obsTime":1776311760,"reportTime":"2026-04-16T04:00:00.000Z","temp":8.3,"dewp":-1.7,"wdir":200,"wspd":8,"visib":"10+","altim":1004.8,"slp":1002.9,"qcField":14,"metarType":"METAR","rawOb":"METAR KCOD 160356Z AUTO 20008KT 10SM CLR 08/M02 A2967 RMK AO2 SLP029 T00831017 $","lat":44.52,"lon":-109.0268,"elev":1550,"name":"Cody/Yellowstone Rgnl, WY, US","cover":"CLR","clouds":[],"fltCat":"VFR"},{"icaoId":"KSFO","receiptTime":"2026-04-16T04:00:46.410Z","obsTime":1776311760,"reportTime":"2026-04-16T04:00:00.000Z","temp":13.3,"dewp":10,"wdir":280,"wspd":12,"wgst":20,"visib":"10+","altim":1018.7,"slp":1018.4,"qcField":12,"metarType":"METAR","rawOb":"METAR KSFO 160356Z 28012G20KT 10SM SCT019 BKN200 13/10 A3008 RMK AO2 SLP184 T01330100 $","lat":37.6196,"lon":-122.3656,"elev":2,"name":"San Francisco Intl, CA, US","cover":"BKN","clouds":[{"cover":"SCT","base":1900},{"cover":"BKN","base":20000}],"fltCat":"VFR"},{"icaoId":"KRDM","receiptTime":"2026-04-16T04:00:42.681Z","obsTime":1776311760,"reportTime":"2026-04-16T04:00:00.000Z","temp":0.6,"dewp":-4.4,"wdir":280,"wspd":7,"visib":"10+","altim":1015,"slp":1015.6,"qcField":4,"metarType":"METAR","rawOb":"METAR KRDM 160356Z 28007KT 10SM BKN050 01/M04 A2997 RMK AO2 SLP156 T00061044","lat":44.2558,"lon":-121.1407,"elev":930,"name":"Redmond Muni, OR, US","cover":"BKN","clouds":[{"cover":"BKN","base":5000}],"fltCat":"VFR"},{"icaoId":"KUKI","receiptTime":"2026-04-16T04:00:42.391Z","obsTime":1776311760,"reportTime":"2026-04-16T04:00:00.000Z","temp":12.8,"dewp":9.4,"wdir":0,"wspd":0,"visib":"10+","altim":1018,"slp":1017.5,"qcField":6,"metarType":"METAR","rawOb":"METAR KUKI 160356Z AUTO 00000KT 10SM FEW026 OVC048 13/09 A3006 RMK AO2 SLP175 T01280094","lat":39.1278,"lon":-123.2001,"elev":183,"name":"Ukiah Muni, CA, US","cover":"OVC","clouds":[{"cover":"FEW","base":2600},{"cover":"OVC","base":4800}],"fltCat":"VFR"},{"icaoId":"KEKO","receiptTime":"2026-04-16T04:00:45.726Z","obsTime":1776311760,"reportTime":"2026-04-16T04:00:00.000Z","temp":12.8,"dewp":-4.4,"wdir":230,"wspd":20,"wgst":29,"visib":"10+","altim":1010.2,"slp":1007.6,"qcField":6,"metarType":"METAR","rawOb":"METAR KEKO 160356Z AUTO 23020G29KT 10SM OVC090 13/M04 A2983 RMK AO2 PK WND 24032/0332 SLP076 T01281044","lat":40.824,"lon":-115.7863,"elev":1541,"name":"Elko Rgnl, NV, US","cover":"OVC","clouds":[{"cover":"OVC","base":9000}],"fltCat":"VFR"},{"icaoId":"KSDF","receiptTime":"2026-04-16T04:00:43.808Z","obsTime":1776311760,"reportTime":"2026-04-16T04:00:00.000Z","temp":24.4,"dewp":13.9,"wdir":180,"wspd":9,"visib":"10+","altim":1013.3,"slp":1012.8,"qcField":4,"metarType":"METAR","rawOb":"METAR KSDF 160356Z 18009KT 10SM BKN250 24/14 A2992 RMK AO2 SLP128 T02440139","lat":38.1774,"lon":-85.7308,"elev":146,"name":"Louisville Intl, KY, US","cover":"BKN","clouds":[{"cover":"BKN","base":25000}],"fltCat":"VFR"},{"icaoId":"KGPI","receiptTime":"2026-04-16T03:58:32.562Z","obsTime":1776311700,"reportTime":"2026-04-16T04:00:00.000Z","temp":2.2,"dewp":0,"wdir":140,"wspd":11,"wgst":18,"visib":"10+","altim":1004.8,"slp":1006.3,"qcField":4,"metarType":"METAR","rawOb":"METAR KGPI 160355Z 14011G18KT 10SM FEW120 02/00 A2967 RMK AO2 SLP063 T00220000","lat":48.3041,"lon":-114.2643,"elev":903,"name":"Kalispell/Glacier Park Intl, MT, US","cover":"FEW","clouds":[{"cover":"FEW","base":12000}],"fltCat":"VFR"},{"icaoId":"KAST","receiptTime":"2026-04-16T03:58:29.108Z","obsTime":1776311700,"reportTime":"2026-04-16T04:00:00.000Z","temp":5,"dewp":2.8,"wdir":260,"wspd":11,"wgst":17,"visib":8,"altim":1017,"slp":1016.9,"qcField":6,"wxString":"-RA","precip":0.005,"metarType":"METAR","rawOb":"METAR KAST 160355Z AUTO 26011G17KT 8SM -RA SCT025 BKN031 BKN040 05/03 A3003 RMK AO2 RAE02B43 SLP169 P0000 T00500028","lat":46.157,"lon":-123.8833,"elev":3,"name":"Astoria Rgnl, OR, US","cover":"BKN","clouds":[{"cover":"SCT","base":2500},{"cover":"BKN","base":3100},{"cover":"BKN","base":4000}],"fltCat":"VFR"},{"icaoId":"KCMA","receiptTime":"2026-04-16T03:58:27.753Z","obsTime":1776311700,"reportTime":"2026-04-16T04:00:00.000Z","temp":14.4,"dewp":11.1,"wdir":150,"wspd":4,"visib":"10+","altim":1015.3,"slp":1016.1,"qcField":6,"metarType":"METAR","rawOb":"METAR KCMA 160355Z AUTO 15004KT 10SM CLR 14/11 A2998 RMK AO2 SLP161 T01440111","lat":34.2114,"lon":-119.0876,"elev":20,"name":"Camarillo Arpt, CA, US","cover":"CLR","clouds":[],"fltCat":"VFR"},{"icaoId":"KRNO","receiptTime":"2026-04-16T03:58:23.642Z","obsTime":1776311700,"reportTime":"2026-04-16T04:00:00.000Z","temp":11.7,"dewp":-1.1,"wdir":60,"wspd":7,"visib":"10+","altim":1014.3,"slp":1012.1,"qcField":4,"metarType":"METAR","rawOb":"METAR KRNO 160355Z 06007KT 10SM SCT065 12/M01 A2995 RMK AO2 SLP121 T01171011","lat":39.5077,"lon":-119.7683,"elev":1344,"name":"Reno/Tahoe Intl, NV, US","cover":"SCT","clouds":[{"cover":"SCT","base":6500}],"fltCat":"VFR"},{"icaoId":"KLUF","receiptTime":"2026-04-16T04:06:14.368Z","obsTime":1776311700,"reportTime":"2026-04-16T04:00:00.000Z","temp":25,"dewp":-7.5,"wdir":220,"wspd":4,"visib":"10+","altim":1011.6,"slp":1010.5,"qcField":14,"metarType":"METAR","rawOb":"METAR KLUF 160355Z AUTO 22004KT 10SM CLR 25/M07 A2987 RMK AO2 SLP105 T02501075 $","lat":33.538,"lon":-112.38,"elev":333,"name":"Phoenix/Luke AFB, AZ, US","cover":"CLR","clouds":[],"fltCat":"VFR"},{"icaoId":"KEND","receiptTime":"2026-04-16T04:16:04.788Z","obsTime":1776311700,"reportTime":"2026-04-16T04:00:00.000Z","temp":20.1,"dewp":18.2,"wdir":180,"wspd":5,"visib":"10+","altim":1008.9,"slp":1007.8,"qcField":14,"metarType":"METAR","rawOb":"METAR KEND 160355Z AUTO 18005KT 10SM CLR 20/18 A2979 RMK AO2 SLP078 T02010182 $","lat":36.338,"lon":-97.919,"elev":392,"name":"Enid/Vance AFB, OK, US","cover":"CLR","clouds":[],"fltCat":"VFR"},{"icaoId":"KBWI","receiptTime":"2026-04-16T03:58:20.202Z","obsTime":1776311640,"reportTime":"2026-04-16T04:00:00.000Z","temp":22.2,"dewp":15,"wdir":0,"wspd":0,"visib":"10+","altim":1012.6,"slp":1012.2,"qcField":4,"metarType":"METAR","rawOb":"METAR KBWI 160354Z 00000KT 10SM FEW200 BKN250 22/15 A2990 RMK AO2 SLP122 T02220150","lat":39.1733,"lon":-76.684,"elev":42,"name":"Baltimore-Washington Intl, MD, US","cover":"BKN","clouds":[{"cover":"FEW","base":20000},{"cover":"BKN","base":25000}],"fltCat":"VFR"},{"icaoId":"KGCN","receiptTime":"2026-04-16T03:58:18.691Z","obsTime":1776311640,"reportTime":"2026-04-16T04:00:00.000Z","temp":5.6,"dewp":-5.6,"wdir":220,"wspd":4,"visib":"10+","altim":1019.4,"slp":1014.7,"qcField":6,"metarType":"METAR","rawOb":"METAR KGCN 160354Z AUTO 22004KT 10SM CLR 06/M06 A3010 RMK AO2 SLP147 T00561056","lat":35.9458,"lon":-112.1554,"elev":1993,"name":"Grand Canyon Park Arpt, AZ, US","cover":"CLR","clouds":[],"fltCat":"VFR"},{"icaoId":"KIND","receiptTime":"2026-04-16T03:58:19.023Z","obsTime":1776311640,"reportTime":"2026-04-16T04:00:00.000Z","temp":18.9,"dewp":16.1,"wdir":210,"wspd":4,"visib":"10+","altim":1011.6,"slp":1010.9,"qcField":4,"metarType":"METAR","rawOb":"METAR KIND 160354Z 21004KT 10SM BKN250 19/16 A2987 RMK AO2 SLP109 T01890161","lat":39.7252,"lon":-86.2816,"elev":242,"name":"Indianapolis Intl, IN, US","cover":"BKN","clouds":[{"cover":"BKN","base":25000}],"fltCat":"VFR"},{"icaoId":"KAPC","receiptTime":"2026-04-16T03:58:07.234Z","obsTime":1776311640,"reportTime":"2026-04-16T04:00:00.000Z","temp":12.2,"dewp":10,"wdir":240,"wspd":4,"visib":"10+","altim":1018,"slp":1016.9,"qcField":6,"metarType":"METAR","rawOb":"METAR KAPC 160354Z AUTO 24004KT 10SM CLR 12/10 A3006 RMK AO2 SLP169 T01220100","lat":38.2075,"lon":-122.2804,"elev":5,"name":"Napa Cnty Arpt, CA, US","cover":"CLR","clouds":[],"fltCat":"VFR"},{"icaoId":"KFFZ","receiptTime":"2026-04-16T03:58:18.556Z","obsTime":1776311640,"reportTime":"2026-04-16T04:00:00.000Z","temp":22.2,"dewp":0,"wdir":0,"wspd":0,"visib":"10+","altim":1012.6,"slp":1010.5,"qcField":4,"metarType":"METAR","rawOb":"METAR KFFZ 160354Z 00000KT 10SM CLR 22/00 A2990 RMK AO2 SLP105 T02220000","lat":33.4659,"lon":-111.7212,"elev":420,"name":"Mesa/Falcon Fld, AZ, US","cover":"CLR","clouds":[],"fltCat":"VFR"},{"icaoId":"KSJN","receiptTime":"2026-04-16T03:58:17.512Z","obsTime":1776311640,"reportTime":"2026-04-16T04:00:00.000Z","temp":10.6,"dewp":-8.3,"wdir":200,"wspd":3,"visib":"10+","altim":1018.4,"slp":1013.6,"qcField":6,"metarType":"METAR","rawOb":"METAR KSJN 160354Z AUTO 20003KT 10SM CLR 11/M08 A3007 RMK AO2 SLP136 T01061083","lat":34.5184,"lon":-109.3801,"elev":1747,"name":"St Johns Ind Arpt, AZ, US","cover":"CLR","clouds":[],"fltCat":"VFR"},{"icaoId":"KOLS","receiptTime":"2026-04-16T03:58:16.870Z","obsTime":1776311640,"reportTime":"2026-04-16T04:00:00.000Z","temp":16.7,"dewp":-12.8,"wdir":0,"wspd":0,"visib":"10+","altim":1016.7,"slp":1012.4,"qcField":6,"metarType":"METAR","rawOb":"METAR KOLS 160354Z AUTO 00000KT 10SM CLR 17/M13 A3002 RMK AO2 SLP124 T01671128","lat":31.4208,"lon":-110.8465,"elev":1194,"name":"Nogales Intl, AZ, US","cover":"CLR","clouds":[],"fltCat":"VFR"},{"icaoId":"KSYR","receiptTime":"2026-04-16T03:58:11.148Z","obsTime":1776311640,"reportTime":"2026-04-16T04:00:00.000Z","temp":15.6,"dewp":15,"wdir":120,"wspd":4,"visib":8,"altim":1011.3,"slp":1010.7,"qcField":4,"wxString":"-RA","precip":0.02,"metarType":"METAR","rawOb":"METAR KSYR 160354Z 12004KT 8SM -RA FEW045 BKN060 OVC100 16/15 A2986 RMK AO2 SLP107 P0002 T01560150","lat":43.1111,"lon":-76.1038,"elev":125,"name":"Syracuse/Hancock Intl, NY, US","cover":"OVC","clouds":[{"cover":"FEW","base":4500},{"cover":"BKN","base":6000},{"cover":"OVC","base":10000}],"fltCat":"VFR"},{"icaoId":"KOLM","receiptTime":"2026-04-16T03:58:11.441Z","obsTime":1776311640,"reportTime":"2026-04-16T04:00:00.000Z","temp":4.4,"dewp":1.1,"wdir":190,"wspd":6,"visib":"10+","altim":1015.7,"slp":1015.8,"qcField":6,"metarType":"METAR","rawOb":"METAR KOLM 160354Z AUTO 19006KT 10SM SCT032 BKN048 BKN060 04/01 A2999 RMK AO2 SLP158 T00440011","lat":46.9737,"lon":-122.9049,"elev":58,"name":"Olympia Rgnl, WA, US","cover":"BKN","clouds":[{"cover":"SCT","base":3200},{"cover":"BKN","base":4800},{"cover":"BKN","base":6000}],"fltCat":"VFR"},{"icaoId":"KCOS","receiptTime":"2026-04-16T03:58:10.786Z","obsTime":1776311640,"reportTime":"2026-04-16T04:00:00.000Z","temp":8.9,"dewp":-9.4,"wdir":10,"wspd":9,"visib":"10+","altim":1014.3,"slp":1010.4,"qcField":4,"metarType":"METAR","rawOb":"METAR KCOS 160354Z 01009KT 10SM CLR 09/M09 A2995 RMK AO2 SLP104 T00891094","lat":38.8095,"lon":-104.6887,"elev":1886,"name":"Colorado Spring Arpt, CO, US","cover":"CLR","clouds":[],"fltCat":"VFR"},{"icaoId":"KPHL","receiptTime":"2026-04-16T03:58:17.044Z","obsTime":1776311640,"reportTime":"2026-04-16T04:00:00.000Z","temp":24.4,"dewp":15,"wdir":220,"wspd":6,"visib":"10+","altim":1012.6,"slp":1012.3,"qcField":12,"metarType":"METAR","rawOb":"METAR KPHL 160354Z 22006KT 10SM SCT190 BKN250 24/15 A2990 RMK AO2 SLP123 T02440150 $","lat":39.8733,"lon":-75.2268,"elev":2,"name":"Philadelphia Intl, PA, US","cover":"BKN","clouds":[{"cover":"SCT","base":19000},{"cover":"BKN","base":25000}],"fltCat":"VFR"},{"icaoId":"KSLC","receiptTime":"2026-04-16T03:58:07.216Z","obsTime":1776311640,"reportTime":"2026-04-16T04:00:00.000Z","temp":16.1,"dewp":0.6,"wdir":240,"wspd":5,"visib":"10+","altim":1008.9,"slp":1005.3,"qcField":4,"metarType":"METAR","rawOb":"METAR KSLC 160354Z 24005KT 10SM FEW090 SCT110 BKN140 16/01 A2979 RMK AO2 SLP053 T01610006","lat":40.7707,"lon":-111.965,"elev":1286,"name":"Salt Lake City Intl, UT, US","cover":"BKN","clouds":[{"cover":"FEW","base":9000},{"cover":"SCT","base":11000},{"cover":"BKN","base":14000}],"fltCat":"VFR"},{"icaoId":"KDSM","receiptTime":"2026-04-16T03:58:10.821Z","obsTime":1776311640,"reportTime":"2026-04-16T04:00:00.000Z","temp":15,"dewp":13.9,"wdir":240,"wspd":6,"visib":"10+","altim":1005.8,"slp":1005.4,"qcField":4,"metarType":"METAR","rawOb":"METAR KDSM 160354Z 24006KT 10SM FEW060 FEW090 15/14 A2970 RMK AO2 SLP054 T01500139","lat":41.5339,"lon":-93.6531,"elev":286,"name":"Des Moines Intl, IA, US","cover":"FEW","clouds":[{"cover":"FEW","base":6000},{"cover":"FEW","base":9000}],"fltCat":"VFR"},{"icaoId":"KMEM","receiptTime":"2026-04-16T03:58:19.616Z","obsTime":1776311640,"reportTime":"2026-04-16T04:00:00.000Z","temp":22.8,"dewp":12.8,"wdir":190,"wspd":8,"visib":"10+","altim":1014.6,"slp":1013.9,"qcField":4,"metarType":"METAR","rawOb":"METAR KMEM 160354Z 19008KT 10SM BKN250 23/13 A2996 RMK AO2 SLP139 T02280128","lat":35.0564,"lon":-89.9864,"elev":78,"name":"Memphis Intl, TN, US","cover":"BKN","clouds":[{"cover":"BKN","base":25000}],"fltCat":"VFR"},{"icaoId":"KGSO","receiptTime":"2026-04-16T03:58:10.859Z","obsTime":1776311640,"reportTime":"2026-04-16T04:00:00.000Z","temp":22.8,"dewp":9.4,"wdir":230,"wspd":8,"visib":"10+","altim":1017.4,"slp":1015.9,"qcField":4,"metarType":"METAR","rawOb":"METAR KGSO 160354Z 23008KT 10SM BKN250 23/09 A3004 RMK AO2 SLP159 T02280094","lat":36.0969,"lon":-79.9432,"elev":275,"name":"Greensboro Intl, NC, US","cover":"BKN","clouds":[{"cover":"BKN","base":25000}],"fltCat":"VFR"},{"icaoId":"KBFL","receiptTime":"2026-04-16T03:58:20.125Z","obsTime":1776311640,"reportTime":"2026-04-16T04:00:00.000Z","temp":20,"dewp":7.8,"wdir":10,"wspd":4,"visib":"10+","altim":1015,"slp":1014.6,"qcField":4,"metarType":"METAR","rawOb":"METAR KBFL 160354Z 01004KT 10SM CLR 20/08 A2997 RMK AO2 SLP146 T02000078","lat":35.4342,"lon":-119.0552,"elev":146,"name":"Bakersfield/Meadows Arpt, CA, US","cover":"CLR","clouds":[],"fltCat":"VFR"},{"icaoId":"KRKS","receiptTime":"2026-04-16T03:58:17.299Z","obsTime":1776311640,"reportTime":"2026-04-16T04:00:00.000Z","temp":8.3,"dewp":-4.4,"wdir":200,"wspd":4,"visib":"10+","altim":1011.6,"slp":1007.4,"qcField":6,"metarType":"METAR","rawOb":"METAR KRKS 160354Z AUTO 20004KT 10SM BKN090 08/M04 A2987 RMK AO2 SLP074 T00831044","lat":41.5947,"lon":-109.0529,"elev":2062,"name":"Rock Springs/SW Wyoming Rgnl, WY, US","cover":"BKN","clouds":[{"cover":"BKN","base":9000}],"fltCat":"VFR"},{"icaoId":"KRIC","receiptTime":"2026-04-16T03:58:11.015Z","obsTime":1776311640,"reportTime":"2026-04-16T04:00:00.000Z","temp":21.7,"dewp":14.4,"wdir":210,"wspd":6,"visib":"10+","altim":1015,"slp":1015.1,"qcField":4,"metarType":"METAR","rawOb":"METAR KRIC 160354Z 21006KT 10SM BKN250 22/14 A2997 RMK AO2 SLP151 T02170144","lat":37.5115,"lon":-77.3234,"elev":51,"name":"Richmond Intl, VA, US","cover":"BKN","clouds":[{"cover":"BKN","base":25000}],"fltCat":"VFR"},{"icaoId":"KMFE","receiptTime":"2026-04-16T03:56:45.598Z","obsTime":1776311580,"reportTime":"2026-04-16T04:00:00.000Z","temp":24.4,"dewp":20.6,"wdir":130,"wspd":9,"visib":"10+","altim":1014.3,"slp":1014,"qcField":4,"metarType":"METAR","rawOb":"METAR KMFE 160353Z 13009KT 10SM BKN065 24/21 A2995 RMK AO2 SLP140 T02440206","lat":26.1791,"lon":-98.2445,"elev":29,"name":"McAllen/Miller Intl, TX, US","cover":"BKN","clouds":[{"cover":"BKN","base":6500}],"fltCat":"VFR"},{"icaoId":"KMFR","receiptTime":"2026-04-16T03:56:45.618Z","obsTime":1776311580,"reportTime":"2026-04-16T04:00:00.000Z","temp":4.4,"dewp":-1.1,"wdir":350,"wspd":8,"visib":"10+","altim":1019.7,"slp":1020.2,"qcField":6,"metarType":"METAR","rawOb":"METAR KMFR 160353Z AUTO 35008KT 10SM CLR 04/M01 A3011 RMK AO2 SLP202 T00441011","lat":42.375,"lon":-122.877,"elev":397,"name":"Medford/Rogue Valley Intl, OR, US","cover":"CLR","clouds":[],"fltCat":"VFR"},{"icaoId":"KLAW","receiptTime":"2026-04-16T03:56:45.878Z","obsTime":1776311580,"reportTime":"2026-04-16T04:00:00.000Z","temp":16.7,"dewp":15,"wdir":0,"wspd":0,"visib":"10+","altim":1011.6,"slp":1010.6,"qcField":6,"metarType":"METAR","rawOb":"METAR KLAW 160353Z AUTO 00000KT 10SM CLR 17/15 A2987 RMK AO2 SLP106 T01670150","lat":34.5577,"lon":-98.4172,"elev":328,"name":"Lawton-Fort Sill Rgnl, OK, US","cover":"CLR","clouds":[],"fltCat":"VFR"},{"icaoId":"KLOL","receiptTime":"2026-04-16T03:56:46.125Z","obsTime":1776311580,"reportTime":"2026-04-16T04:00:00.000Z","temp":13.3,"dewp":-1.7,"wdir":260,"wspd":15,"visib":"10+","altim":1012.3,"slp":1010.5,"qcField":6,"metarType":"METAR","rawOb":"METAR KLOL 160353Z AUTO 26015KT 10SM CLR 13/M02 A2989 RMK AO2 PK WND 25031/0331 SLP105 T01331017","lat":40.0684,"lon":-118.5702,"elev":1191,"name":"Lovelock/Derby Fld, NV, US","cover":"CLR","clouds":[],"fltCat":"VFR"},{"icaoId":"KBFI","receiptTime":"2026-04-16T03:56:40.767Z","obsTime":1776311580,"reportTime":"2026-04-16T04:00:00.000Z","temp":4.4,"dewp":2.8,"wdir":240,"wspd":3,"visib":"10+","altim":1015.7,"slp":1015.3,"qcField":12,"wxString":"-RA","precip":0.04,"metarType":"METAR","rawOb":"METAR KBFI 160353Z 24003KT 10SM -RA FEW021 OVC030 04/03 A2999 RMK AO2 SLP153 P0004 T00440028 $","lat":47.5455,"lon":-122.3148,"elev":7,"name":"Seattle/Boeing Fld, WA, US","cover":"OVC","clouds":[{"cover":"FEW","base":2100},{"cover":"OVC","base":3000}],"fltCat":"MVFR"},{"icaoId":"KBCE","receiptTime":"2026-04-16T03:56:40.688Z","obsTime":1776311580,"reportTime":"2026-04-16T04:00:00.000Z","temp":3.9,"dewp":-5,"wdir":300,"wspd":6,"visib":"10+","altim":1018.7,"slp":1012.7,"qcField":6,"metarType":"METAR","rawOb":"METAR KBCE 160353Z AUTO 30006KT 10SM CLR 04/M05 A3008 RMK AO2 SLP127 T00391050","lat":37.7013,"lon":-112.149,"elev":2311,"name":"Bryce Canyon Arpt, UT, US","cover":"CLR","clouds":[],"fltCat":"VFR"},{"icaoId":"KCDC","receiptTime":"2026-04-16T03:56:39.561Z","obsTime":1776311580,"reportTime":"2026-04-16T04:00:00.000Z","temp":10.6,"dewp":-2.8,"wdir":190,"wspd":8,"visib":"10+","altim":1016,"slp":1011.9,"qcField":6,"metarType":"METAR","rawOb":"METAR KCDC 160353Z AUTO 19008KT 10SM CLR 11/M03 A3000 RMK AO2 SLP119 T01061028","lat":37.7067,"lon":-113.097,"elev":1703,"name":"Cedar City Muni, UT, US","cover":"CLR","clouds":[],"fltCat":"VFR"},{"icaoId":"KELY","receiptTime":"2026-04-16T03:56:38.974Z","obsTime":1776311580,"reportTime":"2026-04-16T04:00:00.000Z","temp":12.2,"dewp":-7.2,"wdir":190,"wspd":10,"visib":"10+","altim":1013.3,"slp":1007.3,"qcField":6,"metarType":"METAR","rawOb":"METAR KELY 160353Z AUTO 19010KT 10SM OVC095 12/M07 A2992 RMK AO2 SLP073 T01221072","lat":39.2954,"lon":-114.8466,"elev":1906,"name":"Ely/Yelland Fld, NV, US","cover":"OVC","clouds":[{"cover":"OVC","base":9500}],"fltCat":"VFR"},{"icaoId":"KSHR","receiptTime":"2026-04-16T03:56:42.472Z","obsTime":1776311580,"reportTime":"2026-04-16T04:00:00.000Z","temp":9.4,"dewp":-1.7,"wdir":200,"wspd":7,"visib":"10+","altim":1001.4,"slp":1000.1,"qcField":6,"metarType":"METAR","rawOb":"METAR KSHR 160353Z AUTO 20007KT 10SM CLR 09/M02 A2957 RMK AO2 SLP001 T00941017","lat":44.7603,"lon":-106.9741,"elev":1212,"name":"Sheridan Cnty Arpt, WY, US","cover":"CLR","clouds":[],"fltCat":"VFR"},{"icaoId":"KTUS","receiptTime":"2026-04-16T03:56:44.582Z","obsTime":1776311580,"reportTime":"2026-04-16T04:00:00.000Z","temp":21.1,"dewp":-9.4,"wdir":10,"wspd":3,"visib":"10+","altim":1015,"slp":1011.6,"qcField":12,"metarType":"METAR","rawOb":"METAR KTUS 160353Z 01003KT 10SM CLR 21/M09 A2997 RMK AO2 SLP116 T02111094 $","lat":32.1315,"lon":-110.9564,"elev":776,"name":"Tucson Intl Arpt, AZ, US","cover":"CLR","clouds":[],"fltCat":"VFR"},{"icaoId":"KPAE","receiptTime":"2026-04-16T03:56:42.488Z","obsTime":1776311580,"reportTime":"2026-04-16T04:00:00.000Z","temp":4.4,"dewp":2.8,"wdir":270,"wspd":5,"visib":"10+","altim":1014.3,"slp":1014.6,"qcField":6,"metarType":"METAR","rawOb":"METAR KPAE 160353Z AUTO 27005KT 10SM FEW013 OVC045 04/03 A2995 RMK AO2 SLP146 T00440028","lat":47.9232,"lon":-122.2831,"elev":166,"name":"Everett/Paine Fld, WA, US","cover":"OVC","clouds":[{"cover":"FEW","base":1300},{"cover":"OVC","base":4500}],"fltCat":"VFR"},{"icaoId":"KFUL","receiptTime":"2026-04-16T03:56:41.793Z","obsTime":1776311580,"reportTime":"2026-04-16T04:00:00.000Z","temp":17.2,"dewp":11.7,"wdir":"VRB","wspd":4,"visib":"10+","altim":1015,"slp":1014.8,"qcField":4,"metarType":"METAR","rawOb":"METAR KFUL 160353Z VRB04KT 10SM CLR 17/12 A2997 RMK AO2 SLP148 T01720117","lat":33.8715,"lon":-117.9856,"elev":23,"name":"Fullerton Muni, CA, US","cover":"CLR","clouds":[],"fltCat":"VFR"},{"icaoId":"KGJT","receiptTime":"2026-04-16T03:56:36.839Z","obsTime":1776311580,"reportTime":"2026-04-16T04:00:00.000Z","temp":11.1,"dewp":2.8,"wdir":"VRB","wspd":3,"visib":"10+","altim":1014.3,"slp":1011.2,"qcField":4,"metarType":"METAR","rawOb":"METAR KGJT 160353Z VRB03KT 10SM CLR 11/03 A2995 RMK AO2 SLP112 T01110028","lat":39.1344,"lon":-108.5408,"elev":1475,"name":"Grand Junction Rgnl, CO, US","cover":"CLR","clouds":[],"fltCat":"VFR"},{"icaoId":"KBNA","receiptTime":"2026-04-16T03:56:40.946Z","obsTime":1776311580,"reportTime":"2026-04-16T04:00:00.000Z","temp":20.6,"dewp":10.6,"wdir":200,"wspd":5,"visib":"10+","altim":1017,"slp":1016.2,"qcField":4,"metarType":"METAR","rawOb":"METAR KBNA 160353Z 20005KT 10SM FEW250 21/11 A3003 RMK AO2 SLP162 T02060106","lat":36.1105,"lon":-86.6881,"elev":168,"name":"Nashville Intl, TN, US","cover":"FEW","clouds":[{"cover":"FEW","base":25000}],"fltCat":"VFR"},{"icaoId":"KSJC","receiptTime":"2026-04-16T03:56:37.971Z","obsTime":1776311580,"reportTime":"2026-04-16T04:00:00.000Z","temp":13.3,"dewp":8.3,"wdir":310,"wspd":8,"visib":"10+","altim":1018.7,"slp":1018.6,"qcField":12,"metarType":"METAR","rawOb":"METAR KSJC 160353Z 31008KT 10SM SCT035 BKN085 13/08 A3008 RMK AO2 SLP186 T01330083 $","lat":37.3594,"lon":-121.9244,"elev":13,"name":"San Jose Intl Arpt, CA, US","cover":"BKN","clouds":[{"cover":"SCT","base":3500},{"cover":"BKN","base":8500}],"fltCat":"VFR"},{"icaoId":"KCYS","receiptTime":"2026-04-16T03:56:41.150Z","obsTime":1776311580,"reportTime":"2026-04-16T04:00:00.000Z","temp":10.6,"dewp":-5.6,"wdir":240,"wspd":12,"visib":"10+","altim":1011.9,"slp":1007.1,"qcField":6,"metarType":"METAR","rawOb":"METAR KCYS 160353Z AUTO 24012KT 10SM CLR 11/M06 A2988 RMK AO2 SLP071 T01061056","lat":41.1579,"lon":-104.8081,"elev":1868,"name":"Cheyenne Rgnl, WY, US","cover":"CLR","clouds":[],"fltCat":"VFR"},{"icaoId":"KLGB","receiptTime":"2026-04-16T03:56:46.027Z","obsTime":1776311580,"reportTime":"2026-04-16T04:00:00.000Z","temp":16.1,"dewp":12.8,"wdir":310,"wspd":6,"visib":"10+","altim":1015,"slp":1014.8,"qcField":4,"metarType":"METAR","rawOb":"METAR KLGB 160353Z 31006KT 10SM CLR 16/13 A2997 RMK AO2 SLP148 T01610128","lat":33.8118,"lon":-118.1472,"elev":10,"name":"Long Beach Arpt, CA, US","cover":"CLR","clouds":[],"fltCat":"VFR"},{"icaoId":"KLAR","receiptTime":"2026-04-16T03:56:45.862Z","obsTime":1776311580,"reportTime":"2026-04-16T04:00:00.000Z","temp":6.7,"dewp":-3.9,"wdir":200,"wspd":10,"visib":"10+","altim":1013.6,"slp":1009.3,"qcField":14,"metarType":"METAR","rawOb":"METAR KLAR 160353Z AUTO 20010KT 10SM CLR 07/M04 A2993 RMK AO2 SLP093 T00671039 $","lat":41.3165,"lon":-105.6729,"elev":2217,"name":"Laramie Rgnl, WY, US","cover":"CLR","clouds":[],"fltCat":"VFR"},{"icaoId":"KDEN","receiptTime":"2026-04-16T03:56:41.197Z","obsTime":1776311580,"reportTime":"2026-04-16T04:00:00.000Z","temp":12.2,"dewp":-7.2,"wdir":220,"wspd":4,"visib":"10+","altim":1012.3,"slp":1007.1,"qcField":4,"metarType":"METAR","rawOb":"METAR KDEN 160353Z 22004KT 10SM FEW120 FEW220 12/M07 A2989 RMK AO2 SLP071 T01221072","lat":39.8466,"lon":-104.6562,"elev":1656,"name":"Denver Intl, CO, US","cover":"FEW","clouds":[{"cover":"FEW","base":12000},{"cover":"FEW","base":22000}],"fltCat":"VFR"},{"icaoId":"KIAH","receiptTime":"2026-04-16T03:56:37.095Z","obsTime":1776311580,"reportTime":"2026-04-16T04:00:00.000Z","temp":22.8,"dewp":20.6,"wdir":160,"wspd":10,"visib":"10+","altim":1015.7,"slp":1015.4,"qcField":4,"metarType":"METAR","rawOb":"METAR KIAH 160353Z 16010KT 10SM FEW020 FEW250 23/21 A2999 RMK AO2 SLP154 T02280206","lat":29.9844,"lon":-95.3607,"elev":27,"name":"Houston/Bush Intl, TX, US","cover":"FEW","clouds":[{"cover":"FEW","base":2000},{"cover":"FEW","base":25000}],"fltCat":"VFR"},{"icaoId":"KHLN","receiptTime":"2026-04-16T03:56:36.879Z","obsTime":1776311580,"reportTime":"2026-04-16T04:00:00.000Z","temp":4.4,"dewp":-3.3,"wdir":280,"wspd":21,"wgst":36,"visib":"10+","altim":1003.1,"slp":1005.1,"qcField":4,"metarType":"METAR","rawOb":"METAR KHLN 160353Z 28021G36KT 10SM OVC085 04/M03 A2962 RMK AO2 PK WND 26037/0255 SLP051 T00441033","lat":46.6045,"lon":-111.9892,"elev":1178,"name":"Helena Rgnl, MT, US","cover":"OVC","clouds":[{"cover":"OVC","base":8500}],"fltCat":"VFR"},{"icaoId":"KMAF","receiptTime":"2026-04-16T03:56:37.309Z","obsTime":1776311580,"reportTime":"2026-04-16T04:00:00.000Z","temp":23.3,"dewp":0.6,"wdir":210,"wspd":6,"visib":"10+","altim":1014.3,"slp":1010,"qcField":6,"metarType":"METAR","rawOb":"METAR KMAF 160353Z AUTO 21006KT 10SM CLR 23/01 A2995 RMK AO2 SLP100 T02330006","lat":31.9475,"lon":-102.2086,"elev":874,"name":"Midland Intl, TX, US","cover":"CLR","clouds":[],"fltCat":"VFR"},{"icaoId":"KMSY","receiptTime":"2026-04-16T03:56:37.578Z","obsTime":1776311580,"reportTime":"2026-04-16T04:00:00.000Z","temp":22.2,"dewp":19.4,"wdir":150,"wspd":7,"visib":"10+","altim":1018.7,"slp":1019,"qcField":4,"metarType":"METAR","rawOb":"METAR KMSY 160353Z 15007KT 10SM FEW020 FEW065 22/19 A3008 RMK AO2 SLP190 T02220194","lat":29.9974,"lon":-90.2777,"elev":0,"name":"New Orleans/Armstrong Intl, LA, US","cover":"FEW","clouds":[{"cover":"FEW","base":2000},{"cover":"FEW","base":6500}],"fltCat":"VFR"},{"icaoId":"KSMF","receiptTime":"2026-04-16T03:56:37.997Z","obsTime":1776311580,"reportTime":"2026-04-16T04:00:00.000Z","temp":13.9,"dewp":10.6,"wdir":240,"wspd":6,"visib":"10+","altim":1015.7,"slp":1015.5,"qcField":4,"metarType":"METAR","rawOb":"METAR KSMF 160353Z 24006KT 10SM FEW080 BKN250 14/11 A2999 RMK AO2 SLP155 T01390106","lat":38.7007,"lon":-121.5948,"elev":7,"name":"Sacramento Intl, CA, US","cover":"BKN","clouds":[{"cover":"FEW","base":8000},{"cover":"BKN","base":25000}],"fltCat":"VFR"},{"icaoId":"KSTS","receiptTime":"2026-04-16T03:56:38.139Z","obsTime":1776311580,"reportTime":"2026-04-16T04:00:00.000Z","temp":13.3,"dewp":8.9,"wdir":260,"wspd":6,"visib":"10+","altim":1018,"slp":1017.3,"qcField":6,"metarType":"METAR","rawOb":"METAR KSTS 160353Z AUTO 26006KT 10SM SCT036 13/09 A3006 RMK AO2 SLP173 T01330089","lat":38.5037,"lon":-122.811,"elev":35,"name":"Santa Rosa/Schulz Arpt, CA, US","cover":"SCT","clouds":[{"cover":"SCT","base":3600}],"fltCat":"VFR"},{"icaoId":"KVEL","receiptTime":"2026-04-16T03:56:38.169Z","obsTime":1776311580,"reportTime":"2026-04-16T04:00:00.000Z","temp":14.4,"dewp":-4.4,"wdir":190,"wspd":13,"wgst":22,"visib":"10+","altim":1011.9,"slp":1008.6,"qcField":6,"metarType":"METAR","rawOb":"METAR KVEL 160353Z AUTO 19013G22KT 10SM BKN095 OVC110 14/M04 A2988 RMK AO2 PK WND 19027/0311 SLP086 T01441044","lat":40.4429,"lon":-109.5128,"elev":1604,"name":"Vernal Rgnl, UT, US","cover":"OVC","clouds":[{"cover":"BKN","base":9500},{"cover":"OVC","base":11000}],"fltCat":"VFR"},{"icaoId":"KCNY","receiptTime":"2026-04-16T03:56:38.817Z","obsTime":1776311580,"reportTime":"2026-04-16T04:00:00.000Z","temp":13.9,"dewp":-2.2,"wdir":210,"wspd":9,"visib":"10+","altim":1013,"slp":1010.1,"qcField":6,"metarType":"METAR","rawOb":"METAR KCNY 160353Z AUTO 21009KT 10SM CLR 14/M02 A2991 RMK AO2 SLP101 T01391022","lat":38.7501,"lon":-109.7627,"elev":1392,"name":"Moab/Canyonland Fld, UT, US","cover":"CLR","clouds":[],"fltCat":"VFR"},{"icaoId":"KCNM","receiptTime":"2026-04-16T03:56:39.749Z","obsTime":1776311580,"reportTime":"2026-04-16T04:00:00.000Z","temp":16.7,"dewp":-9.4,"wdir":240,"wspd":10,"visib":"10+","altim":1015.3,"slp":1010.9,"qcField":6,"metarType":"METAR","rawOb":"METAR KCNM 160353Z AUTO 24010KT 10SM CLR 17/M09 A2998 RMK AO2 SLP109 T01671094","lat":32.3336,"lon":-104.2584,"elev":993,"name":"Carlsbad/Cavern City Air Term, NM, US","cover":"CLR","clouds":[],"fltCat":"VFR"},{"icaoId":"KDTW","receiptTime":"2026-04-16T03:56:40.231Z","obsTime":1776311580,"reportTime":"2026-04-16T04:00:00.000Z","temp":18.9,"dewp":15.6,"wdir":150,"wspd":3,"visib":"10+","altim":1010.2,"slp":1009.8,"qcField":12,"metarType":"METAR","rawOb":"METAR KDTW 160353Z 15003KT 10SM SCT045 BKN060 BKN230 19/16 A2983 RMK AO2 SLP098 T01890156 $","lat":42.2311,"lon":-83.3312,"elev":192,"name":"Detroit/Metro Wayne Cnty, MI, US","cover":"BKN","clouds":[{"cover":"SCT","base":4500},{"cover":"BKN","base":6000},{"cover":"BKN","base":23000}],"fltCat":"VFR"},{"icaoId":"KBHM","receiptTime":"2026-04-16T03:56:40.829Z","obsTime":1776311580,"reportTime":"2026-04-16T04:00:00.000Z","temp":18.9,"dewp":12.2,"wdir":0,"wspd":0,"visib":"10+","altim":1019.4,"slp":1018.7,"qcField":4,"metarType":"METAR","rawOb":"METAR KBHM 160353Z 00000KT 10SM CLR 19/12 A3010 RMK AO2 SLP187 T01890122","lat":33.5655,"lon":-86.7449,"elev":191,"name":"Birmingham Intl, AL, US","cover":"CLR","clouds":[],"fltCat":"VFR"},{"icaoId":"KSWO","receiptTime":"2026-04-16T03:56:41.923Z","obsTime":1776311580,"reportTime":"2026-04-16T04:00:00.000Z","temp":20,"dewp":18.3,"wdir":320,"wspd":4,"visib":9,"altim":1010.2,"slp":1009,"qcField":6,"metarType":"METAR","rawOb":"METAR KSWO 160353Z AUTO 32004KT 9SM CLR 20/18 A2983 RMK AO2 LTG DSNT N SLP090 T02000183","lat":36.1624,"lon":-97.0832,"elev":293,"name":"Stillwater Muni, OK, US","cover":"CLR","clouds":[],"fltCat":"VFR"},{"icaoId":"KSDL","receiptTime":"2026-04-16T03:56:42.382Z","obsTime":1776311580,"reportTime":"2026-04-16T04:00:00.000Z","temp":23.9,"dewp":-4.4,"wdir":0,"wspd":0,"visib":"10+","altim":1013,"slp":1011.1,"qcField":6,"metarType":"METAR","rawOb":"METAR KSDL 160353Z AUTO 00000KT 10SM CLR 24/M04 A2991 RMK AO2 SLP111 T02391044","lat":33.6123,"lon":-111.9232,"elev":438,"name":"Scottsdale Muni, AZ, US","cover":"CLR","clouds":[],"fltCat":"VFR"},{"icaoId":"KPSC","receiptTime":"2026-04-16T03:56:42.802Z","obsTime":1776311580,"reportTime":"2026-04-16T04:00:00.000Z","temp":7.8,"dewp":-1.1,"wdir":230,"wspd":13,"visib":"10+","altim":1011.6,"slp":1011.7,"qcField":4,"metarType":"METAR","rawOb":"METAR KPSC 160353Z 23013KT 10SM CLR 08/M01 A2987 RMK AO2 SLP117 T00781011","lat":46.2695,"lon":-119.1182,"elev":121,"name":"Pasco/Tri Cities Arpt, WA, US","cover":"CLR","clouds":[],"fltCat":"VFR"},{"icaoId":"KBOI","receiptTime":"2026-04-16T03:56:43.497Z","obsTime":1776311580,"reportTime":"2026-04-16T04:00:00.000Z","temp":6.1,"dewp":1.7,"wdir":340,"wspd":7,"visib":"10+","altim":1009.6,"slp":1009.8,"qcField":4,"precip":0.005,"metarType":"METAR","rawOb":"METAR KBOI 160353Z 34007KT 10SM OVC038 06/02 A2981 RMK AO2 RAB09E35 SLP098 P0000 T00610017","lat":43.567,"lon":-116.2406,"elev":860,"name":"Boise Arpt, ID, US","cover":"OVC","clouds":[{"cover":"OVC","base":3800}],"fltCat":"VFR"},{"icaoId":"KYKM","receiptTime":"2026-04-16T03:56:44.000Z","obsTime":1776311580,"reportTime":"2026-04-16T04:00:00.000Z","temp":6.1,"dewp":-6.1,"wdir":290,"wspd":15,"wgst":27,"visib":"10+","altim":1010.9,"slp":1011.4,"qcField":4,"metarType":"METAR","rawOb":"METAR KYKM 160353Z 29015G27KT 10SM CLR 06/M06 A2985 RMK AO2 PK WND 32028/0258 SLP114 T00611061","lat":46.564,"lon":-120.5349,"elev":319,"name":"Yakima/McAllister Fld, WA, US","cover":"CLR","clouds":[],"fltCat":"VFR"},{"icaoId":"KLBB","receiptTime":"2026-04-16T03:56:44.362Z","obsTime":1776311580,"reportTime":"2026-04-16T04:00:00.000Z","temp":17.8,"dewp":-7.8,"wdir":250,"wspd":4,"visib":"10+","altim":1013.6,"slp":1009.4,"qcField":4,"metarType":"METAR","rawOb":"METAR KLBB 160353Z 25004KT 10SM CLR 18/M08 A2993 RMK AO2 SLP094 T01781078","lat":33.6658,"lon":-101.8233,"elev":996,"name":"Lubbock Intl Arpt, TX, US","cover":"CLR","clouds":[],"fltCat":"VFR"},{"icaoId":"KSEA","receiptTime":"2026-04-16T03:56:44.676Z","obsTime":1776311580,"reportTime":"2026-04-16T04:00:00.000Z","temp":3.3,"dewp":1.7,"wdir":"VRB","wspd":3,"visib":7,"altim":1015.3,"slp":1016.1,"qcField":12,"wxString":"-RA","precip":0.12,"metarType":"METAR","rawOb":"METAR KSEA 160353Z VRB03KT 7SM -RA FEW012 OVC021 03/02 A2998 RMK AO2 SLP161 P0012 T00330017 $","lat":47.4447,"lon":-122.3144,"elev":115,"name":"Seattle-Tacoma Intl, WA, US","cover":"OVC","clouds":[{"cover":"FEW","base":1200},{"cover":"OVC","base":2100}],"fltCat":"MVFR"},{"icaoId":"KAMA","receiptTime":"2026-04-16T03:56:45.426Z","obsTime":1776311580,"reportTime":"2026-04-16T04:00:00.000Z","temp":15.6,"dewp":-10,"wdir":220,"wspd":6,"visib":"10+","altim":1013.3,"slp":1009.5,"qcField":4,"metarType":"METAR","rawOb":"METAR KAMA 160353Z 22006KT 10SM CLR 16/M10 A2992 RMK AO2 SLP095 T01561100","lat":35.2203,"lon":-101.7173,"elev":1102,"name":"Amarillo Intl Arpt, TX, US","cover":"CLR","clouds":[],"fltCat":"VFR"},{"icaoId":"KGTF","receiptTime":"2026-04-16T03:56:41.345Z","obsTime":1776311580,"reportTime":"2026-04-16T04:00:00.000Z","temp":3.9,"dewp":2.8,"wdir":340,"wspd":17,"wgst":25,"visib":4,"altim":1002.5,"slp":1003.4,"qcField":4,"wxString":"RA BR","precip":0.11,"metarType":"METAR","rawOb":"METAR KGTF 160353Z 34017G25KT 4SM RA BR FEW018 BKN023 OVC029 04/03 A2960 RMK AO2 LTG DSNT E SLP034 P0011 T00390028","lat":47.4733,"lon":-111.3828,"elev":1117,"name":"Great Falls Intl, MT, US","cover":"OVC","clouds":[{"cover":"FEW","base":1800},{"cover":"BKN","base":2300},{"cover":"OVC","base":2900}],"fltCat":"MVFR"},{"icaoId":"KCLL","receiptTime":"2026-04-16T03:56:38.805Z","obsTime":1776311580,"reportTime":"2026-04-16T04:00:00.000Z","temp":22.8,"dewp":18.3,"wdir":170,"wspd":10,"visib":"10+","altim":1015.3,"slp":1014.6,"qcField":6,"metarType":"METAR","rawOb":"METAR KCLL 160353Z AUTO 17010KT 10SM CLR 23/18 A2998 RMK AO2 SLP146 T02280183","lat":30.5912,"lon":-96.3631,"elev":96,"name":"College Station/Easterwood Arpt, TX, US","cover":"CLR","clouds":[],"fltCat":"VFR"},{"icaoId":"KAPA","receiptTime":"2026-04-16T03:56:39.206Z","obsTime":1776311580,"reportTime":"2026-04-16T04:00:00.000Z","temp":10,"dewp":-7.2,"wdir":210,"wspd":6,"visib":"10+","altim":1013,"slp":1009.9,"qcField":4,"metarType":"METAR","rawOb":"METAR KAPA 160353Z 21006KT 10SM FEW220 10/M07 A2991 RMK AO2 SLP099 T01001072","lat":39.5599,"lon":-104.8484,"elev":1791,"name":"Denver/Centennial Arpt, CO, US","cover":"FEW","clouds":[{"cover":"FEW","base":22000}],"fltCat":"VFR"},{"icaoId":"KTPA","receiptTime":"2026-04-16T03:56:42.072Z","obsTime":1776311580,"reportTime":"2026-04-16T04:00:00.000Z","temp":21.7,"dewp":16.1,"wdir":"VRB","wspd":3,"visib":"10+","altim":1021.1,"slp":1021,"qcField":4,"metarType":"METAR","rawOb":"METAR KTPA 160353Z VRB03KT 10SM CLR 22/16 A3015 RMK AO2 SLP210 T02170161","lat":27.9633,"lon":-82.54,"elev":2,"name":"Tampa Intl Arpt, FL, US","cover":"CLR","clouds":[],"fltCat":"VFR"},{"icaoId":"KHOU","receiptTime":"2026-04-16T03:56:36.907Z","obsTime":1776311580,"reportTime":"2026-04-16T04:00:00.000Z","temp":22.8,"dewp":20.6,"wdir":160,"wspd":9,"visib":"10+","altim":1015.7,"slp":1016,"qcField":4,"metarType":"METAR","rawOb":"METAR KHOU 160353Z 16009KT 10SM FEW020 23/21 A2999 RMK AO2 SLP160 T02280206","lat":29.6458,"lon":-95.2821,"elev":13,"name":"Houston/Hobby Arpt, TX, US","cover":"FEW","clouds":[{"cover":"FEW","base":2000}],"fltCat":"VFR"},{"icaoId":"KMIA","receiptTime":"2026-04-16T03:58:13.079Z","obsTime":1776311580,"reportTime":"2026-04-16T04:00:00.000Z","temp":23.9,"dewp":14.4,"wdir":60,"wspd":8,"visib":"10+","altim":1020.1,"slp":1020,"qcField":0,"metarType":"METAR","rawOb":"METAR KMIA 160353Z 06008KT 10SM BKN043 24/14 A3012 RMK SLP200 T02390144","lat":25.7881,"lon":-80.3169,"elev":1,"name":"Miami Intl, FL, US","cover":"BKN","clouds":[{"cover":"BKN","base":4300}],"fltCat":"VFR"},{"icaoId":"KDLN","receiptTime":"2026-04-16T03:56:40.132Z","obsTime":1776311580,"reportTime":"2026-04-16T04:00:00.000Z","temp":4.4,"dewp":1.7,"wdir":220,"wspd":17,"visib":"10+","altim":1002.8,"slp":1000.7,"qcField":6,"precip":0.04,"metarType":"METAR","rawOb":"METAR KDLN 160353Z AUTO 22017KT 10SM OVC040 04/02 A2961 RMK AO2 PK WND 22038/0305 LTG DSNT NE RAB0255E41 SLP007 P0004 T00440017","lat":45.2584,"lon":-112.5546,"elev":1586,"name":"Dillon Arpt, MT, US","cover":"OVC","clouds":[{"cover":"OVC","base":4000}],"fltCat":"VFR"},{"icaoId":"KMYF","receiptTime":"2026-04-16T03:56:37.660Z","obsTime":1776311580,"reportTime":"2026-04-16T04:00:00.000Z","temp":15.6,"dewp":12.8,"wdir":0,"wspd":0,"visib":"10+","altim":1015.7,"slp":1015.4,"qcField":4,"metarType":"METAR","rawOb":"METAR KMYF 160353Z 00000KT 10SM CLR 16/13 A2999 RMK AO2 SLP154 T01560128","lat":32.8145,"lon":-117.1375,"elev":128,"name":"San Diego/Montgomery Arpt, CA, US","cover":"CLR","clouds":[],"fltCat":"VFR"},{"icaoId":"KBLI","receiptTime":"2026-04-16T03:56:40.905Z","obsTime":1776311580,"reportTime":"2026-04-16T04:00:00.000Z","temp":3.9,"dewp":2.2,"wdir":0,"wspd":0,"visib":"10+","altim":1014,"slp":1014.6,"qcField":4,"metarType":"METAR","rawOb":"METAR KBLI 160353Z 00000KT 10SM CLR 04/02 A2994 RMK AO2 SLP146 T00390022","lat":48.7991,"lon":-122.5407,"elev":46,"name":"Bellingham Intl, WA, US","cover":"CLR","clouds":[],"fltCat":"VFR"},{"icaoId":"KDMN","receiptTime":"2026-04-16T03:56:38.943Z","obsTime":1776311580,"reportTime":"2026-04-16T04:00:00.000Z","temp":15.6,"dewp":-14.4,"wdir":300,"wspd":5,"visib":"10+","altim":1017.4,"slp":1012.2,"qcField":6,"metarType":"METAR","rawOb":"METAR KDMN 160353Z AUTO 30005KT 10SM CLR 16/M14 A3004 RMK AO2 SLP122 T01561144","lat":32.2592,"lon":-107.7206,"elev":1310,"name":"Deming Muni, NM, US","cover":"CLR","clouds":[],"fltCat":"VFR"},{"icaoId":"KLVS","receiptTime":"2026-04-16T03:56:37.254Z","obsTime":1776311580,"reportTime":"2026-04-16T04:00:00.000Z","temp":8.9,"dewp":-9.4,"wdir":210,"wspd":9,"visib":"10+","altim":1018.4,"slp":1011.9,"qcField":14,"metarType":"METAR","rawOb":"METAR KLVS 160353Z AUTO 21009KT 10SM CLR 09/M09 A3007 RMK AO2 SLP119 T00891094 PNO $","lat":35.6558,"lon":-105.1385,"elev":2095,"name":"Las Vegas Muni, NM, US","cover":"CLR","clouds":[],"fltCat":"VFR"},{"icaoId":"KMCO","receiptTime":"2026-04-16T03:56:45.540Z","obsTime":1776311580,"reportTime":"2026-04-16T04:00:00.000Z","temp":19.4,"dewp":15,"wdir":90,"wspd":4,"visib":"10+","altim":1022.1,"slp":1021.8,"qcField":4,"metarType":"METAR","rawOb":"METAR KMCO 160353Z 09004KT 10SM CLR 19/15 A3018 RMK AO2 SLP218 T01940150","lat":28.4182,"lon":-81.3241,"elev":27,"name":"Orlando Intl, FL, US","cover":"CLR","clouds":[],"fltCat":"VFR"},{"icaoId":"KMYR","receiptTime":"2026-04-16T03:56:36.610Z","obsTime":1776311580,"reportTime":"2026-04-16T04:00:00.000Z","temp":19.4,"dewp":15.6,"wdir":180,"wspd":4,"visib":"10+","altim":1020.1,"slp":1019.8,"qcField":14,"maxT24":25.6,"minT24":18.3,"metarType":"METAR","rawOb":"METAR KMYR 160353Z AUTO 18004KT 10SM CLR 19/16 A3012 RMK AO2 SLP198 T01940156 402560183 $","lat":33.6769,"lon":-78.9325,"elev":7,"name":"Myrtle Beach Intl, SC, US","cover":"CLR","clouds":[],"fltCat":"VFR"},{"icaoId":"KIDA","receiptTime":"2026-04-16T03:56:37.133Z","obsTime":1776311580,"reportTime":"2026-04-16T04:00:00.000Z","temp":8.9,"dewp":2.8,"wdir":220,"wspd":16,"wgst":26,"visib":"10+","altim":1006.5,"slp":1005.3,"qcField":6,"metarType":"METAR","rawOb":"METAR KIDA 160353Z AUTO 22016G26KT 10SM SCT047 OVC060 09/03 A2972 RMK AO2 PK WND 22026/0353 SLP053 T00890028","lat":43.5204,"lon":-112.0675,"elev":1444,"name":"Idaho Falls Rgnl, ID, US","cover":"OVC","clouds":[{"cover":"SCT","base":4700},{"cover":"OVC","base":6000}],"fltCat":"VFR"},{"icaoId":"KMLC","receiptTime":"2026-04-16T03:56:37.381Z","obsTime":1776311580,"reportTime":"2026-04-16T04:00:00.000Z","temp":16.1,"dewp":15,"wdir":160,"wspd":5,"visib":"10+","altim":1013,"slp":1012.2,"qcField":6,"precip":0.01,"metarType":"METAR","rawOb":"METAR KMLC 160353Z AUTO 16005KT 10SM CLR 16/15 A2991 RMK AO2 LTG DSNT SE RAE15 TSB01E16 SLP122 P0001 T01610150","lat":34.8824,"lon":-95.7815,"elev":231,"name":"McAlester Rgnl, OK, US","cover":"CLR","clouds":[],"fltCat":"VFR"},{"icaoId":"KMLS","receiptTime":"2026-04-16T03:56:37.426Z","obsTime":1776311580,"reportTime":"2026-04-16T04:00:00.000Z","temp":12.8,"dewp":3.3,"wdir":140,"wspd":6,"visib":"10+","altim":999.4,"slp":998.9,"qcField":6,"metarType":"METAR","rawOb":"METAR KMLS 160353Z AUTO 14006KT 10SM CLR 13/03 A2951 RMK AO2 SLP989 T01280033","lat":46.4265,"lon":-105.8834,"elev":800,"name":"Miles City/Wiley Fld, MT, US","cover":"CLR","clouds":[],"fltCat":"VFR"},{"icaoId":"KMOD","receiptTime":"2026-04-16T03:56:37.496Z","obsTime":1776311580,"reportTime":"2026-04-16T04:00:00.000Z","temp":15.6,"dewp":6.7,"wdir":330,"wspd":10,"visib":"10+","altim":1016.3,"slp":1016.1,"qcField":6,"metarType":"METAR","rawOb":"METAR KMOD 160353Z AUTO 33010KT 10SM CLR 16/07 A3001 RMK AO2 SLP161 T01560067","lat":37.6254,"lon":-120.9549,"elev":25,"name":"Modesto/Sham Fld, CA, US","cover":"CLR","clouds":[],"fltCat":"VFR"},{"icaoId":"KMTJ","receiptTime":"2026-04-16T03:56:37.604Z","obsTime":1776311580,"reportTime":"2026-04-16T04:00:00.000Z","temp":8.3,"dewp":-5,"wdir":130,"wspd":7,"visib":"10+","altim":1017.4,"slp":1013.8,"qcField":6,"metarType":"METAR","rawOb":"METAR KMTJ 160353Z AUTO 13007KT 10SM CLR 08/M05 A3004 RMK AO2 SLP138 T00831050","lat":38.5054,"lon":-107.8981,"elev":1755,"name":"Montrose Rgnl, CO, US","cover":"CLR","clouds":[],"fltCat":"VFR"},{"icaoId":"KOAK","receiptTime":"2026-04-16T03:56:37.699Z","obsTime":1776311580,"reportTime":"2026-04-16T04:00:00.000Z","temp":13.9,"dewp":10,"wdir":270,"wspd":15,"visib":"10+","altim":1019,"slp":1018.8,"qcField":12,"metarType":"METAR","rawOb":"METAR KOAK 160353Z 27015KT 10SM FEW015 FEW030 14/10 A3009 RMK AO2 SLP188 T01390100 $","lat":37.7178,"lon":-122.233,"elev":3,"name":"Oakland Intl, CA, US","cover":"FEW","clouds":[{"cover":"FEW","base":1500},{"cover":"FEW","base":3000}],"fltCat":"VFR"},{"icaoId":"KOGD","receiptTime":"2026-04-16T03:56:37.736Z","obsTime":1776311580,"reportTime":"2026-04-16T04:00:00.000Z","temp":15,"dewp":0.6,"wdir":150,"wspd":6,"visib":"10+","altim":1009.2,"slp":1005.6,"qcField":6,"metarType":"METAR","rawOb":"METAR KOGD 160353Z AUTO 15006KT 10SM FEW065 OVC085 15/01 A2980 RMK AO2 SLP056 T01500006","lat":41.1941,"lon":-112.0168,"elev":1356,"name":"Ogden/Hinckley Arpt, UT, US","cover":"OVC","clouds":[{"cover":"FEW","base":6500},{"cover":"OVC","base":8500}],"fltCat":"VFR"},{"icaoId":"KSNA","receiptTime":"2026-04-16T03:56:38.026Z","obsTime":1776311580,"reportTime":"2026-04-16T04:00:00.000Z","temp":16.7,"dewp":13.3,"wdir":220,"wspd":4,"visib":"10+","altim":1015.3,"slp":1015.3,"qcField":12,"metarType":"METAR","rawOb":"METAR KSNA 160353Z 22004KT 10SM CLR 17/13 A2998 RMK AO2 SLP153 T01670133 $","lat":33.6798,"lon":-117.8675,"elev":14,"name":"Santa Ana/Wayne Arpt, CA, US","cover":"CLR","clouds":[],"fltCat":"VFR"},{"icaoId":"KVGT","receiptTime":"2026-04-16T03:56:38.181Z","obsTime":1776311580,"reportTime":"2026-04-16T04:00:00.000Z","temp":23.9,"dewp":-7.8,"wdir":200,"wspd":8,"visib":"10+","altim":1010.9,"slp":1010.8,"qcField":4,"metarType":"METAR","rawOb":"METAR KVGT 160353Z 20008KT 10SM CLR 24/M08 A2985 RMK AO2 SLP108 T02391078","lat":36.212,"lon":-115.194,"elev":664,"name":"Las Vegas/North Arpt, NV, US","cover":"CLR","clouds":[],"fltCat":"VFR"},{"icaoId":"PANC","receiptTime":"2026-04-16T03:56:38.502Z","obsTime":1776311580,"reportTime":"2026-04-16T04:00:00.000Z","temp":1.1,"dewp":-1.1,"wdir":30,"wspd":4,"visib":"10+","altim":1013,"slp":1013,"qcField":4,"metarType":"METAR","rawOb":"METAR PANC 160353Z 03004KT 10SM BKN036 OVC044 01/M01 A2991 RMK AO2 SLP130 T00111011","lat":61.1691,"lon":-150.0277,"elev":39,"name":"Anchorage Intl, AK, US","cover":"OVC","clouds":[{"cover":"BKN","base":3600},{"cover":"OVC","base":4400}],"fltCat":"VFR"},{"icaoId":"KBIL","receiptTime":"2026-04-16T03:56:38.844Z","obsTime":1776311580,"reportTime":"2026-04-16T04:00:00.000Z","temp":11.7,"dewp":-1.1,"wdir":240,"wspd":6,"visib":"10+","altim":1000.4,"slp":999.4,"qcField":4,"metarType":"METAR","rawOb":"METAR KBIL 160353Z 24006KT 10SM SCT110 12/M01 A2954 RMK AO2 SLP994 T01171011","lat":45.8072,"lon":-108.5462,"elev":1089,"name":"Billings/Logan Intl, MT, US","cover":"SCT","clouds":[{"cover":"SCT","base":11000}],"fltCat":"VFR"},{"icaoId":"KDAL","receiptTime":"2026-04-16T03:56:38.916Z","obsTime":1776311580,"reportTime":"2026-04-16T04:00:00.000Z","temp":23.9,"dewp":20,"wdir":180,"wspd":5,"visib":"10+","altim":1012.6,"slp":1011.7,"qcField":4,"metarType":"METAR","rawOb":"METAR KDAL 160353Z 18005KT 10SM FEW085 SCT250 24/20 A2990 RMK AO2 SLP117 T02390200","lat":32.8384,"lon":-96.8358,"elev":148,"name":"Dallas/Love Fld, TX, US","cover":"SCT","clouds":[{"cover":"FEW","base":8500},{"cover":"SCT","base":25000}],"fltCat":"VFR"},{"icaoId":"KASE","receiptTime":"2026-04-16T03:56:39.293Z","obsTime":1776311580,"reportTime":"2026-04-16T04:00:00.000Z","temp":3.3,"dewp":-5.6,"wdir":210,"wspd":6,"visib":"10+","altim":1018,"slp":1012.7,"qcField":6,"metarType":"METAR","rawOb":"METAR KASE 160353Z AUTO 21006KT 10SM CLR 03/M06 A3006 RMK AO2 SLP127 T00331056","lat":39.2299,"lon":-106.8705,"elev":2384,"name":"Aspen/Pitkin Cnty, CO, US","cover":"CLR","clouds":[],"fltCat":"VFR"},{"icaoId":"KAUS","receiptTime":"2026-04-16T03:56:39.352Z","obsTime":1776311580,"reportTime":"2026-04-16T04:00:00.000Z","temp":23.9,"dewp":18.3,"wdir":160,"wspd":9,"visib":"10+","altim":1014.6,"slp":1013.5,"qcField":4,"metarType":"METAR","rawOb":"METAR KAUS 160353Z 16009KT 10SM FEW050 SCT120 24/18 A2996 RMK AO2 SLP135 T02390183","lat":30.1831,"lon":-97.6806,"elev":148,"name":"Austin/Bergstrom Intl, TX, US","cover":"SCT","clouds":[{"cover":"FEW","base":5000},{"cover":"SCT","base":12000}],"fltCat":"VFR"},{"icaoId":"KBUR","receiptTime":"2026-04-16T03:56:39.461Z","obsTime":1776311580,"reportTime":"2026-04-16T04:00:00.000Z","temp":17.8,"dewp":6.7,"wdir":170,"wspd":4,"visib":"10+","altim":1015.3,"slp":1014.2,"qcField":6,"metarType":"METAR","rawOb":"METAR KBUR 160353Z AUTO 17004KT 10SM CLR 18/07 A2998 RMK AO2 SLP142 T01780067","lat":34.1996,"lon":-118.3654,"elev":221,"name":"Burbank/Bob Hope Arpt, CA, US","cover":"CLR","clouds":[],"fltCat":"VFR"},{"icaoId":"KCPR","receiptTime":"2026-04-16T03:56:39.796Z","obsTime":1776311580,"reportTime":"2026-04-16T04:00:00.000Z","temp":12.2,"dewp":-5,"wdir":240,"wspd":17,"visib":"10+","altim":1007.5,"slp":1003.7,"qcField":6,"metarType":"METAR","rawOb":"METAR KCPR 160353Z AUTO 24017KT 10SM CLR 12/M05 A2975 RMK AO2 SLP037 T01221050","lat":42.8978,"lon":-106.4736,"elev":1623,"name":"Casper/Natrona Cnty, WY, US","cover":"CLR","clouds":[],"fltCat":"VFR"},{"icaoId":"KDFW","receiptTime":"2026-04-16T03:56:40.056Z","obsTime":1776311580,"reportTime":"2026-04-16T04:00:00.000Z","temp":22.8,"dewp":20,"wdir":170,"wspd":8,"visib":"10+","altim":1011.9,"slp":1011,"qcField":4,"metarType":"METAR","rawOb":"METAR KDFW 160353Z 17008KT 10SM FEW060 BKN250 23/20 A2988 RMK AO2 SLP110 T02280200","lat":32.8974,"lon":-97.022,"elev":168,"name":"Dallas-Ft Worth Intl, TX, US","cover":"BKN","clouds":[{"cover":"FEW","base":6000},{"cover":"BKN","base":25000}],"fltCat":"VFR"},{"icaoId":"KDRO","receiptTime":"2026-04-16T03:56:40.190Z","obsTime":1776311580,"reportTime":"2026-04-16T04:00:00.000Z","temp":7.2,"dewp":-5,"wdir":250,"wspd":4,"visib":"10+","altim":1019,"slp":1017,"qcField":6,"metarType":"METAR","rawOb":"METAR KDRO 160353Z AUTO 25004KT 10SM CLR 07/M05 A3009 RMK AO2 SLP170 T00721050","lat":37.1431,"lon":-107.7602,"elev":2021,"name":"Durango/La Plata Cnty, CO, US","cover":"CLR","clouds":[],"fltCat":"VFR"},{"icaoId":"KDVT","receiptTime":"2026-04-16T03:56:40.259Z","obsTime":1776311580,"reportTime":"2026-04-16T04:00:00.000Z","temp":23.3,"dewp":-6.1,"wdir":0,"wspd":0,"visib":"10+","altim":1012.6,"slp":1010.8,"qcField":4,"metarType":"METAR","rawOb":"METAR KDVT 160353Z 00000KT 10SM CLR 23/M06 A2990 RMK AO2 SLP108 T02331061","lat":33.6902,"lon":-112.0662,"elev":454,"name":"Phoenix/Deer Valley Arpt, AZ, US","cover":"CLR","clouds":[],"fltCat":"VFR"},{"icaoId":"KEVW","receiptTime":"2026-04-16T03:56:40.433Z","obsTime":1776311580,"reportTime":"2026-04-16T04:00:00.000Z","temp":5.6,"dewp":-3.9,"wdir":260,"wspd":11,"visib":"10+","altim":1011.9,"slp":1008.1,"qcField":14,"metarType":"METAR","rawOb":"METAR KEVW 160353Z AUTO 26011KT 10SM BKN080 06/M04 A2988 RMK AO2 SLP081 T00561039 $","lat":41.2727,"lon":-111.0305,"elev":2178,"name":"Evanston/Uinta Cnty, WY, US","cover":"BKN","clouds":[{"cover":"BKN","base":8000}],"fltCat":"VFR"},{"icaoId":"KGSP","receiptTime":"2026-04-16T03:56:41.328Z","obsTime":1776311580,"reportTime":"2026-04-16T04:00:00.000Z","temp":22.2,"dewp":11.7,"wdir":230,"wspd":7,"visib":"10+","altim":1018.7,"slp":1017.2,"qcField":6,"metarType":"METAR","rawOb":"METAR KGSP 160353Z AUTO 23007KT 10SM CLR 22/12 A3008 RMK AO2 SLP172 T02220117","lat":34.8842,"lon":-82.2209,"elev":285,"name":"Greenville-Spartanburg Intl, SC, US","cover":"CLR","clouds":[],"fltCat":"VFR"},{"icaoId":"KTUL","receiptTime":"2026-04-16T03:56:42.127Z","obsTime":1776311580,"reportTime":"2026-04-16T04:00:00.000Z","temp":21.7,"dewp":18.9,"wdir":150,"wspd":6,"visib":"10+","altim":1009.9,"slp":1009,"qcField":4,"metarType":"METAR","rawOb":"METAR KTUL 160353Z 15006KT 10SM FEW024 BKN150 BKN200 22/19 A2982 RMK AO2 SLP090 OCNL LTGICCG NW-N CB NW-N MOV E T02170189","lat":36.1985,"lon":-95.8782,"elev":196,"name":"Tulsa Intl Arpt, OK, US","cover":"BKN","clouds":[{"cover":"FEW","base":2400},{"cover":"BKN","base":15000},{"cover":"BKN","base":20000}],"fltCat":"VFR"},{"icaoId":"KSAF","receiptTime":"2026-04-16T03:56:42.337Z","obsTime":1776311580,"reportTime":"2026-04-16T04:00:00.000Z","temp":6.1,"dewp":-11.7,"wdir":10,"wspd":7,"visib":"10+","altim":1018.4,"slp":1013.7,"qcField":6,"metarType":"METAR","rawOb":"METAR KSAF 160353Z AUTO 01007KT 10SM CLR 06/M12 A3007 RMK AO2 SLP137 T00611117","lat":35.611,"lon":-106.0957,"elev":1918,"name":"Santa Fe Cnty Muni, NM, US","cover":"CLR","clouds":[],"fltCat":"VFR"},{"icaoId":"KSBA","receiptTime":"2026-04-16T03:56:42.350Z","obsTime":1776311580,"reportTime":"2026-04-16T04:00:00.000Z","temp":15,"dewp":12.8,"wdir":160,"wspd":7,"visib":"10+","altim":1014.6,"slp":1014.5,"qcField":12,"metarType":"METAR","rawOb":"METAR KSBA 160353Z 16007KT 10SM CLR 15/13 A2996 RMK AO2 SLP145 T01500128 $","lat":34.4241,"lon":-119.8425,"elev":2,"name":"Santa Barbara Muni, CA, US","cover":"CLR","clouds":[],"fltCat":"VFR"},{"icaoId":"KPBI","receiptTime":"2026-04-16T03:56:42.543Z","obsTime":1776311580,"reportTime":"2026-04-16T04:00:00.000Z","temp":23.9,"dewp":13.9,"wdir":60,"wspd":11,"visib":"10+","altim":1020.7,"slp":1020.7,"qcField":12,"metarType":"METAR","rawOb":"METAR KPBI 160353Z 06011KT 10SM BKN040 24/14 A3014 RMK AO2 SLP207 T02390139 $","lat":26.6851,"lon":-80.0992,"elev":4,"name":"Palm Beach Intl, FL, US","cover":"BKN","clouds":[{"cover":"BKN","base":4000}],"fltCat":"VFR"},{"icaoId":"KPRC","receiptTime":"2026-04-16T03:56:42.787Z","obsTime":1776311580,"reportTime":"2026-04-16T04:00:00.000Z","temp":13.9,"dewp":-6.7,"wdir":200,"wspd":8,"visib":"10+","altim":1018,"slp":1012.8,"qcField":4,"metarType":"METAR","rawOb":"METAR KPRC 160353Z 20008KT 10SM CLR 14/M07 A3006 RMK AO2 SLP128 T01391067","lat":34.6491,"lon":-112.4223,"elev":1528,"name":"Prescott/Love Fld, AZ, US","cover":"CLR","clouds":[],"fltCat":"VFR"},{"icaoId":"KPSP","receiptTime":"2026-04-16T03:56:42.817Z","obsTime":1776311580,"reportTime":"2026-04-16T04:00:00.000Z","temp":25.6,"dewp":6.1,"wdir":310,"wspd":17,"wgst":23,"visib":"10+","altim":1011.9,"slp":1011.6,"qcField":12,"metarType":"METAR","rawOb":"METAR KPSP 160353Z 31017G23KT 10SM CLR 26/06 A2988 RMK AO2 SLP116 T02560061 $","lat":33.8222,"lon":-116.5043,"elev":123,"name":"Palm Springs Intl, CA, US","cover":"CLR","clouds":[],"fltCat":"VFR"},{"icaoId":"KPUB","receiptTime":"2026-04-16T03:56:42.848Z","obsTime":1776311580,"reportTime":"2026-04-16T04:00:00.000Z","temp":11.1,"dewp":-10.6,"wdir":260,"wspd":7,"visib":"10+","altim":1011.3,"slp":1007.8,"qcField":12,"metarType":"METAR","rawOb":"METAR KPUB 160353Z 26007KT 10SM CLR 11/M11 A2986 RMK AO2 SLP078 T01111106 $","lat":38.2887,"lon":-104.5057,"elev":1441,"name":"Pueblo Mem Arpt, CO, US","cover":"CLR","clouds":[],"fltCat":"VFR"},{"icaoId":"KPUW","receiptTime":"2026-04-16T03:56:42.880Z","obsTime":1776311580,"reportTime":"2026-04-16T04:00:00.000Z","temp":2.8,"dewp":-2.2,"wdir":240,"wspd":13,"wgst":22,"visib":"10+","altim":1009.2,"slp":1010.4,"qcField":6,"metarType":"METAR","rawOb":"METAR KPUW 160353Z AUTO 24013G22KT 10SM CLR 03/M02 A2980 RMK AO2 SLP104 T00281022","lat":46.7438,"lon":-117.1158,"elev":774,"name":"Pullman/Moscow Rgnl, WA, US","cover":"CLR","clouds":[],"fltCat":"VFR"},{"icaoId":"KRDD","receiptTime":"2026-04-16T03:56:42.964Z","obsTime":1776311580,"reportTime":"2026-04-16T04:00:00.000Z","temp":14.4,"dewp":5.6,"wdir":270,"wspd":10,"wgst":16,"visib":"10+","altim":1014.3,"slp":1014.1,"qcField":4,"metarType":"METAR","rawOb":"METAR KRDD 160353Z 27010G16KT 10SM CLR 14/06 A2995 RMK AO2 SLP141 T01440056","lat":40.5146,"lon":-122.2977,"elev":152,"name":"Redding Muni, CA, US","cover":"CLR","clouds":[],"fltCat":"VFR"},{"icaoId":"KRTN","receiptTime":"2026-04-16T03:56:43.068Z","obsTime":1776311580,"reportTime":"2026-04-16T04:00:00.000Z","temp":12.2,"dewp":-11.1,"wdir":290,"wspd":15,"wgst":23,"visib":"10+","altim":1015.3,"slp":1009.5,"qcField":6,"metarType":"METAR","rawOb":"METAR KRTN 160353Z AUTO 29015G23KT 10SM CLR 12/M11 A2998 RMK AO2 SLP095 T01221111","lat":36.7418,"lon":-104.5076,"elev":1939,"name":"Raton/Crews Fld, NM, US","cover":"CLR","clouds":[],"fltCat":"VFR"},{"icaoId":"KMSP","receiptTime":"2026-04-16T03:56:43.407Z","obsTime":1776311580,"reportTime":"2026-04-16T04:00:00.000Z","temp":15.6,"dewp":5,"wdir":0,"wspd":0,"visib":"10+","altim":1006.9,"slp":1006.6,"qcField":4,"metarType":"METAR","rawOb":"METAR KMSP 160353Z 00000KT 10SM FEW120 16/05 A2973 RMK AO2 SLP066 T01560050","lat":44.8852,"lon":-93.2313,"elev":255,"name":"Minneapolis-St Paul Intl, MN, US","cover":"FEW","clouds":[{"cover":"FEW","base":12000}],"fltCat":"VFR"},{"icaoId":"KFAT","receiptTime":"2026-04-16T03:56:44.082Z","obsTime":1776311580,"reportTime":"2026-04-16T04:00:00.000Z","temp":20,"dewp":2.8,"wdir":320,"wspd":8,"visib":"10+","altim":1015.7,"slp":1015.3,"qcField":12,"metarType":"METAR","rawOb":"METAR KFAT 160353Z 32008KT 10SM FEW130 FEW200 20/03 A2999 RMK AO2 SLP153 T02000028 $","lat":36.78,"lon":-119.7202,"elev":102,"name":"Fresno/Yosemite Intl, CA, US","cover":"FEW","clouds":[{"cover":"FEW","base":13000},{"cover":"FEW","base":20000}],"fltCat":"VFR"},{"icaoId":"KFMN","receiptTime":"2026-04-16T03:56:44.115Z","obsTime":1776311580,"reportTime":"2026-04-16T04:00:00.000Z","temp":7.8,"dewp":-6.7,"wdir":0,"wspd":0,"visib":"10+","altim":1017.7,"slp":1016,"qcField":6,"metarType":"METAR","rawOb":"METAR KFMN 160353Z AUTO 00000KT 10SM CLR 08/M07 A3005 RMK AO2 SLP160 T00781067","lat":36.7435,"lon":-108.2293,"elev":1677,"name":"Farmington/Four Corners Rgnl, NM, US","cover":"CLR","clouds":[],"fltCat":"VFR"},{"icaoId":"KGEG","receiptTime":"2026-04-16T03:56:44.177Z","obsTime":1776311580,"reportTime":"2026-04-16T04:00:00.000Z","temp":2.8,"dewp":-3.3,"wdir":0,"wspd":0,"visib":"10+","altim":1007.5,"slp":1008.6,"qcField":4,"metarType":"METAR","rawOb":"METAR KGEG 160353Z 00000KT 10SM FEW045 SCT130 03/M03 A2975 RMK AO2 SLP086 T00281033","lat":47.6217,"lon":-117.528,"elev":718,"name":"Spokane Intl, WA, US","cover":"SCT","clouds":[{"cover":"FEW","base":4500},{"cover":"SCT","base":13000}],"fltCat":"VFR"},{"icaoId":"KLAX","receiptTime":"2026-04-16T03:56:44.347Z","obsTime":1776311580,"reportTime":"2026-04-16T04:00:00.000Z","temp":15.6,"dewp":12.2,"wdir":250,"wspd":8,"visib":"10+","altim":1015.3,"slp":1015,"qcField":4,"metarType":"METAR","rawOb":"METAR KLAX 160353Z 25008KT 10SM CLR 16/12 A2998 RMK AO2 SLP150 T01560122","lat":33.9382,"lon":-118.3866,"elev":30,"name":"Los Angeles Intl, CA, US","cover":"CLR","clouds":[],"fltCat":"VFR"},{"icaoId":"KMSO","receiptTime":"2026-04-16T03:56:44.420Z","obsTime":1776311580,"reportTime":"2026-04-16T04:00:00.000Z","temp":2.8,"dewp":-2.2,"wdir":180,"wspd":7,"visib":"10+","altim":1006.9,"slp":1008.1,"qcField":4,"metarType":"METAR","rawOb":"METAR KMSO 160353Z 18007KT 10SM OVC055 03/M02 A2973 RMK AO2 SLP081 T00281022","lat":46.9208,"lon":-114.0938,"elev":974,"name":"Missoula Intl, MT, US","cover":"OVC","clouds":[{"cover":"OVC","base":5500}],"fltCat":"VFR"},{"icaoId":"KPDX","receiptTime":"2026-04-16T03:56:44.448Z","obsTime":1776311580,"reportTime":"2026-04-16T04:00:00.000Z","temp":5,"dewp":3.3,"wdir":240,"wspd":5,"visib":"10+","altim":1017.7,"slp":1017.4,"qcField":12,"wxString":"-RA","precip":0.07,"metarType":"METAR","rawOb":"METAR KPDX 160353Z 24005KT 10SM -RA FEW020 BKN029 BKN041 05/03 A3005 RMK AO2 PK WND 32026/0254 SLP174 P0007 T00500033 $","lat":45.5958,"lon":-122.6092,"elev":7,"name":"Portland Intl, OR, US","cover":"BKN","clouds":[{"cover":"FEW","base":2000},{"cover":"BKN","base":2900},{"cover":"BKN","base":4100}],"fltCat":"MVFR"},{"icaoId":"KPGA","receiptTime":"2026-04-16T03:56:44.460Z","obsTime":1776311580,"reportTime":"2026-04-16T04:00:00.000Z","temp":17.2,"dewp":-4.4,"wdir":220,"wspd":3,"visib":"10+","altim":1014,"slp":1010,"qcField":14,"metarType":"METAR","rawOb":"METAR KPGA 160353Z AUTO 22003KT 10SM CLR 17/M04 A2994 RMK AO2 SLP100 T01721044 $","lat":36.9211,"lon":-111.4487,"elev":1310,"name":"Page Muni, AZ, US","cover":"CLR","clouds":[],"fltCat":"VFR"},{"icaoId":"KRIW","receiptTime":"2026-04-16T03:56:44.486Z","obsTime":1776311580,"reportTime":"2026-04-16T04:00:00.000Z","temp":9.4,"dewp":-3.3,"wdir":180,"wspd":6,"visib":"10+","altim":1006.9,"slp":1004.3,"qcField":6,"metarType":"METAR","rawOb":"METAR KRIW 160353Z AUTO 18006KT 10SM CLR 09/M03 A2973 RMK AO2 SLP043 T00941033","lat":43.0622,"lon":-108.4471,"elev":1662,"name":"Riverton Rgnl, WY, US","cover":"CLR","clouds":[],"fltCat":"VFR"},{"icaoId":"KACV","receiptTime":"2026-04-16T03:56:45.229Z","obsTime":1776311580,"reportTime":"2026-04-16T04:00:00.000Z","temp":7.2,"dewp":3.3,"wdir":360,"wspd":5,"visib":"10+","altim":1021.8,"slp":1022.3,"qcField":6,"metarType":"METAR","rawOb":"METAR KACV 160353Z AUTO 36005KT 10SM CLR 07/03 A3017 RMK AO2 SLP223 T00720033","lat":40.9784,"lon":-124.1048,"elev":63,"name":"Arcata Arpt, CA, US","cover":"CLR","clouds":[],"fltCat":"VFR"},{"icaoId":"KONT","receiptTime":"2026-04-16T03:58:37.626Z","obsTime":1776311580,"reportTime":"2026-04-16T04:00:00.000Z","temp":18.3,"dewp":8.3,"wdir":240,"wspd":9,"visib":"10+","altim":1015,"slp":1014.3,"qcField":13,"metarType":"METAR","rawOb":"METAR KONT 160353Z COR 24009KT 10SM FEW250 18/08 A2997 RMK AO2 SLP143 T01830083 $","lat":34.0531,"lon":-117.5769,"elev":279,"name":"Ontario Intl, CA, US","cover":"FEW","clouds":[{"cover":"FEW","base":25000}],"fltCat":"VFR"},{"icaoId":"KMCI","receiptTime":"2026-04-16T03:56:45.507Z","obsTime":1776311580,"reportTime":"2026-04-16T04:00:00.000Z","temp":18.3,"dewp":10,"wdir":0,"wspd":0,"visib":"10+","altim":1008.2,"slp":1007.4,"qcField":4,"metarType":"METAR","rawOb":"METAR KMCI 160353Z 00000KT 10SM BKN200 18/10 A2977 RMK AO2 SLP074 T01830100","lat":39.2975,"lon":-94.7309,"elev":308,"name":"Kansas City Intl, MO, US","cover":"BKN","clouds":[{"cover":"BKN","base":20000}],"fltCat":"VFR"},{"icaoId":"KDCA","receiptTime":"2026-04-16T03:56:36.537Z","obsTime":1776311520,"reportTime":"2026-04-16T04:00:00.000Z","temp":24.4,"dewp":12.8,"wdir":200,"wspd":7,"visib":"10+","altim":1013,"slp":1012.6,"qcField":4,"metarType":"METAR","rawOb":"METAR KDCA 160352Z 20007KT 10SM FEW150 SCT250 24/13 A2991 RMK AO2 SLP126 T02440128","lat":38.8472,"lon":-77.0345,"elev":4,"name":"Washington/Reagan-National Arpt, VA, US","cover":"SCT","clouds":[{"cover":"FEW","base":15000},{"cover":"SCT","base":25000}],"fltCat":"VFR"},{"icaoId":"KATL","receiptTime":"2026-04-16T03:56:35.967Z","obsTime":1776311520,"reportTime":"2026-04-16T04:00:00.000Z","temp":21.7,"dewp":11.7,"wdir":230,"wspd":4,"visib":"10+","altim":1019.7,"slp":1018.6,"qcField":12,"metarType":"METAR","rawOb":"METAR KATL 160352Z 23004KT 10SM SCT250 22/12 A3011 RMK AO2 SLP186 T02170117 $","lat":33.6297,"lon":-84.4422,"elev":309,"name":"Atlanta/Hartsfield-Jackson Intl, GA, US","cover":"SCT","clouds":[{"cover":"SCT","base":25000}],"fltCat":"VFR"},{"icaoId":"KABQ","receiptTime":"2026-04-16T03:56:35.954Z","obsTime":1776311520,"reportTime":"2026-04-16T04:00:00.000Z","temp":15.6,"dewp":-9.4,"wdir":360,"wspd":6,"visib":"10+","altim":1017.7,"slp":1012.8,"qcField":4,"metarType":"METAR","rawOb":"METAR KABQ 160352Z 36006KT 10SM CLR 16/M09 A3005 RMK AO2 SLP128 T01561094","lat":35.0419,"lon":-106.6154,"elev":1620,"name":"Albuquerque Intl, NM, US","cover":"CLR","clouds":[],"fltCat":"VFR"},{"icaoId":"KOKC","receiptTime":"2026-04-16T03:56:43.083Z","obsTime":1776311520,"reportTime":"2026-04-16T04:00:00.000Z","temp":17.8,"dewp":16.1,"wdir":170,"wspd":12,"visib":"10+","altim":1010.9,"slp":1009.6,"qcField":4,"metarType":"METAR","rawOb":"METAR KOKC 160352Z 17012KT 10SM FEW065 FEW250 18/16 A2985 RMK AO2 SLP096 CONS LTGIC DSNT NE CB DSNT NE MOV E T01780161","lat":35.3843,"lon":-97.6003,"elev":391,"name":"Oklahoma City/Will Rogers Intl, OK, US","cover":"FEW","clouds":[{"cover":"FEW","base":6500},{"cover":"FEW","base":25000}],"fltCat":"VFR"},{"icaoId":"KIAD","receiptTime":"2026-04-16T03:56:36.565Z","obsTime":1776311520,"reportTime":"2026-04-16T04:00:00.000Z","temp":25,"dewp":11.1,"wdir":0,"wspd":0,"visib":"10+","altim":1013.3,"slp":1012.7,"qcField":4,"metarType":"METAR","rawOb":"METAR KIAD 160352Z 00000KT 10SM BKN240 25/11 A2992 RMK AO2 SLP127 T02500111","lat":38.9348,"lon":-77.4473,"elev":90,"name":"Washington/Dulles Intl, VA, US","cover":"BKN","clouds":[{"cover":"BKN","base":24000}],"fltCat":"VFR"},{"icaoId":"KCVG","receiptTime":"2026-04-16T03:56:36.523Z","obsTime":1776311520,"reportTime":"2026-04-16T04:00:00.000Z","temp":22.2,"dewp":14.4,"wdir":200,"wspd":9,"visib":"10+","altim":1013,"slp":1012,"qcField":4,"metarType":"METAR","rawOb":"METAR KCVG 160352Z 20009KT 10SM SCT180 BKN250 22/14 A2991 RMK AO2 SLP120 T02220144","lat":39.0444,"lon":-84.6724,"elev":264,"name":"Cincinnati Intl, KY, US","cover":"BKN","clouds":[{"cover":"SCT","base":18000},{"cover":"BKN","base":25000}],"fltCat":"VFR"},{"icaoId":"KMKE","receiptTime":"2026-04-16T03:56:31.989Z","obsTime":1776311520,"reportTime":"2026-04-16T04:00:00.000Z","temp":14.4,"dewp":13.3,"wdir":"VRB","wspd":3,"visib":"10+","altim":1008.2,"slp":1008,"qcField":12,"wxString":"-RA","precip":0.15,"metarType":"METAR","rawOb":"METAR KMKE 160352Z VRB03KT 10SM -RA FEW006 SCT070 OVC110 14/13 A2977 RMK AO2 TSE47 SLP080 OCNL LTG DSNT NE-E CB DSNT NE-E MOV E P0015 T01440133 $","lat":42.9549,"lon":-87.9045,"elev":203,"name":"Milwaukee/Mitchell Intl, WI, US","cover":"OVC","clouds":[{"cover":"FEW","base":600},{"cover":"SCT","base":7000},{"cover":"OVC","base":11000}],"fltCat":"VFR"},{"icaoId":"KMLF","receiptTime":"2026-04-16T03:56:30.720Z","obsTime":1776311520,"reportTime":"2026-04-16T04:00:00.000Z","temp":13.3,"dewp":-5,"wdir":190,"wspd":13,"visib":"10+","altim":1013.6,"slp":1010,"qcField":6,"metarType":"METAR","rawOb":"METAR KMLF 160352Z AUTO 19013KT 10SM CLR 13/M05 A2993 RMK AO2 SLP100 T01331050","lat":38.4225,"lon":-113.0109,"elev":1537,"name":"Milford Muni, UT, US","cover":"CLR","clouds":[],"fltCat":"VFR"},{"icaoId":"KCLT","receiptTime":"2026-04-16T03:56:36.509Z","obsTime":1776311520,"reportTime":"2026-04-16T04:00:00.000Z","temp":22.2,"dewp":11.7,"wdir":230,"wspd":6,"visib":"10+","altim":1018,"slp":1018.5,"qcField":4,"metarType":"METAR","rawOb":"METAR KCLT 160352Z 23006KT 10SM SCT250 22/12 A3006 RMK AO2 SLP185 T02220117","lat":35.2225,"lon":-80.9543,"elev":223,"name":"Charlotte/Douglas Intl, NC, US","cover":"SCT","clouds":[{"cover":"SCT","base":25000}],"fltCat":"VFR"},{"icaoId":"KABI","receiptTime":"2026-04-16T03:56:35.940Z","obsTime":1776311520,"reportTime":"2026-04-16T04:00:00.000Z","temp":20.6,"dewp":12.8,"wdir":180,"wspd":11,"visib":"10+","altim":1013,"slp":1010.7,"qcField":12,"metarType":"METAR","rawOb":"METAR KABI 160352Z 18011KT 10SM CLR 21/13 A2991 RMK AO2 SLP107 T02060128 $","lat":32.4106,"lon":-99.6821,"elev":543,"name":"Abilene Rgnl, TX, US","cover":"CLR","clouds":[],"fltCat":"VFR"},{"icaoId":"KSPS","receiptTime":"2026-04-16T03:56:36.094Z","obsTime":1776311520,"reportTime":"2026-04-16T04:00:00.000Z","temp":18.9,"dewp":16.1,"wdir":190,"wspd":13,"visib":"10+","altim":1010.9,"slp":1009.6,"qcField":4,"metarType":"METAR","rawOb":"METAR KSPS 160352Z 19013KT 10SM CLR 19/16 A2985 RMK AO2 SLP096 T01890161","lat":33.9785,"lon":-98.493,"elev":310,"name":"Wichita Falls Rgnl, TX, US","cover":"CLR","clouds":[],"fltCat":"VFR"},{"icaoId":"KOXR","receiptTime":"2026-04-16T03:54:11.515Z","obsTime":1776311460,"reportTime":"2026-04-16T04:00:00.000Z","temp":15,"dewp":12.8,"wdir":250,"wspd":4,"visib":9,"altim":1015.3,"slp":1015,"qcField":14,"metarType":"METAR","rawOb":"METAR KOXR 160351Z AUTO 25004KT 9SM CLR 15/13 A2998 RMK AO2 SLP150 T01500128 $","lat":34.2001,"lon":-119.2042,"elev":12,"name":"Oxnard Arpt, CA, US","cover":"CLR","clouds":[],"fltCat":"VFR"},{"icaoId":"KORF","receiptTime":"2026-04-16T03:54:11.487Z","obsTime":1776311460,"reportTime":"2026-04-16T04:00:00.000Z","temp":23.9,"dewp":16.7,"wdir":210,"wspd":12,"visib":"10+","altim":1015.7,"slp":1015.5,"qcField":4,"metarType":"METAR","rawOb":"METAR KORF 160351Z 21012KT 10SM CLR 24/17 A2999 RMK AO2 SLP155 T02390167","lat":36.9037,"lon":-76.1927,"elev":5,"name":"Norfolk Intl, VA, US","cover":"CLR","clouds":[],"fltCat":"VFR"},{"icaoId":"KMYL","receiptTime":"2026-04-16T03:54:11.446Z","obsTime":1776311460,"reportTime":"2026-04-16T04:00:00.000Z","temp":0.6,"dewp":-2.2,"wdir":170,"wspd":3,"visib":"10+","altim":1007.9,"slp":1009.5,"qcField":6,"metarType":"METAR","rawOb":"METAR KMYL 160351Z AUTO 17003KT 10SM FEW020 BKN046 BKN055 01/M02 A2976 RMK AO2 SLP095 T00061022","lat":44.8943,"lon":-116.0998,"elev":1532,"name":"McCall Muni, ID, US","cover":"BKN","clouds":[{"cover":"FEW","base":2000},{"cover":"BKN","base":4600},{"cover":"BKN","base":5500}],"fltCat":"VFR"},{"icaoId":"KLGU","receiptTime":"2026-04-16T03:54:11.400Z","obsTime":1776311460,"reportTime":"2026-04-16T04:00:00.000Z","temp":12.2,"dewp":3.9,"wdir":130,"wspd":9,"visib":"10+","altim":1009.2,"slp":1007.1,"qcField":6,"wxString":"-RA","precip":0.005,"metarType":"METAR","rawOb":"METAR KLGU 160351Z AUTO 13009KT 10SM -RA SCT055 BKN070 OVC080 12/04 A2980 RMK AO2 RAE26B51 SLP071 P0000 T01220039","lat":41.7865,"lon":-111.8519,"elev":1359,"name":"Logan/Cache Arpt, UT, US","cover":"OVC","clouds":[{"cover":"SCT","base":5500},{"cover":"BKN","base":7000},{"cover":"OVC","base":8000}],"fltCat":"VFR"},{"icaoId":"KJFK","receiptTime":"2026-04-16T03:54:11.377Z","obsTime":1776311460,"reportTime":"2026-04-16T04:00:00.000Z","temp":17.8,"dewp":12.8,"wdir":170,"wspd":3,"visib":"10+","altim":1011.9,"slp":1011.8,"qcField":4,"metarType":"METAR","rawOb":"METAR KJFK 160351Z 17003KT 10SM FEW055 SCT160 BKN250 18/13 A2988 RMK AO2 SLP118 T01780128","lat":40.6392,"lon":-73.7639,"elev":3,"name":"New York/JF Kennedy Intl, NY, US","cover":"BKN","clouds":[{"cover":"FEW","base":5500},{"cover":"SCT","base":16000},{"cover":"BKN","base":25000}],"fltCat":"VFR"},{"icaoId":"KIGM","receiptTime":"2026-04-16T03:54:11.309Z","obsTime":1776311460,"reportTime":"2026-04-16T04:00:00.000Z","temp":15.6,"dewp":-8.3,"wdir":180,"wspd":10,"visib":"10+","altim":1015.3,"slp":1010,"qcField":6,"metarType":"METAR","rawOb":"METAR KIGM 160351Z AUTO 18010KT 10SM CLR 16/M08 A2998 RMK AO2 SLP100 T01561083","lat":35.2575,"lon":-113.9341,"elev":1045,"name":"Kingman Arpt, AZ, US","cover":"CLR","clouds":[],"fltCat":"VFR"},{"icaoId":"KELP","receiptTime":"2026-04-16T03:54:12.542Z","obsTime":1776311460,"reportTime":"2026-04-16T04:00:00.000Z","temp":19.4,"dewp":-15,"wdir":360,"wspd":6,"visib":"10+","altim":1016,"slp":1010.5,"qcField":4,"metarType":"METAR","rawOb":"METAR KELP 160351Z 36006KT 10SM CLR 19/M15 A3000 RMK AO2 SLP105 T01941150","lat":31.8123,"lon":-106.3774,"elev":1205,"name":"El Paso Intl, TX, US","cover":"CLR","clouds":[],"fltCat":"VFR"},{"icaoId":"KSAD","receiptTime":"2026-04-16T03:54:11.651Z","obsTime":1776311460,"reportTime":"2026-04-16T04:00:00.000Z","temp":18.3,"dewp":-12.2,"wdir":360,"wspd":7,"visib":"10+","altim":1014.6,"slp":1011.1,"qcField":6,"metarType":"METAR","rawOb":"METAR KSAD 160351Z AUTO 36007KT 10SM CLR 18/M12 A2996 RMK AO2 SLP111 T01831122","lat":32.8565,"lon":-109.636,"elev":937,"name":"Safford Rgnl, AZ, US","cover":"CLR","clouds":[],"fltCat":"VFR"},{"icaoId":"KVNY","receiptTime":"2026-04-16T03:54:11.839Z","obsTime":1776311460,"reportTime":"2026-04-16T04:00:00.000Z","temp":17.8,"dewp":8.3,"wdir":280,"wspd":4,"visib":"10+","altim":1015,"slp":1014.2,"qcField":12,"metarType":"METAR","rawOb":"METAR KVNY 160351Z 28004KT 10SM CLR 18/08 A2997 RMK AO2 SLP142 T01780083 $","lat":34.2121,"lon":-118.4915,"elev":241,"name":"Van Nuys Arpt, CA, US","cover":"CLR","clouds":[],"fltCat":"VFR"},{"icaoId":"KRDU","receiptTime":"2026-04-16T03:54:11.627Z","obsTime":1776311460,"reportTime":"2026-04-16T04:00:00.000Z","temp":24.4,"dewp":11.7,"wdir":210,"wspd":10,"visib":"10+","altim":1017.4,"slp":1016.7,"qcField":4,"metarType":"METAR","rawOb":"METAR KRDU 160351Z 21010KT 10SM SCT250 24/12 A3004 RMK AO2 SLP167 T02440117","lat":35.8923,"lon":-78.782,"elev":121,"name":"Raleigh-Durham Intl, NC, US","cover":"SCT","clouds":[{"cover":"SCT","base":25000}],"fltCat":"VFR"},{"icaoId":"KCRP","receiptTime":"2026-04-16T03:54:12.476Z","obsTime":1776311460,"reportTime":"2026-04-16T04:00:00.000Z","temp":23.3,"dewp":21.7,"wdir":150,"wspd":11,"visib":"10+","altim":1014.6,"slp":1014.3,"qcField":4,"metarType":"METAR","rawOb":"METAR KCRP 160351Z 15011KT 10SM FEW010 BKN013 BKN020 23/22 A2996 RMK AO2 SLP143 T02330217","lat":27.7734,"lon":-97.513,"elev":11,"name":"Corpus Christi Intl, TX, US","cover":"BKN","clouds":[{"cover":"FEW","base":1000},{"cover":"BKN","base":1300},{"cover":"BKN","base":2000}],"fltCat":"MVFR"},{"icaoId":"KLGA","receiptTime":"2026-04-16T03:56:36.580Z","obsTime":1776311460,"reportTime":"2026-04-16T04:00:00.000Z","temp":27.2,"dewp":14.4,"wdir":220,"wspd":11,"visib":"10+","altim":1010.9,"slp":1010.8,"qcField":4,"metarType":"METAR","rawOb":"METAR KLGA 160351Z 22011KT 10SM FEW080 SCT200 OVC250 27/14 A2985 RMK AO2 SLP108 OCNL LTGIC DSNT N-NE CB DSNT N-NE MOV E T02720144","lat":40.7794,"lon":-73.8803,"elev":9,"name":"New York/La Guardia Arpt, NY, US","cover":"OVC","clouds":[{"cover":"FEW","base":8000},{"cover":"SCT","base":20000},{"cover":"OVC","base":25000}],"fltCat":"VFR"},{"icaoId":"KPIT","receiptTime":"2026-04-16T03:54:12.122Z","obsTime":1776311460,"reportTime":"2026-04-16T04:00:00.000Z","temp":23.3,"dewp":14.4,"wdir":210,"wspd":4,"visib":"10+","altim":1013.6,"slp":1013.2,"qcField":12,"metarType":"METAR","rawOb":"METAR KPIT 160351Z 21004KT 10SM SCT070 BKN080 23/14 A2993 RMK AO2 SLP132 T02330144 $","lat":40.4814,"lon":-80.2083,"elev":339,"name":"Pittsburgh Intl, PA, US","cover":"BKN","clouds":[{"cover":"SCT","base":7000},{"cover":"BKN","base":8000}],"fltCat":"VFR"},{"icaoId":"KSAN","receiptTime":"2026-04-16T03:54:11.674Z","obsTime":1776311460,"reportTime":"2026-04-16T04:00:00.000Z","temp":16.7,"dewp":13.3,"wdir":290,"wspd":4,"visib":"10+","altim":1016.3,"slp":1016.3,"qcField":12,"metarType":"METAR","rawOb":"METAR KSAN 160351Z 29004KT 10SM SCT015 SCT200 17/13 A3001 RMK AO2 SLP163 T01670133 $","lat":32.7364,"lon":-117.1973,"elev":3,"name":"San Diego Intl Arpt, CA, US","cover":"SCT","clouds":[{"cover":"SCT","base":1500},{"cover":"SCT","base":20000}],"fltCat":"VFR"},{"icaoId":"KSTL","receiptTime":"2026-04-16T03:54:11.772Z","obsTime":1776311460,"reportTime":"2026-04-16T04:00:00.000Z","temp":17.2,"dewp":16.7,"wdir":0,"wspd":0,"visib":"10+","altim":1011.9,"slp":1011,"qcField":4,"wxString":"-RA","precip":0.63,"metarType":"METAR","rawOb":"METAR KSTL 160351Z 00000KT 10SM -RA FEW005 BKN065 OVC080 17/17 A2988 RMK AO2 TSE39 SLP110 P0063 T01720167","lat":38.7525,"lon":-90.3734,"elev":163,"name":"St Louis/Lambert Intl, MO, US","cover":"OVC","clouds":[{"cover":"FEW","base":500},{"cover":"BKN","base":6500},{"cover":"OVC","base":8000}],"fltCat":"VFR"},{"icaoId":"KSAT","receiptTime":"2026-04-16T03:54:12.015Z","obsTime":1776311460,"reportTime":"2026-04-16T04:00:00.000Z","temp":23.9,"dewp":17.2,"wdir":150,"wspd":14,"wgst":22,"visib":"10+","altim":1015,"slp":1013.1,"qcField":4,"metarType":"METAR","rawOb":"METAR KSAT 160351Z 15014G22KT 10SM SCT035 BKN050 BKN200 24/17 A2997 RMK AO2 SLP131 T02390172","lat":29.5443,"lon":-98.4839,"elev":246,"name":"San Antonio Intl, TX, US","cover":"BKN","clouds":[{"cover":"SCT","base":3500},{"cover":"BKN","base":5000},{"cover":"BKN","base":20000}],"fltCat":"VFR"},{"icaoId":"KACT","receiptTime":"2026-04-16T03:54:12.238Z","obsTime":1776311460,"reportTime":"2026-04-16T04:00:00.000Z","temp":23.9,"dewp":18.9,"wdir":160,"wspd":12,"visib":"10+","altim":1013.3,"slp":1012.4,"qcField":4,"metarType":"METAR","rawOb":"METAR KACT 160351Z 16012KT 10SM CLR 24/19 A2992 RMK AO2 SLP124 T02390189","lat":31.618,"lon":-97.2283,"elev":150,"name":"Waco Rgnl, TX, US","cover":"CLR","clouds":[],"fltCat":"VFR"},{"icaoId":"KCLE","receiptTime":"2026-04-16T03:54:12.418Z","obsTime":1776311460,"reportTime":"2026-04-16T04:00:00.000Z","temp":18.3,"dewp":17.2,"wdir":160,"wspd":7,"visib":"10+","altim":1010.9,"slp":1011.9,"qcField":12,"metarType":"METAR","rawOb":"METAR KCLE 160351Z 16007KT 10SM BKN070 OVC085 18/17 A2985 RMK AO2 SLP119 T01830172 $","lat":41.4057,"lon":-81.8519,"elev":237,"name":"Cleveland/Hopkins Intl, OH, US","cover":"OVC","clouds":[{"cover":"BKN","base":7000},{"cover":"OVC","base":8500}],"fltCat":"VFR"},{"icaoId":"KCMH","receiptTime":"2026-04-16T03:54:12.438Z","obsTime":1776311460,"reportTime":"2026-04-16T04:00:00.000Z","temp":23.3,"dewp":15,"wdir":190,"wspd":7,"visib":"10+","altim":1011.9,"slp":1011.2,"qcField":4,"metarType":"METAR","rawOb":"METAR KCMH 160351Z 19007KT 10SM FEW100 BKN250 23/15 A2988 RMK AO2 SLP112 T02330150","lat":39.9907,"lon":-82.877,"elev":257,"name":"Columbus/Glenn Intl, OH, US","cover":"BKN","clouds":[{"cover":"FEW","base":10000},{"cover":"BKN","base":25000}],"fltCat":"VFR"},{"icaoId":"KEWR","receiptTime":"2026-04-16T03:54:12.588Z","obsTime":1776311460,"reportTime":"2026-04-16T04:00:00.000Z","temp":26.7,"dewp":14.4,"wdir":220,"wspd":10,"wgst":20,"visib":"10+","altim":1011.3,"slp":1011,"qcField":4,"metarType":"METAR","rawOb":"METAR KEWR 160351Z 22010G20KT 10SM FEW070 SCT190 BKN250 27/14 A2986 RMK AO2 SLP110 T02670144","lat":40.6828,"lon":-74.1692,"elev":2,"name":"Newark Intl, NJ, US","cover":"BKN","clouds":[{"cover":"FEW","base":7000},{"cover":"SCT","base":19000},{"cover":"BKN","base":25000}],"fltCat":"VFR"},{"icaoId":"KROW","receiptTime":"2026-04-16T03:54:11.639Z","obsTime":1776311460,"reportTime":"2026-04-16T04:00:00.000Z","temp":16.7,"dewp":-12.2,"wdir":270,"wspd":9,"visib":"10+","altim":1014.6,"slp":1009.6,"qcField":6,"metarType":"METAR","rawOb":"METAR KROW 160351Z AUTO 27009KT 10SM CLR 17/M12 A2996 RMK AO2 SLP096 T01671122","lat":33.3074,"lon":-104.5082,"elev":1105,"name":"Roswell/Ind Arpt, NM, US","cover":"CLR","clouds":[],"fltCat":"VFR"},{"icaoId":"KPVD","receiptTime":"2026-04-16T03:54:11.588Z","obsTime":1776311460,"reportTime":"2026-04-16T04:00:00.000Z","temp":13.3,"dewp":10.6,"wdir":70,"wspd":3,"visib":"10+","altim":1012.3,"slp":1012.2,"qcField":12,"metarType":"METAR","rawOb":"METAR KPVD 160351Z 07003KT 10SM FEW045 SCT150 BKN250 13/11 A2989 RMK AO2 SLP122 T01330106 $","lat":41.7225,"lon":-71.4325,"elev":15,"name":"Providence/Green Mem, RI, US","cover":"BKN","clouds":[{"cover":"FEW","base":4500},{"cover":"SCT","base":15000},{"cover":"BKN","base":25000}],"fltCat":"VFR"},{"icaoId":"KPHX","receiptTime":"2026-04-16T03:54:11.542Z","obsTime":1776311460,"reportTime":"2026-04-16T04:00:00.000Z","temp":27.2,"dewp":-5.6,"wdir":300,"wspd":6,"visib":"10+","altim":1011.6,"slp":1010.1,"qcField":4,"metarType":"METAR","rawOb":"METAR KPHX 160351Z 30006KT 10SM CLR 27/M06 A2987 RMK AO2 SLP101 T02721056","lat":33.4278,"lon":-112.0037,"elev":338,"name":"Phoenix/Sky Harbor Intl, AZ, US","cover":"CLR","clouds":[],"fltCat":"VFR"},{"icaoId":"KIWA","receiptTime":"2026-04-16T03:50:34.919Z","obsTime":1776311280,"reportTime":"2026-04-16T04:00:00.000Z","temp":25,"dewp":-5,"wdir":0,"wspd":0,"visib":"10+","altim":1013,"qcField":0,"metarType":"METAR","rawOb":"METAR KIWA 160348Z 00000KT 10SM CLR 25/M05 A2991","lat":33.3008,"lon":-111.6437,"elev":420,"name":"Phoenix/Mesa Gateway Arpt, AZ, US","cover":"CLR","clouds":[],"fltCat":"VFR"},{"icaoId":"KGYR","receiptTime":"2026-04-16T03:50:34.636Z","obsTime":1776311220,"reportTime":"2026-04-16T04:00:00.000Z","temp":26,"dewp":-4,"wdir":0,"wspd":0,"visib":"10+","altim":1012.3,"qcField":0,"metarType":"METAR","rawOb":"METAR KGYR 160347Z 00000KT 10SM SKC 26/M04 A2989 RMK LAST","lat":33.428,"lon":-112.368,"elev":292,"name":"Phoenix/Goodyear Muni, AZ, US","cover":"SKC","clouds":[],"fltCat":"VFR"},{"icaoId":"KSUN","receiptTime":"2026-04-16T04:01:13.893Z","obsTime":1776311220,"reportTime":"2026-04-16T04:00:00.000Z","temp":4,"dewp":3,"wdir":150,"wspd":6,"visib":"10+","altim":1006.9,"qcField":0,"wxString":"-RA","metarType":"METAR","rawOb":"METAR KSUN 160347Z 15006KT 10SM -RA BKN021 BKN039 OVC110 04/03 A2973","lat":43.4969,"lon":-114.2923,"elev":1619,"name":"Hailey/Friedman Mem, ID, US","cover":"OVC","clouds":[{"cover":"BKN","base":2100},{"cover":"BKN","base":3900},{"cover":"OVC","base":11000}],"fltCat":"MVFR"},{"icaoId":"KHOB","receiptTime":"2026-04-16T03:48:03.635Z","obsTime":1776310500,"reportTime":"2026-04-16T03:35:00.000Z","temp":14,"dewp":-13,"wdir":280,"wspd":9,"visib":"10+","altim":1015,"qcField":6,"metarType":"METAR","rawOb":"METAR KHOB 160335Z AUTO 28009KT 10SM CLR 14/M13 A2997 RMK AO2","lat":32.6797,"lon":-103.2222,"elev":1112,"name":"Hobbs Arpt, NM, US","cover":"CLR","clouds":[],"fltCat":"VFR"}]