[{"icaoId":"KMFR","receiptTime":"2026-04-15T21:27:03.971Z","obsTime":1776288240,"reportTime":"2026-04-15T21:24:00.000Z","temp":7.8,"dewp":6.1,"wdir":10,"wspd":7,"visib":7,"altim":1016,"qcField":4,"wxString":"-RA","precip":0.02,"metarType":"SPECI","rawOb":"SPECI KMFR 152124Z 01007KT 7SM -RA SCT027 BKN040 OVC050 08/06 A3000 RMK AO2 P0002 T00780061","lat":42.375,"lon":-122.877,"elev":397,"name":"Medford/Rogue Valley Intl, OR, US","cover":"OVC","clouds":[{"cover":"SCT","base":2700},{"cover":"BKN","base":4000},{"cover":"OVC","base":5000}],"fltCat":"VFR"},{"icaoId":"KBTV","receiptTime":"2026-04-15T21:26:13.125Z","obsTime":1776288180,"reportTime":"2026-04-15T21:23:00.000Z","temp":11.7,"dewp":10,"wdir":340,"wspd":5,"visib":5,"altim":1011.3,"qcField":4,"wxString":"BR","metarType":"SPECI","rawOb":"SPECI KBTV 152123Z 34005KT 5SM BR SCT005 BKN036 OVC050 12/10 A2986 RMK AO2 T01170100","lat":44.4682,"lon":-73.1499,"elev":101,"name":"Burlington Intl, VT, US","cover":"OVC","clouds":[{"cover":"SCT","base":500},{"cover":"BKN","base":3600},{"cover":"OVC","base":5000}],"fltCat":"MVFR"},{"icaoId":"KABI","receiptTime":"2026-04-15T21:26:12.521Z","obsTime":1776288120,"reportTime":"2026-04-15T21:22:00.000Z","temp":28.3,"dewp":18.9,"wdir":190,"wspd":12,"wgst":19,"visib":"10+","altim":1011.3,"qcField":4,"wxString":"VCTS","metarType":"SPECI","rawOb":"SPECI KABI 152122Z 19012G19KT 10SM VCTS CLR 28/19 A2986 RMK AO2 LTG DSNT W-NE T02830189","lat":32.4106,"lon":-99.6821,"elev":543,"name":"Abilene Rgnl, TX, US","cover":"CLR","clouds":[],"fltCat":"VFR"},{"icaoId":"KJAC","receiptTime":"2026-04-15T21:22:06.908Z","obsTime":1776287940,"reportTime":"2026-04-15T21:19:00.000Z","temp":5,"dewp":1,"wdir":210,"wspd":12,"wgst":20,"visib":"10+","altim":1011.3,"qcField":4,"wxString":"-RA","precip":0.005,"metarType":"SPECI","rawOb":"SPECI KJAC 152119Z 21012G20KT 10SM -RA FEW022 SCT027 OVC036 05/01 A2986 RMK AO2 P0000","lat":43.6129,"lon":-110.7366,"elev":1967,"name":"Jackson Hole Arpt, WY, US","cover":"OVC","clouds":[{"cover":"FEW","base":2200},{"cover":"SCT","base":2700},{"cover":"OVC","base":3600}],"fltCat":"VFR"},{"icaoId":"KACV","receiptTime":"2026-04-15T21:22:06.783Z","obsTime":1776287880,"reportTime":"2026-04-15T21:18:00.000Z","temp":10.6,"dewp":9.4,"wdir":330,"wspd":16,"wgst":21,"visib":3,"altim":1019,"qcField":6,"wxString":"-RA BR","precip":0.01,"metarType":"SPECI","rawOb":"SPECI KACV 152118Z AUTO 33016G21KT 3SM -RA BR FEW005 BKN018 OVC037 11/09 A3009 RMK AO2 PK WND 33026/2054 WSHFT 2040 P0001 T01060094","lat":40.9784,"lon":-124.1048,"elev":63,"name":"Arcata Arpt, CA, US","cover":"OVC","clouds":[{"cover":"FEW","base":500},{"cover":"BKN","base":1800},{"cover":"OVC","base":3700}],"fltCat":"MVFR"},{"icaoId":"KBVU","receiptTime":"2026-04-15T21:16:06.960Z","obsTime":1776287700,"reportTime":"2026-04-15T21:15:00.000Z","temp":27,"dewp":-9,"wdir":160,"wspd":11,"wgst":24,"visib":"10+","altim":1013.3,"qcField":6,"metarType":"METAR","rawOb":"METAR KBVU 152115Z AUTO 16011G24KT 10SM CLR 27/M09 A2992 RMK AO2","lat":35.9489,"lon":-114.8633,"elev":654,"name":"Boulder City Muni, NV, US","cover":"CLR","clouds":[],"fltCat":"VFR"},{"icaoId":"KSOW","receiptTime":"2026-04-15T21:18:20.025Z","obsTime":1776287700,"reportTime":"2026-04-15T21:15:00.000Z","temp":16,"dewp":-9,"wdir":230,"wspd":9,"visib":"10+","altim":1020.4,"qcField":6,"metarType":"METAR","rawOb":"METAR KSOW 152115Z AUTO 23009KT 200V270 10SM CLR 16/M09 A3013 RMK AO2","lat":34.2686,"lon":-110.0019,"elev":1954,"name":"Show Low Muni, AZ, US","cover":"CLR","clouds":[],"fltCat":"VFR"},{"icaoId":"KHAF","receiptTime":"2026-04-15T21:18:23.545Z","obsTime":1776287700,"reportTime":"2026-04-15T21:15:00.000Z","temp":15,"dewp":12,"wdir":320,"wspd":12,"wgst":20,"visib":"10+","altim":1020.4,"qcField":6,"metarType":"METAR","rawOb":"METAR KHAF 152115Z AUTO 32012G20KT 10SM BKN018 BKN024 BKN030 15/12 A3013 RMK AO2","lat":37.5136,"lon":-122.4996,"elev":11,"name":"Half Moon Bay Arpt, CA, US","cover":"BKN","clouds":[{"cover":"BKN","base":1800},{"cover":"BKN","base":2400},{"cover":"BKN","base":3000}],"fltCat":"MVFR"},{"icaoId":"KCXP","receiptTime":"2026-04-15T21:21:05.443Z","obsTime":1776287700,"reportTime":"2026-04-15T21:15:00.000Z","temp":14,"dewp":-4,"wdir":230,"wspd":9,"wgst":17,"visib":"10+","altim":1017,"qcField":6,"metarType":"METAR","rawOb":"METAR KCXP 152115Z AUTO 23009G17KT 10SM FEW110 14/M04 A3003 RMK AO2","lat":39.1905,"lon":-119.7319,"elev":1431,"name":"Carson City Arpt, NV, US","cover":"FEW","clouds":[{"cover":"FEW","base":11000}],"fltCat":"VFR"},{"icaoId":"KMEV","receiptTime":"2026-04-15T21:21:05.681Z","obsTime":1776287700,"reportTime":"2026-04-15T21:15:00.000Z","temp":15,"dewp":-4,"wdir":270,"wspd":11,"wgst":23,"visib":"10+","altim":1016.7,"qcField":6,"metarType":"METAR","rawOb":"METAR KMEV 152115Z AUTO 27011G23KT 10SM SCT120 15/M04 A3002 RMK AO2","lat":38.9963,"lon":-119.75,"elev":1437,"name":"Minden-Tahoe Arpt, NV, US","cover":"SCT","clouds":[{"cover":"SCT","base":12000}],"fltCat":"VFR"},{"icaoId":"KMHR","receiptTime":"2026-04-15T21:21:05.732Z","obsTime":1776287700,"reportTime":"2026-04-15T21:15:00.000Z","temp":21,"dewp":13,"wdir":220,"wspd":8,"visib":"10+","altim":1017,"qcField":6,"metarType":"METAR","rawOb":"METAR KMHR 152115Z AUTO 22008KT 10SM CLR 21/13 A3003 RMK AO2","lat":38.56,"lon":-121.284,"elev":30,"name":"Sacramento/Mather Fld, CA, US","cover":"CLR","clouds":[],"fltCat":"VFR"},{"icaoId":"KRTS","receiptTime":"2026-04-15T21:21:15.554Z","obsTime":1776287700,"reportTime":"2026-04-15T21:15:00.000Z","temp":14,"dewp":-2,"wdir":270,"wspd":21,"wgst":29,"visib":"10+","altim":1015.7,"qcField":6,"metarType":"METAR","rawOb":"METAR KRTS 152115Z AUTO 27021G29KT 10SM CLR 14/M02 A2999 RMK AO2","lat":39.6658,"lon":-119.8731,"elev":1537,"name":"Reno/Stead Arpt, NV, US","cover":"CLR","clouds":[],"fltCat":"VFR"},{"icaoId":"KHCR","receiptTime":"2026-04-15T21:18:23.567Z","obsTime":1776287700,"reportTime":"2026-04-15T21:15:00.000Z","temp":16.4,"dewp":-3.6,"wdir":240,"wspd":11,"wgst":21,"visib":"10+","altim":1013,"qcField":14,"metarType":"METAR","rawOb":"METAR KHCR 152115Z AUTO 24011G21KT 10SM FEW090 SCT130 16/M04 A2991 RMK AO2 T01641036 $","lat":40.4774,"lon":-111.4329,"elev":1708,"name":"Heber City Muni, UT, US","cover":"SCT","clouds":[{"cover":"FEW","base":9000},{"cover":"SCT","base":13000}],"fltCat":"VFR"},{"icaoId":"KHII","receiptTime":"2026-04-15T21:21:17.158Z","obsTime":1776287700,"reportTime":"2026-04-15T21:15:00.000Z","temp":29,"dewp":-4,"wdir":0,"wspd":0,"wgst":13,"visib":"10+","altim":1013.3,"qcField":6,"metarType":"METAR","rawOb":"METAR KHII 152115Z AUTO 00000G13KT 10SM CLR 29/M04 A2992 RMK AO2","lat":34.5659,"lon":-114.3522,"elev":241,"name":"Lake Havasu City Arpt, AZ, US","cover":"CLR","clouds":[],"fltCat":"VFR"},{"icaoId":"KHTH","receiptTime":"2026-04-15T21:21:17.432Z","obsTime":1776287700,"reportTime":"2026-04-15T21:15:00.000Z","temp":19,"dewp":-6,"wdir":330,"wspd":13,"visib":"10+","altim":1014.3,"qcField":6,"metarType":"METAR","rawOb":"METAR KHTH 152115Z AUTO 33013KT 10SM CLR 19/M06 A2995 RMK A01","lat":38.5448,"lon":-118.6314,"elev":1281,"name":"Hawthorne Muni, NV, US","cover":"CLR","clouds":[],"fltCat":"VFR"},{"icaoId":"KSEZ","receiptTime":"2026-04-15T21:21:16.185Z","obsTime":1776287700,"reportTime":"2026-04-15T21:15:00.000Z","temp":21,"dewp":-6,"wdir":"VRB","wspd":7,"wgst":13,"visib":"10+","altim":1018.4,"qcField":6,"metarType":"METAR","rawOb":"METAR KSEZ 152115Z AUTO VRB07G13KT 140V290 10SM CLR 21/M06 A3007 RMK AO2","lat":34.8467,"lon":-111.7884,"elev":1455,"name":"Sedona Arpt, AZ, US","cover":"CLR","clouds":[],"fltCat":"VFR"},{"icaoId":"KPUW","receiptTime":"2026-04-15T21:16:04.032Z","obsTime":1776287520,"reportTime":"2026-04-15T21:12:00.000Z","temp":5.6,"dewp":2.2,"wdir":250,"wspd":20,"wgst":29,"visib":"10+","altim":1004.8,"qcField":6,"metarType":"SPECI","rawOb":"SPECI KPUW 152112Z AUTO 25020G29KT 10SM BKN023 BKN027 BKN100 06/02 A2967 RMK AO2 PK WND 25029/2111 T00560022","lat":46.7438,"lon":-117.1158,"elev":774,"name":"Pullman/Moscow Rgnl, WA, US","cover":"BKN","clouds":[{"cover":"BKN","base":2300},{"cover":"BKN","base":2700},{"cover":"BKN","base":10000}],"fltCat":"MVFR"},{"icaoId":"KCOE","receiptTime":"2026-04-15T21:12:06.805Z","obsTime":1776287400,"reportTime":"2026-04-15T21:10:00.000Z","temp":9,"dewp":3,"wdir":180,"wspd":9,"wgst":19,"visib":"10+","altim":1002.8,"qcField":14,"metarType":"SPECI","rawOb":"SPECI KCOE 152110Z AUTO 18009G19KT 10SM FEW024 BKN032 OVC040 09/03 A2961 RMK AO2 PNO $","lat":47.7719,"lon":-116.8332,"elev":693,"name":"Coeur DAlene Arpt, ID, US","cover":"OVC","clouds":[{"cover":"FEW","base":2400},{"cover":"BKN","base":3200},{"cover":"OVC","base":4000}],"fltCat":"VFR"},{"icaoId":"KSPS","receiptTime":"2026-04-15T21:08:15.338Z","obsTime":1776287100,"reportTime":"2026-04-15T21:05:00.000Z","temp":20.6,"dewp":13.9,"wdir":150,"wspd":9,"visib":"10+","altim":1009.9,"qcField":4,"wxString":"TS","metarType":"SPECI","rawOb":"SPECI KSPS 152105Z 15009KT 10SM TS FEW025 SCT044 BKN090 21/14 A2982 RMK AO2 WSHFT 2045 LTG DSNT ALQDS T02060139","lat":33.9785,"lon":-98.493,"elev":310,"name":"Wichita Falls Rgnl, TX, US","cover":"BKN","clouds":[{"cover":"FEW","base":2500},{"cover":"SCT","base":4400},{"cover":"BKN","base":9000}],"fltCat":"VFR"},{"icaoId":"PANC","receiptTime":"2026-04-15T21:06:11.756Z","obsTime":1776286980,"reportTime":"2026-04-15T21:03:00.000Z","temp":0,"dewp":-1.1,"wdir":290,"wspd":4,"visib":1,"altim":1011.9,"qcField":4,"wxString":"-SN BR","precip":0.005,"metarType":"SPECI","rawOb":"SPECI PANC 152103Z 29004KT 1SM R07R/5000VP6000FT -SN BR BKN004 OVC019 00/M01 A2988 RMK AO2 P0000 T00001011","lat":61.1691,"lon":-150.0277,"elev":39,"name":"Anchorage Intl, AK, US","cover":"OVC","clouds":[{"cover":"BKN","base":400},{"cover":"OVC","base":1900}],"fltCat":"LIFR"},{"icaoId":"KNYL","receiptTime":"2026-04-15T21:01:03.937Z","obsTime":1776286620,"reportTime":"2026-04-15T21:00:00.000Z","temp":28.9,"dewp":1.1,"wdir":"VRB","wspd":5,"visib":"10+","altim":1013.6,"slp":1013.2,"qcField":4,"presTend":-2,"metarType":"METAR","rawOb":"METAR KNYL 152057Z VRB05KT 10SM CLR 29/01 A2993 RMK AO2 SLP132 T02890011 58020","lat":32.66,"lon":-114.6078,"elev":58,"name":"Yuma , AZ, US","cover":"CLR","clouds":[],"fltCat":"VFR"},{"icaoId":"KNFL","receiptTime":"2026-04-15T21:01:03.914Z","obsTime":1776286620,"reportTime":"2026-04-15T21:00:00.000Z","temp":17.2,"dewp":-10,"wdir":250,"wspd":14,"visib":"10+","altim":1014.6,"slp":1011.7,"qcField":4,"presTend":-1.1,"metarType":"METAR","rawOb":"METAR KNFL 152057Z 25014KT 10SM SCT070 BKN090 BKN120 BKN150 17/M10 A2996 RMK AO2 SLP117 ACSL DSNT W-N-E T01721100 56011","lat":39.417,"lon":-118.705,"elev":1199,"name":"Fallon , NV, US","cover":"BKN","clouds":[{"cover":"SCT","base":7000},{"cover":"BKN","base":9000},{"cover":"BKN","base":12000},{"cover":"BKN","base":15000}],"fltCat":"VFR"},{"icaoId":"KFLG","receiptTime":"2026-04-15T21:01:12.075Z","obsTime":1776286620,"reportTime":"2026-04-15T21:00:00.000Z","temp":13.9,"dewp":-3.9,"wdir":140,"wspd":8,"wgst":18,"visib":"10+","altim":1020.4,"slp":1015.6,"qcField":4,"presTend":-1.2,"metarType":"METAR","rawOb":"METAR KFLG 152057Z 14008G18KT 120V180 10SM BKN070 14/M04 A3013 RMK AO2 SLP156 T01391039 58012","lat":35.1443,"lon":-111.6664,"elev":2134,"name":"Flagstaff/Pulliam Arpt, AZ, US","cover":"BKN","clouds":[{"cover":"BKN","base":7000}],"fltCat":"VFR"},{"icaoId":"KEGE","receiptTime":"2026-04-15T20:58:25.475Z","obsTime":1776286560,"reportTime":"2026-04-15T21:00:00.000Z","temp":12.8,"dewp":-6.7,"wdir":290,"wspd":14,"wgst":19,"visib":"10+","altim":1017.4,"slp":1014.2,"qcField":4,"presTend":-1.4,"metarType":"METAR","rawOb":"METAR KEGE 152056Z 29014G19KT 10SM CLR 13/M07 A3004 RMK AO2 SLP142 T01281067 56014","lat":39.6448,"lon":-106.9176,"elev":1993,"name":"Eagle Cnty Rgnl, CO, US","cover":"CLR","clouds":[],"fltCat":"VFR"},{"icaoId":"KFNL","receiptTime":"2026-04-15T20:58:25.576Z","obsTime":1776286560,"reportTime":"2026-04-15T21:00:00.000Z","temp":19.4,"dewp":-7.2,"wdir":"VRB","wspd":3,"wgst":16,"visib":"10+","altim":1010.6,"slp":1006.8,"qcField":12,"presTend":-1,"metarType":"METAR","rawOb":"METAR KFNL 152056Z VRB03G16KT 10SM CLR 19/M07 A2984 RMK AO2 SLP068 T01941072 56010 $","lat":40.4427,"lon":-105.0097,"elev":1529,"name":"Fort Collins/N Colorado Rgnl, CO, US","cover":"CLR","clouds":[],"fltCat":"VFR"},{"icaoId":"KPVU","receiptTime":"2026-04-15T20:58:25.203Z","obsTime":1776286560,"reportTime":"2026-04-15T21:00:00.000Z","temp":19.4,"dewp":-3.3,"wdir":"VRB","wspd":5,"visib":"10+","altim":1013,"slp":1010.3,"qcField":4,"presTend":-2.6,"metarType":"METAR","rawOb":"METAR KPVU 152056Z VRB05KT 10SM FEW100 19/M03 A2991 RMK AO2 SLP103 T01941033 58026","lat":40.224,"lon":-111.7252,"elev":1370,"name":"Provo Muni, UT, US","cover":"FEW","clouds":[{"cover":"FEW","base":10000}],"fltCat":"VFR"},{"icaoId":"KHND","receiptTime":"2026-04-15T20:58:25.801Z","obsTime":1776286560,"reportTime":"2026-04-15T21:00:00.000Z","temp":26.1,"dewp":-5.6,"wdir":240,"wspd":8,"visib":"10+","altim":1015,"slp":1014.6,"qcField":12,"presTend":-2.3,"metarType":"METAR","rawOb":"METAR KHND 152056Z 24008KT 10SM CLR 26/M06 A2997 RMK AO2 SLP146 T02611056 58023 $","lat":35.9657,"lon":-115.1343,"elev":740,"name":"Henderson Exec, NV, US","cover":"CLR","clouds":[],"fltCat":"VFR"},{"icaoId":"KSGU","receiptTime":"2026-04-15T20:58:21.537Z","obsTime":1776286560,"reportTime":"2026-04-15T21:00:00.000Z","temp":22.2,"dewp":-1.1,"wdir":0,"wspd":0,"visib":"10+","altim":1015,"slp":1013.2,"qcField":6,"presTend":-2.6,"metarType":"METAR","rawOb":"METAR KSGU 152056Z AUTO 00000KT 10SM CLR 22/M01 A2997 RMK AO2 SLP132 T02221011 58026","lat":37.0444,"lon":-113.5034,"elev":877,"name":"Saint George Muni, UT, US","cover":"CLR","clouds":[],"fltCat":"VFR"},{"icaoId":"KBZN","receiptTime":"2026-04-15T21:00:14.088Z","obsTime":1776286560,"reportTime":"2026-04-15T21:00:00.000Z","temp":16.1,"dewp":-1.7,"wdir":240,"wspd":22,"wgst":31,"visib":"10+","altim":1002.1,"slp":999.9,"qcField":4,"presTend":-1.6,"metarType":"METAR","rawOb":"METAR KBZN 152056Z 24022G31KT 10SM SCT110 16/M02 A2959 RMK AO2 PK WND 22031/2054 SLP999 T01611017 57016","lat":45.7876,"lon":-111.1615,"elev":1349,"name":"Bozeman/Gallatin Fld, MT, US","cover":"SCT","clouds":[{"cover":"SCT","base":11000}],"fltCat":"VFR"},{"icaoId":"KSDY","receiptTime":"2026-04-15T20:58:25.301Z","obsTime":1776286560,"reportTime":"2026-04-15T21:00:00.000Z","temp":17.8,"dewp":-2.2,"wdir":220,"wspd":9,"visib":"10+","altim":1003.5,"slp":1004,"qcField":14,"presTend":-1.2,"metarType":"METAR","rawOb":"METAR KSDY 152056Z AUTO 22009KT 10SM FEW090 18/M02 A2963 RMK AO2 SLP040 T01781022 56012 $","lat":47.7029,"lon":-104.1951,"elev":600,"name":"Sidney/Richland Muni, MT, US","cover":"FEW","clouds":[{"cover":"FEW","base":9000}],"fltCat":"VFR"},{"icaoId":"KVIS","receiptTime":"2026-04-15T20:58:21.696Z","obsTime":1776286560,"reportTime":"2026-04-15T21:00:00.000Z","temp":22.8,"dewp":8.9,"wdir":360,"wspd":5,"visib":"10+","altim":1017.4,"slp":1017.3,"qcField":14,"presTend":-1.7,"metarType":"METAR","rawOb":"METAR KVIS 152056Z AUTO 36005KT 10SM CLR 23/09 A3004 RMK AO2 SLP173 6//// T02280089 58017 PNO $","lat":36.3135,"lon":-119.3884,"elev":92,"name":"Visalia Muni, CA, US","cover":"CLR","clouds":[],"fltCat":"VFR"},{"icaoId":"KGUC","receiptTime":"2026-04-15T20:58:25.727Z","obsTime":1776286560,"reportTime":"2026-04-15T21:00:00.000Z","temp":10.6,"dewp":-6.1,"wdir":260,"wspd":13,"wgst":17,"visib":"10+","altim":1018.4,"slp":1016.2,"qcField":14,"presTend":-0.8,"metarType":"METAR","rawOb":"METAR KGUC 152056Z AUTO 26013G17KT 10SM SCT075 11/M06 A3007 RMK AO2 SLP162 T01061061 58008 $","lat":38.5322,"lon":-106.9419,"elev":2337,"name":"Gunnison Arpt, CO, US","cover":"SCT","clouds":[{"cover":"SCT","base":7500}],"fltCat":"VFR"},{"icaoId":"KHDN","receiptTime":"2026-04-15T20:58:25.771Z","obsTime":1776286560,"reportTime":"2026-04-15T21:00:00.000Z","temp":11.7,"dewp":-3.3,"wdir":240,"wspd":8,"wgst":19,"visib":"10+","altim":1016,"slp":1013.9,"qcField":6,"presTend":-1.5,"metarType":"METAR","rawOb":"METAR KHDN 152056Z AUTO 24008G19KT 10SM BKN065 12/M03 A3000 RMK AO2 SLP139 T01171033 56015","lat":40.4842,"lon":-107.2296,"elev":2012,"name":"Hayden/Yampa Valley Arpt, CO, US","cover":"BKN","clouds":[{"cover":"BKN","base":6500}],"fltCat":"VFR"},{"icaoId":"KSLE","receiptTime":"2026-04-15T21:00:16.334Z","obsTime":1776286560,"reportTime":"2026-04-15T21:00:00.000Z","temp":8.9,"dewp":2.2,"wdir":290,"wspd":14,"wgst":20,"visib":"10+","altim":1015,"slp":1015.1,"qcField":4,"presTend":0.9,"precip":0.005,"pcp3hr":0.08,"metarType":"METAR","rawOb":"METAR KSLE 152056Z 29014G20KT 10SM FEW037 SCT045 BKN055 09/02 A2997 RMK AO2 RAE11 SLP151 P0000 60008 T00890022 53009","lat":44.9049,"lon":-123.001,"elev":63,"name":"Salem Muni, OR, US","cover":"BKN","clouds":[{"cover":"FEW","base":3700},{"cover":"SCT","base":4500},{"cover":"BKN","base":5500}],"fltCat":"VFR"},{"icaoId":"KSFO","receiptTime":"2026-04-15T21:00:11.740Z","obsTime":1776286560,"reportTime":"2026-04-15T21:00:00.000Z","temp":15.6,"dewp":8.9,"wdir":290,"wspd":19,"wgst":27,"visib":"10+","altim":1019.7,"slp":1019.7,"qcField":12,"presTend":-0.5,"metarType":"METAR","rawOb":"METAR KSFO 152056Z 29019G27KT 10SM BKN023 BKN200 16/09 A3011 RMK AO2 PK WND 29027/2053 SLP197 T01560089 58005 $","lat":37.6196,"lon":-122.3656,"elev":2,"name":"San Francisco Intl, CA, US","cover":"BKN","clouds":[{"cover":"BKN","base":2300},{"cover":"BKN","base":20000}],"fltCat":"MVFR"},{"icaoId":"KSBP","receiptTime":"2026-04-15T21:00:16.302Z","obsTime":1776286560,"reportTime":"2026-04-15T21:00:00.000Z","temp":20,"dewp":11.1,"wdir":330,"wspd":15,"visib":"10+","altim":1017,"slp":1016.7,"qcField":4,"presTend":-1.4,"metarType":"METAR","rawOb":"METAR KSBP 152056Z 33015KT 10SM CLR 20/11 A3003 RMK AO2 SLP167 T02000111 56014","lat":35.2381,"lon":-120.644,"elev":52,"name":"San Luis Obispo/San Luis Cnty, CA, US","cover":"CLR","clouds":[],"fltCat":"VFR"},{"icaoId":"KLWS","receiptTime":"2026-04-15T21:00:11.686Z","obsTime":1776286560,"reportTime":"2026-04-15T21:00:00.000Z","temp":8.9,"dewp":0.6,"wdir":280,"wspd":18,"wgst":27,"visib":"10+","altim":1005.2,"slp":1005.3,"qcField":4,"presTend":0.4,"precip":0.01,"pcp3hr":0.04,"metarType":"METAR","rawOb":"METAR KLWS 152056Z 28018G27KT 10SM BKN075 OVC090 09/01 A2968 RMK AO2 PK WND 26030/2045 RAE05 SLP053 P0001 60004 T00890006 51004","lat":46.3746,"lon":-117.0153,"elev":435,"name":"Lewiston/Nez Perce Cnty, ID, US","cover":"OVC","clouds":[{"cover":"BKN","base":7500},{"cover":"OVC","base":9000}],"fltCat":"VFR"},{"icaoId":"KINW","receiptTime":"2026-04-15T21:00:13.930Z","obsTime":1776286560,"reportTime":"2026-04-15T21:00:00.000Z","temp":19.4,"dewp":-6.7,"wdir":60,"wspd":6,"wgst":14,"visib":"10+","altim":1018.4,"slp":1015.1,"qcField":6,"presTend":-1.9,"metarType":"METAR","rawOb":"METAR KINW 152056Z AUTO 06006G14KT 10SM CLR 19/M07 A3007 RMK AO2 SLP151 T01941067 58019","lat":35.0279,"lon":-110.7221,"elev":1492,"name":"Winslow/Lindberg Rgnl, AZ, US","cover":"CLR","clouds":[],"fltCat":"VFR"},{"icaoId":"KCHS","receiptTime":"2026-04-15T21:00:11.372Z","obsTime":1776286560,"reportTime":"2026-04-15T21:00:00.000Z","temp":29.4,"dewp":13.3,"wdir":180,"wspd":15,"visib":"10+","altim":1018.7,"slp":1018.6,"qcField":4,"presTend":-1.2,"metarType":"METAR","rawOb":"METAR KCHS 152056Z 18015KT 10SM FEW250 29/13 A3008 RMK AO2 SLP186 T02940133 56012","lat":32.8995,"lon":-80.0407,"elev":12,"name":"Charleston Intl, SC, US","cover":"FEW","clouds":[{"cover":"FEW","base":25000}],"fltCat":"VFR"},{"icaoId":"KLAS","receiptTime":"2026-04-15T21:00:16.256Z","obsTime":1776286560,"reportTime":"2026-04-15T21:00:00.000Z","temp":26.1,"dewp":-6.7,"wdir":190,"wspd":10,"visib":"10+","altim":1014,"slp":1012.2,"qcField":4,"presTend":-2.4,"metarType":"METAR","rawOb":"METAR KLAS 152056Z 19010KT 10SM FEW250 26/M07 A2994 RMK AO2 SLP122 T02611067 58024","lat":36.0719,"lon":-115.1634,"elev":662,"name":"Las Vegas/Reid Intl, NV, US","cover":"FEW","clouds":[{"cover":"FEW","base":25000}],"fltCat":"VFR"},{"icaoId":"KRDM","receiptTime":"2026-04-15T21:00:16.287Z","obsTime":1776286560,"reportTime":"2026-04-15T21:00:00.000Z","temp":7.2,"dewp":-6.1,"wdir":320,"wspd":17,"wgst":28,"visib":"10+","altim":1009.6,"slp":1009.9,"qcField":4,"presTend":1,"metarType":"METAR","rawOb":"METAR KRDM 152056Z 32017G28KT 10SM FEW060 07/M06 A2981 RMK AO2 PK WND 26035/2014 SLP099 T00721061 51010","lat":44.2558,"lon":-121.1407,"elev":930,"name":"Redmond Muni, OR, US","cover":"FEW","clouds":[{"cover":"FEW","base":6000}],"fltCat":"VFR"},{"icaoId":"KSDF","receiptTime":"2026-04-15T21:00:16.320Z","obsTime":1776286560,"reportTime":"2026-04-15T21:00:00.000Z","temp":28.9,"dewp":15.6,"wdir":230,"wspd":8,"wgst":18,"visib":"10+","altim":1013.6,"slp":1013.1,"qcField":4,"presTend":-1.5,"metarType":"METAR","rawOb":"METAR KSDF 152056Z 23008G18KT 10SM BKN060 OVC250 29/16 A2993 RMK AO2 SLP131 T02890156 58015","lat":38.1774,"lon":-85.7308,"elev":146,"name":"Louisville Intl, KY, US","cover":"OVC","clouds":[{"cover":"BKN","base":6000},{"cover":"OVC","base":25000}],"fltCat":"VFR"},{"icaoId":"KTPH","receiptTime":"2026-04-15T21:00:16.353Z","obsTime":1776286560,"reportTime":"2026-04-15T21:00:00.000Z","visib":"","altim":1016,"qcField":142,"presTend":-1.8,"metarType":"METAR","rawOb":"METAR KTPH 152056Z AUTO A3000 RMK AO2 SLPNO 6//// 56018 PWINO PNO $","lat":38.0505,"lon":-117.0906,"elev":1647,"name":"Tonopah Arpt, NV, US"},{"icaoId":"KUKI","receiptTime":"2026-04-15T21:00:16.371Z","obsTime":1776286560,"reportTime":"2026-04-15T21:00:00.000Z","temp":17.2,"dewp":7.2,"wdir":270,"wspd":9,"wgst":16,"visib":"10+","altim":1018.7,"slp":1018.3,"qcField":6,"presTend":-1.1,"metarType":"METAR","rawOb":"METAR KUKI 152056Z AUTO 27009G16KT 10SM FEW042 SCT080 BKN110 17/07 A3008 RMK AO2 SLP183 T01720072 56011","lat":39.1278,"lon":-123.2001,"elev":183,"name":"Ukiah Muni, CA, US","cover":"BKN","clouds":[{"cover":"FEW","base":4200},{"cover":"SCT","base":8000},{"cover":"BKN","base":11000}],"fltCat":"VFR"},{"icaoId":"KEKO","receiptTime":"2026-04-15T21:00:16.096Z","obsTime":1776286560,"reportTime":"2026-04-15T21:00:00.000Z","temp":15,"dewp":-3.9,"wdir":290,"wspd":23,"wgst":33,"visib":"10+","altim":1013.3,"slp":1012,"qcField":6,"presTend":-0.8,"metarType":"METAR","rawOb":"METAR KEKO 152056Z AUTO 29023G33KT 10SM BKN075 BKN090 15/M04 A2992 RMK AO2 PK WND 30041/2011 SLP120 T01501039 55008","lat":40.824,"lon":-115.7863,"elev":1541,"name":"Elko Rgnl, NV, US","cover":"BKN","clouds":[{"cover":"BKN","base":7500},{"cover":"BKN","base":9000}],"fltCat":"VFR"},{"icaoId":"KCEC","receiptTime":"2026-04-15T21:00:15.982Z","obsTime":1776286560,"reportTime":"2026-04-15T21:00:00.000Z","temp":11.7,"dewp":5.6,"wdir":340,"wspd":13,"wgst":21,"visib":"10+","altim":1020.1,"slp":1020,"qcField":6,"presTend":1.2,"pcp3hr":0.13,"metarType":"METAR","rawOb":"METAR KCEC 152056Z AUTO 34013G21KT 10SM OVC037 12/06 A3012 RMK AO2 SLP200 60013 T01170056 53012","lat":41.7836,"lon":-124.238,"elev":17,"name":"Crescent City/McNama, CA, US","cover":"OVC","clouds":[{"cover":"OVC","base":3700}],"fltCat":"VFR"},{"icaoId":"KENV","receiptTime":"2026-04-15T20:58:25.513Z","obsTime":1776286560,"reportTime":"2026-04-15T21:00:00.000Z","temp":20,"dewp":-4.4,"wdir":250,"wspd":18,"wgst":23,"visib":"10+","altim":1011.3,"slp":1009.2,"qcField":6,"presTend":-2,"metarType":"METAR","rawOb":"METAR KENV 152056Z AUTO 25018G23KT 10SM CLR 20/M04 A2986 RMK AO2 PK WND 24029/2026 SLP092 T02001044 56020","lat":40.7211,"lon":-114.0312,"elev":1291,"name":"Wendover Arpt, UT, US","cover":"CLR","clouds":[],"fltCat":"VFR"},{"icaoId":"KPWT","receiptTime":"2026-04-15T20:58:25.233Z","obsTime":1776286560,"reportTime":"2026-04-15T21:00:00.000Z","temp":8.3,"dewp":3.9,"wdir":230,"wspd":19,"wgst":26,"visib":"10+","altim":1009.9,"slp":1010.5,"qcField":6,"presTend":-1.1,"precip":0.005,"pcp3hr":0.005,"metarType":"METAR","rawOb":"METAR KPWT 152056Z AUTO 23019G26KT 10SM FEW055 08/04 A2982 RMK AO2 PK WND 22027/2045 LTG DSNT N RAE14 SLP105 P0000 60000 T00830039 56011","lat":47.4942,"lon":-122.7594,"elev":143,"name":"Bremerton Arpt, WA, US","cover":"FEW","clouds":[{"cover":"FEW","base":5500}],"fltCat":"VFR"},{"icaoId":"KCGZ","receiptTime":"2026-04-15T20:58:33.022Z","obsTime":1776286560,"reportTime":"2026-04-15T21:00:00.000Z","temp":27.8,"dewp":-3.3,"wdir":210,"wspd":8,"visib":"10+","altim":1015,"slp":1013.9,"qcField":14,"presTend":-2,"metarType":"METAR","rawOb":"METAR KCGZ 152056Z AUTO 21008KT 10SM CLR 28/M03 A2997 RMK AO2 SLP139 6//// T02781033 58020 $","lat":32.9531,"lon":-111.7725,"elev":444,"name":"Casa Granda Muni, AZ, US","cover":"CLR","clouds":[],"fltCat":"VFR"},{"icaoId":"KCOD","receiptTime":"2026-04-15T20:58:33.065Z","obsTime":1776286560,"reportTime":"2026-04-15T21:00:00.000Z","temp":16.7,"dewp":-3.3,"wdir":280,"wspd":15,"wgst":21,"visib":"10+","altim":1006.2,"slp":1003.2,"qcField":14,"presTend":-1.8,"metarType":"METAR","rawOb":"METAR KCOD 152056Z AUTO 28015G21KT 10SM BKN075 OVC090 17/M03 A2971 RMK AO2 SLP032 T01671033 56018 $","lat":44.52,"lon":-109.0268,"elev":1550,"name":"Cody/Yellowstone Rgnl, WY, US","cover":"OVC","clouds":[{"cover":"BKN","base":7500},{"cover":"OVC","base":9000}],"fltCat":"VFR"},{"icaoId":"KJAX","receiptTime":"2026-04-15T21:02:24.379Z","obsTime":1776286560,"reportTime":"2026-04-15T21:00:00.000Z","temp":28.9,"dewp":13.3,"wdir":110,"wspd":10,"visib":"10+","altim":1019.4,"slp":1019.2,"qcField":13,"presTend":-1.5,"metarType":"METAR","rawOb":"METAR KJAX 152056Z COR 11010KT 10SM FEW040 SCT250 29/13 A3010 RMK AO2 SLP192 T02890133 56015 $","lat":30.4953,"lon":-81.6937,"elev":8,"name":"Jacksonville Intl, FL, US","cover":"SCT","clouds":[{"cover":"FEW","base":4000},{"cover":"SCT","base":25000}],"fltCat":"VFR"},{"icaoId":"KDUG","receiptTime":"2026-04-15T21:02:25.307Z","obsTime":1776286560,"reportTime":"2026-04-15T21:00:00.000Z","temp":23.3,"dewp":-9.4,"wdir":"VRB","wspd":5,"visib":"10+","altim":1017.7,"slp":1012.9,"qcField":38,"presTend":-1.5,"metarType":"METAR","rawOb":"METAR KDUG 152056Z AUTO VRB05KT 10SM CLR 23/M09 A3005 RMK AO2 SLP129 T02331094 58015 TSNO","lat":31.4725,"lon":-109.6022,"elev":1260,"name":"Douglas/Bisbee Intl, AZ, US","cover":"CLR","clouds":[],"fltCat":"VFR"},{"icaoId":"KEND","receiptTime":"2026-04-15T21:06:07.733Z","obsTime":1776286500,"reportTime":"2026-04-15T21:00:00.000Z","temp":29.4,"dewp":11,"wdir":170,"wspd":10,"visib":"10+","altim":1006.9,"slp":1005.5,"qcField":12,"presTend":-1.2,"metarType":"METAR","rawOb":"METAR KEND 152055Z 17010KT 10SM FEW100 29/11 A2973 RMK AO2A SLP055 T02940110 57012 $","lat":36.338,"lon":-97.919,"elev":392,"name":"Enid/Vance AFB, OK, US","cover":"FEW","clouds":[{"cover":"FEW","base":10000}],"fltCat":"VFR"},{"icaoId":"KGPI","receiptTime":"2026-04-15T20:58:25.664Z","obsTime":1776286500,"reportTime":"2026-04-15T21:00:00.000Z","temp":7.2,"dewp":3.3,"wdir":0,"wspd":0,"visib":"10+","altim":1001.4,"slp":1002.2,"qcField":4,"presTend":-1.1,"precip":0.1,"pcp3hr":0.14,"metarType":"METAR","rawOb":"METAR KGPI 152055Z 00000KT 10SM SCT023 BKN028 BKN036 07/03 A2957 RMK AO2 RAE37 SLP022 P0010 60014 T00720033 56011","lat":48.3041,"lon":-114.2643,"elev":903,"name":"Kalispell/Glacier Park Intl, MT, US","cover":"BKN","clouds":[{"cover":"SCT","base":2300},{"cover":"BKN","base":2800},{"cover":"BKN","base":3600}],"fltCat":"MVFR"},{"icaoId":"KRNO","receiptTime":"2026-04-15T20:58:25.260Z","obsTime":1776286500,"reportTime":"2026-04-15T21:00:00.000Z","temp":16.7,"dewp":-3.9,"wdir":240,"wspd":14,"wgst":24,"visib":"10+","altim":1015,"slp":1012.4,"qcField":4,"presTend":-1.7,"metarType":"METAR","rawOb":"METAR KRNO 152055Z 24014G24KT 10SM SCT120 BKN210 17/M04 A2997 RMK AO2 SLP124 ACSL ALQDS T01671039 58017","lat":39.5077,"lon":-119.7683,"elev":1344,"name":"Reno/Tahoe Intl, NV, US","cover":"BKN","clouds":[{"cover":"SCT","base":12000},{"cover":"BKN","base":21000}],"fltCat":"VFR"},{"icaoId":"KLUF","receiptTime":"2026-04-15T21:06:08.946Z","obsTime":1776286500,"reportTime":"2026-04-15T21:00:00.000Z","temp":27.8,"dewp":-5.4,"wdir":160,"wspd":3,"visib":"10+","altim":1013.6,"slp":1012.6,"qcField":14,"presTend":-1.9,"metarType":"METAR","rawOb":"METAR KLUF 152055Z AUTO 16003KT 10SM CLR 28/M05 A2993 RMK AO2 SLP126 T02781054 57019 $","lat":33.538,"lon":-112.38,"elev":333,"name":"Phoenix/Luke AFB, AZ, US","cover":"CLR","clouds":[],"fltCat":"VFR"},{"icaoId":"KAST","receiptTime":"2026-04-15T20:58:32.881Z","obsTime":1776286500,"reportTime":"2026-04-15T21:00:00.000Z","temp":6.1,"dewp":3.3,"wdir":220,"wspd":9,"wgst":17,"visib":"10+","altim":1014.6,"slp":1014.5,"qcField":6,"presTend":0.7,"precip":0.01,"pcp3hr":0.07,"metarType":"METAR","rawOb":"METAR KAST 152055Z AUTO 22009G17KT 10SM FEW027 SCT043 BKN065 06/03 A2996 RMK AO2 RAB13E30 CIG 047 RWY 08 SLP145 P0001 60007 T00610033 53007","lat":46.157,"lon":-123.8833,"elev":3,"name":"Astoria Rgnl, OR, US","cover":"BKN","clouds":[{"cover":"FEW","base":2700},{"cover":"SCT","base":4300},{"cover":"BKN","base":6500}],"fltCat":"VFR"},{"icaoId":"KCMA","receiptTime":"2026-04-15T20:58:33.037Z","obsTime":1776286500,"reportTime":"2026-04-15T21:00:00.000Z","temp":20,"dewp":12.2,"wdir":240,"wspd":8,"visib":"10+","altim":1017,"slp":1017.6,"qcField":4,"presTend":-0.6,"metarType":"METAR","rawOb":"METAR KCMA 152055Z 24008KT 10SM CLR 20/12 A3003 RMK AO2 SLP176 T02000122 56006","lat":34.2114,"lon":-119.0876,"elev":20,"name":"Camarillo Arpt, CA, US","cover":"CLR","clouds":[],"fltCat":"VFR"},{"icaoId":"KCOS","receiptTime":"2026-04-15T20:58:14.832Z","obsTime":1776286440,"reportTime":"2026-04-15T21:00:00.000Z","temp":16.7,"dewp":-10.6,"wdir":0,"wspd":0,"visib":"10+","altim":1013,"slp":1008.7,"qcField":4,"presTend":-1.4,"metarType":"METAR","rawOb":"METAR KCOS 152054Z 00000KT 10SM FEW095 17/M11 A2991 RMK AO2 SLP087 T01671106 56014","lat":38.8095,"lon":-104.6887,"elev":1886,"name":"Colorado Spring Arpt, CO, US","cover":"FEW","clouds":[{"cover":"FEW","base":9500}],"fltCat":"VFR"},{"icaoId":"KDSM","receiptTime":"2026-04-15T20:58:14.862Z","obsTime":1776286440,"reportTime":"2026-04-15T21:00:00.000Z","temp":25.6,"dewp":16.1,"wdir":190,"wspd":9,"visib":"10+","altim":1003.5,"slp":1002.8,"qcField":4,"wxString":"TS","presTend":-1.4,"metarType":"METAR","rawOb":"METAR KDSM 152054Z 19009KT 10SM TS FEW036CB SCT060 SCT150 BKN250 26/16 A2963 RMK AO2 TSB51 SLP028 OCNL LTGICCG VC NW AND DSNT W-N TS VC NW MOV NE CB DSNT SW-NE MOV NE TCU SW-N T02560161 58014","lat":41.5339,"lon":-93.6531,"elev":286,"name":"Des Moines Intl, IA, US","cover":"BKN","clouds":[{"cover":"FEW","base":3600},{"cover":"SCT","base":6000},{"cover":"SCT","base":15000},{"cover":"BKN","base":25000}],"fltCat":"VFR"},{"icaoId":"KEUG","receiptTime":"2026-04-15T20:58:08.989Z","obsTime":1776286440,"reportTime":"2026-04-15T21:00:00.000Z","temp":8.9,"dewp":3.3,"wdir":270,"wspd":9,"wgst":17,"visib":"10+","altim":1017,"slp":1016.9,"qcField":12,"presTend":1.3,"precip":0.005,"pcp3hr":0.02,"metarType":"METAR","rawOb":"METAR KEUG 152054Z 27009G17KT 10SM FEW036 BKN046 BKN065 09/03 A3003 RMK AO2 PK WND 28036/2028 WSHFT 2017 RAE01B29E48 SLP169 P0000 60002 T00890033 51013 $","lat":44.1331,"lon":-123.2156,"elev":109,"name":"Eugene/Mahlon Sweet Fld, OR, US","cover":"BKN","clouds":[{"cover":"FEW","base":3600},{"cover":"BKN","base":4600},{"cover":"BKN","base":6500}],"fltCat":"VFR"},{"icaoId":"KFFZ","receiptTime":"2026-04-15T20:58:06.241Z","obsTime":1776286440,"reportTime":"2026-04-15T21:00:00.000Z","temp":26.7,"dewp":-3.3,"wdir":"VRB","wspd":3,"visib":"10+","altim":1014.3,"slp":1012.2,"qcField":4,"presTend":-1.9,"metarType":"METAR","rawOb":"METAR KFFZ 152054Z VRB03KT 10SM CLR 27/M03 A2995 RMK AO2 SLP122 T02671033 58019","lat":33.4659,"lon":-111.7212,"elev":420,"name":"Mesa/Falcon Fld, AZ, US","cover":"CLR","clouds":[],"fltCat":"VFR"},{"icaoId":"KGCN","receiptTime":"2026-04-15T20:58:09.004Z","obsTime":1776286440,"reportTime":"2026-04-15T21:00:00.000Z","temp":15.6,"dewp":-8.9,"wdir":250,"wspd":10,"wgst":18,"visib":"10+","altim":1020.4,"slp":1016.5,"qcField":4,"presTend":-1.3,"metarType":"METAR","rawOb":"METAR KGCN 152054Z 25010G18KT 10SM CLR 16/M09 A3013 RMK AO2 SLP165 T01561089 58013","lat":35.9458,"lon":-112.1554,"elev":1993,"name":"Grand Canyon Park Arpt, AZ, US","cover":"CLR","clouds":[],"fltCat":"VFR"},{"icaoId":"KMEM","receiptTime":"2026-04-15T20:58:17.086Z","obsTime":1776286440,"reportTime":"2026-04-15T21:00:00.000Z","temp":27.8,"dewp":13.3,"wdir":200,"wspd":12,"wgst":23,"visib":"10+","altim":1015.3,"slp":1014.7,"qcField":4,"presTend":-1.3,"metarType":"METAR","rawOb":"METAR KMEM 152054Z 20012G23KT 10SM FEW060 BKN250 28/13 A2998 RMK AO2 SLP147 T02780133 58013","lat":35.0564,"lon":-89.9864,"elev":78,"name":"Memphis Intl, TN, US","cover":"BKN","clouds":[{"cover":"FEW","base":6000},{"cover":"BKN","base":25000}],"fltCat":"VFR"},{"icaoId":"KBUF","receiptTime":"2026-04-15T20:58:14.800Z","obsTime":1776286440,"reportTime":"2026-04-15T21:00:00.000Z","temp":21.1,"dewp":14.4,"wdir":200,"wspd":7,"visib":"10+","altim":1010.6,"slp":1010.4,"qcField":12,"presTend":-0.8,"pcp3hr":0.005,"metarType":"METAR","rawOb":"METAR KBUF 152054Z 20007KT 10SM FEW030 SCT050 BKN090 BKN140 BKN210 21/14 A2984 RMK AO2 LTG DSNT S SLP104 60000 T02110144 58008 $","lat":42.94,"lon":-78.7361,"elev":217,"name":"Buffalo-Niagara Intl, NY, US","cover":"BKN","clouds":[{"cover":"FEW","base":3000},{"cover":"SCT","base":5000},{"cover":"BKN","base":9000},{"cover":"BKN","base":14000}],"fltCat":"VFR"},{"icaoId":"KAPC","receiptTime":"2026-04-15T20:58:08.954Z","obsTime":1776286440,"reportTime":"2026-04-15T21:00:00.000Z","temp":18.3,"dewp":8.3,"wdir":270,"wspd":11,"visib":"10+","altim":1018.4,"slp":1017.5,"qcField":4,"presTend":-1.3,"metarType":"METAR","rawOb":"METAR KAPC 152054Z 27011KT 10SM CLR 18/08 A3007 RMK AO2 SLP175 T01830083 56013","lat":38.2075,"lon":-122.2804,"elev":5,"name":"Napa Cnty Arpt, CA, US","cover":"CLR","clouds":[],"fltCat":"VFR"},{"icaoId":"KBOS","receiptTime":"2026-04-15T20:58:06.035Z","obsTime":1776286440,"reportTime":"2026-04-15T21:00:00.000Z","temp":10,"dewp":8.9,"wdir":30,"wspd":10,"visib":1.5,"altim":1012.6,"slp":1012.5,"qcField":4,"wxString":"BR","presTend":-0.9,"metarType":"METAR","rawOb":"METAR KBOS 152054Z 03010KT 1 1/2SM BR BKN003 OVC011 10/09 A2990 RMK AO2 SLP125 VIS W-NW 3 T01000089 55009","lat":42.3606,"lon":-71.0097,"elev":4,"name":"Boston/Logan Intl, MA, US","cover":"OVC","clouds":[{"cover":"BKN","base":300},{"cover":"OVC","base":1100}],"fltCat":"LIFR"},{"icaoId":"KBFL","receiptTime":"2026-04-15T20:58:08.968Z","obsTime":1776286440,"reportTime":"2026-04-15T21:00:00.000Z","temp":22.2,"dewp":7.8,"wdir":350,"wspd":5,"visib":"10+","altim":1017,"slp":1016.4,"qcField":4,"presTend":-1.7,"metarType":"METAR","rawOb":"METAR KBFL 152054Z 35005KT 10SM CLR 22/08 A3003 RMK AO2 SLP164 T02220078 58017","lat":35.4342,"lon":-119.0552,"elev":146,"name":"Bakersfield/Meadows Arpt, CA, US","cover":"CLR","clouds":[],"fltCat":"VFR"},{"icaoId":"KPHL","receiptTime":"2026-04-15T20:58:18.597Z","obsTime":1776286440,"reportTime":"2026-04-15T21:00:00.000Z","temp":31.7,"dewp":15,"wdir":240,"wspd":12,"visib":"10+","altim":1011.6,"slp":1011.3,"qcField":12,"presTend":-1,"metarType":"METAR","rawOb":"METAR KPHL 152054Z 24012KT 10SM FEW060 SCT210 BKN300 32/15 A2987 RMK AO2 SLP113 T03170150 56010 $","lat":39.8733,"lon":-75.2268,"elev":2,"name":"Philadelphia Intl, PA, US","cover":"BKN","clouds":[{"cover":"FEW","base":6000},{"cover":"SCT","base":21000},{"cover":"BKN","base":30000}],"fltCat":"VFR"},{"icaoId":"KSYR","receiptTime":"2026-04-15T20:58:18.714Z","obsTime":1776286440,"reportTime":"2026-04-15T21:00:00.000Z","temp":22.2,"dewp":14.4,"wdir":310,"wspd":10,"visib":"10+","altim":1010.9,"slp":1010.3,"qcField":4,"presTend":0.1,"metarType":"METAR","rawOb":"METAR KSYR 152054Z 31010KT 10SM FEW060 BKN140 BKN230 22/14 A2985 RMK AO2 SLP103 T02220144 53001","lat":43.1111,"lon":-76.1038,"elev":125,"name":"Syracuse/Hancock Intl, NY, US","cover":"BKN","clouds":[{"cover":"FEW","base":6000},{"cover":"BKN","base":14000},{"cover":"BKN","base":23000}],"fltCat":"VFR"},{"icaoId":"KRIC","receiptTime":"2026-04-15T20:58:18.648Z","obsTime":1776286440,"reportTime":"2026-04-15T21:00:00.000Z","temp":33.3,"dewp":11.1,"wdir":230,"wspd":12,"wgst":20,"visib":"10+","altim":1013.6,"slp":1013.9,"qcField":4,"presTend":-1.9,"metarType":"METAR","rawOb":"METAR KRIC 152054Z 23012G20KT 10SM SCT270 33/11 A2993 RMK AO2 PK WND 21030/2028 SLP139 T03330111 56019","lat":37.5115,"lon":-77.3234,"elev":51,"name":"Richmond Intl, VA, US","cover":"SCT","clouds":[{"cover":"SCT","base":27000}],"fltCat":"VFR"},{"icaoId":"KRKS","receiptTime":"2026-04-15T20:58:06.830Z","obsTime":1776286440,"reportTime":"2026-04-15T21:00:00.000Z","temp":14.4,"dewp":-7.2,"wdir":250,"wspd":21,"wgst":33,"visib":"10+","altim":1012.6,"slp":1008.7,"qcField":6,"presTend":-1.9,"metarType":"METAR","rawOb":"METAR KRKS 152054Z AUTO 25021G33KT 10SM OVC090 14/M07 A2990 RMK AO2 PK WND 26036/2028 SLP087 T01441072 56019","lat":41.5947,"lon":-109.0529,"elev":2062,"name":"Rock Springs/SW Wyoming Rgnl, WY, US","cover":"OVC","clouds":[{"cover":"OVC","base":9000}],"fltCat":"VFR"},{"icaoId":"KROC","receiptTime":"2026-04-15T20:58:18.679Z","obsTime":1776286440,"reportTime":"2026-04-15T21:00:00.000Z","temp":24.4,"dewp":13.9,"wdir":270,"wspd":12,"wgst":21,"visib":"10+","altim":1010.6,"slp":1010.5,"qcField":12,"presTend":-0.8,"metarType":"METAR","rawOb":"METAR KROC 152054Z 27012G21KT 10SM SCT080 BKN180 BKN250 24/14 A2984 RMK AO2 SLP105 T02440139 58008 $","lat":43.1172,"lon":-77.6754,"elev":166,"name":"Rochester Intl Arpt, NY, US","cover":"BKN","clouds":[{"cover":"SCT","base":8000},{"cover":"BKN","base":18000},{"cover":"BKN","base":25000}],"fltCat":"VFR"},{"icaoId":"KSLC","receiptTime":"2026-04-15T20:58:09.088Z","obsTime":1776286440,"reportTime":"2026-04-15T21:00:00.000Z","temp":18.9,"dewp":-2.8,"wdir":160,"wspd":15,"wgst":22,"visib":"10+","altim":1011.6,"slp":1008.6,"qcField":4,"presTend":-2.3,"metarType":"METAR","rawOb":"METAR KSLC 152054Z 16015G22KT 10SM FEW002 BKN100 BKN200 19/M03 A2987 RMK AO2 PK WND 16027/2014 SLP086 VIRGA FU FEW002 FU NW-N T01891028 56023","lat":40.7707,"lon":-111.965,"elev":1286,"name":"Salt Lake City Intl, UT, US","cover":"BKN","clouds":[{"cover":"FEW","base":200},{"cover":"BKN","base":10000},{"cover":"BKN","base":20000}],"fltCat":"VFR"},{"icaoId":"KGSO","receiptTime":"2026-04-15T20:58:14.909Z","obsTime":1776286440,"reportTime":"2026-04-15T21:00:00.000Z","temp":30.6,"dewp":11.1,"wdir":210,"wspd":9,"wgst":16,"visib":"10+","altim":1016.7,"slp":1015.5,"qcField":4,"presTend":-1.3,"metarType":"METAR","rawOb":"METAR KGSO 152054Z 21009G16KT 10SM BKN250 31/11 A3002 RMK AO2 SLP155 T03060111 56013","lat":36.0969,"lon":-79.9432,"elev":275,"name":"Greensboro Intl, NC, US","cover":"BKN","clouds":[{"cover":"BKN","base":25000}],"fltCat":"VFR"},{"icaoId":"KBWI","receiptTime":"2026-04-15T20:58:06.068Z","obsTime":1776286440,"reportTime":"2026-04-15T21:00:00.000Z","temp":32.2,"dewp":12.2,"wdir":210,"wspd":7,"visib":"10+","altim":1011.9,"slp":1011.6,"qcField":4,"presTend":-1.4,"metarType":"METAR","rawOb":"METAR KBWI 152054Z 21007KT 10SM FEW075 BKN250 32/12 A2988 RMK AO2 SLP116 T03220122 56014","lat":39.1733,"lon":-76.684,"elev":42,"name":"Baltimore-Washington Intl, MD, US","cover":"BKN","clouds":[{"cover":"FEW","base":7500},{"cover":"BKN","base":25000}],"fltCat":"VFR"},{"icaoId":"KIND","receiptTime":"2026-04-15T20:58:06.382Z","obsTime":1776286440,"reportTime":"2026-04-15T21:00:00.000Z","temp":25.6,"dewp":15.6,"wdir":240,"wspd":17,"wgst":26,"visib":"10+","altim":1013,"slp":1012.1,"qcField":4,"wxString":"-RA","presTend":-0.4,"precip":0.005,"pcp3hr":0.005,"metarType":"METAR","rawOb":"METAR KIND 152054Z 24017G26KT 10SM -RA BKN045 BKN070 OVC250 26/16 A2991 RMK AO2 PK WND 24026/2051 RAB49 SLP121 P0000 60000 T02560156 55004","lat":39.7252,"lon":-86.2816,"elev":242,"name":"Indianapolis Intl, IN, US","cover":"OVC","clouds":[{"cover":"BKN","base":4500},{"cover":"BKN","base":7000},{"cover":"OVC","base":25000}],"fltCat":"VFR"},{"icaoId":"KOLM","receiptTime":"2026-04-15T20:58:09.058Z","obsTime":1776286440,"reportTime":"2026-04-15T21:00:00.000Z","temp":8.3,"dewp":0,"wdir":250,"wspd":11,"wgst":22,"visib":"10+","altim":1011.9,"slp":1011.8,"qcField":4,"presTend":0.4,"pcp3hr":0.005,"metarType":"METAR","rawOb":"METAR KOLM 152054Z 25011G22KT 10SM SCT042 BKN050 08/00 A2988 RMK AO2 SLP118 60000 T00830000 53004","lat":46.9737,"lon":-122.9049,"elev":58,"name":"Olympia Rgnl, WA, US","cover":"BKN","clouds":[{"cover":"SCT","base":4200},{"cover":"BKN","base":5000}],"fltCat":"VFR"},{"icaoId":"KOLS","receiptTime":"2026-04-15T20:58:09.073Z","obsTime":1776286440,"reportTime":"2026-04-15T21:00:00.000Z","temp":24.4,"dewp":-11.1,"wdir":"VRB","wspd":5,"visib":"10+","altim":1017.4,"slp":1012.5,"qcField":6,"presTend":-1.2,"metarType":"METAR","rawOb":"METAR KOLS 152054Z AUTO VRB05KT 10SM CLR 24/M11 A3004 RMK AO2 SLP125 T02441111 58012","lat":31.4208,"lon":-110.8465,"elev":1194,"name":"Nogales Intl, AZ, US","cover":"CLR","clouds":[],"fltCat":"VFR"},{"icaoId":"KSJN","receiptTime":"2026-04-15T20:58:06.900Z","obsTime":1776286440,"reportTime":"2026-04-15T21:00:00.000Z","temp":16.7,"dewp":-8.9,"wdir":260,"wspd":8,"visib":"10+","altim":1019,"slp":1014.1,"qcField":6,"presTend":-1.3,"metarType":"METAR","rawOb":"METAR KSJN 152054Z AUTO 26008KT 210V290 10SM CLR 17/M09 A3009 RMK AO2 SLP141 T01671089 56013","lat":34.5184,"lon":-109.3801,"elev":1747,"name":"St Johns Ind Arpt, AZ, US","cover":"CLR","clouds":[],"fltCat":"VFR"},{"icaoId":"KMDW","receiptTime":"2026-04-15T20:56:32.804Z","obsTime":1776286380,"reportTime":"2026-04-15T21:00:00.000Z","temp":21.7,"dewp":16.7,"wdir":240,"wspd":12,"visib":"10+","altim":1009.2,"slp":1008.5,"qcField":4,"presTend":0.1,"metarType":"METAR","rawOb":"METAR KMDW 152053Z 24012KT 10SM FEW015 BKN100 BKN200 OVC250 22/17 A2980 RMK AO2 SLP085 T02170167 50001","lat":41.7841,"lon":-87.7552,"elev":186,"name":"Chicago/Midway Intl, IL, US","cover":"OVC","clouds":[{"cover":"FEW","base":1500},{"cover":"BKN","base":10000},{"cover":"BKN","base":20000},{"cover":"OVC","base":25000}],"fltCat":"VFR"},{"icaoId":"KLAW","receiptTime":"2026-04-15T20:56:27.042Z","obsTime":1776286380,"reportTime":"2026-04-15T21:00:00.000Z","temp":27.2,"dewp":16.1,"wdir":210,"wspd":9,"visib":"10+","altim":1009.6,"slp":1008.3,"qcField":4,"presTend":-1.4,"metarType":"METAR","rawOb":"METAR KLAW 152053Z 21009KT 10SM BKN120 27/16 A2981 RMK AO2 SLP083 T02720161 58014","lat":34.5577,"lon":-98.4172,"elev":328,"name":"Lawton-Fort Sill Rgnl, OK, US","cover":"BKN","clouds":[{"cover":"BKN","base":12000}],"fltCat":"VFR"},{"icaoId":"KGSP","receiptTime":"2026-04-15T20:56:34.492Z","obsTime":1776286380,"reportTime":"2026-04-15T21:00:00.000Z","temp":30,"dewp":8.9,"wdir":250,"wspd":10,"wgst":19,"visib":"10+","altim":1018,"slp":1016.6,"qcField":4,"presTend":-1.1,"precip":0.005,"pcp3hr":0.005,"metarType":"METAR","rawOb":"METAR KGSP 152053Z 25010G19KT 10SM CLR 30/09 A3006 RMK AO2 RAE1955 SLP166 P0000 60000 T03000089 56011","lat":34.8842,"lon":-82.2209,"elev":285,"name":"Greenville-Spartanburg Intl, SC, US","cover":"CLR","clouds":[],"fltCat":"VFR"},{"icaoId":"KSTS","receiptTime":"2026-04-15T20:56:30.421Z","obsTime":1776286380,"reportTime":"2026-04-15T21:00:00.000Z","temp":18.9,"dewp":8.3,"wdir":200,"wspd":5,"visib":"10+","altim":1018.4,"slp":1017.6,"qcField":4,"presTend":-1.6,"metarType":"METAR","rawOb":"METAR KSTS 152053Z 20005KT 10SM CLR 19/08 A3007 RMK AO2 SLP176 T01890083 58016","lat":38.5037,"lon":-122.811,"elev":35,"name":"Santa Rosa/Schulz Arpt, CA, US","cover":"CLR","clouds":[],"fltCat":"VFR"},{"icaoId":"KSWO","receiptTime":"2026-04-15T20:56:30.435Z","obsTime":1776286380,"reportTime":"2026-04-15T21:00:00.000Z","temp":26.7,"dewp":19.4,"wdir":220,"wspd":15,"wgst":23,"visib":"10+","altim":1008.5,"slp":1007.2,"qcField":4,"presTend":-0.9,"pcp3hr":0.005,"metarType":"METAR","rawOb":"METAR KSWO 152053Z 22015G23KT 10SM SCT034 BKN045 BKN060 27/19 A2978 RMK AO2 SLP072 60000 T02670194 56009","lat":36.1624,"lon":-97.0832,"elev":293,"name":"Stillwater Muni, OK, US","cover":"BKN","clouds":[{"cover":"SCT","base":3400},{"cover":"BKN","base":4500},{"cover":"BKN","base":6000}],"fltCat":"VFR"},{"icaoId":"KMSO","receiptTime":"2026-04-15T20:56:31.006Z","obsTime":1776286380,"reportTime":"2026-04-15T21:00:00.000Z","temp":11.1,"dewp":1.7,"wdir":280,"wspd":10,"wgst":17,"visib":"10+","altim":1002.1,"slp":1002.5,"qcField":4,"presTend":-1.6,"pcp3hr":0.005,"metarType":"METAR","rawOb":"METAR KMSO 152053Z 28010G17KT 210V320 10SM BKN043 BKN095 11/02 A2959 RMK AO2 SLP025 60000 T01110017 56016","lat":46.9208,"lon":-114.0938,"elev":974,"name":"Missoula Intl, MT, US","cover":"BKN","clouds":[{"cover":"BKN","base":4300},{"cover":"BKN","base":9500}],"fltCat":"VFR"},{"icaoId":"KPDX","receiptTime":"2026-04-15T20:56:31.039Z","obsTime":1776286380,"reportTime":"2026-04-15T21:00:00.000Z","temp":8.9,"dewp":2.2,"wdir":290,"wspd":8,"visib":"10+","altim":1014,"slp":1013.6,"qcField":12,"wxString":"-RA","presTend":0.5,"precip":0.005,"pcp3hr":0.01,"metarType":"METAR","rawOb":"METAR KPDX 152053Z 29008KT 10SM -RA FEW033 BKN042CB BKN075 09/02 A2994 RMK AO2 RAE06B52 SLP136 CB OHD-S MOV E P0000 60001 T00890022 50005 $","lat":45.5958,"lon":-122.6092,"elev":7,"name":"Portland Intl, OR, US","cover":"BKN","clouds":[{"cover":"FEW","base":3300},{"cover":"BKN","base":4200},{"cover":"BKN","base":7500}],"fltCat":"VFR"},{"icaoId":"KPGA","receiptTime":"2026-04-15T20:56:31.059Z","obsTime":1776286380,"reportTime":"2026-04-15T21:00:00.000Z","temp":19.4,"dewp":-3.9,"wdir":350,"wspd":8,"wgst":15,"visib":"10+","altim":1016.3,"slp":1012.5,"qcField":14,"presTend":-2.4,"metarType":"METAR","rawOb":"METAR KPGA 152053Z AUTO 35008G15KT 10SM CLR 19/M04 A3001 RMK AO2 SLP125 T01941039 58024 $","lat":36.9211,"lon":-111.4487,"elev":1310,"name":"Page Muni, AZ, US","cover":"CLR","clouds":[],"fltCat":"VFR"},{"icaoId":"KTUS","receiptTime":"2026-04-15T20:56:31.212Z","obsTime":1776286380,"reportTime":"2026-04-15T21:00:00.000Z","temp":25.6,"dewp":-21.1,"wdir":90,"wspd":4,"visib":"10+","altim":1016.3,"slp":1012.9,"qcField":12,"presTend":-1.7,"metarType":"METAR","rawOb":"METAR KTUS 152053Z 09004KT 10SM CLR 26/M21 A3001 RMK AO2 SLP129 T02561211 58017 $","lat":32.1315,"lon":-110.9564,"elev":776,"name":"Tucson Intl Arpt, AZ, US","cover":"CLR","clouds":[],"fltCat":"VFR"},{"icaoId":"KSEA","receiptTime":"2026-04-15T20:56:31.259Z","obsTime":1776286380,"reportTime":"2026-04-15T21:00:00.000Z","temp":6.7,"dewp":3.3,"wdir":110,"wspd":8,"visib":"10+","altim":1010.6,"slp":1011.3,"qcField":4,"presTend":-0.4,"pcp3hr":0.01,"metarType":"METAR","rawOb":"METAR KSEA 152053Z 11008KT 10SM SCT014 BKN030 BKN045 BKN170 07/03 A2984 RMK AO2 SLP113 OCNL LTGIC DSNT NW CIG 028V032 CB DSNT S AND NW 60001 T00670033 58004","lat":47.4447,"lon":-122.3144,"elev":115,"name":"Seattle-Tacoma Intl, WA, US","cover":"BKN","clouds":[{"cover":"SCT","base":1400},{"cover":"BKN","base":3000},{"cover":"BKN","base":4500},{"cover":"BKN","base":17000}],"fltCat":"MVFR"},{"icaoId":"KYKM","receiptTime":"2026-04-15T20:56:31.315Z","obsTime":1776286380,"reportTime":"2026-04-15T21:00:00.000Z","temp":12.2,"dewp":-6.7,"wdir":260,"wspd":15,"wgst":24,"visib":"10+","altim":1007.2,"slp":1007.2,"qcField":4,"presTend":1.3,"metarType":"METAR","rawOb":"METAR KYKM 152053Z 26015G24KT 10SM CLR 12/M07 A2974 RMK AO2 PK WND 26031/2002 SLP072 T01221067 51013","lat":46.564,"lon":-120.5349,"elev":319,"name":"Yakima/McAllister Fld, WA, US","cover":"CLR","clouds":[],"fltCat":"VFR"},{"icaoId":"KTWF","receiptTime":"2026-04-15T20:56:31.835Z","obsTime":1776286380,"reportTime":"2026-04-15T21:00:00.000Z","temp":8.9,"dewp":5,"wdir":70,"wspd":3,"visib":8,"altim":1011.3,"slp":1008.9,"qcField":4,"wxString":"-RA","presTend":-0.7,"precip":0.03,"pcp3hr":0.05,"metarType":"METAR","rawOb":"METAR KTWF 152053Z 07003KT 8SM -RA BKN044 OVC055 09/05 A2986 RMK AO2 SLP089 P0003 60005 T00890050 58007","lat":42.4785,"lon":-114.4775,"elev":1269,"name":"Twin Falls/Joslin Fld, ID, US","cover":"OVC","clouds":[{"cover":"BKN","base":4400},{"cover":"OVC","base":5500}],"fltCat":"VFR"},{"icaoId":"KSDL","receiptTime":"2026-04-15T20:56:31.896Z","obsTime":1776286380,"reportTime":"2026-04-15T21:00:00.000Z","temp":27.2,"dewp":-3.3,"wdir":"VRB","wspd":3,"visib":"10+","altim":1014.6,"slp":1012.7,"qcField":4,"presTend":-1.8,"metarType":"METAR","rawOb":"METAR KSDL 152053Z VRB03KT 10SM CLR 27/M03 A2996 RMK AO2 SLP127 T02721033 58018","lat":33.6123,"lon":-111.9232,"elev":438,"name":"Scottsdale Muni, AZ, US","cover":"CLR","clouds":[],"fltCat":"VFR"},{"icaoId":"KSHR","receiptTime":"2026-04-15T20:56:31.988Z","obsTime":1776286380,"reportTime":"2026-04-15T21:00:00.000Z","temp":18.3,"dewp":-2.8,"wdir":90,"wspd":6,"visib":"10+","altim":1003.8,"slp":1003,"qcField":6,"presTend":-2.4,"metarType":"METAR","rawOb":"METAR KSHR 152053Z AUTO 09006KT 10SM CLR 18/M03 A2964 RMK AO2 SLP030 T01831028 56024","lat":44.7603,"lon":-106.9741,"elev":1212,"name":"Sheridan Cnty Arpt, WY, US","cover":"CLR","clouds":[],"fltCat":"VFR"},{"icaoId":"KSNA","receiptTime":"2026-04-15T20:56:32.071Z","obsTime":1776286380,"reportTime":"2026-04-15T21:00:00.000Z","temp":21.7,"dewp":11.7,"wdir":210,"wspd":8,"visib":"10+","altim":1016.7,"slp":1016.5,"qcField":12,"presTend":-1,"metarType":"METAR","rawOb":"METAR KSNA 152053Z 21008KT 190V250 10SM FEW020 SCT180 22/12 A3002 RMK AO2 SLP165 VIRGA OHD T02170117 58010 $","lat":33.6798,"lon":-117.8675,"elev":14,"name":"Santa Ana/Wayne Arpt, CA, US","cover":"SCT","clouds":[{"cover":"FEW","base":2000},{"cover":"SCT","base":18000}],"fltCat":"VFR"},{"icaoId":"KRDD","receiptTime":"2026-04-15T20:56:32.466Z","obsTime":1776286380,"reportTime":"2026-04-15T21:00:00.000Z","temp":17.2,"dewp":7.8,"wdir":180,"wspd":11,"visib":"10+","altim":1015.7,"slp":1015.1,"qcField":4,"presTend":-2.2,"metarType":"METAR","rawOb":"METAR KRDD 152053Z 18011KT 10SM BKN070 17/08 A2999 RMK AO2 SLP151 T01720078 58022","lat":40.5146,"lon":-122.2977,"elev":152,"name":"Redding Muni, CA, US","cover":"BKN","clouds":[{"cover":"BKN","base":7000}],"fltCat":"VFR"},{"icaoId":"KMCO","receiptTime":"2026-04-15T20:56:32.773Z","obsTime":1776286380,"reportTime":"2026-04-15T21:00:00.000Z","temp":27.8,"dewp":13.3,"wdir":110,"wspd":9,"wgst":16,"visib":"10+","altim":1020.4,"slp":1020,"qcField":4,"presTend":-1.5,"metarType":"METAR","rawOb":"METAR KMCO 152053Z 11009G16KT 10SM FEW040 28/13 A3013 RMK AO2 SLP200 T02780133 56015","lat":28.4182,"lon":-81.3241,"elev":27,"name":"Orlando Intl, FL, US","cover":"FEW","clouds":[{"cover":"FEW","base":4000}],"fltCat":"VFR"},{"icaoId":"KMLC","receiptTime":"2026-04-15T20:56:33.016Z","obsTime":1776286380,"reportTime":"2026-04-15T21:00:00.000Z","temp":24.4,"dewp":18.9,"wdir":200,"wspd":9,"wgst":25,"visib":"10+","altim":1012.3,"slp":1011.1,"qcField":6,"presTend":-0.3,"metarType":"METAR","rawOb":"METAR KMLC 152053Z AUTO 20009G25KT 10SM SCT028 BKN033 OVC055 24/19 A2989 RMK AO2 PK WND 19026/2016 SLP111 T02440189 58003","lat":34.8824,"lon":-95.7815,"elev":231,"name":"McAlester Rgnl, OK, US","cover":"OVC","clouds":[{"cover":"SCT","base":2800},{"cover":"BKN","base":3300},{"cover":"OVC","base":5500}],"fltCat":"VFR"},{"icaoId":"KMLS","receiptTime":"2026-04-15T20:56:33.058Z","obsTime":1776286380,"reportTime":"2026-04-15T21:00:00.000Z","temp":18.3,"dewp":1.1,"wdir":190,"wspd":12,"wgst":17,"visib":"10+","altim":1003.1,"slp":1002.9,"qcField":6,"presTend":-2.3,"metarType":"METAR","rawOb":"METAR KMLS 152053Z AUTO 19012G17KT 10SM SCT120 18/01 A2962 RMK AO2 SLP029 T01830011 58023","lat":46.4265,"lon":-105.8834,"elev":800,"name":"Miles City/Wiley Fld, MT, US","cover":"SCT","clouds":[{"cover":"SCT","base":12000}],"fltCat":"VFR"},{"icaoId":"KMSY","receiptTime":"2026-04-15T20:56:33.250Z","obsTime":1776286380,"reportTime":"2026-04-15T21:00:00.000Z","temp":27.8,"dewp":14.4,"wdir":180,"wspd":13,"visib":"10+","altim":1018.4,"slp":1018.4,"qcField":4,"presTend":-1.4,"metarType":"METAR","rawOb":"METAR KMSY 152053Z 18013KT 10SM FEW035 SCT075 BKN250 28/14 A3007 RMK AO2 SLP184 T02780144 56014","lat":29.9974,"lon":-90.2777,"elev":0,"name":"New Orleans/Armstrong Intl, LA, US","cover":"BKN","clouds":[{"cover":"FEW","base":3500},{"cover":"SCT","base":7500},{"cover":"BKN","base":25000}],"fltCat":"VFR"},{"icaoId":"KMTJ","receiptTime":"2026-04-15T20:56:33.280Z","obsTime":1776286380,"reportTime":"2026-04-15T21:00:00.000Z","temp":15,"dewp":-4.4,"wdir":40,"wspd":7,"visib":"10+","altim":1018,"slp":1014,"qcField":6,"presTend":-1.3,"metarType":"METAR","rawOb":"METAR KMTJ 152053Z AUTO 04007KT 10SM CLR 15/M04 A3006 RMK AO2 SLP140 T01501044 58013","lat":38.5054,"lon":-107.8981,"elev":1755,"name":"Montrose Rgnl, CO, US","cover":"CLR","clouds":[],"fltCat":"VFR"},{"icaoId":"KIAH","receiptTime":"2026-04-15T20:56:33.846Z","obsTime":1776286380,"reportTime":"2026-04-15T21:00:00.000Z","temp":27.8,"dewp":18.9,"wdir":180,"wspd":11,"wgst":19,"visib":"10+","altim":1014.6,"slp":1014.5,"qcField":4,"presTend":-0.8,"metarType":"METAR","rawOb":"METAR KIAH 152053Z 18011G19KT 10SM SCT039 BKN070 BKN250 28/19 A2996 RMK AO2 SLP145 T02780189 58008","lat":29.9844,"lon":-95.3607,"elev":27,"name":"Houston/Bush Intl, TX, US","cover":"BKN","clouds":[{"cover":"SCT","base":3900},{"cover":"BKN","base":7000},{"cover":"BKN","base":25000}],"fltCat":"VFR"},{"icaoId":"KIDA","receiptTime":"2026-04-15T20:56:33.895Z","obsTime":1776286380,"reportTime":"2026-04-15T21:00:00.000Z","temp":9.4,"dewp":1.7,"wdir":220,"wspd":21,"wgst":28,"visib":"10+","altim":1010.9,"slp":1009.9,"qcField":4,"wxString":"-RA","presTend":-0.7,"precip":0.005,"pcp3hr":0.005,"metarType":"METAR","rawOb":"METAR KIDA 152053Z 22021G28KT 10SM -RA SCT039 OVC049 09/02 A2985 RMK AO2 PK WND 23033/2028 RAB07 SLP099 P0000 60000 T00940017 55007","lat":43.5204,"lon":-112.0675,"elev":1444,"name":"Idaho Falls Rgnl, ID, US","cover":"OVC","clouds":[{"cover":"SCT","base":3900},{"cover":"OVC","base":4900}],"fltCat":"VFR"},{"icaoId":"KFUL","receiptTime":"2026-04-15T20:56:34.092Z","obsTime":1776286380,"reportTime":"2026-04-15T21:00:00.000Z","temp":23.3,"dewp":11.1,"wdir":230,"wspd":6,"visib":"10+","altim":1016,"slp":1015.8,"qcField":4,"presTend":-1.2,"metarType":"METAR","rawOb":"METAR KFUL 152053Z 23006KT 10SM CLR 23/11 A3000 RMK AO2 SLP158 T02330111 58012","lat":33.8715,"lon":-117.9856,"elev":23,"name":"Fullerton Muni, CA, US","cover":"CLR","clouds":[],"fltCat":"VFR"},{"icaoId":"KGJT","receiptTime":"2026-04-15T20:56:34.281Z","obsTime":1776286380,"reportTime":"2026-04-15T21:00:00.000Z","temp":15,"dewp":1.7,"wdir":0,"wspd":0,"visib":"10+","altim":1016.7,"slp":1013.6,"qcField":4,"presTend":-1.8,"metarType":"METAR","rawOb":"METAR KGJT 152053Z 00000KT 10SM FEW055 15/02 A3002 RMK AO2 SLP136 T01500017 56018","lat":39.1344,"lon":-108.5408,"elev":1475,"name":"Grand Junction Rgnl, CO, US","cover":"FEW","clouds":[{"cover":"FEW","base":5500}],"fltCat":"VFR"},{"icaoId":"KEVW","receiptTime":"2026-04-15T20:56:34.904Z","obsTime":1776286380,"reportTime":"2026-04-15T21:00:00.000Z","temp":11.7,"dewp":-6.1,"wdir":240,"wspd":22,"wgst":32,"visib":"10+","altim":1013.6,"slp":1010,"qcField":14,"presTend":-1.3,"metarType":"METAR","rawOb":"METAR KEVW 152053Z AUTO 24022G32KT 10SM SCT070 12/M06 A2993 RMK AO2 PK WND 23037/2037 SLP100 T01171061 56013 $","lat":41.2727,"lon":-111.0305,"elev":2178,"name":"Evanston/Uinta Cnty, WY, US","cover":"SCT","clouds":[{"cover":"SCT","base":7000}],"fltCat":"VFR"},{"icaoId":"KELY","receiptTime":"2026-04-15T20:56:35.572Z","obsTime":1776286380,"reportTime":"2026-04-15T21:00:00.000Z","temp":15.6,"dewp":-6.1,"wdir":210,"wspd":15,"wgst":27,"visib":"10+","altim":1015.3,"slp":1010.9,"qcField":14,"presTend":-1.3,"metarType":"METAR","rawOb":"METAR KELY 152053Z AUTO 21015G27KT 10SM FEW080 FEW110 16/M06 A2998 RMK AO2 PK WND 21030/2023 SLP109 T01561061 58013 $","lat":39.2954,"lon":-114.8466,"elev":1906,"name":"Ely/Yelland Fld, NV, US","cover":"FEW","clouds":[{"cover":"FEW","base":8000},{"cover":"FEW","base":11000}],"fltCat":"VFR"},{"icaoId":"KBLI","receiptTime":"2026-04-15T20:56:35.970Z","obsTime":1776286380,"reportTime":"2026-04-15T21:00:00.000Z","temp":9.4,"dewp":-1.1,"wdir":190,"wspd":7,"visib":"10+","altim":1009.6,"slp":1010.3,"qcField":4,"metarType":"METAR","rawOb":"METAR KBLI 152053Z 19007KT 10SM CLR 09/M01 A2981 RMK AO2 SLP103 T00941011 55000","lat":48.7991,"lon":-122.5407,"elev":46,"name":"Bellingham Intl, WA, US","cover":"CLR","clouds":[],"fltCat":"VFR"},{"icaoId":"KBUR","receiptTime":"2026-04-15T20:56:36.175Z","obsTime":1776286380,"reportTime":"2026-04-15T21:00:00.000Z","temp":22.2,"dewp":8.9,"wdir":150,"wspd":5,"visib":"10+","altim":1016.3,"slp":1015.2,"qcField":4,"presTend":-1.2,"metarType":"METAR","rawOb":"METAR KBUR 152053Z 15005KT 10SM CLR 22/09 A3001 RMK AO2 SLP152 T02220089 58012","lat":34.1996,"lon":-118.3654,"elev":221,"name":"Burbank/Bob Hope Arpt, CA, US","cover":"CLR","clouds":[],"fltCat":"VFR"},{"icaoId":"KBOI","receiptTime":"2026-04-15T20:56:36.937Z","obsTime":1776286380,"reportTime":"2026-04-15T21:00:00.000Z","temp":12.8,"dewp":6.1,"wdir":100,"wspd":16,"visib":"10+","altim":1007.9,"slp":1007.1,"qcField":4,"presTend":-3.1,"pcp3hr":0.01,"metarType":"METAR","rawOb":"METAR KBOI 152053Z 10016KT 10SM FEW050 BKN060 BKN080 13/06 A2976 RMK AO2 SLP071 60001 T01280061 58031","lat":43.567,"lon":-116.2406,"elev":860,"name":"Boise Arpt, ID, US","cover":"BKN","clouds":[{"cover":"FEW","base":5000},{"cover":"BKN","base":6000},{"cover":"BKN","base":8000}],"fltCat":"VFR"},{"icaoId":"KMCI","receiptTime":"2026-04-15T20:56:36.976Z","obsTime":1776286380,"reportTime":"2026-04-15T21:00:00.000Z","temp":27.8,"dewp":16.7,"wdir":220,"wspd":14,"wgst":22,"visib":"10+","altim":1005.2,"slp":1003.8,"qcField":4,"wxString":"TS","presTend":-0.9,"metarType":"METAR","rawOb":"METAR KMCI 152053Z 22014G22KT 10SM TS SCT048 BKN055CB BKN070 28/17 A2968 RMK AO2 PK WND 20028/1956 TSB44 SLP038 OCNL LTGICCCCG SE-S TS SE-S MOV NE T02780167 56009","lat":39.2975,"lon":-94.7309,"elev":308,"name":"Kansas City Intl, MO, US","cover":"BKN","clouds":[{"cover":"SCT","base":4800},{"cover":"BKN","base":5500},{"cover":"BKN","base":7000}],"fltCat":"VFR"},{"icaoId":"KMSP","receiptTime":"2026-04-15T20:56:37.030Z","obsTime":1776286380,"reportTime":"2026-04-15T21:00:00.000Z","temp":20,"dewp":4.4,"wdir":"VRB","wspd":3,"visib":"10+","altim":1006.5,"slp":1006.2,"qcField":4,"presTend":-1.5,"metarType":"METAR","rawOb":"METAR KMSP 152053Z VRB03KT 10SM FEW120 BKN250 20/04 A2972 RMK AO2 SLP062 T02000044 58015","lat":44.8852,"lon":-93.2313,"elev":255,"name":"Minneapolis-St Paul Intl, MN, US","cover":"BKN","clouds":[{"cover":"FEW","base":12000},{"cover":"BKN","base":25000}],"fltCat":"VFR"},{"icaoId":"KASE","receiptTime":"2026-04-15T20:56:37.476Z","obsTime":1776286380,"reportTime":"2026-04-15T21:00:00.000Z","temp":9.4,"dewp":-6.1,"wdir":350,"wspd":11,"wgst":18,"visib":"10+","altim":1017.7,"slp":1012,"qcField":4,"presTend":-1,"metarType":"METAR","rawOb":"METAR KASE 152053Z 35011G18KT 10SM SCT065 09/M06 A3005 RMK AO2 SLP120 T00941061 58010","lat":39.2299,"lon":-106.8705,"elev":2384,"name":"Aspen/Pitkin Cnty, CO, US","cover":"SCT","clouds":[{"cover":"SCT","base":6500}],"fltCat":"VFR"},{"icaoId":"KDTW","receiptTime":"2026-04-15T20:56:34.685Z","obsTime":1776286380,"reportTime":"2026-04-15T21:00:00.000Z","temp":20.6,"dewp":18.9,"wdir":70,"wspd":4,"visib":3,"altim":1008.5,"slp":1008.1,"qcField":12,"wxString":"-RA BR","presTend":-2.3,"precip":0.09,"pcp3hr":0.16,"metarType":"METAR","rawOb":"METAR KDTW 152053Z 07004KT 3SM -RA BR FEW010 SCT025 OVC095 21/19 A2978 RMK AO2 SFC VIS 6 PRESFR SLP081 P0009 60016 T02060189 58023 $","lat":42.2311,"lon":-83.3312,"elev":192,"name":"Detroit/Metro Wayne Cnty, MI, US","cover":"OVC","clouds":[{"cover":"FEW","base":1000},{"cover":"SCT","base":2500},{"cover":"OVC","base":9500}],"fltCat":"MVFR"},{"icaoId":"KMIA","receiptTime":"2026-04-15T20:56:32.915Z","obsTime":1776286380,"reportTime":"2026-04-15T21:00:00.000Z","temp":26.1,"dewp":14.4,"wdir":80,"wspd":8,"visib":"10+","altim":1019,"slp":1018.9,"qcField":1,"presTend":-1.3,"metarType":"METAR","rawOb":"METAR KMIA 152053Z COR 08008KT 10SM BKN047 26/14 A3009 RMK SLP189 T02610144 55013","lat":25.7881,"lon":-80.3169,"elev":1,"name":"Miami Intl, FL, US","cover":"BKN","clouds":[{"cover":"BKN","base":4700}],"fltCat":"VFR"},{"icaoId":"KMOD","receiptTime":"2026-04-15T20:56:33.152Z","obsTime":1776286380,"reportTime":"2026-04-15T21:00:00.000Z","temp":21.7,"dewp":6.1,"visib":"10+","altim":1017.4,"slp":1017.3,"qcField":4,"presTend":-1.5,"metarType":"METAR","rawOb":"METAR KMOD 152053Z 10SM CLR 22/06 A3004 RMK AO2 SLP173 T02170061 58015","lat":37.6254,"lon":-120.9549,"elev":25,"name":"Modesto/Sham Fld, CA, US","cover":"CLR","clouds":[],"fltCat":"VFR"},{"icaoId":"KPNC","receiptTime":"2026-04-15T20:56:32.208Z","obsTime":1776286380,"reportTime":"2026-04-15T21:00:00.000Z","temp":28.9,"dewp":12.8,"wdir":250,"wspd":8,"wgst":18,"visib":"10+","altim":1007.9,"slp":1006.4,"qcField":6,"presTend":-0.9,"metarType":"METAR","rawOb":"METAR KPNC 152053Z AUTO 25008G18KT 10SM CLR 29/13 A2976 RMK AO2 SLP064 T02890128 58009","lat":36.7369,"lon":-97.1024,"elev":304,"name":"Ponca City Rgnl, OK, US","cover":"CLR","clouds":[],"fltCat":"VFR"},{"icaoId":"KPRC","receiptTime":"2026-04-15T20:56:32.269Z","obsTime":1776286380,"reportTime":"2026-04-15T21:00:00.000Z","temp":19.4,"dewp":-3.9,"wdir":"VRB","wspd":3,"visib":"10+","altim":1018.4,"slp":1013.2,"qcField":4,"presTend":-1.7,"metarType":"METAR","rawOb":"METAR KPRC 152053Z VRB03KT 10SM CLR 19/M04 A3007 RMK AO2 SLP132 T01941039 58017","lat":34.6491,"lon":-112.4223,"elev":1528,"name":"Prescott/Love Fld, AZ, US","cover":"CLR","clouds":[],"fltCat":"VFR"},{"icaoId":"KPSC","receiptTime":"2026-04-15T20:56:32.282Z","obsTime":1776286380,"reportTime":"2026-04-15T21:00:00.000Z","temp":14.4,"dewp":-2.8,"wdir":270,"wspd":8,"wgst":21,"visib":"10+","altim":1006.2,"slp":1005.9,"qcField":4,"presTend":0.2,"metarType":"METAR","rawOb":"METAR KPSC 152053Z 27008G21KT 10SM BKN075 BKN090 14/M03 A2971 RMK AO2 PK WND 26031/2018 SLP059 T01441028 51002","lat":46.2695,"lon":-119.1182,"elev":121,"name":"Pasco/Tri Cities Arpt, WA, US","cover":"BKN","clouds":[{"cover":"BKN","base":7500},{"cover":"BKN","base":9000}],"fltCat":"VFR"},{"icaoId":"KPSP","receiptTime":"2026-04-15T20:56:32.294Z","obsTime":1776286380,"reportTime":"2026-04-15T21:00:00.000Z","temp":29.4,"dewp":0,"wdir":130,"wspd":4,"visib":"10+","altim":1013.6,"slp":1013.3,"qcField":12,"presTend":-1.8,"metarType":"METAR","rawOb":"METAR KPSP 152053Z 13004KT 10SM CLR 29/00 A2993 RMK AO2 SLP133 T02940000 58018 $","lat":33.8222,"lon":-116.5043,"elev":123,"name":"Palm Springs Intl, CA, US","cover":"CLR","clouds":[],"fltCat":"VFR"},{"icaoId":"KLBB","receiptTime":"2026-04-15T20:56:27.056Z","obsTime":1776286380,"reportTime":"2026-04-15T21:00:00.000Z","temp":27.8,"dewp":-7.8,"wdir":260,"wspd":22,"wgst":30,"visib":"10+","altim":1013,"slp":1008.3,"qcField":4,"presTend":-1.5,"metarType":"METAR","rawOb":"METAR KLBB 152053Z 26022G30KT 10SM FEW120 FEW250 28/M08 A2991 RMK AO2 PK WND 25034/2013 SLP083 T02781078 56015","lat":33.6658,"lon":-101.8233,"elev":996,"name":"Lubbock Intl Arpt, TX, US","cover":"FEW","clouds":[{"cover":"FEW","base":12000},{"cover":"FEW","base":25000}],"fltCat":"VFR"},{"icaoId":"KHLN","receiptTime":"2026-04-15T20:56:33.606Z","obsTime":1776286380,"reportTime":"2026-04-15T21:00:00.000Z","temp":13.9,"dewp":0.6,"wdir":"VRB","wspd":3,"visib":"10+","altim":1000.1,"slp":1000.8,"qcField":4,"presTend":-2.4,"metarType":"METAR","rawOb":"METAR KHLN 152053Z VRB03KT 10SM OVC080 14/01 A2953 RMK AO2 SLP008 T01390006 56024","lat":46.6045,"lon":-111.9892,"elev":1178,"name":"Helena Rgnl, MT, US","cover":"OVC","clouds":[{"cover":"OVC","base":8000}],"fltCat":"VFR"},{"icaoId":"KHOU","receiptTime":"2026-04-15T20:56:33.638Z","obsTime":1776286380,"reportTime":"2026-04-15T21:00:00.000Z","temp":27.8,"dewp":18.9,"wdir":170,"wspd":16,"wgst":24,"visib":"10+","altim":1015,"slp":1015.2,"qcField":4,"presTend":-0.8,"metarType":"METAR","rawOb":"METAR KHOU 152053Z 17016G24KT 10SM BKN035 BKN060 BKN250 28/19 A2997 RMK AO2 SLP152 T02780189 56008","lat":29.6458,"lon":-95.2821,"elev":13,"name":"Houston/Hobby Arpt, TX, US","cover":"BKN","clouds":[{"cover":"BKN","base":3500},{"cover":"BKN","base":6000},{"cover":"BKN","base":25000}],"fltCat":"VFR"},{"icaoId":"KGTF","receiptTime":"2026-04-15T20:56:34.509Z","obsTime":1776286380,"reportTime":"2026-04-15T21:00:00.000Z","temp":16.1,"dewp":-1.7,"wdir":230,"wspd":19,"wgst":28,"visib":"10+","altim":999.4,"slp":998.6,"qcField":4,"presTend":-2.5,"metarType":"METAR","rawOb":"METAR KGTF 152053Z 23019G28KT 10SM FEW095 16/M02 A2951 RMK AO2 PK WND 23030/2021 SLP986 T01611017 56025","lat":47.4733,"lon":-111.3828,"elev":1117,"name":"Great Falls Intl, MT, US","cover":"FEW","clouds":[{"cover":"FEW","base":9500}],"fltCat":"VFR"},{"icaoId":"KHIO","receiptTime":"2026-04-15T20:56:33.498Z","obsTime":1776286380,"reportTime":"2026-04-15T21:00:00.000Z","temp":8.3,"dewp":3.9,"wdir":290,"wspd":10,"wgst":21,"visib":"10+","altim":1014,"slp":1013.8,"qcField":4,"wxString":"-RA","presTend":0.4,"precip":0.005,"pcp3hr":0.04,"metarType":"METAR","rawOb":"METAR KHIO 152053Z 29010G21KT 10SM -RA SCT029 BKN033 BKN041 08/04 A2994 RMK AO2 PK WND 32026/2036 WSHFT 2026 RAB06E18B50 SLP138 P0000 60004 T00830039 52004","lat":45.5476,"lon":-122.9557,"elev":62,"name":"Portland/Hillsboro Arpt, OR, US","cover":"BKN","clouds":[{"cover":"SCT","base":2900},{"cover":"BKN","base":3300},{"cover":"BKN","base":4100}],"fltCat":"VFR"},{"icaoId":"KPUB","receiptTime":"2026-04-15T20:56:32.328Z","obsTime":1776286380,"reportTime":"2026-04-15T21:00:00.000Z","temp":22.2,"dewp":-13.9,"wdir":190,"wspd":8,"wgst":17,"visib":"10+","altim":1010.6,"slp":1007.1,"qcField":12,"presTend":-1.8,"metarType":"METAR","rawOb":"METAR KPUB 152053Z 19008G17KT 10SM CLR 22/M14 A2984 RMK AO2 SLP071 T02221139 56018 $","lat":38.2887,"lon":-104.5057,"elev":1441,"name":"Pueblo Mem Arpt, CO, US","cover":"CLR","clouds":[],"fltCat":"VFR"},{"icaoId":"KSAF","receiptTime":"2026-04-15T20:56:32.664Z","obsTime":1776286380,"reportTime":"2026-04-15T21:00:00.000Z","temp":15,"dewp":-6.7,"wdir":"VRB","wspd":3,"visib":"10+","altim":1017.4,"slp":1012.3,"qcField":4,"presTend":-1.3,"metarType":"METAR","rawOb":"METAR KSAF 152053Z VRB03KT 10SM SCT090 15/M07 A3004 RMK AO2 SLP123 T01501067 57013","lat":35.611,"lon":-106.0957,"elev":1918,"name":"Santa Fe Cnty Muni, NM, US","cover":"SCT","clouds":[{"cover":"SCT","base":9000}],"fltCat":"VFR"},{"icaoId":"KOAK","receiptTime":"2026-04-15T20:56:25.024Z","obsTime":1776286380,"reportTime":"2026-04-15T21:00:00.000Z","temp":16.7,"dewp":9.4,"wdir":230,"wspd":13,"visib":"10+","altim":1020.1,"slp":1019.8,"qcField":12,"presTend":-0.6,"metarType":"METAR","rawOb":"METAR KOAK 152053Z 23013KT 10SM FEW028 BKN200 BKN250 17/09 A3012 RMK AO2 SLP198 T01670094 58006 $","lat":37.7178,"lon":-122.233,"elev":3,"name":"Oakland Intl, CA, US","cover":"BKN","clouds":[{"cover":"FEW","base":2800},{"cover":"BKN","base":20000},{"cover":"BKN","base":25000}],"fltCat":"VFR"},{"icaoId":"KBRO","receiptTime":"2026-04-15T20:56:37.015Z","obsTime":1776286380,"reportTime":"2026-04-15T21:00:00.000Z","temp":30.6,"dewp":19.4,"wdir":150,"wspd":18,"wgst":28,"visib":"10+","altim":1013,"slp":1012.6,"qcField":4,"presTend":-1.4,"metarType":"METAR","rawOb":"METAR KBRO 152053Z 15018G28KT 10SM SCT037 SCT044 31/19 A2991 RMK AO2 PK WND 14031/2039 SLP126 T03060194 58014","lat":25.9146,"lon":-97.4231,"elev":6,"name":"Brownsville Intl, TX, US","cover":"SCT","clouds":[{"cover":"SCT","base":3700},{"cover":"SCT","base":4400}],"fltCat":"VFR"},{"icaoId":"KAMA","receiptTime":"2026-04-15T20:56:37.283Z","obsTime":1776286380,"reportTime":"2026-04-15T21:00:00.000Z","temp":25.6,"dewp":-10,"wdir":260,"wspd":15,"wgst":27,"visib":"10+","altim":1012.6,"slp":1007.8,"qcField":4,"presTend":-1.3,"metarType":"METAR","rawOb":"METAR KAMA 152053Z 26015G27KT 10SM CLR 26/M10 A2990 RMK AO2 PK WND 29030/2037 SLP078 T02561100 58013","lat":35.2203,"lon":-101.7173,"elev":1102,"name":"Amarillo Intl Arpt, TX, US","cover":"CLR","clouds":[],"fltCat":"VFR"},{"icaoId":"KRIW","receiptTime":"2026-04-15T20:56:31.088Z","obsTime":1776286380,"reportTime":"2026-04-15T21:00:00.000Z","temp":15.6,"dewp":-5.6,"wdir":230,"wspd":14,"wgst":26,"visib":"10+","altim":1007.9,"slp":1004.7,"qcField":6,"presTend":-2,"metarType":"METAR","rawOb":"METAR KRIW 152053Z AUTO 23014G26KT 10SM CLR 16/M06 A2976 RMK AO2 PK WND 19026/2025 SLP047 T01561056 56020","lat":43.0622,"lon":-108.4471,"elev":1662,"name":"Riverton Rgnl, WY, US","cover":"CLR","clouds":[],"fltCat":"VFR"},{"icaoId":"KRTN","receiptTime":"2026-04-15T20:56:32.563Z","obsTime":1776286380,"reportTime":"2026-04-15T21:00:00.000Z","temp":15.6,"dewp":-10,"wdir":"VRB","wspd":3,"visib":"10+","altim":1014.3,"slp":1009.7,"qcField":6,"presTend":-1,"metarType":"METAR","rawOb":"METAR KRTN 152053Z AUTO VRB03KT 10SM FEW110 16/M10 A2995 RMK AO2 SLP097 T01561100 56010","lat":36.7418,"lon":-104.5076,"elev":1939,"name":"Raton/Crews Fld, NM, US","cover":"FEW","clouds":[{"cover":"FEW","base":11000}],"fltCat":"VFR"},{"icaoId":"KTPA","receiptTime":"2026-04-15T20:56:31.709Z","obsTime":1776286380,"reportTime":"2026-04-15T21:00:00.000Z","temp":27.2,"dewp":12.8,"wdir":280,"wspd":9,"visib":"10+","altim":1019,"slp":1018.8,"qcField":4,"presTend":-2.2,"metarType":"METAR","rawOb":"METAR KTPA 152053Z 28009KT 10SM FEW055 27/13 A3009 RMK AO2 SLP188 T02720128 56022","lat":27.9633,"lon":-82.54,"elev":2,"name":"Tampa Intl Arpt, FL, US","cover":"FEW","clouds":[{"cover":"FEW","base":5500}],"fltCat":"VFR"},{"icaoId":"KLVS","receiptTime":"2026-04-15T20:56:27.184Z","obsTime":1776286380,"reportTime":"2026-04-15T21:00:00.000Z","temp":16.1,"dewp":-9.4,"wdir":"VRB","wspd":6,"visib":"10+","altim":1015.7,"slp":1009,"qcField":14,"presTend":-1.4,"metarType":"METAR","rawOb":"METAR KLVS 152053Z AUTO VRB06KT 10SM CLR 16/M09 A2999 RMK AO2 SLP090 6//// T01611094 58014 PNO $","lat":35.6558,"lon":-105.1385,"elev":2095,"name":"Las Vegas Muni, NM, US","cover":"CLR","clouds":[],"fltCat":"VFR"},{"icaoId":"KMFE","receiptTime":"2026-04-15T20:56:32.821Z","obsTime":1776286380,"reportTime":"2026-04-15T21:00:00.000Z","temp":30.6,"dewp":20,"wdir":160,"wspd":14,"wgst":23,"visib":"10+","altim":1011.9,"slp":1011.5,"qcField":4,"presTend":-1.5,"metarType":"METAR","rawOb":"METAR KMFE 152053Z 16014G23KT 10SM OVC065 31/20 A2988 RMK AO2 PK WND 15026/2031 SLP115 T03060200 56015","lat":26.1791,"lon":-98.2445,"elev":29,"name":"McAllen/Miller Intl, TX, US","cover":"OVC","clouds":[{"cover":"OVC","base":6500}],"fltCat":"VFR"},{"icaoId":"KVEL","receiptTime":"2026-04-15T20:56:30.517Z","obsTime":1776286380,"reportTime":"2026-04-15T21:00:00.000Z","temp":16.1,"dewp":-2.2,"wdir":260,"wspd":8,"wgst":20,"visib":"10+","altim":1014,"slp":1011.5,"qcField":6,"presTend":-2.6,"metarType":"METAR","rawOb":"METAR KVEL 152053Z AUTO 26008G20KT 220V290 10SM FEW070 16/M02 A2994 RMK AO2 SLP115 T01611022 56026","lat":40.4429,"lon":-109.5128,"elev":1604,"name":"Vernal Rgnl, UT, US","cover":"FEW","clouds":[{"cover":"FEW","base":7000}],"fltCat":"VFR"},{"icaoId":"KVGT","receiptTime":"2026-04-15T20:56:30.540Z","obsTime":1776286380,"reportTime":"2026-04-15T21:00:00.000Z","temp":26.1,"dewp":-7.8,"wdir":160,"wspd":15,"wgst":23,"visib":"10+","altim":1013.6,"slp":1013.7,"qcField":4,"presTend":-2.5,"metarType":"METAR","rawOb":"METAR KVGT 152053Z 16015G23KT 10SM CLR 26/M08 A2993 RMK AO2 SLP137 T02611078 58025","lat":36.212,"lon":-115.194,"elev":664,"name":"Las Vegas/North Arpt, NV, US","cover":"CLR","clouds":[],"fltCat":"VFR"},{"icaoId":"KTUL","receiptTime":"2026-04-15T20:56:31.772Z","obsTime":1776286380,"reportTime":"2026-04-15T21:00:00.000Z","temp":25.6,"dewp":20,"wdir":180,"wspd":17,"wgst":25,"visib":"10+","altim":1008.9,"slp":1007.9,"qcField":4,"presTend":-1.1,"metarType":"METAR","rawOb":"METAR KTUL 152053Z 18017G25KT 10SM SCT023 BKN250 26/20 A2979 RMK AO2 PK WND 18034/2034 TSB12E31 SLP079 CB DSNT NW-N MOV NE TS MOV NE T02560200 55011","lat":36.1985,"lon":-95.8782,"elev":196,"name":"Tulsa Intl Arpt, OK, US","cover":"BKN","clouds":[{"cover":"SCT","base":2300},{"cover":"BKN","base":25000}],"fltCat":"VFR"},{"icaoId":"KSJC","receiptTime":"2026-04-15T20:56:32.015Z","obsTime":1776286380,"reportTime":"2026-04-15T21:00:00.000Z","temp":18.9,"dewp":8.9,"wdir":310,"wspd":8,"visib":"10+","altim":1019,"slp":1018.8,"qcField":12,"presTend":-1.4,"metarType":"METAR","rawOb":"METAR KSJC 152053Z 31008KT 280V340 10SM SCT065 BKN100 19/09 A3009 RMK AO2 SLP188 T01890089 58014 $","lat":37.3594,"lon":-121.9244,"elev":13,"name":"San Jose Intl Arpt, CA, US","cover":"BKN","clouds":[{"cover":"SCT","base":6500},{"cover":"BKN","base":10000}],"fltCat":"VFR"},{"icaoId":"KSMF","receiptTime":"2026-04-15T20:56:32.039Z","obsTime":1776286380,"reportTime":"2026-04-15T21:00:00.000Z","temp":19.4,"dewp":5.6,"wdir":190,"wspd":16,"visib":"10+","altim":1017,"slp":1017,"qcField":4,"presTend":-1.3,"metarType":"METAR","rawOb":"METAR KSMF 152053Z 19016KT 10SM BKN140 19/06 A3003 RMK AO2 SLP170 T01940056 58013","lat":38.7007,"lon":-121.5948,"elev":7,"name":"Sacramento Intl, CA, US","cover":"BKN","clouds":[{"cover":"BKN","base":14000}],"fltCat":"VFR"},{"icaoId":"KLAR","receiptTime":"2026-04-15T20:56:26.317Z","obsTime":1776286380,"reportTime":"2026-04-15T21:00:00.000Z","temp":12.8,"dewp":-4.4,"wdir":260,"wspd":21,"wgst":30,"visib":"10+","altim":1013,"slp":1007.8,"qcField":6,"presTend":-0.8,"metarType":"METAR","rawOb":"METAR KLAR 152053Z AUTO 26021G30KT 10SM CLR 13/M04 A2991 RMK AO2 PK WND 27032/2036 SLP078 T01281044 56008","lat":41.3165,"lon":-105.6729,"elev":2217,"name":"Laramie Rgnl, WY, US","cover":"CLR","clouds":[],"fltCat":"VFR"},{"icaoId":"KMYF","receiptTime":"2026-04-15T20:56:20.275Z","obsTime":1776286380,"reportTime":"2026-04-15T21:00:00.000Z","temp":20.6,"dewp":12.2,"wdir":260,"wspd":10,"wgst":18,"visib":"10+","altim":1016.7,"slp":1016.3,"qcField":4,"presTend":-1.3,"metarType":"METAR","rawOb":"METAR KMYF 152053Z 26010G18KT 10SM CLR 21/12 A3002 RMK AO2 SLP163 T02060122 57013","lat":32.8145,"lon":-117.1375,"elev":128,"name":"San Diego/Montgomery Arpt, CA, US","cover":"CLR","clouds":[],"fltCat":"VFR"},{"icaoId":"KOGD","receiptTime":"2026-04-15T20:56:25.038Z","obsTime":1776286380,"reportTime":"2026-04-15T21:00:00.000Z","temp":16.7,"dewp":-3.9,"wdir":220,"wspd":13,"wgst":20,"visib":"10+","altim":1012.3,"slp":1009.3,"qcField":4,"presTend":-1.2,"metarType":"METAR","rawOb":"METAR KOGD 152053Z 22013G20KT 10SM OVC095 17/M04 A2989 RMK AO2 SLP093 T01671039 55012","lat":41.1941,"lon":-112.0168,"elev":1356,"name":"Ogden/Hinckley Arpt, UT, US","cover":"OVC","clouds":[{"cover":"OVC","base":9500}],"fltCat":"VFR"},{"icaoId":"KDRO","receiptTime":"2026-04-15T20:56:34.639Z","obsTime":1776286380,"reportTime":"2026-04-15T21:00:00.000Z","temp":14.4,"dewp":-6.1,"wdir":250,"wspd":12,"wgst":21,"visib":"10+","altim":1018.4,"slp":1016.3,"qcField":6,"presTend":-1.2,"metarType":"METAR","rawOb":"METAR KDRO 152053Z AUTO 25012G21KT 10SM CLR 14/M06 A3007 RMK AO2 SLP163 T01441061 56012","lat":37.1431,"lon":-107.7602,"elev":2021,"name":"Durango/La Plata Cnty, CO, US","cover":"CLR","clouds":[],"fltCat":"VFR"},{"icaoId":"KDVT","receiptTime":"2026-04-15T20:56:34.718Z","obsTime":1776286380,"reportTime":"2026-04-15T21:00:00.000Z","temp":27.2,"dewp":-2.2,"wdir":0,"wspd":0,"visib":"10+","altim":1014.6,"slp":1012.8,"qcField":4,"presTend":-1.8,"metarType":"METAR","rawOb":"METAR KDVT 152053Z 00000KT 10SM CLR 27/M02 A2996 RMK AO2 SLP128 T02721022 58018","lat":33.6902,"lon":-112.0662,"elev":454,"name":"Phoenix/Deer Valley Arpt, AZ, US","cover":"CLR","clouds":[],"fltCat":"VFR"},{"icaoId":"KBTM","receiptTime":"2026-04-15T20:56:36.158Z","obsTime":1776286380,"reportTime":"2026-04-15T21:00:00.000Z","temp":12.2,"dewp":-2.8,"wdir":220,"wspd":17,"wgst":29,"visib":"10+","altim":1002.5,"slp":999.7,"qcField":6,"presTend":-2.2,"metarType":"METAR","rawOb":"METAR KBTM 152053Z AUTO 22017G29KT 10SM CLR 12/M03 A2960 RMK AO2 PK WND 23029/2053 SLP997 T01221028 58022","lat":45.9644,"lon":-112.5015,"elev":1680,"name":"Butte/Mooney Arpt, MT, US","cover":"CLR","clouds":[],"fltCat":"VFR"},{"icaoId":"KDAL","receiptTime":"2026-04-15T20:56:20.932Z","obsTime":1776286380,"reportTime":"2026-04-15T21:00:00.000Z","temp":26.1,"dewp":18.9,"wdir":180,"wspd":11,"wgst":19,"visib":"10+","altim":1013,"slp":1012.1,"qcField":4,"presTend":-0.9,"metarType":"METAR","rawOb":"METAR KDAL 152053Z 18011G19KT 10SM BKN036 OVC065 26/19 A2991 RMK AO2 SLP121 MDT CU SW-NW T02610189 58009","lat":32.8384,"lon":-96.8358,"elev":148,"name":"Dallas/Love Fld, TX, US","cover":"OVC","clouds":[{"cover":"BKN","base":3600},{"cover":"OVC","base":6500}],"fltCat":"VFR"},{"icaoId":"KCPR","receiptTime":"2026-04-15T20:56:22.276Z","obsTime":1776286380,"reportTime":"2026-04-15T21:00:00.000Z","temp":17.2,"dewp":-5.6,"wdir":240,"wspd":21,"wgst":32,"visib":"10+","altim":1007.9,"slp":1004.8,"qcField":4,"presTend":-1.6,"pcp3hr":0.005,"metarType":"METAR","rawOb":"METAR KCPR 152053Z 24021G32KT 10SM CLR 17/M06 A2976 RMK AO2 PK WND 24040/2020 SLP048 60000 T01721056 56016","lat":42.8978,"lon":-106.4736,"elev":1623,"name":"Casper/Natrona Cnty, WY, US","cover":"CLR","clouds":[],"fltCat":"VFR"},{"icaoId":"KONT","receiptTime":"2026-04-15T20:56:25.081Z","obsTime":1776286380,"reportTime":"2026-04-15T21:00:00.000Z","temp":24.4,"dewp":7.2,"wdir":240,"wspd":7,"wgst":18,"visib":"10+","altim":1016,"slp":1014.8,"qcField":12,"presTend":-1.7,"metarType":"METAR","rawOb":"METAR KONT 152053Z 24007G18KT 220V290 10SM FEW100 FEW250 24/07 A3000 RMK AO2 SLP148 T02440072 56017 $","lat":34.0531,"lon":-117.5769,"elev":279,"name":"Ontario Intl, CA, US","cover":"FEW","clouds":[{"cover":"FEW","base":10000},{"cover":"FEW","base":25000}],"fltCat":"VFR"},{"icaoId":"KFMN","receiptTime":"2026-04-15T20:56:21.074Z","obsTime":1776286380,"reportTime":"2026-04-15T21:00:00.000Z","temp":16.7,"dewp":-9.4,"wdir":300,"wspd":8,"wgst":15,"visib":"10+","altim":1018,"slp":1015.9,"qcField":4,"presTend":-1.3,"metarType":"METAR","rawOb":"METAR KFMN 152053Z 30008G15KT 10SM CLR 17/M09 A3006 RMK AO2 SLP159 T01671094 57013","lat":36.7435,"lon":-108.2293,"elev":1677,"name":"Farmington/Four Corners Rgnl, NM, US","cover":"CLR","clouds":[],"fltCat":"VFR"},{"icaoId":"KLGB","receiptTime":"2026-04-15T20:56:25.362Z","obsTime":1776286380,"reportTime":"2026-04-15T21:00:00.000Z","temp":21.7,"dewp":12.2,"wdir":190,"wspd":9,"visib":"10+","altim":1016.3,"slp":1016.2,"qcField":4,"presTend":-1.1,"metarType":"METAR","rawOb":"METAR KLGB 152053Z 19009KT 10SM CLR 22/12 A3001 RMK AO2 SLP162 T02170122 58011","lat":33.8118,"lon":-118.1472,"elev":10,"name":"Long Beach Arpt, CA, US","cover":"CLR","clouds":[],"fltCat":"VFR"},{"icaoId":"KLOL","receiptTime":"2026-04-15T20:56:21.726Z","obsTime":1776286380,"reportTime":"2026-04-15T21:00:00.000Z","temp":19.4,"dewp":-8.9,"wdir":220,"wspd":16,"wgst":22,"visib":"10+","altim":1013.3,"slp":1011.4,"qcField":6,"presTend":-2,"metarType":"METAR","rawOb":"METAR KLOL 152053Z AUTO 22016G22KT 10SM CLR 19/M09 A2992 RMK AO2 SLP114 T01941089 58020","lat":40.0684,"lon":-118.5702,"elev":1191,"name":"Lovelock/Derby Fld, NV, US","cover":"CLR","clouds":[],"fltCat":"VFR"},{"icaoId":"KMAF","receiptTime":"2026-04-15T20:56:27.197Z","obsTime":1776286380,"reportTime":"2026-04-15T21:00:00.000Z","temp":28.3,"dewp":-2.8,"wdir":290,"wspd":10,"visib":"10+","altim":1013.3,"slp":1009,"qcField":4,"presTend":-1.4,"metarType":"METAR","rawOb":"METAR KMAF 152053Z 29010KT 10SM CLR 28/M03 A2992 RMK AO2 PK WND 27026/2042 SLP090 T02831028 56014","lat":31.9475,"lon":-102.2086,"elev":874,"name":"Midland Intl, TX, US","cover":"CLR","clouds":[],"fltCat":"VFR"},{"icaoId":"KSBA","receiptTime":"2026-04-15T20:56:32.678Z","obsTime":1776286380,"reportTime":"2026-04-15T21:00:00.000Z","temp":18.9,"dewp":11.7,"wdir":230,"wspd":7,"visib":"10+","altim":1017,"slp":1017,"qcField":12,"presTend":-0.5,"metarType":"METAR","rawOb":"METAR KSBA 152053Z 23007KT 10SM CLR 19/12 A3003 RMK AO2 SLP170 T01890117 55005 $","lat":34.4241,"lon":-119.8425,"elev":2,"name":"Santa Barbara Muni, CA, US","cover":"CLR","clouds":[],"fltCat":"VFR"},{"icaoId":"KPAE","receiptTime":"2026-04-15T20:56:25.099Z","obsTime":1776286380,"reportTime":"2026-04-15T21:00:00.000Z","temp":4.4,"dewp":2.2,"wdir":340,"wspd":6,"visib":"10+","altim":1011.3,"slp":1011.4,"qcField":4,"wxString":"-RA","presTend":0.8,"precip":0.03,"pcp3hr":0.03,"metarType":"METAR","rawOb":"METAR KPAE 152053Z 34006KT 10SM -RA BKN008 OVC047 04/02 A2986 RMK AO2 LTG DSNT SW SLP114 P0003 60003 T00440022 52008","lat":47.9232,"lon":-122.2831,"elev":166,"name":"Everett/Paine Fld, WA, US","cover":"OVC","clouds":[{"cover":"BKN","base":800},{"cover":"OVC","base":4700}],"fltCat":"IFR"},{"icaoId":"KLAX","receiptTime":"2026-04-15T20:56:25.346Z","obsTime":1776286380,"reportTime":"2026-04-15T21:00:00.000Z","temp":20,"dewp":12.2,"wdir":240,"wspd":11,"visib":"10+","altim":1017,"slp":1016.7,"qcField":4,"presTend":-0.9,"metarType":"METAR","rawOb":"METAR KLAX 152053Z 24011KT 10SM FEW010 FEW050 SCT080 BKN250 20/12 A3003 RMK AO2 SLP167 T02000122 58009","lat":33.9382,"lon":-118.3866,"elev":30,"name":"Los Angeles Intl, CA, US","cover":"BKN","clouds":[{"cover":"FEW","base":1000},{"cover":"FEW","base":5000},{"cover":"SCT","base":8000},{"cover":"BKN","base":25000}],"fltCat":"VFR"},{"icaoId":"KCDC","receiptTime":"2026-04-15T20:56:25.557Z","obsTime":1776286380,"reportTime":"2026-04-15T21:00:00.000Z","temp":16.7,"dewp":-2.8,"wdir":190,"wspd":14,"wgst":25,"visib":"10+","altim":1017.4,"slp":1013.9,"qcField":6,"presTend":-1.1,"metarType":"METAR","rawOb":"METAR KCDC 152053Z AUTO 19014G25KT 10SM CLR 17/M03 A3004 RMK AO2 SLP139 T01671028 58011","lat":37.7067,"lon":-113.097,"elev":1703,"name":"Cedar City Muni, UT, US","cover":"CLR","clouds":[],"fltCat":"VFR"},{"icaoId":"KPBI","receiptTime":"2026-04-15T20:56:25.891Z","obsTime":1776286380,"reportTime":"2026-04-15T21:00:00.000Z","temp":25,"dewp":13.9,"wdir":100,"wspd":8,"visib":"10+","altim":1020.1,"slp":1019.8,"qcField":12,"presTend":-1.4,"metarType":"METAR","rawOb":"METAR KPBI 152053Z 10008KT 10SM BKN044 25/14 A3012 RMK AO2 SLP198 T02500139 56014 $","lat":26.6851,"lon":-80.0992,"elev":4,"name":"Palm Beach Intl, FL, US","cover":"BKN","clouds":[{"cover":"BKN","base":4400}],"fltCat":"VFR"},{"icaoId":"KMYR","receiptTime":"2026-04-15T20:56:29.183Z","obsTime":1776286380,"reportTime":"2026-04-15T21:00:00.000Z","temp":22.2,"dewp":17.8,"wdir":190,"wspd":15,"visib":"10+","altim":1019.4,"slp":1019.2,"qcField":12,"presTend":-1.2,"metarType":"METAR","rawOb":"METAR KMYR 152053Z 19015KT 10SM CLR 22/18 A3010 RMK AO2 SLP192 T02220178 56012 $","lat":33.6769,"lon":-78.9325,"elev":7,"name":"Myrtle Beach Intl, SC, US","cover":"CLR","clouds":[],"fltCat":"VFR"},{"icaoId":"KPIH","receiptTime":"2026-04-15T20:56:36.954Z","obsTime":1776286380,"reportTime":"2026-04-15T21:00:00.000Z","temp":11.7,"dewp":1.7,"wdir":280,"wspd":16,"visib":"10+","altim":1010.6,"slp":1008.8,"qcField":4,"presTend":-0.8,"metarType":"METAR","rawOb":"METAR KPIH 152053Z 28016KT 10SM BKN065 OVC080 12/02 A2984 RMK AO2 SLP088 T01170017 56008","lat":42.9197,"lon":-112.5723,"elev":1357,"name":"Pocatello Rgnl, ID, US","cover":"OVC","clouds":[{"cover":"BKN","base":6500},{"cover":"OVC","base":8000}],"fltCat":"VFR"},{"icaoId":"KBNA","receiptTime":"2026-04-15T20:56:36.016Z","obsTime":1776286380,"reportTime":"2026-04-15T21:00:00.000Z","temp":29.4,"dewp":6.7,"wdir":220,"wspd":10,"visib":"10+","altim":1016,"slp":1015.4,"qcField":4,"presTend":-1.9,"metarType":"METAR","rawOb":"METAR KBNA 152053Z 22010KT 10SM FEW090 BKN250 29/07 A3000 RMK AO2 SLP154 T02940067 56019","lat":36.1105,"lon":-86.6881,"elev":168,"name":"Nashville Intl, TN, US","cover":"BKN","clouds":[{"cover":"FEW","base":9000},{"cover":"BKN","base":25000}],"fltCat":"VFR"},{"icaoId":"KAPA","receiptTime":"2026-04-15T20:56:37.391Z","obsTime":1776286380,"reportTime":"2026-04-15T21:00:00.000Z","temp":17.2,"dewp":-11.1,"wdir":90,"wspd":4,"wgst":17,"visib":"10+","altim":1011.9,"slp":1008.7,"qcField":4,"presTend":-1,"metarType":"METAR","rawOb":"METAR KAPA 152053Z 09004G17KT 10SM FEW100 FEW140 FEW220 17/M11 A2988 RMK AO2 SLP087 T01721111 56010","lat":39.5599,"lon":-104.8484,"elev":1791,"name":"Denver/Centennial Arpt, CO, US","cover":"FEW","clouds":[{"cover":"FEW","base":10000},{"cover":"FEW","base":14000},{"cover":"FEW","base":22000}],"fltCat":"VFR"},{"icaoId":"KGEG","receiptTime":"2026-04-15T20:58:14.894Z","obsTime":1776286380,"reportTime":"2026-04-15T21:00:00.000Z","temp":9.4,"dewp":-2.8,"wdir":230,"wspd":20,"wgst":30,"visib":"10+","altim":1002.5,"slp":1002.8,"qcField":5,"presTend":-0.5,"pcp3hr":0.01,"metarType":"METAR","rawOb":"METAR KGEG 152053Z COR 23020G30KT 10SM FEW036 FEW190 09/M03 A2960 RMK AO2 PK WND 23030/2044 SLP028 CB DSNT SE-S MOV NE TCU DSNT NW SHSN DSNT NW 60001 T00941028 56005","lat":47.6217,"lon":-117.528,"elev":718,"name":"Spokane Intl, WA, US","cover":"FEW","clouds":[{"cover":"FEW","base":3600},{"cover":"FEW","base":19000}],"fltCat":"VFR"},{"icaoId":"KAUS","receiptTime":"2026-04-15T20:56:35.666Z","obsTime":1776286380,"reportTime":"2026-04-15T21:00:00.000Z","temp":28.3,"dewp":18.3,"wdir":170,"wspd":10,"visib":"10+","altim":1013.3,"slp":1012.2,"qcField":4,"presTend":-0.7,"metarType":"METAR","rawOb":"METAR KAUS 152053Z 17010KT 10SM SCT046 BKN080 OVC200 28/18 A2992 RMK AO2 SLP122 T02830183 58007","lat":30.1831,"lon":-97.6806,"elev":148,"name":"Austin/Bergstrom Intl, TX, US","cover":"OVC","clouds":[{"cover":"SCT","base":4600},{"cover":"BKN","base":8000},{"cover":"OVC","base":20000}],"fltCat":"VFR"},{"icaoId":"KBCE","receiptTime":"2026-04-15T20:56:35.742Z","obsTime":1776286380,"reportTime":"2026-04-15T21:00:00.000Z","temp":12.2,"dewp":-5,"wdir":210,"wspd":10,"wgst":18,"visib":"10+","altim":1019.4,"slp":1014.2,"qcField":6,"presTend":-1,"metarType":"METAR","rawOb":"METAR KBCE 152053Z AUTO 21010G18KT 10SM BKN070 12/M05 A3010 RMK AO2 SLP142 T01221050 56010","lat":37.7013,"lon":-112.149,"elev":2311,"name":"Bryce Canyon Arpt, UT, US","cover":"BKN","clouds":[{"cover":"BKN","base":7000}],"fltCat":"VFR"},{"icaoId":"KBFI","receiptTime":"2026-04-15T20:56:35.826Z","obsTime":1776286380,"reportTime":"2026-04-15T21:00:00.000Z","temp":8.3,"dewp":3.3,"wdir":160,"wspd":9,"visib":"10+","altim":1010.9,"slp":1010.8,"qcField":4,"presTend":-0.4,"pcp3hr":0.01,"metarType":"METAR","rawOb":"METAR KBFI 152053Z 16009KT 10SM SCT018 BKN035 BKN044 08/03 A2985 RMK AO2 LTG DSNT NW SLP108 60001 T00830033 58004","lat":47.5455,"lon":-122.3148,"elev":7,"name":"Seattle/Boeing Fld, WA, US","cover":"BKN","clouds":[{"cover":"SCT","base":1800},{"cover":"BKN","base":3500},{"cover":"BKN","base":4400}],"fltCat":"VFR"},{"icaoId":"KBHM","receiptTime":"2026-04-15T20:56:35.887Z","obsTime":1776286380,"reportTime":"2026-04-15T21:00:00.000Z","temp":29.4,"dewp":8.3,"wdir":190,"wspd":13,"wgst":18,"visib":"10+","altim":1019,"slp":1018.1,"qcField":4,"presTend":-1.8,"metarType":"METAR","rawOb":"METAR KBHM 152053Z 19013G18KT 10SM FEW150 BKN250 29/08 A3009 RMK AO2 SLP181 T02940083 56018","lat":33.5655,"lon":-86.7449,"elev":191,"name":"Birmingham Intl, AL, US","cover":"BKN","clouds":[{"cover":"FEW","base":15000},{"cover":"BKN","base":25000}],"fltCat":"VFR"},{"icaoId":"KBIL","receiptTime":"2026-04-15T20:56:35.616Z","obsTime":1776286380,"reportTime":"2026-04-15T21:00:00.000Z","temp":18.3,"dewp":-2.8,"wdir":200,"wspd":13,"wgst":28,"visib":"10+","altim":1002.1,"slp":1000.4,"qcField":4,"presTend":-2.9,"metarType":"METAR","rawOb":"METAR KBIL 152053Z 20013G28KT 10SM BKN080 BKN110 18/M03 A2959 RMK AO2 PK WND 20030/2025 SLP004 VIRGA SW-NW SHRA DSNT SW-N ACSL DSNT ALQDS T01831028 56029","lat":45.8072,"lon":-108.5462,"elev":1089,"name":"Billings/Logan Intl, MT, US","cover":"BKN","clouds":[{"cover":"BKN","base":8000},{"cover":"BKN","base":11000}],"fltCat":"VFR"},{"icaoId":"KCLL","receiptTime":"2026-04-15T20:56:20.853Z","obsTime":1776286380,"reportTime":"2026-04-15T21:00:00.000Z","temp":30,"dewp":18.3,"wdir":180,"wspd":14,"wgst":19,"visib":"10+","altim":1014,"slp":1013.3,"qcField":4,"presTend":-0.9,"metarType":"METAR","rawOb":"METAR KCLL 152053Z 18014G19KT 10SM SCT050 BKN070 30/18 A2994 RMK AO2 SLP133 T03000183 58009","lat":30.5912,"lon":-96.3631,"elev":96,"name":"College Station/Easterwood Arpt, TX, US","cover":"BKN","clouds":[{"cover":"SCT","base":5000},{"cover":"BKN","base":7000}],"fltCat":"VFR"},{"icaoId":"KCNM","receiptTime":"2026-04-15T20:56:22.235Z","obsTime":1776286380,"reportTime":"2026-04-15T21:00:00.000Z","temp":27.8,"dewp":-5,"wdir":250,"wspd":11,"wgst":24,"visib":"10+","altim":1014,"slp":1008.6,"qcField":6,"presTend":-2.1,"metarType":"METAR","rawOb":"METAR KCNM 152053Z AUTO 25011G24KT 10SM CLR 28/M05 A2994 RMK AO2 SLP086 T02781050 56021","lat":32.3336,"lon":-104.2584,"elev":993,"name":"Carlsbad/Cavern City Air Term, NM, US","cover":"CLR","clouds":[],"fltCat":"VFR"},{"icaoId":"KCNY","receiptTime":"2026-04-15T20:56:20.869Z","obsTime":1776286380,"reportTime":"2026-04-15T21:00:00.000Z","temp":17.2,"dewp":-3.9,"wdir":"VRB","wspd":6,"visib":"10+","altim":1015.7,"slp":1013.1,"qcField":14,"presTend":-1.9,"metarType":"METAR","rawOb":"METAR KCNY 152053Z AUTO VRB06KT 10SM CLR 17/M04 A2999 RMK AO2 SLP131 T01721039 56019 $","lat":38.7501,"lon":-109.7627,"elev":1392,"name":"Moab/Canyonland Fld, UT, US","cover":"CLR","clouds":[],"fltCat":"VFR"},{"icaoId":"KCRQ","receiptTime":"2026-04-15T20:56:25.593Z","obsTime":1776286380,"reportTime":"2026-04-15T21:00:00.000Z","temp":18.9,"dewp":12.8,"wdir":260,"wspd":10,"wgst":18,"visib":"10+","altim":1016.3,"slp":1016.2,"qcField":4,"presTend":-1,"metarType":"METAR","rawOb":"METAR KCRQ 152053Z 26010G18KT 10SM CLR 19/13 A3001 RMK AO2 SLP162 T01890128 58010","lat":33.1299,"lon":-117.2765,"elev":96,"name":"Carlsbad/Palomar Arpt, CA, US","cover":"CLR","clouds":[],"fltCat":"VFR"},{"icaoId":"KCYS","receiptTime":"2026-04-15T20:56:22.407Z","obsTime":1776286380,"reportTime":"2026-04-15T21:00:00.000Z","temp":15.6,"dewp":-6.1,"wdir":300,"wspd":12,"wgst":23,"visib":"10+","altim":1010.9,"slp":1006.2,"qcField":4,"presTend":-1,"metarType":"METAR","rawOb":"METAR KCYS 152053Z 30012G23KT 10SM SCT080 16/M06 A2985 RMK AO2 SLP062 T01561061 57010","lat":41.1579,"lon":-104.8081,"elev":1868,"name":"Cheyenne Rgnl, WY, US","cover":"SCT","clouds":[{"cover":"SCT","base":8000}],"fltCat":"VFR"},{"icaoId":"KDEN","receiptTime":"2026-04-15T20:56:22.464Z","obsTime":1776286380,"reportTime":"2026-04-15T21:00:00.000Z","temp":18.3,"dewp":-11.7,"wdir":290,"wspd":10,"wgst":15,"visib":"10+","altim":1011.3,"slp":1006.6,"qcField":12,"presTend":-0.9,"metarType":"METAR","rawOb":"METAR KDEN 152053Z 29010G15KT 10SM FEW090 FEW140 FEW220 18/M12 A2986 RMK AO2 SLP066 T01831117 56009 $","lat":39.8466,"lon":-104.6562,"elev":1656,"name":"Denver Intl, CO, US","cover":"FEW","clouds":[{"cover":"FEW","base":9000},{"cover":"FEW","base":14000},{"cover":"FEW","base":22000}],"fltCat":"VFR"},{"icaoId":"KFAT","receiptTime":"2026-04-15T20:56:35.488Z","obsTime":1776286380,"reportTime":"2026-04-15T21:00:00.000Z","temp":21.7,"dewp":6.7,"wdir":"VRB","wspd":4,"visib":"10+","altim":1017.7,"slp":1017.2,"qcField":12,"presTend":-1.1,"metarType":"METAR","rawOb":"METAR KFAT 152053Z VRB04KT 10SM FEW050 BKN200 22/07 A3005 RMK AO2 SLP172 T02170067 58011 $","lat":36.78,"lon":-119.7202,"elev":102,"name":"Fresno/Yosemite Intl, CA, US","cover":"BKN","clouds":[{"cover":"FEW","base":5000},{"cover":"BKN","base":20000}],"fltCat":"VFR"},{"icaoId":"KDFW","receiptTime":"2026-04-15T20:56:22.525Z","obsTime":1776286380,"reportTime":"2026-04-15T21:00:00.000Z","temp":26.1,"dewp":18.3,"wdir":190,"wspd":18,"wgst":25,"visib":"10+","altim":1012.3,"slp":1011.4,"qcField":4,"presTend":-0.9,"metarType":"METAR","rawOb":"METAR KDFW 152053Z 19018G25KT 10SM BKN032 BKN044 OVC150 26/18 A2989 RMK AO2 PK WND 20027/2040 SLP114 T02610183 58009","lat":32.8974,"lon":-97.022,"elev":168,"name":"Dallas-Ft Worth Intl, TX, US","cover":"OVC","clouds":[{"cover":"BKN","base":3200},{"cover":"BKN","base":4400},{"cover":"OVC","base":15000}],"fltCat":"VFR"},{"icaoId":"KDLN","receiptTime":"2026-04-15T20:56:34.583Z","obsTime":1776286380,"reportTime":"2026-04-15T21:00:00.000Z","temp":12.8,"dewp":-3.9,"wdir":250,"wspd":24,"wgst":33,"visib":"10+","altim":1002.1,"slp":999.4,"qcField":6,"presTend":-2.5,"pcp3hr":0.005,"metarType":"METAR","rawOb":"METAR KDLN 152053Z AUTO 25024G33KT 10SM OVC080 13/M04 A2959 RMK AO2 PK WND 26033/2053 SLP994 60000 T01281039 56025","lat":45.2584,"lon":-112.5546,"elev":1586,"name":"Dillon Arpt, MT, US","cover":"OVC","clouds":[{"cover":"OVC","base":8000}],"fltCat":"VFR"},{"icaoId":"KDMN","receiptTime":"2026-04-15T20:56:20.966Z","obsTime":1776286380,"reportTime":"2026-04-15T21:00:00.000Z","temp":23.9,"dewp":-13.3,"wdir":270,"wspd":9,"wgst":18,"visib":"10+","altim":1017.4,"slp":1012.1,"qcField":6,"presTend":-1.3,"metarType":"METAR","rawOb":"METAR KDMN 152053Z AUTO 27009G18KT 220V290 10SM CLR 24/M13 A3004 RMK AO2 SLP121 T02391133 58013","lat":32.2592,"lon":-107.7206,"elev":1310,"name":"Deming Muni, NM, US","cover":"CLR","clouds":[],"fltCat":"VFR"},{"icaoId":"KCVG","receiptTime":"2026-04-15T20:56:36.490Z","obsTime":1776286320,"reportTime":"2026-04-15T21:00:00.000Z","temp":26.7,"dewp":16.1,"wdir":200,"wspd":11,"wgst":21,"visib":"10+","altim":1013.3,"slp":1012.2,"qcField":4,"presTend":-1.4,"metarType":"METAR","rawOb":"METAR KCVG 152052Z 20011G21KT 10SM BKN090 BKN250 27/16 A2992 RMK AO2 SLP122 T02670161 58014","lat":39.0444,"lon":-84.6724,"elev":264,"name":"Cincinnati Intl, KY, US","cover":"BKN","clouds":[{"cover":"BKN","base":9000},{"cover":"BKN","base":25000}],"fltCat":"VFR"},{"icaoId":"KABQ","receiptTime":"2026-04-15T20:56:35.120Z","obsTime":1776286320,"reportTime":"2026-04-15T21:00:00.000Z","temp":18.3,"dewp":-6.7,"wdir":300,"wspd":6,"visib":"10+","altim":1017.7,"slp":1012.6,"qcField":4,"presTend":-1.4,"metarType":"METAR","rawOb":"METAR KABQ 152052Z 30006KT 10SM BKN090 18/M07 A3005 RMK AO2 SLP126 T01831067 58014","lat":35.0419,"lon":-106.6154,"elev":1620,"name":"Albuquerque Intl, NM, US","cover":"BKN","clouds":[{"cover":"BKN","base":9000}],"fltCat":"VFR"},{"icaoId":"KATL","receiptTime":"2026-04-15T20:56:36.291Z","obsTime":1776286320,"reportTime":"2026-04-15T21:00:00.000Z","temp":28.3,"dewp":13.3,"wdir":200,"wspd":7,"visib":"10+","altim":1019,"slp":1018.1,"qcField":12,"presTend":-1.9,"metarType":"METAR","rawOb":"METAR KATL 152052Z 20007KT 10SM FEW070 FEW200 SCT250 28/13 A3009 RMK AO2 SLP181 T02830133 58019 $","lat":33.6297,"lon":-84.4422,"elev":309,"name":"Atlanta/Hartsfield-Jackson Intl, GA, US","cover":"SCT","clouds":[{"cover":"FEW","base":7000},{"cover":"FEW","base":20000},{"cover":"SCT","base":25000}],"fltCat":"VFR"},{"icaoId":"KIAD","receiptTime":"2026-04-15T20:56:29.131Z","obsTime":1776286320,"reportTime":"2026-04-15T21:00:00.000Z","temp":32.2,"dewp":12.8,"wdir":210,"wspd":14,"wgst":19,"visib":"10+","altim":1012.3,"slp":1012,"qcField":4,"presTend":-1.8,"metarType":"METAR","rawOb":"METAR KIAD 152052Z 21014G19KT 10SM BKN250 32/13 A2989 RMK AO2 SLP120 T03220128 56018","lat":38.9348,"lon":-77.4473,"elev":90,"name":"Washington/Dulles Intl, VA, US","cover":"BKN","clouds":[{"cover":"BKN","base":25000}],"fltCat":"VFR"},{"icaoId":"KDCA","receiptTime":"2026-04-15T20:56:36.509Z","obsTime":1776286320,"reportTime":"2026-04-15T21:00:00.000Z","temp":29.4,"dewp":17.2,"wdir":180,"wspd":10,"visib":"10+","altim":1012.3,"slp":1012,"qcField":4,"presTend":-1.7,"metarType":"METAR","rawOb":"METAR KDCA 152052Z 18010KT 10SM BKN250 29/17 A2989 RMK AO2 SLP120 T02940172 58017","lat":38.8472,"lon":-77.0345,"elev":4,"name":"Washington/Reagan-National Arpt, VA, US","cover":"BKN","clouds":[{"cover":"BKN","base":25000}],"fltCat":"VFR"},{"icaoId":"KCLT","receiptTime":"2026-04-15T20:56:36.438Z","obsTime":1776286320,"reportTime":"2026-04-15T21:00:00.000Z","temp":31.7,"dewp":6.7,"wdir":200,"wspd":10,"visib":"10+","altim":1017.4,"slp":1017.7,"qcField":4,"presTend":-1.2,"metarType":"METAR","rawOb":"METAR KCLT 152052Z 20010KT 10SM SCT250 32/07 A3004 RMK AO2 SLP177 T03170067 56012","lat":35.2225,"lon":-80.9543,"elev":223,"name":"Charlotte/Douglas Intl, NC, US","cover":"SCT","clouds":[{"cover":"SCT","base":25000}],"fltCat":"VFR"},{"icaoId":"KMKE","receiptTime":"2026-04-15T20:56:28.737Z","obsTime":1776286320,"reportTime":"2026-04-15T21:00:00.000Z","temp":21.7,"dewp":15,"wdir":250,"wspd":6,"wgst":16,"visib":"10+","altim":1007.2,"slp":1006.9,"qcField":12,"presTend":-1.2,"metarType":"METAR","rawOb":"METAR KMKE 152052Z 25006G16KT 10SM SCT029 BKN130 BKN200 22/15 A2974 RMK AO2 SLP069 T02170150 58012 $","lat":42.9549,"lon":-87.9045,"elev":203,"name":"Milwaukee/Mitchell Intl, WI, US","cover":"BKN","clouds":[{"cover":"SCT","base":2900},{"cover":"BKN","base":13000},{"cover":"BKN","base":20000}],"fltCat":"VFR"},{"icaoId":"KMLF","receiptTime":"2026-04-15T20:56:35.324Z","obsTime":1776286320,"reportTime":"2026-04-15T21:00:00.000Z","temp":20,"dewp":-3.9,"wdir":200,"wspd":24,"wgst":32,"visib":"10+","altim":1014.6,"slp":1011.2,"qcField":6,"presTend":-1.8,"metarType":"METAR","rawOb":"METAR KMLF 152052Z AUTO 20024G32KT 10SM CLR 20/M04 A2996 RMK AO2 PK WND 20032/2051 SLP112 T02001039 56018","lat":38.4225,"lon":-113.0109,"elev":1537,"name":"Milford Muni, UT, US","cover":"CLR","clouds":[],"fltCat":"VFR"},{"icaoId":"KHRL","receiptTime":"2026-04-15T20:56:22.609Z","obsTime":1776286320,"reportTime":"2026-04-15T21:00:00.000Z","temp":30.6,"dewp":20,"wdir":150,"wspd":17,"wgst":27,"visib":"10+","altim":1011.9,"slp":1011.8,"qcField":4,"presTend":-1.6,"metarType":"METAR","rawOb":"METAR KHRL 152052Z 15017G27KT 10SM SCT043 BKN050 31/20 A2988 RMK AO2 PK WND 15029/2007 SLP118 T03060200 58016","lat":26.2303,"lon":-97.6556,"elev":9,"name":"Harlingen/Valley Intl, TX, US","cover":"BKN","clouds":[{"cover":"SCT","base":4300},{"cover":"BKN","base":5000}],"fltCat":"VFR"},{"icaoId":"KOKC","receiptTime":"2026-04-15T20:56:22.907Z","obsTime":1776286320,"reportTime":"2026-04-15T21:00:00.000Z","temp":25.6,"dewp":20,"wdir":180,"wspd":13,"wgst":22,"visib":"10+","altim":1009.6,"slp":1008,"qcField":4,"presTend":-0.7,"pcp3hr":0.005,"metarType":"METAR","rawOb":"METAR KOKC 152052Z 18013G22KT 10SM SCT033 BKN047 BKN250 26/20 A2981 RMK AO2 SLP080 60000 T02560200 58007","lat":35.3843,"lon":-97.6003,"elev":391,"name":"Oklahoma City/Will Rogers Intl, OK, US","cover":"BKN","clouds":[{"cover":"SCT","base":3300},{"cover":"BKN","base":4700},{"cover":"BKN","base":25000}],"fltCat":"VFR"},{"icaoId":"KSAT","receiptTime":"2026-04-15T20:54:13.251Z","obsTime":1776286260,"reportTime":"2026-04-15T21:00:00.000Z","temp":29.4,"dewp":18.3,"wdir":160,"wspd":13,"visib":"10+","altim":1013.3,"slp":1011.3,"qcField":4,"wxString":"-RA","presTend":-1,"precip":0.005,"pcp3hr":0.005,"metarType":"METAR","rawOb":"METAR KSAT 152051Z 16013KT 10SM -RA SCT041 BKN075 BKN200 29/18 A2992 RMK AO2 RAB46 SLP113 P0000 60000 T02940183 58010","lat":29.5443,"lon":-98.4839,"elev":246,"name":"San Antonio Intl, TX, US","cover":"BKN","clouds":[{"cover":"SCT","base":4100},{"cover":"BKN","base":7500},{"cover":"BKN","base":20000}],"fltCat":"VFR"},{"icaoId":"KMYL","receiptTime":"2026-04-15T20:54:11.645Z","obsTime":1776286260,"reportTime":"2026-04-15T21:00:00.000Z","temp":3.3,"dewp":1.7,"wdir":150,"wspd":13,"wgst":20,"visib":"10+","altim":1006.2,"slp":1006.4,"qcField":6,"wxString":"-RA","presTend":-2.1,"precip":0.01,"pcp3hr":0.08,"metarType":"METAR","rawOb":"METAR KMYL 152051Z AUTO 15013G20KT 10SM -RA OVC011 03/02 A2971 RMK AO2 SLP064 P0001 60008 T00330017 58021","lat":44.8943,"lon":-116.0998,"elev":1532,"name":"McCall Muni, ID, US","cover":"OVC","clouds":[{"cover":"OVC","base":1100}],"fltCat":"MVFR"},{"icaoId":"KLGU","receiptTime":"2026-04-15T20:54:11.312Z","obsTime":1776286260,"reportTime":"2026-04-15T21:00:00.000Z","temp":15,"dewp":-1.7,"wdir":220,"wspd":11,"wgst":35,"visib":"10+","altim":1011.6,"slp":1009.6,"qcField":6,"wxString":"-RA","presTend":-1.8,"precip":0.005,"pcp3hr":0.005,"metarType":"METAR","rawOb":"METAR KLGU 152051Z AUTO 22011G35KT 10SM -RA BKN075 BKN090 15/M02 A2987 RMK AO2 PK WND 22036/2008 RAB48 SLP096 P0000 60000 T01501017 56018","lat":41.7865,"lon":-111.8519,"elev":1359,"name":"Logan/Cache Arpt, UT, US","cover":"BKN","clouds":[{"cover":"BKN","base":7500},{"cover":"BKN","base":9000}],"fltCat":"VFR"},{"icaoId":"KJFK","receiptTime":"2026-04-15T20:54:11.253Z","obsTime":1776286260,"reportTime":"2026-04-15T21:00:00.000Z","temp":20.6,"dewp":12.2,"wdir":170,"wspd":11,"visib":"10+","altim":1010.9,"slp":1010.8,"qcField":4,"presTend":-1.2,"metarType":"METAR","rawOb":"METAR KJFK 152051Z 17011KT 10SM FEW070 BKN250 21/12 A2985 RMK AO2 SLP108 T02060122 56012","lat":40.6392,"lon":-73.7639,"elev":3,"name":"New York/JF Kennedy Intl, NY, US","cover":"BKN","clouds":[{"cover":"FEW","base":7000},{"cover":"BKN","base":25000}],"fltCat":"VFR"},{"icaoId":"KIGM","receiptTime":"2026-04-15T20:54:11.080Z","obsTime":1776286260,"reportTime":"2026-04-15T21:00:00.000Z","temp":22.8,"dewp":-6.7,"wdir":220,"wspd":11,"wgst":21,"visib":"10+","altim":1016.7,"slp":1011.6,"qcField":6,"presTend":-1.6,"metarType":"METAR","rawOb":"METAR KIGM 152051Z AUTO 22011G21KT 10SM CLR 23/M07 A3002 RMK AO2 SLP116 T02281067 58016","lat":35.2575,"lon":-113.9341,"elev":1045,"name":"Kingman Arpt, AZ, US","cover":"CLR","clouds":[],"fltCat":"VFR"},{"icaoId":"KEWR","receiptTime":"2026-04-15T20:54:10.704Z","obsTime":1776286260,"reportTime":"2026-04-15T21:00:00.000Z","temp":31.1,"dewp":15.6,"wdir":220,"wspd":14,"wgst":23,"visib":"10+","altim":1009.9,"slp":1009.6,"qcField":4,"presTend":-1.5,"metarType":"METAR","rawOb":"METAR KEWR 152051Z 22014G23KT 10SM FEW060 FEW150 BKN250 31/16 A2982 RMK AO2 PK WND 25028/2023 SLP096 T03110156 56015","lat":40.6828,"lon":-74.1692,"elev":2,"name":"Newark Intl, NJ, US","cover":"BKN","clouds":[{"cover":"FEW","base":6000},{"cover":"FEW","base":15000},{"cover":"BKN","base":25000}],"fltCat":"VFR"},{"icaoId":"KELP","receiptTime":"2026-04-15T20:54:10.647Z","obsTime":1776286260,"reportTime":"2026-04-15T21:00:00.000Z","temp":25,"dewp":-8.9,"wdir":270,"wspd":16,"wgst":24,"visib":"10+","altim":1016.3,"slp":1010.4,"qcField":4,"presTend":-1.4,"metarType":"METAR","rawOb":"METAR KELP 152051Z 27016G24KT 230V310 10SM FEW130 25/M09 A3001 RMK AO2 PK WND 26026/2026 SLP104 OCNL PO T02501089 56014","lat":31.8123,"lon":-106.3774,"elev":1205,"name":"El Paso Intl, TX, US","cover":"FEW","clouds":[{"cover":"FEW","base":13000}],"fltCat":"VFR"},{"icaoId":"KROW","receiptTime":"2026-04-15T20:54:12.221Z","obsTime":1776286260,"reportTime":"2026-04-15T21:00:00.000Z","temp":25,"dewp":-8.9,"wdir":290,"wspd":12,"wgst":17,"visib":"10+","altim":1013.3,"slp":1007.5,"qcField":4,"presTend":-1.9,"metarType":"METAR","rawOb":"METAR KROW 152051Z 29012G17KT 10SM CLR 25/M09 A2992 RMK AO2 SLP075 T02501089 56019","lat":33.3074,"lon":-104.5082,"elev":1105,"name":"Roswell/Ind Arpt, NM, US","cover":"CLR","clouds":[],"fltCat":"VFR"},{"icaoId":"KSAD","receiptTime":"2026-04-15T20:54:12.245Z","obsTime":1776286260,"reportTime":"2026-04-15T21:00:00.000Z","temp":24.4,"dewp":-8.3,"wdir":290,"wspd":6,"wgst":16,"visib":"10+","altim":1015.7,"slp":1012.2,"qcField":6,"presTend":-1.8,"metarType":"METAR","rawOb":"METAR KSAD 152051Z AUTO 29006G16KT 10SM CLR 24/M08 A2999 RMK AO2 SLP122 T02441083 58018","lat":32.8565,"lon":-109.636,"elev":937,"name":"Safford Rgnl, AZ, US","cover":"CLR","clouds":[],"fltCat":"VFR"},{"icaoId":"KACT","receiptTime":"2026-04-15T20:54:13.929Z","obsTime":1776286260,"reportTime":"2026-04-15T21:00:00.000Z","temp":24.4,"dewp":20.6,"wdir":220,"wspd":5,"visib":"10+","altim":1014,"slp":1013,"qcField":6,"presTend":-1.1,"precip":0.005,"pcp3hr":0.005,"metarType":"METAR","rawOb":"METAR KACT 152051Z AUTO 22005KT 10SM BKN060 24/21 A2994 RMK AO2 RAB1952E14 SLP130 P0000 60000 T02440206 58011","lat":31.618,"lon":-97.2283,"elev":150,"name":"Waco Rgnl, TX, US","cover":"BKN","clouds":[{"cover":"BKN","base":6000}],"fltCat":"VFR"},{"icaoId":"KBDL","receiptTime":"2026-04-15T20:54:14.260Z","obsTime":1776286260,"reportTime":"2026-04-15T21:00:00.000Z","temp":28.9,"dewp":15,"wdir":250,"wspd":9,"visib":"10+","altim":1009.6,"slp":1009.3,"qcField":4,"presTend":-0.2,"precip":0.005,"pcp3hr":0.005,"metarType":"METAR","rawOb":"METAR KBDL 152051Z 25009KT 10SM SCT065 BKN095 BKN250 29/15 A2981 RMK AO2 RAB45E50 SLP093 VCSH NW-NE TCU DSNT SE P0000 60000 T02890150 55002","lat":41.9374,"lon":-72.682,"elev":52,"name":"Hartford/Bradley Intl, CT, US","cover":"BKN","clouds":[{"cover":"SCT","base":6500},{"cover":"BKN","base":9500},{"cover":"BKN","base":25000}],"fltCat":"VFR"},{"icaoId":"KCMH","receiptTime":"2026-04-15T20:54:14.987Z","obsTime":1776286260,"reportTime":"2026-04-15T21:00:00.000Z","temp":28.3,"dewp":15.6,"wdir":210,"wspd":13,"wgst":24,"visib":"10+","altim":1011.9,"slp":1011.3,"qcField":4,"presTend":-1.2,"metarType":"METAR","rawOb":"METAR KCMH 152051Z 21013G24KT 10SM SCT060 SCT150 BKN250 28/16 A2988 RMK AO2 PK WND 21028/2006 SLP113 T02830156 58012","lat":39.9907,"lon":-82.877,"elev":257,"name":"Columbus/Glenn Intl, OH, US","cover":"BKN","clouds":[{"cover":"SCT","base":6000},{"cover":"SCT","base":15000},{"cover":"BKN","base":25000}],"fltCat":"VFR"},{"icaoId":"KCRP","receiptTime":"2026-04-15T20:54:15.270Z","obsTime":1776286260,"reportTime":"2026-04-15T21:00:00.000Z","temp":28.9,"dewp":20,"wdir":150,"wspd":22,"wgst":31,"visib":"10+","altim":1013,"slp":1012.8,"qcField":4,"presTend":-1.3,"metarType":"METAR","rawOb":"METAR KCRP 152051Z 15022G31KT 10SM FEW020 FEW028 FEW035 BKN150 BKN250 29/20 A2991 RMK AO2 PK WND 15035/1957 SLP128 T02890200 58013","lat":27.7734,"lon":-97.513,"elev":11,"name":"Corpus Christi Intl, TX, US","cover":"BKN","clouds":[{"cover":"FEW","base":2000},{"cover":"FEW","base":2800},{"cover":"FEW","base":3500},{"cover":"BKN","base":15000}],"fltCat":"VFR"},{"icaoId":"KVNY","receiptTime":"2026-04-15T20:54:15.580Z","obsTime":1776286260,"reportTime":"2026-04-15T21:00:00.000Z","temp":23.9,"dewp":7.8,"wdir":160,"wspd":8,"visib":"10+","altim":1016,"slp":1015.2,"qcField":12,"presTend":-1.3,"metarType":"METAR","rawOb":"METAR KVNY 152051Z 16008KT 10SM CLR 24/08 A3000 RMK AO2 SLP152 T02390078 58013 $","lat":34.2121,"lon":-118.4915,"elev":241,"name":"Van Nuys Arpt, CA, US","cover":"CLR","clouds":[],"fltCat":"VFR"},{"icaoId":"KCLE","receiptTime":"2026-04-15T20:54:15.893Z","obsTime":1776286260,"reportTime":"2026-04-15T21:00:00.000Z","temp":19.4,"dewp":16.1,"wdir":250,"wspd":9,"visib":9,"altim":1009.6,"slp":1010.7,"qcField":12,"wxString":"TS","presTend":-2.3,"precip":0.16,"pcp3hr":0.16,"metarType":"METAR","rawOb":"METAR KCLE 152051Z 25009KT 9SM TS SCT037CB BKN090 OVC110 19/16 A2981 RMK AO2 RAE51 TSB20 SLP107 OCNL LTGICCC OHD TS OHD MOV NE P0016 60016 T01940161 58023 $","lat":41.4057,"lon":-81.8519,"elev":237,"name":"Cleveland/Hopkins Intl, OH, US","cover":"OVC","clouds":[{"cover":"SCT","base":3700},{"cover":"BKN","base":9000},{"cover":"OVC","base":11000}],"fltCat":"VFR"},{"icaoId":"KPIT","receiptTime":"2026-04-15T20:54:16.087Z","obsTime":1776286260,"reportTime":"2026-04-15T21:00:00.000Z","temp":28.3,"dewp":14.4,"wdir":240,"wspd":10,"wgst":21,"visib":"10+","altim":1012.3,"slp":1012.1,"qcField":12,"presTend":-2,"metarType":"METAR","rawOb":"METAR KPIT 152051Z 24010G21KT 10SM SCT048 SCT130 OVC250 28/14 A2989 RMK AO2 SLP121 T02830144 56020 $","lat":40.4814,"lon":-80.2083,"elev":339,"name":"Pittsburgh Intl, PA, US","cover":"OVC","clouds":[{"cover":"SCT","base":4800},{"cover":"SCT","base":13000},{"cover":"OVC","base":25000}],"fltCat":"VFR"},{"icaoId":"KSAN","receiptTime":"2026-04-15T20:54:12.284Z","obsTime":1776286260,"reportTime":"2026-04-15T21:00:00.000Z","temp":20,"dewp":12.8,"wdir":280,"wspd":11,"visib":"10+","altim":1017.4,"slp":1017.2,"qcField":12,"presTend":-1,"metarType":"METAR","rawOb":"METAR KSAN 152051Z 28011KT 10SM FEW025 FEW200 20/13 A3004 RMK AO2 SLP172 T02000128 58010 $","lat":32.7364,"lon":-117.1973,"elev":3,"name":"San Diego Intl Arpt, CA, US","cover":"FEW","clouds":[{"cover":"FEW","base":2500},{"cover":"FEW","base":20000}],"fltCat":"VFR"},{"icaoId":"KLGA","receiptTime":"2026-04-15T20:56:29.147Z","obsTime":1776286260,"reportTime":"2026-04-15T21:00:00.000Z","temp":29.4,"dewp":15.6,"wdir":170,"wspd":13,"visib":"10+","altim":1009.6,"slp":1009.5,"qcField":4,"presTend":-1.4,"metarType":"METAR","rawOb":"METAR KLGA 152051Z 17013KT 10SM FEW060 FEW150 BKN250 29/16 A2981 RMK AO2 WSHFT 1956 SLP095 T02940156 58014","lat":40.7794,"lon":-73.8803,"elev":9,"name":"New York/La Guardia Arpt, NY, US","cover":"BKN","clouds":[{"cover":"FEW","base":6000},{"cover":"FEW","base":15000},{"cover":"BKN","base":25000}],"fltCat":"VFR"},{"icaoId":"KSTL","receiptTime":"2026-04-15T20:54:12.686Z","obsTime":1776286260,"reportTime":"2026-04-15T21:00:00.000Z","temp":21.7,"dewp":18.3,"wdir":180,"wspd":8,"wgst":16,"visib":"10+","altim":1011.3,"slp":1010.4,"qcField":4,"presTend":-0.8,"precip":0.02,"pcp3hr":0.03,"metarType":"METAR","rawOb":"METAR KSTL 152051Z 18008G16KT 10SM BKN047 BKN130 OVC190 22/18 A2986 RMK AO2 RAE33 SLP104 P0002 60003 T02170183 56008","lat":38.7525,"lon":-90.3734,"elev":163,"name":"St Louis/Lambert Intl, MO, US","cover":"OVC","clouds":[{"cover":"BKN","base":4700},{"cover":"BKN","base":13000},{"cover":"OVC","base":19000}],"fltCat":"VFR"},{"icaoId":"KRDU","receiptTime":"2026-04-15T20:54:12.187Z","obsTime":1776286260,"reportTime":"2026-04-15T21:00:00.000Z","temp":32.2,"dewp":12.8,"wdir":230,"wspd":13,"wgst":19,"visib":"10+","altim":1016.3,"slp":1015.9,"qcField":4,"presTend":-1.5,"metarType":"METAR","rawOb":"METAR KRDU 152051Z 23013G19KT 10SM SCT250 32/13 A3001 RMK AO2 SLP159 T03220128 56015","lat":35.8923,"lon":-78.782,"elev":121,"name":"Raleigh-Durham Intl, NC, US","cover":"SCT","clouds":[{"cover":"SCT","base":25000}],"fltCat":"VFR"},{"icaoId":"KPVD","receiptTime":"2026-04-15T20:54:12.004Z","obsTime":1776286260,"reportTime":"2026-04-15T21:00:00.000Z","temp":26.1,"dewp":13.9,"wdir":200,"wspd":14,"wgst":24,"visib":"10+","altim":1010.2,"slp":1010,"qcField":4,"presTend":-1.4,"metarType":"METAR","rawOb":"METAR KPVD 152051Z 20014G24KT 10SM SCT045 BKN110 BKN140 BKN250 26/14 A2983 RMK AO2 SLP100 T02610139 55014","lat":41.7225,"lon":-71.4325,"elev":15,"name":"Providence/Green Mem, RI, US","cover":"BKN","clouds":[{"cover":"SCT","base":4500},{"cover":"BKN","base":11000},{"cover":"BKN","base":14000},{"cover":"BKN","base":25000}],"fltCat":"VFR"},{"icaoId":"KPHX","receiptTime":"2026-04-15T20:54:11.843Z","obsTime":1776286260,"reportTime":"2026-04-15T21:00:00.000Z","temp":27.8,"dewp":-2.8,"wdir":350,"wspd":7,"wgst":15,"visib":"10+","altim":1013.6,"slp":1012.2,"qcField":4,"presTend":-2,"metarType":"METAR","rawOb":"METAR KPHX 152051Z 35007G15KT 320V030 10SM FEW080 28/M03 A2993 RMK AO2 SLP122 T02781028 58020","lat":33.4278,"lon":-112.0037,"elev":338,"name":"Phoenix/Sky Harbor Intl, AZ, US","cover":"FEW","clouds":[{"cover":"FEW","base":8000}],"fltCat":"VFR"},{"icaoId":"KOXR","receiptTime":"2026-04-15T20:54:11.808Z","obsTime":1776286260,"reportTime":"2026-04-15T21:00:00.000Z","temp":18.9,"dewp":11.7,"wdir":270,"wspd":11,"visib":"10+","altim":1017.4,"slp":1017,"qcField":12,"presTend":-0.5,"metarType":"METAR","rawOb":"METAR KOXR 152051Z 27011KT 10SM CLR 19/12 A3004 RMK AO2 SLP170 T01890117 57005 $","lat":34.2001,"lon":-119.2042,"elev":12,"name":"Oxnard Arpt, CA, US","cover":"CLR","clouds":[],"fltCat":"VFR"},{"icaoId":"KORF","receiptTime":"2026-04-15T20:54:11.760Z","obsTime":1776286260,"reportTime":"2026-04-15T21:00:00.000Z","temp":32.2,"dewp":13.9,"wdir":240,"wspd":10,"wgst":18,"visib":"10+","altim":1014.3,"slp":1014.1,"qcField":4,"presTend":-1.7,"metarType":"METAR","rawOb":"METAR KORF 152051Z 24010G18KT 10SM CLR 32/14 A2995 RMK AO2 SLP141 T03220139 56017","lat":36.9037,"lon":-76.1927,"elev":5,"name":"Norfolk Intl, VA, US","cover":"CLR","clouds":[],"fltCat":"VFR"},{"icaoId":"KORD","receiptTime":"2026-04-15T20:54:11.692Z","obsTime":1776286260,"reportTime":"2026-04-15T21:00:00.000Z","temp":21.1,"dewp":16.1,"wdir":230,"wspd":9,"visib":"10+","altim":1008.9,"slp":1008.5,"qcField":4,"presTend":-0.1,"pcp3hr":0.005,"metarType":"METAR","rawOb":"METAR KORD 152051Z 23009KT 10SM SCT100 OVC250 21/16 A2979 RMK AO2 SLP085 60000 T02110161 58001","lat":41.9602,"lon":-87.9316,"elev":202,"name":"Chicago/O'Hare Intl, IL, US","cover":"OVC","clouds":[{"cover":"SCT","base":10000},{"cover":"OVC","base":25000}],"fltCat":"VFR"},{"icaoId":"KAEG","receiptTime":"2026-04-15T20:48:11.555Z","obsTime":1776286200,"reportTime":"2026-04-15T21:00:00.000Z","temp":16,"dewp":-8,"wdir":"VRB","wspd":6,"wgst":18,"visib":"10+","altim":1018.7,"qcField":0,"metarType":"METAR","rawOb":"METAR KAEG 152050Z VRB06G18KT 10SM CKN090 16/M08 A3008","lat":35.15,"lon":-106.7929,"elev":1771,"name":"Albuquerque/Double Eagle Arpt, NM, US"},{"icaoId":"KADM","receiptTime":"2026-04-15T20:52:05.201Z","obsTime":1776286200,"reportTime":"2026-04-15T21:00:00.000Z","temp":24,"dewp":20,"wdir":190,"wspd":15,"visib":"10+","altim":1011.3,"qcField":0,"metarType":"METAR","rawOb":"METAR KADM 152050Z 19015KT 10SM BKN025 OVC035 24/20 A2986 RMK LTG DSNT SW","lat":34.3007,"lon":-97.0089,"elev":223,"name":"Ardmore Muni, OK, US","cover":"OVC","clouds":[{"cover":"BKN","base":2500},{"cover":"OVC","base":3500}],"fltCat":"MVFR"},{"icaoId":"KHOB","receiptTime":"2026-04-15T20:52:01.459Z","obsTime":1776286200,"reportTime":"2026-04-15T21:00:00.000Z","temp":26,"dewp":-10,"wdir":260,"wspd":10,"wgst":19,"visib":"10+","altim":1014.6,"qcField":0,"metarType":"METAR","rawOb":"METAR KHOB 152050Z 26010G19KT 10SM FEW120 26/M10 A2996","lat":32.6797,"lon":-103.2222,"elev":1112,"name":"Hobbs Arpt, NM, US","cover":"FEW","clouds":[{"cover":"FEW","base":12000}],"fltCat":"VFR"},{"icaoId":"KIWA","receiptTime":"2026-04-15T20:55:53.999Z","obsTime":1776286200,"reportTime":"2026-04-15T21:00:00.000Z","temp":27,"dewp":-3,"wdir":"VRB","wspd":3,"visib":"10+","altim":1015,"qcField":0,"metarType":"METAR","rawOb":"METAR KIWA 152050Z VRB03KT 10SM CLR 27/M03 A2997","lat":33.3008,"lon":-111.6437,"elev":420,"name":"Phoenix/Mesa Gateway Arpt, AZ, US","cover":"CLR","clouds":[],"fltCat":"VFR"},{"icaoId":"KSUN","receiptTime":"2026-04-15T20:46:22.119Z","obsTime":1776286200,"reportTime":"2026-04-15T21:00:00.000Z","temp":3,"dewp":2,"wdir":120,"wspd":10,"visib":3,"altim":1011.9,"qcField":0,"wxString":"-RA","metarType":"METAR","rawOb":"METAR KSUN 152050Z 12010KT 3SM -RA OVC006 03/02 A2988","lat":43.4969,"lon":-114.2923,"elev":1619,"name":"Hailey/Friedman Mem, ID, US","cover":"OVC","clouds":[{"cover":"OVC","base":600}],"fltCat":"IFR"},{"icaoId":"KCHD","receiptTime":"2026-04-15T20:47:02.199Z","obsTime":1776286020,"reportTime":"2026-04-15T21:00:00.000Z","temp":27,"dewp":-2,"wdir":"VRB","wspd":4,"visib":"10+","altim":1014.6,"qcField":0,"metarType":"METAR","rawOb":"METAR KCHD 152047Z VRB04KT 10SM CLR 27/M02 A2996","lat":33.2669,"lon":-111.8086,"elev":378,"name":"Chandler Muni, AZ, US","cover":"CLR","clouds":[],"fltCat":"VFR"},{"icaoId":"KGEU","receiptTime":"2026-04-15T20:49:42.718Z","obsTime":1776286020,"reportTime":"2026-04-15T21:00:00.000Z","temp":27,"dewp":-4,"wdir":"VRB","wspd":4,"visib":"10+","altim":1013.3,"qcField":0,"metarType":"METAR","rawOb":"METAR KGEU 152047Z VRB04KT 10SM CLR 27/M04 A2992","lat":33.528,"lon":-112.293,"elev":319,"name":"Glendale Muni, AZ, US","cover":"CLR","clouds":[],"fltCat":"VFR"},{"icaoId":"KBJC","receiptTime":"2026-04-15T20:53:15.444Z","obsTime":1776285960,"reportTime":"2026-04-15T21:00:00.000Z","temp":19,"dewp":-9,"wdir":270,"wspd":18,"wgst":25,"visib":"10+","altim":1012.3,"qcField":0,"metarType":"METAR","rawOb":"METAR KBJC 152046Z 27018G25KT 10SM CLR 19/M09 A2989","lat":39.9008,"lon":-105.1042,"elev":1694,"name":"Rocky Mtn Metro, CO, US","cover":"CLR","clouds":[],"fltCat":"VFR"},{"icaoId":"KRYN","receiptTime":"2026-04-15T20:46:22.091Z","obsTime":1776285900,"reportTime":"2026-04-15T21:00:00.000Z","temp":27,"dewp":-17,"wdir":0,"wspd":0,"visib":"10+","altim":1015.3,"qcField":0,"metarType":"METAR","rawOb":"METAR KRYN 152045Z 00000KT 10SM CLR 27/M17 A2998","lat":32.1418,"lon":-111.1767,"elev":731,"name":"Tucson/Ryan Fld, AZ, US","cover":"CLR","clouds":[],"fltCat":"VFR"},{"icaoId":"KLRU","receiptTime":"2026-04-15T20:38:09.843Z","obsTime":1776285300,"reportTime":"2026-04-15T20:35:00.000Z","temp":21.3,"dewp":-11.2,"wdir":10,"wspd":3,"wgst":15,"visib":"10+","altim":1017.7,"qcField":6,"metarType":"METAR","rawOb":"METAR KLRU 152035Z AUTO 01003G15KT 10SM CLR 21/M11 A3005 RMK AO2 T02131112","lat":32.2884,"lon":-106.9131,"elev":1355,"name":"Las Cruces Intl, NM, US","cover":"CLR","clouds":[],"fltCat":"VFR"}]