[{"icaoId":"KFLG","receiptTime":"2026-04-09T13:01:31.777Z","obsTime":1775739420,"reportTime":"2026-04-09T13:00:00.000Z","temp":1.1,"dewp":-6.7,"wdir":0,"wspd":0,"visib":"10+","altim":1020.7,"slp":1013.9,"qcField":4,"metarType":"METAR","rawOb":"METAR KFLG 091257Z 00000KT 10SM CLR 01/M07 A3014 RMK AO2 SLP139 T00111067","lat":35.1443,"lon":-111.6664,"elev":2134,"name":"Flagstaff/Pulliam Arpt, AZ, US","cover":"CLR","clouds":[],"fltCat":"VFR"},{"icaoId":"KINW","receiptTime":"2026-04-09T13:01:49.410Z","obsTime":1775739360,"reportTime":"2026-04-09T13:00:00.000Z","temp":6.1,"dewp":0.6,"wdir":150,"wspd":5,"visib":"10+","altim":1018,"slp":1013.3,"qcField":6,"metarType":"METAR","rawOb":"METAR KINW 091256Z AUTO 15005KT 10SM CLR 06/01 A3006 RMK AO2 SLP133 T00610006","lat":35.0279,"lon":-110.7221,"elev":1492,"name":"Winslow/Lindberg Rgnl, AZ, US","cover":"CLR","clouds":[],"fltCat":"VFR"},{"icaoId":"KCGZ","receiptTime":"2026-04-09T13:01:47.124Z","obsTime":1775739360,"reportTime":"2026-04-09T13:00:00.000Z","temp":16.1,"dewp":-3.3,"wdir":80,"wspd":4,"visib":"10+","altim":1012.3,"slp":1010.8,"qcField":14,"metarType":"METAR","rawOb":"METAR KCGZ 091256Z AUTO 08004KT 10SM CLR 16/M03 A2989 RMK AO2 SLP108 T01611033 $","lat":32.9531,"lon":-111.7725,"elev":444,"name":"Casa Granda Muni, AZ, US","cover":"CLR","clouds":[],"fltCat":"VFR"},{"icaoId":"KDUG","receiptTime":"2026-04-09T13:02:18.895Z","obsTime":1775739360,"reportTime":"2026-04-09T13:00:00.000Z","temp":12.2,"dewp":-2.2,"wdir":60,"wspd":3,"visib":"10+","altim":1017.4,"slp":1011.4,"qcField":38,"metarType":"METAR","rawOb":"METAR KDUG 091256Z AUTO 06003KT 10SM CLR 12/M02 A3004 RMK AO2 SLP114 T01221022 TSNO","lat":31.4725,"lon":-109.6022,"elev":1260,"name":"Douglas/Bisbee Intl, AZ, US","cover":"CLR","clouds":[],"fltCat":"VFR"},{"icaoId":"KSOW","receiptTime":"2026-04-09T12:58:07.423Z","obsTime":1775739300,"reportTime":"2026-04-09T13:00:00.000Z","temp":7,"dewp":-5,"wdir":180,"wspd":3,"visib":"10+","altim":1020.7,"qcField":6,"metarType":"METAR","rawOb":"METAR KSOW 091255Z AUTO 18003KT 10SM CLR 07/M05 A3014 RMK AO2","lat":34.2686,"lon":-110.0019,"elev":1954,"name":"Show Low Muni, AZ, US","cover":"CLR","clouds":[],"fltCat":"VFR"},{"icaoId":"KSEZ","receiptTime":"2026-04-09T13:01:48.790Z","obsTime":1775739300,"reportTime":"2026-04-09T13:00:00.000Z","temp":13,"dewp":-5,"wdir":30,"wspd":11,"visib":"10+","altim":1017,"qcField":6,"metarType":"METAR","rawOb":"METAR KSEZ 091255Z AUTO 03011KT 10SM CLR 13/M05 A3003 RMK AO2","lat":34.8467,"lon":-111.7884,"elev":1455,"name":"Sedona Arpt, AZ, US","cover":"CLR","clouds":[],"fltCat":"VFR"},{"icaoId":"KLUF","receiptTime":"2026-04-09T13:06:03.208Z","obsTime":1775739300,"reportTime":"2026-04-09T13:00:00.000Z","temp":19,"dewp":-3.8,"wdir":0,"wspd":0,"visib":"10+","altim":1010.2,"slp":1008.8,"qcField":12,"metarType":"METAR","rawOb":"METAR KLUF 091255Z 00000KT 10SM SCT220 19/M04 A2983 RMK AO2A SLP088 T01901038 $","lat":33.538,"lon":-112.38,"elev":333,"name":"Phoenix/Luke AFB, AZ, US","cover":"SCT","clouds":[{"cover":"SCT","base":22000}],"fltCat":"VFR"},{"icaoId":"KIFP","receiptTime":"2026-04-09T13:01:28.849Z","obsTime":1775739300,"reportTime":"2026-04-09T13:00:00.000Z","temp":20,"dewp":-3,"wdir":0,"wspd":0,"visib":"10+","altim":1008.5,"qcField":6,"metarType":"METAR","rawOb":"METAR KIFP 091255Z AUTO 00000KT 10SM CLR 20/M03 A2978 RMK AO2","lat":35.1487,"lon":-114.5611,"elev":210,"name":"Bullhead City Intl, AZ, US","cover":"CLR","clouds":[],"fltCat":"VFR"},{"icaoId":"KHII","receiptTime":"2026-04-09T13:01:28.504Z","obsTime":1775739300,"reportTime":"2026-04-09T13:00:00.000Z","temp":22,"dewp":-2,"wdir":70,"wspd":4,"visib":"10+","altim":1008.9,"qcField":6,"metarType":"METAR","rawOb":"METAR KHII 091255Z AUTO 07004KT 10SM CLR 22/M02 A2979 RMK AO2","lat":34.5659,"lon":-114.3522,"elev":241,"name":"Lake Havasu City Arpt, AZ, US","cover":"CLR","clouds":[],"fltCat":"VFR"},{"icaoId":"KGCN","receiptTime":"2026-04-09T12:58:16.984Z","obsTime":1775739240,"reportTime":"2026-04-09T13:00:00.000Z","temp":-1.7,"dewp":-3.9,"wdir":0,"wspd":0,"visib":"10+","altim":1020.1,"slp":1014.7,"qcField":6,"metarType":"METAR","rawOb":"METAR KGCN 091254Z AUTO 00000KT 10SM CLR M02/M04 A3012 RMK AO2 SLP147 T10171039","lat":35.9458,"lon":-112.1554,"elev":1993,"name":"Grand Canyon Park Arpt, AZ, US","cover":"CLR","clouds":[],"fltCat":"VFR"},{"icaoId":"KOLS","receiptTime":"2026-04-09T12:58:16.049Z","obsTime":1775739240,"reportTime":"2026-04-09T13:00:00.000Z","temp":11.1,"dewp":-4.4,"wdir":0,"wspd":0,"visib":"10+","altim":1016.7,"slp":1011.2,"qcField":6,"metarType":"METAR","rawOb":"METAR KOLS 091254Z AUTO 00000KT 10SM CLR 11/M04 A3002 RMK AO2 SLP112 T01111044","lat":31.4208,"lon":-110.8465,"elev":1194,"name":"Nogales Intl, AZ, US","cover":"CLR","clouds":[],"fltCat":"VFR"},{"icaoId":"KSJN","receiptTime":"2026-04-09T12:58:16.501Z","obsTime":1775739240,"reportTime":"2026-04-09T13:00:00.000Z","temp":8.3,"dewp":-2.8,"wdir":170,"wspd":4,"visib":"10+","altim":1019.4,"slp":1012.4,"qcField":6,"metarType":"METAR","rawOb":"METAR KSJN 091254Z AUTO 17004KT 10SM CLR 08/M03 A3010 RMK AO2 SLP124 T00831028","lat":34.5184,"lon":-109.3801,"elev":1747,"name":"St Johns Ind Arpt, AZ, US","cover":"CLR","clouds":[],"fltCat":"VFR"},{"icaoId":"KFFZ","receiptTime":"2026-04-09T13:01:46.307Z","obsTime":1775739240,"reportTime":"2026-04-09T13:00:00.000Z","temp":21.7,"dewp":-2.2,"wdir":110,"wspd":6,"visib":"10+","altim":1011.3,"slp":1008.9,"qcField":4,"metarType":"METAR","rawOb":"METAR KFFZ 091254Z 11006KT 10SM CLR 22/M02 A2986 RMK AO2 SLP089 T02171022","lat":33.4659,"lon":-111.7212,"elev":420,"name":"Mesa/Falcon Fld, AZ, US","cover":"CLR","clouds":[],"fltCat":"VFR"},{"icaoId":"KPGA","receiptTime":"2026-04-09T12:57:05.353Z","obsTime":1775739180,"reportTime":"2026-04-09T13:00:00.000Z","temp":13.3,"dewp":-8.3,"wdir":0,"wspd":0,"visib":"10+","altim":1015,"slp":1009.5,"qcField":14,"metarType":"METAR","rawOb":"METAR KPGA 091253Z AUTO 00000KT 10SM CLR 13/M08 A2997 RMK AO2 SLP095 T01331083 $","lat":36.9211,"lon":-111.4487,"elev":1310,"name":"Page Muni, AZ, US","cover":"CLR","clouds":[],"fltCat":"VFR"},{"icaoId":"KSDL","receiptTime":"2026-04-09T12:56:57.153Z","obsTime":1775739180,"reportTime":"2026-04-09T13:00:00.000Z","temp":18.9,"dewp":1.1,"wdir":0,"wspd":0,"visib":"10+","altim":1011.9,"slp":1009.3,"qcField":4,"metarType":"METAR","rawOb":"METAR KSDL 091253Z 00000KT 10SM CLR 19/01 A2988 RMK AO2 SLP093 T01890011","lat":33.6123,"lon":-111.9232,"elev":438,"name":"Scottsdale Muni, AZ, US","cover":"CLR","clouds":[],"fltCat":"VFR"},{"icaoId":"KTUS","receiptTime":"2026-04-09T12:56:57.578Z","obsTime":1775739180,"reportTime":"2026-04-09T13:00:00.000Z","temp":16.1,"dewp":-3.9,"wdir":0,"wspd":0,"visib":"10+","altim":1015,"slp":1010.7,"qcField":4,"metarType":"METAR","rawOb":"METAR KTUS 091253Z 00000KT 10SM CLR 16/M04 A2997 RMK AO2 SLP107 T01611039","lat":32.1315,"lon":-110.9564,"elev":776,"name":"Tucson Intl Arpt, AZ, US","cover":"CLR","clouds":[],"fltCat":"VFR"},{"icaoId":"KDVT","receiptTime":"2026-04-09T12:57:01.693Z","obsTime":1775739180,"reportTime":"2026-04-09T13:00:00.000Z","temp":19.4,"dewp":-2.2,"wdir":100,"wspd":7,"visib":"10+","altim":1011.3,"slp":1009,"qcField":6,"metarType":"METAR","rawOb":"METAR KDVT 091253Z AUTO 10007KT 10SM CLR 19/M02 A2986 RMK AO2 SLP090 T01941022","lat":33.6902,"lon":-112.0662,"elev":454,"name":"Phoenix/Deer Valley Arpt, AZ, US","cover":"CLR","clouds":[],"fltCat":"VFR"},{"icaoId":"KPRC","receiptTime":"2026-04-09T12:57:05.443Z","obsTime":1775739180,"reportTime":"2026-04-09T13:00:00.000Z","temp":10,"dewp":-2.8,"wdir":190,"wspd":7,"visib":"10+","altim":1017.4,"slp":1010.6,"qcField":4,"metarType":"METAR","rawOb":"METAR KPRC 091253Z 19007KT 10SM CLR 10/M03 A3004 RMK AO2 SLP106 T01001028","lat":34.6491,"lon":-112.4223,"elev":1528,"name":"Prescott/Love Fld, AZ, US","cover":"CLR","clouds":[],"fltCat":"VFR"},{"icaoId":"KSAD","receiptTime":"2026-04-09T12:54:10.421Z","obsTime":1775739060,"reportTime":"2026-04-09T13:00:00.000Z","temp":10.6,"dewp":-6.7,"wdir":350,"wspd":6,"visib":"10+","altim":1014.3,"slp":1010.4,"qcField":6,"metarType":"METAR","rawOb":"METAR KSAD 091251Z AUTO 35006KT 10SM CLR 11/M07 A2995 RMK AO2 SLP104 T01061067","lat":32.8565,"lon":-109.636,"elev":937,"name":"Safford Rgnl, AZ, US","cover":"CLR","clouds":[],"fltCat":"VFR"},{"icaoId":"KIWA","receiptTime":"2026-04-09T12:53:36.659Z","obsTime":1775739060,"reportTime":"2026-04-09T13:00:00.000Z","temp":19,"dewp":-2,"wdir":110,"wspd":7,"visib":"10+","altim":1012.3,"qcField":0,"metarType":"METAR","rawOb":"METAR KIWA 091251Z 11007KT 10SM CLR 19/M02 A2989","lat":33.3008,"lon":-111.6437,"elev":420,"name":"Phoenix/Mesa Gateway Arpt, AZ, US","cover":"CLR","clouds":[],"fltCat":"VFR"},{"icaoId":"KIGM","receiptTime":"2026-04-09T12:54:10.118Z","obsTime":1775739060,"reportTime":"2026-04-09T13:00:00.000Z","temp":15.6,"dewp":-3.3,"wdir":130,"wspd":12,"visib":"10+","altim":1013.3,"slp":1007,"qcField":6,"metarType":"METAR","rawOb":"METAR KIGM 091251Z AUTO 13012KT 10SM CLR 16/M03 A2992 RMK AO2 SLP070 T01561033","lat":35.2575,"lon":-113.9341,"elev":1045,"name":"Kingman Arpt, AZ, US","cover":"CLR","clouds":[],"fltCat":"VFR"},{"icaoId":"KPHX","receiptTime":"2026-04-09T12:54:10.290Z","obsTime":1775739060,"reportTime":"2026-04-09T13:00:00.000Z","temp":20.6,"dewp":0.6,"wdir":110,"wspd":5,"visib":"10+","altim":1010.6,"slp":1008.7,"qcField":4,"metarType":"METAR","rawOb":"METAR KPHX 091251Z 11005KT 10SM FEW270 21/01 A2984 RMK AO2 SLP087 T02060006","lat":33.4278,"lon":-112.0037,"elev":338,"name":"Phoenix/Sky Harbor Intl, AZ, US","cover":"FEW","clouds":[{"cover":"FEW","base":27000}],"fltCat":"VFR"},{"icaoId":"KCHD","receiptTime":"2026-04-09T12:47:32.067Z","obsTime":1775738820,"reportTime":"2026-04-09T13:00:00.000Z","temp":18,"dewp":1,"wdir":0,"wspd":0,"visib":"10+","altim":1011.3,"qcField":0,"metarType":"METAR","rawOb":"METAR KCHD 091247Z 00000KT 10SM CLR 18/01 A2986","lat":33.2669,"lon":-111.8086,"elev":378,"name":"Chandler Muni, AZ, US","cover":"CLR","clouds":[],"fltCat":"VFR"},{"icaoId":"KGEU","receiptTime":"2026-04-09T12:48:06.258Z","obsTime":1775738820,"reportTime":"2026-04-09T13:00:00.000Z","temp":19,"dewp":-2,"wdir":0,"wspd":0,"visib":"10+","altim":1009.9,"qcField":0,"metarType":"METAR","rawOb":"METAR KGEU 091247Z 00000KT 10SM CLR 19/M02 A2982 RMK FIRST","lat":33.528,"lon":-112.293,"elev":319,"name":"Glendale Muni, AZ, US","cover":"CLR","clouds":[],"fltCat":"VFR"},{"icaoId":"KRYN","receiptTime":"2026-04-09T12:46:52.431Z","obsTime":1775738700,"reportTime":"2026-04-09T13:00:00.000Z","temp":15,"dewp":-5,"wdir":110,"wspd":5,"visib":"10+","altim":1013.6,"qcField":0,"metarType":"METAR","rawOb":"METAR KRYN 091245Z 11005KT 10SM CLR 15/M05 A2993","lat":32.1418,"lon":-111.1767,"elev":731,"name":"Tucson/Ryan Fld, AZ, US","cover":"CLR","clouds":[],"fltCat":"VFR"},{"icaoId":"KNYL","receiptTime":"2026-04-09T12:00:25.115Z","obsTime":1775735820,"reportTime":"2026-04-09T12:00:00.000Z","temp":20.6,"dewp":2.2,"wdir":0,"wspd":0,"visib":"10+","altim":1008.9,"slp":1008.3,"qcField":6,"presTend":0.1,"maxT":26.1,"minT":20.6,"metarType":"METAR","rawOb":"METAR KNYL 091157Z AUTO 00000KT 10SM CLR 21/02 A2979 RMK AO2 SLP083 T02060022 10261 20206 53001","lat":32.66,"lon":-114.6078,"elev":58,"name":"Yuma , AZ, US","cover":"CLR","clouds":[],"fltCat":"VFR"}]