[{"icaoId":"KHII","receiptTime":"2026-04-08T05:20:20.384Z","obsTime":1775625300,"reportTime":"2026-04-08T05:15:00.000Z","temp":27,"dewp":-6,"wdir":0,"wspd":0,"visib":"10+","altim":1009.6,"qcField":6,"metarType":"METAR","rawOb":"METAR KHII 080515Z AUTO 00000KT 10SM CLR 27/M06 A2981 RMK AO2","lat":34.5659,"lon":-114.3522,"elev":241,"name":"Lake Havasu City Arpt, AZ, US","cover":"CLR","clouds":[],"fltCat":"VFR"},{"icaoId":"KCHD","receiptTime":"2026-04-08T05:18:17.324Z","obsTime":1775625300,"reportTime":"2026-04-08T05:15:00.000Z","temp":24,"dewp":2.7,"wdir":0,"wspd":0,"visib":"10+","altim":1010.9,"qcField":14,"metarType":"METAR","rawOb":"METAR KCHD 080515Z AUTO 00000KT 10SM CLR 24/03 A2985 RMK AO2 T02400027 $","lat":33.2669,"lon":-111.8086,"elev":378,"name":"Chandler Muni, AZ, US","cover":"CLR","clouds":[],"fltCat":"VFR"},{"icaoId":"KSOW","receiptTime":"2026-04-08T05:18:26.538Z","obsTime":1775625300,"reportTime":"2026-04-08T05:15:00.000Z","temp":8,"dewp":1,"wdir":180,"wspd":5,"visib":"10+","altim":1020.7,"qcField":6,"metarType":"METAR","rawOb":"METAR KSOW 080515Z AUTO 18005KT 10SM CLR 08/01 A3014 RMK AO2","lat":34.2686,"lon":-110.0019,"elev":1954,"name":"Show Low Muni, AZ, US","cover":"CLR","clouds":[],"fltCat":"VFR"},{"icaoId":"KSEZ","receiptTime":"2026-04-08T05:18:26.292Z","obsTime":1775625300,"reportTime":"2026-04-08T05:15:00.000Z","temp":19,"dewp":-6,"wdir":"VRB","wspd":4,"visib":"10+","altim":1017.4,"qcField":6,"metarType":"METAR","rawOb":"METAR KSEZ 080515Z AUTO VRB04KT 10SM CLR 19/M06 A3004 RMK AO2","lat":34.8467,"lon":-111.7884,"elev":1455,"name":"Sedona Arpt, AZ, US","cover":"CLR","clouds":[],"fltCat":"VFR"},{"icaoId":"KIFP","receiptTime":"2026-04-08T05:20:19.085Z","obsTime":1775625300,"reportTime":"2026-04-08T05:15:00.000Z","temp":28,"dewp":-7,"wdir":170,"wspd":5,"visib":"10+","altim":1008.9,"qcField":6,"metarType":"METAR","rawOb":"METAR KIFP 080515Z AUTO 17005KT 10SM CLR 28/M07 A2979 RMK AO2","lat":35.1487,"lon":-114.5611,"elev":210,"name":"Bullhead City Intl, AZ, US","cover":"CLR","clouds":[],"fltCat":"VFR"},{"icaoId":"KNYL","receiptTime":"2026-04-08T05:00:19.859Z","obsTime":1775624220,"reportTime":"2026-04-08T05:00:00.000Z","temp":25,"dewp":3.9,"wdir":210,"wspd":4,"visib":"10+","altim":1009.6,"slp":1009,"qcField":4,"metarType":"METAR","rawOb":"METAR KNYL 080457Z 21004KT 10SM CLR 25/04 A2981 RMK AO2 SLP090 T02500039","lat":32.66,"lon":-114.6078,"elev":58,"name":"Yuma , AZ, US","cover":"CLR","clouds":[],"fltCat":"VFR"},{"icaoId":"KFLG","receiptTime":"2026-04-08T05:00:20.615Z","obsTime":1775624220,"reportTime":"2026-04-08T05:00:00.000Z","temp":5,"dewp":-6.1,"wdir":0,"wspd":0,"visib":"10+","altim":1021.1,"slp":1014.3,"qcField":6,"metarType":"METAR","rawOb":"METAR KFLG 080457Z AUTO 00000KT 10SM CLR 05/M06 A3015 RMK AO2 SLP143 T00501061","lat":35.1443,"lon":-111.6664,"elev":2134,"name":"Flagstaff/Pulliam Arpt, AZ, US","cover":"CLR","clouds":[],"fltCat":"VFR"},{"icaoId":"KCGZ","receiptTime":"2026-04-08T04:58:25.864Z","obsTime":1775624160,"reportTime":"2026-04-08T05:00:00.000Z","temp":23.9,"dewp":-2.8,"wdir":0,"wspd":0,"visib":"10+","qcField":14,"metarType":"METAR","rawOb":"METAR KCGZ 080456Z AUTO 00000KT 10SM CLR 24/M03 RMK AO2 SLPNO T02391028 $","lat":32.9531,"lon":-111.7725,"elev":444,"name":"Casa Granda Muni, AZ, US","cover":"CLR","clouds":[],"fltCat":"VFR"},{"icaoId":"KDUG","receiptTime":"2026-04-08T05:02:10.913Z","obsTime":1775624160,"reportTime":"2026-04-08T05:00:00.000Z","temp":16.1,"dewp":2.2,"wdir":350,"wspd":7,"visib":"10+","altim":1016.7,"slp":1011.4,"qcField":38,"metarType":"METAR","rawOb":"METAR KDUG 080456Z AUTO 35007KT 10SM CLR 16/02 A3002 RMK AO2 SLP114 T01610022 TSNO","lat":31.4725,"lon":-109.6022,"elev":1260,"name":"Douglas/Bisbee Intl, AZ, US","cover":"CLR","clouds":[],"fltCat":"VFR"},{"icaoId":"KINW","receiptTime":"2026-04-08T05:00:18.101Z","obsTime":1775624160,"reportTime":"2026-04-08T05:00:00.000Z","temp":14.4,"dewp":5.6,"wdir":210,"wspd":15,"visib":"10+","altim":1017.4,"slp":1012.8,"qcField":6,"metarType":"METAR","rawOb":"METAR KINW 080456Z AUTO 21015KT 10SM CLR 14/06 A3004 RMK AO2 SLP128 T01440056","lat":35.0279,"lon":-110.7221,"elev":1492,"name":"Winslow/Lindberg Rgnl, AZ, US","cover":"CLR","clouds":[],"fltCat":"VFR"},{"icaoId":"KLUF","receiptTime":"2026-04-08T05:04:03.163Z","obsTime":1775624100,"reportTime":"2026-04-08T05:00:00.000Z","temp":27.2,"dewp":-2.6,"wdir":0,"wspd":0,"visib":"10+","altim":1009.6,"slp":1008.1,"qcField":12,"metarType":"METAR","rawOb":"METAR KLUF 080455Z 00000KT 10SM CLR 27/M03 A2981 RMK AO2A SLP081 T02721026 $","lat":33.538,"lon":-112.38,"elev":333,"name":"Phoenix/Luke AFB, AZ, US","cover":"CLR","clouds":[],"fltCat":"VFR"},{"icaoId":"KOLS","receiptTime":"2026-04-08T04:58:20.707Z","obsTime":1775624040,"reportTime":"2026-04-08T05:00:00.000Z","temp":16.1,"dewp":0,"wdir":80,"wspd":4,"visib":"10+","altim":1016.3,"slp":1011.1,"qcField":6,"metarType":"METAR","rawOb":"METAR KOLS 080454Z AUTO 08004KT 10SM CLR 16/00 A3001 RMK AO2 SLP111 T01610000","lat":31.4208,"lon":-110.8465,"elev":1194,"name":"Nogales Intl, AZ, US","cover":"CLR","clouds":[],"fltCat":"VFR"},{"icaoId":"KGCN","receiptTime":"2026-04-08T04:58:20.608Z","obsTime":1775624040,"reportTime":"2026-04-08T05:00:00.000Z","temp":3.3,"dewp":-3.3,"wdir":40,"wspd":3,"visib":"10+","altim":1020.4,"slp":1014.9,"qcField":6,"metarType":"METAR","rawOb":"METAR KGCN 080454Z AUTO 04003KT 10SM CLR 03/M03 A3013 RMK AO2 SLP149 T00331033","lat":35.9458,"lon":-112.1554,"elev":1993,"name":"Grand Canyon Park Arpt, AZ, US","cover":"CLR","clouds":[],"fltCat":"VFR"},{"icaoId":"KSJN","receiptTime":"2026-04-08T04:58:12.843Z","obsTime":1775624040,"reportTime":"2026-04-08T05:00:00.000Z","temp":11.7,"dewp":3.9,"wdir":180,"wspd":7,"visib":"10+","altim":1018.7,"slp":1013.2,"qcField":6,"metarType":"METAR","rawOb":"METAR KSJN 080454Z AUTO 18007KT 10SM CLR 12/04 A3008 RMK AO2 SLP132 T01170039","lat":34.5184,"lon":-109.3801,"elev":1747,"name":"St Johns Ind Arpt, AZ, US","cover":"CLR","clouds":[],"fltCat":"VFR"},{"icaoId":"KFFZ","receiptTime":"2026-04-08T05:00:19.883Z","obsTime":1775624040,"reportTime":"2026-04-08T05:00:00.000Z","temp":23.9,"dewp":3.9,"wdir":100,"wspd":4,"visib":"10+","altim":1010.6,"slp":1008.3,"qcField":46,"metarType":"METAR","rawOb":"METAR KFFZ 080454Z AUTO 10004KT 10SM CLR 24/04 A2984 RMK AO2 SLP083 T02390039 TSNO $","lat":33.4659,"lon":-111.7212,"elev":420,"name":"Mesa/Falcon Fld, AZ, US","cover":"CLR","clouds":[],"fltCat":"VFR"},{"icaoId":"KTUS","receiptTime":"2026-04-08T04:56:37.553Z","obsTime":1775623980,"reportTime":"2026-04-08T05:00:00.000Z","temp":22.2,"dewp":1.1,"wdir":140,"wspd":5,"visib":"10+","altim":1014.3,"slp":1010.4,"qcField":4,"metarType":"METAR","rawOb":"METAR KTUS 080453Z 14005KT 10SM CLR 22/01 A2995 RMK AO2 SLP104 T02220011","lat":32.1315,"lon":-110.9564,"elev":776,"name":"Tucson Intl Arpt, AZ, US","cover":"CLR","clouds":[],"fltCat":"VFR"},{"icaoId":"KPRC","receiptTime":"2026-04-08T04:56:37.021Z","obsTime":1775623980,"reportTime":"2026-04-08T05:00:00.000Z","temp":17.8,"dewp":-6.7,"wdir":220,"wspd":9,"visib":"10+","altim":1017.7,"slp":1010.9,"qcField":6,"metarType":"METAR","rawOb":"METAR KPRC 080453Z AUTO 22009KT 10SM CLR 18/M07 A3005 RMK AO2 SLP109 T01781067","lat":34.6491,"lon":-112.4223,"elev":1528,"name":"Prescott/Love Fld, AZ, US","cover":"CLR","clouds":[],"fltCat":"VFR"},{"icaoId":"KPGA","receiptTime":"2026-04-08T04:56:36.764Z","obsTime":1775623980,"reportTime":"2026-04-08T05:00:00.000Z","temp":21.7,"dewp":-12.2,"wdir":230,"wspd":3,"visib":"10+","altim":1014.3,"slp":1009,"qcField":14,"metarType":"METAR","rawOb":"METAR KPGA 080453Z AUTO 23003KT 10SM CLR 22/M12 A2995 RMK AO2 SLP090 T02171122 $","lat":36.9211,"lon":-111.4487,"elev":1310,"name":"Page Muni, AZ, US","cover":"CLR","clouds":[],"fltCat":"VFR"},{"icaoId":"KSDL","receiptTime":"2026-04-08T04:56:34.043Z","obsTime":1775623980,"reportTime":"2026-04-08T05:00:00.000Z","temp":26.1,"dewp":-0.6,"wdir":0,"wspd":0,"visib":"10+","altim":1011.3,"slp":1008.9,"qcField":6,"metarType":"METAR","rawOb":"METAR KSDL 080453Z AUTO 00000KT 10SM CLR 26/M01 A2986 RMK AO2 SLP089 T02611006","lat":33.6123,"lon":-111.9232,"elev":438,"name":"Scottsdale Muni, AZ, US","cover":"CLR","clouds":[],"fltCat":"VFR"},{"icaoId":"KDVT","receiptTime":"2026-04-08T04:56:39.924Z","obsTime":1775623980,"reportTime":"2026-04-08T05:00:00.000Z","temp":23.9,"dewp":-1.7,"wdir":0,"wspd":0,"visib":"10+","altim":1010.9,"slp":1008.8,"qcField":4,"metarType":"METAR","rawOb":"METAR KDVT 080453Z 00000KT 10SM CLR 24/M02 A2985 RMK AO2 SLP088 T02391017","lat":33.6902,"lon":-112.0662,"elev":454,"name":"Phoenix/Deer Valley Arpt, AZ, US","cover":"CLR","clouds":[],"fltCat":"VFR"},{"icaoId":"KIWA","receiptTime":"2026-04-08T04:53:06.262Z","obsTime":1775623920,"reportTime":"2026-04-08T05:00:00.000Z","temp":26,"dewp":0,"wdir":0,"wspd":0,"visib":"10+","altim":1011.3,"qcField":0,"metarType":"METAR","rawOb":"METAR KIWA 080452Z 00000KT 10SM CLR 26/00 A2986","lat":33.3008,"lon":-111.6437,"elev":420,"name":"Phoenix/Mesa Gateway Arpt, AZ, US","cover":"CLR","clouds":[],"fltCat":"VFR"},{"icaoId":"KSAD","receiptTime":"2026-04-08T04:54:07.034Z","obsTime":1775623860,"reportTime":"2026-04-08T05:00:00.000Z","temp":21.7,"dewp":3.9,"wdir":100,"wspd":5,"visib":"10+","altim":1014,"slp":1009.7,"qcField":6,"metarType":"METAR","rawOb":"METAR KSAD 080451Z AUTO 10005KT 10SM CLR 22/04 A2994 RMK AO2 SLP097 T02170039","lat":32.8565,"lon":-109.636,"elev":937,"name":"Safford Rgnl, AZ, US","cover":"CLR","clouds":[],"fltCat":"VFR"},{"icaoId":"KIGM","receiptTime":"2026-04-08T04:54:07.480Z","obsTime":1775623860,"reportTime":"2026-04-08T05:00:00.000Z","temp":20.6,"dewp":-8.3,"wdir":200,"wspd":11,"visib":"10+","altim":1014.6,"slp":1008.4,"qcField":6,"metarType":"METAR","rawOb":"METAR KIGM 080451Z AUTO 20011KT 10SM CLR 21/M08 A2996 RMK AO2 SLP084 T02061083","lat":35.2575,"lon":-113.9341,"elev":1045,"name":"Kingman Arpt, AZ, US","cover":"CLR","clouds":[],"fltCat":"VFR"},{"icaoId":"KPHX","receiptTime":"2026-04-08T04:54:06.875Z","obsTime":1775623860,"reportTime":"2026-04-08T05:00:00.000Z","temp":28.3,"dewp":-1.7,"wdir":0,"wspd":0,"visib":"10+","altim":1009.9,"slp":1008,"qcField":4,"metarType":"METAR","rawOb":"METAR KPHX 080451Z 00000KT 10SM CLR 28/M02 A2982 RMK AO2 SLP080 T02831017","lat":33.4278,"lon":-112.0037,"elev":338,"name":"Phoenix/Sky Harbor Intl, AZ, US","cover":"CLR","clouds":[],"fltCat":"VFR"}]