[{"icaoId":"KPAE","receiptTime":"2026-04-13T12:42:30.960Z","obsTime":1776084000,"reportTime":"2026-04-13T12:40:00.000Z","temp":7.8,"dewp":7.2,"wdir":60,"wspd":4,"visib":2,"altim":1014,"qcField":6,"wxString":"-RA BR","precip":0.06,"metarType":"SPECI","rawOb":"SPECI KPAE 131240Z AUTO 06004KT 2SM -RA BR OVC009 08/07 A2994 RMK AO2 CIG 004V013 P0006 T00780072","lat":47.9232,"lon":-122.2831,"elev":166,"name":"Everett/Paine Fld, WA, US","cover":"OVC","clouds":[{"cover":"OVC","base":900}],"fltCat":"IFR"},{"icaoId":"KMDW","receiptTime":"2026-04-13T12:42:30.935Z","obsTime":1776084000,"reportTime":"2026-04-13T12:40:00.000Z","temp":18.3,"dewp":16.7,"wdir":230,"wspd":11,"visib":"10+","altim":1013.3,"qcField":4,"wxString":"-DZ","precip":0.005,"metarType":"SPECI","rawOb":"SPECI KMDW 131240Z 23011KT 10SM -DZ BKN021 BKN027 OVC034 18/17 A2992 RMK AO2 DZB35 P0000 T01830167","lat":41.7841,"lon":-87.7552,"elev":186,"name":"Chicago/Midway Intl, IL, US","cover":"OVC","clouds":[{"cover":"BKN","base":2100},{"cover":"BKN","base":2700},{"cover":"OVC","base":3400}],"fltCat":"MVFR"},{"icaoId":"KRDD","receiptTime":"2026-04-13T12:42:04.703Z","obsTime":1776083880,"reportTime":"2026-04-13T12:38:00.000Z","temp":7.8,"dewp":6.7,"wdir":0,"wspd":0,"visib":"10+","altim":1018.7,"qcField":14,"metarType":"SPECI","rawOb":"SPECI KRDD 131238Z AUTO 00000KT 10SM SCT027 OVC050 08/07 A3008 RMK AO2 T00780067 $","lat":40.5146,"lon":-122.2977,"elev":152,"name":"Redding Muni, CA, US","cover":"OVC","clouds":[{"cover":"SCT","base":2700},{"cover":"OVC","base":5000}],"fltCat":"VFR"},{"icaoId":"KMYL","receiptTime":"2026-04-13T12:42:04.618Z","obsTime":1776083880,"reportTime":"2026-04-13T12:38:00.000Z","temp":0,"dewp":0,"wdir":170,"wspd":3,"visib":1,"altim":1009.6,"qcField":6,"wxString":"-SN BR","precip":0.04,"vertVis":11,"metarType":"SPECI","rawOb":"SPECI KMYL 131238Z AUTO 17003KT 1SM -SN BR VV011 00/00 A2981 RMK AO2 P0004 T00000000","lat":44.8943,"lon":-116.0998,"elev":1532,"name":"McCall Muni, ID, US","cover":"OVX","clouds":[{"cover":"OVX","base":1100}],"fltCat":"IFR"},{"icaoId":"KELY","receiptTime":"2026-04-13T12:40:17.485Z","obsTime":1776083820,"reportTime":"2026-04-13T12:37:00.000Z","temp":-8.9,"dewp":-10,"wdir":170,"wspd":12,"visib":8,"altim":1016.3,"qcField":14,"metarType":"SPECI","rawOb":"SPECI KELY 131237Z AUTO 17012KT 8SM SCT002 M09/M10 A3001 RMK AO2 I1000 T10891100 $","lat":39.2954,"lon":-114.8466,"elev":1906,"name":"Ely/Yelland Fld, NV, US","cover":"SCT","clouds":[{"cover":"SCT","base":200}],"fltCat":"VFR"},{"icaoId":"KSAN","receiptTime":"2026-04-13T12:40:17.556Z","obsTime":1776083820,"reportTime":"2026-04-13T12:37:00.000Z","temp":15.6,"dewp":11.7,"wdir":60,"wspd":3,"visib":"10+","altim":1017,"qcField":12,"metarType":"SPECI","rawOb":"SPECI KSAN 131237Z 06003KT 10SM BKN025 BKN034 OVC045 16/12 A3003 RMK AO2 T01560117 $","lat":32.7364,"lon":-117.1973,"elev":3,"name":"San Diego Intl Arpt, CA, US","cover":"OVC","clouds":[{"cover":"BKN","base":2500},{"cover":"BKN","base":3400},{"cover":"OVC","base":4500}],"fltCat":"MVFR"},{"icaoId":"KLRU","receiptTime":"2026-04-13T12:38:20.898Z","obsTime":1776083700,"reportTime":"2026-04-13T12:35:00.000Z","temp":11.8,"dewp":-0.8,"wdir":0,"wspd":0,"visib":"10+","altim":1020.1,"qcField":6,"metarType":"METAR","rawOb":"METAR KLRU 131235Z AUTO 00000KT 10SM SCT120 12/M01 A3012 RMK AO2 T01181008","lat":32.2884,"lon":-106.9131,"elev":1355,"name":"Las Cruces Intl, NM, US","cover":"SCT","clouds":[{"cover":"SCT","base":12000}],"fltCat":"VFR"},{"icaoId":"KMHR","receiptTime":"2026-04-13T12:40:10.726Z","obsTime":1776083700,"reportTime":"2026-04-13T12:35:00.000Z","temp":9,"dewp":9,"wdir":0,"wspd":0,"visib":2,"altim":1017.7,"qcField":6,"wxString":"BR","metarType":"METAR","rawOb":"METAR KMHR 131235Z AUTO 00000KT 2SM BR FEW035 OVC080 09/09 A3005 RMK AO2 VIS 3/4V5","lat":38.56,"lon":-121.284,"elev":30,"name":"Sacramento/Mather Fld, CA, US","cover":"OVC","clouds":[{"cover":"FEW","base":3500},{"cover":"OVC","base":8000}],"fltCat":"IFR"},{"icaoId":"KIFP","receiptTime":"2026-04-13T12:40:06.071Z","obsTime":1776083700,"reportTime":"2026-04-13T12:35:00.000Z","temp":17,"dewp":1,"wdir":220,"wspd":8,"visib":"10+","altim":1013,"qcField":6,"metarType":"METAR","rawOb":"METAR KIFP 131235Z AUTO 22008KT 10SM CLR 17/01 A2991 RMK AO2","lat":35.1487,"lon":-114.5611,"elev":210,"name":"Bullhead City Intl, AZ, US","cover":"CLR","clouds":[],"fltCat":"VFR"},{"icaoId":"KSUN","receiptTime":"2026-04-13T12:40:07.250Z","obsTime":1776083700,"reportTime":"2026-04-13T12:35:00.000Z","wdir":0,"wspd":0,"visib":"10+","altim":1014,"qcField":6,"metarType":"METAR","rawOb":"METAR KSUN 131235Z AUTO 00000KT 10SM OVC026 A2994 RMK AO2","lat":43.4969,"lon":-114.2923,"elev":1619,"name":"Hailey/Friedman Mem, ID, US","cover":"OVC","clouds":[{"cover":"OVC","base":2600}],"fltCat":"MVFR"},{"icaoId":"KCXP","receiptTime":"2026-04-13T12:40:13.141Z","obsTime":1776083700,"reportTime":"2026-04-13T12:35:00.000Z","temp":2,"dewp":1,"wdir":0,"wspd":0,"visib":"10+","altim":1017,"qcField":6,"metarType":"METAR","rawOb":"METAR KCXP 131235Z AUTO 00000KT 10SM FEW007 OVC060 02/01 A3003 RMK AO2","lat":39.1905,"lon":-119.7319,"elev":1431,"name":"Carson City Arpt, NV, US","cover":"OVC","clouds":[{"cover":"FEW","base":700},{"cover":"OVC","base":6000}],"fltCat":"VFR"},{"icaoId":"KHAF","receiptTime":"2026-04-13T12:38:23.179Z","obsTime":1776083700,"reportTime":"2026-04-13T12:35:00.000Z","temp":8,"dewp":8,"wdir":0,"wspd":0,"visib":5,"altim":1018,"qcField":6,"wxString":"BR","metarType":"METAR","rawOb":"METAR KHAF 131235Z AUTO 00000KT 5SM BR FEW095 08/08 A3006 RMK AO2","lat":37.5136,"lon":-122.4996,"elev":11,"name":"Half Moon Bay Arpt, CA, US","cover":"FEW","clouds":[{"cover":"FEW","base":9500}],"fltCat":"MVFR"},{"icaoId":"KSEZ","receiptTime":"2026-04-13T12:42:09.342Z","obsTime":1776083700,"reportTime":"2026-04-13T12:35:00.000Z","temp":9,"dewp":2,"wdir":0,"wspd":0,"visib":"10+","altim":1017.4,"qcField":6,"metarType":"METAR","rawOb":"METAR KSEZ 131235Z AUTO 00000KT 10SM SCT037 09/02 A3004 RMK AO2","lat":34.8467,"lon":-111.7884,"elev":1455,"name":"Sedona Arpt, AZ, US","cover":"SCT","clouds":[{"cover":"SCT","base":3700}],"fltCat":"VFR"},{"icaoId":"KHTH","receiptTime":"2026-04-13T12:40:14.051Z","obsTime":1776083700,"reportTime":"2026-04-13T12:35:00.000Z","temp":3,"dewp":-3,"wdir":0,"wspd":0,"visib":"10+","altim":1016.3,"qcField":6,"metarType":"METAR","rawOb":"METAR KHTH 131235Z AUTO 00000KT 10SM CLR 03/M03 A3001 RMK A01","lat":38.5448,"lon":-118.6314,"elev":1281,"name":"Hawthorne Muni, NV, US","cover":"CLR","clouds":[],"fltCat":"VFR"},{"icaoId":"KRTS","receiptTime":"2026-04-13T12:40:11.876Z","obsTime":1776083700,"reportTime":"2026-04-13T12:35:00.000Z","temp":-4,"dewp":-5,"wdir":310,"wspd":3,"visib":"10+","altim":1016.7,"qcField":6,"metarType":"METAR","rawOb":"METAR KRTS 131235Z AUTO 31003KT 10SM FEW032 M04/M05 A3002 RMK AO2","lat":39.6658,"lon":-119.8731,"elev":1537,"name":"Reno/Stead Arpt, NV, US","cover":"FEW","clouds":[{"cover":"FEW","base":3200}],"fltCat":"VFR"},{"icaoId":"KHII","receiptTime":"2026-04-13T12:42:12.948Z","obsTime":1776083700,"reportTime":"2026-04-13T12:35:00.000Z","temp":17,"dewp":7,"wdir":140,"wspd":8,"visib":"10+","altim":1013.3,"qcField":6,"metarType":"METAR","rawOb":"METAR KHII 131235Z AUTO 14008KT 10SM SCT085 17/07 A2992 RMK AO2","lat":34.5659,"lon":-114.3522,"elev":241,"name":"Lake Havasu City Arpt, AZ, US","cover":"SCT","clouds":[{"cover":"SCT","base":8500}],"fltCat":"VFR"},{"icaoId":"KBVU","receiptTime":"2026-04-13T12:36:10.730Z","obsTime":1776083700,"reportTime":"2026-04-13T12:35:00.000Z","temp":12,"dewp":-1,"wdir":0,"wspd":0,"visib":"10+","altim":1013,"qcField":6,"metarType":"METAR","rawOb":"METAR KBVU 131235Z AUTO 00000KT 10SM CLR 12/M01 A2991 RMK AO2","lat":35.9489,"lon":-114.8633,"elev":654,"name":"Boulder City Muni, NV, US","cover":"CLR","clouds":[],"fltCat":"VFR"},{"icaoId":"KHCR","receiptTime":"2026-04-13T12:38:21.828Z","obsTime":1776083700,"reportTime":"2026-04-13T12:35:00.000Z","temp":-0.6,"dewp":-1.1,"wdir":0,"wspd":0,"visib":"10+","altim":1015.7,"qcField":14,"metarType":"METAR","rawOb":"METAR KHCR 131235Z AUTO 00000KT 10SM CLR M01/M01 A2999 RMK AO2 T10061011 $","lat":40.4774,"lon":-111.4329,"elev":1708,"name":"Heber City Muni, UT, US","cover":"CLR","clouds":[],"fltCat":"VFR"},{"icaoId":"KSOW","receiptTime":"2026-04-13T12:38:20.536Z","obsTime":1776083700,"reportTime":"2026-04-13T12:35:00.000Z","temp":7,"dewp":2,"wdir":190,"wspd":14,"visib":"10+","altim":1019,"qcField":6,"metarType":"METAR","rawOb":"METAR KSOW 131235Z AUTO 19014KT 10SM SCT038 07/02 A3009 RMK AO2","lat":34.2686,"lon":-110.0019,"elev":1954,"name":"Show Low Muni, AZ, US","cover":"SCT","clouds":[{"cover":"SCT","base":3800}],"fltCat":"VFR"},{"icaoId":"KCHD","receiptTime":"2026-04-13T12:38:15.211Z","obsTime":1776083700,"reportTime":"2026-04-13T12:35:00.000Z","temp":18.1,"dewp":6.3,"wdir":0,"wspd":0,"visib":"10+","altim":1014.3,"qcField":14,"metarType":"METAR","rawOb":"METAR KCHD 131235Z AUTO 00000KT 10SM BKN130 BKN150 18/06 A2995 RMK AO2 T01810063 $","lat":33.2669,"lon":-111.8086,"elev":378,"name":"Chandler Muni, AZ, US","cover":"BKN","clouds":[{"cover":"BKN","base":13000},{"cover":"BKN","base":15000}],"fltCat":"VFR"},{"icaoId":"KBDL","receiptTime":"2026-04-13T12:36:11.354Z","obsTime":1776083580,"reportTime":"2026-04-13T12:33:00.000Z","temp":11.1,"dewp":6.7,"wdir":190,"wspd":10,"visib":"10+","altim":1019.7,"qcField":4,"metarType":"SPECI","rawOb":"SPECI KBDL 131233Z 19010KT 10SM OVC014 11/07 A3011 RMK AO2 T01110067","lat":41.9374,"lon":-72.682,"elev":52,"name":"Hartford/Bradley Intl, CT, US","cover":"OVC","clouds":[{"cover":"OVC","base":1400}],"fltCat":"MVFR"},{"icaoId":"KCRP","receiptTime":"2026-04-13T12:36:11.376Z","obsTime":1776083580,"reportTime":"2026-04-13T12:33:00.000Z","temp":23.3,"dewp":22.2,"wdir":150,"wspd":15,"visib":"10+","altim":1018,"qcField":4,"metarType":"SPECI","rawOb":"SPECI KCRP 131233Z 15015KT 10SM FEW010 FEW220 23/22 A3006 RMK AO2 T02330222","lat":27.7734,"lon":-97.513,"elev":11,"name":"Corpus Christi Intl, TX, US","cover":"FEW","clouds":[{"cover":"FEW","base":1000},{"cover":"FEW","base":22000}],"fltCat":"VFR"},{"icaoId":"KBRO","receiptTime":"2026-04-13T12:34:06.719Z","obsTime":1776083460,"reportTime":"2026-04-13T12:31:00.000Z","temp":25,"dewp":22.2,"wdir":150,"wspd":12,"visib":"10+","altim":1017.7,"qcField":4,"metarType":"SPECI","rawOb":"SPECI KBRO 131231Z 15012KT 10SM SCT012 BKN018 OVC038 25/22 A3005 RMK AO2 T02500222","lat":25.9146,"lon":-97.4231,"elev":6,"name":"Brownsville Intl, TX, US","cover":"OVC","clouds":[{"cover":"SCT","base":1200},{"cover":"BKN","base":1800},{"cover":"OVC","base":3800}],"fltCat":"MVFR"},{"icaoId":"KBLI","receiptTime":"2026-04-13T12:34:04.818Z","obsTime":1776083400,"reportTime":"2026-04-13T12:30:00.000Z","temp":9.4,"dewp":6.7,"wdir":180,"wspd":5,"visib":"10+","altim":1012.3,"qcField":6,"wxString":"-RA","precip":0.01,"metarType":"SPECI","rawOb":"SPECI KBLI 131230Z AUTO 18005KT 10SM -RA FEW028 BKN039 OVC049 09/07 A2989 RMK AO2 P0001 T00940067","lat":48.7991,"lon":-122.5407,"elev":46,"name":"Bellingham Intl, WA, US","cover":"OVC","clouds":[{"cover":"FEW","base":2800},{"cover":"BKN","base":3900},{"cover":"OVC","base":4900}],"fltCat":"VFR"},{"icaoId":"KACT","receiptTime":"2026-04-13T12:32:08.517Z","obsTime":1776083340,"reportTime":"2026-04-13T12:29:00.000Z","temp":21.7,"dewp":20,"wdir":160,"wspd":13,"visib":9,"altim":1018,"qcField":4,"metarType":"SPECI","rawOb":"SPECI KACT 131229Z 16013KT 9SM FEW007 BKN012 OVC021 22/20 A3006 RMK AO2 T02170200","lat":31.618,"lon":-97.2283,"elev":150,"name":"Waco Rgnl, TX, US","cover":"OVC","clouds":[{"cover":"FEW","base":700},{"cover":"BKN","base":1200},{"cover":"OVC","base":2100}],"fltCat":"MVFR"},{"icaoId":"KACV","receiptTime":"2026-04-13T12:32:07.989Z","obsTime":1776083280,"reportTime":"2026-04-13T12:28:00.000Z","temp":8.3,"dewp":7.8,"wdir":80,"wspd":3,"visib":"10+","altim":1019.4,"qcField":6,"metarType":"SPECI","rawOb":"SPECI KACV 131228Z AUTO 08003KT 10SM SCT008 OVC045 08/08 A3010 RMK AO2 T00830078","lat":40.9784,"lon":-124.1048,"elev":63,"name":"Arcata Arpt, CA, US","cover":"OVC","clouds":[{"cover":"SCT","base":800},{"cover":"OVC","base":4500}],"fltCat":"VFR"},{"icaoId":"KORD","receiptTime":"2026-04-13T12:30:14.227Z","obsTime":1776083220,"reportTime":"2026-04-13T12:27:00.000Z","temp":18.3,"dewp":16.7,"wdir":220,"wspd":9,"visib":9,"altim":1012.6,"qcField":4,"wxString":"-DZ","precip":0.005,"metarType":"SPECI","rawOb":"SPECI KORD 131227Z 22009KT 9SM -DZ BKN012 BKN019 OVC024 18/17 A2990 RMK AO2 DZB21 P0000 T01830167","lat":41.9602,"lon":-87.9316,"elev":202,"name":"Chicago/O'Hare Intl, IL, US","cover":"OVC","clouds":[{"cover":"BKN","base":1200},{"cover":"BKN","base":1900},{"cover":"OVC","base":2400}],"fltCat":"MVFR"},{"icaoId":"KSMF","receiptTime":"2026-04-13T12:30:07.147Z","obsTime":1776083160,"reportTime":"2026-04-13T12:26:00.000Z","temp":9.4,"dewp":8.3,"wdir":330,"wspd":6,"visib":6,"altim":1018.4,"qcField":12,"wxString":"BR","metarType":"SPECI","rawOb":"SPECI KSMF 131226Z 33006KT 6SM BR OVC005 09/08 A3007 RMK AO2 T00940083 $","lat":38.7007,"lon":-121.5948,"elev":7,"name":"Sacramento Intl, CA, US","cover":"OVC","clouds":[{"cover":"OVC","base":500}],"fltCat":"IFR"},{"icaoId":"KSPS","receiptTime":"2026-04-13T12:28:08.963Z","obsTime":1776083100,"reportTime":"2026-04-13T12:25:00.000Z","temp":20,"dewp":18.3,"wdir":190,"wspd":12,"visib":"10+","altim":1014.6,"qcField":4,"metarType":"SPECI","rawOb":"SPECI KSPS 131225Z 19012KT 10SM SCT022 20/18 A2996 RMK AO2 T02000183","lat":33.9785,"lon":-98.493,"elev":310,"name":"Wichita Falls Rgnl, TX, US","cover":"SCT","clouds":[{"cover":"SCT","base":2200}],"fltCat":"VFR"},{"icaoId":"KMLC","receiptTime":"2026-04-13T12:28:08.943Z","obsTime":1776083100,"reportTime":"2026-04-13T12:25:00.000Z","temp":20.6,"dewp":18.3,"visib":"10+","altim":1016.7,"qcField":6,"metarType":"SPECI","rawOb":"SPECI KMLC 131225Z AUTO 10SM OVC013 21/18 A3002 RMK AO2 T02060183","lat":34.8824,"lon":-95.7815,"elev":231,"name":"McAlester Rgnl, OK, US","cover":"OVC","clouds":[{"cover":"OVC","base":1300}],"fltCat":"MVFR"},{"icaoId":"KCLL","receiptTime":"2026-04-13T12:26:09.359Z","obsTime":1776082920,"reportTime":"2026-04-13T12:22:00.000Z","temp":21.7,"dewp":20.6,"wdir":150,"wspd":7,"visib":9,"altim":1019.4,"qcField":6,"metarType":"SPECI","rawOb":"SPECI KCLL 131222Z AUTO 15007KT 9SM BKN013 OVC018 22/21 A3010 RMK AO2 T02170206","lat":30.5912,"lon":-96.3631,"elev":96,"name":"College Station/Easterwood Arpt, TX, US","cover":"OVC","clouds":[{"cover":"BKN","base":1300},{"cover":"OVC","base":1800}],"fltCat":"MVFR"},{"icaoId":"KBOI","receiptTime":"2026-04-13T12:26:09.637Z","obsTime":1776082920,"reportTime":"2026-04-13T12:22:00.000Z","temp":6.7,"dewp":2.8,"wdir":200,"wspd":9,"visib":8,"altim":1012.3,"qcField":4,"wxString":"-RA","precip":0.02,"metarType":"SPECI","rawOb":"SPECI KBOI 131222Z 20009KT 8SM -RA OVC029 07/03 A2989 RMK AO2 P0002 T00670028","lat":43.567,"lon":-116.2406,"elev":860,"name":"Boise Arpt, ID, US","cover":"OVC","clouds":[{"cover":"OVC","base":2900}],"fltCat":"MVFR"},{"icaoId":"KSLE","receiptTime":"2026-04-13T12:26:09.663Z","obsTime":1776082920,"reportTime":"2026-04-13T12:22:00.000Z","temp":8.9,"dewp":7.8,"wdir":0,"wspd":0,"visib":"10+","altim":1017.4,"qcField":6,"metarType":"SPECI","rawOb":"SPECI KSLE 131222Z AUTO 00000KT 10SM FEW022 OVC028 09/08 A3004 RMK AO2 T00890078","lat":44.9049,"lon":-123.001,"elev":63,"name":"Salem Muni, OR, US","cover":"OVC","clouds":[{"cover":"FEW","base":2200},{"cover":"OVC","base":2800}],"fltCat":"MVFR"},{"icaoId":"KEVW","receiptTime":"2026-04-13T12:24:05.557Z","obsTime":1776082800,"reportTime":"2026-04-13T12:20:00.000Z","temp":-3.3,"dewp":-3.9,"wdir":220,"wspd":9,"visib":"10+","altim":1015.3,"qcField":14,"metarType":"SPECI","rawOb":"SPECI KEVW 131220Z AUTO 22009KT 10SM SCT012 M03/M04 A2998 RMK AO2 T10331039 $","lat":41.2727,"lon":-111.0305,"elev":2178,"name":"Evanston/Uinta Cnty, WY, US","cover":"SCT","clouds":[{"cover":"SCT","base":1200}],"fltCat":"VFR"},{"icaoId":"KBJC","receiptTime":"2026-04-13T12:20:27.411Z","obsTime":1776082500,"reportTime":"2026-04-13T12:15:00.000Z","temp":10,"dewp":-8,"wdir":0,"wspd":0,"visib":"10+","altim":1011.3,"qcField":6,"metarType":"METAR","rawOb":"METAR KBJC 131215Z AUTO 00000KT 10SM CLR 10/M08 A2986 RMK AO2","lat":39.9008,"lon":-105.1042,"elev":1694,"name":"Rocky Mtn Metro, CO, US","cover":"CLR","clouds":[],"fltCat":"VFR"},{"icaoId":"KFLG","receiptTime":"2026-04-13T12:18:14.621Z","obsTime":1776082500,"reportTime":"2026-04-13T12:15:00.000Z","temp":2.8,"dewp":-0.6,"wdir":260,"wspd":6,"visib":"10+","altim":1017.7,"qcField":14,"metarType":"SPECI","rawOb":"SPECI KFLG 131215Z AUTO 26006KT 10SM BKN023 03/M01 A3005 RMK AO2 T00281006 $","lat":35.1443,"lon":-111.6664,"elev":2134,"name":"Flagstaff/Pulliam Arpt, AZ, US","cover":"BKN","clouds":[{"cover":"BKN","base":2300}],"fltCat":"MVFR"},{"icaoId":"KHOU","receiptTime":"2026-04-13T12:18:04.588Z","obsTime":1776082440,"reportTime":"2026-04-13T12:14:00.000Z","temp":22.8,"dewp":21.1,"wdir":170,"wspd":7,"visib":7,"altim":1019.7,"qcField":12,"metarType":"SPECI","rawOb":"SPECI KHOU 131214Z 17007KT 7SM BKN012 BKN025 OVC100 23/21 A3011 RMK AO2 T02280211 $","lat":29.6458,"lon":-95.2821,"elev":13,"name":"Houston/Hobby Arpt, TX, US","cover":"OVC","clouds":[{"cover":"BKN","base":1200},{"cover":"BKN","base":2500},{"cover":"OVC","base":10000}],"fltCat":"MVFR"},{"icaoId":"KCEC","receiptTime":"2026-04-13T12:16:06.681Z","obsTime":1776082320,"reportTime":"2026-04-13T12:12:00.000Z","temp":7.2,"dewp":6.7,"wdir":90,"wspd":5,"visib":"10+","altim":1020.1,"qcField":6,"metarType":"SPECI","rawOb":"SPECI KCEC 131212Z AUTO 09005KT 10SM OVC030 07/07 A3012 RMK AO2 T00720067","lat":41.7836,"lon":-124.238,"elev":17,"name":"Crescent City/McNama, CA, US","cover":"OVC","clouds":[{"cover":"OVC","base":3000}],"fltCat":"MVFR"},{"icaoId":"KSEA","receiptTime":"2026-04-13T12:14:15.042Z","obsTime":1776082260,"reportTime":"2026-04-13T12:11:00.000Z","temp":8.9,"dewp":6.1,"wdir":190,"wspd":14,"visib":"10+","altim":1014,"qcField":4,"metarType":"SPECI","rawOb":"SPECI KSEA 131211Z 19014KT 10SM SCT019 OVC035 09/06 A2994 RMK AO2 T00890061","lat":47.4447,"lon":-122.3144,"elev":115,"name":"Seattle-Tacoma Intl, WA, US","cover":"OVC","clouds":[{"cover":"SCT","base":1900},{"cover":"OVC","base":3500}],"fltCat":"VFR"},{"icaoId":"KMEV","receiptTime":"2026-04-13T12:40:11.534Z","obsTime":1776081900,"reportTime":"2026-04-13T12:05:00.000Z","temp":0,"dewp":0,"wdir":0,"wspd":0,"visib":"10+","altim":1016.3,"qcField":6,"metarType":"METAR","rawOb":"METAR KMEV 131205Z AUTO 00000KT 10SM OVC005 00/00 A3001 RMK AO2","lat":38.9963,"lon":-119.75,"elev":1437,"name":"Minden-Tahoe Arpt, NV, US","cover":"OVC","clouds":[{"cover":"OVC","base":500}],"fltCat":"IFR"},{"icaoId":"KLAW","receiptTime":"2026-04-13T12:06:07.927Z","obsTime":1776081780,"reportTime":"2026-04-13T12:03:00.000Z","temp":20,"dewp":18.3,"wdir":170,"wspd":8,"visib":"10+","altim":1014.6,"qcField":14,"metarType":"SPECI","rawOb":"SPECI KLAW 131203Z AUTO 17008KT 10SM OVC014 20/18 A2996 RMK AO2 T02000183 $","lat":34.5577,"lon":-98.4172,"elev":328,"name":"Lawton-Fort Sill Rgnl, OK, US","cover":"OVC","clouds":[{"cover":"OVC","base":1400}],"fltCat":"MVFR"},{"icaoId":"KSAT","receiptTime":"2026-04-13T12:04:06.697Z","obsTime":1776081600,"reportTime":"2026-04-13T12:00:00.000Z","temp":21.7,"dewp":21.1,"wdir":130,"wspd":8,"visib":8,"altim":1017.7,"qcField":12,"metarType":"SPECI","rawOb":"SPECI KSAT 131200Z 13008KT 8SM SCT008 BKN014 OVC020 22/21 A3005 RMK AO2 T02170211 $","lat":29.5443,"lon":-98.4839,"elev":246,"name":"San Antonio Intl, TX, US","cover":"OVC","clouds":[{"cover":"SCT","base":800},{"cover":"BKN","base":1400},{"cover":"OVC","base":2000}],"fltCat":"MVFR"},{"icaoId":"KNFL","receiptTime":"2026-04-13T12:00:25.405Z","obsTime":1776081420,"reportTime":"2026-04-13T12:00:00.000Z","temp":0.6,"dewp":-1.1,"wdir":160,"wspd":3,"visib":"10+","altim":1016,"slp":1012.8,"qcField":14,"presTend":-0.3,"maxT":6.7,"minT":0.6,"metarType":"METAR","rawOb":"METAR KNFL 131157Z AUTO 16003KT 10SM CLR 01/M01 A3000 RMK AO2 SLP128 6//// 7//// T00061011 10067 20006 55003 PNO $","lat":39.417,"lon":-118.705,"elev":1199,"name":"Fallon , NV, US","cover":"CLR","clouds":[],"fltCat":"VFR"},{"icaoId":"KNYL","receiptTime":"2026-04-13T12:00:25.467Z","obsTime":1776081420,"reportTime":"2026-04-13T12:00:00.000Z","temp":17.8,"dewp":9.4,"wdir":0,"wspd":0,"visib":"10+","altim":1014,"slp":1013.7,"qcField":6,"presTend":-0.3,"maxT":20,"minT":17.8,"metarType":"METAR","rawOb":"METAR KNYL 131157Z AUTO 00000KT 10SM CLR 18/09 A2994 RMK AO2 SLP137 T01780094 10200 20178 55003","lat":32.66,"lon":-114.6078,"elev":58,"name":"Yuma , AZ, US","cover":"CLR","clouds":[],"fltCat":"VFR"},{"icaoId":"KGUC","receiptTime":"2026-04-13T11:58:23.429Z","obsTime":1776081360,"reportTime":"2026-04-13T12:00:00.000Z","temp":0,"dewp":-7.2,"wdir":110,"wspd":7,"visib":"10+","altim":1017.7,"slp":1014.1,"qcField":78,"presTend":0.7,"maxT":6.7,"minT":-1.1,"metarType":"METAR","rawOb":"METAR KGUC 131156Z AUTO 11007KT 10SM CLR 00/M07 A3005 RMK AO2 SLP141 T00001072 10067 21011 53007 FZRANO $","lat":38.5322,"lon":-106.9419,"elev":2337,"name":"Gunnison Arpt, CO, US","cover":"CLR","clouds":[],"fltCat":"VFR"},{"icaoId":"KHDN","receiptTime":"2026-04-13T11:58:23.527Z","obsTime":1776081360,"reportTime":"2026-04-13T12:00:00.000Z","temp":5.6,"dewp":-5.6,"wdir":280,"wspd":7,"visib":"10+","altim":1014.3,"slp":1009,"qcField":6,"presTend":0.9,"maxT":10,"minT":5,"pcp6hr":0.005,"metarType":"METAR","rawOb":"METAR KHDN 131156Z AUTO 28007KT 10SM FEW090 06/M06 A2995 RMK AO2 SLP090 60000 T00561056 10100 20050 53009","lat":40.4842,"lon":-107.2296,"elev":2012,"name":"Hayden/Yampa Valley Arpt, CO, US","cover":"FEW","clouds":[{"cover":"FEW","base":9000}],"fltCat":"VFR"},{"icaoId":"KCOD","receiptTime":"2026-04-13T11:58:22.664Z","obsTime":1776081360,"reportTime":"2026-04-13T12:00:00.000Z","temp":6.1,"dewp":-2.8,"wdir":250,"wspd":10,"wgst":24,"visib":"10+","altim":1008.5,"slp":1006.6,"qcField":14,"presTend":0.8,"maxT":8.3,"minT":5.6,"precip":0.005,"pcp6hr":0.005,"metarType":"METAR","rawOb":"METAR KCOD 131156Z AUTO 25010G24KT 10SM FEW050 SCT075 OVC100 06/M03 A2978 RMK AO2 PK WND 26028/1130 RAB25E46 SLP066 P0000 60000 T00611028 10083 20056 53008 $","lat":44.52,"lon":-109.0268,"elev":1550,"name":"Cody/Yellowstone Rgnl, WY, US","cover":"OVC","clouds":[{"cover":"FEW","base":5000},{"cover":"SCT","base":7500},{"cover":"OVC","base":10000}],"fltCat":"VFR"},{"icaoId":"KCGZ","receiptTime":"2026-04-13T11:58:22.503Z","obsTime":1776081360,"reportTime":"2026-04-13T12:00:00.000Z","temp":18.9,"dewp":5,"visib":"10+","qcField":14,"maxT":20,"minT":17.8,"metarType":"METAR","rawOb":"METAR KCGZ 131156Z AUTO 10SM FEW110 19/05 RMK AO2 SLPNO 6//// 7//// T01890050 10200 20178 $","lat":32.9531,"lon":-111.7725,"elev":444,"name":"Casa Granda Muni, AZ, US","cover":"FEW","clouds":[{"cover":"FEW","base":11000}],"fltCat":"VFR"},{"icaoId":"KLAS","receiptTime":"2026-04-13T12:00:18.426Z","obsTime":1776081360,"reportTime":"2026-04-13T12:00:00.000Z","temp":12.8,"dewp":1.1,"wdir":210,"wspd":10,"visib":"10+","altim":1013,"slp":1011.9,"qcField":4,"presTend":-0.6,"maxT":16.7,"minT":12.8,"metarType":"METAR","rawOb":"METAR KLAS 131156Z 21010KT 10SM FEW140 FEW180 13/01 A2991 RMK AO2 SLP119 T01280011 10167 20128 56006","lat":36.0719,"lon":-115.1634,"elev":662,"name":"Las Vegas/Reid Intl, NV, US","cover":"FEW","clouds":[{"cover":"FEW","base":14000},{"cover":"FEW","base":18000}],"fltCat":"VFR"},{"icaoId":"KHND","receiptTime":"2026-04-13T11:58:23.601Z","obsTime":1776081360,"reportTime":"2026-04-13T12:00:00.000Z","temp":11.7,"dewp":0.6,"wdir":170,"wspd":9,"visib":"10+","altim":1014,"slp":1014.6,"qcField":12,"presTend":0.1,"maxT":15.6,"minT":10.6,"metarType":"METAR","rawOb":"METAR KHND 131156Z 17009KT 10SM CLR 12/01 A2994 RMK AO2 SLP146 T01170006 10156 20106 52001 $","lat":35.9657,"lon":-115.1343,"elev":740,"name":"Henderson Exec, NV, US","cover":"CLR","clouds":[],"fltCat":"VFR"},{"icaoId":"KEGE","receiptTime":"2026-04-13T11:58:28.688Z","obsTime":1776081360,"reportTime":"2026-04-13T12:00:00.000Z","temp":8.3,"dewp":-7.2,"wdir":240,"wspd":11,"visib":"10+","altim":1015.3,"slp":1009.7,"qcField":6,"presTend":0.8,"maxT":11.7,"minT":8.3,"metarType":"METAR","rawOb":"METAR KEGE 131156Z AUTO 24011KT 10SM CLR 08/M07 A2998 RMK AO2 SLP097 T00831072 10117 20083 53008","lat":39.6448,"lon":-106.9176,"elev":1993,"name":"Eagle Cnty Rgnl, CO, US","cover":"CLR","clouds":[],"fltCat":"VFR"},{"icaoId":"KINW","receiptTime":"2026-04-13T12:00:12.467Z","obsTime":1776081360,"reportTime":"2026-04-13T12:00:00.000Z","temp":5.6,"dewp":0.6,"wdir":0,"wspd":0,"visib":"10+","altim":1017,"slp":1013.3,"qcField":6,"presTend":0.2,"maxT":12.8,"minT":5,"metarType":"METAR","rawOb":"METAR KINW 131156Z AUTO 00000KT 10SM CLR 06/01 A3003 RMK AO2 SLP133 T00560006 10128 20050 53002","lat":35.0279,"lon":-110.7221,"elev":1492,"name":"Winslow/Lindberg Rgnl, AZ, US","cover":"CLR","clouds":[],"fltCat":"VFR"},{"icaoId":"KJAX","receiptTime":"2026-04-13T12:00:20.220Z","obsTime":1776081360,"reportTime":"2026-04-13T12:00:00.000Z","temp":13.3,"dewp":12.2,"wdir":0,"wspd":0,"visib":7,"altim":1027.2,"slp":1027,"qcField":12,"presTend":1.2,"maxT":14.4,"minT":11.7,"metarType":"METAR","rawOb":"METAR KJAX 131156Z 00000KT 7SM FEW001 SCT032 BKN250 13/12 A3033 RMK AO2 SLP270 T01330122 10144 20117 53012 $","lat":30.4953,"lon":-81.6937,"elev":8,"name":"Jacksonville Intl, FL, US","cover":"BKN","clouds":[{"cover":"FEW","base":100},{"cover":"SCT","base":3200},{"cover":"BKN","base":25000}],"fltCat":"VFR"},{"icaoId":"KPVU","receiptTime":"2026-04-13T11:58:25.240Z","obsTime":1776081360,"reportTime":"2026-04-13T12:00:00.000Z","temp":3.9,"dewp":2.8,"wdir":100,"wspd":3,"visib":"10+","altim":1016,"slp":1013.7,"qcField":6,"presTend":0.2,"maxT":7.8,"minT":3.9,"pcp6hr":0.15,"pcp24hr":0.15,"metarType":"METAR","rawOb":"METAR KPVU 131156Z AUTO 10003KT 10SM CLR 04/03 A3000 RMK AO2 SLP137 60015 70015 T00390028 10078 20039 52002","lat":40.224,"lon":-111.7252,"elev":1370,"name":"Provo Muni, UT, US","cover":"CLR","clouds":[],"fltCat":"VFR"},{"icaoId":"KJAC","receiptTime":"2026-04-13T11:58:28.149Z","obsTime":1776081360,"reportTime":"2026-04-13T12:00:00.000Z","temp":-0.6,"dewp":-2.8,"wdir":190,"wspd":5,"visib":"10+","altim":1013.3,"slp":1014.9,"qcField":70,"presTend":1.5,"maxT":0,"minT":-0.6,"pcp6hr":0.03,"pcp24hr":0.16,"metarType":"METAR","rawOb":"METAR KJAC 131156Z AUTO 19005KT 10SM FEW032 OVC040 M01/M03 A2992 RMK AO2 SLP149 60003 70016 T10061028 10000 21006 53015 FZRANO","lat":43.6129,"lon":-110.7366,"elev":1967,"name":"Jackson Hole Arpt, WY, US","cover":"OVC","clouds":[{"cover":"FEW","base":3200},{"cover":"OVC","base":4000}],"fltCat":"VFR"},{"icaoId":"KENV","receiptTime":"2026-04-13T11:58:28.831Z","obsTime":1776081360,"reportTime":"2026-04-13T12:00:00.000Z","temp":2.2,"dewp":-2.2,"wdir":0,"wspd":0,"visib":"10+","altim":1015.7,"slp":1015.9,"qcField":70,"presTend":0.6,"maxT":7.2,"minT":2.2,"metarType":"METAR","rawOb":"METAR KENV 131156Z AUTO 00000KT 10SM CLR 02/M02 A2999 RMK AO2 SLP159 T00221022 10072 20022 51006 FZRANO","lat":40.7211,"lon":-114.0312,"elev":1291,"name":"Wendover Arpt, UT, US","cover":"CLR","clouds":[],"fltCat":"VFR"},{"icaoId":"KFNL","receiptTime":"2026-04-13T11:58:29.065Z","obsTime":1776081360,"reportTime":"2026-04-13T12:00:00.000Z","temp":15.6,"dewp":-8.3,"wdir":280,"wspd":12,"visib":"10+","altim":1009.9,"slp":1003.5,"qcField":14,"presTend":1.3,"maxT":16.7,"minT":8.9,"metarType":"METAR","rawOb":"METAR KFNL 131156Z AUTO 28012KT 10SM CLR 16/M08 A2982 RMK AO2 SLP035 T01561083 10167 20089 53013 $","lat":40.4427,"lon":-105.0097,"elev":1529,"name":"Fort Collins/N Colorado Rgnl, CO, US","cover":"CLR","clouds":[],"fltCat":"VFR"},{"icaoId":"KEKO","receiptTime":"2026-04-13T12:00:13.436Z","obsTime":1776081360,"reportTime":"2026-04-13T12:00:00.000Z","temp":1.1,"dewp":0.6,"wdir":0,"wspd":0,"visib":"10+","altim":1015.7,"slp":1015.3,"qcField":6,"maxT":3.3,"minT":0.6,"pcp6hr":0.01,"pcp24hr":0.07,"metarType":"METAR","rawOb":"METAR KEKO 131156Z AUTO 00000KT 10SM OVC060 01/01 A2999 RMK AO2 SLP153 60001 70007 T00110006 10033 20006 58000","lat":40.824,"lon":-115.7863,"elev":1541,"name":"Elko Rgnl, NV, US","cover":"OVC","clouds":[{"cover":"OVC","base":6000}],"fltCat":"VFR"},{"icaoId":"KUKI","receiptTime":"2026-04-13T12:00:20.135Z","obsTime":1776081360,"reportTime":"2026-04-13T12:00:00.000Z","temp":6.1,"dewp":5.6,"wdir":0,"wspd":0,"visib":"10+","altim":1019,"slp":1018.5,"qcField":6,"presTend":0.7,"maxT":8.3,"minT":5,"pcp24hr":0.5,"metarType":"METAR","rawOb":"METAR KUKI 131156Z AUTO 00000KT 10SM OVC016 06/06 A3009 RMK AO2 SLP185 70050 T00610056 10083 20050 53007","lat":39.1278,"lon":-123.2001,"elev":183,"name":"Ukiah Muni, CA, US","cover":"OVC","clouds":[{"cover":"OVC","base":1600}],"fltCat":"MVFR"},{"icaoId":"KSBP","receiptTime":"2026-04-13T12:00:15.960Z","obsTime":1776081360,"reportTime":"2026-04-13T12:00:00.000Z","temp":7.2,"dewp":6.1,"wdir":0,"wspd":0,"visib":"10+","altim":1017.7,"slp":1017.8,"qcField":6,"presTend":-0.2,"maxT":10,"minT":6.7,"pcp24hr":0.05,"metarType":"METAR","rawOb":"METAR KSBP 131156Z AUTO 00000KT 10SM CLR 07/06 A3005 RMK AO2 SLP178 70005 T00720061 10100 20067 55002","lat":35.2381,"lon":-120.644,"elev":52,"name":"San Luis Obispo/San Luis Cnty, CA, US","cover":"CLR","clouds":[],"fltCat":"VFR"},{"icaoId":"KTPH","receiptTime":"2026-04-13T12:00:20.123Z","obsTime":1776081360,"reportTime":"2026-04-13T12:00:00.000Z","temp":-1.7,"dewp":-6.7,"wdir":0,"wspd":0,"visib":"10+","altim":1015,"slp":1014.1,"qcField":6,"presTend":0.2,"maxT":5.6,"minT":-1.7,"pcp24hr":0.01,"metarType":"METAR","rawOb":"METAR KTPH 131156Z AUTO 00000KT 10SM CLR M02/M07 A2997 RMK AO2 SLP141 70001 T10171067 10056 21017 53002","lat":38.0505,"lon":-117.0906,"elev":1647,"name":"Tonopah Arpt, NV, US","cover":"CLR","clouds":[],"fltCat":"VFR"},{"icaoId":"KSDF","receiptTime":"2026-04-13T12:00:15.994Z","obsTime":1776081360,"reportTime":"2026-04-13T12:00:00.000Z","temp":22.8,"dewp":12.2,"wdir":220,"wspd":11,"wgst":19,"visib":"10+","altim":1019.7,"slp":1019.1,"qcField":4,"presTend":1.5,"maxT":25,"minT":22.2,"metarType":"METAR","rawOb":"METAR KSDF 131156Z 22011G19KT 10SM SCT065 BKN120 BKN200 OVC300 23/12 A3011 RMK AO2 SLP191 T02280122 10250 20222 53015","lat":38.1774,"lon":-85.7308,"elev":146,"name":"Louisville Intl, KY, US","cover":"OVC","clouds":[{"cover":"SCT","base":6500},{"cover":"BKN","base":12000},{"cover":"BKN","base":20000},{"cover":"OVC","base":30000}],"fltCat":"VFR"},{"icaoId":"KCHS","receiptTime":"2026-04-13T12:00:12.240Z","obsTime":1776081360,"reportTime":"2026-04-13T12:00:00.000Z","temp":16.1,"dewp":16.1,"wdir":0,"wspd":0,"visib":"10+","altim":1028.2,"slp":1028,"qcField":4,"presTend":1.4,"maxT":17.2,"minT":13.9,"metarType":"METAR","rawOb":"METAR KCHS 131156Z 00000KT 10SM FEW250 16/16 A3036 RMK AO2 SLP280 T01610161 10172 20139 53014","lat":32.8995,"lon":-80.0407,"elev":12,"name":"Charleston Intl, SC, US","cover":"FEW","clouds":[{"cover":"FEW","base":25000}],"fltCat":"VFR"},{"icaoId":"KSFO","receiptTime":"2026-04-13T12:00:20.094Z","obsTime":1776081360,"reportTime":"2026-04-13T12:00:00.000Z","temp":10,"dewp":9.4,"wdir":280,"wspd":5,"visib":"10+","altim":1017.7,"slp":1017.6,"qcField":12,"presTend":-0.1,"maxT":12.2,"minT":10,"pcp24hr":0.14,"metarType":"METAR","rawOb":"METAR KSFO 131156Z 28005KT 10SM FEW007 SCT022 BKN120 10/09 A3005 RMK AO2 SLP176 70014 T01000094 10122 20100 55001 $","lat":37.6196,"lon":-122.3656,"elev":2,"name":"San Francisco Intl, CA, US","cover":"BKN","clouds":[{"cover":"FEW","base":700},{"cover":"SCT","base":2200},{"cover":"BKN","base":12000}],"fltCat":"VFR"},{"icaoId":"KRDM","receiptTime":"2026-04-13T12:00:20.082Z","obsTime":1776081360,"reportTime":"2026-04-13T12:00:00.000Z","temp":3.3,"dewp":0.6,"wdir":0,"wspd":0,"visib":"10+","altim":1013,"slp":1013.2,"qcField":6,"presTend":1.3,"maxT":7.2,"minT":3.3,"metarType":"METAR","rawOb":"METAR KRDM 131156Z AUTO 00000KT 10SM CLR 03/01 A2991 RMK AO2 SLP132 T00330006 10072 20033 53013","lat":44.2558,"lon":-121.1407,"elev":930,"name":"Redmond Muni, OR, US","cover":"CLR","clouds":[],"fltCat":"VFR"},{"icaoId":"KPWT","receiptTime":"2026-04-13T11:58:24.651Z","obsTime":1776081360,"reportTime":"2026-04-13T12:00:00.000Z","temp":7.8,"dewp":7.2,"wdir":190,"wspd":4,"visib":"10+","altim":1013.6,"slp":1014.1,"qcField":6,"presTend":1.3,"maxT":8.3,"minT":7.8,"precip":0.005,"pcp6hr":0.005,"metarType":"METAR","rawOb":"METAR KPWT 131156Z AUTO 19004KT 10SM OVC018 08/07 A2993 RMK AO2 RAB24E36 SLP141 P0000 60000 7//// T00780072 10083 20078 53013","lat":47.4942,"lon":-122.7594,"elev":143,"name":"Bremerton Arpt, WA, US","cover":"OVC","clouds":[{"cover":"OVC","base":1800}],"fltCat":"MVFR"},{"icaoId":"KCOE","receiptTime":"2026-04-13T11:58:23.958Z","obsTime":1776081360,"reportTime":"2026-04-13T12:00:00.000Z","temp":7.2,"dewp":7.2,"wdir":160,"wspd":11,"visib":"10+","altim":1006.9,"slp":1008.4,"qcField":14,"wxString":"-RA","presTend":1,"maxT":9.4,"minT":7.2,"metarType":"METAR","rawOb":"METAR KCOE 131156Z AUTO 16011KT 10SM -RA OVC016 07/07 A2973 RMK AO2 SLP084 6//// 7//// T00720072 10094 20072 53010 PNO $","lat":47.7719,"lon":-116.8332,"elev":693,"name":"Coeur DAlene Arpt, ID, US","cover":"OVC","clouds":[{"cover":"OVC","base":1600}],"fltCat":"MVFR"},{"icaoId":"KVIS","receiptTime":"2026-04-13T11:58:27.495Z","obsTime":1776081360,"reportTime":"2026-04-13T12:00:00.000Z","temp":10.6,"dewp":8.3,"wdir":260,"wspd":3,"visib":"10+","altim":1017.7,"slp":1017.4,"qcField":14,"presTend":0.2,"maxT":12.8,"minT":10,"metarType":"METAR","rawOb":"METAR KVIS 131156Z AUTO 26003KT 10SM OVC050 11/08 A3005 RMK AO2 SLP174 6//// 7//// T01060083 10128 20100 53002 PNO $","lat":36.3135,"lon":-119.3884,"elev":92,"name":"Visalia Muni, CA, US","cover":"OVC","clouds":[{"cover":"OVC","base":5000}],"fltCat":"VFR"},{"icaoId":"KLWS","receiptTime":"2026-04-13T12:00:20.066Z","obsTime":1776081360,"reportTime":"2026-04-13T12:00:00.000Z","temp":7.2,"dewp":5,"wdir":190,"wspd":9,"visib":8,"altim":1008.5,"slp":1008.6,"qcField":6,"wxString":"RA","presTend":1.6,"maxT":10,"minT":7.2,"precip":0.07,"pcp6hr":0.16,"pcp24hr":0.97,"metarType":"METAR","rawOb":"METAR KLWS 131156Z AUTO 19009KT 8SM RA OVC043 07/05 A2978 RMK AO2 SLP086 P0007 60016 70097 T00720050 10100 20072 53016","lat":46.3746,"lon":-117.0153,"elev":435,"name":"Lewiston/Nez Perce Cnty, ID, US","cover":"OVC","clouds":[{"cover":"OVC","base":4300}],"fltCat":"VFR"},{"icaoId":"KDUG","receiptTime":"2026-04-13T12:02:15.082Z","obsTime":1776081360,"reportTime":"2026-04-13T12:00:00.000Z","temp":16.1,"dewp":1.7,"wdir":190,"wspd":8,"visib":"10+","altim":1019,"slp":1013.7,"qcField":38,"presTend":-0.6,"maxT":18.9,"minT":16.1,"metarType":"METAR","rawOb":"METAR KDUG 131156Z AUTO 19008KT 10SM CLR 16/02 A3009 RMK AO2 SLP137 T01610017 10189 20161 55006 TSNO","lat":31.4725,"lon":-109.6022,"elev":1260,"name":"Douglas/Bisbee Intl, AZ, US","cover":"CLR","clouds":[],"fltCat":"VFR"},{"icaoId":"KSGU","receiptTime":"2026-04-13T11:58:29.493Z","obsTime":1776081360,"reportTime":"2026-04-13T12:00:00.000Z","temp":12.8,"dewp":2.8,"wdir":130,"wspd":7,"visib":"10+","altim":1013.6,"slp":1011.6,"qcField":6,"presTend":0.4,"maxT":17.2,"minT":12.8,"metarType":"METAR","rawOb":"METAR KSGU 131156Z AUTO 13007KT 10SM BKN100 13/03 A2993 RMK AO2 SLP116 T01280028 10172 20128 53004","lat":37.0444,"lon":-113.5034,"elev":877,"name":"Saint George Muni, UT, US","cover":"BKN","clouds":[{"cover":"BKN","base":10000}],"fltCat":"VFR"},{"icaoId":"KADM","receiptTime":"2026-04-13T12:00:13.389Z","obsTime":1776081300,"reportTime":"2026-04-13T12:00:00.000Z","temp":22,"dewp":20,"wdir":180,"wspd":8,"visib":"10+","altim":1015.7,"qcField":6,"metarType":"METAR","rawOb":"METAR KADM 131155Z AUTO 18008KT 10SM OVC018 22/20 A2999 RMK AO2","lat":34.3007,"lon":-97.0089,"elev":223,"name":"Ardmore Muni, OK, US","cover":"OVC","clouds":[{"cover":"OVC","base":1800}],"fltCat":"MVFR"},{"icaoId":"KAEG","receiptTime":"2026-04-13T12:05:59.693Z","obsTime":1776081300,"reportTime":"2026-04-13T12:00:00.000Z","temp":10,"dewp":0,"wdir":220,"wspd":5,"visib":"10+","altim":1019,"qcField":0,"metarType":"METAR","rawOb":"METAR KAEG 131155Z 22005KT 10SM CLR 10/00 A3009","lat":35.15,"lon":-106.7929,"elev":1771,"name":"Albuquerque/Double Eagle Arpt, NM, US","cover":"CLR","clouds":[],"fltCat":"VFR"},{"icaoId":"KCMA","receiptTime":"2026-04-13T11:58:22.635Z","obsTime":1776081300,"reportTime":"2026-04-13T12:00:00.000Z","temp":8.3,"dewp":7.2,"wdir":0,"wspd":0,"visib":"10+","altim":1016.3,"slp":1017.1,"qcField":6,"presTend":-0.7,"maxT":13.3,"minT":8.3,"metarType":"METAR","rawOb":"METAR KCMA 131155Z AUTO 00000KT 10SM CLR 08/07 A3001 RMK AO2 SLP171 T00830072 10133 20083 56007","lat":34.2114,"lon":-119.0876,"elev":20,"name":"Camarillo Arpt, CA, US","cover":"CLR","clouds":[],"fltCat":"VFR"},{"icaoId":"KAST","receiptTime":"2026-04-13T11:58:23.872Z","obsTime":1776081300,"reportTime":"2026-04-13T12:00:00.000Z","temp":8.3,"dewp":6.7,"wdir":170,"wspd":3,"visib":"10+","altim":1016.3,"slp":1016.2,"qcField":6,"presTend":1.1,"maxT":9.4,"minT":8.3,"pcp6hr":0.03,"pcp24hr":0.03,"metarType":"METAR","rawOb":"METAR KAST 131155Z AUTO 17003KT 10SM OVC040 08/07 A3001 RMK AO2 SLP162 60003 70003 T00830067 10094 20083 51011","lat":46.157,"lon":-123.8833,"elev":3,"name":"Astoria Rgnl, OR, US","cover":"OVC","clouds":[{"cover":"OVC","base":4000}],"fltCat":"VFR"},{"icaoId":"KEND","receiptTime":"2026-04-13T12:02:17.969Z","obsTime":1776081300,"reportTime":"2026-04-13T12:00:00.000Z","temp":20.5,"dewp":18.8,"wdir":190,"wspd":19,"visib":"10+","altim":1009.9,"slp":1008.7,"qcField":12,"presTend":0.3,"maxT":21.1,"minT":20.4,"pcp24hr":0.01,"metarType":"METAR","rawOb":"METAR KEND 131155Z 19019KT 10SM SCT015 21/19 A2982 RMK AO2A SLP087 70001 T02050188 10211 20204 53003 $","lat":36.338,"lon":-97.919,"elev":392,"name":"Enid/Vance AFB, OK, US","cover":"SCT","clouds":[{"cover":"SCT","base":1500}],"fltCat":"VFR"},{"icaoId":"KRNO","receiptTime":"2026-04-13T11:58:29.192Z","obsTime":1776081300,"reportTime":"2026-04-13T12:00:00.000Z","temp":2.2,"dewp":0,"wdir":0,"wspd":0,"visib":"10+","altim":1016.3,"slp":1015.7,"qcField":4,"presTend":0.3,"maxT":3.9,"minT":2.2,"pcp24hr":0.01,"metarType":"METAR","rawOb":"METAR KRNO 131155Z 00000KT 10SM SCT050 BKN070 02/00 A3001 RMK AO2 SLP157 70001 T00220000 10039 20022 50003","lat":39.5077,"lon":-119.7683,"elev":1344,"name":"Reno/Tahoe Intl, NV, US","cover":"BKN","clouds":[{"cover":"SCT","base":5000},{"cover":"BKN","base":7000}],"fltCat":"VFR"},{"icaoId":"KOLM","receiptTime":"2026-04-13T11:58:15.375Z","obsTime":1776081240,"reportTime":"2026-04-13T12:00:00.000Z","temp":7.8,"dewp":6.1,"wdir":210,"wspd":7,"visib":8,"altim":1015,"slp":1015,"qcField":14,"presTend":1.3,"maxT":9.4,"minT":7.8,"metarType":"METAR","rawOb":"METAR KOLM 131154Z AUTO 21007KT 8SM BKN030 OVC035 08/06 A2997 RMK AO2 SLP150 T00780061 10094 20078 50013 $","lat":46.9737,"lon":-122.9049,"elev":58,"name":"Olympia Rgnl, WA, US","cover":"OVC","clouds":[{"cover":"BKN","base":3000},{"cover":"OVC","base":3500}],"fltCat":"MVFR"},{"icaoId":"KAPC","receiptTime":"2026-04-13T11:58:14.185Z","obsTime":1776081240,"reportTime":"2026-04-13T12:00:00.000Z","temp":7.2,"dewp":7.2,"wdir":0,"wspd":0,"visib":9,"altim":1018.4,"slp":1017.2,"qcField":6,"presTend":0.2,"maxT":11.1,"minT":6.7,"pcp6hr":0.01,"pcp24hr":0.19,"metarType":"METAR","rawOb":"METAR KAPC 131154Z AUTO 00000KT 9SM FEW050 07/07 A3007 RMK AO2 SLP172 60001 70019 T00720072 10111 20067 53002","lat":38.2075,"lon":-122.2804,"elev":5,"name":"Napa Cnty Arpt, CA, US","cover":"FEW","clouds":[{"cover":"FEW","base":5000}],"fltCat":"VFR"},{"icaoId":"KGSO","receiptTime":"2026-04-13T11:58:10.730Z","obsTime":1776081240,"reportTime":"2026-04-13T12:00:00.000Z","temp":16.1,"dewp":12.2,"wdir":220,"wspd":7,"visib":"10+","altim":1026.8,"slp":1026.1,"qcField":4,"presTend":1.4,"maxT":19.4,"minT":15.6,"metarType":"METAR","rawOb":"METAR KGSO 131154Z 22007KT 10SM OVC250 16/12 A3032 RMK AO2 SLP261 T01610122 10194 20156 53014","lat":36.0969,"lon":-79.9432,"elev":275,"name":"Greensboro Intl, NC, US","cover":"OVC","clouds":[{"cover":"OVC","base":25000}],"fltCat":"VFR"},{"icaoId":"KBOS","receiptTime":"2026-04-13T11:58:14.333Z","obsTime":1776081240,"reportTime":"2026-04-13T12:00:00.000Z","temp":10.6,"dewp":6.1,"wdir":210,"wspd":18,"wgst":27,"visib":"10+","altim":1019.4,"slp":1019.3,"qcField":4,"presTend":-1.6,"maxT":11.1,"minT":6.7,"pcp6hr":0.005,"pcp24hr":0.03,"metarType":"METAR","rawOb":"METAR KBOS 131154Z 21018G27KT 10SM BKN025 OVC030 11/06 A3010 RMK AO2 PK WND 21027/1146 SLP193 60000 70003 T01060061 10111 20067 56016","lat":42.3606,"lon":-71.0097,"elev":4,"name":"Boston/Logan Intl, MA, US","cover":"OVC","clouds":[{"cover":"BKN","base":2500},{"cover":"OVC","base":3000}],"fltCat":"MVFR"},{"icaoId":"KBTV","receiptTime":"2026-04-13T11:58:10.606Z","obsTime":1776081240,"reportTime":"2026-04-13T12:00:00.000Z","temp":11.1,"dewp":3.3,"wdir":190,"wspd":26,"wgst":38,"visib":"10+","altim":1011.9,"slp":1012.1,"qcField":4,"presTend":-1.4,"maxT":11.1,"minT":8.3,"pcp24hr":0.31,"metarType":"METAR","rawOb":"METAR KBTV 131154Z 19026G38KT 10SM OVC110 11/03 A2988 RMK AO2 PK WND 19042/1126 SLP121 70031 T01110033 10111 20083 56014","lat":44.4682,"lon":-73.1499,"elev":101,"name":"Burlington Intl, VT, US","cover":"OVC","clouds":[{"cover":"OVC","base":11000}],"fltCat":"VFR"},{"icaoId":"KBWI","receiptTime":"2026-04-13T11:58:14.366Z","obsTime":1776081240,"reportTime":"2026-04-13T12:00:00.000Z","temp":17.2,"dewp":14.4,"wdir":220,"wspd":5,"visib":"10+","altim":1021.1,"slp":1021,"qcField":4,"presTend":0.1,"maxT":17.2,"minT":12.2,"metarType":"METAR","rawOb":"METAR KBWI 131154Z 22005KT 10SM FEW110 SCT180 BKN210 BKN250 17/14 A3015 RMK AO2 SLP210 T01720144 10172 20122 53001","lat":39.1733,"lon":-76.684,"elev":42,"name":"Baltimore-Washington Intl, MD, US","cover":"BKN","clouds":[{"cover":"FEW","base":11000},{"cover":"SCT","base":18000},{"cover":"BKN","base":21000},{"cover":"BKN","base":25000}],"fltCat":"VFR"},{"icaoId":"KCOS","receiptTime":"2026-04-13T11:58:10.642Z","obsTime":1776081240,"reportTime":"2026-04-13T12:00:00.000Z","temp":8.9,"dewp":-10.6,"wdir":60,"wspd":7,"visib":"10+","altim":1013,"slp":1006.6,"qcField":4,"presTend":0.8,"maxT":15.6,"minT":7.8,"metarType":"METAR","rawOb":"METAR KCOS 131154Z 06007KT 10SM BKN250 09/M11 A2991 RMK AO2 SLP066 T00891106 10156 20078 53008","lat":38.8095,"lon":-104.6887,"elev":1886,"name":"Colorado Spring Arpt, CO, US","cover":"BKN","clouds":[{"cover":"BKN","base":25000}],"fltCat":"VFR"},{"icaoId":"KDSM","receiptTime":"2026-04-13T11:58:10.694Z","obsTime":1776081240,"reportTime":"2026-04-13T12:00:00.000Z","temp":18.3,"dewp":16.7,"wdir":160,"wspd":7,"visib":"10+","altim":1008.9,"slp":1008.3,"qcField":4,"presTend":0.6,"maxT":18.3,"minT":16.1,"pcp24hr":0.12,"metarType":"METAR","rawOb":"METAR KDSM 131154Z 16007KT 130V190 10SM OVC017 18/17 A2979 RMK AO2 SLP083 BINOVC 70012 T01830167 10183 20161 52006","lat":41.5339,"lon":-93.6531,"elev":286,"name":"Des Moines Intl, IA, US","cover":"OVC","clouds":[{"cover":"OVC","base":1700}],"fltCat":"MVFR"},{"icaoId":"KROC","receiptTime":"2026-04-13T11:58:19.065Z","obsTime":1776081240,"reportTime":"2026-04-13T12:00:00.000Z","temp":17.8,"dewp":8.9,"wdir":240,"wspd":9,"visib":"10+","altim":1011.3,"slp":1011.2,"qcField":4,"presTend":-1.2,"maxT":18.3,"minT":17.2,"metarType":"METAR","rawOb":"METAR KROC 131154Z 24009KT 10SM BKN110 OVC140 18/09 A2986 RMK AO2 SLP112 T01780089 10183 20172 56012","lat":43.1172,"lon":-77.6754,"elev":166,"name":"Rochester Intl Arpt, NY, US","cover":"OVC","clouds":[{"cover":"BKN","base":11000},{"cover":"OVC","base":14000}],"fltCat":"VFR"},{"icaoId":"KSJN","receiptTime":"2026-04-13T11:58:16.543Z","obsTime":1776081240,"reportTime":"2026-04-13T12:00:00.000Z","temp":7.2,"dewp":1.1,"wdir":220,"wspd":6,"visib":"10+","altim":1018.4,"slp":1012.2,"qcField":6,"maxT":12.8,"minT":5.6,"metarType":"METAR","rawOb":"METAR KSJN 131154Z AUTO 22006KT 10SM CLR 07/01 A3007 RMK AO2 SLP122 T00720011 10128 20056 56000","lat":34.5184,"lon":-109.3801,"elev":1747,"name":"St Johns Ind Arpt, AZ, US","cover":"CLR","clouds":[],"fltCat":"VFR"},{"icaoId":"KSLC","receiptTime":"2026-04-13T11:58:16.560Z","obsTime":1776081240,"reportTime":"2026-04-13T12:00:00.000Z","temp":3.3,"dewp":2.2,"wdir":130,"wspd":7,"visib":"10+","altim":1016,"slp":1014.2,"qcField":12,"presTend":0.7,"maxT":3.9,"minT":2.8,"pcp6hr":0.13,"pcp24hr":0.24,"metarType":"METAR","rawOb":"METAR KSLC 131154Z 13007KT 10SM FEW031 03/02 A3000 RMK AO2 SLP142 60013 70024 T00330022 10039 20028 53007 $","lat":40.7707,"lon":-111.965,"elev":1286,"name":"Salt Lake City Intl, UT, US","cover":"FEW","clouds":[{"cover":"FEW","base":3100}],"fltCat":"VFR"},{"icaoId":"KRKS","receiptTime":"2026-04-13T11:58:16.285Z","obsTime":1776081240,"reportTime":"2026-04-13T12:00:00.000Z","temp":1.1,"dewp":-1.7,"wdir":260,"wspd":20,"wgst":27,"visib":"10+","altim":1014,"slp":1010.5,"qcField":6,"presTend":1.8,"maxT":6.7,"minT":1.1,"metarType":"METAR","rawOb":"METAR KRKS 131154Z AUTO 26020G27KT 10SM SCT017 BKN060 BKN090 01/M02 A2994 RMK AO2 PK WND 26027/1151 SLP105 T00111017 10067 20011 53018","lat":41.5947,"lon":-109.0529,"elev":2062,"name":"Rock Springs/SW Wyoming Rgnl, WY, US","cover":"BKN","clouds":[{"cover":"SCT","base":1700},{"cover":"BKN","base":6000},{"cover":"BKN","base":9000}],"fltCat":"VFR"},{"icaoId":"KOLS","receiptTime":"2026-04-13T11:58:18.724Z","obsTime":1776081240,"reportTime":"2026-04-13T12:00:00.000Z","temp":16.7,"dewp":1.1,"wdir":180,"wspd":9,"visib":"10+","altim":1018,"slp":1012.9,"qcField":6,"presTend":-0.2,"maxT":17.8,"minT":15,"pcp6hr":0.005,"pcp24hr":0.03,"metarType":"METAR","rawOb":"METAR KOLS 131154Z AUTO 18009KT 10SM FEW080 17/01 A3006 RMK AO2 SLP129 60000 70003 T01670011 10178 20150 56002","lat":31.4208,"lon":-110.8465,"elev":1194,"name":"Nogales Intl, AZ, US","cover":"FEW","clouds":[{"cover":"FEW","base":8000}],"fltCat":"VFR"},{"icaoId":"KRIC","receiptTime":"2026-04-13T11:58:12.348Z","obsTime":1776081240,"reportTime":"2026-04-13T12:00:00.000Z","temp":17.2,"dewp":15,"wdir":200,"wspd":12,"wgst":20,"visib":"10+","altim":1025.1,"slp":1025.6,"qcField":12,"presTend":1.2,"maxT":17.8,"minT":15.6,"metarType":"METAR","rawOb":"METAR KRIC 131154Z 20012G20KT 10SM SCT014 SCT250 BKN300 17/15 A3027 RMK AO2 SLP256 T01720150 10178 20156 53012 $","lat":37.5115,"lon":-77.3234,"elev":51,"name":"Richmond Intl, VA, US","cover":"BKN","clouds":[{"cover":"SCT","base":1400},{"cover":"SCT","base":25000},{"cover":"BKN","base":30000}],"fltCat":"VFR"},{"icaoId":"KEUG","receiptTime":"2026-04-13T11:58:15.324Z","obsTime":1776081240,"reportTime":"2026-04-13T12:00:00.000Z","temp":8.9,"dewp":7.2,"wdir":210,"wspd":5,"visib":"10+","altim":1018.4,"slp":1018.2,"qcField":6,"presTend":1,"maxT":10,"minT":8.9,"pcp24hr":0.05,"metarType":"METAR","rawOb":"METAR KEUG 131154Z AUTO 21005KT 10SM FEW040 SCT050 OVC060 09/07 A3007 RMK AO2 CIG 043 RNW 34 SLP182 70005 T00890072 10100 20089 53010","lat":44.1331,"lon":-123.2156,"elev":109,"name":"Eugene/Mahlon Sweet Fld, OR, US","cover":"OVC","clouds":[{"cover":"FEW","base":4000},{"cover":"SCT","base":5000},{"cover":"OVC","base":6000}],"fltCat":"VFR"},{"icaoId":"KIND","receiptTime":"2026-04-13T11:58:17.662Z","obsTime":1776081240,"reportTime":"2026-04-13T12:00:00.000Z","temp":20,"dewp":13.3,"wdir":220,"wspd":12,"visib":"10+","altim":1017,"slp":1016.3,"qcField":12,"presTend":1.8,"maxT":22.8,"minT":18.3,"pcp6hr":0.005,"metarType":"METAR","rawOb":"METAR KIND 131154Z 22012KT 10SM BKN037 BKN050 BKN070 20/13 A3003 RMK AO2 SLP163 60000 T02000133 10228 20183 53018 PNO $","lat":39.7252,"lon":-86.2816,"elev":242,"name":"Indianapolis Intl, IN, US","cover":"BKN","clouds":[{"cover":"BKN","base":3700},{"cover":"BKN","base":5000},{"cover":"BKN","base":7000}],"fltCat":"VFR"},{"icaoId":"KGCN","receiptTime":"2026-04-13T11:58:17.312Z","obsTime":1776081240,"reportTime":"2026-04-13T12:00:00.000Z","temp":2.2,"dewp":-3.3,"wdir":0,"wspd":0,"visib":"10+","altim":1017.7,"slp":1013.1,"qcField":6,"presTend":-0.2,"maxT":5,"minT":1.7,"metarType":"METAR","rawOb":"METAR KGCN 131154Z AUTO 00000KT 10SM OVC049 02/M03 A3005 RMK AO2 SLP131 T00221033 10050 20017 56002","lat":35.9458,"lon":-112.1554,"elev":1993,"name":"Grand Canyon Park Arpt, AZ, US","cover":"OVC","clouds":[{"cover":"OVC","base":4900}],"fltCat":"VFR"},{"icaoId":"KBFL","receiptTime":"2026-04-13T11:58:14.276Z","obsTime":1776081240,"reportTime":"2026-04-13T12:00:00.000Z","temp":10,"dewp":7.2,"wdir":330,"wspd":4,"visib":"10+","altim":1017,"slp":1016.7,"qcField":14,"maxT":12.8,"minT":10,"pcp24hr":0.09,"metarType":"METAR","rawOb":"METAR KBFL 131154Z AUTO 33004KT 10SM OVC085 10/07 A3003 RMK AO2 SLP167 70009 T01000072 10128 20100 55000 $","lat":35.4342,"lon":-119.0552,"elev":146,"name":"Bakersfield/Meadows Arpt, CA, US","cover":"OVC","clouds":[{"cover":"OVC","base":8500}],"fltCat":"VFR"},{"icaoId":"KPHL","receiptTime":"2026-04-13T11:58:18.821Z","obsTime":1776081240,"reportTime":"2026-04-13T12:00:00.000Z","temp":15.6,"dewp":12.8,"wdir":200,"wspd":7,"visib":"10+","altim":1021.4,"slp":1021.4,"qcField":12,"presTend":-0.6,"maxT":15.6,"minT":10,"metarType":"METAR","rawOb":"METAR KPHL 131154Z 20007KT 10SM FEW018 SCT065 BKN110 BKN200 BKN300 16/13 A3016 RMK AO2 SLP214 T01560128 10156 20100 56006 $","lat":39.8733,"lon":-75.2268,"elev":2,"name":"Philadelphia Intl, PA, US","cover":"BKN","clouds":[{"cover":"FEW","base":1800},{"cover":"SCT","base":6500},{"cover":"BKN","base":11000},{"cover":"BKN","base":20000}],"fltCat":"VFR"},{"icaoId":"KBUF","receiptTime":"2026-04-13T11:58:19.040Z","obsTime":1776081240,"reportTime":"2026-04-13T12:00:00.000Z","temp":13.9,"dewp":11.1,"wdir":210,"wspd":15,"wgst":26,"visib":8,"altim":1011.3,"slp":1011.1,"qcField":12,"wxString":"-RA","presTend":-0.2,"maxT":20,"minT":12.2,"precip":0.005,"pcp6hr":0.005,"metarType":"METAR","rawOb":"METAR KBUF 131154Z 21015G26KT 8SM -RA BKN055 OVC100 14/11 A2986 RMK AO2 PK WND 24032/1105 SLP111 P0000 60000 T01390111 10200 20122 55002 $","lat":42.94,"lon":-78.7361,"elev":217,"name":"Buffalo-Niagara Intl, NY, US","cover":"OVC","clouds":[{"cover":"BKN","base":5500},{"cover":"OVC","base":10000}],"fltCat":"VFR"},{"icaoId":"KSYR","receiptTime":"2026-04-13T11:58:18.911Z","obsTime":1776081240,"reportTime":"2026-04-13T12:00:00.000Z","temp":16.7,"dewp":7.8,"wdir":200,"wspd":9,"visib":"10+","altim":1012.6,"slp":1012.2,"qcField":12,"presTend":-0.9,"maxT":16.7,"minT":15.6,"precip":0.005,"pcp6hr":0.005,"metarType":"METAR","rawOb":"METAR KSYR 131154Z 20009KT 10SM BKN090 BKN120 17/08 A2990 RMK AO2 RAB26E37 SLP122 P0000 60000 T01670078 10167 20156 58009 $","lat":43.1111,"lon":-76.1038,"elev":125,"name":"Syracuse/Hancock Intl, NY, US","cover":"BKN","clouds":[{"cover":"BKN","base":9000},{"cover":"BKN","base":12000}],"fltCat":"VFR"},{"icaoId":"KMEM","receiptTime":"2026-04-13T11:58:18.379Z","obsTime":1776081240,"reportTime":"2026-04-13T12:00:00.000Z","temp":20.6,"dewp":15,"wdir":190,"wspd":8,"visib":"10+","altim":1021.1,"slp":1020.5,"qcField":4,"presTend":1.1,"maxT":23.9,"minT":20.6,"metarType":"METAR","rawOb":"METAR KMEM 131154Z 19008KT 10SM FEW050 SCT100 OVC170 21/15 A3015 RMK AO2 SLP205 T02060150 10239 20206 53011","lat":35.0564,"lon":-89.9864,"elev":78,"name":"Memphis Intl, TN, US","cover":"OVC","clouds":[{"cover":"FEW","base":5000},{"cover":"SCT","base":10000},{"cover":"OVC","base":17000}],"fltCat":"VFR"},{"icaoId":"KFFZ","receiptTime":"2026-04-13T11:58:17.181Z","obsTime":1776081240,"reportTime":"2026-04-13T12:00:00.000Z","temp":18.3,"dewp":5.6,"wdir":120,"wspd":5,"visib":"10+","altim":1014,"slp":1011.9,"qcField":6,"presTend":-0.9,"maxT":20.6,"minT":17.2,"metarType":"METAR","rawOb":"METAR KFFZ 131154Z AUTO 12005KT 10SM CLR 18/06 A2994 RMK AO2 SLP119 T01830056 10206 20172 56009","lat":33.4659,"lon":-111.7212,"elev":420,"name":"Mesa/Falcon Fld, AZ, US","cover":"CLR","clouds":[],"fltCat":"VFR"},{"icaoId":"KMYR","receiptTime":"2026-04-13T11:56:56.370Z","obsTime":1776081180,"reportTime":"2026-04-13T12:00:00.000Z","temp":17.8,"dewp":17.2,"wdir":340,"wspd":3,"visib":"10+","altim":1028.9,"slp":1028.7,"qcField":12,"presTend":1.5,"maxT":19.4,"minT":15.6,"metarType":"METAR","rawOb":"METAR KMYR 131153Z 34003KT 10SM CLR 18/17 A3038 RMK AO2 SLP287 T01780172 10194 20156 53015 $","lat":33.6769,"lon":-78.9325,"elev":7,"name":"Myrtle Beach Intl, SC, US","cover":"CLR","clouds":[],"fltCat":"VFR"},{"icaoId":"KMTJ","receiptTime":"2026-04-13T11:57:04.513Z","obsTime":1776081180,"reportTime":"2026-04-13T12:00:00.000Z","temp":10,"dewp":-6.1,"wdir":200,"wspd":12,"visib":"10+","altim":1016.7,"slp":1010.7,"qcField":6,"presTend":1,"maxT":13.9,"minT":10,"metarType":"METAR","rawOb":"METAR KMTJ 131153Z AUTO 20012KT 10SM CLR 10/M06 A3002 RMK AO2 SLP107 T01001061 10139 20100 51010","lat":38.5054,"lon":-107.8981,"elev":1755,"name":"Montrose Rgnl, CO, US","cover":"CLR","clouds":[],"fltCat":"VFR"},{"icaoId":"KVEL","receiptTime":"2026-04-13T11:57:13.665Z","obsTime":1776081180,"reportTime":"2026-04-13T12:00:00.000Z","temp":7.8,"dewp":-4.4,"wdir":240,"wspd":15,"wgst":25,"visib":"10+","altim":1014,"slp":1010.2,"qcField":6,"presTend":2,"maxT":12.8,"minT":7.8,"metarType":"METAR","rawOb":"METAR KVEL 131153Z AUTO 24015G25KT 10SM BKN120 08/M04 A2994 RMK AO2 SLP102 T00781044 10128 20078 53020","lat":40.4429,"lon":-109.5128,"elev":1604,"name":"Vernal Rgnl, UT, US","cover":"BKN","clouds":[{"cover":"BKN","base":12000}],"fltCat":"VFR"},{"icaoId":"KPUB","receiptTime":"2026-04-13T11:57:13.558Z","obsTime":1776081180,"reportTime":"2026-04-13T12:00:00.000Z","temp":8.9,"dewp":-8.9,"wdir":0,"wspd":0,"visib":"10+","altim":1010.6,"slp":1005.6,"qcField":12,"presTend":0.4,"maxT":17.2,"minT":7.8,"metarType":"METAR","rawOb":"METAR KPUB 131153Z 00000KT 10SM CLR 09/M09 A2984 RMK AO2 SLP056 T00891089 10172 20078 53004 $","lat":38.2887,"lon":-104.5057,"elev":1441,"name":"Pueblo Mem Arpt, CO, US","cover":"CLR","clouds":[],"fltCat":"VFR"},{"icaoId":"PANC","receiptTime":"2026-04-13T11:57:13.319Z","obsTime":1776081180,"reportTime":"2026-04-13T12:00:00.000Z","temp":1.1,"dewp":-1.7,"wdir":180,"wspd":6,"wgst":16,"visib":"10+","altim":1000.4,"slp":1000.5,"qcField":12,"maxT":2.2,"minT":0.6,"pcp24hr":0.14,"snow":15000,"metarType":"METAR","rawOb":"METAR PANC 131153Z 18006G16KT 10SM BKN060 01/M02 A2954 RMK AO2 SLP005 4/015 70014 T00111017 10022 20006 53000 $","lat":61.1691,"lon":-150.0277,"elev":39,"name":"Anchorage Intl, AK, US","cover":"BKN","clouds":[{"cover":"BKN","base":6000}],"fltCat":"VFR"},{"icaoId":"KOGD","receiptTime":"2026-04-13T11:57:06.237Z","obsTime":1776081180,"reportTime":"2026-04-13T12:00:00.000Z","temp":2.2,"dewp":1.1,"wdir":150,"wspd":7,"visib":"10+","altim":1015.7,"slp":1014.1,"qcField":6,"presTend":0.7,"maxT":2.8,"minT":0.6,"pcp6hr":0.17,"pcp24hr":0.5,"metarType":"METAR","rawOb":"METAR KOGD 131153Z AUTO 15007KT 10SM FEW031 02/01 A2999 RMK AO2 SLP141 60017 70050 T00220011 10028 20006 51007","lat":41.1941,"lon":-112.0168,"elev":1356,"name":"Ogden/Hinckley Arpt, UT, US","cover":"FEW","clouds":[{"cover":"FEW","base":3100}],"fltCat":"VFR"},{"icaoId":"KCYS","receiptTime":"2026-04-13T11:57:07.338Z","obsTime":1776081180,"reportTime":"2026-04-13T12:00:00.000Z","temp":6.7,"dewp":-7.2,"wdir":320,"wspd":5,"visib":"10+","altim":1011.3,"slp":1005.4,"qcField":12,"presTend":1.4,"maxT":12.8,"minT":6.1,"metarType":"METAR","rawOb":"METAR KCYS 131153Z 32005KT 10SM CLR 07/M07 A2986 RMK AO2 SLP054 T00671072 10128 20061 53014 $","lat":41.1579,"lon":-104.8081,"elev":1868,"name":"Cheyenne Rgnl, WY, US","cover":"CLR","clouds":[],"fltCat":"VFR"},{"icaoId":"KDTW","receiptTime":"2026-04-13T11:57:06.281Z","obsTime":1776081180,"reportTime":"2026-04-13T12:00:00.000Z","temp":18.3,"dewp":14.4,"wdir":230,"wspd":14,"visib":9,"altim":1012.3,"slp":1011.7,"qcField":4,"presTend":2.6,"maxT":22.2,"minT":16.7,"pcp6hr":0.01,"pcp24hr":0.02,"metarType":"METAR","rawOb":"METAR KDTW 131153Z 23014KT 9SM FEW009 BKN028 OVC050 18/14 A2989 RMK AO2 PK WND 26029/1055 SLP117 60001 70002 T01830144 10222 20167 53026","lat":42.2311,"lon":-83.3312,"elev":192,"name":"Detroit/Metro Wayne Cnty, MI, US","cover":"OVC","clouds":[{"cover":"FEW","base":900},{"cover":"BKN","base":2800},{"cover":"OVC","base":5000}],"fltCat":"MVFR"},{"icaoId":"KAMA","receiptTime":"2026-04-13T11:57:07.880Z","obsTime":1776081180,"reportTime":"2026-04-13T12:00:00.000Z","temp":14.4,"dewp":-1.1,"wdir":240,"wspd":11,"visib":"10+","altim":1014.3,"slp":1009.4,"qcField":4,"presTend":0.6,"maxT":16.1,"minT":12.2,"metarType":"METAR","rawOb":"METAR KAMA 131153Z 24011KT 10SM CLR 14/M01 A2995 RMK AO2 SLP094 T01441011 10161 20122 53006","lat":35.2203,"lon":-101.7173,"elev":1102,"name":"Amarillo Intl Arpt, TX, US","cover":"CLR","clouds":[],"fltCat":"VFR"},{"icaoId":"KMFR","receiptTime":"2026-04-13T11:57:06.063Z","obsTime":1776081180,"reportTime":"2026-04-13T12:00:00.000Z","temp":7.8,"dewp":5.6,"wdir":340,"wspd":4,"visib":"10+","altim":1018,"slp":1017.9,"qcField":14,"presTend":1.2,"maxT":10.6,"minT":7.8,"pcp6hr":0.005,"pcp24hr":0.02,"metarType":"METAR","rawOb":"METAR KMFR 131153Z AUTO 34004KT 10SM OVC055 08/06 A3006 RMK AO2 SLP179 60000 70002 T00780056 10106 20078 53012 $","lat":42.375,"lon":-122.877,"elev":397,"name":"Medford/Rogue Valley Intl, OR, US","cover":"OVC","clouds":[{"cover":"OVC","base":5500}],"fltCat":"VFR"},{"icaoId":"KIAH","receiptTime":"2026-04-13T11:57:06.001Z","obsTime":1776081180,"reportTime":"2026-04-13T12:00:00.000Z","temp":22.8,"dewp":21.1,"wdir":160,"wspd":6,"visib":"10+","altim":1020.1,"slp":1019.8,"qcField":4,"presTend":0.8,"maxT":22.8,"minT":22.2,"pcp24hr":1.78,"metarType":"METAR","rawOb":"METAR KIAH 131153Z 16006KT 10SM SCT017 BKN028 OVC075 23/21 A3012 RMK AO2 SLP198 70178 T02280211 10228 20222 53008","lat":29.9844,"lon":-95.3607,"elev":27,"name":"Houston/Bush Intl, TX, US","cover":"OVC","clouds":[{"cover":"SCT","base":1700},{"cover":"BKN","base":2800},{"cover":"OVC","base":7500}],"fltCat":"MVFR"},{"icaoId":"KAPA","receiptTime":"2026-04-13T11:57:08.022Z","obsTime":1776081180,"reportTime":"2026-04-13T12:00:00.000Z","temp":8.3,"dewp":-8.3,"wdir":170,"wspd":8,"visib":"10+","altim":1010.9,"slp":1006.2,"qcField":4,"presTend":0.8,"maxT":15,"minT":6.7,"metarType":"METAR","rawOb":"METAR KAPA 131153Z 17008KT 10SM BKN220 08/M08 A2985 RMK AO2 SLP062 T00831083 10150 20067 53008","lat":39.5599,"lon":-104.8484,"elev":1791,"name":"Denver/Centennial Arpt, CO, US","cover":"BKN","clouds":[{"cover":"BKN","base":22000}],"fltCat":"VFR"},{"icaoId":"KPSP","receiptTime":"2026-04-13T11:57:11.216Z","obsTime":1776081180,"reportTime":"2026-04-13T12:00:00.000Z","temp":14.4,"dewp":6.7,"wdir":"VRB","wspd":4,"visib":"10+","altim":1014.3,"slp":1014.2,"qcField":6,"presTend":-0.1,"maxT":18.3,"minT":14.4,"metarType":"METAR","rawOb":"METAR KPSP 131153Z AUTO VRB04KT 10SM CLR 14/07 A2995 RMK AO2 SLP142 T01440067 10183 20144 56001","lat":33.8222,"lon":-116.5043,"elev":123,"name":"Palm Springs Intl, CA, US","cover":"CLR","clouds":[],"fltCat":"VFR"},{"icaoId":"KHIO","receiptTime":"2026-04-13T11:57:05.501Z","obsTime":1776081180,"reportTime":"2026-04-13T12:00:00.000Z","temp":8.9,"dewp":7.8,"wdir":0,"wspd":0,"visib":"10+","altim":1016.3,"slp":1016.3,"qcField":4,"presTend":1.6,"maxT":10.6,"minT":8.9,"pcp6hr":0.005,"pcp24hr":0.09,"metarType":"METAR","rawOb":"METAR KHIO 131153Z 00000KT 10SM SCT044 OVC060 09/08 A3001 RMK AO2 SLP163 60000 70009 T00890078 10106 20089 51016","lat":45.5476,"lon":-122.9557,"elev":62,"name":"Portland/Hillsboro Arpt, OR, US","cover":"OVC","clouds":[{"cover":"SCT","base":4400},{"cover":"OVC","base":6000}],"fltCat":"VFR"},{"icaoId":"KLGB","receiptTime":"2026-04-13T11:57:00.422Z","obsTime":1776081180,"reportTime":"2026-04-13T12:00:00.000Z","temp":13.9,"dewp":8.9,"wdir":0,"wspd":0,"visib":"10+","altim":1016,"slp":1015.8,"qcField":14,"presTend":-1,"maxT":15.6,"minT":13.9,"precip":0.005,"pcp6hr":0.005,"pcp24hr":0.35,"metarType":"METAR","rawOb":"METAR KLGB 131153Z AUTO 00000KT 10SM FEW055 BKN080 14/09 A3000 RMK AO2 RAB05E19 SLP158 P0000 60000 70035 T01390089 10156 20139 58010 $","lat":33.8118,"lon":-118.1472,"elev":10,"name":"Long Beach Arpt, CA, US","cover":"BKN","clouds":[{"cover":"FEW","base":5500},{"cover":"BKN","base":8000}],"fltCat":"VFR"},{"icaoId":"KLBB","receiptTime":"2026-04-13T11:57:02.818Z","obsTime":1776081180,"reportTime":"2026-04-13T12:00:00.000Z","temp":17.2,"dewp":12.8,"wdir":210,"wspd":16,"visib":"10+","altim":1015.7,"slp":1011,"qcField":12,"presTend":0.6,"maxT":21.1,"minT":16.7,"metarType":"METAR","rawOb":"METAR KLBB 131153Z 21016KT 10SM SCT180 BKN250 17/13 A2999 RMK AO2 PK WND 22026/1119 SLP110 T01720128 10211 20167 51006 $","lat":33.6658,"lon":-101.8233,"elev":996,"name":"Lubbock Intl Arpt, TX, US","cover":"BKN","clouds":[{"cover":"SCT","base":18000},{"cover":"BKN","base":25000}],"fltCat":"VFR"},{"icaoId":"KMCI","receiptTime":"2026-04-13T11:57:10.808Z","obsTime":1776081180,"reportTime":"2026-04-13T12:00:00.000Z","temp":20.6,"dewp":17.8,"wdir":190,"wspd":16,"wgst":26,"visib":"10+","altim":1009.6,"slp":1008.7,"qcField":4,"presTend":-0.4,"maxT":21.1,"minT":20,"pcp24hr":0.52,"metarType":"METAR","rawOb":"METAR KMCI 131153Z 19016G26KT 10SM BKN022 21/18 A2981 RMK AO2 PK WND 19026/1151 SLP087 70052 T02060178 10211 20200 56004","lat":39.2975,"lon":-94.7309,"elev":308,"name":"Kansas City Intl, MO, US","cover":"BKN","clouds":[{"cover":"BKN","base":2200}],"fltCat":"MVFR"},{"icaoId":"KFMN","receiptTime":"2026-04-13T11:57:04.901Z","obsTime":1776081180,"reportTime":"2026-04-13T12:00:00.000Z","temp":8.9,"dewp":-4.4,"wdir":10,"wspd":5,"visib":"10+","altim":1017,"slp":1013.2,"qcField":6,"presTend":0.5,"maxT":13.9,"minT":8.9,"metarType":"METAR","rawOb":"METAR KFMN 131153Z AUTO 01005KT 10SM CLR 09/M04 A3003 RMK AO2 SLP132 T00891044 10139 20089 53005","lat":36.7435,"lon":-108.2293,"elev":1677,"name":"Farmington/Four Corners Rgnl, NM, US","cover":"CLR","clouds":[],"fltCat":"VFR"},{"icaoId":"KMAF","receiptTime":"2026-04-13T11:56:53.024Z","obsTime":1776081180,"reportTime":"2026-04-13T12:00:00.000Z","temp":18.9,"dewp":17.2,"wdir":200,"wspd":8,"visib":7,"altim":1017.7,"slp":1013.4,"qcField":4,"presTend":1.2,"maxT":21.7,"minT":18.9,"metarType":"METAR","rawOb":"METAR KMAF 131153Z 20008KT 7SM CLR 19/17 A3005 RMK AO2 SLP134 T01890172 10217 20189 51012","lat":31.9475,"lon":-102.2086,"elev":874,"name":"Midland Intl, TX, US","cover":"CLR","clouds":[],"fltCat":"VFR"},{"icaoId":"KMCO","receiptTime":"2026-04-13T11:56:53.091Z","obsTime":1776081180,"reportTime":"2026-04-13T12:00:00.000Z","temp":17.8,"dewp":14.4,"wdir":70,"wspd":5,"visib":"10+","altim":1026.5,"slp":1026.1,"qcField":4,"presTend":0.7,"maxT":17.8,"minT":16.7,"metarType":"METAR","rawOb":"METAR KMCO 131153Z 07005KT 10SM FEW038 FEW300 18/14 A3031 RMK AO2 SLP261 T01780144 10178 20167 53007","lat":28.4182,"lon":-81.3241,"elev":27,"name":"Orlando Intl, FL, US","cover":"FEW","clouds":[{"cover":"FEW","base":3800},{"cover":"FEW","base":30000}],"fltCat":"VFR"},{"icaoId":"KDMN","receiptTime":"2026-04-13T11:57:04.790Z","obsTime":1776081180,"reportTime":"2026-04-13T12:00:00.000Z","temp":12.2,"dewp":1.1,"wdir":250,"wspd":7,"visib":"10+","altim":1019,"slp":1013.3,"qcField":6,"presTend":0.2,"maxT":17.8,"minT":11.7,"metarType":"METAR","rawOb":"METAR KDMN 131153Z AUTO 25007KT 10SM SCT110 12/01 A3009 RMK AO2 SLP133 T01220011 10178 20117 53002","lat":32.2592,"lon":-107.7206,"elev":1310,"name":"Deming Muni, NM, US","cover":"SCT","clouds":[{"cover":"SCT","base":11000}],"fltCat":"VFR"},{"icaoId":"KFUL","receiptTime":"2026-04-13T11:56:54.413Z","obsTime":1776081180,"reportTime":"2026-04-13T12:00:00.000Z","temp":13.3,"dewp":10,"wdir":30,"wspd":3,"visib":"10+","altim":1016.3,"slp":1015.9,"qcField":6,"presTend":-0.9,"maxT":15,"minT":13.3,"precip":0.01,"pcp6hr":0.01,"pcp24hr":0.3,"metarType":"METAR","rawOb":"METAR KFUL 131153Z AUTO 03003KT 10SM FEW039 BKN060 OVC080 13/10 A3001 RMK AO2 RAB33E49 SLP159 P0001 60001 70030 T01330100 10150 20133 56009","lat":33.8715,"lon":-117.9856,"elev":23,"name":"Fullerton Muni, CA, US","cover":"OVC","clouds":[{"cover":"FEW","base":3900},{"cover":"BKN","base":6000},{"cover":"OVC","base":8000}],"fltCat":"VFR"},{"icaoId":"KDAL","receiptTime":"2026-04-13T11:57:04.758Z","obsTime":1776081180,"reportTime":"2026-04-13T12:00:00.000Z","temp":21.7,"dewp":19.4,"wdir":180,"wspd":12,"wgst":21,"visib":"10+","altim":1017,"slp":1016.5,"qcField":4,"presTend":0.3,"maxT":21.7,"minT":19.4,"pcp24hr":0.06,"metarType":"METAR","rawOb":"METAR KDAL 131153Z 18012G21KT 10SM OVC014 22/19 A3003 RMK AO2 SLP165 70006 T02170194 10217 20194 53003","lat":32.8384,"lon":-96.8358,"elev":148,"name":"Dallas/Love Fld, TX, US","cover":"OVC","clouds":[{"cover":"OVC","base":1400}],"fltCat":"MVFR"},{"icaoId":"KCRQ","receiptTime":"2026-04-13T11:57:04.714Z","obsTime":1776081180,"reportTime":"2026-04-13T12:00:00.000Z","temp":13.3,"dewp":10.6,"wdir":0,"wspd":0,"visib":"10+","altim":1016,"slp":1015.8,"qcField":6,"presTend":-0.7,"maxT":16.1,"minT":13.3,"pcp6hr":0.005,"pcp24hr":0.02,"metarType":"METAR","rawOb":"METAR KCRQ 131153Z AUTO 00000KT 10SM BKN070 13/11 A3000 RMK AO2 SLP158 60000 70002 T01330106 10161 20133 56007","lat":33.1299,"lon":-117.2765,"elev":96,"name":"Carlsbad/Palomar Arpt, CA, US","cover":"BKN","clouds":[{"cover":"BKN","base":7000}],"fltCat":"VFR"},{"icaoId":"KBUR","receiptTime":"2026-04-13T11:56:55.706Z","obsTime":1776081180,"reportTime":"2026-04-13T12:00:00.000Z","temp":12.2,"dewp":7.8,"wdir":0,"wspd":0,"visib":"10+","altim":1016.3,"slp":1015.5,"qcField":4,"presTend":-0.9,"maxT":13.9,"minT":11.7,"pcp24hr":0.21,"metarType":"METAR","rawOb":"METAR KBUR 131153Z 00000KT 10SM FEW044 OVC070 12/08 A3001 RMK AO2 SLP155 70021 T01220078 10139 20117 56009","lat":34.1996,"lon":-118.3654,"elev":221,"name":"Burbank/Bob Hope Arpt, CA, US","cover":"OVC","clouds":[{"cover":"FEW","base":4400},{"cover":"OVC","base":7000}],"fltCat":"VFR"},{"icaoId":"KCDC","receiptTime":"2026-04-13T11:56:55.841Z","obsTime":1776081180,"reportTime":"2026-04-13T12:00:00.000Z","temp":6.1,"dewp":0.6,"wdir":0,"wspd":0,"visib":"10+","altim":1015,"slp":1011.1,"qcField":6,"presTend":0.5,"maxT":7.8,"minT":3.9,"metarType":"METAR","rawOb":"METAR KCDC 131153Z AUTO 00000KT 10SM BKN042 BKN055 06/01 A2997 RMK AO2 SLP111 T00610006 10078 20039 53005","lat":37.7067,"lon":-113.097,"elev":1703,"name":"Cedar City Muni, UT, US","cover":"BKN","clouds":[{"cover":"BKN","base":4200},{"cover":"BKN","base":5500}],"fltCat":"VFR"},{"icaoId":"KPNC","receiptTime":"2026-04-13T11:56:56.516Z","obsTime":1776081180,"reportTime":"2026-04-13T12:00:00.000Z","temp":20.6,"dewp":18.3,"wdir":180,"wspd":9,"wgst":21,"visib":"10+","altim":1011.3,"slp":1009.9,"qcField":6,"presTend":0.2,"maxT":21.1,"minT":20,"pcp24hr":0.71,"metarType":"METAR","rawOb":"METAR KPNC 131153Z AUTO 18009G21KT 10SM CLR 21/18 A2986 RMK AO2 SLP099 70071 T02060183 10211 20200 53002","lat":36.7369,"lon":-97.1024,"elev":304,"name":"Ponca City Rgnl, OK, US","cover":"CLR","clouds":[],"fltCat":"VFR"},{"icaoId":"KLAR","receiptTime":"2026-04-13T11:57:00.217Z","obsTime":1776081180,"reportTime":"2026-04-13T12:00:00.000Z","temp":3.3,"dewp":-2.8,"wdir":240,"wspd":10,"visib":"10+","altim":1012.3,"slp":1005,"qcField":14,"presTend":0.7,"maxT":6.7,"minT":0.6,"metarType":"METAR","rawOb":"METAR KLAR 131153Z AUTO 24010KT 10SM CLR 03/M03 A2989 RMK AO2 SLP050 T00331028 10067 20006 53007 $","lat":41.3165,"lon":-105.6729,"elev":2217,"name":"Laramie Rgnl, WY, US","cover":"CLR","clouds":[],"fltCat":"VFR"},{"icaoId":"KLOL","receiptTime":"2026-04-13T11:57:00.639Z","obsTime":1776081180,"reportTime":"2026-04-13T12:00:00.000Z","temp":-0.6,"dewp":-3.3,"wdir":330,"wspd":3,"visib":"10+","altim":1016,"slp":1016.7,"qcField":14,"presTend":0.4,"maxT":5,"minT":-0.6,"pcp24hr":0.01,"metarType":"METAR","rawOb":"METAR KLOL 131153Z AUTO 33003KT 10SM CLR M01/M03 A3000 RMK AO2 SLP167 70001 T10061033 10050 21006 53004 $","lat":40.0684,"lon":-118.5702,"elev":1191,"name":"Lovelock/Derby Fld, NV, US","cover":"CLR","clouds":[],"fltCat":"VFR"},{"icaoId":"KRTN","receiptTime":"2026-04-13T11:57:01.141Z","obsTime":1776081180,"reportTime":"2026-04-13T12:00:00.000Z","temp":5,"dewp":-6.7,"wdir":250,"wspd":7,"visib":"10+","altim":1015.3,"slp":1009.2,"qcField":6,"presTend":0.4,"maxT":10,"minT":3.9,"metarType":"METAR","rawOb":"METAR KRTN 131153Z AUTO 25007KT 10SM CLR 05/M07 A2998 RMK AO2 SLP092 T00501067 10100 20039 53004","lat":36.7418,"lon":-104.5076,"elev":1939,"name":"Raton/Crews Fld, NM, US","cover":"CLR","clouds":[],"fltCat":"VFR"},{"icaoId":"KTUL","receiptTime":"2026-04-13T11:57:01.237Z","obsTime":1776081180,"reportTime":"2026-04-13T12:00:00.000Z","temp":22.2,"dewp":17.8,"wdir":190,"wspd":18,"wgst":27,"visib":"10+","altim":1013.6,"slp":1012.8,"qcField":4,"presTend":0.3,"maxT":22.8,"minT":22.2,"pcp24hr":0.14,"metarType":"METAR","rawOb":"METAR KTUL 131153Z 19018G27KT 10SM SCT020 BKN025 BKN250 22/18 A2993 RMK AO2 PK WND 18028/1115 SLP128 70014 T02220178 10228 20222 53003","lat":36.1985,"lon":-95.8782,"elev":196,"name":"Tulsa Intl Arpt, OK, US","cover":"BKN","clouds":[{"cover":"SCT","base":2000},{"cover":"BKN","base":2500},{"cover":"BKN","base":25000}],"fltCat":"MVFR"},{"icaoId":"KONT","receiptTime":"2026-04-13T11:57:01.807Z","obsTime":1776081180,"reportTime":"2026-04-13T12:00:00.000Z","temp":10,"dewp":8.3,"wdir":340,"wspd":3,"visib":"10+","altim":1016.3,"slp":1016,"qcField":12,"presTend":-0.8,"maxT":12.8,"minT":9.4,"pcp24hr":0.33,"metarType":"METAR","rawOb":"METAR KONT 131153Z 34003KT 10SM BKN050 BKN070 10/08 A3001 RMK AO2 SLP160 70033 T01000083 10128 20094 56008 $","lat":34.0531,"lon":-117.5769,"elev":279,"name":"Ontario Intl, CA, US","cover":"BKN","clouds":[{"cover":"BKN","base":5000},{"cover":"BKN","base":7000}],"fltCat":"VFR"},{"icaoId":"KLAX","receiptTime":"2026-04-13T11:57:02.802Z","obsTime":1776081180,"reportTime":"2026-04-13T12:00:00.000Z","temp":13.9,"dewp":8.3,"wdir":0,"wspd":0,"visib":"10+","altim":1016.3,"slp":1016.1,"qcField":12,"presTend":-0.8,"maxT":16.1,"minT":13.9,"pcp24hr":0.16,"metarType":"METAR","rawOb":"METAR KLAX 131153Z 00000KT 10SM FEW014 FEW045 SCT060 14/08 A3001 RMK AO2 SLP161 70016 T01390083 10161 20139 56008 $","lat":33.9382,"lon":-118.3866,"elev":30,"name":"Los Angeles Intl, CA, US","cover":"SCT","clouds":[{"cover":"FEW","base":1400},{"cover":"FEW","base":4500},{"cover":"SCT","base":6000}],"fltCat":"VFR"},{"icaoId":"KTPA","receiptTime":"2026-04-13T11:57:03.516Z","obsTime":1776081180,"reportTime":"2026-04-13T12:00:00.000Z","temp":17.8,"dewp":14.4,"wdir":20,"wspd":3,"visib":"10+","altim":1026.2,"slp":1025.8,"qcField":4,"presTend":1.3,"maxT":20,"minT":17.8,"metarType":"METAR","rawOb":"METAR KTPA 131153Z 02003KT 10SM FEW250 18/14 A3030 RMK AO2 SLP258 T01780144 10200 20178 53013","lat":27.9633,"lon":-82.54,"elev":2,"name":"Tampa Intl Arpt, FL, US","cover":"FEW","clouds":[{"cover":"FEW","base":25000}],"fltCat":"VFR"},{"icaoId":"KSAF","receiptTime":"2026-04-13T12:40:14.532Z","obsTime":1776081180,"reportTime":"2026-04-13T12:00:00.000Z","temp":8.9,"dewp":-3.3,"wdir":260,"wspd":3,"visib":"","altim":1018.7,"slp":1010.7,"qcField":13,"presTend":0.4,"maxT":13.9,"minT":6.1,"metarType":"METAR","rawOb":"METAR KSAF 131153Z COR 26003KT CLR 09/M03 A3008 RMK AO2 SLP107 T00891033 10139 20061 53004 $","lat":35.611,"lon":-106.0957,"elev":1918,"name":"Santa Fe Cnty Muni, NM, US","cover":"CLR","clouds":[]},{"icaoId":"KSHR","receiptTime":"2026-04-13T11:57:03.802Z","obsTime":1776081180,"reportTime":"2026-04-13T12:00:00.000Z","temp":4.4,"dewp":2.8,"wdir":330,"wspd":7,"visib":"10+","altim":1005.2,"slp":1004.4,"qcField":6,"presTend":-1.3,"maxT":7.8,"minT":1.7,"pcp24hr":0.01,"metarType":"METAR","rawOb":"METAR KSHR 131153Z AUTO 33007KT 10SM FEW110 04/03 A2968 RMK AO2 SLP044 70001 T00440028 10078 20017 58013","lat":44.7603,"lon":-106.9741,"elev":1212,"name":"Sheridan Cnty Arpt, WY, US","cover":"FEW","clouds":[{"cover":"FEW","base":11000}],"fltCat":"VFR"},{"icaoId":"KGSP","receiptTime":"2026-04-13T11:57:12.800Z","obsTime":1776081180,"reportTime":"2026-04-13T12:00:00.000Z","temp":15.6,"dewp":11.7,"wdir":200,"wspd":7,"visib":"10+","altim":1027.9,"slp":1026.8,"qcField":4,"presTend":1.1,"maxT":18.3,"minT":13.9,"metarType":"METAR","rawOb":"METAR KGSP 131153Z 20007KT 10SM CLR 16/12 A3035 RMK AO2 SLP268 T01560117 10183 20139 51011","lat":34.8842,"lon":-82.2209,"elev":285,"name":"Greenville-Spartanburg Intl, SC, US","cover":"CLR","clouds":[],"fltCat":"VFR"},{"icaoId":"KSWO","receiptTime":"2026-04-13T11:57:12.666Z","obsTime":1776081180,"reportTime":"2026-04-13T12:00:00.000Z","temp":21.1,"dewp":18.3,"wdir":220,"wspd":12,"visib":"10+","altim":1012.3,"slp":1011.1,"qcField":6,"presTend":0.4,"maxT":21.1,"minT":20.6,"pcp24hr":0.44,"metarType":"METAR","rawOb":"METAR KSWO 131153Z AUTO 22012KT 10SM OVC019 21/18 A2989 RMK AO2 SLP111 70044 T02110183 10211 20206 53004","lat":36.1624,"lon":-97.0832,"elev":293,"name":"Stillwater Muni, OK, US","cover":"OVC","clouds":[{"cover":"OVC","base":1900}],"fltCat":"MVFR"},{"icaoId":"KMSY","receiptTime":"2026-04-13T11:57:12.553Z","obsTime":1776081180,"reportTime":"2026-04-13T12:00:00.000Z","temp":19.4,"dewp":18.3,"wdir":110,"wspd":9,"visib":"10+","altim":1022.1,"slp":1022.4,"qcField":4,"presTend":-0.2,"maxT":21.1,"minT":18.9,"metarType":"METAR","rawOb":"METAR KMSY 131153Z 11009KT 10SM FEW022 FEW048 BKN250 19/18 A3018 RMK AO2 SLP224 T01940183 10211 20189 56002","lat":29.9974,"lon":-90.2777,"elev":0,"name":"New Orleans/Armstrong Intl, LA, US","cover":"BKN","clouds":[{"cover":"FEW","base":2200},{"cover":"FEW","base":4800},{"cover":"BKN","base":25000}],"fltCat":"VFR"},{"icaoId":"KYKM","receiptTime":"2026-04-13T11:57:11.388Z","obsTime":1776081180,"reportTime":"2026-04-13T12:00:00.000Z","temp":6.1,"dewp":2.2,"wdir":290,"wspd":3,"visib":"10+","altim":1009.6,"slp":1009.6,"qcField":14,"presTend":1.9,"maxT":11.1,"minT":5,"metarType":"METAR","rawOb":"METAR KYKM 131153Z AUTO 29003KT 10SM CLR 06/02 A2981 RMK AO2 SLP096 T00610022 10111 20050 53019 $","lat":46.564,"lon":-120.5349,"elev":319,"name":"Yakima/McAllister Fld, WA, US","cover":"CLR","clouds":[],"fltCat":"VFR"},{"icaoId":"KGEG","receiptTime":"2026-04-13T11:57:11.834Z","obsTime":1776081180,"reportTime":"2026-04-13T12:00:00.000Z","temp":8.3,"dewp":7.2,"wdir":180,"wspd":6,"visib":9,"altim":1006.5,"slp":1006.3,"qcField":12,"presTend":0.5,"maxT":9.4,"minT":8.3,"precip":0.02,"pcp6hr":0.03,"pcp24hr":0.03,"metarType":"METAR","rawOb":"METAR KGEG 131153Z 18006KT 9SM OVC007 08/07 A2972 RMK AO2 RAE43 SLP063 P0002 60003 70003 T00830072 10094 20083 53005 $","lat":47.6217,"lon":-117.528,"elev":718,"name":"Spokane Intl, WA, US","cover":"OVC","clouds":[{"cover":"OVC","base":700}],"fltCat":"IFR"},{"icaoId":"KMSP","receiptTime":"2026-04-13T11:57:10.840Z","obsTime":1776081180,"reportTime":"2026-04-13T12:00:00.000Z","temp":12.8,"dewp":9.4,"wdir":10,"wspd":10,"visib":"10+","altim":1007.5,"slp":1007.3,"qcField":4,"presTend":1.5,"maxT":17.2,"minT":11.7,"metarType":"METAR","rawOb":"METAR KMSP 131153Z 01010KT 10SM CLR 13/09 A2975 RMK AO2 SLP073 T01280094 10172 20117 51015","lat":44.8852,"lon":-93.2313,"elev":255,"name":"Minneapolis-St Paul Intl, MN, US","cover":"CLR","clouds":[],"fltCat":"VFR"},{"icaoId":"KTWF","receiptTime":"2026-04-13T11:57:11.340Z","obsTime":1776081180,"reportTime":"2026-04-13T12:00:00.000Z","temp":1.7,"dewp":-3.9,"wdir":200,"wspd":13,"visib":"10+","altim":1013.3,"slp":1012.1,"qcField":4,"presTend":0.4,"maxT":3.3,"minT":1.7,"pcp24hr":0.02,"metarType":"METAR","rawOb":"METAR KTWF 131153Z 20013KT 10SM CLR 02/M04 A2992 RMK AO2 SLP121 70002 T00171039 10033 20017 53004","lat":42.4785,"lon":-114.4775,"elev":1269,"name":"Twin Falls/Joslin Fld, ID, US","cover":"CLR","clouds":[],"fltCat":"VFR"},{"icaoId":"KTUS","receiptTime":"2026-04-13T11:57:11.304Z","obsTime":1776081180,"reportTime":"2026-04-13T12:00:00.000Z","temp":18.9,"dewp":3.9,"wdir":70,"wspd":3,"visib":"10+","altim":1016.3,"slp":1012.7,"qcField":4,"presTend":-0.6,"maxT":21.7,"minT":18.3,"metarType":"METAR","rawOb":"METAR KTUS 131153Z 07003KT 10SM CLR 19/04 A3001 RMK AO2 SLP127 T01890039 10217 20183 56006","lat":32.1315,"lon":-110.9564,"elev":776,"name":"Tucson Intl Arpt, AZ, US","cover":"CLR","clouds":[],"fltCat":"VFR"},{"icaoId":"KPUW","receiptTime":"2026-04-13T11:57:11.236Z","obsTime":1776081180,"reportTime":"2026-04-13T12:00:00.000Z","temp":5,"dewp":4.4,"wdir":130,"wspd":8,"visib":5,"altim":1008.2,"slp":1008.7,"qcField":6,"wxString":"-RA BR","presTend":1.6,"maxT":7.8,"minT":5,"precip":0.08,"pcp6hr":0.27,"pcp24hr":0.42,"metarType":"METAR","rawOb":"METAR KPUW 131153Z AUTO 13008KT 5SM -RA BR OVC014 05/04 A2977 RMK AO2 SLP087 P0008 60027 70042 T00500044 10078 20050 51016","lat":46.7438,"lon":-117.1158,"elev":774,"name":"Pullman/Moscow Rgnl, WA, US","cover":"OVC","clouds":[{"cover":"OVC","base":1400}],"fltCat":"MVFR"},{"icaoId":"KCNY","receiptTime":"2026-04-13T11:57:04.699Z","obsTime":1776081180,"reportTime":"2026-04-13T12:00:00.000Z","temp":8.9,"dewp":-5,"wdir":270,"wspd":3,"visib":"10+","altim":1014,"slp":1010.2,"qcField":14,"presTend":1.6,"maxT":16.7,"minT":8.3,"metarType":"METAR","rawOb":"METAR KCNY 131153Z AUTO 27003KT 10SM FEW110 09/M05 A2994 RMK AO2 SLP102 T00891050 10167 20083 53016 $","lat":38.7501,"lon":-109.7627,"elev":1392,"name":"Moab/Canyonland Fld, UT, US","cover":"FEW","clouds":[{"cover":"FEW","base":11000}],"fltCat":"VFR"},{"icaoId":"KPIH","receiptTime":"2026-04-13T11:57:10.865Z","obsTime":1776081180,"reportTime":"2026-04-13T12:00:00.000Z","temp":1.7,"dewp":-1.7,"wdir":160,"wspd":3,"visib":"10+","altim":1013.6,"slp":1013.2,"qcField":4,"presTend":1.1,"maxT":5.6,"minT":1.1,"metarType":"METAR","rawOb":"METAR KPIH 131153Z 16003KT 10SM CLR 02/M02 A2993 RMK AO2 SLP132 T00171017 10056 20011 51011","lat":42.9197,"lon":-112.5723,"elev":1357,"name":"Pocatello Rgnl, ID, US","cover":"CLR","clouds":[],"fltCat":"VFR"},{"icaoId":"KIDA","receiptTime":"2026-04-13T11:56:59.990Z","obsTime":1776081180,"reportTime":"2026-04-13T12:00:00.000Z","temp":3.3,"dewp":-0.6,"wdir":200,"wspd":10,"visib":"10+","altim":1014,"slp":1013.1,"qcField":6,"presTend":1.6,"maxT":6.1,"minT":3.3,"metarType":"METAR","rawOb":"METAR KIDA 131153Z AUTO 20010KT 10SM BKN037 03/M01 A2994 RMK AO2 SLP131 T00331006 10061 20033 53016","lat":43.5204,"lon":-112.0675,"elev":1444,"name":"Idaho Falls Rgnl, ID, US","cover":"BKN","clouds":[{"cover":"BKN","base":3700}],"fltCat":"VFR"},{"icaoId":"KFAT","receiptTime":"2026-04-13T11:57:11.813Z","obsTime":1776081180,"reportTime":"2026-04-13T12:00:00.000Z","temp":11.1,"dewp":6.7,"wdir":320,"wspd":11,"visib":"10+","altim":1017,"slp":1016.7,"qcField":12,"presTend":-0.3,"maxT":13.3,"minT":11.1,"metarType":"METAR","rawOb":"METAR KFAT 131153Z 32011KT 10SM SCT070 BKN100 11/07 A3003 RMK AO2 SLP167 T01110067 10133 20111 56003 $","lat":36.78,"lon":-119.7202,"elev":102,"name":"Fresno/Yosemite Intl, CA, US","cover":"BKN","clouds":[{"cover":"SCT","base":7000},{"cover":"BKN","base":10000}],"fltCat":"VFR"},{"icaoId":"KLVS","receiptTime":"2026-04-13T11:56:53.008Z","obsTime":1776081180,"reportTime":"2026-04-13T12:00:00.000Z","temp":8.9,"dewp":-3.3,"wdir":200,"wspd":16,"visib":"10+","altim":1017.7,"slp":1009.1,"qcField":14,"presTend":0.2,"maxT":11.7,"minT":8.3,"metarType":"METAR","rawOb":"METAR KLVS 131153Z AUTO 20016KT 10SM CLR 09/M03 A3005 RMK AO2 SLP091 6//// 7//// T00891033 10117 20083 53002 PNO $","lat":35.6558,"lon":-105.1385,"elev":2095,"name":"Las Vegas Muni, NM, US","cover":"CLR","clouds":[],"fltCat":"VFR"},{"icaoId":"KMFE","receiptTime":"2026-04-13T11:56:53.112Z","obsTime":1776081180,"reportTime":"2026-04-13T12:00:00.000Z","temp":23.3,"dewp":21.1,"wdir":120,"wspd":8,"visib":"10+","altim":1016.7,"slp":1016.4,"qcField":12,"presTend":0.5,"maxT":25,"minT":22.2,"pcp24hr":0.03,"metarType":"METAR","rawOb":"METAR KMFE 131153Z 12008KT 10SM FEW025 OVC034 23/21 A3002 RMK AO2 SLP164 70003 T02330211 10250 20222 53005 $","lat":26.1791,"lon":-98.2445,"elev":29,"name":"McAllen/Miller Intl, TX, US","cover":"OVC","clouds":[{"cover":"FEW","base":2500},{"cover":"OVC","base":3400}],"fltCat":"VFR"},{"icaoId":"KBFI","receiptTime":"2026-04-13T11:57:08.461Z","obsTime":1776081180,"reportTime":"2026-04-13T12:00:00.000Z","temp":10,"dewp":6.1,"wdir":170,"wspd":7,"visib":"10+","altim":1014,"slp":1013.7,"qcField":12,"presTend":1.4,"maxT":10.6,"minT":9.4,"pcp6hr":0.005,"pcp24hr":0.06,"metarType":"METAR","rawOb":"METAR KBFI 131153Z 17007KT 10SM OVC019 10/06 A2994 RMK AO2 SLP137 60000 70006 T01000061 10106 20094 53014 $","lat":47.5455,"lon":-122.3148,"elev":7,"name":"Seattle/Boeing Fld, WA, US","cover":"OVC","clouds":[{"cover":"OVC","base":1900}],"fltCat":"MVFR"},{"icaoId":"KAUS","receiptTime":"2026-04-13T11:57:08.240Z","obsTime":1776081180,"reportTime":"2026-04-13T12:00:00.000Z","temp":22.2,"dewp":21.1,"wdir":160,"wspd":8,"visib":6,"altim":1017.7,"slp":1016.9,"qcField":4,"wxString":"BR","presTend":-0.2,"maxT":22.2,"minT":22.2,"precip":0.005,"pcp6hr":0.005,"pcp24hr":0.09,"metarType":"METAR","rawOb":"METAR KAUS 131153Z 16008KT 6SM BR SCT009 BKN014 OVC033 22/21 A3005 RMK AO2 RAB44E53 SLP169 P0000 60000 70009 T02220211 10222 20222 56002","lat":30.1831,"lon":-97.6806,"elev":148,"name":"Austin/Bergstrom Intl, TX, US","cover":"OVC","clouds":[{"cover":"SCT","base":900},{"cover":"BKN","base":1400},{"cover":"OVC","base":3300}],"fltCat":"MVFR"},{"icaoId":"KASE","receiptTime":"2026-04-13T11:57:08.135Z","obsTime":1776081180,"reportTime":"2026-04-13T12:00:00.000Z","temp":6.1,"dewp":-10.6,"wdir":200,"wspd":7,"visib":"10+","altim":1016.3,"slp":1007.3,"qcField":6,"presTend":1.4,"maxT":10.6,"minT":2.8,"metarType":"METAR","rawOb":"METAR KASE 131153Z AUTO 20007KT 190V070 10SM BKN090 BKN100 06/M11 A3001 RMK AO2 SLP073 T00611106 10106 20028 51014","lat":39.2299,"lon":-106.8705,"elev":2384,"name":"Aspen/Pitkin Cnty, CO, US","cover":"BKN","clouds":[{"cover":"BKN","base":9000},{"cover":"BKN","base":10000}],"fltCat":"VFR"},{"icaoId":"KGJT","receiptTime":"2026-04-13T11:56:54.673Z","obsTime":1776081180,"reportTime":"2026-04-13T12:00:00.000Z","temp":10,"dewp":-10.6,"wdir":300,"wspd":11,"visib":"10+","altim":1014,"slp":1009.1,"qcField":6,"presTend":1.6,"maxT":17.2,"minT":9.4,"metarType":"METAR","rawOb":"METAR KGJT 131153Z AUTO 30011KT 10SM CLR 10/M11 A2994 RMK AO2 SLP091 T01001106 10172 20094 51016","lat":39.1344,"lon":-108.5408,"elev":1475,"name":"Grand Junction Rgnl, CO, US","cover":"CLR","clouds":[],"fltCat":"VFR"},{"icaoId":"KMOD","receiptTime":"2026-04-13T11:57:06.091Z","obsTime":1776081180,"reportTime":"2026-04-13T12:00:00.000Z","temp":11.1,"dewp":8.3,"wdir":360,"wspd":5,"visib":"10+","altim":1017.4,"slp":1017.3,"qcField":6,"presTend":-0.2,"maxT":11.7,"minT":10,"pcp24hr":0.04,"metarType":"METAR","rawOb":"METAR KMOD 131153Z AUTO 36005KT 10SM OVC065 11/08 A3004 RMK AO2 SLP173 70004 T01110083 10117 20100 55002","lat":37.6254,"lon":-120.9549,"elev":25,"name":"Modesto/Sham Fld, CA, US","cover":"OVC","clouds":[{"cover":"OVC","base":6500}],"fltCat":"VFR"},{"icaoId":"KPRC","receiptTime":"2026-04-13T11:57:11.182Z","obsTime":1776081180,"reportTime":"2026-04-13T12:00:00.000Z","temp":6.7,"dewp":-0.6,"wdir":0,"wspd":0,"visib":"10+","altim":1017,"slp":1012.2,"qcField":6,"presTend":-0.4,"maxT":10.6,"minT":6.7,"metarType":"METAR","rawOb":"METAR KPRC 131153Z AUTO 00000KT 10SM CLR 07/M01 A3003 RMK AO2 SLP122 T00671006 10106 20067 56004","lat":34.6491,"lon":-112.4223,"elev":1528,"name":"Prescott/Love Fld, AZ, US","cover":"CLR","clouds":[],"fltCat":"VFR"},{"icaoId":"KPSC","receiptTime":"2026-04-13T11:57:11.199Z","obsTime":1776081180,"reportTime":"2026-04-13T12:00:00.000Z","temp":12.8,"dewp":4.4,"wdir":250,"wspd":11,"visib":"10+","altim":1008.5,"slp":1008.3,"qcField":6,"presTend":1.7,"maxT":13.9,"minT":11.7,"metarType":"METAR","rawOb":"METAR KPSC 131153Z AUTO 25011KT 10SM OVC075 13/04 A2978 RMK AO2 SLP083 T01280044 10139 20117 53017","lat":46.2695,"lon":-119.1182,"elev":121,"name":"Pasco/Tri Cities Arpt, WA, US","cover":"OVC","clouds":[{"cover":"OVC","base":7500}],"fltCat":"VFR"},{"icaoId":"KMYF","receiptTime":"2026-04-13T11:57:01.567Z","obsTime":1776081180,"reportTime":"2026-04-13T12:00:00.000Z","temp":14.4,"dewp":10.6,"wdir":0,"wspd":0,"visib":"10+","altim":1016.7,"slp":1016.1,"qcField":6,"presTend":-0.1,"maxT":16.1,"minT":14.4,"pcp6hr":0.005,"metarType":"METAR","rawOb":"METAR KMYF 131153Z AUTO 00000KT 10SM FEW021 BKN042 OVC070 14/11 A3002 RMK AO2 SLP161 60000 T01440106 10161 20144 56001","lat":32.8145,"lon":-117.1375,"elev":128,"name":"San Diego/Montgomery Arpt, CA, US","cover":"OVC","clouds":[{"cover":"FEW","base":2100},{"cover":"BKN","base":4200},{"cover":"OVC","base":7000}],"fltCat":"VFR"},{"icaoId":"KSBA","receiptTime":"2026-04-13T11:57:03.655Z","obsTime":1776081180,"reportTime":"2026-04-13T12:00:00.000Z","temp":9.4,"dewp":6.7,"wdir":0,"wspd":0,"visib":"10+","altim":1016.3,"slp":1016.1,"qcField":14,"presTend":-0.7,"maxT":13.3,"minT":7.8,"metarType":"METAR","rawOb":"METAR KSBA 131153Z AUTO 00000KT 10SM CLR 09/07 A3001 RMK AO2 SLP161 T00940067 10133 20078 56007 $","lat":34.4241,"lon":-119.8425,"elev":2,"name":"Santa Barbara Muni, CA, US","cover":"CLR","clouds":[],"fltCat":"VFR"},{"icaoId":"KSDL","receiptTime":"2026-04-13T11:57:03.695Z","obsTime":1776081180,"reportTime":"2026-04-13T12:00:00.000Z","temp":17.2,"dewp":7.2,"wdir":330,"wspd":3,"visib":"10+","altim":1014.6,"slp":1012.7,"qcField":6,"presTend":-0.6,"maxT":20.6,"minT":17.2,"metarType":"METAR","rawOb":"METAR KSDL 131153Z AUTO 33003KT 10SM FEW070 17/07 A2996 RMK AO2 SLP127 T01720072 10206 20172 55006","lat":33.6123,"lon":-111.9232,"elev":438,"name":"Scottsdale Muni, AZ, US","cover":"FEW","clouds":[{"cover":"FEW","base":7000}],"fltCat":"VFR"},{"icaoId":"KSNA","receiptTime":"2026-04-13T11:57:03.920Z","obsTime":1776081180,"reportTime":"2026-04-13T12:00:00.000Z","temp":13.9,"dewp":10.6,"wdir":0,"wspd":0,"visib":"10+","altim":1016.3,"slp":1016.3,"qcField":14,"presTend":-0.7,"maxT":16.1,"minT":13.9,"precip":0.005,"pcp6hr":0.005,"pcp24hr":0.31,"metarType":"METAR","rawOb":"METAR KSNA 131153Z AUTO 00000KT 10SM FEW042 OVC060 14/11 A3001 RMK AO2 RAB26E51 SLP163 P0000 60000 70031 T01390106 10161 20139 56007 $","lat":33.6798,"lon":-117.8675,"elev":14,"name":"Santa Ana/Wayne Arpt, CA, US","cover":"OVC","clouds":[{"cover":"FEW","base":4200},{"cover":"OVC","base":6000}],"fltCat":"VFR"},{"icaoId":"KDRO","receiptTime":"2026-04-13T11:57:07.603Z","obsTime":1776081180,"reportTime":"2026-04-13T12:00:00.000Z","temp":3.3,"dewp":-7.2,"wdir":50,"wspd":3,"visib":"10+","altim":1018.4,"slp":1014.6,"qcField":6,"maxT":9.4,"minT":2.2,"metarType":"METAR","rawOb":"METAR KDRO 131153Z AUTO 05003KT 10SM CLR 03/M07 A3007 RMK AO2 SLP146 T00331072 10094 20022 56000","lat":37.1431,"lon":-107.7602,"elev":2021,"name":"Durango/La Plata Cnty, CO, US","cover":"CLR","clouds":[],"fltCat":"VFR"},{"icaoId":"KPBI","receiptTime":"2026-04-13T11:57:04.212Z","obsTime":1776081180,"reportTime":"2026-04-13T12:00:00.000Z","temp":22.8,"dewp":14.4,"wdir":90,"wspd":14,"visib":"10+","altim":1025.1,"slp":1024.8,"qcField":12,"presTend":1.1,"maxT":22.8,"minT":22.2,"metarType":"METAR","rawOb":"METAR KPBI 131153Z 09014KT 10SM BKN035 BKN050 23/14 A3027 RMK AO2 SLP248 T02280144 10228 20222 53011 $","lat":26.6851,"lon":-80.0992,"elev":4,"name":"Palm Beach Intl, FL, US","cover":"BKN","clouds":[{"cover":"BKN","base":3500},{"cover":"BKN","base":5000}],"fltCat":"VFR"},{"icaoId":"KDFW","receiptTime":"2026-04-13T11:57:07.448Z","obsTime":1776081180,"reportTime":"2026-04-13T12:00:00.000Z","temp":20.6,"dewp":19.4,"wdir":180,"wspd":14,"visib":"10+","altim":1016.7,"slp":1015.8,"qcField":4,"presTend":0.4,"maxT":21.1,"minT":20,"pcp6hr":0.005,"pcp24hr":0.02,"metarType":"METAR","rawOb":"METAR KDFW 131153Z 18014KT 10SM BKN013 OVC025 21/19 A3002 RMK AO2 SLP158 60000 70002 T02060194 10211 20200 53004","lat":32.8974,"lon":-97.022,"elev":168,"name":"Dallas-Ft Worth Intl, TX, US","cover":"OVC","clouds":[{"cover":"BKN","base":1300},{"cover":"OVC","base":2500}],"fltCat":"MVFR"},{"icaoId":"KDEN","receiptTime":"2026-04-13T11:57:07.387Z","obsTime":1776081180,"reportTime":"2026-04-13T12:00:00.000Z","temp":10,"dewp":-7.8,"wdir":210,"wspd":6,"visib":"10+","altim":1010.6,"slp":1004.1,"qcField":4,"presTend":1.2,"maxT":15.6,"minT":7.8,"metarType":"METAR","rawOb":"METAR KDEN 131153Z 21006KT 10SM SCT150 BKN220 10/M08 A2984 RMK AO2 SLP041 T01001078 10156 20078 51012","lat":39.8466,"lon":-104.6562,"elev":1656,"name":"Denver Intl, CO, US","cover":"BKN","clouds":[{"cover":"SCT","base":15000},{"cover":"BKN","base":22000}],"fltCat":"VFR"},{"icaoId":"KCPR","receiptTime":"2026-04-13T11:57:07.183Z","obsTime":1776081180,"reportTime":"2026-04-13T12:00:00.000Z","temp":6.1,"dewp":0.6,"wdir":200,"wspd":13,"visib":"10+","altim":1008.5,"slp":1004.5,"qcField":4,"presTend":-0.6,"maxT":8.9,"minT":1.7,"metarType":"METAR","rawOb":"METAR KCPR 131153Z 20013KT 10SM CLR 06/01 A2978 RMK AO2 PK WND 21028/1106 SLP045 T00610006 10089 20017 55006","lat":42.8978,"lon":-106.4736,"elev":1623,"name":"Casper/Natrona Cnty, WY, US","cover":"CLR","clouds":[],"fltCat":"VFR"},{"icaoId":"KVGT","receiptTime":"2026-04-13T11:57:11.372Z","obsTime":1776081180,"reportTime":"2026-04-13T12:00:00.000Z","temp":12.8,"dewp":0.6,"wdir":190,"wspd":12,"visib":"10+","altim":1012.3,"slp":1013,"qcField":6,"presTend":0.2,"maxT":16.7,"minT":12.8,"metarType":"METAR","rawOb":"METAR KVGT 131153Z AUTO 19012KT 10SM CLR 13/01 A2989 RMK AO2 SLP130 T01280006 10167 20128 53002","lat":36.212,"lon":-115.194,"elev":664,"name":"Las Vegas/North Arpt, NV, US","cover":"CLR","clouds":[],"fltCat":"VFR"},{"icaoId":"KCNM","receiptTime":"2026-04-13T11:57:07.124Z","obsTime":1776081180,"reportTime":"2026-04-13T12:00:00.000Z","temp":17.8,"dewp":2.2,"wdir":240,"wspd":12,"visib":"10+","altim":1017.4,"slp":1012.2,"qcField":6,"presTend":0.9,"maxT":23.9,"minT":17.2,"metarType":"METAR","rawOb":"METAR KCNM 131153Z AUTO 24012KT 10SM CLR 18/02 A3004 RMK AO2 SLP122 T01780022 10239 20172 53009","lat":32.3336,"lon":-104.2584,"elev":993,"name":"Carlsbad/Cavern City Air Term, NM, US","cover":"CLR","clouds":[],"fltCat":"VFR"},{"icaoId":"KMIA","receiptTime":"2026-04-13T12:00:20.240Z","obsTime":1776081180,"reportTime":"2026-04-13T12:00:00.000Z","temp":22.8,"dewp":15,"wdir":60,"wspd":10,"wgst":17,"visib":"10+","altim":1024.1,"slp":1023.8,"qcField":0,"presTend":1.5,"maxT":23.3,"minT":22.2,"metarType":"METAR","rawOb":"METAR KMIA 131153Z 06010G17KT 10SM FEW035 BKN048 23/15 A3024 RMK SLP238 T02280150 10233 20222 53015","lat":25.7881,"lon":-80.3169,"elev":1,"name":"Miami Intl, FL, US","cover":"BKN","clouds":[{"cover":"FEW","base":3500},{"cover":"BKN","base":4800}],"fltCat":"VFR"},{"icaoId":"KDVT","receiptTime":"2026-04-13T11:57:06.331Z","obsTime":1776081180,"reportTime":"2026-04-13T12:00:00.000Z","temp":15.6,"dewp":6.7,"wdir":30,"wspd":4,"visib":"10+","altim":1014.6,"slp":1012.8,"qcField":14,"presTend":-0.5,"maxT":20.6,"minT":15,"metarType":"METAR","rawOb":"METAR KDVT 131153Z AUTO 03004KT 10SM CLR 16/07 A2996 RMK AO2 SLP128 T01560067 10206 20150 55005 $","lat":33.6902,"lon":-112.0662,"elev":454,"name":"Phoenix/Deer Valley Arpt, AZ, US","cover":"CLR","clouds":[],"fltCat":"VFR"},{"icaoId":"KBCE","receiptTime":"2026-04-13T11:57:08.359Z","obsTime":1776081180,"reportTime":"2026-04-13T12:00:00.000Z","temp":2.2,"dewp":-5,"wdir":140,"wspd":9,"visib":"10+","altim":1016.3,"slp":1008.9,"qcField":6,"presTend":0.1,"maxT":3.9,"minT":-0.6,"metarType":"METAR","rawOb":"METAR KBCE 131153Z AUTO 14009KT 10SM FEW037 SCT048 OVC070 02/M05 A3001 RMK AO2 SLP089 T00221050 10039 21006 50001","lat":37.7013,"lon":-112.149,"elev":2311,"name":"Bryce Canyon Arpt, UT, US","cover":"OVC","clouds":[{"cover":"FEW","base":3700},{"cover":"SCT","base":4800},{"cover":"OVC","base":7000}],"fltCat":"VFR"},{"icaoId":"KBHM","receiptTime":"2026-04-13T11:57:08.513Z","obsTime":1776081180,"reportTime":"2026-04-13T12:00:00.000Z","temp":15.6,"dewp":12.8,"wdir":90,"wspd":3,"visib":"10+","altim":1025.8,"slp":1025.2,"qcField":4,"presTend":0.7,"maxT":21.7,"minT":15.6,"metarType":"METAR","rawOb":"METAR KBHM 131153Z 09003KT 10SM FEW120 BKN200 BKN250 16/13 A3029 RMK AO2 SLP252 T01560128 10217 20156 51007","lat":33.5655,"lon":-86.7449,"elev":191,"name":"Birmingham Intl, AL, US","cover":"BKN","clouds":[{"cover":"FEW","base":12000},{"cover":"BKN","base":20000},{"cover":"BKN","base":25000}],"fltCat":"VFR"},{"icaoId":"KBNA","receiptTime":"2026-04-13T11:56:55.520Z","obsTime":1776081180,"reportTime":"2026-04-13T12:00:00.000Z","temp":20.6,"dewp":10,"wdir":190,"wspd":9,"visib":"10+","altim":1022.8,"slp":1022,"qcField":12,"presTend":0.8,"maxT":23.3,"minT":20.6,"pcp6hr":0.005,"metarType":"METAR","rawOb":"METAR KBNA 131153Z 19009KT 10SM FEW070 BKN100 BKN150 BKN250 21/10 A3020 RMK AO2 SLP220 60000 T02060100 10233 20206 53008 $","lat":36.1105,"lon":-86.6881,"elev":168,"name":"Nashville Intl, TN, US","cover":"BKN","clouds":[{"cover":"FEW","base":7000},{"cover":"BKN","base":10000},{"cover":"BKN","base":15000},{"cover":"BKN","base":25000}],"fltCat":"VFR"},{"icaoId":"KOAK","receiptTime":"2026-04-13T11:57:06.218Z","obsTime":1776081180,"reportTime":"2026-04-13T12:00:00.000Z","temp":10,"dewp":9.4,"wdir":80,"wspd":5,"visib":"10+","altim":1018.4,"slp":1018,"qcField":12,"presTend":-0.1,"maxT":12.8,"minT":10,"precip":0.005,"pcp6hr":0.005,"pcp24hr":0.24,"metarType":"METAR","rawOb":"METAR KOAK 131153Z 08005KT 10SM FEW015 FEW045 BKN110 10/09 A3007 RMK AO2 RAB07E29 SLP180 P0000 60000 70024 T01000094 10128 20100 55001 $","lat":37.7178,"lon":-122.233,"elev":3,"name":"Oakland Intl, CA, US","cover":"BKN","clouds":[{"cover":"FEW","base":1500},{"cover":"FEW","base":4500},{"cover":"BKN","base":11000}],"fltCat":"VFR"},{"icaoId":"KPGA","receiptTime":"2026-04-13T11:57:06.173Z","obsTime":1776081180,"reportTime":"2026-04-13T12:00:00.000Z","temp":10,"dewp":-6.1,"wdir":190,"wspd":5,"visib":"","altim":1014.6,"slp":1010.2,"qcField":14,"presTend":0.4,"maxT":16.1,"minT":9.4,"metarType":"METAR","rawOb":"METAR KPGA 131153Z AUTO 19005KT CLR 10/M06 A2996 RMK AO2 SLP102 T01001061 10161 20094 53004 $","lat":36.9211,"lon":-111.4487,"elev":1310,"name":"Page Muni, AZ, US","cover":"CLR","clouds":[]},{"icaoId":"KPDX","receiptTime":"2026-04-13T11:57:06.158Z","obsTime":1776081180,"reportTime":"2026-04-13T12:00:00.000Z","temp":8.9,"dewp":8.3,"wdir":260,"wspd":4,"visib":3,"altim":1016.7,"slp":1016.5,"qcField":12,"wxString":"-RA BR","presTend":1.7,"maxT":11.1,"minT":8.9,"precip":0.06,"pcp6hr":0.08,"pcp24hr":0.24,"metarType":"METAR","rawOb":"METAR KPDX 131153Z 26004KT 3SM -RA BR FEW009 BKN019 OVC037 09/08 A3002 RMK AO2 SLP165 P0006 60008 70024 T00890083 10111 20089 53017 $","lat":45.5958,"lon":-122.6092,"elev":7,"name":"Portland Intl, OR, US","cover":"OVC","clouds":[{"cover":"FEW","base":900},{"cover":"BKN","base":1900},{"cover":"OVC","base":3700}],"fltCat":"MVFR"},{"icaoId":"KSJC","receiptTime":"2026-04-13T11:57:03.842Z","obsTime":1776081180,"reportTime":"2026-04-13T12:00:00.000Z","temp":11.1,"dewp":8.9,"wdir":150,"wspd":4,"visib":"10+","altim":1017.7,"slp":1017.6,"qcField":14,"presTend":-0.4,"maxT":12.2,"minT":11.1,"pcp6hr":0.01,"pcp24hr":0.09,"metarType":"METAR","rawOb":"METAR KSJC 131153Z AUTO 15004KT 10SM FEW031 BKN040 OVC095 11/09 A3005 RMK AO2 SLP176 60001 70009 T01110089 10122 20111 56004 $","lat":37.3594,"lon":-121.9244,"elev":13,"name":"San Jose Intl Arpt, CA, US","cover":"OVC","clouds":[{"cover":"FEW","base":3100},{"cover":"BKN","base":4000},{"cover":"OVC","base":9500}],"fltCat":"VFR"},{"icaoId":"KHRL","receiptTime":"2026-04-13T11:57:09.507Z","obsTime":1776081120,"reportTime":"2026-04-13T12:00:00.000Z","temp":23.9,"dewp":22.2,"wdir":130,"wspd":8,"visib":"10+","altim":1017,"slp":1016.8,"qcField":4,"presTend":0.5,"maxT":24.4,"minT":23.9,"pcp24hr":0.02,"metarType":"METAR","rawOb":"METAR KHRL 131152Z 13008KT 10SM FEW018 OVC042 24/22 A3003 RMK AO2 SLP168 70002 T02390222 10244 20239 53005","lat":26.2303,"lon":-97.6556,"elev":9,"name":"Harlingen/Valley Intl, TX, US","cover":"OVC","clouds":[{"cover":"FEW","base":1800},{"cover":"OVC","base":4200}],"fltCat":"VFR"},{"icaoId":"KMLF","receiptTime":"2026-04-13T11:57:11.547Z","obsTime":1776081120,"reportTime":"2026-04-13T12:00:00.000Z","temp":3.9,"dewp":-0.6,"wdir":360,"wspd":3,"visib":"10+","altim":1014.6,"slp":1011.8,"qcField":6,"presTend":0.4,"maxT":6.7,"minT":2.2,"pcp6hr":0.005,"metarType":"METAR","rawOb":"METAR KMLF 131152Z AUTO 36003KT 10SM SCT065 OVC090 04/M01 A2996 RMK AO2 SLP118 60000 T00391006 10067 20022 53004","lat":38.4225,"lon":-113.0109,"elev":1537,"name":"Milford Muni, UT, US","cover":"OVC","clouds":[{"cover":"SCT","base":6500},{"cover":"OVC","base":9000}],"fltCat":"VFR"},{"icaoId":"KMKE","receiptTime":"2026-04-13T11:56:56.160Z","obsTime":1776081120,"reportTime":"2026-04-13T12:00:00.000Z","temp":17.2,"dewp":15.6,"wdir":230,"wspd":10,"visib":"10+","altim":1009.9,"slp":1009.7,"qcField":4,"presTend":2,"maxT":17.2,"minT":15.6,"pcp6hr":0.01,"pcp24hr":0.52,"metarType":"METAR","rawOb":"METAR KMKE 131152Z 23010KT 10SM SCT027 17/16 A2982 RMK AO2 SLP097 60001 70052 T01720156 10172 20156 53020","lat":42.9549,"lon":-87.9045,"elev":203,"name":"Milwaukee/Mitchell Intl, WI, US","cover":"SCT","clouds":[{"cover":"SCT","base":2700}],"fltCat":"VFR"},{"icaoId":"KABQ","receiptTime":"2026-04-13T11:57:11.429Z","obsTime":1776081120,"reportTime":"2026-04-13T12:00:00.000Z","temp":13.9,"dewp":0,"wdir":220,"wspd":3,"visib":"10+","altim":1018.4,"slp":1011.3,"qcField":12,"presTend":0.5,"maxT":16.7,"minT":13.9,"metarType":"METAR","rawOb":"METAR KABQ 131152Z 22003KT 10SM BKN150 14/00 A3007 RMK AO2 SLP113 T01390000 10167 20139 51005 $","lat":35.0419,"lon":-106.6154,"elev":1620,"name":"Albuquerque Intl, NM, US","cover":"BKN","clouds":[{"cover":"BKN","base":15000}],"fltCat":"VFR"},{"icaoId":"KOKC","receiptTime":"2026-04-13T11:56:56.427Z","obsTime":1776081120,"reportTime":"2026-04-13T12:00:00.000Z","temp":20.6,"dewp":17.8,"wdir":190,"wspd":15,"wgst":25,"visib":"10+","altim":1014,"slp":1012.7,"qcField":4,"presTend":0.6,"maxT":20.6,"minT":20,"pcp24hr":0.09,"metarType":"METAR","rawOb":"METAR KOKC 131152Z 19015G25KT 10SM OVC014 21/18 A2994 RMK AO2 SLP127 70009 T02060178 10206 20200 53006","lat":35.3843,"lon":-97.6003,"elev":391,"name":"Oklahoma City/Will Rogers Intl, OK, US","cover":"OVC","clouds":[{"cover":"OVC","base":1400}],"fltCat":"MVFR"},{"icaoId":"KABI","receiptTime":"2026-04-13T11:57:11.408Z","obsTime":1776081120,"reportTime":"2026-04-13T12:00:00.000Z","temp":21.1,"dewp":19.4,"wdir":180,"wspd":9,"wgst":18,"visib":"10+","altim":1016.3,"slp":1013.8,"qcField":12,"presTend":0.7,"maxT":21.7,"minT":20.6,"metarType":"METAR","rawOb":"METAR KABI 131152Z 18009G18KT 10SM CLR 21/19 A3001 RMK AO2 SLP138 T02110194 10217 20206 51007 $","lat":32.4106,"lon":-99.6821,"elev":543,"name":"Abilene Rgnl, TX, US","cover":"CLR","clouds":[],"fltCat":"VFR"},{"icaoId":"KCLT","receiptTime":"2026-04-13T11:57:09.778Z","obsTime":1776081120,"reportTime":"2026-04-13T12:00:00.000Z","temp":16.1,"dewp":12.8,"wdir":200,"wspd":6,"visib":"10+","altim":1027.9,"slp":1028.8,"qcField":4,"presTend":1.7,"maxT":19.4,"minT":15,"metarType":"METAR","rawOb":"METAR KCLT 131152Z 20006KT 10SM FEW200 BKN250 16/13 A3035 RMK AO2 SLP288 T01610128 10194 20150 51017","lat":35.2225,"lon":-80.9543,"elev":223,"name":"Charlotte/Douglas Intl, NC, US","cover":"BKN","clouds":[{"cover":"FEW","base":20000},{"cover":"BKN","base":25000}],"fltCat":"VFR"},{"icaoId":"KIAD","receiptTime":"2026-04-13T11:57:09.543Z","obsTime":1776081120,"reportTime":"2026-04-13T12:00:00.000Z","temp":19.4,"dewp":13.9,"wdir":200,"wspd":12,"wgst":21,"visib":"10+","altim":1021.1,"slp":1020.9,"qcField":4,"presTend":0.4,"maxT":19.4,"minT":15,"metarType":"METAR","rawOb":"METAR KIAD 131152Z 20012G21KT 10SM BKN160 BKN250 19/14 A3015 RMK AO2 SLP209 T01940139 10194 20150 53004","lat":38.9348,"lon":-77.4473,"elev":90,"name":"Washington/Dulles Intl, VA, US","cover":"BKN","clouds":[{"cover":"BKN","base":16000},{"cover":"BKN","base":25000}],"fltCat":"VFR"},{"icaoId":"KCVG","receiptTime":"2026-04-13T11:57:09.083Z","obsTime":1776081120,"reportTime":"2026-04-13T12:00:00.000Z","temp":20,"dewp":11.7,"wdir":210,"wspd":7,"visib":"10+","altim":1018.7,"slp":1017.8,"qcField":4,"presTend":1.6,"maxT":23.3,"minT":20,"pcp6hr":0.005,"metarType":"METAR","rawOb":"METAR KCVG 131152Z 21007KT 10SM BKN039 BKN065 OVC250 20/12 A3008 RMK AO2 SLP178 60000 T02000117 10233 20200 53016","lat":39.0444,"lon":-84.6724,"elev":264,"name":"Cincinnati Intl, KY, US","cover":"OVC","clouds":[{"cover":"BKN","base":3900},{"cover":"BKN","base":6500},{"cover":"OVC","base":25000}],"fltCat":"VFR"},{"icaoId":"KDCA","receiptTime":"2026-04-13T11:57:09.160Z","obsTime":1776081120,"reportTime":"2026-04-13T12:00:00.000Z","temp":18.3,"dewp":15,"wdir":190,"wspd":9,"visib":"10+","altim":1021.8,"slp":1021.5,"qcField":4,"presTend":0.4,"maxT":18.3,"minT":14.4,"metarType":"METAR","rawOb":"METAR KDCA 131152Z 19009KT 10SM BKN150 OVC250 18/15 A3017 RMK AO2 SLP215 T01830150 10183 20144 53004","lat":38.8472,"lon":-77.0345,"elev":4,"name":"Washington/Reagan-National Arpt, VA, US","cover":"OVC","clouds":[{"cover":"BKN","base":15000},{"cover":"OVC","base":25000}],"fltCat":"VFR"},{"icaoId":"KATL","receiptTime":"2026-04-13T11:56:57.685Z","obsTime":1776081120,"reportTime":"2026-04-13T12:00:00.000Z","temp":15.6,"dewp":11.1,"wdir":0,"wspd":0,"visib":"10+","altim":1027.5,"slp":1026.7,"qcField":12,"presTend":1.3,"maxT":19.4,"minT":15.6,"metarType":"METAR","rawOb":"METAR KATL 131152Z 00000KT 10SM FEW150 SCT200 BKN250 16/11 A3034 RMK AO2 SLP267 VIRGA SW-W T01560111 10194 20156 53013 $","lat":33.6297,"lon":-84.4422,"elev":309,"name":"Atlanta/Hartsfield-Jackson Intl, GA, US","cover":"BKN","clouds":[{"cover":"FEW","base":15000},{"cover":"SCT","base":20000},{"cover":"BKN","base":25000}],"fltCat":"VFR"},{"icaoId":"KLGU","receiptTime":"2026-04-13T11:54:07.532Z","obsTime":1776081060,"reportTime":"2026-04-13T12:00:00.000Z","temp":2.8,"dewp":1.7,"wdir":90,"wspd":3,"visib":"10+","altim":1015.3,"slp":1013.9,"qcField":6,"presTend":0.8,"maxT":3.9,"minT":1.7,"pcp6hr":0.11,"pcp24hr":0.31,"metarType":"METAR","rawOb":"METAR KLGU 131151Z AUTO 09003KT 10SM OVC041 03/02 A2998 RMK AO2 SLP139 60011 70031 T00280017 10039 20017 53008","lat":41.7865,"lon":-111.8519,"elev":1359,"name":"Logan/Cache Arpt, UT, US","cover":"OVC","clouds":[{"cover":"OVC","base":4100}],"fltCat":"VFR"},{"icaoId":"KLGA","receiptTime":"2026-04-13T11:54:07.508Z","obsTime":1776081060,"reportTime":"2026-04-13T12:00:00.000Z","temp":11.7,"dewp":8.9,"wdir":160,"wspd":5,"visib":"10+","altim":1021.1,"slp":1020.8,"qcField":12,"presTend":-1.4,"maxT":11.7,"minT":9.4,"metarType":"METAR","rawOb":"METAR KLGA 131151Z 16005KT 10SM OVC017 12/09 A3015 RMK AO2 SLP208 T01170089 10117 20094 56014 $","lat":40.7794,"lon":-73.8803,"elev":9,"name":"New York/La Guardia Arpt, NY, US","cover":"OVC","clouds":[{"cover":"OVC","base":1700}],"fltCat":"MVFR"},{"icaoId":"KCLE","receiptTime":"2026-04-13T11:54:08.707Z","obsTime":1776081060,"reportTime":"2026-04-13T12:00:00.000Z","temp":19.4,"dewp":12.8,"wdir":230,"wspd":13,"wgst":26,"visib":"10+","altim":1014,"slp":1014.9,"qcField":12,"presTend":2,"maxT":22.8,"minT":18.9,"pcp6hr":0.005,"metarType":"METAR","rawOb":"METAR KCLE 131151Z 23013G26KT 10SM BKN039 OVC055 19/13 A2994 RMK AO2 PK WND 23028/1138 SLP149 60000 T01940128 10228 20189 53020 $","lat":41.4057,"lon":-81.8519,"elev":237,"name":"Cleveland/Hopkins Intl, OH, US","cover":"OVC","clouds":[{"cover":"BKN","base":3900},{"cover":"OVC","base":5500}],"fltCat":"VFR"},{"icaoId":"KPIT","receiptTime":"2026-04-13T11:54:07.667Z","obsTime":1776081060,"reportTime":"2026-04-13T12:00:00.000Z","temp":22.2,"dewp":6.7,"wdir":220,"wspd":11,"wgst":23,"visib":"10+","altim":1016.7,"slp":1016.4,"qcField":12,"presTend":0.4,"maxT":22.2,"minT":20.6,"precip":0.005,"pcp6hr":0.005,"metarType":"METAR","rawOb":"METAR KPIT 131151Z 22011G23KT 10SM BKN065 OVC100 22/07 A3002 RMK AO2 PK WND 20028/1123 RAE26 SLP164 P0000 60000 T02220067 10222 20206 53004 $","lat":40.4814,"lon":-80.2083,"elev":339,"name":"Pittsburgh Intl, PA, US","cover":"OVC","clouds":[{"cover":"BKN","base":6500},{"cover":"OVC","base":10000}],"fltCat":"VFR"},{"icaoId":"KSAD","receiptTime":"2026-04-13T11:54:07.751Z","obsTime":1776081060,"reportTime":"2026-04-13T12:00:00.000Z","temp":12.8,"dewp":1.7,"wdir":100,"wspd":5,"visib":"10+","altim":1016.3,"slp":1012.6,"qcField":6,"presTend":0.2,"maxT":18.9,"minT":12.8,"metarType":"METAR","rawOb":"METAR KSAD 131151Z AUTO 10005KT 10SM CLR 13/02 A3001 RMK AO2 SLP126 T01280017 10189 20128 53002","lat":32.8565,"lon":-109.636,"elev":937,"name":"Safford Rgnl, AZ, US","cover":"CLR","clouds":[],"fltCat":"VFR"},{"icaoId":"KJFK","receiptTime":"2026-04-13T11:54:07.493Z","obsTime":1776081060,"reportTime":"2026-04-13T12:00:00.000Z","temp":11.1,"dewp":9.4,"wdir":190,"wspd":10,"visib":"10+","altim":1021.8,"slp":1021.5,"qcField":142,"presTend":-1.4,"maxT":11.1,"minT":7.8,"metarType":"METAR","rawOb":"METAR KJFK 131151Z AUTO 19010KT 10SM OVC018 11/09 A3017 RMK AO2 SLP215 T01110094 10111 20078 56014 PWINO $","lat":40.6392,"lon":-73.7639,"elev":3,"name":"New York/JF Kennedy Intl, NY, US","cover":"OVC","clouds":[{"cover":"OVC","base":1800}],"fltCat":"MVFR"},{"icaoId":"KROW","receiptTime":"2026-04-13T11:54:07.739Z","obsTime":1776081060,"reportTime":"2026-04-13T12:00:00.000Z","temp":18.3,"dewp":1.7,"wdir":240,"wspd":11,"visib":"10+","altim":1016.3,"slp":1010.4,"qcField":12,"presTend":1.2,"maxT":20.6,"minT":17.2,"metarType":"METAR","rawOb":"METAR KROW 131151Z 24011KT 10SM CLR 18/02 A3001 RMK AO2 SLP104 T01830017 10206 20172 53012 $","lat":33.3074,"lon":-104.5082,"elev":1105,"name":"Roswell/Ind Arpt, NM, US","cover":"CLR","clouds":[],"fltCat":"VFR"},{"icaoId":"KRDU","receiptTime":"2026-04-13T11:54:07.726Z","obsTime":1776081060,"reportTime":"2026-04-13T12:00:00.000Z","temp":17.2,"dewp":15,"wdir":220,"wspd":7,"visib":"10+","altim":1027.9,"slp":1027.5,"qcField":4,"presTend":1.9,"maxT":18.9,"minT":16.7,"metarType":"METAR","rawOb":"METAR KRDU 131151Z 22007KT 10SM BKN250 17/15 A3035 RMK AO2 SLP275 T01720150 10189 20167 53019","lat":35.8923,"lon":-78.782,"elev":121,"name":"Raleigh-Durham Intl, NC, US","cover":"BKN","clouds":[{"cover":"BKN","base":25000}],"fltCat":"VFR"},{"icaoId":"KCMH","receiptTime":"2026-04-13T11:54:08.747Z","obsTime":1776081060,"reportTime":"2026-04-13T12:00:00.000Z","temp":20.6,"dewp":11.7,"wdir":230,"wspd":13,"visib":"10+","altim":1017.7,"slp":1016.8,"qcField":4,"presTend":2,"maxT":22.2,"minT":20,"pcp6hr":0.005,"metarType":"METAR","rawOb":"METAR KCMH 131151Z 23013KT 10SM SCT055 BKN075 OVC110 21/12 A3005 RMK AO2 PK WND 23030/1108 SLP168 60000 T02060117 10222 20200 51020","lat":39.9907,"lon":-82.877,"elev":257,"name":"Columbus/Glenn Intl, OH, US","cover":"OVC","clouds":[{"cover":"SCT","base":5500},{"cover":"BKN","base":7500},{"cover":"OVC","base":11000}],"fltCat":"VFR"},{"icaoId":"KELP","receiptTime":"2026-04-13T11:54:08.891Z","obsTime":1776081060,"reportTime":"2026-04-13T12:00:00.000Z","temp":18.3,"dewp":1.7,"wdir":230,"wspd":10,"visib":"10+","altim":1018.7,"slp":1012.1,"qcField":4,"presTend":0.4,"maxT":21.7,"minT":13.9,"metarType":"METAR","rawOb":"METAR KELP 131151Z 23010KT 10SM FEW130 SCT170 BKN250 18/02 A3008 RMK AO2 SLP121 T01830017 10217 20139 53004","lat":31.8123,"lon":-106.3774,"elev":1205,"name":"El Paso Intl, TX, US","cover":"BKN","clouds":[{"cover":"FEW","base":13000},{"cover":"SCT","base":17000},{"cover":"BKN","base":25000}],"fltCat":"VFR"},{"icaoId":"KEWR","receiptTime":"2026-04-13T11:54:08.927Z","obsTime":1776081060,"reportTime":"2026-04-13T12:00:00.000Z","temp":11.7,"dewp":6.7,"wdir":260,"wspd":3,"visib":"10+","altim":1021.1,"slp":1021,"qcField":4,"presTend":-1.3,"maxT":11.7,"minT":8.9,"metarType":"METAR","rawOb":"METAR KEWR 131151Z 26003KT 10SM OVC016 12/07 A3015 RMK AO2 SLP210 T01170067 10117 20089 56013","lat":40.6828,"lon":-74.1692,"elev":2,"name":"Newark Intl, NJ, US","cover":"OVC","clouds":[{"cover":"OVC","base":1600}],"fltCat":"MVFR"},{"icaoId":"KSTL","receiptTime":"2026-04-13T11:54:09.026Z","obsTime":1776081060,"reportTime":"2026-04-13T12:00:00.000Z","temp":21.1,"dewp":16.1,"wdir":"VRB","wspd":6,"visib":"10+","altim":1015.3,"slp":1014.2,"qcField":12,"presTend":0.9,"maxT":21.7,"minT":20,"metarType":"METAR","rawOb":"METAR KSTL 131151Z VRB06KT 10SM FEW033 FEW250 21/16 A2998 RMK AO2 SLP142 T02110161 10217 20200 51009 $","lat":38.7525,"lon":-90.3734,"elev":163,"name":"St Louis/Lambert Intl, MO, US","cover":"FEW","clouds":[{"cover":"FEW","base":3300},{"cover":"FEW","base":25000}],"fltCat":"VFR"},{"icaoId":"KVNY","receiptTime":"2026-04-13T11:54:09.107Z","obsTime":1776081060,"reportTime":"2026-04-13T12:00:00.000Z","temp":11.7,"dewp":8.3,"wdir":0,"wspd":0,"visib":"10+","altim":1016,"slp":1015.5,"qcField":14,"presTend":-0.8,"maxT":13.3,"minT":11.7,"pcp24hr":0.37,"metarType":"METAR","rawOb":"METAR KVNY 131151Z AUTO 00000KT 10SM CLR 12/08 A3000 RMK AO2 SLP155 70037 T01170083 10133 20117 56008 $","lat":34.2121,"lon":-118.4915,"elev":241,"name":"Van Nuys Arpt, CA, US","cover":"CLR","clouds":[],"fltCat":"VFR"},{"icaoId":"KIGM","receiptTime":"2026-04-13T11:54:09.148Z","obsTime":1776081060,"reportTime":"2026-04-13T12:00:00.000Z","temp":10,"dewp":2.2,"wdir":180,"wspd":3,"visib":"10+","altim":1014.6,"slp":1009.8,"qcField":6,"presTend":-0.1,"maxT":15,"minT":9.4,"metarType":"METAR","rawOb":"METAR KIGM 131151Z AUTO 18003KT 10SM CLR 10/02 A2996 RMK AO2 SLP098 T01000022 10150 20094 56001","lat":35.2575,"lon":-113.9341,"elev":1045,"name":"Kingman Arpt, AZ, US","cover":"CLR","clouds":[],"fltCat":"VFR"},{"icaoId":"KHOB","receiptTime":"2026-04-13T11:58:45.094Z","obsTime":1776081060,"reportTime":"2026-04-13T12:00:00.000Z","temp":12,"dewp":9,"wdir":160,"wspd":6,"visib":"10+","altim":1018,"qcField":0,"metarType":"METAR","rawOb":"METAR KHOB 131151Z 16006KT 10SM CLR 12/09 A3006","lat":32.6797,"lon":-103.2222,"elev":1112,"name":"Hobbs Arpt, NM, US","cover":"CLR","clouds":[],"fltCat":"VFR"},{"icaoId":"KPVD","receiptTime":"2026-04-13T11:54:07.697Z","obsTime":1776081060,"reportTime":"2026-04-13T12:00:00.000Z","temp":10.6,"dewp":6.7,"wdir":200,"wspd":10,"visib":"10+","altim":1021.8,"slp":1021.7,"qcField":12,"presTend":-1.9,"maxT":10.6,"minT":7.2,"pcp6hr":0.005,"pcp24hr":0.01,"metarType":"METAR","rawOb":"METAR KPVD 131151Z 20010KT 10SM OVC021 11/07 A3017 RMK AO2 SLP217 60000 70001 T01060067 10106 20072 58019 $","lat":41.7225,"lon":-71.4325,"elev":15,"name":"Providence/Green Mem, RI, US","cover":"OVC","clouds":[{"cover":"OVC","base":2100}],"fltCat":"MVFR"},{"icaoId":"KPHX","receiptTime":"2026-04-13T11:54:07.640Z","obsTime":1776081060,"reportTime":"2026-04-13T12:00:00.000Z","temp":19.4,"dewp":6.1,"wdir":90,"wspd":4,"visib":"10+","altim":1013.6,"slp":1012.1,"qcField":12,"presTend":-0.5,"maxT":22.2,"minT":19.4,"metarType":"METAR","rawOb":"METAR KPHX 131151Z 09004KT 10SM FEW110 SCT140 SCT200 BKN240 19/06 A2993 RMK AO2 SLP121 T01940061 10222 20194 56005 $","lat":33.4278,"lon":-112.0037,"elev":338,"name":"Phoenix/Sky Harbor Intl, AZ, US","cover":"BKN","clouds":[{"cover":"FEW","base":11000},{"cover":"SCT","base":14000},{"cover":"SCT","base":20000},{"cover":"BKN","base":24000}],"fltCat":"VFR"},{"icaoId":"KOXR","receiptTime":"2026-04-13T11:54:07.626Z","obsTime":1776081060,"reportTime":"2026-04-13T12:00:00.000Z","temp":10,"dewp":7.8,"wdir":50,"wspd":4,"visib":"10+","altim":1016.3,"slp":1016.2,"qcField":6,"presTend":-0.7,"maxT":14.4,"minT":10,"metarType":"METAR","rawOb":"METAR KOXR 131151Z AUTO 05004KT 10SM CLR 10/08 A3001 RMK AO2 SLP162 T01000078 10144 20100 56007","lat":34.2001,"lon":-119.2042,"elev":12,"name":"Oxnard Arpt, CA, US","cover":"CLR","clouds":[],"fltCat":"VFR"},{"icaoId":"KORF","receiptTime":"2026-04-13T11:54:07.608Z","obsTime":1776081060,"reportTime":"2026-04-13T12:00:00.000Z","temp":17.2,"dewp":14.4,"wdir":220,"wspd":14,"visib":"10+","altim":1026.5,"slp":1026.4,"qcField":4,"presTend":1.2,"maxT":17.2,"minT":16.1,"metarType":"METAR","rawOb":"METAR KORF 131151Z 22014KT 10SM CLR 17/14 A3031 RMK AO2 SLP264 T01720144 10172 20161 53012","lat":36.9037,"lon":-76.1927,"elev":5,"name":"Norfolk Intl, VA, US","cover":"CLR","clouds":[],"fltCat":"VFR"},{"icaoId":"KIWA","receiptTime":"2026-04-13T11:50:39.445Z","obsTime":1776080880,"reportTime":"2026-04-13T12:00:00.000Z","temp":18,"dewp":5,"wdir":100,"wspd":5,"visib":"10+","altim":1014.6,"qcField":0,"metarType":"METAR","rawOb":"METAR KIWA 131148Z 10005KT 10SM SCT070 18/05 A2996","lat":33.3008,"lon":-111.6437,"elev":420,"name":"Phoenix/Mesa Gateway Arpt, AZ, US","cover":"SCT","clouds":[{"cover":"SCT","base":7000}],"fltCat":"VFR"}]