[{"icaoId":"KHII","receiptTime":"2026-04-08T18:20:15.227Z","obsTime":1775672100,"reportTime":"2026-04-08T18:15:00.000Z","temp":30,"dewp":-1,"wdir":240,"wspd":5,"visib":"10+","altim":1011.3,"qcField":6,"metarType":"METAR","rawOb":"METAR KHII 081815Z AUTO 24005KT 10SM CLR 30/M01 A2986 RMK AO2","lat":34.5659,"lon":-114.3522,"elev":241,"name":"Lake Havasu City Arpt, AZ, US","cover":"CLR","clouds":[],"fltCat":"VFR"},{"icaoId":"KSEZ","receiptTime":"2026-04-08T18:18:17.684Z","obsTime":1775672100,"reportTime":"2026-04-08T18:15:00.000Z","temp":24,"dewp":-7,"wdir":0,"wspd":0,"wgst":11,"visib":"10+","altim":1019,"qcField":6,"metarType":"METAR","rawOb":"METAR KSEZ 081815Z AUTO 00000G11KT 10SM CLR 24/M07 A3009 RMK AO2","lat":34.8467,"lon":-111.7884,"elev":1455,"name":"Sedona Arpt, AZ, US","cover":"CLR","clouds":[],"fltCat":"VFR"},{"icaoId":"KSOW","receiptTime":"2026-04-08T18:18:17.874Z","obsTime":1775672100,"reportTime":"2026-04-08T18:15:00.000Z","temp":21,"dewp":-5,"wdir":260,"wspd":7,"visib":"10+","altim":1021.4,"qcField":6,"metarType":"METAR","rawOb":"METAR KSOW 081815Z AUTO 26007KT 10SM SCT100 SCT120 21/M05 A3016 RMK AO2","lat":34.2686,"lon":-110.0019,"elev":1954,"name":"Show Low Muni, AZ, US","cover":"SCT","clouds":[{"cover":"SCT","base":10000},{"cover":"SCT","base":12000}],"fltCat":"VFR"},{"icaoId":"KFLG","receiptTime":"2026-04-08T18:00:22.033Z","obsTime":1775671020,"reportTime":"2026-04-08T18:00:00.000Z","temp":18.9,"dewp":-9.4,"wdir":260,"wspd":6,"visib":"10+","altim":1022.1,"slp":1014.8,"qcField":4,"presTend":0.3,"maxT":18.9,"minT":-1.7,"metarType":"METAR","rawOb":"METAR KFLG 081757Z 26006KT 10SM CLR 19/M09 A3018 RMK AO2 SLP148 T01891094 10189 21017 51003","lat":35.1443,"lon":-111.6664,"elev":2134,"name":"Flagstaff/Pulliam Arpt, AZ, US","cover":"CLR","clouds":[],"fltCat":"VFR"},{"icaoId":"KDUG","receiptTime":"2026-04-08T18:02:06.681Z","obsTime":1775670960,"reportTime":"2026-04-08T18:00:00.000Z","temp":25,"dewp":2.2,"wdir":90,"wspd":5,"visib":"10+","altim":1017.7,"slp":1011.9,"qcField":38,"presTend":-0.2,"maxT":25,"minT":7.2,"metarType":"METAR","rawOb":"METAR KDUG 081756Z AUTO 09005KT 10SM CLR 25/02 A3005 RMK AO2 SLP119 T02500022 10250 20072 58002 TSNO","lat":31.4725,"lon":-109.6022,"elev":1260,"name":"Douglas/Bisbee Intl, AZ, US","cover":"CLR","clouds":[],"fltCat":"VFR"},{"icaoId":"KCGZ","receiptTime":"2026-04-08T17:58:35.650Z","obsTime":1775670960,"reportTime":"2026-04-08T18:00:00.000Z","temp":29.4,"dewp":-1.1,"wdir":0,"wspd":0,"visib":"10+","altim":1013.3,"slp":1011.8,"qcField":14,"maxT":29.4,"minT":15,"metarType":"METAR","rawOb":"METAR KCGZ 081756Z AUTO 00000KT 10SM CLR 29/M01 A2992 RMK AO2 SLP118 6//// T02941011 10294 20150 $","lat":32.9531,"lon":-111.7725,"elev":444,"name":"Casa Granda Muni, AZ, US","cover":"CLR","clouds":[],"fltCat":"VFR"},{"icaoId":"KINW","receiptTime":"2026-04-08T18:00:10.842Z","obsTime":1775670960,"reportTime":"2026-04-08T18:00:00.000Z","temp":21.1,"dewp":-3.9,"wdir":80,"wspd":4,"visib":"10+","altim":1019,"slp":1013.7,"qcField":6,"presTend":-0.1,"maxT":21.1,"minT":5.6,"metarType":"METAR","rawOb":"METAR KINW 081756Z AUTO 08004KT 10SM CLR 21/M04 A3009 RMK AO2 SLP137 T02111039 10211 20056 58001","lat":35.0279,"lon":-110.7221,"elev":1492,"name":"Winslow/Lindberg Rgnl, AZ, US","cover":"CLR","clouds":[],"fltCat":"VFR"},{"icaoId":"KIFP","receiptTime":"2026-04-08T17:57:23.548Z","obsTime":1775670960,"reportTime":"2026-04-08T18:00:00.000Z","temp":28,"dewp":-3,"wdir":190,"wspd":6,"visib":"10+","altim":1011.3,"qcField":0,"metarType":"METAR","rawOb":"METAR KIFP 081756Z 19006KT 10SM CLR 28/M03 A2986","lat":35.1487,"lon":-114.5611,"elev":210,"name":"Bullhead City Intl, AZ, US","cover":"CLR","clouds":[],"fltCat":"VFR"},{"icaoId":"KLUF","receiptTime":"2026-04-08T18:06:02.833Z","obsTime":1775670900,"reportTime":"2026-04-08T18:00:00.000Z","temp":30,"dewp":-1.4,"wdir":130,"wspd":4,"visib":"10+","altim":1011.6,"slp":1010.1,"qcField":14,"presTend":0.1,"maxT":30,"minT":17.5,"metarType":"METAR","rawOb":"METAR KLUF 081755Z AUTO 13004KT 10SM CLR 30/M01 A2987 RMK AO2 SLP101 T03001014 10300 20175 50001 $","lat":33.538,"lon":-112.38,"elev":333,"name":"Phoenix/Luke AFB, AZ, US","cover":"CLR","clouds":[],"fltCat":"VFR"},{"icaoId":"KFFZ","receiptTime":"2026-04-08T18:24:07.104Z","obsTime":1775670840,"reportTime":"2026-04-08T18:00:00.000Z","temp":29.4,"dewp":0,"wdir":200,"wspd":7,"visib":"10+","altim":1012.6,"slp":1010.1,"qcField":4,"maxT":29.4,"minT":19.4,"metarType":"METAR","rawOb":"METAR KFFZ 081754Z 20007KT 10SM CLR 29/00 A2990 RMK AO2 SLP101 T02940000 10294 20194 50000","lat":33.4659,"lon":-111.7212,"elev":420,"name":"Mesa/Falcon Fld, AZ, US","cover":"CLR","clouds":[],"fltCat":"VFR"},{"icaoId":"KSJN","receiptTime":"2026-04-08T17:58:18.947Z","obsTime":1775670840,"reportTime":"2026-04-08T18:00:00.000Z","temp":19.4,"dewp":-2.2,"wdir":0,"wspd":0,"visib":"10+","altim":1020.1,"slp":1013.2,"qcField":6,"maxT":20,"minT":2.8,"metarType":"METAR","rawOb":"METAR KSJN 081754Z AUTO 00000KT 10SM CLR 19/M02 A3012 RMK AO2 SLP132 T01941022 10200 20028 50000","lat":34.5184,"lon":-109.3801,"elev":1747,"name":"St Johns Ind Arpt, AZ, US","cover":"CLR","clouds":[],"fltCat":"VFR"},{"icaoId":"KOLS","receiptTime":"2026-04-08T17:58:18.682Z","obsTime":1775670840,"reportTime":"2026-04-08T18:00:00.000Z","temp":26.7,"dewp":0,"visib":"10+","altim":1016.7,"slp":1010.6,"qcField":6,"presTend":-0.2,"maxT":27.2,"minT":9.4,"pcp6hr":0.005,"metarType":"METAR","rawOb":"METAR KOLS 081754Z AUTO 10SM CLR 27/00 A3002 RMK AO2 SLP106 60000 T02670000 10272 20094 57002","lat":31.4208,"lon":-110.8465,"elev":1194,"name":"Nogales Intl, AZ, US","cover":"CLR","clouds":[],"fltCat":"VFR"},{"icaoId":"KGCN","receiptTime":"2026-04-08T17:58:18.216Z","obsTime":1775670840,"reportTime":"2026-04-08T18:00:00.000Z","temp":18.9,"dewp":-7.8,"wdir":230,"wspd":7,"visib":"10+","altim":1021.4,"slp":1015.6,"qcField":4,"presTend":0.2,"maxT":18.9,"minT":-3.9,"metarType":"METAR","rawOb":"METAR KGCN 081754Z 23007KT 10SM CLR 19/M08 A3016 RMK AO2 SLP156 T01891078 10189 21039 52002","lat":35.9458,"lon":-112.1554,"elev":1993,"name":"Grand Canyon Park Arpt, AZ, US","cover":"CLR","clouds":[],"fltCat":"VFR"},{"icaoId":"KPGA","receiptTime":"2026-04-08T17:57:01.782Z","obsTime":1775670780,"reportTime":"2026-04-08T18:00:00.000Z","temp":21.7,"dewp":-10,"wdir":20,"wspd":5,"visib":"10+","altim":1016.7,"slp":1011,"qcField":14,"maxT":21.7,"minT":11.7,"metarType":"METAR","rawOb":"METAR KPGA 081753Z AUTO 02005KT 10SM CLR 22/M10 A3002 RMK AO2 SLP110 T02171100 10217 20117 58000 $","lat":36.9211,"lon":-111.4487,"elev":1310,"name":"Page Muni, AZ, US","cover":"CLR","clouds":[],"fltCat":"VFR"},{"icaoId":"KPRC","receiptTime":"2026-04-08T17:56:26.707Z","obsTime":1775670780,"reportTime":"2026-04-08T18:00:00.000Z","temp":22.8,"dewp":-7.8,"wdir":"VRB","wspd":4,"visib":"10+","altim":1019,"slp":1011.6,"qcField":4,"presTend":-0.1,"maxT":23.3,"minT":7.2,"metarType":"METAR","rawOb":"METAR KPRC 081753Z VRB04KT 10SM CLR 23/M08 A3009 RMK AO2 SLP116 T02281078 10233 20072 58001","lat":34.6491,"lon":-112.4223,"elev":1528,"name":"Prescott/Love Fld, AZ, US","cover":"CLR","clouds":[],"fltCat":"VFR"},{"icaoId":"KDVT","receiptTime":"2026-04-08T17:56:38.574Z","obsTime":1775670780,"reportTime":"2026-04-08T18:00:00.000Z","temp":30,"dewp":-0.6,"wdir":"VRB","wspd":4,"visib":"10+","altim":1012.6,"slp":1010.3,"qcField":4,"maxT":30,"minT":16.7,"metarType":"METAR","rawOb":"METAR KDVT 081753Z VRB04KT 10SM CLR 30/M01 A2990 RMK AO2 SLP103 T03001006 10300 20167 50000","lat":33.6902,"lon":-112.0662,"elev":454,"name":"Phoenix/Deer Valley Arpt, AZ, US","cover":"CLR","clouds":[],"fltCat":"VFR"},{"icaoId":"KTUS","receiptTime":"2026-04-08T17:57:02.329Z","obsTime":1775670780,"reportTime":"2026-04-08T18:00:00.000Z","temp":28.9,"dewp":1.1,"wdir":90,"wspd":5,"visib":"10+","altim":1015.3,"slp":1010.8,"qcField":4,"presTend":-0.3,"maxT":28.9,"minT":15,"metarType":"METAR","rawOb":"METAR KTUS 081753Z 09005KT 10SM CLR 29/01 A2998 RMK AO2 SLP108 T02890011 10289 20150 58003","lat":32.1315,"lon":-110.9564,"elev":776,"name":"Tucson Intl Arpt, AZ, US","cover":"CLR","clouds":[],"fltCat":"VFR"},{"icaoId":"KSDL","receiptTime":"2026-04-08T17:57:06.328Z","obsTime":1775670780,"reportTime":"2026-04-08T18:00:00.000Z","temp":30,"dewp":0,"wdir":140,"wspd":5,"visib":"10+","altim":1013,"slp":1010.4,"qcField":4,"maxT":30,"minT":17.2,"metarType":"METAR","rawOb":"METAR KSDL 081753Z 14005KT 10SM CLR 30/00 A2991 RMK AO2 SLP104 T03000000 10300 20172 50000","lat":33.6123,"lon":-111.9232,"elev":438,"name":"Scottsdale Muni, AZ, US","cover":"CLR","clouds":[],"fltCat":"VFR"},{"icaoId":"KIGM","receiptTime":"2026-04-08T17:54:08.006Z","obsTime":1775670660,"reportTime":"2026-04-08T18:00:00.000Z","temp":26.7,"dewp":-6.1,"wdir":0,"wspd":0,"visib":"10+","altim":1016,"slp":1009.2,"qcField":6,"presTend":0.3,"maxT":26.7,"minT":11.1,"metarType":"METAR","rawOb":"METAR KIGM 081751Z AUTO 00000KT 10SM CLR 27/M06 A3000 RMK AO2 SLP092 T02671061 10267 20111 52003","lat":35.2575,"lon":-113.9341,"elev":1045,"name":"Kingman Arpt, AZ, US","cover":"CLR","clouds":[],"fltCat":"VFR"},{"icaoId":"KPHX","receiptTime":"2026-04-08T17:54:07.220Z","obsTime":1775670660,"reportTime":"2026-04-08T18:00:00.000Z","temp":30,"dewp":0.6,"wdir":150,"wspd":4,"visib":"10+","altim":1011.9,"slp":1010,"qcField":4,"presTend":0.3,"maxT":30,"minT":20,"metarType":"METAR","rawOb":"METAR KPHX 081751Z 15004KT 10SM CLR 30/01 A2988 RMK AO2 SLP100 T03000006 10300 20200 50003","lat":33.4278,"lon":-112.0037,"elev":338,"name":"Phoenix/Sky Harbor Intl, AZ, US","cover":"CLR","clouds":[],"fltCat":"VFR"},{"icaoId":"KSAD","receiptTime":"2026-04-08T17:54:07.312Z","obsTime":1775670660,"reportTime":"2026-04-08T18:00:00.000Z","temp":25.6,"dewp":3.9,"wdir":190,"wspd":6,"visib":"10+","altim":1016,"slp":1011.4,"qcField":6,"presTend":-0.3,"maxT":25.6,"minT":10,"metarType":"METAR","rawOb":"METAR KSAD 081751Z AUTO 19006KT 10SM CLR 26/04 A3000 RMK AO2 SLP114 T02560039 10256 20100 58003","lat":32.8565,"lon":-109.636,"elev":937,"name":"Safford Rgnl, AZ, US","cover":"CLR","clouds":[],"fltCat":"VFR"},{"icaoId":"KIWA","receiptTime":"2026-04-08T17:52:11.710Z","obsTime":1775670600,"reportTime":"2026-04-08T18:00:00.000Z","temp":29,"dewp":-1,"wdir":0,"wspd":0,"visib":"10+","altim":1013.3,"qcField":0,"metarType":"METAR","rawOb":"METAR KIWA 081750Z 00000KT 10SM CLR 29/M01 A2992","lat":33.3008,"lon":-111.6437,"elev":420,"name":"Phoenix/Mesa Gateway Arpt, AZ, US","cover":"CLR","clouds":[],"fltCat":"VFR"},{"icaoId":"KGYR","receiptTime":"2026-04-08T17:50:29.899Z","obsTime":1775670420,"reportTime":"2026-04-08T18:00:00.000Z","temp":29,"dewp":0,"wdir":0,"wspd":0,"visib":"10+","altim":1012.3,"qcField":0,"metarType":"METAR","rawOb":"METAR KGYR 081747Z 00000KT 10SM SKC 29/00 A2989","lat":33.428,"lon":-112.368,"elev":292,"name":"Phoenix/Goodyear Muni, AZ, US","cover":"SKC","clouds":[],"fltCat":"VFR"},{"icaoId":"KGEU","receiptTime":"2026-04-08T17:51:41.335Z","obsTime":1775670420,"reportTime":"2026-04-08T18:00:00.000Z","temp":30,"dewp":-1,"wdir":"VRB","wspd":3,"visib":"10+","altim":1011.6,"qcField":0,"metarType":"METAR","rawOb":"METAR KGEU 081747Z VRB03KT 10SM CLR 30/M01 A2987","lat":33.528,"lon":-112.293,"elev":319,"name":"Glendale Muni, AZ, US","cover":"CLR","clouds":[],"fltCat":"VFR"},{"icaoId":"KCHD","receiptTime":"2026-04-08T18:00:26.224Z","obsTime":1775670420,"reportTime":"2026-04-08T18:00:00.000Z","temp":29,"dewp":1,"wdir":"VRB","wspd":3,"visib":"10+","altim":1012.6,"qcField":0,"metarType":"METAR","rawOb":"METAR KCHD 081747Z VRB03KT 10SM CLR 29/01 A2990","lat":33.2669,"lon":-111.8086,"elev":378,"name":"Chandler Muni, AZ, US","cover":"CLR","clouds":[],"fltCat":"VFR"},{"icaoId":"KRYN","receiptTime":"2026-04-08T17:46:22.202Z","obsTime":1775670300,"reportTime":"2026-04-08T18:00:00.000Z","temp":30,"dewp":-1,"wdir":"VRB","wspd":5,"visib":"10+","altim":1014,"qcField":0,"metarType":"METAR","rawOb":"METAR KRYN 081745Z VRB05KT 10SM CLR 30/M01 A2994","lat":32.1418,"lon":-111.1767,"elev":731,"name":"Tucson/Ryan Fld, AZ, US","cover":"CLR","clouds":[],"fltCat":"VFR"}]