[{"icaoId":"KSAT","receiptTime":"2026-04-12T16:01:05.500Z","obsTime":1776009480,"reportTime":"2026-04-12T15:58:00.000Z","temp":24.4,"dewp":21.1,"wdir":170,"wspd":14,"wgst":20,"visib":"10+","altim":1018.4,"qcField":4,"metarType":"SPECI","rawOb":"SPECI KSAT 121558Z 17014G20KT 10SM BKN015 OVC020 24/21 A3007 RMK AO2 T02440211","lat":29.5443,"lon":-98.4839,"elev":246,"name":"San Antonio Intl, TX, US","cover":"OVC","clouds":[{"cover":"BKN","base":1500},{"cover":"OVC","base":2000}],"fltCat":"MVFR"},{"icaoId":"KBJC","receiptTime":"2026-04-12T16:00:26.153Z","obsTime":1776009480,"reportTime":"2026-04-12T16:00:00.000Z","temp":18,"dewp":-7,"wdir":80,"wspd":5,"visib":"10+","altim":1011.6,"qcField":0,"metarType":"METAR","rawOb":"METAR KBJC 121558Z 08005KT 10SM CLR 18/M07 A2987","lat":39.9008,"lon":-105.1042,"elev":1694,"name":"Rocky Mtn Metro, CO, US","cover":"CLR","clouds":[],"fltCat":"VFR"},{"icaoId":"KNYL","receiptTime":"2026-04-12T16:00:25.191Z","obsTime":1776009420,"reportTime":"2026-04-12T16:00:00.000Z","temp":20,"dewp":5,"wdir":300,"wspd":13,"wgst":21,"visib":"10+","altim":1013.6,"slp":1013.2,"qcField":6,"metarType":"METAR","rawOb":"METAR KNYL 121557Z AUTO 30013G21KT 10SM CLR 20/05 A2993 RMK AO2 SLP132 T02000050","lat":32.66,"lon":-114.6078,"elev":58,"name":"Yuma , AZ, US","cover":"CLR","clouds":[],"fltCat":"VFR"},{"icaoId":"KFLG","receiptTime":"2026-04-12T16:00:21.207Z","obsTime":1776009420,"reportTime":"2026-04-12T16:00:00.000Z","temp":9.4,"dewp":-3.3,"wdir":210,"wspd":20,"wgst":29,"visib":"10+","altim":1017.4,"slp":1010.9,"qcField":12,"metarType":"METAR","rawOb":"METAR KFLG 121557Z 21020G29KT 10SM CLR 09/M03 A3004 RMK AO2 PK WND 22030/1530 SLP109 T00941033 $","lat":35.1443,"lon":-111.6664,"elev":2134,"name":"Flagstaff/Pulliam Arpt, AZ, US","cover":"CLR","clouds":[],"fltCat":"VFR"},{"icaoId":"KENV","receiptTime":"2026-04-12T15:58:38.018Z","obsTime":1776009360,"reportTime":"2026-04-12T16:00:00.000Z","temp":16.1,"dewp":-4.4,"wdir":150,"wspd":17,"visib":"10+","altim":1005.5,"slp":1003.3,"qcField":6,"metarType":"METAR","rawOb":"METAR KENV 121556Z AUTO 15017KT 10SM FEW095 16/M04 A2969 RMK AO2 SLP033 T01611044","lat":40.7211,"lon":-114.0312,"elev":1291,"name":"Wendover Arpt, UT, US","cover":"FEW","clouds":[{"cover":"FEW","base":9500}],"fltCat":"VFR"},{"icaoId":"KSDF","receiptTime":"2026-04-12T16:00:14.414Z","obsTime":1776009360,"reportTime":"2026-04-12T16:00:00.000Z","temp":26.7,"dewp":10.6,"wdir":220,"wspd":15,"visib":"10+","altim":1022.8,"slp":1022.2,"qcField":4,"metarType":"METAR","rawOb":"METAR KSDF 121556Z 22015KT 10SM FEW070 SCT300 27/11 A3020 RMK AO2 SLP222 T02670106","lat":38.1774,"lon":-85.7308,"elev":146,"name":"Louisville Intl, KY, US","cover":"SCT","clouds":[{"cover":"FEW","base":7000},{"cover":"SCT","base":30000}],"fltCat":"VFR"},{"icaoId":"KFNL","receiptTime":"2026-04-12T15:58:36.943Z","obsTime":1776009360,"reportTime":"2026-04-12T16:00:00.000Z","temp":14.4,"dewp":-1.7,"wdir":"VRB","wspd":4,"visib":"10+","altim":1011.3,"slp":1006.2,"qcField":12,"metarType":"METAR","rawOb":"METAR KFNL 121556Z VRB04KT 10SM CLR 14/M02 A2986 RMK AO2 SLP062 T01441017 $","lat":40.4427,"lon":-105.0097,"elev":1529,"name":"Fort Collins/N Colorado Rgnl, CO, US","cover":"CLR","clouds":[],"fltCat":"VFR"},{"icaoId":"KGUC","receiptTime":"2026-04-12T15:58:37.114Z","obsTime":1776009360,"reportTime":"2026-04-12T16:00:00.000Z","temp":9.4,"dewp":-3.3,"wdir":350,"wspd":3,"visib":"10+","altim":1017.4,"slp":1013.3,"qcField":14,"metarType":"METAR","rawOb":"METAR KGUC 121556Z AUTO 35003KT 10SM CLR 09/M03 A3004 RMK AO2 SLP133 T00941033 $","lat":38.5322,"lon":-106.9419,"elev":2337,"name":"Gunnison Arpt, CO, US","cover":"CLR","clouds":[],"fltCat":"VFR"},{"icaoId":"KEGE","receiptTime":"2026-04-12T15:58:37.963Z","obsTime":1776009360,"reportTime":"2026-04-12T16:00:00.000Z","temp":10,"dewp":-1.1,"wdir":0,"wspd":0,"visib":"10+","altim":1015.3,"slp":1011.2,"qcField":4,"metarType":"METAR","rawOb":"METAR KEGE 121556Z 00000KT 10SM FEW075 10/M01 A2998 RMK AO2 SLP112 T01001011","lat":39.6448,"lon":-106.9176,"elev":1993,"name":"Eagle Cnty Rgnl, CO, US","cover":"FEW","clouds":[{"cover":"FEW","base":7500}],"fltCat":"VFR"},{"icaoId":"KTPH","receiptTime":"2026-04-12T16:00:14.458Z","obsTime":1776009360,"reportTime":"2026-04-12T16:00:00.000Z","temp":5,"dewp":-1.7,"wdir":340,"wspd":7,"visib":"10+","altim":1010.2,"slp":1007.6,"qcField":6,"metarType":"METAR","rawOb":"METAR KTPH 121556Z AUTO 34007KT 10SM BKN027 OVC035 05/M02 A2983 RMK AO2 SLP076 T00501017","lat":38.0505,"lon":-117.0906,"elev":1647,"name":"Tonopah Arpt, NV, US","cover":"OVC","clouds":[{"cover":"BKN","base":2700},{"cover":"OVC","base":3500}],"fltCat":"MVFR"},{"icaoId":"KUKI","receiptTime":"2026-04-12T16:00:14.471Z","obsTime":1776009360,"reportTime":"2026-04-12T16:00:00.000Z","temp":8.3,"dewp":7.2,"wdir":220,"wspd":3,"visib":8,"altim":1007.9,"slp":1007.5,"qcField":6,"wxString":"RA","precip":0.14,"metarType":"METAR","rawOb":"METAR KUKI 121556Z AUTO 22003KT 8SM RA FEW025 BKN032 OVC043 08/07 A2976 RMK AO2 SLP075 P0014 T00830072","lat":39.1278,"lon":-123.2001,"elev":183,"name":"Ukiah Muni, CA, US","cover":"OVC","clouds":[{"cover":"FEW","base":2500},{"cover":"BKN","base":3200},{"cover":"OVC","base":4300}],"fltCat":"VFR"},{"icaoId":"KDUG","receiptTime":"2026-04-12T16:02:09.674Z","obsTime":1776009360,"reportTime":"2026-04-12T16:00:00.000Z","temp":20,"dewp":1.7,"wdir":180,"wspd":6,"wgst":17,"visib":"10+","altim":1019.7,"slp":1014,"qcField":38,"metarType":"METAR","rawOb":"METAR KDUG 121556Z AUTO 18006G17KT 10SM CLR 20/02 A3011 RMK AO2 SLP140 T02000017 TSNO","lat":31.4725,"lon":-109.6022,"elev":1260,"name":"Douglas/Bisbee Intl, AZ, US","cover":"CLR","clouds":[],"fltCat":"VFR"},{"icaoId":"KCGZ","receiptTime":"2026-04-12T15:58:44.658Z","obsTime":1776009360,"reportTime":"2026-04-12T16:00:00.000Z","temp":23.3,"dewp":1.7,"wdir":200,"wspd":11,"visib":"10+","altim":1014.6,"slp":1013.3,"qcField":14,"metarType":"METAR","rawOb":"METAR KCGZ 121556Z AUTO 20011KT 10SM CLR 23/02 A2996 RMK AO2 SLP133 T02330017 $","lat":32.9531,"lon":-111.7725,"elev":444,"name":"Casa Granda Muni, AZ, US","cover":"CLR","clouds":[],"fltCat":"VFR"},{"icaoId":"KINW","receiptTime":"2026-04-12T16:00:21.044Z","obsTime":1776009360,"reportTime":"2026-04-12T16:00:00.000Z","temp":17.2,"dewp":-1.7,"wdir":210,"wspd":19,"wgst":26,"visib":"10+","altim":1016.3,"slp":1011.5,"qcField":6,"metarType":"METAR","rawOb":"METAR KINW 121556Z AUTO 21019G26KT 10SM CLR 17/M02 A3001 RMK AO2 PK WND 20026/1555 WSHFT 1542 SLP115 T01721017","lat":35.0279,"lon":-110.7221,"elev":1492,"name":"Winslow/Lindberg Rgnl, AZ, US","cover":"CLR","clouds":[],"fltCat":"VFR"},{"icaoId":"KJAX","receiptTime":"2026-04-12T16:00:21.056Z","obsTime":1776009360,"reportTime":"2026-04-12T16:00:00.000Z","temp":26.1,"dewp":13.3,"wdir":130,"wspd":9,"visib":"10+","altim":1028.2,"slp":1027.9,"qcField":12,"metarType":"METAR","rawOb":"METAR KJAX 121556Z 13009KT 10SM FEW033 26/13 A3036 RMK AO2 SLP279 T02610133 $","lat":30.4953,"lon":-81.6937,"elev":8,"name":"Jacksonville Intl, FL, US","cover":"FEW","clouds":[{"cover":"FEW","base":3300}],"fltCat":"VFR"},{"icaoId":"KLAS","receiptTime":"2026-04-12T16:00:17.436Z","obsTime":1776009360,"reportTime":"2026-04-12T16:00:00.000Z","temp":17.8,"dewp":-1.7,"wdir":190,"wspd":15,"wgst":25,"visib":"10+","altim":1011.3,"slp":1009.5,"qcField":4,"metarType":"METAR","rawOb":"METAR KLAS 121556Z 19015G25KT 10SM CLR 18/M02 A2986 RMK AO2 PK WND 20027/1522 SLP095 T01781017","lat":36.0719,"lon":-115.1634,"elev":662,"name":"Las Vegas/Reid Intl, NV, US","cover":"CLR","clouds":[],"fltCat":"VFR"},{"icaoId":"KPVU","receiptTime":"2026-04-12T15:58:47.320Z","obsTime":1776009360,"reportTime":"2026-04-12T16:00:00.000Z","temp":14.4,"dewp":-2.8,"wdir":130,"wspd":8,"visib":"10+","altim":1008.5,"slp":1005.6,"qcField":4,"metarType":"METAR","rawOb":"METAR KPVU 121556Z 13008KT 10SM CLR 14/M03 A2978 RMK AO2 SLP056 T01441028","lat":40.224,"lon":-111.7252,"elev":1370,"name":"Provo Muni, UT, US","cover":"CLR","clouds":[],"fltCat":"VFR"},{"icaoId":"KCHS","receiptTime":"2026-04-12T16:00:20.996Z","obsTime":1776009360,"reportTime":"2026-04-12T16:00:00.000Z","temp":25.6,"dewp":13.3,"wdir":180,"wspd":5,"visib":"10+","altim":1028.9,"slp":1028.7,"qcField":4,"metarType":"METAR","rawOb":"METAR KCHS 121556Z 18005KT 10SM FEW250 26/13 A3038 RMK AO2 SLP287 T02560133","lat":32.8995,"lon":-80.0407,"elev":12,"name":"Charleston Intl, SC, US","cover":"FEW","clouds":[{"cover":"FEW","base":25000}],"fltCat":"VFR"},{"icaoId":"KSFO","receiptTime":"2026-04-12T16:00:20.889Z","obsTime":1776009360,"reportTime":"2026-04-12T16:00:00.000Z","temp":13.3,"dewp":8.9,"wdir":210,"wspd":7,"visib":"10+","altim":1011.6,"slp":1011.4,"qcField":12,"wxString":"TS","precip":0.02,"metarType":"METAR","rawOb":"METAR KSFO 121556Z 21007KT 10SM TS FEW028 BKN039CB BKN049 13/09 A2987 RMK AO2 RAB14E31 TSB50 SLP114 OCNL LTGICCCCG VC SW TS SW MOV SE P0002 T01330089 $","lat":37.6196,"lon":-122.3656,"elev":2,"name":"San Francisco Intl, CA, US","cover":"BKN","clouds":[{"cover":"FEW","base":2800},{"cover":"BKN","base":3900},{"cover":"BKN","base":4900}],"fltCat":"VFR"},{"icaoId":"KFUL","receiptTime":"2026-04-12T16:00:20.553Z","obsTime":1776009360,"reportTime":"2026-04-12T15:56:00.000Z","temp":14.4,"dewp":13.9,"wdir":"VRB","wspd":3,"visib":2,"altim":1015.3,"qcField":4,"wxString":"RA BR","precip":0.01,"metarType":"SPECI","rawOb":"SPECI KFUL 121556Z VRB03KT 2SM RA BR FEW009 BKN027 OVC049 14/14 A2998 RMK AO2 P0001 T01440139","lat":33.8715,"lon":-117.9856,"elev":23,"name":"Fullerton Muni, CA, US","cover":"OVC","clouds":[{"cover":"FEW","base":900},{"cover":"BKN","base":2700},{"cover":"OVC","base":4900}],"fltCat":"IFR"},{"icaoId":"KEKO","receiptTime":"2026-04-12T16:00:17.413Z","obsTime":1776009360,"reportTime":"2026-04-12T16:00:00.000Z","temp":1.1,"dewp":0,"wdir":250,"wspd":10,"wgst":22,"visib":1.75,"altim":1008.9,"slp":1008.3,"qcField":6,"wxString":"-SN BR","precip":0.005,"metarType":"METAR","rawOb":"METAR KEKO 121556Z AUTO 25010G22KT 1 3/4SM -SN BR OVC014 01/00 A2979 RMK AO2 PK WND 27029/1538 UPB27E32SNB32 SLP083 P0000 T00110000","lat":40.824,"lon":-115.7863,"elev":1541,"name":"Elko Rgnl, NV, US","cover":"OVC","clouds":[{"cover":"OVC","base":1400}],"fltCat":"IFR"},{"icaoId":"KCEC","receiptTime":"2026-04-12T16:00:14.578Z","obsTime":1776009360,"reportTime":"2026-04-12T16:00:00.000Z","temp":10,"dewp":7.2,"wdir":340,"wspd":3,"visib":"10+","altim":1007.2,"slp":1007.2,"qcField":6,"metarType":"METAR","rawOb":"METAR KCEC 121556Z AUTO 34003KT 10SM SCT065 SCT080 BKN100 10/07 A2974 RMK AO2 SLP072 T01000072","lat":41.7836,"lon":-124.238,"elev":17,"name":"Crescent City/McNama, CA, US","cover":"BKN","clouds":[{"cover":"SCT","base":6500},{"cover":"SCT","base":8000},{"cover":"BKN","base":10000}],"fltCat":"VFR"},{"icaoId":"KHDN","receiptTime":"2026-04-12T15:58:44.802Z","obsTime":1776009360,"reportTime":"2026-04-12T16:00:00.000Z","temp":10.6,"dewp":1.7,"wdir":50,"wspd":4,"visib":"10+","altim":1014,"slp":1010.7,"qcField":6,"metarType":"METAR","rawOb":"METAR KHDN 121556Z AUTO 05004KT 10SM CLR 11/02 A2994 RMK AO2 SLP107 T01060017","lat":40.4842,"lon":-107.2296,"elev":2012,"name":"Hayden/Yampa Valley Arpt, CO, US","cover":"CLR","clouds":[],"fltCat":"VFR"},{"icaoId":"KSGU","receiptTime":"2026-04-12T15:58:47.578Z","obsTime":1776009360,"reportTime":"2026-04-12T16:00:00.000Z","temp":18.3,"dewp":-1.7,"wdir":190,"wspd":9,"visib":"10+","altim":1010.2,"slp":1008,"qcField":6,"metarType":"METAR","rawOb":"METAR KSGU 121556Z AUTO 19009KT 10SM CLR 18/M02 A2983 RMK AO2 SLP080 T01831017","lat":37.0444,"lon":-113.5034,"elev":877,"name":"Saint George Muni, UT, US","cover":"CLR","clouds":[],"fltCat":"VFR"},{"icaoId":"KVIS","receiptTime":"2026-04-12T15:58:37.651Z","obsTime":1776009360,"reportTime":"2026-04-12T16:00:00.000Z","temp":14.4,"dewp":10.6,"wdir":140,"wspd":5,"visib":"10+","altim":1015.3,"slp":1015.2,"qcField":14,"metarType":"METAR","rawOb":"METAR KVIS 121556Z AUTO 14005KT 10SM FEW070 14/11 A2998 RMK AO2 SLP152 T01440106 PNO $","lat":36.3135,"lon":-119.3884,"elev":92,"name":"Visalia Muni, CA, US","cover":"FEW","clouds":[{"cover":"FEW","base":7000}],"fltCat":"VFR"},{"icaoId":"KHND","receiptTime":"2026-04-12T15:58:44.860Z","obsTime":1776009360,"reportTime":"2026-04-12T16:00:00.000Z","temp":17.2,"dewp":-1.1,"wdir":240,"wspd":23,"wgst":29,"visib":"10+","altim":1011.6,"slp":1011.6,"qcField":12,"metarType":"METAR","rawOb":"METAR KHND 121556Z 24023G29KT 10SM CLR 17/M01 A2987 RMK AO2 PK WND 23029/1552 SLP116 T01721011 $","lat":35.9657,"lon":-115.1343,"elev":740,"name":"Henderson Exec, NV, US","cover":"CLR","clouds":[],"fltCat":"VFR"},{"icaoId":"KSBP","receiptTime":"2026-04-12T16:00:14.397Z","obsTime":1776009360,"reportTime":"2026-04-12T16:00:00.000Z","temp":13.3,"dewp":10,"wdir":120,"wspd":5,"visib":"10+","altim":1015,"slp":1014.7,"qcField":4,"precip":0.005,"metarType":"METAR","rawOb":"METAR KSBP 121556Z 12005KT 10SM CLR 13/10 A2997 RMK AO2 RAB15E24 SLP147 P0000 T01330100","lat":35.2381,"lon":-120.644,"elev":52,"name":"San Luis Obispo/San Luis Cnty, CA, US","cover":"CLR","clouds":[],"fltCat":"VFR"},{"icaoId":"KRTS","receiptTime":"2026-04-12T15:58:40.864Z","obsTime":1776009300,"reportTime":"2026-04-12T16:00:00.000Z","temp":1,"dewp":-2,"wdir":0,"wspd":0,"visib":"10+","altim":1009.2,"qcField":6,"metarType":"METAR","rawOb":"METAR KRTS 121555Z AUTO 00000KT 10SM SCT045 SCT060 SCT075 01/M02 A2980 RMK AO2","lat":39.6658,"lon":-119.8731,"elev":1537,"name":"Reno/Stead Arpt, NV, US","cover":"SCT","clouds":[{"cover":"SCT","base":4500},{"cover":"SCT","base":6000},{"cover":"SCT","base":7500}],"fltCat":"VFR"},{"icaoId":"KMHR","receiptTime":"2026-04-12T15:58:40.232Z","obsTime":1776009300,"reportTime":"2026-04-12T16:00:00.000Z","temp":12,"dewp":11,"wdir":160,"wspd":11,"wgst":19,"visib":"10+","altim":1011.3,"qcField":6,"metarType":"METAR","rawOb":"METAR KMHR 121555Z AUTO 16011G19KT 10SM FEW012 SCT040 BKN050 12/11 A2986 RMK AO2","lat":38.56,"lon":-121.284,"elev":30,"name":"Sacramento/Mather Fld, CA, US","cover":"BKN","clouds":[{"cover":"FEW","base":1200},{"cover":"SCT","base":4000},{"cover":"BKN","base":5000}],"fltCat":"VFR"},{"icaoId":"KMEV","receiptTime":"2026-04-12T15:58:40.204Z","obsTime":1776009300,"reportTime":"2026-04-12T16:00:00.000Z","temp":5,"dewp":1,"wdir":160,"wspd":12,"visib":"10+","altim":1008.5,"qcField":6,"metarType":"METAR","rawOb":"METAR KMEV 121555Z AUTO 16012KT 10SM FEW055 SCT065 05/01 A2978 RMK AO2","lat":38.9963,"lon":-119.75,"elev":1437,"name":"Minden-Tahoe Arpt, NV, US","cover":"SCT","clouds":[{"cover":"FEW","base":5500},{"cover":"SCT","base":6500}],"fltCat":"VFR"},{"icaoId":"KCXP","receiptTime":"2026-04-12T15:58:43.362Z","obsTime":1776009300,"reportTime":"2026-04-12T16:00:00.000Z","temp":5,"dewp":-2,"wdir":60,"wspd":4,"visib":"10+","altim":1009.2,"qcField":6,"metarType":"METAR","rawOb":"METAR KCXP 121555Z AUTO 06004KT 10SM CLR 05/M02 A2980 RMK AO2","lat":39.1905,"lon":-119.7319,"elev":1431,"name":"Carson City Arpt, NV, US","cover":"CLR","clouds":[],"fltCat":"VFR"},{"icaoId":"KRNO","receiptTime":"2026-04-12T15:58:47.394Z","obsTime":1776009300,"reportTime":"2026-04-12T16:00:00.000Z","temp":3.9,"dewp":-1.1,"wdir":200,"wspd":3,"visib":"10+","altim":1008.9,"slp":1007.6,"qcField":4,"metarType":"METAR","rawOb":"METAR KRNO 121555Z 20003KT 10SM FEW029 BKN055 BKN070 04/M01 A2979 RMK AO2 SLP076 VC SH ALQDS MTN OBSD SW THRU W T00391011","lat":39.5077,"lon":-119.7683,"elev":1344,"name":"Reno/Tahoe Intl, NV, US","cover":"BKN","clouds":[{"cover":"FEW","base":2900},{"cover":"BKN","base":5500},{"cover":"BKN","base":7000}],"fltCat":"VFR"},{"icaoId":"KSEZ","receiptTime":"2026-04-12T16:00:17.501Z","obsTime":1776009300,"reportTime":"2026-04-12T16:00:00.000Z","temp":16,"dewp":-3,"wdir":"VRB","wspd":6,"wgst":14,"visib":"10+","altim":1016.7,"qcField":6,"metarType":"METAR","rawOb":"METAR KSEZ 121555Z AUTO VRB06G14KT 10SM CLR 16/M03 A3002 RMK AO2","lat":34.8467,"lon":-111.7884,"elev":1455,"name":"Sedona Arpt, AZ, US","cover":"CLR","clouds":[],"fltCat":"VFR"},{"icaoId":"KCMA","receiptTime":"2026-04-12T15:58:44.692Z","obsTime":1776009300,"reportTime":"2026-04-12T16:00:00.000Z","temp":16.7,"dewp":10.6,"wdir":260,"wspd":11,"visib":"10+","altim":1014.6,"slp":1015.5,"qcField":6,"metarType":"METAR","rawOb":"METAR KCMA 121555Z AUTO 26011KT 10SM SCT085 17/11 A2996 RMK AO2 SLP155 T01670106","lat":34.2114,"lon":-119.0876,"elev":20,"name":"Camarillo Arpt, CA, US","cover":"SCT","clouds":[{"cover":"SCT","base":8500}],"fltCat":"VFR"},{"icaoId":"KHCR","receiptTime":"2026-04-12T15:58:27.835Z","obsTime":1776009300,"reportTime":"2026-04-12T16:00:00.000Z","temp":13.3,"dewp":-4,"wdir":0,"wspd":0,"visib":"10+","altim":1008.5,"qcField":14,"metarType":"METAR","rawOb":"METAR KHCR 121555Z AUTO 00000KT 10SM CLR 13/M04 A2978 RMK AO2 T01331040 $","lat":40.4774,"lon":-111.4329,"elev":1708,"name":"Heber City Muni, UT, US","cover":"CLR","clouds":[],"fltCat":"VFR"},{"icaoId":"KHII","receiptTime":"2026-04-12T16:01:04.835Z","obsTime":1776009300,"reportTime":"2026-04-12T16:00:00.000Z","temp":21,"dewp":1,"wdir":140,"wspd":15,"visib":"10+","altim":1011.6,"qcField":6,"metarType":"METAR","rawOb":"METAR KHII 121555Z AUTO 14015KT 10SM CLR 21/01 A2987 RMK AO2","lat":34.5659,"lon":-114.3522,"elev":241,"name":"Lake Havasu City Arpt, AZ, US","cover":"CLR","clouds":[],"fltCat":"VFR"},{"icaoId":"KHAF","receiptTime":"2026-04-12T15:58:27.812Z","obsTime":1776009300,"reportTime":"2026-04-12T16:00:00.000Z","temp":13,"dewp":10,"wdir":210,"wspd":10,"visib":8,"altim":1011.9,"qcField":6,"metarType":"METAR","rawOb":"METAR KHAF 121555Z AUTO 21010KT 8SM FEW030 SCT050 BKN060 13/10 A2988 RMK AO2","lat":37.5136,"lon":-122.4996,"elev":11,"name":"Half Moon Bay Arpt, CA, US","cover":"BKN","clouds":[{"cover":"FEW","base":3000},{"cover":"SCT","base":5000},{"cover":"BKN","base":6000}],"fltCat":"VFR"},{"icaoId":"KSOW","receiptTime":"2026-04-12T15:58:29.664Z","obsTime":1776009300,"reportTime":"2026-04-12T16:00:00.000Z","temp":14,"dewp":-1,"wdir":200,"wspd":23,"wgst":29,"visib":"10+","altim":1019.4,"qcField":6,"metarType":"METAR","rawOb":"METAR KSOW 121555Z AUTO 20023G29KT 10SM CLR 14/M01 A3010 RMK AO2","lat":34.2686,"lon":-110.0019,"elev":1954,"name":"Show Low Muni, AZ, US","cover":"CLR","clouds":[],"fltCat":"VFR"},{"icaoId":"KLRU","receiptTime":"2026-04-12T15:58:35.039Z","obsTime":1776009300,"reportTime":"2026-04-12T16:00:00.000Z","temp":18.9,"dewp":4.9,"wdir":220,"wspd":4,"visib":"10+","altim":1020.4,"qcField":6,"metarType":"METAR","rawOb":"METAR KLRU 121555Z AUTO 22004KT 10SM CLR 19/05 A3013 RMK AO2 T01890049","lat":32.2884,"lon":-106.9131,"elev":1355,"name":"Las Cruces Intl, NM, US","cover":"CLR","clouds":[],"fltCat":"VFR"},{"icaoId":"KBVU","receiptTime":"2026-04-12T15:56:34.867Z","obsTime":1776009300,"reportTime":"2026-04-12T16:00:00.000Z","temp":18,"dewp":-2,"wdir":210,"wspd":13,"visib":"10+","altim":1010.9,"qcField":6,"metarType":"METAR","rawOb":"METAR KBVU 121555Z AUTO 21013KT 10SM CLR 18/M02 A2985 RMK AO2","lat":35.9489,"lon":-114.8633,"elev":654,"name":"Boulder City Muni, NV, US","cover":"CLR","clouds":[],"fltCat":"VFR"},{"icaoId":"KAPC","receiptTime":"2026-04-12T15:58:24.783Z","obsTime":1776009240,"reportTime":"2026-04-12T16:00:00.000Z","temp":10.6,"dewp":7.8,"wdir":170,"wspd":9,"visib":"10+","altim":1010.9,"slp":1009.8,"qcField":4,"precip":0.01,"metarType":"METAR","rawOb":"METAR KAPC 121554Z 17009KT 10SM FEW042 BKN070 BKN090 11/08 A2985 RMK AO2 RAE34 SLP098 P0001 T01060078","lat":38.2075,"lon":-122.2804,"elev":5,"name":"Napa Cnty Arpt, CA, US","cover":"BKN","clouds":[{"cover":"FEW","base":4200},{"cover":"BKN","base":7000},{"cover":"BKN","base":9000}],"fltCat":"VFR"},{"icaoId":"KBFL","receiptTime":"2026-04-12T15:58:24.814Z","obsTime":1776009240,"reportTime":"2026-04-12T16:00:00.000Z","temp":12.8,"dewp":9.4,"wdir":0,"wspd":0,"visib":"10+","altim":1015.3,"slp":1014.9,"qcField":12,"metarType":"METAR","rawOb":"METAR KBFL 121554Z 00000KT 10SM SCT043 BKN075 13/09 A2998 RMK AO2 SLP149 T01280094 $","lat":35.4342,"lon":-119.0552,"elev":146,"name":"Bakersfield/Meadows Arpt, CA, US","cover":"BKN","clouds":[{"cover":"SCT","base":4300},{"cover":"BKN","base":7500}],"fltCat":"VFR"},{"icaoId":"KDSM","receiptTime":"2026-04-12T15:58:25.750Z","obsTime":1776009240,"reportTime":"2026-04-12T16:00:00.000Z","temp":21.1,"dewp":15.6,"wdir":210,"wspd":21,"wgst":34,"visib":"10+","altim":1008.9,"slp":1008.5,"qcField":4,"metarType":"METAR","rawOb":"METAR KDSM 121554Z 21021G34KT 10SM BKN027 BKN080 BKN090 21/16 A2979 RMK AO2 PK WND 20034/1551 SLP085 T02110156","lat":41.5339,"lon":-93.6531,"elev":286,"name":"Des Moines Intl, IA, US","cover":"BKN","clouds":[{"cover":"BKN","base":2700},{"cover":"BKN","base":8000},{"cover":"BKN","base":9000}],"fltCat":"MVFR"},{"icaoId":"KROC","receiptTime":"2026-04-12T15:58:25.979Z","obsTime":1776009240,"reportTime":"2026-04-12T16:00:00.000Z","temp":11.1,"dewp":-1.7,"wdir":180,"wspd":9,"visib":"10+","altim":1025.5,"slp":1026.2,"qcField":4,"metarType":"METAR","rawOb":"METAR KROC 121554Z 18009KT 10SM BKN110 BKN150 OVC250 11/M02 A3028 RMK AO2 SLP262 T01111017","lat":43.1172,"lon":-77.6754,"elev":166,"name":"Rochester Intl Arpt, NY, US","cover":"OVC","clouds":[{"cover":"BKN","base":11000},{"cover":"BKN","base":15000},{"cover":"OVC","base":25000}],"fltCat":"VFR"},{"icaoId":"KSLC","receiptTime":"2026-04-12T15:58:24.086Z","obsTime":1776009240,"reportTime":"2026-04-12T16:00:00.000Z","temp":16.1,"dewp":-3.3,"wdir":170,"wspd":26,"wgst":34,"visib":"10+","altim":1007.2,"slp":1003.7,"qcField":12,"metarType":"METAR","rawOb":"METAR KSLC 121554Z 17026G34KT 10SM FEW080 BKN150 BKN200 16/M03 A2974 RMK AO2 PK WND 16035/1531 SLP037 VIRGA T01611033 $","lat":40.7707,"lon":-111.965,"elev":1286,"name":"Salt Lake City Intl, UT, US","cover":"BKN","clouds":[{"cover":"FEW","base":8000},{"cover":"BKN","base":15000},{"cover":"BKN","base":20000}],"fltCat":"VFR"},{"icaoId":"KBWI","receiptTime":"2026-04-12T15:58:24.857Z","obsTime":1776009240,"reportTime":"2026-04-12T16:00:00.000Z","temp":17.2,"dewp":7.2,"wdir":120,"wspd":6,"wgst":14,"visib":"10+","altim":1030.9,"slp":1030.8,"qcField":4,"metarType":"METAR","rawOb":"METAR KBWI 121554Z 12006G14KT 10SM FEW038 FEW250 17/07 A3044 RMK AO2 SLP308 T01720072","lat":39.1733,"lon":-76.684,"elev":42,"name":"Baltimore-Washington Intl, MD, US","cover":"FEW","clouds":[{"cover":"FEW","base":3800},{"cover":"FEW","base":25000}],"fltCat":"VFR"},{"icaoId":"KCOS","receiptTime":"2026-04-12T15:58:25.705Z","obsTime":1776009240,"reportTime":"2026-04-12T16:00:00.000Z","temp":17.2,"dewp":-5.6,"wdir":270,"wspd":6,"visib":"10+","altim":1013.6,"slp":1007.7,"qcField":4,"metarType":"METAR","rawOb":"METAR KCOS 121554Z 27006KT 10SM FEW085 FEW200 17/M06 A2993 RMK AO2 SLP077 T01721056","lat":38.8095,"lon":-104.6887,"elev":1886,"name":"Colorado Spring Arpt, CO, US","cover":"FEW","clouds":[{"cover":"FEW","base":8500},{"cover":"FEW","base":20000}],"fltCat":"VFR"},{"icaoId":"KGCN","receiptTime":"2026-04-12T15:58:25.299Z","obsTime":1776009240,"reportTime":"2026-04-12T16:00:00.000Z","temp":11.7,"dewp":-1.1,"wdir":200,"wspd":13,"wgst":30,"visib":"10+","altim":1016.7,"slp":1010.3,"qcField":4,"metarType":"METAR","rawOb":"METAR KGCN 121554Z 20013G30KT 10SM CLR 12/M01 A3002 RMK AO2 PK WND 20030/1547 SLP103 T01171011","lat":35.9458,"lon":-112.1554,"elev":1993,"name":"Grand Canyon Park Arpt, AZ, US","cover":"CLR","clouds":[],"fltCat":"VFR"},{"icaoId":"KSJN","receiptTime":"2026-04-12T15:58:24.073Z","obsTime":1776009240,"reportTime":"2026-04-12T16:00:00.000Z","temp":16.1,"dewp":-1.7,"wdir":190,"wspd":11,"visib":"10+","altim":1018,"slp":1011.5,"qcField":6,"metarType":"METAR","rawOb":"METAR KSJN 121554Z AUTO 19011KT 10SM CLR 16/M02 A3006 RMK AO2 SLP115 T01611017","lat":34.5184,"lon":-109.3801,"elev":1747,"name":"St Johns Ind Arpt, AZ, US","cover":"CLR","clouds":[],"fltCat":"VFR"},{"icaoId":"KBUF","receiptTime":"2026-04-12T15:58:25.673Z","obsTime":1776009240,"reportTime":"2026-04-12T16:00:00.000Z","temp":10.6,"dewp":-1.1,"wdir":120,"wspd":3,"visib":"10+","altim":1024.1,"slp":1024.7,"qcField":12,"metarType":"METAR","rawOb":"METAR KBUF 121554Z 12003KT 10SM BKN085 OVC130 11/M01 A3024 RMK AO2 SLP247 T01061011 $","lat":42.94,"lon":-78.7361,"elev":217,"name":"Buffalo-Niagara Intl, NY, US","cover":"OVC","clouds":[{"cover":"BKN","base":8500},{"cover":"OVC","base":13000}],"fltCat":"VFR"},{"icaoId":"KOLS","receiptTime":"2026-04-12T15:58:23.802Z","obsTime":1776009240,"reportTime":"2026-04-12T16:00:00.000Z","temp":21.7,"dewp":0,"wdir":170,"wspd":15,"wgst":22,"visib":"10+","altim":1018.7,"slp":1012.8,"qcField":6,"metarType":"METAR","rawOb":"METAR KOLS 121554Z AUTO 17015G22KT 10SM CLR 22/00 A3008 RMK AO2 SLP128 T02170000","lat":31.4208,"lon":-110.8465,"elev":1194,"name":"Nogales Intl, AZ, US","cover":"CLR","clouds":[],"fltCat":"VFR"},{"icaoId":"KGSO","receiptTime":"2026-04-12T15:58:25.784Z","obsTime":1776009240,"reportTime":"2026-04-12T16:00:00.000Z","temp":19.4,"dewp":12.8,"wdir":"VRB","wspd":4,"visib":"10+","altim":1029.2,"slp":1028.5,"qcField":4,"metarType":"METAR","rawOb":"METAR KGSO 121554Z VRB04KT 10SM SCT016 BKN250 19/13 A3039 RMK AO2 SLP285 T01940128","lat":36.0969,"lon":-79.9432,"elev":275,"name":"Greensboro Intl, NC, US","cover":"BKN","clouds":[{"cover":"SCT","base":1600},{"cover":"BKN","base":25000}],"fltCat":"VFR"},{"icaoId":"KSYR","receiptTime":"2026-04-12T15:58:26.067Z","obsTime":1776009240,"reportTime":"2026-04-12T16:00:00.000Z","temp":10,"dewp":-2.8,"wdir":110,"wspd":10,"visib":"10+","altim":1028.5,"slp":1028.5,"qcField":12,"metarType":"METAR","rawOb":"METAR KSYR 121554Z 11010KT 10SM BKN110 10/M03 A3037 RMK AO2 SLP285 T01001028 $","lat":43.1111,"lon":-76.1038,"elev":125,"name":"Syracuse/Hancock Intl, NY, US","cover":"BKN","clouds":[{"cover":"BKN","base":11000}],"fltCat":"VFR"},{"icaoId":"KMEM","receiptTime":"2026-04-12T15:58:23.603Z","obsTime":1776009240,"reportTime":"2026-04-12T16:00:00.000Z","temp":23.9,"dewp":13.3,"wdir":190,"wspd":16,"wgst":22,"visib":"10+","altim":1023.1,"slp":1022.7,"qcField":12,"metarType":"METAR","rawOb":"METAR KMEM 121554Z 19016G22KT 10SM FEW120 BKN250 24/13 A3021 RMK AO2 SLP227 T02390133 $","lat":35.0564,"lon":-89.9864,"elev":78,"name":"Memphis Intl, TN, US","cover":"BKN","clouds":[{"cover":"FEW","base":12000},{"cover":"BKN","base":25000}],"fltCat":"VFR"},{"icaoId":"KPHL","receiptTime":"2026-04-12T15:58:23.830Z","obsTime":1776009240,"reportTime":"2026-04-12T16:00:00.000Z","temp":15,"dewp":0.6,"wdir":140,"wspd":10,"visib":"10+","altim":1032.6,"slp":1032.5,"qcField":12,"metarType":"METAR","rawOb":"METAR KPHL 121554Z 14010KT 10SM FEW350 15/01 A3049 RMK AO2 SLP325 T01500006 $","lat":39.8733,"lon":-75.2268,"elev":2,"name":"Philadelphia Intl, PA, US","cover":"FEW","clouds":[{"cover":"FEW","base":35000}],"fltCat":"VFR"},{"icaoId":"KBOS","receiptTime":"2026-04-12T15:58:24.829Z","obsTime":1776009240,"reportTime":"2026-04-12T16:00:00.000Z","temp":9.4,"dewp":-6.7,"wdir":70,"wspd":8,"visib":"10+","altim":1033.9,"slp":1033.6,"qcField":4,"metarType":"METAR","rawOb":"METAR KBOS 121554Z 07008KT 10SM FEW220 BKN250 09/M07 A3053 RMK AO2 SLP336 T00941067","lat":42.3606,"lon":-71.0097,"elev":4,"name":"Boston/Logan Intl, MA, US","cover":"BKN","clouds":[{"cover":"FEW","base":22000},{"cover":"BKN","base":25000}],"fltCat":"VFR"},{"icaoId":"KIND","receiptTime":"2026-04-12T15:58:25.433Z","obsTime":1776009240,"reportTime":"2026-04-12T16:00:00.000Z","temp":25,"dewp":12.8,"wdir":200,"wspd":15,"wgst":21,"visib":"10+","altim":1020.7,"slp":1020.2,"qcField":4,"metarType":"METAR","rawOb":"METAR KIND 121554Z 20015G21KT 10SM SCT250 25/13 A3014 RMK AO2 SLP202 T02500128","lat":39.7252,"lon":-86.2816,"elev":242,"name":"Indianapolis Intl, IN, US","cover":"SCT","clouds":[{"cover":"SCT","base":25000}],"fltCat":"VFR"},{"icaoId":"KBTV","receiptTime":"2026-04-12T15:58:25.656Z","obsTime":1776009240,"reportTime":"2026-04-12T16:00:00.000Z","temp":8.3,"dewp":-5,"wdir":230,"wspd":9,"visib":"10+","altim":1031.6,"slp":1031.7,"qcField":4,"metarType":"METAR","rawOb":"METAR KBTV 121554Z 23009KT 10SM BKN120 OVC150 08/M05 A3046 RMK AO2 SLP317 T00831050","lat":44.4682,"lon":-73.1499,"elev":101,"name":"Burlington Intl, VT, US","cover":"OVC","clouds":[{"cover":"BKN","base":12000},{"cover":"OVC","base":15000}],"fltCat":"VFR"},{"icaoId":"KRIC","receiptTime":"2026-04-12T15:58:25.948Z","obsTime":1776009240,"reportTime":"2026-04-12T16:00:00.000Z","temp":20.6,"dewp":5.6,"wdir":130,"wspd":8,"visib":"10+","altim":1030.9,"slp":1031.2,"qcField":12,"metarType":"METAR","rawOb":"METAR KRIC 121554Z 13008KT 10SM SCT300 21/06 A3044 RMK AO2 SLP312 T02060056 $","lat":37.5115,"lon":-77.3234,"elev":51,"name":"Richmond Intl, VA, US","cover":"SCT","clouds":[{"cover":"SCT","base":30000}],"fltCat":"VFR"},{"icaoId":"KFFZ","receiptTime":"2026-04-12T15:58:27.343Z","obsTime":1776009240,"reportTime":"2026-04-12T16:00:00.000Z","temp":23.3,"dewp":3.3,"wdir":190,"wspd":5,"visib":"10+","altim":1013.6,"slp":1011.4,"qcField":4,"metarType":"METAR","rawOb":"METAR KFFZ 121554Z 19005KT 10SM CLR 23/03 A2993 RMK AO2 SLP114 T02330033","lat":33.4659,"lon":-111.7212,"elev":420,"name":"Mesa/Falcon Fld, AZ, US","cover":"CLR","clouds":[],"fltCat":"VFR"},{"icaoId":"KSAF","receiptTime":"2026-04-12T15:56:40.485Z","obsTime":1776009180,"reportTime":"2026-04-12T16:00:00.000Z","temp":14.4,"dewp":0.6,"wdir":220,"wspd":11,"visib":"10+","altim":1019.7,"slp":1013.3,"qcField":12,"metarType":"METAR","rawOb":"METAR KSAF 121553Z 22011KT 10SM CLR 14/01 A3011 RMK AO2 SLP133 T01440006 $","lat":35.611,"lon":-106.0957,"elev":1918,"name":"Santa Fe Cnty Muni, NM, US","cover":"CLR","clouds":[],"fltCat":"VFR"},{"icaoId":"KSBA","receiptTime":"2026-04-12T15:56:37.980Z","obsTime":1776009180,"reportTime":"2026-04-12T16:00:00.000Z","temp":15.6,"dewp":8.9,"wdir":270,"wspd":5,"visib":9,"altim":1015,"slp":1014.8,"qcField":12,"metarType":"METAR","rawOb":"METAR KSBA 121553Z 27005KT 9SM CLR 16/09 A2997 RMK AO2 SLP148 T01560089 $","lat":34.4241,"lon":-119.8425,"elev":2,"name":"Santa Barbara Muni, CA, US","cover":"CLR","clouds":[],"fltCat":"VFR"},{"icaoId":"KMYR","receiptTime":"2026-04-12T15:56:38.458Z","obsTime":1776009180,"reportTime":"2026-04-12T16:00:00.000Z","temp":22.8,"dewp":10.6,"wdir":130,"wspd":7,"visib":"10+","altim":1029.9,"slp":1029.8,"qcField":12,"metarType":"METAR","rawOb":"METAR KMYR 121553Z 13007KT 10SM CLR 23/11 A3041 RMK AO2 SLP298 T02280106 $","lat":33.6769,"lon":-78.9325,"elev":7,"name":"Myrtle Beach Intl, SC, US","cover":"CLR","clouds":[],"fltCat":"VFR"},{"icaoId":"KELY","receiptTime":"2026-04-12T15:56:38.708Z","obsTime":1776009180,"reportTime":"2026-04-12T16:00:00.000Z","temp":7.2,"dewp":-11.1,"wdir":180,"wspd":22,"wgst":31,"visib":"10+","altim":1008.5,"slp":1004.5,"qcField":6,"metarType":"METAR","rawOb":"METAR KELY 121553Z AUTO 18022G31KT 10SM FEW070 07/M11 A2978 RMK AO2 PK WND 18042/1515 SLP045 T00721111","lat":39.2954,"lon":-114.8466,"elev":1906,"name":"Ely/Yelland Fld, NV, US","cover":"FEW","clouds":[{"cover":"FEW","base":7000}],"fltCat":"VFR"},{"icaoId":"KBRO","receiptTime":"2026-04-12T15:56:38.723Z","obsTime":1776009180,"reportTime":"2026-04-12T16:00:00.000Z","temp":27.2,"dewp":21.7,"wdir":150,"wspd":21,"wgst":28,"visib":"10+","altim":1018,"slp":1017.7,"qcField":4,"metarType":"METAR","rawOb":"METAR KBRO 121553Z 15021G28KT 10SM SCT020 BKN025 OVC041 27/22 A3006 RMK AO2 PK WND 14031/1536 SLP177 T02720217","lat":25.9146,"lon":-97.4231,"elev":6,"name":"Brownsville Intl, TX, US","cover":"OVC","clouds":[{"cover":"SCT","base":2000},{"cover":"BKN","base":2500},{"cover":"OVC","base":4100}],"fltCat":"MVFR"},{"icaoId":"KMTJ","receiptTime":"2026-04-12T15:56:42.316Z","obsTime":1776009180,"reportTime":"2026-04-12T16:00:00.000Z","temp":16.7,"dewp":-8.9,"wdir":230,"wspd":14,"visib":"10+","altim":1014.6,"slp":1008.9,"qcField":6,"metarType":"METAR","rawOb":"METAR KMTJ 121553Z AUTO 23014KT 10SM CLR 17/M09 A2996 RMK AO2 PK WND 19027/1528 SLP089 T01671089","lat":38.5054,"lon":-107.8981,"elev":1755,"name":"Montrose Rgnl, CO, US","cover":"CLR","clouds":[],"fltCat":"VFR"},{"icaoId":"KCNM","receiptTime":"2026-04-12T15:56:39.630Z","obsTime":1776009180,"reportTime":"2026-04-12T16:00:00.000Z","temp":20.6,"dewp":12.2,"wdir":"VRB","wspd":3,"visib":"10+","altim":1017.4,"slp":1013.3,"qcField":6,"metarType":"METAR","rawOb":"METAR KCNM 121553Z AUTO VRB03KT 10SM CLR 21/12 A3004 RMK AO2 SLP133 T02060122","lat":32.3336,"lon":-104.2584,"elev":993,"name":"Carlsbad/Cavern City Air Term, NM, US","cover":"CLR","clouds":[],"fltCat":"VFR"},{"icaoId":"KLVS","receiptTime":"2026-04-12T15:56:39.835Z","obsTime":1776009180,"reportTime":"2026-04-12T16:00:00.000Z","temp":13.9,"dewp":0,"wdir":190,"wspd":24,"wgst":31,"visib":"10+","altim":1018.7,"slp":1011.8,"qcField":14,"metarType":"METAR","rawOb":"METAR KLVS 121553Z AUTO 19024G31KT 10SM CLR 14/00 A3008 RMK AO2 PK WND 19031/1553 SLP118 T01390000 PNO $","lat":35.6558,"lon":-105.1385,"elev":2095,"name":"Las Vegas Muni, NM, US","cover":"CLR","clouds":[],"fltCat":"VFR"},{"icaoId":"KTUL","receiptTime":"2026-04-12T15:56:40.600Z","obsTime":1776009180,"reportTime":"2026-04-12T16:00:00.000Z","temp":19.4,"dewp":17.8,"wdir":170,"wspd":18,"wgst":24,"visib":8,"altim":1013,"slp":1012.3,"qcField":4,"wxString":"-RA","precip":0.005,"metarType":"METAR","rawOb":"METAR KTUL 121553Z 17018G24KT 8SM -RA BKN012 OVC017 19/18 A2991 RMK AO2 PK WND 18028/1522 RAB1456E12B18E46B53 SLP123 P0000 T01940178","lat":36.1985,"lon":-95.8782,"elev":196,"name":"Tulsa Intl Arpt, OK, US","cover":"OVC","clouds":[{"cover":"BKN","base":1200},{"cover":"OVC","base":1700}],"fltCat":"MVFR"},{"icaoId":"KMAF","receiptTime":"2026-04-12T15:56:41.785Z","obsTime":1776009180,"reportTime":"2026-04-12T16:00:00.000Z","temp":21.1,"dewp":15,"wdir":190,"wspd":12,"visib":"10+","altim":1017.7,"slp":1014.3,"qcField":4,"metarType":"METAR","rawOb":"METAR KMAF 121553Z 19012KT 10SM CLR 21/15 A3005 RMK AO2 SLP143 T02110150","lat":31.9475,"lon":-102.2086,"elev":874,"name":"Midland Intl, TX, US","cover":"CLR","clouds":[],"fltCat":"VFR"},{"icaoId":"KFMN","receiptTime":"2026-04-12T15:56:32.882Z","obsTime":1776009180,"reportTime":"2026-04-12T16:00:00.000Z","temp":13.9,"dewp":-2.2,"wdir":100,"wspd":4,"visib":"10+","altim":1017,"slp":1013.4,"qcField":4,"metarType":"METAR","rawOb":"METAR KFMN 121553Z 10004KT 10SM CLR 14/M02 A3003 RMK AO2 SLP134 T01391022","lat":36.7435,"lon":-108.2293,"elev":1677,"name":"Farmington/Four Corners Rgnl, NM, US","cover":"CLR","clouds":[],"fltCat":"VFR"},{"icaoId":"KSDL","receiptTime":"2026-04-12T15:56:37.995Z","obsTime":1776009180,"reportTime":"2026-04-12T16:00:00.000Z","temp":21.7,"dewp":2.8,"wdir":160,"wspd":4,"visib":"10+","altim":1014.3,"slp":1012.1,"qcField":4,"metarType":"METAR","rawOb":"METAR KSDL 121553Z 16004KT 10SM CLR 22/03 A2995 RMK AO2 SLP121 T02170028","lat":33.6123,"lon":-111.9232,"elev":438,"name":"Scottsdale Muni, AZ, US","cover":"CLR","clouds":[],"fltCat":"VFR"},{"icaoId":"KSNA","receiptTime":"2026-04-12T15:56:38.042Z","obsTime":1776009180,"reportTime":"2026-04-12T16:00:00.000Z","temp":15.6,"dewp":13.9,"wdir":260,"wspd":4,"wgst":19,"visib":1,"altim":1015.3,"slp":1015.3,"qcField":12,"wxString":"+RA BR","precip":0.3,"metarType":"METAR","rawOb":"METAR KSNA 121553Z 26004G19KT 1SM R20R/2200VP6000FT +RA BR BKN011 OVC018 16/14 A2998 RMK AO2 RAB13 SLP153 P0030 T01560139 $","lat":33.6798,"lon":-117.8675,"elev":14,"name":"Santa Ana/Wayne Arpt, CA, US","cover":"OVC","clouds":[{"cover":"BKN","base":1100},{"cover":"OVC","base":1800}],"fltCat":"IFR"},{"icaoId":"KDVT","receiptTime":"2026-04-12T16:02:09.881Z","obsTime":1776009180,"reportTime":"2026-04-12T16:00:00.000Z","temp":22.8,"dewp":2.8,"wdir":160,"wspd":8,"visib":"10+","altim":1014,"slp":1011.7,"qcField":13,"metarType":"METAR","rawOb":"METAR KDVT 121553Z COR 16008KT 10SM CLR 23/03 A2994 RMK AO2 SLP117 T02280028 $","lat":33.6902,"lon":-112.0662,"elev":454,"name":"Phoenix/Deer Valley Arpt, AZ, US","cover":"CLR","clouds":[],"fltCat":"VFR"},{"icaoId":"KMCI","receiptTime":"2026-04-12T15:56:40.382Z","obsTime":1776009180,"reportTime":"2026-04-12T16:00:00.000Z","temp":17.2,"dewp":16.7,"wdir":210,"wspd":9,"visib":1.5,"altim":1012.3,"slp":1011.5,"qcField":4,"wxString":"-RA BR","precip":0.24,"metarType":"METAR","rawOb":"METAR KMCI 121553Z 21009KT 1 1/2SM -RA BR BKN010 OVC017 17/17 A2989 RMK AO2 SFC VIS 5 SLP115 P0024 T01720167","lat":39.2975,"lon":-94.7309,"elev":308,"name":"Kansas City Intl, MO, US","cover":"OVC","clouds":[{"cover":"BKN","base":1000},{"cover":"OVC","base":1700}],"fltCat":"IFR"},{"icaoId":"KMFE","receiptTime":"2026-04-12T15:56:36.240Z","obsTime":1776009180,"reportTime":"2026-04-12T16:00:00.000Z","temp":26.7,"dewp":22.2,"wdir":150,"wspd":14,"wgst":24,"visib":"10+","altim":1017.7,"slp":1017.2,"qcField":12,"metarType":"METAR","rawOb":"METAR KMFE 121553Z 15014G24KT 10SM BKN017 BKN022 OVC043 27/22 A3005 RMK AO2 SLP172 T02670222 $","lat":26.1791,"lon":-98.2445,"elev":29,"name":"McAllen/Miller Intl, TX, US","cover":"OVC","clouds":[{"cover":"BKN","base":1700},{"cover":"BKN","base":2200},{"cover":"OVC","base":4300}],"fltCat":"MVFR"},{"icaoId":"KMIA","receiptTime":"2026-04-12T16:02:10.410Z","obsTime":1776009180,"reportTime":"2026-04-12T16:00:00.000Z","temp":26.1,"dewp":13.9,"wdir":70,"wspd":13,"wgst":20,"visib":"10+","altim":1024.8,"slp":1024.8,"qcField":0,"metarType":"METAR","rawOb":"METAR KMIA 121553Z 07013G20KT 10SM BKN047 26/14 A3026 RMK SLP248 T02610139","lat":25.7881,"lon":-80.3169,"elev":1,"name":"Miami Intl, FL, US","cover":"BKN","clouds":[{"cover":"BKN","base":4700}],"fltCat":"VFR"},{"icaoId":"KPBI","receiptTime":"2026-04-12T15:56:42.463Z","obsTime":1776009180,"reportTime":"2026-04-12T16:00:00.000Z","temp":26.7,"dewp":13.9,"wdir":80,"wspd":15,"wgst":24,"visib":"10+","altim":1026.2,"slp":1025.8,"qcField":12,"metarType":"METAR","rawOb":"METAR KPBI 121553Z 08015G24KT 10SM SCT043 27/14 A3030 RMK AO2 SLP258 T02670139 $","lat":26.6851,"lon":-80.0992,"elev":4,"name":"Palm Beach Intl, FL, US","cover":"SCT","clouds":[{"cover":"SCT","base":4300}],"fltCat":"VFR"},{"icaoId":"KONT","receiptTime":"2026-04-12T15:56:37.914Z","obsTime":1776009180,"reportTime":"2026-04-12T16:00:00.000Z","temp":13.9,"dewp":10.6,"wdir":350,"wspd":5,"visib":7,"altim":1015.3,"slp":1014.6,"qcField":12,"wxString":"-RA","precip":0.005,"metarType":"METAR","rawOb":"METAR KONT 121553Z 35005KT 7SM -RA BKN031 BKN045 OVC055 14/11 A2998 RMK AO2 RAB43 SLP146 P0000 T01390106 $","lat":34.0531,"lon":-117.5769,"elev":279,"name":"Ontario Intl, CA, US","cover":"OVC","clouds":[{"cover":"BKN","base":3100},{"cover":"BKN","base":4500},{"cover":"OVC","base":5500}],"fltCat":"VFR"},{"icaoId":"KGEU","receiptTime":"2026-04-12T15:55:29.784Z","obsTime":1776009180,"reportTime":"2026-04-12T16:00:00.000Z","temp":23,"dewp":1,"wdir":220,"wspd":5,"visib":"10+","altim":1012.6,"qcField":0,"metarType":"METAR","rawOb":"METAR KGEU 121553Z 22005KT 10SM CLR 23/01 A2990","lat":33.528,"lon":-112.293,"elev":319,"name":"Glendale Muni, AZ, US","cover":"CLR","clouds":[],"fltCat":"VFR"},{"icaoId":"KIAH","receiptTime":"2026-04-12T15:56:36.225Z","obsTime":1776009180,"reportTime":"2026-04-12T16:00:00.000Z","temp":25.6,"dewp":20.6,"wdir":150,"wspd":16,"wgst":21,"visib":"10+","altim":1020.4,"slp":1020.4,"qcField":4,"metarType":"METAR","rawOb":"METAR KIAH 121553Z 15016G21KT 10SM BKN022 OVC034 26/21 A3013 RMK AO2 SLP204 T02560206","lat":29.9844,"lon":-95.3607,"elev":27,"name":"Houston/Bush Intl, TX, US","cover":"OVC","clouds":[{"cover":"BKN","base":2200},{"cover":"OVC","base":3400}],"fltCat":"MVFR"},{"icaoId":"KOGD","receiptTime":"2026-04-12T15:56:42.378Z","obsTime":1776009180,"reportTime":"2026-04-12T16:00:00.000Z","temp":14.4,"dewp":-2.8,"wdir":170,"wspd":18,"wgst":31,"visib":"10+","altim":1006.9,"slp":1003.5,"qcField":4,"metarType":"METAR","rawOb":"METAR KOGD 121553Z 17018G31KT 10SM FEW120 14/M03 A2973 RMK AO2 PK WND 16031/1551 SLP035 T01441028","lat":41.1941,"lon":-112.0168,"elev":1356,"name":"Ogden/Hinckley Arpt, UT, US","cover":"FEW","clouds":[{"cover":"FEW","base":12000}],"fltCat":"VFR"},{"icaoId":"KAUS","receiptTime":"2026-04-12T15:56:31.869Z","obsTime":1776009180,"reportTime":"2026-04-12T16:00:00.000Z","temp":22.8,"dewp":21.1,"wdir":180,"wspd":10,"visib":6,"altim":1019,"slp":1018.2,"qcField":4,"wxString":"BR","precip":0.005,"metarType":"METAR","rawOb":"METAR KAUS 121553Z 18010KT 6SM BR OVC009 23/21 A3009 RMK AO2 RAB30E41 SLP182 CIG 008V011 P0000 T02280211","lat":30.1831,"lon":-97.6806,"elev":148,"name":"Austin/Bergstrom Intl, TX, US","cover":"OVC","clouds":[{"cover":"OVC","base":900}],"fltCat":"IFR"},{"icaoId":"KBNA","receiptTime":"2026-04-12T15:56:31.901Z","obsTime":1776009180,"reportTime":"2026-04-12T16:00:00.000Z","temp":27.2,"dewp":9.4,"wdir":200,"wspd":9,"visib":"10+","altim":1024.8,"slp":1024.2,"qcField":12,"metarType":"METAR","rawOb":"METAR KBNA 121553Z 20009KT 10SM SCT250 27/09 A3026 RMK AO2 SLP242 T02720094 $","lat":36.1105,"lon":-86.6881,"elev":168,"name":"Nashville Intl, TN, US","cover":"SCT","clouds":[{"cover":"SCT","base":25000}],"fltCat":"VFR"},{"icaoId":"KMOD","receiptTime":"2026-04-12T15:56:42.267Z","obsTime":1776009180,"reportTime":"2026-04-12T16:00:00.000Z","temp":12.2,"dewp":8.9,"wdir":160,"wspd":8,"wgst":17,"visib":"10+","altim":1013,"slp":1012.8,"qcField":6,"precip":0.01,"metarType":"METAR","rawOb":"METAR KMOD 121553Z AUTO 16008G17KT 10SM FEW041 OVC050 12/09 A2991 RMK AO2 RAB02E24 SLP128 P0001 T01220089","lat":37.6254,"lon":-120.9549,"elev":25,"name":"Modesto/Sham Fld, CA, US","cover":"OVC","clouds":[{"cover":"FEW","base":4100},{"cover":"OVC","base":5000}],"fltCat":"VFR"},{"icaoId":"KASE","receiptTime":"2026-04-12T15:56:32.291Z","obsTime":1776009180,"reportTime":"2026-04-12T16:00:00.000Z","temp":11.1,"dewp":-11.1,"wdir":180,"wspd":15,"wgst":24,"visib":"10+","altim":1016,"slp":1007.2,"qcField":4,"metarType":"METAR","rawOb":"METAR KASE 121553Z 18015G24KT 10SM CLR 11/M11 A3000 RMK AO2 PK WND 16026/1536 SLP072 T01111111","lat":39.2299,"lon":-106.8705,"elev":2384,"name":"Aspen/Pitkin Cnty, CO, US","cover":"CLR","clouds":[],"fltCat":"VFR"},{"icaoId":"KCNY","receiptTime":"2026-04-12T15:56:33.919Z","obsTime":1776009180,"reportTime":"2026-04-12T16:00:00.000Z","temp":17.2,"dewp":-6.7,"wdir":190,"wspd":13,"wgst":21,"visib":"10+","altim":1010.9,"slp":1006.9,"qcField":14,"metarType":"METAR","rawOb":"METAR KCNY 121553Z AUTO 19013G21KT 10SM CLR 17/M07 A2985 RMK AO2 SLP069 T01721067 $","lat":38.7501,"lon":-109.7627,"elev":1392,"name":"Moab/Canyonland Fld, UT, US","cover":"CLR","clouds":[],"fltCat":"VFR"},{"icaoId":"KDEN","receiptTime":"2026-04-12T15:56:32.216Z","obsTime":1776009180,"reportTime":"2026-04-12T16:00:00.000Z","temp":18.9,"dewp":-6.1,"wdir":240,"wspd":9,"visib":"10+","altim":1011.3,"slp":1004.9,"qcField":4,"metarType":"METAR","rawOb":"METAR KDEN 121553Z 24009KT 10SM FEW100 FEW150 FEW220 19/M06 A2986 RMK AO2 SLP049 T01891061","lat":39.8466,"lon":-104.6562,"elev":1656,"name":"Denver Intl, CO, US","cover":"FEW","clouds":[{"cover":"FEW","base":10000},{"cover":"FEW","base":15000},{"cover":"FEW","base":22000}],"fltCat":"VFR"},{"icaoId":"KRDD","receiptTime":"2026-04-12T15:56:42.123Z","obsTime":1776009180,"reportTime":"2026-04-12T16:00:00.000Z","temp":11.1,"dewp":7.2,"wdir":170,"wspd":15,"wgst":27,"visib":"10+","altim":1007.9,"slp":1007.5,"qcField":12,"metarType":"METAR","rawOb":"METAR KRDD 121553Z 17015G27KT 10SM FEW021 SCT026 OVC042 11/07 A2976 RMK AO2 PK WND 17030/1523 SLP075 T01110072 $","lat":40.5146,"lon":-122.2977,"elev":152,"name":"Redding Muni, CA, US","cover":"OVC","clouds":[{"cover":"FEW","base":2100},{"cover":"SCT","base":2600},{"cover":"OVC","base":4200}],"fltCat":"VFR"},{"icaoId":"KPRC","receiptTime":"2026-04-12T15:56:37.952Z","obsTime":1776009180,"reportTime":"2026-04-12T16:00:00.000Z","temp":15.6,"dewp":0,"wdir":180,"wspd":9,"visib":"10+","altim":1016,"slp":1010.1,"qcField":4,"metarType":"METAR","rawOb":"METAR KPRC 121553Z 18009KT 10SM CLR 16/00 A3000 RMK AO2 SLP101 T01560000","lat":34.6491,"lon":-112.4223,"elev":1528,"name":"Prescott/Love Fld, AZ, US","cover":"CLR","clouds":[],"fltCat":"VFR"},{"icaoId":"KRTN","receiptTime":"2026-04-12T15:56:34.439Z","obsTime":1776009180,"reportTime":"2026-04-12T16:00:00.000Z","temp":12.2,"dewp":3.9,"wdir":250,"wspd":6,"visib":"10+","altim":1016.3,"slp":1011.3,"qcField":6,"metarType":"METAR","rawOb":"METAR KRTN 121553Z AUTO 25006KT 10SM CLR 12/04 A3001 RMK AO2 SLP113 T01220039","lat":36.7418,"lon":-104.5076,"elev":1939,"name":"Raton/Crews Fld, NM, US","cover":"CLR","clouds":[],"fltCat":"VFR"},{"icaoId":"KHOU","receiptTime":"2026-04-12T15:56:36.181Z","obsTime":1776009180,"reportTime":"2026-04-12T16:00:00.000Z","temp":25.6,"dewp":20.6,"wdir":160,"wspd":16,"wgst":23,"visib":9,"altim":1020.4,"slp":1020.9,"qcField":12,"metarType":"METAR","rawOb":"METAR KHOU 121553Z 16016G23KT 9SM BKN020 OVC030 26/21 A3013 RMK AO2 SLP209 T02560206 $","lat":29.6458,"lon":-95.2821,"elev":13,"name":"Houston/Hobby Arpt, TX, US","cover":"OVC","clouds":[{"cover":"BKN","base":2000},{"cover":"OVC","base":3000}],"fltCat":"MVFR"},{"icaoId":"KMDW","receiptTime":"2026-04-12T15:56:40.411Z","obsTime":1776009180,"reportTime":"2026-04-12T16:00:00.000Z","temp":23.9,"dewp":13.9,"wdir":210,"wspd":16,"wgst":27,"visib":"10+","altim":1014.6,"slp":1014,"qcField":4,"metarType":"METAR","rawOb":"METAR KMDW 121553Z 21016G27KT 10SM FEW070 BKN140 BKN250 24/14 A2996 RMK AO2 PK WND 22028/1535 SLP140 T02390139","lat":41.7841,"lon":-87.7552,"elev":186,"name":"Chicago/Midway Intl, IL, US","cover":"BKN","clouds":[{"cover":"FEW","base":7000},{"cover":"BKN","base":14000},{"cover":"BKN","base":25000}],"fltCat":"VFR"},{"icaoId":"KPUB","receiptTime":"2026-04-12T15:56:42.042Z","obsTime":1776009180,"reportTime":"2026-04-12T16:00:00.000Z","temp":20,"dewp":-3.3,"wdir":280,"wspd":9,"visib":"10+","altim":1011.9,"slp":1007.1,"qcField":12,"metarType":"METAR","rawOb":"METAR KPUB 121553Z 28009KT 10SM CLR 20/M03 A2988 RMK AO2 SLP071 T02001033 $","lat":38.2887,"lon":-104.5057,"elev":1441,"name":"Pueblo Mem Arpt, CO, US","cover":"CLR","clouds":[],"fltCat":"VFR"},{"icaoId":"KCLL","receiptTime":"2026-04-12T15:56:42.926Z","obsTime":1776009180,"reportTime":"2026-04-12T16:00:00.000Z","temp":21.7,"dewp":21.1,"wdir":140,"wspd":9,"wgst":17,"visib":7,"altim":1020.1,"slp":1019.5,"qcField":4,"precip":0.005,"metarType":"METAR","rawOb":"METAR KCLL 121553Z 14009G17KT 7SM BKN008 BKN019 OVC031 22/21 A3012 RMK AO2 RAE39 CIG 006V010 SLP195 P0000 T02170211","lat":30.5912,"lon":-96.3631,"elev":96,"name":"College Station/Easterwood Arpt, TX, US","cover":"OVC","clouds":[{"cover":"BKN","base":800},{"cover":"BKN","base":1900},{"cover":"OVC","base":3100}],"fltCat":"IFR"},{"icaoId":"KACV","receiptTime":"2026-04-12T15:56:37.765Z","obsTime":1776009180,"reportTime":"2026-04-12T16:00:00.000Z","temp":9.4,"dewp":7.8,"wdir":0,"wspd":0,"visib":"10+","altim":1006.5,"slp":1006.9,"qcField":6,"precip":0.005,"metarType":"METAR","rawOb":"METAR KACV 121553Z AUTO 00000KT 10SM OVC049 09/08 A2972 RMK AO2 RAE29 SLP069 P0000 T00940078","lat":40.9784,"lon":-124.1048,"elev":63,"name":"Arcata Arpt, CA, US","cover":"OVC","clouds":[{"cover":"OVC","base":4900}],"fltCat":"VFR"},{"icaoId":"KBHM","receiptTime":"2026-04-12T15:56:30.751Z","obsTime":1776009180,"reportTime":"2026-04-12T16:00:00.000Z","temp":26.7,"dewp":10,"wdir":170,"wspd":9,"visib":"10+","altim":1027.5,"slp":1026.7,"qcField":4,"metarType":"METAR","rawOb":"METAR KBHM 121553Z 17009KT 10SM FEW250 27/10 A3034 RMK AO2 SLP267 T02670100","lat":33.5655,"lon":-86.7449,"elev":191,"name":"Birmingham Intl, AL, US","cover":"FEW","clouds":[{"cover":"FEW","base":25000}],"fltCat":"VFR"},{"icaoId":"KFAT","receiptTime":"2026-04-12T15:56:38.748Z","obsTime":1776009180,"reportTime":"2026-04-12T16:00:00.000Z","temp":13.9,"dewp":8.9,"wdir":150,"wspd":9,"visib":"10+","altim":1014.6,"slp":1014.3,"qcField":12,"metarType":"METAR","rawOb":"METAR KFAT 121553Z 15009KT 10SM FEW038 SCT055 BKN110 14/09 A2996 RMK AO2 SLP143 T01390089 $","lat":36.78,"lon":-119.7202,"elev":102,"name":"Fresno/Yosemite Intl, CA, US","cover":"BKN","clouds":[{"cover":"FEW","base":3800},{"cover":"SCT","base":5500},{"cover":"BKN","base":11000}],"fltCat":"VFR"},{"icaoId":"KGJT","receiptTime":"2026-04-12T15:56:42.574Z","obsTime":1776009180,"reportTime":"2026-04-12T16:00:00.000Z","temp":17.2,"dewp":-4.4,"wdir":130,"wspd":15,"wgst":21,"visib":"10+","altim":1011.9,"slp":1007.2,"qcField":4,"metarType":"METAR","rawOb":"METAR KGJT 121553Z 13015G21KT 10SM CLR 17/M04 A2988 RMK AO2 SLP072 T01721044","lat":39.1344,"lon":-108.5408,"elev":1475,"name":"Grand Junction Rgnl, CO, US","cover":"CLR","clouds":[],"fltCat":"VFR"},{"icaoId":"KSMF","receiptTime":"2026-04-12T15:56:37.626Z","obsTime":1776009180,"reportTime":"2026-04-12T16:00:00.000Z","temp":12.2,"dewp":8.9,"wdir":160,"wspd":15,"visib":9,"altim":1010.9,"slp":1010.8,"qcField":12,"wxString":"-RA","precip":0.005,"metarType":"METAR","rawOb":"METAR KSMF 121553Z 16015KT 9SM -RA FEW038 SCT055 OVC080 12/09 A2985 RMK AO2 RAB52 SLP108 P0000 T01220089 $","lat":38.7007,"lon":-121.5948,"elev":7,"name":"Sacramento Intl, CA, US","cover":"OVC","clouds":[{"cover":"FEW","base":3800},{"cover":"SCT","base":5500},{"cover":"OVC","base":8000}],"fltCat":"VFR"},{"icaoId":"KLOL","receiptTime":"2026-04-12T15:56:41.693Z","obsTime":1776009180,"reportTime":"2026-04-12T16:00:00.000Z","temp":5.6,"dewp":0,"wdir":"VRB","wspd":3,"visib":"10+","altim":1008.9,"slp":1008.1,"qcField":6,"metarType":"METAR","rawOb":"METAR KLOL 121553Z AUTO VRB03KT 10SM SCT110 06/00 A2979 RMK AO2 SLP081 T00560000","lat":40.0684,"lon":-118.5702,"elev":1191,"name":"Lovelock/Derby Fld, NV, US","cover":"SCT","clouds":[{"cover":"SCT","base":11000}],"fltCat":"VFR"},{"icaoId":"KPDX","receiptTime":"2026-04-12T15:56:37.133Z","obsTime":1776009180,"reportTime":"2026-04-12T16:00:00.000Z","temp":10.6,"dewp":8.9,"wdir":110,"wspd":6,"visib":"10+","altim":1005.5,"slp":1005.5,"qcField":12,"metarType":"METAR","rawOb":"METAR KPDX 121553Z 11006KT 10SM OVC012 11/09 A2969 RMK AO2 SLP055 T01060089 $","lat":45.5958,"lon":-122.6092,"elev":7,"name":"Portland Intl, OR, US","cover":"OVC","clouds":[{"cover":"OVC","base":1200}],"fltCat":"MVFR"},{"icaoId":"KDAL","receiptTime":"2026-04-12T15:56:33.947Z","obsTime":1776009180,"reportTime":"2026-04-12T16:00:00.000Z","temp":19.4,"dewp":17.2,"wdir":180,"wspd":8,"visib":"10+","altim":1018.4,"slp":1017.7,"qcField":4,"precip":0.005,"metarType":"METAR","rawOb":"METAR KDAL 121553Z 18008KT 150V210 10SM BKN013 BKN060 19/17 A3007 RMK AO2 RAB10E23 SLP177 VCSH P0000 T01940172","lat":32.8384,"lon":-96.8358,"elev":148,"name":"Dallas/Love Fld, TX, US","cover":"BKN","clouds":[{"cover":"BKN","base":1300},{"cover":"BKN","base":6000}],"fltCat":"MVFR"},{"icaoId":"KLAX","receiptTime":"2026-04-12T15:56:43.031Z","obsTime":1776009180,"reportTime":"2026-04-12T16:00:00.000Z","temp":15.6,"dewp":13.3,"wdir":260,"wspd":11,"visib":"10+","altim":1015.3,"slp":1015,"qcField":12,"precip":0.06,"metarType":"METAR","rawOb":"METAR KLAX 121553Z 26011KT 10SM FEW011 FEW023 BKN038 16/13 A2998 RMK AO2 RAB00E28 SLP150 P0006 T01560133 $","lat":33.9382,"lon":-118.3866,"elev":30,"name":"Los Angeles Intl, CA, US","cover":"BKN","clouds":[{"cover":"FEW","base":1100},{"cover":"FEW","base":2300},{"cover":"BKN","base":3800}],"fltCat":"VFR"},{"icaoId":"KBUR","receiptTime":"2026-04-12T16:00:20.205Z","obsTime":1776009180,"reportTime":"2026-04-12T16:00:00.000Z","temp":13.9,"dewp":12.2,"wdir":290,"wspd":3,"visib":"10+","altim":1015.3,"slp":1014.2,"qcField":5,"precip":0.04,"metarType":"METAR","rawOb":"METAR KBUR 121553Z COR 29003KT 10SM SCT013 BKN070 14/12 A2998 RMK AO2 RAE28 SLP142 P0004 T01390122","lat":34.1996,"lon":-118.3654,"elev":221,"name":"Burbank/Bob Hope Arpt, CA, US","cover":"BKN","clouds":[{"cover":"SCT","base":1300},{"cover":"BKN","base":7000}],"fltCat":"VFR"},{"icaoId":"KMYF","receiptTime":"2026-04-12T15:56:26.067Z","obsTime":1776009180,"reportTime":"2026-04-12T16:00:00.000Z","temp":17.8,"dewp":10.6,"wdir":150,"wspd":9,"visib":"10+","altim":1016.3,"slp":1015.9,"qcField":4,"metarType":"METAR","rawOb":"METAR KMYF 121553Z 15009KT 10SM CLR 18/11 A3001 RMK AO2 SLP159 T01780106","lat":32.8145,"lon":-117.1375,"elev":128,"name":"San Diego/Montgomery Arpt, CA, US","cover":"CLR","clouds":[],"fltCat":"VFR"},{"icaoId":"KTPA","receiptTime":"2026-04-12T15:56:31.365Z","obsTime":1776009180,"reportTime":"2026-04-12T16:00:00.000Z","temp":26.1,"dewp":15,"wdir":70,"wspd":9,"wgst":16,"visib":"10+","altim":1026.5,"slp":1026.2,"qcField":4,"metarType":"METAR","rawOb":"METAR KTPA 121553Z 07009G16KT 10SM FEW043 26/15 A3031 RMK AO2 SLP262 T02610150","lat":27.9633,"lon":-82.54,"elev":2,"name":"Tampa Intl Arpt, FL, US","cover":"FEW","clouds":[{"cover":"FEW","base":4300}],"fltCat":"VFR"},{"icaoId":"KMCO","receiptTime":"2026-04-12T15:56:37.340Z","obsTime":1776009180,"reportTime":"2026-04-12T16:00:00.000Z","temp":26.1,"dewp":13.3,"wdir":110,"wspd":13,"visib":"10+","altim":1027.5,"slp":1027.2,"qcField":4,"metarType":"METAR","rawOb":"METAR KMCO 121553Z 11013KT 10SM SCT044 26/13 A3034 RMK AO2 SLP272 T02610133","lat":28.4182,"lon":-81.3241,"elev":27,"name":"Orlando Intl, FL, US","cover":"SCT","clouds":[{"cover":"SCT","base":4400}],"fltCat":"VFR"},{"icaoId":"KCRQ","receiptTime":"2026-04-12T15:56:42.943Z","obsTime":1776009180,"reportTime":"2026-04-12T16:00:00.000Z","temp":17.8,"dewp":11.7,"wdir":170,"wspd":8,"visib":"10+","altim":1015.3,"slp":1015.1,"qcField":6,"metarType":"METAR","rawOb":"METAR KCRQ 121553Z AUTO 17008KT 10SM BKN075 18/12 A2998 RMK AO2 SLP151 T01780117","lat":33.1299,"lon":-117.2765,"elev":96,"name":"Carlsbad/Palomar Arpt, CA, US","cover":"BKN","clouds":[{"cover":"BKN","base":7500}],"fltCat":"VFR"},{"icaoId":"KDFW","receiptTime":"2026-04-12T15:56:30.765Z","obsTime":1776009180,"reportTime":"2026-04-12T16:00:00.000Z","temp":20.6,"dewp":17.8,"wdir":180,"wspd":12,"visib":"10+","altim":1017.7,"slp":1016.9,"qcField":4,"metarType":"METAR","rawOb":"METAR KDFW 121553Z 18012KT 10SM SCT011 BKN050 BKN095 21/18 A3005 RMK AO2 SLP169 T02060178","lat":32.8974,"lon":-97.022,"elev":168,"name":"Dallas-Ft Worth Intl, TX, US","cover":"BKN","clouds":[{"cover":"SCT","base":1100},{"cover":"BKN","base":5000},{"cover":"BKN","base":9500}],"fltCat":"VFR"},{"icaoId":"KDRO","receiptTime":"2026-04-12T15:56:31.105Z","obsTime":1776009180,"reportTime":"2026-04-12T16:00:00.000Z","temp":11.1,"dewp":-0.6,"wdir":0,"wspd":0,"visib":"10+","altim":1019,"slp":1014.9,"qcField":6,"metarType":"METAR","rawOb":"METAR KDRO 121553Z AUTO 00000KT 10SM CLR 11/M01 A3009 RMK AO2 SLP149 T01111006","lat":37.1431,"lon":-107.7602,"elev":2021,"name":"Durango/La Plata Cnty, CO, US","cover":"CLR","clouds":[],"fltCat":"VFR"},{"icaoId":"KDTW","receiptTime":"2026-04-12T15:56:31.119Z","obsTime":1776009180,"reportTime":"2026-04-12T16:00:00.000Z","temp":12.8,"dewp":6.7,"wdir":190,"wspd":10,"visib":"10+","altim":1020.1,"slp":1020.2,"qcField":4,"metarType":"METAR","rawOb":"METAR KDTW 121553Z 19010KT 10SM FEW100 OVC180 13/07 A3012 RMK AO2 SLP202 T01280067","lat":42.2311,"lon":-83.3312,"elev":192,"name":"Detroit/Metro Wayne Cnty, MI, US","cover":"OVC","clouds":[{"cover":"FEW","base":10000},{"cover":"OVC","base":18000}],"fltCat":"VFR"},{"icaoId":"KBCE","receiptTime":"2026-04-12T15:56:31.559Z","obsTime":1776009180,"reportTime":"2026-04-12T16:00:00.000Z","temp":8.3,"dewp":-8.3,"wdir":180,"wspd":14,"wgst":25,"visib":"10+","altim":1015.3,"slp":1009.5,"qcField":6,"metarType":"METAR","rawOb":"METAR KBCE 121553Z AUTO 18014G25KT 10SM FEW065 08/M08 A2998 RMK AO2 WSHFT 1517 SLP095 T00831083","lat":37.7013,"lon":-112.149,"elev":2311,"name":"Bryce Canyon Arpt, UT, US","cover":"FEW","clouds":[{"cover":"FEW","base":6500}],"fltCat":"VFR"},{"icaoId":"KAPA","receiptTime":"2026-04-12T15:56:32.277Z","obsTime":1776009180,"reportTime":"2026-04-12T16:00:00.000Z","temp":17.8,"dewp":-7.2,"wdir":250,"wspd":13,"wgst":22,"visib":"10+","altim":1011.9,"slp":1006.5,"qcField":4,"metarType":"METAR","rawOb":"METAR KAPA 121553Z 25013G22KT 10SM FEW100 SCT170 BKN220 18/M07 A2988 RMK AO2 SLP065 T01781072","lat":39.5599,"lon":-104.8484,"elev":1791,"name":"Denver/Centennial Arpt, CO, US","cover":"BKN","clouds":[{"cover":"FEW","base":10000},{"cover":"SCT","base":17000},{"cover":"BKN","base":22000}],"fltCat":"VFR"},{"icaoId":"KDMN","receiptTime":"2026-04-12T15:56:42.989Z","obsTime":1776009180,"reportTime":"2026-04-12T16:00:00.000Z","temp":20.6,"dewp":2.8,"wdir":240,"wspd":4,"visib":"10+","altim":1020.1,"slp":1013.5,"qcField":6,"metarType":"METAR","rawOb":"METAR KDMN 121553Z AUTO 24004KT 10SM CLR 21/03 A3012 RMK AO2 SLP135 T02060028","lat":32.2592,"lon":-107.7206,"elev":1310,"name":"Deming Muni, NM, US","cover":"CLR","clouds":[],"fltCat":"VFR"},{"icaoId":"KOAK","receiptTime":"2026-04-12T16:00:24.937Z","obsTime":1776009180,"reportTime":"2026-04-12T16:00:00.000Z","temp":12.8,"dewp":8.3,"wdir":160,"wspd":13,"visib":"10+","altim":1011.9,"slp":1011.6,"qcField":13,"precip":0.005,"metarType":"METAR","rawOb":"METAR KOAK 121553Z COR 16013KT 10SM BKN028 BKN110 13/08 A2988 RMK AO2 RAB1455E17B35E52 SLP116 P0000 T01280083 $","lat":37.7178,"lon":-122.233,"elev":3,"name":"Oakland Intl, CA, US","cover":"BKN","clouds":[{"cover":"BKN","base":2800},{"cover":"BKN","base":11000}],"fltCat":"MVFR"},{"icaoId":"KGEG","receiptTime":"2026-04-12T15:56:38.776Z","obsTime":1776009180,"reportTime":"2026-04-12T16:00:00.000Z","temp":8.9,"dewp":6.7,"wdir":50,"wspd":5,"visib":"10+","altim":1004.5,"slp":1004.3,"qcField":12,"metarType":"METAR","rawOb":"METAR KGEG 121553Z 05005KT 10SM FEW020 FEW100 BKN260 09/07 A2966 RMK AO2 SLP043 T00890067 $","lat":47.6217,"lon":-117.528,"elev":718,"name":"Spokane Intl, WA, US","cover":"BKN","clouds":[{"cover":"FEW","base":2000},{"cover":"FEW","base":10000},{"cover":"BKN","base":26000}],"fltCat":"VFR"},{"icaoId":"KLBB","receiptTime":"2026-04-12T15:56:34.151Z","obsTime":1776009180,"reportTime":"2026-04-12T16:00:00.000Z","temp":19.4,"dewp":13.3,"wdir":230,"wspd":13,"visib":"10+","altim":1016.7,"slp":1013.1,"qcField":12,"metarType":"METAR","rawOb":"METAR KLBB 121553Z 23013KT 10SM FEW120 FEW220 SCT250 19/13 A3002 RMK AO2 SLP131 T01940133 $","lat":33.6658,"lon":-101.8233,"elev":996,"name":"Lubbock Intl Arpt, TX, US","cover":"SCT","clouds":[{"cover":"FEW","base":12000},{"cover":"FEW","base":22000},{"cover":"SCT","base":25000}],"fltCat":"VFR"},{"icaoId":"KSEA","receiptTime":"2026-04-12T15:56:37.242Z","obsTime":1776009180,"reportTime":"2026-04-12T16:00:00.000Z","temp":8.3,"dewp":7.8,"wdir":30,"wspd":7,"visib":"10+","altim":1005.8,"slp":1006.4,"qcField":4,"metarType":"METAR","rawOb":"METAR KSEA 121553Z 03007KT 10SM OVC007 08/08 A2970 RMK AO2 SLP064 T00830078","lat":47.4447,"lon":-122.3144,"elev":115,"name":"Seattle-Tacoma Intl, WA, US","cover":"OVC","clouds":[{"cover":"OVC","base":700}],"fltCat":"IFR"},{"icaoId":"KVEL","receiptTime":"2026-04-12T15:56:41.838Z","obsTime":1776009180,"reportTime":"2026-04-12T16:00:00.000Z","temp":11.1,"dewp":1.1,"wdir":"VRB","wspd":3,"visib":"10+","altim":1010.9,"slp":1007.5,"qcField":6,"metarType":"METAR","rawOb":"METAR KVEL 121553Z AUTO VRB03KT 10SM CLR 11/01 A2985 RMK AO2 SLP075 T01110011","lat":40.4429,"lon":-109.5128,"elev":1604,"name":"Vernal Rgnl, UT, US","cover":"CLR","clouds":[],"fltCat":"VFR"},{"icaoId":"KMSP","receiptTime":"2026-04-12T15:56:42.281Z","obsTime":1776009180,"reportTime":"2026-04-12T16:00:00.000Z","temp":21.1,"dewp":16.1,"wdir":200,"wspd":10,"wgst":20,"visib":"10+","altim":1001.1,"slp":1001,"qcField":4,"metarType":"METAR","rawOb":"METAR KMSP 121553Z 20010G20KT 10SM BKN025 OVC030 21/16 A2956 RMK AO2 SLP010 T02110161","lat":44.8852,"lon":-93.2313,"elev":255,"name":"Minneapolis-St Paul Intl, MN, US","cover":"OVC","clouds":[{"cover":"BKN","base":2500},{"cover":"OVC","base":3000}],"fltCat":"MVFR"},{"icaoId":"KGSP","receiptTime":"2026-04-12T15:56:42.692Z","obsTime":1776009180,"reportTime":"2026-04-12T16:00:00.000Z","temp":22.8,"dewp":8.9,"wdir":0,"wspd":0,"visib":"10+","altim":1028.5,"slp":1027.7,"qcField":4,"metarType":"METAR","rawOb":"METAR KGSP 121553Z 00000KT 10SM CLR 23/09 A3037 RMK AO2 SLP277 T02280089","lat":34.8842,"lon":-82.2209,"elev":285,"name":"Greenville-Spartanburg Intl, SC, US","cover":"CLR","clouds":[],"fltCat":"VFR"},{"icaoId":"PANC","receiptTime":"2026-04-12T15:56:43.222Z","obsTime":1776009180,"reportTime":"2026-04-12T16:00:00.000Z","temp":-0.6,"dewp":-0.6,"wdir":0,"wspd":0,"visib":2,"altim":1002.8,"slp":1002.9,"qcField":12,"wxString":"-SN BR","precip":0.02,"metarType":"METAR","rawOb":"METAR PANC 121553Z 00000KT 2SM -SN BR FEW004 BKN021 OVC031 M01/M01 A2961 RMK AO2 SLP029 P0002 T10061006 $","lat":61.1691,"lon":-150.0277,"elev":39,"name":"Anchorage Intl, AK, US","cover":"OVC","clouds":[{"cover":"FEW","base":400},{"cover":"BKN","base":2100},{"cover":"OVC","base":3100}],"fltCat":"IFR"},{"icaoId":"KMSY","receiptTime":"2026-04-12T15:56:36.296Z","obsTime":1776009180,"reportTime":"2026-04-12T16:00:00.000Z","temp":25,"dewp":15.6,"wdir":140,"wspd":14,"visib":"10+","altim":1025.1,"slp":1025.1,"qcField":4,"metarType":"METAR","rawOb":"METAR KMSY 121553Z 14014KT 10SM BKN036 BKN250 25/16 A3027 RMK AO2 SLP251 T02500156","lat":29.9974,"lon":-90.2777,"elev":0,"name":"New Orleans/Armstrong Intl, LA, US","cover":"BKN","clouds":[{"cover":"BKN","base":3600},{"cover":"BKN","base":25000}],"fltCat":"VFR"},{"icaoId":"KTUS","receiptTime":"2026-04-12T15:56:42.896Z","obsTime":1776009180,"reportTime":"2026-04-12T16:00:00.000Z","temp":22.8,"dewp":0,"wdir":180,"wspd":9,"visib":"10+","altim":1016.7,"slp":1012.5,"qcField":4,"metarType":"METAR","rawOb":"METAR KTUS 121553Z 18009KT 10SM CLR 23/00 A3002 RMK AO2 SLP125 T02280000","lat":32.1315,"lon":-110.9564,"elev":776,"name":"Tucson Intl Arpt, AZ, US","cover":"CLR","clouds":[],"fltCat":"VFR"},{"icaoId":"KVGT","receiptTime":"2026-04-12T15:56:36.946Z","obsTime":1776009180,"reportTime":"2026-04-12T16:00:00.000Z","temp":17.8,"dewp":-1.7,"wdir":200,"wspd":17,"visib":"10+","altim":1010.6,"slp":1010.5,"qcField":4,"metarType":"METAR","rawOb":"METAR KVGT 121553Z 20017KT 10SM CLR 18/M02 A2984 RMK AO2 SLP105 T01781017","lat":36.212,"lon":-115.194,"elev":664,"name":"Las Vegas/North Arpt, NV, US","cover":"CLR","clouds":[],"fltCat":"VFR"},{"icaoId":"KSJC","receiptTime":"2026-04-12T15:56:37.614Z","obsTime":1776009180,"reportTime":"2026-04-12T16:00:00.000Z","temp":11.1,"dewp":8.9,"wdir":0,"wspd":0,"visib":4,"altim":1012.6,"slp":1012.4,"qcField":4,"wxString":"RA BR","precip":0.06,"metarType":"METAR","rawOb":"METAR KSJC 121553Z 00000KT 4SM RA BR SCT020 BKN030 BKN045 11/09 A2990 RMK AO2 RAB26 SLP124 P0006 T01110089","lat":37.3594,"lon":-121.9244,"elev":13,"name":"San Jose Intl Arpt, CA, US","cover":"BKN","clouds":[{"cover":"SCT","base":2000},{"cover":"BKN","base":3000},{"cover":"BKN","base":4500}],"fltCat":"MVFR"},{"icaoId":"KCDC","receiptTime":"2026-04-12T15:56:37.733Z","obsTime":1776009180,"reportTime":"2026-04-12T16:00:00.000Z","temp":12.8,"dewp":-4.4,"wdir":210,"wspd":24,"wgst":37,"visib":"10+","altim":1011.3,"slp":1006.6,"qcField":6,"metarType":"METAR","rawOb":"METAR KCDC 121553Z AUTO 21024G37KT 10SM CLR 13/M04 A2986 RMK AO2 PK WND 21037/1552 SLP066 T01281044","lat":37.7067,"lon":-113.097,"elev":1703,"name":"Cedar City Muni, UT, US","cover":"CLR","clouds":[],"fltCat":"VFR"},{"icaoId":"KPGA","receiptTime":"2026-04-12T15:56:42.779Z","obsTime":1776009180,"reportTime":"2026-04-12T16:00:00.000Z","temp":16.1,"dewp":-6.7,"wdir":360,"wspd":5,"visib":"10+","altim":1013,"slp":1007.9,"qcField":14,"metarType":"METAR","rawOb":"METAR KPGA 121553Z AUTO 36005KT 10SM CLR 16/M07 A2991 RMK AO2 SLP079 T01611067 $","lat":36.9211,"lon":-111.4487,"elev":1310,"name":"Page Muni, AZ, US","cover":"CLR","clouds":[],"fltCat":"VFR"},{"icaoId":"KPSP","receiptTime":"2026-04-12T15:56:37.966Z","obsTime":1776009180,"reportTime":"2026-04-12T16:00:00.000Z","temp":18.9,"dewp":3.9,"wdir":0,"wspd":0,"visib":"10+","altim":1014,"slp":1013.7,"qcField":4,"metarType":"METAR","rawOb":"METAR KPSP 121553Z 00000KT 10SM CLR 19/04 A2994 RMK AO2 SLP137 T01890039","lat":33.8222,"lon":-116.5043,"elev":123,"name":"Palm Springs Intl, CA, US","cover":"CLR","clouds":[],"fltCat":"VFR"},{"icaoId":"KLGB","receiptTime":"2026-04-12T15:56:36.932Z","obsTime":1776009180,"reportTime":"2026-04-12T16:00:00.000Z","temp":15,"dewp":13.9,"wdir":"VRB","wspd":4,"visib":2,"altim":1015.3,"slp":1015,"qcField":12,"wxString":"BR","precip":0.28,"metarType":"METAR","rawOb":"METAR KLGB 121553Z VRB04KT 2SM BR SCT015 BKN035 OVC043 15/14 A2998 RMK AO2 RAE42 SLP150 P0028 T01500139 $","lat":33.8118,"lon":-118.1472,"elev":10,"name":"Long Beach Arpt, CA, US","cover":"OVC","clouds":[{"cover":"SCT","base":1500},{"cover":"BKN","base":3500},{"cover":"OVC","base":4300}],"fltCat":"IFR"},{"icaoId":"KAMA","receiptTime":"2026-04-12T15:56:38.289Z","obsTime":1776009180,"reportTime":"2026-04-12T16:00:00.000Z","temp":21.1,"dewp":8.9,"wdir":260,"wspd":17,"wgst":23,"visib":"10+","altim":1015,"slp":1010.7,"qcField":4,"metarType":"METAR","rawOb":"METAR KAMA 121553Z 26017G23KT 10SM CLR 21/09 A2997 RMK AO2 SLP107 T02110089","lat":35.2203,"lon":-101.7173,"elev":1102,"name":"Amarillo Intl Arpt, TX, US","cover":"CLR","clouds":[],"fltCat":"VFR"},{"icaoId":"KATL","receiptTime":"2026-04-12T15:56:38.176Z","obsTime":1776009120,"reportTime":"2026-04-12T16:00:00.000Z","temp":27.2,"dewp":6.7,"wdir":210,"wspd":9,"visib":"10+","altim":1027.9,"slp":1026.8,"qcField":12,"metarType":"METAR","rawOb":"METAR KATL 121552Z 21009KT 10SM SCT250 27/07 A3035 RMK AO2 SLP268 T02720067 $","lat":33.6297,"lon":-84.4422,"elev":309,"name":"Atlanta/Hartsfield-Jackson Intl, GA, US","cover":"SCT","clouds":[{"cover":"SCT","base":25000}],"fltCat":"VFR"},{"icaoId":"KABI","receiptTime":"2026-04-12T15:56:38.056Z","obsTime":1776009120,"reportTime":"2026-04-12T16:00:00.000Z","temp":21.7,"dewp":18.3,"wdir":190,"wspd":12,"visib":"10+","altim":1017.4,"slp":1015.2,"qcField":12,"metarType":"METAR","rawOb":"METAR KABI 121552Z 19012KT 10SM BKN013 22/18 A3004 RMK AO2 SLP152 T02170183 $","lat":32.4106,"lon":-99.6821,"elev":543,"name":"Abilene Rgnl, TX, US","cover":"BKN","clouds":[{"cover":"BKN","base":1300}],"fltCat":"MVFR"},{"icaoId":"KIAD","receiptTime":"2026-04-12T15:56:38.428Z","obsTime":1776009120,"reportTime":"2026-04-12T16:00:00.000Z","temp":19.4,"dewp":6.7,"wdir":190,"wspd":11,"wgst":18,"visib":"10+","altim":1030.2,"slp":1030.1,"qcField":12,"metarType":"METAR","rawOb":"METAR KIAD 121552Z 19011G18KT 10SM FEW045 BKN250 19/07 A3042 RMK AO2 SLP301 T01940067 $","lat":38.9348,"lon":-77.4473,"elev":90,"name":"Washington/Dulles Intl, VA, US","cover":"BKN","clouds":[{"cover":"FEW","base":4500},{"cover":"BKN","base":25000}],"fltCat":"VFR"},{"icaoId":"KTRM","receiptTime":"2026-04-12T16:02:09.716Z","obsTime":1776009120,"reportTime":"2026-04-12T16:00:00.000Z","temp":21.1,"dewp":5,"wdir":10,"wspd":7,"visib":"10+","altim":1013,"slp":1013,"qcField":38,"metarType":"METAR","rawOb":"METAR KTRM 121552Z AUTO 01007KT 10SM CLR 21/05 A2991 RMK AO2 SLP130 T02110050 TSNO","lat":33.6317,"lon":-116.1641,"elev":-39,"name":"Thermal Arpt, CA, US","cover":"CLR","clouds":[],"fltCat":"VFR"},{"icaoId":"KHRL","receiptTime":"2026-04-12T15:56:38.117Z","obsTime":1776009120,"reportTime":"2026-04-12T16:00:00.000Z","temp":26.1,"dewp":21.7,"wdir":150,"wspd":18,"wgst":25,"visib":"10+","altim":1017.7,"slp":1017.5,"qcField":4,"metarType":"METAR","rawOb":"METAR KHRL 121552Z 15018G25KT 10SM BKN021 BKN025 OVC038 26/22 A3005 RMK AO2 PK WND 13029/1454 SLP175 T02610217","lat":26.2303,"lon":-97.6556,"elev":9,"name":"Harlingen/Valley Intl, TX, US","cover":"OVC","clouds":[{"cover":"BKN","base":2100},{"cover":"BKN","base":2500},{"cover":"OVC","base":3800}],"fltCat":"MVFR"},{"icaoId":"KSPS","receiptTime":"2026-04-12T15:56:38.159Z","obsTime":1776009120,"reportTime":"2026-04-12T16:00:00.000Z","temp":21.7,"dewp":17.2,"wdir":210,"wspd":14,"wgst":22,"visib":"10+","altim":1015,"slp":1014,"qcField":4,"metarType":"METAR","rawOb":"METAR KSPS 121552Z 21014G22KT 10SM CLR 22/17 A2997 RMK AO2 SLP140 T02170172","lat":33.9785,"lon":-98.493,"elev":310,"name":"Wichita Falls Rgnl, TX, US","cover":"CLR","clouds":[],"fltCat":"VFR"},{"icaoId":"KMLF","receiptTime":"2026-04-12T15:56:32.528Z","obsTime":1776009120,"reportTime":"2026-04-12T16:00:00.000Z","temp":14.4,"dewp":-3.3,"wdir":190,"wspd":26,"wgst":37,"visib":"10+","altim":1009.2,"slp":1005.4,"qcField":6,"metarType":"METAR","rawOb":"METAR KMLF 121552Z AUTO 19026G37KT 10SM CLR 14/M03 A2980 RMK AO2 PK WND 18040/1530 SLP054 T01441033","lat":38.4225,"lon":-113.0109,"elev":1537,"name":"Milford Muni, UT, US","cover":"CLR","clouds":[],"fltCat":"VFR"},{"icaoId":"KABQ","receiptTime":"2026-04-12T15:56:38.071Z","obsTime":1776009120,"reportTime":"2026-04-12T16:00:00.000Z","temp":15.6,"dewp":1.7,"wdir":230,"wspd":6,"visib":"10+","altim":1019.4,"slp":1013.8,"qcField":12,"metarType":"METAR","rawOb":"METAR KABQ 121552Z 23006KT 10SM FEW060 FEW250 16/02 A3010 RMK AO2 SLP138 T01560017 $","lat":35.0419,"lon":-106.6154,"elev":1620,"name":"Albuquerque Intl, NM, US","cover":"FEW","clouds":[{"cover":"FEW","base":6000},{"cover":"FEW","base":25000}],"fltCat":"VFR"},{"icaoId":"KCVG","receiptTime":"2026-04-12T15:56:38.385Z","obsTime":1776009120,"reportTime":"2026-04-12T16:00:00.000Z","temp":23.3,"dewp":12.8,"wdir":220,"wspd":12,"wgst":20,"visib":"10+","altim":1023.1,"slp":1022.4,"qcField":12,"metarType":"METAR","rawOb":"METAR KCVG 121552Z 22012G20KT 10SM FEW150 BKN250 23/13 A3021 RMK AO2 SLP224 T02330128 $","lat":39.0444,"lon":-84.6724,"elev":264,"name":"Cincinnati Intl, KY, US","cover":"BKN","clouds":[{"cover":"FEW","base":15000},{"cover":"BKN","base":25000}],"fltCat":"VFR"},{"icaoId":"KDCA","receiptTime":"2026-04-12T15:56:38.399Z","obsTime":1776009120,"reportTime":"2026-04-12T16:00:00.000Z","temp":18.9,"dewp":6.1,"wdir":190,"wspd":12,"wgst":16,"visib":"10+","altim":1030.9,"slp":1030.6,"qcField":4,"metarType":"METAR","rawOb":"METAR KDCA 121552Z 19012G16KT 10SM FEW060 FEW250 19/06 A3044 RMK AO2 SLP306 T01890061","lat":38.8472,"lon":-77.0345,"elev":4,"name":"Washington/Reagan-National Arpt, VA, US","cover":"FEW","clouds":[{"cover":"FEW","base":6000},{"cover":"FEW","base":25000}],"fltCat":"VFR"},{"icaoId":"KMKE","receiptTime":"2026-04-12T15:56:39.252Z","obsTime":1776009120,"reportTime":"2026-04-12T16:00:00.000Z","temp":18.3,"dewp":13.9,"wdir":210,"wspd":12,"wgst":19,"visib":"10+","altim":1012.3,"slp":1012.1,"qcField":12,"precip":0.005,"metarType":"METAR","rawOb":"METAR KMKE 121552Z 21012G19KT 10SM SCT060 OVC100 18/14 A2989 RMK AO2 RAE05 SLP121 P0000 T01830139 $","lat":42.9549,"lon":-87.9045,"elev":203,"name":"Milwaukee/Mitchell Intl, WI, US","cover":"OVC","clouds":[{"cover":"SCT","base":6000},{"cover":"OVC","base":10000}],"fltCat":"VFR"},{"icaoId":"KOKC","receiptTime":"2026-04-12T15:56:38.131Z","obsTime":1776009120,"reportTime":"2026-04-12T16:00:00.000Z","temp":19.4,"dewp":17.8,"wdir":200,"wspd":17,"wgst":26,"visib":"10+","altim":1013.6,"slp":1012.5,"qcField":4,"precip":0.005,"metarType":"METAR","rawOb":"METAR KOKC 121552Z 20017G26KT 10SM BKN014 OVC022 19/18 A2993 RMK AO2 PK WND 22026/1454 RAB30E51 SLP125 P0000 T01940178","lat":35.3843,"lon":-97.6003,"elev":391,"name":"Oklahoma City/Will Rogers Intl, OK, US","cover":"OVC","clouds":[{"cover":"BKN","base":1400},{"cover":"OVC","base":2200}],"fltCat":"MVFR"},{"icaoId":"KCLT","receiptTime":"2026-04-12T15:56:38.472Z","obsTime":1776009120,"reportTime":"2026-04-12T16:00:00.000Z","temp":23.3,"dewp":11.7,"wdir":0,"wspd":0,"visib":"10+","altim":1028.5,"slp":1029.2,"qcField":4,"metarType":"METAR","rawOb":"METAR KCLT 121552Z 00000KT 10SM FEW250 23/12 A3037 RMK AO2 SLP292 T02330117","lat":35.2225,"lon":-80.9543,"elev":223,"name":"Charlotte/Douglas Intl, NC, US","cover":"FEW","clouds":[{"cover":"FEW","base":25000}],"fltCat":"VFR"},{"icaoId":"KIFP","receiptTime":"2026-04-12T15:52:12.245Z","obsTime":1776009060,"reportTime":"2026-04-12T16:00:00.000Z","temp":21,"dewp":3,"wdir":170,"wspd":18,"visib":"10+","altim":1010.6,"qcField":0,"metarType":"METAR","rawOb":"METAR KIFP 121551Z 17018KT 10SM CLR 21/03 A2984","lat":35.1487,"lon":-114.5611,"elev":210,"name":"Bullhead City Intl, AZ, US","cover":"CLR","clouds":[],"fltCat":"VFR"},{"icaoId":"KACT","receiptTime":"2026-04-12T15:54:11.366Z","obsTime":1776009060,"reportTime":"2026-04-12T16:00:00.000Z","temp":18.9,"dewp":17.8,"wdir":150,"wspd":10,"visib":"10+","altim":1018.7,"slp":1017.9,"qcField":4,"precip":0.005,"metarType":"METAR","rawOb":"METAR KACT 121551Z 15010KT 10SM SCT022 OVC029 19/18 A3008 RMK AO2 LTG DSNT N AND NE RAB05E34 SLP179 P0000 T01890178","lat":31.618,"lon":-97.2283,"elev":150,"name":"Waco Rgnl, TX, US","cover":"OVC","clouds":[{"cover":"SCT","base":2200},{"cover":"OVC","base":2900}],"fltCat":"MVFR"},{"icaoId":"KORD","receiptTime":"2026-04-12T15:54:12.104Z","obsTime":1776009060,"reportTime":"2026-04-12T16:00:00.000Z","temp":22.2,"dewp":13.9,"wdir":200,"wspd":16,"wgst":23,"visib":"10+","altim":1014,"slp":1013.7,"qcField":12,"metarType":"METAR","rawOb":"METAR KORD 121551Z 20016G23KT 10SM BKN120 BKN250 22/14 A2994 RMK AO2 PK WND 20028/1536 SLP137 T02220139 $","lat":41.9602,"lon":-87.9316,"elev":202,"name":"Chicago/O'Hare Intl, IL, US","cover":"BKN","clouds":[{"cover":"BKN","base":12000},{"cover":"BKN","base":25000}],"fltCat":"VFR"},{"icaoId":"KLGA","receiptTime":"2026-04-12T15:54:12.060Z","obsTime":1776009060,"reportTime":"2026-04-12T16:00:00.000Z","temp":11.7,"dewp":-2.2,"wdir":190,"wspd":12,"wgst":19,"visib":"10+","altim":1033.3,"slp":1033.2,"qcField":12,"metarType":"METAR","rawOb":"METAR KLGA 121551Z 19012G19KT 10SM FEW120 FEW200 SCT250 12/M02 A3051 RMK AO2 SLP332 T01171022 $","lat":40.7794,"lon":-73.8803,"elev":9,"name":"New York/La Guardia Arpt, NY, US","cover":"SCT","clouds":[{"cover":"FEW","base":12000},{"cover":"FEW","base":20000},{"cover":"SCT","base":25000}],"fltCat":"VFR"},{"icaoId":"KJFK","receiptTime":"2026-04-12T15:54:12.021Z","obsTime":1776009060,"reportTime":"2026-04-12T16:00:00.000Z","temp":10.6,"dewp":-0.6,"wdir":130,"wspd":12,"visib":"10+","altim":1034.3,"slp":1034.1,"qcField":12,"metarType":"METAR","rawOb":"METAR KJFK 121551Z 13012KT 10SM FEW150 FEW250 11/M01 A3054 RMK AO2 SLP341 T01061006 $","lat":40.6392,"lon":-73.7639,"elev":3,"name":"New York/JF Kennedy Intl, NY, US","cover":"FEW","clouds":[{"cover":"FEW","base":15000},{"cover":"FEW","base":25000}],"fltCat":"VFR"},{"icaoId":"KEWR","receiptTime":"2026-04-12T15:54:11.806Z","obsTime":1776009060,"reportTime":"2026-04-12T16:00:00.000Z","temp":10.6,"dewp":0,"wdir":120,"wspd":11,"wgst":19,"visib":"10+","altim":1033.6,"slp":1033.4,"qcField":4,"metarType":"METAR","rawOb":"METAR KEWR 121551Z 12011G19KT 10SM SCT250 11/00 A3052 RMK AO2 SLP334 T01060000","lat":40.6828,"lon":-74.1692,"elev":2,"name":"Newark Intl, NJ, US","cover":"SCT","clouds":[{"cover":"SCT","base":25000}],"fltCat":"VFR"},{"icaoId":"KELP","receiptTime":"2026-04-12T15:54:11.779Z","obsTime":1776009060,"reportTime":"2026-04-12T16:00:00.000Z","temp":21.7,"dewp":7.2,"wdir":220,"wspd":10,"wgst":17,"visib":"10+","altim":1019.4,"slp":1013.7,"qcField":4,"metarType":"METAR","rawOb":"METAR KELP 121551Z 22010G17KT 10SM FEW250 22/07 A3010 RMK AO2 SLP137 T02170072","lat":31.8123,"lon":-106.3774,"elev":1205,"name":"El Paso Intl, TX, US","cover":"FEW","clouds":[{"cover":"FEW","base":25000}],"fltCat":"VFR"},{"icaoId":"KCRP","receiptTime":"2026-04-12T15:54:11.679Z","obsTime":1776009060,"reportTime":"2026-04-12T16:00:00.000Z","temp":24.4,"dewp":22.2,"wdir":150,"wspd":16,"visib":"10+","altim":1018.7,"slp":1018.6,"qcField":4,"precip":0.005,"metarType":"METAR","rawOb":"METAR KCRP 121551Z 15016KT 10SM BKN018 BKN027 OVC040 24/22 A3008 RMK AO2 RAB27E37 SLP186 P0000 T02440222","lat":27.7734,"lon":-97.513,"elev":11,"name":"Corpus Christi Intl, TX, US","cover":"OVC","clouds":[{"cover":"BKN","base":1800},{"cover":"BKN","base":2700},{"cover":"OVC","base":4000}],"fltCat":"MVFR"},{"icaoId":"KCMH","receiptTime":"2026-04-12T15:54:11.602Z","obsTime":1776009060,"reportTime":"2026-04-12T16:00:00.000Z","temp":20,"dewp":8.3,"wdir":190,"wspd":10,"visib":"10+","altim":1023.8,"slp":1023.6,"qcField":4,"metarType":"METAR","rawOb":"METAR KCMH 121551Z 19010KT 10SM BKN110 OVC230 20/08 A3023 RMK AO2 SLP236 T02000083","lat":39.9907,"lon":-82.877,"elev":257,"name":"Columbus/Glenn Intl, OH, US","cover":"OVC","clouds":[{"cover":"BKN","base":11000},{"cover":"OVC","base":23000}],"fltCat":"VFR"},{"icaoId":"KVNY","receiptTime":"2026-04-12T15:54:11.278Z","obsTime":1776009060,"reportTime":"2026-04-12T16:00:00.000Z","temp":13.9,"dewp":11.1,"wdir":"VRB","wspd":4,"visib":"10+","altim":1014.6,"slp":1014.2,"qcField":12,"metarType":"METAR","rawOb":"METAR KVNY 121551Z VRB04KT 10SM SCT014 BKN065 14/11 A2996 RMK AO2 SLP142 T01390111 $","lat":34.2121,"lon":-118.4915,"elev":241,"name":"Van Nuys Arpt, CA, US","cover":"BKN","clouds":[{"cover":"SCT","base":1400},{"cover":"BKN","base":6500}],"fltCat":"VFR"},{"icaoId":"KCLE","receiptTime":"2026-04-12T15:54:10.468Z","obsTime":1776009060,"reportTime":"2026-04-12T16:00:00.000Z","temp":16.7,"dewp":4.4,"wdir":190,"wspd":12,"visib":"10+","altim":1022.1,"slp":1023.6,"qcField":12,"metarType":"METAR","rawOb":"METAR KCLE 121551Z 19012KT 10SM BKN070 OVC095 17/04 A3018 RMK AO2 SLP236 T01670044 $","lat":41.4057,"lon":-81.8519,"elev":237,"name":"Cleveland/Hopkins Intl, OH, US","cover":"OVC","clouds":[{"cover":"BKN","base":7000},{"cover":"OVC","base":9500}],"fltCat":"VFR"},{"icaoId":"KSAD","receiptTime":"2026-04-12T15:54:10.318Z","obsTime":1776009060,"reportTime":"2026-04-12T16:00:00.000Z","temp":21.7,"dewp":-1.1,"wdir":70,"wspd":8,"visib":"10+","altim":1016.7,"slp":1012.4,"qcField":6,"metarType":"METAR","rawOb":"METAR KSAD 121551Z AUTO 07008KT 10SM CLR 22/M01 A3002 RMK AO2 SLP124 T02171011","lat":32.8565,"lon":-109.636,"elev":937,"name":"Safford Rgnl, AZ, US","cover":"CLR","clouds":[],"fltCat":"VFR"},{"icaoId":"KROW","receiptTime":"2026-04-12T15:54:10.294Z","obsTime":1776009060,"reportTime":"2026-04-12T16:00:00.000Z","temp":22.2,"dewp":5.6,"wdir":250,"wspd":7,"visib":"10+","altim":1016.7,"slp":1011.4,"qcField":12,"metarType":"METAR","rawOb":"METAR KROW 121551Z 25007KT 10SM CLR 22/06 A3002 RMK AO2 SLP114 T02220056 $","lat":33.3074,"lon":-104.5082,"elev":1105,"name":"Roswell/Ind Arpt, NM, US","cover":"CLR","clouds":[],"fltCat":"VFR"},{"icaoId":"KSTL","receiptTime":"2026-04-12T15:54:11.155Z","obsTime":1776009060,"reportTime":"2026-04-12T16:00:00.000Z","temp":25,"dewp":13.3,"wdir":200,"wspd":15,"wgst":23,"visib":"10+","altim":1017.7,"slp":1016.5,"qcField":12,"metarType":"METAR","rawOb":"METAR KSTL 121551Z 20015G23KT 10SM BKN095 BKN250 25/13 A3005 RMK AO2 SLP165 T02500133 $","lat":38.7525,"lon":-90.3734,"elev":163,"name":"St Louis/Lambert Intl, MO, US","cover":"BKN","clouds":[{"cover":"BKN","base":9500},{"cover":"BKN","base":25000}],"fltCat":"VFR"},{"icaoId":"KSAN","receiptTime":"2026-04-12T15:54:10.944Z","obsTime":1776009060,"reportTime":"2026-04-12T16:00:00.000Z","temp":18.9,"dewp":11.1,"wdir":170,"wspd":8,"wgst":18,"visib":"10+","altim":1016.7,"slp":1016.5,"qcField":12,"metarType":"METAR","rawOb":"METAR KSAN 121551Z 17008G18KT 10SM BKN075 19/11 A3002 RMK AO2 SLP165 T01890111 $","lat":32.7364,"lon":-117.1973,"elev":3,"name":"San Diego Intl Arpt, CA, US","cover":"BKN","clouds":[{"cover":"BKN","base":7500}],"fltCat":"VFR"},{"icaoId":"KPIT","receiptTime":"2026-04-12T15:54:10.670Z","obsTime":1776009060,"reportTime":"2026-04-12T16:00:00.000Z","temp":19.4,"dewp":3.9,"wdir":190,"wspd":7,"visib":"10+","altim":1024.8,"slp":1025.5,"qcField":12,"metarType":"METAR","rawOb":"METAR KPIT 121551Z 19007KT 10SM BKN150 BKN250 19/04 A3026 RMK AO2 SLP255 T01940039 $","lat":40.4814,"lon":-80.2083,"elev":339,"name":"Pittsburgh Intl, PA, US","cover":"BKN","clouds":[{"cover":"BKN","base":15000},{"cover":"BKN","base":25000}],"fltCat":"VFR"},{"icaoId":"KLGU","receiptTime":"2026-04-12T15:54:10.590Z","obsTime":1776009060,"reportTime":"2026-04-12T16:00:00.000Z","temp":8.3,"dewp":4.4,"wdir":20,"wspd":4,"visib":"10+","altim":1006.9,"slp":1005.1,"qcField":6,"metarType":"METAR","rawOb":"METAR KLGU 121551Z AUTO 02004KT 10SM CLR 08/04 A2973 RMK AO2 SLP051 T00830044","lat":41.7865,"lon":-111.8519,"elev":1359,"name":"Logan/Cache Arpt, UT, US","cover":"CLR","clouds":[],"fltCat":"VFR"},{"icaoId":"KIGM","receiptTime":"2026-04-12T15:54:10.560Z","obsTime":1776009060,"reportTime":"2026-04-12T16:00:00.000Z","temp":17.2,"dewp":-6.1,"wdir":220,"wspd":15,"visib":"10+","altim":1013.3,"slp":1007.8,"qcField":6,"metarType":"METAR","rawOb":"METAR KIGM 121551Z AUTO 22015KT 10SM CLR 17/M06 A2992 RMK AO2 PK WND 22028/1540 SLP078 T01721061","lat":35.2575,"lon":-113.9341,"elev":1045,"name":"Kingman Arpt, AZ, US","cover":"CLR","clouds":[],"fltCat":"VFR"},{"icaoId":"KOXR","receiptTime":"2026-04-12T15:54:12.176Z","obsTime":1776009060,"reportTime":"2026-04-12T16:00:00.000Z","temp":16.7,"dewp":11.1,"wdir":270,"wspd":13,"visib":"10+","altim":1014.6,"slp":1014.6,"qcField":4,"metarType":"METAR","rawOb":"METAR KOXR 121551Z 27013KT 10SM FEW017 SCT050 17/11 A2996 RMK AO2 SLP146 T01670111","lat":34.2001,"lon":-119.2042,"elev":12,"name":"Oxnard Arpt, CA, US","cover":"SCT","clouds":[{"cover":"FEW","base":1700},{"cover":"SCT","base":5000}],"fltCat":"VFR"},{"icaoId":"KPHX","receiptTime":"2026-04-12T15:54:12.203Z","obsTime":1776009060,"reportTime":"2026-04-12T16:00:00.000Z","temp":23.9,"dewp":3.3,"wdir":200,"wspd":7,"visib":"10+","altim":1013,"slp":1011.3,"qcField":12,"metarType":"METAR","rawOb":"METAR KPHX 121551Z 20007KT 170V250 10SM FEW140 BKN200 24/03 A2991 RMK AO2 SLP113 T02390033 $","lat":33.4278,"lon":-112.0037,"elev":338,"name":"Phoenix/Sky Harbor Intl, AZ, US","cover":"BKN","clouds":[{"cover":"FEW","base":14000},{"cover":"BKN","base":20000}],"fltCat":"VFR"},{"icaoId":"KPVD","receiptTime":"2026-04-12T15:54:12.242Z","obsTime":1776009060,"reportTime":"2026-04-12T16:00:00.000Z","temp":10,"dewp":-6.1,"wdir":"VRB","wspd":6,"visib":"10+","altim":1033.9,"slp":1033.7,"qcField":12,"metarType":"METAR","rawOb":"METAR KPVD 121551Z VRB06KT 10SM FEW250 10/M06 A3053 RMK AO2 SLP337 T01001061 $","lat":41.7225,"lon":-71.4325,"elev":15,"name":"Providence/Green Mem, RI, US","cover":"FEW","clouds":[{"cover":"FEW","base":25000}],"fltCat":"VFR"},{"icaoId":"KRDU","receiptTime":"2026-04-12T15:54:12.308Z","obsTime":1776009060,"reportTime":"2026-04-12T16:00:00.000Z","temp":22.2,"dewp":13.3,"wdir":"VRB","wspd":4,"visib":"10+","altim":1029.5,"slp":1028.9,"qcField":4,"metarType":"METAR","rawOb":"METAR KRDU 121551Z VRB04KT 10SM FEW023 FEW250 22/13 A3040 RMK AO2 SLP289 T02220133","lat":35.8923,"lon":-78.782,"elev":121,"name":"Raleigh-Durham Intl, NC, US","cover":"FEW","clouds":[{"cover":"FEW","base":2300},{"cover":"FEW","base":25000}],"fltCat":"VFR"},{"icaoId":"KORF","receiptTime":"2026-04-12T15:54:12.145Z","obsTime":1776009060,"reportTime":"2026-04-12T16:00:00.000Z","temp":18.3,"dewp":4.4,"wdir":90,"wspd":12,"wgst":17,"visib":"10+","altim":1031.6,"slp":1031.2,"qcField":4,"metarType":"METAR","rawOb":"METAR KORF 121551Z 09012G17KT 10SM CLR 18/04 A3046 RMK AO2 SLP312 T01830044","lat":36.9037,"lon":-76.1927,"elev":5,"name":"Norfolk Intl, VA, US","cover":"CLR","clouds":[],"fltCat":"VFR"},{"icaoId":"KBDL","receiptTime":"2026-04-12T15:54:11.475Z","obsTime":1776009060,"reportTime":"2026-04-12T16:00:00.000Z","temp":11.1,"dewp":-7.2,"wdir":"VRB","wspd":4,"visib":"10+","altim":1032.6,"slp":1032.7,"qcField":4,"metarType":"METAR","rawOb":"METAR KBDL 121551Z VRB04KT 10SM FEW130 FEW250 11/M07 A3049 RMK AO2 SLP327 T01111072","lat":41.9374,"lon":-72.682,"elev":52,"name":"Hartford/Bradley Intl, CT, US","cover":"FEW","clouds":[{"cover":"FEW","base":13000},{"cover":"FEW","base":25000}],"fltCat":"VFR"},{"icaoId":"KHOB","receiptTime":"2026-04-12T15:57:28.391Z","obsTime":1776009000,"reportTime":"2026-04-12T16:00:00.000Z","temp":22,"dewp":9,"wdir":220,"wspd":13,"visib":"10+","altim":1017.7,"qcField":0,"metarType":"METAR","rawOb":"METAR KHOB 121550Z 22013KT 10SM CLR 22/09 A3005","lat":32.6797,"lon":-103.2222,"elev":1112,"name":"Hobbs Arpt, NM, US","cover":"CLR","clouds":[],"fltCat":"VFR"},{"icaoId":"KAEG","receiptTime":"2026-04-12T15:58:09.360Z","obsTime":1776009000,"reportTime":"2026-04-12T16:00:00.000Z","temp":15,"dewp":0,"wdir":230,"wspd":7,"visib":"10+","altim":1020.1,"qcField":0,"metarType":"METAR","rawOb":"METAR KAEG 121550Z 23007KT 10SM 15/00 A3012","lat":35.15,"lon":-106.7929,"elev":1771,"name":"Albuquerque/Double Eagle Arpt, NM, US"},{"icaoId":"KHTH","receiptTime":"2026-04-12T15:58:48.870Z","obsTime":1776009000,"reportTime":"2026-04-12T16:00:00.000Z","temp":10,"dewp":-10,"wdir":230,"wspd":14,"visib":"10+","altim":1009.2,"qcField":6,"metarType":"METAR","rawOb":"METAR KHTH 121550Z AUTO 23014KT 10SM CLR 10/M10 A2980 RMK A01","lat":38.5448,"lon":-118.6314,"elev":1281,"name":"Hawthorne Muni, NV, US","cover":"CLR","clouds":[],"fltCat":"VFR"},{"icaoId":"KIWA","receiptTime":"2026-04-12T15:49:07.733Z","obsTime":1776008880,"reportTime":"2026-04-12T16:00:00.000Z","temp":24,"dewp":1,"wdir":160,"wspd":13,"visib":"10+","altim":1014.3,"qcField":0,"metarType":"METAR","rawOb":"METAR KIWA 121548Z 16013KT 10SM CLR 24/01 A2995","lat":33.3008,"lon":-111.6437,"elev":420,"name":"Phoenix/Mesa Gateway Arpt, AZ, US","cover":"CLR","clouds":[],"fltCat":"VFR"},{"icaoId":"KGYR","receiptTime":"2026-04-12T15:51:38.315Z","obsTime":1776008820,"reportTime":"2026-04-12T16:00:00.000Z","temp":23,"dewp":2,"wdir":250,"wspd":5,"visib":"10+","altim":1013.6,"qcField":0,"metarType":"METAR","rawOb":"METAR KGYR 121547Z 25005KT 10SM SCT200 BKN250 23/02 A2993","lat":33.428,"lon":-112.368,"elev":292,"name":"Phoenix/Goodyear Muni, AZ, US","cover":"BKN","clouds":[{"cover":"SCT","base":20000},{"cover":"BKN","base":25000}],"fltCat":"VFR"},{"icaoId":"KCHD","receiptTime":"2026-04-12T15:51:38.243Z","obsTime":1776008820,"reportTime":"2026-04-12T16:00:00.000Z","temp":24,"dewp":3,"wdir":160,"wspd":9,"wgst":15,"visib":"10+","altim":1014,"qcField":0,"metarType":"METAR","rawOb":"METAR KCHD 121547Z 16009G15KT 10SM BKN200 24/03 A2994","lat":33.2669,"lon":-111.8086,"elev":378,"name":"Chandler Muni, AZ, US","cover":"BKN","clouds":[{"cover":"BKN","base":20000}],"fltCat":"VFR"},{"icaoId":"KRYN","receiptTime":"2026-04-12T15:44:05.862Z","obsTime":1776008700,"reportTime":"2026-04-12T16:00:00.000Z","temp":24,"dewp":-1,"wdir":140,"wspd":9,"visib":"10+","altim":1015,"qcField":0,"metarType":"METAR","rawOb":"METAR KRYN 121545Z 14009KT 10SM CLR 24/M01 A2997","lat":32.1418,"lon":-111.1767,"elev":731,"name":"Tucson/Ryan Fld, AZ, US","cover":"CLR","clouds":[],"fltCat":"VFR"},{"icaoId":"KSTS","receiptTime":"2026-04-12T15:10:02.649Z","obsTime":1776006120,"reportTime":"2026-04-12T15:02:00.000Z","temp":9,"dewp":8,"wdir":190,"wspd":10,"wgst":18,"visib":2,"altim":1010.2,"qcField":1,"wxString":"RA BR","metarType":"SPECI","rawOb":"SPECI KSTS 121502Z COR 19010G18KT 160V230 2SM RA BR SCT034 OVC055 09/08 A2983","lat":38.5037,"lon":-122.811,"elev":35,"name":"Santa Rosa/Schulz Arpt, CA, US","cover":"OVC","clouds":[{"cover":"SCT","base":3400},{"cover":"OVC","base":5500}],"fltCat":"IFR"},{"icaoId":"KNFL","receiptTime":"2026-04-12T15:00:22.416Z","obsTime":1776005820,"reportTime":"2026-04-12T15:00:00.000Z","temp":5.6,"dewp":-1.1,"wdir":190,"wspd":8,"visib":"10+","altim":1008.9,"slp":1006.6,"qcField":12,"presTend":1.9,"metarType":"METAR","rawOb":"METAR KNFL 121457Z 19008KT 10SM FEW030 SCT080 SCT140 BKN200 06/M01 A2979 RMK AO2 SLP066 SH DSNT N-NE AND DSNT W T00561011 53019 PNO $","lat":39.417,"lon":-118.705,"elev":1199,"name":"Fallon , NV, US","cover":"BKN","clouds":[{"cover":"FEW","base":3000},{"cover":"SCT","base":8000},{"cover":"SCT","base":14000},{"cover":"BKN","base":20000}],"fltCat":"VFR"},{"icaoId":"KLUF","receiptTime":"2026-04-12T15:14:05.289Z","obsTime":1776005700,"reportTime":"2026-04-12T15:00:00.000Z","temp":20.9,"dewp":-0.4,"wdir":190,"wspd":3,"visib":"10+","altim":1012.6,"slp":1011.5,"qcField":14,"presTend":2.1,"metarType":"METAR","rawOb":"METAR KLUF 121455Z AUTO 19003KT 10SM CLR 21/M00 A2990 RMK AO2 LTG DSNT S SLP115 T02091004 52021 $","lat":33.538,"lon":-112.38,"elev":333,"name":"Phoenix/Luke AFB, AZ, US","cover":"CLR","clouds":[],"fltCat":"VFR"}]