[{"icaoId":"KRYN","receiptTime":"2026-04-10T01:45:37.985Z","obsTime":1775785500,"reportTime":"2026-04-10T02:00:00.000Z","temp":30,"dewp":-4,"wdir":260,"wspd":12,"visib":"10+","altim":1011.3,"qcField":0,"metarType":"METAR","rawOb":"METAR KRYN 100145Z 26012KT 10SM CLR 30/M04 A2986","lat":32.1418,"lon":-111.1767,"elev":731,"name":"Tucson/Ryan Fld, AZ, US","cover":"CLR","clouds":[],"fltCat":"VFR"},{"icaoId":"KSOW","receiptTime":"2026-04-10T01:38:28.982Z","obsTime":1775784900,"reportTime":"2026-04-10T01:35:00.000Z","temp":18,"dewp":-6,"wdir":220,"wspd":10,"visib":"10+","altim":1020.1,"qcField":6,"metarType":"METAR","rawOb":"METAR KSOW 100135Z AUTO 22010KT 10SM CLR 18/M06 A3012 RMK AO2","lat":34.2686,"lon":-110.0019,"elev":1954,"name":"Show Low Muni, AZ, US","cover":"CLR","clouds":[],"fltCat":"VFR"},{"icaoId":"KSEZ","receiptTime":"2026-04-10T01:40:17.967Z","obsTime":1775784900,"reportTime":"2026-04-10T01:35:00.000Z","temp":21,"dewp":-8,"wdir":160,"wspd":12,"wgst":19,"visib":"10+","altim":1016.7,"qcField":6,"metarType":"METAR","rawOb":"METAR KSEZ 100135Z AUTO 16012G19KT 10SM CLR 21/M08 A3002 RMK AO2","lat":34.8467,"lon":-111.7884,"elev":1455,"name":"Sedona Arpt, AZ, US","cover":"CLR","clouds":[],"fltCat":"VFR"},{"icaoId":"KIFP","receiptTime":"2026-04-10T01:40:20.484Z","obsTime":1775784900,"reportTime":"2026-04-10T01:35:00.000Z","temp":32,"dewp":-4,"wdir":170,"wspd":13,"wgst":18,"visib":"10+","altim":1006.9,"qcField":6,"metarType":"METAR","rawOb":"METAR KIFP 100135Z AUTO 17013G18KT 10SM CLR 32/M04 A2973 RMK AO2","lat":35.1487,"lon":-114.5611,"elev":210,"name":"Bullhead City Intl, AZ, US","cover":"CLR","clouds":[],"fltCat":"VFR"},{"icaoId":"KHII","receiptTime":"2026-04-10T01:40:19.565Z","obsTime":1775784900,"reportTime":"2026-04-10T01:35:00.000Z","temp":32,"dewp":-3,"wdir":260,"wspd":5,"visib":"10+","altim":1007.9,"qcField":6,"metarType":"METAR","rawOb":"METAR KHII 100135Z AUTO 26005KT 10SM CLR 32/M03 A2976 RMK AO2","lat":34.5659,"lon":-114.3522,"elev":241,"name":"Lake Havasu City Arpt, AZ, US","cover":"CLR","clouds":[],"fltCat":"VFR"},{"icaoId":"KNYL","receiptTime":"2026-04-10T01:00:39.742Z","obsTime":1775782620,"reportTime":"2026-04-10T01:00:00.000Z","temp":32.8,"dewp":3.9,"wdir":220,"wspd":4,"visib":"10+","altim":1008.2,"slp":1007.7,"qcField":4,"metarType":"METAR","rawOb":"METAR KNYL 100057Z 22004KT 10SM CLR 33/04 A2977 RMK AO2 SLP077 T03280039","lat":32.66,"lon":-114.6078,"elev":58,"name":"Yuma , AZ, US","cover":"CLR","clouds":[],"fltCat":"VFR"},{"icaoId":"KFLG","receiptTime":"2026-04-10T01:00:47.790Z","obsTime":1775782620,"reportTime":"2026-04-10T01:00:00.000Z","temp":16.1,"dewp":-10,"wdir":210,"wspd":13,"wgst":19,"visib":"10+","altim":1020.4,"slp":1014.3,"qcField":12,"metarType":"METAR","rawOb":"METAR KFLG 100057Z 21013G19KT 10SM CLR 16/M10 A3013 RMK AO2 SLP143 T01611100 $","lat":35.1443,"lon":-111.6664,"elev":2134,"name":"Flagstaff/Pulliam Arpt, AZ, US","cover":"CLR","clouds":[],"fltCat":"VFR"},{"icaoId":"KCGZ","receiptTime":"2026-04-10T00:58:19.607Z","obsTime":1775782560,"reportTime":"2026-04-10T01:00:00.000Z","temp":33.3,"dewp":-2.2,"wdir":300,"wspd":5,"visib":"10+","altim":1009.9,"slp":1008.6,"qcField":14,"metarType":"METAR","rawOb":"METAR KCGZ 100056Z AUTO 30005KT 10SM CLR 33/M02 A2982 RMK AO2 SLP086 T03331022 $","lat":32.9531,"lon":-111.7725,"elev":444,"name":"Casa Granda Muni, AZ, US","cover":"CLR","clouds":[],"fltCat":"VFR"},{"icaoId":"KINW","receiptTime":"2026-04-10T01:00:30.341Z","obsTime":1775782560,"reportTime":"2026-04-10T01:00:00.000Z","temp":23.3,"dewp":-5,"wdir":220,"wspd":15,"visib":"10+","altim":1016.3,"slp":1011.5,"qcField":6,"metarType":"METAR","rawOb":"METAR KINW 100056Z AUTO 22015KT 10SM CLR 23/M05 A3001 RMK AO2 PK WND 21027/0025 SLP115 T02331050","lat":35.0279,"lon":-110.7221,"elev":1492,"name":"Winslow/Lindberg Rgnl, AZ, US","cover":"CLR","clouds":[],"fltCat":"VFR"},{"icaoId":"KDUG","receiptTime":"2026-04-10T01:02:15.878Z","obsTime":1775782560,"reportTime":"2026-04-10T01:00:00.000Z","temp":28.3,"dewp":-3.9,"wdir":240,"wspd":8,"visib":"10+","altim":1015,"slp":1008.9,"qcField":38,"metarType":"METAR","rawOb":"METAR KDUG 100056Z AUTO 24008KT 10SM CLR 28/M04 A2997 RMK AO2 SLP089 T02831039 TSNO","lat":31.4725,"lon":-109.6022,"elev":1260,"name":"Douglas/Bisbee Intl, AZ, US","cover":"CLR","clouds":[],"fltCat":"VFR"},{"icaoId":"KLUF","receiptTime":"2026-04-10T01:02:07.632Z","obsTime":1775782500,"reportTime":"2026-04-10T01:00:00.000Z","temp":33.8,"dewp":-6.8,"wdir":240,"wspd":13,"wgst":20,"visib":"10+","altim":1008.5,"slp":1007.2,"qcField":14,"metarType":"METAR","rawOb":"METAR KLUF 100055Z AUTO 24013G20KT 10SM CLR 34/M07 A2978 RMK AO2 SLP072 T03381068 $","lat":33.538,"lon":-112.38,"elev":333,"name":"Phoenix/Luke AFB, AZ, US","cover":"CLR","clouds":[],"fltCat":"VFR"},{"icaoId":"KFFZ","receiptTime":"2026-04-10T00:58:14.553Z","obsTime":1775782440,"reportTime":"2026-04-10T01:00:00.000Z","temp":32.8,"dewp":-2.8,"wdir":270,"wspd":5,"visib":"10+","altim":1009.2,"slp":1006.8,"qcField":4,"metarType":"METAR","rawOb":"METAR KFFZ 100054Z 27005KT 10SM CLR 33/M03 A2980 RMK AO2 SLP068 T03281028","lat":33.4659,"lon":-111.7212,"elev":420,"name":"Mesa/Falcon Fld, AZ, US","cover":"CLR","clouds":[],"fltCat":"VFR"},{"icaoId":"KSJN","receiptTime":"2026-04-10T00:58:04.258Z","obsTime":1775782440,"reportTime":"2026-04-10T01:00:00.000Z","temp":22.8,"dewp":-6.7,"wdir":250,"wspd":13,"visib":"10+","altim":1017,"slp":1009.9,"qcField":6,"metarType":"METAR","rawOb":"METAR KSJN 100054Z AUTO 25013KT 10SM CLR 23/M07 A3003 RMK AO2 SLP099 T02281067","lat":34.5184,"lon":-109.3801,"elev":1747,"name":"St Johns Ind Arpt, AZ, US","cover":"CLR","clouds":[],"fltCat":"VFR"},{"icaoId":"KOLS","receiptTime":"2026-04-10T00:58:08.895Z","obsTime":1775782440,"reportTime":"2026-04-10T01:00:00.000Z","temp":27.2,"dewp":-4.4,"wdir":230,"wspd":9,"visib":"10+","altim":1015.3,"slp":1009.6,"qcField":6,"metarType":"METAR","rawOb":"METAR KOLS 100054Z AUTO 23009KT 10SM CLR 27/M04 A2998 RMK AO2 SLP096 T02721044","lat":31.4208,"lon":-110.8465,"elev":1194,"name":"Nogales Intl, AZ, US","cover":"CLR","clouds":[],"fltCat":"VFR"},{"icaoId":"KGCN","receiptTime":"2026-04-10T00:58:14.580Z","obsTime":1775782440,"reportTime":"2026-04-10T01:00:00.000Z","temp":18.3,"dewp":-7.2,"wdir":220,"wspd":15,"wgst":21,"visib":"10+","altim":1019,"slp":1014.1,"qcField":4,"metarType":"METAR","rawOb":"METAR KGCN 100054Z 22015G21KT 10SM CLR 18/M07 A3009 RMK AO2 PK WND 22027/0027 SLP141 T01831072","lat":35.9458,"lon":-112.1554,"elev":1993,"name":"Grand Canyon Park Arpt, AZ, US","cover":"CLR","clouds":[],"fltCat":"VFR"},{"icaoId":"KTUS","receiptTime":"2026-04-10T00:56:35.873Z","obsTime":1775782380,"reportTime":"2026-04-10T01:00:00.000Z","temp":31.1,"dewp":-3.3,"wdir":270,"wspd":9,"wgst":16,"visib":"10+","altim":1012.3,"slp":1008,"qcField":4,"metarType":"METAR","rawOb":"METAR KTUS 100053Z 27009G16KT 10SM CLR 31/M03 A2989 RMK AO2 SLP080 T03111033","lat":32.1315,"lon":-110.9564,"elev":776,"name":"Tucson Intl Arpt, AZ, US","cover":"CLR","clouds":[],"fltCat":"VFR"},{"icaoId":"KDVT","receiptTime":"2026-04-10T00:56:31.589Z","obsTime":1775782380,"reportTime":"2026-04-10T01:00:00.000Z","temp":32.2,"dewp":-2.8,"wdir":260,"wspd":12,"wgst":17,"visib":"10+","altim":1009.9,"slp":1007.5,"qcField":4,"metarType":"METAR","rawOb":"METAR KDVT 100053Z 26012G17KT 10SM FEW100 32/M03 A2982 RMK AO2 SLP075 T03221028","lat":33.6902,"lon":-112.0662,"elev":454,"name":"Phoenix/Deer Valley Arpt, AZ, US","cover":"FEW","clouds":[{"cover":"FEW","base":10000}],"fltCat":"VFR"},{"icaoId":"KPGA","receiptTime":"2026-04-10T00:56:37.122Z","obsTime":1775782380,"reportTime":"2026-04-10T01:00:00.000Z","temp":26.1,"dewp":-6.7,"wdir":"VRB","wspd":5,"wgst":14,"visib":"10+","altim":1012.3,"slp":1006.8,"qcField":6,"metarType":"METAR","rawOb":"METAR KPGA 100053Z AUTO VRB05G14KT 10SM CLR 26/M07 A2989 RMK AO2 SLP068 T02611067","lat":36.9211,"lon":-111.4487,"elev":1310,"name":"Page Muni, AZ, US","cover":"CLR","clouds":[],"fltCat":"VFR"},{"icaoId":"KPRC","receiptTime":"2026-04-10T00:56:37.307Z","obsTime":1775782380,"reportTime":"2026-04-10T01:00:00.000Z","temp":21.7,"dewp":-5,"wdir":180,"wspd":10,"wgst":16,"visib":"10+","altim":1017,"slp":1010.8,"qcField":4,"metarType":"METAR","rawOb":"METAR KPRC 100053Z 18010G16KT 10SM CLR 22/M05 A3003 RMK AO2 SLP108 T02171050","lat":34.6491,"lon":-112.4223,"elev":1528,"name":"Prescott/Love Fld, AZ, US","cover":"CLR","clouds":[],"fltCat":"VFR"},{"icaoId":"KSDL","receiptTime":"2026-04-10T00:56:28.846Z","obsTime":1775782380,"reportTime":"2026-04-10T01:00:00.000Z","temp":32.8,"dewp":-2.2,"wdir":"VRB","wspd":3,"visib":"10+","altim":1010.2,"slp":1007.6,"qcField":4,"metarType":"METAR","rawOb":"METAR KSDL 100053Z VRB03KT 10SM CLR 33/M02 A2983 RMK AO2 SLP076 T03281022","lat":33.6123,"lon":-111.9232,"elev":438,"name":"Scottsdale Muni, AZ, US","cover":"CLR","clouds":[],"fltCat":"VFR"},{"icaoId":"KIGM","receiptTime":"2026-04-10T00:54:10.824Z","obsTime":1775782260,"reportTime":"2026-04-10T01:00:00.000Z","temp":25.6,"dewp":-3.9,"wdir":230,"wspd":18,"wgst":31,"visib":"10+","altim":1013,"slp":1006.8,"qcField":6,"metarType":"METAR","rawOb":"METAR KIGM 100051Z AUTO 23018G31KT 10SM CLR 26/M04 A2991 RMK AO2 PK WND 22031/0049 SLP068 T02561039","lat":35.2575,"lon":-113.9341,"elev":1045,"name":"Kingman Arpt, AZ, US","cover":"CLR","clouds":[],"fltCat":"VFR"},{"icaoId":"KSAD","receiptTime":"2026-04-10T00:54:11.685Z","obsTime":1775782260,"reportTime":"2026-04-10T01:00:00.000Z","temp":30.6,"dewp":-5,"wdir":290,"wspd":13,"wgst":24,"visib":"10+","altim":1011.6,"slp":1007.6,"qcField":6,"metarType":"METAR","rawOb":"METAR KSAD 100051Z AUTO 29013G24KT 10SM CLR 31/M05 A2987 RMK AO2 SLP076 T03061050","lat":32.8565,"lon":-109.636,"elev":937,"name":"Safford Rgnl, AZ, US","cover":"CLR","clouds":[],"fltCat":"VFR"},{"icaoId":"KPHX","receiptTime":"2026-04-10T00:54:11.483Z","obsTime":1775782260,"reportTime":"2026-04-10T01:00:00.000Z","temp":33.9,"dewp":-2.8,"wdir":260,"wspd":8,"visib":"10+","altim":1008.5,"slp":1006.7,"qcField":4,"metarType":"METAR","rawOb":"METAR KPHX 100051Z 26008KT 10SM FEW200 BKN250 34/M03 A2978 RMK AO2 SLP067 T03391028","lat":33.4278,"lon":-112.0037,"elev":338,"name":"Phoenix/Sky Harbor Intl, AZ, US","cover":"BKN","clouds":[{"cover":"FEW","base":20000},{"cover":"BKN","base":25000}],"fltCat":"VFR"},{"icaoId":"KIWA","receiptTime":"2026-04-10T00:48:26.538Z","obsTime":1775782080,"reportTime":"2026-04-10T01:00:00.000Z","temp":33,"dewp":-2,"wdir":300,"wspd":10,"visib":"10+","altim":1009.9,"qcField":0,"metarType":"METAR","rawOb":"METAR KIWA 100048Z 30010KT 10SM CLR 33/M02 A2982","lat":33.3008,"lon":-111.6437,"elev":420,"name":"Phoenix/Mesa Gateway Arpt, AZ, US","cover":"CLR","clouds":[],"fltCat":"VFR"},{"icaoId":"KGYR","receiptTime":"2026-04-10T00:53:17.884Z","obsTime":1775782020,"reportTime":"2026-04-10T01:00:00.000Z","temp":33,"dewp":-1,"wdir":240,"wspd":12,"visib":"10+","altim":1008.9,"qcField":0,"metarType":"METAR","rawOb":"METAR KGYR 100047Z 24012KT 10SM FEW110 FEW200 BKN250 33/M01 A2979","lat":33.428,"lon":-112.368,"elev":292,"name":"Phoenix/Goodyear Muni, AZ, US","cover":"BKN","clouds":[{"cover":"FEW","base":11000},{"cover":"FEW","base":20000},{"cover":"BKN","base":25000}],"fltCat":"VFR"},{"icaoId":"KGEU","receiptTime":"2026-04-10T00:50:47.687Z","obsTime":1775782020,"reportTime":"2026-04-10T01:00:00.000Z","temp":34,"dewp":-4,"wdir":230,"wspd":12,"visib":"10+","altim":1008.2,"qcField":0,"metarType":"METAR","rawOb":"METAR KGEU 100047Z 23012KT 10SM CLR 34/M04 A2977","lat":33.528,"lon":-112.293,"elev":319,"name":"Glendale Muni, AZ, US","cover":"CLR","clouds":[],"fltCat":"VFR"},{"icaoId":"KCHD","receiptTime":"2026-04-10T00:47:46.728Z","obsTime":1775782020,"reportTime":"2026-04-10T01:00:00.000Z","temp":33,"dewp":-2,"wdir":240,"wspd":4,"visib":"10+","altim":1009.2,"qcField":0,"metarType":"METAR","rawOb":"METAR KCHD 100047Z 24004KT 10SM SCT250 33/M02 A2980","lat":33.2669,"lon":-111.8086,"elev":378,"name":"Chandler Muni, AZ, US","cover":"SCT","clouds":[{"cover":"SCT","base":25000}],"fltCat":"VFR"}]