[{"icaoId":"KLWS","receiptTime":"2026-04-13T16:40:18.679Z","obsTime":1776098220,"reportTime":"2026-04-13T16:37:00.000Z","temp":6.7,"dewp":4.4,"wdir":170,"wspd":8,"visib":"10+","altim":1012.3,"qcField":12,"wxString":"-RA","precip":0.04,"metarType":"SPECI","rawOb":"SPECI KLWS 131637Z 17008KT 10SM -RA BKN028 OVC037 07/04 A2989 RMK AO2 P0004 T00670044 $","lat":46.3746,"lon":-117.0153,"elev":435,"name":"Lewiston/Nez Perce Cnty, ID, US","cover":"OVC","clouds":[{"cover":"BKN","base":2800},{"cover":"OVC","base":3700}],"fltCat":"MVFR"},{"icaoId":"KLGB","receiptTime":"2026-04-13T16:40:12.609Z","obsTime":1776098160,"reportTime":"2026-04-13T16:36:00.000Z","temp":15.6,"dewp":8.9,"wdir":330,"wspd":6,"visib":"10+","altim":1017.7,"qcField":12,"precip":0.005,"metarType":"SPECI","rawOb":"SPECI KLGB 131636Z 33006KT 10SM BKN029 BKN035 OVC065 16/09 A3005 RMK AO2 RAB15E24 P0000 T01560089 $","lat":33.8118,"lon":-118.1472,"elev":10,"name":"Long Beach Arpt, CA, US","cover":"OVC","clouds":[{"cover":"BKN","base":2900},{"cover":"BKN","base":3500},{"cover":"OVC","base":6500}],"fltCat":"MVFR"},{"icaoId":"KMEV","receiptTime":"2026-04-13T16:40:03.422Z","obsTime":1776098100,"reportTime":"2026-04-13T16:35:00.000Z","temp":3,"dewp":1,"wdir":0,"wspd":0,"visib":"10+","altim":1018,"qcField":6,"metarType":"METAR","rawOb":"METAR KMEV 131635Z AUTO 00000KT 10SM BKN013 03/01 A3006 RMK AO2","lat":38.9963,"lon":-119.75,"elev":1437,"name":"Minden-Tahoe Arpt, NV, US","cover":"BKN","clouds":[{"cover":"BKN","base":1300}],"fltCat":"MVFR"},{"icaoId":"KBVU","receiptTime":"2026-04-13T16:36:08.782Z","obsTime":1776098100,"reportTime":"2026-04-13T16:35:00.000Z","temp":17,"dewp":0,"wdir":170,"wspd":7,"visib":"10+","altim":1014,"qcField":6,"metarType":"METAR","rawOb":"METAR KBVU 131635Z AUTO 17007KT 150V220 10SM FEW060 17/M00 A2994 RMK AO2","lat":35.9489,"lon":-114.8633,"elev":654,"name":"Boulder City Muni, NV, US","cover":"FEW","clouds":[{"cover":"FEW","base":6000}],"fltCat":"VFR"},{"icaoId":"KHAF","receiptTime":"2026-04-13T16:38:27.566Z","obsTime":1776098100,"reportTime":"2026-04-13T16:35:00.000Z","temp":14,"dewp":11,"wdir":330,"wspd":7,"visib":9,"altim":1020.1,"qcField":6,"metarType":"METAR","rawOb":"METAR KHAF 131635Z AUTO 33007KT 9SM CLR 14/11 A3012 RMK AO2","lat":37.5136,"lon":-122.4996,"elev":11,"name":"Half Moon Bay Arpt, CA, US","cover":"CLR","clouds":[],"fltCat":"VFR"},{"icaoId":"KHII","receiptTime":"2026-04-13T16:41:17.165Z","obsTime":1776098100,"reportTime":"2026-04-13T16:35:00.000Z","temp":21,"dewp":3,"wdir":200,"wspd":7,"visib":"10+","altim":1014.6,"qcField":6,"metarType":"METAR","rawOb":"METAR KHII 131635Z AUTO 20007KT 10SM CLR 21/03 A2996 RMK AO2","lat":34.5659,"lon":-114.3522,"elev":241,"name":"Lake Havasu City Arpt, AZ, US","cover":"CLR","clouds":[],"fltCat":"VFR"},{"icaoId":"KLRU","receiptTime":"2026-04-13T16:38:19.553Z","obsTime":1776098100,"reportTime":"2026-04-13T16:35:00.000Z","temp":20.6,"dewp":-1,"wdir":230,"wspd":15,"wgst":19,"visib":"10+","altim":1021.4,"qcField":6,"metarType":"METAR","rawOb":"METAR KLRU 131635Z AUTO 23015G19KT 10SM CLR 21/M01 A3016 RMK AO2 T02061010","lat":32.2884,"lon":-106.9131,"elev":1355,"name":"Las Cruces Intl, NM, US","cover":"CLR","clouds":[],"fltCat":"VFR"},{"icaoId":"KSEZ","receiptTime":"2026-04-13T16:42:04.687Z","obsTime":1776098100,"reportTime":"2026-04-13T16:35:00.000Z","temp":14,"dewp":3,"wdir":170,"wspd":5,"wgst":15,"visib":"10+","altim":1018.4,"qcField":6,"metarType":"METAR","rawOb":"METAR KSEZ 131635Z AUTO 17005G15KT 10SM SCT033 BKN044 OVC050 14/03 A3007 RMK AO2","lat":34.8467,"lon":-111.7884,"elev":1455,"name":"Sedona Arpt, AZ, US","cover":"OVC","clouds":[{"cover":"SCT","base":3300},{"cover":"BKN","base":4400},{"cover":"OVC","base":5000}],"fltCat":"VFR"},{"icaoId":"KSOW","receiptTime":"2026-04-13T16:38:19.071Z","obsTime":1776098100,"reportTime":"2026-04-13T16:35:00.000Z","temp":14,"dewp":2,"wdir":180,"wspd":20,"wgst":28,"visib":"10+","altim":1019.7,"qcField":6,"metarType":"METAR","rawOb":"METAR KSOW 131635Z AUTO 18020G28KT 10SM CLR 14/02 A3011 RMK AO2","lat":34.2686,"lon":-110.0019,"elev":1954,"name":"Show Low Muni, AZ, US","cover":"CLR","clouds":[],"fltCat":"VFR"},{"icaoId":"KHTH","receiptTime":"2026-04-13T16:40:14.444Z","obsTime":1776098100,"reportTime":"2026-04-13T16:35:00.000Z","temp":7,"dewp":-3,"wdir":320,"wspd":7,"visib":"10+","altim":1018,"qcField":6,"metarType":"METAR","rawOb":"METAR KHTH 131635Z AUTO 32007KT 10SM BKN080 07/M03 A3006 RMK A01","lat":38.5448,"lon":-118.6314,"elev":1281,"name":"Hawthorne Muni, NV, US","cover":"BKN","clouds":[{"cover":"BKN","base":8000}],"fltCat":"VFR"},{"icaoId":"KRTS","receiptTime":"2026-04-13T16:40:04.671Z","obsTime":1776098100,"reportTime":"2026-04-13T16:35:00.000Z","temp":4,"dewp":-3,"wdir":0,"wspd":0,"visib":"10+","altim":1018,"qcField":6,"metarType":"METAR","rawOb":"METAR KRTS 131635Z AUTO 00000KT 10SM CLR 04/M03 A3006 RMK AO2","lat":39.6658,"lon":-119.8731,"elev":1537,"name":"Reno/Stead Arpt, NV, US","cover":"CLR","clouds":[],"fltCat":"VFR"},{"icaoId":"KHCR","receiptTime":"2026-04-13T16:38:26.412Z","obsTime":1776098100,"reportTime":"2026-04-13T16:35:00.000Z","temp":6,"dewp":1.1,"wdir":0,"wspd":0,"visib":"10+","altim":1016.3,"qcField":14,"metarType":"METAR","rawOb":"METAR KHCR 131635Z AUTO 00000KT 10SM CLR 06/01 A3001 RMK AO2 T00600011 $","lat":40.4774,"lon":-111.4329,"elev":1708,"name":"Heber City Muni, UT, US","cover":"CLR","clouds":[],"fltCat":"VFR"},{"icaoId":"KCXP","receiptTime":"2026-04-13T16:40:05.116Z","obsTime":1776098100,"reportTime":"2026-04-13T16:35:00.000Z","temp":6,"dewp":0,"wdir":320,"wspd":8,"visib":"10+","altim":1018.4,"qcField":6,"metarType":"METAR","rawOb":"METAR KCXP 131635Z AUTO 32008KT 10SM FEW055 06/00 A3007 RMK AO2","lat":39.1905,"lon":-119.7319,"elev":1431,"name":"Carson City Arpt, NV, US","cover":"FEW","clouds":[{"cover":"FEW","base":5500}],"fltCat":"VFR"},{"icaoId":"KMHR","receiptTime":"2026-04-13T16:40:14.265Z","obsTime":1776098100,"reportTime":"2026-04-13T16:35:00.000Z","temp":11,"dewp":11,"wdir":340,"wspd":8,"visib":9,"altim":1019.4,"qcField":6,"metarType":"METAR","rawOb":"METAR KMHR 131635Z AUTO 34008KT 9SM OVC005 11/11 A3010 RMK AO2","lat":38.56,"lon":-121.284,"elev":30,"name":"Sacramento/Mather Fld, CA, US","cover":"OVC","clouds":[{"cover":"OVC","base":500}],"fltCat":"IFR"},{"icaoId":"KHIO","receiptTime":"2026-04-13T16:38:21.150Z","obsTime":1776098040,"reportTime":"2026-04-13T16:34:00.000Z","temp":10,"dewp":5,"wdir":260,"wspd":6,"visib":"10+","altim":1019.4,"qcField":4,"metarType":"SPECI","rawOb":"SPECI KHIO 131634Z 26006KT 10SM FEW024 BKN060 10/05 A3010 RMK AO2 T01000050","lat":45.5476,"lon":-122.9557,"elev":62,"name":"Portland/Hillsboro Arpt, OR, US","cover":"BKN","clouds":[{"cover":"FEW","base":2400},{"cover":"BKN","base":6000}],"fltCat":"VFR"},{"icaoId":"KFLG","receiptTime":"2026-04-13T16:38:23.295Z","obsTime":1776098040,"reportTime":"2026-04-13T16:34:00.000Z","temp":7.2,"dewp":0.6,"wdir":200,"wspd":14,"wgst":23,"visib":"10+","altim":1018.7,"qcField":12,"metarType":"SPECI","rawOb":"SPECI KFLG 131634Z 20014G23KT 10SM SCT024 BKN030 BKN035 07/01 A3008 RMK AO2 T00720006 $","lat":35.1443,"lon":-111.6664,"elev":2134,"name":"Flagstaff/Pulliam Arpt, AZ, US","cover":"BKN","clouds":[{"cover":"SCT","base":2400},{"cover":"BKN","base":3000},{"cover":"BKN","base":3500}],"fltCat":"MVFR"},{"icaoId":"KMYL","receiptTime":"2026-04-13T16:38:23.338Z","obsTime":1776098040,"reportTime":"2026-04-13T16:34:00.000Z","temp":0.6,"dewp":0,"wdir":160,"wspd":6,"visib":1,"altim":1012.3,"qcField":6,"wxString":"-SN BR","precip":0.02,"metarType":"SPECI","rawOb":"SPECI KMYL 131634Z AUTO 16006KT 1SM -SN BR FEW004 OVC015 01/00 A2989 RMK AO2 P0002 T00060000","lat":44.8943,"lon":-116.0998,"elev":1532,"name":"McCall Muni, ID, US","cover":"OVC","clouds":[{"cover":"FEW","base":400},{"cover":"OVC","base":1500}],"fltCat":"IFR"},{"icaoId":"KSWO","receiptTime":"2026-04-13T16:38:21.173Z","obsTime":1776098040,"reportTime":"2026-04-13T16:34:00.000Z","temp":26.1,"dewp":18.9,"wdir":220,"wspd":20,"wgst":30,"visib":"10+","altim":1013.3,"qcField":4,"metarType":"SPECI","rawOb":"SPECI KSWO 131634Z 22020G30KT 10SM BKN027 26/19 A2992 RMK AO2 PK WND 21030/1627 T02610189","lat":36.1624,"lon":-97.0832,"elev":293,"name":"Stillwater Muni, OK, US","cover":"BKN","clouds":[{"cover":"BKN","base":2700}],"fltCat":"MVFR"},{"icaoId":"KDAL","receiptTime":"2026-04-13T16:38:23.268Z","obsTime":1776098040,"reportTime":"2026-04-13T16:34:00.000Z","temp":25.6,"dewp":20.6,"wdir":170,"wspd":14,"wgst":23,"visib":"10+","altim":1018,"qcField":4,"metarType":"SPECI","rawOb":"SPECI KDAL 131634Z 17014G23KT 10SM SCT022 SCT027 BKN035 26/21 A3006 RMK AO2 T02560206","lat":32.8384,"lon":-96.8358,"elev":148,"name":"Dallas/Love Fld, TX, US","cover":"BKN","clouds":[{"cover":"SCT","base":2200},{"cover":"SCT","base":2700},{"cover":"BKN","base":3500}],"fltCat":"VFR"},{"icaoId":"KBUF","receiptTime":"2026-04-13T16:36:05.598Z","obsTime":1776097920,"reportTime":"2026-04-13T16:32:00.000Z","temp":14.4,"dewp":11.1,"wdir":230,"wspd":20,"wgst":30,"visib":"10+","altim":1012.3,"qcField":12,"metarType":"SPECI","rawOb":"SPECI KBUF 131632Z 23020G30KT 10SM BKN027 BKN050 BKN100 14/11 A2989 RMK AO2 PK WND 23033/1620 T01440111 $","lat":42.94,"lon":-78.7361,"elev":217,"name":"Buffalo-Niagara Intl, NY, US","cover":"BKN","clouds":[{"cover":"BKN","base":2700},{"cover":"BKN","base":5000},{"cover":"BKN","base":10000}],"fltCat":"MVFR"},{"icaoId":"KPVD","receiptTime":"2026-04-13T16:34:03.077Z","obsTime":1776097800,"reportTime":"2026-04-13T16:30:00.000Z","temp":15,"dewp":11.7,"wdir":230,"wspd":16,"wgst":22,"visib":"10+","altim":1016.3,"qcField":4,"metarType":"SPECI","rawOb":"SPECI KPVD 131630Z 23016G22KT 10SM OVC014 15/12 A3001 RMK AO2 T01500117","lat":41.7225,"lon":-71.4325,"elev":15,"name":"Providence/Green Mem, RI, US","cover":"OVC","clouds":[{"cover":"OVC","base":1400}],"fltCat":"MVFR"},{"icaoId":"KBCE","receiptTime":"2026-04-13T16:34:03.093Z","obsTime":1776097800,"reportTime":"2026-04-13T16:30:00.000Z","temp":1.7,"dewp":0,"wdir":140,"wspd":7,"visib":"10+","altim":1018,"qcField":6,"metarType":"SPECI","rawOb":"SPECI KBCE 131630Z AUTO 14007KT 10SM SCT012 BKN018 OVC026 02/00 A3006 RMK AO2 T00170000","lat":37.7013,"lon":-112.149,"elev":2311,"name":"Bryce Canyon Arpt, UT, US","cover":"OVC","clouds":[{"cover":"SCT","base":1200},{"cover":"BKN","base":1800},{"cover":"OVC","base":2600}],"fltCat":"MVFR"},{"icaoId":"KCEC","receiptTime":"2026-04-13T16:32:07.884Z","obsTime":1776097680,"reportTime":"2026-04-13T16:28:00.000Z","temp":11.1,"dewp":10,"wdir":310,"wspd":4,"visib":9,"altim":1021.8,"qcField":6,"precip":0.005,"metarType":"SPECI","rawOb":"SPECI KCEC 131628Z AUTO 31004KT 9SM SCT006 OVC031 11/10 A3017 RMK AO2 RAE03 P0000 T01110100","lat":41.7836,"lon":-124.238,"elev":17,"name":"Crescent City/McNama, CA, US","cover":"OVC","clouds":[{"cover":"SCT","base":600},{"cover":"OVC","base":3100}],"fltCat":"VFR"},{"icaoId":"KSAT","receiptTime":"2026-04-13T16:30:12.150Z","obsTime":1776097620,"reportTime":"2026-04-13T16:27:00.000Z","temp":26.7,"dewp":20,"wdir":170,"wspd":12,"visib":"10+","altim":1019.7,"qcField":12,"metarType":"SPECI","rawOb":"SPECI KSAT 131627Z 17012KT 10SM SCT024 BKN034 BKN250 27/20 A3011 RMK AO2 T02670200 $","lat":29.5443,"lon":-98.4839,"elev":246,"name":"San Antonio Intl, TX, US","cover":"BKN","clouds":[{"cover":"SCT","base":2400},{"cover":"BKN","base":3400},{"cover":"BKN","base":25000}],"fltCat":"VFR"},{"icaoId":"KORD","receiptTime":"2026-04-13T16:30:05.344Z","obsTime":1776097560,"reportTime":"2026-04-13T16:26:00.000Z","temp":21.1,"dewp":17.8,"wdir":210,"wspd":10,"visib":"10+","altim":1013.3,"qcField":4,"metarType":"SPECI","rawOb":"SPECI KORD 131626Z 21010KT 10SM BKN015 OVC028 21/18 A2992 RMK AO2 T02110178","lat":41.9602,"lon":-87.9316,"elev":202,"name":"Chicago/O'Hare Intl, IL, US","cover":"OVC","clouds":[{"cover":"BKN","base":1500},{"cover":"OVC","base":2800}],"fltCat":"MVFR"},{"icaoId":"KBDL","receiptTime":"2026-04-13T16:30:06.015Z","obsTime":1776097560,"reportTime":"2026-04-13T16:26:00.000Z","temp":15,"dewp":10.6,"wdir":190,"wspd":12,"visib":"10+","altim":1015,"qcField":4,"metarType":"SPECI","rawOb":"SPECI KBDL 131626Z 19012KT 10SM SCT013 BKN150 BKN250 15/11 A2997 RMK AO2 T01500106","lat":41.9374,"lon":-72.682,"elev":52,"name":"Hartford/Bradley Intl, CT, US","cover":"BKN","clouds":[{"cover":"SCT","base":1300},{"cover":"BKN","base":15000},{"cover":"BKN","base":25000}],"fltCat":"VFR"},{"icaoId":"KEUG","receiptTime":"2026-04-13T16:28:07.690Z","obsTime":1776097500,"reportTime":"2026-04-13T16:25:00.000Z","temp":10,"dewp":6.7,"wdir":240,"wspd":9,"visib":9,"altim":1020.7,"qcField":4,"wxString":"-RA","precip":0.005,"metarType":"SPECI","rawOb":"SPECI KEUG 131625Z 24009KT 9SM -RA SCT019 BKN025 BKN050 10/07 A3014 RMK AO2 RAB25 P0000 T01000067","lat":44.1331,"lon":-123.2156,"elev":109,"name":"Eugene/Mahlon Sweet Fld, OR, US","cover":"BKN","clouds":[{"cover":"SCT","base":1900},{"cover":"BKN","base":2500},{"cover":"BKN","base":5000}],"fltCat":"MVFR"},{"icaoId":"KGEG","receiptTime":"2026-04-13T16:28:05.884Z","obsTime":1776097440,"reportTime":"2026-04-13T16:24:00.000Z","temp":7.2,"dewp":6.1,"wdir":170,"wspd":7,"visib":"10+","altim":1009.6,"qcField":12,"metarType":"SPECI","rawOb":"SPECI KGEG 131624Z 17007KT 10SM OVC005 07/06 A2981 RMK AO2 CIG 004V008 T00720061 $","lat":47.6217,"lon":-117.528,"elev":718,"name":"Spokane Intl, WA, US","cover":"OVC","clouds":[{"cover":"OVC","base":500}],"fltCat":"IFR"},{"icaoId":"KMCI","receiptTime":"2026-04-13T16:26:25.951Z","obsTime":1776097380,"reportTime":"2026-04-13T16:23:00.000Z","temp":23.9,"dewp":18.3,"wdir":200,"wspd":18,"wgst":30,"visib":"10+","altim":1010.2,"qcField":4,"metarType":"SPECI","rawOb":"SPECI KMCI 131623Z 20018G30KT 10SM OVC030 24/18 A2983 RMK AO2 PK WND 21032/1608 T02390183","lat":39.2975,"lon":-94.7309,"elev":308,"name":"Kansas City Intl, MO, US","cover":"OVC","clouds":[{"cover":"OVC","base":3000}],"fltCat":"MVFR"},{"icaoId":"KSUN","receiptTime":"2026-04-13T16:23:34.351Z","obsTime":1776097260,"reportTime":"2026-04-13T16:21:00.000Z","temp":2,"dewp":-1,"wdir":130,"wspd":7,"wgst":16,"visib":1.5,"altim":1015,"qcField":0,"wxString":"-SN FG","metarType":"SPECI","rawOb":"SPECI KSUN 131621Z 13007G16KT 1 1/2SM -SNFG OVC010 02/M01 A2997","lat":43.4969,"lon":-114.2923,"elev":1619,"name":"Hailey/Friedman Mem, ID, US","cover":"OVC","clouds":[{"cover":"OVC","base":1000}],"fltCat":"IFR"},{"icaoId":"KROC","receiptTime":"2026-04-13T16:24:03.594Z","obsTime":1776097200,"reportTime":"2026-04-13T16:20:00.000Z","temp":16.1,"dewp":13.9,"wdir":260,"wspd":16,"wgst":28,"visib":"10+","altim":1011.3,"qcField":4,"precip":0.02,"metarType":"SPECI","rawOb":"SPECI KROC 131620Z 26016G28KT 10SM FEW007 BKN018 OVC075 16/14 A2986 RMK AO2 PK WND 24028/1612 RAE06 P0002 T01610139","lat":43.1172,"lon":-77.6754,"elev":166,"name":"Rochester Intl Arpt, NY, US","cover":"OVC","clouds":[{"cover":"FEW","base":700},{"cover":"BKN","base":1800},{"cover":"OVC","base":7500}],"fltCat":"MVFR"},{"icaoId":"KCLL","receiptTime":"2026-04-13T16:20:22.107Z","obsTime":1776097020,"reportTime":"2026-04-13T16:17:00.000Z","temp":24.4,"dewp":21.1,"wdir":160,"wspd":11,"visib":"10+","altim":1020.4,"qcField":4,"metarType":"SPECI","rawOb":"SPECI KCLL 131617Z 16011KT 10SM BKN017 OVC050 24/21 A3013 RMK AO2 T02440211","lat":30.5912,"lon":-96.3631,"elev":96,"name":"College Station/Easterwood Arpt, TX, US","cover":"OVC","clouds":[{"cover":"BKN","base":1700},{"cover":"OVC","base":5000}],"fltCat":"MVFR"},{"icaoId":"KMFE","receiptTime":"2026-04-13T16:14:18.131Z","obsTime":1776096660,"reportTime":"2026-04-13T16:11:00.000Z","temp":27.2,"dewp":22.2,"wdir":150,"wspd":12,"visib":"10+","altim":1018.4,"qcField":4,"metarType":"SPECI","rawOb":"SPECI KMFE 131611Z 15012KT 10SM BKN017 BKN033 OVC040 27/22 A3007 RMK AO2 T02720222","lat":26.1791,"lon":-98.2445,"elev":29,"name":"McAllen/Miller Intl, TX, US","cover":"OVC","clouds":[{"cover":"BKN","base":1700},{"cover":"BKN","base":3300},{"cover":"OVC","base":4000}],"fltCat":"MVFR"},{"icaoId":"KSMF","receiptTime":"2026-04-13T16:14:18.080Z","obsTime":1776096600,"reportTime":"2026-04-13T16:10:00.000Z","temp":11.7,"dewp":8.9,"wdir":330,"wspd":7,"visib":"10+","altim":1019.7,"qcField":4,"metarType":"SPECI","rawOb":"SPECI KSMF 131610Z 33007KT 10SM BKN011 12/09 A3011 RMK AO2 T01170089","lat":38.7007,"lon":-121.5948,"elev":7,"name":"Sacramento Intl, CA, US","cover":"BKN","clouds":[{"cover":"BKN","base":1100}],"fltCat":"MVFR"},{"icaoId":"KHRL","receiptTime":"2026-04-13T16:12:02.497Z","obsTime":1776096480,"reportTime":"2026-04-13T16:08:00.000Z","temp":26.1,"dewp":22.2,"wdir":140,"wspd":13,"visib":"10+","altim":1018.7,"qcField":4,"metarType":"SPECI","rawOb":"SPECI KHRL 131608Z 14013KT 10SM FEW018 OVC035 26/22 A3008 RMK AO2 T02610222","lat":26.2303,"lon":-97.6556,"elev":9,"name":"Harlingen/Valley Intl, TX, US","cover":"OVC","clouds":[{"cover":"FEW","base":1800},{"cover":"OVC","base":3500}],"fltCat":"VFR"},{"icaoId":"KNFL","receiptTime":"2026-04-13T16:00:32.602Z","obsTime":1776095820,"reportTime":"2026-04-13T16:00:00.000Z","temp":7.2,"dewp":-1.1,"wdir":10,"wspd":5,"visib":"10+","altim":1017.7,"slp":1014.4,"qcField":12,"metarType":"METAR","rawOb":"METAR KNFL 131557Z 01005KT 10SM FEW050 SCT090 07/M01 A3005 RMK AO2 SLP144 T00721011 PNO $","lat":39.417,"lon":-118.705,"elev":1199,"name":"Fallon , NV, US","cover":"SCT","clouds":[{"cover":"FEW","base":5000},{"cover":"SCT","base":9000}],"fltCat":"VFR"},{"icaoId":"KNYL","receiptTime":"2026-04-13T16:00:32.570Z","obsTime":1776095820,"reportTime":"2026-04-13T16:00:00.000Z","temp":20,"dewp":8.3,"wdir":290,"wspd":7,"visib":"10+","altim":1015.7,"slp":1015.4,"qcField":4,"metarType":"METAR","rawOb":"METAR KNYL 131557Z 29007KT 10SM FEW120 SCT200 20/08 A2999 RMK AO2 SLP154 T02000083","lat":32.66,"lon":-114.6078,"elev":58,"name":"Yuma , AZ, US","cover":"SCT","clouds":[{"cover":"FEW","base":12000},{"cover":"SCT","base":20000}],"fltCat":"VFR"},{"icaoId":"KCGZ","receiptTime":"2026-04-13T15:58:23.109Z","obsTime":1776095760,"reportTime":"2026-04-13T16:00:00.000Z","temp":20.6,"dewp":6.7,"wdir":220,"wspd":4,"visib":"10+","altim":1016,"slp":1015,"qcField":14,"metarType":"METAR","rawOb":"METAR KCGZ 131556Z AUTO 22004KT 10SM CLR 21/07 A3000 RMK AO2 SLP150 T02060067 $","lat":32.9531,"lon":-111.7725,"elev":444,"name":"Casa Granda Muni, AZ, US","cover":"CLR","clouds":[],"fltCat":"VFR"},{"icaoId":"KOTH","receiptTime":"2026-04-13T16:02:12.033Z","obsTime":1776095760,"reportTime":"2026-04-13T16:00:00.000Z","temp":9,"dewp":8,"wdir":190,"wspd":3,"visib":6,"altim":1022.1,"qcField":0,"wxString":"BR","metarType":"METAR","rawOb":"METAR KOTH 131556Z 19003KT 6SM BR BKN028 OVC033 09/08 A3018","lat":43.4194,"lon":-124.2438,"elev":3,"name":"North Bend/SW Oregon Rgnl, OR, US","cover":"OVC","clouds":[{"cover":"BKN","base":2800},{"cover":"OVC","base":3300}],"fltCat":"MVFR"},{"icaoId":"KEKO","receiptTime":"2026-04-13T16:00:25.817Z","obsTime":1776095760,"reportTime":"2026-04-13T16:00:00.000Z","temp":5,"dewp":0,"wdir":280,"wspd":6,"visib":"10+","altim":1016.7,"slp":1016.4,"qcField":6,"metarType":"METAR","rawOb":"METAR KEKO 131556Z AUTO 28006KT 10SM CLR 05/00 A3002 RMK AO2 SLP164 T00500000","lat":40.824,"lon":-115.7863,"elev":1541,"name":"Elko Rgnl, NV, US","cover":"CLR","clouds":[],"fltCat":"VFR"},{"icaoId":"KRDM","receiptTime":"2026-04-13T16:00:25.844Z","obsTime":1776095760,"reportTime":"2026-04-13T16:00:00.000Z","temp":8.3,"dewp":0.6,"wdir":320,"wspd":6,"visib":"10+","altim":1015.3,"slp":1015.2,"qcField":4,"metarType":"METAR","rawOb":"METAR KRDM 131556Z 32006KT 10SM CLR 08/01 A2998 RMK AO2 SLP152 T00830006","lat":44.2558,"lon":-121.1407,"elev":930,"name":"Redmond Muni, OR, US","cover":"CLR","clouds":[],"fltCat":"VFR"},{"icaoId":"KSFO","receiptTime":"2026-04-13T16:00:25.857Z","obsTime":1776095760,"reportTime":"2026-04-13T16:00:00.000Z","temp":12.8,"dewp":9.4,"wdir":350,"wspd":6,"visib":"10+","altim":1020.1,"slp":1019.9,"qcField":12,"metarType":"METAR","rawOb":"METAR KSFO 131556Z 35006KT 10SM FEW015 SCT023 13/09 A3012 RMK AO2 SLP199 T01280094 $","lat":37.6196,"lon":-122.3656,"elev":2,"name":"San Francisco Intl, CA, US","cover":"SCT","clouds":[{"cover":"FEW","base":1500},{"cover":"SCT","base":2300}],"fltCat":"VFR"},{"icaoId":"KFNL","receiptTime":"2026-04-13T15:58:22.154Z","obsTime":1776095760,"reportTime":"2026-04-13T16:00:00.000Z","temp":17.8,"dewp":-7.2,"wdir":280,"wspd":20,"wgst":24,"visib":"10+","altim":1011.9,"slp":1006.4,"qcField":12,"metarType":"METAR","rawOb":"METAR KFNL 131556Z 28020G24KT 10SM CLR 18/M07 A2988 RMK AO2 SLP064 T01781072 $","lat":40.4427,"lon":-105.0097,"elev":1529,"name":"Fort Collins/N Colorado Rgnl, CO, US","cover":"CLR","clouds":[],"fltCat":"VFR"},{"icaoId":"KJAC","receiptTime":"2026-04-13T15:58:23.819Z","obsTime":1776095760,"reportTime":"2026-04-13T16:00:00.000Z","temp":1.1,"dewp":-1.7,"wdir":190,"wspd":18,"visib":"10+","altim":1015,"slp":1016.2,"qcField":4,"metarType":"METAR","rawOb":"METAR KJAC 131556Z 19018KT 10SM BKN038 01/M02 A2997 RMK AO2 SLP162 T00111017","lat":43.6129,"lon":-110.7366,"elev":1967,"name":"Jackson Hole Arpt, WY, US","cover":"BKN","clouds":[{"cover":"BKN","base":3800}],"fltCat":"VFR"},{"icaoId":"KSBP","receiptTime":"2026-04-13T16:00:25.067Z","obsTime":1776095760,"reportTime":"2026-04-13T16:00:00.000Z","temp":11.7,"dewp":8.3,"wdir":0,"wspd":0,"visib":"10+","altim":1019.4,"slp":1019.1,"qcField":4,"metarType":"METAR","rawOb":"METAR KSBP 131556Z 00000KT 10SM CLR 12/08 A3010 RMK AO2 SLP191 T01170083","lat":35.2381,"lon":-120.644,"elev":52,"name":"San Luis Obispo/San Luis Cnty, CA, US","cover":"CLR","clouds":[],"fltCat":"VFR"},{"icaoId":"KCOE","receiptTime":"2026-04-13T15:58:17.713Z","obsTime":1776095760,"reportTime":"2026-04-13T16:00:00.000Z","temp":5.6,"dewp":5,"wdir":170,"wspd":12,"visib":"10+","altim":1009.6,"slp":1011.8,"qcField":14,"wxString":"-RA","metarType":"METAR","rawOb":"METAR KCOE 131556Z AUTO 17012KT 10SM -RA OVC022 06/05 A2981 RMK AO2 SLP118 T00560050 PNO $","lat":47.7719,"lon":-116.8332,"elev":693,"name":"Coeur DAlene Arpt, ID, US","cover":"OVC","clouds":[{"cover":"OVC","base":2200}],"fltCat":"MVFR"},{"icaoId":"KLAS","receiptTime":"2026-04-13T16:00:26.589Z","obsTime":1776095760,"reportTime":"2026-04-13T16:00:00.000Z","temp":15,"dewp":0.6,"wdir":200,"wspd":5,"visib":"10+","altim":1014.6,"slp":1013.3,"qcField":4,"metarType":"METAR","rawOb":"METAR KLAS 131556Z 20005KT 10SM FEW065 FEW100 15/01 A2996 RMK AO2 SLP133 T01500006","lat":36.0719,"lon":-115.1634,"elev":662,"name":"Las Vegas/Reid Intl, NV, US","cover":"FEW","clouds":[{"cover":"FEW","base":6500},{"cover":"FEW","base":10000}],"fltCat":"VFR"},{"icaoId":"KINW","receiptTime":"2026-04-13T16:00:22.604Z","obsTime":1776095760,"reportTime":"2026-04-13T16:00:00.000Z","temp":12.8,"dewp":2.2,"wdir":140,"wspd":4,"visib":"10+","altim":1018,"slp":1013.9,"qcField":6,"metarType":"METAR","rawOb":"METAR KINW 131556Z AUTO 14004KT 10SM SCT048 13/02 A3006 RMK AO2 SLP139 T01280022","lat":35.0279,"lon":-110.7221,"elev":1492,"name":"Winslow/Lindberg Rgnl, AZ, US","cover":"SCT","clouds":[{"cover":"SCT","base":4800}],"fltCat":"VFR"},{"icaoId":"KSLE","receiptTime":"2026-04-13T16:00:25.873Z","obsTime":1776095760,"reportTime":"2026-04-13T16:00:00.000Z","temp":9.4,"dewp":6.7,"wdir":240,"wspd":5,"visib":"10+","altim":1019.7,"slp":1019.6,"qcField":4,"metarType":"METAR","rawOb":"METAR KSLE 131556Z 24005KT 10SM BKN023 OVC055 09/07 A3011 RMK AO2 SLP196 T00940067","lat":44.9049,"lon":-123.001,"elev":63,"name":"Salem Muni, OR, US","cover":"OVC","clouds":[{"cover":"BKN","base":2300},{"cover":"OVC","base":5500}],"fltCat":"MVFR"},{"icaoId":"KUKI","receiptTime":"2026-04-13T16:00:25.900Z","obsTime":1776095760,"reportTime":"2026-04-13T16:00:00.000Z","temp":8.3,"dewp":5,"wdir":0,"wspd":0,"visib":"10+","altim":1021.1,"slp":1020.7,"qcField":6,"metarType":"METAR","rawOb":"METAR KUKI 131556Z AUTO 00000KT 10SM OVC014 08/05 A3015 RMK AO2 SLP207 T00830050","lat":39.1278,"lon":-123.2001,"elev":183,"name":"Ukiah Muni, CA, US","cover":"OVC","clouds":[{"cover":"OVC","base":1400}],"fltCat":"MVFR"},{"icaoId":"KDUG","receiptTime":"2026-04-13T16:02:11.643Z","obsTime":1776095760,"reportTime":"2026-04-13T16:00:00.000Z","temp":18.3,"dewp":0.6,"wdir":190,"wspd":16,"wgst":21,"visib":"10+","altim":1020.4,"slp":1014.9,"qcField":38,"metarType":"METAR","rawOb":"METAR KDUG 131556Z AUTO 19016G21KT 10SM FEW110 18/01 A3013 RMK AO2 SLP149 T01830006 TSNO","lat":31.4725,"lon":-109.6022,"elev":1260,"name":"Douglas/Bisbee Intl, AZ, US","cover":"FEW","clouds":[{"cover":"FEW","base":11000}],"fltCat":"VFR"},{"icaoId":"KPWT","receiptTime":"2026-04-13T15:58:17.867Z","obsTime":1776095760,"reportTime":"2026-04-13T16:00:00.000Z","temp":7.2,"dewp":7.2,"wdir":200,"wspd":7,"visib":6,"altim":1016.3,"slp":1016.5,"qcField":6,"wxString":"-RA BR","precip":0.01,"metarType":"METAR","rawOb":"METAR KPWT 131556Z AUTO 20007KT 6SM -RA BR SCT006 OVC011 07/07 A3001 RMK AO2 SLP165 P0001 T00720072","lat":47.4942,"lon":-122.7594,"elev":143,"name":"Bremerton Arpt, WA, US","cover":"OVC","clouds":[{"cover":"SCT","base":600},{"cover":"OVC","base":1100}],"fltCat":"MVFR"},{"icaoId":"KVIS","receiptTime":"2026-04-13T15:58:20.501Z","obsTime":1776095760,"reportTime":"2026-04-13T16:00:00.000Z","temp":12.2,"dewp":8.9,"wdir":300,"wspd":8,"visib":"10+","altim":1019,"slp":1019,"qcField":14,"metarType":"METAR","rawOb":"METAR KVIS 131556Z AUTO 30008KT 10SM FEW015 BKN100 12/09 A3009 RMK AO2 SLP190 T01220089 PNO $","lat":36.3135,"lon":-119.3884,"elev":92,"name":"Visalia Muni, CA, US","cover":"BKN","clouds":[{"cover":"FEW","base":1500},{"cover":"BKN","base":10000}],"fltCat":"VFR"},{"icaoId":"KPVU","receiptTime":"2026-04-13T15:58:21.142Z","obsTime":1776095760,"reportTime":"2026-04-13T16:00:00.000Z","temp":7.8,"dewp":2.2,"wdir":"VRB","wspd":3,"visib":"10+","altim":1016.7,"slp":1015.1,"qcField":4,"metarType":"METAR","rawOb":"METAR KPVU 131556Z VRB03KT 10SM CLR 08/02 A3002 RMK AO2 SLP151 T00780022","lat":40.224,"lon":-111.7252,"elev":1370,"name":"Provo Muni, UT, US","cover":"CLR","clouds":[],"fltCat":"VFR"},{"icaoId":"KEGE","receiptTime":"2026-04-13T15:58:21.820Z","obsTime":1776095760,"reportTime":"2026-04-13T16:00:00.000Z","temp":11.1,"dewp":-6.1,"wdir":280,"wspd":13,"wgst":18,"visib":"10+","altim":1016.7,"slp":1011.8,"qcField":4,"metarType":"METAR","rawOb":"METAR KEGE 131556Z 28013G18KT 10SM OVC070 11/M06 A3002 RMK AO2 PK WND 21026/1531 SLP118 T01111061","lat":39.6448,"lon":-106.9176,"elev":1993,"name":"Eagle Cnty Rgnl, CO, US","cover":"OVC","clouds":[{"cover":"OVC","base":7000}],"fltCat":"VFR"},{"icaoId":"KENV","receiptTime":"2026-04-13T15:58:21.973Z","obsTime":1776095760,"reportTime":"2026-04-13T16:00:00.000Z","temp":8.3,"dewp":-0.6,"wdir":100,"wspd":9,"visib":"10+","altim":1017,"slp":1016.9,"qcField":6,"metarType":"METAR","rawOb":"METAR KENV 131556Z AUTO 10009KT 10SM CLR 08/M01 A3003 RMK AO2 SLP169 T00831006","lat":40.7211,"lon":-114.0312,"elev":1291,"name":"Wendover Arpt, UT, US","cover":"CLR","clouds":[],"fltCat":"VFR"},{"icaoId":"KGUC","receiptTime":"2026-04-13T15:58:22.447Z","obsTime":1776095760,"reportTime":"2026-04-13T16:00:00.000Z","temp":8.9,"dewp":-8.9,"wdir":270,"wspd":11,"wgst":16,"visib":"10+","altim":1018,"slp":1013.1,"qcField":14,"metarType":"METAR","rawOb":"METAR KGUC 131556Z AUTO 27011G16KT 10SM CLR 09/M09 A3006 RMK AO2 SLP131 T00891089 $","lat":38.5322,"lon":-106.9419,"elev":2337,"name":"Gunnison Arpt, CO, US","cover":"CLR","clouds":[],"fltCat":"VFR"},{"icaoId":"KTPH","receiptTime":"2026-04-13T16:00:25.886Z","obsTime":1776095760,"reportTime":"2026-04-13T16:00:00.000Z","temp":6.1,"dewp":-5,"wdir":350,"wspd":6,"visib":"10+","altim":1016,"slp":1014.1,"qcField":6,"metarType":"METAR","rawOb":"METAR KTPH 131556Z AUTO 35006KT 10SM CLR 06/M05 A3000 RMK AO2 SLP141 T00611050","lat":38.0505,"lon":-117.0906,"elev":1647,"name":"Tonopah Arpt, NV, US","cover":"CLR","clouds":[],"fltCat":"VFR"},{"icaoId":"KSDF","receiptTime":"2026-04-13T16:00:27.600Z","obsTime":1776095760,"reportTime":"2026-04-13T16:00:00.000Z","temp":22.8,"dewp":15,"wdir":210,"wspd":16,"wgst":24,"visib":"10+","altim":1020.7,"slp":1020.3,"qcField":4,"metarType":"METAR","rawOb":"METAR KSDF 131556Z 21016G24KT 10SM FEW045 BKN060 BKN200 23/15 A3014 RMK AO2 SLP203 T02280150","lat":38.1774,"lon":-85.7308,"elev":146,"name":"Louisville Intl, KY, US","cover":"BKN","clouds":[{"cover":"FEW","base":4500},{"cover":"BKN","base":6000},{"cover":"BKN","base":20000}],"fltCat":"VFR"},{"icaoId":"KCHS","receiptTime":"2026-04-13T16:00:26.105Z","obsTime":1776095760,"reportTime":"2026-04-13T16:00:00.000Z","temp":26.1,"dewp":14.4,"wdir":220,"wspd":3,"visib":"10+","altim":1028.2,"slp":1028,"qcField":4,"metarType":"METAR","rawOb":"METAR KCHS 131556Z 22003KT 10SM SCT040 BKN250 26/14 A3036 RMK AO2 SLP280 T02610144","lat":32.8995,"lon":-80.0407,"elev":12,"name":"Charleston Intl, SC, US","cover":"BKN","clouds":[{"cover":"SCT","base":4000},{"cover":"BKN","base":25000}],"fltCat":"VFR"},{"icaoId":"KHND","receiptTime":"2026-04-13T15:58:23.553Z","obsTime":1776095760,"reportTime":"2026-04-13T16:00:00.000Z","temp":14.4,"dewp":1.1,"wdir":220,"wspd":9,"wgst":18,"visib":"10+","altim":1015.3,"slp":1015.8,"qcField":12,"metarType":"METAR","rawOb":"METAR KHND 131556Z 22009G18KT 10SM CLR 14/01 A2998 RMK AO2 SLP158 T01440011 $","lat":35.9657,"lon":-115.1343,"elev":740,"name":"Henderson Exec, NV, US","cover":"CLR","clouds":[],"fltCat":"VFR"},{"icaoId":"KHDN","receiptTime":"2026-04-13T15:58:23.514Z","obsTime":1776095760,"reportTime":"2026-04-13T16:00:00.000Z","temp":8.3,"dewp":-5.6,"wdir":280,"wspd":11,"visib":"10+","altim":1017.4,"slp":1013.8,"qcField":6,"metarType":"METAR","rawOb":"METAR KHDN 131556Z AUTO 28011KT 10SM OVC065 08/M06 A3004 RMK AO2 SLP138 T00831056","lat":40.4842,"lon":-107.2296,"elev":2012,"name":"Hayden/Yampa Valley Arpt, CO, US","cover":"OVC","clouds":[{"cover":"OVC","base":6500}],"fltCat":"VFR"},{"icaoId":"KSGU","receiptTime":"2026-04-13T15:58:21.604Z","obsTime":1776095760,"reportTime":"2026-04-13T16:00:00.000Z","temp":15,"dewp":3.3,"wdir":140,"wspd":12,"wgst":18,"visib":"10+","altim":1014.6,"slp":1012.9,"qcField":6,"metarType":"METAR","rawOb":"METAR KSGU 131556Z AUTO 14012G18KT 10SM SCT065 BKN100 15/03 A2996 RMK AO2 SLP129 T01500033","lat":37.0444,"lon":-113.5034,"elev":877,"name":"Saint George Muni, UT, US","cover":"BKN","clouds":[{"cover":"SCT","base":6500},{"cover":"BKN","base":10000}],"fltCat":"VFR"},{"icaoId":"KCOD","receiptTime":"2026-04-13T15:58:23.229Z","obsTime":1776095760,"reportTime":"2026-04-13T16:00:00.000Z","temp":6.7,"dewp":-7.2,"wdir":250,"wspd":17,"wgst":34,"visib":"10+","altim":1009.9,"slp":1008.8,"qcField":14,"metarType":"METAR","rawOb":"METAR KCOD 131556Z AUTO 25017G34KT 10SM OVC100 07/M07 A2982 RMK AO2 PK WND 27037/1541 SLP088 T00671072 $","lat":44.52,"lon":-109.0268,"elev":1550,"name":"Cody/Yellowstone Rgnl, WY, US","cover":"OVC","clouds":[{"cover":"OVC","base":10000}],"fltCat":"VFR"},{"icaoId":"KJAX","receiptTime":"2026-04-13T16:00:22.621Z","obsTime":1776095760,"reportTime":"2026-04-13T16:00:00.000Z","temp":26.7,"dewp":13.9,"wdir":"VRB","wspd":5,"visib":"10+","altim":1027.5,"slp":1027.6,"qcField":12,"metarType":"METAR","rawOb":"METAR KJAX 131556Z VRB05KT 10SM SCT041 BKN250 27/14 A3034 RMK AO2 SLP276 T02670139 $","lat":30.4953,"lon":-81.6937,"elev":8,"name":"Jacksonville Intl, FL, US","cover":"BKN","clouds":[{"cover":"SCT","base":4100},{"cover":"BKN","base":25000}],"fltCat":"VFR"},{"icaoId":"KCMA","receiptTime":"2026-04-13T15:58:23.202Z","obsTime":1776095700,"reportTime":"2026-04-13T16:00:00.000Z","temp":15,"dewp":10,"wdir":0,"wspd":0,"visib":"10+","altim":1017.7,"slp":1018.4,"qcField":4,"metarType":"METAR","rawOb":"METAR KCMA 131555Z 00000KT 10SM CLR 15/10 A3005 RMK AO2 SLP184 T01500100","lat":34.2114,"lon":-119.0876,"elev":20,"name":"Camarillo Arpt, CA, US","cover":"CLR","clouds":[],"fltCat":"VFR"},{"icaoId":"KRNO","receiptTime":"2026-04-13T15:58:17.157Z","obsTime":1776095700,"reportTime":"2026-04-13T16:00:00.000Z","temp":5,"dewp":-2.2,"wdir":"VRB","wspd":3,"visib":"10+","altim":1018,"slp":1017.5,"qcField":4,"metarType":"METAR","rawOb":"METAR KRNO 131555Z VRB03KT 10SM FEW033 05/M02 A3006 RMK AO2 SLP175 T00501022","lat":39.5077,"lon":-119.7683,"elev":1344,"name":"Reno/Tahoe Intl, NV, US","cover":"FEW","clouds":[{"cover":"FEW","base":3300}],"fltCat":"VFR"},{"icaoId":"KAST","receiptTime":"2026-04-13T15:58:17.651Z","obsTime":1776095700,"reportTime":"2026-04-13T16:00:00.000Z","temp":8.9,"dewp":7.2,"wdir":220,"wspd":3,"visib":"10+","altim":1019,"slp":1018.8,"qcField":6,"precip":0.04,"metarType":"METAR","rawOb":"METAR KAST 131555Z AUTO 22003KT 10SM OVC038 09/07 A3009 RMK AO2 RAE29 SLP188 P0004 T00890072","lat":46.157,"lon":-123.8833,"elev":3,"name":"Astoria Rgnl, OR, US","cover":"OVC","clouds":[{"cover":"OVC","base":3800}],"fltCat":"VFR"},{"icaoId":"KLUF","receiptTime":"2026-04-13T16:04:06.415Z","obsTime":1776095700,"reportTime":"2026-04-13T16:00:00.000Z","temp":20.1,"dewp":6.1,"wdir":210,"wspd":3,"visib":"10+","altim":1014.6,"slp":1013.7,"qcField":12,"metarType":"METAR","rawOb":"METAR KLUF 131555Z 21003KT 10SM SCT070 BKN150 20/06 A2996 RMK AO2A SLP137 T02010061 $","lat":33.538,"lon":-112.38,"elev":333,"name":"Phoenix/Luke AFB, AZ, US","cover":"BKN","clouds":[{"cover":"SCT","base":7000},{"cover":"BKN","base":15000}],"fltCat":"VFR"},{"icaoId":"KOLM","receiptTime":"2026-04-13T15:58:06.080Z","obsTime":1776095640,"reportTime":"2026-04-13T16:00:00.000Z","temp":8.9,"dewp":6.1,"wdir":230,"wspd":9,"visib":"10+","altim":1017.7,"slp":1017.5,"qcField":6,"precip":0.005,"metarType":"METAR","rawOb":"METAR KOLM 131554Z AUTO 23009KT 10SM FEW016 BKN037 OVC049 09/06 A3005 RMK AO2 RAB32E52 SLP175 P0000 T00890061","lat":46.9737,"lon":-122.9049,"elev":58,"name":"Olympia Rgnl, WA, US","cover":"OVC","clouds":[{"cover":"FEW","base":1600},{"cover":"BKN","base":3700},{"cover":"OVC","base":4900}],"fltCat":"VFR"},{"icaoId":"KMEM","receiptTime":"2026-04-13T15:58:08.508Z","obsTime":1776095640,"reportTime":"2026-04-13T16:00:00.000Z","temp":21.7,"dewp":17.8,"wdir":190,"wspd":11,"wgst":17,"visib":"10+","altim":1022.1,"slp":1021.8,"qcField":4,"metarType":"METAR","rawOb":"METAR KMEM 131554Z 19011G17KT 10SM FEW018 BKN130 BKN250 22/18 A3018 RMK AO2 SLP218 T02170178","lat":35.0564,"lon":-89.9864,"elev":78,"name":"Memphis Intl, TN, US","cover":"BKN","clouds":[{"cover":"FEW","base":1800},{"cover":"BKN","base":13000},{"cover":"BKN","base":25000}],"fltCat":"VFR"},{"icaoId":"KCOS","receiptTime":"2026-04-13T15:58:15.466Z","obsTime":1776095640,"reportTime":"2026-04-13T16:00:00.000Z","temp":16.1,"dewp":-12.2,"wdir":"VRB","wspd":4,"visib":"10+","altim":1014.6,"slp":1007.8,"qcField":4,"metarType":"METAR","rawOb":"METAR KCOS 131554Z VRB04KT 10SM FEW200 SCT250 16/M12 A2996 RMK AO2 SLP078 T01611122","lat":38.8095,"lon":-104.6887,"elev":1886,"name":"Colorado Spring Arpt, CO, US","cover":"SCT","clouds":[{"cover":"FEW","base":20000},{"cover":"SCT","base":25000}],"fltCat":"VFR"},{"icaoId":"KIND","receiptTime":"2026-04-13T15:58:05.150Z","obsTime":1776095640,"reportTime":"2026-04-13T16:00:00.000Z","temp":25,"dewp":16.7,"wdir":230,"wspd":15,"wgst":23,"visib":"10+","altim":1017.7,"slp":1016.9,"qcField":4,"metarType":"METAR","rawOb":"METAR KIND 131554Z 23015G23KT 10SM BKN035 BKN065 25/17 A3005 RMK AO2 PK WND 22026/1522 SLP169 T02500167","lat":39.7252,"lon":-86.2816,"elev":242,"name":"Indianapolis Intl, IN, US","cover":"BKN","clouds":[{"cover":"BKN","base":3500},{"cover":"BKN","base":6500}],"fltCat":"VFR"},{"icaoId":"KAPC","receiptTime":"2026-04-13T15:58:10.574Z","obsTime":1776095640,"reportTime":"2026-04-13T16:00:00.000Z","temp":11.7,"dewp":8.9,"wdir":360,"wspd":5,"visib":"10+","altim":1020.4,"slp":1019.2,"qcField":4,"metarType":"METAR","rawOb":"METAR KAPC 131554Z 36005KT 10SM FEW050 12/09 A3013 RMK AO2 SLP192 T01170089","lat":38.2075,"lon":-122.2804,"elev":5,"name":"Napa Cnty Arpt, CA, US","cover":"FEW","clouds":[{"cover":"FEW","base":5000}],"fltCat":"VFR"},{"icaoId":"KRIC","receiptTime":"2026-04-13T15:58:15.245Z","obsTime":1776095640,"reportTime":"2026-04-13T16:00:00.000Z","temp":26.7,"dewp":11.7,"wdir":210,"wspd":14,"wgst":23,"visib":"10+","altim":1023.1,"slp":1023.3,"qcField":4,"metarType":"METAR","rawOb":"METAR KRIC 131554Z 21014G23KT 10SM FEW045 SCT250 OVC300 27/12 A3021 RMK AO2 PK WND 21027/1504 SLP233 T02670117","lat":37.5115,"lon":-77.3234,"elev":51,"name":"Richmond Intl, VA, US","cover":"OVC","clouds":[{"cover":"FEW","base":4500},{"cover":"SCT","base":25000},{"cover":"OVC","base":30000}],"fltCat":"VFR"},{"icaoId":"KBTV","receiptTime":"2026-04-13T15:58:14.972Z","obsTime":1776095640,"reportTime":"2026-04-13T16:00:00.000Z","temp":13.9,"dewp":6.1,"wdir":200,"wspd":15,"wgst":24,"visib":"10+","altim":1008.9,"slp":1009,"qcField":4,"metarType":"METAR","rawOb":"METAR KBTV 131554Z 20015G24KT 10SM OVC100 14/06 A2979 RMK AO2 PK WND 20034/1502 SLP090 T01390061","lat":44.4682,"lon":-73.1499,"elev":101,"name":"Burlington Intl, VT, US","cover":"OVC","clouds":[{"cover":"OVC","base":10000}],"fltCat":"VFR"},{"icaoId":"KFFZ","receiptTime":"2026-04-13T15:58:12.004Z","obsTime":1776095640,"reportTime":"2026-04-13T16:00:00.000Z","temp":21.1,"dewp":5,"wdir":180,"wspd":7,"visib":"10+","altim":1015,"slp":1012.9,"qcField":4,"metarType":"METAR","rawOb":"METAR KFFZ 131554Z 18007KT 10SM CLR 21/05 A2997 RMK AO2 SLP129 T02110050","lat":33.4659,"lon":-111.7212,"elev":420,"name":"Mesa/Falcon Fld, AZ, US","cover":"CLR","clouds":[],"fltCat":"VFR"},{"icaoId":"KBWI","receiptTime":"2026-04-13T15:58:11.435Z","obsTime":1776095640,"reportTime":"2026-04-13T16:00:00.000Z","temp":25.6,"dewp":13.3,"wdir":230,"wspd":15,"wgst":26,"visib":"10+","altim":1019,"slp":1018.9,"qcField":4,"metarType":"METAR","rawOb":"METAR KBWI 131554Z 23015G26KT 10SM FEW050 SCT100 BKN150 BKN200 BKN250 26/13 A3009 RMK AO2 PK WND 24026/1547 SLP189 T02560133","lat":39.1733,"lon":-76.684,"elev":42,"name":"Baltimore-Washington Intl, MD, US","cover":"BKN","clouds":[{"cover":"FEW","base":5000},{"cover":"SCT","base":10000},{"cover":"BKN","base":15000},{"cover":"BKN","base":20000}],"fltCat":"VFR"},{"icaoId":"KSYR","receiptTime":"2026-04-13T15:58:15.120Z","obsTime":1776095640,"reportTime":"2026-04-13T16:00:00.000Z","temp":20,"dewp":10,"wdir":190,"wspd":11,"visib":"10+","altim":1009.6,"slp":1008.9,"qcField":12,"precip":0.005,"metarType":"METAR","rawOb":"METAR KSYR 131554Z 19011KT 10SM SCT060 OVC080 20/10 A2981 RMK AO2 RAB1455E22 SLP089 P0000 T02000100 $","lat":43.1111,"lon":-76.1038,"elev":125,"name":"Syracuse/Hancock Intl, NY, US","cover":"OVC","clouds":[{"cover":"SCT","base":6000},{"cover":"OVC","base":8000}],"fltCat":"VFR"},{"icaoId":"KBOS","receiptTime":"2026-04-13T15:58:11.370Z","obsTime":1776095640,"reportTime":"2026-04-13T16:00:00.000Z","temp":16.7,"dewp":11.1,"wdir":220,"wspd":18,"wgst":25,"visib":"10+","altim":1015,"slp":1014.8,"qcField":4,"metarType":"METAR","rawOb":"METAR KBOS 131554Z 22018G25KT 10SM SCT021 OVC150 17/11 A2997 RMK AO2 PK WND 21028/1530 SLP148 T01670111","lat":42.3606,"lon":-71.0097,"elev":4,"name":"Boston/Logan Intl, MA, US","cover":"OVC","clouds":[{"cover":"SCT","base":2100},{"cover":"OVC","base":15000}],"fltCat":"VFR"},{"icaoId":"KSJN","receiptTime":"2026-04-13T15:58:10.441Z","obsTime":1776095640,"reportTime":"2026-04-13T16:00:00.000Z","temp":14.4,"dewp":-0.6,"wdir":230,"wspd":15,"visib":"10+","altim":1019,"slp":1012.4,"qcField":6,"metarType":"METAR","rawOb":"METAR KSJN 131554Z AUTO 23015KT 10SM SCT100 14/M01 A3009 RMK AO2 SLP124 T01441006","lat":34.5184,"lon":-109.3801,"elev":1747,"name":"St Johns Ind Arpt, AZ, US","cover":"SCT","clouds":[{"cover":"SCT","base":10000}],"fltCat":"VFR"},{"icaoId":"KBFL","receiptTime":"2026-04-13T15:58:10.607Z","obsTime":1776095640,"reportTime":"2026-04-13T16:00:00.000Z","temp":12.2,"dewp":6.7,"wdir":290,"wspd":7,"visib":"10+","altim":1018.7,"slp":1018.4,"qcField":4,"metarType":"METAR","rawOb":"METAR KBFL 131554Z 29007KT 10SM OVC055 12/07 A3008 RMK AO2 SLP184 T01220067","lat":35.4342,"lon":-119.0552,"elev":146,"name":"Bakersfield/Meadows Arpt, CA, US","cover":"OVC","clouds":[{"cover":"OVC","base":5500}],"fltCat":"VFR"},{"icaoId":"KOLS","receiptTime":"2026-04-13T15:58:10.089Z","obsTime":1776095640,"reportTime":"2026-04-13T16:00:00.000Z","temp":19.4,"dewp":1.7,"wdir":190,"wspd":14,"wgst":24,"visib":"10+","altim":1019,"slp":1013.7,"qcField":6,"metarType":"METAR","rawOb":"METAR KOLS 131554Z AUTO 19014G24KT 10SM FEW080 19/02 A3009 RMK AO2 LTG DSNT SW SLP137 T01940017","lat":31.4208,"lon":-110.8465,"elev":1194,"name":"Nogales Intl, AZ, US","cover":"FEW","clouds":[{"cover":"FEW","base":8000}],"fltCat":"VFR"},{"icaoId":"KSLC","receiptTime":"2026-04-13T15:58:06.093Z","obsTime":1776095640,"reportTime":"2026-04-13T16:00:00.000Z","temp":8.3,"dewp":0.6,"wdir":140,"wspd":5,"visib":"10+","altim":1016.3,"slp":1014.7,"qcField":12,"metarType":"METAR","rawOb":"METAR KSLC 131554Z 14005KT 10SM FEW030 FEW055 SCT250 08/01 A3001 RMK AO2 SLP147 T00830006 $","lat":40.7707,"lon":-111.965,"elev":1286,"name":"Salt Lake City Intl, UT, US","cover":"SCT","clouds":[{"cover":"FEW","base":3000},{"cover":"FEW","base":5500},{"cover":"SCT","base":25000}],"fltCat":"VFR"},{"icaoId":"KGCN","receiptTime":"2026-04-13T15:58:06.050Z","obsTime":1776095640,"reportTime":"2026-04-13T16:00:00.000Z","temp":7.8,"dewp":-0.6,"wdir":220,"wspd":14,"wgst":20,"visib":"10+","altim":1018.4,"slp":1013.4,"qcField":4,"metarType":"METAR","rawOb":"METAR KGCN 131554Z 22014G20KT 10SM SCT029 BKN041 BKN047 08/M01 A3007 RMK AO2 SLP134 T00781006","lat":35.9458,"lon":-112.1554,"elev":1993,"name":"Grand Canyon Park Arpt, AZ, US","cover":"BKN","clouds":[{"cover":"SCT","base":2900},{"cover":"BKN","base":4100},{"cover":"BKN","base":4700}],"fltCat":"VFR"},{"icaoId":"KPHL","receiptTime":"2026-04-13T15:58:05.735Z","obsTime":1776095640,"reportTime":"2026-04-13T16:00:00.000Z","temp":23.3,"dewp":14.4,"wdir":220,"wspd":14,"visib":"10+","altim":1018.7,"slp":1018.4,"qcField":12,"metarType":"METAR","rawOb":"METAR KPHL 131554Z 22014KT 10SM FEW017 BKN120 BKN180 BKN300 23/14 A3008 RMK AO2 SLP184 VIRGA T02330144 $","lat":39.8733,"lon":-75.2268,"elev":2,"name":"Philadelphia Intl, PA, US","cover":"BKN","clouds":[{"cover":"FEW","base":1700},{"cover":"BKN","base":12000},{"cover":"BKN","base":18000},{"cover":"BKN","base":30000}],"fltCat":"VFR"},{"icaoId":"KGSO","receiptTime":"2026-04-13T15:58:15.521Z","obsTime":1776095640,"reportTime":"2026-04-13T16:00:00.000Z","temp":23.3,"dewp":12.8,"wdir":240,"wspd":11,"visib":"10+","altim":1026.2,"slp":1025.1,"qcField":4,"metarType":"METAR","rawOb":"METAR KGSO 131554Z 24011KT 10SM FEW200 OVC250 23/13 A3030 RMK AO2 SLP251 T02330128","lat":36.0969,"lon":-79.9432,"elev":275,"name":"Greensboro Intl, NC, US","cover":"OVC","clouds":[{"cover":"FEW","base":20000},{"cover":"OVC","base":25000}],"fltCat":"VFR"},{"icaoId":"KRKS","receiptTime":"2026-04-13T15:58:05.448Z","obsTime":1776095640,"reportTime":"2026-04-13T16:00:00.000Z","temp":4.4,"dewp":-5,"wdir":250,"wspd":10,"wgst":18,"visib":"10+","altim":1016.7,"slp":1014.1,"qcField":6,"metarType":"METAR","rawOb":"METAR KRKS 131554Z AUTO 25010G18KT 10SM FEW027 04/M05 A3002 RMK AO2 SLP141 T00441050","lat":41.5947,"lon":-109.0529,"elev":2062,"name":"Rock Springs/SW Wyoming Rgnl, WY, US","cover":"FEW","clouds":[{"cover":"FEW","base":2700}],"fltCat":"VFR"},{"icaoId":"KDSM","receiptTime":"2026-04-13T15:58:15.506Z","obsTime":1776095640,"reportTime":"2026-04-13T16:00:00.000Z","temp":21.1,"dewp":18.3,"wdir":170,"wspd":8,"visib":"10+","altim":1008.9,"slp":1008.2,"qcField":4,"metarType":"METAR","rawOb":"METAR KDSM 131554Z 17008KT 10SM FEW018 BKN023 OVC027 21/18 A2979 RMK AO2 SLP082 T02110183","lat":41.5339,"lon":-93.6531,"elev":286,"name":"Des Moines Intl, IA, US","cover":"OVC","clouds":[{"cover":"FEW","base":1800},{"cover":"BKN","base":2300},{"cover":"OVC","base":2700}],"fltCat":"MVFR"},{"icaoId":"KONT","receiptTime":"2026-04-13T15:57:04.503Z","obsTime":1776095580,"reportTime":"2026-04-13T16:00:00.000Z","temp":12.8,"dewp":8.9,"wdir":220,"wspd":4,"visib":"10+","altim":1017.4,"slp":1017,"qcField":12,"wxString":"-RA","precip":0.005,"metarType":"METAR","rawOb":"METAR KONT 131553Z 22004KT 10SM -RA FEW017 BKN080 BKN250 13/09 A3004 RMK AO2 RAB49 SLP170 P0000 T01280089 $","lat":34.0531,"lon":-117.5769,"elev":279,"name":"Ontario Intl, CA, US","cover":"BKN","clouds":[{"cover":"FEW","base":1700},{"cover":"BKN","base":8000},{"cover":"BKN","base":25000}],"fltCat":"VFR"},{"icaoId":"PANC","receiptTime":"2026-04-13T15:56:55.124Z","obsTime":1776095580,"reportTime":"2026-04-13T16:00:00.000Z","temp":0.6,"dewp":-2.2,"wdir":180,"wspd":3,"visib":"10+","altim":1001.4,"slp":1001.4,"qcField":4,"metarType":"METAR","rawOb":"METAR PANC 131553Z 18003KT 10SM BKN070 OVC090 01/M02 A2957 RMK AO2 SLP014 T00061022","lat":61.1691,"lon":-150.0277,"elev":39,"name":"Anchorage Intl, AK, US","cover":"OVC","clouds":[{"cover":"BKN","base":7000},{"cover":"OVC","base":9000}],"fltCat":"VFR"},{"icaoId":"KCYS","receiptTime":"2026-04-13T15:56:55.853Z","obsTime":1776095580,"reportTime":"2026-04-13T16:00:00.000Z","temp":14.4,"dewp":-7.2,"wdir":260,"wspd":11,"wgst":20,"visib":"10+","altim":1013,"slp":1007.4,"qcField":4,"metarType":"METAR","rawOb":"METAR KCYS 131553Z 26011G20KT 10SM FEW085 14/M07 A2991 RMK AO2 SLP074 T01441072","lat":41.1579,"lon":-104.8081,"elev":1868,"name":"Cheyenne Rgnl, WY, US","cover":"FEW","clouds":[{"cover":"FEW","base":8500}],"fltCat":"VFR"},{"icaoId":"KDEN","receiptTime":"2026-04-13T15:56:55.957Z","obsTime":1776095580,"reportTime":"2026-04-13T16:00:00.000Z","temp":17.2,"dewp":-8.9,"wdir":230,"wspd":5,"visib":"10+","altim":1012.3,"slp":1005.9,"qcField":4,"metarType":"METAR","rawOb":"METAR KDEN 131553Z 23005KT 10SM FEW090 FEW140 BKN220 17/M09 A2989 RMK AO2 SLP059 T01721089","lat":39.8466,"lon":-104.6562,"elev":1656,"name":"Denver Intl, CO, US","cover":"BKN","clouds":[{"cover":"FEW","base":9000},{"cover":"FEW","base":14000},{"cover":"BKN","base":22000}],"fltCat":"VFR"},{"icaoId":"KTUL","receiptTime":"2026-04-13T15:56:56.251Z","obsTime":1776095580,"reportTime":"2026-04-13T16:00:00.000Z","temp":23.9,"dewp":19.4,"wdir":180,"wspd":15,"visib":"10+","altim":1014.6,"slp":1013.8,"qcField":4,"metarType":"METAR","rawOb":"METAR KTUL 131553Z 18015KT 10SM BKN026 BKN031 24/19 A2996 RMK AO2 PK WND 19026/1458 SLP138 T02390194","lat":36.1985,"lon":-95.8782,"elev":196,"name":"Tulsa Intl Arpt, OK, US","cover":"BKN","clouds":[{"cover":"BKN","base":2600},{"cover":"BKN","base":3100}],"fltCat":"MVFR"},{"icaoId":"KBFI","receiptTime":"2026-04-13T15:56:56.487Z","obsTime":1776095580,"reportTime":"2026-04-13T16:00:00.000Z","temp":9.4,"dewp":5,"wdir":180,"wspd":9,"wgst":18,"visib":"10+","altim":1016.3,"slp":1016.3,"qcField":4,"metarType":"METAR","rawOb":"METAR KBFI 131553Z 18009G18KT 10SM SCT021 OVC041 09/05 A3001 RMK AO2 SLP163 T00940050","lat":47.5455,"lon":-122.3148,"elev":7,"name":"Seattle/Boeing Fld, WA, US","cover":"OVC","clouds":[{"cover":"SCT","base":2100},{"cover":"OVC","base":4100}],"fltCat":"VFR"},{"icaoId":"KBHM","receiptTime":"2026-04-13T15:56:56.562Z","obsTime":1776095580,"reportTime":"2026-04-13T16:00:00.000Z","temp":22.8,"dewp":12.8,"wdir":200,"wspd":7,"visib":"10+","altim":1027.9,"slp":1027,"qcField":4,"metarType":"METAR","rawOb":"METAR KBHM 131553Z 20007KT 10SM FEW120 SCT250 23/13 A3035 RMK AO2 SLP270 T02280128","lat":33.5655,"lon":-86.7449,"elev":191,"name":"Birmingham Intl, AL, US","cover":"SCT","clouds":[{"cover":"FEW","base":12000},{"cover":"SCT","base":25000}],"fltCat":"VFR"},{"icaoId":"KBRO","receiptTime":"2026-04-13T15:56:56.854Z","obsTime":1776095580,"reportTime":"2026-04-13T16:00:00.000Z","temp":27.2,"dewp":21.7,"wdir":150,"wspd":17,"wgst":26,"visib":"10+","altim":1019,"slp":1018.6,"qcField":4,"precip":0.005,"metarType":"METAR","rawOb":"METAR KBRO 131553Z 15017G26KT 10SM FEW018 BKN028 OVC034 27/22 A3009 RMK AO2 PK WND 15026/1550 RAB34E43 SLP186 P0000 T02720217","lat":25.9146,"lon":-97.4231,"elev":6,"name":"Brownsville Intl, TX, US","cover":"OVC","clouds":[{"cover":"FEW","base":1800},{"cover":"BKN","base":2800},{"cover":"OVC","base":3400}],"fltCat":"MVFR"},{"icaoId":"KBUR","receiptTime":"2026-04-13T15:56:56.919Z","obsTime":1776095580,"reportTime":"2026-04-13T16:00:00.000Z","temp":13.3,"dewp":7.8,"wdir":0,"wspd":0,"visib":"10+","altim":1017.4,"slp":1016.5,"qcField":4,"metarType":"METAR","rawOb":"METAR KBUR 131553Z 00000KT 10SM BKN070 13/08 A3004 RMK AO2 SLP165 T01330078","lat":34.1996,"lon":-118.3654,"elev":221,"name":"Burbank/Bob Hope Arpt, CA, US","cover":"BKN","clouds":[{"cover":"BKN","base":7000}],"fltCat":"VFR"},{"icaoId":"KCNM","receiptTime":"2026-04-13T15:56:57.380Z","obsTime":1776095580,"reportTime":"2026-04-13T16:00:00.000Z","temp":25,"dewp":2.8,"wdir":210,"wspd":12,"visib":"10+","altim":1019,"slp":1013.6,"qcField":6,"metarType":"METAR","rawOb":"METAR KCNM 131553Z AUTO 21012KT 10SM CLR 25/03 A3009 RMK AO2 SLP136 T02500028","lat":32.3336,"lon":-104.2584,"elev":993,"name":"Carlsbad/Cavern City Air Term, NM, US","cover":"CLR","clouds":[],"fltCat":"VFR"},{"icaoId":"KFMN","receiptTime":"2026-04-13T15:56:57.720Z","obsTime":1776095580,"reportTime":"2026-04-13T16:00:00.000Z","temp":13.3,"dewp":-1.1,"wdir":170,"wspd":9,"visib":"10+","altim":1018.7,"slp":1014.9,"qcField":4,"metarType":"METAR","rawOb":"METAR KFMN 131553Z 17009KT 10SM CLR 13/M01 A3008 RMK AO2 SLP149 T01331011","lat":36.7435,"lon":-108.2293,"elev":1677,"name":"Farmington/Four Corners Rgnl, NM, US","cover":"CLR","clouds":[],"fltCat":"VFR"},{"icaoId":"KFUL","receiptTime":"2026-04-13T15:56:58.032Z","obsTime":1776095580,"reportTime":"2026-04-13T16:00:00.000Z","temp":15,"dewp":9.4,"wdir":0,"wspd":0,"visib":"10+","altim":1017.4,"slp":1017.2,"qcField":6,"metarType":"METAR","rawOb":"METAR KFUL 131553Z AUTO 00000KT 10SM BKN070 OVC090 15/09 A3004 RMK AO2 SLP172 T01500094","lat":33.8715,"lon":-117.9856,"elev":23,"name":"Fullerton Muni, CA, US","cover":"OVC","clouds":[{"cover":"BKN","base":7000},{"cover":"OVC","base":9000}],"fltCat":"VFR"},{"icaoId":"KPGA","receiptTime":"2026-04-13T15:56:58.291Z","obsTime":1776095580,"reportTime":"2026-04-13T16:00:00.000Z","temp":13.9,"dewp":-3.3,"wdir":0,"wspd":0,"visib":"","altim":1016,"slp":1011.6,"qcField":14,"metarType":"METAR","rawOb":"METAR KPGA 131553Z AUTO 00000KT CLR 14/M03 A3000 RMK AO2 SLP116 T01391033 $","lat":36.9211,"lon":-111.4487,"elev":1310,"name":"Page Muni, AZ, US","cover":"CLR","clouds":[]},{"icaoId":"KPSC","receiptTime":"2026-04-13T15:56:58.589Z","obsTime":1776095580,"reportTime":"2026-04-13T16:00:00.000Z","temp":13.9,"dewp":3.9,"wdir":240,"wspd":12,"visib":"10+","altim":1011.9,"slp":1011.6,"qcField":4,"metarType":"METAR","rawOb":"METAR KPSC 131553Z 24012KT 10SM CLR 14/04 A2988 RMK AO2 SLP116 T01390039","lat":46.2695,"lon":-119.1182,"elev":121,"name":"Pasco/Tri Cities Arpt, WA, US","cover":"CLR","clouds":[],"fltCat":"VFR"},{"icaoId":"KPUB","receiptTime":"2026-04-13T15:56:58.638Z","obsTime":1776095580,"reportTime":"2026-04-13T16:00:00.000Z","temp":18.9,"dewp":-8.3,"wdir":150,"wspd":3,"visib":"10+","altim":1012.3,"slp":1007.6,"qcField":12,"metarType":"METAR","rawOb":"METAR KPUB 131553Z 15003KT 10SM CLR 19/M08 A2989 RMK AO2 SLP076 T01891083 $","lat":38.2887,"lon":-104.5057,"elev":1441,"name":"Pueblo Mem Arpt, CO, US","cover":"CLR","clouds":[],"fltCat":"VFR"},{"icaoId":"KOAK","receiptTime":"2026-04-13T15:56:58.913Z","obsTime":1776095580,"reportTime":"2026-04-13T16:00:00.000Z","temp":12.8,"dewp":8.3,"wdir":350,"wspd":5,"visib":"10+","altim":1020.4,"slp":1020.2,"qcField":12,"metarType":"METAR","rawOb":"METAR KOAK 131553Z 35005KT 10SM FEW015 SCT044 13/08 A3013 RMK AO2 SLP202 T01280083 $","lat":37.7178,"lon":-122.233,"elev":3,"name":"Oakland Intl, CA, US","cover":"SCT","clouds":[{"cover":"FEW","base":1500},{"cover":"SCT","base":4400}],"fltCat":"VFR"},{"icaoId":"KACV","receiptTime":"2026-04-13T15:56:59.108Z","obsTime":1776095580,"reportTime":"2026-04-13T16:00:00.000Z","temp":11.1,"dewp":8.3,"wdir":0,"wspd":0,"visib":"10+","altim":1021.1,"slp":1021.4,"qcField":6,"metarType":"METAR","rawOb":"METAR KACV 131553Z AUTO 00000KT 10SM CLR 11/08 A3015 RMK AO2 SLP214 T01110083","lat":40.9784,"lon":-124.1048,"elev":63,"name":"Arcata Arpt, CA, US","cover":"CLR","clouds":[],"fltCat":"VFR"},{"icaoId":"KVGT","receiptTime":"2026-04-13T15:56:59.803Z","obsTime":1776095580,"reportTime":"2026-04-13T16:00:00.000Z","temp":13.9,"dewp":0,"wdir":210,"wspd":4,"visib":"10+","altim":1014,"slp":1014.8,"qcField":4,"metarType":"METAR","rawOb":"METAR KVGT 131553Z 21004KT 10SM SCT070 14/00 A2994 RMK AO2 SLP148 T01390000","lat":36.212,"lon":-115.194,"elev":664,"name":"Las Vegas/North Arpt, NV, US","cover":"SCT","clouds":[{"cover":"SCT","base":7000}],"fltCat":"VFR"},{"icaoId":"KYKM","receiptTime":"2026-04-13T15:56:59.977Z","obsTime":1776095580,"reportTime":"2026-04-13T16:00:00.000Z","temp":12.2,"dewp":2.2,"wdir":320,"wspd":10,"visib":"10+","altim":1012.3,"slp":1012.2,"qcField":12,"metarType":"METAR","rawOb":"METAR KYKM 131553Z 32010KT 10SM SCT060 12/02 A2989 RMK AO2 SLP122 T01220022 $","lat":46.564,"lon":-120.5349,"elev":319,"name":"Yakima/McAllister Fld, WA, US","cover":"SCT","clouds":[{"cover":"SCT","base":6000}],"fltCat":"VFR"},{"icaoId":"KSHR","receiptTime":"2026-04-13T15:57:01.064Z","obsTime":1776095580,"reportTime":"2026-04-13T16:00:00.000Z","temp":10,"dewp":5.6,"wdir":10,"wspd":5,"visib":"10+","altim":1006.2,"slp":1005.8,"qcField":6,"metarType":"METAR","rawOb":"METAR KSHR 131553Z AUTO 01005KT 10SM FEW090 SCT100 10/06 A2971 RMK AO2 SLP058 T01000056","lat":44.7603,"lon":-106.9741,"elev":1212,"name":"Sheridan Cnty Arpt, WY, US","cover":"SCT","clouds":[{"cover":"FEW","base":9000},{"cover":"SCT","base":10000}],"fltCat":"VFR"},{"icaoId":"KCPR","receiptTime":"2026-04-13T15:57:01.095Z","obsTime":1776095580,"reportTime":"2026-04-13T16:00:00.000Z","temp":12.2,"dewp":-4.4,"wdir":230,"wspd":29,"wgst":40,"visib":"10+","altim":1009.6,"slp":1006.1,"qcField":4,"metarType":"METAR","rawOb":"METAR KCPR 131553Z 23029G40KT 10SM CLR 12/M04 A2981 RMK AO2 PK WND 22044/1543 SLP061 T01221044","lat":42.8978,"lon":-106.4736,"elev":1623,"name":"Casper/Natrona Cnty, WY, US","cover":"CLR","clouds":[],"fltCat":"VFR"},{"icaoId":"KMCO","receiptTime":"2026-04-13T15:57:01.296Z","obsTime":1776095580,"reportTime":"2026-04-13T16:00:00.000Z","temp":26.1,"dewp":13.9,"wdir":90,"wspd":7,"visib":"10+","altim":1027.5,"slp":1027.1,"qcField":4,"metarType":"METAR","rawOb":"METAR KMCO 131553Z 09007KT 10SM FEW044 BKN250 26/14 A3034 RMK AO2 SLP271 T02610139","lat":28.4182,"lon":-81.3241,"elev":27,"name":"Orlando Intl, FL, US","cover":"BKN","clouds":[{"cover":"FEW","base":4400},{"cover":"BKN","base":25000}],"fltCat":"VFR"},{"icaoId":"KMDW","receiptTime":"2026-04-13T15:57:01.330Z","obsTime":1776095580,"reportTime":"2026-04-13T16:00:00.000Z","temp":21.7,"dewp":17.8,"wdir":230,"wspd":10,"wgst":19,"visib":"10+","altim":1014,"slp":1013.2,"qcField":4,"metarType":"METAR","rawOb":"METAR KMDW 131553Z 23010G19KT 10SM FEW024 OVC029 22/18 A2994 RMK AO2 SLP132 T02170178","lat":41.7841,"lon":-87.7552,"elev":186,"name":"Chicago/Midway Intl, IL, US","cover":"OVC","clouds":[{"cover":"FEW","base":2400},{"cover":"OVC","base":2900}],"fltCat":"MVFR"},{"icaoId":"KMFR","receiptTime":"2026-04-13T15:57:01.366Z","obsTime":1776095580,"reportTime":"2026-04-13T16:00:00.000Z","temp":8.9,"dewp":5,"wdir":0,"wspd":0,"visib":"10+","altim":1019.7,"slp":1019.8,"qcField":12,"metarType":"METAR","rawOb":"METAR KMFR 131553Z 00000KT 10SM OVC049 09/05 A3011 RMK AO2 SLP198 T00890050 $","lat":42.375,"lon":-122.877,"elev":397,"name":"Medford/Rogue Valley Intl, OR, US","cover":"OVC","clouds":[{"cover":"OVC","base":4900}],"fltCat":"VFR"},{"icaoId":"KMLC","receiptTime":"2026-04-13T15:57:01.581Z","obsTime":1776095580,"reportTime":"2026-04-13T16:00:00.000Z","temp":23.3,"dewp":19.4,"wdir":200,"wspd":8,"wgst":21,"visib":"10+","altim":1017.4,"slp":1016.4,"qcField":6,"metarType":"METAR","rawOb":"METAR KMLC 131553Z AUTO 20008G21KT 160V220 10SM OVC016 23/19 A3004 RMK AO2 SLP164 T02330194","lat":34.8824,"lon":-95.7815,"elev":231,"name":"McAlester Rgnl, OK, US","cover":"OVC","clouds":[{"cover":"OVC","base":1600}],"fltCat":"MVFR"},{"icaoId":"KMOD","receiptTime":"2026-04-13T15:57:01.722Z","obsTime":1776095580,"reportTime":"2026-04-13T16:00:00.000Z","temp":12.8,"dewp":9.4,"wdir":330,"wspd":9,"visib":"10+","altim":1018.7,"slp":1018.6,"qcField":6,"metarType":"METAR","rawOb":"METAR KMOD 131553Z AUTO 33009KT 10SM FEW015 BKN021 OVC110 13/09 A3008 RMK AO2 SLP186 T01280094","lat":37.6254,"lon":-120.9549,"elev":25,"name":"Modesto/Sham Fld, CA, US","cover":"OVC","clouds":[{"cover":"FEW","base":1500},{"cover":"BKN","base":2100},{"cover":"OVC","base":11000}],"fltCat":"MVFR"},{"icaoId":"KMSP","receiptTime":"2026-04-13T15:57:01.845Z","obsTime":1776095580,"reportTime":"2026-04-13T16:00:00.000Z","temp":16.7,"dewp":10.6,"wdir":70,"wspd":4,"visib":"10+","altim":1008.5,"slp":1008.4,"qcField":4,"metarType":"METAR","rawOb":"METAR KMSP 131553Z 07004KT 10SM SCT150 BKN250 17/11 A2978 RMK AO2 SLP084 VIRGA T01670106","lat":44.8852,"lon":-93.2313,"elev":255,"name":"Minneapolis-St Paul Intl, MN, US","cover":"BKN","clouds":[{"cover":"SCT","base":15000},{"cover":"BKN","base":25000}],"fltCat":"VFR"},{"icaoId":"KLAX","receiptTime":"2026-04-13T15:57:02.045Z","obsTime":1776095580,"reportTime":"2026-04-13T16:00:00.000Z","temp":15.6,"dewp":8.9,"wdir":290,"wspd":8,"visib":"10+","altim":1017.7,"slp":1017.5,"qcField":12,"metarType":"METAR","rawOb":"METAR KLAX 131553Z 29008KT 10SM FEW018 SCT050 BKN075 16/09 A3005 RMK AO2 SLP175 T01560089 $","lat":33.9382,"lon":-118.3866,"elev":30,"name":"Los Angeles Intl, CA, US","cover":"BKN","clouds":[{"cover":"FEW","base":1800},{"cover":"SCT","base":5000},{"cover":"BKN","base":7500}],"fltCat":"VFR"},{"icaoId":"KLOL","receiptTime":"2026-04-13T15:57:02.454Z","obsTime":1776095580,"reportTime":"2026-04-13T16:00:00.000Z","temp":6.1,"dewp":-1.7,"wdir":70,"wspd":4,"visib":"10+","altim":1017.7,"slp":1017.4,"qcField":14,"metarType":"METAR","rawOb":"METAR KLOL 131553Z AUTO 07004KT 10SM CLR 06/M02 A3005 RMK AO2 SLP174 T00611017 $","lat":40.0684,"lon":-118.5702,"elev":1191,"name":"Lovelock/Derby Fld, NV, US","cover":"CLR","clouds":[],"fltCat":"VFR"},{"icaoId":"KLVS","receiptTime":"2026-04-13T15:57:02.609Z","obsTime":1776095580,"reportTime":"2026-04-13T16:00:00.000Z","temp":14.4,"dewp":-3.9,"wdir":200,"wspd":17,"wgst":30,"visib":"10+","altim":1019,"slp":1010.9,"qcField":14,"metarType":"METAR","rawOb":"METAR KLVS 131553Z AUTO 20017G30KT 10SM CLR 14/M04 A3009 RMK AO2 PK WND 20030/1550 SLP109 T01441039 PNO $","lat":35.6558,"lon":-105.1385,"elev":2095,"name":"Las Vegas Muni, NM, US","cover":"CLR","clouds":[],"fltCat":"VFR"},{"icaoId":"KMAF","receiptTime":"2026-04-13T15:57:02.692Z","obsTime":1776095580,"reportTime":"2026-04-13T16:00:00.000Z","temp":23.9,"dewp":14.4,"wdir":220,"wspd":10,"visib":9,"altim":1019.4,"slp":1015,"qcField":4,"metarType":"METAR","rawOb":"METAR KMAF 131553Z 22010KT 9SM CLR 24/14 A3010 RMK AO2 SLP150 T02390144","lat":31.9475,"lon":-102.2086,"elev":874,"name":"Midland Intl, TX, US","cover":"CLR","clouds":[],"fltCat":"VFR"},{"icaoId":"KDRO","receiptTime":"2026-04-13T15:57:03.030Z","obsTime":1776095580,"reportTime":"2026-04-13T16:00:00.000Z","temp":9.4,"dewp":-3.9,"wdir":30,"wspd":4,"visib":"10+","altim":1020.1,"slp":1015.4,"qcField":6,"metarType":"METAR","rawOb":"METAR KDRO 131553Z AUTO 03004KT 10SM CLR 09/M04 A3012 RMK AO2 SLP154 T00941039","lat":37.1431,"lon":-107.7602,"elev":2021,"name":"Durango/La Plata Cnty, CO, US","cover":"CLR","clouds":[],"fltCat":"VFR"},{"icaoId":"KDTW","receiptTime":"2026-04-13T15:57:03.150Z","obsTime":1776095580,"reportTime":"2026-04-13T16:00:00.000Z","temp":22.2,"dewp":16.1,"wdir":230,"wspd":17,"wgst":27,"visib":"10+","altim":1013.6,"slp":1013.3,"qcField":4,"metarType":"METAR","rawOb":"METAR KDTW 131553Z 23017G27KT 10SM BKN025 BKN050 22/16 A2993 RMK AO2 PK WND 22027/1530 SLP133 T02220161","lat":42.2311,"lon":-83.3312,"elev":192,"name":"Detroit/Metro Wayne Cnty, MI, US","cover":"BKN","clouds":[{"cover":"BKN","base":2500},{"cover":"BKN","base":5000}],"fltCat":"MVFR"},{"icaoId":"KELY","receiptTime":"2026-04-13T15:57:03.414Z","obsTime":1776095580,"reportTime":"2026-04-13T16:00:00.000Z","temp":-6.1,"dewp":-7.2,"wdir":190,"wspd":7,"visib":"10+","altim":1017,"slp":1018.4,"qcField":6,"metarType":"METAR","rawOb":"METAR KELY 131553Z AUTO 19007KT 10SM CLR M06/M07 A3003 RMK AO2 SLP184 T10611072","lat":39.2954,"lon":-114.8466,"elev":1906,"name":"Ely/Yelland Fld, NV, US","cover":"CLR","clouds":[],"fltCat":"VFR"},{"icaoId":"KEVW","receiptTime":"2026-04-13T15:57:03.524Z","obsTime":1776095580,"reportTime":"2026-04-13T16:00:00.000Z","temp":0,"dewp":-1.7,"wdir":230,"wspd":10,"visib":"10+","altim":1016.3,"slp":1015.1,"qcField":6,"metarType":"METAR","rawOb":"METAR KEVW 131553Z AUTO 23010KT 10SM CLR 00/M02 A3001 RMK AO2 SLP151 T00001017","lat":41.2727,"lon":-111.0305,"elev":2178,"name":"Evanston/Uinta Cnty, WY, US","cover":"CLR","clouds":[],"fltCat":"VFR"},{"icaoId":"KGJT","receiptTime":"2026-04-13T15:57:03.719Z","obsTime":1776095580,"reportTime":"2026-04-13T16:00:00.000Z","temp":14.4,"dewp":-7.2,"wdir":320,"wspd":5,"visib":"10+","altim":1015.7,"slp":1010.8,"qcField":4,"metarType":"METAR","rawOb":"METAR KGJT 131553Z 32005KT 10SM FEW095 14/M07 A2999 RMK AO2 SLP108 T01441072","lat":39.1344,"lon":-108.5408,"elev":1475,"name":"Grand Junction Rgnl, CO, US","cover":"FEW","clouds":[{"cover":"FEW","base":9500}],"fltCat":"VFR"},{"icaoId":"KGSP","receiptTime":"2026-04-13T15:57:04.013Z","obsTime":1776095580,"reportTime":"2026-04-13T16:00:00.000Z","temp":21.7,"dewp":13.3,"wdir":230,"wspd":6,"wgst":17,"visib":"10+","altim":1027.9,"slp":1026.7,"qcField":4,"metarType":"METAR","rawOb":"METAR KGSP 131553Z 23006G17KT 10SM CLR 22/13 A3035 RMK AO2 SLP267 T02170133","lat":34.8842,"lon":-82.2209,"elev":285,"name":"Greenville-Spartanburg Intl, SC, US","cover":"CLR","clouds":[],"fltCat":"VFR"},{"icaoId":"KOGD","receiptTime":"2026-04-13T15:57:04.427Z","obsTime":1776095580,"reportTime":"2026-04-13T16:00:00.000Z","temp":7.2,"dewp":1.1,"wdir":0,"wspd":0,"visib":"10+","altim":1016.3,"slp":1014.9,"qcField":4,"metarType":"METAR","rawOb":"METAR KOGD 131553Z 00000KT 10SM CLR 07/01 A3001 RMK AO2 SLP149 T00720011","lat":41.1941,"lon":-112.0168,"elev":1356,"name":"Ogden/Hinckley Arpt, UT, US","cover":"CLR","clouds":[],"fltCat":"VFR"},{"icaoId":"KPBI","receiptTime":"2026-04-13T15:57:04.721Z","obsTime":1776095580,"reportTime":"2026-04-13T16:00:00.000Z","temp":26.1,"dewp":13.9,"wdir":90,"wspd":14,"wgst":24,"visib":"10+","altim":1025.8,"slp":1025.8,"qcField":12,"metarType":"METAR","rawOb":"METAR KPBI 131553Z 09014G24KT 10SM BKN045 26/14 A3029 RMK AO2 SLP258 T02610139 $","lat":26.6851,"lon":-80.0992,"elev":4,"name":"Palm Beach Intl, FL, US","cover":"BKN","clouds":[{"cover":"BKN","base":4500}],"fltCat":"VFR"},{"icaoId":"KHOU","receiptTime":"2026-04-13T15:57:05.363Z","obsTime":1776095580,"reportTime":"2026-04-13T16:00:00.000Z","temp":25,"dewp":20.6,"wdir":160,"wspd":12,"visib":9,"altim":1020.7,"slp":1021.2,"qcField":12,"metarType":"METAR","rawOb":"METAR KHOU 131553Z 16012KT 9SM SCT020 BKN035 BKN250 25/21 A3014 RMK AO2 SLP212 T02500206 $","lat":29.6458,"lon":-95.2821,"elev":13,"name":"Houston/Hobby Arpt, TX, US","cover":"BKN","clouds":[{"cover":"SCT","base":2000},{"cover":"BKN","base":3500},{"cover":"BKN","base":25000}],"fltCat":"VFR"},{"icaoId":"KTPA","receiptTime":"2026-04-13T15:56:56.174Z","obsTime":1776095580,"reportTime":"2026-04-13T16:00:00.000Z","temp":25.6,"dewp":14.4,"wdir":90,"wspd":6,"wgst":17,"visib":"10+","altim":1026.5,"slp":1026.4,"qcField":4,"metarType":"METAR","rawOb":"METAR KTPA 131553Z 09006G17KT 10SM FEW040 SCT250 26/14 A3031 RMK AO2 SLP264 T02560144","lat":27.9633,"lon":-82.54,"elev":2,"name":"Tampa Intl Arpt, FL, US","cover":"SCT","clouds":[{"cover":"FEW","base":4000},{"cover":"SCT","base":25000}],"fltCat":"VFR"},{"icaoId":"KTUS","receiptTime":"2026-04-13T15:56:56.282Z","obsTime":1776095580,"reportTime":"2026-04-13T16:00:00.000Z","temp":22.8,"dewp":2.8,"wdir":230,"wspd":10,"wgst":17,"visib":"10+","altim":1017.4,"slp":1013.5,"qcField":4,"metarType":"METAR","rawOb":"METAR KTUS 131553Z 23010G17KT 10SM CLR 23/03 A3004 RMK AO2 SLP135 T02280028","lat":32.1315,"lon":-110.9564,"elev":776,"name":"Tucson Intl Arpt, AZ, US","cover":"CLR","clouds":[],"fltCat":"VFR"},{"icaoId":"KTWF","receiptTime":"2026-04-13T15:56:56.348Z","obsTime":1776095580,"reportTime":"2026-04-13T16:00:00.000Z","temp":8.3,"dewp":-1.7,"wdir":200,"wspd":12,"wgst":22,"visib":"10+","altim":1015,"slp":1013.4,"qcField":4,"metarType":"METAR","rawOb":"METAR KTWF 131553Z 20012G22KT 10SM CLR 08/M02 A2997 RMK AO2 SLP134 T00831017","lat":42.4785,"lon":-114.4775,"elev":1269,"name":"Twin Falls/Joslin Fld, ID, US","cover":"CLR","clouds":[],"fltCat":"VFR"},{"icaoId":"KSAF","receiptTime":"2026-04-13T15:57:00.869Z","obsTime":1776095580,"reportTime":"2026-04-13T16:00:00.000Z","temp":15,"dewp":-0.6,"wdir":240,"wspd":14,"visib":"10+","altim":1020.4,"slp":1012.2,"qcField":12,"metarType":"METAR","rawOb":"METAR KSAF 131553Z 24014KT 10SM CLR 15/M01 A3013 RMK AO2 SLP122 ACSL SW T01501006 $","lat":35.611,"lon":-106.0957,"elev":1918,"name":"Santa Fe Cnty Muni, NM, US","cover":"CLR","clouds":[],"fltCat":"VFR"},{"icaoId":"KIAH","receiptTime":"2026-04-13T15:57:05.600Z","obsTime":1776095580,"reportTime":"2026-04-13T16:00:00.000Z","temp":26.1,"dewp":21.1,"wdir":180,"wspd":8,"visib":"10+","altim":1020.7,"slp":1020.6,"qcField":4,"metarType":"METAR","rawOb":"METAR KIAH 131553Z 18008KT 10SM SCT020 BKN031 OVC085 26/21 A3014 RMK AO2 SLP206 T02610211","lat":29.9844,"lon":-95.3607,"elev":27,"name":"Houston/Bush Intl, TX, US","cover":"OVC","clouds":[{"cover":"SCT","base":2000},{"cover":"BKN","base":3100},{"cover":"OVC","base":8500}],"fltCat":"VFR"},{"icaoId":"KIDA","receiptTime":"2026-04-13T15:57:00.555Z","obsTime":1776095580,"reportTime":"2026-04-13T16:00:00.000Z","temp":6.1,"dewp":-1.7,"wdir":210,"wspd":19,"visib":"10+","altim":1015,"slp":1014.7,"qcField":4,"metarType":"METAR","rawOb":"METAR KIDA 131553Z 21019KT 10SM SCT050 06/M02 A2997 RMK AO2 PK WND 22026/1549 SLP147 T00611017","lat":43.5204,"lon":-112.0675,"elev":1444,"name":"Idaho Falls Rgnl, ID, US","cover":"SCT","clouds":[{"cover":"SCT","base":5000}],"fltCat":"VFR"},{"icaoId":"KMYF","receiptTime":"2026-04-13T15:56:58.871Z","obsTime":1776095580,"reportTime":"2026-04-13T16:00:00.000Z","temp":16.1,"dewp":7.8,"wdir":240,"wspd":7,"visib":"10+","altim":1017.7,"slp":1017.3,"qcField":4,"metarType":"METAR","rawOb":"METAR KMYF 131553Z 24007KT 10SM FEW031 SCT065 16/08 A3005 RMK AO2 SLP173 T01610078","lat":32.8145,"lon":-117.1375,"elev":128,"name":"San Diego/Montgomery Arpt, CA, US","cover":"SCT","clouds":[{"cover":"FEW","base":3100},{"cover":"SCT","base":6500}],"fltCat":"VFR"},{"icaoId":"KPIH","receiptTime":"2026-04-13T15:56:58.356Z","obsTime":1776095580,"reportTime":"2026-04-13T16:00:00.000Z","temp":8.3,"dewp":-2.8,"wdir":210,"wspd":9,"visib":"10+","altim":1015,"slp":1014.3,"qcField":4,"metarType":"METAR","rawOb":"METAR KPIH 131553Z 21009KT 10SM FEW038 SCT065 08/M03 A2997 RMK AO2 SLP143 T00831028","lat":42.9197,"lon":-112.5723,"elev":1357,"name":"Pocatello Rgnl, ID, US","cover":"SCT","clouds":[{"cover":"FEW","base":3800},{"cover":"SCT","base":6500}],"fltCat":"VFR"},{"icaoId":"KPNC","receiptTime":"2026-04-13T15:56:58.486Z","obsTime":1776095580,"reportTime":"2026-04-13T16:00:00.000Z","temp":25,"dewp":19.4,"wdir":200,"wspd":12,"wgst":30,"visib":"10+","altim":1011.6,"slp":1010.4,"qcField":6,"metarType":"METAR","rawOb":"METAR KPNC 131553Z AUTO 20012G30KT 10SM FEW023 FEW028 25/19 A2987 RMK AO2 PK WND 19031/1518 SLP104 T02500194","lat":36.7369,"lon":-97.1024,"elev":304,"name":"Ponca City Rgnl, OK, US","cover":"FEW","clouds":[{"cover":"FEW","base":2300},{"cover":"FEW","base":2800}],"fltCat":"VFR"},{"icaoId":"KRDD","receiptTime":"2026-04-13T15:56:58.804Z","obsTime":1776095580,"reportTime":"2026-04-13T16:00:00.000Z","temp":10,"dewp":7.8,"wdir":0,"wspd":0,"visib":"10+","altim":1020.4,"slp":1020.2,"qcField":4,"metarType":"METAR","rawOb":"METAR KRDD 131553Z 00000KT 10SM OVC046 10/08 A3013 RMK AO2 SLP202 T01000078","lat":40.5146,"lon":-122.2977,"elev":152,"name":"Redding Muni, CA, US","cover":"OVC","clouds":[{"cover":"OVC","base":4600}],"fltCat":"VFR"},{"icaoId":"KDFW","receiptTime":"2026-04-13T15:56:56.028Z","obsTime":1776095580,"reportTime":"2026-04-13T16:00:00.000Z","temp":25.6,"dewp":20,"wdir":190,"wspd":22,"wgst":28,"visib":"10+","altim":1017.7,"slp":1016.8,"qcField":4,"metarType":"METAR","rawOb":"METAR KDFW 131553Z 19022G28KT 10SM BKN017 BKN031 26/20 A3005 RMK AO2 PK WND 18028/1553 SLP168 T02560200","lat":32.8974,"lon":-97.022,"elev":168,"name":"Dallas-Ft Worth Intl, TX, US","cover":"BKN","clouds":[{"cover":"BKN","base":1700},{"cover":"BKN","base":3100}],"fltCat":"MVFR"},{"icaoId":"KAUS","receiptTime":"2026-04-13T15:56:59.564Z","obsTime":1776095580,"reportTime":"2026-04-13T16:00:00.000Z","temp":25,"dewp":21.7,"wdir":170,"wspd":13,"visib":9,"altim":1019.4,"slp":1018.6,"qcField":4,"metarType":"METAR","rawOb":"METAR KAUS 131553Z 17013KT 9SM BKN015 OVC021 25/22 A3010 RMK AO2 SLP186 T02500217","lat":30.1831,"lon":-97.6806,"elev":148,"name":"Austin/Bergstrom Intl, TX, US","cover":"OVC","clouds":[{"cover":"BKN","base":1500},{"cover":"OVC","base":2100}],"fltCat":"MVFR"},{"icaoId":"KBNA","receiptTime":"2026-04-13T15:56:56.715Z","obsTime":1776095580,"reportTime":"2026-04-13T16:00:00.000Z","temp":21.7,"dewp":12.8,"wdir":200,"wspd":9,"visib":"10+","altim":1024.5,"slp":1023.7,"qcField":4,"precip":0.005,"metarType":"METAR","rawOb":"METAR KBNA 131553Z 20009KT 10SM BKN100 BKN150 BKN250 22/13 A3025 RMK AO2 RAE11 SLP237 P0000 T02170128","lat":36.1105,"lon":-86.6881,"elev":168,"name":"Nashville Intl, TN, US","cover":"BKN","clouds":[{"cover":"BKN","base":10000},{"cover":"BKN","base":15000},{"cover":"BKN","base":25000}],"fltCat":"VFR"},{"icaoId":"KSTS","receiptTime":"2026-04-13T15:57:04.985Z","obsTime":1776095580,"reportTime":"2026-04-13T16:00:00.000Z","temp":10.6,"dewp":7.8,"wdir":360,"wspd":6,"visib":"10+","altim":1020.4,"slp":1019.7,"qcField":4,"metarType":"METAR","rawOb":"METAR KSTS 131553Z 36006KT 10SM FEW040 11/08 A3013 RMK AO2 SLP197 T01060078","lat":38.5037,"lon":-122.811,"elev":35,"name":"Santa Rosa/Schulz Arpt, CA, US","cover":"FEW","clouds":[{"cover":"FEW","base":4000}],"fltCat":"VFR"},{"icaoId":"KCNY","receiptTime":"2026-04-13T15:56:57.422Z","obsTime":1776095580,"reportTime":"2026-04-13T16:00:00.000Z","temp":15,"dewp":-3.3,"wdir":"VRB","wspd":5,"visib":"10+","altim":1015.3,"slp":1011.2,"qcField":14,"metarType":"METAR","rawOb":"METAR KCNY 131553Z AUTO VRB05KT 10SM SCT100 15/M03 A2998 RMK AO2 SLP112 T01501033 $","lat":38.7501,"lon":-109.7627,"elev":1392,"name":"Moab/Canyonland Fld, UT, US","cover":"SCT","clouds":[{"cover":"SCT","base":10000}],"fltCat":"VFR"},{"icaoId":"KLAW","receiptTime":"2026-04-13T15:57:02.029Z","obsTime":1776095580,"reportTime":"2026-04-13T16:00:00.000Z","temp":25,"dewp":20,"wdir":200,"wspd":11,"wgst":21,"visib":"10+","altim":1015.3,"slp":1014.1,"qcField":4,"metarType":"METAR","rawOb":"METAR KLAW 131553Z 20011G21KT 10SM BKN022 OVC028 25/20 A2998 RMK AO2 SLP141 T02500200","lat":34.5577,"lon":-98.4172,"elev":328,"name":"Lawton-Fort Sill Rgnl, OK, US","cover":"OVC","clouds":[{"cover":"BKN","base":2200},{"cover":"OVC","base":2800}],"fltCat":"MVFR"},{"icaoId":"KLBB","receiptTime":"2026-04-13T15:57:02.061Z","obsTime":1776095580,"reportTime":"2026-04-13T16:00:00.000Z","temp":24.4,"dewp":8.3,"wdir":230,"wspd":17,"wgst":24,"visib":"10+","altim":1017.7,"slp":1012.9,"qcField":4,"metarType":"METAR","rawOb":"METAR KLBB 131553Z 23017G24KT 10SM FEW140 FEW170 SCT250 24/08 A3005 RMK AO2 SLP129 ACSL DSNT SW T02440083","lat":33.6658,"lon":-101.8233,"elev":996,"name":"Lubbock Intl Arpt, TX, US","cover":"SCT","clouds":[{"cover":"FEW","base":14000},{"cover":"FEW","base":17000},{"cover":"SCT","base":25000}],"fltCat":"VFR"},{"icaoId":"KDMN","receiptTime":"2026-04-13T15:56:56.159Z","obsTime":1776095580,"reportTime":"2026-04-13T16:00:00.000Z","temp":21.1,"dewp":2.8,"wdir":210,"wspd":11,"wgst":18,"visib":"10+","altim":1021.1,"slp":1014.5,"qcField":6,"metarType":"METAR","rawOb":"METAR KDMN 131553Z AUTO 21011G18KT 10SM CLR 21/03 A3015 RMK AO2 SLP145 T02110028","lat":32.2592,"lon":-107.7206,"elev":1310,"name":"Deming Muni, NM, US","cover":"CLR","clouds":[],"fltCat":"VFR"},{"icaoId":"KPAE","receiptTime":"2026-04-13T15:57:04.662Z","obsTime":1776095580,"reportTime":"2026-04-13T16:00:00.000Z","temp":7.8,"dewp":6.7,"wdir":160,"wspd":4,"visib":1.75,"altim":1016.3,"slp":1016.5,"qcField":4,"wxString":"BR","precip":0.03,"metarType":"METAR","rawOb":"METAR KPAE 131553Z 16004KT 1 3/4SM BR BKN004 BKN010 OVC017 08/07 A3001 RMK AO2 RAE52 SLP165 P0003 T00780067","lat":47.9232,"lon":-122.2831,"elev":166,"name":"Everett/Paine Fld, WA, US","cover":"OVC","clouds":[{"cover":"BKN","base":400},{"cover":"BKN","base":1000},{"cover":"OVC","base":1700}],"fltCat":"LIFR"},{"icaoId":"KPDX","receiptTime":"2026-04-13T15:57:04.761Z","obsTime":1776095580,"reportTime":"2026-04-13T16:00:00.000Z","temp":8.9,"dewp":7.2,"wdir":0,"wspd":0,"visib":"10+","altim":1019,"slp":1019,"qcField":4,"precip":0.02,"metarType":"METAR","rawOb":"METAR KPDX 131553Z 00000KT 10SM FEW009 FEW022 OVC055 09/07 A3009 RMK AO2 RAE31 SLP190 P0002 T00890072","lat":45.5958,"lon":-122.6092,"elev":7,"name":"Portland Intl, OR, US","cover":"OVC","clouds":[{"cover":"FEW","base":900},{"cover":"FEW","base":2200},{"cover":"OVC","base":5500}],"fltCat":"VFR"},{"icaoId":"KSDL","receiptTime":"2026-04-13T15:57:00.935Z","obsTime":1776095580,"reportTime":"2026-04-13T16:00:00.000Z","temp":20,"dewp":7.2,"wdir":270,"wspd":4,"visib":"10+","altim":1016,"slp":1013.9,"qcField":4,"metarType":"METAR","rawOb":"METAR KSDL 131553Z 27004KT 10SM CLR 20/07 A3000 RMK AO2 SLP139 T02000072","lat":33.6123,"lon":-111.9232,"elev":438,"name":"Scottsdale Muni, AZ, US","cover":"CLR","clouds":[],"fltCat":"VFR"},{"icaoId":"KCDC","receiptTime":"2026-04-13T15:56:57.081Z","obsTime":1776095580,"reportTime":"2026-04-13T16:00:00.000Z","temp":8.3,"dewp":0.6,"wdir":20,"wspd":6,"visib":"10+","altim":1015.7,"slp":1012.2,"qcField":6,"metarType":"METAR","rawOb":"METAR KCDC 131553Z AUTO 02006KT 10SM OVC090 08/01 A2999 RMK AO2 SLP122 T00830006","lat":37.7067,"lon":-113.097,"elev":1703,"name":"Cedar City Muni, UT, US","cover":"OVC","clouds":[{"cover":"OVC","base":9000}],"fltCat":"VFR"},{"icaoId":"KLAR","receiptTime":"2026-04-13T15:57:02.011Z","obsTime":1776095580,"reportTime":"2026-04-13T16:00:00.000Z","temp":10,"dewp":-10,"wdir":250,"wspd":27,"wgst":37,"visib":"10+","altim":1013.6,"slp":1008.1,"qcField":6,"metarType":"METAR","rawOb":"METAR KLAR 131553Z AUTO 25027G37KT 10SM CLR 10/M10 A2993 RMK AO2 PK WND 27039/1525 SLP081 T01001100","lat":41.3165,"lon":-105.6729,"elev":2217,"name":"Laramie Rgnl, WY, US","cover":"CLR","clouds":[],"fltCat":"VFR"},{"icaoId":"KCRQ","receiptTime":"2026-04-13T15:57:01.156Z","obsTime":1776095580,"reportTime":"2026-04-13T16:00:00.000Z","temp":13.3,"dewp":10,"wdir":250,"wspd":6,"visib":5,"altim":1017.7,"slp":1017.3,"qcField":4,"wxString":"RA","precip":0.03,"metarType":"METAR","rawOb":"METAR KCRQ 131553Z 25006KT 5SM RA FEW026 BKN047 OVC065 13/10 A3005 RMK AO2 RAB36 SLP173 P0003 T01330100","lat":33.1299,"lon":-117.2765,"elev":96,"name":"Carlsbad/Palomar Arpt, CA, US","cover":"OVC","clouds":[{"cover":"FEW","base":2600},{"cover":"BKN","base":4700},{"cover":"OVC","base":6500}],"fltCat":"MVFR"},{"icaoId":"KBOI","receiptTime":"2026-04-13T15:56:56.749Z","obsTime":1776095580,"reportTime":"2026-04-13T16:00:00.000Z","temp":3.3,"dewp":1.7,"wdir":110,"wspd":7,"visib":3,"altim":1015.3,"slp":1015.8,"qcField":4,"wxString":"RA BR","precip":0.19,"metarType":"METAR","rawOb":"METAR KBOI 131553Z 11007KT 3SM RA BR OVC020 03/02 A2998 RMK AO2 SFC VIS 5 SLP158 P0019 T00330017","lat":43.567,"lon":-116.2406,"elev":860,"name":"Boise Arpt, ID, US","cover":"OVC","clouds":[{"cover":"OVC","base":2000}],"fltCat":"MVFR"},{"icaoId":"KPRC","receiptTime":"2026-04-13T15:56:58.574Z","obsTime":1776095580,"reportTime":"2026-04-13T16:00:00.000Z","temp":11.7,"dewp":1.7,"wdir":130,"wspd":5,"visib":"10+","altim":1017.7,"slp":1012.7,"qcField":4,"metarType":"METAR","rawOb":"METAR KPRC 131553Z 13005KT 10SM SCT042 12/02 A3005 RMK AO2 SLP127 T01170017","lat":34.6491,"lon":-112.4223,"elev":1528,"name":"Prescott/Love Fld, AZ, US","cover":"SCT","clouds":[{"cover":"SCT","base":4200}],"fltCat":"VFR"},{"icaoId":"KPSP","receiptTime":"2026-04-13T15:56:58.604Z","obsTime":1776095580,"reportTime":"2026-04-13T16:00:00.000Z","temp":19.4,"dewp":4.4,"wdir":"VRB","wspd":5,"visib":"10+","altim":1015.7,"slp":1015.4,"qcField":4,"metarType":"METAR","rawOb":"METAR KPSP 131553Z VRB05KT 10SM FEW070 19/04 A2999 RMK AO2 SLP154 T01940044","lat":33.8222,"lon":-116.5043,"elev":123,"name":"Palm Springs Intl, CA, US","cover":"FEW","clouds":[{"cover":"FEW","base":7000}],"fltCat":"VFR"},{"icaoId":"KPUW","receiptTime":"2026-04-13T15:56:58.675Z","obsTime":1776095580,"reportTime":"2026-04-13T16:00:00.000Z","temp":5.6,"dewp":5,"wdir":0,"wspd":0,"visib":8,"altim":1011.3,"slp":1011.8,"qcField":6,"wxString":"-RA","precip":0.07,"metarType":"METAR","rawOb":"METAR KPUW 131553Z AUTO 00000KT 8SM -RA OVC007 06/05 A2986 RMK AO2 SLP118 P0007 T00560050","lat":46.7438,"lon":-117.1158,"elev":774,"name":"Pullman/Moscow Rgnl, WA, US","cover":"OVC","clouds":[{"cover":"OVC","base":700}],"fltCat":"IFR"},{"icaoId":"KSJC","receiptTime":"2026-04-13T15:57:04.776Z","obsTime":1776095580,"reportTime":"2026-04-13T16:00:00.000Z","temp":12.2,"dewp":8.9,"wdir":0,"wspd":0,"visib":"10+","altim":1019.7,"slp":1019.5,"qcField":12,"precip":0.005,"metarType":"METAR","rawOb":"METAR KSJC 131553Z 00000KT 10SM FEW010 SCT018 BKN025 12/09 A3011 RMK AO2 RAE1457 SLP195 TCU DSNT NW P0000 T01220089 $","lat":37.3594,"lon":-121.9244,"elev":13,"name":"San Jose Intl Arpt, CA, US","cover":"BKN","clouds":[{"cover":"FEW","base":1000},{"cover":"SCT","base":1800},{"cover":"BKN","base":2500}],"fltCat":"MVFR"},{"icaoId":"KSNA","receiptTime":"2026-04-13T15:57:04.836Z","obsTime":1776095580,"reportTime":"2026-04-13T16:00:00.000Z","temp":14.4,"dewp":10.6,"wdir":200,"wspd":4,"visib":"10+","altim":1017.7,"slp":1017.7,"qcField":12,"precip":0.005,"metarType":"METAR","rawOb":"METAR KSNA 131553Z 20004KT 10SM FEW019 BKN050 OVC080 14/11 A3005 RMK AO2 RAE46 SLP177 P0000 T01440106 $","lat":33.6798,"lon":-117.8675,"elev":14,"name":"Santa Ana/Wayne Arpt, CA, US","cover":"OVC","clouds":[{"cover":"FEW","base":1900},{"cover":"BKN","base":5000},{"cover":"OVC","base":8000}],"fltCat":"VFR"},{"icaoId":"KMTJ","receiptTime":"2026-04-13T15:57:01.915Z","obsTime":1776095580,"reportTime":"2026-04-13T16:00:00.000Z","temp":12.8,"dewp":-4.4,"wdir":260,"wspd":8,"visib":"10+","altim":1017.7,"slp":1012.2,"qcField":6,"metarType":"METAR","rawOb":"METAR KMTJ 131553Z AUTO 26008KT 10SM FEW070 13/M04 A3005 RMK AO2 SLP122 T01281044","lat":38.5054,"lon":-107.8981,"elev":1755,"name":"Montrose Rgnl, CO, US","cover":"FEW","clouds":[{"cover":"FEW","base":7000}],"fltCat":"VFR"},{"icaoId":"KAPA","receiptTime":"2026-04-13T15:56:59.384Z","obsTime":1776095580,"reportTime":"2026-04-13T16:00:00.000Z","temp":16.7,"dewp":-12.2,"wdir":200,"wspd":13,"wgst":19,"visib":"10+","altim":1012.6,"slp":1007.5,"qcField":4,"metarType":"METAR","rawOb":"METAR KAPA 131553Z 20013G19KT 10SM FEW110 BKN220 17/M12 A2990 RMK AO2 SLP075 T01671122","lat":39.5599,"lon":-104.8484,"elev":1791,"name":"Denver/Centennial Arpt, CO, US","cover":"BKN","clouds":[{"cover":"FEW","base":11000},{"cover":"BKN","base":22000}],"fltCat":"VFR"},{"icaoId":"KASE","receiptTime":"2026-04-13T15:56:59.479Z","obsTime":1776095580,"reportTime":"2026-04-13T16:00:00.000Z","temp":8.9,"dewp":-12.8,"wdir":250,"wspd":8,"wgst":23,"visib":"10+","altim":1017.4,"slp":1009.1,"qcField":4,"metarType":"METAR","rawOb":"METAR KASE 131553Z 25008G23KT 10SM FEW090 09/M13 A3004 RMK AO2 SLP091 T00891128","lat":39.2299,"lon":-106.8705,"elev":2384,"name":"Aspen/Pitkin Cnty, CO, US","cover":"FEW","clouds":[{"cover":"FEW","base":9000}],"fltCat":"VFR"},{"icaoId":"KMSY","receiptTime":"2026-04-13T15:57:01.882Z","obsTime":1776095580,"reportTime":"2026-04-13T16:00:00.000Z","temp":25.6,"dewp":18.3,"wdir":150,"wspd":9,"visib":"10+","altim":1025.1,"slp":1025.2,"qcField":4,"metarType":"METAR","rawOb":"METAR KMSY 131553Z 15009KT 10SM SCT029 SCT039 BKN250 26/18 A3027 RMK AO2 SLP252 T02560183","lat":29.9974,"lon":-90.2777,"elev":0,"name":"New Orleans/Armstrong Intl, LA, US","cover":"BKN","clouds":[{"cover":"SCT","base":2900},{"cover":"SCT","base":3900},{"cover":"BKN","base":25000}],"fltCat":"VFR"},{"icaoId":"KAMA","receiptTime":"2026-04-13T15:56:59.275Z","obsTime":1776095580,"reportTime":"2026-04-13T16:00:00.000Z","temp":25,"dewp":1.7,"wdir":240,"wspd":19,"wgst":26,"visib":"10+","altim":1016,"slp":1011.5,"qcField":4,"metarType":"METAR","rawOb":"METAR KAMA 131553Z 24019G26KT 10SM CLR 25/02 A3000 RMK AO2 PK WND 25029/1541 SLP115 T02500017","lat":35.2203,"lon":-101.7173,"elev":1102,"name":"Amarillo Intl Arpt, TX, US","cover":"CLR","clouds":[],"fltCat":"VFR"},{"icaoId":"KDVT","receiptTime":"2026-04-13T15:57:03.203Z","obsTime":1776095580,"reportTime":"2026-04-13T16:00:00.000Z","temp":20,"dewp":7.8,"wdir":"VRB","wspd":3,"visib":"10+","altim":1015.7,"slp":1013.8,"qcField":12,"metarType":"METAR","rawOb":"METAR KDVT 131553Z VRB03KT 10SM CLR 20/08 A2999 RMK AO2 SLP138 T02000078 $","lat":33.6902,"lon":-112.0662,"elev":454,"name":"Phoenix/Deer Valley Arpt, AZ, US","cover":"CLR","clouds":[],"fltCat":"VFR"},{"icaoId":"KFAT","receiptTime":"2026-04-13T15:57:03.630Z","obsTime":1776095580,"reportTime":"2026-04-13T16:00:00.000Z","temp":12.2,"dewp":7.2,"wdir":300,"wspd":6,"visib":"10+","altim":1018.4,"slp":1018.2,"qcField":4,"metarType":"METAR","rawOb":"METAR KFAT 131553Z 30006KT 10SM BKN065 BKN100 OVC200 12/07 A3007 RMK AO2 SLP182 T01220072","lat":36.78,"lon":-119.7202,"elev":102,"name":"Fresno/Yosemite Intl, CA, US","cover":"OVC","clouds":[{"cover":"BKN","base":6500},{"cover":"BKN","base":10000},{"cover":"OVC","base":20000}],"fltCat":"VFR"},{"icaoId":"KMIA","receiptTime":"2026-04-13T15:56:42.164Z","obsTime":1776095580,"reportTime":"2026-04-13T16:00:00.000Z","temp":26.7,"dewp":14.4,"wdir":80,"wspd":16,"wgst":24,"visib":"10+","altim":1024.8,"slp":1024.7,"qcField":0,"metarType":"METAR","rawOb":"METAR KMIA 131553Z 08016G24KT 10SM SCT043 27/14 A3026 RMK PK WND 07026/1511 SLP247 T02670144","lat":25.7881,"lon":-80.3169,"elev":1,"name":"Miami Intl, FL, US","cover":"SCT","clouds":[{"cover":"SCT","base":4300}],"fltCat":"VFR"},{"icaoId":"KBLI","receiptTime":"2026-04-13T15:56:56.666Z","obsTime":1776095580,"reportTime":"2026-04-13T16:00:00.000Z","temp":10,"dewp":6.7,"wdir":190,"wspd":7,"visib":"10+","altim":1014.6,"slp":1015.3,"qcField":4,"precip":0.005,"metarType":"METAR","rawOb":"METAR KBLI 131553Z 19007KT 10SM OVC036 10/07 A2996 RMK AO2 RAE13 SLP153 P0000 T01000067","lat":48.7991,"lon":-122.5407,"elev":46,"name":"Bellingham Intl, WA, US","cover":"OVC","clouds":[{"cover":"OVC","base":3600}],"fltCat":"VFR"},{"icaoId":"KMYR","receiptTime":"2026-04-13T15:56:39.698Z","obsTime":1776095580,"reportTime":"2026-04-13T16:00:00.000Z","temp":23.3,"dewp":16.1,"wdir":160,"wspd":10,"visib":"10+","altim":1028.9,"slp":1028.6,"qcField":12,"metarType":"METAR","rawOb":"METAR KMYR 131553Z 16010KT 10SM CLR 23/16 A3038 RMK AO2 SLP286 T02330161 $","lat":33.6769,"lon":-78.9325,"elev":7,"name":"Myrtle Beach Intl, SC, US","cover":"CLR","clouds":[],"fltCat":"VFR"},{"icaoId":"KSEA","receiptTime":"2026-04-13T15:57:00.965Z","obsTime":1776095580,"reportTime":"2026-04-13T16:00:00.000Z","temp":8.9,"dewp":5,"wdir":200,"wspd":15,"visib":"10+","altim":1016.3,"slp":1016.8,"qcField":4,"wxString":"-RA","precip":0.005,"metarType":"METAR","rawOb":"METAR KSEA 131553Z 20015KT 10SM -RA SCT023 BKN041 BKN055 09/05 A3001 RMK AO2 RAB51 SLP168 P0000 T00890050","lat":47.4447,"lon":-122.3144,"elev":115,"name":"Seattle-Tacoma Intl, WA, US","cover":"BKN","clouds":[{"cover":"SCT","base":2300},{"cover":"BKN","base":4100},{"cover":"BKN","base":5500}],"fltCat":"VFR"},{"icaoId":"KVEL","receiptTime":"2026-04-13T15:56:59.789Z","obsTime":1776095580,"reportTime":"2026-04-13T16:00:00.000Z","temp":10,"dewp":-5,"wdir":220,"wspd":8,"visib":"10+","altim":1016,"slp":1012.6,"qcField":6,"metarType":"METAR","rawOb":"METAR KVEL 131553Z AUTO 22008KT 10SM CLR 10/M05 A3000 RMK AO2 SLP126 T01001050","lat":40.4429,"lon":-109.5128,"elev":1604,"name":"Vernal Rgnl, UT, US","cover":"CLR","clouds":[],"fltCat":"VFR"},{"icaoId":"KRTN","receiptTime":"2026-04-13T15:57:00.751Z","obsTime":1776095580,"reportTime":"2026-04-13T16:00:00.000Z","temp":16.1,"dewp":-10,"wdir":260,"wspd":7,"visib":"10+","altim":1016.7,"slp":1010.6,"qcField":6,"metarType":"METAR","rawOb":"METAR KRTN 131553Z AUTO 26007KT 10SM CLR 16/M10 A3002 RMK AO2 SLP106 T01611100","lat":36.7418,"lon":-104.5076,"elev":1939,"name":"Raton/Crews Fld, NM, US","cover":"CLR","clouds":[],"fltCat":"VFR"},{"icaoId":"KSBA","receiptTime":"2026-04-13T15:57:00.906Z","obsTime":1776095580,"reportTime":"2026-04-13T16:00:00.000Z","temp":15.6,"dewp":5.6,"wdir":0,"wspd":0,"visib":"10+","altim":1017.4,"slp":1017.3,"qcField":12,"metarType":"METAR","rawOb":"METAR KSBA 131553Z 00000KT 10SM FEW080 16/06 A3004 RMK AO2 SLP173 T01560056 $","lat":34.4241,"lon":-119.8425,"elev":2,"name":"Santa Barbara Muni, CA, US","cover":"FEW","clouds":[{"cover":"FEW","base":8000}],"fltCat":"VFR"},{"icaoId":"KCLT","receiptTime":"2026-04-13T15:56:35.316Z","obsTime":1776095520,"reportTime":"2026-04-13T16:00:00.000Z","temp":22.8,"dewp":13.9,"wdir":220,"wspd":12,"wgst":17,"visib":"10+","altim":1027.5,"slp":1028,"qcField":4,"metarType":"METAR","rawOb":"METAR KCLT 131552Z 22012G17KT 10SM FEW020 FEW200 BKN250 23/14 A3034 RMK AO2 SLP280 T02280139","lat":35.2225,"lon":-80.9543,"elev":223,"name":"Charlotte/Douglas Intl, NC, US","cover":"BKN","clouds":[{"cover":"FEW","base":2000},{"cover":"FEW","base":20000},{"cover":"BKN","base":25000}],"fltCat":"VFR"},{"icaoId":"KOKC","receiptTime":"2026-04-13T15:56:39.770Z","obsTime":1776095520,"reportTime":"2026-04-13T16:00:00.000Z","temp":23.9,"dewp":19.4,"wdir":190,"wspd":19,"visib":"10+","altim":1014.6,"slp":1013.3,"qcField":4,"metarType":"METAR","rawOb":"METAR KOKC 131552Z 19019KT 10SM BKN020 BKN027 OVC250 24/19 A2996 RMK AO2 PK WND 19029/1537 SLP133 T02390194","lat":35.3843,"lon":-97.6003,"elev":391,"name":"Oklahoma City/Will Rogers Intl, OK, US","cover":"OVC","clouds":[{"cover":"BKN","base":2000},{"cover":"BKN","base":2700},{"cover":"OVC","base":25000}],"fltCat":"MVFR"},{"icaoId":"KABQ","receiptTime":"2026-04-13T15:56:38.212Z","obsTime":1776095520,"reportTime":"2026-04-13T16:00:00.000Z","temp":15,"dewp":0.6,"wdir":270,"wspd":8,"visib":"10+","altim":1020.1,"slp":1013.9,"qcField":4,"metarType":"METAR","rawOb":"METAR KABQ 131552Z 27008KT 10SM FEW050 BKN110 OVC160 15/01 A3012 RMK AO2 SLP139 ACSL NE T01500006","lat":35.0419,"lon":-106.6154,"elev":1620,"name":"Albuquerque Intl, NM, US","cover":"OVC","clouds":[{"cover":"FEW","base":5000},{"cover":"BKN","base":11000},{"cover":"OVC","base":16000}],"fltCat":"VFR"},{"icaoId":"KATL","receiptTime":"2026-04-13T15:56:27.050Z","obsTime":1776095520,"reportTime":"2026-04-13T16:00:00.000Z","temp":23.3,"dewp":11.1,"wdir":210,"wspd":10,"visib":"10+","altim":1027.5,"slp":1026.7,"qcField":12,"metarType":"METAR","rawOb":"METAR KATL 131552Z 21010KT 10SM FEW150 BKN200 BKN250 23/11 A3034 RMK AO2 SLP267 VIRGA W-NW T02330111 $","lat":33.6297,"lon":-84.4422,"elev":309,"name":"Atlanta/Hartsfield-Jackson Intl, GA, US","cover":"BKN","clouds":[{"cover":"FEW","base":15000},{"cover":"BKN","base":20000},{"cover":"BKN","base":25000}],"fltCat":"VFR"},{"icaoId":"KIAD","receiptTime":"2026-04-13T15:56:35.575Z","obsTime":1776095520,"reportTime":"2026-04-13T16:00:00.000Z","temp":22.8,"dewp":13.3,"wdir":210,"wspd":9,"visib":"10+","altim":1020.4,"slp":1020,"qcField":4,"wxString":"-RA","precip":0.005,"metarType":"METAR","rawOb":"METAR KIAD 131552Z 21009KT 10SM -RA BKN110 OVC200 23/13 A3013 RMK AO2 RAB49 SLP200 P0000 T02280133","lat":38.9348,"lon":-77.4473,"elev":90,"name":"Washington/Dulles Intl, VA, US","cover":"OVC","clouds":[{"cover":"BKN","base":11000},{"cover":"OVC","base":20000}],"fltCat":"VFR"},{"icaoId":"KMLF","receiptTime":"2026-04-13T15:56:38.634Z","obsTime":1776095520,"reportTime":"2026-04-13T16:00:00.000Z","temp":8.3,"dewp":0,"wdir":330,"wspd":3,"visib":"10+","altim":1015.7,"slp":1013.5,"qcField":6,"metarType":"METAR","rawOb":"METAR KMLF 131552Z AUTO 33003KT 10SM BKN100 08/00 A2999 RMK AO2 SLP135 T00830000","lat":38.4225,"lon":-113.0109,"elev":1537,"name":"Milford Muni, UT, US","cover":"BKN","clouds":[{"cover":"BKN","base":10000}],"fltCat":"VFR"},{"icaoId":"KCVG","receiptTime":"2026-04-13T15:56:35.372Z","obsTime":1776095520,"reportTime":"2026-04-13T16:00:00.000Z","temp":22.8,"dewp":13.9,"wdir":210,"wspd":10,"wgst":21,"visib":"10+","altim":1020.1,"slp":1018.9,"qcField":4,"metarType":"METAR","rawOb":"METAR KCVG 131552Z 21010G21KT 10SM OVC039 23/14 A3012 RMK AO2 PK WND 24026/1512 SLP189 BINOVC OHD T02280139","lat":39.0444,"lon":-84.6724,"elev":264,"name":"Cincinnati Intl, KY, US","cover":"OVC","clouds":[{"cover":"OVC","base":3900}],"fltCat":"VFR"},{"icaoId":"KDCA","receiptTime":"2026-04-13T15:56:35.429Z","obsTime":1776095520,"reportTime":"2026-04-13T16:00:00.000Z","temp":25,"dewp":13.3,"wdir":200,"wspd":15,"wgst":21,"visib":"10+","altim":1020.1,"slp":1019.7,"qcField":4,"metarType":"METAR","rawOb":"METAR KDCA 131552Z 20015G21KT 10SM FEW100 BKN150 BKN250 25/13 A3012 RMK AO2 SLP197 VCSH NW T02500133","lat":38.8472,"lon":-77.0345,"elev":4,"name":"Washington/Reagan-National Arpt, VA, US","cover":"BKN","clouds":[{"cover":"FEW","base":10000},{"cover":"BKN","base":15000},{"cover":"BKN","base":25000}],"fltCat":"VFR"},{"icaoId":"KABI","receiptTime":"2026-04-13T15:56:38.198Z","obsTime":1776095520,"reportTime":"2026-04-13T16:00:00.000Z","temp":25.6,"dewp":19.4,"wdir":210,"wspd":15,"wgst":27,"visib":"10+","altim":1018,"slp":1015.4,"qcField":4,"metarType":"METAR","rawOb":"METAR KABI 131552Z 21015G27KT 10SM CLR 26/19 A3006 RMK AO2 PK WND 20027/1545 SLP154 T02560194","lat":32.4106,"lon":-99.6821,"elev":543,"name":"Abilene Rgnl, TX, US","cover":"CLR","clouds":[],"fltCat":"VFR"},{"icaoId":"KSPS","receiptTime":"2026-04-13T15:56:38.652Z","obsTime":1776095520,"reportTime":"2026-04-13T16:00:00.000Z","temp":26.7,"dewp":20,"wdir":200,"wspd":23,"wgst":29,"visib":"10+","altim":1015,"slp":1013.7,"qcField":4,"metarType":"METAR","rawOb":"METAR KSPS 131552Z 20023G29KT 10SM FEW025 27/20 A2997 RMK AO2 PK WND 19029/1551 SLP137 T02670200","lat":33.9785,"lon":-98.493,"elev":310,"name":"Wichita Falls Rgnl, TX, US","cover":"FEW","clouds":[{"cover":"FEW","base":2500}],"fltCat":"VFR"},{"icaoId":"KMKE","receiptTime":"2026-04-13T15:56:09.332Z","obsTime":1776095520,"reportTime":"2026-04-13T16:00:00.000Z","temp":21.7,"dewp":15.6,"wdir":240,"wspd":12,"wgst":21,"visib":"10+","altim":1011.9,"slp":1011.5,"qcField":4,"metarType":"METAR","rawOb":"METAR KMKE 131552Z 24012G21KT 10SM FEW020 FEW200 22/16 A2988 RMK AO2 SLP115 T02170156","lat":42.9549,"lon":-87.9045,"elev":203,"name":"Milwaukee/Mitchell Intl, WI, US","cover":"FEW","clouds":[{"cover":"FEW","base":2000},{"cover":"FEW","base":20000}],"fltCat":"VFR"},{"icaoId":"KROW","receiptTime":"2026-04-13T15:54:08.734Z","obsTime":1776095460,"reportTime":"2026-04-13T16:00:00.000Z","temp":21.1,"dewp":2.8,"wdir":200,"wspd":9,"visib":"10+","altim":1018,"slp":1012.8,"qcField":4,"metarType":"METAR","rawOb":"METAR KROW 131551Z 20009KT 10SM CLR 21/03 A3006 RMK AO2 SLP128 T02110028","lat":33.3074,"lon":-104.5082,"elev":1105,"name":"Roswell/Ind Arpt, NM, US","cover":"CLR","clouds":[],"fltCat":"VFR"},{"icaoId":"KELP","receiptTime":"2026-04-13T15:54:10.269Z","obsTime":1776095460,"reportTime":"2026-04-13T16:00:00.000Z","temp":21.7,"dewp":2.8,"wdir":130,"wspd":8,"visib":"10+","altim":1020.7,"slp":1014.2,"qcField":4,"metarType":"METAR","rawOb":"METAR KELP 131551Z 13008KT 10SM FEW110 SCT160 SCT250 22/03 A3014 RMK AO2 SLP142 VIRGA DSNT NE AND S-SW T02170028","lat":31.8123,"lon":-106.3774,"elev":1205,"name":"El Paso Intl, TX, US","cover":"SCT","clouds":[{"cover":"FEW","base":11000},{"cover":"SCT","base":16000},{"cover":"SCT","base":25000}],"fltCat":"VFR"},{"icaoId":"KCMH","receiptTime":"2026-04-13T15:54:09.288Z","obsTime":1776095460,"reportTime":"2026-04-13T16:00:00.000Z","temp":24.4,"dewp":13.3,"wdir":230,"wspd":18,"wgst":29,"visib":"10+","altim":1018,"slp":1017.4,"qcField":4,"metarType":"METAR","rawOb":"METAR KCMH 131551Z 23018G29KT 10SM SCT042 SCT080 24/13 A3006 RMK AO2 PK WND 22029/1548 SLP174 T02440133","lat":39.9907,"lon":-82.877,"elev":257,"name":"Columbus/Glenn Intl, OH, US","cover":"SCT","clouds":[{"cover":"SCT","base":4200},{"cover":"SCT","base":8000}],"fltCat":"VFR"},{"icaoId":"KLGA","receiptTime":"2026-04-13T15:54:08.498Z","obsTime":1776095460,"reportTime":"2026-04-13T16:00:00.000Z","temp":20,"dewp":13.3,"wdir":220,"wspd":11,"visib":"10+","altim":1017,"slp":1016.7,"qcField":12,"metarType":"METAR","rawOb":"METAR KLGA 131551Z 22011KT 10SM FEW050 BKN160 BKN250 20/13 A3003 RMK AO2 SLP167 T02000133 $","lat":40.7794,"lon":-73.8803,"elev":9,"name":"New York/La Guardia Arpt, NY, US","cover":"BKN","clouds":[{"cover":"FEW","base":5000},{"cover":"BKN","base":16000},{"cover":"BKN","base":25000}],"fltCat":"VFR"},{"icaoId":"KSTL","receiptTime":"2026-04-13T15:54:08.903Z","obsTime":1776095460,"reportTime":"2026-04-13T16:00:00.000Z","temp":24.4,"dewp":17.2,"wdir":220,"wspd":13,"visib":"10+","altim":1016,"slp":1015,"qcField":12,"metarType":"METAR","rawOb":"METAR KSTL 131551Z 22013KT 10SM BKN031 BKN250 24/17 A3000 RMK AO2 SLP150 T02440172 $","lat":38.7525,"lon":-90.3734,"elev":163,"name":"St Louis/Lambert Intl, MO, US","cover":"BKN","clouds":[{"cover":"BKN","base":3100},{"cover":"BKN","base":25000}],"fltCat":"VFR"},{"icaoId":"KIGM","receiptTime":"2026-04-13T15:54:10.384Z","obsTime":1776095460,"reportTime":"2026-04-13T16:00:00.000Z","temp":13.9,"dewp":2.8,"wdir":230,"wspd":12,"visib":"10+","altim":1015.7,"slp":1010.7,"qcField":6,"metarType":"METAR","rawOb":"METAR KIGM 131551Z AUTO 23012KT 10SM CLR 14/03 A2999 RMK AO2 SLP107 T01390028","lat":35.2575,"lon":-113.9341,"elev":1045,"name":"Kingman Arpt, AZ, US","cover":"CLR","clouds":[],"fltCat":"VFR"},{"icaoId":"KLGU","receiptTime":"2026-04-13T15:54:08.526Z","obsTime":1776095460,"reportTime":"2026-04-13T16:00:00.000Z","temp":6.7,"dewp":1.7,"wdir":160,"wspd":4,"visib":"10+","altim":1016.7,"slp":1015.6,"qcField":6,"metarType":"METAR","rawOb":"METAR KLGU 131551Z AUTO 16004KT 10SM FEW045 07/02 A3002 RMK AO2 SLP156 T00670017","lat":41.7865,"lon":-111.8519,"elev":1359,"name":"Logan/Cache Arpt, UT, US","cover":"FEW","clouds":[{"cover":"FEW","base":4500}],"fltCat":"VFR"},{"icaoId":"KACT","receiptTime":"2026-04-13T15:54:09.044Z","obsTime":1776095460,"reportTime":"2026-04-13T16:00:00.000Z","temp":24.4,"dewp":21.1,"wdir":180,"wspd":15,"visib":"10+","altim":1019,"slp":1018.5,"qcField":4,"metarType":"METAR","rawOb":"METAR KACT 131551Z 18015KT 10SM BKN017 OVC025 24/21 A3009 RMK AO2 SLP185 T02440211","lat":31.618,"lon":-97.2283,"elev":150,"name":"Waco Rgnl, TX, US","cover":"OVC","clouds":[{"cover":"BKN","base":1700},{"cover":"OVC","base":2500}],"fltCat":"MVFR"},{"icaoId":"KVNY","receiptTime":"2026-04-13T15:54:08.989Z","obsTime":1776095460,"reportTime":"2026-04-13T16:00:00.000Z","temp":13.3,"dewp":8.9,"wdir":"VRB","wspd":3,"visib":"10+","altim":1017.4,"slp":1016.7,"qcField":12,"metarType":"METAR","rawOb":"METAR KVNY 131551Z VRB03KT 10SM FEW065 13/09 A3004 RMK AO2 SLP167 T01330089 $","lat":34.2121,"lon":-118.4915,"elev":241,"name":"Van Nuys Arpt, CA, US","cover":"FEW","clouds":[{"cover":"FEW","base":6500}],"fltCat":"VFR"},{"icaoId":"KSAN","receiptTime":"2026-04-13T15:54:08.768Z","obsTime":1776095460,"reportTime":"2026-04-13T16:00:00.000Z","temp":17.2,"dewp":8.3,"wdir":260,"wspd":5,"visib":"10+","altim":1018.4,"slp":1018.1,"qcField":12,"metarType":"METAR","rawOb":"METAR KSAN 131551Z 26005KT 10SM FEW025 BKN060 17/08 A3007 RMK AO2 SLP181 T01720083 $","lat":32.7364,"lon":-117.1973,"elev":3,"name":"San Diego Intl Arpt, CA, US","cover":"BKN","clouds":[{"cover":"FEW","base":2500},{"cover":"BKN","base":6000}],"fltCat":"VFR"},{"icaoId":"KRDU","receiptTime":"2026-04-13T15:54:08.718Z","obsTime":1776095460,"reportTime":"2026-04-13T16:00:00.000Z","temp":25,"dewp":11.7,"wdir":220,"wspd":17,"wgst":27,"visib":"10+","altim":1026.8,"slp":1026.4,"qcField":4,"metarType":"METAR","rawOb":"METAR KRDU 131551Z 22017G27KT 10SM FEW045 BKN250 25/12 A3032 RMK AO2 PK WND 22027/1544 SLP264 T02500117","lat":35.8923,"lon":-78.782,"elev":121,"name":"Raleigh-Durham Intl, NC, US","cover":"BKN","clouds":[{"cover":"FEW","base":4500},{"cover":"BKN","base":25000}],"fltCat":"VFR"},{"icaoId":"KPIT","receiptTime":"2026-04-13T15:54:08.657Z","obsTime":1776095460,"reportTime":"2026-04-13T16:00:00.000Z","temp":22.8,"dewp":11.7,"wdir":240,"wspd":14,"wgst":26,"visib":"10+","altim":1018,"slp":1017.8,"qcField":4,"metarType":"METAR","rawOb":"METAR KPIT 131551Z 24014G26KT 10SM BKN048 BKN085 OVC220 23/12 A3006 RMK AO2 PK WND 24032/1509 SLP178 T02280117","lat":40.4814,"lon":-80.2083,"elev":339,"name":"Pittsburgh Intl, PA, US","cover":"OVC","clouds":[{"cover":"BKN","base":4800},{"cover":"BKN","base":8500},{"cover":"OVC","base":22000}],"fltCat":"VFR"},{"icaoId":"KOXR","receiptTime":"2026-04-13T15:54:08.609Z","obsTime":1776095460,"reportTime":"2026-04-13T16:00:00.000Z","temp":14.4,"dewp":9.4,"wdir":0,"wspd":0,"visib":"10+","altim":1017.7,"slp":1017.6,"qcField":4,"metarType":"METAR","rawOb":"METAR KOXR 131551Z 00000KT 10SM CLR 14/09 A3005 RMK AO2 SLP176 T01440094","lat":34.2001,"lon":-119.2042,"elev":12,"name":"Oxnard Arpt, CA, US","cover":"CLR","clouds":[],"fltCat":"VFR"},{"icaoId":"KORF","receiptTime":"2026-04-13T15:54:08.589Z","obsTime":1776095460,"reportTime":"2026-04-13T16:00:00.000Z","temp":25.6,"dewp":13.9,"wdir":220,"wspd":18,"visib":"10+","altim":1024.5,"slp":1024.4,"qcField":4,"precip":0.005,"metarType":"METAR","rawOb":"METAR KORF 131551Z 22018KT 10SM CLR 26/14 A3025 RMK AO2 PK WND 24028/1507 RAB1453E19 SLP244 P0000 T02560139","lat":36.9037,"lon":-76.1927,"elev":5,"name":"Norfolk Intl, VA, US","cover":"CLR","clouds":[],"fltCat":"VFR"},{"icaoId":"KJFK","receiptTime":"2026-04-13T15:54:10.456Z","obsTime":1776095460,"reportTime":"2026-04-13T16:00:00.000Z","temp":14.4,"dewp":10.6,"wdir":180,"wspd":7,"visib":"10+","altim":1018,"slp":1017.7,"qcField":4,"metarType":"METAR","rawOb":"METAR KJFK 131551Z 18007KT 10SM FEW020 SCT160 BKN250 14/11 A3006 RMK AO2 SLP177 T01440106","lat":40.6392,"lon":-73.7639,"elev":3,"name":"New York/JF Kennedy Intl, NY, US","cover":"BKN","clouds":[{"cover":"FEW","base":2000},{"cover":"SCT","base":16000},{"cover":"BKN","base":25000}],"fltCat":"VFR"},{"icaoId":"KPHX","receiptTime":"2026-04-13T15:54:08.629Z","obsTime":1776095460,"reportTime":"2026-04-13T16:00:00.000Z","temp":21.1,"dewp":7.8,"wdir":300,"wspd":6,"visib":"10+","altim":1015,"slp":1013.6,"qcField":12,"metarType":"METAR","rawOb":"METAR KPHX 131551Z 30006KT 10SM FEW065 BKN140 BKN250 21/08 A2997 RMK AO2 SLP136 T02110078 $","lat":33.4278,"lon":-112.0037,"elev":338,"name":"Phoenix/Sky Harbor Intl, AZ, US","cover":"BKN","clouds":[{"cover":"FEW","base":6500},{"cover":"BKN","base":14000},{"cover":"BKN","base":25000}],"fltCat":"VFR"},{"icaoId":"KSAD","receiptTime":"2026-04-13T15:54:08.750Z","obsTime":1776095460,"reportTime":"2026-04-13T16:00:00.000Z","temp":19.4,"dewp":2.2,"wdir":90,"wspd":7,"visib":"10+","altim":1017.4,"slp":1013.6,"qcField":6,"metarType":"METAR","rawOb":"METAR KSAD 131551Z AUTO 09007KT 10SM CLR 19/02 A3004 RMK AO2 SLP136 T01940022","lat":32.8565,"lon":-109.636,"elev":937,"name":"Safford Rgnl, AZ, US","cover":"CLR","clouds":[],"fltCat":"VFR"},{"icaoId":"KEWR","receiptTime":"2026-04-13T15:54:10.304Z","obsTime":1776095460,"reportTime":"2026-04-13T16:00:00.000Z","temp":22.2,"dewp":13.3,"wdir":230,"wspd":14,"wgst":21,"visib":"10+","altim":1017,"slp":1016.7,"qcField":4,"metarType":"METAR","rawOb":"METAR KEWR 131551Z 23014G21KT 10SM FEW160 SCT210 BKN250 22/13 A3003 RMK AO2 SLP167 T02220133","lat":40.6828,"lon":-74.1692,"elev":2,"name":"Newark Intl, NJ, US","cover":"BKN","clouds":[{"cover":"FEW","base":16000},{"cover":"SCT","base":21000},{"cover":"BKN","base":25000}],"fltCat":"VFR"},{"icaoId":"KCRP","receiptTime":"2026-04-13T15:54:09.327Z","obsTime":1776095460,"reportTime":"2026-04-13T16:00:00.000Z","temp":27.2,"dewp":22.2,"wdir":170,"wspd":21,"visib":"10+","altim":1019.4,"slp":1019,"qcField":4,"metarType":"METAR","rawOb":"METAR KCRP 131551Z 17021KT 10SM BKN021 BKN027 27/22 A3010 RMK AO2 PK WND 16027/1539 SLP190 T02720222","lat":27.7734,"lon":-97.513,"elev":11,"name":"Corpus Christi Intl, TX, US","cover":"BKN","clouds":[{"cover":"BKN","base":2100},{"cover":"BKN","base":2700}],"fltCat":"MVFR"},{"icaoId":"KCLE","receiptTime":"2026-04-13T15:54:09.255Z","obsTime":1776095460,"reportTime":"2026-04-13T16:00:00.000Z","temp":22.8,"dewp":15.6,"wdir":250,"wspd":18,"wgst":28,"visib":"10+","altim":1015.3,"slp":1016.3,"qcField":12,"metarType":"METAR","rawOb":"METAR KCLE 131551Z 25018G28KT 10SM SCT034 BKN047 23/16 A2998 RMK AO2 PK WND 22029/1458 SLP163 T02280156 $","lat":41.4057,"lon":-81.8519,"elev":237,"name":"Cleveland/Hopkins Intl, OH, US","cover":"BKN","clouds":[{"cover":"SCT","base":3400},{"cover":"BKN","base":4700}],"fltCat":"VFR"},{"icaoId":"KHOB","receiptTime":"2026-04-13T15:49:29.697Z","obsTime":1776095400,"reportTime":"2026-04-13T16:00:00.000Z","temp":25,"dewp":1,"wdir":230,"wspd":12,"wgst":19,"visib":"10+","altim":1019.4,"qcField":0,"metarType":"METAR","rawOb":"METAR KHOB 131550Z 23012G19KT 10SM CLR 25/01 A3010","lat":32.6797,"lon":-103.2222,"elev":1112,"name":"Hobbs Arpt, NM, US","cover":"CLR","clouds":[],"fltCat":"VFR"},{"icaoId":"KIWA","receiptTime":"2026-04-13T15:52:22.992Z","obsTime":1776095400,"reportTime":"2026-04-13T16:00:00.000Z","temp":22,"dewp":7,"wdir":230,"wspd":7,"visib":"10+","altim":1015.7,"qcField":0,"metarType":"METAR","rawOb":"METAR KIWA 131550Z 23007KT 10SM CLR 22/07 A2999","lat":33.3008,"lon":-111.6437,"elev":420,"name":"Phoenix/Mesa Gateway Arpt, AZ, US","cover":"CLR","clouds":[],"fltCat":"VFR"},{"icaoId":"KAEG","receiptTime":"2026-04-13T15:51:07.235Z","obsTime":1776095400,"reportTime":"2026-04-13T16:00:00.000Z","temp":13,"dewp":0,"wdir":250,"wspd":7,"visib":"10+","altim":1020.4,"qcField":0,"metarType":"METAR","rawOb":"METAR KAEG 131550Z 25007KT 10SM CLR 13/00 A3013","lat":35.15,"lon":-106.7929,"elev":1771,"name":"Albuquerque/Double Eagle Arpt, NM, US","cover":"CLR","clouds":[],"fltCat":"VFR"},{"icaoId":"KGEU","receiptTime":"2026-04-13T15:51:07.287Z","obsTime":1776095280,"reportTime":"2026-04-13T16:00:00.000Z","temp":20,"dewp":7,"wdir":240,"wspd":5,"visib":"10+","altim":1014.3,"qcField":0,"metarType":"METAR","rawOb":"METAR KGEU 131548Z 24005KT 10SM BKN150 20/07 A2995","lat":33.528,"lon":-112.293,"elev":319,"name":"Glendale Muni, AZ, US","cover":"BKN","clouds":[{"cover":"BKN","base":15000}],"fltCat":"VFR"},{"icaoId":"KIFP","receiptTime":"2026-04-13T15:49:07.103Z","obsTime":1776095220,"reportTime":"2026-04-13T16:00:00.000Z","temp":19,"dewp":1,"wdir":170,"wspd":10,"visib":"10+","altim":1014,"qcField":0,"metarType":"METAR","rawOb":"METAR KIFP 131547Z 17010KT 10SM CLR 19/01 A2994","lat":35.1487,"lon":-114.5611,"elev":210,"name":"Bullhead City Intl, AZ, US","cover":"CLR","clouds":[],"fltCat":"VFR"},{"icaoId":"KCHD","receiptTime":"2026-04-13T15:49:06.294Z","obsTime":1776095220,"reportTime":"2026-04-13T16:00:00.000Z","temp":21,"dewp":7,"wdir":200,"wspd":6,"visib":"10+","altim":1015.3,"qcField":0,"metarType":"METAR","rawOb":"METAR KCHD 131547Z 20006KT 10SM BKN160 21/07 A2998","lat":33.2669,"lon":-111.8086,"elev":378,"name":"Chandler Muni, AZ, US","cover":"BKN","clouds":[{"cover":"BKN","base":16000}],"fltCat":"VFR"},{"icaoId":"KGYR","receiptTime":"2026-04-13T15:47:32.684Z","obsTime":1776095220,"reportTime":"2026-04-13T16:00:00.000Z","temp":19,"dewp":8,"wdir":220,"wspd":6,"visib":"10+","altim":1015.3,"qcField":0,"metarType":"METAR","rawOb":"METAR KGYR 131547Z 22006KT 10SM SCT065 BKN180 OVC250 19/08 A2998","lat":33.428,"lon":-112.368,"elev":292,"name":"Phoenix/Goodyear Muni, AZ, US","cover":"OVC","clouds":[{"cover":"SCT","base":6500},{"cover":"BKN","base":18000},{"cover":"OVC","base":25000}],"fltCat":"VFR"},{"icaoId":"KBJC","receiptTime":"2026-04-13T15:49:50.364Z","obsTime":1776095100,"reportTime":"2026-04-13T16:00:00.000Z","temp":17,"dewp":-10,"wdir":300,"wspd":11,"visib":"10+","altim":1012.6,"qcField":0,"metarType":"METAR","rawOb":"METAR KBJC 131545Z 30011KT 10SM FEW030 SCT150 17/M10 A2990","lat":39.9008,"lon":-105.1042,"elev":1694,"name":"Rocky Mtn Metro, CO, US","cover":"SCT","clouds":[{"cover":"FEW","base":3000},{"cover":"SCT","base":15000}],"fltCat":"VFR"}]