[{"icaoId":"KGYR","receiptTime":"2026-04-08T19:51:04.447Z","obsTime":1775677620,"reportTime":"2026-04-08T20:00:00.000Z","temp":34,"dewp":-2,"wdir":300,"wspd":6,"visib":"10+","altim":1010.6,"qcField":0,"metarType":"METAR","rawOb":"METAR KGYR 081947Z 30006KT 10SM SKC 34/M02 A2984","lat":33.428,"lon":-112.368,"elev":292,"name":"Phoenix/Goodyear Muni, AZ, US","cover":"SKC","clouds":[],"fltCat":"VFR"},{"icaoId":"KCHD","receiptTime":"2026-04-08T19:49:06.225Z","obsTime":1775677620,"reportTime":"2026-04-08T20:00:00.000Z","temp":33,"dewp":-1,"wdir":230,"wspd":3,"visib":"10+","altim":1010.9,"qcField":0,"metarType":"METAR","rawOb":"METAR KCHD 081947Z 23003KT 10SM CLR 33/M01 A2985","lat":33.2669,"lon":-111.8086,"elev":378,"name":"Chandler Muni, AZ, US","cover":"CLR","clouds":[],"fltCat":"VFR"},{"icaoId":"KTUS","receiptTime":"2026-04-08T19:42:07.598Z","obsTime":1775677080,"reportTime":"2026-04-08T19:38:00.000Z","temp":30,"dewp":-1.7,"wdir":"VRB","wspd":3,"visib":"10+","altim":1013.6,"qcField":4,"metarType":"SPECI","rawOb":"SPECI KTUS 081938Z VRB03KT 10SM CLR 30/M02 A2993 RMK AO2 T03001017","lat":32.1315,"lon":-110.9564,"elev":776,"name":"Tucson Intl Arpt, AZ, US","cover":"CLR","clouds":[],"fltCat":"VFR"},{"icaoId":"KSEZ","receiptTime":"2026-04-08T19:38:21.640Z","obsTime":1775676900,"reportTime":"2026-04-08T19:35:00.000Z","temp":28,"dewp":-7,"wdir":190,"wspd":10,"visib":"10+","altim":1018,"qcField":6,"metarType":"METAR","rawOb":"METAR KSEZ 081935Z AUTO 19010KT 10SM CLR 28/M07 A3006 RMK AO2","lat":34.8467,"lon":-111.7884,"elev":1455,"name":"Sedona Arpt, AZ, US","cover":"CLR","clouds":[],"fltCat":"VFR"},{"icaoId":"KHII","receiptTime":"2026-04-08T19:40:17.863Z","obsTime":1775676900,"reportTime":"2026-04-08T19:35:00.000Z","temp":34,"dewp":-2,"wdir":170,"wspd":8,"wgst":13,"visib":"10+","altim":1009.9,"qcField":6,"metarType":"METAR","rawOb":"METAR KHII 081935Z AUTO 17008G13KT 10SM CLR 34/M02 A2982 RMK AO2","lat":34.5659,"lon":-114.3522,"elev":241,"name":"Lake Havasu City Arpt, AZ, US","cover":"CLR","clouds":[],"fltCat":"VFR"},{"icaoId":"KSOW","receiptTime":"2026-04-08T19:38:13.319Z","obsTime":1775676900,"reportTime":"2026-04-08T19:35:00.000Z","temp":22,"dewp":-7,"wdir":200,"wspd":10,"wgst":15,"visib":"10+","altim":1020.7,"qcField":6,"metarType":"METAR","rawOb":"METAR KSOW 081935Z AUTO 20010G15KT 10SM SCT110 22/M07 A3014 RMK AO2","lat":34.2686,"lon":-110.0019,"elev":1954,"name":"Show Low Muni, AZ, US","cover":"SCT","clouds":[{"cover":"SCT","base":11000}],"fltCat":"VFR"},{"icaoId":"KIWA","receiptTime":"2026-04-08T19:00:38.659Z","obsTime":1775674680,"reportTime":"2026-04-08T19:00:00.000Z","temp":32,"dewp":-1,"wdir":330,"wspd":5,"visib":"10+","altim":1012.3,"qcField":0,"metarType":"METAR","rawOb":"METAR KIWA 081858Z 33005KT 10SM CLR 32/M01 A2989","lat":33.3008,"lon":-111.6437,"elev":420,"name":"Phoenix/Mesa Gateway Arpt, AZ, US","cover":"CLR","clouds":[],"fltCat":"VFR"},{"icaoId":"KFLG","receiptTime":"2026-04-08T19:00:29.972Z","obsTime":1775674620,"reportTime":"2026-04-08T19:00:00.000Z","temp":19.4,"dewp":-9.4,"wdir":200,"wspd":13,"wgst":20,"visib":"10+","altim":1021.8,"slp":1014.3,"qcField":4,"metarType":"METAR","rawOb":"METAR KFLG 081857Z 20013G20KT 10SM CLR 19/M09 A3017 RMK AO2 SLP143 T01941094","lat":35.1443,"lon":-111.6664,"elev":2134,"name":"Flagstaff/Pulliam Arpt, AZ, US","cover":"CLR","clouds":[],"fltCat":"VFR"},{"icaoId":"KNYL","receiptTime":"2026-04-08T19:00:29.427Z","obsTime":1775674620,"reportTime":"2026-04-08T19:00:00.000Z","temp":31.7,"dewp":5,"wdir":"VRB","wspd":5,"visib":"10+","altim":1009.9,"slp":1009.5,"qcField":4,"metarType":"METAR","rawOb":"METAR KNYL 081857Z VRB05KT 10SM CLR 32/05 A2982 RMK AO2 SLP095 T03170050","lat":32.66,"lon":-114.6078,"elev":58,"name":"Yuma , AZ, US","cover":"CLR","clouds":[],"fltCat":"VFR"},{"icaoId":"KDUG","receiptTime":"2026-04-08T19:02:12.096Z","obsTime":1775674560,"reportTime":"2026-04-08T19:00:00.000Z","temp":26.1,"dewp":-0.6,"wdir":150,"wspd":10,"wgst":15,"visib":"10+","altim":1017,"slp":1011.2,"qcField":38,"metarType":"METAR","rawOb":"METAR KDUG 081856Z AUTO 15010G15KT 10SM CLR 26/M01 A3003 RMK AO2 SLP112 T02611006 TSNO","lat":31.4725,"lon":-109.6022,"elev":1260,"name":"Douglas/Bisbee Intl, AZ, US","cover":"CLR","clouds":[],"fltCat":"VFR"},{"icaoId":"KCGZ","receiptTime":"2026-04-08T18:58:20.993Z","obsTime":1775674560,"reportTime":"2026-04-08T19:00:00.000Z","temp":31.7,"dewp":-1.7,"wdir":220,"wspd":3,"visib":"10+","altim":1012.3,"slp":1010.9,"qcField":14,"metarType":"METAR","rawOb":"METAR KCGZ 081856Z AUTO 22003KT 10SM CLR 32/M02 A2989 RMK AO2 SLP109 T03171017 $","lat":32.9531,"lon":-111.7725,"elev":444,"name":"Casa Granda Muni, AZ, US","cover":"CLR","clouds":[],"fltCat":"VFR"},{"icaoId":"KINW","receiptTime":"2026-04-08T19:00:24.329Z","obsTime":1775674560,"reportTime":"2026-04-08T19:00:00.000Z","temp":22.2,"dewp":-6.1,"wdir":0,"wspd":0,"visib":"10+","altim":1018.4,"slp":1012.9,"qcField":6,"metarType":"METAR","rawOb":"METAR KINW 081856Z AUTO 00000KT 10SM CLR 22/M06 A3007 RMK AO2 SLP129 T02221061","lat":35.0279,"lon":-110.7221,"elev":1492,"name":"Winslow/Lindberg Rgnl, AZ, US","cover":"CLR","clouds":[],"fltCat":"VFR"},{"icaoId":"KFFZ","receiptTime":"2026-04-08T18:58:15.061Z","obsTime":1775674440,"reportTime":"2026-04-08T19:00:00.000Z","temp":31.1,"dewp":-0.6,"wdir":200,"wspd":7,"visib":"10+","altim":1011.6,"slp":1009.3,"qcField":4,"metarType":"METAR","rawOb":"METAR KFFZ 081854Z 20007KT 10SM CLR 31/M01 A2987 RMK AO2 SLP093 T03111006","lat":33.4659,"lon":-111.7212,"elev":420,"name":"Mesa/Falcon Fld, AZ, US","cover":"CLR","clouds":[],"fltCat":"VFR"},{"icaoId":"KOLS","receiptTime":"2026-04-08T18:58:10.378Z","obsTime":1775674440,"reportTime":"2026-04-08T19:00:00.000Z","temp":26.7,"dewp":-2.2,"wdir":"VRB","wspd":3,"visib":"10+","altim":1016,"slp":1010.1,"qcField":6,"metarType":"METAR","rawOb":"METAR KOLS 081854Z AUTO VRB03KT 10SM CLR 27/M02 A3000 RMK AO2 SLP101 T02671022","lat":31.4208,"lon":-110.8465,"elev":1194,"name":"Nogales Intl, AZ, US","cover":"CLR","clouds":[],"fltCat":"VFR"},{"icaoId":"KSJN","receiptTime":"2026-04-08T18:58:08.710Z","obsTime":1775674440,"reportTime":"2026-04-08T19:00:00.000Z","temp":21.7,"dewp":-6.7,"wdir":"VRB","wspd":3,"visib":"10+","altim":1019,"slp":1012,"qcField":6,"metarType":"METAR","rawOb":"METAR KSJN 081854Z AUTO VRB03KT 10SM CLR 22/M07 A3009 RMK AO2 SLP120 T02171067","lat":34.5184,"lon":-109.3801,"elev":1747,"name":"St Johns Ind Arpt, AZ, US","cover":"CLR","clouds":[],"fltCat":"VFR"},{"icaoId":"KGCN","receiptTime":"2026-04-08T19:00:24.352Z","obsTime":1775674440,"reportTime":"2026-04-08T19:00:00.000Z","temp":19.4,"dewp":-9.4,"visib":"","altim":1021.1,"slp":1015.4,"qcField":5,"metarType":"METAR","rawOb":"METAR KGCN 081854Z COR 220/07G17KT 10M CLR 19/M09 A3015 RMK AO2 SLP154 T01941094","lat":35.9458,"lon":-112.1554,"elev":1993,"name":"Grand Canyon Park Arpt, AZ, US","cover":"CLR","clouds":[]},{"icaoId":"KDVT","receiptTime":"2026-04-08T18:56:28.608Z","obsTime":1775674380,"reportTime":"2026-04-08T19:00:00.000Z","temp":31.1,"dewp":0,"wdir":240,"wspd":9,"visib":"10+","altim":1011.9,"slp":1009.8,"qcField":4,"metarType":"METAR","rawOb":"METAR KDVT 081853Z 24009KT 10SM FEW110 31/00 A2988 RMK AO2 SLP098 T03110000","lat":33.6902,"lon":-112.0662,"elev":454,"name":"Phoenix/Deer Valley Arpt, AZ, US","cover":"FEW","clouds":[{"cover":"FEW","base":11000}],"fltCat":"VFR"},{"icaoId":"KPGA","receiptTime":"2026-04-08T18:56:28.433Z","obsTime":1775674380,"reportTime":"2026-04-08T19:00:00.000Z","temp":24.4,"dewp":-9.4,"wdir":"VRB","wspd":3,"visib":"10+","altim":1015.7,"slp":1009.9,"qcField":14,"metarType":"METAR","rawOb":"METAR KPGA 081853Z AUTO VRB03KT 10SM CLR 24/M09 A2999 RMK AO2 SLP099 T02441094 $","lat":36.9211,"lon":-111.4487,"elev":1310,"name":"Page Muni, AZ, US","cover":"CLR","clouds":[],"fltCat":"VFR"},{"icaoId":"KSDL","receiptTime":"2026-04-08T18:56:22.979Z","obsTime":1775674380,"reportTime":"2026-04-08T19:00:00.000Z","temp":31.1,"dewp":0.6,"visib":"10+","altim":1012.3,"slp":1009.7,"qcField":4,"metarType":"METAR","rawOb":"METAR KSDL 081853Z 10SM CLR 31/01 A2989 RMK AO2 SLP097 T03110006","lat":33.6123,"lon":-111.9232,"elev":438,"name":"Scottsdale Muni, AZ, US","cover":"CLR","clouds":[],"fltCat":"VFR"},{"icaoId":"KPRC","receiptTime":"2026-04-08T18:56:28.164Z","obsTime":1775674380,"reportTime":"2026-04-08T19:00:00.000Z","temp":23.9,"dewp":-6.7,"wdir":"VRB","wspd":6,"visib":"10+","altim":1018.4,"slp":1011.2,"qcField":4,"metarType":"METAR","rawOb":"METAR KPRC 081853Z VRB06KT 10SM CLR 24/M07 A3007 RMK AO2 SLP112 T02391067","lat":34.6491,"lon":-112.4223,"elev":1528,"name":"Prescott/Love Fld, AZ, US","cover":"CLR","clouds":[],"fltCat":"VFR"},{"icaoId":"KSAD","receiptTime":"2026-04-08T18:54:11.312Z","obsTime":1775674260,"reportTime":"2026-04-08T19:00:00.000Z","temp":27.2,"dewp":1.1,"wdir":0,"wspd":0,"visib":"10+","altim":1015,"slp":1010.3,"qcField":6,"metarType":"METAR","rawOb":"METAR KSAD 081851Z AUTO 00000KT 10SM CLR 27/01 A2997 RMK AO2 SLP103 T02720011","lat":32.8565,"lon":-109.636,"elev":937,"name":"Safford Rgnl, AZ, US","cover":"CLR","clouds":[],"fltCat":"VFR"},{"icaoId":"KIGM","receiptTime":"2026-04-08T18:54:10.828Z","obsTime":1775674260,"reportTime":"2026-04-08T19:00:00.000Z","temp":28.3,"dewp":-6.1,"wdir":220,"wspd":17,"wgst":31,"visib":"10+","altim":1015.3,"slp":1008.4,"qcField":6,"metarType":"METAR","rawOb":"METAR KIGM 081851Z AUTO 22017G31KT 10SM CLR 28/M06 A2998 RMK AO2 PK WND 25031/1838 SLP084 T02831061","lat":35.2575,"lon":-113.9341,"elev":1045,"name":"Kingman Arpt, AZ, US","cover":"CLR","clouds":[],"fltCat":"VFR"},{"icaoId":"KPHX","receiptTime":"2026-04-08T18:54:11.138Z","obsTime":1775674260,"reportTime":"2026-04-08T19:00:00.000Z","temp":32.8,"dewp":-1.1,"wdir":0,"wspd":0,"visib":"10+","altim":1011.3,"slp":1009.2,"qcField":4,"metarType":"METAR","rawOb":"METAR KPHX 081851Z 00000KT 10SM FEW110 33/M01 A2986 RMK AO2 SLP092 T03281011","lat":33.4278,"lon":-112.0037,"elev":338,"name":"Phoenix/Sky Harbor Intl, AZ, US","cover":"FEW","clouds":[{"cover":"FEW","base":11000}],"fltCat":"VFR"},{"icaoId":"KGEU","receiptTime":"2026-04-08T18:50:15.799Z","obsTime":1775674080,"reportTime":"2026-04-08T19:00:00.000Z","temp":31,"dewp":-3,"wdir":"VRB","wspd":4,"visib":"10+","altim":1010.9,"qcField":0,"metarType":"METAR","rawOb":"METAR KGEU 081848Z VRB04KT 10SM CLR 31/M03 A2985","lat":33.528,"lon":-112.293,"elev":319,"name":"Glendale Muni, AZ, US","cover":"CLR","clouds":[],"fltCat":"VFR"}]