[{"icaoId":"KGEU","receiptTime":"2026-04-10T21:50:38.108Z","obsTime":1775857680,"reportTime":"2026-04-10T22:00:00.000Z","temp":31,"dewp":1,"wdir":240,"wspd":11,"visib":"10+","altim":1010.6,"qcField":0,"metarType":"METAR","rawOb":"METAR KGEU 102148Z 24011KT 10SM OVC250 31/01 A2984","lat":33.528,"lon":-112.293,"elev":319,"name":"Glendale Muni, AZ, US","cover":"OVC","clouds":[{"cover":"OVC","base":25000}],"fltCat":"VFR"},{"icaoId":"KRYN","receiptTime":"2026-04-10T21:46:12.669Z","obsTime":1775857500,"reportTime":"2026-04-10T22:00:00.000Z","temp":33,"dewp":-7,"wdir":210,"wspd":15,"visib":"10+","altim":1012.3,"qcField":0,"metarType":"METAR","rawOb":"METAR KRYN 102145Z 21015KT 10SM CLR 33/M07 A2989","lat":32.1418,"lon":-111.1767,"elev":731,"name":"Tucson/Ryan Fld, AZ, US","cover":"CLR","clouds":[],"fltCat":"VFR"},{"icaoId":"KSOW","receiptTime":"2026-04-10T21:38:21.787Z","obsTime":1775856900,"reportTime":"2026-04-10T21:35:00.000Z","temp":21,"dewp":-4,"wdir":200,"wspd":17,"wgst":29,"visib":"10+","altim":1020.4,"qcField":6,"metarType":"METAR","rawOb":"METAR KSOW 102135Z AUTO 20017G29KT 10SM FEW090 21/M04 A3013 RMK AO2","lat":34.2686,"lon":-110.0019,"elev":1954,"name":"Show Low Muni, AZ, US","cover":"FEW","clouds":[{"cover":"FEW","base":9000}],"fltCat":"VFR"},{"icaoId":"KSEZ","receiptTime":"2026-04-10T21:40:45.034Z","obsTime":1775856900,"reportTime":"2026-04-10T21:35:00.000Z","temp":23,"dewp":-2,"wdir":230,"wspd":11,"wgst":23,"visib":"10+","altim":1017.4,"qcField":6,"metarType":"METAR","rawOb":"METAR KSEZ 102135Z AUTO 23011G23KT 180V260 10SM SCT090 23/M02 A3004 RMK AO2","lat":34.8467,"lon":-111.7884,"elev":1455,"name":"Sedona Arpt, AZ, US","cover":"SCT","clouds":[{"cover":"SCT","base":9000}],"fltCat":"VFR"},{"icaoId":"KHII","receiptTime":"2026-04-10T21:40:57.572Z","obsTime":1775856900,"reportTime":"2026-04-10T21:35:00.000Z","temp":32,"dewp":2,"wdir":150,"wspd":8,"wgst":19,"visib":"10+","altim":1009.9,"qcField":6,"metarType":"METAR","rawOb":"METAR KHII 102135Z AUTO 15008G19KT 10SM CLR 32/02 A2982 RMK AO2","lat":34.5659,"lon":-114.3522,"elev":241,"name":"Lake Havasu City Arpt, AZ, US","cover":"CLR","clouds":[],"fltCat":"VFR"},{"icaoId":"KFLG","receiptTime":"2026-04-10T21:01:11.412Z","obsTime":1775854620,"reportTime":"2026-04-10T21:00:00.000Z","temp":16.1,"dewp":-2.2,"wdir":210,"wspd":15,"wgst":24,"visib":"10+","altim":1021.1,"slp":1014.2,"qcField":4,"presTend":-1.1,"metarType":"METAR","rawOb":"METAR KFLG 102057Z 21015G24KT 10SM SCT065 16/M02 A3015 RMK AO2 PK WND 22027/2018 SLP142 T01611022 58011","lat":35.1443,"lon":-111.6664,"elev":2134,"name":"Flagstaff/Pulliam Arpt, AZ, US","cover":"SCT","clouds":[{"cover":"SCT","base":6500}],"fltCat":"VFR"},{"icaoId":"KNYL","receiptTime":"2026-04-10T21:01:09.393Z","obsTime":1775854620,"reportTime":"2026-04-10T21:00:00.000Z","temp":30.6,"dewp":6.7,"wdir":"VRB","wspd":4,"visib":"10+","altim":1010.9,"slp":1010.6,"qcField":4,"presTend":-2.3,"metarType":"METAR","rawOb":"METAR KNYL 102057Z VRB04KT 10SM FEW150 31/07 A2985 RMK AO2 SLP106 T03060067 58023","lat":32.66,"lon":-114.6078,"elev":58,"name":"Yuma , AZ, US","cover":"FEW","clouds":[{"cover":"FEW","base":15000}],"fltCat":"VFR"},{"icaoId":"KCGZ","receiptTime":"2026-04-10T20:58:19.510Z","obsTime":1775854560,"reportTime":"2026-04-10T21:00:00.000Z","temp":33.3,"dewp":-3.3,"wdir":200,"wspd":13,"wgst":18,"visib":"10+","altim":1012.3,"slp":1010.7,"qcField":14,"presTend":-2.3,"metarType":"METAR","rawOb":"METAR KCGZ 102056Z AUTO 20013G18KT 10SM CLR 33/M03 A2989 RMK AO2 SLP107 6//// T03331033 58023 $","lat":32.9531,"lon":-111.7725,"elev":444,"name":"Casa Granda Muni, AZ, US","cover":"CLR","clouds":[],"fltCat":"VFR"},{"icaoId":"KDUG","receiptTime":"2026-04-10T21:02:32.129Z","obsTime":1775854560,"reportTime":"2026-04-10T21:00:00.000Z","temp":27.8,"dewp":0.6,"visib":"10+","altim":1017,"slp":1010.6,"qcField":38,"presTend":-2.2,"metarType":"METAR","rawOb":"METAR KDUG 102056Z AUTO 10SM FEW100 28/01 A3003 RMK AO2 SLP106 T02780006 58022 TSNO","lat":31.4725,"lon":-109.6022,"elev":1260,"name":"Douglas/Bisbee Intl, AZ, US","cover":"FEW","clouds":[{"cover":"FEW","base":10000}],"fltCat":"VFR"},{"icaoId":"KIFP","receiptTime":"2026-04-10T20:56:45.259Z","obsTime":1775854560,"reportTime":"2026-04-10T21:00:00.000Z","temp":32,"dewp":1,"wdir":160,"wspd":16,"visib":20,"altim":1008.9,"qcField":0,"metarType":"METAR","rawOb":"METAR KIFP 102056Z 16016KT 20SM SCT100 32/01 A2979","lat":35.1487,"lon":-114.5611,"elev":210,"name":"Bullhead City Intl, AZ, US","cover":"SCT","clouds":[{"cover":"SCT","base":10000}],"fltCat":"VFR"},{"icaoId":"KINW","receiptTime":"2026-04-10T21:00:12.724Z","obsTime":1775854560,"reportTime":"2026-04-10T21:00:00.000Z","temp":25,"dewp":-5,"wdir":210,"wspd":10,"wgst":24,"visib":"10+","altim":1017.4,"slp":1011.5,"qcField":6,"presTend":-2.1,"metarType":"METAR","rawOb":"METAR KINW 102056Z AUTO 21010G24KT 10SM CLR 25/M05 A3004 RMK AO2 PK WND 24028/2033 SLP115 T02501050 58021","lat":35.0279,"lon":-110.7221,"elev":1492,"name":"Winslow/Lindberg Rgnl, AZ, US","cover":"CLR","clouds":[],"fltCat":"VFR"},{"icaoId":"KLUF","receiptTime":"2026-04-10T21:02:26.348Z","obsTime":1775854500,"reportTime":"2026-04-10T21:00:00.000Z","temp":31.7,"dewp":-0.1,"wdir":200,"wspd":8,"wgst":17,"visib":"10+","altim":1011.3,"slp":1009.8,"qcField":12,"presTend":-1.8,"metarType":"METAR","rawOb":"METAR KLUF 102055Z 20008G17KT 10SM FEW120 SCT150 BKN190 32/M00 A2986 RMK AO2A SLP098 T03171001 57018 $","lat":33.538,"lon":-112.38,"elev":333,"name":"Phoenix/Luke AFB, AZ, US","cover":"BKN","clouds":[{"cover":"FEW","base":12000},{"cover":"SCT","base":15000},{"cover":"BKN","base":19000}],"fltCat":"VFR"},{"icaoId":"KSJN","receiptTime":"2026-04-10T20:58:10.284Z","obsTime":1775854440,"reportTime":"2026-04-10T21:00:00.000Z","temp":23.3,"dewp":-3.9,"wdir":230,"wspd":10,"wgst":23,"visib":"10+","altim":1018,"slp":1010.4,"qcField":6,"presTend":-2.2,"metarType":"METAR","rawOb":"METAR KSJN 102054Z AUTO 23010G23KT 200V290 10SM CLR 23/M04 A3006 RMK AO2 SLP104 T02331039 58022","lat":34.5184,"lon":-109.3801,"elev":1747,"name":"St Johns Ind Arpt, AZ, US","cover":"CLR","clouds":[],"fltCat":"VFR"},{"icaoId":"KFFZ","receiptTime":"2026-04-10T20:58:20.857Z","obsTime":1775854440,"reportTime":"2026-04-10T21:00:00.000Z","temp":31.1,"dewp":-1.1,"wdir":210,"wspd":11,"wgst":16,"visib":"10+","altim":1012.3,"slp":1009.8,"qcField":4,"presTend":-1.8,"metarType":"METAR","rawOb":"METAR KFFZ 102054Z 21011G16KT 10SM CLR 31/M01 A2989 RMK AO2 SLP098 T03111011 57018","lat":33.4659,"lon":-111.7212,"elev":420,"name":"Mesa/Falcon Fld, AZ, US","cover":"CLR","clouds":[],"fltCat":"VFR"},{"icaoId":"KGCN","receiptTime":"2026-04-10T20:58:06.811Z","obsTime":1775854440,"reportTime":"2026-04-10T21:00:00.000Z","temp":19.4,"dewp":-1.7,"wdir":190,"wspd":15,"wgst":25,"visib":"10+","altim":1019.4,"slp":1011.6,"qcField":4,"presTend":-1.4,"metarType":"METAR","rawOb":"METAR KGCN 102054Z 19015G25KT 10SM FEW075 19/M02 A3010 RMK AO2 SLP116 T01941017 58014","lat":35.9458,"lon":-112.1554,"elev":1993,"name":"Grand Canyon Park Arpt, AZ, US","cover":"FEW","clouds":[{"cover":"FEW","base":7500}],"fltCat":"VFR"},{"icaoId":"KOLS","receiptTime":"2026-04-10T20:58:10.089Z","obsTime":1775854440,"reportTime":"2026-04-10T21:00:00.000Z","temp":28.9,"dewp":1.7,"wdir":200,"wspd":13,"visib":"10+","altim":1016.3,"slp":1010.1,"qcField":6,"presTend":-1.7,"metarType":"METAR","rawOb":"METAR KOLS 102054Z AUTO 20013KT 10SM BKN100 29/02 A3001 RMK AO2 PK WND 19026/1955 SLP101 T02890017 56017","lat":31.4208,"lon":-110.8465,"elev":1194,"name":"Nogales Intl, AZ, US","cover":"BKN","clouds":[{"cover":"BKN","base":10000}],"fltCat":"VFR"},{"icaoId":"KTUS","receiptTime":"2026-04-10T20:56:29.613Z","obsTime":1775854380,"reportTime":"2026-04-10T21:00:00.000Z","temp":30.6,"dewp":-1.1,"wdir":280,"wspd":7,"visib":"10+","altim":1014,"slp":1009.4,"qcField":4,"presTend":-2.4,"metarType":"METAR","rawOb":"METAR KTUS 102053Z 28007KT 10SM CLR 31/M01 A2994 RMK AO2 SLP094 T03061011 58024","lat":32.1315,"lon":-110.9564,"elev":776,"name":"Tucson Intl Arpt, AZ, US","cover":"CLR","clouds":[],"fltCat":"VFR"},{"icaoId":"KPGA","receiptTime":"2026-04-10T20:56:35.954Z","obsTime":1775854380,"reportTime":"2026-04-10T21:00:00.000Z","temp":23.9,"dewp":-3.3,"wdir":190,"wspd":12,"wgst":21,"visib":"10+","altim":1014.6,"slp":1008.9,"qcField":6,"presTend":-1.7,"metarType":"METAR","rawOb":"METAR KPGA 102053Z AUTO 19012G21KT 10SM CLR 24/M03 A2996 RMK AO2 PK WND 20028/2029 SLP089 T02391033 58017","lat":36.9211,"lon":-111.4487,"elev":1310,"name":"Page Muni, AZ, US","cover":"CLR","clouds":[],"fltCat":"VFR"},{"icaoId":"KPRC","receiptTime":"2026-04-10T20:56:35.997Z","obsTime":1775854380,"reportTime":"2026-04-10T21:00:00.000Z","temp":22.2,"dewp":-1.7,"wdir":200,"wspd":11,"wgst":22,"visib":"10+","altim":1018,"slp":1011.5,"qcField":4,"presTend":-1,"metarType":"METAR","rawOb":"METAR KPRC 102053Z 20011G22KT 10SM CLR 22/M02 A3006 RMK AO2 PK WND 19027/2031 SLP115 T02221017 58010","lat":34.6491,"lon":-112.4223,"elev":1528,"name":"Prescott/Love Fld, AZ, US","cover":"CLR","clouds":[],"fltCat":"VFR"},{"icaoId":"KSDL","receiptTime":"2026-04-10T20:56:33.231Z","obsTime":1775854380,"reportTime":"2026-04-10T21:00:00.000Z","temp":31.1,"dewp":1.1,"visib":"10+","altim":1013,"slp":1010.4,"qcField":4,"presTend":-1.6,"metarType":"METAR","rawOb":"METAR KSDL 102053Z 10SM CLR 31/01 A2991 RMK AO2 SLP104 T03110011 58016","lat":33.6123,"lon":-111.9232,"elev":438,"name":"Scottsdale Muni, AZ, US","cover":"CLR","clouds":[],"fltCat":"VFR"},{"icaoId":"KDVT","receiptTime":"2026-04-10T20:56:27.685Z","obsTime":1775854380,"reportTime":"2026-04-10T21:00:00.000Z","temp":30.6,"dewp":1.1,"wdir":230,"wspd":9,"visib":"10+","altim":1012.6,"slp":1010.5,"qcField":4,"presTend":-1.5,"metarType":"METAR","rawOb":"METAR KDVT 102053Z 23009KT 10SM CLR 31/01 A2990 RMK AO2 SLP105 T03060011 58015","lat":33.6902,"lon":-112.0662,"elev":454,"name":"Phoenix/Deer Valley Arpt, AZ, US","cover":"CLR","clouds":[],"fltCat":"VFR"},{"icaoId":"KIGM","receiptTime":"2026-04-10T20:54:06.021Z","obsTime":1775854260,"reportTime":"2026-04-10T21:00:00.000Z","temp":25.6,"dewp":0,"wdir":210,"wspd":22,"wgst":37,"visib":"10+","altim":1014.3,"slp":1007.8,"qcField":6,"presTend":-1.2,"metarType":"METAR","rawOb":"METAR KIGM 102051Z AUTO 21022G37KT 10SM CLR 26/00 A2995 RMK AO2 PK WND 22037/2042 SLP078 T02560000 58012","lat":35.2575,"lon":-113.9341,"elev":1045,"name":"Kingman Arpt, AZ, US","cover":"CLR","clouds":[],"fltCat":"VFR"},{"icaoId":"KPHX","receiptTime":"2026-04-10T20:54:06.358Z","obsTime":1775854260,"reportTime":"2026-04-10T21:00:00.000Z","temp":31.1,"dewp":1.1,"wdir":160,"wspd":3,"visib":"10+","altim":1011.6,"slp":1009.8,"qcField":4,"presTend":-1.7,"metarType":"METAR","rawOb":"METAR KPHX 102051Z 16003KT 10SM FEW210 BKN250 BKN290 31/01 A2987 RMK AO2 SLP098 T03110011 58017","lat":33.4278,"lon":-112.0037,"elev":338,"name":"Phoenix/Sky Harbor Intl, AZ, US","cover":"BKN","clouds":[{"cover":"FEW","base":21000},{"cover":"BKN","base":25000},{"cover":"BKN","base":29000}],"fltCat":"VFR"},{"icaoId":"KSAD","receiptTime":"2026-04-10T20:54:06.102Z","obsTime":1775854260,"reportTime":"2026-04-10T21:00:00.000Z","temp":29.4,"dewp":-2.8,"wdir":"VRB","wspd":3,"visib":"10+","altim":1014,"slp":1009,"qcField":6,"presTend":-2.4,"metarType":"METAR","rawOb":"METAR KSAD 102051Z AUTO VRB03KT 10SM CLR 29/M03 A2994 RMK AO2 SLP090 T02941028 58024","lat":32.8565,"lon":-109.636,"elev":937,"name":"Safford Rgnl, AZ, US","cover":"CLR","clouds":[],"fltCat":"VFR"},{"icaoId":"KIWA","receiptTime":"2026-04-10T20:52:00.991Z","obsTime":1775854200,"reportTime":"2026-04-10T21:00:00.000Z","temp":32,"dewp":1,"wdir":270,"wspd":9,"visib":"10+","altim":1012.6,"qcField":0,"metarType":"METAR","rawOb":"METAR KIWA 102050Z 27009KT 10SM CLR 32/01 A2990","lat":33.3008,"lon":-111.6437,"elev":420,"name":"Phoenix/Mesa Gateway Arpt, AZ, US","cover":"CLR","clouds":[],"fltCat":"VFR"},{"icaoId":"KCHD","receiptTime":"2026-04-10T20:48:10.662Z","obsTime":1775854020,"reportTime":"2026-04-10T21:00:00.000Z","temp":32,"dewp":0,"wdir":240,"wspd":10,"visib":"10+","altim":1012.3,"qcField":0,"metarType":"METAR","rawOb":"METAR KCHD 102047Z 24010KT 10SM FEW250 32/00 A2989","lat":33.2669,"lon":-111.8086,"elev":378,"name":"Chandler Muni, AZ, US","cover":"FEW","clouds":[{"cover":"FEW","base":25000}],"fltCat":"VFR"}]