[{"icaoId":"KSOW","receiptTime":"2026-04-10T15:57:11.066Z","obsTime":1775836500,"reportTime":"2026-04-10T16:00:00.000Z","temp":16,"dewp":-3,"wdir":170,"wspd":6,"visib":"10+","altim":1022.8,"qcField":6,"metarType":"METAR","rawOb":"METAR KSOW 101555Z AUTO 17006KT 10SM CLR 16/M03 A3020 RMK AO2","lat":34.2686,"lon":-110.0019,"elev":1954,"name":"Show Low Muni, AZ, US","cover":"CLR","clouds":[],"fltCat":"VFR"},{"icaoId":"KGCN","receiptTime":"2026-04-10T15:57:11.947Z","obsTime":1775836440,"reportTime":"2026-04-10T16:00:00.000Z","temp":12.8,"dewp":-2.2,"wdir":180,"wspd":7,"visib":"10+","altim":1020.7,"slp":1013.8,"qcField":4,"metarType":"METAR","rawOb":"METAR KGCN 101554Z 18007KT 10SM CLR 13/M02 A3014 RMK AO2 SLP138 T01281022","lat":35.9458,"lon":-112.1554,"elev":1993,"name":"Grand Canyon Park Arpt, AZ, US","cover":"CLR","clouds":[],"fltCat":"VFR"},{"icaoId":"KSJN","receiptTime":"2026-04-10T15:57:12.225Z","obsTime":1775836440,"reportTime":"2026-04-10T16:00:00.000Z","temp":15,"dewp":-2.2,"wdir":0,"wspd":0,"visib":"10+","altim":1020.7,"slp":1013.9,"qcField":6,"metarType":"METAR","rawOb":"METAR KSJN 101554Z AUTO 00000KT 10SM FEW100 15/M02 A3014 RMK AO2 SLP139 T01501022","lat":34.5184,"lon":-109.3801,"elev":1747,"name":"St Johns Ind Arpt, AZ, US","cover":"FEW","clouds":[{"cover":"FEW","base":10000}],"fltCat":"VFR"},{"icaoId":"KOLS","receiptTime":"2026-04-10T15:57:07.868Z","obsTime":1775836440,"reportTime":"2026-04-10T16:00:00.000Z","temp":20.6,"dewp":1.1,"wdir":0,"wspd":0,"visib":"10+","altim":1018.4,"slp":1012.3,"qcField":6,"metarType":"METAR","rawOb":"METAR KOLS 101554Z AUTO 00000KT 10SM CLR 21/01 A3007 RMK AO2 SLP123 T02060011","lat":31.4208,"lon":-110.8465,"elev":1194,"name":"Nogales Intl, AZ, US","cover":"CLR","clouds":[],"fltCat":"VFR"},{"icaoId":"KFFZ","receiptTime":"2026-04-10T15:57:12.501Z","obsTime":1775836440,"reportTime":"2026-04-10T16:00:00.000Z","temp":25.6,"dewp":-0.6,"wdir":130,"wspd":6,"visib":"10+","altim":1013.6,"slp":1011.2,"qcField":4,"metarType":"METAR","rawOb":"METAR KFFZ 101554Z 13006KT 10SM CLR 26/M01 A2993 RMK AO2 SLP112 T02561006","lat":33.4659,"lon":-111.7212,"elev":420,"name":"Mesa/Falcon Fld, AZ, US","cover":"CLR","clouds":[],"fltCat":"VFR"},{"icaoId":"KTUS","receiptTime":"2026-04-10T15:56:31.506Z","obsTime":1775836380,"reportTime":"2026-04-10T16:00:00.000Z","temp":23.3,"dewp":1.1,"wdir":270,"wspd":6,"visib":"10+","altim":1016.7,"slp":1012.3,"qcField":4,"metarType":"METAR","rawOb":"METAR KTUS 101553Z 27006KT 10SM CLR 23/01 A3002 RMK AO2 SLP123 T02330011","lat":32.1315,"lon":-110.9564,"elev":776,"name":"Tucson Intl Arpt, AZ, US","cover":"CLR","clouds":[],"fltCat":"VFR"},{"icaoId":"KSDL","receiptTime":"2026-04-10T15:56:28.924Z","obsTime":1775836380,"reportTime":"2026-04-10T16:00:00.000Z","temp":24.4,"dewp":1.7,"wdir":170,"wspd":4,"visib":"10+","altim":1014.3,"slp":1011.8,"qcField":4,"metarType":"METAR","rawOb":"METAR KSDL 101553Z 17004KT 10SM CLR 24/02 A2995 RMK AO2 SLP118 T02440017","lat":33.6123,"lon":-111.9232,"elev":438,"name":"Scottsdale Muni, AZ, US","cover":"CLR","clouds":[],"fltCat":"VFR"},{"icaoId":"KPRC","receiptTime":"2026-04-10T15:56:33.207Z","obsTime":1775836380,"reportTime":"2026-04-10T16:00:00.000Z","temp":18.3,"dewp":1.1,"wdir":200,"wspd":6,"visib":"10+","altim":1018.7,"slp":1012.2,"qcField":4,"metarType":"METAR","rawOb":"METAR KPRC 101553Z 20006KT 10SM CLR 18/01 A3008 RMK AO2 SLP122 T01830011","lat":34.6491,"lon":-112.4223,"elev":1528,"name":"Prescott/Love Fld, AZ, US","cover":"CLR","clouds":[],"fltCat":"VFR"},{"icaoId":"KPGA","receiptTime":"2026-04-10T15:56:33.020Z","obsTime":1775836380,"reportTime":"2026-04-10T16:00:00.000Z","temp":21.1,"dewp":-3.9,"wdir":200,"wspd":6,"wgst":16,"visib":"10+","altim":1016.3,"slp":1010.4,"qcField":6,"metarType":"METAR","rawOb":"METAR KPGA 101553Z AUTO 20006G16KT 10SM CLR 21/M04 A3001 RMK AO2 SLP104 T02111039","lat":36.9211,"lon":-111.4487,"elev":1310,"name":"Page Muni, AZ, US","cover":"CLR","clouds":[],"fltCat":"VFR"},{"icaoId":"KDVT","receiptTime":"2026-04-10T15:56:34.426Z","obsTime":1775836380,"reportTime":"2026-04-10T16:00:00.000Z","temp":24.4,"dewp":-0.6,"wdir":140,"wspd":6,"visib":"10+","altim":1014,"slp":1011.5,"qcField":4,"metarType":"METAR","rawOb":"METAR KDVT 101553Z 14006KT 10SM CLR 24/M01 A2994 RMK AO2 SLP115 T02441006","lat":33.6902,"lon":-112.0662,"elev":454,"name":"Phoenix/Deer Valley Arpt, AZ, US","cover":"CLR","clouds":[],"fltCat":"VFR"},{"icaoId":"KPHX","receiptTime":"2026-04-10T15:54:08.396Z","obsTime":1775836260,"reportTime":"2026-04-10T16:00:00.000Z","temp":25,"dewp":2.2,"wdir":140,"wspd":7,"visib":"10+","altim":1013,"slp":1011,"qcField":4,"metarType":"METAR","rawOb":"METAR KPHX 101551Z 14007KT 10SM FEW210 BKN250 BKN290 25/02 A2991 RMK AO2 SLP110 T02500022","lat":33.4278,"lon":-112.0037,"elev":338,"name":"Phoenix/Sky Harbor Intl, AZ, US","cover":"BKN","clouds":[{"cover":"FEW","base":21000},{"cover":"BKN","base":25000},{"cover":"BKN","base":29000}],"fltCat":"VFR"},{"icaoId":"KSAD","receiptTime":"2026-04-10T15:54:08.573Z","obsTime":1775836260,"reportTime":"2026-04-10T16:00:00.000Z","temp":21.1,"dewp":-3.9,"wdir":110,"wspd":4,"visib":"10+","altim":1016.3,"slp":1012,"qcField":6,"metarType":"METAR","rawOb":"METAR KSAD 101551Z AUTO 11004KT 10SM CLR 21/M04 A3001 RMK AO2 SLP120 T02111039","lat":32.8565,"lon":-109.636,"elev":937,"name":"Safford Rgnl, AZ, US","cover":"CLR","clouds":[],"fltCat":"VFR"},{"icaoId":"KIGM","receiptTime":"2026-04-10T15:54:10.225Z","obsTime":1775836260,"reportTime":"2026-04-10T16:00:00.000Z","temp":21.1,"dewp":3.9,"wdir":240,"wspd":12,"visib":"10+","altim":1015,"slp":1009,"qcField":6,"metarType":"METAR","rawOb":"METAR KIGM 101551Z AUTO 24012KT 10SM CLR 21/04 A2997 RMK AO2 SLP090 T02110039","lat":35.2575,"lon":-113.9341,"elev":1045,"name":"Kingman Arpt, AZ, US","cover":"CLR","clouds":[],"fltCat":"VFR"},{"icaoId":"KIWA","receiptTime":"2026-04-10T15:53:19.763Z","obsTime":1775836200,"reportTime":"2026-04-10T16:00:00.000Z","temp":25,"dewp":0,"wdir":140,"wspd":5,"visib":"10+","altim":1014.3,"qcField":0,"metarType":"METAR","rawOb":"METAR KIWA 101550Z 14005KT 10SM CLR 25/00 A2995","lat":33.3008,"lon":-111.6437,"elev":420,"name":"Phoenix/Mesa Gateway Arpt, AZ, US","cover":"CLR","clouds":[],"fltCat":"VFR"},{"icaoId":"KIFP","receiptTime":"2026-04-10T15:51:10.158Z","obsTime":1775836140,"reportTime":"2026-04-10T16:00:00.000Z","temp":25,"dewp":6,"wdir":180,"wspd":9,"visib":20,"altim":1010.9,"qcField":0,"metarType":"METAR","rawOb":"METAR KIFP 101549Z 18009KT 20SM BKN100 25/06 A2985","lat":35.1487,"lon":-114.5611,"elev":210,"name":"Bullhead City Intl, AZ, US","cover":"BKN","clouds":[{"cover":"BKN","base":10000}],"fltCat":"VFR"},{"icaoId":"KGYR","receiptTime":"2026-04-10T15:48:56.141Z","obsTime":1775836020,"reportTime":"2026-04-10T16:00:00.000Z","temp":25,"dewp":3,"wdir":0,"wspd":0,"visib":"10+","altim":1013.3,"qcField":0,"metarType":"METAR","rawOb":"METAR KGYR 101547Z 00000KT 10SM BKN250 25/03 A2992","lat":33.428,"lon":-112.368,"elev":292,"name":"Phoenix/Goodyear Muni, AZ, US","cover":"BKN","clouds":[{"cover":"BKN","base":25000}],"fltCat":"VFR"},{"icaoId":"KCHD","receiptTime":"2026-04-10T15:51:36.992Z","obsTime":1775836020,"reportTime":"2026-04-10T16:00:00.000Z","temp":26,"dewp":3,"wdir":190,"wspd":7,"visib":"10+","altim":1013.6,"qcField":0,"metarType":"METAR","rawOb":"METAR KCHD 101547Z 19007KT 10SM FEW250 26/03 A2993","lat":33.2669,"lon":-111.8086,"elev":378,"name":"Chandler Muni, AZ, US","cover":"FEW","clouds":[{"cover":"FEW","base":25000}],"fltCat":"VFR"},{"icaoId":"KRYN","receiptTime":"2026-04-10T15:46:47.359Z","obsTime":1775835900,"reportTime":"2026-04-10T16:00:00.000Z","temp":24,"dewp":-2,"wdir":0,"wspd":0,"visib":"10+","altim":1015.7,"qcField":0,"metarType":"METAR","rawOb":"METAR KRYN 101545Z 00000KT 10SM CLR 24/M02 A2999","lat":32.1418,"lon":-111.1767,"elev":731,"name":"Tucson/Ryan Fld, AZ, US","cover":"CLR","clouds":[],"fltCat":"VFR"},{"icaoId":"KHII","receiptTime":"2026-04-10T15:42:06.313Z","obsTime":1775835300,"reportTime":"2026-04-10T15:35:00.000Z","temp":25,"dewp":7,"wdir":0,"wspd":0,"visib":"10+","altim":1011.6,"qcField":6,"metarType":"METAR","rawOb":"METAR KHII 101535Z AUTO 00000KT 10SM CLR 25/07 A2987 RMK AO2","lat":34.5659,"lon":-114.3522,"elev":241,"name":"Lake Havasu City Arpt, AZ, US","cover":"CLR","clouds":[],"fltCat":"VFR"},{"icaoId":"KSEZ","receiptTime":"2026-04-10T15:40:58.355Z","obsTime":1775835300,"reportTime":"2026-04-10T15:35:00.000Z","temp":17,"dewp":-3,"wdir":0,"wspd":0,"visib":"10+","altim":1019,"qcField":6,"metarType":"METAR","rawOb":"METAR KSEZ 101535Z AUTO 00000KT 10SM CLR 17/M03 A3009 RMK AO2","lat":34.8467,"lon":-111.7884,"elev":1455,"name":"Sedona Arpt, AZ, US","cover":"CLR","clouds":[],"fltCat":"VFR"},{"icaoId":"KFLG","receiptTime":"2026-04-10T15:00:51.655Z","obsTime":1775833020,"reportTime":"2026-04-10T15:00:00.000Z","temp":5,"dewp":-2.8,"wdir":0,"wspd":0,"visib":"10+","altim":1021.4,"slp":1015.6,"qcField":12,"presTend":1.1,"metarType":"METAR","rawOb":"METAR KFLG 101457Z 00000KT 10SM CLR 05/M03 A3016 RMK AO2 SLP156 T00501028 51011 $","lat":35.1443,"lon":-111.6664,"elev":2134,"name":"Flagstaff/Pulliam Arpt, AZ, US","cover":"CLR","clouds":[],"fltCat":"VFR"},{"icaoId":"KNYL","receiptTime":"2026-04-10T15:00:48.673Z","obsTime":1775833020,"reportTime":"2026-04-10T15:00:00.000Z","temp":22.8,"dewp":8.3,"wdir":0,"wspd":0,"visib":"10+","altim":1012.3,"slp":1011.7,"qcField":4,"presTend":1.8,"metarType":"METAR","rawOb":"METAR KNYL 101457Z 00000KT 10SM SCT100 BKN170 23/08 A2989 RMK AO2 SLP117 T02280083 53018","lat":32.66,"lon":-114.6078,"elev":58,"name":"Yuma , AZ, US","cover":"BKN","clouds":[{"cover":"SCT","base":10000},{"cover":"BKN","base":17000}],"fltCat":"VFR"},{"icaoId":"KCGZ","receiptTime":"2026-04-10T14:58:32.032Z","obsTime":1775832960,"reportTime":"2026-04-10T15:00:00.000Z","temp":21.7,"dewp":-0.6,"wdir":0,"wspd":0,"visib":"10+","altim":1014,"slp":1012.6,"qcField":14,"presTend":1.6,"metarType":"METAR","rawOb":"METAR KCGZ 101456Z AUTO 00000KT 10SM CLR 22/M01 A2994 RMK AO2 SLP126 6//// T02171006 53016 $","lat":32.9531,"lon":-111.7725,"elev":444,"name":"Casa Granda Muni, AZ, US","cover":"CLR","clouds":[],"fltCat":"VFR"},{"icaoId":"KDUG","receiptTime":"2026-04-10T15:02:09.756Z","obsTime":1775832960,"reportTime":"2026-04-10T15:00:00.000Z","temp":13.9,"dewp":-0.6,"wdir":280,"wspd":5,"visib":"10+","altim":1019,"slp":1013.6,"qcField":38,"presTend":1.5,"metarType":"METAR","rawOb":"METAR KDUG 101456Z AUTO 28005KT 10SM CLR 14/M01 A3009 RMK AO2 SLP136 T01391006 53015 TSNO","lat":31.4725,"lon":-109.6022,"elev":1260,"name":"Douglas/Bisbee Intl, AZ, US","cover":"CLR","clouds":[],"fltCat":"VFR"},{"icaoId":"KINW","receiptTime":"2026-04-10T15:00:09.761Z","obsTime":1775832960,"reportTime":"2026-04-10T15:00:00.000Z","temp":11.1,"dewp":-0.6,"wdir":130,"wspd":7,"visib":"10+","altim":1019.4,"slp":1015.2,"qcField":6,"presTend":1.3,"metarType":"METAR","rawOb":"METAR KINW 101456Z AUTO 13007KT 10SM CLR 11/M01 A3010 RMK AO2 SLP152 T01111006 53013","lat":35.0279,"lon":-110.7221,"elev":1492,"name":"Winslow/Lindberg Rgnl, AZ, US","cover":"CLR","clouds":[],"fltCat":"VFR"},{"icaoId":"KLUF","receiptTime":"2026-04-10T15:12:12.391Z","obsTime":1775832900,"reportTime":"2026-04-10T15:00:00.000Z","temp":22.3,"dewp":0.2,"wdir":0,"wspd":0,"visib":"10+","altim":1012.3,"slp":1011,"qcField":14,"presTend":1.9,"metarType":"METAR","rawOb":"METAR KLUF 101455Z AUTO 00000KT 10SM CLR 22/00 A2989 RMK AO2 SLP110 T02230002 52019 $","lat":33.538,"lon":-112.38,"elev":333,"name":"Phoenix/Luke AFB, AZ, US","cover":"CLR","clouds":[],"fltCat":"VFR"},{"icaoId":"KGEU","receiptTime":"2026-04-10T14:51:25.652Z","obsTime":1775832420,"reportTime":"2026-04-10T15:00:00.000Z","temp":22,"dewp":1,"wdir":0,"wspd":0,"visib":"10+","altim":1012.3,"qcField":0,"metarType":"METAR","rawOb":"METAR KGEU 101447Z 00000KT 10SM CLR 22/01 A2989","lat":33.528,"lon":-112.293,"elev":319,"name":"Glendale Muni, AZ, US","cover":"CLR","clouds":[],"fltCat":"VFR"}]