[{"icaoId":"KBRO","receiptTime":"2026-04-18T03:42:02.846Z","obsTime":1776483600,"reportTime":"2026-04-18T03:40:00.000Z","temp":25.6,"dewp":22.8,"wdir":150,"wspd":15,"visib":"10+","altim":1011.6,"qcField":4,"metarType":"SPECI","rawOb":"SPECI KBRO 180340Z 15015KT 10SM BKN013 OVC020 26/23 A2987 RMK AO2 T02560228 ","lat":25.9146,"lon":-97.4231,"elev":6,"name":"Brownsville Intl, TX, US","cover":"OVC","clouds":[{"cover":"BKN","base":1300},{"cover":"OVC","base":2000}],"fltCat":"MVFR"},{"icaoId":"KTUL","receiptTime":"2026-04-18T03:40:16.147Z","obsTime":1776483420,"reportTime":"2026-04-18T03:37:00.000Z","temp":16.7,"dewp":15.6,"wdir":340,"wspd":16,"wgst":24,"visib":3,"altim":1008.9,"qcField":4,"wxString":"+TSRA BR","precip":0.03,"metarType":"SPECI","rawOb":"SPECI KTUL 180337Z 34016G24KT 3SM +TSRA BR FEW012 BKN035CB OVC040 17/16 A2979 RMK AO2 PK WND 30029/0315 RAB16 TSB0254 OCNL LTGICCCCG ALQDS TS ALQDS MOV E P0003 T01670156","lat":36.1985,"lon":-95.8782,"elev":196,"name":"Tulsa Intl Arpt, OK, US","cover":"OVC","clouds":[{"cover":"FEW","base":1200},{"cover":"BKN","base":3500},{"cover":"OVC","base":4000}],"fltCat":"MVFR"},{"icaoId":"KMEV","receiptTime":"2026-04-18T03:40:08.649Z","obsTime":1776483300,"reportTime":"2026-04-18T03:35:00.000Z","temp":8,"dewp":-11,"wdir":320,"wspd":9,"visib":"10+","altim":1019.7,"qcField":6,"metarType":"METAR","rawOb":"METAR KMEV 180335Z AUTO 32009KT 10SM CLR 08/M11 A3011 RMK AO2","lat":38.9963,"lon":-119.75,"elev":1437,"name":"Minden-Tahoe Arpt, NV, US","cover":"CLR","clouds":[],"fltCat":"VFR"},{"icaoId":"KAEG","receiptTime":"2026-04-18T03:40:11.824Z","obsTime":1776483300,"reportTime":"2026-04-18T03:35:00.000Z","temp":7,"dewp":-21.3,"wdir":360,"wspd":8,"visib":"10+","altim":1019.4,"qcField":6,"metarType":"METAR","rawOb":"METAR KAEG 180335Z AUTO 36008KT 10SM CLR 07/M21 A3010 RMK AO2 T00701213","lat":35.15,"lon":-106.7929,"elev":1771,"name":"Albuquerque/Double Eagle Arpt, NM, US","cover":"CLR","clouds":[],"fltCat":"VFR"},{"icaoId":"KLRU","receiptTime":"2026-04-18T03:38:49.587Z","obsTime":1776483300,"reportTime":"2026-04-18T03:35:00.000Z","temp":17.5,"dewp":-8.8,"wdir":290,"wspd":6,"visib":"10+","altim":1014.6,"qcField":6,"metarType":"METAR","rawOb":"METAR KLRU 180335Z AUTO 29006KT 10SM CLR 18/M09 A2996 RMK AO2 T01751088","lat":32.2884,"lon":-106.9131,"elev":1355,"name":"Las Cruces Intl, NM, US","cover":"CLR","clouds":[],"fltCat":"VFR"},{"icaoId":"KBJC","receiptTime":"2026-04-18T03:38:53.037Z","obsTime":1776483300,"reportTime":"2026-04-18T03:35:00.000Z","temp":0,"dewp":-2,"wdir":160,"wspd":4,"visib":"10+","altim":1020.7,"qcField":6,"metarType":"METAR","rawOb":"METAR KBJC 180335Z AUTO 16004KT 10SM CLR 00/M02 A3014 RMK AO2","lat":39.9008,"lon":-105.1042,"elev":1694,"name":"Rocky Mtn Metro, CO, US","cover":"CLR","clouds":[],"fltCat":"VFR"},{"icaoId":"KHTH","receiptTime":"2026-04-18T03:40:12.471Z","obsTime":1776483300,"reportTime":"2026-04-18T03:35:00.000Z","temp":10,"dewp":-16,"wdir":180,"wspd":5,"visib":"10+","altim":1019.7,"qcField":6,"metarType":"METAR","rawOb":"METAR KHTH 180335Z AUTO 18005KT 10SM CLR 10/M16 A3011 RMK A01","lat":38.5448,"lon":-118.6314,"elev":1281,"name":"Hawthorne Muni, NV, US","cover":"CLR","clouds":[],"fltCat":"VFR"},{"icaoId":"KRTS","receiptTime":"2026-04-18T03:40:09.768Z","obsTime":1776483300,"reportTime":"2026-04-18T03:35:00.000Z","wdir":0,"wspd":0,"visib":"","altim":1020.4,"qcField":134,"metarType":"METAR","rawOb":"METAR KRTS 180335Z AUTO 00000KT A3013 RMK AO2 PWINO","lat":39.6658,"lon":-119.8731,"elev":1537,"name":"Reno/Stead Arpt, NV, US"},{"icaoId":"KCXP","receiptTime":"2026-04-18T03:40:06.394Z","obsTime":1776483300,"reportTime":"2026-04-18T03:35:00.000Z","temp":11,"dewp":-21,"wdir":50,"wspd":10,"visib":"10+","altim":1020.4,"qcField":6,"metarType":"METAR","rawOb":"METAR KCXP 180335Z AUTO 05010KT 10SM CLR 11/M21 A3013 RMK AO2","lat":39.1905,"lon":-119.7319,"elev":1431,"name":"Carson City Arpt, NV, US","cover":"CLR","clouds":[],"fltCat":"VFR"},{"icaoId":"KHAF","receiptTime":"2026-04-18T03:38:59.757Z","obsTime":1776483300,"reportTime":"2026-04-18T03:35:00.000Z","temp":12,"dewp":11,"wdir":340,"wspd":9,"visib":9,"altim":1017.4,"qcField":6,"metarType":"METAR","rawOb":"METAR KHAF 180335Z AUTO 34009KT 9SM CLR 12/11 A3004 RMK AO2","lat":37.5136,"lon":-122.4996,"elev":11,"name":"Half Moon Bay Arpt, CA, US","cover":"CLR","clouds":[],"fltCat":"VFR"},{"icaoId":"KMHR","receiptTime":"2026-04-18T03:40:07.924Z","obsTime":1776483300,"reportTime":"2026-04-18T03:35:00.000Z","temp":15,"dewp":6,"wdir":150,"wspd":5,"visib":"10+","altim":1015.3,"qcField":6,"metarType":"METAR","rawOb":"METAR KMHR 180335Z AUTO 15005KT 10SM CLR 15/06 A2998 RMK AO2","lat":38.56,"lon":-121.284,"elev":30,"name":"Sacramento/Mather Fld, CA, US","cover":"CLR","clouds":[],"fltCat":"VFR"},{"icaoId":"KSEZ","receiptTime":"2026-04-18T03:40:09.960Z","obsTime":1776483300,"reportTime":"2026-04-18T03:35:00.000Z","temp":12,"dewp":-17,"wdir":50,"wspd":18,"wgst":27,"visib":"10+","altim":1017.4,"qcField":6,"metarType":"METAR","rawOb":"METAR KSEZ 180335Z AUTO 05018G27KT 10SM CLR 12/M17 A3004 RMK AO2","lat":34.8467,"lon":-111.7884,"elev":1455,"name":"Sedona Arpt, AZ, US","cover":"CLR","clouds":[],"fltCat":"VFR"},{"icaoId":"KHOB","receiptTime":"2026-04-18T03:38:59.921Z","obsTime":1776483300,"reportTime":"2026-04-18T03:35:00.000Z","temp":19,"dewp":-7,"wdir":260,"wspd":9,"visib":"10+","altim":1011.9,"qcField":6,"metarType":"METAR","rawOb":"METAR KHOB 180335Z AUTO 26009KT 10SM CLR 19/M07 A2988 RMK AO2","lat":32.6797,"lon":-103.2222,"elev":1112,"name":"Hobbs Arpt, NM, US","cover":"CLR","clouds":[],"fltCat":"VFR"},{"icaoId":"KSOW","receiptTime":"2026-04-18T03:38:45.356Z","obsTime":1776483300,"reportTime":"2026-04-18T03:35:00.000Z","temp":8,"dewp":-10,"wdir":320,"wspd":5,"visib":"10+","altim":1020.4,"qcField":6,"metarType":"METAR","rawOb":"METAR KSOW 180335Z AUTO 32005KT 10SM CLR 08/M10 A3013 RMK AO2","lat":34.2686,"lon":-110.0019,"elev":1954,"name":"Show Low Muni, AZ, US","cover":"CLR","clouds":[],"fltCat":"VFR"},{"icaoId":"KHCR","receiptTime":"2026-04-18T03:38:59.839Z","obsTime":1776483300,"reportTime":"2026-04-18T03:35:00.000Z","temp":-0.6,"dewp":-11.3,"wdir":130,"wspd":3,"visib":"10+","altim":1022.8,"qcField":14,"metarType":"METAR","rawOb":"METAR KHCR 180335Z AUTO 13003KT 10SM CLR M01/M11 A3020 RMK AO2 T10061113 $","lat":40.4774,"lon":-111.4329,"elev":1708,"name":"Heber City Muni, UT, US","cover":"CLR","clouds":[],"fltCat":"VFR"},{"icaoId":"KIFP","receiptTime":"2026-04-18T03:40:06.471Z","obsTime":1776483300,"reportTime":"2026-04-18T03:35:00.000Z","temp":21,"dewp":-15,"wdir":360,"wspd":21,"visib":"10+","altim":1014,"qcField":6,"metarType":"METAR","rawOb":"METAR KIFP 180335Z AUTO 36021KT 10SM CLR 21/M15 A2994 RMK AO2","lat":35.1487,"lon":-114.5611,"elev":210,"name":"Bullhead City Intl, AZ, US","cover":"CLR","clouds":[],"fltCat":"VFR"},{"icaoId":"KBVU","receiptTime":"2026-04-18T03:38:51.789Z","obsTime":1776483300,"reportTime":"2026-04-18T03:35:00.000Z","temp":17,"dewp":-22,"wdir":10,"wspd":12,"visib":"10+","altim":1017,"qcField":6,"metarType":"METAR","rawOb":"METAR KBVU 180335Z AUTO 01012KT 10SM CLR 17/M22 A3003 RMK AO2","lat":35.9489,"lon":-114.8633,"elev":654,"name":"Boulder City Muni, NV, US","cover":"CLR","clouds":[],"fltCat":"VFR"},{"icaoId":"KSTL","receiptTime":"2026-04-18T03:38:58.263Z","obsTime":1776483240,"reportTime":"2026-04-18T03:34:00.000Z","temp":22.8,"dewp":16.7,"wdir":220,"wspd":15,"wgst":24,"visib":5,"altim":1006.5,"qcField":13,"wxString":"RA","precip":0.04,"metarType":"SPECI","rawOb":"SPECI KSTL 180334Z COR 22015G24KT 5SM RA FEW045 BKN065 OVC095 23/17 A2972 RMK AO2 RAB0257E06B25 TSB16E33 P0004 T02280167 $","lat":38.7525,"lon":-90.3734,"elev":163,"name":"St Louis/Lambert Intl, MO, US","cover":"OVC","clouds":[{"cover":"FEW","base":4500},{"cover":"BKN","base":6500},{"cover":"OVC","base":9500}],"fltCat":"MVFR"},{"icaoId":"KMFE","receiptTime":"2026-04-18T03:32:09.410Z","obsTime":1776482880,"reportTime":"2026-04-18T03:28:00.000Z","temp":25.6,"dewp":21.1,"wdir":140,"wspd":12,"wgst":24,"visib":"10+","altim":1010.9,"qcField":4,"metarType":"SPECI","rawOb":"SPECI KMFE 180328Z 14012G24KT 10SM BKN019 26/21 A2985 RMK AO2 T02560211","lat":26.1791,"lon":-98.2445,"elev":29,"name":"McAllen/Miller Intl, TX, US","cover":"BKN","clouds":[{"cover":"BKN","base":1900}],"fltCat":"MVFR"},{"icaoId":"KMDW","receiptTime":"2026-04-18T03:30:17.275Z","obsTime":1776482820,"reportTime":"2026-04-18T03:27:00.000Z","temp":16.7,"dewp":15.6,"wdir":250,"wspd":14,"wgst":25,"visib":2,"altim":1005.2,"qcField":4,"wxString":"+TSRA BR","precip":0.65,"metarType":"SPECI","rawOb":"SPECI KMDW 180327Z 25014G25KT 2SM +TSRA BR FEW017 OVC030CB 17/16 A2968 RMK AO2 PK WND 26046/0300 WSHFT 0249 FRQ LTGICCCCG OHD TS OHD MOV NE P0065 T01670156","lat":41.7841,"lon":-87.7552,"elev":186,"name":"Chicago/Midway Intl, IL, US","cover":"OVC","clouds":[{"cover":"FEW","base":1700},{"cover":"OVC","base":3000}],"fltCat":"IFR"},{"icaoId":"KROW","receiptTime":"2026-04-18T03:30:17.292Z","obsTime":1776482820,"reportTime":"2026-04-18T03:27:00.000Z","temp":21.1,"dewp":-7.2,"wdir":330,"wspd":10,"visib":"10+","altim":1011.3,"qcField":12,"metarType":"SPECI","rawOb":"SPECI KROW 180327Z 33010KT 10SM CLR 21/M07 A2986 RMK AO2 WSHFT 0307 T02111072 $","lat":33.3074,"lon":-104.5082,"elev":1105,"name":"Roswell/Ind Arpt, NM, US","cover":"CLR","clouds":[],"fltCat":"VFR"},{"icaoId":"KORD","receiptTime":"2026-04-18T03:26:17.241Z","obsTime":1776482520,"reportTime":"2026-04-18T03:22:00.000Z","temp":17.2,"dewp":15.6,"wdir":240,"wspd":10,"wgst":16,"visib":5,"altim":1004.1,"qcField":12,"wxString":"-TSRA BR","precip":0.11,"metarType":"SPECI","rawOb":"SPECI KORD 180322Z 24010G16KT 5SM -TSRA BR FEW010 SCT040CB OVC085 17/16 A2965 RMK AO2 WSHFT 0239 CONS LTGICCG NE-S TS NE-S MOV NE P0011 T01720156 $","lat":41.9602,"lon":-87.9316,"elev":202,"name":"Chicago/O'Hare Intl, IL, US","cover":"OVC","clouds":[{"cover":"FEW","base":1000},{"cover":"SCT","base":4000},{"cover":"OVC","base":8500}],"fltCat":"MVFR"},{"icaoId":"KOKC","receiptTime":"2026-04-18T03:20:09.743Z","obsTime":1776482160,"reportTime":"2026-04-18T03:16:00.000Z","temp":16.1,"dewp":10.6,"wdir":350,"wspd":31,"wgst":46,"visib":"10+","altim":1009.9,"qcField":4,"wxString":"-TSRA","precip":0.005,"metarType":"SPECI","rawOb":"SPECI KOKC 180316Z 35031G46KT 10SM -TSRA FEW017 OVC026CB 16/11 A2982 RMK AO2 PK WND 33046/0311 WSHFT 0252 RAB15 TSB15 FROPA CONS LTGICCC W-N-NE TS W-N-NE MOV SE P0000 T01610106","lat":35.3843,"lon":-97.6003,"elev":391,"name":"Oklahoma City/Will Rogers Intl, OK, US","cover":"OVC","clouds":[{"cover":"FEW","base":1700},{"cover":"OVC","base":2600}],"fltCat":"MVFR"},{"icaoId":"KHII","receiptTime":"2026-04-18T03:20:12.811Z","obsTime":1776482100,"reportTime":"2026-04-18T03:15:00.000Z","temp":22,"dewp":-17,"wdir":330,"wspd":13,"wgst":19,"visib":"10+","altim":1013.6,"qcField":6,"metarType":"METAR","rawOb":"METAR KHII 180315Z AUTO 33013G19KT 10SM CLR 22/M17 A2993 RMK AO2","lat":34.5659,"lon":-114.3522,"elev":241,"name":"Lake Havasu City Arpt, AZ, US","cover":"CLR","clouds":[],"fltCat":"VFR"},{"icaoId":"KEWR","receiptTime":"2026-04-18T03:16:05.373Z","obsTime":1776481980,"reportTime":"2026-04-18T03:13:00.000Z","temp":14.4,"dewp":12.2,"wdir":140,"wspd":9,"visib":"10+","altim":1016.7,"qcField":4,"metarType":"SPECI","rawOb":"SPECI KEWR 180313Z 14009KT 10SM FEW008 FEW050 SCT100 14/12 A3002 RMK AO2 T01440122","lat":40.6828,"lon":-74.1692,"elev":2,"name":"Newark Intl, NJ, US","cover":"SCT","clouds":[{"cover":"FEW","base":800},{"cover":"FEW","base":5000},{"cover":"SCT","base":10000}],"fltCat":"VFR"},{"icaoId":"KHRL","receiptTime":"2026-04-18T03:16:05.385Z","obsTime":1776481980,"reportTime":"2026-04-18T03:13:00.000Z","temp":24.4,"dewp":21.7,"wdir":150,"wspd":18,"wgst":24,"visib":"10+","altim":1010.9,"qcField":4,"metarType":"SPECI","rawOb":"SPECI KHRL 180313Z 15018G24KT 10SM BKN020 24/22 A2985 RMK AO2 T02440217","lat":26.2303,"lon":-97.6556,"elev":9,"name":"Harlingen/Valley Intl, TX, US","cover":"BKN","clouds":[{"cover":"BKN","base":2000}],"fltCat":"MVFR"},{"icaoId":"KSWO","receiptTime":"2026-04-18T03:10:04.781Z","obsTime":1776481620,"reportTime":"2026-04-18T03:07:00.000Z","temp":14.4,"dewp":12.2,"wdir":10,"wspd":13,"wgst":24,"visib":9,"altim":1010.2,"qcField":6,"wxString":"VCTS -RA","precip":0.01,"metarType":"SPECI","rawOb":"SPECI KSWO 180307Z AUTO 01013G24KT 9SM VCTS -RA SCT028 BKN050 OVC100 14/12 A2983 RMK AO2 PK WND 01027/0255 WSHFT 0240 LTG DSNT ALQDS TSE01 P0001 T01440122","lat":36.1624,"lon":-97.0832,"elev":293,"name":"Stillwater Muni, OK, US","cover":"OVC","clouds":[{"cover":"SCT","base":2800},{"cover":"BKN","base":5000},{"cover":"OVC","base":10000}],"fltCat":"VFR"},{"icaoId":"KJFK","receiptTime":"2026-04-18T03:08:38.022Z","obsTime":1776481440,"reportTime":"2026-04-18T03:04:00.000Z","temp":12.8,"dewp":11.1,"wdir":100,"wspd":9,"visib":"10+","altim":1016.7,"qcField":4,"metarType":"SPECI","rawOb":"SPECI KJFK 180304Z 10009KT 10SM SCT007 SCT060 13/11 A3002 RMK AO2 T01280111","lat":40.6392,"lon":-73.7639,"elev":3,"name":"New York/JF Kennedy Intl, NY, US","cover":"SCT","clouds":[{"cover":"SCT","base":700},{"cover":"SCT","base":6000}],"fltCat":"VFR"},{"icaoId":"KNYL","receiptTime":"2026-04-18T03:00:17.909Z","obsTime":1776481020,"reportTime":"2026-04-18T03:00:00.000Z","temp":23.9,"dewp":-10.6,"wdir":350,"wspd":7,"visib":"10+","altim":1011.9,"slp":1011.7,"qcField":4,"presTend":0.2,"metarType":"METAR","rawOb":"METAR KNYL 180257Z 35007KT 10SM CLR 24/M11 A2988 RMK AO2 SLP117 T02391106 53002","lat":32.66,"lon":-114.6078,"elev":58,"name":"Yuma , AZ, US","cover":"CLR","clouds":[],"fltCat":"VFR"},{"icaoId":"KFLG","receiptTime":"2026-04-18T03:00:19.122Z","obsTime":1776481020,"reportTime":"2026-04-18T03:00:00.000Z","temp":5,"dewp":-19.4,"wdir":80,"wspd":7,"visib":"10+","altim":1020.4,"slp":1015.9,"qcField":4,"presTend":1.3,"metarType":"METAR","rawOb":"METAR KFLG 180257Z 08007KT 10SM CLR 05/M19 A3013 RMK AO2 SLP159 T00501194 52013","lat":35.1443,"lon":-111.6664,"elev":2134,"name":"Flagstaff/Pulliam Arpt, AZ, US","cover":"CLR","clouds":[],"fltCat":"VFR"},{"icaoId":"KNFL","receiptTime":"2026-04-18T03:00:17.920Z","obsTime":1776481020,"reportTime":"2026-04-18T03:00:00.000Z","temp":8.3,"dewp":-14.4,"wdir":30,"wspd":5,"visib":"10+","altim":1019.4,"slp":1015.9,"qcField":4,"presTend":-0.4,"metarType":"METAR","rawOb":"METAR KNFL 180257Z 03005KT 10SM FEW200 BKN250 08/M14 A3010 RMK AO2 SLP159 T00831144 55004","lat":39.417,"lon":-118.705,"elev":1199,"name":"Fallon , NV, US","cover":"BKN","clouds":[{"cover":"FEW","base":20000},{"cover":"BKN","base":25000}],"fltCat":"VFR"},{"icaoId":"KSLE","receiptTime":"2026-04-18T03:00:15.375Z","obsTime":1776480960,"reportTime":"2026-04-18T03:00:00.000Z","temp":11.1,"dewp":2.8,"wdir":350,"wspd":6,"visib":"10+","altim":1019.7,"slp":1019.6,"qcField":4,"presTend":-1.5,"metarType":"METAR","rawOb":"METAR KSLE 180256Z 35006KT 10SM CLR 11/03 A3011 RMK AO2 SLP196 T01110028 58015","lat":44.9049,"lon":-123.001,"elev":63,"name":"Salem Muni, OR, US","cover":"CLR","clouds":[],"fltCat":"VFR"},{"icaoId":"KEGE","receiptTime":"2026-04-18T02:59:09.391Z","obsTime":1776480960,"reportTime":"2026-04-18T03:00:00.000Z","temp":-1.7,"dewp":-7.8,"wdir":110,"wspd":4,"visib":"10+","altim":1022.1,"slp":1024.1,"qcField":68,"presTend":1.3,"metarType":"METAR","rawOb":"METAR KEGE 180256Z 11004KT 10SM CLR M02/M08 A3018 RMK AO2 SLP241 T10171078 53013 FZRANO","lat":39.6448,"lon":-106.9176,"elev":1993,"name":"Eagle Cnty Rgnl, CO, US","cover":"CLR","clouds":[],"fltCat":"VFR"},{"icaoId":"KSDY","receiptTime":"2026-04-18T02:59:09.011Z","obsTime":1776480960,"reportTime":"2026-04-18T03:00:00.000Z","temp":-3.9,"dewp":-11.7,"wdir":330,"wspd":4,"visib":"10+","altim":1018.4,"slp":1021.7,"qcField":78,"presTend":1,"metarType":"METAR","rawOb":"METAR KSDY 180256Z AUTO 33004KT 10SM CLR M04/M12 A3007 RMK AO2 SLP217 T10391117 53010 FZRANO $","lat":47.7029,"lon":-104.1951,"elev":600,"name":"Sidney/Richland Muni, MT, US","cover":"CLR","clouds":[],"fltCat":"VFR"},{"icaoId":"KCGZ","receiptTime":"2026-04-18T02:59:05.559Z","obsTime":1776480960,"reportTime":"2026-04-18T03:00:00.000Z","temp":24.4,"dewp":-1.7,"wdir":310,"wspd":5,"visib":"10+","altim":1011.6,"slp":1010.6,"qcField":14,"metarType":"METAR","rawOb":"METAR KCGZ 180256Z AUTO 31005KT 10SM CLR 24/M02 A2987 RMK AO2 SLP106 6//// T02441017 $","lat":32.9531,"lon":-111.7725,"elev":444,"name":"Casa Granda Muni, AZ, US","cover":"CLR","clouds":[],"fltCat":"VFR"},{"icaoId":"KPWT","receiptTime":"2026-04-18T02:59:08.775Z","obsTime":1776480960,"reportTime":"2026-04-18T03:00:00.000Z","temp":11.1,"dewp":2.2,"wdir":0,"wspd":0,"visib":"10+","altim":1022.1,"slp":1022.5,"qcField":6,"presTend":-1.6,"metarType":"METAR","rawOb":"METAR KPWT 180256Z AUTO 00000KT 10SM CLR 11/02 A3018 RMK AO2 SLP225 T01110022 56016","lat":47.4942,"lon":-122.7594,"elev":143,"name":"Bremerton Arpt, WA, US","cover":"CLR","clouds":[],"fltCat":"VFR"},{"icaoId":"KTPH","receiptTime":"2026-04-18T03:00:16.006Z","obsTime":1776480960,"reportTime":"2026-04-18T03:00:00.000Z","temp":6.7,"dewp":-22.2,"wdir":270,"wspd":7,"visib":"10+","altim":1020.1,"slp":1020,"qcField":6,"presTend":-0.1,"metarType":"METAR","rawOb":"METAR KTPH 180256Z AUTO 27007KT 10SM CLR 07/M22 A3012 RMK AO2 SLP200 T00671222 55001","lat":38.0505,"lon":-117.0906,"elev":1647,"name":"Tonopah Arpt, NV, US","cover":"CLR","clouds":[],"fltCat":"VFR"},{"icaoId":"KUKI","receiptTime":"2026-04-18T03:00:15.245Z","obsTime":1776480960,"reportTime":"2026-04-18T03:00:00.000Z","temp":17.2,"dewp":0.6,"wdir":"VRB","wspd":3,"visib":"10+","altim":1016.3,"slp":1015.8,"qcField":6,"presTend":0.6,"metarType":"METAR","rawOb":"METAR KUKI 180256Z AUTO VRB03KT 10SM CLR 17/01 A3001 RMK AO2 SLP158 T01720006 53006","lat":39.1278,"lon":-123.2001,"elev":183,"name":"Ukiah Muni, CA, US","cover":"CLR","clouds":[],"fltCat":"VFR"},{"icaoId":"KSBP","receiptTime":"2026-04-18T03:00:15.318Z","obsTime":1776480960,"reportTime":"2026-04-18T03:00:00.000Z","temp":15,"dewp":-1.7,"wdir":320,"wspd":8,"visib":"10+","altim":1016,"slp":1015.7,"qcField":4,"presTend":-0.1,"metarType":"METAR","rawOb":"METAR KSBP 180256Z 32008KT 10SM CLR 15/M02 A3000 RMK AO2 SLP157 T01501017 55001","lat":35.2381,"lon":-120.644,"elev":52,"name":"San Luis Obispo/San Luis Cnty, CA, US","cover":"CLR","clouds":[],"fltCat":"VFR"},{"icaoId":"KHND","receiptTime":"2026-04-18T02:59:08.468Z","obsTime":1776480960,"reportTime":"2026-04-18T03:00:00.000Z","temp":16.7,"dewp":-18.3,"wdir":60,"wspd":5,"visib":"10+","altim":1018.4,"slp":1019.1,"qcField":12,"presTend":-0.3,"metarType":"METAR","rawOb":"METAR KHND 180256Z 06005KT 10SM CLR 17/M18 A3007 RMK AO2 SLP191 T01671183 55003 $","lat":35.9657,"lon":-115.1343,"elev":740,"name":"Henderson Exec, NV, US","cover":"CLR","clouds":[],"fltCat":"VFR"},{"icaoId":"KSDF","receiptTime":"2026-04-18T03:00:06.913Z","obsTime":1776480960,"reportTime":"2026-04-18T03:00:00.000Z","temp":24.4,"dewp":15.6,"wdir":200,"wspd":8,"visib":"10+","altim":1012.6,"slp":1011.8,"qcField":4,"presTend":1.7,"metarType":"METAR","rawOb":"METAR KSDF 180256Z 20008KT 10SM FEW150 OVC250 24/16 A2990 RMK AO2 SLP118 T02440156 53017","lat":38.1774,"lon":-85.7308,"elev":146,"name":"Louisville Intl, KY, US","cover":"OVC","clouds":[{"cover":"FEW","base":15000},{"cover":"OVC","base":25000}],"fltCat":"VFR"},{"icaoId":"KPVU","receiptTime":"2026-04-18T02:59:08.739Z","obsTime":1776480960,"reportTime":"2026-04-18T03:00:00.000Z","temp":5,"dewp":-10,"wdir":10,"wspd":4,"visib":"10+","altim":1023.1,"slp":1023.8,"qcField":4,"presTend":0.3,"metarType":"METAR","rawOb":"METAR KPVU 180256Z 01004KT 10SM CLR 05/M10 A3021 RMK AO2 SLP238 T00501100 53003","lat":40.224,"lon":-111.7252,"elev":1370,"name":"Provo Muni, UT, US","cover":"CLR","clouds":[],"fltCat":"VFR"},{"icaoId":"KDUG","receiptTime":"2026-04-18T03:02:11.560Z","obsTime":1776480960,"reportTime":"2026-04-18T03:00:00.000Z","temp":18.9,"dewp":-1.1,"wdir":320,"wspd":11,"wgst":17,"visib":"10+","altim":1014.6,"slp":1009,"qcField":38,"presTend":1.2,"metarType":"METAR","rawOb":"METAR KDUG 180256Z AUTO 32011G17KT 10SM CLR 19/M01 A2996 RMK AO2 SLP090 T01891011 53012 TSNO","lat":31.4725,"lon":-109.6022,"elev":1260,"name":"Douglas/Bisbee Intl, AZ, US","cover":"CLR","clouds":[],"fltCat":"VFR"},{"icaoId":"KCEC","receiptTime":"2026-04-18T03:00:07.219Z","obsTime":1776480960,"reportTime":"2026-04-18T03:00:00.000Z","temp":10.6,"dewp":8.3,"wdir":330,"wspd":5,"visib":"10+","altim":1019.4,"slp":1019.2,"qcField":6,"presTend":-0.2,"metarType":"METAR","rawOb":"METAR KCEC 180256Z AUTO 33005KT 10SM CLR 11/08 A3010 RMK AO2 SLP192 T01060083 55002","lat":41.7836,"lon":-124.238,"elev":17,"name":"Crescent City/McNama, CA, US","cover":"CLR","clouds":[],"fltCat":"VFR"},{"icaoId":"KENV","receiptTime":"2026-04-18T02:59:09.453Z","obsTime":1776480960,"reportTime":"2026-04-18T03:00:00.000Z","temp":7.2,"dewp":-16.7,"wdir":180,"wspd":5,"visib":"10+","altim":1022.8,"slp":1024,"qcField":6,"presTend":0.1,"metarType":"METAR","rawOb":"METAR KENV 180256Z AUTO 18005KT 10SM CLR 07/M17 A3020 RMK AO2 SLP240 T00721167 53001","lat":40.7211,"lon":-114.0312,"elev":1291,"name":"Wendover Arpt, UT, US","cover":"CLR","clouds":[],"fltCat":"VFR"},{"icaoId":"KHDN","receiptTime":"2026-04-18T02:59:08.384Z","obsTime":1776480960,"reportTime":"2026-04-18T03:00:00.000Z","temp":-1.7,"dewp":-8.3,"wdir":280,"wspd":5,"visib":"10+","altim":1021.1,"slp":1024.7,"qcField":70,"presTend":0.9,"metarType":"METAR","rawOb":"METAR KHDN 180256Z AUTO 28005KT 10SM FEW060 OVC085 M02/M08 A3015 RMK AO2 SLP247 T10171083 53009 FZRANO","lat":40.4842,"lon":-107.2296,"elev":2012,"name":"Hayden/Yampa Valley Arpt, CO, US","cover":"OVC","clouds":[{"cover":"FEW","base":6000},{"cover":"OVC","base":8500}],"fltCat":"VFR"},{"icaoId":"KINW","receiptTime":"2026-04-18T03:00:07.409Z","obsTime":1776480960,"reportTime":"2026-04-18T03:00:00.000Z","temp":10,"dewp":-17.2,"wdir":310,"wspd":8,"visib":"10+","altim":1019,"slp":1016,"qcField":6,"presTend":1.5,"metarType":"METAR","rawOb":"METAR KINW 180256Z AUTO 31008KT 10SM CLR 10/M17 A3009 RMK AO2 SLP160 T01001172 53015","lat":35.0279,"lon":-110.7221,"elev":1492,"name":"Winslow/Lindberg Rgnl, AZ, US","cover":"CLR","clouds":[],"fltCat":"VFR"},{"icaoId":"KJAC","receiptTime":"2026-04-18T02:59:06.818Z","obsTime":1776480960,"reportTime":"2026-04-18T03:00:00.000Z","temp":-4.4,"dewp":-7.2,"wdir":180,"wspd":6,"visib":"10+","altim":1021.1,"slp":1026.2,"qcField":4,"presTend":0.8,"precip":0.005,"pcp3hr":0.005,"metarType":"METAR","rawOb":"METAR KJAC 180256Z 18006KT 10SM FEW032 SCT060 M04/M07 A3015 RMK AO2 SNE22 SLP262 P0000 60000 T10441072 53008","lat":43.6129,"lon":-110.7366,"elev":1967,"name":"Jackson Hole Arpt, WY, US","cover":"SCT","clouds":[{"cover":"FEW","base":3200},{"cover":"SCT","base":6000}],"fltCat":"VFR"},{"icaoId":"KVIS","receiptTime":"2026-04-18T02:59:03.564Z","obsTime":1776480960,"reportTime":"2026-04-18T03:00:00.000Z","temp":20,"dewp":3.9,"wdir":350,"wspd":3,"visib":"10+","altim":1015.3,"slp":1015.2,"qcField":14,"presTend":-0.5,"metarType":"METAR","rawOb":"METAR KVIS 180256Z AUTO 35003KT 10SM CLR 20/04 A2998 RMK AO2 SLP152 6//// T02000039 55005 PNO $","lat":36.3135,"lon":-119.3884,"elev":92,"name":"Visalia Muni, CA, US","cover":"CLR","clouds":[],"fltCat":"VFR"},{"icaoId":"KJAX","receiptTime":"2026-04-18T03:00:15.661Z","obsTime":1776480960,"reportTime":"2026-04-18T03:00:00.000Z","temp":22.2,"dewp":12.2,"wdir":200,"wspd":4,"visib":"10+","altim":1016,"slp":1015.8,"qcField":12,"presTend":0.9,"metarType":"METAR","rawOb":"METAR KJAX 180256Z 20004KT 10SM SCT050 22/12 A3000 RMK AO2 SLP158 FU SCT050 T02220122 51009 $","lat":30.4953,"lon":-81.6937,"elev":8,"name":"Jacksonville Intl, FL, US","cover":"SCT","clouds":[{"cover":"SCT","base":5000}],"fltCat":"VFR"},{"icaoId":"KSFO","receiptTime":"2026-04-18T03:00:15.357Z","obsTime":1776480960,"reportTime":"2026-04-18T03:00:00.000Z","temp":14.4,"dewp":3.9,"wdir":290,"wspd":14,"visib":"10+","altim":1017,"slp":1016.7,"qcField":12,"presTend":-0.2,"metarType":"METAR","rawOb":"METAR KSFO 180256Z 29014KT 10SM SCT180 BKN200 14/04 A3003 RMK AO2 SLP167 T01440039 55002 $","lat":37.6196,"lon":-122.3656,"elev":2,"name":"San Francisco Intl, CA, US","cover":"BKN","clouds":[{"cover":"SCT","base":18000},{"cover":"BKN","base":20000}],"fltCat":"VFR"},{"icaoId":"KSGU","receiptTime":"2026-04-18T02:59:04.474Z","obsTime":1776480960,"reportTime":"2026-04-18T03:00:00.000Z","temp":15,"dewp":-13.3,"wdir":70,"wspd":9,"visib":"10+","altim":1018,"slp":1017.1,"qcField":6,"presTend":-0.1,"metarType":"METAR","rawOb":"METAR KSGU 180256Z AUTO 07009KT 10SM CLR 15/M13 A3006 RMK AO2 SLP171 T01501133 55001","lat":37.0444,"lon":-113.5034,"elev":877,"name":"Saint George Muni, UT, US","cover":"CLR","clouds":[],"fltCat":"VFR"},{"icaoId":"KCOD","receiptTime":"2026-04-18T02:59:05.734Z","obsTime":1776480960,"reportTime":"2026-04-18T03:00:00.000Z","temp":0,"dewp":-7.8,"wdir":260,"wspd":12,"wgst":17,"visib":"10+","altim":1020.1,"slp":1022,"qcField":78,"presTend":1.6,"metarType":"METAR","rawOb":"METAR KCOD 180256Z AUTO 26012G17KT 10SM CLR 00/M08 A3012 RMK AO2 SLP220 T00001078 51016 FZRANO $","lat":44.52,"lon":-109.0268,"elev":1550,"name":"Cody/Yellowstone Rgnl, WY, US","cover":"CLR","clouds":[],"fltCat":"VFR"},{"icaoId":"KRDM","receiptTime":"2026-04-18T03:00:13.708Z","obsTime":1776480960,"reportTime":"2026-04-18T03:00:00.000Z","temp":10.6,"dewp":-6.7,"wdir":360,"wspd":6,"visib":"10+","altim":1019.4,"slp":1020,"qcField":4,"presTend":-0.5,"metarType":"METAR","rawOb":"METAR KRDM 180256Z 36006KT 10SM CLR 11/M07 A3010 RMK AO2 SLP200 T01061067 56005","lat":44.2558,"lon":-121.1407,"elev":930,"name":"Redmond Muni, OR, US","cover":"CLR","clouds":[],"fltCat":"VFR"},{"icaoId":"KLWS","receiptTime":"2026-04-18T03:00:15.447Z","obsTime":1776480960,"reportTime":"2026-04-18T03:00:00.000Z","temp":10,"dewp":-2.8,"wdir":90,"wspd":5,"visib":"10+","altim":1022.8,"slp":1023.2,"qcField":4,"presTend":-0.6,"metarType":"METAR","rawOb":"METAR KLWS 180256Z 09005KT 10SM CLR 10/M03 A3020 RMK AO2 SLP232 T01001028 56006","lat":46.3746,"lon":-117.0153,"elev":435,"name":"Lewiston/Nez Perce Cnty, ID, US","cover":"CLR","clouds":[],"fltCat":"VFR"},{"icaoId":"KLAS","receiptTime":"2026-04-18T03:00:10.466Z","obsTime":1776480960,"reportTime":"2026-04-18T03:00:00.000Z","temp":18.3,"dewp":-19.4,"wdir":40,"wspd":9,"visib":"10+","altim":1017.7,"slp":1016.6,"qcField":4,"presTend":-0.2,"metarType":"METAR","rawOb":"METAR KLAS 180256Z 04009KT 10SM CLR 18/M19 A3005 RMK AO2 SLP166 T01831194 55002","lat":36.0719,"lon":-115.1634,"elev":662,"name":"Las Vegas/Reid Intl, NV, US","cover":"CLR","clouds":[],"fltCat":"VFR"},{"icaoId":"KEKO","receiptTime":"2026-04-18T03:00:14.142Z","obsTime":1776480960,"reportTime":"2026-04-18T03:00:00.000Z","temp":3.9,"dewp":-16.1,"wdir":0,"wspd":0,"visib":"10+","altim":1021.4,"slp":1023.4,"qcField":6,"presTend":0.2,"metarType":"METAR","rawOb":"METAR KEKO 180256Z AUTO 00000KT 10SM CLR 04/M16 A3016 RMK AO2 SLP234 T00391161 53002","lat":40.824,"lon":-115.7863,"elev":1541,"name":"Elko Rgnl, NV, US","cover":"CLR","clouds":[],"fltCat":"VFR"},{"icaoId":"KBZN","receiptTime":"2026-04-18T03:00:07.202Z","obsTime":1776480960,"reportTime":"2026-04-18T03:00:00.000Z","temp":0,"dewp":-4.4,"wdir":0,"wspd":0,"visib":"10+","altim":1020.4,"slp":1023.7,"qcField":4,"presTend":0.6,"metarType":"METAR","rawOb":"METAR KBZN 180256Z 00000KT 10SM FEW070 OVC095 00/M04 A3013 RMK AO2 SLP237 T00001044 53006","lat":45.7876,"lon":-111.1615,"elev":1349,"name":"Bozeman/Gallatin Fld, MT, US","cover":"OVC","clouds":[{"cover":"FEW","base":7000},{"cover":"OVC","base":9500}],"fltCat":"VFR"},{"icaoId":"KCOE","receiptTime":"2026-04-18T02:59:05.751Z","obsTime":1776480960,"reportTime":"2026-04-18T03:00:00.000Z","temp":7.2,"dewp":-1.7,"wdir":170,"wspd":5,"visib":"10+","altim":1022.1,"slp":1025.1,"qcField":14,"presTend":-0.3,"metarType":"METAR","rawOb":"METAR KCOE 180256Z AUTO 17005KT 10SM CLR 07/M02 A3018 RMK AO2 SLP251 6//// T00721017 58003 PNO $","lat":47.7719,"lon":-116.8332,"elev":693,"name":"Coeur DAlene Arpt, ID, US","cover":"CLR","clouds":[],"fltCat":"VFR"},{"icaoId":"KCHS","receiptTime":"2026-04-18T03:00:16.714Z","obsTime":1776480960,"reportTime":"2026-04-18T03:00:00.000Z","temp":22.2,"dewp":13.9,"wdir":200,"wspd":7,"visib":"10+","altim":1015,"slp":1014.9,"qcField":12,"presTend":0.6,"metarType":"METAR","rawOb":"METAR KCHS 180256Z 20007KT 10SM FEW085 22/14 A2997 RMK AO2 SLP149 T02220139 50006 $","lat":32.8995,"lon":-80.0407,"elev":12,"name":"Charleston Intl, SC, US","cover":"FEW","clouds":[{"cover":"FEW","base":8500}],"fltCat":"VFR"},{"icaoId":"KGUC","receiptTime":"2026-04-18T02:59:08.301Z","obsTime":1776480960,"reportTime":"2026-04-18T03:00:00.000Z","temp":-2.8,"dewp":-12.2,"wdir":220,"wspd":9,"visib":"10+","altim":1021.8,"slp":1022.3,"qcField":78,"presTend":1.9,"metarType":"METAR","rawOb":"METAR KGUC 180256Z AUTO 22009KT 10SM CLR M03/M12 A3017 RMK AO2 SLP223 T10281122 52019 FZRANO $","lat":38.5322,"lon":-106.9419,"elev":2337,"name":"Gunnison Arpt, CO, US","cover":"CLR","clouds":[],"fltCat":"VFR"},{"icaoId":"KFNL","receiptTime":"2026-04-18T02:59:09.773Z","obsTime":1776480960,"reportTime":"2026-04-18T03:00:00.000Z","temp":0.6,"dewp":-3.9,"wdir":210,"wspd":4,"visib":"10+","altim":1020.4,"slp":1020.7,"qcField":78,"presTend":1.9,"metarType":"METAR","rawOb":"METAR KFNL 180256Z AUTO 21004KT 10SM CLR 01/M04 A3013 RMK AO2 SLP207 T00061039 53019 FZRANO $","lat":40.4427,"lon":-105.0097,"elev":1529,"name":"Fort Collins/N Colorado Rgnl, CO, US","cover":"CLR","clouds":[],"fltCat":"VFR"},{"icaoId":"KRNO","receiptTime":"2026-04-18T02:59:08.914Z","obsTime":1776480900,"reportTime":"2026-04-18T03:00:00.000Z","temp":11.7,"dewp":-20.6,"wdir":90,"wspd":10,"wgst":15,"visib":"10+","altim":1019.4,"slp":1018.2,"qcField":4,"presTend":-0.2,"metarType":"METAR","rawOb":"METAR KRNO 180255Z 09010G15KT 10SM BKN220 12/M21 A3010 RMK AO2 SLP182 T01171206 55002","lat":39.5077,"lon":-119.7683,"elev":1344,"name":"Reno/Tahoe Intl, NV, US","cover":"BKN","clouds":[{"cover":"BKN","base":22000}],"fltCat":"VFR"},{"icaoId":"KGPI","receiptTime":"2026-04-18T02:59:07.430Z","obsTime":1776480900,"reportTime":"2026-04-18T03:00:00.000Z","temp":3.9,"dewp":0.6,"wdir":180,"wspd":6,"visib":"10+","altim":1020.7,"slp":1023,"qcField":4,"presTend":-0.1,"metarType":"METAR","rawOb":"METAR KGPI 180255Z 18006KT 10SM BKN080 04/01 A3014 RMK AO2 SLP230 T00390006 55001","lat":48.3041,"lon":-114.2643,"elev":903,"name":"Kalispell/Glacier Park Intl, MT, US","cover":"BKN","clouds":[{"cover":"BKN","base":8000}],"fltCat":"VFR"},{"icaoId":"KCMA","receiptTime":"2026-04-18T02:59:05.676Z","obsTime":1776480900,"reportTime":"2026-04-18T03:00:00.000Z","temp":17.2,"dewp":7.8,"wdir":170,"wspd":4,"visib":"10+","altim":1014.3,"slp":1014.9,"qcField":4,"presTend":-0.3,"metarType":"METAR","rawOb":"METAR KCMA 180255Z 17004KT 10SM CLR 17/08 A2995 RMK AO2 SLP149 T01720078 56003","lat":34.2114,"lon":-119.0876,"elev":20,"name":"Camarillo Arpt, CA, US","cover":"CLR","clouds":[],"fltCat":"VFR"},{"icaoId":"KEND","receiptTime":"2026-04-18T03:06:05.910Z","obsTime":1776480900,"reportTime":"2026-04-18T03:00:00.000Z","temp":14.9,"dewp":9.9,"wdir":340,"wspd":23,"wgst":33,"visib":"10+","altim":1009.9,"slp":1009.1,"qcField":12,"wxString":"-RA","presTend":6.2,"precip":0.09,"pcp3hr":0.24,"metarType":"METAR","rawOb":"METAR KEND 180255Z 34023G33KT 10SM -RA FEW031 SCT080 15/10 A2982 RMK AO2A PK WND 02039/39 LTG DSNT NE-SW RAE32RAB41E48RAB51 TSB0155E43 PRESRR SLP091 P0009 60024 T01490099 52062 $","lat":36.338,"lon":-97.919,"elev":392,"name":"Enid/Vance AFB, OK, US","cover":"SCT","clouds":[{"cover":"FEW","base":3100},{"cover":"SCT","base":8000}],"fltCat":"VFR"},{"icaoId":"KLUF","receiptTime":"2026-04-18T03:06:07.975Z","obsTime":1776480900,"reportTime":"2026-04-18T03:00:00.000Z","temp":26.7,"dewp":-10.3,"wdir":270,"wspd":8,"visib":"10+","altim":1009.9,"slp":1008.7,"qcField":14,"presTend":0.8,"metarType":"METAR","rawOb":"METAR KLUF 180255Z AUTO 27008KT 10SM CLR 27/M10 A2982 RMK AO2 SLP087 T02671103 53008 $","lat":33.538,"lon":-112.38,"elev":333,"name":"Phoenix/Luke AFB, AZ, US","cover":"CLR","clouds":[],"fltCat":"VFR"},{"icaoId":"KAST","receiptTime":"2026-04-18T02:59:05.013Z","obsTime":1776480900,"reportTime":"2026-04-18T03:00:00.000Z","temp":10.6,"dewp":6.1,"wdir":320,"wspd":8,"visib":"10+","altim":1020.4,"slp":1020.3,"qcField":6,"presTend":-2,"metarType":"METAR","rawOb":"METAR KAST 180255Z AUTO 32008KT 10SM CLR 11/06 A3013 RMK AO2 SLP203 T01060061 58020","lat":46.157,"lon":-123.8833,"elev":3,"name":"Astoria Rgnl, OR, US","cover":"CLR","clouds":[],"fltCat":"VFR"},{"icaoId":"KSJN","receiptTime":"2026-04-18T02:58:53.799Z","obsTime":1776480840,"reportTime":"2026-04-18T03:00:00.000Z","temp":10.6,"dewp":-10.6,"wdir":360,"wspd":5,"visib":"10+","altim":1018,"slp":1012.6,"qcField":6,"presTend":1.7,"metarType":"METAR","rawOb":"METAR KSJN 180254Z AUTO 36005KT 10SM CLR 11/M11 A3006 RMK AO2 SLP126 T01061106 53017","lat":34.5184,"lon":-109.3801,"elev":1747,"name":"St Johns Ind Arpt, AZ, US","cover":"CLR","clouds":[],"fltCat":"VFR"},{"icaoId":"KBOS","receiptTime":"2026-04-18T02:58:57.984Z","obsTime":1776480840,"reportTime":"2026-04-18T03:00:00.000Z","temp":10,"dewp":7.8,"wdir":110,"wspd":3,"visib":"10+","altim":1017.7,"slp":1017.6,"qcField":4,"presTend":1.6,"metarType":"METAR","rawOb":"METAR KBOS 180254Z 11003KT 10SM CLR 10/08 A3005 RMK AO2 SLP176 T01000078 51016","lat":42.3606,"lon":-71.0097,"elev":4,"name":"Boston/Logan Intl, MA, US","cover":"CLR","clouds":[],"fltCat":"VFR"},{"icaoId":"KBWI","receiptTime":"2026-04-18T02:58:58.144Z","obsTime":1776480840,"reportTime":"2026-04-18T03:00:00.000Z","temp":18.3,"dewp":12.2,"wdir":0,"wspd":0,"visib":"10+","altim":1014.3,"slp":1014.1,"qcField":4,"presTend":0.9,"metarType":"METAR","rawOb":"METAR KBWI 180254Z 00000KT 10SM FEW180 SCT250 18/12 A2995 RMK AO2 SLP141 T01830122 51009","lat":39.1733,"lon":-76.684,"elev":42,"name":"Baltimore-Washington Intl, MD, US","cover":"SCT","clouds":[{"cover":"FEW","base":18000},{"cover":"SCT","base":25000}],"fltCat":"VFR"},{"icaoId":"KMEM","receiptTime":"2026-04-18T02:58:51.462Z","obsTime":1776480840,"reportTime":"2026-04-18T03:00:00.000Z","temp":24.4,"dewp":15,"wdir":190,"wspd":7,"visib":"10+","altim":1011.9,"slp":1011.5,"qcField":12,"presTend":1.7,"metarType":"METAR","rawOb":"METAR KMEM 180254Z 19007KT 10SM CLR 24/15 A2988 RMK AO2 SLP115 T02440150 52017 $","lat":35.0564,"lon":-89.9864,"elev":78,"name":"Memphis Intl, TN, US","cover":"CLR","clouds":[],"fltCat":"VFR"},{"icaoId":"KSLC","receiptTime":"2026-04-18T02:58:53.821Z","obsTime":1776480840,"reportTime":"2026-04-18T03:00:00.000Z","temp":6.1,"dewp":-13.3,"wdir":40,"wspd":3,"visib":"10+","altim":1022.8,"slp":1022.7,"qcField":4,"presTend":-0.2,"metarType":"METAR","rawOb":"METAR KSLC 180254Z 04003KT 10SM CLR 06/M13 A3020 RMK AO2 SLP227 T00611133 55002","lat":40.7707,"lon":-111.965,"elev":1286,"name":"Salt Lake City Intl, UT, US","cover":"CLR","clouds":[],"fltCat":"VFR"},{"icaoId":"KGSO","receiptTime":"2026-04-18T02:58:50.518Z","obsTime":1776480840,"reportTime":"2026-04-18T03:00:00.000Z","temp":21.1,"dewp":12.2,"wdir":0,"wspd":0,"visib":"10+","altim":1014.6,"slp":1013.5,"qcField":4,"presTend":0.4,"metarType":"METAR","rawOb":"METAR KGSO 180254Z 00000KT 10SM CLR 21/12 A2996 RMK AO2 SLP135 T02110122 51004","lat":36.0969,"lon":-79.9432,"elev":275,"name":"Greensboro Intl, NC, US","cover":"CLR","clouds":[],"fltCat":"VFR"},{"icaoId":"KGCN","receiptTime":"2026-04-18T02:58:49.536Z","obsTime":1776480840,"reportTime":"2026-04-18T03:00:00.000Z","temp":5,"dewp":-21.7,"wdir":70,"wspd":6,"visib":"10+","altim":1020.4,"slp":1017,"qcField":6,"presTend":0.9,"metarType":"METAR","rawOb":"METAR KGCN 180254Z AUTO 07006KT 10SM CLR 05/M22 A3013 RMK AO2 SLP170 T00501217 53009","lat":35.9458,"lon":-112.1554,"elev":1993,"name":"Grand Canyon Park Arpt, AZ, US","cover":"CLR","clouds":[],"fltCat":"VFR"},{"icaoId":"KFFZ","receiptTime":"2026-04-18T02:58:49.196Z","obsTime":1776480840,"reportTime":"2026-04-18T03:00:00.000Z","temp":26.1,"dewp":-1.7,"wdir":270,"wspd":4,"visib":"10+","altim":1010.9,"slp":1008.6,"qcField":6,"presTend":0.3,"metarType":"METAR","rawOb":"METAR KFFZ 180254Z AUTO 27004KT 10SM CLR 26/M02 A2985 RMK AO2 SLP086 T02611017 53003","lat":33.4659,"lon":-111.7212,"elev":420,"name":"Mesa/Falcon Fld, AZ, US","cover":"CLR","clouds":[],"fltCat":"VFR"},{"icaoId":"KCOS","receiptTime":"2026-04-18T02:58:51.055Z","obsTime":1776480840,"reportTime":"2026-04-18T03:00:00.000Z","temp":-2.2,"dewp":-6.1,"wdir":10,"wspd":9,"visib":"10+","altim":1020.4,"slp":1022.2,"qcField":4,"presTend":2.7,"metarType":"METAR","rawOb":"METAR KCOS 180254Z 01009KT 10SM FEW025 FEW035 M02/M06 A3013 RMK AO2 SLP222 T10221061 53027","lat":38.8095,"lon":-104.6887,"elev":1886,"name":"Colorado Spring Arpt, CO, US","cover":"FEW","clouds":[{"cover":"FEW","base":2500},{"cover":"FEW","base":3500}],"fltCat":"VFR"},{"icaoId":"KROC","receiptTime":"2026-04-18T02:58:49.712Z","obsTime":1776480840,"reportTime":"2026-04-18T03:00:00.000Z","temp":11.7,"dewp":7.2,"wdir":0,"wspd":0,"visib":"10+","altim":1015.3,"slp":1015.7,"qcField":12,"presTend":-0.9,"metarType":"METAR","rawOb":"METAR KROC 180254Z 00000KT 10SM BKN250 12/07 A2998 RMK AO2 SLP157 T01170072 55009 $","lat":43.1172,"lon":-77.6754,"elev":166,"name":"Rochester Intl Arpt, NY, US","cover":"BKN","clouds":[{"cover":"BKN","base":25000}],"fltCat":"VFR"},{"icaoId":"KEUG","receiptTime":"2026-04-18T02:58:48.725Z","obsTime":1776480840,"reportTime":"2026-04-18T03:00:00.000Z","temp":9.4,"dewp":6.7,"wdir":330,"wspd":6,"visib":"10+","altim":1019.7,"slp":1019.7,"qcField":4,"presTend":-1.2,"metarType":"METAR","rawOb":"METAR KEUG 180254Z 33006KT 10SM SCT150 BKN200 09/07 A3011 RMK AO2 SLP197 T00940067 56012","lat":44.1331,"lon":-123.2156,"elev":109,"name":"Eugene/Mahlon Sweet Fld, OR, US","cover":"BKN","clouds":[{"cover":"SCT","base":15000},{"cover":"BKN","base":20000}],"fltCat":"VFR"},{"icaoId":"KDSM","receiptTime":"2026-04-18T02:58:51.100Z","obsTime":1776480840,"reportTime":"2026-04-18T03:00:00.000Z","temp":9.4,"dewp":-1.7,"wdir":330,"wspd":6,"visib":"10+","altim":1010.6,"slp":1010.2,"qcField":4,"presTend":4.2,"pcp3hr":0.005,"metarType":"METAR","rawOb":"METAR KDSM 180254Z 33006KT 10SM BKN070 09/M02 A2984 RMK AO2 SLP102 60000 T00941017 53042","lat":41.5339,"lon":-93.6531,"elev":286,"name":"Des Moines Intl, IA, US","cover":"BKN","clouds":[{"cover":"BKN","base":7000}],"fltCat":"VFR"},{"icaoId":"KBTV","receiptTime":"2026-04-18T02:58:50.395Z","obsTime":1776480840,"reportTime":"2026-04-18T03:00:00.000Z","temp":9.4,"dewp":7.2,"wdir":0,"wspd":0,"visib":"10+","altim":1017.7,"slp":1017.6,"qcField":4,"presTend":0.8,"metarType":"METAR","rawOb":"METAR KBTV 180254Z 00000KT 10SM CLR 09/07 A3005 RMK AO2 SLP176 T00940072 50008","lat":44.4682,"lon":-73.1499,"elev":101,"name":"Burlington Intl, VT, US","cover":"CLR","clouds":[],"fltCat":"VFR"},{"icaoId":"KRIC","receiptTime":"2026-04-18T02:58:49.677Z","obsTime":1776480840,"reportTime":"2026-04-18T03:00:00.000Z","temp":18.9,"dewp":12.8,"wdir":40,"wspd":6,"visib":"10+","altim":1014.6,"slp":1014.8,"qcField":12,"presTend":1.6,"metarType":"METAR","rawOb":"METAR KRIC 180254Z 04006KT 10SM SCT300 19/13 A2996 RMK AO2 SLP148 T01890128 51016 $","lat":37.5115,"lon":-77.3234,"elev":51,"name":"Richmond Intl, VA, US","cover":"SCT","clouds":[{"cover":"SCT","base":30000}],"fltCat":"VFR"},{"icaoId":"KSYR","receiptTime":"2026-04-18T02:58:49.758Z","obsTime":1776480840,"reportTime":"2026-04-18T03:00:00.000Z","temp":11.1,"dewp":8.9,"wdir":0,"wspd":0,"visib":"10+","altim":1016,"slp":1015.5,"qcField":4,"presTend":-0.9,"metarType":"METAR","rawOb":"METAR KSYR 180254Z 00000KT 10SM FEW250 11/09 A3000 RMK AO2 SLP155 T01110089 58009","lat":43.1111,"lon":-76.1038,"elev":125,"name":"Syracuse/Hancock Intl, NY, US","cover":"FEW","clouds":[{"cover":"FEW","base":25000}],"fltCat":"VFR"},{"icaoId":"KBFL","receiptTime":"2026-04-18T02:58:57.785Z","obsTime":1776480840,"reportTime":"2026-04-18T03:00:00.000Z","temp":19.4,"dewp":1.7,"wdir":340,"wspd":6,"visib":"10+","altim":1014.3,"slp":1014,"qcField":4,"metarType":"METAR","rawOb":"METAR KBFL 180254Z 34006KT 10SM CLR 19/02 A2995 RMK AO2 SLP140 T01940017 53000","lat":35.4342,"lon":-119.0552,"elev":146,"name":"Bakersfield/Meadows Arpt, CA, US","cover":"CLR","clouds":[],"fltCat":"VFR"},{"icaoId":"KAPC","receiptTime":"2026-04-18T02:59:00.965Z","obsTime":1776480840,"reportTime":"2026-04-18T03:00:00.000Z","temp":14.4,"dewp":2.2,"wdir":280,"wspd":10,"visib":"10+","altim":1016.7,"slp":1015.5,"qcField":6,"presTend":0.1,"metarType":"METAR","rawOb":"METAR KAPC 180254Z AUTO 28010KT 10SM CLR 14/02 A3002 RMK AO2 SLP155 T01440022 53001","lat":38.2075,"lon":-122.2804,"elev":5,"name":"Napa Cnty Arpt, CA, US","cover":"CLR","clouds":[],"fltCat":"VFR"},{"icaoId":"KBUF","receiptTime":"2026-04-18T02:58:50.410Z","obsTime":1776480840,"reportTime":"2026-04-18T03:00:00.000Z","temp":14.4,"dewp":11.7,"wdir":110,"wspd":6,"visib":"10+","altim":1014.6,"slp":1014.6,"qcField":4,"presTend":-0.1,"metarType":"METAR","rawOb":"METAR KBUF 180254Z 11006KT 10SM BKN280 14/12 A2996 RMK AO2 SLP146 T01440117 55001","lat":42.94,"lon":-78.7361,"elev":217,"name":"Buffalo-Niagara Intl, NY, US","cover":"BKN","clouds":[{"cover":"BKN","base":28000}],"fltCat":"VFR"},{"icaoId":"KRKS","receiptTime":"2026-04-18T02:58:52.880Z","obsTime":1776480840,"reportTime":"2026-04-18T03:00:00.000Z","temp":-2.2,"dewp":-12.2,"wdir":290,"wspd":16,"wgst":24,"visib":"10+","altim":1021.1,"slp":1024.8,"qcField":6,"presTend":1.7,"metarType":"METAR","rawOb":"METAR KRKS 180254Z AUTO 29016G24KT 10SM CLR M02/M12 A3015 RMK AO2 PK WND 29032/0158 SLP248 T10221122 53017","lat":41.5947,"lon":-109.0529,"elev":2062,"name":"Rock Springs/SW Wyoming Rgnl, WY, US","cover":"CLR","clouds":[],"fltCat":"VFR"},{"icaoId":"KPHL","receiptTime":"2026-04-18T02:58:49.583Z","obsTime":1776480840,"reportTime":"2026-04-18T03:00:00.000Z","temp":21.1,"dewp":13.3,"wdir":80,"wspd":4,"visib":"10+","altim":1014.3,"slp":1014.1,"qcField":12,"presTend":1.1,"metarType":"METAR","rawOb":"METAR KPHL 180254Z 08004KT 10SM FEW070 FEW110 21/13 A2995 RMK AO2 SLP141 T02110133 50011 $","lat":39.8733,"lon":-75.2268,"elev":2,"name":"Philadelphia Intl, PA, US","cover":"FEW","clouds":[{"cover":"FEW","base":7000},{"cover":"FEW","base":11000}],"fltCat":"VFR"},{"icaoId":"KOLS","receiptTime":"2026-04-18T02:58:41.677Z","obsTime":1776480840,"reportTime":"2026-04-18T03:00:00.000Z","temp":20,"dewp":-2.8,"wdir":240,"wspd":3,"visib":"10+","altim":1014.3,"slp":1009.3,"qcField":6,"presTend":0.6,"metarType":"METAR","rawOb":"METAR KOLS 180254Z AUTO 24003KT 10SM CLR 20/M03 A2995 RMK AO2 SLP093 T02001028 53006","lat":31.4208,"lon":-110.8465,"elev":1194,"name":"Nogales Intl, AZ, US","cover":"CLR","clouds":[],"fltCat":"VFR"},{"icaoId":"KOLM","receiptTime":"2026-04-18T02:58:41.666Z","obsTime":1776480840,"reportTime":"2026-04-18T03:00:00.000Z","temp":10.6,"dewp":1.1,"wdir":10,"wspd":3,"visib":"10+","altim":1021.8,"slp":1021.8,"qcField":4,"presTend":-1.3,"metarType":"METAR","rawOb":"METAR KOLM 180254Z 01003KT 10SM CLR 11/01 A3017 RMK AO2 SLP218 T01060011 56013","lat":46.9737,"lon":-122.9049,"elev":58,"name":"Olympia Rgnl, WA, US","cover":"CLR","clouds":[],"fltCat":"VFR"},{"icaoId":"KIND","receiptTime":"2026-04-18T02:58:51.221Z","obsTime":1776480840,"reportTime":"2026-04-18T03:00:00.000Z","temp":23.3,"dewp":15.6,"wdir":170,"wspd":13,"visib":"10+","altim":1010.2,"slp":1009.4,"qcField":4,"presTend":1.1,"metarType":"METAR","rawOb":"METAR KIND 180254Z 17013KT 10SM FEW050 BKN150 OVC250 23/16 A2983 RMK AO2 SLP094 T02330156 53011","lat":39.7252,"lon":-86.2816,"elev":242,"name":"Indianapolis Intl, IN, US","cover":"OVC","clouds":[{"cover":"FEW","base":5000},{"cover":"BKN","base":15000},{"cover":"OVC","base":25000}],"fltCat":"VFR"},{"icaoId":"KMLS","receiptTime":"2026-04-18T02:56:29.942Z","obsTime":1776480780,"reportTime":"2026-04-18T03:00:00.000Z","temp":1.1,"dewp":-8.3,"wdir":30,"wspd":4,"visib":"10+","altim":1017.7,"slp":1020.3,"qcField":6,"presTend":0.8,"metarType":"METAR","rawOb":"METAR KMLS 180253Z AUTO 03004KT 10SM BKN100 01/M08 A3005 RMK AO2 SLP203 T00111083 51008","lat":46.4265,"lon":-105.8834,"elev":800,"name":"Miles City/Wiley Fld, MT, US","cover":"BKN","clouds":[{"cover":"BKN","base":10000}],"fltCat":"VFR"},{"icaoId":"KMCI","receiptTime":"2026-04-18T02:56:28.143Z","obsTime":1776480780,"reportTime":"2026-04-18T03:00:00.000Z","temp":11.1,"dewp":2.8,"wdir":360,"wspd":20,"wgst":29,"visib":"10+","altim":1010.6,"slp":1010,"qcField":4,"presTend":4.5,"pcp3hr":0.01,"metarType":"METAR","rawOb":"METAR KMCI 180253Z 36020G29KT 10SM OVC055 11/03 A2984 RMK AO2 PK WND 36031/0243 SLP100 60001 T01110028 53045","lat":39.2975,"lon":-94.7309,"elev":308,"name":"Kansas City Intl, MO, US","cover":"OVC","clouds":[{"cover":"OVC","base":5500}],"fltCat":"VFR"},{"icaoId":"KBFI","receiptTime":"2026-04-18T02:56:22.850Z","obsTime":1776480780,"reportTime":"2026-04-18T03:00:00.000Z","temp":12.8,"dewp":1.1,"wdir":"VRB","wspd":3,"visib":"10+","altim":1021.8,"slp":1021.6,"qcField":4,"presTend":-1.7,"metarType":"METAR","rawOb":"METAR KBFI 180253Z VRB03KT 10SM BKN080 13/01 A3017 RMK AO2 SLP216 T01280011 56017","lat":47.5455,"lon":-122.3148,"elev":7,"name":"Seattle/Boeing Fld, WA, US","cover":"BKN","clouds":[{"cover":"BKN","base":8000}],"fltCat":"VFR"},{"icaoId":"KLAW","receiptTime":"2026-04-18T02:56:27.279Z","obsTime":1776480780,"reportTime":"2026-04-18T03:00:00.000Z","temp":21.7,"dewp":18.9,"wdir":140,"wspd":6,"visib":"10+","altim":1005.8,"slp":1004.8,"qcField":6,"presTend":0.7,"metarType":"METAR","rawOb":"METAR KLAW 180253Z AUTO 14006KT 10SM CLR 22/19 A2970 RMK AO2 SLP048 T02170189 53007","lat":34.5577,"lon":-98.4172,"elev":328,"name":"Lawton-Fort Sill Rgnl, OK, US","cover":"CLR","clouds":[],"fltCat":"VFR"},{"icaoId":"KHIO","receiptTime":"2026-04-18T02:56:25.257Z","obsTime":1776480780,"reportTime":"2026-04-18T03:00:00.000Z","temp":11.7,"dewp":3.9,"wdir":10,"wspd":3,"visib":"10+","altim":1020.4,"slp":1020.3,"qcField":4,"presTend":-1.6,"metarType":"METAR","rawOb":"METAR KHIO 180253Z 01003KT 10SM CLR 12/04 A3013 RMK AO2 SLP203 T01170039 56016","lat":45.5476,"lon":-122.9557,"elev":62,"name":"Portland/Hillsboro Arpt, OR, US","cover":"CLR","clouds":[],"fltCat":"VFR"},{"icaoId":"KBTM","receiptTime":"2026-04-18T02:56:28.456Z","obsTime":1776480780,"reportTime":"2026-04-18T03:00:00.000Z","temp":1.1,"dewp":-10,"wdir":320,"wspd":13,"wgst":20,"visib":"10+","altim":1020.1,"slp":1023.2,"qcField":6,"presTend":1.3,"metarType":"METAR","rawOb":"METAR KBTM 180253Z AUTO 32013G20KT 10SM OVC080 01/M10 A3012 RMK AO2 SLP232 T00111100 53013","lat":45.9644,"lon":-112.5015,"elev":1680,"name":"Butte/Mooney Arpt, MT, US","cover":"OVC","clouds":[{"cover":"OVC","base":8000}],"fltCat":"VFR"},{"icaoId":"KTPA","receiptTime":"2026-04-18T02:56:25.523Z","obsTime":1776480780,"reportTime":"2026-04-18T03:00:00.000Z","temp":22.8,"dewp":17.8,"wdir":360,"wspd":3,"visib":"10+","altim":1017,"slp":1016.8,"qcField":4,"presTend":1,"metarType":"METAR","rawOb":"METAR KTPA 180253Z 36003KT 10SM CLR 23/18 A3003 RMK AO2 SLP168 T02280178 51010","lat":27.9633,"lon":-82.54,"elev":2,"name":"Tampa Intl Arpt, FL, US","cover":"CLR","clouds":[],"fltCat":"VFR"},{"icaoId":"KBUR","receiptTime":"2026-04-18T02:56:28.467Z","obsTime":1776480780,"reportTime":"2026-04-18T03:00:00.000Z","temp":22.8,"dewp":5.6,"wdir":240,"wspd":4,"visib":"10+","altim":1013.6,"slp":1012.5,"qcField":4,"metarType":"METAR","rawOb":"METAR KBUR 180253Z 24004KT 10SM CLR 23/06 A2993 RMK AO2 SLP125 T02280056 53000","lat":34.1996,"lon":-118.3654,"elev":221,"name":"Burbank/Bob Hope Arpt, CA, US","cover":"CLR","clouds":[],"fltCat":"VFR"},{"icaoId":"KMYF","receiptTime":"2026-04-18T02:56:30.161Z","obsTime":1776480780,"reportTime":"2026-04-18T03:00:00.000Z","temp":17.2,"dewp":12.8,"wdir":230,"wspd":6,"visib":"10+","altim":1014.6,"slp":1014.1,"qcField":4,"presTend":0.4,"metarType":"METAR","rawOb":"METAR KMYF 180253Z 23006KT 10SM CLR 17/13 A2996 RMK AO2 SLP141 T01720128 53004","lat":32.8145,"lon":-117.1375,"elev":128,"name":"San Diego/Montgomery Arpt, CA, US","cover":"CLR","clouds":[],"fltCat":"VFR"},{"icaoId":"KVGT","receiptTime":"2026-04-18T02:56:26.784Z","obsTime":1776480780,"reportTime":"2026-04-18T03:00:00.000Z","temp":17.8,"dewp":-17.8,"wdir":50,"wspd":7,"visib":"10+","altim":1017,"slp":1018.1,"qcField":4,"presTend":-0.1,"metarType":"METAR","rawOb":"METAR KVGT 180253Z 05007KT 10SM CLR 18/M18 A3003 RMK AO2 SLP181 T01781178 55001","lat":36.212,"lon":-115.194,"elev":664,"name":"Las Vegas/North Arpt, NV, US","cover":"CLR","clouds":[],"fltCat":"VFR"},{"icaoId":"KONT","receiptTime":"2026-04-18T03:20:17.941Z","obsTime":1776480780,"reportTime":"2026-04-18T03:00:00.000Z","temp":21.7,"dewp":10,"wdir":260,"wspd":6,"visib":"10+","altim":1013.6,"slp":1012.5,"qcField":4,"metarType":"METAR","rawOb":"METAR KONT 180253Z 26006KT 10SM CLR 22/10 A2993 RMK AO2 SLP125 T02170100 53000","lat":34.0531,"lon":-117.5769,"elev":279,"name":"Ontario Intl, CA, US","cover":"CLR","clouds":[],"fltCat":"VFR"},{"icaoId":"KASE","receiptTime":"2026-04-18T02:56:23.414Z","obsTime":1776480780,"reportTime":"2026-04-18T03:00:00.000Z","temp":-5,"dewp":-11.7,"wdir":210,"wspd":5,"visib":"10+","altim":1021.1,"slp":1021.8,"qcField":6,"presTend":1.3,"metarType":"METAR","rawOb":"METAR KASE 180253Z AUTO 21005KT 10SM CLR M05/M12 A3015 RMK AO2 SLP218 T10501117 53013","lat":39.2299,"lon":-106.8705,"elev":2384,"name":"Aspen/Pitkin Cnty, CO, US","cover":"CLR","clouds":[],"fltCat":"VFR"},{"icaoId":"KMSP","receiptTime":"2026-04-18T02:56:30.057Z","obsTime":1776480780,"reportTime":"2026-04-18T03:00:00.000Z","temp":5.6,"dewp":-3.9,"wdir":310,"wspd":20,"wgst":28,"visib":"10+","altim":1008.9,"slp":1008.8,"qcField":4,"presTend":3.9,"metarType":"METAR","rawOb":"METAR KMSP 180253Z 31020G28KT 10SM OVC095 06/M04 A2979 RMK AO2 PK WND 32028/0249 SLP088 T00561039 50039","lat":44.8852,"lon":-93.2313,"elev":255,"name":"Minneapolis-St Paul Intl, MN, US","cover":"OVC","clouds":[{"cover":"OVC","base":9500}],"fltCat":"VFR"},{"icaoId":"KBIL","receiptTime":"2026-04-18T02:56:24.179Z","obsTime":1776480780,"reportTime":"2026-04-18T03:00:00.000Z","temp":0.6,"dewp":-1.7,"wdir":290,"wspd":11,"visib":"10+","altim":1019.4,"slp":1021.6,"qcField":12,"presTend":1.1,"precip":0.005,"pcp3hr":0.005,"metarType":"METAR","rawOb":"METAR KBIL 180253Z 29011KT 10SM SCT029 BKN070 01/M02 A3010 RMK AO2 PK WND 31035/0233 RAB05E11SNB05E52 SLP216 P0000 60000 T00061017 53011 $","lat":45.8072,"lon":-108.5462,"elev":1089,"name":"Billings/Logan Intl, MT, US","cover":"BKN","clouds":[{"cover":"SCT","base":2900},{"cover":"BKN","base":7000}],"fltCat":"VFR"},{"icaoId":"KCLL","receiptTime":"2026-04-18T02:56:24.255Z","obsTime":1776480780,"reportTime":"2026-04-18T03:00:00.000Z","temp":23.9,"dewp":19.4,"wdir":160,"wspd":17,"wgst":28,"visib":"10+","altim":1011.3,"slp":1010.5,"qcField":6,"presTend":0.7,"metarType":"METAR","rawOb":"METAR KCLL 180253Z AUTO 16017G28KT 10SM CLR 24/19 A2986 RMK AO2 PK WND 15028/0250 SLP105 T02390194 50007","lat":30.5912,"lon":-96.3631,"elev":96,"name":"College Station/Easterwood Arpt, TX, US","cover":"CLR","clouds":[],"fltCat":"VFR"},{"icaoId":"KCRQ","receiptTime":"2026-04-18T02:56:24.284Z","obsTime":1776480780,"reportTime":"2026-04-18T03:00:00.000Z","temp":17.2,"dewp":13.3,"wdir":230,"wspd":5,"visib":"10+","altim":1014,"slp":1013.7,"qcField":6,"presTend":0.3,"metarType":"METAR","rawOb":"METAR KCRQ 180253Z AUTO 23005KT 10SM CLR 17/13 A2994 RMK AO2 SLP137 T01720133 53003","lat":33.1299,"lon":-117.2765,"elev":96,"name":"Carlsbad/Palomar Arpt, CA, US","cover":"CLR","clouds":[],"fltCat":"VFR"},{"icaoId":"KDAL","receiptTime":"2026-04-18T02:56:24.323Z","obsTime":1776480780,"reportTime":"2026-04-18T03:00:00.000Z","temp":26.1,"dewp":18.3,"wdir":170,"wspd":11,"wgst":20,"visib":"10+","altim":1008.5,"slp":1007.8,"qcField":4,"presTend":1,"metarType":"METAR","rawOb":"METAR KDAL 180253Z 17011G20KT 10SM FEW075 SCT140 BKN250 26/18 A2978 RMK AO2 SLP078 T02610183 53010","lat":32.8384,"lon":-96.8358,"elev":148,"name":"Dallas/Love Fld, TX, US","cover":"BKN","clouds":[{"cover":"FEW","base":7500},{"cover":"SCT","base":14000},{"cover":"BKN","base":25000}],"fltCat":"VFR"},{"icaoId":"KDMN","receiptTime":"2026-04-18T02:56:24.359Z","obsTime":1776480780,"reportTime":"2026-04-18T03:00:00.000Z","temp":20,"dewp":-5.6,"wdir":320,"wspd":6,"visib":"10+","altim":1014.3,"slp":1007.9,"qcField":6,"presTend":1.5,"metarType":"METAR","rawOb":"METAR KDMN 180253Z AUTO 32006KT 10SM CLR 20/M06 A2995 RMK AO2 SLP079 T02001056 53015","lat":32.2592,"lon":-107.7206,"elev":1310,"name":"Deming Muni, NM, US","cover":"CLR","clouds":[],"fltCat":"VFR"},{"icaoId":"KELY","receiptTime":"2026-04-18T02:56:24.395Z","obsTime":1776480780,"reportTime":"2026-04-18T03:00:00.000Z","temp":1.7,"dewp":-18.3,"wdir":330,"wspd":3,"visib":"10+","altim":1021.1,"slp":1022.2,"qcField":14,"presTend":0.4,"metarType":"METAR","rawOb":"METAR KELY 180253Z AUTO 33003KT 10SM CLR 02/M18 A3015 RMK AO2 SLP222 T00171183 53004 $","lat":39.2954,"lon":-114.8466,"elev":1906,"name":"Ely/Yelland Fld, NV, US","cover":"CLR","clouds":[],"fltCat":"VFR"},{"icaoId":"KFAT","receiptTime":"2026-04-18T02:56:24.439Z","obsTime":1776480780,"reportTime":"2026-04-18T03:00:00.000Z","temp":21.7,"dewp":3.9,"wdir":330,"wspd":4,"visib":"10+","altim":1015.3,"slp":1015,"qcField":4,"presTend":-0.5,"metarType":"METAR","rawOb":"METAR KFAT 180253Z 33004KT 10SM FEW110 SCT200 22/04 A2998 RMK AO2 SLP150 T02170039 55005","lat":36.78,"lon":-119.7202,"elev":102,"name":"Fresno/Yosemite Intl, CA, US","cover":"SCT","clouds":[{"cover":"FEW","base":11000},{"cover":"SCT","base":20000}],"fltCat":"VFR"},{"icaoId":"KFMN","receiptTime":"2026-04-18T02:56:24.452Z","obsTime":1776480780,"reportTime":"2026-04-18T03:00:00.000Z","temp":5.6,"dewp":-16.1,"wdir":280,"wspd":7,"visib":"10+","altim":1020.1,"slp":1018.6,"qcField":4,"presTend":1.5,"metarType":"METAR","rawOb":"METAR KFMN 180253Z 28007KT 10SM CLR 06/M16 A3012 RMK AO2 SLP186 T00561161 53015","lat":36.7435,"lon":-108.2293,"elev":1677,"name":"Farmington/Four Corners Rgnl, NM, US","cover":"CLR","clouds":[],"fltCat":"VFR"},{"icaoId":"KGEG","receiptTime":"2026-04-18T02:56:24.510Z","obsTime":1776480780,"reportTime":"2026-04-18T03:00:00.000Z","temp":8.3,"dewp":-3.3,"wdir":190,"wspd":8,"visib":"10+","altim":1022.1,"slp":1023.2,"qcField":4,"presTend":-0.4,"metarType":"METAR","rawOb":"METAR KGEG 180253Z 19008KT 10SM FEW075 FEW250 08/M03 A3018 RMK AO2 SLP232 T00831033 56004","lat":47.6217,"lon":-117.528,"elev":718,"name":"Spokane Intl, WA, US","cover":"FEW","clouds":[{"cover":"FEW","base":7500},{"cover":"FEW","base":25000}],"fltCat":"VFR"},{"icaoId":"KLAX","receiptTime":"2026-04-18T02:56:24.710Z","obsTime":1776480780,"reportTime":"2026-04-18T03:00:00.000Z","temp":17.8,"dewp":12.2,"wdir":250,"wspd":12,"visib":"10+","altim":1013.3,"slp":1013.1,"qcField":4,"presTend":-0.9,"metarType":"METAR","rawOb":"METAR KLAX 180253Z 25012KT 10SM CLR 18/12 A2992 RMK AO2 SLP131 T01780122 56009","lat":33.9382,"lon":-118.3866,"elev":30,"name":"Los Angeles Intl, CA, US","cover":"CLR","clouds":[],"fltCat":"VFR"},{"icaoId":"KGJT","receiptTime":"2026-04-18T02:56:24.750Z","obsTime":1776480780,"reportTime":"2026-04-18T03:00:00.000Z","temp":3.9,"dewp":-4.4,"wdir":20,"wspd":5,"visib":"10+","altim":1021.1,"slp":1021.7,"qcField":4,"metarType":"METAR","rawOb":"METAR KGJT 180253Z 02005KT 10SM OVC085 04/M04 A3015 RMK AO2 SLP217 T00391044 53000","lat":39.1344,"lon":-108.5408,"elev":1475,"name":"Grand Junction Rgnl, CO, US","cover":"OVC","clouds":[{"cover":"OVC","base":8500}],"fltCat":"VFR"},{"icaoId":"KGSP","receiptTime":"2026-04-18T02:56:24.961Z","obsTime":1776480780,"reportTime":"2026-04-18T03:00:00.000Z","temp":21.1,"dewp":10,"wdir":230,"wspd":5,"visib":"10+","altim":1015.3,"slp":1014,"qcField":4,"presTend":0.4,"metarType":"METAR","rawOb":"METAR KGSP 180253Z 23005KT 10SM CLR 21/10 A2998 RMK AO2 SLP140 T02110100 53004","lat":34.8842,"lon":-82.2209,"elev":285,"name":"Greenville-Spartanburg Intl, SC, US","cover":"CLR","clouds":[],"fltCat":"VFR"},{"icaoId":"KGTF","receiptTime":"2026-04-18T02:56:24.984Z","obsTime":1776480780,"reportTime":"2026-04-18T03:00:00.000Z","temp":0.6,"dewp":-1.7,"wdir":230,"wspd":5,"visib":"10+","altim":1020.1,"slp":1024.3,"qcField":4,"precip":0.005,"pcp3hr":0.005,"metarType":"METAR","rawOb":"METAR KGTF 180253Z 23005KT 10SM SCT043 OVC070 01/M02 A3012 RMK AO2 SNE06 SLP243 P0000 60000 T00061017 50000","lat":47.4733,"lon":-111.3828,"elev":1117,"name":"Great Falls Intl, MT, US","cover":"OVC","clouds":[{"cover":"SCT","base":4300},{"cover":"OVC","base":7000}],"fltCat":"VFR"},{"icaoId":"KRTN","receiptTime":"2026-04-18T02:56:25.577Z","obsTime":1776480780,"reportTime":"2026-04-18T03:00:00.000Z","temp":-0.6,"dewp":-4.4,"wdir":20,"wspd":13,"visib":"10+","altim":1018,"slp":1014.3,"qcField":6,"presTend":3.4,"metarType":"METAR","rawOb":"METAR KRTN 180253Z AUTO 02013KT 10SM CLR M01/M04 A3006 RMK AO2 SLP143 T10061044 51034","lat":36.7418,"lon":-104.5076,"elev":1939,"name":"Raton/Crews Fld, NM, US","cover":"CLR","clouds":[],"fltCat":"VFR"},{"icaoId":"KSJC","receiptTime":"2026-04-18T02:56:25.827Z","obsTime":1776480780,"reportTime":"2026-04-18T03:00:00.000Z","temp":17.2,"dewp":2.8,"wdir":330,"wspd":8,"visib":"10+","altim":1016.3,"slp":1016.2,"qcField":4,"presTend":0.1,"metarType":"METAR","rawOb":"METAR KSJC 180253Z 33008KT 10SM FEW110 SCT160 17/03 A3001 RMK AO2 SLP162 T01720028 53001","lat":37.3594,"lon":-121.9244,"elev":13,"name":"San Jose Intl Arpt, CA, US","cover":"SCT","clouds":[{"cover":"FEW","base":11000},{"cover":"SCT","base":16000}],"fltCat":"VFR"},{"icaoId":"KFUL","receiptTime":"2026-04-18T02:56:26.330Z","obsTime":1776480780,"reportTime":"2026-04-18T03:00:00.000Z","temp":19.4,"dewp":9.4,"wdir":270,"wspd":4,"visib":"10+","altim":1013.3,"slp":1013,"qcField":4,"presTend":0.1,"metarType":"METAR","rawOb":"METAR KFUL 180253Z 27004KT 10SM CLR 19/09 A2992 RMK AO2 SLP130 T01940094 53001","lat":33.8715,"lon":-117.9856,"elev":23,"name":"Fullerton Muni, CA, US","cover":"CLR","clouds":[],"fltCat":"VFR"},{"icaoId":"KTWF","receiptTime":"2026-04-18T02:56:26.633Z","obsTime":1776480780,"reportTime":"2026-04-18T03:00:00.000Z","temp":1.7,"dewp":-7.2,"wdir":0,"wspd":0,"visib":"10+","altim":1022.4,"slp":1022.6,"qcField":6,"presTend":0.3,"metarType":"METAR","rawOb":"METAR KTWF 180253Z AUTO 00000KT 10SM CLR 02/M07 A3019 RMK AO2 SLP226 T00171072 53003","lat":42.4785,"lon":-114.4775,"elev":1269,"name":"Twin Falls/Joslin Fld, ID, US","cover":"CLR","clouds":[],"fltCat":"VFR"},{"icaoId":"KVEL","receiptTime":"2026-04-18T02:56:26.756Z","obsTime":1776480780,"reportTime":"2026-04-18T03:00:00.000Z","temp":1.7,"dewp":-6.1,"wdir":60,"wspd":5,"visib":"10+","altim":1021.8,"slp":1023.9,"qcField":6,"presTend":1.5,"metarType":"METAR","rawOb":"METAR KVEL 180253Z AUTO 06005KT 10SM CLR 02/M06 A3017 RMK AO2 SLP239 T00171061 53015","lat":40.4429,"lon":-109.5128,"elev":1604,"name":"Vernal Rgnl, UT, US","cover":"CLR","clouds":[],"fltCat":"VFR"},{"icaoId":"KMFR","receiptTime":"2026-04-18T02:56:27.074Z","obsTime":1776480780,"reportTime":"2026-04-18T03:00:00.000Z","temp":17.2,"dewp":-8.9,"wdir":0,"wspd":0,"visib":"10+","altim":1017,"slp":1017,"qcField":4,"presTend":-0.9,"metarType":"METAR","rawOb":"METAR KMFR 180253Z 00000KT 10SM CLR 17/M09 A3003 RMK AO2 SLP170 T01721089 56009","lat":42.375,"lon":-122.877,"elev":397,"name":"Medford/Rogue Valley Intl, OR, US","cover":"CLR","clouds":[],"fltCat":"VFR"},{"icaoId":"KMLC","receiptTime":"2026-04-18T02:56:27.244Z","obsTime":1776480780,"reportTime":"2026-04-18T03:00:00.000Z","temp":24.4,"dewp":18.3,"wdir":190,"wspd":7,"visib":"10+","altim":1007.2,"slp":1006.1,"qcField":6,"presTend":-0.3,"pcp3hr":0.005,"metarType":"METAR","rawOb":"METAR KMLC 180253Z AUTO 19007KT 10SM OVC055 24/18 A2974 RMK AO2 SLP061 60000 T02440183 55003","lat":34.8824,"lon":-95.7815,"elev":231,"name":"McAlester Rgnl, OK, US","cover":"OVC","clouds":[{"cover":"OVC","base":5500}],"fltCat":"VFR"},{"icaoId":"KIDA","receiptTime":"2026-04-18T02:56:27.817Z","obsTime":1776480780,"reportTime":"2026-04-18T03:00:00.000Z","temp":1.7,"dewp":-7.2,"wdir":210,"wspd":9,"visib":"10+","altim":1021.4,"slp":1024,"qcField":6,"presTend":-0.2,"metarType":"METAR","rawOb":"METAR KIDA 180253Z AUTO 21009KT 10SM CLR 02/M07 A3016 RMK AO2 SLP240 T00171072 55002","lat":43.5204,"lon":-112.0675,"elev":1444,"name":"Idaho Falls Rgnl, ID, US","cover":"CLR","clouds":[],"fltCat":"VFR"},{"icaoId":"KLAR","receiptTime":"2026-04-18T02:56:28.032Z","obsTime":1776480780,"reportTime":"2026-04-18T03:00:00.000Z","temp":-3.9,"dewp":-11.1,"wdir":260,"wspd":14,"visib":"10+","altim":1017.7,"slp":1020.1,"qcField":6,"presTend":1.1,"metarType":"METAR","rawOb":"METAR KLAR 180253Z AUTO 26014KT 10SM FEW110 M04/M11 A3005 RMK AO2 SLP201 T10391111 53011","lat":41.3165,"lon":-105.6729,"elev":2217,"name":"Laramie Rgnl, WY, US","cover":"FEW","clouds":[{"cover":"FEW","base":11000}],"fltCat":"VFR"},{"icaoId":"KMCO","receiptTime":"2026-04-18T02:56:28.166Z","obsTime":1776480780,"reportTime":"2026-04-18T03:00:00.000Z","temp":22.2,"dewp":18.9,"wdir":130,"wspd":5,"visib":"10+","altim":1018.4,"slp":1018,"qcField":4,"presTend":1.6,"metarType":"METAR","rawOb":"METAR KMCO 180253Z 13005KT 10SM CLR 22/19 A3007 RMK AO2 SLP180 T02220189 51016","lat":28.4182,"lon":-81.3241,"elev":27,"name":"Orlando Intl, FL, US","cover":"CLR","clouds":[],"fltCat":"VFR"},{"icaoId":"KTUS","receiptTime":"2026-04-18T02:56:29.053Z","obsTime":1776480780,"reportTime":"2026-04-18T03:00:00.000Z","temp":23.3,"dewp":-2.2,"wdir":330,"wspd":8,"visib":"10+","altim":1013.3,"slp":1009.5,"qcField":4,"presTend":1.1,"metarType":"METAR","rawOb":"METAR KTUS 180253Z 33008KT 10SM CLR 23/M02 A2992 RMK AO2 SLP095 T02331022 53011","lat":32.1315,"lon":-110.9564,"elev":776,"name":"Tucson Intl Arpt, AZ, US","cover":"CLR","clouds":[],"fltCat":"VFR"},{"icaoId":"KPAE","receiptTime":"2026-04-18T02:56:29.442Z","obsTime":1776480780,"reportTime":"2026-04-18T03:00:00.000Z","temp":9.4,"dewp":3.9,"wdir":350,"wspd":3,"visib":"10+","altim":1022.1,"slp":1022.1,"qcField":4,"presTend":-1.7,"metarType":"METAR","rawOb":"METAR KPAE 180253Z 35003KT 10SM CLR 09/04 A3018 RMK AO2 SLP221 T00940039 56017","lat":47.9232,"lon":-122.2831,"elev":166,"name":"Everett/Paine Fld, WA, US","cover":"CLR","clouds":[],"fltCat":"VFR"},{"icaoId":"KPBI","receiptTime":"2026-04-18T02:56:29.493Z","obsTime":1776480780,"reportTime":"2026-04-18T03:00:00.000Z","temp":24.4,"dewp":20.6,"wdir":80,"wspd":9,"visib":"10+","altim":1017.4,"slp":1017.1,"qcField":12,"presTend":0.7,"metarType":"METAR","rawOb":"METAR KPBI 180253Z 08009KT 10SM FEW025 FEW070 24/21 A3004 RMK AO2 SLP171 T02440206 51007 $","lat":26.6851,"lon":-80.0992,"elev":4,"name":"Palm Beach Intl, FL, US","cover":"FEW","clouds":[{"cover":"FEW","base":2500},{"cover":"FEW","base":7000}],"fltCat":"VFR"},{"icaoId":"KPNC","receiptTime":"2026-04-18T02:56:29.661Z","obsTime":1776480780,"reportTime":"2026-04-18T03:00:00.000Z","temp":15,"dewp":9.4,"wdir":10,"wspd":22,"wgst":30,"visib":"10+","altim":1010.2,"slp":1009.3,"qcField":6,"presTend":4,"pcp3hr":1.07,"metarType":"METAR","rawOb":"METAR KPNC 180253Z AUTO 01022G30KT 10SM FEW080 SCT090 OVC110 15/09 A2983 RMK AO2 PK WND 01030/0253 LTG DSNT SE-W SLP093 60107 T01500094 53040","lat":36.7369,"lon":-97.1024,"elev":304,"name":"Ponca City Rgnl, OK, US","cover":"OVC","clouds":[{"cover":"FEW","base":8000},{"cover":"SCT","base":9000},{"cover":"OVC","base":11000}],"fltCat":"VFR"},{"icaoId":"KPRC","receiptTime":"2026-04-18T02:56:29.728Z","obsTime":1776480780,"reportTime":"2026-04-18T03:00:00.000Z","temp":14.4,"dewp":-9.4,"wdir":250,"wspd":4,"visib":"10+","altim":1016.7,"slp":1011.8,"qcField":4,"presTend":0.5,"metarType":"METAR","rawOb":"METAR KPRC 180253Z 25004KT 10SM CLR 14/M09 A3002 RMK AO2 SLP118 T01441094 53005","lat":34.6491,"lon":-112.4223,"elev":1528,"name":"Prescott/Love Fld, AZ, US","cover":"CLR","clouds":[],"fltCat":"VFR"},{"icaoId":"KPUW","receiptTime":"2026-04-18T02:56:29.815Z","obsTime":1776480780,"reportTime":"2026-04-18T03:00:00.000Z","temp":5.6,"dewp":-1.7,"wdir":0,"wspd":0,"visib":"10+","altim":1023.1,"slp":1024.6,"qcField":6,"presTend":-0.3,"metarType":"METAR","rawOb":"METAR KPUW 180253Z AUTO 00000KT 10SM CLR 06/M02 A3021 RMK AO2 SLP246 T00561017 58003","lat":46.7438,"lon":-117.1158,"elev":774,"name":"Pullman/Moscow Rgnl, WA, US","cover":"CLR","clouds":[],"fltCat":"VFR"},{"icaoId":"KMOD","receiptTime":"2026-04-18T02:56:30.004Z","obsTime":1776480780,"reportTime":"2026-04-18T03:00:00.000Z","temp":18.9,"dewp":-1.1,"wdir":320,"wspd":4,"visib":"10+","altim":1015.7,"slp":1015.5,"qcField":4,"presTend":-0.4,"metarType":"METAR","rawOb":"METAR KMOD 180253Z 32004KT 10SM CLR 19/M01 A2999 RMK AO2 SLP155 T01891011 56004","lat":37.6254,"lon":-120.9549,"elev":25,"name":"Modesto/Sham Fld, CA, US","cover":"CLR","clouds":[],"fltCat":"VFR"},{"icaoId":"KMSY","receiptTime":"2026-04-18T02:56:30.087Z","obsTime":1776480780,"reportTime":"2026-04-18T03:00:00.000Z","temp":22.8,"dewp":18.9,"wdir":150,"wspd":7,"visib":"10+","altim":1015.7,"slp":1015.7,"qcField":4,"presTend":0.6,"metarType":"METAR","rawOb":"METAR KMSY 180253Z 15007KT 10SM FEW015 SCT250 23/19 A2999 RMK AO2 SLP157 T02280189 51006","lat":29.9974,"lon":-90.2777,"elev":0,"name":"New Orleans/Armstrong Intl, LA, US","cover":"SCT","clouds":[{"cover":"FEW","base":1500},{"cover":"SCT","base":25000}],"fltCat":"VFR"},{"icaoId":"KMTJ","receiptTime":"2026-04-18T02:56:30.110Z","obsTime":1776480780,"reportTime":"2026-04-18T03:00:00.000Z","temp":2.2,"dewp":-11.1,"wdir":150,"wspd":4,"visib":"10+","altim":1022.4,"slp":1022.5,"qcField":6,"presTend":0.9,"metarType":"METAR","rawOb":"METAR KMTJ 180253Z AUTO 15004KT 10SM CLR 02/M11 A3019 RMK AO2 SLP225 T00221111 53009","lat":38.5054,"lon":-107.8981,"elev":1755,"name":"Montrose Rgnl, CO, US","cover":"CLR","clouds":[],"fltCat":"VFR"},{"icaoId":"KOAK","receiptTime":"2026-04-18T02:56:30.195Z","obsTime":1776480780,"reportTime":"2026-04-18T03:00:00.000Z","temp":15.6,"dewp":3.3,"wdir":280,"wspd":7,"visib":"10+","altim":1017.4,"slp":1017.1,"qcField":12,"metarType":"METAR","rawOb":"METAR KOAK 180253Z 28007KT 10SM FEW200 BKN250 16/03 A3004 RMK AO2 SLP171 T01560033 55000 $","lat":37.7178,"lon":-122.233,"elev":3,"name":"Oakland Intl, CA, US","cover":"BKN","clouds":[{"cover":"FEW","base":20000},{"cover":"BKN","base":25000}],"fltCat":"VFR"},{"icaoId":"PANC","receiptTime":"2026-04-18T02:56:30.628Z","obsTime":1776480780,"reportTime":"2026-04-18T03:00:00.000Z","temp":3.3,"dewp":1.1,"wdir":300,"wspd":3,"visib":"10+","altim":1008.5,"slp":1008.7,"qcField":4,"presTend":0.1,"metarType":"METAR","rawOb":"METAR PANC 180253Z 30003KT 10SM FEW030 BKN080 03/01 A2978 RMK AO2 SLP087 T00330011 53001","lat":61.1691,"lon":-150.0277,"elev":39,"name":"Anchorage Intl, AK, US","cover":"BKN","clouds":[{"cover":"FEW","base":3000},{"cover":"BKN","base":8000}],"fltCat":"VFR"},{"icaoId":"KMSO","receiptTime":"2026-04-18T03:00:07.538Z","obsTime":1776480780,"reportTime":"2026-04-18T03:00:00.000Z","temp":2.2,"dewp":-6.1,"wdir":0,"wspd":0,"visib":"10+","altim":1021.8,"slp":1024,"qcField":13,"presTend":0.3,"metarType":"METAR","rawOb":"METAR KMSO 180253Z COR 00000KT 10SM CLR 02/M06 A3017 RMK AO2 SLP240 T00221061 51003 $","lat":46.9208,"lon":-114.0938,"elev":974,"name":"Missoula Intl, MT, US","cover":"CLR","clouds":[],"fltCat":"VFR"},{"icaoId":"KBLI","receiptTime":"2026-04-18T02:56:28.301Z","obsTime":1776480780,"reportTime":"2026-04-18T03:00:00.000Z","temp":10.6,"dewp":2.8,"wdir":0,"wspd":0,"visib":"10+","altim":1022.1,"slp":1022.7,"qcField":4,"presTend":-1.8,"metarType":"METAR","rawOb":"METAR KBLI 180253Z 00000KT 10SM CLR 11/03 A3018 RMK AO2 SLP227 T01060028 58018","lat":48.7991,"lon":-122.5407,"elev":46,"name":"Bellingham Intl, WA, US","cover":"CLR","clouds":[],"fltCat":"VFR"},{"icaoId":"KOGD","receiptTime":"2026-04-18T02:56:30.240Z","obsTime":1776480780,"reportTime":"2026-04-18T03:00:00.000Z","temp":5,"dewp":-12.2,"wdir":120,"wspd":3,"visib":"10+","altim":1022.8,"slp":1022.7,"qcField":6,"presTend":-0.1,"metarType":"METAR","rawOb":"METAR KOGD 180253Z AUTO 12003KT 10SM CLR 05/M12 A3020 RMK AO2 SLP227 T00501122 55001","lat":41.1941,"lon":-112.0168,"elev":1356,"name":"Ogden/Hinckley Arpt, UT, US","cover":"CLR","clouds":[],"fltCat":"VFR"},{"icaoId":"KLBB","receiptTime":"2026-04-18T02:56:28.872Z","obsTime":1776480780,"reportTime":"2026-04-18T03:00:00.000Z","temp":22.8,"dewp":-6.7,"wdir":260,"wspd":8,"visib":"10+","altim":1008.9,"slp":1003.8,"qcField":4,"presTend":2.3,"metarType":"METAR","rawOb":"METAR KLBB 180253Z 26008KT 10SM CLR 23/M07 A2979 RMK AO2 SLP038 T02281067 53023","lat":33.6658,"lon":-101.8233,"elev":996,"name":"Lubbock Intl Arpt, TX, US","cover":"CLR","clouds":[],"fltCat":"VFR"},{"icaoId":"KLGB","receiptTime":"2026-04-18T02:56:27.394Z","obsTime":1776480780,"reportTime":"2026-04-18T03:00:00.000Z","temp":18.9,"dewp":10,"wdir":300,"wspd":9,"visib":"10+","altim":1013,"slp":1012.9,"qcField":12,"presTend":-0.2,"metarType":"METAR","rawOb":"METAR KLGB 180253Z 30009KT 10SM CLR 19/10 A2991 RMK AO2 SLP129 T01890100 55002 $","lat":33.8118,"lon":-118.1472,"elev":10,"name":"Long Beach Arpt, CA, US","cover":"CLR","clouds":[],"fltCat":"VFR"},{"icaoId":"KMAF","receiptTime":"2026-04-18T02:56:28.055Z","obsTime":1776480780,"reportTime":"2026-04-18T03:00:00.000Z","temp":23.9,"dewp":-0.6,"wdir":250,"wspd":5,"visib":"10+","altim":1009.9,"slp":1005.5,"qcField":4,"presTend":2,"metarType":"METAR","rawOb":"METAR KMAF 180253Z 25005KT 10SM CLR 24/M01 A2982 RMK AO2 SLP055 T02391006 53020","lat":31.9475,"lon":-102.2086,"elev":874,"name":"Midland Intl, TX, US","cover":"CLR","clouds":[],"fltCat":"VFR"},{"icaoId":"KHLN","receiptTime":"2026-04-18T02:56:25.332Z","obsTime":1776480780,"reportTime":"2026-04-18T03:00:00.000Z","temp":2.2,"dewp":-3.3,"wdir":10,"wspd":4,"visib":"10+","altim":1020.1,"slp":1023.7,"qcField":4,"presTend":1.2,"metarType":"METAR","rawOb":"METAR KHLN 180253Z 01004KT 10SM OVC090 02/M03 A3012 RMK AO2 SLP237 T00221033 51012","lat":46.6045,"lon":-111.9892,"elev":1178,"name":"Helena Rgnl, MT, US","cover":"OVC","clouds":[{"cover":"OVC","base":9000}],"fltCat":"VFR"},{"icaoId":"KHOU","receiptTime":"2026-04-18T02:56:27.642Z","obsTime":1776480780,"reportTime":"2026-04-18T03:00:00.000Z","temp":23.3,"dewp":20,"wdir":160,"wspd":9,"visib":"10+","altim":1013,"slp":1013.2,"qcField":4,"presTend":0.6,"metarType":"METAR","rawOb":"METAR KHOU 180253Z 16009KT 10SM BKN250 23/20 A2991 RMK AO2 SLP132 T02330200 53006","lat":29.6458,"lon":-95.2821,"elev":13,"name":"Houston/Hobby Arpt, TX, US","cover":"BKN","clouds":[{"cover":"BKN","base":25000}],"fltCat":"VFR"},{"icaoId":"KCNM","receiptTime":"2026-04-18T02:56:20.805Z","obsTime":1776480780,"reportTime":"2026-04-18T03:00:00.000Z","temp":24.4,"dewp":-5,"wdir":280,"wspd":10,"visib":"10+","altim":1010.6,"slp":1004.7,"qcField":6,"presTend":1.9,"metarType":"METAR","rawOb":"METAR KCNM 180253Z AUTO 28010KT 10SM CLR 24/M05 A2984 RMK AO2 SLP047 T02441050 53019","lat":32.3336,"lon":-104.2584,"elev":993,"name":"Carlsbad/Cavern City Air Term, NM, US","cover":"CLR","clouds":[],"fltCat":"VFR"},{"icaoId":"KCNY","receiptTime":"2026-04-18T02:56:24.267Z","obsTime":1776480780,"reportTime":"2026-04-18T03:00:00.000Z","temp":6.1,"dewp":-12.2,"wdir":150,"wspd":4,"visib":"10+","altim":1020.1,"slp":1020.1,"qcField":14,"presTend":0.1,"metarType":"METAR","rawOb":"METAR KCNY 180253Z AUTO 15004KT 10SM CLR 06/M12 A3012 RMK AO2 SLP201 T00611122 53001 $","lat":38.7501,"lon":-109.7627,"elev":1392,"name":"Moab/Canyonland Fld, UT, US","cover":"CLR","clouds":[],"fltCat":"VFR"},{"icaoId":"KDTW","receiptTime":"2026-04-18T02:56:19.831Z","obsTime":1776480780,"reportTime":"2026-04-18T03:00:00.000Z","temp":13.3,"dewp":7.2,"wdir":130,"wspd":5,"visib":"10+","altim":1011.6,"slp":1011.4,"qcField":4,"presTend":0.4,"metarType":"METAR","rawOb":"METAR KDTW 180253Z 13005KT 10SM OVC220 13/07 A2987 RMK AO2 SLP114 T01330072 51004","lat":42.2311,"lon":-83.3312,"elev":192,"name":"Detroit/Metro Wayne Cnty, MI, US","cover":"OVC","clouds":[{"cover":"OVC","base":22000}],"fltCat":"VFR"},{"icaoId":"KSBA","receiptTime":"2026-04-18T02:56:25.695Z","obsTime":1776480780,"reportTime":"2026-04-18T03:00:00.000Z","temp":18.3,"dewp":4.4,"wdir":260,"wspd":4,"visib":"10+","altim":1013.6,"slp":1013.5,"qcField":12,"presTend":-1,"metarType":"METAR","rawOb":"METAR KSBA 180253Z 26004KT 10SM CLR 18/04 A2993 RMK AO2 SLP135 T01830044 58010 $","lat":34.4241,"lon":-119.8425,"elev":2,"name":"Santa Barbara Muni, CA, US","cover":"CLR","clouds":[],"fltCat":"VFR"},{"icaoId":"KPDX","receiptTime":"2026-04-18T02:56:28.970Z","obsTime":1776480780,"reportTime":"2026-04-18T03:00:00.000Z","temp":13.9,"dewp":2.2,"wdir":290,"wspd":4,"visib":"10+","altim":1020.4,"slp":1020.1,"qcField":12,"presTend":-1.8,"metarType":"METAR","rawOb":"METAR KPDX 180253Z 29004KT 10SM FEW100 FEW170 BKN200 BKN250 14/02 A3013 RMK AO2 SLP201 ACC SE T01390022 56018 $","lat":45.5958,"lon":-122.6092,"elev":7,"name":"Portland Intl, OR, US","cover":"BKN","clouds":[{"cover":"FEW","base":10000},{"cover":"FEW","base":17000},{"cover":"BKN","base":20000},{"cover":"BKN","base":25000}],"fltCat":"VFR"},{"icaoId":"KSMF","receiptTime":"2026-04-18T02:56:26.881Z","obsTime":1776480780,"reportTime":"2026-04-18T03:00:00.000Z","temp":19.4,"dewp":-2.2,"wdir":210,"wspd":3,"visib":"10+","altim":1015.7,"slp":1015.3,"qcField":4,"presTend":-0.3,"metarType":"METAR","rawOb":"METAR KSMF 180253Z 21003KT 10SM BKN250 19/M02 A2999 RMK AO2 SLP153 T01941022 55003","lat":38.7007,"lon":-121.5948,"elev":7,"name":"Sacramento Intl, CA, US","cover":"BKN","clouds":[{"cover":"BKN","base":25000}],"fltCat":"VFR"},{"icaoId":"KLOL","receiptTime":"2026-04-18T02:56:27.468Z","obsTime":1776480780,"reportTime":"2026-04-18T03:00:00.000Z","temp":11.1,"dewp":-21.1,"wdir":10,"wspd":5,"visib":"10+","altim":1019.7,"slp":1020.4,"qcField":6,"presTend":-0.8,"metarType":"METAR","rawOb":"METAR KLOL 180253Z AUTO 01005KT 10SM CLR 11/M21 A3011 RMK AO2 SLP204 T01111211 56008","lat":40.0684,"lon":-118.5702,"elev":1191,"name":"Lovelock/Derby Fld, NV, US","cover":"CLR","clouds":[],"fltCat":"VFR"},{"icaoId":"KCDC","receiptTime":"2026-04-18T02:56:28.602Z","obsTime":1776480780,"reportTime":"2026-04-18T03:00:00.000Z","temp":3.3,"dewp":-12.2,"wdir":30,"wspd":7,"visib":"10+","altim":1021.4,"slp":1021.8,"qcField":6,"presTend":0.5,"metarType":"METAR","rawOb":"METAR KCDC 180253Z AUTO 03007KT 10SM CLR 03/M12 A3016 RMK AO2 SLP218 T00331122 53005","lat":37.7067,"lon":-113.097,"elev":1703,"name":"Cedar City Muni, UT, US","cover":"CLR","clouds":[],"fltCat":"VFR"},{"icaoId":"KSTS","receiptTime":"2026-04-18T02:56:25.374Z","obsTime":1776480780,"reportTime":"2026-04-18T03:00:00.000Z","temp":14.4,"dewp":3.9,"wdir":150,"wspd":7,"visib":"10+","altim":1016.7,"slp":1015.9,"qcField":6,"presTend":0.1,"metarType":"METAR","rawOb":"METAR KSTS 180253Z AUTO 15007KT 10SM CLR 14/04 A3002 RMK AO2 SLP159 T01440039 53001","lat":38.5037,"lon":-122.811,"elev":35,"name":"Santa Rosa/Schulz Arpt, CA, US","cover":"CLR","clouds":[],"fltCat":"VFR"},{"icaoId":"KPUB","receiptTime":"2026-04-18T02:56:29.792Z","obsTime":1776480780,"reportTime":"2026-04-18T03:00:00.000Z","temp":3.9,"dewp":-5,"wdir":70,"wspd":4,"visib":"10+","altim":1021.1,"slp":1020.3,"qcField":12,"presTend":2.1,"pcp3hr":0.005,"metarType":"METAR","rawOb":"METAR KPUB 180253Z 07004KT 10SM OVC043 04/M05 A3015 RMK AO2 SLP203 60000 T00391050 53021 $","lat":38.2887,"lon":-104.5057,"elev":1441,"name":"Pueblo Mem Arpt, CO, US","cover":"OVC","clouds":[{"cover":"OVC","base":4300}],"fltCat":"VFR"},{"icaoId":"KMYR","receiptTime":"2026-04-18T02:56:23.938Z","obsTime":1776480780,"reportTime":"2026-04-18T03:00:00.000Z","temp":22.2,"dewp":15,"wdir":200,"wspd":7,"visib":"10+","altim":1015.3,"slp":1015,"qcField":14,"presTend":0.6,"metarType":"METAR","rawOb":"METAR KMYR 180253Z AUTO 20007KT 10SM CLR 22/15 A2998 RMK AO2 SLP150 T02220150 51006 $","lat":33.6769,"lon":-78.9325,"elev":7,"name":"Myrtle Beach Intl, SC, US","cover":"CLR","clouds":[],"fltCat":"VFR"},{"icaoId":"KSNA","receiptTime":"2026-04-18T02:56:26.904Z","obsTime":1776480780,"reportTime":"2026-04-18T03:00:00.000Z","temp":18.9,"dewp":12.8,"wdir":220,"wspd":5,"visib":"10+","altim":1013.6,"slp":1013.3,"qcField":4,"presTend":-0.1,"metarType":"METAR","rawOb":"METAR KSNA 180253Z 22005KT 10SM CLR 19/13 A2993 RMK AO2 SLP133 T01890128 55001","lat":33.6798,"lon":-117.8675,"elev":14,"name":"Santa Ana/Wayne Arpt, CA, US","cover":"CLR","clouds":[],"fltCat":"VFR"},{"icaoId":"KSDL","receiptTime":"2026-04-18T02:56:25.722Z","obsTime":1776480780,"reportTime":"2026-04-18T03:00:00.000Z","temp":26.1,"dewp":-2.2,"wdir":0,"wspd":0,"visib":"10+","altim":1011.3,"slp":1009.2,"qcField":4,"presTend":0.5,"metarType":"METAR","rawOb":"METAR KSDL 180253Z 00000KT 10SM CLR 26/M02 A2986 RMK AO2 SLP092 T02611022 53005","lat":33.6123,"lon":-111.9232,"elev":438,"name":"Scottsdale Muni, AZ, US","cover":"CLR","clouds":[],"fltCat":"VFR"},{"icaoId":"KSEA","receiptTime":"2026-04-18T02:56:29.190Z","obsTime":1776480780,"reportTime":"2026-04-18T03:00:00.000Z","temp":11.1,"dewp":0.6,"wdir":300,"wspd":4,"visib":"10+","altim":1021.8,"slp":1022.4,"qcField":4,"presTend":-1.7,"metarType":"METAR","rawOb":"METAR KSEA 180253Z 30004KT 10SM FEW050 SCT170 BKN220 11/01 A3017 RMK AO2 SLP224 T01110006 56017","lat":47.4447,"lon":-122.3144,"elev":115,"name":"Seattle-Tacoma Intl, WA, US","cover":"BKN","clouds":[{"cover":"FEW","base":5000},{"cover":"SCT","base":17000},{"cover":"BKN","base":22000}],"fltCat":"VFR"},{"icaoId":"KSHR","receiptTime":"2026-04-18T02:56:25.803Z","obsTime":1776480780,"reportTime":"2026-04-18T03:00:00.000Z","temp":-2.2,"dewp":-3.9,"wdir":290,"wspd":3,"visib":"10+","altim":1018.7,"slp":1022.8,"qcField":6,"presTend":0.7,"metarType":"METAR","rawOb":"METAR KSHR 180253Z AUTO 29003KT 10SM CLR M02/M04 A3008 RMK AO2 SLP228 T10221039 52007","lat":44.7603,"lon":-106.9741,"elev":1212,"name":"Sheridan Cnty Arpt, WY, US","cover":"CLR","clouds":[],"fltCat":"VFR"},{"icaoId":"KYKM","receiptTime":"2026-04-18T02:56:29.211Z","obsTime":1776480780,"reportTime":"2026-04-18T03:00:00.000Z","temp":12.2,"dewp":-5,"wdir":180,"wspd":3,"visib":"10+","altim":1021.4,"slp":1021.7,"qcField":4,"presTend":-0.6,"metarType":"METAR","rawOb":"METAR KYKM 180253Z 18003KT 10SM CLR 12/M05 A3016 RMK AO2 SLP217 T01221050 58006","lat":46.564,"lon":-120.5349,"elev":319,"name":"Yakima/McAllister Fld, WA, US","cover":"CLR","clouds":[],"fltCat":"VFR"},{"icaoId":"KRIW","receiptTime":"2026-04-18T02:56:29.002Z","obsTime":1776480780,"reportTime":"2026-04-18T03:00:00.000Z","temp":1.7,"dewp":-13.3,"wdir":"VRB","wspd":5,"visib":"10+","altim":1019,"slp":1020.4,"qcField":6,"presTend":2,"metarType":"METAR","rawOb":"METAR KRIW 180253Z AUTO VRB05KT 10SM BKN080 OVC100 02/M13 A3009 RMK AO2 SLP204 T00171133 53020","lat":43.0622,"lon":-108.4471,"elev":1662,"name":"Riverton Rgnl, WY, US","cover":"OVC","clouds":[{"cover":"BKN","base":8000},{"cover":"OVC","base":10000}],"fltCat":"VFR"},{"icaoId":"KPGA","receiptTime":"2026-04-18T02:56:28.980Z","obsTime":1776480780,"reportTime":"2026-04-18T03:00:00.000Z","temp":10.6,"dewp":-23.3,"wdir":90,"wspd":4,"visib":"10+","altim":1019.7,"slp":1017.9,"qcField":14,"presTend":0.1,"metarType":"METAR","rawOb":"METAR KPGA 180253Z AUTO 09004KT 10SM CLR 11/M23 A3011 RMK AO2 SLP179 T01061233 53001 $","lat":36.9211,"lon":-111.4487,"elev":1310,"name":"Page Muni, AZ, US","cover":"CLR","clouds":[],"fltCat":"VFR"},{"icaoId":"KPSC","receiptTime":"2026-04-18T02:56:29.741Z","obsTime":1776480780,"reportTime":"2026-04-18T03:00:00.000Z","temp":12.8,"dewp":-1.7,"wdir":0,"wspd":0,"visib":"10+","altim":1022.4,"slp":1022.5,"qcField":4,"presTend":-0.7,"metarType":"METAR","rawOb":"METAR KPSC 180253Z 00000KT 10SM CLR 13/M02 A3019 RMK AO2 SLP225 T01281017 56007","lat":46.2695,"lon":-119.1182,"elev":121,"name":"Pasco/Tri Cities Arpt, WA, US","cover":"CLR","clouds":[],"fltCat":"VFR"},{"icaoId":"KPSP","receiptTime":"2026-04-18T02:56:29.752Z","obsTime":1776480780,"reportTime":"2026-04-18T03:00:00.000Z","temp":25,"dewp":-14.4,"wdir":290,"wspd":6,"visib":"10+","altim":1013.6,"slp":1013.4,"qcField":12,"presTend":0.1,"metarType":"METAR","rawOb":"METAR KPSP 180253Z 29006KT 10SM CLR 25/M14 A2993 RMK AO2 SLP134 T02501144 53001 $","lat":33.8222,"lon":-116.5043,"elev":123,"name":"Palm Springs Intl, CA, US","cover":"CLR","clouds":[],"fltCat":"VFR"},{"icaoId":"KRDD","receiptTime":"2026-04-18T02:56:29.894Z","obsTime":1776480780,"reportTime":"2026-04-18T03:00:00.000Z","temp":19.4,"dewp":-2.8,"wdir":0,"wspd":0,"visib":"10+","altim":1014.6,"slp":1014.3,"qcField":4,"presTend":-0.5,"metarType":"METAR","rawOb":"METAR KRDD 180253Z 00000KT 10SM CLR 19/M03 A2996 RMK AO2 SLP143 T01941028 55005","lat":40.5146,"lon":-122.2977,"elev":152,"name":"Redding Muni, CA, US","cover":"CLR","clouds":[],"fltCat":"VFR"},{"icaoId":"KIAH","receiptTime":"2026-04-18T02:56:27.778Z","obsTime":1776480780,"reportTime":"2026-04-18T03:00:00.000Z","temp":23.9,"dewp":18.9,"wdir":170,"wspd":9,"visib":"10+","altim":1013.3,"slp":1013,"qcField":4,"presTend":1,"metarType":"METAR","rawOb":"METAR KIAH 180253Z 17009KT 10SM BKN250 24/19 A2992 RMK AO2 SLP130 T02390189 53010","lat":29.9844,"lon":-95.3607,"elev":27,"name":"Houston/Bush Intl, TX, US","cover":"BKN","clouds":[{"cover":"BKN","base":25000}],"fltCat":"VFR"},{"icaoId":"KLVS","receiptTime":"2026-04-18T02:56:27.617Z","obsTime":1776480780,"reportTime":"2026-04-18T03:00:00.000Z","temp":3.3,"dewp":-4.4,"wdir":30,"wspd":15,"wgst":25,"visib":"10+","altim":1017,"slp":1010.9,"qcField":14,"presTend":3,"metarType":"METAR","rawOb":"METAR KLVS 180253Z AUTO 03015G25KT 10SM CLR 03/M04 A3003 RMK AO2 SLP109 T00331044 53030 $","lat":35.6558,"lon":-105.1385,"elev":2095,"name":"Las Vegas Muni, NM, US","cover":"CLR","clouds":[],"fltCat":"VFR"},{"icaoId":"KCPR","receiptTime":"2026-04-18T02:56:19.472Z","obsTime":1776480780,"reportTime":"2026-04-18T03:00:00.000Z","temp":0,"dewp":-6.1,"wdir":320,"wspd":5,"visib":"10+","altim":1018.4,"slp":1020.9,"qcField":4,"presTend":1.4,"metarType":"METAR","rawOb":"METAR KCPR 180253Z 32005KT 10SM FEW075 FEW090 00/M06 A3007 RMK AO2 SLP209 T00001061 53014","lat":42.8978,"lon":-106.4736,"elev":1623,"name":"Casper/Natrona Cnty, WY, US","cover":"FEW","clouds":[{"cover":"FEW","base":7500},{"cover":"FEW","base":9000}],"fltCat":"VFR"},{"icaoId":"KCYS","receiptTime":"2026-04-18T02:56:19.590Z","obsTime":1776480780,"reportTime":"2026-04-18T03:00:00.000Z","temp":-0.6,"dewp":-10.6,"wdir":300,"wspd":8,"visib":"10+","altim":1018.4,"slp":1021.7,"qcField":4,"presTend":1.5,"metarType":"METAR","rawOb":"METAR KCYS 180253Z 30008KT 10SM BKN085 M01/M11 A3007 RMK AO2 SLP217 T10061106 53015","lat":41.1579,"lon":-104.8081,"elev":1868,"name":"Cheyenne Rgnl, WY, US","cover":"BKN","clouds":[{"cover":"BKN","base":8500}],"fltCat":"VFR"},{"icaoId":"KDEN","receiptTime":"2026-04-18T02:56:19.626Z","obsTime":1776480780,"reportTime":"2026-04-18T03:00:00.000Z","temp":-0.6,"dewp":-5.6,"wdir":220,"wspd":6,"visib":"10+","altim":1019.7,"slp":1020.4,"qcField":12,"presTend":1.4,"metarType":"METAR","rawOb":"METAR KDEN 180253Z 22006KT 10SM FEW060 FEW120 M01/M06 A3011 RMK AO2 SLP204 T10061056 53014 $","lat":39.8466,"lon":-104.6562,"elev":1656,"name":"Denver Intl, CO, US","cover":"FEW","clouds":[{"cover":"FEW","base":6000},{"cover":"FEW","base":12000}],"fltCat":"VFR"},{"icaoId":"KDLN","receiptTime":"2026-04-18T02:56:19.741Z","obsTime":1776480780,"reportTime":"2026-04-18T03:00:00.000Z","temp":0.6,"dewp":-10.6,"wdir":270,"wspd":9,"visib":"10+","altim":1019.7,"slp":1021.9,"qcField":6,"presTend":0.9,"metarType":"METAR","rawOb":"METAR KDLN 180253Z AUTO 27009KT 10SM CLR 01/M11 A3011 RMK AO2 SLP219 T00061106 53009","lat":45.2584,"lon":-112.5546,"elev":1586,"name":"Dillon Arpt, MT, US","cover":"CLR","clouds":[],"fltCat":"VFR"},{"icaoId":"KDRO","receiptTime":"2026-04-18T02:56:19.790Z","obsTime":1776480780,"reportTime":"2026-04-18T03:00:00.000Z","temp":2.2,"dewp":-15,"wdir":230,"wspd":7,"visib":"10+","altim":1018.7,"slp":1016.7,"qcField":6,"presTend":1.8,"metarType":"METAR","rawOb":"METAR KDRO 180253Z AUTO 23007KT 10SM CLR 02/M15 A3008 RMK AO2 SLP167 T00221150 53018","lat":37.1431,"lon":-107.7602,"elev":2021,"name":"Durango/La Plata Cnty, CO, US","cover":"CLR","clouds":[],"fltCat":"VFR"},{"icaoId":"KDVT","receiptTime":"2026-04-18T02:56:19.985Z","obsTime":1776480780,"reportTime":"2026-04-18T03:00:00.000Z","temp":25.6,"dewp":-6.7,"wdir":310,"wspd":5,"visib":"10+","altim":1010.9,"slp":1009,"qcField":4,"presTend":0.7,"metarType":"METAR","rawOb":"METAR KDVT 180253Z 31005KT 10SM CLR 26/M07 A2985 RMK AO2 SLP090 T02561067 53007","lat":33.6902,"lon":-112.0662,"elev":454,"name":"Phoenix/Deer Valley Arpt, AZ, US","cover":"CLR","clouds":[],"fltCat":"VFR"},{"icaoId":"KEVW","receiptTime":"2026-04-18T02:56:25.974Z","obsTime":1776480780,"reportTime":"2026-04-18T03:00:00.000Z","temp":-4.4,"dewp":-12.8,"wdir":260,"wspd":8,"visib":"10+","altim":1022.1,"slp":1026,"qcField":14,"presTend":0.9,"metarType":"METAR","rawOb":"METAR KEVW 180253Z AUTO 26008KT 10SM FEW060 M04/M13 A3018 RMK AO2 SLP260 T10441128 53009 $","lat":41.2727,"lon":-111.0305,"elev":2178,"name":"Evanston/Uinta Cnty, WY, US","cover":"FEW","clouds":[{"cover":"FEW","base":6000}],"fltCat":"VFR"},{"icaoId":"KDFW","receiptTime":"2026-04-18T02:56:20.916Z","obsTime":1776480780,"reportTime":"2026-04-18T03:00:00.000Z","temp":26.1,"dewp":17.8,"wdir":170,"wspd":17,"wgst":26,"visib":"10+","altim":1007.9,"slp":1007,"qcField":4,"presTend":0.8,"metarType":"METAR","rawOb":"METAR KDFW 180253Z 17017G26KT 10SM FEW070 SCT250 26/18 A2976 RMK AO2 PK WND 17028/0241 SLP070 T02610178 53008","lat":32.8974,"lon":-97.022,"elev":168,"name":"Dallas-Ft Worth Intl, TX, US","cover":"SCT","clouds":[{"cover":"FEW","base":7000},{"cover":"SCT","base":25000}],"fltCat":"VFR"},{"icaoId":"KPIH","receiptTime":"2026-04-18T02:56:29.575Z","obsTime":1776480780,"reportTime":"2026-04-18T03:00:00.000Z","temp":2.8,"dewp":-10,"wdir":210,"wspd":9,"visib":"10+","altim":1021.4,"slp":1023.1,"qcField":4,"presTend":0.3,"metarType":"METAR","rawOb":"METAR KPIH 180253Z 21009KT 10SM FEW090 03/M10 A3016 RMK AO2 SLP231 T00281100 53003","lat":42.9197,"lon":-112.5723,"elev":1357,"name":"Pocatello Rgnl, ID, US","cover":"FEW","clouds":[{"cover":"FEW","base":9000}],"fltCat":"VFR"},{"icaoId":"KMIA","receiptTime":"2026-04-18T02:56:22.312Z","obsTime":1776480780,"reportTime":"2026-04-18T03:00:00.000Z","temp":25,"dewp":21.1,"wdir":"VRB","wspd":6,"visib":"10+","altim":1017,"slp":1016.8,"qcField":0,"presTend":1,"metarType":"METAR","rawOb":"METAR KMIA 180253Z VRB06KT 10SM SCT022 25/21 A3003 RMK SLP168 T02500211 51010","lat":25.7881,"lon":-80.3169,"elev":1,"name":"Miami Intl, FL, US","cover":"SCT","clouds":[{"cover":"SCT","base":2200}],"fltCat":"VFR"},{"icaoId":"KACV","receiptTime":"2026-04-18T02:56:22.807Z","obsTime":1776480780,"reportTime":"2026-04-18T03:00:00.000Z","temp":10,"dewp":7.2,"wdir":330,"wspd":7,"visib":"10+","altim":1018.7,"slp":1019.3,"qcField":6,"presTend":0.1,"metarType":"METAR","rawOb":"METAR KACV 180253Z AUTO 33007KT 10SM CLR 10/07 A3008 RMK AO2 SLP193 T01000072 53001","lat":40.9784,"lon":-124.1048,"elev":63,"name":"Arcata Arpt, CA, US","cover":"CLR","clouds":[],"fltCat":"VFR"},{"icaoId":"KBCE","receiptTime":"2026-04-18T02:56:22.835Z","obsTime":1776480780,"reportTime":"2026-04-18T03:00:00.000Z","temp":0,"dewp":-14.4,"wdir":310,"wspd":6,"visib":"10+","altim":1021.4,"slp":1019.7,"qcField":6,"presTend":0.6,"metarType":"METAR","rawOb":"METAR KBCE 180253Z AUTO 31006KT 10SM CLR 00/M14 A3016 RMK AO2 SLP197 T00001144 53006","lat":37.7013,"lon":-112.149,"elev":2311,"name":"Bryce Canyon Arpt, UT, US","cover":"CLR","clouds":[],"fltCat":"VFR"},{"icaoId":"KBOI","receiptTime":"2026-04-18T02:56:28.351Z","obsTime":1776480780,"reportTime":"2026-04-18T03:00:00.000Z","temp":8.3,"dewp":-6.1,"wdir":40,"wspd":6,"visib":"10+","altim":1022.4,"slp":1022.9,"qcField":4,"presTend":-0.5,"metarType":"METAR","rawOb":"METAR KBOI 180253Z 04006KT 10SM CLR 08/M06 A3019 RMK AO2 SLP229 T00831061 56005","lat":43.567,"lon":-116.2406,"elev":860,"name":"Boise Arpt, ID, US","cover":"CLR","clouds":[],"fltCat":"VFR"},{"icaoId":"KSAF","receiptTime":"2026-04-18T02:56:25.679Z","obsTime":1776480780,"reportTime":"2026-04-18T03:00:00.000Z","temp":6.1,"dewp":-21.1,"wdir":250,"wspd":4,"visib":"10+","altim":1018.4,"slp":1012.8,"qcField":4,"presTend":2.5,"metarType":"METAR","rawOb":"METAR KSAF 180253Z 25004KT 10SM CLR 06/M21 A3007 RMK AO2 SLP128 T00611211 53025","lat":35.611,"lon":-106.0957,"elev":1918,"name":"Santa Fe Cnty Muni, NM, US","cover":"CLR","clouds":[],"fltCat":"VFR"},{"icaoId":"KAMA","receiptTime":"2026-04-18T02:56:23.148Z","obsTime":1776480780,"reportTime":"2026-04-18T03:00:00.000Z","temp":12.8,"dewp":0,"wdir":20,"wspd":28,"wgst":44,"visib":"10+","altim":1015,"slp":1011.4,"qcField":4,"presTend":7.8,"metarType":"METAR","rawOb":"METAR KAMA 180253Z 02028G44KT 10SM CLR 13/00 A2997 RMK AO2 PK WND 01046/0204 PRESRR SLP114 T01280000 53078","lat":35.2203,"lon":-101.7173,"elev":1102,"name":"Amarillo Intl Arpt, TX, US","cover":"CLR","clouds":[],"fltCat":"VFR"},{"icaoId":"KAUS","receiptTime":"2026-04-18T02:56:23.228Z","obsTime":1776480780,"reportTime":"2026-04-18T03:00:00.000Z","temp":24.4,"dewp":19.4,"wdir":170,"wspd":13,"wgst":23,"visib":"10+","altim":1010.6,"slp":1009.7,"qcField":4,"presTend":2.2,"metarType":"METAR","rawOb":"METAR KAUS 180253Z 17013G23KT 10SM OVC027 24/19 A2984 RMK AO2 SLP097 T02440194 53022","lat":30.1831,"lon":-97.6806,"elev":148,"name":"Austin/Bergstrom Intl, TX, US","cover":"OVC","clouds":[{"cover":"OVC","base":2700}],"fltCat":"MVFR"},{"icaoId":"KBHM","receiptTime":"2026-04-18T02:56:28.226Z","obsTime":1776480780,"reportTime":"2026-04-18T03:00:00.000Z","temp":23.9,"dewp":15.6,"wdir":0,"wspd":0,"visib":"10+","altim":1015.3,"slp":1014.5,"qcField":4,"presTend":0.2,"metarType":"METAR","rawOb":"METAR KBHM 180253Z 00000KT 10SM CLR 24/16 A2998 RMK AO2 SLP145 T02390156 53002","lat":33.5655,"lon":-86.7449,"elev":191,"name":"Birmingham Intl, AL, US","cover":"CLR","clouds":[],"fltCat":"VFR"},{"icaoId":"KBNA","receiptTime":"2026-04-18T02:56:28.338Z","obsTime":1776480780,"reportTime":"2026-04-18T03:00:00.000Z","temp":23.3,"dewp":15,"wdir":160,"wspd":3,"visib":"10+","altim":1014,"slp":1013.1,"qcField":4,"presTend":1,"metarType":"METAR","rawOb":"METAR KBNA 180253Z 16003KT 10SM BKN250 23/15 A2994 RMK AO2 SLP131 T02330150 53010","lat":36.1105,"lon":-86.6881,"elev":168,"name":"Nashville Intl, TN, US","cover":"BKN","clouds":[{"cover":"BKN","base":25000}],"fltCat":"VFR"},{"icaoId":"KAPA","receiptTime":"2026-04-18T02:56:23.397Z","obsTime":1776480780,"reportTime":"2026-04-18T03:00:00.000Z","temp":-2.8,"dewp":-5.6,"wdir":250,"wspd":6,"visib":"10+","altim":1020.1,"slp":1022.6,"qcField":4,"presTend":1.5,"metarType":"METAR","rawOb":"METAR KAPA 180253Z 25006KT 10SM FEW040 FEW070 M03/M06 A3012 RMK AO2 SLP226 T10281056 53015","lat":39.5599,"lon":-104.8484,"elev":1791,"name":"Denver/Centennial Arpt, CO, US","cover":"FEW","clouds":[{"cover":"FEW","base":4000},{"cover":"FEW","base":7000}],"fltCat":"VFR"},{"icaoId":"KABQ","receiptTime":"2026-04-18T02:56:22.196Z","obsTime":1776480720,"reportTime":"2026-04-18T03:00:00.000Z","temp":11.7,"dewp":-17.2,"wdir":350,"wspd":13,"wgst":27,"visib":"10+","altim":1018,"slp":1013.7,"qcField":4,"presTend":2.6,"metarType":"METAR","rawOb":"METAR KABQ 180252Z 35013G27KT 10SM CLR 12/M17 A3006 RMK AO2 PK WND 34028/0217 SLP137 T01171172 53026","lat":35.0419,"lon":-106.6154,"elev":1620,"name":"Albuquerque Intl, NM, US","cover":"CLR","clouds":[],"fltCat":"VFR"},{"icaoId":"KSPS","receiptTime":"2026-04-18T02:56:22.300Z","obsTime":1776480720,"reportTime":"2026-04-18T03:00:00.000Z","temp":23.3,"dewp":19.4,"wdir":180,"wspd":13,"visib":"10+","altim":1006.2,"slp":1004.7,"qcField":4,"presTend":0.7,"metarType":"METAR","rawOb":"METAR KSPS 180252Z 18013KT 10SM CLR 23/19 A2971 RMK AO2 SLP047 T02330194 53007","lat":33.9785,"lon":-98.493,"elev":310,"name":"Wichita Falls Rgnl, TX, US","cover":"CLR","clouds":[],"fltCat":"VFR"},{"icaoId":"KATL","receiptTime":"2026-04-18T02:56:22.210Z","obsTime":1776480720,"reportTime":"2026-04-18T03:00:00.000Z","temp":25,"dewp":11.7,"wdir":220,"wspd":3,"visib":"10+","altim":1015,"slp":1013.9,"qcField":4,"presTend":-0.1,"metarType":"METAR","rawOb":"METAR KATL 180252Z 22003KT 10SM CLR 25/12 A2997 RMK AO2 SLP139 T02500117 58001","lat":33.6297,"lon":-84.4422,"elev":309,"name":"Atlanta/Hartsfield-Jackson Intl, GA, US","cover":"CLR","clouds":[],"fltCat":"VFR"},{"icaoId":"KDCA","receiptTime":"2026-04-18T02:56:23.877Z","obsTime":1776480720,"reportTime":"2026-04-18T03:00:00.000Z","temp":21.7,"dewp":12.8,"wdir":60,"wspd":6,"visib":"10+","altim":1014.3,"slp":1014.2,"qcField":4,"presTend":0.7,"metarType":"METAR","rawOb":"METAR KDCA 180252Z 06006KT 10SM FEW060 FEW250 22/13 A2995 RMK AO2 SLP142 T02170128 51007","lat":38.8472,"lon":-77.0345,"elev":4,"name":"Washington/Reagan-National Arpt, VA, US","cover":"FEW","clouds":[{"cover":"FEW","base":6000},{"cover":"FEW","base":25000}],"fltCat":"VFR"},{"icaoId":"KABI","receiptTime":"2026-04-18T02:56:22.178Z","obsTime":1776480720,"reportTime":"2026-04-18T03:00:00.000Z","temp":23.3,"dewp":19.4,"wdir":170,"wspd":9,"visib":"10+","altim":1008.2,"slp":1005.6,"qcField":12,"presTend":1.2,"metarType":"METAR","rawOb":"METAR KABI 180252Z 17009KT 10SM CLR 23/19 A2977 RMK AO2 SLP056 T02330194 53012 $","lat":32.4106,"lon":-99.6821,"elev":543,"name":"Abilene Rgnl, TX, US","cover":"CLR","clouds":[],"fltCat":"VFR"},{"icaoId":"KIAD","receiptTime":"2026-04-18T02:56:23.912Z","obsTime":1776480720,"reportTime":"2026-04-18T03:00:00.000Z","temp":16.1,"dewp":11.1,"wdir":0,"wspd":0,"visib":"10+","altim":1015,"slp":1014.6,"qcField":4,"presTend":0.9,"metarType":"METAR","rawOb":"METAR KIAD 180252Z 00000KT 10SM FEW250 16/11 A2997 RMK AO2 SLP146 T01610111 53009","lat":38.9348,"lon":-77.4473,"elev":90,"name":"Washington/Dulles Intl, VA, US","cover":"FEW","clouds":[{"cover":"FEW","base":25000}],"fltCat":"VFR"},{"icaoId":"KMKE","receiptTime":"2026-04-18T02:56:22.114Z","obsTime":1776480720,"reportTime":"2026-04-18T03:00:00.000Z","temp":17.2,"dewp":15.6,"wdir":160,"wspd":7,"visib":6,"altim":1003.8,"slp":1003.8,"qcField":12,"wxString":"TSRA BR","presTend":1.5,"precip":0.28,"pcp3hr":0.84,"metarType":"METAR","rawOb":"METAR KMKE 180252Z 16007KT 6SM TSRA BR SCT070CB OVC085 17/16 A2964 RMK AO2 PRESFR SLP038 OCNL LTGCGICCC OHD TS OHD MOV NE OCNL LTG DSNT ALQDS P0028 60084 T01720156 50015 $","lat":42.9549,"lon":-87.9045,"elev":203,"name":"Milwaukee/Mitchell Intl, WI, US","cover":"OVC","clouds":[{"cover":"SCT","base":7000},{"cover":"OVC","base":8500}],"fltCat":"VFR"},{"icaoId":"KMLF","receiptTime":"2026-04-18T02:56:15.526Z","obsTime":1776480720,"reportTime":"2026-04-18T03:00:00.000Z","temp":2.8,"dewp":-18.9,"wdir":20,"wspd":6,"visib":"10+","altim":1021.8,"slp":1022.4,"qcField":6,"presTend":0.2,"metarType":"METAR","rawOb":"METAR KMLF 180252Z AUTO 02006KT 10SM CLR 03/M19 A3017 RMK AO2 SLP224 T00281189 53002","lat":38.4225,"lon":-113.0109,"elev":1537,"name":"Milford Muni, UT, US","cover":"CLR","clouds":[],"fltCat":"VFR"},{"icaoId":"KCVG","receiptTime":"2026-04-18T02:56:23.863Z","obsTime":1776480720,"reportTime":"2026-04-18T03:00:00.000Z","temp":20.6,"dewp":11.7,"wdir":190,"wspd":7,"visib":"10+","altim":1011.9,"slp":1011,"qcField":4,"presTend":0.5,"metarType":"METAR","rawOb":"METAR KCVG 180252Z 19007KT 10SM BKN250 21/12 A2988 RMK AO2 SLP110 T02060117 50005","lat":39.0444,"lon":-84.6724,"elev":264,"name":"Cincinnati Intl, KY, US","cover":"BKN","clouds":[{"cover":"BKN","base":25000}],"fltCat":"VFR"},{"icaoId":"KCLT","receiptTime":"2026-04-18T02:56:23.849Z","obsTime":1776480720,"reportTime":"2026-04-18T03:00:00.000Z","temp":22.8,"dewp":11.7,"wdir":180,"wspd":3,"visib":"10+","altim":1015,"slp":1015.4,"qcField":4,"presTend":0.4,"metarType":"METAR","rawOb":"METAR KCLT 180252Z 18003KT 10SM FEW250 23/12 A2997 RMK AO2 SLP154 T02280117 53004","lat":35.2225,"lon":-80.9543,"elev":223,"name":"Charlotte/Douglas Intl, NC, US","cover":"FEW","clouds":[{"cover":"FEW","base":25000}],"fltCat":"VFR"},{"icaoId":"KSAT","receiptTime":"2026-04-18T02:54:09.555Z","obsTime":1776480660,"reportTime":"2026-04-18T03:00:00.000Z","temp":24.4,"dewp":19.4,"wdir":130,"wspd":12,"visib":"10+","altim":1010.9,"slp":1008.9,"qcField":4,"presTend":1.7,"metarType":"METAR","rawOb":"METAR KSAT 180251Z 13012KT 10SM BKN026 OVC039 24/19 A2985 RMK AO2 SLP089 T02440194 53017","lat":29.5443,"lon":-98.4839,"elev":246,"name":"San Antonio Intl, TX, US","cover":"OVC","clouds":[{"cover":"BKN","base":2600},{"cover":"OVC","base":3900}],"fltCat":"MVFR"},{"icaoId":"KSAD","receiptTime":"2026-04-18T02:54:08.765Z","obsTime":1776480660,"reportTime":"2026-04-18T03:00:00.000Z","temp":20.6,"dewp":-7.8,"wdir":300,"wspd":11,"visib":"10+","altim":1012.6,"slp":1008.6,"qcField":6,"presTend":1.6,"metarType":"METAR","rawOb":"METAR KSAD 180251Z AUTO 30011KT 10SM CLR 21/M08 A2990 RMK AO2 SLP086 T02061078 53016","lat":32.8565,"lon":-109.636,"elev":937,"name":"Safford Rgnl, AZ, US","cover":"CLR","clouds":[],"fltCat":"VFR"},{"icaoId":"KPHX","receiptTime":"2026-04-18T02:54:08.616Z","obsTime":1776480660,"reportTime":"2026-04-18T03:00:00.000Z","temp":27.2,"dewp":-2.8,"wdir":250,"wspd":4,"visib":"10+","altim":1010.2,"slp":1008.5,"qcField":4,"presTend":0.3,"metarType":"METAR","rawOb":"METAR KPHX 180251Z 25004KT 10SM CLR 27/M03 A2983 RMK AO2 SLP085 T02721028 53003","lat":33.4278,"lon":-112.0037,"elev":338,"name":"Phoenix/Sky Harbor Intl, AZ, US","cover":"CLR","clouds":[],"fltCat":"VFR"},{"icaoId":"KELP","receiptTime":"2026-04-18T02:54:10.360Z","obsTime":1776480660,"reportTime":"2026-04-18T03:00:00.000Z","temp":23.9,"dewp":-3.3,"wdir":320,"wspd":10,"visib":"10+","altim":1012.3,"slp":1005.5,"qcField":4,"presTend":1.6,"metarType":"METAR","rawOb":"METAR KELP 180251Z 32010KT 10SM CLR 24/M03 A2989 RMK AO2 SLP055 T02391033 53016","lat":31.8123,"lon":-106.3774,"elev":1205,"name":"El Paso Intl, TX, US","cover":"CLR","clouds":[],"fltCat":"VFR"},{"icaoId":"KMYL","receiptTime":"2026-04-18T02:54:08.517Z","obsTime":1776480660,"reportTime":"2026-04-18T03:00:00.000Z","temp":0.6,"dewp":-5.6,"wdir":60,"wspd":3,"visib":"10+","altim":1022.4,"slp":1025,"qcField":6,"presTend":-0.1,"metarType":"METAR","rawOb":"METAR KMYL 180251Z AUTO 06003KT 10SM CLR 01/M06 A3019 RMK AO2 SLP250 T00061056 55001","lat":44.8943,"lon":-116.0998,"elev":1532,"name":"McCall Muni, ID, US","cover":"CLR","clouds":[],"fltCat":"VFR"},{"icaoId":"KCRP","receiptTime":"2026-04-18T02:54:10.218Z","obsTime":1776480660,"reportTime":"2026-04-18T03:00:00.000Z","temp":24.4,"dewp":21.1,"wdir":150,"wspd":19,"wgst":26,"visib":"10+","altim":1011.6,"slp":1011.2,"qcField":4,"presTend":1.5,"metarType":"METAR","rawOb":"METAR KCRP 180251Z 15019G26KT 10SM SCT019 OVC027 24/21 A2987 RMK AO2 PK WND 16026/0244 SLP112 T02440211 51015","lat":27.7734,"lon":-97.513,"elev":11,"name":"Corpus Christi Intl, TX, US","cover":"OVC","clouds":[{"cover":"SCT","base":1900},{"cover":"OVC","base":2700}],"fltCat":"MVFR"},{"icaoId":"KLGU","receiptTime":"2026-04-18T02:54:08.406Z","obsTime":1776480660,"reportTime":"2026-04-18T03:00:00.000Z","temp":3.9,"dewp":-8.3,"wdir":120,"wspd":5,"visib":"10+","altim":1022.8,"slp":1023.8,"qcField":6,"presTend":0.4,"metarType":"METAR","rawOb":"METAR KLGU 180251Z AUTO 12005KT 10SM SCT075 SCT100 04/M08 A3020 RMK AO2 SLP238 T00391083 53004","lat":41.7865,"lon":-111.8519,"elev":1359,"name":"Logan/Cache Arpt, UT, US","cover":"SCT","clouds":[{"cover":"SCT","base":7500},{"cover":"SCT","base":10000}],"fltCat":"VFR"},{"icaoId":"KPVD","receiptTime":"2026-04-18T02:54:08.668Z","obsTime":1776480660,"reportTime":"2026-04-18T03:00:00.000Z","temp":9.4,"dewp":8.9,"wdir":50,"wspd":5,"visib":"10+","altim":1017.4,"slp":1017.4,"qcField":4,"presTend":1.6,"metarType":"METAR","rawOb":"METAR KPVD 180251Z 05005KT 10SM FEW120 09/09 A3004 RMK AO2 SLP174 T00940089 51016","lat":41.7225,"lon":-71.4325,"elev":15,"name":"Providence/Green Mem, RI, US","cover":"FEW","clouds":[{"cover":"FEW","base":12000}],"fltCat":"VFR"},{"icaoId":"KORF","receiptTime":"2026-04-18T02:54:08.573Z","obsTime":1776480660,"reportTime":"2026-04-18T03:00:00.000Z","temp":21.1,"dewp":13.3,"wdir":150,"wspd":3,"visib":"10+","altim":1014.3,"slp":1014.2,"qcField":4,"presTend":1,"metarType":"METAR","rawOb":"METAR KORF 180251Z 15003KT 10SM CLR 21/13 A2995 RMK AO2 SLP142 T02110133 50010","lat":36.9037,"lon":-76.1927,"elev":5,"name":"Norfolk Intl, VA, US","cover":"CLR","clouds":[],"fltCat":"VFR"},{"icaoId":"KVNY","receiptTime":"2026-04-18T02:54:08.999Z","obsTime":1776480660,"reportTime":"2026-04-18T03:00:00.000Z","temp":21.1,"dewp":4.4,"wdir":240,"wspd":6,"visib":"10+","altim":1013.3,"slp":1012.6,"qcField":12,"presTend":0.2,"metarType":"METAR","rawOb":"METAR KVNY 180251Z 24006KT 10SM CLR 21/04 A2992 RMK AO2 SLP126 T02110044 53002 $","lat":34.2121,"lon":-118.4915,"elev":241,"name":"Van Nuys Arpt, CA, US","cover":"CLR","clouds":[],"fltCat":"VFR"},{"icaoId":"KCLE","receiptTime":"2026-04-18T02:54:10.095Z","obsTime":1776480660,"reportTime":"2026-04-18T03:00:00.000Z","temp":17.2,"dewp":11.7,"wdir":130,"wspd":6,"visib":"10+","altim":1011.9,"slp":1013.2,"qcField":12,"presTend":-0.3,"metarType":"METAR","rawOb":"METAR KCLE 180251Z 13006KT 10SM BKN250 17/12 A2988 RMK AO2 SLP132 T01720117 56003 $","lat":41.4057,"lon":-81.8519,"elev":237,"name":"Cleveland/Hopkins Intl, OH, US","cover":"BKN","clouds":[{"cover":"BKN","base":25000}],"fltCat":"VFR"},{"icaoId":"KBDL","receiptTime":"2026-04-18T02:54:09.938Z","obsTime":1776480660,"reportTime":"2026-04-18T03:00:00.000Z","temp":15.6,"dewp":11.7,"wdir":130,"wspd":3,"visib":"10+","altim":1017,"slp":1016.8,"qcField":4,"presTend":2.2,"metarType":"METAR","rawOb":"METAR KBDL 180251Z 13003KT 10SM SCT046 16/12 A3003 RMK AO2 SLP168 T01560117 51022","lat":41.9374,"lon":-72.682,"elev":52,"name":"Hartford/Bradley Intl, CT, US","cover":"SCT","clouds":[{"cover":"SCT","base":4600}],"fltCat":"VFR"},{"icaoId":"KSAN","receiptTime":"2026-04-18T02:54:08.785Z","obsTime":1776480660,"reportTime":"2026-04-18T03:00:00.000Z","temp":17.2,"dewp":12.8,"wdir":320,"wspd":4,"visib":"10+","altim":1015,"slp":1014.7,"qcField":12,"presTend":0.3,"metarType":"METAR","rawOb":"METAR KSAN 180251Z 32004KT 10SM FEW020 17/13 A2997 RMK AO2 SLP147 T01720128 53003 $","lat":32.7364,"lon":-117.1973,"elev":3,"name":"San Diego Intl Arpt, CA, US","cover":"FEW","clouds":[{"cover":"FEW","base":2000}],"fltCat":"VFR"},{"icaoId":"KRDU","receiptTime":"2026-04-18T02:54:08.710Z","obsTime":1776480660,"reportTime":"2026-04-18T03:00:00.000Z","temp":20.6,"dewp":11.7,"wdir":0,"wspd":0,"visib":"10+","altim":1014.6,"slp":1014,"qcField":4,"presTend":0.6,"metarType":"METAR","rawOb":"METAR KRDU 180251Z 00000KT 10SM FEW250 21/12 A2996 RMK AO2 SLP140 T02060117 51006","lat":35.8923,"lon":-78.782,"elev":121,"name":"Raleigh-Durham Intl, NC, US","cover":"FEW","clouds":[{"cover":"FEW","base":25000}],"fltCat":"VFR"},{"icaoId":"KACT","receiptTime":"2026-04-18T02:54:09.792Z","obsTime":1776480660,"reportTime":"2026-04-18T03:00:00.000Z","temp":25.6,"dewp":18.9,"wdir":170,"wspd":16,"wgst":27,"visib":"10+","altim":1009.6,"slp":1008.8,"qcField":4,"presTend":1.9,"metarType":"METAR","rawOb":"METAR KACT 180251Z 17016G27KT 10SM CLR 26/19 A2981 RMK AO2 PK WND 18028/0204 SLP088 T02560189 53019","lat":31.618,"lon":-97.2283,"elev":150,"name":"Waco Rgnl, TX, US","cover":"CLR","clouds":[],"fltCat":"VFR"},{"icaoId":"KPIT","receiptTime":"2026-04-18T02:54:08.645Z","obsTime":1776480660,"reportTime":"2026-04-18T03:00:00.000Z","temp":18.3,"dewp":10.6,"wdir":160,"wspd":3,"visib":"10+","altim":1014.6,"slp":1014.9,"qcField":4,"presTend":0.8,"metarType":"METAR","rawOb":"METAR KPIT 180251Z 16003KT 10SM FEW250 18/11 A2996 RMK AO2 SLP149 T01830106 53008","lat":40.4814,"lon":-80.2083,"elev":339,"name":"Pittsburgh Intl, PA, US","cover":"FEW","clouds":[{"cover":"FEW","base":25000}],"fltCat":"VFR"},{"icaoId":"KOXR","receiptTime":"2026-04-18T02:54:08.597Z","obsTime":1776480660,"reportTime":"2026-04-18T03:00:00.000Z","temp":16.7,"dewp":9.4,"wdir":270,"wspd":8,"visib":"10+","altim":1014,"slp":1013.8,"qcField":12,"presTend":-0.5,"metarType":"METAR","rawOb":"METAR KOXR 180251Z 27008KT 10SM CLR 17/09 A2994 RMK AO2 SLP138 T01670094 56005 $","lat":34.2001,"lon":-119.2042,"elev":12,"name":"Oxnard Arpt, CA, US","cover":"CLR","clouds":[],"fltCat":"VFR"},{"icaoId":"KLGA","receiptTime":"2026-04-18T02:54:08.374Z","obsTime":1776480660,"reportTime":"2026-04-18T03:00:00.000Z","temp":15.6,"dewp":12.8,"wdir":110,"wspd":9,"visib":"10+","altim":1016.3,"slp":1016,"qcField":4,"presTend":2.7,"metarType":"METAR","rawOb":"METAR KLGA 180251Z 11009KT 10SM FEW050 FEW250 16/13 A3001 RMK AO2 SLP160 T01560128 51027","lat":40.7794,"lon":-73.8803,"elev":9,"name":"New York/La Guardia Arpt, NY, US","cover":"FEW","clouds":[{"cover":"FEW","base":5000},{"cover":"FEW","base":25000}],"fltCat":"VFR"},{"icaoId":"KIGM","receiptTime":"2026-04-18T02:54:10.523Z","obsTime":1776480660,"reportTime":"2026-04-18T03:00:00.000Z","temp":13.3,"dewp":-18.3,"wdir":70,"wspd":8,"visib":"10+","altim":1017,"slp":1012.8,"qcField":6,"presTend":0.5,"metarType":"METAR","rawOb":"METAR KIGM 180251Z AUTO 07008KT 10SM CLR 13/M18 A3003 RMK AO2 SLP128 T01331183 53005","lat":35.2575,"lon":-113.9341,"elev":1045,"name":"Kingman Arpt, AZ, US","cover":"CLR","clouds":[],"fltCat":"VFR"},{"icaoId":"KCMH","receiptTime":"2026-04-18T02:54:10.164Z","obsTime":1776480660,"reportTime":"2026-04-18T03:00:00.000Z","temp":21.1,"dewp":8.9,"wdir":160,"wspd":4,"visib":"10+","altim":1012.6,"slp":1012.1,"qcField":4,"presTend":0.5,"metarType":"METAR","rawOb":"METAR KCMH 180251Z 16004KT 10SM OVC250 21/09 A2990 RMK AO2 SLP121 T02110089 53005","lat":39.9907,"lon":-82.877,"elev":257,"name":"Columbus/Glenn Intl, OH, US","cover":"OVC","clouds":[{"cover":"OVC","base":25000}],"fltCat":"VFR"},{"icaoId":"KADM","receiptTime":"2026-04-18T02:51:35.084Z","obsTime":1776480600,"reportTime":"2026-04-18T03:00:00.000Z","temp":20,"dewp":19,"wdir":0,"wspd":0,"visib":"10+","altim":1007.5,"qcField":0,"metarType":"METAR","rawOb":"METAR KADM 180250Z 00000KT 10SM SCT050 20/19 A2975","lat":34.3007,"lon":-97.0089,"elev":223,"name":"Ardmore Muni, OK, US","cover":"SCT","clouds":[{"cover":"SCT","base":5000}],"fltCat":"VFR"},{"icaoId":"KGEU","receiptTime":"2026-04-18T02:49:46.803Z","obsTime":1776480480,"reportTime":"2026-04-18T03:00:00.000Z","temp":27,"dewp":-9,"wdir":240,"wspd":4,"visib":"10+","altim":1009.6,"qcField":0,"metarType":"METAR","rawOb":"METAR KGEU 180248Z 24004KT 10SM CLR 27/M09 A2981","lat":33.528,"lon":-112.293,"elev":319,"name":"Glendale Muni, AZ, US","cover":"CLR","clouds":[],"fltCat":"VFR"},{"icaoId":"KSUN","receiptTime":"2026-04-18T02:47:39.993Z","obsTime":1776480420,"reportTime":"2026-04-18T03:00:00.000Z","temp":3,"dewp":-11,"wdir":330,"wspd":7,"visib":"10+","altim":1021.4,"qcField":0,"metarType":"METAR","rawOb":"METAR KSUN 180247Z 33007KT 10SM CLR 03/M11 A3016","lat":43.4969,"lon":-114.2923,"elev":1619,"name":"Hailey/Friedman Mem, ID, US","cover":"CLR","clouds":[],"fltCat":"VFR"},{"icaoId":"KCHD","receiptTime":"2026-04-18T02:46:25.020Z","obsTime":1776480420,"reportTime":"2026-04-18T03:00:00.000Z","temp":25,"dewp":-2,"wdir":240,"wspd":4,"visib":"10+","altim":1010.9,"qcField":0,"metarType":"METAR","rawOb":"METAR KCHD 180247Z 24004KT 10SM CLR 25/M02 A2985","lat":33.2669,"lon":-111.8086,"elev":378,"name":"Chandler Muni, AZ, US","cover":"CLR","clouds":[],"fltCat":"VFR"},{"icaoId":"KGYR","receiptTime":"2026-04-18T03:02:12.310Z","obsTime":1776480420,"reportTime":"2026-04-18T03:00:00.000Z","temp":27,"dewp":-6,"wdir":260,"wspd":10,"visib":"10+","altim":1010.6,"qcField":0,"metarType":"METAR","rawOb":"METAR KGYR 180247Z 26010KT 10SM SKC 27/M06 A2984","lat":33.428,"lon":-112.368,"elev":292,"name":"Phoenix/Goodyear Muni, AZ, US","cover":"SKC","clouds":[],"fltCat":"VFR"},{"icaoId":"KIWA","receiptTime":"2026-04-18T02:48:56.936Z","obsTime":1776480420,"reportTime":"2026-04-18T03:00:00.000Z","temp":26,"dewp":-2,"wdir":260,"wspd":5,"visib":"10+","altim":1011.6,"qcField":0,"metarType":"METAR","rawOb":"METAR KIWA 180247Z 26005KT 10SM CLR 26/M02 A2987","lat":33.3008,"lon":-111.6437,"elev":420,"name":"Phoenix/Mesa Gateway Arpt, AZ, US","cover":"CLR","clouds":[],"fltCat":"VFR"},{"icaoId":"KRYN","receiptTime":"2026-04-18T02:46:25.089Z","obsTime":1776480300,"reportTime":"2026-04-18T03:00:00.000Z","temp":23,"dewp":-3,"wdir":320,"wspd":8,"visib":"10+","altim":1012.3,"qcField":0,"metarType":"METAR","rawOb":"METAR KRYN 180245Z 32008KT 10SM CLR 23/M03 A2989","lat":32.1418,"lon":-111.1767,"elev":731,"name":"Tucson/Ryan Fld, AZ, US","cover":"CLR","clouds":[],"fltCat":"VFR"}]