[{"icaoId":"KSDY","receiptTime":"2026-04-19T00:22:06.506Z","obsTime":1776557940,"reportTime":"2026-04-19T00:19:00.000Z","temp":9,"dewp":-6,"wdir":330,"wspd":12,"visib":"10+","altim":1017.4,"qcField":14,"metarType":"SPECI","rawOb":"SPECI KSDY 190019Z AUTO 33012KT 10SM SCT070 BKN090 09/M06 A3004 RMK AO2 WSHFT 2359 $","lat":47.7029,"lon":-104.1951,"elev":600,"name":"Sidney/Richland Muni, MT, US","cover":"BKN","clouds":[{"cover":"SCT","base":7000},{"cover":"BKN","base":9000}],"fltCat":"VFR"},{"icaoId":"KHCR","receiptTime":"2026-04-19T00:18:15.222Z","obsTime":1776557700,"reportTime":"2026-04-19T00:15:00.000Z","temp":14.8,"dewp":-8,"wdir":240,"wspd":4,"visib":"10+","altim":1020.7,"qcField":14,"metarType":"METAR","rawOb":"METAR KHCR 190015Z AUTO 24004KT 10SM FEW140 15/M08 A3014 RMK AO2 T01481080 $","lat":40.4774,"lon":-111.4329,"elev":1708,"name":"Heber City Muni, UT, US","cover":"FEW","clouds":[{"cover":"FEW","base":14000}],"fltCat":"VFR"},{"icaoId":"KRTS","receiptTime":"2026-04-19T00:20:41.265Z","obsTime":1776557700,"reportTime":"2026-04-19T00:15:00.000Z","temp":19,"dewp":-13,"wdir":"VRB","wspd":6,"visib":"10+","altim":1015.7,"qcField":6,"metarType":"METAR","rawOb":"METAR KRTS 190015Z AUTO VRB06KT 10SM CLR 19/M13 A2999 RMK AO2","lat":39.6658,"lon":-119.8731,"elev":1537,"name":"Reno/Stead Arpt, NV, US","cover":"CLR","clouds":[],"fltCat":"VFR"},{"icaoId":"KBIE","receiptTime":"2026-04-19T00:20:53.101Z","obsTime":1776557700,"reportTime":"2026-04-19T00:15:00.000Z","temp":13.6,"dewp":-5.1,"wdir":340,"wspd":13,"visib":"10+","altim":1021.1,"qcField":6,"metarType":"METAR","rawOb":"METAR KBIE 190015Z AUTO 34013KT 10SM CLR 14/M05 A3015 RMK AO2 T01361051","lat":40.3005,"lon":-96.7517,"elev":398,"name":"Beatrice Muni, NE, US","cover":"CLR","clouds":[],"fltCat":"VFR"},{"icaoId":"KADM","receiptTime":"2026-04-19T00:20:59.669Z","obsTime":1776557700,"reportTime":"2026-04-19T00:15:00.000Z","temp":17,"dewp":0,"wdir":20,"wspd":7,"visib":"10+","altim":1023.5,"qcField":6,"metarType":"METAR","rawOb":"METAR KADM 190015Z AUTO 02007KT 10SM CLR 17/M00 A3022 RMK AO2","lat":34.3007,"lon":-97.0089,"elev":223,"name":"Ardmore Muni, OK, US","cover":"CLR","clouds":[],"fltCat":"VFR"},{"icaoId":"KBVU","receiptTime":"2026-04-19T00:16:03.222Z","obsTime":1776557700,"reportTime":"2026-04-19T00:15:00.000Z","temp":25,"dewp":-19,"wdir":"VRB","wspd":6,"visib":"10+","altim":1014.3,"qcField":6,"metarType":"METAR","rawOb":"METAR KBVU 190015Z AUTO VRB06KT 10SM CLR 25/M19 A2995 RMK AO2","lat":35.9489,"lon":-114.8633,"elev":654,"name":"Boulder City Muni, NV, US","cover":"CLR","clouds":[],"fltCat":"VFR"},{"icaoId":"KCXP","receiptTime":"2026-04-19T00:20:54.233Z","obsTime":1776557700,"reportTime":"2026-04-19T00:15:00.000Z","temp":20,"dewp":-9,"wdir":0,"wspd":0,"visib":"10+","altim":1015.3,"qcField":6,"metarType":"METAR","rawOb":"METAR KCXP 190015Z AUTO 00000KT 10SM CLR 20/M09 A2998 RMK AO2","lat":39.1905,"lon":-119.7319,"elev":1431,"name":"Carson City Arpt, NV, US","cover":"CLR","clouds":[],"fltCat":"VFR"},{"icaoId":"KGAF","receiptTime":"2026-04-19T00:16:03.301Z","obsTime":1776557700,"reportTime":"2026-04-19T00:15:00.000Z","temp":3,"dewp":-6,"wdir":20,"wspd":7,"visib":"10+","altim":1014.6,"qcField":134,"metarType":"METAR","rawOb":"METAR KGAF 190015Z AUTO 02007KT 10SM CLR 03/M06 A2996 RMK AO2 PWINO","lat":48.4081,"lon":-97.3694,"elev":250,"name":"Grafton/Hutson Fld, ND, US","cover":"CLR","clouds":[],"fltCat":"VFR"},{"icaoId":"KMHR","receiptTime":"2026-04-19T00:20:52.417Z","obsTime":1776557700,"reportTime":"2026-04-19T00:15:00.000Z","temp":25,"dewp":2,"wdir":210,"wspd":5,"visib":"10+","altim":1012.3,"qcField":6,"metarType":"METAR","rawOb":"METAR KMHR 190015Z AUTO 21005KT 10SM CLR 25/02 A2989 RMK AO2","lat":38.56,"lon":-121.284,"elev":30,"name":"Sacramento/Mather Fld, CA, US","cover":"CLR","clouds":[],"fltCat":"VFR"},{"icaoId":"KSOW","receiptTime":"2026-04-19T00:18:10.906Z","obsTime":1776557700,"reportTime":"2026-04-19T00:15:00.000Z","temp":19,"dewp":-17,"wdir":330,"wspd":11,"visib":"10+","altim":1021.1,"qcField":6,"metarType":"METAR","rawOb":"METAR KSOW 190015Z AUTO 33011KT 10SM CLR 19/M17 A3015 RMK AO2","lat":34.2686,"lon":-110.0019,"elev":1954,"name":"Show Low Muni, AZ, US","cover":"CLR","clouds":[],"fltCat":"VFR"},{"icaoId":"KANW","receiptTime":"2026-04-19T00:20:46.909Z","obsTime":1776557700,"reportTime":"2026-04-19T00:15:00.000Z","temp":9.1,"dewp":-9,"wdir":300,"wspd":13,"visib":"10+","altim":1021.1,"qcField":6,"metarType":"METAR","rawOb":"METAR KANW 190015Z AUTO 30013KT 10SM CLR 09/M09 A3015 RMK AO2 T00911090","lat":42.5748,"lon":-99.9984,"elev":788,"name":"Ainsworth Muni, NE, US","cover":"CLR","clouds":[],"fltCat":"VFR"},{"icaoId":"KBJI","receiptTime":"2026-04-19T00:20:53.181Z","obsTime":1776557700,"reportTime":"2026-04-19T00:15:00.000Z","temp":1,"dewp":-10,"wdir":310,"wspd":13,"visib":"10+","altim":1013.6,"qcField":6,"metarType":"METAR","rawOb":"METAR KBJI 190015Z AUTO 31013KT 10SM BKN050 01/M10 A2993 RMK AO2 T00101100","lat":47.5076,"lon":-94.9279,"elev":422,"name":"Bemidji Municip, MN, US","cover":"BKN","clouds":[{"cover":"BKN","base":5000}],"fltCat":"VFR"},{"icaoId":"KHOB","receiptTime":"2026-04-19T00:18:07.359Z","obsTime":1776557700,"reportTime":"2026-04-19T00:15:00.000Z","temp":18,"dewp":-11,"wdir":60,"wspd":12,"wgst":17,"visib":"10+","altim":1023.8,"qcField":6,"metarType":"METAR","rawOb":"METAR KHOB 190015Z AUTO 06012G17KT 10SM CLR 18/M11 A3023 RMK AO2","lat":32.6797,"lon":-103.2222,"elev":1112,"name":"Hobbs Arpt, NM, US","cover":"CLR","clouds":[],"fltCat":"VFR"},{"icaoId":"KMEV","receiptTime":"2026-04-19T00:20:52.399Z","obsTime":1776557700,"reportTime":"2026-04-19T00:15:00.000Z","temp":20,"dewp":-3,"wdir":230,"wspd":5,"visib":"10+","altim":1014.6,"qcField":6,"metarType":"METAR","rawOb":"METAR KMEV 190015Z AUTO 23005KT 10SM CLR 20/M03 A2996 RMK AO2","lat":38.9963,"lon":-119.75,"elev":1437,"name":"Minden-Tahoe Arpt, NV, US","cover":"CLR","clouds":[],"fltCat":"VFR"},{"icaoId":"KCLE","receiptTime":"2026-04-19T00:18:11.559Z","obsTime":1776557700,"reportTime":"2026-04-19T00:15:00.000Z","temp":10.6,"dewp":6.7,"wdir":270,"wspd":10,"visib":"10+","altim":1011.9,"qcField":12,"metarType":"SPECI","rawOb":"SPECI KCLE 190015Z 27010KT 10SM BKN028 OVC055 11/07 A2988 RMK AO2 T01060067 $","lat":41.4057,"lon":-81.8519,"elev":237,"name":"Cleveland/Hopkins Intl, OH, US","cover":"OVC","clouds":[{"cover":"BKN","base":2800},{"cover":"OVC","base":5500}],"fltCat":"MVFR"},{"icaoId":"KHTH","receiptTime":"2026-04-19T00:20:43.201Z","obsTime":1776557700,"reportTime":"2026-04-19T00:15:00.000Z","temp":23,"dewp":-20,"wdir":320,"wspd":6,"visib":"10+","altim":1014,"qcField":6,"metarType":"METAR","rawOb":"METAR KHTH 190015Z AUTO 32006KT 10SM CLR 23/M20 A2994 RMK A01","lat":38.5448,"lon":-118.6314,"elev":1281,"name":"Hawthorne Muni, NV, US","cover":"CLR","clouds":[],"fltCat":"VFR"},{"icaoId":"KLRU","receiptTime":"2026-04-19T00:18:07.781Z","obsTime":1776557700,"reportTime":"2026-04-19T00:15:00.000Z","temp":20.8,"dewp":-8.2,"wdir":120,"wspd":15,"wgst":20,"visib":"10+","altim":1020.1,"qcField":6,"metarType":"METAR","rawOb":"METAR KLRU 190015Z AUTO 12015G20KT 10SM CLR 21/M08 A3012 RMK AO2 T02081082","lat":32.2884,"lon":-106.9131,"elev":1355,"name":"Las Cruces Intl, NM, US","cover":"CLR","clouds":[],"fltCat":"VFR"},{"icaoId":"KHAF","receiptTime":"2026-04-19T00:18:07.303Z","obsTime":1776557700,"reportTime":"2026-04-19T00:15:00.000Z","temp":15,"dewp":13,"wdir":250,"wspd":4,"visib":9,"altim":1014,"qcField":6,"metarType":"METAR","rawOb":"METAR KHAF 190015Z AUTO 25004KT 9SM CLR 15/13 A2994 RMK AO2","lat":37.5136,"lon":-122.4996,"elev":11,"name":"Half Moon Bay Arpt, CA, US","cover":"CLR","clouds":[],"fltCat":"VFR"},{"icaoId":"KSEZ","receiptTime":"2026-04-19T00:20:52.459Z","obsTime":1776557700,"reportTime":"2026-04-19T00:15:00.000Z","temp":21,"dewp":-17,"wdir":30,"wspd":12,"visib":"10+","altim":1018,"qcField":6,"metarType":"METAR","rawOb":"METAR KSEZ 190015Z AUTO 03012KT 10SM CLR 21/M17 A3006 RMK AO2","lat":34.8467,"lon":-111.7884,"elev":1455,"name":"Sedona Arpt, AZ, US","cover":"CLR","clouds":[],"fltCat":"VFR"},{"icaoId":"KHII","receiptTime":"2026-04-19T00:20:57.458Z","obsTime":1776557700,"reportTime":"2026-04-19T00:15:00.000Z","temp":30,"dewp":-11,"wdir":0,"wspd":0,"visib":"10+","altim":1011.3,"qcField":6,"metarType":"METAR","rawOb":"METAR KHII 190015Z AUTO 00000KT 10SM CLR 30/M11 A2986 RMK AO2","lat":34.5659,"lon":-114.3522,"elev":241,"name":"Lake Havasu City Arpt, AZ, US","cover":"CLR","clouds":[],"fltCat":"VFR"},{"icaoId":"KAUS","receiptTime":"2026-04-19T00:18:14.661Z","obsTime":1776557640,"reportTime":"2026-04-19T00:14:00.000Z","temp":12.2,"dewp":5.6,"wdir":20,"wspd":21,"wgst":29,"visib":"10+","altim":1021.1,"qcField":12,"wxString":"TS","metarType":"SPECI","rawOb":"SPECI KAUS 190014Z 02021G29KT 10SM TS FEW055CB OVC075 12/06 A3015 RMK AO2 PK WND 36032/2358 LTG DSNT SW AND W TSE12B14 OCNL LTGICCCCG SW TS SW MOV NE T01220056 $","lat":30.1831,"lon":-97.6806,"elev":148,"name":"Austin/Bergstrom Intl, TX, US","cover":"OVC","clouds":[{"cover":"FEW","base":5500},{"cover":"OVC","base":7500}],"fltCat":"VFR"},{"icaoId":"KSAT","receiptTime":"2026-04-19T00:16:03.729Z","obsTime":1776557520,"reportTime":"2026-04-19T00:12:00.000Z","temp":11.7,"dewp":8.3,"wdir":360,"wspd":14,"wgst":26,"visib":"10+","altim":1020.1,"qcField":4,"wxString":"-RA","precip":0.005,"metarType":"SPECI","rawOb":"SPECI KSAT 190012Z 36014G26KT 10SM -RA BKN015 OVC050 12/08 A3012 RMK AO2 PK WND 03026/2359 RAB2354 CB OCNL LTGICCG DSNT N-NE MOVG NE P0000 T01170083","lat":29.5443,"lon":-98.4839,"elev":246,"name":"San Antonio Intl, TX, US","cover":"OVC","clouds":[{"cover":"BKN","base":1500},{"cover":"OVC","base":5000}],"fltCat":"MVFR"},{"icaoId":"KPIT","receiptTime":"2026-04-19T00:14:04.438Z","obsTime":1776557400,"reportTime":"2026-04-19T00:10:00.000Z","temp":16.1,"dewp":15,"wdir":230,"wspd":5,"visib":"10+","altim":1010.6,"qcField":4,"metarType":"SPECI","rawOb":"SPECI KPIT 190010Z 23005KT 10SM FEW018 SCT032 BKN065 OVC130 16/15 A2984 RMK AO2 T01610150","lat":40.4814,"lon":-80.2083,"elev":339,"name":"Pittsburgh Intl, PA, US","cover":"OVC","clouds":[{"cover":"FEW","base":1800},{"cover":"SCT","base":3200},{"cover":"BKN","base":6500},{"cover":"OVC","base":13000}],"fltCat":"VFR"},{"icaoId":"KJFK","receiptTime":"2026-04-19T00:18:11.454Z","obsTime":1776557340,"reportTime":"2026-04-19T00:09:00.000Z","temp":10,"dewp":8.9,"wdir":130,"wspd":11,"wgst":19,"visib":2.5,"altim":1016,"qcField":0,"wxString":"BR","metarType":"SPECI","rawOb":"SPECI KJFK 190009Z 13011G19KT 2 1/2SM BR OVC005 10/09 A3000 RMK SFC VIS 5 T01000089","lat":40.6392,"lon":-73.7639,"elev":3,"name":"New York/JF Kennedy Intl, NY, US","cover":"OVC","clouds":[{"cover":"OVC","base":500}],"fltCat":"IFR"},{"icaoId":"KTXK","receiptTime":"2026-04-19T00:08:13.938Z","obsTime":1776557040,"reportTime":"2026-04-19T00:04:00.000Z","temp":12.8,"dewp":12.2,"wdir":280,"wspd":4,"visib":"10+","altim":1022.4,"qcField":12,"wxString":"-RA","precip":0.005,"metarType":"SPECI","rawOb":"SPECI KTXK 190004Z 28004KT 10SM -RA FEW005 BKN050 OVC110 13/12 A3019 RMK AO2 PRESRR P0000 T01280122 $","lat":33.456,"lon":-93.9878,"elev":118,"name":"Texarkana Rgnl, AR, US","cover":"OVC","clouds":[{"cover":"FEW","base":500},{"cover":"BKN","base":5000},{"cover":"OVC","base":11000}],"fltCat":"VFR"},{"icaoId":"KPHL","receiptTime":"2026-04-19T00:06:04.793Z","obsTime":1776556920,"reportTime":"2026-04-19T00:02:00.000Z","temp":15,"dewp":10,"wdir":120,"wspd":9,"visib":"10+","altim":1013.6,"qcField":12,"metarType":"SPECI","rawOb":"SPECI KPHL 190002Z 12009KT 10SM BKN019 BKN210 15/10 A2993 RMK AO2 T01500100 $","lat":39.8733,"lon":-75.2268,"elev":2,"name":"Philadelphia Intl, PA, US","cover":"BKN","clouds":[{"cover":"BKN","base":1900},{"cover":"BKN","base":21000}],"fltCat":"MVFR"},{"icaoId":"KFLG","receiptTime":"2026-04-19T00:02:13.016Z","obsTime":1776556620,"reportTime":"2026-04-19T00:00:00.000Z","temp":13.3,"dewp":-19.4,"wdir":80,"wspd":10,"wgst":16,"visib":"10+","altim":1022.4,"slp":1017.6,"qcField":4,"presTend":-1.2,"maxT":13.9,"minT":8.3,"metarType":"METAR","rawOb":"METAR KFLG 182357Z 08010G16KT 10SM CLR 13/M19 A3019 RMK AO2 SLP176 T01331194 10139 20083 56012","lat":35.1443,"lon":-111.6664,"elev":2134,"name":"Flagstaff/Pulliam Arpt, AZ, US","cover":"CLR","clouds":[],"fltCat":"VFR"},{"icaoId":"KNFL","receiptTime":"2026-04-19T00:02:14.872Z","obsTime":1776556620,"reportTime":"2026-04-19T00:00:00.000Z","temp":22.2,"dewp":-17.8,"wdir":320,"wspd":4,"visib":"10+","altim":1014,"slp":1011.2,"qcField":6,"presTend":-2.8,"maxT":22.8,"minT":13.9,"metarType":"METAR","rawOb":"METAR KNFL 182357Z AUTO 32004KT 10SM CLR 22/M18 A2994 RMK AO2 SLP112 T02221178 10228 20139 56028","lat":39.417,"lon":-118.705,"elev":1199,"name":"Fallon , NV, US","cover":"CLR","clouds":[],"fltCat":"VFR"},{"icaoId":"KNYL","receiptTime":"2026-04-19T00:02:14.883Z","obsTime":1776556620,"reportTime":"2026-04-19T00:00:00.000Z","temp":31.1,"dewp":-6.1,"wdir":180,"wspd":6,"visib":"10+","altim":1010.2,"slp":1010,"qcField":4,"presTend":-2.3,"maxT":31.1,"minT":26.1,"metarType":"METAR","rawOb":"METAR KNYL 182357Z 18006KT 10SM CLR 31/M06 A2983 RMK AO2 SLP100 T03111061 10311 20261 56023","lat":32.66,"lon":-114.6078,"elev":58,"name":"Yuma , AZ, US","cover":"CLR","clouds":[],"fltCat":"VFR"},{"icaoId":"KBZN","receiptTime":"2026-04-19T00:02:08.294Z","obsTime":1776556560,"reportTime":"2026-04-19T00:00:00.000Z","temp":11.7,"dewp":-5.6,"wdir":130,"wspd":6,"visib":"10+","altim":1019.4,"slp":1021.1,"qcField":4,"presTend":-1.9,"maxT":12.2,"minT":1.7,"metarType":"METAR","rawOb":"METAR KBZN 182356Z 13006KT 10SM CLR 12/M06 A3010 RMK AO2 SLP211 T01171056 10122 20017 56019","lat":45.7876,"lon":-111.1615,"elev":1349,"name":"Bozeman/Gallatin Fld, MT, US","cover":"CLR","clouds":[],"fltCat":"VFR"},{"icaoId":"KFSD","receiptTime":"2026-04-19T00:02:07.113Z","obsTime":1776556560,"reportTime":"2026-04-19T00:00:00.000Z","temp":8.3,"dewp":-15,"wdir":310,"wspd":15,"wgst":26,"visib":"10+","altim":1018.4,"slp":1019.6,"qcField":4,"presTend":-0.2,"maxT":9.4,"minT":6.1,"metarType":"METAR","rawOb":"METAR KFSD 182356Z 31015G26KT 10SM FEW100 08/M15 A3007 RMK AO2 PK WND 31033/2301 SLP196 T00831150 10094 20061 55002","lat":43.5775,"lon":-96.7539,"elev":433,"name":"Sioux Falls/Foss Fld, SD, US","cover":"FEW","clouds":[{"cover":"FEW","base":10000}],"fltCat":"VFR"},{"icaoId":"KJAX","receiptTime":"2026-04-19T00:02:08.633Z","obsTime":1776556560,"reportTime":"2026-04-19T00:00:00.000Z","temp":27.8,"dewp":11.1,"wdir":140,"wspd":10,"visib":"10+","altim":1014,"slp":1013.8,"qcField":4,"presTend":0.3,"maxT":33.3,"minT":27.2,"metarType":"METAR","rawOb":"METAR KJAX 182356Z 14010KT 10SM SCT090 BKN250 28/11 A2994 RMK AO2 SLP138 T02780111 10333 20272 51003","lat":30.4953,"lon":-81.6937,"elev":8,"name":"Jacksonville Intl, FL, US","cover":"BKN","clouds":[{"cover":"SCT","base":9000},{"cover":"BKN","base":25000}],"fltCat":"VFR"},{"icaoId":"KSBP","receiptTime":"2026-04-19T00:02:21.032Z","obsTime":1776556560,"reportTime":"2026-04-19T00:00:00.000Z","temp":22.2,"dewp":5.6,"wdir":310,"wspd":11,"visib":"10+","altim":1013.3,"slp":1013.1,"qcField":4,"presTend":-1.3,"maxT":25.6,"minT":22.2,"metarType":"METAR","rawOb":"METAR KSBP 182356Z 31011KT 10SM CLR 22/06 A2992 RMK AO2 SLP131 T02220056 10256 20222 56013","lat":35.2381,"lon":-120.644,"elev":52,"name":"San Luis Obispo/San Luis Cnty, CA, US","cover":"CLR","clouds":[],"fltCat":"VFR"},{"icaoId":"KCHS","receiptTime":"2026-04-19T00:02:22.024Z","obsTime":1776556560,"reportTime":"2026-04-19T00:00:00.000Z","temp":23.9,"dewp":16.7,"wdir":180,"wspd":6,"visib":"10+","altim":1013.6,"slp":1013.4,"qcField":4,"presTend":0.3,"maxT":31.7,"minT":23.9,"metarType":"METAR","rawOb":"METAR KCHS 182356Z 18006KT 10SM FEW075 SCT090 BKN200 BKN250 24/17 A2993 RMK AO2 SLP134 T02390167 10317 20239 50003","lat":32.8995,"lon":-80.0407,"elev":12,"name":"Charleston Intl, SC, US","cover":"BKN","clouds":[{"cover":"FEW","base":7500},{"cover":"SCT","base":9000},{"cover":"BKN","base":20000},{"cover":"BKN","base":25000}],"fltCat":"VFR"},{"icaoId":"KMKT","receiptTime":"2026-04-19T00:01:58.501Z","obsTime":1776556560,"reportTime":"2026-04-19T00:00:00.000Z","temp":7.2,"dewp":-12.2,"wdir":310,"wspd":15,"wgst":22,"visib":"10+","altim":1016.7,"slp":1017.8,"qcField":6,"presTend":0.3,"maxT":8.3,"minT":3.3,"metarType":"METAR","rawOb":"METAR KMKT 182356Z AUTO 31015G22KT 10SM CLR 07/M12 A3002 RMK AO2 PK WND 28028/2322 SLP178 T00721122 10083 20033 53003","lat":44.2184,"lon":-93.9179,"elev":309,"name":"Mankato Rgnl, MN, US","cover":"CLR","clouds":[],"fltCat":"VFR"},{"icaoId":"KEKO","receiptTime":"2026-04-19T00:02:25.080Z","obsTime":1776556560,"reportTime":"2026-04-19T00:00:00.000Z","temp":18.3,"dewp":-15,"wdir":0,"wspd":0,"visib":"10+","altim":1017,"slp":1016.5,"qcField":6,"presTend":-2.5,"maxT":18.9,"minT":8.9,"metarType":"METAR","rawOb":"METAR KEKO 182356Z AUTO 00000KT 10SM FEW120 18/M15 A3003 RMK AO2 SLP165 T01831150 10189 20089 56025","lat":40.824,"lon":-115.7863,"elev":1541,"name":"Elko Rgnl, NV, US","cover":"FEW","clouds":[{"cover":"FEW","base":12000}],"fltCat":"VFR"},{"icaoId":"KDVL","receiptTime":"2026-04-19T00:02:01.520Z","obsTime":1776556560,"reportTime":"2026-04-19T00:00:00.000Z","temp":3.3,"dewp":-4.4,"wdir":10,"wspd":6,"visib":"10+","altim":1014.3,"slp":1016.7,"qcField":6,"presTend":0.5,"maxT":5,"minT":2.2,"precip":0.005,"pcp6hr":0.005,"metarType":"METAR","rawOb":"METAR KDVL 182356Z AUTO 01006KT 10SM FEW034 SCT043 BKN065 03/M04 A2995 RMK AO2 RAB34E45 SLP167 P0000 60000 T00331044 10050 20022 53005","lat":48.1136,"lon":-98.9034,"elev":439,"name":"Devils Lake Rgnl, ND, US","cover":"BKN","clouds":[{"cover":"FEW","base":3400},{"cover":"SCT","base":4300},{"cover":"BKN","base":6500}],"fltCat":"VFR"},{"icaoId":"KDUG","receiptTime":"2026-04-19T00:02:33.088Z","obsTime":1776556560,"reportTime":"2026-04-19T00:00:00.000Z","temp":27.2,"dewp":-5,"wdir":80,"wspd":12,"visib":"10+","altim":1015.3,"slp":1009.8,"qcField":38,"presTend":-1.5,"maxT":27.8,"minT":23.3,"metarType":"METAR","rawOb":"METAR KDUG 182356Z AUTO 08012KT 10SM CLR 27/M05 A2998 RMK AO2 SLP098 T02721050 10278 20233 56015 TSNO","lat":31.4725,"lon":-109.6022,"elev":1260,"name":"Douglas/Bisbee Intl, AZ, US","cover":"CLR","clouds":[],"fltCat":"VFR"},{"icaoId":"KFOD","receiptTime":"2026-04-19T00:02:18.752Z","obsTime":1776556560,"reportTime":"2026-04-19T00:00:00.000Z","temp":9.4,"dewp":-15,"wdir":300,"wspd":15,"wgst":22,"visib":"10+","altim":1018.7,"slp":1020.9,"qcField":14,"presTend":0.3,"maxT":10.6,"minT":7.2,"metarType":"METAR","rawOb":"METAR KFOD 182356Z AUTO 30015G22KT 10SM CLR 09/M15 A3008 RMK AO2 SLP209 T00941150 10106 20072 53003 $","lat":42.549,"lon":-94.182,"elev":347,"name":"Fort Dodge Rgnl, IA, US","cover":"CLR","clouds":[],"fltCat":"VFR"},{"icaoId":"KENV","receiptTime":"2026-04-19T00:02:18.398Z","obsTime":1776556560,"reportTime":"2026-04-19T00:00:00.000Z","temp":15,"dewp":-16.7,"wdir":70,"wspd":7,"visib":"10+","altim":1021.8,"slp":1021.9,"qcField":6,"presTend":-2.6,"maxT":15.6,"minT":8.3,"metarType":"METAR","rawOb":"METAR KENV 182356Z AUTO 07007KT 10SM CLR 15/M17 A3017 RMK AO2 SLP219 T01501167 10156 20083 56026","lat":40.7211,"lon":-114.0312,"elev":1291,"name":"Wendover Arpt, UT, US","cover":"CLR","clouds":[],"fltCat":"VFR"},{"icaoId":"KEAR","receiptTime":"2026-04-19T00:02:03.190Z","obsTime":1776556560,"reportTime":"2026-04-19T00:00:00.000Z","temp":12.8,"dewp":-7.8,"wdir":300,"wspd":13,"visib":"10+","altim":1021.4,"slp":1022.2,"qcField":6,"presTend":0.4,"maxT":15,"minT":10,"pcp6hr":0.005,"metarType":"METAR","rawOb":"METAR KEAR 182356Z AUTO 30013KT 10SM FEW075 13/M08 A3016 RMK AO2 SLP222 60000 T01281078 10150 20100 53004","lat":40.7193,"lon":-99.0086,"elev":649,"name":"Kearney Rgnl, NE, US","cover":"FEW","clouds":[{"cover":"FEW","base":7500}],"fltCat":"VFR"},{"icaoId":"KGUC","receiptTime":"2026-04-19T00:01:59.810Z","obsTime":1776556560,"reportTime":"2026-04-19T00:00:00.000Z","temp":10,"dewp":-16.7,"wdir":230,"wspd":7,"visib":"10+","altim":1024.5,"slp":1025.4,"qcField":14,"presTend":-0.5,"maxT":11.1,"minT":3.9,"metarType":"METAR","rawOb":"METAR KGUC 182356Z AUTO 23007KT 10SM CLR 10/M17 A3025 RMK AO2 SLP254 T01001167 10111 20039 55005 $","lat":38.5322,"lon":-106.9419,"elev":2337,"name":"Gunnison Arpt, CO, US","cover":"CLR","clouds":[],"fltCat":"VFR"},{"icaoId":"KJMS","receiptTime":"2026-04-19T00:02:08.666Z","obsTime":1776556560,"reportTime":"2026-04-19T00:00:00.000Z","temp":5,"dewp":-3.3,"wdir":300,"wspd":16,"wgst":24,"visib":"10+","altim":1015,"slp":1016.5,"qcField":6,"presTend":-0.7,"maxT":7.2,"minT":2.8,"metarType":"METAR","rawOb":"METAR KJMS 182356Z AUTO 30016G24KT 10SM SCT036 SCT050 OVC075 05/M03 A2997 RMK AO2 PK WND 29036/2318 SLP165 T00501033 10072 20028 55007","lat":46.9259,"lon":-98.6704,"elev":455,"name":"Jamestown Rgnl, ND, US","cover":"OVC","clouds":[{"cover":"SCT","base":3600},{"cover":"SCT","base":5000},{"cover":"OVC","base":7500}],"fltCat":"VFR"},{"icaoId":"KCGZ","receiptTime":"2026-04-19T00:02:01.124Z","obsTime":1776556560,"reportTime":"2026-04-19T00:00:00.000Z","temp":31.1,"dewp":-7.2,"wdir":0,"wspd":0,"visib":"10+","altim":1010.9,"slp":1009.7,"qcField":14,"maxT":31.7,"minT":27.2,"metarType":"METAR","rawOb":"METAR KCGZ 182356Z AUTO 00000KT 10SM CLR 31/M07 A2985 RMK AO2 SLP097 6//// T03111072 10317 20272 $","lat":32.9531,"lon":-111.7725,"elev":444,"name":"Casa Granda Muni, AZ, US","cover":"CLR","clouds":[],"fltCat":"VFR"},{"icaoId":"KCEC","receiptTime":"2026-04-19T00:02:21.884Z","obsTime":1776556560,"reportTime":"2026-04-19T00:00:00.000Z","temp":12.8,"dewp":8.9,"wdir":320,"wspd":4,"visib":"10+","altim":1015,"slp":1014.9,"qcField":6,"presTend":-1.3,"maxT":13.9,"minT":12.2,"metarType":"METAR","rawOb":"METAR KCEC 182356Z AUTO 32004KT 10SM CLR 13/09 A2997 RMK AO2 SLP149 T01280089 10139 20122 58013","lat":41.7836,"lon":-124.238,"elev":17,"name":"Crescent City/McNama, CA, US","cover":"CLR","clouds":[],"fltCat":"VFR"},{"icaoId":"KSLE","receiptTime":"2026-04-19T00:02:21.252Z","obsTime":1776556560,"reportTime":"2026-04-19T00:00:00.000Z","temp":21.1,"dewp":5.6,"wdir":340,"wspd":3,"visib":"10+","altim":1012.3,"slp":1012.2,"qcField":4,"presTend":-2.4,"maxT":21.7,"minT":13.3,"metarType":"METAR","rawOb":"METAR KSLE 182356Z 34003KT 10SM CLR 21/06 A2989 RMK AO2 SLP122 T02110056 10217 20133 56024","lat":44.9049,"lon":-123.001,"elev":63,"name":"Salem Muni, OR, US","cover":"CLR","clouds":[],"fltCat":"VFR"},{"icaoId":"KVIS","receiptTime":"2026-04-19T00:01:59.504Z","obsTime":1776556560,"reportTime":"2026-04-19T00:00:00.000Z","temp":27.2,"dewp":1.1,"wdir":"VRB","wspd":6,"visib":"10+","altim":1012.6,"slp":1012.2,"qcField":14,"presTend":-2.5,"maxT":27.8,"minT":18.9,"metarType":"METAR","rawOb":"METAR KVIS 182356Z AUTO VRB06KT 10SM CLR 27/01 A2990 RMK AO2 SLP122 6//// T02720011 10278 20189 56025 PNO $","lat":36.3135,"lon":-119.3884,"elev":92,"name":"Visalia Muni, CA, US","cover":"CLR","clouds":[],"fltCat":"VFR"},{"icaoId":"KLAS","receiptTime":"2026-04-19T00:02:08.800Z","obsTime":1776556560,"reportTime":"2026-04-19T00:00:00.000Z","temp":24.4,"dewp":-17.2,"wdir":0,"wspd":0,"visib":"10+","altim":1015.3,"slp":1014.1,"qcField":4,"presTend":-2.5,"maxT":25,"minT":20,"metarType":"METAR","rawOb":"METAR KLAS 182356Z 00000KT 10SM FEW120 BKN250 24/M17 A2998 RMK AO2 SLP141 T02441172 10250 20200 56025","lat":36.0719,"lon":-115.1634,"elev":662,"name":"Las Vegas/Reid Intl, NV, US","cover":"BKN","clouds":[{"cover":"FEW","base":12000},{"cover":"BKN","base":25000}],"fltCat":"VFR"},{"icaoId":"KHND","receiptTime":"2026-04-19T00:01:59.967Z","obsTime":1776556560,"reportTime":"2026-04-19T00:00:00.000Z","temp":23.3,"dewp":-15.6,"wdir":60,"wspd":4,"visib":"10+","altim":1016.3,"slp":1016.8,"qcField":12,"presTend":-2.4,"maxT":24.4,"minT":19.4,"metarType":"METAR","rawOb":"METAR KHND 182356Z 06004KT 10SM CLR 23/M16 A3001 RMK AO2 SLP168 T02331156 10244 20194 56024 $","lat":35.9657,"lon":-115.1343,"elev":740,"name":"Henderson Exec, NV, US","cover":"CLR","clouds":[],"fltCat":"VFR"},{"icaoId":"KFNL","receiptTime":"2026-04-19T00:02:18.739Z","obsTime":1776556560,"reportTime":"2026-04-19T00:00:00.000Z","temp":15,"dewp":-13.3,"wdir":160,"wspd":8,"visib":"10+","altim":1021.4,"slp":1019.3,"qcField":14,"presTend":-0.4,"maxT":16.7,"minT":9.4,"metarType":"METAR","rawOb":"METAR KFNL 182356Z AUTO 16008KT 10SM CLR 15/M13 A3016 RMK AO2 SLP193 T01501133 10167 20094 55004 $","lat":40.4427,"lon":-105.0097,"elev":1529,"name":"Fort Collins/N Colorado Rgnl, CO, US","cover":"CLR","clouds":[],"fltCat":"VFR"},{"icaoId":"KOFK","receiptTime":"2026-04-19T00:02:07.809Z","obsTime":1776556560,"reportTime":"2026-04-19T00:00:00.000Z","temp":11.1,"dewp":-9.4,"wdir":300,"wspd":17,"wgst":23,"visib":"10+","altim":1020.1,"slp":1021,"qcField":14,"presTend":0.1,"maxT":12.8,"minT":8.3,"pcp6hr":0.005,"metarType":"METAR","rawOb":"METAR KOFK 182356Z AUTO 30017G23KT 10SM BKN095 11/M09 A3012 RMK AO2 PK WND 32028/2327 SLP210 60000 T01111094 10128 20083 53001 $","lat":41.9799,"lon":-97.4335,"elev":476,"name":"Norfolk/Stefan Mem, NE, US","cover":"BKN","clouds":[{"cover":"BKN","base":9500}],"fltCat":"VFR"},{"icaoId":"KCOE","receiptTime":"2026-04-19T00:02:01.224Z","obsTime":1776556560,"reportTime":"2026-04-19T00:00:00.000Z","temp":15.6,"dewp":-0.6,"wdir":0,"wspd":0,"visib":"10+","altim":1017.7,"slp":1020.4,"qcField":14,"presTend":-1.8,"maxT":16.1,"minT":10,"metarType":"METAR","rawOb":"METAR KCOE 182356Z AUTO 00000KT 10SM CLR 16/M01 A3005 RMK AO2 SLP204 6//// T01561006 10161 20100 56018 PNO $","lat":47.7719,"lon":-116.8332,"elev":693,"name":"Coeur DAlene Arpt, ID, US","cover":"CLR","clouds":[],"fltCat":"VFR"},{"icaoId":"KJAC","receiptTime":"2026-04-19T00:02:00.262Z","obsTime":1776556560,"reportTime":"2026-04-19T00:00:00.000Z","temp":8.3,"dewp":-8.9,"wdir":"VRB","wspd":6,"visib":"10+","altim":1022.4,"slp":1025.5,"qcField":4,"presTend":-0.8,"maxT":8.9,"minT":3.9,"metarType":"METAR","rawOb":"METAR KJAC 182356Z VRB06KT 10SM CLR 08/M09 A3019 RMK AO2 SLP255 T00831089 10089 20039 58008","lat":43.6129,"lon":-110.7366,"elev":1967,"name":"Jackson Hole Arpt, WY, US","cover":"CLR","clouds":[],"fltCat":"VFR"},{"icaoId":"KPVU","receiptTime":"2026-04-19T00:02:00.423Z","obsTime":1776556560,"reportTime":"2026-04-19T00:00:00.000Z","temp":15,"dewp":-7.8,"wdir":240,"wspd":4,"visib":"10+","altim":1021.1,"slp":1020.7,"qcField":4,"presTend":-2.3,"maxT":15.6,"minT":8.3,"metarType":"METAR","rawOb":"METAR KPVU 182356Z 24004KT 10SM CLR 15/M08 A3015 RMK AO2 SLP207 T01501078 10156 20083 56023","lat":40.224,"lon":-111.7252,"elev":1370,"name":"Provo Muni, UT, US","cover":"CLR","clouds":[],"fltCat":"VFR"},{"icaoId":"KPWT","receiptTime":"2026-04-19T00:02:00.451Z","obsTime":1776556560,"reportTime":"2026-04-19T00:00:00.000Z","temp":20.6,"dewp":2.8,"wdir":200,"wspd":9,"visib":"10+","altim":1014,"slp":1014.1,"qcField":6,"presTend":-1.9,"maxT":20.6,"minT":15.6,"metarType":"METAR","rawOb":"METAR KPWT 182356Z AUTO 20009KT 10SM FEW120 21/03 A2994 RMK AO2 SLP141 6//// T02060028 10206 20156 58019","lat":47.4942,"lon":-122.7594,"elev":143,"name":"Bremerton Arpt, WA, US","cover":"FEW","clouds":[{"cover":"FEW","base":12000}],"fltCat":"VFR"},{"icaoId":"KSGU","receiptTime":"2026-04-19T00:02:00.835Z","obsTime":1776556560,"reportTime":"2026-04-19T00:00:00.000Z","temp":25,"dewp":-17.2,"wdir":70,"wspd":7,"visib":"10+","altim":1016,"slp":1014.4,"qcField":6,"presTend":-2.6,"maxT":25,"minT":17.2,"metarType":"METAR","rawOb":"METAR KSGU 182356Z AUTO 07007KT 10SM CLR 25/M17 A3000 RMK AO2 SLP144 T02501172 10250 20172 56026","lat":37.0444,"lon":-113.5034,"elev":877,"name":"Saint George Muni, UT, US","cover":"CLR","clouds":[],"fltCat":"VFR"},{"icaoId":"KYKN","receiptTime":"2026-04-19T00:01:59.701Z","obsTime":1776556560,"reportTime":"2026-04-19T00:00:00.000Z","temp":10,"dewp":-11.1,"wdir":280,"wspd":19,"wgst":27,"visib":"10+","altim":1019.7,"slp":1022,"qcField":6,"presTend":0.1,"maxT":11.7,"minT":7.8,"metarType":"METAR","rawOb":"METAR KYKN 182356Z AUTO 28019G27KT 10SM SCT090 10/M11 A3011 RMK AO2 PK WND 28031/2333 SLP220 T01001111 10117 20078 53001","lat":42.9141,"lon":-97.3807,"elev":388,"name":"Yankton/Gurney Muni, SD, US","cover":"SCT","clouds":[{"cover":"SCT","base":9000}],"fltCat":"VFR"},{"icaoId":"KSFO","receiptTime":"2026-04-19T00:02:21.213Z","obsTime":1776556560,"reportTime":"2026-04-19T00:00:00.000Z","temp":21.7,"dewp":7.2,"wdir":290,"wspd":12,"visib":"10+","altim":1013.3,"slp":1013,"qcField":12,"presTend":-1.6,"maxT":22.2,"minT":15,"metarType":"METAR","rawOb":"METAR KSFO 182356Z 29012KT 10SM FEW180 BKN200 22/07 A2992 RMK AO2 SLP130 T02170072 10222 20150 58016 $","lat":37.6196,"lon":-122.3656,"elev":2,"name":"San Francisco Intl, CA, US","cover":"BKN","clouds":[{"cover":"FEW","base":18000},{"cover":"BKN","base":20000}],"fltCat":"VFR"},{"icaoId":"KIWA","receiptTime":"2026-04-19T00:00:59.981Z","obsTime":1776556560,"reportTime":"2026-04-19T00:00:00.000Z","temp":32,"dewp":-11,"wdir":"VRB","wspd":6,"visib":"10+","altim":1010.9,"qcField":0,"metarType":"METAR","rawOb":"METAR KIWA 182356Z VRB06KT 10SM CLR 32/M11 A2985","lat":33.3008,"lon":-111.6437,"elev":420,"name":"Phoenix/Mesa Gateway Arpt, AZ, US","cover":"CLR","clouds":[],"fltCat":"VFR"},{"icaoId":"KTPH","receiptTime":"2026-04-19T00:02:25.592Z","obsTime":1776556560,"reportTime":"2026-04-19T00:00:00.000Z","temp":19.4,"dewp":-19.4,"wdir":180,"wspd":11,"wgst":20,"visib":"10+","altim":1017.4,"slp":1014.4,"qcField":6,"presTend":-2,"maxT":20,"minT":12.8,"metarType":"METAR","rawOb":"METAR KTPH 182356Z AUTO 18011G20KT 10SM CLR 19/M19 A3004 RMK AO2 SLP144 T01941194 10200 20128 56020","lat":38.0505,"lon":-117.0906,"elev":1647,"name":"Tonopah Arpt, NV, US","cover":"CLR","clouds":[],"fltCat":"VFR"},{"icaoId":"KBKX","receiptTime":"2026-04-19T00:02:18.310Z","obsTime":1776556560,"reportTime":"2026-04-19T00:00:00.000Z","temp":7.2,"dewp":-14.4,"wdir":300,"wspd":21,"wgst":24,"visib":"10+","altim":1017.7,"slp":1020.3,"qcField":6,"presTend":0.2,"maxT":7.8,"minT":3.9,"metarType":"METAR","rawOb":"METAR KBKX 182356Z AUTO 30021G24KT 10SM CLR 07/M14 A3005 RMK AO2 PK WND 30029/2301 SLP203 T00721144 10078 20039 53002","lat":44.3075,"lon":-96.8183,"elev":494,"name":"Brookings Rgnl, SD, US","cover":"CLR","clouds":[],"fltCat":"VFR"},{"icaoId":"KHDN","receiptTime":"2026-04-19T00:01:59.899Z","obsTime":1776556560,"reportTime":"2026-04-19T00:00:00.000Z","temp":8.3,"dewp":-12.2,"wdir":300,"wspd":6,"visib":"10+","altim":1025.5,"slp":1026.9,"qcField":6,"presTend":-0.7,"maxT":8.9,"minT":1.7,"metarType":"METAR","rawOb":"METAR KHDN 182356Z AUTO 30006KT 10SM CLR 08/M12 A3028 RMK AO2 SLP269 T00831122 10089 20017 56007","lat":40.4842,"lon":-107.2296,"elev":2012,"name":"Hayden/Yampa Valley Arpt, CO, US","cover":"CLR","clouds":[],"fltCat":"VFR"},{"icaoId":"KCOD","receiptTime":"2026-04-19T00:02:01.213Z","obsTime":1776556560,"reportTime":"2026-04-19T00:00:00.000Z","temp":13.3,"dewp":-12.2,"wdir":270,"wspd":12,"wgst":18,"visib":"10+","altim":1020.1,"slp":1021.4,"qcField":14,"maxT":15,"minT":8.9,"metarType":"METAR","rawOb":"METAR KCOD 182356Z AUTO 27012G18KT 10SM CLR 13/M12 A3012 RMK AO2 SLP214 T01331122 10150 20089 53000 $","lat":44.52,"lon":-109.0268,"elev":1550,"name":"Cody/Yellowstone Rgnl, WY, US","cover":"CLR","clouds":[],"fltCat":"VFR"},{"icaoId":"KSDF","receiptTime":"2026-04-19T00:02:21.136Z","obsTime":1776556560,"reportTime":"2026-04-19T00:00:00.000Z","temp":10,"dewp":5.6,"wdir":300,"wspd":10,"visib":"10+","altim":1017,"slp":1016.9,"qcField":4,"presTend":0.5,"maxT":19.4,"minT":10,"pcp6hr":0.01,"metarType":"METAR","rawOb":"METAR KSDF 182356Z 30010KT 10SM FEW015 OVC050 10/06 A3003 RMK AO2 SLP169 60001 T01000056 10194 20100 53005","lat":38.1774,"lon":-85.7308,"elev":146,"name":"Louisville Intl, KY, US","cover":"OVC","clouds":[{"cover":"FEW","base":1500},{"cover":"OVC","base":5000}],"fltCat":"VFR"},{"icaoId":"KDIK","receiptTime":"2026-04-19T00:02:24.639Z","obsTime":1776556560,"reportTime":"2026-04-19T00:00:00.000Z","temp":6.1,"dewp":-3.3,"wdir":320,"wspd":13,"visib":"10+","altim":1016.3,"slp":1019.1,"qcField":14,"presTend":0.1,"maxT":8.9,"minT":5.6,"pcp6hr":0.005,"metarType":"METAR","rawOb":"METAR KDIK 182356Z AUTO 32013KT 10SM FEW050 BKN070 OVC095 06/M03 A3001 RMK AO2 PK WND 31028/2258 SLP191 60000 T00611033 10089 20056 53001 $","lat":46.7997,"lon":-102.7971,"elev":788,"name":"Dickinson/Roosevelt , ND, US","cover":"OVC","clouds":[{"cover":"FEW","base":5000},{"cover":"BKN","base":7000},{"cover":"OVC","base":9500}],"fltCat":"VFR"},{"icaoId":"KLWS","receiptTime":"2026-04-19T00:02:09.600Z","obsTime":1776556560,"reportTime":"2026-04-19T00:00:00.000Z","temp":18.3,"dewp":3.3,"wdir":120,"wspd":7,"visib":"10+","altim":1017,"slp":1017,"qcField":4,"presTend":-2.1,"maxT":18.9,"minT":10,"metarType":"METAR","rawOb":"METAR KLWS 182356Z 12007KT 10SM CLR 18/03 A3003 RMK AO2 SLP170 T01830033 10189 20100 56021","lat":46.3746,"lon":-117.0153,"elev":435,"name":"Lewiston/Nez Perce Cnty, ID, US","cover":"CLR","clouds":[],"fltCat":"VFR"},{"icaoId":"KINW","receiptTime":"2026-04-19T00:02:08.575Z","obsTime":1776556560,"reportTime":"2026-04-19T00:00:00.000Z","temp":20,"dewp":-21.1,"wdir":0,"wspd":0,"visib":"10+","altim":1019.7,"slp":1017.1,"qcField":6,"presTend":-2.1,"maxT":20.6,"minT":11.1,"metarType":"METAR","rawOb":"METAR KINW 182356Z AUTO 00000KT 10SM CLR 20/M21 A3011 RMK AO2 SLP171 T02001211 10206 20111 56021","lat":35.0279,"lon":-110.7221,"elev":1492,"name":"Winslow/Lindberg Rgnl, AZ, US","cover":"CLR","clouds":[],"fltCat":"VFR"},{"icaoId":"KLBL","receiptTime":"2026-04-19T00:02:01.707Z","obsTime":1776556560,"reportTime":"2026-04-19T00:00:00.000Z","temp":17.2,"dewp":-13.3,"wdir":340,"wspd":13,"visib":"10+","altim":1023.5,"slp":1023.7,"qcField":14,"presTend":-0.2,"maxT":18.3,"minT":15,"metarType":"METAR","rawOb":"METAR KLBL 182356Z AUTO 34013KT 10SM CLR 17/M13 A3022 RMK AO2 SLP237 T01721133 10183 20150 55002 $","lat":37.0375,"lon":-100.9574,"elev":877,"name":"Liberal/Mid America Rgnl, KS, US","cover":"CLR","clouds":[],"fltCat":"VFR"},{"icaoId":"KSHV","receiptTime":"2026-04-19T00:02:05.078Z","obsTime":1776556560,"reportTime":"2026-04-19T00:00:00.000Z","temp":14,"dewp":12,"wdir":350,"wspd":12,"wgst":19,"visib":"10+","altim":1019.7,"qcField":0,"metarType":"METAR","rawOb":"METAR KSHV 182356Z 35012G19KT 10SM BKN008 OVC013 14/12 A3011 RMK RAE13 SLPNO","lat":32.4473,"lon":-93.8244,"elev":70,"name":"Shreveport Rgnl, LA, US","cover":"OVC","clouds":[{"cover":"BKN","base":800},{"cover":"OVC","base":1300}],"fltCat":"IFR"},{"icaoId":"KEGE","receiptTime":"2026-04-19T00:02:03.285Z","obsTime":1776556560,"reportTime":"2026-04-19T00:00:00.000Z","temp":10,"dewp":-11.1,"wdir":290,"wspd":8,"visib":"10+","altim":1025.1,"slp":1025,"qcField":4,"presTend":-0.8,"maxT":11.1,"minT":3.3,"metarType":"METAR","rawOb":"METAR KEGE 182356Z 29008KT 10SM CLR 10/M11 A3027 RMK AO2 SLP250 T01001111 10111 20033 56008","lat":39.6448,"lon":-106.9176,"elev":1993,"name":"Eagle Cnty Rgnl, CO, US","cover":"CLR","clouds":[],"fltCat":"VFR"},{"icaoId":"KRDM","receiptTime":"2026-04-19T00:02:25.926Z","obsTime":1776556560,"reportTime":"2026-04-19T00:00:00.000Z","temp":21.7,"dewp":-4.4,"wdir":40,"wspd":12,"wgst":19,"visib":"10+","altim":1012.6,"slp":1012.1,"qcField":4,"presTend":-2.2,"maxT":22.2,"minT":14.4,"metarType":"METAR","rawOb":"METAR KRDM 182356Z 04012G19KT 10SM CLR 22/M04 A2990 RMK AO2 SLP121 T02171044 10222 20144 58022","lat":44.2558,"lon":-121.1407,"elev":930,"name":"Redmond Muni, OR, US","cover":"CLR","clouds":[],"fltCat":"VFR"},{"icaoId":"KUKI","receiptTime":"2026-04-19T00:02:25.746Z","obsTime":1776556560,"reportTime":"2026-04-19T00:00:00.000Z","temp":24.4,"dewp":2.2,"wdir":170,"wspd":6,"visib":"10+","altim":1012.3,"slp":1011.7,"qcField":6,"presTend":-1.8,"maxT":25.6,"minT":17.8,"metarType":"METAR","rawOb":"METAR KUKI 182356Z AUTO 17006KT 10SM CLR 24/02 A2989 RMK AO2 SLP117 T02440022 10256 20178 56018","lat":39.1278,"lon":-123.2001,"elev":183,"name":"Ukiah Muni, CA, US","cover":"CLR","clouds":[],"fltCat":"VFR"},{"icaoId":"KGPI","receiptTime":"2026-04-19T00:02:18.930Z","obsTime":1776556500,"reportTime":"2026-04-19T00:00:00.000Z","temp":12.8,"dewp":-3.3,"wdir":190,"wspd":9,"visib":"10+","altim":1018,"slp":1019.4,"qcField":12,"presTend":-2.3,"maxT":13.3,"minT":7.8,"metarType":"METAR","rawOb":"METAR KGPI 182355Z 19009KT 10SM CLR 13/M03 A3006 RMK AO2 SLP194 T01281033 10133 20078 56023 $","lat":48.3041,"lon":-114.2643,"elev":903,"name":"Kalispell/Glacier Park Intl, MT, US","cover":"CLR","clouds":[],"fltCat":"VFR"},{"icaoId":"KEND","receiptTime":"2026-04-19T00:16:03.669Z","obsTime":1776556500,"reportTime":"2026-04-19T00:00:00.000Z","temp":16.4,"dewp":-0.3,"wdir":130,"wspd":7,"visib":"10+","altim":1021.8,"slp":1021.9,"qcField":14,"presTend":-1.3,"maxT":17.9,"minT":14.8,"metarType":"METAR","rawOb":"METAR KEND 182355Z AUTO 13007KT 10SM CLR 16/M00 A3017 RMK AO2 SLP219 T01641003 10179 20148 56013 $","lat":36.338,"lon":-97.919,"elev":392,"name":"Enid/Vance AFB, OK, US","cover":"CLR","clouds":[],"fltCat":"VFR"},{"icaoId":"KDLH","receiptTime":"2026-04-19T00:02:01.447Z","obsTime":1776556500,"reportTime":"2026-04-19T00:00:00.000Z","temp":1.7,"dewp":-10.6,"wdir":280,"wspd":22,"wgst":32,"visib":"10+","altim":1010.9,"slp":1013,"qcField":12,"presTend":1.1,"maxT":2.2,"minT":-1.7,"metarType":"METAR","rawOb":"METAR KDLH 182355Z 28022G32KT 10SM BKN060 02/M11 A2985 RMK AO2 PK WND 28032/2354 SLP130 T00171106 10022 21017 53011 $","lat":46.8435,"lon":-92.1866,"elev":434,"name":"Duluth Intl Arpt, MN, US","cover":"BKN","clouds":[{"cover":"BKN","base":6000}],"fltCat":"VFR"},{"icaoId":"KCMA","receiptTime":"2026-04-19T00:02:01.170Z","obsTime":1776556500,"reportTime":"2026-04-19T00:00:00.000Z","temp":22.2,"dewp":11.7,"wdir":270,"wspd":7,"visib":"10+","altim":1013,"slp":1013.5,"qcField":4,"presTend":-1,"maxT":24.4,"minT":22.2,"metarType":"METAR","rawOb":"METAR KCMA 182355Z 27007KT 10SM CLR 22/12 A2991 RMK AO2 SLP135 T02220117 10244 20222 58010","lat":34.2114,"lon":-119.0876,"elev":20,"name":"Camarillo Arpt, CA, US","cover":"CLR","clouds":[],"fltCat":"VFR"},{"icaoId":"KRNO","receiptTime":"2026-04-19T00:02:00.609Z","obsTime":1776556500,"reportTime":"2026-04-19T00:00:00.000Z","temp":21.1,"dewp":-12.2,"wdir":"VRB","wspd":3,"visib":"10+","altim":1014.6,"slp":1012,"qcField":4,"presTend":-2.4,"maxT":22.2,"minT":12.8,"metarType":"METAR","rawOb":"METAR KRNO 182355Z VRB03KT 10SM FEW100 SCT230 21/M12 A2996 RMK AO2 SLP120 T02111122 10222 20128 58024","lat":39.5077,"lon":-119.7683,"elev":1344,"name":"Reno/Tahoe Intl, NV, US","cover":"SCT","clouds":[{"cover":"FEW","base":10000},{"cover":"SCT","base":23000}],"fltCat":"VFR"},{"icaoId":"KHON","receiptTime":"2026-04-19T00:02:00.000Z","obsTime":1776556500,"reportTime":"2026-04-19T00:00:00.000Z","temp":9.4,"dewp":-10,"wdir":320,"wspd":18,"wgst":26,"visib":"10+","altim":1018.4,"slp":1019.5,"qcField":6,"maxT":10.6,"minT":6.1,"metarType":"METAR","rawOb":"METAR KHON 182355Z AUTO 32018G26KT 10SM CLR 09/M10 A3007 RMK AO2 PK WND 32032/2258 SLP195 T00941100 10106 20061 55000","lat":44.3792,"lon":-98.2227,"elev":391,"name":"Huron Rgnl, SD, US","cover":"CLR","clouds":[],"fltCat":"VFR"},{"icaoId":"KIRK","receiptTime":"2026-04-19T00:02:00.176Z","obsTime":1776556500,"reportTime":"2026-04-19T00:00:00.000Z","temp":11.1,"dewp":-6.7,"wdir":270,"wspd":15,"wgst":24,"visib":"10+","altim":1021.1,"slp":1021.6,"qcField":6,"presTend":0.6,"maxT":12.8,"minT":10,"metarType":"METAR","rawOb":"METAR KIRK 182355Z AUTO 27015G24KT 10SM CLR 11/M07 A3015 RMK AO2 PK WND 29028/2256 SLP216 T01111067 10128 20100 53006","lat":40.0966,"lon":-92.5469,"elev":292,"name":"Kirksville Rgnl, MO, US","cover":"CLR","clouds":[],"fltCat":"VFR"},{"icaoId":"KAST","receiptTime":"2026-04-19T00:02:03.604Z","obsTime":1776556500,"reportTime":"2026-04-19T00:00:00.000Z","temp":16.1,"dewp":5,"wdir":240,"wspd":8,"visib":"10+","altim":1013.6,"slp":1013.6,"qcField":14,"presTend":-1,"maxT":18.3,"minT":15.6,"metarType":"METAR","rawOb":"METAR KAST 182355Z AUTO 24008KT 10SM CLR 16/05 A2993 RMK AO2 SLP136 T01610050 10183 20156 58010 $","lat":46.157,"lon":-123.8833,"elev":3,"name":"Astoria Rgnl, OR, US","cover":"CLR","clouds":[],"fltCat":"VFR"},{"icaoId":"KLUF","receiptTime":"2026-04-19T00:08:12.352Z","obsTime":1776556500,"reportTime":"2026-04-19T00:00:00.000Z","temp":32.1,"dewp":-15.1,"wdir":300,"wspd":4,"visib":"10+","altim":1009.9,"slp":1008.7,"qcField":14,"presTend":-2.7,"maxT":32.4,"minT":27.6,"metarType":"METAR","rawOb":"METAR KLUF 182355Z AUTO 30004KT 10SM CLR 32/M15 A2982 RMK AO2 SLP087 T03211151 10324 20276 57027 $","lat":33.538,"lon":-112.38,"elev":333,"name":"Phoenix/Luke AFB, AZ, US","cover":"CLR","clouds":[],"fltCat":"VFR"},{"icaoId":"KEUG","receiptTime":"2026-04-19T00:01:55.292Z","obsTime":1776556440,"reportTime":"2026-04-19T00:00:00.000Z","temp":21.7,"dewp":7.8,"wdir":350,"wspd":7,"visib":"10+","altim":1012.3,"slp":1012.2,"qcField":4,"presTend":-2.3,"maxT":21.7,"minT":12.8,"metarType":"METAR","rawOb":"METAR KEUG 182354Z 35007KT 10SM FEW110 SCT250 22/08 A2989 RMK AO2 SLP122 T02170078 10217 20128 56023","lat":44.1331,"lon":-123.2156,"elev":109,"name":"Eugene/Mahlon Sweet Fld, OR, US","cover":"SCT","clouds":[{"cover":"FEW","base":11000},{"cover":"SCT","base":25000}],"fltCat":"VFR"},{"icaoId":"KCOU","receiptTime":"2026-04-19T00:02:16.654Z","obsTime":1776556440,"reportTime":"2026-04-19T00:00:00.000Z","temp":12.2,"dewp":-2.8,"wdir":310,"wspd":13,"wgst":22,"visib":"10+","altim":1021.4,"slp":1021.5,"qcField":4,"presTend":0.9,"maxT":13.9,"minT":10.6,"metarType":"METAR","rawOb":"METAR KCOU 182354Z 31013G22KT 10SM CLR 12/M03 A3016 RMK AO2 PK WND 30027/2315 SLP215 T01221028 10139 20106 53009","lat":38.8171,"lon":-92.2148,"elev":272,"name":"Columbia Rgnl, MO, US","cover":"CLR","clouds":[],"fltCat":"VFR"},{"icaoId":"KRKS","receiptTime":"2026-04-19T00:02:16.142Z","obsTime":1776556440,"reportTime":"2026-04-19T00:00:00.000Z","temp":10.6,"dewp":-16.7,"wdir":220,"wspd":11,"wgst":20,"visib":"10+","altim":1022.8,"slp":1023.3,"qcField":6,"presTend":-0.9,"maxT":11.1,"minT":4.4,"metarType":"METAR","rawOb":"METAR KRKS 182354Z AUTO 22011G20KT 10SM CLR 11/M17 A3020 RMK AO2 SLP233 T01061167 10111 20044 56009","lat":41.5947,"lon":-109.0529,"elev":2062,"name":"Rock Springs/SW Wyoming Rgnl, WY, US","cover":"CLR","clouds":[],"fltCat":"VFR"},{"icaoId":"KCOS","receiptTime":"2026-04-19T00:02:16.640Z","obsTime":1776556440,"reportTime":"2026-04-19T00:00:00.000Z","temp":11.1,"dewp":-14.4,"wdir":170,"wspd":7,"visib":"10+","altim":1023.1,"slp":1024.5,"qcField":4,"presTend":-0.3,"maxT":12.2,"minT":6.7,"metarType":"METAR","rawOb":"METAR KCOS 182354Z 17007KT 10SM FEW080 BKN220 11/M14 A3021 RMK AO2 SLP245 T01111144 10122 20067 55003","lat":38.8095,"lon":-104.6887,"elev":1886,"name":"Colorado Spring Arpt, CO, US","cover":"BKN","clouds":[{"cover":"FEW","base":8000},{"cover":"BKN","base":22000}],"fltCat":"VFR"},{"icaoId":"KINL","receiptTime":"2026-04-19T00:01:55.900Z","obsTime":1776556440,"reportTime":"2026-04-19T00:00:00.000Z","temp":-1.1,"dewp":-11.7,"wdir":290,"wspd":19,"wgst":29,"visib":"10+","altim":1010.9,"slp":1012.9,"qcField":14,"presTend":1.9,"maxT":0,"minT":-3.9,"metarType":"METAR","rawOb":"METAR KINL 182354Z AUTO 29019G29KT 10SM OVC050 M01/M12 A2985 RMK AO2 PK WND 29033/2310 SLP129 T10111117 10000 21039 53019 $","lat":48.5594,"lon":-93.3955,"elev":353,"name":"International Falls/Einarson Fld, MN, US","cover":"OVC","clouds":[{"cover":"OVC","base":5000}],"fltCat":"VFR"},{"icaoId":"KGCN","receiptTime":"2026-04-19T00:01:55.554Z","obsTime":1776556440,"reportTime":"2026-04-19T00:00:00.000Z","temp":14.4,"dewp":-20,"wdir":60,"wspd":15,"wgst":21,"visib":"10+","altim":1022.1,"slp":1017.3,"qcField":4,"presTend":-1.5,"maxT":15.6,"minT":8.9,"metarType":"METAR","rawOb":"METAR KGCN 182354Z 06015G21KT 10SM CLR 14/M20 A3018 RMK AO2 SLP173 T01441200 10156 20089 58015","lat":35.9458,"lon":-112.1554,"elev":1993,"name":"Grand Canyon Park Arpt, AZ, US","cover":"CLR","clouds":[],"fltCat":"VFR"},{"icaoId":"KRST","receiptTime":"2026-04-19T00:01:56.349Z","obsTime":1776556440,"reportTime":"2026-04-19T00:00:00.000Z","temp":6.1,"dewp":-10.6,"wdir":310,"wspd":17,"wgst":25,"visib":"10+","altim":1016.3,"slp":1017.5,"qcField":4,"presTend":1.2,"maxT":6.7,"minT":1.7,"metarType":"METAR","rawOb":"METAR KRST 182354Z 31017G25KT 10SM CLR 06/M11 A3001 RMK AO2 PK WND 31031/2322 SLP175 T00611106 10067 20017 52012","lat":43.904,"lon":-92.4921,"elev":398,"name":"Rochester Intl, MN, US","cover":"CLR","clouds":[],"fltCat":"VFR"},{"icaoId":"KOLM","receiptTime":"2026-04-19T00:02:15.536Z","obsTime":1776556440,"reportTime":"2026-04-19T00:00:00.000Z","temp":22.2,"dewp":1.1,"wdir":200,"wspd":8,"visib":"10+","altim":1013,"slp":1012.9,"qcField":4,"presTend":-2.3,"maxT":22.2,"minT":12.8,"metarType":"METAR","rawOb":"METAR KOLM 182354Z 20008KT 10SM SCT095 22/01 A2991 RMK AO2 SLP129 T02220011 10222 20128 56023","lat":46.9737,"lon":-122.9049,"elev":58,"name":"Olympia Rgnl, WA, US","cover":"SCT","clouds":[{"cover":"SCT","base":9500}],"fltCat":"VFR"},{"icaoId":"KLNK","receiptTime":"2026-04-19T00:01:49.080Z","obsTime":1776556440,"reportTime":"2026-04-19T00:00:00.000Z","temp":12.8,"dewp":-6.1,"wdir":340,"wspd":14,"visib":"10+","altim":1021.1,"slp":1021.5,"qcField":4,"maxT":14.4,"minT":11.7,"metarType":"METAR","rawOb":"METAR KLNK 182354Z 34014KT 10SM FEW120 13/M06 A3015 RMK AO2 SLP215 T01281061 10144 20117 50000","lat":40.8478,"lon":-96.7647,"elev":357,"name":"Lincoln Arpt, NE, US","cover":"FEW","clouds":[{"cover":"FEW","base":12000}],"fltCat":"VFR"},{"icaoId":"KAPC","receiptTime":"2026-04-19T00:01:50.118Z","obsTime":1776556440,"reportTime":"2026-04-19T00:00:00.000Z","temp":22.2,"dewp":2.2,"wdir":220,"wspd":5,"visib":"10+","altim":1013,"slp":1011.9,"qcField":4,"presTend":-1.8,"maxT":23.9,"minT":19.4,"metarType":"METAR","rawOb":"METAR KAPC 182354Z 22005KT 10SM CLR 22/02 A2991 RMK AO2 SLP119 T02220022 10239 20194 58018","lat":38.2075,"lon":-122.2804,"elev":5,"name":"Napa Cnty Arpt, CA, US","cover":"CLR","clouds":[],"fltCat":"VFR"},{"icaoId":"KSYR","receiptTime":"2026-04-19T00:01:56.655Z","obsTime":1776556440,"reportTime":"2026-04-19T00:00:00.000Z","temp":23.9,"dewp":11.1,"wdir":160,"wspd":17,"wgst":31,"visib":"10+","altim":1003.8,"slp":1003.2,"qcField":4,"presTend":-1.5,"maxT":26.7,"minT":23.9,"precip":0.005,"pcp6hr":0.005,"metarType":"METAR","rawOb":"METAR KSYR 182354Z 16017G31KT 10SM SCT065 BKN110 BKN150 24/11 A2964 RMK AO2 PK WND 17036/2342 RAE11 SLP032 P0000 60000 T02390111 10267 20239 56015","lat":43.1111,"lon":-76.1038,"elev":125,"name":"Syracuse/Hancock Intl, NY, US","cover":"BKN","clouds":[{"cover":"SCT","base":6500},{"cover":"BKN","base":11000},{"cover":"BKN","base":15000}],"fltCat":"VFR"},{"icaoId":"KOLS","receiptTime":"2026-04-19T00:02:15.548Z","obsTime":1776556440,"reportTime":"2026-04-19T00:00:00.000Z","temp":28.3,"dewp":-2.8,"wdir":"VRB","wspd":3,"visib":"10+","altim":1013.6,"slp":1008.3,"qcField":6,"presTend":-1.7,"maxT":30,"minT":23.9,"metarType":"METAR","rawOb":"METAR KOLS 182354Z AUTO VRB03KT 10SM BKN120 28/M03 A2993 RMK AO2 SLP083 T02831028 10300 20239 56017","lat":31.4208,"lon":-110.8465,"elev":1194,"name":"Nogales Intl, AZ, US","cover":"BKN","clouds":[{"cover":"BKN","base":12000}],"fltCat":"VFR"},{"icaoId":"KBOS","receiptTime":"2026-04-19T00:02:16.218Z","obsTime":1776556440,"reportTime":"2026-04-19T00:00:00.000Z","temp":6.7,"dewp":6.1,"wdir":60,"wspd":9,"visib":2,"altim":1017,"slp":1016.9,"qcField":4,"wxString":"-DZ BR","presTend":-1.4,"maxT":9.4,"minT":6.7,"precip":0.005,"pcp6hr":0.005,"metarType":"METAR","rawOb":"METAR KBOS 182354Z 06009KT 2SM -DZ BR OVC004 07/06 A3003 RMK AO2 SFC VIS 6 DZB49 SLP169 P0000 60000 T00670061 10094 20067 58014","lat":42.3606,"lon":-71.0097,"elev":4,"name":"Boston/Logan Intl, MA, US","cover":"OVC","clouds":[{"cover":"OVC","base":400}],"fltCat":"LIFR"},{"icaoId":"KBWI","receiptTime":"2026-04-19T00:02:16.318Z","obsTime":1776556440,"reportTime":"2026-04-19T00:00:00.000Z","temp":17.2,"dewp":13.3,"wdir":90,"wspd":11,"visib":"10+","altim":1010.9,"slp":1010.7,"qcField":4,"presTend":-0.6,"maxT":23.9,"minT":17.2,"metarType":"METAR","rawOb":"METAR KBWI 182354Z 09011KT 10SM SCT200 BKN250 17/13 A2985 RMK AO2 SLP107 T01720133 10239 20172 58006","lat":39.1733,"lon":-76.684,"elev":42,"name":"Baltimore-Washington Intl, MD, US","cover":"BKN","clouds":[{"cover":"SCT","base":20000},{"cover":"BKN","base":25000}],"fltCat":"VFR"},{"icaoId":"KDSM","receiptTime":"2026-04-19T00:02:16.911Z","obsTime":1776556440,"reportTime":"2026-04-19T00:00:00.000Z","temp":10.6,"dewp":-12.2,"wdir":290,"wspd":16,"visib":"10+","altim":1019.7,"slp":1020.2,"qcField":12,"presTend":-0.1,"maxT":11.7,"minT":8.3,"metarType":"METAR","rawOb":"METAR KDSM 182354Z 29016KT 10SM FEW100 11/M12 A3011 RMK AO2 PK WND 27034/2316 SLP202 T01061122 10117 20083 56001 $","lat":41.5339,"lon":-93.6531,"elev":286,"name":"Des Moines Intl, IA, US","cover":"FEW","clouds":[{"cover":"FEW","base":10000}],"fltCat":"VFR"},{"icaoId":"KFFZ","receiptTime":"2026-04-19T00:01:55.351Z","obsTime":1776556440,"reportTime":"2026-04-19T00:00:00.000Z","temp":31.1,"dewp":-10.6,"wdir":250,"wspd":4,"visib":"10+","altim":1010.6,"slp":1008.2,"qcField":6,"presTend":-2.3,"maxT":31.7,"minT":27.8,"metarType":"METAR","rawOb":"METAR KFFZ 182354Z AUTO 25004KT 10SM CLR 31/M11 A2984 RMK AO2 SLP082 T03111106 10317 20278 56023","lat":33.4659,"lon":-111.7212,"elev":420,"name":"Mesa/Falcon Fld, AZ, US","cover":"CLR","clouds":[],"fltCat":"VFR"},{"icaoId":"KROC","receiptTime":"2026-04-19T00:02:19.129Z","obsTime":1776556440,"reportTime":"2026-04-19T00:00:00.000Z","temp":15,"dewp":13.9,"wdir":260,"wspd":12,"wgst":18,"visib":4,"altim":1006.5,"slp":1006.6,"qcField":13,"wxString":"RA BR","presTend":2.2,"maxT":25.6,"minT":15,"precip":0.16,"pcp6hr":0.22,"metarType":"METAR","rawOb":"METAR KROC 182354Z COR 26012G18KT 4SM RA BR FEW048 BKN060 OVC075 15/14 A2972 RMK AO2 PK WND 26026/2301 SLP066 P0016 60022 T01500139 10256 20150 51022 $","lat":43.1172,"lon":-77.6754,"elev":166,"name":"Rochester Intl Arpt, NY, US","cover":"OVC","clouds":[{"cover":"FEW","base":4800},{"cover":"BKN","base":6000},{"cover":"OVC","base":7500}],"fltCat":"MVFR"},{"icaoId":"KBTV","receiptTime":"2026-04-19T00:02:16.277Z","obsTime":1776556440,"reportTime":"2026-04-19T00:00:00.000Z","temp":19.4,"dewp":6.1,"wdir":160,"wspd":12,"wgst":20,"visib":"10+","altim":1008.2,"slp":1007.9,"qcField":4,"presTend":-1.3,"maxT":24.4,"minT":19.4,"metarType":"METAR","rawOb":"METAR KBTV 182354Z 16012G20KT 10SM SCT070 OVC120 19/06 A2977 RMK AO2 SLP079 T01940061 10244 20194 58013","lat":44.4682,"lon":-73.1499,"elev":101,"name":"Burlington Intl, VT, US","cover":"OVC","clouds":[{"cover":"SCT","base":7000},{"cover":"OVC","base":12000}],"fltCat":"VFR"},{"icaoId":"KALO","receiptTime":"2026-04-19T00:01:50.100Z","obsTime":1776556440,"reportTime":"2026-04-19T00:00:00.000Z","temp":8.9,"dewp":-10,"wdir":300,"wspd":15,"visib":"10+","altim":1017.7,"slp":1018.2,"qcField":4,"presTend":0.6,"maxT":10,"minT":6.1,"metarType":"METAR","rawOb":"METAR KALO 182354Z 30015KT 10SM FEW090 09/M10 A3005 RMK AO2 SLP182 T00891100 10100 20061 53006","lat":42.5544,"lon":-92.4013,"elev":264,"name":"Waterloo Rgnl, IA, US","cover":"FEW","clouds":[{"cover":"FEW","base":9000}],"fltCat":"VFR"},{"icaoId":"KRIC","receiptTime":"2026-04-19T00:02:16.109Z","obsTime":1776556440,"reportTime":"2026-04-19T00:00:00.000Z","temp":24.4,"dewp":16.7,"wdir":120,"wspd":7,"visib":"10+","altim":1010.2,"slp":1010.5,"qcField":12,"presTend":-0.1,"maxT":32.2,"minT":24.4,"metarType":"METAR","rawOb":"METAR KRIC 182354Z 12007KT 10SM FEW080 BKN250 24/17 A2983 RMK AO2 SLP105 T02440167 10322 20244 55001 $","lat":37.5115,"lon":-77.3234,"elev":51,"name":"Richmond Intl, VA, US","cover":"BKN","clouds":[{"cover":"FEW","base":8000},{"cover":"BKN","base":25000}],"fltCat":"VFR"},{"icaoId":"KMOT","receiptTime":"2026-04-19T00:02:15.328Z","obsTime":1776556440,"reportTime":"2026-04-19T00:00:00.000Z","temp":6.1,"dewp":-8.3,"wdir":300,"wspd":21,"wgst":29,"visib":"10+","altim":1015.7,"slp":1017.6,"qcField":12,"presTend":0.3,"maxT":8.3,"minT":5,"metarType":"METAR","rawOb":"METAR KMOT 182354Z 30021G29KT 10SM BKN060 BKN110 06/M08 A2999 RMK AO2 PK WND 29034/2309 SLP176 T00611083 10083 20050 53003 $","lat":48.252,"lon":-101.269,"elev":507,"name":"Minot Intl, ND, US","cover":"BKN","clouds":[{"cover":"BKN","base":6000},{"cover":"BKN","base":11000}],"fltCat":"VFR"},{"icaoId":"KIND","receiptTime":"2026-04-19T00:01:55.886Z","obsTime":1776556440,"reportTime":"2026-04-19T00:00:00.000Z","temp":10,"dewp":2.2,"wdir":290,"wspd":9,"visib":"10+","altim":1016.3,"slp":1016.2,"qcField":4,"presTend":0.7,"maxT":10.6,"minT":8.3,"metarType":"METAR","rawOb":"METAR KIND 182354Z 29009KT 10SM SCT044 BKN120 BKN250 10/02 A3001 RMK AO2 SLP162 T01000022 10106 20083 53007","lat":39.7252,"lon":-86.2816,"elev":242,"name":"Indianapolis Intl, IN, US","cover":"BKN","clouds":[{"cover":"SCT","base":4400},{"cover":"BKN","base":12000},{"cover":"BKN","base":25000}],"fltCat":"VFR"},{"icaoId":"KGCK","receiptTime":"2026-04-19T00:01:55.541Z","obsTime":1776556440,"reportTime":"2026-04-19T00:00:00.000Z","temp":16.1,"dewp":-15,"wdir":310,"wspd":8,"visib":"10+","altim":1022.4,"slp":1022.5,"qcField":4,"presTend":-0.3,"maxT":17.2,"minT":13.9,"metarType":"METAR","rawOb":"METAR KGCK 182354Z 31008KT 10SM CLR 16/M15 A3019 RMK AO2 SLP225 T01611150 10172 20139 55003","lat":37.9221,"lon":-100.723,"elev":877,"name":"Garden City Rgnl, KS, US","cover":"CLR","clouds":[],"fltCat":"VFR"},{"icaoId":"KBUF","receiptTime":"2026-04-19T00:02:16.292Z","obsTime":1776556440,"reportTime":"2026-04-19T00:00:00.000Z","temp":11.7,"dewp":11.1,"wdir":240,"wspd":13,"wgst":22,"visib":5,"altim":1007.2,"slp":1007,"qcField":12,"wxString":"-RA BR","presTend":0.9,"maxT":26.1,"minT":11.7,"precip":0.13,"pcp6hr":0.72,"metarType":"METAR","rawOb":"METAR KBUF 182354Z 24013G22KT 5SM -RA BR OVC004 12/11 A2974 RMK AO2 PK WND 23027/2329 SLP070 P0013 60072 T01170111 10261 20117 53009 $","lat":42.94,"lon":-78.7361,"elev":217,"name":"Buffalo-Niagara Intl, NY, US","cover":"OVC","clouds":[{"cover":"OVC","base":400}],"fltCat":"LIFR"},{"icaoId":"KGSO","receiptTime":"2026-04-19T00:01:55.629Z","obsTime":1776556440,"reportTime":"2026-04-19T00:00:00.000Z","temp":26.7,"dewp":10,"wdir":220,"wspd":5,"visib":"10+","altim":1010.9,"slp":1009.9,"qcField":4,"presTend":-0.7,"maxT":31.1,"minT":26.7,"metarType":"METAR","rawOb":"METAR KGSO 182354Z 22005KT 10SM FEW085 SCT170 OVC250 27/10 A2985 RMK AO2 SLP099 T02670100 10311 20267 56007","lat":36.0969,"lon":-79.9432,"elev":275,"name":"Greensboro Intl, NC, US","cover":"OVC","clouds":[{"cover":"FEW","base":8500},{"cover":"SCT","base":17000},{"cover":"OVC","base":25000}],"fltCat":"VFR"},{"icaoId":"KSUS","receiptTime":"2026-04-19T00:01:56.623Z","obsTime":1776556440,"reportTime":"2026-04-19T00:00:00.000Z","temp":13.3,"dewp":-2.8,"wdir":330,"wspd":10,"wgst":17,"visib":"10+","altim":1019.7,"slp":1019.6,"qcField":12,"presTend":0.5,"maxT":15,"minT":11.7,"metarType":"METAR","rawOb":"METAR KSUS 182354Z 33010G17KT 10SM CLR 13/M03 A3011 RMK AO2 SLP196 T01331028 10150 20117 53005 $","lat":38.6575,"lon":-90.6557,"elev":140,"name":"St Louis/Spirit of St Louis Arpt, MO, US","cover":"CLR","clouds":[],"fltCat":"VFR"},{"icaoId":"KBFL","receiptTime":"2026-04-19T00:01:50.250Z","obsTime":1776556440,"reportTime":"2026-04-19T00:00:00.000Z","temp":28.3,"dewp":0,"wdir":310,"wspd":11,"visib":"10+","altim":1011.3,"slp":1010.5,"qcField":12,"presTend":-2.5,"maxT":29.4,"minT":20.6,"metarType":"METAR","rawOb":"METAR KBFL 182354Z 31011KT 10SM CLR 28/00 A2986 RMK AO2 SLP105 T02830000 10294 20206 56025 $","lat":35.4342,"lon":-119.0552,"elev":146,"name":"Bakersfield/Meadows Arpt, CA, US","cover":"CLR","clouds":[],"fltCat":"VFR"},{"icaoId":"KMEM","receiptTime":"2026-04-19T00:01:49.285Z","obsTime":1776556440,"reportTime":"2026-04-19T00:00:00.000Z","temp":10,"dewp":8.3,"wdir":10,"wspd":6,"visib":7,"altim":1020.1,"slp":1019.8,"qcField":12,"wxString":"-RA","presTend":2.1,"maxT":21.7,"minT":10,"precip":0.005,"pcp6hr":0.06,"metarType":"METAR","rawOb":"METAR KMEM 182354Z 01006KT 7SM -RA BKN017 OVC037 10/08 A3012 RMK AO2 RAB35 SLP198 P0000 60006 T01000083 10217 20100 53021 $","lat":35.0564,"lon":-89.9864,"elev":78,"name":"Memphis Intl, TN, US","cover":"OVC","clouds":[{"cover":"BKN","base":1700},{"cover":"OVC","base":3700}],"fltCat":"MVFR"},{"icaoId":"KSLC","receiptTime":"2026-04-19T00:01:56.541Z","obsTime":1776556440,"reportTime":"2026-04-19T00:00:00.000Z","temp":14.4,"dewp":-7.2,"wdir":350,"wspd":7,"visib":"10+","altim":1021.4,"slp":1020.1,"qcField":4,"presTend":-2.4,"maxT":15,"minT":10,"metarType":"METAR","rawOb":"METAR KSLC 182354Z 35007KT 10SM FEW003 FEW140 SCT170 BKN260 14/M07 A3016 RMK AO2 SLP201 FU FEW003 FU W T01441072 10150 20100 56024","lat":40.7707,"lon":-111.965,"elev":1286,"name":"Salt Lake City Intl, UT, US","cover":"BKN","clouds":[{"cover":"FEW","base":300},{"cover":"FEW","base":14000},{"cover":"SCT","base":17000},{"cover":"BKN","base":26000}],"fltCat":"VFR"},{"icaoId":"KSJN","receiptTime":"2026-04-19T00:01:56.528Z","obsTime":1776556440,"reportTime":"2026-04-19T00:00:00.000Z","temp":20.6,"dewp":-18.9,"wdir":360,"wspd":5,"visib":"10+","altim":1018.7,"slp":1014.1,"qcField":6,"presTend":-1.9,"maxT":21.1,"minT":13.9,"metarType":"METAR","rawOb":"METAR KSJN 182354Z AUTO 36005KT 10SM CLR 21/M19 A3008 RMK AO2 SLP141 T02061189 10211 20139 56019","lat":34.5184,"lon":-109.3801,"elev":1747,"name":"St Johns Ind Arpt, AZ, US","cover":"CLR","clouds":[],"fltCat":"VFR"},{"icaoId":"KLAW","receiptTime":"2026-04-19T00:02:03.799Z","obsTime":1776556380,"reportTime":"2026-04-19T00:00:00.000Z","temp":17.2,"dewp":-3.3,"wdir":30,"wspd":11,"visib":"10+","altim":1024.1,"slp":1024,"qcField":6,"presTend":0.1,"maxT":18.9,"minT":15.6,"metarType":"METAR","rawOb":"METAR KLAW 182353Z AUTO 03011KT 10SM CLR 17/M03 A3024 RMK AO2 SLP240 T01721033 10189 20156 53001","lat":34.5577,"lon":-98.4172,"elev":328,"name":"Lawton-Fort Sill Rgnl, OK, US","cover":"CLR","clouds":[],"fltCat":"VFR"},{"icaoId":"KDAL","receiptTime":"2026-04-19T00:01:48.554Z","obsTime":1776556380,"reportTime":"2026-04-19T00:00:00.000Z","temp":15.6,"dewp":3.9,"wdir":"VRB","wspd":5,"visib":"10+","altim":1023.1,"slp":1022.5,"qcField":4,"presTend":-0.4,"maxT":15.6,"minT":10.6,"pcp6hr":0.02,"metarType":"METAR","rawOb":"METAR KDAL 182353Z VRB05KT 10SM FEW100 FEW120 BKN250 16/04 A3021 RMK AO2 SLP225 60002 T01560039 10156 20106 55004","lat":32.8384,"lon":-96.8358,"elev":148,"name":"Dallas/Love Fld, TX, US","cover":"BKN","clouds":[{"cover":"FEW","base":10000},{"cover":"FEW","base":12000},{"cover":"BKN","base":25000}],"fltCat":"VFR"},{"icaoId":"KMAF","receiptTime":"2026-04-19T00:01:50.782Z","obsTime":1776556380,"reportTime":"2026-04-19T00:00:00.000Z","temp":19.4,"dewp":-9.4,"wdir":40,"wspd":13,"visib":"10+","altim":1023.1,"slp":1020.5,"qcField":12,"presTend":-0.2,"maxT":20,"minT":16.1,"metarType":"METAR","rawOb":"METAR KMAF 182353Z 04013KT 10SM CLR 19/M09 A3021 RMK AO2 PK WND 05027/2340 SLP205 T01941094 10200 20161 55002 $","lat":31.9475,"lon":-102.2086,"elev":874,"name":"Midland Intl, TX, US","cover":"CLR","clouds":[],"fltCat":"VFR"},{"icaoId":"KMLS","receiptTime":"2026-04-19T00:01:51.190Z","obsTime":1776556380,"reportTime":"2026-04-19T00:00:00.000Z","temp":12.2,"dewp":-6.1,"wdir":330,"wspd":15,"visib":"10+","altim":1017.4,"slp":1018.8,"qcField":6,"presTend":-0.9,"maxT":13.9,"minT":8.3,"metarType":"METAR","rawOb":"METAR KMLS 182353Z AUTO 33015KT 10SM OVC090 12/M06 A3004 RMK AO2 SLP188 T01221061 10139 20083 55009","lat":46.4265,"lon":-105.8834,"elev":800,"name":"Miles City/Wiley Fld, MT, US","cover":"OVC","clouds":[{"cover":"OVC","base":9000}],"fltCat":"VFR"},{"icaoId":"KMSY","receiptTime":"2026-04-19T00:01:51.850Z","obsTime":1776556380,"reportTime":"2026-04-19T00:00:00.000Z","temp":26.1,"dewp":20.6,"wdir":170,"wspd":7,"visib":"10+","altim":1014.3,"slp":1014.6,"qcField":4,"presTend":-0.4,"maxT":30,"minT":26.1,"metarType":"METAR","rawOb":"METAR KMSY 182353Z 17007KT 10SM FEW040 FEW090 BKN250 26/21 A2995 RMK AO2 SLP146 T02610206 10300 20261 55004","lat":29.9974,"lon":-90.2777,"elev":0,"name":"New Orleans/Armstrong Intl, LA, US","cover":"BKN","clouds":[{"cover":"FEW","base":4000},{"cover":"FEW","base":9000},{"cover":"BKN","base":25000}],"fltCat":"VFR"},{"icaoId":"KICR","receiptTime":"2026-04-19T00:01:53.022Z","obsTime":1776556380,"reportTime":"2026-04-19T00:00:00.000Z","temp":9.4,"dewp":-11.1,"wdir":330,"wspd":17,"wgst":24,"visib":"10+","altim":1020.1,"slp":1021.5,"qcField":6,"maxT":11.1,"minT":7.8,"metarType":"METAR","rawOb":"METAR KICR 182353Z AUTO 33017G24KT 10SM SCT100 09/M11 A3012 RMK AO2 PK WND 32029/2315 SLP215 T00941111 10111 20078 55000","lat":43.391,"lon":-99.8462,"elev":618,"name":"Winner/Wiley Fld, SD, US","cover":"SCT","clouds":[{"cover":"SCT","base":10000}],"fltCat":"VFR"},{"icaoId":"KBTM","receiptTime":"2026-04-19T00:01:55.021Z","obsTime":1776556380,"reportTime":"2026-04-19T00:00:00.000Z","temp":13.3,"dewp":-13.9,"wdir":160,"wspd":9,"visib":"10+","altim":1018.4,"slp":1019.1,"qcField":6,"presTend":-1.4,"maxT":13.9,"minT":5,"metarType":"METAR","rawOb":"METAR KBTM 182353Z AUTO 16009KT 10SM CLR 13/M14 A3007 RMK AO2 SLP191 T01331139 10139 20050 56014","lat":45.9644,"lon":-112.5015,"elev":1680,"name":"Butte/Mooney Arpt, MT, US","cover":"CLR","clouds":[],"fltCat":"VFR"},{"icaoId":"KAXN","receiptTime":"2026-04-19T00:01:55.276Z","obsTime":1776556380,"reportTime":"2026-04-19T00:00:00.000Z","temp":5,"dewp":-10,"wdir":290,"wspd":16,"wgst":29,"visib":"10+","altim":1015.3,"slp":1016.7,"qcField":6,"presTend":0.5,"maxT":6.7,"minT":2.8,"metarType":"METAR","rawOb":"METAR KAXN 182353Z AUTO 29016G29KT 10SM OVC080 05/M10 A2998 RMK AO2 PK WND 30029/2345 SLP167 T00501100 10067 20028 53005","lat":45.868,"lon":-95.394,"elev":433,"name":"Alexandria/Chandler Fld, MN, US","cover":"OVC","clouds":[{"cover":"OVC","base":8000}],"fltCat":"VFR"},{"icaoId":"KARA","receiptTime":"2026-04-19T00:01:57.493Z","obsTime":1776556380,"reportTime":"2026-04-19T00:00:00.000Z","temp":23.3,"dewp":21.1,"wdir":190,"wspd":5,"visib":"10+","altim":1015,"slp":1014.7,"qcField":4,"presTend":0.1,"maxT":30,"minT":22.8,"precip":0.09,"pcp6hr":0.09,"metarType":"METAR","rawOb":"METAR KARA 182353Z 19005KT 10SM SCT047 BKN060 OVC080 23/21 A2997 RMK AO2 RAB2257E34 SLP147 P0009 60009 T02330211 10300 20228 53001","lat":30.0292,"lon":-91.8845,"elev":5,"name":"New Iberia/Acadiana Rgnl, LA, US","cover":"OVC","clouds":[{"cover":"SCT","base":4700},{"cover":"BKN","base":6000},{"cover":"OVC","base":8000}],"fltCat":"VFR"},{"icaoId":"KLFT","receiptTime":"2026-04-19T00:02:03.934Z","obsTime":1776556380,"reportTime":"2026-04-19T00:00:00.000Z","temp":23.3,"dewp":21.1,"wdir":0,"wspd":0,"visib":"10+","altim":1015.3,"slp":1015,"qcField":4,"presTend":0.2,"maxT":30,"minT":23.3,"pcp6hr":0.05,"metarType":"METAR","rawOb":"METAR KLFT 182353Z 00000KT 10SM OVC075 23/21 A2998 RMK AO2 SLP150 60005 T02330211 10300 20233 53002","lat":30.1986,"lon":-91.9896,"elev":9,"name":"Lafayette Rgnl, LA, US","cover":"OVC","clouds":[{"cover":"OVC","base":7500}],"fltCat":"VFR"},{"icaoId":"KBFI","receiptTime":"2026-04-19T00:02:05.496Z","obsTime":1776556380,"reportTime":"2026-04-19T00:00:00.000Z","temp":20.6,"dewp":1.1,"wdir":"VRB","wspd":3,"visib":"10+","altim":1013.3,"slp":1013.3,"qcField":4,"presTend":-2.1,"maxT":21.1,"minT":13.9,"metarType":"METAR","rawOb":"METAR KBFI 182353Z VRB03KT 10SM CLR 21/01 A2992 RMK AO2 SLP133 T02060011 10211 20139 57021","lat":47.5455,"lon":-122.3148,"elev":7,"name":"Seattle/Boeing Fld, WA, US","cover":"CLR","clouds":[],"fltCat":"VFR"},{"icaoId":"KCLL","receiptTime":"2026-04-19T00:02:05.758Z","obsTime":1776556380,"reportTime":"2026-04-19T00:00:00.000Z","temp":13.3,"dewp":7.8,"wdir":360,"wspd":13,"wgst":25,"visib":"10+","altim":1020.1,"slp":1019.8,"qcField":4,"wxString":"-RA","presTend":1.6,"maxT":21.1,"minT":13.3,"precip":0.005,"pcp6hr":0.005,"metarType":"METAR","rawOb":"METAR KCLL 182353Z 36013G25KT 10SM -RA FEW032 OVC075 13/08 A3012 RMK AO2 PK WND 01028/2317 PRESRR SLP198 P0000 60000 T01330078 10211 20133 53016","lat":30.5912,"lon":-96.3631,"elev":96,"name":"College Station/Easterwood Arpt, TX, US","cover":"OVC","clouds":[{"cover":"FEW","base":3200},{"cover":"OVC","base":7500}],"fltCat":"VFR"},{"icaoId":"KHOU","receiptTime":"2026-04-19T00:06:06.506Z","obsTime":1776556380,"reportTime":"2026-04-19T00:00:00.000Z","temp":20,"dewp":18.9,"wdir":330,"wspd":11,"visib":"10+","altim":1016.7,"slp":1017.1,"qcField":13,"wxString":"-RA","presTend":2.3,"maxT":29.4,"minT":20,"precip":0.12,"pcp6hr":1.7,"metarType":"METAR","rawOb":"METAR KHOU 182353Z COR 33011KT 10SM -RA BKN007 OVC020 20/19 A3002 RMK AO2 SLP171 CB DSNT W AND NE MOV E P0012 60170 T02000189 10294 20200 53023 $","lat":29.6458,"lon":-95.2821,"elev":13,"name":"Houston/Hobby Arpt, TX, US","cover":"OVC","clouds":[{"cover":"BKN","base":700},{"cover":"OVC","base":2000}],"fltCat":"IFR"},{"icaoId":"KBTR","receiptTime":"2026-04-19T00:01:55.036Z","obsTime":1776556380,"reportTime":"2026-04-19T00:00:00.000Z","temp":25.6,"dewp":20,"wdir":20,"wspd":3,"visib":"10+","altim":1014.6,"slp":1014.3,"qcField":12,"presTend":-0.5,"maxT":28.9,"minT":25.6,"pcp6hr":0.005,"metarType":"METAR","rawOb":"METAR KBTR 182353Z 02003KT 10SM SCT110 26/20 A2996 RMK AO2 SLP143 60000 T02560200 10289 20256 55005 $","lat":30.5378,"lon":-91.1468,"elev":20,"name":"Baton Rouge/Ryan Fld, LA, US","cover":"SCT","clouds":[{"cover":"SCT","base":11000}],"fltCat":"VFR"},{"icaoId":"KJBR","receiptTime":"2026-04-19T00:01:53.156Z","obsTime":1776556380,"reportTime":"2026-04-19T00:00:00.000Z","temp":13.3,"dewp":6.1,"wdir":0,"wspd":0,"visib":"10+","altim":1020.7,"slp":1020.3,"qcField":14,"presTend":0.8,"maxT":13.3,"minT":11.1,"pcp6hr":0.005,"metarType":"METAR","rawOb":"METAR KJBR 182353Z AUTO 00000KT 10SM OVC070 13/06 A3014 RMK AO2 SLP203 60000 T01330061 10133 20111 53008 $","lat":35.8357,"lon":-90.6442,"elev":79,"name":"Jonesboro Muni, AR, US","cover":"OVC","clouds":[{"cover":"OVC","base":7000}],"fltCat":"VFR"},{"icaoId":"KDBQ","receiptTime":"2026-04-19T00:01:48.583Z","obsTime":1776556380,"reportTime":"2026-04-19T00:00:00.000Z","temp":7.2,"dewp":-6.1,"wdir":300,"wspd":21,"wgst":29,"visib":"10+","altim":1017,"slp":1017.9,"qcField":4,"presTend":0.7,"maxT":7.8,"minT":5,"metarType":"METAR","rawOb":"METAR KDBQ 182353Z 30021G29KT 10SM CLR 07/M06 A3003 RMK AO2 PK WND 29034/2323 SLP179 T00721061 10078 20050 53007","lat":42.3984,"lon":-90.7091,"elev":317,"name":"Dubuque Rgnl, IA, US","cover":"CLR","clouds":[],"fltCat":"VFR"},{"icaoId":"KFOE","receiptTime":"2026-04-19T00:01:50.546Z","obsTime":1776556380,"reportTime":"2026-04-19T00:00:00.000Z","temp":13.3,"dewp":-2.2,"wdir":320,"wspd":15,"wgst":29,"visib":"10+","altim":1022.1,"slp":1022.2,"qcField":12,"wxString":"-RA","presTend":-0.3,"maxT":15.6,"minT":11.7,"precip":0.005,"pcp6hr":0.005,"metarType":"METAR","rawOb":"METAR KFOE 182353Z 32015G29KT 10SM -RA FEW029 FEW070 BKN095 13/M02 A3018 RMK AO2 PK WND 29029/2347 RAB50 SLP222 P0000 60000 T01331022 10156 20117 55003 $","lat":38.9414,"lon":-95.6513,"elev":315,"name":"Topeka/Forbes Fld, KS, US","cover":"BKN","clouds":[{"cover":"FEW","base":2900},{"cover":"FEW","base":7000},{"cover":"BKN","base":9500}],"fltCat":"VFR"},{"icaoId":"KMCW","receiptTime":"2026-04-19T00:01:50.898Z","obsTime":1776556380,"reportTime":"2026-04-19T00:00:00.000Z","temp":8.3,"dewp":-11.7,"wdir":300,"wspd":18,"wgst":25,"visib":"10+","altim":1017,"slp":1017.4,"qcField":6,"presTend":0.3,"maxT":8.9,"minT":5,"metarType":"METAR","rawOb":"METAR KMCW 182353Z AUTO 30018G25KT 10SM SCT090 08/M12 A3003 RMK AO2 PK WND 29031/2331 SLP174 T00831117 10089 20050 53003","lat":43.1543,"lon":-93.3262,"elev":363,"name":"Mason City Muni, IA, US","cover":"SCT","clouds":[{"cover":"SCT","base":9000}],"fltCat":"VFR"},{"icaoId":"KMOD","receiptTime":"2026-04-19T00:01:51.277Z","obsTime":1776556380,"reportTime":"2026-04-19T00:00:00.000Z","temp":25.6,"dewp":1.7,"wdir":230,"wspd":6,"visib":"10+","altim":1012.3,"slp":1012,"qcField":4,"presTend":-2.2,"maxT":26.7,"minT":20.6,"metarType":"METAR","rawOb":"METAR KMOD 182353Z 23006KT 10SM CLR 26/02 A2989 RMK AO2 SLP120 T02560017 10267 20206 58022","lat":37.6254,"lon":-120.9549,"elev":25,"name":"Modesto/Sham Fld, CA, US","cover":"CLR","clouds":[],"fltCat":"VFR"},{"icaoId":"KMTJ","receiptTime":"2026-04-19T00:01:51.879Z","obsTime":1776556380,"reportTime":"2026-04-19T00:00:00.000Z","temp":12.2,"dewp":-15.6,"wdir":350,"wspd":6,"visib":"10+","altim":1024.8,"slp":1023.2,"qcField":6,"presTend":-1.5,"maxT":12.8,"minT":7.2,"metarType":"METAR","rawOb":"METAR KMTJ 182353Z AUTO 35006KT 10SM CLR 12/M16 A3026 RMK AO2 SLP232 T01221156 10128 20072 56015","lat":38.5054,"lon":-107.8981,"elev":1755,"name":"Montrose Rgnl, CO, US","cover":"CLR","clouds":[],"fltCat":"VFR"},{"icaoId":"KNEW","receiptTime":"2026-04-19T00:01:51.968Z","obsTime":1776556380,"reportTime":"2026-04-19T00:00:00.000Z","temp":26.7,"dewp":18.9,"wdir":200,"wspd":3,"visib":"10+","altim":1015,"slp":1014,"qcField":4,"presTend":-0.5,"maxT":28.9,"minT":26.7,"metarType":"METAR","rawOb":"METAR KNEW 182353Z 20003KT 10SM CLR 27/19 A2997 RMK AO1 SLP140 T02670189 10289 20267 55005","lat":30.0494,"lon":-90.029,"elev":1,"name":"New Orleans/Lakefront Arpt, LA, US","cover":"CLR","clouds":[],"fltCat":"VFR"},{"icaoId":"KSTC","receiptTime":"2026-04-19T00:01:52.386Z","obsTime":1776556380,"reportTime":"2026-04-19T00:00:00.000Z","temp":6.1,"dewp":-11.7,"wdir":300,"wspd":17,"wgst":23,"visib":"10+","altim":1014.6,"slp":1016.5,"qcField":4,"presTend":0.6,"maxT":7.2,"minT":3.3,"metarType":"METAR","rawOb":"METAR KSTC 182353Z 30017G23KT 10SM BKN075 06/M12 A2996 RMK AO2 PK WND 29029/2318 SLP165 T00611117 10072 20033 53006","lat":45.5442,"lon":-94.0516,"elev":302,"name":"St Cloud Rgnl, MN, US","cover":"BKN","clouds":[{"cover":"BKN","base":7500}],"fltCat":"VFR"},{"icaoId":"KSTS","receiptTime":"2026-04-19T00:01:52.428Z","obsTime":1776556380,"reportTime":"2026-04-19T00:00:00.000Z","temp":23.3,"dewp":0.6,"wdir":220,"wspd":5,"visib":"10+","altim":1013,"slp":1012.3,"qcField":4,"presTend":-1.8,"maxT":24.4,"minT":17.8,"metarType":"METAR","rawOb":"METAR KSTS 182353Z 22005KT 10SM CLR 23/01 A2991 RMK AO2 SLP123 T02330006 10244 20178 56018","lat":38.5037,"lon":-122.811,"elev":35,"name":"Santa Rosa/Schulz Arpt, CA, US","cover":"CLR","clouds":[],"fltCat":"VFR"},{"icaoId":"KHOT","receiptTime":"2026-04-19T00:01:52.777Z","obsTime":1776556380,"reportTime":"2026-04-19T00:00:00.000Z","temp":14.4,"dewp":6.1,"wdir":0,"wspd":0,"visib":"10+","altim":1021.8,"slp":1021.3,"qcField":6,"presTend":1.8,"maxT":15,"minT":11.7,"pcp6hr":0.005,"metarType":"METAR","rawOb":"METAR KHOT 182353Z AUTO 00000KT 10SM CLR 14/06 A3017 RMK AO2 SLP213 60000 T01440061 10150 20117 53018","lat":34.4755,"lon":-93.1041,"elev":153,"name":"Hot Springs Mem, AR, US","cover":"CLR","clouds":[],"fltCat":"VFR"},{"icaoId":"KIDA","receiptTime":"2026-04-19T00:01:53.050Z","obsTime":1776556380,"reportTime":"2026-04-19T00:00:00.000Z","temp":11.7,"dewp":-8.3,"wdir":0,"wspd":0,"visib":"10+","altim":1022.1,"slp":1023,"qcField":4,"presTend":-2.1,"maxT":11.7,"minT":6.7,"metarType":"METAR","rawOb":"METAR KIDA 182353Z 00000KT 10SM CLR 12/M08 A3018 RMK AO2 SLP230 T01171083 10117 20067 56021","lat":43.5204,"lon":-112.0675,"elev":1444,"name":"Idaho Falls Rgnl, ID, US","cover":"CLR","clouds":[],"fltCat":"VFR"},{"icaoId":"KJLN","receiptTime":"2026-04-19T00:01:53.204Z","obsTime":1776556380,"reportTime":"2026-04-19T00:00:00.000Z","temp":13.9,"dewp":-0.6,"wdir":310,"wspd":9,"visib":"10+","altim":1023.8,"slp":1023.6,"qcField":4,"presTend":0.3,"maxT":15,"minT":12.2,"metarType":"METAR","rawOb":"METAR KJLN 182353Z 31009KT 10SM CLR 14/M01 A3023 RMK AO2 SLP236 T01391006 10150 20122 53003","lat":37.1522,"lon":-94.4952,"elev":297,"name":"Joplin Rgnl, MO, US","cover":"CLR","clouds":[],"fltCat":"VFR"},{"icaoId":"KGSP","receiptTime":"2026-04-19T00:01:53.412Z","obsTime":1776556380,"reportTime":"2026-04-19T00:00:00.000Z","temp":26.1,"dewp":13.3,"wdir":210,"wspd":9,"visib":"10+","altim":1012.6,"slp":1011.4,"qcField":4,"presTend":-0.5,"maxT":30.6,"minT":26.1,"metarType":"METAR","rawOb":"METAR KGSP 182353Z 21009KT 10SM CLR 26/13 A2990 RMK AO2 SLP114 T02610133 10306 20261 58005","lat":34.8842,"lon":-82.2209,"elev":285,"name":"Greenville-Spartanburg Intl, SC, US","cover":"CLR","clouds":[],"fltCat":"VFR"},{"icaoId":"KGTF","receiptTime":"2026-04-19T00:01:53.425Z","obsTime":1776556380,"reportTime":"2026-04-19T00:00:00.000Z","temp":15.6,"dewp":-6.1,"wdir":210,"wspd":10,"wgst":18,"visib":"10+","altim":1016.3,"slp":1018.2,"qcField":12,"presTend":-1.6,"maxT":16.1,"minT":9.4,"metarType":"METAR","rawOb":"METAR KGTF 182353Z 21010G18KT 10SM CLR 16/M06 A3001 RMK AO2 SLP182 T01561061 10161 20094 56016 $","lat":47.4733,"lon":-111.3828,"elev":1117,"name":"Great Falls Intl, MT, US","cover":"CLR","clouds":[],"fltCat":"VFR"},{"icaoId":"KBNA","receiptTime":"2026-04-19T00:01:54.870Z","obsTime":1776556380,"reportTime":"2026-04-19T00:00:00.000Z","temp":11.1,"dewp":7.2,"wdir":340,"wspd":13,"wgst":19,"visib":"10+","altim":1018,"slp":1017.5,"qcField":12,"presTend":3,"maxT":21.7,"minT":11.1,"precip":0.005,"pcp6hr":0.01,"metarType":"METAR","rawOb":"METAR KBNA 182353Z 34013G19KT 10SM BKN013 OVC020 11/07 A3006 RMK AO2 PK WND 36026/2306 RAB18E31 SLP175 P0000 60001 T01110072 10217 20111 53030 $","lat":36.1105,"lon":-86.6881,"elev":168,"name":"Nashville Intl, TN, US","cover":"OVC","clouds":[{"cover":"BKN","base":1300},{"cover":"OVC","base":2000}],"fltCat":"MVFR"},{"icaoId":"KBUR","receiptTime":"2026-04-19T00:01:55.049Z","obsTime":1776556380,"reportTime":"2026-04-19T00:00:00.000Z","temp":27.2,"dewp":0,"wdir":200,"wspd":8,"visib":"10+","altim":1012.3,"slp":1011,"qcField":4,"presTend":-1.8,"maxT":27.8,"minT":22.8,"metarType":"METAR","rawOb":"METAR KBUR 182353Z 20008KT 10SM CLR 27/00 A2989 RMK AO2 SLP110 T02720000 10278 20228 56018","lat":34.1996,"lon":-118.3654,"elev":221,"name":"Burbank/Bob Hope Arpt, CA, US","cover":"CLR","clouds":[],"fltCat":"VFR"},{"icaoId":"KAEX","receiptTime":"2026-04-19T00:01:57.264Z","obsTime":1776556380,"reportTime":"2026-04-19T00:00:00.000Z","temp":22.8,"dewp":21.1,"wdir":260,"wspd":3,"visib":7,"altim":1016,"slp":1016.1,"qcField":4,"presTend":1.5,"maxT":28.9,"minT":21.7,"precip":0.01,"pcp6hr":0.07,"metarType":"METAR","rawOb":"METAR KAEX 182353Z 26003KT 7SM OVC095 23/21 A3000 RMK AO2 LTG DSNT SE AND S RAB21E44 TSB23E38 SLP161 P0001 60007 T02280211 10289 20217 53015","lat":31.3346,"lon":-92.5585,"elev":25,"name":"Alexandria Intl, LA, US","cover":"OVC","clouds":[{"cover":"OVC","base":9500}],"fltCat":"VFR"},{"icaoId":"KLBF","receiptTime":"2026-04-19T00:02:03.842Z","obsTime":1776556380,"reportTime":"2026-04-19T00:00:00.000Z","temp":12.8,"dewp":-7.8,"wdir":330,"wspd":13,"wgst":23,"visib":"10+","altim":1021.1,"slp":1022.7,"qcField":6,"maxT":14.4,"minT":10.6,"pcp6hr":0.005,"metarType":"METAR","rawOb":"METAR KLBF 182353Z AUTO 33013G23KT 10SM CLR 13/M08 A3015 RMK AO2 PK WND 28029/2300 SLP227 60000 T01281078 10144 20106 55000","lat":41.122,"lon":-100.6689,"elev":843,"name":"N Platte/Lee Bird Fld, NE, US","cover":"CLR","clouds":[],"fltCat":"VFR"},{"icaoId":"KLCH","receiptTime":"2026-04-19T00:02:03.888Z","obsTime":1776556380,"reportTime":"2026-04-19T00:00:00.000Z","temp":22.8,"dewp":21.7,"wdir":180,"wspd":3,"visib":4,"altim":1015.7,"slp":1016.4,"qcField":4,"wxString":"BR","presTend":0.4,"maxT":28.3,"minT":22.2,"pcp6hr":0.27,"metarType":"METAR","rawOb":"METAR KLCH 182353Z 18003KT 4SM BR FEW055 OVC090 23/22 A2999 RMK AO2 SLP164 60027 T02280217 10283 20222 53004","lat":30.1255,"lon":-93.2277,"elev":2,"name":"Lake Charles Rgnl, LA, US","cover":"OVC","clouds":[{"cover":"FEW","base":5500},{"cover":"OVC","base":9000}],"fltCat":"MVFR"},{"icaoId":"KBIL","receiptTime":"2026-04-19T00:02:05.571Z","obsTime":1776556380,"reportTime":"2026-04-19T00:00:00.000Z","temp":15,"dewp":-7.8,"wdir":290,"wspd":15,"wgst":20,"visib":"10+","altim":1018,"slp":1018.7,"qcField":4,"presTend":-0.7,"maxT":15.6,"minT":8.9,"metarType":"METAR","rawOb":"METAR KBIL 182353Z 29015G20KT 10SM FEW080 SCT200 15/M08 A3006 RMK AO2 SLP187 T01501078 10156 20089 55007","lat":45.8072,"lon":-108.5462,"elev":1089,"name":"Billings/Logan Intl, MT, US","cover":"SCT","clouds":[{"cover":"FEW","base":8000},{"cover":"SCT","base":20000}],"fltCat":"VFR"},{"icaoId":"KCDC","receiptTime":"2026-04-19T00:02:05.615Z","obsTime":1776556380,"reportTime":"2026-04-19T00:00:00.000Z","temp":17.2,"dewp":-13.9,"wdir":230,"wspd":13,"visib":"10+","altim":1019.4,"slp":1017.2,"qcField":6,"presTend":-2.2,"maxT":18.3,"minT":9.4,"metarType":"METAR","rawOb":"METAR KCDC 182353Z AUTO 23013KT 10SM CLR 17/M14 A3010 RMK AO2 SLP172 T01721139 10183 20094 56022","lat":37.7067,"lon":-113.097,"elev":1703,"name":"Cedar City Muni, UT, US","cover":"CLR","clouds":[],"fltCat":"VFR"},{"icaoId":"KCNM","receiptTime":"2026-04-19T00:02:05.817Z","obsTime":1776556380,"reportTime":"2026-04-19T00:00:00.000Z","temp":20.6,"dewp":-7.8,"wdir":80,"wspd":9,"visib":"10+","altim":1022.8,"slp":1019.7,"qcField":6,"presTend":-1.2,"maxT":21.1,"minT":13.9,"metarType":"METAR","rawOb":"METAR KCNM 182353Z AUTO 08009KT 10SM CLR 21/M08 A3020 RMK AO2 SLP197 T02061078 10211 20139 56012","lat":32.3336,"lon":-104.2584,"elev":993,"name":"Carlsbad/Cavern City Air Term, NM, US","cover":"CLR","clouds":[],"fltCat":"VFR"},{"icaoId":"KPBF","receiptTime":"2026-04-19T00:02:06.647Z","obsTime":1776556380,"reportTime":"2026-04-19T00:00:00.000Z","temp":11.7,"dewp":7.8,"wdir":360,"wspd":6,"visib":"10+","altim":1021.4,"slp":1021.1,"qcField":6,"presTend":2.8,"maxT":15,"minT":11.7,"pcp6hr":0.14,"metarType":"METAR","rawOb":"METAR KPBF 182353Z AUTO 36006KT 10SM OVC043 12/08 A3016 RMK AO2 SLP211 60014 T01170078 10150 20117 51028","lat":34.1798,"lon":-91.9344,"elev":63,"name":"Pine Bluff/Grider Fld, AR, US","cover":"OVC","clouds":[{"cover":"OVC","base":4300}],"fltCat":"VFR"},{"icaoId":"KPBI","receiptTime":"2026-04-19T00:02:06.674Z","obsTime":1776556380,"reportTime":"2026-04-19T00:00:00.000Z","temp":26.1,"dewp":20.6,"wdir":90,"wspd":10,"visib":"10+","altim":1015.3,"slp":1015.2,"qcField":12,"presTend":0.1,"maxT":29.4,"minT":26.1,"metarType":"METAR","rawOb":"METAR KPBI 182353Z 09010KT 10SM SCT028 26/21 A2998 RMK AO2 SLP152 T02610206 10294 20261 53001 $","lat":26.6851,"lon":-80.0992,"elev":4,"name":"Palm Beach Intl, FL, US","cover":"SCT","clouds":[{"cover":"SCT","base":2800}],"fltCat":"VFR"},{"icaoId":"KSBA","receiptTime":"2026-04-19T00:02:10.696Z","obsTime":1776556380,"reportTime":"2026-04-19T00:00:00.000Z","temp":21.7,"dewp":8.3,"wdir":260,"wspd":8,"visib":"10+","altim":1013,"slp":1012.7,"qcField":12,"presTend":-1.8,"maxT":22.8,"minT":18.9,"metarType":"METAR","rawOb":"METAR KSBA 182353Z 26008KT 10SM CLR 22/08 A2991 RMK AO2 SLP127 T02170083 10228 20189 58018 $","lat":34.4241,"lon":-119.8425,"elev":2,"name":"Santa Barbara Muni, CA, US","cover":"CLR","clouds":[],"fltCat":"VFR"},{"icaoId":"KXNA","receiptTime":"2026-04-19T00:02:13.509Z","obsTime":1776556380,"reportTime":"2026-04-19T00:00:00.000Z","temp":13.9,"dewp":-1.1,"wdir":350,"wspd":9,"wgst":16,"visib":"10+","altim":1023.5,"slp":1023.2,"qcField":4,"presTend":0.8,"maxT":15.6,"minT":12.2,"metarType":"METAR","rawOb":"METAR KXNA 182353Z 35009G16KT 10SM CLR 14/M01 A3022 RMK AO2 SLP232 T01391011 10156 20122 53008","lat":36.2897,"lon":-94.3115,"elev":390,"name":"Fayetteville/NW Arkansas Rgnl, AR, US","cover":"CLR","clouds":[],"fltCat":"VFR"},{"icaoId":"KMDW","receiptTime":"2026-04-19T00:01:50.918Z","obsTime":1776556380,"reportTime":"2026-04-19T00:00:00.000Z","temp":8.3,"dewp":-3.9,"wdir":280,"wspd":20,"wgst":31,"visib":"10+","altim":1015.7,"slp":1015.9,"qcField":4,"presTend":2.1,"maxT":10.6,"minT":8.3,"metarType":"METAR","rawOb":"METAR KMDW 182353Z 28020G31KT 10SM FEW050 FEW250 08/M04 A2999 RMK AO2 PK WND 30037/2323 SLP159 T00831039 10106 20083 51021","lat":41.7841,"lon":-87.7552,"elev":186,"name":"Chicago/Midway Intl, IL, US","cover":"FEW","clouds":[{"cover":"FEW","base":5000},{"cover":"FEW","base":25000}],"fltCat":"VFR"},{"icaoId":"KMFR","receiptTime":"2026-04-19T00:01:50.952Z","obsTime":1776556380,"reportTime":"2026-04-19T00:00:00.000Z","temp":24.4,"dewp":0,"wdir":320,"wspd":9,"visib":"10+","altim":1010.9,"slp":1010.5,"qcField":4,"presTend":-2.7,"maxT":25,"minT":11.7,"metarType":"METAR","rawOb":"METAR KMFR 182353Z 32009KT 10SM CLR 24/00 A2985 RMK AO2 SLP105 T02440000 10250 20117 56027","lat":42.375,"lon":-122.877,"elev":397,"name":"Medford/Rogue Valley Intl, OR, US","cover":"CLR","clouds":[],"fltCat":"VFR"},{"icaoId":"KMLC","receiptTime":"2026-04-19T00:01:51.147Z","obsTime":1776556380,"reportTime":"2026-04-19T00:00:00.000Z","temp":16.1,"dewp":0,"wdir":20,"wspd":11,"wgst":18,"visib":"10+","altim":1023.8,"slp":1023.3,"qcField":6,"presTend":0.9,"maxT":17.8,"minT":13.9,"pcp6hr":0.005,"metarType":"METAR","rawOb":"METAR KMLC 182353Z AUTO 02011G18KT 10SM CLR 16/00 A3023 RMK AO2 SLP233 60000 T01610000 10178 20139 53009","lat":34.8824,"lon":-95.7815,"elev":231,"name":"McAlester Rgnl, OK, US","cover":"CLR","clouds":[],"fltCat":"VFR"},{"icaoId":"KLAX","receiptTime":"2026-04-19T00:02:03.813Z","obsTime":1776556380,"reportTime":"2026-04-19T00:00:00.000Z","temp":21.1,"dewp":12.2,"wdir":260,"wspd":16,"visib":"10+","altim":1012.6,"slp":1012.4,"qcField":12,"presTend":-1.5,"maxT":24.4,"minT":21.1,"metarType":"METAR","rawOb":"METAR KLAX 182353Z 26016KT 10SM SCT250 21/12 A2990 RMK AO2 SLP124 T02110122 10244 20211 56015 $","lat":33.9382,"lon":-118.3866,"elev":30,"name":"Los Angeles Intl, CA, US","cover":"SCT","clouds":[{"cover":"SCT","base":25000}],"fltCat":"VFR"},{"icaoId":"KLBB","receiptTime":"2026-04-19T00:02:03.827Z","obsTime":1776556380,"reportTime":"2026-04-19T00:00:00.000Z","temp":17.2,"dewp":-12.2,"wdir":60,"wspd":8,"visib":"10+","altim":1024.1,"slp":1022.3,"qcField":4,"presTend":-0.3,"maxT":18.3,"minT":14.4,"metarType":"METAR","rawOb":"METAR KLBB 182353Z 06008KT 10SM FEW110 FEW250 17/M12 A3024 RMK AO2 SLP223 T01721122 10183 20144 55003","lat":33.6658,"lon":-101.8233,"elev":996,"name":"Lubbock Intl Arpt, TX, US","cover":"FEW","clouds":[{"cover":"FEW","base":11000},{"cover":"FEW","base":25000}],"fltCat":"VFR"},{"icaoId":"KLGB","receiptTime":"2026-04-19T00:02:03.948Z","obsTime":1776556380,"reportTime":"2026-04-19T00:00:00.000Z","temp":26.7,"dewp":5,"wdir":190,"wspd":7,"visib":"10+","altim":1011.9,"slp":1011.6,"qcField":14,"presTend":-1.9,"maxT":27.2,"minT":21.7,"metarType":"METAR","rawOb":"METAR KLGB 182353Z AUTO 19007KT 10SM CLR 27/05 A2988 RMK AO2 SLP116 T02670050 10272 20217 56019 $","lat":33.8118,"lon":-118.1472,"elev":10,"name":"Long Beach Arpt, CA, US","cover":"CLR","clouds":[],"fltCat":"VFR"},{"icaoId":"KACV","receiptTime":"2026-04-19T00:01:57.232Z","obsTime":1776556380,"reportTime":"2026-04-19T00:00:00.000Z","temp":12.2,"dewp":9.4,"wdir":320,"wspd":4,"visib":"10+","altim":1014.6,"slp":1015.1,"qcField":6,"presTend":-1,"maxT":13.3,"minT":11.7,"metarType":"METAR","rawOb":"METAR KACV 182353Z AUTO 32004KT 10SM CLR 12/09 A2996 RMK AO2 SLP151 T01220094 10133 20117 58010","lat":40.9784,"lon":-124.1048,"elev":63,"name":"Arcata Arpt, CA, US","cover":"CLR","clouds":[],"fltCat":"VFR"},{"icaoId":"KSJC","receiptTime":"2026-04-19T00:02:10.880Z","obsTime":1776556380,"reportTime":"2026-04-19T00:00:00.000Z","temp":23.3,"dewp":3.9,"wdir":340,"wspd":11,"visib":"10+","altim":1012.6,"slp":1012.4,"qcField":4,"presTend":-1.6,"maxT":25,"minT":19.4,"metarType":"METAR","rawOb":"METAR KSJC 182353Z 34011KT 10SM BKN100 23/04 A2990 RMK AO2 SLP124 T02330039 10250 20194 58016","lat":37.3594,"lon":-121.9244,"elev":13,"name":"San Jose Intl Arpt, CA, US","cover":"BKN","clouds":[{"cover":"BKN","base":10000}],"fltCat":"VFR"},{"icaoId":"KBFF","receiptTime":"2026-04-19T00:02:05.481Z","obsTime":1776556380,"reportTime":"2026-04-19T00:00:00.000Z","temp":14.4,"dewp":-13.3,"wdir":290,"wspd":12,"wgst":22,"visib":"10+","altim":1019.7,"slp":1020.1,"qcField":6,"presTend":-0.9,"maxT":14.4,"minT":9.4,"precip":0.005,"pcp6hr":0.005,"metarType":"METAR","rawOb":"METAR KBFF 182353Z AUTO 29012G22KT 10SM CLR 14/M13 A3011 RMK AO2 RAB11E20 SLP201 P0000 60000 T01441133 10144 20094 56009","lat":41.8747,"lon":-103.6011,"elev":1204,"name":"Scottsbluff/Western Nebraska Rgnl, NE, US","cover":"CLR","clouds":[],"fltCat":"VFR"},{"icaoId":"KDEN","receiptTime":"2026-04-19T00:01:48.610Z","obsTime":1776556380,"reportTime":"2026-04-19T00:00:00.000Z","temp":12.8,"dewp":-12.8,"wdir":80,"wspd":7,"visib":"10+","altim":1021.8,"slp":1020.5,"qcField":12,"presTend":-0.6,"maxT":13.3,"minT":6.1,"metarType":"METAR","rawOb":"METAR KDEN 182353Z 08007KT 10SM BKN250 13/M13 A3017 RMK AO2 SLP205 T01281128 10133 20061 55006 $","lat":39.8466,"lon":-104.6562,"elev":1656,"name":"Denver Intl, CO, US","cover":"BKN","clouds":[{"cover":"BKN","base":25000}],"fltCat":"VFR"},{"icaoId":"KMYF","receiptTime":"2026-04-19T00:01:51.934Z","obsTime":1776556380,"reportTime":"2026-04-19T00:00:00.000Z","temp":21.7,"dewp":8.9,"wdir":220,"wspd":6,"visib":"10+","altim":1013.3,"slp":1012.8,"qcField":4,"presTend":-0.8,"maxT":24.4,"minT":21.7,"metarType":"METAR","rawOb":"METAR KMYF 182353Z 22006KT 10SM CLR 22/09 A2992 RMK AO2 SLP128 T02170089 10244 20217 56008","lat":32.8145,"lon":-117.1375,"elev":128,"name":"San Diego/Montgomery Arpt, CA, US","cover":"CLR","clouds":[],"fltCat":"VFR"},{"icaoId":"KCNY","receiptTime":"2026-04-19T00:01:48.339Z","obsTime":1776556380,"reportTime":"2026-04-19T00:00:00.000Z","temp":15,"dewp":-15,"wdir":80,"wspd":4,"visib":"10+","altim":1022.8,"slp":1021.7,"qcField":14,"presTend":-2,"maxT":15.6,"minT":9.4,"metarType":"METAR","rawOb":"METAR KCNY 182353Z AUTO 08004KT 10SM CLR 15/M15 A3020 RMK AO2 SLP217 T01501150 10156 20094 56020 $","lat":38.7501,"lon":-109.7627,"elev":1392,"name":"Moab/Canyonland Fld, UT, US","cover":"CLR","clouds":[],"fltCat":"VFR"},{"icaoId":"KAPA","receiptTime":"2026-04-19T00:01:57.462Z","obsTime":1776556380,"reportTime":"2026-04-19T00:00:00.000Z","temp":12.8,"dewp":-15,"wdir":230,"wspd":7,"visib":"10+","altim":1022.1,"slp":1022,"qcField":4,"presTend":-0.4,"maxT":13.3,"minT":5.6,"metarType":"METAR","rawOb":"METAR KAPA 182353Z 23007KT 10SM FEW070 BKN220 13/M15 A3018 RMK AO2 SLP220 T01281150 10133 20056 55004","lat":39.5599,"lon":-104.8484,"elev":1791,"name":"Denver/Centennial Arpt, CO, US","cover":"BKN","clouds":[{"cover":"FEW","base":7000},{"cover":"BKN","base":22000}],"fltCat":"VFR"},{"icaoId":"KBOI","receiptTime":"2026-04-19T00:01:54.899Z","obsTime":1776556380,"reportTime":"2026-04-19T00:00:00.000Z","temp":17.8,"dewp":-7.8,"wdir":120,"wspd":7,"visib":"10+","altim":1018,"slp":1017.5,"qcField":4,"presTend":-2.8,"maxT":17.8,"minT":12.2,"metarType":"METAR","rawOb":"METAR KBOI 182353Z 12007KT 090V150 10SM CLR 18/M08 A3006 RMK AO2 SLP175 T01781078 10178 20122 56028","lat":43.567,"lon":-116.2406,"elev":860,"name":"Boise Arpt, ID, US","cover":"CLR","clouds":[],"fltCat":"VFR"},{"icaoId":"KDMN","receiptTime":"2026-04-19T00:01:48.758Z","obsTime":1776556380,"reportTime":"2026-04-19T00:00:00.000Z","temp":24.4,"dewp":-5.6,"wdir":110,"wspd":11,"wgst":17,"visib":"10+","altim":1018.7,"slp":1012.6,"qcField":6,"presTend":-1.1,"maxT":26.1,"minT":20.6,"metarType":"METAR","rawOb":"METAR KDMN 182353Z AUTO 11011G17KT 10SM CLR 24/M06 A3008 RMK AO2 SLP126 T02441056 10261 20206 56011","lat":32.2592,"lon":-107.7206,"elev":1310,"name":"Deming Muni, NM, US","cover":"CLR","clouds":[],"fltCat":"VFR"},{"icaoId":"KMIA","receiptTime":"2026-04-19T00:01:54.678Z","obsTime":1776556380,"reportTime":"2026-04-19T00:00:00.000Z","temp":26.1,"dewp":20.6,"wdir":120,"wspd":8,"visib":"10+","altim":1014.6,"slp":1014.7,"qcField":0,"presTend":0.2,"maxT":30,"minT":26.1,"metarType":"METAR","rawOb":"METAR KMIA 182353Z 12008KT 10SM FEW023 SCT250 26/21 A2996 RMK SLP147 T02610206 10300 20261 53002","lat":25.7881,"lon":-80.3169,"elev":1,"name":"Miami Intl, FL, US","cover":"SCT","clouds":[{"cover":"FEW","base":2300},{"cover":"SCT","base":25000}],"fltCat":"VFR"},{"icaoId":"KGEG","receiptTime":"2026-04-19T00:01:54.054Z","obsTime":1776556380,"reportTime":"2026-04-19T00:00:00.000Z","temp":16.1,"dewp":-2.8,"wdir":240,"wspd":7,"visib":"10+","altim":1017.7,"slp":1017.9,"qcField":12,"presTend":-1.6,"maxT":16.1,"minT":10,"metarType":"METAR","rawOb":"METAR KGEG 182353Z 24007KT 10SM FEW070 FEW160 SCT260 16/M03 A3005 RMK AO2 SLP179 T01611028 10161 20100 56016 $","lat":47.6217,"lon":-117.528,"elev":718,"name":"Spokane Intl, WA, US","cover":"SCT","clouds":[{"cover":"FEW","base":7000},{"cover":"FEW","base":16000},{"cover":"SCT","base":26000}],"fltCat":"VFR"},{"icaoId":"KGFK","receiptTime":"2026-04-19T00:01:54.102Z","obsTime":1776556380,"reportTime":"2026-04-19T00:00:00.000Z","temp":5,"dewp":-5,"wdir":290,"wspd":13,"visib":"10+","altim":1014,"slp":1015.1,"qcField":12,"presTend":0.1,"maxT":5.6,"minT":3.3,"precip":0.005,"pcp6hr":0.005,"metarType":"METAR","rawOb":"METAR KGFK 182353Z 29013KT 10SM BKN055 BKN070 05/M05 A2994 RMK AO2 SNE29 SLP151 VIRGA E AND W VCSH P0000 60000 T00501050 10056 20033 53001 $","lat":47.9428,"lon":-97.1829,"elev":256,"name":"Grand Forks Intl, ND, US","cover":"BKN","clouds":[{"cover":"BKN","base":5500},{"cover":"BKN","base":7000}],"fltCat":"VFR"},{"icaoId":"KGJT","receiptTime":"2026-04-19T00:01:54.174Z","obsTime":1776556380,"reportTime":"2026-04-19T00:00:00.000Z","temp":13.3,"dewp":-10.6,"wdir":90,"wspd":3,"visib":"10+","altim":1023.8,"slp":1022.4,"qcField":4,"presTend":-2.1,"maxT":13.9,"minT":7.2,"metarType":"METAR","rawOb":"METAR KGJT 182353Z 09003KT 10SM CLR 13/M11 A3023 RMK AO2 SLP224 T01331106 10139 20072 56021","lat":39.1344,"lon":-108.5408,"elev":1475,"name":"Grand Junction Rgnl, CO, US","cover":"CLR","clouds":[],"fltCat":"VFR"},{"icaoId":"KFAR","receiptTime":"2026-04-19T00:01:50.318Z","obsTime":1776556380,"reportTime":"2026-04-19T00:00:00.000Z","temp":5.6,"dewp":-7.2,"wdir":300,"wspd":11,"visib":"10+","altim":1015,"slp":1016.1,"qcField":12,"maxT":7.2,"minT":4.4,"metarType":"METAR","rawOb":"METAR KFAR 182353Z 30011KT 10SM SCT060 BKN080 BKN095 06/M07 A2997 RMK AO2 SLP161 T00561072 10072 20044 53000 $","lat":46.9242,"lon":-96.8119,"elev":276,"name":"Fargo/Hector Intl, ND, US","cover":"BKN","clouds":[{"cover":"SCT","base":6000},{"cover":"BKN","base":8000},{"cover":"BKN","base":9500}],"fltCat":"VFR"},{"icaoId":"KFMN","receiptTime":"2026-04-19T00:01:50.486Z","obsTime":1776556380,"reportTime":"2026-04-19T00:00:00.000Z","temp":16.1,"dewp":-22.2,"wdir":340,"wspd":4,"visib":"10+","altim":1022.1,"slp":1020.9,"qcField":4,"presTend":-1.8,"maxT":16.7,"minT":8.9,"metarType":"METAR","rawOb":"METAR KFMN 182353Z 34004KT 10SM CLR 16/M22 A3018 RMK AO2 SLP209 T01611222 10167 20089 56018","lat":36.7435,"lon":-108.2293,"elev":1677,"name":"Farmington/Four Corners Rgnl, NM, US","cover":"CLR","clouds":[],"fltCat":"VFR"},{"icaoId":"KFSM","receiptTime":"2026-04-19T00:01:50.608Z","obsTime":1776556380,"reportTime":"2026-04-19T00:00:00.000Z","temp":17.2,"dewp":-1.1,"wdir":330,"wspd":12,"visib":"10+","altim":1022.8,"slp":1022.5,"qcField":4,"presTend":1.2,"maxT":17.8,"minT":14.4,"metarType":"METAR","rawOb":"METAR KFSM 182353Z 33012KT 10SM CLR 17/M01 A3020 RMK AO2 SLP225 T01721011 10178 20144 53012","lat":35.3335,"lon":-94.3653,"elev":136,"name":"Fort Smith Rgnl, AR, US","cover":"CLR","clouds":[],"fltCat":"VFR"},{"icaoId":"KDLN","receiptTime":"2026-04-19T00:01:48.732Z","obsTime":1776556380,"reportTime":"2026-04-19T00:00:00.000Z","temp":13.9,"dewp":-9.4,"wdir":190,"wspd":11,"wgst":20,"visib":"10+","altim":1018,"slp":1018,"qcField":6,"presTend":-1.8,"maxT":14.4,"minT":5.6,"metarType":"METAR","rawOb":"METAR KDLN 182353Z AUTO 19011G20KT 10SM CLR 14/M09 A3006 RMK AO2 SLP180 T01391094 10144 20056 56018","lat":45.2584,"lon":-112.5546,"elev":1586,"name":"Dillon Arpt, MT, US","cover":"CLR","clouds":[],"fltCat":"VFR"},{"icaoId":"KASE","receiptTime":"2026-04-19T00:01:55.183Z","obsTime":1776556380,"reportTime":"2026-04-19T00:00:00.000Z","temp":8.3,"dewp":-18.3,"wdir":340,"wspd":6,"visib":"10+","altim":1025.1,"slp":1022.1,"qcField":4,"presTend":-0.4,"maxT":9.4,"minT":2.8,"metarType":"METAR","rawOb":"METAR KASE 182353Z 34006KT 10SM CLR 08/M18 A3027 RMK AO2 SLP221 T00831183 10094 20028 55004","lat":39.2299,"lon":-106.8705,"elev":2384,"name":"Aspen/Pitkin Cnty, CO, US","cover":"CLR","clouds":[],"fltCat":"VFR"},{"icaoId":"KTPA","receiptTime":"2026-04-19T00:01:52.653Z","obsTime":1776556380,"reportTime":"2026-04-19T00:00:00.000Z","temp":25,"dewp":18.3,"wdir":320,"wspd":7,"wgst":17,"visib":"10+","altim":1015.7,"slp":1015.5,"qcField":4,"presTend":0.5,"maxT":30.6,"minT":25,"metarType":"METAR","rawOb":"METAR KTPA 182353Z 32007G17KT 10SM BKN250 25/18 A2999 RMK AO2 SLP155 T02500183 10306 20250 53005","lat":27.9633,"lon":-82.54,"elev":2,"name":"Tampa Intl Arpt, FL, US","cover":"BKN","clouds":[{"cover":"BKN","base":25000}],"fltCat":"VFR"},{"icaoId":"PANC","receiptTime":"2026-04-19T00:01:51.574Z","obsTime":1776556380,"reportTime":"2026-04-19T00:00:00.000Z","temp":6.1,"dewp":0,"wdir":220,"wspd":6,"visib":"10+","altim":1011.9,"slp":1011.9,"qcField":4,"presTend":-1.3,"maxT":6.1,"minT":0.6,"snow":10,"metarType":"METAR","rawOb":"METAR PANC 182353Z 22006KT 10SM FEW040 SCT060 BKN180 06/00 A2988 RMK AO2 SLP119 4/010 T00610000 10061 20006 58013","lat":61.1691,"lon":-150.0277,"elev":39,"name":"Anchorage Intl, AK, US","cover":"BKN","clouds":[{"cover":"FEW","base":4000},{"cover":"SCT","base":6000},{"cover":"BKN","base":18000}],"fltCat":"VFR"},{"icaoId":"KVEL","receiptTime":"2026-04-19T00:02:13.372Z","obsTime":1776556380,"reportTime":"2026-04-19T00:00:00.000Z","temp":10.6,"dewp":-15.6,"wdir":0,"wspd":0,"visib":"10+","altim":1024.5,"slp":1024.7,"qcField":6,"presTend":-1.7,"maxT":11.1,"minT":5.6,"metarType":"METAR","rawOb":"METAR KVEL 182353Z AUTO 00000KT 10SM CLR 11/M16 A3025 RMK AO2 SLP247 T01061156 10111 20056 56017","lat":40.4429,"lon":-109.5128,"elev":1604,"name":"Vernal Rgnl, UT, US","cover":"CLR","clouds":[],"fltCat":"VFR"},{"icaoId":"KVGT","receiptTime":"2026-04-19T00:02:13.389Z","obsTime":1776556380,"reportTime":"2026-04-19T00:00:00.000Z","temp":24.4,"dewp":-17.2,"wdir":150,"wspd":4,"visib":"10+","altim":1015,"slp":1015.6,"qcField":4,"presTend":-2.6,"maxT":24.4,"minT":20.6,"metarType":"METAR","rawOb":"METAR KVGT 182353Z 15004KT 10SM CLR 24/M17 A2997 RMK AO2 SLP156 T02441172 10244 20206 56026","lat":36.212,"lon":-115.194,"elev":664,"name":"Las Vegas/North Arpt, NV, US","cover":"CLR","clouds":[],"fltCat":"VFR"},{"icaoId":"KVIH","receiptTime":"2026-04-19T00:02:13.406Z","obsTime":1776556380,"reportTime":"2026-04-19T00:00:00.000Z","temp":12.2,"dewp":-2.8,"wdir":310,"wspd":11,"wgst":17,"visib":"10+","altim":1021.4,"slp":1021.3,"qcField":6,"presTend":0.7,"maxT":13.3,"minT":9.4,"metarType":"METAR","rawOb":"METAR KVIH 182353Z AUTO 31011G17KT 10SM CLR 12/M03 A3016 RMK AO2 SLP213 T01221028 10133 20094 53007","lat":38.1318,"lon":-91.7647,"elev":342,"name":"Vichy/Rolla Arpt, MO, US","cover":"CLR","clouds":[],"fltCat":"VFR"},{"icaoId":"KLVS","receiptTime":"2026-04-19T00:02:04.188Z","obsTime":1776556380,"reportTime":"2026-04-19T00:00:00.000Z","temp":11.7,"dewp":-12.2,"wdir":130,"wspd":12,"wgst":19,"visib":"10+","altim":1024.8,"slp":1022.6,"qcField":14,"presTend":-0.4,"maxT":12.2,"minT":5.6,"metarType":"METAR","rawOb":"METAR KLVS 182353Z AUTO 13012G19KT 10SM CLR 12/M12 A3026 RMK AO2 SLP226 T01171122 10122 20056 55004 $","lat":35.6558,"lon":-105.1385,"elev":2095,"name":"Las Vegas Muni, NM, US","cover":"CLR","clouds":[],"fltCat":"VFR"},{"icaoId":"KHIO","receiptTime":"2026-04-19T00:01:53.618Z","obsTime":1776556380,"reportTime":"2026-04-19T00:00:00.000Z","temp":21.7,"dewp":3.9,"wdir":340,"wspd":5,"visib":"10+","altim":1012.6,"slp":1012.5,"qcField":4,"presTend":-2.4,"maxT":22.2,"minT":12.8,"metarType":"METAR","rawOb":"METAR KHIO 182353Z 34005KT 10SM CLR 22/04 A2990 RMK AO2 SLP125 T02170039 10222 20128 56024","lat":45.5476,"lon":-122.9557,"elev":62,"name":"Portland/Hillsboro Arpt, OR, US","cover":"CLR","clouds":[],"fltCat":"VFR"},{"icaoId":"KPRC","receiptTime":"2026-04-19T00:02:06.959Z","obsTime":1776556380,"reportTime":"2026-04-19T00:00:00.000Z","temp":21.7,"dewp":-12.8,"wdir":"VRB","wspd":4,"visib":"10+","altim":1018.4,"slp":1013.5,"qcField":4,"presTend":-1.7,"maxT":21.7,"minT":16.7,"metarType":"METAR","rawOb":"METAR KPRC 182353Z VRB04KT 10SM CLR 22/M13 A3007 RMK AO2 SLP135 T02171128 10217 20167 56017","lat":34.6491,"lon":-112.4223,"elev":1528,"name":"Prescott/Love Fld, AZ, US","cover":"CLR","clouds":[],"fltCat":"VFR"},{"icaoId":"KPSC","receiptTime":"2026-04-19T00:02:06.974Z","obsTime":1776556380,"reportTime":"2026-04-19T00:00:00.000Z","temp":21.1,"dewp":1.1,"wdir":320,"wspd":5,"visib":"10+","altim":1015.7,"slp":1015.5,"qcField":4,"presTend":-2.7,"maxT":21.1,"minT":10.6,"metarType":"METAR","rawOb":"METAR KPSC 182353Z 32005KT 10SM CLR 21/01 A2999 RMK AO2 SLP155 T02110011 10211 20106 56027","lat":46.2695,"lon":-119.1182,"elev":121,"name":"Pasco/Tri Cities Arpt, WA, US","cover":"CLR","clouds":[],"fltCat":"VFR"},{"icaoId":"KPSP","receiptTime":"2026-04-19T00:02:06.989Z","obsTime":1776556380,"reportTime":"2026-04-19T00:00:00.000Z","temp":30.6,"dewp":-13.9,"wdir":"VRB","wspd":3,"visib":"10+","altim":1011.3,"slp":1010.9,"qcField":12,"presTend":-2.6,"maxT":31.1,"minT":26.1,"metarType":"METAR","rawOb":"METAR KPSP 182353Z VRB03KT 10SM CLR 31/M14 A2986 RMK AO2 SLP109 T03061139 10311 20261 56026 $","lat":33.8222,"lon":-116.5043,"elev":123,"name":"Palm Springs Intl, CA, US","cover":"CLR","clouds":[],"fltCat":"VFR"},{"icaoId":"KPUB","receiptTime":"2026-04-19T00:02:07.017Z","obsTime":1776556380,"reportTime":"2026-04-19T00:00:00.000Z","visib":"","altim":1021.8,"qcField":12,"presTend":-0.9,"metarType":"METAR","rawOb":"METAR KPUB 182353Z A3017 RMK AO2 SLPNO 55009 RVRNO $","lat":38.2887,"lon":-104.5057,"elev":1441,"name":"Pueblo Mem Arpt, CO, US"},{"icaoId":"KSDL","receiptTime":"2026-04-19T00:02:10.726Z","obsTime":1776556380,"reportTime":"2026-04-19T00:00:00.000Z","temp":31.7,"dewp":-11.7,"wdir":"VRB","wspd":4,"visib":"10+","altim":1011.3,"slp":1009,"qcField":4,"presTend":-2.4,"maxT":32.2,"minT":26.7,"metarType":"METAR","rawOb":"METAR KSDL 182353Z VRB04KT 10SM CLR 32/M12 A2986 RMK AO2 SLP090 T03171117 10322 20267 56024","lat":33.6123,"lon":-111.9232,"elev":438,"name":"Scottsdale Muni, AZ, US","cover":"CLR","clouds":[],"fltCat":"VFR"},{"icaoId":"KSHR","receiptTime":"2026-04-19T00:02:10.852Z","obsTime":1776556380,"reportTime":"2026-04-19T00:00:00.000Z","temp":11.7,"dewp":-4.4,"wdir":260,"wspd":5,"visib":"10+","altim":1019,"slp":1020.3,"qcField":6,"presTend":-0.8,"maxT":12.2,"minT":7.8,"metarType":"METAR","rawOb":"METAR KSHR 182353Z AUTO 26005KT 10SM CLR 12/M04 A3009 RMK AO2 SLP203 T01171044 10122 20078 55008","lat":44.7603,"lon":-106.9741,"elev":1212,"name":"Sheridan Cnty Arpt, WY, US","cover":"CLR","clouds":[],"fltCat":"VFR"},{"icaoId":"KSMF","receiptTime":"2026-04-19T00:02:10.906Z","obsTime":1776556380,"reportTime":"2026-04-19T00:00:00.000Z","temp":25,"dewp":2.8,"wdir":0,"wspd":0,"visib":"10+","altim":1012.6,"slp":1012.5,"qcField":12,"presTend":-2.1,"maxT":25,"minT":18.3,"metarType":"METAR","rawOb":"METAR KSMF 182353Z 00000KT 10SM BKN250 25/03 A2990 RMK AO2 SLP125 T02500028 10250 20183 58021 $","lat":38.7007,"lon":-121.5948,"elev":7,"name":"Sacramento Intl, CA, US","cover":"BKN","clouds":[{"cover":"BKN","base":25000}],"fltCat":"VFR"},{"icaoId":"KSNA","receiptTime":"2026-04-19T00:01:52.273Z","obsTime":1776556380,"reportTime":"2026-04-19T00:00:00.000Z","temp":24.4,"dewp":9.4,"wdir":220,"wspd":8,"visib":"10+","altim":1012.3,"slp":1012,"qcField":12,"presTend":-1.7,"maxT":25.6,"minT":21.7,"metarType":"METAR","rawOb":"METAR KSNA 182353Z 22008KT 10SM CLR 24/09 A2989 RMK AO2 SLP120 T02440094 10256 20217 56017 $","lat":33.6798,"lon":-117.8675,"elev":14,"name":"Santa Ana/Wayne Arpt, CA, US","cover":"CLR","clouds":[],"fltCat":"VFR"},{"icaoId":"KMLU","receiptTime":"2026-04-19T00:02:09.916Z","obsTime":1776556380,"reportTime":"2026-04-19T00:00:00.000Z","temp":16.1,"dewp":13.3,"wdir":360,"wspd":15,"wgst":34,"visib":"10+","altim":1018.4,"slp":1018.3,"qcField":4,"wxString":"-RA","presTend":3,"maxT":27.8,"minT":16.1,"precip":0.005,"pcp6hr":0.005,"metarType":"METAR","rawOb":"METAR KMLU 182353Z 36015G34KT 10SM -RA OVC009 16/13 A3007 RMK AO2 PK WND 35034/2344 RAB09 SLP183 P0000 60000 T01610133 10278 20161 53030","lat":32.5155,"lon":-92.0299,"elev":22,"name":"Monroe Rgnl, LA, US","cover":"OVC","clouds":[{"cover":"OVC","base":900}],"fltCat":"IFR"},{"icaoId":"KCGI","receiptTime":"2026-04-19T00:02:05.701Z","obsTime":1776556380,"reportTime":"2026-04-19T00:00:00.000Z","temp":13.3,"dewp":3.9,"wdir":340,"wspd":8,"visib":"10+","altim":1019.4,"slp":1019.2,"qcField":6,"presTend":0.9,"maxT":13.3,"minT":10,"metarType":"METAR","rawOb":"METAR KCGI 182353Z AUTO 34008KT 300V010 10SM OVC110 13/04 A3010 RMK AO2 SLP192 T01330039 10133 20100 53009","lat":37.2254,"lon":-89.5785,"elev":103,"name":"Cape Girardeau Rgnl, MO, US","cover":"OVC","clouds":[{"cover":"OVC","base":11000}],"fltCat":"VFR"},{"icaoId":"KCPR","receiptTime":"2026-04-19T00:01:48.367Z","obsTime":1776556380,"reportTime":"2026-04-19T00:00:00.000Z","temp":12.2,"dewp":-11.7,"wdir":300,"wspd":15,"visib":"10+","altim":1019.7,"slp":1019.8,"qcField":4,"presTend":-0.7,"maxT":12.8,"minT":5.6,"metarType":"METAR","rawOb":"METAR KCPR 182353Z 30015KT 10SM CLR 12/M12 A3011 RMK AO2 PK WND 30027/2259 SLP198 T01221117 10128 20056 56007","lat":42.8978,"lon":-106.4736,"elev":1623,"name":"Casper/Natrona Cnty, WY, US","cover":"CLR","clouds":[],"fltCat":"VFR"},{"icaoId":"KCYS","receiptTime":"2026-04-19T00:01:48.525Z","obsTime":1776556380,"reportTime":"2026-04-19T00:00:00.000Z","temp":10.6,"dewp":-15.6,"wdir":320,"wspd":16,"wgst":29,"visib":"10+","altim":1021.4,"slp":1021.6,"qcField":4,"presTend":0.2,"maxT":11.1,"minT":5.6,"metarType":"METAR","rawOb":"METAR KCYS 182353Z 32016G29KT 10SM CLR 11/M16 A3016 RMK AO2 PK WND 34029/2315 SLP216 T01061156 10111 20056 53002","lat":41.1579,"lon":-104.8081,"elev":1868,"name":"Cheyenne Rgnl, WY, US","cover":"CLR","clouds":[],"fltCat":"VFR"},{"icaoId":"KDFW","receiptTime":"2026-04-19T00:01:48.664Z","obsTime":1776556380,"reportTime":"2026-04-19T00:00:00.000Z","temp":16.7,"dewp":4.4,"wdir":40,"wspd":7,"visib":"10+","altim":1022.4,"slp":1021.9,"qcField":12,"presTend":-0.9,"maxT":16.7,"minT":10,"pcp6hr":0.01,"metarType":"METAR","rawOb":"METAR KDFW 182353Z 04007KT 10SM FEW120 SCT150 BKN250 17/04 A3019 RMK AO2 SLP219 60001 T01670044 10167 20100 55009 $","lat":32.8974,"lon":-97.022,"elev":168,"name":"Dallas-Ft Worth Intl, TX, US","cover":"BKN","clouds":[{"cover":"FEW","base":12000},{"cover":"SCT","base":15000},{"cover":"BKN","base":25000}],"fltCat":"VFR"},{"icaoId":"KABR","receiptTime":"2026-04-19T00:01:57.184Z","obsTime":1776556380,"reportTime":"2026-04-19T00:00:00.000Z","temp":8.3,"dewp":-10,"wdir":300,"wspd":16,"wgst":23,"visib":"10+","altim":1016.7,"slp":1018,"qcField":14,"presTend":-0.8,"maxT":8.9,"minT":5,"metarType":"METAR","rawOb":"METAR KABR 182353Z AUTO 30016G23KT 10SM CLR 08/M10 A3002 RMK AO2 PK WND 29027/2259 SLP180 T00831100 10089 20050 58008 $","lat":45.4436,"lon":-98.4138,"elev":397,"name":"Aberdeen Rgnl, SD, US","cover":"CLR","clouds":[],"fltCat":"VFR"},{"icaoId":"KOAK","receiptTime":"2026-04-19T00:01:51.986Z","obsTime":1776556380,"reportTime":"2026-04-19T00:00:00.000Z","temp":20.6,"dewp":10,"wdir":270,"wspd":11,"visib":"10+","altim":1013.3,"slp":1013.3,"qcField":12,"presTend":-1.6,"maxT":23.9,"minT":16.1,"metarType":"METAR","rawOb":"METAR KOAK 182353Z 27011KT 10SM FEW180 BKN250 21/10 A2992 RMK AO2 SLP133 T02060100 10239 20161 58016 $","lat":37.7178,"lon":-122.233,"elev":3,"name":"Oakland Intl, CA, US","cover":"BKN","clouds":[{"cover":"FEW","base":18000},{"cover":"BKN","base":25000}],"fltCat":"VFR"},{"icaoId":"KOGD","receiptTime":"2026-04-19T00:01:52.044Z","obsTime":1776556380,"reportTime":"2026-04-19T00:00:00.000Z","temp":13.3,"dewp":-7.2,"wdir":330,"wspd":5,"visib":"10+","altim":1021.4,"slp":1020.6,"qcField":4,"presTend":-2.2,"maxT":13.3,"minT":8.9,"metarType":"METAR","rawOb":"METAR KOGD 182353Z 33005KT 10SM CLR 13/M07 A3016 RMK AO2 SLP206 T01331072 10133 20089 56022","lat":41.1941,"lon":-112.0168,"elev":1356,"name":"Ogden/Hinckley Arpt, UT, US","cover":"CLR","clouds":[],"fltCat":"VFR"},{"icaoId":"KMYR","receiptTime":"2026-04-19T00:01:54.217Z","obsTime":1776556380,"reportTime":"2026-04-19T00:00:00.000Z","temp":21.1,"dewp":18.3,"wdir":190,"wspd":14,"visib":"10+","altim":1014,"slp":1013.8,"qcField":12,"maxT":25.6,"minT":21.1,"metarType":"METAR","rawOb":"METAR KMYR 182353Z 19014KT 10SM CLR 21/18 A2994 RMK AO2 SLP138 T02110183 10256 20211 58000 $","lat":33.6769,"lon":-78.9325,"elev":7,"name":"Myrtle Beach Intl, SC, US","cover":"CLR","clouds":[],"fltCat":"VFR"},{"icaoId":"KLIT","receiptTime":"2026-04-19T00:02:03.989Z","obsTime":1776556380,"reportTime":"2026-04-19T00:00:00.000Z","temp":12.2,"dewp":8.3,"wdir":20,"wspd":4,"visib":"10+","altim":1021.8,"slp":1021.6,"qcField":4,"presTend":1.2,"maxT":12.8,"minT":10,"pcp6hr":0.01,"metarType":"METAR","rawOb":"METAR KLIT 182353Z 02004KT 10SM FEW060 OVC160 12/08 A3017 RMK AO2 SLP216 60001 T01220083 10128 20100 53012","lat":34.7273,"lon":-92.2358,"elev":77,"name":"Little Rock/Clinton Natl, AR, US","cover":"OVC","clouds":[{"cover":"FEW","base":6000},{"cover":"OVC","base":16000}],"fltCat":"VFR"},{"icaoId":"KMCO","receiptTime":"2026-04-19T00:01:50.882Z","obsTime":1776556380,"reportTime":"2026-04-19T00:00:00.000Z","temp":27.2,"dewp":17.8,"wdir":120,"wspd":12,"visib":"10+","altim":1015.3,"slp":1015.1,"qcField":4,"presTend":-0.2,"maxT":31.7,"minT":27.2,"metarType":"METAR","rawOb":"METAR KMCO 182353Z 12012KT 10SM FEW060 SCT250 27/18 A2998 RMK AO2 SLP151 T02720178 10317 20272 55002","lat":28.4182,"lon":-81.3241,"elev":27,"name":"Orlando Intl, FL, US","cover":"SCT","clouds":[{"cover":"FEW","base":6000},{"cover":"SCT","base":25000}],"fltCat":"VFR"},{"icaoId":"KATY","receiptTime":"2026-04-19T00:01:55.215Z","obsTime":1776556380,"reportTime":"2026-04-19T00:00:00.000Z","temp":6.1,"dewp":-13.9,"wdir":300,"wspd":15,"wgst":24,"visib":"10+","altim":1016.7,"slp":1018.4,"qcField":6,"presTend":-0.1,"maxT":7.2,"minT":3.3,"metarType":"METAR","rawOb":"METAR KATY 182353Z AUTO 30015G24KT 10SM CLR 06/M14 A3002 RMK AO2 PK WND 29028/2305 SLP184 T00611139 10072 20033 55001","lat":44.9045,"lon":-97.1496,"elev":531,"name":"Watertown Rgnl, SD, US","cover":"CLR","clouds":[],"fltCat":"VFR"},{"icaoId":"KBCE","receiptTime":"2026-04-19T00:02:05.383Z","obsTime":1776556380,"reportTime":"2026-04-19T00:00:00.000Z","temp":10.6,"dewp":-18.9,"wdir":140,"wspd":10,"visib":"10+","altim":1023.8,"slp":1021.2,"qcField":6,"presTend":-1.2,"maxT":12.2,"minT":5.6,"metarType":"METAR","rawOb":"METAR KBCE 182353Z AUTO 14010KT 10SM CLR 11/M19 A3023 RMK AO2 SLP212 T01061189 10122 20056 56012","lat":37.7013,"lon":-112.149,"elev":2311,"name":"Bryce Canyon Arpt, UT, US","cover":"CLR","clouds":[],"fltCat":"VFR"},{"icaoId":"KBHM","receiptTime":"2026-04-19T00:02:05.557Z","obsTime":1776556380,"reportTime":"2026-04-19T00:00:00.000Z","temp":25,"dewp":15.6,"wdir":240,"wspd":8,"visib":"10+","altim":1015,"slp":1014.2,"qcField":4,"presTend":0.4,"maxT":28.3,"minT":25,"metarType":"METAR","rawOb":"METAR KBHM 182353Z 24008KT 10SM FEW039 SCT065 BKN100 BKN250 25/16 A2997 RMK AO2 SLP142 T02500156 10283 20250 50004","lat":33.5655,"lon":-86.7449,"elev":191,"name":"Birmingham Intl, AL, US","cover":"BKN","clouds":[{"cover":"FEW","base":3900},{"cover":"SCT","base":6500},{"cover":"BKN","base":10000},{"cover":"BKN","base":25000}],"fltCat":"VFR"},{"icaoId":"KMSP","receiptTime":"2026-04-19T00:01:51.812Z","obsTime":1776556380,"reportTime":"2026-04-19T00:00:00.000Z","temp":7.2,"dewp":-11.7,"wdir":300,"wspd":19,"wgst":28,"visib":"10+","altim":1015.7,"slp":1016.2,"qcField":4,"presTend":0.7,"maxT":7.8,"minT":3.3,"metarType":"METAR","rawOb":"METAR KMSP 182353Z 30019G28KT 10SM SCT080 07/M12 A2999 RMK AO2 PK WND 28034/2303 SLP162 T00721117 10078 20033 53007","lat":44.8852,"lon":-93.2313,"elev":255,"name":"Minneapolis-St Paul Intl, MN, US","cover":"SCT","clouds":[{"cover":"SCT","base":8000}],"fltCat":"VFR"},{"icaoId":"KOTM","receiptTime":"2026-04-19T00:01:52.178Z","obsTime":1776556380,"reportTime":"2026-04-19T00:00:00.000Z","temp":10,"dewp":-8.9,"wdir":290,"wspd":10,"wgst":22,"visib":"10+","altim":1019.7,"slp":1020.1,"qcField":6,"presTend":0.6,"maxT":11.1,"minT":8.9,"metarType":"METAR","rawOb":"METAR KOTM 182353Z AUTO 29010G22KT 10SM CLR 10/M09 A3011 RMK AO2 PK WND 29028/2257 SLP201 T01001089 10111 20089 53006","lat":41.1008,"lon":-92.4445,"elev":254,"name":"Ottumwa Rgnl, IA, US","cover":"CLR","clouds":[],"fltCat":"VFR"},{"icaoId":"KGRI","receiptTime":"2026-04-19T00:01:53.365Z","obsTime":1776556380,"reportTime":"2026-04-19T00:00:00.000Z","temp":13.3,"dewp":-8.9,"wdir":320,"wspd":18,"wgst":24,"visib":"10+","altim":1021.1,"slp":1022.5,"qcField":12,"presTend":0.5,"maxT":15,"minT":10.6,"metarType":"METAR","rawOb":"METAR KGRI 182353Z 32018G24KT 10SM CLR 13/M09 A3015 RMK AO2 PK WND 33026/2320 SLP225 T01331089 10150 20106 53005 $","lat":40.9615,"lon":-98.313,"elev":562,"name":"Grand Island Rgnl, NE, US","cover":"CLR","clouds":[],"fltCat":"VFR"},{"icaoId":"KCRQ","receiptTime":"2026-04-19T00:01:48.425Z","obsTime":1776556380,"reportTime":"2026-04-19T00:00:00.000Z","temp":20,"dewp":12.8,"wdir":250,"wspd":4,"visib":"10+","altim":1013,"slp":1012.7,"qcField":6,"presTend":-0.8,"maxT":21.1,"minT":18.9,"metarType":"METAR","rawOb":"METAR KCRQ 182353Z AUTO 25004KT 10SM CLR 20/13 A2991 RMK AO2 SLP127 T02000128 10211 20189 56008","lat":33.1299,"lon":-117.2765,"elev":96,"name":"Carlsbad/Palomar Arpt, CA, US","cover":"CLR","clouds":[],"fltCat":"VFR"},{"icaoId":"KFAT","receiptTime":"2026-04-19T00:01:50.332Z","obsTime":1776556380,"reportTime":"2026-04-19T00:00:00.000Z","temp":27.8,"dewp":-0.6,"wdir":"VRB","wspd":4,"visib":"10+","altim":1012.6,"slp":1012.1,"qcField":12,"presTend":-2.3,"maxT":27.8,"minT":20,"metarType":"METAR","rawOb":"METAR KFAT 182353Z VRB04KT 10SM FEW100 SCT150 BKN200 BKN250 28/M01 A2990 RMK AO2 SLP121 T02781006 10278 20200 56023 $","lat":36.78,"lon":-119.7202,"elev":102,"name":"Fresno/Yosemite Intl, CA, US","cover":"BKN","clouds":[{"cover":"FEW","base":10000},{"cover":"SCT","base":15000},{"cover":"BKN","base":20000},{"cover":"BKN","base":25000}],"fltCat":"VFR"},{"icaoId":"KELY","receiptTime":"2026-04-19T00:01:53.853Z","obsTime":1776556380,"reportTime":"2026-04-19T00:00:00.000Z","temp":16.7,"dewp":-19.4,"wdir":140,"wspd":15,"wgst":20,"visib":"10+","altim":1019,"slp":1016.8,"qcField":14,"presTend":-1.8,"maxT":17.2,"minT":7.8,"metarType":"METAR","rawOb":"METAR KELY 182353Z AUTO 14015G20KT 10SM CLR 17/M19 A3009 RMK AO2 SLP168 T01671194 10172 20078 56018 $","lat":39.2954,"lon":-114.8466,"elev":1906,"name":"Ely/Yelland Fld, NV, US","cover":"CLR","clouds":[],"fltCat":"VFR"},{"icaoId":"KHLN","receiptTime":"2026-04-19T00:01:52.761Z","obsTime":1776556380,"reportTime":"2026-04-19T00:00:00.000Z","temp":15,"dewp":-6.7,"wdir":80,"wspd":9,"visib":"10+","altim":1017.7,"slp":1019.6,"qcField":4,"presTend":-1.6,"maxT":15.6,"minT":8.9,"metarType":"METAR","rawOb":"METAR KHLN 182353Z 08009KT 10SM CLR 15/M07 A3005 RMK AO2 SLP196 T01501067 10156 20089 56016","lat":46.6045,"lon":-111.9892,"elev":1178,"name":"Helena Rgnl, MT, US","cover":"CLR","clouds":[],"fltCat":"VFR"},{"icaoId":"KPNC","receiptTime":"2026-04-19T00:02:06.874Z","obsTime":1776556380,"reportTime":"2026-04-19T00:00:00.000Z","temp":16.1,"dewp":-2.2,"wdir":0,"wspd":0,"visib":"10+","altim":1023.1,"slp":1022.8,"qcField":6,"presTend":-1.1,"maxT":16.7,"minT":13.9,"pcp6hr":0.005,"metarType":"METAR","rawOb":"METAR KPNC 182353Z AUTO 00000KT 10SM CLR 16/M02 A3021 RMK AO2 SLP228 60000 T01611022 10167 20139 56011","lat":36.7369,"lon":-97.1024,"elev":304,"name":"Ponca City Rgnl, OK, US","cover":"CLR","clouds":[],"fltCat":"VFR"},{"icaoId":"KYKM","receiptTime":"2026-04-19T00:02:13.540Z","obsTime":1776556380,"reportTime":"2026-04-19T00:00:00.000Z","temp":18.3,"dewp":-1.7,"wdir":0,"wspd":0,"visib":"10+","altim":1015.7,"slp":1015.8,"qcField":4,"presTend":-2.1,"maxT":18.9,"minT":13.3,"metarType":"METAR","rawOb":"METAR KYKM 182353Z 00000KT 10SM CLR 18/M02 A2999 RMK AO2 SLP158 T01831017 10189 20133 56021","lat":46.564,"lon":-120.5349,"elev":319,"name":"Yakima/McAllister Fld, WA, US","cover":"CLR","clouds":[],"fltCat":"VFR"},{"icaoId":"KESF","receiptTime":"2026-04-19T00:01:53.907Z","obsTime":1776556380,"reportTime":"2026-04-19T00:00:00.000Z","temp":22.8,"dewp":20,"wdir":0,"wspd":0,"visib":9,"altim":1015.3,"slp":1015.1,"qcField":6,"wxString":"-RA","presTend":1,"maxT":28.9,"minT":22.8,"precip":0.005,"pcp6hr":0.01,"metarType":"METAR","rawOb":"METAR KESF 182353Z AUTO 00000KT 9SM -RA 23/20 A2998 RMK AO2 LTG DSNT S RAB53 SLP151 P0000 60001 T02280200 10289 20228 53010","lat":31.3963,"lon":-92.2828,"elev":27,"name":"Alexandria/Esler Rgnl, LA, US"},{"icaoId":"KEVW","receiptTime":"2026-04-19T00:01:53.920Z","obsTime":1776556380,"reportTime":"2026-04-19T00:00:00.000Z","temp":10.6,"dewp":-14.4,"wdir":250,"wspd":7,"visib":"10+","altim":1022.4,"slp":1021.5,"qcField":14,"presTend":-1.5,"maxT":11.7,"minT":2.2,"metarType":"METAR","rawOb":"METAR KEVW 182353Z AUTO 25007KT 10SM CLR 11/M14 A3019 RMK AO2 SLP215 T01061144 10117 20022 56015 $","lat":41.2727,"lon":-111.0305,"elev":2178,"name":"Evanston/Uinta Cnty, WY, US","cover":"CLR","clouds":[],"fltCat":"VFR"},{"icaoId":"KFUL","receiptTime":"2026-04-19T00:01:50.661Z","obsTime":1776556380,"reportTime":"2026-04-19T00:00:00.000Z","temp":27.2,"dewp":3.3,"wdir":200,"wspd":7,"visib":"10+","altim":1011.6,"slp":1011.4,"qcField":4,"presTend":-1.8,"maxT":27.8,"minT":22.8,"metarType":"METAR","rawOb":"METAR KFUL 182353Z 20007KT 10SM CLR 27/03 A2987 RMK AO2 SLP114 T02720033 10278 20228 56018","lat":33.8715,"lon":-117.9856,"elev":23,"name":"Fullerton Muni, CA, US","cover":"CLR","clouds":[],"fltCat":"VFR"},{"icaoId":"KDRO","receiptTime":"2026-04-19T00:01:50.673Z","obsTime":1776556380,"reportTime":"2026-04-19T00:00:00.000Z","temp":15.6,"dewp":-15.6,"wdir":260,"wspd":10,"visib":"10+","altim":1023.1,"slp":1022.9,"qcField":6,"presTend":-1.2,"maxT":15.6,"minT":7.2,"metarType":"METAR","rawOb":"METAR KDRO 182353Z AUTO 26010KT 10SM CLR 16/M16 A3021 RMK AO2 SLP229 T01561156 10156 20072 56012","lat":37.1431,"lon":-107.7602,"elev":2021,"name":"Durango/La Plata Cnty, CO, US","cover":"CLR","clouds":[],"fltCat":"VFR"},{"icaoId":"KDTW","receiptTime":"2026-04-19T00:01:50.739Z","obsTime":1776556380,"reportTime":"2026-04-19T00:00:00.000Z","temp":9.4,"dewp":1.1,"wdir":270,"wspd":13,"wgst":23,"visib":"10+","altim":1011.9,"slp":1011.8,"qcField":12,"presTend":3.3,"maxT":12.8,"minT":9.4,"metarType":"METAR","rawOb":"METAR KDTW 182353Z 27013G23KT 10SM SCT035 SCT085 BKN250 09/01 A2988 RMK AO2 SLP118 T00940011 10128 20094 51033 $","lat":42.2311,"lon":-83.3312,"elev":192,"name":"Detroit/Metro Wayne Cnty, MI, US","cover":"BKN","clouds":[{"cover":"SCT","base":3500},{"cover":"SCT","base":8500},{"cover":"BKN","base":25000}],"fltCat":"VFR"},{"icaoId":"KDVT","receiptTime":"2026-04-19T00:01:53.708Z","obsTime":1776556380,"reportTime":"2026-04-19T00:00:00.000Z","temp":31.1,"dewp":-9.4,"wdir":0,"wspd":0,"visib":"10+","altim":1010.9,"slp":1008.8,"qcField":4,"presTend":-2.5,"maxT":31.7,"minT":27.2,"metarType":"METAR","rawOb":"METAR KDVT 182353Z 00000KT 10SM CLR 31/M09 A2985 RMK AO2 SLP088 T03111094 10317 20272 56025","lat":33.6902,"lon":-112.0662,"elev":454,"name":"Phoenix/Deer Valley Arpt, AZ, US","cover":"CLR","clouds":[],"fltCat":"VFR"},{"icaoId":"KELD","receiptTime":"2026-04-19T00:01:53.809Z","obsTime":1776556380,"reportTime":"2026-04-19T00:00:00.000Z","temp":10,"dewp":8.3,"wdir":10,"wspd":11,"wgst":22,"visib":"10+","altim":1021.1,"slp":1020.6,"qcField":6,"wxString":"-RA","presTend":3,"maxT":21.1,"minT":10,"precip":0.02,"pcp6hr":0.08,"metarType":"METAR","rawOb":"METAR KELD 182353Z AUTO 01011G22KT 10SM -RA FEW010 BKN032 OVC120 10/08 A3015 RMK AO2 SLP206 P0002 60008 T01000083 10211 20100 51030","lat":33.2207,"lon":-92.814,"elev":76,"name":"El Dorado/S Arkansas Rgnl, AR, US","cover":"OVC","clouds":[{"cover":"FEW","base":1000},{"cover":"BKN","base":3200},{"cover":"OVC","base":12000}],"fltCat":"VFR"},{"icaoId":"KRTN","receiptTime":"2026-04-19T00:02:10.577Z","obsTime":1776556380,"reportTime":"2026-04-19T00:00:00.000Z","temp":13.9,"dewp":-14.4,"wdir":220,"wspd":4,"visib":"10+","altim":1023.1,"slp":1021.7,"qcField":6,"presTend":-0.8,"maxT":13.9,"minT":7.2,"metarType":"METAR","rawOb":"METAR KRTN 182353Z AUTO 22004KT 10SM CLR 14/M14 A3021 RMK AO2 SLP217 T01391144 10139 20072 56008","lat":36.7418,"lon":-104.5076,"elev":1939,"name":"Raton/Crews Fld, NM, US","cover":"CLR","clouds":[],"fltCat":"VFR"},{"icaoId":"KSAF","receiptTime":"2026-04-19T00:02:10.669Z","obsTime":1776556380,"reportTime":"2026-04-19T00:00:00.000Z","temp":16.7,"dewp":-21.7,"wdir":250,"wspd":5,"visib":"10+","altim":1022.4,"slp":1018.8,"qcField":4,"presTend":-0.9,"maxT":17.2,"minT":9.4,"metarType":"METAR","rawOb":"METAR KSAF 182353Z 25005KT 10SM CLR 17/M22 A3019 RMK AO2 SLP188 T01671217 10172 20094 56009","lat":35.611,"lon":-106.0957,"elev":1918,"name":"Santa Fe Cnty Muni, NM, US","cover":"CLR","clouds":[],"fltCat":"VFR"},{"icaoId":"KSLN","receiptTime":"2026-04-19T00:02:10.893Z","obsTime":1776556380,"reportTime":"2026-04-19T00:00:00.000Z","temp":17.2,"dewp":-7.8,"wdir":280,"wspd":10,"visib":"10+","altim":1021.4,"slp":1021.6,"qcField":12,"presTend":-0.8,"maxT":18.9,"minT":13.9,"metarType":"METAR","rawOb":"METAR KSLN 182353Z 28010KT 10SM CLR 17/M08 A3016 RMK AO2 SLP216 T01721078 10189 20139 56008 $","lat":38.78,"lon":-97.6446,"elev":377,"name":"Salina Rgnl, KS, US","cover":"CLR","clouds":[],"fltCat":"VFR"},{"icaoId":"KSPW","receiptTime":"2026-04-19T00:01:52.343Z","obsTime":1776556380,"reportTime":"2026-04-19T00:00:00.000Z","temp":8.3,"dewp":-15,"wdir":290,"wspd":21,"wgst":31,"visib":"10+","altim":1018,"slp":1019.2,"qcField":14,"presTend":0.1,"maxT":10,"minT":6.7,"metarType":"METAR","rawOb":"METAR KSPW 182353Z AUTO 29021G31KT 10SM CLR 08/M15 A3006 RMK AO2 PK WND 29032/2323 SLP192 T00831150 10100 20067 53001 $","lat":43.1682,"lon":-95.2101,"elev":407,"name":"Spencer Muni, IA, US","cover":"CLR","clouds":[],"fltCat":"VFR"},{"icaoId":"KMSO","receiptTime":"2026-04-19T00:01:51.793Z","obsTime":1776556380,"reportTime":"2026-04-19T00:00:00.000Z","temp":15,"dewp":-6.7,"wdir":"VRB","wspd":6,"visib":"10+","altim":1017.7,"slp":1018.9,"qcField":4,"presTend":-1.9,"maxT":15.6,"minT":7.8,"metarType":"METAR","rawOb":"METAR KMSO 182353Z VRB06KT 10SM CLR 15/M07 A3005 RMK AO2 SLP189 T01501067 10156 20078 56019","lat":46.9208,"lon":-114.0938,"elev":974,"name":"Missoula Intl, MT, US","cover":"CLR","clouds":[],"fltCat":"VFR"},{"icaoId":"KPDX","receiptTime":"2026-04-19T00:02:06.713Z","obsTime":1776556380,"reportTime":"2026-04-19T00:00:00.000Z","temp":22.2,"dewp":-0.6,"wdir":70,"wspd":4,"visib":"10+","altim":1012.6,"slp":1012.5,"qcField":12,"presTend":-2.5,"maxT":22.2,"minT":14.4,"metarType":"METAR","rawOb":"METAR KPDX 182353Z 07004KT 10SM FEW070 FEW180 SCT250 22/M01 A2990 RMK AO2 SLP125 T02221006 10222 20144 56025 $","lat":45.5958,"lon":-122.6092,"elev":7,"name":"Portland Intl, OR, US","cover":"SCT","clouds":[{"cover":"FEW","base":7000},{"cover":"FEW","base":18000},{"cover":"SCT","base":25000}],"fltCat":"VFR"},{"icaoId":"KRIW","receiptTime":"2026-04-19T00:02:10.464Z","obsTime":1776556380,"reportTime":"2026-04-19T00:00:00.000Z","temp":15.6,"dewp":-18.9,"wdir":320,"wspd":19,"wgst":27,"visib":"10+","altim":1018.4,"slp":1017.7,"qcField":6,"presTend":-1.3,"maxT":16.1,"minT":8.3,"metarType":"METAR","rawOb":"METAR KRIW 182353Z AUTO 32019G27KT 10SM CLR 16/M19 A3007 RMK AO2 PK WND 32027/2325 SLP177 T01561189 10161 20083 56013","lat":43.0622,"lon":-108.4471,"elev":1662,"name":"Riverton Rgnl, WY, US","cover":"CLR","clouds":[],"fltCat":"VFR"},{"icaoId":"KSEA","receiptTime":"2026-04-19T00:02:10.759Z","obsTime":1776556380,"reportTime":"2026-04-19T00:00:00.000Z","temp":20,"dewp":1.1,"wdir":260,"wspd":7,"visib":"10+","altim":1014,"slp":1014.3,"qcField":4,"presTend":-1.8,"maxT":20,"minT":12.2,"metarType":"METAR","rawOb":"METAR KSEA 182353Z 26007KT 10SM FEW100 SCT200 20/01 A2994 RMK AO2 SLP143 T02000011 10200 20122 58018","lat":47.4447,"lon":-122.3144,"elev":115,"name":"Seattle-Tacoma Intl, WA, US","cover":"SCT","clouds":[{"cover":"FEW","base":10000},{"cover":"SCT","base":20000}],"fltCat":"VFR"},{"icaoId":"KTUS","receiptTime":"2026-04-19T00:02:13.186Z","obsTime":1776556380,"reportTime":"2026-04-19T00:00:00.000Z","temp":30.6,"dewp":-3.9,"wdir":340,"wspd":4,"visib":"10+","altim":1011.9,"slp":1007.8,"qcField":4,"presTend":-2.2,"maxT":31.1,"minT":26.1,"metarType":"METAR","rawOb":"METAR KTUS 182353Z 34004KT 10SM CLR 31/M04 A2988 RMK AO2 SLP078 T03061039 10311 20261 56022","lat":32.1315,"lon":-110.9564,"elev":776,"name":"Tucson Intl Arpt, AZ, US","cover":"CLR","clouds":[],"fltCat":"VFR"},{"icaoId":"KIAH","receiptTime":"2026-04-19T00:01:53.009Z","obsTime":1776556380,"reportTime":"2026-04-19T00:00:00.000Z","temp":17.8,"dewp":16.1,"wdir":340,"wspd":11,"visib":7,"altim":1017.4,"slp":1017.1,"qcField":4,"presTend":2.8,"maxT":27.8,"minT":17.8,"precip":0.16,"pcp6hr":0.19,"metarType":"METAR","rawOb":"METAR KIAH 182353Z 34011KT 7SM SCT018 BKN050 OVC075 18/16 A3004 RMK AO2 RAE45 TSE30 SLP171 SHRA DSNT ALQDS P0016 60019 T01780161 10278 20178 53028","lat":29.9844,"lon":-95.3607,"elev":27,"name":"Houston/Bush Intl, TX, US","cover":"OVC","clouds":[{"cover":"SCT","base":1800},{"cover":"BKN","base":5000},{"cover":"OVC","base":7500}],"fltCat":"VFR"},{"icaoId":"KICT","receiptTime":"2026-04-19T00:01:53.036Z","obsTime":1776556380,"reportTime":"2026-04-19T00:00:00.000Z","temp":17.2,"dewp":-6.1,"wdir":320,"wspd":10,"visib":"10+","altim":1022.1,"slp":1022,"qcField":12,"presTend":-1.1,"maxT":18.3,"minT":13.3,"metarType":"METAR","rawOb":"METAR KICT 182353Z 32010KT 10SM FEW100 17/M06 A3018 RMK AO2 SLP220 T01721061 10183 20133 55011 $","lat":37.6475,"lon":-97.43,"elev":428,"name":"Wichita/Eisenhower Arpt, KS, US","cover":"FEW","clouds":[{"cover":"FEW","base":10000}],"fltCat":"VFR"},{"icaoId":"KIXD","receiptTime":"2026-04-19T00:01:53.138Z","obsTime":1776556380,"reportTime":"2026-04-19T00:00:00.000Z","temp":12.8,"dewp":-2.8,"wdir":290,"wspd":4,"visib":"10+","altim":1021.8,"slp":1021.8,"qcField":12,"presTend":-0.9,"maxT":14.4,"minT":11.7,"metarType":"METAR","rawOb":"METAR KIXD 182353Z 29004KT 10SM OVC100 13/M03 A3017 RMK AO2 SLP218 T01281028 10144 20117 56009 $","lat":38.8221,"lon":-94.8902,"elev":322,"name":"Olathe/New Century Arpt, KS, US","cover":"OVC","clouds":[{"cover":"OVC","base":10000}],"fltCat":"VFR"},{"icaoId":"KLAR","receiptTime":"2026-04-19T00:02:03.785Z","obsTime":1776556380,"reportTime":"2026-04-19T00:00:00.000Z","temp":8.3,"dewp":-16.7,"wdir":320,"wspd":14,"wgst":21,"visib":"10+","altim":1022.1,"slp":1022.3,"qcField":6,"presTend":0.4,"maxT":9.4,"minT":3.9,"metarType":"METAR","rawOb":"METAR KLAR 182353Z AUTO 32014G21KT 10SM CLR 08/M17 A3018 RMK AO2 SLP223 T00831167 10094 20039 53004","lat":41.3165,"lon":-105.6729,"elev":2217,"name":"Laramie Rgnl, WY, US","cover":"CLR","clouds":[],"fltCat":"VFR"},{"icaoId":"KLOL","receiptTime":"2026-04-19T00:02:04.058Z","obsTime":1776556380,"reportTime":"2026-04-19T00:00:00.000Z","temp":20.6,"dewp":-16.1,"wdir":250,"wspd":6,"visib":"10+","altim":1015,"slp":1014.4,"qcField":6,"presTend":-2.5,"maxT":21.1,"minT":12.8,"metarType":"METAR","rawOb":"METAR KLOL 182353Z AUTO 25006KT 10SM CLR 21/M16 A2997 RMK AO2 SLP144 T02061161 10211 20128 56025","lat":40.0684,"lon":-118.5702,"elev":1191,"name":"Lovelock/Derby Fld, NV, US","cover":"CLR","clouds":[],"fltCat":"VFR"},{"icaoId":"KPAE","receiptTime":"2026-04-19T00:01:52.245Z","obsTime":1776556380,"reportTime":"2026-04-19T00:00:00.000Z","temp":18.3,"dewp":0,"wdir":240,"wspd":7,"visib":"10+","altim":1014,"slp":1014,"qcField":4,"presTend":-1.9,"maxT":18.9,"minT":12.2,"metarType":"METAR","rawOb":"METAR KPAE 182353Z 24007KT 10SM BKN100 18/00 A2994 RMK AO2 SLP140 T01830000 10189 20122 58019","lat":47.9232,"lon":-122.2831,"elev":166,"name":"Everett/Paine Fld, WA, US","cover":"BKN","clouds":[{"cover":"BKN","base":10000}],"fltCat":"VFR"},{"icaoId":"KPIH","receiptTime":"2026-04-19T00:02:06.780Z","obsTime":1776556380,"reportTime":"2026-04-19T00:00:00.000Z","temp":14.4,"dewp":-11.1,"wdir":170,"wspd":7,"visib":"10+","altim":1020.7,"slp":1021.3,"qcField":4,"presTend":-2.2,"maxT":15,"minT":9.4,"metarType":"METAR","rawOb":"METAR KPIH 182353Z 17007KT 10SM CLR 14/M11 A3014 RMK AO2 SLP213 T01441111 10150 20094 56022","lat":42.9197,"lon":-112.5723,"elev":1357,"name":"Pocatello Rgnl, ID, US","cover":"CLR","clouds":[],"fltCat":"VFR"},{"icaoId":"KPIR","receiptTime":"2026-04-19T00:02:06.809Z","obsTime":1776556380,"reportTime":"2026-04-19T00:00:00.000Z","temp":9.4,"dewp":-9.4,"wdir":320,"wspd":12,"visib":"10+","altim":1018.4,"slp":1019.9,"qcField":6,"presTend":-0.3,"maxT":11.1,"minT":6.7,"metarType":"METAR","rawOb":"METAR KPIR 182353Z AUTO 32012KT 10SM FEW100 09/M09 A3007 RMK AO2 PK WND 32026/2302 SLP199 T00941094 10111 20067 57003","lat":44.3819,"lon":-100.2864,"elev":524,"name":"Pierre Muni, SD, US","cover":"FEW","clouds":[{"cover":"FEW","base":10000}],"fltCat":"VFR"},{"icaoId":"KHEI","receiptTime":"2026-04-19T00:01:53.551Z","obsTime":1776556380,"reportTime":"2026-04-19T00:00:00.000Z","temp":7.8,"dewp":-5,"wdir":300,"wspd":18,"wgst":29,"visib":"10+","altim":1017,"slp":1019.8,"qcField":6,"presTend":-0.7,"maxT":9.4,"minT":4.4,"metarType":"METAR","rawOb":"METAR KHEI 182353Z AUTO 30018G29KT 10SM SCT070 BKN090 08/M05 A3003 RMK AO2 PK WND 29030/2303 SLP198 T00781050 10094 20044 55007","lat":46.0108,"lon":-102.6518,"elev":824,"name":"Hettinger Muni, ND, US","cover":"BKN","clouds":[{"cover":"SCT","base":7000},{"cover":"BKN","base":9000}],"fltCat":"VFR"},{"icaoId":"KHIB","receiptTime":"2026-04-19T00:01:53.605Z","obsTime":1776556380,"reportTime":"2026-04-19T00:00:00.000Z","temp":1.1,"dewp":-11.7,"wdir":280,"wspd":13,"wgst":26,"visib":"10+","altim":1011.3,"slp":1013.2,"qcField":14,"presTend":1,"maxT":1.1,"minT":-3.3,"metarType":"METAR","rawOb":"METAR KHIB 182353Z AUTO 28013G26KT 10SM OVC060 01/M12 A2986 RMK AO2 PK WND 28029/2332 SLP132 T00111117 10011 21033 53010 $","lat":47.3804,"lon":-92.8325,"elev":409,"name":"Hibbing/Chisholm Arpt, MN, US","cover":"OVC","clouds":[{"cover":"OVC","base":6000}],"fltCat":"VFR"},{"icaoId":"KHRO","receiptTime":"2026-04-19T00:01:52.836Z","obsTime":1776556380,"reportTime":"2026-04-19T00:00:00.000Z","temp":13.9,"dewp":-3.9,"wdir":330,"wspd":11,"wgst":19,"visib":"10+","altim":1022.1,"slp":1021.8,"qcField":38,"wxString":"-RA","presTend":0.7,"maxT":15,"minT":11.7,"precip":0.005,"pcp6hr":0.005,"metarType":"METAR","rawOb":"METAR KHRO 182353Z AUTO 33011G19KT 10SM -RA CLR 14/M04 A3018 RMK AO2 SLP218 P0000 60000 T01391039 10150 20117 53007 TSNO","lat":36.2673,"lon":-93.1566,"elev":417,"name":"Harrison/Boone Cnty, AR, US","cover":"CLR","clouds":[],"fltCat":"VFR"},{"icaoId":"KHSI","receiptTime":"2026-04-19T00:01:52.849Z","obsTime":1776556380,"reportTime":"2026-04-19T00:00:00.000Z","temp":13.3,"dewp":-8.9,"wdir":320,"wspd":13,"wgst":25,"visib":"10+","altim":1021.1,"slp":1022,"qcField":6,"presTend":0.2,"maxT":15,"minT":10.6,"pcp6hr":0.005,"metarType":"METAR","rawOb":"METAR KHSI 182353Z AUTO 32013G25KT 10SM SCT100 13/M09 A3015 RMK AO2 SLP220 60000 T01331089 10150 20106 53002","lat":40.6002,"lon":-98.4264,"elev":592,"name":"Hastings Muni, NE, US","cover":"SCT","clouds":[{"cover":"SCT","base":10000}],"fltCat":"VFR"},{"icaoId":"KSWO","receiptTime":"2026-04-19T00:01:52.441Z","obsTime":1776556380,"reportTime":"2026-04-19T00:00:00.000Z","temp":16.1,"dewp":-1.7,"wdir":70,"wspd":4,"visib":"10+","altim":1023.8,"slp":1023.2,"qcField":4,"presTend":-0.4,"maxT":17.2,"minT":14.4,"metarType":"METAR","rawOb":"METAR KSWO 182353Z 07004KT 10SM CLR 16/M02 A3023 RMK AO2 SLP232 T01611017 10172 20144 56004","lat":36.1624,"lon":-97.0832,"elev":293,"name":"Stillwater Muni, OK, US","cover":"CLR","clouds":[],"fltCat":"VFR"},{"icaoId":"KMCI","receiptTime":"2026-04-19T00:01:50.841Z","obsTime":1776556380,"reportTime":"2026-04-19T00:00:00.000Z","temp":12.8,"dewp":-4.4,"wdir":290,"wspd":5,"visib":"10+","altim":1021.1,"slp":1021.2,"qcField":12,"presTend":-0.6,"maxT":15,"minT":11.1,"metarType":"METAR","rawOb":"METAR KMCI 182353Z 29005KT 10SM BKN090 13/M04 A3015 RMK AO2 SLP212 DSNT SH SW T01281044 10150 20111 56006 $","lat":39.2975,"lon":-94.7309,"elev":308,"name":"Kansas City Intl, MO, US","cover":"BKN","clouds":[{"cover":"BKN","base":9000}],"fltCat":"VFR"},{"icaoId":"KMFE","receiptTime":"2026-04-19T00:01:50.936Z","obsTime":1776556380,"reportTime":"2026-04-19T00:00:00.000Z","temp":28.3,"dewp":21.1,"wdir":80,"wspd":12,"visib":"10+","altim":1012.6,"slp":1012.3,"qcField":4,"presTend":1.3,"maxT":31.7,"minT":28.3,"metarType":"METAR","rawOb":"METAR KMFE 182353Z 08012KT 10SM CLR 28/21 A2990 RMK AO2 SLP123 T02830211 10317 20283 53013","lat":26.1791,"lon":-98.2445,"elev":29,"name":"McAllen/Miller Intl, TX, US","cover":"CLR","clouds":[],"fltCat":"VFR"},{"icaoId":"KSTJ","receiptTime":"2026-04-19T00:01:52.401Z","obsTime":1776556380,"reportTime":"2026-04-19T00:00:00.000Z","temp":13.9,"dewp":-5.6,"wdir":320,"wspd":8,"visib":"10+","altim":1021.4,"slp":1021.7,"qcField":4,"presTend":-0.3,"maxT":15.6,"minT":11.7,"metarType":"METAR","rawOb":"METAR KSTJ 182353Z 32008KT 10SM BKN090 OVC110 14/M06 A3016 RMK AO2 SLP217 T01391056 10156 20117 55003","lat":39.7683,"lon":-94.9095,"elev":247,"name":"St Joseph/Rosecrans Mem, MO, US","cover":"OVC","clouds":[{"cover":"BKN","base":9000},{"cover":"OVC","base":11000}],"fltCat":"VFR"},{"icaoId":"KTWF","receiptTime":"2026-04-19T00:02:13.246Z","obsTime":1776556380,"reportTime":"2026-04-19T00:00:00.000Z","temp":17.2,"dewp":-10.6,"wdir":130,"wspd":7,"visib":"10+","altim":1018.4,"slp":1016.7,"qcField":4,"presTend":-2.5,"maxT":17.8,"minT":9.4,"metarType":"METAR","rawOb":"METAR KTWF 182353Z 13007KT 10SM CLR 17/M11 A3007 RMK AO2 SLP167 T01721106 10178 20094 56025","lat":42.4785,"lon":-114.4775,"elev":1269,"name":"Twin Falls/Joslin Fld, ID, US","cover":"CLR","clouds":[],"fltCat":"VFR"},{"icaoId":"KPGA","receiptTime":"2026-04-19T00:02:06.740Z","obsTime":1776556380,"reportTime":"2026-04-19T00:00:00.000Z","temp":16.7,"dewp":-16.7,"wdir":50,"wspd":8,"visib":"10+","altim":1021.1,"slp":1018.7,"qcField":14,"presTend":-2.5,"maxT":16.7,"minT":11.7,"metarType":"METAR","rawOb":"METAR KPGA 182353Z AUTO 05008KT 10SM CLR 17/M17 A3015 RMK AO2 SLP187 T01671167 10167 20117 56025 $","lat":36.9211,"lon":-111.4487,"elev":1310,"name":"Page Muni, AZ, US","cover":"CLR","clouds":[],"fltCat":"VFR"},{"icaoId":"KPUW","receiptTime":"2026-04-19T00:02:07.043Z","obsTime":1776556380,"reportTime":"2026-04-19T00:00:00.000Z","temp":16.1,"dewp":0,"wdir":120,"wspd":6,"visib":"10+","altim":1018,"slp":1018.5,"qcField":6,"presTend":-1.8,"maxT":16.1,"minT":9.4,"metarType":"METAR","rawOb":"METAR KPUW 182353Z AUTO 12006KT 10SM CLR 16/00 A3006 RMK AO2 SLP185 T01610000 10161 20094 56018","lat":46.7438,"lon":-117.1158,"elev":774,"name":"Pullman/Moscow Rgnl, WA, US","cover":"CLR","clouds":[],"fltCat":"VFR"},{"icaoId":"KRDD","receiptTime":"2026-04-19T00:02:10.424Z","obsTime":1776556380,"reportTime":"2026-04-19T00:00:00.000Z","temp":25,"dewp":2.8,"wdir":190,"wspd":4,"visib":"10+","altim":1011.9,"slp":1011.6,"qcField":12,"presTend":-2.2,"maxT":25,"minT":18.9,"metarType":"METAR","rawOb":"METAR KRDD 182353Z 19004KT 10SM CLR 25/03 A2988 RMK AO2 SLP116 T02500028 10250 20189 58022 $","lat":40.5146,"lon":-122.2977,"elev":152,"name":"Redding Muni, CA, US","cover":"CLR","clouds":[],"fltCat":"VFR"},{"icaoId":"KTUL","receiptTime":"2026-04-19T00:01:52.733Z","obsTime":1776556380,"reportTime":"2026-04-19T00:00:00.000Z","temp":16.1,"dewp":-0.6,"wdir":70,"wspd":6,"visib":"10+","altim":1023.8,"slp":1023.6,"qcField":12,"presTend":-0.1,"maxT":17.2,"minT":14.4,"metarType":"METAR","rawOb":"METAR KTUL 182353Z 07006KT 10SM FEW250 16/M01 A3023 RMK AO2 SLP236 FU DSNT N-NE T01611006 10172 20144 56001 $","lat":36.1985,"lon":-95.8782,"elev":196,"name":"Tulsa Intl Arpt, OK, US","cover":"FEW","clouds":[{"cover":"FEW","base":25000}],"fltCat":"VFR"},{"icaoId":"KONT","receiptTime":"2026-04-19T00:01:52.117Z","obsTime":1776556380,"reportTime":"2026-04-19T00:00:00.000Z","temp":28.3,"dewp":0.6,"wdir":250,"wspd":14,"wgst":21,"visib":"10+","altim":1011.9,"slp":1010.6,"qcField":12,"presTend":-1.7,"maxT":30,"minT":25,"metarType":"METAR","rawOb":"METAR KONT 182353Z 25014G21KT 10SM SCT250 28/01 A2988 RMK AO2 SLP106 T02830006 10300 20250 56017 $","lat":34.0531,"lon":-117.5769,"elev":279,"name":"Ontario Intl, CA, US","cover":"SCT","clouds":[{"cover":"SCT","base":25000}],"fltCat":"VFR"},{"icaoId":"KAMA","receiptTime":"2026-04-19T00:01:57.378Z","obsTime":1776556380,"reportTime":"2026-04-19T00:00:00.000Z","temp":15.6,"dewp":-11.7,"wdir":"VRB","wspd":3,"visib":"10+","altim":1024.5,"slp":1023.4,"qcField":4,"presTend":-0.6,"maxT":17.2,"minT":12.2,"metarType":"METAR","rawOb":"METAR KAMA 182353Z VRB03KT 10SM CLR 16/M12 A3025 RMK AO2 SLP234 T01561117 10172 20122 55006","lat":35.2203,"lon":-101.7173,"elev":1102,"name":"Amarillo Intl Arpt, TX, US","cover":"CLR","clouds":[],"fltCat":"VFR"},{"icaoId":"KBLI","receiptTime":"2026-04-19T00:01:54.827Z","obsTime":1776556380,"reportTime":"2026-04-19T00:00:00.000Z","temp":17.2,"dewp":3.9,"wdir":310,"wspd":4,"visib":"10+","altim":1014,"slp":1014.7,"qcField":6,"presTend":-1.8,"maxT":17.8,"minT":12.8,"metarType":"METAR","rawOb":"METAR KBLI 182353Z AUTO 31004KT 10SM OVC090 17/04 A2994 RMK AO2 SLP147 T01720039 10178 20128 58018","lat":48.7991,"lon":-122.5407,"elev":46,"name":"Bellingham Intl, WA, US","cover":"OVC","clouds":[{"cover":"OVC","base":9000}],"fltCat":"VFR"},{"icaoId":"KBPK","receiptTime":"2026-04-19T00:01:54.928Z","obsTime":1776556380,"reportTime":"2026-04-19T00:00:00.000Z","temp":13.9,"dewp":-2.2,"wdir":360,"wspd":7,"visib":"10+","altim":1021.4,"slp":1021,"qcField":142,"presTend":0.9,"maxT":15,"minT":11.1,"metarType":"METAR","rawOb":"METAR KBPK 182353Z AUTO 36007KT 10SM CLR 14/M02 A3016 RMK AO2 SLP210 T01391022 10150 20111 53009 PWINO $","lat":36.3706,"lon":-92.4719,"elev":279,"name":"Mountain Home/Baxter Cnty, AR, US","cover":"CLR","clouds":[],"fltCat":"VFR"},{"icaoId":"KBRD","receiptTime":"2026-04-19T00:01:54.957Z","obsTime":1776556380,"reportTime":"2026-04-19T00:00:00.000Z","temp":5,"dewp":-12.8,"wdir":310,"wspd":11,"wgst":26,"visib":"10+","altim":1013.6,"slp":1015.2,"qcField":14,"presTend":0.9,"maxT":6.1,"minT":1.7,"metarType":"METAR","rawOb":"METAR KBRD 182353Z AUTO 31011G26KT 10SM SCT075 05/M13 A2993 RMK AO2 PK WND 27028/2313 SLP152 T00501128 10061 20017 53009 $","lat":46.4021,"lon":-94.1273,"elev":372,"name":"Brainerd/Lakes Rgnl, MN, US","cover":"SCT","clouds":[{"cover":"SCT","base":7500}],"fltCat":"VFR"},{"icaoId":"KBRL","receiptTime":"2026-04-19T00:01:54.971Z","obsTime":1776556380,"reportTime":"2026-04-19T00:00:00.000Z","temp":10,"dewp":-5.6,"wdir":320,"wspd":12,"wgst":26,"visib":"10+","altim":1019.4,"slp":1019.7,"qcField":14,"presTend":0.9,"maxT":11.1,"minT":8.9,"metarType":"METAR","rawOb":"METAR KBRL 182353Z AUTO 32012G26KT 10SM CLR 10/M06 A3010 RMK AO2 PK WND 33030/2255 SLP197 T01001056 10111 20089 53009 $","lat":40.7729,"lon":-91.1255,"elev":208,"name":"Burlington/SE Iowa Rgnl, IA, US","cover":"CLR","clouds":[],"fltCat":"VFR"},{"icaoId":"KBRO","receiptTime":"2026-04-19T00:01:54.987Z","obsTime":1776556380,"reportTime":"2026-04-19T00:00:00.000Z","temp":27.2,"dewp":22.2,"wdir":90,"wspd":11,"visib":"10+","altim":1012.6,"slp":1012.4,"qcField":4,"presTend":1.1,"maxT":31.7,"minT":27.2,"metarType":"METAR","rawOb":"METAR KBRO 182353Z 09011KT 10SM FEW070 27/22 A2990 RMK AO2 SLP124 T02720222 10317 20272 53011","lat":25.9146,"lon":-97.4231,"elev":6,"name":"Brownsville Intl, TX, US","cover":"FEW","clouds":[{"cover":"FEW","base":7000}],"fltCat":"VFR"},{"icaoId":"KCLT","receiptTime":"2026-04-19T00:01:47.742Z","obsTime":1776556320,"reportTime":"2026-04-19T00:00:00.000Z","temp":27.8,"dewp":12.8,"wdir":220,"wspd":7,"visib":"10+","altim":1011.6,"slp":1012.1,"qcField":4,"presTend":-1,"maxT":32.2,"minT":27.8,"metarType":"METAR","rawOb":"METAR KCLT 182352Z 22007KT 10SM BKN250 28/13 A2987 RMK AO2 SLP121 T02780128 10322 20278 56010","lat":35.2225,"lon":-80.9543,"elev":223,"name":"Charlotte/Douglas Intl, NC, US","cover":"BKN","clouds":[{"cover":"BKN","base":25000}],"fltCat":"VFR"},{"icaoId":"KIAD","receiptTime":"2026-04-19T00:01:48.015Z","obsTime":1776556320,"reportTime":"2026-04-19T00:00:00.000Z","temp":23.3,"dewp":14.4,"wdir":130,"wspd":13,"wgst":20,"visib":"10+","altim":1008.5,"slp":1008.3,"qcField":12,"presTend":-1.1,"maxT":28.9,"minT":23.3,"metarType":"METAR","rawOb":"METAR KIAD 182352Z 13013G20KT 10SM SCT220 BKN250 23/14 A2978 RMK AO2 SLP083 T02330144 10289 20233 58011 $","lat":38.9348,"lon":-77.4473,"elev":90,"name":"Washington/Dulles Intl, VA, US","cover":"BKN","clouds":[{"cover":"SCT","base":22000},{"cover":"BKN","base":25000}],"fltCat":"VFR"},{"icaoId":"KHRL","receiptTime":"2026-04-19T00:01:47.989Z","obsTime":1776556320,"reportTime":"2026-04-19T00:00:00.000Z","temp":26.1,"dewp":22.2,"wdir":90,"wspd":14,"visib":"10+","altim":1013,"slp":1012.6,"qcField":4,"presTend":1.6,"maxT":30,"minT":26.1,"metarType":"METAR","rawOb":"METAR KHRL 182352Z 09014KT 10SM FEW020 SCT060 26/22 A2991 RMK AO2 SLP126 T02610222 10300 20261 53016","lat":26.2303,"lon":-97.6556,"elev":9,"name":"Harlingen/Valley Intl, TX, US","cover":"SCT","clouds":[{"cover":"FEW","base":2000},{"cover":"SCT","base":6000}],"fltCat":"VFR"},{"icaoId":"KOMA","receiptTime":"2026-04-19T00:01:54.261Z","obsTime":1776556320,"reportTime":"2026-04-19T00:00:00.000Z","temp":12.2,"dewp":-5.6,"wdir":310,"wspd":12,"visib":"10+","altim":1020.4,"slp":1020.6,"qcField":12,"presTend":-0.3,"maxT":13.3,"minT":9.4,"metarType":"METAR","rawOb":"METAR KOMA 182352Z 31012KT 10SM SCT100 12/M06 A3013 RMK AO2 PK WND 28026/2320 SLP206 T01221056 10133 20094 58003 $","lat":41.3119,"lon":-95.9018,"elev":299,"name":"Omaha/Eppley Fld, NE, US","cover":"SCT","clouds":[{"cover":"SCT","base":10000}],"fltCat":"VFR"},{"icaoId":"KMHK","receiptTime":"2026-04-19T00:01:48.252Z","obsTime":1776556320,"reportTime":"2026-04-19T00:00:00.000Z","temp":15.6,"dewp":-5,"wdir":340,"wspd":7,"visib":"10+","altim":1021.4,"slp":1021.7,"qcField":12,"presTend":-0.6,"maxT":16.7,"minT":12.8,"metarType":"METAR","rawOb":"METAR KMHK 182352Z 34007KT 10SM CLR 16/M05 A3016 RMK AO2 SLP217 T01561050 10167 20128 55006 $","lat":39.1346,"lon":-96.6789,"elev":320,"name":"Manhattan Rgnl, KS, US","cover":"CLR","clouds":[],"fltCat":"VFR"},{"icaoId":"KDDC","receiptTime":"2026-04-19T00:01:47.829Z","obsTime":1776556320,"reportTime":"2026-04-19T00:00:00.000Z","temp":16.7,"dewp":-13.3,"wdir":320,"wspd":10,"visib":8,"altim":1022.8,"slp":1022.6,"qcField":6,"presTend":-0.2,"maxT":17.8,"minT":13.3,"metarType":"METAR","rawOb":"METAR KDDC 182352Z AUTO 32010KT 8SM CLR 17/M13 A3020 RMK AO2 SLP226 T01671133 10178 20133 55002","lat":37.7711,"lon":-99.9692,"elev":786,"name":"Dodge City Arpt, KS, US","cover":"CLR","clouds":[],"fltCat":"VFR"},{"icaoId":"KRAP","receiptTime":"2026-04-19T00:01:54.379Z","obsTime":1776556320,"reportTime":"2026-04-19T00:00:00.000Z","temp":9.4,"dewp":-5.6,"wdir":360,"wspd":10,"visib":"10+","altim":1019,"slp":1021.3,"qcField":4,"presTend":-0.8,"maxT":10.6,"minT":3.9,"pcp6hr":0.005,"metarType":"METAR","rawOb":"METAR KRAP 182352Z 36010KT 10SM FEW075 09/M06 A3009 RMK AO2 SLP213 60000 T00941056 10106 20039 56008","lat":44.0458,"lon":-103.0544,"elev":965,"name":"Rapid City Rgnl, SD, US","cover":"FEW","clouds":[{"cover":"FEW","base":7500}],"fltCat":"VFR"},{"icaoId":"KSUX","receiptTime":"2026-04-19T00:01:54.518Z","obsTime":1776556320,"reportTime":"2026-04-19T00:00:00.000Z","temp":10.6,"dewp":-11.7,"wdir":320,"wspd":19,"wgst":27,"visib":"10+","altim":1019,"slp":1019.9,"qcField":4,"presTend":-0.4,"maxT":12.2,"minT":8.3,"metarType":"METAR","rawOb":"METAR KSUX 182352Z 32019G27KT 10SM CLR 11/M12 A3009 RMK AO2 PK WND 32029/2316 SLP199 T01061117 10122 20083 55004","lat":42.3917,"lon":-96.3795,"elev":332,"name":"Sioux City/Day Fld, IA, US","cover":"CLR","clouds":[],"fltCat":"VFR"},{"icaoId":"KATL","receiptTime":"2026-04-19T00:01:47.584Z","obsTime":1776556320,"reportTime":"2026-04-19T00:00:00.000Z","temp":25,"dewp":13.3,"wdir":230,"wspd":10,"visib":"10+","altim":1014.6,"slp":1013.5,"qcField":12,"presTend":-0.1,"maxT":28.9,"minT":25,"metarType":"METAR","rawOb":"METAR KATL 182352Z 23010KT 10SM FEW150 SCT200 BKN250 25/13 A2996 RMK AO2 SLP135 T02500133 10289 20250 55001 $","lat":33.6297,"lon":-84.4422,"elev":309,"name":"Atlanta/Hartsfield-Jackson Intl, GA, US","cover":"BKN","clouds":[{"cover":"FEW","base":15000},{"cover":"SCT","base":20000},{"cover":"BKN","base":25000}],"fltCat":"VFR"},{"icaoId":"KMBG","receiptTime":"2026-04-19T00:01:48.176Z","obsTime":1776556320,"reportTime":"2026-04-19T00:00:00.000Z","temp":8.9,"dewp":-6.7,"wdir":300,"wspd":14,"wgst":21,"visib":"10+","altim":1016,"slp":1017.5,"qcField":6,"presTend":-1.2,"maxT":10.6,"minT":4.4,"metarType":"METAR","rawOb":"METAR KMBG 182352Z AUTO 30014G21KT 10SM OVC090 09/M07 A3000 RMK AO2 SLP175 T00891067 10106 20044 56012","lat":45.543,"lon":-100.404,"elev":515,"name":"Mobridge Muni, SD, US","cover":"OVC","clouds":[{"cover":"OVC","base":9000}],"fltCat":"VFR"},{"icaoId":"KDCA","receiptTime":"2026-04-19T00:01:47.814Z","obsTime":1776556320,"reportTime":"2026-04-19T00:00:00.000Z","temp":21.1,"dewp":13.3,"wdir":130,"wspd":11,"visib":"10+","altim":1009.9,"slp":1009.7,"qcField":4,"presTend":-0.9,"maxT":26.7,"minT":21.1,"metarType":"METAR","rawOb":"METAR KDCA 182352Z 13011KT 10SM SCT150 BKN250 21/13 A2982 RMK AO2 SLP097 T02110133 10267 20211 58009","lat":38.8472,"lon":-77.0345,"elev":4,"name":"Washington/Reagan-National Arpt, VA, US","cover":"BKN","clouds":[{"cover":"SCT","base":15000},{"cover":"BKN","base":25000}],"fltCat":"VFR"},{"icaoId":"KABQ","receiptTime":"2026-04-19T00:01:47.526Z","obsTime":1776556320,"reportTime":"2026-04-19T00:00:00.000Z","temp":17.8,"dewp":-15,"wdir":0,"wspd":0,"visib":"10+","altim":1021.8,"slp":1018.1,"qcField":12,"presTend":-1.4,"maxT":18.3,"minT":11.7,"metarType":"METAR","rawOb":"METAR KABQ 182352Z 00000KT 10SM FEW250 18/M15 A3017 RMK AO2 SLP181 T01781150 10183 20117 56014 $","lat":35.0419,"lon":-106.6154,"elev":1620,"name":"Albuquerque Intl, NM, US","cover":"FEW","clouds":[{"cover":"FEW","base":25000}],"fltCat":"VFR"},{"icaoId":"KSPS","receiptTime":"2026-04-19T00:01:54.501Z","obsTime":1776556320,"reportTime":"2026-04-19T00:00:00.000Z","temp":17.8,"dewp":-2.2,"wdir":30,"wspd":15,"visib":"10+","altim":1024.1,"slp":1023.5,"qcField":6,"presTend":-0.3,"maxT":18.9,"minT":16.7,"metarType":"METAR","rawOb":"METAR KSPS 182352Z AUTO 03015KT 10SM CLR 18/M02 A3024 RMK AO2 SLP235 T01781022 10189 20167 55003","lat":33.9785,"lon":-98.493,"elev":310,"name":"Wichita Falls Rgnl, TX, US","cover":"CLR","clouds":[],"fltCat":"VFR"},{"icaoId":"KCNU","receiptTime":"2026-04-19T00:01:47.756Z","obsTime":1776556320,"reportTime":"2026-04-19T00:00:00.000Z","temp":14.4,"dewp":-1.1,"wdir":300,"wspd":3,"visib":"10+","altim":1022.8,"slp":1022.7,"qcField":14,"presTend":-0.9,"maxT":15.6,"minT":11.7,"metarType":"METAR","rawOb":"METAR KCNU 182352Z AUTO 30003KT 10SM CLR 14/M01 A3020 RMK AO2 SLP227 T01441011 10156 20117 58009 $","lat":37.6705,"lon":-95.4846,"elev":301,"name":"Chanute/Johnson Arpt, KS, US","cover":"CLR","clouds":[],"fltCat":"VFR"},{"icaoId":"KMLF","receiptTime":"2026-04-19T00:01:48.284Z","obsTime":1776556320,"reportTime":"2026-04-19T00:00:00.000Z","temp":18.3,"dewp":-16.7,"wdir":10,"wspd":11,"wgst":17,"visib":"10+","altim":1019.4,"slp":1018.1,"qcField":6,"presTend":-2.2,"maxT":18.9,"minT":10,"metarType":"METAR","rawOb":"METAR KMLF 182352Z AUTO 01011G17KT 10SM CLR 18/M17 A3010 RMK AO2 SLP181 T01831167 10189 20100 56022","lat":38.4225,"lon":-113.0109,"elev":1537,"name":"Milford Muni, UT, US","cover":"CLR","clouds":[],"fltCat":"VFR"},{"icaoId":"KCVG","receiptTime":"2026-04-19T00:01:47.784Z","obsTime":1776556320,"reportTime":"2026-04-19T00:00:00.000Z","temp":8.9,"dewp":3.9,"wdir":300,"wspd":10,"visib":"10+","altim":1016,"slp":1015.5,"qcField":4,"presTend":2.1,"maxT":17.2,"minT":8.9,"pcp6hr":0.01,"metarType":"METAR","rawOb":"METAR KCVG 182352Z 30010KT 10SM OVC055 09/04 A3000 RMK AO2 SLP155 60001 T00890039 10172 20089 53021","lat":39.0444,"lon":-84.6724,"elev":264,"name":"Cincinnati Intl, KY, US","cover":"OVC","clouds":[{"cover":"OVC","base":5500}],"fltCat":"VFR"},{"icaoId":"KMKE","receiptTime":"2026-04-19T00:01:48.270Z","obsTime":1776556320,"reportTime":"2026-04-19T00:00:00.000Z","temp":7.2,"dewp":-6.1,"wdir":270,"wspd":17,"wgst":28,"visib":"10+","altim":1014.3,"slp":1014.5,"qcField":4,"presTend":2.7,"maxT":10,"minT":7.2,"metarType":"METAR","rawOb":"METAR KMKE 182352Z 27017G28KT 10SM BKN060 07/M06 A2995 RMK AO2 PK WND 27031/2316 SLP145 T00721061 10100 20072 53027","lat":42.9549,"lon":-87.9045,"elev":203,"name":"Milwaukee/Mitchell Intl, WI, US","cover":"BKN","clouds":[{"cover":"BKN","base":6000}],"fltCat":"VFR"},{"icaoId":"KABI","receiptTime":"2026-04-19T00:01:47.513Z","obsTime":1776556320,"reportTime":"2026-04-19T00:00:00.000Z","temp":16.1,"dewp":1.7,"wdir":80,"wspd":8,"visib":"10+","altim":1024.1,"slp":1023.2,"qcField":12,"presTend":0.5,"maxT":17.2,"minT":12.2,"metarType":"METAR","rawOb":"METAR KABI 182352Z 08008KT 10SM CLR 16/02 A3024 RMK AO2 SLP232 T01610017 10172 20122 53005 $","lat":32.4106,"lon":-99.6821,"elev":543,"name":"Abilene Rgnl, TX, US","cover":"CLR","clouds":[],"fltCat":"VFR"},{"icaoId":"KOKC","receiptTime":"2026-04-19T00:01:54.246Z","obsTime":1776556320,"reportTime":"2026-04-19T00:00:00.000Z","temp":16.1,"dewp":-3.3,"wdir":10,"wspd":10,"visib":"10+","altim":1023.8,"slp":1023.6,"qcField":4,"presTend":0.1,"maxT":17.2,"minT":14.4,"metarType":"METAR","rawOb":"METAR KOKC 182352Z 01010KT 10SM FEW250 16/M03 A3023 RMK AO2 SLP236 T01611033 10172 20144 51001","lat":35.3843,"lon":-97.6003,"elev":391,"name":"Oklahoma City/Will Rogers Intl, OK, US","cover":"FEW","clouds":[{"cover":"FEW","base":25000}],"fltCat":"VFR"},{"icaoId":"KSGF","receiptTime":"2026-04-19T00:01:54.449Z","obsTime":1776556320,"reportTime":"2026-04-19T00:00:00.000Z","temp":12.8,"dewp":-2.2,"wdir":310,"wspd":10,"visib":"10+","altim":1022.4,"slp":1022.4,"qcField":4,"presTend":0.7,"maxT":14.4,"minT":11.1,"metarType":"METAR","rawOb":"METAR KSGF 182352Z 31010KT 10SM CLR 13/M02 A3019 RMK AO2 SLP224 T01281022 10144 20111 53007","lat":37.2398,"lon":-93.3899,"elev":387,"name":"Springfield Muni, MO, US","cover":"CLR","clouds":[],"fltCat":"VFR"},{"icaoId":"KHUT","receiptTime":"2026-04-19T00:01:48.002Z","obsTime":1776556320,"reportTime":"2026-04-19T00:00:00.000Z","temp":17.2,"dewp":-7.2,"wdir":300,"wspd":11,"wgst":20,"visib":"10+","altim":1021.8,"slp":1021.1,"qcField":12,"presTend":-0.9,"maxT":17.8,"minT":13.9,"metarType":"METAR","rawOb":"METAR KHUT 182352Z 30011G20KT 10SM CLR 17/M07 A3017 RMK AO2 SLP211 T01721072 10178 20139 55009 $","lat":38.0682,"lon":-97.8607,"elev":464,"name":"Hutchinson Muni, KS, US","cover":"CLR","clouds":[],"fltCat":"VFR"},{"icaoId":"KCID","receiptTime":"2026-04-19T00:01:47.716Z","obsTime":1776556320,"reportTime":"2026-04-19T00:00:00.000Z","temp":8.3,"dewp":-7.8,"wdir":280,"wspd":17,"wgst":24,"visib":"10+","altim":1018,"slp":1018.6,"qcField":4,"presTend":0.7,"maxT":10,"minT":6.7,"metarType":"METAR","rawOb":"METAR KCID 182352Z 28017G24KT 10SM CLR 08/M08 A3006 RMK AO2 PK WND 29029/2256 SLP186 T00831078 10100 20067 53007","lat":41.8829,"lon":-91.7246,"elev":257,"name":"Cedar Rapids/E Iowa Arpt, IA, US","cover":"CLR","clouds":[],"fltCat":"VFR"},{"icaoId":"KBIS","receiptTime":"2026-04-19T00:01:47.612Z","obsTime":1776556320,"reportTime":"2026-04-19T00:00:00.000Z","temp":6.1,"dewp":-2.2,"wdir":300,"wspd":12,"wgst":23,"visib":"10+","altim":1017,"slp":1019,"qcField":12,"presTend":0.4,"maxT":8.9,"minT":2.2,"metarType":"METAR","rawOb":"METAR KBIS 182352Z 30012G23KT 10SM FEW046 OVC055 06/M02 A3003 RMK AO2 PK WND 31029/2309 SLP190 T00611022 10089 20022 53004 $","lat":46.7823,"lon":-100.7575,"elev":506,"name":"Bismarck Arpt, ND, US","cover":"OVC","clouds":[{"cover":"FEW","base":4600},{"cover":"OVC","base":5500}],"fltCat":"VFR"},{"icaoId":"KOXR","receiptTime":"2026-04-18T23:54:08.156Z","obsTime":1776556260,"reportTime":"2026-04-19T00:00:00.000Z","temp":21.7,"dewp":7.8,"wdir":"VRB","wspd":3,"visib":"10+","altim":1013,"slp":1012.7,"qcField":12,"presTend":-1.4,"maxT":22.8,"minT":20,"metarType":"METAR","rawOb":"METAR KOXR 182351Z VRB03KT 10SM CLR 22/08 A2991 RMK AO2 SLP127 T02170078 10228 20200 57014 $","lat":34.2001,"lon":-119.2042,"elev":12,"name":"Oxnard Arpt, CA, US","cover":"CLR","clouds":[],"fltCat":"VFR"},{"icaoId":"KELP","receiptTime":"2026-04-18T23:54:10.353Z","obsTime":1776556260,"reportTime":"2026-04-19T00:00:00.000Z","temp":21.1,"dewp":-5.6,"wdir":120,"wspd":14,"wgst":27,"visib":"10+","altim":1019.7,"slp":1014.6,"qcField":4,"presTend":-0.6,"maxT":23.3,"minT":18.9,"metarType":"METAR","rawOb":"METAR KELP 182351Z 12014G27KT 10SM FEW250 21/M06 A3011 RMK AO2 PK WND 10027/2346 SLP146 T02111056 10233 20189 55006","lat":31.8123,"lon":-106.3774,"elev":1205,"name":"El Paso Intl, TX, US","cover":"FEW","clouds":[{"cover":"FEW","base":25000}],"fltCat":"VFR"},{"icaoId":"KCMH","receiptTime":"2026-04-18T23:54:10.003Z","obsTime":1776556260,"reportTime":"2026-04-19T00:00:00.000Z","temp":11.1,"dewp":5.6,"wdir":280,"wspd":13,"visib":"10+","altim":1013.3,"slp":1013,"qcField":4,"presTend":3.8,"maxT":18.9,"minT":11.1,"precip":0.005,"pcp6hr":0.05,"metarType":"METAR","rawOb":"METAR KCMH 182351Z 28013KT 10SM OVC044 11/06 A2992 RMK AO2 RAE07 SLP130 P0000 60005 T01110056 10189 20111 51038","lat":39.9907,"lon":-82.877,"elev":257,"name":"Columbus/Glenn Intl, OH, US","cover":"OVC","clouds":[{"cover":"OVC","base":4400}],"fltCat":"VFR"},{"icaoId":"KORF","receiptTime":"2026-04-18T23:54:08.128Z","obsTime":1776556260,"reportTime":"2026-04-19T00:00:00.000Z","temp":25,"dewp":14.4,"wdir":170,"wspd":8,"visib":"10+","altim":1011.6,"slp":1011.4,"qcField":4,"presTend":-0.4,"maxT":27.8,"minT":25,"metarType":"METAR","rawOb":"METAR KORF 182351Z 17008KT 10SM CLR 25/14 A2987 RMK AO2 SLP114 T02500144 10278 20250 56004","lat":36.9037,"lon":-76.1927,"elev":5,"name":"Norfolk Intl, VA, US","cover":"CLR","clouds":[],"fltCat":"VFR"},{"icaoId":"KMYL","receiptTime":"2026-04-18T23:54:08.075Z","obsTime":1776556260,"reportTime":"2026-04-19T00:00:00.000Z","temp":9.4,"dewp":-6.1,"wdir":160,"wspd":5,"wgst":14,"visib":"10+","altim":1020.1,"slp":1021.3,"qcField":6,"presTend":-1.8,"maxT":10,"minT":3.3,"metarType":"METAR","rawOb":"METAR KMYL 182351Z AUTO 16005G14KT 10SM CLR 09/M06 A3012 RMK AO2 SLP213 T00941061 10100 20033 56018","lat":44.8943,"lon":-116.0998,"elev":1532,"name":"McCall Muni, ID, US","cover":"CLR","clouds":[],"fltCat":"VFR"},{"icaoId":"KORD","receiptTime":"2026-04-18T23:54:08.102Z","obsTime":1776556260,"reportTime":"2026-04-19T00:00:00.000Z","temp":7.8,"dewp":-5,"wdir":270,"wspd":21,"wgst":32,"visib":"10+","altim":1015.3,"slp":1015.5,"qcField":12,"presTend":2.3,"maxT":10.6,"minT":7.8,"metarType":"METAR","rawOb":"METAR KORD 182351Z 27021G32KT 10SM SCT050 SCT250 08/M05 A2998 RMK AO2 PK WND 27034/2313 SLP155 T00781050 10106 20078 53023 $","lat":41.9602,"lon":-87.9316,"elev":202,"name":"Chicago/O'Hare Intl, IL, US","cover":"SCT","clouds":[{"cover":"SCT","base":5000},{"cover":"SCT","base":25000}],"fltCat":"VFR"},{"icaoId":"KLGU","receiptTime":"2026-04-18T23:54:07.838Z","obsTime":1776556260,"reportTime":"2026-04-19T00:00:00.000Z","temp":12.2,"dewp":-6.7,"wdir":360,"wspd":3,"visib":"10+","altim":1022.1,"slp":1022.2,"qcField":6,"presTend":-1.9,"maxT":12.2,"minT":7.2,"metarType":"METAR","rawOb":"METAR KLGU 182351Z AUTO 36003KT 10SM CLR 12/M07 A3018 RMK AO2 SLP222 T01221067 10122 20072 56019","lat":41.7865,"lon":-111.8519,"elev":1359,"name":"Logan/Cache Arpt, UT, US","cover":"CLR","clouds":[],"fltCat":"VFR"},{"icaoId":"KLGA","receiptTime":"2026-04-18T23:54:07.800Z","obsTime":1776556260,"reportTime":"2026-04-19T00:00:00.000Z","temp":12.2,"dewp":8.9,"wdir":130,"wspd":12,"visib":"10+","altim":1015,"slp":1014.8,"qcField":12,"presTend":-0.7,"maxT":17.2,"minT":12.2,"metarType":"METAR","rawOb":"METAR KLGA 182351Z 13012KT 10SM FEW009 BKN012 OVC070 12/09 A2997 RMK AO2 SLP148 T01220089 10172 20122 55007 $","lat":40.7794,"lon":-73.8803,"elev":9,"name":"New York/La Guardia Arpt, NY, US","cover":"OVC","clouds":[{"cover":"FEW","base":900},{"cover":"BKN","base":1200},{"cover":"OVC","base":7000}],"fltCat":"MVFR"},{"icaoId":"KBDL","receiptTime":"2026-04-18T23:54:09.522Z","obsTime":1776556260,"reportTime":"2026-04-19T00:00:00.000Z","temp":15,"dewp":10,"wdir":120,"wspd":9,"visib":"10+","altim":1014,"slp":1013.9,"qcField":4,"presTend":-2,"maxT":17.2,"minT":15,"metarType":"METAR","rawOb":"METAR KBDL 182351Z 12009KT 10SM OVC026 15/10 A2994 RMK AO2 SLP139 T01500100 10172 20150 57020","lat":41.9374,"lon":-72.682,"elev":52,"name":"Hartford/Bradley Intl, CT, US","cover":"OVC","clouds":[{"cover":"OVC","base":2600}],"fltCat":"MVFR"},{"icaoId":"KIGM","receiptTime":"2026-04-18T23:54:07.690Z","obsTime":1776556260,"reportTime":"2026-04-19T00:00:00.000Z","temp":25,"dewp":-13.9,"wdir":240,"wspd":9,"wgst":15,"visib":"10+","altim":1015.3,"slp":1010.4,"qcField":6,"presTend":-1.7,"maxT":25.6,"minT":20.6,"metarType":"METAR","rawOb":"METAR KIGM 182351Z AUTO 24009G15KT 10SM CLR 25/M14 A2998 RMK AO2 SLP104 T02501139 10256 20206 56017","lat":35.2575,"lon":-113.9341,"elev":1045,"name":"Kingman Arpt, AZ, US","cover":"CLR","clouds":[],"fltCat":"VFR"},{"icaoId":"KXWA","receiptTime":"2026-04-18T23:54:07.372Z","obsTime":1776556260,"reportTime":"2026-04-19T00:00:00.000Z","temp":7.2,"dewp":-6.7,"wdir":340,"wspd":18,"visib":"10+","altim":1016.7,"slp":1020.1,"qcField":6,"presTend":-0.2,"maxT":8.9,"minT":3.9,"pcp6hr":0.005,"metarType":"METAR","rawOb":"METAR KXWA 182351Z AUTO 34018KT 10SM OVC065 07/M07 A3002 RMK AO2 PK WND 32029/2259 SLP201 60000 T00721067 10089 20039 55002","lat":48.2542,"lon":-103.7469,"elev":717,"name":"Williston/Basin Intl, ND, US","cover":"OVC","clouds":[{"cover":"OVC","base":6500}],"fltCat":"VFR"},{"icaoId":"KGEU","receiptTime":"2026-04-18T23:52:34.077Z","obsTime":1776556260,"reportTime":"2026-04-19T00:00:00.000Z","temp":31,"dewp":-13,"wdir":0,"wspd":0,"visib":"10+","altim":1009.6,"qcField":0,"metarType":"METAR","rawOb":"METAR KGEU 182351Z 00000KT 10SM CLR 31/M13 A2981","lat":33.528,"lon":-112.293,"elev":319,"name":"Glendale Muni, AZ, US","cover":"CLR","clouds":[],"fltCat":"VFR"},{"icaoId":"KEWR","receiptTime":"2026-04-18T23:54:10.451Z","obsTime":1776556260,"reportTime":"2026-04-19T00:00:00.000Z","temp":11.1,"dewp":8.9,"wdir":140,"wspd":7,"wgst":15,"visib":"10+","altim":1015.3,"slp":1015.2,"qcField":4,"presTend":-0.7,"maxT":16.1,"minT":11.1,"metarType":"METAR","rawOb":"METAR KEWR 182351Z 14007G15KT 10SM OVC008 11/09 A2998 RMK AO2 SLP152 T01110089 10161 20111 56007","lat":40.6828,"lon":-74.1692,"elev":2,"name":"Newark Intl, NJ, US","cover":"OVC","clouds":[{"cover":"OVC","base":800}],"fltCat":"IFR"},{"icaoId":"KCRP","receiptTime":"2026-04-18T23:54:10.158Z","obsTime":1776556260,"reportTime":"2026-04-19T00:00:00.000Z","temp":26.1,"dewp":21.7,"wdir":80,"wspd":10,"visib":"10+","altim":1014.3,"slp":1014.2,"qcField":12,"presTend":1.3,"maxT":28.9,"minT":26.1,"metarType":"METAR","rawOb":"METAR KCRP 182351Z 08010KT 10SM SCT018 SCT041 BKN075 OVC250 26/22 A2995 RMK AO2 SLP142 T02610217 10289 20261 53013 $","lat":27.7734,"lon":-97.513,"elev":11,"name":"Corpus Christi Intl, TX, US","cover":"OVC","clouds":[{"cover":"SCT","base":1800},{"cover":"SCT","base":4100},{"cover":"BKN","base":7500},{"cover":"OVC","base":25000}],"fltCat":"VFR"},{"icaoId":"KSTL","receiptTime":"2026-04-18T23:54:08.665Z","obsTime":1776556260,"reportTime":"2026-04-19T00:00:00.000Z","temp":13.3,"dewp":-2.8,"wdir":310,"wspd":17,"wgst":23,"visib":"10+","altim":1019.4,"slp":1019.5,"qcField":12,"presTend":0.2,"maxT":14.4,"minT":11.7,"metarType":"METAR","rawOb":"METAR KSTL 182351Z 31017G23KT 10SM FEW035 FEW250 13/M03 A3010 RMK AO2 PK WND 31027/2318 SLP195 T01331028 10144 20117 53002 $","lat":38.7525,"lon":-90.3734,"elev":163,"name":"St Louis/Lambert Intl, MO, US","cover":"FEW","clouds":[{"cover":"FEW","base":3500},{"cover":"FEW","base":25000}],"fltCat":"VFR"},{"icaoId":"KSAD","receiptTime":"2026-04-18T23:54:08.356Z","obsTime":1776556260,"reportTime":"2026-04-19T00:00:00.000Z","temp":28.9,"dewp":-7.8,"wdir":"VRB","wspd":4,"visib":"10+","altim":1013.3,"slp":1009.4,"qcField":6,"presTend":-2.2,"maxT":28.9,"minT":23.3,"metarType":"METAR","rawOb":"METAR KSAD 182351Z AUTO VRB04KT 10SM CLR 29/M08 A2992 RMK AO2 SLP094 T02891078 10289 20233 56022","lat":32.8565,"lon":-109.636,"elev":937,"name":"Safford Rgnl, AZ, US","cover":"CLR","clouds":[],"fltCat":"VFR"},{"icaoId":"KPVD","receiptTime":"2026-04-18T23:54:08.242Z","obsTime":1776556260,"reportTime":"2026-04-19T00:00:00.000Z","temp":10,"dewp":7.2,"wdir":20,"wspd":5,"visib":"10+","altim":1016.7,"slp":1016.6,"qcField":4,"presTend":-1.1,"maxT":12.8,"minT":10,"metarType":"METAR","rawOb":"METAR KPVD 182351Z 02005KT 10SM OVC014 10/07 A3002 RMK AO2 SLP166 T01000072 10128 20100 56011","lat":41.7225,"lon":-71.4325,"elev":15,"name":"Providence/Green Mem, RI, US","cover":"OVC","clouds":[{"cover":"OVC","base":1400}],"fltCat":"MVFR"},{"icaoId":"KPHX","receiptTime":"2026-04-18T23:54:08.180Z","obsTime":1776556260,"reportTime":"2026-04-19T00:00:00.000Z","temp":32.2,"dewp":-10.6,"wdir":230,"wspd":6,"visib":"10+","altim":1009.9,"slp":1008.2,"qcField":12,"presTend":-2.5,"maxT":32.8,"minT":27.2,"metarType":"METAR","rawOb":"METAR KPHX 182351Z 23006KT 10SM FEW250 32/M11 A2982 RMK AO2 SLP082 T03221106 10328 20272 56025 $","lat":33.4278,"lon":-112.0037,"elev":338,"name":"Phoenix/Sky Harbor Intl, AZ, US","cover":"FEW","clouds":[{"cover":"FEW","base":25000}],"fltCat":"VFR"},{"icaoId":"KACT","receiptTime":"2026-04-18T23:54:09.263Z","obsTime":1776556260,"reportTime":"2026-04-19T00:00:00.000Z","temp":11.7,"dewp":7.2,"wdir":350,"wspd":8,"visib":"10+","altim":1022.8,"slp":1022.2,"qcField":4,"presTend":1.6,"maxT":14.4,"minT":11.1,"precip":0.005,"pcp6hr":0.04,"metarType":"METAR","rawOb":"METAR KACT 182351Z 35008KT 10SM BKN110 12/07 A3020 RMK AO2 LTG DSNT S RAB35E50 SLP222 P0000 60004 T01170072 10144 20111 51016","lat":31.618,"lon":-97.2283,"elev":150,"name":"Waco Rgnl, TX, US","cover":"BKN","clouds":[{"cover":"BKN","base":11000}],"fltCat":"VFR"},{"icaoId":"KVNY","receiptTime":"2026-04-18T23:54:08.777Z","obsTime":1776556260,"reportTime":"2026-04-19T00:00:00.000Z","temp":27.2,"dewp":-0.6,"wdir":170,"wspd":11,"visib":"10+","altim":1011.9,"slp":1011,"qcField":12,"presTend":-1.9,"maxT":28.3,"minT":22.2,"metarType":"METAR","rawOb":"METAR KVNY 182351Z 17011KT 10SM CLR 27/M01 A2988 RMK AO2 SLP110 T02721006 10283 20222 56019 $","lat":34.2121,"lon":-118.4915,"elev":241,"name":"Van Nuys Arpt, CA, US","cover":"CLR","clouds":[],"fltCat":"VFR"},{"icaoId":"KSAN","receiptTime":"2026-04-18T23:54:08.380Z","obsTime":1776556260,"reportTime":"2026-04-19T00:00:00.000Z","temp":21.7,"dewp":14.4,"wdir":210,"wspd":9,"visib":"10+","altim":1014,"slp":1013.7,"qcField":12,"presTend":-0.9,"maxT":22.2,"minT":20.6,"metarType":"METAR","rawOb":"METAR KSAN 182351Z 21009KT 10SM FEW020 FEW250 22/14 A2994 RMK AO2 SLP137 T02170144 10222 20206 56009 $","lat":32.7364,"lon":-117.1973,"elev":3,"name":"San Diego Intl Arpt, CA, US","cover":"FEW","clouds":[{"cover":"FEW","base":2000},{"cover":"FEW","base":25000}],"fltCat":"VFR"},{"icaoId":"KROW","receiptTime":"2026-04-18T23:54:08.335Z","obsTime":1776556260,"reportTime":"2026-04-19T00:00:00.000Z","temp":19.4,"dewp":-10,"visib":"10+","altim":1022.8,"slp":1019.5,"qcField":12,"presTend":-1.2,"maxT":20,"minT":12.8,"metarType":"METAR","rawOb":"METAR KROW 182351Z 10SM CLR 19/M10 A3020 RMK AO2 SLP195 T01941100 10200 20128 56012 $","lat":33.3074,"lon":-104.5082,"elev":1105,"name":"Roswell/Ind Arpt, NM, US","cover":"CLR","clouds":[],"fltCat":"VFR"},{"icaoId":"KRDU","receiptTime":"2026-04-18T23:54:08.299Z","obsTime":1776556260,"reportTime":"2026-04-19T00:00:00.000Z","temp":28.9,"dewp":8.3,"wdir":160,"wspd":5,"visib":"10+","altim":1010.9,"slp":1010.3,"qcField":12,"presTend":-0.9,"maxT":33.9,"minT":28.9,"metarType":"METAR","rawOb":"METAR KRDU 182351Z 16005KT 10SM FEW090 BKN250 29/08 A2985 RMK AO2 SLP103 T02890083 10339 20289 56009 $","lat":35.8923,"lon":-78.782,"elev":121,"name":"Raleigh-Durham Intl, NC, US","cover":"BKN","clouds":[{"cover":"FEW","base":9000},{"cover":"BKN","base":25000}],"fltCat":"VFR"},{"icaoId":"KIFP","receiptTime":"2026-04-18T23:50:52.557Z","obsTime":1776556200,"reportTime":"2026-04-19T00:00:00.000Z","temp":29,"dewp":-13,"wdir":340,"wspd":5,"visib":20,"altim":1011.6,"qcField":0,"metarType":"METAR","rawOb":"METAR KIFP 182350Z 34005KT 20SM BKN170 29/M13 A2987","lat":35.1487,"lon":-114.5611,"elev":210,"name":"Bullhead City Intl, AZ, US","cover":"BKN","clouds":[{"cover":"BKN","base":17000}],"fltCat":"VFR"},{"icaoId":"KAEG","receiptTime":"2026-04-18T23:50:51.902Z","obsTime":1776556080,"reportTime":"2026-04-19T00:00:00.000Z","temp":17,"dewp":-27,"wdir":140,"wspd":7,"visib":"10+","altim":1022.4,"qcField":0,"metarType":"METAR","rawOb":"METAR KAEG 182348Z 14007KT 10SM CLR 17/M27 A3019","lat":35.15,"lon":-106.7929,"elev":1771,"name":"Albuquerque/Double Eagle Arpt, NM, US","cover":"CLR","clouds":[],"fltCat":"VFR"},{"icaoId":"KGYR","receiptTime":"2026-04-18T23:59:43.812Z","obsTime":1776556020,"reportTime":"2026-04-19T00:00:00.000Z","temp":32,"dewp":-9,"wdir":"VRB","wspd":3,"visib":"10+","altim":1010.6,"qcField":0,"metarType":"METAR","rawOb":"METAR KGYR 182347Z VRB03KT 10SM SKC 32/M09 A2984","lat":33.428,"lon":-112.368,"elev":292,"name":"Phoenix/Goodyear Muni, AZ, US","cover":"SKC","clouds":[],"fltCat":"VFR"},{"icaoId":"KSUN","receiptTime":"2026-04-18T23:59:31.005Z","obsTime":1776556020,"reportTime":"2026-04-19T00:00:00.000Z","temp":12,"dewp":-11,"wdir":160,"wspd":6,"visib":"10+","altim":1022.1,"qcField":0,"metarType":"METAR","rawOb":"METAR KSUN 182347Z 16006KT 10SM CLR 12/M11 A3018","lat":43.4969,"lon":-114.2923,"elev":1619,"name":"Hailey/Friedman Mem, ID, US","cover":"CLR","clouds":[],"fltCat":"VFR"},{"icaoId":"KBJC","receiptTime":"2026-04-18T23:51:53.568Z","obsTime":1776556020,"reportTime":"2026-04-19T00:00:00.000Z","temp":15,"dewp":-15,"wdir":230,"wspd":12,"wgst":18,"visib":"10+","altim":1021.8,"qcField":0,"metarType":"METAR","rawOb":"METAR KBJC 182347Z 23012G18KT 10SM CLR 15/M15 A3017","lat":39.9008,"lon":-105.1042,"elev":1694,"name":"Rocky Mtn Metro, CO, US","cover":"CLR","clouds":[],"fltCat":"VFR"},{"icaoId":"KCHD","receiptTime":"2026-04-18T23:53:21.894Z","obsTime":1776556020,"reportTime":"2026-04-19T00:00:00.000Z","temp":31,"dewp":-8,"wdir":240,"wspd":8,"visib":"10+","altim":1009.9,"qcField":0,"metarType":"METAR","rawOb":"METAR KCHD 182347Z 24008KT 10SM CLR 31/M08 A2982","lat":33.2669,"lon":-111.8086,"elev":378,"name":"Chandler Muni, AZ, US","cover":"CLR","clouds":[],"fltCat":"VFR"},{"icaoId":"KRYN","receiptTime":"2026-04-18T23:46:33.929Z","obsTime":1776555900,"reportTime":"2026-04-19T00:00:00.000Z","temp":32,"dewp":-5,"wdir":"VRB","wspd":4,"visib":"10+","altim":1010.6,"qcField":0,"metarType":"METAR","rawOb":"METAR KRYN 182345Z VRB04KT 10SM CLR 32/M05 A2984","lat":32.1418,"lon":-111.1767,"elev":731,"name":"Tucson/Ryan Fld, AZ, US","cover":"CLR","clouds":[],"fltCat":"VFR"}]