[{"icaoId":"KSOW","receiptTime":"2026-04-10T18:57:12.356Z","obsTime":1775847300,"reportTime":"2026-04-10T19:00:00.000Z","temp":20,"dewp":-3,"wdir":200,"wspd":18,"wgst":24,"visib":"10+","altim":1022.1,"qcField":6,"metarType":"METAR","rawOb":"METAR KSOW 101855Z AUTO 20018G24KT 10SM CLR 20/M03 A3018 RMK AO2","lat":34.2686,"lon":-110.0019,"elev":1954,"name":"Show Low Muni, AZ, US","cover":"CLR","clouds":[],"fltCat":"VFR"},{"icaoId":"KOLS","receiptTime":"2026-04-10T18:57:08.556Z","obsTime":1775847240,"reportTime":"2026-04-10T19:00:00.000Z","temp":27.8,"dewp":1.7,"wdir":190,"wspd":10,"wgst":23,"visib":"10+","altim":1017.7,"slp":1011.5,"qcField":6,"metarType":"METAR","rawOb":"METAR KOLS 101854Z AUTO 19010G23KT 10SM CLR 28/02 A3005 RMK AO2 SLP115 T02780017","lat":31.4208,"lon":-110.8465,"elev":1194,"name":"Nogales Intl, AZ, US","cover":"CLR","clouds":[],"fltCat":"VFR"},{"icaoId":"KSJN","receiptTime":"2026-04-10T18:57:07.376Z","obsTime":1775847240,"reportTime":"2026-04-10T19:00:00.000Z","temp":21.7,"dewp":-3.3,"wdir":240,"wspd":5,"visib":"10+","altim":1019.7,"slp":1012.5,"qcField":6,"metarType":"METAR","rawOb":"METAR KSJN 101854Z AUTO 24005KT 10SM CLR 22/M03 A3011 RMK AO2 SLP125 T02171033","lat":34.5184,"lon":-109.3801,"elev":1747,"name":"St Johns Ind Arpt, AZ, US","cover":"CLR","clouds":[],"fltCat":"VFR"},{"icaoId":"KGCN","receiptTime":"2026-04-10T18:57:07.920Z","obsTime":1775847240,"reportTime":"2026-04-10T19:00:00.000Z","temp":16.7,"dewp":-2.8,"wdir":220,"wspd":16,"wgst":29,"visib":"10+","altim":1021.1,"slp":1013.3,"qcField":4,"metarType":"METAR","rawOb":"METAR KGCN 101854Z 22016G29KT 10SM FEW070 17/M03 A3015 RMK AO2 PK WND 22029/1845 SLP133 T01671028","lat":35.9458,"lon":-112.1554,"elev":1993,"name":"Grand Canyon Park Arpt, AZ, US","cover":"FEW","clouds":[{"cover":"FEW","base":7000}],"fltCat":"VFR"},{"icaoId":"KFFZ","receiptTime":"2026-04-10T18:57:09.303Z","obsTime":1775847240,"reportTime":"2026-04-10T19:00:00.000Z","temp":30,"dewp":0,"wdir":"VRB","wspd":6,"visib":"10+","altim":1013.3,"slp":1011,"qcField":4,"metarType":"METAR","rawOb":"METAR KFFZ 101854Z VRB06KT 10SM CLR 30/00 A2992 RMK AO2 SLP110 T03000000","lat":33.4659,"lon":-111.7212,"elev":420,"name":"Mesa/Falcon Fld, AZ, US","cover":"CLR","clouds":[],"fltCat":"VFR"},{"icaoId":"KTUS","receiptTime":"2026-04-10T18:56:25.116Z","obsTime":1775847180,"reportTime":"2026-04-10T19:00:00.000Z","temp":30,"dewp":0,"wdir":280,"wspd":7,"visib":"10+","altim":1015.7,"slp":1011.1,"qcField":4,"metarType":"METAR","rawOb":"METAR KTUS 101853Z 28007KT 10SM CLR 30/00 A2999 RMK AO2 SLP111 T03000000","lat":32.1315,"lon":-110.9564,"elev":776,"name":"Tucson Intl Arpt, AZ, US","cover":"CLR","clouds":[],"fltCat":"VFR"},{"icaoId":"KPRC","receiptTime":"2026-04-10T18:56:29.743Z","obsTime":1775847180,"reportTime":"2026-04-10T19:00:00.000Z","temp":21.1,"dewp":-0.6,"wdir":180,"wspd":16,"wgst":24,"visib":"10+","altim":1019,"slp":1012.4,"qcField":4,"metarType":"METAR","rawOb":"METAR KPRC 101853Z 18016G24KT 10SM FEW090 21/M01 A3009 RMK AO2 PK WND 20026/1828 SLP124 T02111006","lat":34.6491,"lon":-112.4223,"elev":1528,"name":"Prescott/Love Fld, AZ, US","cover":"FEW","clouds":[{"cover":"FEW","base":9000}],"fltCat":"VFR"},{"icaoId":"KDVT","receiptTime":"2026-04-10T18:56:21.834Z","obsTime":1775847180,"reportTime":"2026-04-10T19:00:00.000Z","temp":29.4,"dewp":1.7,"wdir":200,"wspd":6,"visib":"10+","altim":1014,"slp":1011.7,"qcField":4,"metarType":"METAR","rawOb":"METAR KDVT 101853Z 20006KT 10SM CLR 29/02 A2994 RMK AO2 SLP117 T02940017","lat":33.6902,"lon":-112.0662,"elev":454,"name":"Phoenix/Deer Valley Arpt, AZ, US","cover":"CLR","clouds":[],"fltCat":"VFR"},{"icaoId":"KPGA","receiptTime":"2026-04-10T18:56:30.830Z","obsTime":1775847180,"reportTime":"2026-04-10T19:00:00.000Z","temp":22.2,"dewp":-3.3,"wdir":220,"wspd":8,"wgst":21,"visib":"10+","altim":1016.3,"slp":1010.6,"qcField":6,"metarType":"METAR","rawOb":"METAR KPGA 101853Z AUTO 22008G21KT 10SM CLR 22/M03 A3001 RMK AO2 PK WND 15028/1815 SLP106 T02221033","lat":36.9211,"lon":-111.4487,"elev":1310,"name":"Page Muni, AZ, US","cover":"CLR","clouds":[],"fltCat":"VFR"},{"icaoId":"KSDL","receiptTime":"2026-04-10T18:56:29.238Z","obsTime":1775847180,"reportTime":"2026-04-10T19:00:00.000Z","temp":29.4,"dewp":1.7,"wdir":200,"wspd":7,"visib":"10+","altim":1014,"slp":1011.6,"qcField":4,"metarType":"METAR","rawOb":"METAR KSDL 101853Z 20007KT 10SM CLR 29/02 A2994 RMK AO2 SLP116 T02940017","lat":33.6123,"lon":-111.9232,"elev":438,"name":"Scottsdale Muni, AZ, US","cover":"CLR","clouds":[],"fltCat":"VFR"},{"icaoId":"KSAD","receiptTime":"2026-04-10T18:54:15.033Z","obsTime":1775847060,"reportTime":"2026-04-10T19:00:00.000Z","temp":26.7,"dewp":-3.9,"wdir":340,"wspd":4,"visib":"10+","altim":1016,"slp":1011,"qcField":6,"metarType":"METAR","rawOb":"METAR KSAD 101851Z AUTO 34004KT 10SM CLR 27/M04 A3000 RMK AO2 SLP110 T02671039","lat":32.8565,"lon":-109.636,"elev":937,"name":"Safford Rgnl, AZ, US","cover":"CLR","clouds":[],"fltCat":"VFR"},{"icaoId":"KIGM","receiptTime":"2026-04-10T18:54:14.424Z","obsTime":1775847060,"reportTime":"2026-04-10T19:00:00.000Z","temp":24.4,"dewp":1.1,"wdir":210,"wspd":16,"wgst":33,"visib":"10+","altim":1015.3,"slp":1008.9,"qcField":6,"metarType":"METAR","rawOb":"METAR KIGM 101851Z AUTO 21016G33KT 10SM CLR 24/01 A2998 RMK AO2 PK WND 22033/1817 SLP089 T02440011","lat":35.2575,"lon":-113.9341,"elev":1045,"name":"Kingman Arpt, AZ, US","cover":"CLR","clouds":[],"fltCat":"VFR"},{"icaoId":"KPHX","receiptTime":"2026-04-10T18:54:14.820Z","obsTime":1775847060,"reportTime":"2026-04-10T19:00:00.000Z","temp":30.6,"dewp":3.3,"wdir":240,"wspd":5,"visib":"10+","altim":1013,"slp":1010.9,"qcField":4,"metarType":"METAR","rawOb":"METAR KPHX 101851Z 24005KT 10SM FEW210 BKN250 BKN290 31/03 A2991 RMK AO2 SLP109 T03060033","lat":33.4278,"lon":-112.0037,"elev":338,"name":"Phoenix/Sky Harbor Intl, AZ, US","cover":"BKN","clouds":[{"cover":"FEW","base":21000},{"cover":"BKN","base":25000},{"cover":"BKN","base":29000}],"fltCat":"VFR"},{"icaoId":"KIWA","receiptTime":"2026-04-10T18:51:06.311Z","obsTime":1775846880,"reportTime":"2026-04-10T19:00:00.000Z","temp":30,"dewp":1,"wdir":160,"wspd":7,"visib":"10+","altim":1014.3,"qcField":0,"metarType":"METAR","rawOb":"METAR KIWA 101848Z 16007KT 10SM CLR 30/01 A2995","lat":33.3008,"lon":-111.6437,"elev":420,"name":"Phoenix/Mesa Gateway Arpt, AZ, US","cover":"CLR","clouds":[],"fltCat":"VFR"},{"icaoId":"KIFP","receiptTime":"2026-04-10T18:47:34.001Z","obsTime":1775846820,"reportTime":"2026-04-10T19:00:00.000Z","temp":29,"dewp":2,"wdir":170,"wspd":12,"visib":"10+","altim":1010.9,"qcField":0,"metarType":"METAR","rawOb":"METAR KIFP 101847Z 17012KT 10SM SCT100 29/02 A2985","lat":35.1487,"lon":-114.5611,"elev":210,"name":"Bullhead City Intl, AZ, US","cover":"SCT","clouds":[{"cover":"SCT","base":10000}],"fltCat":"VFR"},{"icaoId":"KGYR","receiptTime":"2026-04-10T18:49:45.069Z","obsTime":1775846820,"reportTime":"2026-04-10T19:00:00.000Z","temp":29,"dewp":4,"wdir":300,"wspd":3,"visib":"10+","altim":1013.6,"qcField":0,"metarType":"METAR","rawOb":"METAR KGYR 101847Z 30003KT 10SM BKN250 29/04 A2993","lat":33.428,"lon":-112.368,"elev":292,"name":"Phoenix/Goodyear Muni, AZ, US","cover":"BKN","clouds":[{"cover":"BKN","base":25000}],"fltCat":"VFR"},{"icaoId":"KRYN","receiptTime":"2026-04-10T18:46:25.675Z","obsTime":1775846700,"reportTime":"2026-04-10T19:00:00.000Z","temp":31,"dewp":-3,"wdir":270,"wspd":6,"visib":"10+","altim":1014.6,"qcField":0,"metarType":"METAR","rawOb":"METAR KRYN 101845Z 27006KT 10SM CLR 31/M03 A2996","lat":32.1418,"lon":-111.1767,"elev":731,"name":"Tucson/Ryan Fld, AZ, US","cover":"CLR","clouds":[],"fltCat":"VFR"},{"icaoId":"KHII","receiptTime":"2026-04-10T18:40:55.318Z","obsTime":1775846100,"reportTime":"2026-04-10T18:35:00.000Z","temp":30,"dewp":4,"wdir":210,"wspd":7,"visib":"10+","altim":1011.9,"qcField":6,"metarType":"METAR","rawOb":"METAR KHII 101835Z AUTO 21007KT 180V240 10SM CLR 30/04 A2988 RMK AO2","lat":34.5659,"lon":-114.3522,"elev":241,"name":"Lake Havasu City Arpt, AZ, US","cover":"CLR","clouds":[],"fltCat":"VFR"},{"icaoId":"KSEZ","receiptTime":"2026-04-10T18:40:36.002Z","obsTime":1775846100,"reportTime":"2026-04-10T18:35:00.000Z","temp":22,"dewp":0,"wdir":"VRB","wspd":6,"wgst":14,"visib":"10+","altim":1019.4,"qcField":6,"metarType":"METAR","rawOb":"METAR KSEZ 101835Z AUTO VRB06G14KT 10SM CLR 22/M00 A3010 RMK AO2","lat":34.8467,"lon":-111.7884,"elev":1455,"name":"Sedona Arpt, AZ, US","cover":"CLR","clouds":[],"fltCat":"VFR"},{"icaoId":"KFLG","receiptTime":"2026-04-10T18:01:10.852Z","obsTime":1775843820,"reportTime":"2026-04-10T18:00:00.000Z","temp":14.4,"dewp":-2.2,"wdir":220,"wspd":10,"wgst":19,"visib":"10+","altim":1022.4,"slp":1016.2,"qcField":4,"presTend":1,"maxT":14.4,"minT":1.1,"metarType":"METAR","rawOb":"METAR KFLG 101757Z 22010G19KT 10SM CLR 14/M02 A3019 RMK AO2 SLP162 T01441022 10144 20011 51010","lat":35.1443,"lon":-111.6664,"elev":2134,"name":"Flagstaff/Pulliam Arpt, AZ, US","cover":"CLR","clouds":[],"fltCat":"VFR"},{"icaoId":"KNYL","receiptTime":"2026-04-10T18:01:09.530Z","obsTime":1775843820,"reportTime":"2026-04-10T18:00:00.000Z","temp":28.9,"dewp":6.7,"wdir":270,"wspd":8,"visib":"10+","altim":1013.3,"slp":1012.9,"qcField":4,"presTend":1.1,"maxT":28.9,"minT":20.6,"metarType":"METAR","rawOb":"METAR KNYL 101757Z 27008KT 10SM FEW140 SCT180 29/07 A2992 RMK AO2 SLP129 T02890067 10289 20206 51011","lat":32.66,"lon":-114.6078,"elev":58,"name":"Yuma , AZ, US","cover":"SCT","clouds":[{"cover":"FEW","base":14000},{"cover":"SCT","base":18000}],"fltCat":"VFR"},{"icaoId":"KCGZ","receiptTime":"2026-04-10T17:58:23.943Z","obsTime":1775843760,"reportTime":"2026-04-10T18:00:00.000Z","temp":29.4,"dewp":1.7,"wdir":"VRB","wspd":5,"visib":"10+","altim":1014.6,"slp":1013.1,"qcField":14,"presTend":0.5,"maxT":29.4,"minT":14.4,"metarType":"METAR","rawOb":"METAR KCGZ 101756Z AUTO VRB05KT 10SM CLR 29/02 A2996 RMK AO2 SLP131 6//// T02940017 10294 20144 50005 $","lat":32.9531,"lon":-111.7725,"elev":444,"name":"Casa Granda Muni, AZ, US","cover":"CLR","clouds":[],"fltCat":"VFR"},{"icaoId":"KINW","receiptTime":"2026-04-10T18:00:53.316Z","obsTime":1775843760,"reportTime":"2026-04-10T18:00:00.000Z","temp":21.7,"dewp":-3.9,"wdir":230,"wspd":6,"visib":"","altim":1019.7,"slp":1014.5,"qcField":14,"presTend":0.2,"maxT":21.7,"minT":9.4,"metarType":"METAR","rawOb":"METAR KINW 101756Z AUTO 23006KT CLR 22/M04 A3011 RMK AO2 SLP145 T02171039 10217 20094 50002 $","lat":35.0279,"lon":-110.7221,"elev":1492,"name":"Winslow/Lindberg Rgnl, AZ, US","cover":"CLR","clouds":[]},{"icaoId":"KDUG","receiptTime":"2026-04-10T18:02:06.359Z","obsTime":1775843760,"reportTime":"2026-04-10T18:00:00.000Z","temp":23.3,"dewp":-2.2,"wdir":220,"wspd":4,"visib":"10+","altim":1019.4,"slp":1013.4,"qcField":38,"presTend":0.4,"maxT":23.3,"minT":10,"metarType":"METAR","rawOb":"METAR KDUG 101756Z AUTO 22004KT 10SM SCT110 23/M02 A3010 RMK AO2 SLP134 T02331022 10233 20100 51004 TSNO","lat":31.4725,"lon":-109.6022,"elev":1260,"name":"Douglas/Bisbee Intl, AZ, US","cover":"SCT","clouds":[{"cover":"SCT","base":11000}],"fltCat":"VFR"},{"icaoId":"KLUF","receiptTime":"2026-04-10T18:02:09.073Z","obsTime":1775843700,"reportTime":"2026-04-10T18:00:00.000Z","temp":28.5,"dewp":1.9,"wdir":160,"wspd":3,"visib":"10+","altim":1013.3,"slp":1011.8,"qcField":12,"presTend":0.8,"maxT":28.5,"minT":18.4,"metarType":"METAR","rawOb":"METAR KLUF 101755Z 16003KT 10SM SCT180 BKN200 29/02 A2992 RMK AO2A SLP118 T02850019 10285 20184 51008 $","lat":33.538,"lon":-112.38,"elev":333,"name":"Phoenix/Luke AFB, AZ, US","cover":"BKN","clouds":[{"cover":"SCT","base":18000},{"cover":"BKN","base":20000}],"fltCat":"VFR"},{"icaoId":"KGEU","receiptTime":"2026-04-10T17:48:40.361Z","obsTime":1775843220,"reportTime":"2026-04-10T18:00:00.000Z","temp":28,"dewp":1,"wdir":60,"wspd":3,"visib":"10+","altim":1013,"qcField":0,"metarType":"METAR","rawOb":"METAR KGEU 101747Z 06003KT 10SM CLR 28/01 A2991","lat":33.528,"lon":-112.293,"elev":319,"name":"Glendale Muni, AZ, US","cover":"CLR","clouds":[],"fltCat":"VFR"},{"icaoId":"KCHD","receiptTime":"2026-04-10T17:50:53.625Z","obsTime":1775843220,"reportTime":"2026-04-10T18:00:00.000Z","temp":28,"dewp":3,"wdir":200,"wspd":6,"visib":"10+","altim":1014.3,"qcField":0,"metarType":"METAR","rawOb":"METAR KCHD 101747Z 20006KT 10SM FEW250 28/03 A2995","lat":33.2669,"lon":-111.8086,"elev":378,"name":"Chandler Muni, AZ, US","cover":"FEW","clouds":[{"cover":"FEW","base":25000}],"fltCat":"VFR"}]