[{"icaoId":"KIWA","receiptTime":"2026-04-09T03:51:38.754Z","obsTime":1775706540,"reportTime":"2026-04-09T04:00:00.000Z","temp":29,"dewp":-3,"wdir":10,"wspd":4,"visib":"10+","altim":1009.6,"qcField":0,"metarType":"METAR","rawOb":"METAR KIWA 090349Z 01004KT 10SM CLR 29/M03 A2981","lat":33.3008,"lon":-111.6437,"elev":420,"name":"Phoenix/Mesa Gateway Arpt, AZ, US","cover":"CLR","clouds":[],"fltCat":"VFR"},{"icaoId":"KGYR","receiptTime":"2026-04-09T03:49:00.542Z","obsTime":1775706420,"reportTime":"2026-04-09T04:00:00.000Z","temp":29,"dewp":1,"wdir":"VRB","wspd":3,"visib":"10+","altim":1008.5,"qcField":0,"metarType":"METAR","rawOb":"METAR KGYR 090347Z VRB03KT 10SM SKC 29/01 A2978 RMK LAST","lat":33.428,"lon":-112.368,"elev":292,"name":"Phoenix/Goodyear Muni, AZ, US","cover":"SKC","clouds":[],"fltCat":"VFR"},{"icaoId":"KCHD","receiptTime":"2026-04-09T03:50:48.690Z","obsTime":1775706420,"reportTime":"2026-04-09T04:00:00.000Z","temp":29,"dewp":-2,"wdir":300,"wspd":7,"visib":"10+","altim":1008.9,"qcField":0,"metarType":"METAR","rawOb":"METAR KCHD 090347Z 30007KT 10SM CLR 29/M02 A2979","lat":33.2669,"lon":-111.8086,"elev":378,"name":"Chandler Muni, AZ, US","cover":"CLR","clouds":[],"fltCat":"VFR"},{"icaoId":"KSOW","receiptTime":"2026-04-09T03:38:24.737Z","obsTime":1775705700,"reportTime":"2026-04-09T03:35:00.000Z","temp":14,"dewp":-5,"wdir":190,"wspd":6,"visib":"10+","altim":1020.1,"qcField":6,"metarType":"METAR","rawOb":"METAR KSOW 090335Z AUTO 19006KT 10SM CLR 14/M05 A3012 RMK AO2","lat":34.2686,"lon":-110.0019,"elev":1954,"name":"Show Low Muni, AZ, US","cover":"CLR","clouds":[],"fltCat":"VFR"},{"icaoId":"KHII","receiptTime":"2026-04-09T03:40:19.584Z","obsTime":1775705700,"reportTime":"2026-04-09T03:35:00.000Z","temp":30,"dewp":-3,"wdir":100,"wspd":6,"visib":"10+","altim":1007.2,"qcField":6,"metarType":"METAR","rawOb":"METAR KHII 090335Z AUTO 10006KT 10SM CLR 30/M03 A2974 RMK AO2","lat":34.5659,"lon":-114.3522,"elev":241,"name":"Lake Havasu City Arpt, AZ, US","cover":"CLR","clouds":[],"fltCat":"VFR"},{"icaoId":"KSEZ","receiptTime":"2026-04-09T03:38:32.683Z","obsTime":1775705700,"reportTime":"2026-04-09T03:35:00.000Z","temp":21,"dewp":-6,"wdir":190,"wspd":6,"visib":"10+","altim":1016.7,"qcField":6,"metarType":"METAR","rawOb":"METAR KSEZ 090335Z AUTO 19006KT 10SM CLR 21/M06 A3002 RMK AO2","lat":34.8467,"lon":-111.7884,"elev":1455,"name":"Sedona Arpt, AZ, US","cover":"CLR","clouds":[],"fltCat":"VFR"},{"icaoId":"KIFP","receiptTime":"2026-04-09T03:40:16.540Z","obsTime":1775705700,"reportTime":"2026-04-09T03:35:00.000Z","temp":31,"dewp":-8,"wdir":150,"wspd":9,"visib":"10+","altim":1006.5,"qcField":6,"metarType":"METAR","rawOb":"METAR KIFP 090335Z AUTO 15009KT 10SM CLR 31/M08 A2972 RMK AO2","lat":35.1487,"lon":-114.5611,"elev":210,"name":"Bullhead City Intl, AZ, US","cover":"CLR","clouds":[],"fltCat":"VFR"},{"icaoId":"KNYL","receiptTime":"2026-04-09T03:00:22.029Z","obsTime":1775703420,"reportTime":"2026-04-09T03:00:00.000Z","temp":29.4,"dewp":5.6,"wdir":230,"wspd":5,"visib":"10+","altim":1006.9,"slp":1006.6,"qcField":4,"presTend":0.5,"metarType":"METAR","rawOb":"METAR KNYL 090257Z 23005KT 10SM CLR 29/06 A2973 RMK AO2 SLP066 T02940056 53005","lat":32.66,"lon":-114.6078,"elev":58,"name":"Yuma , AZ, US","cover":"CLR","clouds":[],"fltCat":"VFR"},{"icaoId":"KFLG","receiptTime":"2026-04-09T03:00:22.060Z","obsTime":1775703420,"reportTime":"2026-04-09T03:00:00.000Z","temp":12.8,"dewp":-6.1,"wdir":220,"wspd":4,"visib":"10+","altim":1020.1,"slp":1012.3,"qcField":4,"presTend":0.3,"metarType":"METAR","rawOb":"METAR KFLG 090257Z 22004KT 10SM CLR 13/M06 A3012 RMK AO2 SLP123 T01281061 53003","lat":35.1443,"lon":-111.6664,"elev":2134,"name":"Flagstaff/Pulliam Arpt, AZ, US","cover":"CLR","clouds":[],"fltCat":"VFR"},{"icaoId":"KDUG","receiptTime":"2026-04-09T03:02:18.001Z","obsTime":1775703360,"reportTime":"2026-04-09T03:00:00.000Z","temp":20.6,"dewp":-2.2,"wdir":80,"wspd":5,"visib":"10+","altim":1014.6,"slp":1009.4,"qcField":38,"presTend":0.5,"metarType":"METAR","rawOb":"METAR KDUG 090256Z AUTO 08005KT 10SM CLR 21/M02 A2996 RMK AO2 SLP094 T02061022 53005 TSNO","lat":31.4725,"lon":-109.6022,"elev":1260,"name":"Douglas/Bisbee Intl, AZ, US","cover":"CLR","clouds":[],"fltCat":"VFR"},{"icaoId":"KCGZ","receiptTime":"2026-04-09T02:58:33.613Z","obsTime":1775703360,"reportTime":"2026-04-09T03:00:00.000Z","temp":28.9,"dewp":-1.7,"wdir":340,"wspd":7,"visib":"10+","altim":1008.9,"slp":1007.5,"qcField":14,"presTend":-0.2,"metarType":"METAR","rawOb":"METAR KCGZ 090256Z AUTO 34007KT 10SM CLR 29/M02 A2979 RMK AO2 SLP075 6//// T02891017 55002 $","lat":32.9531,"lon":-111.7725,"elev":444,"name":"Casa Granda Muni, AZ, US","cover":"CLR","clouds":[],"fltCat":"VFR"},{"icaoId":"KINW","receiptTime":"2026-04-09T03:00:05.180Z","obsTime":1775703360,"reportTime":"2026-04-09T03:00:00.000Z","temp":17.8,"dewp":-2.8,"wdir":240,"wspd":8,"visib":"10+","altim":1015.3,"slp":1010.9,"qcField":6,"presTend":0.4,"metarType":"METAR","rawOb":"METAR KINW 090256Z AUTO 24008KT 10SM CLR 18/M03 A2998 RMK AO2 SLP109 T01781028 53004","lat":35.0279,"lon":-110.7221,"elev":1492,"name":"Winslow/Lindberg Rgnl, AZ, US","cover":"CLR","clouds":[],"fltCat":"VFR"},{"icaoId":"KLUF","receiptTime":"2026-04-09T03:06:05.011Z","obsTime":1775703300,"reportTime":"2026-04-09T03:00:00.000Z","temp":31.7,"dewp":-5.1,"wdir":0,"wspd":0,"visib":"10+","altim":1007.2,"slp":1005.8,"qcField":44,"presTend":-0.4,"metarType":"METAR","rawOb":"METAR KLUF 090255Z 00000KT 10SM CLR 32/M05 A2974 RMK AO2A SLP058 T03171051 56004 TSNO $","lat":33.538,"lon":-112.38,"elev":333,"name":"Phoenix/Luke AFB, AZ, US","cover":"CLR","clouds":[],"fltCat":"VFR"},{"icaoId":"KFFZ","receiptTime":"2026-04-09T02:58:21.413Z","obsTime":1775703240,"reportTime":"2026-04-09T03:00:00.000Z","temp":30.6,"dewp":-0.6,"wdir":350,"wspd":3,"visib":"10+","altim":1008.2,"slp":1005.9,"qcField":4,"presTend":-0.1,"metarType":"METAR","rawOb":"METAR KFFZ 090254Z 35003KT 10SM CLR 31/M01 A2977 RMK AO2 SLP059 T03061006 55001","lat":33.4659,"lon":-111.7212,"elev":420,"name":"Mesa/Falcon Fld, AZ, US","cover":"CLR","clouds":[],"fltCat":"VFR"},{"icaoId":"KGCN","receiptTime":"2026-04-09T02:58:18.177Z","obsTime":1775703240,"reportTime":"2026-04-09T03:00:00.000Z","temp":13.9,"dewp":-3.9,"wdir":0,"wspd":0,"visib":"10+","altim":1018.7,"slp":1012.6,"qcField":6,"presTend":0.2,"metarType":"METAR","rawOb":"METAR KGCN 090254Z AUTO 00000KT 10SM BKN100 14/M04 A3008 RMK AO2 SLP126 T01391039 53002","lat":35.9458,"lon":-112.1554,"elev":1993,"name":"Grand Canyon Park Arpt, AZ, US","cover":"BKN","clouds":[{"cover":"BKN","base":10000}],"fltCat":"VFR"},{"icaoId":"KSJN","receiptTime":"2026-04-09T02:58:21.054Z","obsTime":1775703240,"reportTime":"2026-04-09T03:00:00.000Z","temp":16.1,"dewp":-2.2,"wdir":0,"wspd":0,"visib":"10+","altim":1017,"slp":1011.1,"qcField":6,"presTend":0.7,"metarType":"METAR","rawOb":"METAR KSJN 090254Z AUTO 00000KT 10SM CLR 16/M02 A3003 RMK AO2 SLP111 T01611022 53007","lat":34.5184,"lon":-109.3801,"elev":1747,"name":"St Johns Ind Arpt, AZ, US","cover":"CLR","clouds":[],"fltCat":"VFR"},{"icaoId":"KOLS","receiptTime":"2026-04-09T02:58:16.613Z","obsTime":1775703240,"reportTime":"2026-04-09T03:00:00.000Z","temp":22.8,"dewp":-3.3,"wdir":0,"wspd":0,"visib":"10+","altim":1014.6,"slp":1008.9,"qcField":6,"presTend":0.9,"metarType":"METAR","rawOb":"METAR KOLS 090254Z AUTO 00000KT 10SM CLR 23/M03 A2996 RMK AO2 SLP089 T02281033 53009","lat":31.4208,"lon":-110.8465,"elev":1194,"name":"Nogales Intl, AZ, US","cover":"CLR","clouds":[],"fltCat":"VFR"},{"icaoId":"KPRC","receiptTime":"2026-04-09T02:56:29.461Z","obsTime":1775703180,"reportTime":"2026-04-09T03:00:00.000Z","temp":18.9,"dewp":-6.1,"wdir":210,"wspd":6,"visib":"10+","altim":1016.3,"slp":1010.2,"qcField":6,"presTend":0.5,"metarType":"METAR","rawOb":"METAR KPRC 090253Z AUTO 21006KT 10SM CLR 19/M06 A3001 RMK AO2 SLP102 T01891061 53005","lat":34.6491,"lon":-112.4223,"elev":1528,"name":"Prescott/Love Fld, AZ, US","cover":"CLR","clouds":[],"fltCat":"VFR"},{"icaoId":"KDVT","receiptTime":"2026-04-09T02:56:29.703Z","obsTime":1775703180,"reportTime":"2026-04-09T03:00:00.000Z","temp":29.4,"dewp":-4.4,"wdir":300,"wspd":3,"visib":"10+","altim":1008.9,"slp":1006.5,"qcField":4,"metarType":"METAR","rawOb":"METAR KDVT 090253Z 30003KT 10SM FEW120 29/M04 A2979 RMK AO2 SLP065 T02941044 55000","lat":33.6902,"lon":-112.0662,"elev":454,"name":"Phoenix/Deer Valley Arpt, AZ, US","cover":"FEW","clouds":[{"cover":"FEW","base":12000}],"fltCat":"VFR"},{"icaoId":"KPGA","receiptTime":"2026-04-09T02:56:29.422Z","obsTime":1775703180,"reportTime":"2026-04-09T03:00:00.000Z","temp":23.9,"dewp":-9.4,"wdir":290,"wspd":4,"visib":"10+","altim":1012.3,"slp":1006.8,"qcField":14,"presTend":0.1,"metarType":"METAR","rawOb":"METAR KPGA 090253Z AUTO 29004KT 10SM CLR 24/M09 A2989 RMK AO2 SLP068 T02391094 53001 $","lat":36.9211,"lon":-111.4487,"elev":1310,"name":"Page Muni, AZ, US","cover":"CLR","clouds":[],"fltCat":"VFR"},{"icaoId":"KSDL","receiptTime":"2026-04-09T02:56:29.584Z","obsTime":1775703180,"reportTime":"2026-04-09T03:00:00.000Z","temp":30.6,"dewp":-2.8,"wdir":310,"wspd":3,"visib":"10+","altim":1009.2,"slp":1006.7,"qcField":4,"metarType":"METAR","rawOb":"METAR KSDL 090253Z 31003KT 10SM CLR 31/M03 A2980 RMK AO2 SLP067 T03061028 53000","lat":33.6123,"lon":-111.9232,"elev":438,"name":"Scottsdale Muni, AZ, US","cover":"CLR","clouds":[],"fltCat":"VFR"},{"icaoId":"KTUS","receiptTime":"2026-04-09T02:56:23.435Z","obsTime":1775703180,"reportTime":"2026-04-09T03:00:00.000Z","temp":27.8,"dewp":-2.2,"wdir":0,"wspd":0,"visib":"10+","altim":1011.3,"slp":1007.1,"qcField":4,"presTend":0.3,"metarType":"METAR","rawOb":"METAR KTUS 090253Z 00000KT 10SM CLR 28/M02 A2986 RMK AO2 SLP071 T02781022 53003","lat":32.1315,"lon":-110.9564,"elev":776,"name":"Tucson Intl Arpt, AZ, US","cover":"CLR","clouds":[],"fltCat":"VFR"},{"icaoId":"KPHX","receiptTime":"2026-04-09T02:54:07.018Z","obsTime":1775703060,"reportTime":"2026-04-09T03:00:00.000Z","temp":32.8,"dewp":-3.3,"wdir":320,"wspd":7,"visib":"10+","altim":1007.5,"slp":1005.6,"qcField":4,"presTend":-0.1,"metarType":"METAR","rawOb":"METAR KPHX 090251Z 32007KT 10SM CLR 33/M03 A2975 RMK AO2 SLP056 T03281033 55001","lat":33.4278,"lon":-112.0037,"elev":338,"name":"Phoenix/Sky Harbor Intl, AZ, US","cover":"CLR","clouds":[],"fltCat":"VFR"},{"icaoId":"KIGM","receiptTime":"2026-04-09T02:54:06.207Z","obsTime":1775703060,"reportTime":"2026-04-09T03:00:00.000Z","temp":22.8,"dewp":-8.3,"wdir":220,"wspd":10,"visib":"10+","altim":1012.6,"slp":1006.3,"qcField":6,"presTend":0.2,"metarType":"METAR","rawOb":"METAR KIGM 090251Z AUTO 22010KT 10SM CLR 23/M08 A2990 RMK AO2 SLP063 T02281083 53002","lat":35.2575,"lon":-113.9341,"elev":1045,"name":"Kingman Arpt, AZ, US","cover":"CLR","clouds":[],"fltCat":"VFR"},{"icaoId":"KSAD","receiptTime":"2026-04-09T02:54:07.160Z","obsTime":1775703060,"reportTime":"2026-04-09T03:00:00.000Z","temp":23.3,"dewp":-6.1,"wdir":0,"wspd":0,"visib":"10+","altim":1011.6,"slp":1007.5,"qcField":6,"presTend":0.2,"metarType":"METAR","rawOb":"METAR KSAD 090251Z AUTO 00000KT 10SM CLR 23/M06 A2987 RMK AO2 SLP075 T02331061 53002","lat":32.8565,"lon":-109.636,"elev":937,"name":"Safford Rgnl, AZ, US","cover":"CLR","clouds":[],"fltCat":"VFR"},{"icaoId":"KGEU","receiptTime":"2026-04-09T02:52:04.052Z","obsTime":1775703000,"reportTime":"2026-04-09T03:00:00.000Z","temp":30,"dewp":-3,"wdir":0,"wspd":0,"visib":"10+","altim":1006.9,"qcField":0,"metarType":"METAR","rawOb":"METAR KGEU 090250Z 00000KT 10SM CLR 30/M03 A2973 RMK LAST","lat":33.528,"lon":-112.293,"elev":319,"name":"Glendale Muni, AZ, US","cover":"CLR","clouds":[],"fltCat":"VFR"},{"icaoId":"KRYN","receiptTime":"2026-04-09T02:45:55.005Z","obsTime":1775702700,"reportTime":"2026-04-09T03:00:00.000Z","temp":27,"dewp":-2,"wdir":270,"wspd":7,"visib":"10+","altim":1010.2,"qcField":0,"metarType":"METAR","rawOb":"METAR KRYN 090245Z 27007KT 10SM CLR 27/M02 A2983","lat":32.1418,"lon":-111.1767,"elev":731,"name":"Tucson/Ryan Fld, AZ, US","cover":"CLR","clouds":[],"fltCat":"VFR"}]