[{"icaoId":"KSEZ","receiptTime":"2026-04-09T07:17:09.737Z","obsTime":1775718900,"reportTime":"2026-04-09T07:15:00.000Z","temp":16,"dewp":-5,"wdir":30,"wspd":10,"visib":"10+","altim":1017,"qcField":6,"metarType":"METAR","rawOb":"METAR KSEZ 090715Z AUTO 03010KT 10SM CLR 16/M05 A3003 RMK AO2","lat":34.8467,"lon":-111.7884,"elev":1455,"name":"Sedona Arpt, AZ, US","cover":"CLR","clouds":[],"fltCat":"VFR"},{"icaoId":"KSOW","receiptTime":"2026-04-09T07:17:10.328Z","obsTime":1775718900,"reportTime":"2026-04-09T07:15:00.000Z","temp":11,"dewp":-5,"wdir":180,"wspd":6,"visib":"10+","altim":1020.7,"qcField":6,"metarType":"METAR","rawOb":"METAR KSOW 090715Z AUTO 18006KT 10SM CLR 11/M05 A3014 RMK AO2","lat":34.2686,"lon":-110.0019,"elev":1954,"name":"Show Low Muni, AZ, US","cover":"CLR","clouds":[],"fltCat":"VFR"},{"icaoId":"KFLG","receiptTime":"2026-04-09T07:00:27.851Z","obsTime":1775717820,"reportTime":"2026-04-09T07:00:00.000Z","temp":3.9,"dewp":-5.6,"wdir":0,"wspd":0,"visib":"10+","altim":1021.4,"slp":1013.9,"qcField":6,"maxT24":20.6,"minT24":-1.7,"metarType":"METAR","rawOb":"METAR KFLG 090657Z AUTO 00000KT 10SM CLR 04/M06 A3016 RMK AO2 SLP139 T00391056 402061017","lat":35.1443,"lon":-111.6664,"elev":2134,"name":"Flagstaff/Pulliam Arpt, AZ, US","cover":"CLR","clouds":[],"fltCat":"VFR"},{"icaoId":"KNYL","receiptTime":"2026-04-09T07:00:25.361Z","obsTime":1775717820,"reportTime":"2026-04-09T07:00:00.000Z","temp":25,"dewp":5,"wdir":120,"wspd":4,"visib":"10+","altim":1008.9,"slp":1008.3,"qcField":6,"maxT24":36.7,"minT24":18.9,"metarType":"METAR","rawOb":"METAR KNYL 090657Z AUTO 12004KT 10SM CLR 25/05 A2979 RMK AO2 SLP083 T02500050 403670189","lat":32.66,"lon":-114.6078,"elev":58,"name":"Yuma , AZ, US","cover":"CLR","clouds":[],"fltCat":"VFR"},{"icaoId":"KCGZ","receiptTime":"2026-04-09T06:58:25.961Z","obsTime":1775717760,"reportTime":"2026-04-09T07:00:00.000Z","temp":23.3,"dewp":-2.2,"wdir":260,"wspd":6,"visib":"10+","altim":1010.9,"slp":1009.3,"qcField":14,"maxT24":34.4,"minT24":15,"metarType":"METAR","rawOb":"METAR KCGZ 090656Z AUTO 26006KT 10SM CLR 23/M02 A2985 RMK AO2 SLP093 T02331022 403440150 $","lat":32.9531,"lon":-111.7725,"elev":444,"name":"Casa Granda Muni, AZ, US","cover":"CLR","clouds":[],"fltCat":"VFR"},{"icaoId":"KINW","receiptTime":"2026-04-09T07:00:06.480Z","obsTime":1775717760,"reportTime":"2026-04-09T07:00:00.000Z","temp":15,"dewp":-2.2,"wdir":250,"wspd":11,"visib":"10+","altim":1017,"slp":1010.9,"qcField":6,"maxT24":26.7,"minT24":5.6,"metarType":"METAR","rawOb":"METAR KINW 090656Z AUTO 25011KT 10SM CLR 15/M02 A3003 RMK AO2 SLP109 T01501022 402670056","lat":35.0279,"lon":-110.7221,"elev":1492,"name":"Winslow/Lindberg Rgnl, AZ, US","cover":"CLR","clouds":[],"fltCat":"VFR"},{"icaoId":"KDUG","receiptTime":"2026-04-09T07:02:20.864Z","obsTime":1775717760,"reportTime":"2026-04-09T07:00:00.000Z","temp":17.2,"dewp":-1.1,"wdir":110,"wspd":8,"visib":"10+","altim":1016,"slp":1009.7,"qcField":38,"maxT24":28.3,"minT24":7.2,"metarType":"METAR","rawOb":"METAR KDUG 090656Z AUTO 11008KT 10SM BKN120 17/M01 A3000 RMK AO2 SLP097 T01721011 402830072 TSNO","lat":31.4725,"lon":-109.6022,"elev":1260,"name":"Douglas/Bisbee Intl, AZ, US","cover":"BKN","clouds":[{"cover":"BKN","base":12000}],"fltCat":"VFR"},{"icaoId":"KIFP","receiptTime":"2026-04-09T07:00:26.901Z","obsTime":1775717700,"reportTime":"2026-04-09T07:00:00.000Z","temp":24,"dewp":-7,"wdir":120,"wspd":4,"visib":"10+","altim":1007.5,"qcField":6,"metarType":"METAR","rawOb":"METAR KIFP 090655Z AUTO 12004KT 10SM CLR 24/M07 A2975 RMK AO2","lat":35.1487,"lon":-114.5611,"elev":210,"name":"Bullhead City Intl, AZ, US","cover":"CLR","clouds":[],"fltCat":"VFR"},{"icaoId":"KHII","receiptTime":"2026-04-09T07:00:26.508Z","obsTime":1775717700,"reportTime":"2026-04-09T07:00:00.000Z","temp":27,"dewp":-2,"wdir":120,"wspd":3,"visib":"10+","altim":1008.2,"qcField":6,"metarType":"METAR","rawOb":"METAR KHII 090655Z AUTO 12003KT 10SM CLR 27/M02 A2977 RMK AO2","lat":34.5659,"lon":-114.3522,"elev":241,"name":"Lake Havasu City Arpt, AZ, US","cover":"CLR","clouds":[],"fltCat":"VFR"},{"icaoId":"KCHD","receiptTime":"2026-04-09T06:58:25.981Z","obsTime":1775717700,"reportTime":"2026-04-09T07:00:00.000Z","temp":22.9,"dewp":3.6,"wdir":0,"wspd":0,"visib":"10+","altim":1009.9,"qcField":14,"metarType":"METAR","rawOb":"METAR KCHD 090655Z AUTO 00000KT 10SM CLR 23/04 A2982 RMK AO2 T02290036 $","lat":33.2669,"lon":-111.8086,"elev":378,"name":"Chandler Muni, AZ, US","cover":"CLR","clouds":[],"fltCat":"VFR"},{"icaoId":"KGCN","receiptTime":"2026-04-09T06:58:20.032Z","obsTime":1775717640,"reportTime":"2026-04-09T07:00:00.000Z","temp":2.8,"dewp":-2.2,"wdir":0,"wspd":0,"visib":"10+","altim":1020.7,"slp":1014.4,"qcField":6,"maxT24":22.2,"minT24":-3.9,"metarType":"METAR","rawOb":"METAR KGCN 090654Z AUTO 00000KT 10SM CLR 03/M02 A3014 RMK AO2 SLP144 T00281022 402221039","lat":35.9458,"lon":-112.1554,"elev":1993,"name":"Grand Canyon Park Arpt, AZ, US","cover":"CLR","clouds":[],"fltCat":"VFR"},{"icaoId":"KOLS","receiptTime":"2026-04-09T06:58:07.209Z","obsTime":1775717640,"reportTime":"2026-04-09T07:00:00.000Z","temp":16.1,"dewp":-4.4,"wdir":160,"wspd":3,"visib":"10+","altim":1016.3,"slp":1010.3,"qcField":6,"maxT24":30,"minT24":9.4,"metarType":"METAR","rawOb":"METAR KOLS 090654Z AUTO 16003KT 10SM CLR 16/M04 A3001 RMK AO2 SLP103 T01611044 403000094","lat":31.4208,"lon":-110.8465,"elev":1194,"name":"Nogales Intl, AZ, US","cover":"CLR","clouds":[],"fltCat":"VFR"},{"icaoId":"KFFZ","receiptTime":"2026-04-09T06:58:24.319Z","obsTime":1775717640,"reportTime":"2026-04-09T07:00:00.000Z","temp":23.3,"dewp":-1.1,"wdir":0,"wspd":0,"visib":"10+","altim":1009.6,"slp":1007.2,"qcField":38,"maxT24":34.4,"minT24":19.4,"metarType":"METAR","rawOb":"METAR KFFZ 090654Z AUTO 00000KT 10SM CLR 23/M01 A2981 RMK AO2 SLP072 T02331011 403440194 TSNO","lat":33.4659,"lon":-111.7212,"elev":420,"name":"Mesa/Falcon Fld, AZ, US","cover":"CLR","clouds":[],"fltCat":"VFR"},{"icaoId":"KSJN","receiptTime":"2026-04-09T06:58:05.872Z","obsTime":1775717640,"reportTime":"2026-04-09T07:00:00.000Z","temp":12.2,"dewp":-2.8,"wdir":180,"wspd":3,"visib":"10+","altim":1018.7,"slp":1011,"qcField":6,"maxT24":24.4,"minT24":2.8,"metarType":"METAR","rawOb":"METAR KSJN 090654Z AUTO 18003KT 10SM CLR 12/M03 A3008 RMK AO2 SLP110 T01221028 402440028","lat":34.5184,"lon":-109.3801,"elev":1747,"name":"St Johns Ind Arpt, AZ, US","cover":"CLR","clouds":[],"fltCat":"VFR"},{"icaoId":"KTUS","receiptTime":"2026-04-09T06:56:24.388Z","obsTime":1775717580,"reportTime":"2026-04-09T07:00:00.000Z","temp":22.8,"dewp":-3.3,"wdir":210,"wspd":5,"visib":"10+","altim":1014,"slp":1009.2,"qcField":4,"maxT24":32.2,"minT24":15,"metarType":"METAR","rawOb":"METAR KTUS 090653Z 21005KT 10SM CLR 23/M03 A2994 RMK AO2 SLP092 T02281033 403220150","lat":32.1315,"lon":-110.9564,"elev":776,"name":"Tucson Intl Arpt, AZ, US","cover":"CLR","clouds":[],"fltCat":"VFR"},{"icaoId":"KDVT","receiptTime":"2026-04-09T06:56:26.132Z","obsTime":1775717580,"reportTime":"2026-04-09T07:00:00.000Z","temp":23.9,"dewp":-3.9,"wdir":50,"wspd":6,"visib":9,"altim":1010.2,"slp":1007.7,"qcField":6,"maxT24":35,"minT24":16.7,"metarType":"METAR","rawOb":"METAR KDVT 090653Z AUTO 05006KT 9SM CLR 24/M04 A2983 RMK AO2 SLP077 T02391039 403500167","lat":33.6902,"lon":-112.0662,"elev":454,"name":"Phoenix/Deer Valley Arpt, AZ, US","cover":"CLR","clouds":[],"fltCat":"VFR"},{"icaoId":"KPRC","receiptTime":"2026-04-09T06:56:24.680Z","obsTime":1775717580,"reportTime":"2026-04-09T07:00:00.000Z","temp":14.4,"dewp":-6.1,"wdir":190,"wspd":7,"visib":"10+","altim":1017.4,"slp":1010.1,"qcField":6,"maxT24":26.1,"minT24":7.2,"metarType":"METAR","rawOb":"METAR KPRC 090653Z AUTO 19007KT 10SM CLR 14/M06 A3004 RMK AO2 SLP101 T01441061 402610072","lat":34.6491,"lon":-112.4223,"elev":1528,"name":"Prescott/Love Fld, AZ, US","cover":"CLR","clouds":[],"fltCat":"VFR"},{"icaoId":"KPGA","receiptTime":"2026-04-09T06:56:24.640Z","obsTime":1775717580,"reportTime":"2026-04-09T07:00:00.000Z","temp":18.3,"dewp":-8.9,"wdir":220,"wspd":4,"visib":"10+","altim":1014,"slp":1008.2,"qcField":14,"maxT24":28.3,"minT24":11.7,"metarType":"METAR","rawOb":"METAR KPGA 090653Z AUTO 22004KT 10SM CLR 18/M09 A2994 RMK AO2 SLP082 T01831089 402830117 $","lat":36.9211,"lon":-111.4487,"elev":1310,"name":"Page Muni, AZ, US","cover":"CLR","clouds":[],"fltCat":"VFR"},{"icaoId":"KSDL","receiptTime":"2026-04-09T06:56:24.693Z","obsTime":1775717580,"reportTime":"2026-04-09T07:00:00.000Z","temp":23.3,"dewp":0.6,"wdir":0,"wspd":0,"visib":"10+","altim":1010.2,"slp":1007.7,"qcField":6,"maxT24":34.4,"minT24":17.2,"metarType":"METAR","rawOb":"METAR KSDL 090653Z AUTO 00000KT 10SM CLR 23/01 A2983 RMK AO2 SLP077 T02330006 403440172","lat":33.6123,"lon":-111.9232,"elev":438,"name":"Scottsdale Muni, AZ, US","cover":"CLR","clouds":[],"fltCat":"VFR"},{"icaoId":"KSAD","receiptTime":"2026-04-09T06:54:16.596Z","obsTime":1775717460,"reportTime":"2026-04-09T07:00:00.000Z","temp":16.1,"dewp":-5.6,"wdir":110,"wspd":4,"visib":"10+","altim":1013.3,"slp":1008.9,"qcField":6,"maxT24":31.1,"minT24":10,"metarType":"METAR","rawOb":"METAR KSAD 090651Z AUTO 11004KT 10SM CLR 16/M06 A2992 RMK AO2 SLP089 T01611056 403110100","lat":32.8565,"lon":-109.636,"elev":937,"name":"Safford Rgnl, AZ, US","cover":"CLR","clouds":[],"fltCat":"VFR"},{"icaoId":"KIGM","receiptTime":"2026-04-09T06:54:18.208Z","obsTime":1775717460,"reportTime":"2026-04-09T07:00:00.000Z","temp":17.8,"dewp":-6.1,"wdir":160,"wspd":11,"visib":"10+","altim":1013.6,"slp":1006.9,"qcField":6,"maxT24":30,"minT24":11.1,"metarType":"METAR","rawOb":"METAR KIGM 090651Z AUTO 16011KT 10SM CLR 18/M06 A2993 RMK AO2 SLP069 T01781061 403000111","lat":35.2575,"lon":-113.9341,"elev":1045,"name":"Kingman Arpt, AZ, US","cover":"CLR","clouds":[],"fltCat":"VFR"},{"icaoId":"KPHX","receiptTime":"2026-04-09T06:54:16.472Z","obsTime":1775717460,"reportTime":"2026-04-09T07:00:00.000Z","temp":27.2,"dewp":-1.1,"wdir":260,"wspd":3,"visib":"10+","altim":1008.9,"slp":1007,"qcField":4,"maxT24":36.7,"minT24":20,"metarType":"METAR","rawOb":"METAR KPHX 090651Z 26003KT 10SM CLR 27/M01 A2979 RMK AO2 SLP070 T02721011 403670200","lat":33.4278,"lon":-112.0037,"elev":338,"name":"Phoenix/Sky Harbor Intl, AZ, US","cover":"CLR","clouds":[],"fltCat":"VFR"},{"icaoId":"KIWA","receiptTime":"2026-04-09T06:51:27.227Z","obsTime":1775717400,"reportTime":"2026-04-09T07:00:00.000Z","temp":23,"dewp":-1,"wdir":0,"wspd":0,"visib":"10+","altim":1010.2,"qcField":0,"metarType":"METAR","rawOb":"METAR KIWA 090650Z 00000KT 10SM CLR 23/M01 A2983","lat":33.3008,"lon":-111.6437,"elev":420,"name":"Phoenix/Mesa Gateway Arpt, AZ, US","cover":"CLR","clouds":[],"fltCat":"VFR"},{"icaoId":"KLUF","receiptTime":"2026-04-09T06:06:03.660Z","obsTime":1775714100,"reportTime":"2026-04-09T06:00:00.000Z","temp":25,"dewp":-4.4,"wdir":340,"wspd":3,"visib":"10+","altim":1008.5,"slp":1007,"qcField":46,"presTend":1.3,"maxT":35.1,"minT":25,"metarType":"METAR","rawOb":"METAR KLUF 090555Z AUTO 34003KT 10SM CLR 25/M04 A2978 RMK AO2 SLP070 T02501044 10351 20250 52013 TSNO $","lat":33.538,"lon":-112.38,"elev":333,"name":"Phoenix/Luke AFB, AZ, US","cover":"CLR","clouds":[],"fltCat":"VFR"}]