[{"icaoId":"KHII","receiptTime":"2026-04-09T20:22:04.387Z","obsTime":1775765700,"reportTime":"2026-04-09T20:15:00.000Z","temp":33,"dewp":-1,"wdir":220,"wspd":10,"visib":"10+","altim":1009.6,"qcField":6,"metarType":"METAR","rawOb":"METAR KHII 092015Z AUTO 22010KT 10SM CLR 33/M01 A2981 RMK AO2","lat":34.5659,"lon":-114.3522,"elev":241,"name":"Lake Havasu City Arpt, AZ, US","cover":"CLR","clouds":[],"fltCat":"VFR"},{"icaoId":"KSOW","receiptTime":"2026-04-09T20:18:15.033Z","obsTime":1775765700,"reportTime":"2026-04-09T20:15:00.000Z","temp":23,"dewp":-5,"wdir":220,"wspd":17,"visib":"10+","altim":1021.1,"qcField":6,"metarType":"METAR","rawOb":"METAR KSOW 092015Z AUTO 22017KT 10SM CLR 23/M05 A3015 RMK AO2","lat":34.2686,"lon":-110.0019,"elev":1954,"name":"Show Low Muni, AZ, US","cover":"CLR","clouds":[],"fltCat":"VFR"},{"icaoId":"KSEZ","receiptTime":"2026-04-09T20:20:25.449Z","obsTime":1775765700,"reportTime":"2026-04-09T20:15:00.000Z","temp":27,"dewp":-6,"wdir":200,"wspd":16,"wgst":26,"visib":"10+","altim":1017.4,"qcField":6,"metarType":"METAR","rawOb":"METAR KSEZ 092015Z AUTO 20016G26KT 10SM CLR 27/M06 A3004 RMK AO2","lat":34.8467,"lon":-111.7884,"elev":1455,"name":"Sedona Arpt, AZ, US","cover":"CLR","clouds":[],"fltCat":"VFR"},{"icaoId":"KFLG","receiptTime":"2026-04-09T20:00:25.456Z","obsTime":1775764620,"reportTime":"2026-04-09T20:00:00.000Z","temp":18.9,"dewp":-5,"wdir":200,"wspd":16,"wgst":26,"visib":"10+","altim":1021.4,"slp":1013.9,"qcField":4,"metarType":"METAR","rawOb":"METAR KFLG 091957Z 20016G26KT 10SM CLR 19/M05 A3016 RMK AO2 PK WND 22027/1913 SLP139 T01891050","lat":35.1443,"lon":-111.6664,"elev":2134,"name":"Flagstaff/Pulliam Arpt, AZ, US","cover":"CLR","clouds":[],"fltCat":"VFR"},{"icaoId":"KNYL","receiptTime":"2026-04-09T20:00:31.868Z","obsTime":1775764620,"reportTime":"2026-04-09T20:00:00.000Z","temp":31.7,"dewp":3.9,"wdir":250,"wspd":5,"visib":"10+","altim":1010.9,"slp":1010.4,"qcField":4,"metarType":"METAR","rawOb":"METAR KNYL 091957Z 25005KT 10SM FEW150 SCT200 32/04 A2985 RMK AO2 SLP104 T03170039","lat":32.66,"lon":-114.6078,"elev":58,"name":"Yuma , AZ, US","cover":"SCT","clouds":[{"cover":"FEW","base":15000},{"cover":"SCT","base":20000}],"fltCat":"VFR"},{"icaoId":"KINW","receiptTime":"2026-04-09T20:00:12.688Z","obsTime":1775764560,"reportTime":"2026-04-09T20:00:00.000Z","temp":26.7,"dewp":-5,"wdir":260,"wspd":12,"visib":"10+","altim":1017.4,"slp":1010.8,"qcField":6,"metarType":"METAR","rawOb":"METAR KINW 091956Z AUTO 26012KT 10SM CLR 27/M05 A3004 RMK AO2 SLP108 T02671050","lat":35.0279,"lon":-110.7221,"elev":1492,"name":"Winslow/Lindberg Rgnl, AZ, US","cover":"CLR","clouds":[],"fltCat":"VFR"},{"icaoId":"KDUG","receiptTime":"2026-04-09T20:02:12.733Z","obsTime":1775764560,"reportTime":"2026-04-09T20:00:00.000Z","temp":27.8,"dewp":-2.8,"wdir":200,"wspd":8,"visib":"10+","altim":1017,"slp":1010.6,"qcField":38,"metarType":"METAR","rawOb":"METAR KDUG 091956Z AUTO 20008KT 10SM CLR 28/M03 A3003 RMK AO2 SLP106 T02781028 TSNO","lat":31.4725,"lon":-109.6022,"elev":1260,"name":"Douglas/Bisbee Intl, AZ, US","cover":"CLR","clouds":[],"fltCat":"VFR"},{"icaoId":"KCGZ","receiptTime":"2026-04-09T19:58:26.584Z","obsTime":1775764560,"reportTime":"2026-04-09T20:00:00.000Z","temp":33.3,"dewp":-4.4,"wdir":200,"wspd":13,"wgst":19,"visib":8,"altim":1012.3,"slp":1010.6,"qcField":14,"metarType":"METAR","rawOb":"METAR KCGZ 091956Z AUTO 20013G19KT 8SM CLR 33/M04 A2989 RMK AO2 SLP106 T03331044 $","lat":32.9531,"lon":-111.7725,"elev":444,"name":"Casa Granda Muni, AZ, US","cover":"CLR","clouds":[],"fltCat":"VFR"},{"icaoId":"KLUF","receiptTime":"2026-04-09T20:02:10.205Z","obsTime":1775764500,"reportTime":"2026-04-09T20:00:00.000Z","temp":32.2,"dewp":-4.7,"wdir":220,"wspd":7,"visib":"10+","altim":1010.9,"slp":1009.5,"qcField":12,"metarType":"METAR","rawOb":"METAR KLUF 091955Z 22007KT 10SM FEW150 SCT200 32/M05 A2985 RMK AO2A SLP095 T03221047 $","lat":33.538,"lon":-112.38,"elev":333,"name":"Phoenix/Luke AFB, AZ, US","cover":"SCT","clouds":[{"cover":"FEW","base":15000},{"cover":"SCT","base":20000}],"fltCat":"VFR"},{"icaoId":"KSJN","receiptTime":"2026-04-09T19:58:10.411Z","obsTime":1775764440,"reportTime":"2026-04-09T20:00:00.000Z","temp":23.9,"dewp":-5.6,"wdir":290,"wspd":6,"wgst":18,"visib":"10+","altim":1018,"slp":1010.3,"qcField":6,"metarType":"METAR","rawOb":"METAR KSJN 091954Z AUTO 29006G18KT 10SM SCT110 24/M06 A3006 RMK AO2 SLP103 T02391056","lat":34.5184,"lon":-109.3801,"elev":1747,"name":"St Johns Ind Arpt, AZ, US","cover":"SCT","clouds":[{"cover":"SCT","base":11000}],"fltCat":"VFR"},{"icaoId":"KGCN","receiptTime":"2026-04-09T19:58:20.028Z","obsTime":1775764440,"reportTime":"2026-04-09T20:00:00.000Z","temp":20,"dewp":-5.6,"wdir":210,"wspd":10,"wgst":24,"visib":"10+","altim":1020.4,"slp":1014.1,"qcField":4,"metarType":"METAR","rawOb":"METAR KGCN 091954Z 21010G24KT 10SM CLR 20/M06 A3013 RMK AO2 PK WND 22028/1915 SLP141 T02001056","lat":35.9458,"lon":-112.1554,"elev":1993,"name":"Grand Canyon Park Arpt, AZ, US","cover":"CLR","clouds":[],"fltCat":"VFR"},{"icaoId":"KFFZ","receiptTime":"2026-04-09T19:58:18.941Z","obsTime":1775764440,"reportTime":"2026-04-09T20:00:00.000Z","temp":32.8,"dewp":-2.2,"wdir":0,"wspd":0,"visib":"10+","altim":1011.9,"slp":1009.4,"qcField":4,"metarType":"METAR","rawOb":"METAR KFFZ 091954Z 00000KT 10SM CLR 33/M02 A2988 RMK AO2 SLP094 T03281022","lat":33.4659,"lon":-111.7212,"elev":420,"name":"Mesa/Falcon Fld, AZ, US","cover":"CLR","clouds":[],"fltCat":"VFR"},{"icaoId":"KOLS","receiptTime":"2026-04-09T19:58:20.064Z","obsTime":1775764440,"reportTime":"2026-04-09T20:00:00.000Z","temp":28.9,"dewp":-1.7,"wdir":240,"wspd":9,"wgst":17,"visib":"10+","altim":1016.7,"slp":1010,"qcField":6,"metarType":"METAR","rawOb":"METAR KOLS 091954Z AUTO 24009G17KT 10SM CLR 29/M02 A3002 RMK AO2 SLP100 T02891017","lat":31.4208,"lon":-110.8465,"elev":1194,"name":"Nogales Intl, AZ, US","cover":"CLR","clouds":[],"fltCat":"VFR"},{"icaoId":"KTUS","receiptTime":"2026-04-09T19:56:37.695Z","obsTime":1775764380,"reportTime":"2026-04-09T20:00:00.000Z","temp":31.1,"dewp":-3.3,"wdir":330,"wspd":8,"wgst":18,"visib":"10+","altim":1014.6,"slp":1009.8,"qcField":4,"metarType":"METAR","rawOb":"METAR KTUS 091953Z 33008G18KT 10SM CLR 31/M03 A2996 RMK AO2 SLP098 T03111033","lat":32.1315,"lon":-110.9564,"elev":776,"name":"Tucson Intl Arpt, AZ, US","cover":"CLR","clouds":[],"fltCat":"VFR"},{"icaoId":"KDVT","receiptTime":"2026-04-09T19:56:35.418Z","obsTime":1775764380,"reportTime":"2026-04-09T20:00:00.000Z","temp":31.7,"dewp":-4.4,"wdir":200,"wspd":5,"wgst":16,"visib":"10+","altim":1012.3,"slp":1009.8,"qcField":4,"metarType":"METAR","rawOb":"METAR KDVT 091953Z 20005G16KT 10SM CLR 32/M04 A2989 RMK AO2 SLP098 T03171044","lat":33.6902,"lon":-112.0662,"elev":454,"name":"Phoenix/Deer Valley Arpt, AZ, US","cover":"CLR","clouds":[],"fltCat":"VFR"},{"icaoId":"KPGA","receiptTime":"2026-04-09T19:56:38.919Z","obsTime":1775764380,"reportTime":"2026-04-09T20:00:00.000Z","temp":26.7,"dewp":-7.2,"wdir":"VRB","wspd":6,"wgst":15,"visib":"10+","altim":1014.6,"slp":1008.7,"qcField":6,"metarType":"METAR","rawOb":"METAR KPGA 091953Z AUTO VRB06G15KT 10SM CLR 27/M07 A2996 RMK AO2 SLP087 T02671072","lat":36.9211,"lon":-111.4487,"elev":1310,"name":"Page Muni, AZ, US","cover":"CLR","clouds":[],"fltCat":"VFR"},{"icaoId":"KPRC","receiptTime":"2026-04-09T19:56:40.619Z","obsTime":1775764380,"reportTime":"2026-04-09T20:00:00.000Z","temp":24.4,"dewp":-5,"wdir":170,"wspd":8,"wgst":25,"visib":"10+","altim":1018,"slp":1010.8,"qcField":4,"metarType":"METAR","rawOb":"METAR KPRC 091953Z 17008G25KT 150V210 10SM CLR 24/M05 A3006 RMK AO2 PK WND 22027/1911 SLP108 T02441050","lat":34.6491,"lon":-112.4223,"elev":1528,"name":"Prescott/Love Fld, AZ, US","cover":"CLR","clouds":[],"fltCat":"VFR"},{"icaoId":"KSDL","receiptTime":"2026-04-09T19:56:34.836Z","obsTime":1775764380,"reportTime":"2026-04-09T20:00:00.000Z","temp":32.2,"dewp":-2.2,"wdir":0,"wspd":0,"visib":"10+","altim":1012.6,"slp":1010,"qcField":4,"metarType":"METAR","rawOb":"METAR KSDL 091953Z 00000KT 10SM CLR 32/M02 A2990 RMK AO2 SLP100 T03221022","lat":33.6123,"lon":-111.9232,"elev":438,"name":"Scottsdale Muni, AZ, US","cover":"CLR","clouds":[],"fltCat":"VFR"},{"icaoId":"KPHX","receiptTime":"2026-04-09T19:56:41.117Z","obsTime":1775764260,"reportTime":"2026-04-09T20:00:00.000Z","temp":33.9,"dewp":-2.8,"wdir":210,"wspd":9,"wgst":14,"visib":"10+","altim":1011.3,"slp":1008.9,"qcField":5,"metarType":"METAR","rawOb":"METAR KPHX 091951Z COR 21009G14KT 10SM BKN270 34/M03 A2986 RMK AO2 SLP089 T03391028","lat":33.4278,"lon":-112.0037,"elev":338,"name":"Phoenix/Sky Harbor Intl, AZ, US","cover":"BKN","clouds":[{"cover":"BKN","base":27000}],"fltCat":"VFR"},{"icaoId":"KSAD","receiptTime":"2026-04-09T19:54:12.762Z","obsTime":1775764260,"reportTime":"2026-04-09T20:00:00.000Z","temp":30.6,"dewp":-3.9,"wdir":110,"wspd":4,"visib":"10+","altim":1014,"slp":1009.3,"qcField":6,"metarType":"METAR","rawOb":"METAR KSAD 091951Z AUTO 11004KT 10SM CLR 31/M04 A2994 RMK AO2 SLP093 T03061039","lat":32.8565,"lon":-109.636,"elev":937,"name":"Safford Rgnl, AZ, US","cover":"CLR","clouds":[],"fltCat":"VFR"},{"icaoId":"KIGM","receiptTime":"2026-04-09T19:54:12.147Z","obsTime":1775764260,"reportTime":"2026-04-09T20:00:00.000Z","temp":26.7,"dewp":-3.3,"wdir":220,"wspd":15,"wgst":23,"visib":"10+","altim":1014.3,"slp":1007.8,"qcField":6,"metarType":"METAR","rawOb":"METAR KIGM 091951Z AUTO 22015G23KT 10SM CLR 27/M03 A2995 RMK AO2 PK WND 23034/1913 SLP078 T02671033","lat":35.2575,"lon":-113.9341,"elev":1045,"name":"Kingman Arpt, AZ, US","cover":"CLR","clouds":[],"fltCat":"VFR"},{"icaoId":"KIWA","receiptTime":"2026-04-09T19:53:39.892Z","obsTime":1775764200,"reportTime":"2026-04-09T20:00:00.000Z","temp":32,"dewp":-2,"wdir":"VRB","wspd":5,"visib":"10+","altim":1012.6,"qcField":0,"metarType":"METAR","rawOb":"METAR KIWA 091950Z VRB05KT 10SM CLR 32/M02 A2990","lat":33.3008,"lon":-111.6437,"elev":420,"name":"Phoenix/Mesa Gateway Arpt, AZ, US","cover":"CLR","clouds":[],"fltCat":"VFR"},{"icaoId":"KGYR","receiptTime":"2026-04-09T19:48:32.368Z","obsTime":1775764020,"reportTime":"2026-04-09T20:00:00.000Z","temp":33,"dewp":-1,"wdir":240,"wspd":10,"visib":"10+","altim":1011.6,"qcField":0,"metarType":"METAR","rawOb":"METAR KGYR 091947Z 24010KT 10SM SCT200 BKN250 33/M01 A2987","lat":33.428,"lon":-112.368,"elev":292,"name":"Phoenix/Goodyear Muni, AZ, US","cover":"BKN","clouds":[{"cover":"SCT","base":20000},{"cover":"BKN","base":25000}],"fltCat":"VFR"},{"icaoId":"KGEU","receiptTime":"2026-04-09T19:46:11.553Z","obsTime":1775764020,"reportTime":"2026-04-09T20:00:00.000Z","temp":33,"dewp":-3,"wdir":160,"wspd":8,"visib":"10+","altim":1010.6,"qcField":0,"metarType":"METAR","rawOb":"METAR KGEU 091947Z 16008KT 10SM CLR 33/M03 A2984","lat":33.528,"lon":-112.293,"elev":319,"name":"Glendale Muni, AZ, US","cover":"CLR","clouds":[],"fltCat":"VFR"},{"icaoId":"KCHD","receiptTime":"2026-04-09T19:48:32.340Z","obsTime":1775764020,"reportTime":"2026-04-09T20:00:00.000Z","temp":32,"dewp":-2,"wdir":190,"wspd":8,"visib":"10+","altim":1011.9,"qcField":0,"metarType":"METAR","rawOb":"METAR KCHD 091947Z 19008KT 10SM SCT250 32/M02 A2988","lat":33.2669,"lon":-111.8086,"elev":378,"name":"Chandler Muni, AZ, US","cover":"SCT","clouds":[{"cover":"SCT","base":25000}],"fltCat":"VFR"},{"icaoId":"KIFP","receiptTime":"2026-04-09T19:50:26.005Z","obsTime":1775764020,"reportTime":"2026-04-09T20:00:00.000Z","temp":31,"dewp":-3,"wdir":210,"wspd":7,"wgst":16,"visib":"10+","altim":1009.2,"qcField":0,"metarType":"METAR","rawOb":"METAR KIFP 091947Z 21007G16KT 10SM CLR 31/M03 A2980","lat":35.1487,"lon":-114.5611,"elev":210,"name":"Bullhead City Intl, AZ, US","cover":"CLR","clouds":[],"fltCat":"VFR"},{"icaoId":"KRYN","receiptTime":"2026-04-09T19:45:41.264Z","obsTime":1775763900,"reportTime":"2026-04-09T20:00:00.000Z","temp":33,"dewp":-5,"wdir":60,"wspd":4,"visib":"10+","altim":1013.3,"qcField":0,"metarType":"METAR","rawOb":"METAR KRYN 091945Z 06004KT 10SM CLR 33/M05 A2992","lat":32.1418,"lon":-111.1767,"elev":731,"name":"Tucson/Ryan Fld, AZ, US","cover":"CLR","clouds":[],"fltCat":"VFR"}]