[{"icaoId":"KSOW","receiptTime":"2026-04-09T05:38:26.622Z","obsTime":1775712900,"reportTime":"2026-04-09T05:35:00.000Z","temp":13,"dewp":-5,"wdir":180,"wspd":6,"visib":"10+","altim":1020.7,"qcField":6,"metarType":"METAR","rawOb":"METAR KSOW 090535Z AUTO 18006KT 10SM CLR 13/M05 A3014 RMK AO2","lat":34.2686,"lon":-110.0019,"elev":1954,"name":"Show Low Muni, AZ, US","cover":"CLR","clouds":[],"fltCat":"VFR"},{"icaoId":"KCHD","receiptTime":"2026-04-09T05:38:23.415Z","obsTime":1775712900,"reportTime":"2026-04-09T05:35:00.000Z","temp":25.6,"dewp":-0.1,"wdir":0,"wspd":0,"visib":"10+","altim":1009.2,"qcField":14,"metarType":"METAR","rawOb":"METAR KCHD 090535Z AUTO 00000KT 10SM CLR 26/M00 A2980 RMK AO2 T02561001 $","lat":33.2669,"lon":-111.8086,"elev":378,"name":"Chandler Muni, AZ, US","cover":"CLR","clouds":[],"fltCat":"VFR"},{"icaoId":"KSEZ","receiptTime":"2026-04-09T05:38:21.316Z","obsTime":1775712900,"reportTime":"2026-04-09T05:35:00.000Z","temp":18,"dewp":-6,"wdir":100,"wspd":3,"visib":"10+","altim":1017,"qcField":6,"metarType":"METAR","rawOb":"METAR KSEZ 090535Z AUTO 10003KT 10SM CLR 18/M06 A3003 RMK AO2","lat":34.8467,"lon":-111.7884,"elev":1455,"name":"Sedona Arpt, AZ, US","cover":"CLR","clouds":[],"fltCat":"VFR"},{"icaoId":"KIFP","receiptTime":"2026-04-09T05:40:12.105Z","obsTime":1775712900,"reportTime":"2026-04-09T05:35:00.000Z","temp":28,"dewp":-7,"wdir":0,"wspd":0,"visib":"10+","altim":1007.2,"qcField":6,"metarType":"METAR","rawOb":"METAR KIFP 090535Z AUTO 00000KT 10SM CLR 28/M07 A2974 RMK AO2","lat":35.1487,"lon":-114.5611,"elev":210,"name":"Bullhead City Intl, AZ, US","cover":"CLR","clouds":[],"fltCat":"VFR"},{"icaoId":"KHII","receiptTime":"2026-04-09T05:40:22.433Z","obsTime":1775712900,"reportTime":"2026-04-09T05:35:00.000Z","temp":29,"dewp":-2,"wdir":180,"wspd":4,"visib":"10+","altim":1008.2,"qcField":6,"metarType":"METAR","rawOb":"METAR KHII 090535Z AUTO 18004KT 10SM CLR 29/M02 A2977 RMK AO2","lat":34.5659,"lon":-114.3522,"elev":241,"name":"Lake Havasu City Arpt, AZ, US","cover":"CLR","clouds":[],"fltCat":"VFR"},{"icaoId":"KNYL","receiptTime":"2026-04-09T05:00:17.086Z","obsTime":1775710620,"reportTime":"2026-04-09T05:00:00.000Z","temp":26.1,"dewp":5,"wdir":0,"wspd":0,"visib":"10+","altim":1008.2,"slp":1007.8,"qcField":4,"metarType":"METAR","rawOb":"METAR KNYL 090457Z 00000KT 10SM CLR 26/05 A2977 RMK AO2 SLP078 T02610050","lat":32.66,"lon":-114.6078,"elev":58,"name":"Yuma , AZ, US","cover":"CLR","clouds":[],"fltCat":"VFR"},{"icaoId":"KFLG","receiptTime":"2026-04-09T05:00:20.137Z","obsTime":1775710620,"reportTime":"2026-04-09T05:00:00.000Z","temp":8.3,"dewp":-5,"wdir":220,"wspd":3,"visib":"10+","altim":1021.4,"slp":1013.4,"qcField":6,"metarType":"METAR","rawOb":"METAR KFLG 090457Z AUTO 22003KT 10SM CLR 08/M05 A3016 RMK AO2 SLP134 T00831050","lat":35.1443,"lon":-111.6664,"elev":2134,"name":"Flagstaff/Pulliam Arpt, AZ, US","cover":"CLR","clouds":[],"fltCat":"VFR"},{"icaoId":"KCGZ","receiptTime":"2026-04-09T04:58:53.852Z","obsTime":1775710560,"reportTime":"2026-04-09T05:00:00.000Z","temp":27.2,"dewp":-2.8,"wdir":330,"wspd":7,"visib":"10+","altim":1009.9,"slp":1008.3,"qcField":14,"metarType":"METAR","rawOb":"METAR KCGZ 090456Z AUTO 33007KT 10SM CLR 27/M03 A2982 RMK AO2 SLP083 T02721028 $","lat":32.9531,"lon":-111.7725,"elev":444,"name":"Casa Granda Muni, AZ, US","cover":"CLR","clouds":[],"fltCat":"VFR"},{"icaoId":"KDUG","receiptTime":"2026-04-09T05:02:07.678Z","obsTime":1775710560,"reportTime":"2026-04-09T05:00:00.000Z","temp":20.6,"dewp":-2.2,"wdir":180,"wspd":4,"visib":"10+","altim":1015.7,"slp":1009.2,"qcField":38,"metarType":"METAR","rawOb":"METAR KDUG 090456Z AUTO 18004KT 10SM CLR 21/M02 A2999 RMK AO2 SLP092 T02061022 TSNO","lat":31.4725,"lon":-109.6022,"elev":1260,"name":"Douglas/Bisbee Intl, AZ, US","cover":"CLR","clouds":[],"fltCat":"VFR"},{"icaoId":"KINW","receiptTime":"2026-04-09T05:00:13.773Z","obsTime":1775710560,"reportTime":"2026-04-09T05:00:00.000Z","temp":16.1,"dewp":-1.7,"wdir":210,"wspd":10,"visib":"10+","altim":1016.3,"slp":1011,"qcField":6,"metarType":"METAR","rawOb":"METAR KINW 090456Z AUTO 21010KT 10SM CLR 16/M02 A3001 RMK AO2 SLP110 T01611017","lat":35.0279,"lon":-110.7221,"elev":1492,"name":"Winslow/Lindberg Rgnl, AZ, US","cover":"CLR","clouds":[],"fltCat":"VFR"},{"icaoId":"KLUF","receiptTime":"2026-04-09T05:06:04.864Z","obsTime":1775710500,"reportTime":"2026-04-09T05:00:00.000Z","temp":26.6,"dewp":-4.1,"wdir":0,"wspd":0,"visib":"10+","altim":1008.2,"slp":1006.8,"qcField":44,"metarType":"METAR","rawOb":"METAR KLUF 090455Z 00000KT 10SM CLR 27/M04 A2977 RMK AO2A SLP068 T02661041 TSNO $","lat":33.538,"lon":-112.38,"elev":333,"name":"Phoenix/Luke AFB, AZ, US","cover":"CLR","clouds":[],"fltCat":"VFR"},{"icaoId":"KGCN","receiptTime":"2026-04-09T04:58:15.562Z","obsTime":1775710440,"reportTime":"2026-04-09T05:00:00.000Z","temp":7.2,"dewp":-2.2,"wdir":0,"wspd":0,"visib":"10+","altim":1020.1,"slp":1012.9,"qcField":6,"metarType":"METAR","rawOb":"METAR KGCN 090454Z AUTO 00000KT 10SM FEW100 07/M02 A3012 RMK AO2 SLP129 T00721022","lat":35.9458,"lon":-112.1554,"elev":1993,"name":"Grand Canyon Park Arpt, AZ, US","cover":"FEW","clouds":[{"cover":"FEW","base":10000}],"fltCat":"VFR"},{"icaoId":"KSJN","receiptTime":"2026-04-09T04:58:12.240Z","obsTime":1775710440,"reportTime":"2026-04-09T05:00:00.000Z","temp":14.4,"dewp":-4.4,"wdir":210,"wspd":7,"visib":"10+","altim":1018,"slp":1010.9,"qcField":6,"metarType":"METAR","rawOb":"METAR KSJN 090454Z AUTO 21007KT 10SM CLR 14/M04 A3006 RMK AO2 SLP109 T01441044","lat":34.5184,"lon":-109.3801,"elev":1747,"name":"St Johns Ind Arpt, AZ, US","cover":"CLR","clouds":[],"fltCat":"VFR"},{"icaoId":"KOLS","receiptTime":"2026-04-09T04:58:20.115Z","obsTime":1775710440,"reportTime":"2026-04-09T05:00:00.000Z","temp":21.1,"dewp":-4.4,"wdir":0,"wspd":0,"visib":"10+","altim":1015.7,"slp":1009.1,"qcField":6,"metarType":"METAR","rawOb":"METAR KOLS 090454Z AUTO 00000KT 10SM CLR 21/M04 A2999 RMK AO2 SLP091 T02111044","lat":31.4208,"lon":-110.8465,"elev":1194,"name":"Nogales Intl, AZ, US","cover":"CLR","clouds":[],"fltCat":"VFR"},{"icaoId":"KFFZ","receiptTime":"2026-04-09T04:58:23.438Z","obsTime":1775710440,"reportTime":"2026-04-09T05:00:00.000Z","temp":26.1,"dewp":2.2,"wdir":0,"wspd":0,"visib":"10+","altim":1009.2,"slp":1006.7,"qcField":38,"metarType":"METAR","rawOb":"METAR KFFZ 090454Z AUTO 00000KT 10SM CLR 26/02 A2980 RMK AO2 SLP067 T02610022 TSNO","lat":33.4659,"lon":-111.7212,"elev":420,"name":"Mesa/Falcon Fld, AZ, US","cover":"CLR","clouds":[],"fltCat":"VFR"},{"icaoId":"KTUS","receiptTime":"2026-04-09T04:56:27.789Z","obsTime":1775710380,"reportTime":"2026-04-09T05:00:00.000Z","temp":23.3,"dewp":-1.7,"wdir":230,"wspd":6,"visib":"10+","altim":1012.6,"slp":1008.3,"qcField":4,"metarType":"METAR","rawOb":"METAR KTUS 090453Z 23006KT 10SM CLR 23/M02 A2990 RMK AO2 SLP083 T02331017","lat":32.1315,"lon":-110.9564,"elev":776,"name":"Tucson Intl Arpt, AZ, US","cover":"CLR","clouds":[],"fltCat":"VFR"},{"icaoId":"KSDL","receiptTime":"2026-04-09T04:56:26.553Z","obsTime":1775710380,"reportTime":"2026-04-09T05:00:00.000Z","temp":27.2,"dewp":-1.7,"wdir":20,"wspd":4,"visib":"10+","altim":1009.9,"slp":1007.2,"qcField":6,"metarType":"METAR","rawOb":"METAR KSDL 090453Z AUTO 02004KT 10SM CLR 27/M02 A2982 RMK AO2 SLP072 T02721017","lat":33.6123,"lon":-111.9232,"elev":438,"name":"Scottsdale Muni, AZ, US","cover":"CLR","clouds":[],"fltCat":"VFR"},{"icaoId":"KPGA","receiptTime":"2026-04-09T04:56:27.621Z","obsTime":1775710380,"reportTime":"2026-04-09T05:00:00.000Z","temp":20.6,"dewp":-8.3,"wdir":0,"wspd":0,"visib":"10+","altim":1013.3,"slp":1007.8,"qcField":14,"metarType":"METAR","rawOb":"METAR KPGA 090453Z AUTO 00000KT 10SM CLR 21/M08 A2992 RMK AO2 SLP078 T02061083 $","lat":36.9211,"lon":-111.4487,"elev":1310,"name":"Page Muni, AZ, US","cover":"CLR","clouds":[],"fltCat":"VFR"},{"icaoId":"KPRC","receiptTime":"2026-04-09T04:56:30.587Z","obsTime":1775710380,"reportTime":"2026-04-09T05:00:00.000Z","temp":16.1,"dewp":-5.6,"wdir":200,"wspd":8,"visib":"10+","altim":1017.4,"slp":1010.3,"qcField":6,"metarType":"METAR","rawOb":"METAR KPRC 090453Z AUTO 20008KT 10SM CLR 16/M06 A3004 RMK AO2 SLP103 T01611056","lat":34.6491,"lon":-112.4223,"elev":1528,"name":"Prescott/Love Fld, AZ, US","cover":"CLR","clouds":[],"fltCat":"VFR"},{"icaoId":"KDVT","receiptTime":"2026-04-09T04:56:30.953Z","obsTime":1775710380,"reportTime":"2026-04-09T05:00:00.000Z","temp":23.9,"dewp":-3.3,"wdir":0,"wspd":0,"visib":"10+","altim":1009.6,"slp":1007.2,"qcField":6,"metarType":"METAR","rawOb":"METAR KDVT 090453Z AUTO 00000KT 10SM CLR 24/M03 A2981 RMK AO2 SLP072 T02391033","lat":33.6902,"lon":-112.0662,"elev":454,"name":"Phoenix/Deer Valley Arpt, AZ, US","cover":"CLR","clouds":[],"fltCat":"VFR"},{"icaoId":"KSAD","receiptTime":"2026-04-09T04:54:10.037Z","obsTime":1775710260,"reportTime":"2026-04-09T05:00:00.000Z","temp":20,"dewp":-6.1,"wdir":0,"wspd":0,"visib":"10+","altim":1012.6,"slp":1008.3,"qcField":6,"metarType":"METAR","rawOb":"METAR KSAD 090451Z AUTO 00000KT 10SM CLR 20/M06 A2990 RMK AO2 SLP083 T02001061","lat":32.8565,"lon":-109.636,"elev":937,"name":"Safford Rgnl, AZ, US","cover":"CLR","clouds":[],"fltCat":"VFR"},{"icaoId":"KPHX","receiptTime":"2026-04-09T04:54:09.844Z","obsTime":1775710260,"reportTime":"2026-04-09T05:00:00.000Z","temp":29.4,"dewp":-1.7,"wdir":0,"wspd":0,"visib":"10+","altim":1008.5,"slp":1006.4,"qcField":4,"metarType":"METAR","rawOb":"METAR KPHX 090451Z 00000KT 10SM CLR 29/M02 A2978 RMK AO2 SLP064 T02941017","lat":33.4278,"lon":-112.0037,"elev":338,"name":"Phoenix/Sky Harbor Intl, AZ, US","cover":"CLR","clouds":[],"fltCat":"VFR"},{"icaoId":"KIGM","receiptTime":"2026-04-09T04:54:09.559Z","obsTime":1775710260,"reportTime":"2026-04-09T05:00:00.000Z","temp":20,"dewp":-8.3,"wdir":180,"wspd":10,"visib":"10+","altim":1013.6,"slp":1007.1,"qcField":6,"metarType":"METAR","rawOb":"METAR KIGM 090451Z AUTO 18010KT 10SM CLR 20/M08 A2993 RMK AO2 SLP071 T02001083","lat":35.2575,"lon":-113.9341,"elev":1045,"name":"Kingman Arpt, AZ, US","cover":"CLR","clouds":[],"fltCat":"VFR"},{"icaoId":"KIWA","receiptTime":"2026-04-09T04:49:09.640Z","obsTime":1775710080,"reportTime":"2026-04-09T05:00:00.000Z","temp":27,"dewp":-2,"wdir":350,"wspd":4,"visib":"10+","altim":1009.6,"qcField":0,"metarType":"METAR","rawOb":"METAR KIWA 090448Z 35004KT 10SM CLR 27/M02 A2981","lat":33.3008,"lon":-111.6437,"elev":420,"name":"Phoenix/Mesa Gateway Arpt, AZ, US","cover":"CLR","clouds":[],"fltCat":"VFR"}]