[{"icaoId":"KHII","receiptTime":"2026-04-06T04:41:11.888Z","obsTime":1775450100,"reportTime":"2026-04-06T04:35:00.000Z","temp":28,"dewp":-11,"wdir":50,"wspd":5,"visib":"10+","altim":1012.3,"qcField":6,"metarType":"METAR","rawOb":"METAR KHII 060435Z AUTO 05005KT 10SM CLR 28/M11 A2989 RMK AO2","lat":34.5659,"lon":-114.3522,"elev":241,"name":"Lake Havasu City Arpt, AZ, US","cover":"CLR","clouds":[],"fltCat":"VFR"},{"icaoId":"KSEZ","receiptTime":"2026-04-06T04:41:01.964Z","obsTime":1775450100,"reportTime":"2026-04-06T04:35:00.000Z","temp":20,"dewp":-4,"wdir":0,"wspd":0,"visib":"10+","altim":1021.1,"qcField":6,"metarType":"METAR","rawOb":"METAR KSEZ 060435Z AUTO 00000KT 10SM CLR 20/M04 A3015 RMK AO2","lat":34.8467,"lon":-111.7884,"elev":1455,"name":"Sedona Arpt, AZ, US","cover":"CLR","clouds":[],"fltCat":"VFR"},{"icaoId":"KCHD","receiptTime":"2026-04-06T04:38:13.580Z","obsTime":1775450100,"reportTime":"2026-04-06T04:35:00.000Z","temp":25.6,"dewp":6,"wdir":120,"wspd":5,"visib":"10+","altim":1013,"qcField":6,"metarType":"METAR","rawOb":"METAR KCHD 060435Z AUTO 12005KT 10SM BKN140 26/06 A2991 RMK AO2 T02560060","lat":33.2669,"lon":-111.8086,"elev":378,"name":"Chandler Muni, AZ, US","cover":"BKN","clouds":[{"cover":"BKN","base":14000}],"fltCat":"VFR"},{"icaoId":"KIFP","receiptTime":"2026-04-06T04:40:58.836Z","obsTime":1775450100,"reportTime":"2026-04-06T04:35:00.000Z","temp":27,"dewp":-9,"wdir":60,"wspd":4,"visib":"10+","altim":1011.9,"qcField":6,"metarType":"METAR","rawOb":"METAR KIFP 060435Z AUTO 06004KT 10SM CLR 27/M09 A2988 RMK AO2","lat":35.1487,"lon":-114.5611,"elev":210,"name":"Bullhead City Intl, AZ, US","cover":"CLR","clouds":[],"fltCat":"VFR"},{"icaoId":"KSOW","receiptTime":"2026-04-06T04:38:20.505Z","obsTime":1775450100,"reportTime":"2026-04-06T04:35:00.000Z","temp":13,"dewp":-3,"wdir":190,"wspd":8,"visib":"10+","altim":1024.8,"qcField":6,"metarType":"METAR","rawOb":"METAR KSOW 060435Z AUTO 19008KT 10SM CLR 13/M03 A3026 RMK AO2","lat":34.2686,"lon":-110.0019,"elev":1954,"name":"Show Low Muni, AZ, US","cover":"CLR","clouds":[],"fltCat":"VFR"},{"icaoId":"KFLG","receiptTime":"2026-04-06T04:00:44.219Z","obsTime":1775447820,"reportTime":"2026-04-06T04:00:00.000Z","temp":9.4,"dewp":-6.1,"wdir":0,"wspd":0,"visib":"10+","altim":1024.8,"slp":1018.1,"qcField":6,"metarType":"METAR","rawOb":"METAR KFLG 060357Z AUTO 00000KT 10SM BKN100 09/M06 A3026 RMK AO2 SLP181 T00941061","lat":35.1443,"lon":-111.6664,"elev":2134,"name":"Flagstaff/Pulliam Arpt, AZ, US","cover":"BKN","clouds":[{"cover":"BKN","base":10000}],"fltCat":"VFR"},{"icaoId":"KNYL","receiptTime":"2026-04-06T04:00:44.125Z","obsTime":1775447820,"reportTime":"2026-04-06T04:00:00.000Z","temp":26.7,"dewp":0.6,"wdir":250,"wspd":4,"visib":"10+","altim":1011.6,"slp":1011.3,"qcField":14,"metarType":"METAR","rawOb":"METAR KNYL 060357Z AUTO 25004KT 10SM CLR 27/01 A2987 RMK AO2 SLP113 T02670006 $","lat":32.66,"lon":-114.6078,"elev":58,"name":"Yuma , AZ, US","cover":"CLR","clouds":[],"fltCat":"VFR"},{"icaoId":"KCGZ","receiptTime":"2026-04-06T03:58:30.784Z","obsTime":1775447760,"reportTime":"2026-04-06T04:00:00.000Z","temp":28.3,"dewp":-0.6,"wdir":50,"wspd":7,"visib":"10+","altim":1013,"slp":1011.4,"qcField":14,"metarType":"METAR","rawOb":"METAR KCGZ 060356Z AUTO 05007KT 10SM CLR 28/M01 A2991 RMK AO2 SLP114 T02831006 $","lat":32.9531,"lon":-111.7725,"elev":444,"name":"Casa Granda Muni, AZ, US","cover":"CLR","clouds":[],"fltCat":"VFR"},{"icaoId":"KDUG","receiptTime":"2026-04-06T04:02:15.803Z","obsTime":1775447760,"reportTime":"2026-04-06T04:00:00.000Z","temp":20,"dewp":3.9,"wdir":90,"wspd":21,"wgst":30,"visib":"10+","altim":1020.7,"slp":1015.1,"qcField":38,"metarType":"METAR","rawOb":"METAR KDUG 060356Z AUTO 09021G30KT 10SM CLR 20/04 A3014 RMK AO2 PK WND 09030/0346 SLP151 T02000039 TSNO","lat":31.4725,"lon":-109.6022,"elev":1260,"name":"Douglas/Bisbee Intl, AZ, US","cover":"CLR","clouds":[],"fltCat":"VFR"},{"icaoId":"KINW","receiptTime":"2026-04-06T04:00:40.852Z","obsTime":1775447760,"reportTime":"2026-04-06T04:00:00.000Z","temp":13.9,"dewp":-7.8,"wdir":210,"wspd":3,"visib":"10+","altim":1021.1,"slp":1017.2,"qcField":6,"metarType":"METAR","rawOb":"METAR KINW 060356Z AUTO 21003KT 10SM CLR 14/M08 A3015 RMK AO2 SLP172 T01391078","lat":35.0279,"lon":-110.7221,"elev":1492,"name":"Winslow/Lindberg Rgnl, AZ, US","cover":"CLR","clouds":[],"fltCat":"VFR"},{"icaoId":"KLUF","receiptTime":"2026-04-06T04:04:03.850Z","obsTime":1775447700,"reportTime":"2026-04-06T04:00:00.000Z","temp":28.7,"dewp":-0.5,"wdir":310,"wspd":5,"visib":"10+","altim":1011.3,"slp":1009.8,"qcField":14,"metarType":"METAR","rawOb":"METAR KLUF 060355Z AUTO 31005KT 10SM CLR 29/M00 A2986 RMK AO2 SLP098 T02871005 $","lat":33.538,"lon":-112.38,"elev":333,"name":"Phoenix/Luke AFB, AZ, US","cover":"CLR","clouds":[],"fltCat":"VFR"},{"icaoId":"KFFZ","receiptTime":"2026-04-06T03:58:15.861Z","obsTime":1775447640,"reportTime":"2026-04-06T04:00:00.000Z","temp":29.4,"dewp":-0.6,"wdir":20,"wspd":3,"visib":"10+","altim":1012.3,"slp":1009.9,"qcField":38,"metarType":"METAR","rawOb":"METAR KFFZ 060354Z AUTO 02003KT 10SM CLR 29/M01 A2989 RMK AO2 SLP099 T02941006 TSNO","lat":33.4659,"lon":-111.7212,"elev":420,"name":"Mesa/Falcon Fld, AZ, US","cover":"CLR","clouds":[],"fltCat":"VFR"},{"icaoId":"KGCN","receiptTime":"2026-04-06T03:58:19.209Z","obsTime":1775447640,"reportTime":"2026-04-06T04:00:00.000Z","temp":6.7,"dewp":-7.2,"wdir":0,"wspd":0,"visib":"10+","altim":1024.1,"slp":1018.9,"qcField":6,"metarType":"METAR","rawOb":"METAR KGCN 060354Z AUTO 00000KT 10SM CLR 07/M07 A3024 RMK AO2 SLP189 T00671072","lat":35.9458,"lon":-112.1554,"elev":1993,"name":"Grand Canyon Park Arpt, AZ, US","cover":"CLR","clouds":[],"fltCat":"VFR"},{"icaoId":"KSJN","receiptTime":"2026-04-06T03:58:14.772Z","obsTime":1775447640,"reportTime":"2026-04-06T04:00:00.000Z","temp":18.3,"dewp":-4.4,"wdir":"VRB","wspd":3,"visib":"10+","altim":1022.1,"slp":1015.4,"qcField":6,"metarType":"METAR","rawOb":"METAR KSJN 060354Z AUTO VRB03KT 10SM SCT110 18/M04 A3018 RMK AO2 SLP154 T01831044","lat":34.5184,"lon":-109.3801,"elev":1747,"name":"St Johns Ind Arpt, AZ, US","cover":"SCT","clouds":[{"cover":"SCT","base":11000}],"fltCat":"VFR"},{"icaoId":"KOLS","receiptTime":"2026-04-06T03:58:19.252Z","obsTime":1775447640,"reportTime":"2026-04-06T04:00:00.000Z","temp":24.4,"dewp":1.1,"visib":"10+","altim":1017.7,"slp":1011.3,"qcField":6,"metarType":"METAR","rawOb":"METAR KOLS 060354Z AUTO 10SM FEW110 24/01 A3005 RMK AO2 SLP113 T02440011","lat":31.4208,"lon":-110.8465,"elev":1194,"name":"Nogales Intl, AZ, US","cover":"FEW","clouds":[{"cover":"FEW","base":11000}],"fltCat":"VFR"},{"icaoId":"KDVT","receiptTime":"2026-04-06T03:56:23.872Z","obsTime":1775447580,"reportTime":"2026-04-06T04:00:00.000Z","temp":27.8,"dewp":-2.2,"wdir":50,"wspd":6,"visib":"10+","altim":1013,"slp":1010.4,"qcField":12,"metarType":"METAR","rawOb":"METAR KDVT 060353Z 05006KT 10SM CLR 28/M02 A2991 RMK AO2 SLP104 T02781022 $","lat":33.6902,"lon":-112.0662,"elev":454,"name":"Phoenix/Deer Valley Arpt, AZ, US","cover":"CLR","clouds":[],"fltCat":"VFR"},{"icaoId":"KPRC","receiptTime":"2026-04-06T03:56:29.652Z","obsTime":1775447580,"reportTime":"2026-04-06T04:00:00.000Z","temp":17.8,"dewp":-3.9,"wdir":200,"wspd":5,"visib":"10+","altim":1021.1,"slp":1014.9,"qcField":4,"metarType":"METAR","rawOb":"METAR KPRC 060353Z 20005KT 10SM CLR 18/M04 A3015 RMK AO2 SLP149 T01781039","lat":34.6491,"lon":-112.4223,"elev":1528,"name":"Prescott/Love Fld, AZ, US","cover":"CLR","clouds":[],"fltCat":"VFR"},{"icaoId":"KTUS","receiptTime":"2026-04-06T03:56:33.014Z","obsTime":1775447580,"reportTime":"2026-04-06T04:00:00.000Z","temp":27.2,"dewp":0.6,"wdir":80,"wspd":10,"visib":"10+","altim":1016,"slp":1011.5,"qcField":12,"metarType":"METAR","rawOb":"METAR KTUS 060353Z 08010KT 10SM CLR 27/01 A3000 RMK AO2 SLP115 T02720006 $","lat":32.1315,"lon":-110.9564,"elev":776,"name":"Tucson Intl Arpt, AZ, US","cover":"CLR","clouds":[],"fltCat":"VFR"},{"icaoId":"KSDL","receiptTime":"2026-04-06T03:56:24.944Z","obsTime":1775447580,"reportTime":"2026-04-06T04:00:00.000Z","temp":28.9,"dewp":0,"wdir":40,"wspd":5,"visib":"10+","altim":1013.3,"slp":1010.6,"qcField":6,"metarType":"METAR","rawOb":"METAR KSDL 060353Z AUTO 04005KT 10SM CLR 29/00 A2992 RMK AO2 SLP106 T02890000","lat":33.6123,"lon":-111.9232,"elev":438,"name":"Scottsdale Muni, AZ, US","cover":"CLR","clouds":[],"fltCat":"VFR"},{"icaoId":"KPGA","receiptTime":"2026-04-06T03:56:28.955Z","obsTime":1775447580,"reportTime":"2026-04-06T04:00:00.000Z","temp":17.8,"dewp":-8.9,"wdir":160,"wspd":4,"visib":"10+","altim":1020.4,"slp":1016.4,"qcField":14,"metarType":"METAR","rawOb":"METAR KPGA 060353Z AUTO 16004KT 10SM CLR 18/M09 A3013 RMK AO2 SLP164 T01781089 $","lat":36.9211,"lon":-111.4487,"elev":1310,"name":"Page Muni, AZ, US","cover":"CLR","clouds":[],"fltCat":"VFR"},{"icaoId":"KIWA","receiptTime":"2026-04-06T03:53:31.129Z","obsTime":1775447520,"reportTime":"2026-04-06T04:00:00.000Z","temp":30,"dewp":-1,"wdir":70,"wspd":5,"visib":"10+","altim":1013.3,"qcField":0,"metarType":"METAR","rawOb":"METAR KIWA 060352Z 07005KT 10SM CLR 30/M01 A2992","lat":33.3008,"lon":-111.6437,"elev":420,"name":"Phoenix/Mesa Gateway Arpt, AZ, US","cover":"CLR","clouds":[],"fltCat":"VFR"},{"icaoId":"KSAD","receiptTime":"2026-04-06T03:54:06.002Z","obsTime":1775447460,"reportTime":"2026-04-06T04:00:00.000Z","temp":21.7,"dewp":-1.7,"wdir":110,"wspd":10,"visib":"10+","altim":1020.1,"slp":1015.9,"qcField":6,"metarType":"METAR","rawOb":"METAR KSAD 060351Z AUTO 11010KT 10SM CLR 22/M02 A3012 RMK AO2 SLP159 T02171017","lat":32.8565,"lon":-109.636,"elev":937,"name":"Safford Rgnl, AZ, US","cover":"CLR","clouds":[],"fltCat":"VFR"},{"icaoId":"KIGM","receiptTime":"2026-04-06T03:54:06.334Z","obsTime":1775447460,"reportTime":"2026-04-06T04:00:00.000Z","temp":20.6,"dewp":-7.8,"wdir":160,"wspd":3,"visib":"10+","altim":1018,"slp":1012.2,"qcField":6,"metarType":"METAR","rawOb":"METAR KIGM 060351Z AUTO 16003KT 10SM CLR 21/M08 A3006 RMK AO2 SLP122 T02061078","lat":35.2575,"lon":-113.9341,"elev":1045,"name":"Kingman Arpt, AZ, US","cover":"CLR","clouds":[],"fltCat":"VFR"},{"icaoId":"KPHX","receiptTime":"2026-04-06T03:54:07.943Z","obsTime":1775447460,"reportTime":"2026-04-06T04:00:00.000Z","temp":32.2,"dewp":-1.1,"wdir":60,"wspd":5,"visib":"10+","altim":1011.6,"slp":1009.4,"qcField":4,"metarType":"METAR","rawOb":"METAR KPHX 060351Z 06005KT 10SM BKN250 32/M01 A2987 RMK AO2 SLP094 T03221011","lat":33.4278,"lon":-112.0037,"elev":338,"name":"Phoenix/Sky Harbor Intl, AZ, US","cover":"BKN","clouds":[{"cover":"BKN","base":25000}],"fltCat":"VFR"},{"icaoId":"KGYR","receiptTime":"2026-04-06T03:50:17.567Z","obsTime":1775447220,"reportTime":"2026-04-06T04:00:00.000Z","temp":30,"dewp":1,"wdir":"VRB","wspd":3,"visib":"10+","altim":1011.9,"qcField":0,"metarType":"METAR","rawOb":"METAR KGYR 060347Z VRB03KT 10SM BKN250 30/01 A2988 RMK LAST","lat":33.428,"lon":-112.368,"elev":292,"name":"Phoenix/Goodyear Muni, AZ, US","cover":"BKN","clouds":[{"cover":"BKN","base":25000}],"fltCat":"VFR"}]