[{"icaoId":"KBUR","receiptTime":"2026-04-12T15:42:06.955Z","obsTime":1776008340,"reportTime":"2026-04-12T15:39:00.000Z","temp":13.9,"dewp":12.8,"wdir":180,"wspd":3,"visib":8,"altim":1015,"qcField":4,"precip":0.03,"metarType":"SPECI","rawOb":"SPECI KBUR 121539Z 18003KT 8SM FEW008 SCT013 OVC065 14/13 A2997 RMK AO2 RAE28 P0003 T01390128","lat":34.1996,"lon":-118.3654,"elev":221,"name":"Burbank/Bob Hope Arpt, CA, US","cover":"OVC","clouds":[{"cover":"FEW","base":800},{"cover":"SCT","base":1300},{"cover":"OVC","base":6500}],"fltCat":"VFR"},{"icaoId":"KBCE","receiptTime":"2026-04-12T15:40:21.184Z","obsTime":1776008220,"reportTime":"2026-04-12T15:37:00.000Z","temp":7.8,"dewp":-8.3,"wdir":220,"wspd":14,"wgst":25,"visib":"10+","altim":1015.3,"qcField":6,"metarType":"SPECI","rawOb":"SPECI KBCE 121537Z AUTO 22014G25KT 10SM CLR 08/M08 A2998 RMK AO2 WSHFT 1517 T00781083","lat":37.7013,"lon":-112.149,"elev":2311,"name":"Bryce Canyon Arpt, UT, US","cover":"CLR","clouds":[],"fltCat":"VFR"},{"icaoId":"KTPH","receiptTime":"2026-04-12T15:40:21.293Z","obsTime":1776008220,"reportTime":"2026-04-12T15:37:00.000Z","temp":4.4,"dewp":-1.7,"wdir":340,"wspd":8,"visib":"10+","altim":1010.2,"qcField":6,"metarType":"SPECI","rawOb":"SPECI KTPH 121537Z AUTO 34008KT 10SM BKN027 BKN037 OVC046 04/M02 A2983 RMK AO2 T00441017","lat":38.0505,"lon":-117.0906,"elev":1647,"name":"Tonopah Arpt, NV, US","cover":"OVC","clouds":[{"cover":"BKN","base":2700},{"cover":"BKN","base":3700},{"cover":"OVC","base":4600}],"fltCat":"MVFR"},{"icaoId":"KHRL","receiptTime":"2026-04-12T15:40:17.695Z","obsTime":1776008160,"reportTime":"2026-04-12T15:36:00.000Z","temp":26.7,"dewp":22.2,"wdir":140,"wspd":17,"wgst":24,"visib":"10+","altim":1017.7,"qcField":4,"metarType":"SPECI","rawOb":"SPECI KHRL 121536Z 14017G24KT 10SM BKN020 BKN024 27/22 A3005 RMK AO2 PK WND 13029/1454 T02670222","lat":26.2303,"lon":-97.6556,"elev":9,"name":"Harlingen/Valley Intl, TX, US","cover":"BKN","clouds":[{"cover":"BKN","base":2000},{"cover":"BKN","base":2400}],"fltCat":"MVFR"},{"icaoId":"KHII","receiptTime":"2026-04-12T15:42:08.506Z","obsTime":1776008100,"reportTime":"2026-04-12T15:35:00.000Z","temp":21,"dewp":1,"wdir":150,"wspd":14,"visib":"10+","altim":1011.6,"qcField":6,"metarType":"METAR","rawOb":"METAR KHII 121535Z AUTO 15014KT 10SM CLR 21/01 A2987 RMK AO2","lat":34.5659,"lon":-114.3522,"elev":241,"name":"Lake Havasu City Arpt, AZ, US","cover":"CLR","clouds":[],"fltCat":"VFR"},{"icaoId":"KRDU","receiptTime":"2026-04-12T15:38:25.320Z","obsTime":1776008100,"reportTime":"2026-04-12T15:35:00.000Z","temp":21.1,"dewp":13.3,"wdir":140,"wspd":6,"wgst":16,"visib":"10+","altim":1029.5,"qcField":4,"metarType":"SPECI","rawOb":"SPECI KRDU 121535Z 14006G16KT 10SM FEW023 SCT250 21/13 A3040 RMK AO2 T02110133","lat":35.8923,"lon":-78.782,"elev":121,"name":"Raleigh-Durham Intl, NC, US","cover":"SCT","clouds":[{"cover":"FEW","base":2300},{"cover":"SCT","base":25000}],"fltCat":"VFR"},{"icaoId":"KHCR","receiptTime":"2026-04-12T15:38:25.101Z","obsTime":1776008100,"reportTime":"2026-04-12T15:35:00.000Z","temp":11.3,"dewp":-3.2,"wdir":"VRB","wspd":3,"visib":"10+","altim":1008.5,"qcField":14,"metarType":"METAR","rawOb":"METAR KHCR 121535Z AUTO VRB03KT 10SM CLR 11/M03 A2978 RMK AO2 T01131032 $","lat":40.4774,"lon":-111.4329,"elev":1708,"name":"Heber City Muni, UT, US","cover":"CLR","clouds":[],"fltCat":"VFR"},{"icaoId":"KBVU","receiptTime":"2026-04-12T15:36:07.570Z","obsTime":1776008100,"reportTime":"2026-04-12T15:35:00.000Z","temp":18,"dewp":-2,"wdir":220,"wspd":13,"visib":"10+","altim":1010.9,"qcField":6,"metarType":"METAR","rawOb":"METAR KBVU 121535Z AUTO 22013KT 10SM CLR 18/M02 A2985 RMK AO2","lat":35.9489,"lon":-114.8633,"elev":654,"name":"Boulder City Muni, NV, US","cover":"CLR","clouds":[],"fltCat":"VFR"},{"icaoId":"KRTS","receiptTime":"2026-04-12T15:40:23.775Z","obsTime":1776008100,"reportTime":"2026-04-12T15:35:00.000Z","temp":1,"dewp":-3,"wdir":270,"wspd":5,"visib":"10+","altim":1009.2,"qcField":6,"metarType":"METAR","rawOb":"METAR KRTS 121535Z AUTO 27005KT 10SM FEW026 FEW046 FEW060 01/M03 A2980 RMK AO2","lat":39.6658,"lon":-119.8731,"elev":1537,"name":"Reno/Stead Arpt, NV, US","cover":"FEW","clouds":[{"cover":"FEW","base":2600},{"cover":"FEW","base":4600},{"cover":"FEW","base":6000}],"fltCat":"VFR"},{"icaoId":"KSOW","receiptTime":"2026-04-12T15:38:25.032Z","obsTime":1776008100,"reportTime":"2026-04-12T15:35:00.000Z","temp":13,"dewp":-1,"wdir":190,"wspd":22,"wgst":29,"visib":"10+","altim":1019.4,"qcField":6,"metarType":"METAR","rawOb":"METAR KSOW 121535Z AUTO 19022G29KT 10SM CLR 13/M01 A3010 RMK AO2","lat":34.2686,"lon":-110.0019,"elev":1954,"name":"Show Low Muni, AZ, US","cover":"CLR","clouds":[],"fltCat":"VFR"},{"icaoId":"KMEV","receiptTime":"2026-04-12T15:40:22.341Z","obsTime":1776008100,"reportTime":"2026-04-12T15:35:00.000Z","temp":5,"dewp":-1,"wdir":150,"wspd":8,"wgst":13,"visib":"10+","altim":1008.9,"qcField":6,"metarType":"METAR","rawOb":"METAR KMEV 121535Z AUTO 15008G13KT 10SM BKN055 OVC065 05/M01 A2979 RMK AO2","lat":38.9963,"lon":-119.75,"elev":1437,"name":"Minden-Tahoe Arpt, NV, US","cover":"OVC","clouds":[{"cover":"BKN","base":5500},{"cover":"OVC","base":6500}],"fltCat":"VFR"},{"icaoId":"KCXP","receiptTime":"2026-04-12T15:40:27.077Z","obsTime":1776008100,"reportTime":"2026-04-12T15:35:00.000Z","temp":4,"dewp":-2,"wdir":0,"wspd":0,"visib":"10+","altim":1009.2,"qcField":6,"metarType":"METAR","rawOb":"METAR KCXP 121535Z AUTO 00000KT 10SM FEW047 SCT055 04/M02 A2980 RMK AO2","lat":39.1905,"lon":-119.7319,"elev":1431,"name":"Carson City Arpt, NV, US","cover":"SCT","clouds":[{"cover":"FEW","base":4700},{"cover":"SCT","base":5500}],"fltCat":"VFR"},{"icaoId":"KHTH","receiptTime":"2026-04-12T15:40:25.620Z","obsTime":1776008100,"reportTime":"2026-04-12T15:35:00.000Z","temp":8,"dewp":-9,"wdir":200,"wspd":9,"wgst":17,"visib":"10+","altim":1009.2,"qcField":6,"metarType":"METAR","rawOb":"METAR KHTH 121535Z AUTO 20009G17KT 10SM CLR 08/M09 A2980 RMK A01","lat":38.5448,"lon":-118.6314,"elev":1281,"name":"Hawthorne Muni, NV, US","cover":"CLR","clouds":[],"fltCat":"VFR"},{"icaoId":"KMHR","receiptTime":"2026-04-12T15:40:22.397Z","obsTime":1776008100,"reportTime":"2026-04-12T15:35:00.000Z","temp":11,"dewp":11,"wdir":160,"wspd":10,"visib":"10+","altim":1011.3,"qcField":6,"metarType":"METAR","rawOb":"METAR KMHR 121535Z AUTO 16010KT 10SM BKN055 BKN085 11/11 A2986 RMK AO2","lat":38.56,"lon":-121.284,"elev":30,"name":"Sacramento/Mather Fld, CA, US","cover":"BKN","clouds":[{"cover":"BKN","base":5500},{"cover":"BKN","base":8500}],"fltCat":"VFR"},{"icaoId":"KSEZ","receiptTime":"2026-04-12T15:40:19.398Z","obsTime":1776008100,"reportTime":"2026-04-12T15:35:00.000Z","temp":15,"dewp":-3,"wdir":170,"wspd":7,"wgst":12,"visib":"10+","altim":1016.7,"qcField":6,"metarType":"METAR","rawOb":"METAR KSEZ 121535Z AUTO 17007G12KT 140V200 10SM CLR 15/M03 A3002 RMK AO2","lat":34.8467,"lon":-111.7884,"elev":1455,"name":"Sedona Arpt, AZ, US","cover":"CLR","clouds":[],"fltCat":"VFR"},{"icaoId":"KLRU","receiptTime":"2026-04-12T15:38:20.635Z","obsTime":1776008100,"reportTime":"2026-04-12T15:35:00.000Z","temp":18,"dewp":5,"wdir":210,"wspd":4,"visib":"10+","altim":1020.4,"qcField":6,"metarType":"METAR","rawOb":"METAR KLRU 121535Z AUTO 21004KT 10SM CLR 18/05 A3013 RMK AO2 T01800050","lat":32.2884,"lon":-106.9131,"elev":1355,"name":"Las Cruces Intl, NM, US","cover":"CLR","clouds":[],"fltCat":"VFR"},{"icaoId":"KLAX","receiptTime":"2026-04-12T15:38:25.494Z","obsTime":1776008040,"reportTime":"2026-04-12T15:34:00.000Z","temp":15,"dewp":13.9,"wdir":230,"wspd":7,"visib":7,"altim":1015,"qcField":12,"precip":0.06,"metarType":"SPECI","rawOb":"SPECI KLAX 121534Z 23007KT 7SM FEW010 SCT021 OVC037 15/14 A2997 RMK AO2 RAB00E28 P0006 T01500139 $","lat":33.9382,"lon":-118.3866,"elev":30,"name":"Los Angeles Intl, CA, US","cover":"OVC","clouds":[{"cover":"FEW","base":1000},{"cover":"SCT","base":2100},{"cover":"OVC","base":3700}],"fltCat":"VFR"},{"icaoId":"KFUL","receiptTime":"2026-04-12T15:32:11.728Z","obsTime":1776007740,"reportTime":"2026-04-12T15:29:00.000Z","temp":15,"dewp":13.9,"wdir":220,"wspd":5,"visib":0.75,"altim":1015.3,"qcField":4,"wxString":"+RA BR","precip":0.16,"metarType":"SPECI","rawOb":"SPECI KFUL 121529Z 22005KT 3/4SM +RA BR FEW008 BKN013 OVC050 15/14 A2998 RMK AO2 P0016 T01500139","lat":33.8715,"lon":-117.9856,"elev":23,"name":"Fullerton Muni, CA, US","cover":"OVC","clouds":[{"cover":"FEW","base":800},{"cover":"BKN","base":1300},{"cover":"OVC","base":5000}],"fltCat":"LIFR"},{"icaoId":"KMCI","receiptTime":"2026-04-12T15:32:12.211Z","obsTime":1776007740,"reportTime":"2026-04-12T15:29:00.000Z","temp":17.8,"dewp":16.1,"wdir":200,"wspd":15,"wgst":24,"visib":1.5,"altim":1012.3,"qcField":4,"wxString":"+RA BR","precip":0.05,"metarType":"SPECI","rawOb":"SPECI KMCI 121529Z 20015G24KT 1 1/2SM R19R/4500VP6000FT +RA BR OVC017 18/16 A2989 RMK AO2 SFC VIS 2 1/2 P0005 T01780161","lat":39.2975,"lon":-94.7309,"elev":308,"name":"Kansas City Intl, MO, US","cover":"OVC","clouds":[{"cover":"OVC","base":1700}],"fltCat":"IFR"},{"icaoId":"KSAT","receiptTime":"2026-04-12T15:32:12.280Z","obsTime":1776007680,"reportTime":"2026-04-12T15:28:00.000Z","temp":23.9,"dewp":21.1,"wdir":170,"wspd":13,"wgst":19,"visib":"10+","altim":1018.4,"qcField":4,"metarType":"SPECI","rawOb":"SPECI KSAT 121528Z 17013G19KT 10SM FEW009 BKN013 BKN250 24/21 A3007 RMK AO2 T02390211","lat":29.5443,"lon":-98.4839,"elev":246,"name":"San Antonio Intl, TX, US","cover":"BKN","clouds":[{"cover":"FEW","base":900},{"cover":"BKN","base":1300},{"cover":"BKN","base":25000}],"fltCat":"MVFR"},{"icaoId":"KSNA","receiptTime":"2026-04-12T15:28:09.304Z","obsTime":1776007500,"reportTime":"2026-04-12T15:25:00.000Z","temp":16.1,"dewp":13.3,"wdir":110,"wspd":7,"visib":6,"altim":1015,"qcField":12,"wxString":"-RA","precip":0.01,"metarType":"SPECI","rawOb":"SPECI KSNA 121525Z 11007KT 6SM -RA FEW015 SCT025 OVC047 16/13 A2997 RMK AO2 RAB13 P0001 T01610133 $","lat":33.6798,"lon":-117.8675,"elev":14,"name":"Santa Ana/Wayne Arpt, CA, US","cover":"OVC","clouds":[{"cover":"FEW","base":1500},{"cover":"SCT","base":2500},{"cover":"OVC","base":4700}],"fltCat":"VFR"},{"icaoId":"KACT","receiptTime":"2026-04-12T15:24:07.969Z","obsTime":1776007260,"reportTime":"2026-04-12T15:21:00.000Z","temp":18.9,"dewp":17.2,"wdir":190,"wspd":6,"visib":8,"altim":1019,"qcField":4,"wxString":"-RA","precip":0.005,"metarType":"SPECI","rawOb":"SPECI KACT 121521Z 19006KT 8SM -RA FEW009 BKN029 OVC035 19/17 A3009 RMK AO2 LTG DSNT NW RAB05 P0000 T01890172","lat":31.618,"lon":-97.2283,"elev":150,"name":"Waco Rgnl, TX, US","cover":"OVC","clouds":[{"cover":"FEW","base":900},{"cover":"BKN","base":2900},{"cover":"OVC","base":3500}],"fltCat":"MVFR"},{"icaoId":"KRDD","receiptTime":"2026-04-12T15:22:07.114Z","obsTime":1776007080,"reportTime":"2026-04-12T15:18:00.000Z","temp":10.6,"dewp":7.2,"wdir":170,"wspd":18,"wgst":23,"visib":"10+","altim":1007.2,"qcField":12,"metarType":"SPECI","rawOb":"SPECI KRDD 121518Z 17018G23KT 10SM SCT024 OVC043 11/07 A2974 RMK AO2 T01060072 $","lat":40.5146,"lon":-122.2977,"elev":152,"name":"Redding Muni, CA, US","cover":"OVC","clouds":[{"cover":"SCT","base":2400},{"cover":"OVC","base":4300}],"fltCat":"VFR"},{"icaoId":"KDAL","receiptTime":"2026-04-12T15:22:09.965Z","obsTime":1776007080,"reportTime":"2026-04-12T15:18:00.000Z","temp":18.9,"dewp":17.2,"wdir":160,"wspd":7,"visib":"10+","altim":1018,"qcField":4,"wxString":"-RA","precip":0.005,"metarType":"SPECI","rawOb":"SPECI KDAL 121518Z 16007KT 10SM -RA SCT012 BKN055 BKN100 BKN250 19/17 A3006 RMK AO2 RAB10 P0000 T01890172","lat":32.8384,"lon":-96.8358,"elev":148,"name":"Dallas/Love Fld, TX, US","cover":"BKN","clouds":[{"cover":"SCT","base":1200},{"cover":"BKN","base":5500},{"cover":"BKN","base":10000},{"cover":"BKN","base":25000}],"fltCat":"VFR"},{"icaoId":"KVNY","receiptTime":"2026-04-12T15:20:18.219Z","obsTime":1776006960,"reportTime":"2026-04-12T15:16:00.000Z","temp":13.9,"dewp":12.2,"wdir":"VRB","wspd":3,"visib":"10+","altim":1014.6,"qcField":12,"metarType":"SPECI","rawOb":"SPECI KVNY 121516Z VRB03KT 10SM SCT023 BKN070 14/12 A2996 RMK AO2 T01390122 $","lat":34.2121,"lon":-118.4915,"elev":241,"name":"Van Nuys Arpt, CA, US","cover":"BKN","clouds":[{"cover":"SCT","base":2300},{"cover":"BKN","base":7000}],"fltCat":"VFR"},{"icaoId":"KHAF","receiptTime":"2026-04-12T15:18:26.365Z","obsTime":1776006900,"reportTime":"2026-04-12T15:15:00.000Z","temp":13,"dewp":10,"wdir":190,"wspd":8,"wgst":13,"visib":8,"altim":1011.6,"qcField":6,"metarType":"METAR","rawOb":"METAR KHAF 121515Z AUTO 19008G13KT 8SM SCT027 SCT039 BKN060 13/10 A2987 RMK AO2","lat":37.5136,"lon":-122.4996,"elev":11,"name":"Half Moon Bay Arpt, CA, US","cover":"BKN","clouds":[{"cover":"SCT","base":2700},{"cover":"SCT","base":3900},{"cover":"BKN","base":6000}],"fltCat":"VFR"},{"icaoId":"KOKC","receiptTime":"2026-04-12T15:18:15.140Z","obsTime":1776006840,"reportTime":"2026-04-12T15:14:00.000Z","temp":18.9,"dewp":17.2,"wdir":220,"wspd":14,"wgst":21,"visib":"10+","altim":1014,"qcField":4,"metarType":"SPECI","rawOb":"SPECI KOKC 121514Z 22014G21KT 10SM BKN014 BKN019 OVC110 19/17 A2994 RMK AO2 PK WND 22026/1454 T01890172","lat":35.3843,"lon":-97.6003,"elev":391,"name":"Oklahoma City/Will Rogers Intl, OK, US","cover":"OVC","clouds":[{"cover":"BKN","base":1400},{"cover":"BKN","base":1900},{"cover":"OVC","base":11000}],"fltCat":"MVFR"},{"icaoId":"KTUL","receiptTime":"2026-04-12T15:16:09.650Z","obsTime":1776006780,"reportTime":"2026-04-12T15:13:00.000Z","temp":18.9,"dewp":17.2,"wdir":170,"wspd":17,"wgst":24,"visib":2,"altim":1012.6,"qcField":4,"precip":0.005,"metarType":"SPECI","rawOb":"SPECI KTUL 121513Z 17017G24KT 2SM BKN012 BKN017 OVC025 19/17 A2990 RMK AO2 SFC VIS 10 RAB1456E12 P0000 T01890172","lat":36.1985,"lon":-95.8782,"elev":196,"name":"Tulsa Intl Arpt, OK, US","cover":"OVC","clouds":[{"cover":"BKN","base":1200},{"cover":"BKN","base":1700},{"cover":"OVC","base":2500}],"fltCat":"IFR"},{"icaoId":"KSEA","receiptTime":"2026-04-12T15:16:09.625Z","obsTime":1776006780,"reportTime":"2026-04-12T15:13:00.000Z","temp":8.3,"dewp":7.8,"wdir":20,"wspd":6,"visib":4,"altim":1005.8,"qcField":4,"wxString":"BR","metarType":"SPECI","rawOb":"SPECI KSEA 121513Z 02006KT 4SM BR OVC004 08/08 A2970 RMK AO2 T00830078","lat":47.4447,"lon":-122.3144,"elev":115,"name":"Seattle-Tacoma Intl, WA, US","cover":"OVC","clouds":[{"cover":"OVC","base":400}],"fltCat":"LIFR"},{"icaoId":"KFLG","receiptTime":"2026-04-12T15:12:07.608Z","obsTime":1776006540,"reportTime":"2026-04-12T15:09:00.000Z","temp":8.3,"dewp":-3.9,"wdir":210,"wspd":16,"wgst":26,"visib":"10+","altim":1017.4,"qcField":12,"metarType":"SPECI","rawOb":"SPECI KFLG 121509Z 21016G26KT 10SM FEW002 08/M04 A3004 RMK AO2 PK WND 23026/1505 T00831039 $","lat":35.1443,"lon":-111.6664,"elev":2134,"name":"Flagstaff/Pulliam Arpt, AZ, US","cover":"FEW","clouds":[{"cover":"FEW","base":200}],"fltCat":"VFR"},{"icaoId":"KIAH","receiptTime":"2026-04-12T15:10:07.127Z","obsTime":1776006420,"reportTime":"2026-04-12T15:07:00.000Z","temp":24.4,"dewp":20,"wdir":170,"wspd":12,"visib":"10+","altim":1020.4,"qcField":4,"metarType":"SPECI","rawOb":"SPECI KIAH 121507Z 17012KT 10SM BKN023 OVC034 24/20 A3013 RMK AO2 T02440200","lat":29.9844,"lon":-95.3607,"elev":27,"name":"Houston/Bush Intl, TX, US","cover":"OVC","clouds":[{"cover":"BKN","base":2300},{"cover":"OVC","base":3400}],"fltCat":"MVFR"},{"icaoId":"KEKO","receiptTime":"2026-04-12T15:10:02.707Z","obsTime":1776006360,"reportTime":"2026-04-12T15:06:00.000Z","temp":5,"dewp":0.6,"wdir":280,"wspd":18,"wgst":28,"visib":"10+","altim":1006.2,"qcField":6,"metarType":"SPECI","rawOb":"SPECI KEKO 121506Z AUTO 28018G28KT 10SM BKN029 OVC080 05/01 A2971 RMK AO2 PK WND 30028/1459 PRESRR T00500006","lat":40.824,"lon":-115.7863,"elev":1541,"name":"Elko Rgnl, NV, US","cover":"OVC","clouds":[{"cover":"BKN","base":2900},{"cover":"OVC","base":8000}],"fltCat":"MVFR"},{"icaoId":"KABI","receiptTime":"2026-04-12T15:08:25.093Z","obsTime":1776006300,"reportTime":"2026-04-12T15:05:00.000Z","temp":19.4,"dewp":17.8,"wdir":190,"wspd":12,"visib":"10+","altim":1017.7,"qcField":12,"metarType":"SPECI","rawOb":"SPECI KABI 121505Z 19012KT 10SM BKN014 OVC020 19/18 A3005 RMK AO2 T01940178 $","lat":32.4106,"lon":-99.6821,"elev":543,"name":"Abilene Rgnl, TX, US","cover":"OVC","clouds":[{"cover":"BKN","base":1400},{"cover":"OVC","base":2000}],"fltCat":"MVFR"},{"icaoId":"KSTS","receiptTime":"2026-04-12T15:10:02.649Z","obsTime":1776006120,"reportTime":"2026-04-12T15:02:00.000Z","temp":9,"dewp":8,"wdir":190,"wspd":10,"wgst":18,"visib":2,"altim":1010.2,"qcField":1,"wxString":"RA BR","metarType":"SPECI","rawOb":"SPECI KSTS 121502Z COR 19010G18KT 160V230 2SM RA BR SCT034 OVC055 09/08 A2983","lat":38.5037,"lon":-122.811,"elev":35,"name":"Santa Rosa/Schulz Arpt, CA, US","cover":"OVC","clouds":[{"cover":"SCT","base":3400},{"cover":"OVC","base":5500}],"fltCat":"IFR"},{"icaoId":"KCLL","receiptTime":"2026-04-12T15:00:22.598Z","obsTime":1776005820,"reportTime":"2026-04-12T14:57:00.000Z","temp":21.7,"dewp":20.6,"wdir":130,"wspd":9,"visib":3,"altim":1019.7,"qcField":4,"wxString":"-RA BR","precip":0.005,"metarType":"SPECI","rawOb":"SPECI KCLL 121457Z 13009KT 3SM -RA BR FEW007 BKN022 OVC033 22/21 A3011 RMK AO2 P0000 T02170206","lat":30.5912,"lon":-96.3631,"elev":96,"name":"College Station/Easterwood Arpt, TX, US","cover":"OVC","clouds":[{"cover":"FEW","base":700},{"cover":"BKN","base":2200},{"cover":"OVC","base":3300}],"fltCat":"MVFR"},{"icaoId":"KNYL","receiptTime":"2026-04-12T15:00:22.436Z","obsTime":1776005820,"reportTime":"2026-04-12T15:00:00.000Z","temp":18.9,"dewp":5.6,"wdir":320,"wspd":9,"visib":"10+","altim":1013.3,"slp":1012.9,"qcField":6,"presTend":2.4,"metarType":"METAR","rawOb":"METAR KNYL 121457Z AUTO 32009KT 10SM CLR 19/06 A2992 RMK AO2 SLP129 T01890056 53024","lat":32.66,"lon":-114.6078,"elev":58,"name":"Yuma , AZ, US","cover":"CLR","clouds":[],"fltCat":"VFR"},{"icaoId":"KNFL","receiptTime":"2026-04-12T15:00:22.416Z","obsTime":1776005820,"reportTime":"2026-04-12T15:00:00.000Z","temp":5.6,"dewp":-1.1,"wdir":190,"wspd":8,"visib":"10+","altim":1008.9,"slp":1006.6,"qcField":12,"presTend":1.9,"metarType":"METAR","rawOb":"METAR KNFL 121457Z 19008KT 10SM FEW030 SCT080 SCT140 BKN200 06/M01 A2979 RMK AO2 SLP066 SH DSNT N-NE AND DSNT W T00561011 53019 PNO $","lat":39.417,"lon":-118.705,"elev":1199,"name":"Fallon , NV, US","cover":"BKN","clouds":[{"cover":"FEW","base":3000},{"cover":"SCT","base":8000},{"cover":"SCT","base":14000},{"cover":"BKN","base":20000}],"fltCat":"VFR"},{"icaoId":"KCEC","receiptTime":"2026-04-12T15:00:17.474Z","obsTime":1776005760,"reportTime":"2026-04-12T15:00:00.000Z","temp":8.3,"dewp":7.2,"wdir":40,"wspd":3,"visib":"10+","altim":1006.2,"slp":1006.3,"qcField":6,"presTend":1.4,"pcp3hr":0.01,"metarType":"METAR","rawOb":"METAR KCEC 121456Z AUTO 04003KT 10SM OVC110 08/07 A2971 RMK AO2 SLP063 60001 T00830072 53014","lat":41.7836,"lon":-124.238,"elev":17,"name":"Crescent City/McNama, CA, US","cover":"OVC","clouds":[{"cover":"OVC","base":11000}],"fltCat":"VFR"},{"icaoId":"KPVU","receiptTime":"2026-04-12T14:58:23.298Z","obsTime":1776005760,"reportTime":"2026-04-12T15:00:00.000Z","temp":11.7,"dewp":-2.2,"wdir":120,"wspd":8,"visib":"10+","altim":1008.9,"slp":1006.2,"qcField":4,"presTend":0.5,"metarType":"METAR","rawOb":"METAR KPVU 121456Z 12008KT 10SM CLR 12/M02 A2979 RMK AO2 SLP062 T01171022 50005","lat":40.224,"lon":-111.7252,"elev":1370,"name":"Provo Muni, UT, US","cover":"CLR","clouds":[],"fltCat":"VFR"},{"icaoId":"KGUC","receiptTime":"2026-04-12T14:58:23.156Z","obsTime":1776005760,"reportTime":"2026-04-12T15:00:00.000Z","temp":4.4,"dewp":-3.9,"wdir":0,"wspd":0,"visib":"10+","altim":1018,"slp":1014.9,"qcField":14,"presTend":0.6,"metarType":"METAR","rawOb":"METAR KGUC 121456Z AUTO 00000KT 10SM CLR 04/M04 A3006 RMK AO2 SLP149 T00441039 50006 $","lat":38.5322,"lon":-106.9419,"elev":2337,"name":"Gunnison Arpt, CO, US","cover":"CLR","clouds":[],"fltCat":"VFR"},{"icaoId":"KSGU","receiptTime":"2026-04-12T14:58:25.290Z","obsTime":1776005760,"reportTime":"2026-04-12T15:00:00.000Z","temp":17.2,"dewp":-1.1,"wdir":140,"wspd":13,"visib":"10+","altim":1010.6,"slp":1008,"qcField":6,"presTend":1.3,"metarType":"METAR","rawOb":"METAR KSGU 121456Z AUTO 14013KT 10SM CLR 17/M01 A2984 RMK AO2 SLP080 T01721011 51013","lat":37.0444,"lon":-113.5034,"elev":877,"name":"Saint George Muni, UT, US","cover":"CLR","clouds":[],"fltCat":"VFR"},{"icaoId":"KHDN","receiptTime":"2026-04-12T14:58:25.455Z","obsTime":1776005760,"reportTime":"2026-04-12T15:00:00.000Z","temp":7.2,"dewp":1.7,"wdir":90,"wspd":4,"visib":"10+","altim":1014.3,"slp":1011.9,"qcField":6,"presTend":0.8,"metarType":"METAR","rawOb":"METAR KHDN 121456Z AUTO 09004KT 10SM CLR 07/02 A2995 RMK AO2 SLP119 T00720017 51008","lat":40.4842,"lon":-107.2296,"elev":2012,"name":"Hayden/Yampa Valley Arpt, CO, US","cover":"CLR","clouds":[],"fltCat":"VFR"},{"icaoId":"KHND","receiptTime":"2026-04-12T14:58:25.496Z","obsTime":1776005760,"reportTime":"2026-04-12T15:00:00.000Z","temp":16.1,"dewp":-1.7,"wdir":210,"wspd":19,"wgst":27,"visib":"10+","altim":1011.6,"slp":1011.7,"qcField":12,"presTend":2.1,"metarType":"METAR","rawOb":"METAR KHND 121456Z 21019G27KT 10SM CLR 16/M02 A2987 RMK AO2 PK WND 22027/1447 SLP117 T01611017 53021 $","lat":35.9657,"lon":-115.1343,"elev":740,"name":"Henderson Exec, NV, US","cover":"CLR","clouds":[],"fltCat":"VFR"},{"icaoId":"KFNL","receiptTime":"2026-04-12T14:58:22.801Z","obsTime":1776005760,"reportTime":"2026-04-12T15:00:00.000Z","temp":11.1,"dewp":-1.1,"wdir":0,"wspd":0,"visib":"10+","altim":1012.3,"slp":1007.4,"qcField":12,"presTend":1.6,"metarType":"METAR","rawOb":"METAR KFNL 121456Z 00000KT 10SM CLR 11/M01 A2989 RMK AO2 SLP074 T01111011 51016 $","lat":40.4427,"lon":-105.0097,"elev":1529,"name":"Fort Collins/N Colorado Rgnl, CO, US","cover":"CLR","clouds":[],"fltCat":"VFR"},{"icaoId":"KENV","receiptTime":"2026-04-12T14:58:22.472Z","obsTime":1776005760,"reportTime":"2026-04-12T15:00:00.000Z","temp":10.6,"dewp":0,"wdir":240,"wspd":3,"visib":"10+","altim":1006.2,"slp":1004.5,"qcField":6,"presTend":0.4,"metarType":"METAR","rawOb":"METAR KENV 121456Z AUTO 24003KT 10SM CLR 11/00 A2971 RMK AO2 SLP045 T01060000 53004","lat":40.7211,"lon":-114.0312,"elev":1291,"name":"Wendover Arpt, UT, US","cover":"CLR","clouds":[],"fltCat":"VFR"},{"icaoId":"KEGE","receiptTime":"2026-04-12T14:58:22.288Z","obsTime":1776005760,"reportTime":"2026-04-12T15:00:00.000Z","temp":3.9,"dewp":-1.7,"wdir":0,"wspd":0,"visib":"10+","altim":1016,"slp":1012.7,"qcField":4,"presTend":0.2,"metarType":"METAR","rawOb":"METAR KEGE 121456Z 00000KT 10SM CLR 04/M02 A3000 RMK AO2 SLP127 T00391017 50002","lat":39.6448,"lon":-106.9176,"elev":1993,"name":"Eagle Cnty Rgnl, CO, US","cover":"CLR","clouds":[],"fltCat":"VFR"},{"icaoId":"KCHS","receiptTime":"2026-04-12T15:00:13.637Z","obsTime":1776005760,"reportTime":"2026-04-12T15:00:00.000Z","temp":23.9,"dewp":13.9,"wdir":210,"wspd":6,"visib":"10+","altim":1028.9,"slp":1028.6,"qcField":4,"presTend":0.6,"metarType":"METAR","rawOb":"METAR KCHS 121456Z 21006KT 10SM CLR 24/14 A3038 RMK AO2 SLP286 T02390139 50006","lat":32.8995,"lon":-80.0407,"elev":12,"name":"Charleston Intl, SC, US","cover":"CLR","clouds":[],"fltCat":"VFR"},{"icaoId":"KVIS","receiptTime":"2026-04-12T14:58:19.852Z","obsTime":1776005760,"reportTime":"2026-04-12T15:00:00.000Z","temp":12.2,"dewp":11.1,"wdir":150,"wspd":6,"visib":"10+","altim":1015,"slp":1014.9,"qcField":14,"presTend":2.3,"metarType":"METAR","rawOb":"METAR KVIS 121456Z AUTO 15006KT 10SM CLR 12/11 A2997 RMK AO2 SLP149 6//// T01220111 53023 PNO $","lat":36.3135,"lon":-119.3884,"elev":92,"name":"Visalia Muni, CA, US","cover":"CLR","clouds":[],"fltCat":"VFR"},{"icaoId":"KCRP","receiptTime":"2026-04-12T15:00:17.761Z","obsTime":1776005760,"reportTime":"2026-04-12T14:56:00.000Z","temp":24.4,"dewp":22.2,"wdir":150,"wspd":13,"visib":"10+","altim":1018.7,"qcField":4,"metarType":"SPECI","rawOb":"SPECI KCRP 121456Z 15013KT 10SM BKN015 BKN024 OVC035 24/22 A3008 RMK AO2 T02440222","lat":27.7734,"lon":-97.513,"elev":11,"name":"Corpus Christi Intl, TX, US","cover":"OVC","clouds":[{"cover":"BKN","base":1500},{"cover":"BKN","base":2400},{"cover":"OVC","base":3500}],"fltCat":"MVFR"},{"icaoId":"KJAX","receiptTime":"2026-04-12T15:00:16.143Z","obsTime":1776005760,"reportTime":"2026-04-12T15:00:00.000Z","temp":24.4,"dewp":14.4,"wdir":110,"wspd":6,"visib":"10+","altim":1027.9,"slp":1027.9,"qcField":12,"presTend":1.1,"metarType":"METAR","rawOb":"METAR KJAX 121456Z 11006KT 10SM FEW030 SCT250 24/14 A3035 RMK AO2 SLP279 T02440144 53011 $","lat":30.4953,"lon":-81.6937,"elev":8,"name":"Jacksonville Intl, FL, US","cover":"SCT","clouds":[{"cover":"FEW","base":3000},{"cover":"SCT","base":25000}],"fltCat":"VFR"},{"icaoId":"KLAS","receiptTime":"2026-04-12T15:00:14.361Z","obsTime":1776005760,"reportTime":"2026-04-12T15:00:00.000Z","temp":16.7,"dewp":-1.7,"wdir":230,"wspd":14,"wgst":26,"visib":"10+","altim":1011.3,"slp":1009.6,"qcField":4,"presTend":2.8,"metarType":"METAR","rawOb":"METAR KLAS 121456Z 23014G26KT 10SM FEW200 17/M02 A2986 RMK AO2 PK WND 24029/1422 SLP096 T01671017 53028","lat":36.0719,"lon":-115.1634,"elev":662,"name":"Las Vegas/Reid Intl, NV, US","cover":"FEW","clouds":[{"cover":"FEW","base":20000}],"fltCat":"VFR"},{"icaoId":"KSFO","receiptTime":"2026-04-12T15:00:05.782Z","obsTime":1776005760,"reportTime":"2026-04-12T15:00:00.000Z","temp":11.7,"dewp":8.3,"wdir":150,"wspd":6,"visib":"10+","altim":1010.9,"slp":1010.9,"qcField":12,"presTend":1.7,"precip":0.005,"pcp3hr":0.01,"metarType":"METAR","rawOb":"METAR KSFO 121456Z 15006KT 10SM FEW036 BKN050 BKN070 12/08 A2985 RMK AO2 RAB32E52 SLP109 P0000 60001 T01170083 53017 $","lat":37.6196,"lon":-122.3656,"elev":2,"name":"San Francisco Intl, CA, US","cover":"BKN","clouds":[{"cover":"FEW","base":3600},{"cover":"BKN","base":5000},{"cover":"BKN","base":7000}],"fltCat":"VFR"},{"icaoId":"KUKI","receiptTime":"2026-04-12T15:00:04.924Z","obsTime":1776005760,"reportTime":"2026-04-12T15:00:00.000Z","temp":8.3,"dewp":6.7,"wdir":0,"wspd":0,"visib":"10+","altim":1007.2,"slp":1006.9,"qcField":6,"wxString":"-RA","presTend":0.5,"precip":0.11,"pcp3hr":0.22,"metarType":"METAR","rawOb":"METAR KUKI 121456Z AUTO 00000KT 10SM -RA FEW008 BKN022 OVC035 08/07 A2974 RMK AO2 SLP069 P0011 60022 T00830067 51005","lat":39.1278,"lon":-123.2001,"elev":183,"name":"Ukiah Muni, CA, US","cover":"OVC","clouds":[{"cover":"FEW","base":800},{"cover":"BKN","base":2200},{"cover":"OVC","base":3500}],"fltCat":"MVFR"},{"icaoId":"KSBP","receiptTime":"2026-04-12T15:00:04.870Z","obsTime":1776005760,"reportTime":"2026-04-12T15:00:00.000Z","temp":11.7,"dewp":10,"wdir":120,"wspd":4,"visib":"10+","altim":1014.3,"slp":1014.2,"qcField":4,"presTend":1.8,"precip":0.01,"pcp3hr":0.05,"metarType":"METAR","rawOb":"METAR KSBP 121456Z 12004KT 10SM BKN060 BKN080 BKN090 12/10 A2995 RMK AO2 RAE25 SLP142 P0001 60005 T01170100 53018","lat":35.2381,"lon":-120.644,"elev":52,"name":"San Luis Obispo/San Luis Cnty, CA, US","cover":"BKN","clouds":[{"cover":"BKN","base":6000},{"cover":"BKN","base":8000},{"cover":"BKN","base":9000}],"fltCat":"VFR"},{"icaoId":"KSDF","receiptTime":"2026-04-12T15:00:13.401Z","obsTime":1776005760,"reportTime":"2026-04-12T15:00:00.000Z","temp":23.3,"dewp":13.3,"wdir":210,"wspd":6,"visib":"10+","altim":1023.1,"slp":1022.8,"qcField":4,"presTend":0.2,"metarType":"METAR","rawOb":"METAR KSDF 121456Z 21006KT 10SM SCT300 23/13 A3021 RMK AO2 SLP228 T02330133 50002","lat":38.1774,"lon":-85.7308,"elev":146,"name":"Louisville Intl, KY, US","cover":"SCT","clouds":[{"cover":"SCT","base":30000}],"fltCat":"VFR"},{"icaoId":"KCGZ","receiptTime":"2026-04-12T14:58:30.547Z","obsTime":1776005760,"reportTime":"2026-04-12T15:00:00.000Z","temp":21.1,"dewp":1.7,"wdir":180,"wspd":7,"visib":"10+","altim":1014.3,"slp":1013.1,"qcField":14,"presTend":2.1,"metarType":"METAR","rawOb":"METAR KCGZ 121456Z AUTO 18007KT 10SM CLR 21/02 A2995 RMK AO2 SLP131 T02110017 51021 $","lat":32.9531,"lon":-111.7725,"elev":444,"name":"Casa Granda Muni, AZ, US","cover":"CLR","clouds":[],"fltCat":"VFR"},{"icaoId":"KDUG","receiptTime":"2026-04-12T15:02:27.525Z","obsTime":1776005760,"reportTime":"2026-04-12T15:00:00.000Z","temp":18.3,"dewp":1.7,"wdir":150,"wspd":10,"visib":"10+","altim":1019.7,"slp":1014,"qcField":38,"presTend":1.3,"metarType":"METAR","rawOb":"METAR KDUG 121456Z AUTO 15010KT 10SM CLR 18/02 A3011 RMK AO2 SLP140 T01830017 53013 TSNO","lat":31.4725,"lon":-109.6022,"elev":1260,"name":"Douglas/Bisbee Intl, AZ, US","cover":"CLR","clouds":[],"fltCat":"VFR"},{"icaoId":"KINW","receiptTime":"2026-04-12T15:00:14.085Z","obsTime":1776005760,"reportTime":"2026-04-12T15:00:00.000Z","temp":13.3,"dewp":-2.2,"wdir":140,"wspd":7,"visib":"10+","altim":1016.7,"slp":1012.3,"qcField":6,"presTend":0.9,"metarType":"METAR","rawOb":"METAR KINW 121456Z AUTO 14007KT 10SM CLR 13/M02 A3002 RMK AO2 SLP123 T01331022 51009","lat":35.0279,"lon":-110.7221,"elev":1492,"name":"Winslow/Lindberg Rgnl, AZ, US","cover":"CLR","clouds":[],"fltCat":"VFR"},{"icaoId":"KRNO","receiptTime":"2026-04-12T14:58:24.812Z","obsTime":1776005700,"reportTime":"2026-04-12T15:00:00.000Z","temp":1.7,"dewp":-1.1,"wdir":220,"wspd":4,"visib":9,"altim":1008.9,"slp":1007.5,"qcField":4,"presTend":3.3,"precip":0.005,"pcp3hr":0.005,"metarType":"METAR","rawOb":"METAR KRNO 121455Z 22004KT 9SM SCT025 BKN045 BKN110 02/M01 A2979 RMK AO2 SNB35E50 SLP075 VC SH ALQDS MTN OBSCD S THRU W P0000 60000 T00171011 51033","lat":39.5077,"lon":-119.7683,"elev":1344,"name":"Reno/Tahoe Intl, NV, US","cover":"BKN","clouds":[{"cover":"SCT","base":2500},{"cover":"BKN","base":4500},{"cover":"BKN","base":11000}],"fltCat":"VFR"},{"icaoId":"KLUF","receiptTime":"2026-04-12T15:14:05.289Z","obsTime":1776005700,"reportTime":"2026-04-12T15:00:00.000Z","temp":20.9,"dewp":-0.4,"wdir":190,"wspd":3,"visib":"10+","altim":1012.6,"slp":1011.5,"qcField":14,"presTend":2.1,"metarType":"METAR","rawOb":"METAR KLUF 121455Z AUTO 19003KT 10SM CLR 21/M00 A2990 RMK AO2 LTG DSNT S SLP115 T02091004 52021 $","lat":33.538,"lon":-112.38,"elev":333,"name":"Phoenix/Luke AFB, AZ, US","cover":"CLR","clouds":[],"fltCat":"VFR"},{"icaoId":"KCMA","receiptTime":"2026-04-12T14:58:30.621Z","obsTime":1776005700,"reportTime":"2026-04-12T15:00:00.000Z","temp":15.6,"dewp":12.2,"wdir":260,"wspd":10,"visib":"10+","altim":1014.6,"slp":1015.2,"qcField":6,"presTend":1.9,"pcp3hr":0.005,"metarType":"METAR","rawOb":"METAR KCMA 121455Z AUTO 26010KT 10SM CLR 16/12 A2996 RMK AO2 SLP152 60000 T01560122 53019","lat":34.2114,"lon":-119.0876,"elev":20,"name":"Camarillo Arpt, CA, US","cover":"CLR","clouds":[],"fltCat":"VFR"},{"icaoId":"KSLC","receiptTime":"2026-04-12T14:58:06.756Z","obsTime":1776005640,"reportTime":"2026-04-12T15:00:00.000Z","temp":15,"dewp":-3.9,"wdir":160,"wspd":9,"wgst":23,"visib":"10+","altim":1007.2,"slp":1003.9,"qcField":12,"presTend":0.5,"metarType":"METAR","rawOb":"METAR KSLC 121454Z 16009G23KT 10SM FEW080 BKN150 15/M04 A2974 RMK AO2 PK WND 17032/1420 SLP039 VIRGA T01501039 53005 $","lat":40.7707,"lon":-111.965,"elev":1286,"name":"Salt Lake City Intl, UT, US","cover":"BKN","clouds":[{"cover":"FEW","base":8000},{"cover":"BKN","base":15000}],"fltCat":"VFR"},{"icaoId":"KDSM","receiptTime":"2026-04-12T14:58:10.301Z","obsTime":1776005640,"reportTime":"2026-04-12T15:00:00.000Z","temp":20.6,"dewp":15.6,"wdir":210,"wspd":18,"wgst":29,"visib":"10+","altim":1009.2,"slp":1008.6,"qcField":4,"presTend":-0.5,"metarType":"METAR","rawOb":"METAR KDSM 121454Z 21018G29KT 10SM SCT026 SCT130 BKN160 OVC250 21/16 A2980 RMK AO2 PK WND 22036/1355 SLP086 T02060156 58005","lat":41.5339,"lon":-93.6531,"elev":286,"name":"Des Moines Intl, IA, US","cover":"OVC","clouds":[{"cover":"SCT","base":2600},{"cover":"SCT","base":13000},{"cover":"BKN","base":16000},{"cover":"OVC","base":25000}],"fltCat":"VFR"},{"icaoId":"KBFL","receiptTime":"2026-04-12T14:58:11.093Z","obsTime":1776005640,"reportTime":"2026-04-12T15:00:00.000Z","temp":12.2,"dewp":10.6,"wdir":160,"wspd":4,"visib":"10+","altim":1015,"slp":1014.5,"qcField":12,"presTend":2.9,"precip":0.01,"pcp3hr":0.09,"metarType":"METAR","rawOb":"METAR KBFL 121454Z 16004KT 10SM FEW025 SCT030 OVC043 12/11 A2997 RMK AO2 RAE1357B39E48 SLP145 P0001 60009 T01220106 53029 $","lat":35.4342,"lon":-119.0552,"elev":146,"name":"Bakersfield/Meadows Arpt, CA, US","cover":"OVC","clouds":[{"cover":"FEW","base":2500},{"cover":"SCT","base":3000},{"cover":"OVC","base":4300}],"fltCat":"VFR"},{"icaoId":"KOLS","receiptTime":"2026-04-12T14:58:08.001Z","obsTime":1776005640,"reportTime":"2026-04-12T15:00:00.000Z","temp":18.3,"dewp":0,"wdir":180,"wspd":8,"visib":"10+","altim":1018.4,"slp":1012.8,"qcField":6,"presTend":1,"metarType":"METAR","rawOb":"METAR KOLS 121454Z AUTO 18008KT 10SM CLR 18/00 A3007 RMK AO2 SLP128 T01830000 53010","lat":31.4208,"lon":-110.8465,"elev":1194,"name":"Nogales Intl, AZ, US","cover":"CLR","clouds":[],"fltCat":"VFR"},{"icaoId":"KBOS","receiptTime":"2026-04-12T14:58:12.253Z","obsTime":1776005640,"reportTime":"2026-04-12T15:00:00.000Z","temp":8.3,"dewp":-6.1,"wdir":130,"wspd":7,"visib":"10+","altim":1034.3,"slp":1033.9,"qcField":4,"presTend":0.7,"metarType":"METAR","rawOb":"METAR KBOS 121454Z 13007KT 10SM FEW250 08/M06 A3054 RMK AO2 SLP339 T00831061 51007","lat":42.3606,"lon":-71.0097,"elev":4,"name":"Boston/Logan Intl, MA, US","cover":"FEW","clouds":[{"cover":"FEW","base":25000}],"fltCat":"VFR"},{"icaoId":"KSJN","receiptTime":"2026-04-12T14:58:06.743Z","obsTime":1776005640,"reportTime":"2026-04-12T15:00:00.000Z","temp":12.8,"dewp":-1.1,"wdir":120,"wspd":5,"visib":"10+","altim":1018.7,"slp":1012.3,"qcField":6,"presTend":0.9,"metarType":"METAR","rawOb":"METAR KSJN 121454Z AUTO 12005KT 10SM CLR 13/M01 A3008 RMK AO2 SLP123 T01281011 51009","lat":34.5184,"lon":-109.3801,"elev":1747,"name":"St Johns Ind Arpt, AZ, US","cover":"CLR","clouds":[],"fltCat":"VFR"},{"icaoId":"KGSO","receiptTime":"2026-04-12T14:58:12.282Z","obsTime":1776005640,"reportTime":"2026-04-12T15:00:00.000Z","temp":17.8,"dewp":12.8,"wdir":70,"wspd":4,"visib":"10+","altim":1029.2,"slp":1028.6,"qcField":4,"presTend":0.9,"metarType":"METAR","rawOb":"METAR KGSO 121454Z 07004KT 10SM BKN016 18/13 A3039 RMK AO2 SLP286 T01780128 51009","lat":36.0969,"lon":-79.9432,"elev":275,"name":"Greensboro Intl, NC, US","cover":"BKN","clouds":[{"cover":"BKN","base":1600}],"fltCat":"MVFR"},{"icaoId":"KROC","receiptTime":"2026-04-12T14:58:03.211Z","obsTime":1776005640,"reportTime":"2026-04-12T15:00:00.000Z","temp":9.4,"dewp":-2.2,"wdir":180,"wspd":9,"visib":"10+","altim":1027.2,"slp":1027.9,"qcField":4,"presTend":-2.2,"metarType":"METAR","rawOb":"METAR KROC 121454Z 18009KT 10SM FEW110 SCT140 BKN250 09/M02 A3033 RMK AO2 SLP279 T00941022 56022","lat":43.1172,"lon":-77.6754,"elev":166,"name":"Rochester Intl Arpt, NY, US","cover":"BKN","clouds":[{"cover":"FEW","base":11000},{"cover":"SCT","base":14000},{"cover":"BKN","base":25000}],"fltCat":"VFR"},{"icaoId":"KRIC","receiptTime":"2026-04-12T14:58:06.247Z","obsTime":1776005640,"reportTime":"2026-04-12T15:00:00.000Z","temp":18.9,"dewp":5.6,"wdir":150,"wspd":9,"visib":"10+","altim":1031.2,"slp":1031.6,"qcField":12,"presTend":0.3,"metarType":"METAR","rawOb":"METAR KRIC 121454Z 15009KT 10SM BKN300 19/06 A3045 RMK AO2 SLP316 T01890056 50003 $","lat":37.5115,"lon":-77.3234,"elev":51,"name":"Richmond Intl, VA, US","cover":"BKN","clouds":[{"cover":"BKN","base":30000}],"fltCat":"VFR"},{"icaoId":"KSYR","receiptTime":"2026-04-12T14:58:06.365Z","obsTime":1776005640,"reportTime":"2026-04-12T15:00:00.000Z","temp":8.3,"dewp":-2.8,"wdir":130,"wspd":8,"visib":"10+","altim":1029.9,"slp":1029.7,"qcField":12,"presTend":-1.9,"metarType":"METAR","rawOb":"METAR KSYR 121454Z 13008KT 10SM OVC110 08/M03 A3041 RMK AO2 SLP297 T00831028 56019 $","lat":43.1111,"lon":-76.1038,"elev":125,"name":"Syracuse/Hancock Intl, NY, US","cover":"OVC","clouds":[{"cover":"OVC","base":11000}],"fltCat":"VFR"},{"icaoId":"KBUF","receiptTime":"2026-04-12T14:58:06.492Z","obsTime":1776005640,"reportTime":"2026-04-12T15:00:00.000Z","temp":8.9,"dewp":-1.7,"wdir":130,"wspd":5,"visib":"10+","altim":1025.1,"slp":1025.4,"qcField":12,"presTend":-2.4,"metarType":"METAR","rawOb":"METAR KBUF 121454Z 13005KT 10SM FEW080 BKN100 OVC140 09/M02 A3027 RMK AO2 SLP254 T00891017 58024 $","lat":42.94,"lon":-78.7361,"elev":217,"name":"Buffalo-Niagara Intl, NY, US","cover":"OVC","clouds":[{"cover":"FEW","base":8000},{"cover":"BKN","base":10000},{"cover":"OVC","base":14000}],"fltCat":"VFR"},{"icaoId":"KPHL","receiptTime":"2026-04-12T14:58:12.461Z","obsTime":1776005640,"reportTime":"2026-04-12T15:00:00.000Z","temp":13.9,"dewp":0.6,"wdir":70,"wspd":7,"visib":"10+","altim":1033.6,"slp":1033.4,"qcField":12,"presTend":0.1,"metarType":"METAR","rawOb":"METAR KPHL 121454Z 07007KT 10SM FEW350 14/01 A3052 RMK AO2 SLP334 T01390006 50001 $","lat":39.8733,"lon":-75.2268,"elev":2,"name":"Philadelphia Intl, PA, US","cover":"FEW","clouds":[{"cover":"FEW","base":35000}],"fltCat":"VFR"},{"icaoId":"KMEM","receiptTime":"2026-04-12T14:58:09.399Z","obsTime":1776005640,"reportTime":"2026-04-12T15:00:00.000Z","temp":22.2,"dewp":14.4,"wdir":230,"wspd":7,"wgst":17,"visib":"10+","altim":1023.5,"slp":1022.9,"qcField":12,"presTend":0.9,"metarType":"METAR","rawOb":"METAR KMEM 121454Z 23007G17KT 10SM BKN250 22/14 A3022 RMK AO2 SLP229 T02220144 50009 $","lat":35.0564,"lon":-89.9864,"elev":78,"name":"Memphis Intl, TN, US","cover":"BKN","clouds":[{"cover":"BKN","base":25000}],"fltCat":"VFR"},{"icaoId":"KIND","receiptTime":"2026-04-12T14:58:10.227Z","obsTime":1776005640,"reportTime":"2026-04-12T15:00:00.000Z","temp":22.2,"dewp":13.3,"wdir":200,"wspd":13,"visib":"10+","altim":1021.4,"slp":1020.9,"qcField":4,"presTend":-0.2,"metarType":"METAR","rawOb":"METAR KIND 121454Z 20013KT 10SM BKN250 22/13 A3016 RMK AO2 SLP209 T02220133 58002","lat":39.7252,"lon":-86.2816,"elev":242,"name":"Indianapolis Intl, IN, US","cover":"BKN","clouds":[{"cover":"BKN","base":25000}],"fltCat":"VFR"},{"icaoId":"KCOS","receiptTime":"2026-04-12T14:58:10.258Z","obsTime":1776005640,"reportTime":"2026-04-12T15:00:00.000Z","temp":14.4,"dewp":-5,"wdir":240,"wspd":6,"visib":"10+","altim":1014,"slp":1007.9,"qcField":4,"presTend":0.9,"metarType":"METAR","rawOb":"METAR KCOS 121454Z 24006KT 10SM FEW100 FEW180 14/M05 A2994 RMK AO2 SLP079 T01441050 50009","lat":38.8095,"lon":-104.6887,"elev":1886,"name":"Colorado Spring Arpt, CO, US","cover":"FEW","clouds":[{"cover":"FEW","base":10000},{"cover":"FEW","base":18000}],"fltCat":"VFR"},{"icaoId":"KAPC","receiptTime":"2026-04-12T14:58:11.038Z","obsTime":1776005640,"reportTime":"2026-04-12T15:00:00.000Z","temp":11.7,"dewp":7.8,"wdir":220,"wspd":12,"visib":"10+","altim":1010.2,"slp":1009.1,"qcField":4,"wxString":"-RA","presTend":1.3,"precip":0.005,"pcp3hr":0.01,"metarType":"METAR","rawOb":"METAR KAPC 121454Z 22012KT 10SM -RA FEW060 BKN075 12/08 A2983 RMK AO2 RAB52 SLP091 P0000 60001 T01170078 53013","lat":38.2075,"lon":-122.2804,"elev":5,"name":"Napa Cnty Arpt, CA, US","cover":"BKN","clouds":[{"cover":"FEW","base":6000},{"cover":"BKN","base":7500}],"fltCat":"VFR"},{"icaoId":"KGCN","receiptTime":"2026-04-12T14:58:11.266Z","obsTime":1776005640,"reportTime":"2026-04-12T15:00:00.000Z","temp":8.9,"dewp":-1.7,"wdir":200,"wspd":9,"visib":"10+","altim":1016.7,"slp":1010.8,"qcField":4,"presTend":0.7,"metarType":"METAR","rawOb":"METAR KGCN 121454Z 20009KT 10SM CLR 09/M02 A3002 RMK AO2 SLP108 T00891017 53007","lat":35.9458,"lon":-112.1554,"elev":1993,"name":"Grand Canyon Park Arpt, AZ, US","cover":"CLR","clouds":[],"fltCat":"VFR"},{"icaoId":"KBTV","receiptTime":"2026-04-12T14:58:12.267Z","obsTime":1776005640,"reportTime":"2026-04-12T15:00:00.000Z","temp":8.3,"dewp":-5.6,"wdir":240,"wspd":7,"visib":"10+","altim":1031.9,"slp":1032.1,"qcField":4,"presTend":-0.7,"metarType":"METAR","rawOb":"METAR KBTV 121454Z 24007KT 10SM SCT120 BKN150 08/M06 A3047 RMK AO2 SLP321 T00831056 58007","lat":44.4682,"lon":-73.1499,"elev":101,"name":"Burlington Intl, VT, US","cover":"BKN","clouds":[{"cover":"SCT","base":12000},{"cover":"BKN","base":15000}],"fltCat":"VFR"},{"icaoId":"KBWI","receiptTime":"2026-04-12T14:58:12.328Z","obsTime":1776005640,"reportTime":"2026-04-12T15:00:00.000Z","temp":15.6,"dewp":6.7,"wdir":110,"wspd":8,"visib":"10+","altim":1031.6,"slp":1031.4,"qcField":4,"metarType":"METAR","rawOb":"METAR KBWI 121454Z 11008KT 10SM FEW035 FEW250 16/07 A3046 RMK AO2 SLP314 T01560067 50000","lat":39.1733,"lon":-76.684,"elev":42,"name":"Baltimore-Washington Intl, MD, US","cover":"FEW","clouds":[{"cover":"FEW","base":3500},{"cover":"FEW","base":25000}],"fltCat":"VFR"},{"icaoId":"KFFZ","receiptTime":"2026-04-12T14:58:21.088Z","obsTime":1776005640,"reportTime":"2026-04-12T15:00:00.000Z","temp":21.1,"dewp":1.7,"wdir":140,"wspd":8,"visib":"10+","altim":1013.6,"slp":1011.3,"qcField":4,"presTend":2.1,"metarType":"METAR","rawOb":"METAR KFFZ 121454Z 14008KT 10SM CLR 21/02 A2993 RMK AO2 SLP113 T02110017 53021","lat":33.4659,"lon":-111.7212,"elev":420,"name":"Mesa/Falcon Fld, AZ, US","cover":"CLR","clouds":[],"fltCat":"VFR"},{"icaoId":"KFMN","receiptTime":"2026-04-12T14:56:33.552Z","obsTime":1776005580,"reportTime":"2026-04-12T15:00:00.000Z","temp":10.6,"dewp":-2.8,"wdir":110,"wspd":8,"visib":"10+","altim":1017.4,"slp":1014.3,"qcField":4,"presTend":0.9,"metarType":"METAR","rawOb":"METAR KFMN 121453Z 11008KT 10SM CLR 11/M03 A3004 RMK AO2 SLP143 T01061028 51009","lat":36.7435,"lon":-108.2293,"elev":1677,"name":"Farmington/Four Corners Rgnl, NM, US","cover":"CLR","clouds":[],"fltCat":"VFR"},{"icaoId":"KMSY","receiptTime":"2026-04-12T14:56:34.915Z","obsTime":1776005580,"reportTime":"2026-04-12T15:00:00.000Z","temp":23.3,"dewp":15.6,"wdir":150,"wspd":13,"wgst":20,"visib":"10+","altim":1024.1,"slp":1024.4,"qcField":4,"presTend":1.2,"metarType":"METAR","rawOb":"METAR KMSY 121453Z 15013G20KT 10SM BKN033 BKN200 23/16 A3024 RMK AO2 SLP244 T02330156 51012","lat":29.9974,"lon":-90.2777,"elev":0,"name":"New Orleans/Armstrong Intl, LA, US","cover":"BKN","clouds":[{"cover":"BKN","base":3300},{"cover":"BKN","base":20000}],"fltCat":"VFR"},{"icaoId":"KMYF","receiptTime":"2026-04-12T14:56:35.023Z","obsTime":1776005580,"reportTime":"2026-04-12T15:00:00.000Z","temp":15.6,"dewp":11.7,"wdir":140,"wspd":4,"visib":"10+","altim":1016.3,"slp":1015.8,"qcField":4,"presTend":1.6,"metarType":"METAR","rawOb":"METAR KMYF 121453Z 14004KT 10SM SCT060 16/12 A3001 RMK AO2 SLP158 T01560117 53016","lat":32.8145,"lon":-117.1375,"elev":128,"name":"San Diego/Montgomery Arpt, CA, US","cover":"SCT","clouds":[{"cover":"SCT","base":6000}],"fltCat":"VFR"},{"icaoId":"KOGD","receiptTime":"2026-04-12T14:56:35.135Z","obsTime":1776005580,"reportTime":"2026-04-12T15:00:00.000Z","temp":13.9,"dewp":-3.3,"wdir":170,"wspd":17,"wgst":28,"visib":"10+","altim":1006.9,"slp":1003.2,"qcField":4,"presTend":0.3,"metarType":"METAR","rawOb":"METAR KOGD 121453Z 17017G28KT 10SM CLR 14/M03 A2973 RMK AO2 PK WND 18030/1437 SLP032 T01391033 53003","lat":41.1941,"lon":-112.0168,"elev":1356,"name":"Ogden/Hinckley Arpt, UT, US","cover":"CLR","clouds":[],"fltCat":"VFR"},{"icaoId":"KONT","receiptTime":"2026-04-12T14:56:35.192Z","obsTime":1776005580,"reportTime":"2026-04-12T15:00:00.000Z","temp":13.3,"dewp":11.1,"wdir":350,"wspd":3,"visib":8,"altim":1015,"slp":1014.4,"qcField":12,"presTend":1.2,"precip":0.005,"pcp3hr":0.005,"metarType":"METAR","rawOb":"METAR KONT 121453Z 35003KT 8SM SCT035 BKN050 13/11 A2997 RMK AO2 RAE28 SLP144 P0000 60000 T01330111 53012 $","lat":34.0531,"lon":-117.5769,"elev":279,"name":"Ontario Intl, CA, US","cover":"BKN","clouds":[{"cover":"SCT","base":3500},{"cover":"BKN","base":5000}],"fltCat":"VFR"},{"icaoId":"KPGA","receiptTime":"2026-04-12T14:56:35.439Z","obsTime":1776005580,"reportTime":"2026-04-12T15:00:00.000Z","temp":14.4,"dewp":-7.8,"wdir":130,"wspd":3,"visib":"10+","altim":1013,"slp":1008.2,"qcField":14,"presTend":0.9,"metarType":"METAR","rawOb":"METAR KPGA 121453Z AUTO 13003KT 10SM CLR 14/M08 A2991 RMK AO2 SLP082 T01441078 53009 $","lat":36.9211,"lon":-111.4487,"elev":1310,"name":"Page Muni, AZ, US","cover":"CLR","clouds":[],"fltCat":"VFR"},{"icaoId":"KGJT","receiptTime":"2026-04-12T14:56:35.919Z","obsTime":1776005580,"reportTime":"2026-04-12T15:00:00.000Z","temp":15.6,"dewp":-2.2,"wdir":130,"wspd":16,"wgst":22,"visib":"10+","altim":1012.6,"slp":1007.9,"qcField":4,"presTend":1.2,"metarType":"METAR","rawOb":"METAR KGJT 121453Z 13016G22KT 10SM CLR 16/M02 A2990 RMK AO2 SLP079 T01561022 51012","lat":39.1344,"lon":-108.5408,"elev":1475,"name":"Grand Junction Rgnl, CO, US","cover":"CLR","clouds":[],"fltCat":"VFR"},{"icaoId":"KAMA","receiptTime":"2026-04-12T14:56:36.369Z","obsTime":1776005580,"reportTime":"2026-04-12T15:00:00.000Z","temp":17.8,"dewp":10,"wdir":240,"wspd":14,"wgst":19,"visib":"10+","altim":1015,"slp":1011,"qcField":4,"presTend":1.3,"metarType":"METAR","rawOb":"METAR KAMA 121453Z 24014G19KT 10SM CLR 18/10 A2997 RMK AO2 SLP110 T01780100 51013","lat":35.2203,"lon":-101.7173,"elev":1102,"name":"Amarillo Intl Arpt, TX, US","cover":"CLR","clouds":[],"fltCat":"VFR"},{"icaoId":"KAUS","receiptTime":"2026-04-12T14:56:36.556Z","obsTime":1776005580,"reportTime":"2026-04-12T15:00:00.000Z","temp":22.2,"dewp":21.7,"wdir":170,"wspd":11,"visib":6,"altim":1018.7,"slp":1017.7,"qcField":4,"wxString":"BR","presTend":1.2,"precip":0.005,"pcp3hr":0.02,"metarType":"METAR","rawOb":"METAR KAUS 121453Z 17011KT 6SM BR OVC008 22/22 A3008 RMK AO2 RAB17E34 SLP177 CB DSNT S CIG 007V010 P0000 60002 T02220217 52012","lat":30.1831,"lon":-97.6806,"elev":148,"name":"Austin/Bergstrom Intl, TX, US","cover":"OVC","clouds":[{"cover":"OVC","base":800}],"fltCat":"IFR"},{"icaoId":"KTPA","receiptTime":"2026-04-12T14:56:34.458Z","obsTime":1776005580,"reportTime":"2026-04-12T15:00:00.000Z","temp":24.4,"dewp":15.6,"wdir":90,"wspd":8,"wgst":15,"visib":"10+","altim":1026.5,"slp":1026.2,"qcField":4,"presTend":1.2,"metarType":"METAR","rawOb":"METAR KTPA 121453Z 09008G15KT 060V150 10SM SCT042 24/16 A3031 RMK AO2 SLP262 T02440156 51012","lat":27.9633,"lon":-82.54,"elev":2,"name":"Tampa Intl Arpt, FL, US","cover":"SCT","clouds":[{"cover":"SCT","base":4200}],"fltCat":"VFR"},{"icaoId":"KMTJ","receiptTime":"2026-04-12T14:56:34.949Z","obsTime":1776005580,"reportTime":"2026-04-12T15:00:00.000Z","temp":15,"dewp":-5.6,"wdir":210,"wspd":14,"wgst":22,"visib":"10+","altim":1015,"slp":1009.5,"qcField":6,"presTend":0.5,"metarType":"METAR","rawOb":"METAR KMTJ 121453Z AUTO 21014G22KT 10SM CLR 15/M06 A2997 RMK AO2 PK WND 19026/1416 SLP095 T01501056 50005","lat":38.5054,"lon":-107.8981,"elev":1755,"name":"Montrose Rgnl, CO, US","cover":"CLR","clouds":[],"fltCat":"VFR"},{"icaoId":"KPSP","receiptTime":"2026-04-12T14:56:30.474Z","obsTime":1776005580,"reportTime":"2026-04-12T15:00:00.000Z","temp":16.7,"dewp":5.6,"wdir":210,"wspd":4,"visib":"10+","altim":1013.6,"slp":1013.3,"qcField":4,"presTend":1.6,"metarType":"METAR","rawOb":"METAR KPSP 121453Z 21004KT 10SM CLR 17/06 A2993 RMK AO2 SLP133 T01670056 53016","lat":33.8222,"lon":-116.5043,"elev":123,"name":"Palm Springs Intl, CA, US","cover":"CLR","clouds":[],"fltCat":"VFR"},{"icaoId":"KLBB","receiptTime":"2026-04-12T14:56:36.263Z","obsTime":1776005580,"reportTime":"2026-04-12T15:00:00.000Z","temp":17.2,"dewp":12.8,"wdir":220,"wspd":14,"visib":"10+","altim":1016.7,"slp":1013.1,"qcField":12,"presTend":1.1,"metarType":"METAR","rawOb":"METAR KLBB 121453Z 22014KT 10SM FEW120 FEW220 BKN250 17/13 A3002 RMK AO2 SLP131 T01720128 51011 $","lat":33.6658,"lon":-101.8233,"elev":996,"name":"Lubbock Intl Arpt, TX, US","cover":"BKN","clouds":[{"cover":"FEW","base":12000},{"cover":"FEW","base":22000},{"cover":"BKN","base":25000}],"fltCat":"VFR"},{"icaoId":"KMYR","receiptTime":"2026-04-12T14:56:24.988Z","obsTime":1776005580,"reportTime":"2026-04-12T15:00:00.000Z","temp":22.2,"dewp":12.8,"wdir":140,"wspd":7,"visib":"10+","altim":1029.9,"slp":1029.7,"qcField":12,"presTend":0.9,"metarType":"METAR","rawOb":"METAR KMYR 121453Z 14007KT 10SM CLR 22/13 A3041 RMK AO2 SLP297 T02220128 53009 $","lat":33.6769,"lon":-78.9325,"elev":7,"name":"Myrtle Beach Intl, SC, US","cover":"CLR","clouds":[],"fltCat":"VFR"},{"icaoId":"KMAF","receiptTime":"2026-04-12T14:56:31.883Z","obsTime":1776005580,"reportTime":"2026-04-12T15:00:00.000Z","temp":19.4,"dewp":15,"wdir":190,"wspd":13,"wgst":19,"visib":"10+","altim":1017.7,"slp":1014.5,"qcField":4,"presTend":1.6,"metarType":"METAR","rawOb":"METAR KMAF 121453Z 19013G19KT 10SM CLR 19/15 A3005 RMK AO2 SLP145 T01940150 51016","lat":31.9475,"lon":-102.2086,"elev":874,"name":"Midland Intl, TX, US","cover":"CLR","clouds":[],"fltCat":"VFR"},{"icaoId":"KVEL","receiptTime":"2026-04-12T14:56:34.704Z","obsTime":1776005580,"reportTime":"2026-04-12T15:00:00.000Z","temp":9.4,"dewp":1.7,"wdir":0,"wspd":0,"visib":"10+","altim":1011.3,"slp":1008.5,"qcField":6,"presTend":0.5,"metarType":"METAR","rawOb":"METAR KVEL 121453Z AUTO 00000KT 10SM CLR 09/02 A2986 RMK AO2 SLP085 T00940017 50005","lat":40.4429,"lon":-109.5128,"elev":1604,"name":"Vernal Rgnl, UT, US","cover":"CLR","clouds":[],"fltCat":"VFR"},{"icaoId":"KMCO","receiptTime":"2026-04-12T14:56:31.969Z","obsTime":1776005580,"reportTime":"2026-04-12T15:00:00.000Z","temp":24.4,"dewp":13.9,"wdir":80,"wspd":13,"wgst":20,"visib":"10+","altim":1027.9,"slp":1027.6,"qcField":4,"presTend":1.9,"metarType":"METAR","rawOb":"METAR KMCO 121453Z 08013G20KT 10SM SCT038 24/14 A3035 RMK AO2 SLP276 T02440139 51019","lat":28.4182,"lon":-81.3241,"elev":27,"name":"Orlando Intl, FL, US","cover":"SCT","clouds":[{"cover":"SCT","base":3800}],"fltCat":"VFR"},{"icaoId":"KMFE","receiptTime":"2026-04-12T14:56:32.061Z","obsTime":1776005580,"reportTime":"2026-04-12T15:00:00.000Z","temp":26.1,"dewp":22.8,"wdir":160,"wspd":11,"visib":"10+","altim":1017.4,"slp":1017,"qcField":12,"presTend":1.9,"pcp3hr":0.005,"metarType":"METAR","rawOb":"METAR KMFE 121453Z 16011KT 10SM BKN016 OVC022 26/23 A3004 RMK AO2 SLP170 60000 T02610228 51019 $","lat":26.1791,"lon":-98.2445,"elev":29,"name":"McAllen/Miller Intl, TX, US","cover":"OVC","clouds":[{"cover":"BKN","base":1600},{"cover":"OVC","base":2200}],"fltCat":"MVFR"},{"icaoId":"KLOL","receiptTime":"2026-04-12T14:56:29.777Z","obsTime":1776005580,"reportTime":"2026-04-12T15:00:00.000Z","temp":3.3,"dewp":0,"wdir":280,"wspd":3,"visib":"10+","altim":1008.5,"slp":1007.8,"qcField":6,"presTend":1.5,"metarType":"METAR","rawOb":"METAR KLOL 121453Z AUTO 28003KT 10SM OVC070 03/00 A2978 RMK AO2 SLP078 T00330000 53015","lat":40.0684,"lon":-118.5702,"elev":1191,"name":"Lovelock/Derby Fld, NV, US","cover":"OVC","clouds":[{"cover":"OVC","base":7000}],"fltCat":"VFR"},{"icaoId":"KCNY","receiptTime":"2026-04-12T14:56:28.973Z","obsTime":1776005580,"reportTime":"2026-04-12T15:00:00.000Z","temp":13.3,"dewp":-2.2,"wdir":110,"wspd":5,"visib":"10+","altim":1011.3,"slp":1007.9,"qcField":14,"presTend":1.1,"metarType":"METAR","rawOb":"METAR KCNY 121453Z AUTO 11005KT 10SM CLR 13/M02 A2986 RMK AO2 SLP079 T01331022 51011 $","lat":38.7501,"lon":-109.7627,"elev":1392,"name":"Moab/Canyonland Fld, UT, US","cover":"CLR","clouds":[],"fltCat":"VFR"},{"icaoId":"KPDX","receiptTime":"2026-04-12T14:56:30.187Z","obsTime":1776005580,"reportTime":"2026-04-12T15:00:00.000Z","temp":10.6,"dewp":8.9,"wdir":90,"wspd":5,"visib":"10+","altim":1005.2,"slp":1004.9,"qcField":12,"presTend":1.5,"metarType":"METAR","rawOb":"METAR KPDX 121453Z 09005KT 10SM OVC013 11/09 A2968 RMK AO2 SLP049 T01060089 53015 $","lat":45.5958,"lon":-122.6092,"elev":7,"name":"Portland Intl, OR, US","cover":"OVC","clouds":[{"cover":"OVC","base":1300}],"fltCat":"MVFR"},{"icaoId":"KTUS","receiptTime":"2026-04-12T14:56:34.534Z","obsTime":1776005580,"reportTime":"2026-04-12T15:00:00.000Z","temp":19.4,"dewp":0.6,"wdir":80,"wspd":3,"visib":"10+","altim":1016.7,"slp":1012.7,"qcField":4,"presTend":1,"metarType":"METAR","rawOb":"METAR KTUS 121453Z 08003KT 10SM CLR 19/01 A3002 RMK AO2 SLP127 T01940006 51010","lat":32.1315,"lon":-110.9564,"elev":776,"name":"Tucson Intl Arpt, AZ, US","cover":"CLR","clouds":[],"fltCat":"VFR"},{"icaoId":"KVGT","receiptTime":"2026-04-12T14:56:34.717Z","obsTime":1776005580,"reportTime":"2026-04-12T15:00:00.000Z","temp":16.1,"dewp":-1.7,"wdir":160,"wspd":7,"visib":"10+","altim":1010.6,"slp":1010.8,"qcField":4,"presTend":2.7,"metarType":"METAR","rawOb":"METAR KVGT 121453Z 16007KT 10SM CLR 16/M02 A2984 RMK AO2 SLP108 T01611017 53027","lat":36.212,"lon":-115.194,"elev":664,"name":"Las Vegas/North Arpt, NV, US","cover":"CLR","clouds":[],"fltCat":"VFR"},{"icaoId":"KBHM","receiptTime":"2026-04-12T14:56:28.723Z","obsTime":1776005580,"reportTime":"2026-04-12T15:00:00.000Z","temp":24.4,"dewp":10,"wdir":160,"wspd":4,"visib":"10+","altim":1027.2,"slp":1026.6,"qcField":4,"presTend":1.4,"metarType":"METAR","rawOb":"METAR KBHM 121453Z 16004KT 10SM FEW250 24/10 A3033 RMK AO2 SLP266 T02440100 51014","lat":33.5655,"lon":-86.7449,"elev":191,"name":"Birmingham Intl, AL, US","cover":"FEW","clouds":[{"cover":"FEW","base":25000}],"fltCat":"VFR"},{"icaoId":"KPBI","receiptTime":"2026-04-12T14:56:35.423Z","obsTime":1776005580,"reportTime":"2026-04-12T15:00:00.000Z","temp":25.6,"dewp":12.8,"wdir":50,"wspd":14,"wgst":22,"visib":"10+","altim":1025.8,"slp":1025.6,"qcField":12,"presTend":1.5,"metarType":"METAR","rawOb":"METAR KPBI 121453Z 05014G22KT 10SM SCT048 26/13 A3029 RMK AO2 SLP256 T02560128 51015 $","lat":26.6851,"lon":-80.0992,"elev":4,"name":"Palm Beach Intl, FL, US","cover":"SCT","clouds":[{"cover":"SCT","base":4800}],"fltCat":"VFR"},{"icaoId":"KDTW","receiptTime":"2026-04-12T14:56:29.111Z","obsTime":1776005580,"reportTime":"2026-04-12T15:00:00.000Z","temp":8.9,"dewp":5,"wdir":160,"wspd":8,"visib":9,"altim":1021.1,"slp":1021.3,"qcField":4,"presTend":-1.7,"precip":0.005,"pcp3hr":0.01,"metarType":"METAR","rawOb":"METAR KDTW 121453Z 16008KT 9SM SCT060 BKN090 OVC110 09/05 A3015 RMK AO2 RAE28 SLP213 P0000 60001 T00890050 58017","lat":42.2311,"lon":-83.3312,"elev":192,"name":"Detroit/Metro Wayne Cnty, MI, US","cover":"OVC","clouds":[{"cover":"SCT","base":6000},{"cover":"BKN","base":9000},{"cover":"OVC","base":11000}],"fltCat":"VFR"},{"icaoId":"KHOU","receiptTime":"2026-04-12T14:56:31.585Z","obsTime":1776005580,"reportTime":"2026-04-12T15:00:00.000Z","temp":24.4,"dewp":20.6,"wdir":160,"wspd":16,"wgst":23,"visib":9,"altim":1020.1,"slp":1020.4,"qcField":12,"presTend":0.7,"pcp3hr":0.005,"metarType":"METAR","rawOb":"METAR KHOU 121453Z 16016G23KT 9SM BKN020 OVC120 24/21 A3012 RMK AO2 PK WND 14026/1438 SLP204 60000 T02440206 53007 $","lat":29.6458,"lon":-95.2821,"elev":13,"name":"Houston/Hobby Arpt, TX, US","cover":"OVC","clouds":[{"cover":"BKN","base":2000},{"cover":"OVC","base":12000}],"fltCat":"MVFR"},{"icaoId":"KRTN","receiptTime":"2026-04-12T14:56:30.734Z","obsTime":1776005580,"reportTime":"2026-04-12T15:00:00.000Z","temp":7.8,"dewp":4.4,"wdir":100,"wspd":3,"visib":"10+","altim":1016.7,"slp":1012.7,"qcField":6,"presTend":0.7,"metarType":"METAR","rawOb":"METAR KRTN 121453Z AUTO 10003KT 10SM CLR 08/04 A3002 RMK AO2 SLP127 T00780044 50007","lat":36.7418,"lon":-104.5076,"elev":1939,"name":"Raton/Crews Fld, NM, US","cover":"CLR","clouds":[],"fltCat":"VFR"},{"icaoId":"KGEG","receiptTime":"2026-04-12T14:56:37.008Z","obsTime":1776005580,"reportTime":"2026-04-12T15:00:00.000Z","temp":7.8,"dewp":6.7,"wdir":0,"wspd":0,"visib":9,"altim":1004.5,"slp":1004.5,"qcField":12,"presTend":0.7,"metarType":"METAR","rawOb":"METAR KGEG 121453Z 00000KT 9SM FEW010 FEW120 BKN260 08/07 A2966 RMK AO2 SLP045 T00780067 52007 $","lat":47.6217,"lon":-117.528,"elev":718,"name":"Spokane Intl, WA, US","cover":"BKN","clouds":[{"cover":"FEW","base":1000},{"cover":"FEW","base":12000},{"cover":"BKN","base":26000}],"fltCat":"VFR"},{"icaoId":"KBRO","receiptTime":"2026-04-12T14:56:37.376Z","obsTime":1776005580,"reportTime":"2026-04-12T15:00:00.000Z","temp":26.1,"dewp":22.2,"wdir":150,"wspd":15,"wgst":27,"visib":"10+","altim":1017.7,"slp":1017.4,"qcField":4,"presTend":1.7,"metarType":"METAR","rawOb":"METAR KBRO 121453Z 15015G27KT 10SM BKN015 BKN024 OVC037 26/22 A3005 RMK AO2 PK WND 14027/1444 SLP174 T02610222 52017","lat":25.9146,"lon":-97.4231,"elev":6,"name":"Brownsville Intl, TX, US","cover":"OVC","clouds":[{"cover":"BKN","base":1500},{"cover":"BKN","base":2400},{"cover":"OVC","base":3700}],"fltCat":"MVFR"},{"icaoId":"KGSP","receiptTime":"2026-04-12T14:56:28.244Z","obsTime":1776005580,"reportTime":"2026-04-12T15:00:00.000Z","temp":21.1,"dewp":10.6,"wdir":20,"wspd":3,"visib":"10+","altim":1028.5,"slp":1027.7,"qcField":4,"presTend":1.5,"metarType":"METAR","rawOb":"METAR KGSP 121453Z 02003KT 10SM CLR 21/11 A3037 RMK AO2 SLP277 T02110106 51015","lat":34.8842,"lon":-82.2209,"elev":285,"name":"Greenville-Spartanburg Intl, SC, US","cover":"CLR","clouds":[],"fltCat":"VFR"},{"icaoId":"KCDC","receiptTime":"2026-04-12T14:56:32.495Z","obsTime":1776005580,"reportTime":"2026-04-12T15:00:00.000Z","temp":11.7,"dewp":-3.3,"wdir":200,"wspd":21,"wgst":28,"visib":"10+","altim":1011.3,"slp":1006.4,"qcField":6,"presTend":0.3,"metarType":"METAR","rawOb":"METAR KCDC 121453Z AUTO 20021G28KT 10SM CLR 12/M03 A2986 RMK AO2 PK WND 20028/1451 SLP064 T01171033 50003","lat":37.7067,"lon":-113.097,"elev":1703,"name":"Cedar City Muni, UT, US","cover":"CLR","clouds":[],"fltCat":"VFR"},{"icaoId":"KDFW","receiptTime":"2026-04-12T14:56:32.990Z","obsTime":1776005580,"reportTime":"2026-04-12T15:00:00.000Z","temp":18.9,"dewp":16.7,"wdir":170,"wspd":7,"visib":"10+","altim":1017.4,"slp":1016.6,"qcField":4,"presTend":1.7,"pcp3hr":0.005,"metarType":"METAR","rawOb":"METAR KDFW 121453Z 17007KT 10SM FEW013 BKN050 BKN110 BKN250 19/17 A3004 RMK AO2 SLP166 60000 T01890167 51017","lat":32.8974,"lon":-97.022,"elev":168,"name":"Dallas-Ft Worth Intl, TX, US","cover":"BKN","clouds":[{"cover":"FEW","base":1300},{"cover":"BKN","base":5000},{"cover":"BKN","base":11000},{"cover":"BKN","base":25000}],"fltCat":"VFR"},{"icaoId":"KASE","receiptTime":"2026-04-12T14:56:36.502Z","obsTime":1776005580,"reportTime":"2026-04-12T15:00:00.000Z","temp":10.6,"dewp":-8.3,"wdir":"VRB","wspd":3,"wgst":15,"visib":"10+","altim":1015.7,"slp":1007.2,"qcField":4,"presTend":0.3,"metarType":"METAR","rawOb":"METAR KASE 121453Z VRB03G15KT 10SM CLR 11/M08 A2999 RMK AO2 SLP072 T01061083 50003","lat":39.2299,"lon":-106.8705,"elev":2384,"name":"Aspen/Pitkin Cnty, CO, US","cover":"CLR","clouds":[],"fltCat":"VFR"},{"icaoId":"KFAT","receiptTime":"2026-04-12T14:56:37.134Z","obsTime":1776005580,"reportTime":"2026-04-12T15:00:00.000Z","temp":12.2,"dewp":8.9,"wdir":110,"wspd":4,"visib":"10+","altim":1014,"slp":1013.8,"qcField":12,"presTend":1.6,"metarType":"METAR","rawOb":"METAR KFAT 121453Z 11004KT 10SM FEW038 BKN055 BKN110 12/09 A2994 RMK AO2 SLP138 T01220089 53016 $","lat":36.78,"lon":-119.7202,"elev":102,"name":"Fresno/Yosemite Intl, CA, US","cover":"BKN","clouds":[{"cover":"FEW","base":3800},{"cover":"BKN","base":5500},{"cover":"BKN","base":11000}],"fltCat":"VFR"},{"icaoId":"KMOD","receiptTime":"2026-04-12T14:56:30.003Z","obsTime":1776005580,"reportTime":"2026-04-12T15:00:00.000Z","temp":11.7,"dewp":7.8,"wdir":160,"wspd":10,"wgst":18,"visib":"10+","altim":1012.3,"slp":1012.3,"qcField":6,"presTend":2,"metarType":"METAR","rawOb":"METAR KMOD 121453Z AUTO 16010G18KT 10SM BKN055 12/08 A2989 RMK AO2 SLP123 T01170078 53020","lat":37.6254,"lon":-120.9549,"elev":25,"name":"Modesto/Sham Fld, CA, US","cover":"BKN","clouds":[{"cover":"BKN","base":5500}],"fltCat":"VFR"},{"icaoId":"KDEN","receiptTime":"2026-04-12T14:56:32.959Z","obsTime":1776005580,"reportTime":"2026-04-12T15:00:00.000Z","temp":17.2,"dewp":-5.6,"wdir":220,"wspd":14,"visib":"10+","altim":1011.6,"slp":1005.6,"qcField":4,"presTend":1.1,"metarType":"METAR","rawOb":"METAR KDEN 121453Z 22014KT 10SM FEW100 FEW150 FEW220 17/M06 A2987 RMK AO2 SLP056 T01721056 51011","lat":39.8466,"lon":-104.6562,"elev":1656,"name":"Denver Intl, CO, US","cover":"FEW","clouds":[{"cover":"FEW","base":10000},{"cover":"FEW","base":15000},{"cover":"FEW","base":22000}],"fltCat":"VFR"},{"icaoId":"KDRO","receiptTime":"2026-04-12T14:56:33.074Z","obsTime":1776005580,"reportTime":"2026-04-12T15:00:00.000Z","temp":7.2,"dewp":-0.6,"wdir":90,"wspd":6,"visib":"10+","altim":1019,"slp":1015.6,"qcField":6,"presTend":1.2,"metarType":"METAR","rawOb":"METAR KDRO 121453Z AUTO 09006KT 10SM CLR 07/M01 A3009 RMK AO2 SLP156 T00721006 51012","lat":37.1431,"lon":-107.7602,"elev":2021,"name":"Durango/La Plata Cnty, CO, US","cover":"CLR","clouds":[],"fltCat":"VFR"},{"icaoId":"KSAF","receiptTime":"2026-04-12T14:56:30.809Z","obsTime":1776005580,"reportTime":"2026-04-12T15:00:00.000Z","temp":10.6,"dewp":4.4,"wdir":0,"wspd":0,"visib":"10+","altim":1019.7,"slp":1013.5,"qcField":12,"presTend":1.3,"metarType":"METAR","rawOb":"METAR KSAF 121453Z 00000KT 10SM FEW090 11/04 A3011 RMK AO2 SLP135 T01060044 51013 $","lat":35.611,"lon":-106.0957,"elev":1918,"name":"Santa Fe Cnty Muni, NM, US","cover":"FEW","clouds":[{"cover":"FEW","base":9000}],"fltCat":"VFR"},{"icaoId":"KAPA","receiptTime":"2026-04-12T14:56:36.430Z","obsTime":1776005580,"reportTime":"2026-04-12T15:00:00.000Z","temp":16.1,"dewp":-4.4,"wdir":190,"wspd":13,"visib":"10+","altim":1012.3,"slp":1007,"qcField":4,"presTend":0.9,"metarType":"METAR","rawOb":"METAR KAPA 121453Z 19013KT 10SM FEW100 FEW160 FEW220 16/M04 A2989 RMK AO2 SLP070 T01611044 50009","lat":39.5599,"lon":-104.8484,"elev":1791,"name":"Denver/Centennial Arpt, CO, US","cover":"FEW","clouds":[{"cover":"FEW","base":10000},{"cover":"FEW","base":16000},{"cover":"FEW","base":22000}],"fltCat":"VFR"},{"icaoId":"KMIA","receiptTime":"2026-04-12T14:56:32.129Z","obsTime":1776005580,"reportTime":"2026-04-12T15:00:00.000Z","temp":25,"dewp":13.3,"wdir":70,"wspd":14,"wgst":24,"visib":"10+","altim":1024.8,"slp":1024.8,"qcField":0,"presTend":1.9,"metarType":"METAR","rawOb":"METAR KMIA 121453Z 07014G24KT 10SM SCT047 25/13 A3026 RMK SLP248 T02500133 51019","lat":25.7881,"lon":-80.3169,"elev":1,"name":"Miami Intl, FL, US","cover":"SCT","clouds":[{"cover":"SCT","base":4700}],"fltCat":"VFR"},{"icaoId":"KSMF","receiptTime":"2026-04-12T14:56:27.662Z","obsTime":1776005580,"reportTime":"2026-04-12T15:00:00.000Z","temp":11.1,"dewp":8.9,"wdir":160,"wspd":12,"visib":"10+","altim":1010.2,"slp":1010.2,"qcField":12,"presTend":1.5,"precip":0.01,"pcp3hr":0.01,"metarType":"METAR","rawOb":"METAR KSMF 121453Z 16012KT 10SM FEW047 BKN060 BKN230 11/09 A2983 RMK AO2 RAB29E53 SLP102 P0001 60001 T01110089 53015 $","lat":38.7007,"lon":-121.5948,"elev":7,"name":"Sacramento Intl, CA, US","cover":"BKN","clouds":[{"cover":"FEW","base":4700},{"cover":"BKN","base":6000},{"cover":"BKN","base":23000}],"fltCat":"VFR"},{"icaoId":"KMSP","receiptTime":"2026-04-12T14:56:37.362Z","obsTime":1776005580,"reportTime":"2026-04-12T15:00:00.000Z","temp":18.9,"dewp":15.6,"wdir":190,"wspd":12,"wgst":20,"visib":"10+","altim":1002.1,"slp":1001.9,"qcField":4,"presTend":-1.9,"metarType":"METAR","rawOb":"METAR KMSP 121453Z 19012G20KT 10SM OVC020 19/16 A2959 RMK AO2 SLP019 T01890156 58019","lat":44.8852,"lon":-93.2313,"elev":255,"name":"Minneapolis-St Paul Intl, MN, US","cover":"OVC","clouds":[{"cover":"OVC","base":2000}],"fltCat":"MVFR"},{"icaoId":"KPRC","receiptTime":"2026-04-12T14:56:30.460Z","obsTime":1776005580,"reportTime":"2026-04-12T15:00:00.000Z","temp":13.3,"dewp":0,"wdir":190,"wspd":8,"visib":"10+","altim":1016,"slp":1010.4,"qcField":4,"presTend":1,"metarType":"METAR","rawOb":"METAR KPRC 121453Z 19008KT 10SM CLR 13/00 A3000 RMK AO2 SLP104 T01330000 53010","lat":34.6491,"lon":-112.4223,"elev":1528,"name":"Prescott/Love Fld, AZ, US","cover":"CLR","clouds":[],"fltCat":"VFR"},{"icaoId":"KELY","receiptTime":"2026-04-12T14:56:37.300Z","obsTime":1776005580,"reportTime":"2026-04-12T15:00:00.000Z","temp":8.3,"dewp":-11.7,"wdir":190,"wspd":24,"wgst":40,"visib":"10+","altim":1008.2,"slp":1002.5,"qcField":6,"presTend":1.6,"metarType":"METAR","rawOb":"METAR KELY 121453Z AUTO 19024G40KT 10SM OVC110 08/M12 A2977 RMK AO2 PK WND 19040/1448 SLP025 T00831117 53016","lat":39.2954,"lon":-114.8466,"elev":1906,"name":"Ely/Yelland Fld, NV, US","cover":"OVC","clouds":[{"cover":"OVC","base":11000}],"fltCat":"VFR"},{"icaoId":"KBNA","receiptTime":"2026-04-12T14:56:36.811Z","obsTime":1776005580,"reportTime":"2026-04-12T15:00:00.000Z","temp":25,"dewp":11.1,"wdir":170,"wspd":7,"visib":"10+","altim":1025.1,"slp":1024.5,"qcField":12,"presTend":0.8,"metarType":"METAR","rawOb":"METAR KBNA 121453Z 17007KT 10SM FEW250 25/11 A3027 RMK AO2 SLP245 T02500111 51008 $","lat":36.1105,"lon":-86.6881,"elev":168,"name":"Nashville Intl, TN, US","cover":"FEW","clouds":[{"cover":"FEW","base":25000}],"fltCat":"VFR"},{"icaoId":"PANC","receiptTime":"2026-04-12T14:56:29.374Z","obsTime":1776005580,"reportTime":"2026-04-12T15:00:00.000Z","temp":-0.6,"dewp":-0.6,"wdir":0,"wspd":0,"visib":2,"altim":1003.5,"slp":1003.5,"qcField":12,"wxString":"-SN BR","presTend":-1.6,"precip":0.01,"pcp3hr":0.05,"metarType":"METAR","rawOb":"METAR PANC 121453Z 00000KT 2SM -SN BR FEW004 BKN021 OVC031 M01/M01 A2963 RMK AO2 SLP035 P0001 60005 T10061006 58016 $","lat":61.1691,"lon":-150.0277,"elev":39,"name":"Anchorage Intl, AK, US","cover":"OVC","clouds":[{"cover":"FEW","base":400},{"cover":"BKN","base":2100},{"cover":"OVC","base":3100}],"fltCat":"IFR"},{"icaoId":"KACV","receiptTime":"2026-04-12T14:56:29.732Z","obsTime":1776005580,"reportTime":"2026-04-12T15:00:00.000Z","temp":7.8,"dewp":7.2,"wdir":40,"wspd":3,"visib":"10+","altim":1005.8,"slp":1006.3,"qcField":6,"wxString":"-RA","presTend":2.4,"precip":0.01,"pcp3hr":0.04,"metarType":"METAR","rawOb":"METAR KACV 121453Z AUTO 04003KT 10SM -RA OVC045 08/07 A2970 RMK AO2 RAE1355B17 SLP063 P0001 60004 T00780072 53024","lat":40.9784,"lon":-124.1048,"elev":63,"name":"Arcata Arpt, CA, US","cover":"OVC","clouds":[{"cover":"OVC","base":4500}],"fltCat":"VFR"},{"icaoId":"KPUB","receiptTime":"2026-04-12T14:56:30.517Z","obsTime":1776005580,"reportTime":"2026-04-12T15:00:00.000Z","temp":14.4,"dewp":0,"wdir":200,"wspd":5,"visib":"10+","altim":1012.6,"slp":1008.5,"qcField":12,"presTend":1,"metarType":"METAR","rawOb":"METAR KPUB 121453Z 20005KT 10SM CLR 14/00 A2990 RMK AO2 SLP085 T01440000 50010 $","lat":38.2887,"lon":-104.5057,"elev":1441,"name":"Pueblo Mem Arpt, CO, US","cover":"CLR","clouds":[],"fltCat":"VFR"},{"icaoId":"KOAK","receiptTime":"2026-04-12T14:56:30.033Z","obsTime":1776005580,"reportTime":"2026-04-12T15:00:00.000Z","temp":12.8,"dewp":8.3,"wdir":170,"wspd":14,"visib":"10+","altim":1011.3,"slp":1011.1,"qcField":12,"presTend":1.6,"pcp3hr":0.02,"metarType":"METAR","rawOb":"METAR KOAK 121453Z 17014KT 10SM FEW014 BKN028 BKN100 13/08 A2986 RMK AO2 SLP111 60002 T01280083 53016 $","lat":37.7178,"lon":-122.233,"elev":3,"name":"Oakland Intl, CA, US","cover":"BKN","clouds":[{"cover":"FEW","base":1400},{"cover":"BKN","base":2800},{"cover":"BKN","base":10000}],"fltCat":"MVFR"},{"icaoId":"KSBA","receiptTime":"2026-04-12T14:56:30.845Z","obsTime":1776005580,"reportTime":"2026-04-12T15:00:00.000Z","temp":13.3,"dewp":11.7,"wdir":0,"wspd":0,"visib":"10+","altim":1014.6,"slp":1014.5,"qcField":12,"presTend":2.3,"metarType":"METAR","rawOb":"METAR KSBA 121453Z 00000KT 10SM CLR 13/12 A2996 RMK AO2 SLP145 T01330117 53023 $","lat":34.4241,"lon":-119.8425,"elev":2,"name":"Santa Barbara Muni, CA, US","cover":"CLR","clouds":[],"fltCat":"VFR"},{"icaoId":"KSDL","receiptTime":"2026-04-12T14:56:30.885Z","obsTime":1776005580,"reportTime":"2026-04-12T15:00:00.000Z","temp":20.6,"dewp":1.1,"wdir":160,"wspd":4,"visib":"10+","altim":1014,"slp":1011.9,"qcField":4,"presTend":2.1,"metarType":"METAR","rawOb":"METAR KSDL 121453Z 16004KT 10SM CLR 21/01 A2994 RMK AO2 SLP119 T02060011 53021","lat":33.6123,"lon":-111.9232,"elev":438,"name":"Scottsdale Muni, AZ, US","cover":"CLR","clouds":[],"fltCat":"VFR"},{"icaoId":"KSJC","receiptTime":"2026-04-12T14:56:30.995Z","obsTime":1776005580,"reportTime":"2026-04-12T15:00:00.000Z","temp":11.1,"dewp":8.3,"wdir":170,"wspd":5,"visib":"10+","altim":1011.9,"slp":1011.7,"qcField":4,"presTend":1.6,"precip":0.005,"pcp3hr":0.005,"metarType":"METAR","rawOb":"METAR KSJC 121453Z 17005KT 10SM SCT025 BKN032 BKN040 11/08 A2988 RMK AO2 RAB38E49 SLP117 P0000 60000 T01110083 53016","lat":37.3594,"lon":-121.9244,"elev":13,"name":"San Jose Intl Arpt, CA, US","cover":"BKN","clouds":[{"cover":"SCT","base":2500},{"cover":"BKN","base":3200},{"cover":"BKN","base":4000}],"fltCat":"VFR"},{"icaoId":"KLGB","receiptTime":"2026-04-12T14:56:31.206Z","obsTime":1776005580,"reportTime":"2026-04-12T15:00:00.000Z","temp":15.6,"dewp":13.3,"wdir":280,"wspd":8,"visib":1.25,"altim":1014.6,"slp":1014.6,"qcField":12,"wxString":"+RA BR","presTend":1.4,"precip":0.06,"pcp3hr":0.06,"metarType":"METAR","rawOb":"METAR KLGB 121453Z 28008KT 1 1/4SM R30/4000VP6000FT +RA BR SCT020 BKN029 OVC042 16/13 A2996 RMK AO2 RAB20 SLP146 P0006 60006 T01560133 53014 $","lat":33.8118,"lon":-118.1472,"elev":10,"name":"Long Beach Arpt, CA, US","cover":"OVC","clouds":[{"cover":"SCT","base":2000},{"cover":"BKN","base":2900},{"cover":"OVC","base":4200}],"fltCat":"IFR"},{"icaoId":"KLVS","receiptTime":"2026-04-12T14:56:31.822Z","obsTime":1776005580,"reportTime":"2026-04-12T15:00:00.000Z","temp":12.2,"dewp":2.8,"wdir":180,"wspd":13,"visib":"10+","altim":1019,"slp":1012.5,"qcField":14,"presTend":1.2,"metarType":"METAR","rawOb":"METAR KLVS 121453Z AUTO 18013KT 10SM CLR 12/03 A3009 RMK AO2 SLP125 6//// T01220028 51012 PNO $","lat":35.6558,"lon":-105.1385,"elev":2095,"name":"Las Vegas Muni, NM, US","cover":"CLR","clouds":[],"fltCat":"VFR"},{"icaoId":"KMDW","receiptTime":"2026-04-12T14:56:32.041Z","obsTime":1776005580,"reportTime":"2026-04-12T15:00:00.000Z","temp":21.1,"dewp":13.3,"wdir":200,"wspd":17,"wgst":26,"visib":"10+","altim":1015.3,"slp":1015,"qcField":4,"presTend":-1.2,"metarType":"METAR","rawOb":"METAR KMDW 121453Z 20017G26KT 10SM FEW070 SCT110 BKN250 21/13 A2998 RMK AO2 PK WND 22028/1401 SLP150 T02110133 58012","lat":41.7841,"lon":-87.7552,"elev":186,"name":"Chicago/Midway Intl, IL, US","cover":"BKN","clouds":[{"cover":"FEW","base":7000},{"cover":"SCT","base":11000},{"cover":"BKN","base":25000}],"fltCat":"VFR"},{"icaoId":"KCNM","receiptTime":"2026-04-12T14:56:32.654Z","obsTime":1776005580,"reportTime":"2026-04-12T15:00:00.000Z","temp":16.7,"dewp":13.3,"wdir":120,"wspd":5,"visib":"10+","altim":1017.4,"slp":1013.6,"qcField":6,"presTend":1.8,"metarType":"METAR","rawOb":"METAR KCNM 121453Z AUTO 12005KT 10SM SCT120 17/13 A3004 RMK AO2 SLP136 T01670133 51018","lat":32.3336,"lon":-104.2584,"elev":993,"name":"Carlsbad/Cavern City Air Term, NM, US","cover":"SCT","clouds":[{"cover":"SCT","base":12000}],"fltCat":"VFR"},{"icaoId":"KCRQ","receiptTime":"2026-04-12T14:56:32.748Z","obsTime":1776005580,"reportTime":"2026-04-12T15:00:00.000Z","temp":16.1,"dewp":12.2,"wdir":140,"wspd":8,"visib":"10+","altim":1015.3,"slp":1015.1,"qcField":6,"presTend":1.3,"metarType":"METAR","rawOb":"METAR KCRQ 121453Z AUTO 14008KT 10SM OVC060 16/12 A2998 RMK AO2 SLP151 T01610122 53013","lat":33.1299,"lon":-117.2765,"elev":96,"name":"Carlsbad/Palomar Arpt, CA, US","cover":"OVC","clouds":[{"cover":"OVC","base":6000}],"fltCat":"VFR"},{"icaoId":"KDMN","receiptTime":"2026-04-12T14:56:33.046Z","obsTime":1776005580,"reportTime":"2026-04-12T15:00:00.000Z","temp":17.2,"dewp":1.7,"wdir":230,"wspd":3,"visib":"10+","altim":1020.1,"slp":1013.8,"qcField":6,"presTend":1.5,"metarType":"METAR","rawOb":"METAR KDMN 121453Z AUTO 23003KT 10SM CLR 17/02 A3012 RMK AO2 SLP138 T01720017 52015","lat":32.2592,"lon":-107.7206,"elev":1310,"name":"Deming Muni, NM, US","cover":"CLR","clouds":[],"fltCat":"VFR"},{"icaoId":"KDVT","receiptTime":"2026-04-12T14:56:33.166Z","obsTime":1776005580,"reportTime":"2026-04-12T15:00:00.000Z","temp":21.1,"dewp":1.1,"wdir":150,"wspd":6,"visib":"10+","altim":1013.6,"slp":1011.3,"qcField":12,"presTend":1.9,"metarType":"METAR","rawOb":"METAR KDVT 121453Z 15006KT 10SM CLR 21/01 A2993 RMK AO2 SLP113 T02110011 53019 $","lat":33.6902,"lon":-112.0662,"elev":454,"name":"Phoenix/Deer Valley Arpt, AZ, US","cover":"CLR","clouds":[],"fltCat":"VFR"},{"icaoId":"KATL","receiptTime":"2026-04-12T14:56:24.430Z","obsTime":1776005520,"reportTime":"2026-04-12T15:00:00.000Z","temp":25,"dewp":7.8,"wdir":230,"wspd":7,"visib":"10+","altim":1027.9,"slp":1026.8,"qcField":12,"presTend":1.6,"metarType":"METAR","rawOb":"METAR KATL 121452Z 23007KT 10SM SCT250 25/08 A3035 RMK AO2 SLP268 T02500078 51016 $","lat":33.6297,"lon":-84.4422,"elev":309,"name":"Atlanta/Hartsfield-Jackson Intl, GA, US","cover":"SCT","clouds":[{"cover":"SCT","base":25000}],"fltCat":"VFR"},{"icaoId":"KABQ","receiptTime":"2026-04-12T14:56:15.544Z","obsTime":1776005520,"reportTime":"2026-04-12T15:00:00.000Z","temp":13.3,"dewp":5,"wdir":170,"wspd":5,"visib":"10+","altim":1019.4,"slp":1014.1,"qcField":12,"presTend":1.4,"metarType":"METAR","rawOb":"METAR KABQ 121452Z 17005KT 10SM FEW180 13/05 A3010 RMK AO2 SLP141 T01330050 51014 $","lat":35.0419,"lon":-106.6154,"elev":1620,"name":"Albuquerque Intl, NM, US","cover":"FEW","clouds":[{"cover":"FEW","base":18000}],"fltCat":"VFR"},{"icaoId":"KSPS","receiptTime":"2026-04-12T14:56:15.678Z","obsTime":1776005520,"reportTime":"2026-04-12T15:00:00.000Z","temp":21.1,"dewp":17.8,"wdir":210,"wspd":17,"wgst":24,"visib":"10+","altim":1015,"slp":1014,"qcField":4,"presTend":1.2,"metarType":"METAR","rawOb":"METAR KSPS 121452Z 21017G24KT 10SM SCT013 21/18 A2997 RMK AO2 SLP140 T02110178 51012","lat":33.9785,"lon":-98.493,"elev":310,"name":"Wichita Falls Rgnl, TX, US","cover":"SCT","clouds":[{"cover":"SCT","base":1300}],"fltCat":"VFR"},{"icaoId":"KMLF","receiptTime":"2026-04-12T14:56:06.281Z","obsTime":1776005520,"reportTime":"2026-04-12T15:00:00.000Z","temp":12.2,"dewp":-2.2,"wdir":200,"wspd":14,"wgst":25,"visib":"10+","altim":1009.6,"slp":1005.4,"qcField":6,"presTend":0.3,"metarType":"METAR","rawOb":"METAR KMLF 121452Z AUTO 20014G25KT 10SM CLR 12/M02 A2981 RMK AO2 SLP054 T01221022 53003","lat":38.4225,"lon":-113.0109,"elev":1537,"name":"Milford Muni, UT, US","cover":"CLR","clouds":[],"fltCat":"VFR"},{"icaoId":"KTRM","receiptTime":"2026-04-12T14:58:19.000Z","obsTime":1776005520,"reportTime":"2026-04-12T15:00:00.000Z","temp":18.9,"dewp":6.1,"wdir":360,"wspd":7,"visib":"10+","altim":1013,"slp":1013,"qcField":38,"presTend":2.4,"metarType":"METAR","rawOb":"METAR KTRM 121452Z AUTO 36007KT 10SM CLR 19/06 A2991 RMK AO2 SLP130 T01890061 52024 TSNO","lat":33.6317,"lon":-116.1641,"elev":-39,"name":"Thermal Arpt, CA, US","cover":"CLR","clouds":[],"fltCat":"VFR"},{"icaoId":"KCLT","receiptTime":"2026-04-12T14:56:24.579Z","obsTime":1776005520,"reportTime":"2026-04-12T15:00:00.000Z","temp":21.1,"dewp":11.1,"wdir":0,"wspd":0,"visib":"10+","altim":1028.5,"slp":1029.1,"qcField":4,"presTend":1,"metarType":"METAR","rawOb":"METAR KCLT 121452Z 00000KT 10SM FEW250 21/11 A3037 RMK AO2 SLP291 T02110111 51010","lat":35.2225,"lon":-80.9543,"elev":223,"name":"Charlotte/Douglas Intl, NC, US","cover":"FEW","clouds":[{"cover":"FEW","base":25000}],"fltCat":"VFR"},{"icaoId":"KCVG","receiptTime":"2026-04-12T14:56:24.617Z","obsTime":1776005520,"reportTime":"2026-04-12T15:00:00.000Z","temp":21.1,"dewp":12.2,"wdir":200,"wspd":9,"visib":"10+","altim":1023.5,"slp":1022.8,"qcField":12,"presTend":0.2,"metarType":"METAR","rawOb":"METAR KCVG 121452Z 20009KT 10SM FEW110 BKN250 21/12 A3022 RMK AO2 SLP228 T02110122 50002 $","lat":39.0444,"lon":-84.6724,"elev":264,"name":"Cincinnati Intl, KY, US","cover":"BKN","clouds":[{"cover":"FEW","base":11000},{"cover":"BKN","base":25000}],"fltCat":"VFR"},{"icaoId":"KDCA","receiptTime":"2026-04-12T14:56:24.638Z","obsTime":1776005520,"reportTime":"2026-04-12T15:00:00.000Z","temp":17.8,"dewp":7.2,"wdir":180,"wspd":10,"visib":"10+","altim":1031.2,"slp":1031,"qcField":4,"presTend":-0.3,"metarType":"METAR","rawOb":"METAR KDCA 121452Z 18010KT 10SM FEW060 FEW250 18/07 A3045 RMK AO2 SLP310 T01780072 58003","lat":38.8472,"lon":-77.0345,"elev":4,"name":"Washington/Reagan-National Arpt, VA, US","cover":"FEW","clouds":[{"cover":"FEW","base":6000},{"cover":"FEW","base":25000}],"fltCat":"VFR"},{"icaoId":"KIAD","receiptTime":"2026-04-12T14:56:24.807Z","obsTime":1776005520,"reportTime":"2026-04-12T15:00:00.000Z","temp":17.2,"dewp":6.1,"wdir":160,"wspd":10,"visib":"10+","altim":1030.9,"slp":1030.6,"qcField":12,"presTend":-0.4,"metarType":"METAR","rawOb":"METAR KIAD 121452Z 16010KT 10SM FEW040 BKN250 17/06 A3044 RMK AO2 SLP306 T01720061 58004 $","lat":38.9348,"lon":-77.4473,"elev":90,"name":"Washington/Dulles Intl, VA, US","cover":"BKN","clouds":[{"cover":"FEW","base":4000},{"cover":"BKN","base":25000}],"fltCat":"VFR"},{"icaoId":"KMKE","receiptTime":"2026-04-12T15:00:14.943Z","obsTime":1776005520,"reportTime":"2026-04-12T15:00:00.000Z","temp":16.7,"dewp":13.3,"wdir":210,"wspd":12,"wgst":22,"visib":8,"altim":1012.6,"slp":1012.8,"qcField":13,"wxString":"-RA","presTend":-0.9,"precip":0.13,"pcp3hr":0.2,"metarType":"METAR","rawOb":"METAR KMKE 121452Z COR 21012G22KT 8SM -RA SCT050 OVC095 17/13 A2990 RMK AO2 PK WND 23028/1353 SLP128 TSE23 RAE24B38 P0013 60020 T01670133 58009 $","lat":42.9549,"lon":-87.9045,"elev":203,"name":"Milwaukee/Mitchell Intl, WI, US","cover":"OVC","clouds":[{"cover":"SCT","base":5000},{"cover":"OVC","base":9500}],"fltCat":"VFR"},{"icaoId":"KCLE","receiptTime":"2026-04-12T14:54:08.574Z","obsTime":1776005460,"reportTime":"2026-04-12T15:00:00.000Z","temp":15.6,"dewp":2.8,"wdir":190,"wspd":13,"wgst":22,"visib":"10+","altim":1022.4,"slp":1024.1,"qcField":12,"presTend":-1.2,"metarType":"METAR","rawOb":"METAR KCLE 121451Z 19013G22KT 10SM BKN065 BKN090 OVC110 16/03 A3019 RMK AO2 SLP241 T01560028 58012 $","lat":41.4057,"lon":-81.8519,"elev":237,"name":"Cleveland/Hopkins Intl, OH, US","cover":"OVC","clouds":[{"cover":"BKN","base":6500},{"cover":"BKN","base":9000},{"cover":"OVC","base":11000}],"fltCat":"VFR"},{"icaoId":"KCMH","receiptTime":"2026-04-12T14:54:08.610Z","obsTime":1776005460,"reportTime":"2026-04-12T15:00:00.000Z","temp":17.8,"dewp":6.7,"wdir":190,"wspd":7,"visib":"10+","altim":1024.1,"slp":1023.8,"qcField":4,"presTend":-0.2,"metarType":"METAR","rawOb":"METAR KCMH 121451Z 19007KT 10SM BKN120 OVC230 18/07 A3024 RMK AO2 SLP238 T01780067 58002","lat":39.9907,"lon":-82.877,"elev":257,"name":"Columbus/Glenn Intl, OH, US","cover":"OVC","clouds":[{"cover":"BKN","base":12000},{"cover":"OVC","base":23000}],"fltCat":"VFR"},{"icaoId":"KJFK","receiptTime":"2026-04-12T14:54:08.940Z","obsTime":1776005460,"reportTime":"2026-04-12T15:00:00.000Z","temp":10,"dewp":0,"wdir":120,"wspd":12,"visib":"10+","altim":1035,"slp":1034.7,"qcField":12,"presTend":0.7,"metarType":"METAR","rawOb":"METAR KJFK 121451Z 12012KT 10SM FEW150 SCT250 10/00 A3056 RMK AO2 SLP347 T01000000 53007 $","lat":40.6392,"lon":-73.7639,"elev":3,"name":"New York/JF Kennedy Intl, NY, US","cover":"SCT","clouds":[{"cover":"FEW","base":15000},{"cover":"SCT","base":25000}],"fltCat":"VFR"},{"icaoId":"KLGA","receiptTime":"2026-04-12T14:54:08.961Z","obsTime":1776005460,"reportTime":"2026-04-12T15:00:00.000Z","temp":11.1,"dewp":-1.7,"wdir":160,"wspd":8,"visib":"10+","altim":1033.9,"slp":1033.8,"qcField":12,"metarType":"METAR","rawOb":"METAR KLGA 121451Z 16008KT 110V200 10SM FEW120 FEW200 FEW250 11/M02 A3053 RMK AO2 SLP338 T01111017 58000 $","lat":40.7794,"lon":-73.8803,"elev":9,"name":"New York/La Guardia Arpt, NY, US","cover":"FEW","clouds":[{"cover":"FEW","base":12000},{"cover":"FEW","base":20000},{"cover":"FEW","base":25000}],"fltCat":"VFR"},{"icaoId":"KLGU","receiptTime":"2026-04-12T14:54:08.978Z","obsTime":1776005460,"reportTime":"2026-04-12T15:00:00.000Z","temp":5,"dewp":3.9,"wdir":360,"wspd":4,"visib":"10+","altim":1007.2,"slp":1006,"qcField":6,"metarType":"METAR","rawOb":"METAR KLGU 121451Z AUTO 36004KT 10SM CLR 05/04 A2974 RMK AO2 SLP060 T00500039 56000","lat":41.7865,"lon":-111.8519,"elev":1359,"name":"Logan/Cache Arpt, UT, US","cover":"CLR","clouds":[],"fltCat":"VFR"},{"icaoId":"KORD","receiptTime":"2026-04-12T14:54:09.042Z","obsTime":1776005460,"reportTime":"2026-04-12T15:00:00.000Z","temp":20.6,"dewp":12.8,"wdir":200,"wspd":15,"wgst":30,"visib":"10+","altim":1014.3,"slp":1014.3,"qcField":12,"presTend":-1.4,"metarType":"METAR","rawOb":"METAR KORD 121451Z 20015G30KT 10SM SCT120 BKN250 21/13 A2995 RMK AO2 PK WND 19031/1418 SLP143 T02060128 58014 $","lat":41.9602,"lon":-87.9316,"elev":202,"name":"Chicago/O'Hare Intl, IL, US","cover":"BKN","clouds":[{"cover":"SCT","base":12000},{"cover":"BKN","base":25000}],"fltCat":"VFR"},{"icaoId":"KOXR","receiptTime":"2026-04-12T14:54:09.076Z","obsTime":1776005460,"reportTime":"2026-04-12T15:00:00.000Z","temp":15.6,"dewp":11.1,"wdir":270,"wspd":11,"visib":"10+","altim":1014.3,"slp":1014.2,"qcField":4,"presTend":1.9,"pcp3hr":0.005,"metarType":"METAR","rawOb":"METAR KOXR 121451Z 27011KT 10SM BKN085 16/11 A2995 RMK AO2 SLP142 60000 T01560111 53019","lat":34.2001,"lon":-119.2042,"elev":12,"name":"Oxnard Arpt, CA, US","cover":"BKN","clouds":[{"cover":"BKN","base":8500}],"fltCat":"VFR"},{"icaoId":"KIGM","receiptTime":"2026-04-12T14:54:08.864Z","obsTime":1776005460,"reportTime":"2026-04-12T15:00:00.000Z","temp":17.2,"dewp":-5,"wdir":230,"wspd":15,"visib":"10+","altim":1013,"slp":1007.2,"qcField":6,"presTend":1.5,"metarType":"METAR","rawOb":"METAR KIGM 121451Z AUTO 23015KT 10SM CLR 17/M05 A2991 RMK AO2 SLP072 T01721050 53015","lat":35.2575,"lon":-113.9341,"elev":1045,"name":"Kingman Arpt, AZ, US","cover":"CLR","clouds":[],"fltCat":"VFR"},{"icaoId":"KPHX","receiptTime":"2026-04-12T14:54:09.091Z","obsTime":1776005460,"reportTime":"2026-04-12T15:00:00.000Z","temp":22.2,"dewp":3.3,"wdir":170,"wspd":11,"visib":"10+","altim":1012.6,"slp":1011.1,"qcField":12,"presTend":2,"metarType":"METAR","rawOb":"METAR KPHX 121451Z 17011KT 10SM BKN180 BKN250 22/03 A2990 RMK AO2 SLP111 T02220033 53020 $","lat":33.4278,"lon":-112.0037,"elev":338,"name":"Phoenix/Sky Harbor Intl, AZ, US","cover":"BKN","clouds":[{"cover":"BKN","base":18000},{"cover":"BKN","base":25000}],"fltCat":"VFR"},{"icaoId":"KORF","receiptTime":"2026-04-12T14:54:09.058Z","obsTime":1776005460,"reportTime":"2026-04-12T15:00:00.000Z","temp":18.3,"dewp":2.8,"wdir":110,"wspd":7,"wgst":15,"visib":"10+","altim":1031.9,"slp":1031.6,"qcField":4,"presTend":0.8,"metarType":"METAR","rawOb":"METAR KORF 121451Z 11007G15KT 10SM CLR 18/03 A3047 RMK AO2 SLP316 T01830028 51008","lat":36.9037,"lon":-76.1927,"elev":5,"name":"Norfolk Intl, VA, US","cover":"CLR","clouds":[],"fltCat":"VFR"},{"icaoId":"KBDL","receiptTime":"2026-04-12T14:54:08.472Z","obsTime":1776005460,"reportTime":"2026-04-12T15:00:00.000Z","temp":9.4,"dewp":-6.7,"wdir":"VRB","wspd":3,"visib":"10+","altim":1033.6,"slp":1033.7,"qcField":4,"presTend":-0.1,"metarType":"METAR","rawOb":"METAR KBDL 121451Z VRB03KT 10SM FEW130 FEW250 09/M07 A3052 RMK AO2 SLP337 T00941067 58001","lat":41.9374,"lon":-72.682,"elev":52,"name":"Hartford/Bradley Intl, CT, US","cover":"FEW","clouds":[{"cover":"FEW","base":13000},{"cover":"FEW","base":25000}],"fltCat":"VFR"},{"icaoId":"KPIT","receiptTime":"2026-04-12T14:54:09.122Z","obsTime":1776005460,"reportTime":"2026-04-12T15:00:00.000Z","temp":16.7,"dewp":3.3,"wdir":"VRB","wspd":5,"visib":"10+","altim":1025.1,"slp":1025.9,"qcField":12,"presTend":-0.6,"metarType":"METAR","rawOb":"METAR KPIT 121451Z VRB05KT 10SM FEW150 BKN250 17/03 A3027 RMK AO2 SLP259 T01670033 58006 $","lat":40.4814,"lon":-80.2083,"elev":339,"name":"Pittsburgh Intl, PA, US","cover":"BKN","clouds":[{"cover":"FEW","base":15000},{"cover":"BKN","base":25000}],"fltCat":"VFR"},{"icaoId":"KPVD","receiptTime":"2026-04-12T14:54:07.259Z","obsTime":1776005460,"reportTime":"2026-04-12T15:00:00.000Z","temp":8.9,"dewp":-5.6,"wdir":0,"wspd":0,"visib":"10+","altim":1034.3,"slp":1034.1,"qcField":12,"presTend":0.6,"metarType":"METAR","rawOb":"METAR KPVD 121451Z 00000KT 10SM FEW250 09/M06 A3054 RMK AO2 SLP341 T00891056 51006 $","lat":41.7225,"lon":-71.4325,"elev":15,"name":"Providence/Green Mem, RI, US","cover":"FEW","clouds":[{"cover":"FEW","base":25000}],"fltCat":"VFR"},{"icaoId":"KSTL","receiptTime":"2026-04-12T14:54:07.517Z","obsTime":1776005460,"reportTime":"2026-04-12T15:00:00.000Z","temp":23.3,"dewp":13.3,"wdir":190,"wspd":14,"visib":"10+","altim":1018,"slp":1017,"qcField":12,"presTend":-0.5,"metarType":"METAR","rawOb":"METAR KSTL 121451Z 19014KT 10SM SCT200 BKN250 23/13 A3006 RMK AO2 SLP170 T02330133 58005 $","lat":38.7525,"lon":-90.3734,"elev":163,"name":"St Louis/Lambert Intl, MO, US","cover":"BKN","clouds":[{"cover":"SCT","base":20000},{"cover":"BKN","base":25000}],"fltCat":"VFR"},{"icaoId":"KSAN","receiptTime":"2026-04-12T14:54:07.359Z","obsTime":1776005460,"reportTime":"2026-04-12T15:00:00.000Z","temp":17.8,"dewp":12.8,"wdir":170,"wspd":5,"visib":"10+","altim":1016.7,"slp":1016.4,"qcField":12,"presTend":1.6,"metarType":"METAR","rawOb":"METAR KSAN 121451Z 17005KT 10SM BKN060 18/13 A3002 RMK AO2 SLP164 T01780128 53016 $","lat":32.7364,"lon":-117.1973,"elev":3,"name":"San Diego Intl Arpt, CA, US","cover":"BKN","clouds":[{"cover":"BKN","base":6000}],"fltCat":"VFR"},{"icaoId":"KROW","receiptTime":"2026-04-12T14:54:07.330Z","obsTime":1776005460,"reportTime":"2026-04-12T15:00:00.000Z","temp":18.3,"dewp":10,"wdir":260,"wspd":4,"visib":"10+","altim":1017,"slp":1012,"qcField":12,"presTend":1.5,"metarType":"METAR","rawOb":"METAR KROW 121451Z 26004KT 10SM CLR 18/10 A3003 RMK AO2 SLP120 T01830100 51015 $","lat":33.3074,"lon":-104.5082,"elev":1105,"name":"Roswell/Ind Arpt, NM, US","cover":"CLR","clouds":[],"fltCat":"VFR"},{"icaoId":"KSAD","receiptTime":"2026-04-12T14:54:07.343Z","obsTime":1776005460,"reportTime":"2026-04-12T15:00:00.000Z","temp":18.9,"dewp":-2.2,"wdir":90,"wspd":7,"visib":"10+","altim":1016.7,"slp":1012.5,"qcField":6,"presTend":1.5,"metarType":"METAR","rawOb":"METAR KSAD 121451Z AUTO 09007KT 10SM CLR 19/M02 A3002 RMK AO2 SLP125 T01891022 51015","lat":32.8565,"lon":-109.636,"elev":937,"name":"Safford Rgnl, AZ, US","cover":"CLR","clouds":[],"fltCat":"VFR"},{"icaoId":"KELP","receiptTime":"2026-04-12T14:54:08.734Z","obsTime":1776005460,"reportTime":"2026-04-12T15:00:00.000Z","temp":16.7,"dewp":8.3,"wdir":170,"wspd":7,"visib":"10+","altim":1019.4,"slp":1014.4,"qcField":4,"presTend":2,"metarType":"METAR","rawOb":"METAR KELP 121451Z 17007KT 10SM FEW100 FEW250 17/08 A3010 RMK AO2 SLP144 T01670083 51020","lat":31.8123,"lon":-106.3774,"elev":1205,"name":"El Paso Intl, TX, US","cover":"FEW","clouds":[{"cover":"FEW","base":10000},{"cover":"FEW","base":25000}],"fltCat":"VFR"},{"icaoId":"KEWR","receiptTime":"2026-04-12T14:54:08.780Z","obsTime":1776005460,"reportTime":"2026-04-12T15:00:00.000Z","temp":11.1,"dewp":-2.2,"wdir":120,"wspd":10,"wgst":16,"visib":"10+","altim":1034.3,"slp":1034.2,"qcField":4,"presTend":0.5,"metarType":"METAR","rawOb":"METAR KEWR 121451Z 12010G16KT 090V160 10SM FEW250 11/M02 A3054 RMK AO2 SLP342 T01111022 53005","lat":40.6828,"lon":-74.1692,"elev":2,"name":"Newark Intl, NJ, US","cover":"FEW","clouds":[{"cover":"FEW","base":25000}],"fltCat":"VFR"},{"icaoId":"KAEG","receiptTime":"2026-04-12T14:53:18.998Z","obsTime":1776005400,"reportTime":"2026-04-12T15:00:00.000Z","temp":13,"dewp":0,"wdir":230,"wspd":4,"visib":"10+","altim":1020.1,"qcField":0,"metarType":"METAR","rawOb":"METAR KAEG 121450Z 23004KT 10SM 13/00 A3012","lat":35.15,"lon":-106.7929,"elev":1771,"name":"Albuquerque/Double Eagle Arpt, NM, US"},{"icaoId":"KHOB","receiptTime":"2026-04-12T14:51:08.434Z","obsTime":1776005400,"reportTime":"2026-04-12T15:00:00.000Z","temp":17,"dewp":12,"wdir":220,"wspd":12,"visib":"10+","altim":1018,"qcField":0,"metarType":"METAR","rawOb":"METAR KHOB 121450Z 22012KT 10SM CLR 17/12 A3006","lat":32.6797,"lon":-103.2222,"elev":1112,"name":"Hobbs Arpt, NM, US","cover":"CLR","clouds":[],"fltCat":"VFR"},{"icaoId":"KIWA","receiptTime":"2026-04-12T14:50:41.374Z","obsTime":1776005280,"reportTime":"2026-04-12T15:00:00.000Z","temp":22,"dewp":3,"wdir":190,"wspd":6,"visib":"10+","altim":1014.3,"qcField":0,"metarType":"METAR","rawOb":"METAR KIWA 121448Z 19006KT 10SM CLR 22/03 A2995","lat":33.3008,"lon":-111.6437,"elev":420,"name":"Phoenix/Mesa Gateway Arpt, AZ, US","cover":"CLR","clouds":[],"fltCat":"VFR"},{"icaoId":"KGYR","receiptTime":"2026-04-12T14:48:49.266Z","obsTime":1776005220,"reportTime":"2026-04-12T15:00:00.000Z","temp":20,"dewp":2,"wdir":"VRB","wspd":4,"visib":"10+","altim":1013.3,"qcField":0,"metarType":"METAR","rawOb":"METAR KGYR 121447Z VRB04KT 10SM SCT200 BKN250 20/02 A2992","lat":33.428,"lon":-112.368,"elev":292,"name":"Phoenix/Goodyear Muni, AZ, US","cover":"BKN","clouds":[{"cover":"SCT","base":20000},{"cover":"BKN","base":25000}],"fltCat":"VFR"},{"icaoId":"KCHD","receiptTime":"2026-04-12T14:48:48.948Z","obsTime":1776005220,"reportTime":"2026-04-12T15:00:00.000Z","temp":21,"dewp":4,"wdir":180,"wspd":12,"visib":"10+","altim":1013.6,"qcField":0,"metarType":"METAR","rawOb":"METAR KCHD 121447Z 18012KT 10SM BKN160 21/04 A2993","lat":33.2669,"lon":-111.8086,"elev":378,"name":"Chandler Muni, AZ, US","cover":"BKN","clouds":[{"cover":"BKN","base":16000}],"fltCat":"VFR"},{"icaoId":"KBJC","receiptTime":"2026-04-12T14:48:48.849Z","obsTime":1776005220,"reportTime":"2026-04-12T15:00:00.000Z","temp":16,"dewp":-5,"wdir":150,"wspd":6,"visib":"10+","altim":1012.3,"qcField":0,"metarType":"METAR","rawOb":"METAR KBJC 121447Z 15006KT 10SM CLR 16/M05 A2989","lat":39.9008,"lon":-105.1042,"elev":1694,"name":"Rocky Mtn Metro, CO, US","cover":"CLR","clouds":[],"fltCat":"VFR"},{"icaoId":"KIFP","receiptTime":"2026-04-12T14:51:08.533Z","obsTime":1776005220,"reportTime":"2026-04-12T15:00:00.000Z","temp":19,"dewp":3,"wdir":190,"wspd":10,"visib":20,"altim":1010.6,"qcField":0,"metarType":"METAR","rawOb":"METAR KIFP 121447Z 19010KT 20SM BKN140 19/03 A2984","lat":35.1487,"lon":-114.5611,"elev":210,"name":"Bullhead City Intl, AZ, US","cover":"BKN","clouds":[{"cover":"BKN","base":14000}],"fltCat":"VFR"},{"icaoId":"KGEU","receiptTime":"2026-04-12T14:49:19.553Z","obsTime":1776005220,"reportTime":"2026-04-12T15:00:00.000Z","temp":20,"dewp":0,"wdir":"VRB","wspd":3,"visib":"10+","altim":1012.3,"qcField":0,"metarType":"METAR","rawOb":"METAR KGEU 121447Z VRB03KT 10SM CLR 20/00 A2989","lat":33.528,"lon":-112.293,"elev":319,"name":"Glendale Muni, AZ, US","cover":"CLR","clouds":[],"fltCat":"VFR"},{"icaoId":"KRYN","receiptTime":"2026-04-12T14:45:40.635Z","obsTime":1776005100,"reportTime":"2026-04-12T15:00:00.000Z","temp":20,"dewp":0,"wdir":120,"wspd":5,"wgst":10,"visib":"10+","altim":1015,"qcField":0,"metarType":"METAR","rawOb":"METAR KRYN 121445Z 12005G10KT 10SM CLR 20/00 A2997","lat":32.1418,"lon":-111.1767,"elev":731,"name":"Tucson/Ryan Fld, AZ, US","cover":"CLR","clouds":[],"fltCat":"VFR"}]