[{"icaoId":"KHAF","receiptTime":"2026-04-13T17:16:08.779Z","obsTime":1776100500,"reportTime":"2026-04-13T17:15:00.000Z","temp":14,"dewp":11,"wdir":320,"wspd":9,"visib":"10+","altim":1020.4,"qcField":6,"metarType":"METAR","rawOb":"METAR KHAF 131715Z AUTO 32009KT 10SM CLR 14/11 A3013 RMK AO2","lat":37.5136,"lon":-122.4996,"elev":11,"name":"Half Moon Bay Arpt, CA, US","cover":"CLR","clouds":[],"fltCat":"VFR"},{"icaoId":"KBVU","receiptTime":"2026-04-13T17:16:07.621Z","obsTime":1776100500,"reportTime":"2026-04-13T17:15:00.000Z","temp":18,"dewp":0,"wdir":180,"wspd":6,"visib":"10+","altim":1014,"qcField":6,"metarType":"METAR","rawOb":"METAR KBVU 131715Z AUTO 18006KT 10SM CLR 18/M00 A2994 RMK AO2","lat":35.9489,"lon":-114.8633,"elev":654,"name":"Boulder City Muni, NV, US","cover":"CLR","clouds":[],"fltCat":"VFR"},{"icaoId":"KLRU","receiptTime":"2026-04-13T17:16:09.298Z","obsTime":1776100500,"reportTime":"2026-04-13T17:15:00.000Z","temp":20.9,"dewp":-1,"wdir":220,"wspd":18,"wgst":21,"visib":"10+","altim":1021.4,"qcField":6,"metarType":"METAR","rawOb":"METAR KLRU 131715Z AUTO 22018G21KT 10SM CLR 21/M01 A3016 RMK AO2 T02091010","lat":32.2884,"lon":-106.9131,"elev":1355,"name":"Las Cruces Intl, NM, US","cover":"CLR","clouds":[],"fltCat":"VFR"},{"icaoId":"KCDC","receiptTime":"2026-04-13T17:17:07.256Z","obsTime":1776100440,"reportTime":"2026-04-13T17:14:00.000Z","temp":6.1,"dewp":3.3,"wdir":90,"wspd":6,"visib":9,"altim":1016.3,"qcField":6,"wxString":"-RA","precip":0.01,"metarType":"SPECI","rawOb":"SPECI KCDC 131714Z AUTO 09006KT 9SM -RA SCT033 OVC047 06/03 A3001 RMK AO2 P0001 T00610033","lat":37.7067,"lon":-113.097,"elev":1703,"name":"Cedar City Muni, UT, US","cover":"OVC","clouds":[{"cover":"SCT","base":3300},{"cover":"OVC","base":4700}],"fltCat":"VFR"},{"icaoId":"KCEC","receiptTime":"2026-04-13T17:16:07.121Z","obsTime":1776100380,"reportTime":"2026-04-13T17:13:00.000Z","temp":10.6,"dewp":9.4,"wdir":310,"wspd":6,"visib":"10+","altim":1022.1,"qcField":6,"metarType":"SPECI","rawOb":"SPECI KCEC 131713Z AUTO 31006KT 10SM SCT025 OVC033 11/09 A3018 RMK AO2 T01060094","lat":41.7836,"lon":-124.238,"elev":17,"name":"Crescent City/McNama, CA, US","cover":"OVC","clouds":[{"cover":"SCT","base":2500},{"cover":"OVC","base":3300}],"fltCat":"VFR"},{"icaoId":"KMEM","receiptTime":"2026-04-13T17:16:07.156Z","obsTime":1776100380,"reportTime":"2026-04-13T17:13:00.000Z","temp":24.4,"dewp":18.3,"wdir":230,"wspd":10,"visib":"10+","altim":1021.4,"qcField":4,"metarType":"SPECI","rawOb":"SPECI KMEM 131713Z 23010KT 10SM SCT027 BKN035 24/18 A3016 RMK AO2 T02440183","lat":35.0564,"lon":-89.9864,"elev":78,"name":"Memphis Intl, TN, US","cover":"BKN","clouds":[{"cover":"SCT","base":2700},{"cover":"BKN","base":3500}],"fltCat":"VFR"},{"icaoId":"KMYL","receiptTime":"2026-04-13T17:16:07.185Z","obsTime":1776100380,"reportTime":"2026-04-13T17:13:00.000Z","temp":0.6,"dewp":0,"wdir":160,"wspd":4,"visib":1.25,"altim":1013,"qcField":6,"wxString":"-SN BR","precip":0.01,"metarType":"SPECI","rawOb":"SPECI KMYL 131713Z AUTO 16004KT 1 1/4SM -SN BR FEW005 BKN018 OVC025 01/00 A2991 RMK AO2 P0001 T00060000","lat":44.8943,"lon":-116.0998,"elev":1532,"name":"McCall Muni, ID, US","cover":"OVC","clouds":[{"cover":"FEW","base":500},{"cover":"BKN","base":1800},{"cover":"OVC","base":2500}],"fltCat":"IFR"},{"icaoId":"KDTW","receiptTime":"2026-04-13T17:14:16.145Z","obsTime":1776100260,"reportTime":"2026-04-13T17:11:00.000Z","temp":23.3,"dewp":16.1,"wdir":240,"wspd":14,"wgst":25,"visib":"10+","altim":1014,"qcField":4,"metarType":"SPECI","rawOb":"SPECI KDTW 131711Z 24014G25KT 10SM SCT025 BKN045 23/16 A2994 RMK AO2 T02330161","lat":42.2311,"lon":-83.3312,"elev":192,"name":"Detroit/Metro Wayne Cnty, MI, US","cover":"BKN","clouds":[{"cover":"SCT","base":2500},{"cover":"BKN","base":4500}],"fltCat":"VFR"},{"icaoId":"KUKI","receiptTime":"2026-04-13T17:14:16.040Z","obsTime":1776100200,"reportTime":"2026-04-13T17:10:00.000Z","temp":10,"dewp":5.6,"wdir":90,"wspd":4,"visib":"10+","altim":1021.1,"qcField":6,"metarType":"SPECI","rawOb":"SPECI KUKI 131710Z AUTO 09004KT 10SM FEW016 10/06 A3015 RMK AO2 T01000056","lat":39.1278,"lon":-123.2001,"elev":183,"name":"Ukiah Muni, CA, US","cover":"FEW","clouds":[{"cover":"FEW","base":1600}],"fltCat":"VFR"},{"icaoId":"KSYR","receiptTime":"2026-04-13T17:12:02.988Z","obsTime":1776100080,"reportTime":"2026-04-13T17:08:00.000Z","temp":16.7,"dewp":13.9,"wdir":220,"wspd":14,"wgst":22,"visib":2.5,"altim":1011.3,"qcField":12,"wxString":"-RA","precip":0.01,"metarType":"SPECI","rawOb":"SPECI KSYR 131708Z 22014G22KT 2 1/2SM -RA BKN027 OVC035 17/14 A2986 RMK AO2 PK WND 25027/1657 P0001 T01670139 $","lat":43.1111,"lon":-76.1038,"elev":125,"name":"Syracuse/Hancock Intl, NY, US","cover":"OVC","clouds":[{"cover":"BKN","base":2700},{"cover":"OVC","base":3500}],"fltCat":"IFR"},{"icaoId":"KLAW","receiptTime":"2026-04-13T17:10:09.537Z","obsTime":1776100020,"reportTime":"2026-04-13T17:07:00.000Z","temp":27.2,"dewp":20.6,"wdir":190,"wspd":14,"wgst":25,"visib":"10+","altim":1014.6,"qcField":4,"metarType":"SPECI","rawOb":"SPECI KLAW 131707Z 19014G25KT 10SM BKN027 BKN032 27/21 A2996 RMK AO2 T02720206","lat":34.5577,"lon":-98.4172,"elev":328,"name":"Lawton-Fort Sill Rgnl, OK, US","cover":"BKN","clouds":[{"cover":"BKN","base":2700},{"cover":"BKN","base":3200}],"fltCat":"MVFR"},{"icaoId":"KFLG","receiptTime":"2026-04-13T17:10:04.024Z","obsTime":1776099960,"reportTime":"2026-04-13T17:06:00.000Z","temp":8.3,"dewp":0.6,"wdir":230,"wspd":14,"wgst":21,"visib":"10+","altim":1019,"qcField":12,"metarType":"SPECI","rawOb":"SPECI KFLG 131706Z 23014G21KT 10SM BKN024 BKN033 OVC040 08/01 A3009 RMK AO2 T00830006 $","lat":35.1443,"lon":-111.6664,"elev":2134,"name":"Flagstaff/Pulliam Arpt, AZ, US","cover":"OVC","clouds":[{"cover":"BKN","base":2400},{"cover":"BKN","base":3300},{"cover":"OVC","base":4000}],"fltCat":"MVFR"},{"icaoId":"KCMA","receiptTime":"2026-04-13T17:10:04.103Z","obsTime":1776099960,"reportTime":"2026-04-13T17:06:00.000Z","temp":16.7,"dewp":9.4,"wdir":"VRB","wspd":3,"visib":"10+","altim":1017.7,"qcField":4,"metarType":"SPECI","rawOb":"SPECI KCMA 131706Z VRB03KT 10SM SCT025 17/09 A3005 RMK AO2 T01670094","lat":34.2114,"lon":-119.0876,"elev":20,"name":"Camarillo Arpt, CA, US","cover":"SCT","clouds":[{"cover":"SCT","base":2500}],"fltCat":"VFR"},{"icaoId":"KBCE","receiptTime":"2026-04-13T17:08:20.520Z","obsTime":1776099900,"reportTime":"2026-04-13T17:05:00.000Z","temp":2.8,"dewp":0,"wdir":180,"wspd":9,"visib":9,"altim":1017.7,"qcField":6,"wxString":"-SN","precip":0.005,"metarType":"SPECI","rawOb":"SPECI KBCE 131705Z AUTO 18009KT 9SM -SN FEW017 BKN038 OVC060 03/00 A3005 RMK AO2 SNB1655 P0000 T00280000","lat":37.7013,"lon":-112.149,"elev":2311,"name":"Bryce Canyon Arpt, UT, US","cover":"OVC","clouds":[{"cover":"FEW","base":1700},{"cover":"BKN","base":3800},{"cover":"OVC","base":6000}],"fltCat":"VFR"},{"icaoId":"KAST","receiptTime":"2026-04-13T17:08:20.347Z","obsTime":1776099900,"reportTime":"2026-04-13T17:05:00.000Z","temp":10,"dewp":6.7,"wdir":260,"wspd":7,"visib":"10+","altim":1019.7,"qcField":6,"precip":0.005,"metarType":"SPECI","rawOb":"SPECI KAST 131705Z AUTO 26007KT 10SM BKN028 BKN037 OVC045 10/07 A3011 RMK AO2 RAE01 P0000 T01000067","lat":46.157,"lon":-123.8833,"elev":3,"name":"Astoria Rgnl, OR, US","cover":"OVC","clouds":[{"cover":"BKN","base":2800},{"cover":"BKN","base":3700},{"cover":"OVC","base":4500}],"fltCat":"MVFR"},{"icaoId":"KCOS","receiptTime":"2026-04-13T17:08:20.388Z","obsTime":1776099840,"reportTime":"2026-04-13T17:04:00.000Z","temp":18.3,"dewp":-13.3,"wdir":220,"wspd":15,"wgst":24,"visib":"10+","altim":1014,"qcField":4,"metarType":"SPECI","rawOb":"SPECI KCOS 131704Z 22015G24KT 10SM FEW200 SCT250 18/M13 A2994 RMK AO2 T01831133","lat":38.8095,"lon":-104.6887,"elev":1886,"name":"Colorado Spring Arpt, CO, US","cover":"SCT","clouds":[{"cover":"FEW","base":20000},{"cover":"SCT","base":25000}],"fltCat":"VFR"},{"icaoId":"KHRL","receiptTime":"2026-04-13T17:06:04.416Z","obsTime":1776099720,"reportTime":"2026-04-13T17:02:00.000Z","temp":26.7,"dewp":22.2,"wdir":150,"wspd":13,"visib":"10+","altim":1018.4,"qcField":4,"metarType":"SPECI","rawOb":"SPECI KHRL 131702Z 15013KT 10SM SCT018 BKN026 OVC035 27/22 A3007 RMK AO2 T02670222","lat":26.2303,"lon":-97.6556,"elev":9,"name":"Harlingen/Valley Intl, TX, US","cover":"OVC","clouds":[{"cover":"SCT","base":1800},{"cover":"BKN","base":2600},{"cover":"OVC","base":3500}],"fltCat":"MVFR"},{"icaoId":"KROC","receiptTime":"2026-04-13T17:04:12.343Z","obsTime":1776099660,"reportTime":"2026-04-13T17:01:00.000Z","temp":18.9,"dewp":14.4,"wdir":260,"wspd":20,"wgst":27,"visib":"10+","altim":1011.3,"qcField":4,"metarType":"SPECI","rawOb":"SPECI KROC 131701Z 26020G27KT 10SM SCT026 BKN080 BKN100 19/14 A2986 RMK AO2 PK WND 27027/1701 T01890144","lat":43.1172,"lon":-77.6754,"elev":166,"name":"Rochester Intl Arpt, NY, US","cover":"BKN","clouds":[{"cover":"SCT","base":2600},{"cover":"BKN","base":8000},{"cover":"BKN","base":10000}],"fltCat":"VFR"},{"icaoId":"KNFL","receiptTime":"2026-04-13T17:00:28.301Z","obsTime":1776099420,"reportTime":"2026-04-13T17:00:00.000Z","temp":8.9,"dewp":-3.3,"wdir":"VRB","wspd":3,"visib":"10+","altim":1018,"slp":1014.6,"qcField":12,"metarType":"METAR","rawOb":"METAR KNFL 131657Z VRB03KT 10SM SCT050 SCT080 09/M03 A3006 RMK AO2 SLP146 T00891033 PNO $","lat":39.417,"lon":-118.705,"elev":1199,"name":"Fallon , NV, US","cover":"SCT","clouds":[{"cover":"SCT","base":5000},{"cover":"SCT","base":8000}],"fltCat":"VFR"},{"icaoId":"KNYL","receiptTime":"2026-04-13T17:00:28.259Z","obsTime":1776099420,"reportTime":"2026-04-13T17:00:00.000Z","temp":22.2,"dewp":6.1,"wdir":290,"wspd":9,"visib":"10+","altim":1016,"slp":1015.6,"qcField":4,"metarType":"METAR","rawOb":"METAR KNYL 131657Z 29009KT 270V340 10SM FEW150 SCT170 22/06 A3000 RMK AO2 SLP156 T02220061","lat":32.66,"lon":-114.6078,"elev":58,"name":"Yuma , AZ, US","cover":"SCT","clouds":[{"cover":"FEW","base":15000},{"cover":"SCT","base":17000}],"fltCat":"VFR"},{"icaoId":"KSLE","receiptTime":"2026-04-13T17:00:09.749Z","obsTime":1776099360,"reportTime":"2026-04-13T17:00:00.000Z","temp":10.6,"dewp":5.6,"wdir":260,"wspd":7,"visib":"10+","altim":1020.1,"slp":1020.2,"qcField":4,"precip":0.005,"metarType":"METAR","rawOb":"METAR KSLE 131656Z 26007KT 10SM BKN019 BKN023 OVC060 11/06 A3012 RMK AO2 RAB10E24 SLP202 P0000 T01060056","lat":44.9049,"lon":-123.001,"elev":63,"name":"Salem Muni, OR, US","cover":"OVC","clouds":[{"cover":"BKN","base":1900},{"cover":"BKN","base":2300},{"cover":"OVC","base":6000}],"fltCat":"MVFR"},{"icaoId":"KSBP","receiptTime":"2026-04-13T17:02:12.221Z","obsTime":1776099360,"reportTime":"2026-04-13T17:00:00.000Z","temp":14.4,"dewp":6.7,"wdir":290,"wspd":5,"visib":"10+","altim":1019.4,"slp":1019.3,"qcField":5,"metarType":"METAR","rawOb":"METAR KSBP 131656Z COR 29005KT 10SM SCT030 14/07 A3010 RMK AO2 SLP193 T01440067","lat":35.2381,"lon":-120.644,"elev":52,"name":"San Luis Obispo/San Luis Cnty, CA, US","cover":"SCT","clouds":[{"cover":"SCT","base":3000}],"fltCat":"VFR"},{"icaoId":"KEGE","receiptTime":"2026-04-13T16:58:21.796Z","obsTime":1776099360,"reportTime":"2026-04-13T17:00:00.000Z","temp":11.1,"dewp":-6.1,"wdir":270,"wspd":12,"visib":"10+","altim":1016.7,"slp":1011.7,"qcField":4,"metarType":"METAR","rawOb":"METAR KEGE 131656Z 27012KT 10SM BKN060 OVC070 11/M06 A3002 RMK AO2 SLP117 T01111061","lat":39.6448,"lon":-106.9176,"elev":1993,"name":"Eagle Cnty Rgnl, CO, US","cover":"OVC","clouds":[{"cover":"BKN","base":6000},{"cover":"OVC","base":7000}],"fltCat":"VFR"},{"icaoId":"KENV","receiptTime":"2026-04-13T16:58:21.898Z","obsTime":1776099360,"reportTime":"2026-04-13T17:00:00.000Z","temp":10,"dewp":-0.6,"wdir":110,"wspd":8,"visib":"10+","altim":1017,"slp":1016.6,"qcField":6,"metarType":"METAR","rawOb":"METAR KENV 131656Z AUTO 11008KT 10SM CLR 10/M01 A3003 RMK AO2 SLP166 T01001006","lat":40.7211,"lon":-114.0312,"elev":1291,"name":"Wendover Arpt, UT, US","cover":"CLR","clouds":[],"fltCat":"VFR"},{"icaoId":"KEKO","receiptTime":"2026-04-13T17:00:18.312Z","obsTime":1776099360,"reportTime":"2026-04-13T17:00:00.000Z","temp":5.6,"dewp":-2.8,"wdir":270,"wspd":6,"visib":"10+","altim":1016.7,"slp":1016.6,"qcField":6,"metarType":"METAR","rawOb":"METAR KEKO 131656Z AUTO 27006KT 10SM FEW030 BKN041 06/M03 A3002 RMK AO2 SLP166 T00561028","lat":40.824,"lon":-115.7863,"elev":1541,"name":"Elko Rgnl, NV, US","cover":"BKN","clouds":[{"cover":"FEW","base":3000},{"cover":"BKN","base":4100}],"fltCat":"VFR"},{"icaoId":"KPWT","receiptTime":"2026-04-13T16:58:21.695Z","obsTime":1776099360,"reportTime":"2026-04-13T17:00:00.000Z","temp":7.8,"dewp":7.8,"wdir":210,"wspd":7,"visib":6,"altim":1017,"slp":1017.3,"qcField":6,"wxString":"-RA BR","precip":0.005,"metarType":"METAR","rawOb":"METAR KPWT 131656Z AUTO 21007KT 6SM -RA BR OVC007 08/08 A3003 RMK AO2 CIG 004V009 SLP173 P0000 T00780078","lat":47.4942,"lon":-122.7594,"elev":143,"name":"Bremerton Arpt, WA, US","cover":"OVC","clouds":[{"cover":"OVC","base":700}],"fltCat":"IFR"},{"icaoId":"KCHS","receiptTime":"2026-04-13T17:00:25.065Z","obsTime":1776099360,"reportTime":"2026-04-13T17:00:00.000Z","temp":26.1,"dewp":13.3,"wdir":"VRB","wspd":5,"visib":"10+","altim":1027.5,"slp":1027.3,"qcField":4,"metarType":"METAR","rawOb":"METAR KCHS 131656Z VRB05KT 10SM SCT045 BKN250 26/13 A3034 RMK AO2 SLP273 T02610133","lat":32.8995,"lon":-80.0407,"elev":12,"name":"Charleston Intl, SC, US","cover":"BKN","clouds":[{"cover":"SCT","base":4500},{"cover":"BKN","base":25000}],"fltCat":"VFR"},{"icaoId":"KLWS","receiptTime":"2026-04-13T17:00:25.725Z","obsTime":1776099360,"reportTime":"2026-04-13T17:00:00.000Z","temp":6.7,"dewp":4.4,"wdir":180,"wspd":9,"visib":"10+","altim":1012.3,"slp":1012.8,"qcField":12,"wxString":"-RA","precip":0.04,"metarType":"METAR","rawOb":"METAR KLWS 131656Z 18009KT 10SM -RA BKN026 OVC034 07/04 A2989 RMK AO2 SLP128 P0004 T00670044 $","lat":46.3746,"lon":-117.0153,"elev":435,"name":"Lewiston/Nez Perce Cnty, ID, US","cover":"OVC","clouds":[{"cover":"BKN","base":2600},{"cover":"OVC","base":3400}],"fltCat":"MVFR"},{"icaoId":"KTPH","receiptTime":"2026-04-13T17:00:24.877Z","obsTime":1776099360,"reportTime":"2026-04-13T17:00:00.000Z","temp":8.3,"dewp":-5,"wdir":"VRB","wspd":6,"visib":"10+","altim":1016,"slp":1014.1,"qcField":6,"metarType":"METAR","rawOb":"METAR KTPH 131656Z AUTO VRB06KT 10SM CLR 08/M05 A3000 RMK AO2 SLP141 T00831050","lat":38.0505,"lon":-117.0906,"elev":1647,"name":"Tonopah Arpt, NV, US","cover":"CLR","clouds":[],"fltCat":"VFR"},{"icaoId":"KCOD","receiptTime":"2026-04-13T16:58:23.492Z","obsTime":1776099360,"reportTime":"2026-04-13T17:00:00.000Z","temp":9.4,"dewp":-8.3,"wdir":280,"wspd":14,"wgst":29,"visib":"10+","altim":1010.2,"slp":1008.7,"qcField":14,"metarType":"METAR","rawOb":"METAR KCOD 131656Z AUTO 28014G29KT 240V300 10SM FEW070 BKN120 09/M08 A2983 RMK AO2 PK WND 26033/1609 SLP087 T00941083 $","lat":44.52,"lon":-109.0268,"elev":1550,"name":"Cody/Yellowstone Rgnl, WY, US","cover":"BKN","clouds":[{"cover":"FEW","base":7000},{"cover":"BKN","base":12000}],"fltCat":"VFR"},{"icaoId":"KRDM","receiptTime":"2026-04-13T17:00:18.557Z","obsTime":1776099360,"reportTime":"2026-04-13T17:00:00.000Z","temp":8.9,"dewp":0,"wdir":"VRB","wspd":4,"visib":"10+","altim":1015.7,"slp":1015.5,"qcField":4,"metarType":"METAR","rawOb":"METAR KRDM 131656Z VRB04KT 10SM CLR 09/00 A2999 RMK AO2 SLP155 T00890000","lat":44.2558,"lon":-121.1407,"elev":930,"name":"Redmond Muni, OR, US","cover":"CLR","clouds":[],"fltCat":"VFR"},{"icaoId":"KHDN","receiptTime":"2026-04-13T16:58:22.431Z","obsTime":1776099360,"reportTime":"2026-04-13T17:00:00.000Z","temp":8.3,"dewp":-5.6,"wdir":240,"wspd":12,"visib":"10+","altim":1017,"slp":1013.7,"qcField":6,"metarType":"METAR","rawOb":"METAR KHDN 131656Z AUTO 24012KT 10SM OVC070 08/M06 A3003 RMK AO2 SLP137 T00831056","lat":40.4842,"lon":-107.2296,"elev":2012,"name":"Hayden/Yampa Valley Arpt, CO, US","cover":"OVC","clouds":[{"cover":"OVC","base":7000}],"fltCat":"VFR"},{"icaoId":"KPVU","receiptTime":"2026-04-13T16:58:21.654Z","obsTime":1776099360,"reportTime":"2026-04-13T17:00:00.000Z","temp":8.9,"dewp":2.8,"wdir":"VRB","wspd":4,"visib":"10+","altim":1016.7,"slp":1015.3,"qcField":4,"metarType":"METAR","rawOb":"METAR KPVU 131656Z VRB04KT 10SM CLR 09/03 A3002 RMK AO2 SLP153 T00890028","lat":40.224,"lon":-111.7252,"elev":1370,"name":"Provo Muni, UT, US","cover":"CLR","clouds":[],"fltCat":"VFR"},{"icaoId":"KINW","receiptTime":"2026-04-13T17:00:25.296Z","obsTime":1776099360,"reportTime":"2026-04-13T17:00:00.000Z","temp":15,"dewp":1.7,"wdir":160,"wspd":9,"visib":"10+","altim":1017.4,"slp":1013,"qcField":6,"metarType":"METAR","rawOb":"METAR KINW 131656Z AUTO 16009KT 10SM CLR 15/02 A3004 RMK AO2 SLP130 T01500017","lat":35.0279,"lon":-110.7221,"elev":1492,"name":"Winslow/Lindberg Rgnl, AZ, US","cover":"CLR","clouds":[],"fltCat":"VFR"},{"icaoId":"KJAX","receiptTime":"2026-04-13T17:00:25.317Z","obsTime":1776099360,"reportTime":"2026-04-13T17:00:00.000Z","temp":26.7,"dewp":13.3,"wdir":130,"wspd":9,"visib":"10+","altim":1027.2,"slp":1026.9,"qcField":12,"metarType":"METAR","rawOb":"METAR KJAX 131656Z 13009KT 10SM FEW044 BKN250 27/13 A3033 RMK AO2 SLP269 T02670133 $","lat":30.4953,"lon":-81.6937,"elev":8,"name":"Jacksonville Intl, FL, US","cover":"BKN","clouds":[{"cover":"FEW","base":4400},{"cover":"BKN","base":25000}],"fltCat":"VFR"},{"icaoId":"KSFO","receiptTime":"2026-04-13T17:00:25.737Z","obsTime":1776099360,"reportTime":"2026-04-13T17:00:00.000Z","temp":13.9,"dewp":9.4,"wdir":20,"wspd":7,"visib":"10+","altim":1020.4,"slp":1020.1,"qcField":12,"metarType":"METAR","rawOb":"METAR KSFO 131656Z 02007KT 10SM FEW015 BKN034 14/09 A3013 RMK AO2 SLP201 T01390094 $","lat":37.6196,"lon":-122.3656,"elev":2,"name":"San Francisco Intl, CA, US","cover":"BKN","clouds":[{"cover":"FEW","base":1500},{"cover":"BKN","base":3400}],"fltCat":"VFR"},{"icaoId":"KAUS","receiptTime":"2026-04-13T17:00:26.041Z","obsTime":1776099360,"reportTime":"2026-04-13T16:56:00.000Z","temp":26.7,"dewp":21.7,"wdir":160,"wspd":12,"visib":"10+","altim":1019,"qcField":4,"metarType":"SPECI","rawOb":"SPECI KAUS 131656Z 16012KT 10SM SCT018 SCT024 BKN033 27/22 A3009 RMK AO2 T02670217","lat":30.1831,"lon":-97.6806,"elev":148,"name":"Austin/Bergstrom Intl, TX, US","cover":"BKN","clouds":[{"cover":"SCT","base":1800},{"cover":"SCT","base":2400},{"cover":"BKN","base":3300}],"fltCat":"VFR"},{"icaoId":"KCOE","receiptTime":"2026-04-13T16:58:23.512Z","obsTime":1776099360,"reportTime":"2026-04-13T17:00:00.000Z","temp":6.1,"dewp":5,"wdir":170,"wspd":10,"visib":"10+","altim":1010.2,"slp":1012.5,"qcField":14,"metarType":"METAR","rawOb":"METAR KCOE 131656Z AUTO 17010KT 10SM OVC018 06/05 A2983 RMK AO2 RAE30 SLP125 T00610050 PNO $","lat":47.7719,"lon":-116.8332,"elev":693,"name":"Coeur DAlene Arpt, ID, US","cover":"OVC","clouds":[{"cover":"OVC","base":1800}],"fltCat":"MVFR"},{"icaoId":"KVIS","receiptTime":"2026-04-13T16:58:23.996Z","obsTime":1776099360,"reportTime":"2026-04-13T17:00:00.000Z","temp":12.8,"dewp":9.4,"wdir":300,"wspd":6,"visib":"10+","altim":1019.4,"slp":1019.4,"qcField":14,"metarType":"METAR","rawOb":"METAR KVIS 131656Z AUTO 30006KT 10SM OVC060 13/09 A3010 RMK AO2 SLP194 T01280094 PNO $","lat":36.3135,"lon":-119.3884,"elev":92,"name":"Visalia Muni, CA, US","cover":"OVC","clouds":[{"cover":"OVC","base":6000}],"fltCat":"VFR"},{"icaoId":"KSGU","receiptTime":"2026-04-13T16:58:23.828Z","obsTime":1776099360,"reportTime":"2026-04-13T17:00:00.000Z","temp":16.7,"dewp":2.2,"wdir":"VRB","wspd":6,"visib":"10+","altim":1014.3,"slp":1012.3,"qcField":6,"precip":0.005,"metarType":"METAR","rawOb":"METAR KSGU 131656Z AUTO VRB06KT 10SM BKN100 17/02 A2995 RMK AO2 RAB03E18 SLP123 P0000 T01670022","lat":37.0444,"lon":-113.5034,"elev":877,"name":"Saint George Muni, UT, US","cover":"BKN","clouds":[{"cover":"BKN","base":10000}],"fltCat":"VFR"},{"icaoId":"KCGZ","receiptTime":"2026-04-13T16:58:23.403Z","obsTime":1776099360,"reportTime":"2026-04-13T17:00:00.000Z","temp":21.7,"dewp":6.7,"wdir":210,"wspd":13,"visib":"10+","altim":1016,"slp":1015,"qcField":14,"metarType":"METAR","rawOb":"METAR KCGZ 131656Z AUTO 21013KT 10SM CLR 22/07 A3000 RMK AO2 SLP150 T02170067 $","lat":32.9531,"lon":-111.7725,"elev":444,"name":"Casa Granda Muni, AZ, US","cover":"CLR","clouds":[],"fltCat":"VFR"},{"icaoId":"KJAC","receiptTime":"2026-04-13T16:58:22.735Z","obsTime":1776099360,"reportTime":"2026-04-13T17:00:00.000Z","temp":3.9,"dewp":-3.9,"wdir":230,"wspd":12,"wgst":17,"visib":"10+","altim":1014.6,"slp":1016.1,"qcField":4,"metarType":"METAR","rawOb":"METAR KJAC 131656Z 23012G17KT 10SM SCT049 04/M04 A2996 RMK AO2 SLP161 T00391039","lat":43.6129,"lon":-110.7366,"elev":1967,"name":"Jackson Hole Arpt, WY, US","cover":"SCT","clouds":[{"cover":"SCT","base":4900}],"fltCat":"VFR"},{"icaoId":"KDUG","receiptTime":"2026-04-13T17:02:09.764Z","obsTime":1776099360,"reportTime":"2026-04-13T17:00:00.000Z","temp":20.6,"dewp":1.7,"wdir":220,"wspd":20,"wgst":26,"visib":"10+","altim":1020.7,"slp":1015,"qcField":38,"metarType":"METAR","rawOb":"METAR KDUG 131656Z AUTO 22020G26KT 10SM BKN110 21/02 A3014 RMK AO2 PK WND 23030/1644 SLP150 T02060017 TSNO","lat":31.4725,"lon":-109.6022,"elev":1260,"name":"Douglas/Bisbee Intl, AZ, US","cover":"BKN","clouds":[{"cover":"BKN","base":11000}],"fltCat":"VFR"},{"icaoId":"KHND","receiptTime":"2026-04-13T16:58:22.521Z","obsTime":1776099360,"reportTime":"2026-04-13T17:00:00.000Z","temp":16.1,"dewp":-0.6,"wdir":210,"wspd":14,"visib":"10+","altim":1015.3,"slp":1015.7,"qcField":12,"metarType":"METAR","rawOb":"METAR KHND 131656Z 21014KT 10SM CLR 16/M01 A2998 RMK AO2 SLP157 T01611006 $","lat":35.9657,"lon":-115.1343,"elev":740,"name":"Henderson Exec, NV, US","cover":"CLR","clouds":[],"fltCat":"VFR"},{"icaoId":"KGUC","receiptTime":"2026-04-13T16:58:22.361Z","obsTime":1776099360,"reportTime":"2026-04-13T17:00:00.000Z","temp":10,"dewp":-10,"wdir":270,"wspd":7,"visib":"10+","altim":1018,"slp":1013,"qcField":14,"metarType":"METAR","rawOb":"METAR KGUC 131656Z AUTO 27007KT 10SM CLR 10/M10 A3006 RMK AO2 SLP130 T01001100 $","lat":38.5322,"lon":-106.9419,"elev":2337,"name":"Gunnison Arpt, CO, US","cover":"CLR","clouds":[],"fltCat":"VFR"},{"icaoId":"KFNL","receiptTime":"2026-04-13T16:58:22.078Z","obsTime":1776099360,"reportTime":"2026-04-13T17:00:00.000Z","temp":18.3,"dewp":-8.9,"wdir":280,"wspd":12,"wgst":17,"visib":"10+","altim":1012.3,"slp":1006.4,"qcField":12,"metarType":"METAR","rawOb":"METAR KFNL 131656Z 28012G17KT 10SM CLR 18/M09 A2989 RMK AO2 SLP064 T01831089 $","lat":40.4427,"lon":-105.0097,"elev":1529,"name":"Fort Collins/N Colorado Rgnl, CO, US","cover":"CLR","clouds":[],"fltCat":"VFR"},{"icaoId":"KLAS","receiptTime":"2026-04-13T17:00:18.526Z","obsTime":1776099360,"reportTime":"2026-04-13T17:00:00.000Z","temp":16.7,"dewp":-1.1,"wdir":200,"wspd":8,"wgst":15,"visib":"10+","altim":1014.6,"slp":1013.2,"qcField":4,"metarType":"METAR","rawOb":"METAR KLAS 131656Z 20008G15KT 10SM FEW065 FEW100 17/M01 A2996 RMK AO2 SLP132 T01671011","lat":36.0719,"lon":-115.1634,"elev":662,"name":"Las Vegas/Reid Intl, NV, US","cover":"FEW","clouds":[{"cover":"FEW","base":6500},{"cover":"FEW","base":10000}],"fltCat":"VFR"},{"icaoId":"KSDF","receiptTime":"2026-04-13T17:00:24.359Z","obsTime":1776099360,"reportTime":"2026-04-13T17:00:00.000Z","temp":25,"dewp":15.6,"wdir":220,"wspd":14,"wgst":29,"visib":"10+","altim":1020.1,"slp":1019.5,"qcField":4,"metarType":"METAR","rawOb":"METAR KSDF 131656Z 22014G29KT 190V260 10SM FEW040 BKN060 BKN090 25/16 A3012 RMK AO2 PK WND 24029/1655 SLP195 T02500156","lat":38.1774,"lon":-85.7308,"elev":146,"name":"Louisville Intl, KY, US","cover":"BKN","clouds":[{"cover":"FEW","base":4000},{"cover":"BKN","base":6000},{"cover":"BKN","base":9000}],"fltCat":"VFR"},{"icaoId":"KOTH","receiptTime":"2026-04-13T17:03:23.702Z","obsTime":1776099360,"reportTime":"2026-04-13T17:00:00.000Z","temp":9,"dewp":7,"wdir":0,"wspd":0,"visib":"10+","altim":1022.8,"qcField":0,"metarType":"METAR","rawOb":"METAR KOTH 131656Z 000000KT 10SM BKN034 OVC045 09/07 A3020","lat":43.4194,"lon":-124.2438,"elev":3,"name":"North Bend/SW Oregon Rgnl, OR, US","cover":"OVC","clouds":[{"cover":"BKN","base":3400},{"cover":"OVC","base":4500}],"fltCat":"VFR"},{"icaoId":"KSOW","receiptTime":"2026-04-13T16:58:10.347Z","obsTime":1776099300,"reportTime":"2026-04-13T17:00:00.000Z","temp":14,"dewp":1,"wdir":190,"wspd":25,"wgst":31,"visib":"10+","altim":1020.1,"qcField":6,"metarType":"METAR","rawOb":"METAR KSOW 131655Z AUTO 19025G31KT 10SM FEW044 FEW050 14/01 A3012 RMK AO2","lat":34.2686,"lon":-110.0019,"elev":1954,"name":"Show Low Muni, AZ, US","cover":"FEW","clouds":[{"cover":"FEW","base":4400},{"cover":"FEW","base":5000}],"fltCat":"VFR"},{"icaoId":"KHCR","receiptTime":"2026-04-13T16:58:18.717Z","obsTime":1776099300,"reportTime":"2026-04-13T17:00:00.000Z","temp":6.5,"dewp":1,"wdir":"VRB","wspd":4,"visib":"10+","altim":1016.3,"qcField":14,"metarType":"METAR","rawOb":"METAR KHCR 131655Z AUTO VRB04KT 10SM CLR 06/01 A3001 RMK AO2 T00650010 $","lat":40.4774,"lon":-111.4329,"elev":1708,"name":"Heber City Muni, UT, US","cover":"CLR","clouds":[],"fltCat":"VFR"},{"icaoId":"KMEV","receiptTime":"2026-04-13T17:00:24.766Z","obsTime":1776099300,"reportTime":"2026-04-13T17:00:00.000Z","temp":4,"dewp":1,"wdir":0,"wspd":0,"visib":"10+","altim":1018.4,"qcField":6,"metarType":"METAR","rawOb":"METAR KMEV 131655Z AUTO 00000KT 10SM FEW013 SCT018 04/01 A3007 RMK AO2","lat":38.9963,"lon":-119.75,"elev":1437,"name":"Minden-Tahoe Arpt, NV, US","cover":"SCT","clouds":[{"cover":"FEW","base":1300},{"cover":"SCT","base":1800}],"fltCat":"VFR"},{"icaoId":"KRNO","receiptTime":"2026-04-13T16:58:21.744Z","obsTime":1776099300,"reportTime":"2026-04-13T17:00:00.000Z","temp":6.1,"dewp":-2.8,"wdir":"VRB","wspd":3,"visib":"10+","altim":1018,"slp":1017.5,"qcField":4,"metarType":"METAR","rawOb":"METAR KRNO 131655Z VRB03KT 10SM FEW033 06/M03 A3006 RMK AO2 SLP175 T00611028","lat":39.5077,"lon":-119.7683,"elev":1344,"name":"Reno/Tahoe Intl, NV, US","cover":"FEW","clouds":[{"cover":"FEW","base":3300}],"fltCat":"VFR"},{"icaoId":"KHTH","receiptTime":"2026-04-13T17:00:25.196Z","obsTime":1776099300,"reportTime":"2026-04-13T17:00:00.000Z","temp":7,"dewp":-2,"wdir":340,"wspd":9,"visib":"10+","altim":1018,"qcField":6,"metarType":"METAR","rawOb":"METAR KHTH 131655Z AUTO 34009KT 300V360 10SM OVC085 07/M02 A3006 RMK A01","lat":38.5448,"lon":-118.6314,"elev":1281,"name":"Hawthorne Muni, NV, US","cover":"OVC","clouds":[{"cover":"OVC","base":8500}],"fltCat":"VFR"},{"icaoId":"KSEZ","receiptTime":"2026-04-13T17:00:29.223Z","obsTime":1776099300,"reportTime":"2026-04-13T17:00:00.000Z","temp":14,"dewp":4,"wdir":170,"wspd":12,"wgst":17,"visib":"10+","altim":1018,"qcField":6,"metarType":"METAR","rawOb":"METAR KSEZ 131655Z AUTO 17012G17KT 10SM SCT035 BKN042 OVC050 14/04 A3006 RMK AO2","lat":34.8467,"lon":-111.7884,"elev":1455,"name":"Sedona Arpt, AZ, US","cover":"OVC","clouds":[{"cover":"SCT","base":3500},{"cover":"BKN","base":4200},{"cover":"OVC","base":5000}],"fltCat":"VFR"},{"icaoId":"KEND","receiptTime":"2026-04-13T17:02:15.321Z","obsTime":1776099300,"reportTime":"2026-04-13T17:00:00.000Z","temp":26.9,"dewp":19.5,"wdir":190,"wspd":19,"wgst":26,"visib":"10+","altim":1010.6,"slp":1009.4,"qcField":12,"metarType":"METAR","rawOb":"METAR KEND 131655Z 19019G26KT 10SM FEW025 27/20 A2984 RMK AO2A PK WND 19029/05 SLP094 T02690195 $","lat":36.338,"lon":-97.919,"elev":392,"name":"Enid/Vance AFB, OK, US","cover":"FEW","clouds":[{"cover":"FEW","base":2500}],"fltCat":"VFR"},{"icaoId":"KCXP","receiptTime":"2026-04-13T17:00:24.631Z","obsTime":1776099300,"reportTime":"2026-04-13T17:00:00.000Z","temp":6,"dewp":0,"wdir":310,"wspd":9,"visib":"10+","altim":1018.7,"qcField":6,"metarType":"METAR","rawOb":"METAR KCXP 131655Z AUTO 31009KT 10SM CLR 06/00 A3008 RMK AO2","lat":39.1905,"lon":-119.7319,"elev":1431,"name":"Carson City Arpt, NV, US","cover":"CLR","clouds":[],"fltCat":"VFR"},{"icaoId":"KRTS","receiptTime":"2026-04-13T17:00:07.341Z","obsTime":1776099300,"reportTime":"2026-04-13T17:00:00.000Z","temp":5,"dewp":-3,"wdir":0,"wspd":0,"visib":"10+","altim":1018.4,"qcField":6,"metarType":"METAR","rawOb":"METAR KRTS 131655Z AUTO 00000KT 10SM CLR 05/M03 A3007 RMK AO2","lat":39.6658,"lon":-119.8731,"elev":1537,"name":"Reno/Stead Arpt, NV, US","cover":"CLR","clouds":[],"fltCat":"VFR"},{"icaoId":"KLUF","receiptTime":"2026-04-13T17:08:12.203Z","obsTime":1776099300,"reportTime":"2026-04-13T17:00:00.000Z","temp":21.5,"dewp":5.8,"wdir":210,"wspd":7,"visib":"10+","altim":1015,"slp":1014,"qcField":12,"metarType":"METAR","rawOb":"METAR KLUF 131655Z 21007KT 10SM SCT070 BKN150 22/06 A2997 RMK AO2A SLP140 T02150058 $","lat":33.538,"lon":-112.38,"elev":333,"name":"Phoenix/Luke AFB, AZ, US","cover":"BKN","clouds":[{"cover":"SCT","base":7000},{"cover":"BKN","base":15000}],"fltCat":"VFR"},{"icaoId":"KMHR","receiptTime":"2026-04-13T17:00:24.794Z","obsTime":1776099300,"reportTime":"2026-04-13T17:00:00.000Z","temp":12,"dewp":12,"wdir":330,"wspd":7,"visib":"10+","altim":1019.4,"qcField":6,"metarType":"METAR","rawOb":"METAR KMHR 131655Z AUTO 33007KT 10SM SCT007 OVC012 12/12 A3010 RMK AO2","lat":38.56,"lon":-121.284,"elev":30,"name":"Sacramento/Mather Fld, CA, US","cover":"OVC","clouds":[{"cover":"SCT","base":700},{"cover":"OVC","base":1200}],"fltCat":"MVFR"},{"icaoId":"KHII","receiptTime":"2026-04-13T17:02:04.598Z","obsTime":1776099300,"reportTime":"2026-04-13T17:00:00.000Z","temp":20,"dewp":4,"wdir":220,"wspd":8,"visib":"10+","altim":1014.6,"qcField":6,"metarType":"METAR","rawOb":"METAR KHII 131655Z AUTO 22008KT 10SM SCT070 SCT080 20/04 A2996 RMK AO2","lat":34.5659,"lon":-114.3522,"elev":241,"name":"Lake Havasu City Arpt, AZ, US","cover":"SCT","clouds":[{"cover":"SCT","base":7000},{"cover":"SCT","base":8000}],"fltCat":"VFR"},{"icaoId":"KIND","receiptTime":"2026-04-13T16:58:17.051Z","obsTime":1776099240,"reportTime":"2026-04-13T17:00:00.000Z","temp":24.4,"dewp":16.1,"wdir":230,"wspd":15,"wgst":21,"visib":"10+","altim":1017.4,"slp":1016.8,"qcField":4,"metarType":"METAR","rawOb":"METAR KIND 131654Z 23015G21KT 10SM SCT037 BKN047 24/16 A3004 RMK AO2 SLP168 T02440161","lat":39.7252,"lon":-86.2816,"elev":242,"name":"Indianapolis Intl, IN, US","cover":"BKN","clouds":[{"cover":"SCT","base":3700},{"cover":"BKN","base":4700}],"fltCat":"VFR"},{"icaoId":"KBTV","receiptTime":"2026-04-13T16:58:08.847Z","obsTime":1776099240,"reportTime":"2026-04-13T17:00:00.000Z","temp":14.4,"dewp":6.7,"wdir":190,"wspd":14,"wgst":24,"visib":"10+","altim":1008.2,"slp":1008.1,"qcField":4,"metarType":"METAR","rawOb":"METAR KBTV 131654Z 19014G24KT 10SM OVC065 14/07 A2977 RMK AO2 PK WND 19026/1643 SLP081 T01440067","lat":44.4682,"lon":-73.1499,"elev":101,"name":"Burlington Intl, VT, US","cover":"OVC","clouds":[{"cover":"OVC","base":6500}],"fltCat":"VFR"},{"icaoId":"KBWI","receiptTime":"2026-04-13T16:58:16.244Z","obsTime":1776099240,"reportTime":"2026-04-13T17:00:00.000Z","temp":23.9,"dewp":13.3,"wdir":210,"wspd":8,"visib":"10+","altim":1018.7,"slp":1018.6,"qcField":4,"wxString":"-RA","precip":0.005,"metarType":"METAR","rawOb":"METAR KBWI 131654Z 21008KT 10SM -RA FEW050 BKN100 BKN150 OVC200 24/13 A3008 RMK AO2 RAB51 SLP186 P0000 T02390133","lat":39.1733,"lon":-76.684,"elev":42,"name":"Baltimore-Washington Intl, MD, US","cover":"OVC","clouds":[{"cover":"FEW","base":5000},{"cover":"BKN","base":10000},{"cover":"BKN","base":15000},{"cover":"OVC","base":20000}],"fltCat":"VFR"},{"icaoId":"KGSO","receiptTime":"2026-04-13T16:58:08.960Z","obsTime":1776099240,"reportTime":"2026-04-13T17:00:00.000Z","temp":25.6,"dewp":12.8,"wdir":250,"wspd":12,"visib":"10+","altim":1025.1,"slp":1024.2,"qcField":4,"metarType":"METAR","rawOb":"METAR KGSO 131654Z 25012KT 10SM FEW100 SCT200 OVC250 26/13 A3027 RMK AO2 SLP242 T02560128","lat":36.0969,"lon":-79.9432,"elev":275,"name":"Greensboro Intl, NC, US","cover":"OVC","clouds":[{"cover":"FEW","base":10000},{"cover":"SCT","base":20000},{"cover":"OVC","base":25000}],"fltCat":"VFR"},{"icaoId":"KRIC","receiptTime":"2026-04-13T16:58:19.525Z","obsTime":1776099240,"reportTime":"2026-04-13T17:00:00.000Z","temp":27.8,"dewp":11.1,"wdir":220,"wspd":18,"wgst":24,"visib":"10+","altim":1022.4,"slp":1022.6,"qcField":4,"metarType":"METAR","rawOb":"METAR KRIC 131654Z 22018G24KT 10SM FEW045 BKN250 BKN300 28/11 A3019 RMK AO2 PK WND 23030/1631 SLP226 T02780111","lat":37.5115,"lon":-77.3234,"elev":51,"name":"Richmond Intl, VA, US","cover":"BKN","clouds":[{"cover":"FEW","base":4500},{"cover":"BKN","base":25000},{"cover":"BKN","base":30000}],"fltCat":"VFR"},{"icaoId":"KAPC","receiptTime":"2026-04-13T16:58:18.428Z","obsTime":1776099240,"reportTime":"2026-04-13T17:00:00.000Z","temp":13.3,"dewp":7.8,"wdir":340,"wspd":6,"visib":"10+","altim":1020.4,"slp":1019.3,"qcField":4,"metarType":"METAR","rawOb":"METAR KAPC 131654Z 34006KT 10SM SCT035 13/08 A3013 RMK AO2 SLP193 T01330078","lat":38.2075,"lon":-122.2804,"elev":5,"name":"Napa Cnty Arpt, CA, US","cover":"SCT","clouds":[{"cover":"SCT","base":3500}],"fltCat":"VFR"},{"icaoId":"KBOS","receiptTime":"2026-04-13T16:58:16.209Z","obsTime":1776099240,"reportTime":"2026-04-13T17:00:00.000Z","temp":16.7,"dewp":11.7,"wdir":210,"wspd":20,"wgst":29,"visib":"10+","altim":1013.6,"slp":1013.3,"qcField":4,"metarType":"METAR","rawOb":"METAR KBOS 131654Z 21020G29KT 10SM FEW021 BKN150 OVC200 17/12 A2993 RMK AO2 PK WND 21029/1651 SLP133 T01670117","lat":42.3606,"lon":-71.0097,"elev":4,"name":"Boston/Logan Intl, MA, US","cover":"OVC","clouds":[{"cover":"FEW","base":2100},{"cover":"BKN","base":15000},{"cover":"OVC","base":20000}],"fltCat":"VFR"},{"icaoId":"KRKS","receiptTime":"2026-04-13T16:58:09.739Z","obsTime":1776099240,"reportTime":"2026-04-13T17:00:00.000Z","temp":6.1,"dewp":-7.2,"wdir":270,"wspd":9,"wgst":22,"visib":"10+","altim":1016.7,"slp":1013.9,"qcField":6,"metarType":"METAR","rawOb":"METAR KRKS 131654Z AUTO 27009G22KT 10SM FEW039 06/M07 A3002 RMK AO2 SLP139 T00611072","lat":41.5947,"lon":-109.0529,"elev":2062,"name":"Rock Springs/SW Wyoming Rgnl, WY, US","cover":"FEW","clouds":[{"cover":"FEW","base":3900}],"fltCat":"VFR"},{"icaoId":"KSJN","receiptTime":"2026-04-13T16:58:14.788Z","obsTime":1776099240,"reportTime":"2026-04-13T17:00:00.000Z","temp":13.9,"dewp":0,"wdir":230,"wspd":10,"wgst":22,"visib":"10+","altim":1018.7,"slp":1012.3,"qcField":6,"metarType":"METAR","rawOb":"METAR KSJN 131654Z AUTO 23010G22KT 10SM OVC100 14/00 A3008 RMK AO2 PK WND 24032/1629 SLP123 T01390000","lat":34.5184,"lon":-109.3801,"elev":1747,"name":"St Johns Ind Arpt, AZ, US","cover":"OVC","clouds":[{"cover":"OVC","base":10000}],"fltCat":"VFR"},{"icaoId":"KBUF","receiptTime":"2026-04-13T16:58:08.870Z","obsTime":1776099240,"reportTime":"2026-04-13T17:00:00.000Z","temp":13.9,"dewp":11.1,"wdir":240,"wspd":20,"wgst":32,"visib":"10+","altim":1012.6,"slp":1012.3,"qcField":12,"metarType":"METAR","rawOb":"METAR KBUF 131654Z 24020G32KT 10SM BKN030 BKN050 BKN100 14/11 A2990 RMK AO2 PK WND 23033/1620 SLP123 T01390111 $","lat":42.94,"lon":-78.7361,"elev":217,"name":"Buffalo-Niagara Intl, NY, US","cover":"BKN","clouds":[{"cover":"BKN","base":3000},{"cover":"BKN","base":5000},{"cover":"BKN","base":10000}],"fltCat":"MVFR"},{"icaoId":"KBFL","receiptTime":"2026-04-13T16:58:18.452Z","obsTime":1776099240,"reportTime":"2026-04-13T17:00:00.000Z","temp":13.3,"dewp":6.7,"wdir":310,"wspd":7,"visib":"10+","altim":1019,"slp":1018.8,"qcField":4,"metarType":"METAR","rawOb":"METAR KBFL 131654Z 31007KT 10SM FEW025 OVC060 13/07 A3009 RMK AO2 SLP188 T01330067","lat":35.4342,"lon":-119.0552,"elev":146,"name":"Bakersfield/Meadows Arpt, CA, US","cover":"OVC","clouds":[{"cover":"FEW","base":2500},{"cover":"OVC","base":6000}],"fltCat":"VFR"},{"icaoId":"KEUG","receiptTime":"2026-04-13T17:00:18.381Z","obsTime":1776099240,"reportTime":"2026-04-13T17:00:00.000Z","temp":10,"dewp":6.7,"wdir":240,"wspd":6,"visib":9,"altim":1021.1,"slp":1021.1,"qcField":5,"wxString":"-RA","precip":0.005,"metarType":"METAR","rawOb":"METAR KEUG 131654Z COR 240006KT 9SM -RA SCT019 BKN025 BKN050 10/07 A3015 RMK AO2 RAB25 SLP211 P0000 T01000067","lat":44.1331,"lon":-123.2156,"elev":109,"name":"Eugene/Mahlon Sweet Fld, OR, US","cover":"BKN","clouds":[{"cover":"SCT","base":1900},{"cover":"BKN","base":2500},{"cover":"BKN","base":5000}],"fltCat":"MVFR"},{"icaoId":"KGCN","receiptTime":"2026-04-13T16:58:18.502Z","obsTime":1776099240,"reportTime":"2026-04-13T17:00:00.000Z","temp":8.9,"dewp":-1.1,"wdir":230,"wspd":16,"wgst":23,"visib":"10+","altim":1018.4,"slp":1013.6,"qcField":4,"metarType":"METAR","rawOb":"METAR KGCN 131654Z 23016G23KT 10SM BKN038 BKN047 BKN055 09/M01 A3007 RMK AO2 PK WND 23026/1638 SLP136 T00891011","lat":35.9458,"lon":-112.1554,"elev":1993,"name":"Grand Canyon Park Arpt, AZ, US","cover":"BKN","clouds":[{"cover":"BKN","base":3800},{"cover":"BKN","base":4700},{"cover":"BKN","base":5500}],"fltCat":"VFR"},{"icaoId":"KFFZ","receiptTime":"2026-04-13T16:58:16.805Z","obsTime":1776099240,"reportTime":"2026-04-13T17:00:00.000Z","temp":21.1,"dewp":6.1,"wdir":190,"wspd":6,"visib":"10+","altim":1015.3,"slp":1013.5,"qcField":4,"metarType":"METAR","rawOb":"METAR KFFZ 131654Z 19006KT 10SM CLR 21/06 A2998 RMK AO2 SLP135 T02110061","lat":33.4659,"lon":-111.7212,"elev":420,"name":"Mesa/Falcon Fld, AZ, US","cover":"CLR","clouds":[],"fltCat":"VFR"},{"icaoId":"KOLM","receiptTime":"2026-04-13T16:58:18.601Z","obsTime":1776099240,"reportTime":"2026-04-13T17:00:00.000Z","temp":10.6,"dewp":5.6,"wdir":220,"wspd":11,"wgst":16,"visib":"10+","altim":1018,"slp":1018.1,"qcField":6,"precip":0.005,"metarType":"METAR","rawOb":"METAR KOLM 131654Z AUTO 22011G16KT 10SM BKN034 11/06 A3006 RMK AO2 RAB1557E18 SLP181 P0000 T01060056","lat":46.9737,"lon":-122.9049,"elev":58,"name":"Olympia Rgnl, WA, US","cover":"BKN","clouds":[{"cover":"BKN","base":3400}],"fltCat":"VFR"},{"icaoId":"KOLS","receiptTime":"2026-04-13T16:58:18.617Z","obsTime":1776099240,"reportTime":"2026-04-13T17:00:00.000Z","temp":16.7,"dewp":7.2,"wdir":260,"wspd":7,"visib":"10+","altim":1020.1,"slp":1015,"qcField":6,"precip":0.005,"metarType":"METAR","rawOb":"METAR KOLS 131654Z AUTO 26007KT 10SM OVC070 17/07 A3012 RMK AO2 PK WND 22029/1620 RAB21E53 SLP150 P0000 T01670072","lat":31.4208,"lon":-110.8465,"elev":1194,"name":"Nogales Intl, AZ, US","cover":"OVC","clouds":[{"cover":"OVC","base":7000}],"fltCat":"VFR"},{"icaoId":"KDSM","receiptTime":"2026-04-13T16:58:08.561Z","obsTime":1776099240,"reportTime":"2026-04-13T17:00:00.000Z","temp":22.8,"dewp":17.8,"wdir":190,"wspd":13,"visib":"10+","altim":1008.2,"slp":1007.5,"qcField":4,"metarType":"METAR","rawOb":"METAR KDSM 131654Z 19013KT 10SM FEW022 BKN034 OVC250 23/18 A2977 RMK AO2 SLP075 T02280178","lat":41.5339,"lon":-93.6531,"elev":286,"name":"Des Moines Intl, IA, US","cover":"OVC","clouds":[{"cover":"FEW","base":2200},{"cover":"BKN","base":3400},{"cover":"OVC","base":25000}],"fltCat":"VFR"},{"icaoId":"KSLC","receiptTime":"2026-04-13T16:58:18.644Z","obsTime":1776099240,"reportTime":"2026-04-13T17:00:00.000Z","temp":10,"dewp":1.7,"wdir":"VRB","wspd":4,"visib":"10+","altim":1016.3,"slp":1014.9,"qcField":12,"metarType":"METAR","rawOb":"METAR KSLC 131654Z VRB04KT 10SM FEW030 FEW055 SCT250 10/02 A3001 RMK AO2 SLP149 TCU DSNT NW T01000017 $","lat":40.7707,"lon":-111.965,"elev":1286,"name":"Salt Lake City Intl, UT, US","cover":"SCT","clouds":[{"cover":"FEW","base":3000},{"cover":"FEW","base":5500},{"cover":"SCT","base":25000}],"fltCat":"VFR"},{"icaoId":"KPHL","receiptTime":"2026-04-13T16:58:19.456Z","obsTime":1776099240,"reportTime":"2026-04-13T17:00:00.000Z","temp":24.4,"dewp":13.9,"wdir":230,"wspd":16,"wgst":28,"visib":"10+","altim":1017.7,"slp":1017.6,"qcField":12,"metarType":"METAR","rawOb":"METAR KPHL 131654Z 23016G28KT 10SM BKN140 BKN180 BKN300 24/14 A3005 RMK AO2 PK WND 23028/1647 SLP176 VIRGA T02440139 $","lat":39.8733,"lon":-75.2268,"elev":2,"name":"Philadelphia Intl, PA, US","cover":"BKN","clouds":[{"cover":"BKN","base":14000},{"cover":"BKN","base":18000},{"cover":"BKN","base":30000}],"fltCat":"VFR"},{"icaoId":"KMCI","receiptTime":"2026-04-13T16:58:14.326Z","obsTime":1776099180,"reportTime":"2026-04-13T17:00:00.000Z","temp":24.4,"dewp":18.3,"wdir":210,"wspd":24,"wgst":32,"visib":"10+","altim":1009.6,"slp":1008.5,"qcField":4,"metarType":"METAR","rawOb":"METAR KMCI 131653Z 21024G32KT 10SM BKN030 24/18 A2981 RMK AO2 PK WND 21032/1608 SLP085 T02440183","lat":39.2975,"lon":-94.7309,"elev":308,"name":"Kansas City Intl, MO, US","cover":"BKN","clouds":[{"cover":"BKN","base":3000}],"fltCat":"MVFR"},{"icaoId":"KMYR","receiptTime":"2026-04-13T16:57:15.033Z","obsTime":1776099180,"reportTime":"2026-04-13T17:00:00.000Z","temp":23.9,"dewp":15.6,"wdir":170,"wspd":10,"visib":"10+","altim":1028.2,"slp":1028.1,"qcField":12,"metarType":"METAR","rawOb":"METAR KMYR 131653Z 17010KT 10SM CLR 24/16 A3036 RMK AO2 SLP281 T02390156 $","lat":33.6769,"lon":-78.9325,"elev":7,"name":"Myrtle Beach Intl, SC, US","cover":"CLR","clouds":[],"fltCat":"VFR"},{"icaoId":"KFUL","receiptTime":"2026-04-13T16:57:11.493Z","obsTime":1776099180,"reportTime":"2026-04-13T17:00:00.000Z","temp":15.6,"dewp":8.3,"wdir":"VRB","wspd":4,"visib":"10+","altim":1017.7,"slp":1017.5,"qcField":6,"metarType":"METAR","rawOb":"METAR KFUL 131653Z AUTO VRB04KT 10SM SCT034 SCT050 OVC060 16/08 A3005 RMK AO2 SLP175 T01560083","lat":33.8715,"lon":-117.9856,"elev":23,"name":"Fullerton Muni, CA, US","cover":"OVC","clouds":[{"cover":"SCT","base":3400},{"cover":"SCT","base":5000},{"cover":"OVC","base":6000}],"fltCat":"VFR"},{"icaoId":"KCRQ","receiptTime":"2026-04-13T16:57:07.337Z","obsTime":1776099180,"reportTime":"2026-04-13T17:00:00.000Z","temp":15,"dewp":11.7,"wdir":320,"wspd":4,"visib":"10+","altim":1018,"slp":1017.8,"qcField":4,"precip":0.01,"metarType":"METAR","rawOb":"METAR KCRQ 131653Z 32004KT 10SM SCT065 15/12 A3006 RMK AO2 RAE13 SLP178 P0001 T01500117","lat":33.1299,"lon":-117.2765,"elev":96,"name":"Carlsbad/Palomar Arpt, CA, US","cover":"SCT","clouds":[{"cover":"SCT","base":6500}],"fltCat":"VFR"},{"icaoId":"KTWF","receiptTime":"2026-04-13T16:57:01.073Z","obsTime":1776099180,"reportTime":"2026-04-13T17:00:00.000Z","temp":10,"dewp":-3.3,"wdir":260,"wspd":17,"wgst":24,"visib":"10+","altim":1015.3,"slp":1013.8,"qcField":4,"metarType":"METAR","rawOb":"METAR KTWF 131653Z 26017G24KT 10SM BKN060 10/M03 A2998 RMK AO2 SLP138 T01001033","lat":42.4785,"lon":-114.4775,"elev":1269,"name":"Twin Falls/Joslin Fld, ID, US","cover":"BKN","clouds":[{"cover":"BKN","base":6000}],"fltCat":"VFR"},{"icaoId":"KSHR","receiptTime":"2026-04-13T16:57:00.918Z","obsTime":1776099180,"reportTime":"2026-04-13T17:00:00.000Z","temp":9.4,"dewp":4.4,"wdir":330,"wspd":14,"visib":"10+","altim":1007.5,"slp":1007.3,"qcField":6,"metarType":"METAR","rawOb":"METAR KSHR 131653Z AUTO 33014KT 10SM OVC075 09/04 A2975 RMK AO2 SLP073 T00940044","lat":44.7603,"lon":-106.9741,"elev":1212,"name":"Sheridan Cnty Arpt, WY, US","cover":"OVC","clouds":[{"cover":"OVC","base":7500}],"fltCat":"VFR"},{"icaoId":"KSNA","receiptTime":"2026-04-13T16:57:00.972Z","obsTime":1776099180,"reportTime":"2026-04-13T17:00:00.000Z","temp":15.6,"dewp":8.9,"wdir":0,"wspd":0,"visib":"10+","altim":1018,"slp":1018,"qcField":12,"wxString":"-RA","precip":0.005,"metarType":"METAR","rawOb":"METAR KSNA 131653Z 00000KT 10SM -RA SCT019 BKN055 OVC070 16/09 A3006 RMK AO2 RAB21 SLP180 P0000 T01560089 $","lat":33.6798,"lon":-117.8675,"elev":14,"name":"Santa Ana/Wayne Arpt, CA, US","cover":"OVC","clouds":[{"cover":"SCT","base":1900},{"cover":"BKN","base":5500},{"cover":"OVC","base":7000}],"fltCat":"VFR"},{"icaoId":"KMOD","receiptTime":"2026-04-13T16:57:08.825Z","obsTime":1776099180,"reportTime":"2026-04-13T17:00:00.000Z","temp":13.9,"dewp":8.3,"wdir":350,"wspd":9,"visib":"10+","altim":1019,"slp":1019,"qcField":6,"metarType":"METAR","rawOb":"METAR KMOD 131653Z AUTO 35009KT 10SM SCT020 BKN026 14/08 A3009 RMK AO2 SLP190 T01390083","lat":37.6254,"lon":-120.9549,"elev":25,"name":"Modesto/Sham Fld, CA, US","cover":"BKN","clouds":[{"cover":"SCT","base":2000},{"cover":"BKN","base":2600}],"fltCat":"MVFR"},{"icaoId":"KMSY","receiptTime":"2026-04-13T16:57:09.005Z","obsTime":1776099180,"reportTime":"2026-04-13T17:00:00.000Z","temp":26.1,"dewp":17.2,"wdir":150,"wspd":10,"wgst":19,"visib":"10+","altim":1024.5,"slp":1024.6,"qcField":4,"metarType":"METAR","rawOb":"METAR KMSY 131653Z 15010G19KT 10SM SCT034 SCT250 26/17 A3025 RMK AO2 SLP246 T02610172","lat":29.9974,"lon":-90.2777,"elev":0,"name":"New Orleans/Armstrong Intl, LA, US","cover":"SCT","clouds":[{"cover":"SCT","base":3400},{"cover":"SCT","base":25000}],"fltCat":"VFR"},{"icaoId":"KMYF","receiptTime":"2026-04-13T16:57:09.212Z","obsTime":1776099180,"reportTime":"2026-04-13T17:00:00.000Z","temp":17.2,"dewp":8.3,"wdir":260,"wspd":9,"visib":"10+","altim":1018.4,"slp":1018,"qcField":4,"metarType":"METAR","rawOb":"METAR KMYF 131653Z 26009KT 10SM FEW031 SCT038 BKN048 17/08 A3007 RMK AO2 SLP180 T01720083","lat":32.8145,"lon":-117.1375,"elev":128,"name":"San Diego/Montgomery Arpt, CA, US","cover":"BKN","clouds":[{"cover":"FEW","base":3100},{"cover":"SCT","base":3800},{"cover":"BKN","base":4800}],"fltCat":"VFR"},{"icaoId":"KPSP","receiptTime":"2026-04-13T16:57:16.714Z","obsTime":1776099180,"reportTime":"2026-04-13T17:00:00.000Z","temp":20.6,"dewp":2.2,"wdir":"VRB","wspd":5,"visib":"10+","altim":1016,"slp":1015.6,"qcField":4,"metarType":"METAR","rawOb":"METAR KPSP 131653Z VRB05KT 10SM CLR 21/02 A3000 RMK AO2 SLP156 T02060022","lat":33.8222,"lon":-116.5043,"elev":123,"name":"Palm Springs Intl, CA, US","cover":"CLR","clouds":[],"fltCat":"VFR"},{"icaoId":"KGSP","receiptTime":"2026-04-13T16:57:10.327Z","obsTime":1776099180,"reportTime":"2026-04-13T17:00:00.000Z","temp":22.8,"dewp":13.3,"wdir":210,"wspd":9,"visib":"10+","altim":1026.8,"slp":1025.8,"qcField":4,"metarType":"METAR","rawOb":"METAR KGSP 131653Z 21009KT 10SM CLR 23/13 A3032 RMK AO2 SLP258 T02280133","lat":34.8842,"lon":-82.2209,"elev":285,"name":"Greenville-Spartanburg Intl, SC, US","cover":"CLR","clouds":[],"fltCat":"VFR"},{"icaoId":"KLAR","receiptTime":"2026-04-13T16:57:02.991Z","obsTime":1776099180,"reportTime":"2026-04-13T17:00:00.000Z","temp":10,"dewp":-7.8,"wdir":240,"wspd":19,"wgst":29,"visib":"10+","altim":1014,"slp":1008.5,"qcField":6,"metarType":"METAR","rawOb":"METAR KLAR 131653Z AUTO 24019G29KT 10SM FEW070 10/M08 A2994 RMK AO2 PK WND 25035/1607 SLP085 T01001078","lat":41.3165,"lon":-105.6729,"elev":2217,"name":"Laramie Rgnl, WY, US","cover":"FEW","clouds":[{"cover":"FEW","base":7000}],"fltCat":"VFR"},{"icaoId":"KLBB","receiptTime":"2026-04-13T16:57:00.010Z","obsTime":1776099180,"reportTime":"2026-04-13T17:00:00.000Z","temp":27.8,"dewp":0.6,"wdir":260,"wspd":24,"wgst":30,"visib":"10+","altim":1017.4,"slp":1012.1,"qcField":4,"metarType":"METAR","rawOb":"METAR KLBB 131653Z 26024G30KT 10SM FEW140 SCT170 BKN250 28/01 A3004 RMK AO2 PK WND 25032/1630 SLP121 VIRGA DSNT W ACC DSNT W T02780006","lat":33.6658,"lon":-101.8233,"elev":996,"name":"Lubbock Intl Arpt, TX, US","cover":"BKN","clouds":[{"cover":"FEW","base":14000},{"cover":"SCT","base":17000},{"cover":"BKN","base":25000}],"fltCat":"VFR"},{"icaoId":"KCLL","receiptTime":"2026-04-13T16:57:04.927Z","obsTime":1776099180,"reportTime":"2026-04-13T17:00:00.000Z","temp":25,"dewp":21.1,"wdir":180,"wspd":12,"visib":"10+","altim":1020.1,"slp":1019.6,"qcField":4,"metarType":"METAR","rawOb":"METAR KCLL 131653Z 18012KT 10SM SCT018 BKN025 OVC049 25/21 A3012 RMK AO2 SLP196 T02500211","lat":30.5912,"lon":-96.3631,"elev":96,"name":"College Station/Easterwood Arpt, TX, US","cover":"OVC","clouds":[{"cover":"SCT","base":1800},{"cover":"BKN","base":2500},{"cover":"OVC","base":4900}],"fltCat":"MVFR"},{"icaoId":"KBHM","receiptTime":"2026-04-13T16:57:11.876Z","obsTime":1776099180,"reportTime":"2026-04-13T17:00:00.000Z","temp":24.4,"dewp":12.8,"wdir":200,"wspd":10,"wgst":19,"visib":"10+","altim":1027.2,"slp":1026.3,"qcField":4,"metarType":"METAR","rawOb":"METAR KBHM 131653Z 20010G19KT 10SM FEW060 FEW120 FEW250 24/13 A3033 RMK AO2 SLP263 T02440128","lat":33.5655,"lon":-86.7449,"elev":191,"name":"Birmingham Intl, AL, US","cover":"FEW","clouds":[{"cover":"FEW","base":6000},{"cover":"FEW","base":12000},{"cover":"FEW","base":25000}],"fltCat":"VFR"},{"icaoId":"KEVW","receiptTime":"2026-04-13T16:57:11.080Z","obsTime":1776099180,"reportTime":"2026-04-13T17:00:00.000Z","temp":2.8,"dewp":-1.1,"wdir":250,"wspd":11,"wgst":18,"visib":"10+","altim":1016.7,"slp":1014.9,"qcField":6,"metarType":"METAR","rawOb":"METAR KEVW 131653Z AUTO 25011G18KT 10SM FEW018 03/M01 A3002 RMK AO2 SLP149 T00281011","lat":41.2727,"lon":-111.0305,"elev":2178,"name":"Evanston/Uinta Cnty, WY, US","cover":"FEW","clouds":[{"cover":"FEW","base":1800}],"fltCat":"VFR"},{"icaoId":"KLGB","receiptTime":"2026-04-13T16:57:00.087Z","obsTime":1776099180,"reportTime":"2026-04-13T17:00:00.000Z","temp":16.1,"dewp":8.3,"wdir":240,"wspd":5,"visib":"10+","altim":1018,"slp":1017.7,"qcField":12,"precip":0.005,"metarType":"METAR","rawOb":"METAR KLGB 131653Z 24005KT 10SM BKN031 OVC070 16/08 A3006 RMK AO2 RAB15E24 SLP177 P0000 T01610083 $","lat":33.8118,"lon":-118.1472,"elev":10,"name":"Long Beach Arpt, CA, US","cover":"OVC","clouds":[{"cover":"BKN","base":3100},{"cover":"OVC","base":7000}],"fltCat":"VFR"},{"icaoId":"KTUL","receiptTime":"2026-04-13T16:57:03.924Z","obsTime":1776099180,"reportTime":"2026-04-13T17:00:00.000Z","temp":26.1,"dewp":20,"wdir":190,"wspd":18,"wgst":26,"visib":"10+","altim":1014,"slp":1013.1,"qcField":4,"metarType":"METAR","rawOb":"METAR KTUL 131653Z 19018G26KT 10SM SCT026 BKN036 BKN200 26/20 A2994 RMK AO2 PK WND 18026/1638 SLP131 T02610200","lat":36.1985,"lon":-95.8782,"elev":196,"name":"Tulsa Intl Arpt, OK, US","cover":"BKN","clouds":[{"cover":"SCT","base":2600},{"cover":"BKN","base":3600},{"cover":"BKN","base":20000}],"fltCat":"VFR"},{"icaoId":"KPRC","receiptTime":"2026-04-13T16:57:16.683Z","obsTime":1776099180,"reportTime":"2026-04-13T17:00:00.000Z","temp":13.3,"dewp":1.1,"wdir":200,"wspd":15,"wgst":24,"visib":"10+","altim":1017.7,"slp":1012.7,"qcField":4,"metarType":"METAR","rawOb":"METAR KPRC 131653Z 20015G24KT 10SM SCT045 BKN055 13/01 A3005 RMK AO2 SLP127 T01330011","lat":34.6491,"lon":-112.4223,"elev":1528,"name":"Prescott/Love Fld, AZ, US","cover":"BKN","clouds":[{"cover":"SCT","base":4500},{"cover":"BKN","base":5500}],"fltCat":"VFR"},{"icaoId":"KPUW","receiptTime":"2026-04-13T16:57:16.730Z","obsTime":1776099180,"reportTime":"2026-04-13T17:00:00.000Z","temp":6.1,"dewp":5,"wdir":240,"wspd":11,"wgst":19,"visib":9,"altim":1011.9,"slp":1012.4,"qcField":6,"wxString":"-RA","precip":0.04,"metarType":"METAR","rawOb":"METAR KPUW 131653Z AUTO 24011G19KT 9SM -RA OVC009 06/05 A2988 RMK AO2 CIG 005V014 SLP124 P0004 T00610050","lat":46.7438,"lon":-117.1158,"elev":774,"name":"Pullman/Moscow Rgnl, WA, US","cover":"OVC","clouds":[{"cover":"OVC","base":900}],"fltCat":"IFR"},{"icaoId":"KSMF","receiptTime":"2026-04-13T16:57:00.955Z","obsTime":1776099180,"reportTime":"2026-04-13T17:00:00.000Z","temp":12.8,"dewp":8.9,"wdir":320,"wspd":12,"visib":"10+","altim":1020.1,"slp":1019.7,"qcField":4,"metarType":"METAR","rawOb":"METAR KSMF 131653Z 32012KT 10SM BKN012 13/09 A3012 RMK AO2 SLP197 T01280089","lat":38.7007,"lon":-121.5948,"elev":7,"name":"Sacramento Intl, CA, US","cover":"BKN","clouds":[{"cover":"BKN","base":1200}],"fltCat":"MVFR"},{"icaoId":"KSWO","receiptTime":"2026-04-13T16:56:58.557Z","obsTime":1776099180,"reportTime":"2026-04-13T17:00:00.000Z","temp":26.7,"dewp":19.4,"wdir":220,"wspd":16,"wgst":28,"visib":"10+","altim":1013,"slp":1011.6,"qcField":4,"metarType":"METAR","rawOb":"METAR KSWO 131653Z 22016G28KT 10SM FEW029 27/19 A2991 RMK AO2 PK WND 23031/1643 SLP116 T02670194","lat":36.1624,"lon":-97.0832,"elev":293,"name":"Stillwater Muni, OK, US","cover":"FEW","clouds":[{"cover":"FEW","base":2900}],"fltCat":"VFR"},{"icaoId":"KMFE","receiptTime":"2026-04-13T16:57:00.709Z","obsTime":1776099180,"reportTime":"2026-04-13T17:00:00.000Z","temp":28.9,"dewp":22.8,"wdir":140,"wspd":14,"wgst":21,"visib":"10+","altim":1018,"slp":1017.6,"qcField":4,"metarType":"METAR","rawOb":"METAR KMFE 131653Z 14014G21KT 10SM BKN017 BKN033 OVC040 29/23 A3006 RMK AO2 SLP176 T02890228","lat":26.1791,"lon":-98.2445,"elev":29,"name":"McAllen/Miller Intl, TX, US","cover":"OVC","clouds":[{"cover":"BKN","base":1700},{"cover":"BKN","base":3300},{"cover":"OVC","base":4000}],"fltCat":"MVFR"},{"icaoId":"KAPA","receiptTime":"2026-04-13T16:57:06.621Z","obsTime":1776099180,"reportTime":"2026-04-13T17:00:00.000Z","temp":17.2,"dewp":-11.7,"wdir":300,"wspd":12,"wgst":17,"visib":"10+","altim":1013,"slp":1007.3,"qcField":4,"metarType":"METAR","rawOb":"METAR KAPA 131653Z 30012G17KT 10SM FEW110 BKN220 17/M12 A2991 RMK AO2 SLP073 T01721117","lat":39.5599,"lon":-104.8484,"elev":1791,"name":"Denver/Centennial Arpt, CO, US","cover":"BKN","clouds":[{"cover":"FEW","base":11000},{"cover":"BKN","base":22000}],"fltCat":"VFR"},{"icaoId":"KCYS","receiptTime":"2026-04-13T16:56:52.192Z","obsTime":1776099180,"reportTime":"2026-04-13T17:00:00.000Z","temp":13.9,"dewp":-10,"wdir":240,"wspd":12,"wgst":22,"visib":"10+","altim":1013,"slp":1007.4,"qcField":4,"metarType":"METAR","rawOb":"METAR KCYS 131653Z 24012G22KT 10SM FEW100 14/M10 A2991 RMK AO2 SLP074 T01391100","lat":41.1579,"lon":-104.8081,"elev":1868,"name":"Cheyenne Rgnl, WY, US","cover":"FEW","clouds":[{"cover":"FEW","base":10000}],"fltCat":"VFR"},{"icaoId":"KACV","receiptTime":"2026-04-13T16:56:52.643Z","obsTime":1776099180,"reportTime":"2026-04-13T17:00:00.000Z","temp":11.7,"dewp":8.3,"wdir":260,"wspd":4,"visib":"10+","altim":1021.4,"slp":1021.8,"qcField":6,"metarType":"METAR","rawOb":"METAR KACV 131653Z AUTO 26004KT 10SM CLR 12/08 A3016 RMK AO2 SLP218 T01170083","lat":40.9784,"lon":-124.1048,"elev":63,"name":"Arcata Arpt, CA, US","cover":"CLR","clouds":[],"fltCat":"VFR"},{"icaoId":"KCNM","receiptTime":"2026-04-13T16:56:56.954Z","obsTime":1776099180,"reportTime":"2026-04-13T17:00:00.000Z","temp":26.7,"dewp":1.7,"wdir":240,"wspd":15,"wgst":25,"visib":"10+","altim":1018.7,"slp":1013.3,"qcField":6,"metarType":"METAR","rawOb":"METAR KCNM 131653Z AUTO 24015G25KT 10SM CLR 27/02 A3008 RMK AO2 SLP133 T02670017","lat":32.3336,"lon":-104.2584,"elev":993,"name":"Carlsbad/Cavern City Air Term, NM, US","cover":"CLR","clouds":[],"fltCat":"VFR"},{"icaoId":"KAMA","receiptTime":"2026-04-13T16:56:57.231Z","obsTime":1776099180,"reportTime":"2026-04-13T17:00:00.000Z","temp":26.1,"dewp":-1.1,"wdir":260,"wspd":23,"wgst":35,"visib":"10+","altim":1016,"slp":1011.2,"qcField":4,"metarType":"METAR","rawOb":"METAR KAMA 131653Z 26023G35KT 10SM CLR 26/M01 A3000 RMK AO2 PK WND 26037/1640 SLP112 T02611011","lat":35.2203,"lon":-101.7173,"elev":1102,"name":"Amarillo Intl Arpt, TX, US","cover":"CLR","clouds":[],"fltCat":"VFR"},{"icaoId":"KMAF","receiptTime":"2026-04-13T16:57:00.626Z","obsTime":1776099180,"reportTime":"2026-04-13T17:00:00.000Z","temp":27.8,"dewp":5,"wdir":220,"wspd":9,"wgst":19,"visib":"10+","altim":1019,"slp":1014.3,"qcField":4,"metarType":"METAR","rawOb":"METAR KMAF 131653Z 22009G19KT 10SM CLR 28/05 A3009 RMK AO2 SLP143 T02780050","lat":31.9475,"lon":-102.2086,"elev":874,"name":"Midland Intl, TX, US","cover":"CLR","clouds":[],"fltCat":"VFR"},{"icaoId":"KSJC","receiptTime":"2026-04-13T16:57:00.935Z","obsTime":1776099180,"reportTime":"2026-04-13T17:00:00.000Z","temp":13.3,"dewp":8.9,"wdir":320,"wspd":6,"visib":"10+","altim":1020.1,"slp":1019.8,"qcField":12,"metarType":"METAR","rawOb":"METAR KSJC 131653Z 32006KT 10SM FEW010 SCT018TCU BKN025TCU 13/09 A3012 RMK AO2 SLP198 TCU ALQDS T01330089 $","lat":37.3594,"lon":-121.9244,"elev":13,"name":"San Jose Intl Arpt, CA, US","cover":"BKN","clouds":[{"cover":"FEW","base":1000},{"cover":"SCT","base":1800},{"cover":"BKN","base":2500}],"fltCat":"MVFR"},{"icaoId":"KMDW","receiptTime":"2026-04-13T16:57:03.126Z","obsTime":1776099180,"reportTime":"2026-04-13T17:00:00.000Z","temp":22.2,"dewp":17.8,"wdir":230,"wspd":12,"visib":"10+","altim":1013.3,"slp":1012.7,"qcField":4,"metarType":"METAR","rawOb":"METAR KMDW 131653Z 23012KT 10SM SCT023 OVC028 22/18 A2992 RMK AO2 SLP127 T02220178","lat":41.7841,"lon":-87.7552,"elev":186,"name":"Chicago/Midway Intl, IL, US","cover":"OVC","clouds":[{"cover":"SCT","base":2300},{"cover":"OVC","base":2800}],"fltCat":"MVFR"},{"icaoId":"KGEG","receiptTime":"2026-04-13T16:57:07.444Z","obsTime":1776099180,"reportTime":"2026-04-13T17:00:00.000Z","temp":7.8,"dewp":6.1,"wdir":190,"wspd":9,"visib":"10+","altim":1009.9,"slp":1010.1,"qcField":12,"metarType":"METAR","rawOb":"METAR KGEG 131653Z 19009KT 10SM OVC009 08/06 A2982 RMK AO2 CIG 006V013 SLP101 T00780061 $","lat":47.6217,"lon":-117.528,"elev":718,"name":"Spokane Intl, WA, US","cover":"OVC","clouds":[{"cover":"OVC","base":900}],"fltCat":"IFR"},{"icaoId":"KPIH","receiptTime":"2026-04-13T16:57:16.652Z","obsTime":1776099180,"reportTime":"2026-04-13T17:00:00.000Z","temp":10,"dewp":-3.3,"wdir":270,"wspd":10,"wgst":19,"visib":"10+","altim":1015,"slp":1013.9,"qcField":4,"metarType":"METAR","rawOb":"METAR KPIH 131653Z 27010G19KT 10SM SCT060 10/M03 A2997 RMK AO2 SLP139 T01001033","lat":42.9197,"lon":-112.5723,"elev":1357,"name":"Pocatello Rgnl, ID, US","cover":"SCT","clouds":[{"cover":"SCT","base":6000}],"fltCat":"VFR"},{"icaoId":"KPNC","receiptTime":"2026-04-13T16:57:08.683Z","obsTime":1776099180,"reportTime":"2026-04-13T17:00:00.000Z","temp":25.6,"dewp":19.4,"wdir":200,"wspd":15,"wgst":29,"visib":"10+","altim":1011.6,"slp":1010.4,"qcField":6,"metarType":"METAR","rawOb":"METAR KPNC 131653Z AUTO 20015G29KT 10SM FEW028 26/19 A2987 RMK AO2 PK WND 20031/1556 SLP104 T02560194","lat":36.7369,"lon":-97.1024,"elev":304,"name":"Ponca City Rgnl, OK, US","cover":"FEW","clouds":[{"cover":"FEW","base":2800}],"fltCat":"VFR"},{"icaoId":"KOGD","receiptTime":"2026-04-13T16:57:09.330Z","obsTime":1776099180,"reportTime":"2026-04-13T17:00:00.000Z","temp":9.4,"dewp":0,"wdir":150,"wspd":5,"visib":"10+","altim":1016.7,"slp":1015.1,"qcField":4,"metarType":"METAR","rawOb":"METAR KOGD 131653Z 15005KT 10SM CLR 09/00 A3002 RMK AO2 SLP151 T00940000","lat":41.1941,"lon":-112.0168,"elev":1356,"name":"Ogden/Hinckley Arpt, UT, US","cover":"CLR","clouds":[],"fltCat":"VFR"},{"icaoId":"KPAE","receiptTime":"2026-04-13T16:57:09.745Z","obsTime":1776099180,"reportTime":"2026-04-13T17:00:00.000Z","temp":7.8,"dewp":7.2,"wdir":110,"wspd":4,"visib":1,"altim":1017.4,"slp":1017.3,"qcField":4,"wxString":"-RA BR","precip":0.08,"metarType":"METAR","rawOb":"METAR KPAE 131653Z 11004KT 1SM R16R/4000V5000FT -RA BR BKN004 BKN010 OVC015 08/07 A3004 RMK AO2 RAB1557 SLP173 P0008 T00780072","lat":47.9232,"lon":-122.2831,"elev":166,"name":"Everett/Paine Fld, WA, US","cover":"OVC","clouds":[{"cover":"BKN","base":400},{"cover":"BKN","base":1000},{"cover":"OVC","base":1500}],"fltCat":"LIFR"},{"icaoId":"KPBI","receiptTime":"2026-04-13T16:57:09.814Z","obsTime":1776099180,"reportTime":"2026-04-13T17:00:00.000Z","temp":26.1,"dewp":15,"wdir":80,"wspd":11,"visib":"10+","altim":1025.5,"slp":1025.2,"qcField":12,"metarType":"METAR","rawOb":"METAR KPBI 131653Z 08011KT 10SM BKN045 26/15 A3028 RMK AO2 SLP252 T02610150 $","lat":26.6851,"lon":-80.0992,"elev":4,"name":"Palm Beach Intl, FL, US","cover":"BKN","clouds":[{"cover":"BKN","base":4500}],"fltCat":"VFR"},{"icaoId":"KHIO","receiptTime":"2026-04-13T16:57:10.738Z","obsTime":1776099180,"reportTime":"2026-04-13T17:00:00.000Z","temp":10.6,"dewp":4.4,"wdir":"VRB","wspd":3,"visib":"10+","altim":1019.4,"slp":1019.4,"qcField":4,"metarType":"METAR","rawOb":"METAR KHIO 131653Z VRB03KT 10SM FEW024 BKN060 11/04 A3010 RMK AO2 SLP194 T01060044","lat":45.5476,"lon":-122.9557,"elev":62,"name":"Portland/Hillsboro Arpt, OR, US","cover":"BKN","clouds":[{"cover":"FEW","base":2400},{"cover":"BKN","base":6000}],"fltCat":"VFR"},{"icaoId":"KDVT","receiptTime":"2026-04-13T16:57:10.902Z","obsTime":1776099180,"reportTime":"2026-04-13T17:00:00.000Z","temp":20.6,"dewp":7.2,"wdir":0,"wspd":0,"visib":"10+","altim":1015.7,"slp":1013.8,"qcField":12,"metarType":"METAR","rawOb":"METAR KDVT 131653Z 00000KT 10SM 21/07 A2999 RMK AO2 SLP138 T02060072 $","lat":33.6902,"lon":-112.0662,"elev":454,"name":"Phoenix/Deer Valley Arpt, AZ, US"},{"icaoId":"KBLI","receiptTime":"2026-04-13T16:57:11.963Z","obsTime":1776099180,"reportTime":"2026-04-13T17:00:00.000Z","temp":10,"dewp":6.1,"wdir":190,"wspd":5,"visib":"10+","altim":1015.7,"slp":1016.1,"qcField":4,"metarType":"METAR","rawOb":"METAR KBLI 131653Z 19005KT 10SM OVC048 10/06 A2999 RMK AO2 SLP161 T01000061","lat":48.7991,"lon":-122.5407,"elev":46,"name":"Bellingham Intl, WA, US","cover":"OVC","clouds":[{"cover":"OVC","base":4800}],"fltCat":"VFR"},{"icaoId":"KBRO","receiptTime":"2026-04-13T16:57:12.137Z","obsTime":1776099180,"reportTime":"2026-04-13T17:00:00.000Z","temp":28.3,"dewp":21.1,"wdir":150,"wspd":15,"wgst":24,"visib":"10+","altim":1018.7,"slp":1018.3,"qcField":4,"metarType":"METAR","rawOb":"METAR KBRO 131653Z 15015G24KT 10SM BKN019 OVC030 28/21 A3008 RMK AO2 SLP183 T02830211","lat":25.9146,"lon":-97.4231,"elev":6,"name":"Brownsville Intl, TX, US","cover":"OVC","clouds":[{"cover":"BKN","base":1900},{"cover":"OVC","base":3000}],"fltCat":"MVFR"},{"icaoId":"KRDD","receiptTime":"2026-04-13T16:57:16.762Z","obsTime":1776099180,"reportTime":"2026-04-13T17:00:00.000Z","temp":11.7,"dewp":6.7,"wdir":0,"wspd":0,"visib":"10+","altim":1020.4,"slp":1020.3,"qcField":4,"metarType":"METAR","rawOb":"METAR KRDD 131653Z 00000KT 10SM OVC047 12/07 A3013 RMK AO2 SLP203 T01170067","lat":40.5146,"lon":-122.2977,"elev":152,"name":"Redding Muni, CA, US","cover":"OVC","clouds":[{"cover":"OVC","base":4700}],"fltCat":"VFR"},{"icaoId":"KMSP","receiptTime":"2026-04-13T16:57:08.937Z","obsTime":1776099180,"reportTime":"2026-04-13T17:00:00.000Z","temp":18.3,"dewp":11.1,"wdir":30,"wspd":6,"visib":"10+","altim":1008.5,"slp":1008.2,"qcField":4,"metarType":"METAR","rawOb":"METAR KMSP 131653Z 03006KT 10SM FEW120 SCT150 BKN250 18/11 A2978 RMK AO2 SLP082 VIRGA T01830111","lat":44.8852,"lon":-93.2313,"elev":255,"name":"Minneapolis-St Paul Intl, MN, US","cover":"BKN","clouds":[{"cover":"FEW","base":12000},{"cover":"SCT","base":15000},{"cover":"BKN","base":25000}],"fltCat":"VFR"},{"icaoId":"KMTJ","receiptTime":"2026-04-13T16:57:09.036Z","obsTime":1776099180,"reportTime":"2026-04-13T17:00:00.000Z","temp":13.3,"dewp":-5,"wdir":300,"wspd":12,"wgst":19,"visib":"10+","altim":1017,"slp":1011.3,"qcField":6,"metarType":"METAR","rawOb":"METAR KMTJ 131653Z AUTO 30012G19KT 10SM BKN080 OVC095 13/M05 A3003 RMK AO2 SLP113 T01331050","lat":38.5054,"lon":-107.8981,"elev":1755,"name":"Montrose Rgnl, CO, US","cover":"OVC","clouds":[{"cover":"BKN","base":8000},{"cover":"OVC","base":9500}],"fltCat":"VFR"},{"icaoId":"KOAK","receiptTime":"2026-04-13T16:57:09.238Z","obsTime":1776099180,"reportTime":"2026-04-13T17:00:00.000Z","temp":12.8,"dewp":8.3,"wdir":210,"wspd":3,"visib":"10+","altim":1020.4,"slp":1020.3,"qcField":12,"metarType":"METAR","rawOb":"METAR KOAK 131653Z 21003KT 10SM SCT022 13/08 A3013 RMK AO2 SLP203 T01280083 $","lat":37.7178,"lon":-122.233,"elev":3,"name":"Oakland Intl, CA, US","cover":"SCT","clouds":[{"cover":"SCT","base":2200}],"fltCat":"VFR"},{"icaoId":"KGJT","receiptTime":"2026-04-13T16:57:09.944Z","obsTime":1776099180,"reportTime":"2026-04-13T17:00:00.000Z","temp":15.6,"dewp":-7.2,"wdir":20,"wspd":4,"visib":"10+","altim":1015.3,"slp":1010.3,"qcField":4,"metarType":"METAR","rawOb":"METAR KGJT 131653Z 02004KT 10SM SCT100 BKN110 16/M07 A2998 RMK AO2 SLP103 T01561072","lat":39.1344,"lon":-108.5408,"elev":1475,"name":"Grand Junction Rgnl, CO, US","cover":"BKN","clouds":[{"cover":"SCT","base":10000},{"cover":"BKN","base":11000}],"fltCat":"VFR"},{"icaoId":"KHOU","receiptTime":"2026-04-13T16:57:10.889Z","obsTime":1776099180,"reportTime":"2026-04-13T17:00:00.000Z","temp":26.7,"dewp":20.6,"wdir":160,"wspd":12,"visib":"10+","altim":1020.7,"slp":1020.9,"qcField":12,"metarType":"METAR","rawOb":"METAR KHOU 131653Z 16012KT 10SM FEW022 OVC035 27/21 A3014 RMK AO2 SLP209 T02670206 $","lat":29.6458,"lon":-95.2821,"elev":13,"name":"Houston/Hobby Arpt, TX, US","cover":"OVC","clouds":[{"cover":"FEW","base":2200},{"cover":"OVC","base":3500}],"fltCat":"VFR"},{"icaoId":"KBOI","receiptTime":"2026-04-13T16:57:12.034Z","obsTime":1776099180,"reportTime":"2026-04-13T17:00:00.000Z","temp":3.9,"dewp":2.2,"wdir":90,"wspd":10,"visib":"10+","altim":1015.7,"slp":1016.2,"qcField":4,"wxString":"-RA","precip":0.08,"metarType":"METAR","rawOb":"METAR KBOI 131653Z 09010KT 10SM -RA OVC017 04/02 A2999 RMK AO2 SLP162 P0008 T00390022","lat":43.567,"lon":-116.2406,"elev":860,"name":"Boise Arpt, ID, US","cover":"OVC","clouds":[{"cover":"OVC","base":1700}],"fltCat":"MVFR"},{"icaoId":"KBUR","receiptTime":"2026-04-13T16:57:12.187Z","obsTime":1776099180,"reportTime":"2026-04-13T17:00:00.000Z","temp":15,"dewp":6.7,"wdir":0,"wspd":0,"visib":"10+","altim":1017.7,"slp":1016.8,"qcField":4,"metarType":"METAR","rawOb":"METAR KBUR 131653Z 00000KT 10SM SCT050 15/07 A3005 RMK AO2 SLP168 T01500067","lat":34.1996,"lon":-118.3654,"elev":221,"name":"Burbank/Bob Hope Arpt, CA, US","cover":"SCT","clouds":[{"cover":"SCT","base":5000}],"fltCat":"VFR"},{"icaoId":"KMIA","receiptTime":"2026-04-13T16:57:13.989Z","obsTime":1776099180,"reportTime":"2026-04-13T17:00:00.000Z","temp":26.7,"dewp":15,"wdir":90,"wspd":16,"wgst":24,"visib":"10+","altim":1024.5,"slp":1024.3,"qcField":0,"metarType":"METAR","rawOb":"METAR KMIA 131653Z 09016G24KT 10SM SCT044 27/15 A3025 RMK SLP243 T02670150","lat":25.7881,"lon":-80.3169,"elev":1,"name":"Miami Intl, FL, US","cover":"SCT","clouds":[{"cover":"SCT","base":4400}],"fltCat":"VFR"},{"icaoId":"KPUB","receiptTime":"2026-04-13T16:57:03.356Z","obsTime":1776099180,"reportTime":"2026-04-13T17:00:00.000Z","temp":21.1,"dewp":-10.6,"wdir":220,"wspd":8,"visib":"10+","altim":1011.9,"slp":1007.1,"qcField":12,"metarType":"METAR","rawOb":"METAR KPUB 131653Z 22008KT 10SM CLR 21/M11 A2988 RMK AO2 SLP071 T02111106 $","lat":38.2887,"lon":-104.5057,"elev":1441,"name":"Pueblo Mem Arpt, CO, US","cover":"CLR","clouds":[],"fltCat":"VFR"},{"icaoId":"KELY","receiptTime":"2026-04-13T16:57:07.381Z","obsTime":1776099180,"reportTime":"2026-04-13T17:00:00.000Z","temp":-3.3,"dewp":-4.4,"wdir":170,"wspd":8,"visib":"10+","altim":1017,"slp":1018.1,"qcField":6,"precip":0.005,"metarType":"METAR","rawOb":"METAR KELY 131653Z AUTO 17008KT 10SM CLR M03/M04 A3003 RMK AO2 SNB00E10 SLP181 P0000 T10331044","lat":39.2954,"lon":-114.8466,"elev":1906,"name":"Ely/Yelland Fld, NV, US","cover":"CLR","clouds":[],"fltCat":"VFR"},{"icaoId":"KCNY","receiptTime":"2026-04-13T16:57:04.943Z","obsTime":1776099180,"reportTime":"2026-04-13T17:00:00.000Z","temp":14.4,"dewp":-3.9,"wdir":360,"wspd":7,"visib":"10+","altim":1015,"slp":1011,"qcField":14,"metarType":"METAR","rawOb":"METAR KCNY 131653Z AUTO 36007KT 290V060 10SM FEW095 14/M04 A2997 RMK AO2 SLP110 T01441039 $","lat":38.7501,"lon":-109.7627,"elev":1392,"name":"Moab/Canyonland Fld, UT, US","cover":"FEW","clouds":[{"cover":"FEW","base":9500}],"fltCat":"VFR"},{"icaoId":"KBFI","receiptTime":"2026-04-13T16:57:11.801Z","obsTime":1776099180,"reportTime":"2026-04-13T17:00:00.000Z","temp":10,"dewp":5.6,"wdir":170,"wspd":8,"visib":9,"altim":1017.4,"slp":1017.1,"qcField":4,"metarType":"METAR","rawOb":"METAR KBFI 131653Z 17008KT 9SM BKN015 OVC022 10/06 A3004 RMK AO2 SLP171 T01000056","lat":47.5455,"lon":-122.3148,"elev":7,"name":"Seattle/Boeing Fld, WA, US","cover":"OVC","clouds":[{"cover":"BKN","base":1500},{"cover":"OVC","base":2200}],"fltCat":"MVFR"},{"icaoId":"KYKM","receiptTime":"2026-04-13T16:57:05.641Z","obsTime":1776099180,"reportTime":"2026-04-13T17:00:00.000Z","temp":12.8,"dewp":2.2,"wdir":310,"wspd":10,"visib":"10+","altim":1012.6,"slp":1012.6,"qcField":12,"metarType":"METAR","rawOb":"METAR KYKM 131653Z 31010KT 10SM CLR 13/02 A2990 RMK AO2 SLP126 T01280022 $","lat":46.564,"lon":-120.5349,"elev":319,"name":"Yakima/McAllister Fld, WA, US","cover":"CLR","clouds":[],"fltCat":"VFR"},{"icaoId":"KSAF","receiptTime":"2026-04-13T16:57:08.143Z","obsTime":1776099180,"reportTime":"2026-04-13T17:00:00.000Z","temp":15.6,"dewp":-1.7,"wdir":240,"wspd":13,"wgst":22,"visib":"10+","altim":1020.4,"slp":1013.1,"qcField":12,"metarType":"METAR","rawOb":"METAR KSAF 131653Z 24013G22KT 10SM SCT060 SCT100 16/M02 A3013 RMK AO2 PK WND 24027/1639 SLP131 ACSL SW T01561017 $","lat":35.611,"lon":-106.0957,"elev":1918,"name":"Santa Fe Cnty Muni, NM, US","cover":"SCT","clouds":[{"cover":"SCT","base":6000},{"cover":"SCT","base":10000}],"fltCat":"VFR"},{"icaoId":"KSBA","receiptTime":"2026-04-13T16:57:16.809Z","obsTime":1776099180,"reportTime":"2026-04-13T17:00:00.000Z","temp":17.2,"dewp":6.1,"wdir":240,"wspd":10,"visib":"10+","altim":1018,"slp":1017.7,"qcField":12,"metarType":"METAR","rawOb":"METAR KSBA 131653Z 24010KT 10SM SCT100 17/06 A3006 RMK AO2 SLP177 T01720061 $","lat":34.4241,"lon":-119.8425,"elev":2,"name":"Santa Barbara Muni, CA, US","cover":"SCT","clouds":[{"cover":"SCT","base":10000}],"fltCat":"VFR"},{"icaoId":"KSDL","receiptTime":"2026-04-13T16:57:16.824Z","obsTime":1776099180,"reportTime":"2026-04-13T17:00:00.000Z","temp":21.1,"dewp":6.7,"wdir":130,"wspd":3,"visib":"10+","altim":1016,"slp":1013.9,"qcField":4,"metarType":"METAR","rawOb":"METAR KSDL 131653Z 13003KT 10SM CLR 21/07 A3000 RMK AO2 SLP139 T02110067","lat":33.6123,"lon":-111.9232,"elev":438,"name":"Scottsdale Muni, AZ, US","cover":"CLR","clouds":[],"fltCat":"VFR"},{"icaoId":"KONT","receiptTime":"2026-04-13T16:57:09.445Z","obsTime":1776099180,"reportTime":"2026-04-13T17:00:00.000Z","temp":14.4,"dewp":8.3,"wdir":210,"wspd":7,"visib":"10+","altim":1017.7,"slp":1017.3,"qcField":12,"precip":0.005,"metarType":"METAR","rawOb":"METAR KONT 131653Z 21007KT 10SM SCT024 BKN065 14/08 A3005 RMK AO2 RAE20 SLP173 P0000 T01440083 $","lat":34.0531,"lon":-117.5769,"elev":279,"name":"Ontario Intl, CA, US","cover":"BKN","clouds":[{"cover":"SCT","base":2400},{"cover":"BKN","base":6500}],"fltCat":"VFR"},{"icaoId":"KPDX","receiptTime":"2026-04-13T16:57:16.621Z","obsTime":1776099180,"reportTime":"2026-04-13T17:00:00.000Z","temp":10,"dewp":7.2,"wdir":320,"wspd":4,"visib":"10+","altim":1019.7,"slp":1019.6,"qcField":4,"metarType":"METAR","rawOb":"METAR KPDX 131653Z 32004KT 10SM FEW012 SCT028 OVC060 10/07 A3011 RMK AO2 SLP196 T01000072","lat":45.5958,"lon":-122.6092,"elev":7,"name":"Portland Intl, OR, US","cover":"OVC","clouds":[{"cover":"FEW","base":1200},{"cover":"SCT","base":2800},{"cover":"OVC","base":6000}],"fltCat":"VFR"},{"icaoId":"KPSC","receiptTime":"2026-04-13T16:57:16.698Z","obsTime":1776099180,"reportTime":"2026-04-13T17:00:00.000Z","temp":16.1,"dewp":3.3,"wdir":260,"wspd":15,"wgst":20,"visib":"10+","altim":1012.3,"slp":1012.1,"qcField":4,"metarType":"METAR","rawOb":"METAR KPSC 131653Z 26015G20KT 10SM CLR 16/03 A2989 RMK AO2 SLP121 T01610033","lat":46.2695,"lon":-119.1182,"elev":121,"name":"Pasco/Tri Cities Arpt, WA, US","cover":"CLR","clouds":[],"fltCat":"VFR"},{"icaoId":"KFMN","receiptTime":"2026-04-13T16:57:02.115Z","obsTime":1776099180,"reportTime":"2026-04-13T17:00:00.000Z","temp":14.4,"dewp":-2.8,"wdir":210,"wspd":12,"visib":"10+","altim":1018.7,"slp":1014.8,"qcField":4,"metarType":"METAR","rawOb":"METAR KFMN 131653Z 21012KT 10SM CLR 14/M03 A3008 RMK AO2 SLP148 T01441028","lat":36.7435,"lon":-108.2293,"elev":1677,"name":"Farmington/Four Corners Rgnl, NM, US","cover":"CLR","clouds":[],"fltCat":"VFR"},{"icaoId":"KLAX","receiptTime":"2026-04-13T16:57:00.074Z","obsTime":1776099180,"reportTime":"2026-04-13T17:00:00.000Z","temp":16.7,"dewp":9.4,"wdir":250,"wspd":8,"visib":"10+","altim":1018,"slp":1017.9,"qcField":12,"metarType":"METAR","rawOb":"METAR KLAX 131653Z 25008KT 10SM FEW019 FEW050 SCT080 BKN150 17/09 A3006 RMK AO2 SLP179 T01670094 $","lat":33.9382,"lon":-118.3866,"elev":30,"name":"Los Angeles Intl, CA, US","cover":"BKN","clouds":[{"cover":"FEW","base":1900},{"cover":"FEW","base":5000},{"cover":"SCT","base":8000},{"cover":"BKN","base":15000}],"fltCat":"VFR"},{"icaoId":"KDAL","receiptTime":"2026-04-13T16:56:57.066Z","obsTime":1776099180,"reportTime":"2026-04-13T17:00:00.000Z","temp":25,"dewp":20.6,"wdir":180,"wspd":12,"wgst":18,"visib":"10+","altim":1018,"slp":1017.5,"qcField":4,"metarType":"METAR","rawOb":"METAR KDAL 131653Z 18012G18KT 10SM SCT022 SCT027 BKN042 25/21 A3006 RMK AO2 SLP175 T02500206","lat":32.8384,"lon":-96.8358,"elev":148,"name":"Dallas/Love Fld, TX, US","cover":"BKN","clouds":[{"cover":"SCT","base":2200},{"cover":"SCT","base":2700},{"cover":"BKN","base":4200}],"fltCat":"VFR"},{"icaoId":"KTPA","receiptTime":"2026-04-13T16:57:03.887Z","obsTime":1776099180,"reportTime":"2026-04-13T17:00:00.000Z","temp":27.2,"dewp":14.4,"wdir":140,"wspd":7,"visib":"10+","altim":1025.8,"slp":1025.6,"qcField":4,"metarType":"METAR","rawOb":"METAR KTPA 131653Z 14007KT 10SM FEW040 SCT250 27/14 A3029 RMK AO2 SLP256 T02720144","lat":27.9633,"lon":-82.54,"elev":2,"name":"Tampa Intl Arpt, FL, US","cover":"SCT","clouds":[{"cover":"FEW","base":4000},{"cover":"SCT","base":25000}],"fltCat":"VFR"},{"icaoId":"KTUS","receiptTime":"2026-04-13T16:57:05.578Z","obsTime":1776099180,"reportTime":"2026-04-13T17:00:00.000Z","temp":24.4,"dewp":2.2,"wdir":210,"wspd":17,"wgst":26,"visib":"10+","altim":1017.4,"slp":1013.2,"qcField":4,"metarType":"METAR","rawOb":"METAR KTUS 131653Z 21017G26KT 10SM CLR 24/02 A3004 RMK AO2 PK WND 21026/1646 SLP132 T02440022","lat":32.1315,"lon":-110.9564,"elev":776,"name":"Tucson Intl Arpt, AZ, US","cover":"CLR","clouds":[],"fltCat":"VFR"},{"icaoId":"KVGT","receiptTime":"2026-04-13T16:57:01.103Z","obsTime":1776099180,"reportTime":"2026-04-13T17:00:00.000Z","temp":15.6,"dewp":0,"wdir":50,"wspd":4,"visib":"10+","altim":1014.3,"slp":1014.8,"qcField":4,"metarType":"METAR","rawOb":"METAR KVGT 131653Z 05004KT 10SM CLR 16/00 A2995 RMK AO2 SLP148 T01560000","lat":36.212,"lon":-115.194,"elev":664,"name":"Las Vegas/North Arpt, NV, US","cover":"CLR","clouds":[],"fltCat":"VFR"},{"icaoId":"KLOL","receiptTime":"2026-04-13T16:56:44.689Z","obsTime":1776099180,"reportTime":"2026-04-13T17:00:00.000Z","temp":7.8,"dewp":-2.8,"wdir":0,"wspd":0,"visib":"10+","altim":1017.7,"slp":1017.6,"qcField":14,"metarType":"METAR","rawOb":"METAR KLOL 131653Z AUTO 00000KT 10SM CLR 08/M03 A3005 RMK AO2 SLP176 T00781028 $","lat":40.0684,"lon":-118.5702,"elev":1191,"name":"Lovelock/Derby Fld, NV, US","cover":"CLR","clouds":[],"fltCat":"VFR"},{"icaoId":"KCPR","receiptTime":"2026-04-13T16:56:52.160Z","obsTime":1776099180,"reportTime":"2026-04-13T17:00:00.000Z","temp":13.3,"dewp":-7.8,"wdir":230,"wspd":30,"wgst":46,"visib":"10+","altim":1009.9,"slp":1006.6,"qcField":4,"metarType":"METAR","rawOb":"METAR KCPR 131653Z 23030G46KT 10SM CLR 13/M08 A2982 RMK AO2 PK WND 24046/1651 SLP066 T01331078","lat":42.8978,"lon":-106.4736,"elev":1623,"name":"Casper/Natrona Cnty, WY, US","cover":"CLR","clouds":[],"fltCat":"VFR"},{"icaoId":"KDEN","receiptTime":"2026-04-13T16:56:52.255Z","obsTime":1776099180,"reportTime":"2026-04-13T17:00:00.000Z","temp":17.8,"dewp":-12.2,"wdir":"VRB","wspd":4,"visib":"10+","altim":1012.3,"slp":1006.1,"qcField":4,"metarType":"METAR","rawOb":"METAR KDEN 131653Z VRB04KT 10SM FEW090 FEW140 SCT220 18/M12 A2989 RMK AO2 SLP061 T01781122","lat":39.8466,"lon":-104.6562,"elev":1656,"name":"Denver Intl, CO, US","cover":"SCT","clouds":[{"cover":"FEW","base":9000},{"cover":"FEW","base":14000},{"cover":"SCT","base":22000}],"fltCat":"VFR"},{"icaoId":"KDRO","receiptTime":"2026-04-13T16:56:52.308Z","obsTime":1776099180,"reportTime":"2026-04-13T17:00:00.000Z","temp":11.1,"dewp":-3.3,"wdir":210,"wspd":8,"visib":"10+","altim":1020.1,"slp":1015.3,"qcField":6,"metarType":"METAR","rawOb":"METAR KDRO 131653Z AUTO 21008KT 10SM CLR 11/M03 A3012 RMK AO2 SLP153 T01111033","lat":37.1431,"lon":-107.7602,"elev":2021,"name":"Durango/La Plata Cnty, CO, US","cover":"CLR","clouds":[],"fltCat":"VFR"},{"icaoId":"KDFW","receiptTime":"2026-04-13T16:56:57.086Z","obsTime":1776099180,"reportTime":"2026-04-13T17:00:00.000Z","temp":26.7,"dewp":20,"wdir":200,"wspd":20,"wgst":27,"visib":"10+","altim":1017.4,"slp":1016.6,"qcField":4,"metarType":"METAR","rawOb":"METAR KDFW 131653Z 20020G27KT 10SM SCT024 SCT031 BKN250 27/20 A3004 RMK AO2 PK WND 19027/1647 SLP166 T02670200","lat":32.8974,"lon":-97.022,"elev":168,"name":"Dallas-Ft Worth Intl, TX, US","cover":"BKN","clouds":[{"cover":"SCT","base":2400},{"cover":"SCT","base":3100},{"cover":"BKN","base":25000}],"fltCat":"VFR"},{"icaoId":"KDMN","receiptTime":"2026-04-13T16:56:57.133Z","obsTime":1776099180,"reportTime":"2026-04-13T17:00:00.000Z","temp":22.2,"dewp":1.7,"wdir":220,"wspd":17,"wgst":28,"visib":"10+","altim":1020.7,"slp":1014.3,"qcField":6,"metarType":"METAR","rawOb":"METAR KDMN 131653Z AUTO 22017G28KT 10SM CLR 22/02 A3014 RMK AO2 PK WND 22028/1652 SLP143 T02220017","lat":32.2592,"lon":-107.7206,"elev":1310,"name":"Deming Muni, NM, US","cover":"CLR","clouds":[],"fltCat":"VFR"},{"icaoId":"KBNA","receiptTime":"2026-04-13T16:57:12.011Z","obsTime":1776099180,"reportTime":"2026-04-13T17:00:00.000Z","temp":21.7,"dewp":14.4,"wdir":190,"wspd":9,"visib":"10+","altim":1024.1,"slp":1023.4,"qcField":4,"wxString":"-RA","precip":0.005,"metarType":"METAR","rawOb":"METAR KBNA 131653Z 19009KT 10SM -RA SCT090 OVC110 22/14 A3024 RMK AO2 RAB03E27B49 SLP234 P0000 T02170144","lat":36.1105,"lon":-86.6881,"elev":168,"name":"Nashville Intl, TN, US","cover":"OVC","clouds":[{"cover":"SCT","base":9000},{"cover":"OVC","base":11000}],"fltCat":"VFR"},{"icaoId":"KIAH","receiptTime":"2026-04-13T16:56:59.963Z","obsTime":1776099180,"reportTime":"2026-04-13T17:00:00.000Z","temp":26.7,"dewp":20.6,"wdir":170,"wspd":9,"visib":"10+","altim":1020.7,"slp":1020.7,"qcField":4,"metarType":"METAR","rawOb":"METAR KIAH 131653Z 17009KT 10SM SCT025 OVC042 27/21 A3014 RMK AO2 SLP207 SHRA DSNT W T02670206","lat":29.9844,"lon":-95.3607,"elev":27,"name":"Houston/Bush Intl, TX, US","cover":"OVC","clouds":[{"cover":"SCT","base":2500},{"cover":"OVC","base":4200}],"fltCat":"VFR"},{"icaoId":"KMFR","receiptTime":"2026-04-13T16:57:00.169Z","obsTime":1776099180,"reportTime":"2026-04-13T17:00:00.000Z","temp":9.4,"dewp":4.4,"wdir":320,"wspd":3,"visib":"10+","altim":1020.1,"slp":1020.1,"qcField":12,"metarType":"METAR","rawOb":"METAR KMFR 131653Z 32003KT 10SM OVC041 09/04 A3012 RMK AO2 SLP201 T00940044 $","lat":42.375,"lon":-122.877,"elev":397,"name":"Medford/Rogue Valley Intl, OR, US","cover":"OVC","clouds":[{"cover":"OVC","base":4100}],"fltCat":"VFR"},{"icaoId":"KLVS","receiptTime":"2026-04-13T16:57:00.609Z","obsTime":1776099180,"reportTime":"2026-04-13T17:00:00.000Z","temp":15.6,"dewp":-3.3,"wdir":200,"wspd":21,"wgst":33,"visib":"10+","altim":1019.4,"slp":1010.8,"qcField":14,"metarType":"METAR","rawOb":"METAR KLVS 131653Z AUTO 20021G33KT 10SM CLR 16/M03 A3010 RMK AO2 PK WND 19037/1620 SLP108 T01561033 PNO $","lat":35.6558,"lon":-105.1385,"elev":2095,"name":"Las Vegas Muni, NM, US","cover":"CLR","clouds":[],"fltCat":"VFR"},{"icaoId":"KMCO","receiptTime":"2026-04-13T16:57:00.684Z","obsTime":1776099180,"reportTime":"2026-04-13T17:00:00.000Z","temp":26.1,"dewp":13.3,"wdir":70,"wspd":8,"wgst":15,"visib":"10+","altim":1026.8,"slp":1026.5,"qcField":4,"metarType":"METAR","rawOb":"METAR KMCO 131653Z 07008G15KT 10SM SCT050 BKN250 26/13 A3032 RMK AO2 SLP265 T02610133","lat":28.4182,"lon":-81.3241,"elev":27,"name":"Orlando Intl, FL, US","cover":"BKN","clouds":[{"cover":"SCT","base":5000},{"cover":"BKN","base":25000}],"fltCat":"VFR"},{"icaoId":"KMLC","receiptTime":"2026-04-13T16:57:00.772Z","obsTime":1776099180,"reportTime":"2026-04-13T17:00:00.000Z","temp":23.9,"dewp":20,"wdir":200,"wspd":9,"wgst":20,"visib":"10+","altim":1017.4,"slp":1016.3,"qcField":6,"metarType":"METAR","rawOb":"METAR KMLC 131653Z AUTO 20009G20KT 160V230 10SM BKN020 OVC026 24/20 A3004 RMK AO2 SLP163 T02390200","lat":34.8824,"lon":-95.7815,"elev":231,"name":"McAlester Rgnl, OK, US","cover":"OVC","clouds":[{"cover":"BKN","base":2000},{"cover":"OVC","base":2600}],"fltCat":"MVFR"},{"icaoId":"KRIW","receiptTime":"2026-04-13T16:57:01.182Z","obsTime":1776099180,"reportTime":"2026-04-13T17:00:00.000Z","temp":11.7,"dewp":-8.9,"wdir":310,"wspd":15,"wgst":23,"visib":"10+","altim":1011.3,"slp":1008.6,"qcField":6,"metarType":"METAR","rawOb":"METAR KRIW 131653Z AUTO 31015G23KT 10SM CLR 12/M09 A2986 RMK AO2 PK WND 31027/1601 SLP086 T01171089","lat":43.0622,"lon":-108.4471,"elev":1662,"name":"Riverton Rgnl, WY, US","cover":"CLR","clouds":[],"fltCat":"VFR"},{"icaoId":"KVEL","receiptTime":"2026-04-13T16:57:01.530Z","obsTime":1776099180,"reportTime":"2026-04-13T17:00:00.000Z","temp":11.1,"dewp":-5,"wdir":200,"wspd":8,"visib":"10+","altim":1015.7,"slp":1011.9,"qcField":6,"metarType":"METAR","rawOb":"METAR KVEL 131653Z AUTO 20008KT 10SM FEW110 11/M05 A2999 RMK AO2 SLP119 T01111050","lat":40.4429,"lon":-109.5128,"elev":1604,"name":"Vernal Rgnl, UT, US","cover":"FEW","clouds":[{"cover":"FEW","base":11000}],"fltCat":"VFR"},{"icaoId":"KFAT","receiptTime":"2026-04-13T16:57:07.419Z","obsTime":1776099180,"reportTime":"2026-04-13T17:00:00.000Z","temp":13.3,"dewp":7.2,"wdir":330,"wspd":8,"visib":"10+","altim":1019,"slp":1018.8,"qcField":4,"metarType":"METAR","rawOb":"METAR KFAT 131653Z 33008KT 10SM FEW020 BKN075 OVC100 13/07 A3009 RMK AO2 SLP188 T01330072","lat":36.78,"lon":-119.7202,"elev":102,"name":"Fresno/Yosemite Intl, CA, US","cover":"OVC","clouds":[{"cover":"FEW","base":2000},{"cover":"BKN","base":7500},{"cover":"OVC","base":10000}],"fltCat":"VFR"},{"icaoId":"KSEA","receiptTime":"2026-04-13T16:57:16.858Z","obsTime":1776099180,"reportTime":"2026-04-13T17:00:00.000Z","temp":10,"dewp":5,"wdir":200,"wspd":12,"wgst":21,"visib":"10+","altim":1017,"slp":1017.6,"qcField":4,"precip":0.005,"metarType":"METAR","rawOb":"METAR KSEA 131653Z 20012G21KT 10SM SCT025 BKN036 BKN050 10/05 A3003 RMK AO2 RAE01B31E51 SLP176 P0000 T01000050","lat":47.4447,"lon":-122.3144,"elev":115,"name":"Seattle-Tacoma Intl, WA, US","cover":"BKN","clouds":[{"cover":"SCT","base":2500},{"cover":"BKN","base":3600},{"cover":"BKN","base":5000}],"fltCat":"VFR"},{"icaoId":"KASE","receiptTime":"2026-04-13T16:57:06.639Z","obsTime":1776099180,"reportTime":"2026-04-13T17:00:00.000Z","temp":9.4,"dewp":-12.8,"wdir":360,"wspd":5,"wgst":14,"visib":"10+","altim":1017,"slp":1008.5,"qcField":4,"metarType":"METAR","rawOb":"METAR KASE 131653Z 36005G14KT 10SM CLR 09/M13 A3003 RMK AO2 PK WND 26027/1610 SLP085 T00941128","lat":39.2299,"lon":-106.8705,"elev":2384,"name":"Aspen/Pitkin Cnty, CO, US","cover":"CLR","clouds":[],"fltCat":"VFR"},{"icaoId":"KIDA","receiptTime":"2026-04-13T16:57:07.635Z","obsTime":1776099180,"reportTime":"2026-04-13T17:00:00.000Z","temp":7.8,"dewp":-2.8,"wdir":230,"wspd":18,"wgst":28,"visib":"10+","altim":1015.3,"slp":1014.7,"qcField":4,"metarType":"METAR","rawOb":"METAR KIDA 131653Z 23018G28KT 10SM FEW043 08/M03 A2998 RMK AO2 PK WND 21031/1641 SLP147 T00781028","lat":43.5204,"lon":-112.0675,"elev":1444,"name":"Idaho Falls Rgnl, ID, US","cover":"FEW","clouds":[{"cover":"FEW","base":4300}],"fltCat":"VFR"},{"icaoId":"KRTN","receiptTime":"2026-04-13T16:57:07.940Z","obsTime":1776099180,"reportTime":"2026-04-13T17:00:00.000Z","temp":17.2,"dewp":-9.4,"wdir":210,"wspd":8,"visib":"10+","altim":1016.7,"slp":1010.2,"qcField":6,"metarType":"METAR","rawOb":"METAR KRTN 131653Z AUTO 21008KT 10SM CLR 17/M09 A3002 RMK AO2 SLP102 T01721094","lat":36.7418,"lon":-104.5076,"elev":1939,"name":"Raton/Crews Fld, NM, US","cover":"CLR","clouds":[],"fltCat":"VFR"},{"icaoId":"PANC","receiptTime":"2026-04-13T16:57:15.757Z","obsTime":1776099180,"reportTime":"2026-04-13T17:00:00.000Z","temp":1.1,"dewp":-2.8,"wdir":180,"wspd":3,"visib":"10+","altim":1001.8,"slp":1001.8,"qcField":4,"metarType":"METAR","rawOb":"METAR PANC 131653Z 18003KT 10SM SCT065 OVC080 01/M03 A2958 RMK AO2 SLP018 T00111028","lat":61.1691,"lon":-150.0277,"elev":39,"name":"Anchorage Intl, AK, US","cover":"OVC","clouds":[{"cover":"SCT","base":6500},{"cover":"OVC","base":8000}],"fltCat":"VFR"},{"icaoId":"KPGA","receiptTime":"2026-04-13T16:57:16.634Z","obsTime":1776099180,"reportTime":"2026-04-13T17:00:00.000Z","temp":15,"dewp":-3.3,"wdir":"VRB","wspd":3,"visib":"","altim":1015.7,"slp":1011.3,"qcField":14,"metarType":"METAR","rawOb":"METAR KPGA 131653Z AUTO VRB03KT FEW075 15/M03 A2999 RMK AO2 SLP113 T01501033 $","lat":36.9211,"lon":-111.4487,"elev":1310,"name":"Page Muni, AZ, US","cover":"FEW","clouds":[{"cover":"FEW","base":7500}]},{"icaoId":"KSTS","receiptTime":"2026-04-13T16:58:18.672Z","obsTime":1776099180,"reportTime":"2026-04-13T17:00:00.000Z","temp":13.3,"dewp":7.2,"wdir":330,"wspd":5,"visib":"10+","altim":1020.4,"slp":1019.8,"qcField":5,"metarType":"METAR","rawOb":"METAR KSTS 131653Z COR 33005KT 10SM FEW040 13/07 A3013 RMK AO2 SLP198 T01330072","lat":38.5037,"lon":-122.811,"elev":35,"name":"Santa Rosa/Schulz Arpt, CA, US","cover":"FEW","clouds":[{"cover":"FEW","base":4000}],"fltCat":"VFR"},{"icaoId":"KDCA","receiptTime":"2026-04-13T16:57:12.556Z","obsTime":1776099120,"reportTime":"2026-04-13T17:00:00.000Z","temp":23.9,"dewp":13.9,"wdir":210,"wspd":13,"wgst":19,"visib":"10+","altim":1019.7,"slp":1019.5,"qcField":4,"wxString":"-RA","precip":0.005,"metarType":"METAR","rawOb":"METAR KDCA 131652Z 21013G19KT 10SM -RA FEW065 BKN090 OVC110 24/14 A3011 RMK AO2 RAB06 SLP195 P0000 T02390139","lat":38.8472,"lon":-77.0345,"elev":4,"name":"Washington/Reagan-National Arpt, VA, US","cover":"OVC","clouds":[{"cover":"FEW","base":6500},{"cover":"BKN","base":9000},{"cover":"OVC","base":11000}],"fltCat":"VFR"},{"icaoId":"KIAD","receiptTime":"2026-04-13T16:57:14.711Z","obsTime":1776099120,"reportTime":"2026-04-13T17:00:00.000Z","temp":23.3,"dewp":13.3,"wdir":200,"wspd":14,"wgst":21,"visib":"10+","altim":1019.7,"slp":1019.4,"qcField":4,"precip":0.005,"metarType":"METAR","rawOb":"METAR KIAD 131652Z 20014G21KT 10SM SCT130 BKN200 BKN250 23/13 A3011 RMK AO2 RAE19 SLP194 P0000 T02330133","lat":38.9348,"lon":-77.4473,"elev":90,"name":"Washington/Dulles Intl, VA, US","cover":"BKN","clouds":[{"cover":"SCT","base":13000},{"cover":"BKN","base":20000},{"cover":"BKN","base":25000}],"fltCat":"VFR"},{"icaoId":"KOKC","receiptTime":"2026-04-13T16:57:15.089Z","obsTime":1776099120,"reportTime":"2026-04-13T17:00:00.000Z","temp":25.6,"dewp":19.4,"wdir":190,"wspd":19,"wgst":26,"visib":"10+","altim":1014.3,"slp":1012.9,"qcField":4,"metarType":"METAR","rawOb":"METAR KOKC 131652Z 19019G26KT 10SM SCT025 BKN032 BKN250 26/19 A2995 RMK AO2 PK WND 20028/1626 SLP129 T02560194","lat":35.3843,"lon":-97.6003,"elev":391,"name":"Oklahoma City/Will Rogers Intl, OK, US","cover":"BKN","clouds":[{"cover":"SCT","base":2500},{"cover":"BKN","base":3200},{"cover":"BKN","base":25000}],"fltCat":"VFR"},{"icaoId":"KCLT","receiptTime":"2026-04-13T16:57:12.461Z","obsTime":1776099120,"reportTime":"2026-04-13T17:00:00.000Z","temp":23.9,"dewp":13.9,"wdir":210,"wspd":8,"visib":"10+","altim":1026.5,"slp":1027.2,"qcField":4,"metarType":"METAR","rawOb":"METAR KCLT 131652Z 21008KT 10SM FEW200 BKN250 24/14 A3031 RMK AO2 SLP272 T02390139","lat":35.2225,"lon":-80.9543,"elev":223,"name":"Charlotte/Douglas Intl, NC, US","cover":"BKN","clouds":[{"cover":"FEW","base":20000},{"cover":"BKN","base":25000}],"fltCat":"VFR"},{"icaoId":"KATL","receiptTime":"2026-04-13T16:57:15.585Z","obsTime":1776099120,"reportTime":"2026-04-13T17:00:00.000Z","temp":24.4,"dewp":11.7,"wdir":220,"wspd":10,"visib":"10+","altim":1027.2,"slp":1026.4,"qcField":4,"metarType":"METAR","rawOb":"METAR KATL 131652Z 22010KT 10SM FEW140 BKN200 BKN250 24/12 A3033 RMK AO2 SLP264 ACC DSNT N T02440117","lat":33.6297,"lon":-84.4422,"elev":309,"name":"Atlanta/Hartsfield-Jackson Intl, GA, US","cover":"BKN","clouds":[{"cover":"FEW","base":14000},{"cover":"BKN","base":20000},{"cover":"BKN","base":25000}],"fltCat":"VFR"},{"icaoId":"KABI","receiptTime":"2026-04-13T16:57:04.238Z","obsTime":1776099120,"reportTime":"2026-04-13T17:00:00.000Z","temp":26.1,"dewp":19.4,"wdir":210,"wspd":15,"wgst":23,"visib":"10+","altim":1017.7,"slp":1015.2,"qcField":4,"metarType":"METAR","rawOb":"METAR KABI 131652Z 21015G23KT 10SM CLR 26/19 A3005 RMK AO2 SLP152 T02610194","lat":32.4106,"lon":-99.6821,"elev":543,"name":"Abilene Rgnl, TX, US","cover":"CLR","clouds":[],"fltCat":"VFR"},{"icaoId":"KTRM","receiptTime":"2026-04-13T17:00:24.898Z","obsTime":1776099120,"reportTime":"2026-04-13T17:00:00.000Z","temp":21.7,"dewp":2.2,"wdir":180,"wspd":6,"visib":"10+","altim":1015,"slp":1014.9,"qcField":46,"metarType":"METAR","rawOb":"METAR KTRM 131652Z AUTO 18006KT 10SM CLR 22/02 A2997 RMK AO2 SLP149 T02170022 TSNO $","lat":33.6317,"lon":-116.1641,"elev":-39,"name":"Thermal Arpt, CA, US","cover":"CLR","clouds":[],"fltCat":"VFR"},{"icaoId":"KSPS","receiptTime":"2026-04-13T16:57:04.171Z","obsTime":1776099120,"reportTime":"2026-04-13T17:00:00.000Z","temp":28.3,"dewp":20,"wdir":200,"wspd":21,"wgst":27,"visib":"10+","altim":1015,"slp":1013.7,"qcField":4,"metarType":"METAR","rawOb":"METAR KSPS 131652Z 20021G27KT 10SM SCT031 28/20 A2997 RMK AO2 PK WND 21030/1640 SLP137 T02830200","lat":33.9785,"lon":-98.493,"elev":310,"name":"Wichita Falls Rgnl, TX, US","cover":"SCT","clouds":[{"cover":"SCT","base":3100}],"fltCat":"VFR"},{"icaoId":"KMKE","receiptTime":"2026-04-13T16:57:14.984Z","obsTime":1776099120,"reportTime":"2026-04-13T17:00:00.000Z","temp":23.3,"dewp":16.1,"wdir":230,"wspd":11,"visib":"10+","altim":1011.6,"slp":1011.2,"qcField":4,"metarType":"METAR","rawOb":"METAR KMKE 131652Z 23011KT 10SM FEW019 SCT250 23/16 A2987 RMK AO2 SLP112 T02330161","lat":42.9549,"lon":-87.9045,"elev":203,"name":"Milwaukee/Mitchell Intl, WI, US","cover":"SCT","clouds":[{"cover":"FEW","base":1900},{"cover":"SCT","base":25000}],"fltCat":"VFR"},{"icaoId":"KCVG","receiptTime":"2026-04-13T16:57:12.539Z","obsTime":1776099120,"reportTime":"2026-04-13T17:00:00.000Z","temp":22.8,"dewp":14.4,"wdir":210,"wspd":12,"wgst":22,"visib":"10+","altim":1019.4,"slp":1018.4,"qcField":4,"metarType":"METAR","rawOb":"METAR KCVG 131652Z 21012G22KT 10SM BKN040 OVC055 23/14 A3010 RMK AO2 PK WND 23028/1613 SLP184 BINOVC OHD-S T02280144","lat":39.0444,"lon":-84.6724,"elev":264,"name":"Cincinnati Intl, KY, US","cover":"OVC","clouds":[{"cover":"BKN","base":4000},{"cover":"OVC","base":5500}],"fltCat":"VFR"},{"icaoId":"KABQ","receiptTime":"2026-04-13T16:57:04.252Z","obsTime":1776099120,"reportTime":"2026-04-13T17:00:00.000Z","temp":15.6,"dewp":0.6,"wdir":230,"wspd":5,"visib":"10+","altim":1020.4,"slp":1014.2,"qcField":4,"metarType":"METAR","rawOb":"METAR KABQ 131652Z 23005KT 10SM FEW060 OVC110 16/01 A3013 RMK AO2 SLP142 T01560006","lat":35.0419,"lon":-106.6154,"elev":1620,"name":"Albuquerque Intl, NM, US","cover":"OVC","clouds":[{"cover":"FEW","base":6000},{"cover":"OVC","base":11000}],"fltCat":"VFR"},{"icaoId":"KMLF","receiptTime":"2026-04-13T16:57:04.156Z","obsTime":1776099120,"reportTime":"2026-04-13T17:00:00.000Z","temp":10,"dewp":-1.1,"wdir":40,"wspd":3,"visib":"10+","altim":1015.7,"slp":1012.9,"qcField":6,"precip":0.005,"metarType":"METAR","rawOb":"METAR KMLF 131652Z AUTO 04003KT 10SM FEW043 BKN060 OVC100 10/M01 A2999 RMK AO2 RAB30E39 SLP129 P0000 T01001011","lat":38.4225,"lon":-113.0109,"elev":1537,"name":"Milford Muni, UT, US","cover":"OVC","clouds":[{"cover":"FEW","base":4300},{"cover":"BKN","base":6000},{"cover":"OVC","base":10000}],"fltCat":"VFR"},{"icaoId":"KCMH","receiptTime":"2026-04-13T16:54:09.032Z","obsTime":1776099060,"reportTime":"2026-04-13T17:00:00.000Z","temp":25.6,"dewp":14.4,"wdir":240,"wspd":12,"visib":"10+","altim":1018,"slp":1017.2,"qcField":4,"metarType":"METAR","rawOb":"METAR KCMH 131651Z 24012KT 10SM BKN048 BKN055 26/14 A3006 RMK AO2 PK WND 25027/1553 SLP172 T02560144","lat":39.9907,"lon":-82.877,"elev":257,"name":"Columbus/Glenn Intl, OH, US","cover":"BKN","clouds":[{"cover":"BKN","base":4800},{"cover":"BKN","base":5500}],"fltCat":"VFR"},{"icaoId":"KORD","receiptTime":"2026-04-13T16:54:10.541Z","obsTime":1776099060,"reportTime":"2026-04-13T17:00:00.000Z","temp":21.7,"dewp":17.8,"wdir":210,"wspd":12,"wgst":18,"visib":"10+","altim":1013,"slp":1012.7,"qcField":4,"metarType":"METAR","rawOb":"METAR KORD 131651Z 21012G18KT 10SM SCT016 OVC027 22/18 A2991 RMK AO2 SLP127 T02170178","lat":41.9602,"lon":-87.9316,"elev":202,"name":"Chicago/O'Hare Intl, IL, US","cover":"OVC","clouds":[{"cover":"SCT","base":1600},{"cover":"OVC","base":2700}],"fltCat":"MVFR"},{"icaoId":"KPIT","receiptTime":"2026-04-13T16:54:09.295Z","obsTime":1776099060,"reportTime":"2026-04-13T17:00:00.000Z","temp":24.4,"dewp":12.2,"wdir":250,"wspd":13,"wgst":28,"visib":"10+","altim":1017.4,"slp":1016.9,"qcField":4,"metarType":"METAR","rawOb":"METAR KPIT 131651Z 25013G28KT 10SM BKN050 BKN070 BKN250 24/12 A3004 RMK AO2 PK WND 24029/1636 SLP169 T02440122","lat":40.4814,"lon":-80.2083,"elev":339,"name":"Pittsburgh Intl, PA, US","cover":"BKN","clouds":[{"cover":"BKN","base":5000},{"cover":"BKN","base":7000},{"cover":"BKN","base":25000}],"fltCat":"VFR"},{"icaoId":"KPHX","receiptTime":"2026-04-13T16:54:09.269Z","obsTime":1776099060,"reportTime":"2026-04-13T17:00:00.000Z","temp":21.1,"dewp":7.2,"wdir":0,"wspd":0,"visib":"10+","altim":1015,"slp":1013.4,"qcField":12,"metarType":"METAR","rawOb":"METAR KPHX 131651Z 00000KT 10SM FEW065 BKN140 BKN250 21/07 A2997 RMK AO2 SLP134 T02110072 $","lat":33.4278,"lon":-112.0037,"elev":338,"name":"Phoenix/Sky Harbor Intl, AZ, US","cover":"BKN","clouds":[{"cover":"FEW","base":6500},{"cover":"BKN","base":14000},{"cover":"BKN","base":25000}],"fltCat":"VFR"},{"icaoId":"KLGU","receiptTime":"2026-04-13T16:54:09.209Z","obsTime":1776099060,"reportTime":"2026-04-13T17:00:00.000Z","temp":6.7,"dewp":0.6,"wdir":350,"wspd":6,"visib":9,"altim":1016.7,"slp":1016.1,"qcField":6,"wxString":"-RA","precip":0.01,"metarType":"METAR","rawOb":"METAR KLGU 131651Z AUTO 35006KT 9SM -RA BKN037 OVC047 07/01 A3002 RMK AO2 RAB33 SLP161 P0001 T00670006","lat":41.7865,"lon":-111.8519,"elev":1359,"name":"Logan/Cache Arpt, UT, US","cover":"OVC","clouds":[{"cover":"BKN","base":3700},{"cover":"OVC","base":4700}],"fltCat":"VFR"},{"icaoId":"KJFK","receiptTime":"2026-04-13T16:54:09.162Z","obsTime":1776099060,"reportTime":"2026-04-13T17:00:00.000Z","temp":15,"dewp":10.6,"wdir":170,"wspd":10,"visib":"10+","altim":1017,"slp":1016.9,"qcField":4,"metarType":"METAR","rawOb":"METAR KJFK 131651Z 17010KT 10SM SCT190 BKN250 15/11 A3003 RMK AO2 SLP169 T01500106","lat":40.6392,"lon":-73.7639,"elev":3,"name":"New York/JF Kennedy Intl, NY, US","cover":"BKN","clouds":[{"cover":"SCT","base":19000},{"cover":"BKN","base":25000}],"fltCat":"VFR"},{"icaoId":"KROW","receiptTime":"2026-04-13T16:54:08.463Z","obsTime":1776099060,"reportTime":"2026-04-13T17:00:00.000Z","temp":24.4,"dewp":2.2,"wdir":200,"wspd":10,"wgst":17,"visib":"10+","altim":1018,"slp":1012.2,"qcField":4,"metarType":"METAR","rawOb":"METAR KROW 131651Z 20010G17KT 10SM CLR 24/02 A3006 RMK AO2 SLP122 T02440022","lat":33.3074,"lon":-104.5082,"elev":1105,"name":"Roswell/Ind Arpt, NM, US","cover":"CLR","clouds":[],"fltCat":"VFR"},{"icaoId":"KCRP","receiptTime":"2026-04-13T16:54:08.415Z","obsTime":1776099060,"reportTime":"2026-04-13T17:00:00.000Z","temp":28.3,"dewp":22.2,"wdir":160,"wspd":18,"visib":"10+","altim":1019,"slp":1018.9,"qcField":4,"metarType":"METAR","rawOb":"METAR KCRP 131651Z 16018KT 10SM SCT021 BKN032 BKN055 28/22 A3009 RMK AO2 PK WND 16027/1558 SLP189 T02830222","lat":27.7734,"lon":-97.513,"elev":11,"name":"Corpus Christi Intl, TX, US","cover":"BKN","clouds":[{"cover":"SCT","base":2100},{"cover":"BKN","base":3200},{"cover":"BKN","base":5500}],"fltCat":"VFR"},{"icaoId":"KACT","receiptTime":"2026-04-13T16:54:08.952Z","obsTime":1776099060,"reportTime":"2026-04-13T17:00:00.000Z","temp":25,"dewp":21.1,"wdir":170,"wspd":12,"visib":"10+","altim":1019,"slp":1018.3,"qcField":4,"metarType":"METAR","rawOb":"METAR KACT 131651Z 17012KT 10SM FEW018 SCT027 OVC032 25/21 A3009 RMK AO2 SLP183 T02500211","lat":31.618,"lon":-97.2283,"elev":150,"name":"Waco Rgnl, TX, US","cover":"OVC","clouds":[{"cover":"FEW","base":1800},{"cover":"SCT","base":2700},{"cover":"OVC","base":3200}],"fltCat":"VFR"},{"icaoId":"KORF","receiptTime":"2026-04-13T16:54:08.232Z","obsTime":1776099060,"reportTime":"2026-04-13T17:00:00.000Z","temp":27.2,"dewp":13.3,"wdir":230,"wspd":18,"wgst":28,"visib":"10+","altim":1023.5,"slp":1023.2,"qcField":4,"wxString":"-RA","precip":0.005,"metarType":"METAR","rawOb":"METAR KORF 131651Z 23018G28KT 10SM -RA CLR 27/13 A3022 RMK AO2 PK WND 22029/1630 RAB32 SLP232 P0000 T02720133","lat":36.9037,"lon":-76.1927,"elev":5,"name":"Norfolk Intl, VA, US","cover":"CLR","clouds":[],"fltCat":"VFR"},{"icaoId":"KBDL","receiptTime":"2026-04-13T16:54:07.273Z","obsTime":1776099060,"reportTime":"2026-04-13T17:00:00.000Z","temp":17.2,"dewp":11.1,"wdir":180,"wspd":16,"visib":"10+","altim":1014.3,"slp":1014.2,"qcField":4,"metarType":"METAR","rawOb":"METAR KBDL 131651Z 18016KT 10SM FEW020 SCT150 BKN250 17/11 A2995 RMK AO2 SLP142 T01720111","lat":41.9374,"lon":-72.682,"elev":52,"name":"Hartford/Bradley Intl, CT, US","cover":"BKN","clouds":[{"cover":"FEW","base":2000},{"cover":"SCT","base":15000},{"cover":"BKN","base":25000}],"fltCat":"VFR"},{"icaoId":"KSAN","receiptTime":"2026-04-13T16:54:08.645Z","obsTime":1776099060,"reportTime":"2026-04-13T17:00:00.000Z","temp":17.2,"dewp":10,"wdir":290,"wspd":9,"visib":"10+","altim":1019,"slp":1018.8,"qcField":12,"metarType":"METAR","rawOb":"METAR KSAN 131651Z 29009KT 10SM SCT034 BKN070 17/10 A3009 RMK AO2 SLP188 T01720100 $","lat":32.7364,"lon":-117.1973,"elev":3,"name":"San Diego Intl Arpt, CA, US","cover":"BKN","clouds":[{"cover":"SCT","base":3400},{"cover":"BKN","base":7000}],"fltCat":"VFR"},{"icaoId":"KVNY","receiptTime":"2026-04-13T16:54:09.438Z","obsTime":1776099060,"reportTime":"2026-04-13T17:00:00.000Z","temp":15,"dewp":6.7,"wdir":140,"wspd":3,"visib":"10+","altim":1017.4,"slp":1016.9,"qcField":12,"metarType":"METAR","rawOb":"METAR KVNY 131651Z 14003KT 10SM CLR 15/07 A3004 RMK AO2 SLP169 T01500067 $","lat":34.2121,"lon":-118.4915,"elev":241,"name":"Van Nuys Arpt, CA, US","cover":"CLR","clouds":[],"fltCat":"VFR"},{"icaoId":"KPVD","receiptTime":"2026-04-13T16:54:08.263Z","obsTime":1776099060,"reportTime":"2026-04-13T17:00:00.000Z","temp":15,"dewp":11.7,"wdir":230,"wspd":11,"visib":"10+","altim":1016.3,"slp":1016.1,"qcField":4,"metarType":"METAR","rawOb":"METAR KPVD 131651Z 23011KT 10SM OVC013 15/12 A3001 RMK AO2 SLP161 T01500117","lat":41.7225,"lon":-71.4325,"elev":15,"name":"Providence/Green Mem, RI, US","cover":"OVC","clouds":[{"cover":"OVC","base":1300}],"fltCat":"MVFR"},{"icaoId":"KIGM","receiptTime":"2026-04-13T16:54:07.463Z","obsTime":1776099060,"reportTime":"2026-04-13T17:00:00.000Z","temp":15.6,"dewp":0,"wdir":190,"wspd":20,"wgst":31,"visib":"10+","altim":1015.7,"slp":1010.6,"qcField":6,"metarType":"METAR","rawOb":"METAR KIGM 131651Z AUTO 19020G31KT 10SM SCT060 16/00 A2999 RMK AO2 PK WND 23031/1643 SLP106 T01560000","lat":35.2575,"lon":-113.9341,"elev":1045,"name":"Kingman Arpt, AZ, US","cover":"SCT","clouds":[{"cover":"SCT","base":6000}],"fltCat":"VFR"},{"icaoId":"KOXR","receiptTime":"2026-04-13T16:54:08.616Z","obsTime":1776099060,"reportTime":"2026-04-13T17:00:00.000Z","temp":16.1,"dewp":8.9,"wdir":"VRB","wspd":3,"visib":"10+","altim":1017.7,"slp":1017.6,"qcField":4,"metarType":"METAR","rawOb":"METAR KOXR 131651Z VRB03KT 10SM CLR 16/09 A3005 RMK AO2 SLP176 T01610089","lat":34.2001,"lon":-119.2042,"elev":12,"name":"Oxnard Arpt, CA, US","cover":"CLR","clouds":[],"fltCat":"VFR"},{"icaoId":"KCLE","receiptTime":"2026-04-13T16:54:09.013Z","obsTime":1776099060,"reportTime":"2026-04-13T17:00:00.000Z","temp":23.9,"dewp":16.1,"wdir":260,"wspd":16,"wgst":29,"visib":"10+","altim":1015.3,"slp":1016.1,"qcField":12,"metarType":"METAR","rawOb":"METAR KCLE 131651Z 26016G29KT 10SM SCT039 BKN050 24/16 A2998 RMK AO2 PK WND 26031/1604 SLP161 T02390161 $","lat":41.4057,"lon":-81.8519,"elev":237,"name":"Cleveland/Hopkins Intl, OH, US","cover":"BKN","clouds":[{"cover":"SCT","base":3900},{"cover":"BKN","base":5000}],"fltCat":"VFR"},{"icaoId":"KLGA","receiptTime":"2026-04-13T16:54:09.187Z","obsTime":1776099060,"reportTime":"2026-04-13T17:00:00.000Z","temp":22.2,"dewp":13.9,"wdir":230,"wspd":8,"visib":"10+","altim":1016,"slp":1015.9,"qcField":12,"metarType":"METAR","rawOb":"METAR KLGA 131651Z 23008KT 10SM FEW050 BKN190 BKN250 22/14 A3000 RMK AO2 SLP159 T02220139 $","lat":40.7794,"lon":-73.8803,"elev":9,"name":"New York/La Guardia Arpt, NY, US","cover":"BKN","clouds":[{"cover":"FEW","base":5000},{"cover":"BKN","base":19000},{"cover":"BKN","base":25000}],"fltCat":"VFR"},{"icaoId":"KSTL","receiptTime":"2026-04-13T16:54:10.570Z","obsTime":1776099060,"reportTime":"2026-04-13T17:00:00.000Z","temp":25.6,"dewp":17.2,"wdir":210,"wspd":14,"visib":"10+","altim":1015.7,"slp":1014.6,"qcField":12,"metarType":"METAR","rawOb":"METAR KSTL 131651Z 21014KT 10SM BKN037 26/17 A2999 RMK AO2 SLP146 T02560172 $","lat":38.7525,"lon":-90.3734,"elev":163,"name":"St Louis/Lambert Intl, MO, US","cover":"BKN","clouds":[{"cover":"BKN","base":3700}],"fltCat":"VFR"},{"icaoId":"KSAD","receiptTime":"2026-04-13T16:54:07.549Z","obsTime":1776099060,"reportTime":"2026-04-13T17:00:00.000Z","temp":22.2,"dewp":2.2,"wdir":150,"wspd":11,"visib":"10+","altim":1017.4,"slp":1013.5,"qcField":6,"metarType":"METAR","rawOb":"METAR KSAD 131651Z AUTO 15011KT 10SM FEW100 22/02 A3004 RMK AO2 SLP135 T02220022","lat":32.8565,"lon":-109.636,"elev":937,"name":"Safford Rgnl, AZ, US","cover":"FEW","clouds":[{"cover":"FEW","base":10000}],"fltCat":"VFR"},{"icaoId":"KRDU","receiptTime":"2026-04-13T16:54:09.343Z","obsTime":1776099060,"reportTime":"2026-04-13T17:00:00.000Z","temp":27.2,"dewp":10,"wdir":220,"wspd":18,"wgst":26,"visib":"10+","altim":1025.8,"slp":1025.4,"qcField":4,"metarType":"METAR","rawOb":"METAR KRDU 131651Z 22018G26KT 10SM FEW200 BKN250 27/10 A3029 RMK AO2 PK WND 22027/1625 SLP254 T02720100","lat":35.8923,"lon":-78.782,"elev":121,"name":"Raleigh-Durham Intl, NC, US","cover":"BKN","clouds":[{"cover":"FEW","base":20000},{"cover":"BKN","base":25000}],"fltCat":"VFR"},{"icaoId":"KEWR","receiptTime":"2026-04-13T16:54:09.074Z","obsTime":1776099060,"reportTime":"2026-04-13T17:00:00.000Z","temp":23.3,"dewp":13.9,"wdir":220,"wspd":13,"visib":"10+","altim":1016,"slp":1015.8,"qcField":4,"metarType":"METAR","rawOb":"METAR KEWR 131651Z 22013KT 10SM SCT100 BKN210 BKN250 23/14 A3000 RMK AO2 SLP158 T02330139","lat":40.6828,"lon":-74.1692,"elev":2,"name":"Newark Intl, NJ, US","cover":"BKN","clouds":[{"cover":"SCT","base":10000},{"cover":"BKN","base":21000},{"cover":"BKN","base":25000}],"fltCat":"VFR"},{"icaoId":"KSAT","receiptTime":"2026-04-13T16:54:08.485Z","obsTime":1776099060,"reportTime":"2026-04-13T17:00:00.000Z","temp":26.7,"dewp":20,"wdir":170,"wspd":11,"visib":"10+","altim":1019.4,"slp":1017.6,"qcField":12,"metarType":"METAR","rawOb":"METAR KSAT 131651Z 17011KT 10SM SCT028 BKN034 BKN250 27/20 A3010 RMK AO2 SLP176 T02670200 $","lat":29.5443,"lon":-98.4839,"elev":246,"name":"San Antonio Intl, TX, US","cover":"BKN","clouds":[{"cover":"SCT","base":2800},{"cover":"BKN","base":3400},{"cover":"BKN","base":25000}],"fltCat":"VFR"},{"icaoId":"KELP","receiptTime":"2026-04-13T16:54:08.428Z","obsTime":1776099060,"reportTime":"2026-04-13T17:00:00.000Z","temp":25,"dewp":0.6,"wdir":220,"wspd":15,"wgst":24,"visib":"10+","altim":1020.4,"slp":1013.4,"qcField":4,"metarType":"METAR","rawOb":"METAR KELP 131651Z 22015G24KT 10SM SCT160 BKN250 25/01 A3013 RMK AO2 SLP134 ACSL DSNT N-NE T02500006","lat":31.8123,"lon":-106.3774,"elev":1205,"name":"El Paso Intl, TX, US","cover":"BKN","clouds":[{"cover":"SCT","base":16000},{"cover":"BKN","base":25000}],"fltCat":"VFR"},{"icaoId":"KHOB","receiptTime":"2026-04-13T16:51:14.013Z","obsTime":1776099000,"reportTime":"2026-04-13T17:00:00.000Z","temp":27,"dewp":0,"wdir":220,"wspd":16,"wgst":26,"visib":"10+","altim":1019.7,"qcField":0,"metarType":"METAR","rawOb":"METAR KHOB 131650Z 22016G26KT 10SM CLR 27/M00 A3011","lat":32.6797,"lon":-103.2222,"elev":1112,"name":"Hobbs Arpt, NM, US","cover":"CLR","clouds":[],"fltCat":"VFR"},{"icaoId":"KIWA","receiptTime":"2026-04-13T16:53:06.651Z","obsTime":1776099000,"reportTime":"2026-04-13T17:00:00.000Z","temp":22,"dewp":7,"wdir":200,"wspd":11,"wgst":17,"visib":"10+","altim":1016,"qcField":0,"metarType":"METAR","rawOb":"METAR KIWA 131650Z 20011G17KT 10SM CLR 22/07 A3000","lat":33.3008,"lon":-111.6437,"elev":420,"name":"Phoenix/Mesa Gateway Arpt, AZ, US","cover":"CLR","clouds":[],"fltCat":"VFR"},{"icaoId":"KBJC","receiptTime":"2026-04-13T16:47:22.082Z","obsTime":1776098820,"reportTime":"2026-04-13T17:00:00.000Z","temp":18,"dewp":-10,"wdir":250,"wspd":4,"visib":"10+","altim":1012.6,"qcField":0,"metarType":"METAR","rawOb":"METAR KBJC 131647Z 25004KT 10SM CLR 18/M10 A2990","lat":39.9008,"lon":-105.1042,"elev":1694,"name":"Rocky Mtn Metro, CO, US","cover":"CLR","clouds":[],"fltCat":"VFR"},{"icaoId":"KCHD","receiptTime":"2026-04-13T16:50:32.849Z","obsTime":1776098820,"reportTime":"2026-04-13T17:00:00.000Z","temp":22,"dewp":7,"wdir":190,"wspd":10,"visib":"10+","altim":1015.7,"qcField":0,"metarType":"METAR","rawOb":"METAR KCHD 131647Z 19010KT 10SM OVC130 22/07 A2999","lat":33.2669,"lon":-111.8086,"elev":378,"name":"Chandler Muni, AZ, US","cover":"OVC","clouds":[{"cover":"OVC","base":13000}],"fltCat":"VFR"},{"icaoId":"KAEG","receiptTime":"2026-04-13T16:49:14.806Z","obsTime":1776098820,"reportTime":"2026-04-13T17:00:00.000Z","temp":14,"dewp":0,"wdir":220,"wspd":9,"visib":"10+","altim":1021.1,"qcField":0,"metarType":"METAR","rawOb":"METAR KAEG 131647Z 22009KT 10SM OVC110 14/00 A3015","lat":35.15,"lon":-106.7929,"elev":1771,"name":"Albuquerque/Double Eagle Arpt, NM, US","cover":"OVC","clouds":[{"cover":"OVC","base":11000}],"fltCat":"VFR"},{"icaoId":"KSUN","receiptTime":"2026-04-13T16:52:33.565Z","obsTime":1776098820,"reportTime":"2026-04-13T17:00:00.000Z","temp":2,"dewp":0,"wdir":110,"wspd":8,"visib":1.5,"altim":1015,"qcField":0,"wxString":"-SN BR","metarType":"METAR","rawOb":"METAR KSUN 131647Z 11008KT 1 1/2SM -SNBR BKN014 OVC023 02/00 A2997","lat":43.4969,"lon":-114.2923,"elev":1619,"name":"Hailey/Friedman Mem, ID, US","cover":"OVC","clouds":[{"cover":"BKN","base":1400},{"cover":"OVC","base":2300}],"fltCat":"IFR"},{"icaoId":"KIFP","receiptTime":"2026-04-13T16:50:32.977Z","obsTime":1776098820,"reportTime":"2026-04-13T17:00:00.000Z","temp":20,"dewp":2,"wdir":170,"wspd":10,"visib":"10+","altim":1014.3,"qcField":0,"metarType":"METAR","rawOb":"METAR KIFP 131647Z 17010KT 10SM CLR 20/02 A2995","lat":35.1487,"lon":-114.5611,"elev":210,"name":"Bullhead City Intl, AZ, US","cover":"CLR","clouds":[],"fltCat":"VFR"},{"icaoId":"KGEU","receiptTime":"2026-04-13T16:49:15.449Z","obsTime":1776098820,"reportTime":"2026-04-13T17:00:00.000Z","temp":21,"dewp":6,"wdir":240,"wspd":6,"visib":"10+","altim":1014.6,"qcField":0,"metarType":"METAR","rawOb":"METAR KGEU 131647Z 24006KT 10SM SCT170 BKN190 21/06 A2996","lat":33.528,"lon":-112.293,"elev":319,"name":"Glendale Muni, AZ, US","cover":"BKN","clouds":[{"cover":"SCT","base":17000},{"cover":"BKN","base":19000}],"fltCat":"VFR"},{"icaoId":"KGYR","receiptTime":"2026-04-13T16:51:43.103Z","obsTime":1776098820,"reportTime":"2026-04-13T17:00:00.000Z","temp":21,"dewp":8,"wdir":240,"wspd":7,"visib":"10+","altim":1015.7,"qcField":0,"metarType":"METAR","rawOb":"METAR KGYR 131647Z 24007KT 10SM SCT065 BKN180 OVC250 21/08 A2999","lat":33.428,"lon":-112.368,"elev":292,"name":"Phoenix/Goodyear Muni, AZ, US","cover":"OVC","clouds":[{"cover":"SCT","base":6500},{"cover":"BKN","base":18000},{"cover":"OVC","base":25000}],"fltCat":"VFR"}]