[{"icaoId":"KRYN","receiptTime":"2026-04-10T00:46:46.368Z","obsTime":1775781900,"reportTime":"2026-04-10T01:00:00.000Z","temp":32,"dewp":-6,"wdir":240,"wspd":13,"visib":"10+","altim":1011.3,"qcField":0,"metarType":"METAR","rawOb":"METAR KRYN 100045Z 24013KT 10SM CLR 32/M06 A2986","lat":32.1418,"lon":-111.1767,"elev":731,"name":"Tucson/Ryan Fld, AZ, US","cover":"CLR","clouds":[],"fltCat":"VFR"},{"icaoId":"KHII","receiptTime":"2026-04-10T00:40:26.892Z","obsTime":1775781300,"reportTime":"2026-04-10T00:35:00.000Z","temp":33,"dewp":-4,"wdir":200,"wspd":8,"visib":"10+","altim":1008.2,"qcField":6,"metarType":"METAR","rawOb":"METAR KHII 100035Z AUTO 20008KT 10SM CLR 33/M04 A2977 RMK AO2","lat":34.5659,"lon":-114.3522,"elev":241,"name":"Lake Havasu City Arpt, AZ, US","cover":"CLR","clouds":[],"fltCat":"VFR"},{"icaoId":"KSOW","receiptTime":"2026-04-10T00:38:14.626Z","obsTime":1775781300,"reportTime":"2026-04-10T00:35:00.000Z","temp":20,"dewp":-5,"wdir":220,"wspd":13,"wgst":19,"visib":"10+","altim":1020.1,"qcField":6,"metarType":"METAR","rawOb":"METAR KSOW 100035Z AUTO 22013G19KT 10SM CLR 20/M05 A3012 RMK AO2","lat":34.2686,"lon":-110.0019,"elev":1954,"name":"Show Low Muni, AZ, US","cover":"CLR","clouds":[],"fltCat":"VFR"},{"icaoId":"KSEZ","receiptTime":"2026-04-10T00:40:16.978Z","obsTime":1775781300,"reportTime":"2026-04-10T00:35:00.000Z","temp":23,"dewp":-8,"wdir":180,"wspd":10,"wgst":17,"visib":"10+","altim":1016.7,"qcField":6,"metarType":"METAR","rawOb":"METAR KSEZ 100035Z AUTO 18010G17KT 10SM CLR 23/M08 A3002 RMK AO2","lat":34.8467,"lon":-111.7884,"elev":1455,"name":"Sedona Arpt, AZ, US","cover":"CLR","clouds":[],"fltCat":"VFR"},{"icaoId":"KLUF","receiptTime":"2026-04-10T00:02:06.854Z","obsTime":1775779020,"reportTime":"2026-04-09T23:57:00.000Z","temp":35,"dewp":-8,"wdir":230,"wspd":17,"wgst":20,"visib":"10+","altim":1008.5,"slp":1007.1,"qcField":14,"metarType":"SPECI","rawOb":"SPECI KLUF 092357Z AUTO 23017G20KT 10SM CLR 35/M08 A2978 RMK AO2 WSHFT 53 SLP071 $","lat":33.538,"lon":-112.38,"elev":333,"name":"Phoenix/Luke AFB, AZ, US","cover":"CLR","clouds":[],"fltCat":"VFR"},{"icaoId":"KNYL","receiptTime":"2026-04-10T00:42:06.039Z","obsTime":1775779020,"reportTime":"2026-04-10T00:00:00.000Z","temp":33.3,"dewp":3.3,"wdir":220,"wspd":5,"visib":"10+","altim":1008.5,"slp":1008,"qcField":4,"presTend":-1.7,"maxT":34.4,"minT":28.3,"metarType":"METAR","rawOb":"METAR KNYL 092357Z 22005KT 10SM BKN180 33/03 A2978 RMK AO2 SLP080 T03330033 10344 20283 56017","lat":32.66,"lon":-114.6078,"elev":58,"name":"Yuma , AZ, US","cover":"BKN","clouds":[{"cover":"BKN","base":18000}],"fltCat":"VFR"},{"icaoId":"KFLG","receiptTime":"2026-04-10T00:00:28.265Z","obsTime":1775779020,"reportTime":"2026-04-10T00:00:00.000Z","temp":16.7,"dewp":-10.6,"wdir":190,"wspd":14,"wgst":23,"visib":"10+","altim":1020.4,"slp":1014.2,"qcField":12,"presTend":-0.6,"maxT":20,"minT":16.7,"metarType":"METAR","rawOb":"METAR KFLG 092357Z 19014G23KT 10SM CLR 17/M11 A3013 RMK AO2 PK WND 21028/2301 SLP142 T01671106 10200 20167 56006 $","lat":35.1443,"lon":-111.6664,"elev":2134,"name":"Flagstaff/Pulliam Arpt, AZ, US","cover":"CLR","clouds":[],"fltCat":"VFR"},{"icaoId":"KCGZ","receiptTime":"2026-04-09T23:58:25.965Z","obsTime":1775778960,"reportTime":"2026-04-10T00:00:00.000Z","temp":33.3,"dewp":-2.2,"wdir":"VRB","wspd":3,"visib":"10+","altim":1009.9,"slp":1008.6,"qcField":14,"maxT":35,"minT":30.6,"metarType":"METAR","rawOb":"METAR KCGZ 092356Z AUTO VRB03KT 10SM CLR 33/M02 A2982 RMK AO2 SLP086 6//// T03331022 10350 20306 $","lat":32.9531,"lon":-111.7725,"elev":444,"name":"Casa Granda Muni, AZ, US","cover":"CLR","clouds":[],"fltCat":"VFR"},{"icaoId":"KDUG","receiptTime":"2026-04-10T00:02:10.988Z","obsTime":1775778960,"reportTime":"2026-04-10T00:00:00.000Z","temp":27.8,"dewp":-2.8,"wdir":230,"wspd":3,"visib":"10+","altim":1015,"slp":1009.1,"qcField":38,"presTend":-1.2,"maxT":29.4,"minT":25,"metarType":"METAR","rawOb":"METAR KDUG 092356Z AUTO 23003KT 10SM CLR 28/M03 A2997 RMK AO2 SLP091 T02781028 10294 20250 56012 TSNO","lat":31.4725,"lon":-109.6022,"elev":1260,"name":"Douglas/Bisbee Intl, AZ, US","cover":"CLR","clouds":[],"fltCat":"VFR"},{"icaoId":"KINW","receiptTime":"2026-04-10T00:00:27.478Z","obsTime":1775778960,"reportTime":"2026-04-10T00:00:00.000Z","temp":25.6,"dewp":-3.9,"wdir":220,"wspd":16,"wgst":25,"visib":"10+","altim":1016,"slp":1010.6,"qcField":6,"presTend":-0.8,"maxT":27.2,"minT":22.8,"metarType":"METAR","rawOb":"METAR KINW 092356Z AUTO 22016G25KT 10SM CLR 26/M04 A3000 RMK AO2 SLP106 T02561039 10272 20228 56008","lat":35.0279,"lon":-110.7221,"elev":1492,"name":"Winslow/Lindberg Rgnl, AZ, US","cover":"CLR","clouds":[],"fltCat":"VFR"},{"icaoId":"KGCN","receiptTime":"2026-04-09T23:58:20.423Z","obsTime":1775778840,"reportTime":"2026-04-10T00:00:00.000Z","temp":18.9,"dewp":-7.8,"wdir":200,"wspd":14,"wgst":23,"visib":"10+","altim":1018.7,"slp":1013.7,"qcField":4,"presTend":-0.9,"maxT":21.1,"minT":18.9,"metarType":"METAR","rawOb":"METAR KGCN 092354Z 20014G23KT 10SM CLR 19/M08 A3008 RMK AO2 SLP137 T01891078 10211 20189 56009","lat":35.9458,"lon":-112.1554,"elev":1993,"name":"Grand Canyon Park Arpt, AZ, US","cover":"CLR","clouds":[],"fltCat":"VFR"},{"icaoId":"KOLS","receiptTime":"2026-04-09T23:58:20.471Z","obsTime":1775778840,"reportTime":"2026-04-10T00:00:00.000Z","temp":28.9,"dewp":-3.3,"wdir":200,"wspd":11,"wgst":17,"visib":"10+","altim":1015.3,"slp":1009.3,"qcField":6,"presTend":-0.8,"maxT":30,"minT":26.7,"metarType":"METAR","rawOb":"METAR KOLS 092354Z AUTO 20011G17KT 10SM CLR 29/M03 A2998 RMK AO2 SLP093 T02891033 10300 20267 56008","lat":31.4208,"lon":-110.8465,"elev":1194,"name":"Nogales Intl, AZ, US","cover":"CLR","clouds":[],"fltCat":"VFR"},{"icaoId":"KSJN","receiptTime":"2026-04-09T23:58:23.548Z","obsTime":1775778840,"reportTime":"2026-04-10T00:00:00.000Z","temp":24.4,"dewp":-6.1,"wdir":270,"wspd":11,"wgst":18,"visib":"10+","altim":1016.7,"slp":1009.7,"qcField":6,"presTend":-0.5,"maxT":26.1,"minT":21.1,"metarType":"METAR","rawOb":"METAR KSJN 092354Z AUTO 27011G18KT 10SM BKN120 24/M06 A3002 RMK AO2 PK WND 24026/2328 SLP097 T02441061 10261 20211 56005","lat":34.5184,"lon":-109.3801,"elev":1747,"name":"St Johns Ind Arpt, AZ, US","cover":"BKN","clouds":[{"cover":"BKN","base":12000}],"fltCat":"VFR"},{"icaoId":"KFFZ","receiptTime":"2026-04-09T23:58:17.104Z","obsTime":1775778840,"reportTime":"2026-04-10T00:00:00.000Z","temp":32.8,"dewp":-3.3,"wdir":"VRB","wspd":3,"visib":"10+","altim":1009.6,"slp":1007.1,"qcField":4,"presTend":-1.8,"maxT":33.3,"minT":30,"metarType":"METAR","rawOb":"METAR KFFZ 092354Z VRB03KT 10SM CLR 33/M03 A2981 RMK AO2 SLP071 T03281033 10333 20300 56018","lat":33.4659,"lon":-111.7212,"elev":420,"name":"Mesa/Falcon Fld, AZ, US","cover":"CLR","clouds":[],"fltCat":"VFR"},{"icaoId":"KTUS","receiptTime":"2026-04-09T23:56:29.080Z","obsTime":1775778780,"reportTime":"2026-04-10T00:00:00.000Z","temp":32.2,"dewp":-3.3,"wdir":260,"wspd":9,"wgst":18,"visib":"10+","altim":1012.6,"slp":1007.9,"qcField":4,"presTend":-1.3,"maxT":32.8,"minT":28.3,"metarType":"METAR","rawOb":"METAR KTUS 092353Z 26009G18KT 10SM CLR 32/M03 A2990 RMK AO2 SLP079 T03221033 10328 20283 56013","lat":32.1315,"lon":-110.9564,"elev":776,"name":"Tucson Intl Arpt, AZ, US","cover":"CLR","clouds":[],"fltCat":"VFR"},{"icaoId":"KDVT","receiptTime":"2026-04-09T23:56:31.528Z","obsTime":1775778780,"reportTime":"2026-04-10T00:00:00.000Z","temp":33.3,"dewp":-2.2,"wdir":230,"wspd":7,"visib":"10+","altim":1009.9,"slp":1007.7,"qcField":4,"presTend":-1.8,"maxT":33.9,"minT":29.4,"metarType":"METAR","rawOb":"METAR KDVT 092353Z 23007KT 10SM FEW110 33/M02 A2982 RMK AO2 SLP077 T03331022 10339 20294 58018","lat":33.6902,"lon":-112.0662,"elev":454,"name":"Phoenix/Deer Valley Arpt, AZ, US","cover":"FEW","clouds":[{"cover":"FEW","base":11000}],"fltCat":"VFR"},{"icaoId":"KPGA","receiptTime":"2026-04-09T23:56:28.978Z","obsTime":1775778780,"reportTime":"2026-04-10T00:00:00.000Z","temp":26.7,"dewp":-7.8,"wdir":"VRB","wspd":5,"visib":"10+","altim":1012.3,"slp":1006.9,"qcField":6,"presTend":-1.3,"maxT":27.8,"minT":21.1,"metarType":"METAR","rawOb":"METAR KPGA 092353Z AUTO VRB05KT 10SM CLR 27/M08 A2989 RMK AO2 SLP069 T02671078 10278 20211 56013","lat":36.9211,"lon":-111.4487,"elev":1310,"name":"Page Muni, AZ, US","cover":"CLR","clouds":[],"fltCat":"VFR"},{"icaoId":"KPRC","receiptTime":"2026-04-09T23:56:23.214Z","obsTime":1775778780,"reportTime":"2026-04-10T00:00:00.000Z","temp":22.2,"dewp":-6.7,"wdir":190,"wspd":12,"wgst":24,"visib":"10+","altim":1017,"slp":1010.6,"qcField":4,"presTend":-0.6,"maxT":25,"minT":22.2,"metarType":"METAR","rawOb":"METAR KPRC 092353Z 19012G24KT 10SM CLR 22/M07 A3003 RMK AO2 SLP106 T02221067 10250 20222 55006","lat":34.6491,"lon":-112.4223,"elev":1528,"name":"Prescott/Love Fld, AZ, US","cover":"CLR","clouds":[],"fltCat":"VFR"},{"icaoId":"KSDL","receiptTime":"2026-04-09T23:56:27.677Z","obsTime":1775778780,"reportTime":"2026-04-10T00:00:00.000Z","temp":32.8,"dewp":-2.8,"wdir":"VRB","wspd":4,"visib":"10+","altim":1010.6,"slp":1007.9,"qcField":4,"presTend":-1.6,"maxT":33.3,"minT":29.4,"metarType":"METAR","rawOb":"METAR KSDL 092353Z VRB04KT 10SM CLR 33/M03 A2984 RMK AO2 SLP079 T03281028 10333 20294 56016","lat":33.6123,"lon":-111.9232,"elev":438,"name":"Scottsdale Muni, AZ, US","cover":"CLR","clouds":[],"fltCat":"VFR"},{"icaoId":"KPHX","receiptTime":"2026-04-09T23:54:11.505Z","obsTime":1775778660,"reportTime":"2026-04-10T00:00:00.000Z","temp":34.4,"dewp":-2.2,"wdir":"VRB","wspd":4,"visib":"10+","altim":1008.9,"slp":1006.8,"qcField":4,"presTend":-1.8,"maxT":35.6,"minT":31.1,"metarType":"METAR","rawOb":"METAR KPHX 092351Z VRB04KT 10SM FEW110 FEW200 BKN250 34/M02 A2979 RMK AO2 SLP068 T03441022 10356 20311 57018","lat":33.4278,"lon":-112.0037,"elev":338,"name":"Phoenix/Sky Harbor Intl, AZ, US","cover":"BKN","clouds":[{"cover":"FEW","base":11000},{"cover":"FEW","base":20000},{"cover":"BKN","base":25000}],"fltCat":"VFR"},{"icaoId":"KIGM","receiptTime":"2026-04-09T23:54:13.648Z","obsTime":1775778660,"reportTime":"2026-04-10T00:00:00.000Z","temp":26.7,"dewp":-2.8,"wdir":220,"wspd":19,"wgst":32,"visib":"10+","altim":1013,"slp":1006.5,"qcField":6,"presTend":-0.8,"maxT":28.3,"minT":26.1,"metarType":"METAR","rawOb":"METAR KIGM 092351Z AUTO 22019G32KT 10SM CLR 27/M03 A2991 RMK AO2 PK WND 24033/2319 SLP065 T02671028 10283 20261 58008","lat":35.2575,"lon":-113.9341,"elev":1045,"name":"Kingman Arpt, AZ, US","cover":"CLR","clouds":[],"fltCat":"VFR"},{"icaoId":"KSAD","receiptTime":"2026-04-09T23:54:11.699Z","obsTime":1775778660,"reportTime":"2026-04-10T00:00:00.000Z","temp":31.1,"dewp":-4.4,"wdir":290,"wspd":12,"wgst":22,"visib":"10+","altim":1011.9,"slp":1007.3,"qcField":6,"presTend":-1.4,"maxT":32.8,"minT":27.2,"metarType":"METAR","rawOb":"METAR KSAD 092351Z AUTO 29012G22KT 10SM CLR 31/M04 A2988 RMK AO2 SLP073 T03111044 10328 20272 56014","lat":32.8565,"lon":-109.636,"elev":937,"name":"Safford Rgnl, AZ, US","cover":"CLR","clouds":[],"fltCat":"VFR"},{"icaoId":"KIFP","receiptTime":"2026-04-09T23:50:10.571Z","obsTime":1775778540,"reportTime":"2026-04-10T00:00:00.000Z","temp":33,"dewp":-6,"wdir":200,"wspd":15,"visib":"10+","altim":1007.2,"qcField":0,"metarType":"METAR","rawOb":"METAR KIFP 092349Z 20015KT 10SM CLR 33/M06 A2974","lat":35.1487,"lon":-114.5611,"elev":210,"name":"Bullhead City Intl, AZ, US","cover":"CLR","clouds":[],"fltCat":"VFR"},{"icaoId":"KIWA","receiptTime":"2026-04-09T23:50:10.922Z","obsTime":1775778480,"reportTime":"2026-04-10T00:00:00.000Z","temp":34,"dewp":-3,"wdir":300,"wspd":9,"visib":"10+","altim":1010.2,"qcField":0,"metarType":"METAR","rawOb":"METAR KIWA 092348Z 30009KT 10SM CLR 34/M03 A2983","lat":33.3008,"lon":-111.6437,"elev":420,"name":"Phoenix/Mesa Gateway Arpt, AZ, US","cover":"CLR","clouds":[],"fltCat":"VFR"},{"icaoId":"KGEU","receiptTime":"2026-04-09T23:47:04.829Z","obsTime":1775778420,"reportTime":"2026-04-10T00:00:00.000Z","temp":34,"dewp":-5,"wdir":250,"wspd":9,"visib":"10+","altim":1008.2,"qcField":0,"metarType":"METAR","rawOb":"METAR KGEU 092347Z 25009KT 10SM CLR 34/M05 A2977","lat":33.528,"lon":-112.293,"elev":319,"name":"Glendale Muni, AZ, US","cover":"CLR","clouds":[],"fltCat":"VFR"},{"icaoId":"KGYR","receiptTime":"2026-04-09T23:51:03.362Z","obsTime":1775778420,"reportTime":"2026-04-10T00:00:00.000Z","temp":34,"dewp":-2,"wdir":240,"wspd":12,"wgst":20,"visib":"10+","altim":1009.2,"qcField":0,"metarType":"METAR","rawOb":"METAR KGYR 092347Z 24012G20KT 10SM FEW110 FEW200 BKN250 34/M02 A2980","lat":33.428,"lon":-112.368,"elev":292,"name":"Phoenix/Goodyear Muni, AZ, US","cover":"BKN","clouds":[{"cover":"FEW","base":11000},{"cover":"FEW","base":20000},{"cover":"BKN","base":25000}],"fltCat":"VFR"},{"icaoId":"KCHD","receiptTime":"2026-04-09T23:48:57.161Z","obsTime":1775778420,"reportTime":"2026-04-10T00:00:00.000Z","temp":34,"dewp":-2,"wdir":240,"wspd":7,"visib":"10+","altim":1009.6,"qcField":0,"metarType":"METAR","rawOb":"METAR KCHD 092347Z 24007KT 10SM SCT250 34/M02 A2981","lat":33.2669,"lon":-111.8086,"elev":378,"name":"Chandler Muni, AZ, US","cover":"SCT","clouds":[{"cover":"SCT","base":25000}],"fltCat":"VFR"}]