[{"icaoId":"KBVU","receiptTime":"2026-04-18T07:36:05.388Z","obsTime":1776497700,"reportTime":"2026-04-18T07:35:00.000Z","temp":11,"dewp":-13,"wdir":330,"wspd":4,"visib":"10+","altim":1018,"qcField":6,"metarType":"METAR","rawOb":"METAR KBVU 180735Z AUTO 33004KT 10SM CLR 11/M13 A3006 RMK AO2","lat":35.9489,"lon":-114.8633,"elev":654,"name":"Boulder City Muni, NV, US","cover":"CLR","clouds":[],"fltCat":"VFR"},{"icaoId":"KHOB","receiptTime":"2026-04-18T07:37:12.891Z","obsTime":1776497700,"reportTime":"2026-04-18T07:35:00.000Z","temp":10,"dewp":-4,"wdir":20,"wspd":28,"wgst":35,"visib":6,"altim":1016.7,"qcField":6,"wxString":"HZ","metarType":"METAR","rawOb":"METAR KHOB 180735Z AUTO 02028G35KT 6SM HZ FEW003 BKN022 OVC120 10/M04 A3002 RMK AO2","lat":32.6797,"lon":-103.2222,"elev":1112,"name":"Hobbs Arpt, NM, US","cover":"OVC","clouds":[{"cover":"FEW","base":300},{"cover":"BKN","base":2200},{"cover":"OVC","base":12000}],"fltCat":"MVFR"},{"icaoId":"KHAF","receiptTime":"2026-04-18T07:37:12.794Z","obsTime":1776497700,"reportTime":"2026-04-18T07:35:00.000Z","temp":7,"dewp":5,"wdir":0,"wspd":0,"visib":"10+","altim":1017.7,"qcField":6,"metarType":"METAR","rawOb":"METAR KHAF 180735Z AUTO 00000KT 10SM CLR 07/05 A3005 RMK AO2","lat":37.5136,"lon":-122.4996,"elev":11,"name":"Half Moon Bay Arpt, CA, US","cover":"CLR","clouds":[],"fltCat":"VFR"},{"icaoId":"KHCR","receiptTime":"2026-04-18T07:37:12.827Z","obsTime":1776497700,"reportTime":"2026-04-18T07:35:00.000Z","temp":-5.7,"dewp":-10.5,"wdir":0,"wspd":0,"visib":"10+","altim":1024.1,"qcField":14,"metarType":"METAR","rawOb":"METAR KHCR 180735Z AUTO 00000KT 10SM CLR M06/M11 A3024 RMK AO2 T10571105 $","lat":40.4774,"lon":-111.4329,"elev":1708,"name":"Heber City Muni, UT, US","cover":"CLR","clouds":[],"fltCat":"VFR"},{"icaoId":"KSOW","receiptTime":"2026-04-18T07:37:11.660Z","obsTime":1776497700,"reportTime":"2026-04-18T07:35:00.000Z","temp":2,"dewp":-15,"wdir":0,"wspd":0,"visib":"10+","altim":1022.1,"qcField":6,"metarType":"METAR","rawOb":"METAR KSOW 180735Z AUTO 00000KT 10SM CLR 02/M15 A3018 RMK AO2","lat":34.2686,"lon":-110.0019,"elev":1954,"name":"Show Low Muni, AZ, US","cover":"CLR","clouds":[],"fltCat":"VFR"},{"icaoId":"KCHD","receiptTime":"2026-04-18T07:37:08.652Z","obsTime":1776497700,"reportTime":"2026-04-18T07:35:00.000Z","temp":21.6,"dewp":-9,"wdir":330,"wspd":6,"visib":"10+","altim":1013,"qcField":14,"metarType":"METAR","rawOb":"METAR KCHD 180735Z AUTO 33006KT 10SM CLR 22/M09 A2991 RMK AO2 T02161090 $","lat":33.2669,"lon":-111.8086,"elev":378,"name":"Chandler Muni, AZ, US","cover":"CLR","clouds":[],"fltCat":"VFR"},{"icaoId":"KLRU","receiptTime":"2026-04-18T07:37:10.319Z","obsTime":1776497700,"reportTime":"2026-04-18T07:35:00.000Z","temp":14.4,"dewp":-10.6,"wdir":330,"wspd":10,"visib":"10+","altim":1016.3,"qcField":6,"metarType":"METAR","rawOb":"METAR KLRU 180735Z AUTO 33010KT 10SM CLR 14/M11 A3001 RMK AO2 T01441106","lat":32.2884,"lon":-106.9131,"elev":1355,"name":"Las Cruces Intl, NM, US","cover":"CLR","clouds":[],"fltCat":"VFR"},{"icaoId":"KMKE","receiptTime":"2026-04-18T07:36:38.542Z","obsTime":1776497640,"reportTime":"2026-04-18T07:34:00.000Z","temp":13.3,"dewp":12.2,"wdir":300,"wspd":17,"wgst":26,"visib":4,"altim":1001.1,"qcField":12,"wxString":"-RA BR","precip":0.005,"metarType":"SPECI","rawOb":"SPECI KMKE 180734Z 30017G26KT 4SM -RA BR BKN008 OVC013 13/12 A2956 RMK AO2 RAE01B21 PRESRR P0000 T01330122 $","lat":42.9549,"lon":-87.9045,"elev":203,"name":"Milwaukee/Mitchell Intl, WI, US","cover":"OVC","clouds":[{"cover":"BKN","base":800},{"cover":"OVC","base":1300}],"fltCat":"IFR"},{"icaoId":"KJFK","receiptTime":"2026-04-18T07:36:01.982Z","obsTime":1776497520,"reportTime":"2026-04-18T07:32:00.000Z","temp":11.1,"dewp":10.6,"wdir":180,"wspd":4,"visib":0.13,"altim":1017.7,"qcField":4,"wxString":"FG","metarType":"SPECI","rawOb":"SPECI KJFK 180732Z 18004KT 1/8SM R04R/2000V2800FT FG BKN002 OVC006 11/11 A3005 RMK AO2 SFC VIS 1/4 T01110106","lat":40.6392,"lon":-73.7639,"elev":3,"name":"New York/JF Kennedy Intl, NY, US","cover":"OVC","clouds":[{"cover":"BKN","base":200},{"cover":"OVC","base":600}],"fltCat":"LIFR"},{"icaoId":"KMLC","receiptTime":"2026-04-18T07:32:11.028Z","obsTime":1776497340,"reportTime":"2026-04-18T07:29:00.000Z","temp":13.3,"dewp":12.2,"wdir":300,"wspd":13,"wgst":21,"visib":"10+","altim":1014.3,"qcField":6,"wxString":"-RA","precip":0.03,"metarType":"SPECI","rawOb":"SPECI KMLC 180729Z AUTO 30013G21KT 270V340 10SM -RA BKN009 OVC013 13/12 A2995 RMK AO2 LTG DSNT SW-N CIG 007V012 PRESRR P0003 T01330122","lat":34.8824,"lon":-95.7815,"elev":231,"name":"McAlester Rgnl, OK, US","cover":"OVC","clouds":[{"cover":"BKN","base":900},{"cover":"OVC","base":1300}],"fltCat":"IFR"},{"icaoId":"KMFE","receiptTime":"2026-04-18T07:32:11.017Z","obsTime":1776497340,"reportTime":"2026-04-18T07:29:00.000Z","temp":25,"dewp":22.2,"wdir":150,"wspd":14,"wgst":21,"visib":"10+","altim":1008.9,"qcField":6,"metarType":"SPECI","rawOb":"SPECI KMFE 180729Z AUTO 15014G21KT 10SM BKN015 OVC020 25/22 A2979 RMK AO2 T02500222","lat":26.1791,"lon":-98.2445,"elev":29,"name":"McAllen/Miller Intl, TX, US","cover":"OVC","clouds":[{"cover":"BKN","base":1500},{"cover":"OVC","base":2000}],"fltCat":"MVFR"},{"icaoId":"KABI","receiptTime":"2026-04-18T07:32:10.458Z","obsTime":1776497280,"reportTime":"2026-04-18T07:28:00.000Z","temp":18.3,"dewp":10.6,"wdir":340,"wspd":25,"wgst":38,"visib":9,"altim":1011.3,"qcField":12,"metarType":"SPECI","rawOb":"SPECI KABI 180728Z 34025G38KT 9SM BKN024 18/11 A2986 RMK AO2 PK WND 34038/0723 WSHFT 0714 LTG DSNT W-NE PRESRR T01830106 $","lat":32.4106,"lon":-99.6821,"elev":543,"name":"Abilene Rgnl, TX, US","cover":"BKN","clouds":[{"cover":"BKN","base":2400}],"fltCat":"MVFR"},{"icaoId":"KHRL","receiptTime":"2026-04-18T07:30:09.321Z","obsTime":1776497160,"reportTime":"2026-04-18T07:26:00.000Z","temp":23.9,"dewp":22.2,"wdir":150,"wspd":14,"visib":"10+","altim":1008.9,"qcField":6,"metarType":"SPECI","rawOb":"SPECI KHRL 180726Z AUTO 15014KT 10SM BKN015 24/22 A2979 RMK AO2 T02390222","lat":26.2303,"lon":-97.6556,"elev":9,"name":"Harlingen/Valley Intl, TX, US","cover":"BKN","clouds":[{"cover":"BKN","base":1500}],"fltCat":"MVFR"},{"icaoId":"KORD","receiptTime":"2026-04-18T07:26:02.410Z","obsTime":1776496920,"reportTime":"2026-04-18T07:22:00.000Z","temp":16.1,"dewp":15,"wdir":220,"wspd":9,"visib":"10+","altim":1002.1,"qcField":12,"precip":0.03,"metarType":"SPECI","rawOb":"SPECI KORD 180722Z 22009KT 10SM BKN016 BKN095 OVC120 16/15 A2959 RMK AO2 RAE13 P0003 T01610150 $","lat":41.9602,"lon":-87.9316,"elev":202,"name":"Chicago/O'Hare Intl, IL, US","cover":"OVC","clouds":[{"cover":"BKN","base":1600},{"cover":"BKN","base":9500},{"cover":"OVC","base":12000}],"fltCat":"MVFR"},{"icaoId":"KDAL","receiptTime":"2026-04-18T07:26:02.342Z","obsTime":1776496920,"reportTime":"2026-04-18T07:22:00.000Z","temp":23.3,"dewp":18.9,"wdir":180,"wspd":10,"wgst":25,"visib":"10+","altim":1007.9,"qcField":4,"metarType":"SPECI","rawOb":"SPECI KDAL 180722Z 18010G25KT 10SM BKN022 BKN250 23/19 A2976 RMK AO2 BKN022 V SCT T02330189","lat":32.8384,"lon":-96.8358,"elev":148,"name":"Dallas/Love Fld, TX, US","cover":"BKN","clouds":[{"cover":"BKN","base":2200},{"cover":"BKN","base":25000}],"fltCat":"MVFR"},{"icaoId":"KPHL","receiptTime":"2026-04-18T07:20:24.009Z","obsTime":1776496620,"reportTime":"2026-04-18T07:17:00.000Z","temp":15,"dewp":12.8,"wdir":80,"wspd":10,"visib":"10+","altim":1016.7,"qcField":12,"metarType":"SPECI","rawOb":"SPECI KPHL 180717Z 08010KT 10SM OVC009 15/13 A3002 RMK AO2 T01500128 $","lat":39.8733,"lon":-75.2268,"elev":2,"name":"Philadelphia Intl, PA, US","cover":"OVC","clouds":[{"cover":"OVC","base":900}],"fltCat":"IFR"},{"icaoId":"KIWA","receiptTime":"2026-04-18T07:18:16.397Z","obsTime":1776496500,"reportTime":"2026-04-18T07:15:00.000Z","temp":20.9,"dewp":-7,"wdir":0,"wspd":0,"visib":"10+","altim":1013.3,"qcField":6,"metarType":"METAR","rawOb":"METAR KIWA 180715Z AUTO 00000KT 10SM CLR 21/M07 A2992 RMK AO2 T02091070","lat":33.3008,"lon":-111.6437,"elev":420,"name":"Phoenix/Mesa Gateway Arpt, AZ, US","cover":"CLR","clouds":[],"fltCat":"VFR"},{"icaoId":"KRTS","receiptTime":"2026-04-18T07:20:24.121Z","obsTime":1776496500,"reportTime":"2026-04-18T07:15:00.000Z","temp":-2,"dewp":-16,"wdir":360,"wspd":4,"visib":"10+","altim":1021.1,"qcField":6,"metarType":"METAR","rawOb":"METAR KRTS 180715Z AUTO 36004KT 10SM CLR M02/M16 A3015 RMK AO2","lat":39.6658,"lon":-119.8731,"elev":1537,"name":"Reno/Stead Arpt, NV, US","cover":"CLR","clouds":[],"fltCat":"VFR"},{"icaoId":"KAEG","receiptTime":"2026-04-18T07:20:27.209Z","obsTime":1776496500,"reportTime":"2026-04-18T07:15:00.000Z","temp":3.6,"dewp":-19.7,"wdir":320,"wspd":13,"visib":"10+","altim":1021.1,"qcField":6,"metarType":"METAR","rawOb":"METAR KAEG 180715Z AUTO 32013KT 10SM CLR 04/M20 A3015 RMK AO2 T00361197","lat":35.15,"lon":-106.7929,"elev":1771,"name":"Albuquerque/Double Eagle Arpt, NM, US","cover":"CLR","clouds":[],"fltCat":"VFR"},{"icaoId":"KHII","receiptTime":"2026-04-18T07:20:31.171Z","obsTime":1776496500,"reportTime":"2026-04-18T07:15:00.000Z","temp":18,"dewp":-17,"wdir":350,"wspd":7,"visib":"10+","altim":1014.6,"qcField":6,"metarType":"METAR","rawOb":"METAR KHII 180715Z AUTO 35007KT 10SM CLR 18/M17 A2996 RMK AO2","lat":34.5659,"lon":-114.3522,"elev":241,"name":"Lake Havasu City Arpt, AZ, US","cover":"CLR","clouds":[],"fltCat":"VFR"},{"icaoId":"KIFP","receiptTime":"2026-04-18T07:20:32.876Z","obsTime":1776496500,"reportTime":"2026-04-18T07:15:00.000Z","temp":19,"dewp":-18,"wdir":10,"wspd":17,"wgst":22,"visib":"10+","altim":1015,"qcField":6,"metarType":"METAR","rawOb":"METAR KIFP 180715Z AUTO 01017G22KT 10SM CLR 19/M18 A2997 RMK AO2","lat":35.1487,"lon":-114.5611,"elev":210,"name":"Bullhead City Intl, AZ, US","cover":"CLR","clouds":[],"fltCat":"VFR"},{"icaoId":"KHTH","receiptTime":"2026-04-18T07:20:23.302Z","obsTime":1776496500,"reportTime":"2026-04-18T07:15:00.000Z","temp":7,"dewp":-15,"wdir":220,"wspd":6,"visib":"10+","altim":1020.7,"qcField":6,"metarType":"METAR","rawOb":"METAR KHTH 180715Z AUTO 22006KT 10SM CLR 07/M15 A3014 RMK A01","lat":38.5448,"lon":-118.6314,"elev":1281,"name":"Hawthorne Muni, NV, US","cover":"CLR","clouds":[],"fltCat":"VFR"},{"icaoId":"KMHR","receiptTime":"2026-04-18T07:20:32.928Z","obsTime":1776496500,"reportTime":"2026-04-18T07:15:00.000Z","temp":12,"dewp":7,"wdir":130,"wspd":4,"visib":"10+","altim":1016,"qcField":6,"metarType":"METAR","rawOb":"METAR KMHR 180715Z AUTO 13004KT 10SM CLR 12/07 A3000 RMK AO2","lat":38.56,"lon":-121.284,"elev":30,"name":"Sacramento/Mather Fld, CA, US","cover":"CLR","clouds":[],"fltCat":"VFR"},{"icaoId":"KADM","receiptTime":"2026-04-18T07:20:22.120Z","obsTime":1776496500,"reportTime":"2026-04-18T07:15:00.000Z","temp":13,"dewp":13,"wdir":10,"wspd":15,"wgst":26,"visib":9,"altim":1012.3,"qcField":6,"wxString":"-RA","metarType":"METAR","rawOb":"METAR KADM 180715Z AUTO 01015G26KT 9SM -RA SCT017 BKN050 OVC065 13/13 A2989 RMK AO2","lat":34.3007,"lon":-97.0089,"elev":223,"name":"Ardmore Muni, OK, US","cover":"OVC","clouds":[{"cover":"SCT","base":1700},{"cover":"BKN","base":5000},{"cover":"OVC","base":6500}],"fltCat":"VFR"},{"icaoId":"KSEZ","receiptTime":"2026-04-18T07:20:32.945Z","obsTime":1776496500,"reportTime":"2026-04-18T07:15:00.000Z","temp":10,"dewp":-21,"wdir":40,"wspd":18,"wgst":30,"visib":"10+","altim":1019.4,"qcField":6,"metarType":"METAR","rawOb":"METAR KSEZ 180715Z AUTO 04018G30KT 10SM CLR 10/M21 A3010 RMK AO2","lat":34.8467,"lon":-111.7884,"elev":1455,"name":"Sedona Arpt, AZ, US","cover":"CLR","clouds":[],"fltCat":"VFR"},{"icaoId":"KBJC","receiptTime":"2026-04-18T07:18:14.493Z","obsTime":1776496500,"reportTime":"2026-04-18T07:15:00.000Z","temp":1,"dewp":-10,"wdir":280,"wspd":10,"visib":"10+","altim":1021.1,"qcField":6,"metarType":"METAR","rawOb":"METAR KBJC 180715Z AUTO 28010KT 10SM CLR 01/M10 A3015 RMK AO2","lat":39.9008,"lon":-105.1042,"elev":1694,"name":"Rocky Mtn Metro, CO, US","cover":"CLR","clouds":[],"fltCat":"VFR"},{"icaoId":"KMEV","receiptTime":"2026-04-18T07:20:32.911Z","obsTime":1776496500,"reportTime":"2026-04-18T07:15:00.000Z","temp":-1,"dewp":-7,"wdir":0,"wspd":0,"visib":"10+","altim":1020.7,"qcField":6,"metarType":"METAR","rawOb":"METAR KMEV 180715Z AUTO 00000KT 10SM FEW048 M01/M07 A3014 RMK AO2","lat":38.9963,"lon":-119.75,"elev":1437,"name":"Minden-Tahoe Arpt, NV, US","cover":"FEW","clouds":[{"cover":"FEW","base":4800}],"fltCat":"VFR"},{"icaoId":"KCXP","receiptTime":"2026-04-18T07:20:32.812Z","obsTime":1776496500,"reportTime":"2026-04-18T07:15:00.000Z","temp":3,"dewp":-14,"wdir":340,"wspd":3,"visib":"10+","altim":1021.1,"qcField":6,"metarType":"METAR","rawOb":"METAR KCXP 180715Z AUTO 34003KT 10SM CLR 03/M14 A3015 RMK AO2","lat":39.1905,"lon":-119.7319,"elev":1431,"name":"Carson City Arpt, NV, US","cover":"CLR","clouds":[],"fltCat":"VFR"},{"icaoId":"KSUN","receiptTime":"2026-04-18T07:18:11.989Z","obsTime":1776496500,"reportTime":"2026-04-18T07:15:00.000Z","wdir":300,"wspd":7,"visib":"10+","altim":1024.1,"qcField":6,"metarType":"METAR","rawOb":"METAR KSUN 180715Z AUTO 30007KT 10SM CLR A3024 RMK AO2","lat":43.4969,"lon":-114.2923,"elev":1619,"name":"Hailey/Friedman Mem, ID, US","cover":"CLR","clouds":[],"fltCat":"VFR"},{"icaoId":"KACT","receiptTime":"2026-04-18T07:18:08.077Z","obsTime":1776496440,"reportTime":"2026-04-18T07:14:00.000Z","temp":22.2,"dewp":18.9,"wdir":170,"wspd":10,"visib":"10+","altim":1010.2,"qcField":6,"metarType":"SPECI","rawOb":"SPECI KACT 180714Z AUTO 17010KT 10SM BKN022 BKN032 22/19 A2983 RMK AO2 T02220189","lat":31.618,"lon":-97.2283,"elev":150,"name":"Waco Rgnl, TX, US","cover":"BKN","clouds":[{"cover":"BKN","base":2200},{"cover":"BKN","base":3200}],"fltCat":"MVFR"},{"icaoId":"KLAW","receiptTime":"2026-04-18T07:16:04.906Z","obsTime":1776496320,"reportTime":"2026-04-18T07:12:00.000Z","temp":11.1,"dewp":5.6,"wdir":20,"wspd":23,"wgst":35,"visib":"10+","altim":1014,"qcField":6,"metarType":"SPECI","rawOb":"SPECI KLAW 180712Z AUTO 02023G35KT 10SM FEW026 OVC055 11/06 A2994 RMK AO2 PK WND 01035/0708 T01110056","lat":34.5577,"lon":-98.4172,"elev":328,"name":"Lawton-Fort Sill Rgnl, OK, US","cover":"OVC","clouds":[{"cover":"FEW","base":2600},{"cover":"OVC","base":5500}],"fltCat":"VFR"},{"icaoId":"KSPS","receiptTime":"2026-04-18T07:16:07.286Z","obsTime":1776496320,"reportTime":"2026-04-18T07:12:00.000Z","temp":11.7,"dewp":8.9,"wdir":20,"wspd":29,"wgst":39,"visib":"10+","altim":1013,"qcField":12,"precip":0.005,"metarType":"SPECI","rawOb":"SPECI KSPS 180712Z 02029G39KT 10SM FEW023 BKN041 OVC100 12/09 A2991 RMK AO2 PK WND 03042/0702 LTG DSNT E-SW RAE03 TSE08 P0000 T01170089 $","lat":33.9785,"lon":-98.493,"elev":310,"name":"Wichita Falls Rgnl, TX, US","cover":"OVC","clouds":[{"cover":"FEW","base":2300},{"cover":"BKN","base":4100},{"cover":"OVC","base":10000}],"fltCat":"VFR"},{"icaoId":"KCEC","receiptTime":"2026-04-18T07:14:19.959Z","obsTime":1776496260,"reportTime":"2026-04-18T07:11:00.000Z","temp":9.4,"dewp":8.3,"wdir":180,"wspd":4,"visib":"10+","altim":1019.4,"qcField":6,"metarType":"SPECI","rawOb":"SPECI KCEC 180711Z AUTO 18004KT 10SM BKN011 09/08 A3010 RMK AO2 T00940083","lat":41.7836,"lon":-124.238,"elev":17,"name":"Crescent City/McNama, CA, US","cover":"BKN","clouds":[{"cover":"BKN","base":1100}],"fltCat":"MVFR"},{"icaoId":"KBUF","receiptTime":"2026-04-18T07:18:18.409Z","obsTime":1776495960,"reportTime":"2026-04-18T07:06:00.000Z","temp":13.9,"dewp":10.6,"wdir":140,"wspd":9,"visib":"10+","altim":1011.9,"qcField":13,"metarType":"SPECI","rawOb":"SPECI KBUF 180706Z COR 14009KT 10SM FEW280 14/11 A2988 RMK AO2 T01390106 $","lat":42.94,"lon":-78.7361,"elev":217,"name":"Buffalo-Niagara Intl, NY, US","cover":"FEW","clouds":[{"cover":"FEW","base":28000}],"fltCat":"VFR"},{"icaoId":"KCNM","receiptTime":"2026-04-18T07:06:03.252Z","obsTime":1776495720,"reportTime":"2026-04-18T07:02:00.000Z","temp":17.8,"dewp":0.6,"wdir":10,"wspd":19,"wgst":27,"visib":5,"altim":1015.7,"qcField":6,"wxString":"HZ","metarType":"SPECI","rawOb":"SPECI KCNM 180702Z AUTO 01019G27KT 5SM HZ BKN021 18/01 A2999 RMK AO2 T01780006","lat":32.3336,"lon":-104.2584,"elev":993,"name":"Carlsbad/Cavern City Air Term, NM, US","cover":"BKN","clouds":[{"cover":"BKN","base":2100}],"fltCat":"MVFR"},{"icaoId":"KFLG","receiptTime":"2026-04-18T07:00:29.114Z","obsTime":1776495420,"reportTime":"2026-04-18T07:00:00.000Z","temp":2.2,"dewp":-22.2,"wdir":70,"wspd":8,"visib":"10+","altim":1022.1,"slp":1016.9,"qcField":6,"maxT24":12.8,"minT24":-2.8,"metarType":"METAR","rawOb":"METAR KFLG 180657Z AUTO 07008KT 10SM CLR 02/M22 A3018 RMK AO2 SLP169 T00221222 401281028","lat":35.1443,"lon":-111.6664,"elev":2134,"name":"Flagstaff/Pulliam Arpt, AZ, US","cover":"CLR","clouds":[],"fltCat":"VFR"},{"icaoId":"KNYL","receiptTime":"2026-04-18T07:00:33.869Z","obsTime":1776495420,"reportTime":"2026-04-18T07:00:00.000Z","temp":20.6,"dewp":-14.4,"wdir":330,"wspd":8,"visib":"10+","altim":1013.3,"slp":1012.9,"qcField":6,"maxT24":28.9,"minT24":16.7,"metarType":"METAR","rawOb":"METAR KNYL 180657Z AUTO 33008KT 10SM CLR 21/M14 A2992 RMK AO2 SLP129 T02061144 402890167","lat":32.66,"lon":-114.6078,"elev":58,"name":"Yuma , AZ, US","cover":"CLR","clouds":[],"fltCat":"VFR"},{"icaoId":"KNFL","receiptTime":"2026-04-18T07:00:33.809Z","obsTime":1776495420,"reportTime":"2026-04-18T07:00:00.000Z","temp":2.8,"dewp":-15,"wdir":240,"wspd":4,"visib":"10+","altim":1020.4,"slp":1016.8,"qcField":6,"metarType":"METAR","rawOb":"METAR KNFL 180657Z AUTO 24004KT 10SM CLR 03/M15 A3013 RMK AO2 SLP168 T00281150","lat":39.417,"lon":-118.705,"elev":1199,"name":"Fallon , NV, US","cover":"CLR","clouds":[],"fltCat":"VFR"},{"icaoId":"KGUC","receiptTime":"2026-04-18T06:58:26.498Z","obsTime":1776495360,"reportTime":"2026-04-18T07:00:00.000Z","temp":-7.8,"dewp":-12.2,"wdir":250,"wspd":4,"visib":"10+","altim":1022.8,"slp":1025.4,"qcField":78,"metarType":"METAR","rawOb":"METAR KGUC 180656Z AUTO 25004KT 10SM CLR M08/M12 A3020 RMK AO2 SLP254 T10781122 FZRANO $","lat":38.5322,"lon":-106.9419,"elev":2337,"name":"Gunnison Arpt, CO, US","cover":"CLR","clouds":[],"fltCat":"VFR"},{"icaoId":"KENV","receiptTime":"2026-04-18T06:58:19.047Z","obsTime":1776495360,"reportTime":"2026-04-18T07:00:00.000Z","temp":1.7,"dewp":-15.6,"wdir":30,"wspd":4,"visib":"10+","altim":1024.5,"slp":1025.7,"qcField":70,"metarType":"METAR","rawOb":"METAR KENV 180656Z AUTO 03004KT 10SM CLR 02/M16 A3025 RMK AO2 SLP257 T00171156 FZRANO","lat":40.7211,"lon":-114.0312,"elev":1291,"name":"Wendover Arpt, UT, US","cover":"CLR","clouds":[],"fltCat":"VFR"},{"icaoId":"KSDY","receiptTime":"2026-04-18T06:58:25.000Z","obsTime":1776495360,"reportTime":"2026-04-18T07:00:00.000Z","temp":-8.9,"dewp":-12.8,"wdir":300,"wspd":8,"visib":"10+","altim":1019,"slp":1022.5,"qcField":78,"maxT24":2.2,"minT24":-9.4,"metarType":"METAR","rawOb":"METAR KSDY 180656Z AUTO 30008KT 10SM CLR M09/M13 A3009 RMK AO2 SLP225 T10891128 400221094 FZRANO $","lat":47.7029,"lon":-104.1951,"elev":600,"name":"Sidney/Richland Muni, MT, US","cover":"CLR","clouds":[],"fltCat":"VFR"},{"icaoId":"KJAC","receiptTime":"2026-04-18T06:58:24.068Z","obsTime":1776495360,"reportTime":"2026-04-18T07:00:00.000Z","temp":-3.9,"dewp":-7.2,"wdir":200,"wspd":6,"visib":"10+","altim":1022.4,"slp":1026.2,"qcField":70,"maxT24":1.1,"minT24":-12.2,"precip":0.005,"metarType":"METAR","rawOb":"METAR KJAC 180656Z AUTO 20006KT 10SM SCT048 OVC065 M04/M07 A3019 RMK AO2 SNE0557B27E37 SLP262 P0000 T10391072 400111122 FZRANO","lat":43.6129,"lon":-110.7366,"elev":1967,"name":"Jackson Hole Arpt, WY, US","cover":"OVC","clouds":[{"cover":"SCT","base":4800},{"cover":"OVC","base":6500}],"fltCat":"VFR"},{"icaoId":"KTPH","receiptTime":"2026-04-18T07:00:28.961Z","obsTime":1776495360,"reportTime":"2026-04-18T07:00:00.000Z","temp":0,"dewp":-22.2,"wdir":330,"wspd":8,"visib":"10+","altim":1021.8,"slp":1021.4,"qcField":6,"metarType":"METAR","rawOb":"METAR KTPH 180656Z AUTO 33008KT 10SM CLR 00/M22 A3017 RMK AO2 SLP214 T00001222","lat":38.0505,"lon":-117.0906,"elev":1647,"name":"Tonopah Arpt, NV, US","cover":"CLR","clouds":[],"fltCat":"VFR"},{"icaoId":"KUKI","receiptTime":"2026-04-18T07:00:28.975Z","obsTime":1776495360,"reportTime":"2026-04-18T07:00:00.000Z","temp":8.9,"dewp":4.4,"wdir":0,"wspd":0,"visib":"10+","altim":1017.7,"slp":1017.1,"qcField":6,"metarType":"METAR","rawOb":"METAR KUKI 180656Z AUTO 00000KT 10SM CLR 09/04 A3005 RMK AO2 SLP171 T00890044","lat":39.1278,"lon":-123.2001,"elev":183,"name":"Ukiah Muni, CA, US","cover":"CLR","clouds":[],"fltCat":"VFR"},{"icaoId":"KSLE","receiptTime":"2026-04-18T07:00:28.947Z","obsTime":1776495360,"reportTime":"2026-04-18T07:00:00.000Z","temp":7.2,"dewp":3.3,"wdir":0,"wspd":0,"visib":"10+","altim":1018.7,"slp":1018.6,"qcField":6,"metarType":"METAR","rawOb":"METAR KSLE 180656Z AUTO 00000KT 10SM CLR 07/03 A3008 RMK AO2 SLP186 T00720033","lat":44.9049,"lon":-123.001,"elev":63,"name":"Salem Muni, OR, US","cover":"CLR","clouds":[],"fltCat":"VFR"},{"icaoId":"KJAX","receiptTime":"2026-04-18T07:00:21.784Z","obsTime":1776495360,"reportTime":"2026-04-18T07:00:00.000Z","temp":19.4,"dewp":13.9,"wdir":240,"wspd":3,"visib":"10+","altim":1015,"slp":1014.9,"qcField":12,"metarType":"METAR","rawOb":"METAR KJAX 180656Z 24003KT 10SM CLR 19/14 A2997 RMK AO2 SLP149 T01940139 $","lat":30.4953,"lon":-81.6937,"elev":8,"name":"Jacksonville Intl, FL, US","cover":"CLR","clouds":[],"fltCat":"VFR"},{"icaoId":"KSDF","receiptTime":"2026-04-18T07:00:20.055Z","obsTime":1776495360,"reportTime":"2026-04-18T07:00:00.000Z","temp":21.7,"dewp":15.6,"wdir":140,"wspd":4,"visib":"10+","altim":1009.6,"slp":1008.8,"qcField":4,"metarType":"METAR","rawOb":"METAR KSDF 180656Z 14004KT 10SM FEW140 BKN250 22/16 A2981 RMK AO2 SLP088 T02170156","lat":38.1774,"lon":-85.7308,"elev":146,"name":"Louisville Intl, KY, US","cover":"BKN","clouds":[{"cover":"FEW","base":14000},{"cover":"BKN","base":25000}],"fltCat":"VFR"},{"icaoId":"KCHS","receiptTime":"2026-04-18T07:00:21.526Z","obsTime":1776495360,"reportTime":"2026-04-18T07:00:00.000Z","temp":20,"dewp":14.4,"wdir":200,"wspd":5,"visib":"10+","altim":1014.3,"slp":1014.2,"qcField":12,"metarType":"METAR","rawOb":"METAR KCHS 180656Z 20005KT 10SM CLR 20/14 A2995 RMK AO2 SLP142 T02000144 $","lat":32.8995,"lon":-80.0407,"elev":12,"name":"Charleston Intl, SC, US","cover":"CLR","clouds":[],"fltCat":"VFR"},{"icaoId":"KDUG","receiptTime":"2026-04-18T07:02:09.302Z","obsTime":1776495360,"reportTime":"2026-04-18T07:00:00.000Z","temp":13.3,"dewp":-4.4,"wdir":320,"wspd":8,"visib":"10+","altim":1016.7,"slp":1011,"qcField":38,"maxT24":26.7,"minT24":9.4,"metarType":"METAR","rawOb":"METAR KDUG 180656Z AUTO 32008KT 10SM CLR 13/M04 A3002 RMK AO2 SLP110 T01331044 402670094 TSNO","lat":31.4725,"lon":-109.6022,"elev":1260,"name":"Douglas/Bisbee Intl, AZ, US","cover":"CLR","clouds":[],"fltCat":"VFR"},{"icaoId":"KRDM","receiptTime":"2026-04-18T07:00:29.627Z","obsTime":1776495360,"reportTime":"2026-04-18T07:00:00.000Z","temp":6.7,"dewp":-5.6,"wdir":310,"wspd":7,"visib":"10+","altim":1019.7,"slp":1019.8,"qcField":6,"metarType":"METAR","rawOb":"METAR KRDM 180656Z AUTO 31007KT 10SM CLR 07/M06 A3011 RMK AO2 SLP198 T00671056","lat":44.2558,"lon":-121.1407,"elev":930,"name":"Redmond Muni, OR, US","cover":"CLR","clouds":[],"fltCat":"VFR"},{"icaoId":"KCGZ","receiptTime":"2026-04-18T06:58:20.786Z","obsTime":1776495360,"reportTime":"2026-04-18T07:00:00.000Z","temp":20,"dewp":-9.4,"wdir":250,"wspd":4,"visib":"10+","altim":1013.3,"slp":1012.1,"qcField":14,"maxT24":28.9,"minT24":13.3,"metarType":"METAR","rawOb":"METAR KCGZ 180656Z AUTO 25004KT 10SM CLR 20/M09 A2992 RMK AO2 SLP121 T02001094 402890133 $","lat":32.9531,"lon":-111.7725,"elev":444,"name":"Casa Granda Muni, AZ, US","cover":"CLR","clouds":[],"fltCat":"VFR"},{"icaoId":"KFNL","receiptTime":"2026-04-18T06:58:26.096Z","obsTime":1776495360,"reportTime":"2026-04-18T07:00:00.000Z","temp":-1.7,"dewp":-6.1,"wdir":20,"wspd":7,"visib":"10+","altim":1021.1,"slp":1022.3,"qcField":78,"maxT24":8.3,"minT24":-1.7,"metarType":"METAR","rawOb":"METAR KFNL 180656Z AUTO 02007KT 10SM SCT100 M02/M06 A3015 RMK AO2 SLP223 T10171061 400831017 FZRANO $","lat":40.4427,"lon":-105.0097,"elev":1529,"name":"Fort Collins/N Colorado Rgnl, CO, US","cover":"SCT","clouds":[{"cover":"SCT","base":10000}],"fltCat":"VFR"},{"icaoId":"KPVU","receiptTime":"2026-04-18T06:58:24.752Z","obsTime":1776495360,"reportTime":"2026-04-18T07:00:00.000Z","temp":1.7,"dewp":-7.2,"wdir":160,"wspd":5,"visib":"10+","altim":1024.5,"slp":1025.1,"qcField":68,"metarType":"METAR","rawOb":"METAR KPVU 180656Z 16005KT 10SM CLR 02/M07 A3025 RMK AO2 SLP251 T00171072 FZRANO","lat":40.224,"lon":-111.7252,"elev":1370,"name":"Provo Muni, UT, US","cover":"CLR","clouds":[],"fltCat":"VFR"},{"icaoId":"KCOE","receiptTime":"2026-04-18T06:58:20.965Z","obsTime":1776495360,"reportTime":"2026-04-18T07:00:00.000Z","temp":3.9,"dewp":-1.1,"wdir":160,"wspd":7,"visib":"10+","altim":1022.8,"slp":1025.7,"qcField":14,"metarType":"METAR","rawOb":"METAR KCOE 180656Z AUTO 16007KT 10SM CLR 04/M01 A3020 RMK AO2 SLP257 T00391011 PNO $","lat":47.7719,"lon":-116.8332,"elev":693,"name":"Coeur DAlene Arpt, ID, US","cover":"CLR","clouds":[],"fltCat":"VFR"},{"icaoId":"KBZN","receiptTime":"2026-04-18T07:00:29.287Z","obsTime":1776495360,"reportTime":"2026-04-18T07:00:00.000Z","temp":-3.3,"dewp":-5.6,"wdir":160,"wspd":6,"visib":"10+","altim":1022.4,"slp":1026.3,"qcField":6,"maxT24":2.2,"minT24":-3.9,"metarType":"METAR","rawOb":"METAR KBZN 180656Z AUTO 16006KT 10SM OVC075 M03/M06 A3019 RMK AO2 SLP263 T10331056 400221039","lat":45.7876,"lon":-111.1615,"elev":1349,"name":"Bozeman/Gallatin Fld, MT, US","cover":"OVC","clouds":[{"cover":"OVC","base":7500}],"fltCat":"VFR"},{"icaoId":"KEKO","receiptTime":"2026-04-18T07:00:29.385Z","obsTime":1776495360,"reportTime":"2026-04-18T07:00:00.000Z","temp":-2.8,"dewp":-13.3,"wdir":0,"wspd":0,"visib":"10+","altim":1023.1,"slp":1024.4,"qcField":6,"metarType":"METAR","rawOb":"METAR KEKO 180656Z AUTO 00000KT 10SM CLR M03/M13 A3021 RMK AO2 SLP244 T10281133","lat":40.824,"lon":-115.7863,"elev":1541,"name":"Elko Rgnl, NV, US","cover":"CLR","clouds":[],"fltCat":"VFR"},{"icaoId":"KINW","receiptTime":"2026-04-18T07:00:29.486Z","obsTime":1776495360,"reportTime":"2026-04-18T07:00:00.000Z","temp":2.2,"dewp":-18.9,"wdir":170,"wspd":3,"visib":"10+","altim":1021.8,"slp":1019.6,"qcField":6,"maxT24":17.2,"minT24":2.2,"metarType":"METAR","rawOb":"METAR KINW 180656Z AUTO 17003KT 10SM CLR 02/M19 A3017 RMK AO2 SLP196 T00221189 401720022","lat":35.0279,"lon":-110.7221,"elev":1492,"name":"Winslow/Lindberg Rgnl, AZ, US","cover":"CLR","clouds":[],"fltCat":"VFR"},{"icaoId":"KLAS","receiptTime":"2026-04-18T07:00:29.498Z","obsTime":1776495360,"reportTime":"2026-04-18T07:00:00.000Z","temp":13.9,"dewp":-15.6,"wdir":270,"wspd":4,"visib":"10+","altim":1018.7,"slp":1017.8,"qcField":4,"metarType":"METAR","rawOb":"METAR KLAS 180656Z 27004KT 10SM CLR 14/M16 A3008 RMK AO2 SLP178 T01391156","lat":36.0719,"lon":-115.1634,"elev":662,"name":"Las Vegas/Reid Intl, NV, US","cover":"CLR","clouds":[],"fltCat":"VFR"},{"icaoId":"KLWS","receiptTime":"2026-04-18T07:00:29.517Z","obsTime":1776495360,"reportTime":"2026-04-18T07:00:00.000Z","temp":3.9,"dewp":-0.6,"wdir":140,"wspd":4,"visib":"10+","altim":1023.1,"slp":1023.9,"qcField":6,"metarType":"METAR","rawOb":"METAR KLWS 180656Z AUTO 14004KT 10SM CLR 04/M01 A3021 RMK AO2 SLP239 T00391006","lat":46.3746,"lon":-117.0153,"elev":435,"name":"Lewiston/Nez Perce Cnty, ID, US","cover":"CLR","clouds":[],"fltCat":"VFR"},{"icaoId":"KSBP","receiptTime":"2026-04-18T07:00:29.640Z","obsTime":1776495360,"reportTime":"2026-04-18T07:00:00.000Z","temp":8.9,"dewp":3.3,"wdir":0,"wspd":0,"visib":"10+","altim":1017,"slp":1016.6,"qcField":6,"metarType":"METAR","rawOb":"METAR KSBP 180656Z AUTO 00000KT 10SM CLR 09/03 A3003 RMK AO2 SLP166 T00890033","lat":35.2381,"lon":-120.644,"elev":52,"name":"San Luis Obispo/San Luis Cnty, CA, US","cover":"CLR","clouds":[],"fltCat":"VFR"},{"icaoId":"KSFO","receiptTime":"2026-04-18T07:00:29.697Z","obsTime":1776495360,"reportTime":"2026-04-18T07:00:00.000Z","temp":12.2,"dewp":8.3,"wdir":290,"wspd":11,"visib":"10+","altim":1017.4,"slp":1017.3,"qcField":12,"metarType":"METAR","rawOb":"METAR KSFO 180656Z 29011KT 10SM BKN200 12/08 A3004 RMK AO2 SLP173 T01220083 $","lat":37.6196,"lon":-122.3656,"elev":2,"name":"San Francisco Intl, CA, US","cover":"BKN","clouds":[{"cover":"BKN","base":20000}],"fltCat":"VFR"},{"icaoId":"KCOD","receiptTime":"2026-04-18T06:58:20.953Z","obsTime":1776495360,"reportTime":"2026-04-18T07:00:00.000Z","temp":-2.2,"dewp":-6.7,"wdir":0,"wspd":0,"visib":"10+","altim":1021.8,"slp":1023.5,"qcField":78,"maxT24":6.7,"minT24":-7.8,"metarType":"METAR","rawOb":"METAR KCOD 180656Z AUTO 00000KT 10SM BKN095 M02/M07 A3017 RMK AO2 SLP235 T10221067 400671078 FZRANO $","lat":44.52,"lon":-109.0268,"elev":1550,"name":"Cody/Yellowstone Rgnl, WY, US","cover":"BKN","clouds":[{"cover":"BKN","base":9500}],"fltCat":"VFR"},{"icaoId":"KVIS","receiptTime":"2026-04-18T06:58:20.293Z","obsTime":1776495360,"reportTime":"2026-04-18T07:00:00.000Z","temp":14.4,"dewp":6.7,"wdir":320,"wspd":5,"visib":"10+","altim":1017,"slp":1016.6,"qcField":14,"metarType":"METAR","rawOb":"METAR KVIS 180656Z AUTO 32005KT 10SM CLR 14/07 A3003 RMK AO2 SLP166 T01440067 PNO $","lat":36.3135,"lon":-119.3884,"elev":92,"name":"Visalia Muni, CA, US","cover":"CLR","clouds":[],"fltCat":"VFR"},{"icaoId":"KHND","receiptTime":"2026-04-18T06:58:23.742Z","obsTime":1776495360,"reportTime":"2026-04-18T07:00:00.000Z","temp":10,"dewp":-12.2,"wdir":150,"wspd":6,"visib":"10+","altim":1019.4,"slp":1020.5,"qcField":14,"maxT24":19.4,"minT24":9.4,"metarType":"METAR","rawOb":"METAR KHND 180656Z AUTO 15006KT 10SM CLR 10/M12 A3010 RMK AO2 SLP205 T01001122 401940094 $","lat":35.9657,"lon":-115.1343,"elev":740,"name":"Henderson Exec, NV, US","cover":"CLR","clouds":[],"fltCat":"VFR"},{"icaoId":"KHDN","receiptTime":"2026-04-18T06:58:26.610Z","obsTime":1776495360,"reportTime":"2026-04-18T07:00:00.000Z","temp":-2.8,"dewp":-6.7,"wdir":280,"wspd":5,"visib":"10+","altim":1023.5,"slp":1026,"qcField":70,"metarType":"METAR","rawOb":"METAR KHDN 180656Z AUTO 28005KT 10SM SCT050 BKN070 OVC080 M03/M07 A3022 RMK AO2 SLP260 T10281067 FZRANO","lat":40.4842,"lon":-107.2296,"elev":2012,"name":"Hayden/Yampa Valley Arpt, CO, US","cover":"OVC","clouds":[{"cover":"SCT","base":5000},{"cover":"BKN","base":7000},{"cover":"OVC","base":8000}],"fltCat":"VFR"},{"icaoId":"KSGU","receiptTime":"2026-04-18T06:58:25.134Z","obsTime":1776495360,"reportTime":"2026-04-18T07:00:00.000Z","temp":11.1,"dewp":-12.2,"wdir":30,"wspd":8,"visib":"10+","altim":1020.4,"slp":1019.3,"qcField":6,"maxT24":17.2,"minT24":6.7,"metarType":"METAR","rawOb":"METAR KSGU 180656Z AUTO 03008KT 10SM CLR 11/M12 A3013 RMK AO2 SLP193 T01111122 401720067","lat":37.0444,"lon":-113.5034,"elev":877,"name":"Saint George Muni, UT, US","cover":"CLR","clouds":[],"fltCat":"VFR"},{"icaoId":"KPWT","receiptTime":"2026-04-18T06:58:24.780Z","obsTime":1776495360,"reportTime":"2026-04-18T07:00:00.000Z","temp":6.1,"dewp":3.3,"wdir":0,"wspd":0,"visib":"10+","altim":1020.7,"slp":1021.3,"qcField":6,"metarType":"METAR","rawOb":"METAR KPWT 180656Z AUTO 00000KT 10SM CLR 06/03 A3014 RMK AO2 SLP213 T00610033","lat":47.4942,"lon":-122.7594,"elev":143,"name":"Bremerton Arpt, WA, US","cover":"CLR","clouds":[],"fltCat":"VFR"},{"icaoId":"KEGE","receiptTime":"2026-04-18T06:58:18.921Z","obsTime":1776495360,"reportTime":"2026-04-18T07:00:00.000Z","temp":-5.6,"dewp":-9.4,"wdir":70,"wspd":5,"visib":"10+","altim":1023.8,"slp":1026.1,"qcField":68,"metarType":"METAR","rawOb":"METAR KEGE 180656Z 07005KT 10SM BKN080 OVC100 M06/M09 A3023 RMK AO2 SLP261 T10561094 FZRANO","lat":39.6448,"lon":-106.9176,"elev":1993,"name":"Eagle Cnty Rgnl, CO, US","cover":"OVC","clouds":[{"cover":"BKN","base":8000},{"cover":"OVC","base":10000}],"fltCat":"VFR"},{"icaoId":"KEND","receiptTime":"2026-04-18T07:06:04.221Z","obsTime":1776495300,"reportTime":"2026-04-18T07:00:00.000Z","temp":10,"dewp":-0.2,"wdir":350,"wspd":16,"visib":"10+","altim":1015.3,"slp":1014.7,"qcField":12,"metarType":"METAR","rawOb":"METAR KEND 180655Z 35016KT 10SM CLR 10/M00 A2998 RMK AO2A SLP147 T01001002 $","lat":36.338,"lon":-97.919,"elev":392,"name":"Enid/Vance AFB, OK, US","cover":"CLR","clouds":[],"fltCat":"VFR"},{"icaoId":"KLUF","receiptTime":"2026-04-18T07:08:05.744Z","obsTime":1776495300,"reportTime":"2026-04-18T07:00:00.000Z","temp":23,"dewp":-16.6,"wdir":280,"wspd":10,"visib":"10+","altim":1011.9,"slp":1010.7,"qcField":14,"maxT24":29.9,"minT24":18.2,"metarType":"METAR","rawOb":"METAR KLUF 180655Z AUTO 28010KT 10SM CLR 23/M17 A2988 RMK AO2 SLP107 T02301166 402990182 $","lat":33.538,"lon":-112.38,"elev":333,"name":"Phoenix/Luke AFB, AZ, US","cover":"CLR","clouds":[],"fltCat":"VFR"},{"icaoId":"KRNO","receiptTime":"2026-04-18T06:58:24.896Z","obsTime":1776495300,"reportTime":"2026-04-18T07:00:00.000Z","temp":6.7,"dewp":-13.9,"wdir":0,"wspd":0,"visib":"10+","altim":1020.4,"slp":1018.9,"qcField":4,"metarType":"METAR","rawOb":"METAR KRNO 180655Z 00000KT 10SM FEW200 07/M14 A3013 RMK AO2 SLP189 T00671139","lat":39.5077,"lon":-119.7683,"elev":1344,"name":"Reno/Tahoe Intl, NV, US","cover":"FEW","clouds":[{"cover":"FEW","base":20000}],"fltCat":"VFR"},{"icaoId":"KGPI","receiptTime":"2026-04-18T06:58:26.409Z","obsTime":1776495300,"reportTime":"2026-04-18T07:00:00.000Z","temp":-1.7,"dewp":-2.2,"wdir":330,"wspd":3,"visib":3,"altim":1021.8,"slp":1024,"qcField":4,"wxString":"BR","maxT24":6.1,"minT24":-3.3,"metarType":"METAR","rawOb":"METAR KGPI 180655Z 33003KT 3SM BR SCT070 M02/M02 A3017 RMK AO2 SLP240 I1000 T10171022 400611033","lat":48.3041,"lon":-114.2643,"elev":903,"name":"Kalispell/Glacier Park Intl, MT, US","cover":"SCT","clouds":[{"cover":"SCT","base":7000}],"fltCat":"MVFR"},{"icaoId":"KAST","receiptTime":"2026-04-18T06:58:23.193Z","obsTime":1776495300,"reportTime":"2026-04-18T07:00:00.000Z","temp":7.8,"dewp":5.6,"wdir":0,"wspd":0,"visib":"10+","altim":1019,"slp":1018.8,"qcField":6,"metarType":"METAR","rawOb":"METAR KAST 180655Z AUTO 00000KT 10SM CLR 08/06 A3009 RMK AO2 SLP188 T00780056","lat":46.157,"lon":-123.8833,"elev":3,"name":"Astoria Rgnl, OR, US","cover":"CLR","clouds":[],"fltCat":"VFR"},{"icaoId":"KCMA","receiptTime":"2026-04-18T06:58:20.883Z","obsTime":1776495300,"reportTime":"2026-04-18T07:00:00.000Z","temp":13.3,"dewp":8.3,"wdir":40,"wspd":5,"visib":"10+","altim":1015,"slp":1015.6,"qcField":6,"metarType":"METAR","rawOb":"METAR KCMA 180655Z AUTO 04005KT 10SM CLR 13/08 A2997 RMK AO2 SLP156 T01330083","lat":34.2114,"lon":-119.0876,"elev":20,"name":"Camarillo Arpt, CA, US","cover":"CLR","clouds":[],"fltCat":"VFR"},{"icaoId":"KDSM","receiptTime":"2026-04-18T06:58:16.535Z","obsTime":1776495240,"reportTime":"2026-04-18T07:00:00.000Z","temp":5,"dewp":-2.8,"wdir":320,"wspd":23,"wgst":33,"visib":"10+","altim":1013,"slp":1012.6,"qcField":12,"metarType":"METAR","rawOb":"METAR KDSM 180654Z 32023G33KT 10SM FEW070 05/M03 A2991 RMK AO2 PK WND 31033/0654 SLP126 T00501028 $","lat":41.5339,"lon":-93.6531,"elev":286,"name":"Des Moines Intl, IA, US","cover":"FEW","clouds":[{"cover":"FEW","base":7000}],"fltCat":"VFR"},{"icaoId":"KFFZ","receiptTime":"2026-04-18T06:58:05.064Z","obsTime":1776495240,"reportTime":"2026-04-18T07:00:00.000Z","temp":21.1,"dewp":-7.8,"wdir":0,"wspd":0,"visib":"10+","altim":1012.6,"slp":1010.5,"qcField":6,"maxT24":28.3,"minT24":15.6,"metarType":"METAR","rawOb":"METAR KFFZ 180654Z AUTO 00000KT 10SM CLR 21/M08 A2990 RMK AO2 SLP105 T02111078 402830156","lat":33.4659,"lon":-111.7212,"elev":420,"name":"Mesa/Falcon Fld, AZ, US","cover":"CLR","clouds":[],"fltCat":"VFR"},{"icaoId":"KSJN","receiptTime":"2026-04-18T06:58:09.325Z","obsTime":1776495240,"reportTime":"2026-04-18T07:00:00.000Z","temp":3.9,"dewp":-13.3,"wdir":0,"wspd":0,"visib":"10+","altim":1020.7,"slp":1016,"qcField":6,"maxT24":18.3,"minT24":2.2,"metarType":"METAR","rawOb":"METAR KSJN 180654Z AUTO 00000KT 10SM CLR 04/M13 A3014 RMK AO2 SLP160 T00391133 401830022","lat":34.5184,"lon":-109.3801,"elev":1747,"name":"St Johns Ind Arpt, AZ, US","cover":"CLR","clouds":[],"fltCat":"VFR"},{"icaoId":"KROC","receiptTime":"2026-04-18T06:58:12.740Z","obsTime":1776495240,"reportTime":"2026-04-18T07:00:00.000Z","temp":10,"dewp":8.9,"wdir":180,"wspd":3,"visib":"10+","altim":1014,"slp":1014.1,"qcField":12,"metarType":"METAR","rawOb":"METAR KROC 180654Z 18003KT 10SM CLR 10/09 A2994 RMK AO2 SLP141 T01000089 $","lat":43.1172,"lon":-77.6754,"elev":166,"name":"Rochester Intl Arpt, NY, US","cover":"CLR","clouds":[],"fltCat":"VFR"},{"icaoId":"KSYR","receiptTime":"2026-04-18T06:58:12.764Z","obsTime":1776495240,"reportTime":"2026-04-18T07:00:00.000Z","temp":8.3,"dewp":8.3,"wdir":0,"wspd":0,"visib":"10+","altim":1015.7,"slp":1015.4,"qcField":4,"metarType":"METAR","rawOb":"METAR KSYR 180654Z 00000KT 10SM BKN250 08/08 A2999 RMK AO2 SLP154 T00830083","lat":43.1111,"lon":-76.1038,"elev":125,"name":"Syracuse/Hancock Intl, NY, US","cover":"BKN","clouds":[{"cover":"BKN","base":25000}],"fltCat":"VFR"},{"icaoId":"KBFL","receiptTime":"2026-04-18T06:58:14.423Z","obsTime":1776495240,"reportTime":"2026-04-18T07:00:00.000Z","temp":17.2,"dewp":1.7,"wdir":120,"wspd":4,"visib":"10+","altim":1016.7,"slp":1016.1,"qcField":14,"metarType":"METAR","rawOb":"METAR KBFL 180654Z AUTO 12004KT 10SM CLR 17/02 A3002 RMK AO2 SLP161 T01720017 $","lat":35.4342,"lon":-119.0552,"elev":146,"name":"Bakersfield/Meadows Arpt, CA, US","cover":"CLR","clouds":[],"fltCat":"VFR"},{"icaoId":"KCOS","receiptTime":"2026-04-18T06:58:16.499Z","obsTime":1776495240,"reportTime":"2026-04-18T07:00:00.000Z","temp":-5,"dewp":-6.7,"wdir":130,"wspd":3,"visib":"10+","altim":1021.4,"slp":1024.8,"qcField":4,"maxT24":14.4,"minT24":-5,"metarType":"METAR","rawOb":"METAR KCOS 180654Z 13003KT 10SM FEW012 FEW040 M05/M07 A3016 RMK AO2 SLP248 T10501067 401441050","lat":38.8095,"lon":-104.6887,"elev":1886,"name":"Colorado Spring Arpt, CO, US","cover":"FEW","clouds":[{"cover":"FEW","base":1200},{"cover":"FEW","base":4000}],"fltCat":"VFR"},{"icaoId":"KIND","receiptTime":"2026-04-18T06:58:16.581Z","obsTime":1776495240,"reportTime":"2026-04-18T07:00:00.000Z","temp":19.4,"dewp":13.9,"wdir":340,"wspd":15,"wgst":18,"visib":"10+","altim":1006.9,"slp":1006.1,"qcField":4,"metarType":"METAR","rawOb":"METAR KIND 180654Z 34015G18KT 10SM BKN060 OVC075 19/14 A2973 RMK AO2 SLP061 T01940139","lat":39.7252,"lon":-86.2816,"elev":242,"name":"Indianapolis Intl, IN, US","cover":"OVC","clouds":[{"cover":"BKN","base":6000},{"cover":"OVC","base":7500}],"fltCat":"VFR"},{"icaoId":"KBTV","receiptTime":"2026-04-18T06:58:17.447Z","obsTime":1776495240,"reportTime":"2026-04-18T07:00:00.000Z","temp":7.2,"dewp":5,"wdir":0,"wspd":0,"visib":"10+","altim":1015.3,"slp":1015.4,"qcField":6,"metarType":"METAR","rawOb":"METAR KBTV 180654Z AUTO 00000KT 10SM CLR 07/05 A2998 RMK AO2 SLP154 T00720050","lat":44.4682,"lon":-73.1499,"elev":101,"name":"Burlington Intl, VT, US","cover":"CLR","clouds":[],"fltCat":"VFR"},{"icaoId":"KGSO","receiptTime":"2026-04-18T06:58:17.533Z","obsTime":1776495240,"reportTime":"2026-04-18T07:00:00.000Z","temp":16.7,"dewp":11.7,"wdir":0,"wspd":0,"visib":"10+","altim":1015,"slp":1013.9,"qcField":4,"metarType":"METAR","rawOb":"METAR KGSO 180654Z 00000KT 10SM FEW085 SCT250 17/12 A2997 RMK AO2 SLP139 T01670117","lat":36.0969,"lon":-79.9432,"elev":275,"name":"Greensboro Intl, NC, US","cover":"SCT","clouds":[{"cover":"FEW","base":8500},{"cover":"SCT","base":25000}],"fltCat":"VFR"},{"icaoId":"KOLM","receiptTime":"2026-04-18T06:58:13.016Z","obsTime":1776495240,"reportTime":"2026-04-18T07:00:00.000Z","temp":5,"dewp":2.2,"wdir":0,"wspd":0,"visib":"10+","altim":1020.7,"slp":1020.6,"qcField":6,"metarType":"METAR","rawOb":"METAR KOLM 180654Z AUTO 00000KT 10SM CLR 05/02 A3014 RMK AO2 SLP206 T00500022","lat":46.9737,"lon":-122.9049,"elev":58,"name":"Olympia Rgnl, WA, US","cover":"CLR","clouds":[],"fltCat":"VFR"},{"icaoId":"KOLS","receiptTime":"2026-04-18T06:58:13.027Z","obsTime":1776495240,"reportTime":"2026-04-18T07:00:00.000Z","temp":12.8,"dewp":-2.8,"wdir":0,"wspd":0,"visib":"10+","altim":1016.3,"slp":1011,"qcField":6,"maxT24":26.1,"minT24":8.3,"metarType":"METAR","rawOb":"METAR KOLS 180654Z AUTO 00000KT 10SM CLR 13/M03 A3001 RMK AO2 SLP110 T01281028 402610083","lat":31.4208,"lon":-110.8465,"elev":1194,"name":"Nogales Intl, AZ, US","cover":"CLR","clouds":[],"fltCat":"VFR"},{"icaoId":"KRKS","receiptTime":"2026-04-18T06:58:12.481Z","obsTime":1776495240,"reportTime":"2026-04-18T07:00:00.000Z","temp":-5.6,"dewp":-10,"wdir":260,"wspd":8,"visib":"10+","altim":1023.1,"slp":1026.3,"qcField":6,"maxT24":2.8,"minT24":-8.9,"metarType":"METAR","rawOb":"METAR KRKS 180654Z AUTO 26008KT 10SM CLR M06/M10 A3021 RMK AO2 SLP263 T10561100 400281089","lat":41.5947,"lon":-109.0529,"elev":2062,"name":"Rock Springs/SW Wyoming Rgnl, WY, US","cover":"CLR","clouds":[],"fltCat":"VFR"},{"icaoId":"KAPC","receiptTime":"2026-04-18T06:58:14.325Z","obsTime":1776495240,"reportTime":"2026-04-18T07:00:00.000Z","temp":9.4,"dewp":6.7,"wdir":"VRB","wspd":3,"visib":"10+","altim":1017,"slp":1016.2,"qcField":6,"metarType":"METAR","rawOb":"METAR KAPC 180654Z AUTO VRB03KT 10SM CLR 09/07 A3003 RMK AO2 SLP162 T00940067","lat":38.2075,"lon":-122.2804,"elev":5,"name":"Napa Cnty Arpt, CA, US","cover":"CLR","clouds":[],"fltCat":"VFR"},{"icaoId":"KSLC","receiptTime":"2026-04-18T06:58:13.039Z","obsTime":1776495240,"reportTime":"2026-04-18T07:00:00.000Z","temp":2.8,"dewp":-10.6,"wdir":130,"wspd":7,"visib":"10+","altim":1024.5,"slp":1024.3,"qcField":4,"maxT24":8.3,"minT24":-1.1,"metarType":"METAR","rawOb":"METAR KSLC 180654Z 13007KT 10SM CLR 03/M11 A3025 RMK AO2 SLP243 T00281106 400831011","lat":40.7707,"lon":-111.965,"elev":1286,"name":"Salt Lake City Intl, UT, US","cover":"CLR","clouds":[],"fltCat":"VFR"},{"icaoId":"KMEM","receiptTime":"2026-04-18T06:58:18.310Z","obsTime":1776495240,"reportTime":"2026-04-18T07:00:00.000Z","temp":23.3,"dewp":16.1,"wdir":200,"wspd":11,"wgst":18,"visib":"10+","altim":1009.2,"slp":1008.7,"qcField":12,"metarType":"METAR","rawOb":"METAR KMEM 180654Z 20011G18KT 10SM BKN200 OVC250 23/16 A2980 RMK AO2 PK WND 18026/0604 SLP087 T02330161 $","lat":35.0564,"lon":-89.9864,"elev":78,"name":"Memphis Intl, TN, US","cover":"OVC","clouds":[{"cover":"BKN","base":20000},{"cover":"OVC","base":25000}],"fltCat":"VFR"},{"icaoId":"KRIC","receiptTime":"2026-04-18T06:58:12.716Z","obsTime":1776495240,"reportTime":"2026-04-18T07:00:00.000Z","temp":16.7,"dewp":12.8,"wdir":0,"wspd":0,"visib":"10+","altim":1015,"slp":1015.3,"qcField":12,"metarType":"METAR","rawOb":"METAR KRIC 180654Z 00000KT 10SM FEW090 SCT250 17/13 A2997 RMK AO2 SLP153 T01670128 $","lat":37.5115,"lon":-77.3234,"elev":51,"name":"Richmond Intl, VA, US","cover":"SCT","clouds":[{"cover":"FEW","base":9000},{"cover":"SCT","base":25000}],"fltCat":"VFR"},{"icaoId":"KEUG","receiptTime":"2026-04-18T06:58:12.929Z","obsTime":1776495240,"reportTime":"2026-04-18T07:00:00.000Z","temp":5.6,"dewp":3.9,"wdir":160,"wspd":3,"visib":"10+","altim":1019.4,"slp":1019.2,"qcField":6,"metarType":"METAR","rawOb":"METAR KEUG 180654Z AUTO 16003KT 10SM CLR 06/04 A3010 RMK AO2 SLP192 T00560039","lat":44.1331,"lon":-123.2156,"elev":109,"name":"Eugene/Mahlon Sweet Fld, OR, US","cover":"CLR","clouds":[],"fltCat":"VFR"},{"icaoId":"KGCN","receiptTime":"2026-04-18T06:58:15.722Z","obsTime":1776495240,"reportTime":"2026-04-18T07:00:00.000Z","temp":-3.3,"dewp":-18.9,"wdir":0,"wspd":0,"visib":"10+","altim":1022.1,"slp":1020,"qcField":6,"maxT24":12.2,"minT24":-3.3,"metarType":"METAR","rawOb":"METAR KGCN 180654Z AUTO 00000KT 10SM CLR M03/M19 A3018 RMK AO2 SLP200 T10331189 401221033","lat":35.9458,"lon":-112.1554,"elev":1993,"name":"Grand Canyon Park Arpt, AZ, US","cover":"CLR","clouds":[],"fltCat":"VFR"},{"icaoId":"KBOS","receiptTime":"2026-04-18T06:58:17.434Z","obsTime":1776495240,"reportTime":"2026-04-18T07:00:00.000Z","temp":10,"dewp":8.3,"wdir":330,"wspd":7,"visib":"10+","altim":1018.4,"slp":1018.3,"qcField":4,"metarType":"METAR","rawOb":"METAR KBOS 180654Z 33007KT 10SM CLR 10/08 A3007 RMK AO2 SLP183 T01000083","lat":42.3606,"lon":-71.0097,"elev":4,"name":"Boston/Logan Intl, MA, US","cover":"CLR","clouds":[],"fltCat":"VFR"},{"icaoId":"KBWI","receiptTime":"2026-04-18T07:00:28.493Z","obsTime":1776495240,"reportTime":"2026-04-18T07:00:00.000Z","temp":16.1,"dewp":12.8,"wdir":0,"wspd":0,"visib":"10+","altim":1015,"slp":1014.6,"qcField":5,"metarType":"METAR","rawOb":"METAR KBWI 180654Z COR 00000KT 10SM BKN250 16/13 A2997 RMK AO2 SLP146 T01610128","lat":39.1733,"lon":-76.684,"elev":42,"name":"Baltimore-Washington Intl, MD, US","cover":"BKN","clouds":[{"cover":"BKN","base":25000}],"fltCat":"VFR"},{"icaoId":"KLAR","receiptTime":"2026-04-18T06:56:29.636Z","obsTime":1776495180,"reportTime":"2026-04-18T07:00:00.000Z","temp":-5,"dewp":-11.7,"wdir":300,"wspd":15,"wgst":26,"visib":"10+","altim":1019,"slp":1021.2,"qcField":6,"minT24":-8.3,"metarType":"METAR","rawOb":"METAR KLAR 180653Z AUTO 30015G26KT 10SM CLR M05/M12 A3009 RMK AO2 PK WND 33026/0648 SLP212 T10501117 400001083","lat":41.3165,"lon":-105.6729,"elev":2217,"name":"Laramie Rgnl, WY, US","cover":"CLR","clouds":[],"fltCat":"VFR"},{"icaoId":"KSDL","receiptTime":"2026-04-18T06:56:33.840Z","obsTime":1776495180,"reportTime":"2026-04-18T07:00:00.000Z","temp":21.1,"dewp":-5.6,"wdir":310,"wspd":3,"visib":"10+","altim":1013.3,"slp":1011.1,"qcField":4,"maxT24":28.9,"minT24":15.6,"metarType":"METAR","rawOb":"METAR KSDL 180653Z 31003KT 10SM CLR 21/M06 A2992 RMK AO2 SLP111 T02111056 402890156","lat":33.6123,"lon":-111.9232,"elev":438,"name":"Scottsdale Muni, AZ, US","cover":"CLR","clouds":[],"fltCat":"VFR"},{"icaoId":"KAMA","receiptTime":"2026-04-18T06:56:34.118Z","obsTime":1776495180,"reportTime":"2026-04-18T07:00:00.000Z","temp":5,"dewp":-5.6,"wdir":10,"wspd":18,"wgst":27,"visib":"10+","altim":1019.7,"slp":1016.1,"qcField":6,"metarType":"METAR","rawOb":"METAR KAMA 180653Z AUTO 01018G27KT 10SM CLR 05/M06 A3011 RMK AO2 PK WND 01030/0601 SLP161 T00501056","lat":35.2203,"lon":-101.7173,"elev":1102,"name":"Amarillo Intl Arpt, TX, US","cover":"CLR","clouds":[],"fltCat":"VFR"},{"icaoId":"KAPA","receiptTime":"2026-04-18T06:56:34.191Z","obsTime":1776495180,"reportTime":"2026-04-18T07:00:00.000Z","temp":-5,"dewp":-8.3,"wdir":180,"wspd":5,"visib":"10+","altim":1020.7,"slp":1025,"qcField":4,"maxT24":15,"minT24":-5,"metarType":"METAR","rawOb":"METAR KAPA 180653Z 18005KT 10SM CLR M05/M08 A3014 RMK AO2 SLP250 T10501083 401501050","lat":39.5599,"lon":-104.8484,"elev":1791,"name":"Denver/Centennial Arpt, CO, US","cover":"CLR","clouds":[],"fltCat":"VFR"},{"icaoId":"KASE","receiptTime":"2026-04-18T06:56:34.272Z","obsTime":1776495180,"reportTime":"2026-04-18T07:00:00.000Z","temp":-7.2,"dewp":-11.7,"wdir":0,"wspd":0,"visib":"10+","altim":1021.8,"slp":1023.4,"qcField":6,"maxT24":10,"minT24":-7.2,"metarType":"METAR","rawOb":"METAR KASE 180653Z AUTO 00000KT 10SM BKN065 M07/M12 A3017 RMK AO2 SLP234 T10721117 401001072","lat":39.2299,"lon":-106.8705,"elev":2384,"name":"Aspen/Pitkin Cnty, CO, US","cover":"BKN","clouds":[{"cover":"BKN","base":6500}],"fltCat":"VFR"},{"icaoId":"KAUS","receiptTime":"2026-04-18T06:56:34.336Z","obsTime":1776495180,"reportTime":"2026-04-18T07:00:00.000Z","temp":22.8,"dewp":18.9,"wdir":180,"wspd":10,"visib":"10+","altim":1010.6,"slp":1009.5,"qcField":4,"metarType":"METAR","rawOb":"METAR KAUS 180653Z 18010KT 10SM BKN021 23/19 A2984 RMK AO2 SLP095 T02280189","lat":30.1831,"lon":-97.6806,"elev":148,"name":"Austin/Bergstrom Intl, TX, US","cover":"BKN","clouds":[{"cover":"BKN","base":2100}],"fltCat":"MVFR"},{"icaoId":"KCYS","receiptTime":"2026-04-18T06:56:34.477Z","obsTime":1776495180,"reportTime":"2026-04-18T07:00:00.000Z","temp":-3.3,"dewp":-8.9,"wdir":330,"wspd":5,"visib":"10+","altim":1019.7,"slp":1023.7,"qcField":6,"maxT24":2.8,"minT24":-4.4,"metarType":"METAR","rawOb":"METAR KCYS 180653Z AUTO 33005KT 10SM BKN042 M03/M09 A3011 RMK AO2 SLP237 T10331089 400281044","lat":41.1579,"lon":-104.8081,"elev":1868,"name":"Cheyenne Rgnl, WY, US","cover":"BKN","clouds":[{"cover":"BKN","base":4200}],"fltCat":"VFR"},{"icaoId":"KDEN","receiptTime":"2026-04-18T06:56:34.518Z","obsTime":1776495180,"reportTime":"2026-04-18T07:00:00.000Z","temp":-5,"dewp":-7.8,"wdir":210,"wspd":8,"visib":"10+","altim":1020.4,"slp":1023.1,"qcField":12,"maxT24":5,"minT24":-5.6,"metarType":"METAR","rawOb":"METAR KDEN 180653Z 21008KT 10SM FEW220 M05/M08 A3013 RMK AO2 SLP231 T10501078 400501056 $","lat":39.8466,"lon":-104.6562,"elev":1656,"name":"Denver Intl, CO, US","cover":"FEW","clouds":[{"cover":"FEW","base":22000}],"fltCat":"VFR"},{"icaoId":"KDFW","receiptTime":"2026-04-18T06:56:34.577Z","obsTime":1776495180,"reportTime":"2026-04-18T07:00:00.000Z","temp":23.3,"dewp":18.9,"wdir":190,"wspd":20,"wgst":30,"visib":"10+","altim":1007.5,"slp":1006.5,"qcField":4,"metarType":"METAR","rawOb":"METAR KDFW 180653Z 19020G30KT 10SM FEW025 FEW250 23/19 A2975 RMK AO2 PK WND 19030/0637 SLP065 T02330189","lat":32.8974,"lon":-97.022,"elev":168,"name":"Dallas-Ft Worth Intl, TX, US","cover":"FEW","clouds":[{"cover":"FEW","base":2500},{"cover":"FEW","base":25000}],"fltCat":"VFR"},{"icaoId":"KMOD","receiptTime":"2026-04-18T06:56:34.767Z","obsTime":1776495180,"reportTime":"2026-04-18T07:00:00.000Z","temp":13.3,"dewp":3.9,"wdir":320,"wspd":5,"visib":"10+","altim":1016.3,"slp":1016.3,"qcField":6,"metarType":"METAR","rawOb":"METAR KMOD 180653Z AUTO 32005KT 10SM CLR 13/04 A3001 RMK AO2 SLP163 T01330039","lat":37.6254,"lon":-120.9549,"elev":25,"name":"Modesto/Sham Fld, CA, US","cover":"CLR","clouds":[],"fltCat":"VFR"},{"icaoId":"KMSY","receiptTime":"2026-04-18T06:56:34.857Z","obsTime":1776495180,"reportTime":"2026-04-18T07:00:00.000Z","temp":21.1,"dewp":18.3,"wdir":180,"wspd":4,"visib":"10+","altim":1014,"slp":1014.1,"qcField":4,"metarType":"METAR","rawOb":"METAR KMSY 180653Z 18004KT 10SM CLR 21/18 A2994 RMK AO2 SLP141 T02110183","lat":29.9974,"lon":-90.2777,"elev":0,"name":"New Orleans/Armstrong Intl, LA, US","cover":"CLR","clouds":[],"fltCat":"VFR"},{"icaoId":"KOAK","receiptTime":"2026-04-18T06:56:34.969Z","obsTime":1776495180,"reportTime":"2026-04-18T07:00:00.000Z","temp":12.2,"dewp":8.3,"wdir":270,"wspd":5,"visib":"10+","altim":1017.7,"slp":1017.6,"qcField":12,"metarType":"METAR","rawOb":"METAR KOAK 180653Z 27005KT 10SM BKN200 12/08 A3005 RMK AO2 SLP176 T01220083 $","lat":37.7178,"lon":-122.233,"elev":3,"name":"Oakland Intl, CA, US","cover":"BKN","clouds":[{"cover":"BKN","base":20000}],"fltCat":"VFR"},{"icaoId":"KTWF","receiptTime":"2026-04-18T06:56:35.204Z","obsTime":1776495180,"reportTime":"2026-04-18T07:00:00.000Z","temp":-0.6,"dewp":-6.7,"wdir":200,"wspd":8,"visib":"10+","altim":1023.8,"slp":1023.4,"qcField":6,"maxT24":9.4,"minT24":-3.3,"metarType":"METAR","rawOb":"METAR KTWF 180653Z AUTO 20008KT 10SM CLR M01/M07 A3023 RMK AO2 SLP234 T10061067 400941033","lat":42.4785,"lon":-114.4775,"elev":1269,"name":"Twin Falls/Joslin Fld, ID, US","cover":"CLR","clouds":[],"fltCat":"VFR"},{"icaoId":"KVGT","receiptTime":"2026-04-18T06:56:35.309Z","obsTime":1776495180,"reportTime":"2026-04-18T07:00:00.000Z","temp":14.4,"dewp":-15,"wdir":290,"wspd":4,"visib":"10+","altim":1018.4,"slp":1019.5,"qcField":6,"metarType":"METAR","rawOb":"METAR KVGT 180653Z AUTO 29004KT 10SM CLR 14/M15 A3007 RMK AO2 SLP195 T01441150","lat":36.212,"lon":-115.194,"elev":664,"name":"Las Vegas/North Arpt, NV, US","cover":"CLR","clouds":[],"fltCat":"VFR"},{"icaoId":"KGSP","receiptTime":"2026-04-18T06:56:35.649Z","obsTime":1776495180,"reportTime":"2026-04-18T07:00:00.000Z","temp":15.6,"dewp":11.1,"wdir":50,"wspd":3,"visib":"10+","altim":1015,"slp":1013.9,"qcField":6,"metarType":"METAR","rawOb":"METAR KGSP 180653Z AUTO 05003KT 10SM CLR 16/11 A2997 RMK AO2 SLP139 T01560111","lat":34.8842,"lon":-82.2209,"elev":285,"name":"Greenville-Spartanburg Intl, SC, US","cover":"CLR","clouds":[],"fltCat":"VFR"},{"icaoId":"KGTF","receiptTime":"2026-04-18T06:56:35.663Z","obsTime":1776495180,"reportTime":"2026-04-18T07:00:00.000Z","temp":-0.6,"dewp":-2.2,"wdir":200,"wspd":8,"visib":"10+","altim":1019.7,"slp":1023.2,"qcField":4,"maxT24":5,"minT24":-7.8,"metarType":"METAR","rawOb":"METAR KGTF 180653Z 20008KT 10SM BKN085 M01/M02 A3011 RMK AO2 SLP232 T10061022 400501078","lat":47.4733,"lon":-111.3828,"elev":1117,"name":"Great Falls Intl, MT, US","cover":"BKN","clouds":[{"cover":"BKN","base":8500}],"fltCat":"VFR"},{"icaoId":"KRIW","receiptTime":"2026-04-18T06:56:36.146Z","obsTime":1776495180,"reportTime":"2026-04-18T07:00:00.000Z","temp":-0.6,"dewp":-12.2,"wdir":290,"wspd":17,"wgst":24,"visib":"10+","altim":1020.4,"slp":1021.4,"qcField":6,"maxT24":7.2,"minT24":-3.3,"metarType":"METAR","rawOb":"METAR KRIW 180653Z AUTO 29017G24KT 10SM CLR M01/M12 A3013 RMK AO2 SLP214 T10061122 400721033","lat":43.0622,"lon":-108.4471,"elev":1662,"name":"Riverton Rgnl, WY, US","cover":"CLR","clouds":[],"fltCat":"VFR"},{"icaoId":"KPNC","receiptTime":"2026-04-18T06:58:18.322Z","obsTime":1776495180,"reportTime":"2026-04-18T07:00:00.000Z","temp":8.9,"dewp":1.1,"wdir":360,"wspd":13,"visib":"10+","altim":1016,"slp":1015.3,"qcField":6,"metarType":"METAR","rawOb":"METAR KPNC 180653Z AUTO 36013KT 10SM FEW075 09/01 A3000 RMK AO2 SLP153 T00890011","lat":36.7369,"lon":-97.1024,"elev":304,"name":"Ponca City Rgnl, OK, US","cover":"FEW","clouds":[{"cover":"FEW","base":7500}],"fltCat":"VFR"},{"icaoId":"KTUL","receiptTime":"2026-04-18T06:56:36.316Z","obsTime":1776495180,"reportTime":"2026-04-18T07:00:00.000Z","temp":10,"dewp":9.4,"wdir":340,"wspd":16,"wgst":23,"visib":4,"altim":1014.6,"slp":1014,"qcField":4,"wxString":"TSRA BR","precip":0.16,"metarType":"METAR","rawOb":"METAR KTUL 180653Z 34016G23KT 4SM TSRA BR SCT040CB BKN080 OVC100 10/09 A2996 RMK AO2 SLP140 OCNL LTGIC ALQDS TS ALQDS MOV NE P0016 T01000094","lat":36.1985,"lon":-95.8782,"elev":196,"name":"Tulsa Intl Arpt, OK, US","cover":"OVC","clouds":[{"cover":"SCT","base":4000},{"cover":"BKN","base":8000},{"cover":"OVC","base":10000}],"fltCat":"MVFR"},{"icaoId":"KHOU","receiptTime":"2026-04-18T06:56:36.383Z","obsTime":1776495180,"reportTime":"2026-04-18T07:00:00.000Z","temp":21.1,"dewp":19.4,"wdir":180,"wspd":5,"visib":9,"altim":1011.6,"slp":1011.8,"qcField":4,"metarType":"METAR","rawOb":"METAR KHOU 180653Z 18005KT 9SM SCT250 21/19 A2987 RMK AO2 SLP118 T02110194","lat":29.6458,"lon":-95.2821,"elev":13,"name":"Houston/Hobby Arpt, TX, US","cover":"SCT","clouds":[{"cover":"SCT","base":25000}],"fltCat":"VFR"},{"icaoId":"KIAH","receiptTime":"2026-04-18T06:56:36.431Z","obsTime":1776495180,"reportTime":"2026-04-18T07:00:00.000Z","temp":21.7,"dewp":19.4,"wdir":170,"wspd":6,"visib":"10+","altim":1011.6,"slp":1011.6,"qcField":4,"metarType":"METAR","rawOb":"METAR KIAH 180653Z 17006KT 10SM BKN250 22/19 A2987 RMK AO2 SLP116 T02170194","lat":29.9844,"lon":-95.3607,"elev":27,"name":"Houston/Bush Intl, TX, US","cover":"BKN","clouds":[{"cover":"BKN","base":25000}],"fltCat":"VFR"},{"icaoId":"KSAF","receiptTime":"2026-04-18T06:56:36.470Z","obsTime":1776495180,"reportTime":"2026-04-18T07:00:00.000Z","temp":0.6,"dewp":-19.4,"wdir":350,"wspd":10,"visib":"10+","altim":1020.1,"slp":1015,"qcField":6,"maxT24":18.9,"minT24":-0.6,"metarType":"METAR","rawOb":"METAR KSAF 180653Z AUTO 35010KT 10SM CLR 01/M19 A3012 RMK AO2 SLP150 T00061194 401891006","lat":35.611,"lon":-106.0957,"elev":1918,"name":"Santa Fe Cnty Muni, NM, US","cover":"CLR","clouds":[],"fltCat":"VFR"},{"icaoId":"KMSP","receiptTime":"2026-04-18T06:56:36.537Z","obsTime":1776495180,"reportTime":"2026-04-18T07:00:00.000Z","temp":1.7,"dewp":-6.7,"wdir":300,"wspd":19,"wgst":25,"visib":"10+","altim":1010.2,"slp":1010.6,"qcField":4,"metarType":"METAR","rawOb":"METAR KMSP 180653Z 30019G25KT 10SM OVC039 02/M07 A2983 RMK AO2 PK WND 31029/0605 SLP106 T00171067","lat":44.8852,"lon":-93.2313,"elev":255,"name":"Minneapolis-St Paul Intl, MN, US","cover":"OVC","clouds":[{"cover":"OVC","base":3900}],"fltCat":"VFR"},{"icaoId":"KMTJ","receiptTime":"2026-04-18T06:56:36.550Z","obsTime":1776495180,"reportTime":"2026-04-18T07:00:00.000Z","temp":-1.7,"dewp":-7.8,"wdir":120,"wspd":8,"visib":"10+","altim":1023.8,"slp":1023.6,"qcField":6,"maxT24":13.3,"minT24":-2.8,"metarType":"METAR","rawOb":"METAR KMTJ 180653Z AUTO 12008KT 10SM CLR M02/M08 A3023 RMK AO2 SLP236 T10171078 401331028","lat":38.5054,"lon":-107.8981,"elev":1755,"name":"Montrose Rgnl, CO, US","cover":"CLR","clouds":[],"fltCat":"VFR"},{"icaoId":"KGJT","receiptTime":"2026-04-18T06:56:36.619Z","obsTime":1776495180,"reportTime":"2026-04-18T07:00:00.000Z","temp":0.6,"dewp":-6.1,"wdir":80,"wspd":5,"visib":"10+","altim":1023.5,"slp":1024.5,"qcField":6,"maxT24":7.2,"minT24":-1.7,"metarType":"METAR","rawOb":"METAR KGJT 180653Z AUTO 08005KT 10SM CLR 01/M06 A3022 RMK AO2 SLP245 T00061061 400721017","lat":39.1344,"lon":-108.5408,"elev":1475,"name":"Grand Junction Rgnl, CO, US","cover":"CLR","clouds":[],"fltCat":"VFR"},{"icaoId":"KVEL","receiptTime":"2026-04-18T06:56:36.679Z","obsTime":1776495180,"reportTime":"2026-04-18T07:00:00.000Z","temp":-1.7,"dewp":-6.1,"wdir":0,"wspd":0,"visib":"10+","altim":1024.1,"slp":1025.7,"qcField":6,"maxT24":6.1,"minT24":-3.9,"metarType":"METAR","rawOb":"METAR KVEL 180653Z AUTO 00000KT 10SM CLR M02/M06 A3024 RMK AO2 SLP257 T10171061 400611039","lat":40.4429,"lon":-109.5128,"elev":1604,"name":"Vernal Rgnl, UT, US","cover":"CLR","clouds":[],"fltCat":"VFR"},{"icaoId":"KONT","receiptTime":"2026-04-18T07:02:09.239Z","obsTime":1776495180,"reportTime":"2026-04-18T07:00:00.000Z","temp":16.7,"dewp":10.6,"wdir":290,"wspd":3,"visib":"10+","altim":1015.3,"slp":1014.6,"qcField":4,"metarType":"METAR","rawOb":"METAR KONT 180653Z 29003KT 10SM CLR 17/11 A2998 RMK AO2 SLP146 T01670106","lat":34.0531,"lon":-117.5769,"elev":279,"name":"Ontario Intl, CA, US","cover":"CLR","clouds":[],"fltCat":"VFR"},{"icaoId":"KMYR","receiptTime":"2026-04-18T06:56:28.900Z","obsTime":1776495180,"reportTime":"2026-04-18T07:00:00.000Z","temp":18.9,"dewp":13.9,"wdir":0,"wspd":0,"visib":"10+","altim":1015,"slp":1014.8,"qcField":14,"metarType":"METAR","rawOb":"METAR KMYR 180653Z AUTO 00000KT 10SM CLR 19/14 A2997 RMK AO2 SLP148 T01890139 $","lat":33.6769,"lon":-78.9325,"elev":7,"name":"Myrtle Beach Intl, SC, US","cover":"CLR","clouds":[],"fltCat":"VFR"},{"icaoId":"KFAT","receiptTime":"2026-04-18T06:56:33.228Z","obsTime":1776495180,"reportTime":"2026-04-18T07:00:00.000Z","temp":16.1,"dewp":6.1,"wdir":290,"wspd":6,"visib":"10+","altim":1016.7,"slp":1016.3,"qcField":4,"metarType":"METAR","rawOb":"METAR KFAT 180653Z 29006KT 10SM CLR 16/06 A3002 RMK AO2 SLP163 T01610061","lat":36.78,"lon":-119.7202,"elev":102,"name":"Fresno/Yosemite Intl, CA, US","cover":"CLR","clouds":[],"fltCat":"VFR"},{"icaoId":"KBRO","receiptTime":"2026-04-18T06:56:31.233Z","obsTime":1776495180,"reportTime":"2026-04-18T07:00:00.000Z","temp":25,"dewp":22.2,"wdir":150,"wspd":14,"visib":"10+","altim":1009.9,"slp":1009.6,"qcField":6,"metarType":"METAR","rawOb":"METAR KBRO 180653Z AUTO 15014KT 10SM FEW011 BKN020 25/22 A2982 RMK AO2 SLP096 T02500222","lat":25.9146,"lon":-97.4231,"elev":6,"name":"Brownsville Intl, TX, US","cover":"BKN","clouds":[{"cover":"FEW","base":1100},{"cover":"BKN","base":2000}],"fltCat":"MVFR"},{"icaoId":"KBOI","receiptTime":"2026-04-18T06:56:31.119Z","obsTime":1776495180,"reportTime":"2026-04-18T07:00:00.000Z","temp":5.6,"dewp":-5,"wdir":120,"wspd":6,"visib":"10+","altim":1023.1,"slp":1023.3,"qcField":4,"maxT24":11.7,"minT24":-1.7,"metarType":"METAR","rawOb":"METAR KBOI 180653Z 12006KT 10SM CLR 06/M05 A3021 RMK AO2 SLP233 T00561050 401171017","lat":43.567,"lon":-116.2406,"elev":860,"name":"Boise Arpt, ID, US","cover":"CLR","clouds":[],"fltCat":"VFR"},{"icaoId":"PANC","receiptTime":"2026-04-18T06:56:25.428Z","obsTime":1776495180,"reportTime":"2026-04-18T07:00:00.000Z","temp":1.7,"dewp":0.6,"wdir":190,"wspd":5,"visib":"10+","altim":1010.2,"slp":1010.2,"qcField":4,"metarType":"METAR","rawOb":"METAR PANC 180653Z 19005KT 10SM SCT004 BKN023 OVC035 02/01 A2983 RMK AO2 SLP102 T00170006","lat":61.1691,"lon":-150.0277,"elev":39,"name":"Anchorage Intl, AK, US","cover":"OVC","clouds":[{"cover":"SCT","base":400},{"cover":"BKN","base":2300},{"cover":"OVC","base":3500}],"fltCat":"MVFR"},{"icaoId":"KDTW","receiptTime":"2026-04-18T06:56:29.274Z","obsTime":1776495180,"reportTime":"2026-04-18T07:00:00.000Z","temp":16.7,"dewp":10,"wdir":160,"wspd":12,"visib":"10+","altim":1006.5,"slp":1006.3,"qcField":4,"metarType":"METAR","rawOb":"METAR KDTW 180653Z 16012KT 10SM SCT060 BKN085 BKN150 17/10 A2972 RMK AO2 SLP063 T01670100","lat":42.2311,"lon":-83.3312,"elev":192,"name":"Detroit/Metro Wayne Cnty, MI, US","cover":"BKN","clouds":[{"cover":"SCT","base":6000},{"cover":"BKN","base":8500},{"cover":"BKN","base":15000}],"fltCat":"VFR"},{"icaoId":"KBCE","receiptTime":"2026-04-18T06:56:26.585Z","obsTime":1776495180,"reportTime":"2026-04-18T07:00:00.000Z","temp":-10,"dewp":-15,"wdir":250,"wspd":4,"visib":"10+","altim":1023.5,"slp":1023.1,"qcField":6,"maxT24":6.1,"minT24":-10,"metarType":"METAR","rawOb":"METAR KBCE 180653Z AUTO 25004KT 10SM CLR M10/M15 A3022 RMK AO2 SLP231 T11001150 400611100","lat":37.7013,"lon":-112.149,"elev":2311,"name":"Bryce Canyon Arpt, UT, US","cover":"CLR","clouds":[],"fltCat":"VFR"},{"icaoId":"KBFI","receiptTime":"2026-04-18T06:56:26.597Z","obsTime":1776495180,"reportTime":"2026-04-18T07:00:00.000Z","temp":9.4,"dewp":3.3,"wdir":0,"wspd":0,"visib":"10+","altim":1020.7,"slp":1020.5,"qcField":4,"metarType":"METAR","rawOb":"METAR KBFI 180653Z 00000KT 10SM CLR 09/03 A3014 RMK AO2 SLP205 T00940033","lat":47.5455,"lon":-122.3148,"elev":7,"name":"Seattle/Boeing Fld, WA, US","cover":"CLR","clouds":[],"fltCat":"VFR"},{"icaoId":"KMDW","receiptTime":"2026-04-18T06:56:30.719Z","obsTime":1776495180,"reportTime":"2026-04-18T07:00:00.000Z","temp":16.7,"dewp":15,"wdir":200,"wspd":10,"wgst":21,"visib":8,"altim":1003.1,"slp":1002.3,"qcField":4,"wxString":"-RA","precip":0.02,"metarType":"METAR","rawOb":"METAR KMDW 180653Z 20010G21KT 8SM -RA FEW018 BKN100 OVC120 17/15 A2962 RMK AO2 SLP023 P0002 T01670150","lat":41.7841,"lon":-87.7552,"elev":186,"name":"Chicago/Midway Intl, IL, US","cover":"OVC","clouds":[{"cover":"FEW","base":1800},{"cover":"BKN","base":10000},{"cover":"OVC","base":12000}],"fltCat":"VFR"},{"icaoId":"KMIA","receiptTime":"2026-04-18T06:56:30.814Z","obsTime":1776495180,"reportTime":"2026-04-18T07:00:00.000Z","temp":24.4,"dewp":21.1,"wdir":90,"wspd":6,"visib":"10+","altim":1015,"slp":1014.8,"qcField":0,"metarType":"METAR","rawOb":"METAR KMIA 180653Z 09006KT 10SM SCT018 24/21 A2997 RMK SLP148 T02440211","lat":25.7881,"lon":-80.3169,"elev":1,"name":"Miami Intl, FL, US","cover":"SCT","clouds":[{"cover":"SCT","base":1800}],"fltCat":"VFR"},{"icaoId":"KDLN","receiptTime":"2026-04-18T06:56:29.192Z","obsTime":1776495180,"reportTime":"2026-04-18T07:00:00.000Z","temp":-2.8,"dewp":-8.9,"wdir":190,"wspd":9,"visib":"10+","altim":1021.4,"slp":1023.4,"qcField":6,"maxT24":6.1,"minT24":-5,"metarType":"METAR","rawOb":"METAR KDLN 180653Z AUTO 19009KT 10SM CLR M03/M09 A3016 RMK AO2 SLP234 T10281089 400611050","lat":45.2584,"lon":-112.5546,"elev":1586,"name":"Dillon Arpt, MT, US","cover":"CLR","clouds":[],"fltCat":"VFR"},{"icaoId":"KDRO","receiptTime":"2026-04-18T06:56:29.237Z","obsTime":1776495180,"reportTime":"2026-04-18T07:00:00.000Z","temp":-3.9,"dewp":-11.7,"wdir":10,"wspd":6,"visib":"10+","altim":1021.4,"slp":1021.9,"qcField":6,"maxT24":10.6,"minT24":-4.4,"metarType":"METAR","rawOb":"METAR KDRO 180653Z AUTO 01006KT 10SM CLR M04/M12 A3016 RMK AO2 SLP219 T10391117 401061044","lat":37.1431,"lon":-107.7602,"elev":2021,"name":"Durango/La Plata Cnty, CO, US","cover":"CLR","clouds":[],"fltCat":"VFR"},{"icaoId":"KPSP","receiptTime":"2026-04-18T06:56:32.485Z","obsTime":1776495180,"reportTime":"2026-04-18T07:00:00.000Z","temp":21.7,"dewp":-20,"wdir":310,"wspd":6,"visib":"10+","altim":1015.7,"slp":1015.5,"qcField":14,"metarType":"METAR","rawOb":"METAR KPSP 180653Z AUTO 31006KT 10SM CLR 22/M20 A2999 RMK AO2 SLP155 T02171200 $","lat":33.8222,"lon":-116.5043,"elev":123,"name":"Palm Springs Intl, CA, US","cover":"CLR","clouds":[],"fltCat":"VFR"},{"icaoId":"KPUB","receiptTime":"2026-04-18T06:56:36.102Z","obsTime":1776495180,"reportTime":"2026-04-18T07:00:00.000Z","temp":-2.2,"dewp":-4.4,"wdir":270,"wspd":4,"visib":"10+","altim":1022.1,"slp":1022.2,"qcField":14,"maxT24":15,"minT24":-2.2,"metarType":"METAR","rawOb":"METAR KPUB 180653Z AUTO 27004KT 10SM CLR M02/M04 A3018 RMK AO2 SLP222 T10221044 401501022 $","lat":38.2887,"lon":-104.5057,"elev":1441,"name":"Pueblo Mem Arpt, CO, US","cover":"CLR","clouds":[],"fltCat":"VFR"},{"icaoId":"KRDD","receiptTime":"2026-04-18T06:56:32.612Z","obsTime":1776495180,"reportTime":"2026-04-18T07:00:00.000Z","temp":10,"dewp":3.9,"wdir":0,"wspd":0,"visib":"10+","altim":1016.3,"slp":1015.9,"qcField":6,"metarType":"METAR","rawOb":"METAR KRDD 180653Z AUTO 00000KT 10SM CLR 10/04 A3001 RMK AO2 SLP159 T01000039","lat":40.5146,"lon":-122.2977,"elev":152,"name":"Redding Muni, CA, US","cover":"CLR","clouds":[],"fltCat":"VFR"},{"icaoId":"KBTM","receiptTime":"2026-04-18T06:56:31.259Z","obsTime":1776495180,"reportTime":"2026-04-18T07:00:00.000Z","temp":-1.7,"dewp":-9.4,"wdir":300,"wspd":7,"visib":"10+","altim":1021.8,"slp":1024,"qcField":6,"maxT24":5,"minT24":-5,"metarType":"METAR","rawOb":"METAR KBTM 180653Z AUTO 30007KT 10SM SCT050 M02/M09 A3017 RMK AO2 SLP240 T10171094 400501050","lat":45.9644,"lon":-112.5015,"elev":1680,"name":"Butte/Mooney Arpt, MT, US","cover":"SCT","clouds":[{"cover":"SCT","base":5000}],"fltCat":"VFR"},{"icaoId":"KCLL","receiptTime":"2026-04-18T06:56:32.975Z","obsTime":1776495180,"reportTime":"2026-04-18T07:00:00.000Z","temp":22.2,"dewp":19.4,"wdir":170,"wspd":10,"visib":"10+","altim":1011.6,"slp":1010.9,"qcField":6,"metarType":"METAR","rawOb":"METAR KCLL 180653Z AUTO 17010KT 10SM OVC017 22/19 A2987 RMK AO2 SLP109 T02220194","lat":30.5912,"lon":-96.3631,"elev":96,"name":"College Station/Easterwood Arpt, TX, US","cover":"OVC","clouds":[{"cover":"OVC","base":1700}],"fltCat":"MVFR"},{"icaoId":"KMYF","receiptTime":"2026-04-18T06:56:34.934Z","obsTime":1776495180,"reportTime":"2026-04-18T07:00:00.000Z","temp":15.6,"dewp":12.2,"wdir":0,"wspd":0,"visib":"10+","altim":1016,"slp":1015.4,"qcField":6,"metarType":"METAR","rawOb":"METAR KMYF 180653Z AUTO 00000KT 10SM CLR 16/12 A3000 RMK AO2 SLP154 T01560122","lat":32.8145,"lon":-117.1375,"elev":128,"name":"San Diego/Montgomery Arpt, CA, US","cover":"CLR","clouds":[],"fltCat":"VFR"},{"icaoId":"KTPA","receiptTime":"2026-04-18T06:56:36.286Z","obsTime":1776495180,"reportTime":"2026-04-18T07:00:00.000Z","temp":22.2,"dewp":16.1,"wdir":0,"wspd":0,"visib":"10+","altim":1015.7,"slp":1015.6,"qcField":4,"metarType":"METAR","rawOb":"METAR KTPA 180653Z 00000KT 10SM CLR 22/16 A2999 RMK AO2 SLP156 T02220161","lat":27.9633,"lon":-82.54,"elev":2,"name":"Tampa Intl Arpt, FL, US","cover":"CLR","clouds":[],"fltCat":"VFR"},{"icaoId":"KSHR","receiptTime":"2026-04-18T06:56:32.218Z","obsTime":1776495180,"reportTime":"2026-04-18T07:00:00.000Z","temp":-1.1,"dewp":-2.2,"wdir":270,"wspd":4,"visib":"10+","altim":1020.4,"slp":1023.1,"qcField":6,"maxT24":6.7,"minT24":-6.7,"precip":0.005,"metarType":"METAR","rawOb":"METAR KSHR 180653Z AUTO 27004KT 10SM FEW075 BKN095 OVC110 M01/M02 A3013 RMK AO2 SNE19 SLP231 P0000 T10111022 400671067","lat":44.7603,"lon":-106.9741,"elev":1212,"name":"Sheridan Cnty Arpt, WY, US","cover":"OVC","clouds":[{"cover":"FEW","base":7500},{"cover":"BKN","base":9500},{"cover":"OVC","base":11000}],"fltCat":"VFR"},{"icaoId":"KSMF","receiptTime":"2026-04-18T06:56:32.270Z","obsTime":1776495180,"reportTime":"2026-04-18T07:00:00.000Z","temp":10.6,"dewp":3.3,"wdir":0,"wspd":0,"visib":"10+","altim":1016.3,"slp":1016,"qcField":4,"metarType":"METAR","rawOb":"METAR KSMF 180653Z 00000KT 10SM BKN230 11/03 A3001 RMK AO2 SLP160 T01060033","lat":38.7007,"lon":-121.5948,"elev":7,"name":"Sacramento Intl, CA, US","cover":"BKN","clouds":[{"cover":"BKN","base":23000}],"fltCat":"VFR"},{"icaoId":"KMSO","receiptTime":"2026-04-18T06:56:29.802Z","obsTime":1776495180,"reportTime":"2026-04-18T07:00:00.000Z","temp":-0.6,"dewp":-5,"wdir":10,"wspd":3,"visib":"10+","altim":1023.1,"slp":1025,"qcField":14,"maxT24":9.4,"minT24":-1.1,"metarType":"METAR","rawOb":"METAR KMSO 180653Z AUTO 01003KT 10SM CLR M01/M05 A3021 RMK AO2 SLP250 T10061050 400941011 $","lat":46.9208,"lon":-114.0938,"elev":974,"name":"Missoula Intl, MT, US","cover":"CLR","clouds":[],"fltCat":"VFR"},{"icaoId":"KPDX","receiptTime":"2026-04-18T06:56:29.894Z","obsTime":1776495180,"reportTime":"2026-04-18T07:00:00.000Z","temp":10,"dewp":4.4,"wdir":0,"wspd":0,"visib":"10+","altim":1019,"slp":1019,"qcField":12,"metarType":"METAR","rawOb":"METAR KPDX 180653Z 00000KT 10SM BKN200 10/04 A3009 RMK AO2 SLP190 T01000044 $","lat":45.5958,"lon":-122.6092,"elev":7,"name":"Portland Intl, OR, US","cover":"BKN","clouds":[{"cover":"BKN","base":20000}],"fltCat":"VFR"},{"icaoId":"KPGA","receiptTime":"2026-04-18T06:56:29.905Z","obsTime":1776495180,"reportTime":"2026-04-18T07:00:00.000Z","temp":6.1,"dewp":-17.8,"wdir":150,"wspd":3,"visib":"10+","altim":1022.1,"slp":1020.1,"qcField":14,"maxT24":16.7,"minT24":5,"metarType":"METAR","rawOb":"METAR KPGA 180653Z AUTO 15003KT 10SM CLR 06/M18 A3018 RMK AO2 SLP201 T00611178 401670050 $","lat":36.9211,"lon":-111.4487,"elev":1310,"name":"Page Muni, AZ, US","cover":"CLR","clouds":[],"fltCat":"VFR"},{"icaoId":"KHIO","receiptTime":"2026-04-18T06:56:30.870Z","obsTime":1776495180,"reportTime":"2026-04-18T07:00:00.000Z","temp":6.7,"dewp":2.8,"wdir":0,"wspd":0,"visib":"10+","altim":1019,"slp":1019,"qcField":6,"metarType":"METAR","rawOb":"METAR KHIO 180653Z AUTO 00000KT 10SM CLR 07/03 A3009 RMK AO2 SLP190 T00670028","lat":45.5476,"lon":-122.9557,"elev":62,"name":"Portland/Hillsboro Arpt, OR, US","cover":"CLR","clouds":[],"fltCat":"VFR"},{"icaoId":"KSWO","receiptTime":"2026-04-18T06:56:24.607Z","obsTime":1776495180,"reportTime":"2026-04-18T07:00:00.000Z","temp":9.4,"dewp":2.8,"wdir":40,"wspd":11,"visib":"10+","altim":1015.7,"slp":1014.7,"qcField":6,"metarType":"METAR","rawOb":"METAR KSWO 180653Z AUTO 04011KT 10SM CLR 09/03 A2999 RMK AO2 SLP147 T00940028","lat":36.1624,"lon":-97.0832,"elev":293,"name":"Stillwater Muni, OK, US","cover":"CLR","clouds":[],"fltCat":"VFR"},{"icaoId":"KFMN","receiptTime":"2026-04-18T06:56:29.827Z","obsTime":1776495180,"reportTime":"2026-04-18T07:00:00.000Z","temp":3.3,"dewp":-17.2,"wdir":340,"wspd":8,"visib":"10+","altim":1021.8,"slp":1021.2,"qcField":6,"maxT24":13.9,"minT24":2.8,"metarType":"METAR","rawOb":"METAR KFMN 180653Z AUTO 34008KT 10SM CLR 03/M17 A3017 RMK AO2 SLP212 T00331172 401390028","lat":36.7435,"lon":-108.2293,"elev":1677,"name":"Farmington/Four Corners Rgnl, NM, US","cover":"CLR","clouds":[],"fltCat":"VFR"},{"icaoId":"KGEG","receiptTime":"2026-04-18T06:56:29.881Z","obsTime":1776495180,"reportTime":"2026-04-18T07:00:00.000Z","temp":3.9,"dewp":-2.8,"wdir":160,"wspd":6,"visib":"10+","altim":1022.4,"slp":1023.3,"qcField":4,"metarType":"METAR","rawOb":"METAR KGEG 180653Z 16006KT 10SM CLR 04/M03 A3019 RMK AO2 SLP233 T00391028","lat":47.6217,"lon":-117.528,"elev":718,"name":"Spokane Intl, WA, US","cover":"CLR","clouds":[],"fltCat":"VFR"},{"icaoId":"KPIH","receiptTime":"2026-04-18T06:56:29.084Z","obsTime":1776495180,"reportTime":"2026-04-18T07:00:00.000Z","temp":-1.7,"dewp":-11.1,"wdir":190,"wspd":8,"visib":"10+","altim":1023.5,"slp":1024.5,"qcField":6,"maxT24":8.3,"minT24":-4.4,"metarType":"METAR","rawOb":"METAR KPIH 180653Z AUTO 19008KT 10SM CLR M02/M11 A3022 RMK AO2 SLP245 T10171111 400831044","lat":42.9197,"lon":-112.5723,"elev":1357,"name":"Pocatello Rgnl, ID, US","cover":"CLR","clouds":[],"fltCat":"VFR"},{"icaoId":"KFUL","receiptTime":"2026-04-18T06:56:23.873Z","obsTime":1776495180,"reportTime":"2026-04-18T07:00:00.000Z","temp":17.8,"dewp":10,"wdir":120,"wspd":3,"visib":"10+","altim":1015,"slp":1014.7,"qcField":6,"metarType":"METAR","rawOb":"METAR KFUL 180653Z AUTO 12003KT 10SM CLR 18/10 A2997 RMK AO2 SLP147 T01780100","lat":33.8715,"lon":-117.9856,"elev":23,"name":"Fullerton Muni, CA, US","cover":"CLR","clouds":[],"fltCat":"VFR"},{"icaoId":"KOGD","receiptTime":"2026-04-18T06:56:24.018Z","obsTime":1776495180,"reportTime":"2026-04-18T07:00:00.000Z","temp":0.6,"dewp":-8.9,"wdir":170,"wspd":8,"visib":"10+","altim":1024.1,"slp":1024.1,"qcField":6,"maxT24":7.2,"minT24":-3.9,"metarType":"METAR","rawOb":"METAR KOGD 180653Z AUTO 17008KT 10SM CLR 01/M09 A3024 RMK AO2 SLP241 T00061089 400721039","lat":41.1941,"lon":-112.0168,"elev":1356,"name":"Ogden/Hinckley Arpt, UT, US","cover":"CLR","clouds":[],"fltCat":"VFR"},{"icaoId":"KPAE","receiptTime":"2026-04-18T06:56:24.185Z","obsTime":1776495180,"reportTime":"2026-04-18T07:00:00.000Z","temp":7.2,"dewp":2.8,"wdir":0,"wspd":0,"visib":"10+","altim":1020.7,"slp":1020.9,"qcField":6,"metarType":"METAR","rawOb":"METAR KPAE 180653Z AUTO 00000KT 10SM CLR 07/03 A3014 RMK AO2 SLP209 T00720028","lat":47.9232,"lon":-122.2831,"elev":166,"name":"Everett/Paine Fld, WA, US","cover":"CLR","clouds":[],"fltCat":"VFR"},{"icaoId":"KPBI","receiptTime":"2026-04-18T06:56:24.236Z","obsTime":1776495180,"reportTime":"2026-04-18T07:00:00.000Z","temp":24.4,"dewp":21.1,"wdir":120,"wspd":10,"visib":"10+","altim":1015.3,"slp":1015.1,"qcField":12,"precip":0.005,"metarType":"METAR","rawOb":"METAR KPBI 180653Z 12010KT 10SM SCT017 SCT023 BKN065 24/21 A2998 RMK AO2 RAB35E47 SLP151 P0000 T02440211 $","lat":26.6851,"lon":-80.0992,"elev":4,"name":"Palm Beach Intl, FL, US","cover":"BKN","clouds":[{"cover":"SCT","base":1700},{"cover":"SCT","base":2300},{"cover":"BKN","base":6500}],"fltCat":"VFR"},{"icaoId":"KBHM","receiptTime":"2026-04-18T06:56:27.944Z","obsTime":1776495180,"reportTime":"2026-04-18T07:00:00.000Z","temp":18.3,"dewp":15.6,"wdir":0,"wspd":0,"visib":"10+","altim":1015,"slp":1014.1,"qcField":4,"metarType":"METAR","rawOb":"METAR KBHM 180653Z 00000KT 10SM CLR 18/16 A2997 RMK AO2 SLP141 T01830156","lat":33.5655,"lon":-86.7449,"elev":191,"name":"Birmingham Intl, AL, US","cover":"CLR","clouds":[],"fltCat":"VFR"},{"icaoId":"KBLI","receiptTime":"2026-04-18T06:56:26.635Z","obsTime":1776495180,"reportTime":"2026-04-18T07:00:00.000Z","temp":6.7,"dewp":3.3,"wdir":0,"wspd":0,"visib":"10+","altim":1020.7,"slp":1021.4,"qcField":4,"metarType":"METAR","rawOb":"METAR KBLI 180653Z 00000KT 10SM CLR 07/03 A3014 RMK AO2 SLP214 T00670033","lat":48.7991,"lon":-122.5407,"elev":46,"name":"Bellingham Intl, WA, US","cover":"CLR","clouds":[],"fltCat":"VFR"},{"icaoId":"KBNA","receiptTime":"2026-04-18T06:56:27.959Z","obsTime":1776495180,"reportTime":"2026-04-18T07:00:00.000Z","temp":19.4,"dewp":14.4,"wdir":190,"wspd":4,"visib":"10+","altim":1011.9,"slp":1011.1,"qcField":4,"metarType":"METAR","rawOb":"METAR KBNA 180653Z 19004KT 10SM FEW140 19/14 A2988 RMK AO2 SLP111 T01940144","lat":36.1105,"lon":-86.6881,"elev":168,"name":"Nashville Intl, TN, US","cover":"FEW","clouds":[{"cover":"FEW","base":14000}],"fltCat":"VFR"},{"icaoId":"KYKM","receiptTime":"2026-04-18T06:56:29.946Z","obsTime":1776495180,"reportTime":"2026-04-18T07:00:00.000Z","temp":2.2,"dewp":-2.8,"wdir":270,"wspd":6,"visib":"10+","altim":1021.8,"slp":1022.2,"qcField":6,"metarType":"METAR","rawOb":"METAR KYKM 180653Z AUTO 27006KT 10SM CLR 02/M03 A3017 RMK AO2 SLP222 T00221028","lat":46.564,"lon":-120.5349,"elev":319,"name":"Yakima/McAllister Fld, WA, US","cover":"CLR","clouds":[],"fltCat":"VFR"},{"icaoId":"KLOL","receiptTime":"2026-04-18T06:56:30.431Z","obsTime":1776495180,"reportTime":"2026-04-18T07:00:00.000Z","temp":-0.6,"dewp":-17.2,"wdir":120,"wspd":5,"visib":"10+","altim":1020.7,"slp":1021.4,"qcField":6,"metarType":"METAR","rawOb":"METAR KLOL 180653Z AUTO 12005KT 10SM CLR M01/M17 A3014 RMK AO2 SLP214 T10061172","lat":40.0684,"lon":-118.5702,"elev":1191,"name":"Lovelock/Derby Fld, NV, US","cover":"CLR","clouds":[],"fltCat":"VFR"},{"icaoId":"KLVS","receiptTime":"2026-04-18T06:56:30.554Z","obsTime":1776495180,"reportTime":"2026-04-18T07:00:00.000Z","temp":-3.3,"dewp":-5.6,"wdir":40,"wspd":11,"visib":"10+","altim":1021.1,"slp":1016.2,"qcField":14,"maxT24":18.9,"minT24":-3.3,"metarType":"METAR","rawOb":"METAR KLVS 180653Z AUTO 04011KT 10SM CLR M03/M06 A3015 RMK AO2 SLP162 T10331056 401891033 $","lat":35.6558,"lon":-105.1385,"elev":2095,"name":"Las Vegas Muni, NM, US","cover":"CLR","clouds":[],"fltCat":"VFR"},{"icaoId":"KMAF","receiptTime":"2026-04-18T06:56:30.607Z","obsTime":1776495180,"reportTime":"2026-04-18T07:00:00.000Z","temp":23.9,"dewp":15.6,"wdir":230,"wspd":6,"visib":"10+","altim":1011.3,"slp":1006,"qcField":6,"metarType":"METAR","rawOb":"METAR KMAF 180653Z AUTO 23006KT 10SM CLR 24/16 A2986 RMK AO2 LTG DSNT N AND NW SLP060 T02390156","lat":31.9475,"lon":-102.2086,"elev":874,"name":"Midland Intl, TX, US","cover":"CLR","clouds":[],"fltCat":"VFR"},{"icaoId":"KMCI","receiptTime":"2026-04-18T06:56:30.663Z","obsTime":1776495180,"reportTime":"2026-04-18T07:00:00.000Z","temp":8.9,"dewp":-3.3,"wdir":330,"wspd":12,"wgst":23,"visib":"10+","altim":1014.3,"slp":1013.6,"qcField":4,"metarType":"METAR","rawOb":"METAR KMCI 180653Z 33012G23KT 10SM OVC100 09/M03 A2995 RMK AO2 SLP136 T00891033","lat":39.2975,"lon":-94.7309,"elev":308,"name":"Kansas City Intl, MO, US","cover":"OVC","clouds":[{"cover":"OVC","base":10000}],"fltCat":"VFR"},{"icaoId":"KMCO","receiptTime":"2026-04-18T06:56:30.691Z","obsTime":1776495180,"reportTime":"2026-04-18T07:00:00.000Z","temp":21.1,"dewp":19.4,"wdir":200,"wspd":3,"visib":"10+","altim":1016,"slp":1015.7,"qcField":4,"metarType":"METAR","rawOb":"METAR KMCO 180653Z 20003KT 10SM SCT250 21/19 A3000 RMK AO2 SLP157 T02110194","lat":28.4182,"lon":-81.3241,"elev":27,"name":"Orlando Intl, FL, US","cover":"SCT","clouds":[{"cover":"SCT","base":25000}],"fltCat":"VFR"},{"icaoId":"KSTS","receiptTime":"2026-04-18T06:56:30.883Z","obsTime":1776495180,"reportTime":"2026-04-18T07:00:00.000Z","temp":8.3,"dewp":6.7,"wdir":0,"wspd":0,"visib":"10+","altim":1017.4,"slp":1016.7,"qcField":6,"metarType":"METAR","rawOb":"METAR KSTS 180653Z AUTO 00000KT 10SM CLR 08/07 A3004 RMK AO2 SLP167 T00830067","lat":38.5037,"lon":-122.811,"elev":35,"name":"Santa Rosa/Schulz Arpt, CA, US","cover":"CLR","clouds":[],"fltCat":"VFR"},{"icaoId":"KTUS","receiptTime":"2026-04-18T06:56:30.908Z","obsTime":1776495180,"reportTime":"2026-04-18T07:00:00.000Z","temp":17.8,"dewp":-1.7,"wdir":250,"wspd":5,"visib":"10+","altim":1015,"slp":1011.2,"qcField":4,"maxT24":28.3,"minT24":13.9,"metarType":"METAR","rawOb":"METAR KTUS 180653Z 25005KT 10SM CLR 18/M02 A2997 RMK AO2 SLP112 T01781017 402830139","lat":32.1315,"lon":-110.9564,"elev":776,"name":"Tucson Intl Arpt, AZ, US","cover":"CLR","clouds":[],"fltCat":"VFR"},{"icaoId":"KIDA","receiptTime":"2026-04-18T06:56:33.559Z","obsTime":1776495180,"reportTime":"2026-04-18T07:00:00.000Z","temp":-2.2,"dewp":-7.8,"wdir":220,"wspd":10,"visib":"10+","altim":1023.1,"slp":1024.9,"qcField":6,"maxT24":6.7,"minT24":-5.6,"metarType":"METAR","rawOb":"METAR KIDA 180653Z AUTO 22010KT 10SM CLR M02/M08 A3021 RMK AO2 SLP249 T10221078 400671056","lat":43.5204,"lon":-112.0675,"elev":1444,"name":"Idaho Falls Rgnl, ID, US","cover":"CLR","clouds":[],"fltCat":"VFR"},{"icaoId":"KSEA","receiptTime":"2026-04-18T06:56:31.043Z","obsTime":1776495180,"reportTime":"2026-04-18T07:00:00.000Z","temp":9.4,"dewp":2.8,"wdir":50,"wspd":6,"visib":"10+","altim":1020.4,"slp":1021,"qcField":4,"metarType":"METAR","rawOb":"METAR KSEA 180653Z 05006KT 10SM BKN180 OVC250 09/03 A3013 RMK AO2 SLP210 T00940028","lat":47.4447,"lon":-122.3144,"elev":115,"name":"Seattle-Tacoma Intl, WA, US","cover":"OVC","clouds":[{"cover":"BKN","base":18000},{"cover":"OVC","base":25000}],"fltCat":"VFR"},{"icaoId":"KBUR","receiptTime":"2026-04-18T06:56:31.273Z","obsTime":1776495180,"reportTime":"2026-04-18T07:00:00.000Z","temp":17.8,"dewp":6.1,"wdir":0,"wspd":0,"visib":"10+","altim":1015,"slp":1014,"qcField":4,"metarType":"METAR","rawOb":"METAR KBUR 180653Z 00000KT 10SM CLR 18/06 A2997 RMK AO2 SLP140 T01780061","lat":34.1996,"lon":-118.3654,"elev":221,"name":"Burbank/Bob Hope Arpt, CA, US","cover":"CLR","clouds":[],"fltCat":"VFR"},{"icaoId":"KCDC","receiptTime":"2026-04-18T06:56:31.366Z","obsTime":1776495180,"reportTime":"2026-04-18T07:00:00.000Z","temp":-1.1,"dewp":-11.1,"wdir":0,"wspd":0,"visib":"10+","altim":1022.4,"slp":1022.6,"qcField":6,"maxT24":9.4,"minT24":-6.1,"metarType":"METAR","rawOb":"METAR KCDC 180653Z AUTO 00000KT 10SM CLR M01/M11 A3019 RMK AO2 SLP226 T10111111 400941061","lat":37.7067,"lon":-113.097,"elev":1703,"name":"Cedar City Muni, UT, US","cover":"CLR","clouds":[],"fltCat":"VFR"},{"icaoId":"KCPR","receiptTime":"2026-04-18T06:56:31.550Z","obsTime":1776495180,"reportTime":"2026-04-18T07:00:00.000Z","temp":-4.4,"dewp":-6.7,"wdir":250,"wspd":4,"visib":"10+","altim":1019.7,"slp":1022.7,"qcField":6,"maxT24":3.3,"minT24":-4.4,"metarType":"METAR","rawOb":"METAR KCPR 180653Z AUTO 25004KT 10SM CLR M04/M07 A3011 RMK AO2 SLP227 T10441067 400331044","lat":42.8978,"lon":-106.4736,"elev":1623,"name":"Casper/Natrona Cnty, WY, US","cover":"CLR","clouds":[],"fltCat":"VFR"},{"icaoId":"KACV","receiptTime":"2026-04-18T06:56:31.928Z","obsTime":1776495180,"reportTime":"2026-04-18T07:00:00.000Z","temp":5.6,"dewp":4.4,"wdir":0,"wspd":0,"visib":"10+","altim":1019,"slp":1019.7,"qcField":6,"metarType":"METAR","rawOb":"METAR KACV 180653Z AUTO 00000KT 10SM CLR 06/04 A3009 RMK AO2 SLP197 T00560044","lat":40.9784,"lon":-124.1048,"elev":63,"name":"Arcata Arpt, CA, US","cover":"CLR","clouds":[],"fltCat":"VFR"},{"icaoId":"KDVT","receiptTime":"2026-04-18T06:56:31.978Z","obsTime":1776495180,"reportTime":"2026-04-18T07:00:00.000Z","temp":18.3,"dewp":-7.8,"wdir":0,"wspd":0,"visib":"10+","altim":1013,"slp":1010.9,"qcField":4,"maxT24":28.9,"minT24":12.8,"metarType":"METAR","rawOb":"METAR KDVT 180653Z 00000KT 10SM CLR 18/M08 A2991 RMK AO2 SLP109 T01831078 402890128","lat":33.6902,"lon":-112.0662,"elev":454,"name":"Phoenix/Deer Valley Arpt, AZ, US","cover":"CLR","clouds":[],"fltCat":"VFR"},{"icaoId":"KEVW","receiptTime":"2026-04-18T06:56:32.012Z","obsTime":1776495180,"reportTime":"2026-04-18T07:00:00.000Z","temp":-6.1,"dewp":-13.3,"wdir":220,"wspd":5,"visib":"10+","altim":1023.5,"slp":1026,"qcField":14,"maxT24":0.6,"minT24":-13.3,"metarType":"METAR","rawOb":"METAR KEVW 180653Z AUTO 22005KT 10SM CLR M06/M13 A3022 RMK AO2 SLP260 T10611133 400061133 $","lat":41.2727,"lon":-111.0305,"elev":2178,"name":"Evanston/Uinta Cnty, WY, US","cover":"CLR","clouds":[],"fltCat":"VFR"},{"icaoId":"KLGB","receiptTime":"2026-04-18T06:56:32.073Z","obsTime":1776495180,"reportTime":"2026-04-18T07:00:00.000Z","temp":17.2,"dewp":12.2,"wdir":160,"wspd":5,"visib":"10+","altim":1014.6,"slp":1014.6,"qcField":12,"metarType":"METAR","rawOb":"METAR KLGB 180653Z 16005KT 10SM CLR 17/12 A2996 RMK AO2 SLP146 T01720122 $","lat":33.8118,"lon":-118.1472,"elev":10,"name":"Long Beach Arpt, CA, US","cover":"CLR","clouds":[],"fltCat":"VFR"},{"icaoId":"KMFR","receiptTime":"2026-04-18T06:56:32.156Z","obsTime":1776495180,"reportTime":"2026-04-18T07:00:00.000Z","temp":6.7,"dewp":0.6,"wdir":0,"wspd":0,"visib":"10+","altim":1018.4,"slp":1018.3,"qcField":6,"metarType":"METAR","rawOb":"METAR KMFR 180653Z AUTO 00000KT 10SM CLR 07/01 A3007 RMK AO2 SLP183 T00670006","lat":42.375,"lon":-122.877,"elev":397,"name":"Medford/Rogue Valley Intl, OR, US","cover":"CLR","clouds":[],"fltCat":"VFR"},{"icaoId":"KMLS","receiptTime":"2026-04-18T06:56:34.692Z","obsTime":1776495180,"reportTime":"2026-04-18T07:00:00.000Z","temp":-2.8,"dewp":-6.7,"wdir":310,"wspd":5,"visib":"10+","altim":1019.4,"slp":1021.7,"qcField":6,"maxT24":6.1,"minT24":-6.1,"metarType":"METAR","rawOb":"METAR KMLS 180653Z AUTO 31005KT 10SM FEW060 FEW090 M03/M07 A3010 RMK AO2 SLP217 T10281067 400611061","lat":46.4265,"lon":-105.8834,"elev":800,"name":"Miles City/Wiley Fld, MT, US","cover":"FEW","clouds":[{"cover":"FEW","base":6000},{"cover":"FEW","base":9000}],"fltCat":"VFR"},{"icaoId":"KSJC","receiptTime":"2026-04-18T06:56:32.244Z","obsTime":1776495180,"reportTime":"2026-04-18T07:00:00.000Z","temp":12.8,"dewp":7.2,"wdir":340,"wspd":3,"visib":"10+","altim":1017.7,"slp":1017.4,"qcField":4,"metarType":"METAR","rawOb":"METAR KSJC 180653Z 34003KT 10SM FEW110 13/07 A3005 RMK AO2 SLP174 T01280072","lat":37.3594,"lon":-121.9244,"elev":13,"name":"San Jose Intl Arpt, CA, US","cover":"FEW","clouds":[{"cover":"FEW","base":11000}],"fltCat":"VFR"},{"icaoId":"KSNA","receiptTime":"2026-04-18T06:56:32.296Z","obsTime":1776495180,"reportTime":"2026-04-18T07:00:00.000Z","temp":17.2,"dewp":12.8,"wdir":100,"wspd":4,"visib":"10+","altim":1015.3,"slp":1015,"qcField":6,"metarType":"METAR","rawOb":"METAR KSNA 180653Z AUTO 10004KT 10SM CLR 17/13 A2998 RMK AO2 SLP150 T01720128","lat":33.6798,"lon":-117.8675,"elev":14,"name":"Santa Ana/Wayne Arpt, CA, US","cover":"CLR","clouds":[],"fltCat":"VFR"},{"icaoId":"KPRC","receiptTime":"2026-04-18T06:56:32.454Z","obsTime":1776495180,"reportTime":"2026-04-18T07:00:00.000Z","temp":8.3,"dewp":-17.2,"wdir":250,"wspd":5,"visib":"10+","altim":1019,"slp":1014.4,"qcField":6,"maxT24":19.4,"minT24":6.1,"metarType":"METAR","rawOb":"METAR KPRC 180653Z AUTO 25005KT 10SM CLR 08/M17 A3009 RMK AO2 SLP144 T00831172 401940061","lat":34.6491,"lon":-112.4223,"elev":1528,"name":"Prescott/Love Fld, AZ, US","cover":"CLR","clouds":[],"fltCat":"VFR"},{"icaoId":"KPSC","receiptTime":"2026-04-18T06:56:32.470Z","obsTime":1776495180,"reportTime":"2026-04-18T07:00:00.000Z","temp":2.8,"dewp":0.6,"wdir":360,"wspd":3,"visib":"10+","altim":1021.8,"slp":1021.9,"qcField":6,"metarType":"METAR","rawOb":"METAR KPSC 180653Z AUTO 36003KT 10SM CLR 03/01 A3017 RMK AO2 SLP219 T00280006","lat":46.2695,"lon":-119.1182,"elev":121,"name":"Pasco/Tri Cities Arpt, WA, US","cover":"CLR","clouds":[],"fltCat":"VFR"},{"icaoId":"KPUW","receiptTime":"2026-04-18T06:56:32.533Z","obsTime":1776495180,"reportTime":"2026-04-18T07:00:00.000Z","temp":1.7,"dewp":-2.2,"wdir":100,"wspd":7,"visib":"10+","altim":1023.1,"slp":1024.5,"qcField":6,"metarType":"METAR","rawOb":"METAR KPUW 180653Z AUTO 10007KT 10SM CLR 02/M02 A3021 RMK AO2 SLP245 T00171022","lat":46.7438,"lon":-117.1158,"elev":774,"name":"Pullman/Moscow Rgnl, WA, US","cover":"CLR","clouds":[],"fltCat":"VFR"},{"icaoId":"KBIL","receiptTime":"2026-04-18T06:56:32.911Z","obsTime":1776495180,"reportTime":"2026-04-18T07:00:00.000Z","temp":1.1,"dewp":-3.3,"wdir":280,"wspd":13,"visib":"10+","altim":1020.7,"slp":1022.3,"qcField":12,"maxT24":9.4,"minT24":-4.4,"metarType":"METAR","rawOb":"METAR KBIL 180653Z 28013KT 10SM BKN055 OVC100 01/M03 A3014 RMK AO2 SLP223 T00111033 400941044 $","lat":45.8072,"lon":-108.5462,"elev":1089,"name":"Billings/Logan Intl, MT, US","cover":"OVC","clouds":[{"cover":"BKN","base":5500},{"cover":"OVC","base":10000}],"fltCat":"VFR"},{"icaoId":"KCNY","receiptTime":"2026-04-18T06:56:32.986Z","obsTime":1776495180,"reportTime":"2026-04-18T07:00:00.000Z","temp":1.7,"dewp":-8.9,"wdir":0,"wspd":0,"visib":"10+","altim":1022.8,"slp":1023.3,"qcField":14,"maxT24":9.4,"minT24":0.6,"metarType":"METAR","rawOb":"METAR KCNY 180653Z AUTO 00000KT 10SM CLR 02/M09 A3020 RMK AO2 SLP233 T00171089 400940006 $","lat":38.7501,"lon":-109.7627,"elev":1392,"name":"Moab/Canyonland Fld, UT, US","cover":"CLR","clouds":[],"fltCat":"VFR"},{"icaoId":"KCRQ","receiptTime":"2026-04-18T06:56:33.095Z","obsTime":1776495180,"reportTime":"2026-04-18T07:00:00.000Z","temp":15.6,"dewp":12.8,"wdir":0,"wspd":0,"visib":"10+","altim":1015.7,"slp":1015.2,"qcField":6,"metarType":"METAR","rawOb":"METAR KCRQ 180653Z AUTO 00000KT 10SM CLR 16/13 A2999 RMK AO2 SLP152 T01560128","lat":33.1299,"lon":-117.2765,"elev":96,"name":"Carlsbad/Palomar Arpt, CA, US","cover":"CLR","clouds":[],"fltCat":"VFR"},{"icaoId":"KDMN","receiptTime":"2026-04-18T06:56:33.155Z","obsTime":1776495180,"reportTime":"2026-04-18T07:00:00.000Z","temp":11.1,"dewp":-6.7,"wdir":160,"wspd":3,"visib":"10+","altim":1016.3,"slp":1010.4,"qcField":6,"maxT24":26.7,"minT24":7.8,"metarType":"METAR","rawOb":"METAR KDMN 180653Z AUTO 16003KT 10SM CLR 11/M07 A3001 RMK AO2 SLP104 T01111067 402670078","lat":32.2592,"lon":-107.7206,"elev":1310,"name":"Deming Muni, NM, US","cover":"CLR","clouds":[],"fltCat":"VFR"},{"icaoId":"KELY","receiptTime":"2026-04-18T06:56:33.186Z","obsTime":1776495180,"reportTime":"2026-04-18T07:00:00.000Z","temp":-6.1,"dewp":-14.4,"wdir":170,"wspd":8,"visib":"10+","altim":1023.1,"slp":1023.8,"qcField":14,"metarType":"METAR","rawOb":"METAR KELY 180653Z AUTO 17008KT 10SM CLR M06/M14 A3021 RMK AO2 SLP238 T10611144 $","lat":39.2954,"lon":-114.8466,"elev":1906,"name":"Ely/Yelland Fld, NV, US","cover":"CLR","clouds":[],"fltCat":"VFR"},{"icaoId":"KLAX","receiptTime":"2026-04-18T06:56:33.282Z","obsTime":1776495180,"reportTime":"2026-04-18T07:00:00.000Z","temp":16.1,"dewp":11.1,"wdir":100,"wspd":5,"visib":"10+","altim":1015,"slp":1014.6,"qcField":4,"metarType":"METAR","rawOb":"METAR KLAX 180653Z 10005KT 10SM CLR 16/11 A2997 RMK AO2 SLP146 T01610111","lat":33.9382,"lon":-118.3866,"elev":30,"name":"Los Angeles Intl, CA, US","cover":"CLR","clouds":[],"fltCat":"VFR"},{"icaoId":"KLBB","receiptTime":"2026-04-18T06:56:33.295Z","obsTime":1776495180,"reportTime":"2026-04-18T07:00:00.000Z","temp":8.9,"dewp":-5,"wdir":10,"wspd":26,"wgst":37,"visib":8,"altim":1017.4,"slp":1013.4,"qcField":4,"metarType":"METAR","rawOb":"METAR KLBB 180653Z 01026G37KT 8SM CLR 09/M05 A3004 RMK AO2 PK WND 01039/0604 SLP134 T00891050","lat":33.6658,"lon":-101.8233,"elev":996,"name":"Lubbock Intl Arpt, TX, US","cover":"CLR","clouds":[],"fltCat":"VFR"},{"icaoId":"KHLN","receiptTime":"2026-04-18T06:56:33.321Z","obsTime":1776495180,"reportTime":"2026-04-18T07:00:00.000Z","temp":2.2,"dewp":-8.3,"wdir":240,"wspd":7,"visib":"10+","altim":1021.4,"slp":1024.7,"qcField":6,"maxT24":8.9,"minT24":0.6,"metarType":"METAR","rawOb":"METAR KHLN 180653Z AUTO 24007KT 10SM CLR 02/M08 A3016 RMK AO2 SLP247 T00221083 400890006","lat":46.6045,"lon":-111.9892,"elev":1178,"name":"Helena Rgnl, MT, US","cover":"CLR","clouds":[],"fltCat":"VFR"},{"icaoId":"KRTN","receiptTime":"2026-04-18T06:56:33.685Z","obsTime":1776495180,"reportTime":"2026-04-18T07:00:00.000Z","temp":-2.2,"dewp":-5.6,"wdir":10,"wspd":12,"visib":"10+","altim":1020.7,"slp":1016.6,"qcField":6,"maxT24":21.1,"minT24":-3.3,"metarType":"METAR","rawOb":"METAR KRTN 180653Z AUTO 01012KT 10SM CLR M02/M06 A3014 RMK AO2 SLP166 T10221056 402111033","lat":36.7418,"lon":-104.5076,"elev":1939,"name":"Raton/Crews Fld, NM, US","cover":"CLR","clouds":[],"fltCat":"VFR"},{"icaoId":"KSBA","receiptTime":"2026-04-18T06:56:33.811Z","obsTime":1776495180,"reportTime":"2026-04-18T07:00:00.000Z","temp":15,"dewp":9.4,"wdir":0,"wspd":0,"visib":"10+","altim":1015,"slp":1014.7,"qcField":12,"metarType":"METAR","rawOb":"METAR KSBA 180653Z 00000KT 10SM CLR 15/09 A2997 RMK AO2 SLP147 T01500094 $","lat":34.4241,"lon":-119.8425,"elev":2,"name":"Santa Barbara Muni, CA, US","cover":"CLR","clouds":[],"fltCat":"VFR"},{"icaoId":"KABQ","receiptTime":"2026-04-18T06:56:27.762Z","obsTime":1776495120,"reportTime":"2026-04-18T07:00:00.000Z","temp":7.2,"dewp":-18.9,"wdir":320,"wspd":11,"visib":"10+","altim":1020.7,"slp":1015.7,"qcField":4,"maxT24":22.2,"minT24":7.2,"metarType":"METAR","rawOb":"METAR KABQ 180652Z 32011KT 10SM CLR 07/M19 A3014 RMK AO2 SLP157 T00721189 402220072","lat":35.0419,"lon":-106.6154,"elev":1620,"name":"Albuquerque Intl, NM, US","cover":"CLR","clouds":[],"fltCat":"VFR"},{"icaoId":"KDCA","receiptTime":"2026-04-18T06:56:25.910Z","obsTime":1776495120,"reportTime":"2026-04-18T07:00:00.000Z","temp":17.8,"dewp":12.2,"wdir":200,"wspd":3,"visib":"10+","altim":1015.3,"slp":1015.1,"qcField":4,"metarType":"METAR","rawOb":"METAR KDCA 180652Z 20003KT 10SM CLR 18/12 A2998 RMK AO2 SLP151 T01780122","lat":38.8472,"lon":-77.0345,"elev":4,"name":"Washington/Reagan-National Arpt, VA, US","cover":"CLR","clouds":[],"fltCat":"VFR"},{"icaoId":"KCLT","receiptTime":"2026-04-18T06:56:25.849Z","obsTime":1776495120,"reportTime":"2026-04-18T07:00:00.000Z","temp":19.4,"dewp":12.2,"wdir":130,"wspd":3,"visib":"10+","altim":1015,"slp":1015.3,"qcField":4,"metarType":"METAR","rawOb":"METAR KCLT 180652Z 13003KT 10SM SCT250 19/12 A2997 RMK AO2 SLP153 T01940122","lat":35.2225,"lon":-80.9543,"elev":223,"name":"Charlotte/Douglas Intl, NC, US","cover":"SCT","clouds":[{"cover":"SCT","base":25000}],"fltCat":"VFR"},{"icaoId":"KOKC","receiptTime":"2026-04-18T06:56:28.928Z","obsTime":1776495120,"reportTime":"2026-04-18T07:00:00.000Z","temp":9.4,"dewp":3.9,"wdir":10,"wspd":18,"wgst":34,"visib":"10+","altim":1014.3,"slp":1013.5,"qcField":12,"precip":0.04,"metarType":"METAR","rawOb":"METAR KOKC 180652Z 01018G34KT 10SM FEW065 SCT090 BKN110 OVC140 09/04 A2995 RMK AO2 PK WND 01038/0621 RAE48 TSE48 SLP135 OCNL LTGCGICCC DSNT E-S CB DSNT E-S MOV E P0004 T00940039 $","lat":35.3843,"lon":-97.6003,"elev":391,"name":"Oklahoma City/Will Rogers Intl, OK, US","cover":"OVC","clouds":[{"cover":"FEW","base":6500},{"cover":"SCT","base":9000},{"cover":"BKN","base":11000},{"cover":"OVC","base":14000}],"fltCat":"VFR"},{"icaoId":"KCVG","receiptTime":"2026-04-18T06:56:25.875Z","obsTime":1776495120,"reportTime":"2026-04-18T07:00:00.000Z","temp":19.4,"dewp":13.9,"wdir":180,"wspd":7,"visib":"10+","altim":1009.6,"slp":1008.6,"qcField":4,"metarType":"METAR","rawOb":"METAR KCVG 180652Z 18007KT 10SM BKN250 19/14 A2981 RMK AO2 SLP086 T01940139","lat":39.0444,"lon":-84.6724,"elev":264,"name":"Cincinnati Intl, KY, US","cover":"BKN","clouds":[{"cover":"BKN","base":25000}],"fltCat":"VFR"},{"icaoId":"KMLF","receiptTime":"2026-04-18T06:56:22.411Z","obsTime":1776495120,"reportTime":"2026-04-18T07:00:00.000Z","temp":-3.3,"dewp":-18.3,"wdir":350,"wspd":6,"visib":"10+","altim":1023.1,"slp":1023.9,"qcField":6,"maxT24":10,"minT24":-6.7,"metarType":"METAR","rawOb":"METAR KMLF 180652Z AUTO 35006KT 10SM CLR M03/M18 A3021 RMK AO2 SLP239 T10331183 401001067","lat":38.4225,"lon":-113.0109,"elev":1537,"name":"Milford Muni, UT, US","cover":"CLR","clouds":[],"fltCat":"VFR"},{"icaoId":"KIAD","receiptTime":"2026-04-18T06:56:28.663Z","obsTime":1776495120,"reportTime":"2026-04-18T07:00:00.000Z","temp":13.3,"dewp":11.1,"wdir":0,"wspd":0,"visib":"10+","altim":1015.3,"slp":1015.1,"qcField":4,"metarType":"METAR","rawOb":"METAR KIAD 180652Z 00000KT 10SM FEW250 13/11 A2998 RMK AO2 SLP151 T01330111","lat":38.9348,"lon":-77.4473,"elev":90,"name":"Washington/Dulles Intl, VA, US","cover":"FEW","clouds":[{"cover":"FEW","base":25000}],"fltCat":"VFR"},{"icaoId":"KATL","receiptTime":"2026-04-18T06:56:27.773Z","obsTime":1776495120,"reportTime":"2026-04-18T07:00:00.000Z","temp":20.6,"dewp":13.3,"wdir":230,"wspd":3,"visib":"10+","altim":1015,"slp":1013.9,"qcField":4,"metarType":"METAR","rawOb":"METAR KATL 180652Z 23003KT 10SM FEW250 21/13 A2997 RMK AO2 SLP139 T02060133","lat":33.6297,"lon":-84.4422,"elev":309,"name":"Atlanta/Hartsfield-Jackson Intl, GA, US","cover":"FEW","clouds":[{"cover":"FEW","base":25000}],"fltCat":"VFR"},{"icaoId":"KEWR","receiptTime":"2026-04-18T06:54:09.836Z","obsTime":1776495060,"reportTime":"2026-04-18T07:00:00.000Z","temp":11.7,"dewp":10,"wdir":200,"wspd":3,"visib":"10+","altim":1017.4,"slp":1017.2,"qcField":4,"metarType":"METAR","rawOb":"METAR KEWR 180651Z 20003KT 10SM FEW008 BKN055 BKN250 12/10 A3004 RMK AO2 SLP172 T01170100","lat":40.6828,"lon":-74.1692,"elev":2,"name":"Newark Intl, NJ, US","cover":"BKN","clouds":[{"cover":"FEW","base":800},{"cover":"BKN","base":5500},{"cover":"BKN","base":25000}],"fltCat":"VFR"},{"icaoId":"KELP","receiptTime":"2026-04-18T06:54:09.797Z","obsTime":1776495060,"reportTime":"2026-04-18T07:00:00.000Z","temp":19.4,"dewp":-7.2,"wdir":90,"wspd":5,"visib":"10+","altim":1014.6,"slp":1008,"qcField":4,"maxT24":28.9,"minT24":16.1,"metarType":"METAR","rawOb":"METAR KELP 180651Z 09005KT 10SM FEW130 FEW250 19/M07 A2996 RMK AO2 SLP080 T01941072 402890161","lat":31.8123,"lon":-106.3774,"elev":1205,"name":"El Paso Intl, TX, US","cover":"FEW","clouds":[{"cover":"FEW","base":13000},{"cover":"FEW","base":25000}],"fltCat":"VFR"},{"icaoId":"KPIT","receiptTime":"2026-04-18T06:54:10.687Z","obsTime":1776495060,"reportTime":"2026-04-18T07:00:00.000Z","temp":16.1,"dewp":10.6,"wdir":150,"wspd":5,"visib":"10+","altim":1013.3,"slp":1013.2,"qcField":4,"metarType":"METAR","rawOb":"METAR KPIT 180651Z 15005KT 10SM FEW150 BKN250 16/11 A2992 RMK AO2 SLP132 T01610106","lat":40.4814,"lon":-80.2083,"elev":339,"name":"Pittsburgh Intl, PA, US","cover":"BKN","clouds":[{"cover":"FEW","base":15000},{"cover":"BKN","base":25000}],"fltCat":"VFR"},{"icaoId":"KVNY","receiptTime":"2026-04-18T06:54:11.156Z","obsTime":1776495060,"reportTime":"2026-04-18T07:00:00.000Z","temp":18.9,"dewp":-14.4,"wdir":350,"wspd":11,"visib":"10+","altim":1014.6,"slp":1014,"qcField":14,"metarType":"METAR","rawOb":"METAR KVNY 180651Z AUTO 35011KT 10SM CLR 19/M14 A2996 RMK AO2 SLP140 T01891144 $","lat":34.2121,"lon":-118.4915,"elev":241,"name":"Van Nuys Arpt, CA, US","cover":"CLR","clouds":[],"fltCat":"VFR"},{"icaoId":"KMYL","receiptTime":"2026-04-18T06:54:10.488Z","obsTime":1776495060,"reportTime":"2026-04-18T07:00:00.000Z","temp":-3.3,"dewp":-6.1,"wdir":0,"wspd":0,"visib":"10+","altim":1023.1,"slp":1025.8,"qcField":6,"maxT24":3.3,"minT24":-5.6,"metarType":"METAR","rawOb":"METAR KMYL 180651Z AUTO 00000KT 10SM CLR M03/M06 A3021 RMK AO2 SLP258 T10331061 400331056","lat":44.8943,"lon":-116.0998,"elev":1532,"name":"McCall Muni, ID, US","cover":"CLR","clouds":[],"fltCat":"VFR"},{"icaoId":"KROW","receiptTime":"2026-04-18T06:54:10.828Z","obsTime":1776495060,"reportTime":"2026-04-18T07:00:00.000Z","temp":10,"dewp":-3.3,"wdir":20,"wspd":19,"wgst":28,"visib":"10+","altim":1018,"slp":1012.8,"qcField":12,"maxT24":31.1,"minT24":9.4,"metarType":"METAR","rawOb":"METAR KROW 180651Z 02019G28KT 10SM CLR 10/M03 A3006 RMK AO2 PK WND 04035/0552 SLP128 T01001033 403110094 $","lat":33.3074,"lon":-104.5082,"elev":1105,"name":"Roswell/Ind Arpt, NM, US","cover":"CLR","clouds":[],"fltCat":"VFR"},{"icaoId":"KPHX","receiptTime":"2026-04-18T06:54:10.645Z","obsTime":1776495060,"reportTime":"2026-04-18T07:00:00.000Z","temp":21.7,"dewp":-7.8,"wdir":240,"wspd":6,"visib":"10+","altim":1012.3,"slp":1010.7,"qcField":4,"maxT24":30.6,"minT24":17.2,"metarType":"METAR","rawOb":"METAR KPHX 180651Z 24006KT 10SM CLR 22/M08 A2989 RMK AO2 SLP107 T02171078 403060172","lat":33.4278,"lon":-112.0037,"elev":338,"name":"Phoenix/Sky Harbor Intl, AZ, US","cover":"CLR","clouds":[],"fltCat":"VFR"},{"icaoId":"KLGA","receiptTime":"2026-04-18T06:54:10.377Z","obsTime":1776495060,"reportTime":"2026-04-18T07:00:00.000Z","temp":12.8,"dewp":11.1,"wdir":80,"wspd":5,"visib":"10+","altim":1017.4,"slp":1017.1,"qcField":4,"metarType":"METAR","rawOb":"METAR KLGA 180651Z 08005KT 10SM FEW010 FEW100 FEW250 13/11 A3004 RMK AO2 SLP171 T01280111","lat":40.7794,"lon":-73.8803,"elev":9,"name":"New York/La Guardia Arpt, NY, US","cover":"FEW","clouds":[{"cover":"FEW","base":1000},{"cover":"FEW","base":10000},{"cover":"FEW","base":25000}],"fltCat":"VFR"},{"icaoId":"KSTL","receiptTime":"2026-04-18T06:54:11.054Z","obsTime":1776495060,"reportTime":"2026-04-18T07:00:00.000Z","temp":16.7,"dewp":15.6,"wdir":210,"wspd":6,"visib":6,"altim":1009.2,"slp":1007.9,"qcField":12,"wxString":"+RA BR","precip":0.1,"metarType":"METAR","rawOb":"METAR KSTL 180651Z 21006KT 6SM +RA BR BKN080 OVC095 17/16 A2980 RMK AO2 SLP079 P0010 T01670156 $","lat":38.7525,"lon":-90.3734,"elev":163,"name":"St Louis/Lambert Intl, MO, US","cover":"OVC","clouds":[{"cover":"BKN","base":8000},{"cover":"OVC","base":9500}],"fltCat":"VFR"},{"icaoId":"KRDU","receiptTime":"2026-04-18T06:54:10.797Z","obsTime":1776495060,"reportTime":"2026-04-18T07:00:00.000Z","temp":17.2,"dewp":11.7,"wdir":0,"wspd":0,"visib":"10+","altim":1014.6,"slp":1014,"qcField":4,"metarType":"METAR","rawOb":"METAR KRDU 180651Z 00000KT 10SM FEW250 17/12 A2996 RMK AO2 SLP140 T01720117","lat":35.8923,"lon":-78.782,"elev":121,"name":"Raleigh-Durham Intl, NC, US","cover":"FEW","clouds":[{"cover":"FEW","base":25000}],"fltCat":"VFR"},{"icaoId":"KCRP","receiptTime":"2026-04-18T06:54:09.676Z","obsTime":1776495060,"reportTime":"2026-04-18T07:00:00.000Z","temp":24.4,"dewp":21.7,"wdir":160,"wspd":15,"visib":"10+","altim":1010.2,"slp":1009.8,"qcField":4,"metarType":"METAR","rawOb":"METAR KCRP 180651Z 16015KT 10SM FEW017 FEW020 BKN026 24/22 A2983 RMK AO2 SLP098 T02440217","lat":27.7734,"lon":-97.513,"elev":11,"name":"Corpus Christi Intl, TX, US","cover":"BKN","clouds":[{"cover":"FEW","base":1700},{"cover":"FEW","base":2000},{"cover":"BKN","base":2600}],"fltCat":"MVFR"},{"icaoId":"KCLE","receiptTime":"2026-04-18T06:54:09.595Z","obsTime":1776495060,"reportTime":"2026-04-18T07:00:00.000Z","temp":17.8,"dewp":10.6,"wdir":160,"wspd":10,"visib":"10+","altim":1009.2,"slp":1010.4,"qcField":12,"metarType":"METAR","rawOb":"METAR KCLE 180651Z 16010KT 10SM SCT240 18/11 A2980 RMK AO2 SLP104 T01780106 $","lat":41.4057,"lon":-81.8519,"elev":237,"name":"Cleveland/Hopkins Intl, OH, US","cover":"SCT","clouds":[{"cover":"SCT","base":24000}],"fltCat":"VFR"},{"icaoId":"KOXR","receiptTime":"2026-04-18T06:54:10.621Z","obsTime":1776495060,"reportTime":"2026-04-18T07:00:00.000Z","temp":14.4,"dewp":8.9,"wdir":30,"wspd":4,"visib":"10+","altim":1015,"slp":1014.8,"qcField":14,"metarType":"METAR","rawOb":"METAR KOXR 180651Z AUTO 03004KT 10SM CLR 14/09 A2997 RMK AO2 SLP148 T01440089 $","lat":34.2001,"lon":-119.2042,"elev":12,"name":"Oxnard Arpt, CA, US","cover":"CLR","clouds":[],"fltCat":"VFR"},{"icaoId":"KSAN","receiptTime":"2026-04-18T06:54:10.872Z","obsTime":1776495060,"reportTime":"2026-04-18T07:00:00.000Z","temp":16.7,"dewp":12.8,"wdir":0,"wspd":0,"visib":"10+","altim":1016.3,"slp":1016.1,"qcField":12,"metarType":"METAR","rawOb":"METAR KSAN 180651Z 00000KT 10SM CLR 17/13 A3001 RMK AO2 SLP161 T01670128 $","lat":32.7364,"lon":-117.1973,"elev":3,"name":"San Diego Intl Arpt, CA, US","cover":"CLR","clouds":[],"fltCat":"VFR"},{"icaoId":"KSAT","receiptTime":"2026-04-18T06:54:10.914Z","obsTime":1776495060,"reportTime":"2026-04-18T07:00:00.000Z","temp":22.2,"dewp":18.9,"wdir":160,"wspd":11,"visib":"10+","altim":1011.3,"slp":1009.3,"qcField":4,"metarType":"METAR","rawOb":"METAR KSAT 180651Z 16011KT 10SM OVC017 22/19 A2986 RMK AO2 SLP093 T02220189","lat":29.5443,"lon":-98.4839,"elev":246,"name":"San Antonio Intl, TX, US","cover":"OVC","clouds":[{"cover":"OVC","base":1700}],"fltCat":"MVFR"},{"icaoId":"KSAD","receiptTime":"2026-04-18T06:54:10.848Z","obsTime":1776495060,"reportTime":"2026-04-18T07:00:00.000Z","temp":16.7,"dewp":-6.7,"wdir":300,"wspd":7,"visib":"10+","altim":1014.3,"slp":1010.1,"qcField":6,"maxT24":27.8,"minT24":12.8,"metarType":"METAR","rawOb":"METAR KSAD 180651Z AUTO 30007KT 10SM CLR 17/M07 A2995 RMK AO2 SLP101 T01671067 402780128","lat":32.8565,"lon":-109.636,"elev":937,"name":"Safford Rgnl, AZ, US","cover":"CLR","clouds":[],"fltCat":"VFR"},{"icaoId":"KBDL","receiptTime":"2026-04-18T06:54:09.466Z","obsTime":1776495060,"reportTime":"2026-04-18T07:00:00.000Z","temp":11.7,"dewp":11.1,"wdir":360,"wspd":3,"visib":"10+","altim":1017.7,"slp":1017.4,"qcField":4,"metarType":"METAR","rawOb":"METAR KBDL 180651Z 36003KT 10SM FEW250 12/11 A3005 RMK AO2 SLP174 T01170111","lat":41.9374,"lon":-72.682,"elev":52,"name":"Hartford/Bradley Intl, CT, US","cover":"FEW","clouds":[{"cover":"FEW","base":25000}],"fltCat":"VFR"},{"icaoId":"KORF","receiptTime":"2026-04-18T06:54:10.547Z","obsTime":1776495060,"reportTime":"2026-04-18T07:00:00.000Z","temp":18.3,"dewp":16.1,"wdir":0,"wspd":0,"visib":"10+","altim":1014.6,"slp":1014.5,"qcField":4,"metarType":"METAR","rawOb":"METAR KORF 180651Z 00000KT 10SM CLR 18/16 A2996 RMK AO2 SLP145 T01830161","lat":36.9037,"lon":-76.1927,"elev":5,"name":"Norfolk Intl, VA, US","cover":"CLR","clouds":[],"fltCat":"VFR"},{"icaoId":"KLGU","receiptTime":"2026-04-18T06:54:10.407Z","obsTime":1776495060,"reportTime":"2026-04-18T07:00:00.000Z","temp":-1.1,"dewp":-5.6,"wdir":0,"wspd":0,"visib":"10+","altim":1024.5,"slp":1025.5,"qcField":6,"maxT24":6.1,"minT24":-6.1,"metarType":"METAR","rawOb":"METAR KLGU 180651Z AUTO 00000KT 10SM CLR M01/M06 A3025 RMK AO2 SLP255 T10111056 400611061","lat":41.7865,"lon":-111.8519,"elev":1359,"name":"Logan/Cache Arpt, UT, US","cover":"CLR","clouds":[],"fltCat":"VFR"},{"icaoId":"KIGM","receiptTime":"2026-04-18T06:54:09.972Z","obsTime":1776495060,"reportTime":"2026-04-18T07:00:00.000Z","temp":8.3,"dewp":-16.1,"wdir":120,"wspd":11,"visib":"10+","altim":1018.7,"slp":1014.5,"qcField":6,"maxT24":18.9,"minT24":8.3,"metarType":"METAR","rawOb":"METAR KIGM 180651Z AUTO 12011KT 10SM CLR 08/M16 A3008 RMK AO2 SLP145 T00831161 401890083","lat":35.2575,"lon":-113.9341,"elev":1045,"name":"Kingman Arpt, AZ, US","cover":"CLR","clouds":[],"fltCat":"VFR"},{"icaoId":"KCMH","receiptTime":"2026-04-18T06:54:09.628Z","obsTime":1776495060,"reportTime":"2026-04-18T07:00:00.000Z","temp":20,"dewp":8.3,"wdir":150,"wspd":7,"visib":"10+","altim":1010.6,"slp":1009.8,"qcField":4,"metarType":"METAR","rawOb":"METAR KCMH 180651Z 15007KT 10SM SCT095 BKN200 OVC250 20/08 A2984 RMK AO2 SLP098 T02000083","lat":39.9907,"lon":-82.877,"elev":257,"name":"Columbus/Glenn Intl, OH, US","cover":"OVC","clouds":[{"cover":"SCT","base":9500},{"cover":"BKN","base":20000},{"cover":"OVC","base":25000}],"fltCat":"VFR"},{"icaoId":"KPVD","receiptTime":"2026-04-18T06:54:10.731Z","obsTime":1776495060,"reportTime":"2026-04-18T07:00:00.000Z","temp":9.4,"dewp":8.9,"wdir":350,"wspd":8,"visib":"10+","altim":1017.7,"slp":1017.6,"qcField":6,"metarType":"METAR","rawOb":"METAR KPVD 180651Z AUTO 35008KT 10SM CLR 09/09 A3005 RMK AO2 SLP176 T00940089","lat":41.7225,"lon":-71.4325,"elev":15,"name":"Providence/Green Mem, RI, US","cover":"CLR","clouds":[],"fltCat":"VFR"}]