[{"icaoId":"KHII","receiptTime":"2026-04-06T21:22:05.995Z","obsTime":1775510100,"reportTime":"2026-04-06T21:15:00.000Z","temp":31,"dewp":-4,"wdir":210,"wspd":7,"wgst":14,"visib":"10+","altim":1011.3,"qcField":6,"metarType":"METAR","rawOb":"METAR KHII 062115Z AUTO 21007G14KT 10SM CLR 31/M04 A2986 RMK AO2","lat":34.5659,"lon":-114.3522,"elev":241,"name":"Lake Havasu City Arpt, AZ, US","cover":"CLR","clouds":[],"fltCat":"VFR"},{"icaoId":"KSOW","receiptTime":"2026-04-06T21:18:14.067Z","obsTime":1775510100,"reportTime":"2026-04-06T21:15:00.000Z","temp":12,"dewp":6,"wdir":0,"wspd":0,"visib":"10+","altim":1022.8,"qcField":6,"metarType":"METAR","rawOb":"METAR KSOW 062115Z AUTO 00000KT 10SM FEW033 FEW050 12/06 A3020 RMK AO2","lat":34.2686,"lon":-110.0019,"elev":1954,"name":"Show Low Muni, AZ, US","cover":"FEW","clouds":[{"cover":"FEW","base":3300},{"cover":"FEW","base":5000}],"fltCat":"VFR"},{"icaoId":"KSEZ","receiptTime":"2026-04-06T21:20:25.978Z","obsTime":1775510100,"reportTime":"2026-04-06T21:15:00.000Z","temp":19,"dewp":3,"wdir":"VRB","wspd":5,"wgst":12,"visib":9,"altim":1019.4,"qcField":6,"wxString":"-RA","metarType":"METAR","rawOb":"METAR KSEZ 062115Z AUTO VRB05G12KT 9SM -RA FEW060 FEW070 19/03 A3010 RMK AO2","lat":34.8467,"lon":-111.7884,"elev":1455,"name":"Sedona Arpt, AZ, US","cover":"FEW","clouds":[{"cover":"FEW","base":6000},{"cover":"FEW","base":7000}],"fltCat":"VFR"},{"icaoId":"KFLG","receiptTime":"2026-04-06T21:00:24.446Z","obsTime":1775509020,"reportTime":"2026-04-06T21:00:00.000Z","temp":13.9,"dewp":0.6,"wdir":200,"wspd":14,"wgst":21,"visib":"10+","altim":1022.1,"slp":1015.6,"qcField":4,"presTend":-1.6,"precip":0.005,"pcp3hr":0.005,"metarType":"METAR","rawOb":"METAR KFLG 062057Z 20014G21KT 10SM BKN060 OVC070 14/01 A3018 RMK AO2 RAE07 SLP156 P0000 60000 T01390006 56016","lat":35.1443,"lon":-111.6664,"elev":2134,"name":"Flagstaff/Pulliam Arpt, AZ, US","cover":"OVC","clouds":[{"cover":"BKN","base":6000},{"cover":"OVC","base":7000}],"fltCat":"VFR"},{"icaoId":"KNYL","receiptTime":"2026-04-06T21:00:25.087Z","obsTime":1775509020,"reportTime":"2026-04-06T21:00:00.000Z","temp":31.1,"dewp":-6.1,"wdir":300,"wspd":16,"wgst":23,"visib":"10+","altim":1011.3,"slp":1010.8,"qcField":12,"presTend":-1.2,"metarType":"METAR","rawOb":"METAR KNYL 062057Z 30016G23KT 10SM BKN140 31/M06 A2986 RMK AO2 SLP108 T03111061 58012 $","lat":32.66,"lon":-114.6078,"elev":58,"name":"Yuma , AZ, US","cover":"BKN","clouds":[{"cover":"BKN","base":14000}],"fltCat":"VFR"},{"icaoId":"KINW","receiptTime":"2026-04-06T21:00:06.159Z","obsTime":1775508960,"reportTime":"2026-04-06T21:00:00.000Z","temp":17.8,"dewp":3.3,"wdir":250,"wspd":11,"visib":"10+","altim":1020.1,"slp":1015.3,"qcField":6,"presTend":-1.1,"precip":0.005,"pcp3hr":0.005,"metarType":"METAR","rawOb":"METAR KINW 062056Z AUTO 25011KT 10SM FEW055 SCT070 OVC090 18/03 A3012 RMK AO2 PK WND 23031/2023 RAB16E51 SLP153 P0000 60000 T01780033 56011","lat":35.0279,"lon":-110.7221,"elev":1492,"name":"Winslow/Lindberg Rgnl, AZ, US","cover":"OVC","clouds":[{"cover":"FEW","base":5500},{"cover":"SCT","base":7000},{"cover":"OVC","base":9000}],"fltCat":"VFR"},{"icaoId":"KDUG","receiptTime":"2026-04-06T21:02:11.969Z","obsTime":1775508960,"reportTime":"2026-04-06T21:00:00.000Z","temp":20,"dewp":5.6,"wdir":140,"wspd":7,"visib":"10+","altim":1018.7,"slp":1013.6,"qcField":38,"presTend":-2.9,"metarType":"METAR","rawOb":"METAR KDUG 062056Z AUTO 14007KT 090V180 10SM CLR 20/06 A3008 RMK AO2 SLP136 T02000056 58029 TSNO","lat":31.4725,"lon":-109.6022,"elev":1260,"name":"Douglas/Bisbee Intl, AZ, US","cover":"CLR","clouds":[],"fltCat":"VFR"},{"icaoId":"KCGZ","receiptTime":"2026-04-06T20:58:34.480Z","obsTime":1775508960,"reportTime":"2026-04-06T21:00:00.000Z","temp":27.8,"dewp":5,"wdir":60,"wspd":19,"wgst":23,"visib":"10+","altim":1012.6,"slp":1011.3,"qcField":14,"presTend":-2.3,"metarType":"METAR","rawOb":"METAR KCGZ 062056Z AUTO 06019G23KT 10SM CLR 28/05 A2990 RMK AO2 SLP113 6//// T02780050 56023 $","lat":32.9531,"lon":-111.7725,"elev":444,"name":"Casa Granda Muni, AZ, US","cover":"CLR","clouds":[],"fltCat":"VFR"},{"icaoId":"KGCN","receiptTime":"2026-04-06T20:58:18.671Z","obsTime":1775508840,"reportTime":"2026-04-06T21:00:00.000Z","temp":13.3,"dewp":2.8,"wdir":90,"wspd":7,"visib":"10+","altim":1022.1,"slp":1017.5,"qcField":4,"wxString":"-RA","presTend":-0.9,"precip":0.005,"pcp3hr":0.01,"metarType":"METAR","rawOb":"METAR KGCN 062054Z 09007KT 10SM -RA SCT044 BKN060 OVC075 13/03 A3018 RMK AO2 RAB39 SLP175 P0000 60001 T01330028 58009","lat":35.9458,"lon":-112.1554,"elev":1993,"name":"Grand Canyon Park Arpt, AZ, US","cover":"OVC","clouds":[{"cover":"SCT","base":4400},{"cover":"BKN","base":6000},{"cover":"OVC","base":7500}],"fltCat":"VFR"},{"icaoId":"KFFZ","receiptTime":"2026-04-06T20:58:11.432Z","obsTime":1775508840,"reportTime":"2026-04-06T21:00:00.000Z","temp":27.8,"dewp":3.9,"wdir":100,"wspd":6,"visib":"10+","altim":1013,"slp":1010.6,"qcField":4,"presTend":-1.8,"metarType":"METAR","rawOb":"METAR KFFZ 062054Z 10006KT 10SM CLR 28/04 A2991 RMK AO2 SLP106 T02780039 56018","lat":33.4659,"lon":-111.7212,"elev":420,"name":"Mesa/Falcon Fld, AZ, US","cover":"CLR","clouds":[],"fltCat":"VFR"},{"icaoId":"KOLS","receiptTime":"2026-04-06T20:58:18.625Z","obsTime":1775508840,"reportTime":"2026-04-06T21:00:00.000Z","temp":25,"dewp":-3.3,"wdir":200,"wspd":10,"wgst":16,"visib":"10+","altim":1017,"slp":1010.6,"qcField":6,"presTend":-2.3,"metarType":"METAR","rawOb":"METAR KOLS 062054Z AUTO 20010G16KT 10SM OVC100 25/M03 A3003 RMK AO2 SLP106 T02501033 56023","lat":31.4208,"lon":-110.8465,"elev":1194,"name":"Nogales Intl, AZ, US","cover":"OVC","clouds":[{"cover":"OVC","base":10000}],"fltCat":"VFR"},{"icaoId":"KSJN","receiptTime":"2026-04-06T20:58:15.451Z","obsTime":1775508840,"reportTime":"2026-04-06T21:00:00.000Z","temp":17.2,"dewp":2.2,"wdir":220,"wspd":14,"wgst":22,"visib":"10+","altim":1020.1,"slp":1013.3,"qcField":6,"presTend":-1.2,"metarType":"METAR","rawOb":"METAR KSJN 062054Z AUTO 22014G22KT 10SM FEW049 BKN070 OVC085 17/02 A3012 RMK AO2 PK WND 20028/2038 WSHFT 2002 SLP133 T01720022 55012","lat":34.5184,"lon":-109.3801,"elev":1747,"name":"St Johns Ind Arpt, AZ, US","cover":"OVC","clouds":[{"cover":"FEW","base":4900},{"cover":"BKN","base":7000},{"cover":"OVC","base":8500}],"fltCat":"VFR"},{"icaoId":"KPGA","receiptTime":"2026-04-06T20:56:33.153Z","obsTime":1775508780,"reportTime":"2026-04-06T21:00:00.000Z","temp":20.6,"dewp":-7.2,"wdir":0,"wspd":0,"visib":"10+","altim":1018,"slp":1013.9,"qcField":14,"presTend":-1.8,"metarType":"METAR","rawOb":"METAR KPGA 062053Z AUTO 00000KT 10SM BKN100 21/M07 A3006 RMK AO2 SLP139 T02061072 56018 $","lat":36.9211,"lon":-111.4487,"elev":1310,"name":"Page Muni, AZ, US","cover":"BKN","clouds":[{"cover":"BKN","base":10000}],"fltCat":"VFR"},{"icaoId":"KSDL","receiptTime":"2026-04-06T20:56:31.776Z","obsTime":1775508780,"reportTime":"2026-04-06T21:00:00.000Z","temp":27.2,"dewp":3.3,"wdir":100,"wspd":9,"wgst":18,"visib":"10+","altim":1013.6,"slp":1011,"qcField":4,"presTend":-1.9,"metarType":"METAR","rawOb":"METAR KSDL 062053Z 10009G18KT 10SM CLR 27/03 A2993 RMK AO2 SLP110 T02720033 57019","lat":33.6123,"lon":-111.9232,"elev":438,"name":"Scottsdale Muni, AZ, US","cover":"CLR","clouds":[],"fltCat":"VFR"},{"icaoId":"KPRC","receiptTime":"2026-04-06T20:56:31.639Z","obsTime":1775508780,"reportTime":"2026-04-06T21:00:00.000Z","temp":18.9,"dewp":-1.1,"wdir":180,"wspd":8,"wgst":17,"visib":"10+","altim":1019,"slp":1013,"qcField":4,"presTend":-1.1,"metarType":"METAR","rawOb":"METAR KPRC 062053Z 18008G17KT 10SM FEW055 SCT070 OVC090 19/M01 A3009 RMK AO2 SLP130 T01891011 56011","lat":34.6491,"lon":-112.4223,"elev":1528,"name":"Prescott/Love Fld, AZ, US","cover":"OVC","clouds":[{"cover":"FEW","base":5500},{"cover":"SCT","base":7000},{"cover":"OVC","base":9000}],"fltCat":"VFR"},{"icaoId":"KDVT","receiptTime":"2026-04-06T20:56:33.995Z","obsTime":1775508780,"reportTime":"2026-04-06T21:00:00.000Z","temp":27.8,"dewp":3.3,"wdir":150,"wspd":8,"wgst":17,"visib":"10+","altim":1013.3,"slp":1010.8,"qcField":4,"presTend":-2,"metarType":"METAR","rawOb":"METAR KDVT 062053Z 15008G17KT 10SM CLR 28/03 A2992 RMK AO2 SLP108 T02780033 56020","lat":33.6902,"lon":-112.0662,"elev":454,"name":"Phoenix/Deer Valley Arpt, AZ, US","cover":"CLR","clouds":[],"fltCat":"VFR"},{"icaoId":"KTUS","receiptTime":"2026-04-06T20:56:36.799Z","obsTime":1775508780,"reportTime":"2026-04-06T21:00:00.000Z","temp":25.6,"dewp":5.6,"wdir":120,"wspd":12,"visib":"10+","altim":1015.3,"slp":1011.1,"qcField":4,"presTend":-2.2,"metarType":"METAR","rawOb":"METAR KTUS 062053Z 12012KT 10SM BKN110 26/06 A2998 RMK AO2 SLP111 T02560056 56022","lat":32.1315,"lon":-110.9564,"elev":776,"name":"Tucson Intl Arpt, AZ, US","cover":"BKN","clouds":[{"cover":"BKN","base":11000}],"fltCat":"VFR"},{"icaoId":"KPHX","receiptTime":"2026-04-06T20:54:09.493Z","obsTime":1775508660,"reportTime":"2026-04-06T21:00:00.000Z","temp":28.9,"dewp":3.9,"wdir":110,"wspd":16,"wgst":23,"visib":"10+","altim":1011.9,"slp":1010.1,"qcField":4,"presTend":-2.3,"metarType":"METAR","rawOb":"METAR KPHX 062051Z 11016G23KT 10SM FEW130 OVC250 29/04 A2988 RMK AO2 SLP101 T02890039 58023","lat":33.4278,"lon":-112.0037,"elev":338,"name":"Phoenix/Sky Harbor Intl, AZ, US","cover":"OVC","clouds":[{"cover":"FEW","base":13000},{"cover":"OVC","base":25000}],"fltCat":"VFR"},{"icaoId":"KIGM","receiptTime":"2026-04-06T20:54:09.070Z","obsTime":1775508660,"reportTime":"2026-04-06T21:00:00.000Z","temp":25.6,"dewp":-6.1,"wdir":190,"wspd":9,"wgst":17,"visib":"10+","altim":1015.7,"slp":1009.4,"qcField":6,"presTend":-1.3,"metarType":"METAR","rawOb":"METAR KIGM 062051Z AUTO 19009G17KT 10SM CLR 26/M06 A2999 RMK AO2 SLP094 T02561061 58013","lat":35.2575,"lon":-113.9341,"elev":1045,"name":"Kingman Arpt, AZ, US","cover":"CLR","clouds":[],"fltCat":"VFR"},{"icaoId":"KSAD","receiptTime":"2026-04-06T20:54:09.696Z","obsTime":1775508660,"reportTime":"2026-04-06T21:00:00.000Z","temp":19.4,"dewp":3.3,"wdir":150,"wspd":10,"visib":"10+","altim":1019,"slp":1015.4,"qcField":6,"presTend":-2.7,"metarType":"METAR","rawOb":"METAR KSAD 062051Z AUTO 15010KT 10SM FEW065 OVC085 19/03 A3009 RMK AO2 SLP154 T01940033 56027","lat":32.8565,"lon":-109.636,"elev":937,"name":"Safford Rgnl, AZ, US","cover":"OVC","clouds":[{"cover":"FEW","base":6500},{"cover":"OVC","base":8500}],"fltCat":"VFR"},{"icaoId":"KIWA","receiptTime":"2026-04-06T20:56:38.441Z","obsTime":1775508600,"reportTime":"2026-04-06T21:00:00.000Z","temp":28,"dewp":4,"wdir":90,"wspd":14,"visib":"10+","altim":1013.3,"qcField":0,"metarType":"METAR","rawOb":"METAR KIWA 062050Z 09014KT 10SM CLR 28/04 A2992","lat":33.3008,"lon":-111.6437,"elev":420,"name":"Phoenix/Mesa Gateway Arpt, AZ, US","cover":"CLR","clouds":[],"fltCat":"VFR"},{"icaoId":"KCHD","receiptTime":"2026-04-06T20:49:47.544Z","obsTime":1775508420,"reportTime":"2026-04-06T21:00:00.000Z","temp":28,"dewp":5,"wdir":40,"wspd":12,"wgst":20,"visib":"10+","altim":1012.6,"qcField":0,"metarType":"METAR","rawOb":"METAR KCHD 062047Z 04012G20KT 10SM SCT120 OVC180 28/05 A2990","lat":33.2669,"lon":-111.8086,"elev":378,"name":"Chandler Muni, AZ, US","cover":"OVC","clouds":[{"cover":"SCT","base":12000},{"cover":"OVC","base":18000}],"fltCat":"VFR"},{"icaoId":"KIFP","receiptTime":"2026-04-06T20:47:27.936Z","obsTime":1775508420,"reportTime":"2026-04-06T21:00:00.000Z","temp":31,"dewp":-5,"wdir":200,"wspd":9,"visib":"10+","altim":1010.6,"qcField":0,"metarType":"METAR","rawOb":"METAR KIFP 062047Z 20009KT 10SM CLR 31/M05 A2984","lat":35.1487,"lon":-114.5611,"elev":210,"name":"Bullhead City Intl, AZ, US","cover":"CLR","clouds":[],"fltCat":"VFR"},{"icaoId":"KGYR","receiptTime":"2026-04-06T20:48:01.422Z","obsTime":1775508420,"reportTime":"2026-04-06T21:00:00.000Z","temp":31,"dewp":6,"wdir":120,"wspd":11,"visib":"10+","altim":1012.6,"qcField":0,"metarType":"METAR","rawOb":"METAR KGYR 062047Z 12011KT 10SM BKN140 BKN200 31/06 A2990","lat":33.428,"lon":-112.368,"elev":292,"name":"Phoenix/Goodyear Muni, AZ, US","cover":"BKN","clouds":[{"cover":"BKN","base":14000},{"cover":"BKN","base":20000}],"fltCat":"VFR"},{"icaoId":"KRYN","receiptTime":"2026-04-06T20:46:07.775Z","obsTime":1775508300,"reportTime":"2026-04-06T21:00:00.000Z","temp":27,"dewp":4,"wdir":80,"wspd":10,"visib":"10+","altim":1014.3,"qcField":0,"metarType":"METAR","rawOb":"METAR KRYN 062045Z 08010KT 10SM SCT110 27/04 A2995","lat":32.1418,"lon":-111.1767,"elev":731,"name":"Tucson/Ryan Fld, AZ, US","cover":"SCT","clouds":[{"cover":"SCT","base":11000}],"fltCat":"VFR"},{"icaoId":"KLUF","receiptTime":"2026-04-06T20:43:32.675Z","obsTime":1775507640,"reportTime":"2026-04-06T20:34:00.000Z","temp":30,"dewp":3,"wdir":110,"wspd":11,"visib":"10+","altim":1012.3,"slp":1010.9,"qcField":12,"metarType":"SPECI","rawOb":"SPECI KLUF 062034Z 11011KT 10SM FEW140 SCT160 BKN210 30/03 A2989 RMK AO2A WSHFT 22 SLP109 $","lat":33.538,"lon":-112.38,"elev":333,"name":"Phoenix/Luke AFB, AZ, US","cover":"BKN","clouds":[{"cover":"FEW","base":14000},{"cover":"SCT","base":16000},{"cover":"BKN","base":21000}],"fltCat":"VFR"}]