[{"icaoId":"KGYR","receiptTime":"2026-04-06T20:48:01.422Z","obsTime":1775508420,"reportTime":"2026-04-06T21:00:00.000Z","temp":31,"dewp":6,"wdir":120,"wspd":11,"visib":"10+","altim":1012.6,"qcField":0,"metarType":"METAR","rawOb":"METAR KGYR 062047Z 12011KT 10SM BKN140 BKN200 31/06 A2990","lat":33.428,"lon":-112.368,"elev":292,"name":"Phoenix/Goodyear Muni, AZ, US","cover":"BKN","clouds":[{"cover":"BKN","base":14000},{"cover":"BKN","base":20000}],"fltCat":"VFR"},{"icaoId":"KIFP","receiptTime":"2026-04-06T20:47:27.936Z","obsTime":1775508420,"reportTime":"2026-04-06T21:00:00.000Z","temp":31,"dewp":-5,"wdir":200,"wspd":9,"visib":"10+","altim":1010.6,"qcField":0,"metarType":"METAR","rawOb":"METAR KIFP 062047Z 20009KT 10SM CLR 31/M05 A2984","lat":35.1487,"lon":-114.5611,"elev":210,"name":"Bullhead City Intl, AZ, US","cover":"CLR","clouds":[],"fltCat":"VFR"},{"icaoId":"KRYN","receiptTime":"2026-04-06T20:46:07.775Z","obsTime":1775508300,"reportTime":"2026-04-06T21:00:00.000Z","temp":27,"dewp":4,"wdir":80,"wspd":10,"visib":"10+","altim":1014.3,"qcField":0,"metarType":"METAR","rawOb":"METAR KRYN 062045Z 08010KT 10SM SCT110 27/04 A2995","lat":32.1418,"lon":-111.1767,"elev":731,"name":"Tucson/Ryan Fld, AZ, US","cover":"SCT","clouds":[{"cover":"SCT","base":11000}],"fltCat":"VFR"},{"icaoId":"KHII","receiptTime":"2026-04-06T20:42:05.818Z","obsTime":1775507700,"reportTime":"2026-04-06T20:35:00.000Z","temp":31,"dewp":-5,"wdir":140,"wspd":7,"visib":"10+","altim":1011.6,"qcField":6,"metarType":"METAR","rawOb":"METAR KHII 062035Z AUTO 14007KT 10SM CLR 31/M05 A2987 RMK AO2","lat":34.5659,"lon":-114.3522,"elev":241,"name":"Lake Havasu City Arpt, AZ, US","cover":"CLR","clouds":[],"fltCat":"VFR"},{"icaoId":"KSEZ","receiptTime":"2026-04-06T20:40:21.251Z","obsTime":1775507700,"reportTime":"2026-04-06T20:35:00.000Z","temp":21,"dewp":2,"wdir":170,"wspd":9,"wgst":15,"visib":"10+","altim":1019.7,"qcField":6,"metarType":"METAR","rawOb":"METAR KSEZ 062035Z AUTO 17009G15KT 130V200 10SM FEW043 21/02 A3011 RMK AO2","lat":34.8467,"lon":-111.7884,"elev":1455,"name":"Sedona Arpt, AZ, US","cover":"FEW","clouds":[{"cover":"FEW","base":4300}],"fltCat":"VFR"},{"icaoId":"KSOW","receiptTime":"2026-04-06T20:38:26.761Z","obsTime":1775507700,"reportTime":"2026-04-06T20:35:00.000Z","temp":11,"dewp":7,"wdir":170,"wspd":5,"visib":6,"altim":1023.5,"qcField":6,"wxString":"-RA","metarType":"METAR","rawOb":"METAR KSOW 062035Z AUTO 17005KT 6SM -RA FEW021 BKN032 OVC046 11/07 A3022 RMK AO2","lat":34.2686,"lon":-110.0019,"elev":1954,"name":"Show Low Muni, AZ, US","cover":"OVC","clouds":[{"cover":"FEW","base":2100},{"cover":"BKN","base":3200},{"cover":"OVC","base":4600}],"fltCat":"VFR"},{"icaoId":"KLUF","receiptTime":"2026-04-06T20:43:32.675Z","obsTime":1775507640,"reportTime":"2026-04-06T20:34:00.000Z","temp":30,"dewp":3,"wdir":110,"wspd":11,"visib":"10+","altim":1012.3,"slp":1010.9,"qcField":12,"metarType":"SPECI","rawOb":"SPECI KLUF 062034Z 11011KT 10SM FEW140 SCT160 BKN210 30/03 A2989 RMK AO2A WSHFT 22 SLP109 $","lat":33.538,"lon":-112.38,"elev":333,"name":"Phoenix/Luke AFB, AZ, US","cover":"BKN","clouds":[{"cover":"FEW","base":14000},{"cover":"SCT","base":16000},{"cover":"BKN","base":21000}],"fltCat":"VFR"},{"icaoId":"KSJN","receiptTime":"2026-04-06T20:26:13.526Z","obsTime":1775506920,"reportTime":"2026-04-06T20:22:00.000Z","temp":17.8,"dewp":1.7,"wdir":210,"wspd":15,"wgst":23,"visib":"10+","altim":1020.1,"qcField":6,"metarType":"SPECI","rawOb":"SPECI KSJN 062022Z AUTO 21015G23KT 10SM SCT070 OVC090 18/02 A3012 RMK AO2 WSHFT 2002 T01780017","lat":34.5184,"lon":-109.3801,"elev":1747,"name":"St Johns Ind Arpt, AZ, US","cover":"OVC","clouds":[{"cover":"SCT","base":7000},{"cover":"OVC","base":9000}],"fltCat":"VFR"},{"icaoId":"KNYL","receiptTime":"2026-04-06T20:00:24.596Z","obsTime":1775505420,"reportTime":"2026-04-06T20:00:00.000Z","temp":30.6,"dewp":-5,"wdir":290,"wspd":13,"wgst":21,"visib":"10+","altim":1011.6,"slp":1011.3,"qcField":12,"metarType":"METAR","rawOb":"METAR KNYL 061957Z 29013G21KT 10SM BKN130 31/M05 A2987 RMK AO2 SLP113 T03061050 $","lat":32.66,"lon":-114.6078,"elev":58,"name":"Yuma , AZ, US","cover":"BKN","clouds":[{"cover":"BKN","base":13000}],"fltCat":"VFR"},{"icaoId":"KFLG","receiptTime":"2026-04-06T20:00:22.052Z","obsTime":1775505420,"reportTime":"2026-04-06T20:00:00.000Z","temp":11.7,"dewp":3.3,"wdir":"VRB","wspd":6,"wgst":16,"visib":"10+","altim":1022.4,"slp":1016.7,"qcField":4,"wxString":"-RA","precip":0.005,"metarType":"METAR","rawOb":"METAR KFLG 061957Z VRB06G16KT 10SM -RA BKN055 OVC070 12/03 A3019 RMK AO2 RAB25 SLP167 P0000 T01170033","lat":35.1443,"lon":-111.6664,"elev":2134,"name":"Flagstaff/Pulliam Arpt, AZ, US","cover":"OVC","clouds":[{"cover":"BKN","base":5500},{"cover":"OVC","base":7000}],"fltCat":"VFR"},{"icaoId":"KDUG","receiptTime":"2026-04-06T20:02:05.205Z","obsTime":1775505360,"reportTime":"2026-04-06T20:00:00.000Z","temp":18.9,"dewp":6.1,"wdir":120,"wspd":4,"visib":"10+","altim":1020.4,"slp":1015,"qcField":38,"metarType":"METAR","rawOb":"METAR KDUG 061956Z AUTO 12004KT 10SM BKN110 19/06 A3013 RMK AO2 SLP150 T01890061 TSNO","lat":31.4725,"lon":-109.6022,"elev":1260,"name":"Douglas/Bisbee Intl, AZ, US","cover":"BKN","clouds":[{"cover":"BKN","base":11000}],"fltCat":"VFR"},{"icaoId":"KINW","receiptTime":"2026-04-06T20:00:05.499Z","obsTime":1775505360,"reportTime":"2026-04-06T20:00:00.000Z","temp":18.9,"dewp":3.3,"wdir":230,"wspd":19,"visib":"10+","altim":1020.1,"slp":1015.2,"qcField":6,"metarType":"METAR","rawOb":"METAR KINW 061956Z AUTO 23019KT 10SM BKN100 19/03 A3012 RMK AO2 PK WND 21029/1918 SLP152 T01890033","lat":35.0279,"lon":-110.7221,"elev":1492,"name":"Winslow/Lindberg Rgnl, AZ, US","cover":"BKN","clouds":[{"cover":"BKN","base":10000}],"fltCat":"VFR"},{"icaoId":"KCGZ","receiptTime":"2026-04-06T19:58:21.317Z","obsTime":1775505360,"reportTime":"2026-04-06T20:00:00.000Z","temp":27.8,"dewp":5,"wdir":80,"wspd":16,"visib":"10+","altim":1013.6,"slp":1012.1,"qcField":14,"metarType":"METAR","rawOb":"METAR KCGZ 061956Z AUTO 08016KT 10SM CLR 28/05 A2993 RMK AO2 SLP121 T02780050 $","lat":32.9531,"lon":-111.7725,"elev":444,"name":"Casa Granda Muni, AZ, US","cover":"CLR","clouds":[],"fltCat":"VFR"},{"icaoId":"KGCN","receiptTime":"2026-04-06T19:58:05.232Z","obsTime":1775505240,"reportTime":"2026-04-06T20:00:00.000Z","temp":13.9,"dewp":2.2,"wdir":100,"wspd":8,"visib":"10+","altim":1022.1,"slp":1017.4,"qcField":4,"precip":0.005,"metarType":"METAR","rawOb":"METAR KGCN 061954Z 10008KT 10SM SCT070 SCT085 14/02 A3018 RMK AO2 RAB19E33 SLP174 P0000 T01390022","lat":35.9458,"lon":-112.1554,"elev":1993,"name":"Grand Canyon Park Arpt, AZ, US","cover":"SCT","clouds":[{"cover":"SCT","base":7000},{"cover":"SCT","base":8500}],"fltCat":"VFR"},{"icaoId":"KFFZ","receiptTime":"2026-04-06T19:58:18.013Z","obsTime":1775505240,"reportTime":"2026-04-06T20:00:00.000Z","temp":27.8,"dewp":2.8,"wdir":60,"wspd":7,"visib":"10+","altim":1013.6,"slp":1011.1,"qcField":4,"metarType":"METAR","rawOb":"METAR KFFZ 061954Z 06007KT 10SM CLR 28/03 A2993 RMK AO2 SLP111 T02780028","lat":33.4659,"lon":-111.7212,"elev":420,"name":"Mesa/Falcon Fld, AZ, US","cover":"CLR","clouds":[],"fltCat":"VFR"},{"icaoId":"KOLS","receiptTime":"2026-04-06T19:58:15.229Z","obsTime":1775505240,"reportTime":"2026-04-06T20:00:00.000Z","temp":24.4,"dewp":3.3,"wdir":180,"wspd":8,"visib":"10+","altim":1017.7,"slp":1011.2,"qcField":6,"metarType":"METAR","rawOb":"METAR KOLS 061954Z AUTO 18008KT 10SM BKN110 24/03 A3005 RMK AO2 SLP112 T02440033","lat":31.4208,"lon":-110.8465,"elev":1194,"name":"Nogales Intl, AZ, US","cover":"BKN","clouds":[{"cover":"BKN","base":11000}],"fltCat":"VFR"},{"icaoId":"KPRC","receiptTime":"2026-04-06T19:56:32.582Z","obsTime":1775505180,"reportTime":"2026-04-06T20:00:00.000Z","temp":19.4,"dewp":-0.6,"wdir":120,"wspd":10,"wgst":18,"visib":"10+","altim":1019.4,"slp":1013.2,"qcField":4,"metarType":"METAR","rawOb":"METAR KPRC 061953Z 12010G18KT 10SM OVC085 19/M01 A3010 RMK AO2 PK WND 15027/1935 SLP132 T01941006","lat":34.6491,"lon":-112.4223,"elev":1528,"name":"Prescott/Love Fld, AZ, US","cover":"OVC","clouds":[{"cover":"OVC","base":8500}],"fltCat":"VFR"},{"icaoId":"KTUS","receiptTime":"2026-04-06T19:56:32.110Z","obsTime":1775505180,"reportTime":"2026-04-06T20:00:00.000Z","temp":24.4,"dewp":5.6,"wdir":110,"wspd":15,"wgst":21,"visib":"10+","altim":1016.3,"slp":1011.9,"qcField":4,"metarType":"METAR","rawOb":"METAR KTUS 061953Z 11015G21KT 10SM BKN110 24/06 A3001 RMK AO2 SLP119 T02440056","lat":32.1315,"lon":-110.9564,"elev":776,"name":"Tucson Intl Arpt, AZ, US","cover":"BKN","clouds":[{"cover":"BKN","base":11000}],"fltCat":"VFR"},{"icaoId":"KDVT","receiptTime":"2026-04-06T19:56:29.124Z","obsTime":1775505180,"reportTime":"2026-04-06T20:00:00.000Z","temp":27.8,"dewp":3.3,"wdir":130,"wspd":6,"visib":"10+","altim":1013.6,"slp":1011.3,"qcField":12,"metarType":"METAR","rawOb":"METAR KDVT 061953Z 13006KT 10SM CLR 28/03 A2993 RMK AO2 SLP113 T02780033 $","lat":33.6902,"lon":-112.0662,"elev":454,"name":"Phoenix/Deer Valley Arpt, AZ, US","cover":"CLR","clouds":[],"fltCat":"VFR"},{"icaoId":"KSDL","receiptTime":"2026-04-06T19:56:32.098Z","obsTime":1775505180,"reportTime":"2026-04-06T20:00:00.000Z","temp":27.2,"dewp":3.3,"wdir":110,"wspd":6,"visib":"10+","altim":1014.3,"slp":1011.8,"qcField":4,"metarType":"METAR","rawOb":"METAR KSDL 061953Z 11006KT 10SM CLR 27/03 A2995 RMK AO2 SLP118 T02720033","lat":33.6123,"lon":-111.9232,"elev":438,"name":"Scottsdale Muni, AZ, US","cover":"CLR","clouds":[],"fltCat":"VFR"},{"icaoId":"KPGA","receiptTime":"2026-04-06T19:56:32.538Z","obsTime":1775505180,"reportTime":"2026-04-06T20:00:00.000Z","temp":17.8,"dewp":-7.8,"wdir":280,"wspd":4,"visib":"10+","altim":1018.7,"slp":1014.5,"qcField":14,"metarType":"METAR","rawOb":"METAR KPGA 061953Z AUTO 28004KT 10SM OVC100 18/M08 A3008 RMK AO2 SLP145 T01781078 $","lat":36.9211,"lon":-111.4487,"elev":1310,"name":"Page Muni, AZ, US","cover":"OVC","clouds":[{"cover":"OVC","base":10000}],"fltCat":"VFR"},{"icaoId":"KIGM","receiptTime":"2026-04-06T19:54:11.615Z","obsTime":1775505060,"reportTime":"2026-04-06T20:00:00.000Z","temp":25.6,"dewp":-2.2,"wdir":240,"wspd":15,"visib":"10+","altim":1016.3,"slp":1010.1,"qcField":6,"metarType":"METAR","rawOb":"METAR KIGM 061951Z AUTO 24015KT 10SM CLR 26/M02 A3001 RMK AO2 SLP101 T02561022","lat":35.2575,"lon":-113.9341,"elev":1045,"name":"Kingman Arpt, AZ, US","cover":"CLR","clouds":[],"fltCat":"VFR"},{"icaoId":"KPHX","receiptTime":"2026-04-06T19:54:09.927Z","obsTime":1775505060,"reportTime":"2026-04-06T20:00:00.000Z","temp":28.9,"dewp":3.9,"wdir":110,"wspd":11,"wgst":18,"visib":"10+","altim":1013,"slp":1011,"qcField":4,"metarType":"METAR","rawOb":"METAR KPHX 061951Z 11011G18KT 10SM SCT130 OVC250 29/04 A2991 RMK AO2 SLP110 T02890039","lat":33.4278,"lon":-112.0037,"elev":338,"name":"Phoenix/Sky Harbor Intl, AZ, US","cover":"OVC","clouds":[{"cover":"SCT","base":13000},{"cover":"OVC","base":25000}],"fltCat":"VFR"},{"icaoId":"KSAD","receiptTime":"2026-04-06T19:54:10.057Z","obsTime":1775505060,"reportTime":"2026-04-06T20:00:00.000Z","temp":18.9,"dewp":3.3,"wdir":170,"wspd":15,"visib":"10+","altim":1019.7,"slp":1016.1,"qcField":6,"metarType":"METAR","rawOb":"METAR KSAD 061951Z AUTO 17015KT 10SM FEW060 SCT090 OVC110 19/03 A3011 RMK AO2 SLP161 T01890033","lat":32.8565,"lon":-109.636,"elev":937,"name":"Safford Rgnl, AZ, US","cover":"OVC","clouds":[{"cover":"FEW","base":6000},{"cover":"SCT","base":9000},{"cover":"OVC","base":11000}],"fltCat":"VFR"},{"icaoId":"KIWA","receiptTime":"2026-04-06T19:50:47.623Z","obsTime":1775504940,"reportTime":"2026-04-06T20:00:00.000Z","temp":27,"dewp":3,"wdir":80,"wspd":15,"wgst":19,"visib":"10+","altim":1014.6,"qcField":0,"metarType":"METAR","rawOb":"METAR KIWA 061949Z 08015G19KT 10SM SCT120 27/03 A2996","lat":33.3008,"lon":-111.6437,"elev":420,"name":"Phoenix/Mesa Gateway Arpt, AZ, US","cover":"SCT","clouds":[{"cover":"SCT","base":12000}],"fltCat":"VFR"},{"icaoId":"KCHD","receiptTime":"2026-04-06T19:48:11.165Z","obsTime":1775504820,"reportTime":"2026-04-06T20:00:00.000Z","temp":26,"dewp":6,"wdir":110,"wspd":11,"wgst":18,"visib":"10+","altim":1014,"qcField":0,"metarType":"METAR","rawOb":"METAR KCHD 061947Z 11011G18KT 10SM SCT140 OVC180 26/06 A2994","lat":33.2669,"lon":-111.8086,"elev":378,"name":"Chandler Muni, AZ, US","cover":"OVC","clouds":[{"cover":"SCT","base":14000},{"cover":"OVC","base":18000}],"fltCat":"VFR"}]