[{"icaoId":"KBVU","receiptTime":"2026-04-15T19:36:08.098Z","obsTime":1776281700,"reportTime":"2026-04-15T19:35:00.000Z","temp":26,"dewp":-8,"wdir":170,"wspd":12,"wgst":17,"visib":"10+","altim":1015,"qcField":6,"metarType":"METAR","rawOb":"METAR KBVU 151935Z AUTO 17012G17KT 140V200 10SM CLR 26/M08 A2997 RMK AO2","lat":35.9489,"lon":-114.8633,"elev":654,"name":"Boulder City Muni, NV, US","cover":"CLR","clouds":[],"fltCat":"VFR"},{"icaoId":"KSOW","receiptTime":"2026-04-15T19:37:13.058Z","obsTime":1776281700,"reportTime":"2026-04-15T19:35:00.000Z","temp":15,"dewp":-8,"wdir":"VRB","wspd":4,"visib":"10+","altim":1021.4,"qcField":6,"metarType":"METAR","rawOb":"METAR KSOW 151935Z AUTO VRB04KT 10SM CLR 15/M08 A3016 RMK AO2","lat":34.2686,"lon":-110.0019,"elev":1954,"name":"Show Low Muni, AZ, US","cover":"CLR","clouds":[],"fltCat":"VFR"},{"icaoId":"KLRU","receiptTime":"2026-04-15T19:37:19.582Z","obsTime":1776281700,"reportTime":"2026-04-15T19:35:00.000Z","temp":21.2,"dewp":-14.3,"wdir":240,"wspd":9,"wgst":15,"visib":"10+","altim":1018.7,"qcField":6,"metarType":"METAR","rawOb":"METAR KLRU 151935Z AUTO 24009G15KT 10SM CLR 21/M14 A3008 RMK AO2 T02121143","lat":32.2884,"lon":-106.9131,"elev":1355,"name":"Las Cruces Intl, NM, US","cover":"CLR","clouds":[],"fltCat":"VFR"},{"icaoId":"KHCR","receiptTime":"2026-04-15T19:37:13.836Z","obsTime":1776281700,"reportTime":"2026-04-15T19:35:00.000Z","temp":14,"dewp":-4.3,"wdir":240,"wspd":18,"wgst":23,"visib":"10+","altim":1014.3,"qcField":14,"metarType":"METAR","rawOb":"METAR KHCR 151935Z AUTO 24018G23KT 10SM BKN110 14/M04 A2995 RMK AO2 T01401043 $","lat":40.4774,"lon":-111.4329,"elev":1708,"name":"Heber City Muni, UT, US","cover":"BKN","clouds":[{"cover":"BKN","base":11000}],"fltCat":"VFR"},{"icaoId":"KHAF","receiptTime":"2026-04-15T19:37:07.025Z","obsTime":1776281700,"reportTime":"2026-04-15T19:35:00.000Z","temp":15,"dewp":11,"wdir":330,"wspd":11,"visib":"10+","altim":1020.7,"qcField":6,"metarType":"METAR","rawOb":"METAR KHAF 151935Z AUTO 33011KT 10SM OVC022 15/11 A3014 RMK AO2","lat":37.5136,"lon":-122.4996,"elev":11,"name":"Half Moon Bay Arpt, CA, US","cover":"OVC","clouds":[{"cover":"OVC","base":2200}],"fltCat":"MVFR"},{"icaoId":"KMFR","receiptTime":"2026-04-15T19:37:07.358Z","obsTime":1776281640,"reportTime":"2026-04-15T19:34:00.000Z","temp":9.4,"dewp":7.8,"wdir":"VRB","wspd":3,"visib":2.5,"altim":1014,"qcField":4,"wxString":"-RA BR","precip":0.06,"metarType":"SPECI","rawOb":"SPECI KMFR 151934Z VRB03KT 2 1/2SM R14/4500VP6000FT -RA BR FEW008 OVC026 09/08 A2994 RMK AO2 P0006 T00940078","lat":42.375,"lon":-122.877,"elev":397,"name":"Medford/Rogue Valley Intl, OR, US","cover":"OVC","clouds":[{"cover":"FEW","base":800},{"cover":"OVC","base":2600}],"fltCat":"IFR"},{"icaoId":"KSLE","receiptTime":"2026-04-15T19:36:03.089Z","obsTime":1776281520,"reportTime":"2026-04-15T19:32:00.000Z","temp":7.2,"dewp":3.3,"wdir":290,"wspd":18,"wgst":24,"visib":"10+","altim":1015,"qcField":4,"wxString":"-RA","precip":0.04,"metarType":"SPECI","rawOb":"SPECI KSLE 151932Z 29018G24KT 10SM -RA FEW024 BKN029 OVC036 07/03 A2997 RMK AO2 LTG DSNT NE RAB08 P0004 T00720033","lat":44.9049,"lon":-123.001,"elev":63,"name":"Salem Muni, OR, US","cover":"OVC","clouds":[{"cover":"FEW","base":2400},{"cover":"BKN","base":2900},{"cover":"OVC","base":3600}],"fltCat":"MVFR"},{"icaoId":"KSEA","receiptTime":"2026-04-15T19:34:07.508Z","obsTime":1776281460,"reportTime":"2026-04-15T19:31:00.000Z","temp":5.6,"dewp":2.8,"wdir":120,"wspd":7,"visib":"10+","altim":1010.9,"qcField":4,"precip":0.01,"metarType":"SPECI","rawOb":"SPECI KSEA 151931Z 12007KT 10SM SCT017 BKN032 BKN055 06/03 A2985 RMK AO2 RAE13 P0001 T00560028","lat":47.4447,"lon":-122.3144,"elev":115,"name":"Seattle-Tacoma Intl, WA, US","cover":"BKN","clouds":[{"cover":"SCT","base":1700},{"cover":"BKN","base":3200},{"cover":"BKN","base":5500}],"fltCat":"VFR"},{"icaoId":"KSFO","receiptTime":"2026-04-15T19:32:12.119Z","obsTime":1776281280,"reportTime":"2026-04-15T19:28:00.000Z","temp":15.6,"dewp":8.9,"wdir":280,"wspd":16,"visib":"10+","altim":1020.1,"qcField":12,"metarType":"SPECI","rawOb":"SPECI KSFO 151928Z 28016KT 10SM SCT023 BKN200 16/09 A3012 RMK AO2 T01560089 $","lat":37.6196,"lon":-122.3656,"elev":2,"name":"San Francisco Intl, CA, US","cover":"BKN","clouds":[{"cover":"SCT","base":2300},{"cover":"BKN","base":20000}],"fltCat":"VFR"},{"icaoId":"KGPI","receiptTime":"2026-04-15T19:30:06.329Z","obsTime":1776281220,"reportTime":"2026-04-15T19:27:00.000Z","temp":7.2,"dewp":3.9,"wdir":150,"wspd":13,"wgst":19,"visib":8,"altim":1001.8,"qcField":4,"wxString":"-RA","precip":0.005,"metarType":"SPECI","rawOb":"SPECI KGPI 151927Z 15013G19KT 8SM -RA FEW026 OVC032 07/04 A2958 RMK AO2 P0000 T00720039","lat":48.3041,"lon":-114.2643,"elev":903,"name":"Kalispell/Glacier Park Intl, MT, US","cover":"OVC","clouds":[{"cover":"FEW","base":2600},{"cover":"OVC","base":3200}],"fltCat":"VFR"},{"icaoId":"KSAT","receiptTime":"2026-04-15T19:30:04.673Z","obsTime":1776281160,"reportTime":"2026-04-15T19:26:00.000Z","temp":28.3,"dewp":18.9,"wdir":180,"wspd":7,"visib":"10+","altim":1013.6,"qcField":4,"wxString":"-RA","precip":0.005,"metarType":"SPECI","rawOb":"SPECI KSAT 151926Z 18007KT 10SM -RA SCT040 BKN070 BKN150 28/19 A2993 RMK AO2 RAB20 P0000 T02830189","lat":29.5443,"lon":-98.4839,"elev":246,"name":"San Antonio Intl, TX, US","cover":"BKN","clouds":[{"cover":"SCT","base":4000},{"cover":"BKN","base":7000},{"cover":"BKN","base":15000}],"fltCat":"VFR"},{"icaoId":"KACV","receiptTime":"2026-04-15T19:28:06.454Z","obsTime":1776281100,"reportTime":"2026-04-15T19:25:00.000Z","temp":11.7,"dewp":11.1,"wdir":180,"wspd":10,"visib":1.25,"altim":1018.7,"qcField":6,"wxString":"RA BR","precip":0.06,"metarType":"SPECI","rawOb":"SPECI KACV 151925Z AUTO 18010KT 1 1/4SM RA BR BKN004 OVC009 12/11 A3008 RMK AO2 P0006 T01170111","lat":40.9784,"lon":-124.1048,"elev":63,"name":"Arcata Arpt, CA, US","cover":"OVC","clouds":[{"cover":"BKN","base":400},{"cover":"OVC","base":900}],"fltCat":"LIFR"},{"icaoId":"KDTW","receiptTime":"2026-04-15T19:28:06.499Z","obsTime":1776281100,"reportTime":"2026-04-15T19:25:00.000Z","temp":20,"dewp":18.9,"wdir":"VRB","wspd":3,"visib":2,"altim":1009.9,"qcField":4,"wxString":"-RA BR","precip":0.04,"metarType":"SPECI","rawOb":"SPECI KDTW 151925Z VRB03KT 2SM -RA BR FEW016 BKN035 OVC060 20/19 A2982 RMK AO2 SFC VIS 3 P0004 T02000189","lat":42.2311,"lon":-83.3312,"elev":192,"name":"Detroit/Metro Wayne Cnty, MI, US","cover":"OVC","clouds":[{"cover":"FEW","base":1600},{"cover":"BKN","base":3500},{"cover":"OVC","base":6000}],"fltCat":"IFR"},{"icaoId":"KBOS","receiptTime":"2026-04-15T19:28:06.484Z","obsTime":1776281100,"reportTime":"2026-04-15T19:25:00.000Z","temp":10.6,"dewp":9.4,"wdir":60,"wspd":8,"visib":0.25,"altim":1012.6,"qcField":4,"wxString":"FG","metarType":"SPECI","rawOb":"SPECI KBOS 151925Z 06008KT 1/4SM R04R/P6000FT FG OVC002 11/09 A2990 RMK AO2 T01060094","lat":42.3606,"lon":-71.0097,"elev":4,"name":"Boston/Logan Intl, MA, US","cover":"OVC","clouds":[{"cover":"OVC","base":200}],"fltCat":"LIFR"},{"icaoId":"KSBP","receiptTime":"2026-04-15T19:26:13.228Z","obsTime":1776280920,"reportTime":"2026-04-15T19:22:00.000Z","temp":19.4,"dewp":10,"wdir":320,"wspd":11,"visib":"10+","altim":1017.4,"qcField":4,"metarType":"SPECI","rawOb":"SPECI KSBP 151922Z 32011KT 10SM CLR 19/10 A3004 RMK AO2 T01940100","lat":35.2381,"lon":-120.644,"elev":52,"name":"San Luis Obispo/San Luis Cnty, CA, US","cover":"CLR","clouds":[],"fltCat":"VFR"},{"icaoId":"KMLC","receiptTime":"2026-04-15T19:24:04.787Z","obsTime":1776280800,"reportTime":"2026-04-15T19:20:00.000Z","temp":25,"dewp":19.4,"wdir":200,"wspd":8,"wgst":17,"visib":"10+","altim":1012.3,"qcField":6,"metarType":"SPECI","rawOb":"SPECI KMLC 151920Z AUTO 20008G17KT 140V220 10SM BKN027 BKN034 OVC042 25/19 A2989 RMK AO2 T02500194","lat":34.8824,"lon":-95.7815,"elev":231,"name":"McAlester Rgnl, OK, US","cover":"OVC","clouds":[{"cover":"BKN","base":2700},{"cover":"BKN","base":3400},{"cover":"OVC","base":4200}],"fltCat":"MVFR"},{"icaoId":"KMYL","receiptTime":"2026-04-15T19:18:31.576Z","obsTime":1776280500,"reportTime":"2026-04-15T19:15:00.000Z","temp":1.7,"dewp":0.6,"wdir":120,"wspd":10,"wgst":21,"visib":4,"altim":1007.5,"qcField":6,"wxString":"-SN BR","precip":0.01,"metarType":"SPECI","rawOb":"SPECI KMYL 151915Z AUTO 12010G21KT 4SM -SN BR OVC013 02/01 A2975 RMK AO2 P0001 T00170006","lat":44.8943,"lon":-116.0998,"elev":1532,"name":"McCall Muni, ID, US","cover":"OVC","clouds":[{"cover":"OVC","base":1300}],"fltCat":"MVFR"},{"icaoId":"KHTH","receiptTime":"2026-04-15T19:20:46.914Z","obsTime":1776280500,"reportTime":"2026-04-15T19:15:00.000Z","temp":18,"dewp":-6,"wdir":0,"wspd":0,"visib":"10+","altim":1015.3,"qcField":6,"metarType":"METAR","rawOb":"METAR KHTH 151915Z AUTO 00000KT 10SM CLR 18/M06 A2998 RMK A01","lat":38.5448,"lon":-118.6314,"elev":1281,"name":"Hawthorne Muni, NV, US","cover":"CLR","clouds":[],"fltCat":"VFR"},{"icaoId":"KCXP","receiptTime":"2026-04-15T19:20:38.742Z","obsTime":1776280500,"reportTime":"2026-04-15T19:15:00.000Z","temp":12,"dewp":-7,"wdir":260,"wspd":12,"wgst":19,"visib":"10+","altim":1017.7,"qcField":6,"metarType":"METAR","rawOb":"METAR KCXP 151915Z AUTO 26012G19KT 10SM CLR 12/M07 A3005 RMK AO2","lat":39.1905,"lon":-119.7319,"elev":1431,"name":"Carson City Arpt, NV, US","cover":"CLR","clouds":[],"fltCat":"VFR"},{"icaoId":"KSEZ","receiptTime":"2026-04-15T19:20:59.773Z","obsTime":1776280500,"reportTime":"2026-04-15T19:15:00.000Z","temp":19,"dewp":-5,"wdir":240,"wspd":6,"visib":"10+","altim":1019.7,"qcField":6,"metarType":"METAR","rawOb":"METAR KSEZ 151915Z AUTO 24006KT 10SM CLR 19/M05 A3011 RMK AO2","lat":34.8467,"lon":-111.7884,"elev":1455,"name":"Sedona Arpt, AZ, US","cover":"CLR","clouds":[],"fltCat":"VFR"},{"icaoId":"KHII","receiptTime":"2026-04-15T19:22:06.673Z","obsTime":1776280500,"reportTime":"2026-04-15T19:15:00.000Z","temp":27,"dewp":-4,"wdir":"VRB","wspd":5,"wgst":10,"visib":"10+","altim":1015,"qcField":6,"metarType":"METAR","rawOb":"METAR KHII 151915Z AUTO VRB05G10KT 10SM CLR 27/M04 A2997 RMK AO2","lat":34.5659,"lon":-114.3522,"elev":241,"name":"Lake Havasu City Arpt, AZ, US","cover":"CLR","clouds":[],"fltCat":"VFR"},{"icaoId":"KMHR","receiptTime":"2026-04-15T19:20:39.441Z","obsTime":1776280500,"reportTime":"2026-04-15T19:15:00.000Z","temp":19,"dewp":13,"wdir":210,"wspd":5,"wgst":13,"visib":"10+","altim":1018.4,"qcField":6,"metarType":"METAR","rawOb":"METAR KMHR 151915Z AUTO 21005G13KT 10SM CLR 19/13 A3007 RMK AO2","lat":38.56,"lon":-121.284,"elev":30,"name":"Sacramento/Mather Fld, CA, US","cover":"CLR","clouds":[],"fltCat":"VFR"},{"icaoId":"KCEC","receiptTime":"2026-04-15T19:16:08.156Z","obsTime":1776280380,"reportTime":"2026-04-15T19:13:00.000Z","temp":9.4,"dewp":8.3,"wdir":330,"wspd":14,"wgst":23,"visib":9,"altim":1019,"qcField":6,"precip":0.005,"metarType":"SPECI","rawOb":"SPECI KCEC 151913Z AUTO 33014G23KT 9SM FEW012 OVC019 09/08 A3009 RMK AO2 RAE08 P0000 T00940083","lat":41.7836,"lon":-124.238,"elev":17,"name":"Crescent City/McNama, CA, US","cover":"OVC","clouds":[{"cover":"FEW","base":1200},{"cover":"OVC","base":1900}],"fltCat":"MVFR"},{"icaoId":"KAST","receiptTime":"2026-04-15T19:14:04.799Z","obsTime":1776280200,"reportTime":"2026-04-15T19:10:00.000Z","temp":6.1,"dewp":3.3,"wdir":360,"wspd":5,"visib":"10+","altim":1014,"qcField":6,"wxString":"-RA","precip":0.01,"metarType":"SPECI","rawOb":"SPECI KAST 151910Z AUTO 36005KT 10SM -RA BKN024 BKN036 OVC060 06/03 A2994 RMK AO2 P0001 T00610033","lat":46.157,"lon":-123.8833,"elev":3,"name":"Astoria Rgnl, OR, US","cover":"OVC","clouds":[{"cover":"BKN","base":2400},{"cover":"BKN","base":3600},{"cover":"OVC","base":6000}],"fltCat":"MVFR"},{"icaoId":"KPSP","receiptTime":"2026-04-15T19:12:07.421Z","obsTime":1776280140,"reportTime":"2026-04-15T19:09:00.000Z","temp":27.8,"dewp":-1.1,"wdir":120,"wspd":5,"visib":"10+","altim":1015,"qcField":12,"metarType":"SPECI","rawOb":"SPECI KPSP 151909Z 12005KT 10SM CLR 28/M01 A2997 RMK AO2 T02781011 $","lat":33.8222,"lon":-116.5043,"elev":123,"name":"Palm Springs Intl, CA, US","cover":"CLR","clouds":[],"fltCat":"VFR"},{"icaoId":"KRTS","receiptTime":"2026-04-15T19:20:51.993Z","obsTime":1776279900,"reportTime":"2026-04-15T19:05:00.000Z","temp":12,"dewp":-6,"wdir":220,"wspd":15,"wgst":23,"visib":"10+","altim":1017,"qcField":6,"metarType":"METAR","rawOb":"METAR KRTS 151905Z AUTO 22015G23KT 10SM CLR 12/M06 A3003 RMK AO2","lat":39.6658,"lon":-119.8731,"elev":1537,"name":"Reno/Stead Arpt, NV, US","cover":"CLR","clouds":[],"fltCat":"VFR"},{"icaoId":"KPUW","receiptTime":"2026-04-15T19:08:20.838Z","obsTime":1776279900,"reportTime":"2026-04-15T19:05:00.000Z","temp":5.6,"dewp":3.3,"wdir":230,"wspd":15,"wgst":22,"visib":7,"altim":1005.2,"qcField":6,"wxString":"-RA","precip":0.005,"metarType":"SPECI","rawOb":"SPECI KPUW 151905Z AUTO 23015G22KT 7SM -RA FEW012 BKN019 OVC029 06/03 A2968 RMK AO2 P0000 T00560033","lat":46.7438,"lon":-117.1158,"elev":774,"name":"Pullman/Moscow Rgnl, WA, US","cover":"OVC","clouds":[{"cover":"FEW","base":1200},{"cover":"BKN","base":1900},{"cover":"OVC","base":2900}],"fltCat":"MVFR"},{"icaoId":"KMEV","receiptTime":"2026-04-15T19:20:51.059Z","obsTime":1776279900,"reportTime":"2026-04-15T19:05:00.000Z","temp":13,"dewp":-5,"wdir":"VRB","wspd":3,"visib":"10+","altim":1017.4,"qcField":6,"metarType":"METAR","rawOb":"METAR KMEV 151905Z AUTO VRB03KT 10SM CLR 13/M05 A3004 RMK AO2","lat":38.9963,"lon":-119.75,"elev":1437,"name":"Minden-Tahoe Arpt, NV, US","cover":"CLR","clouds":[],"fltCat":"VFR"},{"icaoId":"KGEG","receiptTime":"2026-04-15T19:08:20.804Z","obsTime":1776279840,"reportTime":"2026-04-15T19:04:00.000Z","temp":6.7,"dewp":3.3,"wdir":230,"wspd":20,"visib":"10+","altim":1002.8,"qcField":4,"metarType":"SPECI","rawOb":"SPECI KGEG 151904Z 23020KT 10SM FEW015 BKN038 OVC085 07/03 A2961 RMK AO2 VCSH SE T00670033","lat":47.6217,"lon":-117.528,"elev":718,"name":"Spokane Intl, WA, US","cover":"OVC","clouds":[{"cover":"FEW","base":1500},{"cover":"BKN","base":3800},{"cover":"OVC","base":8500}],"fltCat":"VFR"},{"icaoId":"KIFP","receiptTime":"2026-04-15T18:58:49.975Z","obsTime":1776279480,"reportTime":"2026-04-15T19:00:00.000Z","temp":26,"dewp":-4,"wdir":220,"wspd":6,"wgst":10,"visib":"10+","altim":1014.6,"qcField":0,"metarType":"METAR","rawOb":"METAR KIFP 151858Z 22006G10KT 10SM CLR 26/M04 A2996","lat":35.1487,"lon":-114.5611,"elev":210,"name":"Bullhead City Intl, AZ, US","cover":"CLR","clouds":[],"fltCat":"VFR"},{"icaoId":"KFLG","receiptTime":"2026-04-15T19:01:07.603Z","obsTime":1776279420,"reportTime":"2026-04-15T19:00:00.000Z","temp":12.8,"dewp":-6.1,"wdir":"VRB","wspd":5,"visib":"10+","altim":1021.4,"slp":1016.8,"qcField":4,"metarType":"METAR","rawOb":"METAR KFLG 151857Z VRB05KT 10SM FEW070 13/M06 A3016 RMK AO2 SLP168 T01281061","lat":35.1443,"lon":-111.6664,"elev":2134,"name":"Flagstaff/Pulliam Arpt, AZ, US","cover":"FEW","clouds":[{"cover":"FEW","base":7000}],"fltCat":"VFR"},{"icaoId":"KNYL","receiptTime":"2026-04-15T19:25:16.768Z","obsTime":1776279420,"reportTime":"2026-04-15T19:00:00.000Z","temp":27.2,"dewp":1.7,"wdir":180,"wspd":7,"visib":"10+","altim":1015.3,"slp":1014.8,"qcField":5,"metarType":"METAR","rawOb":"METAR KNYL 151857Z COR 18007KT 10SM CLR 27/02 A2998 A02 SLP148 T02720017","lat":32.66,"lon":-114.6078,"elev":58,"name":"Yuma , AZ, US","cover":"CLR","clouds":[],"fltCat":"VFR"},{"icaoId":"KNFL","receiptTime":"2026-04-15T19:01:12.041Z","obsTime":1776279420,"reportTime":"2026-04-15T19:00:00.000Z","temp":16.7,"dewp":-3.3,"wdir":260,"wspd":8,"visib":"10+","altim":1015.3,"slp":1012.4,"qcField":4,"metarType":"METAR","rawOb":"METAR KNFL 151857Z 26008KT 10SM SCT070 BKN090 BKN150 BKN200 17/M03 A2998 RMK AO2 SLP124 ACSL DSNT ALQDS T01671033","lat":39.417,"lon":-118.705,"elev":1199,"name":"Fallon , NV, US","cover":"BKN","clouds":[{"cover":"SCT","base":7000},{"cover":"BKN","base":9000},{"cover":"BKN","base":15000},{"cover":"BKN","base":20000}],"fltCat":"VFR"},{"icaoId":"KHDN","receiptTime":"2026-04-15T18:58:28.976Z","obsTime":1776279360,"reportTime":"2026-04-15T19:00:00.000Z","temp":11.1,"dewp":-1.7,"wdir":250,"wspd":11,"visib":"10+","altim":1017.4,"slp":1015,"qcField":6,"metarType":"METAR","rawOb":"METAR KHDN 151856Z AUTO 25011KT 10SM SCT065 11/M02 A3004 RMK AO2 SLP150 T01111017","lat":40.4842,"lon":-107.2296,"elev":2012,"name":"Hayden/Yampa Valley Arpt, CO, US","cover":"SCT","clouds":[{"cover":"SCT","base":6500}],"fltCat":"VFR"},{"icaoId":"KJAC","receiptTime":"2026-04-15T18:58:30.190Z","obsTime":1776279360,"reportTime":"2026-04-15T19:00:00.000Z","temp":5,"dewp":0,"wdir":240,"wspd":10,"visib":"10+","altim":1011.6,"slp":1012.6,"qcField":4,"precip":0.005,"metarType":"METAR","rawOb":"METAR KJAC 151856Z 24010KT 10SM FEW030 SCT036 OVC047 05/00 A2987 RMK AO2 RAE56 SLP126 P0000 T00500000","lat":43.6129,"lon":-110.7366,"elev":1967,"name":"Jackson Hole Arpt, WY, US","cover":"OVC","clouds":[{"cover":"FEW","base":3000},{"cover":"SCT","base":3600},{"cover":"OVC","base":4700}],"fltCat":"VFR"},{"icaoId":"KENV","receiptTime":"2026-04-15T18:58:31.442Z","obsTime":1776279360,"reportTime":"2026-04-15T19:00:00.000Z","temp":17.8,"dewp":-6.7,"wdir":230,"wspd":17,"visib":"10+","altim":1012.6,"slp":1011.2,"qcField":6,"metarType":"METAR","rawOb":"METAR KENV 151856Z AUTO 23017KT 10SM CLR 18/M07 A2990 RMK AO2 SLP112 T01781067","lat":40.7211,"lon":-114.0312,"elev":1291,"name":"Wendover Arpt, UT, US","cover":"CLR","clouds":[],"fltCat":"VFR"},{"icaoId":"KPWT","receiptTime":"2026-04-15T18:58:26.649Z","obsTime":1776279360,"reportTime":"2026-04-15T19:00:00.000Z","temp":6.1,"dewp":4.4,"wdir":190,"wspd":7,"visib":"10+","altim":1010.6,"slp":1011.3,"qcField":6,"precip":0.005,"metarType":"METAR","rawOb":"METAR KPWT 151856Z AUTO 19007KT 10SM SCT017 SCT023 06/04 A2984 RMK AO2 RAE15 SLP113 P0000 T00610044","lat":47.4942,"lon":-122.7594,"elev":143,"name":"Bremerton Arpt, WA, US","cover":"SCT","clouds":[{"cover":"SCT","base":1700},{"cover":"SCT","base":2300}],"fltCat":"VFR"},{"icaoId":"KINW","receiptTime":"2026-04-15T19:00:13.138Z","obsTime":1776279360,"reportTime":"2026-04-15T19:00:00.000Z","temp":16.7,"dewp":-7.2,"wdir":10,"wspd":5,"wgst":15,"visib":"10+","altim":1020.1,"slp":1017.1,"qcField":6,"metarType":"METAR","rawOb":"METAR KINW 151856Z AUTO 01005G15KT 10SM CLR 17/M07 A3012 RMK AO2 SLP171 T01671072","lat":35.0279,"lon":-110.7221,"elev":1492,"name":"Winslow/Lindberg Rgnl, AZ, US","cover":"CLR","clouds":[],"fltCat":"VFR"},{"icaoId":"KVIS","receiptTime":"2026-04-15T18:58:27.539Z","obsTime":1776279360,"reportTime":"2026-04-15T19:00:00.000Z","temp":19.4,"dewp":10.6,"wdir":"VRB","wspd":3,"visib":"10+","altim":1018.7,"slp":1018.7,"qcField":14,"metarType":"METAR","rawOb":"METAR KVIS 151856Z AUTO VRB03KT 10SM CLR 19/11 A3008 RMK AO2 SLP187 T01940106 PNO $","lat":36.3135,"lon":-119.3884,"elev":92,"name":"Visalia Muni, CA, US","cover":"CLR","clouds":[],"fltCat":"VFR"},{"icaoId":"KCGZ","receiptTime":"2026-04-15T18:58:32.442Z","obsTime":1776279360,"reportTime":"2026-04-15T19:00:00.000Z","temp":25,"dewp":-2.2,"wdir":120,"wspd":4,"visib":"10+","altim":1016.7,"slp":1015.6,"qcField":14,"metarType":"METAR","rawOb":"METAR KCGZ 151856Z AUTO 12004KT 10SM CLR 25/M02 A3002 RMK AO2 SLP156 T02501022 $","lat":32.9531,"lon":-111.7725,"elev":444,"name":"Casa Granda Muni, AZ, US","cover":"CLR","clouds":[],"fltCat":"VFR"},{"icaoId":"KRDM","receiptTime":"2026-04-15T19:00:13.457Z","obsTime":1776279360,"reportTime":"2026-04-15T19:00:00.000Z","temp":6.7,"dewp":-0.6,"wdir":290,"wspd":21,"wgst":29,"visib":"10+","altim":1009.2,"slp":1009.4,"qcField":4,"metarType":"METAR","rawOb":"METAR KRDM 151856Z 29021G29KT 10SM BKN070 OVC085 07/M01 A2980 RMK AO2 PK WND 30033/1801 SLP094 T00671006","lat":44.2558,"lon":-121.1407,"elev":930,"name":"Redmond Muni, OR, US","cover":"OVC","clouds":[{"cover":"BKN","base":7000},{"cover":"OVC","base":8500}],"fltCat":"VFR"},{"icaoId":"KSDF","receiptTime":"2026-04-15T19:00:58.899Z","obsTime":1776279360,"reportTime":"2026-04-15T19:00:00.000Z","temp":28.3,"dewp":15.6,"wdir":240,"wspd":16,"visib":"10+","altim":1015,"slp":1014.2,"qcField":4,"metarType":"METAR","rawOb":"METAR KSDF 151856Z 24016KT 10SM FEW050 SCT100 SCT150 BKN200 OVC250 28/16 A2997 RMK AO2 PK WND 22027/1805 SLP142 T02830156","lat":38.1774,"lon":-85.7308,"elev":146,"name":"Louisville Intl, KY, US","cover":"BKN","clouds":[{"cover":"FEW","base":5000},{"cover":"SCT","base":10000},{"cover":"SCT","base":15000},{"cover":"BKN","base":20000}],"fltCat":"VFR"},{"icaoId":"KCOE","receiptTime":"2026-04-15T18:58:26.472Z","obsTime":1776279360,"reportTime":"2026-04-15T19:00:00.000Z","temp":3.9,"dewp":2.2,"wdir":260,"wspd":6,"visib":"10+","altim":1003.5,"slp":1006.2,"qcField":14,"wxString":"-RA","metarType":"METAR","rawOb":"METAR KCOE 151856Z AUTO 26006KT 10SM -RA OVC019 04/02 A2963 RMK AO2 WSHFT 1813 SLP062 T00390022 PNO $","lat":47.7719,"lon":-116.8332,"elev":693,"name":"Coeur DAlene Arpt, ID, US","cover":"OVC","clouds":[{"cover":"OVC","base":1900}],"fltCat":"MVFR"},{"icaoId":"KFNL","receiptTime":"2026-04-15T18:58:30.427Z","obsTime":1776279360,"reportTime":"2026-04-15T19:00:00.000Z","temp":18.9,"dewp":-8.9,"wdir":"VRB","wspd":5,"visib":"10+","altim":1011.3,"slp":1007.4,"qcField":12,"metarType":"METAR","rawOb":"METAR KFNL 151856Z VRB05KT 10SM CLR 19/M09 A2986 RMK AO2 SLP074 T01891089 $","lat":40.4427,"lon":-105.0097,"elev":1529,"name":"Fort Collins/N Colorado Rgnl, CO, US","cover":"CLR","clouds":[],"fltCat":"VFR"},{"icaoId":"KSDY","receiptTime":"2026-04-15T18:58:22.938Z","obsTime":1776279360,"reportTime":"2026-04-15T19:00:00.000Z","temp":17.8,"dewp":-2.8,"wdir":260,"wspd":9,"wgst":15,"visib":"10+","altim":1004.5,"slp":1004.9,"qcField":14,"metarType":"METAR","rawOb":"METAR KSDY 151856Z AUTO 26009G15KT 10SM CLR 18/M03 A2966 RMK AO2 SLP049 T01781028 $","lat":47.7029,"lon":-104.1951,"elev":600,"name":"Sidney/Richland Muni, MT, US","cover":"CLR","clouds":[],"fltCat":"VFR"},{"icaoId":"KPVU","receiptTime":"2026-04-15T18:58:22.363Z","obsTime":1776279360,"reportTime":"2026-04-15T19:00:00.000Z","temp":17.2,"dewp":-2.2,"wdir":"VRB","wspd":5,"visib":"10+","altim":1014.6,"slp":1012.3,"qcField":4,"metarType":"METAR","rawOb":"METAR KPVU 151856Z VRB05KT 10SM SCT080 BKN200 17/M02 A2996 RMK AO2 SLP123 T01721022","lat":40.224,"lon":-111.7252,"elev":1370,"name":"Provo Muni, UT, US","cover":"BKN","clouds":[{"cover":"SCT","base":8000},{"cover":"BKN","base":20000}],"fltCat":"VFR"},{"icaoId":"KEGE","receiptTime":"2026-04-15T18:58:31.213Z","obsTime":1776279360,"reportTime":"2026-04-15T19:00:00.000Z","temp":11.1,"dewp":-6.1,"wdir":210,"wspd":10,"wgst":19,"visib":"10+","altim":1018.4,"slp":1015,"qcField":4,"metarType":"METAR","rawOb":"METAR KEGE 151856Z 21010G19KT 10SM BKN070 11/M06 A3007 RMK AO2 SLP150 T01111061","lat":39.6448,"lon":-106.9176,"elev":1993,"name":"Eagle Cnty Rgnl, CO, US","cover":"BKN","clouds":[{"cover":"BKN","base":7000}],"fltCat":"VFR"},{"icaoId":"KDUG","receiptTime":"2026-04-15T19:02:10.524Z","obsTime":1776279360,"reportTime":"2026-04-15T19:00:00.000Z","temp":20,"dewp":-7.2,"wdir":"VRB","wspd":3,"visib":"10+","altim":1019,"slp":1014.2,"qcField":38,"metarType":"METAR","rawOb":"METAR KDUG 151856Z AUTO VRB03KT 10SM CLR 20/M07 A3009 RMK AO2 SLP142 T02001072 TSNO","lat":31.4725,"lon":-109.6022,"elev":1260,"name":"Douglas/Bisbee Intl, AZ, US","cover":"CLR","clouds":[],"fltCat":"VFR"},{"icaoId":"KUKI","receiptTime":"2026-04-15T19:00:49.775Z","obsTime":1776279360,"reportTime":"2026-04-15T19:00:00.000Z","temp":16.1,"dewp":6.1,"wdir":310,"wspd":7,"visib":"10+","altim":1019.4,"slp":1018.8,"qcField":6,"metarType":"METAR","rawOb":"METAR KUKI 151856Z AUTO 31007KT 10SM SCT037 16/06 A3010 RMK AO2 SLP188 T01610061","lat":39.1278,"lon":-123.2001,"elev":183,"name":"Ukiah Muni, CA, US","cover":"SCT","clouds":[{"cover":"SCT","base":3700}],"fltCat":"VFR"},{"icaoId":"KTPH","receiptTime":"2026-04-15T19:00:49.704Z","obsTime":1776279360,"reportTime":"2026-04-15T19:00:00.000Z","temp":17.2,"dewp":-5.6,"wdir":210,"wspd":12,"wgst":18,"visib":"10+","altim":1017.4,"slp":1013.3,"qcField":6,"metarType":"METAR","rawOb":"METAR KTPH 151856Z AUTO 21012G18KT 10SM CLR 17/M06 A3004 RMK AO2 SLP133 T01721056","lat":38.0505,"lon":-117.0906,"elev":1647,"name":"Tonopah Arpt, NV, US","cover":"CLR","clouds":[],"fltCat":"VFR"},{"icaoId":"KJAX","receiptTime":"2026-04-15T19:00:57.063Z","obsTime":1776279360,"reportTime":"2026-04-15T19:00:00.000Z","temp":29.4,"dewp":13.3,"wdir":"VRB","wspd":4,"visib":"10+","altim":1020.1,"slp":1019.9,"qcField":12,"metarType":"METAR","rawOb":"METAR KJAX 151856Z VRB04KT 10SM FEW055 FEW250 29/13 A3012 RMK AO2 SLP199 T02940133 $","lat":30.4953,"lon":-81.6937,"elev":8,"name":"Jacksonville Intl, FL, US","cover":"FEW","clouds":[{"cover":"FEW","base":5500},{"cover":"FEW","base":25000}],"fltCat":"VFR"},{"icaoId":"KLAS","receiptTime":"2026-04-15T19:00:16.847Z","obsTime":1776279360,"reportTime":"2026-04-15T19:00:00.000Z","temp":24.4,"dewp":-5.6,"wdir":150,"wspd":5,"visib":"10+","altim":1015.7,"slp":1014,"qcField":4,"metarType":"METAR","rawOb":"METAR KLAS 151856Z 15005KT 10SM CLR 24/M06 A2999 RMK AO2 SLP140 T02441056","lat":36.0719,"lon":-115.1634,"elev":662,"name":"Las Vegas/Reid Intl, NV, US","cover":"CLR","clouds":[],"fltCat":"VFR"},{"icaoId":"KCOD","receiptTime":"2026-04-15T18:58:30.571Z","obsTime":1776279360,"reportTime":"2026-04-15T19:00:00.000Z","temp":15,"dewp":-2.8,"wdir":220,"wspd":9,"wgst":17,"visib":"10+","altim":1007.2,"slp":1004.6,"qcField":14,"metarType":"METAR","rawOb":"METAR KCOD 151856Z AUTO 22009G17KT 10SM CLR 15/M03 A2974 RMK AO2 SLP046 T01501028 $","lat":44.52,"lon":-109.0268,"elev":1550,"name":"Cody/Yellowstone Rgnl, WY, US","cover":"CLR","clouds":[],"fltCat":"VFR"},{"icaoId":"KSGU","receiptTime":"2026-04-15T18:58:21.733Z","obsTime":1776279360,"reportTime":"2026-04-15T19:00:00.000Z","temp":18.9,"dewp":1.1,"wdir":0,"wspd":0,"visib":"10+","altim":1017,"slp":1015.4,"qcField":6,"metarType":"METAR","rawOb":"METAR KSGU 151856Z AUTO 00000KT 10SM CLR 19/01 A3003 RMK AO2 SLP154 T01890011","lat":37.0444,"lon":-113.5034,"elev":877,"name":"Saint George Muni, UT, US","cover":"CLR","clouds":[],"fltCat":"VFR"},{"icaoId":"KLWS","receiptTime":"2026-04-15T19:00:13.178Z","obsTime":1776279360,"reportTime":"2026-04-15T19:00:00.000Z","temp":8.9,"dewp":5.6,"wdir":320,"wspd":12,"visib":"10+","altim":1004.8,"slp":1005.1,"qcField":4,"wxString":"-RA","precip":0.01,"metarType":"METAR","rawOb":"METAR KLWS 151856Z 32012KT 10SM -RA SCT041 OVC055 09/06 A2967 RMK AO2 SLP051 P0001 T00890056","lat":46.3746,"lon":-117.0153,"elev":435,"name":"Lewiston/Nez Perce Cnty, ID, US","cover":"OVC","clouds":[{"cover":"SCT","base":4100},{"cover":"OVC","base":5500}],"fltCat":"VFR"},{"icaoId":"KBZN","receiptTime":"2026-04-15T19:00:12.961Z","obsTime":1776279360,"reportTime":"2026-04-15T19:00:00.000Z","temp":13.9,"dewp":-3.3,"wdir":240,"wspd":15,"wgst":23,"visib":"10+","altim":1003.1,"slp":1001.5,"qcField":4,"metarType":"METAR","rawOb":"METAR KBZN 151856Z 24015G23KT 10SM SCT080 OVC090 14/M03 A2962 RMK AO2 SLP015 T01391033","lat":45.7876,"lon":-111.1615,"elev":1349,"name":"Bozeman/Gallatin Fld, MT, US","cover":"OVC","clouds":[{"cover":"SCT","base":8000},{"cover":"OVC","base":9000}],"fltCat":"VFR"},{"icaoId":"KEKO","receiptTime":"2026-04-15T19:00:49.555Z","obsTime":1776279360,"reportTime":"2026-04-15T19:00:00.000Z","temp":13.3,"dewp":-5,"wdir":250,"wspd":18,"wgst":24,"visib":"10+","altim":1013.6,"slp":1012,"qcField":6,"metarType":"METAR","rawOb":"METAR KEKO 151856Z AUTO 25018G24KT 10SM SCT070 BKN110 13/M05 A2993 RMK AO2 PK WND 24030/1801 SLP120 T01331050","lat":40.824,"lon":-115.7863,"elev":1541,"name":"Elko Rgnl, NV, US","cover":"BKN","clouds":[{"cover":"SCT","base":7000},{"cover":"BKN","base":11000}],"fltCat":"VFR"},{"icaoId":"KCHS","receiptTime":"2026-04-15T19:00:11.648Z","obsTime":1776279360,"reportTime":"2026-04-15T19:00:00.000Z","temp":30,"dewp":16.7,"wdir":210,"wspd":12,"wgst":17,"visib":"10+","altim":1019.7,"slp":1019.4,"qcField":4,"metarType":"METAR","rawOb":"METAR KCHS 151856Z 21012G17KT 10SM FEW055 30/17 A3011 RMK AO2 SLP194 T03000167","lat":32.8995,"lon":-80.0407,"elev":12,"name":"Charleston Intl, SC, US","cover":"FEW","clouds":[{"cover":"FEW","base":5500}],"fltCat":"VFR"},{"icaoId":"KHND","receiptTime":"2026-04-15T18:58:29.669Z","obsTime":1776279360,"reportTime":"2026-04-15T19:00:00.000Z","temp":23.9,"dewp":-4.4,"wdir":"VRB","wspd":4,"visib":"10+","altim":1016.7,"slp":1016.5,"qcField":12,"metarType":"METAR","rawOb":"METAR KHND 151856Z VRB04KT 10SM CLR 24/M04 A3002 RMK AO2 SLP165 T02391044 $","lat":35.9657,"lon":-115.1343,"elev":740,"name":"Henderson Exec, NV, US","cover":"CLR","clouds":[],"fltCat":"VFR"},{"icaoId":"KOTH","receiptTime":"2026-04-15T19:01:59.980Z","obsTime":1776279360,"reportTime":"2026-04-15T19:00:00.000Z","temp":11,"dewp":4,"wdir":300,"wspd":14,"visib":"10+","altim":1018.7,"qcField":0,"metarType":"METAR","rawOb":"METAR KOTH 151856Z 30014KT 10SM BKN037 11/04 A3008","lat":43.4194,"lon":-124.2438,"elev":3,"name":"North Bend/SW Oregon Rgnl, OR, US","cover":"BKN","clouds":[{"cover":"BKN","base":3700}],"fltCat":"VFR"},{"icaoId":"KGUC","receiptTime":"2026-04-15T18:58:28.866Z","obsTime":1776279360,"reportTime":"2026-04-15T19:00:00.000Z","temp":8.9,"dewp":-6.7,"wdir":230,"wspd":14,"wgst":20,"visib":"10+","altim":1018.7,"slp":1016.8,"qcField":14,"metarType":"METAR","rawOb":"METAR KGUC 151856Z AUTO 23014G20KT 10SM SCT070 09/M07 A3008 RMK AO2 SLP168 T00891067 $","lat":38.5322,"lon":-106.9419,"elev":2337,"name":"Gunnison Arpt, CO, US","cover":"SCT","clouds":[{"cover":"SCT","base":7000}],"fltCat":"VFR"},{"icaoId":"KLUF","receiptTime":"2026-04-15T19:12:05.542Z","obsTime":1776279300,"reportTime":"2026-04-15T19:00:00.000Z","temp":26.3,"dewp":-2.4,"wdir":110,"wspd":3,"visib":"10+","altim":1015,"slp":1014,"qcField":14,"metarType":"METAR","rawOb":"METAR KLUF 151855Z AUTO 11003KT 10SM FEW200 26/M02 A2997 RMK AO2 SLP140 T02631024 $","lat":33.538,"lon":-112.38,"elev":333,"name":"Phoenix/Luke AFB, AZ, US","cover":"FEW","clouds":[{"cover":"FEW","base":20000}],"fltCat":"VFR"},{"icaoId":"KCMA","receiptTime":"2026-04-15T18:58:30.515Z","obsTime":1776279300,"reportTime":"2026-04-15T19:00:00.000Z","temp":19.4,"dewp":12.2,"wdir":240,"wspd":7,"visib":"10+","altim":1017.4,"slp":1018.1,"qcField":4,"metarType":"METAR","rawOb":"METAR KCMA 151855Z 24007KT 10SM CLR 19/12 A3004 RMK AO2 SLP181 T01940122","lat":34.2114,"lon":-119.0876,"elev":20,"name":"Camarillo Arpt, CA, US","cover":"CLR","clouds":[],"fltCat":"VFR"},{"icaoId":"KRNO","receiptTime":"2026-04-15T18:58:26.663Z","obsTime":1776279300,"reportTime":"2026-04-15T19:00:00.000Z","temp":13.9,"dewp":-6.1,"wdir":200,"wspd":4,"visib":"10+","altim":1016.7,"slp":1014.1,"qcField":4,"metarType":"METAR","rawOb":"METAR KRNO 151855Z 20004KT 10SM SCT140 BKN190 14/M06 A3002 RMK AO2 SLP141 ACSL ALQDS T01391061","lat":39.5077,"lon":-119.7683,"elev":1344,"name":"Reno/Tahoe Intl, NV, US","cover":"BKN","clouds":[{"cover":"SCT","base":14000},{"cover":"BKN","base":19000}],"fltCat":"VFR"},{"icaoId":"KEND","receiptTime":"2026-04-15T19:16:05.602Z","obsTime":1776279300,"reportTime":"2026-04-15T19:00:00.000Z","temp":27.6,"dewp":13.1,"wdir":200,"wspd":9,"visib":"10+","altim":1007.9,"slp":1006.6,"qcField":14,"metarType":"METAR","rawOb":"METAR KEND 151855Z AUTO 20009KT 10SM FEW140 FEW170 SCT190 28/13 A2976 RMK AO2 SLP066 T02760131 $","lat":36.338,"lon":-97.919,"elev":392,"name":"Enid/Vance AFB, OK, US","cover":"SCT","clouds":[{"cover":"FEW","base":14000},{"cover":"FEW","base":17000},{"cover":"SCT","base":19000}],"fltCat":"VFR"},{"icaoId":"KIND","receiptTime":"2026-04-15T18:58:10.597Z","obsTime":1776279240,"reportTime":"2026-04-15T19:00:00.000Z","temp":25.6,"dewp":16.1,"wdir":240,"wspd":19,"wgst":25,"visib":"10+","altim":1013,"slp":1012.1,"qcField":4,"metarType":"METAR","rawOb":"METAR KIND 151854Z 24019G25KT 10SM FEW041 SCT060 BKN180 OVC250 26/16 A2991 RMK AO2 PK WND 22028/1822 SLP121 T02560161","lat":39.7252,"lon":-86.2816,"elev":242,"name":"Indianapolis Intl, IN, US","cover":"OVC","clouds":[{"cover":"FEW","base":4100},{"cover":"SCT","base":6000},{"cover":"BKN","base":18000},{"cover":"OVC","base":25000}],"fltCat":"VFR"},{"icaoId":"KBTV","receiptTime":"2026-04-15T18:58:19.526Z","obsTime":1776279240,"reportTime":"2026-04-15T19:00:00.000Z","temp":10.6,"dewp":8.3,"wdir":0,"wspd":0,"visib":5,"altim":1011.6,"slp":1011.6,"qcField":4,"wxString":"-RA BR","precip":0.005,"metarType":"METAR","rawOb":"METAR KBTV 151854Z 00000KT 5SM -RA BR FEW004 BKN034 OVC046 11/08 A2987 RMK AO2 RAE17B51 SLP116 P0000 T01060083","lat":44.4682,"lon":-73.1499,"elev":101,"name":"Burlington Intl, VT, US","cover":"OVC","clouds":[{"cover":"FEW","base":400},{"cover":"BKN","base":3400},{"cover":"OVC","base":4600}],"fltCat":"MVFR"},{"icaoId":"KEUG","receiptTime":"2026-04-15T18:58:20.629Z","obsTime":1776279240,"reportTime":"2026-04-15T19:00:00.000Z","temp":10,"dewp":4.4,"wdir":250,"wspd":8,"visib":"10+","altim":1016,"slp":1016,"qcField":12,"precip":0.01,"metarType":"METAR","rawOb":"METAR KEUG 151854Z 25008KT 10SM FEW025 SCT040 BKN075 10/04 A3000 RMK AO2 PK WND 28027/1759 RAB1757E16 SLP160 VCSH P0001 T01000044 $","lat":44.1331,"lon":-123.2156,"elev":109,"name":"Eugene/Mahlon Sweet Fld, OR, US","cover":"BKN","clouds":[{"cover":"FEW","base":2500},{"cover":"SCT","base":4000},{"cover":"BKN","base":7500}],"fltCat":"VFR"},{"icaoId":"KBWI","receiptTime":"2026-04-15T18:58:10.924Z","obsTime":1776279240,"reportTime":"2026-04-15T19:00:00.000Z","temp":31.7,"dewp":13.3,"wdir":240,"wspd":9,"visib":"10+","altim":1012.6,"slp":1012.4,"qcField":4,"metarType":"METAR","rawOb":"METAR KBWI 151854Z 24009KT 10SM FEW075 BKN250 32/13 A2990 RMK AO2 SLP124 T03170133","lat":39.1733,"lon":-76.684,"elev":42,"name":"Baltimore-Washington Intl, MD, US","cover":"BKN","clouds":[{"cover":"FEW","base":7500},{"cover":"BKN","base":25000}],"fltCat":"VFR"},{"icaoId":"KOLM","receiptTime":"2026-04-15T18:58:20.735Z","obsTime":1776279240,"reportTime":"2026-04-15T19:00:00.000Z","temp":8.3,"dewp":2.2,"wdir":240,"wspd":8,"visib":"10+","altim":1011.6,"slp":1011.6,"qcField":4,"precip":0.005,"metarType":"METAR","rawOb":"METAR KOLM 151854Z 24008KT 10SM FEW065 08/02 A2987 RMK AO2 PK WND 29026/1808 RAB11E26 SLP116 P0000 T00830022","lat":46.9737,"lon":-122.9049,"elev":58,"name":"Olympia Rgnl, WA, US","cover":"FEW","clouds":[{"cover":"FEW","base":6500}],"fltCat":"VFR"},{"icaoId":"KROC","receiptTime":"2026-04-15T18:58:19.935Z","obsTime":1776279240,"reportTime":"2026-04-15T19:00:00.000Z","temp":22.8,"dewp":13.3,"wdir":260,"wspd":23,"wgst":32,"visib":"10+","altim":1010.9,"slp":1011,"qcField":12,"metarType":"METAR","rawOb":"METAR KROC 151854Z 26023G32KT 10SM FEW020 FEW045 SCT100 BKN240 23/13 A2985 RMK AO2 PK WND 27032/1853 SLP110 T02280133 $","lat":43.1172,"lon":-77.6754,"elev":166,"name":"Rochester Intl Arpt, NY, US","cover":"BKN","clouds":[{"cover":"FEW","base":2000},{"cover":"FEW","base":4500},{"cover":"SCT","base":10000},{"cover":"BKN","base":24000}],"fltCat":"VFR"},{"icaoId":"KBUF","receiptTime":"2026-04-15T18:58:19.889Z","obsTime":1776279240,"reportTime":"2026-04-15T19:00:00.000Z","temp":19.4,"dewp":13.3,"wdir":260,"wspd":14,"visib":"10+","altim":1011.6,"slp":1011.3,"qcField":4,"precip":0.005,"metarType":"METAR","rawOb":"METAR KBUF 151854Z 26014KT 10SM FEW022 FEW110 FEW170 FEW220 SCT270 19/13 A2987 RMK AO2 RAE17 SLP113 P0000 T01940133","lat":42.94,"lon":-78.7361,"elev":217,"name":"Buffalo-Niagara Intl, NY, US","cover":"FEW","clouds":[{"cover":"FEW","base":2200},{"cover":"FEW","base":11000},{"cover":"FEW","base":17000},{"cover":"FEW","base":22000}],"fltCat":"VFR"},{"icaoId":"KAPC","receiptTime":"2026-04-15T18:58:20.558Z","obsTime":1776279240,"reportTime":"2026-04-15T19:00:00.000Z","temp":16.1,"dewp":8.9,"wdir":280,"wspd":10,"wgst":15,"visib":"10+","altim":1019.4,"slp":1018.4,"qcField":4,"metarType":"METAR","rawOb":"METAR KAPC 151854Z 28010G15KT 10SM CLR 16/09 A3010 RMK AO2 SLP184 T01610089","lat":38.2075,"lon":-122.2804,"elev":5,"name":"Napa Cnty Arpt, CA, US","cover":"CLR","clouds":[],"fltCat":"VFR"},{"icaoId":"KCOS","receiptTime":"2026-04-15T18:58:19.557Z","obsTime":1776279240,"reportTime":"2026-04-15T19:00:00.000Z","temp":15.6,"dewp":-10.6,"wdir":200,"wspd":7,"visib":"10+","altim":1014,"slp":1010.4,"qcField":4,"metarType":"METAR","rawOb":"METAR KCOS 151854Z 20007KT 10SM FEW085 16/M11 A2994 RMK AO2 SLP104 T01561106","lat":38.8095,"lon":-104.6887,"elev":1886,"name":"Colorado Spring Arpt, CO, US","cover":"FEW","clouds":[{"cover":"FEW","base":8500}],"fltCat":"VFR"},{"icaoId":"KFFZ","receiptTime":"2026-04-15T18:58:05.781Z","obsTime":1776279240,"reportTime":"2026-04-15T19:00:00.000Z","temp":25.6,"dewp":-1.7,"wdir":220,"wspd":5,"visib":"10+","altim":1015.7,"slp":1013.5,"qcField":4,"metarType":"METAR","rawOb":"METAR KFFZ 151854Z 22005KT 10SM CLR 26/M02 A2999 RMK AO2 SLP135 T02561017","lat":33.4659,"lon":-111.7212,"elev":420,"name":"Mesa/Falcon Fld, AZ, US","cover":"CLR","clouds":[],"fltCat":"VFR"},{"icaoId":"KBFL","receiptTime":"2026-04-15T18:58:10.852Z","obsTime":1776279240,"reportTime":"2026-04-15T19:00:00.000Z","temp":18.3,"dewp":7.8,"visib":"10+","altim":1018.4,"slp":1017.9,"qcField":4,"metarType":"METAR","rawOb":"METAR KBFL 151854Z 10SM CLR 18/08 A3007 RMK AO2 SLP179 T01830078","lat":35.4342,"lon":-119.0552,"elev":146,"name":"Bakersfield/Meadows Arpt, CA, US","cover":"CLR","clouds":[],"fltCat":"VFR"},{"icaoId":"KDSM","receiptTime":"2026-04-15T18:58:19.585Z","obsTime":1776279240,"reportTime":"2026-04-15T19:00:00.000Z","temp":24.4,"dewp":17.2,"wdir":210,"wspd":14,"wgst":22,"visib":"10+","altim":1004.8,"slp":1004,"qcField":4,"metarType":"METAR","rawOb":"METAR KDSM 151854Z 21014G22KT 10SM FEW023 SCT060 SCT250 24/17 A2967 RMK AO2 SLP040 CB DSNT N-NE MOV NE TCU DSNT E T02440172","lat":41.5339,"lon":-93.6531,"elev":286,"name":"Des Moines Intl, IA, US","cover":"SCT","clouds":[{"cover":"FEW","base":2300},{"cover":"SCT","base":6000},{"cover":"SCT","base":25000}],"fltCat":"VFR"},{"icaoId":"KSJN","receiptTime":"2026-04-15T18:58:20.443Z","obsTime":1776279240,"reportTime":"2026-04-15T19:00:00.000Z","temp":15,"dewp":-7.2,"wdir":320,"wspd":11,"wgst":15,"visib":"10+","altim":1020.1,"slp":1014.9,"qcField":6,"metarType":"METAR","rawOb":"METAR KSJN 151854Z AUTO 32011G15KT 10SM CLR 15/M07 A3012 RMK AO2 SLP149 T01501072","lat":34.5184,"lon":-109.3801,"elev":1747,"name":"St Johns Ind Arpt, AZ, US","cover":"CLR","clouds":[],"fltCat":"VFR"},{"icaoId":"KRIC","receiptTime":"2026-04-15T18:58:19.723Z","obsTime":1776279240,"reportTime":"2026-04-15T19:00:00.000Z","temp":32.8,"dewp":13.9,"wdir":190,"wspd":11,"wgst":17,"visib":"10+","altim":1015,"slp":1015.1,"qcField":4,"metarType":"METAR","rawOb":"METAR KRIC 151854Z 19011G17KT 10SM FEW150 BKN270 33/14 A2997 RMK AO2 SLP151 T03280139","lat":37.5115,"lon":-77.3234,"elev":51,"name":"Richmond Intl, VA, US","cover":"BKN","clouds":[{"cover":"FEW","base":15000},{"cover":"BKN","base":27000}],"fltCat":"VFR"},{"icaoId":"KGCN","receiptTime":"2026-04-15T18:58:05.886Z","obsTime":1776279240,"reportTime":"2026-04-15T19:00:00.000Z","temp":12.8,"dewp":-7.2,"wdir":"VRB","wspd":4,"visib":"10+","altim":1021.4,"slp":1018.3,"qcField":4,"metarType":"METAR","rawOb":"METAR KGCN 151854Z VRB04KT 10SM CLR 13/M07 A3016 RMK AO2 SLP183 T01281072","lat":35.9458,"lon":-112.1554,"elev":1993,"name":"Grand Canyon Park Arpt, AZ, US","cover":"CLR","clouds":[],"fltCat":"VFR"},{"icaoId":"KOLS","receiptTime":"2026-04-15T18:58:05.710Z","obsTime":1776279240,"reportTime":"2026-04-15T19:00:00.000Z","temp":21.7,"dewp":-10,"wdir":0,"wspd":0,"visib":"10+","altim":1018.4,"slp":1013.8,"qcField":6,"metarType":"METAR","rawOb":"METAR KOLS 151854Z AUTO 00000KT 10SM CLR 22/M10 A3007 RMK AO2 SLP138 T02171100","lat":31.4208,"lon":-110.8465,"elev":1194,"name":"Nogales Intl, AZ, US","cover":"CLR","clouds":[],"fltCat":"VFR"},{"icaoId":"KMEM","receiptTime":"2026-04-15T18:58:05.491Z","obsTime":1776279240,"reportTime":"2026-04-15T19:00:00.000Z","temp":27.8,"dewp":13.3,"wdir":190,"wspd":15,"wgst":24,"visib":"10+","altim":1016.3,"slp":1015.7,"qcField":4,"metarType":"METAR","rawOb":"METAR KMEM 151854Z 19015G24KT 10SM SCT050 BKN250 28/13 A3001 RMK AO2 PK WND 21027/1813 SLP157 T02780133","lat":35.0564,"lon":-89.9864,"elev":78,"name":"Memphis Intl, TN, US","cover":"BKN","clouds":[{"cover":"SCT","base":5000},{"cover":"BKN","base":25000}],"fltCat":"VFR"},{"icaoId":"KSYR","receiptTime":"2026-04-15T18:58:19.623Z","obsTime":1776279240,"reportTime":"2026-04-15T19:00:00.000Z","temp":24.4,"dewp":14.4,"wdir":320,"wspd":13,"visib":"10+","altim":1010.9,"slp":1010.4,"qcField":4,"metarType":"METAR","rawOb":"METAR KSYR 151854Z 32013KT 10SM FEW050 SCT100 BKN200 24/14 A2985 RMK AO2 WSHFT 1757 SLP104 T02440144","lat":43.1111,"lon":-76.1038,"elev":125,"name":"Syracuse/Hancock Intl, NY, US","cover":"BKN","clouds":[{"cover":"FEW","base":5000},{"cover":"SCT","base":10000},{"cover":"BKN","base":20000}],"fltCat":"VFR"},{"icaoId":"KRKS","receiptTime":"2026-04-15T18:58:20.301Z","obsTime":1776279240,"reportTime":"2026-04-15T19:00:00.000Z","temp":13.3,"dewp":-7.2,"wdir":240,"wspd":20,"wgst":28,"visib":"10+","altim":1014,"slp":1010.6,"qcField":6,"metarType":"METAR","rawOb":"METAR KRKS 151854Z AUTO 24020G28KT 10SM SCT090 13/M07 A2994 RMK AO2 PK WND 25032/1821 SLP106 T01331072","lat":41.5947,"lon":-109.0529,"elev":2062,"name":"Rock Springs/SW Wyoming Rgnl, WY, US","cover":"SCT","clouds":[{"cover":"SCT","base":9000}],"fltCat":"VFR"},{"icaoId":"KSLC","receiptTime":"2026-04-15T18:58:20.458Z","obsTime":1776279240,"reportTime":"2026-04-15T19:00:00.000Z","temp":18.3,"dewp":-2.2,"wdir":170,"wspd":17,"wgst":26,"visib":"10+","altim":1013,"slp":1010.2,"qcField":12,"metarType":"METAR","rawOb":"METAR KSLC 151854Z 17017G26KT 10SM FEW006 FEW090 BKN110 BKN250 18/M02 A2991 RMK AO2 PK WND 18028/1810 SLP102 FU FEW006 FU NW ACSL SE AND DSNT ALQDS T01831022 $","lat":40.7707,"lon":-111.965,"elev":1286,"name":"Salt Lake City Intl, UT, US","cover":"BKN","clouds":[{"cover":"FEW","base":600},{"cover":"FEW","base":9000},{"cover":"BKN","base":11000},{"cover":"BKN","base":25000}],"fltCat":"VFR"},{"icaoId":"KGSO","receiptTime":"2026-04-15T18:58:19.430Z","obsTime":1776279240,"reportTime":"2026-04-15T19:00:00.000Z","temp":30,"dewp":10,"wdir":150,"wspd":7,"visib":"10+","altim":1017.4,"slp":1016.1,"qcField":4,"metarType":"METAR","rawOb":"METAR KGSO 151854Z 15007KT 10SM BKN250 30/10 A3004 RMK AO2 SLP161 T03000100","lat":36.0969,"lon":-79.9432,"elev":275,"name":"Greensboro Intl, NC, US","cover":"BKN","clouds":[{"cover":"BKN","base":25000}],"fltCat":"VFR"},{"icaoId":"KPHL","receiptTime":"2026-04-15T18:58:20.111Z","obsTime":1776279240,"reportTime":"2026-04-15T19:00:00.000Z","temp":31.7,"dewp":16.1,"wdir":220,"wspd":13,"visib":"10+","altim":1011.9,"slp":1011.8,"qcField":12,"metarType":"METAR","rawOb":"METAR KPHL 151854Z 22013KT 10SM FEW055 FEW100 SCT210 BKN300 32/16 A2988 RMK AO2 SLP118 T03170161 $","lat":39.8733,"lon":-75.2268,"elev":2,"name":"Philadelphia Intl, PA, US","cover":"BKN","clouds":[{"cover":"FEW","base":5500},{"cover":"FEW","base":10000},{"cover":"SCT","base":21000},{"cover":"BKN","base":30000}],"fltCat":"VFR"},{"icaoId":"PANC","receiptTime":"2026-04-15T18:56:34.063Z","obsTime":1776279180,"reportTime":"2026-04-15T19:00:00.000Z","temp":1.7,"dewp":-4.4,"wdir":0,"wspd":0,"visib":"10+","altim":1010.6,"slp":1010.8,"qcField":4,"metarType":"METAR","rawOb":"METAR PANC 151853Z 00000KT 10SM OVC050 02/M04 A2984 RMK AO2 SLP108 T00171044","lat":61.1691,"lon":-150.0277,"elev":39,"name":"Anchorage Intl, AK, US","cover":"OVC","clouds":[{"cover":"OVC","base":5000}],"fltCat":"VFR"},{"icaoId":"KRDD","receiptTime":"2026-04-15T18:56:28.704Z","obsTime":1776279180,"reportTime":"2026-04-15T19:00:00.000Z","temp":13.9,"dewp":8.3,"wdir":110,"wspd":4,"visib":"10+","altim":1017.4,"slp":1017,"qcField":4,"metarType":"METAR","rawOb":"METAR KRDD 151853Z 11004KT 10SM SCT070 OVC085 14/08 A3004 RMK AO2 SLP170 T01390083","lat":40.5146,"lon":-122.2977,"elev":152,"name":"Redding Muni, CA, US","cover":"OVC","clouds":[{"cover":"SCT","base":7000},{"cover":"OVC","base":8500}],"fltCat":"VFR"},{"icaoId":"KMYR","receiptTime":"2026-04-15T18:56:17.131Z","obsTime":1776279180,"reportTime":"2026-04-15T19:00:00.000Z","temp":24.4,"dewp":18.3,"wdir":190,"wspd":14,"visib":"10+","altim":1020.1,"slp":1019.8,"qcField":12,"metarType":"METAR","rawOb":"METAR KMYR 151853Z 19014KT 10SM CLR 24/18 A3012 RMK AO2 SLP198 T02440183 $","lat":33.6769,"lon":-78.9325,"elev":7,"name":"Myrtle Beach Intl, SC, US","cover":"CLR","clouds":[],"fltCat":"VFR"},{"icaoId":"KHOU","receiptTime":"2026-04-15T18:56:27.972Z","obsTime":1776279180,"reportTime":"2026-04-15T19:00:00.000Z","temp":28.3,"dewp":19.4,"wdir":180,"wspd":16,"wgst":24,"visib":"10+","altim":1015.3,"slp":1015.6,"qcField":4,"metarType":"METAR","rawOb":"METAR KHOU 151853Z 18016G24KT 10SM SCT035 SCT250 28/19 A2998 RMK AO2 SLP156 T02830194","lat":29.6458,"lon":-95.2821,"elev":13,"name":"Houston/Hobby Arpt, TX, US","cover":"SCT","clouds":[{"cover":"SCT","base":3500},{"cover":"SCT","base":25000}],"fltCat":"VFR"},{"icaoId":"KDFW","receiptTime":"2026-04-15T18:56:35.983Z","obsTime":1776279180,"reportTime":"2026-04-15T19:00:00.000Z","temp":26.1,"dewp":18.9,"wdir":200,"wspd":15,"wgst":27,"visib":"10+","altim":1013,"slp":1012,"qcField":12,"metarType":"METAR","rawOb":"METAR KDFW 151853Z 20015G27KT 10SM SCT028 BKN045 OVC160 26/19 A2991 RMK AO2 PK WND 20027/1842 SLP120 T02610189 $","lat":32.8974,"lon":-97.022,"elev":168,"name":"Dallas-Ft Worth Intl, TX, US","cover":"OVC","clouds":[{"cover":"SCT","base":2800},{"cover":"BKN","base":4500},{"cover":"OVC","base":16000}],"fltCat":"VFR"},{"icaoId":"KBCE","receiptTime":"2026-04-15T18:56:35.303Z","obsTime":1776279180,"reportTime":"2026-04-15T19:00:00.000Z","temp":10,"dewp":-3.9,"wdir":110,"wspd":9,"visib":"10+","altim":1020.1,"slp":1015,"qcField":6,"metarType":"METAR","rawOb":"METAR KBCE 151853Z AUTO 11009KT 10SM SCT060 10/M04 A3012 RMK AO2 SLP150 T01001039","lat":37.7013,"lon":-112.149,"elev":2311,"name":"Bryce Canyon Arpt, UT, US","cover":"SCT","clouds":[{"cover":"SCT","base":6000}],"fltCat":"VFR"},{"icaoId":"KMFE","receiptTime":"2026-04-15T18:56:33.305Z","obsTime":1776279180,"reportTime":"2026-04-15T19:00:00.000Z","temp":31.1,"dewp":20,"wdir":150,"wspd":18,"wgst":27,"visib":"10+","altim":1012.6,"slp":1012.3,"qcField":4,"metarType":"METAR","rawOb":"METAR KMFE 151853Z 15018G27KT 10SM FEW040 SCT050 SCT060 31/20 A2990 RMK AO2 PK WND 14029/1817 SLP123 T03110200","lat":26.1791,"lon":-98.2445,"elev":29,"name":"McAllen/Miller Intl, TX, US","cover":"SCT","clouds":[{"cover":"FEW","base":4000},{"cover":"SCT","base":5000},{"cover":"SCT","base":6000}],"fltCat":"VFR"},{"icaoId":"KTUS","receiptTime":"2026-04-15T18:56:26.810Z","obsTime":1776279180,"reportTime":"2026-04-15T19:00:00.000Z","temp":23.9,"dewp":-11.1,"wdir":0,"wspd":0,"visib":"10+","altim":1017.7,"slp":1014.3,"qcField":12,"metarType":"METAR","rawOb":"METAR KTUS 151853Z 00000KT 10SM CLR 24/M11 A3005 RMK AO2 SLP143 T02391111 $","lat":32.1315,"lon":-110.9564,"elev":776,"name":"Tucson Intl Arpt, AZ, US","cover":"CLR","clouds":[],"fltCat":"VFR"},{"icaoId":"KGSP","receiptTime":"2026-04-15T18:56:30.744Z","obsTime":1776279180,"reportTime":"2026-04-15T19:00:00.000Z","temp":30.6,"dewp":7.8,"wdir":220,"wspd":12,"wgst":19,"visib":"10+","altim":1018.4,"slp":1017.1,"qcField":4,"metarType":"METAR","rawOb":"METAR KGSP 151853Z 22012G19KT 10SM CLR 31/08 A3007 RMK AO2 SLP171 T03060078","lat":34.8842,"lon":-82.2209,"elev":285,"name":"Greenville-Spartanburg Intl, SC, US","cover":"CLR","clouds":[],"fltCat":"VFR"},{"icaoId":"KBNA","receiptTime":"2026-04-15T18:56:35.685Z","obsTime":1776279180,"reportTime":"2026-04-15T19:00:00.000Z","temp":29.4,"dewp":10,"wdir":200,"wspd":16,"wgst":21,"visib":"10+","altim":1017.4,"slp":1016.5,"qcField":4,"metarType":"METAR","rawOb":"METAR KBNA 151853Z 20016G21KT 10SM FEW065 SCT200 BKN250 29/10 A3004 RMK AO2 SLP165 T02940100","lat":36.1105,"lon":-86.6881,"elev":168,"name":"Nashville Intl, TN, US","cover":"BKN","clouds":[{"cover":"FEW","base":6500},{"cover":"SCT","base":20000},{"cover":"BKN","base":25000}],"fltCat":"VFR"},{"icaoId":"KLAW","receiptTime":"2026-04-15T18:56:28.432Z","obsTime":1776279180,"reportTime":"2026-04-15T19:00:00.000Z","temp":26.1,"dewp":19.4,"wdir":220,"wspd":9,"wgst":22,"visib":"10+","altim":1010.6,"slp":1009.4,"qcField":4,"metarType":"METAR","rawOb":"METAR KLAW 151853Z 22009G22KT 10SM SCT030 BKN036 BKN120 26/19 A2984 RMK AO2 LTG DSNT E SLP094 T02610194","lat":34.5577,"lon":-98.4172,"elev":328,"name":"Lawton-Fort Sill Rgnl, OK, US","cover":"BKN","clouds":[{"cover":"SCT","base":3000},{"cover":"BKN","base":3600},{"cover":"BKN","base":12000}],"fltCat":"VFR"},{"icaoId":"KLOL","receiptTime":"2026-04-15T18:56:32.845Z","obsTime":1776279180,"reportTime":"2026-04-15T19:00:00.000Z","temp":16.1,"dewp":-7.8,"wdir":220,"wspd":12,"visib":"10+","altim":1015,"slp":1013,"qcField":6,"metarType":"METAR","rawOb":"METAR KLOL 151853Z AUTO 22012KT 10SM BKN100 16/M08 A2997 RMK AO2 SLP130 T01611078","lat":40.0684,"lon":-118.5702,"elev":1191,"name":"Lovelock/Derby Fld, NV, US","cover":"BKN","clouds":[{"cover":"BKN","base":10000}],"fltCat":"VFR"},{"icaoId":"KTUL","receiptTime":"2026-04-15T18:56:26.795Z","obsTime":1776279180,"reportTime":"2026-04-15T19:00:00.000Z","temp":25,"dewp":20,"wdir":180,"wspd":15,"wgst":23,"visib":"10+","altim":1009.9,"slp":1009.1,"qcField":4,"metarType":"METAR","rawOb":"METAR KTUL 151853Z 18015G23KT 10SM SCT023 BKN035TCU BKN050 25/20 A2982 RMK AO2 PK WND 17028/1833 SLP091 TCU W CB DSNT NW MOV NE T02500200","lat":36.1985,"lon":-95.8782,"elev":196,"name":"Tulsa Intl Arpt, OK, US","cover":"BKN","clouds":[{"cover":"SCT","base":2300},{"cover":"BKN","base":3500},{"cover":"BKN","base":5000}],"fltCat":"VFR"},{"icaoId":"KCNM","receiptTime":"2026-04-15T18:56:35.168Z","obsTime":1776279180,"reportTime":"2026-04-15T19:00:00.000Z","temp":24.4,"dewp":-3.9,"wdir":"VRB","wspd":3,"visib":"10+","altim":1015.3,"slp":1010.6,"qcField":6,"metarType":"METAR","rawOb":"METAR KCNM 151853Z AUTO VRB03KT 10SM CLR 24/M04 A2998 RMK AO2 SLP106 T02441039","lat":32.3336,"lon":-104.2584,"elev":993,"name":"Carlsbad/Cavern City Air Term, NM, US","cover":"CLR","clouds":[],"fltCat":"VFR"},{"icaoId":"KPGA","receiptTime":"2026-04-15T18:56:27.667Z","obsTime":1776279180,"reportTime":"2026-04-15T19:00:00.000Z","temp":17.8,"dewp":-2.2,"wdir":70,"wspd":5,"visib":"10+","altim":1018.4,"slp":1014.5,"qcField":14,"metarType":"METAR","rawOb":"METAR KPGA 151853Z AUTO 07005KT 10SM CLR 18/M02 A3007 RMK AO2 SLP145 T01781022 $","lat":36.9211,"lon":-111.4487,"elev":1310,"name":"Page Muni, AZ, US","cover":"CLR","clouds":[],"fltCat":"VFR"},{"icaoId":"KPIH","receiptTime":"2026-04-15T18:56:27.736Z","obsTime":1776279180,"reportTime":"2026-04-15T19:00:00.000Z","temp":12.2,"dewp":0,"wdir":260,"wspd":15,"visib":"10+","altim":1010.9,"slp":1010,"qcField":4,"metarType":"METAR","rawOb":"METAR KPIH 151853Z 26015KT 10SM OVC065 12/00 A2985 RMK AO2 SLP100 T01220000","lat":42.9197,"lon":-112.5723,"elev":1357,"name":"Pocatello Rgnl, ID, US","cover":"OVC","clouds":[{"cover":"OVC","base":6500}],"fltCat":"VFR"},{"icaoId":"KPNC","receiptTime":"2026-04-15T18:56:27.859Z","obsTime":1776279180,"reportTime":"2026-04-15T19:00:00.000Z","temp":26.7,"dewp":16.7,"wdir":220,"wspd":13,"wgst":19,"visib":"10+","altim":1008.5,"slp":1007.2,"qcField":6,"metarType":"METAR","rawOb":"METAR KPNC 151853Z AUTO 22013G19KT 10SM SCT040 27/17 A2978 RMK AO2 SLP072 T02670167","lat":36.7369,"lon":-97.1024,"elev":304,"name":"Ponca City Rgnl, OK, US","cover":"SCT","clouds":[{"cover":"SCT","base":4000}],"fltCat":"VFR"},{"icaoId":"KHLN","receiptTime":"2026-04-15T18:56:27.944Z","obsTime":1776279180,"reportTime":"2026-04-15T19:00:00.000Z","temp":11.1,"dewp":1.7,"wdir":20,"wspd":5,"visib":"10+","altim":1002.1,"slp":1003,"qcField":4,"metarType":"METAR","rawOb":"METAR KHLN 151853Z 02005KT 10SM OVC070 11/02 A2959 RMK AO2 SLP030 T01110017","lat":46.6045,"lon":-111.9892,"elev":1178,"name":"Helena Rgnl, MT, US","cover":"OVC","clouds":[{"cover":"OVC","base":7000}],"fltCat":"VFR"},{"icaoId":"KIAH","receiptTime":"2026-04-15T18:56:28.193Z","obsTime":1776279180,"reportTime":"2026-04-15T19:00:00.000Z","temp":27.8,"dewp":18.9,"wdir":160,"wspd":18,"wgst":26,"visib":"10+","altim":1015,"slp":1015,"qcField":4,"metarType":"METAR","rawOb":"METAR KIAH 151853Z 16018G26KT 10SM SCT040 BKN250 28/19 A2997 RMK AO2 PK WND 16027/1807 SLP150 T02780189","lat":29.9844,"lon":-95.3607,"elev":27,"name":"Houston/Bush Intl, TX, US","cover":"BKN","clouds":[{"cover":"SCT","base":4000},{"cover":"BKN","base":25000}],"fltCat":"VFR"},{"icaoId":"KPRC","receiptTime":"2026-04-15T18:56:28.517Z","obsTime":1776279180,"reportTime":"2026-04-15T19:00:00.000Z","temp":17.2,"dewp":-5,"wdir":"VRB","wspd":6,"wgst":15,"visib":"10+","altim":1019.7,"slp":1014.8,"qcField":4,"metarType":"METAR","rawOb":"METAR KPRC 151853Z VRB06G15KT 10SM CLR 17/M05 A3011 RMK AO2 SLP148 T01721050","lat":34.6491,"lon":-112.4223,"elev":1528,"name":"Prescott/Love Fld, AZ, US","cover":"CLR","clouds":[],"fltCat":"VFR"},{"icaoId":"KPSC","receiptTime":"2026-04-15T18:56:28.531Z","obsTime":1776279180,"reportTime":"2026-04-15T19:00:00.000Z","temp":12.8,"dewp":1.7,"wdir":240,"wspd":15,"visib":"10+","altim":1006.2,"slp":1006.1,"qcField":4,"metarType":"METAR","rawOb":"METAR KPSC 151853Z 24015KT 10SM FEW048 13/02 A2971 RMK AO2 SLP061 T01280017","lat":46.2695,"lon":-119.1182,"elev":121,"name":"Pasco/Tri Cities Arpt, WA, US","cover":"FEW","clouds":[{"cover":"FEW","base":4800}],"fltCat":"VFR"},{"icaoId":"KPUB","receiptTime":"2026-04-15T18:56:28.579Z","obsTime":1776279180,"reportTime":"2026-04-15T19:00:00.000Z","temp":19.4,"dewp":-11.1,"wdir":210,"wspd":8,"wgst":21,"visib":"10+","altim":1011.9,"slp":1007.9,"qcField":12,"metarType":"METAR","rawOb":"METAR KPUB 151853Z 21008G21KT 10SM CLR 19/M11 A2988 RMK AO2 SLP079 T01941111 $","lat":38.2887,"lon":-104.5057,"elev":1441,"name":"Pueblo Mem Arpt, CO, US","cover":"CLR","clouds":[],"fltCat":"VFR"},{"icaoId":"KRIW","receiptTime":"2026-04-15T18:56:28.750Z","obsTime":1776279180,"reportTime":"2026-04-15T19:00:00.000Z","temp":13.3,"dewp":-6.7,"visib":"10+","altim":1009.2,"slp":1006.1,"qcField":6,"metarType":"METAR","rawOb":"METAR KRIW 151853Z AUTO 10SM CLR 13/M07 A2980 RMK AO2 SLP061 T01331067","lat":43.0622,"lon":-108.4471,"elev":1662,"name":"Riverton Rgnl, WY, US","cover":"CLR","clouds":[],"fltCat":"VFR"},{"icaoId":"KRTN","receiptTime":"2026-04-15T18:56:28.854Z","obsTime":1776279180,"reportTime":"2026-04-15T19:00:00.000Z","temp":16.1,"dewp":-9.4,"wdir":180,"wspd":9,"wgst":14,"visib":"10+","altim":1014.6,"slp":1009.1,"qcField":14,"metarType":"METAR","rawOb":"METAR KRTN 151853Z AUTO 18009G14KT 10SM 16/M09 A2996 RMK AO2 SLP091 T01611094 $","lat":36.7418,"lon":-104.5076,"elev":1939,"name":"Raton/Crews Fld, NM, US"},{"icaoId":"KSAF","receiptTime":"2026-04-15T18:56:28.966Z","obsTime":1776279180,"reportTime":"2026-04-15T19:00:00.000Z","temp":14.4,"dewp":-5,"wdir":20,"wspd":7,"visib":"10+","altim":1018.4,"slp":1012.8,"qcField":4,"metarType":"METAR","rawOb":"METAR KSAF 151853Z 02007KT 10SM CLR 14/M05 A3007 RMK AO2 SLP128 T01441050","lat":35.611,"lon":-106.0957,"elev":1918,"name":"Santa Fe Cnty Muni, NM, US","cover":"CLR","clouds":[],"fltCat":"VFR"},{"icaoId":"KSBA","receiptTime":"2026-04-15T18:56:29.000Z","obsTime":1776279180,"reportTime":"2026-04-15T19:00:00.000Z","temp":17.8,"dewp":11.7,"wdir":230,"wspd":6,"visib":"10+","altim":1017.7,"slp":1017.6,"qcField":12,"metarType":"METAR","rawOb":"METAR KSBA 151853Z 23006KT 10SM CLR 18/12 A3005 RMK AO2 SLP176 T01780117 $","lat":34.4241,"lon":-119.8425,"elev":2,"name":"Santa Barbara Muni, CA, US","cover":"CLR","clouds":[],"fltCat":"VFR"},{"icaoId":"KSDL","receiptTime":"2026-04-15T18:56:29.033Z","obsTime":1776279180,"reportTime":"2026-04-15T19:00:00.000Z","temp":25.6,"dewp":-1.1,"wdir":180,"wspd":7,"visib":"10+","altim":1016,"slp":1014.1,"qcField":4,"metarType":"METAR","rawOb":"METAR KSDL 151853Z 18007KT 140V210 10SM CLR 26/M01 A3000 RMK AO2 SLP141 T02561011","lat":33.6123,"lon":-111.9232,"elev":438,"name":"Scottsdale Muni, AZ, US","cover":"CLR","clouds":[],"fltCat":"VFR"},{"icaoId":"KEVW","receiptTime":"2026-04-15T18:56:29.128Z","obsTime":1776279180,"reportTime":"2026-04-15T19:00:00.000Z","temp":10.6,"dewp":-7.2,"wdir":230,"wspd":22,"wgst":35,"visib":"10+","altim":1014.3,"slp":1011.3,"qcField":14,"metarType":"METAR","rawOb":"METAR KEVW 151853Z AUTO 23022G35KT 10SM FEW065 11/M07 A2995 RMK AO2 PK WND 23035/1850 SLP113 T01061072 $","lat":41.2727,"lon":-111.0305,"elev":2178,"name":"Evanston/Uinta Cnty, WY, US","cover":"FEW","clouds":[{"cover":"FEW","base":6500}],"fltCat":"VFR"},{"icaoId":"KHIO","receiptTime":"2026-04-15T18:56:29.790Z","obsTime":1776279180,"reportTime":"2026-04-15T19:00:00.000Z","temp":6.7,"dewp":3.3,"wdir":260,"wspd":8,"wgst":20,"visib":5,"altim":1013.6,"slp":1013.7,"qcField":4,"wxString":"+RA","precip":0.04,"metarType":"METAR","rawOb":"METAR KHIO 151853Z 26008G20KT 5SM R13R/4500VP6000FT +RA BKN024 BKN040 BKN070 07/03 A2993 RMK AO2 RAB46 SLP137 P0004 T00670033","lat":45.5476,"lon":-122.9557,"elev":62,"name":"Portland/Hillsboro Arpt, OR, US","cover":"BKN","clouds":[{"cover":"BKN","base":2400},{"cover":"BKN","base":4000},{"cover":"BKN","base":7000}],"fltCat":"MVFR"},{"icaoId":"KGJT","receiptTime":"2026-04-15T18:56:30.480Z","obsTime":1776279180,"reportTime":"2026-04-15T19:00:00.000Z","temp":12.8,"dewp":2.8,"wdir":0,"wspd":0,"visib":"10+","altim":1018,"slp":1015.1,"qcField":4,"metarType":"METAR","rawOb":"METAR KGJT 151853Z 00000KT 10SM FEW040 13/03 A3006 RMK AO2 SLP151 T01280028","lat":39.1344,"lon":-108.5408,"elev":1475,"name":"Grand Junction Rgnl, CO, US","cover":"FEW","clouds":[{"cover":"FEW","base":4000}],"fltCat":"VFR"},{"icaoId":"KASE","receiptTime":"2026-04-15T18:56:31.392Z","obsTime":1776279180,"reportTime":"2026-04-15T19:00:00.000Z","temp":7.8,"dewp":-5,"wdir":350,"wspd":13,"wgst":22,"visib":"10+","altim":1018.4,"slp":1013.4,"qcField":4,"metarType":"METAR","rawOb":"METAR KASE 151853Z 35013G22KT 10SM FEW048 BKN065 BKN075 08/M05 A3007 RMK AO2 SLP134 T00781050","lat":39.2299,"lon":-106.8705,"elev":2384,"name":"Aspen/Pitkin Cnty, CO, US","cover":"BKN","clouds":[{"cover":"FEW","base":4800},{"cover":"BKN","base":6500},{"cover":"BKN","base":7500}],"fltCat":"VFR"},{"icaoId":"KDRO","receiptTime":"2026-04-15T18:56:31.513Z","obsTime":1776279180,"reportTime":"2026-04-15T19:00:00.000Z","temp":12.2,"dewp":-5,"wdir":260,"wspd":10,"visib":"10+","altim":1019.4,"slp":1017.1,"qcField":6,"metarType":"METAR","rawOb":"METAR KDRO 151853Z AUTO 26010KT 10SM BKN070 12/M05 A3010 RMK AO2 SLP171 T01221050","lat":37.1431,"lon":-107.7602,"elev":2021,"name":"Durango/La Plata Cnty, CO, US","cover":"BKN","clouds":[{"cover":"BKN","base":7000}],"fltCat":"VFR"},{"icaoId":"KSHR","receiptTime":"2026-04-15T18:56:31.953Z","obsTime":1776279180,"reportTime":"2026-04-15T19:00:00.000Z","temp":16.7,"dewp":-1.7,"wdir":360,"wspd":4,"visib":"10+","altim":1005.5,"slp":1004.5,"qcField":6,"metarType":"METAR","rawOb":"METAR KSHR 151853Z AUTO 36004KT 10SM CLR 17/M02 A2969 RMK AO2 SLP045 T01671017","lat":44.7603,"lon":-106.9741,"elev":1212,"name":"Sheridan Cnty Arpt, WY, US","cover":"CLR","clouds":[],"fltCat":"VFR"},{"icaoId":"KSJC","receiptTime":"2026-04-15T18:56:31.990Z","obsTime":1776279180,"reportTime":"2026-04-15T19:00:00.000Z","temp":16.1,"dewp":8.3,"wdir":0,"wspd":0,"visib":"10+","altim":1020.1,"slp":1019.8,"qcField":12,"metarType":"METAR","rawOb":"METAR KSJC 151853Z 00000KT 10SM FEW035 SCT065 BKN100 16/08 A3012 RMK AO2 SLP198 T01610083 $","lat":37.3594,"lon":-121.9244,"elev":13,"name":"San Jose Intl Arpt, CA, US","cover":"BKN","clouds":[{"cover":"FEW","base":3500},{"cover":"SCT","base":6500},{"cover":"BKN","base":10000}],"fltCat":"VFR"},{"icaoId":"KSNA","receiptTime":"2026-04-15T18:56:32.054Z","obsTime":1776279180,"reportTime":"2026-04-15T19:00:00.000Z","temp":20,"dewp":12.2,"wdir":200,"wspd":8,"visib":"10+","altim":1017.4,"slp":1017.2,"qcField":12,"metarType":"METAR","rawOb":"METAR KSNA 151853Z 20008KT 10SM FEW018 FEW200 20/12 A3004 RMK AO2 SLP172 T02000122 $","lat":33.6798,"lon":-117.8675,"elev":14,"name":"Santa Ana/Wayne Arpt, CA, US","cover":"FEW","clouds":[{"cover":"FEW","base":1800},{"cover":"FEW","base":20000}],"fltCat":"VFR"},{"icaoId":"KSTS","receiptTime":"2026-04-15T18:56:32.226Z","obsTime":1776279180,"reportTime":"2026-04-15T19:00:00.000Z","temp":14.4,"dewp":6.7,"wdir":220,"wspd":4,"visib":"10+","altim":1019.7,"slp":1018.9,"qcField":4,"metarType":"METAR","rawOb":"METAR KSTS 151853Z 22004KT 10SM FEW015 14/07 A3011 RMK AO2 SLP189 T01440067","lat":38.5037,"lon":-122.811,"elev":35,"name":"Santa Rosa/Schulz Arpt, CA, US","cover":"FEW","clouds":[{"cover":"FEW","base":1500}],"fltCat":"VFR"},{"icaoId":"KTPA","receiptTime":"2026-04-15T18:56:32.454Z","obsTime":1776279180,"reportTime":"2026-04-15T19:00:00.000Z","temp":27.2,"dewp":13.9,"wdir":230,"wspd":10,"visib":"10+","altim":1020.4,"slp":1020.2,"qcField":4,"metarType":"METAR","rawOb":"METAR KTPA 151853Z 23010KT 10SM CLR 27/14 A3013 RMK AO2 SLP202 T02720139","lat":27.9633,"lon":-82.54,"elev":2,"name":"Tampa Intl Arpt, FL, US","cover":"CLR","clouds":[],"fltCat":"VFR"},{"icaoId":"KLGB","receiptTime":"2026-04-15T18:56:32.726Z","obsTime":1776279180,"reportTime":"2026-04-15T19:00:00.000Z","temp":20.6,"dewp":11.7,"wdir":180,"wspd":9,"visib":"10+","altim":1017.4,"slp":1017.2,"qcField":4,"metarType":"METAR","rawOb":"METAR KLGB 151853Z 18009KT 10SM CLR 21/12 A3004 RMK AO2 SLP172 T02060117","lat":33.8118,"lon":-118.1472,"elev":10,"name":"Long Beach Arpt, CA, US","cover":"CLR","clouds":[],"fltCat":"VFR"},{"icaoId":"KLVS","receiptTime":"2026-04-15T18:56:33.009Z","obsTime":1776279180,"reportTime":"2026-04-15T19:00:00.000Z","temp":14.4,"dewp":-8.9,"wdir":170,"wspd":7,"visib":"10+","altim":1016.7,"slp":1010.1,"qcField":14,"metarType":"METAR","rawOb":"METAR KLVS 151853Z AUTO 17007KT 100V210 10SM CLR 14/M09 A3002 RMK AO2 SLP101 T01441089 PNO $","lat":35.6558,"lon":-105.1385,"elev":2095,"name":"Las Vegas Muni, NM, US","cover":"CLR","clouds":[],"fltCat":"VFR"},{"icaoId":"KMAF","receiptTime":"2026-04-15T18:56:33.110Z","obsTime":1776279180,"reportTime":"2026-04-15T19:00:00.000Z","temp":27.2,"dewp":0,"wdir":220,"wspd":8,"visib":"10+","altim":1014.3,"slp":1009.8,"qcField":4,"metarType":"METAR","rawOb":"METAR KMAF 151853Z 22008KT 180V250 10SM CLR 27/00 A2995 RMK AO2 SLP098 T02720000","lat":31.9475,"lon":-102.2086,"elev":874,"name":"Midland Intl, TX, US","cover":"CLR","clouds":[],"fltCat":"VFR"},{"icaoId":"KMCI","receiptTime":"2026-04-15T18:56:33.190Z","obsTime":1776279180,"reportTime":"2026-04-15T19:00:00.000Z","temp":26.7,"dewp":17.8,"wdir":200,"wspd":17,"wgst":27,"visib":"10+","altim":1006.2,"slp":1004.8,"qcField":4,"metarType":"METAR","rawOb":"METAR KMCI 151853Z 20017G27KT 10SM BKN039 BKN250 27/18 A2971 RMK AO2 PK WND 20028/1829 SLP048 T02670178","lat":39.2975,"lon":-94.7309,"elev":308,"name":"Kansas City Intl, MO, US","cover":"BKN","clouds":[{"cover":"BKN","base":3900},{"cover":"BKN","base":25000}],"fltCat":"VFR"},{"icaoId":"KMCO","receiptTime":"2026-04-15T18:56:33.253Z","obsTime":1776279180,"reportTime":"2026-04-15T19:00:00.000Z","temp":28.3,"dewp":13.9,"wdir":130,"wspd":10,"visib":"10+","altim":1021.1,"slp":1020.9,"qcField":4,"metarType":"METAR","rawOb":"METAR KMCO 151853Z 13010KT 10SM FEW040 28/14 A3015 RMK AO2 SLP209 T02830139","lat":28.4182,"lon":-81.3241,"elev":27,"name":"Orlando Intl, FL, US","cover":"FEW","clouds":[{"cover":"FEW","base":4000}],"fltCat":"VFR"},{"icaoId":"KMDW","receiptTime":"2026-04-15T18:56:33.286Z","obsTime":1776279180,"reportTime":"2026-04-15T19:00:00.000Z","temp":20,"dewp":16.1,"wdir":230,"wspd":14,"visib":"10+","altim":1009.9,"slp":1009.1,"qcField":4,"metarType":"METAR","rawOb":"METAR KMDW 151853Z 23014KT 10SM FEW050 FEW075 BKN110 OVC160 20/16 A2982 RMK AO2 SLP091 T02000161","lat":41.7841,"lon":-87.7552,"elev":186,"name":"Chicago/Midway Intl, IL, US","cover":"OVC","clouds":[{"cover":"FEW","base":5000},{"cover":"FEW","base":7500},{"cover":"BKN","base":11000},{"cover":"OVC","base":16000}],"fltCat":"VFR"},{"icaoId":"KMOD","receiptTime":"2026-04-15T18:56:33.646Z","obsTime":1776279180,"reportTime":"2026-04-15T19:00:00.000Z","temp":18.3,"dewp":7.2,"wdir":340,"wspd":7,"visib":"10+","altim":1018.7,"slp":1018.7,"qcField":4,"metarType":"METAR","rawOb":"METAR KMOD 151853Z 34007KT 10SM CLR 18/07 A3008 RMK AO2 SLP187 T01830072","lat":37.6254,"lon":-120.9549,"elev":25,"name":"Modesto/Sham Fld, CA, US","cover":"CLR","clouds":[],"fltCat":"VFR"},{"icaoId":"KMSO","receiptTime":"2026-04-15T18:56:33.727Z","obsTime":1776279180,"reportTime":"2026-04-15T19:00:00.000Z","temp":9.4,"dewp":2.8,"wdir":180,"wspd":4,"visib":"10+","altim":1003.1,"slp":1003.5,"qcField":4,"precip":0.005,"metarType":"METAR","rawOb":"METAR KMSO 151853Z 18004KT 10SM BKN045 OVC055 09/03 A2962 RMK AO2 RAE37 SLP035 P0000 T00940028","lat":46.9208,"lon":-114.0938,"elev":974,"name":"Missoula Intl, MT, US","cover":"OVC","clouds":[{"cover":"BKN","base":4500},{"cover":"OVC","base":5500}],"fltCat":"VFR"},{"icaoId":"KMSP","receiptTime":"2026-04-15T18:56:33.742Z","obsTime":1776279180,"reportTime":"2026-04-15T19:00:00.000Z","temp":17.8,"dewp":6.1,"wdir":"VRB","wspd":3,"visib":"10+","altim":1007.5,"slp":1007.6,"qcField":4,"metarType":"METAR","rawOb":"METAR KMSP 151853Z VRB03KT 10SM SCT120 BKN250 18/06 A2975 RMK AO2 SLP076 T01780061","lat":44.8852,"lon":-93.2313,"elev":255,"name":"Minneapolis-St Paul Intl, MN, US","cover":"BKN","clouds":[{"cover":"SCT","base":12000},{"cover":"BKN","base":25000}],"fltCat":"VFR"},{"icaoId":"KMSY","receiptTime":"2026-04-15T18:56:33.778Z","obsTime":1776279180,"reportTime":"2026-04-15T19:00:00.000Z","temp":27.8,"dewp":15,"wdir":170,"wspd":13,"visib":"10+","altim":1019,"slp":1019.3,"qcField":4,"metarType":"METAR","rawOb":"METAR KMSY 151853Z 17013KT 10SM FEW035 SCT075 BKN250 28/15 A3009 RMK AO2 SLP193 T02780150","lat":29.9974,"lon":-90.2777,"elev":0,"name":"New Orleans/Armstrong Intl, LA, US","cover":"BKN","clouds":[{"cover":"FEW","base":3500},{"cover":"SCT","base":7500},{"cover":"BKN","base":25000}],"fltCat":"VFR"},{"icaoId":"KMTJ","receiptTime":"2026-04-15T18:56:33.813Z","obsTime":1776279180,"reportTime":"2026-04-15T19:00:00.000Z","temp":13.9,"dewp":-4.4,"wdir":310,"wspd":7,"visib":"10+","altim":1019,"slp":1015.3,"qcField":6,"metarType":"METAR","rawOb":"METAR KMTJ 151853Z AUTO 31007KT 10SM FEW060 FEW080 14/M04 A3009 RMK AO2 SLP153 T01391044","lat":38.5054,"lon":-107.8981,"elev":1755,"name":"Montrose Rgnl, CO, US","cover":"FEW","clouds":[{"cover":"FEW","base":6000},{"cover":"FEW","base":8000}],"fltCat":"VFR"},{"icaoId":"KMYF","receiptTime":"2026-04-15T18:56:33.897Z","obsTime":1776279180,"reportTime":"2026-04-15T19:00:00.000Z","temp":20.6,"dewp":12.2,"wdir":280,"wspd":5,"visib":"10+","altim":1017.7,"slp":1017.1,"qcField":4,"metarType":"METAR","rawOb":"METAR KMYF 151853Z 28005KT 10SM CLR 21/12 A3005 RMK AO2 SLP171 T02060122","lat":32.8145,"lon":-117.1375,"elev":128,"name":"San Diego/Montgomery Arpt, CA, US","cover":"CLR","clouds":[],"fltCat":"VFR"},{"icaoId":"KOAK","receiptTime":"2026-04-15T18:56:33.951Z","obsTime":1776279180,"reportTime":"2026-04-15T19:00:00.000Z","temp":15.6,"dewp":8.3,"wdir":220,"wspd":11,"visib":"10+","altim":1020.4,"slp":1020.4,"qcField":12,"metarType":"METAR","rawOb":"METAR KOAK 151853Z 22011KT 10SM FEW025 SCT180 BKN250 16/08 A3013 RMK AO2 SLP204 T01560083 $","lat":37.7178,"lon":-122.233,"elev":3,"name":"Oakland Intl, CA, US","cover":"BKN","clouds":[{"cover":"FEW","base":2500},{"cover":"SCT","base":18000},{"cover":"BKN","base":25000}],"fltCat":"VFR"},{"icaoId":"KCRQ","receiptTime":"2026-04-15T18:56:34.584Z","obsTime":1776279180,"reportTime":"2026-04-15T19:00:00.000Z","temp":19.4,"dewp":12.2,"wdir":250,"wspd":7,"visib":"10+","altim":1017,"slp":1016.9,"qcField":4,"metarType":"METAR","rawOb":"METAR KCRQ 151853Z 25007KT 10SM CLR 19/12 A3003 RMK AO2 SLP169 T01940122","lat":33.1299,"lon":-117.2765,"elev":96,"name":"Carlsbad/Palomar Arpt, CA, US","cover":"CLR","clouds":[],"fltCat":"VFR"},{"icaoId":"KCLL","receiptTime":"2026-04-15T18:56:35.096Z","obsTime":1776279180,"reportTime":"2026-04-15T19:00:00.000Z","temp":27.8,"dewp":18.9,"wdir":180,"wspd":13,"visib":"10+","altim":1014.6,"slp":1013.9,"qcField":4,"metarType":"METAR","rawOb":"METAR KCLL 151853Z 18013KT 10SM SCT039 BKN050 BKN060 28/19 A2996 RMK AO2 SLP139 T02780189","lat":30.5912,"lon":-96.3631,"elev":96,"name":"College Station/Easterwood Arpt, TX, US","cover":"BKN","clouds":[{"cover":"SCT","base":3900},{"cover":"BKN","base":5000},{"cover":"BKN","base":6000}],"fltCat":"VFR"},{"icaoId":"KBFI","receiptTime":"2026-04-15T18:56:35.422Z","obsTime":1776279180,"reportTime":"2026-04-15T19:00:00.000Z","temp":5.6,"dewp":2.8,"wdir":"VRB","wspd":4,"visib":9,"altim":1011.6,"slp":1011.4,"qcField":4,"wxString":"-RA","precip":0.01,"metarType":"METAR","rawOb":"METAR KBFI 151853Z VRB04KT 9SM -RA SCT014 BKN038 OVC070 06/03 A2987 RMK AO2 RAB18 SLP114 P0001 T00560028","lat":47.5455,"lon":-122.3148,"elev":7,"name":"Seattle/Boeing Fld, WA, US","cover":"OVC","clouds":[{"cover":"SCT","base":1400},{"cover":"BKN","base":3800},{"cover":"OVC","base":7000}],"fltCat":"VFR"},{"icaoId":"KBLI","receiptTime":"2026-04-15T18:56:35.636Z","obsTime":1776279180,"reportTime":"2026-04-15T19:00:00.000Z","temp":7.8,"dewp":0,"wdir":180,"wspd":10,"visib":"10+","altim":1009.9,"slp":1010.4,"qcField":4,"metarType":"METAR","rawOb":"METAR KBLI 151853Z 18010KT 10SM CLR 08/00 A2982 RMK AO2 SLP104 T00780000","lat":48.7991,"lon":-122.5407,"elev":46,"name":"Bellingham Intl, WA, US","cover":"CLR","clouds":[],"fltCat":"VFR"},{"icaoId":"KBOI","receiptTime":"2026-04-15T18:56:35.719Z","obsTime":1776279180,"reportTime":"2026-04-15T19:00:00.000Z","temp":8.9,"dewp":5.6,"wdir":110,"wspd":15,"visib":"10+","altim":1010.6,"slp":1009.9,"qcField":4,"wxString":"-RA","precip":0.005,"metarType":"METAR","rawOb":"METAR KBOI 151853Z 11015KT 10SM -RA SCT039 OVC055 09/06 A2984 RMK AO2 RAE01B23 SLP099 P0000 T00890056","lat":43.567,"lon":-116.2406,"elev":860,"name":"Boise Arpt, ID, US","cover":"OVC","clouds":[{"cover":"SCT","base":3900},{"cover":"OVC","base":5500}],"fltCat":"VFR"},{"icaoId":"KDAL","receiptTime":"2026-04-15T18:56:35.833Z","obsTime":1776279180,"reportTime":"2026-04-15T19:00:00.000Z","temp":25.6,"dewp":18.3,"wdir":180,"wspd":11,"wgst":25,"visib":"10+","altim":1013.3,"slp":1012.7,"qcField":4,"metarType":"METAR","rawOb":"METAR KDAL 151853Z 18011G25KT 10SM SCT028 BKN032 BKN040 BKN170 OVC220 26/18 A2992 RMK AO2 SLP127 T02560183","lat":32.8384,"lon":-96.8358,"elev":148,"name":"Dallas/Love Fld, TX, US","cover":"BKN","clouds":[{"cover":"SCT","base":2800},{"cover":"BKN","base":3200},{"cover":"BKN","base":4000},{"cover":"BKN","base":17000}],"fltCat":"VFR"},{"icaoId":"KBUR","receiptTime":"2026-04-15T18:56:36.241Z","obsTime":1776279180,"reportTime":"2026-04-15T19:00:00.000Z","temp":21.1,"dewp":7.8,"wdir":220,"wspd":5,"visib":"10+","altim":1017.4,"slp":1016.2,"qcField":4,"metarType":"METAR","rawOb":"METAR KBUR 151853Z 22005KT 10SM CLR 21/08 A3004 RMK AO2 SLP162 T02110078","lat":34.1996,"lon":-118.3654,"elev":221,"name":"Burbank/Bob Hope Arpt, CA, US","cover":"CLR","clouds":[],"fltCat":"VFR"},{"icaoId":"KSMF","receiptTime":"2026-04-15T18:56:32.021Z","obsTime":1776279180,"reportTime":"2026-04-15T19:00:00.000Z","temp":17.8,"dewp":7.8,"wdir":160,"wspd":11,"visib":"10+","altim":1018.4,"slp":1018.1,"qcField":4,"metarType":"METAR","rawOb":"METAR KSMF 151853Z 16011KT 10SM BKN170 18/08 A3007 RMK AO2 SLP181 T01780078","lat":38.7007,"lon":-121.5948,"elev":7,"name":"Sacramento Intl, CA, US","cover":"BKN","clouds":[{"cover":"BKN","base":17000}],"fltCat":"VFR"},{"icaoId":"KFAT","receiptTime":"2026-04-15T18:56:29.216Z","obsTime":1776279180,"reportTime":"2026-04-15T19:00:00.000Z","temp":20,"dewp":8.3,"wdir":280,"wspd":4,"visib":"10+","altim":1018.7,"slp":1018.2,"qcField":12,"metarType":"METAR","rawOb":"METAR KFAT 151853Z 28004KT 10SM FEW050 BKN250 20/08 A3008 RMK AO2 SLP182 T02000083 $","lat":36.78,"lon":-119.7202,"elev":102,"name":"Fresno/Yosemite Intl, CA, US","cover":"BKN","clouds":[{"cover":"FEW","base":5000},{"cover":"BKN","base":25000}],"fltCat":"VFR"},{"icaoId":"KDLN","receiptTime":"2026-04-15T18:56:36.074Z","obsTime":1776279180,"reportTime":"2026-04-15T19:00:00.000Z","temp":11.1,"dewp":-2.2,"wdir":200,"wspd":14,"wgst":23,"visib":"10+","altim":1004.1,"slp":1001.3,"qcField":6,"precip":0.005,"metarType":"METAR","rawOb":"METAR KDLN 151853Z AUTO 20014G23KT 10SM SCT055 SCT065 OVC090 11/M02 A2965 RMK AO2 PK WND 19030/1816 RAB20E30 SLP013 P0000 T01111022","lat":45.2584,"lon":-112.5546,"elev":1586,"name":"Dillon Arpt, MT, US","cover":"OVC","clouds":[{"cover":"SCT","base":5500},{"cover":"SCT","base":6500},{"cover":"OVC","base":9000}],"fltCat":"VFR"},{"icaoId":"KAMA","receiptTime":"2026-04-15T18:56:31.213Z","obsTime":1776279180,"reportTime":"2026-04-15T19:00:00.000Z","temp":23.3,"dewp":-10,"wdir":270,"wspd":14,"wgst":32,"visib":"10+","altim":1013.6,"slp":1009.1,"qcField":4,"metarType":"METAR","rawOb":"METAR KAMA 151853Z 27014G32KT 10SM CLR 23/M10 A2993 RMK AO2 PK WND 25032/1846 SLP091 T02331100","lat":35.2203,"lon":-101.7173,"elev":1102,"name":"Amarillo Intl Arpt, TX, US","cover":"CLR","clouds":[],"fltCat":"VFR"},{"icaoId":"KDEN","receiptTime":"2026-04-15T18:56:35.905Z","obsTime":1776279180,"reportTime":"2026-04-15T19:00:00.000Z","temp":17.2,"dewp":-10.6,"wdir":260,"wspd":8,"visib":"10+","altim":1011.6,"slp":1007.9,"qcField":4,"metarType":"METAR","rawOb":"METAR KDEN 151853Z 26008KT 150V070 10SM FEW090 FEW140 FEW220 17/M11 A2987 RMK AO2 SLP079 T01721106","lat":39.8466,"lon":-104.6562,"elev":1656,"name":"Denver Intl, CO, US","cover":"FEW","clouds":[{"cover":"FEW","base":9000},{"cover":"FEW","base":14000},{"cover":"FEW","base":22000}],"fltCat":"VFR"},{"icaoId":"KBIL","receiptTime":"2026-04-15T18:56:35.532Z","obsTime":1776279180,"reportTime":"2026-04-15T19:00:00.000Z","temp":17.8,"dewp":-2.8,"wdir":230,"wspd":9,"wgst":14,"visib":"10+","altim":1003.8,"slp":1002.1,"qcField":4,"metarType":"METAR","rawOb":"METAR KBIL 151853Z 23009G14KT 10SM FEW060 FEW095 BKN240 18/M03 A2964 RMK AO2 SLP021 ACSL DSNT ALQDS T01781028","lat":45.8072,"lon":-108.5462,"elev":1089,"name":"Billings/Logan Intl, MT, US","cover":"BKN","clouds":[{"cover":"FEW","base":6000},{"cover":"FEW","base":9500},{"cover":"BKN","base":24000}],"fltCat":"VFR"},{"icaoId":"KCPR","receiptTime":"2026-04-15T18:56:34.530Z","obsTime":1776279180,"reportTime":"2026-04-15T19:00:00.000Z","temp":17.2,"dewp":-6.7,"wdir":240,"wspd":18,"wgst":28,"visib":"10+","altim":1008.9,"slp":1004.8,"qcField":4,"precip":0.005,"metarType":"METAR","rawOb":"METAR KCPR 151853Z 24018G28KT 210V270 10SM CLR 17/M07 A2979 RMK AO2 PK WND 25038/1842 RAB15E48 SLP048 P0000 T01721067","lat":42.8978,"lon":-106.4736,"elev":1623,"name":"Casper/Natrona Cnty, WY, US","cover":"CLR","clouds":[],"fltCat":"VFR"},{"icaoId":"KBRO","receiptTime":"2026-04-15T18:56:36.174Z","obsTime":1776279180,"reportTime":"2026-04-15T19:00:00.000Z","temp":30,"dewp":20,"wdir":140,"wspd":16,"wgst":27,"visib":"10+","altim":1014,"slp":1013.7,"qcField":4,"metarType":"METAR","rawOb":"METAR KBRO 151853Z 14016G27KT 10SM SCT038 BKN050 30/20 A2994 RMK AO2 PK WND 17032/1842 SLP137 T03000200","lat":25.9146,"lon":-97.4231,"elev":6,"name":"Brownsville Intl, TX, US","cover":"BKN","clouds":[{"cover":"SCT","base":3800},{"cover":"BKN","base":5000}],"fltCat":"VFR"},{"icaoId":"KDMN","receiptTime":"2026-04-15T18:56:31.460Z","obsTime":1776279180,"reportTime":"2026-04-15T19:00:00.000Z","temp":21.7,"dewp":-8.9,"wdir":240,"wspd":10,"wgst":18,"visib":"10+","altim":1018.7,"slp":1013.3,"qcField":6,"metarType":"METAR","rawOb":"METAR KDMN 151853Z AUTO 24010G18KT 10SM CLR 22/M09 A3008 RMK AO2 SLP133 T02171089","lat":32.2592,"lon":-107.7206,"elev":1310,"name":"Deming Muni, NM, US","cover":"CLR","clouds":[],"fltCat":"VFR"},{"icaoId":"KCNY","receiptTime":"2026-04-15T18:56:34.494Z","obsTime":1776279180,"reportTime":"2026-04-15T19:00:00.000Z","temp":15.6,"dewp":0.6,"wdir":150,"wspd":5,"wgst":14,"visib":"10+","altim":1017,"slp":1014.7,"qcField":14,"metarType":"METAR","rawOb":"METAR KCNY 151853Z AUTO 15005G14KT 10SM CLR 16/01 A3003 RMK AO2 SLP147 T01560006 $","lat":38.7501,"lon":-109.7627,"elev":1392,"name":"Moab/Canyonland Fld, UT, US","cover":"CLR","clouds":[],"fltCat":"VFR"},{"icaoId":"KTWF","receiptTime":"2026-04-15T18:56:26.875Z","obsTime":1776279180,"reportTime":"2026-04-15T19:00:00.000Z","temp":10.6,"dewp":3.3,"wdir":280,"wspd":10,"visib":"10+","altim":1012.3,"slp":1009.6,"qcField":4,"wxString":"-RA","precip":0.005,"metarType":"METAR","rawOb":"METAR KTWF 151853Z 28010KT 10SM -RA OVC050 11/03 A2989 RMK AO2 RAB15 SLP096 P0000 T01060033","lat":42.4785,"lon":-114.4775,"elev":1269,"name":"Twin Falls/Joslin Fld, ID, US","cover":"OVC","clouds":[{"cover":"OVC","base":5000}],"fltCat":"VFR"},{"icaoId":"KLBB","receiptTime":"2026-04-15T18:56:32.584Z","obsTime":1776279180,"reportTime":"2026-04-15T19:00:00.000Z","temp":26.7,"dewp":-6.1,"wdir":250,"wspd":19,"wgst":28,"visib":"10+","altim":1014,"slp":1008.9,"qcField":4,"metarType":"METAR","rawOb":"METAR KLBB 151853Z 25019G28KT 10SM FEW120 SCT250 27/M06 A2994 RMK AO2 PK WND 25028/1848 SLP089 T02671061","lat":33.6658,"lon":-101.8233,"elev":996,"name":"Lubbock Intl Arpt, TX, US","cover":"SCT","clouds":[{"cover":"FEW","base":12000},{"cover":"SCT","base":25000}],"fltCat":"VFR"},{"icaoId":"KPBI","receiptTime":"2026-04-15T18:56:27.585Z","obsTime":1776279180,"reportTime":"2026-04-15T19:00:00.000Z","temp":26.1,"dewp":15.6,"wdir":100,"wspd":13,"wgst":18,"visib":"10+","altim":1020.4,"slp":1020.1,"qcField":12,"metarType":"METAR","rawOb":"METAR KPBI 151853Z 10013G18KT 10SM BKN043 26/16 A3013 RMK AO2 SLP201 T02610156 $","lat":26.6851,"lon":-80.0992,"elev":4,"name":"Palm Beach Intl, FL, US","cover":"BKN","clouds":[{"cover":"BKN","base":4300}],"fltCat":"VFR"},{"icaoId":"KSWO","receiptTime":"2026-04-15T18:56:32.244Z","obsTime":1776279180,"reportTime":"2026-04-15T19:00:00.000Z","temp":26.1,"dewp":18.3,"wdir":250,"wspd":11,"wgst":18,"visib":"10+","altim":1009.2,"slp":1007.9,"qcField":4,"precip":0.005,"metarType":"METAR","rawOb":"METAR KSWO 151853Z 25011G18KT 10SM CLR 26/18 A2980 RMK AO2 RAB38E48 SLP079 P0000 T02610183","lat":36.1624,"lon":-97.0832,"elev":293,"name":"Stillwater Muni, OK, US","cover":"CLR","clouds":[],"fltCat":"VFR"},{"icaoId":"KBHM","receiptTime":"2026-04-15T18:56:35.509Z","obsTime":1776279180,"reportTime":"2026-04-15T19:00:00.000Z","temp":28.9,"dewp":11.1,"wdir":180,"wspd":10,"visib":"10+","altim":1020.1,"slp":1019.2,"qcField":4,"metarType":"METAR","rawOb":"METAR KBHM 151853Z 18010KT 10SM FEW070 BKN250 29/11 A3012 RMK AO2 SLP192 T02890111","lat":33.5655,"lon":-86.7449,"elev":191,"name":"Birmingham Intl, AL, US","cover":"BKN","clouds":[{"cover":"FEW","base":7000},{"cover":"BKN","base":25000}],"fltCat":"VFR"},{"icaoId":"KDVT","receiptTime":"2026-04-15T18:56:31.644Z","obsTime":1776279180,"reportTime":"2026-04-15T19:00:00.000Z","temp":25.6,"dewp":-1.7,"wdir":"VRB","wspd":5,"visib":"10+","altim":1016,"slp":1014.1,"qcField":4,"metarType":"METAR","rawOb":"METAR KDVT 151853Z VRB05KT 10SM CLR 26/M02 A3000 RMK AO2 SLP141 T02561017","lat":33.6902,"lon":-112.0662,"elev":454,"name":"Phoenix/Deer Valley Arpt, AZ, US","cover":"CLR","clouds":[],"fltCat":"VFR"},{"icaoId":"KIDA","receiptTime":"2026-04-15T18:56:28.236Z","obsTime":1776279180,"reportTime":"2026-04-15T19:00:00.000Z","temp":10.6,"dewp":0,"wdir":240,"wspd":16,"wgst":25,"visib":"10+","altim":1011.3,"slp":1010,"qcField":4,"wxString":"-RA","precip":0.005,"metarType":"METAR","rawOb":"METAR KIDA 151853Z 24016G25KT 10SM -RA BKN055 OVC070 11/00 A2986 RMK AO2 PK WND 24026/1804 RAB48 SLP100 P0000 T01060000","lat":43.5204,"lon":-112.0675,"elev":1444,"name":"Idaho Falls Rgnl, ID, US","cover":"OVC","clouds":[{"cover":"BKN","base":5500},{"cover":"OVC","base":7000}],"fltCat":"VFR"},{"icaoId":"KMLS","receiptTime":"2026-04-15T18:56:33.551Z","obsTime":1776279180,"reportTime":"2026-04-15T19:00:00.000Z","temp":16.1,"dewp":0.6,"wdir":170,"wspd":8,"visib":"10+","altim":1004.8,"slp":1004.3,"qcField":6,"metarType":"METAR","rawOb":"METAR KMLS 151853Z AUTO 17008KT 10SM BKN110 16/01 A2967 RMK AO2 SLP043 T01610006","lat":46.4265,"lon":-105.8834,"elev":800,"name":"Miles City/Wiley Fld, MT, US","cover":"BKN","clouds":[{"cover":"BKN","base":11000}],"fltCat":"VFR"},{"icaoId":"KELY","receiptTime":"2026-04-15T18:56:31.810Z","obsTime":1776279180,"reportTime":"2026-04-15T19:00:00.000Z","temp":12.8,"dewp":-5.6,"wdir":230,"wspd":15,"wgst":21,"visib":"10+","altim":1016.7,"slp":1012.8,"qcField":14,"metarType":"METAR","rawOb":"METAR KELY 151853Z AUTO 23015G21KT 10SM SCT085 13/M06 A3002 RMK AO2 PK WND 24026/1840 SLP128 T01281056 $","lat":39.2954,"lon":-114.8466,"elev":1906,"name":"Ely/Yelland Fld, NV, US","cover":"SCT","clouds":[{"cover":"SCT","base":8500}],"fltCat":"VFR"},{"icaoId":"KPDX","receiptTime":"2026-04-15T18:56:27.630Z","obsTime":1776279180,"reportTime":"2026-04-15T19:00:00.000Z","temp":8.9,"dewp":2.8,"wdir":270,"wspd":10,"visib":"10+","altim":1013.6,"slp":1013.4,"qcField":12,"precip":0.005,"metarType":"METAR","rawOb":"METAR KPDX 151853Z 27010KT 10SM FEW030 FEW045 FEW090 09/03 A2993 RMK AO2 RAB28E38 SLP134 P0000 T00890028 $","lat":45.5958,"lon":-122.6092,"elev":7,"name":"Portland Intl, OR, US","cover":"FEW","clouds":[{"cover":"FEW","base":3000},{"cover":"FEW","base":4500},{"cover":"FEW","base":9000}],"fltCat":"VFR"},{"icaoId":"KGTF","receiptTime":"2026-04-15T18:56:30.765Z","obsTime":1776279180,"reportTime":"2026-04-15T19:00:00.000Z","temp":14.4,"dewp":-1.1,"wdir":210,"wspd":17,"wgst":26,"visib":"10+","altim":1000.8,"slp":1000.5,"qcField":4,"metarType":"METAR","rawOb":"METAR KGTF 151853Z 21017G26KT 10SM OVC070 14/M01 A2955 RMK AO2 PK WND 23033/1816 SLP005 T01441011","lat":47.4733,"lon":-111.3828,"elev":1117,"name":"Great Falls Intl, MT, US","cover":"OVC","clouds":[{"cover":"OVC","base":7000}],"fltCat":"VFR"},{"icaoId":"KFUL","receiptTime":"2026-04-15T18:56:29.588Z","obsTime":1776279180,"reportTime":"2026-04-15T19:00:00.000Z","temp":22.8,"dewp":10.6,"wdir":"VRB","wspd":4,"visib":"10+","altim":1017,"slp":1016.7,"qcField":4,"metarType":"METAR","rawOb":"METAR KFUL 151853Z VRB04KT 10SM CLR 23/11 A3003 RMK AO2 SLP167 T02280106","lat":33.8715,"lon":-117.9856,"elev":23,"name":"Fullerton Muni, CA, US","cover":"CLR","clouds":[],"fltCat":"VFR"},{"icaoId":"KAUS","receiptTime":"2026-04-15T18:56:35.184Z","obsTime":1776279180,"reportTime":"2026-04-15T19:00:00.000Z","temp":26.7,"dewp":18.3,"wdir":170,"wspd":11,"visib":"10+","altim":1014.3,"slp":1013.1,"qcField":4,"metarType":"METAR","rawOb":"METAR KAUS 151853Z 17011KT 10SM OVC044 27/18 A2995 RMK AO2 SLP131 T02670183","lat":30.1831,"lon":-97.6806,"elev":148,"name":"Austin/Bergstrom Intl, TX, US","cover":"OVC","clouds":[{"cover":"OVC","base":4400}],"fltCat":"VFR"},{"icaoId":"KAPA","receiptTime":"2026-04-15T18:56:31.314Z","obsTime":1776279180,"reportTime":"2026-04-15T19:00:00.000Z","temp":16.1,"dewp":-12.2,"wdir":330,"wspd":9,"wgst":15,"visib":"10+","altim":1012.6,"slp":1009.6,"qcField":4,"metarType":"METAR","rawOb":"METAR KAPA 151853Z 33009G15KT 10SM FEW100 FEW140 FEW220 16/M12 A2990 RMK AO2 SLP096 T01611122","lat":39.5599,"lon":-104.8484,"elev":1791,"name":"Denver/Centennial Arpt, CO, US","cover":"FEW","clouds":[{"cover":"FEW","base":10000},{"cover":"FEW","base":14000},{"cover":"FEW","base":22000}],"fltCat":"VFR"},{"icaoId":"KCYS","receiptTime":"2026-04-15T18:56:34.702Z","obsTime":1776279180,"reportTime":"2026-04-15T19:00:00.000Z","temp":13.9,"dewp":-5.6,"wdir":300,"wspd":15,"wgst":24,"visib":"10+","altim":1011.6,"slp":1007.3,"qcField":4,"metarType":"METAR","rawOb":"METAR KCYS 151853Z 30015G24KT 10SM CLR 14/M06 A2987 RMK AO2 PK WND 28029/1832 SLP073 T01391056","lat":41.1579,"lon":-104.8081,"elev":1868,"name":"Cheyenne Rgnl, WY, US","cover":"CLR","clouds":[],"fltCat":"VFR"},{"icaoId":"KFMN","receiptTime":"2026-04-15T18:56:29.378Z","obsTime":1776279180,"reportTime":"2026-04-15T19:00:00.000Z","temp":14.4,"dewp":-5.6,"wdir":"VRB","wspd":5,"wgst":19,"visib":"10+","altim":1019,"slp":1017.1,"qcField":4,"metarType":"METAR","rawOb":"METAR KFMN 151853Z VRB05G19KT 10SM FEW070 14/M06 A3009 RMK AO2 SLP171 T01441056","lat":36.7435,"lon":-108.2293,"elev":1677,"name":"Farmington/Four Corners Rgnl, NM, US","cover":"FEW","clouds":[{"cover":"FEW","base":7000}],"fltCat":"VFR"},{"icaoId":"KLAX","receiptTime":"2026-04-15T18:56:32.568Z","obsTime":1776279180,"reportTime":"2026-04-15T19:00:00.000Z","temp":20,"dewp":12.8,"wdir":270,"wspd":11,"visib":"10+","altim":1017.7,"slp":1017.6,"qcField":4,"metarType":"METAR","rawOb":"METAR KLAX 151853Z 27011KT 10SM FEW010 FEW180 SCT250 20/13 A3005 RMK AO2 SLP176 T02000128","lat":33.9382,"lon":-118.3866,"elev":30,"name":"Los Angeles Intl, CA, US","cover":"SCT","clouds":[{"cover":"FEW","base":1000},{"cover":"FEW","base":18000},{"cover":"SCT","base":25000}],"fltCat":"VFR"},{"icaoId":"KMIA","receiptTime":"2026-04-15T18:56:22.059Z","obsTime":1776279180,"reportTime":"2026-04-15T19:00:00.000Z","temp":26.7,"dewp":14.4,"wdir":90,"wspd":14,"wgst":22,"visib":"10+","altim":1019.4,"slp":1019.3,"qcField":0,"metarType":"METAR","rawOb":"METAR KMIA 151853Z 09014G22KT 10SM SCT047 27/14 A3010 RMK SLP193 T02670144","lat":25.7881,"lon":-80.3169,"elev":1,"name":"Miami Intl, FL, US","cover":"SCT","clouds":[{"cover":"SCT","base":4700}],"fltCat":"VFR"},{"icaoId":"KBTM","receiptTime":"2026-04-15T18:56:36.205Z","obsTime":1776279180,"reportTime":"2026-04-15T19:00:00.000Z","temp":8.9,"dewp":-2.8,"wdir":240,"wspd":16,"wgst":26,"visib":"10+","altim":1004.5,"slp":1002.3,"qcField":6,"metarType":"METAR","rawOb":"METAR KBTM 151853Z AUTO 24016G26KT 10SM SCT047 SCT055 OVC075 09/M03 A2966 RMK AO2 PK WND 23026/1850 SLP023 T00891028","lat":45.9644,"lon":-112.5015,"elev":1680,"name":"Butte/Mooney Arpt, MT, US","cover":"OVC","clouds":[{"cover":"SCT","base":4700},{"cover":"SCT","base":5500},{"cover":"OVC","base":7500}],"fltCat":"VFR"},{"icaoId":"KCDC","receiptTime":"2026-04-15T18:56:36.379Z","obsTime":1776279180,"reportTime":"2026-04-15T19:00:00.000Z","temp":15.6,"dewp":-1.1,"wdir":220,"wspd":14,"visib":"10+","altim":1018.4,"slp":1014.8,"qcField":6,"metarType":"METAR","rawOb":"METAR KCDC 151853Z AUTO 22014KT 10SM CLR 16/M01 A3007 RMK AO2 SLP148 T01561011","lat":37.7067,"lon":-113.097,"elev":1703,"name":"Cedar City Muni, UT, US","cover":"CLR","clouds":[],"fltCat":"VFR"},{"icaoId":"KLAR","receiptTime":"2026-04-15T18:56:28.418Z","obsTime":1776279180,"reportTime":"2026-04-15T19:00:00.000Z","temp":11.1,"dewp":-4.4,"wdir":270,"wspd":20,"wgst":28,"visib":"10+","altim":1013.3,"slp":1008.6,"qcField":6,"metarType":"METAR","rawOb":"METAR KLAR 151853Z AUTO 27020G28KT 10SM FEW060 11/M04 A2992 RMK AO2 PK WND 25035/1840 SLP086 T01111044","lat":41.3165,"lon":-105.6729,"elev":2217,"name":"Laramie Rgnl, WY, US","cover":"FEW","clouds":[{"cover":"FEW","base":6000}],"fltCat":"VFR"},{"icaoId":"KVEL","receiptTime":"2026-04-15T18:56:27.032Z","obsTime":1776279180,"reportTime":"2026-04-15T19:00:00.000Z","temp":13.9,"dewp":-3.3,"wdir":200,"wspd":11,"wgst":17,"visib":"10+","altim":1016,"slp":1013.8,"qcField":6,"metarType":"METAR","rawOb":"METAR KVEL 151853Z AUTO 20011G17KT 10SM CLR 14/M03 A3000 RMK AO2 SLP138 T01391033","lat":40.4429,"lon":-109.5128,"elev":1604,"name":"Vernal Rgnl, UT, US","cover":"CLR","clouds":[],"fltCat":"VFR"},{"icaoId":"KVGT","receiptTime":"2026-04-15T18:56:27.048Z","obsTime":1776279180,"reportTime":"2026-04-15T19:00:00.000Z","temp":23.3,"dewp":-4.4,"wdir":110,"wspd":4,"visib":"10+","altim":1015.7,"slp":1015.7,"qcField":4,"metarType":"METAR","rawOb":"METAR KVGT 151853Z 11004KT 10SM CLR 23/M04 A2999 RMK AO2 SLP157 T02331044","lat":36.212,"lon":-115.194,"elev":664,"name":"Las Vegas/North Arpt, NV, US","cover":"CLR","clouds":[],"fltCat":"VFR"},{"icaoId":"KYKM","receiptTime":"2026-04-15T18:56:27.217Z","obsTime":1776279180,"reportTime":"2026-04-15T19:00:00.000Z","temp":11.1,"dewp":-7.8,"wdir":290,"wspd":19,"wgst":31,"visib":"10+","altim":1006.5,"slp":1006.5,"qcField":4,"metarType":"METAR","rawOb":"METAR KYKM 151853Z 29019G31KT 10SM CLR 11/M08 A2972 RMK AO2 PK WND 29031/1850 SLP065 T01111078","lat":46.564,"lon":-120.5349,"elev":319,"name":"Yakima/McAllister Fld, WA, US","cover":"CLR","clouds":[],"fltCat":"VFR"},{"icaoId":"KOGD","receiptTime":"2026-04-15T18:56:27.275Z","obsTime":1776279180,"reportTime":"2026-04-15T19:00:00.000Z","temp":15.6,"dewp":-2.2,"wdir":190,"wspd":10,"wgst":20,"visib":"10+","altim":1013.3,"slp":1010.3,"qcField":4,"metarType":"METAR","rawOb":"METAR KOGD 151853Z 19010G20KT 10SM OVC100 16/M02 A2992 RMK AO2 SLP103 T01561022","lat":41.1941,"lon":-112.0168,"elev":1356,"name":"Ogden/Hinckley Arpt, UT, US","cover":"OVC","clouds":[{"cover":"OVC","base":10000}],"fltCat":"VFR"},{"icaoId":"KONT","receiptTime":"2026-04-15T18:56:27.345Z","obsTime":1776279180,"reportTime":"2026-04-15T19:00:00.000Z","temp":22.2,"dewp":8.3,"wdir":230,"wspd":7,"visib":"10+","altim":1017,"slp":1016.2,"qcField":12,"metarType":"METAR","rawOb":"METAR KONT 151853Z 23007KT 10SM FEW075 FEW250 22/08 A3003 RMK AO2 SLP162 T02220083 $","lat":34.0531,"lon":-117.5769,"elev":279,"name":"Ontario Intl, CA, US","cover":"FEW","clouds":[{"cover":"FEW","base":7500},{"cover":"FEW","base":25000}],"fltCat":"VFR"},{"icaoId":"KPAE","receiptTime":"2026-04-15T18:56:27.523Z","obsTime":1776279180,"reportTime":"2026-04-15T19:00:00.000Z","temp":6.1,"dewp":2.8,"wdir":220,"wspd":9,"visib":"10+","altim":1010.6,"slp":1010.8,"qcField":4,"metarType":"METAR","rawOb":"METAR KPAE 151853Z 22009KT 10SM BKN008 BKN025 OVC055 06/03 A2984 RMK AO2 SLP108 T00610028","lat":47.9232,"lon":-122.2831,"elev":166,"name":"Everett/Paine Fld, WA, US","cover":"OVC","clouds":[{"cover":"BKN","base":800},{"cover":"BKN","base":2500},{"cover":"OVC","base":5500}],"fltCat":"IFR"},{"icaoId":"KABI","receiptTime":"2026-04-15T18:56:26.009Z","obsTime":1776279120,"reportTime":"2026-04-15T19:00:00.000Z","temp":26.1,"dewp":19.4,"wdir":220,"wspd":10,"wgst":17,"visib":"10+","altim":1013,"slp":1010.6,"qcField":12,"metarType":"METAR","rawOb":"METAR KABI 151852Z 22010G17KT 10SM SCT030 BKN037 OVC055 26/19 A2991 RMK AO2 SLP106 T02610194 $","lat":32.4106,"lon":-99.6821,"elev":543,"name":"Abilene Rgnl, TX, US","cover":"OVC","clouds":[{"cover":"SCT","base":3000},{"cover":"BKN","base":3700},{"cover":"OVC","base":5500}],"fltCat":"VFR"},{"icaoId":"KIAD","receiptTime":"2026-04-15T18:56:17.078Z","obsTime":1776279120,"reportTime":"2026-04-15T19:00:00.000Z","temp":31.7,"dewp":13.3,"wdir":210,"wspd":8,"visib":"10+","altim":1013.6,"slp":1013.3,"qcField":4,"metarType":"METAR","rawOb":"METAR KIAD 151852Z 21008KT 10SM BKN250 32/13 A2993 RMK AO2 SLP133 T03170133","lat":38.9348,"lon":-77.4473,"elev":90,"name":"Washington/Dulles Intl, VA, US","cover":"BKN","clouds":[{"cover":"BKN","base":25000}],"fltCat":"VFR"},{"icaoId":"KSPS","receiptTime":"2026-04-15T18:56:25.959Z","obsTime":1776279120,"reportTime":"2026-04-15T19:00:00.000Z","temp":28.3,"dewp":18.3,"wdir":210,"wspd":13,"wgst":22,"visib":"10+","altim":1010.6,"slp":1009.2,"qcField":4,"metarType":"METAR","rawOb":"METAR KSPS 151852Z 21013G22KT 10SM SCT035 BKN070 28/18 A2984 RMK AO2 SLP092 T02830183","lat":33.9785,"lon":-98.493,"elev":310,"name":"Wichita Falls Rgnl, TX, US","cover":"BKN","clouds":[{"cover":"SCT","base":3500},{"cover":"BKN","base":7000}],"fltCat":"VFR"},{"icaoId":"KDCA","receiptTime":"2026-04-15T18:56:21.344Z","obsTime":1776279120,"reportTime":"2026-04-15T19:00:00.000Z","temp":31.1,"dewp":13.3,"wdir":200,"wspd":13,"wgst":20,"visib":"10+","altim":1013.6,"slp":1013.4,"qcField":4,"metarType":"METAR","rawOb":"METAR KDCA 151852Z 20013G20KT 10SM BKN250 31/13 A2993 RMK AO2 SLP134 T03110133","lat":38.8472,"lon":-77.0345,"elev":4,"name":"Washington/Reagan-National Arpt, VA, US","cover":"BKN","clouds":[{"cover":"BKN","base":25000}],"fltCat":"VFR"},{"icaoId":"KCVG","receiptTime":"2026-04-15T18:56:21.325Z","obsTime":1776279120,"reportTime":"2026-04-15T19:00:00.000Z","temp":27.2,"dewp":15.6,"wdir":240,"wspd":15,"wgst":28,"visib":"10+","altim":1014.6,"slp":1013.4,"qcField":4,"metarType":"METAR","rawOb":"METAR KCVG 151852Z 24015G28KT 10SM FEW049 SCT065 BKN250 27/16 A2996 RMK AO2 PK WND 24028/1850 SLP134 T02720156","lat":39.0444,"lon":-84.6724,"elev":264,"name":"Cincinnati Intl, KY, US","cover":"BKN","clouds":[{"cover":"FEW","base":4900},{"cover":"SCT","base":6500},{"cover":"BKN","base":25000}],"fltCat":"VFR"},{"icaoId":"KMLF","receiptTime":"2026-04-15T18:56:25.945Z","obsTime":1776279120,"reportTime":"2026-04-15T19:00:00.000Z","temp":17.8,"dewp":-3.3,"wdir":200,"wspd":19,"wgst":28,"visib":"10+","altim":1016,"slp":1012.6,"qcField":6,"metarType":"METAR","rawOb":"METAR KMLF 151852Z AUTO 20019G28KT 10SM CLR 18/M03 A3000 RMK AO2 PK WND 22033/1824 SLP126 T01781033","lat":38.4225,"lon":-113.0109,"elev":1537,"name":"Milford Muni, UT, US","cover":"CLR","clouds":[],"fltCat":"VFR"},{"icaoId":"KHRL","receiptTime":"2026-04-15T18:56:21.506Z","obsTime":1776279120,"reportTime":"2026-04-15T19:00:00.000Z","temp":29.4,"dewp":20,"wdir":150,"wspd":20,"wgst":27,"visib":"10+","altim":1013.3,"slp":1013.1,"qcField":4,"metarType":"METAR","rawOb":"METAR KHRL 151852Z 15020G27KT 10SM FEW045 BKN065 29/20 A2992 RMK AO2 PK WND 15029/1756 SLP131 T02940200","lat":26.2303,"lon":-97.6556,"elev":9,"name":"Harlingen/Valley Intl, TX, US","cover":"BKN","clouds":[{"cover":"FEW","base":4500},{"cover":"BKN","base":6500}],"fltCat":"VFR"},{"icaoId":"KMKE","receiptTime":"2026-04-15T18:56:15.456Z","obsTime":1776279120,"reportTime":"2026-04-15T19:00:00.000Z","temp":20.6,"dewp":15,"wdir":240,"wspd":9,"wgst":19,"visib":"10+","altim":1008.2,"slp":1008,"qcField":4,"metarType":"METAR","rawOb":"METAR KMKE 151852Z 24009G19KT 10SM FEW024 BKN036 OVC110 21/15 A2977 RMK AO2 SLP080 T02060150","lat":42.9549,"lon":-87.9045,"elev":203,"name":"Milwaukee/Mitchell Intl, WI, US","cover":"OVC","clouds":[{"cover":"FEW","base":2400},{"cover":"BKN","base":3600},{"cover":"OVC","base":11000}],"fltCat":"VFR"},{"icaoId":"KOKC","receiptTime":"2026-04-15T18:56:16.586Z","obsTime":1776279120,"reportTime":"2026-04-15T19:00:00.000Z","temp":25.6,"dewp":19.4,"wdir":210,"wspd":13,"wgst":26,"visib":"10+","altim":1010.2,"slp":1008.7,"qcField":4,"precip":0.005,"metarType":"METAR","rawOb":"METAR KOKC 151852Z 21013G26KT 10SM SCT026 BKN036 26/19 A2983 RMK AO2 PK WND 23026/1843 RAB12E24 SLP087 P0000 T02560194","lat":35.3843,"lon":-97.6003,"elev":391,"name":"Oklahoma City/Will Rogers Intl, OK, US","cover":"BKN","clouds":[{"cover":"SCT","base":2600},{"cover":"BKN","base":3600}],"fltCat":"VFR"},{"icaoId":"KATL","receiptTime":"2026-04-15T18:56:16.660Z","obsTime":1776279120,"reportTime":"2026-04-15T19:00:00.000Z","temp":27.8,"dewp":12.8,"wdir":230,"wspd":5,"visib":"10+","altim":1020.4,"slp":1019.3,"qcField":12,"metarType":"METAR","rawOb":"METAR KATL 151852Z 23005KT 10SM FEW065 FEW200 SCT250 28/13 A3013 RMK AO2 SLP193 T02780128 $","lat":33.6297,"lon":-84.4422,"elev":309,"name":"Atlanta/Hartsfield-Jackson Intl, GA, US","cover":"SCT","clouds":[{"cover":"FEW","base":6500},{"cover":"FEW","base":20000},{"cover":"SCT","base":25000}],"fltCat":"VFR"},{"icaoId":"KCLT","receiptTime":"2026-04-15T18:56:21.279Z","obsTime":1776279120,"reportTime":"2026-04-15T19:00:00.000Z","temp":31.1,"dewp":7.8,"wdir":220,"wspd":11,"wgst":18,"visib":"10+","altim":1018,"slp":1018.5,"qcField":4,"metarType":"METAR","rawOb":"METAR KCLT 151852Z 22011G18KT 10SM SCT250 31/08 A3006 RMK AO2 SLP185 T03110078","lat":35.2225,"lon":-80.9543,"elev":223,"name":"Charlotte/Douglas Intl, NC, US","cover":"SCT","clouds":[{"cover":"SCT","base":25000}],"fltCat":"VFR"},{"icaoId":"KABQ","receiptTime":"2026-04-15T18:56:26.025Z","obsTime":1776279120,"reportTime":"2026-04-15T19:00:00.000Z","temp":15.6,"dewp":-5.6,"wdir":"VRB","wspd":4,"wgst":15,"visib":"10+","altim":1018.7,"slp":1013.8,"qcField":4,"metarType":"METAR","rawOb":"METAR KABQ 151852Z VRB04G15KT 10SM FEW080 16/M06 A3008 RMK AO2 SLP138 T01561056","lat":35.0419,"lon":-106.6154,"elev":1620,"name":"Albuquerque Intl, NM, US","cover":"FEW","clouds":[{"cover":"FEW","base":8000}],"fltCat":"VFR"},{"icaoId":"KCLE","receiptTime":"2026-04-15T18:54:08.213Z","obsTime":1776279060,"reportTime":"2026-04-15T19:00:00.000Z","temp":23.9,"dewp":17.2,"wdir":200,"wspd":14,"wgst":20,"visib":"10+","altim":1011.6,"slp":1012.3,"qcField":12,"metarType":"METAR","rawOb":"METAR KCLE 151851Z 20014G20KT 10SM OVC038 24/17 A2987 RMK AO2 SLP123 T02390172 $","lat":41.4057,"lon":-81.8519,"elev":237,"name":"Cleveland/Hopkins Intl, OH, US","cover":"OVC","clouds":[{"cover":"OVC","base":3800}],"fltCat":"VFR"},{"icaoId":"KSTL","receiptTime":"2026-04-15T18:54:18.706Z","obsTime":1776279060,"reportTime":"2026-04-15T19:00:00.000Z","temp":20.6,"dewp":16.7,"wdir":190,"wspd":16,"wgst":26,"visib":"10+","altim":1011.9,"slp":1010.9,"qcField":4,"wxString":"-RA","precip":0.01,"metarType":"METAR","rawOb":"METAR KSTL 151851Z 19016G26KT 10SM -RA FEW045 BKN100 OVC250 21/17 A2988 RMK AO2 PK WND 19027/1834 RAB1759 SLP109 P0001 T02060167","lat":38.7525,"lon":-90.3734,"elev":163,"name":"St Louis/Lambert Intl, MO, US","cover":"OVC","clouds":[{"cover":"FEW","base":4500},{"cover":"BKN","base":10000},{"cover":"OVC","base":25000}],"fltCat":"VFR"},{"icaoId":"KACT","receiptTime":"2026-04-15T18:54:10.541Z","obsTime":1776279060,"reportTime":"2026-04-15T19:00:00.000Z","temp":24.4,"dewp":19.4,"wdir":180,"wspd":7,"visib":"10+","altim":1014.6,"slp":1014,"qcField":4,"metarType":"METAR","rawOb":"METAR KACT 151851Z 18007KT 10SM OVC048 24/19 A2996 RMK AO2 SLP140 T02440194","lat":31.618,"lon":-97.2283,"elev":150,"name":"Waco Rgnl, TX, US","cover":"OVC","clouds":[{"cover":"OVC","base":4800}],"fltCat":"VFR"},{"icaoId":"KRDU","receiptTime":"2026-04-15T18:54:18.489Z","obsTime":1776279060,"reportTime":"2026-04-15T19:00:00.000Z","temp":32.8,"dewp":14.4,"wdir":200,"wspd":7,"wgst":17,"visib":"10+","altim":1017.4,"slp":1016.7,"qcField":12,"metarType":"METAR","rawOb":"METAR KRDU 151851Z 20007G17KT 160V240 10SM FEW250 33/14 A3004 RMK AO2 SLP167 T03280144 $","lat":35.8923,"lon":-78.782,"elev":121,"name":"Raleigh-Durham Intl, NC, US","cover":"FEW","clouds":[{"cover":"FEW","base":25000}],"fltCat":"VFR"},{"icaoId":"KPIT","receiptTime":"2026-04-15T18:54:18.361Z","obsTime":1776279060,"reportTime":"2026-04-15T19:00:00.000Z","temp":25.6,"dewp":15.6,"wdir":210,"wspd":10,"visib":"10+","altim":1013.6,"slp":1013.5,"qcField":12,"metarType":"METAR","rawOb":"METAR KPIT 151851Z 21010KT 10SM BKN043 BKN055 OVC200 26/16 A2993 RMK AO2 SLP135 T02560156 $","lat":40.4814,"lon":-80.2083,"elev":339,"name":"Pittsburgh Intl, PA, US","cover":"OVC","clouds":[{"cover":"BKN","base":4300},{"cover":"BKN","base":5500},{"cover":"OVC","base":20000}],"fltCat":"VFR"},{"icaoId":"KELP","receiptTime":"2026-04-15T18:54:10.629Z","obsTime":1776279060,"reportTime":"2026-04-15T19:00:00.000Z","temp":22.2,"dewp":-5.6,"wdir":340,"wspd":8,"visib":"10+","altim":1017.4,"slp":1011.4,"qcField":4,"metarType":"METAR","rawOb":"METAR KELP 151851Z 34008KT 10SM FEW110 FEW250 22/M06 A3004 RMK AO2 SLP114 T02221056","lat":31.8123,"lon":-106.3774,"elev":1205,"name":"El Paso Intl, TX, US","cover":"FEW","clouds":[{"cover":"FEW","base":11000},{"cover":"FEW","base":25000}],"fltCat":"VFR"},{"icaoId":"KLGU","receiptTime":"2026-04-15T18:54:18.141Z","obsTime":1776279060,"reportTime":"2026-04-15T19:00:00.000Z","temp":14.4,"dewp":-1.1,"wdir":200,"wspd":4,"visib":"10+","altim":1012.6,"slp":1010.8,"qcField":6,"metarType":"METAR","rawOb":"METAR KLGU 151851Z AUTO 20004KT 10SM BKN095 14/M01 A2990 RMK AO2 SLP108 T01441011","lat":41.7865,"lon":-111.8519,"elev":1359,"name":"Logan/Cache Arpt, UT, US","cover":"BKN","clouds":[{"cover":"BKN","base":9500}],"fltCat":"VFR"},{"icaoId":"KVNY","receiptTime":"2026-04-15T18:54:08.805Z","obsTime":1776279060,"reportTime":"2026-04-15T19:00:00.000Z","temp":21.1,"dewp":8.3,"visib":"10+","altim":1017,"slp":1016.2,"qcField":12,"metarType":"METAR","rawOb":"METAR KVNY 151851Z 10SM CLR 21/08 A3003 RMK AO2 SLP162 T02110083 $","lat":34.2121,"lon":-118.4915,"elev":241,"name":"Van Nuys Arpt, CA, US","cover":"CLR","clouds":[],"fltCat":"VFR"},{"icaoId":"KIGM","receiptTime":"2026-04-15T18:54:07.055Z","obsTime":1776279060,"reportTime":"2026-04-15T19:00:00.000Z","temp":21.1,"dewp":-6.7,"wdir":240,"wspd":10,"wgst":18,"visib":"10+","altim":1018,"slp":1013.2,"qcField":6,"metarType":"METAR","rawOb":"METAR KIGM 151851Z AUTO 24010G18KT 10SM CLR 21/M07 A3006 RMK AO2 SLP132 T02111067","lat":35.2575,"lon":-113.9341,"elev":1045,"name":"Kingman Arpt, AZ, US","cover":"CLR","clouds":[],"fltCat":"VFR"},{"icaoId":"KJFK","receiptTime":"2026-04-15T18:54:18.115Z","obsTime":1776279060,"reportTime":"2026-04-15T19:00:00.000Z","temp":24.4,"dewp":14.4,"wdir":170,"wspd":11,"visib":"10+","altim":1011.9,"slp":1011.6,"qcField":4,"metarType":"METAR","rawOb":"METAR KJFK 151851Z 17011KT 10SM FEW060 FEW140 BKN250 24/14 A2988 RMK AO2 SLP116 T02440144","lat":40.6392,"lon":-73.7639,"elev":3,"name":"New York/JF Kennedy Intl, NY, US","cover":"BKN","clouds":[{"cover":"FEW","base":6000},{"cover":"FEW","base":14000},{"cover":"BKN","base":25000}],"fltCat":"VFR"},{"icaoId":"KBDL","receiptTime":"2026-04-15T18:54:06.634Z","obsTime":1776279060,"reportTime":"2026-04-15T19:00:00.000Z","temp":30.6,"dewp":13.9,"wdir":230,"wspd":11,"wgst":23,"visib":"10+","altim":1009.6,"slp":1009.1,"qcField":4,"metarType":"METAR","rawOb":"METAR KBDL 151851Z 23011G23KT 10SM SCT065 BKN140 BKN250 31/14 A2981 RMK AO2 SLP091 T03060139","lat":41.9374,"lon":-72.682,"elev":52,"name":"Hartford/Bradley Intl, CT, US","cover":"BKN","clouds":[{"cover":"SCT","base":6500},{"cover":"BKN","base":14000},{"cover":"BKN","base":25000}],"fltCat":"VFR"},{"icaoId":"KORD","receiptTime":"2026-04-15T18:54:18.271Z","obsTime":1776279060,"reportTime":"2026-04-15T19:00:00.000Z","temp":20,"dewp":15.6,"wdir":230,"wspd":12,"wgst":18,"visib":"10+","altim":1009.6,"slp":1009,"qcField":4,"precip":0.005,"metarType":"METAR","rawOb":"METAR KORD 151851Z 23012G18KT 10SM FEW015 FEW080 BKN110 OVC250 20/16 A2981 RMK AO2 RAB27E42 SLP090 P0000 T02000156","lat":41.9602,"lon":-87.9316,"elev":202,"name":"Chicago/O'Hare Intl, IL, US","cover":"OVC","clouds":[{"cover":"FEW","base":1500},{"cover":"FEW","base":8000},{"cover":"BKN","base":11000},{"cover":"OVC","base":25000}],"fltCat":"VFR"},{"icaoId":"KOXR","receiptTime":"2026-04-15T18:54:18.313Z","obsTime":1776279060,"reportTime":"2026-04-15T19:00:00.000Z","temp":18.3,"dewp":12.2,"wdir":"VRB","wspd":6,"visib":"10+","altim":1017.7,"slp":1017.4,"qcField":12,"metarType":"METAR","rawOb":"METAR KOXR 151851Z VRB06KT 10SM CLR 18/12 A3005 RMK AO2 SLP174 T01830122 $","lat":34.2001,"lon":-119.2042,"elev":12,"name":"Oxnard Arpt, CA, US","cover":"CLR","clouds":[],"fltCat":"VFR"},{"icaoId":"KPVD","receiptTime":"2026-04-15T18:54:18.415Z","obsTime":1776279060,"reportTime":"2026-04-15T19:00:00.000Z","temp":27.8,"dewp":12.8,"wdir":140,"wspd":10,"visib":"10+","altim":1010.2,"slp":1010,"qcField":4,"metarType":"METAR","rawOb":"METAR KPVD 151851Z 14010KT 10SM FEW040 SCT160 BKN250 28/13 A2983 RMK AO2 SLP100 T02780128","lat":41.7225,"lon":-71.4325,"elev":15,"name":"Providence/Green Mem, RI, US","cover":"BKN","clouds":[{"cover":"FEW","base":4000},{"cover":"SCT","base":16000},{"cover":"BKN","base":25000}],"fltCat":"VFR"},{"icaoId":"KROW","receiptTime":"2026-04-15T18:54:18.505Z","obsTime":1776279060,"reportTime":"2026-04-15T19:00:00.000Z","temp":24.4,"dewp":-4.4,"wdir":100,"wspd":11,"wgst":19,"visib":"10+","altim":1014.6,"slp":1009.1,"qcField":4,"metarType":"METAR","rawOb":"METAR KROW 151851Z 10011G19KT 060V140 10SM CLR 24/M04 A2996 RMK AO2 SLP091 T02441044","lat":33.3074,"lon":-104.5082,"elev":1105,"name":"Roswell/Ind Arpt, NM, US","cover":"CLR","clouds":[],"fltCat":"VFR"},{"icaoId":"KSAD","receiptTime":"2026-04-15T18:54:18.519Z","obsTime":1776279060,"reportTime":"2026-04-15T19:00:00.000Z","temp":21.1,"dewp":-6.1,"wdir":"VRB","wspd":4,"visib":"10+","altim":1017,"slp":1013.7,"qcField":6,"metarType":"METAR","rawOb":"METAR KSAD 151851Z AUTO VRB04KT 10SM CLR 21/M06 A3003 RMK AO2 SLP137 T02111061","lat":32.8565,"lon":-109.636,"elev":937,"name":"Safford Rgnl, AZ, US","cover":"CLR","clouds":[],"fltCat":"VFR"},{"icaoId":"KSAN","receiptTime":"2026-04-15T18:54:18.543Z","obsTime":1776279060,"reportTime":"2026-04-15T19:00:00.000Z","temp":20,"dewp":12.8,"wdir":"VRB","wspd":6,"visib":"10+","altim":1018,"slp":1018,"qcField":12,"metarType":"METAR","rawOb":"METAR KSAN 151851Z VRB06KT 10SM FEW025 FEW200 20/13 A3006 RMK AO2 SLP180 T02000128 $","lat":32.7364,"lon":-117.1973,"elev":3,"name":"San Diego Intl Arpt, CA, US","cover":"FEW","clouds":[{"cover":"FEW","base":2500},{"cover":"FEW","base":20000}],"fltCat":"VFR"},{"icaoId":"KPHX","receiptTime":"2026-04-15T18:54:18.332Z","obsTime":1776279060,"reportTime":"2026-04-15T19:00:00.000Z","temp":26.1,"dewp":-1.1,"wdir":140,"wspd":7,"visib":"10+","altim":1015.3,"slp":1013.8,"qcField":4,"metarType":"METAR","rawOb":"METAR KPHX 151851Z 14007KT 10SM FEW080 26/M01 A2998 RMK AO2 SLP138 T02611011","lat":33.4278,"lon":-112.0037,"elev":338,"name":"Phoenix/Sky Harbor Intl, AZ, US","cover":"FEW","clouds":[{"cover":"FEW","base":8000}],"fltCat":"VFR"},{"icaoId":"KORF","receiptTime":"2026-04-15T18:54:18.289Z","obsTime":1776279060,"reportTime":"2026-04-15T19:00:00.000Z","temp":30,"dewp":15.6,"wdir":40,"wspd":7,"visib":"10+","altim":1015.3,"slp":1015.2,"qcField":4,"metarType":"METAR","rawOb":"METAR KORF 151851Z 04007KT 10SM CLR 30/16 A2998 RMK AO2 SLP152 T03000156","lat":36.9037,"lon":-76.1927,"elev":5,"name":"Norfolk Intl, VA, US","cover":"CLR","clouds":[],"fltCat":"VFR"},{"icaoId":"KCRP","receiptTime":"2026-04-15T18:54:10.593Z","obsTime":1776279060,"reportTime":"2026-04-15T19:00:00.000Z","temp":28.9,"dewp":20,"wdir":150,"wspd":22,"wgst":29,"visib":"10+","altim":1014.3,"slp":1013.9,"qcField":4,"metarType":"METAR","rawOb":"METAR KCRP 151851Z 15022G29KT 10SM FEW017 SCT029 BKN038 BKN250 29/20 A2995 RMK AO2 PK WND 16033/1833 SLP139 T02890200","lat":27.7734,"lon":-97.513,"elev":11,"name":"Corpus Christi Intl, TX, US","cover":"BKN","clouds":[{"cover":"FEW","base":1700},{"cover":"SCT","base":2900},{"cover":"BKN","base":3800},{"cover":"BKN","base":25000}],"fltCat":"VFR"},{"icaoId":"KEWR","receiptTime":"2026-04-15T18:54:08.618Z","obsTime":1776279060,"reportTime":"2026-04-15T19:00:00.000Z","temp":31.1,"dewp":16.1,"wdir":260,"wspd":10,"wgst":22,"visib":"10+","altim":1010.9,"slp":1010.7,"qcField":4,"metarType":"METAR","rawOb":"METAR KEWR 151851Z 26010G22KT 10SM FEW055 FEW160 BKN250 31/16 A2985 RMK AO2 PK WND 26029/1827 SLP107 T03110161","lat":40.6828,"lon":-74.1692,"elev":2,"name":"Newark Intl, NJ, US","cover":"BKN","clouds":[{"cover":"FEW","base":5500},{"cover":"FEW","base":16000},{"cover":"BKN","base":25000}],"fltCat":"VFR"},{"icaoId":"KCMH","receiptTime":"2026-04-15T18:54:08.348Z","obsTime":1776279060,"reportTime":"2026-04-15T19:00:00.000Z","temp":27.8,"dewp":15.6,"wdir":210,"wspd":15,"wgst":22,"visib":"10+","altim":1013.3,"slp":1012.4,"qcField":4,"metarType":"METAR","rawOb":"METAR KCMH 151851Z 21015G22KT 10SM BKN060 OVC250 28/16 A2992 RMK AO2 PK WND 21027/1827 SLP124 T02780156","lat":39.9907,"lon":-82.877,"elev":257,"name":"Columbus/Glenn Intl, OH, US","cover":"OVC","clouds":[{"cover":"BKN","base":6000},{"cover":"OVC","base":25000}],"fltCat":"VFR"},{"icaoId":"KLGA","receiptTime":"2026-04-15T18:56:17.096Z","obsTime":1776279060,"reportTime":"2026-04-15T19:00:00.000Z","temp":30,"dewp":15.6,"wdir":230,"wspd":11,"wgst":18,"visib":"10+","altim":1010.6,"slp":1010.6,"qcField":4,"metarType":"METAR","rawOb":"METAR KLGA 151851Z 23011G18KT 10SM FEW060 SCT150 BKN250 30/16 A2984 RMK AO2 SLP106 T03000156","lat":40.7794,"lon":-73.8803,"elev":9,"name":"New York/La Guardia Arpt, NY, US","cover":"BKN","clouds":[{"cover":"FEW","base":6000},{"cover":"SCT","base":15000},{"cover":"BKN","base":25000}],"fltCat":"VFR"},{"icaoId":"KADM","receiptTime":"2026-04-15T18:51:36.588Z","obsTime":1776279000,"reportTime":"2026-04-15T19:00:00.000Z","temp":24,"dewp":21,"wdir":180,"wspd":13,"wgst":19,"visib":"10+","altim":1011.9,"qcField":0,"metarType":"METAR","rawOb":"METAR KADM 151850Z 18013G19KT 10SM BKN035 BKN041 OVC047 24/21 A2988","lat":34.3007,"lon":-97.0089,"elev":223,"name":"Ardmore Muni, OK, US","cover":"OVC","clouds":[{"cover":"BKN","base":3500},{"cover":"BKN","base":4100},{"cover":"OVC","base":4700}],"fltCat":"VFR"},{"icaoId":"KAEG","receiptTime":"2026-04-15T18:50:47.461Z","obsTime":1776279000,"reportTime":"2026-04-15T19:00:00.000Z","temp":15,"dewp":-6,"wdir":230,"wspd":7,"wgst":14,"visib":"10+","altim":1019.4,"qcField":0,"metarType":"METAR","rawOb":"METAR KAEG 151850Z 23007G14KT 10SM CLR 15/M06 A3010","lat":35.15,"lon":-106.7929,"elev":1771,"name":"Albuquerque/Double Eagle Arpt, NM, US","cover":"CLR","clouds":[],"fltCat":"VFR"},{"icaoId":"KHOB","receiptTime":"2026-04-15T18:49:47.354Z","obsTime":1776279000,"reportTime":"2026-04-15T19:00:00.000Z","temp":26,"dewp":-10,"wdir":220,"wspd":15,"wgst":23,"visib":"10+","altim":1015.7,"qcField":0,"metarType":"METAR","rawOb":"METAR KHOB 151850Z 22015G23KT 10SM CLR 26/M10 A2999","lat":32.6797,"lon":-103.2222,"elev":1112,"name":"Hobbs Arpt, NM, US","cover":"CLR","clouds":[],"fltCat":"VFR"},{"icaoId":"KIWA","receiptTime":"2026-04-15T18:56:47.260Z","obsTime":1776279000,"reportTime":"2026-04-15T19:00:00.000Z","temp":26,"dewp":-2,"wdir":0,"wspd":0,"visib":"10+","altim":1016.3,"qcField":0,"metarType":"METAR","rawOb":"METAR KIWA 151850Z 00000KT 10SM CLR 26/M02 A3001","lat":33.3008,"lon":-111.6437,"elev":420,"name":"Phoenix/Mesa Gateway Arpt, AZ, US","cover":"CLR","clouds":[],"fltCat":"VFR"},{"icaoId":"KSUN","receiptTime":"2026-04-15T18:49:07.456Z","obsTime":1776279000,"reportTime":"2026-04-15T19:00:00.000Z","temp":4,"dewp":2,"wdir":150,"wspd":8,"visib":3,"altim":1012.6,"qcField":0,"wxString":"-RA","metarType":"METAR","rawOb":"METAR KSUN 151850Z 15008KT 3SM -RA BKN008 OVC012 04/02 A2990","lat":43.4969,"lon":-114.2923,"elev":1619,"name":"Hailey/Friedman Mem, ID, US","cover":"OVC","clouds":[{"cover":"BKN","base":800},{"cover":"OVC","base":1200}],"fltCat":"IFR"},{"icaoId":"KGYR","receiptTime":"2026-04-15T18:47:46.141Z","obsTime":1776278820,"reportTime":"2026-04-15T19:00:00.000Z","temp":26,"dewp":0,"wdir":"VRB","wspd":4,"visib":"10+","altim":1016,"qcField":0,"metarType":"METAR","rawOb":"METAR KGYR 151847Z VRB04KT 10SM SKC 26/00 A3000","lat":33.428,"lon":-112.368,"elev":292,"name":"Phoenix/Goodyear Muni, AZ, US","cover":"SKC","clouds":[],"fltCat":"VFR"},{"icaoId":"KCHD","receiptTime":"2026-04-15T18:50:24.463Z","obsTime":1776278820,"reportTime":"2026-04-15T19:00:00.000Z","temp":26,"dewp":-1,"wdir":0,"wspd":0,"visib":"10+","altim":1016,"qcField":0,"metarType":"METAR","rawOb":"METAR KCHD 151847Z 00000KT 10SM CLR 26/M01 A3000","lat":33.2669,"lon":-111.8086,"elev":378,"name":"Chandler Muni, AZ, US","cover":"CLR","clouds":[],"fltCat":"VFR"},{"icaoId":"KGEU","receiptTime":"2026-04-15T18:49:07.364Z","obsTime":1776278820,"reportTime":"2026-04-15T19:00:00.000Z","temp":26,"dewp":-2,"wdir":80,"wspd":5,"visib":"10+","altim":1015,"qcField":0,"metarType":"METAR","rawOb":"METAR KGEU 151847Z 08005KT 10SM CLR 26/M02 A2997","lat":33.528,"lon":-112.293,"elev":319,"name":"Glendale Muni, AZ, US","cover":"CLR","clouds":[],"fltCat":"VFR"},{"icaoId":"KBJC","receiptTime":"2026-04-15T18:46:07.132Z","obsTime":1776278700,"reportTime":"2026-04-15T19:00:00.000Z","temp":18,"dewp":-9,"wdir":260,"wspd":15,"visib":"10+","altim":1012.6,"qcField":0,"metarType":"METAR","rawOb":"METAR KBJC 151845Z 26015KT 10SM CLR 18/M09 A2990","lat":39.9008,"lon":-105.1042,"elev":1694,"name":"Rocky Mtn Metro, CO, US","cover":"CLR","clouds":[],"fltCat":"VFR"}]