[{"icaoId":"KRTS","receiptTime":"2026-04-11T21:40:15.840Z","obsTime":1775943300,"reportTime":"2026-04-11T21:35:00.000Z","temp":13,"dewp":0,"wdir":240,"wspd":16,"wgst":28,"visib":"10+","altim":1009.6,"qcField":6,"metarType":"METAR","rawOb":"METAR KRTS 112135Z AUTO 24016G28KT 10SM FEW060 SCT070 OVC110 13/M00 A2981 RMK AO2","lat":39.6658,"lon":-119.8731,"elev":1537,"name":"Reno/Stead Arpt, NV, US","cover":"OVC","clouds":[{"cover":"FEW","base":6000},{"cover":"SCT","base":7000},{"cover":"OVC","base":11000}],"fltCat":"VFR"},{"icaoId":"KSOW","receiptTime":"2026-04-11T21:38:21.777Z","obsTime":1775943300,"reportTime":"2026-04-11T21:35:00.000Z","temp":20,"dewp":-2,"wdir":210,"wspd":20,"wgst":27,"visib":"10+","altim":1018.7,"qcField":6,"metarType":"METAR","rawOb":"METAR KSOW 112135Z AUTO 21020G27KT 10SM SCT075 SCT085 BKN110 20/M02 A3008 RMK AO2 LTG DSNT E","lat":34.2686,"lon":-110.0019,"elev":1954,"name":"Show Low Muni, AZ, US","cover":"BKN","clouds":[{"cover":"SCT","base":7500},{"cover":"SCT","base":8500},{"cover":"BKN","base":11000}],"fltCat":"VFR"},{"icaoId":"KBVU","receiptTime":"2026-04-11T21:36:06.830Z","obsTime":1775943300,"reportTime":"2026-04-11T21:35:00.000Z","temp":27,"dewp":-8,"wdir":220,"wspd":18,"wgst":24,"visib":"10+","altim":1009.2,"qcField":6,"metarType":"METAR","rawOb":"METAR KBVU 112135Z AUTO 22018G24KT 10SM CLR 27/M08 A2980 RMK AO2","lat":35.9489,"lon":-114.8633,"elev":654,"name":"Boulder City Muni, NV, US","cover":"CLR","clouds":[],"fltCat":"VFR"},{"icaoId":"KSEZ","receiptTime":"2026-04-11T21:40:24.154Z","obsTime":1775943300,"reportTime":"2026-04-11T21:35:00.000Z","temp":22,"dewp":0,"wdir":190,"wspd":19,"wgst":32,"visib":"10+","altim":1016,"qcField":6,"metarType":"METAR","rawOb":"METAR KSEZ 112135Z AUTO 19019G32KT 10SM FEW080 SCT090 22/00 A3000 RMK AO2","lat":34.8467,"lon":-111.7884,"elev":1455,"name":"Sedona Arpt, AZ, US","cover":"SCT","clouds":[{"cover":"FEW","base":8000},{"cover":"SCT","base":9000}],"fltCat":"VFR"},{"icaoId":"KCXP","receiptTime":"2026-04-11T21:40:19.085Z","obsTime":1775943300,"reportTime":"2026-04-11T21:35:00.000Z","temp":13,"dewp":0,"wdir":210,"wspd":7,"wgst":22,"visib":"10+","altim":1009.9,"qcField":6,"metarType":"METAR","rawOb":"METAR KCXP 112135Z AUTO 21007G22KT 170V240 10SM SCT060 BKN075 BKN080 13/M00 A2982 RMK AO2","lat":39.1905,"lon":-119.7319,"elev":1431,"name":"Carson City Arpt, NV, US","cover":"BKN","clouds":[{"cover":"SCT","base":6000},{"cover":"BKN","base":7500},{"cover":"BKN","base":8000}],"fltCat":"VFR"},{"icaoId":"KMHR","receiptTime":"2026-04-11T21:40:20.953Z","obsTime":1775943300,"reportTime":"2026-04-11T21:35:00.000Z","temp":15,"dewp":15,"wdir":180,"wspd":8,"visib":9,"altim":1009.6,"qcField":6,"wxString":"VCTS RA","metarType":"METAR","rawOb":"METAR KMHR 112135Z AUTO 18008KT 9SM VCTS RA FEW030 SCT042 BKN065 15/15 A2981 RMK AO2 LTG DSNT NE-S","lat":38.56,"lon":-121.284,"elev":30,"name":"Sacramento/Mather Fld, CA, US","cover":"BKN","clouds":[{"cover":"FEW","base":3000},{"cover":"SCT","base":4200},{"cover":"BKN","base":6500}],"fltCat":"VFR"},{"icaoId":"KHII","receiptTime":"2026-04-11T21:41:04.703Z","obsTime":1775943300,"reportTime":"2026-04-11T21:35:00.000Z","temp":29,"dewp":2,"wdir":210,"wspd":10,"wgst":20,"visib":"10+","altim":1010.2,"qcField":6,"metarType":"METAR","rawOb":"METAR KHII 112135Z AUTO 21010G20KT 10SM CLR 29/02 A2983 RMK AO2","lat":34.5659,"lon":-114.3522,"elev":241,"name":"Lake Havasu City Arpt, AZ, US","cover":"CLR","clouds":[],"fltCat":"VFR"},{"icaoId":"KMEV","receiptTime":"2026-04-11T21:40:19.180Z","obsTime":1775943300,"reportTime":"2026-04-11T21:35:00.000Z","temp":12,"dewp":0,"wdir":180,"wspd":21,"wgst":31,"visib":"10+","altim":1009.6,"qcField":6,"metarType":"METAR","rawOb":"METAR KMEV 112135Z AUTO 18021G31KT 10SM CLR 12/M00 A2981 RMK AO2","lat":38.9963,"lon":-119.75,"elev":1437,"name":"Minden-Tahoe Arpt, NV, US","cover":"CLR","clouds":[],"fltCat":"VFR"},{"icaoId":"KHAF","receiptTime":"2026-04-11T21:38:21.302Z","obsTime":1775943300,"reportTime":"2026-04-11T21:35:00.000Z","temp":15,"dewp":14,"wdir":170,"wspd":18,"visib":"10+","altim":1009.9,"qcField":6,"metarType":"METAR","rawOb":"METAR KHAF 112135Z AUTO 17018KT 10SM BKN070 15/14 A2982 RMK AO2","lat":37.5136,"lon":-122.4996,"elev":11,"name":"Half Moon Bay Arpt, CA, US","cover":"BKN","clouds":[{"cover":"BKN","base":7000}],"fltCat":"VFR"},{"icaoId":"KHTH","receiptTime":"2026-04-11T21:40:17.540Z","obsTime":1775943000,"reportTime":"2026-04-11T21:30:00.000Z","temp":18,"dewp":-10,"wdir":360,"wspd":5,"visib":"10+","altim":1007.9,"qcField":6,"metarType":"METAR","rawOb":"METAR KHTH 112130Z AUTO 36005KT 10SM CLR 18/M10 A2976 RMK A01","lat":38.5448,"lon":-118.6314,"elev":1281,"name":"Hawthorne Muni, NV, US","cover":"CLR","clouds":[],"fltCat":"VFR"},{"icaoId":"KELY","receiptTime":"2026-04-11T21:30:03.893Z","obsTime":1775942760,"reportTime":"2026-04-11T21:26:00.000Z","temp":15.6,"dewp":-8.9,"wdir":250,"wspd":19,"wgst":28,"visib":"10+","altim":1011.3,"qcField":6,"metarType":"SPECI","rawOb":"SPECI KELY 112126Z AUTO 25019G28KT 10SM SCT085 16/M09 A2986 RMK AO2 PK WND 24028/2126 WSHFT 2106 T01561089","lat":39.2954,"lon":-114.8466,"elev":1906,"name":"Ely/Yelland Fld, NV, US","cover":"SCT","clouds":[{"cover":"SCT","base":8500}],"fltCat":"VFR"},{"icaoId":"KSTS","receiptTime":"2026-04-11T21:20:24.434Z","obsTime":1775942160,"reportTime":"2026-04-11T21:16:00.000Z","temp":15,"dewp":9.4,"wdir":180,"wspd":12,"visib":"10+","altim":1008.5,"qcField":12,"metarType":"SPECI","rawOb":"SPECI KSTS 112116Z 18012KT 10SM SCT025 BKN060 15/09 A2978 RMK AO2 T01500094 $","lat":38.5037,"lon":-122.811,"elev":35,"name":"Santa Rosa/Schulz Arpt, CA, US","cover":"BKN","clouds":[{"cover":"SCT","base":2500},{"cover":"BKN","base":6000}],"fltCat":"VFR"},{"icaoId":"KCEC","receiptTime":"2026-04-11T21:18:16.783Z","obsTime":1775942100,"reportTime":"2026-04-11T21:15:00.000Z","temp":12.8,"dewp":10.6,"wdir":90,"wspd":3,"visib":"10+","altim":1005.5,"qcField":6,"metarType":"SPECI","rawOb":"SPECI KCEC 112115Z AUTO 09003KT 10SM BKN012 BKN018 OVC065 13/11 A2969 RMK AO2 T01280106","lat":41.7836,"lon":-124.238,"elev":17,"name":"Crescent City/McNama, CA, US","cover":"OVC","clouds":[{"cover":"BKN","base":1200},{"cover":"BKN","base":1800},{"cover":"OVC","base":6500}],"fltCat":"MVFR"},{"icaoId":"KSBP","receiptTime":"2026-04-11T21:06:07.113Z","obsTime":1775941380,"reportTime":"2026-04-11T21:03:00.000Z","temp":17.2,"dewp":10.6,"wdir":190,"wspd":12,"wgst":20,"visib":"10+","altim":1014.6,"qcField":4,"metarType":"SPECI","rawOb":"SPECI KSBP 112103Z 19012G20KT 10SM FEW023 SCT039 OVC060 17/11 A2996 RMK AO2 T01720106","lat":35.2381,"lon":-120.644,"elev":52,"name":"San Luis Obispo/San Luis Cnty, CA, US","cover":"OVC","clouds":[{"cover":"FEW","base":2300},{"cover":"SCT","base":3900},{"cover":"OVC","base":6000}],"fltCat":"VFR"},{"icaoId":"KUKI","receiptTime":"2026-04-11T21:06:07.148Z","obsTime":1775941380,"reportTime":"2026-04-11T21:03:00.000Z","temp":12.8,"dewp":10,"wdir":160,"wspd":10,"wgst":20,"visib":"10+","altim":1006.9,"qcField":6,"metarType":"SPECI","rawOb":"SPECI KUKI 112103Z AUTO 16010G20KT 10SM SCT025 BKN039 OVC055 13/10 A2973 RMK AO2 T01280100","lat":39.1278,"lon":-123.2001,"elev":183,"name":"Ukiah Muni, CA, US","cover":"OVC","clouds":[{"cover":"SCT","base":2500},{"cover":"BKN","base":3900},{"cover":"OVC","base":5500}],"fltCat":"VFR"},{"icaoId":"KGEU","receiptTime":"2026-04-11T21:03:57.601Z","obsTime":1775941140,"reportTime":"2026-04-11T21:00:00.000Z","temp":29,"dewp":3,"wdir":160,"wspd":3,"visib":"10+","altim":1010.2,"qcField":0,"metarType":"METAR","rawOb":"METAR KGEU 112059Z 16003KT 10SM CLR 29/03 A2983","lat":33.528,"lon":-112.293,"elev":319,"name":"Glendale Muni, AZ, US","cover":"CLR","clouds":[],"fltCat":"VFR"},{"icaoId":"KNFL","receiptTime":"2026-04-11T21:00:43.722Z","obsTime":1775941020,"reportTime":"2026-04-11T21:00:00.000Z","temp":15.6,"dewp":-2.8,"wdir":290,"wspd":6,"visib":"10+","altim":1008.9,"slp":1006.5,"qcField":12,"presTend":-1.5,"metarType":"METAR","rawOb":"METAR KNFL 112057Z 29006KT 10SM FEW070 SCT130 SCT200 BKN230 16/M03 A2979 RMK AO2 SLP065 ACSL DSNT S-W SH DSNT NE T01561028 58015 PNO $","lat":39.417,"lon":-118.705,"elev":1199,"name":"Fallon , NV, US","cover":"BKN","clouds":[{"cover":"FEW","base":7000},{"cover":"SCT","base":13000},{"cover":"SCT","base":20000},{"cover":"BKN","base":23000}],"fltCat":"VFR"},{"icaoId":"KNYL","receiptTime":"2026-04-11T21:00:43.754Z","obsTime":1775941020,"reportTime":"2026-04-11T21:00:00.000Z","temp":28.3,"dewp":3.3,"wdir":240,"wspd":10,"wgst":16,"visib":"10+","altim":1011.6,"slp":1011.3,"qcField":4,"presTend":-2.4,"metarType":"METAR","rawOb":"METAR KNYL 112057Z 24010G16KT 10SM CLR 28/03 A2987 RMK AO2 SLP113 T02830033 58024","lat":32.66,"lon":-114.6078,"elev":58,"name":"Yuma , AZ, US","cover":"CLR","clouds":[],"fltCat":"VFR"},{"icaoId":"KFLG","receiptTime":"2026-04-11T21:00:42.956Z","obsTime":1775941020,"reportTime":"2026-04-11T21:00:00.000Z","temp":15.6,"dewp":0,"wdir":230,"wspd":19,"wgst":32,"visib":"10+","altim":1018.4,"slp":1012.4,"qcField":12,"presTend":-1.2,"metarType":"METAR","rawOb":"METAR KFLG 112057Z 23019G32KT 10SM SCT060 16/00 A3007 RMK AO2 PK WND 22037/2007 SLP124 T01560000 56012 $","lat":35.1443,"lon":-111.6664,"elev":2134,"name":"Flagstaff/Pulliam Arpt, AZ, US","cover":"SCT","clouds":[{"cover":"SCT","base":6000}],"fltCat":"VFR"},{"icaoId":"KDUG","receiptTime":"2026-04-11T21:02:20.354Z","obsTime":1775940960,"reportTime":"2026-04-11T21:00:00.000Z","temp":26.7,"dewp":0,"wdir":250,"wspd":9,"wgst":25,"visib":"10+","altim":1016.7,"slp":1010.8,"qcField":38,"presTend":-2.4,"metarType":"METAR","rawOb":"METAR KDUG 112056Z AUTO 25009G25KT 10SM CLR 27/00 A3002 RMK AO2 PK WND 24030/2037 SLP108 T02670000 58024 TSNO","lat":31.4725,"lon":-109.6022,"elev":1260,"name":"Douglas/Bisbee Intl, AZ, US","cover":"CLR","clouds":[],"fltCat":"VFR"},{"icaoId":"KHND","receiptTime":"2026-04-11T20:58:21.079Z","obsTime":1775940960,"reportTime":"2026-04-11T21:00:00.000Z","temp":23.9,"dewp":-2.8,"wdir":220,"wspd":13,"wgst":26,"visib":"10+","altim":1011.6,"slp":1011.1,"qcField":12,"presTend":-1.9,"metarType":"METAR","rawOb":"METAR KHND 112056Z 22013G26KT 10SM CLR 24/M03 A2987 RMK AO2 PK WND 23028/2035 SLP111 T02391028 56019 $","lat":35.9657,"lon":-115.1343,"elev":740,"name":"Henderson Exec, NV, US","cover":"CLR","clouds":[],"fltCat":"VFR"},{"icaoId":"KTPH","receiptTime":"2026-04-11T21:00:09.285Z","obsTime":1775940960,"reportTime":"2026-04-11T21:00:00.000Z","temp":15,"dewp":-2.8,"wdir":170,"wspd":19,"wgst":27,"visib":"10+","altim":1011.6,"slp":1007.7,"qcField":6,"presTend":-1.6,"metarType":"METAR","rawOb":"METAR KTPH 112056Z AUTO 17019G27KT 10SM SCT065 15/M03 A2987 RMK AO2 PK WND 19027/2056 SLP077 T01501028 56016","lat":38.0505,"lon":-117.0906,"elev":1647,"name":"Tonopah Arpt, NV, US","cover":"SCT","clouds":[{"cover":"SCT","base":6500}],"fltCat":"VFR"},{"icaoId":"KINW","receiptTime":"2026-04-11T21:00:17.237Z","obsTime":1775940960,"reportTime":"2026-04-11T21:00:00.000Z","temp":22.8,"dewp":-0.6,"wdir":240,"wspd":20,"wgst":29,"visib":"10+","altim":1016.3,"slp":1010.9,"qcField":6,"presTend":-1.7,"metarType":"METAR","rawOb":"METAR KINW 112056Z AUTO 24020G29KT 10SM FEW085 23/M01 A3001 RMK AO2 PK WND 23032/2007 SLP109 T02281006 56017","lat":35.0279,"lon":-110.7221,"elev":1492,"name":"Winslow/Lindberg Rgnl, AZ, US","cover":"FEW","clouds":[{"cover":"FEW","base":8500}],"fltCat":"VFR"},{"icaoId":"KENV","receiptTime":"2026-04-11T20:58:19.604Z","obsTime":1775940960,"reportTime":"2026-04-11T21:00:00.000Z","temp":16.7,"dewp":1.1,"wdir":300,"wspd":11,"visib":"10+","altim":1010.2,"slp":1007.6,"qcField":6,"presTend":0.1,"pcp3hr":0.03,"metarType":"METAR","rawOb":"METAR KENV 112056Z AUTO 30011KT 10SM CLR 17/01 A2983 RMK AO2 SLP076 60003 T01670011 50001","lat":40.7211,"lon":-114.0312,"elev":1291,"name":"Wendover Arpt, UT, US","cover":"CLR","clouds":[],"fltCat":"VFR"},{"icaoId":"KEKO","receiptTime":"2026-04-11T21:00:09.205Z","obsTime":1775940960,"reportTime":"2026-04-11T21:00:00.000Z","temp":12.2,"dewp":1.1,"wdir":250,"wspd":9,"wgst":15,"visib":"10+","altim":1010.6,"slp":1008.6,"qcField":6,"presTend":-2.3,"metarType":"METAR","rawOb":"METAR KEKO 112056Z AUTO 25009G15KT 10SM SCT040 12/01 A2984 RMK AO2 SLP086 T01220011 58023","lat":40.824,"lon":-115.7863,"elev":1541,"name":"Elko Rgnl, NV, US","cover":"SCT","clouds":[{"cover":"SCT","base":4000}],"fltCat":"VFR"},{"icaoId":"KSFO","receiptTime":"2026-04-11T21:00:17.414Z","obsTime":1775940960,"reportTime":"2026-04-11T21:00:00.000Z","temp":15.6,"dewp":11.7,"wdir":140,"wspd":13,"visib":"10+","altim":1009.9,"slp":1009.9,"qcField":12,"presTend":-2,"precip":0.005,"pcp3hr":0.03,"metarType":"METAR","rawOb":"METAR KSFO 112056Z 14013KT 10SM FEW008 SCT024 OVC160 16/12 A2982 RMK AO2 RAE1959 SLP099 P0000 60003 T01560117 58020 $","lat":37.6196,"lon":-122.3656,"elev":2,"name":"San Francisco Intl, CA, US","cover":"OVC","clouds":[{"cover":"FEW","base":800},{"cover":"SCT","base":2400},{"cover":"OVC","base":16000}],"fltCat":"VFR"},{"icaoId":"KCGZ","receiptTime":"2026-04-11T20:58:19.311Z","obsTime":1775940960,"reportTime":"2026-04-11T21:00:00.000Z","temp":31.7,"dewp":3.3,"visib":"10+","altim":1011.6,"slp":1010.1,"qcField":14,"presTend":-3.3,"metarType":"METAR","rawOb":"METAR KCGZ 112056Z AUTO 10SM CLR 32/03 A2987 RMK AO2 SLP101 6//// T03170033 56033 $","lat":32.9531,"lon":-111.7725,"elev":444,"name":"Casa Granda Muni, AZ, US","cover":"CLR","clouds":[],"fltCat":"VFR"},{"icaoId":"KLAS","receiptTime":"2026-04-11T21:00:12.197Z","obsTime":1775940960,"reportTime":"2026-04-11T21:00:00.000Z","temp":24.4,"dewp":-4.4,"wdir":210,"wspd":19,"wgst":31,"visib":"10+","altim":1010.2,"slp":1008.3,"qcField":4,"presTend":-2.8,"metarType":"METAR","rawOb":"METAR KLAS 112056Z 21019G31KT 10SM FEW150 SCT250 24/M04 A2983 RMK AO2 PK WND 21031/2013 SLP083 T02441044 56028","lat":36.0719,"lon":-115.1634,"elev":662,"name":"Las Vegas/Reid Intl, NV, US","cover":"SCT","clouds":[{"cover":"FEW","base":15000},{"cover":"SCT","base":25000}],"fltCat":"VFR"},{"icaoId":"KVIS","receiptTime":"2026-04-11T20:58:17.965Z","obsTime":1775940960,"reportTime":"2026-04-11T21:00:00.000Z","temp":23.3,"dewp":7.2,"wdir":230,"wspd":10,"wgst":15,"visib":"10+","altim":1013.3,"slp":1013.2,"qcField":14,"presTend":-2,"metarType":"METAR","rawOb":"METAR KVIS 112056Z AUTO 23010G15KT 10SM SCT065 23/07 A2992 RMK AO2 SLP132 T02330072 56020 $","lat":36.3135,"lon":-119.3884,"elev":92,"name":"Visalia Muni, CA, US","cover":"SCT","clouds":[{"cover":"SCT","base":6500}],"fltCat":"VFR"},{"icaoId":"KCMA","receiptTime":"2026-04-11T20:58:19.344Z","obsTime":1775940900,"reportTime":"2026-04-11T21:00:00.000Z","temp":20,"dewp":11.7,"wdir":240,"wspd":12,"visib":"10+","altim":1015.7,"slp":1016.4,"qcField":4,"presTend":-1.3,"metarType":"METAR","rawOb":"METAR KCMA 112055Z 24012KT 10SM CLR 20/12 A2999 RMK AO2 SLP164 T02000117 58013","lat":34.2114,"lon":-119.0876,"elev":20,"name":"Camarillo Arpt, CA, US","cover":"CLR","clouds":[],"fltCat":"VFR"},{"icaoId":"KRNO","receiptTime":"2026-04-11T20:58:18.292Z","obsTime":1775940900,"reportTime":"2026-04-11T21:00:00.000Z","temp":14.4,"dewp":-1.7,"wdir":190,"wspd":23,"wgst":34,"visib":"10+","altim":1008.5,"slp":1006,"qcField":4,"presTend":-1.7,"metarType":"METAR","rawOb":"METAR KRNO 112055Z 19023G34KT 10SM SCT070 SCT110 BKN170 BKN220 14/M02 A2978 RMK AO2 PK WND 18034/2053 SLP060 ACSL OHD T01441017 58017","lat":39.5077,"lon":-119.7683,"elev":1344,"name":"Reno/Tahoe Intl, NV, US","cover":"BKN","clouds":[{"cover":"SCT","base":7000},{"cover":"SCT","base":11000},{"cover":"BKN","base":17000},{"cover":"BKN","base":22000}],"fltCat":"VFR"},{"icaoId":"KGCN","receiptTime":"2026-04-11T20:58:05.181Z","obsTime":1775940840,"reportTime":"2026-04-11T21:00:00.000Z","temp":17.2,"dewp":-9.4,"wdir":230,"wspd":20,"wgst":33,"visib":"10+","altim":1016.7,"slp":1010.9,"qcField":4,"presTend":-1.6,"metarType":"METAR","rawOb":"METAR KGCN 112054Z 23020G33KT 10SM CLR 17/M09 A3002 RMK AO2 PK WND 21044/2014 SLP109 T01721094 57016","lat":35.9458,"lon":-112.1554,"elev":1993,"name":"Grand Canyon Park Arpt, AZ, US","cover":"CLR","clouds":[],"fltCat":"VFR"},{"icaoId":"KFFZ","receiptTime":"2026-04-11T20:58:20.660Z","obsTime":1775940840,"reportTime":"2026-04-11T21:00:00.000Z","temp":30.6,"dewp":2.8,"wdir":210,"wspd":12,"wgst":16,"visib":"10+","altim":1011.3,"slp":1008.9,"qcField":4,"presTend":-2.9,"metarType":"METAR","rawOb":"METAR KFFZ 112054Z 21012G16KT 10SM CLR 31/03 A2986 RMK AO2 SLP089 T03060028 57029","lat":33.4659,"lon":-111.7212,"elev":420,"name":"Mesa/Falcon Fld, AZ, US","cover":"CLR","clouds":[],"fltCat":"VFR"},{"icaoId":"KAPC","receiptTime":"2026-04-11T20:58:04.655Z","obsTime":1775940840,"reportTime":"2026-04-11T21:00:00.000Z","temp":15.6,"dewp":11.1,"wdir":190,"wspd":13,"visib":"10+","altim":1009.9,"slp":1008.9,"qcField":4,"presTend":-1.9,"precip":0.005,"pcp3hr":0.05,"metarType":"METAR","rawOb":"METAR KAPC 112054Z 19013KT 10SM FEW060 BKN080 16/11 A2982 RMK AO2 RAE11 SLP089 P0000 60005 T01560111 58019","lat":38.2075,"lon":-122.2804,"elev":5,"name":"Napa Cnty Arpt, CA, US","cover":"BKN","clouds":[{"cover":"FEW","base":6000},{"cover":"BKN","base":8000}],"fltCat":"VFR"},{"icaoId":"KSJN","receiptTime":"2026-04-11T20:58:06.226Z","obsTime":1775940840,"reportTime":"2026-04-11T21:00:00.000Z","temp":21.7,"dewp":-3.3,"wdir":230,"wspd":14,"wgst":24,"visib":"10+","altim":1016.7,"slp":1009.1,"qcField":6,"presTend":-2.6,"metarType":"METAR","rawOb":"METAR KSJN 112054Z AUTO 23014G24KT 10SM CLR 22/M03 A3002 RMK AO2 PK WND 23027/1955 SLP091 T02171033 56026","lat":34.5184,"lon":-109.3801,"elev":1747,"name":"St Johns Ind Arpt, AZ, US","cover":"CLR","clouds":[],"fltCat":"VFR"},{"icaoId":"KOLS","receiptTime":"2026-04-11T20:58:15.071Z","obsTime":1775940840,"reportTime":"2026-04-11T21:00:00.000Z","temp":26.1,"dewp":1.7,"wdir":250,"wspd":14,"wgst":21,"visib":"10+","altim":1017,"slp":1011.1,"qcField":6,"presTend":-1.6,"metarType":"METAR","rawOb":"METAR KOLS 112054Z AUTO 25014G21KT 10SM FEW100 26/02 A3003 RMK AO2 PK WND 23030/2022 SLP111 T02610017 56016","lat":31.4208,"lon":-110.8465,"elev":1194,"name":"Nogales Intl, AZ, US","cover":"FEW","clouds":[{"cover":"FEW","base":10000}],"fltCat":"VFR"},{"icaoId":"KBFL","receiptTime":"2026-04-11T20:58:04.710Z","obsTime":1775940840,"reportTime":"2026-04-11T21:00:00.000Z","temp":23.3,"dewp":5,"wdir":240,"wspd":5,"visib":"10+","altim":1012.6,"slp":1011.9,"qcField":12,"presTend":-2.4,"metarType":"METAR","rawOb":"METAR KBFL 112054Z 24005KT 10SM CLR 23/05 A2990 RMK AO2 SLP119 T02330050 56024 $","lat":35.4342,"lon":-119.0552,"elev":146,"name":"Bakersfield/Meadows Arpt, CA, US","cover":"CLR","clouds":[],"fltCat":"VFR"},{"icaoId":"KFAT","receiptTime":"2026-04-11T20:56:34.218Z","obsTime":1775940780,"reportTime":"2026-04-11T21:00:00.000Z","temp":23.3,"dewp":7.2,"wdir":160,"wspd":14,"wgst":21,"visib":"10+","altim":1013,"slp":1012.5,"qcField":12,"presTend":-1.8,"metarType":"METAR","rawOb":"METAR KFAT 112053Z 16014G21KT 10SM SCT055 BKN090 BKN200 23/07 A2991 RMK AO2 WSHFT 2010 SLP125 T02330072 56018 $","lat":36.78,"lon":-119.7202,"elev":102,"name":"Fresno/Yosemite Intl, CA, US","cover":"BKN","clouds":[{"cover":"SCT","base":5500},{"cover":"BKN","base":9000},{"cover":"BKN","base":20000}],"fltCat":"VFR"},{"icaoId":"KBUR","receiptTime":"2026-04-11T20:56:35.711Z","obsTime":1775940780,"reportTime":"2026-04-11T21:00:00.000Z","temp":20.6,"dewp":8.9,"wdir":230,"wspd":9,"visib":"10+","altim":1015.3,"slp":1014.2,"qcField":4,"presTend":-1.8,"metarType":"METAR","rawOb":"METAR KBUR 112053Z 23009KT 10SM SCT040 21/09 A2998 RMK AO2 SLP142 T02060089 58018","lat":34.1996,"lon":-118.3654,"elev":221,"name":"Burbank/Bob Hope Arpt, CA, US","cover":"SCT","clouds":[{"cover":"SCT","base":4000}],"fltCat":"VFR"},{"icaoId":"KCRQ","receiptTime":"2026-04-11T20:56:34.701Z","obsTime":1775940780,"reportTime":"2026-04-11T21:00:00.000Z","temp":19.4,"dewp":11.7,"wdir":250,"wspd":10,"wgst":15,"visib":"10+","altim":1015.7,"slp":1015.4,"qcField":4,"presTend":-1.2,"metarType":"METAR","rawOb":"METAR KCRQ 112053Z 25010G15KT 10SM CLR 19/12 A2999 RMK AO2 SLP154 T01940117 58012","lat":33.1299,"lon":-117.2765,"elev":96,"name":"Carlsbad/Palomar Arpt, CA, US","cover":"CLR","clouds":[],"fltCat":"VFR"},{"icaoId":"KDVT","receiptTime":"2026-04-11T20:56:33.888Z","obsTime":1775940780,"reportTime":"2026-04-11T21:00:00.000Z","temp":28.9,"dewp":3.9,"wdir":260,"wspd":8,"visib":"10+","altim":1011.9,"slp":1009.6,"qcField":12,"presTend":-2.6,"metarType":"METAR","rawOb":"METAR KDVT 112053Z 26008KT 10SM FEW110 29/04 A2988 RMK AO2 SLP096 T02890039 57026 $","lat":33.6902,"lon":-112.0662,"elev":454,"name":"Phoenix/Deer Valley Arpt, AZ, US","cover":"FEW","clouds":[{"cover":"FEW","base":11000}],"fltCat":"VFR"},{"icaoId":"KACV","receiptTime":"2026-04-11T20:56:25.532Z","obsTime":1775940780,"reportTime":"2026-04-11T21:00:00.000Z","temp":14.4,"dewp":10,"wdir":170,"wspd":8,"visib":"10+","altim":1004.1,"slp":1004.6,"qcField":6,"wxString":"-RA","presTend":-2.4,"precip":0.005,"pcp3hr":0.005,"metarType":"METAR","rawOb":"METAR KACV 112053Z AUTO 17008KT 10SM -RA FEW036 BKN049 OVC065 14/10 A2965 RMK AO2 RAB45 SLP046 P0000 60000 T01440100 58024","lat":40.9784,"lon":-124.1048,"elev":63,"name":"Arcata Arpt, CA, US","cover":"OVC","clouds":[{"cover":"FEW","base":3600},{"cover":"BKN","base":4900},{"cover":"OVC","base":6500}],"fltCat":"VFR"},{"icaoId":"KFUL","receiptTime":"2026-04-11T20:56:33.327Z","obsTime":1775940780,"reportTime":"2026-04-11T21:00:00.000Z","temp":21.7,"dewp":8.9,"wdir":220,"wspd":7,"visib":"10+","altim":1015,"slp":1014.8,"qcField":4,"presTend":-1.7,"metarType":"METAR","rawOb":"METAR KFUL 112053Z 22007KT 10SM CLR 22/09 A2997 RMK AO2 SLP148 T02170089 58017","lat":33.8715,"lon":-117.9856,"elev":23,"name":"Fullerton Muni, CA, US","cover":"CLR","clouds":[],"fltCat":"VFR"},{"icaoId":"KLGB","receiptTime":"2026-04-11T20:56:30.691Z","obsTime":1775940780,"reportTime":"2026-04-11T21:00:00.000Z","temp":22.2,"dewp":10,"wdir":220,"wspd":8,"visib":"10+","altim":1015.3,"slp":1015,"qcField":12,"presTend":-1.9,"metarType":"METAR","rawOb":"METAR KLGB 112053Z 22008KT 10SM CLR 22/10 A2998 RMK AO2 SLP150 T02220100 58019 $","lat":33.8118,"lon":-118.1472,"elev":10,"name":"Long Beach Arpt, CA, US","cover":"CLR","clouds":[],"fltCat":"VFR"},{"icaoId":"KLOL","receiptTime":"2026-04-11T20:56:30.810Z","obsTime":1775940780,"reportTime":"2026-04-11T21:00:00.000Z","temp":15.6,"dewp":-1.7,"wdir":210,"wspd":12,"visib":"10+","altim":1008.9,"slp":1007.1,"qcField":6,"presTend":-1.6,"metarType":"METAR","rawOb":"METAR KLOL 112053Z AUTO 21012KT 10SM FEW080 16/M02 A2979 RMK AO2 SLP071 T01561017 56016","lat":40.0684,"lon":-118.5702,"elev":1191,"name":"Lovelock/Derby Fld, NV, US","cover":"FEW","clouds":[{"cover":"FEW","base":8000}],"fltCat":"VFR"},{"icaoId":"KMOD","receiptTime":"2026-04-11T20:56:32.185Z","obsTime":1775940780,"reportTime":"2026-04-11T21:00:00.000Z","temp":21.1,"dewp":9.4,"wdir":180,"wspd":7,"wgst":17,"visib":"10+","altim":1010.6,"slp":1010.4,"qcField":4,"presTend":-1.8,"precip":0.005,"pcp3hr":0.005,"metarType":"METAR","rawOb":"METAR KMOD 112053Z 18007G17KT 10SM FEW055 SCT075 BKN095 21/09 A2984 RMK AO2 RAB1954E05 SLP104 P0000 60000 T02110094 58018","lat":37.6254,"lon":-120.9549,"elev":25,"name":"Modesto/Sham Fld, CA, US","cover":"BKN","clouds":[{"cover":"FEW","base":5500},{"cover":"SCT","base":7500},{"cover":"BKN","base":9500}],"fltCat":"VFR"},{"icaoId":"KMYF","receiptTime":"2026-04-11T20:56:32.419Z","obsTime":1775940780,"reportTime":"2026-04-11T21:00:00.000Z","temp":21.1,"dewp":11.1,"wdir":280,"wspd":7,"wgst":19,"visib":"10+","altim":1016,"slp":1015.4,"qcField":4,"presTend":-1.3,"metarType":"METAR","rawOb":"METAR KMYF 112053Z 28007G19KT 10SM SCT036 21/11 A3000 RMK AO2 SLP154 T02110111 58013","lat":32.8145,"lon":-117.1375,"elev":128,"name":"San Diego/Montgomery Arpt, CA, US","cover":"SCT","clouds":[{"cover":"SCT","base":3600}],"fltCat":"VFR"},{"icaoId":"KOAK","receiptTime":"2026-04-11T20:56:32.452Z","obsTime":1775940780,"reportTime":"2026-04-11T21:00:00.000Z","temp":15.6,"dewp":11.7,"wdir":140,"wspd":19,"wgst":24,"visib":"10+","altim":1010.6,"slp":1010.5,"qcField":12,"presTend":-1.7,"pcp3hr":0.03,"metarType":"METAR","rawOb":"METAR KOAK 112053Z 14019G24KT 10SM FEW010 BKN044 OVC100 16/12 A2984 RMK AO2 PK WND 17028/2023 SLP105 60003 T01560117 58017 $","lat":37.7178,"lon":-122.233,"elev":3,"name":"Oakland Intl, CA, US","cover":"OVC","clouds":[{"cover":"FEW","base":1000},{"cover":"BKN","base":4400},{"cover":"OVC","base":10000}],"fltCat":"VFR"},{"icaoId":"KONT","receiptTime":"2026-04-11T20:56:29.030Z","obsTime":1775940780,"reportTime":"2026-04-11T21:00:00.000Z","temp":22.2,"dewp":8.3,"wdir":270,"wspd":10,"visib":"10+","altim":1015,"slp":1014,"qcField":12,"presTend":-1.9,"metarType":"METAR","rawOb":"METAR KONT 112053Z 27010KT 240V340 10SM BKN060 22/08 A2997 RMK AO2 SLP140 T02220083 58019 $","lat":34.0531,"lon":-117.5769,"elev":279,"name":"Ontario Intl, CA, US","cover":"BKN","clouds":[{"cover":"BKN","base":6000}],"fltCat":"VFR"},{"icaoId":"KPGA","receiptTime":"2026-04-11T20:56:29.491Z","obsTime":1775940780,"reportTime":"2026-04-11T21:00:00.000Z","temp":23.9,"dewp":-6.1,"wdir":200,"wspd":11,"wgst":20,"visib":"10+","altim":1011.6,"slp":1006,"qcField":14,"presTend":-2.2,"metarType":"METAR","rawOb":"METAR KPGA 112053Z AUTO 20011G20KT 10SM CLR 24/M06 A2987 RMK AO2 PK WND 23026/2008 SLP060 T02391061 56022 $","lat":36.9211,"lon":-111.4487,"elev":1310,"name":"Page Muni, AZ, US","cover":"CLR","clouds":[],"fltCat":"VFR"},{"icaoId":"KPRC","receiptTime":"2026-04-11T20:56:27.298Z","obsTime":1775940780,"reportTime":"2026-04-11T21:00:00.000Z","temp":18.9,"dewp":0.6,"wdir":190,"wspd":17,"wgst":28,"visib":"10+","altim":1016.7,"slp":1010.3,"qcField":4,"presTend":-1.5,"metarType":"METAR","rawOb":"METAR KPRC 112053Z 19017G28KT 10SM BKN080 19/01 A3002 RMK AO2 PK WND 23032/1954 SLP103 T01890006 58015","lat":34.6491,"lon":-112.4223,"elev":1528,"name":"Prescott/Love Fld, AZ, US","cover":"BKN","clouds":[{"cover":"BKN","base":8000}],"fltCat":"VFR"},{"icaoId":"KPSP","receiptTime":"2026-04-11T20:56:27.341Z","obsTime":1775940780,"reportTime":"2026-04-11T21:00:00.000Z","temp":28.3,"dewp":3.9,"wdir":340,"wspd":10,"visib":"10+","altim":1011.6,"slp":1011.2,"qcField":4,"presTend":-2.5,"metarType":"METAR","rawOb":"METAR KPSP 112053Z 34010KT 10SM CLR 28/04 A2987 RMK AO2 SLP112 T02830039 58025","lat":33.8222,"lon":-116.5043,"elev":123,"name":"Palm Springs Intl, CA, US","cover":"CLR","clouds":[],"fltCat":"VFR"},{"icaoId":"KRDD","receiptTime":"2026-04-11T20:56:27.585Z","obsTime":1775940780,"reportTime":"2026-04-11T21:00:00.000Z","temp":12.2,"dewp":9.4,"wdir":150,"wspd":12,"visib":"10+","altim":1006.9,"slp":1006.6,"qcField":4,"presTend":-1.3,"precip":0.04,"pcp3hr":0.04,"metarType":"METAR","rawOb":"METAR KRDD 112053Z 15012KT 10SM FEW048 BKN060 OVC100 12/09 A2973 RMK AO2 PK WND 17031/2026 LTG DSNT N-SE RAB19E51 SLP066 P0004 60004 T01220094 56013","lat":40.5146,"lon":-122.2977,"elev":152,"name":"Redding Muni, CA, US","cover":"OVC","clouds":[{"cover":"FEW","base":4800},{"cover":"BKN","base":6000},{"cover":"OVC","base":10000}],"fltCat":"VFR"},{"icaoId":"KSBA","receiptTime":"2026-04-11T20:56:27.030Z","obsTime":1775940780,"reportTime":"2026-04-11T21:00:00.000Z","temp":18.9,"dewp":11.7,"wdir":160,"wspd":8,"visib":"10+","altim":1016,"slp":1015.8,"qcField":12,"presTend":-0.9,"metarType":"METAR","rawOb":"METAR KSBA 112053Z 16008KT 10SM CLR 19/12 A3000 RMK AO2 SLP158 T01890117 56009 $","lat":34.4241,"lon":-119.8425,"elev":2,"name":"Santa Barbara Muni, CA, US","cover":"CLR","clouds":[],"fltCat":"VFR"},{"icaoId":"KSDL","receiptTime":"2026-04-11T20:56:27.073Z","obsTime":1775940780,"reportTime":"2026-04-11T21:00:00.000Z","temp":30,"dewp":3.3,"visib":"10+","altim":1011.9,"slp":1009.6,"qcField":4,"presTend":-2.8,"metarType":"METAR","rawOb":"METAR KSDL 112053Z 10SM CLR 30/03 A2988 RMK AO2 SLP096 T03000033 58028","lat":33.6123,"lon":-111.9232,"elev":438,"name":"Scottsdale Muni, AZ, US","cover":"CLR","clouds":[],"fltCat":"VFR"},{"icaoId":"KSJC","receiptTime":"2026-04-11T20:56:28.107Z","obsTime":1775940780,"reportTime":"2026-04-11T21:00:00.000Z","temp":15.6,"dewp":11.7,"wdir":180,"wspd":11,"wgst":19,"visib":"10+","altim":1011.6,"slp":1011.3,"qcField":12,"wxString":"-RA","presTend":-1.2,"precip":0.005,"pcp3hr":0.01,"metarType":"METAR","rawOb":"METAR KSJC 112053Z 18011G19KT 10SM -RA SCT018 BKN025 BKN040 16/12 A2987 RMK AO2 RAB11 SLP113 P0000 60001 T01560117 58012 $","lat":37.3594,"lon":-121.9244,"elev":13,"name":"San Jose Intl Arpt, CA, US","cover":"BKN","clouds":[{"cover":"SCT","base":1800},{"cover":"BKN","base":2500},{"cover":"BKN","base":4000}],"fltCat":"MVFR"},{"icaoId":"KSMF","receiptTime":"2026-04-11T20:56:28.140Z","obsTime":1775940780,"reportTime":"2026-04-11T21:00:00.000Z","temp":15.6,"dewp":11.7,"wdir":200,"wspd":17,"wgst":25,"visib":"10+","altim":1009.9,"slp":1009.8,"qcField":12,"presTend":-1.2,"precip":0.01,"pcp3hr":0.3,"metarType":"METAR","rawOb":"METAR KSMF 112053Z 20017G25KT 10SM SCT047 OVC060 16/12 A2982 RMK AO2 PK WND 21028/1957 LTG DSNT N-SE RAB04E17 TSE1957 SLP098 RAE1958 P0001 60030 T01560117 58012 $","lat":38.7007,"lon":-121.5948,"elev":7,"name":"Sacramento Intl, CA, US","cover":"OVC","clouds":[{"cover":"SCT","base":4700},{"cover":"OVC","base":6000}],"fltCat":"VFR"},{"icaoId":"KSNA","receiptTime":"2026-04-11T20:56:28.197Z","obsTime":1775940780,"reportTime":"2026-04-11T21:00:00.000Z","temp":20.6,"dewp":10.6,"wdir":230,"wspd":7,"visib":"10+","altim":1015.3,"slp":1015.2,"qcField":12,"presTend":-1.7,"metarType":"METAR","rawOb":"METAR KSNA 112053Z 23007KT 10SM FEW045 21/11 A2998 RMK AO2 SLP152 T02060106 58017 $","lat":33.6798,"lon":-117.8675,"elev":14,"name":"Santa Ana/Wayne Arpt, CA, US","cover":"FEW","clouds":[{"cover":"FEW","base":4500}],"fltCat":"VFR"},{"icaoId":"KTUS","receiptTime":"2026-04-11T20:56:26.805Z","obsTime":1775940780,"reportTime":"2026-04-11T21:00:00.000Z","temp":28.9,"dewp":1.1,"wdir":"VRB","wspd":6,"wgst":21,"visib":"10+","altim":1014.3,"slp":1010,"qcField":4,"presTend":-2.3,"metarType":"METAR","rawOb":"METAR KTUS 112053Z VRB06G21KT 10SM FEW100 29/01 A2995 RMK AO2 PK WND 26029/2040 SLP100 T02890011 56023","lat":32.1315,"lon":-110.9564,"elev":776,"name":"Tucson Intl Arpt, AZ, US","cover":"FEW","clouds":[{"cover":"FEW","base":10000}],"fltCat":"VFR"},{"icaoId":"KVGT","receiptTime":"2026-04-11T20:56:28.555Z","obsTime":1775940780,"reportTime":"2026-04-11T21:00:00.000Z","temp":25,"dewp":-3.3,"wdir":190,"wspd":19,"wgst":23,"visib":"10+","altim":1009.6,"slp":1009.3,"qcField":4,"presTend":-1.8,"metarType":"METAR","rawOb":"METAR KVGT 112053Z 19019G23KT 10SM CLR 25/M03 A2981 RMK AO2 PK WND 16027/2015 SLP093 T02501033 58018","lat":36.212,"lon":-115.194,"elev":664,"name":"Las Vegas/North Arpt, NV, US","cover":"CLR","clouds":[],"fltCat":"VFR"},{"icaoId":"KOXR","receiptTime":"2026-04-11T20:54:11.012Z","obsTime":1775940660,"reportTime":"2026-04-11T21:00:00.000Z","temp":19.4,"dewp":11.1,"wdir":230,"wspd":11,"visib":"10+","altim":1016,"slp":1015.8,"qcField":4,"presTend":-1.2,"metarType":"METAR","rawOb":"METAR KOXR 112051Z 23011KT 10SM FEW027 19/11 A3000 RMK AO2 SLP158 T01940111 58012","lat":34.2001,"lon":-119.2042,"elev":12,"name":"Oxnard Arpt, CA, US","cover":"FEW","clouds":[{"cover":"FEW","base":2700}],"fltCat":"VFR"},{"icaoId":"KVNY","receiptTime":"2026-04-11T20:54:11.361Z","obsTime":1775940660,"reportTime":"2026-04-11T21:00:00.000Z","temp":20.6,"dewp":6.1,"wdir":170,"wspd":9,"wgst":14,"visib":"10+","altim":1015,"slp":1014.3,"qcField":12,"presTend":-1.7,"metarType":"METAR","rawOb":"METAR KVNY 112051Z 17009G14KT 10SM CLR 21/06 A2997 RMK AO2 SLP143 T02060061 58017 $","lat":34.2121,"lon":-118.4915,"elev":241,"name":"Van Nuys Arpt, CA, US","cover":"CLR","clouds":[],"fltCat":"VFR"},{"icaoId":"KSAN","receiptTime":"2026-04-11T20:54:11.161Z","obsTime":1775940660,"reportTime":"2026-04-11T21:00:00.000Z","temp":21.7,"dewp":12.8,"wdir":310,"wspd":9,"visib":"10+","altim":1016.3,"slp":1016.3,"qcField":12,"presTend":-1.1,"metarType":"METAR","rawOb":"METAR KSAN 112051Z 31009KT 10SM FEW020 22/13 A3001 RMK AO2 SLP163 T02170128 58011 $","lat":32.7364,"lon":-117.1973,"elev":3,"name":"San Diego Intl Arpt, CA, US","cover":"FEW","clouds":[{"cover":"FEW","base":2000}],"fltCat":"VFR"},{"icaoId":"KIGM","receiptTime":"2026-04-11T20:54:12.251Z","obsTime":1775940660,"reportTime":"2026-04-11T21:00:00.000Z","temp":22.8,"dewp":-3.9,"wdir":230,"wspd":19,"wgst":31,"visib":"10+","altim":1013.6,"slp":1007.5,"qcField":6,"presTend":-1.6,"metarType":"METAR","rawOb":"METAR KIGM 112051Z AUTO 23019G31KT 10SM CLR 23/M04 A2993 RMK AO2 PK WND 23038/1956 SLP075 T02281039 58016","lat":35.2575,"lon":-113.9341,"elev":1045,"name":"Kingman Arpt, AZ, US","cover":"CLR","clouds":[],"fltCat":"VFR"},{"icaoId":"KSAD","receiptTime":"2026-04-11T20:54:11.147Z","obsTime":1775940660,"reportTime":"2026-04-11T21:00:00.000Z","temp":28.3,"dewp":-1.1,"wdir":0,"wspd":0,"visib":"10+","altim":1013.3,"slp":1008.6,"qcField":6,"presTend":-3,"metarType":"METAR","rawOb":"METAR KSAD 112051Z AUTO 00000KT 10SM CLR 28/M01 A2992 RMK AO2 SLP086 T02831011 56030","lat":32.8565,"lon":-109.636,"elev":937,"name":"Safford Rgnl, AZ, US","cover":"CLR","clouds":[],"fltCat":"VFR"},{"icaoId":"KPHX","receiptTime":"2026-04-11T20:54:11.025Z","obsTime":1775940660,"reportTime":"2026-04-11T21:00:00.000Z","temp":30.6,"dewp":3.9,"wdir":320,"wspd":9,"visib":"10+","altim":1010.6,"slp":1008.7,"qcField":4,"presTend":-2.9,"metarType":"METAR","rawOb":"METAR KPHX 112051Z 32009KT 10SM FEW090 SCT250 31/04 A2984 RMK AO2 SLP087 T03060039 56029","lat":33.4278,"lon":-112.0037,"elev":338,"name":"Phoenix/Sky Harbor Intl, AZ, US","cover":"SCT","clouds":[{"cover":"FEW","base":9000},{"cover":"SCT","base":25000}],"fltCat":"VFR"},{"icaoId":"KGYR","receiptTime":"2026-04-11T20:47:51.567Z","obsTime":1775940420,"reportTime":"2026-04-11T21:00:00.000Z","temp":31,"dewp":4,"wdir":240,"wspd":11,"wgst":19,"visib":"10+","altim":1011.6,"qcField":0,"metarType":"METAR","rawOb":"METAR KGYR 112047Z 24011G19KT 10SM SCT120 31/04 A2987","lat":33.428,"lon":-112.368,"elev":292,"name":"Phoenix/Goodyear Muni, AZ, US","cover":"SCT","clouds":[{"cover":"SCT","base":12000}],"fltCat":"VFR"},{"icaoId":"KCHD","receiptTime":"2026-04-11T20:47:51.429Z","obsTime":1775940420,"reportTime":"2026-04-11T21:00:00.000Z","temp":31,"dewp":3,"wdir":"VRB","wspd":3,"visib":"10+","altim":1011.3,"qcField":0,"metarType":"METAR","rawOb":"METAR KCHD 112047Z VRB03KT 10SM SCT110 31/03 A2986","lat":33.2669,"lon":-111.8086,"elev":378,"name":"Chandler Muni, AZ, US","cover":"SCT","clouds":[{"cover":"SCT","base":11000}],"fltCat":"VFR"},{"icaoId":"KIWA","receiptTime":"2026-04-11T20:48:30.041Z","obsTime":1775940420,"reportTime":"2026-04-11T21:00:00.000Z","temp":31,"dewp":3,"wdir":220,"wspd":15,"visib":"10+","altim":1012.3,"qcField":0,"metarType":"METAR","rawOb":"METAR KIWA 112047Z 22015KT 10SM SCT090 31/03 A2989","lat":33.3008,"lon":-111.6437,"elev":420,"name":"Phoenix/Mesa Gateway Arpt, AZ, US","cover":"SCT","clouds":[{"cover":"SCT","base":9000}],"fltCat":"VFR"},{"icaoId":"KIFP","receiptTime":"2026-04-11T20:48:30.009Z","obsTime":1775940420,"reportTime":"2026-04-11T21:00:00.000Z","temp":28,"dewp":1,"wdir":200,"wspd":14,"visib":20,"altim":1009.6,"qcField":0,"metarType":"METAR","rawOb":"METAR KIFP 112047Z 20014KT 20SM FEW140 28/01 A2981","lat":35.1487,"lon":-114.5611,"elev":210,"name":"Bullhead City Intl, AZ, US","cover":"FEW","clouds":[{"cover":"FEW","base":14000}],"fltCat":"VFR"},{"icaoId":"KRYN","receiptTime":"2026-04-11T20:46:37.909Z","obsTime":1775940300,"reportTime":"2026-04-11T21:00:00.000Z","temp":31,"dewp":0,"wdir":220,"wspd":14,"wgst":21,"visib":"10+","altim":1013.3,"qcField":0,"metarType":"METAR","rawOb":"METAR KRYN 112045Z 22014G21KT 10SM CLR 31/00 A2992","lat":32.1418,"lon":-111.1767,"elev":731,"name":"Tucson/Ryan Fld, AZ, US","cover":"CLR","clouds":[],"fltCat":"VFR"}]