[{"icaoId":"KRYN","receiptTime":"2026-04-08T16:45:38.979Z","obsTime":1775666700,"reportTime":"2026-04-08T17:00:00.000Z","temp":28,"dewp":0,"wdir":100,"wspd":4,"visib":"10+","altim":1014,"qcField":0,"metarType":"METAR","rawOb":"METAR KRYN 081645Z 10004KT 10SM CLR 28/00 A2994","lat":32.1418,"lon":-111.1767,"elev":731,"name":"Tucson/Ryan Fld, AZ, US","cover":"CLR","clouds":[],"fltCat":"VFR"},{"icaoId":"KSEZ","receiptTime":"2026-04-08T16:38:21.758Z","obsTime":1775666100,"reportTime":"2026-04-08T16:35:00.000Z","temp":21,"dewp":-4,"wdir":"VRB","wspd":5,"visib":"10+","altim":1019,"qcField":6,"metarType":"METAR","rawOb":"METAR KSEZ 081635Z AUTO VRB05KT 10SM CLR 21/M04 A3009 RMK AO2","lat":34.8467,"lon":-111.7884,"elev":1455,"name":"Sedona Arpt, AZ, US","cover":"CLR","clouds":[],"fltCat":"VFR"},{"icaoId":"KSOW","receiptTime":"2026-04-08T16:38:15.809Z","obsTime":1775666100,"reportTime":"2026-04-08T16:35:00.000Z","temp":18,"dewp":-3,"wdir":0,"wspd":0,"visib":"10+","altim":1022.1,"qcField":6,"metarType":"METAR","rawOb":"METAR KSOW 081635Z AUTO 00000KT 10SM CLR 18/M03 A3018 RMK AO2","lat":34.2686,"lon":-110.0019,"elev":1954,"name":"Show Low Muni, AZ, US","cover":"CLR","clouds":[],"fltCat":"VFR"},{"icaoId":"KHII","receiptTime":"2026-04-08T16:40:19.027Z","obsTime":1775666100,"reportTime":"2026-04-08T16:35:00.000Z","temp":26,"dewp":-3,"wdir":290,"wspd":4,"visib":"10+","altim":1011.3,"qcField":6,"metarType":"METAR","rawOb":"METAR KHII 081635Z AUTO 29004KT 10SM CLR 26/M03 A2986 RMK AO2","lat":34.5659,"lon":-114.3522,"elev":241,"name":"Lake Havasu City Arpt, AZ, US","cover":"CLR","clouds":[],"fltCat":"VFR"},{"icaoId":"KNYL","receiptTime":"2026-04-08T16:02:06.454Z","obsTime":1775663820,"reportTime":"2026-04-08T16:00:00.000Z","temp":26.1,"dewp":3.9,"wdir":"VRB","wspd":3,"visib":"10+","altim":1010.2,"slp":1009.9,"qcField":4,"metarType":"METAR","rawOb":"METAR KNYL 081557Z VRB03KT 10SM CLR 26/04 A2983 RMK AO2 SLP099 T02610039","lat":32.66,"lon":-114.6078,"elev":58,"name":"Yuma , AZ, US","cover":"CLR","clouds":[],"fltCat":"VFR"},{"icaoId":"KFLG","receiptTime":"2026-04-08T16:00:24.193Z","obsTime":1775663820,"reportTime":"2026-04-08T16:00:00.000Z","temp":16.1,"dewp":-8.3,"wdir":"VRB","wspd":6,"visib":"10+","altim":1022.1,"slp":1014.6,"qcField":4,"metarType":"METAR","rawOb":"METAR KFLG 081557Z VRB06KT 10SM CLR 16/M08 A3018 RMK AO2 SLP146 T01611083","lat":35.1443,"lon":-111.6664,"elev":2134,"name":"Flagstaff/Pulliam Arpt, AZ, US","cover":"CLR","clouds":[],"fltCat":"VFR"},{"icaoId":"KDUG","receiptTime":"2026-04-08T16:02:33.195Z","obsTime":1775663760,"reportTime":"2026-04-08T16:00:00.000Z","temp":19.4,"dewp":3.3,"wdir":300,"wspd":3,"visib":"10+","altim":1018,"slp":1012.6,"qcField":38,"metarType":"METAR","rawOb":"METAR KDUG 081556Z AUTO 30003KT 10SM CLR 19/03 A3006 RMK AO2 SLP126 T01940033 TSNO","lat":31.4725,"lon":-109.6022,"elev":1260,"name":"Douglas/Bisbee Intl, AZ, US","cover":"CLR","clouds":[],"fltCat":"VFR"},{"icaoId":"KCGZ","receiptTime":"2026-04-08T15:58:46.063Z","obsTime":1775663760,"reportTime":"2026-04-08T16:00:00.000Z","temp":23.9,"dewp":1.7,"wdir":"VRB","wspd":3,"visib":"10+","altim":1013.3,"slp":1011.9,"qcField":14,"metarType":"METAR","rawOb":"METAR KCGZ 081556Z AUTO VRB03KT 10SM CLR 24/02 A2992 RMK AO2 SLP119 T02390017 $","lat":32.9531,"lon":-111.7725,"elev":444,"name":"Casa Granda Muni, AZ, US","cover":"CLR","clouds":[],"fltCat":"VFR"},{"icaoId":"KINW","receiptTime":"2026-04-08T16:00:15.541Z","obsTime":1775663760,"reportTime":"2026-04-08T16:00:00.000Z","temp":13.9,"dewp":3.9,"wdir":90,"wspd":4,"visib":"10+","altim":1019.4,"slp":1014.7,"qcField":6,"metarType":"METAR","rawOb":"METAR KINW 081556Z AUTO 09004KT 10SM CLR 14/04 A3010 RMK AO2 SLP147 T01390039","lat":35.0279,"lon":-110.7221,"elev":1492,"name":"Winslow/Lindberg Rgnl, AZ, US","cover":"CLR","clouds":[],"fltCat":"VFR"},{"icaoId":"KLUF","receiptTime":"2026-04-08T16:06:04.926Z","obsTime":1775663700,"reportTime":"2026-04-08T16:00:00.000Z","temp":25.4,"dewp":-1.4,"wdir":0,"wspd":0,"visib":"10+","altim":1011.9,"slp":1010.6,"qcField":14,"metarType":"METAR","rawOb":"METAR KLUF 081555Z AUTO 00000KT 10SM CLR 25/M01 A2988 RMK AO2 SLP106 T02541014 $","lat":33.538,"lon":-112.38,"elev":333,"name":"Phoenix/Luke AFB, AZ, US","cover":"CLR","clouds":[],"fltCat":"VFR"},{"icaoId":"KGCN","receiptTime":"2026-04-08T15:58:27.350Z","obsTime":1775663640,"reportTime":"2026-04-08T16:00:00.000Z","temp":15.6,"dewp":-5.6,"wdir":210,"wspd":5,"visib":"10+","altim":1021.4,"slp":1015.7,"qcField":4,"metarType":"METAR","rawOb":"METAR KGCN 081554Z 21005KT 10SM CLR 16/M06 A3016 RMK AO2 SLP157 T01561056","lat":35.9458,"lon":-112.1554,"elev":1993,"name":"Grand Canyon Park Arpt, AZ, US","cover":"CLR","clouds":[],"fltCat":"VFR"},{"icaoId":"KSJN","receiptTime":"2026-04-08T15:58:20.245Z","obsTime":1775663640,"reportTime":"2026-04-08T16:00:00.000Z","temp":13.9,"dewp":2.8,"wdir":0,"wspd":0,"visib":"10+","altim":1020.1,"slp":1014,"qcField":6,"metarType":"METAR","rawOb":"METAR KSJN 081554Z AUTO 00000KT 10SM CLR 14/03 A3012 RMK AO2 SLP140 T01390028","lat":34.5184,"lon":-109.3801,"elev":1747,"name":"St Johns Ind Arpt, AZ, US","cover":"CLR","clouds":[],"fltCat":"VFR"},{"icaoId":"KOLS","receiptTime":"2026-04-08T15:58:21.955Z","obsTime":1775663640,"reportTime":"2026-04-08T16:00:00.000Z","temp":20,"dewp":2.2,"wdir":200,"wspd":3,"visib":"10+","altim":1017,"slp":1011.5,"qcField":6,"wxString":"-RA","precip":0.005,"metarType":"METAR","rawOb":"METAR KOLS 081554Z AUTO 20003KT 10SM -RA CLR 20/02 A3003 RMK AO2 RAB47 SLP115 P0000 T02000022","lat":31.4208,"lon":-110.8465,"elev":1194,"name":"Nogales Intl, AZ, US","cover":"CLR","clouds":[],"fltCat":"VFR"},{"icaoId":"KFFZ","receiptTime":"2026-04-08T16:00:11.950Z","obsTime":1775663640,"reportTime":"2026-04-08T16:00:00.000Z","temp":25,"dewp":1.1,"wdir":40,"wspd":5,"visib":"10+","altim":1012.6,"slp":1010.3,"qcField":4,"metarType":"METAR","rawOb":"METAR KFFZ 081554Z 04005KT 10SM CLR 25/01 A2990 RMK AO2 SLP103 T02500011","lat":33.4659,"lon":-111.7212,"elev":420,"name":"Mesa/Falcon Fld, AZ, US","cover":"CLR","clouds":[],"fltCat":"VFR"},{"icaoId":"KTUS","receiptTime":"2026-04-08T15:56:32.587Z","obsTime":1775663580,"reportTime":"2026-04-08T16:00:00.000Z","temp":22.2,"dewp":1.7,"wdir":140,"wspd":4,"visib":"10+","altim":1015.3,"slp":1011.3,"qcField":4,"metarType":"METAR","rawOb":"METAR KTUS 081553Z 14004KT 10SM CLR 22/02 A2998 RMK AO2 SLP113 T02220017","lat":32.1315,"lon":-110.9564,"elev":776,"name":"Tucson Intl Arpt, AZ, US","cover":"CLR","clouds":[],"fltCat":"VFR"},{"icaoId":"KPGA","receiptTime":"2026-04-08T15:56:32.879Z","obsTime":1775663580,"reportTime":"2026-04-08T16:00:00.000Z","temp":18.3,"dewp":-8.9,"wdir":50,"wspd":3,"visib":"10+","altim":1016.7,"slp":1011.4,"qcField":14,"metarType":"METAR","rawOb":"METAR KPGA 081553Z AUTO 05003KT 10SM CLR 18/M09 A3002 RMK AO2 SLP114 T01831089 $","lat":36.9211,"lon":-111.4487,"elev":1310,"name":"Page Muni, AZ, US","cover":"CLR","clouds":[],"fltCat":"VFR"},{"icaoId":"KPRC","receiptTime":"2026-04-08T15:56:32.922Z","obsTime":1775663580,"reportTime":"2026-04-08T16:00:00.000Z","temp":18.3,"dewp":-4.4,"wdir":30,"wspd":3,"visib":"10+","altim":1019.4,"slp":1012.5,"qcField":4,"metarType":"METAR","rawOb":"METAR KPRC 081553Z 03003KT 10SM CLR 18/M04 A3010 RMK AO2 SLP125 T01831044","lat":34.6491,"lon":-112.4223,"elev":1528,"name":"Prescott/Love Fld, AZ, US","cover":"CLR","clouds":[],"fltCat":"VFR"},{"icaoId":"KDVT","receiptTime":"2026-04-08T15:56:32.490Z","obsTime":1775663580,"reportTime":"2026-04-08T16:00:00.000Z","temp":26.1,"dewp":-1.1,"wdir":0,"wspd":0,"visib":"10+","altim":1013,"slp":1010.5,"qcField":4,"metarType":"METAR","rawOb":"METAR KDVT 081553Z 00000KT 10SM CLR 26/M01 A2991 RMK AO2 SLP105 T02611011","lat":33.6902,"lon":-112.0662,"elev":454,"name":"Phoenix/Deer Valley Arpt, AZ, US","cover":"CLR","clouds":[],"fltCat":"VFR"},{"icaoId":"KSDL","receiptTime":"2026-04-08T15:56:35.406Z","obsTime":1775663580,"reportTime":"2026-04-08T16:00:00.000Z","temp":24.4,"dewp":2.2,"wdir":0,"wspd":0,"visib":"10+","altim":1013,"slp":1010.6,"qcField":4,"metarType":"METAR","rawOb":"METAR KSDL 081553Z 00000KT 10SM CLR 24/02 A2991 RMK AO2 SLP106 T02440022","lat":33.6123,"lon":-111.9232,"elev":438,"name":"Scottsdale Muni, AZ, US","cover":"CLR","clouds":[],"fltCat":"VFR"},{"icaoId":"KPHX","receiptTime":"2026-04-08T15:54:07.687Z","obsTime":1775663460,"reportTime":"2026-04-08T16:00:00.000Z","temp":26.1,"dewp":1.1,"wdir":120,"wspd":6,"visib":"10+","altim":1011.9,"slp":1010.1,"qcField":4,"metarType":"METAR","rawOb":"METAR KPHX 081551Z 12006KT 10SM CLR 26/01 A2988 RMK AO2 SLP101 T02610011","lat":33.4278,"lon":-112.0037,"elev":338,"name":"Phoenix/Sky Harbor Intl, AZ, US","cover":"CLR","clouds":[],"fltCat":"VFR"},{"icaoId":"KIGM","receiptTime":"2026-04-08T15:54:08.638Z","obsTime":1775663460,"reportTime":"2026-04-08T16:00:00.000Z","temp":24.4,"dewp":-6.1,"wdir":120,"wspd":10,"visib":"10+","altim":1015.7,"slp":1009.3,"qcField":6,"metarType":"METAR","rawOb":"METAR KIGM 081551Z AUTO 12010KT 10SM CLR 24/M06 A2999 RMK AO2 SLP093 T02441061","lat":35.2575,"lon":-113.9341,"elev":1045,"name":"Kingman Arpt, AZ, US","cover":"CLR","clouds":[],"fltCat":"VFR"},{"icaoId":"KSAD","receiptTime":"2026-04-08T15:54:07.785Z","obsTime":1775663460,"reportTime":"2026-04-08T16:00:00.000Z","temp":21.7,"dewp":2.8,"wdir":110,"wspd":12,"visib":"10+","altim":1016.3,"slp":1012.1,"qcField":6,"metarType":"METAR","rawOb":"METAR KSAD 081551Z AUTO 11012KT 10SM CLR 22/03 A3001 RMK AO2 SLP121 T02170028","lat":32.8565,"lon":-109.636,"elev":937,"name":"Safford Rgnl, AZ, US","cover":"CLR","clouds":[],"fltCat":"VFR"},{"icaoId":"KGEU","receiptTime":"2026-04-08T15:50:40.273Z","obsTime":1775663220,"reportTime":"2026-04-08T16:00:00.000Z","temp":24,"dewp":0,"wdir":"VRB","wspd":3,"visib":"10+","altim":1011.6,"qcField":0,"metarType":"METAR","rawOb":"METAR KGEU 081547Z VRB03KT 10SM CLR 24/00 A2987","lat":33.528,"lon":-112.293,"elev":319,"name":"Glendale Muni, AZ, US","cover":"CLR","clouds":[],"fltCat":"VFR"},{"icaoId":"KGYR","receiptTime":"2026-04-08T15:59:09.558Z","obsTime":1775663220,"reportTime":"2026-04-08T16:00:00.000Z","temp":24,"dewp":2,"wdir":"VRB","wspd":4,"visib":"10+","altim":1012.6,"qcField":0,"metarType":"METAR","rawOb":"METAR KGYR 081547Z VRB04KT 10SM SKC 24/02 A2990","lat":33.428,"lon":-112.368,"elev":292,"name":"Phoenix/Goodyear Muni, AZ, US","cover":"SKC","clouds":[],"fltCat":"VFR"},{"icaoId":"KCHD","receiptTime":"2026-04-08T15:53:27.764Z","obsTime":1775663220,"reportTime":"2026-04-08T16:00:00.000Z","temp":24,"dewp":4,"wdir":0,"wspd":0,"visib":"10+","altim":1013,"qcField":0,"metarType":"METAR","rawOb":"METAR KCHD 081547Z 00000KT 10SM CLR 24/04 A2991","lat":33.2669,"lon":-111.8086,"elev":378,"name":"Chandler Muni, AZ, US","cover":"CLR","clouds":[],"fltCat":"VFR"},{"icaoId":"KIFP","receiptTime":"2026-04-08T15:53:06.765Z","obsTime":1775663220,"reportTime":"2026-04-08T16:00:00.000Z","temp":23,"dewp":-5,"visib":"10+","altim":1010.9,"qcField":0,"metarType":"METAR","rawOb":"METAR KIFP 081547Z CALMKT 10SM CLR 23/M05 A2985","lat":35.1487,"lon":-114.5611,"elev":210,"name":"Bullhead City Intl, AZ, US","cover":"CLR","clouds":[],"fltCat":"VFR"},{"icaoId":"KIWA","receiptTime":"2026-04-08T15:52:21.836Z","obsTime":1775663220,"reportTime":"2026-04-08T16:00:00.000Z","temp":25,"dewp":2,"wdir":130,"wspd":7,"visib":"10+","altim":1013.3,"qcField":0,"metarType":"METAR","rawOb":"METAR KIWA 081547Z 13007KT 10SM CLR 25/02 A2992","lat":33.3008,"lon":-111.6437,"elev":420,"name":"Phoenix/Mesa Gateway Arpt, AZ, US","cover":"CLR","clouds":[],"fltCat":"VFR"}]