[{"icaoId":"KNYL","receiptTime":"2026-04-09T12:00:25.115Z","obsTime":1775735820,"reportTime":"2026-04-09T12:00:00.000Z","temp":20.6,"dewp":2.2,"wdir":0,"wspd":0,"visib":"10+","altim":1008.9,"slp":1008.3,"qcField":6,"presTend":0.1,"maxT":26.1,"minT":20.6,"metarType":"METAR","rawOb":"METAR KNYL 091157Z AUTO 00000KT 10SM CLR 21/02 A2979 RMK AO2 SLP083 T02060022 10261 20206 53001","lat":32.66,"lon":-114.6078,"elev":58,"name":"Yuma , AZ, US","cover":"CLR","clouds":[],"fltCat":"VFR"},{"icaoId":"KFLG","receiptTime":"2026-04-09T12:00:27.136Z","obsTime":1775735820,"reportTime":"2026-04-09T12:00:00.000Z","temp":1.1,"dewp":-6.1,"wdir":0,"wspd":0,"visib":"10+","altim":1020.4,"slp":1013.4,"qcField":6,"presTend":-0.1,"maxT":5.6,"minT":1.1,"metarType":"METAR","rawOb":"METAR KFLG 091157Z AUTO 00000KT 10SM CLR 01/M06 A3013 RMK AO2 SLP134 T00111061 10056 20011 55001","lat":35.1443,"lon":-111.6664,"elev":2134,"name":"Flagstaff/Pulliam Arpt, AZ, US","cover":"CLR","clouds":[],"fltCat":"VFR"},{"icaoId":"KINW","receiptTime":"2026-04-09T12:00:17.309Z","obsTime":1775735760,"reportTime":"2026-04-09T12:00:00.000Z","temp":7.2,"dewp":0,"wdir":150,"wspd":3,"visib":"10+","altim":1017.7,"slp":1012.5,"qcField":6,"presTend":0.5,"maxT":15.6,"minT":7.2,"metarType":"METAR","rawOb":"METAR KINW 091156Z AUTO 15003KT 10SM CLR 07/00 A3005 RMK AO2 SLP125 T00720000 10156 20072 53005","lat":35.0279,"lon":-110.7221,"elev":1492,"name":"Winslow/Lindberg Rgnl, AZ, US","cover":"CLR","clouds":[],"fltCat":"VFR"},{"icaoId":"KCGZ","receiptTime":"2026-04-09T11:58:25.989Z","obsTime":1775735760,"reportTime":"2026-04-09T12:00:00.000Z","temp":16.7,"dewp":-3.3,"wdir":70,"wspd":4,"visib":"10+","altim":1011.6,"slp":1010.3,"qcField":14,"presTend":0.8,"maxT":24.4,"minT":15.6,"metarType":"METAR","rawOb":"METAR KCGZ 091156Z AUTO 07004KT 10SM CLR 17/M03 A2987 RMK AO2 SLP103 6//// 7//// T01671033 10244 20156 53008 $","lat":32.9531,"lon":-111.7725,"elev":444,"name":"Casa Granda Muni, AZ, US","cover":"CLR","clouds":[],"fltCat":"VFR"},{"icaoId":"KDUG","receiptTime":"2026-04-09T12:02:10.561Z","obsTime":1775735760,"reportTime":"2026-04-09T12:00:00.000Z","temp":12.2,"dewp":-2.2,"wdir":80,"wspd":4,"visib":"10+","altim":1016.7,"slp":1010.9,"qcField":38,"presTend":0.5,"maxT":19.4,"minT":10.6,"metarType":"METAR","rawOb":"METAR KDUG 091156Z AUTO 08004KT 10SM CLR 12/M02 A3002 RMK AO2 SLP109 T01221022 10194 20106 53005 TSNO","lat":31.4725,"lon":-109.6022,"elev":1260,"name":"Douglas/Bisbee Intl, AZ, US","cover":"CLR","clouds":[],"fltCat":"VFR"},{"icaoId":"KSOW","receiptTime":"2026-04-09T11:58:32.345Z","obsTime":1775735700,"reportTime":"2026-04-09T12:00:00.000Z","temp":7,"dewp":-4,"wdir":170,"wspd":3,"visib":"10+","altim":1020.4,"qcField":6,"metarType":"METAR","rawOb":"METAR KSOW 091155Z AUTO 17003KT 10SM CLR 07/M04 A3013 RMK AO2","lat":34.2686,"lon":-110.0019,"elev":1954,"name":"Show Low Muni, AZ, US","cover":"CLR","clouds":[],"fltCat":"VFR"},{"icaoId":"KSEZ","receiptTime":"2026-04-09T11:58:23.485Z","obsTime":1775735700,"reportTime":"2026-04-09T12:00:00.000Z","temp":14,"dewp":-5,"wdir":30,"wspd":12,"visib":"10+","altim":1016.7,"qcField":6,"metarType":"METAR","rawOb":"METAR KSEZ 091155Z AUTO 03012KT 10SM CLR 14/M05 A3002 RMK AO2","lat":34.8467,"lon":-111.7884,"elev":1455,"name":"Sedona Arpt, AZ, US","cover":"CLR","clouds":[],"fltCat":"VFR"},{"icaoId":"KCHD","receiptTime":"2026-04-09T11:58:26.018Z","obsTime":1775735700,"reportTime":"2026-04-09T12:00:00.000Z","temp":16.8,"dewp":3.6,"wdir":0,"wspd":0,"visib":"10+","altim":1010.9,"qcField":14,"metarType":"METAR","rawOb":"METAR KCHD 091155Z AUTO 00000KT 10SM CLR 17/04 A2985 RMK AO2 T01680036 $","lat":33.2669,"lon":-111.8086,"elev":378,"name":"Chandler Muni, AZ, US","cover":"CLR","clouds":[],"fltCat":"VFR"},{"icaoId":"KHII","receiptTime":"2026-04-09T12:00:27.640Z","obsTime":1775735700,"reportTime":"2026-04-09T12:00:00.000Z","temp":24,"dewp":-2,"wdir":0,"wspd":0,"visib":"10+","altim":1008.2,"qcField":6,"metarType":"METAR","rawOb":"METAR KHII 091155Z AUTO 00000KT 10SM CLR 24/M02 A2977 RMK AO2","lat":34.5659,"lon":-114.3522,"elev":241,"name":"Lake Havasu City Arpt, AZ, US","cover":"CLR","clouds":[],"fltCat":"VFR"},{"icaoId":"KIFP","receiptTime":"2026-04-09T12:00:28.051Z","obsTime":1775735700,"reportTime":"2026-04-09T12:00:00.000Z","temp":21,"dewp":-4,"wdir":0,"wspd":0,"visib":"10+","altim":1007.9,"qcField":6,"metarType":"METAR","rawOb":"METAR KIFP 091155Z AUTO 00000KT 10SM CLR 21/M04 A2976 RMK AO2","lat":35.1487,"lon":-114.5611,"elev":210,"name":"Bullhead City Intl, AZ, US","cover":"CLR","clouds":[],"fltCat":"VFR"},{"icaoId":"KGCN","receiptTime":"2026-04-09T11:58:06.194Z","obsTime":1775735640,"reportTime":"2026-04-09T12:00:00.000Z","temp":-1.1,"dewp":-3.9,"wdir":0,"wspd":0,"visib":"10+","altim":1019.7,"slp":1014,"qcField":6,"presTend":-0.2,"maxT":5.6,"minT":-1.1,"metarType":"METAR","rawOb":"METAR KGCN 091154Z AUTO 00000KT 10SM CLR M01/M04 A3011 RMK AO2 SLP140 T10111039 10056 21011 55002","lat":35.9458,"lon":-112.1554,"elev":1993,"name":"Grand Canyon Park Arpt, AZ, US","cover":"CLR","clouds":[],"fltCat":"VFR"},{"icaoId":"KOLS","receiptTime":"2026-04-09T11:58:05.369Z","obsTime":1775735640,"reportTime":"2026-04-09T12:00:00.000Z","temp":12.8,"dewp":-4.4,"wdir":0,"wspd":0,"visib":"10+","altim":1016.3,"slp":1010.7,"qcField":6,"presTend":-0.1,"maxT":18.3,"minT":11.7,"metarType":"METAR","rawOb":"METAR KOLS 091154Z AUTO 00000KT 10SM CLR 13/M04 A3001 RMK AO2 SLP107 T01281044 10183 20117 55001","lat":31.4208,"lon":-110.8465,"elev":1194,"name":"Nogales Intl, AZ, US","cover":"CLR","clouds":[],"fltCat":"VFR"},{"icaoId":"KSJN","receiptTime":"2026-04-09T11:58:11.417Z","obsTime":1775735640,"reportTime":"2026-04-09T12:00:00.000Z","temp":6.7,"dewp":-1.1,"wdir":180,"wspd":4,"visib":"10+","altim":1019,"slp":1012.2,"qcField":6,"presTend":0.4,"maxT":12.8,"minT":6.7,"metarType":"METAR","rawOb":"METAR KSJN 091154Z AUTO 18004KT 10SM CLR 07/M01 A3009 RMK AO2 SLP122 T00671011 10128 20067 53004","lat":34.5184,"lon":-109.3801,"elev":1747,"name":"St Johns Ind Arpt, AZ, US","cover":"CLR","clouds":[],"fltCat":"VFR"},{"icaoId":"KFFZ","receiptTime":"2026-04-09T11:58:34.990Z","obsTime":1775735640,"reportTime":"2026-04-09T12:00:00.000Z","temp":22.2,"dewp":-2.2,"wdir":0,"wspd":0,"visib":"10+","altim":1010.6,"slp":1008.2,"qcField":38,"presTend":0.8,"maxT":25.6,"minT":20.6,"metarType":"METAR","rawOb":"METAR KFFZ 091154Z AUTO 00000KT 10SM CLR 22/M02 A2984 RMK AO2 SLP082 T02221022 10256 20206 53008 TSNO","lat":33.4659,"lon":-111.7212,"elev":420,"name":"Mesa/Falcon Fld, AZ, US","cover":"CLR","clouds":[],"fltCat":"VFR"},{"icaoId":"KTUS","receiptTime":"2026-04-09T11:56:29.294Z","obsTime":1775735580,"reportTime":"2026-04-09T12:00:00.000Z","temp":17.8,"dewp":-3.9,"wdir":140,"wspd":5,"visib":"10+","altim":1014.3,"slp":1009.9,"qcField":4,"presTend":0.1,"maxT":23.9,"minT":17.8,"metarType":"METAR","rawOb":"METAR KTUS 091153Z 14005KT 10SM CLR 18/M04 A2995 RMK AO2 SLP099 T01781039 10239 20178 53001","lat":32.1315,"lon":-110.9564,"elev":776,"name":"Tucson Intl Arpt, AZ, US","cover":"CLR","clouds":[],"fltCat":"VFR"},{"icaoId":"KPGA","receiptTime":"2026-04-09T11:56:29.054Z","obsTime":1775735580,"reportTime":"2026-04-09T12:00:00.000Z","temp":13.9,"dewp":-8.9,"wdir":0,"wspd":0,"visib":"10+","altim":1014.6,"slp":1009.1,"qcField":14,"presTend":0.3,"maxT":20,"minT":13.3,"metarType":"METAR","rawOb":"METAR KPGA 091153Z AUTO 00000KT 10SM CLR 14/M09 A2996 RMK AO2 SLP091 T01391089 10200 20133 51003 $","lat":36.9211,"lon":-111.4487,"elev":1310,"name":"Page Muni, AZ, US","cover":"CLR","clouds":[],"fltCat":"VFR"},{"icaoId":"KSDL","receiptTime":"2026-04-09T11:56:31.056Z","obsTime":1775735580,"reportTime":"2026-04-09T12:00:00.000Z","temp":18.9,"dewp":1.1,"wdir":190,"wspd":3,"visib":"10+","altim":1011.3,"slp":1008.8,"qcField":6,"presTend":0.8,"maxT":25,"minT":18.9,"metarType":"METAR","rawOb":"METAR KSDL 091153Z AUTO 19003KT 10SM CLR 19/01 A2986 RMK AO2 SLP088 T01890011 10250 20189 53008","lat":33.6123,"lon":-111.9232,"elev":438,"name":"Scottsdale Muni, AZ, US","cover":"CLR","clouds":[],"fltCat":"VFR"},{"icaoId":"KDVT","receiptTime":"2026-04-09T11:56:31.456Z","obsTime":1775735580,"reportTime":"2026-04-09T12:00:00.000Z","temp":17.8,"dewp":-3.3,"wdir":0,"wspd":0,"visib":"10+","altim":1010.9,"slp":1008.6,"qcField":6,"presTend":0.7,"maxT":25,"minT":16.7,"metarType":"METAR","rawOb":"METAR KDVT 091153Z AUTO 00000KT 10SM CLR 18/M03 A2985 RMK AO2 SLP086 T01781033 10250 20167 53007","lat":33.6902,"lon":-112.0662,"elev":454,"name":"Phoenix/Deer Valley Arpt, AZ, US","cover":"CLR","clouds":[],"fltCat":"VFR"},{"icaoId":"KPRC","receiptTime":"2026-04-09T11:56:20.974Z","obsTime":1775735580,"reportTime":"2026-04-09T12:00:00.000Z","temp":10.6,"dewp":-2.8,"wdir":190,"wspd":8,"visib":"10+","altim":1017,"slp":1010.3,"qcField":6,"maxT":15.6,"minT":8.3,"metarType":"METAR","rawOb":"METAR KPRC 091153Z AUTO 19008KT 10SM CLR 11/M03 A3003 RMK AO2 SLP103 T01061028 10156 20083 58000","lat":34.6491,"lon":-112.4223,"elev":1528,"name":"Prescott/Love Fld, AZ, US","cover":"CLR","clouds":[],"fltCat":"VFR"},{"icaoId":"KIGM","receiptTime":"2026-04-09T11:54:07.979Z","obsTime":1775735460,"reportTime":"2026-04-09T12:00:00.000Z","temp":16.1,"dewp":-3.3,"wdir":180,"wspd":8,"visib":"10+","altim":1013,"slp":1006.4,"qcField":6,"presTend":-0.3,"maxT":18.9,"minT":15.6,"metarType":"METAR","rawOb":"METAR KIGM 091151Z AUTO 18008KT 10SM CLR 16/M03 A2991 RMK AO2 SLP064 T01611033 10189 20156 58003","lat":35.2575,"lon":-113.9341,"elev":1045,"name":"Kingman Arpt, AZ, US","cover":"CLR","clouds":[],"fltCat":"VFR"},{"icaoId":"KSAD","receiptTime":"2026-04-09T11:54:08.171Z","obsTime":1775735460,"reportTime":"2026-04-09T12:00:00.000Z","temp":13.3,"dewp":-6.1,"wdir":"VRB","wspd":3,"visib":"10+","altim":1013.6,"slp":1009.3,"qcField":6,"presTend":0.3,"maxT":18.9,"minT":12.2,"metarType":"METAR","rawOb":"METAR KSAD 091151Z AUTO VRB03KT 10SM CLR 13/M06 A2993 RMK AO2 SLP093 T01331061 10189 20122 52003","lat":32.8565,"lon":-109.636,"elev":937,"name":"Safford Rgnl, AZ, US","cover":"CLR","clouds":[],"fltCat":"VFR"},{"icaoId":"KPHX","receiptTime":"2026-04-09T11:54:07.010Z","obsTime":1775735460,"reportTime":"2026-04-09T12:00:00.000Z","temp":21.7,"dewp":0,"wdir":80,"wspd":7,"visib":"10+","altim":1009.9,"slp":1008,"qcField":4,"presTend":0.9,"maxT":27.8,"minT":21.1,"metarType":"METAR","rawOb":"METAR KPHX 091151Z 08007KT 10SM CLR 22/00 A2982 RMK AO2 SLP080 T02170000 10278 20211 53009","lat":33.4278,"lon":-112.0037,"elev":338,"name":"Phoenix/Sky Harbor Intl, AZ, US","cover":"CLR","clouds":[],"fltCat":"VFR"},{"icaoId":"KIWA","receiptTime":"2026-04-09T11:53:32.725Z","obsTime":1775735400,"reportTime":"2026-04-09T12:00:00.000Z","temp":19,"dewp":-2,"wdir":110,"wspd":9,"visib":"10+","altim":1011.3,"qcField":0,"metarType":"METAR","rawOb":"METAR KIWA 091150Z 11009KT 10SM CLR 19/M02 A2986","lat":33.3008,"lon":-111.6437,"elev":420,"name":"Phoenix/Mesa Gateway Arpt, AZ, US","cover":"CLR","clouds":[],"fltCat":"VFR"},{"icaoId":"KLUF","receiptTime":"2026-04-09T11:06:04.184Z","obsTime":1775732100,"reportTime":"2026-04-09T11:00:00.000Z","temp":20.4,"dewp":-2.7,"wdir":280,"wspd":4,"visib":"10+","altim":1009.2,"slp":1007.8,"qcField":46,"metarType":"METAR","rawOb":"METAR KLUF 091055Z AUTO 28004KT 10SM CLR 20/M03 A2980 RMK AO2 SLP078 T02041027 TSNO $","lat":33.538,"lon":-112.38,"elev":333,"name":"Phoenix/Luke AFB, AZ, US","cover":"CLR","clouds":[],"fltCat":"VFR"}]