[{"icaoId":"KVEL","receiptTime":"2026-04-14T23:24:03.891Z","obsTime":1776208800,"reportTime":"2026-04-14T23:20:00.000Z","temp":8.3,"dewp":1.1,"wdir":190,"wspd":7,"visib":"10+","altim":1015,"qcField":6,"metarType":"SPECI","rawOb":"SPECI KVEL 142320Z AUTO 19007KT 10SM SCT029 OVC035 08/01 A2997 RMK AO2 T00830011","lat":40.4429,"lon":-109.5128,"elev":1604,"name":"Vernal Rgnl, UT, US","cover":"OVC","clouds":[{"cover":"SCT","base":2900},{"cover":"OVC","base":3500}],"fltCat":"VFR"},{"icaoId":"KBFI","receiptTime":"2026-04-14T23:22:07.273Z","obsTime":1776208740,"reportTime":"2026-04-14T23:19:00.000Z","temp":8.9,"dewp":6.7,"wdir":170,"wspd":11,"wgst":20,"visib":4,"altim":1011.9,"qcField":4,"wxString":"-RA BR","precip":0.04,"metarType":"SPECI","rawOb":"SPECI KBFI 142319Z 17011G20KT 4SM -RA BR BKN016 BKN026 OVC050 09/07 A2988 RMK AO2 P0004 T00890067","lat":47.5455,"lon":-122.3148,"elev":7,"name":"Seattle/Boeing Fld, WA, US","cover":"OVC","clouds":[{"cover":"BKN","base":1600},{"cover":"BKN","base":2600},{"cover":"OVC","base":5000}],"fltCat":"MVFR"},{"icaoId":"KBWI","receiptTime":"2026-04-14T23:20:06.570Z","obsTime":1776208560,"reportTime":"2026-04-14T23:16:00.000Z","temp":28.9,"dewp":12.2,"wdir":200,"wspd":5,"visib":"10+","altim":1012.6,"qcField":4,"wxString":"-TSRA","precip":0.005,"metarType":"SPECI","rawOb":"SPECI KBWI 142316Z 20005KT 10SM -TSRA SCT080CB BKN120 BKN190 29/12 A2990 RMK AO2 RAB15 TSB15 OCNL LTGIC W-NW TS W-NW MOV E CB DSNT NW-N MOV E P0000 T02890122","lat":39.1733,"lon":-76.684,"elev":42,"name":"Baltimore-Washington Intl, MD, US","cover":"BKN","clouds":[{"cover":"SCT","base":8000},{"cover":"BKN","base":12000},{"cover":"BKN","base":19000}],"fltCat":"VFR"},{"icaoId":"KHII","receiptTime":"2026-04-14T23:20:33.324Z","obsTime":1776208500,"reportTime":"2026-04-14T23:15:00.000Z","temp":26,"dewp":-1,"wdir":"VRB","wspd":5,"visib":"10+","altim":1013.3,"qcField":6,"metarType":"METAR","rawOb":"METAR KHII 142315Z AUTO VRB05KT 10SM CLR 26/M01 A2992 RMK AO2","lat":34.5659,"lon":-114.3522,"elev":241,"name":"Lake Havasu City Arpt, AZ, US","cover":"CLR","clouds":[],"fltCat":"VFR"},{"icaoId":"KMHR","receiptTime":"2026-04-14T23:20:29.321Z","obsTime":1776208500,"reportTime":"2026-04-14T23:15:00.000Z","temp":21,"dewp":10,"wdir":230,"wspd":10,"visib":"10+","altim":1019,"qcField":6,"metarType":"METAR","rawOb":"METAR KMHR 142315Z AUTO 23010KT 10SM CLR 21/10 A3009 RMK AO2","lat":38.56,"lon":-121.284,"elev":30,"name":"Sacramento/Mather Fld, CA, US","cover":"CLR","clouds":[],"fltCat":"VFR"},{"icaoId":"KSEZ","receiptTime":"2026-04-14T23:20:27.665Z","obsTime":1776208500,"reportTime":"2026-04-14T23:15:00.000Z","temp":17,"dewp":-2,"wdir":250,"wspd":8,"visib":"10+","altim":1017,"qcField":6,"metarType":"METAR","rawOb":"METAR KSEZ 142315Z AUTO 25008KT 10SM FEW090 17/M02 A3003 RMK AO2","lat":34.8467,"lon":-111.7884,"elev":1455,"name":"Sedona Arpt, AZ, US","cover":"FEW","clouds":[{"cover":"FEW","base":9000}],"fltCat":"VFR"},{"icaoId":"KHCR","receiptTime":"2026-04-14T23:18:43.301Z","obsTime":1776208500,"reportTime":"2026-04-14T23:15:00.000Z","temp":11,"dewp":-3.6,"wdir":20,"wspd":6,"visib":"10+","altim":1014.6,"qcField":14,"metarType":"METAR","rawOb":"METAR KHCR 142315Z AUTO 02006KT 10SM OVC070 11/M04 A2996 RMK AO2 T01101036 $","lat":40.4774,"lon":-111.4329,"elev":1708,"name":"Heber City Muni, UT, US","cover":"OVC","clouds":[{"cover":"OVC","base":7000}],"fltCat":"VFR"},{"icaoId":"KLRU","receiptTime":"2026-04-14T23:18:22.805Z","obsTime":1776208500,"reportTime":"2026-04-14T23:15:00.000Z","temp":21.1,"dewp":-1.3,"wdir":270,"wspd":6,"wgst":18,"visib":"10+","altim":1014,"qcField":6,"metarType":"METAR","rawOb":"METAR KLRU 142315Z AUTO 27006G18KT 10SM SCT038 BKN090 OVC120 21/M01 A2994 RMK AO2 T02111013","lat":32.2884,"lon":-106.9131,"elev":1355,"name":"Las Cruces Intl, NM, US","cover":"OVC","clouds":[{"cover":"SCT","base":3800},{"cover":"BKN","base":9000},{"cover":"OVC","base":12000}],"fltCat":"VFR"},{"icaoId":"KABI","receiptTime":"2026-04-14T23:18:20.556Z","obsTime":1776208500,"reportTime":"2026-04-14T23:15:00.000Z","temp":23.9,"dewp":18.9,"wdir":180,"wspd":20,"wgst":34,"visib":"10+","altim":1010.9,"qcField":4,"metarType":"SPECI","rawOb":"SPECI KABI 142315Z 18020G34KT 10SM SCT025 SCT032 24/19 A2985 RMK AO2 PK WND 18034/2310 T02390189","lat":32.4106,"lon":-99.6821,"elev":543,"name":"Abilene Rgnl, TX, US","cover":"SCT","clouds":[{"cover":"SCT","base":2500},{"cover":"SCT","base":3200}],"fltCat":"VFR"},{"icaoId":"KCXP","receiptTime":"2026-04-14T23:20:37.079Z","obsTime":1776208500,"reportTime":"2026-04-14T23:15:00.000Z","temp":15,"dewp":-5,"wdir":310,"wspd":10,"visib":"10+","altim":1018.4,"qcField":6,"metarType":"METAR","rawOb":"METAR KCXP 142315Z AUTO 31010KT 10SM CLR 15/M05 A3007 RMK AO2","lat":39.1905,"lon":-119.7319,"elev":1431,"name":"Carson City Arpt, NV, US","cover":"CLR","clouds":[],"fltCat":"VFR"},{"icaoId":"KBVU","receiptTime":"2026-04-14T23:16:05.093Z","obsTime":1776208500,"reportTime":"2026-04-14T23:15:00.000Z","temp":23,"dewp":-5,"wdir":190,"wspd":7,"visib":"10+","altim":1014,"qcField":6,"metarType":"METAR","rawOb":"METAR KBVU 142315Z AUTO 19007KT 10SM CLR 23/M05 A2994 RMK AO2","lat":35.9489,"lon":-114.8633,"elev":654,"name":"Boulder City Muni, NV, US","cover":"CLR","clouds":[],"fltCat":"VFR"},{"icaoId":"KHTH","receiptTime":"2026-04-14T23:20:30.990Z","obsTime":1776208500,"reportTime":"2026-04-14T23:15:00.000Z","temp":18,"dewp":-8,"wdir":300,"wspd":9,"visib":"10+","altim":1016.7,"qcField":6,"metarType":"METAR","rawOb":"METAR KHTH 142315Z AUTO 30009KT 10SM CLR 18/M08 A3002 RMK A01","lat":38.5448,"lon":-118.6314,"elev":1281,"name":"Hawthorne Muni, NV, US","cover":"CLR","clouds":[],"fltCat":"VFR"},{"icaoId":"KHAF","receiptTime":"2026-04-14T23:18:13.367Z","obsTime":1776208500,"reportTime":"2026-04-14T23:15:00.000Z","temp":14,"dewp":8,"wdir":310,"wspd":10,"visib":"10+","altim":1022.4,"qcField":6,"metarType":"METAR","rawOb":"METAR KHAF 142315Z AUTO 31010KT 10SM SCT032 14/08 A3019 RMK AO2","lat":37.5136,"lon":-122.4996,"elev":11,"name":"Half Moon Bay Arpt, CA, US","cover":"SCT","clouds":[{"cover":"SCT","base":3200}],"fltCat":"VFR"},{"icaoId":"KSOW","receiptTime":"2026-04-14T23:18:39.197Z","obsTime":1776208500,"reportTime":"2026-04-14T23:15:00.000Z","temp":14,"dewp":-6,"wdir":210,"wspd":5,"wgst":19,"visib":"10+","altim":1017.7,"qcField":6,"metarType":"METAR","rawOb":"METAR KSOW 142315Z AUTO 21005G19KT 10SM CLR 14/M06 A3005 RMK AO2","lat":34.2686,"lon":-110.0019,"elev":1954,"name":"Show Low Muni, AZ, US","cover":"CLR","clouds":[],"fltCat":"VFR"},{"icaoId":"KAST","receiptTime":"2026-04-14T23:18:10.693Z","obsTime":1776208440,"reportTime":"2026-04-14T23:14:00.000Z","temp":9.4,"dewp":7.8,"wdir":190,"wspd":19,"wgst":37,"visib":2.5,"altim":1013,"qcField":6,"wxString":"RA BR","precip":0.03,"metarType":"SPECI","rawOb":"SPECI KAST 142314Z AUTO 19019G37KT 2 1/2SM RA BR BKN015 BKN024 OVC036 09/08 A2991 RMK AO2 PK WND 19037/2306 P0003 T00940078","lat":46.157,"lon":-123.8833,"elev":3,"name":"Astoria Rgnl, OR, US","cover":"OVC","clouds":[{"cover":"BKN","base":1500},{"cover":"BKN","base":2400},{"cover":"OVC","base":3600}],"fltCat":"IFR"},{"icaoId":"KHIO","receiptTime":"2026-04-14T23:14:05.962Z","obsTime":1776208200,"reportTime":"2026-04-14T23:10:00.000Z","temp":9.4,"dewp":7.8,"wdir":180,"wspd":11,"wgst":17,"visib":"10+","altim":1016,"qcField":4,"wxString":"-RA","precip":0.01,"metarType":"SPECI","rawOb":"SPECI KHIO 142310Z 18011G17KT 10SM -RA SCT015 BKN043 OVC055 09/08 A3000 RMK AO2 P0001 T00940078","lat":45.5476,"lon":-122.9557,"elev":62,"name":"Portland/Hillsboro Arpt, OR, US","cover":"OVC","clouds":[{"cover":"SCT","base":1500},{"cover":"BKN","base":4300},{"cover":"OVC","base":5500}],"fltCat":"VFR"},{"icaoId":"KSPS","receiptTime":"2026-04-14T23:12:03.315Z","obsTime":1776208080,"reportTime":"2026-04-14T23:08:00.000Z","temp":25,"dewp":19.4,"wdir":170,"wspd":18,"wgst":27,"visib":"10+","altim":1010.2,"qcField":4,"metarType":"SPECI","rawOb":"SPECI KSPS 142308Z 17018G27KT 10SM SCT028 BKN055 BKN075 25/19 A2983 RMK AO2 PK WND 17027/2306 WSHFT 2253 LTG DSNT W-NE T02500194","lat":33.9785,"lon":-98.493,"elev":310,"name":"Wichita Falls Rgnl, TX, US","cover":"BKN","clouds":[{"cover":"SCT","base":2800},{"cover":"BKN","base":5500},{"cover":"BKN","base":7500}],"fltCat":"VFR"},{"icaoId":"KPAE","receiptTime":"2026-04-14T23:12:04.000Z","obsTime":1776208080,"reportTime":"2026-04-14T23:08:00.000Z","temp":7.8,"dewp":6.1,"wdir":180,"wspd":19,"wgst":27,"visib":"10+","altim":1010.6,"qcField":4,"wxString":"-RA","precip":0.005,"metarType":"SPECI","rawOb":"SPECI KPAE 142308Z 18019G27KT 10SM -RA BKN008 BKN019 OVC050 08/06 A2984 RMK AO2 PK WND 18032/2254 P0000 T00780061","lat":47.9232,"lon":-122.2831,"elev":166,"name":"Everett/Paine Fld, WA, US","cover":"OVC","clouds":[{"cover":"BKN","base":800},{"cover":"BKN","base":1900},{"cover":"OVC","base":5000}],"fltCat":"IFR"},{"icaoId":"KRTS","receiptTime":"2026-04-14T23:20:25.792Z","obsTime":1776207900,"reportTime":"2026-04-14T23:05:00.000Z","temp":14,"dewp":-5,"wdir":290,"wspd":17,"visib":"10+","altim":1018,"qcField":6,"metarType":"METAR","rawOb":"METAR KRTS 142305Z AUTO 29017KT 10SM CLR 14/M05 A3006 RMK AO2","lat":39.6658,"lon":-119.8731,"elev":1537,"name":"Reno/Stead Arpt, NV, US","cover":"CLR","clouds":[],"fltCat":"VFR"},{"icaoId":"KMEV","receiptTime":"2026-04-14T23:20:29.227Z","obsTime":1776207900,"reportTime":"2026-04-14T23:05:00.000Z","temp":15,"dewp":-4,"wdir":280,"wspd":14,"visib":"10+","altim":1018,"qcField":6,"metarType":"METAR","rawOb":"METAR KMEV 142305Z AUTO 28014KT 10SM CLR 15/M04 A3006 RMK AO2","lat":38.9963,"lon":-119.75,"elev":1437,"name":"Minden-Tahoe Arpt, NV, US","cover":"CLR","clouds":[],"fltCat":"VFR"},{"icaoId":"KLAW","receiptTime":"2026-04-14T23:06:06.443Z","obsTime":1776207720,"reportTime":"2026-04-14T23:02:00.000Z","temp":20,"dewp":16.1,"wdir":140,"wspd":14,"wgst":27,"visib":"10+","altim":1008.9,"qcField":4,"wxString":"-TSRA","precip":0.005,"metarType":"SPECI","rawOb":"SPECI KLAW 142302Z 14014G27KT 10SM -TSRA BKN110 20/16 A2979 RMK AO2 LTG DSNT E-S RAB2257 TSB2256 P0000 T02000161","lat":34.5577,"lon":-98.4172,"elev":328,"name":"Lawton-Fort Sill Rgnl, OK, US","cover":"BKN","clouds":[{"cover":"BKN","base":11000}],"fltCat":"VFR"},{"icaoId":"KNYL","receiptTime":"2026-04-14T23:00:43.516Z","obsTime":1776207420,"reportTime":"2026-04-14T23:00:00.000Z","temp":26.1,"dewp":1.7,"visib":"","altim":1013.6,"slp":1013.4,"qcField":4,"metarType":"METAR","rawOb":"METAR KNYL 142257Z 269)SCLR 26/02 A2993 RMK AO2 SLP134 T02610017","lat":32.66,"lon":-114.6078,"elev":58,"name":"Yuma , AZ, US","cover":"CLR","clouds":[]},{"icaoId":"KFLG","receiptTime":"2026-04-14T23:00:37.075Z","obsTime":1776207420,"reportTime":"2026-04-14T23:00:00.000Z","temp":8.3,"dewp":-3.9,"wdir":"VRB","wspd":4,"visib":"10+","altim":1018.4,"slp":1014.6,"qcField":4,"metarType":"METAR","rawOb":"METAR KFLG 142257Z VRB04KT 10SM BKN055 BKN065 08/M04 A3007 RMK AO2 SLP146 T00831039","lat":35.1443,"lon":-111.6664,"elev":2134,"name":"Flagstaff/Pulliam Arpt, AZ, US","cover":"BKN","clouds":[{"cover":"BKN","base":5500},{"cover":"BKN","base":6500}],"fltCat":"VFR"},{"icaoId":"KNFL","receiptTime":"2026-04-14T23:00:43.386Z","obsTime":1776207420,"reportTime":"2026-04-14T23:00:00.000Z","temp":18.9,"dewp":-8.3,"wdir":290,"wspd":10,"wgst":19,"visib":"10+","altim":1016,"slp":1013,"qcField":4,"metarType":"METAR","rawOb":"METAR KNFL 142257Z 29010G19KT 10SM FEW200 SCT250 19/M08 A3000 RMK AO2 SLP130 T01891083","lat":39.417,"lon":-118.705,"elev":1199,"name":"Fallon , NV, US","cover":"SCT","clouds":[{"cover":"FEW","base":20000},{"cover":"SCT","base":25000}],"fltCat":"VFR"},{"icaoId":"KENV","receiptTime":"2026-04-14T22:58:54.094Z","obsTime":1776207360,"reportTime":"2026-04-14T23:00:00.000Z","temp":15.6,"dewp":-6.1,"wdir":"VRB","wspd":4,"visib":"10+","altim":1015.3,"slp":1014.7,"qcField":6,"metarType":"METAR","rawOb":"METAR KENV 142256Z AUTO VRB04KT 10SM BKN090 16/M06 A2998 RMK AO2 SLP147 T01561061","lat":40.7211,"lon":-114.0312,"elev":1291,"name":"Wendover Arpt, UT, US","cover":"BKN","clouds":[{"cover":"BKN","base":9000}],"fltCat":"VFR"},{"icaoId":"KEGE","receiptTime":"2026-04-14T22:58:53.909Z","obsTime":1776207360,"reportTime":"2026-04-14T23:00:00.000Z","temp":5.6,"dewp":-1.7,"wdir":210,"wspd":9,"visib":"10+","altim":1015.3,"slp":1013.4,"qcField":4,"precip":0.005,"metarType":"METAR","rawOb":"METAR KEGE 142256Z 21009KT 10SM SCT050 06/M02 A2998 RMK AO2 PK WND 22035/2231 WSHFT 2152 RAB38E49 SLP134 P0000 T00561017","lat":39.6448,"lon":-106.9176,"elev":1993,"name":"Eagle Cnty Rgnl, CO, US","cover":"SCT","clouds":[{"cover":"SCT","base":5000}],"fltCat":"VFR"},{"icaoId":"KCOE","receiptTime":"2026-04-14T22:58:48.560Z","obsTime":1776207360,"reportTime":"2026-04-14T23:00:00.000Z","temp":6.7,"dewp":1.1,"wdir":200,"wspd":13,"wgst":24,"visib":6,"altim":1011.9,"slp":1014.6,"qcField":14,"wxString":"-RA","metarType":"METAR","rawOb":"METAR KCOE 142256Z AUTO 20013G24KT 6SM -RA SCT034 BKN049 OVC055 07/01 A2988 RMK AO2 RAB52 SLP146 T00670011 PNO $","lat":47.7719,"lon":-116.8332,"elev":693,"name":"Coeur DAlene Arpt, ID, US","cover":"OVC","clouds":[{"cover":"SCT","base":3400},{"cover":"BKN","base":4900},{"cover":"OVC","base":5500}],"fltCat":"VFR"},{"icaoId":"KPVU","receiptTime":"2026-04-14T22:58:49.093Z","obsTime":1776207360,"reportTime":"2026-04-14T23:00:00.000Z","temp":14.4,"dewp":-1.7,"wdir":320,"wspd":11,"visib":"10+","altim":1016,"slp":1014.1,"qcField":4,"metarType":"METAR","rawOb":"METAR KPVU 142256Z 32011KT 10SM SCT060 14/M02 A3000 RMK AO2 SLP141 T01441017","lat":40.224,"lon":-111.7252,"elev":1370,"name":"Provo Muni, UT, US","cover":"SCT","clouds":[{"cover":"SCT","base":6000}],"fltCat":"VFR"},{"icaoId":"KPWT","receiptTime":"2026-04-14T22:58:49.232Z","obsTime":1776207360,"reportTime":"2026-04-14T23:00:00.000Z","temp":7.2,"dewp":7.2,"wdir":200,"wspd":12,"visib":"10+","altim":1011.3,"slp":1011.8,"qcField":14,"wxString":"RA","metarType":"METAR","rawOb":"METAR KPWT 142256Z AUTO 20012KT 10SM RA BKN008 OVC013 07/07 A2986 RMK AO2 CIG 004V010 SLP118 T00720072 PNO $","lat":47.4942,"lon":-122.7594,"elev":143,"name":"Bremerton Arpt, WA, US","cover":"OVC","clouds":[{"cover":"BKN","base":800},{"cover":"OVC","base":1300}],"fltCat":"IFR"},{"icaoId":"KVIS","receiptTime":"2026-04-14T22:58:50.454Z","obsTime":1776207360,"reportTime":"2026-04-14T23:00:00.000Z","temp":22.8,"dewp":6.7,"wdir":320,"wspd":8,"visib":"10+","altim":1018.7,"slp":1018.6,"qcField":14,"metarType":"METAR","rawOb":"METAR KVIS 142256Z AUTO 32008KT 10SM CLR 23/07 A3008 RMK AO2 SLP186 T02280067 PNO $","lat":36.3135,"lon":-119.3884,"elev":92,"name":"Visalia Muni, CA, US","cover":"CLR","clouds":[],"fltCat":"VFR"},{"icaoId":"KINW","receiptTime":"2026-04-14T23:00:25.589Z","obsTime":1776207360,"reportTime":"2026-04-14T23:00:00.000Z","temp":15.6,"dewp":-2.8,"wdir":290,"wspd":7,"visib":"10+","altim":1016.3,"slp":1013.1,"qcField":6,"metarType":"METAR","rawOb":"METAR KINW 142256Z AUTO 29007KT 10SM BKN080 OVC090 16/M03 A3001 RMK AO2 SLP131 T01561028","lat":35.0279,"lon":-110.7221,"elev":1492,"name":"Winslow/Lindberg Rgnl, AZ, US","cover":"OVC","clouds":[{"cover":"BKN","base":8000},{"cover":"OVC","base":9000}],"fltCat":"VFR"},{"icaoId":"KSDY","receiptTime":"2026-04-14T22:58:49.556Z","obsTime":1776207360,"reportTime":"2026-04-14T23:00:00.000Z","temp":20,"dewp":1.7,"wdir":310,"wspd":9,"visib":"10+","altim":1003.8,"slp":1004.4,"qcField":14,"metarType":"METAR","rawOb":"METAR KSDY 142256Z AUTO 31009KT 10SM FEW080 20/02 A2964 RMK AO2 SLP044 T02000017 $","lat":47.7029,"lon":-104.1951,"elev":600,"name":"Sidney/Richland Muni, MT, US","cover":"FEW","clouds":[{"cover":"FEW","base":8000}],"fltCat":"VFR"},{"icaoId":"KCOD","receiptTime":"2026-04-14T22:58:48.507Z","obsTime":1776207360,"reportTime":"2026-04-14T23:00:00.000Z","temp":15,"dewp":-7.8,"wdir":260,"wspd":14,"wgst":20,"visib":"10+","altim":1008.9,"slp":1006.9,"qcField":14,"metarType":"METAR","rawOb":"METAR KCOD 142256Z AUTO 26014G20KT 10SM CLR 15/M08 A2979 RMK AO2 SLP069 T01501078 $","lat":44.52,"lon":-109.0268,"elev":1550,"name":"Cody/Yellowstone Rgnl, WY, US","cover":"CLR","clouds":[],"fltCat":"VFR"},{"icaoId":"KJAC","receiptTime":"2026-04-14T22:58:51.259Z","obsTime":1776207360,"reportTime":"2026-04-14T23:00:00.000Z","temp":5.6,"dewp":-3.9,"wdir":210,"wspd":10,"visib":"10+","altim":1015,"slp":1016.8,"qcField":4,"metarType":"METAR","rawOb":"METAR KJAC 142256Z 21010KT 10SM FEW048 OVC060 06/M04 A2997 RMK AO2 SLP168 T00561039","lat":43.6129,"lon":-110.7366,"elev":1967,"name":"Jackson Hole Arpt, WY, US","cover":"OVC","clouds":[{"cover":"FEW","base":4800},{"cover":"OVC","base":6000}],"fltCat":"VFR"},{"icaoId":"KDUG","receiptTime":"2026-04-14T23:04:10.070Z","obsTime":1776207360,"reportTime":"2026-04-14T23:00:00.000Z","temp":25,"dewp":-8.9,"wdir":270,"wspd":14,"wgst":23,"visib":"10+","altim":1014,"slp":1008.3,"qcField":38,"metarType":"METAR","rawOb":"METAR KDUG 142256Z AUTO 27014G23KT 10SM FEW120 25/M09 A2994 RMK AO2 SLP083 T02501089 TSNO","lat":31.4725,"lon":-109.6022,"elev":1260,"name":"Douglas/Bisbee Intl, AZ, US","cover":"FEW","clouds":[{"cover":"FEW","base":12000}],"fltCat":"VFR"},{"icaoId":"KBZN","receiptTime":"2026-04-14T23:00:25.396Z","obsTime":1776207360,"reportTime":"2026-04-14T23:00:00.000Z","temp":13.9,"dewp":-6.1,"wdir":250,"wspd":12,"wgst":21,"visib":"10+","altim":1007.9,"slp":1007.1,"qcField":4,"metarType":"METAR","rawOb":"METAR KBZN 142256Z 25012G21KT 10SM OVC090 14/M06 A2976 RMK AO2 SLP071 T01391061","lat":45.7876,"lon":-111.1615,"elev":1349,"name":"Bozeman/Gallatin Fld, MT, US","cover":"OVC","clouds":[{"cover":"OVC","base":9000}],"fltCat":"VFR"},{"icaoId":"KCGZ","receiptTime":"2026-04-14T22:58:48.285Z","obsTime":1776207360,"reportTime":"2026-04-14T23:00:00.000Z","temp":23.9,"dewp":-3.9,"wdir":"VRB","wspd":3,"visib":"10+","altim":1014.3,"slp":1013.5,"qcField":14,"metarType":"METAR","rawOb":"METAR KCGZ 142256Z AUTO VRB03KT 10SM CLR 24/M04 A2995 RMK AO2 SLP135 T02391039 $","lat":32.9531,"lon":-111.7725,"elev":444,"name":"Casa Granda Muni, AZ, US","cover":"CLR","clouds":[],"fltCat":"VFR"},{"icaoId":"KSBP","receiptTime":"2026-04-14T23:00:24.924Z","obsTime":1776207360,"reportTime":"2026-04-14T23:00:00.000Z","temp":17.8,"dewp":8.9,"wdir":310,"wspd":23,"wgst":31,"visib":"10+","altim":1018.7,"slp":1018.5,"qcField":4,"metarType":"METAR","rawOb":"METAR KSBP 142256Z 31023G31KT 10SM CLR 18/09 A3008 RMK AO2 PK WND 31032/2241 SLP185 T01780089","lat":35.2381,"lon":-120.644,"elev":52,"name":"San Luis Obispo/San Luis Cnty, CA, US","cover":"CLR","clouds":[],"fltCat":"VFR"},{"icaoId":"KSFO","receiptTime":"2026-04-14T23:00:25.961Z","obsTime":1776207360,"reportTime":"2026-04-14T23:00:00.000Z","temp":15,"dewp":6.7,"wdir":290,"wspd":20,"wgst":28,"visib":"10+","altim":1022.1,"slp":1021.8,"qcField":12,"metarType":"METAR","rawOb":"METAR KSFO 142256Z 29020G28KT 10SM FEW027 15/07 A3018 RMK AO2 PK WND 29028/2255 SLP218 T01500067 $","lat":37.6196,"lon":-122.3656,"elev":2,"name":"San Francisco Intl, CA, US","cover":"FEW","clouds":[{"cover":"FEW","base":2700}],"fltCat":"VFR"},{"icaoId":"KJAX","receiptTime":"2026-04-14T23:00:25.604Z","obsTime":1776207360,"reportTime":"2026-04-14T23:00:00.000Z","temp":25,"dewp":13.3,"wdir":120,"wspd":10,"visib":"10+","altim":1021.1,"slp":1021,"qcField":12,"metarType":"METAR","rawOb":"METAR KJAX 142256Z 12010KT 10SM FEW060 25/13 A3015 RMK AO2 SLP210 T02500133 $","lat":30.4953,"lon":-81.6937,"elev":8,"name":"Jacksonville Intl, FL, US","cover":"FEW","clouds":[{"cover":"FEW","base":6000}],"fltCat":"VFR"},{"icaoId":"KCHS","receiptTime":"2026-04-14T23:00:25.436Z","obsTime":1776207360,"reportTime":"2026-04-14T23:00:00.000Z","temp":23.9,"dewp":12.8,"wdir":180,"wspd":14,"visib":"10+","altim":1021.1,"slp":1021,"qcField":4,"metarType":"METAR","rawOb":"METAR KCHS 142256Z 18014KT 10SM SCT250 24/13 A3015 RMK AO2 SLP210 T02390128","lat":32.8995,"lon":-80.0407,"elev":12,"name":"Charleston Intl, SC, US","cover":"SCT","clouds":[{"cover":"SCT","base":25000}],"fltCat":"VFR"},{"icaoId":"KSLE","receiptTime":"2026-04-14T23:00:25.065Z","obsTime":1776207360,"reportTime":"2026-04-14T23:00:00.000Z","temp":9.4,"dewp":6.7,"wdir":180,"wspd":11,"visib":"10+","altim":1017.7,"slp":1017.6,"qcField":4,"wxString":"-RA","precip":0.03,"metarType":"METAR","rawOb":"METAR KSLE 142256Z 18011KT 10SM -RA FEW019 BKN050 OVC060 09/07 A3005 RMK AO2 RAB01 SLP176 P0003 T00940067","lat":44.9049,"lon":-123.001,"elev":63,"name":"Salem Muni, OR, US","cover":"OVC","clouds":[{"cover":"FEW","base":1900},{"cover":"BKN","base":5000},{"cover":"OVC","base":6000}],"fltCat":"VFR"},{"icaoId":"KEKO","receiptTime":"2026-04-14T23:00:25.002Z","obsTime":1776207360,"reportTime":"2026-04-14T23:00:00.000Z","temp":14.4,"dewp":-5.6,"wdir":260,"wspd":7,"wgst":18,"visib":"10+","altim":1015.7,"slp":1015,"qcField":6,"metarType":"METAR","rawOb":"METAR KEKO 142256Z AUTO 26007G18KT 10SM SCT080 14/M06 A2999 RMK AO2 SLP150 T01441056","lat":40.824,"lon":-115.7863,"elev":1541,"name":"Elko Rgnl, NV, US","cover":"SCT","clouds":[{"cover":"SCT","base":8000}],"fltCat":"VFR"},{"icaoId":"KUKI","receiptTime":"2026-04-14T23:00:17.836Z","obsTime":1776207360,"reportTime":"2026-04-14T23:00:00.000Z","temp":19.4,"dewp":6.7,"wdir":20,"wspd":9,"visib":"10+","altim":1019.7,"slp":1019.1,"qcField":6,"metarType":"METAR","rawOb":"METAR KUKI 142256Z AUTO 02009KT 10SM CLR 19/07 A3011 RMK AO2 SLP191 T01940067","lat":39.1278,"lon":-123.2001,"elev":183,"name":"Ukiah Muni, CA, US","cover":"CLR","clouds":[],"fltCat":"VFR"},{"icaoId":"KLAS","receiptTime":"2026-04-14T23:02:16.950Z","obsTime":1776207360,"reportTime":"2026-04-14T23:00:00.000Z","temp":22.8,"dewp":-3.3,"wdir":"VRB","wspd":3,"visib":"10+","altim":1014.6,"slp":1013.2,"qcField":5,"metarType":"METAR","rawOb":"METAR KLAS 142256Z COR VRB03KT 10SM FEW100 FEW250 23/M03 A2996 RMK AO2 SLP132 T02281033","lat":36.0719,"lon":-115.1634,"elev":662,"name":"Las Vegas/Reid Intl, NV, US","cover":"FEW","clouds":[{"cover":"FEW","base":10000},{"cover":"FEW","base":25000}],"fltCat":"VFR"},{"icaoId":"KRDM","receiptTime":"2026-04-14T23:00:25.034Z","obsTime":1776207360,"reportTime":"2026-04-14T23:00:00.000Z","temp":9.4,"dewp":-2.8,"wdir":360,"wspd":5,"visib":"10+","altim":1015,"slp":1015.8,"qcField":4,"metarType":"METAR","rawOb":"METAR KRDM 142256Z 36005KT 10SM BKN110 09/M03 A2997 RMK AO2 SLP158 T00941028","lat":44.2558,"lon":-121.1407,"elev":930,"name":"Redmond Muni, OR, US","cover":"BKN","clouds":[{"cover":"BKN","base":11000}],"fltCat":"VFR"},{"icaoId":"KCEC","receiptTime":"2026-04-14T23:00:24.986Z","obsTime":1776207360,"reportTime":"2026-04-14T23:00:00.000Z","temp":12.2,"dewp":5,"wdir":230,"wspd":9,"visib":"10+","altim":1023.5,"slp":1023.4,"qcField":6,"metarType":"METAR","rawOb":"METAR KCEC 142256Z AUTO 23009KT 10SM FEW046 BKN110 12/05 A3022 RMK AO2 SLP234 T01220050","lat":41.7836,"lon":-124.238,"elev":17,"name":"Crescent City/McNama, CA, US","cover":"BKN","clouds":[{"cover":"FEW","base":4600},{"cover":"BKN","base":11000}],"fltCat":"VFR"},{"icaoId":"KHDN","receiptTime":"2026-04-14T22:58:55.142Z","obsTime":1776207360,"reportTime":"2026-04-14T23:00:00.000Z","temp":3.9,"dewp":0,"wdir":260,"wspd":11,"visib":"10+","altim":1015.7,"slp":1015.1,"qcField":6,"metarType":"METAR","rawOb":"METAR KHDN 142256Z AUTO 26011KT 10SM OVC049 04/00 A2999 RMK AO2 SLP151 T00390000","lat":40.4842,"lon":-107.2296,"elev":2012,"name":"Hayden/Yampa Valley Arpt, CO, US","cover":"OVC","clouds":[{"cover":"OVC","base":4900}],"fltCat":"VFR"},{"icaoId":"KTPH","receiptTime":"2026-04-14T23:00:25.080Z","obsTime":1776207360,"reportTime":"2026-04-14T23:00:00.000Z","temp":16.1,"dewp":-10,"wdir":350,"wspd":10,"wgst":17,"visib":"10+","altim":1017.4,"slp":1014.9,"qcField":6,"metarType":"METAR","rawOb":"METAR KTPH 142256Z AUTO 35010G17KT 310V010 10SM CLR 16/M10 A3004 RMK AO2 SLP149 T01611100","lat":38.0505,"lon":-117.0906,"elev":1647,"name":"Tonopah Arpt, NV, US","cover":"CLR","clouds":[],"fltCat":"VFR"},{"icaoId":"KLWS","receiptTime":"2026-04-14T23:00:25.925Z","obsTime":1776207360,"reportTime":"2026-04-14T23:00:00.000Z","temp":13.3,"dewp":1.1,"wdir":320,"wspd":9,"visib":"10+","altim":1012.3,"slp":1012.7,"qcField":4,"metarType":"METAR","rawOb":"METAR KLWS 142256Z 32009KT 10SM BKN110 13/01 A2989 RMK AO2 SLP127 T01330011","lat":46.3746,"lon":-117.0153,"elev":435,"name":"Lewiston/Nez Perce Cnty, ID, US","cover":"BKN","clouds":[{"cover":"BKN","base":11000}],"fltCat":"VFR"},{"icaoId":"KGUC","receiptTime":"2026-04-14T22:58:54.990Z","obsTime":1776207360,"reportTime":"2026-04-14T23:00:00.000Z","temp":5,"dewp":-4.4,"wdir":240,"wspd":12,"visib":"10+","altim":1015.3,"slp":1013.1,"qcField":14,"precip":0.005,"metarType":"METAR","rawOb":"METAR KGUC 142256Z AUTO 24012KT 10SM BKN060 05/M04 A2998 RMK AO2 PK WND 26031/2207 RAB15E24 SLP131 P0000 T00501044 $","lat":38.5322,"lon":-106.9419,"elev":2337,"name":"Gunnison Arpt, CO, US","cover":"BKN","clouds":[{"cover":"BKN","base":6000}],"fltCat":"VFR"},{"icaoId":"KFNL","receiptTime":"2026-04-14T22:58:54.449Z","obsTime":1776207360,"reportTime":"2026-04-14T23:00:00.000Z","temp":12.2,"dewp":-0.6,"wdir":260,"wspd":11,"wgst":21,"visib":"10+","altim":1010.9,"slp":1007.6,"qcField":12,"metarType":"METAR","rawOb":"METAR KFNL 142256Z 26011G21KT 10SM FEW048 BKN065 OVC080 12/M01 A2985 RMK AO2 SLP076 T01221006 $","lat":40.4427,"lon":-105.0097,"elev":1529,"name":"Fort Collins/N Colorado Rgnl, CO, US","cover":"OVC","clouds":[{"cover":"FEW","base":4800},{"cover":"BKN","base":6500},{"cover":"OVC","base":8000}],"fltCat":"VFR"},{"icaoId":"KSDF","receiptTime":"2026-04-14T23:00:20.468Z","obsTime":1776207360,"reportTime":"2026-04-14T23:00:00.000Z","temp":27.8,"dewp":16.1,"wdir":210,"wspd":12,"wgst":23,"visib":"10+","altim":1014.6,"slp":1014.1,"qcField":4,"metarType":"METAR","rawOb":"METAR KSDF 142256Z 21012G23KT 10SM BKN050 28/16 A2996 RMK AO2 PK WND 23027/2222 SLP141 T02780161","lat":38.1774,"lon":-85.7308,"elev":146,"name":"Louisville Intl, KY, US","cover":"BKN","clouds":[{"cover":"BKN","base":5000}],"fltCat":"VFR"},{"icaoId":"KHND","receiptTime":"2026-04-14T22:58:55.343Z","obsTime":1776207360,"reportTime":"2026-04-14T23:00:00.000Z","temp":23.3,"dewp":-3.3,"wdir":0,"wspd":0,"visib":"10+","altim":1015.3,"slp":1015.5,"qcField":12,"metarType":"METAR","rawOb":"METAR KHND 142256Z 00000KT 10SM CLR 23/M03 A2998 RMK AO2 SLP155 T02331033 $","lat":35.9657,"lon":-115.1343,"elev":740,"name":"Henderson Exec, NV, US","cover":"CLR","clouds":[],"fltCat":"VFR"},{"icaoId":"KSGU","receiptTime":"2026-04-14T22:58:49.900Z","obsTime":1776207360,"reportTime":"2026-04-14T23:00:00.000Z","temp":18.9,"dewp":2.8,"wdir":"VRB","wspd":3,"visib":"10+","altim":1015.7,"slp":1014.4,"qcField":6,"metarType":"METAR","rawOb":"METAR KSGU 142256Z AUTO VRB03KT 10SM FEW120 19/03 A2999 RMK AO2 SLP144 T01890028","lat":37.0444,"lon":-113.5034,"elev":877,"name":"Saint George Muni, UT, US","cover":"FEW","clouds":[{"cover":"FEW","base":12000}],"fltCat":"VFR"},{"icaoId":"KCMA","receiptTime":"2026-04-14T22:58:48.407Z","obsTime":1776207300,"reportTime":"2026-04-14T23:00:00.000Z","temp":20,"dewp":8.3,"wdir":240,"wspd":9,"visib":"10+","altim":1017.7,"slp":1018.3,"qcField":4,"metarType":"METAR","rawOb":"METAR KCMA 142255Z 24009KT 10SM CLR 20/08 A3005 RMK AO2 SLP183 T02000083","lat":34.2114,"lon":-119.0876,"elev":20,"name":"Camarillo Arpt, CA, US","cover":"CLR","clouds":[],"fltCat":"VFR"},{"icaoId":"KRNO","receiptTime":"2026-04-14T22:58:49.356Z","obsTime":1776207300,"reportTime":"2026-04-14T23:00:00.000Z","temp":16.7,"dewp":-5.6,"wdir":290,"wspd":20,"wgst":26,"visib":"10+","altim":1016.7,"slp":1014.8,"qcField":4,"metarType":"METAR","rawOb":"METAR KRNO 142255Z 29020G26KT 10SM FEW120 17/M06 A3002 RMK AO2 PK WND 29026/2247 SLP148 T01671056","lat":39.5077,"lon":-119.7683,"elev":1344,"name":"Reno/Tahoe Intl, NV, US","cover":"FEW","clouds":[{"cover":"FEW","base":12000}],"fltCat":"VFR"},{"icaoId":"KGPI","receiptTime":"2026-04-14T22:58:54.816Z","obsTime":1776207300,"reportTime":"2026-04-14T23:00:00.000Z","temp":10,"dewp":-3.9,"wdir":250,"wspd":16,"wgst":23,"visib":"10+","altim":1008.5,"slp":1009,"qcField":4,"metarType":"METAR","rawOb":"METAR KGPI 142255Z 25016G23KT 10SM FEW120 10/M04 A2978 RMK AO2 PK WND 25029/2226 SLP090 T01001039","lat":48.3041,"lon":-114.2643,"elev":903,"name":"Kalispell/Glacier Park Intl, MT, US","cover":"FEW","clouds":[{"cover":"FEW","base":12000}],"fltCat":"VFR"},{"icaoId":"KLUF","receiptTime":"2026-04-14T23:08:03.437Z","obsTime":1776207300,"reportTime":"2026-04-14T23:00:00.000Z","temp":25.1,"dewp":-2.5,"wdir":280,"wspd":4,"visib":"10+","altim":1013.3,"slp":1012.4,"qcField":12,"metarType":"METAR","rawOb":"METAR KLUF 142255Z 28004KT 10SM CLR 25/M02 A2992 RMK AO2A SLP124 T02511025 $","lat":33.538,"lon":-112.38,"elev":333,"name":"Phoenix/Luke AFB, AZ, US","cover":"CLR","clouds":[],"fltCat":"VFR"},{"icaoId":"KCOS","receiptTime":"2026-04-14T22:58:11.213Z","obsTime":1776207240,"reportTime":"2026-04-14T23:00:00.000Z","temp":16.1,"dewp":-12.8,"wdir":230,"wspd":22,"wgst":31,"visib":"10+","altim":1010.2,"slp":1005,"qcField":4,"metarType":"METAR","rawOb":"METAR KCOS 142254Z 23022G31KT 10SM FEW070 FEW100 16/M13 A2983 RMK AO2 PK WND 24039/2208 SLP050 VIRGA E AND W T01611128","lat":38.8095,"lon":-104.6887,"elev":1886,"name":"Colorado Spring Arpt, CO, US","cover":"FEW","clouds":[{"cover":"FEW","base":7000},{"cover":"FEW","base":10000}],"fltCat":"VFR"},{"icaoId":"KIND","receiptTime":"2026-04-14T22:58:13.648Z","obsTime":1776207240,"reportTime":"2026-04-14T23:00:00.000Z","temp":25,"dewp":17.2,"wdir":200,"wspd":13,"visib":"10+","altim":1011.6,"slp":1010.7,"qcField":12,"precip":0.005,"metarType":"METAR","rawOb":"METAR KIND 142254Z 20013KT 10SM SCT100 25/17 A2987 RMK AO2 PK WND 19027/2224 RAE2156 SLP107 CB DSNT E MOV E TSE2156 P0000 T02500172 $","lat":39.7252,"lon":-86.2816,"elev":242,"name":"Indianapolis Intl, IN, US","cover":"SCT","clouds":[{"cover":"SCT","base":10000}],"fltCat":"VFR"},{"icaoId":"KOLS","receiptTime":"2026-04-14T22:58:14.153Z","obsTime":1776207240,"reportTime":"2026-04-14T23:00:00.000Z","temp":22.8,"dewp":-0.6,"wdir":270,"wspd":11,"wgst":18,"visib":"10+","altim":1015,"slp":1010.3,"qcField":6,"metarType":"METAR","rawOb":"METAR KOLS 142254Z AUTO 27011G18KT 10SM CLR 23/M01 A2997 RMK AO2 SLP103 T02281006","lat":31.4208,"lon":-110.8465,"elev":1194,"name":"Nogales Intl, AZ, US","cover":"CLR","clouds":[],"fltCat":"VFR"},{"icaoId":"KGCN","receiptTime":"2026-04-14T22:58:16.594Z","obsTime":1776207240,"reportTime":"2026-04-14T23:00:00.000Z","temp":10.6,"dewp":-4.4,"wdir":350,"wspd":8,"wgst":14,"visib":"10+","altim":1018.4,"slp":1015.1,"qcField":4,"metarType":"METAR","rawOb":"METAR KGCN 142254Z 35008G14KT 290V030 10SM SCT060 SCT075 11/M04 A3007 RMK AO2 SLP151 T01061044","lat":35.9458,"lon":-112.1554,"elev":1993,"name":"Grand Canyon Park Arpt, AZ, US","cover":"SCT","clouds":[{"cover":"SCT","base":6000},{"cover":"SCT","base":7500}],"fltCat":"VFR"},{"icaoId":"KRKS","receiptTime":"2026-04-14T22:58:29.379Z","obsTime":1776207240,"reportTime":"2026-04-14T23:00:00.000Z","temp":13.3,"dewp":-11.1,"wdir":300,"wspd":15,"wgst":24,"visib":"10+","altim":1011.6,"slp":1008.3,"qcField":6,"metarType":"METAR","rawOb":"METAR KRKS 142254Z AUTO 30015G24KT 10SM BKN090 13/M11 A2987 RMK AO2 SLP083 T01331111","lat":41.5947,"lon":-109.0529,"elev":2062,"name":"Rock Springs/SW Wyoming Rgnl, WY, US","cover":"BKN","clouds":[{"cover":"BKN","base":9000}],"fltCat":"VFR"},{"icaoId":"KDSM","receiptTime":"2026-04-14T22:58:11.263Z","obsTime":1776207240,"reportTime":"2026-04-14T23:00:00.000Z","temp":29.4,"dewp":13.9,"wdir":210,"wspd":16,"wgst":26,"visib":"10+","altim":1002.1,"slp":1001.3,"qcField":4,"metarType":"METAR","rawOb":"METAR KDSM 142254Z 21016G26KT 10SM FEW040 BKN250 OVC300 29/14 A2959 RMK AO2 PK WND 24036/2212 SLP013 CB DSNT NE-SE MOV NE T02940139","lat":41.5339,"lon":-93.6531,"elev":286,"name":"Des Moines Intl, IA, US","cover":"OVC","clouds":[{"cover":"FEW","base":4000},{"cover":"BKN","base":25000},{"cover":"OVC","base":30000}],"fltCat":"VFR"},{"icaoId":"KSYR","receiptTime":"2026-04-14T22:58:10.083Z","obsTime":1776207240,"reportTime":"2026-04-14T23:00:00.000Z","temp":23.9,"dewp":13.3,"wdir":250,"wspd":14,"wgst":25,"visib":"10+","altim":1008.9,"slp":1008.3,"qcField":4,"metarType":"METAR","rawOb":"METAR KSYR 142254Z 25014G25KT 10SM FEW045 BKN075 BKN110 BKN200 24/13 A2979 RMK AO2 PK WND 24031/2207 SLP083 T02390133","lat":43.1111,"lon":-76.1038,"elev":125,"name":"Syracuse/Hancock Intl, NY, US","cover":"BKN","clouds":[{"cover":"FEW","base":4500},{"cover":"BKN","base":7500},{"cover":"BKN","base":11000},{"cover":"BKN","base":20000}],"fltCat":"VFR"},{"icaoId":"KGSO","receiptTime":"2026-04-14T22:58:11.085Z","obsTime":1776207240,"reportTime":"2026-04-14T23:00:00.000Z","temp":27.2,"dewp":10,"wdir":230,"wspd":8,"visib":"10+","altim":1018.4,"slp":1017.3,"qcField":4,"metarType":"METAR","rawOb":"METAR KGSO 142254Z 23008KT 10SM BKN250 27/10 A3007 RMK AO2 SLP173 T02720100","lat":36.0969,"lon":-79.9432,"elev":275,"name":"Greensboro Intl, NC, US","cover":"BKN","clouds":[{"cover":"BKN","base":25000}],"fltCat":"VFR"},{"icaoId":"KROC","receiptTime":"2026-04-14T22:58:10.043Z","obsTime":1776207240,"reportTime":"2026-04-14T23:00:00.000Z","temp":22.2,"dewp":13.3,"wdir":270,"wspd":18,"wgst":25,"visib":"10+","altim":1010.2,"slp":1010.1,"qcField":12,"metarType":"METAR","rawOb":"METAR KROC 142254Z 27018G25KT 10SM FEW015 BKN150 BKN200 22/13 A2983 RMK AO2 PK WND 26032/2155 SLP101 T02220133 $","lat":43.1172,"lon":-77.6754,"elev":166,"name":"Rochester Intl Arpt, NY, US","cover":"BKN","clouds":[{"cover":"FEW","base":1500},{"cover":"BKN","base":15000},{"cover":"BKN","base":20000}],"fltCat":"VFR"},{"icaoId":"KFFZ","receiptTime":"2026-04-14T22:58:16.008Z","obsTime":1776207240,"reportTime":"2026-04-14T23:00:00.000Z","temp":23.9,"dewp":-2.8,"wdir":220,"wspd":8,"visib":"10+","altim":1014,"slp":1012,"qcField":4,"metarType":"METAR","rawOb":"METAR KFFZ 142254Z 22008KT 10SM CLR 24/M03 A2994 RMK AO2 SLP120 T02391028","lat":33.4659,"lon":-111.7212,"elev":420,"name":"Mesa/Falcon Fld, AZ, US","cover":"CLR","clouds":[],"fltCat":"VFR"},{"icaoId":"KBOS","receiptTime":"2026-04-14T22:58:15.614Z","obsTime":1776207240,"reportTime":"2026-04-14T23:00:00.000Z","temp":21.1,"dewp":12.2,"wdir":190,"wspd":14,"wgst":22,"visib":"10+","altim":1007.9,"slp":1007.6,"qcField":4,"metarType":"METAR","rawOb":"METAR KBOS 142254Z 19014G22KT 10SM FEW065 FEW110 SCT220 BKN250 21/12 A2976 RMK AO2 SLP076 T02110122","lat":42.3606,"lon":-71.0097,"elev":4,"name":"Boston/Logan Intl, MA, US","cover":"BKN","clouds":[{"cover":"FEW","base":6500},{"cover":"FEW","base":11000},{"cover":"SCT","base":22000},{"cover":"BKN","base":25000}],"fltCat":"VFR"},{"icaoId":"KBFL","receiptTime":"2026-04-14T22:58:15.599Z","obsTime":1776207240,"reportTime":"2026-04-14T23:00:00.000Z","temp":22.8,"dewp":5,"wdir":310,"wspd":11,"wgst":17,"visib":"10+","altim":1018,"slp":1017.8,"qcField":4,"metarType":"METAR","rawOb":"METAR KBFL 142254Z 31011G17KT 10SM CLR 23/05 A3006 RMK AO2 SLP178 T02280050","lat":35.4342,"lon":-119.0552,"elev":146,"name":"Bakersfield/Meadows Arpt, CA, US","cover":"CLR","clouds":[],"fltCat":"VFR"},{"icaoId":"KBTV","receiptTime":"2026-04-14T22:58:10.959Z","obsTime":1776207240,"reportTime":"2026-04-14T23:00:00.000Z","temp":13.9,"dewp":12.2,"wdir":0,"wspd":0,"visib":"10+","altim":1006.9,"slp":1006.9,"qcField":4,"metarType":"METAR","rawOb":"METAR KBTV 142254Z 00000KT 10SM FEW047 BKN095 14/12 A2973 RMK AO2 SLP069 T01390122","lat":44.4682,"lon":-73.1499,"elev":101,"name":"Burlington Intl, VT, US","cover":"BKN","clouds":[{"cover":"FEW","base":4700},{"cover":"BKN","base":9500}],"fltCat":"VFR"},{"icaoId":"KPHL","receiptTime":"2026-04-14T22:58:14.301Z","obsTime":1776207240,"reportTime":"2026-04-14T23:00:00.000Z","temp":28.9,"dewp":12.2,"wdir":220,"wspd":12,"wgst":23,"visib":"10+","altim":1011.3,"slp":1011.2,"qcField":12,"metarType":"METAR","rawOb":"METAR KPHL 142254Z 22012G23KT 10SM FEW065 FEW100 SCT240 29/12 A2986 RMK AO2 SLP112 T02890122 $","lat":39.8733,"lon":-75.2268,"elev":2,"name":"Philadelphia Intl, PA, US","cover":"SCT","clouds":[{"cover":"FEW","base":6500},{"cover":"FEW","base":10000},{"cover":"SCT","base":24000}],"fltCat":"VFR"},{"icaoId":"KEUG","receiptTime":"2026-04-14T22:58:15.932Z","obsTime":1776207240,"reportTime":"2026-04-14T23:00:00.000Z","temp":10,"dewp":7.2,"wdir":170,"wspd":11,"visib":"10+","altim":1019.7,"slp":1019.6,"qcField":4,"precip":0.03,"metarType":"METAR","rawOb":"METAR KEUG 142254Z 17011KT 10SM SCT020 BKN031 OVC044 10/07 A3011 RMK AO2 RAB2159E48 SLP196 P0003 T01000072","lat":44.1331,"lon":-123.2156,"elev":109,"name":"Eugene/Mahlon Sweet Fld, OR, US","cover":"OVC","clouds":[{"cover":"SCT","base":2000},{"cover":"BKN","base":3100},{"cover":"OVC","base":4400}],"fltCat":"VFR"},{"icaoId":"KMEM","receiptTime":"2026-04-14T22:58:13.916Z","obsTime":1776207240,"reportTime":"2026-04-14T23:00:00.000Z","temp":27.8,"dewp":14.4,"wdir":200,"wspd":15,"wgst":23,"visib":"10+","altim":1016.3,"slp":1015.6,"qcField":12,"metarType":"METAR","rawOb":"METAR KMEM 142254Z 20015G23KT 10SM FEW055 BKN250 28/14 A3001 RMK AO2 SLP156 T02780144 $","lat":35.0564,"lon":-89.9864,"elev":78,"name":"Memphis Intl, TN, US","cover":"BKN","clouds":[{"cover":"FEW","base":5500},{"cover":"BKN","base":25000}],"fltCat":"VFR"},{"icaoId":"KOLM","receiptTime":"2026-04-14T22:58:14.137Z","obsTime":1776207240,"reportTime":"2026-04-14T23:00:00.000Z","temp":8.3,"dewp":6.7,"wdir":190,"wspd":12,"visib":5,"altim":1012.6,"slp":1012.6,"qcField":4,"wxString":"-RA BR","precip":0.05,"metarType":"METAR","rawOb":"METAR KOLM 142254Z 19012KT 5SM -RA BR FEW017 OVC032 08/07 A2990 RMK AO2 SLP126 P0005 T00830067","lat":46.9737,"lon":-122.9049,"elev":58,"name":"Olympia Rgnl, WA, US","cover":"OVC","clouds":[{"cover":"FEW","base":1700},{"cover":"OVC","base":3200}],"fltCat":"MVFR"},{"icaoId":"KRIC","receiptTime":"2026-04-14T22:58:10.004Z","obsTime":1776207240,"reportTime":"2026-04-14T23:00:00.000Z","temp":29.4,"dewp":11.1,"wdir":220,"wspd":11,"visib":"10+","altim":1015,"slp":1015.2,"qcField":4,"metarType":"METAR","rawOb":"METAR KRIC 142254Z 22011KT 10SM FEW080 SCT300 29/11 A2997 RMK AO2 SLP152 T02940111","lat":37.5115,"lon":-77.3234,"elev":51,"name":"Richmond Intl, VA, US","cover":"SCT","clouds":[{"cover":"FEW","base":8000},{"cover":"SCT","base":30000}],"fltCat":"VFR"},{"icaoId":"KSJN","receiptTime":"2026-04-14T22:58:29.949Z","obsTime":1776207240,"reportTime":"2026-04-14T23:00:00.000Z","temp":15.6,"dewp":-7.2,"wdir":260,"wspd":16,"wgst":25,"visib":"10+","altim":1015.7,"slp":1010.4,"qcField":6,"metarType":"METAR","rawOb":"METAR KSJN 142254Z AUTO 26016G25KT 10SM CLR 16/M07 A2999 RMK AO2 PK WND 29027/2243 SLP104 T01561072","lat":34.5184,"lon":-109.3801,"elev":1747,"name":"St Johns Ind Arpt, AZ, US","cover":"CLR","clouds":[],"fltCat":"VFR"},{"icaoId":"KSLC","receiptTime":"2026-04-14T22:58:30.047Z","obsTime":1776207240,"reportTime":"2026-04-14T23:00:00.000Z","temp":13.9,"dewp":-2.8,"wdir":"VRB","wspd":5,"visib":"10+","altim":1016,"slp":1014.1,"qcField":12,"metarType":"METAR","rawOb":"METAR KSLC 142254Z VRB05KT 10SM FEW060 FEW080 14/M03 A3000 RMK AO2 SLP141 T01391028 $","lat":40.7707,"lon":-111.965,"elev":1286,"name":"Salt Lake City Intl, UT, US","cover":"FEW","clouds":[{"cover":"FEW","base":6000},{"cover":"FEW","base":8000}],"fltCat":"VFR"},{"icaoId":"KAPC","receiptTime":"2026-04-14T22:58:15.546Z","obsTime":1776207240,"reportTime":"2026-04-14T23:00:00.000Z","temp":17.2,"dewp":8.3,"wdir":260,"wspd":10,"visib":"10+","altim":1021.1,"slp":1019.9,"qcField":4,"metarType":"METAR","rawOb":"METAR KAPC 142254Z 26010KT 10SM CLR 17/08 A3015 RMK AO2 SLP199 T01720083","lat":38.2075,"lon":-122.2804,"elev":5,"name":"Napa Cnty Arpt, CA, US","cover":"CLR","clouds":[],"fltCat":"VFR"},{"icaoId":"KBUF","receiptTime":"2026-04-14T22:58:10.976Z","obsTime":1776207240,"reportTime":"2026-04-14T23:00:00.000Z","temp":19.4,"dewp":13.3,"wdir":230,"wspd":9,"visib":"10+","altim":1011.6,"slp":1011.2,"qcField":4,"metarType":"METAR","rawOb":"METAR KBUF 142254Z 23009KT 10SM FEW080 BKN240 19/13 A2987 RMK AO2 SLP112 T01940133","lat":42.94,"lon":-78.7361,"elev":217,"name":"Buffalo-Niagara Intl, NY, US","cover":"BKN","clouds":[{"cover":"FEW","base":8000},{"cover":"BKN","base":24000}],"fltCat":"VFR"},{"icaoId":"KDFW","receiptTime":"2026-04-14T22:56:34.024Z","obsTime":1776207180,"reportTime":"2026-04-14T23:00:00.000Z","temp":26.1,"dewp":18.9,"wdir":170,"wspd":13,"wgst":21,"visib":"10+","altim":1012.3,"slp":1011.4,"qcField":4,"metarType":"METAR","rawOb":"METAR KDFW 142253Z 17013G21KT 10SM FEW026 SCT037 BKN060 BKN250 26/19 A2989 RMK AO2 PK WND 18026/2216 SLP114 T02610189","lat":32.8974,"lon":-97.022,"elev":168,"name":"Dallas-Ft Worth Intl, TX, US","cover":"BKN","clouds":[{"cover":"FEW","base":2600},{"cover":"SCT","base":3700},{"cover":"BKN","base":6000},{"cover":"BKN","base":25000}],"fltCat":"VFR"},{"icaoId":"KCRQ","receiptTime":"2026-04-14T22:56:24.320Z","obsTime":1776207180,"reportTime":"2026-04-14T23:00:00.000Z","temp":18.3,"dewp":10.6,"wdir":270,"wspd":8,"visib":"10+","altim":1017,"slp":1016.8,"qcField":6,"metarType":"METAR","rawOb":"METAR KCRQ 142253Z AUTO 27008KT 10SM CLR 18/11 A3003 RMK AO2 SLP168 T01830106","lat":33.1299,"lon":-117.2765,"elev":96,"name":"Carlsbad/Palomar Arpt, CA, US","cover":"CLR","clouds":[],"fltCat":"VFR"},{"icaoId":"KDVT","receiptTime":"2026-04-14T22:56:24.923Z","obsTime":1776207180,"reportTime":"2026-04-14T23:00:00.000Z","temp":24.4,"dewp":-2.8,"wdir":240,"wspd":10,"wgst":16,"visib":"10+","altim":1014,"slp":1012.2,"qcField":4,"metarType":"METAR","rawOb":"METAR KDVT 142253Z 24010G16KT 10SM CLR 24/M03 A2994 RMK AO2 SLP122 T02441028","lat":33.6902,"lon":-112.0662,"elev":454,"name":"Phoenix/Deer Valley Arpt, AZ, US","cover":"CLR","clouds":[],"fltCat":"VFR"},{"icaoId":"KMFE","receiptTime":"2026-04-14T22:56:30.820Z","obsTime":1776207180,"reportTime":"2026-04-14T23:00:00.000Z","temp":30.6,"dewp":20.6,"wdir":130,"wspd":21,"wgst":28,"visib":"10+","altim":1011.9,"slp":1011.5,"qcField":4,"metarType":"METAR","rawOb":"METAR KMFE 142253Z 13021G28KT 10SM BKN039 31/21 A2988 RMK AO2 PK WND 12029/2203 SLP115 T03060206","lat":26.1791,"lon":-98.2445,"elev":29,"name":"McAllen/Miller Intl, TX, US","cover":"BKN","clouds":[{"cover":"BKN","base":3900}],"fltCat":"VFR"},{"icaoId":"KSMF","receiptTime":"2026-04-14T22:56:31.824Z","obsTime":1776207180,"reportTime":"2026-04-14T23:00:00.000Z","temp":20.6,"dewp":8.3,"wdir":170,"wspd":8,"visib":"10+","altim":1019.7,"slp":1019.4,"qcField":4,"metarType":"METAR","rawOb":"METAR KSMF 142253Z 17008KT 10SM FEW250 21/08 A3011 RMK AO2 SLP194 T02060083","lat":38.7007,"lon":-121.5948,"elev":7,"name":"Sacramento Intl, CA, US","cover":"FEW","clouds":[{"cover":"FEW","base":25000}],"fltCat":"VFR"},{"icaoId":"KDMN","receiptTime":"2026-04-14T22:56:27.253Z","obsTime":1776207180,"reportTime":"2026-04-14T23:00:00.000Z","temp":23.3,"dewp":-1.7,"wdir":280,"wspd":14,"wgst":20,"visib":"10+","altim":1013.3,"slp":1006.8,"qcField":6,"metarType":"METAR","rawOb":"METAR KDMN 142253Z AUTO 28014G20KT 10SM SCT110 23/M02 A2992 RMK AO2 PK WND 28033/2157 SLP068 T02331017","lat":32.2592,"lon":-107.7206,"elev":1310,"name":"Deming Muni, NM, US","cover":"SCT","clouds":[{"cover":"SCT","base":11000}],"fltCat":"VFR"},{"icaoId":"KPRC","receiptTime":"2026-04-14T22:56:32.670Z","obsTime":1776207180,"reportTime":"2026-04-14T23:00:00.000Z","temp":14.4,"dewp":-2.8,"wdir":"VRB","wspd":4,"visib":"10+","altim":1017.4,"slp":1013.6,"qcField":4,"metarType":"METAR","rawOb":"METAR KPRC 142253Z VRB04KT 10SM BKN090 14/M03 A3004 RMK AO2 SLP136 T01441028","lat":34.6491,"lon":-112.4223,"elev":1528,"name":"Prescott/Love Fld, AZ, US","cover":"BKN","clouds":[{"cover":"BKN","base":9000}],"fltCat":"VFR"},{"icaoId":"KPSC","receiptTime":"2026-04-14T22:56:32.686Z","obsTime":1776207180,"reportTime":"2026-04-14T23:00:00.000Z","temp":12.8,"dewp":0,"wdir":220,"wspd":15,"wgst":23,"visib":"10+","altim":1014.3,"slp":1014.1,"qcField":4,"metarType":"METAR","rawOb":"METAR KPSC 142253Z 22015G23KT 10SM OVC085 13/00 A2995 RMK AO2 PK WND 23029/2154 SLP141 T01280000","lat":46.2695,"lon":-119.1182,"elev":121,"name":"Pasco/Tri Cities Arpt, WA, US","cover":"OVC","clouds":[{"cover":"OVC","base":8500}],"fltCat":"VFR"},{"icaoId":"KMFR","receiptTime":"2026-04-14T22:56:33.353Z","obsTime":1776207180,"reportTime":"2026-04-14T23:00:00.000Z","temp":14.4,"dewp":2.8,"wdir":310,"wspd":11,"visib":"10+","altim":1018.4,"slp":1018.2,"qcField":4,"metarType":"METAR","rawOb":"METAR KMFR 142253Z 31011KT 10SM OVC110 14/03 A3007 RMK AO2 SLP182 T01440028","lat":42.375,"lon":-122.877,"elev":397,"name":"Medford/Rogue Valley Intl, OR, US","cover":"OVC","clouds":[{"cover":"OVC","base":11000}],"fltCat":"VFR"},{"icaoId":"KLOL","receiptTime":"2026-04-14T22:56:33.156Z","obsTime":1776207180,"reportTime":"2026-04-14T23:00:00.000Z","temp":18.3,"dewp":-8.9,"wdir":290,"wspd":9,"wgst":16,"visib":"10+","altim":1016,"slp":1015,"qcField":6,"metarType":"METAR","rawOb":"METAR KLOL 142253Z AUTO 29009G16KT 220V310 10SM CLR 18/M09 A3000 RMK AO2 SLP150 T01831089","lat":40.0684,"lon":-118.5702,"elev":1191,"name":"Lovelock/Derby Fld, NV, US","cover":"CLR","clouds":[],"fltCat":"VFR"},{"icaoId":"KCYS","receiptTime":"2026-04-14T22:56:21.865Z","obsTime":1776207180,"reportTime":"2026-04-14T23:00:00.000Z","temp":5,"dewp":0.6,"wdir":260,"wspd":24,"wgst":31,"visib":"10+","altim":1012.3,"slp":1010.1,"qcField":4,"metarType":"METAR","rawOb":"METAR KCYS 142253Z 26024G31KT 10SM OVC060 05/01 A2989 RMK AO2 PK WND 26043/2203 WSHFT 2147 SLP101 T00500006","lat":41.1579,"lon":-104.8081,"elev":1868,"name":"Cheyenne Rgnl, WY, US","cover":"OVC","clouds":[{"cover":"OVC","base":6000}],"fltCat":"VFR"},{"icaoId":"KGSP","receiptTime":"2026-04-14T22:56:25.414Z","obsTime":1776207180,"reportTime":"2026-04-14T23:00:00.000Z","temp":27.2,"dewp":10.6,"wdir":230,"wspd":10,"visib":"10+","altim":1019.4,"slp":1018.4,"qcField":6,"metarType":"METAR","rawOb":"METAR KGSP 142253Z AUTO 23010KT 10SM CLR 27/11 A3010 RMK AO2 SLP184 T02720106","lat":34.8842,"lon":-82.2209,"elev":285,"name":"Greenville-Spartanburg Intl, SC, US","cover":"CLR","clouds":[],"fltCat":"VFR"},{"icaoId":"KFAT","receiptTime":"2026-04-14T22:56:36.708Z","obsTime":1776207180,"reportTime":"2026-04-14T23:00:00.000Z","temp":21.7,"dewp":5.6,"wdir":270,"wspd":9,"wgst":14,"visib":"10+","altim":1018.7,"slp":1018.4,"qcField":4,"metarType":"METAR","rawOb":"METAR KFAT 142253Z 27009G14KT 10SM SCT050 SCT090 SCT200 22/06 A3008 RMK AO2 SLP184 T02170056","lat":36.78,"lon":-119.7202,"elev":102,"name":"Fresno/Yosemite Intl, CA, US","cover":"SCT","clouds":[{"cover":"SCT","base":5000},{"cover":"SCT","base":9000},{"cover":"SCT","base":20000}],"fltCat":"VFR"},{"icaoId":"KBLI","receiptTime":"2026-04-14T22:56:36.687Z","obsTime":1776207180,"reportTime":"2026-04-14T23:00:00.000Z","temp":8.9,"dewp":5.6,"wdir":170,"wspd":18,"wgst":31,"visib":"10+","altim":1007.9,"slp":1008.5,"qcField":4,"wxString":"-RA","precip":0.01,"metarType":"METAR","rawOb":"METAR KBLI 142253Z 17018G31KT 10SM -RA FEW019 OVC055 09/06 A2976 RMK AO2 PK WND 20031/2230 SLP085 P0001 T00890056","lat":48.7991,"lon":-122.5407,"elev":46,"name":"Bellingham Intl, WA, US","cover":"OVC","clouds":[{"cover":"FEW","base":1900},{"cover":"OVC","base":5500}],"fltCat":"VFR"},{"icaoId":"KBIL","receiptTime":"2026-04-14T22:56:36.649Z","obsTime":1776207180,"reportTime":"2026-04-14T23:00:00.000Z","temp":18.3,"dewp":-5.6,"wdir":210,"wspd":8,"wgst":15,"visib":"10+","altim":1005.8,"slp":1004.7,"qcField":4,"metarType":"METAR","rawOb":"METAR KBIL 142253Z 21008G15KT 10SM BKN110 18/M06 A2970 RMK AO2 SLP047 T01831056","lat":45.8072,"lon":-108.5462,"elev":1089,"name":"Billings/Logan Intl, MT, US","cover":"BKN","clouds":[{"cover":"BKN","base":11000}],"fltCat":"VFR"},{"icaoId":"KCLL","receiptTime":"2026-04-14T22:56:35.125Z","obsTime":1776207180,"reportTime":"2026-04-14T23:00:00.000Z","temp":28.3,"dewp":18.9,"wdir":140,"wspd":12,"visib":"10+","altim":1014.3,"slp":1013.8,"qcField":4,"metarType":"METAR","rawOb":"METAR KCLL 142253Z 14012KT 10SM FEW042 BKN065 28/19 A2995 RMK AO2 SLP138 T02830189","lat":30.5912,"lon":-96.3631,"elev":96,"name":"College Station/Easterwood Arpt, TX, US","cover":"BKN","clouds":[{"cover":"FEW","base":4200},{"cover":"BKN","base":6500}],"fltCat":"VFR"},{"icaoId":"KPBI","receiptTime":"2026-04-14T22:56:34.709Z","obsTime":1776207180,"reportTime":"2026-04-14T23:00:00.000Z","temp":25,"dewp":14.4,"wdir":90,"wspd":13,"wgst":17,"visib":"10+","altim":1020.7,"slp":1020.6,"qcField":12,"metarType":"METAR","rawOb":"METAR KPBI 142253Z 09013G17KT 10SM SCT035 SCT250 25/14 A3014 RMK AO2 SLP206 T02500144 $","lat":26.6851,"lon":-80.0992,"elev":4,"name":"Palm Beach Intl, FL, US","cover":"SCT","clouds":[{"cover":"SCT","base":3500},{"cover":"SCT","base":25000}],"fltCat":"VFR"},{"icaoId":"KMYR","receiptTime":"2026-04-14T22:56:34.516Z","obsTime":1776207180,"reportTime":"2026-04-14T23:00:00.000Z","temp":21.1,"dewp":17.2,"wdir":180,"wspd":12,"visib":"10+","altim":1021.1,"slp":1021.1,"qcField":12,"metarType":"METAR","rawOb":"METAR KMYR 142253Z 18012KT 10SM CLR 21/17 A3015 RMK AO2 SLP211 T02110172 $","lat":33.6769,"lon":-78.9325,"elev":7,"name":"Myrtle Beach Intl, SC, US","cover":"CLR","clouds":[],"fltCat":"VFR"},{"icaoId":"KDLN","receiptTime":"2026-04-14T22:56:34.058Z","obsTime":1776207180,"reportTime":"2026-04-14T23:00:00.000Z","temp":14.4,"dewp":-7.2,"wdir":230,"wspd":21,"wgst":26,"visib":"10+","altim":1008.9,"slp":1006.4,"qcField":6,"metarType":"METAR","rawOb":"METAR KDLN 142253Z AUTO 23021G26KT 10SM BKN080 14/M07 A2979 RMK AO2 PK WND 25026/2200 SLP064 T01441072","lat":45.2584,"lon":-112.5546,"elev":1586,"name":"Dillon Arpt, MT, US","cover":"BKN","clouds":[{"cover":"BKN","base":8000}],"fltCat":"VFR"},{"icaoId":"KIDA","receiptTime":"2026-04-14T22:56:33.020Z","obsTime":1776207180,"reportTime":"2026-04-14T23:00:00.000Z","temp":11.1,"dewp":-4.4,"wdir":220,"wspd":19,"wgst":24,"visib":"10+","altim":1014,"slp":1013.5,"qcField":4,"metarType":"METAR","rawOb":"METAR KIDA 142253Z 22019G24KT 10SM BKN065 OVC080 11/M04 A2994 RMK AO2 SLP135 T01111044","lat":43.5204,"lon":-112.0675,"elev":1444,"name":"Idaho Falls Rgnl, ID, US","cover":"OVC","clouds":[{"cover":"BKN","base":6500},{"cover":"OVC","base":8000}],"fltCat":"VFR"},{"icaoId":"KPSP","receiptTime":"2026-04-14T22:56:32.705Z","obsTime":1776207180,"reportTime":"2026-04-14T23:00:00.000Z","temp":27.8,"dewp":1.1,"wdir":310,"wspd":6,"visib":"10+","altim":1014.3,"slp":1013.8,"qcField":12,"metarType":"METAR","rawOb":"METAR KPSP 142253Z 31006KT 10SM CLR 28/01 A2995 RMK AO2 SLP138 T02780011 $","lat":33.8222,"lon":-116.5043,"elev":123,"name":"Palm Springs Intl, CA, US","cover":"CLR","clouds":[],"fltCat":"VFR"},{"icaoId":"KONT","receiptTime":"2026-04-14T22:56:32.430Z","obsTime":1776207180,"reportTime":"2026-04-14T23:00:00.000Z","temp":22.8,"dewp":6.7,"wdir":270,"wspd":11,"visib":"10+","altim":1016.3,"slp":1015.6,"qcField":12,"metarType":"METAR","rawOb":"METAR KONT 142253Z 27011KT 10SM FEW055 FEW080 23/07 A3001 RMK AO2 SLP156 T02280067 $","lat":34.0531,"lon":-117.5769,"elev":279,"name":"Ontario Intl, CA, US","cover":"FEW","clouds":[{"cover":"FEW","base":5500},{"cover":"FEW","base":8000}],"fltCat":"VFR"},{"icaoId":"KMYF","receiptTime":"2026-04-14T22:56:32.296Z","obsTime":1776207180,"reportTime":"2026-04-14T23:00:00.000Z","temp":20,"dewp":7.8,"wdir":280,"wspd":11,"wgst":19,"visib":"10+","altim":1017.4,"slp":1016.9,"qcField":4,"metarType":"METAR","rawOb":"METAR KMYF 142253Z 28011G19KT 10SM CLR 20/08 A3004 RMK AO2 SLP169 T02000078","lat":32.8145,"lon":-117.1375,"elev":128,"name":"San Diego/Montgomery Arpt, CA, US","cover":"CLR","clouds":[],"fltCat":"VFR"},{"icaoId":"KSHR","receiptTime":"2026-04-14T22:56:31.758Z","obsTime":1776207180,"reportTime":"2026-04-14T23:00:00.000Z","temp":16.1,"dewp":-0.6,"wdir":350,"wspd":3,"visib":"10+","altim":1007.2,"slp":1007.1,"qcField":6,"metarType":"METAR","rawOb":"METAR KSHR 142253Z AUTO 35003KT 10SM CLR 16/M01 A2974 RMK AO2 SLP071 T01611006","lat":44.7603,"lon":-106.9741,"elev":1212,"name":"Sheridan Cnty Arpt, WY, US","cover":"CLR","clouds":[],"fltCat":"VFR"},{"icaoId":"KAPA","receiptTime":"2026-04-14T22:56:22.618Z","obsTime":1776207180,"reportTime":"2026-04-14T23:00:00.000Z","temp":10.6,"dewp":-1.1,"wdir":340,"wspd":8,"visib":"10+","altim":1010.9,"slp":1008.6,"qcField":4,"metarType":"METAR","rawOb":"METAR KAPA 142253Z 34008KT 10SM FEW050 FEW085 BKN110 BKN160 11/M01 A2985 RMK AO2 SLP086 SHRA DSNT W T01061011","lat":39.5599,"lon":-104.8484,"elev":1791,"name":"Denver/Centennial Arpt, CO, US","cover":"BKN","clouds":[{"cover":"FEW","base":5000},{"cover":"FEW","base":8500},{"cover":"BKN","base":11000},{"cover":"BKN","base":16000}],"fltCat":"VFR"},{"icaoId":"KASE","receiptTime":"2026-04-14T22:56:22.684Z","obsTime":1776207180,"reportTime":"2026-04-14T23:00:00.000Z","temp":5,"dewp":-3.9,"wdir":10,"wspd":9,"wgst":17,"visib":"10+","altim":1014,"slp":1009.1,"qcField":4,"metarType":"METAR","rawOb":"METAR KASE 142253Z 01009G17KT 10SM SCT048 BKN060 05/M04 A2994 RMK AO2 SLP091 T00501039","lat":39.2299,"lon":-106.8705,"elev":2384,"name":"Aspen/Pitkin Cnty, CO, US","cover":"BKN","clouds":[{"cover":"SCT","base":4800},{"cover":"BKN","base":6000}],"fltCat":"VFR"},{"icaoId":"KCPR","receiptTime":"2026-04-14T22:56:23.227Z","obsTime":1776207180,"reportTime":"2026-04-14T23:00:00.000Z","temp":16.1,"dewp":-11.1,"wdir":260,"wspd":13,"wgst":23,"visib":"10+","altim":1008.2,"slp":1005.6,"qcField":4,"metarType":"METAR","rawOb":"METAR KCPR 142253Z 26013G23KT 10SM CLR 16/M11 A2977 RMK AO2 SLP056 T01611111","lat":42.8978,"lon":-106.4736,"elev":1623,"name":"Casper/Natrona Cnty, WY, US","cover":"CLR","clouds":[],"fltCat":"VFR"},{"icaoId":"KDEN","receiptTime":"2026-04-14T22:56:21.925Z","obsTime":1776207180,"reportTime":"2026-04-14T23:00:00.000Z","temp":12.8,"dewp":-1.7,"wdir":0,"wspd":0,"visib":"10+","altim":1010.2,"slp":1005.8,"qcField":4,"metarType":"METAR","rawOb":"METAR KDEN 142253Z 00000KT 10SM SCT100 BKN150 BKN200 13/M02 A2983 RMK AO2 SLP058 VIRGA T01281017","lat":39.8466,"lon":-104.6562,"elev":1656,"name":"Denver Intl, CO, US","cover":"BKN","clouds":[{"cover":"SCT","base":10000},{"cover":"BKN","base":15000},{"cover":"BKN","base":20000}],"fltCat":"VFR"},{"icaoId":"KDRO","receiptTime":"2026-04-14T22:56:21.999Z","obsTime":1776207180,"reportTime":"2026-04-14T23:00:00.000Z","temp":9.4,"dewp":-3.9,"wdir":260,"wspd":11,"wgst":21,"visib":"10+","altim":1016.3,"slp":1014.1,"qcField":6,"metarType":"METAR","rawOb":"METAR KDRO 142253Z AUTO 26011G21KT 10SM SCT060 OVC090 09/M04 A3001 RMK AO2 SLP141 T00941039","lat":37.1431,"lon":-107.7602,"elev":2021,"name":"Durango/La Plata Cnty, CO, US","cover":"OVC","clouds":[{"cover":"SCT","base":6000},{"cover":"OVC","base":9000}],"fltCat":"VFR"},{"icaoId":"KTWF","receiptTime":"2026-04-14T22:56:31.231Z","obsTime":1776207180,"reportTime":"2026-04-14T23:00:00.000Z","temp":13.3,"dewp":-0.6,"wdir":290,"wspd":6,"wgst":17,"visib":"10+","altim":1014.6,"slp":1012.6,"qcField":4,"metarType":"METAR","rawOb":"METAR KTWF 142253Z 29006G17KT 10SM SCT065 13/M01 A2996 RMK AO2 SLP126 T01331006","lat":42.4785,"lon":-114.4775,"elev":1269,"name":"Twin Falls/Joslin Fld, ID, US","cover":"SCT","clouds":[{"cover":"SCT","base":6500}],"fltCat":"VFR"},{"icaoId":"KLBB","receiptTime":"2026-04-14T22:56:29.482Z","obsTime":1776207180,"reportTime":"2026-04-14T23:00:00.000Z","temp":28.3,"dewp":-0.6,"wdir":230,"wspd":24,"wgst":38,"visib":"10+","altim":1009.9,"slp":1004.7,"qcField":4,"metarType":"METAR","rawOb":"METAR KLBB 142253Z 23024G38KT 10SM SCT120 BKN170 BKN250 28/M01 A2982 RMK AO2 PK WND 23038/2246 SLP047 VIRGA SW T02831006","lat":33.6658,"lon":-101.8233,"elev":996,"name":"Lubbock Intl Arpt, TX, US","cover":"BKN","clouds":[{"cover":"SCT","base":12000},{"cover":"BKN","base":17000},{"cover":"BKN","base":25000}],"fltCat":"VFR"},{"icaoId":"KSWO","receiptTime":"2026-04-14T22:56:35.364Z","obsTime":1776207180,"reportTime":"2026-04-14T23:00:00.000Z","temp":26.1,"dewp":20,"wdir":180,"wspd":19,"wgst":25,"visib":"10+","altim":1008.9,"slp":1007.6,"qcField":4,"metarType":"METAR","rawOb":"METAR KSWO 142253Z 18019G25KT 10SM FEW034 BKN120 26/20 A2979 RMK AO2 PK WND 18030/2159 SLP076 T02610200","lat":36.1624,"lon":-97.0832,"elev":293,"name":"Stillwater Muni, OK, US","cover":"BKN","clouds":[{"cover":"FEW","base":3400},{"cover":"BKN","base":12000}],"fltCat":"VFR"},{"icaoId":"KIAH","receiptTime":"2026-04-14T22:56:27.637Z","obsTime":1776207180,"reportTime":"2026-04-14T23:00:00.000Z","temp":26.1,"dewp":21.1,"wdir":120,"wspd":15,"wgst":25,"visib":"10+","altim":1015.7,"slp":1015.4,"qcField":4,"metarType":"METAR","rawOb":"METAR KIAH 142253Z 12015G25KT 10SM FEW036 SCT045 SCT055 26/21 A2999 RMK AO2 SLP154 T02610211","lat":29.9844,"lon":-95.3607,"elev":27,"name":"Houston/Bush Intl, TX, US","cover":"SCT","clouds":[{"cover":"FEW","base":3600},{"cover":"SCT","base":4500},{"cover":"SCT","base":5500}],"fltCat":"VFR"},{"icaoId":"KFMN","receiptTime":"2026-04-14T22:56:37.287Z","obsTime":1776207180,"reportTime":"2026-04-14T23:00:00.000Z","temp":14.4,"dewp":-4.4,"wdir":270,"wspd":9,"wgst":21,"visib":"10+","altim":1015.3,"slp":1012.9,"qcField":4,"metarType":"METAR","rawOb":"METAR KFMN 142253Z 27009G21KT 10SM BKN075 BKN095 14/M04 A2998 RMK AO2 SLP129 T01441044","lat":36.7435,"lon":-108.2293,"elev":1677,"name":"Farmington/Four Corners Rgnl, NM, US","cover":"BKN","clouds":[{"cover":"BKN","base":7500},{"cover":"BKN","base":9500}],"fltCat":"VFR"},{"icaoId":"KBRO","receiptTime":"2026-04-14T22:56:36.788Z","obsTime":1776207180,"reportTime":"2026-04-14T23:00:00.000Z","temp":28.3,"dewp":20.6,"wdir":150,"wspd":22,"wgst":29,"visib":"10+","altim":1013,"slp":1012.7,"qcField":4,"metarType":"METAR","rawOb":"METAR KBRO 142253Z 15022G29KT 10SM CLR 28/21 A2991 RMK AO2 PK WND 15030/2227 SLP127 T02830206","lat":25.9146,"lon":-97.4231,"elev":6,"name":"Brownsville Intl, TX, US","cover":"CLR","clouds":[],"fltCat":"VFR"},{"icaoId":"KMCI","receiptTime":"2026-04-14T22:56:36.881Z","obsTime":1776207180,"reportTime":"2026-04-14T23:00:00.000Z","temp":28.3,"dewp":17.8,"wdir":210,"wspd":20,"wgst":29,"visib":"10+","altim":1005.5,"slp":1004,"qcField":4,"metarType":"METAR","rawOb":"METAR KMCI 142253Z 21020G29KT 10SM FEW065 OVC200 28/18 A2969 RMK AO2 PK WND 21033/2207 SLP040 T02830178","lat":39.2975,"lon":-94.7309,"elev":308,"name":"Kansas City Intl, MO, US","cover":"OVC","clouds":[{"cover":"FEW","base":6500},{"cover":"OVC","base":20000}],"fltCat":"VFR"},{"icaoId":"KMTJ","receiptTime":"2026-04-14T22:56:36.222Z","obsTime":1776207180,"reportTime":"2026-04-14T23:00:00.000Z","temp":9.4,"dewp":1.1,"wdir":60,"wspd":6,"visib":"10+","altim":1015.3,"slp":1011.6,"qcField":6,"metarType":"METAR","rawOb":"METAR KMTJ 142253Z AUTO 06006KT 10SM FEW060 BKN095 09/01 A2998 RMK AO2 SLP116 T00940011","lat":38.5054,"lon":-107.8981,"elev":1755,"name":"Montrose Rgnl, CO, US","cover":"BKN","clouds":[{"cover":"FEW","base":6000},{"cover":"BKN","base":9500}],"fltCat":"VFR"},{"icaoId":"KSAF","receiptTime":"2026-04-14T22:56:30.937Z","obsTime":1776207180,"reportTime":"2026-04-14T23:00:00.000Z","temp":15,"dewp":-9.4,"wdir":270,"wspd":14,"wgst":25,"visib":"10+","altim":1014.3,"slp":1007.4,"qcField":12,"metarType":"METAR","rawOb":"METAR KSAF 142253Z 27014G25KT 10SM SCT075 SCT095 15/M09 A2995 RMK AO2 PK WND 25030/2218 SLP074 T01501094 $","lat":35.611,"lon":-106.0957,"elev":1918,"name":"Santa Fe Cnty Muni, NM, US","cover":"SCT","clouds":[{"cover":"SCT","base":7500},{"cover":"SCT","base":9500}],"fltCat":"VFR"},{"icaoId":"KSDL","receiptTime":"2026-04-14T22:56:36.539Z","obsTime":1776207180,"reportTime":"2026-04-14T23:00:00.000Z","temp":25,"dewp":-3.9,"wdir":250,"wspd":6,"visib":"10+","altim":1014.3,"slp":1012.3,"qcField":4,"metarType":"METAR","rawOb":"METAR KSDL 142253Z 25006KT 10SM CLR 25/M04 A2995 RMK AO2 SLP123 T02501039","lat":33.6123,"lon":-111.9232,"elev":438,"name":"Scottsdale Muni, AZ, US","cover":"CLR","clouds":[],"fltCat":"VFR"},{"icaoId":"KMSY","receiptTime":"2026-04-14T22:56:30.904Z","obsTime":1776207180,"reportTime":"2026-04-14T23:00:00.000Z","temp":25.6,"dewp":16.7,"wdir":180,"wspd":10,"visib":"10+","altim":1019.4,"slp":1019.7,"qcField":4,"metarType":"METAR","rawOb":"METAR KMSY 142253Z 18010KT 10SM FEW040 26/17 A3010 RMK AO2 SLP197 T02560167","lat":29.9974,"lon":-90.2777,"elev":0,"name":"New Orleans/Armstrong Intl, LA, US","cover":"FEW","clouds":[{"cover":"FEW","base":4000}],"fltCat":"VFR"},{"icaoId":"KSJC","receiptTime":"2026-04-14T22:56:31.794Z","obsTime":1776207180,"reportTime":"2026-04-14T23:00:00.000Z","temp":16.7,"dewp":8.3,"wdir":330,"wspd":16,"visib":"10+","altim":1021.1,"slp":1021,"qcField":12,"metarType":"METAR","rawOb":"METAR KSJC 142253Z 33016KT 10SM FEW036 FEW050 17/08 A3015 RMK AO2 SLP210 T01670083 $","lat":37.3594,"lon":-121.9244,"elev":13,"name":"San Jose Intl Arpt, CA, US","cover":"FEW","clouds":[{"cover":"FEW","base":3600},{"cover":"FEW","base":5000}],"fltCat":"VFR"},{"icaoId":"KLAR","receiptTime":"2026-04-14T22:56:27.813Z","obsTime":1776207180,"reportTime":"2026-04-14T23:00:00.000Z","temp":1.1,"dewp":0,"wdir":160,"wspd":6,"visib":"10+","altim":1012.6,"slp":1011.1,"qcField":6,"precip":0.03,"metarType":"METAR","rawOb":"METAR KLAR 142253Z AUTO 16006KT 10SM SCT024 BKN070 OVC085 01/00 A2990 RMK AO2 WSHFT 2151 SNE47 SLP111 P0003 T00110000","lat":41.3165,"lon":-105.6729,"elev":2217,"name":"Laramie Rgnl, WY, US","cover":"OVC","clouds":[{"cover":"SCT","base":2400},{"cover":"BKN","base":7000},{"cover":"OVC","base":8500}],"fltCat":"VFR"},{"icaoId":"KPUB","receiptTime":"2026-04-14T22:56:36.238Z","obsTime":1776207180,"reportTime":"2026-04-14T23:00:00.000Z","temp":20.6,"dewp":-10.6,"wdir":230,"wspd":22,"wgst":31,"visib":"10+","altim":1008.5,"slp":1003.7,"qcField":12,"metarType":"METAR","rawOb":"METAR KPUB 142253Z 23022G31KT 10SM FEW120 21/M11 A2978 RMK AO2 PK WND 23032/2232 SLP037 T02061106 $","lat":38.2887,"lon":-104.5057,"elev":1441,"name":"Pueblo Mem Arpt, CO, US","cover":"FEW","clouds":[{"cover":"FEW","base":12000}],"fltCat":"VFR"},{"icaoId":"KDTW","receiptTime":"2026-04-14T22:56:37.966Z","obsTime":1776207180,"reportTime":"2026-04-14T23:00:00.000Z","temp":25.6,"dewp":15.6,"wdir":210,"wspd":12,"visib":"10+","altim":1010.6,"slp":1010,"qcField":12,"metarType":"METAR","rawOb":"METAR KDTW 142253Z 21012KT 10SM SCT050 BKN065 BKN230 26/16 A2984 RMK AO2 CIG 049 3L SLP100 T02560156 $","lat":42.2311,"lon":-83.3312,"elev":192,"name":"Detroit/Metro Wayne Cnty, MI, US","cover":"BKN","clouds":[{"cover":"SCT","base":5000},{"cover":"BKN","base":6500},{"cover":"BKN","base":23000}],"fltCat":"VFR"},{"icaoId":"KRIW","receiptTime":"2026-04-14T22:56:24.776Z","obsTime":1776207180,"reportTime":"2026-04-14T23:00:00.000Z","temp":15.6,"dewp":-10,"visib":"10+","altim":1008.2,"slp":1005.2,"qcField":6,"metarType":"METAR","rawOb":"METAR KRIW 142253Z AUTO 10SM CLR 16/M10 A2977 RMK AO2 SLP052 T01561100","lat":43.0622,"lon":-108.4471,"elev":1662,"name":"Riverton Rgnl, WY, US","cover":"CLR","clouds":[],"fltCat":"VFR"},{"icaoId":"KPDX","receiptTime":"2026-04-14T22:56:29.905Z","obsTime":1776207180,"reportTime":"2026-04-14T23:00:00.000Z","temp":10,"dewp":6.7,"wdir":200,"wspd":16,"wgst":23,"visib":7,"altim":1016.7,"slp":1016.4,"qcField":12,"wxString":"-RA","precip":0.01,"metarType":"METAR","rawOb":"METAR KPDX 142253Z 20016G23KT 7SM -RA BKN023 BKN036 OVC055 10/07 A3002 RMK AO2 PK WND 22026/2234 SLP164 P0001 T01000067 $","lat":45.5958,"lon":-122.6092,"elev":7,"name":"Portland Intl, OR, US","cover":"OVC","clouds":[{"cover":"BKN","base":2300},{"cover":"BKN","base":3600},{"cover":"OVC","base":5500}],"fltCat":"MVFR"},{"icaoId":"KPGA","receiptTime":"2026-04-14T22:56:29.923Z","obsTime":1776207180,"reportTime":"2026-04-14T23:00:00.000Z","temp":16.1,"dewp":-5,"wdir":320,"wspd":8,"wgst":16,"visib":"10+","altim":1014.6,"slp":1011.6,"qcField":6,"metarType":"METAR","rawOb":"METAR KPGA 142253Z AUTO 32008G16KT 10SM OVC085 16/M05 A2996 RMK AO2 SLP116 T01611050","lat":36.9211,"lon":-111.4487,"elev":1310,"name":"Page Muni, AZ, US","cover":"OVC","clouds":[{"cover":"OVC","base":8500}],"fltCat":"VFR"},{"icaoId":"KPUW","receiptTime":"2026-04-14T22:56:32.760Z","obsTime":1776207180,"reportTime":"2026-04-14T23:00:00.000Z","temp":8.9,"dewp":0,"wdir":260,"wspd":17,"wgst":28,"visib":"10+","altim":1013.3,"slp":1014,"qcField":6,"metarType":"METAR","rawOb":"METAR KPUW 142253Z AUTO 26017G28KT 10SM SCT100 09/00 A2992 RMK AO2 PK WND 26028/2250 SLP140 T00890000","lat":46.7438,"lon":-117.1158,"elev":774,"name":"Pullman/Moscow Rgnl, WA, US","cover":"SCT","clouds":[{"cover":"SCT","base":10000}],"fltCat":"VFR"},{"icaoId":"KRDD","receiptTime":"2026-04-14T22:56:31.527Z","obsTime":1776207180,"reportTime":"2026-04-14T23:00:00.000Z","temp":19.4,"dewp":7.2,"wdir":200,"wspd":6,"visib":"10+","altim":1018.4,"slp":1018.2,"qcField":4,"metarType":"METAR","rawOb":"METAR KRDD 142253Z 20006KT 10SM SCT047 19/07 A3007 RMK AO2 SLP182 T01940072","lat":40.5146,"lon":-122.2977,"elev":152,"name":"Redding Muni, CA, US","cover":"SCT","clouds":[{"cover":"SCT","base":4700}],"fltCat":"VFR"},{"icaoId":"KMLC","receiptTime":"2026-04-14T22:56:32.154Z","obsTime":1776207180,"reportTime":"2026-04-14T23:00:00.000Z","temp":23.3,"dewp":19.4,"wdir":180,"wspd":7,"visib":"10+","altim":1013.6,"slp":1012.5,"qcField":6,"metarType":"METAR","rawOb":"METAR KMLC 142253Z AUTO 18007KT 160V220 10SM BKN020 OVC025 23/19 A2993 RMK AO2 SLP125 T02330194","lat":34.8824,"lon":-95.7815,"elev":231,"name":"McAlester Rgnl, OK, US","cover":"OVC","clouds":[{"cover":"BKN","base":2000},{"cover":"OVC","base":2500}],"fltCat":"MVFR"},{"icaoId":"KMOD","receiptTime":"2026-04-14T22:56:32.231Z","obsTime":1776207180,"reportTime":"2026-04-14T23:00:00.000Z","temp":21.1,"dewp":6.7,"wdir":"VRB","wspd":3,"visib":"10+","altim":1019,"slp":1019,"qcField":4,"metarType":"METAR","rawOb":"METAR KMOD 142253Z VRB03KT 10SM CLR 21/07 A3009 RMK AO2 SLP190 T02110067","lat":37.6254,"lon":-120.9549,"elev":25,"name":"Modesto/Sham Fld, CA, US","cover":"CLR","clouds":[],"fltCat":"VFR"},{"icaoId":"KMSO","receiptTime":"2026-04-14T22:56:24.693Z","obsTime":1776207180,"reportTime":"2026-04-14T23:00:00.000Z","temp":12.2,"dewp":-2.8,"wdir":300,"wspd":7,"visib":"10+","altim":1009.2,"slp":1009.7,"qcField":4,"metarType":"METAR","rawOb":"METAR KMSO 142253Z 30007KT 10SM FEW070 BKN100 12/M03 A2980 RMK AO2 SLP097 T01221028","lat":46.9208,"lon":-114.0938,"elev":974,"name":"Missoula Intl, MT, US","cover":"BKN","clouds":[{"cover":"FEW","base":7000},{"cover":"BKN","base":10000}],"fltCat":"VFR"},{"icaoId":"KGTF","receiptTime":"2026-04-14T22:56:25.432Z","obsTime":1776207180,"reportTime":"2026-04-14T23:00:00.000Z","temp":14.4,"dewp":-4.4,"wdir":240,"wspd":24,"wgst":34,"visib":"10+","altim":1004.8,"slp":1004.8,"qcField":4,"metarType":"METAR","rawOb":"METAR KGTF 142253Z 24024G34KT 10SM CLR 14/M04 A2967 RMK AO2 PK WND 25040/2227 SLP048 T01441044","lat":47.4733,"lon":-111.3828,"elev":1117,"name":"Great Falls Intl, MT, US","cover":"CLR","clouds":[],"fltCat":"VFR"},{"icaoId":"KLAX","receiptTime":"2026-04-14T22:56:24.574Z","obsTime":1776207180,"reportTime":"2026-04-14T23:00:00.000Z","temp":20,"dewp":12.2,"wdir":240,"wspd":13,"wgst":23,"visib":"10+","altim":1017.7,"slp":1017.5,"qcField":4,"metarType":"METAR","rawOb":"METAR KLAX 142253Z 24013G23KT 10SM FEW015 FEW070 20/12 A3005 RMK AO2 SLP175 T02000122","lat":33.9382,"lon":-118.3866,"elev":30,"name":"Los Angeles Intl, CA, US","cover":"FEW","clouds":[{"cover":"FEW","base":1500},{"cover":"FEW","base":7000}],"fltCat":"VFR"},{"icaoId":"KBNA","receiptTime":"2026-04-14T22:56:35.021Z","obsTime":1776207180,"reportTime":"2026-04-14T23:00:00.000Z","temp":27.2,"dewp":14.4,"wdir":210,"wspd":9,"wgst":16,"visib":"10+","altim":1018,"slp":1017.4,"qcField":12,"metarType":"METAR","rawOb":"METAR KBNA 142253Z 21009G16KT 10SM FEW049 FEW060 SCT250 27/14 A3006 RMK AO2 SLP174 T02720144 $","lat":36.1105,"lon":-86.6881,"elev":168,"name":"Nashville Intl, TN, US","cover":"SCT","clouds":[{"cover":"FEW","base":4900},{"cover":"FEW","base":6000},{"cover":"SCT","base":25000}],"fltCat":"VFR"},{"icaoId":"KPNC","receiptTime":"2026-04-14T22:56:32.643Z","obsTime":1776207180,"reportTime":"2026-04-14T23:00:00.000Z","temp":27.8,"dewp":19.4,"wdir":180,"wspd":13,"wgst":22,"visib":"10+","altim":1007.9,"slp":1006.3,"qcField":6,"metarType":"METAR","rawOb":"METAR KPNC 142253Z AUTO 18013G22KT 10SM CLR 28/19 A2976 RMK AO2 SLP063 T02780194","lat":36.7369,"lon":-97.1024,"elev":304,"name":"Ponca City Rgnl, OK, US","cover":"CLR","clouds":[],"fltCat":"VFR"},{"icaoId":"KRTN","receiptTime":"2026-04-14T22:56:35.580Z","obsTime":1776207180,"reportTime":"2026-04-14T23:00:00.000Z","temp":17.2,"dewp":-7.2,"wdir":280,"wspd":19,"wgst":28,"visib":"10+","altim":1011.6,"slp":1006.1,"qcField":14,"metarType":"METAR","rawOb":"METAR KRTN 142253Z AUTO 28019G28KT 10SM 17/M07 A2987 RMK AO2 PK WND 26036/2211 SLP061 T01721072 $","lat":36.7418,"lon":-104.5076,"elev":1939,"name":"Raton/Crews Fld, NM, US"},{"icaoId":"KOAK","receiptTime":"2026-04-14T22:56:32.312Z","obsTime":1776207180,"reportTime":"2026-04-14T23:00:00.000Z","temp":16.1,"dewp":7.2,"wdir":250,"wspd":17,"visib":"10+","altim":1022.1,"slp":1021.9,"qcField":12,"metarType":"METAR","rawOb":"METAR KOAK 142253Z 25017KT 10SM SCT027 SCT250 16/07 A3018 RMK AO2 SLP219 T01610072 $","lat":37.7178,"lon":-122.233,"elev":3,"name":"Oakland Intl, CA, US","cover":"SCT","clouds":[{"cover":"SCT","base":2700},{"cover":"SCT","base":25000}],"fltCat":"VFR"},{"icaoId":"KDAL","receiptTime":"2026-04-14T22:56:24.335Z","obsTime":1776207180,"reportTime":"2026-04-14T23:00:00.000Z","temp":26.7,"dewp":19.4,"wdir":170,"wspd":10,"wgst":21,"visib":"10+","altim":1013,"slp":1012,"qcField":4,"metarType":"METAR","rawOb":"METAR KDAL 142253Z 17010G21KT 10SM FEW033 BKN060 BKN075 BKN250 27/19 A2991 RMK AO2 SLP120 T02670194","lat":32.8384,"lon":-96.8358,"elev":148,"name":"Dallas/Love Fld, TX, US","cover":"BKN","clouds":[{"cover":"FEW","base":3300},{"cover":"BKN","base":6000},{"cover":"BKN","base":7500},{"cover":"BKN","base":25000}],"fltCat":"VFR"},{"icaoId":"KEVW","receiptTime":"2026-04-14T22:56:25.026Z","obsTime":1776207180,"reportTime":"2026-04-14T23:00:00.000Z","temp":6.7,"dewp":-5,"wdir":280,"wspd":13,"wgst":26,"visib":"10+","altim":1015.3,"slp":1013.4,"qcField":14,"metarType":"METAR","rawOb":"METAR KEVW 142253Z AUTO 28013G26KT 10SM OVC049 07/M05 A2998 RMK AO2 PK WND 26027/2220 SLP134 T00671050 $","lat":41.2727,"lon":-111.0305,"elev":2178,"name":"Evanston/Uinta Cnty, WY, US","cover":"OVC","clouds":[{"cover":"OVC","base":4900}],"fltCat":"VFR"},{"icaoId":"KGEG","receiptTime":"2026-04-14T22:56:36.744Z","obsTime":1776207180,"reportTime":"2026-04-14T23:00:00.000Z","temp":6.7,"dewp":0.6,"wdir":220,"wspd":22,"wgst":31,"visib":7,"altim":1011.9,"slp":1012.8,"qcField":4,"wxString":"-RA","precip":0.005,"metarType":"METAR","rawOb":"METAR KGEG 142253Z 22022G31KT 7SM -RA BKN023 OVC035 07/01 A2988 RMK AO2 PK WND 22031/2251 RAB35 SLP128 P0000 T00670006","lat":47.6217,"lon":-117.528,"elev":718,"name":"Spokane Intl, WA, US","cover":"OVC","clouds":[{"cover":"BKN","base":2300},{"cover":"OVC","base":3500}],"fltCat":"MVFR"},{"icaoId":"KSEA","receiptTime":"2026-04-14T22:56:30.658Z","obsTime":1776207180,"reportTime":"2026-04-14T23:00:00.000Z","temp":7.8,"dewp":6.1,"wdir":180,"wspd":14,"wgst":22,"visib":7,"altim":1011.9,"slp":1012.6,"qcField":4,"wxString":"-RA","precip":0.05,"metarType":"METAR","rawOb":"METAR KSEA 142253Z 18014G22KT 7SM -RA SCT013 BKN022 OVC039 08/06 A2988 RMK AO2 SLP126 P0005 T00780061","lat":47.4447,"lon":-122.3144,"elev":115,"name":"Seattle-Tacoma Intl, WA, US","cover":"OVC","clouds":[{"cover":"SCT","base":1300},{"cover":"BKN","base":2200},{"cover":"OVC","base":3900}],"fltCat":"MVFR"},{"icaoId":"KTUL","receiptTime":"2026-04-14T22:56:32.102Z","obsTime":1776207180,"reportTime":"2026-04-14T23:00:00.000Z","temp":25.6,"dewp":19.4,"wdir":170,"wspd":16,"visib":"10+","altim":1011.3,"slp":1010.3,"qcField":4,"metarType":"METAR","rawOb":"METAR KTUL 142253Z 17016KT 10SM BKN029 OVC035 26/19 A2986 RMK AO2 PK WND 18028/2205 SLP103 T02560194","lat":36.1985,"lon":-95.8782,"elev":196,"name":"Tulsa Intl Arpt, OK, US","cover":"OVC","clouds":[{"cover":"BKN","base":2900},{"cover":"OVC","base":3500}],"fltCat":"MVFR"},{"icaoId":"KSBA","receiptTime":"2026-04-14T22:56:31.700Z","obsTime":1776207180,"reportTime":"2026-04-14T23:00:00.000Z","temp":20.6,"dewp":8.3,"wdir":230,"wspd":7,"visib":"10+","altim":1017.7,"slp":1017.5,"qcField":12,"metarType":"METAR","rawOb":"METAR KSBA 142253Z 23007KT 10SM CLR 21/08 A3005 RMK AO2 SLP175 T02060083 $","lat":34.4241,"lon":-119.8425,"elev":2,"name":"Santa Barbara Muni, CA, US","cover":"CLR","clouds":[],"fltCat":"VFR"},{"icaoId":"KOGD","receiptTime":"2026-04-14T22:56:32.350Z","obsTime":1776207180,"reportTime":"2026-04-14T23:00:00.000Z","temp":12.2,"dewp":-1.7,"wdir":"VRB","wspd":4,"visib":"10+","altim":1015.3,"slp":1013.5,"qcField":4,"metarType":"METAR","rawOb":"METAR KOGD 142253Z VRB04KT 10SM BKN065 12/M02 A2998 RMK AO2 SLP135 T01221017","lat":41.1941,"lon":-112.0168,"elev":1356,"name":"Ogden/Hinckley Arpt, UT, US","cover":"BKN","clouds":[{"cover":"BKN","base":6500}],"fltCat":"VFR"},{"icaoId":"KLGB","receiptTime":"2026-04-14T22:56:33.112Z","obsTime":1776207180,"reportTime":"2026-04-14T23:00:00.000Z","temp":20.6,"dewp":7.2,"wdir":220,"wspd":10,"visib":"10+","altim":1017,"slp":1016.9,"qcField":12,"metarType":"METAR","rawOb":"METAR KLGB 142253Z 22010KT 10SM CLR 21/07 A3003 RMK AO2 SLP169 T02060072 $","lat":33.8118,"lon":-118.1472,"elev":10,"name":"Long Beach Arpt, CA, US","cover":"CLR","clouds":[],"fltCat":"VFR"},{"icaoId":"KBUR","receiptTime":"2026-04-14T22:56:33.716Z","obsTime":1776207180,"reportTime":"2026-04-14T23:00:00.000Z","temp":21.7,"dewp":8.9,"wdir":190,"wspd":6,"visib":"10+","altim":1017,"slp":1016,"qcField":4,"metarType":"METAR","rawOb":"METAR KBUR 142253Z 19006KT 10SM CLR 22/09 A3003 RMK AO2 SLP160 T02170089","lat":34.1996,"lon":-118.3654,"elev":221,"name":"Burbank/Bob Hope Arpt, CA, US","cover":"CLR","clouds":[],"fltCat":"VFR"},{"icaoId":"KMIA","receiptTime":"2026-04-14T22:56:30.834Z","obsTime":1776207180,"reportTime":"2026-04-14T23:00:00.000Z","temp":24.4,"dewp":16.1,"wdir":80,"wspd":15,"visib":"10+","altim":1019.7,"slp":1019.7,"qcField":0,"metarType":"METAR","rawOb":"METAR KMIA 142253Z 08015KT 10SM SCT039 SCT250 24/16 A3011 RMK SLP197 T02440161","lat":25.7881,"lon":-80.3169,"elev":1,"name":"Miami Intl, FL, US","cover":"SCT","clouds":[{"cover":"SCT","base":3900},{"cover":"SCT","base":25000}],"fltCat":"VFR"},{"icaoId":"KCNM","receiptTime":"2026-04-14T22:56:35.140Z","obsTime":1776207180,"reportTime":"2026-04-14T23:00:00.000Z","temp":26.1,"dewp":2.2,"wdir":240,"wspd":15,"wgst":22,"visib":"10+","altim":1012.3,"slp":1007.3,"qcField":6,"metarType":"METAR","rawOb":"METAR KCNM 142253Z AUTO 24015G22KT 10SM CLR 26/02 A2989 RMK AO2 PK WND 23035/2156 SLP073 T02610022","lat":32.3336,"lon":-104.2584,"elev":993,"name":"Carlsbad/Cavern City Air Term, NM, US","cover":"CLR","clouds":[],"fltCat":"VFR"},{"icaoId":"KELY","receiptTime":"2026-04-14T22:56:36.837Z","obsTime":1776207180,"reportTime":"2026-04-14T23:00:00.000Z","temp":10.6,"dewp":-5.6,"wdir":240,"wspd":6,"visib":"10+","altim":1017,"slp":1014.4,"qcField":6,"metarType":"METAR","rawOb":"METAR KELY 142253Z AUTO 24006KT 10SM SCT085 11/M06 A3003 RMK AO2 SLP144 T01061056","lat":39.2954,"lon":-114.8466,"elev":1906,"name":"Ely/Yelland Fld, NV, US","cover":"SCT","clouds":[{"cover":"SCT","base":8500}],"fltCat":"VFR"},{"icaoId":"KPIH","receiptTime":"2026-04-14T22:56:36.947Z","obsTime":1776207180,"reportTime":"2026-04-14T23:00:00.000Z","temp":13.3,"dewp":-3.9,"wdir":260,"wspd":19,"wgst":29,"visib":"10+","altim":1014,"slp":1012.9,"qcField":4,"metarType":"METAR","rawOb":"METAR KPIH 142253Z 26019G29KT 10SM SCT070 BKN085 13/M04 A2994 RMK AO2 PK WND 25029/2246 SLP129 T01331039","lat":42.9197,"lon":-112.5723,"elev":1357,"name":"Pocatello Rgnl, ID, US","cover":"BKN","clouds":[{"cover":"SCT","base":7000},{"cover":"BKN","base":8500}],"fltCat":"VFR"},{"icaoId":"KBOI","receiptTime":"2026-04-14T22:56:37.022Z","obsTime":1776207180,"reportTime":"2026-04-14T23:00:00.000Z","temp":15,"dewp":0.6,"wdir":"VRB","wspd":6,"visib":"10+","altim":1014.3,"slp":1013.9,"qcField":4,"metarType":"METAR","rawOb":"METAR KBOI 142253Z VRB06KT 10SM BKN060 15/01 A2995 RMK AO2 SLP139 T01500006","lat":43.567,"lon":-116.2406,"elev":860,"name":"Boise Arpt, ID, US","cover":"BKN","clouds":[{"cover":"BKN","base":6000}],"fltCat":"VFR"},{"icaoId":"KCNY","receiptTime":"2026-04-14T22:56:37.935Z","obsTime":1776207180,"reportTime":"2026-04-14T23:00:00.000Z","temp":11.1,"dewp":3.9,"wdir":280,"wspd":4,"visib":"10+","altim":1014.3,"slp":1012.6,"qcField":14,"metarType":"METAR","rawOb":"METAR KCNY 142253Z AUTO 28004KT 10SM BKN034 OVC041 11/04 A2995 RMK AO2 SLP126 T01110039 $","lat":38.7501,"lon":-109.7627,"elev":1392,"name":"Moab/Canyonland Fld, UT, US","cover":"OVC","clouds":[{"cover":"BKN","base":3400},{"cover":"OVC","base":4100}],"fltCat":"VFR"},{"icaoId":"KACV","receiptTime":"2026-04-14T22:56:36.577Z","obsTime":1776207180,"reportTime":"2026-04-14T23:00:00.000Z","temp":12.2,"dewp":5,"wdir":310,"wspd":8,"visib":"10+","altim":1023.1,"slp":1023.8,"qcField":6,"metarType":"METAR","rawOb":"METAR KACV 142253Z AUTO 31008KT 10SM FEW120 12/05 A3021 RMK AO2 SLP238 T01220050","lat":40.9784,"lon":-124.1048,"elev":63,"name":"Arcata Arpt, CA, US","cover":"FEW","clouds":[{"cover":"FEW","base":12000}],"fltCat":"VFR"},{"icaoId":"KBCE","receiptTime":"2026-04-14T22:56:36.614Z","obsTime":1776207180,"reportTime":"2026-04-14T23:00:00.000Z","temp":6.7,"dewp":-5,"wdir":310,"wspd":16,"wgst":25,"visib":"10+","altim":1018,"slp":1013.1,"qcField":6,"metarType":"METAR","rawOb":"METAR KBCE 142253Z AUTO 31016G25KT 10SM SCT060 07/M05 A3006 RMK AO2 PK WND 32029/2226 SLP131 T00671050","lat":37.7013,"lon":-112.149,"elev":2311,"name":"Bryce Canyon Arpt, UT, US","cover":"SCT","clouds":[{"cover":"SCT","base":6000}],"fltCat":"VFR"},{"icaoId":"KVGT","receiptTime":"2026-04-14T22:56:31.356Z","obsTime":1776207180,"reportTime":"2026-04-14T23:00:00.000Z","temp":22.8,"dewp":-2.8,"wdir":0,"wspd":0,"visib":"10+","altim":1014.3,"slp":1014.7,"qcField":4,"metarType":"METAR","rawOb":"METAR KVGT 142253Z 00000KT 10SM CLR 23/M03 A2995 RMK AO2 SLP147 T02281028","lat":36.212,"lon":-115.194,"elev":664,"name":"Las Vegas/North Arpt, NV, US","cover":"CLR","clouds":[],"fltCat":"VFR"},{"icaoId":"KYKM","receiptTime":"2026-04-14T22:56:30.754Z","obsTime":1776207180,"reportTime":"2026-04-14T23:00:00.000Z","temp":12.2,"dewp":0,"wdir":210,"wspd":17,"wgst":27,"visib":"10+","altim":1010.9,"slp":1011.1,"qcField":4,"metarType":"METAR","rawOb":"METAR KYKM 142253Z 21017G27KT 10SM CLR 12/00 A2985 RMK AO2 PK WND 22033/2218 SLP111 T01220000","lat":46.564,"lon":-120.5349,"elev":319,"name":"Yakima/McAllister Fld, WA, US","cover":"CLR","clouds":[],"fltCat":"VFR"},{"icaoId":"KCDC","receiptTime":"2026-04-14T22:56:33.790Z","obsTime":1776207180,"reportTime":"2026-04-14T23:00:00.000Z","temp":11.1,"dewp":-0.6,"wdir":0,"wspd":0,"visib":"10+","altim":1017,"slp":1015.1,"qcField":6,"metarType":"METAR","rawOb":"METAR KCDC 142253Z AUTO 00000KT 10SM FEW090 11/M01 A3003 RMK AO2 SLP151 T01111006","lat":37.7067,"lon":-113.097,"elev":1703,"name":"Cedar City Muni, UT, US","cover":"FEW","clouds":[{"cover":"FEW","base":9000}],"fltCat":"VFR"},{"icaoId":"KHLN","receiptTime":"2026-04-14T22:56:32.871Z","obsTime":1776207180,"reportTime":"2026-04-14T23:00:00.000Z","temp":15,"dewp":-3.3,"wdir":290,"wspd":13,"wgst":23,"visib":"10+","altim":1006.2,"slp":1006.6,"qcField":4,"metarType":"METAR","rawOb":"METAR KHLN 142253Z 29013G23KT 10SM CLR 15/M03 A2971 RMK AO2 SLP066 T01501033","lat":46.6045,"lon":-111.9892,"elev":1178,"name":"Helena Rgnl, MT, US","cover":"CLR","clouds":[],"fltCat":"VFR"},{"icaoId":"KBHM","receiptTime":"2026-04-14T22:56:34.861Z","obsTime":1776207180,"reportTime":"2026-04-14T23:00:00.000Z","temp":28.3,"dewp":3.3,"wdir":190,"wspd":7,"visib":"10+","altim":1020.7,"slp":1019.8,"qcField":4,"metarType":"METAR","rawOb":"METAR KBHM 142253Z 19007KT 10SM FEW250 28/03 A3014 RMK AO2 SLP198 T02830033","lat":33.5655,"lon":-86.7449,"elev":191,"name":"Birmingham Intl, AL, US","cover":"FEW","clouds":[{"cover":"FEW","base":25000}],"fltCat":"VFR"},{"icaoId":"KBTM","receiptTime":"2026-04-14T22:56:33.701Z","obsTime":1776207180,"reportTime":"2026-04-14T23:00:00.000Z","temp":11.1,"dewp":-7.2,"wdir":240,"wspd":14,"wgst":22,"visib":"10+","altim":1008.9,"slp":1007.4,"qcField":6,"metarType":"METAR","rawOb":"METAR KBTM 142253Z AUTO 24014G22KT 10SM SCT075 11/M07 A2979 RMK AO2 SLP074 T01111072","lat":45.9644,"lon":-112.5015,"elev":1680,"name":"Butte/Mooney Arpt, MT, US","cover":"SCT","clouds":[{"cover":"SCT","base":7500}],"fltCat":"VFR"},{"icaoId":"KFUL","receiptTime":"2026-04-14T22:56:25.185Z","obsTime":1776207180,"reportTime":"2026-04-14T23:00:00.000Z","temp":21.7,"dewp":10.6,"wdir":220,"wspd":8,"visib":"10+","altim":1016.7,"slp":1016.6,"qcField":6,"metarType":"METAR","rawOb":"METAR KFUL 142253Z AUTO 22008KT 10SM CLR 22/11 A3002 RMK AO2 SLP166 T02170106","lat":33.8715,"lon":-117.9856,"elev":23,"name":"Fullerton Muni, CA, US","cover":"CLR","clouds":[],"fltCat":"VFR"},{"icaoId":"KSNA","receiptTime":"2026-04-14T22:56:31.841Z","obsTime":1776207180,"reportTime":"2026-04-14T23:00:00.000Z","temp":20,"dewp":10,"wdir":270,"wspd":8,"visib":"10+","altim":1017.4,"slp":1017.1,"qcField":12,"metarType":"METAR","rawOb":"METAR KSNA 142253Z 27008KT 220V290 10SM FEW039 20/10 A3004 RMK AO2 SLP171 T02000100 $","lat":33.6798,"lon":-117.8675,"elev":14,"name":"Santa Ana/Wayne Arpt, CA, US","cover":"FEW","clouds":[{"cover":"FEW","base":3900}],"fltCat":"VFR"},{"icaoId":"KSTS","receiptTime":"2026-04-14T22:56:31.948Z","obsTime":1776207180,"reportTime":"2026-04-14T23:00:00.000Z","temp":18.3,"dewp":8.9,"wdir":140,"wspd":9,"visib":"10+","altim":1020.4,"slp":1019.7,"qcField":4,"metarType":"METAR","rawOb":"METAR KSTS 142253Z 14009KT 10SM FEW050 18/09 A3013 RMK AO2 SLP197 T01830089","lat":38.5037,"lon":-122.811,"elev":35,"name":"Santa Rosa/Schulz Arpt, CA, US","cover":"FEW","clouds":[{"cover":"FEW","base":5000}],"fltCat":"VFR"},{"icaoId":"KAMA","receiptTime":"2026-04-14T22:56:34.922Z","obsTime":1776207180,"reportTime":"2026-04-14T23:00:00.000Z","temp":26.7,"dewp":0.6,"wdir":220,"wspd":20,"wgst":30,"visib":"10+","altim":1009.6,"slp":1004.9,"qcField":4,"metarType":"METAR","rawOb":"METAR KAMA 142253Z 22020G30KT 10SM FEW110 27/01 A2981 RMK AO2 PK WND 20036/2204 SLP049 T02670006","lat":35.2203,"lon":-101.7173,"elev":1102,"name":"Amarillo Intl Arpt, TX, US","cover":"FEW","clouds":[{"cover":"FEW","base":11000}],"fltCat":"VFR"},{"icaoId":"KAUS","receiptTime":"2026-04-14T22:56:34.987Z","obsTime":1776207180,"reportTime":"2026-04-14T23:00:00.000Z","temp":29.4,"dewp":18.3,"wdir":150,"wspd":12,"wgst":24,"visib":"10+","altim":1012.6,"slp":1011.5,"qcField":4,"metarType":"METAR","rawOb":"METAR KAUS 142253Z 15012G24KT 10SM FEW050 BKN065 BKN250 29/18 A2990 RMK AO2 SLP115 T02940183","lat":30.1831,"lon":-97.6806,"elev":148,"name":"Austin/Bergstrom Intl, TX, US","cover":"BKN","clouds":[{"cover":"FEW","base":5000},{"cover":"BKN","base":6500},{"cover":"BKN","base":25000}],"fltCat":"VFR"},{"icaoId":"KMCO","receiptTime":"2026-04-14T22:56:21.317Z","obsTime":1776207180,"reportTime":"2026-04-14T23:00:00.000Z","temp":25,"dewp":14.4,"wdir":90,"wspd":11,"visib":"10+","altim":1021.8,"slp":1021.6,"qcField":4,"metarType":"METAR","rawOb":"METAR KMCO 142253Z 09011KT 10SM FEW050 25/14 A3017 RMK AO2 SLP216 T02500144","lat":28.4182,"lon":-81.3241,"elev":27,"name":"Orlando Intl, FL, US","cover":"FEW","clouds":[{"cover":"FEW","base":5000}],"fltCat":"VFR"},{"icaoId":"KGJT","receiptTime":"2026-04-14T22:56:22.574Z","obsTime":1776207180,"reportTime":"2026-04-14T23:00:00.000Z","temp":10,"dewp":2.8,"wdir":300,"wspd":7,"visib":"10+","altim":1014.6,"slp":1012.4,"qcField":4,"wxString":"-RA","precip":0.005,"metarType":"METAR","rawOb":"METAR KGJT 142253Z 30007KT 10SM -RA BKN038 BKN050 BKN060 10/03 A2996 RMK AO2 RAB46 SLP124 P0000 T01000028","lat":39.1344,"lon":-108.5408,"elev":1475,"name":"Grand Junction Rgnl, CO, US","cover":"BKN","clouds":[{"cover":"BKN","base":3800},{"cover":"BKN","base":5000},{"cover":"BKN","base":6000}],"fltCat":"VFR"},{"icaoId":"KHOU","receiptTime":"2026-04-14T22:56:27.526Z","obsTime":1776207180,"reportTime":"2026-04-14T23:00:00.000Z","temp":26.7,"dewp":20,"wdir":160,"wspd":14,"wgst":21,"visib":"10+","altim":1015.7,"slp":1016.1,"qcField":12,"metarType":"METAR","rawOb":"METAR KHOU 142253Z 16014G21KT 10SM SCT028 SCT060 27/20 A2999 RMK AO2 SLP161 T02670200 $","lat":29.6458,"lon":-95.2821,"elev":13,"name":"Houston/Hobby Arpt, TX, US","cover":"SCT","clouds":[{"cover":"SCT","base":2800},{"cover":"SCT","base":6000}],"fltCat":"VFR"},{"icaoId":"KMDW","receiptTime":"2026-04-14T22:56:21.334Z","obsTime":1776207180,"reportTime":"2026-04-14T23:00:00.000Z","temp":27.2,"dewp":18.9,"wdir":220,"wspd":16,"wgst":27,"visib":"10+","altim":1005.5,"slp":1004.6,"qcField":4,"metarType":"METAR","rawOb":"METAR KMDW 142253Z 22016G27KT 10SM BKN043 BKN150 BKN250 27/19 A2969 RMK AO2 PK WND 22031/2224 SLP046 T02720189","lat":41.7841,"lon":-87.7552,"elev":186,"name":"Chicago/Midway Intl, IL, US","cover":"BKN","clouds":[{"cover":"BKN","base":4300},{"cover":"BKN","base":15000},{"cover":"BKN","base":25000}],"fltCat":"VFR"},{"icaoId":"KLVS","receiptTime":"2026-04-14T22:56:21.214Z","obsTime":1776207180,"reportTime":"2026-04-14T23:00:00.000Z","temp":16.1,"dewp":-5.6,"wdir":200,"wspd":20,"wgst":30,"visib":"10+","altim":1013.6,"slp":1006.1,"qcField":14,"metarType":"METAR","rawOb":"METAR KLVS 142253Z AUTO 20020G30KT 10SM FEW090 16/M06 A2993 RMK AO2 PK WND 20032/2235 SLP061 T01611056 PNO $","lat":35.6558,"lon":-105.1385,"elev":2095,"name":"Las Vegas Muni, NM, US","cover":"FEW","clouds":[{"cover":"FEW","base":9000}],"fltCat":"VFR"},{"icaoId":"KTPA","receiptTime":"2026-04-14T22:56:31.069Z","obsTime":1776207180,"reportTime":"2026-04-14T23:00:00.000Z","temp":26.7,"dewp":17.8,"wdir":330,"wspd":9,"visib":"10+","altim":1020.1,"slp":1019.7,"qcField":4,"metarType":"METAR","rawOb":"METAR KTPA 142253Z 33009KT 10SM R19R/4000VP6000FT SCT070 SCT250 27/18 A3012 RMK AO2 SLP197 T02670178","lat":27.9633,"lon":-82.54,"elev":2,"name":"Tampa Intl Arpt, FL, US","cover":"SCT","clouds":[{"cover":"SCT","base":7000},{"cover":"SCT","base":25000}],"fltCat":"VFR"},{"icaoId":"KTUS","receiptTime":"2026-04-14T22:56:37.433Z","obsTime":1776207180,"reportTime":"2026-04-14T23:00:00.000Z","temp":23.3,"dewp":-0.6,"wdir":270,"wspd":8,"wgst":19,"visib":"10+","altim":1014.6,"slp":1011.1,"qcField":12,"metarType":"METAR","rawOb":"METAR KTUS 142253Z 27008G19KT 10SM CLR 23/M01 A2996 RMK AO2 SLP111 T02331006 $","lat":32.1315,"lon":-110.9564,"elev":776,"name":"Tucson Intl Arpt, AZ, US","cover":"CLR","clouds":[],"fltCat":"VFR"},{"icaoId":"KMAF","receiptTime":"2026-04-14T22:56:33.275Z","obsTime":1776207180,"reportTime":"2026-04-14T23:00:00.000Z","temp":28.3,"dewp":9.4,"wdir":170,"wspd":13,"visib":"10+","altim":1010.6,"slp":1005.8,"qcField":4,"wxString":"-RA","precip":0.005,"metarType":"METAR","rawOb":"METAR KMAF 142253Z 17013KT 10SM -RA BKN110 28/09 A2984 RMK AO2 LTG DSNT SW RAB51 SLP058 P0000 T02830094","lat":31.9475,"lon":-102.2086,"elev":874,"name":"Midland Intl, TX, US","cover":"BKN","clouds":[{"cover":"BKN","base":11000}],"fltCat":"VFR"},{"icaoId":"KMLS","receiptTime":"2026-04-14T22:56:32.199Z","obsTime":1776207180,"reportTime":"2026-04-14T23:00:00.000Z","temp":17.8,"dewp":1.7,"wdir":240,"wspd":8,"visib":"10+","altim":1005.5,"slp":1005.3,"qcField":6,"metarType":"METAR","rawOb":"METAR KMLS 142253Z AUTO 24008KT 10SM FEW065 18/02 A2969 RMK AO2 SLP053 T01780017","lat":46.4265,"lon":-105.8834,"elev":800,"name":"Miles City/Wiley Fld, MT, US","cover":"FEW","clouds":[{"cover":"FEW","base":6500}],"fltCat":"VFR"},{"icaoId":"PANC","receiptTime":"2026-04-14T22:56:37.705Z","obsTime":1776207180,"reportTime":"2026-04-14T23:00:00.000Z","temp":4.4,"dewp":-6.7,"wdir":220,"wspd":7,"visib":"10+","altim":1011.6,"slp":1011.8,"qcField":4,"metarType":"METAR","rawOb":"METAR PANC 142253Z 22007KT 10SM FEW055 SCT200 04/M07 A2987 RMK AO2 SLP118 T00441067","lat":61.1691,"lon":-150.0277,"elev":39,"name":"Anchorage Intl, AK, US","cover":"SCT","clouds":[{"cover":"FEW","base":5500},{"cover":"SCT","base":20000}],"fltCat":"VFR"},{"icaoId":"KMSP","receiptTime":"2026-04-14T22:56:36.803Z","obsTime":1776207180,"reportTime":"2026-04-14T23:00:00.000Z","temp":17.8,"dewp":8.9,"wdir":60,"wspd":3,"visib":"10+","altim":1005.8,"slp":1005.7,"qcField":4,"metarType":"METAR","rawOb":"METAR KMSP 142253Z 06003KT 10SM FEW120 FEW140 BKN250 18/09 A2970 RMK AO2 SLP057 T01780089","lat":44.8852,"lon":-93.2313,"elev":255,"name":"Minneapolis-St Paul Intl, MN, US","cover":"BKN","clouds":[{"cover":"FEW","base":12000},{"cover":"FEW","base":14000},{"cover":"BKN","base":25000}],"fltCat":"VFR"},{"icaoId":"KOKC","receiptTime":"2026-04-14T22:56:35.334Z","obsTime":1776207120,"reportTime":"2026-04-14T23:00:00.000Z","temp":23.3,"dewp":20,"wdir":150,"wspd":21,"wgst":31,"visib":"10+","altim":1008.9,"slp":1007.4,"qcField":4,"wxString":"-RA","precip":0.005,"metarType":"METAR","rawOb":"METAR KOKC 142252Z 15021G31KT 10SM -RA FEW030 SCT095 BKN120 OVC250 23/20 A2979 RMK AO2 PK WND 16031/2244 RAB28 SLP074 P0000 T02330200","lat":35.3843,"lon":-97.6003,"elev":391,"name":"Oklahoma City/Will Rogers Intl, OK, US","cover":"OVC","clouds":[{"cover":"FEW","base":3000},{"cover":"SCT","base":9500},{"cover":"BKN","base":12000},{"cover":"OVC","base":25000}],"fltCat":"VFR"},{"icaoId":"KATL","receiptTime":"2026-04-14T22:56:35.266Z","obsTime":1776207120,"reportTime":"2026-04-14T23:00:00.000Z","temp":27.8,"dewp":6.1,"wdir":200,"wspd":6,"visib":9,"altim":1020.7,"slp":1020,"qcField":12,"metarType":"METAR","rawOb":"METAR KATL 142252Z 20006KT 9SM FEW250 28/06 A3014 RMK AO2 SLP200 T02780061 $","lat":33.6297,"lon":-84.4422,"elev":309,"name":"Atlanta/Hartsfield-Jackson Intl, GA, US","cover":"FEW","clouds":[{"cover":"FEW","base":25000}],"fltCat":"VFR"},{"icaoId":"KCVG","receiptTime":"2026-04-14T22:56:34.403Z","obsTime":1776207120,"reportTime":"2026-04-14T23:00:00.000Z","temp":26.7,"dewp":16.1,"wdir":220,"wspd":15,"wgst":29,"visib":"10+","altim":1014,"slp":1013,"qcField":4,"metarType":"METAR","rawOb":"METAR KCVG 142252Z 22015G29KT 10SM FEW050 SCT250 27/16 A2994 RMK AO2 PK WND 22030/2216 SLP130 T02670161","lat":39.0444,"lon":-84.6724,"elev":264,"name":"Cincinnati Intl, KY, US","cover":"SCT","clouds":[{"cover":"FEW","base":5000},{"cover":"SCT","base":25000}],"fltCat":"VFR"},{"icaoId":"KMLF","receiptTime":"2026-04-14T22:56:26.793Z","obsTime":1776207120,"reportTime":"2026-04-14T23:00:00.000Z","temp":13.9,"dewp":-4.4,"wdir":"VRB","wspd":4,"visib":"10+","altim":1016,"slp":1013.6,"qcField":6,"metarType":"METAR","rawOb":"METAR KMLF 142252Z AUTO VRB04KT 10SM BKN080 OVC095 14/M04 A3000 RMK AO2 SLP136 T01391044","lat":38.4225,"lon":-113.0109,"elev":1537,"name":"Milford Muni, UT, US","cover":"OVC","clouds":[{"cover":"BKN","base":8000},{"cover":"OVC","base":9500}],"fltCat":"VFR"},{"icaoId":"KMKE","receiptTime":"2026-04-14T22:56:28.007Z","obsTime":1776207120,"reportTime":"2026-04-14T23:00:00.000Z","temp":25.6,"dewp":17.2,"wdir":190,"wspd":8,"visib":"10+","altim":1004.1,"slp":1003.8,"qcField":4,"metarType":"METAR","rawOb":"METAR KMKE 142252Z 19008KT 10SM FEW042 BKN065 BKN150 26/17 A2965 RMK AO2 SLP038 FRQ LTG DSNT W-NW T02560172","lat":42.9549,"lon":-87.9045,"elev":203,"name":"Milwaukee/Mitchell Intl, WI, US","cover":"BKN","clouds":[{"cover":"FEW","base":4200},{"cover":"BKN","base":6500},{"cover":"BKN","base":15000}],"fltCat":"VFR"},{"icaoId":"KCLT","receiptTime":"2026-04-14T22:56:34.387Z","obsTime":1776207120,"reportTime":"2026-04-14T23:00:00.000Z","temp":28.3,"dewp":10,"wdir":210,"wspd":8,"visib":"10+","altim":1019,"slp":1019.7,"qcField":4,"metarType":"METAR","rawOb":"METAR KCLT 142252Z 21008KT 10SM FEW100 BKN250 28/10 A3009 RMK AO2 SLP197 T02830100","lat":35.2225,"lon":-80.9543,"elev":223,"name":"Charlotte/Douglas Intl, NC, US","cover":"BKN","clouds":[{"cover":"FEW","base":10000},{"cover":"BKN","base":25000}],"fltCat":"VFR"},{"icaoId":"KIAD","receiptTime":"2026-04-14T22:56:34.461Z","obsTime":1776207120,"reportTime":"2026-04-14T23:00:00.000Z","temp":28.9,"dewp":12.8,"wdir":200,"wspd":9,"visib":"10+","altim":1012.6,"slp":1012.4,"qcField":12,"metarType":"METAR","rawOb":"METAR KIAD 142252Z 20009KT 10SM SCT080 SCT110 BKN250 29/13 A2990 RMK AO2 SLP124 VIRGA T02890128 $","lat":38.9348,"lon":-77.4473,"elev":90,"name":"Washington/Dulles Intl, VA, US","cover":"BKN","clouds":[{"cover":"SCT","base":8000},{"cover":"SCT","base":11000},{"cover":"BKN","base":25000}],"fltCat":"VFR"},{"icaoId":"KABQ","receiptTime":"2026-04-14T22:56:35.252Z","obsTime":1776207120,"reportTime":"2026-04-14T23:00:00.000Z","temp":18.9,"dewp":-7.2,"wdir":300,"wspd":16,"wgst":25,"visib":"10+","altim":1013,"slp":1007.1,"qcField":4,"metarType":"METAR","rawOb":"METAR KABQ 142252Z 30016G25KT 10SM SCT100 SCT160 19/M07 A2991 RMK AO2 PK WND 29030/2221 SLP071 T01891072","lat":35.0419,"lon":-106.6154,"elev":1620,"name":"Albuquerque Intl, NM, US","cover":"SCT","clouds":[{"cover":"SCT","base":10000},{"cover":"SCT","base":16000}],"fltCat":"VFR"},{"icaoId":"KHRL","receiptTime":"2026-04-14T22:56:35.318Z","obsTime":1776207120,"reportTime":"2026-04-14T23:00:00.000Z","temp":28.9,"dewp":20,"wdir":150,"wspd":21,"wgst":27,"visib":"10+","altim":1012.6,"slp":1012.2,"qcField":4,"metarType":"METAR","rawOb":"METAR KHRL 142252Z 15021G27KT 10SM FEW038 29/20 A2990 RMK AO2 PK WND 15028/2238 SLP122 T02890200","lat":26.2303,"lon":-97.6556,"elev":9,"name":"Harlingen/Valley Intl, TX, US","cover":"FEW","clouds":[{"cover":"FEW","base":3800}],"fltCat":"VFR"},{"icaoId":"KDCA","receiptTime":"2026-04-14T22:56:34.421Z","obsTime":1776207120,"reportTime":"2026-04-14T23:00:00.000Z","temp":28.9,"dewp":13.3,"wdir":190,"wspd":10,"visib":"10+","altim":1012.6,"slp":1012.5,"qcField":4,"metarType":"METAR","rawOb":"METAR KDCA 142252Z 19010KT 10SM FEW065 BKN160 BKN250 29/13 A2990 RMK AO2 SLP125 CB DSNT NW-NE MOV E VIRGA N T02890133","lat":38.8472,"lon":-77.0345,"elev":4,"name":"Washington/Reagan-National Arpt, VA, US","cover":"BKN","clouds":[{"cover":"FEW","base":6500},{"cover":"BKN","base":16000},{"cover":"BKN","base":25000}],"fltCat":"VFR"},{"icaoId":"KCRP","receiptTime":"2026-04-14T22:54:11.398Z","obsTime":1776207060,"reportTime":"2026-04-14T23:00:00.000Z","temp":27.8,"dewp":20.6,"wdir":140,"wspd":22,"visib":"10+","altim":1013.3,"slp":1013.1,"qcField":4,"metarType":"METAR","rawOb":"METAR KCRP 142251Z 14022KT 10SM FEW017 SCT024 28/21 A2992 RMK AO2 PK WND 14031/2230 SLP131 T02780206","lat":27.7734,"lon":-97.513,"elev":11,"name":"Corpus Christi Intl, TX, US","cover":"SCT","clouds":[{"cover":"FEW","base":1700},{"cover":"SCT","base":2400}],"fltCat":"VFR"},{"icaoId":"KOXR","receiptTime":"2026-04-14T22:54:10.180Z","obsTime":1776207060,"reportTime":"2026-04-14T23:00:00.000Z","temp":18.9,"dewp":8.9,"wdir":240,"wspd":11,"visib":"10+","altim":1017.7,"slp":1017.6,"qcField":12,"metarType":"METAR","rawOb":"METAR KOXR 142251Z 24011KT 10SM CLR 19/09 A3005 RMK AO2 SLP176 T01890089 $","lat":34.2001,"lon":-119.2042,"elev":12,"name":"Oxnard Arpt, CA, US","cover":"CLR","clouds":[],"fltCat":"VFR"},{"icaoId":"KLGU","receiptTime":"2026-04-14T22:54:10.073Z","obsTime":1776207060,"reportTime":"2026-04-14T23:00:00.000Z","temp":12.2,"dewp":0,"wdir":"VRB","wspd":5,"visib":"10+","altim":1015,"slp":1013.7,"qcField":6,"metarType":"METAR","rawOb":"METAR KLGU 142251Z AUTO VRB05KT 10SM BKN060 12/00 A2997 RMK AO2 SLP137 T01220000","lat":41.7865,"lon":-111.8519,"elev":1359,"name":"Logan/Cache Arpt, UT, US","cover":"BKN","clouds":[{"cover":"BKN","base":6000}],"fltCat":"VFR"},{"icaoId":"KEWR","receiptTime":"2026-04-14T22:54:11.570Z","obsTime":1776207060,"reportTime":"2026-04-14T23:00:00.000Z","temp":29.4,"dewp":12.8,"wdir":240,"wspd":17,"wgst":31,"visib":"10+","altim":1009.9,"slp":1009.7,"qcField":4,"metarType":"METAR","rawOb":"METAR KEWR 142251Z 24017G31KT 10SM FEW060 FEW120 SCT250 29/13 A2982 RMK AO2 PK WND 25031/2246 SLP097 T02940128","lat":40.6828,"lon":-74.1692,"elev":2,"name":"Newark Intl, NJ, US","cover":"SCT","clouds":[{"cover":"FEW","base":6000},{"cover":"FEW","base":12000},{"cover":"SCT","base":25000}],"fltCat":"VFR"},{"icaoId":"KELP","receiptTime":"2026-04-14T22:54:11.501Z","obsTime":1776207060,"reportTime":"2026-04-14T23:00:00.000Z","temp":25,"dewp":-0.6,"wdir":250,"wspd":14,"wgst":28,"visib":"10+","altim":1012.6,"slp":1005.9,"qcField":4,"wxString":"VCBLDU","metarType":"METAR","rawOb":"METAR KELP 142251Z 25014G28KT 10SM VCBLDU SCT100 SCT140 BKN180 OVC250 25/M01 A2990 RMK AO2 PK WND 25034/2239 SLP059 BLDU W-NE MTNS OBSCD NW T02501006","lat":31.8123,"lon":-106.3774,"elev":1205,"name":"El Paso Intl, TX, US","cover":"OVC","clouds":[{"cover":"SCT","base":10000},{"cover":"SCT","base":14000},{"cover":"BKN","base":18000},{"cover":"OVC","base":25000}],"fltCat":"VFR"},{"icaoId":"KVNY","receiptTime":"2026-04-14T22:54:10.572Z","obsTime":1776207060,"reportTime":"2026-04-14T23:00:00.000Z","temp":22.2,"dewp":8.9,"wdir":170,"wspd":8,"wgst":15,"visib":"10+","altim":1016.3,"slp":1015.8,"qcField":12,"metarType":"METAR","rawOb":"METAR KVNY 142251Z 17008G15KT 10SM CLR 22/09 A3001 RMK AO2 SLP158 T02220089 $","lat":34.2121,"lon":-118.4915,"elev":241,"name":"Van Nuys Arpt, CA, US","cover":"CLR","clouds":[],"fltCat":"VFR"},{"icaoId":"KCLE","receiptTime":"2026-04-14T22:54:11.314Z","obsTime":1776207060,"reportTime":"2026-04-14T23:00:00.000Z","temp":24.4,"dewp":18.3,"wdir":230,"wspd":9,"visib":"10+","altim":1011.6,"slp":1012.4,"qcField":12,"metarType":"METAR","rawOb":"METAR KCLE 142251Z 23009KT 10SM FEW040 FEW250 24/18 A2987 RMK AO2 SLP124 T02440183 $","lat":41.4057,"lon":-81.8519,"elev":237,"name":"Cleveland/Hopkins Intl, OH, US","cover":"FEW","clouds":[{"cover":"FEW","base":4000},{"cover":"FEW","base":25000}],"fltCat":"VFR"},{"icaoId":"KIGM","receiptTime":"2026-04-14T22:54:11.685Z","obsTime":1776207060,"reportTime":"2026-04-14T23:00:00.000Z","temp":18.9,"dewp":-2.8,"wdir":310,"wspd":4,"visib":"10+","altim":1016.3,"slp":1012.4,"qcField":6,"metarType":"METAR","rawOb":"METAR KIGM 142251Z AUTO 31004KT 10SM CLR 19/M03 A3001 RMK AO2 SLP124 T01891028","lat":35.2575,"lon":-113.9341,"elev":1045,"name":"Kingman Arpt, AZ, US","cover":"CLR","clouds":[],"fltCat":"VFR"},{"icaoId":"KLGA","receiptTime":"2026-04-14T22:56:34.479Z","obsTime":1776207060,"reportTime":"2026-04-14T23:00:00.000Z","temp":28.9,"dewp":12.8,"wdir":240,"wspd":15,"wgst":22,"visib":"10+","altim":1009.6,"slp":1009.5,"qcField":12,"metarType":"METAR","rawOb":"METAR KLGA 142251Z 24015G22KT 10SM FEW060 FEW150 SCT250 29/13 A2981 RMK AO2 PK WND 24027/2156 SLP095 T02890128 $","lat":40.7794,"lon":-73.8803,"elev":9,"name":"New York/La Guardia Arpt, NY, US","cover":"SCT","clouds":[{"cover":"FEW","base":6000},{"cover":"FEW","base":15000},{"cover":"SCT","base":25000}],"fltCat":"VFR"},{"icaoId":"KMYL","receiptTime":"2026-04-14T22:54:10.116Z","obsTime":1776207060,"reportTime":"2026-04-14T23:00:00.000Z","temp":6.7,"dewp":-1.1,"wdir":210,"wspd":11,"visib":"10+","altim":1014.6,"slp":1014.9,"qcField":6,"metarType":"METAR","rawOb":"METAR KMYL 142251Z AUTO 21011KT 10SM OVC044 07/M01 A2996 RMK AO2 SLP149 T00671011","lat":44.8943,"lon":-116.0998,"elev":1532,"name":"McCall Muni, ID, US","cover":"OVC","clouds":[{"cover":"OVC","base":4400}],"fltCat":"VFR"},{"icaoId":"KORD","receiptTime":"2026-04-14T22:54:10.132Z","obsTime":1776207060,"reportTime":"2026-04-14T23:00:00.000Z","temp":26.7,"dewp":18.9,"wdir":210,"wspd":20,"wgst":30,"visib":"10+","altim":1005.2,"slp":1004.6,"qcField":4,"metarType":"METAR","rawOb":"METAR KORD 142251Z 21020G30KT 10SM SCT039 SCT140 BKN250 27/19 A2968 RMK AO2 PK WND 21031/2247 SLP046 T02670189","lat":41.9602,"lon":-87.9316,"elev":202,"name":"Chicago/O'Hare Intl, IL, US","cover":"BKN","clouds":[{"cover":"SCT","base":3900},{"cover":"SCT","base":14000},{"cover":"BKN","base":25000}],"fltCat":"VFR"},{"icaoId":"KBDL","receiptTime":"2026-04-14T22:54:11.130Z","obsTime":1776207060,"reportTime":"2026-04-14T23:00:00.000Z","temp":25,"dewp":13.3,"wdir":180,"wspd":14,"wgst":21,"visib":"10+","altim":1007.5,"slp":1007.5,"qcField":4,"metarType":"METAR","rawOb":"METAR KBDL 142251Z 18014G21KT 10SM FEW075 SCT130 BKN230 25/13 A2975 RMK AO2 PK WND 16029/2200 SLP075 T02500133","lat":41.9374,"lon":-72.682,"elev":52,"name":"Hartford/Bradley Intl, CT, US","cover":"BKN","clouds":[{"cover":"FEW","base":7500},{"cover":"SCT","base":13000},{"cover":"BKN","base":23000}],"fltCat":"VFR"},{"icaoId":"KJFK","receiptTime":"2026-04-14T22:54:10.037Z","obsTime":1776207060,"reportTime":"2026-04-14T23:00:00.000Z","temp":17.2,"dewp":11.1,"wdir":180,"wspd":6,"visib":"10+","altim":1010.6,"slp":1010.3,"qcField":4,"metarType":"METAR","rawOb":"METAR KJFK 142251Z 18006KT 10SM FEW060 FEW110 BKN250 17/11 A2984 RMK AO2 SLP103 T01720111","lat":40.6392,"lon":-73.7639,"elev":3,"name":"New York/JF Kennedy Intl, NY, US","cover":"BKN","clouds":[{"cover":"FEW","base":6000},{"cover":"FEW","base":11000},{"cover":"BKN","base":25000}],"fltCat":"VFR"},{"icaoId":"KORF","receiptTime":"2026-04-14T22:54:10.157Z","obsTime":1776207060,"reportTime":"2026-04-14T23:00:00.000Z","temp":28.9,"dewp":12.8,"wdir":220,"wspd":16,"wgst":23,"visib":"10+","altim":1015.7,"slp":1015.5,"qcField":4,"metarType":"METAR","rawOb":"METAR KORF 142251Z 22016G23KT 10SM CLR 29/13 A2999 RMK AO2 SLP155 T02890128","lat":36.9037,"lon":-76.1927,"elev":5,"name":"Norfolk Intl, VA, US","cover":"CLR","clouds":[],"fltCat":"VFR"},{"icaoId":"KRDU","receiptTime":"2026-04-14T22:54:10.307Z","obsTime":1776207060,"reportTime":"2026-04-14T23:00:00.000Z","temp":28.3,"dewp":7.8,"wdir":240,"wspd":9,"visib":"10+","altim":1018,"slp":1017.3,"qcField":4,"metarType":"METAR","rawOb":"METAR KRDU 142251Z 24009KT 10SM FEW180 BKN250 28/08 A3006 RMK AO2 SLP173 T02830078","lat":35.8923,"lon":-78.782,"elev":121,"name":"Raleigh-Durham Intl, NC, US","cover":"BKN","clouds":[{"cover":"FEW","base":18000},{"cover":"BKN","base":25000}],"fltCat":"VFR"},{"icaoId":"KSAT","receiptTime":"2026-04-14T22:54:10.379Z","obsTime":1776207060,"reportTime":"2026-04-14T23:00:00.000Z","temp":29.4,"dewp":17.2,"wdir":140,"wspd":19,"visib":"10+","altim":1012.6,"slp":1010.6,"qcField":12,"metarType":"METAR","rawOb":"METAR KSAT 142251Z 14019KT 10SM SCT060 BKN250 29/17 A2990 RMK AO2 PK WND 12026/2225 SLP106 T02940172 $","lat":29.5443,"lon":-98.4839,"elev":246,"name":"San Antonio Intl, TX, US","cover":"BKN","clouds":[{"cover":"SCT","base":6000},{"cover":"BKN","base":25000}],"fltCat":"VFR"},{"icaoId":"KCMH","receiptTime":"2026-04-14T22:54:11.352Z","obsTime":1776207060,"reportTime":"2026-04-14T23:00:00.000Z","temp":27.2,"dewp":15,"wdir":220,"wspd":14,"wgst":23,"visib":"10+","altim":1013,"slp":1012.1,"qcField":4,"metarType":"METAR","rawOb":"METAR KCMH 142251Z 22014G23KT 10SM FEW055 BKN250 27/15 A2991 RMK AO2 PK WND 20029/2208 SLP121 T02720150","lat":39.9907,"lon":-82.877,"elev":257,"name":"Columbus/Glenn Intl, OH, US","cover":"BKN","clouds":[{"cover":"FEW","base":5500},{"cover":"BKN","base":25000}],"fltCat":"VFR"},{"icaoId":"KACT","receiptTime":"2026-04-14T22:54:11.012Z","obsTime":1776207060,"reportTime":"2026-04-14T23:00:00.000Z","temp":27.2,"dewp":19.4,"wdir":150,"wspd":14,"visib":"10+","altim":1013.3,"slp":1012.4,"qcField":4,"metarType":"METAR","rawOb":"METAR KACT 142251Z 15014KT 10SM BKN070 27/19 A2992 RMK AO2 SLP124 T02720194","lat":31.618,"lon":-97.2283,"elev":150,"name":"Waco Rgnl, TX, US","cover":"BKN","clouds":[{"cover":"BKN","base":7000}],"fltCat":"VFR"},{"icaoId":"KSTL","receiptTime":"2026-04-14T22:54:10.494Z","obsTime":1776207060,"reportTime":"2026-04-14T23:00:00.000Z","temp":30.6,"dewp":17.8,"wdir":190,"wspd":13,"wgst":22,"visib":"10+","altim":1009.6,"slp":1008.2,"qcField":12,"metarType":"METAR","rawOb":"METAR KSTL 142251Z 19013G22KT 10SM SCT060 BKN250 31/18 A2981 RMK AO2 SLP082 T03060178 $","lat":38.7525,"lon":-90.3734,"elev":163,"name":"St Louis/Lambert Intl, MO, US","cover":"BKN","clouds":[{"cover":"SCT","base":6000},{"cover":"BKN","base":25000}],"fltCat":"VFR"},{"icaoId":"KSAN","receiptTime":"2026-04-14T22:54:10.349Z","obsTime":1776207060,"reportTime":"2026-04-14T23:00:00.000Z","temp":20,"dewp":6.7,"wdir":290,"wspd":10,"visib":"10+","altim":1017.7,"slp":1017.7,"qcField":12,"metarType":"METAR","rawOb":"METAR KSAN 142251Z 29010KT 10SM FEW040 20/07 A3005 RMK AO2 SLP177 T02000067 $","lat":32.7364,"lon":-117.1973,"elev":3,"name":"San Diego Intl Arpt, CA, US","cover":"FEW","clouds":[{"cover":"FEW","base":4000}],"fltCat":"VFR"},{"icaoId":"KSAD","receiptTime":"2026-04-14T22:54:10.337Z","obsTime":1776207060,"reportTime":"2026-04-14T23:00:00.000Z","temp":23.9,"dewp":-2.8,"wdir":320,"wspd":14,"wgst":28,"visib":"10+","altim":1012.6,"slp":1008.8,"qcField":6,"metarType":"METAR","rawOb":"METAR KSAD 142251Z AUTO 32014G28KT 10SM CLR 24/M03 A2990 RMK AO2 PK WND 32031/2219 SLP088 T02391028","lat":32.8565,"lon":-109.636,"elev":937,"name":"Safford Rgnl, AZ, US","cover":"CLR","clouds":[],"fltCat":"VFR"},{"icaoId":"KROW","receiptTime":"2026-04-14T22:54:10.322Z","obsTime":1776207060,"reportTime":"2026-04-14T23:00:00.000Z","temp":25.6,"dewp":-0.6,"wdir":200,"wspd":19,"wgst":31,"visib":"10+","altim":1010.6,"slp":1004.9,"qcField":4,"metarType":"METAR","rawOb":"METAR KROW 142251Z 20019G31KT 10SM CLR 26/M01 A2984 RMK AO2 PK WND 23040/2206 SLP049 T02561006","lat":33.3074,"lon":-104.5082,"elev":1105,"name":"Roswell/Ind Arpt, NM, US","cover":"CLR","clouds":[],"fltCat":"VFR"},{"icaoId":"KPVD","receiptTime":"2026-04-14T22:54:10.266Z","obsTime":1776207060,"reportTime":"2026-04-14T23:00:00.000Z","temp":13.9,"dewp":9.4,"wdir":150,"wspd":10,"visib":9,"altim":1010.2,"slp":1010.1,"qcField":4,"metarType":"METAR","rawOb":"METAR KPVD 142251Z 15010KT 9SM FEW065 FEW100 BKN250 14/09 A2983 RMK AO2 SLP101 T01390094","lat":41.7225,"lon":-71.4325,"elev":15,"name":"Providence/Green Mem, RI, US","cover":"BKN","clouds":[{"cover":"FEW","base":6500},{"cover":"FEW","base":10000},{"cover":"BKN","base":25000}],"fltCat":"VFR"},{"icaoId":"KPIT","receiptTime":"2026-04-14T22:54:10.228Z","obsTime":1776207060,"reportTime":"2026-04-14T23:00:00.000Z","temp":20,"dewp":17.8,"wdir":170,"wspd":3,"visib":"10+","altim":1014,"slp":1014,"qcField":12,"metarType":"METAR","rawOb":"METAR KPIT 142251Z 17003KT 10SM SCT055 BKN080 BKN150 20/18 A2994 RMK AO2 SLP140 T02000178 $","lat":40.4814,"lon":-80.2083,"elev":339,"name":"Pittsburgh Intl, PA, US","cover":"BKN","clouds":[{"cover":"SCT","base":5500},{"cover":"BKN","base":8000},{"cover":"BKN","base":15000}],"fltCat":"VFR"},{"icaoId":"KPHX","receiptTime":"2026-04-14T22:54:10.198Z","obsTime":1776207060,"reportTime":"2026-04-14T23:00:00.000Z","temp":25.6,"dewp":-2.8,"wdir":220,"wspd":7,"visib":"10+","altim":1013.3,"slp":1012,"qcField":4,"metarType":"METAR","rawOb":"METAR KPHX 142251Z 22007KT 10SM FEW110 FEW140 26/M03 A2992 RMK AO2 SLP120 T02561028","lat":33.4278,"lon":-112.0037,"elev":338,"name":"Phoenix/Sky Harbor Intl, AZ, US","cover":"FEW","clouds":[{"cover":"FEW","base":11000},{"cover":"FEW","base":14000}],"fltCat":"VFR"},{"icaoId":"KHOB","receiptTime":"2026-04-14T22:51:37.253Z","obsTime":1776207000,"reportTime":"2026-04-14T23:00:00.000Z","temp":26,"dewp":-2,"wdir":240,"wspd":25,"wgst":36,"visib":"10+","altim":1012.3,"qcField":0,"metarType":"METAR","rawOb":"METAR KHOB 142250Z 24025G36KT 10SM BKN200 26/M02 A2989","lat":32.6797,"lon":-103.2222,"elev":1112,"name":"Hobbs Arpt, NM, US","cover":"BKN","clouds":[{"cover":"BKN","base":20000}],"fltCat":"VFR"},{"icaoId":"KAEG","receiptTime":"2026-04-14T22:46:12.023Z","obsTime":1776207000,"reportTime":"2026-04-14T23:00:00.000Z","temp":18,"dewp":-9,"wdir":250,"wspd":19,"wgst":30,"visib":"10+","altim":1014.3,"qcField":0,"metarType":"METAR","rawOb":"METAR KAEG 142250Z 25019G30KT 10SM SCT100 18/M09 A2995","lat":35.15,"lon":-106.7929,"elev":1771,"name":"Albuquerque/Double Eagle Arpt, NM, US","cover":"SCT","clouds":[{"cover":"SCT","base":10000}],"fltCat":"VFR"},{"icaoId":"KIWA","receiptTime":"2026-04-14T22:52:49.054Z","obsTime":1776207000,"reportTime":"2026-04-14T23:00:00.000Z","temp":24,"dewp":-3,"wdir":270,"wspd":8,"wgst":13,"visib":"10+","altim":1014.3,"qcField":0,"metarType":"METAR","rawOb":"METAR KIWA 142250Z 27008G13KT 250V310 10SM CLR 24/M03 A2995","lat":33.3008,"lon":-111.6437,"elev":420,"name":"Phoenix/Mesa Gateway Arpt, AZ, US","cover":"CLR","clouds":[],"fltCat":"VFR"},{"icaoId":"KADM","receiptTime":"2026-04-14T22:54:05.236Z","obsTime":1776207000,"reportTime":"2026-04-14T23:00:00.000Z","temp":24,"dewp":21,"wdir":160,"wspd":12,"visib":"10+","altim":1012.3,"qcField":0,"metarType":"METAR","rawOb":"METAR KADM 142250Z 16012KT 10SM SCT024 OVC075 24/21 A2989 RMK LTG DSNT W AND NW","lat":34.3007,"lon":-97.0089,"elev":223,"name":"Ardmore Muni, OK, US","cover":"OVC","clouds":[{"cover":"SCT","base":2400},{"cover":"OVC","base":7500}],"fltCat":"VFR"},{"icaoId":"KGYR","receiptTime":"2026-04-14T22:48:22.169Z","obsTime":1776206820,"reportTime":"2026-04-14T23:00:00.000Z","temp":24,"dewp":-1,"wdir":230,"wspd":4,"visib":"10+","altim":1014.3,"qcField":0,"metarType":"METAR","rawOb":"METAR KGYR 142247Z 23004KT 10SM FEW090 24/M01 A2995","lat":33.428,"lon":-112.368,"elev":292,"name":"Phoenix/Goodyear Muni, AZ, US","cover":"FEW","clouds":[{"cover":"FEW","base":9000}],"fltCat":"VFR"},{"icaoId":"KSUN","receiptTime":"2026-04-14T22:47:26.780Z","obsTime":1776206820,"reportTime":"2026-04-14T23:00:00.000Z","temp":12,"dewp":-3,"wdir":190,"wspd":12,"wgst":20,"visib":"10+","altim":1014,"qcField":0,"metarType":"METAR","rawOb":"METAR KSUN 142247Z 19012G20KT 10SM CLR 12/M03 A2994","lat":43.4969,"lon":-114.2923,"elev":1619,"name":"Hailey/Friedman Mem, ID, US","cover":"CLR","clouds":[],"fltCat":"VFR"},{"icaoId":"KGEU","receiptTime":"2026-04-14T22:55:46.080Z","obsTime":1776206820,"reportTime":"2026-04-14T23:00:00.000Z","temp":25,"dewp":-2,"wdir":220,"wspd":9,"visib":"10+","altim":1013,"qcField":0,"metarType":"METAR","rawOb":"METAR KGEU 142247Z 22009KT 10SM CLR 25/M02 A2991","lat":33.528,"lon":-112.293,"elev":319,"name":"Glendale Muni, AZ, US","cover":"CLR","clouds":[],"fltCat":"VFR"},{"icaoId":"KIFP","receiptTime":"2026-04-14T22:48:57.359Z","obsTime":1776206820,"reportTime":"2026-04-14T23:00:00.000Z","temp":26,"dewp":-3,"wdir":230,"wspd":5,"visib":"10+","altim":1013.3,"qcField":0,"metarType":"METAR","rawOb":"METAR KIFP 142247Z 23005KT 10SM CLR 26/M03 A2992","lat":35.1487,"lon":-114.5611,"elev":210,"name":"Bullhead City Intl, AZ, US","cover":"CLR","clouds":[],"fltCat":"VFR"},{"icaoId":"KBJC","receiptTime":"2026-04-14T22:56:23.322Z","obsTime":1776206820,"reportTime":"2026-04-14T23:00:00.000Z","temp":7,"dewp":0,"wdir":280,"wspd":26,"wgst":34,"visib":"10+","altim":1011.9,"qcField":0,"wxString":"VCSH","metarType":"METAR","rawOb":"METAR KBJC 142247Z 28026G34KT 10SM VCSH OVC042 07/00 A2988 RMK VIRGA W-N","lat":39.9008,"lon":-105.1042,"elev":1694,"name":"Rocky Mtn Metro, CO, US","cover":"OVC","clouds":[{"cover":"OVC","base":4200}],"fltCat":"VFR"},{"icaoId":"KCHD","receiptTime":"2026-04-14T22:48:21.491Z","obsTime":1776206820,"reportTime":"2026-04-14T23:00:00.000Z","temp":24,"dewp":-3,"wdir":280,"wspd":6,"visib":"10+","altim":1014,"qcField":0,"metarType":"METAR","rawOb":"METAR KCHD 142247Z 28006KT 10SM CLR 24/M03 A2994","lat":33.2669,"lon":-111.8086,"elev":378,"name":"Chandler Muni, AZ, US","cover":"CLR","clouds":[],"fltCat":"VFR"},{"icaoId":"KRYN","receiptTime":"2026-04-14T22:45:48.240Z","obsTime":1776206700,"reportTime":"2026-04-14T23:00:00.000Z","temp":25,"dewp":-1,"wdir":320,"wspd":16,"wgst":22,"visib":"10+","altim":1013.6,"qcField":0,"metarType":"METAR","rawOb":"METAR KRYN 142245Z 32016G22KT 10SM CLR 25/M01 A2993","lat":32.1418,"lon":-111.1767,"elev":731,"name":"Tucson/Ryan Fld, AZ, US","cover":"CLR","clouds":[],"fltCat":"VFR"}]