[{"icaoId":"KCVG","receiptTime":"2026-04-18T19:22:04.306Z","obsTime":1776539880,"reportTime":"2026-04-18T19:18:00.000Z","temp":17.2,"dewp":14.4,"wdir":250,"wspd":8,"visib":"10+","altim":1011.6,"qcField":4,"metarType":"SPECI","rawOb":"SPECI KCVG 181918Z 25008KT 10SM FEW013 BKN034 OVC042 17/14 A2987 RMK AO2 T01720144","lat":39.0444,"lon":-84.6724,"elev":264,"name":"Cincinnati Intl, KY, US","cover":"OVC","clouds":[{"cover":"FEW","base":1300},{"cover":"BKN","base":3400},{"cover":"OVC","base":4200}],"fltCat":"VFR"},{"icaoId":"KDTW","receiptTime":"2026-04-18T19:22:05.608Z","obsTime":1776539880,"reportTime":"2026-04-18T19:18:00.000Z","temp":11.7,"dewp":6.7,"wdir":270,"wspd":13,"wgst":21,"visib":9,"altim":1007.2,"qcField":12,"metarType":"SPECI","rawOb":"SPECI KDTW 181918Z 27013G21KT 9SM SCT015 OVC035 12/07 A2974 RMK AO2 PK WND 27026/1906 T01170067 $","lat":42.2311,"lon":-83.3312,"elev":192,"name":"Detroit/Metro Wayne Cnty, MI, US","cover":"OVC","clouds":[{"cover":"SCT","base":1500},{"cover":"OVC","base":3500}],"fltCat":"VFR"},{"icaoId":"KHII","receiptTime":"2026-04-18T19:20:49.551Z","obsTime":1776539700,"reportTime":"2026-04-18T19:15:00.000Z","temp":27,"dewp":-15,"wdir":300,"wspd":9,"visib":"10+","altim":1015.7,"qcField":6,"metarType":"METAR","rawOb":"METAR KHII 181915Z AUTO 30009KT 270V340 10SM CLR 27/M15 A2999 RMK AO2","lat":34.5659,"lon":-114.3522,"elev":241,"name":"Lake Havasu City Arpt, AZ, US","cover":"CLR","clouds":[],"fltCat":"VFR"},{"icaoId":"KLRU","receiptTime":"2026-04-18T19:18:12.241Z","obsTime":1776539700,"reportTime":"2026-04-18T19:15:00.000Z","temp":20.7,"dewp":-12,"wdir":0,"wspd":0,"visib":"10+","altim":1021.8,"qcField":6,"metarType":"METAR","rawOb":"METAR KLRU 181915Z AUTO 00000KT 10SM CLR 21/M12 A3017 RMK AO2 T02071120","lat":32.2884,"lon":-106.9131,"elev":1355,"name":"Las Cruces Intl, NM, US","cover":"CLR","clouds":[],"fltCat":"VFR"},{"icaoId":"KSOW","receiptTime":"2026-04-18T19:18:09.734Z","obsTime":1776539700,"reportTime":"2026-04-18T19:15:00.000Z","temp":16,"dewp":-15,"wdir":50,"wspd":8,"wgst":18,"visib":"10+","altim":1024.1,"qcField":6,"metarType":"METAR","rawOb":"METAR KSOW 181915Z AUTO 05008G18KT 020V080 10SM CLR 16/M15 A3024 RMK AO2","lat":34.2686,"lon":-110.0019,"elev":1954,"name":"Show Low Muni, AZ, US","cover":"CLR","clouds":[],"fltCat":"VFR"},{"icaoId":"KHAF","receiptTime":"2026-04-18T19:18:07.934Z","obsTime":1776539700,"reportTime":"2026-04-18T19:15:00.000Z","temp":16,"dewp":13,"wdir":310,"wspd":8,"visib":8,"altim":1016,"qcField":6,"metarType":"METAR","rawOb":"METAR KHAF 181915Z AUTO 31008KT 8SM CLR 16/13 A3000 RMK AO2","lat":37.5136,"lon":-122.4996,"elev":11,"name":"Half Moon Bay Arpt, CA, US","cover":"CLR","clouds":[],"fltCat":"VFR"},{"icaoId":"KCXP","receiptTime":"2026-04-18T19:20:54.547Z","obsTime":1776539700,"reportTime":"2026-04-18T19:15:00.000Z","temp":15,"dewp":-14,"wdir":70,"wspd":8,"visib":"10+","altim":1019.7,"qcField":6,"metarType":"METAR","rawOb":"METAR KCXP 181915Z AUTO 07008KT 10SM CLR 15/M14 A3011 RMK AO2","lat":39.1905,"lon":-119.7319,"elev":1431,"name":"Carson City Arpt, NV, US","cover":"CLR","clouds":[],"fltCat":"VFR"},{"icaoId":"KSEZ","receiptTime":"2026-04-18T19:20:52.011Z","obsTime":1776539700,"reportTime":"2026-04-18T19:15:00.000Z","temp":21,"dewp":-14,"wdir":80,"wspd":11,"wgst":20,"visib":"10+","altim":1021.8,"qcField":6,"metarType":"METAR","rawOb":"METAR KSEZ 181915Z AUTO 08011G20KT 10SM CLR 21/M14 A3017 RMK AO2","lat":34.8467,"lon":-111.7884,"elev":1455,"name":"Sedona Arpt, AZ, US","cover":"CLR","clouds":[],"fltCat":"VFR"},{"icaoId":"KBVU","receiptTime":"2026-04-18T19:16:03.885Z","obsTime":1776539700,"reportTime":"2026-04-18T19:15:00.000Z","temp":22,"dewp":-20,"wdir":20,"wspd":12,"visib":"10+","altim":1019,"qcField":6,"metarType":"METAR","rawOb":"METAR KBVU 181915Z AUTO 02012KT 10SM CLR 22/M20 A3009 RMK AO2","lat":35.9489,"lon":-114.8633,"elev":654,"name":"Boulder City Muni, NV, US","cover":"CLR","clouds":[],"fltCat":"VFR"},{"icaoId":"KRTS","receiptTime":"2026-04-18T19:20:51.646Z","obsTime":1776539700,"reportTime":"2026-04-18T19:15:00.000Z","temp":15,"dewp":-16,"wdir":140,"wspd":8,"visib":"10+","altim":1019.4,"qcField":6,"metarType":"METAR","rawOb":"METAR KRTS 181915Z AUTO 14008KT 10SM CLR 15/M16 A3010 RMK AO2","lat":39.6658,"lon":-119.8731,"elev":1537,"name":"Reno/Stead Arpt, NV, US","cover":"CLR","clouds":[],"fltCat":"VFR"},{"icaoId":"KMHR","receiptTime":"2026-04-18T19:20:47.274Z","obsTime":1776539700,"reportTime":"2026-04-18T19:15:00.000Z","temp":22,"dewp":5,"wdir":0,"wspd":0,"visib":"10+","altim":1015.3,"qcField":6,"metarType":"METAR","rawOb":"METAR KMHR 181915Z AUTO 00000KT 10SM CLR 22/05 A2998 RMK AO2","lat":38.56,"lon":-121.284,"elev":30,"name":"Sacramento/Mather Fld, CA, US","cover":"CLR","clouds":[],"fltCat":"VFR"},{"icaoId":"KMEV","receiptTime":"2026-04-18T19:20:47.251Z","obsTime":1776539700,"reportTime":"2026-04-18T19:15:00.000Z","temp":15,"dewp":-9,"wdir":"VRB","wspd":4,"visib":"10+","altim":1019,"qcField":6,"metarType":"METAR","rawOb":"METAR KMEV 181915Z AUTO VRB04KT 10SM CLR 15/M09 A3009 RMK AO2","lat":38.9963,"lon":-119.75,"elev":1437,"name":"Minden-Tahoe Arpt, NV, US","cover":"CLR","clouds":[],"fltCat":"VFR"},{"icaoId":"KHTH","receiptTime":"2026-04-18T19:20:30.423Z","obsTime":1776539700,"reportTime":"2026-04-18T19:15:00.000Z","temp":17,"dewp":-20,"wdir":"VRB","wspd":3,"visib":"10+","altim":1019,"qcField":6,"metarType":"METAR","rawOb":"METAR KHTH 181915Z AUTO VRB03KT 10SM CLR 17/M20 A3009 RMK A01","lat":38.5448,"lon":-118.6314,"elev":1281,"name":"Hawthorne Muni, NV, US","cover":"CLR","clouds":[],"fltCat":"VFR"},{"icaoId":"KHCR","receiptTime":"2026-04-18T19:18:07.975Z","obsTime":1776539700,"reportTime":"2026-04-18T19:15:00.000Z","temp":9.1,"dewp":-9.2,"wdir":0,"wspd":0,"visib":"10+","altim":1024.5,"qcField":14,"metarType":"METAR","rawOb":"METAR KHCR 181915Z AUTO 00000KT 10SM FEW310 SCT370 09/M09 A3025 RMK AO2 T00911092 $","lat":40.4774,"lon":-111.4329,"elev":1708,"name":"Heber City Muni, UT, US","cover":"SCT","clouds":[{"cover":"FEW","base":31000},{"cover":"SCT","base":37000}],"fltCat":"VFR"},{"icaoId":"KMEM","receiptTime":"2026-04-18T19:20:47.465Z","obsTime":1776539580,"reportTime":"2026-04-18T19:13:00.000Z","temp":14.4,"dewp":12.8,"wdir":360,"wspd":18,"wgst":27,"visib":"10+","altim":1016,"qcField":13,"metarType":"SPECI","rawOb":"SPECI KMEM 181913Z COR 36018G27 10SM SCT010 OVC018 14/13 A3000 RMK AO2 PK WND 33027/1902 T01440128 PNO $","lat":35.0564,"lon":-89.9864,"elev":78,"name":"Memphis Intl, TN, US","cover":"OVC","clouds":[{"cover":"SCT","base":1000},{"cover":"OVC","base":1800}],"fltCat":"MVFR"},{"icaoId":"KBUF","receiptTime":"2026-04-18T19:06:05.193Z","obsTime":1776538920,"reportTime":"2026-04-18T19:02:00.000Z","temp":22.2,"dewp":11.7,"wdir":260,"wspd":17,"wgst":26,"visib":"10+","altim":1004.1,"qcField":12,"metarType":"SPECI","rawOb":"SPECI KBUF 181902Z 26017G26KT 10SM BKN080 BKN095 22/12 A2965 RMK AO2 PK WND 26026/1902 WSHFT 1842 T02220117 $","lat":42.94,"lon":-78.7361,"elev":217,"name":"Buffalo-Niagara Intl, NY, US","cover":"BKN","clouds":[{"cover":"BKN","base":8000},{"cover":"BKN","base":9500}],"fltCat":"VFR"},{"icaoId":"KNFL","receiptTime":"2026-04-18T19:00:45.098Z","obsTime":1776538620,"reportTime":"2026-04-18T19:00:00.000Z","temp":15.6,"dewp":-17.8,"wdir":0,"wspd":0,"visib":"10+","altim":1019.4,"slp":1016,"qcField":6,"metarType":"METAR","rawOb":"METAR KNFL 181857Z AUTO 00000KT 10SM CLR 16/M18 A3010 RMK AO2 SLP160 T01561178","lat":39.417,"lon":-118.705,"elev":1199,"name":"Fallon , NV, US","cover":"CLR","clouds":[],"fltCat":"VFR"},{"icaoId":"KFLG","receiptTime":"2026-04-18T19:00:47.282Z","obsTime":1776538620,"reportTime":"2026-04-18T19:00:00.000Z","temp":10.6,"dewp":-17.2,"wdir":80,"wspd":13,"wgst":29,"visib":"10+","altim":1025.1,"slp":1020.3,"qcField":4,"metarType":"METAR","rawOb":"METAR KFLG 181857Z 08013G29KT 050V120 10SM CLR 11/M17 A3027 RMK AO2 PK WND 07029/1856 SLP203 T01061172","lat":35.1443,"lon":-111.6664,"elev":2134,"name":"Flagstaff/Pulliam Arpt, AZ, US","cover":"CLR","clouds":[],"fltCat":"VFR"},{"icaoId":"KNYL","receiptTime":"2026-04-18T19:02:08.099Z","obsTime":1776538620,"reportTime":"2026-04-18T19:00:00.000Z","temp":27.8,"dewp":-12.2,"wdir":360,"wspd":5,"visib":"10+","altim":1014.6,"slp":1014.2,"qcField":4,"metarType":"METAR","rawOb":"METAR KNYL 181857Z 36005KT 10SM CLR 28/M12 A2996 RMK AO2 SLP142 T02781122","lat":32.66,"lon":-114.6078,"elev":58,"name":"Yuma , AZ, US","cover":"CLR","clouds":[],"fltCat":"VFR"},{"icaoId":"KBZN","receiptTime":"2026-04-18T19:00:24.963Z","obsTime":1776538560,"reportTime":"2026-04-18T19:00:00.000Z","temp":4.4,"dewp":-6.1,"wdir":60,"wspd":3,"visib":"10+","altim":1022.8,"slp":1025.6,"qcField":4,"metarType":"METAR","rawOb":"METAR KBZN 181856Z 06003KT 10SM CLR 04/M06 A3020 RMK AO2 SLP256 T00441061","lat":45.7876,"lon":-111.1615,"elev":1349,"name":"Bozeman/Gallatin Fld, MT, US","cover":"CLR","clouds":[],"fltCat":"VFR"},{"icaoId":"KEGE","receiptTime":"2026-04-18T18:58:21.756Z","obsTime":1776538560,"reportTime":"2026-04-18T19:00:00.000Z","temp":6.1,"dewp":-12.2,"wdir":0,"wspd":0,"visib":"10+","altim":1027.5,"slp":1028.4,"qcField":4,"metarType":"METAR","rawOb":"METAR KEGE 181856Z 00000KT 10SM CLR 06/M12 A3034 RMK AO2 SLP284 T00611122","lat":39.6448,"lon":-106.9176,"elev":1993,"name":"Eagle Cnty Rgnl, CO, US","cover":"CLR","clouds":[],"fltCat":"VFR"},{"icaoId":"KGUC","receiptTime":"2026-04-18T18:58:23.073Z","obsTime":1776538560,"reportTime":"2026-04-18T19:00:00.000Z","temp":6.1,"dewp":-16.1,"wdir":210,"wspd":5,"visib":"10+","altim":1026.5,"slp":1027.7,"qcField":14,"metarType":"METAR","rawOb":"METAR KGUC 181856Z AUTO 21005KT 10SM CLR 06/M16 A3031 RMK AO2 SLP277 T00611161 $","lat":38.5322,"lon":-106.9419,"elev":2337,"name":"Gunnison Arpt, CO, US","cover":"CLR","clouds":[],"fltCat":"VFR"},{"icaoId":"KHDN","receiptTime":"2026-04-18T18:58:24.305Z","obsTime":1776538560,"reportTime":"2026-04-18T19:00:00.000Z","temp":3.9,"dewp":-10.6,"wdir":"VRB","wspd":5,"visib":"10+","altim":1027.5,"slp":1028.9,"qcField":6,"metarType":"METAR","rawOb":"METAR KHDN 181856Z AUTO VRB05KT 10SM CLR 04/M11 A3034 RMK AO2 SLP289 T00391106","lat":40.4842,"lon":-107.2296,"elev":2012,"name":"Hayden/Yampa Valley Arpt, CO, US","cover":"CLR","clouds":[],"fltCat":"VFR"},{"icaoId":"KLWS","receiptTime":"2026-04-18T19:00:25.957Z","obsTime":1776538560,"reportTime":"2026-04-18T19:00:00.000Z","temp":13.3,"dewp":-0.6,"wdir":110,"wspd":8,"wgst":17,"visib":"10+","altim":1020.7,"slp":1021,"qcField":4,"metarType":"METAR","rawOb":"METAR KLWS 181856Z 11008G17KT 10SM CLR 13/M01 A3014 RMK AO2 SLP210 T01331006","lat":46.3746,"lon":-117.0153,"elev":435,"name":"Lewiston/Nez Perce Cnty, ID, US","cover":"CLR","clouds":[],"fltCat":"VFR"},{"icaoId":"KPWT","receiptTime":"2026-04-18T18:58:22.026Z","obsTime":1776538560,"reportTime":"2026-04-18T19:00:00.000Z","temp":16.1,"dewp":3.9,"wdir":300,"wspd":3,"visib":"10+","altim":1017,"slp":1017.5,"qcField":6,"metarType":"METAR","rawOb":"METAR KPWT 181856Z AUTO 30003KT 10SM CLR 16/04 A3003 RMK AO2 SLP175 T01610039","lat":47.4942,"lon":-122.7594,"elev":143,"name":"Bremerton Arpt, WA, US","cover":"CLR","clouds":[],"fltCat":"VFR"},{"icaoId":"KCOE","receiptTime":"2026-04-18T18:58:21.333Z","obsTime":1776538560,"reportTime":"2026-04-18T19:00:00.000Z","temp":12.2,"dewp":-1.1,"wdir":170,"wspd":6,"visib":"10+","altim":1021.1,"slp":1023.4,"qcField":14,"metarType":"METAR","rawOb":"METAR KCOE 181856Z AUTO 17006KT 10SM CLR 12/M01 A3015 RMK AO2 SLP234 T01221011 PNO $","lat":47.7719,"lon":-116.8332,"elev":693,"name":"Coeur DAlene Arpt, ID, US","cover":"CLR","clouds":[],"fltCat":"VFR"},{"icaoId":"KCOD","receiptTime":"2026-04-18T18:58:21.322Z","obsTime":1776538560,"reportTime":"2026-04-18T19:00:00.000Z","temp":11.1,"dewp":-12.2,"wdir":260,"wspd":7,"wgst":14,"visib":"10+","altim":1021.1,"slp":1021.7,"qcField":14,"metarType":"METAR","rawOb":"METAR KCOD 181856Z AUTO 26007G14KT 220V300 10SM CLR 11/M12 A3015 RMK AO2 SLP217 T01111122 $","lat":44.52,"lon":-109.0268,"elev":1550,"name":"Cody/Yellowstone Rgnl, WY, US","cover":"CLR","clouds":[],"fltCat":"VFR"},{"icaoId":"KCGZ","receiptTime":"2026-04-18T18:58:21.219Z","obsTime":1776538560,"reportTime":"2026-04-18T19:00:00.000Z","temp":29.4,"dewp":-7.8,"wdir":0,"wspd":0,"visib":"10+","altim":1015.3,"slp":1013.8,"qcField":14,"metarType":"METAR","rawOb":"METAR KCGZ 181856Z AUTO 00000KT 10SM CLR 29/M08 A2998 RMK AO2 SLP138 T02941078 $","lat":32.9531,"lon":-111.7725,"elev":444,"name":"Casa Granda Muni, AZ, US","cover":"CLR","clouds":[],"fltCat":"VFR"},{"icaoId":"KSGU","receiptTime":"2026-04-18T18:58:20.328Z","obsTime":1776538560,"reportTime":"2026-04-18T19:00:00.000Z","temp":19.4,"dewp":-14.4,"wdir":"VRB","wspd":3,"visib":"10+","altim":1021.1,"slp":1019.6,"qcField":6,"metarType":"METAR","rawOb":"METAR KSGU 181856Z AUTO VRB03KT 10SM CLR 19/M14 A3015 RMK AO2 SLP196 T01941144","lat":37.0444,"lon":-113.5034,"elev":877,"name":"Saint George Muni, UT, US","cover":"CLR","clouds":[],"fltCat":"VFR"},{"icaoId":"KVIS","receiptTime":"2026-04-18T18:58:20.685Z","obsTime":1776538560,"reportTime":"2026-04-18T19:00:00.000Z","temp":21.7,"dewp":6.7,"wdir":130,"wspd":3,"visib":"10+","altim":1016.7,"slp":1016.3,"qcField":14,"metarType":"METAR","rawOb":"METAR KVIS 181856Z AUTO 13003KT 10SM CLR 22/07 A3002 RMK AO2 SLP163 T02170067 PNO $","lat":36.3135,"lon":-119.3884,"elev":92,"name":"Visalia Muni, CA, US","cover":"CLR","clouds":[],"fltCat":"VFR"},{"icaoId":"KPVU","receiptTime":"2026-04-18T18:58:22.002Z","obsTime":1776538560,"reportTime":"2026-04-18T19:00:00.000Z","temp":9.4,"dewp":-8.3,"wdir":280,"wspd":8,"visib":"10+","altim":1025.5,"slp":1025.5,"qcField":4,"metarType":"METAR","rawOb":"METAR KPVU 181856Z 28008KT 10SM CLR 09/M08 A3028 RMK AO2 SLP255 T00941083","lat":40.224,"lon":-111.7252,"elev":1370,"name":"Provo Muni, UT, US","cover":"CLR","clouds":[],"fltCat":"VFR"},{"icaoId":"KSDY","receiptTime":"2026-04-18T18:58:22.263Z","obsTime":1776538560,"reportTime":"2026-04-18T19:00:00.000Z","temp":8.3,"dewp":-6.1,"wdir":310,"wspd":13,"wgst":20,"visib":"10+","altim":1017.7,"slp":1020.4,"qcField":14,"metarType":"METAR","rawOb":"METAR KSDY 181856Z AUTO 31013G20KT 10SM FEW042 OVC060 08/M06 A3005 RMK AO2 PK WND 30026/1813 SLP204 T00831061 $","lat":47.7029,"lon":-104.1951,"elev":600,"name":"Sidney/Richland Muni, MT, US","cover":"OVC","clouds":[{"cover":"FEW","base":4200},{"cover":"OVC","base":6000}],"fltCat":"VFR"},{"icaoId":"KENV","receiptTime":"2026-04-18T18:58:22.533Z","obsTime":1776538560,"reportTime":"2026-04-18T19:00:00.000Z","temp":10.6,"dewp":-15,"wdir":110,"wspd":9,"visib":"10+","altim":1026.2,"slp":1026.9,"qcField":6,"metarType":"METAR","rawOb":"METAR KENV 181856Z AUTO 11009KT 10SM CLR 11/M15 A3030 RMK AO2 SLP269 T01061150","lat":40.7211,"lon":-114.0312,"elev":1291,"name":"Wendover Arpt, UT, US","cover":"CLR","clouds":[],"fltCat":"VFR"},{"icaoId":"KFNL","receiptTime":"2026-04-18T18:58:22.820Z","obsTime":1776538560,"reportTime":"2026-04-18T19:00:00.000Z","temp":11.1,"dewp":-12.8,"wdir":200,"wspd":9,"wgst":16,"visib":"10+","altim":1023.1,"slp":1022.3,"qcField":12,"metarType":"METAR","rawOb":"METAR KFNL 181856Z 20009G16KT 10SM CLR 11/M13 A3021 RMK AO2 SLP223 T01111128 $","lat":40.4427,"lon":-105.0097,"elev":1529,"name":"Fort Collins/N Colorado Rgnl, CO, US","cover":"CLR","clouds":[],"fltCat":"VFR"},{"icaoId":"KHND","receiptTime":"2026-04-18T18:58:24.363Z","obsTime":1776538560,"reportTime":"2026-04-18T19:00:00.000Z","temp":20.6,"dewp":-16.7,"wdir":"VRB","wspd":6,"visib":"10+","altim":1020.7,"slp":1021.4,"qcField":12,"metarType":"METAR","rawOb":"METAR KHND 181856Z VRB06KT 10SM CLR 21/M17 A3014 RMK AO2 SLP214 T02061167 $","lat":35.9657,"lon":-115.1343,"elev":740,"name":"Henderson Exec, NV, US","cover":"CLR","clouds":[],"fltCat":"VFR"},{"icaoId":"KJAC","receiptTime":"2026-04-18T18:58:24.644Z","obsTime":1776538560,"reportTime":"2026-04-18T19:00:00.000Z","temp":5,"dewp":-10.6,"wdir":"VRB","wspd":6,"visib":"10+","altim":1024.5,"slp":1027.1,"qcField":4,"metarType":"METAR","rawOb":"METAR KJAC 181856Z VRB06KT 10SM CLR 05/M11 A3025 RMK AO2 SLP271 T00501106","lat":43.6129,"lon":-110.7366,"elev":1967,"name":"Jackson Hole Arpt, WY, US","cover":"CLR","clouds":[],"fltCat":"VFR"},{"icaoId":"KDUG","receiptTime":"2026-04-18T19:02:09.280Z","obsTime":1776538560,"reportTime":"2026-04-18T19:00:00.000Z","temp":25.6,"dewp":-1.7,"wdir":140,"wspd":10,"wgst":21,"visib":"10+","altim":1018.4,"slp":1012.7,"qcField":38,"metarType":"METAR","rawOb":"METAR KDUG 181856Z AUTO 14010G21KT 10SM CLR 26/M02 A3007 RMK AO2 SLP127 T02561017 TSNO","lat":31.4725,"lon":-109.6022,"elev":1260,"name":"Douglas/Bisbee Intl, AZ, US","cover":"CLR","clouds":[],"fltCat":"VFR"},{"icaoId":"KLAS","receiptTime":"2026-04-18T19:00:41.257Z","obsTime":1776538560,"reportTime":"2026-04-18T19:00:00.000Z","temp":20.6,"dewp":-18.3,"wdir":40,"wspd":9,"wgst":18,"visib":"10+","altim":1020.1,"slp":1019,"qcField":4,"metarType":"METAR","rawOb":"METAR KLAS 181856Z 04009G18KT 10SM SCT250 21/M18 A3012 RMK AO2 SLP190 T02061183","lat":36.0719,"lon":-115.1634,"elev":662,"name":"Las Vegas/Reid Intl, NV, US","cover":"SCT","clouds":[{"cover":"SCT","base":25000}],"fltCat":"VFR"},{"icaoId":"KRDM","receiptTime":"2026-04-18T19:00:24.084Z","obsTime":1776538560,"reportTime":"2026-04-18T19:00:00.000Z","temp":16.7,"dewp":-9.4,"wdir":0,"wspd":0,"visib":"10+","altim":1017,"slp":1016.1,"qcField":4,"metarType":"METAR","rawOb":"METAR KRDM 181856Z 00000KT 10SM CLR 17/M09 A3003 RMK AO2 SLP161 T01671094","lat":44.2558,"lon":-121.1407,"elev":930,"name":"Redmond Muni, OR, US","cover":"CLR","clouds":[],"fltCat":"VFR"},{"icaoId":"KSFO","receiptTime":"2026-04-18T19:00:26.023Z","obsTime":1776538560,"reportTime":"2026-04-18T19:00:00.000Z","temp":16.1,"dewp":9.4,"wdir":20,"wspd":4,"visib":"10+","altim":1015.7,"slp":1015.7,"qcField":12,"metarType":"METAR","rawOb":"METAR KSFO 181856Z 02004KT 10SM BKN200 16/09 A2999 RMK AO2 SLP157 T01610094 $","lat":37.6196,"lon":-122.3656,"elev":2,"name":"San Francisco Intl, CA, US","cover":"BKN","clouds":[{"cover":"BKN","base":20000}],"fltCat":"VFR"},{"icaoId":"KSLE","receiptTime":"2026-04-18T19:00:43.141Z","obsTime":1776538560,"reportTime":"2026-04-18T19:00:00.000Z","temp":15,"dewp":6.1,"wdir":0,"wspd":0,"visib":"10+","altim":1016.3,"slp":1016.3,"qcField":4,"metarType":"METAR","rawOb":"METAR KSLE 181856Z 00000KT 10SM CLR 15/06 A3001 RMK AO2 SLP163 T01500061","lat":44.9049,"lon":-123.001,"elev":63,"name":"Salem Muni, OR, US","cover":"CLR","clouds":[],"fltCat":"VFR"},{"icaoId":"KTPH","receiptTime":"2026-04-18T19:00:43.715Z","obsTime":1776538560,"reportTime":"2026-04-18T19:00:00.000Z","temp":14.4,"dewp":-21.1,"wdir":"VRB","wspd":5,"visib":"10+","altim":1021.8,"slp":1019.9,"qcField":6,"metarType":"METAR","rawOb":"METAR KTPH 181856Z AUTO VRB05KT 10SM CLR 14/M21 A3017 RMK AO2 SLP199 T01441211","lat":38.0505,"lon":-117.0906,"elev":1647,"name":"Tonopah Arpt, NV, US","cover":"CLR","clouds":[],"fltCat":"VFR"},{"icaoId":"KCHS","receiptTime":"2026-04-18T19:00:25.000Z","obsTime":1776538560,"reportTime":"2026-04-18T19:00:00.000Z","temp":31.1,"dewp":16.1,"wdir":170,"wspd":10,"visib":"10+","altim":1014.3,"slp":1014.2,"qcField":4,"metarType":"METAR","rawOb":"METAR KCHS 181856Z 17010KT 10SM FEW060 SCT075 OVC200 31/16 A2995 RMK AO2 SLP142 T03110161","lat":32.8995,"lon":-80.0407,"elev":12,"name":"Charleston Intl, SC, US","cover":"OVC","clouds":[{"cover":"FEW","base":6000},{"cover":"SCT","base":7500},{"cover":"OVC","base":20000}],"fltCat":"VFR"},{"icaoId":"KJAX","receiptTime":"2026-04-18T19:00:39.251Z","obsTime":1776538560,"reportTime":"2026-04-18T19:00:00.000Z","temp":32.8,"dewp":13.3,"wdir":250,"wspd":6,"visib":"10+","altim":1015,"slp":1014.8,"qcField":12,"metarType":"METAR","rawOb":"METAR KJAX 181856Z 25006KT 10SM SCT065 SCT250 33/13 A2997 RMK AO2 SLP148 T03280133 $","lat":30.4953,"lon":-81.6937,"elev":8,"name":"Jacksonville Intl, FL, US","cover":"SCT","clouds":[{"cover":"SCT","base":6500},{"cover":"SCT","base":25000}],"fltCat":"VFR"},{"icaoId":"KSDF","receiptTime":"2026-04-18T19:00:44.327Z","obsTime":1776538560,"reportTime":"2026-04-18T19:00:00.000Z","temp":18.9,"dewp":15.6,"wdir":250,"wspd":10,"visib":"10+","altim":1012.6,"slp":1012.2,"qcField":4,"precip":0.01,"metarType":"METAR","rawOb":"METAR KSDF 181856Z 25010KT 10SM FEW017 BKN060 OVC150 19/16 A2990 RMK AO2 RAE44 SLP122 P0001 T01890156","lat":38.1774,"lon":-85.7308,"elev":146,"name":"Louisville Intl, KY, US","cover":"OVC","clouds":[{"cover":"FEW","base":1700},{"cover":"BKN","base":6000},{"cover":"OVC","base":15000}],"fltCat":"VFR"},{"icaoId":"KUKI","receiptTime":"2026-04-18T19:00:43.911Z","obsTime":1776538560,"reportTime":"2026-04-18T19:00:00.000Z","temp":20.6,"dewp":5,"wdir":0,"wspd":0,"visib":"10+","altim":1015.7,"slp":1015.2,"qcField":6,"metarType":"METAR","rawOb":"METAR KUKI 181856Z AUTO 00000KT 10SM CLR 21/05 A2999 RMK AO2 SLP152 T02060050","lat":39.1278,"lon":-123.2001,"elev":183,"name":"Ukiah Muni, CA, US","cover":"CLR","clouds":[],"fltCat":"VFR"},{"icaoId":"KEKO","receiptTime":"2026-04-18T19:00:29.173Z","obsTime":1776538560,"reportTime":"2026-04-18T19:00:00.000Z","temp":11.1,"dewp":-13.3,"wdir":40,"wspd":4,"visib":"10+","altim":1022.1,"slp":1022.2,"qcField":6,"metarType":"METAR","rawOb":"METAR KEKO 181856Z AUTO 04004KT 10SM CLR 11/M13 A3018 RMK AO2 SLP222 T01111133","lat":40.824,"lon":-115.7863,"elev":1541,"name":"Elko Rgnl, NV, US","cover":"CLR","clouds":[],"fltCat":"VFR"},{"icaoId":"KSBP","receiptTime":"2026-04-18T19:00:42.879Z","obsTime":1776538560,"reportTime":"2026-04-18T19:00:00.000Z","temp":25.6,"dewp":2.8,"wdir":"VRB","wspd":6,"visib":"10+","altim":1014.6,"slp":1014.4,"qcField":4,"metarType":"METAR","rawOb":"METAR KSBP 181856Z VRB06KT 10SM CLR 26/03 A2996 RMK AO2 SLP144 T02560028","lat":35.2381,"lon":-120.644,"elev":52,"name":"San Luis Obispo/San Luis Cnty, CA, US","cover":"CLR","clouds":[],"fltCat":"VFR"},{"icaoId":"KCEC","receiptTime":"2026-04-18T19:00:13.866Z","obsTime":1776538560,"reportTime":"2026-04-18T19:00:00.000Z","temp":12.8,"dewp":8.3,"wdir":250,"wspd":7,"visib":"10+","altim":1016.7,"slp":1016.8,"qcField":6,"metarType":"METAR","rawOb":"METAR KCEC 181856Z AUTO 25007KT 10SM CLR 13/08 A3002 RMK AO2 SLP168 T01280083","lat":41.7836,"lon":-124.238,"elev":17,"name":"Crescent City/McNama, CA, US","cover":"CLR","clouds":[],"fltCat":"VFR"},{"icaoId":"KINW","receiptTime":"2026-04-18T19:00:25.624Z","obsTime":1776538560,"reportTime":"2026-04-18T19:00:00.000Z","temp":13.9,"dewp":-17.2,"wdir":"VRB","wspd":3,"visib":"10+","altim":1024.5,"slp":1022.6,"qcField":6,"metarType":"METAR","rawOb":"METAR KINW 181856Z AUTO VRB03KT 10SM CLR 14/M17 A3025 RMK AO2 SLP226 T01391172","lat":35.0279,"lon":-110.7221,"elev":1492,"name":"Winslow/Lindberg Rgnl, AZ, US","cover":"CLR","clouds":[],"fltCat":"VFR"},{"icaoId":"KEND","receiptTime":"2026-04-18T19:16:03.600Z","obsTime":1776538500,"reportTime":"2026-04-18T19:00:00.000Z","temp":15.8,"dewp":-1.8,"wdir":360,"wspd":11,"visib":"10+","altim":1024.1,"slp":1024,"qcField":14,"metarType":"METAR","rawOb":"METAR KEND 181855Z AUTO 36011KT 10SM CLR 16/M02 A3024 RMK AO2 SLP240 T01581018 $","lat":36.338,"lon":-97.919,"elev":392,"name":"Enid/Vance AFB, OK, US","cover":"CLR","clouds":[],"fltCat":"VFR"},{"icaoId":"KAUS","receiptTime":"2026-04-18T18:58:19.975Z","obsTime":1776538500,"reportTime":"2026-04-18T18:55:00.000Z","temp":16.1,"dewp":11.7,"wdir":350,"wspd":12,"visib":"10+","altim":1019,"qcField":4,"metarType":"SPECI","rawOb":"SPECI KAUS 181855Z 35012KT 10SM BKN032 OVC041 16/12 A3009 RMK AO2 T01610117","lat":30.1831,"lon":-97.6806,"elev":148,"name":"Austin/Bergstrom Intl, TX, US","cover":"OVC","clouds":[{"cover":"BKN","base":3200},{"cover":"OVC","base":4100}],"fltCat":"VFR"},{"icaoId":"KGPI","receiptTime":"2026-04-18T18:58:23.011Z","obsTime":1776538500,"reportTime":"2026-04-18T19:00:00.000Z","temp":8.9,"dewp":-3.9,"wdir":170,"wspd":3,"visib":"10+","altim":1021.4,"slp":1023.4,"qcField":4,"metarType":"METAR","rawOb":"METAR KGPI 181855Z 17003KT 10SM CLR 09/M04 A3016 RMK AO2 SLP234 T00891039","lat":48.3041,"lon":-114.2643,"elev":903,"name":"Kalispell/Glacier Park Intl, MT, US","cover":"CLR","clouds":[],"fltCat":"VFR"},{"icaoId":"KRNO","receiptTime":"2026-04-18T18:58:22.169Z","obsTime":1776538500,"reportTime":"2026-04-18T19:00:00.000Z","temp":15,"dewp":-16.1,"wdir":220,"wspd":4,"visib":"10+","altim":1019.4,"slp":1016.9,"qcField":4,"metarType":"METAR","rawOb":"METAR KRNO 181855Z 22004KT 10SM FEW180 SCT250 15/M16 A3010 RMK AO2 SLP169 T01501161","lat":39.5077,"lon":-119.7683,"elev":1344,"name":"Reno/Tahoe Intl, NV, US","cover":"SCT","clouds":[{"cover":"FEW","base":18000},{"cover":"SCT","base":25000}],"fltCat":"VFR"},{"icaoId":"KCMA","receiptTime":"2026-04-18T18:58:21.282Z","obsTime":1776538500,"reportTime":"2026-04-18T19:00:00.000Z","temp":23.3,"dewp":11.1,"wdir":"VRB","wspd":6,"visib":"10+","altim":1015,"slp":1015.6,"qcField":4,"metarType":"METAR","rawOb":"METAR KCMA 181855Z VRB06KT 10SM CLR 23/11 A2997 RMK AO2 SLP156 T02330111","lat":34.2114,"lon":-119.0876,"elev":20,"name":"Camarillo Arpt, CA, US","cover":"CLR","clouds":[],"fltCat":"VFR"},{"icaoId":"KAST","receiptTime":"2026-04-18T18:58:19.489Z","obsTime":1776538500,"reportTime":"2026-04-18T19:00:00.000Z","temp":16.1,"dewp":6.7,"wdir":360,"wspd":6,"visib":"10+","altim":1015.3,"slp":1015.2,"qcField":14,"metarType":"METAR","rawOb":"METAR KAST 181855Z AUTO 36006KT 10SM CLR 16/07 A2998 RMK AO2 SLP152 T01610067 $","lat":46.157,"lon":-123.8833,"elev":3,"name":"Astoria Rgnl, OR, US","cover":"CLR","clouds":[],"fltCat":"VFR"},{"icaoId":"KLUF","receiptTime":"2026-04-18T19:08:12.710Z","obsTime":1776538500,"reportTime":"2026-04-18T19:00:00.000Z","temp":28.2,"dewp":-12.8,"wdir":90,"wspd":7,"visib":"10+","altim":1014.6,"slp":1013.3,"qcField":14,"metarType":"METAR","rawOb":"METAR KLUF 181855Z AUTO 09007KT 10SM FEW210 28/M13 A2996 RMK AO2 SLP133 T02821128 $","lat":33.538,"lon":-112.38,"elev":333,"name":"Phoenix/Luke AFB, AZ, US","cover":"FEW","clouds":[{"cover":"FEW","base":21000}],"fltCat":"VFR"},{"icaoId":"KCOS","receiptTime":"2026-04-18T18:58:13.061Z","obsTime":1776538440,"reportTime":"2026-04-18T19:00:00.000Z","temp":7.8,"dewp":-16.7,"wdir":"VRB","wspd":5,"visib":"10+","altim":1024.8,"slp":1026.7,"qcField":4,"metarType":"METAR","rawOb":"METAR KCOS 181854Z VRB05KT 10SM CLR 08/M17 A3026 RMK AO2 SLP267 T00781167","lat":38.8095,"lon":-104.6887,"elev":1886,"name":"Colorado Spring Arpt, CO, US","cover":"CLR","clouds":[],"fltCat":"VFR"},{"icaoId":"KRIC","receiptTime":"2026-04-18T18:58:13.275Z","obsTime":1776538440,"reportTime":"2026-04-18T19:00:00.000Z","temp":31.7,"dewp":8.9,"wdir":250,"wspd":8,"wgst":18,"visib":"10+","altim":1012.6,"slp":1012.7,"qcField":12,"metarType":"METAR","rawOb":"METAR KRIC 181854Z 25008G18KT 10SM FEW080 BKN250 32/09 A2990 RMK AO2 SLP127 T03170089 $","lat":37.5115,"lon":-77.3234,"elev":51,"name":"Richmond Intl, VA, US","cover":"BKN","clouds":[{"cover":"FEW","base":8000},{"cover":"BKN","base":25000}],"fltCat":"VFR"},{"icaoId":"KSYR","receiptTime":"2026-04-18T18:58:13.404Z","obsTime":1776538440,"reportTime":"2026-04-18T19:00:00.000Z","temp":25,"dewp":11.7,"wdir":170,"wspd":19,"wgst":28,"visib":"10+","altim":1008.2,"slp":1007.7,"qcField":4,"metarType":"METAR","rawOb":"METAR KSYR 181854Z 17019G28KT 10SM FEW120 BKN160 25/12 A2977 RMK AO2 PK WND 16028/1848 SLP077 T02500117","lat":43.1111,"lon":-76.1038,"elev":125,"name":"Syracuse/Hancock Intl, NY, US","cover":"BKN","clouds":[{"cover":"FEW","base":12000},{"cover":"BKN","base":16000}],"fltCat":"VFR"},{"icaoId":"KFFZ","receiptTime":"2026-04-18T18:58:07.098Z","obsTime":1776538440,"reportTime":"2026-04-18T19:00:00.000Z","temp":29.4,"dewp":-9.4,"wdir":30,"wspd":8,"visib":"10+","altim":1014.6,"slp":1012.4,"qcField":4,"metarType":"METAR","rawOb":"METAR KFFZ 181854Z 03008KT 10SM CLR 29/M09 A2996 RMK AO2 SLP124 T02941094","lat":33.4659,"lon":-111.7212,"elev":420,"name":"Mesa/Falcon Fld, AZ, US","cover":"CLR","clouds":[],"fltCat":"VFR"},{"icaoId":"KBWI","receiptTime":"2026-04-18T18:58:09.744Z","obsTime":1776538440,"reportTime":"2026-04-18T19:00:00.000Z","temp":23.3,"dewp":14.4,"wdir":90,"wspd":12,"visib":"10+","altim":1014,"slp":1013.6,"qcField":4,"metarType":"METAR","rawOb":"METAR KBWI 181854Z 09012KT 10SM SCT200 BKN250 23/14 A2994 RMK AO2 SLP136 T02330144","lat":39.1733,"lon":-76.684,"elev":42,"name":"Baltimore-Washington Intl, MD, US","cover":"BKN","clouds":[{"cover":"SCT","base":20000},{"cover":"BKN","base":25000}],"fltCat":"VFR"},{"icaoId":"KDSM","receiptTime":"2026-04-18T18:58:13.098Z","obsTime":1776538440,"reportTime":"2026-04-18T19:00:00.000Z","temp":10,"dewp":-7.2,"wdir":300,"wspd":20,"wgst":28,"visib":"10+","altim":1020.4,"slp":1020.6,"qcField":12,"metarType":"METAR","rawOb":"METAR KDSM 181854Z 30020G28KT 10SM FEW015 10/M07 A3013 RMK AO2 PK WND 30035/1835 SLP206 T01001072 $","lat":41.5339,"lon":-93.6531,"elev":286,"name":"Des Moines Intl, IA, US","cover":"FEW","clouds":[{"cover":"FEW","base":1500}],"fltCat":"VFR"},{"icaoId":"KIND","receiptTime":"2026-04-18T18:58:12.011Z","obsTime":1776538440,"reportTime":"2026-04-18T19:00:00.000Z","temp":8.3,"dewp":2.2,"wdir":300,"wspd":17,"wgst":24,"visib":"10+","altim":1014,"slp":1013.8,"qcField":4,"metarType":"METAR","rawOb":"METAR KIND 181854Z 30017G24KT 10SM FEW017 OVC037 08/02 A2994 RMK AO2 SLP138 T00830022","lat":39.7252,"lon":-86.2816,"elev":242,"name":"Indianapolis Intl, IN, US","cover":"OVC","clouds":[{"cover":"FEW","base":1700},{"cover":"OVC","base":3700}],"fltCat":"VFR"},{"icaoId":"KAPC","receiptTime":"2026-04-18T18:58:10.213Z","obsTime":1776538440,"reportTime":"2026-04-18T19:00:00.000Z","temp":21.7,"dewp":3.3,"wdir":120,"wspd":4,"visib":"10+","altim":1016,"slp":1015,"qcField":4,"metarType":"METAR","rawOb":"METAR KAPC 181854Z 12004KT 10SM CLR 22/03 A3000 RMK AO2 SLP150 T02170033","lat":38.2075,"lon":-122.2804,"elev":5,"name":"Napa Cnty Arpt, CA, US","cover":"CLR","clouds":[],"fltCat":"VFR"},{"icaoId":"KSLC","receiptTime":"2026-04-18T18:58:10.348Z","obsTime":1776538440,"reportTime":"2026-04-18T19:00:00.000Z","temp":11.1,"dewp":-11.1,"wdir":0,"wspd":0,"visib":"10+","altim":1025.5,"slp":1024.4,"qcField":4,"metarType":"METAR","rawOb":"METAR KSLC 181854Z 00000KT 10SM SCT190 BKN230 11/M11 A3028 RMK AO2 SLP244 T01111111","lat":40.7707,"lon":-111.965,"elev":1286,"name":"Salt Lake City Intl, UT, US","cover":"BKN","clouds":[{"cover":"SCT","base":19000},{"cover":"BKN","base":23000}],"fltCat":"VFR"},{"icaoId":"KOLS","receiptTime":"2026-04-18T18:58:10.336Z","obsTime":1776538440,"reportTime":"2026-04-18T19:00:00.000Z","temp":25.6,"dewp":-1.1,"wdir":"VRB","wspd":4,"visib":"10+","altim":1017,"slp":1011.6,"qcField":6,"metarType":"METAR","rawOb":"METAR KOLS 181854Z AUTO VRB04KT 10SM CLR 26/M01 A3003 RMK AO2 SLP116 T02561011","lat":31.4208,"lon":-110.8465,"elev":1194,"name":"Nogales Intl, AZ, US","cover":"CLR","clouds":[],"fltCat":"VFR"},{"icaoId":"KGCN","receiptTime":"2026-04-18T18:58:10.255Z","obsTime":1776538440,"reportTime":"2026-04-18T19:00:00.000Z","temp":11.1,"dewp":-17.8,"wdir":50,"wspd":13,"wgst":25,"visib":"10+","altim":1025.1,"slp":1023,"qcField":4,"metarType":"METAR","rawOb":"METAR KGCN 181854Z 05013G25KT 10SM CLR 11/M18 A3027 RMK AO2 PK WND 08029/1814 SLP230 T01111178","lat":35.9458,"lon":-112.1554,"elev":1993,"name":"Grand Canyon Park Arpt, AZ, US","cover":"CLR","clouds":[],"fltCat":"VFR"},{"icaoId":"KROC","receiptTime":"2026-04-18T18:58:13.303Z","obsTime":1776538440,"reportTime":"2026-04-18T19:00:00.000Z","temp":25.6,"dewp":10.6,"wdir":190,"wspd":16,"wgst":27,"visib":"10+","altim":1004.5,"slp":1004.6,"qcField":12,"metarType":"METAR","rawOb":"METAR KROC 181854Z 19016G27KT 10SM BKN130 OVC150 26/11 A2966 RMK AO2 PK WND 18028/1828 SLP046 T02560106 $","lat":43.1172,"lon":-77.6754,"elev":166,"name":"Rochester Intl Arpt, NY, US","cover":"OVC","clouds":[{"cover":"BKN","base":13000},{"cover":"OVC","base":15000}],"fltCat":"VFR"},{"icaoId":"KEUG","receiptTime":"2026-04-18T18:58:10.244Z","obsTime":1776538440,"reportTime":"2026-04-18T19:00:00.000Z","temp":14.4,"dewp":7.8,"wdir":10,"wspd":3,"visib":"10+","altim":1016.3,"slp":1016.3,"qcField":4,"metarType":"METAR","rawOb":"METAR KEUG 181854Z 01003KT 10SM BKN250 14/08 A3001 RMK AO2 SLP163 T01440078","lat":44.1331,"lon":-123.2156,"elev":109,"name":"Eugene/Mahlon Sweet Fld, OR, US","cover":"BKN","clouds":[{"cover":"BKN","base":25000}],"fltCat":"VFR"},{"icaoId":"KBFL","receiptTime":"2026-04-18T18:58:10.232Z","obsTime":1776538440,"reportTime":"2026-04-18T19:00:00.000Z","temp":22.8,"dewp":-1.7,"wdir":250,"wspd":3,"visib":"10+","altim":1015.7,"slp":1015,"qcField":12,"metarType":"METAR","rawOb":"METAR KBFL 181854Z 25003KT 10SM CLR 23/M02 A2999 RMK AO2 SLP150 T02281017 $","lat":35.4342,"lon":-119.0552,"elev":146,"name":"Bakersfield/Meadows Arpt, CA, US","cover":"CLR","clouds":[],"fltCat":"VFR"},{"icaoId":"KBTV","receiptTime":"2026-04-18T18:58:13.022Z","obsTime":1776538440,"reportTime":"2026-04-18T19:00:00.000Z","temp":23.3,"dewp":4.4,"wdir":170,"wspd":19,"wgst":29,"visib":"10+","altim":1011.6,"slp":1011.3,"qcField":4,"metarType":"METAR","rawOb":"METAR KBTV 181854Z 17019G29KT 10SM SCT150 BKN250 23/04 A2987 RMK AO2 PK WND 16030/1755 SLP113 T02330044","lat":44.4682,"lon":-73.1499,"elev":101,"name":"Burlington Intl, VT, US","cover":"BKN","clouds":[{"cover":"SCT","base":15000},{"cover":"BKN","base":25000}],"fltCat":"VFR"},{"icaoId":"KOLM","receiptTime":"2026-04-18T18:58:10.323Z","obsTime":1776538440,"reportTime":"2026-04-18T19:00:00.000Z","temp":15,"dewp":5,"wdir":"VRB","wspd":4,"visib":"10+","altim":1017,"slp":1016.8,"qcField":4,"metarType":"METAR","rawOb":"METAR KOLM 181854Z VRB04KT 10SM BKN110 15/05 A3003 RMK AO2 SLP168 T01500050","lat":46.9737,"lon":-122.9049,"elev":58,"name":"Olympia Rgnl, WA, US","cover":"BKN","clouds":[{"cover":"BKN","base":11000}],"fltCat":"VFR"},{"icaoId":"KPHL","receiptTime":"2026-04-18T18:58:11.042Z","obsTime":1776538440,"reportTime":"2026-04-18T19:00:00.000Z","temp":24.4,"dewp":13.3,"wdir":140,"wspd":6,"visib":"10+","altim":1015,"slp":1014.9,"qcField":12,"metarType":"METAR","rawOb":"METAR KPHL 181854Z 14006KT 10SM FEW038 SCT130 SCT300 24/13 A2997 RMK AO2 SLP149 T02440133 $","lat":39.8733,"lon":-75.2268,"elev":2,"name":"Philadelphia Intl, PA, US","cover":"SCT","clouds":[{"cover":"FEW","base":3800},{"cover":"SCT","base":13000},{"cover":"SCT","base":30000}],"fltCat":"VFR"},{"icaoId":"KSJN","receiptTime":"2026-04-18T18:58:08.235Z","obsTime":1776538440,"reportTime":"2026-04-18T19:00:00.000Z","temp":15,"dewp":-16.7,"wdir":"VRB","wspd":3,"visib":"10+","altim":1023.1,"slp":1019,"qcField":6,"metarType":"METAR","rawOb":"METAR KSJN 181854Z AUTO VRB03KT 10SM CLR 15/M17 A3021 RMK AO2 SLP190 T01501167","lat":34.5184,"lon":-109.3801,"elev":1747,"name":"St Johns Ind Arpt, AZ, US","cover":"CLR","clouds":[],"fltCat":"VFR"},{"icaoId":"KRKS","receiptTime":"2026-04-18T18:58:08.371Z","obsTime":1776538440,"reportTime":"2026-04-18T19:00:00.000Z","temp":6.1,"dewp":-11.7,"wdir":220,"wspd":10,"wgst":17,"visib":"10+","altim":1025.1,"slp":1026.4,"qcField":6,"metarType":"METAR","rawOb":"METAR KRKS 181854Z AUTO 22010G17KT 200V270 10SM CLR 06/M12 A3027 RMK AO2 SLP264 T00611117","lat":41.5947,"lon":-109.0529,"elev":2062,"name":"Rock Springs/SW Wyoming Rgnl, WY, US","cover":"CLR","clouds":[],"fltCat":"VFR"},{"icaoId":"KBOS","receiptTime":"2026-04-18T18:58:09.683Z","obsTime":1776538440,"reportTime":"2026-04-18T19:00:00.000Z","temp":8.9,"dewp":6.1,"wdir":70,"wspd":13,"visib":"10+","altim":1020.1,"slp":1020,"qcField":4,"metarType":"METAR","rawOb":"METAR KBOS 181854Z 07013KT 10SM OVC027 09/06 A3012 RMK AO2 SLP200 T00890061","lat":42.3606,"lon":-71.0097,"elev":4,"name":"Boston/Logan Intl, MA, US","cover":"OVC","clouds":[{"cover":"OVC","base":2700}],"fltCat":"MVFR"},{"icaoId":"KGSO","receiptTime":"2026-04-18T18:58:13.122Z","obsTime":1776538440,"reportTime":"2026-04-18T19:00:00.000Z","temp":30,"dewp":10.6,"wdir":200,"wspd":9,"visib":"10+","altim":1013,"slp":1011.9,"qcField":4,"metarType":"METAR","rawOb":"METAR KGSO 181854Z 20009KT 10SM SCT080 BKN250 30/11 A2991 RMK AO2 SLP119 T03000106","lat":36.0969,"lon":-79.9432,"elev":275,"name":"Greensboro Intl, NC, US","cover":"BKN","clouds":[{"cover":"SCT","base":8000},{"cover":"BKN","base":25000}],"fltCat":"VFR"},{"icaoId":"KHIO","receiptTime":"2026-04-18T18:56:32.663Z","obsTime":1776538380,"reportTime":"2026-04-18T19:00:00.000Z","temp":15.6,"dewp":4.4,"wdir":140,"wspd":3,"visib":"10+","altim":1016.7,"slp":1016.5,"qcField":4,"metarType":"METAR","rawOb":"METAR KHIO 181853Z 14003KT 10SM CLR 16/04 A3002 RMK AO2 SLP165 T01560044","lat":45.5476,"lon":-122.9557,"elev":62,"name":"Portland/Hillsboro Arpt, OR, US","cover":"CLR","clouds":[],"fltCat":"VFR"},{"icaoId":"KMIA","receiptTime":"2026-04-18T18:56:28.800Z","obsTime":1776538380,"reportTime":"2026-04-18T19:00:00.000Z","temp":29.4,"dewp":21.1,"wdir":90,"wspd":10,"visib":"10+","altim":1015.7,"slp":1015.5,"qcField":0,"metarType":"METAR","rawOb":"METAR KMIA 181853Z 09010KT 10SM SCT031 SCT250 29/21 A2999 RMK SLP155 T02940211","lat":25.7881,"lon":-80.3169,"elev":1,"name":"Miami Intl, FL, US","cover":"SCT","clouds":[{"cover":"SCT","base":3100},{"cover":"SCT","base":25000}],"fltCat":"VFR"},{"icaoId":"KONT","receiptTime":"2026-04-18T18:58:20.153Z","obsTime":1776538380,"reportTime":"2026-04-18T19:00:00.000Z","temp":26.7,"dewp":-13.9,"wdir":210,"wspd":4,"visib":"10+","altim":1015,"slp":1013.6,"qcField":13,"metarType":"METAR","rawOb":"METAR KONT 181853Z COR 21004KT 10SM SCT250 27/M14 A2997 RMK AO2 SLP136 T02671139 $","lat":34.0531,"lon":-117.5769,"elev":279,"name":"Ontario Intl, CA, US","cover":"SCT","clouds":[{"cover":"SCT","base":25000}],"fltCat":"VFR"},{"icaoId":"KELY","receiptTime":"2026-04-18T18:56:31.513Z","obsTime":1776538380,"reportTime":"2026-04-18T19:00:00.000Z","temp":11.1,"dewp":-17.2,"wdir":"VRB","wspd":4,"visib":"10+","altim":1022.8,"slp":1021.4,"qcField":14,"metarType":"METAR","rawOb":"METAR KELY 181853Z AUTO VRB04KT 10SM CLR 11/M17 A3020 RMK AO2 SLP214 T01111172 $","lat":39.2954,"lon":-114.8466,"elev":1906,"name":"Ely/Yelland Fld, NV, US","cover":"CLR","clouds":[],"fltCat":"VFR"},{"icaoId":"KGEG","receiptTime":"2026-04-18T18:56:31.603Z","obsTime":1776538380,"reportTime":"2026-04-18T19:00:00.000Z","temp":11.7,"dewp":-1.1,"wdir":110,"wspd":6,"visib":"10+","altim":1020.4,"slp":1021.2,"qcField":12,"metarType":"METAR","rawOb":"METAR KGEG 181853Z 11006KT 10SM FEW040 FEW120 FEW180 12/M01 A3013 RMK AO2 SLP212 T01171011 $","lat":47.6217,"lon":-117.528,"elev":718,"name":"Spokane Intl, WA, US","cover":"FEW","clouds":[{"cover":"FEW","base":4000},{"cover":"FEW","base":12000},{"cover":"FEW","base":18000}],"fltCat":"VFR"},{"icaoId":"KGJT","receiptTime":"2026-04-18T18:56:34.816Z","obsTime":1776538380,"reportTime":"2026-04-18T19:00:00.000Z","temp":8.9,"dewp":-11.1,"wdir":0,"wspd":0,"visib":"10+","altim":1027.5,"slp":1027,"qcField":4,"metarType":"METAR","rawOb":"METAR KGJT 181853Z 00000KT 10SM CLR 09/M11 A3034 RMK AO2 SLP270 T00891111","lat":39.1344,"lon":-108.5408,"elev":1475,"name":"Grand Junction Rgnl, CO, US","cover":"CLR","clouds":[],"fltCat":"VFR"},{"icaoId":"KMAF","receiptTime":"2026-04-18T18:56:29.013Z","obsTime":1776538380,"reportTime":"2026-04-18T19:00:00.000Z","temp":17.8,"dewp":-7.2,"wdir":50,"wspd":16,"wgst":26,"visib":"10+","altim":1024.5,"slp":1020.5,"qcField":4,"metarType":"METAR","rawOb":"METAR KMAF 181853Z 05016G26KT 10SM CLR 18/M07 A3025 RMK AO2 PK WND 03039/1839 SLP205 T01781072","lat":31.9475,"lon":-102.2086,"elev":874,"name":"Midland Intl, TX, US","cover":"CLR","clouds":[],"fltCat":"VFR"},{"icaoId":"KMLC","receiptTime":"2026-04-18T18:56:29.279Z","obsTime":1776538380,"reportTime":"2026-04-18T19:00:00.000Z","temp":15,"dewp":0.6,"wdir":10,"wspd":18,"wgst":25,"visib":"10+","altim":1023.5,"slp":1023,"qcField":6,"precip":0.005,"metarType":"METAR","rawOb":"METAR KMLC 181853Z AUTO 01018G25KT 10SM CLR 15/01 A3022 RMK AO2 PK WND 35028/1838 RAB00E01B23E48 SLP230 P0000 T01500006","lat":34.8824,"lon":-95.7815,"elev":231,"name":"McAlester Rgnl, OK, US","cover":"CLR","clouds":[],"fltCat":"VFR"},{"icaoId":"KSJC","receiptTime":"2026-04-18T18:56:33.806Z","obsTime":1776538380,"reportTime":"2026-04-18T19:00:00.000Z","temp":22.2,"dewp":1.1,"wdir":"VRB","wspd":3,"visib":"10+","altim":1015.3,"slp":1015.1,"qcField":4,"metarType":"METAR","rawOb":"METAR KSJC 181853Z VRB03KT 10SM BKN100 22/01 A2998 RMK AO2 SLP151 T02220011","lat":37.3594,"lon":-121.9244,"elev":13,"name":"San Jose Intl Arpt, CA, US","cover":"BKN","clouds":[{"cover":"BKN","base":10000}],"fltCat":"VFR"},{"icaoId":"KSMF","receiptTime":"2026-04-18T18:56:33.828Z","obsTime":1776538380,"reportTime":"2026-04-18T19:00:00.000Z","temp":20.6,"dewp":4.4,"wdir":"VRB","wspd":3,"visib":"10+","altim":1016,"slp":1015.9,"qcField":12,"metarType":"METAR","rawOb":"METAR KSMF 181853Z VRB03KT 10SM BKN250 21/04 A3000 RMK AO2 SLP159 T02060044 $","lat":38.7007,"lon":-121.5948,"elev":7,"name":"Sacramento Intl, CA, US","cover":"BKN","clouds":[{"cover":"BKN","base":25000}],"fltCat":"VFR"},{"icaoId":"KSNA","receiptTime":"2026-04-18T18:56:33.850Z","obsTime":1776538380,"reportTime":"2026-04-18T19:00:00.000Z","temp":22.2,"dewp":13.3,"wdir":230,"wspd":7,"visib":"10+","altim":1015,"slp":1014.8,"qcField":4,"metarType":"METAR","rawOb":"METAR KSNA 181853Z 23007KT 10SM FEW250 22/13 A2997 RMK AO2 SLP148 T02220133","lat":33.6798,"lon":-117.8675,"elev":14,"name":"Santa Ana/Wayne Arpt, CA, US","cover":"FEW","clouds":[{"cover":"FEW","base":25000}],"fltCat":"VFR"},{"icaoId":"KSTS","receiptTime":"2026-04-18T18:56:31.983Z","obsTime":1776538380,"reportTime":"2026-04-18T19:00:00.000Z","temp":20.6,"dewp":4.4,"wdir":220,"wspd":4,"visib":"10+","altim":1016,"slp":1015.2,"qcField":4,"metarType":"METAR","rawOb":"METAR KSTS 181853Z 22004KT 10SM CLR 21/04 A3000 RMK AO2 SLP152 T02060044","lat":38.5037,"lon":-122.811,"elev":35,"name":"Santa Rosa/Schulz Arpt, CA, US","cover":"CLR","clouds":[],"fltCat":"VFR"},{"icaoId":"KPDX","receiptTime":"2026-04-18T18:56:25.641Z","obsTime":1776538380,"reportTime":"2026-04-18T19:00:00.000Z","temp":16.1,"dewp":2.2,"wdir":360,"wspd":3,"visib":"10+","altim":1016.7,"slp":1016.3,"qcField":12,"metarType":"METAR","rawOb":"METAR KPDX 181853Z 36003KT 10SM FEW110 BKN250 16/02 A3002 RMK AO2 SLP163 T01610022 $","lat":45.5958,"lon":-122.6092,"elev":7,"name":"Portland Intl, OR, US","cover":"BKN","clouds":[{"cover":"FEW","base":11000},{"cover":"BKN","base":25000}],"fltCat":"VFR"},{"icaoId":"KSEA","receiptTime":"2026-04-18T18:56:25.763Z","obsTime":1776538380,"reportTime":"2026-04-18T19:00:00.000Z","temp":14.4,"dewp":3.9,"wdir":280,"wspd":5,"visib":"10+","altim":1017,"slp":1017.5,"qcField":4,"metarType":"METAR","rawOb":"METAR KSEA 181853Z 28005KT 10SM SCT120 BKN180 14/04 A3003 RMK AO2 SLP175 T01440039","lat":47.4447,"lon":-122.3144,"elev":115,"name":"Seattle-Tacoma Intl, WA, US","cover":"BKN","clouds":[{"cover":"SCT","base":12000},{"cover":"BKN","base":18000}],"fltCat":"VFR"},{"icaoId":"KTUL","receiptTime":"2026-04-18T18:56:33.516Z","obsTime":1776538380,"reportTime":"2026-04-18T19:00:00.000Z","temp":15.6,"dewp":1.1,"wdir":10,"wspd":10,"wgst":17,"visib":"10+","altim":1024.8,"slp":1024.5,"qcField":12,"metarType":"METAR","rawOb":"METAR KTUL 181853Z 01010G17KT 10SM FEW250 16/01 A3026 RMK AO2 SLP245 T01560011 $","lat":36.1985,"lon":-95.8782,"elev":196,"name":"Tulsa Intl Arpt, OK, US","cover":"FEW","clouds":[{"cover":"FEW","base":25000}],"fltCat":"VFR"},{"icaoId":"KSWO","receiptTime":"2026-04-18T18:56:31.995Z","obsTime":1776538380,"reportTime":"2026-04-18T19:00:00.000Z","temp":15.6,"dewp":0,"wdir":30,"wspd":13,"wgst":21,"visib":"10+","altim":1025.1,"slp":1024.8,"qcField":4,"metarType":"METAR","rawOb":"METAR KSWO 181853Z 03013G21KT 10SM CLR 16/00 A3027 RMK AO2 SLP248 T01560000","lat":36.1624,"lon":-97.0832,"elev":293,"name":"Stillwater Muni, OK, US","cover":"CLR","clouds":[],"fltCat":"VFR"},{"icaoId":"KIAH","receiptTime":"2026-04-18T18:56:27.894Z","obsTime":1776538380,"reportTime":"2026-04-18T19:00:00.000Z","temp":25,"dewp":21.1,"wdir":360,"wspd":6,"visib":"10+","altim":1015.3,"slp":1015.3,"qcField":4,"precip":0.005,"metarType":"METAR","rawOb":"METAR KIAH 181853Z 36006KT 10SM FEW035 SCT055 OVC085 25/21 A2998 RMK AO2 RAB40E49 SLP153 SHRA N S P0000 T02500211","lat":29.9844,"lon":-95.3607,"elev":27,"name":"Houston/Bush Intl, TX, US","cover":"OVC","clouds":[{"cover":"FEW","base":3500},{"cover":"SCT","base":5500},{"cover":"OVC","base":8500}],"fltCat":"VFR"},{"icaoId":"KLGB","receiptTime":"2026-04-18T18:56:28.167Z","obsTime":1776538380,"reportTime":"2026-04-18T19:00:00.000Z","temp":22.8,"dewp":13.3,"wdir":200,"wspd":7,"visib":"10+","altim":1015,"slp":1014.7,"qcField":14,"metarType":"METAR","rawOb":"METAR KLGB 181853Z AUTO 20007KT 10SM CLR 23/13 A2997 RMK AO2 SLP147 T02280133 $","lat":33.8118,"lon":-118.1472,"elev":10,"name":"Long Beach Arpt, CA, US","cover":"CLR","clouds":[],"fltCat":"VFR"},{"icaoId":"KMDW","receiptTime":"2026-04-18T18:56:29.120Z","obsTime":1776538380,"reportTime":"2026-04-18T19:00:00.000Z","temp":9.4,"dewp":-1.1,"wdir":270,"wspd":15,"wgst":28,"visib":"10+","altim":1013.3,"slp":1013,"qcField":4,"metarType":"METAR","rawOb":"METAR KMDW 181853Z 27015G28KT 10SM SCT040 SCT075 SCT250 09/M01 A2992 RMK AO2 PK WND 30028/1848 SLP130 T00941011","lat":41.7841,"lon":-87.7552,"elev":186,"name":"Chicago/Midway Intl, IL, US","cover":"SCT","clouds":[{"cover":"SCT","base":4000},{"cover":"SCT","base":7500},{"cover":"SCT","base":25000}],"fltCat":"VFR"},{"icaoId":"KMOD","receiptTime":"2026-04-18T18:56:29.373Z","obsTime":1776538380,"reportTime":"2026-04-18T19:00:00.000Z","temp":22.8,"dewp":3.3,"wdir":"VRB","wspd":3,"visib":"10+","altim":1015.7,"slp":1015.4,"qcField":4,"metarType":"METAR","rawOb":"METAR KMOD 181853Z VRB03KT 10SM CLR 23/03 A2999 RMK AO2 SLP154 T02280033","lat":37.6254,"lon":-120.9549,"elev":25,"name":"Modesto/Sham Fld, CA, US","cover":"CLR","clouds":[],"fltCat":"VFR"},{"icaoId":"KCPR","receiptTime":"2026-04-18T18:56:29.427Z","obsTime":1776538380,"reportTime":"2026-04-18T19:00:00.000Z","temp":7.2,"dewp":-8.3,"wdir":280,"wspd":18,"wgst":27,"visib":"10+","altim":1022.1,"slp":1023.3,"qcField":4,"metarType":"METAR","rawOb":"METAR KCPR 181853Z 28018G27KT 10SM CLR 07/M08 A3018 RMK AO2 PK WND 28029/1820 SLP233 T00721083","lat":42.8978,"lon":-106.4736,"elev":1623,"name":"Casper/Natrona Cnty, WY, US","cover":"CLR","clouds":[],"fltCat":"VFR"},{"icaoId":"KDEN","receiptTime":"2026-04-18T18:56:29.586Z","obsTime":1776538380,"reportTime":"2026-04-18T19:00:00.000Z","temp":7.8,"dewp":-12.8,"wdir":160,"wspd":5,"visib":"10+","altim":1024.1,"slp":1024.4,"qcField":12,"metarType":"METAR","rawOb":"METAR KDEN 181853Z 16005KT 10SM FEW075 08/M13 A3024 RMK AO2 SLP244 T00781128 $","lat":39.8466,"lon":-104.6562,"elev":1656,"name":"Denver Intl, CO, US","cover":"FEW","clouds":[{"cover":"FEW","base":7500}],"fltCat":"VFR"},{"icaoId":"KBHM","receiptTime":"2026-04-18T18:56:29.944Z","obsTime":1776538380,"reportTime":"2026-04-18T19:00:00.000Z","temp":27.8,"dewp":13.9,"wdir":250,"wspd":9,"visib":"10+","altim":1016,"slp":1015.1,"qcField":4,"metarType":"METAR","rawOb":"METAR KBHM 181853Z 25009KT 10SM BKN055 BKN250 28/14 A3000 RMK AO2 SLP151 T02780139","lat":33.5655,"lon":-86.7449,"elev":191,"name":"Birmingham Intl, AL, US","cover":"BKN","clouds":[{"cover":"BKN","base":5500},{"cover":"BKN","base":25000}],"fltCat":"VFR"},{"icaoId":"KBNA","receiptTime":"2026-04-18T18:56:30.040Z","obsTime":1776538380,"reportTime":"2026-04-18T19:00:00.000Z","temp":19.4,"dewp":13.3,"wdir":160,"wspd":3,"visib":"10+","altim":1014.6,"slp":1013.9,"qcField":12,"metarType":"METAR","rawOb":"METAR KBNA 181853Z 16003KT 10SM BKN070 BKN100 BKN250 19/13 A2996 RMK AO2 SLP139 T01940133 $","lat":36.1105,"lon":-86.6881,"elev":168,"name":"Nashville Intl, TN, US","cover":"BKN","clouds":[{"cover":"BKN","base":7000},{"cover":"BKN","base":10000},{"cover":"BKN","base":25000}],"fltCat":"VFR"},{"icaoId":"KBRO","receiptTime":"2026-04-18T18:56:30.133Z","obsTime":1776538380,"reportTime":"2026-04-18T19:00:00.000Z","temp":30,"dewp":21.1,"wdir":150,"wspd":17,"wgst":23,"visib":"10+","altim":1010.9,"slp":1010.8,"qcField":4,"metarType":"METAR","rawOb":"METAR KBRO 181853Z 15017G23KT 10SM BKN033 BKN040 30/21 A2985 RMK AO2 SLP108 T03000211","lat":25.9146,"lon":-97.4231,"elev":6,"name":"Brownsville Intl, TX, US","cover":"BKN","clouds":[{"cover":"BKN","base":3300},{"cover":"BKN","base":4000}],"fltCat":"VFR"},{"icaoId":"KPNC","receiptTime":"2026-04-18T18:56:34.273Z","obsTime":1776538380,"reportTime":"2026-04-18T19:00:00.000Z","temp":15,"dewp":-1.1,"wdir":360,"wspd":11,"wgst":18,"visib":"10+","altim":1025.1,"slp":1024.8,"qcField":6,"precip":0.005,"metarType":"METAR","rawOb":"METAR KPNC 181853Z AUTO 36011G18KT 10SM CLR 15/M01 A3027 RMK AO2 RAB05E14 SLP248 P0000 T01501011","lat":36.7369,"lon":-97.1024,"elev":304,"name":"Ponca City Rgnl, OK, US","cover":"CLR","clouds":[],"fltCat":"VFR"},{"icaoId":"KCNY","receiptTime":"2026-04-18T18:56:31.417Z","obsTime":1776538380,"reportTime":"2026-04-18T19:00:00.000Z","temp":11.1,"dewp":-16.1,"wdir":90,"wspd":8,"visib":"10+","altim":1026.5,"slp":1026.2,"qcField":14,"metarType":"METAR","rawOb":"METAR KCNY 181853Z AUTO 09008KT 10SM CLR 11/M16 A3031 RMK AO2 SLP262 T01111161 $","lat":38.7501,"lon":-109.7627,"elev":1392,"name":"Moab/Canyonland Fld, UT, US","cover":"CLR","clouds":[],"fltCat":"VFR"},{"icaoId":"KFMN","receiptTime":"2026-04-18T18:56:31.558Z","obsTime":1776538380,"reportTime":"2026-04-18T19:00:00.000Z","temp":12.2,"dewp":-17.8,"wdir":170,"wspd":4,"visib":"10+","altim":1025.8,"slp":1024.6,"qcField":4,"metarType":"METAR","rawOb":"METAR KFMN 181853Z 17004KT 10SM CLR 12/M18 A3029 RMK AO2 SLP246 T01221178","lat":36.7435,"lon":-108.2293,"elev":1677,"name":"Farmington/Four Corners Rgnl, NM, US","cover":"CLR","clouds":[],"fltCat":"VFR"},{"icaoId":"KLAX","receiptTime":"2026-04-18T18:56:31.715Z","obsTime":1776538380,"reportTime":"2026-04-18T19:00:00.000Z","temp":23.3,"dewp":12.8,"wdir":250,"wspd":8,"visib":"10+","altim":1015.3,"slp":1015,"qcField":12,"metarType":"METAR","rawOb":"METAR KLAX 181853Z 25008KT 10SM SCT300 23/13 A2998 RMK AO2 SLP150 T02330128 $","lat":33.9382,"lon":-118.3866,"elev":30,"name":"Los Angeles Intl, CA, US","cover":"SCT","clouds":[{"cover":"SCT","base":30000}],"fltCat":"VFR"},{"icaoId":"KRIW","receiptTime":"2026-04-18T18:56:31.837Z","obsTime":1776538380,"reportTime":"2026-04-18T19:00:00.000Z","temp":10,"dewp":-16.7,"wdir":250,"wspd":8,"visib":"10+","altim":1020.7,"slp":1020.5,"qcField":6,"metarType":"METAR","rawOb":"METAR KRIW 181853Z AUTO 25008KT 10SM CLR 10/M17 A3014 RMK AO2 SLP205 T01001167","lat":43.0622,"lon":-108.4471,"elev":1662,"name":"Riverton Rgnl, WY, US","cover":"CLR","clouds":[],"fltCat":"VFR"},{"icaoId":"KGTF","receiptTime":"2026-04-18T18:56:32.501Z","obsTime":1776538380,"reportTime":"2026-04-18T19:00:00.000Z","temp":10.6,"dewp":-5,"wdir":240,"wspd":12,"wgst":21,"visib":"10+","altim":1019.7,"slp":1021.8,"qcField":12,"metarType":"METAR","rawOb":"METAR KGTF 181853Z 24012G21KT 220V290 10SM CLR 11/M05 A3011 RMK AO2 SLP218 T01061050 $","lat":47.4733,"lon":-111.3828,"elev":1117,"name":"Great Falls Intl, MT, US","cover":"CLR","clouds":[],"fltCat":"VFR"},{"icaoId":"KHOU","receiptTime":"2026-04-18T18:56:32.753Z","obsTime":1776538380,"reportTime":"2026-04-18T19:00:00.000Z","temp":28.9,"dewp":20,"wdir":190,"wspd":4,"visib":"10+","altim":1014.3,"slp":1014.8,"qcField":12,"metarType":"METAR","rawOb":"METAR KHOU 181853Z 19004KT 10SM BKN095 29/20 A2995 RMK AO2 SLP148 T02890200 $","lat":29.6458,"lon":-95.2821,"elev":13,"name":"Houston/Hobby Arpt, TX, US","cover":"BKN","clouds":[{"cover":"BKN","base":9500}],"fltCat":"VFR"},{"icaoId":"KMSP","receiptTime":"2026-04-18T18:56:32.836Z","obsTime":1776538380,"reportTime":"2026-04-18T19:00:00.000Z","temp":5.6,"dewp":-8.9,"wdir":290,"wspd":17,"wgst":27,"visib":"10+","altim":1015,"slp":1015.6,"qcField":4,"metarType":"METAR","rawOb":"METAR KMSP 181853Z 29017G27KT 10SM BKN050 06/M09 A2997 RMK AO2 PK WND 28027/1853 SLP156 T00561089","lat":44.8852,"lon":-93.2313,"elev":255,"name":"Minneapolis-St Paul Intl, MN, US","cover":"BKN","clouds":[{"cover":"BKN","base":5000}],"fltCat":"VFR"},{"icaoId":"KMSY","receiptTime":"2026-04-18T18:56:32.861Z","obsTime":1776538380,"reportTime":"2026-04-18T19:00:00.000Z","temp":29.4,"dewp":17.2,"wdir":50,"wspd":4,"visib":"10+","altim":1016.3,"slp":1016.4,"qcField":4,"metarType":"METAR","rawOb":"METAR KMSY 181853Z 05004KT 10SM FEW045 SCT080 BKN250 29/17 A3001 RMK AO2 SLP164 T02940172","lat":29.9974,"lon":-90.2777,"elev":0,"name":"New Orleans/Armstrong Intl, LA, US","cover":"BKN","clouds":[{"cover":"FEW","base":4500},{"cover":"SCT","base":8000},{"cover":"BKN","base":25000}],"fltCat":"VFR"},{"icaoId":"KMTJ","receiptTime":"2026-04-18T18:56:32.883Z","obsTime":1776538380,"reportTime":"2026-04-18T19:00:00.000Z","temp":8.3,"dewp":-13.3,"wdir":"VRB","wspd":3,"visib":"10+","altim":1027.5,"slp":1026.3,"qcField":6,"metarType":"METAR","rawOb":"METAR KMTJ 181853Z AUTO VRB03KT 10SM CLR 08/M13 A3034 RMK AO2 SLP263 T00831133","lat":38.5054,"lon":-107.8981,"elev":1755,"name":"Montrose Rgnl, CO, US","cover":"CLR","clouds":[],"fltCat":"VFR"},{"icaoId":"KPUB","receiptTime":"2026-04-18T18:56:33.386Z","obsTime":1776538380,"reportTime":"2026-04-18T19:00:00.000Z","visib":"","altim":1024.5,"qcField":12,"metarType":"METAR","rawOb":"METAR KPUB 181853Z A3025 RMK AO2 SLPNO RVRNO $","lat":38.2887,"lon":-104.5057,"elev":1441,"name":"Pueblo Mem Arpt, CO, US"},{"icaoId":"KTPA","receiptTime":"2026-04-18T18:56:33.472Z","obsTime":1776538380,"reportTime":"2026-04-18T19:00:00.000Z","temp":30,"dewp":17.2,"wdir":220,"wspd":7,"visib":"10+","altim":1016,"slp":1015.7,"qcField":4,"metarType":"METAR","rawOb":"METAR KTPA 181853Z 22007KT 10SM SCT045 30/17 A3000 RMK AO2 SLP157 T03000172","lat":27.9633,"lon":-82.54,"elev":2,"name":"Tampa Intl Arpt, FL, US","cover":"SCT","clouds":[{"cover":"SCT","base":4500}],"fltCat":"VFR"},{"icaoId":"KTWF","receiptTime":"2026-04-18T18:56:33.561Z","obsTime":1776538380,"reportTime":"2026-04-18T19:00:00.000Z","temp":11.7,"dewp":-5.6,"wdir":40,"wspd":10,"wgst":17,"visib":"10+","altim":1023.1,"slp":1022,"qcField":4,"metarType":"METAR","rawOb":"METAR KTWF 181853Z 04010G17KT 10SM CLR 12/M06 A3021 RMK AO2 SLP220 T01171056","lat":42.4785,"lon":-114.4775,"elev":1269,"name":"Twin Falls/Joslin Fld, ID, US","cover":"CLR","clouds":[],"fltCat":"VFR"},{"icaoId":"KVGT","receiptTime":"2026-04-18T18:56:33.667Z","obsTime":1776538380,"reportTime":"2026-04-18T19:00:00.000Z","temp":21.7,"dewp":-17.2,"wdir":90,"wspd":12,"wgst":17,"visib":"10+","altim":1019.7,"slp":1020.2,"qcField":4,"metarType":"METAR","rawOb":"METAR KVGT 181853Z 09012G17KT 10SM CLR 22/M17 A3011 RMK AO2 SLP202 T02171172","lat":36.212,"lon":-115.194,"elev":664,"name":"Las Vegas/North Arpt, NV, US","cover":"CLR","clouds":[],"fltCat":"VFR"},{"icaoId":"KSHR","receiptTime":"2026-04-18T18:56:33.783Z","obsTime":1776538380,"reportTime":"2026-04-18T19:00:00.000Z","temp":8.9,"dewp":-6.1,"wdir":340,"wspd":16,"wgst":21,"visib":"10+","altim":1021.1,"slp":1022.7,"qcField":6,"metarType":"METAR","rawOb":"METAR KSHR 181853Z AUTO 34016G21KT 10SM CLR 09/M06 A3015 RMK AO2 SLP227 T00891061","lat":44.7603,"lon":-106.9741,"elev":1212,"name":"Sheridan Cnty Arpt, WY, US","cover":"CLR","clouds":[],"fltCat":"VFR"},{"icaoId":"KRTN","receiptTime":"2026-04-18T18:56:33.940Z","obsTime":1776538380,"reportTime":"2026-04-18T19:00:00.000Z","temp":9.4,"dewp":-10,"wdir":"VRB","wspd":6,"visib":"10+","altim":1025.5,"slp":1024.1,"qcField":6,"metarType":"METAR","rawOb":"METAR KRTN 181853Z AUTO VRB06KT 10SM CLR 09/M10 A3028 RMK AO2 SLP241 T00941100","lat":36.7418,"lon":-104.5076,"elev":1939,"name":"Raton/Crews Fld, NM, US","cover":"CLR","clouds":[],"fltCat":"VFR"},{"icaoId":"KSBA","receiptTime":"2026-04-18T18:56:34.041Z","obsTime":1776538380,"reportTime":"2026-04-18T19:00:00.000Z","temp":20.6,"dewp":9.4,"wdir":160,"wspd":7,"visib":"10+","altim":1015,"slp":1015,"qcField":12,"metarType":"METAR","rawOb":"METAR KSBA 181853Z 16007KT 10SM CLR 21/09 A2997 RMK AO2 SLP150 T02060094 $","lat":34.4241,"lon":-119.8425,"elev":2,"name":"Santa Barbara Muni, CA, US","cover":"CLR","clouds":[],"fltCat":"VFR"},{"icaoId":"KSDL","receiptTime":"2026-04-18T18:56:34.066Z","obsTime":1776538380,"reportTime":"2026-04-18T19:00:00.000Z","temp":28.9,"dewp":-8.9,"wdir":80,"wspd":7,"visib":"10+","altim":1015.7,"slp":1013.4,"qcField":4,"metarType":"METAR","rawOb":"METAR KSDL 181853Z 08007KT 10SM CLR 29/M09 A2999 RMK AO2 SLP134 T02891089","lat":33.6123,"lon":-111.9232,"elev":438,"name":"Scottsdale Muni, AZ, US","cover":"CLR","clouds":[],"fltCat":"VFR"},{"icaoId":"KPBI","receiptTime":"2026-04-18T18:56:34.099Z","obsTime":1776538380,"reportTime":"2026-04-18T19:00:00.000Z","temp":28.3,"dewp":17.8,"wdir":100,"wspd":9,"wgst":15,"visib":"10+","altim":1016.3,"slp":1016,"qcField":12,"metarType":"METAR","rawOb":"METAR KPBI 181853Z 10009G15KT 10SM SCT028 SCT250 28/18 A3001 RMK AO2 SLP160 T02830178 $","lat":26.6851,"lon":-80.0992,"elev":4,"name":"Palm Beach Intl, FL, US","cover":"SCT","clouds":[{"cover":"SCT","base":2800},{"cover":"SCT","base":25000}],"fltCat":"VFR"},{"icaoId":"KACV","receiptTime":"2026-04-18T18:56:34.922Z","obsTime":1776538380,"reportTime":"2026-04-18T19:00:00.000Z","temp":12.2,"dewp":8.9,"wdir":300,"wspd":6,"visib":"10+","altim":1016.3,"slp":1017,"qcField":6,"metarType":"METAR","rawOb":"METAR KACV 181853Z AUTO 30006KT 10SM CLR 12/09 A3001 RMK AO2 SLP170 T01220089","lat":40.9784,"lon":-124.1048,"elev":63,"name":"Arcata Arpt, CA, US","cover":"CLR","clouds":[],"fltCat":"VFR"},{"icaoId":"KAMA","receiptTime":"2026-04-18T18:56:35.043Z","obsTime":1776538380,"reportTime":"2026-04-18T19:00:00.000Z","temp":14.4,"dewp":-11.1,"wdir":40,"wspd":13,"wgst":18,"visib":"10+","altim":1026.5,"slp":1025,"qcField":4,"metarType":"METAR","rawOb":"METAR KAMA 181853Z 04013G18KT 10SM CLR 14/M11 A3031 RMK AO2 SLP250 T01441111","lat":35.2203,"lon":-101.7173,"elev":1102,"name":"Amarillo Intl Arpt, TX, US","cover":"CLR","clouds":[],"fltCat":"VFR"},{"icaoId":"KAPA","receiptTime":"2026-04-18T18:56:35.103Z","obsTime":1776538380,"reportTime":"2026-04-18T19:00:00.000Z","temp":7.2,"dewp":-13.3,"wdir":"VRB","wspd":3,"visib":"10+","altim":1023.8,"slp":1025.7,"qcField":4,"metarType":"METAR","rawOb":"METAR KAPA 181853Z VRB03KT 10SM FEW070 07/M13 A3023 RMK AO2 SLP257 T00721133","lat":39.5599,"lon":-104.8484,"elev":1791,"name":"Denver/Centennial Arpt, CO, US","cover":"FEW","clouds":[{"cover":"FEW","base":7000}],"fltCat":"VFR"},{"icaoId":"KMYR","receiptTime":"2026-04-18T18:56:26.610Z","obsTime":1776538380,"reportTime":"2026-04-18T19:00:00.000Z","temp":25,"dewp":18.9,"wdir":160,"wspd":14,"visib":"10+","altim":1015.3,"slp":1015.1,"qcField":12,"metarType":"METAR","rawOb":"METAR KMYR 181853Z 16014KT 10SM CLR 25/19 A2998 RMK AO2 SLP151 T02500189 $","lat":33.6769,"lon":-78.9325,"elev":7,"name":"Myrtle Beach Intl, SC, US","cover":"CLR","clouds":[],"fltCat":"VFR"},{"icaoId":"KPIH","receiptTime":"2026-04-18T18:56:34.185Z","obsTime":1776538380,"reportTime":"2026-04-18T19:00:00.000Z","temp":10,"dewp":-7.2,"wdir":310,"wspd":10,"wgst":16,"visib":"10+","altim":1024.5,"slp":1025,"qcField":4,"metarType":"METAR","rawOb":"METAR KPIH 181853Z 31010G16KT 10SM CLR 10/M07 A3025 RMK AO2 SLP250 T01001072","lat":42.9197,"lon":-112.5723,"elev":1357,"name":"Pocatello Rgnl, ID, US","cover":"CLR","clouds":[],"fltCat":"VFR"},{"icaoId":"KBOI","receiptTime":"2026-04-18T18:56:34.868Z","obsTime":1776538380,"reportTime":"2026-04-18T19:00:00.000Z","temp":13.9,"dewp":-5,"wdir":140,"wspd":15,"wgst":20,"visib":"10+","altim":1022.8,"slp":1022.5,"qcField":4,"metarType":"METAR","rawOb":"METAR KBOI 181853Z 14015G20KT 10SM CLR 14/M05 A3020 RMK AO2 SLP225 T01391050","lat":43.567,"lon":-116.2406,"elev":860,"name":"Boise Arpt, ID, US","cover":"CLR","clouds":[],"fltCat":"VFR"},{"icaoId":"KFAT","receiptTime":"2026-04-18T18:56:31.547Z","obsTime":1776538380,"reportTime":"2026-04-18T19:00:00.000Z","temp":21.7,"dewp":6.7,"wdir":"VRB","wspd":4,"visib":"10+","altim":1016,"slp":1015.7,"qcField":12,"metarType":"METAR","rawOb":"METAR KFAT 181853Z VRB04KT 10SM BKN200 22/07 A3000 RMK AO2 SLP157 T02170067 $","lat":36.78,"lon":-119.7202,"elev":102,"name":"Fresno/Yosemite Intl, CA, US","cover":"BKN","clouds":[{"cover":"BKN","base":20000}],"fltCat":"VFR"},{"icaoId":"KCRQ","receiptTime":"2026-04-18T18:56:31.431Z","obsTime":1776538380,"reportTime":"2026-04-18T19:00:00.000Z","temp":19.4,"dewp":12.8,"wdir":260,"wspd":6,"visib":"10+","altim":1015,"slp":1014.7,"qcField":6,"metarType":"METAR","rawOb":"METAR KCRQ 181853Z AUTO 26006KT 10SM CLR 19/13 A2997 RMK AO2 SLP147 T01940128","lat":33.1299,"lon":-117.2765,"elev":96,"name":"Carlsbad/Palomar Arpt, CA, US","cover":"CLR","clouds":[],"fltCat":"VFR"},{"icaoId":"KDFW","receiptTime":"2026-04-18T18:56:29.641Z","obsTime":1776538380,"reportTime":"2026-04-18T19:00:00.000Z","temp":12.2,"dewp":3.9,"wdir":10,"wspd":17,"wgst":25,"visib":"10+","altim":1021.1,"slp":1020.4,"qcField":12,"wxString":"-RA","precip":0.01,"metarType":"METAR","rawOb":"METAR KDFW 181853Z 01017G25KT 10SM -RA FEW090 SCT110 OVC130 12/04 A3015 RMK AO2 RAE24B53 TSE26 SLP204 TS DSIPTD P0001 T01220039 $","lat":32.8974,"lon":-97.022,"elev":168,"name":"Dallas-Ft Worth Intl, TX, US","cover":"OVC","clouds":[{"cover":"FEW","base":9000},{"cover":"SCT","base":11000},{"cover":"OVC","base":13000}],"fltCat":"VFR"},{"icaoId":"KDMN","receiptTime":"2026-04-18T18:56:31.490Z","obsTime":1776538380,"reportTime":"2026-04-18T19:00:00.000Z","temp":22.8,"dewp":-10.6,"wdir":80,"wspd":11,"wgst":20,"visib":"10+","altim":1021.8,"slp":1016.1,"qcField":6,"metarType":"METAR","rawOb":"METAR KDMN 181853Z AUTO 08011G20KT 040V110 10SM CLR 23/M11 A3017 RMK AO2 SLP161 T02281106","lat":32.2592,"lon":-107.7206,"elev":1310,"name":"Deming Muni, NM, US","cover":"CLR","clouds":[],"fltCat":"VFR"},{"icaoId":"KCDC","receiptTime":"2026-04-18T18:56:30.259Z","obsTime":1776538380,"reportTime":"2026-04-18T19:00:00.000Z","temp":11.1,"dewp":-13.9,"wdir":0,"wspd":0,"visib":"10+","altim":1023.8,"slp":1022.3,"qcField":6,"metarType":"METAR","rawOb":"METAR KCDC 181853Z AUTO 00000KT 10SM CLR 11/M14 A3023 RMK AO2 SLP223 T01111139","lat":37.7067,"lon":-113.097,"elev":1703,"name":"Cedar City Muni, UT, US","cover":"CLR","clouds":[],"fltCat":"VFR"},{"icaoId":"KVEL","receiptTime":"2026-04-18T18:56:33.649Z","obsTime":1776538380,"reportTime":"2026-04-18T19:00:00.000Z","temp":6.1,"dewp":-12.8,"wdir":"VRB","wspd":3,"visib":"10+","altim":1027.9,"slp":1028.7,"qcField":6,"metarType":"METAR","rawOb":"METAR KVEL 181853Z AUTO VRB03KT 10SM CLR 06/M13 A3035 RMK AO2 SLP287 T00611128","lat":40.4429,"lon":-109.5128,"elev":1604,"name":"Vernal Rgnl, UT, US","cover":"CLR","clouds":[],"fltCat":"VFR"},{"icaoId":"KPUW","receiptTime":"2026-04-18T18:56:33.200Z","obsTime":1776538380,"reportTime":"2026-04-18T19:00:00.000Z","temp":10.6,"dewp":-1.1,"wdir":130,"wspd":13,"wgst":19,"visib":"10+","altim":1021.1,"slp":1022.2,"qcField":6,"metarType":"METAR","rawOb":"METAR KPUW 181853Z AUTO 13013G19KT 10SM CLR 11/M01 A3015 RMK AO2 SLP222 T01061011","lat":46.7438,"lon":-117.1158,"elev":774,"name":"Pullman/Moscow Rgnl, WA, US","cover":"CLR","clouds":[],"fltCat":"VFR"},{"icaoId":"KRDD","receiptTime":"2026-04-18T18:56:33.270Z","obsTime":1776538380,"reportTime":"2026-04-18T19:00:00.000Z","temp":20.6,"dewp":0,"wdir":0,"wspd":0,"visib":"10+","altim":1016,"slp":1015.4,"qcField":12,"metarType":"METAR","rawOb":"METAR KRDD 181853Z 00000KT 10SM CLR 21/00 A3000 RMK AO2 SLP154 T02060000 $","lat":40.5146,"lon":-122.2977,"elev":152,"name":"Redding Muni, CA, US","cover":"CLR","clouds":[],"fltCat":"VFR"},{"icaoId":"KIDA","receiptTime":"2026-04-18T18:56:27.930Z","obsTime":1776538380,"reportTime":"2026-04-18T19:00:00.000Z","temp":8.9,"dewp":-10,"wdir":210,"wspd":9,"wgst":18,"visib":"10+","altim":1025.8,"slp":1027,"qcField":4,"metarType":"METAR","rawOb":"METAR KIDA 181853Z 21009G18KT 10SM CLR 09/M10 A3029 RMK AO2 SLP270 T00891100","lat":43.5204,"lon":-112.0675,"elev":1444,"name":"Idaho Falls Rgnl, ID, US","cover":"CLR","clouds":[],"fltCat":"VFR"},{"icaoId":"KMYF","receiptTime":"2026-04-18T18:56:32.933Z","obsTime":1776538380,"reportTime":"2026-04-18T19:00:00.000Z","temp":22.2,"dewp":12.8,"wdir":240,"wspd":10,"visib":"10+","altim":1015,"slp":1014.4,"qcField":4,"metarType":"METAR","rawOb":"METAR KMYF 181853Z 24010KT 10SM CLR 22/13 A2997 RMK AO2 SLP144 T02220128","lat":32.8145,"lon":-117.1375,"elev":128,"name":"San Diego/Montgomery Arpt, CA, US","cover":"CLR","clouds":[],"fltCat":"VFR"},{"icaoId":"KOAK","receiptTime":"2026-04-18T18:56:32.966Z","obsTime":1776538380,"reportTime":"2026-04-18T19:00:00.000Z","temp":17.2,"dewp":10,"wdir":250,"wspd":8,"visib":"10+","altim":1016.3,"slp":1016.1,"qcField":12,"metarType":"METAR","rawOb":"METAR KOAK 181853Z 25008KT 10SM BKN230 17/10 A3001 RMK AO2 SLP161 T01720100 $","lat":37.7178,"lon":-122.233,"elev":3,"name":"Oakland Intl, CA, US","cover":"BKN","clouds":[{"cover":"BKN","base":23000}],"fltCat":"VFR"},{"icaoId":"KOGD","receiptTime":"2026-04-18T18:56:32.999Z","obsTime":1776538380,"reportTime":"2026-04-18T19:00:00.000Z","temp":9.4,"dewp":-11.7,"wdir":200,"wspd":6,"visib":"10+","altim":1025.5,"slp":1024.9,"qcField":4,"metarType":"METAR","rawOb":"METAR KOGD 181853Z 20006KT 10SM CLR 09/M12 A3028 RMK AO2 SLP249 T00941117","lat":41.1941,"lon":-112.0168,"elev":1356,"name":"Ogden/Hinckley Arpt, UT, US","cover":"CLR","clouds":[],"fltCat":"VFR"},{"icaoId":"KPAE","receiptTime":"2026-04-18T18:56:33.176Z","obsTime":1776538380,"reportTime":"2026-04-18T19:00:00.000Z","temp":13.9,"dewp":3.9,"wdir":270,"wspd":3,"visib":"10+","altim":1017.4,"slp":1017.2,"qcField":4,"metarType":"METAR","rawOb":"METAR KPAE 181853Z 27003KT 10SM CLR 14/04 A3004 RMK AO2 SLP172 T01390039","lat":47.9232,"lon":-122.2831,"elev":166,"name":"Everett/Paine Fld, WA, US","cover":"CLR","clouds":[],"fltCat":"VFR"},{"icaoId":"KGSP","receiptTime":"2026-04-18T18:56:32.489Z","obsTime":1776538380,"reportTime":"2026-04-18T19:00:00.000Z","temp":30,"dewp":12.8,"wdir":230,"wspd":9,"wgst":20,"visib":"10+","altim":1014.3,"slp":1013.2,"qcField":4,"metarType":"METAR","rawOb":"METAR KGSP 181853Z 23009G20KT 10SM FEW070 30/13 A2995 RMK AO2 SLP132 T03000128","lat":34.8842,"lon":-82.2209,"elev":285,"name":"Greenville-Spartanburg Intl, SC, US","cover":"FEW","clouds":[{"cover":"FEW","base":7000}],"fltCat":"VFR"},{"icaoId":"PANC","receiptTime":"2026-04-18T18:56:27.515Z","obsTime":1776538380,"reportTime":"2026-04-18T19:00:00.000Z","temp":1.1,"dewp":1.1,"wdir":180,"wspd":5,"visib":0.5,"altim":1013.3,"slp":1013.2,"qcField":4,"wxString":"FG","metarType":"METAR","rawOb":"METAR PANC 181853Z 18005KT 1/2SM R07R/1800VP6000FT FG OVC002 01/01 A2992 RMK AO2 SLP132 T00110011","lat":61.1691,"lon":-150.0277,"elev":39,"name":"Anchorage Intl, AK, US","cover":"OVC","clouds":[{"cover":"OVC","base":200}],"fltCat":"LIFR"},{"icaoId":"KPRC","receiptTime":"2026-04-18T18:56:34.331Z","obsTime":1776538380,"reportTime":"2026-04-18T19:00:00.000Z","temp":18.3,"dewp":-11.7,"wdir":130,"wspd":7,"wgst":18,"visib":"10+","altim":1021.4,"slp":1016.2,"qcField":4,"metarType":"METAR","rawOb":"METAR KPRC 181853Z 13007G18KT 10SM CLR 18/M12 A3016 RMK AO2 SLP162 T01831117","lat":34.6491,"lon":-112.4223,"elev":1528,"name":"Prescott/Love Fld, AZ, US","cover":"CLR","clouds":[],"fltCat":"VFR"},{"icaoId":"KMFE","receiptTime":"2026-04-18T18:56:29.136Z","obsTime":1776538380,"reportTime":"2026-04-18T19:00:00.000Z","temp":30.6,"dewp":21.7,"wdir":140,"wspd":10,"visib":"10+","altim":1010.6,"slp":1010.4,"qcField":4,"metarType":"METAR","rawOb":"METAR KMFE 181853Z 14010KT 10SM SCT036 OVC044 31/22 A2984 RMK AO2 SLP104 T03060217","lat":26.1791,"lon":-98.2445,"elev":29,"name":"McAllen/Miller Intl, TX, US","cover":"OVC","clouds":[{"cover":"SCT","base":3600},{"cover":"OVC","base":4400}],"fltCat":"VFR"},{"icaoId":"KMLS","receiptTime":"2026-04-18T18:56:29.307Z","obsTime":1776538380,"reportTime":"2026-04-18T19:00:00.000Z","temp":8.9,"dewp":-4.4,"wdir":300,"wspd":14,"wgst":21,"visib":"10+","altim":1019.4,"slp":1021.2,"qcField":6,"metarType":"METAR","rawOb":"METAR KMLS 181853Z AUTO 30014G21KT 10SM BKN060 OVC090 09/M04 A3010 RMK AO2 SLP212 T00891044","lat":46.4265,"lon":-105.8834,"elev":800,"name":"Miles City/Wiley Fld, MT, US","cover":"OVC","clouds":[{"cover":"BKN","base":6000},{"cover":"OVC","base":9000}],"fltCat":"VFR"},{"icaoId":"KBIL","receiptTime":"2026-04-18T18:56:30.849Z","obsTime":1776538380,"reportTime":"2026-04-18T19:00:00.000Z","temp":10.6,"dewp":-7.8,"wdir":280,"wspd":14,"wgst":26,"visib":"10+","altim":1020.4,"slp":1021.6,"qcField":4,"metarType":"METAR","rawOb":"METAR KBIL 181853Z 28014G26KT 10SM FEW050 11/M08 A3013 RMK AO2 PK WND 27026/1846 SLP216 T01061078","lat":45.8072,"lon":-108.5462,"elev":1089,"name":"Billings/Logan Intl, MT, US","cover":"FEW","clouds":[{"cover":"FEW","base":5000}],"fltCat":"VFR"},{"icaoId":"KBUR","receiptTime":"2026-04-18T18:58:19.806Z","obsTime":1776538380,"reportTime":"2026-04-18T19:00:00.000Z","temp":25,"dewp":-4.4,"wdir":150,"wspd":7,"visib":"10+","altim":1015.3,"slp":1014.1,"qcField":5,"metarType":"METAR","rawOb":"METAR KBUR 181853Z COR 15007KT 10SM CLR 25/M04 A2998 RMK AO2 SLP141 T02501044","lat":34.1996,"lon":-118.3654,"elev":221,"name":"Burbank/Bob Hope Arpt, CA, US","cover":"CLR","clouds":[],"fltCat":"VFR"},{"icaoId":"KYKM","receiptTime":"2026-04-18T18:56:25.798Z","obsTime":1776538380,"reportTime":"2026-04-18T19:00:00.000Z","temp":15,"dewp":-3.9,"wdir":60,"wspd":6,"visib":"10+","altim":1019.4,"slp":1019.7,"qcField":4,"metarType":"METAR","rawOb":"METAR KYKM 181853Z 06006KT 10SM CLR 15/M04 A3010 RMK AO2 SLP197 T01501039","lat":46.564,"lon":-120.5349,"elev":319,"name":"Yakima/McAllister Fld, WA, US","cover":"CLR","clouds":[],"fltCat":"VFR"},{"icaoId":"KFUL","receiptTime":"2026-04-18T18:56:34.686Z","obsTime":1776538380,"reportTime":"2026-04-18T19:00:00.000Z","temp":25.6,"dewp":6.7,"wdir":"VRB","wspd":4,"visib":"10+","altim":1014.6,"slp":1014.4,"qcField":4,"metarType":"METAR","rawOb":"METAR KFUL 181853Z VRB04KT 10SM CLR 26/07 A2996 RMK AO2 SLP144 T02560067","lat":33.8715,"lon":-117.9856,"elev":23,"name":"Fullerton Muni, CA, US","cover":"CLR","clouds":[],"fltCat":"VFR"},{"icaoId":"KSAF","receiptTime":"2026-04-18T18:56:34.028Z","obsTime":1776538380,"reportTime":"2026-04-18T19:00:00.000Z","temp":11.1,"dewp":-21.1,"wdir":"VRB","wspd":5,"visib":"10+","altim":1025.1,"slp":1022,"qcField":4,"metarType":"METAR","rawOb":"METAR KSAF 181853Z VRB05KT 10SM CLR 11/M21 A3027 RMK AO2 SLP220 T01111211","lat":35.611,"lon":-106.0957,"elev":1918,"name":"Santa Fe Cnty Muni, NM, US","cover":"CLR","clouds":[],"fltCat":"VFR"},{"icaoId":"KPGA","receiptTime":"2026-04-18T18:56:25.652Z","obsTime":1776538380,"reportTime":"2026-04-18T19:00:00.000Z","temp":13.9,"dewp":-15.6,"wdir":40,"wspd":10,"wgst":16,"visib":"10+","altim":1025.5,"slp":1023.3,"qcField":14,"metarType":"METAR","rawOb":"METAR KPGA 181853Z AUTO 04010G16KT 10SM CLR 14/M16 A3028 RMK AO2 SLP233 T01391156 $","lat":36.9211,"lon":-111.4487,"elev":1310,"name":"Page Muni, AZ, US","cover":"CLR","clouds":[],"fltCat":"VFR"},{"icaoId":"KLVS","receiptTime":"2026-04-18T18:56:28.974Z","obsTime":1776538380,"reportTime":"2026-04-18T19:00:00.000Z","temp":8.3,"dewp":-9.4,"visib":"10+","altim":1026.5,"slp":1024,"qcField":14,"metarType":"METAR","rawOb":"METAR KLVS 181853Z AUTO 10SM CLR 08/M09 A3031 RMK AO2 SLP240 T00831094 $","lat":35.6558,"lon":-105.1385,"elev":2095,"name":"Las Vegas Muni, NM, US","cover":"CLR","clouds":[],"fltCat":"VFR"},{"icaoId":"KMCI","receiptTime":"2026-04-18T18:56:29.061Z","obsTime":1776538380,"reportTime":"2026-04-18T19:00:00.000Z","temp":12.8,"dewp":-3.9,"wdir":310,"wspd":12,"wgst":26,"visib":"10+","altim":1022.8,"slp":1022.4,"qcField":12,"metarType":"METAR","rawOb":"METAR KMCI 181853Z 31012G26KT 10SM CLR 13/M04 A3020 RMK AO2 PK WND 32026/1849 SLP224 T01281039 $","lat":39.2975,"lon":-94.7309,"elev":308,"name":"Kansas City Intl, MO, US","cover":"CLR","clouds":[],"fltCat":"VFR"},{"icaoId":"KMCO","receiptTime":"2026-04-18T18:56:29.091Z","obsTime":1776538380,"reportTime":"2026-04-18T19:00:00.000Z","temp":31.1,"dewp":15,"wdir":160,"wspd":10,"wgst":16,"visib":"10+","altim":1016.7,"slp":1016.3,"qcField":4,"metarType":"METAR","rawOb":"METAR KMCO 181853Z 16010G16KT 10SM SCT060 SCT250 31/15 A3002 RMK AO2 SLP163 T03110150","lat":28.4182,"lon":-81.3241,"elev":27,"name":"Orlando Intl, FL, US","cover":"SCT","clouds":[{"cover":"SCT","base":6000},{"cover":"SCT","base":25000}],"fltCat":"VFR"},{"icaoId":"KMFR","receiptTime":"2026-04-18T18:56:29.149Z","obsTime":1776538380,"reportTime":"2026-04-18T19:00:00.000Z","temp":14.4,"dewp":-0.6,"wdir":0,"wspd":0,"visib":"10+","altim":1016,"slp":1016.1,"qcField":4,"metarType":"METAR","rawOb":"METAR KMFR 181853Z 00000KT 10SM CLR 14/M01 A3000 RMK AO2 SLP161 T01441006","lat":42.375,"lon":-122.877,"elev":397,"name":"Medford/Rogue Valley Intl, OR, US","cover":"CLR","clouds":[],"fltCat":"VFR"},{"icaoId":"KLAR","receiptTime":"2026-04-18T18:56:28.054Z","obsTime":1776538380,"reportTime":"2026-04-18T19:00:00.000Z","temp":5.6,"dewp":-16.7,"wdir":290,"wspd":15,"wgst":28,"visib":"10+","altim":1022.1,"slp":1021.6,"qcField":6,"metarType":"METAR","rawOb":"METAR KLAR 181853Z AUTO 29015G28KT 10SM CLR 06/M17 A3018 RMK AO2 PK WND 27028/1755 SLP216 T00561167","lat":41.3165,"lon":-105.6729,"elev":2217,"name":"Laramie Rgnl, WY, US","cover":"CLR","clouds":[],"fltCat":"VFR"},{"icaoId":"KLAW","receiptTime":"2026-04-18T18:56:28.066Z","obsTime":1776538380,"reportTime":"2026-04-18T19:00:00.000Z","temp":16.7,"dewp":-1.7,"wdir":360,"wspd":19,"wgst":28,"visib":"10+","altim":1024.5,"slp":1024,"qcField":4,"metarType":"METAR","rawOb":"METAR KLAW 181853Z 36019G28KT 10SM CLR 17/M02 A3025 RMK AO2 PK WND 35028/1805 SLP240 T01671017","lat":34.5577,"lon":-98.4172,"elev":328,"name":"Lawton-Fort Sill Rgnl, OK, US","cover":"CLR","clouds":[],"fltCat":"VFR"},{"icaoId":"KLBB","receiptTime":"2026-04-18T18:56:31.726Z","obsTime":1776538380,"reportTime":"2026-04-18T19:00:00.000Z","temp":15.6,"dewp":-9.4,"wdir":30,"wspd":13,"wgst":22,"visib":"10+","altim":1025.1,"slp":1023,"qcField":4,"metarType":"METAR","rawOb":"METAR KLBB 181853Z 03013G22KT 10SM FEW100 FEW250 16/M09 A3027 RMK AO2 PK WND 05027/1803 SLP230 T01561094","lat":33.6658,"lon":-101.8233,"elev":996,"name":"Lubbock Intl Arpt, TX, US","cover":"FEW","clouds":[{"cover":"FEW","base":10000},{"cover":"FEW","base":25000}],"fltCat":"VFR"},{"icaoId":"KLOL","receiptTime":"2026-04-18T18:56:28.237Z","obsTime":1776538380,"reportTime":"2026-04-18T19:00:00.000Z","temp":16.1,"dewp":-16.1,"wdir":"VRB","wspd":6,"visib":"10+","altim":1019.7,"slp":1019.5,"qcField":6,"metarType":"METAR","rawOb":"METAR KLOL 181853Z AUTO VRB06KT 10SM CLR 16/M16 A3011 RMK AO2 SLP195 T01611161","lat":40.0684,"lon":-118.5702,"elev":1191,"name":"Lovelock/Derby Fld, NV, US","cover":"CLR","clouds":[],"fltCat":"VFR"},{"icaoId":"KCLL","receiptTime":"2026-04-18T18:56:31.406Z","obsTime":1776538380,"reportTime":"2026-04-18T19:00:00.000Z","temp":19.4,"dewp":15.6,"wdir":340,"wspd":15,"visib":"10+","altim":1017.4,"slp":1016.9,"qcField":4,"wxString":"-RA","precip":0.005,"metarType":"METAR","rawOb":"METAR KCLL 181853Z 34015KT 10SM -RA OVC017 19/16 A3004 RMK AO2 SLP169 P0000 T01940156","lat":30.5912,"lon":-96.3631,"elev":96,"name":"College Station/Easterwood Arpt, TX, US","cover":"OVC","clouds":[{"cover":"OVC","base":1700}],"fltCat":"MVFR"},{"icaoId":"KCNM","receiptTime":"2026-04-18T18:56:30.386Z","obsTime":1776538380,"reportTime":"2026-04-18T19:00:00.000Z","temp":16.7,"dewp":-6.7,"wdir":20,"wspd":7,"wgst":19,"visib":"10+","altim":1025.5,"slp":1021.7,"qcField":6,"metarType":"METAR","rawOb":"METAR KCNM 181853Z AUTO 02007G19KT 10SM CLR 17/M07 A3028 RMK AO2 SLP217 T01671067","lat":32.3336,"lon":-104.2584,"elev":993,"name":"Carlsbad/Cavern City Air Term, NM, US","cover":"CLR","clouds":[],"fltCat":"VFR"},{"icaoId":"KDAL","receiptTime":"2026-04-18T18:56:31.465Z","obsTime":1776538380,"reportTime":"2026-04-18T19:00:00.000Z","temp":11.1,"dewp":7.8,"wdir":350,"wspd":8,"visib":"10+","altim":1021.8,"slp":1021.3,"qcField":4,"precip":0.02,"metarType":"METAR","rawOb":"METAR KDAL 181853Z 35008KT 10SM FEW041 FEW080 OVC130 11/08 A3017 RMK AO2 RAE39 TSB1758E24 SLP213 TS DSIPTD P0002 T01110078","lat":32.8384,"lon":-96.8358,"elev":148,"name":"Dallas/Love Fld, TX, US","cover":"OVC","clouds":[{"cover":"FEW","base":4100},{"cover":"FEW","base":8000},{"cover":"OVC","base":13000}],"fltCat":"VFR"},{"icaoId":"KDLN","receiptTime":"2026-04-18T18:56:29.712Z","obsTime":1776538380,"reportTime":"2026-04-18T19:00:00.000Z","temp":8.3,"dewp":-12.8,"wdir":"VRB","wspd":5,"visib":"10+","altim":1022.1,"slp":1022.8,"qcField":6,"metarType":"METAR","rawOb":"METAR KDLN 181853Z AUTO VRB05KT 10SM CLR 08/M13 A3018 RMK AO2 SLP228 T00831128","lat":45.2584,"lon":-112.5546,"elev":1586,"name":"Dillon Arpt, MT, US","cover":"CLR","clouds":[],"fltCat":"VFR"},{"icaoId":"KPSP","receiptTime":"2026-04-18T18:56:33.365Z","obsTime":1776538380,"reportTime":"2026-04-18T19:00:00.000Z","temp":27.2,"dewp":-19.4,"wdir":"VRB","wspd":3,"visib":"10+","altim":1015.7,"slp":1015.2,"qcField":12,"metarType":"METAR","rawOb":"METAR KPSP 181853Z VRB03KT 10SM CLR 27/M19 A2999 RMK AO2 SLP152 T02721194 $","lat":33.8222,"lon":-116.5043,"elev":123,"name":"Palm Springs Intl, CA, US","cover":"CLR","clouds":[],"fltCat":"VFR"},{"icaoId":"KMSO","receiptTime":"2026-04-18T19:00:25.777Z","obsTime":1776538380,"reportTime":"2026-04-18T19:00:00.000Z","temp":9.4,"dewp":-6.7,"wdir":150,"wspd":5,"visib":"10+","altim":1021.8,"slp":1023.4,"qcField":5,"metarType":"METAR","rawOb":"METAR KMSO 181853Z COR 15005KT 10SM CLR 09/M07 A3017 RMK AO2 SLP234 T00941067","lat":46.9208,"lon":-114.0938,"elev":974,"name":"Missoula Intl, MT, US","cover":"CLR","clouds":[],"fltCat":"VFR"},{"icaoId":"KBCE","receiptTime":"2026-04-18T18:56:35.275Z","obsTime":1776538380,"reportTime":"2026-04-18T19:00:00.000Z","temp":6.7,"dewp":-17.2,"wdir":170,"wspd":7,"wgst":19,"visib":"10+","altim":1026.5,"slp":1024.5,"qcField":6,"metarType":"METAR","rawOb":"METAR KBCE 181853Z AUTO 17007G19KT 10SM CLR 07/M17 A3031 RMK AO2 SLP245 T00671172","lat":37.7013,"lon":-112.149,"elev":2311,"name":"Bryce Canyon Arpt, UT, US","cover":"CLR","clouds":[],"fltCat":"VFR"},{"icaoId":"KHLN","receiptTime":"2026-04-18T18:56:32.729Z","obsTime":1776538380,"reportTime":"2026-04-18T19:00:00.000Z","temp":10,"dewp":-6.7,"wdir":110,"wspd":11,"wgst":15,"visib":"10+","altim":1021.1,"slp":1023.7,"qcField":4,"metarType":"METAR","rawOb":"METAR KHLN 181853Z 11011G15KT 10SM CLR 10/M07 A3015 RMK AO2 SLP237 T01001067","lat":46.6045,"lon":-111.9892,"elev":1178,"name":"Helena Rgnl, MT, US","cover":"CLR","clouds":[],"fltCat":"VFR"},{"icaoId":"KDVT","receiptTime":"2026-04-18T18:56:29.814Z","obsTime":1776538380,"reportTime":"2026-04-18T19:00:00.000Z","temp":28.9,"dewp":-8.3,"wdir":80,"wspd":7,"visib":"10+","altim":1015.3,"slp":1013.3,"qcField":4,"metarType":"METAR","rawOb":"METAR KDVT 181853Z 08007KT 10SM CLR 29/M08 A2998 RMK AO2 SLP133 T02891083","lat":33.6902,"lon":-112.0662,"elev":454,"name":"Phoenix/Deer Valley Arpt, AZ, US","cover":"CLR","clouds":[],"fltCat":"VFR"},{"icaoId":"KEVW","receiptTime":"2026-04-18T18:56:34.414Z","obsTime":1776538380,"reportTime":"2026-04-18T19:00:00.000Z","temp":5,"dewp":-13.3,"visib":"10+","altim":1025.5,"slp":1026,"qcField":14,"metarType":"METAR","rawOb":"METAR KEVW 181853Z AUTO 10SM CLR 05/M13 A3028 RMK AO2 SLP260 T00501133 $","lat":41.2727,"lon":-111.0305,"elev":2178,"name":"Evanston/Uinta Cnty, WY, US","cover":"CLR","clouds":[],"fltCat":"VFR"},{"icaoId":"KPSC","receiptTime":"2026-04-18T18:56:34.342Z","obsTime":1776538380,"reportTime":"2026-04-18T19:00:00.000Z","temp":13.3,"dewp":2.2,"wdir":20,"wspd":5,"visib":"10+","altim":1020.7,"slp":1020.6,"qcField":4,"metarType":"METAR","rawOb":"METAR KPSC 181853Z 02005KT 10SM CLR 13/02 A3014 RMK AO2 SLP206 T01330022","lat":46.2695,"lon":-119.1182,"elev":121,"name":"Pasco/Tri Cities Arpt, WA, US","cover":"CLR","clouds":[],"fltCat":"VFR"},{"icaoId":"KTUS","receiptTime":"2026-04-18T18:56:25.720Z","obsTime":1776538380,"reportTime":"2026-04-18T19:00:00.000Z","temp":27.8,"dewp":-1.7,"wdir":250,"wspd":8,"visib":"10+","altim":1016,"slp":1012,"qcField":4,"metarType":"METAR","rawOb":"METAR KTUS 181853Z 25008KT 240V300 10SM CLR 28/M02 A3000 RMK AO2 SLP120 T02781017","lat":32.1315,"lon":-110.9564,"elev":776,"name":"Tucson Intl Arpt, AZ, US","cover":"CLR","clouds":[],"fltCat":"VFR"},{"icaoId":"KCYS","receiptTime":"2026-04-18T18:56:29.551Z","obsTime":1776538380,"reportTime":"2026-04-18T19:00:00.000Z","temp":7.2,"dewp":-15.6,"wdir":300,"wspd":18,"wgst":29,"visib":"10+","altim":1021.4,"slp":1022.1,"qcField":4,"metarType":"METAR","rawOb":"METAR KCYS 181853Z 30018G29KT 10SM CLR 07/M16 A3016 RMK AO2 PK WND 31032/1823 SLP221 T00721156","lat":41.1579,"lon":-104.8081,"elev":1868,"name":"Cheyenne Rgnl, WY, US","cover":"CLR","clouds":[],"fltCat":"VFR"},{"icaoId":"KDRO","receiptTime":"2026-04-18T18:56:29.758Z","obsTime":1776538380,"reportTime":"2026-04-18T19:00:00.000Z","temp":9.4,"dewp":-17.2,"wdir":0,"wspd":0,"visib":"10+","altim":1025.5,"slp":1026,"qcField":6,"metarType":"METAR","rawOb":"METAR KDRO 181853Z AUTO 00000KT 10SM CLR 09/M17 A3028 RMK AO2 SLP260 T00941172","lat":37.1431,"lon":-107.7602,"elev":2021,"name":"Durango/La Plata Cnty, CO, US","cover":"CLR","clouds":[],"fltCat":"VFR"},{"icaoId":"KBFI","receiptTime":"2026-04-18T18:56:35.345Z","obsTime":1776538380,"reportTime":"2026-04-18T19:00:00.000Z","temp":15,"dewp":3.9,"wdir":"VRB","wspd":4,"visib":"10+","altim":1017,"slp":1016.8,"qcField":4,"metarType":"METAR","rawOb":"METAR KBFI 181853Z VRB04KT 10SM BKN130 15/04 A3003 RMK AO2 SLP168 T01500039","lat":47.5455,"lon":-122.3148,"elev":7,"name":"Seattle/Boeing Fld, WA, US","cover":"BKN","clouds":[{"cover":"BKN","base":13000}],"fltCat":"VFR"},{"icaoId":"KBLI","receiptTime":"2026-04-18T18:56:30.005Z","obsTime":1776538380,"reportTime":"2026-04-18T19:00:00.000Z","temp":15,"dewp":3.3,"wdir":0,"wspd":0,"visib":"10+","altim":1017.4,"slp":1018,"qcField":4,"metarType":"METAR","rawOb":"METAR KBLI 181853Z 00000KT 10SM CLR 15/03 A3004 RMK AO2 SLP180 T01500033","lat":48.7991,"lon":-122.5407,"elev":46,"name":"Bellingham Intl, WA, US","cover":"CLR","clouds":[],"fltCat":"VFR"},{"icaoId":"KBTM","receiptTime":"2026-04-18T18:56:30.157Z","obsTime":1776538380,"reportTime":"2026-04-18T19:00:00.000Z","temp":7.2,"dewp":-11.1,"wdir":190,"wspd":4,"visib":"10+","altim":1021.8,"slp":1022.6,"qcField":6,"metarType":"METAR","rawOb":"METAR KBTM 181853Z AUTO 19004KT 10SM CLR 07/M11 A3017 RMK AO2 SLP226 T00721111","lat":45.9644,"lon":-112.5015,"elev":1680,"name":"Butte/Mooney Arpt, MT, US","cover":"CLR","clouds":[],"fltCat":"VFR"},{"icaoId":"KASE","receiptTime":"2026-04-18T18:56:35.162Z","obsTime":1776538380,"reportTime":"2026-04-18T19:00:00.000Z","temp":4.4,"dewp":-15.6,"wdir":"VRB","wspd":3,"visib":"10+","altim":1026.5,"slp":1025,"qcField":4,"metarType":"METAR","rawOb":"METAR KASE 181853Z VRB03KT 10SM CLR 04/M16 A3031 RMK AO2 SLP250 T00441156","lat":39.2299,"lon":-106.8705,"elev":2384,"name":"Aspen/Pitkin Cnty, CO, US","cover":"CLR","clouds":[],"fltCat":"VFR"},{"icaoId":"KIAD","receiptTime":"2026-04-18T18:56:26.395Z","obsTime":1776538320,"reportTime":"2026-04-18T19:00:00.000Z","temp":28.3,"dewp":12.8,"wdir":160,"wspd":10,"wgst":20,"visib":"10+","altim":1011.9,"slp":1011.8,"qcField":12,"metarType":"METAR","rawOb":"METAR KIAD 181852Z 16010G20KT 10SM FEW055 SCT140 BKN240 28/13 A2988 RMK AO2 SLP118 T02830128 $","lat":38.9348,"lon":-77.4473,"elev":90,"name":"Washington/Dulles Intl, VA, US","cover":"BKN","clouds":[{"cover":"FEW","base":5500},{"cover":"SCT","base":14000},{"cover":"BKN","base":24000}],"fltCat":"VFR"},{"icaoId":"KMKE","receiptTime":"2026-04-18T18:56:26.578Z","obsTime":1776538320,"reportTime":"2026-04-18T19:00:00.000Z","temp":8.3,"dewp":-2.8,"wdir":270,"wspd":13,"wgst":23,"visib":"10+","altim":1010.9,"slp":1011,"qcField":4,"metarType":"METAR","rawOb":"METAR KMKE 181852Z 27013G23KT 10SM SCT045 BKN055 08/M03 A2985 RMK AO2 SLP110 T00831028","lat":42.9549,"lon":-87.9045,"elev":203,"name":"Milwaukee/Mitchell Intl, WI, US","cover":"BKN","clouds":[{"cover":"SCT","base":4500},{"cover":"BKN","base":5500}],"fltCat":"VFR"},{"icaoId":"KMLF","receiptTime":"2026-04-18T18:56:30.485Z","obsTime":1776538320,"reportTime":"2026-04-18T19:00:00.000Z","temp":12.2,"dewp":-16.7,"wdir":350,"wspd":8,"wgst":17,"visib":"10+","altim":1023.5,"slp":1023,"qcField":6,"metarType":"METAR","rawOb":"METAR KMLF 181852Z AUTO 35008G17KT 10SM CLR 12/M17 A3022 RMK AO2 SLP230 T01221167","lat":38.4225,"lon":-113.0109,"elev":1537,"name":"Milford Muni, UT, US","cover":"CLR","clouds":[],"fltCat":"VFR"},{"icaoId":"KATL","receiptTime":"2026-04-18T18:56:28.555Z","obsTime":1776538320,"reportTime":"2026-04-18T19:00:00.000Z","temp":28.3,"dewp":12.2,"wdir":220,"wspd":6,"wgst":18,"visib":"10+","altim":1015.7,"slp":1014.5,"qcField":12,"metarType":"METAR","rawOb":"METAR KATL 181852Z 22006G18KT 10SM FEW060 SCT200 BKN250 28/12 A2999 RMK AO2 SLP145 VIRGA S-SW T02830122 $","lat":33.6297,"lon":-84.4422,"elev":309,"name":"Atlanta/Hartsfield-Jackson Intl, GA, US","cover":"BKN","clouds":[{"cover":"FEW","base":6000},{"cover":"SCT","base":20000},{"cover":"BKN","base":25000}],"fltCat":"VFR"},{"icaoId":"KOKC","receiptTime":"2026-04-18T18:56:26.633Z","obsTime":1776538320,"reportTime":"2026-04-18T19:00:00.000Z","temp":16.1,"dewp":-1.7,"wdir":340,"wspd":17,"wgst":23,"visib":"10+","altim":1024.5,"slp":1024.2,"qcField":12,"metarType":"METAR","rawOb":"METAR KOKC 181852Z 34017G23KT 10SM FEW100 FEW250 16/M02 A3025 RMK AO2 SLP242 T01611017 $","lat":35.3843,"lon":-97.6003,"elev":391,"name":"Oklahoma City/Will Rogers Intl, OK, US","cover":"FEW","clouds":[{"cover":"FEW","base":10000},{"cover":"FEW","base":25000}],"fltCat":"VFR"},{"icaoId":"KDCA","receiptTime":"2026-04-18T18:56:28.717Z","obsTime":1776538320,"reportTime":"2026-04-18T19:00:00.000Z","temp":25.6,"dewp":15.6,"wdir":130,"wspd":12,"visib":"10+","altim":1012.6,"slp":1012.4,"qcField":4,"metarType":"METAR","rawOb":"METAR KDCA 181852Z 13012KT 10SM FEW050 BKN150 BKN250 26/16 A2990 RMK AO2 SLP124 T02560156","lat":38.8472,"lon":-77.0345,"elev":4,"name":"Washington/Reagan-National Arpt, VA, US","cover":"BKN","clouds":[{"cover":"FEW","base":5000},{"cover":"BKN","base":15000},{"cover":"BKN","base":25000}],"fltCat":"VFR"},{"icaoId":"KABQ","receiptTime":"2026-04-18T18:56:30.550Z","obsTime":1776538320,"reportTime":"2026-04-18T19:00:00.000Z","temp":13.3,"dewp":-15,"wdir":80,"wspd":3,"visib":"10+","altim":1025.1,"slp":1021.7,"qcField":12,"metarType":"METAR","rawOb":"METAR KABQ 181852Z 08003KT 10SM CLR 13/M15 A3027 RMK AO2 SLP217 T01331150 $","lat":35.0419,"lon":-106.6154,"elev":1620,"name":"Albuquerque Intl, NM, US","cover":"CLR","clouds":[],"fltCat":"VFR"},{"icaoId":"KHRL","receiptTime":"2026-04-18T18:56:26.372Z","obsTime":1776538320,"reportTime":"2026-04-18T19:00:00.000Z","temp":29.4,"dewp":21.1,"wdir":150,"wspd":14,"visib":"10+","altim":1010.9,"slp":1010.7,"qcField":4,"metarType":"METAR","rawOb":"METAR KHRL 181852Z 15014KT 10SM BKN038 OVC047 29/21 A2985 RMK AO2 SLP107 T02940211","lat":26.2303,"lon":-97.6556,"elev":9,"name":"Harlingen/Valley Intl, TX, US","cover":"OVC","clouds":[{"cover":"BKN","base":3800},{"cover":"OVC","base":4700}],"fltCat":"VFR"},{"icaoId":"KABI","receiptTime":"2026-04-18T18:56:30.539Z","obsTime":1776538320,"reportTime":"2026-04-18T19:00:00.000Z","temp":14.4,"dewp":0.6,"wdir":30,"wspd":12,"wgst":21,"visib":"10+","altim":1024.5,"slp":1022.6,"qcField":12,"metarType":"METAR","rawOb":"METAR KABI 181852Z 03012G21KT 10SM CLR 14/01 A3025 RMK AO2 PK WND 36027/1755 LTG DSNT S SLP226 T01440006 $","lat":32.4106,"lon":-99.6821,"elev":543,"name":"Abilene Rgnl, TX, US","cover":"CLR","clouds":[],"fltCat":"VFR"},{"icaoId":"KSPS","receiptTime":"2026-04-18T18:56:30.499Z","obsTime":1776538320,"reportTime":"2026-04-18T19:00:00.000Z","temp":17.8,"dewp":-1.1,"wdir":20,"wspd":21,"wgst":31,"visib":"10+","altim":1023.8,"slp":1023.2,"qcField":14,"metarType":"METAR","rawOb":"METAR KSPS 181852Z AUTO 02021G31KT 10SM CLR 18/M01 A3023 RMK AO2 PK WND 36031/1842 SLP232 T01781011 $","lat":33.9785,"lon":-98.493,"elev":310,"name":"Wichita Falls Rgnl, TX, US","cover":"CLR","clouds":[],"fltCat":"VFR"},{"icaoId":"KCLT","receiptTime":"2026-04-18T18:56:28.663Z","obsTime":1776538320,"reportTime":"2026-04-18T19:00:00.000Z","temp":31.7,"dewp":8.9,"wdir":200,"wspd":7,"wgst":17,"visib":"10+","altim":1013.6,"slp":1014,"qcField":4,"metarType":"METAR","rawOb":"METAR KCLT 181852Z 20007G17KT 10SM FEW080 FEW250 32/09 A2993 RMK AO2 SLP140 T03170089","lat":35.2225,"lon":-80.9543,"elev":223,"name":"Charlotte/Douglas Intl, NC, US","cover":"FEW","clouds":[{"cover":"FEW","base":8000},{"cover":"FEW","base":25000}],"fltCat":"VFR"},{"icaoId":"KMYL","receiptTime":"2026-04-18T18:54:10.200Z","obsTime":1776538260,"reportTime":"2026-04-18T19:00:00.000Z","temp":6.1,"dewp":-3.9,"visib":"10+","altim":1023.1,"slp":1024.7,"qcField":6,"metarType":"METAR","rawOb":"METAR KMYL 181851Z AUTO 10SM CLR 06/M04 A3021 RMK AO2 SLP247 T00611039","lat":44.8943,"lon":-116.0998,"elev":1532,"name":"McCall Muni, ID, US","cover":"CLR","clouds":[],"fltCat":"VFR"},{"icaoId":"KACT","receiptTime":"2026-04-18T18:54:11.037Z","obsTime":1776538260,"reportTime":"2026-04-18T19:00:00.000Z","temp":14.4,"dewp":8.3,"wdir":360,"wspd":14,"visib":"10+","altim":1021.1,"slp":1020.6,"qcField":4,"metarType":"METAR","rawOb":"METAR KACT 181851Z 36014KT 10SM OVC021 14/08 A3015 RMK AO2 PK WND 02026/1800 LTG DSNT NW SLP206 T01440083","lat":31.618,"lon":-97.2283,"elev":150,"name":"Waco Rgnl, TX, US","cover":"OVC","clouds":[{"cover":"OVC","base":2100}],"fltCat":"MVFR"},{"icaoId":"KBDL","receiptTime":"2026-04-18T18:54:11.206Z","obsTime":1776538260,"reportTime":"2026-04-18T19:00:00.000Z","temp":15.6,"dewp":10,"wdir":40,"wspd":4,"visib":"10+","altim":1018,"slp":1017.9,"qcField":4,"metarType":"METAR","rawOb":"METAR KBDL 181851Z 04004KT 10SM OVC023 16/10 A3006 RMK AO2 SLP179 T01560100","lat":41.9374,"lon":-72.682,"elev":52,"name":"Hartford/Bradley Intl, CT, US","cover":"OVC","clouds":[{"cover":"OVC","base":2300}],"fltCat":"MVFR"},{"icaoId":"KCLE","receiptTime":"2026-04-18T18:54:11.390Z","obsTime":1776538260,"reportTime":"2026-04-18T19:00:00.000Z","temp":17.8,"dewp":14.4,"wdir":200,"wspd":9,"visib":"10+","altim":1005.8,"slp":1006.8,"qcField":12,"wxString":"-RA","precip":0.01,"metarType":"METAR","rawOb":"METAR KCLE 181851Z 20009KT 10SM -RA BKN087 OVC115 18/14 A2970 RMK AO2 SLP068 P0001 T01780144 $","lat":41.4057,"lon":-81.8519,"elev":237,"name":"Cleveland/Hopkins Intl, OH, US","cover":"OVC","clouds":[{"cover":"BKN","base":8700},{"cover":"OVC","base":11500}],"fltCat":"VFR"},{"icaoId":"KCMH","receiptTime":"2026-04-18T18:54:11.475Z","obsTime":1776538260,"reportTime":"2026-04-18T19:00:00.000Z","temp":17.2,"dewp":14.4,"wdir":210,"wspd":6,"visib":"10+","altim":1009.2,"slp":1008.8,"qcField":4,"wxString":"-RA","precip":0.05,"metarType":"METAR","rawOb":"METAR KCMH 181851Z 21006KT 10SM -RA OVC060 17/14 A2980 RMK AO2 RAE27B48 SLP088 P0005 T01720144","lat":39.9907,"lon":-82.877,"elev":257,"name":"Columbus/Glenn Intl, OH, US","cover":"OVC","clouds":[{"cover":"OVC","base":6000}],"fltCat":"VFR"},{"icaoId":"KCRP","receiptTime":"2026-04-18T18:54:11.560Z","obsTime":1776538260,"reportTime":"2026-04-18T19:00:00.000Z","temp":28.3,"dewp":21.7,"wdir":110,"wspd":14,"visib":"10+","altim":1013.3,"slp":1013.1,"qcField":12,"metarType":"METAR","rawOb":"METAR KCRP 181851Z 11014KT 10SM FEW021 SCT026 BKN060 OVC250 28/22 A2992 RMK AO2 SLP131 T02830217 $","lat":27.7734,"lon":-97.513,"elev":11,"name":"Corpus Christi Intl, TX, US","cover":"OVC","clouds":[{"cover":"FEW","base":2100},{"cover":"SCT","base":2600},{"cover":"BKN","base":6000},{"cover":"OVC","base":25000}],"fltCat":"VFR"},{"icaoId":"KELP","receiptTime":"2026-04-18T18:54:11.677Z","obsTime":1776538260,"reportTime":"2026-04-18T19:00:00.000Z","temp":20.6,"dewp":-6.1,"wdir":100,"wspd":12,"wgst":18,"visib":"10+","altim":1021.8,"slp":1016,"qcField":4,"metarType":"METAR","rawOb":"METAR KELP 181851Z 10012G18KT 10SM FEW250 21/M06 A3017 RMK AO2 SLP160 T02061061","lat":31.8123,"lon":-106.3774,"elev":1205,"name":"El Paso Intl, TX, US","cover":"FEW","clouds":[{"cover":"FEW","base":25000}],"fltCat":"VFR"},{"icaoId":"KEWR","receiptTime":"2026-04-18T18:54:11.717Z","obsTime":1776538260,"reportTime":"2026-04-18T19:00:00.000Z","temp":15.6,"dewp":10,"wdir":140,"wspd":11,"wgst":21,"visib":"10+","altim":1017.4,"slp":1017.2,"qcField":4,"metarType":"METAR","rawOb":"METAR KEWR 181851Z 14011G21KT 10SM FEW015 SCT025 BKN250 16/10 A3004 RMK AO2 SLP172 T01560100","lat":40.6828,"lon":-74.1692,"elev":2,"name":"Newark Intl, NJ, US","cover":"BKN","clouds":[{"cover":"FEW","base":1500},{"cover":"SCT","base":2500},{"cover":"BKN","base":25000}],"fltCat":"VFR"},{"icaoId":"KVNY","receiptTime":"2026-04-18T18:54:11.868Z","obsTime":1776538260,"reportTime":"2026-04-18T19:00:00.000Z","temp":25,"dewp":-5.6,"wdir":180,"wspd":7,"visib":"10+","altim":1015.3,"slp":1014.3,"qcField":12,"metarType":"METAR","rawOb":"METAR KVNY 181851Z 18007KT 10SM CLR 25/M06 A2998 RMK AO2 SLP143 T02501056 $","lat":34.2121,"lon":-118.4915,"elev":241,"name":"Van Nuys Arpt, CA, US","cover":"CLR","clouds":[],"fltCat":"VFR"},{"icaoId":"KLGU","receiptTime":"2026-04-18T18:54:10.064Z","obsTime":1776538260,"reportTime":"2026-04-18T19:00:00.000Z","temp":8.9,"dewp":-8.9,"wdir":0,"wspd":0,"visib":"10+","altim":1025.8,"slp":1026.1,"qcField":6,"metarType":"METAR","rawOb":"METAR KLGU 181851Z AUTO 00000KT 10SM CLR 09/M09 A3029 RMK AO2 SLP261 T00891089","lat":41.7865,"lon":-111.8519,"elev":1359,"name":"Logan/Cache Arpt, UT, US","cover":"CLR","clouds":[],"fltCat":"VFR"},{"icaoId":"KJFK","receiptTime":"2026-04-18T18:58:11.149Z","obsTime":1776538260,"reportTime":"2026-04-18T19:00:00.000Z","temp":15.6,"dewp":10.6,"wdir":120,"wspd":13,"visib":"10+","altim":1018,"slp":1017.8,"qcField":0,"metarType":"METAR","rawOb":"METAR KJFK 181851Z 12013KT 10SM SCT015 BKN250 16/11 A3006 RMK SLP178 T01560106","lat":40.6392,"lon":-73.7639,"elev":3,"name":"New York/JF Kennedy Intl, NY, US","cover":"BKN","clouds":[{"cover":"SCT","base":1500},{"cover":"BKN","base":25000}],"fltCat":"VFR"},{"icaoId":"KIGM","receiptTime":"2026-04-18T18:54:09.960Z","obsTime":1776538260,"reportTime":"2026-04-18T19:00:00.000Z","temp":22.2,"dewp":-15.6,"wdir":20,"wspd":11,"wgst":19,"visib":"10+","altim":1019,"slp":1014,"qcField":6,"metarType":"METAR","rawOb":"METAR KIGM 181851Z AUTO 02011G19KT 10SM CLR 22/M16 A3009 RMK AO2 SLP140 T02221156","lat":35.2575,"lon":-113.9341,"elev":1045,"name":"Kingman Arpt, AZ, US","cover":"CLR","clouds":[],"fltCat":"VFR"},{"icaoId":"KLGA","receiptTime":"2026-04-18T18:54:10.039Z","obsTime":1776538260,"reportTime":"2026-04-18T19:00:00.000Z","temp":16.1,"dewp":10,"wdir":50,"wspd":12,"visib":"10+","altim":1017.4,"slp":1017.2,"qcField":12,"metarType":"METAR","rawOb":"METAR KLGA 181851Z 05012KT 10SM FEW024 SCT029 BKN250 16/10 A3004 RMK AO2 SLP172 T01610100 $","lat":40.7794,"lon":-73.8803,"elev":9,"name":"New York/La Guardia Arpt, NY, US","cover":"BKN","clouds":[{"cover":"FEW","base":2400},{"cover":"SCT","base":2900},{"cover":"BKN","base":25000}],"fltCat":"VFR"},{"icaoId":"KPIT","receiptTime":"2026-04-18T18:54:10.927Z","obsTime":1776538260,"reportTime":"2026-04-18T19:00:00.000Z","temp":26.7,"dewp":12.2,"wdir":210,"wspd":12,"wgst":22,"visib":"10+","altim":1007.2,"slp":1007,"qcField":4,"metarType":"METAR","rawOb":"METAR KPIT 181851Z 21012G22KT 10SM SCT055 BKN080 OVC180 27/12 A2974 RMK AO2 PK WND 20028/1800 SLP070 T02670122","lat":40.4814,"lon":-80.2083,"elev":339,"name":"Pittsburgh Intl, PA, US","cover":"OVC","clouds":[{"cover":"SCT","base":5500},{"cover":"BKN","base":8000},{"cover":"OVC","base":18000}],"fltCat":"VFR"},{"icaoId":"KORF","receiptTime":"2026-04-18T18:54:10.253Z","obsTime":1776538260,"reportTime":"2026-04-18T19:00:00.000Z","temp":26.7,"dewp":15.6,"wdir":110,"wspd":8,"visib":"10+","altim":1013.6,"slp":1013.3,"qcField":4,"metarType":"METAR","rawOb":"METAR KORF 181851Z 11008KT 10SM CLR 27/16 A2993 RMK AO2 SLP133 T02670156","lat":36.9037,"lon":-76.1927,"elev":5,"name":"Norfolk Intl, VA, US","cover":"CLR","clouds":[],"fltCat":"VFR"},{"icaoId":"KOXR","receiptTime":"2026-04-18T18:54:10.280Z","obsTime":1776538260,"reportTime":"2026-04-18T19:00:00.000Z","temp":21.7,"dewp":11.7,"wdir":200,"wspd":5,"visib":"10+","altim":1015.3,"slp":1015,"qcField":12,"metarType":"METAR","rawOb":"METAR KOXR 181851Z 20005KT 10SM CLR 22/12 A2998 RMK AO2 SLP150 T02170117 $","lat":34.2001,"lon":-119.2042,"elev":12,"name":"Oxnard Arpt, CA, US","cover":"CLR","clouds":[],"fltCat":"VFR"},{"icaoId":"KPHX","receiptTime":"2026-04-18T18:54:10.305Z","obsTime":1776538260,"reportTime":"2026-04-18T19:00:00.000Z","temp":28.9,"dewp":-10,"wdir":40,"wspd":7,"wgst":17,"visib":"10+","altim":1014.6,"slp":1013,"qcField":4,"metarType":"METAR","rawOb":"METAR KPHX 181851Z 04007G17KT 10SM FEW150 29/M10 A2996 RMK AO2 SLP130 T02891100","lat":33.4278,"lon":-112.0037,"elev":338,"name":"Phoenix/Sky Harbor Intl, AZ, US","cover":"FEW","clouds":[{"cover":"FEW","base":15000}],"fltCat":"VFR"},{"icaoId":"KPVD","receiptTime":"2026-04-18T18:54:10.402Z","obsTime":1776538260,"reportTime":"2026-04-18T19:00:00.000Z","temp":12.8,"dewp":8.3,"wdir":30,"wspd":8,"visib":"10+","altim":1019,"slp":1018.9,"qcField":4,"metarType":"METAR","rawOb":"METAR KPVD 181851Z 03008KT 10SM OVC016 13/08 A3009 RMK AO2 SLP189 T01280083","lat":41.7225,"lon":-71.4325,"elev":15,"name":"Providence/Green Mem, RI, US","cover":"OVC","clouds":[{"cover":"OVC","base":1600}],"fltCat":"MVFR"},{"icaoId":"KRDU","receiptTime":"2026-04-18T18:54:10.453Z","obsTime":1776538260,"reportTime":"2026-04-18T19:00:00.000Z","temp":33.3,"dewp":7.8,"wdir":260,"wspd":6,"visib":"10+","altim":1013.6,"slp":1012.9,"qcField":4,"metarType":"METAR","rawOb":"METAR KRDU 181851Z 26006KT 10SM FEW095 FEW250 33/08 A2993 RMK AO2 SLP129 T03330078","lat":35.8923,"lon":-78.782,"elev":121,"name":"Raleigh-Durham Intl, NC, US","cover":"FEW","clouds":[{"cover":"FEW","base":9500},{"cover":"FEW","base":25000}],"fltCat":"VFR"},{"icaoId":"KROW","receiptTime":"2026-04-18T18:54:10.475Z","obsTime":1776538260,"reportTime":"2026-04-18T19:00:00.000Z","temp":14.4,"dewp":-7.2,"visib":"10+","altim":1025.8,"slp":1022.5,"qcField":12,"metarType":"METAR","rawOb":"METAR KROW 181851Z 10SM CLR 14/M07 A3029 RMK AO2 SLP225 T01441072 $","lat":33.3074,"lon":-104.5082,"elev":1105,"name":"Roswell/Ind Arpt, NM, US","cover":"CLR","clouds":[],"fltCat":"VFR"},{"icaoId":"KSAD","receiptTime":"2026-04-18T18:54:10.493Z","obsTime":1776538260,"reportTime":"2026-04-18T19:00:00.000Z","temp":25,"dewp":-6.7,"visib":"10+","altim":1017.7,"slp":1013.5,"qcField":6,"metarType":"METAR","rawOb":"METAR KSAD 181851Z AUTO 10SM CLR 25/M07 A3005 RMK AO2 SLP135 T02501067","lat":32.8565,"lon":-109.636,"elev":937,"name":"Safford Rgnl, AZ, US","cover":"CLR","clouds":[],"fltCat":"VFR"},{"icaoId":"KSAN","receiptTime":"2026-04-18T18:54:10.513Z","obsTime":1776538260,"reportTime":"2026-04-18T19:00:00.000Z","temp":20.6,"dewp":13.9,"wdir":270,"wspd":10,"visib":"10+","altim":1015.7,"slp":1015.4,"qcField":12,"metarType":"METAR","rawOb":"METAR KSAN 181851Z 27010KT 10SM FEW250 21/14 A2999 RMK AO2 SLP154 T02060139 $","lat":32.7364,"lon":-117.1973,"elev":3,"name":"San Diego Intl Arpt, CA, US","cover":"FEW","clouds":[{"cover":"FEW","base":25000}],"fltCat":"VFR"},{"icaoId":"KSAT","receiptTime":"2026-04-18T18:54:10.550Z","obsTime":1776538260,"reportTime":"2026-04-18T19:00:00.000Z","temp":16.7,"dewp":11.1,"wdir":20,"wspd":19,"wgst":28,"visib":"10+","altim":1018,"slp":1016.3,"qcField":4,"metarType":"METAR","rawOb":"METAR KSAT 181851Z 02019G28KT 10SM BKN024 OVC036 17/11 A3006 RMK AO2 PK WND 01031/1757 SLP163 T01670111","lat":29.5443,"lon":-98.4839,"elev":246,"name":"San Antonio Intl, TX, US","cover":"OVC","clouds":[{"cover":"BKN","base":2400},{"cover":"OVC","base":3600}],"fltCat":"MVFR"},{"icaoId":"KORD","receiptTime":"2026-04-18T18:54:10.227Z","obsTime":1776538260,"reportTime":"2026-04-18T19:00:00.000Z","temp":9.4,"dewp":-1.1,"wdir":270,"wspd":13,"wgst":27,"visib":"10+","altim":1013,"slp":1012.7,"qcField":12,"metarType":"METAR","rawOb":"METAR KORD 181851Z 27013G27KT 240V310 10SM FEW039 FEW250 09/M01 A2991 RMK AO2 PK WND 25027/1845 SLP127 T00941011 $","lat":41.9602,"lon":-87.9316,"elev":202,"name":"Chicago/O'Hare Intl, IL, US","cover":"FEW","clouds":[{"cover":"FEW","base":3900},{"cover":"FEW","base":25000}],"fltCat":"VFR"},{"icaoId":"KSTL","receiptTime":"2026-04-18T18:54:11.781Z","obsTime":1776538260,"reportTime":"2026-04-18T19:00:00.000Z","temp":12.8,"dewp":2.2,"wdir":290,"wspd":11,"visib":"10+","altim":1019.4,"slp":1019.1,"qcField":12,"metarType":"METAR","rawOb":"METAR KSTL 181851Z 29011KT 10SM SCT200 13/02 A3010 RMK AO2 PK WND 31027/1753 SLP191 T01280022 $","lat":38.7525,"lon":-90.3734,"elev":163,"name":"St Louis/Lambert Intl, MO, US","cover":"SCT","clouds":[{"cover":"SCT","base":20000}],"fltCat":"VFR"},{"icaoId":"KADM","receiptTime":"2026-04-18T18:52:17.249Z","obsTime":1776538200,"reportTime":"2026-04-18T19:00:00.000Z","temp":17,"dewp":0,"wdir":30,"wspd":18,"wgst":23,"visib":"10+","altim":1023.1,"qcField":0,"metarType":"METAR","rawOb":"METAR KADM 181850Z 03018G23KT 10SM CLR 17/00 A3021","lat":34.3007,"lon":-97.0089,"elev":223,"name":"Ardmore Muni, OK, US","cover":"CLR","clouds":[],"fltCat":"VFR"},{"icaoId":"KHOB","receiptTime":"2026-04-18T18:53:31.358Z","obsTime":1776538200,"reportTime":"2026-04-18T19:00:00.000Z","temp":16,"dewp":-11,"wdir":50,"wspd":13,"wgst":19,"visib":"10+","altim":1025.1,"qcField":0,"metarType":"METAR","rawOb":"METAR KHOB 181850Z 05013G19KT 10SM CLR 16/M11 A3027","lat":32.6797,"lon":-103.2222,"elev":1112,"name":"Hobbs Arpt, NM, US","cover":"CLR","clouds":[],"fltCat":"VFR"},{"icaoId":"KIFP","receiptTime":"2026-04-18T18:48:57.101Z","obsTime":1776538140,"reportTime":"2026-04-18T19:00:00.000Z","temp":25,"dewp":-14,"wdir":340,"wspd":24,"visib":20,"altim":1016,"qcField":0,"metarType":"METAR","rawOb":"METAR KIFP 181849Z 34024KT 20SM SCT170 25/M14 A3000","lat":35.1487,"lon":-114.5611,"elev":210,"name":"Bullhead City Intl, AZ, US","cover":"SCT","clouds":[{"cover":"SCT","base":17000}],"fltCat":"VFR"},{"icaoId":"KGEU","receiptTime":"2026-04-18T18:50:09.091Z","obsTime":1776538140,"reportTime":"2026-04-18T19:00:00.000Z","temp":28,"dewp":-10,"wdir":60,"wspd":4,"visib":"10+","altim":1014.3,"qcField":0,"metarType":"METAR","rawOb":"METAR KGEU 181849Z 06004KT 10SM CLR 28/M10 A2995","lat":33.528,"lon":-112.293,"elev":319,"name":"Glendale Muni, AZ, US","cover":"CLR","clouds":[],"fltCat":"VFR"},{"icaoId":"KSUN","receiptTime":"2026-04-18T19:03:59.378Z","obsTime":1776538020,"reportTime":"2026-04-18T19:00:00.000Z","temp":8,"dewp":-9,"wdir":180,"wspd":6,"visib":"10+","altim":1024.8,"qcField":0,"metarType":"METAR","rawOb":"METAR KSUN 181847Z 18006KT 10SM CLR 08/M09 A3026","lat":43.4969,"lon":-114.2923,"elev":1619,"name":"Hailey/Friedman Mem, ID, US","cover":"CLR","clouds":[],"fltCat":"VFR"},{"icaoId":"KGYR","receiptTime":"2026-04-18T18:50:09.172Z","obsTime":1776538020,"reportTime":"2026-04-18T19:00:00.000Z","temp":29,"dewp":-8,"wdir":30,"wspd":7,"visib":"10+","altim":1015.3,"qcField":0,"metarType":"METAR","rawOb":"METAR KGYR 181847Z 03007KT 10SM SKC 29/M08 A2998","lat":33.428,"lon":-112.368,"elev":292,"name":"Phoenix/Goodyear Muni, AZ, US","cover":"SKC","clouds":[],"fltCat":"VFR"},{"icaoId":"KAEG","receiptTime":"2026-04-18T18:47:51.212Z","obsTime":1776538020,"reportTime":"2026-04-18T19:00:00.000Z","temp":11,"dewp":-19,"wdir":0,"wspd":0,"visib":"10+","altim":1025.8,"qcField":0,"metarType":"METAR","rawOb":"METAR KAEG 181847Z 00000KT 10SM CLR 11/M19 A3029","lat":35.15,"lon":-106.7929,"elev":1771,"name":"Albuquerque/Double Eagle Arpt, NM, US","cover":"CLR","clouds":[],"fltCat":"VFR"},{"icaoId":"KCHD","receiptTime":"2026-04-18T18:49:29.504Z","obsTime":1776538020,"reportTime":"2026-04-18T19:00:00.000Z","temp":29,"dewp":-7,"wdir":0,"wspd":0,"visib":"10+","altim":1015,"qcField":0,"metarType":"METAR","rawOb":"METAR KCHD 181847Z 00000KT 10SM CLR 29/M07 A2997","lat":33.2669,"lon":-111.8086,"elev":378,"name":"Chandler Muni, AZ, US","cover":"CLR","clouds":[],"fltCat":"VFR"},{"icaoId":"KBJC","receiptTime":"2026-04-18T18:46:18.032Z","obsTime":1776537900,"reportTime":"2026-04-18T19:00:00.000Z","temp":11,"dewp":-13,"wdir":120,"wspd":6,"wgst":15,"visib":"10+","altim":1023.8,"qcField":0,"metarType":"METAR","rawOb":"METAR KBJC 181845Z 12006G15KT 10SM CLR 11/M13 A3023","lat":39.9008,"lon":-105.1042,"elev":1694,"name":"Rocky Mtn Metro, CO, US","cover":"CLR","clouds":[],"fltCat":"VFR"},{"icaoId":"KRYN","receiptTime":"2026-04-18T18:46:18.101Z","obsTime":1776537900,"reportTime":"2026-04-18T19:00:00.000Z","temp":29,"dewp":-3,"wdir":50,"wspd":5,"visib":"10+","altim":1015,"qcField":0,"metarType":"METAR","rawOb":"METAR KRYN 181845Z 05005KT 10SM CLR 29/M03 A2997","lat":32.1418,"lon":-111.1767,"elev":731,"name":"Tucson/Ryan Fld, AZ, US","cover":"CLR","clouds":[],"fltCat":"VFR"}]