[{"icaoId":"KBOI","receiptTime":"2026-04-13T18:07:01.967Z","obsTime":1776103500,"reportTime":"2026-04-13T18:05:00.000Z","temp":5,"dewp":3.3,"wdir":90,"wspd":7,"visib":"10+","altim":1016.3,"qcField":4,"wxString":"-RA","precip":0.005,"metarType":"SPECI","rawOb":"SPECI KBOI 131805Z 09007KT 10SM -RA OVC015 05/03 A3001 RMK AO2 RAB1756 P0000 T00500033 ","lat":43.567,"lon":-116.2406,"elev":860,"name":"Boise Arpt, ID, US","cover":"OVC","clouds":[{"cover":"OVC","base":1500}],"fltCat":"MVFR"},{"icaoId":"KPVD","receiptTime":"2026-04-13T18:02:32.401Z","obsTime":1776103140,"reportTime":"2026-04-13T17:59:00.000Z","temp":16.1,"dewp":11.7,"wdir":240,"wspd":12,"wgst":22,"visib":"10+","altim":1014.6,"qcField":4,"metarType":"SPECI","rawOb":"SPECI KPVD 131759Z 24012G22KT 10SM BKN015 16/12 A2996 RMK AO2 T01610117","lat":41.7225,"lon":-71.4325,"elev":15,"name":"Providence/Green Mem, RI, US","cover":"BKN","clouds":[{"cover":"BKN","base":1500}],"fltCat":"MVFR"},{"icaoId":"KPUW","receiptTime":"2026-04-13T18:02:34.545Z","obsTime":1776103140,"reportTime":"2026-04-13T17:59:00.000Z","temp":6.1,"dewp":5,"wdir":230,"wspd":8,"visib":4,"altim":1012.6,"qcField":6,"wxString":"-RA BR","precip":0.005,"metarType":"SPECI","rawOb":"SPECI KPUW 131759Z AUTO 23008KT 4SM -RA BR OVC010 06/05 A2990 RMK AO2 P0000 T00610050","lat":46.7438,"lon":-117.1158,"elev":774,"name":"Pullman/Moscow Rgnl, WA, US","cover":"OVC","clouds":[{"cover":"OVC","base":1000}],"fltCat":"MVFR"},{"icaoId":"KNFL","receiptTime":"2026-04-13T18:00:18.611Z","obsTime":1776103020,"reportTime":"2026-04-13T18:00:00.000Z","temp":9.4,"dewp":-2.8,"wdir":280,"wspd":5,"visib":"10+","altim":1018,"slp":1014.6,"qcField":12,"presTend":0.6,"maxT":10,"minT":-1.1,"metarType":"METAR","rawOb":"METAR KNFL 131757Z 28005KT 10SM SCT050 SCT080 09/M03 A3006 RMK AO2 SLP146 T00941028 10100 21011 50006 PNO $","lat":39.417,"lon":-118.705,"elev":1199,"name":"Fallon , NV, US","cover":"SCT","clouds":[{"cover":"SCT","base":5000},{"cover":"SCT","base":8000}],"fltCat":"VFR"},{"icaoId":"KFLG","receiptTime":"2026-04-13T18:00:18.721Z","obsTime":1776103020,"reportTime":"2026-04-13T18:00:00.000Z","temp":10,"dewp":0,"wdir":200,"wspd":15,"wgst":28,"visib":"10+","altim":1018.7,"slp":1012.8,"qcField":12,"presTend":0.1,"maxT":10,"minT":2.8,"metarType":"METAR","rawOb":"METAR KFLG 131757Z 20015G28KT 10SM SCT030 BKN039 10/00 A3008 RMK AO2 PK WND 23028/1753 SLP128 T01000000 10100 20028 50001 $","lat":35.1443,"lon":-111.6664,"elev":2134,"name":"Flagstaff/Pulliam Arpt, AZ, US","cover":"BKN","clouds":[{"cover":"SCT","base":3000},{"cover":"BKN","base":3900}],"fltCat":"VFR"},{"icaoId":"KNYL","receiptTime":"2026-04-13T18:00:18.815Z","obsTime":1776103020,"reportTime":"2026-04-13T18:00:00.000Z","temp":23.3,"dewp":6.7,"wdir":280,"wspd":12,"wgst":19,"visib":"10+","altim":1016,"slp":1015.7,"qcField":4,"presTend":0.4,"maxT":23.3,"minT":17.2,"metarType":"METAR","rawOb":"METAR KNYL 131757Z 28012G19KT 10SM SCT100 SCT150 23/07 A3000 RMK AO2 SLP157 T02330067 10233 20172 53004","lat":32.66,"lon":-114.6078,"elev":58,"name":"Yuma , AZ, US","cover":"SCT","clouds":[{"cover":"SCT","base":10000},{"cover":"SCT","base":15000}],"fltCat":"VFR"},{"icaoId":"KEGE","receiptTime":"2026-04-13T17:58:28.629Z","obsTime":1776102960,"reportTime":"2026-04-13T18:00:00.000Z","temp":12.8,"dewp":-7.2,"wdir":270,"wspd":13,"wgst":23,"visib":"10+","altim":1016,"slp":1010.8,"qcField":4,"presTend":-0.6,"maxT":13.3,"minT":7.2,"metarType":"METAR","rawOb":"METAR KEGE 131756Z 27013G23KT 240V300 10SM CLR 13/M07 A3000 RMK AO2 SLP108 T01281072 10133 20072 58006","lat":39.6448,"lon":-106.9176,"elev":1993,"name":"Eagle Cnty Rgnl, CO, US","cover":"CLR","clouds":[],"fltCat":"VFR"},{"icaoId":"KLWS","receiptTime":"2026-04-13T18:00:17.554Z","obsTime":1776102960,"reportTime":"2026-04-13T18:00:00.000Z","temp":7.2,"dewp":5,"wdir":160,"wspd":8,"visib":8,"altim":1013,"slp":1013.4,"qcField":12,"wxString":"-RA","presTend":1.9,"maxT":7.2,"minT":6.1,"precip":0.03,"pcp6hr":0.38,"metarType":"METAR","rawOb":"METAR KLWS 131756Z 16008KT 8SM -RA FEW029 SCT038 OVC046 07/05 A2991 RMK AO2 SLP134 P0003 60038 T00720050 10072 20061 51019 $","lat":46.3746,"lon":-117.0153,"elev":435,"name":"Lewiston/Nez Perce Cnty, ID, US","cover":"OVC","clouds":[{"cover":"FEW","base":2900},{"cover":"SCT","base":3800},{"cover":"OVC","base":4600}],"fltCat":"VFR"},{"icaoId":"KHDN","receiptTime":"2026-04-13T17:58:27.347Z","obsTime":1776102960,"reportTime":"2026-04-13T18:00:00.000Z","temp":9.4,"dewp":-6.7,"wdir":310,"wspd":9,"wgst":15,"visib":"10+","altim":1016.7,"slp":1012.9,"qcField":6,"presTend":-0.8,"maxT":9.4,"minT":4.4,"metarType":"METAR","rawOb":"METAR KHDN 131756Z AUTO 31009G15KT 10SM SCT070 OVC090 09/M07 A3002 RMK AO2 PK WND 27028/1701 SLP129 T00941067 10094 20044 58008","lat":40.4842,"lon":-107.2296,"elev":2012,"name":"Hayden/Yampa Valley Arpt, CO, US","cover":"OVC","clouds":[{"cover":"SCT","base":7000},{"cover":"OVC","base":9000}],"fltCat":"VFR"},{"icaoId":"KGUC","receiptTime":"2026-04-13T17:58:27.220Z","obsTime":1776102960,"reportTime":"2026-04-13T18:00:00.000Z","temp":11.1,"dewp":-9.4,"wdir":"VRB","wspd":6,"visib":"10+","altim":1017,"slp":1012.4,"qcField":14,"presTend":-1.1,"maxT":11.7,"minT":-1.1,"metarType":"METAR","rawOb":"METAR KGUC 131756Z AUTO VRB06KT 10SM CLR 11/M09 A3003 RMK AO2 SLP124 T01111094 10117 21011 58011 $","lat":38.5322,"lon":-106.9419,"elev":2337,"name":"Gunnison Arpt, CO, US","cover":"CLR","clouds":[],"fltCat":"VFR"},{"icaoId":"KCOD","receiptTime":"2026-04-13T17:58:24.591Z","obsTime":1776102960,"reportTime":"2026-04-13T18:00:00.000Z","temp":8.9,"dewp":-9.4,"wdir":260,"wspd":23,"wgst":30,"visib":"10+","altim":1010.6,"slp":1009.2,"qcField":14,"presTend":0.9,"maxT":10,"minT":6.1,"metarType":"METAR","rawOb":"METAR KCOD 131756Z AUTO 26023G30KT 10SM FEW110 09/M09 A2984 RMK AO2 PK WND 29043/1703 SLP092 T00891094 10100 20061 53009 $","lat":44.52,"lon":-109.0268,"elev":1550,"name":"Cody/Yellowstone Rgnl, WY, US","cover":"FEW","clouds":[{"cover":"FEW","base":11000}],"fltCat":"VFR"},{"icaoId":"KINW","receiptTime":"2026-04-13T18:00:17.476Z","obsTime":1776102960,"reportTime":"2026-04-13T18:00:00.000Z","temp":16.7,"dewp":-1.7,"wdir":200,"wspd":10,"wgst":22,"visib":"10+","altim":1017,"slp":1012.2,"qcField":6,"presTend":-1.1,"maxT":17.2,"minT":3.9,"metarType":"METAR","rawOb":"METAR KINW 131756Z AUTO 20010G22KT 10SM FEW070 17/M02 A3003 RMK AO2 SLP122 T01671017 10172 20039 58011","lat":35.0279,"lon":-110.7221,"elev":1492,"name":"Winslow/Lindberg Rgnl, AZ, US","cover":"FEW","clouds":[{"cover":"FEW","base":7000}],"fltCat":"VFR"},{"icaoId":"KEKO","receiptTime":"2026-04-13T18:00:17.501Z","obsTime":1776102960,"reportTime":"2026-04-13T18:00:00.000Z","temp":8.3,"dewp":-3.3,"wdir":210,"wspd":7,"visib":"10+","altim":1016.7,"slp":1016.1,"qcField":6,"presTend":0.2,"maxT":8.3,"minT":-0.6,"metarType":"METAR","rawOb":"METAR KEKO 131756Z AUTO 21007KT 10SM BKN042 08/M03 A3002 RMK AO2 SLP161 T00831033 10083 21006 50002","lat":40.824,"lon":-115.7863,"elev":1541,"name":"Elko Rgnl, NV, US","cover":"BKN","clouds":[{"cover":"BKN","base":4200}],"fltCat":"VFR"},{"icaoId":"KUKI","receiptTime":"2026-04-13T18:00:07.839Z","obsTime":1776102960,"reportTime":"2026-04-13T18:00:00.000Z","temp":11.1,"dewp":5.6,"wdir":0,"wspd":0,"visib":"10+","altim":1021.1,"slp":1020.6,"qcField":6,"presTend":0.5,"maxT":11.7,"minT":6.1,"metarType":"METAR","rawOb":"METAR KUKI 131756Z AUTO 00000KT 10SM CLR 11/06 A3015 RMK AO2 SLP206 T01110056 10117 20061 50005","lat":39.1278,"lon":-123.2001,"elev":183,"name":"Ukiah Muni, CA, US","cover":"CLR","clouds":[],"fltCat":"VFR"},{"icaoId":"KRDM","receiptTime":"2026-04-13T18:00:17.638Z","obsTime":1776102960,"reportTime":"2026-04-13T18:00:00.000Z","temp":10.6,"dewp":0.6,"wdir":340,"wspd":8,"visib":"10+","altim":1015.7,"slp":1015.6,"qcField":4,"presTend":0.7,"maxT":11.7,"minT":0,"metarType":"METAR","rawOb":"METAR KRDM 131756Z 34008KT 10SM BKN041 11/01 A2999 RMK AO2 SLP156 T01060006 10117 20000 51007","lat":44.2558,"lon":-121.1407,"elev":930,"name":"Redmond Muni, OR, US","cover":"BKN","clouds":[{"cover":"BKN","base":4100}],"fltCat":"VFR"},{"icaoId":"KCEC","receiptTime":"2026-04-13T18:00:17.339Z","obsTime":1776102960,"reportTime":"2026-04-13T18:00:00.000Z","temp":11.1,"dewp":9.4,"wdir":300,"wspd":7,"visib":"10+","altim":1022.4,"slp":1022.5,"qcField":6,"presTend":1.5,"maxT":11.1,"minT":7.2,"pcp6hr":0.04,"metarType":"METAR","rawOb":"METAR KCEC 131756Z AUTO 30007KT 10SM OVC037 11/09 A3019 RMK AO2 SLP225 60004 T01110094 10111 20072 51015","lat":41.7836,"lon":-124.238,"elev":17,"name":"Crescent City/McNama, CA, US","cover":"OVC","clouds":[{"cover":"OVC","base":3700}],"fltCat":"VFR"},{"icaoId":"KFNL","receiptTime":"2026-04-13T17:58:28.994Z","obsTime":1776102960,"reportTime":"2026-04-13T18:00:00.000Z","temp":20,"dewp":-8.9,"wdir":210,"wspd":8,"wgst":19,"visib":"10+","altim":1011.9,"slp":1005.9,"qcField":12,"presTend":-0.5,"maxT":20,"minT":12.8,"metarType":"METAR","rawOb":"METAR KFNL 131756Z 21008G19KT 10SM FEW110 20/M09 A2988 RMK AO2 PK WND 29026/1745 SLP059 T02001089 10200 20128 58005 $","lat":40.4427,"lon":-105.0097,"elev":1529,"name":"Fort Collins/N Colorado Rgnl, CO, US","cover":"FEW","clouds":[{"cover":"FEW","base":11000}],"fltCat":"VFR"},{"icaoId":"KCOE","receiptTime":"2026-04-13T17:58:22.953Z","obsTime":1776102960,"reportTime":"2026-04-13T18:00:00.000Z","temp":6.1,"dewp":4.4,"wdir":160,"wspd":11,"visib":"10+","altim":1011.3,"slp":1013.4,"qcField":14,"presTend":2,"maxT":7.2,"minT":5.6,"metarType":"METAR","rawOb":"METAR KCOE 131756Z AUTO 16011KT 10SM OVC013 06/04 A2986 RMK AO2 SLP134 6//// T00610044 10072 20056 53020 PNO $","lat":47.7719,"lon":-116.8332,"elev":693,"name":"Coeur DAlene Arpt, ID, US","cover":"OVC","clouds":[{"cover":"OVC","base":1300}],"fltCat":"MVFR"},{"icaoId":"KPWT","receiptTime":"2026-04-13T17:58:33.249Z","obsTime":1776102960,"reportTime":"2026-04-13T18:00:00.000Z","temp":8.3,"dewp":7.8,"wdir":230,"wspd":6,"visib":9,"altim":1017.7,"slp":1018,"qcField":6,"presTend":2.3,"maxT":8.3,"minT":7.2,"precip":0.005,"pcp6hr":0.01,"metarType":"METAR","rawOb":"METAR KPWT 131756Z AUTO 23006KT 9SM SCT009 OVC015 08/08 A3005 RMK AO2 RAE03B34E50 SLP180 P0000 60001 T00830078 10083 20072 51023","lat":47.4942,"lon":-122.7594,"elev":143,"name":"Bremerton Arpt, WA, US","cover":"OVC","clouds":[{"cover":"SCT","base":900},{"cover":"OVC","base":1500}],"fltCat":"MVFR"},{"icaoId":"KSGU","receiptTime":"2026-04-13T17:58:31.788Z","obsTime":1776102960,"reportTime":"2026-04-13T18:00:00.000Z","temp":15.6,"dewp":5,"wdir":40,"wspd":14,"visib":"10+","altim":1014,"slp":1012.1,"qcField":6,"presTend":-0.5,"maxT":16.7,"minT":12.2,"precip":0.005,"pcp6hr":0.005,"metarType":"METAR","rawOb":"METAR KSGU 131756Z AUTO 04014KT 10SM BKN065 BKN085 16/05 A2994 RMK AO2 RAB38E54 SLP121 P0000 60000 T01560050 10167 20122 58005","lat":37.0444,"lon":-113.5034,"elev":877,"name":"Saint George Muni, UT, US","cover":"BKN","clouds":[{"cover":"BKN","base":6500},{"cover":"BKN","base":8500}],"fltCat":"VFR"},{"icaoId":"KENV","receiptTime":"2026-04-13T17:58:28.766Z","obsTime":1776102960,"reportTime":"2026-04-13T18:00:00.000Z","temp":11.1,"dewp":-2.2,"wdir":120,"wspd":7,"visib":"10+","altim":1017,"slp":1016.6,"qcField":6,"presTend":0.1,"maxT":11.1,"minT":0.6,"metarType":"METAR","rawOb":"METAR KENV 131756Z AUTO 12007KT 10SM CLR 11/M02 A3003 RMK AO2 SLP166 T01111022 10111 20006 50001","lat":40.7211,"lon":-114.0312,"elev":1291,"name":"Wendover Arpt, UT, US","cover":"CLR","clouds":[],"fltCat":"VFR"},{"icaoId":"KDUG","receiptTime":"2026-04-13T18:02:35.123Z","obsTime":1776102960,"reportTime":"2026-04-13T18:00:00.000Z","temp":21.1,"dewp":2.2,"wdir":240,"wspd":14,"visib":"10+","altim":1020.1,"slp":1014.3,"qcField":38,"presTend":-0.2,"maxT":21.7,"minT":15,"metarType":"METAR","rawOb":"METAR KDUG 131756Z AUTO 24014KT 10SM SCT100 21/02 A3012 RMK AO2 PK WND 24030/1712 SLP143 T02110022 10217 20150 58002 TSNO","lat":31.4725,"lon":-109.6022,"elev":1260,"name":"Douglas/Bisbee Intl, AZ, US","cover":"SCT","clouds":[{"cover":"SCT","base":10000}],"fltCat":"VFR"},{"icaoId":"KJAC","receiptTime":"2026-04-13T17:58:23.679Z","obsTime":1776102960,"reportTime":"2026-04-13T18:00:00.000Z","temp":4.4,"dewp":-3.9,"wdir":190,"wspd":9,"wgst":20,"visib":"10+","altim":1014.6,"slp":1015.8,"qcField":4,"presTend":-0.1,"maxT":5,"minT":-0.6,"metarType":"METAR","rawOb":"METAR KJAC 131756Z 19009G20KT 10SM FEW043 SCT049 04/M04 A2996 RMK AO2 SLP158 T00441039 10050 21006 58001","lat":43.6129,"lon":-110.7366,"elev":1967,"name":"Jackson Hole Arpt, WY, US","cover":"SCT","clouds":[{"cover":"FEW","base":4300},{"cover":"SCT","base":4900}],"fltCat":"VFR"},{"icaoId":"KHND","receiptTime":"2026-04-13T17:58:27.430Z","obsTime":1776102960,"reportTime":"2026-04-13T18:00:00.000Z","temp":17.2,"dewp":-1.7,"wdir":220,"wspd":10,"wgst":16,"visib":"10+","altim":1015,"slp":1015.5,"qcField":12,"presTend":-0.3,"maxT":17.2,"minT":10.6,"metarType":"METAR","rawOb":"METAR KHND 131756Z 22010G16KT 10SM CLR 17/M02 A2997 RMK AO2 SLP155 T01721017 10172 20106 58003 $","lat":35.9657,"lon":-115.1343,"elev":740,"name":"Henderson Exec, NV, US","cover":"CLR","clouds":[],"fltCat":"VFR"},{"icaoId":"KVIS","receiptTime":"2026-04-13T17:58:32.561Z","obsTime":1776102960,"reportTime":"2026-04-13T18:00:00.000Z","temp":13.3,"dewp":9.4,"wdir":320,"wspd":7,"visib":"10+","altim":1020.1,"slp":1019.9,"qcField":14,"presTend":0.9,"maxT":13.3,"minT":10,"metarType":"METAR","rawOb":"METAR KVIS 131756Z AUTO 32007KT 10SM SCT016 OVC060 13/09 A3012 RMK AO2 SLP199 6//// T01330094 10133 20100 51009 PNO $","lat":36.3135,"lon":-119.3884,"elev":92,"name":"Visalia Muni, CA, US","cover":"OVC","clouds":[{"cover":"SCT","base":1600},{"cover":"OVC","base":6000}],"fltCat":"VFR"},{"icaoId":"KPVU","receiptTime":"2026-04-13T17:58:31.213Z","obsTime":1776102960,"reportTime":"2026-04-13T18:00:00.000Z","temp":10.6,"dewp":2.8,"wdir":270,"wspd":5,"visib":"10+","altim":1016.3,"slp":1014.9,"qcField":4,"presTend":-0.3,"maxT":10.6,"minT":2.8,"metarType":"METAR","rawOb":"METAR KPVU 131756Z 27005KT 10SM CLR 11/03 A3001 RMK AO2 SLP149 T01060028 10106 20028 58003","lat":40.224,"lon":-111.7252,"elev":1370,"name":"Provo Muni, UT, US","cover":"CLR","clouds":[],"fltCat":"VFR"},{"icaoId":"KLAS","receiptTime":"2026-04-13T18:00:17.540Z","obsTime":1776102960,"reportTime":"2026-04-13T18:00:00.000Z","temp":18.3,"dewp":-3.3,"wdir":200,"wspd":8,"wgst":17,"visib":"10+","altim":1014.3,"slp":1013,"qcField":4,"maxT":18.3,"minT":12.2,"metarType":"METAR","rawOb":"METAR KLAS 131756Z 20008G17KT 10SM FEW070 FEW100 18/M03 A2995 RMK AO2 SLP130 T01831033 10183 20122 50000","lat":36.0719,"lon":-115.1634,"elev":662,"name":"Las Vegas/Reid Intl, NV, US","cover":"FEW","clouds":[{"cover":"FEW","base":7000},{"cover":"FEW","base":10000}],"fltCat":"VFR"},{"icaoId":"KSDF","receiptTime":"2026-04-13T18:00:15.537Z","obsTime":1776102960,"reportTime":"2026-04-13T18:00:00.000Z","temp":25.6,"dewp":16.1,"wdir":220,"wspd":11,"wgst":20,"visib":"10+","altim":1019.4,"slp":1018.9,"qcField":4,"presTend":-1.4,"maxT":26.1,"minT":21.7,"pcp6hr":0.005,"metarType":"METAR","rawOb":"METAR KSDF 131756Z 22011G20KT 10SM SCT037 BKN060 BKN090 BKN200 26/16 A3010 RMK AO2 PK WND 23029/1727 SLP189 60000 T02560161 10261 20217 58014","lat":38.1774,"lon":-85.7308,"elev":146,"name":"Louisville Intl, KY, US","cover":"BKN","clouds":[{"cover":"SCT","base":3700},{"cover":"BKN","base":6000},{"cover":"BKN","base":9000},{"cover":"BKN","base":20000}],"fltCat":"VFR"},{"icaoId":"KJAX","receiptTime":"2026-04-13T18:00:13.677Z","obsTime":1776102960,"reportTime":"2026-04-13T18:00:00.000Z","temp":27.2,"dewp":14.4,"wdir":120,"wspd":9,"wgst":15,"visib":"10+","altim":1026.2,"slp":1026.1,"qcField":12,"presTend":-1.8,"maxT":27.2,"minT":13.3,"metarType":"METAR","rawOb":"METAR KJAX 131756Z 12009G15KT 10SM SCT045 BKN250 27/14 A3030 RMK AO2 SLP261 T02720144 10272 20133 58018 $","lat":30.4953,"lon":-81.6937,"elev":8,"name":"Jacksonville Intl, FL, US","cover":"BKN","clouds":[{"cover":"SCT","base":4500},{"cover":"BKN","base":25000}],"fltCat":"VFR"},{"icaoId":"KCGZ","receiptTime":"2026-04-13T17:58:24.433Z","obsTime":1776102960,"reportTime":"2026-04-13T18:00:00.000Z","temp":22.2,"dewp":6.1,"wdir":230,"wspd":13,"wgst":19,"visib":"10+","qcField":14,"maxT":22.8,"minT":17.8,"metarType":"METAR","rawOb":"METAR KCGZ 131756Z AUTO 23013G19KT 10SM CLR 22/06 RMK AO2 SLPNO 6//// T02220061 10228 20178 $","lat":32.9531,"lon":-111.7725,"elev":444,"name":"Casa Granda Muni, AZ, US","cover":"CLR","clouds":[],"fltCat":"VFR"},{"icaoId":"KCHS","receiptTime":"2026-04-13T18:00:15.672Z","obsTime":1776102960,"reportTime":"2026-04-13T18:00:00.000Z","temp":27.2,"dewp":12.8,"wdir":240,"wspd":6,"wgst":15,"visib":"10+","altim":1026.5,"slp":1026.5,"qcField":4,"presTend":-2,"maxT":27.8,"minT":16.7,"metarType":"METAR","rawOb":"METAR KCHS 131756Z 24006G15KT 10SM SCT050 BKN250 27/13 A3031 RMK AO2 SLP265 T02720128 10278 20167 58020","lat":32.8995,"lon":-80.0407,"elev":12,"name":"Charleston Intl, SC, US","cover":"BKN","clouds":[{"cover":"SCT","base":5000},{"cover":"BKN","base":25000}],"fltCat":"VFR"},{"icaoId":"KTPH","receiptTime":"2026-04-13T18:00:07.734Z","obsTime":1776102960,"reportTime":"2026-04-13T18:00:00.000Z","temp":10,"dewp":-6.7,"wdir":30,"wspd":5,"visib":"10+","altim":1015.7,"slp":1013.5,"qcField":6,"presTend":-0.1,"maxT":10,"minT":-2.2,"metarType":"METAR","rawOb":"METAR KTPH 131756Z AUTO 03005KT 10SM CLR 10/M07 A2999 RMK AO2 SLP135 T01001067 10100 21022 58001","lat":38.0505,"lon":-117.0906,"elev":1647,"name":"Tonopah Arpt, NV, US","cover":"CLR","clouds":[],"fltCat":"VFR"},{"icaoId":"KSLE","receiptTime":"2026-04-13T18:00:07.353Z","obsTime":1776102960,"reportTime":"2026-04-13T18:00:00.000Z","temp":10.6,"dewp":4.4,"wdir":320,"wspd":5,"visib":"10+","altim":1020.7,"slp":1020.6,"qcField":4,"presTend":1.7,"maxT":11.1,"minT":8.3,"precip":0.005,"pcp6hr":0.005,"metarType":"METAR","rawOb":"METAR KSLE 131756Z 32005KT 10SM BKN026 BKN049 OVC060 11/04 A3014 RMK AO2 RAB31E44 SLP206 P0000 60000 T01060044 10111 20083 51017","lat":44.9049,"lon":-123.001,"elev":63,"name":"Salem Muni, OR, US","cover":"OVC","clouds":[{"cover":"BKN","base":2600},{"cover":"BKN","base":4900},{"cover":"OVC","base":6000}],"fltCat":"MVFR"},{"icaoId":"KSBP","receiptTime":"2026-04-13T18:00:17.655Z","obsTime":1776102960,"reportTime":"2026-04-13T18:00:00.000Z","temp":16.1,"dewp":4.4,"visib":"10+","altim":1019.7,"slp":1019.4,"qcField":4,"presTend":0.9,"maxT":16.1,"minT":6.1,"metarType":"METAR","rawOb":"METAR KSBP 131756Z 10SM CLR 16/04 A3011 RMK AO2 SLP194 T01610044 10161 20061 51009","lat":35.2381,"lon":-120.644,"elev":52,"name":"San Luis Obispo/San Luis Cnty, CA, US","cover":"CLR","clouds":[],"fltCat":"VFR"},{"icaoId":"KSFO","receiptTime":"2026-04-13T18:00:04.496Z","obsTime":1776102960,"reportTime":"2026-04-13T18:00:00.000Z","temp":14.4,"dewp":10,"wdir":30,"wspd":8,"visib":"10+","altim":1020.4,"slp":1020.4,"qcField":12,"presTend":1.2,"maxT":14.4,"minT":10,"metarType":"METAR","rawOb":"METAR KSFO 131756Z 03008KT 10SM SCT030 BKN043CB 14/10 A3013 RMK AO2 SLP204 CB OHD T01440100 10144 20100 51012 $","lat":37.6196,"lon":-122.3656,"elev":2,"name":"San Francisco Intl, CA, US","cover":"BKN","clouds":[{"cover":"SCT","base":3000},{"cover":"BKN","base":4300}],"fltCat":"VFR"},{"icaoId":"KCMA","receiptTime":"2026-04-13T17:58:24.577Z","obsTime":1776102900,"reportTime":"2026-04-13T18:00:00.000Z","temp":18.3,"dewp":8.9,"wdir":240,"wspd":8,"visib":"10+","altim":1018,"slp":1018.6,"qcField":4,"presTend":0.2,"maxT":18.3,"minT":8.3,"metarType":"METAR","rawOb":"METAR KCMA 131755Z 24008KT 10SM FEW032 18/09 A3006 RMK AO2 SLP186 T01830089 10183 20083 53002","lat":34.2114,"lon":-119.0876,"elev":20,"name":"Camarillo Arpt, CA, US","cover":"FEW","clouds":[{"cover":"FEW","base":3200}],"fltCat":"VFR"},{"icaoId":"KHII","receiptTime":"2026-04-13T18:02:28.275Z","obsTime":1776102900,"reportTime":"2026-04-13T18:00:00.000Z","temp":23,"dewp":2,"wdir":220,"wspd":17,"visib":"10+","altim":1014.3,"qcField":6,"metarType":"METAR","rawOb":"METAR KHII 131755Z AUTO 22017KT 10SM BKN080 23/02 A2995 RMK AO2","lat":34.5659,"lon":-114.3522,"elev":241,"name":"Lake Havasu City Arpt, AZ, US","cover":"BKN","clouds":[{"cover":"BKN","base":8000}],"fltCat":"VFR"},{"icaoId":"KMEV","receiptTime":"2026-04-13T18:00:17.599Z","obsTime":1776102900,"reportTime":"2026-04-13T18:00:00.000Z","temp":6,"dewp":2,"wdir":0,"wspd":0,"visib":"10+","altim":1018.7,"qcField":6,"metarType":"METAR","rawOb":"METAR KMEV 131755Z AUTO 00000KT 10SM SCT019 SCT023 06/02 A3008 RMK AO2","lat":38.9963,"lon":-119.75,"elev":1437,"name":"Minden-Tahoe Arpt, NV, US","cover":"SCT","clouds":[{"cover":"SCT","base":1900},{"cover":"SCT","base":2300}],"fltCat":"VFR"},{"icaoId":"KAST","receiptTime":"2026-04-13T17:58:28.457Z","obsTime":1776102900,"reportTime":"2026-04-13T18:00:00.000Z","temp":10,"dewp":5.6,"wdir":270,"wspd":9,"visib":"10+","altim":1020.1,"slp":1020,"qcField":6,"presTend":1.9,"maxT":10.6,"minT":7.8,"precip":0.005,"pcp6hr":0.04,"metarType":"METAR","rawOb":"METAR KAST 131755Z AUTO 27009KT 10SM SCT024 BKN030 OVC050 10/06 A3012 RMK AO2 RAE01 SLP200 P0000 60004 T01000056 10106 20078 51019","lat":46.157,"lon":-123.8833,"elev":3,"name":"Astoria Rgnl, OR, US","cover":"OVC","clouds":[{"cover":"SCT","base":2400},{"cover":"BKN","base":3000},{"cover":"OVC","base":5000}],"fltCat":"MVFR"},{"icaoId":"KCXP","receiptTime":"2026-04-13T18:00:17.388Z","obsTime":1776102900,"reportTime":"2026-04-13T18:00:00.000Z","temp":7,"dewp":0,"wdir":0,"wspd":0,"visib":"10+","altim":1018.7,"qcField":6,"metarType":"METAR","rawOb":"METAR KCXP 131755Z AUTO 00000KT 10SM FEW029 07/M00 A3008 RMK AO2","lat":39.1905,"lon":-119.7319,"elev":1431,"name":"Carson City Arpt, NV, US","cover":"FEW","clouds":[{"cover":"FEW","base":2900}],"fltCat":"VFR"},{"icaoId":"KRNO","receiptTime":"2026-04-13T17:58:22.578Z","obsTime":1776102900,"reportTime":"2026-04-13T18:00:00.000Z","temp":8.3,"dewp":-2.8,"wdir":240,"wspd":3,"visib":"10+","altim":1018.4,"slp":1017.3,"qcField":4,"presTend":0.2,"maxT":8.3,"minT":1.7,"metarType":"METAR","rawOb":"METAR KRNO 131755Z 24003KT 10SM SCT040 08/M03 A3007 RMK AO2 SLP173 T00831028 10083 20017 52002","lat":39.5077,"lon":-119.7683,"elev":1344,"name":"Reno/Tahoe Intl, NV, US","cover":"SCT","clouds":[{"cover":"SCT","base":4000}],"fltCat":"VFR"},{"icaoId":"KMHR","receiptTime":"2026-04-13T18:00:17.622Z","obsTime":1776102900,"reportTime":"2026-04-13T18:00:00.000Z","temp":14,"dewp":12,"wdir":"VRB","wspd":4,"wgst":11,"visib":"10+","altim":1019.7,"qcField":6,"metarType":"METAR","rawOb":"METAR KMHR 131755Z AUTO VRB04G11KT 10SM OVC021 14/12 A3011 RMK AO2","lat":38.56,"lon":-121.284,"elev":30,"name":"Sacramento/Mather Fld, CA, US","cover":"OVC","clouds":[{"cover":"OVC","base":2100}],"fltCat":"MVFR"},{"icaoId":"KHAF","receiptTime":"2026-04-13T17:57:09.580Z","obsTime":1776102900,"reportTime":"2026-04-13T18:00:00.000Z","temp":14,"dewp":11,"wdir":320,"wspd":11,"visib":"10+","altim":1020.7,"qcField":6,"metarType":"METAR","rawOb":"METAR KHAF 131755Z AUTO 32011KT 10SM CLR 14/11 A3014 RMK AO2","lat":37.5136,"lon":-122.4996,"elev":11,"name":"Half Moon Bay Arpt, CA, US","cover":"CLR","clouds":[],"fltCat":"VFR"},{"icaoId":"KRTS","receiptTime":"2026-04-13T18:00:07.179Z","obsTime":1776102900,"reportTime":"2026-04-13T18:00:00.000Z","temp":6,"dewp":-3,"wdir":"VRB","wspd":4,"visib":"10+","altim":1018.4,"qcField":6,"metarType":"METAR","rawOb":"METAR KRTS 131755Z AUTO VRB04KT 10SM CLR 06/M03 A3007 RMK AO2","lat":39.6658,"lon":-119.8731,"elev":1537,"name":"Reno/Stead Arpt, NV, US","cover":"CLR","clouds":[],"fltCat":"VFR"},{"icaoId":"KSOW","receiptTime":"2026-04-13T17:58:17.962Z","obsTime":1776102900,"reportTime":"2026-04-13T18:00:00.000Z","temp":15,"dewp":0,"wdir":200,"wspd":27,"wgst":36,"visib":"10+","altim":1019.7,"qcField":6,"metarType":"METAR","rawOb":"METAR KSOW 131755Z AUTO 20027G36KT 10SM SCT048 SCT055 15/M00 A3011 RMK AO2","lat":34.2686,"lon":-110.0019,"elev":1954,"name":"Show Low Muni, AZ, US","cover":"SCT","clouds":[{"cover":"SCT","base":4800},{"cover":"SCT","base":5500}],"fltCat":"VFR"},{"icaoId":"KLUF","receiptTime":"2026-04-13T18:02:13.615Z","obsTime":1776102900,"reportTime":"2026-04-13T18:00:00.000Z","temp":22.8,"dewp":4.8,"wdir":160,"wspd":7,"visib":"10+","altim":1014.6,"slp":1013.7,"qcField":12,"presTend":0.3,"maxT":22.8,"minT":16.8,"metarType":"METAR","rawOb":"METAR KLUF 131755Z 16007KT 10SM SCT080 BKN150 23/05 A2996 RMK AO2A SLP137 T02280048 10228 20168 50003 $","lat":33.538,"lon":-112.38,"elev":333,"name":"Phoenix/Luke AFB, AZ, US","cover":"BKN","clouds":[{"cover":"SCT","base":8000},{"cover":"BKN","base":15000}],"fltCat":"VFR"},{"icaoId":"KEND","receiptTime":"2026-04-13T18:02:09.651Z","obsTime":1776102900,"reportTime":"2026-04-13T18:00:00.000Z","temp":28.6,"dewp":19.5,"wdir":200,"wspd":23,"wgst":28,"visib":"10+","altim":1009.9,"slp":1008.6,"qcField":12,"presTend":-0.9,"maxT":28.6,"minT":20.6,"metarType":"METAR","rawOb":"METAR KEND 131755Z 20023G28KT 10SM FEW200 29/20 A2982 RMK AO2A PK WND 19030/08 SLP086 T02860195 10286 20206 58009 $","lat":36.338,"lon":-97.919,"elev":392,"name":"Enid/Vance AFB, OK, US","cover":"FEW","clouds":[{"cover":"FEW","base":20000}],"fltCat":"VFR"},{"icaoId":"KSEZ","receiptTime":"2026-04-13T18:02:32.438Z","obsTime":1776102900,"reportTime":"2026-04-13T18:00:00.000Z","temp":16,"dewp":4,"wdir":160,"wspd":13,"wgst":18,"visib":"10+","altim":1018,"qcField":6,"metarType":"METAR","rawOb":"METAR KSEZ 131755Z AUTO 16013G18KT 10SM FEW035 SCT042 BKN060 16/04 A3006 RMK AO2","lat":34.8467,"lon":-111.7884,"elev":1455,"name":"Sedona Arpt, AZ, US","cover":"BKN","clouds":[{"cover":"FEW","base":3500},{"cover":"SCT","base":4200},{"cover":"BKN","base":6000}],"fltCat":"VFR"},{"icaoId":"KHTH","receiptTime":"2026-04-13T18:00:03.486Z","obsTime":1776102900,"reportTime":"2026-04-13T18:00:00.000Z","temp":9,"dewp":-3,"wdir":350,"wspd":8,"visib":"10+","altim":1018.4,"qcField":6,"metarType":"METAR","rawOb":"METAR KHTH 131755Z AUTO 35008KT 10SM OVC085 09/M03 A3007 RMK A01","lat":38.5448,"lon":-118.6314,"elev":1281,"name":"Hawthorne Muni, NV, US","cover":"OVC","clouds":[{"cover":"OVC","base":8500}],"fltCat":"VFR"},{"icaoId":"KBVU","receiptTime":"2026-04-13T17:56:50.905Z","obsTime":1776102900,"reportTime":"2026-04-13T18:00:00.000Z","temp":18,"dewp":0,"wdir":0,"wspd":0,"visib":"10+","altim":1013.6,"qcField":6,"metarType":"METAR","rawOb":"METAR KBVU 131755Z AUTO 00000KT 10SM FEW070 18/M00 A2993 RMK AO2","lat":35.9489,"lon":-114.8633,"elev":654,"name":"Boulder City Muni, NV, US","cover":"FEW","clouds":[{"cover":"FEW","base":7000}],"fltCat":"VFR"},{"icaoId":"KIWA","receiptTime":"2026-04-13T18:00:18.768Z","obsTime":1776102900,"reportTime":"2026-04-13T18:00:00.000Z","temp":23,"dewp":6,"wdir":180,"wspd":10,"wgst":19,"visib":"10+","altim":1016.3,"qcField":0,"metarType":"METAR","rawOb":"METAR KIWA 131755Z 18010G19KT 120V240 10SM CLR 23/06 A3001 RMK LTG DSNT SW","lat":33.3008,"lon":-111.6437,"elev":420,"name":"Phoenix/Mesa Gateway Arpt, AZ, US","cover":"CLR","clouds":[],"fltCat":"VFR"},{"icaoId":"KLRU","receiptTime":"2026-04-13T17:58:26.208Z","obsTime":1776102900,"reportTime":"2026-04-13T18:00:00.000Z","temp":22.7,"dewp":-0.8,"wdir":240,"wspd":16,"wgst":24,"visib":"10+","altim":1021.1,"qcField":6,"maxT":22.7,"minT":10.6,"metarType":"METAR","rawOb":"METAR KLRU 131755Z AUTO 24016G24KT 10SM SCT110 23/M01 A3015 RMK AO2 T02271008 10227 20106","lat":32.2884,"lon":-106.9131,"elev":1355,"name":"Las Cruces Intl, NM, US","cover":"SCT","clouds":[{"cover":"SCT","base":11000}],"fltCat":"VFR"},{"icaoId":"KHCR","receiptTime":"2026-04-13T17:58:27.331Z","obsTime":1776102900,"reportTime":"2026-04-13T18:00:00.000Z","temp":8.7,"dewp":0.8,"wdir":"VRB","wspd":5,"visib":"10+","altim":1015.7,"qcField":14,"presTend":-0.8,"maxT":8.8,"minT":-0.8,"metarType":"METAR","rawOb":"METAR KHCR 131755Z AUTO VRB05KT 10SM CLR 09/01 A2999 RMK AO2 T00870008 10088 21008 58008 $","lat":40.4774,"lon":-111.4329,"elev":1708,"name":"Heber City Muni, UT, US","cover":"CLR","clouds":[],"fltCat":"VFR"},{"icaoId":"KOLS","receiptTime":"2026-04-13T17:58:27.740Z","obsTime":1776102840,"reportTime":"2026-04-13T18:00:00.000Z","temp":15,"dewp":7.2,"wdir":180,"wspd":11,"wgst":21,"visib":8,"altim":1020.1,"slp":1015.4,"qcField":6,"wxString":"-RA","presTend":1,"maxT":20,"minT":14.4,"precip":0.02,"pcp6hr":0.02,"metarType":"METAR","rawOb":"METAR KOLS 131754Z AUTO 18011G21KT 8SM -RA BKN060 OVC080 15/07 A3012 RMK AO2 RAB33 PRESFR SLP154 P0002 60002 T01500072 10200 20144 53010","lat":31.4208,"lon":-110.8465,"elev":1194,"name":"Nogales Intl, AZ, US","cover":"OVC","clouds":[{"cover":"BKN","base":6000},{"cover":"OVC","base":8000}],"fltCat":"VFR"},{"icaoId":"KDSM","receiptTime":"2026-04-13T17:58:30.616Z","obsTime":1776102840,"reportTime":"2026-04-13T18:00:00.000Z","temp":23.9,"dewp":18.3,"wdir":210,"wspd":9,"visib":"10+","altim":1008.2,"slp":1007.5,"qcField":12,"presTend":-0.9,"maxT":23.9,"minT":17.8,"metarType":"METAR","rawOb":"METAR KDSM 131754Z 21009KT 10SM BKN025 BKN035 OVC250 24/18 A2977 RMK AO2 SLP075 T02390183 10239 20178 55009 $","lat":41.5339,"lon":-93.6531,"elev":286,"name":"Des Moines Intl, IA, US","cover":"OVC","clouds":[{"cover":"BKN","base":2500},{"cover":"BKN","base":3500},{"cover":"OVC","base":25000}],"fltCat":"MVFR"},{"icaoId":"KFFZ","receiptTime":"2026-04-13T17:58:22.170Z","obsTime":1776102840,"reportTime":"2026-04-13T18:00:00.000Z","temp":22.8,"dewp":6.1,"wdir":220,"wspd":11,"visib":"10+","altim":1015.3,"slp":1013.5,"qcField":4,"presTend":0.4,"maxT":22.8,"minT":17.2,"metarType":"METAR","rawOb":"METAR KFFZ 131754Z 22011KT 10SM CLR 23/06 A2998 RMK AO2 SLP135 T02280061 10228 20172 53004","lat":33.4659,"lon":-111.7212,"elev":420,"name":"Mesa/Falcon Fld, AZ, US","cover":"CLR","clouds":[],"fltCat":"VFR"},{"icaoId":"KGSO","receiptTime":"2026-04-13T17:58:30.652Z","obsTime":1776102840,"reportTime":"2026-04-13T18:00:00.000Z","temp":26.7,"dewp":12.2,"wdir":260,"wspd":15,"wgst":20,"visib":"10+","altim":1024.5,"slp":1023.3,"qcField":4,"presTend":-2.3,"maxT":27.2,"minT":16.1,"metarType":"METAR","rawOb":"METAR KGSO 131754Z 26015G20KT 10SM FEW060 FEW100 FEW200 OVC250 27/12 A3025 RMK AO2 SLP233 T02670122 10272 20161 58023","lat":36.0969,"lon":-79.9432,"elev":275,"name":"Greensboro Intl, NC, US","cover":"OVC","clouds":[{"cover":"FEW","base":6000},{"cover":"FEW","base":10000},{"cover":"FEW","base":20000},{"cover":"OVC","base":25000}],"fltCat":"VFR"},{"icaoId":"KIND","receiptTime":"2026-04-13T17:58:22.305Z","obsTime":1776102840,"reportTime":"2026-04-13T18:00:00.000Z","temp":25.6,"dewp":16.1,"wdir":200,"wspd":14,"visib":"10+","altim":1016.7,"slp":1015.8,"qcField":4,"maxT":26.1,"minT":20,"metarType":"METAR","rawOb":"METAR KIND 131754Z 20014KT 10SM SCT039 BKN250 26/16 A3002 RMK AO2 SLP158 T02560161 10261 20200","lat":39.7252,"lon":-86.2816,"elev":242,"name":"Indianapolis Intl, IN, US","cover":"BKN","clouds":[{"cover":"SCT","base":3900},{"cover":"BKN","base":25000}],"fltCat":"VFR"},{"icaoId":"KBOS","receiptTime":"2026-04-13T17:58:21.950Z","obsTime":1776102840,"reportTime":"2026-04-13T18:00:00.000Z","temp":17.8,"dewp":11.7,"wdir":210,"wspd":18,"wgst":25,"visib":"10+","altim":1011.9,"slp":1011.9,"qcField":4,"presTend":-4.2,"maxT":18.3,"minT":11.1,"metarType":"METAR","rawOb":"METAR KBOS 131754Z 21018G25KT 10SM FEW030 BKN150 18/12 A2988 RMK AO2 PK WND 23029/1702 SLP119 T01780117 10183 20111 58042","lat":42.3606,"lon":-71.0097,"elev":4,"name":"Boston/Logan Intl, MA, US","cover":"BKN","clouds":[{"cover":"FEW","base":3000},{"cover":"BKN","base":15000}],"fltCat":"VFR"},{"icaoId":"KBTV","receiptTime":"2026-04-13T17:58:30.524Z","obsTime":1776102840,"reportTime":"2026-04-13T18:00:00.000Z","temp":15.6,"dewp":7.2,"wdir":190,"wspd":11,"wgst":21,"visib":"10+","altim":1007.2,"slp":1007.1,"qcField":4,"presTend":-2.7,"maxT":15.6,"minT":11.1,"metarType":"METAR","rawOb":"METAR KBTV 131754Z 19011G21KT 10SM OVC048 16/07 A2974 RMK AO2 PK WND 19026/1728 SLP071 T01560072 10156 20111 56027","lat":44.4682,"lon":-73.1499,"elev":101,"name":"Burlington Intl, VT, US","cover":"OVC","clouds":[{"cover":"OVC","base":4800}],"fltCat":"VFR"},{"icaoId":"KRKS","receiptTime":"2026-04-13T17:58:27.927Z","obsTime":1776102840,"reportTime":"2026-04-13T18:00:00.000Z","temp":8.3,"dewp":-7.8,"wdir":260,"wspd":17,"wgst":20,"visib":"10+","altim":1016.3,"slp":1012.6,"qcField":6,"presTend":-0.2,"maxT":8.3,"minT":0,"metarType":"METAR","rawOb":"METAR KRKS 131754Z AUTO 26017G20KT 10SM CLR 08/M08 A3001 RMK AO2 SLP126 T00831078 10083 20000 58002","lat":41.5947,"lon":-109.0529,"elev":2062,"name":"Rock Springs/SW Wyoming Rgnl, WY, US","cover":"CLR","clouds":[],"fltCat":"VFR"},{"icaoId":"KOLM","receiptTime":"2026-04-13T17:58:27.723Z","obsTime":1776102840,"reportTime":"2026-04-13T18:00:00.000Z","temp":11.1,"dewp":5,"wdir":250,"wspd":10,"wgst":18,"visib":"10+","altim":1018.7,"slp":1018.5,"qcField":6,"presTend":1.9,"maxT":11.1,"minT":7.2,"precip":0.005,"pcp6hr":0.005,"metarType":"METAR","rawOb":"METAR KOLM 131754Z AUTO 25010G18KT 10SM SCT027 BKN034 BKN047 11/05 A3008 RMK AO2 RAB03E19 SLP185 P0000 60000 T01110050 10111 20072 51019","lat":46.9737,"lon":-122.9049,"elev":58,"name":"Olympia Rgnl, WA, US","cover":"BKN","clouds":[{"cover":"SCT","base":2700},{"cover":"BKN","base":3400},{"cover":"BKN","base":4700}],"fltCat":"VFR"},{"icaoId":"KRIC","receiptTime":"2026-04-13T17:58:30.827Z","obsTime":1776102840,"reportTime":"2026-04-13T18:00:00.000Z","temp":28.9,"dewp":9.4,"wdir":230,"wspd":21,"wgst":31,"visib":"10+","altim":1021.4,"slp":1021.5,"qcField":4,"presTend":-2.7,"maxT":29.4,"minT":17.2,"metarType":"METAR","rawOb":"METAR KRIC 131754Z 23021G31KT 10SM FEW045 SCT250 BKN300 29/09 A3016 RMK AO2 PK WND 21031/1747 SLP215 T02890094 10294 20172 58027","lat":37.5115,"lon":-77.3234,"elev":51,"name":"Richmond Intl, VA, US","cover":"BKN","clouds":[{"cover":"FEW","base":4500},{"cover":"SCT","base":25000},{"cover":"BKN","base":30000}],"fltCat":"VFR"},{"icaoId":"KROC","receiptTime":"2026-04-13T17:58:30.864Z","obsTime":1776102840,"reportTime":"2026-04-13T18:00:00.000Z","temp":20.6,"dewp":14.4,"wdir":270,"wspd":22,"wgst":35,"visib":"10+","altim":1011.3,"slp":1011.3,"qcField":4,"presTend":0.9,"maxT":21.1,"minT":15.6,"pcp6hr":0.06,"metarType":"METAR","rawOb":"METAR KROC 131754Z 27022G35KT 10SM SCT028 BKN050 21/14 A2986 RMK AO2 PK WND 27041/1743 SLP113 60006 T02060144 10211 20156 50009","lat":43.1172,"lon":-77.6754,"elev":166,"name":"Rochester Intl Arpt, NY, US","cover":"BKN","clouds":[{"cover":"SCT","base":2800},{"cover":"BKN","base":5000}],"fltCat":"VFR"},{"icaoId":"KSJN","receiptTime":"2026-04-13T17:58:28.008Z","obsTime":1776102840,"reportTime":"2026-04-13T18:00:00.000Z","temp":15.6,"dewp":-4.4,"wdir":220,"wspd":16,"wgst":23,"visib":"10+","altim":1017.7,"slp":1011.2,"qcField":6,"presTend":-0.9,"maxT":15.6,"minT":5,"metarType":"METAR","rawOb":"METAR KSJN 131754Z AUTO 22016G23KT 10SM OVC110 16/M04 A3005 RMK AO2 SLP112 T01561044 10156 20050 58009","lat":34.5184,"lon":-109.3801,"elev":1747,"name":"St Johns Ind Arpt, AZ, US","cover":"OVC","clouds":[{"cover":"OVC","base":11000}],"fltCat":"VFR"},{"icaoId":"KSLC","receiptTime":"2026-04-13T17:58:28.027Z","obsTime":1776102840,"reportTime":"2026-04-13T18:00:00.000Z","temp":11.1,"dewp":1.7,"wdir":200,"wspd":3,"visib":"10+","altim":1016.3,"slp":1014.8,"qcField":12,"presTend":-0.1,"maxT":11.1,"minT":2.8,"metarType":"METAR","rawOb":"METAR KSLC 131754Z 20003KT 10SM FEW035 FEW043 FEW060 SCT250 11/02 A3001 RMK AO2 SLP148 TCU DSNT NW T01110017 10111 20028 56001 $","lat":40.7707,"lon":-111.965,"elev":1286,"name":"Salt Lake City Intl, UT, US","cover":"SCT","clouds":[{"cover":"FEW","base":3500},{"cover":"FEW","base":4300},{"cover":"FEW","base":6000},{"cover":"SCT","base":25000}],"fltCat":"VFR"},{"icaoId":"KEUG","receiptTime":"2026-04-13T17:58:22.115Z","obsTime":1776102840,"reportTime":"2026-04-13T18:00:00.000Z","temp":11.7,"dewp":4.4,"wdir":230,"wspd":12,"visib":"10+","altim":1021.8,"slp":1021.7,"qcField":4,"presTend":1.8,"maxT":11.7,"minT":7.8,"precip":0.005,"pcp6hr":0.005,"metarType":"METAR","rawOb":"METAR KEUG 131754Z 23012KT 10SM FEW024 SCT034 BKN050 12/04 A3017 RMK AO2 RAE1655 SLP217 P0000 60000 T01170044 10117 20078 51018","lat":44.1331,"lon":-123.2156,"elev":109,"name":"Eugene/Mahlon Sweet Fld, OR, US","cover":"BKN","clouds":[{"cover":"FEW","base":2400},{"cover":"SCT","base":3400},{"cover":"BKN","base":5000}],"fltCat":"VFR"},{"icaoId":"KGCN","receiptTime":"2026-04-13T17:58:22.215Z","obsTime":1776102840,"reportTime":"2026-04-13T18:00:00.000Z","temp":8.9,"dewp":-1.1,"wdir":210,"wspd":13,"wgst":21,"visib":"10+","altim":1018,"slp":1013.8,"qcField":4,"presTend":-0.1,"maxT":10.6,"minT":-1.7,"metarType":"METAR","rawOb":"METAR KGCN 131754Z 21013G21KT 10SM BKN038 BKN049 OVC060 09/M01 A3006 RMK AO2 SLP138 T00891011 10106 21017 58001","lat":35.9458,"lon":-112.1554,"elev":1993,"name":"Grand Canyon Park Arpt, AZ, US","cover":"OVC","clouds":[{"cover":"BKN","base":3800},{"cover":"BKN","base":4900},{"cover":"OVC","base":6000}],"fltCat":"VFR"},{"icaoId":"KBUF","receiptTime":"2026-04-13T17:58:30.544Z","obsTime":1776102840,"reportTime":"2026-04-13T18:00:00.000Z","temp":15,"dewp":11.7,"wdir":230,"wspd":20,"wgst":30,"visib":"10+","altim":1012.6,"slp":1012.2,"qcField":12,"presTend":0.8,"maxT":17.2,"minT":11.1,"pcp6hr":0.31,"metarType":"METAR","rawOb":"METAR KBUF 131754Z 23020G30KT 10SM FEW030 SCT037 BKN046 BKN130 15/12 A2990 RMK AO2 PK WND 24031/1709 SLP122 60031 T01500117 10172 20111 50008 $","lat":42.94,"lon":-78.7361,"elev":217,"name":"Buffalo-Niagara Intl, NY, US","cover":"BKN","clouds":[{"cover":"FEW","base":3000},{"cover":"SCT","base":3700},{"cover":"BKN","base":4600},{"cover":"BKN","base":13000}],"fltCat":"VFR"},{"icaoId":"KAPC","receiptTime":"2026-04-13T17:58:21.905Z","obsTime":1776102840,"reportTime":"2026-04-13T18:00:00.000Z","temp":14.4,"dewp":7.8,"wdir":"VRB","wspd":3,"visib":"10+","altim":1020.4,"slp":1019.4,"qcField":4,"presTend":0.8,"maxT":15,"minT":5.6,"metarType":"METAR","rawOb":"METAR KAPC 131754Z VRB03KT 10SM BKN031 14/08 A3013 RMK AO2 SLP194 T01440078 10150 20056 51008","lat":38.2075,"lon":-122.2804,"elev":5,"name":"Napa Cnty Arpt, CA, US","cover":"BKN","clouds":[{"cover":"BKN","base":3100}],"fltCat":"VFR"},{"icaoId":"KBWI","receiptTime":"2026-04-13T17:58:21.986Z","obsTime":1776102840,"reportTime":"2026-04-13T18:00:00.000Z","temp":25,"dewp":13.3,"wdir":210,"wspd":11,"wgst":20,"visib":"10+","altim":1018,"slp":1017.9,"qcField":4,"presTend":-1.8,"maxT":25.6,"minT":17.2,"precip":0.005,"pcp6hr":0.005,"metarType":"METAR","rawOb":"METAR KBWI 131754Z 21011G20KT 10SM SCT090 BKN150 BKN200 BKN250 25/13 A3006 RMK AO2 RAE1659 SLP179 P0000 60000 T02500133 10256 20172 56018","lat":39.1733,"lon":-76.684,"elev":42,"name":"Baltimore-Washington Intl, MD, US","cover":"BKN","clouds":[{"cover":"SCT","base":9000},{"cover":"BKN","base":15000},{"cover":"BKN","base":20000},{"cover":"BKN","base":25000}],"fltCat":"VFR"},{"icaoId":"KMEM","receiptTime":"2026-04-13T17:58:27.575Z","obsTime":1776102840,"reportTime":"2026-04-13T18:00:00.000Z","temp":23.9,"dewp":18.3,"wdir":190,"wspd":10,"visib":"10+","altim":1021.1,"slp":1020.5,"qcField":4,"presTend":-1.3,"maxT":25,"minT":20,"pcp6hr":0.005,"metarType":"METAR","rawOb":"METAR KMEM 131754Z 19010KT 10SM BKN034 OVC042 24/18 A3015 RMK AO2 SLP205 60000 T02390183 10250 20200 58013","lat":35.0564,"lon":-89.9864,"elev":78,"name":"Memphis Intl, TN, US","cover":"OVC","clouds":[{"cover":"BKN","base":3400},{"cover":"OVC","base":4200}],"fltCat":"VFR"},{"icaoId":"KPHL","receiptTime":"2026-04-13T17:58:27.775Z","obsTime":1776102840,"reportTime":"2026-04-13T18:00:00.000Z","temp":23.9,"dewp":13.9,"wdir":230,"wspd":14,"visib":"10+","altim":1017.4,"slp":1017.2,"qcField":12,"presTend":-1.9,"maxT":25,"minT":15.6,"precip":0.005,"pcp6hr":0.005,"metarType":"METAR","rawOb":"METAR KPHL 131754Z 23014KT 10SM BKN100 OVC180 24/14 A3004 RMK AO2 PK WND 23027/1711 RAB11E22 SLP172 VCSH P0000 60000 T02390139 10250 20156 56019 $","lat":39.8733,"lon":-75.2268,"elev":2,"name":"Philadelphia Intl, PA, US","cover":"OVC","clouds":[{"cover":"BKN","base":10000},{"cover":"OVC","base":18000}],"fltCat":"VFR"},{"icaoId":"KCOS","receiptTime":"2026-04-13T17:58:30.580Z","obsTime":1776102840,"reportTime":"2026-04-13T18:00:00.000Z","temp":17.8,"dewp":-14.4,"wdir":210,"wspd":8,"wgst":18,"visib":"10+","altim":1013.6,"slp":1006.4,"qcField":4,"presTend":-0.7,"maxT":18.9,"minT":6.7,"metarType":"METAR","rawOb":"METAR KCOS 131754Z 21008G18KT 10SM FEW100 FEW200 SCT250 18/M14 A2993 RMK AO2 SLP064 CCSL SW T01781144 10189 20067 58007","lat":38.8095,"lon":-104.6887,"elev":1886,"name":"Colorado Spring Arpt, CO, US","cover":"SCT","clouds":[{"cover":"FEW","base":10000},{"cover":"FEW","base":20000},{"cover":"SCT","base":25000}],"fltCat":"VFR"},{"icaoId":"KSYR","receiptTime":"2026-04-13T17:58:30.938Z","obsTime":1776102840,"reportTime":"2026-04-13T18:00:00.000Z","temp":17.8,"dewp":15.6,"wdir":250,"wspd":14,"wgst":22,"visib":"10+","altim":1011.3,"slp":1010.9,"qcField":4,"presTend":0.4,"maxT":20.6,"minT":16.1,"precip":0.04,"pcp6hr":0.04,"metarType":"METAR","rawOb":"METAR KSYR 131754Z 25014G22KT 10SM BKN017 OVC029 18/16 A2986 RMK AO2 PK WND 25027/1657 RAE50 SLP109 P0004 60004 T01780156 10206 20161 53004","lat":43.1111,"lon":-76.1038,"elev":125,"name":"Syracuse/Hancock Intl, NY, US","cover":"OVC","clouds":[{"cover":"BKN","base":1700},{"cover":"OVC","base":2900}],"fltCat":"MVFR"},{"icaoId":"KBFL","receiptTime":"2026-04-13T17:58:21.934Z","obsTime":1776102840,"reportTime":"2026-04-13T18:00:00.000Z","temp":13.3,"dewp":6.7,"wdir":350,"wspd":6,"visib":"10+","altim":1019.7,"slp":1019.4,"qcField":4,"wxString":"-RA","presTend":1.4,"maxT":13.9,"minT":10,"precip":0.005,"pcp6hr":0.005,"metarType":"METAR","rawOb":"METAR KBFL 131754Z 35006KT 10SM -RA FEW031 BKN040 OVC060 13/07 A3011 RMK AO2 RAB50 SLP194 P0000 60000 T01330067 10139 20100 53014","lat":35.4342,"lon":-119.0552,"elev":146,"name":"Bakersfield/Meadows Arpt, CA, US","cover":"OVC","clouds":[{"cover":"FEW","base":3100},{"cover":"BKN","base":4000},{"cover":"OVC","base":6000}],"fltCat":"VFR"},{"icaoId":"KCLL","receiptTime":"2026-04-13T17:57:15.140Z","obsTime":1776102780,"reportTime":"2026-04-13T18:00:00.000Z","temp":26.7,"dewp":21.7,"wdir":170,"wspd":15,"wgst":22,"visib":"10+","altim":1019,"slp":1018.5,"qcField":4,"presTend":-1.2,"maxT":26.7,"minT":21.7,"metarType":"METAR","rawOb":"METAR KCLL 131753Z 17015G22KT 10SM BKN020 BKN028 27/22 A3009 RMK AO2 SLP185 T02670217 10267 20217 58012","lat":30.5912,"lon":-96.3631,"elev":96,"name":"College Station/Easterwood Arpt, TX, US","cover":"BKN","clouds":[{"cover":"BKN","base":2000},{"cover":"BKN","base":2800}],"fltCat":"MVFR"},{"icaoId":"KCPR","receiptTime":"2026-04-13T17:57:02.748Z","obsTime":1776102780,"reportTime":"2026-04-13T18:00:00.000Z","temp":14.4,"dewp":-10,"wdir":250,"wspd":30,"wgst":38,"visib":"10+","altim":1010.6,"slp":1007.3,"qcField":4,"presTend":1.2,"maxT":14.4,"minT":4.4,"pcp6hr":0.005,"metarType":"METAR","rawOb":"METAR KCPR 131753Z 25030G38KT 10SM CLR 14/M10 A2984 RMK AO2 PK WND 24045/1654 SLP073 60000 T01441100 10144 20044 53012","lat":42.8978,"lon":-106.4736,"elev":1623,"name":"Casper/Natrona Cnty, WY, US","cover":"CLR","clouds":[],"fltCat":"VFR"},{"icaoId":"KIDA","receiptTime":"2026-04-13T17:57:06.233Z","obsTime":1776102780,"reportTime":"2026-04-13T18:00:00.000Z","temp":7.8,"dewp":-3.9,"wdir":230,"wspd":13,"wgst":23,"visib":"10+","altim":1015,"slp":1014.5,"qcField":4,"maxT":8.9,"minT":2.8,"metarType":"METAR","rawOb":"METAR KIDA 131753Z 23013G23KT 10SM BKN046 BKN060 08/M04 A2997 RMK AO2 PK WND 21027/1717 SLP145 T00781039 10089 20028 58000","lat":43.5204,"lon":-112.0675,"elev":1444,"name":"Idaho Falls Rgnl, ID, US","cover":"BKN","clouds":[{"cover":"BKN","base":4600},{"cover":"BKN","base":6000}],"fltCat":"VFR"},{"icaoId":"KBRO","receiptTime":"2026-04-13T17:57:04.814Z","obsTime":1776102780,"reportTime":"2026-04-13T18:00:00.000Z","temp":28.9,"dewp":21.7,"wdir":160,"wspd":16,"visib":"10+","altim":1018,"slp":1017.8,"qcField":4,"presTend":-0.7,"maxT":28.9,"minT":25,"pcp6hr":0.005,"metarType":"METAR","rawOb":"METAR KBRO 131753Z 16016KT 10SM FEW022 BKN030 OVC037 29/22 A3006 RMK AO2 SLP178 60000 T02890217 10289 20250 58007","lat":25.9146,"lon":-97.4231,"elev":6,"name":"Brownsville Intl, TX, US","cover":"OVC","clouds":[{"cover":"FEW","base":2200},{"cover":"BKN","base":3000},{"cover":"OVC","base":3700}],"fltCat":"MVFR"},{"icaoId":"KMYR","receiptTime":"2026-04-13T17:57:04.064Z","obsTime":1776102780,"reportTime":"2026-04-13T18:00:00.000Z","temp":24.4,"dewp":15,"wdir":170,"wspd":11,"visib":"10+","altim":1027.5,"slp":1027.4,"qcField":12,"presTend":-1.9,"maxT":24.4,"minT":17.8,"metarType":"METAR","rawOb":"METAR KMYR 131753Z 17011KT 10SM CLR 24/15 A3034 RMK AO2 SLP274 T02440150 10244 20178 58019 $","lat":33.6769,"lon":-78.9325,"elev":7,"name":"Myrtle Beach Intl, SC, US","cover":"CLR","clouds":[],"fltCat":"VFR"},{"icaoId":"KDVT","receiptTime":"2026-04-13T17:57:16.003Z","obsTime":1776102780,"reportTime":"2026-04-13T18:00:00.000Z","temp":21.7,"dewp":7.2,"wdir":"VRB","wspd":3,"visib":"10+","altim":1015.3,"slp":1013.5,"qcField":12,"maxT":22.2,"minT":14.4,"metarType":"METAR","rawOb":"METAR KDVT 131753Z VRB03KT 10SM 22/07 A2998 RMK AO2 SLP135 T02170072 10222 20144 50000 $","lat":33.6902,"lon":-112.0662,"elev":454,"name":"Phoenix/Deer Valley Arpt, AZ, US"},{"icaoId":"KFMN","receiptTime":"2026-04-13T17:57:15.539Z","obsTime":1776102780,"reportTime":"2026-04-13T18:00:00.000Z","temp":15.6,"dewp":-3.9,"wdir":190,"wspd":7,"wgst":19,"visib":"10+","altim":1018.4,"slp":1014.4,"qcField":4,"presTend":-0.3,"maxT":15.6,"minT":6.1,"metarType":"METAR","rawOb":"METAR KFMN 131753Z 19007G19KT 160V260 10SM CLR 16/M04 A3007 RMK AO2 SLP144 T01561039 10156 20061 58003","lat":36.7435,"lon":-108.2293,"elev":1677,"name":"Farmington/Four Corners Rgnl, NM, US","cover":"CLR","clouds":[],"fltCat":"VFR"},{"icaoId":"KBLI","receiptTime":"2026-04-13T17:56:53.033Z","obsTime":1776102780,"reportTime":"2026-04-13T18:00:00.000Z","temp":11.1,"dewp":6.1,"wdir":170,"wspd":7,"wgst":15,"visib":"10+","altim":1016,"slp":1016.5,"qcField":4,"presTend":2.1,"maxT":11.1,"minT":8.9,"pcp6hr":0.04,"metarType":"METAR","rawOb":"METAR KBLI 131753Z 17007G15KT 10SM BKN048 OVC060 11/06 A3000 RMK AO2 SLP165 60004 T01110061 10111 20089 51021","lat":48.7991,"lon":-122.5407,"elev":46,"name":"Bellingham Intl, WA, US","cover":"OVC","clouds":[{"cover":"BKN","base":4800},{"cover":"OVC","base":6000}],"fltCat":"VFR"},{"icaoId":"KBUR","receiptTime":"2026-04-13T17:57:08.059Z","obsTime":1776102780,"reportTime":"2026-04-13T18:00:00.000Z","temp":16.1,"dewp":5,"wdir":"VRB","wspd":4,"visib":"10+","altim":1017.7,"slp":1016.8,"qcField":4,"presTend":0.4,"maxT":16.1,"minT":11.1,"metarType":"METAR","rawOb":"METAR KBUR 131753Z VRB04KT 10SM FEW041 16/05 A3005 RMK AO2 SLP168 T01610050 10161 20111 51004","lat":34.1996,"lon":-118.3654,"elev":221,"name":"Burbank/Bob Hope Arpt, CA, US","cover":"FEW","clouds":[{"cover":"FEW","base":4100}],"fltCat":"VFR"},{"icaoId":"KASE","receiptTime":"2026-04-13T17:56:56.109Z","obsTime":1776102780,"reportTime":"2026-04-13T18:00:00.000Z","temp":11.1,"dewp":-11.7,"wdir":190,"wspd":7,"wgst":22,"visib":"10+","altim":1016.7,"slp":1007.7,"qcField":4,"presTend":-0.6,"maxT":11.1,"minT":5.6,"metarType":"METAR","rawOb":"METAR KASE 131753Z 19007G22KT 150V260 10SM CLR 11/M12 A3002 RMK AO2 SLP077 T01111117 10111 20056 58006","lat":39.2299,"lon":-106.8705,"elev":2384,"name":"Aspen/Pitkin Cnty, CO, US","cover":"CLR","clouds":[],"fltCat":"VFR"},{"icaoId":"KBCE","receiptTime":"2026-04-13T17:56:56.298Z","obsTime":1776102780,"reportTime":"2026-04-13T18:00:00.000Z","temp":4.4,"dewp":0.6,"wdir":270,"wspd":6,"visib":"10+","altim":1017.7,"slp":1011.9,"qcField":6,"presTend":-0.3,"maxT":4.4,"minT":0,"precip":0.005,"pcp6hr":0.24,"metarType":"METAR","rawOb":"METAR KBCE 131753Z AUTO 27006KT 10SM FEW032 SCT041 OVC060 04/01 A3005 RMK AO2 UPB06E10SNB1655E06 SLP119 P0000 60024 T00440006 10044 20000 58003","lat":37.7013,"lon":-112.149,"elev":2311,"name":"Bryce Canyon Arpt, UT, US","cover":"OVC","clouds":[{"cover":"FEW","base":3200},{"cover":"SCT","base":4100},{"cover":"OVC","base":6000}],"fltCat":"VFR"},{"icaoId":"KAPA","receiptTime":"2026-04-13T17:56:56.026Z","obsTime":1776102780,"reportTime":"2026-04-13T18:00:00.000Z","temp":17.8,"dewp":-12.8,"wdir":"VRB","wspd":5,"visib":"10+","altim":1012.3,"slp":1006.9,"qcField":4,"presTend":-0.5,"maxT":17.8,"minT":8.3,"metarType":"METAR","rawOb":"METAR KAPA 131753Z VRB05KT 10SM FEW120 SCT220 18/M13 A2989 RMK AO2 SLP069 T01781128 10178 20083 58005","lat":39.5599,"lon":-104.8484,"elev":1791,"name":"Denver/Centennial Arpt, CO, US","cover":"SCT","clouds":[{"cover":"FEW","base":12000},{"cover":"SCT","base":22000}],"fltCat":"VFR"},{"icaoId":"KGSP","receiptTime":"2026-04-13T17:57:01.839Z","obsTime":1776102780,"reportTime":"2026-04-13T18:00:00.000Z","temp":24.4,"dewp":13.3,"wdir":250,"wspd":9,"wgst":15,"visib":"10+","altim":1026.2,"slp":1025.2,"qcField":4,"presTend":-1.8,"maxT":24.4,"minT":15.6,"metarType":"METAR","rawOb":"METAR KGSP 131753Z 25009G15KT 10SM CLR 24/13 A3030 RMK AO2 SLP252 T02440133 10244 20156 58018","lat":34.8842,"lon":-82.2209,"elev":285,"name":"Greenville-Spartanburg Intl, SC, US","cover":"CLR","clouds":[],"fltCat":"VFR"},{"icaoId":"KPSP","receiptTime":"2026-04-13T17:57:06.876Z","obsTime":1776102780,"reportTime":"2026-04-13T18:00:00.000Z","temp":21.1,"dewp":1.7,"wdir":"VRB","wspd":5,"visib":"10+","altim":1015.7,"slp":1015.4,"qcField":4,"presTend":0.2,"maxT":21.1,"minT":13.3,"metarType":"METAR","rawOb":"METAR KPSP 131753Z VRB05KT 10SM FEW100 21/02 A2999 RMK AO2 SLP154 T02110017 10211 20133 50002","lat":33.8222,"lon":-116.5043,"elev":123,"name":"Palm Springs Intl, CA, US","cover":"FEW","clouds":[{"cover":"FEW","base":10000}],"fltCat":"VFR"},{"icaoId":"KGJT","receiptTime":"2026-04-13T17:57:02.933Z","obsTime":1776102780,"reportTime":"2026-04-13T18:00:00.000Z","temp":15.6,"dewp":-7.2,"wdir":330,"wspd":6,"visib":"10+","altim":1014.6,"slp":1009.6,"qcField":4,"presTend":-1,"maxT":16.1,"minT":8.3,"metarType":"METAR","rawOb":"METAR KGJT 131753Z 33006KT 10SM BKN100 16/M07 A2996 RMK AO2 SLP096 T01561072 10161 20083 58010","lat":39.1344,"lon":-108.5408,"elev":1475,"name":"Grand Junction Rgnl, CO, US","cover":"BKN","clouds":[{"cover":"BKN","base":10000}],"fltCat":"VFR"},{"icaoId":"KMOD","receiptTime":"2026-04-13T17:57:13.703Z","obsTime":1776102780,"reportTime":"2026-04-13T18:00:00.000Z","temp":14.4,"dewp":8.9,"wdir":320,"wspd":9,"visib":"10+","altim":1020.1,"slp":1019.8,"qcField":6,"presTend":1.5,"maxT":15,"minT":10,"metarType":"METAR","rawOb":"METAR KMOD 131753Z AUTO 32009KT 10SM SCT020 BKN032 OVC040 14/09 A3012 RMK AO2 SLP198 T01440089 10150 20100 53015","lat":37.6254,"lon":-120.9549,"elev":25,"name":"Modesto/Sham Fld, CA, US","cover":"OVC","clouds":[{"cover":"SCT","base":2000},{"cover":"BKN","base":3200},{"cover":"OVC","base":4000}],"fltCat":"VFR"},{"icaoId":"KPUB","receiptTime":"2026-04-13T17:57:06.944Z","obsTime":1776102780,"reportTime":"2026-04-13T18:00:00.000Z","temp":21.7,"dewp":-11.1,"wdir":90,"wspd":8,"visib":"10+","altim":1011.6,"slp":1006.5,"qcField":12,"presTend":-0.7,"maxT":22.8,"minT":6.1,"metarType":"METAR","rawOb":"METAR KPUB 131753Z 09008KT 10SM CLR 22/M11 A2987 RMK AO2 SLP065 T02171111 10228 20061 58007 $","lat":38.2887,"lon":-104.5057,"elev":1441,"name":"Pueblo Mem Arpt, CO, US","cover":"CLR","clouds":[],"fltCat":"VFR"},{"icaoId":"KRTN","receiptTime":"2026-04-13T17:57:13.372Z","obsTime":1776102780,"reportTime":"2026-04-13T18:00:00.000Z","temp":18.3,"dewp":-8.3,"wdir":240,"wspd":11,"wgst":20,"visib":"10+","altim":1016,"slp":1009.9,"qcField":6,"presTend":-0.5,"maxT":18.3,"minT":3.3,"metarType":"METAR","rawOb":"METAR KRTN 131753Z AUTO 24011G20KT 220V280 10SM CLR 18/M08 A3000 RMK AO2 SLP099 T01831083 10183 20033 58005","lat":36.7418,"lon":-104.5076,"elev":1939,"name":"Raton/Crews Fld, NM, US","cover":"CLR","clouds":[],"fltCat":"VFR"},{"icaoId":"KSAF","receiptTime":"2026-04-13T17:57:06.492Z","obsTime":1776102780,"reportTime":"2026-04-13T18:00:00.000Z","temp":16.1,"dewp":-1.7,"wdir":230,"wspd":14,"wgst":27,"visib":"10+","altim":1020.1,"slp":1012.6,"qcField":12,"maxT":16.7,"minT":7.2,"metarType":"METAR","rawOb":"METAR KSAF 131753Z 23014G27KT 10SM FEW110 16/M02 A3012 RMK AO2 PK WND 22030/1710 SLP126 ACSL S T01611017 10167 20072 50000 $","lat":35.611,"lon":-106.0957,"elev":1918,"name":"Santa Fe Cnty Muni, NM, US","cover":"FEW","clouds":[{"cover":"FEW","base":11000}],"fltCat":"VFR"},{"icaoId":"KPDX","receiptTime":"2026-04-13T17:57:05.662Z","obsTime":1776102780,"reportTime":"2026-04-13T18:00:00.000Z","temp":11.1,"dewp":5,"wdir":250,"wspd":5,"visib":"10+","altim":1020.4,"slp":1020.2,"qcField":4,"presTend":2.1,"maxT":11.1,"minT":8.9,"precip":0.005,"pcp6hr":0.03,"metarType":"METAR","rawOb":"METAR KPDX 131753Z 25005KT 10SM FEW020 BKN033 OVC065 11/05 A3013 RMK AO2 RAB1656E20 SLP202 P0000 60003 T01110050 10111 20089 51021","lat":45.5958,"lon":-122.6092,"elev":7,"name":"Portland Intl, OR, US","cover":"OVC","clouds":[{"cover":"FEW","base":2000},{"cover":"BKN","base":3300},{"cover":"OVC","base":6500}],"fltCat":"VFR"},{"icaoId":"KPGA","receiptTime":"2026-04-13T17:57:05.676Z","obsTime":1776102780,"reportTime":"2026-04-13T18:00:00.000Z","temp":16.7,"dewp":-3.3,"wdir":350,"wspd":8,"visib":"","altim":1015.3,"slp":1010.9,"qcField":14,"presTend":-0.5,"maxT":16.7,"minT":9.4,"metarType":"METAR","rawOb":"METAR KPGA 131753Z AUTO 35008KT 300V020 BKN080 17/M03 A2998 RMK AO2 SLP109 T01671033 10167 20094 58005 $","lat":36.9211,"lon":-111.4487,"elev":1310,"name":"Page Muni, AZ, US","cover":"BKN","clouds":[{"cover":"BKN","base":8000}]},{"icaoId":"KLAW","receiptTime":"2026-04-13T17:56:47.300Z","obsTime":1776102780,"reportTime":"2026-04-13T18:00:00.000Z","temp":28.9,"dewp":20.6,"wdir":200,"wspd":11,"wgst":21,"visib":"10+","altim":1014,"slp":1012.7,"qcField":4,"presTend":-1.2,"maxT":28.9,"minT":20,"metarType":"METAR","rawOb":"METAR KLAW 131753Z 20011G21KT 10SM FEW039 29/21 A2994 RMK AO2 SLP127 T02890206 10289 20200 58012","lat":34.5577,"lon":-98.4172,"elev":328,"name":"Lawton-Fort Sill Rgnl, OK, US","cover":"FEW","clouds":[{"cover":"FEW","base":3900}],"fltCat":"VFR"},{"icaoId":"KLBB","receiptTime":"2026-04-13T17:57:05.458Z","obsTime":1776102780,"reportTime":"2026-04-13T18:00:00.000Z","temp":28.9,"dewp":1.1,"wdir":250,"wspd":22,"wgst":33,"visib":"10+","altim":1016.7,"slp":1011.3,"qcField":4,"presTend":-1,"maxT":28.9,"minT":16.1,"metarType":"METAR","rawOb":"METAR KLBB 131753Z 25022G33KT 10SM FEW140 FEW170 BKN250 29/01 A3002 RMK AO2 PK WND 24037/1722 SLP113 VIRGA DSNT W-NW ACSL DSNT NW-NE T02890011 10289 20161 58010","lat":33.6658,"lon":-101.8233,"elev":996,"name":"Lubbock Intl Arpt, TX, US","cover":"BKN","clouds":[{"cover":"FEW","base":14000},{"cover":"FEW","base":17000},{"cover":"BKN","base":25000}],"fltCat":"VFR"},{"icaoId":"KMDW","receiptTime":"2026-04-13T17:57:14.797Z","obsTime":1776102780,"reportTime":"2026-04-13T18:00:00.000Z","temp":23.3,"dewp":17.8,"wdir":240,"wspd":12,"visib":"10+","altim":1013.3,"slp":1012.5,"qcField":4,"presTend":-0.7,"maxT":23.3,"minT":18.3,"pcp6hr":0.005,"metarType":"METAR","rawOb":"METAR KMDW 131753Z 24012KT 10SM BKN026 OVC033 23/18 A2992 RMK AO2 SLP125 60000 T02330178 10233 20183 58007","lat":41.7841,"lon":-87.7552,"elev":186,"name":"Chicago/Midway Intl, IL, US","cover":"OVC","clouds":[{"cover":"BKN","base":2600},{"cover":"OVC","base":3300}],"fltCat":"MVFR"},{"icaoId":"KHOU","receiptTime":"2026-04-13T17:56:54.181Z","obsTime":1776102780,"reportTime":"2026-04-13T18:00:00.000Z","temp":26.7,"dewp":20.6,"wdir":180,"wspd":13,"visib":"10+","altim":1020.1,"slp":1020.5,"qcField":12,"presTend":-0.4,"maxT":27.2,"minT":22.8,"metarType":"METAR","rawOb":"METAR KHOU 131753Z 18013KT 10SM SCT025 OVC045 27/21 A3012 RMK AO2 SLP205 T02670206 10272 20228 58004 $","lat":29.6458,"lon":-95.2821,"elev":13,"name":"Houston/Hobby Arpt, TX, US","cover":"OVC","clouds":[{"cover":"SCT","base":2500},{"cover":"OVC","base":4500}],"fltCat":"VFR"},{"icaoId":"KIAH","receiptTime":"2026-04-13T17:56:47.242Z","obsTime":1776102780,"reportTime":"2026-04-13T18:00:00.000Z","temp":27.2,"dewp":21.1,"wdir":160,"wspd":8,"wgst":18,"visib":"10+","altim":1020.1,"slp":1019.9,"qcField":4,"presTend":-0.7,"maxT":27.2,"minT":22.2,"metarType":"METAR","rawOb":"METAR KIAH 131753Z 16008G18KT 10SM SCT030 OVC050 27/21 A3012 RMK AO2 SLP199 T02720211 10272 20222 58007","lat":29.9844,"lon":-95.3607,"elev":27,"name":"Houston/Bush Intl, TX, US","cover":"OVC","clouds":[{"cover":"SCT","base":3000},{"cover":"OVC","base":5000}],"fltCat":"VFR"},{"icaoId":"KCNM","receiptTime":"2026-04-13T17:57:03.806Z","obsTime":1776102780,"reportTime":"2026-04-13T18:00:00.000Z","temp":29.4,"dewp":1.7,"wdir":210,"wspd":15,"wgst":21,"visib":"10+","altim":1017.7,"slp":1012,"qcField":6,"presTend":-1.4,"maxT":29.4,"minT":15.6,"metarType":"METAR","rawOb":"METAR KCNM 131753Z AUTO 21015G21KT 10SM CLR 29/02 A3005 RMK AO2 PK WND 23029/1721 SLP120 T02940017 10294 20156 58014","lat":32.3336,"lon":-104.2584,"elev":993,"name":"Carlsbad/Cavern City Air Term, NM, US","cover":"CLR","clouds":[],"fltCat":"VFR"},{"icaoId":"KPRC","receiptTime":"2026-04-13T17:57:06.846Z","obsTime":1776102780,"reportTime":"2026-04-13T18:00:00.000Z","temp":15,"dewp":1.7,"wdir":220,"wspd":16,"wgst":23,"visib":"10+","altim":1017.4,"slp":1012.3,"qcField":4,"presTend":-0.1,"maxT":15,"minT":5.6,"metarType":"METAR","rawOb":"METAR KPRC 131753Z 22016G23KT 10SM CLR 15/02 A3004 RMK AO2 SLP123 T01500017 10150 20056 58001","lat":34.6491,"lon":-112.4223,"elev":1528,"name":"Prescott/Love Fld, AZ, US","cover":"CLR","clouds":[],"fltCat":"VFR"},{"icaoId":"KMTJ","receiptTime":"2026-04-13T17:57:13.873Z","obsTime":1776102780,"reportTime":"2026-04-13T18:00:00.000Z","temp":16.7,"dewp":-6.7,"wdir":240,"wspd":16,"wgst":26,"visib":"10+","altim":1016,"slp":1010,"qcField":6,"presTend":-1.7,"maxT":16.7,"minT":10,"metarType":"METAR","rawOb":"METAR KMTJ 131753Z AUTO 24016G26KT 10SM BKN090 17/M07 A3000 RMK AO2 PK WND 22026/1744 SLP100 T01671067 10167 20100 58017","lat":38.5054,"lon":-107.8981,"elev":1755,"name":"Montrose Rgnl, CO, US","cover":"BKN","clouds":[{"cover":"BKN","base":9000}],"fltCat":"VFR"},{"icaoId":"KOAK","receiptTime":"2026-04-13T17:57:14.050Z","obsTime":1776102780,"reportTime":"2026-04-13T18:00:00.000Z","temp":14.4,"dewp":8.9,"wdir":280,"wspd":8,"visib":"10+","altim":1020.7,"slp":1020.6,"qcField":12,"presTend":1.2,"maxT":14.4,"minT":8.3,"metarType":"METAR","rawOb":"METAR KOAK 131753Z 28008KT 10SM SCT025 14/09 A3014 RMK AO2 SLP206 T01440089 10144 20083 51012 $","lat":37.7178,"lon":-122.233,"elev":3,"name":"Oakland Intl, CA, US","cover":"SCT","clouds":[{"cover":"SCT","base":2500}],"fltCat":"VFR"},{"icaoId":"KDMN","receiptTime":"2026-04-13T17:57:15.343Z","obsTime":1776102780,"reportTime":"2026-04-13T18:00:00.000Z","temp":23.3,"dewp":1.7,"wdir":230,"wspd":18,"wgst":26,"visib":"10+","altim":1020.1,"slp":1013.7,"qcField":6,"presTend":-0.7,"maxT":23.9,"minT":12.2,"metarType":"METAR","rawOb":"METAR KDMN 131753Z AUTO 23018G26KT 10SM FEW090 23/02 A3012 RMK AO2 PK WND 22031/1724 SLP137 T02330017 10239 20122 58007","lat":32.2592,"lon":-107.7206,"elev":1310,"name":"Deming Muni, NM, US","cover":"FEW","clouds":[{"cover":"FEW","base":9000}],"fltCat":"VFR"},{"icaoId":"KELY","receiptTime":"2026-04-13T17:57:15.407Z","obsTime":1776102780,"reportTime":"2026-04-13T18:00:00.000Z","temp":-1.1,"dewp":-2.8,"wdir":170,"wspd":6,"visib":"10+","altim":1017,"slp":1017.5,"qcField":6,"presTend":0.1,"maxT":-1.1,"minT":-11.1,"pcp6hr":0.005,"metarType":"METAR","rawOb":"METAR KELY 131753Z AUTO 17006KT 10SM CLR M01/M03 A3003 RMK AO2 SLP175 60000 I6000 T10111028 11011 21111 52001","lat":39.2954,"lon":-114.8466,"elev":1906,"name":"Ely/Yelland Fld, NV, US","cover":"CLR","clouds":[],"fltCat":"VFR"},{"icaoId":"KEVW","receiptTime":"2026-04-13T17:57:16.233Z","obsTime":1776102780,"reportTime":"2026-04-13T18:00:00.000Z","temp":4.4,"dewp":-3.3,"wdir":240,"wspd":9,"wgst":15,"visib":"10+","altim":1016.7,"slp":1014.6,"qcField":6,"presTend":0.2,"maxT":4.4,"minT":-4.4,"metarType":"METAR","rawOb":"METAR KEVW 131753Z AUTO 24009G15KT 10SM CLR 04/M03 A3002 RMK AO2 SLP146 T00441033 10044 21044 50002","lat":41.2727,"lon":-111.0305,"elev":2178,"name":"Evanston/Uinta Cnty, WY, US","cover":"CLR","clouds":[],"fltCat":"VFR"},{"icaoId":"KTUL","receiptTime":"2026-04-13T17:57:16.709Z","obsTime":1776102780,"reportTime":"2026-04-13T18:00:00.000Z","temp":26.7,"dewp":20,"wdir":190,"wspd":17,"wgst":27,"visib":"10+","altim":1013.6,"slp":1012.6,"qcField":4,"presTend":-1.5,"maxT":26.7,"minT":21.7,"metarType":"METAR","rawOb":"METAR KTUL 131753Z 19017G27KT 10SM SCT036 BKN200 27/20 A2993 RMK AO2 PK WND 19032/1734 SLP126 T02670200 10267 20217 58015","lat":36.1985,"lon":-95.8782,"elev":196,"name":"Tulsa Intl Arpt, OK, US","cover":"BKN","clouds":[{"cover":"SCT","base":3600},{"cover":"BKN","base":20000}],"fltCat":"VFR"},{"icaoId":"KVEL","receiptTime":"2026-04-13T17:57:17.009Z","obsTime":1776102780,"reportTime":"2026-04-13T18:00:00.000Z","temp":12.2,"dewp":-8.3,"wdir":190,"wspd":13,"wgst":19,"visib":"10+","altim":1015.3,"slp":1011.6,"qcField":6,"presTend":-0.5,"maxT":12.2,"minT":5.6,"metarType":"METAR","rawOb":"METAR KVEL 131753Z AUTO 19013G19KT 10SM SCT110 12/M08 A2998 RMK AO2 SLP116 T01221083 10122 20056 57005","lat":40.4429,"lon":-109.5128,"elev":1604,"name":"Vernal Rgnl, UT, US","cover":"SCT","clouds":[{"cover":"SCT","base":11000}],"fltCat":"VFR"},{"icaoId":"PANC","receiptTime":"2026-04-13T17:57:17.439Z","obsTime":1776102780,"reportTime":"2026-04-13T18:00:00.000Z","temp":1.7,"dewp":-3.3,"wdir":180,"wspd":4,"visib":"10+","altim":1002.1,"slp":1002.2,"qcField":4,"presTend":1.3,"maxT":1.7,"minT":-0.6,"snow":15000,"metarType":"METAR","rawOb":"METAR PANC 131753Z 18004KT 10SM BKN070 OVC085 02/M03 A2959 RMK AO2 SLP022 4/015 T00171033 10017 21006 52013","lat":61.1691,"lon":-150.0277,"elev":39,"name":"Anchorage Intl, AK, US","cover":"OVC","clouds":[{"cover":"BKN","base":7000},{"cover":"OVC","base":8500}],"fltCat":"VFR"},{"icaoId":"KDTW","receiptTime":"2026-04-13T17:57:15.962Z","obsTime":1776102780,"reportTime":"2026-04-13T18:00:00.000Z","temp":25,"dewp":15.6,"wdir":260,"wspd":15,"wgst":24,"visib":"10+","altim":1014.3,"slp":1013.6,"qcField":4,"presTend":0.4,"maxT":25,"minT":17.8,"pcp6hr":0.01,"metarType":"METAR","rawOb":"METAR KDTW 131753Z 26015G24KT 10SM BKN045 25/16 A2995 RMK AO2 PK WND 25027/1724 SLP136 60001 T02500156 10250 20178 52004","lat":42.2311,"lon":-83.3312,"elev":192,"name":"Detroit/Metro Wayne Cnty, MI, US","cover":"BKN","clouds":[{"cover":"BKN","base":4500}],"fltCat":"VFR"},{"icaoId":"KDRO","receiptTime":"2026-04-13T17:57:15.908Z","obsTime":1776102780,"reportTime":"2026-04-13T18:00:00.000Z","temp":13.3,"dewp":-3.9,"wdir":240,"wspd":12,"wgst":20,"visib":"10+","altim":1019.4,"slp":1014.5,"qcField":6,"presTend":-0.6,"maxT":13.3,"minT":0.6,"metarType":"METAR","rawOb":"METAR KDRO 131753Z AUTO 24012G20KT 10SM CLR 13/M04 A3010 RMK AO2 SLP145 T01331039 10133 20006 58006","lat":37.1431,"lon":-107.7602,"elev":2021,"name":"Durango/La Plata Cnty, CO, US","cover":"CLR","clouds":[],"fltCat":"VFR"},{"icaoId":"KDAL","receiptTime":"2026-04-13T17:57:15.277Z","obsTime":1776102780,"reportTime":"2026-04-13T18:00:00.000Z","temp":26.7,"dewp":20,"wdir":210,"wspd":13,"wgst":19,"visib":"10+","altim":1017.7,"slp":1016.8,"qcField":4,"presTend":-0.7,"maxT":26.7,"minT":21.7,"metarType":"METAR","rawOb":"METAR KDAL 131753Z 21013G19KT 10SM SCT028 BKN048 BKN250 27/20 A3005 RMK AO2 SLP168 T02670200 10267 20217 58007","lat":32.8384,"lon":-96.8358,"elev":148,"name":"Dallas/Love Fld, TX, US","cover":"BKN","clouds":[{"cover":"SCT","base":2800},{"cover":"BKN","base":4800},{"cover":"BKN","base":25000}],"fltCat":"VFR"},{"icaoId":"KSNA","receiptTime":"2026-04-13T17:57:12.220Z","obsTime":1776102780,"reportTime":"2026-04-13T18:00:00.000Z","temp":16.1,"dewp":7.2,"wdir":240,"wspd":3,"visib":"10+","altim":1018.7,"slp":1018.4,"qcField":12,"presTend":1,"maxT":16.1,"minT":13.9,"precip":0.005,"pcp6hr":0.005,"metarType":"METAR","rawOb":"METAR KSNA 131753Z 24003KT 10SM FEW023 BKN055 BKN070 16/07 A3008 RMK AO2 RAE18 SLP184 P0000 60000 T01610072 10161 20139 53010 $","lat":33.6798,"lon":-117.8675,"elev":14,"name":"Santa Ana/Wayne Arpt, CA, US","cover":"BKN","clouds":[{"cover":"FEW","base":2300},{"cover":"BKN","base":5500},{"cover":"BKN","base":7000}],"fltCat":"VFR"},{"icaoId":"KLGB","receiptTime":"2026-04-13T17:57:06.304Z","obsTime":1776102780,"reportTime":"2026-04-13T18:00:00.000Z","temp":16.7,"dewp":6.1,"wdir":0,"wspd":0,"visib":"10+","altim":1018,"slp":1017.9,"qcField":12,"presTend":0.6,"maxT":17.8,"minT":13.9,"pcp6hr":0.005,"metarType":"METAR","rawOb":"METAR KLGB 131753Z 00000KT 10SM SCT045 17/06 A3006 RMK AO2 SLP179 60000 T01670061 10178 20139 51006 $","lat":33.8118,"lon":-118.1472,"elev":10,"name":"Long Beach Arpt, CA, US","cover":"SCT","clouds":[{"cover":"SCT","base":4500}],"fltCat":"VFR"},{"icaoId":"KPAE","receiptTime":"2026-04-13T17:57:12.975Z","obsTime":1776102780,"reportTime":"2026-04-13T18:00:00.000Z","temp":7.8,"dewp":7.2,"wdir":140,"wspd":6,"visib":4,"altim":1018,"slp":1018,"qcField":4,"wxString":"-RA BR","presTend":2.3,"maxT":8.3,"minT":7.2,"precip":0.05,"pcp6hr":0.5,"metarType":"METAR","rawOb":"METAR KPAE 131753Z 14006KT 4SM -RA BR BKN004 BKN019 OVC030 08/07 A3006 RMK AO2 RAE33B41 SLP180 P0005 60050 T00780072 10083 20072 51023","lat":47.9232,"lon":-122.2831,"elev":166,"name":"Everett/Paine Fld, WA, US","cover":"OVC","clouds":[{"cover":"BKN","base":400},{"cover":"BKN","base":1900},{"cover":"OVC","base":3000}],"fltCat":"LIFR"},{"icaoId":"KCRQ","receiptTime":"2026-04-13T17:57:15.197Z","obsTime":1776102780,"reportTime":"2026-04-13T18:00:00.000Z","temp":16.1,"dewp":8.9,"wdir":"VRB","wspd":5,"visib":"10+","altim":1018.4,"slp":1018.2,"qcField":4,"presTend":1.6,"maxT":16.1,"minT":12.8,"pcp6hr":0.04,"metarType":"METAR","rawOb":"METAR KCRQ 131753Z VRB05KT 10SM FEW024 SCT029 BKN050 16/09 A3007 RMK AO2 SLP182 60004 T01610089 10161 20128 51016","lat":33.1299,"lon":-117.2765,"elev":96,"name":"Carlsbad/Palomar Arpt, CA, US","cover":"BKN","clouds":[{"cover":"FEW","base":2400},{"cover":"SCT","base":2900},{"cover":"BKN","base":5000}],"fltCat":"VFR"},{"icaoId":"KCYS","receiptTime":"2026-04-13T17:57:02.763Z","obsTime":1776102780,"reportTime":"2026-04-13T18:00:00.000Z","temp":15.6,"dewp":-11.1,"wdir":250,"wspd":22,"wgst":33,"visib":"10+","altim":1012.6,"slp":1006.6,"qcField":4,"presTend":-0.5,"maxT":16.1,"minT":5.6,"metarType":"METAR","rawOb":"METAR KCYS 131753Z 25022G33KT 10SM CLR 16/M11 A2990 RMK AO2 PK WND 26034/1735 SLP066 T01561111 10161 20056 58005","lat":41.1579,"lon":-104.8081,"elev":1868,"name":"Cheyenne Rgnl, WY, US","cover":"CLR","clouds":[],"fltCat":"VFR"},{"icaoId":"KDFW","receiptTime":"2026-04-13T17:57:03.444Z","obsTime":1776102780,"reportTime":"2026-04-13T18:00:00.000Z","temp":27.2,"dewp":20,"wdir":200,"wspd":16,"wgst":26,"visib":"10+","altim":1017,"slp":1016.2,"qcField":4,"presTend":-0.7,"maxT":27.2,"minT":20.6,"metarType":"METAR","rawOb":"METAR KDFW 131753Z 20016G26KT 10SM SCT027 BKN049 BKN250 27/20 A3003 RMK AO2 PK WND 22026/1725 SLP162 T02720200 10272 20206 58007","lat":32.8974,"lon":-97.022,"elev":168,"name":"Dallas-Ft Worth Intl, TX, US","cover":"BKN","clouds":[{"cover":"SCT","base":2700},{"cover":"BKN","base":4900},{"cover":"BKN","base":25000}],"fltCat":"VFR"},{"icaoId":"KCNY","receiptTime":"2026-04-13T17:57:15.160Z","obsTime":1776102780,"reportTime":"2026-04-13T18:00:00.000Z","temp":15,"dewp":-3.9,"wdir":250,"wspd":5,"visib":"10+","altim":1014.6,"slp":1010.7,"qcField":14,"presTend":-0.5,"maxT":16.1,"minT":6.1,"metarType":"METAR","rawOb":"METAR KCNY 131753Z AUTO 25005KT 10SM BKN095 15/M04 A2996 RMK AO2 SLP107 T01501039 10161 20061 58005 $","lat":38.7501,"lon":-109.7627,"elev":1392,"name":"Moab/Canyonland Fld, UT, US","cover":"BKN","clouds":[{"cover":"BKN","base":9500}],"fltCat":"VFR"},{"icaoId":"KLAR","receiptTime":"2026-04-13T17:57:03.183Z","obsTime":1776102780,"reportTime":"2026-04-13T18:00:00.000Z","temp":11.1,"dewp":-9.4,"wdir":260,"wspd":25,"wgst":39,"visib":"10+","altim":1014,"slp":1007.3,"qcField":6,"presTend":0.3,"maxT":11.1,"minT":0.6,"metarType":"METAR","rawOb":"METAR KLAR 131753Z AUTO 26025G39KT 10SM CLR 11/M09 A2994 RMK AO2 PK WND 26039/1749 SLP073 T01111094 10111 20006 50003","lat":41.3165,"lon":-105.6729,"elev":2217,"name":"Laramie Rgnl, WY, US","cover":"CLR","clouds":[],"fltCat":"VFR"},{"icaoId":"KMIA","receiptTime":"2026-04-13T17:57:14.941Z","obsTime":1776102780,"reportTime":"2026-04-13T18:00:00.000Z","temp":26.7,"dewp":15.6,"wdir":80,"wspd":16,"wgst":23,"visib":"10+","altim":1023.8,"slp":1023.5,"qcField":0,"presTend":-1.1,"maxT":27.8,"minT":22.8,"metarType":"METAR","rawOb":"METAR KMIA 131753Z 08016G23KT 10SM SCT044 27/16 A3023 RMK SLP235 T02670156 10278 20228 58011","lat":25.7881,"lon":-80.3169,"elev":1,"name":"Miami Intl, FL, US","cover":"SCT","clouds":[{"cover":"SCT","base":4400}],"fltCat":"VFR"},{"icaoId":"KMFR","receiptTime":"2026-04-13T17:57:14.838Z","obsTime":1776102780,"reportTime":"2026-04-13T18:00:00.000Z","temp":11.1,"dewp":4.4,"wdir":0,"wspd":0,"visib":"10+","altim":1020.1,"slp":1020.1,"qcField":12,"presTend":0.8,"maxT":11.7,"minT":7.2,"metarType":"METAR","rawOb":"METAR KMFR 131753Z 00000KT 10SM OVC050 11/04 A3012 RMK AO2 SLP201 T01110044 10117 20072 51008 $","lat":42.375,"lon":-122.877,"elev":397,"name":"Medford/Rogue Valley Intl, OR, US","cover":"OVC","clouds":[{"cover":"OVC","base":5000}],"fltCat":"VFR"},{"icaoId":"KPBI","receiptTime":"2026-04-13T17:57:13.047Z","obsTime":1776102780,"reportTime":"2026-04-13T18:00:00.000Z","temp":26.7,"dewp":15,"wdir":80,"wspd":14,"wgst":21,"visib":"10+","altim":1024.8,"slp":1024.7,"qcField":12,"presTend":-1,"maxT":27.2,"minT":22.8,"metarType":"METAR","rawOb":"METAR KPBI 131753Z 08014G21KT 10SM BKN044 BKN250 27/15 A3026 RMK AO2 SLP247 T02670150 10272 20228 58010 $","lat":26.6851,"lon":-80.0992,"elev":4,"name":"Palm Beach Intl, FL, US","cover":"BKN","clouds":[{"cover":"BKN","base":4400},{"cover":"BKN","base":25000}],"fltCat":"VFR"},{"icaoId":"KMFE","receiptTime":"2026-04-13T17:57:14.820Z","obsTime":1776102780,"reportTime":"2026-04-13T18:00:00.000Z","temp":29.4,"dewp":22.2,"wdir":140,"wspd":15,"visib":"10+","altim":1017.7,"slp":1017.2,"qcField":12,"presTend":-0.8,"maxT":30,"minT":23.3,"metarType":"METAR","rawOb":"METAR KMFE 131753Z 14015KT 10SM BKN028 OVC048 29/22 A3005 RMK AO2 SLP172 T02940222 10300 20233 58008 $","lat":26.1791,"lon":-98.2445,"elev":29,"name":"McAllen/Miller Intl, TX, US","cover":"OVC","clouds":[{"cover":"BKN","base":2800},{"cover":"OVC","base":4800}],"fltCat":"MVFR"},{"icaoId":"KMCO","receiptTime":"2026-04-13T17:57:14.758Z","obsTime":1776102780,"reportTime":"2026-04-13T18:00:00.000Z","temp":27.2,"dewp":14.4,"wdir":110,"wspd":8,"wgst":21,"visib":"10+","altim":1026.2,"slp":1025.9,"qcField":4,"presTend":-1.4,"maxT":27.8,"minT":17.8,"metarType":"METAR","rawOb":"METAR KMCO 131753Z 11008G21KT 10SM FEW049 BKN250 27/14 A3030 RMK AO2 SLP259 T02720144 10278 20178 58014","lat":28.4182,"lon":-81.3241,"elev":27,"name":"Orlando Intl, FL, US","cover":"BKN","clouds":[{"cover":"FEW","base":4900},{"cover":"BKN","base":25000}],"fltCat":"VFR"},{"icaoId":"KMCI","receiptTime":"2026-04-13T17:57:14.715Z","obsTime":1776102780,"reportTime":"2026-04-13T18:00:00.000Z","temp":24.4,"dewp":18.3,"wdir":190,"wspd":22,"wgst":33,"visib":"10+","altim":1009.2,"slp":1008.2,"qcField":4,"presTend":-1,"maxT":24.4,"minT":20.6,"metarType":"METAR","rawOb":"METAR KMCI 131753Z 19022G33KT 10SM BKN032 BKN250 24/18 A2980 RMK AO2 PK WND 21036/1712 SLP082 T02440183 10244 20206 58010","lat":39.2975,"lon":-94.7309,"elev":308,"name":"Kansas City Intl, MO, US","cover":"BKN","clouds":[{"cover":"BKN","base":3200},{"cover":"BKN","base":25000}],"fltCat":"VFR"},{"icaoId":"KMAF","receiptTime":"2026-04-13T17:57:14.593Z","obsTime":1776102780,"reportTime":"2026-04-13T18:00:00.000Z","temp":29.4,"dewp":3.3,"wdir":250,"wspd":13,"wgst":21,"visib":"10+","altim":1018.4,"slp":1013.4,"qcField":4,"presTend":-0.9,"maxT":29.4,"minT":18.9,"metarType":"METAR","rawOb":"METAR KMAF 131753Z 25013G21KT 10SM CLR 29/03 A3007 RMK AO2 SLP134 T02940033 10294 20189 58009","lat":31.9475,"lon":-102.2086,"elev":874,"name":"Midland Intl, TX, US","cover":"CLR","clouds":[],"fltCat":"VFR"},{"icaoId":"KBHM","receiptTime":"2026-04-13T17:56:52.949Z","obsTime":1776102780,"reportTime":"2026-04-13T18:00:00.000Z","temp":26.1,"dewp":12.2,"wdir":200,"wspd":11,"wgst":23,"visib":"10+","altim":1026.2,"slp":1025.2,"qcField":4,"presTend":-1.5,"maxT":26.1,"minT":15.6,"metarType":"METAR","rawOb":"METAR KBHM 131753Z 20011G23KT 10SM FEW047 FEW120 FEW250 26/12 A3030 RMK AO2 SLP252 T02610122 10261 20156 58015","lat":33.5655,"lon":-86.7449,"elev":191,"name":"Birmingham Intl, AL, US","cover":"FEW","clouds":[{"cover":"FEW","base":4700},{"cover":"FEW","base":12000},{"cover":"FEW","base":25000}],"fltCat":"VFR"},{"icaoId":"KBNA","receiptTime":"2026-04-13T17:56:53.084Z","obsTime":1776102780,"reportTime":"2026-04-13T18:00:00.000Z","temp":20,"dewp":16.1,"wdir":180,"wspd":5,"visib":7,"altim":1023.5,"slp":1022.9,"qcField":4,"wxString":"-RA","presTend":-0.7,"maxT":22.2,"minT":20,"precip":0.01,"pcp6hr":0.01,"metarType":"METAR","rawOb":"METAR KBNA 131753Z 18005KT 7SM -RA FEW043 SCT090 OVC110 20/16 A3022 RMK AO2 SLP229 P0001 60001 T02000161 10222 20200 58007","lat":36.1105,"lon":-86.6881,"elev":168,"name":"Nashville Intl, TN, US","cover":"OVC","clouds":[{"cover":"FEW","base":4300},{"cover":"SCT","base":9000},{"cover":"OVC","base":11000}],"fltCat":"VFR"},{"icaoId":"KDEN","receiptTime":"2026-04-13T17:58:24.812Z","obsTime":1776102780,"reportTime":"2026-04-13T18:00:00.000Z","temp":18.9,"dewp":-11.7,"wdir":200,"wspd":5,"visib":"10+","altim":1011.9,"slp":1006.2,"qcField":5,"presTend":-0.3,"maxT":18.9,"minT":8.3,"metarType":"METAR","rawOb":"METAR KDEN 131753Z COR 20005KT 10SM FEW090 FEW140 SCT220 19/M12 A2988 RMK AO2 SLP062 T01891117 10189 20083 58003","lat":39.8466,"lon":-104.6562,"elev":1656,"name":"Denver Intl, CO, US","cover":"SCT","clouds":[{"cover":"FEW","base":9000},{"cover":"FEW","base":14000},{"cover":"SCT","base":22000}],"fltCat":"VFR"},{"icaoId":"KACV","receiptTime":"2026-04-13T17:56:52.844Z","obsTime":1776102780,"reportTime":"2026-04-13T18:00:00.000Z","temp":11.1,"dewp":8.9,"wdir":270,"wspd":5,"visib":"10+","altim":1021.8,"slp":1022.2,"qcField":6,"presTend":1.2,"maxT":11.7,"minT":7.2,"metarType":"METAR","rawOb":"METAR KACV 131753Z AUTO 27005KT 10SM BKN047 11/09 A3017 RMK AO2 SLP222 T01110089 10117 20072 51012","lat":40.9784,"lon":-124.1048,"elev":63,"name":"Arcata Arpt, CA, US","cover":"BKN","clouds":[{"cover":"BKN","base":4700}],"fltCat":"VFR"},{"icaoId":"KBFI","receiptTime":"2026-04-13T17:56:52.882Z","obsTime":1776102780,"reportTime":"2026-04-13T18:00:00.000Z","temp":10.6,"dewp":5,"wdir":170,"wspd":10,"wgst":19,"visib":"10+","altim":1017.7,"slp":1017.7,"qcField":4,"wxString":"-RA","presTend":2.3,"maxT":11.1,"minT":9.4,"precip":0.005,"pcp6hr":0.005,"metarType":"METAR","rawOb":"METAR KBFI 131753Z 17010G19KT 10SM -RA BKN019 OVC022 11/05 A3005 RMK AO2 RAB10 SLP177 P0000 60000 T01060050 10111 20094 51023","lat":47.5455,"lon":-122.3148,"elev":7,"name":"Seattle/Boeing Fld, WA, US","cover":"OVC","clouds":[{"cover":"BKN","base":1900},{"cover":"OVC","base":2200}],"fltCat":"MVFR"},{"icaoId":"KFUL","receiptTime":"2026-04-13T17:56:54.578Z","obsTime":1776102780,"reportTime":"2026-04-13T18:00:00.000Z","temp":16.7,"dewp":8.3,"wdir":190,"wspd":5,"visib":"10+","altim":1018,"slp":1017.8,"qcField":6,"wxString":"-RA","presTend":0.9,"maxT":17.2,"minT":12.8,"precip":0.005,"pcp6hr":0.005,"metarType":"METAR","rawOb":"METAR KFUL 131753Z AUTO 19005KT 10SM -RA FEW033 BKN065 OVC075 17/08 A3006 RMK AO2 RAB52 SLP178 P0000 60000 T01670083 10172 20128 53009","lat":33.8715,"lon":-117.9856,"elev":23,"name":"Fullerton Muni, CA, US","cover":"OVC","clouds":[{"cover":"FEW","base":3300},{"cover":"BKN","base":6500},{"cover":"OVC","base":7500}],"fltCat":"VFR"},{"icaoId":"KLVS","receiptTime":"2026-04-13T17:57:14.478Z","obsTime":1776102780,"reportTime":"2026-04-13T18:00:00.000Z","temp":16.1,"dewp":-3.9,"wdir":190,"wspd":22,"wgst":29,"visib":"10+","altim":1019,"slp":1010.5,"qcField":14,"presTend":0.1,"maxT":16.1,"minT":8.3,"metarType":"METAR","rawOb":"METAR KLVS 131753Z AUTO 19022G29KT 10SM CLR 16/M04 A3009 RMK AO2 PK WND 19037/1721 SLP105 6//// T01611039 10161 20083 50001 PNO $","lat":35.6558,"lon":-105.1385,"elev":2095,"name":"Las Vegas Muni, NM, US","cover":"CLR","clouds":[],"fltCat":"VFR"},{"icaoId":"KLOL","receiptTime":"2026-04-13T17:57:14.273Z","obsTime":1776102780,"reportTime":"2026-04-13T18:00:00.000Z","temp":9.4,"dewp":-3.9,"wdir":"VRB","wspd":3,"visib":"10+","altim":1017.7,"slp":1017.5,"qcField":14,"presTend":0.6,"maxT":9.4,"minT":-3.3,"metarType":"METAR","rawOb":"METAR KLOL 131753Z AUTO VRB03KT 10SM CLR 09/M04 A3005 RMK AO2 SLP175 T00941039 10094 21033 50006 $","lat":40.0684,"lon":-118.5702,"elev":1191,"name":"Lovelock/Derby Fld, NV, US","cover":"CLR","clouds":[],"fltCat":"VFR"},{"icaoId":"KOGD","receiptTime":"2026-04-13T17:57:14.142Z","obsTime":1776102780,"reportTime":"2026-04-13T18:00:00.000Z","temp":8.9,"dewp":-0.6,"wdir":0,"wspd":0,"visib":"10+","altim":1016.3,"slp":1015.7,"qcField":4,"presTend":0.1,"maxT":9.4,"minT":1.7,"metarType":"METAR","rawOb":"METAR KOGD 131753Z 00000KT 10SM BKN045 09/M01 A3001 RMK AO2 SLP157 T00891006 10094 20017 50001","lat":41.1941,"lon":-112.0168,"elev":1356,"name":"Ogden/Hinckley Arpt, UT, US","cover":"BKN","clouds":[{"cover":"BKN","base":4500}],"fltCat":"VFR"},{"icaoId":"KMYF","receiptTime":"2026-04-13T17:57:14.004Z","obsTime":1776102780,"reportTime":"2026-04-13T18:00:00.000Z","temp":16.7,"dewp":7.8,"wdir":280,"wspd":8,"wgst":17,"visib":"10+","altim":1018.7,"slp":1018.3,"qcField":4,"presTend":1.1,"maxT":17.8,"minT":14.4,"metarType":"METAR","rawOb":"METAR KMYF 131753Z 28008G17KT 10SM BKN016 BKN048 17/08 A3008 RMK AO2 SLP183 T01670078 10178 20144 53011","lat":32.8145,"lon":-117.1375,"elev":128,"name":"San Diego/Montgomery Arpt, CA, US","cover":"BKN","clouds":[{"cover":"BKN","base":1600},{"cover":"BKN","base":4800}],"fltCat":"MVFR"},{"icaoId":"KMSY","receiptTime":"2026-04-13T17:57:13.833Z","obsTime":1776102780,"reportTime":"2026-04-13T18:00:00.000Z","temp":26.7,"dewp":17.2,"wdir":160,"wspd":12,"wgst":18,"visib":"10+","altim":1023.8,"slp":1024,"qcField":4,"presTend":-0.8,"maxT":26.7,"minT":19.4,"metarType":"METAR","rawOb":"METAR KMSY 131753Z 16012G18KT 10SM SCT039 SCT250 27/17 A3023 RMK AO2 SLP240 T02670172 10267 20194 58008","lat":29.9974,"lon":-90.2777,"elev":0,"name":"New Orleans/Armstrong Intl, LA, US","cover":"SCT","clouds":[{"cover":"SCT","base":3900},{"cover":"SCT","base":25000}],"fltCat":"VFR"},{"icaoId":"KMSP","receiptTime":"2026-04-13T17:57:13.790Z","obsTime":1776102780,"reportTime":"2026-04-13T18:00:00.000Z","temp":18.3,"dewp":11.7,"wdir":70,"wspd":5,"visib":"10+","altim":1007.9,"slp":1007.5,"qcField":4,"presTend":-1.1,"maxT":18.3,"minT":12.2,"metarType":"METAR","rawOb":"METAR KMSP 131753Z 07005KT 10SM FEW110 BKN140 BKN250 18/12 A2976 RMK AO2 SLP075 VIRGA T01830117 10183 20122 58011","lat":44.8852,"lon":-93.2313,"elev":255,"name":"Minneapolis-St Paul Intl, MN, US","cover":"BKN","clouds":[{"cover":"FEW","base":11000},{"cover":"BKN","base":14000},{"cover":"BKN","base":25000}],"fltCat":"VFR"},{"icaoId":"KMLC","receiptTime":"2026-04-13T17:57:13.548Z","obsTime":1776102780,"reportTime":"2026-04-13T18:00:00.000Z","temp":25,"dewp":20,"wdir":190,"wspd":9,"wgst":25,"visib":"10+","altim":1016,"slp":1015.1,"qcField":6,"presTend":-1.1,"maxT":25.6,"minT":20.6,"metarType":"METAR","rawOb":"METAR KMLC 131753Z AUTO 19009G25KT 10SM BKN020 BKN026 25/20 A3000 RMK AO2 PK WND 18027/1728 SLP151 T02500200 10256 20206 58011","lat":34.8824,"lon":-95.7815,"elev":231,"name":"McAlester Rgnl, OK, US","cover":"BKN","clouds":[{"cover":"BKN","base":2000},{"cover":"BKN","base":2600}],"fltCat":"MVFR"},{"icaoId":"KRDD","receiptTime":"2026-04-13T17:57:13.198Z","obsTime":1776102780,"reportTime":"2026-04-13T18:00:00.000Z","temp":12.2,"dewp":6.7,"wdir":340,"wspd":5,"visib":"10+","altim":1020.4,"slp":1020.3,"qcField":4,"presTend":0.8,"maxT":12.8,"minT":6.7,"metarType":"METAR","rawOb":"METAR KRDD 131753Z 34005KT 10SM FEW024 OVC045 12/07 A3013 RMK AO2 SLP203 T01220067 10128 20067 50008","lat":40.5146,"lon":-122.2977,"elev":152,"name":"Redding Muni, CA, US","cover":"OVC","clouds":[{"cover":"FEW","base":2400},{"cover":"OVC","base":4500}],"fltCat":"VFR"},{"icaoId":"KONT","receiptTime":"2026-04-13T17:57:12.717Z","obsTime":1776102780,"reportTime":"2026-04-13T18:00:00.000Z","temp":13.3,"dewp":8.9,"wdir":210,"wspd":8,"visib":8,"altim":1018,"slp":1017.7,"qcField":12,"wxString":"-RA","presTend":0.9,"maxT":15,"minT":10,"precip":0.01,"pcp6hr":0.01,"metarType":"METAR","rawOb":"METAR KONT 131753Z 21008KT 8SM -RA SCT026 BKN038 OVC055 13/09 A3006 RMK AO2 RAB37 SLP177 P0001 60001 T01330089 10150 20100 53009 $","lat":34.0531,"lon":-117.5769,"elev":279,"name":"Ontario Intl, CA, US","cover":"OVC","clouds":[{"cover":"SCT","base":2600},{"cover":"BKN","base":3800},{"cover":"OVC","base":5500}],"fltCat":"VFR"},{"icaoId":"KSWO","receiptTime":"2026-04-13T17:57:12.427Z","obsTime":1776102780,"reportTime":"2026-04-13T18:00:00.000Z","temp":27.8,"dewp":18.9,"wdir":220,"wspd":21,"wgst":30,"visib":"10+","altim":1012.3,"slp":1010.7,"qcField":4,"presTend":-1.1,"maxT":27.8,"minT":21.1,"metarType":"METAR","rawOb":"METAR KSWO 131753Z 22021G30KT 10SM FEW034 28/19 A2989 RMK AO2 PK WND 20030/1704 SLP107 T02780189 10278 20211 58011","lat":36.1624,"lon":-97.0832,"elev":293,"name":"Stillwater Muni, OK, US","cover":"FEW","clouds":[{"cover":"FEW","base":3400}],"fltCat":"VFR"},{"icaoId":"KSTS","receiptTime":"2026-04-13T17:57:12.413Z","obsTime":1776102780,"reportTime":"2026-04-13T18:00:00.000Z","temp":14.4,"dewp":6.7,"wdir":0,"wspd":0,"visib":"10+","altim":1020.4,"slp":1019.8,"qcField":4,"presTend":0.7,"maxT":14.4,"minT":4.4,"metarType":"METAR","rawOb":"METAR KSTS 131753Z 00000KT 10SM SCT040 14/07 A3013 RMK AO2 SLP198 T01440067 10144 20044 51007","lat":38.5037,"lon":-122.811,"elev":35,"name":"Santa Rosa/Schulz Arpt, CA, US","cover":"SCT","clouds":[{"cover":"SCT","base":4000}],"fltCat":"VFR"},{"icaoId":"KSMF","receiptTime":"2026-04-13T17:57:12.170Z","obsTime":1776102780,"reportTime":"2026-04-13T18:00:00.000Z","temp":14.4,"dewp":8.3,"wdir":340,"wspd":12,"visib":"10+","altim":1020.1,"slp":1019.9,"qcField":12,"presTend":0.7,"maxT":14.4,"minT":8.9,"metarType":"METAR","rawOb":"METAR KSMF 131753Z 34012KT 10SM FEW020 BKN031 14/08 A3012 RMK AO2 SLP199 T01440083 10144 20089 51007 $","lat":38.7007,"lon":-121.5948,"elev":7,"name":"Sacramento Intl, CA, US","cover":"BKN","clouds":[{"cover":"FEW","base":2000},{"cover":"BKN","base":3100}],"fltCat":"VFR"},{"icaoId":"KSJC","receiptTime":"2026-04-13T17:57:12.135Z","obsTime":1776102780,"reportTime":"2026-04-13T18:00:00.000Z","temp":15.6,"dewp":8.3,"wdir":310,"wspd":8,"visib":"10+","altim":1020.4,"slp":1020.1,"qcField":12,"presTend":1.1,"maxT":15.6,"minT":10.6,"pcp6hr":0.005,"metarType":"METAR","rawOb":"METAR KSJC 131753Z 31008KT 10SM FEW017 SCT026TCU BKN029TCU 16/08 A3013 RMK AO2 SLP201 TCU ALQDS 60000 T01560083 10156 20106 51011 $","lat":37.3594,"lon":-121.9244,"elev":13,"name":"San Jose Intl Arpt, CA, US","cover":"BKN","clouds":[{"cover":"FEW","base":1700},{"cover":"SCT","base":2600},{"cover":"BKN","base":2900}],"fltCat":"MVFR"},{"icaoId":"KSHR","receiptTime":"2026-04-13T17:57:12.087Z","obsTime":1776102780,"reportTime":"2026-04-13T18:00:00.000Z","temp":7.8,"dewp":5,"wdir":330,"wspd":13,"visib":"10+","altim":1008.5,"slp":1008.7,"qcField":6,"wxString":"-RA","presTend":2.2,"maxT":12.2,"minT":3.3,"precip":0.03,"pcp6hr":0.03,"metarType":"METAR","rawOb":"METAR KSHR 131753Z AUTO 33013KT 10SM -RA FEW029 BKN038 OVC070 08/05 A2978 RMK AO2 PK WND 31037/1719 RAB16 SLP087 P0003 60003 T00780050 10122 20033 53022","lat":44.7603,"lon":-106.9741,"elev":1212,"name":"Sheridan Cnty Arpt, WY, US","cover":"OVC","clouds":[{"cover":"FEW","base":2900},{"cover":"BKN","base":3800},{"cover":"OVC","base":7000}],"fltCat":"VFR"},{"icaoId":"KVGT","receiptTime":"2026-04-13T17:57:11.551Z","obsTime":1776102780,"reportTime":"2026-04-13T18:00:00.000Z","temp":17.2,"dewp":-2.2,"wdir":200,"wspd":8,"wgst":15,"visib":"10+","altim":1014,"slp":1014.5,"qcField":4,"presTend":-0.1,"maxT":17.8,"minT":12.2,"metarType":"METAR","rawOb":"METAR KVGT 131753Z 20008G15KT 10SM CLR 17/M02 A2994 RMK AO2 SLP145 T01721022 10178 20122 58001","lat":36.212,"lon":-115.194,"elev":664,"name":"Las Vegas/North Arpt, NV, US","cover":"CLR","clouds":[],"fltCat":"VFR"},{"icaoId":"KTWF","receiptTime":"2026-04-13T17:57:11.352Z","obsTime":1776102780,"reportTime":"2026-04-13T18:00:00.000Z","temp":11.1,"dewp":-2.8,"wdir":240,"wspd":12,"wgst":24,"visib":"10+","altim":1015,"slp":1013.4,"qcField":4,"presTend":0.2,"maxT":11.7,"minT":1.7,"metarType":"METAR","rawOb":"METAR KTWF 131753Z 24012G24KT 10SM OVC065 11/M03 A2997 RMK AO2 PK WND 22030/1718 SLP134 T01111028 10117 20017 50002","lat":42.4785,"lon":-114.4775,"elev":1269,"name":"Twin Falls/Joslin Fld, ID, US","cover":"OVC","clouds":[{"cover":"OVC","base":6500}],"fltCat":"VFR"},{"icaoId":"KTPA","receiptTime":"2026-04-13T17:57:11.163Z","obsTime":1776102780,"reportTime":"2026-04-13T18:00:00.000Z","temp":27.8,"dewp":15,"wdir":"VRB","wspd":5,"visib":"10+","altim":1024.8,"slp":1024.8,"qcField":4,"presTend":-2,"maxT":28.3,"minT":18.3,"metarType":"METAR","rawOb":"METAR KTPA 131753Z VRB05KT 10SM FEW040 FEW055 BKN250 28/15 A3026 RMK AO2 SLP248 T02780150 10283 20183 58020","lat":27.9633,"lon":-82.54,"elev":2,"name":"Tampa Intl Arpt, FL, US","cover":"BKN","clouds":[{"cover":"FEW","base":4000},{"cover":"FEW","base":5500},{"cover":"BKN","base":25000}],"fltCat":"VFR"},{"icaoId":"KCDC","receiptTime":"2026-04-13T17:57:08.092Z","obsTime":1776102780,"reportTime":"2026-04-13T18:00:00.000Z","temp":6.7,"dewp":3.9,"wdir":200,"wspd":16,"wgst":22,"visib":4,"altim":1016.3,"slp":1013.8,"qcField":6,"wxString":"-RA","presTend":0.5,"maxT":8.3,"minT":3.9,"precip":0.03,"pcp6hr":0.08,"metarType":"METAR","rawOb":"METAR KCDC 131753Z AUTO 20016G22KT 4SM -RA SCT021 BKN027 OVC049 07/04 A3001 RMK AO2 SLP138 P0003 60008 T00670039 10083 20039 53005","lat":37.7067,"lon":-113.097,"elev":1703,"name":"Cedar City Muni, UT, US","cover":"OVC","clouds":[{"cover":"SCT","base":2100},{"cover":"BKN","base":2700},{"cover":"OVC","base":4900}],"fltCat":"MVFR"},{"icaoId":"KPNC","receiptTime":"2026-04-13T17:57:06.760Z","obsTime":1776102780,"reportTime":"2026-04-13T18:00:00.000Z","temp":27.2,"dewp":19.4,"wdir":200,"wspd":15,"wgst":29,"visib":"10+","altim":1010.9,"slp":1009.6,"qcField":6,"presTend":-0.8,"maxT":27.2,"minT":20.6,"metarType":"METAR","rawOb":"METAR KPNC 131753Z AUTO 20015G29KT 10SM FEW031 27/19 A2985 RMK AO2 PK WND 21032/1742 SLP096 T02720194 10272 20206 58008","lat":36.7369,"lon":-97.1024,"elev":304,"name":"Ponca City Rgnl, OK, US","cover":"FEW","clouds":[{"cover":"FEW","base":3100}],"fltCat":"VFR"},{"icaoId":"KAMA","receiptTime":"2026-04-13T17:56:55.926Z","obsTime":1776102780,"reportTime":"2026-04-13T18:00:00.000Z","temp":27.8,"dewp":-2.8,"wdir":260,"wspd":22,"wgst":33,"visib":"10+","altim":1015.7,"slp":1010.9,"qcField":4,"presTend":-0.3,"maxT":27.8,"minT":12.2,"metarType":"METAR","rawOb":"METAR KAMA 131753Z 26022G33KT 10SM CLR 28/M03 A2999 RMK AO2 PK WND 25033/1749 SLP109 T02781028 10278 20122 58003","lat":35.2203,"lon":-101.7173,"elev":1102,"name":"Amarillo Intl Arpt, TX, US","cover":"CLR","clouds":[],"fltCat":"VFR"},{"icaoId":"KAUS","receiptTime":"2026-04-13T17:56:56.189Z","obsTime":1776102780,"reportTime":"2026-04-13T18:00:00.000Z","temp":28.3,"dewp":21.1,"wdir":180,"wspd":12,"wgst":18,"visib":"10+","altim":1018.4,"slp":1017.2,"qcField":4,"presTend":-1.2,"maxT":28.3,"minT":22.2,"pcp6hr":0.005,"metarType":"METAR","rawOb":"METAR KAUS 131753Z 18012G18KT 10SM BKN027 BKN034 BKN050 28/21 A3007 RMK AO2 SLP172 60000 T02830211 10283 20222 58012","lat":30.1831,"lon":-97.6806,"elev":148,"name":"Austin/Bergstrom Intl, TX, US","cover":"BKN","clouds":[{"cover":"BKN","base":2700},{"cover":"BKN","base":3400},{"cover":"BKN","base":5000}],"fltCat":"MVFR"},{"icaoId":"KPSC","receiptTime":"2026-04-13T17:57:06.860Z","obsTime":1776102780,"reportTime":"2026-04-13T18:00:00.000Z","temp":18.9,"dewp":3.9,"wdir":250,"wspd":9,"wgst":21,"visib":"10+","altim":1012.6,"slp":1012.5,"qcField":4,"presTend":1.8,"maxT":18.9,"minT":11.1,"metarType":"METAR","rawOb":"METAR KPSC 131753Z 25009G21KT 10SM FEW060 19/04 A2990 RMK AO2 SLP125 T01890039 10189 20111 51018","lat":46.2695,"lon":-119.1182,"elev":121,"name":"Pasco/Tri Cities Arpt, WA, US","cover":"FEW","clouds":[{"cover":"FEW","base":6000}],"fltCat":"VFR"},{"icaoId":"KPIH","receiptTime":"2026-04-13T17:57:06.589Z","obsTime":1776102780,"reportTime":"2026-04-13T18:00:00.000Z","temp":8.9,"dewp":-3.9,"wdir":270,"wspd":12,"visib":"10+","altim":1015,"slp":1014.3,"qcField":4,"presTend":-0.1,"maxT":10.6,"minT":-1.1,"metarType":"METAR","rawOb":"METAR KPIH 131753Z 27012KT 10SM BKN060 BKN075 09/M04 A2997 RMK AO2 SLP143 T00891039 10106 21011 56001","lat":42.9197,"lon":-112.5723,"elev":1357,"name":"Pocatello Rgnl, ID, US","cover":"BKN","clouds":[{"cover":"BKN","base":6000},{"cover":"BKN","base":7500}],"fltCat":"VFR"},{"icaoId":"KSDL","receiptTime":"2026-04-13T17:57:06.549Z","obsTime":1776102780,"reportTime":"2026-04-13T18:00:00.000Z","temp":22.2,"dewp":6.7,"visib":"10+","altim":1015.7,"slp":1013.9,"qcField":4,"presTend":0.1,"maxT":22.8,"minT":17.2,"metarType":"METAR","rawOb":"METAR KSDL 131753Z 10SM CLR 22/07 A2999 RMK AO2 SLP139 T02220067 10228 20172 51001","lat":33.6123,"lon":-111.9232,"elev":438,"name":"Scottsdale Muni, AZ, US","cover":"CLR","clouds":[],"fltCat":"VFR"},{"icaoId":"KSBA","receiptTime":"2026-04-13T17:57:06.511Z","obsTime":1776102780,"reportTime":"2026-04-13T18:00:00.000Z","temp":17.8,"dewp":5,"wdir":220,"wspd":7,"visib":"10+","altim":1018.4,"slp":1018,"qcField":12,"presTend":1,"maxT":17.8,"minT":7.8,"metarType":"METAR","rawOb":"METAR KSBA 131753Z 22007KT 10SM SCT100 18/05 A3007 RMK AO2 SLP180 T01780050 10178 20078 53010 $","lat":34.4241,"lon":-119.8425,"elev":2,"name":"Santa Barbara Muni, CA, US","cover":"SCT","clouds":[{"cover":"SCT","base":10000}],"fltCat":"VFR"},{"icaoId":"KLAX","receiptTime":"2026-04-13T17:57:06.290Z","obsTime":1776102780,"reportTime":"2026-04-13T18:00:00.000Z","temp":17.2,"dewp":9.4,"wdir":240,"wspd":9,"visib":"10+","altim":1018.4,"slp":1018,"qcField":12,"presTend":0.9,"maxT":17.8,"minT":13.3,"metarType":"METAR","rawOb":"METAR KLAX 131753Z 24009KT 10SM FEW022 FEW050 SCT080 SCT160 17/09 A3007 RMK AO2 SLP180 T01720094 10178 20133 51009 $","lat":33.9382,"lon":-118.3866,"elev":30,"name":"Los Angeles Intl, CA, US","cover":"SCT","clouds":[{"cover":"FEW","base":2200},{"cover":"FEW","base":5000},{"cover":"SCT","base":8000},{"cover":"SCT","base":16000}],"fltCat":"VFR"},{"icaoId":"KFAT","receiptTime":"2026-04-13T17:57:15.515Z","obsTime":1776102780,"reportTime":"2026-04-13T18:00:00.000Z","temp":13.9,"dewp":7.2,"wdir":320,"wspd":9,"visib":"10+","altim":1019.4,"slp":1019.3,"qcField":4,"presTend":1.5,"maxT":14.4,"minT":10,"metarType":"METAR","rawOb":"METAR KFAT 131753Z 32009KT 10SM FEW020 SCT075 BKN095 OVC200 14/07 A3010 RMK AO2 SLP193 T01390072 10144 20100 53015","lat":36.78,"lon":-119.7202,"elev":102,"name":"Fresno/Yosemite Intl, CA, US","cover":"OVC","clouds":[{"cover":"FEW","base":2000},{"cover":"SCT","base":7500},{"cover":"BKN","base":9500},{"cover":"OVC","base":20000}],"fltCat":"VFR"},{"icaoId":"KGEG","receiptTime":"2026-04-13T17:57:15.634Z","obsTime":1776102780,"reportTime":"2026-04-13T18:00:00.000Z","temp":8.3,"dewp":6.7,"wdir":190,"wspd":9,"visib":"10+","altim":1010.6,"slp":1010.8,"qcField":12,"presTend":1.7,"maxT":8.3,"minT":6.7,"pcp6hr":0.12,"metarType":"METAR","rawOb":"METAR KGEG 131753Z 19009KT 10SM OVC008 08/07 A2984 RMK AO2 SLP108 60012 T00830067 10083 20067 53017 $","lat":47.6217,"lon":-117.528,"elev":718,"name":"Spokane Intl, WA, US","cover":"OVC","clouds":[{"cover":"OVC","base":800}],"fltCat":"IFR"},{"icaoId":"KHIO","receiptTime":"2026-04-13T17:57:06.152Z","obsTime":1776102780,"reportTime":"2026-04-13T18:00:00.000Z","temp":11.7,"dewp":5.6,"wdir":280,"wspd":7,"visib":"10+","altim":1020.1,"slp":1019.8,"qcField":4,"wxString":"-RA","presTend":1.9,"maxT":12.2,"minT":8.9,"precip":0.005,"pcp6hr":0.005,"metarType":"METAR","rawOb":"METAR KHIO 131753Z 28007KT 10SM -RA FEW027 BKN055 OVC070 12/06 A3012 RMK AO2 RAB49 SLP198 P0000 60000 T01170056 10122 20089 51019","lat":45.5476,"lon":-122.9557,"elev":62,"name":"Portland/Hillsboro Arpt, OR, US","cover":"OVC","clouds":[{"cover":"FEW","base":2700},{"cover":"BKN","base":5500},{"cover":"OVC","base":7000}],"fltCat":"VFR"},{"icaoId":"KYKM","receiptTime":"2026-04-13T17:57:06.055Z","obsTime":1776102780,"reportTime":"2026-04-13T18:00:00.000Z","temp":14.4,"dewp":1.1,"wdir":330,"wspd":11,"wgst":18,"visib":"10+","altim":1013,"slp":1012.9,"qcField":12,"presTend":1.3,"maxT":14.4,"minT":5,"metarType":"METAR","rawOb":"METAR KYKM 131753Z 33011G18KT 10SM CLR 14/01 A2991 RMK AO2 SLP129 T01440011 10144 20050 51013 $","lat":46.564,"lon":-120.5349,"elev":319,"name":"Yakima/McAllister Fld, WA, US","cover":"CLR","clouds":[],"fltCat":"VFR"},{"icaoId":"KTUS","receiptTime":"2026-04-13T17:57:05.960Z","obsTime":1776102780,"reportTime":"2026-04-13T18:00:00.000Z","temp":24.4,"dewp":3.9,"wdir":230,"wspd":12,"wgst":25,"visib":"10+","altim":1017.4,"slp":1013.4,"qcField":4,"presTend":0.1,"maxT":25,"minT":18.3,"metarType":"METAR","rawOb":"METAR KTUS 131753Z 23012G25KT 10SM CLR 24/04 A3004 RMK AO2 PK WND 19027/1703 SLP134 T02440039 10250 20183 53001","lat":32.1315,"lon":-110.9564,"elev":776,"name":"Tucson Intl Arpt, AZ, US","cover":"CLR","clouds":[],"fltCat":"VFR"},{"icaoId":"KSEA","receiptTime":"2026-04-13T17:57:05.839Z","obsTime":1776102780,"reportTime":"2026-04-13T18:00:00.000Z","temp":10.6,"dewp":4.4,"wdir":200,"wspd":15,"wgst":21,"visib":"10+","altim":1017.7,"slp":1018.3,"qcField":4,"presTend":2.2,"maxT":10.6,"minT":8.3,"pcp6hr":0.005,"metarType":"METAR","rawOb":"METAR KSEA 131753Z 20015G21KT 10SM FEW022 BKN031 BKN055 BKN220 11/04 A3005 RMK AO2 SLP183 60000 T01060044 10106 20083 51022","lat":47.4447,"lon":-122.3144,"elev":115,"name":"Seattle-Tacoma Intl, WA, US","cover":"BKN","clouds":[{"cover":"FEW","base":2200},{"cover":"BKN","base":3100},{"cover":"BKN","base":5500},{"cover":"BKN","base":22000}],"fltCat":"VFR"},{"icaoId":"KRIW","receiptTime":"2026-04-13T17:57:05.689Z","obsTime":1776102780,"reportTime":"2026-04-13T18:00:00.000Z","temp":12.8,"dewp":-13.3,"wdir":260,"wspd":18,"wgst":28,"visib":"10+","altim":1011.6,"slp":1008.3,"qcField":6,"presTend":0.9,"maxT":12.8,"minT":2.8,"metarType":"METAR","rawOb":"METAR KRIW 131753Z AUTO 26018G28KT 10SM SCT090 13/M13 A2987 RMK AO2 PK WND 24028/1746 WSHFT 1735 SLP083 T01281133 10128 20028 51009","lat":43.0622,"lon":-108.4471,"elev":1662,"name":"Riverton Rgnl, WY, US","cover":"SCT","clouds":[{"cover":"SCT","base":9000}],"fltCat":"VFR"},{"icaoId":"KSPS","receiptTime":"2026-04-13T17:57:07.360Z","obsTime":1776102720,"reportTime":"2026-04-13T18:00:00.000Z","temp":29.4,"dewp":20.6,"wdir":220,"wspd":18,"wgst":25,"visib":"10+","altim":1014.3,"slp":1012.8,"qcField":4,"presTend":-0.9,"maxT":29.4,"minT":20,"metarType":"METAR","rawOb":"METAR KSPS 131752Z 22018G25KT 10SM FEW035 29/21 A2995 RMK AO2 PK WND 21031/1707 SLP128 T02940206 10294 20200 58009","lat":33.9785,"lon":-98.493,"elev":310,"name":"Wichita Falls Rgnl, TX, US","cover":"FEW","clouds":[{"cover":"FEW","base":3500}],"fltCat":"VFR"},{"icaoId":"KATL","receiptTime":"2026-04-13T17:56:59.421Z","obsTime":1776102720,"reportTime":"2026-04-13T18:00:00.000Z","temp":26.1,"dewp":11.7,"wdir":210,"wspd":10,"wgst":17,"visib":"10+","altim":1026.8,"slp":1025.9,"qcField":4,"presTend":-1.2,"maxT":26.7,"minT":15.6,"metarType":"METAR","rawOb":"METAR KATL 131752Z 21010G17KT 10SM FEW055 FEW140 SCT200 BKN250 26/12 A3032 RMK AO2 SLP259 T02610117 10267 20156 58012","lat":33.6297,"lon":-84.4422,"elev":309,"name":"Atlanta/Hartsfield-Jackson Intl, GA, US","cover":"BKN","clouds":[{"cover":"FEW","base":5500},{"cover":"FEW","base":14000},{"cover":"SCT","base":20000},{"cover":"BKN","base":25000}],"fltCat":"VFR"},{"icaoId":"KMKE","receiptTime":"2026-04-13T17:57:05.340Z","obsTime":1776102720,"reportTime":"2026-04-13T18:00:00.000Z","temp":23.9,"dewp":16.1,"wdir":240,"wspd":11,"visib":"10+","altim":1010.9,"slp":1010.6,"qcField":4,"presTend":-0.6,"maxT":23.9,"minT":17.2,"metarType":"METAR","rawOb":"METAR KMKE 131752Z 24011KT 10SM FEW022 BKN250 24/16 A2985 RMK AO2 SLP106 T02390161 10239 20172 58006","lat":42.9549,"lon":-87.9045,"elev":203,"name":"Milwaukee/Mitchell Intl, WI, US","cover":"BKN","clouds":[{"cover":"FEW","base":2200},{"cover":"BKN","base":25000}],"fltCat":"VFR"},{"icaoId":"KCLT","receiptTime":"2026-04-13T17:57:04.078Z","obsTime":1776102720,"reportTime":"2026-04-13T18:00:00.000Z","temp":25,"dewp":13.9,"wdir":200,"wspd":11,"wgst":14,"visib":"10+","altim":1025.8,"slp":1026.4,"qcField":4,"presTend":-2.1,"maxT":25,"minT":16.1,"metarType":"METAR","rawOb":"METAR KCLT 131752Z 20011G14KT 10SM FEW200 BKN250 25/14 A3029 RMK AO2 SLP264 T02500139 10250 20161 58021","lat":35.2225,"lon":-80.9543,"elev":223,"name":"Charlotte/Douglas Intl, NC, US","cover":"BKN","clouds":[{"cover":"FEW","base":20000},{"cover":"BKN","base":25000}],"fltCat":"VFR"},{"icaoId":"KCVG","receiptTime":"2026-04-13T17:57:03.999Z","obsTime":1776102720,"reportTime":"2026-04-13T18:00:00.000Z","temp":24.4,"dewp":15.6,"wdir":210,"wspd":15,"wgst":21,"visib":"10+","altim":1019,"slp":1018.1,"qcField":4,"presTend":-0.5,"maxT":24.4,"minT":20,"metarType":"METAR","rawOb":"METAR KCVG 131752Z 21015G21KT 10SM BKN043 24/16 A3009 RMK AO2 PK WND 20027/1732 SLP181 T02440156 10244 20200 58005","lat":39.0444,"lon":-84.6724,"elev":264,"name":"Cincinnati Intl, KY, US","cover":"BKN","clouds":[{"cover":"BKN","base":4300}],"fltCat":"VFR"},{"icaoId":"KOKC","receiptTime":"2026-04-13T17:56:59.358Z","obsTime":1776102720,"reportTime":"2026-04-13T18:00:00.000Z","temp":27.2,"dewp":18.9,"wdir":190,"wspd":21,"wgst":29,"visib":"10+","altim":1013.3,"slp":1011.8,"qcField":4,"presTend":-1.5,"maxT":27.8,"minT":20,"metarType":"METAR","rawOb":"METAR KOKC 131752Z 19021G29KT 10SM FEW033 SCT250 27/19 A2992 RMK AO2 PK WND 19032/1710 SLP118 T02720189 10278 20200 58015","lat":35.3843,"lon":-97.6003,"elev":391,"name":"Oklahoma City/Will Rogers Intl, OK, US","cover":"SCT","clouds":[{"cover":"FEW","base":3300},{"cover":"SCT","base":25000}],"fltCat":"VFR"},{"icaoId":"KDCA","receiptTime":"2026-04-13T17:57:04.016Z","obsTime":1776102720,"reportTime":"2026-04-13T18:00:00.000Z","temp":25,"dewp":12.2,"wdir":200,"wspd":16,"wgst":24,"visib":"10+","altim":1019,"slp":1018.9,"qcField":4,"presTend":-1.8,"maxT":25.6,"minT":18.3,"precip":0.005,"pcp6hr":0.005,"metarType":"METAR","rawOb":"METAR KDCA 131752Z 20016G24KT 10SM FEW070 OVC130 25/12 A3009 RMK AO2 RAE02 SLP189 VCSH SE P0000 60000 T02500122 10256 20183 56018","lat":38.8472,"lon":-77.0345,"elev":4,"name":"Washington/Reagan-National Arpt, VA, US","cover":"OVC","clouds":[{"cover":"FEW","base":7000},{"cover":"OVC","base":13000}],"fltCat":"VFR"},{"icaoId":"KABI","receiptTime":"2026-04-13T17:57:07.164Z","obsTime":1776102720,"reportTime":"2026-04-13T18:00:00.000Z","temp":27.2,"dewp":20,"wdir":190,"wspd":13,"wgst":24,"visib":"10+","altim":1017,"slp":1014.6,"qcField":4,"presTend":-0.9,"maxT":27.2,"minT":21.1,"metarType":"METAR","rawOb":"METAR KABI 131752Z 19013G24KT 10SM CLR 27/20 A3003 RMK AO2 SLP146 T02720200 10272 20211 58009","lat":32.4106,"lon":-99.6821,"elev":543,"name":"Abilene Rgnl, TX, US","cover":"CLR","clouds":[],"fltCat":"VFR"},{"icaoId":"KABQ","receiptTime":"2026-04-13T17:57:07.181Z","obsTime":1776102720,"reportTime":"2026-04-13T18:00:00.000Z","temp":17.8,"dewp":-1.1,"wdir":220,"wspd":15,"wgst":25,"visib":"10+","altim":1019.7,"slp":1013.5,"qcField":4,"presTend":-0.3,"maxT":17.8,"minT":12.8,"metarType":"METAR","rawOb":"METAR KABQ 131752Z 22015G25KT 10SM FEW070 BKN130 BKN250 18/M01 A3011 RMK AO2 SLP135 T01781011 10178 20128 58003","lat":35.0419,"lon":-106.6154,"elev":1620,"name":"Albuquerque Intl, NM, US","cover":"BKN","clouds":[{"cover":"FEW","base":7000},{"cover":"BKN","base":13000},{"cover":"BKN","base":25000}],"fltCat":"VFR"},{"icaoId":"KIAD","receiptTime":"2026-04-13T17:57:04.047Z","obsTime":1776102720,"reportTime":"2026-04-13T18:00:00.000Z","temp":24.4,"dewp":12.2,"wdir":200,"wspd":18,"wgst":24,"visib":"10+","altim":1019,"slp":1018.8,"qcField":4,"presTend":-1.8,"maxT":24.4,"minT":19.4,"pcp6hr":0.005,"metarType":"METAR","rawOb":"METAR KIAD 131752Z 20018G24KT 10SM FEW050 BKN130 BKN200 24/12 A3009 RMK AO2 PK WND 21028/1721 SLP188 60000 T02440122 10244 20194 58018","lat":38.9348,"lon":-77.4473,"elev":90,"name":"Washington/Dulles Intl, VA, US","cover":"BKN","clouds":[{"cover":"FEW","base":5000},{"cover":"BKN","base":13000},{"cover":"BKN","base":20000}],"fltCat":"VFR"},{"icaoId":"KMLF","receiptTime":"2026-04-13T17:57:07.343Z","obsTime":1776102720,"reportTime":"2026-04-13T18:00:00.000Z","temp":11.7,"dewp":-2.8,"wdir":240,"wspd":8,"visib":"10+","altim":1015,"slp":1012.5,"qcField":6,"presTend":-0.8,"maxT":11.7,"minT":3.3,"pcp6hr":0.005,"metarType":"METAR","rawOb":"METAR KMLF 131752Z AUTO 24008KT 10SM SCT050 BKN100 12/M03 A2997 RMK AO2 SLP125 60000 T01171028 10117 20033 58008","lat":38.4225,"lon":-113.0109,"elev":1537,"name":"Milford Muni, UT, US","cover":"BKN","clouds":[{"cover":"SCT","base":5000},{"cover":"BKN","base":10000}],"fltCat":"VFR"},{"icaoId":"KHRL","receiptTime":"2026-04-13T17:56:59.337Z","obsTime":1776102720,"reportTime":"2026-04-13T18:00:00.000Z","temp":27.8,"dewp":21.7,"wdir":130,"wspd":15,"visib":"10+","altim":1017.7,"slp":1017.5,"qcField":4,"presTend":-0.8,"maxT":28.3,"minT":23.9,"pcp6hr":0.005,"metarType":"METAR","rawOb":"METAR KHRL 131752Z 13015KT 10SM FEW024 SCT028 OVC037 28/22 A3005 RMK AO2 SLP175 60000 T02780217 10283 20239 58008","lat":26.2303,"lon":-97.6556,"elev":9,"name":"Harlingen/Valley Intl, TX, US","cover":"OVC","clouds":[{"cover":"FEW","base":2400},{"cover":"SCT","base":2800},{"cover":"OVC","base":3700}],"fltCat":"VFR"},{"icaoId":"KSAD","receiptTime":"2026-04-13T17:54:11.409Z","obsTime":1776102660,"reportTime":"2026-04-13T18:00:00.000Z","temp":23.3,"dewp":2.2,"wdir":130,"wspd":5,"visib":"10+","altim":1016.7,"slp":1012.3,"qcField":6,"presTend":-0.8,"maxT":23.9,"minT":11.7,"metarType":"METAR","rawOb":"METAR KSAD 131751Z AUTO 13005KT 10SM CLR 23/02 A3002 RMK AO2 SLP123 T02330022 10239 20117 58008","lat":32.8565,"lon":-109.636,"elev":937,"name":"Safford Rgnl, AZ, US","cover":"CLR","clouds":[],"fltCat":"VFR"},{"icaoId":"KORF","receiptTime":"2026-04-13T17:54:11.152Z","obsTime":1776102660,"reportTime":"2026-04-13T18:00:00.000Z","temp":27.8,"dewp":13.3,"wdir":230,"wspd":17,"wgst":24,"visib":"10+","altim":1022.4,"slp":1022.2,"qcField":4,"presTend":-3.3,"maxT":27.8,"minT":17.2,"precip":0.005,"pcp6hr":0.005,"metarType":"METAR","rawOb":"METAR KORF 131751Z 23017G24KT 10SM CLR 28/13 A3019 RMK AO2 PK WND 23028/1706 RAE17 SLP222 P0000 60000 T02780133 10278 20172 56033","lat":36.9037,"lon":-76.1927,"elev":5,"name":"Norfolk Intl, VA, US","cover":"CLR","clouds":[],"fltCat":"VFR"},{"icaoId":"KOXR","receiptTime":"2026-04-13T17:54:11.189Z","obsTime":1776102660,"reportTime":"2026-04-13T18:00:00.000Z","temp":16.7,"dewp":8.3,"wdir":250,"wspd":8,"visib":"10+","altim":1018.4,"slp":1018,"qcField":4,"presTend":1,"maxT":17.2,"minT":9.4,"metarType":"METAR","rawOb":"METAR KOXR 131751Z 25008KT 10SM CLR 17/08 A3007 RMK AO2 SLP180 T01670083 10172 20094 52010","lat":34.2001,"lon":-119.2042,"elev":12,"name":"Oxnard Arpt, CA, US","cover":"CLR","clouds":[],"fltCat":"VFR"},{"icaoId":"KPHX","receiptTime":"2026-04-13T17:54:11.213Z","obsTime":1776102660,"reportTime":"2026-04-13T18:00:00.000Z","temp":23.9,"dewp":6.7,"wdir":240,"wspd":5,"visib":"10+","altim":1015,"slp":1013.4,"qcField":12,"presTend":0.5,"maxT":23.9,"minT":18.9,"metarType":"METAR","rawOb":"METAR KPHX 131751Z 24005KT 10SM FEW065 BKN140 BKN250 24/07 A2997 RMK AO2 SLP134 T02390067 10239 20189 51005 $","lat":33.4278,"lon":-112.0037,"elev":338,"name":"Phoenix/Sky Harbor Intl, AZ, US","cover":"BKN","clouds":[{"cover":"FEW","base":6500},{"cover":"BKN","base":14000},{"cover":"BKN","base":25000}],"fltCat":"VFR"},{"icaoId":"KPIT","receiptTime":"2026-04-13T17:54:11.253Z","obsTime":1776102660,"reportTime":"2026-04-13T18:00:00.000Z","temp":25.6,"dewp":12.8,"wdir":220,"wspd":13,"wgst":24,"visib":"10+","altim":1016.7,"slp":1016.5,"qcField":4,"presTend":-0.9,"maxT":25.6,"minT":20,"pcp6hr":0.005,"metarType":"METAR","rawOb":"METAR KPIT 131751Z 22013G24KT 10SM BKN050 BKN080 BKN250 26/13 A3002 RMK AO2 PK WND 22030/1702 SLP165 60000 T02560128 10256 20200 58009","lat":40.4814,"lon":-80.2083,"elev":339,"name":"Pittsburgh Intl, PA, US","cover":"BKN","clouds":[{"cover":"BKN","base":5000},{"cover":"BKN","base":8000},{"cover":"BKN","base":25000}],"fltCat":"VFR"},{"icaoId":"KRDU","receiptTime":"2026-04-13T17:54:11.361Z","obsTime":1776102660,"reportTime":"2026-04-13T18:00:00.000Z","temp":28.3,"dewp":10,"wdir":210,"wspd":11,"wgst":22,"visib":"10+","altim":1024.8,"slp":1024.2,"qcField":4,"presTend":-2.9,"maxT":28.3,"minT":17.2,"metarType":"METAR","rawOb":"METAR KRDU 131751Z 21011G22KT 10SM FEW200 BKN250 28/10 A3026 RMK AO2 SLP242 T02830100 10283 20172 58029","lat":35.8923,"lon":-78.782,"elev":121,"name":"Raleigh-Durham Intl, NC, US","cover":"BKN","clouds":[{"cover":"FEW","base":20000},{"cover":"BKN","base":25000}],"fltCat":"VFR"},{"icaoId":"KROW","receiptTime":"2026-04-13T17:54:11.390Z","obsTime":1776102660,"reportTime":"2026-04-13T18:00:00.000Z","temp":26.1,"dewp":0.6,"wdir":270,"wspd":8,"wgst":15,"visib":"10+","altim":1016.7,"slp":1010.8,"qcField":4,"presTend":-1.4,"maxT":27.2,"minT":17.2,"metarType":"METAR","rawOb":"METAR KROW 131751Z 27008G15KT 230V300 10SM FEW100 26/01 A3002 RMK AO2 SLP108 T02610006 10272 20172 58014","lat":33.3074,"lon":-104.5082,"elev":1105,"name":"Roswell/Ind Arpt, NM, US","cover":"FEW","clouds":[{"cover":"FEW","base":10000}],"fltCat":"VFR"},{"icaoId":"KSAN","receiptTime":"2026-04-13T17:54:11.442Z","obsTime":1776102660,"reportTime":"2026-04-13T18:00:00.000Z","temp":16.1,"dewp":11.7,"wdir":300,"wspd":5,"visib":7,"altim":1019.4,"slp":1019.2,"qcField":12,"wxString":"-RA","presTend":1.4,"maxT":17.8,"minT":15.6,"precip":0.02,"pcp6hr":0.02,"metarType":"METAR","rawOb":"METAR KSAN 131751Z 30005KT 7SM R09/6000VP6000FT -RA BKN027 BKN048 BKN075 16/12 A3010 RMK AO2 RAB21 SLP192 P0002 60002 T01610117 10178 20156 53014 $","lat":32.7364,"lon":-117.1973,"elev":3,"name":"San Diego Intl Arpt, CA, US","cover":"BKN","clouds":[{"cover":"BKN","base":2700},{"cover":"BKN","base":4800},{"cover":"BKN","base":7500}],"fltCat":"MVFR"},{"icaoId":"KSAT","receiptTime":"2026-04-13T17:54:11.482Z","obsTime":1776102660,"reportTime":"2026-04-13T18:00:00.000Z","temp":27.2,"dewp":20,"wdir":160,"wspd":11,"visib":"10+","altim":1019,"slp":1017.1,"qcField":12,"presTend":-0.5,"maxT":27.8,"minT":21.7,"metarType":"METAR","rawOb":"METAR KSAT 131751Z 16011KT 10SM BKN032 BKN250 27/20 A3009 RMK AO2 SLP171 T02720200 10278 20217 58005 $","lat":29.5443,"lon":-98.4839,"elev":246,"name":"San Antonio Intl, TX, US","cover":"BKN","clouds":[{"cover":"BKN","base":3200},{"cover":"BKN","base":25000}],"fltCat":"VFR"},{"icaoId":"KSTL","receiptTime":"2026-04-13T17:54:11.686Z","obsTime":1776102660,"reportTime":"2026-04-13T18:00:00.000Z","temp":27.8,"dewp":17.8,"wdir":220,"wspd":12,"wgst":21,"visib":"10+","altim":1014.6,"slp":1013.5,"qcField":12,"presTend":-1.5,"maxT":27.8,"minT":21.1,"metarType":"METAR","rawOb":"METAR KSTL 131751Z 22012G21KT 10SM SCT039 BKN250 28/18 A2996 RMK AO2 SLP135 T02780178 10278 20211 58015 $","lat":38.7525,"lon":-90.3734,"elev":163,"name":"St Louis/Lambert Intl, MO, US","cover":"BKN","clouds":[{"cover":"SCT","base":3900},{"cover":"BKN","base":25000}],"fltCat":"VFR"},{"icaoId":"KVNY","receiptTime":"2026-04-13T17:54:11.835Z","obsTime":1776102660,"reportTime":"2026-04-13T18:00:00.000Z","temp":16.7,"dewp":3.3,"wdir":210,"wspd":6,"visib":"10+","altim":1017.4,"slp":1016.8,"qcField":12,"presTend":0.3,"maxT":17.2,"minT":11.1,"metarType":"METAR","rawOb":"METAR KVNY 131751Z 21006KT 10SM CLR 17/03 A3004 RMK AO2 SLP168 T01670033 10172 20111 50003 $","lat":34.2121,"lon":-118.4915,"elev":241,"name":"Van Nuys Arpt, CA, US","cover":"CLR","clouds":[],"fltCat":"VFR"},{"icaoId":"KBDL","receiptTime":"2026-04-13T17:54:10.074Z","obsTime":1776102660,"reportTime":"2026-04-13T18:00:00.000Z","temp":19.4,"dewp":11.7,"wdir":200,"wspd":11,"visib":"10+","altim":1013,"slp":1012.9,"qcField":4,"presTend":-4.2,"maxT":20.6,"minT":10,"metarType":"METAR","rawOb":"METAR KBDL 131751Z 20011KT 10SM FEW080 BKN140 BKN250 19/12 A2991 RMK AO2 SLP129 T01940117 10206 20100 56042","lat":41.9374,"lon":-72.682,"elev":52,"name":"Hartford/Bradley Intl, CT, US","cover":"BKN","clouds":[{"cover":"FEW","base":8000},{"cover":"BKN","base":14000},{"cover":"BKN","base":25000}],"fltCat":"VFR"},{"icaoId":"KCLE","receiptTime":"2026-04-13T17:54:10.249Z","obsTime":1776102660,"reportTime":"2026-04-13T18:00:00.000Z","temp":25,"dewp":16.1,"wdir":260,"wspd":14,"wgst":28,"visib":"10+","altim":1015,"slp":1015.8,"qcField":12,"presTend":-0.1,"maxT":25.6,"minT":17.8,"pcp6hr":0.01,"metarType":"METAR","rawOb":"METAR KCLE 131751Z 26014G28KT 10SM SCT042 BKN060 25/16 A2997 RMK AO2 PK WND 27031/1703 SLP158 60001 T02500161 10256 20178 58001 $","lat":41.4057,"lon":-81.8519,"elev":237,"name":"Cleveland/Hopkins Intl, OH, US","cover":"BKN","clouds":[{"cover":"SCT","base":4200},{"cover":"BKN","base":6000}],"fltCat":"VFR"},{"icaoId":"KCMH","receiptTime":"2026-04-13T17:54:10.292Z","obsTime":1776102660,"reportTime":"2026-04-13T18:00:00.000Z","temp":25.6,"dewp":13.9,"wdir":230,"wspd":13,"wgst":26,"visib":"10+","altim":1017.7,"slp":1017.1,"qcField":4,"presTend":-0.5,"maxT":26.1,"minT":20.6,"metarType":"METAR","rawOb":"METAR KCMH 131751Z 23013G26KT 10SM BKN050 OVC065 26/14 A3005 RMK AO2 PK WND 25027/1657 SLP171 T02560139 10261 20206 56005","lat":39.9907,"lon":-82.877,"elev":257,"name":"Columbus/Glenn Intl, OH, US","cover":"OVC","clouds":[{"cover":"BKN","base":5000},{"cover":"OVC","base":6500}],"fltCat":"VFR"},{"icaoId":"KCRP","receiptTime":"2026-04-13T17:54:10.367Z","obsTime":1776102660,"reportTime":"2026-04-13T18:00:00.000Z","temp":29.4,"dewp":22.2,"wdir":160,"wspd":21,"visib":"10+","altim":1018.7,"slp":1018.4,"qcField":4,"presTend":-0.3,"maxT":29.4,"minT":23.3,"metarType":"METAR","rawOb":"METAR KCRP 131751Z 16021KT 10SM SCT024 BKN033 BKN045 29/22 A3008 RMK AO2 PK WND 16027/1733 SLP184 T02940222 10294 20233 58003","lat":27.7734,"lon":-97.513,"elev":11,"name":"Corpus Christi Intl, TX, US","cover":"BKN","clouds":[{"cover":"SCT","base":2400},{"cover":"BKN","base":3300},{"cover":"BKN","base":4500}],"fltCat":"VFR"},{"icaoId":"KELP","receiptTime":"2026-04-13T17:54:10.533Z","obsTime":1776102660,"reportTime":"2026-04-13T18:00:00.000Z","temp":26.1,"dewp":0.6,"wdir":250,"wspd":17,"wgst":29,"visib":"10+","altim":1019.7,"slp":1013,"qcField":4,"presTend":-0.4,"maxT":26.1,"minT":16.1,"metarType":"METAR","rawOb":"METAR KELP 131751Z 25017G29KT 10SM FEW110 FEW160 SCT250 26/01 A3011 RMK AO2 PK WND 24029/1746 SLP130 T02610006 10261 20161 58004","lat":31.8123,"lon":-106.3774,"elev":1205,"name":"El Paso Intl, TX, US","cover":"SCT","clouds":[{"cover":"FEW","base":11000},{"cover":"FEW","base":16000},{"cover":"SCT","base":25000}],"fltCat":"VFR"},{"icaoId":"KEWR","receiptTime":"2026-04-13T17:54:10.607Z","obsTime":1776102660,"reportTime":"2026-04-13T18:00:00.000Z","temp":24.4,"dewp":13.3,"wdir":240,"wspd":15,"wgst":26,"visib":"10+","altim":1015,"slp":1014.9,"qcField":4,"presTend":-3.1,"maxT":24.4,"minT":11.1,"precip":0.005,"pcp6hr":0.005,"metarType":"METAR","rawOb":"METAR KEWR 131751Z 24015G26KT 10SM FEW090 BKN110 BKN160 BKN250 24/13 A2997 RMK AO2 PK WND 23026/1746 RAB44E51 SLP149 VCSH P0000 60000 T02440133 10244 20111 56031","lat":40.6828,"lon":-74.1692,"elev":2,"name":"Newark Intl, NJ, US","cover":"BKN","clouds":[{"cover":"FEW","base":9000},{"cover":"BKN","base":11000},{"cover":"BKN","base":16000},{"cover":"BKN","base":25000}],"fltCat":"VFR"},{"icaoId":"KIGM","receiptTime":"2026-04-13T17:54:10.797Z","obsTime":1776102660,"reportTime":"2026-04-13T18:00:00.000Z","temp":16.1,"dewp":1.1,"wdir":220,"wspd":17,"wgst":29,"visib":"10+","altim":1015.7,"slp":1010.6,"qcField":6,"maxT":16.7,"minT":7.2,"metarType":"METAR","rawOb":"METAR KIGM 131751Z AUTO 22017G29KT 10SM FEW060 16/01 A2999 RMK AO2 PK WND 24034/1706 SLP106 T01610011 10167 20072 55000","lat":35.2575,"lon":-113.9341,"elev":1045,"name":"Kingman Arpt, AZ, US","cover":"FEW","clouds":[{"cover":"FEW","base":6000}],"fltCat":"VFR"},{"icaoId":"KJFK","receiptTime":"2026-04-13T17:54:10.950Z","obsTime":1776102660,"reportTime":"2026-04-13T18:00:00.000Z","temp":15,"dewp":10.6,"wdir":170,"wspd":9,"visib":"10+","altim":1016,"slp":1015.9,"qcField":4,"presTend":-3,"maxT":16.1,"minT":11.1,"metarType":"METAR","rawOb":"METAR KJFK 131751Z 17009KT 10SM SCT160 BKN250 15/11 A3000 RMK AO2 SLP159 T01500106 10161 20111 56030","lat":40.6392,"lon":-73.7639,"elev":3,"name":"New York/JF Kennedy Intl, NY, US","cover":"BKN","clouds":[{"cover":"SCT","base":16000},{"cover":"BKN","base":25000}],"fltCat":"VFR"},{"icaoId":"KLGA","receiptTime":"2026-04-13T17:54:10.984Z","obsTime":1776102660,"reportTime":"2026-04-13T18:00:00.000Z","temp":23.9,"dewp":13.3,"wdir":230,"wspd":13,"wgst":22,"visib":"10+","altim":1014.6,"slp":1014.5,"qcField":12,"presTend":-3.4,"maxT":23.9,"minT":11.7,"metarType":"METAR","rawOb":"METAR KLGA 131751Z 23013G22KT 10SM FEW050 BKN200 BKN250 24/13 A2996 RMK AO2 SLP145 T02390133 10239 20117 58034 $","lat":40.7794,"lon":-73.8803,"elev":9,"name":"New York/La Guardia Arpt, NY, US","cover":"BKN","clouds":[{"cover":"FEW","base":5000},{"cover":"BKN","base":20000},{"cover":"BKN","base":25000}],"fltCat":"VFR"},{"icaoId":"KLGU","receiptTime":"2026-04-13T17:54:11.021Z","obsTime":1776102660,"reportTime":"2026-04-13T18:00:00.000Z","temp":5.6,"dewp":2.2,"wdir":360,"wspd":9,"visib":4,"altim":1016.7,"slp":1016.6,"qcField":6,"wxString":"-RA","presTend":0.4,"maxT":7.8,"minT":1.1,"precip":0.06,"pcp6hr":0.07,"metarType":"METAR","rawOb":"METAR KLGU 131751Z AUTO 36009KT 4SM -RA BKN020 BKN031 OVC070 06/02 A3002 RMK AO2 SLP166 P0006 60007 T00560022 10078 20011 53004","lat":41.7865,"lon":-111.8519,"elev":1359,"name":"Logan/Cache Arpt, UT, US","cover":"OVC","clouds":[{"cover":"BKN","base":2000},{"cover":"BKN","base":3100},{"cover":"OVC","base":7000}],"fltCat":"MVFR"},{"icaoId":"KMYL","receiptTime":"2026-04-13T17:54:11.084Z","obsTime":1776102660,"reportTime":"2026-04-13T18:00:00.000Z","temp":0.6,"dewp":0,"wdir":210,"wspd":4,"visib":1,"altim":1013.3,"slp":1014.8,"qcField":6,"wxString":"-SN BR","presTend":2.2,"maxT":0.6,"minT":0,"precip":0.02,"pcp6hr":0.19,"metarType":"METAR","rawOb":"METAR KMYL 131751Z AUTO 21004KT 1SM -SN BR SCT005 OVC012 01/00 A2992 RMK AO2 SLP148 P0002 60019 T00060000 10006 20000 53022","lat":44.8943,"lon":-116.0998,"elev":1532,"name":"McCall Muni, ID, US","cover":"OVC","clouds":[{"cover":"SCT","base":500},{"cover":"OVC","base":1200}],"fltCat":"IFR"},{"icaoId":"KORD","receiptTime":"2026-04-13T17:54:11.119Z","obsTime":1776102660,"reportTime":"2026-04-13T18:00:00.000Z","temp":22.2,"dewp":17.2,"wdir":220,"wspd":11,"visib":"10+","altim":1013,"slp":1012.6,"qcField":4,"presTend":-0.7,"maxT":22.2,"minT":17.8,"pcp6hr":0.005,"metarType":"METAR","rawOb":"METAR KORD 131751Z 22011KT 10SM OVC025 22/17 A2991 RMK AO2 SLP126 60000 T02220172 10222 20178 56007","lat":41.9602,"lon":-87.9316,"elev":202,"name":"Chicago/O'Hare Intl, IL, US","cover":"OVC","clouds":[{"cover":"OVC","base":2500}],"fltCat":"MVFR"},{"icaoId":"KACT","receiptTime":"2026-04-13T17:54:09.935Z","obsTime":1776102660,"reportTime":"2026-04-13T18:00:00.000Z","temp":26.1,"dewp":21.7,"wdir":180,"wspd":13,"visib":"10+","altim":1018.7,"slp":1017.7,"qcField":4,"presTend":-0.5,"maxT":26.7,"minT":21.7,"metarType":"METAR","rawOb":"METAR KACT 131751Z 18013KT 10SM FEW022 BKN032 OVC055 26/22 A3008 RMK AO2 SLP177 T02610217 10267 20217 58005","lat":31.618,"lon":-97.2283,"elev":150,"name":"Waco Rgnl, TX, US","cover":"OVC","clouds":[{"cover":"FEW","base":2200},{"cover":"BKN","base":3200},{"cover":"OVC","base":5500}],"fltCat":"VFR"},{"icaoId":"KAEG","receiptTime":"2026-04-13T17:51:37.048Z","obsTime":1776102600,"reportTime":"2026-04-13T18:00:00.000Z","temp":15,"dewp":-1,"wdir":220,"wspd":8,"visib":"10+","altim":1020.4,"qcField":0,"metarType":"METAR","rawOb":"METAR KAEG 131750Z 22008KT 10SM OVC110 15/M01 A3013","lat":35.15,"lon":-106.7929,"elev":1771,"name":"Albuquerque/Double Eagle Arpt, NM, US","cover":"OVC","clouds":[{"cover":"OVC","base":11000}],"fltCat":"VFR"},{"icaoId":"KHOB","receiptTime":"2026-04-13T17:51:07.321Z","obsTime":1776102600,"reportTime":"2026-04-13T18:00:00.000Z","temp":28,"dewp":-1,"wdir":220,"wspd":16,"wgst":27,"visib":"10+","altim":1018.7,"qcField":0,"metarType":"METAR","rawOb":"METAR KHOB 131750Z 22016G27KT 10SM CLR 28/M01 A3008","lat":32.6797,"lon":-103.2222,"elev":1112,"name":"Hobbs Arpt, NM, US","cover":"CLR","clouds":[],"fltCat":"VFR"},{"icaoId":"KGEU","receiptTime":"2026-04-13T17:51:07.162Z","obsTime":1776102540,"reportTime":"2026-04-13T18:00:00.000Z","temp":22,"dewp":5,"wdir":220,"wspd":8,"visib":"10+","altim":1014.6,"qcField":0,"metarType":"METAR","rawOb":"METAR KGEU 131749Z 22008KT 10SM BKN200 22/05 A2996","lat":33.528,"lon":-112.293,"elev":319,"name":"Glendale Muni, AZ, US","cover":"BKN","clouds":[{"cover":"BKN","base":20000}],"fltCat":"VFR"},{"icaoId":"KIFP","receiptTime":"2026-04-13T17:50:28.290Z","obsTime":1776102420,"reportTime":"2026-04-13T18:00:00.000Z","temp":21,"dewp":1,"wdir":200,"wspd":10,"wgst":19,"visib":"10+","altim":1014,"qcField":0,"metarType":"METAR","rawOb":"METAR KIFP 131747Z 20010G19KT 10SM CLR 21/01 A2994","lat":35.1487,"lon":-114.5611,"elev":210,"name":"Bullhead City Intl, AZ, US","cover":"CLR","clouds":[],"fltCat":"VFR"},{"icaoId":"KSUN","receiptTime":"2026-04-13T17:54:13.497Z","obsTime":1776102420,"reportTime":"2026-04-13T18:00:00.000Z","temp":2,"dewp":1,"wdir":110,"wspd":10,"wgst":16,"visib":4,"altim":1015,"qcField":0,"wxString":"-SN","metarType":"METAR","rawOb":"METAR KSUN 131747Z 11010G16KT 4SM -SN BKN008 OVC014 02/01 A2997","lat":43.4969,"lon":-114.2923,"elev":1619,"name":"Hailey/Friedman Mem, ID, US","cover":"OVC","clouds":[{"cover":"BKN","base":800},{"cover":"OVC","base":1400}],"fltCat":"IFR"},{"icaoId":"KCHD","receiptTime":"2026-04-13T17:49:06.809Z","obsTime":1776102420,"reportTime":"2026-04-13T18:00:00.000Z","temp":22,"dewp":7,"wdir":190,"wspd":14,"visib":"10+","altim":1015.7,"qcField":0,"metarType":"METAR","rawOb":"METAR KCHD 131747Z 19014KT 10SM OVC130 22/07 A2999","lat":33.2669,"lon":-111.8086,"elev":378,"name":"Chandler Muni, AZ, US","cover":"OVC","clouds":[{"cover":"OVC","base":13000}],"fltCat":"VFR"},{"icaoId":"KBJC","receiptTime":"2026-04-13T17:49:37.467Z","obsTime":1776102360,"reportTime":"2026-04-13T18:00:00.000Z","temp":19,"dewp":-9,"wdir":350,"wspd":10,"wgst":18,"visib":"10+","altim":1012.3,"qcField":0,"metarType":"METAR","rawOb":"METAR KBJC 131746Z 35010G18KT 10SM CLR 19/M09 A2989","lat":39.9008,"lon":-105.1042,"elev":1694,"name":"Rocky Mtn Metro, CO, US","cover":"CLR","clouds":[],"fltCat":"VFR"},{"icaoId":"KRYN","receiptTime":"2026-04-13T17:47:48.862Z","obsTime":1776102300,"reportTime":"2026-04-13T18:00:00.000Z","temp":24,"dewp":2,"wdir":210,"wspd":19,"wgst":28,"visib":"10+","altim":1016.3,"qcField":0,"metarType":"METAR","rawOb":"METAR KRYN 131745Z 21019G28KT 10SM CLR 24/02 A3001","lat":32.1418,"lon":-111.1767,"elev":731,"name":"Tucson/Ryan Fld, AZ, US","cover":"CLR","clouds":[],"fltCat":"VFR"},{"icaoId":"KOTH","receiptTime":"2026-04-13T17:03:23.702Z","obsTime":1776099360,"reportTime":"2026-04-13T17:00:00.000Z","temp":9,"dewp":7,"wdir":0,"wspd":0,"visib":"10+","altim":1022.8,"qcField":0,"metarType":"METAR","rawOb":"METAR KOTH 131656Z 000000KT 10SM BKN034 OVC045 09/07 A3020","lat":43.4194,"lon":-124.2438,"elev":3,"name":"North Bend/SW Oregon Rgnl, OR, US","cover":"OVC","clouds":[{"cover":"BKN","base":3400},{"cover":"OVC","base":4500}],"fltCat":"VFR"},{"icaoId":"KTRM","receiptTime":"2026-04-13T17:00:24.898Z","obsTime":1776099120,"reportTime":"2026-04-13T17:00:00.000Z","temp":21.7,"dewp":2.2,"wdir":180,"wspd":6,"visib":"10+","altim":1015,"slp":1014.9,"qcField":46,"metarType":"METAR","rawOb":"METAR KTRM 131652Z AUTO 18006KT 10SM CLR 22/02 A2997 RMK AO2 SLP149 T02170022 TSNO $","lat":33.6317,"lon":-116.1641,"elev":-39,"name":"Thermal Arpt, CA, US","cover":"CLR","clouds":[],"fltCat":"VFR"},{"icaoId":"KGYR","receiptTime":"2026-04-13T16:51:43.103Z","obsTime":1776098820,"reportTime":"2026-04-13T17:00:00.000Z","temp":21,"dewp":8,"wdir":240,"wspd":7,"visib":"10+","altim":1015.7,"qcField":0,"metarType":"METAR","rawOb":"METAR KGYR 131647Z 24007KT 10SM SCT065 BKN180 OVC250 21/08 A2999","lat":33.428,"lon":-112.368,"elev":292,"name":"Phoenix/Goodyear Muni, AZ, US","cover":"OVC","clouds":[{"cover":"SCT","base":6500},{"cover":"BKN","base":18000},{"cover":"OVC","base":25000}],"fltCat":"VFR"}]