[{"icaoId":"KHII","receiptTime":"2026-04-07T08:42:07.178Z","obsTime":1775550900,"reportTime":"2026-04-07T08:35:00.000Z","temp":23,"dewp":-5,"wdir":0,"wspd":0,"visib":"10+","altim":1011.6,"qcField":6,"metarType":"METAR","rawOb":"METAR KHII 070835Z AUTO 00000KT 10SM CLR 23/M05 A2987 RMK AO2","lat":34.5659,"lon":-114.3522,"elev":241,"name":"Lake Havasu City Arpt, AZ, US","cover":"CLR","clouds":[],"fltCat":"VFR"},{"icaoId":"KIWA","receiptTime":"2026-04-07T08:40:21.318Z","obsTime":1775550900,"reportTime":"2026-04-07T08:35:00.000Z","temp":19.4,"dewp":7.1,"wdir":330,"wspd":9,"visib":"10+","altim":1014,"qcField":6,"metarType":"METAR","rawOb":"METAR KIWA 070835Z AUTO 33009KT 10SM CLR 19/07 A2994 RMK AO2 T01940071","lat":33.3008,"lon":-111.6437,"elev":420,"name":"Phoenix/Mesa Gateway Arpt, AZ, US","cover":"CLR","clouds":[],"fltCat":"VFR"},{"icaoId":"KCHD","receiptTime":"2026-04-07T08:38:13.072Z","obsTime":1775550900,"reportTime":"2026-04-07T08:35:00.000Z","temp":20.6,"dewp":7.3,"wdir":20,"wspd":7,"visib":"10+","altim":1013.3,"qcField":6,"metarType":"METAR","rawOb":"METAR KCHD 070835Z AUTO 02007KT 10SM CLR 21/07 A2992 RMK AO2 T02060073","lat":33.2669,"lon":-111.8086,"elev":378,"name":"Chandler Muni, AZ, US","cover":"CLR","clouds":[],"fltCat":"VFR"},{"icaoId":"KSOW","receiptTime":"2026-04-07T08:38:15.428Z","obsTime":1775550900,"reportTime":"2026-04-07T08:35:00.000Z","temp":6,"dewp":6,"wdir":0,"wspd":0,"visib":"10+","altim":1020.7,"qcField":6,"metarType":"METAR","rawOb":"METAR KSOW 070835Z AUTO 00000KT 10SM FEW040 SCT047 BKN100 06/06 A3014 RMK AO2","lat":34.2686,"lon":-110.0019,"elev":1954,"name":"Show Low Muni, AZ, US","cover":"BKN","clouds":[{"cover":"FEW","base":4000},{"cover":"SCT","base":4700},{"cover":"BKN","base":10000}],"fltCat":"VFR"},{"icaoId":"KSEZ","receiptTime":"2026-04-07T08:40:18.128Z","obsTime":1775550900,"reportTime":"2026-04-07T08:35:00.000Z","temp":12,"dewp":4,"wdir":50,"wspd":8,"visib":"10+","altim":1018.7,"qcField":6,"metarType":"METAR","rawOb":"METAR KSEZ 070835Z AUTO 05008KT 10SM CLR 12/04 A3008 RMK AO2","lat":34.8467,"lon":-111.7884,"elev":1455,"name":"Sedona Arpt, AZ, US","cover":"CLR","clouds":[],"fltCat":"VFR"},{"icaoId":"KIFP","receiptTime":"2026-04-07T08:40:21.231Z","obsTime":1775550900,"reportTime":"2026-04-07T08:35:00.000Z","temp":21,"dewp":-6,"wdir":120,"wspd":6,"visib":"10+","altim":1010.9,"qcField":6,"metarType":"METAR","rawOb":"METAR KIFP 070835Z AUTO 12006KT 10SM CLR 21/M06 A2985 RMK AO2","lat":35.1487,"lon":-114.5611,"elev":210,"name":"Bullhead City Intl, AZ, US","cover":"CLR","clouds":[],"fltCat":"VFR"},{"icaoId":"KNYL","receiptTime":"2026-04-07T08:00:26.992Z","obsTime":1775548620,"reportTime":"2026-04-07T08:00:00.000Z","temp":23.9,"dewp":6.7,"wdir":320,"wspd":4,"visib":"10+","altim":1011.3,"slp":1011,"qcField":6,"metarType":"METAR","rawOb":"METAR KNYL 070757Z AUTO 32004KT 10SM CLR 24/07 A2986 RMK AO2 SLP110 T02390067","lat":32.66,"lon":-114.6078,"elev":58,"name":"Yuma , AZ, US","cover":"CLR","clouds":[],"fltCat":"VFR"},{"icaoId":"KFLG","receiptTime":"2026-04-07T08:00:29.694Z","obsTime":1775548620,"reportTime":"2026-04-07T08:00:00.000Z","temp":3.3,"dewp":2.8,"wdir":0,"wspd":0,"visib":"10+","altim":1021.8,"slp":1016.1,"qcField":6,"metarType":"METAR","rawOb":"METAR KFLG 070757Z AUTO 00000KT 10SM CLR 03/03 A3017 RMK AO2 SLP161 T00330028","lat":35.1443,"lon":-111.6664,"elev":2134,"name":"Flagstaff/Pulliam Arpt, AZ, US","cover":"CLR","clouds":[],"fltCat":"VFR"},{"icaoId":"KCGZ","receiptTime":"2026-04-07T07:58:29.211Z","obsTime":1775548560,"reportTime":"2026-04-07T08:00:00.000Z","temp":20,"dewp":6.1,"wdir":10,"wspd":5,"visib":"10+","altim":1013.6,"slp":1012.3,"qcField":14,"metarType":"METAR","rawOb":"METAR KCGZ 070756Z AUTO 01005KT 10SM CLR 20/06 A2993 RMK AO2 SLP123 T02000061 $","lat":32.9531,"lon":-111.7725,"elev":444,"name":"Casa Granda Muni, AZ, US","cover":"CLR","clouds":[],"fltCat":"VFR"},{"icaoId":"KDUG","receiptTime":"2026-04-07T08:02:06.920Z","obsTime":1775548560,"reportTime":"2026-04-07T08:00:00.000Z","temp":11.1,"dewp":3.9,"wdir":0,"wspd":0,"visib":"10+","altim":1016.3,"slp":1011.7,"qcField":38,"metarType":"METAR","rawOb":"METAR KDUG 070756Z AUTO 00000KT 10SM CLR 11/04 A3001 RMK AO2 SLP117 T01110039 TSNO","lat":31.4725,"lon":-109.6022,"elev":1260,"name":"Douglas/Bisbee Intl, AZ, US","cover":"CLR","clouds":[],"fltCat":"VFR"},{"icaoId":"KINW","receiptTime":"2026-04-07T08:00:19.570Z","obsTime":1775548560,"reportTime":"2026-04-07T08:00:00.000Z","temp":10.6,"dewp":9.4,"wdir":0,"wspd":0,"visib":"10+","altim":1019.7,"slp":1015.2,"qcField":6,"wxString":"-RA","precip":0.005,"metarType":"METAR","rawOb":"METAR KINW 070756Z AUTO 00000KT 10SM -RA OVC080 11/09 A3011 RMK AO2 RAB13 SLP152 P0000 T01060094","lat":35.0279,"lon":-110.7221,"elev":1492,"name":"Winslow/Lindberg Rgnl, AZ, US","cover":"OVC","clouds":[{"cover":"OVC","base":8000}],"fltCat":"VFR"},{"icaoId":"KFFZ","receiptTime":"2026-04-07T07:58:28.235Z","obsTime":1775548440,"reportTime":"2026-04-07T08:00:00.000Z","temp":20,"dewp":7.8,"wdir":230,"wspd":7,"visib":"10+","altim":1013.3,"slp":1011.2,"qcField":4,"metarType":"METAR","rawOb":"METAR KFFZ 070754Z 23007KT 10SM CLR 20/08 A2992 RMK AO2 SLP112 T02000078","lat":33.4659,"lon":-111.7212,"elev":420,"name":"Mesa/Falcon Fld, AZ, US","cover":"CLR","clouds":[],"fltCat":"VFR"},{"icaoId":"KGCN","receiptTime":"2026-04-07T07:58:15.274Z","obsTime":1775548440,"reportTime":"2026-04-07T08:00:00.000Z","temp":2.2,"dewp":2.2,"wdir":60,"wspd":4,"visib":"10+","altim":1021.4,"slp":1016.5,"qcField":6,"metarType":"METAR","rawOb":"METAR KGCN 070754Z AUTO 06004KT 10SM CLR 02/02 A3016 RMK AO2 SLP165 T00220022","lat":35.9458,"lon":-112.1554,"elev":1993,"name":"Grand Canyon Park Arpt, AZ, US","cover":"CLR","clouds":[],"fltCat":"VFR"},{"icaoId":"KOLS","receiptTime":"2026-04-07T07:58:15.343Z","obsTime":1775548440,"reportTime":"2026-04-07T08:00:00.000Z","temp":13.3,"dewp":0.6,"wdir":80,"wspd":5,"visib":"10+","altim":1016,"slp":1010.8,"qcField":6,"metarType":"METAR","rawOb":"METAR KOLS 070754Z AUTO 08005KT 10SM CLR 13/01 A3000 RMK AO2 SLP108 T01330006","lat":31.4208,"lon":-110.8465,"elev":1194,"name":"Nogales Intl, AZ, US","cover":"CLR","clouds":[],"fltCat":"VFR"},{"icaoId":"KSJN","receiptTime":"2026-04-07T07:58:13.721Z","obsTime":1775548440,"reportTime":"2026-04-07T08:00:00.000Z","temp":8.3,"dewp":7.2,"wdir":70,"wspd":3,"visib":"10+","altim":1019.7,"slp":1013.5,"qcField":6,"wxString":"-RA","precip":0.01,"metarType":"METAR","rawOb":"METAR KSJN 070754Z AUTO 07003KT 10SM -RA BKN016 BKN028 OVC032 08/07 A3011 RMK AO2 RAB06 SLP135 P0001 T00830072","lat":34.5184,"lon":-109.3801,"elev":1747,"name":"St Johns Ind Arpt, AZ, US","cover":"OVC","clouds":[{"cover":"BKN","base":1600},{"cover":"BKN","base":2800},{"cover":"OVC","base":3200}],"fltCat":"MVFR"},{"icaoId":"KSDL","receiptTime":"2026-04-07T07:56:37.816Z","obsTime":1775548380,"reportTime":"2026-04-07T08:00:00.000Z","temp":20,"dewp":6.7,"wdir":0,"wspd":0,"visib":"10+","altim":1013.6,"slp":1011.6,"qcField":6,"metarType":"METAR","rawOb":"METAR KSDL 070753Z AUTO 00000KT 10SM CLR 20/07 A2993 RMK AO2 SLP116 T02000067","lat":33.6123,"lon":-111.9232,"elev":438,"name":"Scottsdale Muni, AZ, US","cover":"CLR","clouds":[],"fltCat":"VFR"},{"icaoId":"KPRC","receiptTime":"2026-04-07T07:56:42.494Z","obsTime":1775548380,"reportTime":"2026-04-07T08:00:00.000Z","temp":7.8,"dewp":2.2,"wdir":0,"wspd":0,"visib":"10+","altim":1019,"slp":1013.7,"qcField":6,"metarType":"METAR","rawOb":"METAR KPRC 070753Z AUTO 00000KT 10SM CLR 08/02 A3009 RMK AO2 SLP137 T00780022","lat":34.6491,"lon":-112.4223,"elev":1528,"name":"Prescott/Love Fld, AZ, US","cover":"CLR","clouds":[],"fltCat":"VFR"},{"icaoId":"KDVT","receiptTime":"2026-04-07T07:56:45.532Z","obsTime":1775548380,"reportTime":"2026-04-07T08:00:00.000Z","temp":18.9,"dewp":6.1,"wdir":"VRB","wspd":3,"visib":"10+","altim":1013.6,"slp":1011.5,"qcField":6,"metarType":"METAR","rawOb":"METAR KDVT 070753Z AUTO VRB03KT 10SM CLR 19/06 A2993 RMK AO2 SLP115 T01890061","lat":33.6902,"lon":-112.0662,"elev":454,"name":"Phoenix/Deer Valley Arpt, AZ, US","cover":"CLR","clouds":[],"fltCat":"VFR"},{"icaoId":"KTUS","receiptTime":"2026-04-07T07:56:37.136Z","obsTime":1775548380,"reportTime":"2026-04-07T08:00:00.000Z","temp":18.3,"dewp":5.6,"wdir":250,"wspd":6,"visib":"10+","altim":1015,"slp":1011.2,"qcField":4,"metarType":"METAR","rawOb":"METAR KTUS 070753Z 25006KT 10SM CLR 18/06 A2997 RMK AO2 SLP112 T01830056","lat":32.1315,"lon":-110.9564,"elev":776,"name":"Tucson Intl Arpt, AZ, US","cover":"CLR","clouds":[],"fltCat":"VFR"},{"icaoId":"KPGA","receiptTime":"2026-04-07T07:56:37.646Z","obsTime":1775548380,"reportTime":"2026-04-07T08:00:00.000Z","temp":15.6,"dewp":2.2,"wdir":210,"wspd":5,"visib":"10+","altim":1016.7,"slp":1012.2,"qcField":14,"metarType":"METAR","rawOb":"METAR KPGA 070753Z AUTO 21005KT 10SM CLR 16/02 A3002 RMK AO2 SLP122 T01560022 $","lat":36.9211,"lon":-111.4487,"elev":1310,"name":"Page Muni, AZ, US","cover":"CLR","clouds":[],"fltCat":"VFR"},{"icaoId":"KSAD","receiptTime":"2026-04-07T07:54:10.614Z","obsTime":1775548260,"reportTime":"2026-04-07T08:00:00.000Z","temp":16.1,"dewp":6.7,"wdir":340,"wspd":4,"visib":"10+","altim":1016,"slp":1012.5,"qcField":6,"metarType":"METAR","rawOb":"METAR KSAD 070751Z AUTO 34004KT 10SM OVC120 16/07 A3000 RMK AO2 SLP125 T01610067","lat":32.8565,"lon":-109.636,"elev":937,"name":"Safford Rgnl, AZ, US","cover":"OVC","clouds":[{"cover":"OVC","base":12000}],"fltCat":"VFR"},{"icaoId":"KPHX","receiptTime":"2026-04-07T07:54:10.477Z","obsTime":1775548260,"reportTime":"2026-04-07T08:00:00.000Z","temp":22.2,"dewp":7.2,"wdir":130,"wspd":3,"visib":"10+","altim":1012.6,"slp":1011,"qcField":4,"metarType":"METAR","rawOb":"METAR KPHX 070751Z 13003KT 10SM CLR 22/07 A2990 RMK AO2 SLP110 T02220072","lat":33.4278,"lon":-112.0037,"elev":338,"name":"Phoenix/Sky Harbor Intl, AZ, US","cover":"CLR","clouds":[],"fltCat":"VFR"},{"icaoId":"KIGM","receiptTime":"2026-04-07T07:54:10.266Z","obsTime":1775548260,"reportTime":"2026-04-07T08:00:00.000Z","temp":14.4,"dewp":-6.7,"wdir":140,"wspd":9,"visib":"10+","altim":1016,"slp":1010.1,"qcField":6,"metarType":"METAR","rawOb":"METAR KIGM 070751Z AUTO 14009KT 10SM CLR 14/M07 A3000 RMK AO2 SLP101 T01441067","lat":35.2575,"lon":-113.9341,"elev":1045,"name":"Kingman Arpt, AZ, US","cover":"CLR","clouds":[],"fltCat":"VFR"}]