[{"icaoId":"KIFP","receiptTime":"2026-04-06T09:20:19.625Z","obsTime":1775466900,"reportTime":"2026-04-06T09:15:00.000Z","temp":22,"dewp":-6,"wdir":0,"wspd":0,"visib":"10+","altim":1011.9,"qcField":6,"metarType":"METAR","rawOb":"METAR KIFP 060915Z AUTO 00000KT 10SM CLR 22/M06 A2988 RMK AO2","lat":35.1487,"lon":-114.5611,"elev":210,"name":"Bullhead City Intl, AZ, US","cover":"CLR","clouds":[],"fltCat":"VFR"},{"icaoId":"KSOW","receiptTime":"2026-04-06T09:18:16.960Z","obsTime":1775466900,"reportTime":"2026-04-06T09:15:00.000Z","temp":11,"dewp":-3,"wdir":190,"wspd":11,"visib":"10+","altim":1024.1,"qcField":6,"metarType":"METAR","rawOb":"METAR KSOW 060915Z AUTO 19011KT 10SM CLR 11/M03 A3024 RMK AO2","lat":34.2686,"lon":-110.0019,"elev":1954,"name":"Show Low Muni, AZ, US","cover":"CLR","clouds":[],"fltCat":"VFR"},{"icaoId":"KCHD","receiptTime":"2026-04-06T09:18:15.405Z","obsTime":1775466900,"reportTime":"2026-04-06T09:15:00.000Z","temp":26.9,"dewp":2.8,"wdir":110,"wspd":16,"wgst":23,"visib":9,"altim":1012.6,"qcField":6,"wxString":"-RA","precip":0.005,"metarType":"METAR","rawOb":"METAR KCHD 060915Z AUTO 11016G23KT 9SM -RA OVC230 27/03 A2990 RMK AO2 RAB0851 P0000 T02690028","lat":33.2669,"lon":-111.8086,"elev":378,"name":"Chandler Muni, AZ, US","cover":"OVC","clouds":[{"cover":"OVC","base":23000}],"fltCat":"VFR"},{"icaoId":"KSEZ","receiptTime":"2026-04-06T09:20:24.836Z","obsTime":1775466900,"reportTime":"2026-04-06T09:15:00.000Z","temp":17,"dewp":-2,"wdir":70,"wspd":4,"visib":"10+","altim":1020.4,"qcField":6,"metarType":"METAR","rawOb":"METAR KSEZ 060915Z AUTO 07004KT 10SM CLR 17/M02 A3013 RMK AO2","lat":34.8467,"lon":-111.7884,"elev":1455,"name":"Sedona Arpt, AZ, US","cover":"CLR","clouds":[],"fltCat":"VFR"},{"icaoId":"KIWA","receiptTime":"2026-04-06T09:20:19.675Z","obsTime":1775466900,"reportTime":"2026-04-06T09:15:00.000Z","temp":26.2,"dewp":0.7,"wdir":100,"wspd":16,"visib":"10+","altim":1013.6,"qcField":6,"metarType":"METAR","rawOb":"METAR KIWA 060915Z AUTO 10016KT 10SM CLR 26/01 A2993 RMK AO2 T02620007","lat":33.3008,"lon":-111.6437,"elev":420,"name":"Phoenix/Mesa Gateway Arpt, AZ, US","cover":"CLR","clouds":[],"fltCat":"VFR"},{"icaoId":"KHII","receiptTime":"2026-04-06T09:21:05.745Z","obsTime":1775466900,"reportTime":"2026-04-06T09:15:00.000Z","temp":23,"dewp":-12,"wdir":0,"wspd":0,"visib":"10+","altim":1011.9,"qcField":6,"metarType":"METAR","rawOb":"METAR KHII 060915Z AUTO 00000KT 10SM CLR 23/M12 A2988 RMK AO2","lat":34.5659,"lon":-114.3522,"elev":241,"name":"Lake Havasu City Arpt, AZ, US","cover":"CLR","clouds":[],"fltCat":"VFR"},{"icaoId":"KNYL","receiptTime":"2026-04-06T09:00:24.882Z","obsTime":1775465820,"reportTime":"2026-04-06T09:00:00.000Z","temp":23.3,"dewp":-2.8,"wdir":270,"wspd":4,"visib":"10+","altim":1011.6,"slp":1011.3,"qcField":14,"metarType":"METAR","rawOb":"METAR KNYL 060857Z AUTO 27004KT 10SM CLR 23/M03 A2987 RMK AO2 SLP113 T02331028 50000 $","lat":32.66,"lon":-114.6078,"elev":58,"name":"Yuma , AZ, US","cover":"CLR","clouds":[],"fltCat":"VFR"},{"icaoId":"KFLG","receiptTime":"2026-04-06T09:00:21.954Z","obsTime":1775465820,"reportTime":"2026-04-06T09:00:00.000Z","temp":4.4,"dewp":-5,"wdir":0,"wspd":0,"visib":"10+","altim":1024.1,"slp":1017,"qcField":6,"presTend":-0.8,"metarType":"METAR","rawOb":"METAR KFLG 060857Z AUTO 00000KT 10SM CLR 04/M05 A3024 RMK AO2 SLP170 T00441050 58008","lat":35.1443,"lon":-111.6664,"elev":2134,"name":"Flagstaff/Pulliam Arpt, AZ, US","cover":"CLR","clouds":[],"fltCat":"VFR"},{"icaoId":"KCGZ","receiptTime":"2026-04-06T08:58:24.655Z","obsTime":1775465760,"reportTime":"2026-04-06T09:00:00.000Z","temp":24.4,"dewp":-1.1,"wdir":100,"wspd":9,"visib":"10+","altim":1013.6,"slp":1011.9,"qcField":14,"presTend":0.1,"metarType":"METAR","rawOb":"METAR KCGZ 060856Z AUTO 10009KT 10SM CLR 24/M01 A2993 RMK AO2 SLP119 6//// T02441011 53001 $","lat":32.9531,"lon":-111.7725,"elev":444,"name":"Casa Granda Muni, AZ, US","cover":"CLR","clouds":[],"fltCat":"VFR"},{"icaoId":"KDUG","receiptTime":"2026-04-06T09:04:03.652Z","obsTime":1775465760,"reportTime":"2026-04-06T09:00:00.000Z","temp":15.6,"dewp":5,"wdir":90,"wspd":6,"visib":"10+","altim":1022.1,"slp":1016.2,"qcField":38,"presTend":0.7,"metarType":"METAR","rawOb":"METAR KDUG 060856Z AUTO 09006KT 10SM CLR 16/05 A3018 RMK AO2 SLP162 T01560050 53007 TSNO","lat":31.4725,"lon":-109.6022,"elev":1260,"name":"Douglas/Bisbee Intl, AZ, US","cover":"CLR","clouds":[],"fltCat":"VFR"},{"icaoId":"KINW","receiptTime":"2026-04-06T09:00:15.799Z","obsTime":1775465760,"reportTime":"2026-04-06T09:00:00.000Z","temp":12.2,"dewp":-2.2,"wdir":10,"wspd":4,"visib":"10+","altim":1021.1,"slp":1015.9,"qcField":6,"presTend":-0.3,"metarType":"METAR","rawOb":"METAR KINW 060856Z AUTO 01004KT 10SM CLR 12/M02 A3015 RMK AO2 SLP159 T01221022 56003","lat":35.0279,"lon":-110.7221,"elev":1492,"name":"Winslow/Lindberg Rgnl, AZ, US","cover":"CLR","clouds":[],"fltCat":"VFR"},{"icaoId":"KLUF","receiptTime":"2026-04-06T09:04:02.890Z","obsTime":1775465700,"reportTime":"2026-04-06T09:00:00.000Z","temp":23.5,"dewp":-0.1,"wdir":340,"wspd":3,"visib":"10+","altim":1011.9,"slp":1010.4,"qcField":14,"presTend":0.1,"metarType":"METAR","rawOb":"METAR KLUF 060855Z AUTO 34003KT 10SM CLR 24/M00 A2988 RMK AO2 LTG DSNT S SLP104 T02351001 50001 $","lat":33.538,"lon":-112.38,"elev":333,"name":"Phoenix/Luke AFB, AZ, US","cover":"CLR","clouds":[],"fltCat":"VFR"},{"icaoId":"KOLS","receiptTime":"2026-04-06T08:58:17.911Z","obsTime":1775465640,"reportTime":"2026-04-06T09:00:00.000Z","temp":19.4,"dewp":3.3,"wdir":0,"wspd":0,"visib":"10+","altim":1018.7,"slp":1012.1,"qcField":6,"presTend":-0.3,"metarType":"METAR","rawOb":"METAR KOLS 060854Z AUTO 00000KT 10SM CLR 19/03 A3008 RMK AO2 SLP121 T01940033 58003","lat":31.4208,"lon":-110.8465,"elev":1194,"name":"Nogales Intl, AZ, US","cover":"CLR","clouds":[],"fltCat":"VFR"},{"icaoId":"KFFZ","receiptTime":"2026-04-06T08:58:09.173Z","obsTime":1775465640,"reportTime":"2026-04-06T09:00:00.000Z","temp":27.8,"dewp":0.6,"wdir":"VRB","wspd":5,"visib":"10+","altim":1012.6,"slp":1010,"qcField":38,"presTend":-0.3,"metarType":"METAR","rawOb":"METAR KFFZ 060854Z AUTO VRB05KT 10SM CLR 28/01 A2990 RMK AO2 SLP100 T02780006 58003 TSNO","lat":33.4659,"lon":-111.7212,"elev":420,"name":"Mesa/Falcon Fld, AZ, US","cover":"CLR","clouds":[],"fltCat":"VFR"},{"icaoId":"KGCN","receiptTime":"2026-04-06T08:58:11.971Z","obsTime":1775465640,"reportTime":"2026-04-06T09:00:00.000Z","temp":2.2,"dewp":-4.4,"wdir":0,"wspd":0,"visib":"10+","altim":1023.8,"slp":1017.8,"qcField":6,"presTend":-0.2,"metarType":"METAR","rawOb":"METAR KGCN 060854Z AUTO 00000KT 10SM CLR 02/M04 A3023 RMK AO2 SLP178 T00221044 58002","lat":35.9458,"lon":-112.1554,"elev":1993,"name":"Grand Canyon Park Arpt, AZ, US","cover":"CLR","clouds":[],"fltCat":"VFR"},{"icaoId":"KSJN","receiptTime":"2026-04-06T08:58:08.689Z","obsTime":1775465640,"reportTime":"2026-04-06T09:00:00.000Z","temp":13.3,"dewp":-3.3,"wdir":130,"wspd":7,"visib":"10+","altim":1022.8,"slp":1014.9,"qcField":6,"presTend":-0.1,"metarType":"METAR","rawOb":"METAR KSJN 060854Z AUTO 13007KT 10SM CLR 13/M03 A3020 RMK AO2 SLP149 T01331033 58001","lat":34.5184,"lon":-109.3801,"elev":1747,"name":"St Johns Ind Arpt, AZ, US","cover":"CLR","clouds":[],"fltCat":"VFR"},{"icaoId":"KTUS","receiptTime":"2026-04-06T08:56:22.671Z","obsTime":1775465580,"reportTime":"2026-04-06T09:00:00.000Z","temp":23.3,"dewp":3.9,"wdir":110,"wspd":16,"visib":"10+","altim":1017,"slp":1012.1,"qcField":12,"presTend":-0.1,"metarType":"METAR","rawOb":"METAR KTUS 060853Z 11016KT 10SM CLR 23/04 A3003 RMK AO2 SLP121 T02330039 58001 $","lat":32.1315,"lon":-110.9564,"elev":776,"name":"Tucson Intl Arpt, AZ, US","cover":"CLR","clouds":[],"fltCat":"VFR"},{"icaoId":"KPGA","receiptTime":"2026-04-06T08:56:25.695Z","obsTime":1775465580,"reportTime":"2026-04-06T09:00:00.000Z","temp":11.7,"dewp":-8.3,"wdir":290,"wspd":3,"visib":"10+","altim":1020.1,"slp":1015.9,"qcField":14,"presTend":-0.2,"metarType":"METAR","rawOb":"METAR KPGA 060853Z AUTO 29003KT 10SM CLR 12/M08 A3012 RMK AO2 SLP159 T01171083 58002 $","lat":36.9211,"lon":-111.4487,"elev":1310,"name":"Page Muni, AZ, US","cover":"CLR","clouds":[],"fltCat":"VFR"},{"icaoId":"KSDL","receiptTime":"2026-04-06T08:56:26.706Z","obsTime":1775465580,"reportTime":"2026-04-06T09:00:00.000Z","temp":27.8,"dewp":0,"wdir":100,"wspd":10,"visib":"10+","altim":1013.3,"slp":1010.4,"qcField":6,"presTend":-0.3,"metarType":"METAR","rawOb":"METAR KSDL 060853Z AUTO 10010KT 10SM CLR 28/00 A2992 RMK AO2 SLP104 T02780000 58003","lat":33.6123,"lon":-111.9232,"elev":438,"name":"Scottsdale Muni, AZ, US","cover":"CLR","clouds":[],"fltCat":"VFR"},{"icaoId":"KPRC","receiptTime":"2026-04-06T08:56:26.014Z","obsTime":1775465580,"reportTime":"2026-04-06T09:00:00.000Z","temp":11.7,"dewp":-1.1,"wdir":210,"wspd":3,"visib":"10+","altim":1020.4,"slp":1013.7,"qcField":4,"presTend":-0.5,"metarType":"METAR","rawOb":"METAR KPRC 060853Z 21003KT 10SM SCT110 12/M01 A3013 RMK AO2 SLP137 T01171011 58005","lat":34.6491,"lon":-112.4223,"elev":1528,"name":"Prescott/Love Fld, AZ, US","cover":"SCT","clouds":[{"cover":"SCT","base":11000}],"fltCat":"VFR"},{"icaoId":"KDVT","receiptTime":"2026-04-06T08:56:24.337Z","obsTime":1775465580,"reportTime":"2026-04-06T09:00:00.000Z","temp":25,"dewp":0,"wdir":110,"wspd":3,"visib":"10+","altim":1013.3,"slp":1010.6,"qcField":14,"presTend":-0.2,"metarType":"METAR","rawOb":"METAR KDVT 060853Z AUTO 11003KT 10SM CLR 25/00 A2992 RMK AO2 SLP106 T02500000 58002 $","lat":33.6902,"lon":-112.0662,"elev":454,"name":"Phoenix/Deer Valley Arpt, AZ, US","cover":"CLR","clouds":[],"fltCat":"VFR"},{"icaoId":"KIGM","receiptTime":"2026-04-06T08:54:20.460Z","obsTime":1775465460,"reportTime":"2026-04-06T09:00:00.000Z","temp":16.1,"dewp":-7.2,"wdir":0,"wspd":0,"visib":"10+","altim":1017.4,"slp":1010.8,"qcField":6,"presTend":-0.5,"metarType":"METAR","rawOb":"METAR KIGM 060851Z AUTO 00000KT 10SM CLR 16/M07 A3004 RMK AO2 SLP108 T01611072 58005","lat":35.2575,"lon":-113.9341,"elev":1045,"name":"Kingman Arpt, AZ, US","cover":"CLR","clouds":[],"fltCat":"VFR"},{"icaoId":"KPHX","receiptTime":"2026-04-06T08:54:09.248Z","obsTime":1775465460,"reportTime":"2026-04-06T09:00:00.000Z","temp":26.7,"dewp":1.1,"wdir":80,"wspd":5,"visib":"10+","altim":1012.3,"slp":1010.2,"qcField":4,"presTend":-0.1,"metarType":"METAR","rawOb":"METAR KPHX 060851Z 08005KT 10SM OVC240 27/01 A2989 RMK AO2 SLP102 T02670011 58001","lat":33.4278,"lon":-112.0037,"elev":338,"name":"Phoenix/Sky Harbor Intl, AZ, US","cover":"OVC","clouds":[{"cover":"OVC","base":24000}],"fltCat":"VFR"},{"icaoId":"KSAD","receiptTime":"2026-04-06T08:54:09.352Z","obsTime":1775465460,"reportTime":"2026-04-06T09:00:00.000Z","temp":16.7,"dewp":2.8,"wdir":100,"wspd":17,"wgst":24,"visib":"10+","altim":1022.8,"slp":1018.6,"qcField":6,"presTend":0.8,"metarType":"METAR","rawOb":"METAR KSAD 060851Z AUTO 10017G24KT 10SM CLR 17/03 A3020 RMK AO2 PK WND 11026/0754 SLP186 T01670028 51008","lat":32.8565,"lon":-109.636,"elev":937,"name":"Safford Rgnl, AZ, US","cover":"CLR","clouds":[],"fltCat":"VFR"}]