[{"icaoId":"KELY","receiptTime":"2026-04-12T23:07:07.912Z","obsTime":1776035160,"reportTime":"2026-04-12T23:06:00.000Z","temp":0.6,"dewp":-0.6,"wdir":350,"wspd":8,"visib":1.25,"altim":1011.3,"qcField":6,"wxString":"-SN BR","precip":0.02,"metarType":"SPECI","rawOb":"SPECI KELY 122306Z AUTO 35008KT 1 1/4SM -SN BR FEW008 BKN016 OVC028 01/M01 A2986 RMK AO2 P0002 T00061006 ","lat":39.2954,"lon":-114.8466,"elev":1906,"name":"Ely/Yelland Fld, NV, US","cover":"OVC","clouds":[{"cover":"FEW","base":800},{"cover":"BKN","base":1600},{"cover":"OVC","base":2800}],"fltCat":"IFR"},{"icaoId":"KACT","receiptTime":"2026-04-12T23:04:05.433Z","obsTime":1776034860,"reportTime":"2026-04-12T23:01:00.000Z","temp":22.8,"dewp":20.6,"wdir":150,"wspd":9,"visib":"10+","altim":1015.7,"qcField":4,"wxString":"VCTS","metarType":"SPECI","rawOb":"SPECI KACT 122301Z 15009KT 10SM VCTS FEW013 BKN027 23/21 A2999 RMK AO2 LTG DSNT N AND NW T02280206","lat":31.618,"lon":-97.2283,"elev":150,"name":"Waco Rgnl, TX, US","cover":"BKN","clouds":[{"cover":"FEW","base":1300},{"cover":"BKN","base":2700}],"fltCat":"MVFR"},{"icaoId":"KOLS","receiptTime":"2026-04-12T23:04:05.477Z","obsTime":1776034860,"reportTime":"2026-04-12T23:01:00.000Z","temp":17.8,"dewp":4.4,"wdir":300,"wspd":5,"visib":"10+","altim":1019,"qcField":6,"metarType":"SPECI","rawOb":"SPECI KOLS 122301Z AUTO 30005KT 10SM BKN075 18/04 A3009 RMK AO2 TSE2255 T01780044","lat":31.4208,"lon":-110.8465,"elev":1194,"name":"Nogales Intl, AZ, US","cover":"BKN","clouds":[{"cover":"BKN","base":7500}],"fltCat":"VFR"},{"icaoId":"KNFL","receiptTime":"2026-04-12T23:00:48.577Z","obsTime":1776034620,"reportTime":"2026-04-12T23:00:00.000Z","temp":11.7,"dewp":-6.7,"wdir":240,"wspd":13,"visib":"10+","altim":1009.6,"slp":1007.2,"qcField":14,"metarType":"METAR","rawOb":"METAR KNFL 122257Z AUTO 24013KT 10SM BKN110 12/M07 A2981 RMK AO2 PK WND 22027/2202 WSHFT 2152 SLP072 T01171067 PNO $","lat":39.417,"lon":-118.705,"elev":1199,"name":"Fallon , NV, US","cover":"BKN","clouds":[{"cover":"BKN","base":11000}],"fltCat":"VFR"},{"icaoId":"KIAH","receiptTime":"2026-04-12T23:00:38.275Z","obsTime":1776034620,"reportTime":"2026-04-12T22:57:00.000Z","temp":22.8,"dewp":21.1,"wdir":150,"wspd":8,"visib":1,"altim":1019.7,"qcField":4,"wxString":"+TSRA BR","precip":0.05,"metarType":"SPECI","rawOb":"SPECI KIAH 122257Z 15008KT 1SM +TSRA BR FEW006 BKN020CB OVC060 23/21 A3011 RMK AO2 PRESRR CONS LTGICCG OHD ALQDS TS OHD ALQDS MOV NE P0005 T02280211","lat":29.9844,"lon":-95.3607,"elev":27,"name":"Houston/Bush Intl, TX, US","cover":"OVC","clouds":[{"cover":"FEW","base":600},{"cover":"BKN","base":2000},{"cover":"OVC","base":6000}],"fltCat":"IFR"},{"icaoId":"KFLG","receiptTime":"2026-04-12T23:00:43.064Z","obsTime":1776034620,"reportTime":"2026-04-12T23:00:00.000Z","temp":12.8,"dewp":-5,"wdir":200,"wspd":20,"wgst":32,"visib":"10+","altim":1016.7,"slp":1010.8,"qcField":12,"metarType":"METAR","rawOb":"METAR KFLG 122257Z 20020G32KT 10SM CLR 13/M05 A3002 RMK AO2 PK WND 22036/2202 SLP108 T01281050 $","lat":35.1443,"lon":-111.6664,"elev":2134,"name":"Flagstaff/Pulliam Arpt, AZ, US","cover":"CLR","clouds":[],"fltCat":"VFR"},{"icaoId":"KNYL","receiptTime":"2026-04-12T23:00:48.590Z","obsTime":1776034620,"reportTime":"2026-04-12T23:00:00.000Z","temp":26.1,"dewp":4.4,"wdir":210,"wspd":9,"visib":"10+","altim":1012.3,"slp":1012,"qcField":6,"metarType":"METAR","rawOb":"METAR KNYL 122257Z AUTO 21009KT 10SM CLR 26/04 A2989 RMK AO2 SLP120 T02610044","lat":32.66,"lon":-114.6078,"elev":58,"name":"Yuma , AZ, US","cover":"CLR","clouds":[],"fltCat":"VFR"},{"icaoId":"KHND","receiptTime":"2026-04-12T22:58:25.746Z","obsTime":1776034560,"reportTime":"2026-04-12T23:00:00.000Z","temp":22.2,"dewp":1.1,"wdir":220,"wspd":20,"wgst":23,"visib":"10+","altim":1010.6,"slp":1010.4,"qcField":12,"metarType":"METAR","rawOb":"METAR KHND 122256Z 22020G23KT 10SM FEW085 22/01 A2984 RMK AO2 PK WND 24031/2217 SLP104 T02220011 $","lat":35.9657,"lon":-115.1343,"elev":740,"name":"Henderson Exec, NV, US","cover":"FEW","clouds":[{"cover":"FEW","base":8500}],"fltCat":"VFR"},{"icaoId":"KINW","receiptTime":"2026-04-12T23:00:35.189Z","obsTime":1776034560,"reportTime":"2026-04-12T23:00:00.000Z","temp":20.6,"dewp":-7.2,"wdir":220,"wspd":20,"wgst":40,"visib":"10+","altim":1014.3,"slp":1009.6,"qcField":6,"metarType":"METAR","rawOb":"METAR KINW 122256Z AUTO 22020G40KT 10SM CLR 21/M07 A2995 RMK AO2 PK WND 21040/2256 SLP096 T02061072","lat":35.0279,"lon":-110.7221,"elev":1492,"name":"Winslow/Lindberg Rgnl, AZ, US","cover":"CLR","clouds":[],"fltCat":"VFR"},{"icaoId":"KJAX","receiptTime":"2026-04-12T23:00:33.618Z","obsTime":1776034560,"reportTime":"2026-04-12T23:00:00.000Z","temp":23.9,"dewp":13.3,"wdir":110,"wspd":12,"visib":"10+","altim":1026.2,"slp":1026.2,"qcField":12,"metarType":"METAR","rawOb":"METAR KJAX 122256Z 11012KT 10SM FEW038 24/13 A3030 RMK AO2 SLP262 T02390133 $","lat":30.4953,"lon":-81.6937,"elev":8,"name":"Jacksonville Intl, FL, US","cover":"FEW","clouds":[{"cover":"FEW","base":3800}],"fltCat":"VFR"},{"icaoId":"KCEC","receiptTime":"2026-04-12T23:00:35.101Z","obsTime":1776034560,"reportTime":"2026-04-12T23:00:00.000Z","temp":13.3,"dewp":8.3,"wdir":310,"wspd":9,"visib":"10+","altim":1011.9,"slp":1011.9,"qcField":6,"metarType":"METAR","rawOb":"METAR KCEC 122256Z AUTO 31009KT 10SM CLR 13/08 A2988 RMK AO2 SLP119 T01330083","lat":41.7836,"lon":-124.238,"elev":17,"name":"Crescent City/McNama, CA, US","cover":"CLR","clouds":[],"fltCat":"VFR"},{"icaoId":"KDUG","receiptTime":"2026-04-12T23:02:11.596Z","obsTime":1776034560,"reportTime":"2026-04-12T23:00:00.000Z","temp":21.7,"dewp":1.7,"wdir":250,"wspd":16,"wgst":25,"visib":"10+","altim":1019,"slp":1014,"qcField":38,"metarType":"METAR","rawOb":"METAR KDUG 122256Z AUTO 25016G25KT 10SM CLR 22/02 A3009 RMK AO2 PK WND 25030/2158 SLP140 T02170017 TSNO","lat":31.4725,"lon":-109.6022,"elev":1260,"name":"Douglas/Bisbee Intl, AZ, US","cover":"CLR","clouds":[],"fltCat":"VFR"},{"icaoId":"KUKI","receiptTime":"2026-04-12T23:00:26.188Z","obsTime":1776034560,"reportTime":"2026-04-12T23:00:00.000Z","temp":15,"dewp":4.4,"wdir":310,"wspd":5,"visib":"10+","altim":1011.3,"slp":1010.9,"qcField":6,"metarType":"METAR","rawOb":"METAR KUKI 122256Z AUTO 31005KT 10SM BKN070 15/04 A2986 RMK AO2 SLP109 T01500044","lat":39.1278,"lon":-123.2001,"elev":183,"name":"Ukiah Muni, CA, US","cover":"BKN","clouds":[{"cover":"BKN","base":7000}],"fltCat":"VFR"},{"icaoId":"KLWS","receiptTime":"2026-04-12T23:00:35.233Z","obsTime":1776034560,"reportTime":"2026-04-12T23:00:00.000Z","temp":15,"dewp":7.2,"wdir":170,"wspd":11,"visib":"10+","altim":1002.5,"slp":1002.3,"qcField":4,"metarType":"METAR","rawOb":"METAR KLWS 122256Z 17011KT 10SM BKN041 BKN055 15/07 A2960 RMK AO2 LTG DSNT N SLP023 T01500072","lat":46.3746,"lon":-117.0153,"elev":435,"name":"Lewiston/Nez Perce Cnty, ID, US","cover":"BKN","clouds":[{"cover":"BKN","base":4100},{"cover":"BKN","base":5500}],"fltCat":"VFR"},{"icaoId":"KSFO","receiptTime":"2026-04-12T23:00:33.718Z","obsTime":1776034560,"reportTime":"2026-04-12T23:00:00.000Z","temp":14.4,"dewp":8.9,"wdir":240,"wspd":15,"wgst":21,"visib":"10+","altim":1013.6,"slp":1013.6,"qcField":12,"precip":0.005,"metarType":"METAR","rawOb":"METAR KSFO 122256Z 24015G21KT 10SM FEW017 SCT027 BKN036 BKN180 14/09 A2993 RMK AO2 RAE06 SLP136 P0000 T01440089 $","lat":37.6196,"lon":-122.3656,"elev":2,"name":"San Francisco Intl, CA, US","cover":"BKN","clouds":[{"cover":"FEW","base":1700},{"cover":"SCT","base":2700},{"cover":"BKN","base":3600},{"cover":"BKN","base":18000}],"fltCat":"VFR"},{"icaoId":"KCHS","receiptTime":"2026-04-12T23:00:34.286Z","obsTime":1776034560,"reportTime":"2026-04-12T23:00:00.000Z","temp":23.3,"dewp":15.6,"wdir":180,"wspd":8,"visib":"10+","altim":1027.9,"slp":1027.6,"qcField":4,"metarType":"METAR","rawOb":"METAR KCHS 122256Z 18008KT 10SM FEW045 FEW250 23/16 A3035 RMK AO2 SLP276 T02330156","lat":32.8995,"lon":-80.0407,"elev":12,"name":"Charleston Intl, SC, US","cover":"FEW","clouds":[{"cover":"FEW","base":4500},{"cover":"FEW","base":25000}],"fltCat":"VFR"},{"icaoId":"KSGU","receiptTime":"2026-04-12T22:58:28.407Z","obsTime":1776034560,"reportTime":"2026-04-12T23:00:00.000Z","temp":23.3,"dewp":-8.9,"wdir":230,"wspd":22,"wgst":36,"visib":6,"altim":1007.9,"slp":1005.3,"qcField":6,"wxString":"HZ","metarType":"METAR","rawOb":"METAR KSGU 122256Z AUTO 23022G36KT 6SM HZ CLR 23/M09 A2976 RMK AO2 PK WND 24041/2157 SLP053 T02331089","lat":37.0444,"lon":-113.5034,"elev":877,"name":"Saint George Muni, UT, US","cover":"CLR","clouds":[],"fltCat":"VFR"},{"icaoId":"KPVU","receiptTime":"2026-04-12T22:58:28.203Z","obsTime":1776034560,"reportTime":"2026-04-12T23:00:00.000Z","temp":19.4,"dewp":-2.8,"wdir":200,"wspd":21,"wgst":32,"visib":"10+","altim":1006.2,"slp":1003,"qcField":4,"metarType":"METAR","rawOb":"METAR KPVU 122256Z 20021G32KT 10SM CLR 19/M03 A2971 RMK AO2 PK WND 19032/2251 SLP030 T01941028","lat":40.224,"lon":-111.7252,"elev":1370,"name":"Provo Muni, UT, US","cover":"CLR","clouds":[],"fltCat":"VFR"},{"icaoId":"KTPH","receiptTime":"2026-04-12T23:00:26.164Z","obsTime":1776034560,"reportTime":"2026-04-12T23:00:00.000Z","temp":13.3,"dewp":-8.9,"wdir":210,"wspd":21,"wgst":35,"visib":"10+","altim":1008.5,"slp":1005.2,"qcField":6,"metarType":"METAR","rawOb":"METAR KTPH 122256Z AUTO 21021G35KT 10SM CLR 13/M09 A2978 RMK AO2 PK WND 24035/2211 SLP052 T01331089","lat":38.0505,"lon":-117.0906,"elev":1647,"name":"Tonopah Arpt, NV, US","cover":"CLR","clouds":[],"fltCat":"VFR"},{"icaoId":"KLAS","receiptTime":"2026-04-12T23:00:35.213Z","obsTime":1776034560,"reportTime":"2026-04-12T23:00:00.000Z","temp":23.3,"dewp":0.6,"wdir":220,"wspd":16,"wgst":27,"visib":"10+","altim":1009.9,"slp":1008.1,"qcField":4,"metarType":"METAR","rawOb":"METAR KLAS 122256Z 22016G27KT 10SM SCT080 SCT150 23/01 A2982 RMK AO2 PK WND 23034/2233 SLP081 T02330006","lat":36.0719,"lon":-115.1634,"elev":662,"name":"Las Vegas/Reid Intl, NV, US","cover":"SCT","clouds":[{"cover":"SCT","base":8000},{"cover":"SCT","base":15000}],"fltCat":"VFR"},{"icaoId":"KEKO","receiptTime":"2026-04-12T23:00:35.173Z","obsTime":1776034560,"reportTime":"2026-04-12T23:00:00.000Z","temp":9.4,"dewp":-5,"wdir":320,"wspd":12,"wgst":21,"visib":"10+","altim":1009.6,"slp":1008.3,"qcField":6,"metarType":"METAR","rawOb":"METAR KEKO 122256Z AUTO 32012G21KT 10SM BKN100 09/M05 A2981 RMK AO2 SLP083 T00941050","lat":40.824,"lon":-115.7863,"elev":1541,"name":"Elko Rgnl, NV, US","cover":"BKN","clouds":[{"cover":"BKN","base":10000}],"fltCat":"VFR"},{"icaoId":"KVIS","receiptTime":"2026-04-12T22:58:28.575Z","obsTime":1776034560,"reportTime":"2026-04-12T23:00:00.000Z","temp":20,"dewp":5.6,"wdir":200,"wspd":6,"visib":"10+","altim":1014.3,"slp":1014.3,"qcField":14,"metarType":"METAR","rawOb":"METAR KVIS 122256Z AUTO 20006KT 10SM SCT060 BKN080 BKN095 20/06 A2995 RMK AO2 SLP143 T02000056 PNO $","lat":36.3135,"lon":-119.3884,"elev":92,"name":"Visalia Muni, CA, US","cover":"BKN","clouds":[{"cover":"SCT","base":6000},{"cover":"BKN","base":8000},{"cover":"BKN","base":9500}],"fltCat":"VFR"},{"icaoId":"KSBP","receiptTime":"2026-04-12T23:00:26.104Z","obsTime":1776034560,"reportTime":"2026-04-12T23:00:00.000Z","temp":16.1,"dewp":7.8,"wdir":250,"wspd":10,"wgst":16,"visib":"10+","altim":1015.7,"slp":1015.3,"qcField":4,"metarType":"METAR","rawOb":"METAR KSBP 122256Z 25010G16KT 10SM OVC040 16/08 A2999 RMK AO2 SLP153 T01610078","lat":35.2381,"lon":-120.644,"elev":52,"name":"San Luis Obispo/San Luis Cnty, CA, US","cover":"OVC","clouds":[{"cover":"OVC","base":4000}],"fltCat":"VFR"},{"icaoId":"KHDN","receiptTime":"2026-04-12T22:58:26.828Z","obsTime":1776034560,"reportTime":"2026-04-12T23:00:00.000Z","temp":16.1,"dewp":-8.3,"wdir":250,"wspd":13,"wgst":25,"visib":"10+","altim":1010.6,"slp":1007.1,"qcField":6,"metarType":"METAR","rawOb":"METAR KHDN 122256Z AUTO 25013G25KT 10SM FEW120 16/M08 A2984 RMK AO2 PK WND 25032/2203 SLP071 T01611083","lat":40.4842,"lon":-107.2296,"elev":2012,"name":"Hayden/Yampa Valley Arpt, CO, US","cover":"FEW","clouds":[{"cover":"FEW","base":12000}],"fltCat":"VFR"},{"icaoId":"KJAC","receiptTime":"2026-04-12T22:58:25.872Z","obsTime":1776034560,"reportTime":"2026-04-12T23:00:00.000Z","temp":9.4,"dewp":-2.2,"wdir":180,"wspd":20,"wgst":27,"visib":"10+","altim":1008.2,"slp":1007.9,"qcField":4,"precip":0.005,"metarType":"METAR","rawOb":"METAR KJAC 122256Z 18020G27KT 10SM BKN070 BKN095 09/M02 A2977 RMK AO2 PK WND 19027/2248 LTG DSNT SW RAB14E35 SLP079 P0000 T00941022","lat":43.6129,"lon":-110.7366,"elev":1967,"name":"Jackson Hole Arpt, WY, US","cover":"BKN","clouds":[{"cover":"BKN","base":7000},{"cover":"BKN","base":9500}],"fltCat":"VFR"},{"icaoId":"KCGZ","receiptTime":"2026-04-12T22:58:27.993Z","obsTime":1776034560,"reportTime":"2026-04-12T23:00:00.000Z","temp":26.7,"dewp":2.8,"wdir":300,"wspd":8,"visib":"10+","altim":1013,"slp":1011.7,"qcField":14,"metarType":"METAR","rawOb":"METAR KCGZ 122256Z AUTO 30008KT 10SM CLR 27/03 A2991 RMK AO2 WSHFT 2153 SLP117 T02670028 $","lat":32.9531,"lon":-111.7725,"elev":444,"name":"Casa Granda Muni, AZ, US","cover":"CLR","clouds":[],"fltCat":"VFR"},{"icaoId":"KSDF","receiptTime":"2026-04-12T23:00:30.664Z","obsTime":1776034560,"reportTime":"2026-04-12T23:00:00.000Z","temp":26.7,"dewp":7.2,"wdir":210,"wspd":11,"wgst":20,"visib":"10+","altim":1018.7,"slp":1018.1,"qcField":4,"metarType":"METAR","rawOb":"METAR KSDF 122256Z 21011G20KT 10SM FEW080 BKN190 OVC230 27/07 A3008 RMK AO2 PK WND 21026/2223 SLP181 T02670072","lat":38.1774,"lon":-85.7308,"elev":146,"name":"Louisville Intl, KY, US","cover":"OVC","clouds":[{"cover":"FEW","base":8000},{"cover":"BKN","base":19000},{"cover":"OVC","base":23000}],"fltCat":"VFR"},{"icaoId":"KGUC","receiptTime":"2026-04-12T22:58:26.800Z","obsTime":1776034560,"reportTime":"2026-04-12T23:00:00.000Z","temp":13.3,"dewp":-7.8,"wdir":260,"wspd":16,"wgst":22,"visib":"10+","altim":1014.3,"slp":1011.4,"qcField":14,"metarType":"METAR","rawOb":"METAR KGUC 122256Z AUTO 26016G22KT 10SM FEW032 BKN065 OVC100 13/M08 A2995 RMK AO2 PK WND 26030/2214 SLP114 T01331078 $","lat":38.5322,"lon":-106.9419,"elev":2337,"name":"Gunnison Arpt, CO, US","cover":"OVC","clouds":[{"cover":"FEW","base":3200},{"cover":"BKN","base":6500},{"cover":"OVC","base":10000}],"fltCat":"VFR"},{"icaoId":"KFNL","receiptTime":"2026-04-12T22:58:26.639Z","obsTime":1776034560,"reportTime":"2026-04-12T23:00:00.000Z","temp":24.4,"dewp":-7.8,"wdir":230,"wspd":9,"wgst":16,"visib":"10+","altim":1006.2,"slp":1000.8,"qcField":12,"metarType":"METAR","rawOb":"METAR KFNL 122256Z 23009G16KT 180V250 10SM CLR 24/M08 A2971 RMK AO2 SLP008 T02441078 $","lat":40.4427,"lon":-105.0097,"elev":1529,"name":"Fort Collins/N Colorado Rgnl, CO, US","cover":"CLR","clouds":[],"fltCat":"VFR"},{"icaoId":"KENV","receiptTime":"2026-04-12T22:58:26.544Z","obsTime":1776034560,"reportTime":"2026-04-12T23:00:00.000Z","temp":13.3,"dewp":-5,"wdir":250,"wspd":25,"wgst":31,"visib":"10+","altim":1008.2,"slp":1007.2,"qcField":6,"metarType":"METAR","rawOb":"METAR KENV 122256Z AUTO 25025G31KT 10SM BKN100 13/M05 A2977 RMK AO2 PK WND 28035/2218 SLP072 T01331050","lat":40.7211,"lon":-114.0312,"elev":1291,"name":"Wendover Arpt, UT, US","cover":"BKN","clouds":[{"cover":"BKN","base":10000}],"fltCat":"VFR"},{"icaoId":"KEGE","receiptTime":"2026-04-12T22:58:26.489Z","obsTime":1776034560,"reportTime":"2026-04-12T23:00:00.000Z","temp":17.8,"dewp":-12.8,"wdir":240,"wspd":15,"wgst":25,"visib":"10+","altim":1011.3,"slp":1007,"qcField":4,"metarType":"METAR","rawOb":"METAR KEGE 122256Z 24015G25KT 10SM FEW110 18/M13 A2986 RMK AO2 PK WND 22033/2243 SLP070 T01781128","lat":39.6448,"lon":-106.9176,"elev":1993,"name":"Eagle Cnty Rgnl, CO, US","cover":"FEW","clouds":[{"cover":"FEW","base":11000}],"fltCat":"VFR"},{"icaoId":"KCOE","receiptTime":"2026-04-12T22:58:26.314Z","obsTime":1776034560,"reportTime":"2026-04-12T23:00:00.000Z","temp":16.1,"dewp":5,"wdir":"VRB","wspd":3,"visib":"10+","altim":1002.1,"slp":1003.8,"qcField":14,"metarType":"METAR","rawOb":"METAR KCOE 122256Z AUTO VRB03KT 10SM OVC100 16/05 A2959 RMK AO2 SLP038 T01610050 PNO $","lat":47.7719,"lon":-116.8332,"elev":693,"name":"Coeur DAlene Arpt, ID, US","cover":"OVC","clouds":[{"cover":"OVC","base":10000}],"fltCat":"VFR"},{"icaoId":"KCOD","receiptTime":"2026-04-12T22:58:26.300Z","obsTime":1776034560,"reportTime":"2026-04-12T23:00:00.000Z","temp":14.4,"dewp":-0.6,"wdir":"VRB","wspd":4,"visib":"10+","altim":1006.2,"slp":1003.4,"qcField":14,"precip":0.005,"metarType":"METAR","rawOb":"METAR KCOD 122256Z AUTO VRB04KT 10SM CLR 14/M01 A2971 RMK AO2 RAE06 SLP034 P0000 T01441006 $","lat":44.52,"lon":-109.0268,"elev":1550,"name":"Cody/Yellowstone Rgnl, WY, US","cover":"CLR","clouds":[],"fltCat":"VFR"},{"icaoId":"KCMA","receiptTime":"2026-04-12T22:58:28.009Z","obsTime":1776034500,"reportTime":"2026-04-12T23:00:00.000Z","temp":18.9,"dewp":7.2,"wdir":260,"wspd":14,"visib":"10+","altim":1015.3,"slp":1016,"qcField":4,"metarType":"METAR","rawOb":"METAR KCMA 122255Z 26014KT 10SM CLR 19/07 A2998 RMK AO2 SLP160 T01890072","lat":34.2114,"lon":-119.0876,"elev":20,"name":"Camarillo Arpt, CA, US","cover":"CLR","clouds":[],"fltCat":"VFR"},{"icaoId":"KBVU","receiptTime":"2026-04-12T22:56:27.114Z","obsTime":1776034500,"reportTime":"2026-04-12T23:00:00.000Z","temp":25,"dewp":-2,"wdir":250,"wspd":21,"wgst":27,"visib":"10+","altim":1008.5,"qcField":6,"metarType":"METAR","rawOb":"METAR KBVU 122255Z AUTO 25021G27KT 10SM CLR 25/M02 A2978 RMK AO2","lat":35.9489,"lon":-114.8633,"elev":654,"name":"Boulder City Muni, NV, US","cover":"CLR","clouds":[],"fltCat":"VFR"},{"icaoId":"KRTS","receiptTime":"2026-04-12T23:00:16.730Z","obsTime":1776034500,"reportTime":"2026-04-12T23:00:00.000Z","temp":5,"dewp":-3,"wdir":290,"wspd":8,"wgst":14,"visib":"10+","altim":1011.3,"qcField":6,"metarType":"METAR","rawOb":"METAR KRTS 122255Z AUTO 29008G14KT 230V320 10SM FEW037 SCT047 BKN070 05/M03 A2986 RMK AO2","lat":39.6658,"lon":-119.8731,"elev":1537,"name":"Reno/Stead Arpt, NV, US","cover":"BKN","clouds":[{"cover":"FEW","base":3700},{"cover":"SCT","base":4700},{"cover":"BKN","base":7000}],"fltCat":"VFR"},{"icaoId":"KGEU","receiptTime":"2026-04-12T23:03:14.262Z","obsTime":1776034500,"reportTime":"2026-04-12T23:00:00.000Z","temp":26,"dewp":4,"wdir":210,"wspd":10,"visib":"10+","altim":1011.3,"qcField":0,"metarType":"METAR","rawOb":"METAR KGEU 122255Z 21010KT 10SM FEW230 SCT370 26/04 A2986","lat":33.528,"lon":-112.293,"elev":319,"name":"Glendale Muni, AZ, US","cover":"SCT","clouds":[{"cover":"FEW","base":23000},{"cover":"SCT","base":37000}],"fltCat":"VFR"},{"icaoId":"KADM","receiptTime":"2026-04-12T23:00:41.904Z","obsTime":1776034500,"reportTime":"2026-04-12T23:00:00.000Z","temp":23,"dewp":20,"wdir":160,"wspd":14,"wgst":19,"visib":"10+","altim":1013.6,"qcField":6,"metarType":"METAR","rawOb":"METAR KADM 122255Z AUTO 16014G19KT 10SM OVC017 23/20 A2993 RMK AO2","lat":34.3007,"lon":-97.0089,"elev":223,"name":"Ardmore Muni, OK, US","cover":"OVC","clouds":[{"cover":"OVC","base":1700}],"fltCat":"MVFR"},{"icaoId":"KSOW","receiptTime":"2026-04-12T22:58:15.759Z","obsTime":1776034500,"reportTime":"2026-04-12T23:00:00.000Z","temp":17,"dewp":-9,"wdir":190,"wspd":27,"wgst":35,"visib":"10+","altim":1017.4,"qcField":6,"metarType":"METAR","rawOb":"METAR KSOW 122255Z AUTO 19027G35KT 10SM CLR 17/M09 A3004 RMK AO2","lat":34.2686,"lon":-110.0019,"elev":1954,"name":"Show Low Muni, AZ, US","cover":"CLR","clouds":[],"fltCat":"VFR"},{"icaoId":"KHII","receiptTime":"2026-04-12T23:00:47.057Z","obsTime":1776034500,"reportTime":"2026-04-12T23:00:00.000Z","temp":27,"dewp":0,"wdir":170,"wspd":14,"wgst":20,"visib":"10+","altim":1009.6,"qcField":6,"metarType":"METAR","rawOb":"METAR KHII 122255Z AUTO 17014G20KT 10SM CLR 27/M00 A2981 RMK AO2","lat":34.5659,"lon":-114.3522,"elev":241,"name":"Lake Havasu City Arpt, AZ, US","cover":"CLR","clouds":[],"fltCat":"VFR"},{"icaoId":"KRNO","receiptTime":"2026-04-12T22:58:28.266Z","obsTime":1776034500,"reportTime":"2026-04-12T23:00:00.000Z","temp":7.2,"dewp":-2.2,"wdir":280,"wspd":8,"visib":"10+","altim":1010.2,"slp":1009.2,"qcField":4,"metarType":"METAR","rawOb":"METAR KRNO 122255Z 28008KT 10SM FEW040 BKN065 BKN140 07/M02 A2983 RMK AO2 SLP092 SH VC SW T00721022","lat":39.5077,"lon":-119.7683,"elev":1344,"name":"Reno/Tahoe Intl, NV, US","cover":"BKN","clouds":[{"cover":"FEW","base":4000},{"cover":"BKN","base":6500},{"cover":"BKN","base":14000}],"fltCat":"VFR"},{"icaoId":"KHTH","receiptTime":"2026-04-12T23:00:32.953Z","obsTime":1776034500,"reportTime":"2026-04-12T23:00:00.000Z","temp":12,"dewp":-7,"wdir":230,"wspd":10,"wgst":17,"visib":"10+","altim":1009.9,"qcField":6,"metarType":"METAR","rawOb":"METAR KHTH 122255Z AUTO 23010G17KT 10SM SCT075 BKN085 BKN120 12/M07 A2982 RMK A01","lat":38.5448,"lon":-118.6314,"elev":1281,"name":"Hawthorne Muni, NV, US","cover":"BKN","clouds":[{"cover":"SCT","base":7500},{"cover":"BKN","base":8500},{"cover":"BKN","base":12000}],"fltCat":"VFR"},{"icaoId":"KHAF","receiptTime":"2026-04-12T22:58:12.022Z","obsTime":1776034500,"reportTime":"2026-04-12T23:00:00.000Z","temp":15,"dewp":12,"wdir":260,"wspd":11,"wgst":17,"visib":7,"altim":1014.3,"qcField":6,"metarType":"METAR","rawOb":"METAR KHAF 122255Z AUTO 26011G17KT 7SM FEW022 FEW046 SCT060 15/12 A2995 RMK AO2","lat":37.5136,"lon":-122.4996,"elev":11,"name":"Half Moon Bay Arpt, CA, US","cover":"SCT","clouds":[{"cover":"FEW","base":2200},{"cover":"FEW","base":4600},{"cover":"SCT","base":6000}],"fltCat":"VFR"},{"icaoId":"KHCR","receiptTime":"2026-04-12T22:58:12.043Z","obsTime":1776034500,"reportTime":"2026-04-12T23:00:00.000Z","temp":15.6,"dewp":-9.3,"wdir":200,"wspd":12,"wgst":25,"visib":"10+","altim":1006.2,"qcField":14,"metarType":"METAR","rawOb":"METAR KHCR 122255Z AUTO 20012G25KT 10SM FEW080 BKN100 16/M09 A2971 RMK AO2 PK WND 24031/2207 WSHFT 2230 T01561093 $","lat":40.4774,"lon":-111.4329,"elev":1708,"name":"Heber City Muni, UT, US","cover":"BKN","clouds":[{"cover":"FEW","base":8000},{"cover":"BKN","base":10000}],"fltCat":"VFR"},{"icaoId":"KSEZ","receiptTime":"2026-04-12T23:00:38.745Z","obsTime":1776034500,"reportTime":"2026-04-12T23:00:00.000Z","temp":19,"dewp":-3,"wdir":180,"wspd":14,"wgst":30,"visib":"10+","altim":1015,"qcField":6,"metarType":"METAR","rawOb":"METAR KSEZ 122255Z AUTO 18014G30KT 150V220 10SM CLR 19/M03 A2997 RMK AO2","lat":34.8467,"lon":-111.7884,"elev":1455,"name":"Sedona Arpt, AZ, US","cover":"CLR","clouds":[],"fltCat":"VFR"},{"icaoId":"KLRU","receiptTime":"2026-04-12T22:58:20.853Z","obsTime":1776034500,"reportTime":"2026-04-12T23:00:00.000Z","temp":25.3,"dewp":-8.6,"wdir":260,"wspd":16,"wgst":28,"visib":"10+","altim":1016.7,"qcField":6,"metarType":"METAR","rawOb":"METAR KLRU 122255Z AUTO 26016G28KT 10SM CLR 25/M09 A3002 RMK AO2 T02531086","lat":32.2884,"lon":-106.9131,"elev":1355,"name":"Las Cruces Intl, NM, US","cover":"CLR","clouds":[],"fltCat":"VFR"},{"icaoId":"KCXP","receiptTime":"2026-04-12T23:00:34.761Z","obsTime":1776034500,"reportTime":"2026-04-12T23:00:00.000Z","temp":8,"dewp":-3,"wdir":210,"wspd":11,"wgst":23,"visib":"10+","altim":1011.6,"qcField":6,"metarType":"METAR","rawOb":"METAR KCXP 122255Z AUTO 21011G23KT 10SM BKN050 BKN060 08/M03 A2987 RMK AO2","lat":39.1905,"lon":-119.7319,"elev":1431,"name":"Carson City Arpt, NV, US","cover":"BKN","clouds":[{"cover":"BKN","base":5000},{"cover":"BKN","base":6000}],"fltCat":"VFR"},{"icaoId":"KEND","receiptTime":"2026-04-12T23:02:10.173Z","obsTime":1776034500,"reportTime":"2026-04-12T23:00:00.000Z","temp":28.2,"dewp":17.4,"wdir":200,"wspd":18,"wgst":24,"visib":"10+","altim":1007.5,"slp":1006.4,"qcField":12,"metarType":"METAR","rawOb":"METAR KEND 122255Z 20018G24KT 10SM CLR 28/17 A2975 RMK AO2A PK WND 19029/48 SLP064 T02820174 $","lat":36.338,"lon":-97.919,"elev":392,"name":"Enid/Vance AFB, OK, US","cover":"CLR","clouds":[],"fltCat":"VFR"},{"icaoId":"KMHR","receiptTime":"2026-04-12T23:00:34.947Z","obsTime":1776034500,"reportTime":"2026-04-12T23:00:00.000Z","temp":14,"dewp":11,"wdir":180,"wspd":14,"visib":"10+","altim":1013,"qcField":6,"metarType":"METAR","rawOb":"METAR KMHR 122255Z AUTO 18014KT 10SM SCT110 14/11 A2991 RMK AO2","lat":38.56,"lon":-121.284,"elev":30,"name":"Sacramento/Mather Fld, CA, US","cover":"SCT","clouds":[{"cover":"SCT","base":11000}],"fltCat":"VFR"},{"icaoId":"KSYR","receiptTime":"2026-04-12T22:58:11.586Z","obsTime":1776034440,"reportTime":"2026-04-12T23:00:00.000Z","temp":13.9,"dewp":4.4,"wdir":120,"wspd":9,"visib":"10+","altim":1019.4,"slp":1019.2,"qcField":12,"precip":0.005,"metarType":"METAR","rawOb":"METAR KSYR 122254Z 12009KT 10SM BKN065 OVC080 14/04 A3010 RMK AO2 RAE34 SLP192 P0000 T01390044 $","lat":43.1111,"lon":-76.1038,"elev":125,"name":"Syracuse/Hancock Intl, NY, US","cover":"OVC","clouds":[{"cover":"BKN","base":6500},{"cover":"OVC","base":8000}],"fltCat":"VFR"},{"icaoId":"KSJN","receiptTime":"2026-04-12T22:58:07.857Z","obsTime":1776034440,"reportTime":"2026-04-12T23:00:00.000Z","temp":18.9,"dewp":-9.4,"wdir":240,"wspd":21,"wgst":32,"visib":"10+","altim":1016,"slp":1010.2,"qcField":6,"metarType":"METAR","rawOb":"METAR KSJN 122254Z AUTO 24021G32KT 10SM CLR 19/M09 A3000 RMK AO2 PK WND 26032/2234 SLP102 T01891094","lat":34.5184,"lon":-109.3801,"elev":1747,"name":"St Johns Ind Arpt, AZ, US","cover":"CLR","clouds":[],"fltCat":"VFR"},{"icaoId":"KBFL","receiptTime":"2026-04-12T22:58:12.617Z","obsTime":1776034440,"reportTime":"2026-04-12T23:00:00.000Z","temp":18.9,"dewp":5.6,"wdir":290,"wspd":8,"visib":"10+","altim":1014.3,"slp":1013.8,"qcField":12,"metarType":"METAR","rawOb":"METAR KBFL 122254Z 29008KT 10SM FEW065 BKN090 19/06 A2995 RMK AO2 SLP138 T01890056 $","lat":35.4342,"lon":-119.0552,"elev":146,"name":"Bakersfield/Meadows Arpt, CA, US","cover":"BKN","clouds":[{"cover":"FEW","base":6500},{"cover":"BKN","base":9000}],"fltCat":"VFR"},{"icaoId":"KFFZ","receiptTime":"2026-04-12T22:58:13.048Z","obsTime":1776034440,"reportTime":"2026-04-12T23:00:00.000Z","temp":26.7,"dewp":0,"wdir":260,"wspd":9,"visib":"10+","altim":1012.3,"slp":1010,"qcField":4,"metarType":"METAR","rawOb":"METAR KFFZ 122254Z 26009KT 10SM CLR 27/00 A2989 RMK AO2 SLP100 T02670000","lat":33.4659,"lon":-111.7212,"elev":420,"name":"Mesa/Falcon Fld, AZ, US","cover":"CLR","clouds":[],"fltCat":"VFR"},{"icaoId":"KGCN","receiptTime":"2026-04-12T22:58:11.944Z","obsTime":1776034440,"reportTime":"2026-04-12T23:00:00.000Z","temp":15,"dewp":-6.1,"wdir":210,"wspd":25,"wgst":38,"visib":"10+","altim":1014.3,"slp":1010.3,"qcField":4,"metarType":"METAR","rawOb":"METAR KGCN 122254Z 21025G38KT 10SM FEW075 15/M06 A2995 RMK AO2 PK WND 21042/2244 SLP103 T01501061","lat":35.9458,"lon":-112.1554,"elev":1993,"name":"Grand Canyon Park Arpt, AZ, US","cover":"FEW","clouds":[{"cover":"FEW","base":7500}],"fltCat":"VFR"},{"icaoId":"KIND","receiptTime":"2026-04-12T22:58:11.870Z","obsTime":1776034440,"reportTime":"2026-04-12T23:00:00.000Z","temp":25,"dewp":9.4,"wdir":210,"wspd":17,"wgst":27,"visib":"10+","altim":1015.7,"slp":1015.2,"qcField":4,"metarType":"METAR","rawOb":"METAR KIND 122254Z 21017G27KT 10SM FEW080 BKN150 BKN250 25/09 A2999 RMK AO2 PK WND 19032/2231 SLP152 T02500094","lat":39.7252,"lon":-86.2816,"elev":242,"name":"Indianapolis Intl, IN, US","cover":"BKN","clouds":[{"cover":"FEW","base":8000},{"cover":"BKN","base":15000},{"cover":"BKN","base":25000}],"fltCat":"VFR"},{"icaoId":"KCOS","receiptTime":"2026-04-12T22:58:11.760Z","obsTime":1776034440,"reportTime":"2026-04-12T23:00:00.000Z","temp":21.7,"dewp":-10.6,"wdir":200,"wspd":10,"wgst":23,"visib":"10+","altim":1009.6,"slp":1002.9,"qcField":4,"metarType":"METAR","rawOb":"METAR KCOS 122254Z 20010G23KT 10SM FEW110 BKN140 BKN250 22/M11 A2981 RMK AO2 WSHFT 2227 SLP029 VIRGA SW-NW T02171106","lat":38.8095,"lon":-104.6887,"elev":1886,"name":"Colorado Spring Arpt, CO, US","cover":"BKN","clouds":[{"cover":"FEW","base":11000},{"cover":"BKN","base":14000},{"cover":"BKN","base":25000}],"fltCat":"VFR"},{"icaoId":"KROC","receiptTime":"2026-04-12T22:58:11.489Z","obsTime":1776034440,"reportTime":"2026-04-12T23:00:00.000Z","temp":16.7,"dewp":5,"wdir":160,"wspd":4,"visib":"10+","altim":1017,"slp":1017.3,"qcField":4,"metarType":"METAR","rawOb":"METAR KROC 122254Z 16004KT 10SM BKN070 BKN120 17/05 A3003 RMK AO2 SLP173 T01670050","lat":43.1172,"lon":-77.6754,"elev":166,"name":"Rochester Intl Arpt, NY, US","cover":"BKN","clouds":[{"cover":"BKN","base":7000},{"cover":"BKN","base":12000}],"fltCat":"VFR"},{"icaoId":"KRIC","receiptTime":"2026-04-12T22:58:11.451Z","obsTime":1776034440,"reportTime":"2026-04-12T23:00:00.000Z","temp":20,"dewp":9.4,"wdir":130,"wspd":9,"visib":"10+","altim":1026.2,"slp":1026.5,"qcField":12,"metarType":"METAR","rawOb":"METAR KRIC 122254Z 13009KT 10SM BKN300 20/09 A3030 RMK AO2 SLP265 T02000094 $","lat":37.5115,"lon":-77.3234,"elev":51,"name":"Richmond Intl, VA, US","cover":"BKN","clouds":[{"cover":"BKN","base":30000}],"fltCat":"VFR"},{"icaoId":"KRKS","receiptTime":"2026-04-12T22:58:08.823Z","obsTime":1776034440,"reportTime":"2026-04-12T23:00:00.000Z","temp":13.9,"dewp":-8.9,"wdir":220,"wspd":27,"wgst":35,"visib":"10+","altim":1008.9,"slp":1005.3,"qcField":6,"precip":0.005,"metarType":"METAR","rawOb":"METAR KRKS 122254Z AUTO 22027G35KT 10SM FEW110 14/M09 A2979 RMK AO2 PK WND 23044/2210 RAE23 SLP053 P0000 T01391089","lat":41.5947,"lon":-109.0529,"elev":2062,"name":"Rock Springs/SW Wyoming Rgnl, WY, US","cover":"FEW","clouds":[{"cover":"FEW","base":11000}],"fltCat":"VFR"},{"icaoId":"KPHL","receiptTime":"2026-04-12T22:58:04.332Z","obsTime":1776034440,"reportTime":"2026-04-12T23:00:00.000Z","temp":16.7,"dewp":2.2,"wdir":170,"wspd":12,"visib":"10+","altim":1027.5,"slp":1027.3,"qcField":12,"metarType":"METAR","rawOb":"METAR KPHL 122254Z 17012KT 10SM FEW055 SCT190 BKN310 17/02 A3034 RMK AO2 SLP273 T01670022 $","lat":39.8733,"lon":-75.2268,"elev":2,"name":"Philadelphia Intl, PA, US","cover":"BKN","clouds":[{"cover":"FEW","base":5500},{"cover":"SCT","base":19000},{"cover":"BKN","base":31000}],"fltCat":"VFR"},{"icaoId":"KMEM","receiptTime":"2026-04-12T22:58:04.071Z","obsTime":1776034440,"reportTime":"2026-04-12T23:00:00.000Z","temp":26.1,"dewp":10,"wdir":180,"wspd":13,"wgst":20,"visib":"10+","altim":1018.4,"slp":1017.9,"qcField":12,"metarType":"METAR","rawOb":"METAR KMEM 122254Z 18013G20KT 10SM FEW085 SCT110 BKN170 26/10 A3007 RMK AO2 PK WND 19026/2156 SLP179 T02610100 $","lat":35.0564,"lon":-89.9864,"elev":78,"name":"Memphis Intl, TN, US","cover":"BKN","clouds":[{"cover":"FEW","base":8500},{"cover":"SCT","base":11000},{"cover":"BKN","base":17000}],"fltCat":"VFR"},{"icaoId":"KBUF","receiptTime":"2026-04-12T22:58:13.196Z","obsTime":1776034440,"reportTime":"2026-04-12T23:00:00.000Z","temp":20.6,"dewp":6.1,"wdir":200,"wspd":12,"visib":"10+","altim":1016,"slp":1016.1,"qcField":12,"metarType":"METAR","rawOb":"METAR KBUF 122254Z 20012KT 10SM SCT065 SCT095 BKN270 21/06 A3000 RMK AO2 SLP161 T02060061 $","lat":42.94,"lon":-78.7361,"elev":217,"name":"Buffalo-Niagara Intl, NY, US","cover":"BKN","clouds":[{"cover":"SCT","base":6500},{"cover":"SCT","base":9500},{"cover":"BKN","base":27000}],"fltCat":"VFR"},{"icaoId":"KBTV","receiptTime":"2026-04-12T22:58:13.181Z","obsTime":1776034440,"reportTime":"2026-04-12T23:00:00.000Z","temp":6.1,"dewp":3.3,"wdir":70,"wspd":5,"visib":"10+","altim":1024.8,"slp":1024.9,"qcField":4,"wxString":"-RA","precip":0.03,"metarType":"METAR","rawOb":"METAR KBTV 122254Z 07005KT 10SM -RA OVC033 06/03 A3026 RMK AO2 SLP249 P0003 T00610033","lat":44.4682,"lon":-73.1499,"elev":101,"name":"Burlington Intl, VT, US","cover":"OVC","clouds":[{"cover":"OVC","base":3300}],"fltCat":"VFR"},{"icaoId":"KBOS","receiptTime":"2026-04-12T22:58:13.167Z","obsTime":1776034440,"reportTime":"2026-04-12T23:00:00.000Z","temp":9.4,"dewp":-0.6,"wdir":190,"wspd":15,"visib":"10+","altim":1028.5,"slp":1028.2,"qcField":4,"metarType":"METAR","rawOb":"METAR KBOS 122254Z 19015KT 10SM FEW080 BKN110 OVC170 09/M01 A3037 RMK AO2 SLP282 T00941006","lat":42.3606,"lon":-71.0097,"elev":4,"name":"Boston/Logan Intl, MA, US","cover":"OVC","clouds":[{"cover":"FEW","base":8000},{"cover":"BKN","base":11000},{"cover":"OVC","base":17000}],"fltCat":"VFR"},{"icaoId":"KBWI","receiptTime":"2026-04-12T22:58:13.213Z","obsTime":1776034440,"reportTime":"2026-04-12T23:00:00.000Z","temp":16.1,"dewp":3.3,"wdir":130,"wspd":9,"wgst":15,"visib":"10+","altim":1026.2,"slp":1025.8,"qcField":4,"metarType":"METAR","rawOb":"METAR KBWI 122254Z 13009G15KT 10SM FEW150 BKN250 16/03 A3030 RMK AO2 SLP258 T01610033","lat":39.1733,"lon":-76.684,"elev":42,"name":"Baltimore-Washington Intl, MD, US","cover":"BKN","clouds":[{"cover":"FEW","base":15000},{"cover":"BKN","base":25000}],"fltCat":"VFR"},{"icaoId":"KGSO","receiptTime":"2026-04-12T22:58:13.317Z","obsTime":1776034440,"reportTime":"2026-04-12T23:00:00.000Z","temp":25.6,"dewp":8.9,"wdir":220,"wspd":6,"visib":"10+","altim":1025.1,"slp":1024.4,"qcField":12,"metarType":"METAR","rawOb":"METAR KGSO 122254Z 22006KT 10SM FEW070 OVC250 26/09 A3027 RMK AO2 SLP244 T02560089 $","lat":36.0969,"lon":-79.9432,"elev":275,"name":"Greensboro Intl, NC, US","cover":"OVC","clouds":[{"cover":"FEW","base":7000},{"cover":"OVC","base":25000}],"fltCat":"VFR"},{"icaoId":"KAPC","receiptTime":"2026-04-12T22:58:12.567Z","obsTime":1776034440,"reportTime":"2026-04-12T23:00:00.000Z","temp":13.9,"dewp":9.4,"wdir":220,"wspd":13,"wgst":24,"visib":"10+","altim":1012.6,"slp":1011.6,"qcField":4,"wxString":"-RA","precip":0.005,"metarType":"METAR","rawOb":"METAR KAPC 122254Z 22013G24KT 10SM -RA BKN025 BKN045 BKN060 14/09 A2990 RMK AO2 RAB50 SLP116 P0000 T01390094","lat":38.2075,"lon":-122.2804,"elev":5,"name":"Napa Cnty Arpt, CA, US","cover":"BKN","clouds":[{"cover":"BKN","base":2500},{"cover":"BKN","base":4500},{"cover":"BKN","base":6000}],"fltCat":"MVFR"},{"icaoId":"KDSM","receiptTime":"2026-04-12T22:58:11.809Z","obsTime":1776034440,"reportTime":"2026-04-12T23:00:00.000Z","temp":18.3,"dewp":16.1,"wdir":190,"wspd":14,"wgst":22,"visib":"10+","altim":1006.2,"slp":1005.5,"qcField":4,"metarType":"METAR","rawOb":"METAR KDSM 122254Z 19014G22KT 10SM OVC014 18/16 A2971 RMK AO2 SLP055 T01830161","lat":41.5339,"lon":-93.6531,"elev":286,"name":"Des Moines Intl, IA, US","cover":"OVC","clouds":[{"cover":"OVC","base":1400}],"fltCat":"MVFR"},{"icaoId":"KSLC","receiptTime":"2026-04-12T22:58:12.003Z","obsTime":1776034440,"reportTime":"2026-04-12T23:00:00.000Z","temp":16.1,"dewp":-2.8,"wdir":340,"wspd":10,"wgst":26,"visib":"10+","altim":1005.5,"slp":1002.4,"qcField":12,"metarType":"METAR","rawOb":"METAR KSLC 122254Z 34010G26KT 10SM FEW090 SCT110 BKN140 BKN200 16/M03 A2969 RMK AO2 PK WND 25044/2211 WSHFT 2216 SLP024 VIRGA VCSH T01611028 $","lat":40.7707,"lon":-111.965,"elev":1286,"name":"Salt Lake City Intl, UT, US","cover":"BKN","clouds":[{"cover":"FEW","base":9000},{"cover":"SCT","base":11000},{"cover":"BKN","base":14000},{"cover":"BKN","base":20000}],"fltCat":"VFR"},{"icaoId":"KTUL","receiptTime":"2026-04-12T22:56:32.883Z","obsTime":1776034380,"reportTime":"2026-04-12T23:00:00.000Z","temp":25.6,"dewp":18.3,"wdir":170,"wspd":18,"wgst":28,"visib":"10+","altim":1010.9,"slp":1010.2,"qcField":4,"metarType":"METAR","rawOb":"METAR KTUL 122253Z 17018G28KT 10SM FEW039 SCT050 BKN250 26/18 A2985 RMK AO2 PK WND 17030/2219 SLP102 T02560183","lat":36.1985,"lon":-95.8782,"elev":196,"name":"Tulsa Intl Arpt, OK, US","cover":"BKN","clouds":[{"cover":"FEW","base":3900},{"cover":"SCT","base":5000},{"cover":"BKN","base":25000}],"fltCat":"VFR"},{"icaoId":"KTWF","receiptTime":"2026-04-12T22:56:32.940Z","obsTime":1776034380,"reportTime":"2026-04-12T23:00:00.000Z","temp":8.9,"dewp":0,"wdir":300,"wspd":13,"wgst":16,"visib":"10+","altim":1008.9,"slp":1007,"qcField":4,"wxString":"-RA","precip":0.005,"metarType":"METAR","rawOb":"METAR KTWF 122253Z 30013G16KT 10SM -RA BKN055 OVC070 09/00 A2979 RMK AO2 PK WND 28026/2232 RAB38 SLP070 P0000 T00890000","lat":42.4785,"lon":-114.4775,"elev":1269,"name":"Twin Falls/Joslin Fld, ID, US","cover":"OVC","clouds":[{"cover":"BKN","base":5500},{"cover":"OVC","base":7000}],"fltCat":"VFR"},{"icaoId":"KVGT","receiptTime":"2026-04-12T22:56:33.046Z","obsTime":1776034380,"reportTime":"2026-04-12T23:00:00.000Z","temp":22.2,"dewp":0.6,"wdir":250,"wspd":20,"wgst":37,"visib":"10+","altim":1009.2,"slp":1009.3,"qcField":4,"metarType":"METAR","rawOb":"METAR KVGT 122253Z 25020G37KT 10SM CLR 22/01 A2980 RMK AO2 PK WND 25037/2251 SLP093 T02220006","lat":36.212,"lon":-115.194,"elev":664,"name":"Las Vegas/North Arpt, NV, US","cover":"CLR","clouds":[],"fltCat":"VFR"},{"icaoId":"KMYF","receiptTime":"2026-04-12T22:56:33.534Z","obsTime":1776034380,"reportTime":"2026-04-12T23:00:00.000Z","temp":19.4,"dewp":10.6,"wdir":260,"wspd":12,"visib":"10+","altim":1016.3,"slp":1015.8,"qcField":4,"metarType":"METAR","rawOb":"METAR KMYF 122253Z 26012KT 10SM FEW055 BKN090 19/11 A3001 RMK AO2 SLP158 T01940106","lat":32.8145,"lon":-117.1375,"elev":128,"name":"San Diego/Montgomery Arpt, CA, US","cover":"BKN","clouds":[{"cover":"FEW","base":5500},{"cover":"BKN","base":9000}],"fltCat":"VFR"},{"icaoId":"KOAK","receiptTime":"2026-04-12T22:56:33.564Z","obsTime":1776034380,"reportTime":"2026-04-12T23:00:00.000Z","temp":15,"dewp":10,"wdir":230,"wspd":16,"visib":"10+","altim":1014,"slp":1013.7,"qcField":12,"precip":0.01,"metarType":"METAR","rawOb":"METAR KOAK 122253Z 23016KT 10SM FEW011 SCT032 BKN100 15/10 A2994 RMK AO2 RAB2159E17 SLP137 P0001 T01500100 $","lat":37.7178,"lon":-122.233,"elev":3,"name":"Oakland Intl, CA, US","cover":"BKN","clouds":[{"cover":"FEW","base":1100},{"cover":"SCT","base":3200},{"cover":"BKN","base":10000}],"fltCat":"VFR"},{"icaoId":"KLGB","receiptTime":"2026-04-12T22:56:33.819Z","obsTime":1776034380,"reportTime":"2026-04-12T23:00:00.000Z","temp":19.4,"dewp":6.7,"wdir":280,"wspd":8,"wgst":21,"visib":"10+","altim":1015.7,"slp":1015.4,"qcField":12,"metarType":"METAR","rawOb":"METAR KLGB 122253Z 28008G21KT 10SM OVC065 19/07 A2999 RMK AO2 SLP154 T01940067 $","lat":33.8118,"lon":-118.1472,"elev":10,"name":"Long Beach Arpt, CA, US","cover":"OVC","clouds":[{"cover":"OVC","base":6500}],"fltCat":"VFR"},{"icaoId":"KMAF","receiptTime":"2026-04-12T22:56:34.090Z","obsTime":1776034380,"reportTime":"2026-04-12T23:00:00.000Z","temp":28.9,"dewp":6.1,"wdir":180,"wspd":10,"visib":"10+","altim":1013.6,"slp":1009.4,"qcField":4,"metarType":"METAR","rawOb":"METAR KMAF 122253Z 18010KT 10SM SCT100 29/06 A2993 RMK AO2 WSHFT 2159 SLP094 T02890061","lat":31.9475,"lon":-102.2086,"elev":874,"name":"Midland Intl, TX, US","cover":"SCT","clouds":[{"cover":"SCT","base":10000}],"fltCat":"VFR"},{"icaoId":"KMCO","receiptTime":"2026-04-12T22:56:34.176Z","obsTime":1776034380,"reportTime":"2026-04-12T23:00:00.000Z","temp":24.4,"dewp":13.3,"wdir":80,"wspd":11,"visib":"10+","altim":1025.8,"slp":1025.5,"qcField":4,"metarType":"METAR","rawOb":"METAR KMCO 122253Z 08011KT 10SM FEW047 24/13 A3029 RMK AO2 SLP255 T02440133","lat":28.4182,"lon":-81.3241,"elev":27,"name":"Orlando Intl, FL, US","cover":"FEW","clouds":[{"cover":"FEW","base":4700}],"fltCat":"VFR"},{"icaoId":"KSTS","receiptTime":"2026-04-12T23:01:12.538Z","obsTime":1776034380,"reportTime":"2026-04-12T23:00:00.000Z","temp":15,"dewp":8,"wdir":250,"wspd":10,"wgst":15,"visib":"10+","altim":1012.6,"qcField":0,"metarType":"METAR","rawOb":"METAR KSTS 122253Z 25010G15KT 10SM SCT030 BKN110 15/08 A2990","lat":38.5037,"lon":-122.811,"elev":35,"name":"Santa Rosa/Schulz Arpt, CA, US","cover":"BKN","clouds":[{"cover":"SCT","base":3000},{"cover":"BKN","base":11000}],"fltCat":"VFR"},{"icaoId":"KLOL","receiptTime":"2026-04-12T22:56:33.904Z","obsTime":1776034380,"reportTime":"2026-04-12T23:00:00.000Z","temp":10,"dewp":-3.3,"wdir":320,"wspd":7,"visib":"10+","altim":1009.9,"slp":1009.3,"qcField":14,"metarType":"METAR","rawOb":"METAR KLOL 122253Z AUTO 32007KT 270V010 10SM CLR 10/M03 A2982 RMK AO2 SLP093 T01001033 $","lat":40.0684,"lon":-118.5702,"elev":1191,"name":"Lovelock/Derby Fld, NV, US","cover":"CLR","clouds":[],"fltCat":"VFR"},{"icaoId":"KLVS","receiptTime":"2026-04-12T22:56:34.037Z","obsTime":1776034380,"reportTime":"2026-04-12T23:00:00.000Z","temp":18.9,"dewp":-6.1,"wdir":210,"wspd":21,"wgst":35,"visib":"10+","altim":1015.7,"slp":1007.9,"qcField":14,"metarType":"METAR","rawOb":"METAR KLVS 122253Z AUTO 21021G35KT 10SM CLR 19/M06 A2999 RMK AO2 PK WND 19035/2247 SLP079 T01891061 PNO $","lat":35.6558,"lon":-105.1385,"elev":2095,"name":"Las Vegas Muni, NM, US","cover":"CLR","clouds":[],"fltCat":"VFR"},{"icaoId":"KCYS","receiptTime":"2026-04-12T22:56:30.113Z","obsTime":1776034380,"reportTime":"2026-04-12T23:00:00.000Z","temp":19.4,"dewp":-11.7,"wdir":200,"wspd":9,"wgst":17,"visib":"10+","altim":1007.9,"slp":1001.9,"qcField":12,"metarType":"METAR","rawOb":"METAR KCYS 122253Z 20009G17KT 10SM SCT120 19/M12 A2976 RMK AO2 SLP019 T01941117 $","lat":41.1579,"lon":-104.8081,"elev":1868,"name":"Cheyenne Rgnl, WY, US","cover":"SCT","clouds":[{"cover":"SCT","base":12000}],"fltCat":"VFR"},{"icaoId":"KDAL","receiptTime":"2026-04-12T22:56:31.595Z","obsTime":1776034380,"reportTime":"2026-04-12T23:00:00.000Z","temp":22.2,"dewp":20.6,"wdir":160,"wspd":12,"wgst":19,"visib":"10+","altim":1015,"slp":1014.2,"qcField":4,"precip":0.005,"metarType":"METAR","rawOb":"METAR KDAL 122253Z 16012G19KT 10SM SCT009 BKN011 OVC016 22/21 A2997 RMK AO2 RAE41 SLP142 P0000 T02220206","lat":32.8384,"lon":-96.8358,"elev":148,"name":"Dallas/Love Fld, TX, US","cover":"OVC","clouds":[{"cover":"SCT","base":900},{"cover":"BKN","base":1100},{"cover":"OVC","base":1600}],"fltCat":"MVFR"},{"icaoId":"KDMN","receiptTime":"2026-04-12T22:56:31.625Z","obsTime":1776034380,"reportTime":"2026-04-12T23:00:00.000Z","temp":25.6,"dewp":0,"wdir":230,"wspd":23,"wgst":36,"visib":"10+","altim":1016.3,"slp":1010.5,"qcField":6,"metarType":"METAR","rawOb":"METAR KDMN 122253Z AUTO 23023G36KT 10SM FEW110 26/00 A3001 RMK AO2 PK WND 23037/2236 SLP105 T02560000","lat":32.2592,"lon":-107.7206,"elev":1310,"name":"Deming Muni, NM, US","cover":"FEW","clouds":[{"cover":"FEW","base":11000}],"fltCat":"VFR"},{"icaoId":"KDVT","receiptTime":"2026-04-12T22:56:25.305Z","obsTime":1776034380,"reportTime":"2026-04-12T23:00:00.000Z","temp":25.6,"dewp":3.3,"wdir":250,"wspd":12,"wgst":18,"visib":"10+","altim":1012.6,"slp":1010.8,"qcField":12,"metarType":"METAR","rawOb":"METAR KDVT 122253Z 25012G18KT 10SM 26/03 A2990 RMK AO2 SLP108 T02560033 $","lat":33.6902,"lon":-112.0662,"elev":454,"name":"Phoenix/Deer Valley Arpt, AZ, US"},{"icaoId":"KBUR","receiptTime":"2026-04-12T22:56:31.034Z","obsTime":1776034380,"reportTime":"2026-04-12T23:00:00.000Z","temp":18.3,"dewp":6.7,"wdir":190,"wspd":10,"visib":"10+","altim":1015,"slp":1014,"qcField":4,"metarType":"METAR","rawOb":"METAR KBUR 122253Z 19010KT 10SM OVC085 18/07 A2997 RMK AO2 SLP140 T01830067","lat":34.1996,"lon":-118.3654,"elev":221,"name":"Burbank/Bob Hope Arpt, CA, US","cover":"OVC","clouds":[{"cover":"OVC","base":8500}],"fltCat":"VFR"},{"icaoId":"KCDC","receiptTime":"2026-04-12T22:56:29.782Z","obsTime":1776034380,"reportTime":"2026-04-12T23:00:00.000Z","temp":16.7,"dewp":-11.7,"wdir":210,"wspd":30,"wgst":50,"visib":"10+","altim":1009.9,"slp":1004.8,"qcField":6,"metarType":"METAR","rawOb":"METAR KCDC 122253Z AUTO 21030G50KT 10SM CLR 17/M12 A2982 RMK AO2 PK WND 22050/2248 SLP048 T01671117","lat":37.7067,"lon":-113.097,"elev":1703,"name":"Cedar City Muni, UT, US","cover":"CLR","clouds":[],"fltCat":"VFR"},{"icaoId":"KCLL","receiptTime":"2026-04-12T22:56:31.528Z","obsTime":1776034380,"reportTime":"2026-04-12T23:00:00.000Z","temp":20.6,"dewp":17.8,"wdir":170,"wspd":10,"visib":"10+","altim":1018.4,"slp":1017.7,"qcField":4,"metarType":"METAR","rawOb":"METAR KCLL 122253Z 17010KT 10SM BKN065 BKN100 21/18 A3007 RMK AO2 LTG DSNT SW AND W SLP177 T02060178","lat":30.5912,"lon":-96.3631,"elev":96,"name":"College Station/Easterwood Arpt, TX, US","cover":"BKN","clouds":[{"cover":"BKN","base":6500},{"cover":"BKN","base":10000}],"fltCat":"VFR"},{"icaoId":"KCRQ","receiptTime":"2026-04-12T22:56:31.554Z","obsTime":1776034380,"reportTime":"2026-04-12T23:00:00.000Z","temp":17.8,"dewp":12.2,"wdir":240,"wspd":8,"visib":"10+","altim":1016,"slp":1015.8,"qcField":6,"precip":0.005,"metarType":"METAR","rawOb":"METAR KCRQ 122253Z AUTO 24008KT 10SM FEW019 BKN024 OVC090 18/12 A3000 RMK AO2 RAB2154E03 SLP158 P0000 T01780122","lat":33.1299,"lon":-117.2765,"elev":96,"name":"Carlsbad/Palomar Arpt, CA, US","cover":"OVC","clouds":[{"cover":"FEW","base":1900},{"cover":"BKN","base":2400},{"cover":"OVC","base":9000}],"fltCat":"MVFR"},{"icaoId":"KSAF","receiptTime":"2026-04-12T22:56:24.322Z","obsTime":1776034380,"reportTime":"2026-04-12T23:00:00.000Z","temp":21.1,"dewp":-11.7,"wdir":210,"wspd":19,"wgst":28,"visib":"10+","altim":1015,"slp":1007.9,"qcField":12,"metarType":"METAR","rawOb":"METAR KSAF 122253Z 21019G28KT 10SM FEW120 21/M12 A2997 RMK AO2 PK WND 23029/2240 SLP079 T02111117 $","lat":35.611,"lon":-106.0957,"elev":1918,"name":"Santa Fe Cnty Muni, NM, US","cover":"FEW","clouds":[{"cover":"FEW","base":12000}],"fltCat":"VFR"},{"icaoId":"KSDL","receiptTime":"2026-04-12T22:56:28.900Z","obsTime":1776034380,"reportTime":"2026-04-12T23:00:00.000Z","temp":25.6,"dewp":2.2,"wdir":260,"wspd":6,"visib":"10+","altim":1013,"slp":1010.8,"qcField":4,"metarType":"METAR","rawOb":"METAR KSDL 122253Z 26006KT 10SM CLR 26/02 A2991 RMK AO2 SLP108 T02560022","lat":33.6123,"lon":-111.9232,"elev":438,"name":"Scottsdale Muni, AZ, US","cover":"CLR","clouds":[],"fltCat":"VFR"},{"icaoId":"KRTN","receiptTime":"2026-04-12T22:56:24.214Z","obsTime":1776034380,"reportTime":"2026-04-12T23:00:00.000Z","temp":19.4,"dewp":-7.8,"wdir":240,"wspd":16,"wgst":25,"visib":"10+","altim":1012.6,"slp":1007.3,"qcField":6,"metarType":"METAR","rawOb":"METAR KRTN 122253Z AUTO 24016G25KT 10SM CLR 19/M08 A2990 RMK AO2 PK WND 25029/2217 SLP073 T01941078","lat":36.7418,"lon":-104.5076,"elev":1939,"name":"Raton/Crews Fld, NM, US","cover":"CLR","clouds":[],"fltCat":"VFR"},{"icaoId":"KMFE","receiptTime":"2026-04-12T22:56:34.220Z","obsTime":1776034380,"reportTime":"2026-04-12T23:00:00.000Z","temp":28.3,"dewp":20.6,"wdir":130,"wspd":16,"visib":"10+","altim":1014.3,"slp":1013.8,"qcField":12,"metarType":"METAR","rawOb":"METAR KMFE 122253Z 13016KT 10SM BKN038 OVC047 28/21 A2995 RMK AO2 PK WND 13026/2224 SLP138 T02830206 $","lat":26.1791,"lon":-98.2445,"elev":29,"name":"McAllen/Miller Intl, TX, US","cover":"OVC","clouds":[{"cover":"BKN","base":3800},{"cover":"OVC","base":4700}],"fltCat":"VFR"},{"icaoId":"KIDA","receiptTime":"2026-04-12T22:56:29.382Z","obsTime":1776034380,"reportTime":"2026-04-12T23:00:00.000Z","temp":11.1,"dewp":1.1,"wdir":220,"wspd":22,"wgst":29,"visib":"10+","altim":1007.9,"slp":1007.7,"qcField":4,"metarType":"METAR","rawOb":"METAR KIDA 122253Z 22022G29KT 10SM FEW041 BKN085 11/01 A2976 RMK AO2 PK WND 24033/2234 SLP077 T01110011","lat":43.5204,"lon":-112.0675,"elev":1444,"name":"Idaho Falls Rgnl, ID, US","cover":"BKN","clouds":[{"cover":"FEW","base":4100},{"cover":"BKN","base":8500}],"fltCat":"VFR"},{"icaoId":"KCNY","receiptTime":"2026-04-12T22:56:31.541Z","obsTime":1776034380,"reportTime":"2026-04-12T23:00:00.000Z","temp":21.1,"dewp":-9.4,"wdir":210,"wspd":18,"wgst":25,"visib":"10+","altim":1007.2,"slp":1003.3,"qcField":14,"metarType":"METAR","rawOb":"METAR KCNY 122253Z AUTO 21018G25KT 10SM SCT120 21/M09 A2974 RMK AO2 PK WND 17032/2207 SLP033 T02111094 $","lat":38.7501,"lon":-109.7627,"elev":1392,"name":"Moab/Canyonland Fld, UT, US","cover":"SCT","clouds":[{"cover":"SCT","base":12000}],"fltCat":"VFR"},{"icaoId":"KDTW","receiptTime":"2026-04-12T22:56:25.277Z","obsTime":1776034380,"reportTime":"2026-04-12T23:00:00.000Z","temp":25.6,"dewp":9.4,"wdir":210,"wspd":23,"wgst":37,"visib":"10+","altim":1013.3,"slp":1013,"qcField":4,"metarType":"METAR","rawOb":"METAR KDTW 122253Z 21023G37KT 10SM FEW075 BKN180 BKN250 26/09 A2992 RMK AO2 PK WND 21037/2248 SLP130 T02560094","lat":42.2311,"lon":-83.3312,"elev":192,"name":"Detroit/Metro Wayne Cnty, MI, US","cover":"BKN","clouds":[{"cover":"FEW","base":7500},{"cover":"BKN","base":18000},{"cover":"BKN","base":25000}],"fltCat":"VFR"},{"icaoId":"KEVW","receiptTime":"2026-04-12T22:56:25.491Z","obsTime":1776034380,"reportTime":"2026-04-12T23:00:00.000Z","temp":8.3,"dewp":-5.6,"wdir":280,"wspd":17,"wgst":27,"visib":"10+","altim":1008.9,"slp":1004.8,"qcField":14,"metarType":"METAR","rawOb":"METAR KEVW 122253Z AUTO 28017G27KT 10SM BKN100 08/M06 A2979 RMK AO2 PK WND 27031/2232 WSHFT 2140 SLP048 T00831056 $","lat":41.2727,"lon":-111.0305,"elev":2178,"name":"Evanston/Uinta Cnty, WY, US","cover":"BKN","clouds":[{"cover":"BKN","base":10000}],"fltCat":"VFR"},{"icaoId":"KMYR","receiptTime":"2026-04-12T22:56:26.609Z","obsTime":1776034380,"reportTime":"2026-04-12T23:00:00.000Z","temp":21.7,"dewp":17.8,"wdir":110,"wspd":5,"visib":"10+","altim":1028.5,"slp":1028.4,"qcField":12,"metarType":"METAR","rawOb":"METAR KMYR 122253Z 11005KT 10SM CLR 22/18 A3037 RMK AO2 SLP284 T02170178 $","lat":33.6769,"lon":-78.9325,"elev":7,"name":"Myrtle Beach Intl, SC, US","cover":"CLR","clouds":[],"fltCat":"VFR"},{"icaoId":"KPIH","receiptTime":"2026-04-12T22:56:26.947Z","obsTime":1776034380,"reportTime":"2026-04-12T23:00:00.000Z","temp":10.6,"dewp":0.6,"wdir":260,"wspd":25,"visib":"10+","altim":1008.5,"slp":1007.9,"qcField":4,"metarType":"METAR","rawOb":"METAR KPIH 122253Z 26025KT 10SM SCT040 11/01 A2978 RMK AO2 PK WND 26031/2218 SLP079 T01060006","lat":42.9197,"lon":-112.5723,"elev":1357,"name":"Pocatello Rgnl, ID, US","cover":"SCT","clouds":[{"cover":"SCT","base":4000}],"fltCat":"VFR"},{"icaoId":"KBOI","receiptTime":"2026-04-12T22:56:30.895Z","obsTime":1776034380,"reportTime":"2026-04-12T23:00:00.000Z","temp":7.2,"dewp":3.3,"wdir":240,"wspd":4,"visib":"10+","altim":1009.9,"slp":1009.7,"qcField":4,"precip":0.01,"metarType":"METAR","rawOb":"METAR KBOI 122253Z 24004KT 10SM BKN028 BKN035 OVC050 07/03 A2982 RMK AO2 RAE12 SLP097 P0001 T00720033","lat":43.567,"lon":-116.2406,"elev":860,"name":"Boise Arpt, ID, US","cover":"OVC","clouds":[{"cover":"BKN","base":2800},{"cover":"BKN","base":3500},{"cover":"OVC","base":5000}],"fltCat":"MVFR"},{"icaoId":"KLAX","receiptTime":"2026-04-12T22:56:22.481Z","obsTime":1776034380,"reportTime":"2026-04-12T23:00:00.000Z","temp":18.3,"dewp":8.3,"wdir":230,"wspd":13,"visib":"10+","altim":1016,"slp":1015.7,"qcField":12,"metarType":"METAR","rawOb":"METAR KLAX 122253Z 23013KT 10SM FEW065 BKN080 18/08 A3000 RMK AO2 SLP157 T01830083 $","lat":33.9382,"lon":-118.3866,"elev":30,"name":"Los Angeles Intl, CA, US","cover":"BKN","clouds":[{"cover":"FEW","base":6500},{"cover":"BKN","base":8000}],"fltCat":"VFR"},{"icaoId":"KCNM","receiptTime":"2026-04-12T22:56:29.939Z","obsTime":1776034380,"reportTime":"2026-04-12T23:00:00.000Z","temp":29.4,"dewp":-2.8,"wdir":250,"wspd":17,"wgst":30,"visib":"10+","altim":1013.6,"slp":1008.6,"qcField":6,"metarType":"METAR","rawOb":"METAR KCNM 122253Z AUTO 25017G30KT 10SM CLR 29/M03 A2993 RMK AO2 PK WND 25031/2240 SLP086 T02941028","lat":32.3336,"lon":-104.2584,"elev":993,"name":"Carlsbad/Cavern City Air Term, NM, US","cover":"CLR","clouds":[],"fltCat":"VFR"},{"icaoId":"KDFW","receiptTime":"2026-04-12T22:56:30.206Z","obsTime":1776034380,"reportTime":"2026-04-12T23:00:00.000Z","temp":22.2,"dewp":19.4,"wdir":170,"wspd":15,"wgst":25,"visib":"10+","altim":1014,"slp":1013.3,"qcField":4,"metarType":"METAR","rawOb":"METAR KDFW 122253Z 17015G25KT 10SM OVC013 22/19 A2994 RMK AO2 PK WND 16029/2235 SLP133 T02220194","lat":32.8974,"lon":-97.022,"elev":168,"name":"Dallas-Ft Worth Intl, TX, US","cover":"OVC","clouds":[{"cover":"OVC","base":1300}],"fltCat":"MVFR"},{"icaoId":"KACV","receiptTime":"2026-04-12T22:56:26.194Z","obsTime":1776034380,"reportTime":"2026-04-12T23:00:00.000Z","temp":12.2,"dewp":7.8,"wdir":300,"wspd":8,"visib":"10+","altim":1011.6,"slp":1012,"qcField":6,"metarType":"METAR","rawOb":"METAR KACV 122253Z AUTO 30008KT 10SM BKN043 BKN100 12/08 A2987 RMK AO2 SLP120 T01220078","lat":40.9784,"lon":-124.1048,"elev":63,"name":"Arcata Arpt, CA, US","cover":"BKN","clouds":[{"cover":"BKN","base":4300},{"cover":"BKN","base":10000}],"fltCat":"VFR"},{"icaoId":"KASE","receiptTime":"2026-04-12T22:56:26.506Z","obsTime":1776034380,"reportTime":"2026-04-12T23:00:00.000Z","temp":15.6,"dewp":-11.7,"wdir":250,"wspd":7,"wgst":18,"visib":"10+","altim":1012.6,"slp":1003.4,"qcField":4,"metarType":"METAR","rawOb":"METAR KASE 122253Z 25007G18KT 210V300 10SM FEW110 16/M12 A2990 RMK AO2 PK WND 26027/2217 SLP034 T01561117","lat":39.2299,"lon":-106.8705,"elev":2384,"name":"Aspen/Pitkin Cnty, CO, US","cover":"FEW","clouds":[{"cover":"FEW","base":11000}],"fltCat":"VFR"},{"icaoId":"KMDW","receiptTime":"2026-04-12T22:56:34.205Z","obsTime":1776034380,"reportTime":"2026-04-12T23:00:00.000Z","temp":25.6,"dewp":10.6,"wdir":210,"wspd":22,"wgst":36,"visib":"10+","altim":1009.6,"slp":1008.8,"qcField":4,"metarType":"METAR","rawOb":"METAR KMDW 122253Z 21022G36KT 10SM SCT075 BKN180 OVC250 26/11 A2981 RMK AO2 PK WND 20039/2230 SLP088 T02560106","lat":41.7841,"lon":-87.7552,"elev":186,"name":"Chicago/Midway Intl, IL, US","cover":"OVC","clouds":[{"cover":"SCT","base":7500},{"cover":"BKN","base":18000},{"cover":"OVC","base":25000}],"fltCat":"VFR"},{"icaoId":"KMTJ","receiptTime":"2026-04-12T22:56:33.473Z","obsTime":1776034380,"reportTime":"2026-04-12T23:00:00.000Z","temp":19.4,"dewp":-7.8,"wdir":240,"wspd":16,"wgst":30,"visib":"10+","altim":1011.6,"slp":1005.3,"qcField":6,"metarType":"METAR","rawOb":"METAR KMTJ 122253Z AUTO 24016G30KT 10SM FEW110 19/M08 A2987 RMK AO2 PK WND 21033/2209 SLP053 T01941078","lat":38.5054,"lon":-107.8981,"elev":1755,"name":"Montrose Rgnl, CO, US","cover":"FEW","clouds":[{"cover":"FEW","base":11000}],"fltCat":"VFR"},{"icaoId":"KPDX","receiptTime":"2026-04-12T22:56:22.647Z","obsTime":1776034380,"reportTime":"2026-04-12T23:00:00.000Z","temp":12.2,"dewp":10,"wdir":200,"wspd":7,"visib":"10+","altim":1008.9,"slp":1008.8,"qcField":12,"wxString":"-RA","precip":0.005,"metarType":"METAR","rawOb":"METAR KPDX 122253Z 20007KT 10SM -RA FEW008 BKN015 OVC025 12/10 A2979 RMK AO2 RAB38 SLP088 P0000 T01220100 $","lat":45.5958,"lon":-122.6092,"elev":7,"name":"Portland Intl, OR, US","cover":"OVC","clouds":[{"cover":"FEW","base":800},{"cover":"BKN","base":1500},{"cover":"OVC","base":2500}],"fltCat":"MVFR"},{"icaoId":"KPGA","receiptTime":"2026-04-12T22:56:22.661Z","obsTime":1776034380,"reportTime":"2026-04-12T23:00:00.000Z","temp":22.2,"dewp":-7.2,"wdir":220,"wspd":10,"wgst":21,"visib":"10+","altim":1008.9,"slp":1004.1,"qcField":14,"metarType":"METAR","rawOb":"METAR KPGA 122253Z AUTO 22010G21KT 10SM FEW120 22/M07 A2979 RMK AO2 PK WND 21027/2202 SLP041 T02221072 $","lat":36.9211,"lon":-111.4487,"elev":1310,"name":"Page Muni, AZ, US","cover":"FEW","clouds":[{"cover":"FEW","base":12000}],"fltCat":"VFR"},{"icaoId":"KPRC","receiptTime":"2026-04-12T22:56:23.416Z","obsTime":1776034380,"reportTime":"2026-04-12T23:00:00.000Z","temp":17.2,"dewp":-2.2,"wdir":190,"wspd":11,"wgst":25,"visib":"10+","altim":1015.7,"slp":1010.5,"qcField":4,"metarType":"METAR","rawOb":"METAR KPRC 122253Z 19011G25KT 10SM CLR 17/M02 A2999 RMK AO2 PK WND 17028/2230 SLP105 T01721022","lat":34.6491,"lon":-112.4223,"elev":1528,"name":"Prescott/Love Fld, AZ, US","cover":"CLR","clouds":[],"fltCat":"VFR"},{"icaoId":"KPSP","receiptTime":"2026-04-12T22:56:23.444Z","obsTime":1776034380,"reportTime":"2026-04-12T23:00:00.000Z","temp":21.1,"dewp":10,"wdir":320,"wspd":15,"wgst":24,"visib":"10+","altim":1012.6,"slp":1012.3,"qcField":4,"metarType":"METAR","rawOb":"METAR KPSP 122253Z 32015G24KT 10SM BKN080 OVC095 21/10 A2990 RMK AO2 SLP123 T02110100","lat":33.8222,"lon":-116.5043,"elev":123,"name":"Palm Springs Intl, CA, US","cover":"OVC","clouds":[{"cover":"BKN","base":8000},{"cover":"OVC","base":9500}],"fltCat":"VFR"},{"icaoId":"KFUL","receiptTime":"2026-04-12T22:56:24.637Z","obsTime":1776034380,"reportTime":"2026-04-12T23:00:00.000Z","temp":19.4,"dewp":7.2,"wdir":"VRB","wspd":6,"visib":"10+","altim":1015.3,"slp":1015.2,"qcField":6,"metarType":"METAR","rawOb":"METAR KFUL 122253Z AUTO VRB06KT 10SM SCT050 OVC060 19/07 A2998 RMK AO2 SLP152 T01940072","lat":33.8715,"lon":-117.9856,"elev":23,"name":"Fullerton Muni, CA, US","cover":"OVC","clouds":[{"cover":"SCT","base":5000},{"cover":"OVC","base":6000}],"fltCat":"VFR"},{"icaoId":"KDRO","receiptTime":"2026-04-12T22:56:25.237Z","obsTime":1776034380,"reportTime":"2026-04-12T23:00:00.000Z","temp":17.8,"dewp":-7.2,"wdir":230,"wspd":11,"wgst":21,"visib":"10+","altim":1015,"slp":1011.5,"qcField":6,"metarType":"METAR","rawOb":"METAR KDRO 122253Z AUTO 23011G21KT 10SM SCT110 18/M07 A2997 RMK AO2 PK WND 26026/2224 SLP115 T01781072","lat":37.1431,"lon":-107.7602,"elev":2021,"name":"Durango/La Plata Cnty, CO, US","cover":"SCT","clouds":[{"cover":"SCT","base":11000}],"fltCat":"VFR"},{"icaoId":"KAMA","receiptTime":"2026-04-12T22:56:26.348Z","obsTime":1776034380,"reportTime":"2026-04-12T23:00:00.000Z","temp":28.3,"dewp":-1.1,"wdir":250,"wspd":23,"wgst":34,"visib":"10+","altim":1011.6,"slp":1007,"qcField":4,"metarType":"METAR","rawOb":"METAR KAMA 122253Z 25023G34KT 10SM CLR 28/M01 A2987 RMK AO2 PK WND 24037/2221 SLP070 T02831011","lat":35.2203,"lon":-101.7173,"elev":1102,"name":"Amarillo Intl Arpt, TX, US","cover":"CLR","clouds":[],"fltCat":"VFR"},{"icaoId":"KAPA","receiptTime":"2026-04-12T22:56:26.438Z","obsTime":1776034380,"reportTime":"2026-04-12T23:00:00.000Z","temp":23.3,"dewp":-13.9,"wdir":230,"wspd":22,"wgst":37,"visib":"10+","altim":1007.2,"slp":1001.5,"qcField":4,"metarType":"METAR","rawOb":"METAR KAPA 122253Z 23022G37KT 10SM BKN100 BKN220 23/M14 A2974 RMK AO2 PK WND 22037/2248 SLP015 VIRGA ALQDS T02331139","lat":39.5599,"lon":-104.8484,"elev":1791,"name":"Denver/Centennial Arpt, CO, US","cover":"BKN","clouds":[{"cover":"BKN","base":10000},{"cover":"BKN","base":22000}],"fltCat":"VFR"},{"icaoId":"KAUS","receiptTime":"2026-04-12T22:56:26.562Z","obsTime":1776034380,"reportTime":"2026-04-12T23:00:00.000Z","temp":22.2,"dewp":20.6,"wdir":140,"wspd":14,"visib":"10+","altim":1015.7,"slp":1014.9,"qcField":4,"precip":0.005,"metarType":"METAR","rawOb":"METAR KAUS 122253Z 14014KT 10SM BKN009 OVC015 22/21 A2999 RMK AO2 RAE2154 TSE05 SLP149 CIG 009V011 TS MOV E CB DSNT NE-SE P0000 T02220206","lat":30.1831,"lon":-97.6806,"elev":148,"name":"Austin/Bergstrom Intl, TX, US","cover":"OVC","clouds":[{"cover":"BKN","base":900},{"cover":"OVC","base":1500}],"fltCat":"IFR"},{"icaoId":"KMIA","receiptTime":"2026-04-12T22:56:27.394Z","obsTime":1776034380,"reportTime":"2026-04-12T23:00:00.000Z","temp":25,"dewp":16.1,"wdir":60,"wspd":9,"wgst":19,"visib":"10+","altim":1022.4,"slp":1022.5,"qcField":0,"metarType":"METAR","rawOb":"METAR KMIA 122253Z 06009G19KT 10SM SCT030 SCT045 25/16 A3019 RMK SLP225 T02500161","lat":25.7881,"lon":-80.3169,"elev":1,"name":"Miami Intl, FL, US","cover":"SCT","clouds":[{"cover":"SCT","base":3000},{"cover":"SCT","base":4500}],"fltCat":"VFR"},{"icaoId":"KVEL","receiptTime":"2026-04-12T22:56:33.035Z","obsTime":1776034380,"reportTime":"2026-04-12T23:00:00.000Z","temp":17.2,"dewp":-6.7,"wdir":260,"wspd":13,"visib":"10+","altim":1007.9,"slp":1004.6,"qcField":6,"metarType":"METAR","rawOb":"METAR KVEL 122253Z AUTO 26013KT 10SM OVC110 17/M07 A2976 RMK AO2 PK WND 25037/2155 SLP046 T01721067","lat":40.4429,"lon":-109.5128,"elev":1604,"name":"Vernal Rgnl, UT, US","cover":"OVC","clouds":[{"cover":"OVC","base":11000}],"fltCat":"VFR"},{"icaoId":"KSBA","receiptTime":"2026-04-12T22:56:28.884Z","obsTime":1776034380,"reportTime":"2026-04-12T23:00:00.000Z","temp":17.8,"dewp":9.4,"wdir":240,"wspd":12,"wgst":21,"visib":"10+","altim":1015.3,"slp":1015.1,"qcField":12,"metarType":"METAR","rawOb":"METAR KSBA 122253Z 24012G21KT 10SM FEW060 18/09 A2998 RMK AO2 SLP151 T01780094 $","lat":34.4241,"lon":-119.8425,"elev":2,"name":"Santa Barbara Muni, CA, US","cover":"FEW","clouds":[{"cover":"FEW","base":6000}],"fltCat":"VFR"},{"icaoId":"KSEA","receiptTime":"2026-04-12T22:56:28.929Z","obsTime":1776034380,"reportTime":"2026-04-12T23:00:00.000Z","temp":13.3,"dewp":7.8,"wdir":210,"wspd":8,"visib":"10+","altim":1007.9,"slp":1008.2,"qcField":4,"metarType":"METAR","rawOb":"METAR KSEA 122253Z 21008KT 10SM SCT023 OVC060 13/08 A2976 RMK AO2 SLP082 T01330078","lat":47.4447,"lon":-122.3144,"elev":115,"name":"Seattle-Tacoma Intl, WA, US","cover":"OVC","clouds":[{"cover":"SCT","base":2300},{"cover":"OVC","base":6000}],"fltCat":"VFR"},{"icaoId":"KHOU","receiptTime":"2026-04-12T22:56:29.161Z","obsTime":1776034380,"reportTime":"2026-04-12T23:00:00.000Z","temp":24.4,"dewp":20.6,"wdir":150,"wspd":13,"wgst":22,"visib":9,"altim":1018.4,"slp":1018.7,"qcField":12,"precip":0.005,"metarType":"METAR","rawOb":"METAR KHOU 122253Z 15013G22KT 9SM SCT022 BKN030 OVC046 24/21 A3007 RMK AO2 RAB2158E44 SLP187 OCNL LTGICCC DSNT N AND NW CB DSNT N AND NW MOV NE P0000 T02440206 $","lat":29.6458,"lon":-95.2821,"elev":13,"name":"Houston/Hobby Arpt, TX, US","cover":"OVC","clouds":[{"cover":"SCT","base":2200},{"cover":"BKN","base":3000},{"cover":"OVC","base":4600}],"fltCat":"MVFR"},{"icaoId":"KLAR","receiptTime":"2026-04-12T22:56:29.524Z","obsTime":1776034380,"reportTime":"2026-04-12T23:00:00.000Z","temp":15,"dewp":-13.3,"wdir":260,"wspd":16,"wgst":29,"visib":"10+","altim":1009.6,"slp":1003.1,"qcField":14,"metarType":"METAR","rawOb":"METAR KLAR 122253Z AUTO 26016G29KT 10SM CLR 15/M13 A2981 RMK AO2 PK WND 24031/2224 SLP031 T01501133 $","lat":41.3165,"lon":-105.6729,"elev":2217,"name":"Laramie Rgnl, WY, US","cover":"CLR","clouds":[],"fltCat":"VFR"},{"icaoId":"KCPR","receiptTime":"2026-04-12T22:56:29.981Z","obsTime":1776034380,"reportTime":"2026-04-12T23:00:00.000Z","temp":20,"dewp":-9.4,"wdir":220,"wspd":19,"wgst":31,"visib":"10+","altim":1004.5,"slp":1000.3,"qcField":4,"metarType":"METAR","rawOb":"METAR KCPR 122253Z 22019G31KT 10SM FEW120 20/M09 A2966 RMK AO2 PK WND 22036/2156 SLP003 T02001094","lat":42.8978,"lon":-106.4736,"elev":1623,"name":"Casper/Natrona Cnty, WY, US","cover":"FEW","clouds":[{"cover":"FEW","base":12000}],"fltCat":"VFR"},{"icaoId":"KDEN","receiptTime":"2026-04-12T22:56:30.149Z","obsTime":1776034380,"reportTime":"2026-04-12T23:00:00.000Z","temp":22.8,"dewp":-11.1,"wdir":"VRB","wspd":3,"visib":"10+","altim":1006.5,"slp":1000.7,"qcField":4,"metarType":"METAR","rawOb":"METAR KDEN 122253Z VRB03KT 10SM SCT110 BKN150 BKN220 23/M11 A2972 RMK AO2 SLP007 VIRGA T02281111","lat":39.8466,"lon":-104.6562,"elev":1656,"name":"Denver Intl, CO, US","cover":"BKN","clouds":[{"cover":"SCT","base":11000},{"cover":"BKN","base":15000},{"cover":"BKN","base":22000}],"fltCat":"VFR"},{"icaoId":"KLAW","receiptTime":"2026-04-12T22:56:30.323Z","obsTime":1776034380,"reportTime":"2026-04-12T23:00:00.000Z","temp":27.8,"dewp":18.9,"wdir":170,"wspd":14,"wgst":23,"visib":"10+","altim":1010.9,"slp":1009.5,"qcField":12,"metarType":"METAR","rawOb":"METAR KLAW 122253Z 17014G23KT 10SM CLR 28/19 A2985 RMK AO2 PK WND 16026/2216 SLP095 T02780189 $","lat":34.5577,"lon":-98.4172,"elev":328,"name":"Lawton-Fort Sill Rgnl, OK, US","cover":"CLR","clouds":[],"fltCat":"VFR"},{"icaoId":"KBCE","receiptTime":"2026-04-12T22:56:30.640Z","obsTime":1776034380,"reportTime":"2026-04-12T23:00:00.000Z","temp":13.3,"dewp":-11.7,"wdir":220,"wspd":24,"wgst":36,"visib":"10+","altim":1012.6,"slp":1006,"qcField":6,"metarType":"METAR","rawOb":"METAR KBCE 122253Z AUTO 22024G36KT 10SM BKN100 13/M12 A2990 RMK AO2 PK WND 22043/2231 SLP060 T01331117","lat":37.7013,"lon":-112.149,"elev":2311,"name":"Bryce Canyon Arpt, UT, US","cover":"BKN","clouds":[{"cover":"BKN","base":10000}],"fltCat":"VFR"},{"icaoId":"KMSP","receiptTime":"2026-04-12T22:56:33.413Z","obsTime":1776034380,"reportTime":"2026-04-12T23:00:00.000Z","temp":26.7,"dewp":11.1,"wdir":220,"wspd":14,"wgst":25,"visib":"10+","altim":998.1,"slp":997.4,"qcField":4,"metarType":"METAR","rawOb":"METAR KMSP 122253Z 22014G25KT 10SM FEW065 SCT095 BKN250 27/11 A2947 RMK AO2 PK WND 23035/2205 SLP974 T02670111","lat":44.8852,"lon":-93.2313,"elev":255,"name":"Minneapolis-St Paul Intl, MN, US","cover":"BKN","clouds":[{"cover":"FEW","base":6500},{"cover":"SCT","base":9500},{"cover":"BKN","base":25000}],"fltCat":"VFR"},{"icaoId":"KFAT","receiptTime":"2026-04-12T22:56:31.698Z","obsTime":1776034380,"reportTime":"2026-04-12T23:00:00.000Z","temp":13.9,"dewp":8.3,"wdir":340,"wspd":8,"visib":"10+","altim":1014.6,"slp":1014.3,"qcField":12,"wxString":"-RA","precip":0.005,"metarType":"METAR","rawOb":"METAR KFAT 122253Z 34008KT 10SM -RA FEW045 BKN065 BKN080 14/08 A2996 RMK AO2 TSE11 SLP143 TCU DSNT NE-E-SE NW VCSH SE P0000 T01390083 $","lat":36.78,"lon":-119.7202,"elev":102,"name":"Fresno/Yosemite Intl, CA, US","cover":"BKN","clouds":[{"cover":"FEW","base":4500},{"cover":"BKN","base":6500},{"cover":"BKN","base":8000}],"fltCat":"VFR"},{"icaoId":"KMCI","receiptTime":"2026-04-12T22:56:34.149Z","obsTime":1776034380,"reportTime":"2026-04-12T23:00:00.000Z","temp":21.1,"dewp":17.8,"wdir":210,"wspd":9,"visib":"10+","altim":1008.2,"slp":1007.2,"qcField":4,"metarType":"METAR","rawOb":"METAR KMCI 122253Z 21009KT 10SM SCT015 BKN021 BKN200 21/18 A2977 RMK AO2 SLP072 T02110178","lat":39.2975,"lon":-94.7309,"elev":308,"name":"Kansas City Intl, MO, US","cover":"BKN","clouds":[{"cover":"SCT","base":1500},{"cover":"BKN","base":2100},{"cover":"BKN","base":20000}],"fltCat":"MVFR"},{"icaoId":"KGEG","receiptTime":"2026-04-12T22:56:31.772Z","obsTime":1776034380,"reportTime":"2026-04-12T23:00:00.000Z","temp":16.7,"dewp":3.3,"wdir":350,"wspd":5,"visib":"10+","altim":1002.1,"slp":1001.8,"qcField":4,"metarType":"METAR","rawOb":"METAR KGEG 122253Z 35005KT 10SM SCT065TCU BKN095 BKN180 17/03 A2959 RMK AO2 SLP018 CB DSNT S SW TCU S-SW VCSH T01670033","lat":47.6217,"lon":-117.528,"elev":718,"name":"Spokane Intl, WA, US","cover":"BKN","clouds":[{"cover":"SCT","base":6500},{"cover":"BKN","base":9500},{"cover":"BKN","base":18000}],"fltCat":"VFR"},{"icaoId":"KBRO","receiptTime":"2026-04-12T22:56:30.986Z","obsTime":1776034380,"reportTime":"2026-04-12T23:00:00.000Z","temp":27.8,"dewp":21.1,"wdir":150,"wspd":19,"wgst":26,"visib":"10+","altim":1015,"slp":1014.6,"qcField":4,"metarType":"METAR","rawOb":"METAR KBRO 122253Z 15019G26KT 10SM BKN021 28/21 A2997 RMK AO2 PK WND 14030/2208 SLP146 T02780211","lat":25.9146,"lon":-97.4231,"elev":6,"name":"Brownsville Intl, TX, US","cover":"BKN","clouds":[{"cover":"BKN","base":2100}],"fltCat":"MVFR"},{"icaoId":"KBHM","receiptTime":"2026-04-12T22:56:30.764Z","obsTime":1776034380,"reportTime":"2026-04-12T23:00:00.000Z","temp":27.2,"dewp":9.4,"wdir":190,"wspd":12,"visib":"10+","altim":1023.8,"slp":1023,"qcField":4,"metarType":"METAR","rawOb":"METAR KBHM 122253Z 19012KT 10SM FEW080 BKN250 27/09 A3023 RMK AO2 SLP230 T02720094","lat":33.5655,"lon":-86.7449,"elev":191,"name":"Birmingham Intl, AL, US","cover":"BKN","clouds":[{"cover":"FEW","base":8000},{"cover":"BKN","base":25000}],"fltCat":"VFR"},{"icaoId":"KBNA","receiptTime":"2026-04-12T22:56:30.882Z","obsTime":1776034380,"reportTime":"2026-04-12T23:00:00.000Z","temp":27.8,"dewp":5,"wdir":180,"wspd":13,"wgst":22,"visib":"10+","altim":1020.4,"slp":1019.8,"qcField":12,"metarType":"METAR","rawOb":"METAR KBNA 122253Z 18013G22KT 10SM BKN230 28/05 A3013 RMK AO2 SLP198 T02780050 $","lat":36.1105,"lon":-86.6881,"elev":168,"name":"Nashville Intl, TN, US","cover":"BKN","clouds":[{"cover":"BKN","base":23000}],"fltCat":"VFR"},{"icaoId":"KSWO","receiptTime":"2026-04-12T22:56:32.673Z","obsTime":1776034380,"reportTime":"2026-04-12T23:00:00.000Z","temp":27.8,"dewp":16.7,"wdir":220,"wspd":16,"wgst":26,"visib":"10+","altim":1009.6,"slp":1008.3,"qcField":4,"metarType":"METAR","rawOb":"METAR KSWO 122253Z 22016G26KT 10SM FEW049 28/17 A2981 RMK AO2 PK WND 23028/2243 SLP083 T02780167","lat":36.1624,"lon":-97.0832,"elev":293,"name":"Stillwater Muni, OK, US","cover":"FEW","clouds":[{"cover":"FEW","base":4900}],"fltCat":"VFR"},{"icaoId":"KTPA","receiptTime":"2026-04-12T22:56:32.828Z","obsTime":1776034380,"reportTime":"2026-04-12T23:00:00.000Z","temp":27.8,"dewp":12.2,"wdir":100,"wspd":12,"wgst":20,"visib":"10+","altim":1023.5,"slp":1023.2,"qcField":4,"metarType":"METAR","rawOb":"METAR KTPA 122253Z 10012G20KT 10SM FEW055 28/12 A3022 RMK AO2 SLP232 T02780122","lat":27.9633,"lon":-82.54,"elev":2,"name":"Tampa Intl Arpt, FL, US","cover":"FEW","clouds":[{"cover":"FEW","base":5500}],"fltCat":"VFR"},{"icaoId":"KTUS","receiptTime":"2026-04-12T22:56:28.220Z","obsTime":1776034380,"reportTime":"2026-04-12T23:00:00.000Z","temp":25,"dewp":2.8,"wdir":220,"wspd":16,"visib":"10+","altim":1016,"slp":1012.3,"qcField":4,"metarType":"METAR","rawOb":"METAR KTUS 122253Z 22016KT 10SM FEW090 SCT120 25/03 A3000 RMK AO2 PK WND 22028/2205 SLP123 T02500028","lat":32.1315,"lon":-110.9564,"elev":776,"name":"Tucson Intl Arpt, AZ, US","cover":"SCT","clouds":[{"cover":"FEW","base":9000},{"cover":"SCT","base":12000}],"fltCat":"VFR"},{"icaoId":"KPUB","receiptTime":"2026-04-12T22:56:23.472Z","obsTime":1776034380,"reportTime":"2026-04-12T23:00:00.000Z","temp":25,"dewp":-12.8,"wdir":180,"wspd":15,"wgst":22,"visib":"10+","altim":1006.5,"slp":1002,"qcField":12,"metarType":"METAR","rawOb":"METAR KPUB 122253Z 18015G22KT 10SM CLR 25/M13 A2972 RMK AO2 SLP020 T02501128 $","lat":38.2887,"lon":-104.5057,"elev":1441,"name":"Pueblo Mem Arpt, CO, US","cover":"CLR","clouds":[],"fltCat":"VFR"},{"icaoId":"KRDD","receiptTime":"2026-04-12T22:56:28.839Z","obsTime":1776034380,"reportTime":"2026-04-12T23:00:00.000Z","temp":9.4,"dewp":7.8,"wdir":360,"wspd":11,"visib":4,"altim":1010.9,"slp":1010.8,"qcField":14,"wxString":"-RA BR","precip":0.16,"metarType":"METAR","rawOb":"METAR KRDD 122253Z AUTO 36011KT 4SM -RA BR SCT025 BKN035 OVC047 09/08 A2985 RMK AO2 LTG DSNT SE AND SW RAB19 SLP108 P0016 T00940078 $","lat":40.5146,"lon":-122.2977,"elev":152,"name":"Redding Muni, CA, US","cover":"OVC","clouds":[{"cover":"SCT","base":2500},{"cover":"BKN","base":3500},{"cover":"OVC","base":4700}],"fltCat":"MVFR"},{"icaoId":"KMOD","receiptTime":"2026-04-12T22:56:33.356Z","obsTime":1776034380,"reportTime":"2026-04-12T23:00:00.000Z","temp":15.6,"dewp":10,"wdir":330,"wspd":5,"visib":"10+","altim":1013.3,"slp":1013.2,"qcField":6,"precip":0.01,"metarType":"METAR","rawOb":"METAR KMOD 122253Z AUTO 33005KT 10SM FEW043 SCT055 16/10 A2992 RMK AO2 RAB24E48 SLP132 P0001 T01560100","lat":37.6254,"lon":-120.9549,"elev":25,"name":"Modesto/Sham Fld, CA, US","cover":"SCT","clouds":[{"cover":"FEW","base":4300},{"cover":"SCT","base":5500}],"fltCat":"VFR"},{"icaoId":"KOGD","receiptTime":"2026-04-12T22:56:33.610Z","obsTime":1776034380,"reportTime":"2026-04-12T23:00:00.000Z","temp":13.9,"dewp":-2.8,"wdir":210,"wspd":6,"visib":"10+","altim":1007.5,"slp":1004.6,"qcField":4,"precip":0.005,"metarType":"METAR","rawOb":"METAR KOGD 122253Z 21006KT 10SM FEW047 BKN075 OVC085 14/M03 A2975 RMK AO2 RAE2157B17E31 SLP046 P0000 T01391028","lat":41.1941,"lon":-112.0168,"elev":1356,"name":"Ogden/Hinckley Arpt, UT, US","cover":"OVC","clouds":[{"cover":"FEW","base":4700},{"cover":"BKN","base":7500},{"cover":"OVC","base":8500}],"fltCat":"VFR"},{"icaoId":"KONT","receiptTime":"2026-04-12T22:56:33.686Z","obsTime":1776034380,"reportTime":"2026-04-12T23:00:00.000Z","temp":17.8,"dewp":6.7,"wdir":250,"wspd":10,"wgst":17,"visib":"10+","altim":1015,"slp":1014.4,"qcField":12,"metarType":"METAR","rawOb":"METAR KONT 122253Z 25010G17KT 10SM BKN047 OVC055 18/07 A2997 RMK AO2 SLP144 T01780067 $","lat":34.0531,"lon":-117.5769,"elev":279,"name":"Ontario Intl, CA, US","cover":"OVC","clouds":[{"cover":"BKN","base":4700},{"cover":"OVC","base":5500}],"fltCat":"VFR"},{"icaoId":"KPBI","receiptTime":"2026-04-12T22:56:23.150Z","obsTime":1776034380,"reportTime":"2026-04-12T23:00:00.000Z","temp":25,"dewp":16.1,"wdir":60,"wspd":13,"wgst":21,"visib":"10+","altim":1023.8,"slp":1023.5,"qcField":12,"metarType":"METAR","rawOb":"METAR KPBI 122253Z 06013G21KT 10SM FEW036 SCT045 SCT055 25/16 A3023 RMK AO2 SLP235 T02500161 $","lat":26.6851,"lon":-80.0992,"elev":4,"name":"Palm Beach Intl, FL, US","cover":"SCT","clouds":[{"cover":"FEW","base":3600},{"cover":"SCT","base":4500},{"cover":"SCT","base":5500}],"fltCat":"VFR"},{"icaoId":"KMLC","receiptTime":"2026-04-12T22:56:33.240Z","obsTime":1776034380,"reportTime":"2026-04-12T23:00:00.000Z","temp":21.7,"dewp":18.3,"wdir":180,"wspd":8,"wgst":21,"visib":"10+","altim":1015,"slp":1014,"qcField":6,"metarType":"METAR","rawOb":"METAR KMLC 122253Z AUTO 18008G21KT 150V220 10SM BKN017 OVC024 22/18 A2997 RMK AO2 SLP140 T02170183","lat":34.8824,"lon":-95.7815,"elev":231,"name":"McAlester Rgnl, OK, US","cover":"OVC","clouds":[{"cover":"BKN","base":1700},{"cover":"OVC","base":2400}],"fltCat":"MVFR"},{"icaoId":"KPNC","receiptTime":"2026-04-12T22:56:23.349Z","obsTime":1776034380,"reportTime":"2026-04-12T23:00:00.000Z","temp":27.2,"dewp":17.2,"wdir":210,"wspd":10,"wgst":23,"visib":"10+","altim":1008.9,"slp":1007.7,"qcField":6,"metarType":"METAR","rawOb":"METAR KPNC 122253Z AUTO 21010G23KT 170V230 10SM CLR 27/17 A2979 RMK AO2 PK WND 21026/2221 SLP077 T02720172","lat":36.7369,"lon":-97.1024,"elev":304,"name":"Ponca City Rgnl, OK, US","cover":"CLR","clouds":[],"fltCat":"VFR"},{"icaoId":"KLBB","receiptTime":"2026-04-12T22:56:30.338Z","obsTime":1776034380,"reportTime":"2026-04-12T23:00:00.000Z","temp":29.4,"dewp":0.6,"wdir":230,"wspd":21,"wgst":29,"visib":"10+","altim":1011.9,"slp":1007.3,"qcField":12,"precip":0.005,"metarType":"METAR","rawOb":"METAR KLBB 122253Z 23021G29KT 10SM FEW110 SCT250 29/01 A2988 RMK AO2 PK WND 20035/2236 RAE2158 SLP073 CB DSNT NE P0000 T02940006 $","lat":33.6658,"lon":-101.8233,"elev":996,"name":"Lubbock Intl Arpt, TX, US","cover":"SCT","clouds":[{"cover":"FEW","base":11000},{"cover":"SCT","base":25000}],"fltCat":"VFR"},{"icaoId":"KFMN","receiptTime":"2026-04-12T22:56:31.712Z","obsTime":1776034380,"reportTime":"2026-04-12T23:00:00.000Z","temp":19.4,"dewp":-6.1,"wdir":260,"wspd":9,"wgst":33,"visib":"10+","altim":1013.3,"slp":1010.5,"qcField":4,"wxString":"-RA","precip":0.005,"metarType":"METAR","rawOb":"METAR KFMN 122253Z 26009G33KT 10SM -RA SCT090 BKN110 19/M06 A2992 RMK AO2 PK WND 29033/2246 RAB47 SLP105 P0000 T01941061","lat":36.7435,"lon":-108.2293,"elev":1677,"name":"Farmington/Four Corners Rgnl, NM, US","cover":"BKN","clouds":[{"cover":"SCT","base":9000},{"cover":"BKN","base":11000}],"fltCat":"VFR"},{"icaoId":"KSHR","receiptTime":"2026-04-12T22:56:28.958Z","obsTime":1776034380,"reportTime":"2026-04-12T23:00:00.000Z","temp":18.3,"dewp":1.1,"wdir":60,"wspd":4,"visib":"10+","altim":1003.1,"slp":1001.6,"qcField":6,"metarType":"METAR","rawOb":"METAR KSHR 122253Z AUTO 06004KT 10SM FEW110 18/01 A2962 RMK AO2 SLP016 T01830011","lat":44.7603,"lon":-106.9741,"elev":1212,"name":"Sheridan Cnty Arpt, WY, US","cover":"FEW","clouds":[{"cover":"FEW","base":11000}],"fltCat":"VFR"},{"icaoId":"KSJC","receiptTime":"2026-04-12T22:56:28.971Z","obsTime":1776034380,"reportTime":"2026-04-12T23:00:00.000Z","temp":15.6,"dewp":8.3,"wdir":260,"wspd":12,"visib":"10+","altim":1014,"slp":1013.8,"qcField":4,"metarType":"METAR","rawOb":"METAR KSJC 122253Z 26012KT 10SM FEW010 SCT035 BKN045 16/08 A2994 RMK AO2 SLP138 T01560083","lat":37.3594,"lon":-121.9244,"elev":13,"name":"San Jose Intl Arpt, CA, US","cover":"BKN","clouds":[{"cover":"FEW","base":1000},{"cover":"SCT","base":3500},{"cover":"BKN","base":4500}],"fltCat":"VFR"},{"icaoId":"KSMF","receiptTime":"2026-04-12T22:56:28.985Z","obsTime":1776034380,"reportTime":"2026-04-12T23:00:00.000Z","temp":14.4,"dewp":8.3,"wdir":180,"wspd":14,"wgst":24,"visib":"10+","altim":1012.3,"slp":1012.1,"qcField":12,"metarType":"METAR","rawOb":"METAR KSMF 122253Z 18014G24KT 10SM FEW030 SCT038 BKN140 14/08 A2989 RMK AO2 PK WND 19027/2158 SLP121 T01440083 $","lat":38.7007,"lon":-121.5948,"elev":7,"name":"Sacramento Intl, CA, US","cover":"BKN","clouds":[{"cover":"FEW","base":3000},{"cover":"SCT","base":3800},{"cover":"BKN","base":14000}],"fltCat":"VFR"},{"icaoId":"KSNA","receiptTime":"2026-04-12T22:56:29.000Z","obsTime":1776034380,"reportTime":"2026-04-12T23:00:00.000Z","temp":18.3,"dewp":8.9,"wdir":260,"wspd":7,"visib":"10+","altim":1016,"slp":1015.8,"qcField":12,"wxString":"-RA","precip":0.005,"metarType":"METAR","rawOb":"METAR KSNA 122253Z 26007KT 10SM -RA SCT040 OVC060 18/09 A3000 RMK AO2 RAB49 SLP158 P0000 T01830089 $","lat":33.6798,"lon":-117.8675,"elev":14,"name":"Santa Ana/Wayne Arpt, CA, US","cover":"OVC","clouds":[{"cover":"SCT","base":4000},{"cover":"OVC","base":6000}],"fltCat":"VFR"},{"icaoId":"KGJT","receiptTime":"2026-04-12T22:56:24.782Z","obsTime":1776034380,"reportTime":"2026-04-12T23:00:00.000Z","temp":22.8,"dewp":-11.7,"wdir":220,"wspd":19,"wgst":31,"visib":"10+","altim":1008.2,"slp":1003,"qcField":4,"metarType":"METAR","rawOb":"METAR KGJT 122253Z 22019G31KT 10SM CLR 23/M12 A2977 RMK AO2 PK WND 20041/2241 SLP030 T02281117","lat":39.1344,"lon":-108.5408,"elev":1475,"name":"Grand Junction Rgnl, CO, US","cover":"CLR","clouds":[],"fltCat":"VFR"},{"icaoId":"KGSP","receiptTime":"2026-04-12T22:56:25.009Z","obsTime":1776034380,"reportTime":"2026-04-12T23:00:00.000Z","temp":24.4,"dewp":8.3,"wdir":210,"wspd":8,"visib":"10+","altim":1025.5,"slp":1024.7,"qcField":4,"metarType":"METAR","rawOb":"METAR KGSP 122253Z 21008KT 10SM CLR 24/08 A3028 RMK AO2 SLP247 T02440083","lat":34.8842,"lon":-82.2209,"elev":285,"name":"Greenville-Spartanburg Intl, SC, US","cover":"CLR","clouds":[],"fltCat":"VFR"},{"icaoId":"PANC","receiptTime":"2026-04-12T22:56:32.553Z","obsTime":1776034380,"reportTime":"2026-04-12T23:00:00.000Z","temp":1.1,"dewp":0,"wdir":240,"wspd":4,"visib":"10+","altim":1000.8,"slp":1000.9,"qcField":12,"precip":0.005,"metarType":"METAR","rawOb":"METAR PANC 122253Z 24004KT 10SM BKN022 OVC030 01/00 A2955 RMK AO2 SNE2155 CIG 016 N SLP009 P0000 T00110000 $","lat":61.1691,"lon":-150.0277,"elev":39,"name":"Anchorage Intl, AK, US","cover":"OVC","clouds":[{"cover":"BKN","base":2200},{"cover":"OVC","base":3000}],"fltCat":"MVFR"},{"icaoId":"KMSY","receiptTime":"2026-04-12T22:56:33.443Z","obsTime":1776034380,"reportTime":"2026-04-12T23:00:00.000Z","temp":25.6,"dewp":16.7,"wdir":160,"wspd":12,"visib":"10+","altim":1022.4,"slp":1022.4,"qcField":4,"metarType":"METAR","rawOb":"METAR KMSY 122253Z 16012KT 10SM FEW045 BKN250 26/17 A3019 RMK AO2 SLP224 T02560167","lat":29.9974,"lon":-90.2777,"elev":0,"name":"New Orleans/Armstrong Intl, LA, US","cover":"BKN","clouds":[{"cover":"FEW","base":4500},{"cover":"BKN","base":25000}],"fltCat":"VFR"},{"icaoId":"KTRM","receiptTime":"2026-04-12T22:58:20.285Z","obsTime":1776034320,"reportTime":"2026-04-12T23:00:00.000Z","temp":26.1,"dewp":7.8,"wdir":290,"wspd":16,"wgst":26,"visib":9,"altim":1011.6,"slp":1011.4,"qcField":38,"metarType":"METAR","rawOb":"METAR KTRM 122252Z AUTO 29016G26KT 9SM FEW100 26/08 A2987 RMK AO2 PK WND 27027/2222 SLP114 T02610078 TSNO","lat":33.6317,"lon":-116.1641,"elev":-39,"name":"Thermal Arpt, CA, US","cover":"FEW","clouds":[{"cover":"FEW","base":10000}],"fltCat":"VFR"},{"icaoId":"KIAD","receiptTime":"2026-04-12T22:56:27.942Z","obsTime":1776034320,"reportTime":"2026-04-12T23:00:00.000Z","temp":19.4,"dewp":6.1,"wdir":140,"wspd":12,"wgst":23,"visib":"10+","altim":1024.5,"slp":1024.4,"qcField":12,"metarType":"METAR","rawOb":"METAR KIAD 122252Z 14012G23KT 10SM FEW180 BKN250 19/06 A3025 RMK AO2 SLP244 T01940061 $","lat":38.9348,"lon":-77.4473,"elev":90,"name":"Washington/Dulles Intl, VA, US","cover":"BKN","clouds":[{"cover":"FEW","base":18000},{"cover":"BKN","base":25000}],"fltCat":"VFR"},{"icaoId":"KDCA","receiptTime":"2026-04-12T22:56:27.771Z","obsTime":1776034320,"reportTime":"2026-04-12T23:00:00.000Z","temp":18.9,"dewp":5.6,"wdir":150,"wspd":12,"visib":"10+","altim":1025.5,"slp":1025.4,"qcField":4,"metarType":"METAR","rawOb":"METAR KDCA 122252Z 15012KT 10SM OVC250 19/06 A3028 RMK AO2 SLP254 T01890056","lat":38.8472,"lon":-77.0345,"elev":4,"name":"Washington/Reagan-National Arpt, VA, US","cover":"OVC","clouds":[{"cover":"OVC","base":25000}],"fltCat":"VFR"},{"icaoId":"KMKE","receiptTime":"2026-04-12T22:56:28.078Z","obsTime":1776034320,"reportTime":"2026-04-12T23:00:00.000Z","temp":23.9,"dewp":13.3,"wdir":220,"wspd":15,"wgst":24,"visib":"10+","altim":1007.5,"slp":1007.2,"qcField":12,"metarType":"METAR","rawOb":"METAR KMKE 122252Z 22015G24KT 10SM SCT060 BKN070 OVC095 24/13 A2975 RMK AO2 PK WND 21029/2221 SLP072 T02390133 $","lat":42.9549,"lon":-87.9045,"elev":203,"name":"Milwaukee/Mitchell Intl, WI, US","cover":"OVC","clouds":[{"cover":"SCT","base":6000},{"cover":"BKN","base":7000},{"cover":"OVC","base":9500}],"fltCat":"VFR"},{"icaoId":"KABQ","receiptTime":"2026-04-12T22:56:23.593Z","obsTime":1776034320,"reportTime":"2026-04-12T23:00:00.000Z","temp":23.9,"dewp":-12.2,"wdir":220,"wspd":14,"wgst":25,"visib":"10+","altim":1013.6,"slp":1007.3,"qcField":12,"metarType":"METAR","rawOb":"METAR KABQ 122252Z 22014G25KT 10SM SCT130 BKN200 24/M12 A2993 RMK AO2 PK WND 23026/2228 SLP073 T02391122 $","lat":35.0419,"lon":-106.6154,"elev":1620,"name":"Albuquerque Intl, NM, US","cover":"BKN","clouds":[{"cover":"SCT","base":13000},{"cover":"BKN","base":20000}],"fltCat":"VFR"},{"icaoId":"KCVG","receiptTime":"2026-04-12T22:56:27.756Z","obsTime":1776034320,"reportTime":"2026-04-12T23:00:00.000Z","temp":24.4,"dewp":8.3,"wdir":200,"wspd":8,"visib":"10+","altim":1018.4,"slp":1017.8,"qcField":12,"metarType":"METAR","rawOb":"METAR KCVG 122252Z 20008KT 10SM SCT150 BKN250 24/08 A3007 RMK AO2 SLP178 T02440083 $","lat":39.0444,"lon":-84.6724,"elev":264,"name":"Cincinnati Intl, KY, US","cover":"BKN","clouds":[{"cover":"SCT","base":15000},{"cover":"BKN","base":25000}],"fltCat":"VFR"},{"icaoId":"KIWA","receiptTime":"2026-04-12T22:53:15.153Z","obsTime":1776034320,"reportTime":"2026-04-12T23:00:00.000Z","temp":27,"dewp":0,"wdir":260,"wspd":11,"wgst":17,"visib":"10+","altim":1013,"qcField":0,"metarType":"METAR","rawOb":"METAR KIWA 122252Z 26011G17KT 10SM CLR 27/00 A2991","lat":33.3008,"lon":-111.6437,"elev":420,"name":"Phoenix/Mesa Gateway Arpt, AZ, US","cover":"CLR","clouds":[],"fltCat":"VFR"},{"icaoId":"KSPS","receiptTime":"2026-04-12T22:56:23.779Z","obsTime":1776034320,"reportTime":"2026-04-12T23:00:00.000Z","temp":28.9,"dewp":18.3,"wdir":180,"wspd":18,"visib":"10+","altim":1010.9,"slp":1009.6,"qcField":4,"metarType":"METAR","rawOb":"METAR KSPS 122252Z 18018KT 10SM FEW049 29/18 A2985 RMK AO2 PK WND 20028/2203 SLP096 T02890183","lat":33.9785,"lon":-98.493,"elev":310,"name":"Wichita Falls Rgnl, TX, US","cover":"FEW","clouds":[{"cover":"FEW","base":4900}],"fltCat":"VFR"},{"icaoId":"KMLF","receiptTime":"2026-04-12T22:56:23.747Z","obsTime":1776034320,"reportTime":"2026-04-12T23:00:00.000Z","temp":18.3,"dewp":-10,"wdir":230,"wspd":26,"wgst":41,"visib":"10+","altim":1007.5,"slp":1003.6,"qcField":6,"metarType":"METAR","rawOb":"METAR KMLF 122252Z AUTO 23026G41KT 10SM FEW100 18/M10 A2975 RMK AO2 PK WND 22047/2154 SLP036 T01831100","lat":38.4225,"lon":-113.0109,"elev":1537,"name":"Milford Muni, UT, US","cover":"FEW","clouds":[{"cover":"FEW","base":10000}],"fltCat":"VFR"},{"icaoId":"KOKC","receiptTime":"2026-04-12T22:56:26.643Z","obsTime":1776034320,"reportTime":"2026-04-12T23:00:00.000Z","temp":27.2,"dewp":17.8,"wdir":180,"wspd":22,"wgst":28,"visib":"10+","altim":1010.9,"slp":1009.6,"qcField":4,"metarType":"METAR","rawOb":"METAR KOKC 122252Z 18022G28KT 10SM FEW042 SCT055 SCT250 27/18 A2985 RMK AO2 PK WND 19029/2228 SLP096 T02720178","lat":35.3843,"lon":-97.6003,"elev":391,"name":"Oklahoma City/Will Rogers Intl, OK, US","cover":"SCT","clouds":[{"cover":"FEW","base":4200},{"cover":"SCT","base":5500},{"cover":"SCT","base":25000}],"fltCat":"VFR"},{"icaoId":"KABI","receiptTime":"2026-04-12T22:56:23.579Z","obsTime":1776034320,"reportTime":"2026-04-12T23:00:00.000Z","temp":28.3,"dewp":17.8,"wdir":200,"wspd":16,"wgst":20,"visib":"10+","altim":1013,"slp":1010.7,"qcField":12,"metarType":"METAR","rawOb":"METAR KABI 122252Z 20016G20KT 10SM CLR 28/18 A2991 RMK AO2 SLP107 T02830178 $","lat":32.4106,"lon":-99.6821,"elev":543,"name":"Abilene Rgnl, TX, US","cover":"CLR","clouds":[],"fltCat":"VFR"},{"icaoId":"KATL","receiptTime":"2026-04-12T23:06:04.047Z","obsTime":1776034320,"reportTime":"2026-04-12T23:00:00.000Z","temp":28.3,"dewp":3.9,"wdir":170,"wspd":9,"wgst":18,"visib":"10+","altim":1024.5,"slp":1023.7,"qcField":13,"metarType":"METAR","rawOb":"METAR KATL 122252Z COR 17009G18KT 10SM FEW080 SCT250 28/04 A3025 RMK AO2 SLP237 T02830039 $","lat":33.6297,"lon":-84.4422,"elev":309,"name":"Atlanta/Hartsfield-Jackson Intl, GA, US","cover":"SCT","clouds":[{"cover":"FEW","base":8000},{"cover":"SCT","base":25000}],"fltCat":"VFR"},{"icaoId":"KCLT","receiptTime":"2026-04-12T22:56:27.725Z","obsTime":1776034320,"reportTime":"2026-04-12T23:00:00.000Z","temp":27.2,"dewp":7.8,"wdir":220,"wspd":7,"visib":"10+","altim":1025.1,"slp":1026.1,"qcField":4,"metarType":"METAR","rawOb":"METAR KCLT 122252Z 22007KT 10SM FEW100 SCT250 27/08 A3027 RMK AO2 SLP261 T02720078","lat":35.2225,"lon":-80.9543,"elev":223,"name":"Charlotte/Douglas Intl, NC, US","cover":"SCT","clouds":[{"cover":"FEW","base":10000},{"cover":"SCT","base":25000}],"fltCat":"VFR"},{"icaoId":"KHRL","receiptTime":"2026-04-12T22:56:27.911Z","obsTime":1776034320,"reportTime":"2026-04-12T23:00:00.000Z","temp":27.2,"dewp":20.6,"wdir":140,"wspd":18,"visib":"10+","altim":1014.3,"slp":1014.2,"qcField":4,"metarType":"METAR","rawOb":"METAR KHRL 122252Z 14018KT 10SM OVC037 27/21 A2995 RMK AO2 PK WND 15026/2232 SLP142 T02720206","lat":26.2303,"lon":-97.6556,"elev":9,"name":"Harlingen/Valley Intl, TX, US","cover":"OVC","clouds":[{"cover":"OVC","base":3700}],"fltCat":"VFR"},{"icaoId":"KMYL","receiptTime":"2026-04-12T22:54:10.570Z","obsTime":1776034260,"reportTime":"2026-04-12T23:00:00.000Z","temp":4.4,"dewp":1.1,"wdir":180,"wspd":14,"wgst":23,"visib":"10+","altim":1006.2,"slp":1006.7,"qcField":6,"precip":0.005,"metarType":"METAR","rawOb":"METAR KMYL 122251Z AUTO 18014G23KT 10SM OVC043 04/01 A2971 RMK AO2 RAE14 SLP067 P0000 T00440011","lat":44.8943,"lon":-116.0998,"elev":1532,"name":"McCall Muni, ID, US","cover":"OVC","clouds":[{"cover":"OVC","base":4300}],"fltCat":"VFR"},{"icaoId":"KORF","receiptTime":"2026-04-12T22:54:10.610Z","obsTime":1776034260,"reportTime":"2026-04-12T23:00:00.000Z","temp":16.7,"dewp":10.6,"wdir":150,"wspd":8,"visib":"10+","altim":1028.2,"slp":1027.8,"qcField":4,"metarType":"METAR","rawOb":"METAR KORF 122251Z 15008KT 10SM CLR 17/11 A3036 RMK AO2 SLP278 T01670106","lat":36.9037,"lon":-76.1927,"elev":5,"name":"Norfolk Intl, VA, US","cover":"CLR","clouds":[],"fltCat":"VFR"},{"icaoId":"KOXR","receiptTime":"2026-04-12T22:54:10.646Z","obsTime":1776034260,"reportTime":"2026-04-12T23:00:00.000Z","temp":18.3,"dewp":8.3,"wdir":270,"wspd":14,"visib":"10+","altim":1015.7,"slp":1015.3,"qcField":4,"metarType":"METAR","rawOb":"METAR KOXR 122251Z 27014KT 10SM CLR 18/08 A2999 RMK AO2 SLP153 T01830083","lat":34.2001,"lon":-119.2042,"elev":12,"name":"Oxnard Arpt, CA, US","cover":"CLR","clouds":[],"fltCat":"VFR"},{"icaoId":"KPVD","receiptTime":"2026-04-12T22:54:10.677Z","obsTime":1776034260,"reportTime":"2026-04-12T23:00:00.000Z","temp":7.8,"dewp":-1.7,"wdir":200,"wspd":11,"visib":"10+","altim":1029.5,"slp":1029.6,"qcField":12,"metarType":"METAR","rawOb":"METAR KPVD 122251Z 20011KT 10SM FEW070 OVC150 08/M02 A3040 RMK AO2 SLP296 T00781017 $","lat":41.7225,"lon":-71.4325,"elev":15,"name":"Providence/Green Mem, RI, US","cover":"OVC","clouds":[{"cover":"FEW","base":7000},{"cover":"OVC","base":15000}],"fltCat":"VFR"},{"icaoId":"KROW","receiptTime":"2026-04-12T22:54:10.704Z","obsTime":1776034260,"reportTime":"2026-04-12T23:00:00.000Z","temp":28.3,"dewp":-4.4,"wdir":210,"wspd":22,"wgst":31,"visib":"10+","altim":1011.6,"slp":1006.1,"qcField":12,"metarType":"METAR","rawOb":"METAR KROW 122251Z 21022G31KT 10SM CLR 28/M04 A2987 RMK AO2 PK WND 21034/2241 SLP061 T02831044 $","lat":33.3074,"lon":-104.5082,"elev":1105,"name":"Roswell/Ind Arpt, NM, US","cover":"CLR","clouds":[],"fltCat":"VFR"},{"icaoId":"KSAD","receiptTime":"2026-04-12T22:54:10.722Z","obsTime":1776034260,"reportTime":"2026-04-12T23:00:00.000Z","temp":27.8,"dewp":-1.7,"wdir":250,"wspd":15,"wgst":34,"visib":"10+","altim":1013.3,"slp":1008.9,"qcField":6,"metarType":"METAR","rawOb":"METAR KSAD 122251Z AUTO 25015G34KT 10SM CLR 28/M02 A2992 RMK AO2 PK WND 22035/2152 SLP089 T02781017","lat":32.8565,"lon":-109.636,"elev":937,"name":"Safford Rgnl, AZ, US","cover":"CLR","clouds":[],"fltCat":"VFR"},{"icaoId":"KSAN","receiptTime":"2026-04-12T22:54:10.755Z","obsTime":1776034260,"reportTime":"2026-04-12T23:00:00.000Z","temp":20.6,"dewp":11.1,"wdir":260,"wspd":9,"wgst":19,"visib":"10+","altim":1016.7,"slp":1016.6,"qcField":12,"metarType":"METAR","rawOb":"METAR KSAN 122251Z 26009G19KT 10SM SCT022 BKN055 BKN250 21/11 A3002 RMK AO2 SLP166 T02060111 $","lat":32.7364,"lon":-117.1973,"elev":3,"name":"San Diego Intl Arpt, CA, US","cover":"BKN","clouds":[{"cover":"SCT","base":2200},{"cover":"BKN","base":5500},{"cover":"BKN","base":25000}],"fltCat":"VFR"},{"icaoId":"KSAT","receiptTime":"2026-04-12T22:54:10.799Z","obsTime":1776034260,"reportTime":"2026-04-12T23:00:00.000Z","temp":25,"dewp":21.7,"wdir":130,"wspd":14,"visib":"10+","altim":1015,"slp":1013.1,"qcField":12,"precip":0.005,"metarType":"METAR","rawOb":"METAR KSAT 122251Z 13014KT 10SM BKN015 BKN070 BKN250 25/22 A2997 RMK AO2 RAB22E31 SLP131 P0000 T02500217 $","lat":29.5443,"lon":-98.4839,"elev":246,"name":"San Antonio Intl, TX, US","cover":"BKN","clouds":[{"cover":"BKN","base":1500},{"cover":"BKN","base":7000},{"cover":"BKN","base":25000}],"fltCat":"MVFR"},{"icaoId":"KSTL","receiptTime":"2026-04-12T22:54:11.416Z","obsTime":1776034260,"reportTime":"2026-04-12T23:00:00.000Z","temp":24.4,"dewp":11.1,"wdir":180,"wspd":18,"wgst":27,"visib":"10+","altim":1011.9,"slp":1011.1,"qcField":12,"metarType":"METAR","rawOb":"METAR KSTL 122251Z 18018G27KT 10SM FEW065 BKN110 BKN250 24/11 A2988 RMK AO2 PK WND 17030/2214 SLP111 T02440111 $","lat":38.7525,"lon":-90.3734,"elev":163,"name":"St Louis/Lambert Intl, MO, US","cover":"BKN","clouds":[{"cover":"FEW","base":6500},{"cover":"BKN","base":11000},{"cover":"BKN","base":25000}],"fltCat":"VFR"},{"icaoId":"KPHX","receiptTime":"2026-04-12T22:54:08.289Z","obsTime":1776034260,"reportTime":"2026-04-12T23:00:00.000Z","temp":27.2,"dewp":3.3,"wdir":260,"wspd":11,"wgst":20,"visib":"10+","altim":1011.6,"slp":1010.1,"qcField":12,"metarType":"METAR","rawOb":"METAR KPHX 122251Z 26011G20KT 10SM FEW100 FEW160 OVC210 27/03 A2987 RMK AO2 SLP101 T02720033 $","lat":33.4278,"lon":-112.0037,"elev":338,"name":"Phoenix/Sky Harbor Intl, AZ, US","cover":"OVC","clouds":[{"cover":"FEW","base":10000},{"cover":"FEW","base":16000},{"cover":"OVC","base":21000}],"fltCat":"VFR"},{"icaoId":"KVNY","receiptTime":"2026-04-12T22:54:11.473Z","obsTime":1776034260,"reportTime":"2026-04-12T23:00:00.000Z","temp":19.4,"dewp":-1.7,"wdir":"VRB","wspd":4,"wgst":17,"visib":"10+","altim":1014.6,"slp":1013.9,"qcField":12,"metarType":"METAR","rawOb":"METAR KVNY 122251Z VRB04G17KT 10SM CLR 19/M02 A2996 RMK AO2 SLP139 T01941017 $","lat":34.2121,"lon":-118.4915,"elev":241,"name":"Van Nuys Arpt, CA, US","cover":"CLR","clouds":[],"fltCat":"VFR"},{"icaoId":"KORD","receiptTime":"2026-04-12T22:54:08.257Z","obsTime":1776034260,"reportTime":"2026-04-12T23:00:00.000Z","temp":25.6,"dewp":11.1,"wdir":200,"wspd":22,"wgst":36,"visib":"10+","altim":1008.9,"slp":1008.3,"qcField":12,"metarType":"METAR","rawOb":"METAR KORD 122251Z 20022G36KT 10SM SCT065 SCT100 BKN160 OVC250 26/11 A2979 RMK AO2 PK WND 20037/2211 SLP083 T02560111 $","lat":41.9602,"lon":-87.9316,"elev":202,"name":"Chicago/O'Hare Intl, IL, US","cover":"OVC","clouds":[{"cover":"SCT","base":6500},{"cover":"SCT","base":10000},{"cover":"BKN","base":16000},{"cover":"OVC","base":25000}],"fltCat":"VFR"},{"icaoId":"KLGU","receiptTime":"2026-04-12T22:54:08.191Z","obsTime":1776034260,"reportTime":"2026-04-12T23:00:00.000Z","temp":15,"dewp":-0.6,"wdir":170,"wspd":8,"visib":"10+","altim":1006.5,"slp":1004.6,"qcField":6,"metarType":"METAR","rawOb":"METAR KLGU 122251Z AUTO 17008KT 10SM BKN090 OVC110 15/M01 A2972 RMK AO2 SLP046 T01501006","lat":41.7865,"lon":-111.8519,"elev":1359,"name":"Logan/Cache Arpt, UT, US","cover":"OVC","clouds":[{"cover":"BKN","base":9000},{"cover":"OVC","base":11000}],"fltCat":"VFR"},{"icaoId":"KJFK","receiptTime":"2026-04-12T22:54:09.169Z","obsTime":1776034260,"reportTime":"2026-04-12T23:00:00.000Z","temp":7.8,"dewp":4.4,"wdir":150,"wspd":11,"visib":"10+","altim":1029.9,"slp":1029.6,"qcField":12,"metarType":"METAR","rawOb":"METAR KJFK 122251Z 15011KT 10SM SCT112 BKN160 BKN250 08/04 A3041 RMK AO2 SLP296 T00780044 $","lat":40.6392,"lon":-73.7639,"elev":3,"name":"New York/JF Kennedy Intl, NY, US","cover":"BKN","clouds":[{"cover":"SCT","base":11200},{"cover":"BKN","base":16000},{"cover":"BKN","base":25000}],"fltCat":"VFR"},{"icaoId":"KLGA","receiptTime":"2026-04-12T22:54:09.204Z","obsTime":1776034260,"reportTime":"2026-04-12T23:00:00.000Z","temp":9.4,"dewp":2.8,"wdir":170,"wspd":15,"wgst":22,"visib":"10+","altim":1028.9,"slp":1028.7,"qcField":12,"metarType":"METAR","rawOb":"METAR KLGA 122251Z 17015G22KT 10SM FEW120 BKN160 BKN250 09/03 A3038 RMK AO2 SLP287 T00940028 $","lat":40.7794,"lon":-73.8803,"elev":9,"name":"New York/La Guardia Arpt, NY, US","cover":"BKN","clouds":[{"cover":"FEW","base":12000},{"cover":"BKN","base":16000},{"cover":"BKN","base":25000}],"fltCat":"VFR"},{"icaoId":"KPIT","receiptTime":"2026-04-12T22:54:09.283Z","obsTime":1776034260,"reportTime":"2026-04-12T23:00:00.000Z","temp":25.6,"dewp":8.3,"wdir":220,"wspd":6,"visib":"10+","altim":1019,"slp":1019.5,"qcField":12,"metarType":"METAR","rawOb":"METAR KPIT 122251Z 22006KT 10SM FEW080 FEW130 OVC250 26/08 A3009 RMK AO2 SLP195 T02560083 $","lat":40.4814,"lon":-80.2083,"elev":339,"name":"Pittsburgh Intl, PA, US","cover":"OVC","clouds":[{"cover":"FEW","base":8000},{"cover":"FEW","base":13000},{"cover":"OVC","base":25000}],"fltCat":"VFR"},{"icaoId":"KRDU","receiptTime":"2026-04-12T22:54:09.378Z","obsTime":1776034260,"reportTime":"2026-04-12T23:00:00.000Z","temp":26.7,"dewp":10.6,"wdir":160,"wspd":7,"visib":"10+","altim":1025.5,"slp":1025.1,"qcField":12,"metarType":"METAR","rawOb":"METAR KRDU 122251Z 16007KT 10SM FEW075 SCT250 27/11 A3028 RMK AO2 SLP251 T02670106 $","lat":35.8923,"lon":-78.782,"elev":121,"name":"Raleigh-Durham Intl, NC, US","cover":"SCT","clouds":[{"cover":"FEW","base":7500},{"cover":"SCT","base":25000}],"fltCat":"VFR"},{"icaoId":"KEWR","receiptTime":"2026-04-12T22:54:08.048Z","obsTime":1776034260,"reportTime":"2026-04-12T23:00:00.000Z","temp":8.9,"dewp":3.9,"wdir":130,"wspd":12,"visib":"10+","altim":1028.9,"slp":1028.6,"qcField":4,"metarType":"METAR","rawOb":"METAR KEWR 122251Z 13012KT 10SM FEW100 BKN170 BKN230 09/04 A3038 RMK AO2 SLP286 T00890039","lat":40.6828,"lon":-74.1692,"elev":2,"name":"Newark Intl, NJ, US","cover":"BKN","clouds":[{"cover":"FEW","base":10000},{"cover":"BKN","base":17000},{"cover":"BKN","base":23000}],"fltCat":"VFR"},{"icaoId":"KCMH","receiptTime":"2026-04-12T22:54:07.932Z","obsTime":1776034260,"reportTime":"2026-04-12T23:00:00.000Z","temp":26.1,"dewp":8.9,"wdir":210,"wspd":12,"wgst":28,"visib":"10+","altim":1018.4,"slp":1017.9,"qcField":4,"metarType":"METAR","rawOb":"METAR KCMH 122251Z 21012G28KT 10SM FEW070 FEW150 BKN200 OVC250 26/09 A3007 RMK AO2 PK WND 23028/2248 SLP179 T02610089","lat":39.9907,"lon":-82.877,"elev":257,"name":"Columbus/Glenn Intl, OH, US","cover":"OVC","clouds":[{"cover":"FEW","base":7000},{"cover":"FEW","base":15000},{"cover":"BKN","base":20000},{"cover":"OVC","base":25000}],"fltCat":"VFR"},{"icaoId":"KCLE","receiptTime":"2026-04-12T22:54:07.890Z","obsTime":1776034260,"reportTime":"2026-04-12T23:00:00.000Z","temp":23.9,"dewp":11.7,"wdir":210,"wspd":12,"wgst":22,"visib":"10+","altim":1015.7,"slp":1016.9,"qcField":12,"metarType":"METAR","rawOb":"METAR KCLE 122251Z 21012G22KT 10SM FEW070 BKN250 24/12 A2999 RMK AO2 SLP169 T02390117 $","lat":41.4057,"lon":-81.8519,"elev":237,"name":"Cleveland/Hopkins Intl, OH, US","cover":"BKN","clouds":[{"cover":"FEW","base":7000},{"cover":"BKN","base":25000}],"fltCat":"VFR"},{"icaoId":"KBDL","receiptTime":"2026-04-12T22:54:10.148Z","obsTime":1776034260,"reportTime":"2026-04-12T23:00:00.000Z","temp":10,"dewp":-3.3,"wdir":190,"wspd":12,"wgst":24,"visib":"10+","altim":1028.2,"slp":1028,"qcField":4,"metarType":"METAR","rawOb":"METAR KBDL 122251Z 19012G24KT 10SM SCT120 BKN180 BKN240 10/M03 A3036 RMK AO2 PK WND 20026/2228 SLP280 T01001033","lat":41.9374,"lon":-72.682,"elev":52,"name":"Hartford/Bradley Intl, CT, US","cover":"BKN","clouds":[{"cover":"SCT","base":12000},{"cover":"BKN","base":18000},{"cover":"BKN","base":24000}],"fltCat":"VFR"},{"icaoId":"KCRP","receiptTime":"2026-04-12T22:54:10.334Z","obsTime":1776034260,"reportTime":"2026-04-12T23:00:00.000Z","temp":26.7,"dewp":21.7,"wdir":140,"wspd":22,"wgst":32,"visib":"10+","altim":1014.6,"slp":1014.3,"qcField":4,"metarType":"METAR","rawOb":"METAR KCRP 122251Z 14022G32KT 10SM BKN019 BKN028 BKN100 27/22 A2996 RMK AO2 PK WND 15033/2236 SLP143 T02670217","lat":27.7734,"lon":-97.513,"elev":11,"name":"Corpus Christi Intl, TX, US","cover":"BKN","clouds":[{"cover":"BKN","base":1900},{"cover":"BKN","base":2800},{"cover":"BKN","base":10000}],"fltCat":"MVFR"},{"icaoId":"KELP","receiptTime":"2026-04-12T22:54:10.428Z","obsTime":1776034260,"reportTime":"2026-04-12T23:00:00.000Z","temp":27.2,"dewp":-4.4,"wdir":250,"wspd":19,"wgst":33,"visib":"10+","altim":1015.3,"slp":1009.5,"qcField":4,"metarType":"METAR","rawOb":"METAR KELP 122251Z 25019G33KT 10SM FEW120 BKN250 27/M04 A2998 RMK AO2 PK WND 23033/2246 SLP095 BLDU ALQDS T02721044","lat":31.8123,"lon":-106.3774,"elev":1205,"name":"El Paso Intl, TX, US","cover":"BKN","clouds":[{"cover":"FEW","base":12000},{"cover":"BKN","base":25000}],"fltCat":"VFR"},{"icaoId":"KIGM","receiptTime":"2026-04-12T22:54:10.542Z","obsTime":1776034260,"reportTime":"2026-04-12T23:00:00.000Z","temp":20.6,"dewp":-7.2,"wdir":200,"wspd":23,"wgst":32,"visib":"10+","altim":1012.3,"slp":1006.8,"qcField":6,"metarType":"METAR","rawOb":"METAR KIGM 122251Z AUTO 20023G32KT 10SM CLR 21/M07 A2989 RMK AO2 PK WND 21040/2203 SLP068 T02061072","lat":35.2575,"lon":-113.9341,"elev":1045,"name":"Kingman Arpt, AZ, US","cover":"CLR","clouds":[],"fltCat":"VFR"},{"icaoId":"KHOB","receiptTime":"2026-04-12T22:53:14.957Z","obsTime":1776034200,"reportTime":"2026-04-12T23:00:00.000Z","temp":29,"dewp":-2,"wdir":220,"wspd":18,"wgst":30,"visib":"10+","altim":1014,"qcField":0,"metarType":"METAR","rawOb":"METAR KHOB 122250Z 22018G30KT 10SM CLR 29/M02 A2994","lat":32.6797,"lon":-103.2222,"elev":1112,"name":"Hobbs Arpt, NM, US","cover":"CLR","clouds":[],"fltCat":"VFR"},{"icaoId":"KIFP","receiptTime":"2026-04-12T22:50:52.487Z","obsTime":1776034140,"reportTime":"2026-04-12T23:00:00.000Z","temp":26,"dewp":-6,"wdir":180,"wspd":16,"wgst":26,"visib":"10+","altim":1008.5,"qcField":0,"metarType":"METAR","rawOb":"METAR KIFP 122249Z 18016G26KT 10SM CLR 26/M06 A2978","lat":35.1487,"lon":-114.5611,"elev":210,"name":"Bullhead City Intl, AZ, US","cover":"CLR","clouds":[],"fltCat":"VFR"},{"icaoId":"KGYR","receiptTime":"2026-04-12T23:00:11.468Z","obsTime":1776034020,"reportTime":"2026-04-12T23:00:00.000Z","temp":27,"dewp":6,"wdir":210,"wspd":12,"wgst":17,"visib":"10+","altim":1012.3,"qcField":0,"metarType":"METAR","rawOb":"METAR KGYR 122247Z 21012G17KT 10SM FEW080 BKN180 OVC250 27/06 A2989","lat":33.428,"lon":-112.368,"elev":292,"name":"Phoenix/Goodyear Muni, AZ, US","cover":"OVC","clouds":[{"cover":"FEW","base":8000},{"cover":"BKN","base":18000},{"cover":"OVC","base":25000}],"fltCat":"VFR"},{"icaoId":"KAEG","receiptTime":"2026-04-12T22:49:04.008Z","obsTime":1776034020,"reportTime":"2026-04-12T23:00:00.000Z","temp":23,"dewp":-13,"wdir":230,"wspd":14,"wgst":22,"visib":"10+","altim":1015,"qcField":0,"metarType":"METAR","rawOb":"METAR KAEG 122247Z 23014G22KT 10SM SCT080 23/M13 A2997","lat":35.15,"lon":-106.7929,"elev":1771,"name":"Albuquerque/Double Eagle Arpt, NM, US","cover":"SCT","clouds":[{"cover":"SCT","base":8000}],"fltCat":"VFR"},{"icaoId":"KCHD","receiptTime":"2026-04-12T22:48:26.720Z","obsTime":1776034020,"reportTime":"2026-04-12T23:00:00.000Z","temp":27,"dewp":0,"wdir":270,"wspd":10,"visib":"10+","altim":1012.3,"qcField":0,"metarType":"METAR","rawOb":"METAR KCHD 122247Z 27010KT 10SM BKN200 27/00 A2989","lat":33.2669,"lon":-111.8086,"elev":378,"name":"Chandler Muni, AZ, US","cover":"BKN","clouds":[{"cover":"BKN","base":20000}],"fltCat":"VFR"},{"icaoId":"KSUN","receiptTime":"2026-04-12T22:57:24.326Z","obsTime":1776034020,"reportTime":"2026-04-12T23:00:00.000Z","temp":7,"dewp":-1,"wdir":210,"wspd":10,"visib":"10+","altim":1009.6,"qcField":0,"metarType":"METAR","rawOb":"METAR KSUN 122247Z 21010KT 10SM SCT029 07/M01 A2981","lat":43.4969,"lon":-114.2923,"elev":1619,"name":"Hailey/Friedman Mem, ID, US","cover":"SCT","clouds":[{"cover":"SCT","base":2900}],"fltCat":"VFR"},{"icaoId":"KBJC","receiptTime":"2026-04-12T22:49:43.022Z","obsTime":1776033900,"reportTime":"2026-04-12T23:00:00.000Z","temp":23,"dewp":-9,"wdir":100,"wspd":8,"visib":"10+","altim":1007.5,"qcField":0,"metarType":"METAR","rawOb":"METAR KBJC 122245Z 10008KT 10SM CLR 23/M09 A2975","lat":39.9008,"lon":-105.1042,"elev":1694,"name":"Rocky Mtn Metro, CO, US","cover":"CLR","clouds":[],"fltCat":"VFR"},{"icaoId":"KRYN","receiptTime":"2026-04-12T22:46:23.113Z","obsTime":1776033900,"reportTime":"2026-04-12T23:00:00.000Z","temp":26,"dewp":1,"wdir":210,"wspd":14,"wgst":28,"visib":"10+","altim":1015,"qcField":0,"metarType":"METAR","rawOb":"METAR KRYN 122245Z 21014G28KT 10SM FEW080 VSCT110 26/01 A2997","lat":32.1418,"lon":-111.1767,"elev":731,"name":"Tucson/Ryan Fld, AZ, US","cover":"SCT","clouds":[{"cover":"FEW","base":8000},{"cover":"SCT","base":11000}],"fltCat":"VFR"},{"icaoId":"KMEV","receiptTime":"2026-04-12T23:00:34.924Z","obsTime":1776032700,"reportTime":"2026-04-12T22:25:00.000Z","temp":7,"dewp":-1,"wdir":290,"wspd":8,"visib":"10+","altim":1010.9,"qcField":6,"metarType":"METAR","rawOb":"METAR KMEV 122225Z AUTO 29008KT 10SM SCT045 BKN055 07/M01 A2985 RMK AO2","lat":38.9963,"lon":-119.75,"elev":1437,"name":"Minden-Tahoe Arpt, NV, US","cover":"BKN","clouds":[{"cover":"SCT","base":4500},{"cover":"BKN","base":5500}],"fltCat":"VFR"}]