[{"icaoId":"KFLG","receiptTime":"2026-04-12T07:00:27.890Z","obsTime":1775977020,"reportTime":"2026-04-12T07:00:00.000Z","temp":7.8,"dewp":-8.9,"wdir":240,"wspd":8,"visib":"10+","altim":1017.7,"slp":1010.4,"qcField":14,"maxT24":15.6,"metarType":"METAR","rawOb":"METAR KFLG 120657Z AUTO 24008KT 10SM CLR 08/M09 A3005 RMK AO2 SLP104 T00781089 401560000 $","lat":35.1443,"lon":-111.6664,"elev":2134,"name":"Flagstaff/Pulliam Arpt, AZ, US","cover":"CLR","clouds":[],"fltCat":"VFR"},{"icaoId":"KNFL","receiptTime":"2026-04-12T07:00:27.802Z","obsTime":1775977020,"reportTime":"2026-04-12T07:00:00.000Z","temp":8.9,"dewp":-2.2,"wdir":260,"wspd":8,"visib":"10+","altim":1004.5,"slp":1002.6,"qcField":14,"metarType":"METAR","rawOb":"METAR KNFL 120657Z AUTO 26008KT 10SM SCT100 09/M02 A2966 RMK AO2 SLP026 T00891022 PNO $","lat":39.417,"lon":-118.705,"elev":1199,"name":"Fallon , NV, US","cover":"SCT","clouds":[{"cover":"SCT","base":10000}],"fltCat":"VFR"},{"icaoId":"KNYL","receiptTime":"2026-04-12T07:00:27.789Z","obsTime":1775977020,"reportTime":"2026-04-12T07:00:00.000Z","temp":21.7,"dewp":5,"wdir":300,"wspd":8,"visib":"10+","altim":1010.9,"slp":1010.6,"qcField":6,"maxT24":30,"minT24":18.9,"metarType":"METAR","rawOb":"METAR KNYL 120657Z AUTO 30008KT 10SM CLR 22/05 A2985 RMK AO2 SLP106 T02170050 403000189","lat":32.66,"lon":-114.6078,"elev":58,"name":"Yuma , AZ, US","cover":"CLR","clouds":[],"fltCat":"VFR"},{"icaoId":"KVIS","receiptTime":"2026-04-12T06:58:29.167Z","obsTime":1775976960,"reportTime":"2026-04-12T07:00:00.000Z","temp":16.7,"dewp":9.4,"wdir":150,"wspd":3,"visib":"10+","altim":1010.9,"slp":1010.8,"qcField":14,"wxString":"-RA","precip":0.005,"metarType":"METAR","rawOb":"METAR KVIS 120656Z AUTO 15003KT 10SM -RA BKN080 OVC095 17/09 A2985 RMK AO2 RAB33 SLP108 P0000 T01670094 $","lat":36.3135,"lon":-119.3884,"elev":92,"name":"Visalia Muni, CA, US","cover":"OVC","clouds":[{"cover":"BKN","base":8000},{"cover":"OVC","base":9500}],"fltCat":"VFR"},{"icaoId":"KLAS","receiptTime":"2026-04-12T07:00:19.574Z","obsTime":1775976960,"reportTime":"2026-04-12T07:00:00.000Z","temp":20,"dewp":-0.6,"wdir":190,"wspd":8,"wgst":17,"visib":"10+","altim":1009.9,"slp":1007.9,"qcField":4,"metarType":"METAR","rawOb":"METAR KLAS 120656Z 19008G17KT 10SM SCT200 20/M01 A2982 RMK AO2 SLP079 T02001006","lat":36.0719,"lon":-115.1634,"elev":662,"name":"Las Vegas/Reid Intl, NV, US","cover":"SCT","clouds":[{"cover":"SCT","base":20000}],"fltCat":"VFR"},{"icaoId":"KSFO","receiptTime":"2026-04-12T07:00:16.034Z","obsTime":1775976960,"reportTime":"2026-04-12T07:00:00.000Z","temp":12.2,"dewp":8.9,"wdir":230,"wspd":11,"visib":"10+","altim":1007.9,"slp":1007.7,"qcField":12,"precip":0.06,"metarType":"METAR","rawOb":"METAR KSFO 120656Z 23011KT 10SM SCT024 BKN049 12/09 A2976 RMK AO2 RAE03B45E47 SLP077 P0006 T01220089 $","lat":37.6196,"lon":-122.3656,"elev":2,"name":"San Francisco Intl, CA, US","cover":"BKN","clouds":[{"cover":"SCT","base":2400},{"cover":"BKN","base":4900}],"fltCat":"VFR"},{"icaoId":"KDUG","receiptTime":"2026-04-12T07:02:17.208Z","obsTime":1775976960,"reportTime":"2026-04-12T07:00:00.000Z","temp":16.7,"dewp":0,"wdir":190,"wspd":4,"visib":"10+","altim":1018,"slp":1011.9,"qcField":38,"maxT24":27.8,"minT24":9.4,"metarType":"METAR","rawOb":"METAR KDUG 120656Z AUTO 19004KT 10SM CLR 17/00 A3006 RMK AO2 SLP119 T01670000 402780094 TSNO","lat":31.4725,"lon":-109.6022,"elev":1260,"name":"Douglas/Bisbee Intl, AZ, US","cover":"CLR","clouds":[],"fltCat":"VFR"},{"icaoId":"KJAX","receiptTime":"2026-04-12T07:00:15.783Z","obsTime":1775976960,"reportTime":"2026-04-12T07:00:00.000Z","temp":12.2,"dewp":11.1,"wdir":270,"wspd":4,"visib":"10+","altim":1024.5,"slp":1024.3,"qcField":12,"metarType":"METAR","rawOb":"METAR KJAX 120656Z 27004KT 10SM CLR 12/11 A3025 RMK AO2 SLP243 T01220111 $","lat":30.4953,"lon":-81.6937,"elev":8,"name":"Jacksonville Intl, FL, US","cover":"CLR","clouds":[],"fltCat":"VFR"},{"icaoId":"KENV","receiptTime":"2026-04-12T06:58:20.549Z","obsTime":1775976960,"reportTime":"2026-04-12T07:00:00.000Z","temp":10.6,"dewp":1.7,"wdir":50,"wspd":7,"visib":"10+","altim":1008.2,"slp":1006.4,"qcField":6,"metarType":"METAR","rawOb":"METAR KENV 120656Z AUTO 05007KT 10SM CLR 11/02 A2977 RMK AO2 SLP064 T01060017","lat":40.7211,"lon":-114.0312,"elev":1291,"name":"Wendover Arpt, UT, US","cover":"CLR","clouds":[],"fltCat":"VFR"},{"icaoId":"KTPH","receiptTime":"2026-04-12T07:00:13.408Z","obsTime":1775976960,"reportTime":"2026-04-12T07:00:00.000Z","temp":9.4,"dewp":-2.8,"wdir":160,"wspd":13,"visib":"10+","altim":1007.2,"slp":1003.3,"qcField":6,"metarType":"METAR","rawOb":"METAR KTPH 120656Z AUTO 16013KT 10SM CLR 09/M03 A2974 RMK AO2 SLP033 T00941028","lat":38.0505,"lon":-117.0906,"elev":1647,"name":"Tonopah Arpt, NV, US","cover":"CLR","clouds":[],"fltCat":"VFR"},{"icaoId":"KUKI","receiptTime":"2026-04-12T07:00:13.544Z","obsTime":1775976960,"reportTime":"2026-04-12T07:00:00.000Z","temp":8.3,"dewp":7.2,"wdir":"VRB","wspd":3,"visib":"10+","altim":1004.8,"slp":1004.4,"qcField":6,"wxString":"-RA","precip":0.01,"metarType":"METAR","rawOb":"METAR KUKI 120656Z AUTO VRB03KT 10SM -RA FEW009 BKN030 OVC036 08/07 A2967 RMK AO2 SLP044 P0001 T00830072","lat":39.1278,"lon":-123.2001,"elev":183,"name":"Ukiah Muni, CA, US","cover":"OVC","clouds":[{"cover":"FEW","base":900},{"cover":"BKN","base":3000},{"cover":"OVC","base":3600}],"fltCat":"MVFR"},{"icaoId":"KHND","receiptTime":"2026-04-12T06:58:23.778Z","obsTime":1775976960,"reportTime":"2026-04-12T07:00:00.000Z","temp":18.3,"dewp":0.6,"wdir":210,"wspd":14,"visib":"10+","altim":1010.6,"slp":1010.4,"qcField":14,"maxT24":25.6,"minT24":13.9,"metarType":"METAR","rawOb":"METAR KHND 120656Z AUTO 21014KT 10SM CLR 18/01 A2984 RMK AO2 SLP104 T01830006 402560139 $","lat":35.9657,"lon":-115.1343,"elev":740,"name":"Henderson Exec, NV, US","cover":"CLR","clouds":[],"fltCat":"VFR"},{"icaoId":"KFNL","receiptTime":"2026-04-12T06:58:20.787Z","obsTime":1775976960,"reportTime":"2026-04-12T07:00:00.000Z","temp":14.4,"dewp":-2.2,"wdir":300,"wspd":6,"visib":"10+","altim":1009.6,"slp":1003.4,"qcField":14,"maxT24":26.7,"minT24":3.9,"metarType":"METAR","rawOb":"METAR KFNL 120656Z AUTO 30006KT 10SM CLR 14/M02 A2981 RMK AO2 SLP034 T01441022 402670039 $","lat":40.4427,"lon":-105.0097,"elev":1529,"name":"Fort Collins/N Colorado Rgnl, CO, US","cover":"CLR","clouds":[],"fltCat":"VFR"},{"icaoId":"KEGE","receiptTime":"2026-04-12T06:58:32.370Z","obsTime":1775976960,"reportTime":"2026-04-12T07:00:00.000Z","temp":3.3,"dewp":-1.1,"wdir":0,"wspd":0,"visib":"10+","altim":1016,"slp":1011.5,"qcField":6,"metarType":"METAR","rawOb":"METAR KEGE 120656Z AUTO 00000KT 10SM CLR 03/M01 A3000 RMK AO2 SLP115 T00331011","lat":39.6448,"lon":-106.9176,"elev":1993,"name":"Eagle Cnty Rgnl, CO, US","cover":"CLR","clouds":[],"fltCat":"VFR"},{"icaoId":"KSDF","receiptTime":"2026-04-12T07:00:12.451Z","obsTime":1775976960,"reportTime":"2026-04-12T07:00:00.000Z","temp":15,"dewp":11.7,"wdir":120,"wspd":3,"visib":"10+","altim":1023.8,"slp":1023.4,"qcField":4,"metarType":"METAR","rawOb":"METAR KSDF 120656Z 12003KT 10SM BKN300 15/12 A3023 RMK AO2 SLP234 T01500117","lat":38.1774,"lon":-85.7308,"elev":146,"name":"Louisville Intl, KY, US","cover":"BKN","clouds":[{"cover":"BKN","base":30000}],"fltCat":"VFR"},{"icaoId":"KEKO","receiptTime":"2026-04-12T07:00:09.227Z","obsTime":1775976960,"reportTime":"2026-04-12T07:00:00.000Z","temp":5.6,"dewp":-0.6,"wdir":0,"wspd":0,"visib":"10+","altim":1006.2,"slp":1004.6,"qcField":6,"metarType":"METAR","rawOb":"METAR KEKO 120656Z AUTO 00000KT 10SM SCT100 BKN110 06/M01 A2971 RMK AO2 SLP046 T00561006","lat":40.824,"lon":-115.7863,"elev":1541,"name":"Elko Rgnl, NV, US","cover":"BKN","clouds":[{"cover":"SCT","base":10000},{"cover":"BKN","base":11000}],"fltCat":"VFR"},{"icaoId":"KCHS","receiptTime":"2026-04-12T07:00:15.612Z","obsTime":1775976960,"reportTime":"2026-04-12T07:00:00.000Z","temp":15,"dewp":12.2,"wdir":0,"wspd":0,"visib":"10+","altim":1025.1,"slp":1024.8,"qcField":4,"metarType":"METAR","rawOb":"METAR KCHS 120656Z 00000KT 10SM CLR 15/12 A3027 RMK AO2 SLP248 T01500122","lat":32.8995,"lon":-80.0407,"elev":12,"name":"Charleston Intl, SC, US","cover":"CLR","clouds":[],"fltCat":"VFR"},{"icaoId":"KGUC","receiptTime":"2026-04-12T06:58:21.058Z","obsTime":1775976960,"reportTime":"2026-04-12T07:00:00.000Z","temp":1.1,"dewp":-4.4,"wdir":0,"wspd":0,"visib":"10+","altim":1018,"slp":1014.3,"qcField":78,"metarType":"METAR","rawOb":"METAR KGUC 120656Z AUTO 00000KT 10SM FEW090 01/M04 A3006 RMK AO2 SLP143 T00111044 FZRANO $","lat":38.5322,"lon":-106.9419,"elev":2337,"name":"Gunnison Arpt, CO, US","cover":"FEW","clouds":[{"cover":"FEW","base":9000}],"fltCat":"VFR"},{"icaoId":"KHDN","receiptTime":"2026-04-12T06:58:21.157Z","obsTime":1775976960,"reportTime":"2026-04-12T07:00:00.000Z","temp":3.9,"dewp":1.1,"wdir":100,"wspd":9,"visib":"10+","altim":1013.6,"slp":1008.8,"qcField":6,"metarType":"METAR","rawOb":"METAR KHDN 120656Z AUTO 10009KT 10SM CLR 04/01 A2993 RMK AO2 SLP088 T00390011","lat":40.4842,"lon":-107.2296,"elev":2012,"name":"Hayden/Yampa Valley Arpt, CO, US","cover":"CLR","clouds":[],"fltCat":"VFR"},{"icaoId":"KINW","receiptTime":"2026-04-12T07:00:15.769Z","obsTime":1775976960,"reportTime":"2026-04-12T07:00:00.000Z","temp":8.9,"dewp":-1.7,"wdir":0,"wspd":0,"visib":"10+","altim":1016.3,"slp":1011.5,"qcField":6,"maxT24":23.3,"minT24":8.3,"metarType":"METAR","rawOb":"METAR KINW 120656Z AUTO 00000KT 10SM CLR 09/M02 A3001 RMK AO2 SLP115 T00891017 402330083","lat":35.0279,"lon":-110.7221,"elev":1492,"name":"Winslow/Lindberg Rgnl, AZ, US","cover":"CLR","clouds":[],"fltCat":"VFR"},{"icaoId":"KSBP","receiptTime":"2026-04-12T07:00:12.433Z","obsTime":1775976960,"reportTime":"2026-04-12T07:00:00.000Z","temp":12.2,"dewp":11.1,"wdir":240,"wspd":6,"visib":3,"altim":1012.3,"slp":1012.1,"qcField":6,"wxString":"-RA BR","precip":0.5,"metarType":"METAR","rawOb":"METAR KSBP 120656Z AUTO 24006KT 3SM -RA BR SCT015 OVC022 12/11 A2989 RMK AO2 PK WND 22031/0622 WSHFT 0620 SLP121 P0050 T01220111","lat":35.2381,"lon":-120.644,"elev":52,"name":"San Luis Obispo/San Luis Cnty, CA, US","cover":"OVC","clouds":[{"cover":"SCT","base":1500},{"cover":"OVC","base":2200}],"fltCat":"MVFR"},{"icaoId":"KCGZ","receiptTime":"2026-04-12T06:58:31.918Z","obsTime":1775976960,"reportTime":"2026-04-12T07:00:00.000Z","temp":20.6,"dewp":0.6,"wdir":120,"wspd":3,"visib":"10+","altim":1013,"slp":1011.7,"qcField":14,"maxT24":32.2,"minT24":18.3,"metarType":"METAR","rawOb":"METAR KCGZ 120656Z AUTO 12003KT 10SM CLR 21/01 A2991 RMK AO2 SLP117 T02060006 403220183 $","lat":32.9531,"lon":-111.7725,"elev":444,"name":"Casa Granda Muni, AZ, US","cover":"CLR","clouds":[],"fltCat":"VFR"},{"icaoId":"KCEC","receiptTime":"2026-04-12T07:00:08.300Z","obsTime":1775976960,"reportTime":"2026-04-12T07:00:00.000Z","temp":8.3,"dewp":7.2,"wdir":80,"wspd":4,"visib":"10+","altim":1004.5,"slp":1004.5,"qcField":6,"metarType":"METAR","rawOb":"METAR KCEC 120656Z AUTO 08004KT 10SM CLR 08/07 A2966 RMK AO2 SLP045 T00830072","lat":41.7836,"lon":-124.238,"elev":17,"name":"Crescent City/McNama, CA, US","cover":"CLR","clouds":[],"fltCat":"VFR"},{"icaoId":"KLRU","receiptTime":"2026-04-12T06:58:21.565Z","obsTime":1775976900,"reportTime":"2026-04-12T07:00:00.000Z","temp":14.7,"dewp":8,"wdir":140,"wspd":6,"visib":"10+","altim":1018,"qcField":6,"metarType":"METAR","rawOb":"METAR KLRU 120655Z AUTO 14006KT 10SM SCT065 SCT090 OVC110 15/08 A3006 RMK AO2 T01470080","lat":32.2884,"lon":-106.9131,"elev":1355,"name":"Las Cruces Intl, NM, US","cover":"OVC","clouds":[{"cover":"SCT","base":6500},{"cover":"SCT","base":9000},{"cover":"OVC","base":11000}],"fltCat":"VFR"},{"icaoId":"KAEG","receiptTime":"2026-04-12T07:02:18.773Z","obsTime":1775976900,"reportTime":"2026-04-12T07:00:00.000Z","temp":7.2,"dewp":5,"wdir":250,"wspd":6,"visib":"10+","altim":1017.7,"qcField":6,"maxT24":21.9,"minT24":7.2,"metarType":"METAR","rawOb":"METAR KAEG 120655Z AUTO 25006KT 10SM CLR 07/05 A3005 RMK AO2 T00720050 402190072","lat":35.15,"lon":-106.7929,"elev":1771,"name":"Albuquerque/Double Eagle Arpt, NM, US","cover":"CLR","clouds":[],"fltCat":"VFR"},{"icaoId":"KCXP","receiptTime":"2026-04-12T07:00:08.671Z","obsTime":1775976900,"reportTime":"2026-04-12T07:00:00.000Z","temp":3,"dewp":1,"wdir":140,"wspd":4,"visib":"10+","altim":1007.5,"qcField":6,"precip":0.05,"metarType":"METAR","rawOb":"METAR KCXP 120655Z AUTO 14004KT 10SM FEW033 SCT039 BKN049 03/01 A2975 RMK AO2 P0005","lat":39.1905,"lon":-119.7319,"elev":1431,"name":"Carson City Arpt, NV, US","cover":"BKN","clouds":[{"cover":"FEW","base":3300},{"cover":"SCT","base":3900},{"cover":"BKN","base":4900}],"fltCat":"VFR"},{"icaoId":"KMEV","receiptTime":"2026-04-12T07:00:13.956Z","obsTime":1775976900,"reportTime":"2026-04-12T07:00:00.000Z","temp":3,"dewp":2,"wdir":0,"wspd":0,"visib":"10+","altim":1007.5,"qcField":6,"precip":0.01,"metarType":"METAR","rawOb":"METAR KMEV 120655Z AUTO 00000KT 10SM FEW021 SCT028 BKN033 03/02 A2975 RMK AO2 P0001","lat":38.9963,"lon":-119.75,"elev":1437,"name":"Minden-Tahoe Arpt, NV, US","cover":"BKN","clouds":[{"cover":"FEW","base":2100},{"cover":"SCT","base":2800},{"cover":"BKN","base":3300}],"fltCat":"VFR"},{"icaoId":"KRTS","receiptTime":"2026-04-12T07:00:15.144Z","obsTime":1775976900,"reportTime":"2026-04-12T07:00:00.000Z","temp":0,"dewp":0,"wdir":340,"wspd":7,"visib":1.75,"altim":1007.5,"qcField":6,"wxString":"-SN","precip":0.03,"metarType":"METAR","rawOb":"METAR KRTS 120655Z AUTO 34007KT 1 3/4SM -SN OVC002 00/M00 A2975 RMK AO2 P0003","lat":39.6658,"lon":-119.8731,"elev":1537,"name":"Reno/Stead Arpt, NV, US","cover":"OVC","clouds":[{"cover":"OVC","base":200}],"fltCat":"LIFR"},{"icaoId":"KSEZ","receiptTime":"2026-04-12T07:00:16.839Z","obsTime":1775976900,"reportTime":"2026-04-12T07:00:00.000Z","temp":14,"dewp":-8,"wdir":190,"wspd":7,"visib":"10+","altim":1016,"qcField":6,"metarType":"METAR","rawOb":"METAR KSEZ 120655Z AUTO 19007KT 10SM CLR 14/M08 A3000 RMK AO2","lat":34.8467,"lon":-111.7884,"elev":1455,"name":"Sedona Arpt, AZ, US","cover":"CLR","clouds":[],"fltCat":"VFR"},{"icaoId":"KIWA","receiptTime":"2026-04-12T06:56:43.409Z","obsTime":1775976900,"reportTime":"2026-04-12T07:00:00.000Z","temp":21,"dewp":0,"wdir":160,"wspd":5,"visib":"10+","altim":1012.6,"qcField":0,"metarType":"METAR","rawOb":"METAR KIWA 120655Z 16005KT 10SM CLR 21/00 A2990","lat":33.3008,"lon":-111.6437,"elev":420,"name":"Phoenix/Mesa Gateway Arpt, AZ, US","cover":"CLR","clouds":[],"fltCat":"VFR"},{"icaoId":"KSOW","receiptTime":"2026-04-12T06:58:31.295Z","obsTime":1775976900,"reportTime":"2026-04-12T07:00:00.000Z","temp":10,"dewp":-1,"wdir":190,"wspd":11,"visib":"10+","altim":1018.7,"qcField":6,"metarType":"METAR","rawOb":"METAR KSOW 120655Z AUTO 19011KT 10SM CLR 10/M01 A3008 RMK AO2","lat":34.2686,"lon":-110.0019,"elev":1954,"name":"Show Low Muni, AZ, US","cover":"CLR","clouds":[],"fltCat":"VFR"},{"icaoId":"KHAF","receiptTime":"2026-04-12T06:58:26.337Z","obsTime":1775976900,"reportTime":"2026-04-12T07:00:00.000Z","temp":13,"dewp":11,"wdir":240,"wspd":13,"visib":8,"altim":1008.5,"qcField":6,"precip":0.01,"metarType":"METAR","rawOb":"METAR KHAF 120655Z AUTO 24013KT 8SM BKN033 BKN041 OVC050 13/11 A2978 RMK AO2 P0001","lat":37.5136,"lon":-122.4996,"elev":11,"name":"Half Moon Bay Arpt, CA, US","cover":"OVC","clouds":[{"cover":"BKN","base":3300},{"cover":"BKN","base":4100},{"cover":"OVC","base":5000}],"fltCat":"VFR"},{"icaoId":"KBVU","receiptTime":"2026-04-12T06:56:24.371Z","obsTime":1775976900,"reportTime":"2026-04-12T07:00:00.000Z","temp":18,"dewp":-2,"wdir":0,"wspd":0,"visib":"10+","altim":1009.2,"qcField":6,"metarType":"METAR","rawOb":"METAR KBVU 120655Z AUTO 00000KT 10SM CLR 18/M02 A2980 RMK AO2","lat":35.9489,"lon":-114.8633,"elev":654,"name":"Boulder City Muni, NV, US","cover":"CLR","clouds":[],"fltCat":"VFR"},{"icaoId":"KRNO","receiptTime":"2026-04-12T06:58:19.462Z","obsTime":1775976900,"reportTime":"2026-04-12T07:00:00.000Z","temp":3.9,"dewp":1.7,"wdir":290,"wspd":8,"visib":"10+","altim":1007.2,"slp":1005.2,"qcField":4,"wxString":"-RA","precip":0.03,"metarType":"METAR","rawOb":"METAR KRNO 120655Z 29008KT 10SM -RA BKN028 OVC040 04/02 A2974 RMK AO2 PK WND 28032/0606 SLP052 P0003 T00390017","lat":39.5077,"lon":-119.7683,"elev":1344,"name":"Reno/Tahoe Intl, NV, US","cover":"OVC","clouds":[{"cover":"BKN","base":2800},{"cover":"OVC","base":4000}],"fltCat":"MVFR"},{"icaoId":"KHII","receiptTime":"2026-04-12T07:01:07.876Z","obsTime":1775976900,"reportTime":"2026-04-12T07:00:00.000Z","temp":23,"dewp":3,"wdir":120,"wspd":7,"visib":"10+","altim":1009.6,"qcField":6,"metarType":"METAR","rawOb":"METAR KHII 120655Z AUTO 12007KT 10SM CLR 23/03 A2981 RMK AO2","lat":34.5659,"lon":-114.3522,"elev":241,"name":"Lake Havasu City Arpt, AZ, US","cover":"CLR","clouds":[],"fltCat":"VFR"},{"icaoId":"KMHR","receiptTime":"2026-04-12T07:00:10.543Z","obsTime":1775976900,"reportTime":"2026-04-12T07:00:00.000Z","temp":10,"dewp":10,"wdir":100,"wspd":8,"visib":"10+","altim":1008.5,"qcField":6,"metarType":"METAR","rawOb":"METAR KMHR 120655Z AUTO 10008KT 10SM BKN085 10/10 A2978 RMK AO2","lat":38.56,"lon":-121.284,"elev":30,"name":"Sacramento/Mather Fld, CA, US","cover":"BKN","clouds":[{"cover":"BKN","base":8500}],"fltCat":"VFR"},{"icaoId":"KHTH","receiptTime":"2026-04-12T07:00:15.715Z","obsTime":1775976900,"reportTime":"2026-04-12T07:00:00.000Z","temp":11,"dewp":-5,"wdir":220,"wspd":22,"wgst":30,"visib":"10+","altim":1005.2,"qcField":6,"metarType":"METAR","rawOb":"METAR KHTH 120655Z AUTO 22022G30KT 10SM CLR 11/M05 A2968 RMK A01","lat":38.5448,"lon":-118.6314,"elev":1281,"name":"Hawthorne Muni, NV, US","cover":"CLR","clouds":[],"fltCat":"VFR"},{"icaoId":"KIFP","receiptTime":"2026-04-12T07:00:19.228Z","obsTime":1775976900,"reportTime":"2026-04-12T07:00:00.000Z","temp":24,"dewp":1,"wdir":170,"wspd":13,"visib":"10+","altim":1008.5,"qcField":6,"metarType":"METAR","rawOb":"METAR KIFP 120655Z AUTO 17013KT 10SM CLR 24/01 A2978 RMK AO2","lat":35.1487,"lon":-114.5611,"elev":210,"name":"Bullhead City Intl, AZ, US","cover":"CLR","clouds":[],"fltCat":"VFR"},{"icaoId":"KCMA","receiptTime":"2026-04-12T06:58:32.047Z","obsTime":1775976900,"reportTime":"2026-04-12T07:00:00.000Z","temp":15.6,"dewp":11.7,"wdir":0,"wspd":0,"visib":"10+","altim":1014.6,"slp":1015.2,"qcField":6,"metarType":"METAR","rawOb":"METAR KCMA 120655Z AUTO 00000KT 10SM BKN070 16/12 A2996 RMK AO2 SLP152 T01560117","lat":34.2114,"lon":-119.0876,"elev":20,"name":"Camarillo Arpt, CA, US","cover":"BKN","clouds":[{"cover":"BKN","base":7000}],"fltCat":"VFR"},{"icaoId":"KCHD","receiptTime":"2026-04-12T06:58:31.937Z","obsTime":1775976900,"reportTime":"2026-04-12T07:00:00.000Z","temp":22.7,"dewp":-2.1,"wdir":220,"wspd":4,"visib":8,"altim":1012.3,"qcField":14,"metarType":"METAR","rawOb":"METAR KCHD 120655Z AUTO 22004KT 8SM CLR 23/M02 A2989 RMK AO2 T02271021 $","lat":33.2669,"lon":-111.8086,"elev":378,"name":"Chandler Muni, AZ, US","cover":"CLR","clouds":[],"fltCat":"VFR"},{"icaoId":"KBJC","receiptTime":"2026-04-12T07:00:11.982Z","obsTime":1775976900,"reportTime":"2026-04-12T07:00:00.000Z","temp":9,"dewp":-4,"wdir":260,"wspd":7,"visib":"10+","altim":1010.9,"qcField":6,"metarType":"METAR","rawOb":"METAR KBJC 120655Z AUTO 26007KT 10SM CLR 09/M04 A2985 RMK AO2","lat":39.9008,"lon":-105.1042,"elev":1694,"name":"Rocky Mtn Metro, CO, US","cover":"CLR","clouds":[],"fltCat":"VFR"},{"icaoId":"KBTV","receiptTime":"2026-04-12T06:58:30.891Z","obsTime":1775976840,"reportTime":"2026-04-12T07:00:00.000Z","temp":-0.6,"dewp":-4.4,"wdir":0,"wspd":0,"visib":"10+","altim":1030.6,"slp":1030.9,"qcField":6,"metarType":"METAR","rawOb":"METAR KBTV 120654Z AUTO 00000KT 10SM CLR M01/M04 A3043 RMK AO2 SLP309 T10061044","lat":44.4682,"lon":-73.1499,"elev":101,"name":"Burlington Intl, VT, US","cover":"CLR","clouds":[],"fltCat":"VFR"},{"icaoId":"KMEM","receiptTime":"2026-04-12T06:58:21.780Z","obsTime":1775976840,"reportTime":"2026-04-12T07:00:00.000Z","temp":18.9,"dewp":10.6,"wdir":190,"wspd":7,"visib":"10+","altim":1021.8,"slp":1021.5,"qcField":12,"metarType":"METAR","rawOb":"METAR KMEM 120654Z 19007KT 10SM SCT250 19/11 A3017 RMK AO2 SLP215 T01890106 $","lat":35.0564,"lon":-89.9864,"elev":78,"name":"Memphis Intl, TN, US","cover":"SCT","clouds":[{"cover":"SCT","base":25000}],"fltCat":"VFR"},{"icaoId":"KIND","receiptTime":"2026-04-12T06:58:29.799Z","obsTime":1775976840,"reportTime":"2026-04-12T07:00:00.000Z","temp":12.2,"dewp":5.6,"wdir":120,"wspd":7,"visib":"10+","altim":1023.1,"slp":1022.9,"qcField":4,"metarType":"METAR","rawOb":"METAR KIND 120654Z 12007KT 10SM FEW090 BKN230 12/06 A3021 RMK AO2 SLP229 T01220056","lat":39.7252,"lon":-86.2816,"elev":242,"name":"Indianapolis Intl, IN, US","cover":"BKN","clouds":[{"cover":"FEW","base":9000},{"cover":"BKN","base":23000}],"fltCat":"VFR"},{"icaoId":"KGCN","receiptTime":"2026-04-12T06:58:26.131Z","obsTime":1775976840,"reportTime":"2026-04-12T07:00:00.000Z","temp":6.7,"dewp":-6.7,"wdir":230,"wspd":6,"visib":"10+","altim":1017,"slp":1010.3,"qcField":6,"maxT24":17.8,"minT24":1.1,"metarType":"METAR","rawOb":"METAR KGCN 120654Z AUTO 23006KT 10SM CLR 07/M07 A3003 RMK AO2 SLP103 T00671067 401780011","lat":35.9458,"lon":-112.1554,"elev":1993,"name":"Grand Canyon Park Arpt, AZ, US","cover":"CLR","clouds":[],"fltCat":"VFR"},{"icaoId":"KBFL","receiptTime":"2026-04-12T06:58:25.038Z","obsTime":1775976840,"reportTime":"2026-04-12T07:00:00.000Z","temp":17.2,"dewp":6.7,"wdir":180,"wspd":7,"visib":"10+","altim":1010.6,"slp":1009.9,"qcField":12,"metarType":"METAR","rawOb":"METAR KBFL 120654Z 18007KT 10SM BKN075 17/07 A2984 RMK AO2 SLP099 T01720067 $","lat":35.4342,"lon":-119.0552,"elev":146,"name":"Bakersfield/Meadows Arpt, CA, US","cover":"BKN","clouds":[{"cover":"BKN","base":7500}],"fltCat":"VFR"},{"icaoId":"KBOS","receiptTime":"2026-04-12T06:58:25.102Z","obsTime":1775976840,"reportTime":"2026-04-12T07:00:00.000Z","temp":6.1,"dewp":-6.1,"wdir":320,"wspd":6,"visib":"10+","altim":1030.6,"slp":1030.2,"qcField":4,"metarType":"METAR","rawOb":"METAR KBOS 120654Z 32006KT 10SM CLR 06/M06 A3043 RMK AO2 SLP302 T00611061","lat":42.3606,"lon":-71.0097,"elev":4,"name":"Boston/Logan Intl, MA, US","cover":"CLR","clouds":[],"fltCat":"VFR"},{"icaoId":"KCOS","receiptTime":"2026-04-12T06:58:30.947Z","obsTime":1775976840,"reportTime":"2026-04-12T07:00:00.000Z","temp":9.4,"dewp":-5,"wdir":30,"wspd":5,"visib":"10+","altim":1013,"slp":1006.4,"qcField":4,"maxT24":23.3,"minT24":2.8,"metarType":"METAR","rawOb":"METAR KCOS 120654Z 03005KT 10SM CLR 09/M05 A2991 RMK AO2 SLP064 T00941050 402330028","lat":38.8095,"lon":-104.6887,"elev":1886,"name":"Colorado Spring Arpt, CO, US","cover":"CLR","clouds":[],"fltCat":"VFR"},{"icaoId":"KSLC","receiptTime":"2026-04-12T06:58:17.853Z","obsTime":1775976840,"reportTime":"2026-04-12T07:00:00.000Z","temp":10.6,"dewp":2.8,"wdir":140,"wspd":9,"visib":"10+","altim":1008.9,"slp":1005.4,"qcField":12,"maxT24":21.7,"minT24":10.6,"metarType":"METAR","rawOb":"METAR KSLC 120654Z 14009KT 10SM FEW130 BKN250 11/03 A2979 RMK AO2 SLP054 T01060028 402170106 $","lat":40.7707,"lon":-111.965,"elev":1286,"name":"Salt Lake City Intl, UT, US","cover":"BKN","clouds":[{"cover":"FEW","base":13000},{"cover":"BKN","base":25000}],"fltCat":"VFR"},{"icaoId":"KSYR","receiptTime":"2026-04-12T06:58:31.336Z","obsTime":1775976840,"reportTime":"2026-04-12T07:00:00.000Z","temp":0,"dewp":-2.8,"wdir":120,"wspd":5,"visib":"10+","altim":1030.9,"slp":1030.7,"qcField":12,"metarType":"METAR","rawOb":"METAR KSYR 120654Z 12005KT 10SM FEW260 00/M03 A3044 RMK AO2 SLP307 T00001028 $","lat":43.1111,"lon":-76.1038,"elev":125,"name":"Syracuse/Hancock Intl, NY, US","cover":"FEW","clouds":[{"cover":"FEW","base":26000}],"fltCat":"VFR"},{"icaoId":"KRIC","receiptTime":"2026-04-12T06:58:31.139Z","obsTime":1775976840,"reportTime":"2026-04-12T07:00:00.000Z","temp":12.8,"dewp":8.9,"wdir":130,"wspd":4,"visib":"10+","altim":1028.9,"slp":1029,"qcField":4,"metarType":"METAR","rawOb":"METAR KRIC 120654Z 13004KT 10SM BKN055 13/09 A3038 RMK AO2 SLP290 T01280089","lat":37.5115,"lon":-77.3234,"elev":51,"name":"Richmond Intl, VA, US","cover":"BKN","clouds":[{"cover":"BKN","base":5500}],"fltCat":"VFR"},{"icaoId":"KBUF","receiptTime":"2026-04-12T06:58:30.913Z","obsTime":1775976840,"reportTime":"2026-04-12T07:00:00.000Z","temp":1.1,"dewp":-2.2,"wdir":110,"wspd":4,"visib":"10+","altim":1029.2,"slp":1029.9,"qcField":12,"metarType":"METAR","rawOb":"METAR KBUF 120654Z 11004KT 10SM FEW250 01/M02 A3039 RMK AO2 SLP299 T00111022 $","lat":42.94,"lon":-78.7361,"elev":217,"name":"Buffalo-Niagara Intl, NY, US","cover":"FEW","clouds":[{"cover":"FEW","base":25000}],"fltCat":"VFR"},{"icaoId":"KGSO","receiptTime":"2026-04-12T06:58:31.031Z","obsTime":1775976840,"reportTime":"2026-04-12T07:00:00.000Z","temp":16.1,"dewp":8.3,"wdir":50,"wspd":7,"visib":"10+","altim":1025.8,"slp":1024.9,"qcField":4,"metarType":"METAR","rawOb":"METAR KGSO 120654Z 05007KT 10SM FEW085 FEW250 16/08 A3029 RMK AO2 SLP249 T01610083","lat":36.0969,"lon":-79.9432,"elev":275,"name":"Greensboro Intl, NC, US","cover":"FEW","clouds":[{"cover":"FEW","base":8500},{"cover":"FEW","base":25000}],"fltCat":"VFR"},{"icaoId":"KDSM","receiptTime":"2026-04-12T06:58:30.994Z","obsTime":1775976840,"reportTime":"2026-04-12T07:00:00.000Z","temp":17.8,"dewp":15,"wdir":190,"wspd":12,"visib":"10+","altim":1011.9,"slp":1011.8,"qcField":4,"metarType":"METAR","rawOb":"METAR KDSM 120654Z 19012KT 10SM BKN110 OVC200 18/15 A2988 RMK AO2 SLP118 T01780150","lat":41.5339,"lon":-93.6531,"elev":286,"name":"Des Moines Intl, IA, US","cover":"OVC","clouds":[{"cover":"BKN","base":11000},{"cover":"OVC","base":20000}],"fltCat":"VFR"},{"icaoId":"KSJN","receiptTime":"2026-04-12T06:58:17.837Z","obsTime":1775976840,"reportTime":"2026-04-12T07:00:00.000Z","temp":10.6,"dewp":-2.2,"wdir":210,"wspd":7,"visib":"10+","altim":1017.4,"slp":1010.6,"qcField":6,"maxT24":22.2,"minT24":8.3,"metarType":"METAR","rawOb":"METAR KSJN 120654Z AUTO 21007KT 10SM CLR 11/M02 A3004 RMK AO2 SLP106 T01061022 402220083","lat":34.5184,"lon":-109.3801,"elev":1747,"name":"St Johns Ind Arpt, AZ, US","cover":"CLR","clouds":[],"fltCat":"VFR"},{"icaoId":"KOLS","receiptTime":"2026-04-12T06:58:30.167Z","obsTime":1775976840,"reportTime":"2026-04-12T07:00:00.000Z","temp":15.6,"dewp":0,"wdir":190,"wspd":5,"visib":"10+","altim":1017.7,"slp":1011.9,"qcField":6,"maxT24":28.3,"minT24":10.6,"metarType":"METAR","rawOb":"METAR KOLS 120654Z AUTO 19005KT 10SM CLR 16/00 A3005 RMK AO2 SLP119 T01560000 402830106","lat":31.4208,"lon":-110.8465,"elev":1194,"name":"Nogales Intl, AZ, US","cover":"CLR","clouds":[],"fltCat":"VFR"},{"icaoId":"KFFZ","receiptTime":"2026-04-12T06:58:25.907Z","obsTime":1775976840,"reportTime":"2026-04-12T07:00:00.000Z","temp":23.9,"dewp":-5,"wdir":0,"wspd":0,"visib":"10+","altim":1011.9,"slp":1009.4,"qcField":38,"maxT24":31.7,"minT24":20.6,"metarType":"METAR","rawOb":"METAR KFFZ 120654Z AUTO 00000KT 10SM CLR 24/M05 A2988 RMK AO2 SLP094 T02391050 403170206 TSNO","lat":33.4659,"lon":-111.7212,"elev":420,"name":"Mesa/Falcon Fld, AZ, US","cover":"CLR","clouds":[],"fltCat":"VFR"},{"icaoId":"KBWI","receiptTime":"2026-04-12T06:58:25.141Z","obsTime":1775976840,"reportTime":"2026-04-12T07:00:00.000Z","temp":7.8,"dewp":3.9,"wdir":0,"wspd":0,"visib":"10+","altim":1029.2,"slp":1028.9,"qcField":4,"metarType":"METAR","rawOb":"METAR KBWI 120654Z 00000KT 10SM FEW080 FEW250 08/04 A3039 RMK AO2 SLP289 T00780039","lat":39.1733,"lon":-76.684,"elev":42,"name":"Baltimore-Washington Intl, MD, US","cover":"FEW","clouds":[{"cover":"FEW","base":8000},{"cover":"FEW","base":25000}],"fltCat":"VFR"},{"icaoId":"KROC","receiptTime":"2026-04-12T06:58:31.177Z","obsTime":1775976840,"reportTime":"2026-04-12T07:00:00.000Z","temp":0,"dewp":-1.7,"wdir":0,"wspd":0,"visib":"10+","altim":1030.2,"slp":1030.9,"qcField":4,"metarType":"METAR","rawOb":"METAR KROC 120654Z 00000KT 10SM CLR 00/M02 A3042 RMK AO2 SLP309 T00001017","lat":43.1172,"lon":-77.6754,"elev":166,"name":"Rochester Intl Arpt, NY, US","cover":"CLR","clouds":[],"fltCat":"VFR"},{"icaoId":"KPHL","receiptTime":"2026-04-12T06:58:30.285Z","obsTime":1775976840,"reportTime":"2026-04-12T07:00:00.000Z","temp":10,"dewp":-2.2,"wdir":40,"wspd":8,"visib":"10+","altim":1030.6,"slp":1030.3,"qcField":12,"metarType":"METAR","rawOb":"METAR KPHL 120654Z 04008KT 10SM CLR 10/M02 A3043 RMK AO2 SLP303 T01001022 $","lat":39.8733,"lon":-75.2268,"elev":2,"name":"Philadelphia Intl, PA, US","cover":"CLR","clouds":[],"fltCat":"VFR"},{"icaoId":"KAPC","receiptTime":"2026-04-12T06:58:24.957Z","obsTime":1775976840,"reportTime":"2026-04-12T07:00:00.000Z","temp":11.7,"dewp":9.4,"wdir":170,"wspd":9,"wgst":23,"visib":7,"altim":1007.5,"slp":1006.4,"qcField":6,"wxString":"-RA","precip":0.06,"metarType":"METAR","rawOb":"METAR KAPC 120654Z AUTO 17009G23KT 7SM -RA FEW020 BKN038 OVC050 12/09 A2975 RMK AO2 SLP064 P0006 T01170094","lat":38.2075,"lon":-122.2804,"elev":5,"name":"Napa Cnty Arpt, CA, US","cover":"OVC","clouds":[{"cover":"FEW","base":2000},{"cover":"BKN","base":3800},{"cover":"OVC","base":5000}],"fltCat":"VFR"},{"icaoId":"KBHM","receiptTime":"2026-04-12T06:56:37.461Z","obsTime":1775976780,"reportTime":"2026-04-12T07:00:00.000Z","temp":13.9,"dewp":9.4,"wdir":0,"wspd":0,"visib":"10+","altim":1024.8,"slp":1024.1,"qcField":4,"metarType":"METAR","rawOb":"METAR KBHM 120653Z 00000KT 10SM CLR 14/09 A3026 RMK AO2 SLP241 T01390094","lat":33.5655,"lon":-86.7449,"elev":191,"name":"Birmingham Intl, AL, US","cover":"CLR","clouds":[],"fltCat":"VFR"},{"icaoId":"KMYR","receiptTime":"2026-04-12T06:56:19.138Z","obsTime":1775976780,"reportTime":"2026-04-12T07:00:00.000Z","temp":14.4,"dewp":12.8,"wdir":0,"wspd":0,"visib":"10+","altim":1025.8,"slp":1025.8,"qcField":14,"metarType":"METAR","rawOb":"METAR KMYR 120653Z AUTO 00000KT 10SM CLR 14/13 A3029 RMK AO2 SLP258 T01440128 $","lat":33.6769,"lon":-78.9325,"elev":7,"name":"Myrtle Beach Intl, SC, US","cover":"CLR","clouds":[],"fltCat":"VFR"},{"icaoId":"KFMN","receiptTime":"2026-04-12T06:56:35.548Z","obsTime":1775976780,"reportTime":"2026-04-12T07:00:00.000Z","temp":10.6,"dewp":-5.6,"wdir":280,"wspd":6,"visib":"10+","altim":1016,"slp":1012.6,"qcField":6,"maxT24":22.2,"minT24":10.6,"metarType":"METAR","rawOb":"METAR KFMN 120653Z AUTO 28006KT 10SM CLR 11/M06 A3000 RMK AO2 SLP126 T01061056 402220106","lat":36.7435,"lon":-108.2293,"elev":1677,"name":"Farmington/Four Corners Rgnl, NM, US","cover":"CLR","clouds":[],"fltCat":"VFR"},{"icaoId":"KFUL","receiptTime":"2026-04-12T06:56:33.191Z","obsTime":1775976780,"reportTime":"2026-04-12T07:00:00.000Z","temp":16.1,"dewp":11.7,"wdir":0,"wspd":0,"visib":"10+","altim":1015.3,"slp":1015.1,"qcField":6,"metarType":"METAR","rawOb":"METAR KFUL 120653Z AUTO 00000KT 10SM SCT048 16/12 A2998 RMK AO2 SLP151 T01610117","lat":33.8715,"lon":-117.9856,"elev":23,"name":"Fullerton Muni, CA, US","cover":"SCT","clouds":[{"cover":"SCT","base":4800}],"fltCat":"VFR"},{"icaoId":"KAPA","receiptTime":"2026-04-12T06:56:36.970Z","obsTime":1775976780,"reportTime":"2026-04-12T07:00:00.000Z","temp":9.4,"dewp":-7.8,"wdir":130,"wspd":4,"visib":"10+","altim":1011.3,"slp":1005.9,"qcField":4,"maxT24":24.4,"minT24":8.9,"metarType":"METAR","rawOb":"METAR KAPA 120653Z 13004KT 10SM FEW200 09/M08 A2986 RMK AO2 SLP059 T00941078 402440089","lat":39.5599,"lon":-104.8484,"elev":1791,"name":"Denver/Centennial Arpt, CO, US","cover":"FEW","clouds":[{"cover":"FEW","base":20000}],"fltCat":"VFR"},{"icaoId":"KSBA","receiptTime":"2026-04-12T06:56:39.533Z","obsTime":1775976780,"reportTime":"2026-04-12T07:00:00.000Z","temp":16.1,"dewp":11.1,"wdir":160,"wspd":8,"visib":"10+","altim":1014,"slp":1013.7,"qcField":14,"metarType":"METAR","rawOb":"METAR KSBA 120653Z AUTO 16008KT 10SM FEW028 BKN038 OVC050 16/11 A2994 RMK AO2 SLP137 T01610111 $","lat":34.4241,"lon":-119.8425,"elev":2,"name":"Santa Barbara Muni, CA, US","cover":"OVC","clouds":[{"cover":"FEW","base":2800},{"cover":"BKN","base":3800},{"cover":"OVC","base":5000}],"fltCat":"VFR"},{"icaoId":"KSNA","receiptTime":"2026-04-12T06:56:39.648Z","obsTime":1775976780,"reportTime":"2026-04-12T07:00:00.000Z","temp":16.7,"dewp":12.2,"wdir":0,"wspd":0,"visib":"10+","altim":1015.7,"slp":1015.5,"qcField":14,"metarType":"METAR","rawOb":"METAR KSNA 120653Z AUTO 00000KT 10SM SCT022 BKN027 BKN044 17/12 A2999 RMK AO2 SLP155 T01670122 $","lat":33.6798,"lon":-117.8675,"elev":14,"name":"Santa Ana/Wayne Arpt, CA, US","cover":"BKN","clouds":[{"cover":"SCT","base":2200},{"cover":"BKN","base":2700},{"cover":"BKN","base":4400}],"fltCat":"MVFR"},{"icaoId":"KLVS","receiptTime":"2026-04-12T06:56:30.373Z","obsTime":1775976780,"reportTime":"2026-04-12T07:00:00.000Z","temp":6.1,"dewp":4.4,"wdir":150,"wspd":10,"visib":"10+","altim":1018.4,"slp":1011.3,"qcField":14,"maxT24":15.6,"minT24":5.6,"metarType":"METAR","rawOb":"METAR KLVS 120653Z AUTO 15010KT 10SM CLR 06/04 A3007 RMK AO2 SLP113 T00610044 401560056 PNO $","lat":35.6558,"lon":-105.1385,"elev":2095,"name":"Las Vegas Muni, NM, US","cover":"CLR","clouds":[],"fltCat":"VFR"},{"icaoId":"KHOU","receiptTime":"2026-04-12T06:56:20.497Z","obsTime":1775976780,"reportTime":"2026-04-12T07:00:00.000Z","temp":22.8,"dewp":20,"wdir":140,"wspd":12,"visib":8,"altim":1019.4,"slp":1019.6,"qcField":12,"metarType":"METAR","rawOb":"METAR KHOU 120653Z 14012KT 8SM BKN018 OVC026 23/20 A3010 RMK AO2 SLP196 T02280200 $","lat":29.6458,"lon":-95.2821,"elev":13,"name":"Houston/Hobby Arpt, TX, US","cover":"OVC","clouds":[{"cover":"BKN","base":1800},{"cover":"OVC","base":2600}],"fltCat":"MVFR"},{"icaoId":"KMDW","receiptTime":"2026-04-12T06:56:31.469Z","obsTime":1775976780,"reportTime":"2026-04-12T07:00:00.000Z","temp":13.9,"dewp":5,"wdir":170,"wspd":8,"visib":"10+","altim":1019.7,"slp":1019.4,"qcField":4,"metarType":"METAR","rawOb":"METAR KMDW 120653Z 17008KT 10SM CLR 14/05 A3011 RMK AO2 SLP194 T01390050","lat":41.7841,"lon":-87.7552,"elev":186,"name":"Chicago/Midway Intl, IL, US","cover":"CLR","clouds":[],"fltCat":"VFR"},{"icaoId":"KLAX","receiptTime":"2026-04-12T06:56:38.146Z","obsTime":1775976780,"reportTime":"2026-04-12T07:00:00.000Z","temp":16.1,"dewp":11.1,"wdir":240,"wspd":8,"visib":"10+","altim":1015.3,"slp":1015.1,"qcField":12,"metarType":"METAR","rawOb":"METAR KLAX 120653Z 24008KT 10SM SCT023 BKN028 16/11 A2998 RMK AO2 SLP151 T01610111 $","lat":33.9382,"lon":-118.3866,"elev":30,"name":"Los Angeles Intl, CA, US","cover":"BKN","clouds":[{"cover":"SCT","base":2300},{"cover":"BKN","base":2800}],"fltCat":"MVFR"},{"icaoId":"KACV","receiptTime":"2026-04-12T06:56:36.165Z","obsTime":1775976780,"reportTime":"2026-04-12T07:00:00.000Z","temp":7.2,"dewp":5.6,"wdir":80,"wspd":3,"visib":"10+","altim":1003.5,"slp":1004,"qcField":6,"metarType":"METAR","rawOb":"METAR KACV 120653Z AUTO 08003KT 10SM FEW090 BKN110 07/06 A2963 RMK AO2 SLP040 T00720056","lat":40.9784,"lon":-124.1048,"elev":63,"name":"Arcata Arpt, CA, US","cover":"BKN","clouds":[{"cover":"FEW","base":9000},{"cover":"BKN","base":11000}],"fltCat":"VFR"},{"icaoId":"KELY","receiptTime":"2026-04-12T06:56:31.169Z","obsTime":1775976780,"reportTime":"2026-04-12T07:00:00.000Z","temp":3.9,"dewp":-9.4,"wdir":180,"wspd":10,"visib":"10+","altim":1009.6,"slp":1004.5,"qcField":6,"metarType":"METAR","rawOb":"METAR KELY 120653Z AUTO 18010KT 10SM CLR 04/M09 A2981 RMK AO2 SLP045 T00391094","lat":39.2954,"lon":-114.8466,"elev":1906,"name":"Ely/Yelland Fld, NV, US","cover":"CLR","clouds":[],"fltCat":"VFR"},{"icaoId":"KOAK","receiptTime":"2026-04-12T06:56:31.854Z","obsTime":1775976780,"reportTime":"2026-04-12T07:00:00.000Z","temp":12.2,"dewp":8.3,"wdir":170,"wspd":12,"visib":"10+","altim":1008.5,"slp":1008.4,"qcField":12,"precip":0.06,"metarType":"METAR","rawOb":"METAR KOAK 120653Z 17012KT 10SM FEW024 BKN029 BKN045 12/08 A2978 RMK AO2 PK WND 22029/0600 RAB0557E20 SLP084 P0006 T01220083 $","lat":37.7178,"lon":-122.233,"elev":3,"name":"Oakland Intl, CA, US","cover":"BKN","clouds":[{"cover":"FEW","base":2400},{"cover":"BKN","base":2900},{"cover":"BKN","base":4500}],"fltCat":"MVFR"},{"icaoId":"KONT","receiptTime":"2026-04-12T06:56:31.954Z","obsTime":1775976780,"reportTime":"2026-04-12T07:00:00.000Z","temp":13.9,"dewp":10,"wdir":250,"wspd":4,"visib":"10+","altim":1015.7,"slp":1014.6,"qcField":12,"metarType":"METAR","rawOb":"METAR KONT 120653Z 25004KT 10SM SCT032 14/10 A2999 RMK AO2 SLP146 T01390100 $","lat":34.0531,"lon":-117.5769,"elev":279,"name":"Ontario Intl, CA, US","cover":"SCT","clouds":[{"cover":"SCT","base":3200}],"fltCat":"VFR"},{"icaoId":"KDRO","receiptTime":"2026-04-12T06:56:32.807Z","obsTime":1775976780,"reportTime":"2026-04-12T07:00:00.000Z","temp":3.9,"dewp":-1.1,"wdir":10,"wspd":5,"visib":"10+","altim":1017.7,"slp":1013.7,"qcField":6,"maxT24":18.3,"minT24":3.9,"metarType":"METAR","rawOb":"METAR KDRO 120653Z AUTO 01005KT 10SM CLR 04/M01 A3005 RMK AO2 SLP137 T00391011 401830039","lat":37.1431,"lon":-107.7602,"elev":2021,"name":"Durango/La Plata Cnty, CO, US","cover":"CLR","clouds":[],"fltCat":"VFR"},{"icaoId":"KDVT","receiptTime":"2026-04-12T06:56:33.705Z","obsTime":1775976780,"reportTime":"2026-04-12T07:00:00.000Z","temp":20,"dewp":-5.6,"wdir":0,"wspd":0,"visib":"10+","altim":1011.9,"slp":1009.8,"qcField":4,"maxT24":31.1,"minT24":20,"metarType":"METAR","rawOb":"METAR KDVT 120653Z 00000KT 10SM CLR 20/M06 A2988 RMK AO2 SLP098 T02001056 403110200","lat":33.6902,"lon":-112.0662,"elev":454,"name":"Phoenix/Deer Valley Arpt, AZ, US","cover":"CLR","clouds":[],"fltCat":"VFR"},{"icaoId":"KLOL","receiptTime":"2026-04-12T06:56:34.281Z","obsTime":1775976780,"reportTime":"2026-04-12T07:00:00.000Z","temp":8.9,"dewp":-0.6,"wdir":210,"wspd":7,"visib":"10+","altim":1004.5,"slp":1002.7,"qcField":6,"metarType":"METAR","rawOb":"METAR KLOL 120653Z AUTO 21007KT 10SM FEW120 09/M01 A2966 RMK AO2 SLP027 T00891006","lat":40.0684,"lon":-118.5702,"elev":1191,"name":"Lovelock/Derby Fld, NV, US","cover":"FEW","clouds":[{"cover":"FEW","base":12000}],"fltCat":"VFR"},{"icaoId":"KPUB","receiptTime":"2026-04-12T06:56:34.677Z","obsTime":1775976780,"reportTime":"2026-04-12T07:00:00.000Z","temp":10,"dewp":2.8,"wdir":120,"wspd":3,"visib":"10+","altim":1010.9,"slp":1005.7,"qcField":12,"maxT24":26.1,"minT24":2.8,"metarType":"METAR","rawOb":"METAR KPUB 120653Z 12003KT 10SM CLR 10/03 A2985 RMK AO2 SLP057 T01000028 402610028 $","lat":38.2887,"lon":-104.5057,"elev":1441,"name":"Pueblo Mem Arpt, CO, US","cover":"CLR","clouds":[],"fltCat":"VFR"},{"icaoId":"KRTN","receiptTime":"2026-04-12T06:56:35.067Z","obsTime":1775976780,"reportTime":"2026-04-12T07:00:00.000Z","temp":5,"dewp":4.4,"wdir":350,"wspd":5,"visib":"10+","altim":1016,"slp":1010.9,"qcField":6,"maxT24":19.4,"minT24":5,"metarType":"METAR","rawOb":"METAR KRTN 120653Z AUTO 35005KT 10SM CLR 05/04 A3000 RMK AO2 SLP109 T00500044 401940050","lat":36.7418,"lon":-104.5076,"elev":1939,"name":"Raton/Crews Fld, NM, US","cover":"CLR","clouds":[],"fltCat":"VFR"},{"icaoId":"KDFW","receiptTime":"2026-04-12T06:56:35.421Z","obsTime":1775976780,"reportTime":"2026-04-12T07:00:00.000Z","temp":21.7,"dewp":17.8,"wdir":170,"wspd":15,"wgst":28,"visib":"10+","altim":1016.7,"slp":1015.8,"qcField":4,"precip":0.005,"metarType":"METAR","rawOb":"METAR KDFW 120653Z 17015G28KT 10SM BKN020 BKN025 OVC035 22/18 A3002 RMK AO2 PK WND 17031/0620 RAE07 SLP158 P0000 T02170178","lat":32.8974,"lon":-97.022,"elev":168,"name":"Dallas-Ft Worth Intl, TX, US","cover":"OVC","clouds":[{"cover":"BKN","base":2000},{"cover":"BKN","base":2500},{"cover":"OVC","base":3500}],"fltCat":"MVFR"},{"icaoId":"KBUR","receiptTime":"2026-04-12T06:56:36.633Z","obsTime":1775976780,"reportTime":"2026-04-12T07:00:00.000Z","temp":15,"dewp":10.6,"wdir":180,"wspd":4,"visib":"10+","altim":1015.7,"slp":1014.5,"qcField":4,"metarType":"METAR","rawOb":"METAR KBUR 120653Z 18004KT 10SM BKN047 BKN060 15/11 A2999 RMK AO2 SLP145 T01500106","lat":34.1996,"lon":-118.3654,"elev":221,"name":"Burbank/Bob Hope Arpt, CA, US","cover":"BKN","clouds":[{"cover":"BKN","base":4700},{"cover":"BKN","base":6000}],"fltCat":"VFR"},{"icaoId":"KMCI","receiptTime":"2026-04-12T06:56:36.718Z","obsTime":1775976780,"reportTime":"2026-04-12T07:00:00.000Z","temp":20.6,"dewp":15,"wdir":190,"wspd":16,"wgst":23,"visib":"10+","altim":1013.6,"slp":1012.8,"qcField":4,"metarType":"METAR","rawOb":"METAR KMCI 120653Z 19016G23KT 10SM SCT120 BKN220 21/15 A2993 RMK AO2 PK WND 19030/0615 SLP128 T02060150","lat":39.2975,"lon":-94.7309,"elev":308,"name":"Kansas City Intl, MO, US","cover":"BKN","clouds":[{"cover":"SCT","base":12000},{"cover":"BKN","base":22000}],"fltCat":"VFR"},{"icaoId":"KSAF","receiptTime":"2026-04-12T06:56:37.769Z","obsTime":1775976780,"reportTime":"2026-04-12T07:00:00.000Z","temp":6.1,"dewp":4.4,"wdir":320,"wspd":3,"visib":"10+","altim":1017.7,"slp":1011.2,"qcField":6,"maxT24":22.2,"minT24":5.6,"metarType":"METAR","rawOb":"METAR KSAF 120653Z AUTO 32003KT 10SM CLR 06/04 A3005 RMK AO2 SLP112 T00610044 402220056","lat":35.611,"lon":-106.0957,"elev":1918,"name":"Santa Fe Cnty Muni, NM, US","cover":"CLR","clouds":[],"fltCat":"VFR"},{"icaoId":"KPSP","receiptTime":"2026-04-12T06:56:38.255Z","obsTime":1775976780,"reportTime":"2026-04-12T07:00:00.000Z","temp":20,"dewp":5,"wdir":340,"wspd":12,"visib":"10+","altim":1011.6,"slp":1011.4,"qcField":6,"metarType":"METAR","rawOb":"METAR KPSP 120653Z AUTO 34012KT 10SM CLR 20/05 A2987 RMK AO2 SLP114 T02000050","lat":33.8222,"lon":-116.5043,"elev":123,"name":"Palm Springs Intl, CA, US","cover":"CLR","clouds":[],"fltCat":"VFR"},{"icaoId":"KGSP","receiptTime":"2026-04-12T06:56:39.243Z","obsTime":1775976780,"reportTime":"2026-04-12T07:00:00.000Z","temp":13.3,"dewp":8.3,"wdir":180,"wspd":4,"visib":"10+","altim":1024.8,"slp":1023.9,"qcField":6,"metarType":"METAR","rawOb":"METAR KGSP 120653Z AUTO 18004KT 10SM CLR 13/08 A3026 RMK AO2 SLP239 T01330083","lat":34.8842,"lon":-82.2209,"elev":285,"name":"Greenville-Spartanburg Intl, SC, US","cover":"CLR","clouds":[],"fltCat":"VFR"},{"icaoId":"KSEA","receiptTime":"2026-04-12T06:56:39.579Z","obsTime":1775976780,"reportTime":"2026-04-12T07:00:00.000Z","temp":7.8,"dewp":7.2,"wdir":320,"wspd":5,"visib":7,"altim":1005.8,"slp":1006.5,"qcField":4,"metarType":"METAR","rawOb":"METAR KSEA 120653Z 32005KT 7SM FEW015 SCT100 SCT200 08/07 A2970 RMK AO2 SLP065 T00780072","lat":47.4447,"lon":-122.3144,"elev":115,"name":"Seattle-Tacoma Intl, WA, US","cover":"SCT","clouds":[{"cover":"FEW","base":1500},{"cover":"SCT","base":10000},{"cover":"SCT","base":20000}],"fltCat":"VFR"},{"icaoId":"KTUS","receiptTime":"2026-04-12T06:56:39.688Z","obsTime":1775976780,"reportTime":"2026-04-12T07:00:00.000Z","temp":19.4,"dewp":-2.2,"wdir":0,"wspd":0,"visib":"10+","altim":1016,"slp":1011.8,"qcField":4,"maxT24":30.6,"minT24":16.7,"metarType":"METAR","rawOb":"METAR KTUS 120653Z 00000KT 10SM CLR 19/M02 A3000 RMK AO2 SLP118 T01941022 403060167","lat":32.1315,"lon":-110.9564,"elev":776,"name":"Tucson Intl Arpt, AZ, US","cover":"CLR","clouds":[],"fltCat":"VFR"},{"icaoId":"KMAF","receiptTime":"2026-04-12T06:56:19.811Z","obsTime":1775976780,"reportTime":"2026-04-12T07:00:00.000Z","temp":14.4,"dewp":13.9,"wdir":220,"wspd":7,"visib":6,"altim":1016.3,"slp":1012.8,"qcField":6,"wxString":"BR","metarType":"METAR","rawOb":"METAR KMAF 120653Z AUTO 22007KT 6SM BR CLR 14/14 A3001 RMK AO2 SLP128 T01440139","lat":31.9475,"lon":-102.2086,"elev":874,"name":"Midland Intl, TX, US","cover":"CLR","clouds":[],"fltCat":"VFR"},{"icaoId":"KMCO","receiptTime":"2026-04-12T06:56:19.912Z","obsTime":1775976780,"reportTime":"2026-04-12T07:00:00.000Z","temp":17.8,"dewp":14.4,"wdir":40,"wspd":3,"visib":"10+","altim":1024.5,"slp":1024.2,"qcField":4,"metarType":"METAR","rawOb":"METAR KMCO 120653Z 04003KT 10SM FEW044 18/14 A3025 RMK AO2 SLP242 T01780144","lat":28.4182,"lon":-81.3241,"elev":27,"name":"Orlando Intl, FL, US","cover":"FEW","clouds":[{"cover":"FEW","base":4400}],"fltCat":"VFR"},{"icaoId":"KMSY","receiptTime":"2026-04-12T06:56:21.069Z","obsTime":1775976780,"reportTime":"2026-04-12T07:00:00.000Z","temp":18.9,"dewp":17.8,"wdir":150,"wspd":4,"visib":"10+","altim":1022.8,"slp":1023,"qcField":4,"metarType":"METAR","rawOb":"METAR KMSY 120653Z 15004KT 10SM CLR 19/18 A3020 RMK AO2 SLP230 T01890178","lat":29.9974,"lon":-90.2777,"elev":0,"name":"New Orleans/Armstrong Intl, LA, US","cover":"CLR","clouds":[],"fltCat":"VFR"},{"icaoId":"KAUS","receiptTime":"2026-04-12T06:56:36.568Z","obsTime":1775976780,"reportTime":"2026-04-12T07:00:00.000Z","temp":22.2,"dewp":19.4,"wdir":180,"wspd":9,"visib":"10+","altim":1018.7,"slp":1017.8,"qcField":4,"metarType":"METAR","rawOb":"METAR KAUS 120653Z 18009KT 10SM BKN018 OVC023 22/19 A3008 RMK AO2 SLP178 T02220194","lat":30.1831,"lon":-97.6806,"elev":148,"name":"Austin/Bergstrom Intl, TX, US","cover":"OVC","clouds":[{"cover":"BKN","base":1800},{"cover":"OVC","base":2300}],"fltCat":"MVFR"},{"icaoId":"KTPA","receiptTime":"2026-04-12T06:56:38.810Z","obsTime":1775976780,"reportTime":"2026-04-12T07:00:00.000Z","temp":18.9,"dewp":15,"wdir":0,"wspd":0,"visib":"10+","altim":1023.8,"slp":1023.8,"qcField":4,"metarType":"METAR","rawOb":"METAR KTPA 120653Z 00000KT 10SM CLR 19/15 A3023 RMK AO2 SLP238 T01890150","lat":27.9633,"lon":-82.54,"elev":2,"name":"Tampa Intl Arpt, FL, US","cover":"CLR","clouds":[],"fltCat":"VFR"},{"icaoId":"KCRQ","receiptTime":"2026-04-12T06:56:30.863Z","obsTime":1775976780,"reportTime":"2026-04-12T07:00:00.000Z","temp":16.7,"dewp":11.7,"wdir":260,"wspd":3,"visib":"10+","altim":1015.7,"slp":1015.3,"qcField":6,"metarType":"METAR","rawOb":"METAR KCRQ 120653Z AUTO 26003KT 10SM CLR 17/12 A2999 RMK AO2 SLP153 T01670117","lat":33.1299,"lon":-117.2765,"elev":96,"name":"Carlsbad/Palomar Arpt, CA, US","cover":"CLR","clouds":[],"fltCat":"VFR"},{"icaoId":"KGEG","receiptTime":"2026-04-12T06:56:31.140Z","obsTime":1775976780,"reportTime":"2026-04-12T07:00:00.000Z","temp":9.4,"dewp":6.7,"wdir":160,"wspd":6,"visib":"10+","altim":1005.2,"slp":1004.9,"qcField":12,"metarType":"METAR","rawOb":"METAR KGEG 120653Z 16006KT 10SM FEW040 SCT055 BKN080 09/07 A2968 RMK AO2 SLP049 T00940067 $","lat":47.6217,"lon":-117.528,"elev":718,"name":"Spokane Intl, WA, US","cover":"BKN","clouds":[{"cover":"FEW","base":4000},{"cover":"SCT","base":5500},{"cover":"BKN","base":8000}],"fltCat":"VFR"},{"icaoId":"KASE","receiptTime":"2026-04-12T06:56:36.994Z","obsTime":1775976780,"reportTime":"2026-04-12T07:00:00.000Z","temp":3.9,"dewp":-1.1,"wdir":210,"wspd":5,"visib":"10+","altim":1016,"slp":1007.5,"qcField":6,"maxT24":16.1,"minT24":2.8,"metarType":"METAR","rawOb":"METAR KASE 120653Z AUTO 21005KT 10SM OVC090 04/M01 A3000 RMK AO2 SLP075 T00391011 401610028","lat":39.2299,"lon":-106.8705,"elev":2384,"name":"Aspen/Pitkin Cnty, CO, US","cover":"OVC","clouds":[{"cover":"OVC","base":9000}],"fltCat":"VFR"},{"icaoId":"PANC","receiptTime":"2026-04-12T06:56:32.358Z","obsTime":1775976780,"reportTime":"2026-04-12T07:00:00.000Z","temp":1.1,"dewp":-1.1,"wdir":0,"wspd":0,"visib":"10+","altim":1009.2,"slp":1009.3,"qcField":12,"metarType":"METAR","rawOb":"METAR PANC 120653Z 00000KT 10SM BKN040 BKN060 01/M01 A2980 RMK AO2 SLP093 T00111011 $","lat":61.1691,"lon":-150.0277,"elev":39,"name":"Anchorage Intl, AK, US","cover":"BKN","clouds":[{"cover":"BKN","base":4000},{"cover":"BKN","base":6000}],"fltCat":"VFR"},{"icaoId":"KPRC","receiptTime":"2026-04-12T06:56:38.221Z","obsTime":1775976780,"reportTime":"2026-04-12T07:00:00.000Z","temp":9.4,"dewp":-7.2,"wdir":170,"wspd":6,"visib":"10+","altim":1016.3,"slp":1010.7,"qcField":6,"maxT24":20.6,"minT24":8.9,"metarType":"METAR","rawOb":"METAR KPRC 120653Z AUTO 17006KT 10SM CLR 09/M07 A3001 RMK AO2 SLP107 T00941072 402060089","lat":34.6491,"lon":-112.4223,"elev":1528,"name":"Prescott/Love Fld, AZ, US","cover":"CLR","clouds":[],"fltCat":"VFR"},{"icaoId":"KRDD","receiptTime":"2026-04-12T06:56:38.306Z","obsTime":1775976780,"reportTime":"2026-04-12T07:00:00.000Z","temp":8.9,"dewp":5.6,"wdir":200,"wspd":9,"visib":"10+","altim":1006.2,"slp":1006,"qcField":14,"metarType":"METAR","rawOb":"METAR KRDD 120653Z AUTO 20009KT 10SM SCT050 BKN100 09/06 A2971 RMK AO2 SLP060 T00890056 $","lat":40.5146,"lon":-122.2977,"elev":152,"name":"Redding Muni, CA, US","cover":"BKN","clouds":[{"cover":"SCT","base":5000},{"cover":"BKN","base":10000}],"fltCat":"VFR"},{"icaoId":"KMOD","receiptTime":"2026-04-12T06:56:31.795Z","obsTime":1775976780,"reportTime":"2026-04-12T07:00:00.000Z","temp":11.7,"dewp":10,"wdir":150,"wspd":6,"visib":"10+","altim":1009.2,"slp":1009,"qcField":6,"metarType":"METAR","rawOb":"METAR KMOD 120653Z AUTO 15006KT 10SM FEW120 12/10 A2980 RMK AO2 SLP090 T01170100","lat":37.6254,"lon":-120.9549,"elev":25,"name":"Modesto/Sham Fld, CA, US","cover":"FEW","clouds":[{"cover":"FEW","base":12000}],"fltCat":"VFR"},{"icaoId":"KBNA","receiptTime":"2026-04-12T06:56:37.477Z","obsTime":1775976780,"reportTime":"2026-04-12T07:00:00.000Z","temp":16.1,"dewp":12.8,"wdir":0,"wspd":0,"visib":"10+","altim":1024.1,"slp":1023.4,"qcField":12,"metarType":"METAR","rawOb":"METAR KBNA 120653Z 00000KT 10SM CLR 16/13 A3024 RMK AO2 SLP234 T01610128 $","lat":36.1105,"lon":-86.6881,"elev":168,"name":"Nashville Intl, TN, US","cover":"CLR","clouds":[],"fltCat":"VFR"},{"icaoId":"KDEN","receiptTime":"2026-04-12T06:56:25.495Z","obsTime":1775976780,"reportTime":"2026-04-12T07:00:00.000Z","temp":11.7,"dewp":-3.9,"wdir":230,"wspd":6,"visib":"10+","altim":1010.2,"slp":1003.4,"qcField":4,"maxT24":25,"minT24":6.7,"metarType":"METAR","rawOb":"METAR KDEN 120653Z 23006KT 10SM FEW200 12/M04 A2983 RMK AO2 SLP034 T01171039 402500067","lat":39.8466,"lon":-104.6562,"elev":1656,"name":"Denver Intl, CO, US","cover":"FEW","clouds":[{"cover":"FEW","base":20000}],"fltCat":"VFR"},{"icaoId":"KCNM","receiptTime":"2026-04-12T06:56:27.052Z","obsTime":1775976780,"reportTime":"2026-04-12T07:00:00.000Z","temp":14.4,"dewp":12.2,"wdir":20,"wspd":5,"visib":"10+","altim":1015,"slp":1011.2,"qcField":6,"maxT24":21.1,"minT24":14.4,"metarType":"METAR","rawOb":"METAR KCNM 120653Z AUTO 02005KT 10SM CLR 14/12 A2997 RMK AO2 SLP112 T01440122 402110144","lat":32.3336,"lon":-104.2584,"elev":993,"name":"Carlsbad/Cavern City Air Term, NM, US","cover":"CLR","clouds":[],"fltCat":"VFR"},{"icaoId":"KLBB","receiptTime":"2026-04-12T06:56:28.181Z","obsTime":1775976780,"reportTime":"2026-04-12T07:00:00.000Z","temp":16.1,"dewp":15,"wdir":190,"wspd":7,"visib":"10+","altim":1016.3,"slp":1012,"qcField":4,"metarType":"METAR","rawOb":"METAR KLBB 120653Z 19007KT 10SM BKN004 OVC100 16/15 A3001 RMK AO2 SLP120 T01610150","lat":33.6658,"lon":-101.8233,"elev":996,"name":"Lubbock Intl Arpt, TX, US","cover":"OVC","clouds":[{"cover":"BKN","base":400},{"cover":"OVC","base":10000}],"fltCat":"LIFR"},{"icaoId":"KMYF","receiptTime":"2026-04-12T06:56:29.511Z","obsTime":1775976780,"reportTime":"2026-04-12T07:00:00.000Z","temp":16.7,"dewp":11.7,"wdir":240,"wspd":4,"visib":"10+","altim":1016.3,"slp":1015.8,"qcField":6,"metarType":"METAR","rawOb":"METAR KMYF 120653Z AUTO 24004KT 10SM BKN046 17/12 A3001 RMK AO2 SLP158 T01670117","lat":32.8145,"lon":-117.1375,"elev":128,"name":"San Diego/Montgomery Arpt, CA, US","cover":"BKN","clouds":[{"cover":"BKN","base":4600}],"fltCat":"VFR"},{"icaoId":"KPBI","receiptTime":"2026-04-12T06:56:30.048Z","obsTime":1775976780,"reportTime":"2026-04-12T07:00:00.000Z","temp":22.8,"dewp":14.4,"wdir":60,"wspd":8,"visib":"10+","altim":1022.4,"slp":1022.3,"qcField":12,"metarType":"METAR","rawOb":"METAR KPBI 120653Z 06008KT 10SM FEW050 23/14 A3019 RMK AO2 SLP223 T02280144 $","lat":26.6851,"lon":-80.0992,"elev":4,"name":"Palm Beach Intl, FL, US","cover":"FEW","clouds":[{"cover":"FEW","base":5000}],"fltCat":"VFR"},{"icaoId":"KDAL","receiptTime":"2026-04-12T06:56:35.404Z","obsTime":1775976780,"reportTime":"2026-04-12T07:00:00.000Z","temp":21.7,"dewp":18.3,"wdir":160,"wspd":15,"wgst":24,"visib":"10+","altim":1017.4,"slp":1016.7,"qcField":4,"metarType":"METAR","rawOb":"METAR KDAL 120653Z 16015G24KT 10SM BKN020 OVC055 22/18 A3004 RMK AO2 SLP167 T02170183","lat":32.8384,"lon":-96.8358,"elev":148,"name":"Dallas/Love Fld, TX, US","cover":"OVC","clouds":[{"cover":"BKN","base":2000},{"cover":"OVC","base":5500}],"fltCat":"MVFR"},{"icaoId":"KFAT","receiptTime":"2026-04-12T06:56:31.241Z","obsTime":1775976780,"reportTime":"2026-04-12T07:00:00.000Z","temp":16.1,"dewp":8.9,"wdir":160,"wspd":11,"visib":"10+","altim":1010.2,"slp":1009.9,"qcField":12,"wxString":"-RA","precip":0.01,"metarType":"METAR","rawOb":"METAR KFAT 120653Z 16011KT 10SM -RA SCT080 BKN100 OVC150 16/09 A2983 RMK AO2 RAB0559 SLP099 P0001 T01610089 $","lat":36.78,"lon":-119.7202,"elev":102,"name":"Fresno/Yosemite Intl, CA, US","cover":"OVC","clouds":[{"cover":"SCT","base":8000},{"cover":"BKN","base":10000},{"cover":"OVC","base":15000}],"fltCat":"VFR"},{"icaoId":"KPDX","receiptTime":"2026-04-12T06:56:32.028Z","obsTime":1775976780,"reportTime":"2026-04-12T07:00:00.000Z","temp":11.1,"dewp":8.3,"wdir":140,"wspd":6,"visib":"10+","altim":1005.5,"slp":1005.4,"qcField":12,"wxString":"-RA","precip":0.01,"metarType":"METAR","rawOb":"METAR KPDX 120653Z 14006KT 10SM -RA BKN011 BKN025 OVC040 11/08 A2969 RMK AO2 SLP054 P0001 T01110083 $","lat":45.5958,"lon":-122.6092,"elev":7,"name":"Portland Intl, OR, US","cover":"OVC","clouds":[{"cover":"BKN","base":1100},{"cover":"BKN","base":2500},{"cover":"OVC","base":4000}],"fltCat":"MVFR"},{"icaoId":"KGJT","receiptTime":"2026-04-12T06:56:33.489Z","obsTime":1775976780,"reportTime":"2026-04-12T07:00:00.000Z","temp":10.6,"dewp":1.7,"wdir":80,"wspd":17,"visib":"10+","altim":1011.3,"slp":1007.3,"qcField":4,"maxT24":20.6,"minT24":10.6,"metarType":"METAR","rawOb":"METAR KGJT 120653Z 08017KT 10SM CLR 11/02 A2986 RMK AO2 SLP073 T01060017 402060106","lat":39.1344,"lon":-108.5408,"elev":1475,"name":"Grand Junction Rgnl, CO, US","cover":"CLR","clouds":[],"fltCat":"VFR"},{"icaoId":"KDTW","receiptTime":"2026-04-12T06:56:39.738Z","obsTime":1775976780,"reportTime":"2026-04-12T07:00:00.000Z","temp":5.6,"dewp":-2.2,"wdir":130,"wspd":6,"visib":"10+","altim":1026.5,"slp":1026.7,"qcField":4,"metarType":"METAR","rawOb":"METAR KDTW 120653Z 13006KT 10SM FEW080 FEW120 BKN160 06/M02 A3031 RMK AO2 SLP267 T00561022","lat":42.2311,"lon":-83.3312,"elev":192,"name":"Detroit/Metro Wayne Cnty, MI, US","cover":"BKN","clouds":[{"cover":"FEW","base":8000},{"cover":"FEW","base":12000},{"cover":"BKN","base":16000}],"fltCat":"VFR"},{"icaoId":"KDMN","receiptTime":"2026-04-12T06:56:35.477Z","obsTime":1775976780,"reportTime":"2026-04-12T07:00:00.000Z","temp":15.6,"dewp":2.8,"wdir":280,"wspd":6,"visib":"10+","altim":1017.7,"slp":1011.6,"qcField":6,"maxT24":26.7,"minT24":11.7,"metarType":"METAR","rawOb":"METAR KDMN 120653Z AUTO 28006KT 10SM FEW100 16/03 A3005 RMK AO2 SLP116 T01560028 402670117","lat":32.2592,"lon":-107.7206,"elev":1310,"name":"Deming Muni, NM, US","cover":"FEW","clouds":[{"cover":"FEW","base":10000}],"fltCat":"VFR"},{"icaoId":"KLGB","receiptTime":"2026-04-12T06:56:38.167Z","obsTime":1775976780,"reportTime":"2026-04-12T07:00:00.000Z","temp":16.7,"dewp":12.2,"wdir":180,"wspd":3,"visib":"10+","altim":1015.3,"slp":1015.2,"qcField":14,"metarType":"METAR","rawOb":"METAR KLGB 120653Z AUTO 18003KT 10SM SCT050 SCT055 17/12 A2998 RMK AO2 SLP152 T01670122 $","lat":33.8118,"lon":-118.1472,"elev":10,"name":"Long Beach Arpt, CA, US","cover":"SCT","clouds":[{"cover":"SCT","base":5000},{"cover":"SCT","base":5500}],"fltCat":"VFR"},{"icaoId":"KTUL","receiptTime":"2026-04-12T06:56:38.840Z","obsTime":1775976780,"reportTime":"2026-04-12T07:00:00.000Z","temp":21.1,"dewp":16.1,"wdir":160,"wspd":11,"wgst":19,"visib":"10+","altim":1016.3,"slp":1015.4,"qcField":4,"metarType":"METAR","rawOb":"METAR KTUL 120653Z 16011G19KT 10SM SCT120 BKN200 21/16 A3001 RMK AO2 SLP154 T02110161","lat":36.1985,"lon":-95.8782,"elev":196,"name":"Tulsa Intl Arpt, OK, US","cover":"BKN","clouds":[{"cover":"SCT","base":12000},{"cover":"BKN","base":20000}],"fltCat":"VFR"},{"icaoId":"KSJC","receiptTime":"2026-04-12T06:56:39.622Z","obsTime":1775976780,"reportTime":"2026-04-12T07:00:00.000Z","temp":12.2,"dewp":8.3,"wdir":180,"wspd":5,"visib":"10+","altim":1009.2,"slp":1009,"qcField":4,"metarType":"METAR","rawOb":"METAR KSJC 120653Z 18005KT 10SM SCT044 BKN055 BKN070 12/08 A2980 RMK AO2 SLP090 T01220083","lat":37.3594,"lon":-121.9244,"elev":13,"name":"San Jose Intl Arpt, CA, US","cover":"BKN","clouds":[{"cover":"SCT","base":4400},{"cover":"BKN","base":5500},{"cover":"BKN","base":7000}],"fltCat":"VFR"},{"icaoId":"KMTJ","receiptTime":"2026-04-12T06:56:39.943Z","obsTime":1775976780,"reportTime":"2026-04-12T07:00:00.000Z","temp":9.4,"dewp":-2.8,"wdir":190,"wspd":7,"visib":"10+","altim":1015,"slp":1010.2,"qcField":6,"maxT24":18.9,"minT24":7.8,"metarType":"METAR","rawOb":"METAR KMTJ 120653Z AUTO 19007KT 10SM CLR 09/M03 A2997 RMK AO2 SLP102 T00941028 401890078","lat":38.5054,"lon":-107.8981,"elev":1755,"name":"Montrose Rgnl, CO, US","cover":"CLR","clouds":[],"fltCat":"VFR"},{"icaoId":"KMIA","receiptTime":"2026-04-12T06:56:20.076Z","obsTime":1775976780,"reportTime":"2026-04-12T07:00:00.000Z","temp":22.8,"dewp":15.6,"wdir":70,"wspd":8,"visib":"10+","altim":1021.8,"slp":1021.5,"qcField":4,"metarType":"METAR","rawOb":"METAR KMIA 120653Z 07008KT 10SM FEW050 23/16 A3017 RMK AO2 SLP215 T02280156","lat":25.7881,"lon":-80.3169,"elev":1,"name":"Miami Intl, FL, US","cover":"FEW","clouds":[{"cover":"FEW","base":5000}],"fltCat":"VFR"},{"icaoId":"KPGA","receiptTime":"2026-04-12T06:56:32.052Z","obsTime":1775976780,"reportTime":"2026-04-12T07:00:00.000Z","temp":16.1,"dewp":-6.7,"wdir":220,"wspd":7,"visib":"10+","altim":1012.3,"slp":1007.2,"qcField":14,"maxT24":25,"minT24":16.1,"metarType":"METAR","rawOb":"METAR KPGA 120653Z AUTO 22007KT 10SM CLR 16/M07 A2989 RMK AO2 SLP072 T01611067 402500161 $","lat":36.9211,"lon":-111.4487,"elev":1310,"name":"Page Muni, AZ, US","cover":"CLR","clouds":[],"fltCat":"VFR"},{"icaoId":"KSMF","receiptTime":"2026-04-12T06:56:39.634Z","obsTime":1775976780,"reportTime":"2026-04-12T07:00:00.000Z","temp":10,"dewp":8.9,"wdir":110,"wspd":10,"visib":"10+","altim":1008.2,"slp":1008,"qcField":12,"metarType":"METAR","rawOb":"METAR KSMF 120653Z 11010KT 10SM SCT055 BKN075 10/09 A2977 RMK AO2 SLP080 T01000089 $","lat":38.7007,"lon":-121.5948,"elev":7,"name":"Sacramento Intl, CA, US","cover":"BKN","clouds":[{"cover":"SCT","base":5500},{"cover":"BKN","base":7500}],"fltCat":"VFR"},{"icaoId":"KMSP","receiptTime":"2026-04-12T06:56:39.928Z","obsTime":1775976780,"reportTime":"2026-04-12T07:00:00.000Z","temp":11.1,"dewp":9.4,"wdir":150,"wspd":8,"visib":9,"altim":1009.2,"slp":1009.5,"qcField":4,"metarType":"METAR","rawOb":"METAR KMSP 120653Z 15008KT 9SM OVC011 11/09 A2980 RMK AO2 SLP095 T01110094","lat":44.8852,"lon":-93.2313,"elev":255,"name":"Minneapolis-St Paul Intl, MN, US","cover":"OVC","clouds":[{"cover":"OVC","base":1100}],"fltCat":"MVFR"},{"icaoId":"KIAH","receiptTime":"2026-04-12T06:56:20.674Z","obsTime":1775976780,"reportTime":"2026-04-12T07:00:00.000Z","temp":22.2,"dewp":20,"wdir":140,"wspd":11,"visib":7,"altim":1019.4,"slp":1019.4,"qcField":4,"metarType":"METAR","rawOb":"METAR KIAH 120653Z 14011KT 7SM SCT017 BKN028 OVC040 22/20 A3010 RMK AO2 SLP194 T02220200","lat":29.9844,"lon":-95.3607,"elev":27,"name":"Houston/Bush Intl, TX, US","cover":"OVC","clouds":[{"cover":"SCT","base":1700},{"cover":"BKN","base":2800},{"cover":"OVC","base":4000}],"fltCat":"MVFR"},{"icaoId":"KVGT","receiptTime":"2026-04-12T06:56:38.357Z","obsTime":1775976780,"reportTime":"2026-04-12T07:00:00.000Z","temp":19.4,"dewp":-2.8,"wdir":190,"wspd":9,"visib":"10+","altim":1009.2,"slp":1009.3,"qcField":4,"metarType":"METAR","rawOb":"METAR KVGT 120653Z 19009KT 10SM CLR 19/M03 A2980 RMK AO2 SLP093 T01941028","lat":36.212,"lon":-115.194,"elev":664,"name":"Las Vegas/North Arpt, NV, US","cover":"CLR","clouds":[],"fltCat":"VFR"},{"icaoId":"KSDL","receiptTime":"2026-04-12T06:56:39.547Z","obsTime":1775976780,"reportTime":"2026-04-12T07:00:00.000Z","temp":23.3,"dewp":-2.8,"wdir":0,"wspd":0,"visib":"10+","altim":1012.3,"slp":1009.9,"qcField":6,"maxT24":31.1,"minT24":20.6,"metarType":"METAR","rawOb":"METAR KSDL 120653Z AUTO 00000KT 10SM CLR 23/M03 A2989 RMK AO2 SLP099 T02331028 403110206","lat":33.6123,"lon":-111.9232,"elev":438,"name":"Scottsdale Muni, AZ, US","cover":"CLR","clouds":[],"fltCat":"VFR"},{"icaoId":"KOKC","receiptTime":"2026-04-12T06:56:37.347Z","obsTime":1775976720,"reportTime":"2026-04-12T07:00:00.000Z","temp":20,"dewp":15.6,"wdir":170,"wspd":15,"visib":"10+","altim":1015.7,"slp":1014.2,"qcField":4,"metarType":"METAR","rawOb":"METAR KOKC 120652Z 17015KT 10SM FEW031 SCT055 BKN085 OVC250 20/16 A2999 RMK AO2 SLP142 T02000156","lat":35.3843,"lon":-97.6003,"elev":391,"name":"Oklahoma City/Will Rogers Intl, OK, US","cover":"OVC","clouds":[{"cover":"FEW","base":3100},{"cover":"SCT","base":5500},{"cover":"BKN","base":8500},{"cover":"OVC","base":25000}],"fltCat":"VFR"},{"icaoId":"KABQ","receiptTime":"2026-04-12T06:56:37.236Z","obsTime":1775976720,"reportTime":"2026-04-12T07:00:00.000Z","temp":12.2,"dewp":4.4,"wdir":150,"wspd":6,"visib":"10+","altim":1017,"slp":1010.8,"qcField":12,"maxT24":22.8,"minT24":12.2,"metarType":"METAR","rawOb":"METAR KABQ 120652Z 15006KT 10SM FEW100 12/04 A3003 RMK AO2 SLP108 T01220044 402280122 $","lat":35.0419,"lon":-106.6154,"elev":1620,"name":"Albuquerque Intl, NM, US","cover":"FEW","clouds":[{"cover":"FEW","base":10000}],"fltCat":"VFR"},{"icaoId":"KCVG","receiptTime":"2026-04-12T06:56:18.670Z","obsTime":1775976720,"reportTime":"2026-04-12T07:00:00.000Z","temp":11.7,"dewp":3.9,"wdir":110,"wspd":4,"visib":"10+","altim":1024.5,"slp":1023.9,"qcField":12,"metarType":"METAR","rawOb":"METAR KCVG 120652Z 11004KT 10SM BKN200 12/04 A3025 RMK AO2 SLP239 T01170039 $","lat":39.0444,"lon":-84.6724,"elev":264,"name":"Cincinnati Intl, KY, US","cover":"BKN","clouds":[{"cover":"BKN","base":20000}],"fltCat":"VFR"},{"icaoId":"KIAD","receiptTime":"2026-04-12T06:56:18.956Z","obsTime":1775976720,"reportTime":"2026-04-12T07:00:00.000Z","temp":6.7,"dewp":3.9,"wdir":0,"wspd":0,"visib":"10+","altim":1028.9,"slp":1028.7,"qcField":12,"metarType":"METAR","rawOb":"METAR KIAD 120652Z 00000KT 10SM FEW070 07/04 A3038 RMK AO2 SLP287 T00670039 $","lat":38.9348,"lon":-77.4473,"elev":90,"name":"Washington/Dulles Intl, VA, US","cover":"FEW","clouds":[{"cover":"FEW","base":7000}],"fltCat":"VFR"},{"icaoId":"KATL","receiptTime":"2026-04-12T06:56:37.251Z","obsTime":1775976720,"reportTime":"2026-04-12T07:00:00.000Z","temp":17.2,"dewp":7.2,"wdir":0,"wspd":0,"visib":"10+","altim":1024.8,"slp":1024,"qcField":12,"metarType":"METAR","rawOb":"METAR KATL 120652Z 00000KT 10SM FEW250 17/07 A3026 RMK AO2 SLP240 T01720072 $","lat":33.6297,"lon":-84.4422,"elev":309,"name":"Atlanta/Hartsfield-Jackson Intl, GA, US","cover":"FEW","clouds":[{"cover":"FEW","base":25000}],"fltCat":"VFR"},{"icaoId":"KDCA","receiptTime":"2026-04-12T06:56:18.685Z","obsTime":1775976720,"reportTime":"2026-04-12T07:00:00.000Z","temp":11.7,"dewp":6.7,"wdir":180,"wspd":6,"visib":"10+","altim":1028.9,"slp":1028.7,"qcField":4,"metarType":"METAR","rawOb":"METAR KDCA 120652Z 18006KT 10SM FEW070 FEW250 12/07 A3038 RMK AO2 SLP287 T01170067","lat":38.8472,"lon":-77.0345,"elev":4,"name":"Washington/Reagan-National Arpt, VA, US","cover":"FEW","clouds":[{"cover":"FEW","base":7000},{"cover":"FEW","base":25000}],"fltCat":"VFR"},{"icaoId":"KCLT","receiptTime":"2026-04-12T06:56:18.634Z","obsTime":1775976720,"reportTime":"2026-04-12T07:00:00.000Z","temp":14.4,"dewp":10,"wdir":320,"wspd":4,"visib":"10+","altim":1024.5,"slp":1025.2,"qcField":4,"metarType":"METAR","rawOb":"METAR KCLT 120652Z 32004KT 10SM FEW100 FEW250 14/10 A3025 RMK AO2 SLP252 T01440100","lat":35.2225,"lon":-80.9543,"elev":223,"name":"Charlotte/Douglas Intl, NC, US","cover":"FEW","clouds":[{"cover":"FEW","base":10000},{"cover":"FEW","base":25000}],"fltCat":"VFR"},{"icaoId":"KMKE","receiptTime":"2026-04-12T06:56:19.093Z","obsTime":1775976720,"reportTime":"2026-04-12T07:00:00.000Z","temp":8.9,"dewp":5,"wdir":150,"wspd":12,"visib":"10+","altim":1018.4,"slp":1018.6,"qcField":4,"precip":0.01,"metarType":"METAR","rawOb":"METAR KMKE 120652Z 15012KT 10SM BKN044 BKN055 09/05 A3007 RMK AO2 RAE03 SLP186 P0001 T00890050","lat":42.9549,"lon":-87.9045,"elev":203,"name":"Milwaukee/Mitchell Intl, WI, US","cover":"BKN","clouds":[{"cover":"BKN","base":4400},{"cover":"BKN","base":5500}],"fltCat":"VFR"},{"icaoId":"KROW","receiptTime":"2026-04-12T06:54:12.114Z","obsTime":1775976660,"reportTime":"2026-04-12T07:00:00.000Z","temp":13.3,"dewp":9.4,"wdir":190,"wspd":7,"visib":"10+","altim":1015,"slp":1010.2,"qcField":14,"maxT24":22.2,"minT24":13.3,"metarType":"METAR","rawOb":"METAR KROW 120651Z AUTO 19007KT 10SM CLR 13/09 A2997 RMK AO2 SLP102 T01330094 402220133 $","lat":33.3074,"lon":-104.5082,"elev":1105,"name":"Roswell/Ind Arpt, NM, US","cover":"CLR","clouds":[],"fltCat":"VFR"},{"icaoId":"KCLE","receiptTime":"2026-04-12T06:54:07.880Z","obsTime":1775976660,"reportTime":"2026-04-12T07:00:00.000Z","temp":6.1,"dewp":-5.6,"wdir":120,"wspd":5,"visib":"10+","altim":1026.5,"slp":1028.5,"qcField":12,"metarType":"METAR","rawOb":"METAR KCLE 120651Z 12005KT 10SM SCT160 SCT250 06/M06 A3031 RMK AO2 SLP285 T00611056 $","lat":41.4057,"lon":-81.8519,"elev":237,"name":"Cleveland/Hopkins Intl, OH, US","cover":"SCT","clouds":[{"cover":"SCT","base":16000},{"cover":"SCT","base":25000}],"fltCat":"VFR"},{"icaoId":"KSAN","receiptTime":"2026-04-12T06:54:12.140Z","obsTime":1775976660,"reportTime":"2026-04-12T07:00:00.000Z","temp":17.8,"dewp":11.7,"wdir":270,"wspd":5,"visib":"10+","altim":1016.7,"slp":1016.6,"qcField":12,"metarType":"METAR","rawOb":"METAR KSAN 120651Z 27005KT 10SM FEW030 SCT041 SCT250 18/12 A3002 RMK AO2 SLP166 T01780117 $","lat":32.7364,"lon":-117.1973,"elev":3,"name":"San Diego Intl Arpt, CA, US","cover":"SCT","clouds":[{"cover":"FEW","base":3000},{"cover":"SCT","base":4100},{"cover":"SCT","base":25000}],"fltCat":"VFR"},{"icaoId":"KLGA","receiptTime":"2026-04-12T06:54:11.866Z","obsTime":1775976660,"reportTime":"2026-04-12T07:00:00.000Z","temp":7.8,"dewp":-2.8,"wdir":30,"wspd":6,"visib":"10+","altim":1030.6,"slp":1030.5,"qcField":4,"metarType":"METAR","rawOb":"METAR KLGA 120651Z 03006KT 10SM CLR 08/M03 A3043 RMK AO2 SLP305 T00781028","lat":40.7794,"lon":-73.8803,"elev":9,"name":"New York/La Guardia Arpt, NY, US","cover":"CLR","clouds":[],"fltCat":"VFR"},{"icaoId":"KCMH","receiptTime":"2026-04-12T06:54:07.987Z","obsTime":1775976660,"reportTime":"2026-04-12T07:00:00.000Z","temp":10,"dewp":1.7,"wdir":110,"wspd":7,"visib":"10+","altim":1025.8,"slp":1025.9,"qcField":4,"metarType":"METAR","rawOb":"METAR KCMH 120651Z 11007KT 10SM BKN190 OVC250 10/02 A3029 RMK AO2 SLP259 T01000017","lat":39.9907,"lon":-82.877,"elev":257,"name":"Columbus/Glenn Intl, OH, US","cover":"OVC","clouds":[{"cover":"BKN","base":19000},{"cover":"OVC","base":25000}],"fltCat":"VFR"},{"icaoId":"KCRP","receiptTime":"2026-04-12T06:54:08.064Z","obsTime":1775976660,"reportTime":"2026-04-12T07:00:00.000Z","temp":23.9,"dewp":21.7,"wdir":140,"wspd":19,"visib":"10+","altim":1016.7,"slp":1016.4,"qcField":4,"precip":0.005,"metarType":"METAR","rawOb":"METAR KCRP 120651Z 14019KT 10SM FEW013 BKN026 OVC070 24/22 A3002 RMK AO2 RAB24E34 SLP164 P0000 T02390217","lat":27.7734,"lon":-97.513,"elev":11,"name":"Corpus Christi Intl, TX, US","cover":"OVC","clouds":[{"cover":"FEW","base":1300},{"cover":"BKN","base":2600},{"cover":"OVC","base":7000}],"fltCat":"MVFR"},{"icaoId":"KJFK","receiptTime":"2026-04-12T06:54:08.365Z","obsTime":1775976660,"reportTime":"2026-04-12T07:00:00.000Z","temp":6.7,"dewp":-3.3,"wdir":40,"wspd":4,"visib":"10+","altim":1030.9,"slp":1030.8,"qcField":4,"metarType":"METAR","rawOb":"METAR KJFK 120651Z 04004KT 10SM CLR 07/M03 A3044 RMK AO2 SLP308 T00671033","lat":40.6392,"lon":-73.7639,"elev":3,"name":"New York/JF Kennedy Intl, NY, US","cover":"CLR","clouds":[],"fltCat":"VFR"},{"icaoId":"KVNY","receiptTime":"2026-04-12T06:54:12.341Z","obsTime":1775976660,"reportTime":"2026-04-12T07:00:00.000Z","temp":14.4,"dewp":9.4,"wdir":150,"wspd":3,"visib":"10+","altim":1015,"slp":1014.3,"qcField":14,"metarType":"METAR","rawOb":"METAR KVNY 120651Z AUTO 15003KT 10SM OVC047 14/09 A2997 RMK AO2 SLP143 T01440094 $","lat":34.2121,"lon":-118.4915,"elev":241,"name":"Van Nuys Arpt, CA, US","cover":"OVC","clouds":[{"cover":"OVC","base":4700}],"fltCat":"VFR"},{"icaoId":"KPIT","receiptTime":"2026-04-12T06:54:11.982Z","obsTime":1775976660,"reportTime":"2026-04-12T07:00:00.000Z","temp":7.8,"dewp":-2.2,"wdir":0,"wspd":0,"visib":"10+","altim":1027.2,"slp":1028,"qcField":12,"metarType":"METAR","rawOb":"METAR KPIT 120651Z 00000KT 10SM OVC250 08/M02 A3033 RMK AO2 SLP280 T00781022 $","lat":40.4814,"lon":-80.2083,"elev":339,"name":"Pittsburgh Intl, PA, US","cover":"OVC","clouds":[{"cover":"OVC","base":25000}],"fltCat":"VFR"},{"icaoId":"KSAT","receiptTime":"2026-04-12T06:54:12.155Z","obsTime":1775976660,"reportTime":"2026-04-12T07:00:00.000Z","temp":21.7,"dewp":20,"wdir":150,"wspd":12,"visib":6,"altim":1018.4,"slp":1016.5,"qcField":4,"wxString":"RA BR","precip":0.02,"metarType":"METAR","rawOb":"METAR KSAT 120651Z 15012KT 6SM RA BR BKN021 OVC060 22/20 A3007 RMK AO2 RAB27 SLP165 P0002 T02170200","lat":29.5443,"lon":-98.4839,"elev":246,"name":"San Antonio Intl, TX, US","cover":"OVC","clouds":[{"cover":"BKN","base":2100},{"cover":"OVC","base":6000}],"fltCat":"MVFR"},{"icaoId":"KELP","receiptTime":"2026-04-12T06:54:08.172Z","obsTime":1775976660,"reportTime":"2026-04-12T07:00:00.000Z","temp":15.6,"dewp":11.1,"wdir":150,"wspd":5,"visib":"10+","altim":1017.4,"slp":1012.5,"qcField":4,"maxT24":19.4,"minT24":15,"metarType":"METAR","rawOb":"METAR KELP 120651Z 15005KT 10SM FEW037 FEW090 SCT170 16/11 A3004 RMK AO2 SLP125 VCSH ALQDS T01560111 401940150","lat":31.8123,"lon":-106.3774,"elev":1205,"name":"El Paso Intl, TX, US","cover":"SCT","clouds":[{"cover":"FEW","base":3700},{"cover":"FEW","base":9000},{"cover":"SCT","base":17000}],"fltCat":"VFR"},{"icaoId":"KSAD","receiptTime":"2026-04-12T06:54:12.125Z","obsTime":1775976660,"reportTime":"2026-04-12T07:00:00.000Z","temp":18.9,"dewp":-1.7,"wdir":320,"wspd":9,"visib":"10+","altim":1014.3,"slp":1009.6,"qcField":6,"maxT24":30,"minT24":11.1,"metarType":"METAR","rawOb":"METAR KSAD 120651Z AUTO 32009KT 10SM CLR 19/M02 A2995 RMK AO2 SLP096 T01891017 403000111","lat":32.8565,"lon":-109.636,"elev":937,"name":"Safford Rgnl, AZ, US","cover":"CLR","clouds":[],"fltCat":"VFR"},{"icaoId":"KPVD","receiptTime":"2026-04-12T06:54:12.036Z","obsTime":1775976660,"reportTime":"2026-04-12T07:00:00.000Z","temp":6.1,"dewp":-5,"wdir":10,"wspd":7,"visib":"10+","altim":1030.2,"slp":1030.2,"qcField":14,"metarType":"METAR","rawOb":"METAR KPVD 120651Z AUTO 01007KT 10SM CLR 06/M05 A3042 RMK AO2 SLP302 T00611050 $","lat":41.7225,"lon":-71.4325,"elev":15,"name":"Providence/Green Mem, RI, US","cover":"CLR","clouds":[],"fltCat":"VFR"},{"icaoId":"KRDU","receiptTime":"2026-04-12T06:54:12.103Z","obsTime":1775976660,"reportTime":"2026-04-12T07:00:00.000Z","temp":16.7,"dewp":11.1,"wdir":110,"wspd":6,"visib":"10+","altim":1026.5,"slp":1025.9,"qcField":4,"metarType":"METAR","rawOb":"METAR KRDU 120651Z 11006KT 10SM CLR 17/11 A3031 RMK AO2 SLP259 T01670111","lat":35.8923,"lon":-78.782,"elev":121,"name":"Raleigh-Durham Intl, NC, US","cover":"CLR","clouds":[],"fltCat":"VFR"},{"icaoId":"KEWR","receiptTime":"2026-04-12T06:54:08.207Z","obsTime":1775976660,"reportTime":"2026-04-12T07:00:00.000Z","temp":7.2,"dewp":-2.8,"wdir":20,"wspd":9,"visib":"10+","altim":1030.9,"slp":1030.6,"qcField":4,"metarType":"METAR","rawOb":"METAR KEWR 120651Z 02009KT 10SM CLR 07/M03 A3044 RMK AO2 SLP306 T00721028","lat":40.6828,"lon":-74.1692,"elev":2,"name":"Newark Intl, NJ, US","cover":"CLR","clouds":[],"fltCat":"VFR"},{"icaoId":"KORD","receiptTime":"2026-04-12T06:54:11.918Z","obsTime":1775976660,"reportTime":"2026-04-12T07:00:00.000Z","temp":13.3,"dewp":4.4,"wdir":170,"wspd":8,"visib":"10+","altim":1019,"slp":1019.1,"qcField":12,"metarType":"METAR","rawOb":"METAR KORD 120651Z 17008KT 10SM FEW110 SCT130 OVC250 13/04 A3009 RMK AO2 SLP191 T01330044 $","lat":41.9602,"lon":-87.9316,"elev":202,"name":"Chicago/O'Hare Intl, IL, US","cover":"OVC","clouds":[{"cover":"FEW","base":11000},{"cover":"SCT","base":13000},{"cover":"OVC","base":25000}],"fltCat":"VFR"},{"icaoId":"KPHX","receiptTime":"2026-04-12T06:54:11.966Z","obsTime":1775976660,"reportTime":"2026-04-12T07:00:00.000Z","temp":24.4,"dewp":-3.9,"wdir":0,"wspd":0,"visib":"10+","altim":1010.9,"slp":1009.2,"qcField":4,"maxT24":33.3,"minT24":22.2,"metarType":"METAR","rawOb":"METAR KPHX 120651Z 00000KT 10SM CLR 24/M04 A2985 RMK AO2 SLP092 T02441039 403330222","lat":33.4278,"lon":-112.0037,"elev":338,"name":"Phoenix/Sky Harbor Intl, AZ, US","cover":"CLR","clouds":[],"fltCat":"VFR"},{"icaoId":"KOXR","receiptTime":"2026-04-12T06:54:11.952Z","obsTime":1775976660,"reportTime":"2026-04-12T07:00:00.000Z","temp":16.7,"dewp":12.2,"wdir":160,"wspd":3,"visib":"10+","altim":1014.3,"slp":1014.2,"qcField":6,"metarType":"METAR","rawOb":"METAR KOXR 120651Z AUTO 16003KT 10SM OVC070 17/12 A2995 RMK AO2 SLP142 T01670122","lat":34.2001,"lon":-119.2042,"elev":12,"name":"Oxnard Arpt, CA, US","cover":"OVC","clouds":[{"cover":"OVC","base":7000}],"fltCat":"VFR"},{"icaoId":"KSTL","receiptTime":"2026-04-12T06:54:12.275Z","obsTime":1775976660,"reportTime":"2026-04-12T07:00:00.000Z","temp":18.3,"dewp":13.9,"wdir":160,"wspd":9,"visib":"10+","altim":1019.7,"slp":1018.8,"qcField":12,"metarType":"METAR","rawOb":"METAR KSTL 120651Z 16009KT 10SM CLR 18/14 A3011 RMK AO2 SLP188 T01830139 $","lat":38.7525,"lon":-90.3734,"elev":163,"name":"St Louis/Lambert Intl, MO, US","cover":"CLR","clouds":[],"fltCat":"VFR"},{"icaoId":"KORF","receiptTime":"2026-04-12T06:54:11.937Z","obsTime":1775976660,"reportTime":"2026-04-12T07:00:00.000Z","temp":11.1,"dewp":8.3,"wdir":0,"wspd":0,"visib":"10+","altim":1028.5,"slp":1028.3,"qcField":4,"metarType":"METAR","rawOb":"METAR KORF 120651Z 00000KT 10SM CLR 11/08 A3037 RMK AO2 SLP283 T01110083","lat":36.9037,"lon":-76.1927,"elev":5,"name":"Norfolk Intl, VA, US","cover":"CLR","clouds":[],"fltCat":"VFR"},{"icaoId":"KIGM","receiptTime":"2026-04-12T06:54:08.327Z","obsTime":1775976660,"reportTime":"2026-04-12T07:00:00.000Z","temp":15.6,"dewp":-1.1,"wdir":180,"wspd":7,"visib":"10+","altim":1013,"slp":1007.1,"qcField":6,"maxT24":23.9,"minT24":10.6,"metarType":"METAR","rawOb":"METAR KIGM 120651Z AUTO 18007KT 10SM CLR 16/M01 A2991 RMK AO2 SLP071 T01561011 402390106","lat":35.2575,"lon":-113.9341,"elev":1045,"name":"Kingman Arpt, AZ, US","cover":"CLR","clouds":[],"fltCat":"VFR"},{"icaoId":"KBDL","receiptTime":"2026-04-12T06:54:07.738Z","obsTime":1775976660,"reportTime":"2026-04-12T07:00:00.000Z","temp":2.8,"dewp":-3.9,"wdir":360,"wspd":6,"visib":"10+","altim":1030.9,"slp":1030.8,"qcField":4,"metarType":"METAR","rawOb":"METAR KBDL 120651Z 36006KT 10SM CLR 03/M04 A3044 RMK AO2 SLP308 T00281039","lat":41.9374,"lon":-72.682,"elev":52,"name":"Hartford/Bradley Intl, CT, US","cover":"CLR","clouds":[],"fltCat":"VFR"},{"icaoId":"KHOB","receiptTime":"2026-04-12T06:42:21.496Z","obsTime":1775975700,"reportTime":"2026-04-12T06:35:00.000Z","temp":13,"dewp":12,"wdir":210,"wspd":4,"visib":"10+","altim":1016.3,"qcField":6,"metarType":"METAR","rawOb":"METAR KHOB 120635Z AUTO 21004KT 10SM CLR 13/12 A3001 RMK AO2","lat":32.6797,"lon":-103.2222,"elev":1112,"name":"Hobbs Arpt, NM, US","cover":"CLR","clouds":[],"fltCat":"VFR"},{"icaoId":"KLUF","receiptTime":"2026-04-12T06:12:06.315Z","obsTime":1775973300,"reportTime":"2026-04-12T06:00:00.000Z","temp":24.2,"dewp":-6,"wdir":230,"wspd":7,"visib":"10+","altim":1010.2,"slp":1008.9,"qcField":14,"presTend":1.5,"maxT":31.5,"minT":24.2,"metarType":"METAR","rawOb":"METAR KLUF 120555Z AUTO 23007KT 10SM CLR 24/M06 A2983 RMK AO2 SLP089 T02421060 10315 20242 51015 $","lat":33.538,"lon":-112.38,"elev":333,"name":"Phoenix/Luke AFB, AZ, US","cover":"CLR","clouds":[],"fltCat":"VFR"}]