[{"icaoId":"KCRP","receiptTime":"2026-04-14T22:22:11.319Z","obsTime":1776205140,"reportTime":"2026-04-14T22:19:00.000Z","temp":27.8,"dewp":21.1,"wdir":150,"wspd":23,"visib":"10+","altim":1013.6,"qcField":4,"metarType":"SPECI","rawOb":"SPECI KCRP 142219Z 15023KT 10SM FEW017 SCT022 BKN029 28/21 A2993 RMK AO2 PK WND 15030/2208 T02780211","lat":27.7734,"lon":-97.513,"elev":11,"name":"Corpus Christi Intl, TX, US","cover":"BKN","clouds":[{"cover":"FEW","base":1700},{"cover":"SCT","base":2200},{"cover":"BKN","base":2900}],"fltCat":"MVFR"},{"icaoId":"KAST","receiptTime":"2026-04-14T22:22:02.068Z","obsTime":1776205080,"reportTime":"2026-04-14T22:18:00.000Z","temp":9.4,"dewp":7.8,"wdir":190,"wspd":16,"wgst":37,"visib":4,"altim":1013.6,"qcField":6,"wxString":"-RA BR","precip":0.02,"metarType":"SPECI","rawOb":"SPECI KAST 142218Z AUTO 19016G37KT 4SM -RA BR SCT011 BKN017 OVC034 09/08 A2993 RMK AO2 PK WND 20037/2216 P0002 T00940078","lat":46.157,"lon":-123.8833,"elev":3,"name":"Astoria Rgnl, OR, US","cover":"OVC","clouds":[{"cover":"SCT","base":1100},{"cover":"BKN","base":1700},{"cover":"OVC","base":3400}],"fltCat":"MVFR"},{"icaoId":"KLAR","receiptTime":"2026-04-14T22:20:30.925Z","obsTime":1776205020,"reportTime":"2026-04-14T22:17:00.000Z","temp":0.6,"dewp":0,"wdir":240,"wspd":9,"visib":1,"altim":1013,"qcField":6,"wxString":"-SN BR","precip":0.02,"metarType":"SPECI","rawOb":"SPECI KLAR 142217Z AUTO 24009KT 1SM -SN BR FEW005 OVC010 01/00 A2991 RMK AO2 WSHFT 2151 P0002 T00060000","lat":41.3165,"lon":-105.6729,"elev":2217,"name":"Laramie Rgnl, WY, US","cover":"OVC","clouds":[{"cover":"FEW","base":500},{"cover":"OVC","base":1000}],"fltCat":"IFR"},{"icaoId":"KEGE","receiptTime":"2026-04-14T22:20:04.128Z","obsTime":1776205020,"reportTime":"2026-04-14T22:17:00.000Z","temp":8,"dewp":-2,"wdir":210,"wspd":21,"wgst":25,"visib":"10+","altim":1014.6,"qcField":4,"metarType":"SPECI","rawOb":"SPECI KEGE 142217Z 21021G25KT 10SM BKN044 BKN055 08/M02 A2996 RMK AO2 WSHFT 2152","lat":39.6448,"lon":-106.9176,"elev":1993,"name":"Eagle Cnty Rgnl, CO, US","cover":"BKN","clouds":[{"cover":"BKN","base":4400},{"cover":"BKN","base":5500}],"fltCat":"VFR"},{"icaoId":"KHTH","receiptTime":"2026-04-14T22:20:27.903Z","obsTime":1776204900,"reportTime":"2026-04-14T22:15:00.000Z","temp":17,"dewp":-7,"wdir":320,"wspd":8,"visib":"10+","altim":1017.4,"qcField":6,"metarType":"METAR","rawOb":"METAR KHTH 142215Z AUTO 32008KT 10SM CLR 17/M07 A3004 RMK A01","lat":38.5448,"lon":-118.6314,"elev":1281,"name":"Hawthorne Muni, NV, US","cover":"CLR","clouds":[],"fltCat":"VFR"},{"icaoId":"KBVU","receiptTime":"2026-04-14T22:16:05.689Z","obsTime":1776204900,"reportTime":"2026-04-14T22:15:00.000Z","temp":23,"dewp":-5,"wdir":250,"wspd":6,"visib":"10+","altim":1014.6,"qcField":6,"metarType":"METAR","rawOb":"METAR KBVU 142215Z AUTO 25006KT 10SM FEW100 23/M05 A2996 RMK AO2","lat":35.9489,"lon":-114.8633,"elev":654,"name":"Boulder City Muni, NV, US","cover":"FEW","clouds":[{"cover":"FEW","base":10000}],"fltCat":"VFR"},{"icaoId":"KSEZ","receiptTime":"2026-04-14T22:20:35.026Z","obsTime":1776204900,"reportTime":"2026-04-14T22:15:00.000Z","temp":17,"dewp":-1,"wdir":"VRB","wspd":4,"visib":"10+","altim":1017.4,"qcField":6,"metarType":"METAR","rawOb":"METAR KSEZ 142215Z AUTO VRB04KT 10SM BKN065 BKN075 17/M01 A3004 RMK AO2","lat":34.8467,"lon":-111.7884,"elev":1455,"name":"Sedona Arpt, AZ, US","cover":"BKN","clouds":[{"cover":"BKN","base":6500},{"cover":"BKN","base":7500}],"fltCat":"VFR"},{"icaoId":"KHCR","receiptTime":"2026-04-14T22:19:01.649Z","obsTime":1776204900,"reportTime":"2026-04-14T22:15:00.000Z","temp":12,"dewp":-3.2,"wdir":250,"wspd":8,"visib":"10+","altim":1014,"qcField":14,"metarType":"METAR","rawOb":"METAR KHCR 142215Z AUTO 25008KT 10SM OVC070 12/M03 A2994 RMK AO2 T01201032 $","lat":40.4774,"lon":-111.4329,"elev":1708,"name":"Heber City Muni, UT, US","cover":"OVC","clouds":[{"cover":"OVC","base":7000}],"fltCat":"VFR"},{"icaoId":"KHAF","receiptTime":"2026-04-14T22:18:13.398Z","obsTime":1776204900,"reportTime":"2026-04-14T22:15:00.000Z","temp":14,"dewp":10,"wdir":320,"wspd":13,"visib":9,"altim":1023.1,"qcField":6,"metarType":"METAR","rawOb":"METAR KHAF 142215Z AUTO 32013KT 9SM BKN024 OVC031 14/10 A3021 RMK AO2","lat":37.5136,"lon":-122.4996,"elev":11,"name":"Half Moon Bay Arpt, CA, US","cover":"OVC","clouds":[{"cover":"BKN","base":2400},{"cover":"OVC","base":3100}],"fltCat":"MVFR"},{"icaoId":"KLRU","receiptTime":"2026-04-14T22:19:04.963Z","obsTime":1776204900,"reportTime":"2026-04-14T22:15:00.000Z","temp":22.9,"dewp":-1.9,"wdir":230,"wspd":17,"wgst":22,"visib":"10+","altim":1014.3,"qcField":6,"metarType":"METAR","rawOb":"METAR KLRU 142215Z AUTO 23017G22KT 10SM SCT120 23/M02 A2995 RMK AO2 T02291019","lat":32.2884,"lon":-106.9131,"elev":1355,"name":"Las Cruces Intl, NM, US","cover":"SCT","clouds":[{"cover":"SCT","base":12000}],"fltCat":"VFR"},{"icaoId":"KRTS","receiptTime":"2026-04-14T22:20:34.359Z","obsTime":1776204900,"reportTime":"2026-04-14T22:15:00.000Z","temp":14,"dewp":-5,"wdir":280,"wspd":11,"wgst":19,"visib":"10+","altim":1018.7,"qcField":6,"metarType":"METAR","rawOb":"METAR KRTS 142215Z AUTO 28011G19KT 10SM CLR 14/M05 A3008 RMK AO2","lat":39.6658,"lon":-119.8731,"elev":1537,"name":"Reno/Stead Arpt, NV, US","cover":"CLR","clouds":[],"fltCat":"VFR"},{"icaoId":"KHII","receiptTime":"2026-04-14T22:20:27.449Z","obsTime":1776204900,"reportTime":"2026-04-14T22:15:00.000Z","temp":25,"dewp":0,"wdir":"VRB","wspd":4,"visib":"10+","altim":1014.3,"qcField":6,"metarType":"METAR","rawOb":"METAR KHII 142215Z AUTO VRB04KT 10SM CLR 25/M00 A2995 RMK AO2","lat":34.5659,"lon":-114.3522,"elev":241,"name":"Lake Havasu City Arpt, AZ, US","cover":"CLR","clouds":[],"fltCat":"VFR"},{"icaoId":"KMHR","receiptTime":"2026-04-14T22:20:36.497Z","obsTime":1776204900,"reportTime":"2026-04-14T22:15:00.000Z","temp":21,"dewp":11,"wdir":210,"wspd":7,"visib":"10+","altim":1019.7,"qcField":6,"metarType":"METAR","rawOb":"METAR KMHR 142215Z AUTO 21007KT 10SM FEW043 21/11 A3011 RMK AO2","lat":38.56,"lon":-121.284,"elev":30,"name":"Sacramento/Mather Fld, CA, US","cover":"FEW","clouds":[{"cover":"FEW","base":4300}],"fltCat":"VFR"},{"icaoId":"KMEV","receiptTime":"2026-04-14T22:20:36.402Z","obsTime":1776204900,"reportTime":"2026-04-14T22:15:00.000Z","temp":15,"dewp":-5,"wdir":290,"wspd":11,"wgst":18,"visib":"10+","altim":1018.4,"qcField":6,"metarType":"METAR","rawOb":"METAR KMEV 142215Z AUTO 29011G18KT 10SM CLR 15/M05 A3007 RMK AO2","lat":38.9963,"lon":-119.75,"elev":1437,"name":"Minden-Tahoe Arpt, NV, US","cover":"CLR","clouds":[],"fltCat":"VFR"},{"icaoId":"KCXP","receiptTime":"2026-04-14T22:20:37.681Z","obsTime":1776204900,"reportTime":"2026-04-14T22:15:00.000Z","temp":15,"dewp":-3,"wdir":260,"wspd":8,"wgst":14,"visib":"10+","altim":1018.7,"qcField":6,"metarType":"METAR","rawOb":"METAR KCXP 142215Z AUTO 26008G14KT 230V290 10SM CLR 15/M03 A3008 RMK AO2","lat":39.1905,"lon":-119.7319,"elev":1431,"name":"Carson City Arpt, NV, US","cover":"CLR","clouds":[],"fltCat":"VFR"},{"icaoId":"KSOW","receiptTime":"2026-04-14T22:19:09.339Z","obsTime":1776204900,"reportTime":"2026-04-14T22:15:00.000Z","temp":14,"dewp":-5,"wdir":230,"wspd":7,"wgst":17,"visib":"10+","altim":1018,"qcField":6,"metarType":"METAR","rawOb":"METAR KSOW 142215Z AUTO 23007G17KT 200V260 10SM FEW065 14/M05 A3006 RMK AO2","lat":34.2686,"lon":-110.0019,"elev":1954,"name":"Show Low Muni, AZ, US","cover":"FEW","clouds":[{"cover":"FEW","base":6500}],"fltCat":"VFR"},{"icaoId":"KLAW","receiptTime":"2026-04-14T22:18:15.578Z","obsTime":1776204840,"reportTime":"2026-04-14T22:14:00.000Z","temp":23.3,"dewp":21.1,"wdir":130,"wspd":17,"visib":"10+","altim":1008.2,"qcField":4,"wxString":"TS","metarType":"SPECI","rawOb":"SPECI KLAW 142214Z 13017KT 10SM TS FEW047 FEW080 BKN110 23/21 A2977 RMK AO2 LTG DSNT E-SW TSB08 T02330211","lat":34.5577,"lon":-98.4172,"elev":328,"name":"Lawton-Fort Sill Rgnl, OK, US","cover":"BKN","clouds":[{"cover":"FEW","base":4700},{"cover":"FEW","base":8000},{"cover":"BKN","base":11000}],"fltCat":"VFR"},{"icaoId":"KSPS","receiptTime":"2026-04-14T22:18:16.824Z","obsTime":1776204840,"reportTime":"2026-04-14T22:14:00.000Z","temp":26.1,"dewp":20,"wdir":170,"wspd":15,"wgst":23,"visib":"10+","altim":1010.6,"qcField":4,"metarType":"SPECI","rawOb":"SPECI KSPS 142214Z 17015G23KT 10SM SCT032 BKN044 OVC060 26/20 A2984 RMK AO2 PK WND 16028/2157 LTG DSNT W-NE T02610200","lat":33.9785,"lon":-98.493,"elev":310,"name":"Wichita Falls Rgnl, TX, US","cover":"OVC","clouds":[{"cover":"SCT","base":3200},{"cover":"BKN","base":4400},{"cover":"OVC","base":6000}],"fltCat":"VFR"},{"icaoId":"KHDN","receiptTime":"2026-04-14T22:14:11.743Z","obsTime":1776204720,"reportTime":"2026-04-14T22:12:00.000Z","temp":3,"dewp":1,"wdir":260,"wspd":11,"visib":"10+","altim":1015.3,"qcField":6,"metarType":"SPECI","rawOb":"SPECI KHDN 142212Z AUTO 26011KT 10SM SCT026 BKN036 OVC045 03/01 A2998 RMK AO2","lat":40.4842,"lon":-107.2296,"elev":2012,"name":"Hayden/Yampa Valley Arpt, CO, US","cover":"OVC","clouds":[{"cover":"SCT","base":2600},{"cover":"BKN","base":3600},{"cover":"OVC","base":4500}],"fltCat":"VFR"},{"icaoId":"KABI","receiptTime":"2026-04-14T22:12:07.127Z","obsTime":1776204540,"reportTime":"2026-04-14T22:09:00.000Z","temp":24.4,"dewp":18.9,"wdir":170,"wspd":17,"wgst":26,"visib":"10+","altim":1011.9,"qcField":4,"metarType":"SPECI","rawOb":"SPECI KABI 142209Z 17017G26KT 10SM SCT029 SCT034 24/19 A2988 RMK AO2 PK WND 17026/2158 T02440189","lat":32.4106,"lon":-99.6821,"elev":543,"name":"Abilene Rgnl, TX, US","cover":"SCT","clouds":[{"cover":"SCT","base":2900},{"cover":"SCT","base":3400}],"fltCat":"VFR"},{"icaoId":"KTUL","receiptTime":"2026-04-14T22:12:05.954Z","obsTime":1776204480,"reportTime":"2026-04-14T22:08:00.000Z","temp":25.6,"dewp":19.4,"wdir":180,"wspd":20,"wgst":28,"visib":"10+","altim":1010.9,"qcField":4,"metarType":"SPECI","rawOb":"SPECI KTUL 142208Z 18020G28KT 10SM BKN029 BKN040 OVC047 26/19 A2985 RMK AO2 PK WND 18028/2205 T02560194","lat":36.1985,"lon":-95.8782,"elev":196,"name":"Tulsa Intl Arpt, OK, US","cover":"OVC","clouds":[{"cover":"BKN","base":2900},{"cover":"BKN","base":4000},{"cover":"OVC","base":4700}],"fltCat":"MVFR"},{"icaoId":"KMLC","receiptTime":"2026-04-14T22:12:05.931Z","obsTime":1776204480,"reportTime":"2026-04-14T22:08:00.000Z","temp":24.4,"dewp":19.4,"wdir":190,"wspd":8,"wgst":20,"visib":"10+","altim":1013.3,"qcField":6,"metarType":"SPECI","rawOb":"SPECI KMLC 142208Z AUTO 19008G20KT 150V220 10SM BKN024 BKN040 OVC055 24/19 A2992 RMK AO2 T02440194","lat":34.8824,"lon":-95.7815,"elev":231,"name":"McAlester Rgnl, OK, US","cover":"OVC","clouds":[{"cover":"BKN","base":2400},{"cover":"BKN","base":4000},{"cover":"OVC","base":5500}],"fltCat":"MVFR"},{"icaoId":"KCYS","receiptTime":"2026-04-14T22:10:11.109Z","obsTime":1776204420,"reportTime":"2026-04-14T22:07:00.000Z","temp":6.1,"dewp":0,"wdir":260,"wspd":32,"wgst":43,"visib":"10+","altim":1011.9,"qcField":4,"metarType":"SPECI","rawOb":"SPECI KCYS 142207Z 26032G43KT 10SM BKN065 OVC080 06/00 A2988 RMK AO2 PK WND 26043/2203 WSHFT 2147 T00610000","lat":41.1579,"lon":-104.8081,"elev":1868,"name":"Cheyenne Rgnl, WY, US","cover":"OVC","clouds":[{"cover":"BKN","base":6500},{"cover":"OVC","base":8000}],"fltCat":"VFR"},{"icaoId":"KNYL","receiptTime":"2026-04-14T22:00:42.197Z","obsTime":1776203820,"reportTime":"2026-04-14T22:00:00.000Z","temp":26.1,"dewp":2.2,"wdir":240,"wspd":9,"wgst":16,"visib":"10+","altim":1014.6,"slp":1014.2,"qcField":4,"metarType":"METAR","rawOb":"METAR KNYL 142157Z 24009G16KT 10SM CLR 26/02 A2996 RMK AO2 SLP142 T02610022","lat":32.66,"lon":-114.6078,"elev":58,"name":"Yuma , AZ, US","cover":"CLR","clouds":[],"fltCat":"VFR"},{"icaoId":"KNFL","receiptTime":"2026-04-14T22:00:42.182Z","obsTime":1776203820,"reportTime":"2026-04-14T22:00:00.000Z","temp":17.8,"dewp":-6.7,"wdir":260,"wspd":6,"visib":"10+","altim":1016.7,"slp":1013.6,"qcField":4,"metarType":"METAR","rawOb":"METAR KNFL 142157Z 26006KT 10SM FEW050 FEW200 SCT250 18/M07 A3002 RMK AO2 SLP136 T01781067","lat":39.417,"lon":-118.705,"elev":1199,"name":"Fallon , NV, US","cover":"SCT","clouds":[{"cover":"FEW","base":5000},{"cover":"FEW","base":20000},{"cover":"SCT","base":25000}],"fltCat":"VFR"},{"icaoId":"KFLG","receiptTime":"2026-04-14T22:00:44.715Z","obsTime":1776203820,"reportTime":"2026-04-14T22:00:00.000Z","temp":8.9,"dewp":-3.9,"wdir":320,"wspd":7,"wgst":17,"visib":"10+","altim":1018.7,"slp":1014.5,"qcField":4,"metarType":"METAR","rawOb":"METAR KFLG 142157Z 32007G17KT 10SM BKN049 09/M04 A3008 RMK AO2 SLP145 T00891039","lat":35.1443,"lon":-111.6664,"elev":2134,"name":"Flagstaff/Pulliam Arpt, AZ, US","cover":"BKN","clouds":[{"cover":"BKN","base":4900}],"fltCat":"VFR"},{"icaoId":"KLAS","receiptTime":"2026-04-14T22:00:41.109Z","obsTime":1776203760,"reportTime":"2026-04-14T22:00:00.000Z","temp":22.8,"dewp":-2.2,"wdir":"VRB","wspd":3,"visib":"10+","altim":1015.3,"slp":1013.8,"qcField":4,"metarType":"METAR","rawOb":"METAR KLAS 142156Z VRB03KT 10SM FEW085 23/M02 A2998 RMK AO2 SLP138 T02281022","lat":36.0719,"lon":-115.1634,"elev":662,"name":"Las Vegas/Reid Intl, NV, US","cover":"FEW","clouds":[{"cover":"FEW","base":8500}],"fltCat":"VFR"},{"icaoId":"KFNL","receiptTime":"2026-04-14T21:59:08.868Z","obsTime":1776203760,"reportTime":"2026-04-14T22:00:00.000Z","temp":13.9,"dewp":-2.2,"wdir":230,"wspd":14,"visib":"10+","altim":1010.9,"slp":1007.3,"qcField":12,"metarType":"METAR","rawOb":"METAR KFNL 142156Z 23014KT 10SM CLR 14/M02 A2985 RMK AO2 SLP073 T01391022 $","lat":40.4427,"lon":-105.0097,"elev":1529,"name":"Fort Collins/N Colorado Rgnl, CO, US","cover":"CLR","clouds":[],"fltCat":"VFR"},{"icaoId":"KSDY","receiptTime":"2026-04-14T21:59:12.961Z","obsTime":1776203760,"reportTime":"2026-04-14T22:00:00.000Z","temp":20,"dewp":2.8,"wdir":250,"wspd":14,"wgst":20,"visib":"10+","altim":1004.5,"slp":1004.8,"qcField":14,"metarType":"METAR","rawOb":"METAR KSDY 142156Z AUTO 25014G20KT 10SM BKN075 20/03 A2966 RMK AO2 SLP048 T02000028 $","lat":47.7029,"lon":-104.1951,"elev":600,"name":"Sidney/Richland Muni, MT, US","cover":"BKN","clouds":[{"cover":"BKN","base":7500}],"fltCat":"VFR"},{"icaoId":"KUKI","receiptTime":"2026-04-14T22:00:35.140Z","obsTime":1776203760,"reportTime":"2026-04-14T22:00:00.000Z","temp":19.4,"dewp":8.3,"wdir":340,"wspd":7,"visib":"10+","altim":1020.4,"slp":1020,"qcField":6,"metarType":"METAR","rawOb":"METAR KUKI 142156Z AUTO 34007KT 310V020 10SM FEW042 19/08 A3013 RMK AO2 SLP200 T01940083","lat":39.1278,"lon":-123.2001,"elev":183,"name":"Ukiah Muni, CA, US","cover":"FEW","clouds":[{"cover":"FEW","base":4200}],"fltCat":"VFR"},{"icaoId":"KENV","receiptTime":"2026-04-14T21:59:16.412Z","obsTime":1776203760,"reportTime":"2026-04-14T22:00:00.000Z","temp":15,"dewp":-5.6,"wdir":"VRB","wspd":3,"visib":"10+","altim":1015.7,"slp":1015.2,"qcField":6,"metarType":"METAR","rawOb":"METAR KENV 142156Z AUTO VRB03KT 10SM BKN090 15/M06 A2999 RMK AO2 SLP152 T01501056","lat":40.7211,"lon":-114.0312,"elev":1291,"name":"Wendover Arpt, UT, US","cover":"BKN","clouds":[{"cover":"BKN","base":9000}],"fltCat":"VFR"},{"icaoId":"KTPH","receiptTime":"2026-04-14T22:00:35.116Z","obsTime":1776203760,"reportTime":"2026-04-14T22:00:00.000Z","temp":16.1,"dewp":-8.9,"wdir":330,"wspd":8,"wgst":19,"visib":"10+","altim":1018,"slp":1015.9,"qcField":6,"metarType":"METAR","rawOb":"METAR KTPH 142156Z AUTO 33008G19KT 290V350 10SM CLR 16/M09 A3006 RMK AO2 PK WND 31026/2139 SLP159 T01611089","lat":38.0505,"lon":-117.0906,"elev":1647,"name":"Tonopah Arpt, NV, US","cover":"CLR","clouds":[],"fltCat":"VFR"},{"icaoId":"KBZN","receiptTime":"2026-04-14T22:00:41.013Z","obsTime":1776203760,"reportTime":"2026-04-14T22:00:00.000Z","temp":13.9,"dewp":-5.6,"wdir":270,"wspd":10,"wgst":18,"visib":"10+","altim":1008.2,"slp":1007.3,"qcField":4,"metarType":"METAR","rawOb":"METAR KBZN 142156Z 27010G18KT 10SM BKN090 14/M06 A2977 RMK AO2 PK WND 24027/2105 SLP073 T01391056","lat":45.7876,"lon":-111.1615,"elev":1349,"name":"Bozeman/Gallatin Fld, MT, US","cover":"BKN","clouds":[{"cover":"BKN","base":9000}],"fltCat":"VFR"},{"icaoId":"KCOD","receiptTime":"2026-04-14T21:59:21.208Z","obsTime":1776203760,"reportTime":"2026-04-14T22:00:00.000Z","temp":15.6,"dewp":-8.3,"wdir":270,"wspd":15,"wgst":24,"visib":"10+","altim":1008.5,"slp":1006.5,"qcField":14,"metarType":"METAR","rawOb":"METAR KCOD 142156Z AUTO 27015G24KT 10SM CLR 16/M08 A2978 RMK AO2 SLP065 T01561083 $","lat":44.52,"lon":-109.0268,"elev":1550,"name":"Cody/Yellowstone Rgnl, WY, US","cover":"CLR","clouds":[],"fltCat":"VFR"},{"icaoId":"KCHS","receiptTime":"2026-04-14T22:00:25.246Z","obsTime":1776203760,"reportTime":"2026-04-14T22:00:00.000Z","temp":26.1,"dewp":13.9,"wdir":190,"wspd":13,"visib":"10+","altim":1021.1,"slp":1020.9,"qcField":4,"metarType":"METAR","rawOb":"METAR KCHS 142156Z 19013KT 10SM SCT250 26/14 A3015 RMK AO2 SLP209 T02610139","lat":32.8995,"lon":-80.0407,"elev":12,"name":"Charleston Intl, SC, US","cover":"SCT","clouds":[{"cover":"SCT","base":25000}],"fltCat":"VFR"},{"icaoId":"KSGU","receiptTime":"2026-04-14T21:59:13.098Z","obsTime":1776203760,"reportTime":"2026-04-14T22:00:00.000Z","temp":17.8,"dewp":3.9,"wdir":240,"wspd":6,"visib":"10+","altim":1016,"slp":1015,"qcField":6,"metarType":"METAR","rawOb":"METAR KSGU 142156Z AUTO 24006KT 10SM CLR 18/04 A3000 RMK AO2 SLP150 T01780039","lat":37.0444,"lon":-113.5034,"elev":877,"name":"Saint George Muni, UT, US","cover":"CLR","clouds":[],"fltCat":"VFR"},{"icaoId":"KGUC","receiptTime":"2026-04-14T21:59:17.093Z","obsTime":1776203760,"reportTime":"2026-04-14T22:00:00.000Z","temp":4.4,"dewp":-3.9,"wdir":230,"wspd":12,"wgst":17,"visib":"10+","altim":1015.7,"slp":1013.2,"qcField":14,"metarType":"METAR","rawOb":"METAR KGUC 142156Z AUTO 23012G17KT 190V280 10SM FEW034 BKN042 BKN050 04/M04 A2999 RMK AO2 PK WND 28032/2109 SLP132 T00441039 $","lat":38.5322,"lon":-106.9419,"elev":2337,"name":"Gunnison Arpt, CO, US","cover":"BKN","clouds":[{"cover":"FEW","base":3400},{"cover":"BKN","base":4200},{"cover":"BKN","base":5000}],"fltCat":"VFR"},{"icaoId":"KSFO","receiptTime":"2026-04-14T22:00:41.288Z","obsTime":1776203760,"reportTime":"2026-04-14T22:00:00.000Z","temp":15.6,"dewp":7.2,"wdir":280,"wspd":15,"wgst":25,"visib":"10+","altim":1022.4,"slp":1022.4,"qcField":12,"metarType":"METAR","rawOb":"METAR KSFO 142156Z 28015G25KT 10SM FEW024 BKN027 16/07 A3019 RMK AO2 SLP224 T01560072 $","lat":37.6196,"lon":-122.3656,"elev":2,"name":"San Francisco Intl, CA, US","cover":"BKN","clouds":[{"cover":"FEW","base":2400},{"cover":"BKN","base":2700}],"fltCat":"MVFR"},{"icaoId":"KEKO","receiptTime":"2026-04-14T22:00:41.043Z","obsTime":1776203760,"reportTime":"2026-04-14T22:00:00.000Z","temp":13.3,"dewp":-4.4,"wdir":290,"wspd":9,"wgst":19,"visib":"10+","altim":1016.3,"slp":1015.9,"qcField":6,"metarType":"METAR","rawOb":"METAR KEKO 142156Z AUTO 29009G19KT 10SM BKN075 13/M04 A3001 RMK AO2 SLP159 T01331044","lat":40.824,"lon":-115.7863,"elev":1541,"name":"Elko Rgnl, NV, US","cover":"BKN","clouds":[{"cover":"BKN","base":7500}],"fltCat":"VFR"},{"icaoId":"KCEC","receiptTime":"2026-04-14T22:00:40.902Z","obsTime":1776203760,"reportTime":"2026-04-14T22:00:00.000Z","temp":12.8,"dewp":5,"wdir":230,"wspd":7,"visib":"10+","altim":1024.1,"slp":1024,"qcField":6,"metarType":"METAR","rawOb":"METAR KCEC 142156Z AUTO 23007KT 10SM FEW046 13/05 A3024 RMK AO2 SLP240 T01280050","lat":41.7836,"lon":-124.238,"elev":17,"name":"Crescent City/McNama, CA, US","cover":"FEW","clouds":[{"cover":"FEW","base":4600}],"fltCat":"VFR"},{"icaoId":"KCOE","receiptTime":"2026-04-14T21:59:21.241Z","obsTime":1776203760,"reportTime":"2026-04-14T22:00:00.000Z","temp":8.3,"dewp":0.6,"wdir":210,"wspd":15,"wgst":19,"visib":"10+","altim":1012.3,"slp":1014.7,"qcField":14,"metarType":"METAR","rawOb":"METAR KCOE 142156Z AUTO 21015G19KT 10SM FEW041 SCT065 OVC080 08/01 A2989 RMK AO2 SLP147 T00830006 PNO $","lat":47.7719,"lon":-116.8332,"elev":693,"name":"Coeur DAlene Arpt, ID, US","cover":"OVC","clouds":[{"cover":"FEW","base":4100},{"cover":"SCT","base":6500},{"cover":"OVC","base":8000}],"fltCat":"VFR"},{"icaoId":"KPWT","receiptTime":"2026-04-14T21:58:55.792Z","obsTime":1776203760,"reportTime":"2026-04-14T22:00:00.000Z","temp":7.2,"dewp":7.2,"wdir":210,"wspd":14,"wgst":25,"visib":"10+","altim":1011.6,"slp":1012.2,"qcField":14,"wxString":"-RA","metarType":"METAR","rawOb":"METAR KPWT 142156Z AUTO 21014G25KT 10SM -RA BKN009 OVC013 07/07 A2987 RMK AO2 CIG 006V011 SLP122 T00720072 PNO $","lat":47.4942,"lon":-122.7594,"elev":143,"name":"Bremerton Arpt, WA, US","cover":"OVC","clouds":[{"cover":"BKN","base":900},{"cover":"OVC","base":1300}],"fltCat":"IFR"},{"icaoId":"KPVU","receiptTime":"2026-04-14T21:58:58.974Z","obsTime":1776203760,"reportTime":"2026-04-14T22:00:00.000Z","temp":13.9,"dewp":-1.7,"wdir":320,"wspd":14,"visib":"10+","altim":1016,"slp":1014.5,"qcField":4,"metarType":"METAR","rawOb":"METAR KPVU 142156Z 32014KT 10SM BKN060 14/M02 A3000 RMK AO2 SLP145 T01391017","lat":40.224,"lon":-111.7252,"elev":1370,"name":"Provo Muni, UT, US","cover":"BKN","clouds":[{"cover":"BKN","base":6000}],"fltCat":"VFR"},{"icaoId":"KIND","receiptTime":"2026-04-14T22:00:41.336Z","obsTime":1776203760,"reportTime":"2026-04-14T21:56:00.000Z","temp":25,"dewp":18.9,"wdir":200,"wspd":15,"wgst":20,"visib":"10+","altim":1011.9,"qcField":4,"metarType":"SPECI","rawOb":"SPECI KIND 142156Z 20015G20KT 10SM FEW049 FEW090 BKN110 25/19 A2988 RMK AO2 T02500189","lat":39.7252,"lon":-86.2816,"elev":242,"name":"Indianapolis Intl, IN, US","cover":"BKN","clouds":[{"cover":"FEW","base":4900},{"cover":"FEW","base":9000},{"cover":"BKN","base":11000}],"fltCat":"VFR"},{"icaoId":"KINW","receiptTime":"2026-04-14T22:00:41.229Z","obsTime":1776203760,"reportTime":"2026-04-14T22:00:00.000Z","temp":16.1,"dewp":-2.8,"wdir":280,"wspd":12,"wgst":22,"visib":"10+","altim":1016.7,"slp":1013.3,"qcField":6,"metarType":"METAR","rawOb":"METAR KINW 142156Z AUTO 28012G22KT 10SM FEW070 BKN085 16/M03 A3002 RMK AO2 SLP133 T01611028","lat":35.0279,"lon":-110.7221,"elev":1492,"name":"Winslow/Lindberg Rgnl, AZ, US","cover":"BKN","clouds":[{"cover":"FEW","base":7000},{"cover":"BKN","base":8500}],"fltCat":"VFR"},{"icaoId":"KSDF","receiptTime":"2026-04-14T22:00:40.251Z","obsTime":1776203760,"reportTime":"2026-04-14T22:00:00.000Z","temp":28.3,"dewp":16.7,"wdir":200,"wspd":15,"wgst":26,"visib":"10+","altim":1014.6,"slp":1014,"qcField":4,"metarType":"METAR","rawOb":"METAR KSDF 142156Z 20015G26KT 10SM BKN050 28/17 A2996 RMK AO2 PK WND 22026/2148 SLP140 T02830167","lat":38.1774,"lon":-85.7308,"elev":146,"name":"Louisville Intl, KY, US","cover":"BKN","clouds":[{"cover":"BKN","base":5000}],"fltCat":"VFR"},{"icaoId":"KRDM","receiptTime":"2026-04-14T22:00:35.286Z","obsTime":1776203760,"reportTime":"2026-04-14T22:00:00.000Z","temp":8.9,"dewp":-2.8,"wdir":350,"wspd":6,"visib":"10+","altim":1015.3,"slp":1016.4,"qcField":4,"metarType":"METAR","rawOb":"METAR KRDM 142156Z 35006KT 10SM FEW120 09/M03 A2998 RMK AO2 SLP164 T00891028","lat":44.2558,"lon":-121.1407,"elev":930,"name":"Redmond Muni, OR, US","cover":"FEW","clouds":[{"cover":"FEW","base":12000}],"fltCat":"VFR"},{"icaoId":"KLWS","receiptTime":"2026-04-14T22:00:35.266Z","obsTime":1776203760,"reportTime":"2026-04-14T22:00:00.000Z","temp":13.3,"dewp":1.7,"wdir":320,"wspd":8,"visib":"10+","altim":1013,"slp":1012.9,"qcField":4,"metarType":"METAR","rawOb":"METAR KLWS 142156Z 32008KT 10SM BKN120 13/02 A2991 RMK AO2 SLP129 T01330017","lat":46.3746,"lon":-117.0153,"elev":435,"name":"Lewiston/Nez Perce Cnty, ID, US","cover":"BKN","clouds":[{"cover":"BKN","base":12000}],"fltCat":"VFR"},{"icaoId":"KSLE","receiptTime":"2026-04-14T22:00:35.092Z","obsTime":1776203760,"reportTime":"2026-04-14T22:00:00.000Z","temp":10,"dewp":6.1,"wdir":180,"wspd":14,"wgst":22,"visib":"10+","altim":1018,"slp":1017.9,"qcField":4,"precip":0.01,"metarType":"METAR","rawOb":"METAR KSLE 142156Z 18014G22KT 10SM FEW025 SCT037 OVC070 10/06 A3006 RMK AO2 PK WND 20026/2141 RAE44 SLP179 P0001 T01000061","lat":44.9049,"lon":-123.001,"elev":63,"name":"Salem Muni, OR, US","cover":"OVC","clouds":[{"cover":"FEW","base":2500},{"cover":"SCT","base":3700},{"cover":"OVC","base":7000}],"fltCat":"VFR"},{"icaoId":"KSBP","receiptTime":"2026-04-14T22:00:41.248Z","obsTime":1776203760,"reportTime":"2026-04-14T22:00:00.000Z","temp":18.9,"dewp":10,"wdir":320,"wspd":21,"visib":"10+","altim":1018.7,"slp":1018.7,"qcField":4,"metarType":"METAR","rawOb":"METAR KSBP 142156Z 32021KT 10SM CLR 19/10 A3008 RMK AO2 PK WND 30029/2146 SLP187 T01890100","lat":35.2381,"lon":-120.644,"elev":52,"name":"San Luis Obispo/San Luis Cnty, CA, US","cover":"CLR","clouds":[],"fltCat":"VFR"},{"icaoId":"KJAX","receiptTime":"2026-04-14T22:00:40.510Z","obsTime":1776203760,"reportTime":"2026-04-14T22:00:00.000Z","temp":26.7,"dewp":12.8,"wdir":110,"wspd":11,"visib":"10+","altim":1021.1,"slp":1021.1,"qcField":12,"metarType":"METAR","rawOb":"METAR KJAX 142156Z 11011KT 10SM FEW060 FEW250 27/13 A3015 RMK AO2 SLP211 T02670128 $","lat":30.4953,"lon":-81.6937,"elev":8,"name":"Jacksonville Intl, FL, US","cover":"FEW","clouds":[{"cover":"FEW","base":6000},{"cover":"FEW","base":25000}],"fltCat":"VFR"},{"icaoId":"KDUG","receiptTime":"2026-04-14T22:02:09.827Z","obsTime":1776203760,"reportTime":"2026-04-14T22:00:00.000Z","temp":25,"dewp":-7.2,"wdir":260,"wspd":15,"wgst":33,"visib":"10+","altim":1014.6,"slp":1008.8,"qcField":38,"metarType":"METAR","rawOb":"METAR KDUG 142156Z AUTO 26015G33KT 10SM FEW120 25/M07 A2996 RMK AO2 PK WND 22033/2153 SLP088 T02501072 TSNO","lat":31.4725,"lon":-109.6022,"elev":1260,"name":"Douglas/Bisbee Intl, AZ, US","cover":"FEW","clouds":[{"cover":"FEW","base":12000}],"fltCat":"VFR"},{"icaoId":"KVIS","receiptTime":"2026-04-14T21:58:59.336Z","obsTime":1776203760,"reportTime":"2026-04-14T22:00:00.000Z","temp":22.2,"dewp":7.8,"wdir":300,"wspd":6,"visib":"10+","altim":1019.7,"slp":1019.5,"qcField":14,"metarType":"METAR","rawOb":"METAR KVIS 142156Z AUTO 30006KT 10SM CLR 22/08 A3011 RMK AO2 SLP195 T02220078 PNO $","lat":36.3135,"lon":-119.3884,"elev":92,"name":"Visalia Muni, CA, US","cover":"CLR","clouds":[],"fltCat":"VFR"},{"icaoId":"KCGZ","receiptTime":"2026-04-14T21:59:20.843Z","obsTime":1776203760,"reportTime":"2026-04-14T22:00:00.000Z","temp":23.3,"dewp":-3.3,"wdir":240,"wspd":5,"visib":"10+","altim":1015.3,"slp":1014.2,"qcField":14,"metarType":"METAR","rawOb":"METAR KCGZ 142156Z AUTO 24005KT 10SM CLR 23/M03 A2998 RMK AO2 SLP142 T02331033 $","lat":32.9531,"lon":-111.7725,"elev":444,"name":"Casa Granda Muni, AZ, US","cover":"CLR","clouds":[],"fltCat":"VFR"},{"icaoId":"KJAC","receiptTime":"2026-04-14T21:59:15.160Z","obsTime":1776203760,"reportTime":"2026-04-14T22:00:00.000Z","temp":5.6,"dewp":-3.3,"wdir":230,"wspd":14,"visib":"10+","altim":1014.6,"slp":1016.1,"qcField":4,"metarType":"METAR","rawOb":"METAR KJAC 142156Z 23014KT 10SM FEW038 SCT047 BKN060 06/M03 A2996 RMK AO2 SLP161 T00561033","lat":43.6129,"lon":-110.7366,"elev":1967,"name":"Jackson Hole Arpt, WY, US","cover":"BKN","clouds":[{"cover":"FEW","base":3800},{"cover":"SCT","base":4700},{"cover":"BKN","base":6000}],"fltCat":"VFR"},{"icaoId":"KHND","receiptTime":"2026-04-14T21:59:17.980Z","obsTime":1776203760,"reportTime":"2026-04-14T22:00:00.000Z","temp":22.8,"dewp":-2.8,"wdir":230,"wspd":7,"visib":4,"altim":1016,"slp":1016.2,"qcField":12,"wxString":"HZ","metarType":"METAR","rawOb":"METAR KHND 142156Z 23007KT 4SM HZ CLR 23/M03 A3000 RMK AO2 SLP162 T02281028 $","lat":35.9657,"lon":-115.1343,"elev":740,"name":"Henderson Exec, NV, US","cover":"CLR","clouds":[],"fltCat":"MVFR"},{"icaoId":"KGPI","receiptTime":"2026-04-14T21:59:10.431Z","obsTime":1776203700,"reportTime":"2026-04-14T22:00:00.000Z","temp":10,"dewp":-4.4,"wdir":240,"wspd":12,"wgst":21,"visib":"10+","altim":1008.5,"slp":1009.1,"qcField":4,"metarType":"METAR","rawOb":"METAR KGPI 142155Z 24012G21KT 10SM BKN065 10/M04 A2978 RMK AO2 PK WND 21026/2059 SLP091 T01001044","lat":48.3041,"lon":-114.2643,"elev":903,"name":"Kalispell/Glacier Park Intl, MT, US","cover":"BKN","clouds":[{"cover":"BKN","base":6500}],"fltCat":"VFR"},{"icaoId":"KCMA","receiptTime":"2026-04-14T21:59:21.160Z","obsTime":1776203700,"reportTime":"2026-04-14T22:00:00.000Z","temp":20,"dewp":9.4,"wdir":240,"wspd":9,"visib":"10+","altim":1018.4,"slp":1018.9,"qcField":4,"metarType":"METAR","rawOb":"METAR KCMA 142155Z 24009KT 10SM CLR 20/09 A3007 RMK AO2 SLP189 T02000094","lat":34.2114,"lon":-119.0876,"elev":20,"name":"Camarillo Arpt, CA, US","cover":"CLR","clouds":[],"fltCat":"VFR"},{"icaoId":"KSUN","receiptTime":"2026-04-14T21:59:46.678Z","obsTime":1776203700,"reportTime":"2026-04-14T22:00:00.000Z","temp":12,"dewp":-3,"wdir":200,"wspd":10,"wgst":20,"visib":"10+","altim":1014.3,"qcField":0,"metarType":"METAR","rawOb":"METAR KSUN 142155Z 20010G20KT 10SM SCT065 12/M03 A2995","lat":43.4969,"lon":-114.2923,"elev":1619,"name":"Hailey/Friedman Mem, ID, US","cover":"SCT","clouds":[{"cover":"SCT","base":6500}],"fltCat":"VFR"},{"icaoId":"KRNO","receiptTime":"2026-04-14T21:59:11.873Z","obsTime":1776203700,"reportTime":"2026-04-14T22:00:00.000Z","temp":16.7,"dewp":-6.1,"wdir":310,"wspd":16,"wgst":25,"visib":"10+","altim":1017.7,"slp":1015.5,"qcField":4,"metarType":"METAR","rawOb":"METAR KRNO 142155Z 31016G25KT 10SM FEW060 17/M06 A3005 RMK AO2 SLP155 T01671061","lat":39.5077,"lon":-119.7683,"elev":1344,"name":"Reno/Tahoe Intl, NV, US","cover":"FEW","clouds":[{"cover":"FEW","base":6000}],"fltCat":"VFR"},{"icaoId":"KLUF","receiptTime":"2026-04-14T22:06:06.099Z","obsTime":1776203700,"reportTime":"2026-04-14T22:00:00.000Z","temp":24.3,"dewp":-0.8,"wdir":0,"wspd":0,"visib":"10+","altim":1014,"slp":1013.2,"qcField":12,"metarType":"METAR","rawOb":"METAR KLUF 142155Z 00000KT 10SM CLR 24/M01 A2994 RMK AO2A SLP132 T02431008 $","lat":33.538,"lon":-112.38,"elev":333,"name":"Phoenix/Luke AFB, AZ, US","cover":"CLR","clouds":[],"fltCat":"VFR"},{"icaoId":"KEND","receiptTime":"2026-04-14T22:18:07.276Z","obsTime":1776203700,"reportTime":"2026-04-14T22:00:00.000Z","temp":28.1,"dewp":20.1,"wdir":170,"wspd":17,"visib":"10+","altim":1006.9,"slp":1005.5,"qcField":14,"metarType":"METAR","rawOb":"METAR KEND 142155Z AUTO 17017KT 10SM FEW160 FEW200 28/20 A2973 RMK AO2 PK WND 18028/15 SLP055 T02810201 $","lat":36.338,"lon":-97.919,"elev":392,"name":"Enid/Vance AFB, OK, US","cover":"FEW","clouds":[{"cover":"FEW","base":16000},{"cover":"FEW","base":20000}],"fltCat":"VFR"},{"icaoId":"KMEM","receiptTime":"2026-04-14T21:58:13.964Z","obsTime":1776203640,"reportTime":"2026-04-14T22:00:00.000Z","temp":27.8,"dewp":15,"wdir":190,"wspd":14,"visib":"10+","altim":1016.7,"slp":1016,"qcField":12,"metarType":"METAR","rawOb":"METAR KMEM 142154Z 19014KT 10SM FEW050 BKN250 28/15 A3002 RMK AO2 SLP160 T02780150 $","lat":35.0564,"lon":-89.9864,"elev":78,"name":"Memphis Intl, TN, US","cover":"BKN","clouds":[{"cover":"FEW","base":5000},{"cover":"BKN","base":25000}],"fltCat":"VFR"},{"icaoId":"KOLS","receiptTime":"2026-04-14T21:58:14.329Z","obsTime":1776203640,"reportTime":"2026-04-14T22:00:00.000Z","temp":22.8,"dewp":-2.8,"wdir":270,"wspd":9,"wgst":23,"visib":"10+","altim":1016,"slp":1011.2,"qcField":6,"metarType":"METAR","rawOb":"METAR KOLS 142154Z AUTO 27009G23KT 10SM CLR 23/M03 A3000 RMK AO2 SLP112 T02281028","lat":31.4208,"lon":-110.8465,"elev":1194,"name":"Nogales Intl, AZ, US","cover":"CLR","clouds":[],"fltCat":"VFR"},{"icaoId":"KBFL","receiptTime":"2026-04-14T21:58:14.233Z","obsTime":1776203640,"reportTime":"2026-04-14T22:00:00.000Z","temp":22.2,"dewp":5.6,"wdir":310,"wspd":10,"wgst":18,"visib":"10+","altim":1019,"slp":1018.5,"qcField":4,"metarType":"METAR","rawOb":"METAR KBFL 142154Z 31010G18KT 10SM CLR 22/06 A3009 RMK AO2 SLP185 T02220056","lat":35.4342,"lon":-119.0552,"elev":146,"name":"Bakersfield/Meadows Arpt, CA, US","cover":"CLR","clouds":[],"fltCat":"VFR"},{"icaoId":"KSYR","receiptTime":"2026-04-14T21:58:14.508Z","obsTime":1776203640,"reportTime":"2026-04-14T22:00:00.000Z","temp":24.4,"dewp":15,"wdir":250,"wspd":12,"wgst":21,"visib":"10+","altim":1008.2,"slp":1007.6,"qcField":4,"metarType":"METAR","rawOb":"METAR KSYR 142154Z 25012G21KT 10SM FEW045 BKN075 BKN110 BKN200 24/15 A2977 RMK AO2 PK WND 25026/2137 SLP076 T02440150","lat":43.1111,"lon":-76.1038,"elev":125,"name":"Syracuse/Hancock Intl, NY, US","cover":"BKN","clouds":[{"cover":"FEW","base":4500},{"cover":"BKN","base":7500},{"cover":"BKN","base":11000},{"cover":"BKN","base":20000}],"fltCat":"VFR"},{"icaoId":"KBUF","receiptTime":"2026-04-14T21:58:38.585Z","obsTime":1776203640,"reportTime":"2026-04-14T22:00:00.000Z","temp":19.4,"dewp":13.9,"wdir":230,"wspd":10,"visib":"10+","altim":1010.9,"slp":1010.9,"qcField":4,"metarType":"METAR","rawOb":"METAR KBUF 142154Z 23010KT 10SM FEW040 FEW200 SCT270 19/14 A2985 RMK AO2 PK WND 24026/2103 SLP109 T01940139","lat":42.94,"lon":-78.7361,"elev":217,"name":"Buffalo-Niagara Intl, NY, US","cover":"SCT","clouds":[{"cover":"FEW","base":4000},{"cover":"FEW","base":20000},{"cover":"SCT","base":27000}],"fltCat":"VFR"},{"icaoId":"KGEU","receiptTime":"2026-04-14T21:56:45.272Z","obsTime":1776203640,"reportTime":"2026-04-14T22:00:00.000Z","temp":24,"dewp":-1,"wdir":"VRB","wspd":5,"visib":"10+","altim":1014,"qcField":0,"metarType":"METAR","rawOb":"METAR KGEU 142154Z VRB05KT 10SM CLR 24/M01 A2994","lat":33.528,"lon":-112.293,"elev":319,"name":"Glendale Muni, AZ, US","cover":"CLR","clouds":[],"fltCat":"VFR"},{"icaoId":"KBTV","receiptTime":"2026-04-14T21:58:38.487Z","obsTime":1776203640,"reportTime":"2026-04-14T22:00:00.000Z","temp":12.8,"dewp":11.7,"wdir":160,"wspd":3,"visib":"10+","altim":1007.5,"slp":1007.4,"qcField":4,"precip":0.04,"metarType":"METAR","rawOb":"METAR KBTV 142154Z 16003KT 10SM FEW005 BKN045 OVC055 13/12 A2975 RMK AO2 RAE18B23E43 SLP074 P0004 T01280117","lat":44.4682,"lon":-73.1499,"elev":101,"name":"Burlington Intl, VT, US","cover":"OVC","clouds":[{"cover":"FEW","base":500},{"cover":"BKN","base":4500},{"cover":"OVC","base":5500}],"fltCat":"VFR"},{"icaoId":"KBOS","receiptTime":"2026-04-14T21:58:38.395Z","obsTime":1776203640,"reportTime":"2026-04-14T22:00:00.000Z","temp":22.2,"dewp":12.8,"wdir":190,"wspd":20,"wgst":28,"visib":"10+","altim":1008.2,"slp":1008,"qcField":4,"metarType":"METAR","rawOb":"METAR KBOS 142154Z 19020G28KT 10SM FEW065 FEW100 BKN250 22/13 A2977 RMK AO2 PK WND 18031/2132 SLP080 T02220128","lat":42.3606,"lon":-71.0097,"elev":4,"name":"Boston/Logan Intl, MA, US","cover":"BKN","clouds":[{"cover":"FEW","base":6500},{"cover":"FEW","base":10000},{"cover":"BKN","base":25000}],"fltCat":"VFR"},{"icaoId":"KCOS","receiptTime":"2026-04-14T21:58:15.684Z","obsTime":1776203640,"reportTime":"2026-04-14T22:00:00.000Z","temp":17.2,"dewp":-9.4,"wdir":240,"wspd":28,"wgst":39,"visib":"10+","altim":1009.9,"slp":1004.4,"qcField":4,"metarType":"METAR","rawOb":"METAR KCOS 142154Z 24028G39KT 10SM FEW060 SCT090 BKN120 17/M09 A2982 RMK AO2 PK WND 24041/2143 SLP044 VIRGA ALQDS VCSH W T01721094","lat":38.8095,"lon":-104.6887,"elev":1886,"name":"Colorado Spring Arpt, CO, US","cover":"BKN","clouds":[{"cover":"FEW","base":6000},{"cover":"SCT","base":9000},{"cover":"BKN","base":12000}],"fltCat":"VFR"},{"icaoId":"KFFZ","receiptTime":"2026-04-14T21:58:08.298Z","obsTime":1776203640,"reportTime":"2026-04-14T22:00:00.000Z","temp":23.3,"dewp":-2.8,"wdir":250,"wspd":7,"visib":"10+","altim":1014.3,"slp":1012.6,"qcField":4,"metarType":"METAR","rawOb":"METAR KFFZ 142154Z 25007KT 10SM CLR 23/M03 A2995 RMK AO2 SLP126 T02331028","lat":33.4659,"lon":-111.7212,"elev":420,"name":"Mesa/Falcon Fld, AZ, US","cover":"CLR","clouds":[],"fltCat":"VFR"},{"icaoId":"KGSO","receiptTime":"2026-04-14T21:58:38.995Z","obsTime":1776203640,"reportTime":"2026-04-14T22:00:00.000Z","temp":27.8,"dewp":9.4,"wdir":260,"wspd":8,"visib":"10+","altim":1018.4,"slp":1017.3,"qcField":4,"metarType":"METAR","rawOb":"METAR KGSO 142154Z 26008KT 10SM FEW120 OVC250 28/09 A3007 RMK AO2 PK WND 23026/2113 SLP173 T02780094","lat":36.0969,"lon":-79.9432,"elev":275,"name":"Greensboro Intl, NC, US","cover":"OVC","clouds":[{"cover":"FEW","base":12000},{"cover":"OVC","base":25000}],"fltCat":"VFR"},{"icaoId":"KAPC","receiptTime":"2026-04-14T21:58:14.217Z","obsTime":1776203640,"reportTime":"2026-04-14T22:00:00.000Z","temp":17.8,"dewp":9.4,"wdir":250,"wspd":9,"visib":"10+","altim":1021.4,"slp":1020.3,"qcField":4,"metarType":"METAR","rawOb":"METAR KAPC 142154Z 25009KT 10SM FEW034 18/09 A3016 RMK AO2 SLP203 T01780094","lat":38.2075,"lon":-122.2804,"elev":5,"name":"Napa Cnty Arpt, CA, US","cover":"FEW","clouds":[{"cover":"FEW","base":3400}],"fltCat":"VFR"},{"icaoId":"KEUG","receiptTime":"2026-04-14T21:58:14.251Z","obsTime":1776203640,"reportTime":"2026-04-14T22:00:00.000Z","temp":11.1,"dewp":6.1,"wdir":190,"wspd":11,"visib":"10+","altim":1020.1,"slp":1020.1,"qcField":4,"precip":0.005,"metarType":"METAR","rawOb":"METAR KEUG 142154Z 19011KT 10SM FEW012 BKN031 OVC048 11/06 A3012 RMK AO2 RAB32E47 SLP201 P0000 T01110061","lat":44.1331,"lon":-123.2156,"elev":109,"name":"Eugene/Mahlon Sweet Fld, OR, US","cover":"OVC","clouds":[{"cover":"FEW","base":1200},{"cover":"BKN","base":3100},{"cover":"OVC","base":4800}],"fltCat":"VFR"},{"icaoId":"KPHL","receiptTime":"2026-04-14T21:58:14.589Z","obsTime":1776203640,"reportTime":"2026-04-14T22:00:00.000Z","temp":30,"dewp":12.2,"wdir":220,"wspd":14,"visib":"10+","altim":1011.6,"slp":1011.4,"qcField":12,"metarType":"METAR","rawOb":"METAR KPHL 142154Z 22014KT 10SM FEW065 FEW100 SCT240 SCT330 30/12 A2987 RMK AO2 PK WND 24026/2138 SLP114 T03000122 $","lat":39.8733,"lon":-75.2268,"elev":2,"name":"Philadelphia Intl, PA, US","cover":"SCT","clouds":[{"cover":"FEW","base":6500},{"cover":"FEW","base":10000},{"cover":"SCT","base":24000},{"cover":"SCT","base":33000}],"fltCat":"VFR"},{"icaoId":"KDSM","receiptTime":"2026-04-14T21:58:15.735Z","obsTime":1776203640,"reportTime":"2026-04-14T22:00:00.000Z","temp":30,"dewp":12.8,"wdir":230,"wspd":22,"wgst":34,"visib":"10+","altim":1002.1,"slp":1001.3,"qcField":4,"metarType":"METAR","rawOb":"METAR KDSM 142154Z 23022G34KT 10SM FEW045 FEW090 OVC250 30/13 A2959 RMK AO2 PK WND 24035/2136 SLP013 CB DSNT N-SE MOV NE T03000128","lat":41.5339,"lon":-93.6531,"elev":286,"name":"Des Moines Intl, IA, US","cover":"OVC","clouds":[{"cover":"FEW","base":4500},{"cover":"FEW","base":9000},{"cover":"OVC","base":25000}],"fltCat":"VFR"},{"icaoId":"KGCN","receiptTime":"2026-04-14T21:58:14.266Z","obsTime":1776203640,"reportTime":"2026-04-14T22:00:00.000Z","temp":9.4,"dewp":-2.8,"wdir":"VRB","wspd":4,"wgst":14,"visib":"10+","altim":1018.7,"slp":1015.5,"qcField":4,"metarType":"METAR","rawOb":"METAR KGCN 142154Z VRB04G14KT 10SM SCT055 BKN070 09/M03 A3008 RMK AO2 SLP155 T00941028","lat":35.9458,"lon":-112.1554,"elev":1993,"name":"Grand Canyon Park Arpt, AZ, US","cover":"BKN","clouds":[{"cover":"SCT","base":5500},{"cover":"BKN","base":7000}],"fltCat":"VFR"},{"icaoId":"KOLM","receiptTime":"2026-04-14T21:58:14.315Z","obsTime":1776203640,"reportTime":"2026-04-14T22:00:00.000Z","temp":8.9,"dewp":6.7,"wdir":200,"wspd":13,"wgst":21,"visib":9,"altim":1013.3,"slp":1013.2,"qcField":4,"wxString":"-RA","precip":0.04,"metarType":"METAR","rawOb":"METAR KOLM 142154Z 20013G21KT 9SM -RA FEW018 BKN036 OVC049 09/07 A2992 RMK AO2 SLP132 P0004 T00890067","lat":46.9737,"lon":-122.9049,"elev":58,"name":"Olympia Rgnl, WA, US","cover":"OVC","clouds":[{"cover":"FEW","base":1800},{"cover":"BKN","base":3600},{"cover":"OVC","base":4900}],"fltCat":"VFR"},{"icaoId":"KRIC","receiptTime":"2026-04-14T21:58:14.654Z","obsTime":1776203640,"reportTime":"2026-04-14T22:00:00.000Z","temp":31.1,"dewp":10.6,"wdir":220,"wspd":15,"wgst":20,"visib":"10+","altim":1015,"slp":1015.1,"qcField":4,"metarType":"METAR","rawOb":"METAR KRIC 142154Z 22015G20KT 10SM FEW085 SCT300 31/11 A2997 RMK AO2 SLP151 T03110106","lat":37.5115,"lon":-77.3234,"elev":51,"name":"Richmond Intl, VA, US","cover":"SCT","clouds":[{"cover":"FEW","base":8500},{"cover":"SCT","base":30000}],"fltCat":"VFR"},{"icaoId":"KROC","receiptTime":"2026-04-14T21:58:14.692Z","obsTime":1776203640,"reportTime":"2026-04-14T22:00:00.000Z","temp":22.8,"dewp":13.9,"wdir":270,"wspd":19,"wgst":32,"visib":"10+","altim":1009.6,"slp":1009.5,"qcField":12,"metarType":"METAR","rawOb":"METAR KROC 142154Z 27019G32KT 10SM FEW009 FEW030 SCT100 BKN220 23/14 A2981 RMK AO2 PK WND 28037/2126 SLP095 T02280139 $","lat":43.1172,"lon":-77.6754,"elev":166,"name":"Rochester Intl Arpt, NY, US","cover":"BKN","clouds":[{"cover":"FEW","base":900},{"cover":"FEW","base":3000},{"cover":"SCT","base":10000},{"cover":"BKN","base":22000}],"fltCat":"VFR"},{"icaoId":"KBWI","receiptTime":"2026-04-14T21:58:38.672Z","obsTime":1776203640,"reportTime":"2026-04-14T22:00:00.000Z","temp":30.6,"dewp":11.7,"wdir":240,"wspd":9,"wgst":20,"visib":"10+","altim":1012.6,"slp":1012.2,"qcField":4,"metarType":"METAR","rawOb":"METAR KBWI 142154Z 24009G20KT 10SM FEW075 FEW150 SCT250 31/12 A2990 RMK AO2 SLP122 CB DSNT NW T03060117","lat":39.1733,"lon":-76.684,"elev":42,"name":"Baltimore-Washington Intl, MD, US","cover":"SCT","clouds":[{"cover":"FEW","base":7500},{"cover":"FEW","base":15000},{"cover":"SCT","base":25000}],"fltCat":"VFR"},{"icaoId":"KSLC","receiptTime":"2026-04-14T21:58:14.282Z","obsTime":1776203640,"reportTime":"2026-04-14T22:00:00.000Z","temp":13.3,"dewp":-1.1,"wdir":300,"wspd":10,"wgst":14,"visib":"10+","altim":1016.3,"slp":1014.6,"qcField":12,"metarType":"METAR","rawOb":"METAR KSLC 142154Z 30010G14KT 10SM FEW055 FEW070 13/M01 A3001 RMK AO2 SLP146 T01331011 $","lat":40.7707,"lon":-111.965,"elev":1286,"name":"Salt Lake City Intl, UT, US","cover":"FEW","clouds":[{"cover":"FEW","base":5500},{"cover":"FEW","base":7000}],"fltCat":"VFR"},{"icaoId":"KSJN","receiptTime":"2026-04-14T21:58:08.728Z","obsTime":1776203640,"reportTime":"2026-04-14T22:00:00.000Z","temp":16.1,"dewp":-6.7,"wdir":270,"wspd":16,"wgst":24,"visib":"10+","altim":1016,"slp":1010.5,"qcField":6,"metarType":"METAR","rawOb":"METAR KSJN 142154Z AUTO 27016G24KT 10SM FEW085 16/M07 A3000 RMK AO2 PK WND 29028/2126 SLP105 T01611067","lat":34.5184,"lon":-109.3801,"elev":1747,"name":"St Johns Ind Arpt, AZ, US","cover":"FEW","clouds":[{"cover":"FEW","base":8500}],"fltCat":"VFR"},{"icaoId":"KRKS","receiptTime":"2026-04-14T21:58:15.291Z","obsTime":1776203640,"reportTime":"2026-04-14T22:00:00.000Z","temp":12.2,"dewp":-11.1,"wdir":300,"wspd":12,"wgst":19,"visib":"10+","altim":1011.9,"slp":1009,"qcField":6,"metarType":"METAR","rawOb":"METAR KRKS 142154Z AUTO 30012G19KT 10SM CLR 12/M11 A2988 RMK AO2 SLP090 T01221111","lat":41.5947,"lon":-109.0529,"elev":2062,"name":"Rock Springs/SW Wyoming Rgnl, WY, US","cover":"CLR","clouds":[],"fltCat":"VFR"},{"icaoId":"KIDA","receiptTime":"2026-04-14T21:56:48.272Z","obsTime":1776203580,"reportTime":"2026-04-14T22:00:00.000Z","temp":11.7,"dewp":-2.8,"wdir":220,"wspd":14,"wgst":25,"visib":"10+","altim":1014.3,"slp":1013.6,"qcField":4,"metarType":"METAR","rawOb":"METAR KIDA 142153Z 22014G25KT 10SM FEW060 OVC075 12/M03 A2995 RMK AO2 PK WND 22026/2059 SLP136 T01171028","lat":43.5204,"lon":-112.0675,"elev":1444,"name":"Idaho Falls Rgnl, ID, US","cover":"OVC","clouds":[{"cover":"FEW","base":6000},{"cover":"OVC","base":7500}],"fltCat":"VFR"},{"icaoId":"KSMF","receiptTime":"2026-04-14T21:56:48.808Z","obsTime":1776203580,"reportTime":"2026-04-14T22:00:00.000Z","temp":20,"dewp":9.4,"wdir":190,"wspd":8,"wgst":18,"visib":"10+","altim":1020.1,"slp":1020,"qcField":4,"metarType":"METAR","rawOb":"METAR KSMF 142153Z 19008G18KT 10SM FEW250 20/09 A3012 RMK AO2 SLP200 T02000094","lat":38.7007,"lon":-121.5948,"elev":7,"name":"Sacramento Intl, CA, US","cover":"FEW","clouds":[{"cover":"FEW","base":25000}],"fltCat":"VFR"},{"icaoId":"KMSO","receiptTime":"2026-04-14T21:56:49.009Z","obsTime":1776203580,"reportTime":"2026-04-14T22:00:00.000Z","temp":12.8,"dewp":-3.3,"wdir":300,"wspd":11,"visib":"10+","altim":1009.9,"slp":1010.3,"qcField":4,"metarType":"METAR","rawOb":"METAR KMSO 142153Z 30011KT 10SM BKN070 13/M03 A2982 RMK AO2 SLP103 T01281033","lat":46.9208,"lon":-114.0938,"elev":974,"name":"Missoula Intl, MT, US","cover":"BKN","clouds":[{"cover":"BKN","base":7000}],"fltCat":"VFR"},{"icaoId":"KPDX","receiptTime":"2026-04-14T21:56:49.045Z","obsTime":1776203580,"reportTime":"2026-04-14T22:00:00.000Z","temp":10,"dewp":6.7,"wdir":210,"wspd":10,"visib":6,"altim":1017.4,"slp":1017,"qcField":12,"wxString":"-RA","precip":0.02,"metarType":"METAR","rawOb":"METAR KPDX 142153Z 21010KT 6SM -RA FEW020 BKN028 OVC035 10/07 A3004 RMK AO2 PK WND 20027/2108 RAB2059 SLP170 P0002 T01000067 $","lat":45.5958,"lon":-122.6092,"elev":7,"name":"Portland Intl, OR, US","cover":"OVC","clouds":[{"cover":"FEW","base":2000},{"cover":"BKN","base":2800},{"cover":"OVC","base":3500}],"fltCat":"MVFR"},{"icaoId":"KPGA","receiptTime":"2026-04-14T21:56:49.060Z","obsTime":1776203580,"reportTime":"2026-04-14T22:00:00.000Z","temp":16.1,"dewp":-3.9,"wdir":290,"wspd":10,"wgst":20,"visib":"10+","altim":1015,"slp":1011.9,"qcField":6,"metarType":"METAR","rawOb":"METAR KPGA 142153Z AUTO 29010G20KT 260V330 10SM OVC080 16/M04 A2997 RMK AO2 SLP119 T01611039","lat":36.9211,"lon":-111.4487,"elev":1310,"name":"Page Muni, AZ, US","cover":"OVC","clouds":[{"cover":"OVC","base":8000}],"fltCat":"VFR"},{"icaoId":"KRIW","receiptTime":"2026-04-14T21:56:49.089Z","obsTime":1776203580,"reportTime":"2026-04-14T22:00:00.000Z","temp":14.4,"dewp":-10,"wdir":260,"wspd":9,"visib":"10+","altim":1008.5,"slp":1006,"qcField":6,"metarType":"METAR","rawOb":"METAR KRIW 142153Z AUTO 26009KT 10SM CLR 14/M10 A2978 RMK AO2 SLP060 T01441100","lat":43.0622,"lon":-108.4471,"elev":1662,"name":"Riverton Rgnl, WY, US","cover":"CLR","clouds":[],"fltCat":"VFR"},{"icaoId":"KMDW","receiptTime":"2026-04-14T21:56:36.775Z","obsTime":1776203580,"reportTime":"2026-04-14T22:00:00.000Z","temp":26.7,"dewp":18.9,"wdir":220,"wspd":18,"wgst":28,"visib":"10+","altim":1006.9,"slp":1006,"qcField":4,"metarType":"METAR","rawOb":"METAR KMDW 142153Z 22018G28KT 10SM SCT030 BKN046 BKN150 27/19 A2973 RMK AO2 PK WND 21031/2141 SLP060 T02670189","lat":41.7841,"lon":-87.7552,"elev":186,"name":"Chicago/Midway Intl, IL, US","cover":"BKN","clouds":[{"cover":"SCT","base":3000},{"cover":"BKN","base":4600},{"cover":"BKN","base":15000}],"fltCat":"VFR"},{"icaoId":"KBTM","receiptTime":"2026-04-14T21:56:44.476Z","obsTime":1776203580,"reportTime":"2026-04-14T22:00:00.000Z","temp":10.6,"dewp":-6.1,"wdir":250,"wspd":9,"wgst":21,"visib":"10+","altim":1009.6,"slp":1007.9,"qcField":6,"metarType":"METAR","rawOb":"METAR KBTM 142153Z AUTO 25009G21KT 220V280 10SM BKN070 11/M06 A2981 RMK AO2 SLP079 T01061061","lat":45.9644,"lon":-112.5015,"elev":1680,"name":"Butte/Mooney Arpt, MT, US","cover":"BKN","clouds":[{"cover":"BKN","base":7000}],"fltCat":"VFR"},{"icaoId":"KBFI","receiptTime":"2026-04-14T21:56:44.111Z","obsTime":1776203580,"reportTime":"2026-04-14T22:00:00.000Z","temp":8.9,"dewp":6.1,"wdir":180,"wspd":13,"wgst":28,"visib":5,"altim":1012.6,"slp":1012.6,"qcField":4,"wxString":"-RA BR","precip":0.05,"metarType":"METAR","rawOb":"METAR KBFI 142153Z 18013G28KT 5SM -RA BR BKN016 BKN026 OVC050 09/06 A2990 RMK AO2 PK WND 18029/2101 SLP126 P0005 T00890061","lat":47.5455,"lon":-122.3148,"elev":7,"name":"Seattle/Boeing Fld, WA, US","cover":"OVC","clouds":[{"cover":"BKN","base":1600},{"cover":"BKN","base":2600},{"cover":"OVC","base":5000}],"fltCat":"MVFR"},{"icaoId":"KBNA","receiptTime":"2026-04-14T21:56:44.334Z","obsTime":1776203580,"reportTime":"2026-04-14T22:00:00.000Z","temp":27.8,"dewp":15,"wdir":230,"wspd":8,"wgst":17,"visib":"10+","altim":1018,"slp":1017.4,"qcField":12,"metarType":"METAR","rawOb":"METAR KBNA 142153Z 23008G17KT 10SM FEW050 BKN060 BKN250 28/15 A3006 RMK AO2 SLP174 T02780150 $","lat":36.1105,"lon":-86.6881,"elev":168,"name":"Nashville Intl, TN, US","cover":"BKN","clouds":[{"cover":"FEW","base":5000},{"cover":"BKN","base":6000},{"cover":"BKN","base":25000}],"fltCat":"VFR"},{"icaoId":"KDAL","receiptTime":"2026-04-14T21:56:35.508Z","obsTime":1776203580,"reportTime":"2026-04-14T22:00:00.000Z","temp":26.7,"dewp":18.9,"wdir":180,"wspd":12,"wgst":18,"visib":"10+","altim":1013.3,"slp":1012.4,"qcField":4,"metarType":"METAR","rawOb":"METAR KDAL 142153Z 18012G18KT 10SM BKN035 OVC050 27/19 A2992 RMK AO2 SLP124 T02670189","lat":32.8384,"lon":-96.8358,"elev":148,"name":"Dallas/Love Fld, TX, US","cover":"OVC","clouds":[{"cover":"BKN","base":3500},{"cover":"OVC","base":5000}],"fltCat":"VFR"},{"icaoId":"KSAF","receiptTime":"2026-04-14T21:56:48.581Z","obsTime":1776203580,"reportTime":"2026-04-14T22:00:00.000Z","temp":16.1,"dewp":-5,"wdir":250,"wspd":14,"wgst":30,"visib":"10+","altim":1014.6,"slp":1008,"qcField":12,"metarType":"METAR","rawOb":"METAR KSAF 142153Z 25014G30KT 10SM SCT080 16/M05 A2996 RMK AO2 PK WND 24030/2123 SLP080 T01611050 $","lat":35.611,"lon":-106.0957,"elev":1918,"name":"Santa Fe Cnty Muni, NM, US","cover":"SCT","clouds":[{"cover":"SCT","base":8000}],"fltCat":"VFR"},{"icaoId":"KVGT","receiptTime":"2026-04-14T21:56:47.365Z","obsTime":1776203580,"reportTime":"2026-04-14T22:00:00.000Z","temp":21.7,"dewp":-4.4,"wdir":"VRB","wspd":3,"visib":"10+","altim":1014.6,"slp":1015.2,"qcField":4,"metarType":"METAR","rawOb":"METAR KVGT 142153Z VRB03KT 10SM CLR 22/M04 A2996 RMK AO2 SLP152 T02171044","lat":36.212,"lon":-115.194,"elev":664,"name":"Las Vegas/North Arpt, NV, US","cover":"CLR","clouds":[],"fltCat":"VFR"},{"icaoId":"KSWO","receiptTime":"2026-04-14T21:56:37.869Z","obsTime":1776203580,"reportTime":"2026-04-14T22:00:00.000Z","temp":27.8,"dewp":19.4,"wdir":180,"wspd":22,"wgst":28,"visib":"10+","altim":1009.2,"slp":1007.8,"qcField":4,"metarType":"METAR","rawOb":"METAR KSWO 142153Z 18022G28KT 10SM FEW041 28/19 A2980 RMK AO2 PK WND 18028/2151 SLP078 T02780194","lat":36.1624,"lon":-97.0832,"elev":293,"name":"Stillwater Muni, OK, US","cover":"FEW","clouds":[{"cover":"FEW","base":4100}],"fltCat":"VFR"},{"icaoId":"KBCE","receiptTime":"2026-04-14T21:56:44.014Z","obsTime":1776203580,"reportTime":"2026-04-14T22:00:00.000Z","temp":6.7,"dewp":-2.2,"wdir":320,"wspd":16,"wgst":26,"visib":"10+","altim":1018,"slp":1012.7,"qcField":6,"metarType":"METAR","rawOb":"METAR KBCE 142153Z AUTO 32016G26KT 10SM BKN060 07/M02 A3006 RMK AO2 PK WND 32027/2141 SLP127 T00671022","lat":37.7013,"lon":-112.149,"elev":2311,"name":"Bryce Canyon Arpt, UT, US","cover":"BKN","clouds":[{"cover":"BKN","base":6000}],"fltCat":"VFR"},{"icaoId":"KMAF","receiptTime":"2026-04-14T21:56:36.604Z","obsTime":1776203580,"reportTime":"2026-04-14T22:00:00.000Z","temp":28.3,"dewp":9.4,"wdir":180,"wspd":14,"visib":"10+","altim":1011.3,"slp":1006.6,"qcField":4,"metarType":"METAR","rawOb":"METAR KMAF 142153Z 18014KT 10SM CLR 28/09 A2986 RMK AO2 SLP066 T02830094","lat":31.9475,"lon":-102.2086,"elev":874,"name":"Midland Intl, TX, US","cover":"CLR","clouds":[],"fltCat":"VFR"},{"icaoId":"KCNY","receiptTime":"2026-04-14T21:56:34.315Z","obsTime":1776203580,"reportTime":"2026-04-14T22:00:00.000Z","temp":9.4,"dewp":5,"wdir":220,"wspd":4,"visib":"10+","altim":1014.3,"slp":1013,"qcField":14,"precip":0.01,"metarType":"METAR","rawOb":"METAR KCNY 142153Z AUTO 22004KT 10SM SCT040 OVC060 09/05 A2995 RMK AO2 RAB00E42 SLP130 P0001 T00940050 $","lat":38.7501,"lon":-109.7627,"elev":1392,"name":"Moab/Canyonland Fld, UT, US","cover":"OVC","clouds":[{"cover":"SCT","base":4000},{"cover":"OVC","base":6000}],"fltCat":"VFR"},{"icaoId":"KYKM","receiptTime":"2026-04-14T21:56:49.185Z","obsTime":1776203580,"reportTime":"2026-04-14T22:00:00.000Z","temp":13.9,"dewp":-2.2,"wdir":250,"wspd":18,"wgst":31,"visib":"10+","altim":1011.3,"slp":1011.3,"qcField":4,"metarType":"METAR","rawOb":"METAR KYKM 142153Z 25018G31KT 10SM FEW090 14/M02 A2986 RMK AO2 PK WND 22032/2128 SLP113 T01391022","lat":46.564,"lon":-120.5349,"elev":319,"name":"Yakima/McAllister Fld, WA, US","cover":"FEW","clouds":[{"cover":"FEW","base":9000}],"fltCat":"VFR"},{"icaoId":"KVEL","receiptTime":"2026-04-14T21:56:47.346Z","obsTime":1776203580,"reportTime":"2026-04-14T22:00:00.000Z","temp":7.8,"dewp":1.7,"wdir":170,"wspd":9,"visib":"10+","altim":1014.6,"slp":1013.4,"qcField":6,"metarType":"METAR","rawOb":"METAR KVEL 142153Z AUTO 17009KT 10SM BKN022 OVC055 08/02 A2996 RMK AO2 SLP134 T00780017","lat":40.4429,"lon":-109.5128,"elev":1604,"name":"Vernal Rgnl, UT, US","cover":"OVC","clouds":[{"cover":"BKN","base":2200},{"cover":"OVC","base":5500}],"fltCat":"MVFR"},{"icaoId":"KBUR","receiptTime":"2026-04-14T21:56:44.490Z","obsTime":1776203580,"reportTime":"2026-04-14T22:00:00.000Z","temp":21.1,"dewp":9.4,"wdir":200,"wspd":8,"visib":"10+","altim":1017.7,"slp":1016.5,"qcField":4,"metarType":"METAR","rawOb":"METAR KBUR 142153Z 20008KT 10SM CLR 21/09 A3005 RMK AO2 SLP165 T02110094","lat":34.1996,"lon":-118.3654,"elev":221,"name":"Burbank/Bob Hope Arpt, CA, US","cover":"CLR","clouds":[],"fltCat":"VFR"},{"icaoId":"KBIL","receiptTime":"2026-04-14T21:56:34.222Z","obsTime":1776203580,"reportTime":"2026-04-14T22:00:00.000Z","temp":17.8,"dewp":-5,"wdir":250,"wspd":9,"visib":"10+","altim":1006.2,"slp":1005.2,"qcField":4,"metarType":"METAR","rawOb":"METAR KBIL 142153Z 25009KT 10SM SCT090 18/M05 A2971 RMK AO2 SLP052 T01781050","lat":45.8072,"lon":-108.5462,"elev":1089,"name":"Billings/Logan Intl, MT, US","cover":"SCT","clouds":[{"cover":"SCT","base":9000}],"fltCat":"VFR"},{"icaoId":"KCLL","receiptTime":"2026-04-14T21:56:34.302Z","obsTime":1776203580,"reportTime":"2026-04-14T22:00:00.000Z","temp":28.9,"dewp":19.4,"wdir":150,"wspd":16,"wgst":23,"visib":9,"altim":1014.3,"slp":1013.7,"qcField":4,"metarType":"METAR","rawOb":"METAR KCLL 142153Z 15016G23KT 9SM SCT060 29/19 A2995 RMK AO2 SLP137 T02890194","lat":30.5912,"lon":-96.3631,"elev":96,"name":"College Station/Easterwood Arpt, TX, US","cover":"SCT","clouds":[{"cover":"SCT","base":6000}],"fltCat":"VFR"},{"icaoId":"KSBA","receiptTime":"2026-04-14T21:56:48.597Z","obsTime":1776203580,"reportTime":"2026-04-14T22:00:00.000Z","temp":18.9,"dewp":8.9,"wdir":220,"wspd":7,"visib":"10+","altim":1018.4,"slp":1018.3,"qcField":12,"metarType":"METAR","rawOb":"METAR KSBA 142153Z 22007KT 10SM CLR 19/09 A3007 RMK AO2 SLP183 T01890089 $","lat":34.4241,"lon":-119.8425,"elev":2,"name":"Santa Barbara Muni, CA, US","cover":"CLR","clouds":[],"fltCat":"VFR"},{"icaoId":"KSDL","receiptTime":"2026-04-14T21:56:48.634Z","obsTime":1776203580,"reportTime":"2026-04-14T22:00:00.000Z","temp":23.9,"dewp":-2.8,"wdir":220,"wspd":9,"visib":"10+","altim":1015,"slp":1013,"qcField":4,"metarType":"METAR","rawOb":"METAR KSDL 142153Z 22009KT 10SM CLR 24/M03 A2997 RMK AO2 SLP130 T02391028","lat":33.6123,"lon":-111.9232,"elev":438,"name":"Scottsdale Muni, AZ, US","cover":"CLR","clouds":[],"fltCat":"VFR"},{"icaoId":"KELY","receiptTime":"2026-04-14T21:56:35.605Z","obsTime":1776203580,"reportTime":"2026-04-14T22:00:00.000Z","temp":11.1,"dewp":-4.4,"visib":"10+","altim":1017.7,"slp":1014.7,"qcField":6,"metarType":"METAR","rawOb":"METAR KELY 142153Z AUTO 10SM FEW070 11/M04 A3005 RMK AO2 SLP147 T01111044","lat":39.2954,"lon":-114.8466,"elev":1906,"name":"Ely/Yelland Fld, NV, US","cover":"FEW","clouds":[{"cover":"FEW","base":7000}],"fltCat":"VFR"},{"icaoId":"KSEA","receiptTime":"2026-04-14T21:56:36.146Z","obsTime":1776203580,"reportTime":"2026-04-14T22:00:00.000Z","temp":8.3,"dewp":6.1,"wdir":190,"wspd":18,"wgst":26,"visib":"10+","altim":1012.6,"slp":1013.3,"qcField":4,"wxString":"-RA","precip":0.05,"metarType":"METAR","rawOb":"METAR KSEA 142153Z 19018G26KT 10SM -RA BKN017 BKN023 OVC040 08/06 A2990 RMK AO2 PK WND 20031/2122 SLP133 P0005 T00830061","lat":47.4447,"lon":-122.3144,"elev":115,"name":"Seattle-Tacoma Intl, WA, US","cover":"OVC","clouds":[{"cover":"BKN","base":1700},{"cover":"BKN","base":2300},{"cover":"OVC","base":4000}],"fltCat":"MVFR"},{"icaoId":"KMFR","receiptTime":"2026-04-14T21:56:36.821Z","obsTime":1776203580,"reportTime":"2026-04-14T22:00:00.000Z","temp":15,"dewp":3.9,"wdir":300,"wspd":11,"visib":"10+","altim":1019,"slp":1019,"qcField":4,"metarType":"METAR","rawOb":"METAR KMFR 142153Z 30011KT 10SM CLR 15/04 A3009 RMK AO2 SLP190 T01500039","lat":42.375,"lon":-122.877,"elev":397,"name":"Medford/Rogue Valley Intl, OR, US","cover":"CLR","clouds":[],"fltCat":"VFR"},{"icaoId":"KMIA","receiptTime":"2026-04-14T21:56:36.921Z","obsTime":1776203580,"reportTime":"2026-04-14T22:00:00.000Z","temp":25.6,"dewp":16.1,"wdir":90,"wspd":15,"wgst":24,"visib":"10+","altim":1019.7,"slp":1019.6,"qcField":0,"metarType":"METAR","rawOb":"METAR KMIA 142153Z 09015G24KT 10SM SCT041 BKN250 26/16 A3011 RMK PK WND 09027/2104 SLP196 T02560161","lat":25.7881,"lon":-80.3169,"elev":1,"name":"Miami Intl, FL, US","cover":"BKN","clouds":[{"cover":"SCT","base":4100},{"cover":"BKN","base":25000}],"fltCat":"VFR"},{"icaoId":"KIAH","receiptTime":"2026-04-14T21:56:37.765Z","obsTime":1776203580,"reportTime":"2026-04-14T22:00:00.000Z","temp":27.2,"dewp":20,"wdir":130,"wspd":16,"wgst":22,"visib":"10+","altim":1015.7,"slp":1015.6,"qcField":4,"metarType":"METAR","rawOb":"METAR KIAH 142153Z 13016G22KT 10SM FEW038 SCT055 BKN070 27/20 A2999 RMK AO2 SLP156 T02720200","lat":29.9844,"lon":-95.3607,"elev":27,"name":"Houston/Bush Intl, TX, US","cover":"BKN","clouds":[{"cover":"FEW","base":3800},{"cover":"SCT","base":5500},{"cover":"BKN","base":7000}],"fltCat":"VFR"},{"icaoId":"KSTS","receiptTime":"2026-04-14T21:56:37.847Z","obsTime":1776203580,"reportTime":"2026-04-14T22:00:00.000Z","temp":17.8,"dewp":8.3,"wdir":110,"wspd":5,"visib":"10+","altim":1021.1,"slp":1020.2,"qcField":4,"metarType":"METAR","rawOb":"METAR KSTS 142153Z 11005KT 10SM SCT050 18/08 A3015 RMK AO2 SLP202 T01780083","lat":38.5037,"lon":-122.811,"elev":35,"name":"Santa Rosa/Schulz Arpt, CA, US","cover":"SCT","clouds":[{"cover":"SCT","base":5000}],"fltCat":"VFR"},{"icaoId":"KMYF","receiptTime":"2026-04-14T21:56:38.619Z","obsTime":1776203580,"reportTime":"2026-04-14T22:00:00.000Z","temp":20.6,"dewp":5.6,"wdir":300,"wspd":12,"visib":"10+","altim":1018,"slp":1017.5,"qcField":4,"metarType":"METAR","rawOb":"METAR KMYF 142153Z 30012KT 10SM CLR 21/06 A3006 RMK AO2 SLP175 T02060056","lat":32.8145,"lon":-117.1375,"elev":128,"name":"San Diego/Montgomery Arpt, CA, US","cover":"CLR","clouds":[],"fltCat":"VFR"},{"icaoId":"KOAK","receiptTime":"2026-04-14T21:56:38.668Z","obsTime":1776203580,"reportTime":"2026-04-14T22:00:00.000Z","temp":16.1,"dewp":7.2,"wdir":240,"wspd":15,"visib":"10+","altim":1022.8,"slp":1022.5,"qcField":12,"metarType":"METAR","rawOb":"METAR KOAK 142153Z 24015KT 10SM SCT029 SCT250 16/07 A3020 RMK AO2 SLP225 T01610072 $","lat":37.7178,"lon":-122.233,"elev":3,"name":"Oakland Intl, CA, US","cover":"SCT","clouds":[{"cover":"SCT","base":2900},{"cover":"SCT","base":25000}],"fltCat":"VFR"},{"icaoId":"KOGD","receiptTime":"2026-04-14T21:56:38.728Z","obsTime":1776203580,"reportTime":"2026-04-14T22:00:00.000Z","temp":12.2,"dewp":-0.6,"wdir":"VRB","wspd":6,"wgst":16,"visib":"10+","altim":1015.7,"slp":1013.7,"qcField":4,"metarType":"METAR","rawOb":"METAR KOGD 142153Z VRB06G16KT 10SM SCT055 OVC080 12/M01 A2999 RMK AO2 SLP137 T01221006","lat":41.1941,"lon":-112.0168,"elev":1356,"name":"Ogden/Hinckley Arpt, UT, US","cover":"OVC","clouds":[{"cover":"SCT","base":5500},{"cover":"OVC","base":8000}],"fltCat":"VFR"},{"icaoId":"KPNC","receiptTime":"2026-04-14T21:56:39.498Z","obsTime":1776203580,"reportTime":"2026-04-14T22:00:00.000Z","temp":28.3,"dewp":19.4,"wdir":190,"wspd":13,"wgst":24,"visib":"10+","altim":1007.9,"slp":1006.5,"qcField":6,"metarType":"METAR","rawOb":"METAR KPNC 142153Z AUTO 19013G24KT 10SM FEW043 28/19 A2976 RMK AO2 SLP065 T02830194","lat":36.7369,"lon":-97.1024,"elev":304,"name":"Ponca City Rgnl, OK, US","cover":"FEW","clouds":[{"cover":"FEW","base":4300}],"fltCat":"VFR"},{"icaoId":"KHLN","receiptTime":"2026-04-14T21:56:40.002Z","obsTime":1776203580,"reportTime":"2026-04-14T22:00:00.000Z","temp":15,"dewp":-4.4,"wdir":"VRB","wspd":6,"wgst":21,"visib":"10+","altim":1006.9,"slp":1007.3,"qcField":4,"metarType":"METAR","rawOb":"METAR KHLN 142153Z VRB06G21KT 10SM FEW075 15/M04 A2973 RMK AO2 PK WND 28027/2121 SLP073 T01501044","lat":46.6045,"lon":-111.9892,"elev":1178,"name":"Helena Rgnl, MT, US","cover":"FEW","clouds":[{"cover":"FEW","base":7500}],"fltCat":"VFR"},{"icaoId":"KHOU","receiptTime":"2026-04-14T21:56:40.039Z","obsTime":1776203580,"reportTime":"2026-04-14T22:00:00.000Z","temp":27.8,"dewp":20,"wdir":150,"wspd":13,"wgst":23,"visib":"10+","altim":1016,"slp":1016.3,"qcField":12,"metarType":"METAR","rawOb":"METAR KHOU 142153Z 15013G23KT 10SM BKN030 BKN060 28/20 A3000 RMK AO2 SLP163 T02780200 $","lat":29.6458,"lon":-95.2821,"elev":13,"name":"Houston/Hobby Arpt, TX, US","cover":"BKN","clouds":[{"cover":"BKN","base":3000},{"cover":"BKN","base":6000}],"fltCat":"MVFR"},{"icaoId":"KDEN","receiptTime":"2026-04-14T21:56:46.673Z","obsTime":1776203580,"reportTime":"2026-04-14T22:00:00.000Z","temp":11.1,"dewp":-0.6,"wdir":210,"wspd":4,"visib":"10+","altim":1010.9,"slp":1007.1,"qcField":4,"precip":0.005,"metarType":"METAR","rawOb":"METAR KDEN 142153Z 21004KT 10SM BKN100 BKN150 BKN200 11/M01 A2985 RMK AO2 RAE16 SLP071 VIRGA P0000 T01111006","lat":39.8466,"lon":-104.6562,"elev":1656,"name":"Denver Intl, CO, US","cover":"BKN","clouds":[{"cover":"BKN","base":10000},{"cover":"BKN","base":15000},{"cover":"BKN","base":20000}],"fltCat":"VFR"},{"icaoId":"KDFW","receiptTime":"2026-04-14T21:56:46.735Z","obsTime":1776203580,"reportTime":"2026-04-14T22:00:00.000Z","temp":26.1,"dewp":18.3,"wdir":180,"wspd":17,"wgst":26,"visib":"10+","altim":1012.6,"slp":1011.8,"qcField":4,"metarType":"METAR","rawOb":"METAR KDFW 142153Z 18017G26KT 10SM FEW026 SCT034 OVC047 26/18 A2990 RMK AO2 PK WND 19027/2120 SLP118 T02610183","lat":32.8974,"lon":-97.022,"elev":168,"name":"Dallas-Ft Worth Intl, TX, US","cover":"OVC","clouds":[{"cover":"FEW","base":2600},{"cover":"SCT","base":3400},{"cover":"OVC","base":4700}],"fltCat":"VFR"},{"icaoId":"KDLN","receiptTime":"2026-04-14T21:56:46.815Z","obsTime":1776203580,"reportTime":"2026-04-14T22:00:00.000Z","temp":13.9,"dewp":-7.8,"wdir":260,"wspd":16,"wgst":29,"visib":"10+","altim":1009.6,"slp":1007.1,"qcField":6,"metarType":"METAR","rawOb":"METAR KDLN 142153Z AUTO 26016G29KT 10SM CLR 14/M08 A2981 RMK AO2 PK WND 25032/2119 SLP071 T01391078","lat":45.2584,"lon":-112.5546,"elev":1586,"name":"Dillon Arpt, MT, US","cover":"CLR","clouds":[],"fltCat":"VFR"},{"icaoId":"KPSC","receiptTime":"2026-04-14T21:56:46.887Z","obsTime":1776203580,"reportTime":"2026-04-14T22:00:00.000Z","temp":13.3,"dewp":0.6,"wdir":230,"wspd":16,"wgst":28,"visib":"10+","altim":1014.6,"slp":1014.5,"qcField":4,"metarType":"METAR","rawOb":"METAR KPSC 142153Z 23016G28KT 10SM BKN095 13/01 A2996 RMK AO2 PK WND 22034/2128 SLP145 T01330006","lat":46.2695,"lon":-119.1182,"elev":121,"name":"Pasco/Tri Cities Arpt, WA, US","cover":"BKN","clouds":[{"cover":"BKN","base":9500}],"fltCat":"VFR"},{"icaoId":"KPUB","receiptTime":"2026-04-14T21:56:46.931Z","obsTime":1776203580,"reportTime":"2026-04-14T22:00:00.000Z","temp":21.7,"dewp":-7.8,"wdir":220,"wspd":20,"wgst":27,"visib":"10+","altim":1007.9,"slp":1003,"qcField":12,"metarType":"METAR","rawOb":"METAR KPUB 142153Z 22020G27KT 10SM FEW100 22/M08 A2976 RMK AO2 PK WND 25027/2146 SLP030 T02171078 $","lat":38.2887,"lon":-104.5057,"elev":1441,"name":"Pueblo Mem Arpt, CO, US","cover":"FEW","clouds":[{"cover":"FEW","base":10000}],"fltCat":"VFR"},{"icaoId":"KPUW","receiptTime":"2026-04-14T21:56:46.962Z","obsTime":1776203580,"reportTime":"2026-04-14T22:00:00.000Z","temp":8.9,"dewp":0.6,"wdir":260,"wspd":18,"wgst":25,"visib":"10+","altim":1013.6,"slp":1014.6,"qcField":6,"metarType":"METAR","rawOb":"METAR KPUW 142153Z AUTO 26018G25KT 10SM FEW050 BKN100 09/01 A2993 RMK AO2 PK WND 23029/2100 SLP146 T00890006","lat":46.7438,"lon":-117.1158,"elev":774,"name":"Pullman/Moscow Rgnl, WA, US","cover":"BKN","clouds":[{"cover":"FEW","base":5000},{"cover":"BKN","base":10000}],"fltCat":"VFR"},{"icaoId":"KRTN","receiptTime":"2026-04-14T21:56:47.208Z","obsTime":1776203580,"reportTime":"2026-04-14T22:00:00.000Z","temp":17.8,"dewp":-7.2,"wdir":280,"wspd":19,"wgst":37,"visib":"10+","altim":1011.3,"slp":1006,"qcField":14,"metarType":"METAR","rawOb":"METAR KRTN 142153Z AUTO 28019G37KT 10SM 18/M07 A2986 RMK AO2 PK WND 28038/2136 SLP060 T01781072 $","lat":36.7418,"lon":-104.5076,"elev":1939,"name":"Raton/Crews Fld, NM, US"},{"icaoId":"KMSP","receiptTime":"2026-04-14T21:56:47.582Z","obsTime":1776203580,"reportTime":"2026-04-14T22:00:00.000Z","temp":17.2,"dewp":9.4,"wdir":0,"wspd":0,"visib":"10+","altim":1005.8,"slp":1005.9,"qcField":4,"metarType":"METAR","rawOb":"METAR KMSP 142153Z 00000KT 10SM FEW120 SCT140 BKN250 17/09 A2970 RMK AO2 SLP059 VIRGA T01720094","lat":44.8852,"lon":-93.2313,"elev":255,"name":"Minneapolis-St Paul Intl, MN, US","cover":"BKN","clouds":[{"cover":"FEW","base":12000},{"cover":"SCT","base":14000},{"cover":"BKN","base":25000}],"fltCat":"VFR"},{"icaoId":"KMCI","receiptTime":"2026-04-14T21:56:47.709Z","obsTime":1776203580,"reportTime":"2026-04-14T22:00:00.000Z","temp":28.9,"dewp":15,"wdir":210,"wspd":16,"wgst":37,"visib":"10+","altim":1005.5,"slp":1004.2,"qcField":4,"metarType":"METAR","rawOb":"METAR KMCI 142153Z 21016G37KT 10SM FEW065 OVC200 29/15 A2969 RMK AO2 PK WND 22041/2136 SLP042 T02890150","lat":39.2975,"lon":-94.7309,"elev":308,"name":"Kansas City Intl, MO, US","cover":"OVC","clouds":[{"cover":"FEW","base":6500},{"cover":"OVC","base":20000}],"fltCat":"VFR"},{"icaoId":"KACV","receiptTime":"2026-04-14T21:56:47.800Z","obsTime":1776203580,"reportTime":"2026-04-14T22:00:00.000Z","temp":12.2,"dewp":5.6,"wdir":300,"wspd":9,"visib":"10+","altim":1023.8,"slp":1024.3,"qcField":6,"metarType":"METAR","rawOb":"METAR KACV 142153Z AUTO 30009KT 10SM CLR 12/06 A3023 RMK AO2 SLP243 T01220056","lat":40.9784,"lon":-124.1048,"elev":63,"name":"Arcata Arpt, CA, US","cover":"CLR","clouds":[],"fltCat":"VFR"},{"icaoId":"KPIH","receiptTime":"2026-04-14T21:56:47.560Z","obsTime":1776203580,"reportTime":"2026-04-14T22:00:00.000Z","temp":12.2,"dewp":-3.3,"wdir":230,"wspd":16,"wgst":22,"visib":"10+","altim":1014.6,"slp":1013.6,"qcField":4,"metarType":"METAR","rawOb":"METAR KPIH 142153Z 23016G22KT 10SM FEW060 BKN080 12/M03 A2996 RMK AO2 PK WND 27026/2054 SLP136 T01221033","lat":42.9197,"lon":-112.5723,"elev":1357,"name":"Pocatello Rgnl, ID, US","cover":"BKN","clouds":[{"cover":"FEW","base":6000},{"cover":"BKN","base":8000}],"fltCat":"VFR"},{"icaoId":"KBOI","receiptTime":"2026-04-14T21:56:47.647Z","obsTime":1776203580,"reportTime":"2026-04-14T22:00:00.000Z","temp":14.4,"dewp":1.1,"wdir":250,"wspd":6,"visib":"10+","altim":1015,"slp":1014.7,"qcField":4,"metarType":"METAR","rawOb":"METAR KBOI 142153Z 25006KT 10SM FEW050 14/01 A2997 RMK AO2 SLP147 T01440011","lat":43.567,"lon":-116.2406,"elev":860,"name":"Boise Arpt, ID, US","cover":"FEW","clouds":[{"cover":"FEW","base":5000}],"fltCat":"VFR"},{"icaoId":"KAMA","receiptTime":"2026-04-14T21:56:47.968Z","obsTime":1776203580,"reportTime":"2026-04-14T22:00:00.000Z","temp":27.2,"dewp":1.1,"wdir":240,"wspd":21,"wgst":33,"visib":"10+","altim":1009.9,"slp":1005.4,"qcField":4,"metarType":"METAR","rawOb":"METAR KAMA 142153Z 24021G33KT 10SM CLR 27/01 A2982 RMK AO2 PK WND 19035/2122 SLP054 T02720011","lat":35.2203,"lon":-101.7173,"elev":1102,"name":"Amarillo Intl Arpt, TX, US","cover":"CLR","clouds":[],"fltCat":"VFR"},{"icaoId":"KAPA","receiptTime":"2026-04-14T21:56:48.070Z","obsTime":1776203580,"reportTime":"2026-04-14T22:00:00.000Z","temp":10.6,"dewp":-0.6,"wdir":"VRB","wspd":6,"visib":"10+","altim":1011.3,"slp":1008.2,"qcField":4,"precip":0.005,"metarType":"METAR","rawOb":"METAR KAPA 142153Z VRB06KT 10SM FEW070 BKN100 BKN140 11/M01 A2986 RMK AO2 DZE26 SLP082 VIRGA VC W P0000 T01061006","lat":39.5599,"lon":-104.8484,"elev":1791,"name":"Denver/Centennial Arpt, CO, US","cover":"BKN","clouds":[{"cover":"FEW","base":7000},{"cover":"BKN","base":10000},{"cover":"BKN","base":14000}],"fltCat":"VFR"},{"icaoId":"KAUS","receiptTime":"2026-04-14T21:56:48.249Z","obsTime":1776203580,"reportTime":"2026-04-14T22:00:00.000Z","temp":30,"dewp":18.3,"wdir":160,"wspd":12,"visib":"10+","altim":1013.3,"slp":1012,"qcField":4,"metarType":"METAR","rawOb":"METAR KAUS 142153Z 16012KT 10SM SCT049 BKN065 30/18 A2992 RMK AO2 SLP120 T03000183","lat":30.1831,"lon":-97.6806,"elev":148,"name":"Austin/Bergstrom Intl, TX, US","cover":"BKN","clouds":[{"cover":"SCT","base":4900},{"cover":"BKN","base":6500}],"fltCat":"VFR"},{"icaoId":"KSHR","receiptTime":"2026-04-14T21:56:48.744Z","obsTime":1776203580,"reportTime":"2026-04-14T22:00:00.000Z","temp":15,"dewp":-2.8,"wdir":230,"wspd":4,"visib":"10+","altim":1007.5,"slp":1007.5,"qcField":6,"metarType":"METAR","rawOb":"METAR KSHR 142153Z AUTO 23004KT 10SM CLR 15/M03 A2975 RMK AO2 SLP075 T01501028","lat":44.7603,"lon":-106.9741,"elev":1212,"name":"Sheridan Cnty Arpt, WY, US","cover":"CLR","clouds":[],"fltCat":"VFR"},{"icaoId":"KFMN","receiptTime":"2026-04-14T21:56:35.683Z","obsTime":1776203580,"reportTime":"2026-04-14T22:00:00.000Z","temp":12.8,"dewp":-6.1,"wdir":270,"wspd":9,"wgst":24,"visib":"10+","altim":1015.7,"slp":1013.4,"qcField":4,"metarType":"METAR","rawOb":"METAR KFMN 142153Z 27009G24KT 10SM BKN080 BKN100 13/M06 A2999 RMK AO2 SLP134 T01281061","lat":36.7435,"lon":-108.2293,"elev":1677,"name":"Farmington/Four Corners Rgnl, NM, US","cover":"BKN","clouds":[{"cover":"BKN","base":8000},{"cover":"BKN","base":10000}],"fltCat":"VFR"},{"icaoId":"KMYR","receiptTime":"2026-04-14T21:56:32.866Z","obsTime":1776203580,"reportTime":"2026-04-14T22:00:00.000Z","temp":22.2,"dewp":17.2,"wdir":190,"wspd":14,"wgst":20,"visib":"10+","altim":1021.1,"slp":1021,"qcField":12,"metarType":"METAR","rawOb":"METAR KMYR 142153Z 19014G20KT 10SM CLR 22/17 A3015 RMK AO2 SLP210 T02220172 $","lat":33.6769,"lon":-78.9325,"elev":7,"name":"Myrtle Beach Intl, SC, US","cover":"CLR","clouds":[],"fltCat":"VFR"},{"icaoId":"KBRO","receiptTime":"2026-04-14T21:56:47.630Z","obsTime":1776203580,"reportTime":"2026-04-14T22:00:00.000Z","temp":30,"dewp":20,"wdir":140,"wspd":20,"wgst":28,"visib":"10+","altim":1013.3,"slp":1013.2,"qcField":4,"metarType":"METAR","rawOb":"METAR KBRO 142153Z 14020G28KT 10SM CLR 30/20 A2992 RMK AO2 PK WND 13030/2128 SLP132 T03000200","lat":25.9146,"lon":-97.4231,"elev":6,"name":"Brownsville Intl, TX, US","cover":"CLR","clouds":[],"fltCat":"VFR"},{"icaoId":"KASE","receiptTime":"2026-04-14T21:56:48.170Z","obsTime":1776203580,"reportTime":"2026-04-14T22:00:00.000Z","temp":5.6,"dewp":-3.9,"wdir":10,"wspd":9,"visib":"10+","altim":1014.3,"slp":1008.9,"qcField":4,"metarType":"METAR","rawOb":"METAR KASE 142153Z 01009KT 10SM FEW046 BKN065 BKN085 06/M04 A2995 RMK AO2 SLP089 T00561039","lat":39.2299,"lon":-106.8705,"elev":2384,"name":"Aspen/Pitkin Cnty, CO, US","cover":"BKN","clouds":[{"cover":"FEW","base":4600},{"cover":"BKN","base":6500},{"cover":"BKN","base":8500}],"fltCat":"VFR"},{"icaoId":"KDRO","receiptTime":"2026-04-14T21:56:42.673Z","obsTime":1776203580,"reportTime":"2026-04-14T22:00:00.000Z","temp":8.3,"dewp":-2.2,"wdir":300,"wspd":10,"wgst":21,"visib":"10+","altim":1016.7,"slp":1014.5,"qcField":6,"precip":0.005,"metarType":"METAR","rawOb":"METAR KDRO 142153Z AUTO 30010G21KT 10SM FEW049 BKN060 OVC070 08/M02 A3002 RMK AO2 RAB2054E05 SLP145 P0000 T00831022","lat":37.1431,"lon":-107.7602,"elev":2021,"name":"Durango/La Plata Cnty, CO, US","cover":"OVC","clouds":[{"cover":"FEW","base":4900},{"cover":"BKN","base":6000},{"cover":"OVC","base":7000}],"fltCat":"VFR"},{"icaoId":"KDTW","receiptTime":"2026-04-14T21:56:42.742Z","obsTime":1776203580,"reportTime":"2026-04-14T22:00:00.000Z","temp":26.1,"dewp":15.6,"wdir":210,"wspd":13,"visib":"10+","altim":1010.2,"slp":1009.8,"qcField":12,"metarType":"METAR","rawOb":"METAR KDTW 142153Z 21013KT 10SM BKN055 BKN070 26/16 A2983 RMK AO2 SLP098 T02610156 $","lat":42.2311,"lon":-83.3312,"elev":192,"name":"Detroit/Metro Wayne Cnty, MI, US","cover":"BKN","clouds":[{"cover":"BKN","base":5500},{"cover":"BKN","base":7000}],"fltCat":"VFR"},{"icaoId":"KGSP","receiptTime":"2026-04-14T21:56:37.586Z","obsTime":1776203580,"reportTime":"2026-04-14T22:00:00.000Z","temp":27.2,"dewp":11.1,"wdir":210,"wspd":10,"visib":"10+","altim":1019.7,"slp":1018.6,"qcField":4,"metarType":"METAR","rawOb":"METAR KGSP 142153Z 21010KT 10SM FEW120 27/11 A3011 RMK AO2 SLP186 T02720111","lat":34.8842,"lon":-82.2209,"elev":285,"name":"Greenville-Spartanburg Intl, SC, US","cover":"FEW","clouds":[{"cover":"FEW","base":12000}],"fltCat":"VFR"},{"icaoId":"KLAX","receiptTime":"2026-04-14T21:56:36.030Z","obsTime":1776203580,"reportTime":"2026-04-14T22:00:00.000Z","temp":19.4,"dewp":11.1,"wdir":260,"wspd":13,"visib":"10+","altim":1018.4,"slp":1018.1,"qcField":4,"metarType":"METAR","rawOb":"METAR KLAX 142153Z 26013KT 10SM FEW015 FEW070 19/11 A3007 RMK AO2 SLP181 T01940111","lat":33.9382,"lon":-118.3866,"elev":30,"name":"Los Angeles Intl, CA, US","cover":"FEW","clouds":[{"cover":"FEW","base":1500},{"cover":"FEW","base":7000}],"fltCat":"VFR"},{"icaoId":"KLBB","receiptTime":"2026-04-14T21:56:36.048Z","obsTime":1776203580,"reportTime":"2026-04-14T22:00:00.000Z","temp":28.3,"dewp":0,"wdir":230,"wspd":21,"wgst":30,"visib":"10+","altim":1010.6,"slp":1005.5,"qcField":4,"metarType":"METAR","rawOb":"METAR KLBB 142153Z 23021G30KT 10SM FEW080 FEW140 BKN170 BKN250 28/00 A2984 RMK AO2 PK WND 23030/2148 SLP055 T02830000","lat":33.6658,"lon":-101.8233,"elev":996,"name":"Lubbock Intl Arpt, TX, US","cover":"BKN","clouds":[{"cover":"FEW","base":8000},{"cover":"FEW","base":14000},{"cover":"BKN","base":17000},{"cover":"BKN","base":25000}],"fltCat":"VFR"},{"icaoId":"PANC","receiptTime":"2026-04-14T21:56:49.685Z","obsTime":1776203580,"reportTime":"2026-04-14T22:00:00.000Z","temp":3.9,"dewp":-6.1,"wdir":230,"wspd":5,"visib":"10+","altim":1011.6,"slp":1011.7,"qcField":4,"metarType":"METAR","rawOb":"METAR PANC 142153Z 23005KT 10SM FEW100 SCT200 04/M06 A2987 RMK AO2 SLP117 T00391061","lat":61.1691,"lon":-150.0277,"elev":39,"name":"Anchorage Intl, AK, US","cover":"SCT","clouds":[{"cover":"FEW","base":10000},{"cover":"SCT","base":20000}],"fltCat":"VFR"},{"icaoId":"KPSP","receiptTime":"2026-04-14T21:56:46.901Z","obsTime":1776203580,"reportTime":"2026-04-14T22:00:00.000Z","temp":26.7,"dewp":0,"wdir":10,"wspd":3,"visib":"10+","altim":1015,"slp":1014.6,"qcField":12,"metarType":"METAR","rawOb":"METAR KPSP 142153Z 01003KT 10SM CLR 27/00 A2997 RMK AO2 SLP146 T02670000 $","lat":33.8222,"lon":-116.5043,"elev":123,"name":"Palm Springs Intl, CA, US","cover":"CLR","clouds":[],"fltCat":"VFR"},{"icaoId":"KSNA","receiptTime":"2026-04-14T21:56:48.846Z","obsTime":1776203580,"reportTime":"2026-04-14T22:00:00.000Z","temp":20.6,"dewp":9.4,"wdir":"VRB","wspd":5,"visib":"10+","altim":1018,"slp":1017.7,"qcField":12,"metarType":"METAR","rawOb":"METAR KSNA 142153Z VRB05KT 10SM FEW037 21/09 A3006 RMK AO2 SLP177 T02060094 $","lat":33.6798,"lon":-117.8675,"elev":14,"name":"Santa Ana/Wayne Arpt, CA, US","cover":"FEW","clouds":[{"cover":"FEW","base":3700}],"fltCat":"VFR"},{"icaoId":"KMCO","receiptTime":"2026-04-14T21:56:36.741Z","obsTime":1776203580,"reportTime":"2026-04-14T22:00:00.000Z","temp":27.2,"dewp":13.9,"wdir":90,"wspd":14,"wgst":19,"visib":"10+","altim":1021.8,"slp":1021.6,"qcField":4,"metarType":"METAR","rawOb":"METAR KMCO 142153Z 09014G19KT 10SM FEW050 27/14 A3017 RMK AO2 SLP216 T02720139","lat":28.4182,"lon":-81.3241,"elev":27,"name":"Orlando Intl, FL, US","cover":"FEW","clouds":[{"cover":"FEW","base":5000}],"fltCat":"VFR"},{"icaoId":"KHIO","receiptTime":"2026-04-14T21:56:39.902Z","obsTime":1776203580,"reportTime":"2026-04-14T22:00:00.000Z","temp":10,"dewp":7.2,"wdir":180,"wspd":10,"visib":"10+","altim":1016.7,"slp":1016.7,"qcField":4,"wxString":"-RA","precip":0.005,"metarType":"METAR","rawOb":"METAR KHIO 142153Z 18010KT 10SM -RA BKN018 BKN037 OVC045 10/07 A3002 RMK AO2 SLP167 P0000 T01000072","lat":45.5476,"lon":-122.9557,"elev":62,"name":"Portland/Hillsboro Arpt, OR, US","cover":"OVC","clouds":[{"cover":"BKN","base":1800},{"cover":"BKN","base":3700},{"cover":"OVC","base":4500}],"fltCat":"MVFR"},{"icaoId":"KCRQ","receiptTime":"2026-04-14T21:56:34.331Z","obsTime":1776203580,"reportTime":"2026-04-14T22:00:00.000Z","temp":18.3,"dewp":10.6,"wdir":240,"wspd":9,"wgst":18,"visib":"10+","altim":1017.7,"slp":1017.5,"qcField":4,"metarType":"METAR","rawOb":"METAR KCRQ 142153Z 24009G18KT 10SM CLR 18/11 A3005 RMK AO2 SLP175 T01830106","lat":33.1299,"lon":-117.2765,"elev":96,"name":"Carlsbad/Palomar Arpt, CA, US","cover":"CLR","clouds":[],"fltCat":"VFR"},{"icaoId":"KCNM","receiptTime":"2026-04-14T21:56:46.427Z","obsTime":1776203580,"reportTime":"2026-04-14T22:00:00.000Z","temp":27.8,"dewp":1.1,"wdir":240,"wspd":29,"wgst":37,"visib":"10+","altim":1012.6,"slp":1007.2,"qcField":6,"metarType":"METAR","rawOb":"METAR KCNM 142153Z AUTO 24029G37KT 10SM CLR 28/01 A2990 RMK AO2 PK WND 26048/2124 SLP072 T02780011","lat":32.3336,"lon":-104.2584,"elev":993,"name":"Carlsbad/Cavern City Air Term, NM, US","cover":"CLR","clouds":[],"fltCat":"VFR"},{"icaoId":"KCDC","receiptTime":"2026-04-14T21:56:46.241Z","obsTime":1776203580,"reportTime":"2026-04-14T22:00:00.000Z","temp":10,"dewp":-1.1,"wdir":0,"wspd":0,"visib":"10+","altim":1017.7,"slp":1016,"qcField":6,"metarType":"METAR","rawOb":"METAR KCDC 142153Z AUTO 00000KT 10SM SCT090 10/M01 A3005 RMK AO2 SLP160 T01001011","lat":37.7067,"lon":-113.097,"elev":1703,"name":"Cedar City Muni, UT, US","cover":"SCT","clouds":[{"cover":"SCT","base":9000}],"fltCat":"VFR"},{"icaoId":"KSJC","receiptTime":"2026-04-14T21:56:48.776Z","obsTime":1776203580,"reportTime":"2026-04-14T22:00:00.000Z","temp":17.8,"dewp":8.3,"wdir":320,"wspd":13,"wgst":20,"visib":"10+","altim":1021.8,"slp":1021.4,"qcField":12,"metarType":"METAR","rawOb":"METAR KSJC 142153Z 32013G20KT 10SM FEW048 FEW060 18/08 A3017 RMK AO2 SLP214 T01780083 $","lat":37.3594,"lon":-121.9244,"elev":13,"name":"San Jose Intl Arpt, CA, US","cover":"FEW","clouds":[{"cover":"FEW","base":4800},{"cover":"FEW","base":6000}],"fltCat":"VFR"},{"icaoId":"KCPR","receiptTime":"2026-04-14T21:56:46.478Z","obsTime":1776203580,"reportTime":"2026-04-14T22:00:00.000Z","temp":16.1,"dewp":-10,"wdir":230,"wspd":8,"wgst":20,"visib":"10+","altim":1007.9,"slp":1005.3,"qcField":4,"metarType":"METAR","rawOb":"METAR KCPR 142153Z 23008G20KT 10SM CLR 16/M10 A2976 RMK AO2 SLP053 T01611100","lat":42.8978,"lon":-106.4736,"elev":1623,"name":"Casper/Natrona Cnty, WY, US","cover":"CLR","clouds":[],"fltCat":"VFR"},{"icaoId":"KBLI","receiptTime":"2026-04-14T21:56:44.285Z","obsTime":1776203580,"reportTime":"2026-04-14T22:00:00.000Z","temp":8.3,"dewp":5.6,"wdir":170,"wspd":17,"wgst":27,"visib":6,"altim":1008.5,"slp":1009.3,"qcField":4,"wxString":"-RA","precip":0.01,"metarType":"METAR","rawOb":"METAR KBLI 142153Z 17017G27KT 6SM -RA BKN021 OVC028 08/06 A2978 RMK AO2 PK WND 16031/2130 SLP093 P0001 T00830056","lat":48.7991,"lon":-122.5407,"elev":46,"name":"Bellingham Intl, WA, US","cover":"OVC","clouds":[{"cover":"BKN","base":2100},{"cover":"OVC","base":2800}],"fltCat":"MVFR"},{"icaoId":"KDMN","receiptTime":"2026-04-14T21:56:35.552Z","obsTime":1776203580,"reportTime":"2026-04-14T22:00:00.000Z","temp":25.6,"dewp":-1.7,"wdir":270,"wspd":12,"wgst":24,"visib":"10+","altim":1014,"slp":1006.9,"qcField":6,"metarType":"METAR","rawOb":"METAR KDMN 142153Z AUTO 27012G24KT 10SM CLR 26/M02 A2994 RMK AO2 PK WND 28038/2057 SLP069 T02561017","lat":32.2592,"lon":-107.7206,"elev":1310,"name":"Deming Muni, NM, US","cover":"CLR","clouds":[],"fltCat":"VFR"},{"icaoId":"KFAT","receiptTime":"2026-04-14T21:56:35.664Z","obsTime":1776203580,"reportTime":"2026-04-14T22:00:00.000Z","temp":21.7,"dewp":6.1,"wdir":"VRB","wspd":4,"visib":"10+","altim":1019.4,"slp":1019.2,"qcField":4,"metarType":"METAR","rawOb":"METAR KFAT 142153Z VRB04KT 10SM SCT050 BKN200 22/06 A3010 RMK AO2 SLP192 T02170061","lat":36.78,"lon":-119.7202,"elev":102,"name":"Fresno/Yosemite Intl, CA, US","cover":"BKN","clouds":[{"cover":"SCT","base":5000},{"cover":"BKN","base":20000}],"fltCat":"VFR"},{"icaoId":"KGEG","receiptTime":"2026-04-14T21:56:35.916Z","obsTime":1776203580,"reportTime":"2026-04-14T22:00:00.000Z","temp":8.3,"dewp":-0.6,"wdir":220,"wspd":18,"wgst":24,"visib":"10+","altim":1012.3,"slp":1012.9,"qcField":4,"metarType":"METAR","rawOb":"METAR KGEG 142153Z 22018G24KT 10SM SCT034 OVC070 08/M01 A2989 RMK AO2 PK WND 20027/2142 SLP129 SHRA DSNT W-NW T00831006","lat":47.6217,"lon":-117.528,"elev":718,"name":"Spokane Intl, WA, US","cover":"OVC","clouds":[{"cover":"SCT","base":3400},{"cover":"OVC","base":7000}],"fltCat":"VFR"},{"icaoId":"KTUS","receiptTime":"2026-04-14T21:56:36.274Z","obsTime":1776203580,"reportTime":"2026-04-14T22:00:00.000Z","temp":23.3,"dewp":0.6,"wdir":280,"wspd":8,"visib":"10+","altim":1015.3,"slp":1011.7,"qcField":12,"metarType":"METAR","rawOb":"METAR KTUS 142153Z 28008KT 10SM CLR 23/01 A2998 RMK AO2 SLP117 T02330006 $","lat":32.1315,"lon":-110.9564,"elev":776,"name":"Tucson Intl Arpt, AZ, US","cover":"CLR","clouds":[],"fltCat":"VFR"},{"icaoId":"KLOL","receiptTime":"2026-04-14T21:56:36.366Z","obsTime":1776203580,"reportTime":"2026-04-14T22:00:00.000Z","temp":17.8,"dewp":-5.6,"wdir":270,"wspd":13,"wgst":17,"visib":"10+","altim":1016.7,"slp":1015.5,"qcField":6,"metarType":"METAR","rawOb":"METAR KLOL 142153Z AUTO 27013G17KT 10SM CLR 18/M06 A3002 RMK AO2 SLP155 T01781056","lat":40.0684,"lon":-118.5702,"elev":1191,"name":"Lovelock/Derby Fld, NV, US","cover":"CLR","clouds":[],"fltCat":"VFR"},{"icaoId":"KLVS","receiptTime":"2026-04-14T21:56:36.545Z","obsTime":1776203580,"reportTime":"2026-04-14T22:00:00.000Z","temp":14.4,"dewp":-5.6,"wdir":220,"wspd":20,"wgst":31,"visib":"10+","altim":1014,"slp":1006.9,"qcField":14,"metarType":"METAR","rawOb":"METAR KLVS 142153Z AUTO 22020G31KT 10SM CLR 14/M06 A2994 RMK AO2 PK WND 20044/2108 SLP069 T01441056 PNO $","lat":35.6558,"lon":-105.1385,"elev":2095,"name":"Las Vegas Muni, NM, US","cover":"CLR","clouds":[],"fltCat":"VFR"},{"icaoId":"KMFE","receiptTime":"2026-04-14T21:56:36.799Z","obsTime":1776203580,"reportTime":"2026-04-14T22:00:00.000Z","temp":31.1,"dewp":20.6,"wdir":150,"wspd":19,"wgst":27,"visib":"10+","altim":1012.3,"slp":1012,"qcField":4,"metarType":"METAR","rawOb":"METAR KMFE 142153Z 15019G27KT 10SM SCT039 31/21 A2989 RMK AO2 PK WND 13029/2115 SLP120 T03110206","lat":26.1791,"lon":-98.2445,"elev":29,"name":"McAllen/Miller Intl, TX, US","cover":"SCT","clouds":[{"cover":"SCT","base":3900}],"fltCat":"VFR"},{"icaoId":"KMLS","receiptTime":"2026-04-14T21:56:37.103Z","obsTime":1776203580,"reportTime":"2026-04-14T22:00:00.000Z","temp":17.8,"dewp":2.2,"wdir":230,"wspd":5,"visib":"10+","altim":1005.8,"slp":1005.7,"qcField":6,"metarType":"METAR","rawOb":"METAR KMLS 142153Z AUTO 23005KT 10SM CLR 18/02 A2970 RMK AO2 SLP057 T01780022","lat":46.4265,"lon":-105.8834,"elev":800,"name":"Miles City/Wiley Fld, MT, US","cover":"CLR","clouds":[],"fltCat":"VFR"},{"icaoId":"KGJT","receiptTime":"2026-04-14T21:56:37.332Z","obsTime":1776203580,"reportTime":"2026-04-14T22:00:00.000Z","temp":9.4,"dewp":2.8,"wdir":320,"wspd":6,"wgst":15,"visib":"10+","altim":1014.6,"slp":1012.6,"qcField":4,"precip":0.005,"metarType":"METAR","rawOb":"METAR KGJT 142153Z 32006G15KT 10SM CLR 09/03 A2996 RMK AO2 RAE21 SLP126 P0000 T00940028","lat":39.1344,"lon":-108.5408,"elev":1475,"name":"Grand Junction Rgnl, CO, US","cover":"CLR","clouds":[],"fltCat":"VFR"},{"icaoId":"KGTF","receiptTime":"2026-04-14T21:56:37.615Z","obsTime":1776203580,"reportTime":"2026-04-14T22:00:00.000Z","temp":14.4,"dewp":-3.9,"wdir":250,"wspd":25,"wgst":37,"visib":"10+","altim":1005.2,"slp":1005.2,"qcField":4,"metarType":"METAR","rawOb":"METAR KGTF 142153Z 25025G37KT 10SM CLR 14/M04 A2968 RMK AO2 PK WND 24039/2056 SLP052 T01441039","lat":47.4733,"lon":-111.3828,"elev":1117,"name":"Great Falls Intl, MT, US","cover":"CLR","clouds":[],"fltCat":"VFR"},{"icaoId":"KTPA","receiptTime":"2026-04-14T21:56:38.103Z","obsTime":1776203580,"reportTime":"2026-04-14T22:00:00.000Z","temp":30,"dewp":13.3,"wdir":40,"wspd":8,"visib":"10+","altim":1019.7,"slp":1019.7,"qcField":4,"metarType":"METAR","rawOb":"METAR KTPA 142153Z 04008KT 10SM SCT065 SCT250 30/13 A3011 RMK AO2 SLP197 T03000133","lat":27.9633,"lon":-82.54,"elev":2,"name":"Tampa Intl Arpt, FL, US","cover":"SCT","clouds":[{"cover":"SCT","base":6500},{"cover":"SCT","base":25000}],"fltCat":"VFR"},{"icaoId":"KTWF","receiptTime":"2026-04-14T21:56:38.268Z","obsTime":1776203580,"reportTime":"2026-04-14T22:00:00.000Z","temp":13.9,"dewp":-0.6,"wdir":290,"wspd":12,"wgst":24,"visib":"10+","altim":1015,"slp":1013.2,"qcField":4,"metarType":"METAR","rawOb":"METAR KTWF 142153Z 29012G24KT 10SM FEW055 14/M01 A2997 RMK AO2 SLP132 T01391006","lat":42.4785,"lon":-114.4775,"elev":1269,"name":"Twin Falls/Joslin Fld, ID, US","cover":"FEW","clouds":[{"cover":"FEW","base":5500}],"fltCat":"VFR"},{"icaoId":"KMOD","receiptTime":"2026-04-14T21:56:38.352Z","obsTime":1776203580,"reportTime":"2026-04-14T22:00:00.000Z","temp":21.1,"dewp":7.2,"wdir":"VRB","wspd":5,"visib":"10+","altim":1019.7,"slp":1019.7,"qcField":4,"metarType":"METAR","rawOb":"METAR KMOD 142153Z VRB05KT 10SM FEW050 21/07 A3011 RMK AO2 SLP197 T02110072","lat":37.6254,"lon":-120.9549,"elev":25,"name":"Modesto/Sham Fld, CA, US","cover":"FEW","clouds":[{"cover":"FEW","base":5000}],"fltCat":"VFR"},{"icaoId":"KMSY","receiptTime":"2026-04-14T21:56:38.487Z","obsTime":1776203580,"reportTime":"2026-04-14T22:00:00.000Z","temp":26.1,"dewp":16.7,"wdir":160,"wspd":11,"visib":"10+","altim":1019.7,"slp":1019.9,"qcField":4,"metarType":"METAR","rawOb":"METAR KMSY 142153Z 16011KT 10SM FEW039 26/17 A3011 RMK AO2 SLP199 T02610167","lat":29.9974,"lon":-90.2777,"elev":0,"name":"New Orleans/Armstrong Intl, LA, US","cover":"FEW","clouds":[{"cover":"FEW","base":3900}],"fltCat":"VFR"},{"icaoId":"KMTJ","receiptTime":"2026-04-14T21:56:38.534Z","obsTime":1776203580,"reportTime":"2026-04-14T22:00:00.000Z","temp":8.9,"dewp":0.6,"wdir":210,"wspd":12,"wgst":21,"visib":"10+","altim":1016,"slp":1012.2,"qcField":6,"precip":0.02,"metarType":"METAR","rawOb":"METAR KMTJ 142153Z AUTO 21012G21KT 10SM SCT044 BKN065 BKN085 09/01 A3000 RMK AO2 PK WND 24032/2115 LTG DSNT N RAB09E35 SLP122 P0002 T00890006","lat":38.5054,"lon":-107.8981,"elev":1755,"name":"Montrose Rgnl, CO, US","cover":"BKN","clouds":[{"cover":"SCT","base":4400},{"cover":"BKN","base":6500},{"cover":"BKN","base":8500}],"fltCat":"VFR"},{"icaoId":"KONT","receiptTime":"2026-04-14T21:56:38.830Z","obsTime":1776203580,"reportTime":"2026-04-14T22:00:00.000Z","temp":22.8,"dewp":6.7,"wdir":250,"wspd":9,"visib":"10+","altim":1017.4,"slp":1016.3,"qcField":12,"metarType":"METAR","rawOb":"METAR KONT 142153Z 25009KT 10SM FEW055 FEW080 23/07 A3004 RMK AO2 SLP163 T02280067 $","lat":34.0531,"lon":-117.5769,"elev":279,"name":"Ontario Intl, CA, US","cover":"FEW","clouds":[{"cover":"FEW","base":5500},{"cover":"FEW","base":8000}],"fltCat":"VFR"},{"icaoId":"KPAE","receiptTime":"2026-04-14T21:56:39.077Z","obsTime":1776203580,"reportTime":"2026-04-14T22:00:00.000Z","temp":8.3,"dewp":5.6,"wdir":180,"wspd":24,"wgst":41,"visib":"10+","altim":1010.9,"slp":1011.2,"qcField":4,"precip":0.02,"metarType":"METAR","rawOb":"METAR KPAE 142153Z 18024G41KT 10SM BKN008 BKN015 OVC055 08/06 A2985 RMK AO2 PK WND 21041/2144 RAE25 SLP112 P0002 T00830056","lat":47.9232,"lon":-122.2831,"elev":166,"name":"Everett/Paine Fld, WA, US","cover":"OVC","clouds":[{"cover":"BKN","base":800},{"cover":"BKN","base":1500},{"cover":"OVC","base":5500}],"fltCat":"IFR"},{"icaoId":"KPBI","receiptTime":"2026-04-14T21:56:39.166Z","obsTime":1776203580,"reportTime":"2026-04-14T22:00:00.000Z","temp":26.1,"dewp":14.4,"wdir":80,"wspd":12,"visib":"10+","altim":1020.7,"slp":1020.4,"qcField":12,"metarType":"METAR","rawOb":"METAR KPBI 142153Z 08012KT 10SM FEW036 FEW250 26/14 A3014 RMK AO2 SLP204 T02610144 $","lat":26.6851,"lon":-80.0992,"elev":4,"name":"Palm Beach Intl, FL, US","cover":"FEW","clouds":[{"cover":"FEW","base":3600},{"cover":"FEW","base":25000}],"fltCat":"VFR"},{"icaoId":"KFUL","receiptTime":"2026-04-14T21:56:39.594Z","obsTime":1776203580,"reportTime":"2026-04-14T22:00:00.000Z","temp":21.7,"dewp":11.1,"wdir":170,"wspd":8,"visib":"10+","altim":1017.4,"slp":1017.2,"qcField":4,"metarType":"METAR","rawOb":"METAR KFUL 142153Z 17008KT 10SM CLR 22/11 A3004 RMK AO2 SLP172 T02170111","lat":33.8715,"lon":-117.9856,"elev":23,"name":"Fullerton Muni, CA, US","cover":"CLR","clouds":[],"fltCat":"VFR"},{"icaoId":"KLGB","receiptTime":"2026-04-14T21:56:40.299Z","obsTime":1776203580,"reportTime":"2026-04-14T22:00:00.000Z","temp":20.6,"dewp":9.4,"wdir":200,"wspd":10,"wgst":17,"visib":"10+","altim":1017.7,"slp":1017.6,"qcField":12,"metarType":"METAR","rawOb":"METAR KLGB 142153Z 20010G17KT 10SM CLR 21/09 A3005 RMK AO2 SLP176 T02060094 $","lat":33.8118,"lon":-118.1472,"elev":10,"name":"Long Beach Arpt, CA, US","cover":"CLR","clouds":[],"fltCat":"VFR"},{"icaoId":"KDVT","receiptTime":"2026-04-14T21:56:42.788Z","obsTime":1776203580,"reportTime":"2026-04-14T22:00:00.000Z","temp":23.9,"dewp":-2.2,"visib":"10+","altim":1014.6,"slp":1012.9,"qcField":4,"metarType":"METAR","rawOb":"METAR KDVT 142153Z 10SM CLR 24/M02 A2996 RMK AO2 SLP129 T02391022","lat":33.6902,"lon":-112.0662,"elev":454,"name":"Phoenix/Deer Valley Arpt, AZ, US","cover":"CLR","clouds":[],"fltCat":"VFR"},{"icaoId":"KEVW","receiptTime":"2026-04-14T21:56:43.053Z","obsTime":1776203580,"reportTime":"2026-04-14T22:00:00.000Z","temp":9.4,"dewp":-5.6,"wdir":280,"wspd":14,"wgst":24,"visib":"10+","altim":1015,"slp":1012.1,"qcField":14,"metarType":"METAR","rawOb":"METAR KEVW 142153Z AUTO 28014G24KT 10SM OVC060 09/M06 A2997 RMK AO2 SLP121 T00941056 $","lat":41.2727,"lon":-111.0305,"elev":2178,"name":"Evanston/Uinta Cnty, WY, US","cover":"OVC","clouds":[{"cover":"OVC","base":6000}],"fltCat":"VFR"},{"icaoId":"KBHM","receiptTime":"2026-04-14T21:56:44.194Z","obsTime":1776203580,"reportTime":"2026-04-14T22:00:00.000Z","temp":28.9,"dewp":5,"wdir":180,"wspd":11,"wgst":16,"visib":"10+","altim":1020.7,"slp":1019.9,"qcField":4,"metarType":"METAR","rawOb":"METAR KBHM 142153Z 18011G16KT 10SM FEW250 29/05 A3014 RMK AO2 SLP199 T02890050","lat":33.5655,"lon":-86.7449,"elev":191,"name":"Birmingham Intl, AL, US","cover":"FEW","clouds":[{"cover":"FEW","base":25000}],"fltCat":"VFR"},{"icaoId":"KPRC","receiptTime":"2026-04-14T21:56:46.874Z","obsTime":1776203580,"reportTime":"2026-04-14T22:00:00.000Z","temp":13.3,"dewp":-2.2,"wdir":340,"wspd":7,"visib":"10+","altim":1018,"slp":1014.2,"qcField":6,"metarType":"METAR","rawOb":"METAR KPRC 142153Z AUTO 34007KT 10SM BKN070 13/M02 A3006 RMK AO2 SLP142 T01331022","lat":34.6491,"lon":-112.4223,"elev":1528,"name":"Prescott/Love Fld, AZ, US","cover":"BKN","clouds":[{"cover":"BKN","base":7000}],"fltCat":"VFR"},{"icaoId":"KRDD","receiptTime":"2026-04-14T21:56:47.062Z","obsTime":1776203580,"reportTime":"2026-04-14T22:00:00.000Z","temp":17.8,"dewp":6.7,"wdir":160,"wspd":5,"visib":"10+","altim":1019,"slp":1018.9,"qcField":4,"metarType":"METAR","rawOb":"METAR KRDD 142153Z 16005KT 10SM FEW048 18/07 A3009 RMK AO2 SLP189 T01780067","lat":40.5146,"lon":-122.2977,"elev":152,"name":"Redding Muni, CA, US","cover":"FEW","clouds":[{"cover":"FEW","base":4800}],"fltCat":"VFR"},{"icaoId":"KOKC","receiptTime":"2026-04-14T21:56:32.900Z","obsTime":1776203520,"reportTime":"2026-04-14T22:00:00.000Z","temp":25.6,"dewp":20,"wdir":180,"wspd":16,"wgst":25,"visib":"10+","altim":1010.2,"slp":1008.7,"qcField":4,"precip":0.005,"metarType":"METAR","rawOb":"METAR KOKC 142152Z 18016G25KT 10SM FEW029 SCT085 SCT110 OVC250 26/20 A2983 RMK AO2 PK WND 18029/2117 RAB26E37 SLP087 P0000 T02560200","lat":35.3843,"lon":-97.6003,"elev":391,"name":"Oklahoma City/Will Rogers Intl, OK, US","cover":"OVC","clouds":[{"cover":"FEW","base":2900},{"cover":"SCT","base":8500},{"cover":"SCT","base":11000},{"cover":"OVC","base":25000}],"fltCat":"VFR"},{"icaoId":"KIAD","receiptTime":"2026-04-14T21:56:32.610Z","obsTime":1776203520,"reportTime":"2026-04-14T22:00:00.000Z","temp":30,"dewp":12.8,"wdir":210,"wspd":13,"wgst":21,"visib":"10+","altim":1013.3,"slp":1012.8,"qcField":12,"metarType":"METAR","rawOb":"METAR KIAD 142152Z 21013G21KT 180V250 10SM SCT080 SCT110 BKN250 30/13 A2992 RMK AO2 SLP128 T03000128 $","lat":38.9348,"lon":-77.4473,"elev":90,"name":"Washington/Dulles Intl, VA, US","cover":"BKN","clouds":[{"cover":"SCT","base":8000},{"cover":"SCT","base":11000},{"cover":"BKN","base":25000}],"fltCat":"VFR"},{"icaoId":"KHRL","receiptTime":"2026-04-14T21:56:32.570Z","obsTime":1776203520,"reportTime":"2026-04-14T22:00:00.000Z","temp":29.4,"dewp":20.6,"wdir":140,"wspd":20,"wgst":28,"visib":"10+","altim":1013,"slp":1012.6,"qcField":4,"metarType":"METAR","rawOb":"METAR KHRL 142152Z 14020G28KT 10SM BKN040 29/21 A2991 RMK AO2 PK WND 13029/2058 SLP126 T02940206","lat":26.2303,"lon":-97.6556,"elev":9,"name":"Harlingen/Valley Intl, TX, US","cover":"BKN","clouds":[{"cover":"BKN","base":4000}],"fltCat":"VFR"},{"icaoId":"KMLF","receiptTime":"2026-04-14T21:56:33.658Z","obsTime":1776203520,"reportTime":"2026-04-14T22:00:00.000Z","temp":13.3,"dewp":-3.9,"wdir":120,"wspd":6,"visib":"10+","altim":1016.3,"slp":1014,"qcField":6,"metarType":"METAR","rawOb":"METAR KMLF 142152Z AUTO 12006KT 10SM BKN070 OVC090 13/M04 A3001 RMK AO2 SLP140 T01331039","lat":38.4225,"lon":-113.0109,"elev":1537,"name":"Milford Muni, UT, US","cover":"OVC","clouds":[{"cover":"BKN","base":7000},{"cover":"OVC","base":9000}],"fltCat":"VFR"},{"icaoId":"KTRM","receiptTime":"2026-04-14T21:59:06.899Z","obsTime":1776203520,"reportTime":"2026-04-14T22:00:00.000Z","temp":28.9,"dewp":2.8,"wdir":150,"wspd":10,"wgst":16,"visib":"10+","altim":1013.6,"slp":1013.7,"qcField":46,"metarType":"METAR","rawOb":"METAR KTRM 142152Z AUTO 15010G16KT 10SM CLR 29/03 A2993 RMK AO2 SLP137 T02890028 TSNO $","lat":33.6317,"lon":-116.1641,"elev":-39,"name":"Thermal Arpt, CA, US","cover":"CLR","clouds":[],"fltCat":"VFR"},{"icaoId":"KABQ","receiptTime":"2026-04-14T21:56:33.688Z","obsTime":1776203520,"reportTime":"2026-04-14T22:00:00.000Z","temp":19.4,"dewp":-5,"wdir":290,"wspd":12,"wgst":27,"visib":"10+","altim":1013.3,"slp":1007.3,"qcField":4,"metarType":"METAR","rawOb":"METAR KABQ 142152Z 29012G27KT 10SM SCT100 19/M05 A2992 RMK AO2 PK WND 31027/2137 SLP073 T01941050","lat":35.0419,"lon":-106.6154,"elev":1620,"name":"Albuquerque Intl, NM, US","cover":"SCT","clouds":[{"cover":"SCT","base":10000}],"fltCat":"VFR"},{"icaoId":"KCLT","receiptTime":"2026-04-14T21:56:33.237Z","obsTime":1776203520,"reportTime":"2026-04-14T22:00:00.000Z","temp":28.9,"dewp":10.6,"wdir":220,"wspd":9,"visib":"10+","altim":1019,"slp":1019.7,"qcField":4,"metarType":"METAR","rawOb":"METAR KCLT 142152Z 22009KT 10SM FEW080 SCT250 29/11 A3009 RMK AO2 SLP197 T02890106","lat":35.2225,"lon":-80.9543,"elev":223,"name":"Charlotte/Douglas Intl, NC, US","cover":"SCT","clouds":[{"cover":"FEW","base":8000},{"cover":"SCT","base":25000}],"fltCat":"VFR"},{"icaoId":"KDCA","receiptTime":"2026-04-14T21:56:40.394Z","obsTime":1776203520,"reportTime":"2026-04-14T22:00:00.000Z","temp":27.8,"dewp":15,"wdir":180,"wspd":12,"visib":"10+","altim":1013,"slp":1012.8,"qcField":4,"metarType":"METAR","rawOb":"METAR KDCA 142152Z 18012KT 10SM FEW070 SCT110 SCT250 28/15 A2991 RMK AO2 SLP128 CB DSNT NW-N MOV E T02780150","lat":38.8472,"lon":-77.0345,"elev":4,"name":"Washington/Reagan-National Arpt, VA, US","cover":"SCT","clouds":[{"cover":"FEW","base":7000},{"cover":"SCT","base":11000},{"cover":"SCT","base":25000}],"fltCat":"VFR"},{"icaoId":"KATL","receiptTime":"2026-04-14T21:56:33.078Z","obsTime":1776203520,"reportTime":"2026-04-14T22:00:00.000Z","temp":28.9,"dewp":5.6,"wdir":190,"wspd":8,"visib":9,"altim":1021.1,"slp":1020,"qcField":12,"metarType":"METAR","rawOb":"METAR KATL 142152Z 19008KT 9SM FEW250 29/06 A3015 RMK AO2 SLP200 T02890056 $","lat":33.6297,"lon":-84.4422,"elev":309,"name":"Atlanta/Hartsfield-Jackson Intl, GA, US","cover":"FEW","clouds":[{"cover":"FEW","base":25000}],"fltCat":"VFR"},{"icaoId":"KCVG","receiptTime":"2026-04-14T21:56:40.369Z","obsTime":1776203520,"reportTime":"2026-04-14T22:00:00.000Z","temp":26.1,"dewp":16.1,"wdir":210,"wspd":15,"wgst":26,"visib":"10+","altim":1014,"slp":1012.7,"qcField":4,"metarType":"METAR","rawOb":"METAR KCVG 142152Z 21015G26KT 10SM SCT049 BKN250 26/16 A2994 RMK AO2 PK WND 20026/2152 SLP127 T02610161","lat":39.0444,"lon":-84.6724,"elev":264,"name":"Cincinnati Intl, KY, US","cover":"BKN","clouds":[{"cover":"SCT","base":4900},{"cover":"BKN","base":25000}],"fltCat":"VFR"},{"icaoId":"KMKE","receiptTime":"2026-04-14T21:56:32.798Z","obsTime":1776203520,"reportTime":"2026-04-14T22:00:00.000Z","temp":26.1,"dewp":17.8,"wdir":220,"wspd":12,"wgst":20,"visib":"10+","altim":1004.8,"slp":1004.5,"qcField":4,"metarType":"METAR","rawOb":"METAR KMKE 142152Z 22012G20KT 10SM SCT041 BKN049 BKN160 26/18 A2967 RMK AO2 SLP045 T02610178","lat":42.9549,"lon":-87.9045,"elev":203,"name":"Milwaukee/Mitchell Intl, WI, US","cover":"BKN","clouds":[{"cover":"SCT","base":4100},{"cover":"BKN","base":4900},{"cover":"BKN","base":16000}],"fltCat":"VFR"},{"icaoId":"KROW","receiptTime":"2026-04-14T21:54:10.903Z","obsTime":1776203460,"reportTime":"2026-04-14T22:00:00.000Z","temp":25.6,"dewp":-1.1,"wdir":200,"wspd":26,"wgst":35,"visib":"10+","altim":1010.6,"slp":1004.8,"qcField":4,"metarType":"METAR","rawOb":"METAR KROW 142151Z 20026G35KT 10SM CLR 26/M01 A2984 RMK AO2 PK WND 20036/2113 SLP048 T02561011","lat":33.3074,"lon":-104.5082,"elev":1105,"name":"Roswell/Ind Arpt, NM, US","cover":"CLR","clouds":[],"fltCat":"VFR"},{"icaoId":"KLGA","receiptTime":"2026-04-14T21:56:32.685Z","obsTime":1776203460,"reportTime":"2026-04-14T22:00:00.000Z","temp":29.4,"dewp":12.8,"wdir":230,"wspd":14,"wgst":26,"visib":"10+","altim":1009.2,"slp":1009.3,"qcField":12,"metarType":"METAR","rawOb":"METAR KLGA 142151Z 23014G26KT 10SM FEW060 FEW150 SCT250 29/13 A2980 RMK AO2 PK WND 23026/2148 WSHFT 2128 SLP093 T02940128 $","lat":40.7794,"lon":-73.8803,"elev":9,"name":"New York/La Guardia Arpt, NY, US","cover":"SCT","clouds":[{"cover":"FEW","base":6000},{"cover":"FEW","base":15000},{"cover":"SCT","base":25000}],"fltCat":"VFR"},{"icaoId":"KVNY","receiptTime":"2026-04-14T21:54:11.137Z","obsTime":1776203460,"reportTime":"2026-04-14T22:00:00.000Z","temp":21.7,"dewp":8.9,"wdir":160,"wspd":9,"wgst":18,"visib":"10+","altim":1017,"slp":1016.4,"qcField":12,"metarType":"METAR","rawOb":"METAR KVNY 142151Z 16009G18KT 10SM CLR 22/09 A3003 RMK AO2 SLP164 T02170089 $","lat":34.2121,"lon":-118.4915,"elev":241,"name":"Van Nuys Arpt, CA, US","cover":"CLR","clouds":[],"fltCat":"VFR"},{"icaoId":"KSAN","receiptTime":"2026-04-14T21:54:10.931Z","obsTime":1776203460,"reportTime":"2026-04-14T22:00:00.000Z","temp":20,"dewp":9.4,"wdir":290,"wspd":8,"visib":"10+","altim":1018.4,"slp":1018.3,"qcField":12,"metarType":"METAR","rawOb":"METAR KSAN 142151Z 29008KT 10SM FEW040 20/09 A3007 RMK AO2 SLP183 T02000094 $","lat":32.7364,"lon":-117.1973,"elev":3,"name":"San Diego Intl Arpt, CA, US","cover":"FEW","clouds":[{"cover":"FEW","base":4000}],"fltCat":"VFR"},{"icaoId":"KACT","receiptTime":"2026-04-14T21:54:12.450Z","obsTime":1776203460,"reportTime":"2026-04-14T22:00:00.000Z","temp":27.2,"dewp":19.4,"wdir":170,"wspd":14,"visib":"10+","altim":1013.6,"slp":1012.9,"qcField":4,"metarType":"METAR","rawOb":"METAR KACT 142151Z 17014KT 10SM SCT038 BKN060 27/19 A2993 RMK AO2 TSB41E46 SLP129 T02720194","lat":31.618,"lon":-97.2283,"elev":150,"name":"Waco Rgnl, TX, US","cover":"BKN","clouds":[{"cover":"SCT","base":3800},{"cover":"BKN","base":6000}],"fltCat":"VFR"},{"icaoId":"KMYL","receiptTime":"2026-04-14T21:54:10.641Z","obsTime":1776203460,"reportTime":"2026-04-14T22:00:00.000Z","temp":7.2,"dewp":-1.1,"wdir":200,"wspd":12,"visib":"10+","altim":1015,"slp":1015.2,"qcField":6,"metarType":"METAR","rawOb":"METAR KMYL 142151Z AUTO 20012KT 10SM FEW034 BKN045 07/M01 A2997 RMK AO2 SLP152 T00721011","lat":44.8943,"lon":-116.0998,"elev":1532,"name":"McCall Muni, ID, US","cover":"BKN","clouds":[{"cover":"FEW","base":3400},{"cover":"BKN","base":4500}],"fltCat":"VFR"},{"icaoId":"KIGM","receiptTime":"2026-04-14T21:54:13.102Z","obsTime":1776203460,"reportTime":"2026-04-14T22:00:00.000Z","temp":18.9,"dewp":-3.9,"wdir":10,"wspd":6,"visib":"10+","altim":1016.7,"slp":1012.5,"qcField":6,"metarType":"METAR","rawOb":"METAR KIGM 142151Z AUTO 01006KT 10SM CLR 19/M04 A3002 RMK AO2 SLP125 T01891039","lat":35.2575,"lon":-113.9341,"elev":1045,"name":"Kingman Arpt, AZ, US","cover":"CLR","clouds":[],"fltCat":"VFR"},{"icaoId":"KCMH","receiptTime":"2026-04-14T21:54:12.774Z","obsTime":1776203460,"reportTime":"2026-04-14T22:00:00.000Z","temp":27.8,"dewp":15,"wdir":210,"wspd":13,"wgst":23,"visib":"10+","altim":1013,"slp":1012.1,"qcField":4,"metarType":"METAR","rawOb":"METAR KCMH 142151Z 21013G23KT 10SM SCT065 SCT250 28/15 A2991 RMK AO2 PK WND 21027/2102 SLP121 T02780150","lat":39.9907,"lon":-82.877,"elev":257,"name":"Columbus/Glenn Intl, OH, US","cover":"SCT","clouds":[{"cover":"SCT","base":6500},{"cover":"SCT","base":25000}],"fltCat":"VFR"},{"icaoId":"KPVD","receiptTime":"2026-04-14T21:54:10.797Z","obsTime":1776203460,"reportTime":"2026-04-14T22:00:00.000Z","temp":17.8,"dewp":11.1,"wdir":150,"wspd":13,"visib":"10+","altim":1009.9,"slp":1009.9,"qcField":4,"metarType":"METAR","rawOb":"METAR KPVD 142151Z 15013KT 10SM FEW040 FEW080 BKN250 18/11 A2982 RMK AO2 SLP099 T01780111","lat":41.7225,"lon":-71.4325,"elev":15,"name":"Providence/Green Mem, RI, US","cover":"BKN","clouds":[{"cover":"FEW","base":4000},{"cover":"FEW","base":8000},{"cover":"BKN","base":25000}],"fltCat":"VFR"},{"icaoId":"KPIT","receiptTime":"2026-04-14T21:54:10.743Z","obsTime":1776203460,"reportTime":"2026-04-14T22:00:00.000Z","temp":19.4,"dewp":16.1,"wdir":340,"wspd":4,"visib":"10+","altim":1014,"slp":1014.2,"qcField":12,"precip":0.27,"metarType":"METAR","rawOb":"METAR KPIT 142151Z 34004KT 10SM SCT047 BKN065 BKN110 19/16 A2994 RMK AO2 RAE50 TSE50 SLP142 OCNL LTG DSNT W P0027 T01940161 $","lat":40.4814,"lon":-80.2083,"elev":339,"name":"Pittsburgh Intl, PA, US","cover":"BKN","clouds":[{"cover":"SCT","base":4700},{"cover":"BKN","base":6500},{"cover":"BKN","base":11000}],"fltCat":"VFR"},{"icaoId":"KOXR","receiptTime":"2026-04-14T21:54:10.706Z","obsTime":1776203460,"reportTime":"2026-04-14T22:00:00.000Z","temp":18.3,"dewp":10,"wdir":240,"wspd":8,"visib":"10+","altim":1018.4,"slp":1018.3,"qcField":12,"metarType":"METAR","rawOb":"METAR KOXR 142151Z 24008KT 10SM CLR 18/10 A3007 RMK AO2 SLP183 T01830100 $","lat":34.2001,"lon":-119.2042,"elev":12,"name":"Oxnard Arpt, CA, US","cover":"CLR","clouds":[],"fltCat":"VFR"},{"icaoId":"KORD","receiptTime":"2026-04-14T21:54:10.654Z","obsTime":1776203460,"reportTime":"2026-04-14T22:00:00.000Z","temp":26.7,"dewp":18.3,"wdir":210,"wspd":20,"wgst":27,"visib":"10+","altim":1006.2,"slp":1005.7,"qcField":4,"metarType":"METAR","rawOb":"METAR KORD 142151Z 21020G27KT 10SM SCT039 BKN050 BKN150 BKN250 27/18 A2971 RMK AO2 PK WND 19027/2133 SLP057 T02670183","lat":41.9602,"lon":-87.9316,"elev":202,"name":"Chicago/O'Hare Intl, IL, US","cover":"BKN","clouds":[{"cover":"SCT","base":3900},{"cover":"BKN","base":5000},{"cover":"BKN","base":15000},{"cover":"BKN","base":25000}],"fltCat":"VFR"},{"icaoId":"KELP","receiptTime":"2026-04-14T21:54:12.951Z","obsTime":1776203460,"reportTime":"2026-04-14T22:00:00.000Z","temp":25,"dewp":0,"wdir":240,"wspd":20,"wgst":35,"visib":"10+","altim":1013.3,"slp":1006.5,"qcField":4,"wxString":"VCBLDU","metarType":"METAR","rawOb":"METAR KELP 142151Z 24020G35KT 10SM VCBLDU SCT100 SCT140 OVC250 25/00 A2992 RMK AO2 PK WND 25035/2142 SLP065 BLDU W-NE MTNS OBSCD NW T02500000","lat":31.8123,"lon":-106.3774,"elev":1205,"name":"El Paso Intl, TX, US","cover":"OVC","clouds":[{"cover":"SCT","base":10000},{"cover":"SCT","base":14000},{"cover":"OVC","base":25000}],"fltCat":"VFR"},{"icaoId":"KEWR","receiptTime":"2026-04-14T21:54:12.987Z","obsTime":1776203460,"reportTime":"2026-04-14T22:00:00.000Z","temp":30,"dewp":12.8,"wdir":240,"wspd":19,"wgst":35,"visib":"10+","altim":1009.6,"slp":1009.5,"qcField":4,"metarType":"METAR","rawOb":"METAR KEWR 142151Z 24019G35KT 10SM FEW060 FEW180 SCT250 30/13 A2981 RMK AO2 PK WND 24036/2103 SLP095 T03000128","lat":40.6828,"lon":-74.1692,"elev":2,"name":"Newark Intl, NJ, US","cover":"SCT","clouds":[{"cover":"FEW","base":6000},{"cover":"FEW","base":18000},{"cover":"SCT","base":25000}],"fltCat":"VFR"},{"icaoId":"KCLE","receiptTime":"2026-04-14T21:54:12.690Z","obsTime":1776203460,"reportTime":"2026-04-14T22:00:00.000Z","temp":23.9,"dewp":17.8,"wdir":210,"wspd":10,"wgst":19,"visib":"10+","altim":1011.3,"slp":1012.3,"qcField":12,"metarType":"METAR","rawOb":"METAR KCLE 142151Z 21010G19KT 10SM FEW040 SCT250 24/18 A2986 RMK AO2 SLP123 T02390178 $","lat":41.4057,"lon":-81.8519,"elev":237,"name":"Cleveland/Hopkins Intl, OH, US","cover":"SCT","clouds":[{"cover":"FEW","base":4000},{"cover":"SCT","base":25000}],"fltCat":"VFR"},{"icaoId":"KSAD","receiptTime":"2026-04-14T21:54:10.917Z","obsTime":1776203460,"reportTime":"2026-04-14T22:00:00.000Z","temp":24.4,"dewp":-2.8,"wdir":300,"wspd":15,"wgst":24,"visib":"10+","altim":1013.3,"slp":1009.4,"qcField":6,"metarType":"METAR","rawOb":"METAR KSAD 142151Z AUTO 30015G24KT 10SM CLR 24/M03 A2992 RMK AO2 PK WND 31028/2130 SLP094 T02441028","lat":32.8565,"lon":-109.636,"elev":937,"name":"Safford Rgnl, AZ, US","cover":"CLR","clouds":[],"fltCat":"VFR"},{"icaoId":"KSAT","receiptTime":"2026-04-14T21:54:10.953Z","obsTime":1776203460,"reportTime":"2026-04-14T22:00:00.000Z","temp":30.6,"dewp":17.2,"wdir":130,"wspd":17,"wgst":23,"visib":"10+","altim":1013,"slp":1011.1,"qcField":4,"metarType":"METAR","rawOb":"METAR KSAT 142151Z 13017G23KT 10SM BKN055 BKN070 BKN250 31/17 A2991 RMK AO2 SLP111 T03060172","lat":29.5443,"lon":-98.4839,"elev":246,"name":"San Antonio Intl, TX, US","cover":"BKN","clouds":[{"cover":"BKN","base":5500},{"cover":"BKN","base":7000},{"cover":"BKN","base":25000}],"fltCat":"VFR"},{"icaoId":"KPHX","receiptTime":"2026-04-14T21:54:10.718Z","obsTime":1776203460,"reportTime":"2026-04-14T22:00:00.000Z","temp":24.4,"dewp":-2.8,"wdir":250,"wspd":6,"visib":"10+","altim":1014.3,"slp":1012.8,"qcField":4,"metarType":"METAR","rawOb":"METAR KPHX 142151Z 25006KT 10SM FEW110 FEW140 24/M03 A2995 RMK AO2 WSHFT 2041 SLP128 T02441028","lat":33.4278,"lon":-112.0037,"elev":338,"name":"Phoenix/Sky Harbor Intl, AZ, US","cover":"FEW","clouds":[{"cover":"FEW","base":11000},{"cover":"FEW","base":14000}],"fltCat":"VFR"},{"icaoId":"KLGU","receiptTime":"2026-04-14T21:54:13.167Z","obsTime":1776203460,"reportTime":"2026-04-14T22:00:00.000Z","temp":12.2,"dewp":0.6,"wdir":50,"wspd":6,"visib":"10+","altim":1015.3,"slp":1014.2,"qcField":6,"metarType":"METAR","rawOb":"METAR KLGU 142151Z AUTO 05006KT 10SM FEW050 BKN090 12/01 A2998 RMK AO2 SLP142 T01220006","lat":41.7865,"lon":-111.8519,"elev":1359,"name":"Logan/Cache Arpt, UT, US","cover":"BKN","clouds":[{"cover":"FEW","base":5000},{"cover":"BKN","base":9000}],"fltCat":"VFR"},{"icaoId":"KJFK","receiptTime":"2026-04-14T21:54:13.152Z","obsTime":1776203460,"reportTime":"2026-04-14T22:00:00.000Z","temp":18.3,"dewp":10.6,"wdir":210,"wspd":7,"visib":"10+","altim":1010.2,"slp":1010.2,"qcField":4,"metarType":"METAR","rawOb":"METAR KJFK 142151Z 21007KT 10SM FEW060 FEW110 SCT250 18/11 A2983 RMK AO2 SLP102 T01830106","lat":40.6392,"lon":-73.7639,"elev":3,"name":"New York/JF Kennedy Intl, NY, US","cover":"SCT","clouds":[{"cover":"FEW","base":6000},{"cover":"FEW","base":11000},{"cover":"SCT","base":25000}],"fltCat":"VFR"},{"icaoId":"KORF","receiptTime":"2026-04-14T21:54:10.693Z","obsTime":1776203460,"reportTime":"2026-04-14T22:00:00.000Z","temp":30,"dewp":12.8,"wdir":230,"wspd":14,"visib":"10+","altim":1015.7,"slp":1015.5,"qcField":4,"metarType":"METAR","rawOb":"METAR KORF 142151Z 23014KT 10SM CLR 30/13 A2999 RMK AO2 SLP155 T03000128","lat":36.9037,"lon":-76.1927,"elev":5,"name":"Norfolk Intl, VA, US","cover":"CLR","clouds":[],"fltCat":"VFR"},{"icaoId":"KBDL","receiptTime":"2026-04-14T21:54:12.540Z","obsTime":1776203460,"reportTime":"2026-04-14T22:00:00.000Z","temp":27.2,"dewp":13.3,"wdir":180,"wspd":20,"wgst":27,"visib":"10+","altim":1007.9,"slp":1007.5,"qcField":4,"metarType":"METAR","rawOb":"METAR KBDL 142151Z 18020G27KT 10SM BKN075 BKN110 BKN250 27/13 A2976 RMK AO2 PK WND 19027/2150 SLP075 T02720133","lat":41.9374,"lon":-72.682,"elev":52,"name":"Hartford/Bradley Intl, CT, US","cover":"BKN","clouds":[{"cover":"BKN","base":7500},{"cover":"BKN","base":11000},{"cover":"BKN","base":25000}],"fltCat":"VFR"},{"icaoId":"KRDU","receiptTime":"2026-04-14T21:54:10.861Z","obsTime":1776203460,"reportTime":"2026-04-14T22:00:00.000Z","temp":29.4,"dewp":8.9,"wdir":250,"wspd":9,"wgst":18,"visib":"10+","altim":1018,"slp":1017.6,"qcField":4,"metarType":"METAR","rawOb":"METAR KRDU 142151Z 25009G18KT 10SM FEW180 BKN250 29/09 A3006 RMK AO2 SLP176 T02940089","lat":35.8923,"lon":-78.782,"elev":121,"name":"Raleigh-Durham Intl, NC, US","cover":"BKN","clouds":[{"cover":"FEW","base":18000},{"cover":"BKN","base":25000}],"fltCat":"VFR"},{"icaoId":"KSTL","receiptTime":"2026-04-14T21:54:11.028Z","obsTime":1776203460,"reportTime":"2026-04-14T22:00:00.000Z","temp":31.7,"dewp":17.8,"wdir":210,"wspd":14,"wgst":21,"visib":"10+","altim":1009.2,"slp":1008,"qcField":12,"metarType":"METAR","rawOb":"METAR KSTL 142151Z 21014G21KT 10SM SCT060 SCT150 BKN250 32/18 A2980 RMK AO2 PK WND 20027/2134 SLP080 T03170178 $","lat":38.7525,"lon":-90.3734,"elev":163,"name":"St Louis/Lambert Intl, MO, US","cover":"BKN","clouds":[{"cover":"SCT","base":6000},{"cover":"SCT","base":15000},{"cover":"BKN","base":25000}],"fltCat":"VFR"},{"icaoId":"KADM","receiptTime":"2026-04-14T21:55:30.208Z","obsTime":1776203400,"reportTime":"2026-04-14T22:00:00.000Z","temp":25,"dewp":21,"wdir":170,"wspd":11,"wgst":19,"visib":"10+","altim":1012.3,"qcField":0,"metarType":"METAR","rawOb":"METAR KADM 142150Z 17011G19KT 10SM SCT026 SCT032 BKN041 25/21 A2989","lat":34.3007,"lon":-97.0089,"elev":223,"name":"Ardmore Muni, OK, US","cover":"BKN","clouds":[{"cover":"SCT","base":2600},{"cover":"SCT","base":3200},{"cover":"BKN","base":4100}],"fltCat":"VFR"},{"icaoId":"KHOB","receiptTime":"2026-04-14T21:51:13.752Z","obsTime":1776203400,"reportTime":"2026-04-14T22:00:00.000Z","temp":28,"dewp":-3,"wdir":220,"wspd":26,"wgst":39,"visib":"10+","altim":1012.3,"qcField":0,"metarType":"METAR","rawOb":"METAR KHOB 142150Z 22026G39KT 10SM BKN200 28/M03 A2989","lat":32.6797,"lon":-103.2222,"elev":1112,"name":"Hobbs Arpt, NM, US","cover":"BKN","clouds":[{"cover":"BKN","base":20000}],"fltCat":"VFR"},{"icaoId":"KIWA","receiptTime":"2026-04-14T21:54:17.729Z","obsTime":1776203400,"reportTime":"2026-04-14T22:00:00.000Z","temp":24,"dewp":-4,"wdir":250,"wspd":7,"visib":"10+","altim":1015.3,"qcField":0,"metarType":"METAR","rawOb":"METAR KIWA 142150Z 25007KT 180V320 10SM CLR 24/M04 A2998","lat":33.3008,"lon":-111.6437,"elev":420,"name":"Phoenix/Mesa Gateway Arpt, AZ, US","cover":"CLR","clouds":[],"fltCat":"VFR"},{"icaoId":"KAEG","receiptTime":"2026-04-14T21:49:51.944Z","obsTime":1776203280,"reportTime":"2026-04-14T22:00:00.000Z","temp":18,"dewp":-8,"wdir":250,"wspd":21,"wgst":24,"visib":"10+","altim":1014.6,"qcField":0,"metarType":"METAR","rawOb":"METAR KAEG 142148Z 25021G24KT 10SM SCT100 18/M08 A2996","lat":35.15,"lon":-106.7929,"elev":1771,"name":"Albuquerque/Double Eagle Arpt, NM, US","cover":"SCT","clouds":[{"cover":"SCT","base":10000}],"fltCat":"VFR"},{"icaoId":"KCHD","receiptTime":"2026-04-14T21:49:52.254Z","obsTime":1776203220,"reportTime":"2026-04-14T22:00:00.000Z","temp":24,"dewp":-3,"wdir":250,"wspd":10,"visib":"10+","altim":1015,"qcField":0,"metarType":"METAR","rawOb":"METAR KCHD 142147Z 25010KT 10SM FEW100 24/M03 A2997","lat":33.2669,"lon":-111.8086,"elev":378,"name":"Chandler Muni, AZ, US","cover":"FEW","clouds":[{"cover":"FEW","base":10000}],"fltCat":"VFR"},{"icaoId":"KGYR","receiptTime":"2026-04-14T21:49:19.115Z","obsTime":1776203220,"reportTime":"2026-04-14T22:00:00.000Z","temp":24,"dewp":0,"wdir":170,"wspd":6,"visib":"10+","altim":1015,"qcField":0,"metarType":"METAR","rawOb":"METAR KGYR 142147Z 17006KT 10SM FEW090 24/00 A2997","lat":33.428,"lon":-112.368,"elev":292,"name":"Phoenix/Goodyear Muni, AZ, US","cover":"FEW","clouds":[{"cover":"FEW","base":9000}],"fltCat":"VFR"},{"icaoId":"KIFP","receiptTime":"2026-04-14T21:47:43.459Z","obsTime":1776203220,"reportTime":"2026-04-14T22:00:00.000Z","temp":26,"dewp":-4,"wdir":300,"wspd":6,"visib":"10+","altim":1014,"qcField":0,"metarType":"METAR","rawOb":"METAR KIFP 142147Z 30006KT 10SM CLR 26/M04 A2994","lat":35.1487,"lon":-114.5611,"elev":210,"name":"Bullhead City Intl, AZ, US","cover":"CLR","clouds":[],"fltCat":"VFR"},{"icaoId":"KRYN","receiptTime":"2026-04-14T21:45:43.995Z","obsTime":1776203100,"reportTime":"2026-04-14T22:00:00.000Z","temp":24,"dewp":0,"wdir":300,"wspd":9,"wgst":14,"visib":"10+","altim":1014.6,"qcField":0,"metarType":"METAR","rawOb":"METAR KRYN 142145Z 30009G14KT 10SM CLR 24/00 A2996","lat":32.1418,"lon":-111.1767,"elev":731,"name":"Tucson/Ryan Fld, AZ, US","cover":"CLR","clouds":[],"fltCat":"VFR"},{"icaoId":"KBJC","receiptTime":"2026-04-14T21:52:12.654Z","obsTime":1776203100,"reportTime":"2026-04-14T22:00:00.000Z","temp":11,"dewp":0,"wdir":240,"wspd":14,"visib":"10+","altim":1011.9,"qcField":0,"wxString":"VCSH","metarType":"METAR","rawOb":"METAR KBJC 142145Z 24014KT 10SM VCSH SCT040 OVC100 11/00 A2988 RMK VIRGA ALQDS","lat":39.9008,"lon":-105.1042,"elev":1694,"name":"Rocky Mtn Metro, CO, US","cover":"OVC","clouds":[{"cover":"SCT","base":4000},{"cover":"OVC","base":10000}],"fltCat":"VFR"},{"icaoId":"KOTH","receiptTime":"2026-04-14T21:23:00.799Z","obsTime":1776200160,"reportTime":"2026-04-14T21:00:00.000Z","temp":12,"dewp":7,"wdir":230,"wspd":12,"wgst":21,"visib":"10+","altim":1022.4,"qcField":0,"metarType":"METAR","rawOb":"METAR KOTH 142056Z 23012G21KT 10SM OVC047 12/07 A3019","lat":43.4194,"lon":-124.2438,"elev":3,"name":"North Bend/SW Oregon Rgnl, OR, US","cover":"OVC","clouds":[{"cover":"OVC","base":4700}],"fltCat":"VFR"}]