[{"icaoId":"KGEU","receiptTime":"2026-04-11T19:49:55.608Z","obsTime":1775936880,"reportTime":"2026-04-11T20:00:00.000Z","temp":29,"dewp":3,"wdir":220,"wspd":5,"visib":"10+","altim":1011.3,"qcField":0,"metarType":"METAR","rawOb":"METAR KGEU 111948Z 22005KT 10SM CLR 29/03 A2986","lat":33.528,"lon":-112.293,"elev":319,"name":"Glendale Muni, AZ, US","cover":"CLR","clouds":[],"fltCat":"VFR"},{"icaoId":"KCEC","receiptTime":"2026-04-11T19:51:05.577Z","obsTime":1775936880,"reportTime":"2026-04-11T19:48:00.000Z","temp":11.1,"dewp":10,"wdir":150,"wspd":7,"visib":"10+","altim":1006.9,"qcField":6,"precip":0.01,"metarType":"SPECI","rawOb":"SPECI KCEC 111948Z AUTO 15007KT 10SM SCT008 BKN014 OVC022 11/10 A2973 RMK AO2 RAE35 P0001 T01110100","lat":41.7836,"lon":-124.238,"elev":17,"name":"Crescent City/McNama, CA, US","cover":"OVC","clouds":[{"cover":"SCT","base":800},{"cover":"BKN","base":1400},{"cover":"OVC","base":2200}],"fltCat":"MVFR"},{"icaoId":"KIWA","receiptTime":"2026-04-11T19:49:04.996Z","obsTime":1775936820,"reportTime":"2026-04-11T20:00:00.000Z","temp":30,"dewp":3,"wdir":220,"wspd":6,"wgst":15,"visib":"10+","altim":1013,"qcField":0,"metarType":"METAR","rawOb":"METAR KIWA 111947Z 22006G15KT 10SM CLR 30/03 A2991","lat":33.3008,"lon":-111.6437,"elev":420,"name":"Phoenix/Mesa Gateway Arpt, AZ, US","cover":"CLR","clouds":[],"fltCat":"VFR"},{"icaoId":"KCHD","receiptTime":"2026-04-11T19:49:55.549Z","obsTime":1775936820,"reportTime":"2026-04-11T20:00:00.000Z","temp":30,"dewp":3,"wdir":190,"wspd":6,"visib":"10+","altim":1012.3,"qcField":0,"metarType":"METAR","rawOb":"METAR KCHD 111947Z 19006KT 10SM SCT110 30/03 A2989","lat":33.2669,"lon":-111.8086,"elev":378,"name":"Chandler Muni, AZ, US","cover":"SCT","clouds":[{"cover":"SCT","base":11000}],"fltCat":"VFR"},{"icaoId":"KGYR","receiptTime":"2026-04-11T19:47:45.678Z","obsTime":1775936820,"reportTime":"2026-04-11T20:00:00.000Z","temp":29,"dewp":6,"wdir":260,"wspd":11,"wgst":15,"visib":"10+","altim":1012.3,"qcField":0,"metarType":"METAR","rawOb":"METAR KGYR 111947Z 26011G15KT 10SM SCT120 29/06 A2989","lat":33.428,"lon":-112.368,"elev":292,"name":"Phoenix/Goodyear Muni, AZ, US","cover":"SCT","clouds":[{"cover":"SCT","base":12000}],"fltCat":"VFR"},{"icaoId":"KRYN","receiptTime":"2026-04-11T19:46:45.558Z","obsTime":1775936700,"reportTime":"2026-04-11T20:00:00.000Z","temp":31,"dewp":0,"wdir":220,"wspd":8,"wgst":16,"visib":"10+","altim":1014,"qcField":0,"metarType":"METAR","rawOb":"METAR KRYN 111945Z 22008G16KT 10SM CLR 31/00 A2994","lat":32.1418,"lon":-111.1767,"elev":731,"name":"Tucson/Ryan Fld, AZ, US","cover":"CLR","clouds":[],"fltCat":"VFR"},{"icaoId":"KOAK","receiptTime":"2026-04-11T19:48:10.408Z","obsTime":1775936640,"reportTime":"2026-04-11T19:44:00.000Z","temp":14.4,"dewp":12.2,"wdir":170,"wspd":16,"visib":"10+","altim":1012.3,"qcField":12,"precip":0.03,"metarType":"SPECI","rawOb":"SPECI KOAK 111944Z 17016KT 10SM FEW008 BKN030 OVC046 14/12 A2989 RMK AO2 PK WND 20037/1913 RAB14E41 P0003 T01440122 $","lat":37.7178,"lon":-122.233,"elev":3,"name":"Oakland Intl, CA, US","cover":"OVC","clouds":[{"cover":"FEW","base":800},{"cover":"BKN","base":3000},{"cover":"OVC","base":4600}],"fltCat":"MVFR"},{"icaoId":"KSTS","receiptTime":"2026-04-11T19:46:02.202Z","obsTime":1775936520,"reportTime":"2026-04-11T19:42:00.000Z","temp":13.3,"dewp":11.1,"wdir":160,"wspd":10,"visib":3,"altim":1010.2,"qcField":12,"wxString":"-RA BR","precip":0.01,"metarType":"SPECI","rawOb":"SPECI KSTS 111942Z 16010KT 3SM -RA BR SCT009 BKN013 OVC033 13/11 A2983 RMK AO2 RAE06B41 P0001 T01330111 $","lat":38.5037,"lon":-122.811,"elev":35,"name":"Santa Rosa/Schulz Arpt, CA, US","cover":"OVC","clouds":[{"cover":"SCT","base":900},{"cover":"BKN","base":1300},{"cover":"OVC","base":3300}],"fltCat":"MVFR"},{"icaoId":"KAPC","receiptTime":"2026-04-11T19:44:10.473Z","obsTime":1775936460,"reportTime":"2026-04-11T19:41:00.000Z","temp":13.9,"dewp":11.7,"wdir":190,"wspd":26,"wgst":36,"visib":1,"altim":1010.9,"qcField":4,"wxString":"+RA BR","precip":0.04,"metarType":"SPECI","rawOb":"SPECI KAPC 111941Z 19026G36KT 1SM +RA BR BKN009 BKN024 OVC060 14/12 A2985 RMK AO2 PK WND 20036/1940 P0004 T01390117","lat":38.2075,"lon":-122.2804,"elev":5,"name":"Napa Cnty Arpt, CA, US","cover":"OVC","clouds":[{"cover":"BKN","base":900},{"cover":"BKN","base":2400},{"cover":"OVC","base":6000}],"fltCat":"IFR"},{"icaoId":"KSMF","receiptTime":"2026-04-11T19:50:11.563Z","obsTime":1775936460,"reportTime":"2026-04-11T19:41:00.000Z","temp":13.3,"dewp":11.7,"wdir":210,"wspd":12,"wgst":25,"visib":1.5,"altim":1010.6,"qcField":5,"wxString":"+TSRA","precip":0.25,"metarType":"SPECI","rawOb":"SPECI KSMF 111941Z COR 21012G25KT 1 1/2SM R17R/2200FT +TSRA FEW014 BKN030CB OVC055 13/12 A2984 RMK AO2 WSHFT 1924 OCNL LTGIC OHD TS MOV N LTG DSNTTT RAB28 TSB40 P0025 T01330117","lat":38.7007,"lon":-121.5948,"elev":7,"name":"Sacramento Intl, CA, US","cover":"OVC","clouds":[{"cover":"FEW","base":1400},{"cover":"BKN","base":3000},{"cover":"OVC","base":5500}],"fltCat":"IFR"},{"icaoId":"KRTS","receiptTime":"2026-04-11T19:40:09.233Z","obsTime":1775936100,"reportTime":"2026-04-11T19:35:00.000Z","temp":10,"dewp":-1,"wdir":220,"wspd":12,"wgst":18,"visib":"10+","altim":1010.2,"qcField":6,"metarType":"METAR","rawOb":"METAR KRTS 111935Z AUTO 22012G18KT 10SM BKN110 10/M01 A2983 RMK AO2","lat":39.6658,"lon":-119.8731,"elev":1537,"name":"Reno/Stead Arpt, NV, US","cover":"BKN","clouds":[{"cover":"BKN","base":11000}],"fltCat":"VFR"},{"icaoId":"KSEZ","receiptTime":"2026-04-11T19:40:22.575Z","obsTime":1775936100,"reportTime":"2026-04-11T19:35:00.000Z","temp":21,"dewp":2,"wdir":180,"wspd":15,"wgst":27,"visib":"10+","altim":1017,"qcField":6,"metarType":"METAR","rawOb":"METAR KSEZ 111935Z AUTO 18015G27KT 10SM CLR 21/02 A3003 RMK AO2","lat":34.8467,"lon":-111.7884,"elev":1455,"name":"Sedona Arpt, AZ, US","cover":"CLR","clouds":[],"fltCat":"VFR"},{"icaoId":"KSOW","receiptTime":"2026-04-11T19:38:11.055Z","obsTime":1775936100,"reportTime":"2026-04-11T19:35:00.000Z","temp":19,"dewp":0,"wdir":220,"wspd":19,"wgst":27,"visib":9,"altim":1019.7,"qcField":6,"metarType":"METAR","rawOb":"METAR KSOW 111935Z AUTO 22019G27KT 9SM FEW070 SCT085 SCT100 19/00 A3011 RMK AO2","lat":34.2686,"lon":-110.0019,"elev":1954,"name":"Show Low Muni, AZ, US","cover":"SCT","clouds":[{"cover":"FEW","base":7000},{"cover":"SCT","base":8500},{"cover":"SCT","base":10000}],"fltCat":"VFR"},{"icaoId":"KHAF","receiptTime":"2026-04-11T19:38:17.926Z","obsTime":1775936100,"reportTime":"2026-04-11T19:35:00.000Z","wdir":190,"wspd":17,"wgst":23,"visib":9,"altim":1011.9,"qcField":6,"metarType":"METAR","rawOb":"METAR KHAF 111935Z AUTO 19017G23KT 9SM OVC038 A2988 RMK AO2","lat":37.5136,"lon":-122.4996,"elev":11,"name":"Half Moon Bay Arpt, CA, US","cover":"OVC","clouds":[{"cover":"OVC","base":3800}],"fltCat":"VFR"},{"icaoId":"KHII","receiptTime":"2026-04-11T19:42:32.034Z","obsTime":1775936100,"reportTime":"2026-04-11T19:35:00.000Z","temp":28,"dewp":3,"wdir":220,"wspd":11,"visib":"10+","altim":1011.6,"qcField":6,"metarType":"METAR","rawOb":"METAR KHII 111935Z AUTO 22011KT 10SM CLR 28/03 A2987 RMK AO2","lat":34.5659,"lon":-114.3522,"elev":241,"name":"Lake Havasu City Arpt, AZ, US","cover":"CLR","clouds":[],"fltCat":"VFR"},{"icaoId":"KHTH","receiptTime":"2026-04-11T19:40:17.555Z","obsTime":1775936100,"reportTime":"2026-04-11T19:35:00.000Z","temp":17,"dewp":-9,"wdir":210,"wspd":11,"wgst":19,"visib":"10+","altim":1009.9,"qcField":6,"metarType":"METAR","rawOb":"METAR KHTH 111935Z AUTO 21011G19KT 10SM CLR 17/M09 A2982 RMK A01","lat":38.5448,"lon":-118.6314,"elev":1281,"name":"Hawthorne Muni, NV, US","cover":"CLR","clouds":[],"fltCat":"VFR"},{"icaoId":"KBVU","receiptTime":"2026-04-11T19:36:07.662Z","obsTime":1775936100,"reportTime":"2026-04-11T19:35:00.000Z","temp":24,"dewp":-6,"wdir":230,"wspd":10,"wgst":15,"visib":"10+","altim":1010.9,"qcField":6,"metarType":"METAR","rawOb":"METAR KBVU 111935Z AUTO 23010G15KT 10SM CLR 24/M06 A2985 RMK AO2","lat":35.9489,"lon":-114.8633,"elev":654,"name":"Boulder City Muni, NV, US","cover":"CLR","clouds":[],"fltCat":"VFR"},{"icaoId":"KMEV","receiptTime":"2026-04-11T19:40:16.774Z","obsTime":1775936100,"reportTime":"2026-04-11T19:35:00.000Z","temp":11,"dewp":1,"wdir":190,"wspd":17,"wgst":24,"visib":"10+","altim":1009.9,"qcField":6,"metarType":"METAR","rawOb":"METAR KMEV 111935Z AUTO 19017G24KT 10SM CLR 11/01 A2982 RMK AO2","lat":38.9963,"lon":-119.75,"elev":1437,"name":"Minden-Tahoe Arpt, NV, US","cover":"CLR","clouds":[],"fltCat":"VFR"},{"icaoId":"KMHR","receiptTime":"2026-04-11T19:40:16.827Z","obsTime":1775936100,"reportTime":"2026-04-11T19:35:00.000Z","temp":18,"dewp":15,"wdir":150,"wspd":16,"wgst":23,"visib":"10+","altim":1009.9,"qcField":6,"metarType":"METAR","rawOb":"METAR KMHR 111935Z AUTO 15016G23KT 10SM FEW060 FEW070 FEW090 18/15 A2982 RMK AO2 LTG DSNT SW","lat":38.56,"lon":-121.284,"elev":30,"name":"Sacramento/Mather Fld, CA, US","cover":"FEW","clouds":[{"cover":"FEW","base":6000},{"cover":"FEW","base":7000},{"cover":"FEW","base":9000}],"fltCat":"VFR"},{"icaoId":"KCXP","receiptTime":"2026-04-11T19:40:16.669Z","obsTime":1775936100,"reportTime":"2026-04-11T19:35:00.000Z","temp":14,"dewp":1,"wdir":160,"wspd":9,"wgst":17,"visib":"10+","altim":1010.6,"qcField":6,"metarType":"METAR","rawOb":"METAR KCXP 111935Z AUTO 16009G17KT 140V200 10SM FEW075 14/01 A2984 RMK AO2","lat":39.1905,"lon":-119.7319,"elev":1431,"name":"Carson City Arpt, NV, US","cover":"FEW","clouds":[{"cover":"FEW","base":7500}],"fltCat":"VFR"},{"icaoId":"KLOL","receiptTime":"2026-04-11T19:38:11.241Z","obsTime":1775936040,"reportTime":"2026-04-11T19:34:00.000Z","temp":15,"dewp":0,"wdir":180,"wspd":11,"wgst":21,"visib":"10+","altim":1009.6,"qcField":6,"metarType":"SPECI","rawOb":"SPECI KLOL 111934Z AUTO 18011G21KT 10SM FEW060 BKN075 15/00 A2981 RMK AO2 WSHFT 1914 T01500000","lat":40.0684,"lon":-118.5702,"elev":1191,"name":"Lovelock/Derby Fld, NV, US","cover":"BKN","clouds":[{"cover":"FEW","base":6000},{"cover":"BKN","base":7500}],"fltCat":"VFR"},{"icaoId":"KENV","receiptTime":"2026-04-11T19:22:38.812Z","obsTime":1775935200,"reportTime":"2026-04-11T19:20:00.000Z","temp":14,"dewp":1,"wdir":280,"wspd":26,"wgst":35,"visib":"10+","altim":1010.9,"qcField":6,"metarType":"SPECI","rawOb":"SPECI KENV 111920Z AUTO 28026G35KT 10SM SCT065 BKN080 BKN110 14/01 A2985 RMK AO2 PK WND 28035/1911 WSHFT 1900","lat":40.7211,"lon":-114.0312,"elev":1291,"name":"Wendover Arpt, UT, US","cover":"BKN","clouds":[{"cover":"SCT","base":6500},{"cover":"BKN","base":8000},{"cover":"BKN","base":11000}],"fltCat":"VFR"},{"icaoId":"KSFO","receiptTime":"2026-04-11T19:06:07.263Z","obsTime":1775934180,"reportTime":"2026-04-11T19:03:00.000Z","temp":13.3,"dewp":10.6,"wdir":220,"wspd":15,"wgst":27,"visib":3,"altim":1012.3,"qcField":12,"wxString":"-RA","precip":0.005,"metarType":"SPECI","rawOb":"SPECI KSFO 111903Z 22015G27KT 3SM R28R/4500VP6000FT -RA FEW008 SCT025 OVC034 13/11 A2989 RMK AO2 WSHFT 1846 P0000 T01330106 $","lat":37.6196,"lon":-122.3656,"elev":2,"name":"San Francisco Intl, CA, US","cover":"OVC","clouds":[{"cover":"FEW","base":800},{"cover":"SCT","base":2500},{"cover":"OVC","base":3400}],"fltCat":"MVFR"},{"icaoId":"KSBP","receiptTime":"2026-04-11T19:06:07.237Z","obsTime":1775934180,"reportTime":"2026-04-11T19:03:00.000Z","temp":17.8,"dewp":12.2,"wdir":230,"wspd":12,"visib":"10+","altim":1015.3,"qcField":4,"metarType":"SPECI","rawOb":"SPECI KSBP 111903Z 23012KT 10SM FEW023 SCT028 18/12 A2998 RMK AO2 T01780122","lat":35.2381,"lon":-120.644,"elev":52,"name":"San Luis Obispo/San Luis Cnty, CA, US","cover":"SCT","clouds":[{"cover":"FEW","base":2300},{"cover":"SCT","base":2800}],"fltCat":"VFR"},{"icaoId":"KFLG","receiptTime":"2026-04-11T19:00:26.459Z","obsTime":1775933820,"reportTime":"2026-04-11T19:00:00.000Z","temp":13.3,"dewp":1.7,"wdir":210,"wspd":21,"wgst":34,"visib":"10+","altim":1019,"slp":1013.5,"qcField":12,"metarType":"METAR","rawOb":"METAR KFLG 111857Z 21021G34KT 10SM FEW037 SCT045 13/02 A3009 RMK AO2 PK WND 21034/1854 SLP135 T01330017 $","lat":35.1443,"lon":-111.6664,"elev":2134,"name":"Flagstaff/Pulliam Arpt, AZ, US","cover":"SCT","clouds":[{"cover":"FEW","base":3700},{"cover":"SCT","base":4500}],"fltCat":"VFR"},{"icaoId":"KNFL","receiptTime":"2026-04-11T19:02:36.201Z","obsTime":1775933820,"reportTime":"2026-04-11T19:00:00.000Z","temp":14.4,"dewp":-1.7,"wdir":170,"wspd":7,"visib":"10+","altim":1009.9,"slp":1007.6,"qcField":13,"metarType":"METAR","rawOb":"METAR KNFL 111857Z COR 17007KT 10SM SCT060 SCT100 BKN140 BKN210 14/M02 A2982 RMK AO2 SLP076 ACSL DSNT SW-W T01441017 PNO $","lat":39.417,"lon":-118.705,"elev":1199,"name":"Fallon , NV, US","cover":"BKN","clouds":[{"cover":"SCT","base":6000},{"cover":"SCT","base":10000},{"cover":"BKN","base":14000},{"cover":"BKN","base":21000}],"fltCat":"VFR"},{"icaoId":"KNYL","receiptTime":"2026-04-11T19:00:29.791Z","obsTime":1775933820,"reportTime":"2026-04-11T19:00:00.000Z","temp":26.7,"dewp":4.4,"wdir":250,"wspd":8,"visib":"10+","altim":1013.3,"slp":1012.9,"qcField":4,"metarType":"METAR","rawOb":"METAR KNYL 111857Z 25008KT 10SM CLR 27/04 A2992 RMK AO2 SLP129 T02670044","lat":32.66,"lon":-114.6078,"elev":58,"name":"Yuma , AZ, US","cover":"CLR","clouds":[],"fltCat":"VFR"},{"icaoId":"KTPH","receiptTime":"2026-04-11T19:00:23.206Z","obsTime":1775933760,"reportTime":"2026-04-11T19:00:00.000Z","temp":13.3,"dewp":-1.7,"wdir":170,"wspd":14,"wgst":20,"visib":"10+","altim":1013,"slp":1009,"qcField":6,"metarType":"METAR","rawOb":"METAR KTPH 111856Z AUTO 17014G20KT 10SM SCT055 13/M02 A2991 RMK AO2 SLP090 T01331017","lat":38.0505,"lon":-117.0906,"elev":1647,"name":"Tonopah Arpt, NV, US","cover":"SCT","clouds":[{"cover":"SCT","base":5500}],"fltCat":"VFR"},{"icaoId":"KVIS","receiptTime":"2026-04-11T18:58:25.856Z","obsTime":1775933760,"reportTime":"2026-04-11T19:00:00.000Z","temp":20.6,"dewp":9.4,"wdir":220,"wspd":8,"visib":"10+","altim":1014.6,"slp":1014.5,"qcField":14,"metarType":"METAR","rawOb":"METAR KVIS 111856Z AUTO 22008KT 10SM CLR 21/09 A2996 RMK AO2 SLP145 T02060094 $","lat":36.3135,"lon":-119.3884,"elev":92,"name":"Visalia Muni, CA, US","cover":"CLR","clouds":[],"fltCat":"VFR"},{"icaoId":"KDUG","receiptTime":"2026-04-11T19:02:34.916Z","obsTime":1775933760,"reportTime":"2026-04-11T19:00:00.000Z","temp":24.4,"dewp":0.6,"wdir":250,"wspd":8,"wgst":22,"visib":"10+","altim":1018.7,"slp":1012.8,"qcField":38,"metarType":"METAR","rawOb":"METAR KDUG 111856Z AUTO 25008G22KT 10SM CLR 24/01 A3008 RMK AO2 SLP128 T02440006 TSNO","lat":31.4725,"lon":-109.6022,"elev":1260,"name":"Douglas/Bisbee Intl, AZ, US","cover":"CLR","clouds":[],"fltCat":"VFR"},{"icaoId":"KUKI","receiptTime":"2026-04-11T19:00:23.224Z","obsTime":1775933760,"reportTime":"2026-04-11T19:00:00.000Z","temp":13.3,"dewp":10,"wdir":160,"wspd":10,"wgst":20,"visib":"10+","altim":1008.5,"slp":1008,"qcField":6,"wxString":"-RA","precip":0.005,"metarType":"METAR","rawOb":"METAR KUKI 111856Z AUTO 16010G20KT 10SM -RA FEW029 SCT035 BKN044 13/10 A2978 RMK AO2 RAB05E14B47 SLP080 P0000 T01330100","lat":39.1278,"lon":-123.2001,"elev":183,"name":"Ukiah Muni, CA, US","cover":"BKN","clouds":[{"cover":"FEW","base":2900},{"cover":"SCT","base":3500},{"cover":"BKN","base":4400}],"fltCat":"VFR"},{"icaoId":"KINW","receiptTime":"2026-04-11T19:00:16.118Z","obsTime":1775933760,"reportTime":"2026-04-11T19:00:00.000Z","temp":22.2,"dewp":1.7,"wdir":220,"wspd":20,"wgst":29,"visib":"10+","altim":1017.4,"slp":1011.9,"qcField":6,"metarType":"METAR","rawOb":"METAR KINW 111856Z AUTO 22020G29KT 10SM FEW075 SCT100 22/02 A3004 RMK AO2 PK WND 23032/1840 SLP119 T02220017","lat":35.0279,"lon":-110.7221,"elev":1492,"name":"Winslow/Lindberg Rgnl, AZ, US","cover":"SCT","clouds":[{"cover":"FEW","base":7500},{"cover":"SCT","base":10000}],"fltCat":"VFR"},{"icaoId":"KEKO","receiptTime":"2026-04-11T19:00:23.074Z","obsTime":1775933760,"reportTime":"2026-04-11T19:00:00.000Z","temp":9.4,"dewp":3.3,"wdir":200,"wspd":12,"visib":"10+","altim":1012.6,"slp":1010.8,"qcField":6,"metarType":"METAR","rawOb":"METAR KEKO 111856Z AUTO 20012KT 10SM CLR 09/03 A2990 RMK AO2 SLP108 T00940033","lat":40.824,"lon":-115.7863,"elev":1541,"name":"Elko Rgnl, NV, US","cover":"CLR","clouds":[],"fltCat":"VFR"},{"icaoId":"KLAS","receiptTime":"2026-04-11T19:00:16.155Z","obsTime":1775933760,"reportTime":"2026-04-11T19:00:00.000Z","temp":22.8,"dewp":-3.9,"wdir":210,"wspd":17,"wgst":26,"visib":"10+","altim":1011.9,"slp":1010,"qcField":4,"metarType":"METAR","rawOb":"METAR KLAS 111856Z 21017G26KT 10SM FEW150 SCT250 23/M04 A2988 RMK AO2 PK WND 21026/1854 SLP100 T02281039","lat":36.0719,"lon":-115.1634,"elev":662,"name":"Las Vegas/Reid Intl, NV, US","cover":"SCT","clouds":[{"cover":"FEW","base":15000},{"cover":"SCT","base":25000}],"fltCat":"VFR"},{"icaoId":"KHND","receiptTime":"2026-04-11T18:58:20.419Z","obsTime":1775933760,"reportTime":"2026-04-11T19:00:00.000Z","temp":22.2,"dewp":-2.2,"wdir":220,"wspd":21,"wgst":27,"visib":"10+","altim":1013,"slp":1012.7,"qcField":12,"metarType":"METAR","rawOb":"METAR KHND 111856Z 22021G27KT 10SM CLR 22/M02 A2991 RMK AO2 PK WND 21027/1850 SLP127 T02221022 $","lat":35.9657,"lon":-115.1343,"elev":740,"name":"Henderson Exec, NV, US","cover":"CLR","clouds":[],"fltCat":"VFR"},{"icaoId":"KCGZ","receiptTime":"2026-04-11T18:58:09.411Z","obsTime":1775933760,"reportTime":"2026-04-11T19:00:00.000Z","temp":28.9,"dewp":1.7,"wdir":"VRB","wspd":4,"visib":"10+","altim":1013.6,"slp":1012.3,"qcField":14,"metarType":"METAR","rawOb":"METAR KCGZ 111856Z AUTO VRB04KT 10SM CLR 29/02 A2993 RMK AO2 SLP123 T02890017 $","lat":32.9531,"lon":-111.7725,"elev":444,"name":"Casa Granda Muni, AZ, US","cover":"CLR","clouds":[],"fltCat":"VFR"},{"icaoId":"KVNY","receiptTime":"2026-04-11T18:58:20.547Z","obsTime":1775933700,"reportTime":"2026-04-11T18:55:00.000Z","temp":20.6,"dewp":7.2,"wdir":160,"wspd":10,"wgst":17,"visib":"10+","altim":1016.3,"qcField":12,"metarType":"SPECI","rawOb":"SPECI KVNY 111855Z 16010G17KT 10SM BKN055 21/07 A3001 RMK AO2 T02060072 $","lat":34.2121,"lon":-118.4915,"elev":241,"name":"Van Nuys Arpt, CA, US","cover":"BKN","clouds":[{"cover":"BKN","base":5500}],"fltCat":"VFR"},{"icaoId":"KRNO","receiptTime":"2026-04-11T18:58:21.189Z","obsTime":1775933700,"reportTime":"2026-04-11T19:00:00.000Z","temp":12.2,"dewp":-1.1,"wdir":180,"wspd":12,"visib":"10+","altim":1010.2,"slp":1007.8,"qcField":4,"metarType":"METAR","rawOb":"METAR KRNO 111855Z 18012KT 10SM SCT065 BKN170 BKN220 12/M01 A2983 RMK AO2 PK WND 18026/1756 SLP078 ACSL ALQDS T01221011","lat":39.5077,"lon":-119.7683,"elev":1344,"name":"Reno/Tahoe Intl, NV, US","cover":"BKN","clouds":[{"cover":"SCT","base":6500},{"cover":"BKN","base":17000},{"cover":"BKN","base":22000}],"fltCat":"VFR"},{"icaoId":"KCMA","receiptTime":"2026-04-11T18:58:09.487Z","obsTime":1775933700,"reportTime":"2026-04-11T19:00:00.000Z","temp":20,"dewp":11.1,"wdir":230,"wspd":10,"visib":"10+","altim":1016.7,"slp":1017.4,"qcField":4,"metarType":"METAR","rawOb":"METAR KCMA 111855Z 23010KT 10SM CLR 20/11 A3002 RMK AO2 SLP174 T02000111","lat":34.2114,"lon":-119.0876,"elev":20,"name":"Camarillo Arpt, CA, US","cover":"CLR","clouds":[],"fltCat":"VFR"},{"icaoId":"KBFL","receiptTime":"2026-04-11T18:58:08.753Z","obsTime":1775933640,"reportTime":"2026-04-11T19:00:00.000Z","temp":20.6,"dewp":6.7,"wdir":"VRB","wspd":3,"visib":"10+","altim":1014.3,"slp":1013.7,"qcField":12,"metarType":"METAR","rawOb":"METAR KBFL 111854Z VRB03KT 10SM CLR 21/07 A2995 RMK AO2 SLP137 T02060067 $","lat":35.4342,"lon":-119.0552,"elev":146,"name":"Bakersfield/Meadows Arpt, CA, US","cover":"CLR","clouds":[],"fltCat":"VFR"},{"icaoId":"KOLS","receiptTime":"2026-04-11T18:58:08.831Z","obsTime":1775933640,"reportTime":"2026-04-11T19:00:00.000Z","temp":26.1,"dewp":2.2,"wdir":220,"wspd":18,"wgst":27,"visib":"10+","altim":1018,"slp":1012,"qcField":6,"metarType":"METAR","rawOb":"METAR KOLS 111854Z AUTO 22018G27KT 10SM CLR 26/02 A3006 RMK AO2 PK WND 21027/1853 SLP120 T02610022","lat":31.4208,"lon":-110.8465,"elev":1194,"name":"Nogales Intl, AZ, US","cover":"CLR","clouds":[],"fltCat":"VFR"},{"icaoId":"KFFZ","receiptTime":"2026-04-11T18:58:16.973Z","obsTime":1775933640,"reportTime":"2026-04-11T19:00:00.000Z","temp":28.3,"dewp":3.3,"wdir":210,"wspd":8,"visib":"10+","altim":1013.3,"slp":1011.1,"qcField":4,"metarType":"METAR","rawOb":"METAR KFFZ 111854Z 21008KT 10SM CLR 28/03 A2992 RMK AO2 SLP111 T02830033","lat":33.4659,"lon":-111.7212,"elev":420,"name":"Mesa/Falcon Fld, AZ, US","cover":"CLR","clouds":[],"fltCat":"VFR"},{"icaoId":"KSJN","receiptTime":"2026-04-11T18:58:12.958Z","obsTime":1775933640,"reportTime":"2026-04-11T19:00:00.000Z","temp":19.4,"dewp":0.6,"wdir":260,"wspd":13,"wgst":21,"visib":"10+","altim":1018.4,"slp":1011.3,"qcField":6,"metarType":"METAR","rawOb":"METAR KSJN 111854Z AUTO 26013G21KT 10SM CLR 19/01 A3007 RMK AO2 SLP113 T01940006","lat":34.5184,"lon":-109.3801,"elev":1747,"name":"St Johns Ind Arpt, AZ, US","cover":"CLR","clouds":[],"fltCat":"VFR"},{"icaoId":"KGCN","receiptTime":"2026-04-11T18:58:17.099Z","obsTime":1775933640,"reportTime":"2026-04-11T19:00:00.000Z","temp":16.1,"dewp":-4.4,"wdir":230,"wspd":22,"wgst":36,"visib":"10+","altim":1018,"slp":1011,"qcField":4,"metarType":"METAR","rawOb":"METAR KGCN 111854Z 23022G36KT 10SM CLR 16/M04 A3006 RMK AO2 PK WND 22036/1817 SLP110 T01611044","lat":35.9458,"lon":-112.1554,"elev":1993,"name":"Grand Canyon Park Arpt, AZ, US","cover":"CLR","clouds":[],"fltCat":"VFR"},{"icaoId":"KSNA","receiptTime":"2026-04-11T18:56:29.818Z","obsTime":1775933580,"reportTime":"2026-04-11T19:00:00.000Z","temp":21.1,"dewp":12.2,"wdir":210,"wspd":9,"visib":"10+","altim":1016.7,"slp":1016.4,"qcField":12,"metarType":"METAR","rawOb":"METAR KSNA 111853Z 21009KT 10SM BKN048 21/12 A3002 RMK AO2 SLP164 T02110122 $","lat":33.6798,"lon":-117.8675,"elev":14,"name":"Santa Ana/Wayne Arpt, CA, US","cover":"BKN","clouds":[{"cover":"BKN","base":4800}],"fltCat":"VFR"},{"icaoId":"KBUR","receiptTime":"2026-04-11T18:56:22.033Z","obsTime":1775933580,"reportTime":"2026-04-11T19:00:00.000Z","temp":19.4,"dewp":8.9,"visib":"10+","altim":1016.7,"slp":1015.4,"qcField":4,"metarType":"METAR","rawOb":"METAR KBUR 111853Z 10SM FEW036 BKN060 19/09 A3002 RMK AO2 SLP154 T01940089","lat":34.1996,"lon":-118.3654,"elev":221,"name":"Burbank/Bob Hope Arpt, CA, US","cover":"BKN","clouds":[{"cover":"FEW","base":3600},{"cover":"BKN","base":6000}],"fltCat":"VFR"},{"icaoId":"KCRQ","receiptTime":"2026-04-11T18:56:22.133Z","obsTime":1775933580,"reportTime":"2026-04-11T19:00:00.000Z","temp":18.9,"dewp":11.7,"wdir":250,"wspd":10,"visib":"10+","altim":1016.7,"slp":1016.2,"qcField":4,"metarType":"METAR","rawOb":"METAR KCRQ 111853Z 25010KT 10SM CLR 19/12 A3002 RMK AO2 SLP162 T01890117","lat":33.1299,"lon":-117.2765,"elev":96,"name":"Carlsbad/Palomar Arpt, CA, US","cover":"CLR","clouds":[],"fltCat":"VFR"},{"icaoId":"KDVT","receiptTime":"2026-04-11T18:56:29.056Z","obsTime":1775933580,"reportTime":"2026-04-11T19:00:00.000Z","temp":28.9,"dewp":3.9,"wdir":210,"wspd":8,"visib":"10+","altim":1014,"slp":1011.6,"qcField":12,"metarType":"METAR","rawOb":"METAR KDVT 111853Z 21008KT 10SM FEW110 29/04 A2994 RMK AO2 SLP116 T02890039 $","lat":33.6902,"lon":-112.0662,"elev":454,"name":"Phoenix/Deer Valley Arpt, AZ, US","cover":"FEW","clouds":[{"cover":"FEW","base":11000}],"fltCat":"VFR"},{"icaoId":"KELY","receiptTime":"2026-04-11T18:56:33.469Z","obsTime":1775933580,"reportTime":"2026-04-11T19:00:00.000Z","temp":12.2,"dewp":-6.7,"wdir":210,"wspd":14,"wgst":23,"visib":"10+","altim":1012.3,"slp":1006.7,"qcField":6,"metarType":"METAR","rawOb":"METAR KELY 111853Z AUTO 21014G23KT 10SM BKN075 BKN090 12/M07 A2989 RMK AO2 PK WND 19028/1812 SLP067 T01221067","lat":39.2954,"lon":-114.8466,"elev":1906,"name":"Ely/Yelland Fld, NV, US","cover":"BKN","clouds":[{"cover":"BKN","base":7500},{"cover":"BKN","base":9000}],"fltCat":"VFR"},{"icaoId":"KFAT","receiptTime":"2026-04-11T18:56:32.961Z","obsTime":1775933580,"reportTime":"2026-04-11T19:00:00.000Z","temp":20,"dewp":8.3,"wdir":170,"wspd":14,"visib":"10+","altim":1014,"slp":1013.7,"qcField":12,"metarType":"METAR","rawOb":"METAR KFAT 111853Z 17014KT 10SM SCT042 BKN060 BKN070 OVC200 20/08 A2994 RMK AO2 SLP137 T02000083 $","lat":36.78,"lon":-119.7202,"elev":102,"name":"Fresno/Yosemite Intl, CA, US","cover":"OVC","clouds":[{"cover":"SCT","base":4200},{"cover":"BKN","base":6000},{"cover":"BKN","base":7000},{"cover":"OVC","base":20000}],"fltCat":"VFR"},{"icaoId":"KFUL","receiptTime":"2026-04-11T18:56:24.732Z","obsTime":1775933580,"reportTime":"2026-04-11T19:00:00.000Z","temp":21.7,"dewp":10.6,"wdir":230,"wspd":5,"visib":"10+","altim":1016.3,"slp":1016,"qcField":4,"metarType":"METAR","rawOb":"METAR KFUL 111853Z 23005KT 10SM SCT039 22/11 A3001 RMK AO2 SLP160 T02170106","lat":33.8715,"lon":-117.9856,"elev":23,"name":"Fullerton Muni, CA, US","cover":"SCT","clouds":[{"cover":"SCT","base":3900}],"fltCat":"VFR"},{"icaoId":"KIFP","receiptTime":"2026-04-11T18:53:34.537Z","obsTime":1775933580,"reportTime":"2026-04-11T19:00:00.000Z","temp":27,"dewp":2,"wdir":220,"wspd":12,"wgst":20,"visib":"10+","altim":1011.6,"qcField":0,"metarType":"METAR","rawOb":"METAR KIFP 111853Z 22012G20KT 10SM CLR 27/02 A2987","lat":35.1487,"lon":-114.5611,"elev":210,"name":"Bullhead City Intl, AZ, US","cover":"CLR","clouds":[],"fltCat":"VFR"},{"icaoId":"KLGB","receiptTime":"2026-04-11T18:56:29.545Z","obsTime":1775933580,"reportTime":"2026-04-11T19:00:00.000Z","temp":21.1,"dewp":11.1,"wdir":200,"wspd":8,"visib":"10+","altim":1016.7,"slp":1016.4,"qcField":12,"metarType":"METAR","rawOb":"METAR KLGB 111853Z 20008KT 10SM SCT025 21/11 A3002 RMK AO2 SLP164 T02110111 $","lat":33.8118,"lon":-118.1472,"elev":10,"name":"Long Beach Arpt, CA, US","cover":"SCT","clouds":[{"cover":"SCT","base":2500}],"fltCat":"VFR"},{"icaoId":"KMOD","receiptTime":"2026-04-11T18:56:28.389Z","obsTime":1775933580,"reportTime":"2026-04-11T19:00:00.000Z","temp":18.9,"dewp":9.4,"wdir":170,"wspd":11,"wgst":20,"visib":"10+","altim":1011.9,"slp":1011.9,"qcField":4,"metarType":"METAR","rawOb":"METAR KMOD 111853Z 17011G20KT 10SM FEW050 BKN070 OVC080 19/09 A2988 RMK AO2 SLP119 T01890094","lat":37.6254,"lon":-120.9549,"elev":25,"name":"Modesto/Sham Fld, CA, US","cover":"OVC","clouds":[{"cover":"FEW","base":5000},{"cover":"BKN","base":7000},{"cover":"OVC","base":8000}],"fltCat":"VFR"},{"icaoId":"KMYF","receiptTime":"2026-04-11T18:56:18.434Z","obsTime":1775933580,"reportTime":"2026-04-11T19:00:00.000Z","temp":20,"dewp":12.2,"wdir":240,"wspd":7,"visib":"10+","altim":1017,"slp":1016.4,"qcField":4,"metarType":"METAR","rawOb":"METAR KMYF 111853Z 24007KT 10SM BKN029 20/12 A3003 RMK AO2 SLP164 T02000122","lat":32.8145,"lon":-117.1375,"elev":128,"name":"San Diego/Montgomery Arpt, CA, US","cover":"BKN","clouds":[{"cover":"BKN","base":2900}],"fltCat":"MVFR"},{"icaoId":"KONT","receiptTime":"2026-04-11T18:56:30.217Z","obsTime":1775933580,"reportTime":"2026-04-11T19:00:00.000Z","temp":21.7,"dewp":7.8,"wdir":230,"wspd":9,"visib":"10+","altim":1016.7,"slp":1015.7,"qcField":12,"metarType":"METAR","rawOb":"METAR KONT 111853Z 23009KT 200V260 10SM BKN060 22/08 A3002 RMK AO2 SLP157 T02170078 $","lat":34.0531,"lon":-117.5769,"elev":279,"name":"Ontario Intl, CA, US","cover":"BKN","clouds":[{"cover":"BKN","base":6000}],"fltCat":"VFR"},{"icaoId":"KPGA","receiptTime":"2026-04-11T18:58:15.856Z","obsTime":1775933580,"reportTime":"2026-04-11T19:00:00.000Z","temp":21.7,"dewp":-2.8,"wdir":190,"wspd":12,"wgst":27,"visib":"10+","altim":1013.3,"slp":1007.7,"qcField":14,"metarType":"METAR","rawOb":"METAR KPGA 111853Z AUTO 19012G27KT 10SM FEW090 22/M03 A2992 RMK AO2 PK WND 19030/1829 SLP077 T02171028 $","lat":36.9211,"lon":-111.4487,"elev":1310,"name":"Page Muni, AZ, US","cover":"FEW","clouds":[{"cover":"FEW","base":9000}],"fltCat":"VFR"},{"icaoId":"KPRC","receiptTime":"2026-04-11T18:56:31.097Z","obsTime":1775933580,"reportTime":"2026-04-11T19:00:00.000Z","temp":18.9,"dewp":0.6,"wdir":200,"wspd":13,"wgst":29,"visib":"10+","altim":1017.7,"slp":1011.5,"qcField":4,"metarType":"METAR","rawOb":"METAR KPRC 111853Z 20013G29KT 10SM SCT065 19/01 A3005 RMK AO2 PK WND 22030/1806 SLP115 T01890006","lat":34.6491,"lon":-112.4223,"elev":1528,"name":"Prescott/Love Fld, AZ, US","cover":"SCT","clouds":[{"cover":"SCT","base":6500}],"fltCat":"VFR"},{"icaoId":"KPSP","receiptTime":"2026-04-11T18:56:30.331Z","obsTime":1775933580,"reportTime":"2026-04-11T19:00:00.000Z","temp":25,"dewp":2.8,"wdir":230,"wspd":4,"visib":"10+","altim":1013.3,"slp":1013.1,"qcField":4,"metarType":"METAR","rawOb":"METAR KPSP 111853Z 23004KT 10SM CLR 25/03 A2992 RMK AO2 SLP131 T02500028","lat":33.8222,"lon":-116.5043,"elev":123,"name":"Palm Springs Intl, CA, US","cover":"CLR","clouds":[],"fltCat":"VFR"},{"icaoId":"KRDD","receiptTime":"2026-04-11T18:56:30.376Z","obsTime":1775933580,"reportTime":"2026-04-11T19:00:00.000Z","temp":15.6,"dewp":9.4,"wdir":170,"wspd":15,"wgst":26,"visib":"10+","altim":1007.5,"slp":1007.3,"qcField":4,"metarType":"METAR","rawOb":"METAR KRDD 111853Z 17015G26KT 10SM SCT026 BKN033 OVC042 16/09 A2975 RMK AO2 PK WND 17026/1849 SLP073 T01560094","lat":40.5146,"lon":-122.2977,"elev":152,"name":"Redding Muni, CA, US","cover":"OVC","clouds":[{"cover":"SCT","base":2600},{"cover":"BKN","base":3300},{"cover":"OVC","base":4200}],"fltCat":"VFR"},{"icaoId":"KSBA","receiptTime":"2026-04-11T18:56:29.646Z","obsTime":1775933580,"reportTime":"2026-04-11T19:00:00.000Z","temp":18.9,"dewp":12.2,"wdir":160,"wspd":8,"visib":"10+","altim":1016.3,"slp":1016.3,"qcField":12,"metarType":"METAR","rawOb":"METAR KSBA 111853Z 16008KT 10SM FEW025 19/12 A3001 RMK AO2 SLP163 T01890122 $","lat":34.4241,"lon":-119.8425,"elev":2,"name":"Santa Barbara Muni, CA, US","cover":"FEW","clouds":[{"cover":"FEW","base":2500}],"fltCat":"VFR"},{"icaoId":"KSDL","receiptTime":"2026-04-11T18:56:31.113Z","obsTime":1775933580,"reportTime":"2026-04-11T19:00:00.000Z","temp":27.8,"dewp":4.4,"wdir":"VRB","wspd":5,"visib":"10+","altim":1014,"slp":1011.7,"qcField":4,"metarType":"METAR","rawOb":"METAR KSDL 111853Z VRB05KT 10SM CLR 28/04 A2994 RMK AO2 SLP117 T02780044","lat":33.6123,"lon":-111.9232,"elev":438,"name":"Scottsdale Muni, AZ, US","cover":"CLR","clouds":[],"fltCat":"VFR"},{"icaoId":"KSJC","receiptTime":"2026-04-11T18:56:29.772Z","obsTime":1775933580,"reportTime":"2026-04-11T19:00:00.000Z","temp":15,"dewp":12.2,"wdir":170,"wspd":10,"wgst":21,"visib":9,"altim":1012.6,"slp":1012.5,"qcField":12,"precip":0.01,"metarType":"METAR","rawOb":"METAR KSJC 111853Z 17010G21KT 9SM SCT023 BKN028 BKN035 15/12 A2990 RMK AO2 RAE32 SLP125 P0001 T01500122 $","lat":37.3594,"lon":-121.9244,"elev":13,"name":"San Jose Intl Arpt, CA, US","cover":"BKN","clouds":[{"cover":"SCT","base":2300},{"cover":"BKN","base":2800},{"cover":"BKN","base":3500}],"fltCat":"MVFR"},{"icaoId":"KACV","receiptTime":"2026-04-11T18:56:31.152Z","obsTime":1775933580,"reportTime":"2026-04-11T19:00:00.000Z","temp":12.8,"dewp":11.1,"wdir":170,"wspd":5,"visib":"10+","altim":1006.2,"slp":1006.6,"qcField":6,"precip":0.005,"metarType":"METAR","rawOb":"METAR KACV 111853Z AUTO 17005KT 10SM FEW035 BKN060 BKN120 13/11 A2971 RMK AO2 RAE08 SLP066 P0000 T01280111","lat":40.9784,"lon":-124.1048,"elev":63,"name":"Arcata Arpt, CA, US","cover":"BKN","clouds":[{"cover":"FEW","base":3500},{"cover":"BKN","base":6000},{"cover":"BKN","base":12000}],"fltCat":"VFR"},{"icaoId":"KTUS","receiptTime":"2026-04-11T18:56:31.131Z","obsTime":1775933580,"reportTime":"2026-04-11T19:00:00.000Z","temp":28.3,"dewp":1.7,"wdir":310,"wspd":11,"wgst":16,"visib":"10+","altim":1015.7,"slp":1011.3,"qcField":4,"metarType":"METAR","rawOb":"METAR KTUS 111853Z 31011G16KT 10SM SCT100 28/02 A2999 RMK AO2 SLP113 T02830017","lat":32.1315,"lon":-110.9564,"elev":776,"name":"Tucson Intl Arpt, AZ, US","cover":"SCT","clouds":[{"cover":"SCT","base":10000}],"fltCat":"VFR"},{"icaoId":"KVGT","receiptTime":"2026-04-11T18:56:29.729Z","obsTime":1775933580,"reportTime":"2026-04-11T19:00:00.000Z","temp":22.8,"dewp":-2.8,"wdir":180,"wspd":16,"wgst":23,"visib":"10+","altim":1010.9,"slp":1010.7,"qcField":4,"metarType":"METAR","rawOb":"METAR KVGT 111853Z 18016G23KT 10SM CLR 23/M03 A2985 RMK AO2 PK WND 16031/1817 SLP107 T02281028","lat":36.212,"lon":-115.194,"elev":664,"name":"Las Vegas/North Arpt, NV, US","cover":"CLR","clouds":[],"fltCat":"VFR"},{"icaoId":"KOXR","receiptTime":"2026-04-11T18:54:08.204Z","obsTime":1775933460,"reportTime":"2026-04-11T19:00:00.000Z","temp":18.9,"dewp":10.6,"wdir":200,"wspd":8,"visib":"10+","altim":1017,"slp":1016.7,"qcField":4,"metarType":"METAR","rawOb":"METAR KOXR 111851Z 20008KT 10SM FEW025 19/11 A3003 RMK AO2 SLP167 T01890106","lat":34.2001,"lon":-119.2042,"elev":12,"name":"Oxnard Arpt, CA, US","cover":"FEW","clouds":[{"cover":"FEW","base":2500}],"fltCat":"VFR"},{"icaoId":"KPHX","receiptTime":"2026-04-11T18:54:08.228Z","obsTime":1775933460,"reportTime":"2026-04-11T19:00:00.000Z","temp":30.6,"dewp":5,"wdir":"VRB","wspd":4,"visib":"10+","altim":1012.6,"slp":1010.8,"qcField":4,"metarType":"METAR","rawOb":"METAR KPHX 111851Z VRB04KT 10SM FEW090 FEW140 SCT250 31/05 A2990 RMK AO2 SLP108 T03060050","lat":33.4278,"lon":-112.0037,"elev":338,"name":"Phoenix/Sky Harbor Intl, AZ, US","cover":"SCT","clouds":[{"cover":"FEW","base":9000},{"cover":"FEW","base":14000},{"cover":"SCT","base":25000}],"fltCat":"VFR"},{"icaoId":"KIGM","receiptTime":"2026-04-11T18:54:09.455Z","obsTime":1775933460,"reportTime":"2026-04-11T19:00:00.000Z","temp":21.7,"dewp":-2.8,"wdir":210,"wspd":20,"wgst":34,"visib":"10+","altim":1015,"slp":1008.7,"qcField":6,"metarType":"METAR","rawOb":"METAR KIGM 111851Z AUTO 21020G34KT 10SM CLR 22/M03 A2997 RMK AO2 PK WND 24034/1851 SLP087 T02171028","lat":35.2575,"lon":-113.9341,"elev":1045,"name":"Kingman Arpt, AZ, US","cover":"CLR","clouds":[],"fltCat":"VFR"},{"icaoId":"KSAN","receiptTime":"2026-04-11T18:54:08.397Z","obsTime":1775933460,"reportTime":"2026-04-11T19:00:00.000Z","temp":20.6,"dewp":13.3,"wdir":270,"wspd":8,"visib":"10+","altim":1017.4,"slp":1017.2,"qcField":12,"metarType":"METAR","rawOb":"METAR KSAN 111851Z 27008KT 10SM FEW020 SCT030 21/13 A3004 RMK AO2 SLP172 T02060133 $","lat":32.7364,"lon":-117.1973,"elev":3,"name":"San Diego Intl Arpt, CA, US","cover":"SCT","clouds":[{"cover":"FEW","base":2000},{"cover":"SCT","base":3000}],"fltCat":"VFR"},{"icaoId":"KSAD","receiptTime":"2026-04-11T18:54:08.378Z","obsTime":1775933460,"reportTime":"2026-04-11T19:00:00.000Z","temp":26.1,"dewp":0,"visib":"10+","altim":1015.3,"slp":1010.8,"qcField":6,"metarType":"METAR","rawOb":"METAR KSAD 111851Z AUTO 10SM CLR 26/00 A2998 RMK AO2 SLP108 T02610000","lat":32.8565,"lon":-109.636,"elev":937,"name":"Safford Rgnl, AZ, US","cover":"CLR","clouds":[],"fltCat":"VFR"}]