[{"icaoId":"KPWT","receiptTime":"2026-04-15T18:10:07.447Z","obsTime":1776276480,"reportTime":"2026-04-15T18:08:00.000Z","temp":6,"dewp":5,"wdir":"VRB","wspd":6,"visib":"10+","altim":1011.3,"qcField":6,"wxString":"-RA","precip":0.005,"metarType":"SPECI","rawOb":"SPECI KPWT 151808Z AUTO VRB06KT 10SM -RA BKN010 BKN014 06/05 A2986 RMK AO2 CIG 007V011 P0000","lat":47.4942,"lon":-122.7594,"elev":143,"name":"Bremerton Arpt, WA, US","cover":"BKN","clouds":[{"cover":"BKN","base":1000},{"cover":"BKN","base":1400}],"fltCat":"MVFR"},{"icaoId":"KSAN","receiptTime":"2026-04-15T18:10:07.510Z","obsTime":1776276420,"reportTime":"2026-04-15T18:07:00.000Z","temp":18.9,"dewp":12.2,"wdir":300,"wspd":4,"visib":"10+","altim":1018.4,"qcField":12,"metarType":"SPECI","rawOb":"SPECI KSAN 151807Z 30004KT 10SM SCT022 BKN033 19/12 A3007 RMK AO2 T01890122 $","lat":32.7364,"lon":-117.1973,"elev":3,"name":"San Diego Intl Arpt, CA, US","cover":"BKN","clouds":[{"cover":"SCT","base":2200},{"cover":"BKN","base":3300}],"fltCat":"VFR"},{"icaoId":"KCEC","receiptTime":"2026-04-15T18:10:04.102Z","obsTime":1776276360,"reportTime":"2026-04-15T18:06:00.000Z","temp":11.1,"dewp":10.6,"wdir":"VRB","wspd":6,"wgst":24,"visib":3,"altim":1017.7,"qcField":6,"wxString":"RA BR","precip":0.01,"metarType":"SPECI","rawOb":"SPECI KCEC 151806Z AUTO VRB06G24KT 3SM RA BR BKN004 OVC009 11/11 A3005 RMK AO2 P0001 T01110106","lat":41.7836,"lon":-124.238,"elev":17,"name":"Crescent City/McNama, CA, US","cover":"OVC","clouds":[{"cover":"BKN","base":400},{"cover":"OVC","base":900}],"fltCat":"LIFR"},{"icaoId":"KASE","receiptTime":"2026-04-15T18:06:11.270Z","obsTime":1776276180,"reportTime":"2026-04-15T18:03:00.000Z","temp":6.7,"dewp":-3.3,"wdir":340,"wspd":10,"wgst":18,"visib":"10+","altim":1018.7,"qcField":4,"metarType":"SPECI","rawOb":"SPECI KASE 151803Z 34010G18KT 10SM BKN043 BKN060 07/M03 A3008 RMK AO2 T00671033","lat":39.2299,"lon":-106.8705,"elev":2384,"name":"Aspen/Pitkin Cnty, CO, US","cover":"BKN","clouds":[{"cover":"BKN","base":4300},{"cover":"BKN","base":6000}],"fltCat":"VFR"},{"icaoId":"KAST","receiptTime":"2026-04-15T18:06:11.288Z","obsTime":1776276180,"reportTime":"2026-04-15T18:03:00.000Z","temp":6.1,"dewp":2.2,"wdir":310,"wspd":9,"wgst":18,"visib":8,"altim":1013.3,"qcField":6,"wxString":"-RA","precip":0.005,"metarType":"SPECI","rawOb":"SPECI KAST 151803Z AUTO 31009G18KT 8SM -RA FEW024 BKN031 OVC070 06/02 A2992 RMK AO2 WSHFT 1743 RAB1758 P0000 T00610022","lat":46.157,"lon":-123.8833,"elev":3,"name":"Astoria Rgnl, OR, US","cover":"OVC","clouds":[{"cover":"FEW","base":2400},{"cover":"BKN","base":3100},{"cover":"OVC","base":7000}],"fltCat":"VFR"},{"icaoId":"KABI","receiptTime":"2026-04-15T18:06:11.252Z","obsTime":1776276180,"reportTime":"2026-04-15T18:03:00.000Z","temp":26.1,"dewp":19.4,"wdir":210,"wspd":15,"wgst":21,"visib":"10+","altim":1013.3,"qcField":12,"metarType":"SPECI","rawOb":"SPECI KABI 151803Z 21015G21KT 10SM SCT030 BKN036 OVC044 26/19 A2992 RMK AO2 T02610194 $","lat":32.4106,"lon":-99.6821,"elev":543,"name":"Abilene Rgnl, TX, US","cover":"OVC","clouds":[{"cover":"SCT","base":3000},{"cover":"BKN","base":3600},{"cover":"OVC","base":4400}],"fltCat":"VFR"},{"icaoId":"KBTV","receiptTime":"2026-04-15T18:06:04.410Z","obsTime":1776276120,"reportTime":"2026-04-15T18:02:00.000Z","temp":10.6,"dewp":8.3,"wdir":300,"wspd":5,"visib":9,"altim":1011.6,"qcField":4,"wxString":"-RA","precip":0.005,"metarType":"SPECI","rawOb":"SPECI KBTV 151802Z 30005KT 9SM -RA BKN005 OVC060 11/08 A2987 RMK AO2 P0000 T01060083","lat":44.4682,"lon":-73.1499,"elev":101,"name":"Burlington Intl, VT, US","cover":"OVC","clouds":[{"cover":"BKN","base":500},{"cover":"OVC","base":6000}],"fltCat":"IFR"},{"icaoId":"KIFP","receiptTime":"2026-04-15T18:04:53.542Z","obsTime":1776275940,"reportTime":"2026-04-15T18:00:00.000Z","temp":24,"dewp":-3,"wdir":210,"wspd":7,"visib":"10+","altim":1015.3,"qcField":0,"metarType":"METAR","rawOb":"METAR KIFP 151759Z 21007KT 10SM CLR 24/M03 A2998","lat":35.1487,"lon":-114.5611,"elev":210,"name":"Bullhead City Intl, AZ, US","cover":"CLR","clouds":[],"fltCat":"VFR"},{"icaoId":"KNYL","receiptTime":"2026-04-15T18:01:02.588Z","obsTime":1776275820,"reportTime":"2026-04-15T18:00:00.000Z","temp":25.6,"dewp":3.9,"wdir":"VRB","wspd":3,"visib":"10+","altim":1015.7,"slp":1015.2,"qcField":4,"presTend":0.3,"maxT":26.1,"minT":13.3,"metarType":"METAR","rawOb":"METAR KNYL 151757Z VRB03KT 10SM CLR 26/04 A2999 RMK AO2 SLP152 T02560039 10261 20133 50003","lat":32.66,"lon":-114.6078,"elev":58,"name":"Yuma , AZ, US","cover":"CLR","clouds":[],"fltCat":"VFR"},{"icaoId":"KFLG","receiptTime":"2026-04-15T18:01:10.986Z","obsTime":1776275820,"reportTime":"2026-04-15T18:00:00.000Z","temp":11.1,"dewp":-6.1,"wdir":190,"wspd":6,"visib":"10+","altim":1021.8,"slp":1017.4,"qcField":4,"presTend":0.3,"maxT":11.1,"minT":-4.4,"metarType":"METAR","rawOb":"METAR KFLG 151757Z 19006KT 10SM CLR 11/M06 A3017 RMK AO2 SLP174 T01111061 10111 21044 50003","lat":35.1443,"lon":-111.6664,"elev":2134,"name":"Flagstaff/Pulliam Arpt, AZ, US","cover":"CLR","clouds":[],"fltCat":"VFR"},{"icaoId":"KNFL","receiptTime":"2026-04-15T18:10:11.796Z","obsTime":1776275820,"reportTime":"2026-04-15T18:00:00.000Z","temp":15.6,"dewp":-3.3,"wdir":210,"wspd":6,"visib":"10+","altim":1015.7,"slp":1012.8,"qcField":5,"presTend":-0.2,"maxT":15.6,"minT":2.2,"metarType":"METAR","rawOb":"METAR KNFL 151757Z COR 21006KT 10SM SCT070 BKN090 BKN150 BKN200 16/M03 A2999 RMK AO2 SLP128 ACSL DSNT ALQDS T01561033 10156 20022 55002","lat":39.417,"lon":-118.705,"elev":1199,"name":"Fallon , NV, US","cover":"BKN","clouds":[{"cover":"SCT","base":7000},{"cover":"BKN","base":9000},{"cover":"BKN","base":15000},{"cover":"BKN","base":20000}],"fltCat":"VFR"},{"icaoId":"KJAX","receiptTime":"2026-04-15T18:00:58.934Z","obsTime":1776275760,"reportTime":"2026-04-15T18:00:00.000Z","temp":29.4,"dewp":12.2,"wdir":80,"wspd":5,"visib":"10+","altim":1020.7,"slp":1020.8,"qcField":12,"presTend":-1.9,"maxT":29.4,"minT":16.1,"metarType":"METAR","rawOb":"METAR KJAX 151756Z 08005KT 10SM FEW055 FEW250 29/12 A3014 RMK AO2 SLP208 T02940122 10294 20161 58019 $","lat":30.4953,"lon":-81.6937,"elev":8,"name":"Jacksonville Intl, FL, US","cover":"FEW","clouds":[{"cover":"FEW","base":5500},{"cover":"FEW","base":25000}],"fltCat":"VFR"},{"icaoId":"KSDF","receiptTime":"2026-04-15T18:00:36.240Z","obsTime":1776275760,"reportTime":"2026-04-15T18:00:00.000Z","temp":28.3,"dewp":15.6,"wdir":210,"wspd":19,"wgst":27,"visib":"10+","altim":1015.3,"slp":1014.5,"qcField":4,"presTend":-0.3,"maxT":28.3,"minT":20.6,"metarType":"METAR","rawOb":"METAR KSDF 151756Z 21019G27KT 10SM SCT050 SCT110 SCT150 BKN200 OVC250 28/16 A2998 RMK AO2 PK WND 23027/1755 SLP145 T02830156 10283 20206 58003","lat":38.1774,"lon":-85.7308,"elev":146,"name":"Louisville Intl, KY, US","cover":"BKN","clouds":[{"cover":"SCT","base":5000},{"cover":"SCT","base":11000},{"cover":"SCT","base":15000},{"cover":"BKN","base":20000}],"fltCat":"VFR"},{"icaoId":"KUKI","receiptTime":"2026-04-15T18:00:14.707Z","obsTime":1776275760,"reportTime":"2026-04-15T18:00:00.000Z","temp":13.3,"dewp":6.1,"wdir":"VRB","wspd":3,"visib":"10+","altim":1019.7,"slp":1019.5,"qcField":6,"presTend":0.1,"maxT":14.4,"minT":6.1,"pcp6hr":0.005,"metarType":"METAR","rawOb":"METAR KUKI 151756Z AUTO VRB03KT 10SM CLR 13/06 A3011 RMK AO2 SLP195 60000 T01330061 10144 20061 50001","lat":39.1278,"lon":-123.2001,"elev":183,"name":"Ukiah Muni, CA, US","cover":"CLR","clouds":[],"fltCat":"VFR"},{"icaoId":"KBZN","receiptTime":"2026-04-15T18:00:10.627Z","obsTime":1776275760,"reportTime":"2026-04-15T18:00:00.000Z","temp":13.9,"dewp":-3.9,"wdir":250,"wspd":13,"wgst":22,"visib":"10+","altim":1003.8,"slp":1002.3,"qcField":4,"presTend":-2,"maxT":14.4,"minT":8.3,"metarType":"METAR","rawOb":"METAR KBZN 151756Z 25013G22KT 10SM FEW095 SCT120 14/M04 A2964 RMK AO2 SLP023 T01391039 10144 20083 58020","lat":45.7876,"lon":-111.1615,"elev":1349,"name":"Bozeman/Gallatin Fld, MT, US","cover":"SCT","clouds":[{"cover":"FEW","base":9500},{"cover":"SCT","base":12000}],"fltCat":"VFR"},{"icaoId":"KEGE","receiptTime":"2026-04-15T17:58:34.785Z","obsTime":1776275760,"reportTime":"2026-04-15T18:00:00.000Z","temp":10,"dewp":-7.8,"wdir":250,"wspd":11,"wgst":17,"visib":"10+","altim":1019,"slp":1016,"qcField":4,"presTend":-0.6,"maxT":10,"minT":0.6,"pcp6hr":0.005,"metarType":"METAR","rawOb":"METAR KEGE 151756Z 25011G17KT 10SM CLR 10/M08 A3009 RMK AO2 SLP160 60000 T01001078 10100 20006 58006","lat":39.6448,"lon":-106.9176,"elev":1993,"name":"Eagle Cnty Rgnl, CO, US","cover":"CLR","clouds":[],"fltCat":"VFR"},{"icaoId":"KJAC","receiptTime":"2026-04-15T17:58:34.225Z","obsTime":1776275760,"reportTime":"2026-04-15T18:00:00.000Z","temp":4.4,"dewp":0.6,"wdir":190,"wspd":14,"visib":"10+","altim":1012.6,"slp":1013.6,"qcField":4,"wxString":"-RA","presTend":-0.3,"maxT":5,"minT":0.6,"precip":0.005,"pcp6hr":0.005,"metarType":"METAR","rawOb":"METAR KJAC 151756Z 19014KT 10SM -RA FEW022 OVC030 04/01 A2990 RMK AO2 SLP136 P0000 60000 T00440006 10050 20006 56003","lat":43.6129,"lon":-110.7366,"elev":1967,"name":"Jackson Hole Arpt, WY, US","cover":"OVC","clouds":[{"cover":"FEW","base":2200},{"cover":"OVC","base":3000}],"fltCat":"MVFR"},{"icaoId":"KSDY","receiptTime":"2026-04-15T17:58:27.072Z","obsTime":1776275760,"reportTime":"2026-04-15T18:00:00.000Z","temp":17.2,"dewp":-3.3,"wdir":290,"wspd":12,"wgst":19,"visib":"10+","altim":1004.8,"slp":1005.3,"qcField":14,"presTend":-0.3,"maxT":17.2,"minT":6.1,"metarType":"METAR","rawOb":"METAR KSDY 151756Z AUTO 29012G19KT 10SM CLR 17/M03 A2967 RMK AO2 SLP053 T01721033 10172 20061 58003 $","lat":47.7029,"lon":-104.1951,"elev":600,"name":"Sidney/Richland Muni, MT, US","cover":"CLR","clouds":[],"fltCat":"VFR"},{"icaoId":"KCOE","receiptTime":"2026-04-15T17:58:26.409Z","obsTime":1776275760,"reportTime":"2026-04-15T18:00:00.000Z","temp":5.6,"dewp":3.9,"wdir":210,"wspd":8,"visib":"10+","altim":1003.5,"slp":1005.9,"qcField":14,"wxString":"-RA","presTend":-0.9,"maxT":5.6,"minT":4.4,"metarType":"METAR","rawOb":"METAR KCOE 151756Z AUTO 21008KT 10SM -RA OVC019 06/04 A2963 RMK AO2 SLP059 6//// T00560039 10056 20044 56009 PNO $","lat":47.7719,"lon":-116.8332,"elev":693,"name":"Coeur DAlene Arpt, ID, US","cover":"OVC","clouds":[{"cover":"OVC","base":1900}],"fltCat":"MVFR"},{"icaoId":"KSGU","receiptTime":"2026-04-15T17:58:25.523Z","obsTime":1776275760,"reportTime":"2026-04-15T18:00:00.000Z","temp":16.1,"dewp":1.1,"wdir":0,"wspd":0,"visib":"10+","altim":1018,"slp":1016.4,"qcField":6,"presTend":-0.6,"maxT":16.1,"minT":7.8,"metarType":"METAR","rawOb":"METAR KSGU 151756Z AUTO 00000KT 10SM CLR 16/01 A3006 RMK AO2 SLP164 T01610011 10161 20078 58006","lat":37.0444,"lon":-113.5034,"elev":877,"name":"Saint George Muni, UT, US","cover":"CLR","clouds":[],"fltCat":"VFR"},{"icaoId":"KPVU","receiptTime":"2026-04-15T17:58:25.378Z","obsTime":1776275760,"reportTime":"2026-04-15T18:00:00.000Z","temp":15,"dewp":-1.7,"wdir":160,"wspd":4,"visib":"10+","altim":1015.7,"slp":1013.7,"qcField":4,"presTend":-1,"maxT":15,"minT":2.8,"metarType":"METAR","rawOb":"METAR KPVU 151756Z 16004KT 10SM CLR 15/M02 A2999 RMK AO2 SLP137 T01501017 10150 20028 58010","lat":40.224,"lon":-111.7252,"elev":1370,"name":"Provo Muni, UT, US","cover":"CLR","clouds":[],"fltCat":"VFR"},{"icaoId":"KLAS","receiptTime":"2026-04-15T18:00:32.476Z","obsTime":1776275760,"reportTime":"2026-04-15T18:00:00.000Z","temp":22.8,"dewp":-3.9,"wdir":"VRB","wspd":3,"visib":"10+","altim":1016.7,"slp":1014.8,"qcField":4,"presTend":-0.1,"maxT":22.8,"minT":13.9,"metarType":"METAR","rawOb":"METAR KLAS 151756Z VRB03KT 10SM CLR 23/M04 A3002 RMK AO2 SLP148 T02281039 10228 20139 58001","lat":36.0719,"lon":-115.1634,"elev":662,"name":"Las Vegas/Reid Intl, NV, US","cover":"CLR","clouds":[],"fltCat":"VFR"},{"icaoId":"KFNL","receiptTime":"2026-04-15T17:58:39.323Z","obsTime":1776275760,"reportTime":"2026-04-15T18:00:00.000Z","temp":17.8,"dewp":-7.8,"wdir":130,"wspd":8,"visib":"10+","altim":1011.9,"slp":1007.7,"qcField":12,"presTend":-0.3,"maxT":17.8,"minT":1.1,"metarType":"METAR","rawOb":"METAR KFNL 151756Z 13008KT 10SM CLR 18/M08 A2988 RMK AO2 SLP077 T01781078 10178 20011 58003 $","lat":40.4427,"lon":-105.0097,"elev":1529,"name":"Fort Collins/N Colorado Rgnl, CO, US","cover":"CLR","clouds":[],"fltCat":"VFR"},{"icaoId":"KSLE","receiptTime":"2026-04-15T18:00:13.855Z","obsTime":1776275760,"reportTime":"2026-04-15T18:00:00.000Z","temp":7.8,"dewp":2.8,"wdir":250,"wspd":6,"visib":"10+","altim":1014.3,"slp":1014.1,"qcField":4,"presTend":2.5,"maxT":8.9,"minT":6.7,"precip":0.005,"pcp6hr":0.35,"metarType":"METAR","rawOb":"METAR KSLE 151756Z 25006KT 10SM FEW018 FEW045 OVC070 08/03 A2995 RMK AO2 RAB30E46 SLP141 P0000 60035 T00780028 10089 20067 51025","lat":44.9049,"lon":-123.001,"elev":63,"name":"Salem Muni, OR, US","cover":"OVC","clouds":[{"cover":"FEW","base":1800},{"cover":"FEW","base":4500},{"cover":"OVC","base":7000}],"fltCat":"VFR"},{"icaoId":"KTPH","receiptTime":"2026-04-15T18:00:14.587Z","obsTime":1776275760,"reportTime":"2026-04-15T18:00:00.000Z","temp":14.4,"dewp":-5,"wdir":190,"wspd":9,"wgst":18,"visib":"10+","altim":1018.4,"slp":1014.6,"qcField":6,"presTend":-0.2,"maxT":14.4,"minT":0,"metarType":"METAR","rawOb":"METAR KTPH 151756Z AUTO 19009G18KT 160V230 10SM CLR 14/M05 A3007 RMK AO2 SLP146 T01441050 10144 20000 58002","lat":38.0505,"lon":-117.0906,"elev":1647,"name":"Tonopah Arpt, NV, US","cover":"CLR","clouds":[],"fltCat":"VFR"},{"icaoId":"KDUG","receiptTime":"2026-04-15T18:02:10.491Z","obsTime":1776275760,"reportTime":"2026-04-15T18:00:00.000Z","temp":18.3,"dewp":-5.6,"wdir":0,"wspd":0,"visib":"10+","altim":1019.4,"slp":1014.6,"qcField":38,"presTend":0.1,"maxT":19.4,"minT":2.2,"metarType":"METAR","rawOb":"METAR KDUG 151756Z AUTO 00000KT 10SM CLR 18/M06 A3010 RMK AO2 SLP146 T01831056 10194 20022 50001 TSNO","lat":31.4725,"lon":-109.6022,"elev":1260,"name":"Douglas/Bisbee Intl, AZ, US","cover":"CLR","clouds":[],"fltCat":"VFR"},{"icaoId":"KOTH","receiptTime":"2026-04-15T18:06:09.340Z","obsTime":1776275760,"reportTime":"2026-04-15T18:00:00.000Z","temp":10,"dewp":4,"wdir":310,"wspd":12,"visib":"10+","altim":1018,"qcField":0,"metarType":"METAR","rawOb":"METAR KOTH 151756Z 31012KT 10SM SCT035 BKN048 OVC060 10/04 A3006","lat":43.4194,"lon":-124.2438,"elev":3,"name":"North Bend/SW Oregon Rgnl, OR, US","cover":"OVC","clouds":[{"cover":"SCT","base":3500},{"cover":"BKN","base":4800},{"cover":"OVC","base":6000}],"fltCat":"VFR"},{"icaoId":"KHND","receiptTime":"2026-04-15T17:58:25.694Z","obsTime":1776275760,"reportTime":"2026-04-15T18:00:00.000Z","temp":22.2,"dewp":-4.4,"wdir":240,"wspd":7,"wgst":14,"visib":"10+","altim":1017.4,"slp":1017.3,"qcField":12,"maxT":22.8,"minT":12.2,"metarType":"METAR","rawOb":"METAR KHND 151756Z 24007G14KT 180V260 10SM CLR 22/M04 A3004 RMK AO2 SLP173 T02221044 10228 20122 50000 $","lat":35.9657,"lon":-115.1343,"elev":740,"name":"Henderson Exec, NV, US","cover":"CLR","clouds":[],"fltCat":"VFR"},{"icaoId":"KVIS","receiptTime":"2026-04-15T17:58:26.137Z","obsTime":1776275760,"reportTime":"2026-04-15T18:00:00.000Z","temp":17.8,"dewp":10.6,"wdir":220,"wspd":6,"visib":"10+","altim":1019,"slp":1019.1,"qcField":14,"presTend":0.2,"maxT":17.8,"minT":8.9,"metarType":"METAR","rawOb":"METAR KVIS 151756Z AUTO 22006KT 10SM CLR 18/11 A3009 RMK AO2 SLP191 6//// T01780106 10178 20089 53002 PNO $","lat":36.3135,"lon":-119.3884,"elev":92,"name":"Visalia Muni, CA, US","cover":"CLR","clouds":[],"fltCat":"VFR"},{"icaoId":"KGUC","receiptTime":"2026-04-15T17:58:32.460Z","obsTime":1776275760,"reportTime":"2026-04-15T18:00:00.000Z","temp":7.2,"dewp":-5,"wdir":210,"wspd":12,"wgst":19,"visib":"10+","altim":1019.4,"slp":1017.5,"qcField":14,"presTend":-0.7,"maxT":7.8,"minT":-4.4,"pcp6hr":0.005,"metarType":"METAR","rawOb":"METAR KGUC 151756Z AUTO 21012G19KT 10SM FEW048 SCT060 07/M05 A3010 RMK AO2 SLP175 60000 T00721050 10078 21044 58007 $","lat":38.5322,"lon":-106.9419,"elev":2337,"name":"Gunnison Arpt, CO, US","cover":"SCT","clouds":[{"cover":"FEW","base":4800},{"cover":"SCT","base":6000}],"fltCat":"VFR"},{"icaoId":"KENV","receiptTime":"2026-04-15T17:58:26.616Z","obsTime":1776275760,"reportTime":"2026-04-15T18:00:00.000Z","temp":17.2,"dewp":-7.2,"wdir":200,"wspd":13,"wgst":17,"visib":"10+","altim":1013.3,"slp":1012,"qcField":6,"presTend":-1.2,"maxT":17.8,"minT":5.6,"metarType":"METAR","rawOb":"METAR KENV 151756Z AUTO 20013G17KT 10SM CLR 17/M07 A2992 RMK AO2 SLP120 T01721072 10178 20056 58012","lat":40.7211,"lon":-114.0312,"elev":1291,"name":"Wendover Arpt, UT, US","cover":"CLR","clouds":[],"fltCat":"VFR"},{"icaoId":"KSFO","receiptTime":"2026-04-15T18:00:11.033Z","obsTime":1776275760,"reportTime":"2026-04-15T18:00:00.000Z","temp":15,"dewp":7.8,"wdir":280,"wspd":18,"visib":"10+","altim":1020.4,"slp":1020.2,"qcField":12,"presTend":0.8,"maxT":15,"minT":10,"metarType":"METAR","rawOb":"METAR KSFO 151756Z 28018KT 10SM SCT024 BKN200 15/08 A3013 RMK AO2 PK WND 29026/1722 SLP202 T01500078 10150 20100 51008 $","lat":37.6196,"lon":-122.3656,"elev":2,"name":"San Francisco Intl, CA, US","cover":"BKN","clouds":[{"cover":"SCT","base":2400},{"cover":"BKN","base":20000}],"fltCat":"VFR"},{"icaoId":"KRDM","receiptTime":"2026-04-15T18:00:13.839Z","obsTime":1776275760,"reportTime":"2026-04-15T18:00:00.000Z","temp":5,"dewp":0,"wdir":300,"wspd":23,"wgst":33,"visib":"10+","altim":1008.5,"slp":1008.9,"qcField":4,"presTend":1.8,"maxT":8.9,"minT":4.4,"precip":0.005,"pcp6hr":0.005,"metarType":"METAR","rawOb":"METAR KRDM 151756Z 30023G33KT 10SM BKN037 05/00 A2978 RMK AO2 PK WND 30033/1754 WSHFT 1720 RAE47 SLP089 P0000 60000 T00500000 10089 20044 53018","lat":44.2558,"lon":-121.1407,"elev":930,"name":"Redmond Muni, OR, US","cover":"BKN","clouds":[{"cover":"BKN","base":3700}],"fltCat":"VFR"},{"icaoId":"KCHS","receiptTime":"2026-04-15T18:00:10.658Z","obsTime":1776275760,"reportTime":"2026-04-15T18:00:00.000Z","temp":29.4,"dewp":15,"wdir":"VRB","wspd":6,"visib":"10+","altim":1020.1,"slp":1019.9,"qcField":4,"presTend":-2.1,"maxT":30,"minT":17.8,"metarType":"METAR","rawOb":"METAR KCHS 151756Z VRB06KT 10SM FEW050 29/15 A3012 RMK AO2 SLP199 T02940150 10300 20178 57021","lat":32.8995,"lon":-80.0407,"elev":12,"name":"Charleston Intl, SC, US","cover":"FEW","clouds":[{"cover":"FEW","base":5000}],"fltCat":"VFR"},{"icaoId":"KINW","receiptTime":"2026-04-15T18:00:10.856Z","obsTime":1776275760,"reportTime":"2026-04-15T18:00:00.000Z","temp":15.6,"dewp":-5,"wdir":0,"wspd":0,"visib":"10+","altim":1020.7,"slp":1017.6,"qcField":6,"presTend":0.1,"maxT":15.6,"minT":0,"metarType":"METAR","rawOb":"METAR KINW 151756Z AUTO 00000KT 10SM CLR 16/M05 A3014 RMK AO2 SLP176 T01561050 10156 20000 50001","lat":35.0279,"lon":-110.7221,"elev":1492,"name":"Winslow/Lindberg Rgnl, AZ, US","cover":"CLR","clouds":[],"fltCat":"VFR"},{"icaoId":"KCGZ","receiptTime":"2026-04-15T17:58:26.359Z","obsTime":1776275760,"reportTime":"2026-04-15T18:00:00.000Z","temp":23.9,"dewp":-2.2,"wdir":0,"wspd":0,"visib":"10+","altim":1017,"slp":1016.1,"qcField":14,"maxT":23.9,"minT":9.4,"metarType":"METAR","rawOb":"METAR KCGZ 151756Z AUTO 00000KT 10SM CLR 24/M02 A3003 RMK AO2 SLP161 6//// T02391022 10239 20094 $","lat":32.9531,"lon":-111.7725,"elev":444,"name":"Casa Granda Muni, AZ, US","cover":"CLR","clouds":[],"fltCat":"VFR"},{"icaoId":"KCOD","receiptTime":"2026-04-15T17:58:40.265Z","obsTime":1776275760,"reportTime":"2026-04-15T18:00:00.000Z","temp":13.3,"dewp":-2.8,"wdir":240,"wspd":12,"wgst":18,"visib":"10+","altim":1008.2,"slp":1006,"qcField":14,"presTend":-1.2,"maxT":13.3,"minT":8.9,"metarType":"METAR","rawOb":"METAR KCOD 151756Z AUTO 24012G18KT 10SM CLR 13/M03 A2977 RMK AO2 SLP060 T01331028 10133 20089 58012 $","lat":44.52,"lon":-109.0268,"elev":1550,"name":"Cody/Yellowstone Rgnl, WY, US","cover":"CLR","clouds":[],"fltCat":"VFR"},{"icaoId":"KEKO","receiptTime":"2026-04-15T18:00:13.773Z","obsTime":1776275760,"reportTime":"2026-04-15T18:00:00.000Z","temp":13.3,"dewp":-4.4,"wdir":250,"wspd":13,"wgst":24,"visib":"10+","altim":1014.3,"slp":1012.7,"qcField":6,"presTend":-0.5,"maxT":13.3,"minT":-2.2,"metarType":"METAR","rawOb":"METAR KEKO 151756Z AUTO 25013G24KT 10SM SCT060 BKN070 13/M04 A2995 RMK AO2 PK WND 26027/1731 SLP127 T01331044 10133 21022 56005","lat":40.824,"lon":-115.7863,"elev":1541,"name":"Elko Rgnl, NV, US","cover":"BKN","clouds":[{"cover":"SCT","base":6000},{"cover":"BKN","base":7000}],"fltCat":"VFR"},{"icaoId":"KHDN","receiptTime":"2026-04-15T17:58:32.669Z","obsTime":1776275760,"reportTime":"2026-04-15T18:00:00.000Z","temp":8.9,"dewp":-1.1,"wdir":220,"wspd":7,"visib":"10+","altim":1018,"slp":1016.4,"qcField":6,"presTend":-0.4,"maxT":8.9,"minT":-2.2,"metarType":"METAR","rawOb":"METAR KHDN 151756Z AUTO 22007KT 10SM FEW039 BKN065 OVC080 09/M01 A3006 RMK AO2 SLP164 T00891011 10089 21022 58004","lat":40.4842,"lon":-107.2296,"elev":2012,"name":"Hayden/Yampa Valley Arpt, CO, US","cover":"OVC","clouds":[{"cover":"FEW","base":3900},{"cover":"BKN","base":6500},{"cover":"OVC","base":8000}],"fltCat":"VFR"},{"icaoId":"KSBP","receiptTime":"2026-04-15T18:00:35.839Z","obsTime":1776275760,"reportTime":"2026-04-15T18:00:00.000Z","temp":17.8,"dewp":10,"wdir":290,"wspd":7,"visib":"10+","altim":1018.4,"slp":1018.1,"qcField":4,"presTend":0.3,"maxT":17.8,"minT":7.2,"metarType":"METAR","rawOb":"METAR KSBP 151756Z 29007KT 10SM CLR 18/10 A3007 RMK AO2 SLP181 T01780100 10178 20072 53003","lat":35.2381,"lon":-120.644,"elev":52,"name":"San Luis Obispo/San Luis Cnty, CA, US","cover":"CLR","clouds":[],"fltCat":"VFR"},{"icaoId":"KLWS","receiptTime":"2026-04-15T18:00:11.720Z","obsTime":1776275760,"reportTime":"2026-04-15T18:00:00.000Z","temp":9.4,"dewp":6.1,"wdir":310,"wspd":8,"visib":"10+","altim":1004.8,"slp":1004.9,"qcField":4,"wxString":"-RA","presTend":-0.7,"maxT":12.2,"minT":9.4,"precip":0.005,"pcp6hr":0.005,"metarType":"METAR","rawOb":"METAR KLWS 151756Z 31008KT 10SM -RA FEW039 BKN050 OVC060 09/06 A2967 RMK AO2 RAB19 SLP049 P0000 60000 T00940061 10122 20094 55007","lat":46.3746,"lon":-117.0153,"elev":435,"name":"Lewiston/Nez Perce Cnty, ID, US","cover":"OVC","clouds":[{"cover":"FEW","base":3900},{"cover":"BKN","base":5000},{"cover":"OVC","base":6000}],"fltCat":"VFR"},{"icaoId":"KSEZ","receiptTime":"2026-04-15T18:00:36.776Z","obsTime":1776275700,"reportTime":"2026-04-15T18:00:00.000Z","temp":18,"dewp":-3,"wdir":"VRB","wspd":4,"visib":"10+","altim":1020.4,"qcField":6,"metarType":"METAR","rawOb":"METAR KSEZ 151755Z AUTO VRB04KT 10SM CLR 18/M03 A3013 RMK AO2","lat":34.8467,"lon":-111.7884,"elev":1455,"name":"Sedona Arpt, AZ, US","cover":"CLR","clouds":[],"fltCat":"VFR"},{"icaoId":"KLRU","receiptTime":"2026-04-15T17:56:29.772Z","obsTime":1776275700,"reportTime":"2026-04-15T18:00:00.000Z","temp":20,"dewp":-9.7,"wdir":240,"wspd":9,"wgst":18,"visib":"10+","altim":1019,"qcField":6,"maxT":20.1,"minT":4.7,"metarType":"METAR","rawOb":"METAR KLRU 151755Z AUTO 24009G18KT 10SM CLR 20/M10 A3009 RMK AO2 T02001097 10201 20047","lat":32.2884,"lon":-106.9131,"elev":1355,"name":"Las Cruces Intl, NM, US","cover":"CLR","clouds":[],"fltCat":"VFR"},{"icaoId":"KCXP","receiptTime":"2026-04-15T18:00:12.695Z","obsTime":1776275700,"reportTime":"2026-04-15T18:00:00.000Z","temp":11,"dewp":-5,"wdir":0,"wspd":0,"visib":9,"altim":1017.7,"qcField":6,"metarType":"METAR","rawOb":"METAR KCXP 151755Z AUTO 00000KT 9SM CLR 11/M05 A3005 RMK AO2","lat":39.1905,"lon":-119.7319,"elev":1431,"name":"Carson City Arpt, NV, US","cover":"CLR","clouds":[],"fltCat":"VFR"},{"icaoId":"KHTH","receiptTime":"2026-04-15T18:00:10.783Z","obsTime":1776275700,"reportTime":"2026-04-15T18:00:00.000Z","temp":15,"dewp":-6,"wdir":230,"wspd":3,"visib":"10+","altim":1016.3,"qcField":6,"metarType":"METAR","rawOb":"METAR KHTH 151755Z AUTO 23003KT 10SM CLR 15/M06 A3001 RMK A01","lat":38.5448,"lon":-118.6314,"elev":1281,"name":"Hawthorne Muni, NV, US","cover":"CLR","clouds":[],"fltCat":"VFR"},{"icaoId":"KBVU","receiptTime":"2026-04-15T17:56:18.325Z","obsTime":1776275700,"reportTime":"2026-04-15T18:00:00.000Z","temp":23,"dewp":-7,"wdir":"VRB","wspd":3,"visib":"10+","altim":1016,"qcField":6,"metarType":"METAR","rawOb":"METAR KBVU 151755Z AUTO VRB03KT 10SM CLR 23/M07 A3000 RMK AO2","lat":35.9489,"lon":-114.8633,"elev":654,"name":"Boulder City Muni, NV, US","cover":"CLR","clouds":[],"fltCat":"VFR"},{"icaoId":"KHCR","receiptTime":"2026-04-15T17:58:32.651Z","obsTime":1776275700,"reportTime":"2026-04-15T18:00:00.000Z","temp":13.8,"dewp":-2.4,"wdir":240,"wspd":13,"visib":"10+","altim":1015.3,"qcField":14,"presTend":-1.4,"maxT":13.8,"minT":-5.3,"metarType":"METAR","rawOb":"METAR KHCR 151755Z AUTO 24013KT 10SM CLR 14/M02 A2998 RMK AO2 T01381024 10138 21053 57014 $","lat":40.4774,"lon":-111.4329,"elev":1708,"name":"Heber City Muni, UT, US","cover":"CLR","clouds":[],"fltCat":"VFR"},{"icaoId":"KEND","receiptTime":"2026-04-15T18:06:04.737Z","obsTime":1776275700,"reportTime":"2026-04-15T18:00:00.000Z","temp":26.8,"dewp":15.8,"wdir":190,"wspd":12,"visib":"10+","altim":1008.2,"slp":1007.1,"qcField":12,"presTend":0.1,"maxT":26.8,"minT":20.2,"metarType":"METAR","rawOb":"METAR KEND 151755Z 19012KT 10SM FEW070 SCT120 27/16 A2977 RMK AO2A SLP071 T02680158 10268 20202 50001 $","lat":36.338,"lon":-97.919,"elev":392,"name":"Enid/Vance AFB, OK, US","cover":"SCT","clouds":[{"cover":"FEW","base":7000},{"cover":"SCT","base":12000}],"fltCat":"VFR"},{"icaoId":"KMHR","receiptTime":"2026-04-15T18:00:44.652Z","obsTime":1776275700,"reportTime":"2026-04-15T18:00:00.000Z","temp":16,"dewp":12,"wdir":190,"wspd":6,"visib":"10+","altim":1018.7,"qcField":6,"metarType":"METAR","rawOb":"METAR KMHR 151755Z AUTO 19006KT 10SM CLR 16/12 A3008 RMK AO2","lat":38.56,"lon":-121.284,"elev":30,"name":"Sacramento/Mather Fld, CA, US","cover":"CLR","clouds":[],"fltCat":"VFR"},{"icaoId":"KSOW","receiptTime":"2026-04-15T17:58:27.356Z","obsTime":1776275700,"reportTime":"2026-04-15T18:00:00.000Z","temp":13,"dewp":-7,"wdir":30,"wspd":9,"visib":"10+","altim":1022.1,"qcField":6,"metarType":"METAR","rawOb":"METAR KSOW 151755Z AUTO 03009KT 10SM CLR 13/M07 A3018 RMK AO2","lat":34.2686,"lon":-110.0019,"elev":1954,"name":"Show Low Muni, AZ, US","cover":"CLR","clouds":[],"fltCat":"VFR"},{"icaoId":"KLUF","receiptTime":"2026-04-15T18:08:12.369Z","obsTime":1776275700,"reportTime":"2026-04-15T18:00:00.000Z","temp":24.8,"dewp":-1.1,"wdir":120,"wspd":3,"visib":"10+","altim":1015.7,"slp":1014.6,"qcField":14,"maxT":24.9,"minT":13.5,"metarType":"METAR","rawOb":"METAR KLUF 151755Z AUTO 12003KT 10SM CLR 25/M01 A2999 RMK AO2 SLP146 T02481011 10249 20135 50000 $","lat":33.538,"lon":-112.38,"elev":333,"name":"Phoenix/Luke AFB, AZ, US","cover":"CLR","clouds":[],"fltCat":"VFR"},{"icaoId":"KHAF","receiptTime":"2026-04-15T18:00:40.214Z","obsTime":1776275700,"reportTime":"2026-04-15T18:00:00.000Z","temp":14,"dewp":11,"wdir":320,"wspd":15,"wgst":20,"visib":"10+","altim":1020.7,"qcField":6,"metarType":"METAR","rawOb":"METAR KHAF 151755Z AUTO 32015G20KT 10SM OVC023 14/11 A3014 RMK AO2","lat":37.5136,"lon":-122.4996,"elev":11,"name":"Half Moon Bay Arpt, CA, US","cover":"OVC","clouds":[{"cover":"OVC","base":2300}],"fltCat":"MVFR"},{"icaoId":"KRTS","receiptTime":"2026-04-15T18:00:30.129Z","obsTime":1776275700,"reportTime":"2026-04-15T18:00:00.000Z","temp":12,"dewp":-7,"wdir":230,"wspd":10,"wgst":20,"visib":"10+","altim":1017.4,"qcField":6,"metarType":"METAR","rawOb":"METAR KRTS 151755Z AUTO 23010G20KT 10SM CLR 12/M07 A3004 RMK AO2","lat":39.6658,"lon":-119.8731,"elev":1537,"name":"Reno/Stead Arpt, NV, US","cover":"CLR","clouds":[],"fltCat":"VFR"},{"icaoId":"KMEV","receiptTime":"2026-04-15T18:00:15.269Z","obsTime":1776275700,"reportTime":"2026-04-15T18:00:00.000Z","temp":10,"dewp":-1,"wdir":0,"wspd":0,"visib":"10+","altim":1017.7,"qcField":6,"metarType":"METAR","rawOb":"METAR KMEV 151755Z AUTO 00000KT 10SM CLR 10/M01 A3005 RMK AO2","lat":38.9963,"lon":-119.75,"elev":1437,"name":"Minden-Tahoe Arpt, NV, US","cover":"CLR","clouds":[],"fltCat":"VFR"},{"icaoId":"KHII","receiptTime":"2026-04-15T18:01:15.664Z","obsTime":1776275700,"reportTime":"2026-04-15T18:00:00.000Z","temp":24,"dewp":-1,"wdir":"VRB","wspd":4,"visib":"10+","altim":1015.7,"qcField":6,"metarType":"METAR","rawOb":"METAR KHII 151755Z AUTO VRB04KT 10SM CLR 24/M01 A2999 RMK AO2","lat":34.5659,"lon":-114.3522,"elev":241,"name":"Lake Havasu City Arpt, AZ, US","cover":"CLR","clouds":[],"fltCat":"VFR"},{"icaoId":"KCMA","receiptTime":"2026-04-15T17:58:26.374Z","obsTime":1776275700,"reportTime":"2026-04-15T18:00:00.000Z","temp":19.4,"dewp":11.1,"wdir":220,"wspd":7,"visib":"10+","altim":1017.7,"slp":1018.2,"qcField":4,"presTend":0.2,"maxT":19.4,"minT":7.8,"metarType":"METAR","rawOb":"METAR KCMA 151755Z 22007KT 10SM CLR 19/11 A3005 RMK AO2 SLP182 T01940111 10194 20078 53002","lat":34.2114,"lon":-119.0876,"elev":20,"name":"Camarillo Arpt, CA, US","cover":"CLR","clouds":[],"fltCat":"VFR"},{"icaoId":"KGPI","receiptTime":"2026-04-15T17:58:25.098Z","obsTime":1776275700,"reportTime":"2026-04-15T18:00:00.000Z","temp":5.6,"dewp":2.8,"wdir":160,"wspd":15,"visib":"10+","altim":1002.8,"slp":1003.5,"qcField":4,"wxString":"-RA","presTend":-1.4,"maxT":5.6,"minT":4.4,"precip":0.01,"pcp6hr":0.03,"metarType":"METAR","rawOb":"METAR KGPI 151755Z 16015KT 10SM -RA OVC035 06/03 A2961 RMK AO2 SLP035 P0001 60003 T00560028 10056 20044 56014","lat":48.3041,"lon":-114.2643,"elev":903,"name":"Kalispell/Glacier Park Intl, MT, US","cover":"OVC","clouds":[{"cover":"OVC","base":3500}],"fltCat":"VFR"},{"icaoId":"KRNO","receiptTime":"2026-04-15T17:58:25.429Z","obsTime":1776275700,"reportTime":"2026-04-15T18:00:00.000Z","temp":11.7,"dewp":-3.9,"wdir":130,"wspd":6,"visib":"10+","altim":1017,"slp":1014.5,"qcField":4,"presTend":-0.2,"maxT":11.7,"minT":4.4,"metarType":"METAR","rawOb":"METAR KRNO 151755Z 13006KT 10SM SCT140 BKN190 12/M04 A3003 RMK AO2 SLP145 ACSL ALQDS T01171039 10117 20044 56002","lat":39.5077,"lon":-119.7683,"elev":1344,"name":"Reno/Tahoe Intl, NV, US","cover":"BKN","clouds":[{"cover":"SCT","base":14000},{"cover":"BKN","base":19000}],"fltCat":"VFR"},{"icaoId":"KSJN","receiptTime":"2026-04-15T17:58:15.367Z","obsTime":1776275640,"reportTime":"2026-04-15T18:00:00.000Z","temp":13.3,"dewp":-6.1,"wdir":"VRB","wspd":4,"visib":"10+","altim":1020.7,"slp":1016,"qcField":6,"presTend":0.3,"maxT":13.9,"minT":2.2,"metarType":"METAR","rawOb":"METAR KSJN 151754Z AUTO VRB04KT 10SM CLR 13/M06 A3014 RMK AO2 SLP160 T01331061 10139 20022 50003","lat":34.5184,"lon":-109.3801,"elev":1747,"name":"St Johns Ind Arpt, AZ, US","cover":"CLR","clouds":[],"fltCat":"VFR"},{"icaoId":"KRIC","receiptTime":"2026-04-15T17:58:22.414Z","obsTime":1776275640,"reportTime":"2026-04-15T18:00:00.000Z","temp":32.2,"dewp":13.3,"wdir":200,"wspd":7,"visib":"10+","altim":1015.7,"slp":1015.8,"qcField":4,"presTend":-1.3,"maxT":32.2,"minT":17.8,"metarType":"METAR","rawOb":"METAR KRIC 151754Z 20007KT 10SM FEW140 SCT250 32/13 A2999 RMK AO2 SLP158 T03220133 10322 20178 56013","lat":37.5115,"lon":-77.3234,"elev":51,"name":"Richmond Intl, VA, US","cover":"SCT","clouds":[{"cover":"FEW","base":14000},{"cover":"SCT","base":25000}],"fltCat":"VFR"},{"icaoId":"KBUF","receiptTime":"2026-04-15T17:58:22.126Z","obsTime":1776275640,"reportTime":"2026-04-15T18:00:00.000Z","temp":17.8,"dewp":12.8,"wdir":240,"wspd":10,"wgst":19,"visib":"10+","altim":1011.6,"slp":1011.3,"qcField":4,"wxString":"-RA","presTend":0.7,"maxT":20,"minT":16.7,"precip":0.005,"pcp6hr":0.005,"metarType":"METAR","rawOb":"METAR KBUF 151754Z 24010G19KT 10SM -RA FEW020 FEW055 BKN110 BKN250 18/13 A2987 RMK AO2 RAB44 SLP113 P0000 60000 T01780128 10200 20167 50007","lat":42.94,"lon":-78.7361,"elev":217,"name":"Buffalo-Niagara Intl, NY, US","cover":"BKN","clouds":[{"cover":"FEW","base":2000},{"cover":"FEW","base":5500},{"cover":"BKN","base":11000},{"cover":"BKN","base":25000}],"fltCat":"VFR"},{"icaoId":"KSYR","receiptTime":"2026-04-15T17:58:22.491Z","obsTime":1776275640,"reportTime":"2026-04-15T18:00:00.000Z","temp":25.6,"dewp":14.4,"wdir":270,"wspd":15,"wgst":25,"visib":"10+","altim":1010.6,"slp":1010.1,"qcField":4,"maxT":26.1,"minT":9.4,"pcp6hr":0.11,"metarType":"METAR","rawOb":"METAR KSYR 151754Z 27015G25KT 10SM BKN055 BKN100 BKN200 26/14 A2984 RMK AO2 SLP101 60011 T02560144 10261 20094 55000","lat":43.1111,"lon":-76.1038,"elev":125,"name":"Syracuse/Hancock Intl, NY, US","cover":"BKN","clouds":[{"cover":"BKN","base":5500},{"cover":"BKN","base":10000},{"cover":"BKN","base":20000}],"fltCat":"VFR"},{"icaoId":"KOLM","receiptTime":"2026-04-15T17:58:15.036Z","obsTime":1776275640,"reportTime":"2026-04-15T18:00:00.000Z","temp":7.8,"dewp":1.7,"wdir":250,"wspd":6,"visib":"10+","altim":1011.3,"slp":1011.4,"qcField":4,"presTend":1.5,"maxT":7.8,"minT":1.1,"precip":0.005,"pcp6hr":0.005,"metarType":"METAR","rawOb":"METAR KOLM 151754Z 25006KT 10SM FEW022 BKN040 BKN048 08/02 A2986 RMK AO2 RAE1658 SLP114 P0000 60000 T00780017 10078 20011 51015","lat":46.9737,"lon":-122.9049,"elev":58,"name":"Olympia Rgnl, WA, US","cover":"BKN","clouds":[{"cover":"FEW","base":2200},{"cover":"BKN","base":4000},{"cover":"BKN","base":4800}],"fltCat":"VFR"},{"icaoId":"KCOS","receiptTime":"2026-04-15T17:58:22.169Z","obsTime":1776275640,"reportTime":"2026-04-15T18:00:00.000Z","temp":13.3,"dewp":-11.1,"wdir":"VRB","wspd":3,"wgst":16,"visib":"10+","altim":1014.6,"slp":1010.7,"qcField":4,"presTend":0.1,"maxT":13.9,"minT":2.2,"metarType":"METAR","rawOb":"METAR KCOS 151754Z VRB03G16KT 10SM FEW080 13/M11 A2996 RMK AO2 SLP107 T01331111 10139 20022 50001","lat":38.8095,"lon":-104.6887,"elev":1886,"name":"Colorado Spring Arpt, CO, US","cover":"FEW","clouds":[{"cover":"FEW","base":8000}],"fltCat":"VFR"},{"icaoId":"KAPC","receiptTime":"2026-04-15T17:58:05.084Z","obsTime":1776275640,"reportTime":"2026-04-15T18:00:00.000Z","temp":14.4,"dewp":8.9,"wdir":240,"wspd":7,"visib":"10+","altim":1019.7,"slp":1018.8,"qcField":4,"presTend":0.5,"maxT":14.4,"minT":4.4,"metarType":"METAR","rawOb":"METAR KAPC 151754Z 24007KT 10SM CLR 14/09 A3011 RMK AO2 SLP188 T01440089 10144 20044 53005","lat":38.2075,"lon":-122.2804,"elev":5,"name":"Napa Cnty Arpt, CA, US","cover":"CLR","clouds":[],"fltCat":"VFR"},{"icaoId":"KIND","receiptTime":"2026-04-15T17:58:05.565Z","obsTime":1776275640,"reportTime":"2026-04-15T18:00:00.000Z","temp":25,"dewp":16.1,"wdir":230,"wspd":15,"wgst":29,"visib":"10+","altim":1013.3,"slp":1012.4,"qcField":4,"presTend":0.7,"maxT":26.1,"minT":21.7,"metarType":"METAR","rawOb":"METAR KIND 151754Z 23015G29KT 10SM BKN045 BKN060 BKN180 OVC250 25/16 A2992 RMK AO2 PK WND 22029/1734 SLP124 T02500161 10261 20217 51007","lat":39.7252,"lon":-86.2816,"elev":242,"name":"Indianapolis Intl, IN, US","cover":"OVC","clouds":[{"cover":"BKN","base":4500},{"cover":"BKN","base":6000},{"cover":"BKN","base":18000},{"cover":"OVC","base":25000}],"fltCat":"VFR"},{"icaoId":"KGSO","receiptTime":"2026-04-15T17:58:22.246Z","obsTime":1776275640,"reportTime":"2026-04-15T18:00:00.000Z","temp":29.4,"dewp":9.4,"wdir":230,"wspd":7,"wgst":14,"visib":"10+","altim":1018,"slp":1016.8,"qcField":4,"presTend":-1.4,"maxT":30,"minT":17.2,"metarType":"METAR","rawOb":"METAR KGSO 151754Z 23007G14KT 10SM FEW250 29/09 A3006 RMK AO2 SLP168 T02940094 10300 20172 57014","lat":36.0969,"lon":-79.9432,"elev":275,"name":"Greensboro Intl, NC, US","cover":"FEW","clouds":[{"cover":"FEW","base":25000}],"fltCat":"VFR"},{"icaoId":"KROC","receiptTime":"2026-04-15T17:58:22.434Z","obsTime":1776275640,"reportTime":"2026-04-15T18:00:00.000Z","temp":22.8,"dewp":13.3,"wdir":270,"wspd":20,"wgst":34,"visib":"10+","altim":1011.3,"slp":1011.4,"qcField":12,"presTend":1.4,"maxT":23.9,"minT":12.2,"pcp6hr":0.005,"metarType":"METAR","rawOb":"METAR KROC 151754Z 27020G34KT 10SM BKN045 BKN220 23/13 A2986 RMK AO2 PK WND 30038/1709 SLP114 60000 T02280133 10239 20122 51014 $","lat":43.1172,"lon":-77.6754,"elev":166,"name":"Rochester Intl Arpt, NY, US","cover":"BKN","clouds":[{"cover":"BKN","base":4500},{"cover":"BKN","base":22000}],"fltCat":"VFR"},{"icaoId":"KBWI","receiptTime":"2026-04-15T17:58:05.183Z","obsTime":1776275640,"reportTime":"2026-04-15T18:00:00.000Z","temp":31.7,"dewp":13.9,"wdir":250,"wspd":12,"visib":"10+","altim":1013.3,"slp":1013,"qcField":4,"presTend":-2,"maxT":32.2,"minT":17.8,"metarType":"METAR","rawOb":"METAR KBWI 151754Z 25012KT 10SM BKN250 32/14 A2992 RMK AO2 SLP130 T03170139 10322 20178 56020","lat":39.1733,"lon":-76.684,"elev":42,"name":"Baltimore-Washington Intl, MD, US","cover":"BKN","clouds":[{"cover":"BKN","base":25000}],"fltCat":"VFR"},{"icaoId":"KBFL","receiptTime":"2026-04-15T17:58:05.123Z","obsTime":1776275640,"reportTime":"2026-04-15T18:00:00.000Z","temp":17.8,"dewp":7.8,"wdir":"VRB","wspd":5,"visib":"10+","altim":1018.7,"slp":1018.3,"qcField":4,"presTend":-0.2,"maxT":17.8,"minT":8.9,"metarType":"METAR","rawOb":"METAR KBFL 151754Z VRB05KT 10SM CLR 18/08 A3008 RMK AO2 SLP183 T01780078 10178 20089 58002","lat":35.4342,"lon":-119.0552,"elev":146,"name":"Bakersfield/Meadows Arpt, CA, US","cover":"CLR","clouds":[],"fltCat":"VFR"},{"icaoId":"KEUG","receiptTime":"2026-04-15T17:58:05.330Z","obsTime":1776275640,"reportTime":"2026-04-15T18:00:00.000Z","temp":8.9,"dewp":3.9,"wdir":270,"wspd":14,"visib":8,"altim":1015.7,"slp":1015.6,"qcField":12,"presTend":3.3,"maxT":9.4,"minT":7.2,"pcp6hr":0.38,"metarType":"METAR","rawOb":"METAR KEUG 151754Z 27014KT 8SM FEW029 BKN033 BKN047 09/04 A2999 RMK AO2 PRESRR SLP156 VCSH 60038 T00890039 10094 20072 51033 $","lat":44.1331,"lon":-123.2156,"elev":109,"name":"Eugene/Mahlon Sweet Fld, OR, US","cover":"BKN","clouds":[{"cover":"FEW","base":2900},{"cover":"BKN","base":3300},{"cover":"BKN","base":4700}],"fltCat":"VFR"},{"icaoId":"KOLS","receiptTime":"2026-04-15T17:58:15.054Z","obsTime":1776275640,"reportTime":"2026-04-15T18:00:00.000Z","temp":20.6,"dewp":-5.6,"wdir":340,"wspd":6,"visib":"10+","altim":1018.7,"slp":1014,"qcField":6,"presTend":0.1,"maxT":20.6,"minT":4.4,"metarType":"METAR","rawOb":"METAR KOLS 151754Z AUTO 34006KT 10SM CLR 21/M06 A3008 RMK AO2 SLP140 T02061056 10206 20044 50001","lat":31.4208,"lon":-110.8465,"elev":1194,"name":"Nogales Intl, AZ, US","cover":"CLR","clouds":[],"fltCat":"VFR"},{"icaoId":"KSLC","receiptTime":"2026-04-15T17:58:15.385Z","obsTime":1776275640,"reportTime":"2026-04-15T18:00:00.000Z","temp":16.7,"dewp":-1.7,"wdir":180,"wspd":20,"wgst":27,"visib":"10+","altim":1014.3,"slp":1011.5,"qcField":12,"presTend":-0.4,"maxT":16.7,"minT":6.7,"metarType":"METAR","rawOb":"METAR KSLC 151754Z 18020G27KT 10SM FEW005 FEW085 SCT110 BKN250 17/M02 A2995 RMK AO2 PK WND 18031/1730 SLP115 FU FEW005 FU NW ACSL DSNT ALQDS T01671017 10167 20067 56004 $","lat":40.7707,"lon":-111.965,"elev":1286,"name":"Salt Lake City Intl, UT, US","cover":"BKN","clouds":[{"cover":"FEW","base":500},{"cover":"FEW","base":8500},{"cover":"SCT","base":11000},{"cover":"BKN","base":25000}],"fltCat":"VFR"},{"icaoId":"KRKS","receiptTime":"2026-04-15T17:58:15.270Z","obsTime":1776275640,"reportTime":"2026-04-15T18:00:00.000Z","temp":11.7,"dewp":-6.7,"wdir":250,"wspd":14,"wgst":23,"visib":"10+","altim":1014.6,"slp":1011.4,"qcField":6,"presTend":-0.4,"maxT":11.7,"minT":0,"metarType":"METAR","rawOb":"METAR KRKS 151754Z AUTO 25014G23KT 10SM BKN085 BKN110 12/M07 A2996 RMK AO2 PK WND 26029/1705 SLP114 T01171067 10117 20000 58004","lat":41.5947,"lon":-109.0529,"elev":2062,"name":"Rock Springs/SW Wyoming Rgnl, WY, US","cover":"BKN","clouds":[{"cover":"BKN","base":8500},{"cover":"BKN","base":11000}],"fltCat":"VFR"},{"icaoId":"KDSM","receiptTime":"2026-04-15T17:58:22.205Z","obsTime":1776275640,"reportTime":"2026-04-15T18:00:00.000Z","temp":21.1,"dewp":17.2,"wdir":120,"wspd":10,"visib":"10+","altim":1004.8,"slp":1004.3,"qcField":4,"presTend":-2.2,"maxT":21.1,"minT":15,"pcp6hr":0.29,"metarType":"METAR","rawOb":"METAR KDSM 151754Z 12010KT 10SM FEW015 FEW027 SCT050 SCT250 21/17 A2967 RMK AO2 SLP043 CB DSNT NW-N MOV NE 60029 T02110172 10211 20150 58022","lat":41.5339,"lon":-93.6531,"elev":286,"name":"Des Moines Intl, IA, US","cover":"SCT","clouds":[{"cover":"FEW","base":1500},{"cover":"FEW","base":2700},{"cover":"SCT","base":5000},{"cover":"SCT","base":25000}],"fltCat":"VFR"},{"icaoId":"KMEM","receiptTime":"2026-04-15T17:58:14.852Z","obsTime":1776275640,"reportTime":"2026-04-15T18:00:00.000Z","temp":26.7,"dewp":15,"wdir":200,"wspd":15,"wgst":23,"visib":"10+","altim":1016.7,"slp":1016.1,"qcField":12,"presTend":-0.9,"maxT":27.2,"minT":19.4,"metarType":"METAR","rawOb":"METAR KMEM 151754Z 20015G23KT 10SM SCT044 BKN050 BKN250 27/15 A3002 RMK AO2 SLP161 T02670150 10272 20194 58009 $","lat":35.0564,"lon":-89.9864,"elev":78,"name":"Memphis Intl, TN, US","cover":"BKN","clouds":[{"cover":"SCT","base":4400},{"cover":"BKN","base":5000},{"cover":"BKN","base":25000}],"fltCat":"VFR"},{"icaoId":"KPHL","receiptTime":"2026-04-15T17:58:15.102Z","obsTime":1776275640,"reportTime":"2026-04-15T18:00:00.000Z","temp":30.6,"dewp":15.6,"wdir":220,"wspd":13,"visib":"10+","altim":1012.6,"slp":1012.3,"qcField":12,"presTend":-2.6,"maxT":30.6,"minT":19.4,"metarType":"METAR","rawOb":"METAR KPHL 151754Z 22013KT 10SM FEW055 FEW100 SCT210 BKN300 31/16 A2990 RMK AO2 SLP123 T03060156 10306 20194 56026 $","lat":39.8733,"lon":-75.2268,"elev":2,"name":"Philadelphia Intl, PA, US","cover":"BKN","clouds":[{"cover":"FEW","base":5500},{"cover":"FEW","base":10000},{"cover":"SCT","base":21000},{"cover":"BKN","base":30000}],"fltCat":"VFR"},{"icaoId":"KBOS","receiptTime":"2026-04-15T17:58:05.145Z","obsTime":1776275640,"reportTime":"2026-04-15T18:00:00.000Z","temp":10,"dewp":8.9,"wdir":120,"wspd":10,"visib":0.5,"altim":1013.6,"slp":1013.4,"qcField":4,"wxString":"FG","presTend":0.3,"maxT":22.8,"minT":10,"metarType":"METAR","rawOb":"METAR KBOS 151754Z 12010KT 1/2SM R04R/2000V2800FT FG OVC003 10/09 A2993 RMK AO2 SLP134 T01000089 10228 20100 50003","lat":42.3606,"lon":-71.0097,"elev":4,"name":"Boston/Logan Intl, MA, US","cover":"OVC","clouds":[{"cover":"OVC","base":300}],"fltCat":"LIFR"},{"icaoId":"KGCN","receiptTime":"2026-04-15T18:00:04.689Z","obsTime":1776275640,"reportTime":"2026-04-15T18:00:00.000Z","temp":12.2,"dewp":-5.6,"wdir":"VRB","wspd":4,"visib":"10+","altim":1021.8,"slp":1018.5,"qcField":5,"presTend":0.4,"maxT":12.2,"minT":-5,"metarType":"METAR","rawOb":"METAR KGCN 151754Z COR VRB04KT 10SM CLR 12/M06 A3017 RMK AO2 SLP185 T01221056 10122 21050 51004","lat":35.9458,"lon":-112.1554,"elev":1993,"name":"Grand Canyon Park Arpt, AZ, US","cover":"CLR","clouds":[],"fltCat":"VFR"},{"icaoId":"KFFZ","receiptTime":"2026-04-15T17:58:05.398Z","obsTime":1776275640,"reportTime":"2026-04-15T18:00:00.000Z","temp":23.9,"dewp":-2.2,"wdir":160,"wspd":6,"visib":"10+","altim":1016,"slp":1014.2,"qcField":4,"presTend":-0.1,"maxT":24.4,"minT":14.4,"metarType":"METAR","rawOb":"METAR KFFZ 151754Z 16006KT 10SM CLR 24/M02 A3000 RMK AO2 SLP142 T02391022 10244 20144 58001","lat":33.4659,"lon":-111.7212,"elev":420,"name":"Mesa/Falcon Fld, AZ, US","cover":"CLR","clouds":[],"fltCat":"VFR"},{"icaoId":"KMTJ","receiptTime":"2026-04-15T17:56:27.346Z","obsTime":1776275580,"reportTime":"2026-04-15T18:00:00.000Z","temp":12.2,"dewp":-3.9,"wdir":330,"wspd":6,"visib":"10+","altim":1019.4,"slp":1016,"qcField":6,"presTend":-0.1,"maxT":12.8,"minT":2.2,"metarType":"METAR","rawOb":"METAR KMTJ 151753Z AUTO 33006KT 10SM CLR 12/M04 A3010 RMK AO2 SLP160 T01221039 10128 20022 58001","lat":38.5054,"lon":-107.8981,"elev":1755,"name":"Montrose Rgnl, CO, US","cover":"CLR","clouds":[],"fltCat":"VFR"},{"icaoId":"KMYR","receiptTime":"2026-04-15T17:56:17.905Z","obsTime":1776275580,"reportTime":"2026-04-15T18:00:00.000Z","temp":23.9,"dewp":18.3,"wdir":180,"wspd":15,"visib":"10+","altim":1020.4,"slp":1020.4,"qcField":12,"presTend":-1.4,"maxT":25.6,"minT":19.4,"metarType":"METAR","rawOb":"METAR KMYR 151753Z 18015KT 10SM CLR 24/18 A3013 RMK AO2 SLP204 T02390183 10256 20194 56014 $","lat":33.6769,"lon":-78.9325,"elev":7,"name":"Myrtle Beach Intl, SC, US","cover":"CLR","clouds":[],"fltCat":"VFR"},{"icaoId":"KBHM","receiptTime":"2026-04-15T17:56:34.787Z","obsTime":1776275580,"reportTime":"2026-04-15T18:00:00.000Z","temp":27.8,"dewp":12.2,"wdir":180,"wspd":11,"wgst":19,"visib":"10+","altim":1020.7,"slp":1020,"qcField":4,"presTend":-1.6,"maxT":27.8,"minT":18.3,"metarType":"METAR","rawOb":"METAR KBHM 151753Z 18011G19KT 10SM FEW060 BKN250 28/12 A3014 RMK AO2 SLP200 T02780122 10278 20183 58016","lat":33.5655,"lon":-86.7449,"elev":191,"name":"Birmingham Intl, AL, US","cover":"BKN","clouds":[{"cover":"FEW","base":6000},{"cover":"BKN","base":25000}],"fltCat":"VFR"},{"icaoId":"KDAL","receiptTime":"2026-04-15T17:56:37.078Z","obsTime":1776275580,"reportTime":"2026-04-15T18:00:00.000Z","temp":25,"dewp":18.3,"wdir":170,"wspd":12,"wgst":25,"visib":"10+","altim":1014,"slp":1013,"qcField":4,"presTend":-0.4,"maxT":25.6,"minT":21.7,"pcp6hr":0.005,"metarType":"METAR","rawOb":"METAR KDAL 151753Z 17012G25KT 10SM SCT027 BKN034 BKN170 OVC220 25/18 A2994 RMK AO2 SLP130 60000 T02500183 10256 20217 58004","lat":32.8384,"lon":-96.8358,"elev":148,"name":"Dallas/Love Fld, TX, US","cover":"OVC","clouds":[{"cover":"SCT","base":2700},{"cover":"BKN","base":3400},{"cover":"BKN","base":17000},{"cover":"OVC","base":22000}],"fltCat":"VFR"},{"icaoId":"KDFW","receiptTime":"2026-04-15T17:56:37.202Z","obsTime":1776275580,"reportTime":"2026-04-15T18:00:00.000Z","temp":25,"dewp":18.3,"wdir":180,"wspd":16,"visib":"10+","altim":1013.3,"slp":1012.3,"qcField":12,"presTend":-0.1,"maxT":25.6,"minT":21.1,"pcp6hr":0.005,"metarType":"METAR","rawOb":"METAR KDFW 151753Z 18016KT 10SM SCT027 BKN045 OVC160 25/18 A2992 RMK AO2 SLP123 60000 T02500183 10256 20211 58001 $","lat":32.8974,"lon":-97.022,"elev":168,"name":"Dallas-Ft Worth Intl, TX, US","cover":"OVC","clouds":[{"cover":"SCT","base":2700},{"cover":"BKN","base":4500},{"cover":"OVC","base":16000}],"fltCat":"VFR"},{"icaoId":"KDTW","receiptTime":"2026-04-15T17:56:27.768Z","obsTime":1776275580,"reportTime":"2026-04-15T18:00:00.000Z","temp":20.6,"dewp":17.8,"wdir":200,"wspd":9,"visib":"10+","altim":1010.6,"slp":1010.2,"qcField":4,"presTend":-0.4,"maxT":21.1,"minT":16.1,"precip":0.005,"pcp6hr":0.06,"metarType":"METAR","rawOb":"METAR KDTW 151753Z 20009KT 10SM SCT025 BKN050 OVC110 21/18 A2984 RMK AO2 RAB45E52 SLP102 P0000 60006 T02060178 10211 20161 58004","lat":42.2311,"lon":-83.3312,"elev":192,"name":"Detroit/Metro Wayne Cnty, MI, US","cover":"OVC","clouds":[{"cover":"SCT","base":2500},{"cover":"BKN","base":5000},{"cover":"OVC","base":11000}],"fltCat":"VFR"},{"icaoId":"KEVW","receiptTime":"2026-04-15T17:56:28.014Z","obsTime":1776275580,"reportTime":"2026-04-15T18:00:00.000Z","temp":9.4,"dewp":-5.6,"wdir":220,"wspd":19,"wgst":29,"visib":"10+","altim":1015,"slp":1011.7,"qcField":14,"presTend":-0.8,"maxT":10.6,"minT":-2.2,"metarType":"METAR","rawOb":"METAR KEVW 151753Z AUTO 22019G29KT 10SM FEW060 09/M06 A2997 RMK AO2 PK WND 24032/1714 SLP117 T00941056 10106 21022 58008 $","lat":41.2727,"lon":-111.0305,"elev":2178,"name":"Evanston/Uinta Cnty, WY, US","cover":"FEW","clouds":[{"cover":"FEW","base":6000}],"fltCat":"VFR"},{"icaoId":"KCLL","receiptTime":"2026-04-15T17:56:33.696Z","obsTime":1776275580,"reportTime":"2026-04-15T18:00:00.000Z","temp":27.2,"dewp":19.4,"wdir":160,"wspd":16,"wgst":22,"visib":"10+","altim":1014.6,"slp":1014.2,"qcField":4,"presTend":0.3,"maxT":27.2,"minT":20,"metarType":"METAR","rawOb":"METAR KCLL 151753Z 16016G22KT 10SM BKN035 BKN046 27/19 A2996 RMK AO2 SLP142 T02720194 10272 20200 50003","lat":30.5912,"lon":-96.3631,"elev":96,"name":"College Station/Easterwood Arpt, TX, US","cover":"BKN","clouds":[{"cover":"BKN","base":3500},{"cover":"BKN","base":4600}],"fltCat":"VFR"},{"icaoId":"KCNM","receiptTime":"2026-04-15T17:56:33.772Z","obsTime":1776275580,"reportTime":"2026-04-15T18:00:00.000Z","temp":23.3,"dewp":-3.9,"wdir":0,"wspd":0,"visib":"10+","altim":1016,"slp":1011.4,"qcField":6,"presTend":-0.8,"maxT":23.9,"minT":11.7,"metarType":"METAR","rawOb":"METAR KCNM 151753Z AUTO 00000KT 10SM CLR 23/M04 A3000 RMK AO2 SLP114 T02331039 10239 20117 58008","lat":32.3336,"lon":-104.2584,"elev":993,"name":"Carlsbad/Cavern City Air Term, NM, US","cover":"CLR","clouds":[],"fltCat":"VFR"},{"icaoId":"KCNY","receiptTime":"2026-04-15T17:56:33.802Z","obsTime":1776275580,"reportTime":"2026-04-15T18:00:00.000Z","temp":13.3,"dewp":2.8,"wdir":130,"wspd":4,"visib":"10+","altim":1017.7,"slp":1015.7,"qcField":14,"presTend":-0.1,"maxT":14.4,"minT":2.8,"metarType":"METAR","rawOb":"METAR KCNY 151753Z AUTO 13004KT 10SM CLR 13/03 A3005 RMK AO2 SLP157 T01330028 10144 20028 58001 $","lat":38.7501,"lon":-109.7627,"elev":1392,"name":"Moab/Canyonland Fld, UT, US","cover":"CLR","clouds":[],"fltCat":"VFR"},{"icaoId":"KCRQ","receiptTime":"2026-04-15T17:56:33.906Z","obsTime":1776275580,"reportTime":"2026-04-15T18:00:00.000Z","temp":18.3,"dewp":12.8,"visib":"10+","altim":1017.4,"slp":1017.2,"qcField":4,"presTend":0.1,"maxT":19.4,"minT":12.2,"metarType":"METAR","rawOb":"METAR KCRQ 151753Z 10SM FEW024 18/13 A3004 RMK AO2 SLP172 T01830128 10194 20122 50001","lat":33.1299,"lon":-117.2765,"elev":96,"name":"Carlsbad/Palomar Arpt, CA, US","cover":"FEW","clouds":[{"cover":"FEW","base":2400}],"fltCat":"VFR"},{"icaoId":"KAPA","receiptTime":"2026-04-15T17:56:27.660Z","obsTime":1776275580,"reportTime":"2026-04-15T18:00:00.000Z","temp":15.6,"dewp":-10.6,"wdir":320,"wspd":11,"wgst":19,"visib":"10+","altim":1013,"slp":1010.5,"qcField":4,"presTend":-0.1,"maxT":16.1,"minT":2.2,"metarType":"METAR","rawOb":"METAR KAPA 151753Z 32011G19KT 10SM FEW100 FEW220 16/M11 A2991 RMK AO2 SLP105 T01561106 10161 20022 55001","lat":39.5599,"lon":-104.8484,"elev":1791,"name":"Denver/Centennial Arpt, CO, US","cover":"FEW","clouds":[{"cover":"FEW","base":10000},{"cover":"FEW","base":22000}],"fltCat":"VFR"},{"icaoId":"KMYF","receiptTime":"2026-04-15T17:56:27.420Z","obsTime":1776275580,"reportTime":"2026-04-15T18:00:00.000Z","temp":18.3,"dewp":12.2,"wdir":0,"wspd":0,"visib":"10+","altim":1018,"slp":1017.6,"qcField":4,"presTend":0.3,"maxT":18.3,"minT":11.1,"metarType":"METAR","rawOb":"METAR KMYF 151753Z 00000KT 10SM SCT020 18/12 A3006 RMK AO2 SLP176 T01830122 10183 20111 50003","lat":32.8145,"lon":-117.1375,"elev":128,"name":"San Diego/Montgomery Arpt, CA, US","cover":"SCT","clouds":[{"cover":"SCT","base":2000}],"fltCat":"VFR"},{"icaoId":"KOGD","receiptTime":"2026-04-15T17:56:27.512Z","obsTime":1776275580,"reportTime":"2026-04-15T18:00:00.000Z","temp":16.1,"dewp":-1.7,"wdir":180,"wspd":11,"wgst":21,"visib":"10+","altim":1013.6,"slp":1010.8,"qcField":4,"presTend":-0.7,"maxT":16.1,"minT":4.4,"metarType":"METAR","rawOb":"METAR KOGD 151753Z 18011G21KT 10SM CLR 16/M02 A2993 RMK AO2 SLP108 T01611017 10161 20044 56007","lat":41.1941,"lon":-112.0168,"elev":1356,"name":"Ogden/Hinckley Arpt, UT, US","cover":"CLR","clouds":[],"fltCat":"VFR"},{"icaoId":"KPGA","receiptTime":"2026-04-15T17:56:36.108Z","obsTime":1776275580,"reportTime":"2026-04-15T18:00:00.000Z","temp":15.6,"dewp":-1.1,"wdir":"VRB","wspd":3,"visib":"10+","altim":1019,"slp":1015.4,"qcField":14,"presTend":-0.1,"maxT":15.6,"minT":6.1,"metarType":"METAR","rawOb":"METAR KPGA 151753Z AUTO VRB03KT 10SM CLR 16/M01 A3009 RMK AO2 SLP154 T01561011 10156 20061 58001 $","lat":36.9211,"lon":-111.4487,"elev":1310,"name":"Page Muni, AZ, US","cover":"CLR","clouds":[],"fltCat":"VFR"},{"icaoId":"KGSP","receiptTime":"2026-04-15T17:56:28.491Z","obsTime":1776275580,"reportTime":"2026-04-15T18:00:00.000Z","temp":29.4,"dewp":6.1,"wdir":210,"wspd":7,"visib":"10+","altim":1019,"slp":1017.8,"qcField":4,"presTend":-1.4,"maxT":30,"minT":13.3,"metarType":"METAR","rawOb":"METAR KGSP 151753Z 21007KT 10SM CLR 29/06 A3009 RMK AO2 SLP178 T02940061 10300 20133 58014","lat":34.8842,"lon":-82.2209,"elev":285,"name":"Greenville-Spartanburg Intl, SC, US","cover":"CLR","clouds":[],"fltCat":"VFR"},{"icaoId":"KMFR","receiptTime":"2026-04-15T17:56:31.169Z","obsTime":1776275580,"reportTime":"2026-04-15T18:00:00.000Z","temp":8.9,"dewp":6.7,"wdir":340,"wspd":5,"visib":"10+","altim":1013.3,"slp":1013.4,"qcField":4,"wxString":"-RA","presTend":-0.9,"maxT":8.9,"minT":7.2,"precip":0.005,"pcp6hr":0.005,"metarType":"METAR","rawOb":"METAR KMFR 151753Z 34005KT 10SM -RA BKN045 OVC050 09/07 A2992 RMK AO2 RAB1654 SLP134 P0000 60000 T00890067 10089 20072 55009","lat":42.375,"lon":-122.877,"elev":397,"name":"Medford/Rogue Valley Intl, OR, US","cover":"OVC","clouds":[{"cover":"BKN","base":4500},{"cover":"OVC","base":5000}],"fltCat":"VFR"},{"icaoId":"KLAR","receiptTime":"2026-04-15T17:56:33.186Z","obsTime":1776275580,"reportTime":"2026-04-15T18:00:00.000Z","temp":8.9,"dewp":-3.9,"wdir":270,"wspd":19,"wgst":27,"visib":"10+","altim":1013.6,"slp":1009.6,"qcField":6,"presTend":0.1,"maxT":10,"minT":-1.1,"metarType":"METAR","rawOb":"METAR KLAR 151753Z AUTO 27019G27KT 10SM SCT055 09/M04 A2993 RMK AO2 PK WND 27027/1654 SLP096 T00891039 10100 21011 50001","lat":41.3165,"lon":-105.6729,"elev":2217,"name":"Laramie Rgnl, WY, US","cover":"SCT","clouds":[{"cover":"SCT","base":5500}],"fltCat":"VFR"},{"icaoId":"KCYS","receiptTime":"2026-04-15T17:56:37.043Z","obsTime":1776275580,"reportTime":"2026-04-15T18:00:00.000Z","temp":12.8,"dewp":-5.6,"wdir":280,"wspd":19,"wgst":29,"visib":"10+","altim":1012.3,"slp":1008.2,"qcField":4,"presTend":0.4,"maxT":13.3,"minT":4.4,"metarType":"METAR","rawOb":"METAR KCYS 151753Z 28019G29KT 10SM FEW065 13/M06 A2989 RMK AO2 PK WND 28031/1733 SLP082 T01281056 10133 20044 50004","lat":41.1579,"lon":-104.8081,"elev":1868,"name":"Cheyenne Rgnl, WY, US","cover":"FEW","clouds":[{"cover":"FEW","base":6500}],"fltCat":"VFR"},{"icaoId":"KDVT","receiptTime":"2026-04-15T17:56:27.801Z","obsTime":1776275580,"reportTime":"2026-04-15T18:00:00.000Z","temp":23.9,"dewp":-1.7,"wdir":0,"wspd":0,"visib":"10+","altim":1016.3,"slp":1014.6,"qcField":4,"presTend":0.1,"maxT":23.9,"minT":12.2,"metarType":"METAR","rawOb":"METAR KDVT 151753Z 00000KT 10SM CLR 24/M02 A3001 RMK AO2 SLP146 T02391017 10239 20122 50001","lat":33.6902,"lon":-112.0662,"elev":454,"name":"Phoenix/Deer Valley Arpt, AZ, US","cover":"CLR","clouds":[],"fltCat":"VFR"},{"icaoId":"KLGB","receiptTime":"2026-04-15T17:58:25.875Z","obsTime":1776275580,"reportTime":"2026-04-15T18:00:00.000Z","temp":20,"dewp":11.1,"wdir":"VRB","wspd":5,"visib":"10+","altim":1017.4,"slp":1017.3,"qcField":5,"presTend":0.3,"maxT":20.6,"minT":12.2,"metarType":"METAR","rawOb":"METAR KLGB 151753Z COR VRB05KT 10SM CLR 20/11 A3004 RMK AO2 SLP173 T02000111 10206 20122 53003","lat":33.8118,"lon":-118.1472,"elev":10,"name":"Long Beach Arpt, CA, US","cover":"CLR","clouds":[],"fltCat":"VFR"},{"icaoId":"KMSO","receiptTime":"2026-04-15T18:04:09.100Z","obsTime":1776275580,"reportTime":"2026-04-15T18:00:00.000Z","temp":8.3,"dewp":3.3,"wdir":160,"wspd":8,"visib":6,"altim":1003.8,"slp":1004.5,"qcField":5,"wxString":"-RA","presTend":-1.5,"maxT":8.9,"minT":3.3,"precip":0.005,"pcp6hr":0.005,"metarType":"METAR","rawOb":"METAR KMSO 151753Z COR 16008KT 6SM -RA BKN039 OVC048 08/03 A2964 RMK AO2 RAB1654 SLP045 P0000 60000 T00830033 10089 20033 56015","lat":46.9208,"lon":-114.0938,"elev":974,"name":"Missoula Intl, MT, US","cover":"OVC","clouds":[{"cover":"BKN","base":3900},{"cover":"OVC","base":4800}],"fltCat":"VFR"},{"icaoId":"KRTN","receiptTime":"2026-04-15T17:56:35.674Z","obsTime":1776275580,"reportTime":"2026-04-15T18:00:00.000Z","temp":15,"dewp":-9.4,"wdir":200,"wspd":8,"wgst":15,"visib":"10+","altim":1015.3,"slp":1009.9,"qcField":14,"presTend":-0.1,"maxT":15,"minT":-2.8,"metarType":"METAR","rawOb":"METAR KRTN 151753Z AUTO 20008G15KT 160V230 10SM 15/M09 A2998 RMK AO2 SLP099 T01501094 10150 21028 58001 $","lat":36.7418,"lon":-104.5076,"elev":1939,"name":"Raton/Crews Fld, NM, US"},{"icaoId":"KBLI","receiptTime":"2026-04-15T17:56:36.760Z","obsTime":1776275580,"reportTime":"2026-04-15T18:00:00.000Z","temp":7.2,"dewp":1.7,"wdir":180,"wspd":7,"visib":"10+","altim":1009.6,"slp":1010.4,"qcField":4,"presTend":0.7,"maxT":7.2,"minT":2.2,"metarType":"METAR","rawOb":"METAR KBLI 151753Z 18007KT 140V210 10SM BKN050 07/02 A2981 RMK AO2 SLP104 T00720017 10072 20022 53007","lat":48.7991,"lon":-122.5407,"elev":46,"name":"Bellingham Intl, WA, US","cover":"BKN","clouds":[{"cover":"BKN","base":5000}],"fltCat":"VFR"},{"icaoId":"KGJT","receiptTime":"2026-04-15T17:56:28.246Z","obsTime":1776275580,"reportTime":"2026-04-15T18:00:00.000Z","temp":11.7,"dewp":2.8,"wdir":"VRB","wspd":3,"visib":"10+","altim":1018.7,"slp":1016.4,"qcField":4,"presTend":-0.2,"maxT":12.2,"minT":3.9,"metarType":"METAR","rawOb":"METAR KGJT 151753Z VRB03KT 10SM CLR 12/03 A3008 RMK AO2 SLP164 6//// T01170028 10122 20039 58002","lat":39.1344,"lon":-108.5408,"elev":1475,"name":"Grand Junction Rgnl, CO, US","cover":"CLR","clouds":[],"fltCat":"VFR"},{"icaoId":"KLAW","receiptTime":"2026-04-15T17:56:33.202Z","obsTime":1776275580,"reportTime":"2026-04-15T18:00:00.000Z","temp":25.6,"dewp":19.4,"wdir":230,"wspd":8,"wgst":19,"visib":"10+","altim":1010.9,"slp":1009.9,"qcField":4,"maxT":26.1,"minT":20,"metarType":"METAR","rawOb":"METAR KLAW 151753Z 23008G19KT 10SM FEW026 SCT034 26/19 A2985 RMK AO2 SLP099 T02560194 10261 20200 50000","lat":34.5577,"lon":-98.4172,"elev":328,"name":"Lawton-Fort Sill Rgnl, OK, US","cover":"SCT","clouds":[{"cover":"FEW","base":2600},{"cover":"SCT","base":3400}],"fltCat":"VFR"},{"icaoId":"KSNA","receiptTime":"2026-04-15T17:56:30.406Z","obsTime":1776275580,"reportTime":"2026-04-15T18:00:00.000Z","temp":18.9,"dewp":12.2,"wdir":220,"wspd":3,"visib":"10+","altim":1017.7,"slp":1017.5,"qcField":12,"presTend":0.4,"maxT":19.4,"minT":13.3,"metarType":"METAR","rawOb":"METAR KSNA 151753Z 22003KT 10SM FEW018 FEW200 19/12 A3005 RMK AO2 SLP175 T01890122 10194 20133 51004 $","lat":33.6798,"lon":-117.8675,"elev":14,"name":"Santa Ana/Wayne Arpt, CA, US","cover":"FEW","clouds":[{"cover":"FEW","base":1800},{"cover":"FEW","base":20000}],"fltCat":"VFR"},{"icaoId":"KTWF","receiptTime":"2026-04-15T17:56:30.687Z","obsTime":1776275580,"reportTime":"2026-04-15T18:00:00.000Z","temp":10.6,"dewp":1.7,"wdir":260,"wspd":18,"wgst":23,"visib":"10+","altim":1012.3,"slp":1010,"qcField":4,"presTend":-0.1,"maxT":11.7,"minT":5,"precip":0.005,"pcp6hr":0.005,"metarType":"METAR","rawOb":"METAR KTWF 151753Z 26018G23KT 10SM FEW049 OVC065 11/02 A2989 RMK AO2 RAB21E48 SLP100 P0000 60000 T01060017 10117 20050 56001","lat":42.4785,"lon":-114.4775,"elev":1269,"name":"Twin Falls/Joslin Fld, ID, US","cover":"OVC","clouds":[{"cover":"FEW","base":4900},{"cover":"OVC","base":6500}],"fltCat":"VFR"},{"icaoId":"KVGT","receiptTime":"2026-04-15T17:56:30.829Z","obsTime":1776275580,"reportTime":"2026-04-15T18:00:00.000Z","temp":21.1,"dewp":-4.4,"wdir":170,"wspd":4,"visib":"10+","altim":1016.3,"slp":1016.5,"qcField":4,"presTend":-0.1,"maxT":21.1,"minT":11.1,"metarType":"METAR","rawOb":"METAR KVGT 151753Z 17004KT 10SM CLR 21/M04 A3001 RMK AO2 SLP165 T02111044 10211 20111 58001","lat":36.212,"lon":-115.194,"elev":664,"name":"Las Vegas/North Arpt, NV, US","cover":"CLR","clouds":[],"fltCat":"VFR"},{"icaoId":"KIAH","receiptTime":"2026-04-15T17:56:32.933Z","obsTime":1776275580,"reportTime":"2026-04-15T18:00:00.000Z","temp":28.3,"dewp":19.4,"wdir":160,"wspd":15,"wgst":23,"visib":"10+","altim":1015.3,"slp":1015.3,"qcField":4,"presTend":-0.9,"maxT":28.3,"minT":20,"pcp6hr":0.07,"metarType":"METAR","rawOb":"METAR KIAH 151753Z 16015G23KT 10SM SCT035 BKN250 28/19 A2998 RMK AO2 PK WND 17026/1736 SLP153 60007 T02830194 10283 20200 58009","lat":29.9844,"lon":-95.3607,"elev":27,"name":"Houston/Bush Intl, TX, US","cover":"BKN","clouds":[{"cover":"SCT","base":3500},{"cover":"BKN","base":25000}],"fltCat":"VFR"},{"icaoId":"KIDA","receiptTime":"2026-04-15T17:56:32.979Z","obsTime":1776275580,"reportTime":"2026-04-15T18:00:00.000Z","temp":10.6,"dewp":-1.1,"wdir":230,"wspd":19,"wgst":30,"visib":"10+","altim":1011.6,"slp":1010.5,"qcField":4,"presTend":-0.3,"maxT":11.1,"minT":5.6,"metarType":"METAR","rawOb":"METAR KIDA 151753Z 23019G30KT 10SM BKN050 OVC055 11/M01 A2987 RMK AO2 PK WND 23030/1749 SLP105 T01061011 10111 20056 58003","lat":43.5204,"lon":-112.0675,"elev":1444,"name":"Idaho Falls Rgnl, ID, US","cover":"OVC","clouds":[{"cover":"BKN","base":5000},{"cover":"OVC","base":5500}],"fltCat":"VFR"},{"icaoId":"KPDX","receiptTime":"2026-04-15T17:56:36.073Z","obsTime":1776275580,"reportTime":"2026-04-15T18:00:00.000Z","temp":8.3,"dewp":2.2,"wdir":260,"wspd":9,"visib":"10+","altim":1013.3,"slp":1013.1,"qcField":12,"presTend":1.8,"maxT":8.3,"minT":5.6,"pcp6hr":0.1,"metarType":"METAR","rawOb":"METAR KPDX 151753Z 26009KT 10SM FEW026 BKN037 BKN085 08/02 A2992 RMK AO2 SLP131 60010 T00830022 10083 20056 51018 $","lat":45.5958,"lon":-122.6092,"elev":7,"name":"Portland Intl, OR, US","cover":"BKN","clouds":[{"cover":"FEW","base":2600},{"cover":"BKN","base":3700},{"cover":"BKN","base":8500}],"fltCat":"VFR"},{"icaoId":"KLVS","receiptTime":"2026-04-15T17:56:30.903Z","obsTime":1776275580,"reportTime":"2026-04-15T18:00:00.000Z","temp":12.8,"dewp":-7.2,"wdir":"VRB","wspd":4,"wgst":14,"visib":"10+","altim":1017.7,"slp":1010.8,"qcField":14,"presTend":0.3,"maxT":12.8,"minT":-0.6,"metarType":"METAR","rawOb":"METAR KLVS 151753Z AUTO VRB04G14KT 10SM CLR 13/M07 A3005 RMK AO2 SLP108 6//// T01281072 10128 21006 50003 PNO $","lat":35.6558,"lon":-105.1385,"elev":2095,"name":"Las Vegas Muni, NM, US","cover":"CLR","clouds":[],"fltCat":"VFR"},{"icaoId":"KMSP","receiptTime":"2026-04-15T17:56:27.287Z","obsTime":1776275580,"reportTime":"2026-04-15T18:00:00.000Z","temp":16.7,"dewp":6.7,"wdir":0,"wspd":0,"visib":"10+","altim":1007.9,"slp":1007.8,"qcField":4,"presTend":-0.3,"maxT":17.2,"minT":7.2,"metarType":"METAR","rawOb":"METAR KMSP 151753Z 00000KT 10SM FEW130 SCT250 17/07 A2976 RMK AO2 SLP078 T01670067 10172 20072 58003","lat":44.8852,"lon":-93.2313,"elev":255,"name":"Minneapolis-St Paul Intl, MN, US","cover":"SCT","clouds":[{"cover":"FEW","base":13000},{"cover":"SCT","base":25000}],"fltCat":"VFR"},{"icaoId":"KBOI","receiptTime":"2026-04-15T17:56:36.834Z","obsTime":1776275580,"reportTime":"2026-04-15T18:00:00.000Z","temp":8.3,"dewp":5,"wdir":110,"wspd":11,"visib":"10+","altim":1011.3,"slp":1010.8,"qcField":4,"wxString":"-RA","presTend":-1,"maxT":9.4,"minT":6.7,"precip":0.03,"pcp6hr":0.18,"metarType":"METAR","rawOb":"METAR KBOI 151753Z 11011KT 10SM -RA BKN037 BKN045 OVC055 08/05 A2986 RMK AO2 SLP108 P0003 60018 T00830050 10094 20067 58010","lat":43.567,"lon":-116.2406,"elev":860,"name":"Boise Arpt, ID, US","cover":"OVC","clouds":[{"cover":"BKN","base":3700},{"cover":"BKN","base":4500},{"cover":"OVC","base":5500}],"fltCat":"VFR"},{"icaoId":"KBTM","receiptTime":"2026-04-15T17:56:34.229Z","obsTime":1776275580,"reportTime":"2026-04-15T18:00:00.000Z","temp":8.9,"dewp":-2.2,"wdir":250,"wspd":14,"wgst":19,"visib":"10+","altim":1004.8,"slp":1002.7,"qcField":6,"presTend":-1.3,"maxT":8.9,"minT":4.4,"metarType":"METAR","rawOb":"METAR KBTM 151753Z AUTO 25014G19KT 10SM BKN060 BKN070 OVC100 09/M02 A2967 RMK AO2 PK WND 25027/1707 SLP027 T00891022 10089 20044 56013","lat":45.9644,"lon":-112.5015,"elev":1680,"name":"Butte/Mooney Arpt, MT, US","cover":"OVC","clouds":[{"cover":"BKN","base":6000},{"cover":"BKN","base":7000},{"cover":"OVC","base":10000}],"fltCat":"VFR"},{"icaoId":"KPSP","receiptTime":"2026-04-15T17:56:36.397Z","obsTime":1776275580,"reportTime":"2026-04-15T18:00:00.000Z","temp":26.7,"dewp":1.1,"wdir":0,"wspd":0,"visib":"10+","altim":1015.7,"slp":1015.1,"qcField":12,"presTend":-0.3,"maxT":26.7,"minT":16.1,"metarType":"METAR","rawOb":"METAR KPSP 151753Z 00000KT 10SM CLR 27/01 A2999 RMK AO2 SLP151 T02670011 10267 20161 56003 $","lat":33.8222,"lon":-116.5043,"elev":123,"name":"Palm Springs Intl, CA, US","cover":"CLR","clouds":[],"fltCat":"VFR"},{"icaoId":"KPUW","receiptTime":"2026-04-15T17:56:35.399Z","obsTime":1776275580,"reportTime":"2026-04-15T18:00:00.000Z","temp":5,"dewp":3.9,"wdir":240,"wspd":11,"wgst":20,"visib":4,"altim":1005.2,"slp":1006.1,"qcField":6,"wxString":"RA BR","presTend":-0.6,"maxT":6.1,"minT":5,"precip":0.1,"pcp6hr":0.39,"metarType":"METAR","rawOb":"METAR KPUW 151753Z AUTO 24011G20KT 4SM RA BR FEW011 BKN021 OVC027 05/04 A2968 RMK AO2 SLP061 P0010 60039 T00500039 10061 20050 55006","lat":46.7438,"lon":-117.1158,"elev":774,"name":"Pullman/Moscow Rgnl, WA, US","cover":"OVC","clouds":[{"cover":"FEW","base":1100},{"cover":"BKN","base":2100},{"cover":"OVC","base":2700}],"fltCat":"MVFR"},{"icaoId":"KRDD","receiptTime":"2026-04-15T17:56:35.500Z","obsTime":1776275580,"reportTime":"2026-04-15T18:00:00.000Z","temp":12.8,"dewp":8.3,"wdir":150,"wspd":4,"visib":"10+","altim":1017.7,"slp":1017.4,"qcField":4,"presTend":0.6,"maxT":12.8,"minT":11.1,"metarType":"METAR","rawOb":"METAR KRDD 151753Z 15004KT 10SM SCT050 BKN070 OVC095 13/08 A3005 RMK AO2 SLP174 T01280083 10128 20111 53006","lat":40.5146,"lon":-122.2977,"elev":152,"name":"Redding Muni, CA, US","cover":"OVC","clouds":[{"cover":"SCT","base":5000},{"cover":"BKN","base":7000},{"cover":"OVC","base":9500}],"fltCat":"VFR"},{"icaoId":"KPAE","receiptTime":"2026-04-15T17:56:35.989Z","obsTime":1776275580,"reportTime":"2026-04-15T18:00:00.000Z","temp":5.6,"dewp":2.8,"wdir":220,"wspd":12,"visib":"10+","altim":1010.2,"slp":1010.5,"qcField":4,"presTend":1.3,"maxT":6.1,"minT":4.4,"pcp6hr":0.005,"metarType":"METAR","rawOb":"METAR KPAE 151753Z 22012KT 10SM BKN008 BKN025 OVC055 06/03 A2983 RMK AO2 SLP105 60000 T00560028 10061 20044 52013","lat":47.9232,"lon":-122.2831,"elev":166,"name":"Everett/Paine Fld, WA, US","cover":"OVC","clouds":[{"cover":"BKN","base":800},{"cover":"BKN","base":2500},{"cover":"OVC","base":5500}],"fltCat":"IFR"},{"icaoId":"KPBI","receiptTime":"2026-04-15T17:56:36.032Z","obsTime":1776275580,"reportTime":"2026-04-15T18:00:00.000Z","temp":25.6,"dewp":14.4,"wdir":90,"wspd":10,"wgst":19,"visib":"10+","altim":1021.4,"slp":1021.1,"qcField":12,"presTend":-1,"maxT":26.7,"minT":23.3,"metarType":"METAR","rawOb":"METAR KPBI 151753Z 09010G19KT 10SM BKN043 26/14 A3016 RMK AO2 SLP211 T02560144 10267 20233 58010 $","lat":26.6851,"lon":-80.0992,"elev":4,"name":"Palm Beach Intl, FL, US","cover":"BKN","clouds":[{"cover":"BKN","base":4300}],"fltCat":"VFR"},{"icaoId":"KMCO","receiptTime":"2026-04-15T17:56:31.095Z","obsTime":1776275580,"reportTime":"2026-04-15T18:00:00.000Z","temp":27.2,"dewp":13.3,"wdir":110,"wspd":7,"visib":"10+","altim":1021.8,"slp":1021.4,"qcField":4,"presTend":-1.9,"maxT":27.2,"minT":17.2,"metarType":"METAR","rawOb":"METAR KMCO 151753Z 11007KT 10SM FEW040 27/13 A3017 RMK AO2 SLP214 T02720133 10272 20172 58019","lat":28.4182,"lon":-81.3241,"elev":27,"name":"Orlando Intl, FL, US","cover":"FEW","clouds":[{"cover":"FEW","base":4000}],"fltCat":"VFR"},{"icaoId":"KONT","receiptTime":"2026-04-15T17:56:27.584Z","obsTime":1776275580,"reportTime":"2026-04-15T18:00:00.000Z","temp":20,"dewp":7.2,"wdir":220,"wspd":6,"visib":"10+","altim":1017.7,"slp":1016.7,"qcField":12,"presTend":0.2,"maxT":20,"minT":11.7,"metarType":"METAR","rawOb":"METAR KONT 151753Z 22006KT 10SM FEW080 FEW250 20/07 A3005 RMK AO2 SLP167 T02000072 10200 20117 53002 $","lat":34.0531,"lon":-117.5769,"elev":279,"name":"Ontario Intl, CA, US","cover":"FEW","clouds":[{"cover":"FEW","base":8000},{"cover":"FEW","base":25000}],"fltCat":"VFR"},{"icaoId":"KYKM","receiptTime":"2026-04-15T17:56:30.480Z","obsTime":1776275580,"reportTime":"2026-04-15T18:00:00.000Z","temp":11.1,"dewp":-5.6,"wdir":300,"wspd":16,"wgst":26,"visib":"10+","altim":1005.8,"slp":1005.9,"qcField":4,"presTend":0.9,"maxT":11.7,"minT":5.6,"pcp6hr":0.01,"metarType":"METAR","rawOb":"METAR KYKM 151753Z 30016G26KT 10SM CLR 11/M06 A2970 RMK AO2 PK WND 28026/1747 WSHFT 1710 SLP059 60001 T01111056 10117 20056 53009","lat":46.564,"lon":-120.5349,"elev":319,"name":"Yakima/McAllister Fld, WA, US","cover":"CLR","clouds":[],"fltCat":"VFR"},{"icaoId":"KMSY","receiptTime":"2026-04-15T17:56:27.317Z","obsTime":1776275580,"reportTime":"2026-04-15T18:00:00.000Z","temp":27.8,"dewp":15.6,"wdir":160,"wspd":12,"wgst":20,"visib":"10+","altim":1019.7,"slp":1019.8,"qcField":4,"presTend":0.1,"maxT":27.8,"minT":20.6,"metarType":"METAR","rawOb":"METAR KMSY 151753Z 16012G20KT 10SM FEW035 SCT075 BKN250 28/16 A3011 RMK AO2 SLP198 T02780156 10278 20206 50001","lat":29.9974,"lon":-90.2777,"elev":0,"name":"New Orleans/Armstrong Intl, LA, US","cover":"BKN","clouds":[{"cover":"FEW","base":3500},{"cover":"SCT","base":7500},{"cover":"BKN","base":25000}],"fltCat":"VFR"},{"icaoId":"KFAT","receiptTime":"2026-04-15T17:56:28.089Z","obsTime":1776275580,"reportTime":"2026-04-15T18:00:00.000Z","temp":18.3,"dewp":8.3,"wdir":0,"wspd":0,"visib":"10+","altim":1018.7,"slp":1018.3,"qcField":12,"maxT":18.3,"minT":9.4,"metarType":"METAR","rawOb":"METAR KFAT 151753Z 00000KT 10SM FEW050 BKN250 18/08 A3008 RMK AO2 SLP183 T01830083 10183 20094 50000 $","lat":36.78,"lon":-119.7202,"elev":102,"name":"Fresno/Yosemite Intl, CA, US","cover":"BKN","clouds":[{"cover":"FEW","base":5000},{"cover":"BKN","base":25000}],"fltCat":"VFR"},{"icaoId":"KGEG","receiptTime":"2026-04-15T17:56:28.130Z","obsTime":1776275580,"reportTime":"2026-04-15T18:00:00.000Z","temp":6.1,"dewp":3.9,"wdir":210,"wspd":14,"wgst":20,"visib":7,"altim":1003.1,"slp":1003.6,"qcField":4,"wxString":"-RA","presTend":-0.3,"maxT":6.1,"minT":5,"precip":0.02,"pcp6hr":0.2,"metarType":"METAR","rawOb":"METAR KGEG 151753Z 21014G20KT 7SM -RA FEW010 BKN013 OVC035 06/04 A2962 RMK AO2 SLP036 P0002 60020 T00610039 10061 20050 55003","lat":47.6217,"lon":-117.528,"elev":718,"name":"Spokane Intl, WA, US","cover":"OVC","clouds":[{"cover":"FEW","base":1000},{"cover":"BKN","base":1300},{"cover":"OVC","base":3500}],"fltCat":"MVFR"},{"icaoId":"KGTF","receiptTime":"2026-04-15T17:56:28.509Z","obsTime":1776275580,"reportTime":"2026-04-15T18:00:00.000Z","temp":13.9,"dewp":-1.7,"wdir":240,"wspd":14,"wgst":24,"visib":"10+","altim":1002.1,"slp":1001.7,"qcField":4,"presTend":-1.9,"maxT":14.4,"minT":6.1,"metarType":"METAR","rawOb":"METAR KGTF 151753Z 24014G24KT 10SM FEW060 14/M02 A2959 RMK AO2 PK WND 23027/1718 SLP017 T01391017 10144 20061 58019","lat":47.4733,"lon":-111.3828,"elev":1117,"name":"Great Falls Intl, MT, US","cover":"FEW","clouds":[{"cover":"FEW","base":6000}],"fltCat":"VFR"},{"icaoId":"KMIA","receiptTime":"2026-04-15T17:56:29.964Z","obsTime":1776275580,"reportTime":"2026-04-15T18:00:00.000Z","temp":26.1,"dewp":15,"wdir":80,"wspd":13,"wgst":20,"visib":"10+","altim":1020.4,"slp":1020.3,"qcField":0,"presTend":-0.8,"maxT":26.7,"minT":23.3,"metarType":"METAR","rawOb":"METAR KMIA 151753Z 08013G20KT 10SM FEW040 BKN048 26/15 A3013 RMK SLP203 T02610150 10267 20233 58008","lat":25.7881,"lon":-80.3169,"elev":1,"name":"Miami Intl, FL, US","cover":"BKN","clouds":[{"cover":"FEW","base":4000},{"cover":"BKN","base":4800}],"fltCat":"VFR"},{"icaoId":"KMCI","receiptTime":"2026-04-15T17:56:31.043Z","obsTime":1776275580,"reportTime":"2026-04-15T18:00:00.000Z","temp":25.6,"dewp":17.8,"wdir":200,"wspd":16,"wgst":28,"visib":"10+","altim":1006.5,"slp":1005.3,"qcField":4,"presTend":-0.9,"maxT":25.6,"minT":18.9,"pcp6hr":0.005,"metarType":"METAR","rawOb":"METAR KMCI 151753Z 20016G28KT 10SM FEW027 BKN038 BKN250 26/18 A2972 RMK AO2 PK WND 20029/1736 SLP053 60000 T02560178 10256 20189 58009","lat":39.2975,"lon":-94.7309,"elev":308,"name":"Kansas City Intl, MO, US","cover":"BKN","clouds":[{"cover":"FEW","base":2700},{"cover":"BKN","base":3800},{"cover":"BKN","base":25000}],"fltCat":"VFR"},{"icaoId":"KMDW","receiptTime":"2026-04-15T17:56:31.129Z","obsTime":1776275580,"reportTime":"2026-04-15T18:00:00.000Z","temp":19.4,"dewp":16.1,"wdir":220,"wspd":9,"visib":"10+","altim":1009.2,"slp":1008.5,"qcField":4,"presTend":0.7,"maxT":19.4,"minT":18.3,"precip":0.005,"pcp6hr":0.03,"metarType":"METAR","rawOb":"METAR KMDW 151753Z 22009KT 10SM FEW075 SCT120 BKN150 OVC250 19/16 A2980 RMK AO2 RAE10 SLP085 P0000 60003 T01940161 10194 20183 51007","lat":41.7841,"lon":-87.7552,"elev":186,"name":"Chicago/Midway Intl, IL, US","cover":"OVC","clouds":[{"cover":"FEW","base":7500},{"cover":"SCT","base":12000},{"cover":"BKN","base":15000},{"cover":"OVC","base":25000}],"fltCat":"VFR"},{"icaoId":"KMFE","receiptTime":"2026-04-15T17:56:31.153Z","obsTime":1776275580,"reportTime":"2026-04-15T18:00:00.000Z","temp":30.6,"dewp":20,"wdir":150,"wspd":20,"wgst":27,"visib":"10+","altim":1013.3,"slp":1013.1,"qcField":4,"presTend":-0.6,"maxT":31.1,"minT":23.9,"metarType":"METAR","rawOb":"METAR KMFE 151753Z 15020G27KT 10SM FEW039 SCT045 BKN065 31/20 A2992 RMK AO2 PK WND 15027/1753 SLP131 T03060200 10311 20239 58006","lat":26.1791,"lon":-98.2445,"elev":29,"name":"McAllen/Miller Intl, TX, US","cover":"BKN","clouds":[{"cover":"FEW","base":3900},{"cover":"SCT","base":4500},{"cover":"BKN","base":6500}],"fltCat":"VFR"},{"icaoId":"KMLC","receiptTime":"2026-04-15T17:56:31.343Z","obsTime":1776275580,"reportTime":"2026-04-15T18:00:00.000Z","temp":23.9,"dewp":19.4,"wdir":180,"wspd":8,"wgst":19,"visib":"10+","altim":1012.6,"slp":1011.5,"qcField":6,"presTend":-0.5,"maxT":23.9,"minT":21.1,"pcp6hr":0.01,"metarType":"METAR","rawOb":"METAR KMLC 151753Z AUTO 18008G19KT 10SM BKN022 OVC027 24/19 A2990 RMK AO2 SLP115 60001 T02390194 10239 20211 58005","lat":34.8824,"lon":-95.7815,"elev":231,"name":"McAlester Rgnl, OK, US","cover":"OVC","clouds":[{"cover":"BKN","base":2200},{"cover":"OVC","base":2700}],"fltCat":"MVFR"},{"icaoId":"KSDL","receiptTime":"2026-04-15T17:56:31.760Z","obsTime":1776275580,"reportTime":"2026-04-15T18:00:00.000Z","temp":23.9,"dewp":-1.1,"wdir":"VRB","wspd":4,"visib":"10+","altim":1016.7,"slp":1014.6,"qcField":4,"presTend":0.2,"maxT":24.4,"minT":12.8,"metarType":"METAR","rawOb":"METAR KSDL 151753Z VRB04KT 10SM CLR 24/M01 A3002 RMK AO2 SLP146 T02391011 10244 20128 50002","lat":33.6123,"lon":-111.9232,"elev":438,"name":"Scottsdale Muni, AZ, US","cover":"CLR","clouds":[],"fltCat":"VFR"},{"icaoId":"KSHR","receiptTime":"2026-04-15T17:56:31.883Z","obsTime":1776275580,"reportTime":"2026-04-15T18:00:00.000Z","temp":16.1,"dewp":-3.9,"wdir":0,"wspd":0,"visib":"10+","altim":1006.5,"slp":1005.4,"qcField":6,"presTend":-0.6,"maxT":16.1,"minT":0,"metarType":"METAR","rawOb":"METAR KSHR 151753Z AUTO 00000KT 10SM CLR 16/M04 A2972 RMK AO2 SLP054 T01611039 10161 20000 56006","lat":44.7603,"lon":-106.9741,"elev":1212,"name":"Sheridan Cnty Arpt, WY, US","cover":"CLR","clouds":[],"fltCat":"VFR"},{"icaoId":"KLAX","receiptTime":"2026-04-15T17:56:33.219Z","obsTime":1776275580,"reportTime":"2026-04-15T18:00:00.000Z","temp":19.4,"dewp":12.8,"wdir":240,"wspd":7,"visib":"10+","altim":1017.7,"slp":1017.6,"qcField":4,"presTend":0.6,"maxT":19.4,"minT":13.3,"metarType":"METAR","rawOb":"METAR KLAX 151753Z 24007KT 10SM FEW010 FEW180 19/13 A3005 RMK AO2 SLP176 T01940128 10194 20133 52006","lat":33.9382,"lon":-118.3866,"elev":30,"name":"Los Angeles Intl, CA, US","cover":"FEW","clouds":[{"cover":"FEW","base":1000},{"cover":"FEW","base":18000}],"fltCat":"VFR"},{"icaoId":"KBFI","receiptTime":"2026-04-15T17:56:34.714Z","obsTime":1776275580,"reportTime":"2026-04-15T18:00:00.000Z","temp":5,"dewp":1.7,"wdir":150,"wspd":4,"visib":"10+","altim":1011.3,"slp":1011.2,"qcField":4,"presTend":1.1,"maxT":6.1,"minT":3.9,"precip":0.03,"pcp6hr":0.07,"metarType":"METAR","rawOb":"METAR KBFI 151753Z 15004KT 10SM SCT014 BKN038 OVC070 05/02 A2986 RMK AO2 RAE50 SLP112 P0003 60007 T00500017 10061 20039 51011","lat":47.5455,"lon":-122.3148,"elev":7,"name":"Seattle/Boeing Fld, WA, US","cover":"OVC","clouds":[{"cover":"SCT","base":1400},{"cover":"BKN","base":3800},{"cover":"OVC","base":7000}],"fltCat":"VFR"},{"icaoId":"KACV","receiptTime":"2026-04-15T17:56:35.100Z","obsTime":1776275580,"reportTime":"2026-04-15T18:00:00.000Z","temp":10.6,"dewp":9.4,"wdir":150,"wspd":9,"visib":2.5,"altim":1019,"slp":1019.4,"qcField":6,"wxString":"-RA BR","presTend":-0.1,"maxT":10.6,"minT":8.3,"precip":0.005,"pcp6hr":0.05,"metarType":"METAR","rawOb":"METAR KACV 151753Z AUTO 15009KT 2 1/2SM -RA BR FEW008 BKN014 OVC023 11/09 A3009 RMK AO2 RAB13 SLP194 P0000 60005 T01060094 10106 20083 55001","lat":40.9784,"lon":-124.1048,"elev":63,"name":"Arcata Arpt, CA, US","cover":"OVC","clouds":[{"cover":"FEW","base":800},{"cover":"BKN","base":1400},{"cover":"OVC","base":2300}],"fltCat":"IFR"},{"icaoId":"KRIW","receiptTime":"2026-04-15T17:56:35.547Z","obsTime":1776275580,"reportTime":"2026-04-15T18:00:00.000Z","temp":11.1,"dewp":-7.2,"wdir":"VRB","wspd":6,"visib":"10+","altim":1010.2,"slp":1007.6,"qcField":6,"presTend":-0.8,"maxT":11.1,"minT":1.1,"metarType":"METAR","rawOb":"METAR KRIW 151753Z AUTO VRB06KT 10SM CLR 11/M07 A2983 RMK AO2 SLP076 T01111072 10111 20011 58008","lat":43.0622,"lon":-108.4471,"elev":1662,"name":"Riverton Rgnl, WY, US","cover":"CLR","clouds":[],"fltCat":"VFR"},{"icaoId":"KSTS","receiptTime":"2026-04-15T17:56:35.804Z","obsTime":1776275580,"reportTime":"2026-04-15T18:00:00.000Z","temp":12.8,"dewp":7.2,"wdir":260,"wspd":3,"visib":"10+","altim":1020.1,"slp":1019.2,"qcField":4,"presTend":0.6,"maxT":13.3,"minT":3.9,"metarType":"METAR","rawOb":"METAR KSTS 151753Z 26003KT 10SM FEW025 13/07 A3012 RMK AO2 SLP192 T01280072 10133 20039 53006","lat":38.5037,"lon":-122.811,"elev":35,"name":"Santa Rosa/Schulz Arpt, CA, US","cover":"FEW","clouds":[{"cover":"FEW","base":2500}],"fltCat":"VFR"},{"icaoId":"KSWO","receiptTime":"2026-04-15T17:56:35.820Z","obsTime":1776275580,"reportTime":"2026-04-15T18:00:00.000Z","temp":25,"dewp":18.9,"wdir":230,"wspd":15,"wgst":22,"visib":"10+","altim":1009.6,"slp":1008.2,"qcField":4,"presTend":-0.2,"maxT":26.1,"minT":20.6,"metarType":"METAR","rawOb":"METAR KSWO 151753Z 23015G22KT 10SM BKN032 25/19 A2981 RMK AO2 SLP082 T02500189 10261 20206 58002","lat":36.1624,"lon":-97.0832,"elev":293,"name":"Stillwater Muni, OK, US","cover":"BKN","clouds":[{"cover":"BKN","base":3200}],"fltCat":"VFR"},{"icaoId":"KPIH","receiptTime":"2026-04-15T17:56:36.175Z","obsTime":1776275580,"reportTime":"2026-04-15T18:00:00.000Z","temp":12.8,"dewp":-1.7,"wdir":220,"wspd":9,"visib":"10+","altim":1011.6,"slp":1010,"qcField":4,"presTend":-0.8,"maxT":12.8,"minT":7.2,"metarType":"METAR","rawOb":"METAR KPIH 151753Z 22009KT 10SM BKN070 13/M02 A2987 RMK AO2 SLP100 T01281017 10128 20072 58008","lat":42.9197,"lon":-112.5723,"elev":1357,"name":"Pocatello Rgnl, ID, US","cover":"BKN","clouds":[{"cover":"BKN","base":7000}],"fltCat":"VFR"},{"icaoId":"KPNC","receiptTime":"2026-04-15T17:56:36.286Z","obsTime":1776275580,"reportTime":"2026-04-15T18:00:00.000Z","temp":26.1,"dewp":17.2,"wdir":220,"wspd":10,"wgst":22,"visib":"10+","altim":1008.5,"slp":1007.4,"qcField":6,"presTend":-0.2,"maxT":26.7,"minT":20.6,"metarType":"METAR","rawOb":"METAR KPNC 151753Z AUTO 22010G22KT 10SM SCT037 SCT045 26/17 A2978 RMK AO2 PK WND 22026/1742 SLP074 T02610172 10267 20206 58002","lat":36.7369,"lon":-97.1024,"elev":304,"name":"Ponca City Rgnl, OK, US","cover":"SCT","clouds":[{"cover":"SCT","base":3700},{"cover":"SCT","base":4500}],"fltCat":"VFR"},{"icaoId":"KBNA","receiptTime":"2026-04-15T17:56:36.804Z","obsTime":1776275580,"reportTime":"2026-04-15T18:00:00.000Z","temp":28.3,"dewp":12.2,"wdir":190,"wspd":11,"wgst":28,"visib":"10+","altim":1018,"slp":1017.3,"qcField":4,"presTend":-1,"maxT":28.9,"minT":18.3,"metarType":"METAR","rawOb":"METAR KBNA 151753Z 19011G28KT 10SM FEW055 SCT200 BKN250 28/12 A3006 RMK AO2 PK WND 18028/1743 SLP173 T02830122 10289 20183 58010","lat":36.1105,"lon":-86.6881,"elev":168,"name":"Nashville Intl, TN, US","cover":"BKN","clouds":[{"cover":"FEW","base":5500},{"cover":"SCT","base":20000},{"cover":"BKN","base":25000}],"fltCat":"VFR"},{"icaoId":"KBIL","receiptTime":"2026-04-15T17:56:36.943Z","obsTime":1776275580,"reportTime":"2026-04-15T18:00:00.000Z","temp":15,"dewp":-2.2,"wdir":"VRB","wspd":5,"visib":"10+","altim":1005.2,"slp":1003.9,"qcField":4,"presTend":-1.5,"maxT":15,"minT":7.8,"metarType":"METAR","rawOb":"METAR KBIL 151753Z VRB05KT 10SM SCT095 OVC220 15/M02 A2968 RMK AO2 SLP039 ACSL ALQDS T01501022 10150 20078 58015","lat":45.8072,"lon":-108.5462,"elev":1089,"name":"Billings/Logan Intl, MT, US","cover":"OVC","clouds":[{"cover":"SCT","base":9500},{"cover":"OVC","base":22000}],"fltCat":"VFR"},{"icaoId":"KDLN","receiptTime":"2026-04-15T17:56:37.285Z","obsTime":1776275580,"reportTime":"2026-04-15T18:00:00.000Z","temp":10,"dewp":-2.8,"wdir":240,"wspd":21,"wgst":27,"visib":"10+","altim":1005.2,"slp":1002.7,"qcField":6,"presTend":-0.9,"maxT":12.2,"minT":4.4,"metarType":"METAR","rawOb":"METAR KDLN 151753Z AUTO 24021G27KT 10SM FEW043 BKN055 OVC070 10/M03 A2968 RMK AO2 PK WND 19029/1743 SLP027 T01001028 10122 20044 56009","lat":45.2584,"lon":-112.5546,"elev":1586,"name":"Dillon Arpt, MT, US","cover":"OVC","clouds":[{"cover":"FEW","base":4300},{"cover":"BKN","base":5500},{"cover":"OVC","base":7000}],"fltCat":"VFR"},{"icaoId":"KDMN","receiptTime":"2026-04-15T17:56:37.313Z","obsTime":1776275580,"reportTime":"2026-04-15T18:00:00.000Z","temp":20.6,"dewp":-6.7,"wdir":250,"wspd":7,"wgst":18,"visib":"10+","altim":1019,"slp":1013.7,"qcField":6,"presTend":-0.1,"maxT":21.1,"minT":3.9,"metarType":"METAR","rawOb":"METAR KDMN 151753Z AUTO 25007G18KT 10SM CLR 21/M07 A3009 RMK AO2 SLP137 T02061067 10211 20039 58001","lat":32.2592,"lon":-107.7206,"elev":1310,"name":"Deming Muni, NM, US","cover":"CLR","clouds":[],"fltCat":"VFR"},{"icaoId":"KCDC","receiptTime":"2026-04-15T17:56:34.404Z","obsTime":1776275580,"reportTime":"2026-04-15T18:00:00.000Z","temp":14.4,"dewp":-1.1,"wdir":200,"wspd":16,"visib":"10+","altim":1018.7,"slp":1015.2,"qcField":6,"maxT":14.4,"minT":0.6,"metarType":"METAR","rawOb":"METAR KCDC 151753Z AUTO 20016KT 10SM CLR 14/M01 A3008 RMK AO2 SLP152 T01441011 10144 20006 56000","lat":37.7067,"lon":-113.097,"elev":1703,"name":"Cedar City Muni, UT, US","cover":"CLR","clouds":[],"fltCat":"VFR"},{"icaoId":"KAUS","receiptTime":"2026-04-15T17:56:34.513Z","obsTime":1776275580,"reportTime":"2026-04-15T18:00:00.000Z","temp":26.7,"dewp":18.3,"wdir":180,"wspd":14,"wgst":22,"visib":"10+","altim":1014,"slp":1013.1,"qcField":4,"presTend":0.1,"maxT":26.7,"minT":21.1,"metarType":"METAR","rawOb":"METAR KAUS 151753Z 18014G22KT 10SM FEW036 OVC047 27/18 A2994 RMK AO2 SLP131 T02670183 10267 20211 50001","lat":30.1831,"lon":-97.6806,"elev":148,"name":"Austin/Bergstrom Intl, TX, US","cover":"OVC","clouds":[{"cover":"FEW","base":3600},{"cover":"OVC","base":4700}],"fltCat":"VFR"},{"icaoId":"KBCE","receiptTime":"2026-04-15T17:56:34.604Z","obsTime":1776275580,"reportTime":"2026-04-15T18:00:00.000Z","temp":8.9,"dewp":-3.3,"wdir":130,"wspd":10,"wgst":18,"visib":"10+","altim":1020.7,"slp":1015.6,"qcField":6,"maxT":9.4,"minT":-6.7,"metarType":"METAR","rawOb":"METAR KBCE 151753Z AUTO 13010G18KT 10SM CLR 09/M03 A3014 RMK AO2 SLP156 T00891033 10094 21067 55000","lat":37.7013,"lon":-112.149,"elev":2311,"name":"Bryce Canyon Arpt, UT, US","cover":"CLR","clouds":[],"fltCat":"VFR"},{"icaoId":"KDEN","receiptTime":"2026-04-15T17:56:37.139Z","obsTime":1776275580,"reportTime":"2026-04-15T18:00:00.000Z","temp":16.1,"dewp":-11.1,"wdir":290,"wspd":10,"wgst":16,"visib":"10+","altim":1012.3,"slp":1007.5,"qcField":4,"presTend":-0.2,"maxT":17.2,"minT":3.9,"metarType":"METAR","rawOb":"METAR KDEN 151753Z 29010G16KT 10SM FEW090 FEW140 FEW220 16/M11 A2989 RMK AO2 SLP075 T01611111 10172 20039 55002","lat":39.8466,"lon":-104.6562,"elev":1656,"name":"Denver Intl, CO, US","cover":"FEW","clouds":[{"cover":"FEW","base":9000},{"cover":"FEW","base":14000},{"cover":"FEW","base":22000}],"fltCat":"VFR"},{"icaoId":"KDRO","receiptTime":"2026-04-15T17:56:37.360Z","obsTime":1776275580,"reportTime":"2026-04-15T18:00:00.000Z","temp":10.6,"dewp":-3.3,"wdir":250,"wspd":7,"visib":"10+","altim":1020.1,"slp":1017.8,"qcField":6,"maxT":10.6,"minT":-3.3,"metarType":"METAR","rawOb":"METAR KDRO 151753Z AUTO 25007KT 200V280 10SM FEW055 11/M03 A3012 RMK AO2 SLP178 T01061033 10106 21033 50000","lat":37.1431,"lon":-107.7602,"elev":2021,"name":"Durango/La Plata Cnty, CO, US","cover":"FEW","clouds":[{"cover":"FEW","base":5500}],"fltCat":"VFR"},{"icaoId":"KFMN","receiptTime":"2026-04-15T17:56:34.143Z","obsTime":1776275580,"reportTime":"2026-04-15T18:00:00.000Z","temp":13.9,"dewp":-3.3,"wdir":280,"wspd":9,"wgst":17,"visib":"10+","altim":1019.7,"slp":1017.4,"qcField":4,"presTend":-0.2,"maxT":13.9,"minT":-1.7,"metarType":"METAR","rawOb":"METAR KFMN 151753Z 28009G17KT 240V300 10SM CLR 14/M03 A3011 RMK AO2 SLP174 T01391033 10139 21017 58002","lat":36.7435,"lon":-108.2293,"elev":1677,"name":"Farmington/Four Corners Rgnl, NM, US","cover":"CLR","clouds":[],"fltCat":"VFR"},{"icaoId":"KBRO","receiptTime":"2026-04-15T17:58:36.428Z","obsTime":1776275580,"reportTime":"2026-04-15T18:00:00.000Z","temp":30,"dewp":20.6,"wdir":150,"wspd":18,"wgst":27,"visib":"10+","altim":1014.3,"slp":1014,"qcField":4,"presTend":-0.3,"maxT":30.6,"minT":23.9,"metarType":"METAR","rawOb":"METAR KBRO 151753Z 15018G27KT 10SM SCT029 BKN041 BKN048 30/21 A2995 RMK AO2 PK WND 15029/1737 SLP140 T03000206 10306 20239 58003","lat":25.9146,"lon":-97.4231,"elev":6,"name":"Brownsville Intl, TX, US","cover":"BKN","clouds":[{"cover":"SCT","base":2900},{"cover":"BKN","base":4100},{"cover":"BKN","base":4800}],"fltCat":"VFR"},{"icaoId":"KTUS","receiptTime":"2026-04-15T17:56:30.630Z","obsTime":1776275580,"reportTime":"2026-04-15T18:00:00.000Z","temp":22.2,"dewp":-6.1,"wdir":160,"wspd":4,"visib":"10+","altim":1018,"slp":1014.8,"qcField":12,"presTend":-0.2,"maxT":22.2,"minT":8.9,"metarType":"METAR","rawOb":"METAR KTUS 151753Z 16004KT 10SM CLR 22/M06 A3006 RMK AO2 SLP148 T02221061 10222 20089 58002 $","lat":32.1315,"lon":-110.9564,"elev":776,"name":"Tucson Intl Arpt, AZ, US","cover":"CLR","clouds":[],"fltCat":"VFR"},{"icaoId":"KMLS","receiptTime":"2026-04-15T17:56:27.128Z","obsTime":1776275580,"reportTime":"2026-04-15T18:00:00.000Z","temp":15,"dewp":0,"wdir":220,"wspd":5,"visib":"10+","altim":1005.8,"slp":1005.5,"qcField":6,"presTend":-0.5,"maxT":15.6,"minT":3.9,"metarType":"METAR","rawOb":"METAR KMLS 151753Z AUTO 22005KT 10SM SCT120 15/00 A2970 RMK AO2 SLP055 T01500000 10156 20039 58005","lat":46.4265,"lon":-105.8834,"elev":800,"name":"Miles City/Wiley Fld, MT, US","cover":"SCT","clouds":[{"cover":"SCT","base":12000}],"fltCat":"VFR"},{"icaoId":"KMOD","receiptTime":"2026-04-15T17:56:27.191Z","obsTime":1776275580,"reportTime":"2026-04-15T18:00:00.000Z","temp":16.1,"dewp":6.1,"wdir":330,"wspd":4,"visib":"10+","altim":1019,"slp":1018.8,"qcField":4,"presTend":0.4,"maxT":16.7,"minT":8.3,"metarType":"METAR","rawOb":"METAR KMOD 151753Z 33004KT 10SM CLR 16/06 A3009 RMK AO2 SLP188 T01610061 10167 20083 50004","lat":37.6254,"lon":-120.9549,"elev":25,"name":"Modesto/Sham Fld, CA, US","cover":"CLR","clouds":[],"fltCat":"VFR"},{"icaoId":"KSAF","receiptTime":"2026-04-15T17:56:31.688Z","obsTime":1776275580,"reportTime":"2026-04-15T18:00:00.000Z","temp":13.3,"dewp":-4.4,"wdir":340,"wspd":8,"wgst":15,"visib":"10+","altim":1019,"slp":1013.4,"qcField":4,"presTend":0.2,"maxT":13.3,"minT":0.6,"metarType":"METAR","rawOb":"METAR KSAF 151753Z 34008G15KT 10SM CLR 13/M04 A3009 RMK AO2 SLP134 T01331044 10133 20006 50002","lat":35.611,"lon":-106.0957,"elev":1918,"name":"Santa Fe Cnty Muni, NM, US","cover":"CLR","clouds":[],"fltCat":"VFR"},{"icaoId":"KSEA","receiptTime":"2026-04-15T17:56:31.792Z","obsTime":1776275580,"reportTime":"2026-04-15T18:00:00.000Z","temp":4.4,"dewp":1.7,"wdir":90,"wspd":8,"visib":"10+","altim":1010.9,"slp":1011.7,"qcField":4,"wxString":"-RA","presTend":1.6,"maxT":5,"minT":3.3,"precip":0.01,"pcp6hr":0.01,"metarType":"METAR","rawOb":"METAR KSEA 151753Z 09008KT 10SM -RA SCT012 BKN021 BKN034 04/02 A2985 RMK AO2 SLP117 PCPN VRY LGT P0001 60001 T00440017 10050 20033 51016","lat":47.4447,"lon":-122.3144,"elev":115,"name":"Seattle-Tacoma Intl, WA, US","cover":"BKN","clouds":[{"cover":"SCT","base":1200},{"cover":"BKN","base":2100},{"cover":"BKN","base":3400}],"fltCat":"MVFR"},{"icaoId":"KOAK","receiptTime":"2026-04-15T17:56:27.451Z","obsTime":1776275580,"reportTime":"2026-04-15T18:00:00.000Z","temp":15,"dewp":7.8,"wdir":240,"wspd":11,"visib":"10+","altim":1020.4,"slp":1020.4,"qcField":12,"presTend":0.8,"maxT":15,"minT":10.6,"metarType":"METAR","rawOb":"METAR KOAK 151753Z 24011KT 10SM FEW024 FEW180 BKN250 15/08 A3013 RMK AO2 SLP204 T01500078 10150 20106 52008 $","lat":37.7178,"lon":-122.233,"elev":3,"name":"Oakland Intl, CA, US","cover":"BKN","clouds":[{"cover":"FEW","base":2400},{"cover":"FEW","base":18000},{"cover":"BKN","base":25000}],"fltCat":"VFR"},{"icaoId":"KPRC","receiptTime":"2026-04-15T17:56:36.366Z","obsTime":1776275580,"reportTime":"2026-04-15T18:00:00.000Z","temp":15.6,"dewp":-5.6,"wdir":0,"wspd":0,"visib":"10+","altim":1020.4,"slp":1015.2,"qcField":4,"maxT":15.6,"minT":2.8,"metarType":"METAR","rawOb":"METAR KPRC 151753Z 00000KT 10SM CLR 16/M06 A3013 RMK AO2 SLP152 T01561056 10156 20028 58000","lat":34.6491,"lon":-112.4223,"elev":1528,"name":"Prescott/Love Fld, AZ, US","cover":"CLR","clouds":[],"fltCat":"VFR"},{"icaoId":"KPSC","receiptTime":"2026-04-15T17:56:36.381Z","obsTime":1776275580,"reportTime":"2026-04-15T18:00:00.000Z","temp":11.7,"dewp":3.3,"wdir":230,"wspd":15,"wgst":25,"visib":"10+","altim":1005.8,"slp":1005.7,"qcField":4,"presTend":-0.1,"maxT":13.3,"minT":10.6,"pcp6hr":0.005,"metarType":"METAR","rawOb":"METAR KPSC 151753Z 23015G25KT 10SM OVC100 12/03 A2970 RMK AO2 PK WND 22027/1739 SLP057 60000 T01170033 10133 20106 55001","lat":46.2695,"lon":-119.1182,"elev":121,"name":"Pasco/Tri Cities Arpt, WA, US","cover":"OVC","clouds":[{"cover":"OVC","base":10000}],"fltCat":"VFR"},{"icaoId":"KPUB","receiptTime":"2026-04-15T17:56:35.366Z","obsTime":1776275580,"reportTime":"2026-04-15T18:00:00.000Z","temp":18.3,"dewp":-9.4,"wdir":290,"wspd":12,"wgst":20,"visib":"10+","altim":1012.6,"slp":1008.9,"qcField":12,"presTend":-0.9,"maxT":18.3,"minT":0,"metarType":"METAR","rawOb":"METAR KPUB 151753Z 29012G20KT 10SM CLR 18/M09 A2990 RMK AO2 SLP089 T01831094 10183 20000 58009 $","lat":38.2887,"lon":-104.5057,"elev":1441,"name":"Pueblo Mem Arpt, CO, US","cover":"CLR","clouds":[],"fltCat":"VFR"},{"icaoId":"KLOL","receiptTime":"2026-04-15T17:56:33.497Z","obsTime":1776275580,"reportTime":"2026-04-15T18:00:00.000Z","temp":15,"dewp":-6.1,"wdir":220,"wspd":10,"wgst":18,"visib":"10+","altim":1015.3,"slp":1013.8,"qcField":6,"presTend":-0.2,"maxT":15.6,"minT":3.3,"metarType":"METAR","rawOb":"METAR KLOL 151753Z AUTO 22010G18KT 10SM OVC100 15/M06 A2998 RMK AO2 SLP138 T01501061 10156 20033 56002","lat":40.0684,"lon":-118.5702,"elev":1191,"name":"Lovelock/Derby Fld, NV, US","cover":"OVC","clouds":[{"cover":"OVC","base":10000}],"fltCat":"VFR"},{"icaoId":"KTPA","receiptTime":"2026-04-15T17:56:31.525Z","obsTime":1776275580,"reportTime":"2026-04-15T18:00:00.000Z","temp":26.7,"dewp":11.7,"visib":"10+","altim":1021.1,"slp":1021,"qcField":4,"presTend":-1.3,"metarType":"METAR","rawOb":"METAR KTPA 151753Z 10SM CLR 27/12 A3015 RMK AO2 SLP210 T02670117 56013","lat":27.9633,"lon":-82.54,"elev":2,"name":"Tampa Intl Arpt, FL, US","cover":"CLR","clouds":[],"fltCat":"VFR"},{"icaoId":"KTUL","receiptTime":"2026-04-15T17:56:31.608Z","obsTime":1776275580,"reportTime":"2026-04-15T18:00:00.000Z","temp":25,"dewp":20,"wdir":190,"wspd":13,"wgst":26,"visib":"10+","altim":1010.2,"slp":1009.3,"qcField":4,"maxT":25,"minT":19.4,"metarType":"METAR","rawOb":"METAR KTUL 151753Z 19013G26KT 10SM BKN023 BKN028 25/20 A2983 RMK AO2 PK WND 19030/1659 SLP093 T02500200 10250 20194 50000","lat":36.1985,"lon":-95.8782,"elev":196,"name":"Tulsa Intl Arpt, OK, US","cover":"BKN","clouds":[{"cover":"BKN","base":2300},{"cover":"BKN","base":2800}],"fltCat":"MVFR"},{"icaoId":"KBUR","receiptTime":"2026-04-15T17:56:34.260Z","obsTime":1776275580,"reportTime":"2026-04-15T18:00:00.000Z","temp":20,"dewp":7.8,"wdir":90,"wspd":4,"visib":"10+","altim":1017.7,"slp":1016.5,"qcField":4,"presTend":0.1,"maxT":20,"minT":11.1,"metarType":"METAR","rawOb":"METAR KBUR 151753Z 09004KT 10SM CLR 20/08 A3005 RMK AO2 SLP165 T02000078 10200 20111 50001","lat":34.1996,"lon":-118.3654,"elev":221,"name":"Burbank/Bob Hope Arpt, CA, US","cover":"CLR","clouds":[],"fltCat":"VFR"},{"icaoId":"KSJC","receiptTime":"2026-04-15T17:56:31.918Z","obsTime":1776275580,"reportTime":"2026-04-15T18:00:00.000Z","temp":15.6,"dewp":7.8,"wdir":30,"wspd":8,"visib":"10+","altim":1020.4,"slp":1020.2,"qcField":12,"presTend":0.5,"maxT":16.1,"minT":8.3,"metarType":"METAR","rawOb":"METAR KSJC 151753Z 03008KT 10SM FEW035 SCT065 BKN100 16/08 A3013 RMK AO2 SLP202 T01560078 10161 20083 51005 $","lat":37.3594,"lon":-121.9244,"elev":13,"name":"San Jose Intl Arpt, CA, US","cover":"BKN","clouds":[{"cover":"FEW","base":3500},{"cover":"SCT","base":6500},{"cover":"BKN","base":10000}],"fltCat":"VFR"},{"icaoId":"KHLN","receiptTime":"2026-04-15T17:56:32.625Z","obsTime":1776275580,"reportTime":"2026-04-15T18:00:00.000Z","temp":10.6,"dewp":0.6,"wdir":50,"wspd":5,"visib":"10+","altim":1002.8,"slp":1003.8,"qcField":4,"presTend":-2.3,"maxT":10.6,"minT":6.1,"metarType":"METAR","rawOb":"METAR KHLN 151753Z 05005KT 10SM OVC075 11/01 A2961 RMK AO2 SLP038 T01060006 10106 20061 56023","lat":46.6045,"lon":-111.9892,"elev":1178,"name":"Helena Rgnl, MT, US","cover":"OVC","clouds":[{"cover":"OVC","base":7500}],"fltCat":"VFR"},{"icaoId":"KVEL","receiptTime":"2026-04-15T17:56:30.817Z","obsTime":1776275580,"reportTime":"2026-04-15T18:00:00.000Z","temp":11.1,"dewp":-1.1,"wdir":170,"wspd":8,"wgst":16,"visib":"10+","altim":1017,"slp":1015.2,"qcField":6,"presTend":-0.7,"maxT":11.1,"minT":0,"metarType":"METAR","rawOb":"METAR KVEL 151753Z AUTO 17008G16KT 10SM CLR 11/M01 A3003 RMK AO2 SLP152 T01111011 10111 20000 58007","lat":40.4429,"lon":-109.5128,"elev":1604,"name":"Vernal Rgnl, UT, US","cover":"CLR","clouds":[],"fltCat":"VFR"},{"icaoId":"KELY","receiptTime":"2026-04-15T17:56:27.942Z","obsTime":1776275580,"reportTime":"2026-04-15T18:00:00.000Z","temp":13.3,"dewp":-5,"wdir":"VRB","wspd":6,"wgst":15,"visib":"10+","altim":1017,"slp":1012.8,"qcField":14,"presTend":-0.5,"maxT":13.3,"minT":-2.2,"metarType":"METAR","rawOb":"METAR KELY 151753Z AUTO VRB06G15KT 10SM FEW120 13/M05 A3003 RMK AO2 SLP128 T01331050 10133 21022 56005 $","lat":39.2954,"lon":-114.8466,"elev":1906,"name":"Ely/Yelland Fld, NV, US","cover":"FEW","clouds":[{"cover":"FEW","base":12000}],"fltCat":"VFR"},{"icaoId":"PANC","receiptTime":"2026-04-15T17:56:29.055Z","obsTime":1776275580,"reportTime":"2026-04-15T18:00:00.000Z","temp":0.6,"dewp":-3.9,"wdir":0,"wspd":0,"visib":"10+","altim":1010.6,"slp":1010.5,"qcField":4,"presTend":-0.2,"maxT":0.6,"minT":-2.2,"snow":13000,"metarType":"METAR","rawOb":"METAR PANC 151753Z 00000KT 10SM BKN050 OVC060 01/M04 A2984 RMK AO2 SLP105 4/013 T00061039 10006 21022 55002","lat":61.1691,"lon":-150.0277,"elev":39,"name":"Anchorage Intl, AK, US","cover":"OVC","clouds":[{"cover":"BKN","base":5000},{"cover":"OVC","base":6000}],"fltCat":"VFR"},{"icaoId":"KSMF","receiptTime":"2026-04-15T17:56:30.376Z","obsTime":1776275580,"reportTime":"2026-04-15T18:00:00.000Z","temp":16.1,"dewp":8.9,"wdir":170,"wspd":13,"visib":"10+","altim":1018.4,"slp":1018.3,"qcField":4,"presTend":0.7,"maxT":16.1,"minT":9.4,"metarType":"METAR","rawOb":"METAR KSMF 151753Z 17013KT 10SM BKN190 16/09 A3007 RMK AO2 SLP183 T01610089 10161 20094 51007","lat":38.7007,"lon":-121.5948,"elev":7,"name":"Sacramento Intl, CA, US","cover":"BKN","clouds":[{"cover":"BKN","base":19000}],"fltCat":"VFR"},{"icaoId":"KMAF","receiptTime":"2026-04-15T17:56:30.978Z","obsTime":1776275580,"reportTime":"2026-04-15T18:00:00.000Z","temp":26.7,"dewp":1.1,"wdir":250,"wspd":5,"visib":"10+","altim":1015,"slp":1010.8,"qcField":4,"presTend":-0.2,"maxT":27.2,"minT":16.7,"metarType":"METAR","rawOb":"METAR KMAF 151753Z 25005KT 10SM CLR 27/01 A2997 RMK AO2 SLP108 6//// T02670011 10272 20167 58002","lat":31.9475,"lon":-102.2086,"elev":874,"name":"Midland Intl, TX, US","cover":"CLR","clouds":[],"fltCat":"VFR"},{"icaoId":"KSBA","receiptTime":"2026-04-15T17:56:31.727Z","obsTime":1776275580,"reportTime":"2026-04-15T18:00:00.000Z","temp":18.3,"dewp":12.2,"wdir":150,"wspd":6,"visib":"10+","altim":1017.7,"slp":1017.5,"qcField":12,"presTend":0.8,"maxT":18.3,"minT":8.3,"metarType":"METAR","rawOb":"METAR KSBA 151753Z 15006KT 10SM CLR 18/12 A3005 RMK AO2 SLP175 T01830122 10183 20083 51008 $","lat":34.4241,"lon":-119.8425,"elev":2,"name":"Santa Barbara Muni, CA, US","cover":"CLR","clouds":[],"fltCat":"VFR"},{"icaoId":"KHOU","receiptTime":"2026-04-15T17:56:32.660Z","obsTime":1776275580,"reportTime":"2026-04-15T18:00:00.000Z","temp":27.8,"dewp":19.4,"wdir":150,"wspd":17,"wgst":27,"visib":"10+","altim":1015.7,"slp":1016,"qcField":4,"presTend":-0.9,"maxT":28.3,"minT":21.7,"metarType":"METAR","rawOb":"METAR KHOU 151753Z 15017G27KT 10SM BKN032 BKN250 28/19 A2999 RMK AO2 PK WND 15029/1702 SLP160 T02780194 10283 20217 58009","lat":29.6458,"lon":-95.2821,"elev":13,"name":"Houston/Hobby Arpt, TX, US","cover":"BKN","clouds":[{"cover":"BKN","base":3200},{"cover":"BKN","base":25000}],"fltCat":"VFR"},{"icaoId":"KLBB","receiptTime":"2026-04-15T17:56:33.235Z","obsTime":1776275580,"reportTime":"2026-04-15T18:00:00.000Z","temp":25,"dewp":-5,"wdir":270,"wspd":8,"wgst":18,"visib":"10+","altim":1014.6,"slp":1009.9,"qcField":4,"presTend":-0.1,"maxT":25,"minT":13.9,"metarType":"METAR","rawOb":"METAR KLBB 151753Z 27008G18KT 10SM FEW120 SCT250 25/M05 A2996 RMK AO2 SLP099 T02501050 10250 20139 58001","lat":33.6658,"lon":-101.8233,"elev":996,"name":"Lubbock Intl Arpt, TX, US","cover":"SCT","clouds":[{"cover":"FEW","base":12000},{"cover":"SCT","base":25000}],"fltCat":"VFR"},{"icaoId":"KCPR","receiptTime":"2026-04-15T17:56:33.835Z","obsTime":1776275580,"reportTime":"2026-04-15T18:00:00.000Z","temp":15.6,"dewp":-5.6,"wdir":210,"wspd":16,"wgst":28,"visib":"10+","altim":1009.9,"slp":1006.7,"qcField":4,"presTend":-0.8,"maxT":15.6,"minT":2.2,"metarType":"METAR","rawOb":"METAR KCPR 151753Z 21016G28KT 10SM CLR 16/M06 A2982 RMK AO2 PK WND 23029/1709 SLP067 T01561056 10156 20022 58008","lat":42.8978,"lon":-106.4736,"elev":1623,"name":"Casper/Natrona Cnty, WY, US","cover":"CLR","clouds":[],"fltCat":"VFR"},{"icaoId":"KFUL","receiptTime":"2026-04-15T17:56:34.943Z","obsTime":1776275580,"reportTime":"2026-04-15T18:00:00.000Z","temp":21.1,"dewp":10.6,"wdir":"VRB","wspd":3,"visib":"10+","altim":1017.4,"slp":1017,"qcField":4,"presTend":0.1,"maxT":21.1,"minT":11.1,"metarType":"METAR","rawOb":"METAR KFUL 151753Z VRB03KT 10SM CLR 21/11 A3004 RMK AO2 SLP170 T02110106 10211 20111 52001","lat":33.8715,"lon":-117.9856,"elev":23,"name":"Fullerton Muni, CA, US","cover":"CLR","clouds":[],"fltCat":"VFR"},{"icaoId":"KAMA","receiptTime":"2026-04-15T17:56:35.266Z","obsTime":1776275580,"reportTime":"2026-04-15T18:00:00.000Z","temp":23.3,"dewp":-8.3,"wdir":220,"wspd":20,"wgst":27,"visib":"10+","altim":1014,"slp":1009.3,"qcField":4,"presTend":-0.3,"maxT":23.3,"minT":10,"metarType":"METAR","rawOb":"METAR KAMA 151753Z 22020G27KT 10SM CLR 23/M08 A2994 RMK AO2 PK WND 26029/1742 SLP093 T02331083 10233 20100 58003","lat":35.2203,"lon":-101.7173,"elev":1102,"name":"Amarillo Intl Arpt, TX, US","cover":"CLR","clouds":[],"fltCat":"VFR"},{"icaoId":"KABQ","receiptTime":"2026-04-15T17:56:17.343Z","obsTime":1776275520,"reportTime":"2026-04-15T18:00:00.000Z","temp":15,"dewp":-4.4,"wdir":310,"wspd":3,"visib":"10+","altim":1019.4,"slp":1014.4,"qcField":4,"presTend":-0.1,"maxT":15,"minT":5,"metarType":"METAR","rawOb":"METAR KABQ 151752Z 31003KT 10SM FEW070 15/M04 A3010 RMK AO2 SLP144 T01501044 10150 20050 58001","lat":35.0419,"lon":-106.6154,"elev":1620,"name":"Albuquerque Intl, NM, US","cover":"FEW","clouds":[{"cover":"FEW","base":7000}],"fltCat":"VFR"},{"icaoId":"KMLF","receiptTime":"2026-04-15T17:56:17.472Z","obsTime":1776275520,"reportTime":"2026-04-15T18:00:00.000Z","temp":16.1,"dewp":-2.8,"wdir":200,"wspd":17,"wgst":29,"visib":"10+","altim":1017,"slp":1013.5,"qcField":6,"presTend":-0.3,"maxT":16.1,"minT":3.3,"metarType":"METAR","rawOb":"METAR KMLF 151752Z AUTO 20017G29KT 10SM CLR 16/M03 A3003 RMK AO2 PK WND 20030/1733 SLP135 T01611028 10161 20033 58003","lat":38.4225,"lon":-113.0109,"elev":1537,"name":"Milford Muni, UT, US","cover":"CLR","clouds":[],"fltCat":"VFR"},{"icaoId":"KATL","receiptTime":"2026-04-15T17:56:19.049Z","obsTime":1776275520,"reportTime":"2026-04-15T18:00:00.000Z","temp":27.2,"dewp":12.8,"wdir":260,"wspd":6,"visib":"10+","altim":1021.1,"slp":1020,"qcField":12,"presTend":-1.4,"maxT":27.2,"minT":16.7,"metarType":"METAR","rawOb":"METAR KATL 151752Z 26006KT 10SM FEW065 FEW200 FEW250 27/13 A3015 RMK AO2 SLP200 T02720128 10272 20167 58014 $","lat":33.6297,"lon":-84.4422,"elev":309,"name":"Atlanta/Hartsfield-Jackson Intl, GA, US","cover":"FEW","clouds":[{"cover":"FEW","base":6500},{"cover":"FEW","base":20000},{"cover":"FEW","base":25000}],"fltCat":"VFR"},{"icaoId":"KCLT","receiptTime":"2026-04-15T17:56:19.162Z","obsTime":1776275520,"reportTime":"2026-04-15T18:00:00.000Z","temp":30,"dewp":9.4,"wdir":210,"wspd":8,"visib":"10+","altim":1018.7,"slp":1019,"qcField":4,"presTend":-1.7,"maxT":30,"minT":17.2,"metarType":"METAR","rawOb":"METAR KCLT 151752Z 21008KT 10SM FEW250 30/09 A3008 RMK AO2 SLP190 T03000094 10300 20172 58017","lat":35.2225,"lon":-80.9543,"elev":223,"name":"Charlotte/Douglas Intl, NC, US","cover":"FEW","clouds":[{"cover":"FEW","base":25000}],"fltCat":"VFR"},{"icaoId":"KMKE","receiptTime":"2026-04-15T17:56:17.843Z","obsTime":1776275520,"reportTime":"2026-04-15T18:00:00.000Z","temp":20.6,"dewp":15,"wdir":240,"wspd":9,"wgst":17,"visib":"10+","altim":1008.5,"slp":1008.2,"qcField":4,"presTend":2.4,"maxT":21.1,"minT":17.2,"pcp6hr":0.01,"metarType":"METAR","rawOb":"METAR KMKE 151752Z 24009G17KT 10SM SCT026 BKN075 OVC200 21/15 A2978 RMK AO2 SLP082 60001 T02060150 10211 20172 51024","lat":42.9549,"lon":-87.9045,"elev":203,"name":"Milwaukee/Mitchell Intl, WI, US","cover":"OVC","clouds":[{"cover":"SCT","base":2600},{"cover":"BKN","base":7500},{"cover":"OVC","base":20000}],"fltCat":"VFR"},{"icaoId":"KBJC","receiptTime":"2026-04-15T17:55:55.521Z","obsTime":1776275520,"reportTime":"2026-04-15T18:00:00.000Z","temp":17,"dewp":-10,"wdir":270,"wspd":26,"wgst":31,"visib":"10+","altim":1013,"qcField":0,"metarType":"METAR","rawOb":"METAR KBJC 151752Z 27026G31KT 10SM CLR 17/M10 A2991","lat":39.9008,"lon":-105.1042,"elev":1694,"name":"Rocky Mtn Metro, CO, US","cover":"CLR","clouds":[],"fltCat":"VFR"},{"icaoId":"KCVG","receiptTime":"2026-04-15T17:56:19.195Z","obsTime":1776275520,"reportTime":"2026-04-15T18:00:00.000Z","temp":26.1,"dewp":16.1,"wdir":210,"wspd":14,"wgst":20,"visib":"10+","altim":1014.6,"slp":1013.6,"qcField":4,"presTend":-0.3,"maxT":26.1,"minT":19.4,"metarType":"METAR","rawOb":"METAR KCVG 151752Z 21014G20KT 10SM SCT045 BKN060 BKN250 26/16 A2996 RMK AO2 SLP136 T02610161 10261 20194 58003","lat":39.0444,"lon":-84.6724,"elev":264,"name":"Cincinnati Intl, KY, US","cover":"BKN","clouds":[{"cover":"SCT","base":4500},{"cover":"BKN","base":6000},{"cover":"BKN","base":25000}],"fltCat":"VFR"},{"icaoId":"KIAD","receiptTime":"2026-04-15T17:56:19.401Z","obsTime":1776275520,"reportTime":"2026-04-15T18:00:00.000Z","temp":31.7,"dewp":13.9,"wdir":210,"wspd":10,"wgst":17,"visib":"10+","altim":1014.3,"slp":1013.9,"qcField":4,"presTend":-1.9,"maxT":31.7,"minT":18.3,"metarType":"METAR","rawOb":"METAR KIAD 151752Z 21010G17KT 10SM BKN250 32/14 A2995 RMK AO2 SLP139 T03170139 10317 20183 56019","lat":38.9348,"lon":-77.4473,"elev":90,"name":"Washington/Dulles Intl, VA, US","cover":"BKN","clouds":[{"cover":"BKN","base":25000}],"fltCat":"VFR"},{"icaoId":"KDCA","receiptTime":"2026-04-15T17:56:19.212Z","obsTime":1776275520,"reportTime":"2026-04-15T18:00:00.000Z","temp":29.4,"dewp":16.7,"wdir":170,"wspd":11,"visib":"10+","altim":1014,"slp":1013.7,"qcField":4,"presTend":-2,"maxT":31.7,"minT":18.9,"metarType":"METAR","rawOb":"METAR KDCA 151752Z 17011KT 10SM BKN250 29/17 A2994 RMK AO2 SLP137 T02940167 10317 20189 57020","lat":38.8472,"lon":-77.0345,"elev":4,"name":"Washington/Reagan-National Arpt, VA, US","cover":"BKN","clouds":[{"cover":"BKN","base":25000}],"fltCat":"VFR"},{"icaoId":"KHRL","receiptTime":"2026-04-15T17:56:19.370Z","obsTime":1776275520,"reportTime":"2026-04-15T18:00:00.000Z","temp":30.6,"dewp":20,"wdir":160,"wspd":21,"wgst":29,"visib":"10+","altim":1013.6,"slp":1013.4,"qcField":4,"presTend":-0.7,"maxT":30.6,"minT":22.8,"metarType":"METAR","rawOb":"METAR KHRL 151752Z 16021G29KT 10SM FEW041 SCT050 31/20 A2993 RMK AO2 PK WND 14030/1733 SLP134 T03060200 10306 20228 58007","lat":26.2303,"lon":-97.6556,"elev":9,"name":"Harlingen/Valley Intl, TX, US","cover":"SCT","clouds":[{"cover":"FEW","base":4100},{"cover":"SCT","base":5000}],"fltCat":"VFR"},{"icaoId":"KSPS","receiptTime":"2026-04-15T17:56:17.486Z","obsTime":1776275520,"reportTime":"2026-04-15T18:00:00.000Z","temp":27.2,"dewp":18.9,"wdir":220,"wspd":16,"wgst":25,"visib":"10+","altim":1010.9,"slp":1009.7,"qcField":4,"presTend":-0.2,"maxT":27.8,"minT":21.1,"metarType":"METAR","rawOb":"METAR KSPS 151752Z 22016G25KT 10SM BKN032 BKN042 27/19 A2985 RMK AO2 SLP097 T02720189 10278 20211 58002","lat":33.9785,"lon":-98.493,"elev":310,"name":"Wichita Falls Rgnl, TX, US","cover":"BKN","clouds":[{"cover":"BKN","base":3200},{"cover":"BKN","base":4200}],"fltCat":"VFR"},{"icaoId":"KOKC","receiptTime":"2026-04-15T17:56:17.941Z","obsTime":1776275520,"reportTime":"2026-04-15T18:00:00.000Z","temp":24.4,"dewp":20,"wdir":190,"wspd":15,"wgst":26,"visib":"10+","altim":1010.2,"slp":1008.8,"qcField":4,"presTend":-0.4,"maxT":25.6,"minT":20,"metarType":"METAR","rawOb":"METAR KOKC 151752Z 19015G26KT 10SM SCT025 BKN036 24/20 A2983 RMK AO2 PK WND 19027/1724 SLP088 T02440200 10256 20200 58004","lat":35.3843,"lon":-97.6003,"elev":391,"name":"Oklahoma City/Will Rogers Intl, OK, US","cover":"BKN","clouds":[{"cover":"SCT","base":2500},{"cover":"BKN","base":3600}],"fltCat":"VFR"},{"icaoId":"KEWR","receiptTime":"2026-04-15T17:54:08.276Z","obsTime":1776275460,"reportTime":"2026-04-15T18:00:00.000Z","temp":30,"dewp":16.1,"wdir":230,"wspd":9,"wgst":22,"visib":"10+","altim":1011.3,"slp":1011.1,"qcField":4,"presTend":-2.5,"maxT":30.6,"minT":21.1,"metarType":"METAR","rawOb":"METAR KEWR 151751Z 23009G22KT 10SM SCT055 SCT160 BKN250 30/16 A2986 RMK AO2 PK WND 24027/1715 SLP111 T03000161 10306 20211 56025","lat":40.6828,"lon":-74.1692,"elev":2,"name":"Newark Intl, NJ, US","cover":"BKN","clouds":[{"cover":"SCT","base":5500},{"cover":"SCT","base":16000},{"cover":"BKN","base":25000}],"fltCat":"VFR"},{"icaoId":"KBDL","receiptTime":"2026-04-15T17:54:05.636Z","obsTime":1776275460,"reportTime":"2026-04-15T18:00:00.000Z","temp":28.9,"dewp":14.4,"wdir":180,"wspd":12,"visib":"10+","altim":1009.9,"slp":1009.6,"qcField":4,"presTend":-3.4,"maxT":30,"minT":16.1,"metarType":"METAR","rawOb":"METAR KBDL 151751Z 18012KT 10SM FEW060 BKN100 BKN250 29/14 A2982 RMK AO2 SLP096 T02890144 10300 20161 56034","lat":41.9374,"lon":-72.682,"elev":52,"name":"Hartford/Bradley Intl, CT, US","cover":"BKN","clouds":[{"cover":"FEW","base":6000},{"cover":"BKN","base":10000},{"cover":"BKN","base":25000}],"fltCat":"VFR"},{"icaoId":"KACT","receiptTime":"2026-04-15T17:54:07.282Z","obsTime":1776275460,"reportTime":"2026-04-15T18:00:00.000Z","temp":24.4,"dewp":18.9,"wdir":190,"wspd":10,"visib":"10+","altim":1015,"slp":1014.1,"qcField":4,"presTend":0.2,"maxT":24.4,"minT":21.1,"metarType":"METAR","rawOb":"METAR KACT 151751Z 19010KT 10SM OVC048 24/19 A2997 RMK AO2 SLP141 T02440189 10244 20211 50002","lat":31.618,"lon":-97.2283,"elev":150,"name":"Waco Rgnl, TX, US","cover":"OVC","clouds":[{"cover":"OVC","base":4800}],"fltCat":"VFR"},{"icaoId":"KSTL","receiptTime":"2026-04-15T17:54:10.231Z","obsTime":1776275460,"reportTime":"2026-04-15T18:00:00.000Z","temp":21.1,"dewp":17.2,"wdir":190,"wspd":9,"visib":"10+","altim":1012.3,"slp":1011.2,"qcField":4,"presTend":-0.8,"maxT":22.8,"minT":20,"precip":0.005,"pcp6hr":0.005,"metarType":"METAR","rawOb":"METAR KSTL 151751Z 19009KT 10SM FEW043 BKN120 OVC250 21/17 A2989 RMK AO2 RAB19E43 SLP112 P0000 60000 T02110172 10228 20200 58008","lat":38.7525,"lon":-90.3734,"elev":163,"name":"St Louis/Lambert Intl, MO, US","cover":"OVC","clouds":[{"cover":"FEW","base":4300},{"cover":"BKN","base":12000},{"cover":"OVC","base":25000}],"fltCat":"VFR"},{"icaoId":"KELP","receiptTime":"2026-04-15T17:54:05.832Z","obsTime":1776275460,"reportTime":"2026-04-15T18:00:00.000Z","temp":21.1,"dewp":-4.4,"wdir":0,"wspd":0,"visib":"10+","altim":1017.7,"slp":1012,"qcField":4,"presTend":0.3,"maxT":22.2,"minT":9.4,"metarType":"METAR","rawOb":"METAR KELP 151751Z 00000KT 10SM FEW100 FEW250 21/M04 A3005 RMK AO2 SLP120 T02111044 10222 20094 50003","lat":31.8123,"lon":-106.3774,"elev":1205,"name":"El Paso Intl, TX, US","cover":"FEW","clouds":[{"cover":"FEW","base":10000},{"cover":"FEW","base":25000}],"fltCat":"VFR"},{"icaoId":"KSAD","receiptTime":"2026-04-15T17:54:10.031Z","obsTime":1776275460,"reportTime":"2026-04-15T18:00:00.000Z","temp":20,"dewp":-5.6,"wdir":0,"wspd":0,"visib":"10+","altim":1017.7,"slp":1014.2,"qcField":6,"presTend":-0.3,"maxT":20.6,"minT":6.1,"metarType":"METAR","rawOb":"METAR KSAD 151751Z AUTO 00000KT 10SM CLR 20/M06 A3005 RMK AO2 SLP142 T02001056 10206 20061 58003","lat":32.8565,"lon":-109.636,"elev":937,"name":"Safford Rgnl, AZ, US","cover":"CLR","clouds":[],"fltCat":"VFR"},{"icaoId":"KPVD","receiptTime":"2026-04-15T17:54:09.936Z","obsTime":1776275460,"reportTime":"2026-04-15T18:00:00.000Z","temp":26.1,"dewp":12.8,"wdir":140,"wspd":9,"visib":"10+","altim":1011.6,"slp":1011.4,"qcField":4,"presTend":-1.9,"maxT":28.3,"minT":16.1,"metarType":"METAR","rawOb":"METAR KPVD 151751Z 14009KT 10SM FEW030 BKN080 BKN095 BKN250 26/13 A2987 RMK AO2 SLP114 T02610128 10283 20161 55019","lat":41.7225,"lon":-71.4325,"elev":15,"name":"Providence/Green Mem, RI, US","cover":"BKN","clouds":[{"cover":"FEW","base":3000},{"cover":"BKN","base":8000},{"cover":"BKN","base":9500},{"cover":"BKN","base":25000}],"fltCat":"VFR"},{"icaoId":"KPIT","receiptTime":"2026-04-15T17:54:09.900Z","obsTime":1776275460,"reportTime":"2026-04-15T18:00:00.000Z","temp":25.6,"dewp":15,"wdir":240,"wspd":12,"wgst":19,"visib":"10+","altim":1014.3,"slp":1014.2,"qcField":12,"presTend":-0.6,"maxT":25.6,"minT":20,"metarType":"METAR","rawOb":"METAR KPIT 151751Z 24012G19KT 10SM SCT042 BKN055 OVC200 26/15 A2995 RMK AO2 SLP142 T02560150 10256 20200 58006 $","lat":40.4814,"lon":-80.2083,"elev":339,"name":"Pittsburgh Intl, PA, US","cover":"OVC","clouds":[{"cover":"SCT","base":4200},{"cover":"BKN","base":5500},{"cover":"OVC","base":20000}],"fltCat":"VFR"},{"icaoId":"KPHX","receiptTime":"2026-04-15T17:54:09.856Z","obsTime":1776275460,"reportTime":"2026-04-15T18:00:00.000Z","temp":25,"dewp":-1.1,"wdir":"VRB","wspd":6,"visib":"10+","altim":1016,"slp":1014.3,"qcField":4,"presTend":0.1,"maxT":25.6,"minT":15.6,"metarType":"METAR","rawOb":"METAR KPHX 151751Z VRB06KT 10SM FEW080 25/M01 A3000 RMK AO2 SLP143 T02501011 10256 20156 50001","lat":33.4278,"lon":-112.0037,"elev":338,"name":"Phoenix/Sky Harbor Intl, AZ, US","cover":"FEW","clouds":[{"cover":"FEW","base":8000}],"fltCat":"VFR"},{"icaoId":"KORF","receiptTime":"2026-04-15T17:54:09.785Z","obsTime":1776275460,"reportTime":"2026-04-15T18:00:00.000Z","temp":28.9,"dewp":16.1,"wdir":40,"wspd":6,"visib":"10+","altim":1016,"slp":1015.8,"qcField":4,"presTend":-1.5,"maxT":31.1,"minT":20,"metarType":"METAR","rawOb":"METAR KORF 151751Z 04006KT 10SM CLR 29/16 A3000 RMK AO2 SLP158 T02890161 10311 20200 56015","lat":36.9037,"lon":-76.1927,"elev":5,"name":"Norfolk Intl, VA, US","cover":"CLR","clouds":[],"fltCat":"VFR"},{"icaoId":"KORD","receiptTime":"2026-04-15T17:54:09.750Z","obsTime":1776275460,"reportTime":"2026-04-15T18:00:00.000Z","temp":19.4,"dewp":15.6,"wdir":220,"wspd":12,"visib":"10+","altim":1008.9,"slp":1008.6,"qcField":4,"presTend":1,"maxT":19.4,"minT":17.2,"pcp6hr":0.06,"metarType":"METAR","rawOb":"METAR KORD 151751Z 22012KT 10SM FEW012 BKN140 BKN170 OVC250 19/16 A2979 RMK AO2 SLP086 60006 T01940156 10194 20172 51010","lat":41.9602,"lon":-87.9316,"elev":202,"name":"Chicago/O'Hare Intl, IL, US","cover":"OVC","clouds":[{"cover":"FEW","base":1200},{"cover":"BKN","base":14000},{"cover":"BKN","base":17000},{"cover":"OVC","base":25000}],"fltCat":"VFR"},{"icaoId":"KMYL","receiptTime":"2026-04-15T17:54:09.704Z","obsTime":1776275460,"reportTime":"2026-04-15T18:00:00.000Z","temp":1.1,"dewp":0.6,"wdir":150,"wspd":13,"visib":4,"altim":1008.5,"slp":1009.3,"qcField":6,"wxString":"-SN BR","presTend":-0.5,"maxT":2.2,"minT":0.6,"precip":0.02,"pcp6hr":0.17,"metarType":"METAR","rawOb":"METAR KMYL 151751Z AUTO 15013KT 4SM -SN BR BKN022 OVC031 01/01 A2978 RMK AO2 SLP093 P0002 60017 T00110006 10022 20006 58005","lat":44.8943,"lon":-116.0998,"elev":1532,"name":"McCall Muni, ID, US","cover":"OVC","clouds":[{"cover":"BKN","base":2200},{"cover":"OVC","base":3100}],"fltCat":"MVFR"},{"icaoId":"KLGU","receiptTime":"2026-04-15T17:54:09.603Z","obsTime":1776275460,"reportTime":"2026-04-15T18:00:00.000Z","temp":13.3,"dewp":-1.7,"wdir":190,"wspd":11,"visib":"10+","altim":1013.6,"slp":1012,"qcField":6,"presTend":-0.4,"maxT":14.4,"minT":0,"pcp6hr":0.005,"metarType":"METAR","rawOb":"METAR KLGU 151751Z AUTO 19011KT 10SM OVC100 13/M02 A2993 RMK AO2 SLP120 60000 T01331017 10144 20000 55004","lat":41.7865,"lon":-111.8519,"elev":1359,"name":"Logan/Cache Arpt, UT, US","cover":"OVC","clouds":[{"cover":"OVC","base":10000}],"fltCat":"VFR"},{"icaoId":"KCRP","receiptTime":"2026-04-15T17:54:05.773Z","obsTime":1776275460,"reportTime":"2026-04-15T18:00:00.000Z","temp":28.9,"dewp":20.6,"wdir":160,"wspd":21,"wgst":29,"visib":"10+","altim":1014.3,"slp":1014.1,"qcField":4,"presTend":-0.6,"maxT":28.9,"minT":22.8,"metarType":"METAR","rawOb":"METAR KCRP 151751Z 16021G29KT 10SM SCT027 BKN036 BKN050 BKN250 29/21 A2995 RMK AO2 PK WND 15030/1740 SLP141 T02890206 10289 20228 58006","lat":27.7734,"lon":-97.513,"elev":11,"name":"Corpus Christi Intl, TX, US","cover":"BKN","clouds":[{"cover":"SCT","base":2700},{"cover":"BKN","base":3600},{"cover":"BKN","base":5000},{"cover":"BKN","base":25000}],"fltCat":"VFR"},{"icaoId":"KVNY","receiptTime":"2026-04-15T17:54:09.369Z","obsTime":1776275460,"reportTime":"2026-04-15T18:00:00.000Z","temp":19.4,"dewp":7.2,"wdir":0,"wspd":0,"visib":"10+","altim":1017.4,"slp":1016.5,"qcField":12,"presTend":0.2,"maxT":20.6,"minT":10.6,"metarType":"METAR","rawOb":"METAR KVNY 151751Z 00000KT 10SM CLR 19/07 A3004 RMK AO2 SLP165 T01940072 10206 20106 50002 $","lat":34.2121,"lon":-118.4915,"elev":241,"name":"Van Nuys Arpt, CA, US","cover":"CLR","clouds":[],"fltCat":"VFR"},{"icaoId":"KJFK","receiptTime":"2026-04-15T17:54:09.564Z","obsTime":1776275460,"reportTime":"2026-04-15T18:00:00.000Z","temp":23.3,"dewp":14.4,"wdir":180,"wspd":9,"visib":"10+","altim":1012.3,"slp":1012.1,"qcField":4,"presTend":-2.3,"maxT":26.1,"minT":20.6,"metarType":"METAR","rawOb":"METAR KJFK 151751Z 18009KT 10SM FEW060 FEW140 SCT250 23/14 A2989 RMK AO2 SLP121 T02330144 10261 20206 56023","lat":40.6392,"lon":-73.7639,"elev":3,"name":"New York/JF Kennedy Intl, NY, US","cover":"SCT","clouds":[{"cover":"FEW","base":6000},{"cover":"FEW","base":14000},{"cover":"SCT","base":25000}],"fltCat":"VFR"},{"icaoId":"KLGA","receiptTime":"2026-04-15T17:56:19.466Z","obsTime":1776275460,"reportTime":"2026-04-15T18:00:00.000Z","temp":29.4,"dewp":16.1,"wdir":220,"wspd":11,"wgst":18,"visib":"10+","altim":1010.9,"slp":1010.9,"qcField":4,"presTend":-2.6,"maxT":29.4,"minT":21.7,"metarType":"METAR","rawOb":"METAR KLGA 151751Z 22011G18KT 10SM FEW060 SCT160 BKN250 29/16 A2985 RMK AO2 SLP109 T02940161 10294 20217 56026","lat":40.7794,"lon":-73.8803,"elev":9,"name":"New York/La Guardia Arpt, NY, US","cover":"BKN","clouds":[{"cover":"FEW","base":6000},{"cover":"SCT","base":16000},{"cover":"BKN","base":25000}],"fltCat":"VFR"},{"icaoId":"KCMH","receiptTime":"2026-04-15T17:54:07.465Z","obsTime":1776275460,"reportTime":"2026-04-15T18:00:00.000Z","temp":27.8,"dewp":16.1,"wdir":220,"wspd":17,"wgst":24,"visib":"10+","altim":1013.3,"slp":1012.5,"qcField":4,"presTend":-0.9,"maxT":27.8,"minT":20,"metarType":"METAR","rawOb":"METAR KCMH 151751Z 22017G24KT 10SM SCT046 SCT100 BKN250 28/16 A2992 RMK AO2 SLP125 T02780161 10278 20200 58009","lat":39.9907,"lon":-82.877,"elev":257,"name":"Columbus/Glenn Intl, OH, US","cover":"BKN","clouds":[{"cover":"SCT","base":4600},{"cover":"SCT","base":10000},{"cover":"BKN","base":25000}],"fltCat":"VFR"},{"icaoId":"KCLE","receiptTime":"2026-04-15T17:54:07.436Z","obsTime":1776275460,"reportTime":"2026-04-15T18:00:00.000Z","temp":23.3,"dewp":16.7,"wdir":220,"wspd":13,"wgst":22,"visib":"10+","altim":1011.9,"slp":1012.8,"qcField":12,"presTend":-0.6,"maxT":24.4,"minT":17.8,"metarType":"METAR","rawOb":"METAR KCLE 151751Z 22013G22KT 10SM FEW027 OVC034 23/17 A2988 RMK AO2 SLP128 T02330167 10244 20178 58006 $","lat":41.4057,"lon":-81.8519,"elev":237,"name":"Cleveland/Hopkins Intl, OH, US","cover":"OVC","clouds":[{"cover":"FEW","base":2700},{"cover":"OVC","base":3400}],"fltCat":"VFR"},{"icaoId":"KSAT","receiptTime":"2026-04-15T17:54:10.085Z","obsTime":1776275460,"reportTime":"2026-04-15T18:00:00.000Z","temp":26.1,"dewp":18.3,"wdir":170,"wspd":13,"visib":"10+","altim":1014.3,"slp":1012.4,"qcField":4,"presTend":-0.1,"maxT":26.1,"minT":21.1,"metarType":"METAR","rawOb":"METAR KSAT 151751Z 17013KT 10SM OVC038 26/18 A2995 RMK AO2 SLP124 T02610183 10261 20211 58001","lat":29.5443,"lon":-98.4839,"elev":246,"name":"San Antonio Intl, TX, US","cover":"OVC","clouds":[{"cover":"OVC","base":3800}],"fltCat":"VFR"},{"icaoId":"KIGM","receiptTime":"2026-04-15T17:54:09.457Z","obsTime":1776275460,"reportTime":"2026-04-15T18:00:00.000Z","temp":20,"dewp":-6.1,"wdir":220,"wspd":7,"visib":"10+","altim":1018.4,"slp":1013.7,"qcField":6,"presTend":0.1,"maxT":20,"minT":6.7,"metarType":"METAR","rawOb":"METAR KIGM 151751Z AUTO 22007KT 10SM CLR 20/M06 A3007 RMK AO2 SLP137 T02001061 10200 20067 50001","lat":35.2575,"lon":-113.9341,"elev":1045,"name":"Kingman Arpt, AZ, US","cover":"CLR","clouds":[],"fltCat":"VFR"},{"icaoId":"KRDU","receiptTime":"2026-04-15T17:54:10.000Z","obsTime":1776275460,"reportTime":"2026-04-15T18:00:00.000Z","temp":31.1,"dewp":14.4,"wdir":230,"wspd":9,"wgst":16,"visib":"10+","altim":1018,"slp":1017.4,"qcField":12,"presTend":-1.5,"maxT":31.1,"minT":18.3,"metarType":"METAR","rawOb":"METAR KRDU 151751Z 23009G16KT 10SM SCT250 31/14 A3006 RMK AO2 SLP174 T03110144 10311 20183 56015 $","lat":35.8923,"lon":-78.782,"elev":121,"name":"Raleigh-Durham Intl, NC, US","cover":"SCT","clouds":[{"cover":"SCT","base":25000}],"fltCat":"VFR"},{"icaoId":"KROW","receiptTime":"2026-04-15T17:54:10.016Z","obsTime":1776275460,"reportTime":"2026-04-15T18:00:00.000Z","temp":22.8,"dewp":-3.9,"visib":"10+","altim":1015.3,"slp":1010.1,"qcField":4,"presTend":-0.5,"maxT":22.8,"minT":10.6,"metarType":"METAR","rawOb":"METAR KROW 151751Z 10SM CLR 23/M04 A2998 RMK AO2 SLP101 T02281039 10228 20106 58005","lat":33.3074,"lon":-104.5082,"elev":1105,"name":"Roswell/Ind Arpt, NM, US","cover":"CLR","clouds":[],"fltCat":"VFR"},{"icaoId":"KOXR","receiptTime":"2026-04-15T17:54:09.825Z","obsTime":1776275460,"reportTime":"2026-04-15T18:00:00.000Z","temp":18.3,"dewp":10.6,"wdir":"VRB","wspd":5,"visib":"10+","altim":1017.7,"slp":1017.5,"qcField":12,"presTend":0.4,"maxT":18.9,"minT":10.6,"metarType":"METAR","rawOb":"METAR KOXR 151751Z VRB05KT 10SM CLR 18/11 A3005 RMK AO2 SLP175 T01830106 10189 20106 53004 $","lat":34.2001,"lon":-119.2042,"elev":12,"name":"Oxnard Arpt, CA, US","cover":"CLR","clouds":[],"fltCat":"VFR"},{"icaoId":"KADM","receiptTime":"2026-04-15T17:51:34.577Z","obsTime":1776275400,"reportTime":"2026-04-15T18:00:00.000Z","temp":24,"dewp":21,"wdir":190,"wspd":16,"visib":"10+","altim":1012.3,"qcField":0,"metarType":"METAR","rawOb":"METAR KADM 151750Z 19016KT 10SM SCT023 BKN030 BKN060 24/21 A2989","lat":34.3007,"lon":-97.0089,"elev":223,"name":"Ardmore Muni, OK, US","cover":"BKN","clouds":[{"cover":"SCT","base":2300},{"cover":"BKN","base":3000},{"cover":"BKN","base":6000}],"fltCat":"MVFR"},{"icaoId":"KHOB","receiptTime":"2026-04-15T17:53:28.353Z","obsTime":1776275400,"reportTime":"2026-04-15T18:00:00.000Z","temp":25,"dewp":-8,"wdir":260,"wspd":10,"wgst":21,"visib":"10+","altim":1016.3,"qcField":0,"metarType":"METAR","rawOb":"METAR KHOB 151750Z 26010G21KT 10SM CLR 25/M08 A3001","lat":32.6797,"lon":-103.2222,"elev":1112,"name":"Hobbs Arpt, NM, US","cover":"CLR","clouds":[],"fltCat":"VFR"},{"icaoId":"KIWA","receiptTime":"2026-04-15T17:54:44.039Z","obsTime":1776275400,"reportTime":"2026-04-15T18:00:00.000Z","temp":24,"dewp":-2,"wdir":0,"wspd":0,"visib":"10+","altim":1017,"qcField":0,"metarType":"METAR","rawOb":"METAR KIWA 151750Z 00000KT 10SM CLR 24/M02 A3003","lat":33.3008,"lon":-111.6437,"elev":420,"name":"Phoenix/Mesa Gateway Arpt, AZ, US","cover":"CLR","clouds":[],"fltCat":"VFR"},{"icaoId":"KSUN","receiptTime":"2026-04-15T17:52:50.026Z","obsTime":1776275400,"reportTime":"2026-04-15T18:00:00.000Z","temp":3,"dewp":2,"wdir":150,"wspd":8,"visib":4,"altim":1013,"qcField":0,"wxString":"-RA","metarType":"METAR","rawOb":"METAR KSUN 151750Z 15008KT 4SM -RA BKN008 OVC012 03/02 A2991","lat":43.4969,"lon":-114.2923,"elev":1619,"name":"Hailey/Friedman Mem, ID, US","cover":"OVC","clouds":[{"cover":"BKN","base":800},{"cover":"OVC","base":1200}],"fltCat":"IFR"},{"icaoId":"KCHD","receiptTime":"2026-04-15T17:47:23.663Z","obsTime":1776275220,"reportTime":"2026-04-15T18:00:00.000Z","temp":25,"dewp":-1,"wdir":"VRB","wspd":3,"visib":"10+","altim":1016.7,"qcField":0,"metarType":"METAR","rawOb":"METAR KCHD 151747Z VRB03KT 10SM CLR 25/M01 A3002","lat":33.2669,"lon":-111.8086,"elev":378,"name":"Chandler Muni, AZ, US","cover":"CLR","clouds":[],"fltCat":"VFR"},{"icaoId":"KGYR","receiptTime":"2026-04-15T17:49:04.211Z","obsTime":1776275220,"reportTime":"2026-04-15T18:00:00.000Z","temp":24,"dewp":1,"wdir":"VRB","wspd":5,"visib":"10+","altim":1016.3,"qcField":0,"metarType":"METAR","rawOb":"METAR KGYR 151747Z VRB05KT 10SM SKC 24/01 A3001","lat":33.428,"lon":-112.368,"elev":292,"name":"Phoenix/Goodyear Muni, AZ, US","cover":"SKC","clouds":[],"fltCat":"VFR"},{"icaoId":"KGEU","receiptTime":"2026-04-15T17:49:04.159Z","obsTime":1776275220,"reportTime":"2026-04-15T18:00:00.000Z","temp":24,"dewp":-2,"wdir":"VRB","wspd":4,"visib":"10+","altim":1015.7,"qcField":0,"metarType":"METAR","rawOb":"METAR KGEU 151747Z VRB04KT 10SM CLR 24/M02 A2999","lat":33.528,"lon":-112.293,"elev":319,"name":"Glendale Muni, AZ, US","cover":"CLR","clouds":[],"fltCat":"VFR"},{"icaoId":"KAEG","receiptTime":"2026-04-15T18:00:01.446Z","obsTime":1776275220,"reportTime":"2026-04-15T18:00:00.000Z","temp":15,"dewp":-6,"wdir":290,"wspd":9,"visib":"10+","altim":1019.7,"qcField":0,"metarType":"METAR","rawOb":"METAR KAEG 151747Z 29009KT 10SM CLR 15/M06 A3011","lat":35.15,"lon":-106.7929,"elev":1771,"name":"Albuquerque/Double Eagle Arpt, NM, US","cover":"CLR","clouds":[],"fltCat":"VFR"},{"icaoId":"KRYN","receiptTime":"2026-04-15T17:47:23.848Z","obsTime":1776275100,"reportTime":"2026-04-15T18:00:00.000Z","temp":24,"dewp":-8,"wdir":"VRB","wspd":4,"visib":"10+","altim":1017.4,"qcField":0,"metarType":"METAR","rawOb":"METAR KRYN 151745Z VRB04KT 10SM CLR 24/M08 A3004","lat":32.1418,"lon":-111.1767,"elev":731,"name":"Tucson/Ryan Fld, AZ, US","cover":"CLR","clouds":[],"fltCat":"VFR"}]