[{"icaoId":"KOKC","receiptTime":"2026-04-16T00:12:06.641Z","obsTime":1776298140,"reportTime":"2026-04-16T00:09:00.000Z","temp":22.8,"dewp":19.4,"wdir":170,"wspd":13,"wgst":23,"visib":"10+","altim":1009.6,"qcField":4,"metarType":"SPECI","rawOb":"SPECI KOKC 160009Z 17013G23KT 10SM BKN020 BKN250 23/19 A2981 RMK AO2 T02280194","lat":35.3843,"lon":-97.6003,"elev":391,"name":"Oklahoma City/Will Rogers Intl, OK, US","cover":"BKN","clouds":[{"cover":"BKN","base":2000},{"cover":"BKN","base":25000}],"fltCat":"MVFR"},{"icaoId":"KSPS","receiptTime":"2026-04-16T00:10:04.513Z","obsTime":1776297960,"reportTime":"2026-04-16T00:06:00.000Z","temp":20,"dewp":17.2,"wdir":120,"wspd":11,"wgst":22,"visib":"10+","altim":1009.2,"qcField":4,"metarType":"SPECI","rawOb":"SPECI KSPS 160006Z 12011G22KT 10SM FEW005 BKN220 20/17 A2980 RMK AO2 LTG DSNT E AND SE TSE00 T02000172","lat":33.9785,"lon":-98.493,"elev":310,"name":"Wichita Falls Rgnl, TX, US","cover":"BKN","clouds":[{"cover":"FEW","base":500},{"cover":"BKN","base":22000}],"fltCat":"VFR"},{"icaoId":"KMYL","receiptTime":"2026-04-16T00:10:04.488Z","obsTime":1776297960,"reportTime":"2026-04-16T00:06:00.000Z","temp":1.1,"dewp":0,"wdir":250,"wspd":5,"visib":6,"altim":1005.2,"qcField":6,"wxString":"-SN BR","precip":0.04,"metarType":"SPECI","rawOb":"SPECI KMYL 160006Z AUTO 25005KT 6SM -SN BR OVC014 01/00 A2968 RMK AO2 LTG DSNT S AND SW RAE2355SNB2355 TSE2355 P0004 T00110000","lat":44.8943,"lon":-116.0998,"elev":1532,"name":"McCall Muni, ID, US","cover":"OVC","clouds":[{"cover":"OVC","base":1400}],"fltCat":"MVFR"},{"icaoId":"KROC","receiptTime":"2026-04-16T00:08:13.136Z","obsTime":1776297900,"reportTime":"2026-04-16T00:05:00.000Z","temp":14.4,"dewp":12.8,"wdir":50,"wspd":7,"visib":"10+","altim":1010.6,"qcField":12,"wxString":"-TSRA","precip":0.005,"metarType":"SPECI","rawOb":"SPECI KROC 160005Z 05007KT 10SM -TSRA BKN045CB BKN070 OVC110 14/13 A2984 RMK AO2 TSB05 FRQ LTGICCCCG VC W-NW TS VC W-NW MOV E P0000 T01440128 $","lat":43.1172,"lon":-77.6754,"elev":166,"name":"Rochester Intl Arpt, NY, US","cover":"OVC","clouds":[{"cover":"BKN","base":4500},{"cover":"BKN","base":7000},{"cover":"OVC","base":11000}],"fltCat":"VFR"},{"icaoId":"KPNC","receiptTime":"2026-04-16T00:08:13.227Z","obsTime":1776297840,"reportTime":"2026-04-16T00:04:00.000Z","temp":21.1,"dewp":16.7,"wdir":"VRB","wspd":6,"visib":8,"altim":1008.5,"qcField":6,"wxString":"-TSRA","precip":0.03,"metarType":"SPECI","rawOb":"SPECI KPNC 160004Z AUTO VRB06KT 8SM -TSRA FEW035 BKN090 OVC110 21/17 A2978 RMK AO2 LTG DSNT E RAB00 TSB2358 P0003 T02110167","lat":36.7369,"lon":-97.1024,"elev":304,"name":"Ponca City Rgnl, OK, US","cover":"OVC","clouds":[{"cover":"FEW","base":3500},{"cover":"BKN","base":9000},{"cover":"OVC","base":11000}],"fltCat":"VFR"},{"icaoId":"KMSO","receiptTime":"2026-04-16T00:06:15.752Z","obsTime":1776297780,"reportTime":"2026-04-16T00:03:00.000Z","temp":5,"dewp":2.2,"wdir":320,"wspd":25,"wgst":40,"visib":"10+","altim":1003.8,"qcField":4,"wxString":"-RA","precip":0.005,"metarType":"SPECI","rawOb":"SPECI KMSO 160003Z 32025G40KT 10SM -RA FEW020 SCT033 OVC045 05/02 A2964 RMK AO2 PK WND 32040/0000 PRESRR P0000 T00500022","lat":46.9208,"lon":-114.0938,"elev":974,"name":"Missoula Intl, MT, US","cover":"OVC","clouds":[{"cover":"FEW","base":2000},{"cover":"SCT","base":3300},{"cover":"OVC","base":4500}],"fltCat":"VFR"},{"icaoId":"KBUF","receiptTime":"2026-04-16T00:06:03.960Z","obsTime":1776297720,"reportTime":"2026-04-16T00:02:00.000Z","temp":15.6,"dewp":15,"wdir":310,"wspd":9,"wgst":18,"visib":0.75,"altim":1010.9,"qcField":12,"wxString":"+TSRA BR","precip":0.02,"metarType":"SPECI","rawOb":"SPECI KBUF 160002Z 31009G18KT 3/4SM +TSRA BR SCT018CB BKN026 OVC032 16/15 A2985 RMK AO2 TSB2359 OCNL LTGIC VC SW-NW TS VC SW-NW MOV E P0002 T01560150 RVRNO $","lat":42.94,"lon":-78.7361,"elev":217,"name":"Buffalo-Niagara Intl, NY, US","cover":"OVC","clouds":[{"cover":"SCT","base":1800},{"cover":"BKN","base":2600},{"cover":"OVC","base":3200}],"fltCat":"LIFR"},{"icaoId":"KMLC","receiptTime":"2026-04-16T00:06:05.254Z","obsTime":1776297660,"reportTime":"2026-04-16T00:01:00.000Z","temp":22.8,"dewp":19.4,"wdir":200,"wspd":6,"visib":"10+","altim":1011.3,"qcField":6,"wxString":"VCTS -RA","precip":0.005,"metarType":"SPECI","rawOb":"SPECI KMLC 160001Z AUTO 20006KT 10SM VCTS -RA SCT036 BKN048 OVC110 23/19 A2986 RMK AO2 LTG DSNT SE-W P0000 T02280194","lat":34.8824,"lon":-95.7815,"elev":231,"name":"McAlester Rgnl, OK, US","cover":"OVC","clouds":[{"cover":"SCT","base":3600},{"cover":"BKN","base":4800},{"cover":"OVC","base":11000}],"fltCat":"VFR"},{"icaoId":"KNFL","receiptTime":"2026-04-16T00:01:09.895Z","obsTime":1776297420,"reportTime":"2026-04-16T00:00:00.000Z","temp":17.8,"dewp":-3.3,"wdir":270,"wspd":12,"visib":"10+","altim":1012.6,"slp":1010.1,"qcField":4,"presTend":-1.6,"maxT":19.4,"minT":15,"metarType":"METAR","rawOb":"METAR KNFL 152357Z 27012KT 10SM SCT070 BKN120 BKN150 BKN200 18/M03 A2990 RMK AO2 SLP101 ACSL DSNT ALQDS T01781033 10194 20150 56016","lat":39.417,"lon":-118.705,"elev":1199,"name":"Fallon , NV, US","cover":"BKN","clouds":[{"cover":"SCT","base":7000},{"cover":"BKN","base":12000},{"cover":"BKN","base":15000},{"cover":"BKN","base":20000}],"fltCat":"VFR"},{"icaoId":"KFLG","receiptTime":"2026-04-16T00:01:24.693Z","obsTime":1776297420,"reportTime":"2026-04-16T00:00:00.000Z","temp":14.4,"dewp":-11.1,"wdir":240,"wspd":9,"visib":"10+","altim":1019.4,"slp":1014.9,"qcField":6,"presTend":-0.8,"maxT":15.6,"minT":10.6,"metarType":"METAR","rawOb":"METAR KFLG 152357Z AUTO 24009KT 200V260 10SM CLR 14/M11 A3010 RMK AO2 SLP149 T01441111 10156 20106 56008","lat":35.1443,"lon":-111.6664,"elev":2134,"name":"Flagstaff/Pulliam Arpt, AZ, US","cover":"CLR","clouds":[],"fltCat":"VFR"},{"icaoId":"KCEC","receiptTime":"2026-04-16T00:01:04.399Z","obsTime":1776297360,"reportTime":"2026-04-16T00:00:00.000Z","temp":11.7,"dewp":3.3,"wdir":330,"wspd":15,"wgst":23,"visib":"10+","altim":1021.1,"slp":1021.1,"qcField":6,"presTend":1.1,"maxT":12.2,"minT":9.4,"pcp6hr":0.13,"metarType":"METAR","rawOb":"METAR KCEC 152356Z AUTO 33015G23KT 10SM CLR 12/03 A3015 RMK AO2 SLP211 60013 T01170033 10122 20094 51011","lat":41.7836,"lon":-124.238,"elev":17,"name":"Crescent City/McNama, CA, US","cover":"CLR","clouds":[],"fltCat":"VFR"},{"icaoId":"KUKI","receiptTime":"2026-04-16T00:00:47.613Z","obsTime":1776297360,"reportTime":"2026-04-16T00:00:00.000Z","temp":16.1,"dewp":8.3,"wdir":350,"wspd":7,"wgst":15,"visib":"10+","altim":1018.4,"slp":1017.9,"qcField":6,"presTend":-0.4,"maxT":17.8,"minT":13.3,"metarType":"METAR","rawOb":"METAR KUKI 152356Z AUTO 35007G15KT 10SM BKN031 16/08 A3007 RMK AO2 SLP179 T01610083 10178 20133 57004","lat":39.1278,"lon":-123.2001,"elev":183,"name":"Ukiah Muni, CA, US","cover":"BKN","clouds":[{"cover":"BKN","base":3100}],"fltCat":"VFR"},{"icaoId":"KEKO","receiptTime":"2026-04-16T00:00:05.635Z","obsTime":1776297360,"reportTime":"2026-04-16T00:00:00.000Z","temp":15.6,"dewp":-2.8,"wdir":240,"wspd":19,"wgst":28,"visib":"10+","altim":1010.2,"slp":1009,"qcField":6,"presTend":-2.5,"maxT":16.7,"minT":13.3,"metarType":"METAR","rawOb":"METAR KEKO 152356Z AUTO 24019G28KT 10SM FEW080 BKN110 16/M03 A2983 RMK AO2 PK WND 23030/2343 SLP090 T01561028 10167 20133 58025","lat":40.824,"lon":-115.7863,"elev":1541,"name":"Elko Rgnl, NV, US","cover":"BKN","clouds":[{"cover":"FEW","base":8000},{"cover":"BKN","base":11000}],"fltCat":"VFR"},{"icaoId":"KPVU","receiptTime":"2026-04-15T23:58:27.122Z","obsTime":1776297360,"reportTime":"2026-04-16T00:00:00.000Z","temp":18.3,"dewp":1.7,"wdir":"VRB","wspd":4,"visib":"10+","altim":1010.2,"slp":1007.8,"qcField":4,"presTend":-2.4,"maxT":20,"minT":15.6,"metarType":"METAR","rawOb":"METAR KPVU 152356Z VRB04KT 10SM BKN080 OVC100 18/02 A2983 RMK AO2 PK WND 21027/2321 SLP078 T01830017 10200 20156 57024","lat":40.224,"lon":-111.7252,"elev":1370,"name":"Provo Muni, UT, US","cover":"OVC","clouds":[{"cover":"BKN","base":8000},{"cover":"OVC","base":10000}],"fltCat":"VFR"},{"icaoId":"KCHS","receiptTime":"2026-04-16T00:00:14.648Z","obsTime":1776297360,"reportTime":"2026-04-16T00:00:00.000Z","temp":21.7,"dewp":15.6,"wdir":180,"wspd":6,"visib":"10+","altim":1019.4,"slp":1019.2,"qcField":4,"presTend":0.6,"maxT":31.1,"minT":21.7,"metarType":"METAR","rawOb":"METAR KCHS 152356Z 18006KT 10SM SCT250 22/16 A3010 RMK AO2 SLP192 T02170156 10311 20217 51006","lat":32.8995,"lon":-80.0407,"elev":12,"name":"Charleston Intl, SC, US","cover":"SCT","clouds":[{"cover":"SCT","base":25000}],"fltCat":"VFR"},{"icaoId":"KJAX","receiptTime":"2026-04-16T00:00:14.820Z","obsTime":1776297360,"reportTime":"2026-04-16T00:00:00.000Z","temp":24.4,"dewp":12.8,"wdir":120,"wspd":8,"visib":"10+","altim":1019.4,"slp":1019.2,"qcField":12,"maxT":30.6,"minT":23.3,"metarType":"METAR","rawOb":"METAR KJAX 152356Z 12008KT 10SM BKN250 24/13 A3010 RMK AO2 SLP192 T02440128 10306 20233 58000 $","lat":30.4953,"lon":-81.6937,"elev":8,"name":"Jacksonville Intl, FL, US","cover":"BKN","clouds":[{"cover":"BKN","base":25000}],"fltCat":"VFR"},{"icaoId":"KRDM","receiptTime":"2026-04-16T00:00:20.847Z","obsTime":1776297360,"reportTime":"2026-04-16T00:00:00.000Z","temp":5,"dewp":-5,"wdir":300,"wspd":22,"wgst":32,"visib":"10+","altim":1012.3,"slp":1012.6,"qcField":4,"presTend":2.3,"maxT":9.4,"minT":3.3,"metarType":"METAR","rawOb":"METAR KRDM 152356Z 30022G32KT 10SM FEW035 SCT070 05/M05 A2989 RMK AO2 PK WND 30032/2352 SLP126 T00501050 10094 20033 53023","lat":44.2558,"lon":-121.1407,"elev":930,"name":"Redmond Muni, OR, US","cover":"SCT","clouds":[{"cover":"FEW","base":3500},{"cover":"SCT","base":7000}],"fltCat":"VFR"},{"icaoId":"KHND","receiptTime":"2026-04-15T23:58:31.633Z","obsTime":1776297360,"reportTime":"2026-04-16T00:00:00.000Z","temp":27.2,"dewp":-5.6,"wdir":260,"wspd":9,"visib":"10+","altim":1012.3,"slp":1012,"qcField":12,"presTend":-2.4,"maxT":27.8,"minT":22.2,"metarType":"METAR","rawOb":"METAR KHND 152356Z 26009KT 10SM CLR 27/M06 A2989 RMK AO2 SLP120 T02721056 10278 20222 56024 $","lat":35.9657,"lon":-115.1343,"elev":740,"name":"Henderson Exec, NV, US","cover":"CLR","clouds":[],"fltCat":"VFR"},{"icaoId":"KFNL","receiptTime":"2026-04-15T23:58:22.660Z","obsTime":1776297360,"reportTime":"2026-04-16T00:00:00.000Z","temp":19.4,"dewp":-6.7,"wdir":250,"wspd":12,"visib":"10+","altim":1009.9,"slp":1006.4,"qcField":14,"presTend":-0.5,"maxT":20.6,"minT":17.2,"metarType":"METAR","rawOb":"METAR KFNL 152356Z AUTO 25012KT 10SM CLR 19/M07 A2982 RMK AO2 SLP064 T01941067 10206 20172 55005 $","lat":40.4427,"lon":-105.0097,"elev":1529,"name":"Fort Collins/N Colorado Rgnl, CO, US","cover":"CLR","clouds":[],"fltCat":"VFR"},{"icaoId":"KHDN","receiptTime":"2026-04-15T23:58:23.251Z","obsTime":1776297360,"reportTime":"2026-04-16T00:00:00.000Z","temp":12.8,"dewp":-2.8,"wdir":240,"wspd":12,"visib":"10+","altim":1014.6,"slp":1012.8,"qcField":6,"presTend":-1.1,"maxT":13.9,"minT":8.3,"metarType":"METAR","rawOb":"METAR KHDN 152356Z AUTO 24012KT 10SM SCT075 13/M03 A2996 RMK AO2 SLP128 T01281028 10139 20083 55011","lat":40.4842,"lon":-107.2296,"elev":2012,"name":"Hayden/Yampa Valley Arpt, CO, US","cover":"SCT","clouds":[{"cover":"SCT","base":7500}],"fltCat":"VFR"},{"icaoId":"KSGU","receiptTime":"2026-04-15T23:58:27.210Z","obsTime":1776297360,"reportTime":"2026-04-16T00:00:00.000Z","temp":25,"dewp":-4.4,"wdir":260,"wspd":10,"wgst":14,"visib":"10+","altim":1012.3,"slp":1010.2,"qcField":6,"presTend":-2.7,"maxT":25,"minT":16.1,"metarType":"METAR","rawOb":"METAR KSGU 152356Z AUTO 26010G14KT 10SM CLR 25/M04 A2989 RMK AO2 SLP102 T02501044 10250 20161 56027","lat":37.0444,"lon":-113.5034,"elev":877,"name":"Saint George Muni, UT, US","cover":"CLR","clouds":[],"fltCat":"VFR"},{"icaoId":"KTPH","receiptTime":"2026-04-16T00:00:47.210Z","obsTime":1776297360,"reportTime":"2026-04-16T00:00:00.000Z","temp":18.9,"dewp":-8.3,"wdir":200,"wspd":14,"wgst":20,"visib":"10+","altim":1014,"slp":1010.9,"qcField":6,"metarType":"METAR","rawOb":"METAR KTPH 152356Z AUTO 20014G20KT 10SM SCT110 19/M08 A2994 RMK AO2 SLP109 6//// T01891083","lat":38.0505,"lon":-117.0906,"elev":1647,"name":"Tonopah Arpt, NV, US","cover":"SCT","clouds":[{"cover":"SCT","base":11000}],"fltCat":"VFR"},{"icaoId":"KDUG","receiptTime":"2026-04-16T00:02:04.224Z","obsTime":1776297360,"reportTime":"2026-04-16T00:00:00.000Z","temp":25,"dewp":-16.1,"wdir":280,"wspd":8,"wgst":17,"visib":"10+","altim":1015.7,"slp":1011.1,"qcField":38,"presTend":-1.7,"maxT":25.6,"minT":18.9,"metarType":"METAR","rawOb":"METAR KDUG 152356Z AUTO 28008G17KT 10SM CLR 25/M16 A2999 RMK AO2 SLP111 T02501161 10256 20189 56017 TSNO","lat":31.4725,"lon":-109.6022,"elev":1260,"name":"Douglas/Bisbee Intl, AZ, US","cover":"CLR","clouds":[],"fltCat":"VFR"},{"icaoId":"KJAC","receiptTime":"2026-04-15T23:58:30.409Z","obsTime":1776297360,"reportTime":"2026-04-16T00:00:00.000Z","temp":6.1,"dewp":0.6,"wdir":210,"wspd":12,"visib":"10+","altim":1009.9,"slp":1010.4,"qcField":4,"wxString":"-RA","presTend":-0.6,"maxT":7.8,"minT":4.4,"precip":0.005,"pcp6hr":0.005,"metarType":"METAR","rawOb":"METAR KJAC 152356Z 21012KT 10SM -RA OVC046 06/01 A2982 RMK AO2 RAE13B52 SLP104 P0000 60000 T00610006 10078 20044 58006","lat":43.6129,"lon":-110.7366,"elev":1967,"name":"Jackson Hole Arpt, WY, US","cover":"OVC","clouds":[{"cover":"OVC","base":4600}],"fltCat":"VFR"},{"icaoId":"KLWS","receiptTime":"2026-04-16T00:00:15.137Z","obsTime":1776297360,"reportTime":"2026-04-16T00:00:00.000Z","temp":11.7,"dewp":-5,"wdir":260,"wspd":15,"wgst":26,"visib":"10+","altim":1006.5,"slp":1006.4,"qcField":6,"presTend":1.2,"maxT":12.2,"minT":7.2,"pcp6hr":0.04,"metarType":"METAR","rawOb":"METAR KLWS 152356Z AUTO 26015G26KT 10SM CLR 12/M05 A2972 RMK AO2 PK WND 24026/2352 SLP064 60004 T01171050 10122 20072 51012","lat":46.3746,"lon":-117.0153,"elev":435,"name":"Lewiston/Nez Perce Cnty, ID, US","cover":"CLR","clouds":[],"fltCat":"VFR"},{"icaoId":"KCOE","receiptTime":"2026-04-15T23:58:31.356Z","obsTime":1776297360,"reportTime":"2026-04-16T00:00:00.000Z","temp":10,"dewp":-5,"wdir":230,"wspd":21,"wgst":27,"visib":"10+","altim":1002.8,"slp":1004.8,"qcField":14,"presTend":-0.2,"maxT":10.6,"minT":2.8,"metarType":"METAR","rawOb":"METAR KCOE 152356Z AUTO 23021G27KT 10SM OVC080 10/M05 A2961 RMK AO2 PK WND 23027/2355 SLP048 6//// T01001050 10106 20028 58002 PNO $","lat":47.7719,"lon":-116.8332,"elev":693,"name":"Coeur DAlene Arpt, ID, US","cover":"OVC","clouds":[{"cover":"OVC","base":8000}],"fltCat":"VFR"},{"icaoId":"KENV","receiptTime":"2026-04-15T23:58:31.483Z","obsTime":1776297360,"reportTime":"2026-04-16T00:00:00.000Z","temp":19.4,"dewp":-3.3,"wdir":300,"wspd":18,"visib":"10+","altim":1009.2,"slp":1007.4,"qcField":6,"presTend":-1.7,"maxT":22.2,"minT":17.2,"metarType":"METAR","rawOb":"METAR KENV 152356Z AUTO 30018KT 10SM CLR 19/M03 A2980 RMK AO2 SLP074 T01941033 10222 20172 56017","lat":40.7211,"lon":-114.0312,"elev":1291,"name":"Wendover Arpt, UT, US","cover":"CLR","clouds":[],"fltCat":"VFR"},{"icaoId":"KSDF","receiptTime":"2026-04-16T00:00:57.086Z","obsTime":1776297360,"reportTime":"2026-04-16T00:00:00.000Z","temp":27.2,"dewp":13.9,"wdir":220,"wspd":10,"visib":"10+","altim":1014.3,"slp":1013.7,"qcField":4,"presTend":0.5,"maxT":30,"minT":27.2,"metarType":"METAR","rawOb":"METAR KSDF 152356Z 22010KT 10SM FEW070 OVC250 27/14 A2995 RMK AO2 SLP137 T02720139 10300 20272 53005","lat":38.1774,"lon":-85.7308,"elev":146,"name":"Louisville Intl, KY, US","cover":"OVC","clouds":[{"cover":"FEW","base":7000},{"cover":"OVC","base":25000}],"fltCat":"VFR"},{"icaoId":"KCGZ","receiptTime":"2026-04-15T23:58:31.306Z","obsTime":1776297360,"reportTime":"2026-04-16T00:00:00.000Z","temp":27.8,"dewp":-6.1,"wdir":300,"wspd":6,"visib":"10+","altim":1013,"slp":1011.9,"qcField":14,"presTend":-2,"maxT":28.3,"minT":23.3,"metarType":"METAR","rawOb":"METAR KCGZ 152356Z AUTO 30006KT 10SM CLR 28/M06 A2991 RMK AO2 SLP119 6//// T02781061 10283 20233 56020 $","lat":32.9531,"lon":-111.7725,"elev":444,"name":"Casa Granda Muni, AZ, US","cover":"CLR","clouds":[],"fltCat":"VFR"},{"icaoId":"KVIS","receiptTime":"2026-04-15T23:58:27.357Z","obsTime":1776297360,"reportTime":"2026-04-16T00:00:00.000Z","temp":24.4,"dewp":7.8,"wdir":330,"wspd":7,"visib":"10+","altim":1015.3,"slp":1015,"qcField":14,"presTend":-2.3,"maxT":25,"minT":17.2,"metarType":"METAR","rawOb":"METAR KVIS 152356Z AUTO 33007KT 10SM CLR 24/08 A2998 RMK AO2 SLP150 6//// T02440078 10250 20172 56023 PNO $","lat":36.3135,"lon":-119.3884,"elev":92,"name":"Visalia Muni, CA, US","cover":"CLR","clouds":[],"fltCat":"VFR"},{"icaoId":"KPWT","receiptTime":"2026-04-15T23:58:27.145Z","obsTime":1776297360,"reportTime":"2026-04-16T00:00:00.000Z","temp":7.2,"dewp":3.3,"wdir":40,"wspd":13,"visib":"10+","altim":1011.6,"slp":1012.1,"qcField":6,"presTend":1.5,"maxT":10,"minT":5,"precip":0.005,"pcp6hr":0.01,"metarType":"METAR","rawOb":"METAR KPWT 152356Z AUTO 04013KT 10SM FEW018 BKN033 07/03 A2987 RMK AO2 RAE2259 SLP121 P0000 60001 T00720033 10100 20050 53015","lat":47.4942,"lon":-122.7594,"elev":143,"name":"Bremerton Arpt, WA, US","cover":"BKN","clouds":[{"cover":"FEW","base":1800},{"cover":"BKN","base":3300}],"fltCat":"VFR"},{"icaoId":"KEGE","receiptTime":"2026-04-15T23:58:24.787Z","obsTime":1776297360,"reportTime":"2026-04-16T00:00:00.000Z","temp":12.8,"dewp":-3.9,"wdir":290,"wspd":16,"wgst":22,"visib":"10+","altim":1016.3,"slp":1013,"qcField":4,"presTend":-0.9,"maxT":13.9,"minT":10,"metarType":"METAR","rawOb":"METAR KEGE 152356Z 29016G22KT 10SM CLR 13/M04 A3001 RMK AO2 SLP130 T01281039 10139 20100 56009","lat":39.6448,"lon":-106.9176,"elev":1993,"name":"Eagle Cnty Rgnl, CO, US","cover":"CLR","clouds":[],"fltCat":"VFR"},{"icaoId":"KSBP","receiptTime":"2026-04-16T00:00:57.027Z","obsTime":1776297360,"reportTime":"2026-04-16T00:00:00.000Z","temp":17.8,"dewp":9.4,"wdir":320,"wspd":16,"wgst":23,"visib":"10+","altim":1016,"slp":1015.9,"qcField":4,"presTend":-0.8,"maxT":20.6,"minT":17.2,"metarType":"METAR","rawOb":"METAR KSBP 152356Z 32016G23KT 10SM CLR 18/09 A3000 RMK AO2 SLP159 T01780094 10206 20172 58008","lat":35.2381,"lon":-120.644,"elev":52,"name":"San Luis Obispo/San Luis Cnty, CA, US","cover":"CLR","clouds":[],"fltCat":"VFR"},{"icaoId":"KSFO","receiptTime":"2026-04-16T00:00:14.929Z","obsTime":1776297360,"reportTime":"2026-04-16T00:00:00.000Z","temp":16.1,"dewp":8.3,"wdir":280,"wspd":21,"wgst":29,"visib":"10+","altim":1018.7,"slp":1018.5,"qcField":12,"presTend":-1.2,"maxT":16.7,"minT":14.4,"metarType":"METAR","rawOb":"METAR KSFO 152356Z 28021G29KT 10SM FEW023 BKN200 16/08 A3008 RMK AO2 PK WND 28031/2302 SLP185 T01610083 10167 20144 58012 $","lat":37.6196,"lon":-122.3656,"elev":2,"name":"San Francisco Intl, CA, US","cover":"BKN","clouds":[{"cover":"FEW","base":2300},{"cover":"BKN","base":20000}],"fltCat":"VFR"},{"icaoId":"KBZN","receiptTime":"2026-04-16T00:00:14.618Z","obsTime":1776297360,"reportTime":"2026-04-16T00:00:00.000Z","temp":11.7,"dewp":1.1,"wdir":250,"wspd":18,"wgst":25,"visib":"10+","altim":1002.1,"slp":1000.5,"qcField":4,"presTend":-0.1,"maxT":16.7,"minT":10.6,"pcp6hr":0.005,"metarType":"METAR","rawOb":"METAR KBZN 152356Z 25018G25KT 10SM OVC075 12/01 A2959 RMK AO2 PK WND 27033/2316 SLP005 60000 T01170011 10167 20106 56001","lat":45.7876,"lon":-111.1615,"elev":1349,"name":"Bozeman/Gallatin Fld, MT, US","cover":"OVC","clouds":[{"cover":"OVC","base":7500}],"fltCat":"VFR"},{"icaoId":"KINW","receiptTime":"2026-04-16T00:00:14.803Z","obsTime":1776297360,"reportTime":"2026-04-16T00:00:00.000Z","temp":20,"dewp":-6.7,"wdir":"VRB","wspd":3,"visib":"10+","altim":1016,"slp":1012.9,"qcField":6,"presTend":-2.2,"maxT":20.6,"minT":15.6,"metarType":"METAR","rawOb":"METAR KINW 152356Z AUTO VRB03KT 10SM CLR 20/M07 A3000 RMK AO2 SLP129 T02001067 10206 20156 56022","lat":35.0279,"lon":-110.7221,"elev":1492,"name":"Winslow/Lindberg Rgnl, AZ, US","cover":"CLR","clouds":[],"fltCat":"VFR"},{"icaoId":"KCOD","receiptTime":"2026-04-15T23:58:24.154Z","obsTime":1776297360,"reportTime":"2026-04-16T00:00:00.000Z","temp":13.9,"dewp":-2.8,"wdir":260,"wspd":14,"wgst":22,"visib":"10+","altim":1005.2,"slp":1002.3,"qcField":14,"presTend":-1,"maxT":17.2,"minT":12.8,"metarType":"METAR","rawOb":"METAR KCOD 152356Z AUTO 26014G22KT 10SM CLR 14/M03 A2968 RMK AO2 SLP023 T01391028 10172 20128 56010 $","lat":44.52,"lon":-109.0268,"elev":1550,"name":"Cody/Yellowstone Rgnl, WY, US","cover":"CLR","clouds":[],"fltCat":"VFR"},{"icaoId":"KGUC","receiptTime":"2026-04-15T23:58:23.081Z","obsTime":1776297360,"reportTime":"2026-04-16T00:00:00.000Z","temp":11.1,"dewp":-6.1,"wdir":250,"wspd":12,"wgst":16,"visib":"10+","altim":1017.7,"slp":1016.3,"qcField":14,"presTend":-0.4,"maxT":12.2,"minT":7.2,"metarType":"METAR","rawOb":"METAR KGUC 152356Z AUTO 25012G16KT 10SM BKN075 11/M06 A3005 RMK AO2 SLP163 T01111061 10122 20072 55004 $","lat":38.5322,"lon":-106.9419,"elev":2337,"name":"Gunnison Arpt, CO, US","cover":"BKN","clouds":[{"cover":"BKN","base":7500}],"fltCat":"VFR"},{"icaoId":"KSLE","receiptTime":"2026-04-16T00:00:22.502Z","obsTime":1776297360,"reportTime":"2026-04-16T00:00:00.000Z","temp":7.8,"dewp":-0.6,"wdir":280,"wspd":13,"wgst":21,"visib":"10+","altim":1016.3,"slp":1016.4,"qcField":4,"presTend":1.3,"maxT":11.1,"minT":5.6,"precip":0.005,"pcp6hr":0.08,"metarType":"METAR","rawOb":"METAR KSLE 152356Z 28013G21KT 10SM OVC065 08/M01 A3001 RMK AO2 PK WND 29027/2325 RAB27E52 SLP164 P0000 60008 T00781006 10111 20056 53013","lat":44.9049,"lon":-123.001,"elev":63,"name":"Salem Muni, OR, US","cover":"OVC","clouds":[{"cover":"OVC","base":6500}],"fltCat":"VFR"},{"icaoId":"KSDY","receiptTime":"2026-04-15T23:58:20.590Z","obsTime":1776297360,"reportTime":"2026-04-16T00:00:00.000Z","temp":18.3,"dewp":0.6,"wdir":180,"wspd":7,"visib":"10+","altim":1002.5,"slp":1002.9,"qcField":14,"presTend":-1,"maxT":19.4,"minT":16.7,"metarType":"METAR","rawOb":"METAR KSDY 152356Z AUTO 18007KT 10SM OVC085 18/01 A2960 RMK AO2 SLP029 T01830006 10194 20167 56010 $","lat":47.7029,"lon":-104.1951,"elev":600,"name":"Sidney/Richland Muni, MT, US","cover":"OVC","clouds":[{"cover":"OVC","base":8500}],"fltCat":"VFR"},{"icaoId":"KLAS","receiptTime":"2026-04-16T00:00:42.015Z","obsTime":1776297360,"reportTime":"2026-04-16T00:00:00.000Z","temp":27.8,"dewp":-8.3,"wdir":210,"wspd":11,"wgst":16,"visib":"10+","altim":1011.6,"slp":1009.5,"qcField":4,"presTend":-2.4,"maxT":28.3,"minT":22.8,"metarType":"METAR","rawOb":"METAR KLAS 152356Z 21011G16KT 10SM FEW200 SCT250 28/M08 A2987 RMK AO2 SLP095 T02781083 10283 20228 56024","lat":36.0719,"lon":-115.1634,"elev":662,"name":"Las Vegas/Reid Intl, NV, US","cover":"SCT","clouds":[{"cover":"FEW","base":20000},{"cover":"SCT","base":25000}],"fltCat":"VFR"},{"icaoId":"KRTS","receiptTime":"2026-04-16T00:01:21.820Z","obsTime":1776297300,"reportTime":"2026-04-16T00:00:00.000Z","temp":14,"dewp":-4,"wdir":250,"wspd":13,"wgst":35,"visib":"10+","altim":1014.3,"qcField":6,"metarType":"METAR","rawOb":"METAR KRTS 152355Z AUTO 25013G35KT 10SM CLR 14/M04 A2995 RMK AO2","lat":39.6658,"lon":-119.8731,"elev":1537,"name":"Reno/Stead Arpt, NV, US","cover":"CLR","clouds":[],"fltCat":"VFR"},{"icaoId":"KHII","receiptTime":"2026-04-16T00:01:18.631Z","obsTime":1776297300,"reportTime":"2026-04-16T00:00:00.000Z","temp":29,"dewp":-5,"wdir":"VRB","wspd":5,"visib":"10+","altim":1010.9,"qcField":6,"metarType":"METAR","rawOb":"METAR KHII 152355Z AUTO VRB05KT 10SM CLR 29/M05 A2985 RMK AO2","lat":34.5659,"lon":-114.3522,"elev":241,"name":"Lake Havasu City Arpt, AZ, US","cover":"CLR","clouds":[],"fltCat":"VFR"},{"icaoId":"KGPI","receiptTime":"2026-04-15T23:58:31.546Z","obsTime":1776297300,"reportTime":"2026-04-16T00:00:00.000Z","temp":6.7,"dewp":0.6,"wdir":260,"wspd":5,"visib":"10+","altim":1001.8,"slp":1002.6,"qcField":4,"presTend":0.3,"maxT":8.3,"minT":5.6,"precip":0.005,"pcp6hr":0.16,"metarType":"METAR","rawOb":"METAR KGPI 152355Z 26005KT 10SM BKN070 07/01 A2958 RMK AO2 RAB11E24 SLP026 P0000 60016 T00670006 10083 20056 53003","lat":48.3041,"lon":-114.2643,"elev":903,"name":"Kalispell/Glacier Park Intl, MT, US","cover":"BKN","clouds":[{"cover":"BKN","base":7000}],"fltCat":"VFR"},{"icaoId":"KRNO","receiptTime":"2026-04-15T23:58:27.163Z","obsTime":1776297300,"reportTime":"2026-04-16T00:00:00.000Z","temp":16.7,"dewp":-3.9,"wdir":230,"wspd":10,"wgst":23,"visib":"10+","altim":1013.6,"slp":1011.4,"qcField":4,"presTend":-1,"maxT":17.2,"minT":11.7,"metarType":"METAR","rawOb":"METAR KRNO 152355Z 23010G23KT 200V280 10SM FEW075 SCT120 BKN200 17/M04 A2993 RMK AO2 PK WND 27034/2340 SLP114 ACSL ALQDS T01671039 10172 20117 56010","lat":39.5077,"lon":-119.7683,"elev":1344,"name":"Reno/Tahoe Intl, NV, US","cover":"BKN","clouds":[{"cover":"FEW","base":7500},{"cover":"SCT","base":12000},{"cover":"BKN","base":20000}],"fltCat":"VFR"},{"icaoId":"KHAF","receiptTime":"2026-04-15T23:58:23.187Z","obsTime":1776297300,"reportTime":"2026-04-16T00:00:00.000Z","temp":15,"dewp":12,"wdir":320,"wspd":11,"wgst":17,"visib":9,"altim":1019.4,"qcField":6,"metarType":"METAR","rawOb":"METAR KHAF 152355Z AUTO 32011G17KT 9SM FEW019 15/12 A3010 RMK AO2","lat":37.5136,"lon":-122.4996,"elev":11,"name":"Half Moon Bay Arpt, CA, US","cover":"FEW","clouds":[{"cover":"FEW","base":1900}],"fltCat":"VFR"},{"icaoId":"KHCR","receiptTime":"2026-04-15T23:58:23.239Z","obsTime":1776297300,"reportTime":"2026-04-16T00:00:00.000Z","temp":15.3,"dewp":-4.8,"wdir":190,"wspd":5,"visib":"10+","altim":1011.3,"qcField":14,"presTend":-1.8,"maxT":17.6,"minT":13.6,"metarType":"METAR","rawOb":"METAR KHCR 152355Z AUTO 19005KT 10SM BKN080 15/M05 A2986 RMK AO2 PK WND 25033/2301 WSHFT 2303 T01531048 10176 20136 56018 $","lat":40.4774,"lon":-111.4329,"elev":1708,"name":"Heber City Muni, UT, US","cover":"BKN","clouds":[{"cover":"BKN","base":8000}],"fltCat":"VFR"},{"icaoId":"KBJC","receiptTime":"2026-04-15T23:58:41.205Z","obsTime":1776297300,"reportTime":"2026-04-16T00:00:00.000Z","temp":18,"dewp":-8,"wdir":260,"wspd":15,"wgst":24,"visib":"10+","altim":1011.6,"qcField":0,"metarType":"METAR","rawOb":"METAR KBJC 152355Z 26015G24KT 10SM CLR 18/M08 A2987","lat":39.9008,"lon":-105.1042,"elev":1694,"name":"Rocky Mtn Metro, CO, US","cover":"CLR","clouds":[],"fltCat":"VFR"},{"icaoId":"KCXP","receiptTime":"2026-04-16T00:01:23.188Z","obsTime":1776297300,"reportTime":"2026-04-16T00:00:00.000Z","temp":15,"dewp":-1,"wdir":240,"wspd":12,"wgst":21,"visib":"10+","altim":1015.7,"qcField":6,"metarType":"METAR","rawOb":"METAR KCXP 152355Z AUTO 24012G21KT 200V260 10SM CLR 15/M01 A2999 RMK AO2","lat":39.1905,"lon":-119.7319,"elev":1431,"name":"Carson City Arpt, NV, US","cover":"CLR","clouds":[],"fltCat":"VFR"},{"icaoId":"KLUF","receiptTime":"2026-04-16T00:08:06.085Z","obsTime":1776297300,"reportTime":"2026-04-16T00:00:00.000Z","temp":29.2,"dewp":-8.5,"wdir":210,"wspd":6,"visib":"10+","altim":1011.3,"slp":1010.3,"qcField":14,"presTend":-2.2,"maxT":29.8,"minT":24.9,"metarType":"METAR","rawOb":"METAR KLUF 152355Z AUTO 21006KT 10SM CLR 29/M08 A2986 RMK AO2 SLP103 T02921085 10298 20249 57022 $","lat":33.538,"lon":-112.38,"elev":333,"name":"Phoenix/Luke AFB, AZ, US","cover":"CLR","clouds":[],"fltCat":"VFR"},{"icaoId":"KAST","receiptTime":"2026-04-15T23:58:31.198Z","obsTime":1776297300,"reportTime":"2026-04-16T00:00:00.000Z","temp":6.7,"dewp":1.7,"wdir":230,"wspd":4,"visib":"10+","altim":1015.3,"slp":1015.2,"qcField":6,"wxString":"-RA","presTend":0.8,"maxT":8.9,"minT":5,"precip":0.005,"pcp6hr":0.09,"metarType":"METAR","rawOb":"METAR KAST 152355Z AUTO 23004KT 10SM -RA FEW025 BKN049 OVC060 07/02 A2998 RMK AO2 RAB44 SLP152 P0000 60009 T00670017 10089 20050 51008","lat":46.157,"lon":-123.8833,"elev":3,"name":"Astoria Rgnl, OR, US","cover":"OVC","clouds":[{"cover":"FEW","base":2500},{"cover":"BKN","base":4900},{"cover":"OVC","base":6000}],"fltCat":"VFR"},{"icaoId":"KHTH","receiptTime":"2026-04-16T00:01:19.128Z","obsTime":1776297300,"reportTime":"2026-04-16T00:00:00.000Z","temp":20,"dewp":-6,"wdir":270,"wspd":13,"visib":"10+","altim":1013,"qcField":6,"metarType":"METAR","rawOb":"METAR KHTH 152355Z AUTO 27013KT 10SM CLR 20/M06 A2991 RMK A01","lat":38.5448,"lon":-118.6314,"elev":1281,"name":"Hawthorne Muni, NV, US","cover":"CLR","clouds":[],"fltCat":"VFR"},{"icaoId":"KMEV","receiptTime":"2026-04-16T00:01:16.117Z","obsTime":1776297300,"reportTime":"2026-04-16T00:00:00.000Z","temp":14,"dewp":-2,"wdir":250,"wspd":15,"wgst":25,"visib":"10+","altim":1015,"qcField":6,"metarType":"METAR","rawOb":"METAR KMEV 152355Z AUTO 25015G25KT 10SM CLR 14/M02 A2997 RMK AO2","lat":38.9963,"lon":-119.75,"elev":1437,"name":"Minden-Tahoe Arpt, NV, US","cover":"CLR","clouds":[],"fltCat":"VFR"},{"icaoId":"KBVU","receiptTime":"2026-04-15T23:56:17.482Z","obsTime":1776297300,"reportTime":"2026-04-16T00:00:00.000Z","temp":27,"dewp":-8,"wdir":160,"wspd":14,"wgst":19,"visib":"10+","altim":1010.9,"qcField":6,"metarType":"METAR","rawOb":"METAR KBVU 152355Z AUTO 16014G19KT 10SM CLR 27/M08 A2985 RMK AO2","lat":35.9489,"lon":-114.8633,"elev":654,"name":"Boulder City Muni, NV, US","cover":"CLR","clouds":[],"fltCat":"VFR"},{"icaoId":"KSOW","receiptTime":"2026-04-15T23:58:20.782Z","obsTime":1776297300,"reportTime":"2026-04-16T00:00:00.000Z","temp":18,"dewp":-8,"wdir":"VRB","wspd":4,"visib":"10+","altim":1018.7,"qcField":6,"metarType":"METAR","rawOb":"METAR KSOW 152355Z AUTO VRB04KT 10SM BKN095 18/M08 A3008 RMK AO2","lat":34.2686,"lon":-110.0019,"elev":1954,"name":"Show Low Muni, AZ, US","cover":"BKN","clouds":[{"cover":"BKN","base":9500}],"fltCat":"VFR"},{"icaoId":"KSEZ","receiptTime":"2026-04-16T00:01:22.646Z","obsTime":1776297300,"reportTime":"2026-04-16T00:00:00.000Z","temp":21,"dewp":-6,"wdir":"VRB","wspd":4,"wgst":10,"visib":"10+","altim":1016.3,"qcField":6,"metarType":"METAR","rawOb":"METAR KSEZ 152355Z AUTO VRB04G10KT 10SM CLR 21/M06 A3001 RMK AO2","lat":34.8467,"lon":-111.7884,"elev":1455,"name":"Sedona Arpt, AZ, US","cover":"CLR","clouds":[],"fltCat":"VFR"},{"icaoId":"KMHR","receiptTime":"2026-04-16T00:01:16.204Z","obsTime":1776297300,"reportTime":"2026-04-16T00:00:00.000Z","temp":21,"dewp":7,"wdir":200,"wspd":12,"wgst":18,"visib":"10+","altim":1015.3,"qcField":6,"metarType":"METAR","rawOb":"METAR KMHR 152355Z AUTO 20012G18KT 10SM CLR 21/07 A2998 RMK AO2","lat":38.56,"lon":-121.284,"elev":30,"name":"Sacramento/Mather Fld, CA, US","cover":"CLR","clouds":[],"fltCat":"VFR"},{"icaoId":"KCMA","receiptTime":"2026-04-15T23:58:31.340Z","obsTime":1776297300,"reportTime":"2026-04-16T00:00:00.000Z","temp":20,"dewp":10.6,"wdir":270,"wspd":10,"visib":"10+","altim":1015.3,"slp":1016.1,"qcField":4,"presTend":-1.5,"maxT":21.1,"minT":19.4,"metarType":"METAR","rawOb":"METAR KCMA 152355Z 27010KT 10SM CLR 20/11 A2998 RMK AO2 SLP161 T02000106 10211 20194 56015","lat":34.2114,"lon":-119.0876,"elev":20,"name":"Camarillo Arpt, CA, US","cover":"CLR","clouds":[],"fltCat":"VFR"},{"icaoId":"KGSO","receiptTime":"2026-04-15T23:58:11.306Z","obsTime":1776297240,"reportTime":"2026-04-16T00:00:00.000Z","temp":26.7,"dewp":7.2,"wdir":220,"wspd":7,"visib":"10+","altim":1016.7,"slp":1015.5,"qcField":4,"presTend":-0.1,"maxT":31.7,"minT":26.1,"metarType":"METAR","rawOb":"METAR KGSO 152354Z 22007KT 10SM BKN250 27/07 A3002 RMK AO2 SLP155 T02670072 10317 20261 55001","lat":36.0969,"lon":-79.9432,"elev":275,"name":"Greensboro Intl, NC, US","cover":"BKN","clouds":[{"cover":"BKN","base":25000}],"fltCat":"VFR"},{"icaoId":"KOLM","receiptTime":"2026-04-15T23:58:18.881Z","obsTime":1776297240,"reportTime":"2026-04-16T00:00:00.000Z","temp":8.3,"dewp":1.1,"wdir":280,"wspd":11,"wgst":19,"visib":"10+","altim":1012.6,"slp":1012.7,"qcField":4,"presTend":0.8,"maxT":9.4,"minT":5,"pcp6hr":0.005,"metarType":"METAR","rawOb":"METAR KOLM 152354Z 28011G19KT 10SM FEW027 BKN033 BKN040 08/01 A2990 RMK AO2 SLP127 60000 T00830011 10094 20050 53008","lat":46.9737,"lon":-122.9049,"elev":58,"name":"Olympia Rgnl, WA, US","cover":"BKN","clouds":[{"cover":"FEW","base":2700},{"cover":"BKN","base":3300},{"cover":"BKN","base":4000}],"fltCat":"VFR"},{"icaoId":"KIND","receiptTime":"2026-04-15T23:58:11.007Z","obsTime":1776297240,"reportTime":"2026-04-16T00:00:00.000Z","temp":19.4,"dewp":17.8,"wdir":230,"wspd":5,"visib":"10+","altim":1013.3,"slp":1012.7,"qcField":4,"wxString":"-RA","presTend":0.4,"maxT":26.7,"minT":19.4,"precip":0.03,"pcp6hr":0.03,"metarType":"METAR","rawOb":"METAR KIND 152354Z 23005KT 10SM -RA FEW060 BKN100 OVC130 19/18 A2992 RMK AO2 SLP127 P0003 60003 T01940178 10267 20194 53004","lat":39.7252,"lon":-86.2816,"elev":242,"name":"Indianapolis Intl, IN, US","cover":"OVC","clouds":[{"cover":"FEW","base":6000},{"cover":"BKN","base":10000},{"cover":"OVC","base":13000}],"fltCat":"VFR"},{"icaoId":"KSLC","receiptTime":"2026-04-15T23:58:19.112Z","obsTime":1776297240,"reportTime":"2026-04-16T00:00:00.000Z","temp":19.4,"dewp":-4.4,"wdir":170,"wspd":3,"visib":"10+","altim":1008.9,"slp":1005.8,"qcField":4,"presTend":-2.4,"maxT":19.4,"minT":16.1,"metarType":"METAR","rawOb":"METAR KSLC 152354Z 17003KT 10SM FEW090 SCT110 BKN150 BKN220 19/M04 A2979 RMK AO2 SLP058 VIRGA T01941044 10194 20161 58024","lat":40.7707,"lon":-111.965,"elev":1286,"name":"Salt Lake City Intl, UT, US","cover":"BKN","clouds":[{"cover":"FEW","base":9000},{"cover":"SCT","base":11000},{"cover":"BKN","base":15000},{"cover":"BKN","base":22000}],"fltCat":"VFR"},{"icaoId":"KGCN","receiptTime":"2026-04-15T23:58:09.603Z","obsTime":1776297240,"reportTime":"2026-04-16T00:00:00.000Z","temp":16.1,"dewp":-9.4,"wdir":250,"wspd":8,"wgst":19,"visib":"10+","altim":1018.4,"slp":1014.8,"qcField":4,"presTend":-1.6,"maxT":17.2,"minT":11.1,"metarType":"METAR","rawOb":"METAR KGCN 152354Z 25008G19KT 10SM CLR 16/M09 A3007 RMK AO2 SLP148 T01611094 10172 20111 56016","lat":35.9458,"lon":-112.1554,"elev":1993,"name":"Grand Canyon Park Arpt, AZ, US","cover":"CLR","clouds":[],"fltCat":"VFR"},{"icaoId":"KEUG","receiptTime":"2026-04-15T23:58:09.477Z","obsTime":1776297240,"reportTime":"2026-04-16T00:00:00.000Z","temp":7.8,"dewp":4.4,"wdir":230,"wspd":9,"visib":"10+","altim":1018.4,"slp":1018.3,"qcField":12,"presTend":1.4,"maxT":11.1,"minT":5,"precip":0.05,"pcp6hr":0.07,"metarType":"METAR","rawOb":"METAR KEUG 152354Z 23009KT 10SM SCT040 SCT090 BKN110 08/04 A3007 RMK AO2 PK WND 28033/2302 WSHFT 2247 RAB02E29 SLP183 CB DSNT E P0005 60007 T00780044 10111 20050 51014 $","lat":44.1331,"lon":-123.2156,"elev":109,"name":"Eugene/Mahlon Sweet Fld, OR, US","cover":"BKN","clouds":[{"cover":"SCT","base":4000},{"cover":"SCT","base":9000},{"cover":"BKN","base":11000}],"fltCat":"VFR"},{"icaoId":"KPHL","receiptTime":"2026-04-15T23:58:18.931Z","obsTime":1776297240,"reportTime":"2026-04-16T00:00:00.000Z","temp":28.9,"dewp":13.9,"wdir":210,"wspd":8,"visib":"10+","altim":1011.6,"slp":1011.4,"qcField":12,"presTend":0.1,"maxT":32.8,"minT":28.9,"metarType":"METAR","rawOb":"METAR KPHL 152354Z 21008KT 10SM FEW120 SCT200 BKN280 29/14 A2987 RMK AO2 SLP114 T02890139 10328 20289 50001 $","lat":39.8733,"lon":-75.2268,"elev":2,"name":"Philadelphia Intl, PA, US","cover":"BKN","clouds":[{"cover":"FEW","base":12000},{"cover":"SCT","base":20000},{"cover":"BKN","base":28000}],"fltCat":"VFR"},{"icaoId":"KMEM","receiptTime":"2026-04-15T23:58:18.753Z","obsTime":1776297240,"reportTime":"2026-04-16T00:00:00.000Z","temp":26.1,"dewp":11.7,"wdir":170,"wspd":12,"visib":"10+","altim":1014.3,"slp":1013.9,"qcField":4,"presTend":-0.9,"maxT":28.3,"minT":26.1,"metarType":"METAR","rawOb":"METAR KMEM 152354Z 17012KT 10SM BKN250 26/12 A2995 RMK AO2 SLP139 T02610117 10283 20261 57009","lat":35.0564,"lon":-89.9864,"elev":78,"name":"Memphis Intl, TN, US","cover":"BKN","clouds":[{"cover":"BKN","base":25000}],"fltCat":"VFR"},{"icaoId":"KBFL","receiptTime":"2026-04-15T23:58:09.276Z","obsTime":1776297240,"reportTime":"2026-04-16T00:00:00.000Z","temp":23.9,"dewp":7.2,"wdir":320,"wspd":4,"visib":"10+","altim":1014.6,"slp":1014.2,"qcField":4,"presTend":-2.3,"maxT":24.4,"minT":17.8,"metarType":"METAR","rawOb":"METAR KBFL 152354Z 32004KT 10SM CLR 24/07 A2996 RMK AO2 SLP142 T02390072 10244 20178 56023","lat":35.4342,"lon":-119.0552,"elev":146,"name":"Bakersfield/Meadows Arpt, CA, US","cover":"CLR","clouds":[],"fltCat":"VFR"},{"icaoId":"KFFZ","receiptTime":"2026-04-15T23:58:09.539Z","obsTime":1776297240,"reportTime":"2026-04-16T00:00:00.000Z","temp":28.3,"dewp":-5,"wdir":230,"wspd":8,"visib":"10+","altim":1012.3,"slp":1010.1,"qcField":6,"presTend":-2,"maxT":28.3,"minT":23.3,"metarType":"METAR","rawOb":"METAR KFFZ 152354Z AUTO 23008KT 10SM CLR 28/M05 A2989 RMK AO2 SLP101 T02831050 10283 20233 56020","lat":33.4659,"lon":-111.7212,"elev":420,"name":"Mesa/Falcon Fld, AZ, US","cover":"CLR","clouds":[],"fltCat":"VFR"},{"icaoId":"KAPC","receiptTime":"2026-04-15T23:58:09.242Z","obsTime":1776297240,"reportTime":"2026-04-16T00:00:00.000Z","temp":17.2,"dewp":10,"wdir":270,"wspd":16,"visib":"10+","altim":1017,"slp":1016.2,"qcField":4,"presTend":-1.3,"maxT":18.9,"minT":14.4,"metarType":"METAR","rawOb":"METAR KAPC 152354Z 27016KT 10SM CLR 17/10 A3003 RMK AO2 SLP162 T01720100 10189 20144 56013","lat":38.2075,"lon":-122.2804,"elev":5,"name":"Napa Cnty Arpt, CA, US","cover":"CLR","clouds":[],"fltCat":"VFR"},{"icaoId":"KRKS","receiptTime":"2026-04-15T23:58:19.021Z","obsTime":1776297240,"reportTime":"2026-04-16T00:00:00.000Z","temp":13.3,"dewp":-5.6,"wdir":250,"wspd":15,"wgst":28,"visib":"10+","altim":1011.6,"slp":1008.1,"qcField":6,"presTend":-0.7,"maxT":15.6,"minT":11.1,"metarType":"METAR","rawOb":"METAR KRKS 152354Z AUTO 25015G28KT 10SM BKN080 OVC095 13/M06 A2987 RMK AO2 PK WND 26032/2325 SLP081 T01331056 10156 20111 56007","lat":41.5947,"lon":-109.0529,"elev":2062,"name":"Rock Springs/SW Wyoming Rgnl, WY, US","cover":"OVC","clouds":[{"cover":"BKN","base":8000},{"cover":"OVC","base":9500}],"fltCat":"VFR"},{"icaoId":"KSYR","receiptTime":"2026-04-15T23:58:08.036Z","obsTime":1776297240,"reportTime":"2026-04-16T00:00:00.000Z","temp":17.8,"dewp":13.3,"wdir":20,"wspd":6,"visib":"10+","altim":1011.6,"slp":1011,"qcField":4,"presTend":0.6,"maxT":25.6,"minT":17.8,"metarType":"METAR","rawOb":"METAR KSYR 152354Z 02006KT 10SM SCT110 BKN230 18/13 A2987 RMK AO2 SLP110 T01780133 10256 20178 51006","lat":43.1111,"lon":-76.1038,"elev":125,"name":"Syracuse/Hancock Intl, NY, US","cover":"BKN","clouds":[{"cover":"SCT","base":11000},{"cover":"BKN","base":23000}],"fltCat":"VFR"},{"icaoId":"KRIC","receiptTime":"2026-04-15T23:58:07.912Z","obsTime":1776297240,"reportTime":"2026-04-16T00:00:00.000Z","temp":25,"dewp":12.8,"wdir":200,"wspd":7,"visib":"10+","altim":1014,"slp":1014.1,"qcField":4,"presTend":0.1,"maxT":33.9,"minT":25,"metarType":"METAR","rawOb":"METAR KRIC 152354Z 20007KT 10SM BKN250 25/13 A2994 RMK AO2 SLP141 T02500128 10339 20250 50001","lat":37.5115,"lon":-77.3234,"elev":51,"name":"Richmond Intl, VA, US","cover":"BKN","clouds":[{"cover":"BKN","base":25000}],"fltCat":"VFR"},{"icaoId":"KDSM","receiptTime":"2026-04-15T23:58:10.929Z","obsTime":1776297240,"reportTime":"2026-04-16T00:00:00.000Z","temp":18.9,"dewp":13.9,"wdir":0,"wspd":0,"visib":"10+","altim":1004.5,"slp":1003.9,"qcField":4,"presTend":0.7,"maxT":26.1,"minT":16.7,"pcp6hr":0.38,"metarType":"METAR","rawOb":"METAR KDSM 152354Z 00000KT 10SM SCT044 SCT058 SCT100 19/14 A2966 RMK AO2 SLP039 OCNL LTGICCG DSNT NE-SE AND N CB DSNT NE-SE AND N MOV NE TCU DSNT W-NW 60038 T01890139 10261 20167 51007","lat":41.5339,"lon":-93.6531,"elev":286,"name":"Des Moines Intl, IA, US","cover":"SCT","clouds":[{"cover":"SCT","base":4400},{"cover":"SCT","base":5800},{"cover":"SCT","base":10000}],"fltCat":"VFR"},{"icaoId":"KBOS","receiptTime":"2026-04-15T23:58:11.171Z","obsTime":1776297240,"reportTime":"2026-04-16T00:00:00.000Z","temp":8.3,"dewp":7.2,"wdir":30,"wspd":9,"visib":1,"altim":1013.3,"slp":1012.9,"qcField":12,"wxString":"BR","presTend":0.4,"maxT":11.1,"minT":8.3,"metarType":"METAR","rawOb":"METAR KBOS 152354Z 03009KT 1SM R04R/P6000FT BR FEW001 OVC003 08/07 A2992 RMK AO2 SLP129 VIS E-SE 1 1/2 T00830072 10111 20083 53004 $","lat":42.3606,"lon":-71.0097,"elev":4,"name":"Boston/Logan Intl, MA, US","cover":"OVC","clouds":[{"cover":"FEW","base":100},{"cover":"OVC","base":300}],"fltCat":"LIFR"},{"icaoId":"KBTV","receiptTime":"2026-04-15T23:58:11.189Z","obsTime":1776297240,"reportTime":"2026-04-16T00:00:00.000Z","temp":10.6,"dewp":9.4,"wdir":360,"wspd":3,"visib":3,"altim":1012.3,"slp":1012.4,"qcField":4,"wxString":"BR","presTend":1.5,"maxT":11.7,"minT":10,"pcp6hr":0.005,"metarType":"METAR","rawOb":"METAR KBTV 152354Z 36003KT 3SM BR FEW004 OVC037 11/09 A2989 RMK AO2 SLP124 60000 T01060094 10117 20100 51015","lat":44.4682,"lon":-73.1499,"elev":101,"name":"Burlington Intl, VT, US","cover":"OVC","clouds":[{"cover":"FEW","base":400},{"cover":"OVC","base":3700}],"fltCat":"MVFR"},{"icaoId":"KBWI","receiptTime":"2026-04-15T23:58:11.225Z","obsTime":1776297240,"reportTime":"2026-04-16T00:00:00.000Z","temp":27.2,"dewp":15.6,"wdir":130,"wspd":7,"visib":"10+","altim":1011.9,"slp":1011.5,"qcField":4,"presTend":-0.1,"maxT":32.8,"minT":27.2,"metarType":"METAR","rawOb":"METAR KBWI 152354Z 13007KT 10SM FEW075 BKN250 27/16 A2988 RMK AO2 SLP115 T02720156 10328 20272 57001","lat":39.1733,"lon":-76.684,"elev":42,"name":"Baltimore-Washington Intl, MD, US","cover":"BKN","clouds":[{"cover":"FEW","base":7500},{"cover":"BKN","base":25000}],"fltCat":"VFR"},{"icaoId":"KSJN","receiptTime":"2026-04-15T23:58:19.093Z","obsTime":1776297240,"reportTime":"2026-04-16T00:00:00.000Z","temp":17.8,"dewp":-10,"wdir":340,"wspd":11,"visib":"10+","altim":1017.4,"slp":1012.6,"qcField":6,"presTend":-1.6,"maxT":18.3,"minT":12.8,"metarType":"METAR","rawOb":"METAR KSJN 152354Z AUTO 34011KT 10SM CLR 18/M10 A3004 RMK AO2 SLP126 T01781100 10183 20128 56016","lat":34.5184,"lon":-109.3801,"elev":1747,"name":"St Johns Ind Arpt, AZ, US","cover":"CLR","clouds":[],"fltCat":"VFR"},{"icaoId":"KCOS","receiptTime":"2026-04-15T23:58:10.876Z","obsTime":1776297240,"reportTime":"2026-04-16T00:00:00.000Z","temp":18.3,"dewp":-12.2,"wdir":160,"wspd":8,"visib":"10+","altim":1011.6,"slp":1007.5,"qcField":4,"presTend":-0.9,"maxT":18.3,"minT":13.3,"metarType":"METAR","rawOb":"METAR KCOS 152354Z 16008KT 130V210 10SM FEW090 18/M12 A2987 RMK AO2 SLP075 T01831122 10183 20133 56009","lat":38.8095,"lon":-104.6887,"elev":1886,"name":"Colorado Spring Arpt, CO, US","cover":"FEW","clouds":[{"cover":"FEW","base":9000}],"fltCat":"VFR"},{"icaoId":"KOLS","receiptTime":"2026-04-15T23:58:18.896Z","obsTime":1776297240,"reportTime":"2026-04-16T00:00:00.000Z","temp":25.6,"dewp":-13.3,"wdir":180,"wspd":5,"visib":"10+","altim":1015.3,"slp":1010.7,"qcField":6,"presTend":-1.8,"maxT":26.1,"minT":20.6,"metarType":"METAR","rawOb":"METAR KOLS 152354Z AUTO 18005KT 10SM CLR 26/M13 A2998 RMK AO2 SLP107 T02561133 10261 20206 56018","lat":31.4208,"lon":-110.8465,"elev":1194,"name":"Nogales Intl, AZ, US","cover":"CLR","clouds":[],"fltCat":"VFR"},{"icaoId":"KDLN","receiptTime":"2026-04-15T23:56:31.063Z","obsTime":1776297180,"reportTime":"2026-04-16T00:00:00.000Z","temp":12.2,"dewp":-2.2,"wdir":"VRB","wspd":6,"visib":"10+","altim":1000.8,"slp":998.4,"qcField":6,"presTend":-1.2,"maxT":13.9,"minT":8.9,"pcp6hr":0.005,"metarType":"METAR","rawOb":"METAR KDLN 152353Z AUTO VRB06KT 10SM OVC075 12/M02 A2955 RMK AO2 SLP984 60000 T01221022 10139 20089 58012","lat":45.2584,"lon":-112.5546,"elev":1586,"name":"Dillon Arpt, MT, US","cover":"OVC","clouds":[{"cover":"OVC","base":7500}],"fltCat":"VFR"},{"icaoId":"KPRC","receiptTime":"2026-04-15T23:56:23.728Z","obsTime":1776297180,"reportTime":"2026-04-16T00:00:00.000Z","temp":20,"dewp":-6.1,"wdir":240,"wspd":12,"wgst":17,"visib":"10+","altim":1016.7,"slp":1011.7,"qcField":4,"presTend":-1.4,"maxT":20.6,"minT":15.6,"metarType":"METAR","rawOb":"METAR KPRC 152353Z 24012G17KT 10SM CLR 20/M06 A3002 RMK AO2 SLP117 T02001061 10206 20156 56014","lat":34.6491,"lon":-112.4223,"elev":1528,"name":"Prescott/Love Fld, AZ, US","cover":"CLR","clouds":[],"fltCat":"VFR"},{"icaoId":"KPUW","receiptTime":"2026-04-15T23:56:23.833Z","obsTime":1776297180,"reportTime":"2026-04-16T00:00:00.000Z","temp":2.8,"dewp":1.1,"wdir":310,"wspd":10,"wgst":18,"visib":"10+","altim":1006.5,"slp":1007.6,"qcField":6,"presTend":1.6,"maxT":6.7,"minT":2.8,"pcp6hr":0.19,"metarType":"METAR","rawOb":"METAR KPUW 152353Z AUTO 31010G18KT 10SM FEW039 BKN045 OVC055 03/01 A2972 RMK AO2 PK WND 24026/2315 SLP076 60019 T00280011 10067 20028 53016","lat":46.7438,"lon":-117.1158,"elev":774,"name":"Pullman/Moscow Rgnl, WA, US","cover":"OVC","clouds":[{"cover":"FEW","base":3900},{"cover":"BKN","base":4500},{"cover":"OVC","base":5500}],"fltCat":"VFR"},{"icaoId":"KMCO","receiptTime":"2026-04-15T23:56:25.163Z","obsTime":1776297180,"reportTime":"2026-04-16T00:00:00.000Z","temp":23.3,"dewp":14.4,"wdir":100,"wspd":11,"visib":"10+","altim":1020.7,"slp":1020.3,"qcField":4,"presTend":0.4,"maxT":28.9,"minT":23.3,"metarType":"METAR","rawOb":"METAR KMCO 152353Z 10011KT 10SM FEW250 23/14 A3014 RMK AO2 SLP203 T02330144 10289 20233 52004","lat":28.4182,"lon":-81.3241,"elev":27,"name":"Orlando Intl, FL, US","cover":"FEW","clouds":[{"cover":"FEW","base":25000}],"fltCat":"VFR"},{"icaoId":"KPDX","receiptTime":"2026-04-15T23:56:25.477Z","obsTime":1776297180,"reportTime":"2026-04-16T00:00:00.000Z","temp":7.8,"dewp":2.2,"wdir":320,"wspd":18,"wgst":27,"visib":"10+","altim":1015.7,"slp":1015.6,"qcField":4,"wxString":"-RA","presTend":2,"maxT":10.6,"minT":6.1,"precip":0.005,"pcp6hr":0.02,"metarType":"METAR","rawOb":"METAR KPDX 152353Z 32018G27KT 10SM -RA SCT036 BKN050 OVC095 08/02 A2999 RMK AO2 PK WND 32031/2333 WSHFT 2330 RAE2257B47 SLP156 P0000 60002 T00780022 10106 20061 53020","lat":45.5958,"lon":-122.6092,"elev":7,"name":"Portland Intl, OR, US","cover":"OVC","clouds":[{"cover":"SCT","base":3600},{"cover":"BKN","base":5000},{"cover":"OVC","base":9500}],"fltCat":"VFR"},{"icaoId":"KVEL","receiptTime":"2026-04-15T23:56:27.219Z","obsTime":1776297180,"reportTime":"2026-04-16T00:00:00.000Z","temp":16.1,"dewp":-2.2,"wdir":190,"wspd":15,"wgst":20,"visib":"10+","altim":1011.6,"slp":1009.6,"qcField":6,"presTend":-2,"maxT":17.8,"minT":11.1,"metarType":"METAR","rawOb":"METAR KVEL 152353Z AUTO 19015G20KT 10SM OVC080 16/M02 A2987 RMK AO2 SLP096 T01611022 10178 20111 56020","lat":40.4429,"lon":-109.5128,"elev":1604,"name":"Vernal Rgnl, UT, US","cover":"OVC","clouds":[{"cover":"OVC","base":8000}],"fltCat":"VFR"},{"icaoId":"KVGT","receiptTime":"2026-04-15T23:56:27.234Z","obsTime":1776297180,"reportTime":"2026-04-16T00:00:00.000Z","temp":27.2,"dewp":-8.3,"wdir":180,"wspd":14,"wgst":21,"visib":"10+","altim":1010.6,"slp":1010.7,"qcField":4,"presTend":-2.8,"maxT":27.8,"minT":21.1,"metarType":"METAR","rawOb":"METAR KVGT 152353Z 18014G21KT 10SM CLR 27/M08 A2984 RMK AO2 SLP107 T02721083 10278 20211 56028","lat":36.212,"lon":-115.194,"elev":664,"name":"Las Vegas/North Arpt, NV, US","cover":"CLR","clouds":[],"fltCat":"VFR"},{"icaoId":"KTWF","receiptTime":"2026-04-15T23:56:28.882Z","obsTime":1776297180,"reportTime":"2026-04-16T00:00:00.000Z","temp":11.7,"dewp":6.7,"wdir":170,"wspd":5,"visib":"10+","altim":1007.5,"slp":1004.7,"qcField":4,"presTend":-3.6,"maxT":11.7,"minT":8.9,"precip":0.005,"pcp6hr":0.1,"metarType":"METAR","rawOb":"METAR KTWF 152353Z 17005KT 10SM BKN110 12/07 A2975 RMK AO2 RAB00E10 SLP047 P0000 60010 T01170067 10117 20089 58036","lat":42.4785,"lon":-114.4775,"elev":1269,"name":"Twin Falls/Joslin Fld, ID, US","cover":"BKN","clouds":[{"cover":"BKN","base":11000}],"fltCat":"VFR"},{"icaoId":"KCNM","receiptTime":"2026-04-15T23:56:29.515Z","obsTime":1776297180,"reportTime":"2026-04-16T00:00:00.000Z","temp":27.2,"dewp":-8.9,"wdir":260,"wspd":16,"wgst":24,"visib":"10+","altim":1013,"slp":1008.3,"qcField":6,"presTend":-0.7,"maxT":29.4,"minT":23.3,"metarType":"METAR","rawOb":"METAR KCNM 152353Z AUTO 26016G24KT 10SM CLR 27/M09 A2991 RMK AO2 PK WND 26027/2321 SLP083 T02721089 10294 20233 55007","lat":32.3336,"lon":-104.2584,"elev":993,"name":"Carlsbad/Cavern City Air Term, NM, US","cover":"CLR","clouds":[],"fltCat":"VFR"},{"icaoId":"KMSP","receiptTime":"2026-04-15T23:56:29.785Z","obsTime":1776297180,"reportTime":"2026-04-16T00:00:00.000Z","temp":19.4,"dewp":5,"wdir":70,"wspd":5,"visib":"10+","altim":1005.5,"slp":1005.6,"qcField":4,"presTend":-0.7,"maxT":20,"minT":16.7,"metarType":"METAR","rawOb":"METAR KMSP 152353Z 07005KT 10SM FEW170 FEW250 19/05 A2969 RMK AO2 SLP056 T01940050 10200 20167 56007","lat":44.8852,"lon":-93.2313,"elev":255,"name":"Minneapolis-St Paul Intl, MN, US","cover":"FEW","clouds":[{"cover":"FEW","base":17000},{"cover":"FEW","base":25000}],"fltCat":"VFR"},{"icaoId":"KMTJ","receiptTime":"2026-04-15T23:56:29.856Z","obsTime":1776297180,"reportTime":"2026-04-16T00:00:00.000Z","temp":16.1,"dewp":-5.6,"wdir":240,"wspd":7,"visib":"10+","altim":1016.3,"slp":1012.4,"qcField":6,"presTend":-1.3,"maxT":17.2,"minT":12.2,"metarType":"METAR","rawOb":"METAR KMTJ 152353Z AUTO 24007KT 210V270 10SM SCT085 16/M06 A3001 RMK AO2 SLP124 T01611056 10172 20122 56013","lat":38.5054,"lon":-107.8981,"elev":1755,"name":"Montrose Rgnl, CO, US","cover":"SCT","clouds":[{"cover":"SCT","base":8500}],"fltCat":"VFR"},{"icaoId":"KOGD","receiptTime":"2026-04-15T23:56:30.071Z","obsTime":1776297180,"reportTime":"2026-04-16T00:00:00.000Z","temp":16.7,"dewp":-2.2,"wdir":120,"wspd":9,"visib":"10+","altim":1009.2,"slp":1006.7,"qcField":4,"presTend":-2.5,"maxT":17.8,"minT":15.6,"metarType":"METAR","rawOb":"METAR KOGD 152353Z 12009KT 10SM OVC100 17/M02 A2980 RMK AO2 SLP067 T01671022 10178 20156 58025","lat":41.1941,"lon":-112.0168,"elev":1356,"name":"Ogden/Hinckley Arpt, UT, US","cover":"OVC","clouds":[{"cover":"OVC","base":10000}],"fltCat":"VFR"},{"icaoId":"KONT","receiptTime":"2026-04-15T23:56:30.154Z","obsTime":1776297180,"reportTime":"2026-04-16T00:00:00.000Z","temp":24.4,"dewp":9.4,"wdir":250,"wspd":11,"wgst":18,"visib":"10+","altim":1014.3,"slp":1013.2,"qcField":12,"presTend":-1.6,"maxT":25.6,"minT":20,"metarType":"METAR","rawOb":"METAR KONT 152353Z 25011G18KT 10SM FEW100 FEW250 24/09 A2995 RMK AO2 SLP132 T02440094 10256 20200 56016 $","lat":34.0531,"lon":-117.5769,"elev":279,"name":"Ontario Intl, CA, US","cover":"FEW","clouds":[{"cover":"FEW","base":10000},{"cover":"FEW","base":25000}],"fltCat":"VFR"},{"icaoId":"KCRQ","receiptTime":"2026-04-15T23:56:30.294Z","obsTime":1776297180,"reportTime":"2026-04-16T00:00:00.000Z","temp":18.3,"dewp":11.1,"wdir":270,"wspd":6,"visib":"10+","altim":1015,"slp":1014.7,"qcField":4,"presTend":-1.4,"maxT":20,"minT":18.3,"metarType":"METAR","rawOb":"METAR KCRQ 152353Z 27006KT 10SM CLR 18/11 A2997 RMK AO2 SLP147 T01830111 10200 20183 58014","lat":33.1299,"lon":-117.2765,"elev":96,"name":"Carlsbad/Palomar Arpt, CA, US","cover":"CLR","clouds":[],"fltCat":"VFR"},{"icaoId":"KHLN","receiptTime":"2026-04-15T23:56:30.754Z","obsTime":1776297180,"reportTime":"2026-04-16T00:00:00.000Z","temp":12.2,"dewp":2.8,"wdir":290,"wspd":9,"visib":"10+","altim":999.1,"slp":999.9,"qcField":4,"presTend":-1,"maxT":15.6,"minT":10.6,"metarType":"METAR","rawOb":"METAR KHLN 152353Z 29009KT 10SM CLR 12/03 A2950 RMK AO2 SLP999 T01220028 10156 20106 58010","lat":46.6045,"lon":-111.9892,"elev":1178,"name":"Helena Rgnl, MT, US","cover":"CLR","clouds":[],"fltCat":"VFR"},{"icaoId":"KMDW","receiptTime":"2026-04-15T23:56:30.802Z","obsTime":1776297180,"reportTime":"2026-04-16T00:00:00.000Z","temp":22.8,"dewp":16.1,"wdir":200,"wspd":14,"wgst":23,"visib":"10+","altim":1007.5,"slp":1006.8,"qcField":4,"presTend":-1.7,"maxT":22.8,"minT":19.4,"metarType":"METAR","rawOb":"METAR KMDW 152353Z 20014G23KT 10SM FEW027 SCT033 BKN080 BKN250 23/16 A2975 RMK AO2 PK WND 20028/2339 SLP068 T02280161 10228 20194 56017","lat":41.7841,"lon":-87.7552,"elev":186,"name":"Chicago/Midway Intl, IL, US","cover":"BKN","clouds":[{"cover":"FEW","base":2700},{"cover":"SCT","base":3300},{"cover":"BKN","base":8000},{"cover":"BKN","base":25000}],"fltCat":"VFR"},{"icaoId":"KDFW","receiptTime":"2026-04-15T23:56:30.981Z","obsTime":1776297180,"reportTime":"2026-04-16T00:00:00.000Z","temp":25,"dewp":18.3,"wdir":190,"wspd":15,"wgst":23,"visib":"10+","altim":1011.3,"slp":1010.4,"qcField":4,"wxString":"-RA","presTend":-0.9,"maxT":26.1,"minT":25,"precip":0.005,"pcp6hr":0.005,"metarType":"METAR","rawOb":"METAR KDFW 152353Z 19015G23KT 10SM -RA FEW025 BKN045 OVC150 25/18 A2986 RMK AO2 LTG DSNT NW RAB47 SLP104 P0000 60000 T02500183 10261 20250 56009","lat":32.8974,"lon":-97.022,"elev":168,"name":"Dallas-Ft Worth Intl, TX, US","cover":"OVC","clouds":[{"cover":"FEW","base":2500},{"cover":"BKN","base":4500},{"cover":"OVC","base":15000}],"fltCat":"VFR"},{"icaoId":"KBLI","receiptTime":"2026-04-15T23:56:31.468Z","obsTime":1776297180,"reportTime":"2026-04-16T00:00:00.000Z","temp":8.9,"dewp":-0.6,"wdir":"VRB","wspd":5,"visib":"10+","altim":1010.9,"slp":1011.7,"qcField":4,"presTend":1.4,"maxT":9.4,"minT":7.2,"metarType":"METAR","rawOb":"METAR KBLI 152353Z VRB05KT 10SM CLR 09/M01 A2985 RMK AO2 SLP117 T00891006 10094 20072 53014","lat":48.7991,"lon":-122.5407,"elev":46,"name":"Bellingham Intl, WA, US","cover":"CLR","clouds":[],"fltCat":"VFR"},{"icaoId":"KBNA","receiptTime":"2026-04-15T23:56:31.514Z","obsTime":1776297180,"reportTime":"2026-04-16T00:00:00.000Z","temp":26.7,"dewp":9.4,"wdir":200,"wspd":7,"visib":"10+","altim":1016,"slp":1015.3,"qcField":4,"presTend":-0.2,"maxT":30.6,"minT":26.7,"metarType":"METAR","rawOb":"METAR KBNA 152353Z 20007KT 10SM BKN250 27/09 A3000 RMK AO2 SLP153 T02670094 10306 20267 55002","lat":36.1105,"lon":-86.6881,"elev":168,"name":"Nashville Intl, TN, US","cover":"BKN","clouds":[{"cover":"BKN","base":25000}],"fltCat":"VFR"},{"icaoId":"KBOI","receiptTime":"2026-04-15T23:56:31.550Z","obsTime":1776297180,"reportTime":"2026-04-16T00:00:00.000Z","temp":14.4,"dewp":5.6,"wdir":170,"wspd":18,"wgst":24,"visib":"10+","altim":1005.2,"slp":1004,"qcField":4,"presTend":-2.6,"maxT":14.4,"minT":8.3,"pcp6hr":0.01,"metarType":"METAR","rawOb":"METAR KBOI 152353Z 17018G24KT 10SM CLR 14/06 A2968 RMK AO2 LTG DSNT N AND NW SLP040 60001 T01440056 10144 20083 58026","lat":43.567,"lon":-116.2406,"elev":860,"name":"Boise Arpt, ID, US","cover":"CLR","clouds":[],"fltCat":"VFR"},{"icaoId":"KBTM","receiptTime":"2026-04-15T23:56:31.689Z","obsTime":1776297180,"reportTime":"2026-04-16T00:00:00.000Z","temp":11.1,"dewp":-3.3,"wdir":210,"wspd":19,"wgst":25,"visib":"10+","altim":1001.4,"slp":998.9,"qcField":6,"presTend":-0.9,"maxT":12.2,"minT":8.3,"metarType":"METAR","rawOb":"METAR KBTM 152353Z AUTO 21019G25KT 10SM CLR 11/M03 A2957 RMK AO2 PK WND 23030/2321 SLP989 T01111033 10122 20083 58009","lat":45.9644,"lon":-112.5015,"elev":1680,"name":"Butte/Mooney Arpt, MT, US","cover":"CLR","clouds":[],"fltCat":"VFR"},{"icaoId":"KBFI","receiptTime":"2026-04-15T23:56:32.385Z","obsTime":1776297180,"reportTime":"2026-04-16T00:00:00.000Z","temp":5.6,"dewp":3.3,"wdir":70,"wspd":7,"visib":"10+","altim":1012.3,"slp":1012.1,"qcField":4,"wxString":"-TSRA","presTend":1.3,"maxT":9.4,"minT":5,"precip":0.01,"pcp6hr":0.02,"metarType":"METAR","rawOb":"METAR KBFI 152353Z 07007KT 10SM -TSRA OVC042 06/03 A2989 RMK AO2 TSB13 SLP121 P0001 60002 T00560033 10094 20050 53013","lat":47.5455,"lon":-122.3148,"elev":7,"name":"Seattle/Boeing Fld, WA, US","cover":"OVC","clouds":[{"cover":"OVC","base":4200}],"fltCat":"VFR"},{"icaoId":"KACV","receiptTime":"2026-04-15T23:56:32.877Z","obsTime":1776297180,"reportTime":"2026-04-16T00:00:00.000Z","temp":11.7,"dewp":6.7,"wdir":330,"wspd":11,"visib":"10+","altim":1020.4,"slp":1020.8,"qcField":6,"presTend":1.3,"maxT":12.2,"minT":9.4,"pcp6hr":0.26,"metarType":"METAR","rawOb":"METAR KACV 152353Z AUTO 33011KT 10SM FEW027 OVC038 12/07 A3013 RMK AO2 SLP208 60026 T01170067 10122 20094 51013","lat":40.9784,"lon":-124.1048,"elev":63,"name":"Arcata Arpt, CA, US","cover":"OVC","clouds":[{"cover":"FEW","base":2700},{"cover":"OVC","base":3800}],"fltCat":"VFR"},{"icaoId":"KTUS","receiptTime":"2026-04-15T23:56:35.735Z","obsTime":1776297180,"reportTime":"2026-04-16T00:00:00.000Z","temp":26.7,"dewp":-17.2,"wdir":320,"wspd":4,"visib":"10+","altim":1014.3,"slp":1010.9,"qcField":12,"presTend":-1.9,"maxT":27.2,"minT":21.7,"metarType":"METAR","rawOb":"METAR KTUS 152353Z 32004KT 10SM CLR 27/M17 A2995 RMK AO2 SLP109 T02671172 10272 20217 56019 $","lat":32.1315,"lon":-110.9564,"elev":776,"name":"Tucson Intl Arpt, AZ, US","cover":"CLR","clouds":[],"fltCat":"VFR"},{"icaoId":"PANC","receiptTime":"2026-04-15T23:56:36.018Z","obsTime":1776297180,"reportTime":"2026-04-16T00:00:00.000Z","temp":1.1,"dewp":-1.1,"wdir":110,"wspd":5,"visib":"10+","altim":1012.6,"slp":1012.7,"qcField":4,"presTend":0.7,"maxT":2.2,"minT":0,"precip":0.005,"pcp6hr":0.02,"snow":13000,"metarType":"METAR","rawOb":"METAR PANC 152353Z 11005KT 10SM OVC024 01/M01 A2990 RMK AO2 SNE2257 SLP127 4/013 P0000 60002 T00111011 10022 20000 52007","lat":61.1691,"lon":-150.0277,"elev":39,"name":"Anchorage Intl, AK, US","cover":"OVC","clouds":[{"cover":"OVC","base":2400}],"fltCat":"MVFR"},{"icaoId":"KRTN","receiptTime":"2026-04-15T23:56:36.313Z","obsTime":1776297180,"reportTime":"2026-04-16T00:00:00.000Z","temp":18.3,"dewp":-12.2,"wdir":280,"wspd":11,"visib":"10+","altim":1013.3,"slp":1009.1,"qcField":6,"presTend":-0.7,"maxT":19.4,"minT":14.4,"metarType":"METAR","rawOb":"METAR KRTN 152353Z AUTO 28011KT 10SM CLR 18/M12 A2992 RMK AO2 SLP091 T01831122 10194 20144 55007","lat":36.7418,"lon":-104.5076,"elev":1939,"name":"Raton/Crews Fld, NM, US","cover":"CLR","clouds":[],"fltCat":"VFR"},{"icaoId":"KMYR","receiptTime":"2026-04-15T23:56:17.029Z","obsTime":1776297180,"reportTime":"2026-04-16T00:00:00.000Z","temp":20.6,"dewp":17.2,"wdir":190,"wspd":13,"visib":"10+","altim":1019.4,"slp":1019.1,"qcField":12,"presTend":-0.1,"maxT":24.4,"minT":20.6,"metarType":"METAR","rawOb":"METAR KMYR 152353Z 19013KT 10SM CLR 21/17 A3010 RMK AO2 SLP191 T02060172 10244 20206 58001 $","lat":33.6769,"lon":-78.9325,"elev":7,"name":"Myrtle Beach Intl, SC, US","cover":"CLR","clouds":[],"fltCat":"VFR"},{"icaoId":"KCPR","receiptTime":"2026-04-15T23:56:29.581Z","obsTime":1776297180,"reportTime":"2026-04-16T00:00:00.000Z","temp":17.2,"dewp":-6.1,"wdir":250,"wspd":25,"wgst":34,"visib":"10+","altim":1006.5,"slp":1003.2,"qcField":4,"presTend":-1.3,"maxT":18.9,"minT":15,"pcp6hr":0.005,"metarType":"METAR","rawOb":"METAR KCPR 152353Z 25025G34KT 10SM BKN100 17/M06 A2972 RMK AO2 PK WND 27037/2308 SLP032 60000 T01721061 10189 20150 55013","lat":42.8978,"lon":-106.4736,"elev":1623,"name":"Casper/Natrona Cnty, WY, US","cover":"BKN","clouds":[{"cover":"BKN","base":10000}],"fltCat":"VFR"},{"icaoId":"KBUR","receiptTime":"2026-04-15T23:56:31.718Z","obsTime":1776297180,"reportTime":"2026-04-16T00:00:00.000Z","temp":22.8,"dewp":6.1,"wdir":210,"wspd":9,"visib":"10+","altim":1015,"slp":1013.9,"qcField":6,"presTend":-1.3,"maxT":23.3,"minT":19.4,"metarType":"METAR","rawOb":"METAR KBUR 152353Z AUTO 21009KT 10SM CLR 23/06 A2997 RMK AO2 SLP139 T02280061 10233 20194 56013","lat":34.1996,"lon":-118.3654,"elev":221,"name":"Burbank/Bob Hope Arpt, CA, US","cover":"CLR","clouds":[],"fltCat":"VFR"},{"icaoId":"KGSP","receiptTime":"2026-04-15T23:56:30.424Z","obsTime":1776297180,"reportTime":"2026-04-16T00:00:00.000Z","temp":25,"dewp":11.1,"wdir":220,"wspd":7,"visib":"10+","altim":1018,"slp":1017,"qcField":4,"presTend":0.1,"maxT":30.6,"minT":25,"pcp6hr":0.005,"metarType":"METAR","rawOb":"METAR KGSP 152353Z 22007KT 10SM CLR 25/11 A3006 RMK AO2 SLP170 60000 T02500111 10306 20250 53001","lat":34.8842,"lon":-82.2209,"elev":285,"name":"Greenville-Spartanburg Intl, SC, US","cover":"CLR","clouds":[],"fltCat":"VFR"},{"icaoId":"KLAW","receiptTime":"2026-04-15T23:56:27.017Z","obsTime":1776297180,"reportTime":"2026-04-16T00:00:00.000Z","temp":22.2,"dewp":15.6,"wdir":170,"wspd":14,"wgst":24,"visib":"10+","altim":1009.6,"slp":1008.7,"qcField":6,"presTend":0.2,"maxT":29.4,"minT":22.2,"metarType":"METAR","rawOb":"METAR KLAW 152353Z AUTO 17014G24KT 10SM CLR 22/16 A2981 RMK AO2 SLP087 T02220156 10294 20222 53002","lat":34.5577,"lon":-98.4172,"elev":328,"name":"Lawton-Fort Sill Rgnl, OK, US","cover":"CLR","clouds":[],"fltCat":"VFR"},{"icaoId":"KMYF","receiptTime":"2026-04-15T23:56:29.948Z","obsTime":1776297180,"reportTime":"2026-04-16T00:00:00.000Z","temp":19.4,"dewp":12.2,"wdir":310,"wspd":9,"visib":"10+","altim":1015.3,"slp":1014.9,"qcField":4,"presTend":-1.4,"maxT":21.1,"minT":18.3,"metarType":"METAR","rawOb":"METAR KMYF 152353Z 31009KT 10SM CLR 19/12 A2998 RMK AO2 SLP149 T01940122 10211 20183 58014","lat":32.8145,"lon":-117.1375,"elev":128,"name":"San Diego/Montgomery Arpt, CA, US","cover":"CLR","clouds":[],"fltCat":"VFR"},{"icaoId":"KSMF","receiptTime":"2026-04-15T23:56:36.691Z","obsTime":1776297180,"reportTime":"2026-04-16T00:00:00.000Z","temp":21.7,"dewp":7.2,"wdir":180,"wspd":12,"visib":"10+","altim":1015.3,"slp":1015.1,"qcField":4,"presTend":-1.9,"maxT":21.7,"minT":16.1,"metarType":"METAR","rawOb":"METAR KSMF 152353Z 18012KT 10SM BKN250 22/07 A2998 RMK AO2 SLP151 T02170072 10217 20161 57019","lat":38.7007,"lon":-121.5948,"elev":7,"name":"Sacramento Intl, CA, US","cover":"BKN","clouds":[{"cover":"BKN","base":25000}],"fltCat":"VFR"},{"icaoId":"KPSP","receiptTime":"2026-04-15T23:56:23.759Z","obsTime":1776297180,"reportTime":"2026-04-16T00:00:00.000Z","temp":30,"dewp":1.1,"wdir":110,"wspd":5,"visib":"10+","altim":1011.3,"slp":1010.8,"qcField":12,"presTend":-2.4,"maxT":30.6,"minT":26.1,"metarType":"METAR","rawOb":"METAR KPSP 152353Z 11005KT 10SM CLR 30/01 A2986 RMK AO2 SLP108 T03000011 10306 20261 56024 $","lat":33.8222,"lon":-116.5043,"elev":123,"name":"Palm Springs Intl, CA, US","cover":"CLR","clouds":[],"fltCat":"VFR"},{"icaoId":"KRDD","receiptTime":"2026-04-15T23:56:23.939Z","obsTime":1776297180,"reportTime":"2026-04-16T00:00:00.000Z","temp":20,"dewp":7.8,"wdir":210,"wspd":15,"wgst":22,"visib":"10+","altim":1013.6,"slp":1013.1,"qcField":4,"presTend":-1.9,"maxT":20.6,"minT":12.2,"metarType":"METAR","rawOb":"METAR KRDD 152353Z 21015G22KT 10SM SCT055 SCT095 20/08 A2993 RMK AO2 SLP131 T02000078 10206 20122 56019","lat":40.5146,"lon":-122.2977,"elev":152,"name":"Redding Muni, CA, US","cover":"SCT","clouds":[{"cover":"SCT","base":5500},{"cover":"SCT","base":9500}],"fltCat":"VFR"},{"icaoId":"KSAF","receiptTime":"2026-04-15T23:56:36.463Z","obsTime":1776297180,"reportTime":"2026-04-16T00:00:00.000Z","temp":16.7,"dewp":-10.6,"wdir":250,"wspd":16,"wgst":27,"visib":"10+","altim":1016.3,"slp":1011.2,"qcField":4,"presTend":-0.9,"maxT":18.3,"minT":12.2,"metarType":"METAR","rawOb":"METAR KSAF 152353Z 25016G27KT 10SM CLR 17/M11 A3001 RMK AO2 PK WND 23030/2329 SLP112 T01671106 10183 20122 56009","lat":35.611,"lon":-106.0957,"elev":1918,"name":"Santa Fe Cnty Muni, NM, US","cover":"CLR","clouds":[],"fltCat":"VFR"},{"icaoId":"KSBA","receiptTime":"2026-04-15T23:56:36.485Z","obsTime":1776297180,"reportTime":"2026-04-16T00:00:00.000Z","temp":18.9,"dewp":9.4,"wdir":270,"wspd":5,"visib":"10+","altim":1015.3,"slp":1015.1,"qcField":12,"presTend":-1.9,"maxT":20,"minT":17.2,"metarType":"METAR","rawOb":"METAR KSBA 152353Z 27005KT 10SM CLR 19/09 A2998 RMK AO2 SLP151 T01890094 10200 20172 56019 $","lat":34.4241,"lon":-119.8425,"elev":2,"name":"Santa Barbara Muni, CA, US","cover":"CLR","clouds":[],"fltCat":"VFR"},{"icaoId":"KEVW","receiptTime":"2026-04-15T23:56:26.866Z","obsTime":1776297180,"reportTime":"2026-04-16T00:00:00.000Z","temp":10.6,"dewp":-3.3,"wdir":230,"wspd":20,"wgst":37,"visib":"10+","altim":1012.6,"slp":1009.3,"qcField":14,"presTend":-0.7,"maxT":12.8,"minT":8.9,"metarType":"METAR","rawOb":"METAR KEVW 152353Z AUTO 23020G37KT 10SM FEW085 11/M03 A2990 RMK AO2 PK WND 25041/2304 SLP093 T01061033 10128 20089 58007 $","lat":41.2727,"lon":-111.0305,"elev":2178,"name":"Evanston/Uinta Cnty, WY, US","cover":"FEW","clouds":[{"cover":"FEW","base":8500}],"fltCat":"VFR"},{"icaoId":"KLAX","receiptTime":"2026-04-15T23:56:27.032Z","obsTime":1776297180,"reportTime":"2026-04-16T00:00:00.000Z","temp":19.4,"dewp":12.8,"wdir":260,"wspd":12,"visib":"10+","altim":1015.3,"slp":1015.1,"qcField":4,"presTend":-1.6,"maxT":21.1,"minT":18.9,"metarType":"METAR","rawOb":"METAR KLAX 152353Z 26012KT 10SM FEW050 FEW250 19/13 A2998 RMK AO2 SLP151 T01940128 10211 20189 58016","lat":33.9382,"lon":-118.3866,"elev":30,"name":"Los Angeles Intl, CA, US","cover":"FEW","clouds":[{"cover":"FEW","base":5000},{"cover":"FEW","base":25000}],"fltCat":"VFR"},{"icaoId":"KRIW","receiptTime":"2026-04-15T23:56:23.990Z","obsTime":1776297180,"reportTime":"2026-04-16T00:00:00.000Z","temp":13.3,"dewp":-2.8,"wdir":220,"wspd":16,"wgst":27,"visib":"10+","altim":1006.9,"slp":1004.3,"qcField":6,"presTend":-0.9,"maxT":16.7,"minT":11.1,"metarType":"METAR","rawOb":"METAR KRIW 152353Z AUTO 22016G27KT 10SM CLR 13/M03 A2973 RMK AO2 PK WND 21027/2345 SLP043 T01331028 10167 20111 56009","lat":43.0622,"lon":-108.4471,"elev":1662,"name":"Riverton Rgnl, WY, US","cover":"CLR","clouds":[],"fltCat":"VFR"},{"icaoId":"KELY","receiptTime":"2026-04-15T23:56:26.782Z","obsTime":1776297180,"reportTime":"2026-04-16T00:00:00.000Z","temp":14.4,"dewp":-6.7,"wdir":220,"wspd":15,"wgst":27,"visib":"10+","altim":1013.3,"slp":1009.1,"qcField":6,"presTend":-1.7,"maxT":17.2,"minT":12.2,"metarType":"METAR","rawOb":"METAR KELY 152353Z AUTO 22015G27KT 10SM OVC095 14/M07 A2992 RMK AO2 PK WND 20033/2338 SLP091 T01441067 10172 20122 56017","lat":39.2954,"lon":-114.8466,"elev":1906,"name":"Ely/Yelland Fld, NV, US","cover":"OVC","clouds":[{"cover":"OVC","base":9500}],"fltCat":"VFR"},{"icaoId":"KMCI","receiptTime":"2026-04-15T23:56:25.112Z","obsTime":1776297180,"reportTime":"2026-04-16T00:00:00.000Z","temp":25.6,"dewp":7.8,"wdir":250,"wspd":9,"wgst":18,"visib":"10+","altim":1006.2,"slp":1005.1,"qcField":4,"presTend":1.1,"maxT":28.3,"minT":24.4,"metarType":"METAR","rawOb":"METAR KMCI 152353Z 25009G18KT 10SM SCT075 SCT150 26/08 A2971 RMK AO2 PK WND 24026/2303 TSE11 SLP051 T02560078 10283 20244 53011","lat":39.2975,"lon":-94.7309,"elev":308,"name":"Kansas City Intl, MO, US","cover":"SCT","clouds":[{"cover":"SCT","base":7500},{"cover":"SCT","base":15000}],"fltCat":"VFR"},{"icaoId":"KHOU","receiptTime":"2026-04-15T23:56:30.785Z","obsTime":1776297180,"reportTime":"2026-04-16T00:00:00.000Z","temp":25.6,"dewp":19.4,"wdir":150,"wspd":14,"visib":"10+","altim":1015,"slp":1015.4,"qcField":4,"presTend":0.2,"maxT":28.9,"minT":25.6,"metarType":"METAR","rawOb":"METAR KHOU 152353Z 15014KT 10SM SCT035 SCT070 BKN250 26/19 A2997 RMK AO2 SLP154 T02560194 10289 20256 53002","lat":29.6458,"lon":-95.2821,"elev":13,"name":"Houston/Hobby Arpt, TX, US","cover":"BKN","clouds":[{"cover":"SCT","base":3500},{"cover":"SCT","base":7000},{"cover":"BKN","base":25000}],"fltCat":"VFR"},{"icaoId":"KMFE","receiptTime":"2026-04-15T23:56:30.819Z","obsTime":1776297180,"reportTime":"2026-04-16T00:00:00.000Z","temp":28.3,"dewp":18.9,"wdir":140,"wspd":19,"wgst":24,"visib":"10+","altim":1011.3,"slp":1011.1,"qcField":4,"presTend":-0.5,"maxT":32.2,"minT":28.3,"metarType":"METAR","rawOb":"METAR KMFE 152353Z 14019G24KT 10SM CLR 28/19 A2986 RMK AO2 SLP111 T02830189 10322 20283 56005","lat":26.1791,"lon":-98.2445,"elev":29,"name":"McAllen/Miller Intl, TX, US","cover":"CLR","clouds":[],"fltCat":"VFR"},{"icaoId":"KDTW","receiptTime":"2026-04-15T23:56:28.327Z","obsTime":1776297180,"reportTime":"2026-04-16T00:00:00.000Z","temp":20.6,"dewp":17.2,"wdir":220,"wspd":9,"visib":"10+","altim":1010.2,"slp":1010.1,"qcField":12,"presTend":1.9,"maxT":21.7,"minT":20,"pcp6hr":0.19,"metarType":"METAR","rawOb":"METAR KDTW 152353Z 22009KT 10SM BKN130 OVC200 21/17 A2983 RMK AO2 SLP101 60019 T02060172 10217 20200 50019 $","lat":42.2311,"lon":-83.3312,"elev":192,"name":"Detroit/Metro Wayne Cnty, MI, US","cover":"OVC","clouds":[{"cover":"BKN","base":13000},{"cover":"OVC","base":20000}],"fltCat":"VFR"},{"icaoId":"KFAT","receiptTime":"2026-04-15T23:56:31.186Z","obsTime":1776297180,"reportTime":"2026-04-16T00:00:00.000Z","temp":24.4,"dewp":4.4,"wdir":300,"wspd":9,"visib":"10+","altim":1015,"slp":1014.8,"qcField":12,"presTend":-2.4,"maxT":24.4,"minT":18.3,"metarType":"METAR","rawOb":"METAR KFAT 152353Z 30009KT 10SM FEW050 SCT130 BKN200 24/04 A2997 RMK AO2 SLP148 T02440044 10244 20183 56024 $","lat":36.78,"lon":-119.7202,"elev":102,"name":"Fresno/Yosemite Intl, CA, US","cover":"BKN","clouds":[{"cover":"FEW","base":5000},{"cover":"SCT","base":13000},{"cover":"BKN","base":20000}],"fltCat":"VFR"},{"icaoId":"KMAF","receiptTime":"2026-04-15T23:56:25.041Z","obsTime":1776297180,"reportTime":"2026-04-16T00:00:00.000Z","temp":28.3,"dewp":-2.2,"wdir":230,"wspd":12,"visib":"10+","altim":1012.3,"slp":1008,"qcField":4,"presTend":-1,"maxT":30,"minT":26.7,"metarType":"METAR","rawOb":"METAR KMAF 152353Z 23012KT 10SM CLR 28/M02 A2989 RMK AO2 SLP080 T02831022 10300 20267 55010","lat":31.9475,"lon":-102.2086,"elev":874,"name":"Midland Intl, TX, US","cover":"CLR","clouds":[],"fltCat":"VFR"},{"icaoId":"KCYS","receiptTime":"2026-04-15T23:56:31.886Z","obsTime":1776297180,"reportTime":"2026-04-16T00:00:00.000Z","temp":15.6,"dewp":-6.1,"wdir":260,"wspd":18,"wgst":27,"visib":"10+","altim":1010.9,"slp":1006.2,"qcField":4,"maxT":17.8,"minT":12.8,"metarType":"METAR","rawOb":"METAR KCYS 152353Z 26018G27KT 10SM CLR 16/M06 A2985 RMK AO2 PK WND 25031/2308 SLP062 T01561061 10178 20128 55000","lat":41.1579,"lon":-104.8081,"elev":1868,"name":"Cheyenne Rgnl, WY, US","cover":"CLR","clouds":[],"fltCat":"VFR"},{"icaoId":"KSHR","receiptTime":"2026-04-15T23:56:36.628Z","obsTime":1776297180,"reportTime":"2026-04-16T00:00:00.000Z","temp":15,"dewp":2.2,"wdir":350,"wspd":5,"visib":"10+","altim":1002.1,"slp":1001.8,"qcField":6,"presTend":-1.5,"maxT":18.9,"minT":15,"metarType":"METAR","rawOb":"METAR KSHR 152353Z AUTO 35005KT 10SM CLR 15/02 A2959 RMK AO2 SLP018 T01500022 10189 20150 56015","lat":44.7603,"lon":-106.9741,"elev":1212,"name":"Sheridan Cnty Arpt, WY, US","cover":"CLR","clouds":[],"fltCat":"VFR"},{"icaoId":"KASE","receiptTime":"2026-04-15T23:56:32.096Z","obsTime":1776297180,"reportTime":"2026-04-16T00:00:00.000Z","temp":11.1,"dewp":-6.1,"wdir":340,"wspd":10,"wgst":14,"visib":"10+","altim":1016.7,"slp":1010.1,"qcField":4,"presTend":-0.7,"maxT":11.7,"minT":6.7,"metarType":"METAR","rawOb":"METAR KASE 152353Z 34010G14KT 10SM FEW070 11/M06 A3002 RMK AO2 SLP101 T01111061 10117 20067 56007","lat":39.2299,"lon":-106.8705,"elev":2384,"name":"Aspen/Pitkin Cnty, CO, US","cover":"FEW","clouds":[{"cover":"FEW","base":7000}],"fltCat":"VFR"},{"icaoId":"KMIA","receiptTime":"2026-04-15T23:56:27.916Z","obsTime":1776297180,"reportTime":"2026-04-16T00:00:00.000Z","temp":23.9,"dewp":14.4,"wdir":70,"wspd":9,"visib":"10+","altim":1019,"slp":1018.9,"qcField":0,"maxT":27.2,"minT":23.9,"metarType":"METAR","rawOb":"METAR KMIA 152353Z 07009KT 10SM BKN043 BKN250 24/14 A3009 RMK SLP189 T02390144 10272 20239 58000","lat":25.7881,"lon":-80.3169,"elev":1,"name":"Miami Intl, FL, US","cover":"BKN","clouds":[{"cover":"BKN","base":4300},{"cover":"BKN","base":25000}],"fltCat":"VFR"},{"icaoId":"KMLS","receiptTime":"2026-04-15T23:56:28.079Z","obsTime":1776297180,"reportTime":"2026-04-16T00:00:00.000Z","temp":18.3,"dewp":1.1,"wdir":130,"wspd":8,"visib":"10+","altim":1000.4,"slp":1000.2,"qcField":6,"presTend":-2.5,"maxT":19.4,"minT":14.4,"metarType":"METAR","rawOb":"METAR KMLS 152353Z AUTO 13008KT 10SM CLR 18/01 A2954 RMK AO2 SLP002 T01830011 10194 20144 56025","lat":46.4265,"lon":-105.8834,"elev":800,"name":"Miles City/Wiley Fld, MT, US","cover":"CLR","clouds":[],"fltCat":"VFR"},{"icaoId":"KDRO","receiptTime":"2026-04-15T23:56:28.231Z","obsTime":1776297180,"reportTime":"2026-04-16T00:00:00.000Z","temp":14.4,"dewp":-6.1,"wdir":220,"wspd":8,"visib":"10+","altim":1017.4,"slp":1015.5,"qcField":6,"presTend":-0.9,"maxT":15.6,"minT":10,"metarType":"METAR","rawOb":"METAR KDRO 152353Z AUTO 22008KT 10SM SCT085 14/M06 A3004 RMK AO2 SLP155 T01441061 10156 20100 56009","lat":37.1431,"lon":-107.7602,"elev":2021,"name":"Durango/La Plata Cnty, CO, US","cover":"SCT","clouds":[{"cover":"SCT","base":8500}],"fltCat":"VFR"},{"icaoId":"KSWO","receiptTime":"2026-04-15T23:56:28.427Z","obsTime":1776297180,"reportTime":"2026-04-16T00:00:00.000Z","temp":25,"dewp":15,"wdir":190,"wspd":8,"visib":"10+","altim":1007.9,"slp":1006.7,"qcField":4,"presTend":-0.5,"maxT":28.3,"minT":25,"precip":0.005,"pcp6hr":0.005,"metarType":"METAR","rawOb":"METAR KSWO 152353Z 19008KT 10SM FEW030 FEW050 25/15 A2976 RMK AO2 PK WND 20031/2335 LTG DSNT S RAB2257E16 SLP067 TS SW MOV W-NW P0000 60000 T02500150 10283 20250 55005","lat":36.1624,"lon":-97.0832,"elev":293,"name":"Stillwater Muni, OK, US","cover":"FEW","clouds":[{"cover":"FEW","base":3000},{"cover":"FEW","base":5000}],"fltCat":"VFR"},{"icaoId":"KTUL","receiptTime":"2026-04-15T23:56:28.776Z","obsTime":1776297180,"reportTime":"2026-04-16T00:00:00.000Z","temp":23.3,"dewp":18.9,"wdir":190,"wspd":19,"wgst":29,"visib":"10+","altim":1009.2,"slp":1008.4,"qcField":4,"presTend":0.7,"maxT":26.7,"minT":23.3,"metarType":"METAR","rawOb":"METAR KTUL 152353Z 19019G29KT 10SM FEW027 SCT120 OVC200 23/19 A2980 RMK AO2 PK WND 20029/2353 SLP084 CB DSNT NW-N MOV NE T02330189 10267 20233 53007","lat":36.1985,"lon":-95.8782,"elev":196,"name":"Tulsa Intl Arpt, OK, US","cover":"OVC","clouds":[{"cover":"FEW","base":2700},{"cover":"SCT","base":12000},{"cover":"OVC","base":20000}],"fltCat":"VFR"},{"icaoId":"KFMN","receiptTime":"2026-04-15T23:56:29.051Z","obsTime":1776297180,"reportTime":"2026-04-16T00:00:00.000Z","temp":17.2,"dewp":-8.9,"wdir":280,"wspd":14,"visib":"10+","altim":1017,"slp":1014.8,"qcField":4,"presTend":-1.1,"maxT":17.8,"minT":13.3,"metarType":"METAR","rawOb":"METAR KFMN 152353Z 28014KT 10SM CLR 17/M09 A3003 RMK AO2 SLP148 T01721089 10178 20133 56011","lat":36.7435,"lon":-108.2293,"elev":1677,"name":"Farmington/Four Corners Rgnl, NM, US","cover":"CLR","clouds":[],"fltCat":"VFR"},{"icaoId":"KFUL","receiptTime":"2026-04-15T23:56:29.253Z","obsTime":1776297180,"reportTime":"2026-04-16T00:00:00.000Z","temp":22.8,"dewp":11.1,"wdir":190,"wspd":9,"visib":"10+","altim":1014.3,"slp":1014.1,"qcField":6,"presTend":-1.7,"maxT":23.9,"minT":20.6,"metarType":"METAR","rawOb":"METAR KFUL 152353Z AUTO 19009KT 10SM CLR 23/11 A2995 RMK AO2 SLP141 T02280111 10239 20206 56017","lat":33.8715,"lon":-117.9856,"elev":23,"name":"Fullerton Muni, CA, US","cover":"CLR","clouds":[],"fltCat":"VFR"},{"icaoId":"KCNY","receiptTime":"2026-04-15T23:56:29.545Z","obsTime":1776297180,"reportTime":"2026-04-16T00:00:00.000Z","temp":19.4,"dewp":-5.6,"wdir":230,"wspd":10,"wgst":16,"visib":"10+","altim":1013,"slp":1010.4,"qcField":6,"presTend":-2.4,"maxT":20,"minT":13.3,"metarType":"METAR","rawOb":"METAR KCNY 152353Z AUTO 23010G16KT 10SM CLR 19/M06 A2991 RMK AO2 SLP104 T01941056 10200 20133 56024","lat":38.7501,"lon":-109.7627,"elev":1392,"name":"Moab/Canyonland Fld, UT, US","cover":"CLR","clouds":[],"fltCat":"VFR"},{"icaoId":"KPIH","receiptTime":"2026-04-15T23:56:29.701Z","obsTime":1776297180,"reportTime":"2026-04-16T00:00:00.000Z","temp":9.4,"dewp":3.9,"wdir":250,"wspd":13,"visib":"10+","altim":1009.9,"slp":1008.2,"qcField":4,"wxString":"-RA","presTend":-0.7,"maxT":13.3,"minT":9.4,"precip":0.005,"pcp6hr":0.005,"metarType":"METAR","rawOb":"METAR KPIH 152353Z 25013KT 10SM -RA OVC050 09/04 A2982 RMK AO2 RAB2258 SLP082 P0000 60000 T00940039 10133 20094 58007","lat":42.9197,"lon":-112.5723,"elev":1357,"name":"Pocatello Rgnl, ID, US","cover":"OVC","clouds":[{"cover":"OVC","base":5000}],"fltCat":"VFR"},{"icaoId":"KMSY","receiptTime":"2026-04-15T23:56:29.822Z","obsTime":1776297180,"reportTime":"2026-04-16T00:00:00.000Z","temp":25,"dewp":18.3,"wdir":180,"wspd":10,"visib":"10+","altim":1018,"slp":1018,"qcField":4,"presTend":-0.4,"maxT":27.8,"minT":25,"metarType":"METAR","rawOb":"METAR KMSY 152353Z 18010KT 10SM FEW035 SCT075 SCT250 25/18 A3006 RMK AO2 SLP180 T02500183 10278 20250 55004","lat":29.9974,"lon":-90.2777,"elev":0,"name":"New Orleans/Armstrong Intl, LA, US","cover":"SCT","clouds":[{"cover":"FEW","base":3500},{"cover":"SCT","base":7500},{"cover":"SCT","base":25000}],"fltCat":"VFR"},{"icaoId":"KOAK","receiptTime":"2026-04-15T23:56:30.003Z","obsTime":1776297180,"reportTime":"2026-04-16T00:00:00.000Z","temp":16.7,"dewp":9.4,"wdir":250,"wspd":16,"visib":"10+","altim":1018.7,"slp":1018.6,"qcField":12,"presTend":-1.2,"maxT":18.3,"minT":15,"metarType":"METAR","rawOb":"METAR KOAK 152353Z 25016KT 10SM FEW020 FEW040 BKN200 17/09 A3008 RMK AO2 SLP186 T01670094 10183 20150 56012 $","lat":37.7178,"lon":-122.233,"elev":3,"name":"Oakland Intl, CA, US","cover":"BKN","clouds":[{"cover":"FEW","base":2000},{"cover":"FEW","base":4000},{"cover":"BKN","base":20000}],"fltCat":"VFR"},{"icaoId":"KGTF","receiptTime":"2026-04-15T23:56:30.441Z","obsTime":1776297180,"reportTime":"2026-04-16T00:00:00.000Z","temp":13.3,"dewp":0,"wdir":250,"wspd":20,"wgst":27,"visib":"10+","altim":999.1,"slp":999,"qcField":4,"presTend":-0.2,"maxT":16.7,"minT":12.2,"pcp6hr":0.005,"metarType":"METAR","rawOb":"METAR KGTF 152353Z 25020G27KT 10SM SCT065 BKN080 BKN110 13/00 A2950 RMK AO2 PK WND 25033/2320 SLP990 60000 T01330000 10167 20122 58002","lat":47.4733,"lon":-111.3828,"elev":1117,"name":"Great Falls Intl, MT, US","cover":"BKN","clouds":[{"cover":"SCT","base":6500},{"cover":"BKN","base":8000},{"cover":"BKN","base":11000}],"fltCat":"VFR"},{"icaoId":"KDAL","receiptTime":"2026-04-15T23:56:30.847Z","obsTime":1776297180,"reportTime":"2026-04-16T00:00:00.000Z","temp":25,"dewp":18.9,"wdir":200,"wspd":8,"wgst":16,"visib":"10+","altim":1011.9,"slp":1011.3,"qcField":4,"presTend":-0.8,"maxT":26.1,"minT":25,"metarType":"METAR","rawOb":"METAR KDAL 152353Z 20008G16KT 10SM FEW030 BKN050 OVC150 25/19 A2988 RMK AO2 PK WND 17026/2322 SLP113 OCNL LTGIC CB DSNT NW MOV NE T02500189 10261 20250 55008","lat":32.8384,"lon":-96.8358,"elev":148,"name":"Dallas/Love Fld, TX, US","cover":"OVC","clouds":[{"cover":"FEW","base":3000},{"cover":"BKN","base":5000},{"cover":"OVC","base":15000}],"fltCat":"VFR"},{"icaoId":"KBIL","receiptTime":"2026-04-15T23:56:31.381Z","obsTime":1776297180,"reportTime":"2026-04-16T00:00:00.000Z","temp":17.2,"dewp":-1.7,"wdir":220,"wspd":15,"wgst":23,"visib":"10+","altim":1000.8,"slp":999.2,"qcField":4,"presTend":-1,"maxT":19.4,"minT":15,"metarType":"METAR","rawOb":"METAR KBIL 152353Z 22015G23KT 10SM FEW085 SCT140 BKN200 17/M02 A2955 RMK AO2 PK WND 20028/2324 SLP992 SHRA DSNT W-NE T01721017 10194 20150 56010","lat":45.8072,"lon":-108.5462,"elev":1089,"name":"Billings/Logan Intl, MT, US","cover":"BKN","clouds":[{"cover":"FEW","base":8500},{"cover":"SCT","base":14000},{"cover":"BKN","base":20000}],"fltCat":"VFR"},{"icaoId":"KBRO","receiptTime":"2026-04-15T23:56:31.653Z","obsTime":1776297180,"reportTime":"2026-04-16T00:00:00.000Z","temp":27.2,"dewp":20,"wdir":160,"wspd":15,"wgst":22,"visib":"10+","altim":1012.6,"slp":1012.3,"qcField":4,"presTend":-0.3,"maxT":31.7,"minT":27.2,"metarType":"METAR","rawOb":"METAR KBRO 152353Z 16015G22KT 10SM CLR 27/20 A2990 RMK AO2 SLP123 T02720200 10317 20272 55003","lat":25.9146,"lon":-97.4231,"elev":6,"name":"Brownsville Intl, TX, US","cover":"CLR","clouds":[],"fltCat":"VFR"},{"icaoId":"KAPA","receiptTime":"2026-04-15T23:56:32.010Z","obsTime":1776297180,"reportTime":"2026-04-16T00:00:00.000Z","temp":17.2,"dewp":-7.8,"wdir":360,"wspd":13,"visib":"10+","altim":1011.6,"slp":1008.8,"qcField":4,"presTend":-0.3,"maxT":18.3,"minT":15,"metarType":"METAR","rawOb":"METAR KAPA 152353Z 36013KT 10SM FEW100 FEW220 17/M08 A2987 RMK AO2 SLP088 T01721078 10183 20150 55003","lat":39.5599,"lon":-104.8484,"elev":1791,"name":"Denver/Centennial Arpt, CO, US","cover":"FEW","clouds":[{"cover":"FEW","base":10000},{"cover":"FEW","base":22000}],"fltCat":"VFR"},{"icaoId":"KAUS","receiptTime":"2026-04-15T23:56:32.170Z","obsTime":1776297180,"reportTime":"2026-04-16T00:00:00.000Z","temp":28.3,"dewp":17.8,"wdir":160,"wspd":11,"visib":"10+","altim":1011.9,"slp":1010.9,"qcField":4,"presTend":-1.4,"maxT":30,"minT":26.7,"pcp6hr":0.005,"metarType":"METAR","rawOb":"METAR KAUS 152353Z 16011KT 10SM BKN060 BKN200 28/18 A2988 RMK AO2 SLP109 60000 T02830178 10300 20267 56014","lat":30.1831,"lon":-97.6806,"elev":148,"name":"Austin/Bergstrom Intl, TX, US","cover":"BKN","clouds":[{"cover":"BKN","base":6000},{"cover":"BKN","base":20000}],"fltCat":"VFR"},{"icaoId":"KBCE","receiptTime":"2026-04-15T23:56:32.275Z","obsTime":1776297180,"reportTime":"2026-04-16T00:00:00.000Z","temp":12.8,"dewp":-6.7,"wdir":250,"wspd":14,"wgst":21,"visib":"10+","altim":1018,"slp":1012.5,"qcField":6,"presTend":-1.1,"maxT":13.3,"minT":8.9,"metarType":"METAR","rawOb":"METAR KBCE 152353Z AUTO 25014G21KT 10SM CLR 13/M07 A3006 RMK AO2 SLP125 T01281067 10133 20089 56011","lat":37.7013,"lon":-112.149,"elev":2311,"name":"Bryce Canyon Arpt, UT, US","cover":"CLR","clouds":[],"fltCat":"VFR"},{"icaoId":"KBHM","receiptTime":"2026-04-15T23:56:32.454Z","obsTime":1776297180,"reportTime":"2026-04-16T00:00:00.000Z","temp":26.1,"dewp":10.6,"wdir":210,"wspd":10,"visib":"10+","altim":1018.7,"slp":1017.8,"qcField":4,"presTend":-0.3,"maxT":30,"minT":26.1,"metarType":"METAR","rawOb":"METAR KBHM 152353Z 21010KT 10SM FEW180 BKN250 26/11 A3008 RMK AO2 SLP178 T02610106 10300 20261 56003","lat":33.5655,"lon":-86.7449,"elev":191,"name":"Birmingham Intl, AL, US","cover":"BKN","clouds":[{"cover":"FEW","base":18000},{"cover":"BKN","base":25000}],"fltCat":"VFR"},{"icaoId":"KSEA","receiptTime":"2026-04-15T23:56:35.636Z","obsTime":1776297180,"reportTime":"2026-04-16T00:00:00.000Z","temp":6.7,"dewp":1.7,"wdir":250,"wspd":8,"wgst":22,"visib":8,"altim":1011.6,"slp":1012.4,"qcField":4,"wxString":"-RA","presTend":1.2,"maxT":10,"minT":4.4,"precip":0.005,"pcp6hr":0.01,"metarType":"METAR","rawOb":"METAR KSEA 152353Z 25008G22KT 190V300 8SM -RA BKN026 BKN035 OVC047 07/02 A2987 RMK AO2 RAB34 SLP124 OCNL LTGICCG DSNT N CB DSNT N MOV E P0000 60001 T00670017 10100 20044 51012","lat":47.4447,"lon":-122.3144,"elev":115,"name":"Seattle-Tacoma Intl, WA, US","cover":"OVC","clouds":[{"cover":"BKN","base":2600},{"cover":"BKN","base":3500},{"cover":"OVC","base":4700}],"fltCat":"MVFR"},{"icaoId":"KYKM","receiptTime":"2026-04-15T23:56:35.787Z","obsTime":1776297180,"reportTime":"2026-04-16T00:00:00.000Z","temp":11.1,"dewp":-8.3,"wdir":270,"wspd":17,"visib":"10+","altim":1008.2,"slp":1008.4,"qcField":4,"presTend":1,"maxT":12.8,"minT":10,"metarType":"METAR","rawOb":"METAR KYKM 152353Z 27017KT 10SM CLR 11/M08 A2977 RMK AO2 PK WND 26027/2309 SLP084 T01111083 10128 20100 53010","lat":46.564,"lon":-120.5349,"elev":319,"name":"Yakima/McAllister Fld, WA, US","cover":"CLR","clouds":[],"fltCat":"VFR"},{"icaoId":"KSJC","receiptTime":"2026-04-15T23:56:36.662Z","obsTime":1776297180,"reportTime":"2026-04-16T00:00:00.000Z","temp":17.8,"dewp":8.9,"wdir":340,"wspd":13,"wgst":21,"visib":"10+","altim":1018,"slp":1018,"qcField":12,"presTend":-0.9,"maxT":19.4,"minT":15,"metarType":"METAR","rawOb":"METAR KSJC 152353Z 34013G21KT 10SM FEW035 SCT080 BKN100 18/09 A3006 RMK AO2 SLP180 T01780089 10194 20150 58009 $","lat":37.3594,"lon":-121.9244,"elev":13,"name":"San Jose Intl Arpt, CA, US","cover":"BKN","clouds":[{"cover":"FEW","base":3500},{"cover":"SCT","base":8000},{"cover":"BKN","base":10000}],"fltCat":"VFR"},{"icaoId":"KGJT","receiptTime":"2026-04-15T23:56:37.006Z","obsTime":1776297180,"reportTime":"2026-04-16T00:00:00.000Z","temp":17.2,"dewp":-1.7,"wdir":0,"wspd":0,"visib":"10+","altim":1014.3,"slp":1010.9,"qcField":4,"presTend":-2.1,"maxT":17.8,"minT":11.7,"metarType":"METAR","rawOb":"METAR KGJT 152353Z 00000KT 10SM CLR 17/M02 A2995 RMK AO2 SLP109 T01721017 10178 20117 56021","lat":39.1344,"lon":-108.5408,"elev":1475,"name":"Grand Junction Rgnl, CO, US","cover":"CLR","clouds":[],"fltCat":"VFR"},{"icaoId":"KGEG","receiptTime":"2026-04-15T23:56:33.261Z","obsTime":1776297180,"reportTime":"2026-04-16T00:00:00.000Z","temp":8.9,"dewp":-6.7,"wdir":240,"wspd":27,"wgst":35,"visib":"10+","altim":1003.1,"slp":1003.7,"qcField":4,"presTend":0.7,"maxT":11.1,"minT":6.1,"pcp6hr":0.01,"metarType":"METAR","rawOb":"METAR KGEG 152353Z 24027G35KT 10SM FEW020 SCT040 SCT100 09/M07 A2962 RMK AO2 PK WND 26037/2333 SLP037 VIRGA 60001 T00891067 10111 20061 53007","lat":47.6217,"lon":-117.528,"elev":718,"name":"Spokane Intl, WA, US","cover":"SCT","clouds":[{"cover":"FEW","base":2000},{"cover":"SCT","base":4000},{"cover":"SCT","base":10000}],"fltCat":"VFR"},{"icaoId":"KCDC","receiptTime":"2026-04-15T23:56:29.285Z","obsTime":1776297180,"reportTime":"2026-04-16T00:00:00.000Z","temp":17.2,"dewp":-5.6,"wdir":210,"wspd":19,"wgst":25,"visib":"10+","altim":1015.7,"slp":1011.7,"qcField":6,"presTend":-1.6,"maxT":17.2,"minT":14.4,"metarType":"METAR","rawOb":"METAR KCDC 152353Z AUTO 21019G25KT 10SM CLR 17/M06 A2999 RMK AO2 SLP117 T01721056 10172 20144 56016","lat":37.7067,"lon":-113.097,"elev":1703,"name":"Cedar City Muni, UT, US","cover":"CLR","clouds":[],"fltCat":"VFR"},{"icaoId":"KMOD","receiptTime":"2026-04-15T23:56:28.164Z","obsTime":1776297180,"reportTime":"2026-04-16T00:00:00.000Z","temp":22.2,"dewp":3.3,"wdir":310,"wspd":11,"visib":"10+","altim":1015.7,"slp":1015.6,"qcField":4,"presTend":-1.7,"maxT":23.3,"minT":16.1,"metarType":"METAR","rawOb":"METAR KMOD 152353Z 31011KT 10SM CLR 22/03 A2999 RMK AO2 SLP156 T02220033 10233 20161 56017","lat":37.6254,"lon":-120.9549,"elev":25,"name":"Modesto/Sham Fld, CA, US","cover":"CLR","clouds":[],"fltCat":"VFR"},{"icaoId":"KDEN","receiptTime":"2026-04-15T23:56:30.917Z","obsTime":1776297180,"reportTime":"2026-04-16T00:00:00.000Z","temp":18.3,"dewp":-10,"wdir":270,"wspd":10,"visib":"10+","altim":1010.6,"slp":1006.2,"qcField":4,"presTend":-0.5,"maxT":19.4,"minT":15.6,"metarType":"METAR","rawOb":"METAR KDEN 152353Z 27010KT 10SM FEW090 FEW120 FEW220 18/M10 A2984 RMK AO2 SLP062 T01831100 10194 20156 55005","lat":39.8466,"lon":-104.6562,"elev":1656,"name":"Denver Intl, CO, US","cover":"FEW","clouds":[{"cover":"FEW","base":9000},{"cover":"FEW","base":12000},{"cover":"FEW","base":22000}],"fltCat":"VFR"},{"icaoId":"KLBB","receiptTime":"2026-04-15T23:56:27.047Z","obsTime":1776297180,"reportTime":"2026-04-16T00:00:00.000Z","temp":26.1,"dewp":-9.4,"wdir":250,"wspd":19,"visib":"10+","altim":1012.3,"slp":1007.7,"qcField":4,"presTend":-0.7,"maxT":27.8,"minT":23.9,"metarType":"METAR","rawOb":"METAR KLBB 152353Z 25019KT 10SM FEW120 FEW250 26/M09 A2989 RMK AO2 PK WND 26029/2337 SLP077 T02611094 10278 20239 55007","lat":33.6658,"lon":-101.8233,"elev":996,"name":"Lubbock Intl Arpt, TX, US","cover":"FEW","clouds":[{"cover":"FEW","base":12000},{"cover":"FEW","base":25000}],"fltCat":"VFR"},{"icaoId":"KPGA","receiptTime":"2026-04-15T23:56:29.632Z","obsTime":1776297180,"reportTime":"2026-04-16T00:00:00.000Z","temp":21.7,"dewp":-4.4,"wdir":30,"wspd":11,"visib":"10+","altim":1013.6,"slp":1009.7,"qcField":14,"presTend":-2.4,"maxT":22.2,"minT":15,"metarType":"METAR","rawOb":"METAR KPGA 152353Z AUTO 03011KT 10SM CLR 22/M04 A2993 RMK AO2 SLP097 T02171044 10222 20150 56024 $","lat":36.9211,"lon":-111.4487,"elev":1310,"name":"Page Muni, AZ, US","cover":"CLR","clouds":[],"fltCat":"VFR"},{"icaoId":"KIDA","receiptTime":"2026-04-15T23:56:26.425Z","obsTime":1776297180,"reportTime":"2026-04-16T00:00:00.000Z","temp":7.8,"dewp":4.4,"wdir":240,"wspd":16,"wgst":28,"visib":"10+","altim":1009.6,"slp":1008.9,"qcField":4,"wxString":"-RA","presTend":-1,"maxT":11.7,"minT":7.8,"precip":0.005,"pcp6hr":0.005,"metarType":"METAR","rawOb":"METAR KIDA 152353Z 24016G28KT 10SM -RA BKN047 OVC060 08/04 A2981 RMK AO2 PK WND 23029/2309 SLP089 P0000 60000 T00780044 10117 20078 56010","lat":43.5204,"lon":-112.0675,"elev":1444,"name":"Idaho Falls Rgnl, ID, US","cover":"OVC","clouds":[{"cover":"BKN","base":4700},{"cover":"OVC","base":6000}],"fltCat":"VFR"},{"icaoId":"KTPA","receiptTime":"2026-04-15T23:56:28.689Z","obsTime":1776297180,"reportTime":"2026-04-16T00:00:00.000Z","temp":23.3,"dewp":16.1,"wdir":290,"wspd":7,"visib":"10+","altim":1019,"slp":1018.8,"qcField":4,"presTend":0.1,"maxT":27.8,"minT":23.3,"metarType":"METAR","rawOb":"METAR KTPA 152353Z 29007KT 10SM FEW250 23/16 A3009 RMK AO2 SLP188 T02330161 10278 20233 51001","lat":27.9633,"lon":-82.54,"elev":2,"name":"Tampa Intl Arpt, FL, US","cover":"FEW","clouds":[{"cover":"FEW","base":25000}],"fltCat":"VFR"},{"icaoId":"KDMN","receiptTime":"2026-04-15T23:56:31.092Z","obsTime":1776297180,"reportTime":"2026-04-16T00:00:00.000Z","temp":23.9,"dewp":-16.1,"wdir":280,"wspd":10,"wgst":19,"visib":"10+","altim":1016,"slp":1011.1,"qcField":6,"presTend":-1.3,"maxT":25,"minT":20.6,"metarType":"METAR","rawOb":"METAR KDMN 152353Z AUTO 28010G19KT 10SM CLR 24/M16 A3000 RMK AO2 SLP111 T02391161 10250 20206 56013","lat":32.2592,"lon":-107.7206,"elev":1310,"name":"Deming Muni, NM, US","cover":"CLR","clouds":[],"fltCat":"VFR"},{"icaoId":"KDVT","receiptTime":"2026-04-15T23:56:28.363Z","obsTime":1776297180,"reportTime":"2026-04-16T00:00:00.000Z","temp":27.8,"dewp":-4.4,"wdir":"VRB","wspd":4,"visib":"10+","altim":1012.3,"slp":1010.5,"qcField":4,"presTend":-2.1,"maxT":28.9,"minT":23.9,"metarType":"METAR","rawOb":"METAR KDVT 152353Z VRB04KT 10SM CLR 28/M04 A2989 RMK AO2 SLP105 T02781044 10289 20239 56021","lat":33.6902,"lon":-112.0662,"elev":454,"name":"Phoenix/Deer Valley Arpt, AZ, US","cover":"CLR","clouds":[],"fltCat":"VFR"},{"icaoId":"KPUB","receiptTime":"2026-04-15T23:56:23.794Z","obsTime":1776297180,"reportTime":"2026-04-16T00:00:00.000Z","temp":22.2,"dewp":-13.9,"wdir":260,"wspd":14,"visib":"10+","altim":1009.2,"slp":1006.4,"qcField":12,"presTend":-1.2,"maxT":23.3,"minT":18.3,"metarType":"METAR","rawOb":"METAR KPUB 152353Z 26014KT 10SM CLR 22/M14 A2980 RMK AO2 SLP064 T02221139 10233 20183 56012 $","lat":38.2887,"lon":-104.5057,"elev":1441,"name":"Pueblo Mem Arpt, CO, US","cover":"CLR","clouds":[],"fltCat":"VFR"},{"icaoId":"KCLL","receiptTime":"2026-04-15T23:56:29.441Z","obsTime":1776297180,"reportTime":"2026-04-16T00:00:00.000Z","temp":26.7,"dewp":18.9,"wdir":150,"wspd":13,"wgst":22,"visib":"10+","altim":1013.3,"slp":1012.6,"qcField":4,"presTend":-0.6,"maxT":30,"minT":26.7,"metarType":"METAR","rawOb":"METAR KCLL 152353Z 15013G22KT 10SM CLR 27/19 A2992 RMK AO2 SLP126 T02670189 10300 20267 56006","lat":30.5912,"lon":-96.3631,"elev":96,"name":"College Station/Easterwood Arpt, TX, US","cover":"CLR","clouds":[],"fltCat":"VFR"},{"icaoId":"KSTS","receiptTime":"2026-04-15T23:56:23.563Z","obsTime":1776297180,"reportTime":"2026-04-16T00:00:00.000Z","temp":18.9,"dewp":10,"wdir":240,"wspd":9,"visib":"10+","altim":1016.7,"slp":1016.1,"qcField":4,"presTend":-1.5,"maxT":20,"minT":12.8,"metarType":"METAR","rawOb":"METAR KSTS 152353Z 24009KT 10SM BKN050 19/10 A3002 RMK AO2 SLP161 T01890100 10200 20128 56015","lat":38.5037,"lon":-122.811,"elev":35,"name":"Santa Rosa/Schulz Arpt, CA, US","cover":"BKN","clouds":[{"cover":"BKN","base":5000}],"fltCat":"VFR"},{"icaoId":"KAMA","receiptTime":"2026-04-15T23:56:31.916Z","obsTime":1776297180,"reportTime":"2026-04-16T00:00:00.000Z","temp":24.4,"dewp":-8.9,"wdir":270,"wspd":11,"visib":"10+","altim":1011.6,"slp":1007.3,"qcField":4,"presTend":-0.8,"maxT":26.1,"minT":22.8,"metarType":"METAR","rawOb":"METAR KAMA 152353Z 27011KT 10SM CLR 24/M09 A2987 RMK AO2 PK WND 29027/2256 SLP073 T02441089 10261 20228 55008","lat":35.2203,"lon":-101.7173,"elev":1102,"name":"Amarillo Intl Arpt, TX, US","cover":"CLR","clouds":[],"fltCat":"VFR"},{"icaoId":"KSDL","receiptTime":"2026-04-15T23:56:36.520Z","obsTime":1776297180,"reportTime":"2026-04-16T00:00:00.000Z","temp":27.8,"dewp":-4.4,"wdir":250,"wspd":6,"visib":"10+","altim":1012.6,"slp":1010.6,"qcField":4,"presTend":-2.1,"maxT":28.3,"minT":24.4,"metarType":"METAR","rawOb":"METAR KSDL 152353Z 25006KT 10SM CLR 28/M04 A2990 RMK AO2 SLP106 T02781044 10283 20244 56021","lat":33.6123,"lon":-111.9232,"elev":438,"name":"Scottsdale Muni, AZ, US","cover":"CLR","clouds":[],"fltCat":"VFR"},{"icaoId":"KPSC","receiptTime":"2026-04-15T23:56:23.743Z","obsTime":1776297180,"reportTime":"2026-04-16T00:00:00.000Z","temp":13.3,"dewp":-3.9,"wdir":220,"wspd":19,"wgst":28,"visib":"10+","altim":1008.5,"slp":1008.6,"qcField":4,"presTend":2.6,"maxT":17.2,"minT":11.1,"metarType":"METAR","rawOb":"METAR KPSC 152353Z 22019G28KT 10SM FEW120 13/M04 A2978 RMK AO2 PK WND 22031/2342 SLP086 T01331039 10172 20111 53026","lat":46.2695,"lon":-119.1182,"elev":121,"name":"Pasco/Tri Cities Arpt, WA, US","cover":"FEW","clouds":[{"cover":"FEW","base":12000}],"fltCat":"VFR"},{"icaoId":"KLVS","receiptTime":"2026-04-15T23:56:24.936Z","obsTime":1776297180,"reportTime":"2026-04-16T00:00:00.000Z","temp":16.1,"dewp":-11.7,"wdir":220,"wspd":16,"visib":"10+","altim":1016,"slp":1010.3,"qcField":14,"presTend":0.1,"maxT":18.3,"minT":12.2,"metarType":"METAR","rawOb":"METAR KLVS 152353Z AUTO 22016KT 10SM CLR 16/M12 A3000 RMK AO2 PK WND 21028/2300 SLP103 6//// T01611117 10183 20122 53001 PNO $","lat":35.6558,"lon":-105.1385,"elev":2095,"name":"Las Vegas Muni, NM, US","cover":"CLR","clouds":[],"fltCat":"VFR"},{"icaoId":"KPAE","receiptTime":"2026-04-15T23:56:25.357Z","obsTime":1776297180,"reportTime":"2026-04-16T00:00:00.000Z","temp":5.6,"dewp":1.7,"wdir":160,"wspd":3,"visib":"10+","altim":1011.9,"slp":1012.2,"qcField":4,"presTend":0.8,"maxT":7.2,"minT":3.3,"pcp6hr":0.11,"metarType":"METAR","rawOb":"METAR KPAE 152353Z 16003KT 10SM FEW015 BKN080 06/02 A2988 RMK AO2 SLP122 60011 T00560017 10072 20033 53008","lat":47.9232,"lon":-122.2831,"elev":166,"name":"Everett/Paine Fld, WA, US","cover":"BKN","clouds":[{"cover":"FEW","base":1500},{"cover":"BKN","base":8000}],"fltCat":"VFR"},{"icaoId":"KPBI","receiptTime":"2026-04-15T23:56:25.427Z","obsTime":1776297180,"reportTime":"2026-04-16T00:00:00.000Z","temp":23.9,"dewp":14.4,"wdir":80,"wspd":7,"visib":"10+","altim":1019.7,"slp":1019.5,"qcField":12,"presTend":-0.1,"maxT":26.1,"minT":23.9,"metarType":"METAR","rawOb":"METAR KPBI 152353Z 08007KT 10SM BKN041 BKN250 24/14 A3011 RMK AO2 WSHFT 2329 SLP195 T02390144 10261 20239 55001 $","lat":26.6851,"lon":-80.0992,"elev":4,"name":"Palm Beach Intl, FL, US","cover":"BKN","clouds":[{"cover":"BKN","base":4100},{"cover":"BKN","base":25000}],"fltCat":"VFR"},{"icaoId":"KIAH","receiptTime":"2026-04-15T23:56:26.375Z","obsTime":1776297180,"reportTime":"2026-04-16T00:00:00.000Z","temp":26.1,"dewp":18.9,"wdir":160,"wspd":14,"visib":"10+","altim":1015,"slp":1014.7,"qcField":4,"presTend":0.3,"maxT":28.9,"minT":26.1,"metarType":"METAR","rawOb":"METAR KIAH 152353Z 16014KT 10SM SCT036 SCT070 BKN250 26/19 A2997 RMK AO2 SLP147 T02610189 10289 20261 53003","lat":29.9844,"lon":-95.3607,"elev":27,"name":"Houston/Bush Intl, TX, US","cover":"BKN","clouds":[{"cover":"SCT","base":3600},{"cover":"SCT","base":7000},{"cover":"BKN","base":25000}],"fltCat":"VFR"},{"icaoId":"KLOL","receiptTime":"2026-04-15T23:56:26.540Z","obsTime":1776297180,"reportTime":"2026-04-16T00:00:00.000Z","temp":19.4,"dewp":-2.2,"wdir":260,"wspd":21,"wgst":31,"visib":"10+","altim":1011.3,"slp":1009.6,"qcField":6,"presTend":-1.8,"maxT":20,"minT":14.4,"metarType":"METAR","rawOb":"METAR KLOL 152353Z AUTO 26021G31KT 10SM FEW085 19/M02 A2986 RMK AO2 PK WND 26033/2339 SLP096 T01941022 10200 20144 56018","lat":40.0684,"lon":-118.5702,"elev":1191,"name":"Lovelock/Derby Fld, NV, US","cover":"FEW","clouds":[{"cover":"FEW","base":8500}],"fltCat":"VFR"},{"icaoId":"KLAR","receiptTime":"2026-04-15T23:56:27.003Z","obsTime":1776297180,"reportTime":"2026-04-16T00:00:00.000Z","temp":11.7,"dewp":-5.6,"wdir":240,"wspd":21,"wgst":30,"visib":"10+","altim":1012.3,"slp":1007.7,"qcField":14,"maxT":12.8,"minT":6.7,"metarType":"METAR","rawOb":"METAR KLAR 152353Z AUTO 24021G30KT 10SM 12/M06 A2989 RMK AO2 PK WND 23030/2347 SLP077 6//// T01171056 10128 20067 $","lat":41.3165,"lon":-105.6729,"elev":2217,"name":"Laramie Rgnl, WY, US"},{"icaoId":"KLGB","receiptTime":"2026-04-15T23:56:27.188Z","obsTime":1776297180,"reportTime":"2026-04-16T00:00:00.000Z","temp":22.2,"dewp":10,"wdir":320,"wspd":11,"visib":"10+","altim":1014.3,"slp":1014.3,"qcField":4,"presTend":-1.9,"maxT":23.9,"minT":20,"metarType":"METAR","rawOb":"METAR KLGB 152353Z 32011KT 10SM CLR 22/10 A2995 RMK AO2 SLP143 T02220100 10239 20200 56019","lat":33.8118,"lon":-118.1472,"elev":10,"name":"Long Beach Arpt, CA, US","cover":"CLR","clouds":[],"fltCat":"VFR"},{"icaoId":"KMFR","receiptTime":"2026-04-15T23:56:27.814Z","obsTime":1776297180,"reportTime":"2026-04-16T00:00:00.000Z","temp":10,"dewp":2.2,"wdir":340,"wspd":13,"visib":"10+","altim":1016.7,"slp":1016.6,"qcField":4,"presTend":1.3,"maxT":11.1,"minT":7.8,"pcp6hr":0.2,"metarType":"METAR","rawOb":"METAR KMFR 152353Z 34013KT 10SM SCT046 BKN060 OVC070 10/02 A3002 RMK AO2 SLP166 60020 T01000022 10111 20078 51013","lat":42.375,"lon":-122.877,"elev":397,"name":"Medford/Rogue Valley Intl, OR, US","cover":"OVC","clouds":[{"cover":"SCT","base":4600},{"cover":"BKN","base":6000},{"cover":"OVC","base":7000}],"fltCat":"VFR"},{"icaoId":"KABQ","receiptTime":"2026-04-15T23:56:12.520Z","obsTime":1776297120,"reportTime":"2026-04-16T00:00:00.000Z","temp":19.4,"dewp":-8.9,"wdir":"VRB","wspd":4,"visib":"10+","altim":1016,"slp":1011.2,"qcField":4,"presTend":-1.4,"maxT":20,"minT":15,"metarType":"METAR","rawOb":"METAR KABQ 152352Z VRB04KT 10SM FEW100 19/M09 A3000 RMK AO2 SLP112 T01941089 10200 20150 56014","lat":35.0419,"lon":-106.6154,"elev":1620,"name":"Albuquerque Intl, NM, US","cover":"FEW","clouds":[{"cover":"FEW","base":10000}],"fltCat":"VFR"},{"icaoId":"KABI","receiptTime":"2026-04-15T23:56:12.504Z","obsTime":1776297120,"reportTime":"2026-04-16T00:00:00.000Z","temp":27.2,"dewp":18.9,"wdir":170,"wspd":12,"wgst":19,"visib":"10+","altim":1010.6,"slp":1007.8,"qcField":12,"presTend":-1,"maxT":28.3,"minT":25,"metarType":"METAR","rawOb":"METAR KABI 152352Z 17012G19KT 10SM CLR 27/19 A2984 RMK AO2 SLP078 T02720189 10283 20250 56010 $","lat":32.4106,"lon":-99.6821,"elev":543,"name":"Abilene Rgnl, TX, US","cover":"CLR","clouds":[],"fltCat":"VFR"},{"icaoId":"KCVG","receiptTime":"2026-04-15T23:56:14.945Z","obsTime":1776297120,"reportTime":"2026-04-16T00:00:00.000Z","temp":25.6,"dewp":15,"wdir":230,"wspd":7,"visib":"10+","altim":1014,"slp":1013,"qcField":4,"presTend":0.8,"maxT":27.8,"minT":25.6,"metarType":"METAR","rawOb":"METAR KCVG 152352Z 23007KT 10SM BKN250 26/15 A2994 RMK AO2 SLP130 T02560150 10278 20256 51008","lat":39.0444,"lon":-84.6724,"elev":264,"name":"Cincinnati Intl, KY, US","cover":"BKN","clouds":[{"cover":"BKN","base":25000}],"fltCat":"VFR"},{"icaoId":"KATL","receiptTime":"2026-04-15T23:56:14.781Z","obsTime":1776297120,"reportTime":"2026-04-16T00:00:00.000Z","temp":27.2,"dewp":11.1,"wdir":220,"wspd":8,"visib":"10+","altim":1018.7,"slp":1017.8,"qcField":12,"presTend":-0.3,"maxT":29.4,"minT":27.2,"metarType":"METAR","rawOb":"METAR KATL 152352Z 22008KT 10SM SCT250 27/11 A3008 RMK AO2 SLP178 T02720111 10294 20272 55003 $","lat":33.6297,"lon":-84.4422,"elev":309,"name":"Atlanta/Hartsfield-Jackson Intl, GA, US","cover":"SCT","clouds":[{"cover":"SCT","base":25000}],"fltCat":"VFR"},{"icaoId":"KMLF","receiptTime":"2026-04-15T23:56:12.485Z","obsTime":1776297120,"reportTime":"2026-04-16T00:00:00.000Z","temp":18.9,"dewp":-5.6,"wdir":200,"wspd":21,"wgst":32,"visib":"10+","altim":1013.3,"slp":1009.8,"qcField":6,"presTend":-1.3,"maxT":20,"minT":16.1,"metarType":"METAR","rawOb":"METAR KMLF 152352Z AUTO 20021G32KT 10SM CLR 19/M06 A2992 RMK AO2 PK WND 19034/2307 SLP098 T01891056 10200 20161 56013","lat":38.4225,"lon":-113.0109,"elev":1537,"name":"Milford Muni, UT, US","cover":"CLR","clouds":[],"fltCat":"VFR"},{"icaoId":"KIAD","receiptTime":"2026-04-15T23:56:14.479Z","obsTime":1776297120,"reportTime":"2026-04-16T00:00:00.000Z","temp":28.9,"dewp":12.2,"wdir":180,"wspd":4,"visib":"10+","altim":1011.9,"slp":1011.6,"qcField":4,"presTend":-0.4,"maxT":32.8,"minT":28.3,"metarType":"METAR","rawOb":"METAR KIAD 152352Z 18004KT 10SM FEW100 BKN250 29/12 A2988 RMK AO2 SLP116 T02890122 10328 20283 56004","lat":38.9348,"lon":-77.4473,"elev":90,"name":"Washington/Dulles Intl, VA, US","cover":"BKN","clouds":[{"cover":"FEW","base":10000},{"cover":"BKN","base":25000}],"fltCat":"VFR"},{"icaoId":"KHRL","receiptTime":"2026-04-15T23:56:14.447Z","obsTime":1776297120,"reportTime":"2026-04-16T00:00:00.000Z","temp":27.2,"dewp":18.9,"wdir":140,"wspd":19,"visib":"10+","altim":1011.9,"slp":1011.6,"qcField":4,"presTend":-0.2,"maxT":31.1,"minT":27.2,"metarType":"METAR","rawOb":"METAR KHRL 152352Z 14019KT 10SM FEW042 27/19 A2988 RMK AO2 SLP116 T02720189 10311 20272 58002","lat":26.2303,"lon":-97.6556,"elev":9,"name":"Harlingen/Valley Intl, TX, US","cover":"FEW","clouds":[{"cover":"FEW","base":4200}],"fltCat":"VFR"},{"icaoId":"KMKE","receiptTime":"2026-04-15T23:56:14.639Z","obsTime":1776297120,"reportTime":"2026-04-16T00:00:00.000Z","temp":20,"dewp":15.6,"wdir":210,"wspd":3,"visib":"10+","altim":1006.2,"slp":1006,"qcField":12,"presTend":-0.9,"maxT":21.7,"minT":20,"metarType":"METAR","rawOb":"METAR KMKE 152352Z 21003KT 10SM FEW032 SCT075 BKN095 BKN130 OVC160 20/16 A2971 RMK AO2 SLP060 OCNL LTG DSNT W-NW T02000156 10217 20200 58009 $","lat":42.9549,"lon":-87.9045,"elev":203,"name":"Milwaukee/Mitchell Intl, WI, US","cover":"BKN","clouds":[{"cover":"FEW","base":3200},{"cover":"SCT","base":7500},{"cover":"BKN","base":9500},{"cover":"BKN","base":13000}],"fltCat":"VFR"},{"icaoId":"KDCA","receiptTime":"2026-04-15T23:56:16.934Z","obsTime":1776297120,"reportTime":"2026-04-16T00:00:00.000Z","temp":25.6,"dewp":16.7,"wdir":180,"wspd":9,"visib":"10+","altim":1011.9,"slp":1011.7,"qcField":4,"presTend":-0.3,"maxT":32.2,"minT":25.6,"metarType":"METAR","rawOb":"METAR KDCA 152352Z 18009KT 10SM FEW100 BKN250 26/17 A2988 RMK AO2 SLP117 T02560167 10322 20256 55003","lat":38.8472,"lon":-77.0345,"elev":4,"name":"Washington/Reagan-National Arpt, VA, US","cover":"BKN","clouds":[{"cover":"FEW","base":10000},{"cover":"BKN","base":25000}],"fltCat":"VFR"},{"icaoId":"KCLT","receiptTime":"2026-04-15T23:56:14.908Z","obsTime":1776297120,"reportTime":"2026-04-16T00:00:00.000Z","temp":27.2,"dewp":9.4,"wdir":220,"wspd":5,"visib":"10+","altim":1017.4,"slp":1018,"qcField":4,"presTend":0.1,"maxT":31.7,"minT":27.2,"metarType":"METAR","rawOb":"METAR KCLT 152352Z 22005KT 10SM BKN250 27/09 A3004 RMK AO2 SLP180 T02720094 10317 20272 53001","lat":35.2225,"lon":-80.9543,"elev":223,"name":"Charlotte/Douglas Intl, NC, US","cover":"BKN","clouds":[{"cover":"BKN","base":25000}],"fltCat":"VFR"},{"icaoId":"KIGM","receiptTime":"2026-04-15T23:54:11.020Z","obsTime":1776297060,"reportTime":"2026-04-16T00:00:00.000Z","temp":22.8,"dewp":-8.3,"wdir":240,"wspd":18,"wgst":28,"visib":"10+","altim":1014.6,"slp":1009.9,"qcField":6,"presTend":-1.8,"maxT":23.9,"minT":19.4,"metarType":"METAR","rawOb":"METAR KIGM 152351Z AUTO 24018G28KT 10SM CLR 23/M08 A2996 RMK AO2 PK WND 23029/2308 SLP099 T02281083 10239 20194 56018","lat":35.2575,"lon":-113.9341,"elev":1045,"name":"Kingman Arpt, AZ, US","cover":"CLR","clouds":[],"fltCat":"VFR"},{"icaoId":"KCLE","receiptTime":"2026-04-15T23:54:10.360Z","obsTime":1776297060,"reportTime":"2026-04-16T00:00:00.000Z","temp":18.9,"dewp":17.8,"wdir":210,"wspd":7,"visib":"10+","altim":1011.3,"slp":1012.3,"qcField":12,"presTend":1.7,"maxT":24.4,"minT":18.9,"pcp6hr":0.34,"metarType":"METAR","rawOb":"METAR KCLE 152351Z 21007KT 10SM BKN150 OVC250 19/18 A2986 RMK AO2 TSE22 SLP123 60034 T01890178 10244 20189 51017 $","lat":41.4057,"lon":-81.8519,"elev":237,"name":"Cleveland/Hopkins Intl, OH, US","cover":"OVC","clouds":[{"cover":"BKN","base":15000},{"cover":"OVC","base":25000}],"fltCat":"VFR"},{"icaoId":"KCMH","receiptTime":"2026-04-15T23:54:10.402Z","obsTime":1776297060,"reportTime":"2026-04-16T00:00:00.000Z","temp":26.7,"dewp":15,"wdir":220,"wspd":12,"wgst":19,"visib":"10+","altim":1012.6,"slp":1012,"qcField":4,"presTend":0.7,"maxT":28.9,"minT":26.7,"metarType":"METAR","rawOb":"METAR KCMH 152351Z 22012G19KT 10SM FEW055 SCT085 OVC250 27/15 A2990 RMK AO2 SLP120 T02670150 10289 20267 51007","lat":39.9907,"lon":-82.877,"elev":257,"name":"Columbus/Glenn Intl, OH, US","cover":"OVC","clouds":[{"cover":"FEW","base":5500},{"cover":"SCT","base":8500},{"cover":"OVC","base":25000}],"fltCat":"VFR"},{"icaoId":"KRDU","receiptTime":"2026-04-15T23:54:11.498Z","obsTime":1776297060,"reportTime":"2026-04-16T00:00:00.000Z","temp":28.9,"dewp":11.1,"wdir":160,"wspd":5,"visib":"10+","altim":1016.3,"slp":1015.6,"qcField":4,"presTend":-0.2,"maxT":33.3,"minT":28.9,"metarType":"METAR","rawOb":"METAR KRDU 152351Z 16005KT 10SM BKN250 29/11 A3001 RMK AO2 SLP156 T02890111 10333 20289 57002","lat":35.8923,"lon":-78.782,"elev":121,"name":"Raleigh-Durham Intl, NC, US","cover":"BKN","clouds":[{"cover":"BKN","base":25000}],"fltCat":"VFR"},{"icaoId":"KSAN","receiptTime":"2026-04-15T23:54:11.580Z","obsTime":1776297060,"reportTime":"2026-04-16T00:00:00.000Z","temp":19.4,"dewp":12.8,"wdir":300,"wspd":10,"visib":"10+","altim":1015.7,"slp":1015.6,"qcField":12,"presTend":-1.6,"maxT":21.1,"minT":18.3,"metarType":"METAR","rawOb":"METAR KSAN 152351Z 30010KT 10SM FEW025 FEW200 19/13 A2999 RMK AO2 SLP156 T01940128 10211 20183 58016 $","lat":32.7364,"lon":-117.1973,"elev":3,"name":"San Diego Intl Arpt, CA, US","cover":"FEW","clouds":[{"cover":"FEW","base":2500},{"cover":"FEW","base":20000}],"fltCat":"VFR"},{"icaoId":"KSAT","receiptTime":"2026-04-15T23:54:11.620Z","obsTime":1776297060,"reportTime":"2026-04-16T00:00:00.000Z","temp":28.3,"dewp":17.2,"wdir":160,"wspd":8,"visib":"10+","altim":1012.3,"slp":1010.4,"qcField":4,"presTend":-0.9,"maxT":30,"minT":26.1,"pcp6hr":0.005,"metarType":"METAR","rawOb":"METAR KSAT 152351Z 16008KT 10SM FEW050 BKN085 BKN250 28/17 A2989 RMK AO2 SLP104 60000 T02830172 10300 20261 55009","lat":29.5443,"lon":-98.4839,"elev":246,"name":"San Antonio Intl, TX, US","cover":"BKN","clouds":[{"cover":"FEW","base":5000},{"cover":"BKN","base":8500},{"cover":"BKN","base":25000}],"fltCat":"VFR"},{"icaoId":"KSTL","receiptTime":"2026-04-15T23:54:11.846Z","obsTime":1776297060,"reportTime":"2026-04-16T00:00:00.000Z","temp":22.8,"dewp":18.3,"wdir":190,"wspd":9,"wgst":19,"visib":"10+","altim":1010.9,"slp":1009.8,"qcField":4,"presTend":-0.5,"maxT":23.3,"minT":20,"pcp6hr":0.03,"metarType":"METAR","rawOb":"METAR KSTL 152351Z 19009G19KT 10SM FEW025 FEW047 BKN160 OVC250 23/18 A2985 RMK AO2 SLP098 60003 T02280183 10233 20200 56005","lat":38.7525,"lon":-90.3734,"elev":163,"name":"St Louis/Lambert Intl, MO, US","cover":"OVC","clouds":[{"cover":"FEW","base":2500},{"cover":"FEW","base":4700},{"cover":"BKN","base":16000},{"cover":"OVC","base":25000}],"fltCat":"VFR"},{"icaoId":"KPHX","receiptTime":"2026-04-15T23:54:11.360Z","obsTime":1776297060,"reportTime":"2026-04-16T00:00:00.000Z","temp":28.9,"dewp":-4.4,"wdir":"VRB","wspd":3,"visib":"10+","altim":1011.3,"slp":1009.9,"qcField":4,"presTend":-2.3,"maxT":30.6,"minT":24.4,"metarType":"METAR","rawOb":"METAR KPHX 152351Z VRB03KT 10SM FEW080 29/M04 A2986 RMK AO2 SLP099 T02891044 10306 20244 56023","lat":33.4278,"lon":-112.0037,"elev":338,"name":"Phoenix/Sky Harbor Intl, AZ, US","cover":"FEW","clouds":[{"cover":"FEW","base":8000}],"fltCat":"VFR"},{"icaoId":"KORD","receiptTime":"2026-04-15T23:54:11.252Z","obsTime":1776297060,"reportTime":"2026-04-16T00:00:00.000Z","temp":22.2,"dewp":16.7,"wdir":190,"wspd":16,"wgst":25,"visib":"10+","altim":1006.9,"slp":1006.4,"qcField":4,"presTend":-2,"maxT":22.2,"minT":19.4,"pcp6hr":0.005,"metarType":"METAR","rawOb":"METAR KORD 152351Z 19016G25KT 10SM SCT027 BKN041 BKN100 OVC250 22/17 A2973 RMK AO2 SLP064 60000 T02220167 10222 20194 58020","lat":41.9602,"lon":-87.9316,"elev":202,"name":"Chicago/O'Hare Intl, IL, US","cover":"OVC","clouds":[{"cover":"SCT","base":2700},{"cover":"BKN","base":4100},{"cover":"BKN","base":10000},{"cover":"OVC","base":25000}],"fltCat":"VFR"},{"icaoId":"KSAD","receiptTime":"2026-04-15T23:54:11.544Z","obsTime":1776297060,"reportTime":"2026-04-16T00:00:00.000Z","temp":25,"dewp":-10,"wdir":190,"wspd":3,"visib":"10+","altim":1013.6,"slp":1010.4,"qcField":6,"presTend":-2,"maxT":26.1,"minT":20,"metarType":"METAR","rawOb":"METAR KSAD 152351Z AUTO 19003KT 10SM CLR 25/M10 A2993 RMK AO2 SLP104 T02501100 10261 20200 56020","lat":32.8565,"lon":-109.636,"elev":937,"name":"Safford Rgnl, AZ, US","cover":"CLR","clouds":[],"fltCat":"VFR"},{"icaoId":"KVNY","receiptTime":"2026-04-15T23:54:10.951Z","obsTime":1776297060,"reportTime":"2026-04-16T00:00:00.000Z","temp":23.3,"dewp":5,"wdir":190,"wspd":5,"wgst":15,"visib":"10+","altim":1014.3,"slp":1013.6,"qcField":12,"presTend":-1.6,"maxT":24.4,"minT":19.4,"metarType":"METAR","rawOb":"METAR KVNY 152351Z 19005G15KT 10SM CLR 23/05 A2995 RMK AO2 SLP136 T02330050 10244 20194 56016 $","lat":34.2121,"lon":-118.4915,"elev":241,"name":"Van Nuys Arpt, CA, US","cover":"CLR","clouds":[],"fltCat":"VFR"},{"icaoId":"KEWR","receiptTime":"2026-04-15T23:54:10.712Z","obsTime":1776297060,"reportTime":"2026-04-16T00:00:00.000Z","temp":29.4,"dewp":15,"wdir":240,"wspd":12,"visib":"10+","altim":1010.6,"slp":1010.3,"qcField":4,"presTend":0.7,"maxT":32.8,"minT":29.4,"metarType":"METAR","rawOb":"METAR KEWR 152351Z 24012KT 10SM FEW060 FEW150 BKN250 29/15 A2984 RMK AO2 SLP103 T02940150 10328 20294 51007","lat":40.6828,"lon":-74.1692,"elev":2,"name":"Newark Intl, NJ, US","cover":"BKN","clouds":[{"cover":"FEW","base":6000},{"cover":"FEW","base":15000},{"cover":"BKN","base":25000}],"fltCat":"VFR"},{"icaoId":"KORF","receiptTime":"2026-04-15T23:54:11.291Z","obsTime":1776297060,"reportTime":"2026-04-16T00:00:00.000Z","temp":27.8,"dewp":15,"wdir":210,"wspd":8,"visib":"10+","altim":1014.6,"slp":1014.4,"qcField":4,"presTend":0.3,"maxT":32.8,"minT":27.8,"metarType":"METAR","rawOb":"METAR KORF 152351Z 21008KT 10SM CLR 28/15 A2996 RMK AO2 SLP144 T02780150 10328 20278 51003","lat":36.9037,"lon":-76.1927,"elev":5,"name":"Norfolk Intl, VA, US","cover":"CLR","clouds":[],"fltCat":"VFR"},{"icaoId":"KELP","receiptTime":"2026-04-15T23:54:10.639Z","obsTime":1776297060,"reportTime":"2026-04-16T00:00:00.000Z","temp":25,"dewp":-11.7,"wdir":230,"wspd":11,"wgst":21,"visib":"10+","altim":1014.6,"slp":1009.6,"qcField":4,"presTend":-1.4,"maxT":25.6,"minT":21.7,"metarType":"METAR","rawOb":"METAR KELP 152351Z 23011G21KT 10SM FEW130 25/M12 A2996 RMK AO2 SLP096 T02501117 10256 20217 56014","lat":31.8123,"lon":-106.3774,"elev":1205,"name":"El Paso Intl, TX, US","cover":"FEW","clouds":[{"cover":"FEW","base":13000}],"fltCat":"VFR"},{"icaoId":"KBDL","receiptTime":"2026-04-15T23:54:10.153Z","obsTime":1776297060,"reportTime":"2026-04-16T00:00:00.000Z","temp":23.3,"dewp":17.2,"wdir":140,"wspd":6,"visib":"10+","altim":1010.2,"slp":1010,"qcField":4,"presTend":0.6,"maxT":30.6,"minT":23.3,"pcp6hr":0.005,"metarType":"METAR","rawOb":"METAR KBDL 152351Z 14006KT 10SM FEW070 FEW210 BKN250 23/17 A2983 RMK AO2 SLP100 60000 T02330172 10306 20233 52006","lat":41.9374,"lon":-72.682,"elev":52,"name":"Hartford/Bradley Intl, CT, US","cover":"BKN","clouds":[{"cover":"FEW","base":7000},{"cover":"FEW","base":21000},{"cover":"BKN","base":25000}],"fltCat":"VFR"},{"icaoId":"KLGA","receiptTime":"2026-04-15T23:56:14.551Z","obsTime":1776297060,"reportTime":"2026-04-16T00:00:00.000Z","temp":29.4,"dewp":15,"wdir":230,"wspd":9,"wgst":17,"visib":"10+","altim":1010.2,"slp":1010.2,"qcField":4,"presTend":0.6,"maxT":31.1,"minT":28.9,"metarType":"METAR","rawOb":"METAR KLGA 152351Z 23009G17KT 10SM SCT075 SCT150 BKN250 29/15 A2983 RMK AO2 SLP102 T02940150 10311 20289 53006","lat":40.7794,"lon":-73.8803,"elev":9,"name":"New York/La Guardia Arpt, NY, US","cover":"BKN","clouds":[{"cover":"SCT","base":7500},{"cover":"SCT","base":15000},{"cover":"BKN","base":25000}],"fltCat":"VFR"},{"icaoId":"KPVD","receiptTime":"2026-04-15T23:54:11.429Z","obsTime":1776297060,"reportTime":"2026-04-16T00:00:00.000Z","temp":15,"dewp":11.1,"wdir":150,"wspd":4,"visib":"10+","altim":1011.6,"slp":1011.4,"qcField":12,"presTend":1.3,"maxT":28.9,"minT":14.4,"metarType":"METAR","rawOb":"METAR KPVD 152351Z 15004KT 10SM FEW045 FEW085 SCT120 BKN250 15/11 A2987 RMK AO2 SLP114 T01500111 10289 20144 51013 $","lat":41.7225,"lon":-71.4325,"elev":15,"name":"Providence/Green Mem, RI, US","cover":"BKN","clouds":[{"cover":"FEW","base":4500},{"cover":"FEW","base":8500},{"cover":"SCT","base":12000},{"cover":"BKN","base":25000}],"fltCat":"VFR"},{"icaoId":"KPIT","receiptTime":"2026-04-15T23:54:11.397Z","obsTime":1776297060,"reportTime":"2026-04-16T00:00:00.000Z","temp":26.7,"dewp":13.3,"wdir":220,"wspd":10,"wgst":20,"visib":"10+","altim":1012.6,"slp":1012.2,"qcField":12,"presTend":0.1,"maxT":28.9,"minT":25,"metarType":"METAR","rawOb":"METAR KPIT 152351Z 22010G20KT 10SM FEW050 SCT120 OVC220 27/13 A2990 RMK AO2 PK WND 21029/2311 SLP122 T02670133 10289 20250 53001 $","lat":40.4814,"lon":-80.2083,"elev":339,"name":"Pittsburgh Intl, PA, US","cover":"OVC","clouds":[{"cover":"FEW","base":5000},{"cover":"SCT","base":12000},{"cover":"OVC","base":22000}],"fltCat":"VFR"},{"icaoId":"KOXR","receiptTime":"2026-04-15T23:54:11.332Z","obsTime":1776297060,"reportTime":"2026-04-16T00:00:00.000Z","temp":18.3,"dewp":11.1,"wdir":270,"wspd":11,"visib":"10+","altim":1015.7,"slp":1015.4,"qcField":12,"presTend":-1.6,"maxT":19.4,"minT":17.8,"metarType":"METAR","rawOb":"METAR KOXR 152351Z 27011KT 10SM CLR 18/11 A2999 RMK AO2 SLP154 T01830111 10194 20178 56016 $","lat":34.2001,"lon":-119.2042,"elev":12,"name":"Oxnard Arpt, CA, US","cover":"CLR","clouds":[],"fltCat":"VFR"},{"icaoId":"KCRP","receiptTime":"2026-04-15T23:54:10.488Z","obsTime":1776297060,"reportTime":"2026-04-16T00:00:00.000Z","temp":26.7,"dewp":18.9,"wdir":140,"wspd":21,"visib":"10+","altim":1012.6,"slp":1012.3,"qcField":4,"presTend":-0.5,"maxT":30.6,"minT":26.7,"metarType":"METAR","rawOb":"METAR KCRP 152351Z 14021KT 10SM FEW030 FEW070 SCT150 BKN250 27/19 A2990 RMK AO2 PK WND 14028/2340 SLP123 T02670189 10306 20267 56005","lat":27.7734,"lon":-97.513,"elev":11,"name":"Corpus Christi Intl, TX, US","cover":"BKN","clouds":[{"cover":"FEW","base":3000},{"cover":"FEW","base":7000},{"cover":"SCT","base":15000},{"cover":"BKN","base":25000}],"fltCat":"VFR"},{"icaoId":"KACT","receiptTime":"2026-04-15T23:54:09.911Z","obsTime":1776297060,"reportTime":"2026-04-16T00:00:00.000Z","temp":25,"dewp":19.4,"wdir":160,"wspd":7,"visib":"10+","altim":1011.6,"slp":1010.8,"qcField":4,"presTend":-2.2,"maxT":26.7,"minT":23.3,"pcp6hr":0.005,"metarType":"METAR","rawOb":"METAR KACT 152351Z 16007KT 10SM CLR 25/19 A2987 RMK AO2 SLP108 60000 T02500194 10267 20233 58022","lat":31.618,"lon":-97.2283,"elev":150,"name":"Waco Rgnl, TX, US","cover":"CLR","clouds":[],"fltCat":"VFR"},{"icaoId":"KLGU","receiptTime":"2026-04-15T23:54:11.174Z","obsTime":1776297060,"reportTime":"2026-04-16T00:00:00.000Z","temp":14.4,"dewp":-0.6,"wdir":170,"wspd":11,"wgst":23,"visib":"10+","altim":1009.6,"slp":1007.9,"qcField":6,"presTend":-1.8,"maxT":15.6,"minT":13.3,"pcp6hr":0.005,"metarType":"METAR","rawOb":"METAR KLGU 152351Z AUTO 17011G23KT 10SM OVC090 14/M01 A2981 RMK AO2 SLP079 60000 T01441006 10156 20133 58018","lat":41.7865,"lon":-111.8519,"elev":1359,"name":"Logan/Cache Arpt, UT, US","cover":"OVC","clouds":[{"cover":"OVC","base":9000}],"fltCat":"VFR"},{"icaoId":"KJFK","receiptTime":"2026-04-15T23:54:11.134Z","obsTime":1776297060,"reportTime":"2026-04-16T00:00:00.000Z","temp":17.8,"dewp":12.2,"wdir":180,"wspd":5,"visib":"10+","altim":1011.3,"slp":1011,"qcField":4,"presTend":0.2,"maxT":25,"minT":17.8,"metarType":"METAR","rawOb":"METAR KJFK 152351Z 18005KT 10SM FEW075 BKN250 18/12 A2986 RMK AO2 SLP110 T01780122 10250 20178 53002","lat":40.6392,"lon":-73.7639,"elev":3,"name":"New York/JF Kennedy Intl, NY, US","cover":"BKN","clouds":[{"cover":"FEW","base":7500},{"cover":"BKN","base":25000}],"fltCat":"VFR"},{"icaoId":"KROW","receiptTime":"2026-04-15T23:54:11.525Z","obsTime":1776297060,"reportTime":"2026-04-16T00:00:00.000Z","temp":26.1,"dewp":-15.6,"wdir":270,"wspd":10,"visib":"10+","altim":1012.3,"slp":1007,"qcField":4,"presTend":-0.9,"maxT":27.2,"minT":22.2,"metarType":"METAR","rawOb":"METAR KROW 152351Z 27010KT 10SM CLR 26/M16 A2989 RMK AO2 SLP070 T02611156 10272 20222 55009","lat":33.3074,"lon":-104.5082,"elev":1105,"name":"Roswell/Ind Arpt, NM, US","cover":"CLR","clouds":[],"fltCat":"VFR"},{"icaoId":"KAEG","receiptTime":"2026-04-15T23:52:51.851Z","obsTime":1776297000,"reportTime":"2026-04-16T00:00:00.000Z","temp":18,"dewp":-10,"wdir":290,"wspd":7,"visib":"10+","altim":1017,"qcField":0,"metarType":"METAR","rawOb":"METAR KAEG 152350Z 29007KT 10SM CLR 18/M10 A3003","lat":35.15,"lon":-106.7929,"elev":1771,"name":"Albuquerque/Double Eagle Arpt, NM, US","cover":"CLR","clouds":[],"fltCat":"VFR"},{"icaoId":"KHOB","receiptTime":"2026-04-15T23:50:31.307Z","obsTime":1776297000,"reportTime":"2026-04-16T00:00:00.000Z","temp":26,"dewp":-10,"wdir":260,"wspd":17,"visib":"10+","altim":1013,"qcField":0,"metarType":"METAR","rawOb":"METAR KHOB 152350Z 26017KT 10SM CLR 26/M10 A2991","lat":32.6797,"lon":-103.2222,"elev":1112,"name":"Hobbs Arpt, NM, US","cover":"CLR","clouds":[],"fltCat":"VFR"},{"icaoId":"KADM","receiptTime":"2026-04-15T23:56:32.922Z","obsTime":1776297000,"reportTime":"2026-04-16T00:00:00.000Z","temp":17,"dewp":17,"wdir":110,"wspd":15,"visib":0.25,"altim":1011.3,"qcField":0,"wxString":"+RA TS","metarType":"METAR","rawOb":"METAR KADM 152350Z 11015KT 1/4SM +RA TS OVC004 17/17 A2986 RMK LTG ALQDS","lat":34.3007,"lon":-97.0089,"elev":223,"name":"Ardmore Muni, OK, US","cover":"OVC","clouds":[{"cover":"OVC","base":400}],"fltCat":"LIFR"},{"icaoId":"KIWA","receiptTime":"2026-04-15T23:51:41.530Z","obsTime":1776296940,"reportTime":"2026-04-16T00:00:00.000Z","temp":28,"dewp":-5,"wdir":280,"wspd":8,"wgst":15,"visib":"10+","altim":1013,"qcField":0,"metarType":"METAR","rawOb":"METAR KIWA 152349Z 28008G15KT 200V300 10SM CLR 28/M05 A2991","lat":33.3008,"lon":-111.6437,"elev":420,"name":"Phoenix/Mesa Gateway Arpt, AZ, US","cover":"CLR","clouds":[],"fltCat":"VFR"},{"icaoId":"KCHD","receiptTime":"2026-04-15T23:47:01.751Z","obsTime":1776296820,"reportTime":"2026-04-16T00:00:00.000Z","temp":28,"dewp":-4,"wdir":"VRB","wspd":4,"visib":"10+","altim":1012.3,"qcField":0,"metarType":"METAR","rawOb":"METAR KCHD 152347Z VRB04KT 10SM CLR 28/M04 A2989","lat":33.2669,"lon":-111.8086,"elev":378,"name":"Chandler Muni, AZ, US","cover":"CLR","clouds":[],"fltCat":"VFR"},{"icaoId":"KIFP","receiptTime":"2026-04-15T23:51:11.989Z","obsTime":1776296820,"reportTime":"2026-04-16T00:00:00.000Z","temp":30,"dewp":-5,"wdir":200,"wspd":5,"wgst":20,"visib":"10+","altim":1009.9,"qcField":0,"metarType":"METAR","rawOb":"METAR KIFP 152347Z 20005G20KT 10SM CLR 30/M05 A2982","lat":35.1487,"lon":-114.5611,"elev":210,"name":"Bullhead City Intl, AZ, US","cover":"CLR","clouds":[],"fltCat":"VFR"},{"icaoId":"KGYR","receiptTime":"2026-04-15T23:48:21.887Z","obsTime":1776296820,"reportTime":"2026-04-16T00:00:00.000Z","temp":29,"dewp":-3,"wdir":"VRB","wspd":4,"visib":"10+","altim":1011.9,"qcField":0,"metarType":"METAR","rawOb":"METAR KGYR 152347Z VRB04KT 10SM SKC 29/M03 A2988","lat":33.428,"lon":-112.368,"elev":292,"name":"Phoenix/Goodyear Muni, AZ, US","cover":"SKC","clouds":[],"fltCat":"VFR"},{"icaoId":"KSUN","receiptTime":"2026-04-15T23:50:31.445Z","obsTime":1776296820,"reportTime":"2026-04-16T00:00:00.000Z","temp":5,"dewp":3,"wdir":120,"wspd":8,"visib":4,"altim":1008.5,"qcField":0,"metarType":"METAR","rawOb":"METAR KSUN 152347Z 12008KT 4SM SCT009 OVC011 05/03 A2978","lat":43.4969,"lon":-114.2923,"elev":1619,"name":"Hailey/Friedman Mem, ID, US","cover":"OVC","clouds":[{"cover":"SCT","base":900},{"cover":"OVC","base":1100}],"fltCat":"MVFR"},{"icaoId":"KRYN","receiptTime":"2026-04-15T23:46:29.742Z","obsTime":1776296700,"reportTime":"2026-04-16T00:00:00.000Z","temp":28,"dewp":-19,"wdir":290,"wspd":6,"visib":"10+","altim":1013.3,"qcField":0,"metarType":"METAR","rawOb":"METAR KRYN 152345Z 29006KT 10SM CLR 28/M19 A2992","lat":32.1418,"lon":-111.1767,"elev":731,"name":"Tucson/Ryan Fld, AZ, US","cover":"CLR","clouds":[],"fltCat":"VFR"},{"icaoId":"KLRU","receiptTime":"2026-04-15T23:18:18.695Z","obsTime":1776294900,"reportTime":"2026-04-15T23:15:00.000Z","temp":23,"dewp":-22.7,"wdir":270,"wspd":11,"wgst":16,"visib":"10+","altim":1016.3,"qcField":6,"metarType":"METAR","rawOb":"METAR KLRU 152315Z AUTO 27011G16KT 10SM CLR 23/M23 A3001 RMK AO2 T02301227","lat":32.2884,"lon":-106.9131,"elev":1355,"name":"Las Cruces Intl, NM, US","cover":"CLR","clouds":[],"fltCat":"VFR"},{"icaoId":"KNYL","receiptTime":"2026-04-15T23:01:02.974Z","obsTime":1776293820,"reportTime":"2026-04-15T23:00:00.000Z","temp":29.4,"dewp":1.1,"wdir":310,"wspd":6,"visib":"10+","altim":1011.6,"slp":1011.3,"qcField":6,"metarType":"METAR","rawOb":"METAR KNYL 152257Z AUTO 31006KT 10SM CLR 29/01 A2987 RMK AO2 SLP113 T02940011","lat":32.66,"lon":-114.6078,"elev":58,"name":"Yuma , AZ, US","cover":"CLR","clouds":[],"fltCat":"VFR"},{"icaoId":"KEND","receiptTime":"2026-04-15T23:16:06.324Z","obsTime":1776293700,"reportTime":"2026-04-15T23:00:00.000Z","temp":26.6,"dewp":11.1,"wdir":170,"wspd":6,"visib":"10+","altim":1006.5,"slp":1005.3,"qcField":14,"metarType":"METAR","rawOb":"METAR KEND 152255Z AUTO 17006KT 10SM SCT100 27/11 A2972 RMK AO2 SLP053 T02660111 $","lat":36.338,"lon":-97.919,"elev":392,"name":"Enid/Vance AFB, OK, US","cover":"SCT","clouds":[{"cover":"SCT","base":10000}],"fltCat":"VFR"},{"icaoId":"KSNA","receiptTime":"2026-04-15T22:56:29.986Z","obsTime":1776293580,"reportTime":"2026-04-15T23:00:00.000Z","temp":21.1,"dewp":11.7,"wdir":240,"wspd":6,"visib":"10+","altim":1015.3,"slp":1015.2,"qcField":12,"metarType":"METAR","rawOb":"METAR KSNA 152253Z 24006KT 10SM FEW025 FEW180 21/12 A2998 RMK AO2 SLP152 T02110117 $","lat":33.6798,"lon":-117.8675,"elev":14,"name":"Santa Ana/Wayne Arpt, CA, US","cover":"FEW","clouds":[{"cover":"FEW","base":2500},{"cover":"FEW","base":18000}],"fltCat":"VFR"},{"icaoId":"KGEU","receiptTime":"2026-04-15T22:51:07.183Z","obsTime":1776293400,"reportTime":"2026-04-15T23:00:00.000Z","temp":29,"dewp":-6,"wdir":260,"wspd":5,"visib":"10+","altim":1011.6,"qcField":0,"metarType":"METAR","rawOb":"METAR KGEU 152250Z 26005KT 10SM CLR 29/M06 A2987","lat":33.528,"lon":-112.293,"elev":319,"name":"Glendale Muni, AZ, US","cover":"CLR","clouds":[],"fltCat":"VFR"}]