[{"icaoId":"KLRU","receiptTime":"2026-04-17T18:37:07.132Z","obsTime":1776450900,"reportTime":"2026-04-17T18:35:00.000Z","temp":23.3,"dewp":-6.6,"wdir":240,"wspd":21,"wgst":26,"visib":"10+","altim":1014.6,"qcField":6,"metarType":"METAR","rawOb":"METAR KLRU 171835Z AUTO 24021G26KT 10SM CLR 23/M07 A2996 RMK AO2 T02331066","lat":32.2884,"lon":-106.9131,"elev":1355,"name":"Las Cruces Intl, NM, US","cover":"CLR","clouds":[],"fltCat":"VFR"},{"icaoId":"KBVU","receiptTime":"2026-04-17T18:36:05.578Z","obsTime":1776450900,"reportTime":"2026-04-17T18:35:00.000Z","temp":15,"dewp":-20,"wdir":360,"wspd":16,"wgst":28,"visib":"10+","altim":1021.4,"qcField":6,"metarType":"METAR","rawOb":"METAR KBVU 171835Z AUTO 36016G28KT 10SM CLR 15/M20 A3016 RMK AO2","lat":35.9489,"lon":-114.8633,"elev":654,"name":"Boulder City Muni, NV, US","cover":"CLR","clouds":[],"fltCat":"VFR"},{"icaoId":"KOLM","receiptTime":"2026-04-17T18:37:11.450Z","obsTime":1776450840,"reportTime":"2026-04-17T18:34:00.000Z","temp":9.4,"dewp":2.8,"wdir":250,"wspd":3,"visib":"10+","altim":1026.8,"qcField":4,"metarType":"SPECI","rawOb":"SPECI KOLM 171834Z 25003KT 10SM BKN029 BKN035 09/03 A3032 RMK AO2 T00940028","lat":46.9737,"lon":-122.9049,"elev":58,"name":"Olympia Rgnl, WA, US","cover":"BKN","clouds":[{"cover":"BKN","base":2900},{"cover":"BKN","base":3500}],"fltCat":"MVFR"},{"icaoId":"KCOS","receiptTime":"2026-04-17T18:36:06.148Z","obsTime":1776450780,"reportTime":"2026-04-17T18:33:00.000Z","temp":3.9,"dewp":-7.2,"wdir":10,"wspd":18,"visib":"10+","altim":1014,"qcField":4,"wxString":"-SN","precip":0.005,"metarType":"SPECI","rawOb":"SPECI KCOS 171833Z 01018KT 10SM -SN OVC040 04/M07 A2994 RMK AO2 RAB26E33SNB33 P0000 T00391072","lat":38.8095,"lon":-104.6887,"elev":1886,"name":"Colorado Spring Arpt, CO, US","cover":"OVC","clouds":[{"cover":"OVC","base":4000}],"fltCat":"VFR"},{"icaoId":"KCYS","receiptTime":"2026-04-17T18:36:06.101Z","obsTime":1776450780,"reportTime":"2026-04-17T18:33:00.000Z","temp":-3.9,"dewp":-6.7,"wdir":360,"wspd":19,"wgst":31,"visib":1,"altim":1016,"qcField":4,"wxString":"-SN","precip":0.02,"metarType":"SPECI","rawOb":"SPECI KCYS 171833Z 36019G31KT 1SM -SN FEW009 BKN012 OVC027 M04/M07 A3000 RMK AO2 PK WND 34031/1830 P0002 T10391067 RVRNO","lat":41.1579,"lon":-104.8081,"elev":1868,"name":"Cheyenne Rgnl, WY, US","cover":"OVC","clouds":[{"cover":"FEW","base":900},{"cover":"BKN","base":1200},{"cover":"OVC","base":2700}],"fltCat":"IFR"},{"icaoId":"PANC","receiptTime":"2026-04-17T18:36:06.119Z","obsTime":1776450720,"reportTime":"2026-04-17T18:32:00.000Z","temp":2.2,"dewp":1.1,"wdir":0,"wspd":0,"visib":"10+","altim":1008.5,"qcField":4,"wxString":"-RA","precip":0.005,"metarType":"SPECI","rawOb":"SPECI PANC 171832Z 00000KT 10SM -RA BKN009 BKN036 OVC046 02/01 A2978 RMK AO2 RAB16 P0000 T00220011","lat":61.1691,"lon":-150.0277,"elev":39,"name":"Anchorage Intl, AK, US","cover":"OVC","clouds":[{"cover":"BKN","base":900},{"cover":"BKN","base":3600},{"cover":"OVC","base":4600}],"fltCat":"IFR"},{"icaoId":"KBZN","receiptTime":"2026-04-17T18:32:10.341Z","obsTime":1776450540,"reportTime":"2026-04-17T18:29:00.000Z","temp":-1.1,"dewp":-3.3,"wdir":10,"wspd":9,"visib":0.75,"altim":1020.4,"qcField":4,"wxString":"-SN BR","precip":0.005,"metarType":"SPECI","rawOb":"SPECI KBZN 171829Z 01009KT 3/4SM R12/2800VP6000FT -SN BR FEW009 BKN018 OVC035 M01/M03 A3013 RMK AO2 SNB14 P0000 T10111033","lat":45.7876,"lon":-111.1615,"elev":1349,"name":"Bozeman/Gallatin Fld, MT, US","cover":"OVC","clouds":[{"cover":"FEW","base":900},{"cover":"BKN","base":1800},{"cover":"OVC","base":3500}],"fltCat":"LIFR"},{"icaoId":"KAPA","receiptTime":"2026-04-17T18:32:14.835Z","obsTime":1776450480,"reportTime":"2026-04-17T18:28:00.000Z","temp":-2.2,"dewp":-3.3,"wdir":40,"wspd":9,"wgst":18,"visib":0.25,"altim":1016,"qcField":5,"wxString":"+SN FZFG","precip":0.01,"metarType":"SPECI","rawOb":"SPECI KAPA 171828Z COR 04009G18KT 1/4SM +SN FZFG BKN007 OVC013 M02/M03 A3000 RMK AO2 P0001 T10221033","lat":39.5599,"lon":-104.8484,"elev":1791,"name":"Denver/Centennial Arpt, CO, US","cover":"OVC","clouds":[{"cover":"BKN","base":700},{"cover":"OVC","base":1300}],"fltCat":"LIFR"},{"icaoId":"KPNC","receiptTime":"2026-04-17T18:26:13.121Z","obsTime":1776450180,"reportTime":"2026-04-17T18:23:00.000Z","temp":23.9,"dewp":18.9,"wdir":180,"wspd":9,"wgst":18,"visib":"10+","altim":1006.5,"qcField":6,"metarType":"SPECI","rawOb":"SPECI KPNC 171823Z AUTO 18009G18KT 10SM OVC030 24/19 A2972 RMK AO2 T02390189","lat":36.7369,"lon":-97.1024,"elev":304,"name":"Ponca City Rgnl, OK, US","cover":"OVC","clouds":[{"cover":"OVC","base":3000}],"fltCat":"MVFR"},{"icaoId":"KVEL","receiptTime":"2026-04-17T18:26:13.161Z","obsTime":1776450120,"reportTime":"2026-04-17T18:22:00.000Z","temp":1.1,"dewp":-5,"wdir":170,"wspd":8,"visib":"10+","altim":1021.8,"qcField":6,"metarType":"SPECI","rawOb":"SPECI KVEL 171822Z AUTO 17008KT 10SM BKN024 01/M05 A3017 RMK AO2 T00111050","lat":40.4429,"lon":-109.5128,"elev":1604,"name":"Vernal Rgnl, UT, US","cover":"BKN","clouds":[{"cover":"BKN","base":2400}],"fltCat":"MVFR"},{"icaoId":"KHDN","receiptTime":"2026-04-17T18:20:12.525Z","obsTime":1776449820,"reportTime":"2026-04-17T18:17:00.000Z","temp":-3,"dewp":-7,"wdir":260,"wspd":15,"visib":8,"altim":1020.4,"qcField":70,"wxString":"-SN","precip":0.005,"metarType":"SPECI","rawOb":"SPECI KHDN 171817Z AUTO 26015KT 8SM -SN FEW014 BKN020 OVC027 M03/M07 A3013 RMK AO2 P0000 FZRANO","lat":40.4842,"lon":-107.2296,"elev":2012,"name":"Hayden/Yampa Valley Arpt, CO, US","cover":"OVC","clouds":[{"cover":"FEW","base":1400},{"cover":"BKN","base":2000},{"cover":"OVC","base":2700}],"fltCat":"MVFR"},{"icaoId":"KMEV","receiptTime":"2026-04-17T18:20:15.135Z","obsTime":1776449700,"reportTime":"2026-04-17T18:15:00.000Z","temp":6,"dewp":-14,"wdir":290,"wspd":4,"visib":"10+","altim":1023.1,"qcField":6,"metarType":"METAR","rawOb":"METAR KMEV 171815Z AUTO 29004KT 10SM CLR 06/M14 A3021 RMK AO2","lat":38.9963,"lon":-119.75,"elev":1437,"name":"Minden-Tahoe Arpt, NV, US","cover":"CLR","clouds":[],"fltCat":"VFR"},{"icaoId":"KHCR","receiptTime":"2026-04-17T18:18:37.337Z","obsTime":1776449700,"reportTime":"2026-04-17T18:15:00.000Z","temp":1.6,"dewp":-10,"wdir":260,"wspd":5,"visib":"10+","altim":1022.8,"qcField":14,"metarType":"METAR","rawOb":"METAR KHCR 171815Z AUTO 26005KT 10SM BKN065 02/M10 A3020 RMK AO2 T00161100 $","lat":40.4774,"lon":-111.4329,"elev":1708,"name":"Heber City Muni, UT, US","cover":"BKN","clouds":[{"cover":"BKN","base":6500}],"fltCat":"VFR"},{"icaoId":"KCXP","receiptTime":"2026-04-17T18:20:18.310Z","obsTime":1776449700,"reportTime":"2026-04-17T18:15:00.000Z","temp":7,"dewp":-15,"wdir":"VRB","wspd":6,"visib":"10+","altim":1024.1,"qcField":6,"metarType":"METAR","rawOb":"METAR KCXP 171815Z AUTO VRB06KT 10SM CLR 07/M15 A3024 RMK AO2","lat":39.1905,"lon":-119.7319,"elev":1431,"name":"Carson City Arpt, NV, US","cover":"CLR","clouds":[],"fltCat":"VFR"},{"icaoId":"KMHR","receiptTime":"2026-04-17T18:20:11.937Z","obsTime":1776449700,"reportTime":"2026-04-17T18:15:00.000Z","temp":18,"dewp":-3,"wdir":330,"wspd":8,"visib":"10+","altim":1017.7,"qcField":6,"metarType":"METAR","rawOb":"METAR KMHR 171815Z AUTO 33008KT 10SM CLR 18/M03 A3005 RMK AO2","lat":38.56,"lon":-121.284,"elev":30,"name":"Sacramento/Mather Fld, CA, US","cover":"CLR","clouds":[],"fltCat":"VFR"},{"icaoId":"KRTS","receiptTime":"2026-04-17T18:20:16.503Z","obsTime":1776449700,"reportTime":"2026-04-17T18:15:00.000Z","temp":6,"dewp":-16,"wdir":110,"wspd":11,"wgst":19,"visib":"10+","altim":1023.5,"qcField":6,"metarType":"METAR","rawOb":"METAR KRTS 171815Z AUTO 11011G19KT 10SM CLR 06/M16 A3022 RMK AO2","lat":39.6658,"lon":-119.8731,"elev":1537,"name":"Reno/Stead Arpt, NV, US","cover":"CLR","clouds":[],"fltCat":"VFR"},{"icaoId":"KHII","receiptTime":"2026-04-17T18:20:17.194Z","obsTime":1776449700,"reportTime":"2026-04-17T18:15:00.000Z","temp":21,"dewp":-13,"wdir":330,"wspd":26,"wgst":34,"visib":"10+","altim":1017.4,"qcField":6,"metarType":"METAR","rawOb":"METAR KHII 171815Z AUTO 33026G34KT 10SM CLR 21/M13 A3004 RMK AO2","lat":34.5659,"lon":-114.3522,"elev":241,"name":"Lake Havasu City Arpt, AZ, US","cover":"CLR","clouds":[],"fltCat":"VFR"},{"icaoId":"KBJC","receiptTime":"2026-04-17T18:18:52.961Z","obsTime":1776449700,"reportTime":"2026-04-17T18:15:00.000Z","temp":-1,"dewp":-2,"wdir":10,"wspd":9,"visib":0.38,"altim":1016.7,"qcField":0,"wxString":"SN","metarType":"SPECI","rawOb":"SPECI KBJC 171815Z 01009KT 3/8SM SN OVC004 M01/M02 A3002","lat":39.9008,"lon":-105.1042,"elev":1694,"name":"Rocky Mtn Metro, CO, US","cover":"OVC","clouds":[{"cover":"OVC","base":400}],"fltCat":"LIFR"},{"icaoId":"KASE","receiptTime":"2026-04-17T18:18:41.776Z","obsTime":1776449700,"reportTime":"2026-04-17T18:15:00.000Z","temp":-5.6,"dewp":-8.3,"wdir":330,"wspd":11,"wgst":19,"visib":1,"altim":1018.7,"qcField":4,"wxString":"-SN","precip":0.005,"metarType":"SPECI","rawOb":"SPECI KASE 171815Z 33011G19KT 1SM -SN BKN011 OVC017 M06/M08 A3008 RMK AO2 P0000 T10561083","lat":39.2299,"lon":-106.8705,"elev":2384,"name":"Aspen/Pitkin Cnty, CO, US","cover":"OVC","clouds":[{"cover":"BKN","base":1100},{"cover":"OVC","base":1700}],"fltCat":"IFR"},{"icaoId":"KHAF","receiptTime":"2026-04-17T18:20:17.117Z","obsTime":1776449700,"reportTime":"2026-04-17T18:15:00.000Z","temp":18,"dewp":-7,"wdir":70,"wspd":7,"wgst":14,"visib":9,"altim":1019,"qcField":6,"metarType":"METAR","rawOb":"METAR KHAF 171815Z AUTO 07007G14KT 9SM CLR 18/M07 A3009 RMK AO2","lat":37.5136,"lon":-122.4996,"elev":11,"name":"Half Moon Bay Arpt, CA, US","cover":"CLR","clouds":[],"fltCat":"VFR"},{"icaoId":"KSOW","receiptTime":"2026-04-17T18:18:36.986Z","obsTime":1776449700,"reportTime":"2026-04-17T18:15:00.000Z","temp":13,"dewp":-6,"wdir":350,"wspd":14,"visib":"10+","altim":1019.4,"qcField":6,"metarType":"METAR","rawOb":"METAR KSOW 171815Z AUTO 35014KT 10SM CLR 13/M06 A3010 RMK AO2","lat":34.2686,"lon":-110.0019,"elev":1954,"name":"Show Low Muni, AZ, US","cover":"CLR","clouds":[],"fltCat":"VFR"},{"icaoId":"KDEN","receiptTime":"2026-04-17T18:18:41.847Z","obsTime":1776449700,"reportTime":"2026-04-17T18:15:00.000Z","temp":-1.7,"dewp":-2.8,"wdir":30,"wspd":21,"wgst":32,"visib":0.5,"altim":1016,"qcField":12,"wxString":"SN FZFG","precip":0.01,"metarType":"SPECI","rawOb":"SPECI KDEN 171815Z 03021G32KT 1/2SM R35L/2800V3500FT SN FZFG OVC006 M02/M03 A3000 RMK AO2 PK WND 03032/1807 TWR VIS 3/4 P0001 T10171028 $","lat":39.8466,"lon":-104.6562,"elev":1656,"name":"Denver Intl, CO, US","cover":"OVC","clouds":[{"cover":"OVC","base":600}],"fltCat":"LIFR"},{"icaoId":"KSEZ","receiptTime":"2026-04-17T18:20:12.733Z","obsTime":1776449700,"reportTime":"2026-04-17T18:15:00.000Z","temp":18,"dewp":-6,"wdir":0,"wspd":0,"visib":"10+","altim":1017.7,"qcField":6,"metarType":"METAR","rawOb":"METAR KSEZ 171815Z AUTO 00000KT 10SM CLR 18/M06 A3005 RMK AO2","lat":34.8467,"lon":-111.7884,"elev":1455,"name":"Sedona Arpt, AZ, US","cover":"CLR","clouds":[],"fltCat":"VFR"},{"icaoId":"KHTH","receiptTime":"2026-04-17T18:20:12.309Z","obsTime":1776449700,"reportTime":"2026-04-17T18:15:00.000Z","temp":7,"dewp":-19,"wdir":0,"wspd":0,"visib":"10+","altim":1024.5,"qcField":6,"metarType":"METAR","rawOb":"METAR KHTH 171815Z AUTO 00000KT 10SM CLR 07/M19 A3025 RMK A01","lat":38.5448,"lon":-118.6314,"elev":1281,"name":"Hawthorne Muni, NV, US","cover":"CLR","clouds":[],"fltCat":"VFR"},{"icaoId":"KBIL","receiptTime":"2026-04-17T18:18:41.792Z","obsTime":1776449700,"reportTime":"2026-04-17T18:15:00.000Z","temp":5,"dewp":-8.3,"wdir":310,"wspd":17,"wgst":26,"visib":"10+","altim":1016.7,"qcField":4,"precip":0.005,"metarType":"SPECI","rawOb":"SPECI KBIL 171815Z 31017G26KT 10SM SCT025 BKN060 05/M08 A3002 RMK AO2 PK WND 31026/1805 RAB08E15SNB08E15 VIRGA VCSH ALQDS P0000 T00501083","lat":45.8072,"lon":-108.5462,"elev":1089,"name":"Billings/Logan Intl, MT, US","cover":"BKN","clouds":[{"cover":"SCT","base":2500},{"cover":"BKN","base":6000}],"fltCat":"VFR"},{"icaoId":"KABI","receiptTime":"2026-04-17T18:16:07.997Z","obsTime":1776449520,"reportTime":"2026-04-17T18:12:00.000Z","temp":25.6,"dewp":19.4,"wdir":200,"wspd":11,"wgst":28,"visib":"10+","altim":1010.6,"qcField":4,"metarType":"SPECI","rawOb":"SPECI KABI 171812Z 20011G28KT 10SM SCT028 26/19 A2984 RMK AO2 PK WND 18028/1805 T02560194","lat":32.4106,"lon":-99.6821,"elev":543,"name":"Abilene Rgnl, TX, US","cover":"SCT","clouds":[{"cover":"SCT","base":2800}],"fltCat":"VFR"},{"icaoId":"KPIT","receiptTime":"2026-04-17T18:14:08.821Z","obsTime":1776449460,"reportTime":"2026-04-17T18:11:00.000Z","temp":21.7,"dewp":12.2,"wdir":310,"wspd":7,"visib":"10+","altim":1016.7,"qcField":4,"metarType":"SPECI","rawOb":"SPECI KPIT 171811Z 31007KT 10SM SCT026 SCT250 22/12 A3002 RMK AO2 T02170122","lat":40.4814,"lon":-80.2083,"elev":339,"name":"Pittsburgh Intl, PA, US","cover":"SCT","clouds":[{"cover":"SCT","base":2600},{"cover":"SCT","base":25000}],"fltCat":"VFR"},{"icaoId":"KOKC","receiptTime":"2026-04-17T18:14:08.786Z","obsTime":1776449460,"reportTime":"2026-04-17T18:11:00.000Z","temp":25,"dewp":18.9,"wdir":180,"wspd":17,"wgst":25,"visib":"10+","altim":1007.9,"qcField":4,"metarType":"SPECI","rawOb":"SPECI KOKC 171811Z 18017G25KT 10SM SCT026 BKN030 OVC041 25/19 A2976 RMK AO2 PK WND 17029/1756 T02500189","lat":35.3843,"lon":-97.6003,"elev":391,"name":"Oklahoma City/Will Rogers Intl, OK, US","cover":"OVC","clouds":[{"cover":"SCT","base":2600},{"cover":"BKN","base":3000},{"cover":"OVC","base":4100}],"fltCat":"MVFR"},{"icaoId":"KPAE","receiptTime":"2026-04-17T18:14:08.799Z","obsTime":1776449460,"reportTime":"2026-04-17T18:11:00.000Z","temp":8.3,"dewp":1.1,"wdir":350,"wspd":5,"visib":"10+","altim":1026.8,"qcField":4,"metarType":"SPECI","rawOb":"SPECI KPAE 171811Z 35005KT 10SM SCT028 08/01 A3032 RMK AO2 T00830011","lat":47.9232,"lon":-122.2831,"elev":166,"name":"Everett/Paine Fld, WA, US","cover":"SCT","clouds":[{"cover":"SCT","base":2800}],"fltCat":"VFR"},{"icaoId":"KSWO","receiptTime":"2026-04-17T18:14:08.833Z","obsTime":1776449460,"reportTime":"2026-04-17T18:11:00.000Z","temp":25.6,"dewp":18.9,"wdir":190,"wspd":19,"wgst":29,"visib":"10+","altim":1006.9,"qcField":4,"metarType":"SPECI","rawOb":"SPECI KSWO 171811Z 19019G29KT 10SM OVC030 26/19 A2973 RMK AO2 PK WND 21029/1756 T02560189","lat":36.1624,"lon":-97.0832,"elev":293,"name":"Stillwater Muni, OK, US","cover":"OVC","clouds":[{"cover":"OVC","base":3000}],"fltCat":"MVFR"},{"icaoId":"KBOS","receiptTime":"2026-04-17T18:08:12.755Z","obsTime":1776449040,"reportTime":"2026-04-17T18:04:00.000Z","temp":12.8,"dewp":11.1,"wdir":40,"wspd":10,"visib":3,"altim":1013.3,"qcField":4,"metarType":"SPECI","rawOb":"SPECI KBOS 171804Z 04010KT 3SM OVC010 13/11 A2992 RMK AO2 SFC VIS 8 T01280111","lat":42.3606,"lon":-71.0097,"elev":4,"name":"Boston/Logan Intl, MA, US","cover":"OVC","clouds":[{"cover":"OVC","base":1000}],"fltCat":"MVFR"},{"icaoId":"KLAR","receiptTime":"2026-04-17T18:06:07.379Z","obsTime":1776448980,"reportTime":"2026-04-17T18:03:00.000Z","temp":-3.3,"dewp":-8.9,"wdir":320,"wspd":14,"wgst":20,"visib":"10+","altim":1015.3,"qcField":6,"metarType":"SPECI","rawOb":"SPECI KLAR 171803Z AUTO 32014G20KT 10SM BKN032 OVC040 M03/M09 A2998 RMK AO2 T10331089","lat":41.3165,"lon":-105.6729,"elev":2217,"name":"Laramie Rgnl, WY, US","cover":"OVC","clouds":[{"cover":"BKN","base":3200},{"cover":"OVC","base":4000}],"fltCat":"VFR"},{"icaoId":"KEGE","receiptTime":"2026-04-17T18:04:56.766Z","obsTime":1776448920,"reportTime":"2026-04-17T18:02:00.000Z","temp":1,"dewp":-5,"wdir":140,"wspd":3,"visib":3,"altim":1020.1,"qcField":4,"wxString":"-SN","precip":0.005,"metarType":"SPECI","rawOb":"SPECI KEGE 171802Z 14003KT 3SM -SN BKN016 OVC022 01/M05 A3012 RMK AO2 P0000","lat":39.6448,"lon":-106.9176,"elev":1993,"name":"Eagle Cnty Rgnl, CO, US","cover":"OVC","clouds":[{"cover":"BKN","base":1600},{"cover":"OVC","base":2200}],"fltCat":"MVFR"},{"icaoId":"KFLG","receiptTime":"2026-04-17T18:00:20.205Z","obsTime":1776448620,"reportTime":"2026-04-17T18:00:00.000Z","temp":11.7,"dewp":-8.3,"wdir":250,"wspd":9,"visib":"10+","altim":1019.4,"slp":1012.9,"qcField":4,"presTend":1,"maxT":11.7,"minT":-2.8,"metarType":"METAR","rawOb":"METAR KFLG 171757Z 25009KT 10SM CLR 12/M08 A3010 RMK AO2 SLP129 T01171083 10117 21028 51010","lat":35.1443,"lon":-111.6664,"elev":2134,"name":"Flagstaff/Pulliam Arpt, AZ, US","cover":"CLR","clouds":[],"fltCat":"VFR"},{"icaoId":"KNFL","receiptTime":"2026-04-17T18:00:20.689Z","obsTime":1776448620,"reportTime":"2026-04-17T18:00:00.000Z","temp":6.7,"dewp":-16.1,"wdir":"VRB","wspd":3,"visib":"10+","altim":1024.8,"slp":1020.7,"qcField":6,"presTend":-0.5,"maxT":7.8,"minT":-8.9,"metarType":"METAR","rawOb":"METAR KNFL 171757Z AUTO VRB03KT 10SM SCT250 07/M16 A3026 RMK AO2 SLP207 T00671161 10078 21089 58005","lat":39.417,"lon":-118.705,"elev":1199,"name":"Fallon , NV, US","cover":"SCT","clouds":[{"cover":"SCT","base":25000}],"fltCat":"VFR"},{"icaoId":"KRDM","receiptTime":"2026-04-17T18:00:15.251Z","obsTime":1776448560,"reportTime":"2026-04-17T18:00:00.000Z","temp":7.2,"dewp":-7.2,"wdir":170,"wspd":5,"visib":"10+","altim":1023.1,"slp":1024.8,"qcField":4,"presTend":-1.1,"maxT":7.2,"minT":-7.2,"metarType":"METAR","rawOb":"METAR KRDM 171756Z 17005KT 10SM CLR 07/M07 A3021 RMK AO2 SLP248 T00721072 10072 21072 58011","lat":44.2558,"lon":-121.1407,"elev":930,"name":"Redmond Muni, OR, US","cover":"CLR","clouds":[],"fltCat":"VFR"},{"icaoId":"KPWT","receiptTime":"2026-04-17T17:58:59.906Z","obsTime":1776448560,"reportTime":"2026-04-17T18:00:00.000Z","temp":9.4,"dewp":3.3,"wdir":70,"wspd":5,"visib":"10+","altim":1026.8,"slp":1027.5,"qcField":6,"presTend":-0.4,"maxT":9.4,"minT":0.6,"metarType":"METAR","rawOb":"METAR KPWT 171756Z AUTO 07005KT 10SM BKN035 09/03 A3032 RMK AO2 SLP275 T00940033 10094 20006 58004","lat":47.4942,"lon":-122.7594,"elev":143,"name":"Bremerton Arpt, WA, US","cover":"BKN","clouds":[{"cover":"BKN","base":3500}],"fltCat":"VFR"},{"icaoId":"KTPH","receiptTime":"2026-04-17T18:00:10.085Z","obsTime":1776448560,"reportTime":"2026-04-17T18:00:00.000Z","temp":5,"dewp":-23.3,"wdir":"VRB","wspd":5,"visib":"10+","altim":1024.1,"slp":1023.8,"qcField":6,"presTend":-0.2,"maxT":5,"minT":-5,"metarType":"METAR","rawOb":"METAR KTPH 171756Z AUTO VRB05KT 10SM CLR 05/M23 A3024 RMK AO2 SLP238 T00501233 10050 21050 58002","lat":38.0505,"lon":-117.0906,"elev":1647,"name":"Tonopah Arpt, NV, US","cover":"CLR","clouds":[],"fltCat":"VFR"},{"icaoId":"KCGZ","receiptTime":"2026-04-17T17:58:44.098Z","obsTime":1776448560,"reportTime":"2026-04-17T18:00:00.000Z","temp":25,"dewp":-0.6,"wdir":320,"wspd":6,"visib":"10+","altim":1014.3,"slp":1013,"qcField":14,"presTend":0.9,"maxT":25.6,"minT":13.3,"metarType":"METAR","rawOb":"METAR KCGZ 171756Z AUTO 32006KT 10SM CLR 25/M01 A2995 RMK AO2 SLP130 6//// T02501006 10256 20133 51009 $","lat":32.9531,"lon":-111.7725,"elev":444,"name":"Casa Granda Muni, AZ, US","cover":"CLR","clouds":[],"fltCat":"VFR"},{"icaoId":"KINW","receiptTime":"2026-04-17T18:00:07.061Z","obsTime":1776448560,"reportTime":"2026-04-17T18:00:00.000Z","temp":13.3,"dewp":-8.3,"wdir":330,"wspd":16,"wgst":25,"visib":"10+","altim":1019,"slp":1015.1,"qcField":6,"presTend":1.9,"maxT":13.9,"minT":2.8,"metarType":"METAR","rawOb":"METAR KINW 171756Z AUTO 33016G25KT 10SM CLR 13/M08 A3009 RMK AO2 SLP151 T01331083 10139 20028 51019","lat":35.0279,"lon":-110.7221,"elev":1492,"name":"Winslow/Lindberg Rgnl, AZ, US","cover":"CLR","clouds":[],"fltCat":"VFR"},{"icaoId":"KCOE","receiptTime":"2026-04-17T17:58:44.134Z","obsTime":1776448560,"reportTime":"2026-04-17T18:00:00.000Z","temp":6.7,"dewp":-2.2,"wdir":0,"wspd":0,"visib":"10+","altim":1023.5,"slp":1026.3,"qcField":14,"presTend":0.7,"maxT":6.7,"minT":0,"metarType":"METAR","rawOb":"METAR KCOE 171756Z AUTO 00000KT 10SM BKN036 07/M02 A3022 RMK AO2 SLP263 6//// T00671022 10067 20000 53007 PNO $","lat":47.7719,"lon":-116.8332,"elev":693,"name":"Coeur DAlene Arpt, ID, US","cover":"BKN","clouds":[{"cover":"BKN","base":3600}],"fltCat":"VFR"},{"icaoId":"KJAX","receiptTime":"2026-04-17T18:00:07.072Z","obsTime":1776448560,"reportTime":"2026-04-17T18:00:00.000Z","temp":31.1,"dewp":12.2,"wdir":190,"wspd":5,"visib":"10+","altim":1017,"slp":1017.1,"qcField":12,"presTend":-1.8,"maxT":31.1,"minT":17.2,"metarType":"METAR","rawOb":"METAR KJAX 171756Z 19005KT 10SM FEW055 31/12 A3003 RMK AO2 SLP171 T03110122 10311 20172 58018 $","lat":30.4953,"lon":-81.6937,"elev":8,"name":"Jacksonville Intl, FL, US","cover":"FEW","clouds":[{"cover":"FEW","base":5500}],"fltCat":"VFR"},{"icaoId":"KCHS","receiptTime":"2026-04-17T18:00:06.928Z","obsTime":1776448560,"reportTime":"2026-04-17T18:00:00.000Z","temp":31.1,"dewp":15.6,"wdir":"VRB","wspd":5,"visib":"10+","altim":1015.3,"slp":1015.3,"qcField":12,"presTend":-1.8,"maxT":31.7,"minT":20,"metarType":"METAR","rawOb":"METAR KCHS 171756Z VRB05KT 10SM SCT060 SCT250 31/16 A2998 RMK AO2 SLP153 T03110156 10317 20200 58018 $","lat":32.8995,"lon":-80.0407,"elev":12,"name":"Charleston Intl, SC, US","cover":"SCT","clouds":[{"cover":"SCT","base":6000},{"cover":"SCT","base":25000}],"fltCat":"VFR"},{"icaoId":"KFNL","receiptTime":"2026-04-17T17:58:57.041Z","obsTime":1776448560,"reportTime":"2026-04-17T18:00:00.000Z","temp":1.1,"dewp":0,"wdir":20,"wspd":7,"visib":"10+","altim":1016.3,"slp":1014.6,"qcField":12,"wxString":"UP","presTend":2,"maxT":3.3,"minT":-0.6,"precip":0.01,"pcp6hr":0.01,"metarType":"METAR","rawOb":"METAR KFNL 171756Z 02007KT 10SM UP OVC028 01/00 A3001 RMK AO2 UPB30RAB43E56SNE30 SLP146 P0001 60001 T00110000 10033 21006 51020 $","lat":40.4427,"lon":-105.0097,"elev":1529,"name":"Fort Collins/N Colorado Rgnl, CO, US","cover":"OVC","clouds":[{"cover":"OVC","base":2800}],"fltCat":"MVFR"},{"icaoId":"KPVU","receiptTime":"2026-04-17T17:58:59.892Z","obsTime":1776448560,"reportTime":"2026-04-17T18:00:00.000Z","temp":4.4,"dewp":-9.4,"wdir":300,"wspd":10,"visib":"10+","altim":1025.1,"slp":1025.9,"qcField":4,"presTend":0.7,"maxT":4.4,"minT":-1.7,"metarType":"METAR","rawOb":"METAR KPVU 171756Z 30010KT 10SM FEW042 04/M09 A3027 RMK AO2 SLP259 T00441094 10044 21017 53007","lat":40.224,"lon":-111.7252,"elev":1370,"name":"Provo Muni, UT, US","cover":"FEW","clouds":[{"cover":"FEW","base":4200}],"fltCat":"VFR"},{"icaoId":"KSBP","receiptTime":"2026-04-17T18:00:09.680Z","obsTime":1776448560,"reportTime":"2026-04-17T18:00:00.000Z","temp":20.6,"dewp":-3.3,"wdir":50,"wspd":7,"visib":"10+","altim":1016.3,"slp":1016.2,"qcField":4,"presTend":0.4,"maxT":21.1,"minT":10.6,"metarType":"METAR","rawOb":"METAR KSBP 171756Z 05007KT 10SM CLR 21/M03 A3001 RMK AO2 SLP162 T02061033 10211 20106 51004","lat":35.2381,"lon":-120.644,"elev":52,"name":"San Luis Obispo/San Luis Cnty, CA, US","cover":"CLR","clouds":[],"fltCat":"VFR"},{"icaoId":"KVIS","receiptTime":"2026-04-17T17:59:00.050Z","obsTime":1776448560,"reportTime":"2026-04-17T18:00:00.000Z","temp":17.2,"dewp":0,"wdir":180,"wspd":3,"visib":"10+","altim":1018.7,"slp":1018.6,"qcField":14,"presTend":0.3,"maxT":17.2,"minT":6.7,"metarType":"METAR","rawOb":"METAR KVIS 171756Z AUTO 18003KT 10SM CLR 17/00 A3008 RMK AO2 SLP186 6//// T01720000 10172 20067 50003 PNO $","lat":36.3135,"lon":-119.3884,"elev":92,"name":"Visalia Muni, CA, US","cover":"CLR","clouds":[],"fltCat":"VFR"},{"icaoId":"KOTH","receiptTime":"2026-04-17T18:00:24.490Z","obsTime":1776448560,"reportTime":"2026-04-17T18:00:00.000Z","temp":14,"dewp":3,"wdir":90,"wspd":8,"visib":"10+","altim":1024.1,"qcField":0,"metarType":"METAR","rawOb":"METAR KOTH 171756Z 09008KT 10SM CLR 14/03 A3024","lat":43.4194,"lon":-124.2438,"elev":3,"name":"North Bend/SW Oregon Rgnl, OR, US","cover":"CLR","clouds":[],"fltCat":"VFR"},{"icaoId":"KSDF","receiptTime":"2026-04-17T18:00:09.729Z","obsTime":1776448560,"reportTime":"2026-04-17T18:00:00.000Z","temp":26.7,"dewp":11.7,"wdir":170,"wspd":12,"visib":"10+","altim":1016.3,"slp":1015.6,"qcField":4,"presTend":-1.7,"maxT":26.7,"minT":14.4,"metarType":"METAR","rawOb":"METAR KSDF 171756Z 17012KT 130V200 10SM FEW050 FEW120 SCT250 27/12 A3001 RMK AO2 SLP156 T02670117 10267 20144 58017","lat":38.1774,"lon":-85.7308,"elev":146,"name":"Louisville Intl, KY, US","cover":"SCT","clouds":[{"cover":"FEW","base":5000},{"cover":"FEW","base":12000},{"cover":"SCT","base":25000}],"fltCat":"VFR"},{"icaoId":"KLWS","receiptTime":"2026-04-17T18:00:05.441Z","obsTime":1776448560,"reportTime":"2026-04-17T18:00:00.000Z","temp":8.9,"dewp":-0.6,"wdir":340,"wspd":5,"visib":"10+","altim":1024.8,"slp":1025.1,"qcField":4,"presTend":0.6,"maxT":10,"minT":2.8,"metarType":"METAR","rawOb":"METAR KLWS 171756Z 34005KT 10SM FEW065 OVC080 09/M01 A3026 RMK AO2 SLP251 T00891006 10100 20028 53006","lat":46.3746,"lon":-117.0153,"elev":435,"name":"Lewiston/Nez Perce Cnty, ID, US","cover":"OVC","clouds":[{"cover":"FEW","base":6500},{"cover":"OVC","base":8000}],"fltCat":"VFR"},{"icaoId":"KEKO","receiptTime":"2026-04-17T18:00:10.453Z","obsTime":1776448560,"reportTime":"2026-04-17T18:00:00.000Z","temp":3.3,"dewp":-13.3,"wdir":140,"wspd":6,"visib":"10+","altim":1024.8,"slp":1027,"qcField":6,"presTend":-0.1,"maxT":3.9,"minT":-12.2,"metarType":"METAR","rawOb":"METAR KEKO 171756Z AUTO 14006KT 10SM CLR 03/M13 A3026 RMK AO2 SLP270 T00331133 10039 21122 55001","lat":40.824,"lon":-115.7863,"elev":1541,"name":"Elko Rgnl, NV, US","cover":"CLR","clouds":[],"fltCat":"VFR"},{"icaoId":"KSLE","receiptTime":"2026-04-17T18:00:10.072Z","obsTime":1776448560,"reportTime":"2026-04-17T18:00:00.000Z","temp":11.1,"dewp":3.9,"wdir":40,"wspd":6,"visib":"10+","altim":1025.5,"slp":1025.6,"qcField":4,"presTend":-0.9,"maxT":11.1,"minT":2.2,"metarType":"METAR","rawOb":"METAR KSLE 171756Z 04006KT 10SM FEW023 SCT029 11/04 A3028 RMK AO2 SLP256 T01110039 10111 20022 58009","lat":44.9049,"lon":-123.001,"elev":63,"name":"Salem Muni, OR, US","cover":"SCT","clouds":[{"cover":"FEW","base":2300},{"cover":"SCT","base":2900}],"fltCat":"VFR"},{"icaoId":"KUKI","receiptTime":"2026-04-17T18:00:10.104Z","obsTime":1776448560,"reportTime":"2026-04-17T18:00:00.000Z","temp":16.1,"dewp":-1.1,"wdir":"VRB","wspd":3,"visib":"10+","altim":1018.7,"slp":1018.2,"qcField":6,"presTend":-0.6,"maxT":16.1,"minT":1.7,"metarType":"METAR","rawOb":"METAR KUKI 171756Z AUTO VRB03KT 10SM CLR 16/M01 A3008 RMK AO2 SLP182 T01611011 10161 20017 58006","lat":39.1278,"lon":-123.2001,"elev":183,"name":"Ukiah Muni, CA, US","cover":"CLR","clouds":[],"fltCat":"VFR"},{"icaoId":"KCEC","receiptTime":"2026-04-17T18:00:10.439Z","obsTime":1776448560,"reportTime":"2026-04-17T18:00:00.000Z","temp":12.8,"dewp":2.2,"wdir":310,"wspd":7,"visib":"10+","altim":1022.4,"slp":1022.3,"qcField":6,"presTend":-0.2,"maxT":13.9,"minT":6.7,"metarType":"METAR","rawOb":"METAR KCEC 171756Z AUTO 31007KT 10SM CLR 13/02 A3019 RMK AO2 SLP223 T01280022 10139 20067 55002","lat":41.7836,"lon":-124.238,"elev":17,"name":"Crescent City/McNama, CA, US","cover":"CLR","clouds":[],"fltCat":"VFR"},{"icaoId":"KDUG","receiptTime":"2026-04-17T18:02:21.716Z","obsTime":1776448560,"reportTime":"2026-04-17T18:00:00.000Z","temp":22.2,"dewp":1.7,"wdir":260,"wspd":4,"visib":"10+","altim":1016,"slp":1010.5,"qcField":38,"presTend":-0.1,"maxT":22.2,"minT":9.4,"metarType":"METAR","rawOb":"METAR KDUG 171756Z AUTO 26004KT 10SM CLR 22/02 A3000 RMK AO2 SLP105 T02220017 10222 20094 58001 TSNO","lat":31.4725,"lon":-109.6022,"elev":1260,"name":"Douglas/Bisbee Intl, AZ, US","cover":"CLR","clouds":[],"fltCat":"VFR"},{"icaoId":"KSGU","receiptTime":"2026-04-17T17:58:59.967Z","obsTime":1776448560,"reportTime":"2026-04-17T18:00:00.000Z","temp":12.8,"dewp":-18.3,"wdir":40,"wspd":23,"wgst":30,"visib":"10+","altim":1022.1,"slp":1020.9,"qcField":6,"presTend":0.9,"maxT":12.8,"minT":6.7,"metarType":"METAR","rawOb":"METAR KSGU 171756Z AUTO 04023G30KT 10SM CLR 13/M18 A3018 RMK AO2 PK WND 06033/1740 SLP209 T01281183 10128 20067 50009","lat":37.0444,"lon":-113.5034,"elev":877,"name":"Saint George Muni, UT, US","cover":"CLR","clouds":[],"fltCat":"VFR"},{"icaoId":"KENV","receiptTime":"2026-04-17T17:58:42.331Z","obsTime":1776448560,"reportTime":"2026-04-17T18:00:00.000Z","temp":6.1,"dewp":-13.9,"wdir":150,"wspd":7,"visib":"10+","altim":1025.8,"slp":1027.5,"qcField":6,"presTend":0.5,"maxT":6.7,"minT":-0.6,"metarType":"METAR","rawOb":"METAR KENV 171756Z AUTO 15007KT 10SM CLR 06/M14 A3029 RMK AO2 SLP275 T00611139 10067 21006 52005","lat":40.7211,"lon":-114.0312,"elev":1291,"name":"Wendover Arpt, UT, US","cover":"CLR","clouds":[],"fltCat":"VFR"},{"icaoId":"KHND","receiptTime":"2026-04-17T17:58:42.567Z","obsTime":1776448560,"reportTime":"2026-04-17T18:00:00.000Z","temp":13.9,"dewp":-19.4,"wdir":10,"wspd":18,"wgst":22,"visib":"10+","altim":1023.1,"slp":1023.6,"qcField":12,"presTend":0.9,"maxT":14.4,"minT":9.4,"metarType":"METAR","rawOb":"METAR KHND 171756Z 01018G22KT 10SM CLR 14/M19 A3021 RMK AO2 PK WND 03026/1706 SLP236 T01391194 10144 20094 51009 $","lat":35.9657,"lon":-115.1343,"elev":740,"name":"Henderson Exec, NV, US","cover":"CLR","clouds":[],"fltCat":"VFR"},{"icaoId":"KCOD","receiptTime":"2026-04-17T17:58:56.376Z","obsTime":1776448560,"reportTime":"2026-04-17T18:00:00.000Z","temp":4.4,"dewp":-17.2,"wdir":280,"wspd":7,"wgst":18,"visib":"10+","altim":1017.7,"slp":1019.4,"qcField":14,"presTend":0.4,"maxT":4.4,"minT":-5,"metarType":"METAR","rawOb":"METAR KCOD 171756Z AUTO 28007G18KT 250V330 10SM BKN085 04/M17 A3005 RMK AO2 SLP194 T00441172 10044 21050 52004 $","lat":44.52,"lon":-109.0268,"elev":1550,"name":"Cody/Yellowstone Rgnl, WY, US","cover":"BKN","clouds":[{"cover":"BKN","base":8500}],"fltCat":"VFR"},{"icaoId":"KLAS","receiptTime":"2026-04-17T18:00:11.380Z","obsTime":1776448560,"reportTime":"2026-04-17T18:00:00.000Z","temp":15,"dewp":-21.1,"wdir":60,"wspd":18,"wgst":26,"visib":"10+","altim":1022.8,"slp":1021.3,"qcField":4,"presTend":0.6,"maxT":15,"minT":10,"metarType":"METAR","rawOb":"METAR KLAS 171756Z 06018G26KT 10SM CLR 15/M21 A3020 RMK AO2 PK WND 05026/1749 SLP213 T01501211 10150 20100 50006","lat":36.0719,"lon":-115.1634,"elev":662,"name":"Las Vegas/Reid Intl, NV, US","cover":"CLR","clouds":[],"fltCat":"VFR"},{"icaoId":"KSDY","receiptTime":"2026-04-17T17:58:44.214Z","obsTime":1776448560,"reportTime":"2026-04-17T18:00:00.000Z","temp":-1.1,"dewp":-10.6,"wdir":320,"wspd":19,"wgst":31,"visib":"10+","altim":1016,"slp":1019,"qcField":78,"presTend":1,"maxT":-1.1,"minT":-5.6,"pcp6hr":0.005,"metarType":"METAR","rawOb":"METAR KSDY 171756Z AUTO 32019G31KT 10SM OVC036 M01/M11 A3000 RMK AO2 PK WND 31031/1751 SLP190 60000 T10111106 11011 21056 51010 FZRANO $","lat":47.7029,"lon":-104.1951,"elev":600,"name":"Sidney/Richland Muni, MT, US","cover":"OVC","clouds":[{"cover":"OVC","base":3600}],"fltCat":"VFR"},{"icaoId":"KJAC","receiptTime":"2026-04-17T17:58:46.188Z","obsTime":1776448560,"reportTime":"2026-04-17T18:00:00.000Z","temp":0,"dewp":-10,"wdir":300,"wspd":7,"visib":"10+","altim":1020.1,"slp":1024.6,"qcField":4,"presTend":0.6,"maxT":0,"minT":-12.2,"precip":0.005,"pcp6hr":0.005,"metarType":"METAR","rawOb":"METAR KJAC 171756Z 30007KT 10SM SCT030 SCT035 BKN044 00/M10 A3012 RMK AO2 SNB27E47 SLP246 P0000 60000 T00001100 10000 21122 53006","lat":43.6129,"lon":-110.7366,"elev":1967,"name":"Jackson Hole Arpt, WY, US","cover":"BKN","clouds":[{"cover":"SCT","base":3000},{"cover":"SCT","base":3500},{"cover":"BKN","base":4400}],"fltCat":"VFR"},{"icaoId":"KGUC","receiptTime":"2026-04-17T17:58:45.716Z","obsTime":1776448560,"reportTime":"2026-04-17T18:00:00.000Z","temp":1.7,"dewp":-8.9,"wdir":240,"wspd":17,"wgst":24,"visib":"10+","altim":1014.6,"slp":1012.6,"qcField":78,"presTend":2.5,"maxT":2.8,"minT":0.6,"metarType":"METAR","rawOb":"METAR KGUC 171756Z AUTO 24017G24KT 10SM CLR 02/M09 A2996 RMK AO2 SLP126 T00171089 10028 20006 51025 FZRANO $","lat":38.5322,"lon":-106.9419,"elev":2337,"name":"Gunnison Arpt, CO, US","cover":"CLR","clouds":[],"fltCat":"VFR"},{"icaoId":"KSFO","receiptTime":"2026-04-17T18:00:07.484Z","obsTime":1776448560,"reportTime":"2026-04-17T18:00:00.000Z","temp":16.7,"dewp":-5,"wdir":340,"wspd":4,"visib":"10+","altim":1019,"slp":1018.8,"qcField":12,"presTend":1,"maxT":16.7,"minT":14.4,"metarType":"METAR","rawOb":"METAR KSFO 171756Z 34004KT 10SM FEW200 17/M05 A3009 RMK AO2 SLP188 T01671050 10167 20144 51010 $","lat":37.6196,"lon":-122.3656,"elev":2,"name":"San Francisco Intl, CA, US","cover":"FEW","clouds":[{"cover":"FEW","base":20000}],"fltCat":"VFR"},{"icaoId":"KRNO","receiptTime":"2026-04-17T17:58:59.918Z","obsTime":1776448500,"reportTime":"2026-04-17T18:00:00.000Z","temp":8.9,"dewp":-16.7,"wdir":100,"wspd":12,"visib":"10+","altim":1023.5,"slp":1022.5,"qcField":4,"presTend":-0.3,"maxT":8.9,"minT":-1.1,"metarType":"METAR","rawOb":"METAR KRNO 171755Z 10012KT 10SM SCT250 09/M17 A3022 RMK AO2 SLP225 T00891167 10089 21011 58003","lat":39.5077,"lon":-119.7683,"elev":1344,"name":"Reno/Tahoe Intl, NV, US","cover":"SCT","clouds":[{"cover":"SCT","base":25000}],"fltCat":"VFR"},{"icaoId":"KAST","receiptTime":"2026-04-17T17:58:44.008Z","obsTime":1776448500,"reportTime":"2026-04-17T18:00:00.000Z","temp":10,"dewp":4.4,"wdir":10,"wspd":7,"visib":"10+","altim":1026.2,"slp":1026.1,"qcField":6,"presTend":-0.5,"maxT":10,"minT":3.3,"metarType":"METAR","rawOb":"METAR KAST 171755Z AUTO 01007KT 10SM CLR 10/04 A3030 RMK AO2 SLP261 T01000044 10100 20033 58005","lat":46.157,"lon":-123.8833,"elev":3,"name":"Astoria Rgnl, OR, US","cover":"CLR","clouds":[],"fltCat":"VFR"},{"icaoId":"KCMA","receiptTime":"2026-04-17T17:58:44.110Z","obsTime":1776448500,"reportTime":"2026-04-17T18:00:00.000Z","temp":23.9,"dewp":-5.6,"wdir":80,"wspd":15,"wgst":22,"visib":"10+","altim":1016,"slp":1016.8,"qcField":4,"presTend":1.1,"maxT":23.9,"minT":8.9,"metarType":"METAR","rawOb":"METAR KCMA 171755Z 08015G22KT 10SM CLR 24/M06 A3000 RMK AO2 PK WND 08030/1704 SLP168 T02391056 10239 20089 51011","lat":34.2114,"lon":-119.0876,"elev":20,"name":"Camarillo Arpt, CA, US","cover":"CLR","clouds":[],"fltCat":"VFR"},{"icaoId":"KLUF","receiptTime":"2026-04-17T18:06:07.883Z","obsTime":1776448500,"reportTime":"2026-04-17T18:00:00.000Z","temp":25.3,"dewp":-1.5,"wdir":220,"wspd":5,"visib":"10+","altim":1013,"slp":1011.8,"qcField":14,"presTend":1,"maxT":25.4,"minT":18.2,"metarType":"METAR","rawOb":"METAR KLUF 171755Z AUTO 22005KT 10SM CLR 25/M01 A2991 RMK AO2 SLP118 T02531015 10254 20182 51010 $","lat":33.538,"lon":-112.38,"elev":333,"name":"Phoenix/Luke AFB, AZ, US","cover":"CLR","clouds":[],"fltCat":"VFR"},{"icaoId":"KEND","receiptTime":"2026-04-17T18:16:04.717Z","obsTime":1776448500,"reportTime":"2026-04-17T18:00:00.000Z","temp":24.3,"dewp":19.6,"wdir":170,"wspd":19,"visib":"10+","altim":1005.2,"slp":1003.9,"qcField":14,"presTend":-0.5,"maxT":24.9,"minT":20.4,"metarType":"METAR","rawOb":"METAR KEND 171755Z AUTO 17019KT 10SM BKN024 BKN030 24/20 A2968 RMK AO2 CIG 021 RWY35C SLP039 T02430196 10249 20204 57005 $","lat":36.338,"lon":-97.919,"elev":392,"name":"Enid/Vance AFB, OK, US","cover":"BKN","clouds":[{"cover":"BKN","base":2400},{"cover":"BKN","base":3000}],"fltCat":"MVFR"},{"icaoId":"KGPI","receiptTime":"2026-04-17T17:58:42.479Z","obsTime":1776448500,"reportTime":"2026-04-17T18:00:00.000Z","temp":5,"dewp":0.6,"wdir":"VRB","wspd":3,"visib":"10+","altim":1020.4,"slp":1022.3,"qcField":4,"presTend":0.4,"maxT":5,"minT":-2.8,"pcp6hr":0.005,"metarType":"METAR","rawOb":"METAR KGPI 171755Z VRB03KT 10SM FEW048 05/01 A3013 RMK AO2 SLP223 60000 T00500006 10050 21028 53004","lat":48.3041,"lon":-114.2643,"elev":903,"name":"Kalispell/Glacier Park Intl, MT, US","cover":"FEW","clouds":[{"cover":"FEW","base":4800}],"fltCat":"VFR"},{"icaoId":"KSYR","receiptTime":"2026-04-17T17:56:26.761Z","obsTime":1776448440,"reportTime":"2026-04-17T18:00:00.000Z","temp":14.4,"dewp":11.1,"wdir":290,"wspd":8,"visib":"10+","altim":1015.7,"slp":1015.4,"qcField":4,"presTend":0.5,"maxT":15.6,"minT":12.2,"pcp6hr":0.005,"metarType":"METAR","rawOb":"METAR KSYR 171754Z 29008KT 10SM OVC012 14/11 A2999 RMK AO2 SLP154 60000 T01440111 10156 20122 51005","lat":43.1111,"lon":-76.1038,"elev":125,"name":"Syracuse/Hancock Intl, NY, US","cover":"OVC","clouds":[{"cover":"OVC","base":1200}],"fltCat":"MVFR"},{"icaoId":"KBTV","receiptTime":"2026-04-17T17:56:26.813Z","obsTime":1776448440,"reportTime":"2026-04-17T18:00:00.000Z","temp":13.3,"dewp":7.8,"wdir":320,"wspd":6,"visib":"10+","altim":1016.3,"slp":1016.4,"qcField":4,"presTend":-0.4,"maxT":13.9,"minT":9.4,"metarType":"METAR","rawOb":"METAR KBTV 171754Z 32006KT 10SM OVC019 13/08 A3001 RMK AO2 SLP164 T01330078 10139 20094 56004","lat":44.4682,"lon":-73.1499,"elev":101,"name":"Burlington Intl, VT, US","cover":"OVC","clouds":[{"cover":"OVC","base":1900}],"fltCat":"MVFR"},{"icaoId":"KSLC","receiptTime":"2026-04-17T17:58:13.084Z","obsTime":1776448440,"reportTime":"2026-04-17T18:00:00.000Z","temp":5,"dewp":-7.2,"wdir":"VRB","wspd":5,"visib":"10+","altim":1025.1,"slp":1025.3,"qcField":4,"presTend":0.9,"maxT":5,"minT":-1.1,"metarType":"METAR","rawOb":"METAR KSLC 171754Z VRB05KT 10SM SCT046 BKN060 05/M07 A3027 RMK AO2 SLP253 SH DSNT SW T00501072 10050 21011 51009","lat":40.7707,"lon":-111.965,"elev":1286,"name":"Salt Lake City Intl, UT, US","cover":"BKN","clouds":[{"cover":"SCT","base":4600},{"cover":"BKN","base":6000}],"fltCat":"VFR"},{"icaoId":"KFFZ","receiptTime":"2026-04-17T17:56:21.062Z","obsTime":1776448440,"reportTime":"2026-04-17T18:00:00.000Z","temp":24.4,"dewp":-1.1,"wdir":280,"wspd":7,"visib":"10+","altim":1014,"slp":1011.7,"qcField":4,"presTend":1,"maxT":25,"minT":15.6,"metarType":"METAR","rawOb":"METAR KFFZ 171754Z 28007KT 10SM CLR 24/M01 A2994 RMK AO2 SLP117 T02441011 10250 20156 51010","lat":33.4659,"lon":-111.7212,"elev":420,"name":"Mesa/Falcon Fld, AZ, US","cover":"CLR","clouds":[],"fltCat":"VFR"},{"icaoId":"KBWI","receiptTime":"2026-04-17T17:56:20.902Z","obsTime":1776448440,"reportTime":"2026-04-17T18:00:00.000Z","temp":25,"dewp":11.1,"wdir":330,"wspd":10,"wgst":16,"visib":"10+","altim":1013,"slp":1012.7,"qcField":4,"presTend":-0.1,"maxT":27.2,"minT":20.6,"metarType":"METAR","rawOb":"METAR KBWI 171754Z 33010G16KT 10SM SCT060 BKN250 25/11 A2991 RMK AO2 SLP127 T02500111 10272 20206 55001","lat":39.1733,"lon":-76.684,"elev":42,"name":"Baltimore-Washington Intl, MD, US","cover":"BKN","clouds":[{"cover":"SCT","base":6000},{"cover":"BKN","base":25000}],"fltCat":"VFR"},{"icaoId":"KSJN","receiptTime":"2026-04-17T17:56:20.755Z","obsTime":1776448440,"reportTime":"2026-04-17T18:00:00.000Z","temp":15.6,"dewp":-6.7,"wdir":310,"wspd":17,"wgst":29,"visib":"10+","altim":1017,"slp":1010.6,"qcField":6,"presTend":1,"maxT":16.7,"minT":3.9,"metarType":"METAR","rawOb":"METAR KSJN 171754Z AUTO 31017G29KT 10SM CLR 16/M07 A3003 RMK AO2 PK WND 29036/1706 SLP106 T01561067 10167 20039 53010","lat":34.5184,"lon":-109.3801,"elev":1747,"name":"St Johns Ind Arpt, AZ, US","cover":"CLR","clouds":[],"fltCat":"VFR"},{"icaoId":"KGSO","receiptTime":"2026-04-17T17:58:36.518Z","obsTime":1776448440,"reportTime":"2026-04-17T18:00:00.000Z","temp":27.2,"dewp":10.6,"wdir":"VRB","wspd":4,"visib":"10+","altim":1016,"slp":1014.7,"qcField":4,"presTend":-1.2,"maxT":28.3,"minT":18.9,"metarType":"METAR","rawOb":"METAR KGSO 171754Z VRB04KT 10SM BKN070 BKN250 27/11 A3000 RMK AO2 SLP147 T02720106 10283 20189 58012","lat":36.0969,"lon":-79.9432,"elev":275,"name":"Greensboro Intl, NC, US","cover":"BKN","clouds":[{"cover":"BKN","base":7000},{"cover":"BKN","base":25000}],"fltCat":"VFR"},{"icaoId":"KRIC","receiptTime":"2026-04-17T17:56:26.718Z","obsTime":1776448440,"reportTime":"2026-04-17T18:00:00.000Z","temp":28.9,"dewp":10,"wdir":250,"wspd":10,"visib":"10+","altim":1013.3,"slp":1013.3,"qcField":4,"presTend":-0.7,"maxT":28.9,"minT":22.2,"metarType":"METAR","rawOb":"METAR KRIC 171754Z 25010KT 10SM SCT065 BKN110 BKN250 29/10 A2992 RMK AO2 SLP133 T02890100 10289 20222 58007","lat":37.5115,"lon":-77.3234,"elev":51,"name":"Richmond Intl, VA, US","cover":"BKN","clouds":[{"cover":"SCT","base":6500},{"cover":"BKN","base":11000},{"cover":"BKN","base":25000}],"fltCat":"VFR"},{"icaoId":"KIND","receiptTime":"2026-04-17T17:58:37.289Z","obsTime":1776448440,"reportTime":"2026-04-17T18:00:00.000Z","temp":26.1,"dewp":11.7,"wdir":160,"wspd":13,"wgst":20,"visib":"10+","altim":1014.6,"slp":1014,"qcField":4,"presTend":-1.6,"maxT":26.1,"minT":14.4,"metarType":"METAR","rawOb":"METAR KIND 171754Z 16013G20KT 10SM FEW055 FEW200 SCT300 26/12 A2996 RMK AO2 SLP140 T02610117 10261 20144 58016","lat":39.7252,"lon":-86.2816,"elev":242,"name":"Indianapolis Intl, IN, US","cover":"SCT","clouds":[{"cover":"FEW","base":5500},{"cover":"FEW","base":20000},{"cover":"SCT","base":30000}],"fltCat":"VFR"},{"icaoId":"KPHL","receiptTime":"2026-04-17T17:58:12.938Z","obsTime":1776448440,"reportTime":"2026-04-17T18:00:00.000Z","temp":27.2,"dewp":11.7,"wdir":290,"wspd":13,"visib":"10+","altim":1011.6,"slp":1011.5,"qcField":12,"presTend":-0.7,"maxT":27.2,"minT":21.7,"metarType":"METAR","rawOb":"METAR KPHL 171754Z 29013KT 10SM BKN055 BKN080 BKN110 BKN330 27/12 A2987 RMK AO2 SLP115 T02720117 10272 20217 58007 $","lat":39.8733,"lon":-75.2268,"elev":2,"name":"Philadelphia Intl, PA, US","cover":"BKN","clouds":[{"cover":"BKN","base":5500},{"cover":"BKN","base":8000},{"cover":"BKN","base":11000},{"cover":"BKN","base":33000}],"fltCat":"VFR"},{"icaoId":"KRKS","receiptTime":"2026-04-17T17:58:12.987Z","obsTime":1776448440,"reportTime":"2026-04-17T18:00:00.000Z","temp":-1.1,"dewp":-11.7,"wdir":280,"wspd":12,"wgst":22,"visib":"10+","altim":1019.4,"slp":1022.6,"qcField":6,"presTend":0.8,"maxT":-0.6,"minT":-8.9,"metarType":"METAR","rawOb":"METAR KRKS 171754Z AUTO 28012G22KT 10SM BKN060 M01/M12 A3010 RMK AO2 SLP226 T10111117 11006 21089 53008","lat":41.5947,"lon":-109.0529,"elev":2062,"name":"Rock Springs/SW Wyoming Rgnl, WY, US","cover":"BKN","clouds":[{"cover":"BKN","base":6000}],"fltCat":"VFR"},{"icaoId":"KROC","receiptTime":"2026-04-17T17:58:36.603Z","obsTime":1776448440,"reportTime":"2026-04-17T18:00:00.000Z","temp":13.9,"dewp":11.1,"wdir":20,"wspd":5,"visib":"10+","altim":1017.4,"slp":1017.6,"qcField":12,"presTend":0.6,"maxT":13.9,"minT":11.7,"pcp6hr":0.01,"metarType":"METAR","rawOb":"METAR KROC 171754Z 02005KT 10SM OVC011 14/11 A3004 RMK AO2 SLP176 60001 T01390111 10139 20117 51006 $","lat":43.1172,"lon":-77.6754,"elev":166,"name":"Rochester Intl Arpt, NY, US","cover":"OVC","clouds":[{"cover":"OVC","base":1100}],"fltCat":"MVFR"},{"icaoId":"KBUF","receiptTime":"2026-04-17T17:58:36.444Z","obsTime":1776448440,"reportTime":"2026-04-17T18:00:00.000Z","temp":15,"dewp":11.7,"wdir":230,"wspd":5,"visib":"10+","altim":1017,"slp":1017.1,"qcField":4,"presTend":0.2,"maxT":15.6,"minT":10.6,"pcp6hr":0.005,"metarType":"METAR","rawOb":"METAR KBUF 171754Z 23005KT 10SM SCT016 BKN022 15/12 A3003 RMK AO2 SLP171 60000 T01500117 10156 20106 50002","lat":42.94,"lon":-78.7361,"elev":217,"name":"Buffalo-Niagara Intl, NY, US","cover":"BKN","clouds":[{"cover":"SCT","base":1600},{"cover":"BKN","base":2200}],"fltCat":"MVFR"},{"icaoId":"KDSM","receiptTime":"2026-04-17T17:58:36.503Z","obsTime":1776448440,"reportTime":"2026-04-17T18:00:00.000Z","temp":27.8,"dewp":17.8,"wdir":220,"wspd":21,"wgst":30,"visib":"10+","altim":1002.1,"slp":1001.2,"qcField":4,"presTend":-1.5,"maxT":27.8,"minT":18.9,"metarType":"METAR","rawOb":"METAR KDSM 171754Z 22021G30KT 10SM FEW038 SCT050 SCT200 SCT250 28/18 A2959 RMK AO2 PK WND 19033/1708 SLP012 T02780178 10278 20189 56015","lat":41.5339,"lon":-93.6531,"elev":286,"name":"Des Moines Intl, IA, US","cover":"SCT","clouds":[{"cover":"FEW","base":3800},{"cover":"SCT","base":5000},{"cover":"SCT","base":20000},{"cover":"SCT","base":25000}],"fltCat":"VFR"},{"icaoId":"KBFL","receiptTime":"2026-04-17T17:58:37.063Z","obsTime":1776448440,"reportTime":"2026-04-17T18:00:00.000Z","temp":17.2,"dewp":-3.3,"visib":"10+","altim":1018.4,"slp":1017.8,"qcField":4,"presTend":0.1,"maxT":17.8,"minT":8.9,"metarType":"METAR","rawOb":"METAR KBFL 171754Z 10SM CLR 17/M03 A3007 RMK AO2 SLP178 T01721033 10178 20089 50001","lat":35.4342,"lon":-119.0552,"elev":146,"name":"Bakersfield/Meadows Arpt, CA, US","cover":"CLR","clouds":[],"fltCat":"VFR"},{"icaoId":"KMEM","receiptTime":"2026-04-17T17:58:37.400Z","obsTime":1776448440,"reportTime":"2026-04-17T18:00:00.000Z","temp":28.9,"dewp":15.6,"wdir":210,"wspd":10,"wgst":23,"visib":"10+","altim":1015.3,"slp":1014.7,"qcField":12,"maxT":30,"minT":18.3,"metarType":"METAR","rawOb":"METAR KMEM 171754Z 21010G23KT 10SM SCT050 29/16 A2998 RMK AO2 SLP147 T02890156 10300 20183 $","lat":35.0564,"lon":-89.9864,"elev":78,"name":"Memphis Intl, TN, US","cover":"SCT","clouds":[{"cover":"SCT","base":5000}],"fltCat":"VFR"},{"icaoId":"KEUG","receiptTime":"2026-04-17T17:58:37.110Z","obsTime":1776448440,"reportTime":"2026-04-17T18:00:00.000Z","temp":8.9,"dewp":5,"wdir":330,"wspd":5,"visib":"10+","altim":1025.5,"slp":1025.6,"qcField":4,"presTend":-1.1,"maxT":8.9,"minT":0,"metarType":"METAR","rawOb":"METAR KEUG 171754Z 33005KT 10SM SCT012 BKN250 09/05 A3028 RMK AO2 SLP256 T00890050 10089 20000 58011","lat":44.1331,"lon":-123.2156,"elev":109,"name":"Eugene/Mahlon Sweet Fld, OR, US","cover":"BKN","clouds":[{"cover":"SCT","base":1200},{"cover":"BKN","base":25000}],"fltCat":"VFR"},{"icaoId":"KAPC","receiptTime":"2026-04-17T17:58:37.036Z","obsTime":1776448440,"reportTime":"2026-04-17T18:00:00.000Z","temp":19.4,"dewp":-3.9,"wdir":30,"wspd":9,"visib":"10+","altim":1018.7,"slp":1017.7,"qcField":4,"presTend":0.5,"maxT":19.4,"minT":6.1,"metarType":"METAR","rawOb":"METAR KAPC 171754Z 03009KT 10SM CLR 19/M04 A3008 RMK AO2 SLP177 T01941039 10194 20061 51005","lat":38.2075,"lon":-122.2804,"elev":5,"name":"Napa Cnty Arpt, CA, US","cover":"CLR","clouds":[],"fltCat":"VFR"},{"icaoId":"KOLS","receiptTime":"2026-04-17T17:56:22.824Z","obsTime":1776448440,"reportTime":"2026-04-17T18:00:00.000Z","temp":22.8,"dewp":0,"wdir":250,"wspd":7,"visib":"10+","altim":1016.3,"slp":1011.2,"qcField":6,"presTend":0.6,"maxT":22.8,"minT":8.3,"metarType":"METAR","rawOb":"METAR KOLS 171754Z AUTO 25007KT 220V300 10SM CLR 23/00 A3001 RMK AO2 SLP112 T02280000 10228 20083 50006","lat":31.4208,"lon":-110.8465,"elev":1194,"name":"Nogales Intl, AZ, US","cover":"CLR","clouds":[],"fltCat":"VFR"},{"icaoId":"KGCN","receiptTime":"2026-04-17T17:58:37.194Z","obsTime":1776448440,"reportTime":"2026-04-17T18:00:00.000Z","temp":8.9,"dewp":-12.8,"wdir":"VRB","wspd":4,"visib":"10+","altim":1019.7,"slp":1015,"qcField":4,"presTend":1.3,"maxT":9.4,"minT":-2.2,"metarType":"METAR","rawOb":"METAR KGCN 171754Z VRB04KT 10SM CLR 09/M13 A3011 RMK AO2 SLP150 T00891128 10094 21022 51013","lat":35.9458,"lon":-112.1554,"elev":1993,"name":"Grand Canyon Park Arpt, AZ, US","cover":"CLR","clouds":[],"fltCat":"VFR"},{"icaoId":"KBRO","receiptTime":"2026-04-17T17:56:24.606Z","obsTime":1776448380,"reportTime":"2026-04-17T18:00:00.000Z","temp":31.1,"dewp":21.1,"wdir":150,"wspd":23,"wgst":34,"visib":"10+","altim":1012.3,"slp":1012,"qcField":4,"presTend":-0.7,"maxT":31.1,"minT":25,"metarType":"METAR","rawOb":"METAR KBRO 171753Z 15023G34KT 10SM SCT029 BKN038 31/21 A2989 RMK AO2 PK WND 17035/1720 SLP120 T03110211 10311 20250 58007","lat":25.9146,"lon":-97.4231,"elev":6,"name":"Brownsville Intl, TX, US","cover":"BKN","clouds":[{"cover":"SCT","base":2900},{"cover":"BKN","base":3800}],"fltCat":"VFR"},{"icaoId":"KBLI","receiptTime":"2026-04-17T17:56:24.445Z","obsTime":1776448380,"reportTime":"2026-04-17T18:00:00.000Z","temp":9.4,"dewp":3.9,"wdir":"VRB","wspd":6,"visib":"10+","altim":1026.8,"slp":1027.5,"qcField":4,"presTend":0.1,"maxT":10,"minT":4.4,"pcp6hr":0.005,"metarType":"METAR","rawOb":"METAR KBLI 171753Z VRB06KT 10SM CLR 09/04 A3032 RMK AO2 SLP275 60000 T00940039 10100 20044 50001","lat":48.7991,"lon":-122.5407,"elev":46,"name":"Bellingham Intl, WA, US","cover":"CLR","clouds":[],"fltCat":"VFR"},{"icaoId":"KTPA","receiptTime":"2026-04-17T17:56:30.263Z","obsTime":1776448380,"reportTime":"2026-04-17T18:00:00.000Z","temp":27.8,"dewp":14.4,"wdir":250,"wspd":10,"visib":"10+","altim":1018,"slp":1017.9,"qcField":4,"presTend":-1.7,"maxT":28.9,"minT":19.4,"metarType":"METAR","rawOb":"METAR KTPA 171753Z 25010KT 10SM CLR 28/14 A3006 RMK AO2 SLP179 T02780144 10289 20194 58017","lat":27.9633,"lon":-82.54,"elev":2,"name":"Tampa Intl Arpt, FL, US","cover":"CLR","clouds":[],"fltCat":"VFR"},{"icaoId":"KLOL","receiptTime":"2026-04-17T17:56:25.208Z","obsTime":1776448380,"reportTime":"2026-04-17T18:00:00.000Z","temp":6.1,"dewp":-15.6,"wdir":0,"wspd":0,"visib":"10+","altim":1025.1,"slp":1026.3,"qcField":6,"presTend":-0.4,"maxT":6.7,"minT":-10,"metarType":"METAR","rawOb":"METAR KLOL 171753Z AUTO 00000KT 10SM CLR 06/M16 A3027 RMK AO2 SLP263 T00611156 10067 21100 58004","lat":40.0684,"lon":-118.5702,"elev":1191,"name":"Lovelock/Derby Fld, NV, US","cover":"CLR","clouds":[],"fltCat":"VFR"},{"icaoId":"KLAX","receiptTime":"2026-04-17T17:56:27.230Z","obsTime":1776448380,"reportTime":"2026-04-17T18:00:00.000Z","temp":18.9,"dewp":10,"wdir":290,"wspd":3,"visib":"10+","altim":1016.3,"slp":1016.3,"qcField":4,"presTend":1.2,"maxT":19.4,"minT":13.3,"metarType":"METAR","rawOb":"METAR KLAX 171753Z 29003KT 10SM SCT017 SCT030 19/10 A3001 RMK AO2 SLP163 T01890100 10194 20133 51012","lat":33.9382,"lon":-118.3866,"elev":30,"name":"Los Angeles Intl, CA, US","cover":"SCT","clouds":[{"cover":"SCT","base":1700},{"cover":"SCT","base":3000}],"fltCat":"VFR"},{"icaoId":"KMSY","receiptTime":"2026-04-17T17:56:28.172Z","obsTime":1776448380,"reportTime":"2026-04-17T18:00:00.000Z","temp":27.8,"dewp":18.3,"wdir":180,"wspd":11,"visib":"10+","altim":1018,"slp":1018.3,"qcField":4,"presTend":-0.8,"maxT":28.3,"minT":20,"metarType":"METAR","rawOb":"METAR KMSY 171753Z 18011KT 10SM SCT036 SCT250 28/18 A3006 RMK AO2 SLP183 T02780183 10283 20200 58008","lat":29.9974,"lon":-90.2777,"elev":0,"name":"New Orleans/Armstrong Intl, LA, US","cover":"SCT","clouds":[{"cover":"SCT","base":3600},{"cover":"SCT","base":25000}],"fltCat":"VFR"},{"icaoId":"KGSP","receiptTime":"2026-04-17T17:56:25.791Z","obsTime":1776448380,"reportTime":"2026-04-17T18:00:00.000Z","temp":28.9,"dewp":6.1,"wdir":10,"wspd":8,"wgst":14,"visib":"10+","altim":1017,"slp":1015.7,"qcField":4,"presTend":-1.4,"maxT":28.9,"minT":16.1,"metarType":"METAR","rawOb":"METAR KGSP 171753Z 01008G14KT 10SM CLR 29/06 A3003 RMK AO2 SLP157 T02890061 10289 20161 58014","lat":34.8842,"lon":-82.2209,"elev":285,"name":"Greenville-Spartanburg Intl, SC, US","cover":"CLR","clouds":[],"fltCat":"VFR"},{"icaoId":"KHLN","receiptTime":"2026-04-17T17:56:26.074Z","obsTime":1776448380,"reportTime":"2026-04-17T18:00:00.000Z","temp":3.3,"dewp":-3.9,"wdir":250,"wspd":13,"visib":"10+","altim":1019.4,"slp":1023.1,"qcField":4,"presTend":0.8,"maxT":4.4,"minT":0.6,"precip":0.005,"pcp6hr":0.005,"metarType":"METAR","rawOb":"METAR KHLN 171753Z 25013KT 10SM BKN044 OVC060 03/M04 A3010 RMK AO2 PK WND 26032/1724 SNB33E44 SLP231 P0000 60000 T00331039 10044 20006 53008","lat":46.6045,"lon":-111.9892,"elev":1178,"name":"Helena Rgnl, MT, US","cover":"OVC","clouds":[{"cover":"BKN","base":4400},{"cover":"OVC","base":6000}],"fltCat":"VFR"},{"icaoId":"KTUS","receiptTime":"2026-04-17T17:56:23.285Z","obsTime":1776448380,"reportTime":"2026-04-17T18:00:00.000Z","temp":23.9,"dewp":0,"wdir":290,"wspd":8,"visib":"10+","altim":1015.3,"slp":1011.5,"qcField":12,"presTend":0.3,"maxT":23.9,"minT":13.9,"metarType":"METAR","rawOb":"METAR KTUS 171753Z 29008KT 240V320 10SM CLR 24/00 A2998 RMK AO2 SLP115 T02390000 10239 20139 50003 $","lat":32.1315,"lon":-110.9564,"elev":776,"name":"Tucson Intl Arpt, AZ, US","cover":"CLR","clouds":[],"fltCat":"VFR"},{"icaoId":"KYKM","receiptTime":"2026-04-17T17:56:23.332Z","obsTime":1776448380,"reportTime":"2026-04-17T18:00:00.000Z","temp":11.7,"dewp":-5,"wdir":"VRB","wspd":3,"visib":"10+","altim":1024.8,"slp":1025.2,"qcField":4,"presTend":-0.1,"maxT":11.7,"minT":-3.3,"metarType":"METAR","rawOb":"METAR KYKM 171753Z VRB03KT 10SM CLR 12/M05 A3026 RMK AO2 SLP252 T01171050 10117 21033 55001","lat":46.564,"lon":-120.5349,"elev":319,"name":"Yakima/McAllister Fld, WA, US","cover":"CLR","clouds":[],"fltCat":"VFR"},{"icaoId":"KMSP","receiptTime":"2026-04-17T17:56:28.359Z","obsTime":1776448380,"reportTime":"2026-04-17T18:00:00.000Z","temp":11.7,"dewp":7.8,"wdir":330,"wspd":11,"visib":"10+","altim":1000.1,"slp":1000,"qcField":4,"presTend":-1,"maxT":19.4,"minT":11.7,"precip":0.005,"pcp6hr":0.06,"metarType":"METAR","rawOb":"METAR KMSP 171753Z 33011KT 10SM OVC013 12/08 A2953 RMK AO2 PK WND 28026/1710 WSHFT 1709 RAB15E40 SLP000 FROPA P0000 60006 T01170078 10194 20117 58010","lat":44.8852,"lon":-93.2313,"elev":255,"name":"Minneapolis-St Paul Intl, MN, US","cover":"OVC","clouds":[{"cover":"OVC","base":1300}],"fltCat":"MVFR"},{"icaoId":"KMYF","receiptTime":"2026-04-17T17:56:23.611Z","obsTime":1776448380,"reportTime":"2026-04-17T18:00:00.000Z","temp":19.4,"dewp":8.9,"visib":"10+","altim":1016,"slp":1015.5,"qcField":4,"presTend":0.5,"maxT":19.4,"minT":12.2,"metarType":"METAR","rawOb":"METAR KMYF 171753Z 10SM CLR 19/09 A3000 RMK AO2 SLP155 T01940089 10194 20122 50005","lat":32.8145,"lon":-117.1375,"elev":128,"name":"San Diego/Montgomery Arpt, CA, US","cover":"CLR","clouds":[],"fltCat":"VFR"},{"icaoId":"KOAK","receiptTime":"2026-04-17T17:56:23.649Z","obsTime":1776448380,"reportTime":"2026-04-17T18:00:00.000Z","temp":17.2,"dewp":-3.3,"wdir":270,"wspd":8,"visib":"10+","altim":1019,"slp":1019,"qcField":12,"presTend":0.6,"maxT":18.3,"minT":7.8,"metarType":"METAR","rawOb":"METAR KOAK 171753Z 27008KT 10SM FEW200 17/M03 A3009 RMK AO2 SLP190 T01721033 10183 20078 51006 $","lat":37.7178,"lon":-122.233,"elev":3,"name":"Oakland Intl, CA, US","cover":"FEW","clouds":[{"cover":"FEW","base":20000}],"fltCat":"VFR"},{"icaoId":"KOGD","receiptTime":"2026-04-17T17:56:23.692Z","obsTime":1776448380,"reportTime":"2026-04-17T18:00:00.000Z","temp":3.3,"dewp":-11.1,"wdir":"VRB","wspd":6,"visib":"10+","altim":1024.8,"slp":1025.2,"qcField":4,"presTend":0.8,"maxT":3.9,"minT":-3.9,"metarType":"METAR","rawOb":"METAR KOGD 171753Z VRB06KT 10SM CLR 03/M11 A3026 RMK AO2 SLP252 T00331111 10039 21039 53008","lat":41.1941,"lon":-112.0168,"elev":1356,"name":"Ogden/Hinckley Arpt, UT, US","cover":"CLR","clouds":[],"fltCat":"VFR"},{"icaoId":"KONT","receiptTime":"2026-04-17T17:56:23.772Z","obsTime":1776448380,"reportTime":"2026-04-17T18:00:00.000Z","temp":18.3,"dewp":8.3,"wdir":"VRB","wspd":4,"visib":"10+","altim":1016.3,"slp":1015.6,"qcField":12,"presTend":0.8,"maxT":18.3,"minT":12.2,"metarType":"METAR","rawOb":"METAR KONT 171753Z VRB04KT 10SM FEW055 18/08 A3001 RMK AO2 SLP156 T01830083 10183 20122 51008 $","lat":34.0531,"lon":-117.5769,"elev":279,"name":"Ontario Intl, CA, US","cover":"FEW","clouds":[{"cover":"FEW","base":5500}],"fltCat":"VFR"},{"icaoId":"KBCE","receiptTime":"2026-04-17T17:56:24.222Z","obsTime":1776448380,"reportTime":"2026-04-17T18:00:00.000Z","temp":0,"dewp":-17.8,"wdir":40,"wspd":16,"wgst":24,"visib":"10+","altim":1022.1,"slp":1019.2,"qcField":6,"presTend":1.7,"maxT":0.6,"minT":-8.9,"metarType":"METAR","rawOb":"METAR KBCE 171753Z AUTO 04016G24KT 10SM CLR 00/M18 A3018 RMK AO2 PK WND 03028/1736 SLP192 T00001178 10006 21089 51017","lat":37.7013,"lon":-112.149,"elev":2311,"name":"Bryce Canyon Arpt, UT, US","cover":"CLR","clouds":[],"fltCat":"VFR"},{"icaoId":"KBFI","receiptTime":"2026-04-17T17:56:24.296Z","obsTime":1776448380,"reportTime":"2026-04-17T18:00:00.000Z","temp":10.6,"dewp":2.2,"wdir":10,"wspd":3,"visib":"10+","altim":1026.8,"slp":1026.6,"qcField":4,"presTend":-0.5,"maxT":10.6,"minT":5,"metarType":"METAR","rawOb":"METAR KBFI 171753Z 01003KT 10SM FEW032 11/02 A3032 RMK AO2 SLP266 T01060022 10106 20050 58005","lat":47.5455,"lon":-122.3148,"elev":7,"name":"Seattle/Boeing Fld, WA, US","cover":"FEW","clouds":[{"cover":"FEW","base":3200}],"fltCat":"VFR"},{"icaoId":"KBHM","receiptTime":"2026-04-17T17:56:24.359Z","obsTime":1776448380,"reportTime":"2026-04-17T18:00:00.000Z","temp":28.9,"dewp":15,"wdir":0,"wspd":0,"visib":"10+","altim":1019,"slp":1017.9,"qcField":4,"presTend":-0.9,"maxT":29.4,"minT":16.7,"metarType":"METAR","rawOb":"METAR KBHM 171753Z 00000KT 10SM FEW055 29/15 A3009 RMK AO2 SLP179 T02890150 10294 20167 58009","lat":33.5655,"lon":-86.7449,"elev":191,"name":"Birmingham Intl, AL, US","cover":"FEW","clouds":[{"cover":"FEW","base":5500}],"fltCat":"VFR"},{"icaoId":"KBNA","receiptTime":"2026-04-17T17:56:24.492Z","obsTime":1776448380,"reportTime":"2026-04-17T18:00:00.000Z","temp":26.7,"dewp":16.1,"wdir":"VRB","wspd":6,"visib":"10+","altim":1017.7,"slp":1017.1,"qcField":4,"presTend":-1.1,"maxT":26.7,"minT":14.4,"metarType":"METAR","rawOb":"METAR KBNA 171753Z VRB06KT 10SM FEW034 SCT044TCU BKN055 27/16 A3005 RMK AO2 SLP171 TCU SE AND SW T02670161 10267 20144 58011","lat":36.1105,"lon":-86.6881,"elev":168,"name":"Nashville Intl, TN, US","cover":"BKN","clouds":[{"cover":"FEW","base":3400},{"cover":"SCT","base":4400},{"cover":"BKN","base":5500}],"fltCat":"VFR"},{"icaoId":"KBOI","receiptTime":"2026-04-17T17:56:24.507Z","obsTime":1776448380,"reportTime":"2026-04-17T18:00:00.000Z","temp":7.2,"dewp":-5,"wdir":0,"wspd":0,"visib":"10+","altim":1025.5,"slp":1026.5,"qcField":4,"presTend":0.2,"maxT":7.2,"minT":-1.7,"metarType":"METAR","rawOb":"METAR KBOI 171753Z 00000KT 10SM CLR 07/M05 A3028 RMK AO2 SLP265 T00721050 10072 21017 51002","lat":43.567,"lon":-116.2406,"elev":860,"name":"Boise Arpt, ID, US","cover":"CLR","clouds":[],"fltCat":"VFR"},{"icaoId":"KBTM","receiptTime":"2026-04-17T17:56:24.642Z","obsTime":1776448380,"reportTime":"2026-04-17T18:00:00.000Z","temp":1.1,"dewp":-11.7,"wdir":330,"wspd":11,"wgst":20,"visib":"10+","altim":1019,"slp":1021.9,"qcField":6,"maxT":1.7,"minT":-5,"pcp6hr":0.005,"metarType":"METAR","rawOb":"METAR KBTM 171753Z AUTO 33011G20KT 10SM FEW050 BKN070 01/M12 A3009 RMK AO2 SLP219 60000 T00111117 10017 21050 53000","lat":45.9644,"lon":-112.5015,"elev":1680,"name":"Butte/Mooney Arpt, MT, US","cover":"BKN","clouds":[{"cover":"FEW","base":5000},{"cover":"BKN","base":7000}],"fltCat":"VFR"},{"icaoId":"KBUR","receiptTime":"2026-04-17T17:56:24.655Z","obsTime":1776448380,"reportTime":"2026-04-17T18:00:00.000Z","temp":18.3,"dewp":9.4,"wdir":170,"wspd":3,"visib":"10+","altim":1016.3,"slp":1015.4,"qcField":4,"presTend":0.8,"maxT":18.3,"minT":12.2,"metarType":"METAR","rawOb":"METAR KBUR 171753Z 17003KT 10SM CLR 18/09 A3001 RMK AO2 SLP154 T01830094 10183 20122 50008","lat":34.1996,"lon":-118.3654,"elev":221,"name":"Burbank/Bob Hope Arpt, CA, US","cover":"CLR","clouds":[],"fltCat":"VFR"},{"icaoId":"KFUL","receiptTime":"2026-04-17T17:56:24.922Z","obsTime":1776448380,"reportTime":"2026-04-17T18:00:00.000Z","temp":20.6,"dewp":9.4,"wdir":0,"wspd":0,"visib":"10+","altim":1016.3,"slp":1016,"qcField":4,"presTend":1,"maxT":20.6,"minT":13.3,"metarType":"METAR","rawOb":"METAR KFUL 171753Z 00000KT 10SM CLR 21/09 A3001 RMK AO2 SLP160 T02060094 10206 20133 51010","lat":33.8715,"lon":-117.9856,"elev":23,"name":"Fullerton Muni, CA, US","cover":"CLR","clouds":[],"fltCat":"VFR"},{"icaoId":"KGJT","receiptTime":"2026-04-17T17:56:25.080Z","obsTime":1776448380,"reportTime":"2026-04-17T18:00:00.000Z","temp":2.8,"dewp":-5,"wdir":270,"wspd":5,"visib":"10+","altim":1022.1,"slp":1020.8,"qcField":4,"presTend":2,"maxT":3.3,"minT":-1.7,"precip":0.005,"pcp6hr":0.01,"metarType":"METAR","rawOb":"METAR KGJT 171753Z 27005KT 10SM FEW034 SCT042 OVC049 03/M05 A3018 RMK AO2 RAE1654 SLP208 P0000 60001 T00281050 10033 21017 51020","lat":39.1344,"lon":-108.5408,"elev":1475,"name":"Grand Junction Rgnl, CO, US","cover":"OVC","clouds":[{"cover":"FEW","base":3400},{"cover":"SCT","base":4200},{"cover":"OVC","base":4900}],"fltCat":"VFR"},{"icaoId":"KLGB","receiptTime":"2026-04-17T17:56:25.132Z","obsTime":1776448380,"reportTime":"2026-04-17T18:00:00.000Z","temp":20,"dewp":10,"wdir":20,"wspd":4,"visib":"10+","altim":1016.3,"slp":1016.2,"qcField":12,"presTend":1.2,"maxT":20,"minT":13.3,"metarType":"METAR","rawOb":"METAR KLGB 171753Z 02004KT 10SM CLR 20/10 A3001 RMK AO2 SLP162 T02000100 10200 20133 51012 $","lat":33.8118,"lon":-118.1472,"elev":10,"name":"Long Beach Arpt, CA, US","cover":"CLR","clouds":[],"fltCat":"VFR"},{"icaoId":"KLVS","receiptTime":"2026-04-17T17:56:25.316Z","obsTime":1776448380,"reportTime":"2026-04-17T18:00:00.000Z","temp":16.1,"dewp":-13.3,"wdir":190,"wspd":30,"wgst":40,"visib":"10+","altim":1013,"slp":1004.8,"qcField":6,"presTend":-0.3,"maxT":16.1,"minT":8.3,"metarType":"METAR","rawOb":"METAR KLVS 171753Z AUTO 19030G40KT 10SM CLR 16/M13 A2991 RMK AO2 PK WND 22043/1714 SLP048 T01611133 10161 20083 56003","lat":35.6558,"lon":-105.1385,"elev":2095,"name":"Las Vegas Muni, NM, US","cover":"CLR","clouds":[],"fltCat":"VFR"},{"icaoId":"KMAF","receiptTime":"2026-04-17T17:56:25.365Z","obsTime":1776448380,"reportTime":"2026-04-17T18:00:00.000Z","temp":28.9,"dewp":6.1,"wdir":230,"wspd":12,"visib":"10+","altim":1010.9,"slp":1006,"qcField":4,"presTend":-0.5,"maxT":29.4,"minT":19.4,"metarType":"METAR","rawOb":"METAR KMAF 171753Z 23012KT 10SM CLR 29/06 A2985 RMK AO2 SLP060 T02890061 10294 20194 58005","lat":31.9475,"lon":-102.2086,"elev":874,"name":"Midland Intl, TX, US","cover":"CLR","clouds":[],"fltCat":"VFR"},{"icaoId":"KMCI","receiptTime":"2026-04-17T17:56:25.434Z","obsTime":1776448380,"reportTime":"2026-04-17T18:00:00.000Z","temp":25.6,"dewp":18.9,"wdir":190,"wspd":19,"wgst":27,"visib":"10+","altim":1004.5,"slp":1003.5,"qcField":4,"presTend":-0.5,"maxT":26.7,"minT":20.6,"metarType":"METAR","rawOb":"METAR KMCI 171753Z 19019G27KT 10SM OVC042 26/19 A2966 RMK AO2 PK WND 21031/1709 SLP035 T02560189 10267 20206 58005","lat":39.2975,"lon":-94.7309,"elev":308,"name":"Kansas City Intl, MO, US","cover":"OVC","clouds":[{"cover":"OVC","base":4200}],"fltCat":"VFR"},{"icaoId":"KMCO","receiptTime":"2026-04-17T17:56:25.465Z","obsTime":1776448380,"reportTime":"2026-04-17T18:00:00.000Z","temp":28.3,"dewp":13.9,"wdir":0,"wspd":0,"visib":"10+","altim":1019,"slp":1018.7,"qcField":4,"presTend":-1.3,"maxT":28.9,"minT":19.4,"metarType":"METAR","rawOb":"METAR KMCO 171753Z 00000KT 10SM SCT055 28/14 A3009 RMK AO2 SLP187 T02830139 10289 20194 58013","lat":28.4182,"lon":-81.3241,"elev":27,"name":"Orlando Intl, FL, US","cover":"SCT","clouds":[{"cover":"SCT","base":5500}],"fltCat":"VFR"},{"icaoId":"KMFE","receiptTime":"2026-04-17T17:56:25.513Z","obsTime":1776448380,"reportTime":"2026-04-17T18:00:00.000Z","temp":31.1,"dewp":20.6,"wdir":160,"wspd":23,"wgst":32,"visib":"10+","altim":1010.9,"slp":1010.8,"qcField":4,"presTend":-1,"maxT":31.7,"minT":23.9,"metarType":"METAR","rawOb":"METAR KMFE 171753Z 16023G32KT 10SM BKN039 31/21 A2985 RMK AO2 PK WND 14035/1737 SLP108 T03110206 10317 20239 58010","lat":26.1791,"lon":-98.2445,"elev":29,"name":"McAllen/Miller Intl, TX, US","cover":"BKN","clouds":[{"cover":"BKN","base":3900}],"fltCat":"VFR"},{"icaoId":"KMFR","receiptTime":"2026-04-17T17:56:25.529Z","obsTime":1776448380,"reportTime":"2026-04-17T18:00:00.000Z","temp":7.8,"dewp":0,"wdir":0,"wspd":0,"visib":"10+","altim":1023.8,"slp":1024.1,"qcField":4,"presTend":-1.5,"maxT":7.8,"minT":-1.7,"metarType":"METAR","rawOb":"METAR KMFR 171753Z 00000KT 10SM CLR 08/00 A3023 RMK AO2 SLP241 T00780000 10078 21017 58015","lat":42.375,"lon":-122.877,"elev":397,"name":"Medford/Rogue Valley Intl, OR, US","cover":"CLR","clouds":[],"fltCat":"VFR"},{"icaoId":"KGTF","receiptTime":"2026-04-17T17:56:25.804Z","obsTime":1776448380,"reportTime":"2026-04-17T18:00:00.000Z","temp":3.3,"dewp":-7.2,"wdir":360,"wspd":9,"visib":"10+","altim":1019,"slp":1022.9,"qcField":4,"presTend":1,"maxT":3.3,"minT":-7.8,"metarType":"METAR","rawOb":"METAR KGTF 171753Z 36009KT 10SM OVC065 03/M07 A3009 RMK AO2 SLP229 T00331072 10033 21078 51010","lat":47.4733,"lon":-111.3828,"elev":1117,"name":"Great Falls Intl, MT, US","cover":"OVC","clouds":[{"cover":"OVC","base":6500}],"fltCat":"VFR"},{"icaoId":"KHIO","receiptTime":"2026-04-17T17:56:25.990Z","obsTime":1776448380,"reportTime":"2026-04-17T18:00:00.000Z","temp":9.4,"dewp":2.8,"wdir":"VRB","wspd":3,"visib":"10+","altim":1026.2,"slp":1026.2,"qcField":4,"presTend":-0.8,"maxT":10,"minT":0.6,"metarType":"METAR","rawOb":"METAR KHIO 171753Z VRB03KT 10SM BKN041 09/03 A3030 RMK AO2 SLP262 T00940028 10100 20006 58008","lat":45.5476,"lon":-122.9557,"elev":62,"name":"Portland/Hillsboro Arpt, OR, US","cover":"BKN","clouds":[{"cover":"BKN","base":4100}],"fltCat":"VFR"},{"icaoId":"KHOU","receiptTime":"2026-04-17T17:56:26.102Z","obsTime":1776448380,"reportTime":"2026-04-17T18:00:00.000Z","temp":27.8,"dewp":20,"wdir":160,"wspd":16,"wgst":23,"visib":9,"altim":1014.3,"slp":1014.6,"qcField":4,"presTend":-0.5,"maxT":27.8,"minT":20.6,"metarType":"METAR","rawOb":"METAR KHOU 171753Z 16016G23KT 9SM SCT030 BKN055 BKN250 28/20 A2995 RMK AO2 PK WND 17026/1702 SLP146 T02780200 10278 20206 58005","lat":29.6458,"lon":-95.2821,"elev":13,"name":"Houston/Hobby Arpt, TX, US","cover":"BKN","clouds":[{"cover":"SCT","base":3000},{"cover":"BKN","base":5500},{"cover":"BKN","base":25000}],"fltCat":"VFR"},{"icaoId":"KCDC","receiptTime":"2026-04-17T17:56:26.209Z","obsTime":1776448380,"reportTime":"2026-04-17T18:00:00.000Z","temp":2.8,"dewp":-8.3,"wdir":30,"wspd":14,"visib":"10+","altim":1023.5,"slp":1023.3,"qcField":6,"presTend":1,"maxT":2.8,"minT":-6.1,"metarType":"METAR","rawOb":"METAR KCDC 171753Z AUTO 03014KT 10SM CLR 03/M08 A3022 RMK AO2 SLP233 T00281083 10028 21061 51010","lat":37.7067,"lon":-113.097,"elev":1703,"name":"Cedar City Muni, UT, US","cover":"CLR","clouds":[],"fltCat":"VFR"},{"icaoId":"KCNM","receiptTime":"2026-04-17T17:56:26.366Z","obsTime":1776448380,"reportTime":"2026-04-17T18:00:00.000Z","temp":30.6,"dewp":-0.6,"wdir":240,"wspd":24,"wgst":31,"visib":"10+","altim":1010.9,"slp":1004.9,"qcField":6,"presTend":-0.4,"maxT":30.6,"minT":15.6,"metarType":"METAR","rawOb":"METAR KCNM 171753Z AUTO 24024G31KT 10SM CLR 31/M01 A2985 RMK AO2 PK WND 25034/1738 SLP049 T03061006 10306 20156 56004","lat":32.3336,"lon":-104.2584,"elev":993,"name":"Carlsbad/Cavern City Air Term, NM, US","cover":"CLR","clouds":[],"fltCat":"VFR"},{"icaoId":"KCPR","receiptTime":"2026-04-17T17:56:26.408Z","obsTime":1776448380,"reportTime":"2026-04-17T18:00:00.000Z","temp":-1.1,"dewp":-4.4,"wdir":250,"wspd":7,"visib":"10+","altim":1017.4,"slp":1020.1,"qcField":4,"presTend":1.1,"maxT":-1.1,"minT":-4.4,"pcp6hr":0.08,"metarType":"METAR","rawOb":"METAR KCPR 171753Z 25007KT 10SM CLR M01/M04 A3004 RMK AO2 SLP201 60008 T10111044 11011 21044 51011","lat":42.8978,"lon":-106.4736,"elev":1623,"name":"Casper/Natrona Cnty, WY, US","cover":"CLR","clouds":[],"fltCat":"VFR"},{"icaoId":"KCNY","receiptTime":"2026-04-17T17:56:26.879Z","obsTime":1776448380,"reportTime":"2026-04-17T18:00:00.000Z","temp":5.6,"dewp":-14.4,"visib":"10+","altim":1021.4,"slp":1020.8,"qcField":14,"presTend":1.7,"maxT":6.1,"minT":1.7,"metarType":"METAR","rawOb":"METAR KCNY 171753Z AUTO 10SM SCT075 06/M14 A3016 RMK AO2 SLP208 T00561144 10061 20017 51017 $","lat":38.7501,"lon":-109.7627,"elev":1392,"name":"Moab/Canyonland Fld, UT, US","cover":"SCT","clouds":[{"cover":"SCT","base":7500}],"fltCat":"VFR"},{"icaoId":"KCRQ","receiptTime":"2026-04-17T17:56:26.891Z","obsTime":1776448380,"reportTime":"2026-04-17T18:00:00.000Z","temp":18.9,"dewp":8.9,"wdir":180,"wspd":3,"visib":"10+","altim":1016,"slp":1015.5,"qcField":6,"presTend":0.6,"maxT":20,"minT":12.8,"metarType":"METAR","rawOb":"METAR KCRQ 171753Z AUTO 18003KT 10SM FEW035 19/09 A3000 RMK AO2 SLP155 T01890089 10200 20128 51006","lat":33.1299,"lon":-117.2765,"elev":96,"name":"Carlsbad/Palomar Arpt, CA, US","cover":"FEW","clouds":[{"cover":"FEW","base":3500}],"fltCat":"VFR"},{"icaoId":"KDAL","receiptTime":"2026-04-17T17:56:26.930Z","obsTime":1776448380,"reportTime":"2026-04-17T18:00:00.000Z","temp":26.1,"dewp":18.3,"wdir":170,"wspd":15,"wgst":22,"visib":"10+","altim":1011.6,"slp":1010.7,"qcField":4,"presTend":-0.7,"maxT":26.1,"minT":20.6,"metarType":"METAR","rawOb":"METAR KDAL 171753Z 17015G22KT 10SM BKN033 OVC045 26/18 A2987 RMK AO2 PK WND 18027/1711 SLP107 T02610183 10261 20206 58007","lat":32.8384,"lon":-96.8358,"elev":148,"name":"Dallas/Love Fld, TX, US","cover":"OVC","clouds":[{"cover":"BKN","base":3300},{"cover":"OVC","base":4500}],"fltCat":"VFR"},{"icaoId":"KDMN","receiptTime":"2026-04-17T17:56:26.956Z","obsTime":1776448380,"reportTime":"2026-04-17T18:00:00.000Z","temp":23.3,"dewp":-2.8,"wdir":270,"wspd":15,"wgst":23,"visib":"10+","altim":1015.3,"slp":1008.5,"qcField":6,"presTend":0.5,"maxT":23.9,"minT":7.8,"metarType":"METAR","rawOb":"METAR KDMN 171753Z AUTO 27015G23KT 10SM CLR 23/M03 A2998 RMK AO2 PK WND 27027/1724 SLP085 T02331028 10239 20078 53005","lat":32.2592,"lon":-107.7206,"elev":1310,"name":"Deming Muni, NM, US","cover":"CLR","clouds":[],"fltCat":"VFR"},{"icaoId":"KFMN","receiptTime":"2026-04-17T17:56:27.043Z","obsTime":1776448380,"reportTime":"2026-04-17T18:00:00.000Z","temp":8.9,"dewp":-7.2,"wdir":320,"wspd":19,"wgst":29,"visib":"10+","altim":1018.4,"slp":1015.4,"qcField":4,"presTend":3.5,"maxT":10.6,"minT":6.1,"metarType":"METAR","rawOb":"METAR KFMN 171753Z 32019G29KT 10SM SCT060 BKN100 09/M07 A3007 RMK AO2 PK WND 28036/1705 SLP154 T00891072 10106 20061 51035","lat":36.7435,"lon":-108.2293,"elev":1677,"name":"Farmington/Four Corners Rgnl, NM, US","cover":"BKN","clouds":[{"cover":"SCT","base":6000},{"cover":"BKN","base":10000}],"fltCat":"VFR"},{"icaoId":"KLBB","receiptTime":"2026-04-17T17:56:27.241Z","obsTime":1776448380,"reportTime":"2026-04-17T18:00:00.000Z","temp":28.9,"dewp":0,"wdir":260,"wspd":15,"wgst":27,"visib":"10+","altim":1009.9,"slp":1004.6,"qcField":4,"presTend":-0.4,"maxT":28.9,"minT":17.8,"metarType":"METAR","rawOb":"METAR KLBB 171753Z 26015G27KT 10SM FEW150 FEW200 BKN250 29/00 A2982 RMK AO2 PK WND 26029/1707 SLP046 VIRGA DSNT SE T02890000 10289 20178 58004","lat":33.6658,"lon":-101.8233,"elev":996,"name":"Lubbock Intl Arpt, TX, US","cover":"BKN","clouds":[{"cover":"FEW","base":15000},{"cover":"FEW","base":20000},{"cover":"BKN","base":25000}],"fltCat":"VFR"},{"icaoId":"KMTJ","receiptTime":"2026-04-17T17:56:28.370Z","obsTime":1776448380,"reportTime":"2026-04-17T18:00:00.000Z","temp":-0.6,"dewp":-5.6,"wdir":290,"wspd":18,"wgst":25,"visib":"10+","altim":1021.1,"slp":1018.1,"qcField":6,"presTend":1.9,"maxT":0.6,"minT":-2.8,"precip":0.005,"pcp6hr":0.03,"metarType":"METAR","rawOb":"METAR KMTJ 171753Z AUTO 29018G25KT 10SM BKN049 OVC060 M01/M06 A3015 RMK AO2 PK WND 31028/1702 SNE20 SLP181 P0000 60003 T10061056 10006 21028 51019","lat":38.5054,"lon":-107.8981,"elev":1755,"name":"Montrose Rgnl, CO, US","cover":"OVC","clouds":[{"cover":"BKN","base":4900},{"cover":"OVC","base":6000}],"fltCat":"VFR"},{"icaoId":"KMDW","receiptTime":"2026-04-17T17:56:28.450Z","obsTime":1776448380,"reportTime":"2026-04-17T18:00:00.000Z","temp":25.6,"dewp":16.7,"wdir":180,"wspd":17,"wgst":26,"visib":"10+","altim":1010.9,"slp":1010.3,"qcField":4,"presTend":-2,"maxT":25.6,"minT":10.6,"metarType":"METAR","rawOb":"METAR KMDW 171753Z 18017G26KT 10SM FEW035 FEW200 BKN250 26/17 A2985 RMK AO2 PK WND 17031/1732 SLP103 T02560167 10256 20106 58020","lat":41.7841,"lon":-87.7552,"elev":186,"name":"Chicago/Midway Intl, IL, US","cover":"BKN","clouds":[{"cover":"FEW","base":3500},{"cover":"FEW","base":20000},{"cover":"BKN","base":25000}],"fltCat":"VFR"},{"icaoId":"KACV","receiptTime":"2026-04-17T17:56:28.680Z","obsTime":1776448380,"reportTime":"2026-04-17T18:00:00.000Z","temp":12.2,"dewp":6.7,"wdir":300,"wspd":5,"visib":"10+","altim":1021.1,"slp":1021.6,"qcField":6,"presTend":-0.3,"maxT":12.2,"minT":1.1,"metarType":"METAR","rawOb":"METAR KACV 171753Z AUTO 30005KT 10SM CLR 12/07 A3015 RMK AO2 SLP216 T01220067 10122 20011 56003","lat":40.9784,"lon":-124.1048,"elev":63,"name":"Arcata Arpt, CA, US","cover":"CLR","clouds":[],"fltCat":"VFR"},{"icaoId":"KAMA","receiptTime":"2026-04-17T17:56:28.810Z","obsTime":1776448380,"reportTime":"2026-04-17T18:00:00.000Z","temp":28.3,"dewp":-7.2,"wdir":250,"wspd":14,"wgst":28,"visib":"10+","altim":1008.5,"slp":1003.4,"qcField":4,"presTend":-0.8,"maxT":28.9,"minT":16.7,"metarType":"METAR","rawOb":"METAR KAMA 171753Z 25014G28KT 10SM CLR 28/M07 A2978 RMK AO2 PK WND 24028/1747 SLP034 T02831072 10289 20167 58008","lat":35.2203,"lon":-101.7173,"elev":1102,"name":"Amarillo Intl Arpt, TX, US","cover":"CLR","clouds":[],"fltCat":"VFR"},{"icaoId":"KFAT","receiptTime":"2026-04-17T17:56:29.031Z","obsTime":1776448380,"reportTime":"2026-04-17T18:00:00.000Z","temp":16.7,"dewp":0.6,"wdir":120,"wspd":9,"visib":"10+","altim":1018.4,"slp":1018.2,"qcField":12,"presTend":0.5,"maxT":16.7,"minT":8.9,"metarType":"METAR","rawOb":"METAR KFAT 171753Z 12009KT 10SM FEW055 17/01 A3007 RMK AO2 SLP182 T01670006 10167 20089 50005 $","lat":36.78,"lon":-119.7202,"elev":102,"name":"Fresno/Yosemite Intl, CA, US","cover":"FEW","clouds":[{"cover":"FEW","base":5500}],"fltCat":"VFR"},{"icaoId":"KGEG","receiptTime":"2026-04-17T17:56:29.059Z","obsTime":1776448380,"reportTime":"2026-04-17T18:00:00.000Z","temp":6.1,"dewp":-3.9,"wdir":240,"wspd":7,"visib":"10+","altim":1023.1,"slp":1024.3,"qcField":4,"presTend":0.9,"maxT":6.1,"minT":-1.7,"metarType":"METAR","rawOb":"METAR KGEG 171753Z 24007KT 230V290 10SM FEW040 FEW090 06/M04 A3021 RMK AO2 SLP243 T00611039 10061 21017 52009","lat":47.6217,"lon":-117.528,"elev":718,"name":"Spokane Intl, WA, US","cover":"FEW","clouds":[{"cover":"FEW","base":4000},{"cover":"FEW","base":9000}],"fltCat":"VFR"},{"icaoId":"KELY","receiptTime":"2026-04-17T17:56:29.146Z","obsTime":1776448380,"reportTime":"2026-04-17T18:00:00.000Z","temp":0.6,"dewp":-17.2,"wdir":210,"wspd":3,"visib":"10+","altim":1024.1,"slp":1025.2,"qcField":6,"presTend":0.5,"maxT":1.1,"minT":-11.7,"pcp6hr":0.005,"metarType":"METAR","rawOb":"METAR KELY 171753Z AUTO 21003KT 10SM CLR 01/M17 A3024 RMK AO2 SLP252 60000 T00061172 10011 21117 53005","lat":39.2954,"lon":-114.8466,"elev":1906,"name":"Ely/Yelland Fld, NV, US","cover":"CLR","clouds":[],"fltCat":"VFR"},{"icaoId":"KTUL","receiptTime":"2026-04-17T17:56:30.290Z","obsTime":1776448380,"reportTime":"2026-04-17T18:00:00.000Z","temp":25.6,"dewp":18.9,"wdir":180,"wspd":15,"wgst":28,"visib":"10+","altim":1008.5,"slp":1007.8,"qcField":4,"presTend":-0.8,"maxT":26.1,"minT":21.7,"metarType":"METAR","rawOb":"METAR KTUL 171753Z 18015G28KT 10SM BKN030 BKN034 OVC120 26/19 A2978 RMK AO2 PK WND 19030/1704 SLP078 T02560189 10261 20217 55008","lat":36.1985,"lon":-95.8782,"elev":196,"name":"Tulsa Intl Arpt, OK, US","cover":"OVC","clouds":[{"cover":"BKN","base":3000},{"cover":"BKN","base":3400},{"cover":"OVC","base":12000}],"fltCat":"MVFR"},{"icaoId":"KMIA","receiptTime":"2026-04-17T17:58:51.632Z","obsTime":1776448380,"reportTime":"2026-04-17T18:00:00.000Z","temp":28.9,"dewp":21.1,"wdir":90,"wspd":11,"visib":"10+","altim":1017,"slp":1017,"qcField":0,"presTend":-1.2,"maxT":29.4,"minT":23.3,"metarType":"METAR","rawOb":"METAR KMIA 171753Z 09011KT 10SM BKN029 BKN040 29/21 A3003 RMK SLP170 T02890211 10294 20233 58012","lat":25.7881,"lon":-80.3169,"elev":1,"name":"Miami Intl, FL, US","cover":"BKN","clouds":[{"cover":"BKN","base":2900},{"cover":"BKN","base":4000}],"fltCat":"MVFR"},{"icaoId":"KPDX","receiptTime":"2026-04-17T17:56:22.941Z","obsTime":1776448380,"reportTime":"2026-04-17T18:00:00.000Z","temp":9.4,"dewp":2.8,"wdir":"VRB","wspd":3,"visib":"10+","altim":1026.5,"slp":1026.3,"qcField":12,"presTend":-0.4,"maxT":9.4,"minT":6.1,"metarType":"METAR","rawOb":"METAR KPDX 171753Z VRB03KT 10SM FEW015 BKN045 BKN250 09/03 A3031 RMK AO2 SLP263 T00940028 10094 20061 58004 $","lat":45.5958,"lon":-122.6092,"elev":7,"name":"Portland Intl, OR, US","cover":"BKN","clouds":[{"cover":"FEW","base":1500},{"cover":"BKN","base":4500},{"cover":"BKN","base":25000}],"fltCat":"VFR"},{"icaoId":"KSAF","receiptTime":"2026-04-17T17:56:22.098Z","obsTime":1776448380,"reportTime":"2026-04-17T18:00:00.000Z","temp":16.7,"dewp":-11.7,"wdir":250,"wspd":22,"wgst":39,"visib":"10+","altim":1014,"slp":1007.4,"qcField":4,"presTend":-0.2,"maxT":17.2,"minT":2.2,"metarType":"METAR","rawOb":"METAR KSAF 171753Z 25022G39KT 220V280 10SM CLR 17/M12 A2994 RMK AO2 PK WND 25039/1745 SLP074 T01671117 10172 20022 58002","lat":35.611,"lon":-106.0957,"elev":1918,"name":"Santa Fe Cnty Muni, NM, US","cover":"CLR","clouds":[],"fltCat":"VFR"},{"icaoId":"KIAH","receiptTime":"2026-04-17T17:56:21.368Z","obsTime":1776448380,"reportTime":"2026-04-17T18:00:00.000Z","temp":28.9,"dewp":20.6,"wdir":170,"wspd":14,"wgst":24,"visib":"10+","altim":1014,"slp":1013.9,"qcField":4,"presTend":-0.8,"maxT":28.9,"minT":19.4,"metarType":"METAR","rawOb":"METAR KIAH 171753Z 17014G24KT 10SM SCT032 BKN065 BKN250 29/21 A2994 RMK AO2 SLP139 T02890206 10289 20194 58008","lat":29.9844,"lon":-95.3607,"elev":27,"name":"Houston/Bush Intl, TX, US","cover":"BKN","clouds":[{"cover":"SCT","base":3200},{"cover":"BKN","base":6500},{"cover":"BKN","base":25000}],"fltCat":"VFR"},{"icaoId":"KLAW","receiptTime":"2026-04-17T17:56:21.547Z","obsTime":1776448380,"reportTime":"2026-04-17T18:00:00.000Z","temp":22.8,"dewp":17.8,"wdir":170,"wspd":17,"wgst":26,"visib":"10+","altim":1008.5,"slp":1007.3,"qcField":4,"presTend":-1.2,"maxT":22.8,"minT":20,"metarType":"METAR","rawOb":"METAR KLAW 171753Z 17017G26KT 10SM OVC040 23/18 A2978 RMK AO2 PK WND 16026/1734 SLP073 T02280178 10228 20200 58012","lat":34.5577,"lon":-98.4172,"elev":328,"name":"Lawton-Fort Sill Rgnl, OK, US","cover":"OVC","clouds":[{"cover":"OVC","base":4000}],"fltCat":"VFR"},{"icaoId":"KAUS","receiptTime":"2026-04-17T17:56:29.003Z","obsTime":1776448380,"reportTime":"2026-04-17T18:00:00.000Z","temp":28.3,"dewp":18.9,"wdir":170,"wspd":14,"wgst":25,"visib":"10+","altim":1012.3,"slp":1011,"qcField":4,"presTend":-0.5,"maxT":28.3,"minT":21.1,"metarType":"METAR","rawOb":"METAR KAUS 171753Z 17014G25KT 10SM BKN041 OVC048 28/19 A2989 RMK AO2 PK WND 18029/1707 SLP110 T02830189 10283 20211 58005","lat":30.1831,"lon":-97.6806,"elev":148,"name":"Austin/Bergstrom Intl, TX, US","cover":"OVC","clouds":[{"cover":"BKN","base":4100},{"cover":"OVC","base":4800}],"fltCat":"VFR"},{"icaoId":"KCLL","receiptTime":"2026-04-17T17:56:16.283Z","obsTime":1776448380,"reportTime":"2026-04-17T18:00:00.000Z","temp":28.3,"dewp":18.9,"wdir":160,"wspd":17,"wgst":24,"visib":"10+","altim":1013,"slp":1012.4,"qcField":4,"presTend":-0.9,"maxT":28.9,"minT":21.7,"metarType":"METAR","rawOb":"METAR KCLL 171753Z 16017G24KT 10SM SCT039 BKN049 BKN060 28/19 A2991 RMK AO2 PK WND 16026/1729 SLP124 T02830189 10289 20217 58009","lat":30.5912,"lon":-96.3631,"elev":96,"name":"College Station/Easterwood Arpt, TX, US","cover":"BKN","clouds":[{"cover":"SCT","base":3900},{"cover":"BKN","base":4900},{"cover":"BKN","base":6000}],"fltCat":"VFR"},{"icaoId":"KMLC","receiptTime":"2026-04-17T17:56:14.777Z","obsTime":1776448380,"reportTime":"2026-04-17T18:00:00.000Z","temp":25.6,"dewp":17.8,"wdir":200,"wspd":10,"wgst":28,"visib":"10+","altim":1010.9,"slp":1009.7,"qcField":6,"presTend":-1.7,"maxT":26.1,"minT":21.1,"metarType":"METAR","rawOb":"METAR KMLC 171753Z AUTO 20010G28KT 10SM BKN034 26/18 A2985 RMK AO2 PK WND 19028/1747 SLP097 T02560178 10261 20211 58017","lat":34.8824,"lon":-95.7815,"elev":231,"name":"McAlester Rgnl, OK, US","cover":"BKN","clouds":[{"cover":"BKN","base":3400}],"fltCat":"VFR"},{"icaoId":"KMLS","receiptTime":"2026-04-17T17:56:14.795Z","obsTime":1776448380,"reportTime":"2026-04-17T18:00:00.000Z","temp":2.2,"dewp":-8.9,"wdir":320,"wspd":17,"wgst":27,"visib":9,"altim":1017.7,"slp":1019.6,"qcField":6,"wxString":"-SN","presTend":0.2,"maxT":2.2,"minT":-6.1,"precip":0.005,"pcp6hr":0.005,"metarType":"METAR","rawOb":"METAR KMLS 171753Z AUTO 32017G27KT 9SM -SN BKN041 02/M09 A3005 RMK AO2 PK WND 31027/1753 SLP196 P0000 60000 T00221089 10022 21061 53002","lat":46.4265,"lon":-105.8834,"elev":800,"name":"Miles City/Wiley Fld, MT, US","cover":"BKN","clouds":[{"cover":"BKN","base":4100}],"fltCat":"VFR"},{"icaoId":"KPSP","receiptTime":"2026-04-17T17:56:18.559Z","obsTime":1776448380,"reportTime":"2026-04-17T18:00:00.000Z","temp":24.4,"dewp":-12.2,"wdir":340,"wspd":16,"wgst":23,"visib":"10+","altim":1017.7,"slp":1017.2,"qcField":12,"presTend":1.8,"maxT":24.4,"minT":16.1,"metarType":"METAR","rawOb":"METAR KPSP 171753Z 34016G23KT 10SM CLR 24/M12 A3005 RMK AO2 SLP172 T02441122 10244 20161 51018 $","lat":33.8222,"lon":-116.5043,"elev":123,"name":"Palm Springs Intl, CA, US","cover":"CLR","clouds":[],"fltCat":"VFR"},{"icaoId":"KPUB","receiptTime":"2026-04-17T17:56:28.558Z","obsTime":1776448380,"reportTime":"2026-04-17T18:00:00.000Z","temp":12.2,"dewp":-3.9,"wdir":70,"wspd":18,"wgst":25,"visib":"10+","altim":1011.9,"slp":1008.4,"qcField":12,"maxT":12.2,"minT":5,"metarType":"METAR","rawOb":"METAR KPUB 171753Z 07018G25KT 10SM SCT049 12/M04 A2988 RMK AO2 SLP084 T01221039 10122 20050 50000 $","lat":38.2887,"lon":-104.5057,"elev":1441,"name":"Pueblo Mem Arpt, CO, US","cover":"SCT","clouds":[{"cover":"SCT","base":4900}],"fltCat":"VFR"},{"icaoId":"KMYR","receiptTime":"2026-04-17T17:56:09.843Z","obsTime":1776448380,"reportTime":"2026-04-17T18:00:00.000Z","temp":27.2,"dewp":17.2,"wdir":160,"wspd":9,"visib":"10+","altim":1015.7,"slp":1015.6,"qcField":12,"presTend":-1.2,"maxT":28.3,"minT":20.6,"metarType":"METAR","rawOb":"METAR KMYR 171753Z 16009KT 10SM CLR 27/17 A2999 RMK AO2 SLP156 T02720172 10283 20206 58012 $","lat":33.6769,"lon":-78.9325,"elev":7,"name":"Myrtle Beach Intl, SC, US","cover":"CLR","clouds":[],"fltCat":"VFR"},{"icaoId":"KPUW","receiptTime":"2026-04-17T17:56:18.610Z","obsTime":1776448380,"reportTime":"2026-04-17T18:00:00.000Z","temp":5,"dewp":-1.1,"wdir":270,"wspd":9,"visib":"10+","altim":1024.5,"slp":1025.8,"qcField":6,"presTend":0.7,"maxT":6.7,"minT":-0.6,"metarType":"METAR","rawOb":"METAR KPUW 171753Z AUTO 27009KT 10SM SCT030 SCT040 BKN046 05/M01 A3025 RMK AO2 SLP258 T00501011 10067 21006 53007","lat":46.7438,"lon":-117.1158,"elev":774,"name":"Pullman/Moscow Rgnl, WA, US","cover":"BKN","clouds":[{"cover":"SCT","base":3000},{"cover":"SCT","base":4000},{"cover":"BKN","base":4600}],"fltCat":"VFR"},{"icaoId":"KSTS","receiptTime":"2026-04-17T17:56:10.761Z","obsTime":1776448380,"reportTime":"2026-04-17T18:00:00.000Z","temp":18.3,"dewp":-5,"wdir":"VRB","wspd":5,"visib":"10+","altim":1018.7,"slp":1018,"qcField":4,"wxString":"FU","presTend":0.9,"maxT":18.3,"minT":3.9,"metarType":"METAR","rawOb":"METAR KSTS 171753Z VRB05KT 10SM FU CLR 18/M05 A3008 RMK AO2 SLP180 T01831050 10183 20039 51009","lat":38.5037,"lon":-122.811,"elev":35,"name":"Santa Rosa/Schulz Arpt, CA, US","cover":"CLR","clouds":[],"fltCat":"VFR"},{"icaoId":"KMOD","receiptTime":"2026-04-17T17:56:14.850Z","obsTime":1776448380,"reportTime":"2026-04-17T18:00:00.000Z","temp":16.1,"dewp":-2.2,"wdir":340,"wspd":7,"visib":"10+","altim":1018,"slp":1018,"qcField":12,"presTend":0.4,"maxT":16.7,"minT":8.9,"metarType":"METAR","rawOb":"METAR KMOD 171753Z 34007KT 10SM CLR 16/M02 A3006 RMK AO2 SLP180 T01611022 10167 20089 51004 $","lat":37.6254,"lon":-120.9549,"elev":25,"name":"Modesto/Sham Fld, CA, US","cover":"CLR","clouds":[],"fltCat":"VFR"},{"icaoId":"KEVW","receiptTime":"2026-04-17T17:56:11.572Z","obsTime":1776448380,"reportTime":"2026-04-17T18:00:00.000Z","temp":-3.3,"dewp":-12.2,"wdir":"VRB","wspd":5,"visib":"10+","altim":1021.1,"slp":1025.3,"qcField":14,"presTend":1,"maxT":-2.8,"minT":-13.3,"metarType":"METAR","rawOb":"METAR KEVW 171753Z AUTO VRB05KT 10SM SCT038 BKN050 OVC055 M03/M12 A3015 RMK AO2 SLP253 T10331122 11028 21133 53010 $","lat":41.2727,"lon":-111.0305,"elev":2178,"name":"Evanston/Uinta Cnty, WY, US","cover":"OVC","clouds":[{"cover":"SCT","base":3800},{"cover":"BKN","base":5000},{"cover":"OVC","base":5500}],"fltCat":"VFR"},{"icaoId":"KDFW","receiptTime":"2026-04-17T17:56:12.411Z","obsTime":1776448380,"reportTime":"2026-04-17T18:00:00.000Z","temp":26.7,"dewp":17.8,"wdir":180,"wspd":20,"wgst":31,"visib":"10+","altim":1010.9,"slp":1010,"qcField":4,"presTend":-0.6,"maxT":26.7,"minT":20.6,"metarType":"METAR","rawOb":"METAR KDFW 171753Z 18020G31KT 10SM SCT036 BKN050 BKN250 27/18 A2985 RMK AO2 PK WND 16031/1744 SLP100 T02670178 10267 20206 58006","lat":32.8974,"lon":-97.022,"elev":168,"name":"Dallas-Ft Worth Intl, TX, US","cover":"BKN","clouds":[{"cover":"SCT","base":3600},{"cover":"BKN","base":5000},{"cover":"BKN","base":25000}],"fltCat":"VFR"},{"icaoId":"KDLN","receiptTime":"2026-04-17T17:56:12.481Z","obsTime":1776448380,"reportTime":"2026-04-17T18:00:00.000Z","temp":1.7,"dewp":-10.6,"visib":"10+","altim":1019.4,"slp":1021.5,"qcField":6,"presTend":0.3,"maxT":2.2,"minT":-4.4,"metarType":"METAR","rawOb":"METAR KDLN 171753Z AUTO 10SM SCT065 02/M11 A3010 RMK AO2 SLP215 T00171106 10022 21044 53003","lat":45.2584,"lon":-112.5546,"elev":1586,"name":"Dillon Arpt, MT, US","cover":"SCT","clouds":[{"cover":"SCT","base":6500}],"fltCat":"VFR"},{"icaoId":"KDRO","receiptTime":"2026-04-17T17:56:12.548Z","obsTime":1776448380,"reportTime":"2026-04-17T18:00:00.000Z","temp":8.9,"dewp":-5,"wdir":250,"wspd":17,"wgst":26,"visib":"10+","altim":1016.7,"slp":1012.6,"qcField":6,"presTend":2.9,"maxT":10.6,"minT":0.6,"metarType":"METAR","rawOb":"METAR KDRO 171753Z AUTO 25017G26KT 10SM FEW050 FEW060 BKN085 09/M05 A3002 RMK AO2 PK WND 25034/1729 SLP126 T00891050 10106 20006 53029","lat":37.1431,"lon":-107.7602,"elev":2021,"name":"Durango/La Plata Cnty, CO, US","cover":"BKN","clouds":[{"cover":"FEW","base":5000},{"cover":"FEW","base":6000},{"cover":"BKN","base":8500}],"fltCat":"VFR"},{"icaoId":"KDTW","receiptTime":"2026-04-17T17:56:12.618Z","obsTime":1776448380,"reportTime":"2026-04-17T18:00:00.000Z","temp":17.8,"dewp":12.2,"wdir":160,"wspd":7,"visib":"10+","altim":1016.7,"slp":1016.6,"qcField":4,"presTend":-0.5,"maxT":17.8,"minT":11.7,"metarType":"METAR","rawOb":"METAR KDTW 171753Z 16007KT 10SM SCT015 BKN250 18/12 A3002 RMK AO2 SLP166 T01780122 10178 20117 58005","lat":42.2311,"lon":-83.3312,"elev":192,"name":"Detroit/Metro Wayne Cnty, MI, US","cover":"BKN","clouds":[{"cover":"SCT","base":1500},{"cover":"BKN","base":25000}],"fltCat":"VFR"},{"icaoId":"KDVT","receiptTime":"2026-04-17T17:56:12.646Z","obsTime":1776448380,"reportTime":"2026-04-17T18:00:00.000Z","temp":25,"dewp":1.1,"wdir":"VRB","wspd":3,"visib":"10+","altim":1014,"slp":1011.8,"qcField":4,"presTend":0.8,"maxT":25,"minT":12.8,"metarType":"METAR","rawOb":"METAR KDVT 171753Z VRB03KT 10SM CLR 25/01 A2994 RMK AO2 SLP118 T02500011 10250 20128 51008","lat":33.6902,"lon":-112.0662,"elev":454,"name":"Phoenix/Deer Valley Arpt, AZ, US","cover":"CLR","clouds":[],"fltCat":"VFR"},{"icaoId":"KPBI","receiptTime":"2026-04-17T17:56:15.078Z","obsTime":1776448380,"reportTime":"2026-04-17T18:00:00.000Z","temp":26.1,"dewp":22.8,"wdir":70,"wspd":9,"visib":"10+","altim":1018,"slp":1017.8,"qcField":12,"presTend":-1.2,"maxT":26.1,"minT":22.8,"precip":0.09,"pcp6hr":0.39,"metarType":"METAR","rawOb":"METAR KPBI 171753Z 07009KT 10SM SCT017 BKN026 OVC047 26/23 A3006 RMK AO2 RAE31 SLP178 P0009 60039 T02610228 10261 20228 58012 $","lat":26.6851,"lon":-80.0992,"elev":4,"name":"Palm Beach Intl, FL, US","cover":"OVC","clouds":[{"cover":"SCT","base":1700},{"cover":"BKN","base":2600},{"cover":"OVC","base":4700}],"fltCat":"MVFR"},{"icaoId":"KRDD","receiptTime":"2026-04-17T17:56:18.694Z","obsTime":1776448380,"reportTime":"2026-04-17T18:00:00.000Z","temp":16.7,"dewp":-8.3,"wdir":350,"wspd":11,"visib":"10+","altim":1019.7,"slp":1019.3,"qcField":4,"presTend":-1.3,"maxT":16.7,"minT":9.4,"metarType":"METAR","rawOb":"METAR KRDD 171753Z 35011KT 10SM CLR 17/M08 A3011 RMK AO2 SLP193 T01671083 10167 20094 58013","lat":40.5146,"lon":-122.2977,"elev":152,"name":"Redding Muni, CA, US","cover":"CLR","clouds":[],"fltCat":"VFR"},{"icaoId":"KSJC","receiptTime":"2026-04-17T17:56:18.806Z","obsTime":1776448380,"reportTime":"2026-04-17T18:00:00.000Z","temp":18.3,"dewp":-5.6,"wdir":340,"wspd":10,"wgst":17,"visib":"10+","altim":1018.4,"slp":1018,"qcField":4,"presTend":0.2,"maxT":18.3,"minT":11.1,"metarType":"METAR","rawOb":"METAR KSJC 171753Z 34010G17KT 10SM FEW080 FEW110 18/M06 A3007 RMK AO2 SLP180 T01831056 10183 20111 51002","lat":37.3594,"lon":-121.9244,"elev":13,"name":"San Jose Intl Arpt, CA, US","cover":"FEW","clouds":[{"cover":"FEW","base":8000},{"cover":"FEW","base":11000}],"fltCat":"VFR"},{"icaoId":"KSMF","receiptTime":"2026-04-17T17:56:18.831Z","obsTime":1776448380,"reportTime":"2026-04-17T18:00:00.000Z","temp":17.8,"dewp":-5,"wdir":350,"wspd":11,"wgst":20,"visib":"10+","altim":1018.4,"slp":1018.1,"qcField":4,"presTend":0.5,"maxT":17.8,"minT":7.8,"metarType":"METAR","rawOb":"METAR KSMF 171753Z 35011G20KT 10SM SCT250 18/M05 A3007 RMK AO2 SLP181 T01781050 10178 20078 51005","lat":38.7007,"lon":-121.5948,"elev":7,"name":"Sacramento Intl, CA, US","cover":"SCT","clouds":[{"cover":"SCT","base":25000}],"fltCat":"VFR"},{"icaoId":"KSNA","receiptTime":"2026-04-17T17:56:18.856Z","obsTime":1776448380,"reportTime":"2026-04-17T18:00:00.000Z","temp":20.6,"dewp":9.4,"wdir":"VRB","wspd":3,"visib":"10+","altim":1016.3,"slp":1016,"qcField":4,"presTend":0.8,"maxT":20.6,"minT":13.9,"metarType":"METAR","rawOb":"METAR KSNA 171753Z VRB03KT 10SM FEW025 21/09 A3001 RMK AO2 SLP160 T02060094 10206 20139 51008","lat":33.6798,"lon":-117.8675,"elev":14,"name":"Santa Ana/Wayne Arpt, CA, US","cover":"FEW","clouds":[{"cover":"FEW","base":2500}],"fltCat":"VFR"},{"icaoId":"KIDA","receiptTime":"2026-04-17T17:56:21.410Z","obsTime":1776448380,"reportTime":"2026-04-17T18:00:00.000Z","temp":3.3,"dewp":-7.2,"wdir":230,"wspd":14,"wgst":22,"visib":"10+","altim":1022.4,"slp":1024.5,"qcField":4,"presTend":-0.1,"maxT":3.3,"minT":-5.6,"metarType":"METAR","rawOb":"METAR KIDA 171753Z 23014G22KT 10SM CLR 03/M07 A3019 RMK AO2 SLP245 T00331072 10033 21056 55001","lat":43.5204,"lon":-112.0675,"elev":1444,"name":"Idaho Falls Rgnl, ID, US","cover":"CLR","clouds":[],"fltCat":"VFR"},{"icaoId":"KPIH","receiptTime":"2026-04-17T17:56:21.901Z","obsTime":1776448380,"reportTime":"2026-04-17T18:00:00.000Z","temp":3.3,"dewp":-9.4,"wdir":220,"wspd":9,"wgst":21,"visib":"10+","altim":1023.5,"slp":1025,"qcField":4,"presTend":0.2,"maxT":4.4,"minT":-4.4,"metarType":"METAR","rawOb":"METAR KPIH 171753Z 22009G21KT 10SM SCT049 03/M09 A3022 RMK AO2 SLP250 T00331094 10044 21044 53002","lat":42.9197,"lon":-112.5723,"elev":1357,"name":"Pocatello Rgnl, ID, US","cover":"SCT","clouds":[{"cover":"SCT","base":4900}],"fltCat":"VFR"},{"icaoId":"KRTN","receiptTime":"2026-04-17T17:56:22.007Z","obsTime":1776448380,"reportTime":"2026-04-17T18:00:00.000Z","temp":18.3,"dewp":-15,"wdir":240,"wspd":17,"wgst":32,"visib":"10+","altim":1009.2,"slp":1003.2,"qcField":6,"presTend":-0.7,"maxT":19.4,"minT":2.2,"metarType":"METAR","rawOb":"METAR KRTN 171753Z AUTO 24017G32KT 10SM CLR 18/M15 A2980 RMK AO2 PK WND 24036/1739 SLP032 T01831150 10194 20022 55007","lat":36.7418,"lon":-104.5076,"elev":1939,"name":"Raton/Crews Fld, NM, US","cover":"CLR","clouds":[],"fltCat":"VFR"},{"icaoId":"KSBA","receiptTime":"2026-04-17T17:56:22.109Z","obsTime":1776448380,"reportTime":"2026-04-17T18:00:00.000Z","temp":19.4,"dewp":13.3,"wdir":160,"wspd":8,"visib":"10+","altim":1016.3,"slp":1016.3,"qcField":12,"presTend":1.3,"maxT":19.4,"minT":8.3,"metarType":"METAR","rawOb":"METAR KSBA 171753Z 16008KT 10SM CLR 19/13 A3001 RMK AO2 SLP163 T01940133 10194 20083 53013 $","lat":34.4241,"lon":-119.8425,"elev":2,"name":"Santa Barbara Muni, CA, US","cover":"CLR","clouds":[],"fltCat":"VFR"},{"icaoId":"KSDL","receiptTime":"2026-04-17T17:56:22.138Z","obsTime":1776448380,"reportTime":"2026-04-17T18:00:00.000Z","temp":25,"dewp":0.6,"wdir":260,"wspd":6,"visib":"10+","altim":1014.3,"slp":1012,"qcField":4,"presTend":1,"maxT":25,"minT":15.6,"metarType":"METAR","rawOb":"METAR KSDL 171753Z 26006KT 10SM CLR 25/01 A2995 RMK AO2 SLP120 T02500006 10250 20156 51010","lat":33.6123,"lon":-111.9232,"elev":438,"name":"Scottsdale Muni, AZ, US","cover":"CLR","clouds":[],"fltCat":"VFR"},{"icaoId":"KSHR","receiptTime":"2026-04-17T17:56:22.230Z","obsTime":1776448380,"reportTime":"2026-04-17T18:00:00.000Z","temp":3.3,"dewp":-6.7,"wdir":320,"wspd":20,"wgst":27,"visib":"10+","altim":1016.7,"slp":1019,"qcField":6,"presTend":0.2,"maxT":3.3,"minT":-6.7,"metarType":"METAR","rawOb":"METAR KSHR 171753Z AUTO 32020G27KT 10SM CLR 03/M07 A3002 RMK AO2 PK WND 31027/1751 SLP190 T00331067 10033 21067 50002","lat":44.7603,"lon":-106.9741,"elev":1212,"name":"Sheridan Cnty Arpt, WY, US","cover":"CLR","clouds":[],"fltCat":"VFR"},{"icaoId":"KPRC","receiptTime":"2026-04-17T17:56:22.334Z","obsTime":1776448380,"reportTime":"2026-04-17T18:00:00.000Z","temp":13.3,"dewp":-10,"wdir":320,"wspd":9,"wgst":15,"visib":"10+","altim":1019,"slp":1013.6,"qcField":4,"presTend":1,"maxT":13.3,"minT":6.7,"metarType":"METAR","rawOb":"METAR KPRC 171753Z 32009G15KT 10SM CLR 13/M10 A3009 RMK AO2 SLP136 T01331100 10133 20067 51010","lat":34.6491,"lon":-112.4223,"elev":1528,"name":"Prescott/Love Fld, AZ, US","cover":"CLR","clouds":[],"fltCat":"VFR"},{"icaoId":"KPSC","receiptTime":"2026-04-17T18:02:21.756Z","obsTime":1776448380,"reportTime":"2026-04-17T18:00:00.000Z","temp":12.2,"dewp":-1.1,"wdir":180,"wspd":6,"visib":"10+","altim":1025.8,"slp":1025.7,"qcField":5,"presTend":0.2,"maxT":12.2,"minT":0,"metarType":"METAR","rawOb":"METAR KPSC 171753Z COR 18006KT 10SM CLR 12/M01 A3029 RMK AO2 SLP257 T01221011 10122 20000 51002","lat":46.2695,"lon":-119.1182,"elev":121,"name":"Pasco/Tri Cities Arpt, WA, US","cover":"CLR","clouds":[],"fltCat":"VFR"},{"icaoId":"KTWF","receiptTime":"2026-04-17T17:56:22.460Z","obsTime":1776448380,"reportTime":"2026-04-17T18:00:00.000Z","temp":3.9,"dewp":-7.8,"wdir":280,"wspd":11,"visib":"10+","altim":1024.8,"slp":1025,"qcField":4,"presTend":0.6,"maxT":5.6,"minT":-2.8,"metarType":"METAR","rawOb":"METAR KTWF 171753Z 28011KT 10SM BKN060 04/M08 A3026 RMK AO2 SLP250 T00391078 10056 21028 51006","lat":42.4785,"lon":-114.4775,"elev":1269,"name":"Twin Falls/Joslin Fld, ID, US","cover":"BKN","clouds":[{"cover":"BKN","base":6000}],"fltCat":"VFR"},{"icaoId":"KVGT","receiptTime":"2026-04-17T17:56:22.573Z","obsTime":1776448380,"reportTime":"2026-04-17T18:00:00.000Z","temp":13.9,"dewp":-20.6,"wdir":310,"wspd":8,"wgst":18,"visib":"10+","altim":1022.4,"slp":1023.1,"qcField":4,"presTend":0.9,"maxT":13.9,"minT":10,"metarType":"METAR","rawOb":"METAR KVGT 171753Z 31008G18KT 10SM CLR 14/M21 A3019 RMK AO2 SLP231 T01391206 10139 20100 50009","lat":36.212,"lon":-115.194,"elev":664,"name":"Las Vegas/North Arpt, NV, US","cover":"CLR","clouds":[],"fltCat":"VFR"},{"icaoId":"KPGA","receiptTime":"2026-04-17T17:56:22.952Z","obsTime":1776448380,"reportTime":"2026-04-17T18:00:00.000Z","temp":10,"dewp":-17.8,"wdir":70,"wspd":9,"wgst":17,"visib":"10+","altim":1022.1,"slp":1018.7,"qcField":14,"presTend":1.8,"maxT":10,"minT":5,"metarType":"METAR","rawOb":"METAR KPGA 171753Z AUTO 07009G17KT 10SM CLR 10/M18 A3018 RMK AO2 SLP187 T01001178 10100 20050 51018 $","lat":36.9211,"lon":-111.4487,"elev":1310,"name":"Page Muni, AZ, US","cover":"CLR","clouds":[],"fltCat":"VFR"},{"icaoId":"KSEA","receiptTime":"2026-04-17T17:56:23.024Z","obsTime":1776448380,"reportTime":"2026-04-17T18:00:00.000Z","temp":9.4,"dewp":2.2,"wdir":0,"wspd":0,"visib":"10+","altim":1026.5,"slp":1027.2,"qcField":4,"presTend":-0.3,"maxT":9.4,"minT":5.6,"metarType":"METAR","rawOb":"METAR KSEA 171753Z 00000KT 10SM BKN036 BKN240 09/02 A3031 RMK AO2 SLP272 T00940022 10094 20056 58003","lat":47.4447,"lon":-122.3144,"elev":115,"name":"Seattle-Tacoma Intl, WA, US","cover":"BKN","clouds":[{"cover":"BKN","base":3600},{"cover":"BKN","base":24000}],"fltCat":"VFR"},{"icaoId":"KRIW","receiptTime":"2026-04-17T17:56:28.595Z","obsTime":1776448380,"reportTime":"2026-04-17T18:00:00.000Z","temp":3.9,"dewp":-17.2,"wdir":310,"wspd":10,"wgst":16,"visib":"10+","altim":1017,"slp":1018.3,"qcField":6,"presTend":0.2,"maxT":4.4,"minT":-3.3,"pcp6hr":0.005,"metarType":"METAR","rawOb":"METAR KRIW 171753Z AUTO 31010G16KT 10SM FEW080 04/M17 A3003 RMK AO2 SLP183 60000 T00391172 10044 21033 52002","lat":43.0622,"lon":-108.4471,"elev":1662,"name":"Riverton Rgnl, WY, US","cover":"FEW","clouds":[{"cover":"FEW","base":8000}],"fltCat":"VFR"},{"icaoId":"KMSO","receiptTime":"2026-04-17T17:56:23.118Z","obsTime":1776448380,"reportTime":"2026-04-17T18:00:00.000Z","temp":7.2,"dewp":-6.1,"wdir":260,"wspd":16,"wgst":22,"visib":"10+","altim":1021.8,"slp":1023.3,"qcField":12,"presTend":0.7,"maxT":7.2,"minT":0.6,"metarType":"METAR","rawOb":"METAR KMSO 171753Z 26016G22KT 10SM BKN060 BKN090 07/M06 A3017 RMK AO2 SLP233 T00721061 10072 20006 51007 $","lat":46.9208,"lon":-114.0938,"elev":974,"name":"Missoula Intl, MT, US","cover":"BKN","clouds":[{"cover":"BKN","base":6000},{"cover":"BKN","base":9000}],"fltCat":"VFR"},{"icaoId":"KABQ","receiptTime":"2026-04-17T17:56:29.280Z","obsTime":1776448320,"reportTime":"2026-04-17T18:00:00.000Z","temp":19.4,"dewp":-10,"wdir":230,"wspd":20,"wgst":29,"visib":"10+","altim":1014,"slp":1007.1,"qcField":4,"presTend":-0.6,"maxT":19.4,"minT":11.7,"metarType":"METAR","rawOb":"METAR KABQ 171752Z 23020G29KT 10SM FEW110 FEW150 19/M10 A2994 RMK AO2 PK WND 24029/1748 SLP071 T01941100 10194 20117 58006","lat":35.0419,"lon":-106.6154,"elev":1620,"name":"Albuquerque Intl, NM, US","cover":"FEW","clouds":[{"cover":"FEW","base":11000},{"cover":"FEW","base":15000}],"fltCat":"VFR"},{"icaoId":"KATL","receiptTime":"2026-04-17T17:56:10.344Z","obsTime":1776448320,"reportTime":"2026-04-17T18:00:00.000Z","temp":30,"dewp":10.6,"wdir":300,"wspd":9,"wgst":17,"visib":"10+","altim":1018.4,"slp":1017.1,"qcField":12,"presTend":-1.2,"maxT":31.1,"minT":18.3,"metarType":"METAR","rawOb":"METAR KATL 171752Z 30009G17KT 260V340 10SM FEW075 30/11 A3007 RMK AO2 SLP171 T03000106 10311 20183 58012 $","lat":33.6297,"lon":-84.4422,"elev":309,"name":"Atlanta/Hartsfield-Jackson Intl, GA, US","cover":"FEW","clouds":[{"cover":"FEW","base":7500}],"fltCat":"VFR"},{"icaoId":"KCLT","receiptTime":"2026-04-17T17:56:10.427Z","obsTime":1776448320,"reportTime":"2026-04-17T18:00:00.000Z","temp":28.3,"dewp":9.4,"wdir":330,"wspd":6,"visib":"10+","altim":1016.7,"slp":1017,"qcField":4,"presTend":-1.4,"maxT":28.3,"minT":18.9,"metarType":"METAR","rawOb":"METAR KCLT 171752Z 33006KT 10SM SCT070 BKN250 28/09 A3002 RMK AO2 SLP170 T02830094 10283 20189 58014","lat":35.2225,"lon":-80.9543,"elev":223,"name":"Charlotte/Douglas Intl, NC, US","cover":"BKN","clouds":[{"cover":"SCT","base":7000},{"cover":"BKN","base":25000}],"fltCat":"VFR"},{"icaoId":"KIFP","receiptTime":"2026-04-17T17:53:30.417Z","obsTime":1776448320,"reportTime":"2026-04-17T18:00:00.000Z","temp":18,"dewp":-12,"wdir":340,"wspd":24,"wgst":41,"visib":20,"altim":1018.7,"qcField":0,"metarType":"METAR","rawOb":"METAR KIFP 171752Z 34024G41KT 20SM CLR 18/M12 A3008","lat":35.1487,"lon":-114.5611,"elev":210,"name":"Bullhead City Intl, AZ, US","cover":"CLR","clouds":[],"fltCat":"VFR"},{"icaoId":"KMKE","receiptTime":"2026-04-17T17:56:09.817Z","obsTime":1776448320,"reportTime":"2026-04-17T18:00:00.000Z","temp":17.2,"dewp":12.2,"wdir":150,"wspd":9,"visib":"10+","altim":1010.2,"slp":1010.1,"qcField":4,"presTend":-2.5,"maxT":17.2,"minT":6.7,"metarType":"METAR","rawOb":"METAR KMKE 171752Z 15009KT 10SM FEW033 BKN250 17/12 A2983 RMK AO2 SLP101 T01720122 10172 20067 58025","lat":42.9549,"lon":-87.9045,"elev":203,"name":"Milwaukee/Mitchell Intl, WI, US","cover":"BKN","clouds":[{"cover":"FEW","base":3300},{"cover":"BKN","base":25000}],"fltCat":"VFR"},{"icaoId":"KIAD","receiptTime":"2026-04-17T17:56:09.713Z","obsTime":1776448320,"reportTime":"2026-04-17T18:00:00.000Z","temp":26.7,"dewp":10.6,"wdir":340,"wspd":13,"wgst":20,"visib":"10+","altim":1014,"slp":1013.5,"qcField":4,"presTend":-0.2,"maxT":26.7,"minT":20.6,"metarType":"METAR","rawOb":"METAR KIAD 171752Z 34013G20KT 10SM BKN060 27/11 A2994 RMK AO2 PK WND 32026/1701 SLP135 T02670106 10267 20206 58002","lat":38.9348,"lon":-77.4473,"elev":90,"name":"Washington/Dulles Intl, VA, US","cover":"BKN","clouds":[{"cover":"BKN","base":6000}],"fltCat":"VFR"},{"icaoId":"KCVG","receiptTime":"2026-04-17T17:56:09.539Z","obsTime":1776448320,"reportTime":"2026-04-17T18:00:00.000Z","temp":25,"dewp":9.4,"wdir":140,"wspd":6,"visib":"10+","altim":1016.7,"slp":1015.6,"qcField":4,"presTend":-1.2,"maxT":25.6,"minT":12.2,"metarType":"METAR","rawOb":"METAR KCVG 171752Z 14006KT 10SM FEW060 BKN300 25/09 A3002 RMK AO2 SLP156 T02500094 10256 20122 58012","lat":39.0444,"lon":-84.6724,"elev":264,"name":"Cincinnati Intl, KY, US","cover":"BKN","clouds":[{"cover":"FEW","base":6000},{"cover":"BKN","base":30000}],"fltCat":"VFR"},{"icaoId":"KDCA","receiptTime":"2026-04-17T17:56:09.551Z","obsTime":1776448320,"reportTime":"2026-04-17T18:00:00.000Z","temp":27.2,"dewp":11.1,"wdir":310,"wspd":10,"wgst":21,"visib":"10+","altim":1013.3,"slp":1013.2,"qcField":4,"presTend":-0.4,"maxT":27.2,"minT":21.7,"metarType":"METAR","rawOb":"METAR KDCA 171752Z 31010G21KT 10SM SCT065 SCT250 27/11 A2992 RMK AO2 SLP132 T02720111 10272 20217 58004","lat":38.8472,"lon":-77.0345,"elev":4,"name":"Washington/Reagan-National Arpt, VA, US","cover":"SCT","clouds":[{"cover":"SCT","base":6500},{"cover":"SCT","base":25000}],"fltCat":"VFR"},{"icaoId":"KHRL","receiptTime":"2026-04-17T17:56:09.690Z","obsTime":1776448320,"reportTime":"2026-04-17T18:00:00.000Z","temp":31.1,"dewp":20.6,"wdir":160,"wspd":21,"wgst":34,"visib":"10+","altim":1011.3,"slp":1011.2,"qcField":4,"presTend":-0.9,"maxT":31.1,"minT":23.3,"metarType":"METAR","rawOb":"METAR KHRL 171752Z 16021G34KT 10SM SCT041 31/21 A2986 RMK AO2 PK WND 15034/1746 SLP112 T03110206 10311 20233 58009","lat":26.2303,"lon":-97.6556,"elev":9,"name":"Harlingen/Valley Intl, TX, US","cover":"SCT","clouds":[{"cover":"SCT","base":4100}],"fltCat":"VFR"},{"icaoId":"KSPS","receiptTime":"2026-04-17T17:56:29.228Z","obsTime":1776448320,"reportTime":"2026-04-17T18:00:00.000Z","temp":25,"dewp":17.8,"wdir":180,"wspd":14,"visib":"10+","altim":1008.9,"slp":1007.5,"qcField":4,"presTend":-0.4,"maxT":25,"minT":19.4,"metarType":"METAR","rawOb":"METAR KSPS 171752Z 18014KT 10SM OVC043 25/18 A2979 RMK AO2 SLP075 T02500178 10250 20194 58004","lat":33.9785,"lon":-98.493,"elev":310,"name":"Wichita Falls Rgnl, TX, US","cover":"OVC","clouds":[{"cover":"OVC","base":4300}],"fltCat":"VFR"},{"icaoId":"KMLF","receiptTime":"2026-04-17T17:56:29.396Z","obsTime":1776448320,"reportTime":"2026-04-17T18:00:00.000Z","temp":3.9,"dewp":-12.8,"wdir":340,"wspd":13,"wgst":18,"visib":"10+","altim":1024.5,"slp":1024.6,"qcField":6,"presTend":0.7,"maxT":3.9,"minT":-6.7,"metarType":"METAR","rawOb":"METAR KMLF 171752Z AUTO 34013G18KT 10SM CLR 04/M13 A3025 RMK AO2 SLP246 T00391128 10039 21067 51007","lat":38.4225,"lon":-113.0109,"elev":1537,"name":"Milford Muni, UT, US","cover":"CLR","clouds":[],"fltCat":"VFR"},{"icaoId":"KSAN","receiptTime":"2026-04-17T17:54:07.837Z","obsTime":1776448260,"reportTime":"2026-04-17T18:00:00.000Z","temp":19.4,"dewp":10,"wdir":240,"wspd":7,"visib":"10+","altim":1016.7,"slp":1016.5,"qcField":12,"presTend":0.8,"maxT":19.4,"minT":15,"metarType":"METAR","rawOb":"METAR KSAN 171751Z 24007KT 10SM FEW032 19/10 A3002 RMK AO2 SLP165 T01940100 10194 20150 51008 $","lat":32.7364,"lon":-117.1973,"elev":3,"name":"San Diego Intl Arpt, CA, US","cover":"FEW","clouds":[{"cover":"FEW","base":3200}],"fltCat":"VFR"},{"icaoId":"KLGU","receiptTime":"2026-04-17T17:54:07.450Z","obsTime":1776448260,"reportTime":"2026-04-17T18:00:00.000Z","temp":2.8,"dewp":-6.1,"wdir":"VRB","wspd":4,"visib":"10+","altim":1024.5,"slp":1025.7,"qcField":6,"presTend":0.5,"maxT":2.8,"minT":-6.1,"metarType":"METAR","rawOb":"METAR KLGU 171751Z AUTO VRB04KT 10SM CLR 03/M06 A3025 RMK AO2 SLP257 I6001 T00281061 10028 21061 51005","lat":41.7865,"lon":-111.8519,"elev":1359,"name":"Logan/Cache Arpt, UT, US","cover":"CLR","clouds":[],"fltCat":"VFR"},{"icaoId":"KVNY","receiptTime":"2026-04-17T17:54:09.205Z","obsTime":1776448260,"reportTime":"2026-04-17T18:00:00.000Z","temp":19.4,"dewp":8.3,"wdir":100,"wspd":4,"visib":"10+","altim":1016,"slp":1015.2,"qcField":12,"presTend":0.5,"maxT":19.4,"minT":11.7,"metarType":"METAR","rawOb":"METAR KVNY 171751Z 10004KT 10SM CLR 19/08 A3000 RMK AO2 SLP152 T01940083 10194 20117 50005 $","lat":34.2121,"lon":-118.4915,"elev":241,"name":"Van Nuys Arpt, CA, US","cover":"CLR","clouds":[],"fltCat":"VFR"},{"icaoId":"KELP","receiptTime":"2026-04-17T17:54:09.074Z","obsTime":1776448260,"reportTime":"2026-04-17T18:00:00.000Z","temp":24.4,"dewp":-1.1,"wdir":230,"wspd":12,"wgst":26,"visib":"10+","altim":1014,"slp":1007.1,"qcField":4,"presTend":0.2,"maxT":25,"minT":16.1,"metarType":"METAR","rawOb":"METAR KELP 171751Z 23012G26KT 200V270 10SM FEW100 FEW150 24/M01 A2994 RMK AO2 PK WND 24035/1713 SLP071 BLDU DSNT S-SW T02441011 10250 20161 50002","lat":31.8123,"lon":-106.3774,"elev":1205,"name":"El Paso Intl, TX, US","cover":"FEW","clouds":[{"cover":"FEW","base":10000},{"cover":"FEW","base":15000}],"fltCat":"VFR"},{"icaoId":"KPVD","receiptTime":"2026-04-17T17:54:07.746Z","obsTime":1776448260,"reportTime":"2026-04-17T18:00:00.000Z","temp":22.8,"dewp":14.4,"wdir":90,"wspd":5,"visib":"10+","altim":1010.6,"slp":1010.4,"qcField":12,"presTend":-0.2,"maxT":22.8,"minT":13.3,"pcp6hr":0.01,"metarType":"METAR","rawOb":"METAR KPVD 171751Z 09005KT 10SM SCT031 BKN070 23/14 A2984 RMK AO2 LTG DSNT NW SLP104 60001 T02280144 10228 20133 58002 $","lat":41.7225,"lon":-71.4325,"elev":15,"name":"Providence/Green Mem, RI, US","cover":"BKN","clouds":[{"cover":"SCT","base":3100},{"cover":"BKN","base":7000}],"fltCat":"VFR"},{"icaoId":"KSAD","receiptTime":"2026-04-17T17:54:07.819Z","obsTime":1776448260,"reportTime":"2026-04-17T18:00:00.000Z","temp":23.3,"dewp":-6.1,"wdir":300,"wspd":13,"wgst":23,"visib":"10+","altim":1014.3,"slp":1009.9,"qcField":6,"presTend":0.3,"maxT":23.9,"minT":12.8,"metarType":"METAR","rawOb":"METAR KSAD 171751Z AUTO 30013G23KT 10SM CLR 23/M06 A2995 RMK AO2 SLP099 T02331061 10239 20128 51003","lat":32.8565,"lon":-109.636,"elev":937,"name":"Safford Rgnl, AZ, US","cover":"CLR","clouds":[],"fltCat":"VFR"},{"icaoId":"KCRP","receiptTime":"2026-04-17T17:54:08.946Z","obsTime":1776448260,"reportTime":"2026-04-17T18:00:00.000Z","temp":28.9,"dewp":21.1,"wdir":160,"wspd":22,"wgst":32,"visib":"10+","altim":1012.3,"slp":1012.2,"qcField":12,"presTend":-0.4,"maxT":29.4,"minT":22.8,"metarType":"METAR","rawOb":"METAR KCRP 171751Z 16022G32KT 10SM SCT024 BKN030 OVC040 29/21 A2989 RMK AO2 PK WND 15035/1700 SLP122 T02890211 10294 20228 58004 $","lat":27.7734,"lon":-97.513,"elev":11,"name":"Corpus Christi Intl, TX, US","cover":"OVC","clouds":[{"cover":"SCT","base":2400},{"cover":"BKN","base":3000},{"cover":"OVC","base":4000}],"fltCat":"MVFR"},{"icaoId":"KSTL","receiptTime":"2026-04-17T17:54:08.052Z","obsTime":1776448260,"reportTime":"2026-04-17T18:00:00.000Z","temp":28.3,"dewp":18.3,"wdir":190,"wspd":12,"wgst":20,"visib":"10+","altim":1010.6,"slp":1009.4,"qcField":12,"presTend":-2.1,"maxT":28.3,"minT":17.2,"metarType":"METAR","rawOb":"METAR KSTL 171751Z 19012G20KT 10SM SCT043 BKN250 28/18 A2984 RMK AO2 SLP094 T02830183 10283 20172 58021 $","lat":38.7525,"lon":-90.3734,"elev":163,"name":"St Louis/Lambert Intl, MO, US","cover":"BKN","clouds":[{"cover":"SCT","base":4300},{"cover":"BKN","base":25000}],"fltCat":"VFR"},{"icaoId":"KRDU","receiptTime":"2026-04-17T17:54:07.792Z","obsTime":1776448260,"reportTime":"2026-04-17T18:00:00.000Z","temp":28.9,"dewp":10.6,"wdir":340,"wspd":5,"visib":"10+","altim":1015,"slp":1014.4,"qcField":4,"presTend":-1.6,"maxT":28.9,"minT":18.9,"metarType":"METAR","rawOb":"METAR KRDU 171751Z 34005KT 10SM FEW075 FEW250 29/11 A2997 RMK AO2 SLP144 T02890106 10289 20189 58016","lat":35.8923,"lon":-78.782,"elev":121,"name":"Raleigh-Durham Intl, NC, US","cover":"FEW","clouds":[{"cover":"FEW","base":7500},{"cover":"FEW","base":25000}],"fltCat":"VFR"},{"icaoId":"KMYL","receiptTime":"2026-04-17T17:54:07.625Z","obsTime":1776448260,"reportTime":"2026-04-17T18:00:00.000Z","temp":0,"dewp":-7.2,"wdir":210,"wspd":4,"visib":"10+","altim":1022.8,"slp":1025.8,"qcField":6,"presTend":0.2,"maxT":0,"minT":-4.4,"metarType":"METAR","rawOb":"METAR KMYL 171751Z AUTO 21004KT 10SM BKN039 BKN050 OVC060 00/M07 A3020 RMK AO2 SLP258 T00001072 10000 21044 53002","lat":44.8943,"lon":-116.0998,"elev":1532,"name":"McCall Muni, ID, US","cover":"OVC","clouds":[{"cover":"BKN","base":3900},{"cover":"BKN","base":5000},{"cover":"OVC","base":6000}],"fltCat":"VFR"},{"icaoId":"KIGM","receiptTime":"2026-04-17T17:54:07.399Z","obsTime":1776448260,"reportTime":"2026-04-17T18:00:00.000Z","temp":13.3,"dewp":-12.2,"wdir":360,"wspd":13,"wgst":20,"visib":"10+","altim":1019.7,"slp":1015.5,"qcField":6,"presTend":0.7,"maxT":13.3,"minT":8.3,"metarType":"METAR","rawOb":"METAR KIGM 171751Z AUTO 36013G20KT 10SM CLR 13/M12 A3011 RMK AO2 SLP155 T01331122 10133 20083 51007","lat":35.2575,"lon":-113.9341,"elev":1045,"name":"Kingman Arpt, AZ, US","cover":"CLR","clouds":[],"fltCat":"VFR"},{"icaoId":"KLGA","receiptTime":"2026-04-17T17:54:07.195Z","obsTime":1776448260,"reportTime":"2026-04-17T18:00:00.000Z","temp":24.4,"dewp":12.8,"wdir":40,"wspd":11,"wgst":25,"visib":"10+","altim":1010.2,"slp":1010,"qcField":4,"presTend":-0.5,"maxT":25.6,"minT":17.8,"metarType":"METAR","rawOb":"METAR KLGA 171751Z 04011G25KT 10SM BKN060CB BKN090 BKN250 24/13 A2983 RMK AO2 SLP100 CB N MOV SE TCU OHD T02440128 10256 20178 58005","lat":40.7794,"lon":-73.8803,"elev":9,"name":"New York/La Guardia Arpt, NY, US","cover":"BKN","clouds":[{"cover":"BKN","base":6000},{"cover":"BKN","base":9000},{"cover":"BKN","base":25000}],"fltCat":"VFR"},{"icaoId":"KBDL","receiptTime":"2026-04-17T17:54:08.528Z","obsTime":1776448260,"reportTime":"2026-04-17T18:00:00.000Z","temp":22.2,"dewp":13.9,"wdir":360,"wspd":11,"wgst":20,"visib":"10+","altim":1011.6,"slp":1011.3,"qcField":4,"presTend":0.7,"maxT":22.8,"minT":17.8,"metarType":"METAR","rawOb":"METAR KBDL 171751Z 36011G20KT 10SM SCT023CB BKN070 BKN110 22/14 A2987 RMK AO2 LTG DSNT E SLP113 CB N MOV S T02220139 10228 20178 53007","lat":41.9374,"lon":-72.682,"elev":52,"name":"Hartford/Bradley Intl, CT, US","cover":"BKN","clouds":[{"cover":"SCT","base":2300},{"cover":"BKN","base":7000},{"cover":"BKN","base":11000}],"fltCat":"VFR"},{"icaoId":"KACT","receiptTime":"2026-04-17T17:54:08.381Z","obsTime":1776448260,"reportTime":"2026-04-17T18:00:00.000Z","temp":26.7,"dewp":18.9,"wdir":170,"wspd":15,"wgst":23,"visib":"10+","altim":1011.9,"slp":1011.3,"qcField":4,"presTend":-0.5,"maxT":27.2,"minT":20.6,"precip":0.005,"pcp6hr":0.005,"metarType":"METAR","rawOb":"METAR KACT 171751Z 17015G23KT 10SM OVC043 27/19 A2988 RMK AO2 RAB1654E06 SLP113 P0000 60000 T02670189 10272 20206 58005","lat":31.618,"lon":-97.2283,"elev":150,"name":"Waco Rgnl, TX, US","cover":"OVC","clouds":[{"cover":"OVC","base":4300}],"fltCat":"VFR"},{"icaoId":"KEWR","receiptTime":"2026-04-17T17:54:08.203Z","obsTime":1776448260,"reportTime":"2026-04-17T18:00:00.000Z","temp":27.8,"dewp":12.8,"wdir":250,"wspd":14,"wgst":27,"visib":"10+","altim":1010.2,"slp":1010.1,"qcField":4,"presTend":-0.6,"maxT":27.8,"minT":21.7,"metarType":"METAR","rawOb":"METAR KEWR 171751Z 25014G27KT 10SM BKN055TCU BKN100 BKN250 28/13 A2983 RMK AO2 PK WND 27027/1747 SLP101 CB DSNT NE AND DSNT SW MOV SE TCU OHD VCSH T02780128 10278 20217 58006","lat":40.6828,"lon":-74.1692,"elev":2,"name":"Newark Intl, NJ, US","cover":"BKN","clouds":[{"cover":"BKN","base":5500},{"cover":"BKN","base":10000},{"cover":"BKN","base":25000}],"fltCat":"VFR"},{"icaoId":"KCLE","receiptTime":"2026-04-17T17:54:08.135Z","obsTime":1776448260,"reportTime":"2026-04-17T18:00:00.000Z","temp":20,"dewp":9.4,"wdir":10,"wspd":5,"visib":"10+","altim":1016.3,"slp":1017.6,"qcField":12,"presTend":-0.3,"maxT":20,"minT":12.2,"metarType":"METAR","rawOb":"METAR KCLE 171751Z 01005KT 10SM FEW040 SCT250 20/09 A3001 RMK AO2 SLP176 T02000094 10200 20122 58003 $","lat":41.4057,"lon":-81.8519,"elev":237,"name":"Cleveland/Hopkins Intl, OH, US","cover":"SCT","clouds":[{"cover":"FEW","base":4000},{"cover":"SCT","base":25000}],"fltCat":"VFR"},{"icaoId":"KJFK","receiptTime":"2026-04-17T17:54:07.178Z","obsTime":1776448260,"reportTime":"2026-04-17T18:00:00.000Z","temp":26.1,"dewp":13.9,"wdir":210,"wspd":11,"visib":"10+","altim":1010.6,"slp":1010.3,"qcField":4,"presTend":-0.7,"maxT":26.1,"minT":21.1,"metarType":"METAR","rawOb":"METAR KJFK 171751Z 21011KT 10SM SCT055 SCT120 SCT250 26/14 A2984 RMK AO2 SLP103 CB DSNT NW-N VCSH N T02610139 10261 20211 58007","lat":40.6392,"lon":-73.7639,"elev":3,"name":"New York/JF Kennedy Intl, NY, US","cover":"SCT","clouds":[{"cover":"SCT","base":5500},{"cover":"SCT","base":12000},{"cover":"SCT","base":25000}],"fltCat":"VFR"},{"icaoId":"KSAT","receiptTime":"2026-04-17T17:54:07.865Z","obsTime":1776448260,"reportTime":"2026-04-17T18:00:00.000Z","temp":26.7,"dewp":18.9,"wdir":170,"wspd":14,"visib":"10+","altim":1012.6,"slp":1010.6,"qcField":4,"presTend":-0.5,"maxT":26.7,"minT":19.4,"metarType":"METAR","rawOb":"METAR KSAT 171751Z 17014KT 10SM BKN034 OVC250 27/19 A2990 RMK AO2 SLP106 T02670189 10267 20194 58005","lat":29.5443,"lon":-98.4839,"elev":246,"name":"San Antonio Intl, TX, US","cover":"OVC","clouds":[{"cover":"BKN","base":3400},{"cover":"OVC","base":25000}],"fltCat":"VFR"},{"icaoId":"KPHX","receiptTime":"2026-04-17T17:54:07.725Z","obsTime":1776448260,"reportTime":"2026-04-17T18:00:00.000Z","temp":25.6,"dewp":-1.1,"wdir":240,"wspd":4,"visib":"10+","altim":1013.3,"slp":1011.6,"qcField":4,"presTend":1,"maxT":25.6,"minT":17.2,"metarType":"METAR","rawOb":"METAR KPHX 171751Z 24004KT 10SM CLR 26/M01 A2992 RMK AO2 SLP116 T02561011 10256 20172 51010","lat":33.4278,"lon":-112.0037,"elev":338,"name":"Phoenix/Sky Harbor Intl, AZ, US","cover":"CLR","clouds":[],"fltCat":"VFR"},{"icaoId":"KOXR","receiptTime":"2026-04-17T17:54:07.705Z","obsTime":1776448260,"reportTime":"2026-04-17T18:00:00.000Z","temp":23.9,"dewp":-3.9,"wdir":120,"wspd":8,"wgst":22,"visib":"10+","altim":1016.3,"slp":1016.1,"qcField":12,"presTend":1.3,"maxT":23.9,"minT":11.1,"metarType":"METAR","rawOb":"METAR KOXR 171751Z 12008G22KT 090V210 10SM CLR 24/M04 A3001 RMK AO2 SLP161 T02391039 10239 20111 51013 $","lat":34.2001,"lon":-119.2042,"elev":12,"name":"Oxnard Arpt, CA, US","cover":"CLR","clouds":[],"fltCat":"VFR"},{"icaoId":"KORF","receiptTime":"2026-04-17T17:54:07.678Z","obsTime":1776448260,"reportTime":"2026-04-17T18:00:00.000Z","temp":27.2,"dewp":12.8,"wdir":40,"wspd":6,"visib":"10+","altim":1013.3,"slp":1013.1,"qcField":4,"presTend":-1,"maxT":27.8,"minT":20.6,"metarType":"METAR","rawOb":"METAR KORF 171751Z 04006KT 10SM CLR 27/13 A2992 RMK AO2 SLP131 T02720128 10278 20206 56010","lat":36.9037,"lon":-76.1927,"elev":5,"name":"Norfolk Intl, VA, US","cover":"CLR","clouds":[],"fltCat":"VFR"},{"icaoId":"KORD","receiptTime":"2026-04-17T17:54:07.651Z","obsTime":1776448260,"reportTime":"2026-04-17T18:00:00.000Z","temp":25,"dewp":16.1,"wdir":180,"wspd":12,"wgst":22,"visib":"10+","altim":1010.6,"slp":1010.1,"qcField":12,"presTend":-2,"maxT":25,"minT":10,"metarType":"METAR","rawOb":"METAR KORD 171751Z 18012G22KT 10SM FEW035 FEW060 BKN250 25/16 A2984 RMK AO2 SLP101 T02500161 10250 20100 58020 $","lat":41.9602,"lon":-87.9316,"elev":202,"name":"Chicago/O'Hare Intl, IL, US","cover":"BKN","clouds":[{"cover":"FEW","base":3500},{"cover":"FEW","base":6000},{"cover":"BKN","base":25000}],"fltCat":"VFR"},{"icaoId":"KROW","receiptTime":"2026-04-17T17:54:07.807Z","obsTime":1776448260,"reportTime":"2026-04-17T18:00:00.000Z","temp":28.9,"dewp":-7.8,"wdir":260,"wspd":18,"wgst":30,"visib":"10+","altim":1009.6,"slp":1003.4,"qcField":12,"presTend":-1,"maxT":28.9,"minT":9.4,"metarType":"METAR","rawOb":"METAR KROW 171751Z 26018G30KT 10SM CLR 29/M08 A2981 RMK AO2 PK WND 25032/1726 SLP034 T02891078 10289 20094 56010 $","lat":33.3074,"lon":-104.5082,"elev":1105,"name":"Roswell/Ind Arpt, NM, US","cover":"CLR","clouds":[],"fltCat":"VFR"},{"icaoId":"KCMH","receiptTime":"2026-04-17T17:54:08.839Z","obsTime":1776448260,"reportTime":"2026-04-17T18:00:00.000Z","temp":24.4,"dewp":11.1,"wdir":280,"wspd":4,"visib":"10+","altim":1016.3,"slp":1015.8,"qcField":4,"presTend":-0.8,"maxT":24.4,"minT":13.3,"metarType":"METAR","rawOb":"METAR KCMH 171751Z 28004KT 10SM FEW038 SCT250 24/11 A3001 RMK AO2 SLP158 T02440111 10244 20133 58008","lat":39.9907,"lon":-82.877,"elev":257,"name":"Columbus/Glenn Intl, OH, US","cover":"SCT","clouds":[{"cover":"FEW","base":3800},{"cover":"SCT","base":25000}],"fltCat":"VFR"},{"icaoId":"KHOB","receiptTime":"2026-04-17T17:51:10.014Z","obsTime":1776448200,"reportTime":"2026-04-17T18:00:00.000Z","temp":28,"dewp":-3,"wdir":250,"wspd":22,"wgst":30,"visib":"10+","altim":1011.6,"qcField":0,"metarType":"METAR","rawOb":"METAR KHOB 171750Z 25022G30KT 10SM BKN200 28/M03 A2987","lat":32.6797,"lon":-103.2222,"elev":1112,"name":"Hobbs Arpt, NM, US","cover":"BKN","clouds":[{"cover":"BKN","base":20000}],"fltCat":"VFR"},{"icaoId":"KAEG","receiptTime":"2026-04-17T17:59:17.682Z","obsTime":1776448200,"reportTime":"2026-04-17T18:00:00.000Z","temp":19,"dewp":-12,"wdir":230,"wspd":24,"wgst":34,"visib":"10+","altim":1014.6,"qcField":0,"metarType":"METAR","rawOb":"METAR KAEG 171750Z 23024G34KT 10SM CLR 19/M12 A2996","lat":35.15,"lon":-106.7929,"elev":1771,"name":"Albuquerque/Double Eagle Arpt, NM, US","cover":"CLR","clouds":[],"fltCat":"VFR"},{"icaoId":"KIWA","receiptTime":"2026-04-17T17:55:50.452Z","obsTime":1776448200,"reportTime":"2026-04-17T18:00:00.000Z","temp":25,"dewp":1,"wdir":"VRB","wspd":6,"visib":"10+","altim":1014.6,"qcField":0,"metarType":"METAR","rawOb":"METAR KIWA 171750Z VRB06KT 10SM CLR 25/01 A2996","lat":33.3008,"lon":-111.6437,"elev":420,"name":"Phoenix/Mesa Gateway Arpt, AZ, US","cover":"CLR","clouds":[],"fltCat":"VFR"},{"icaoId":"KADM","receiptTime":"2026-04-17T17:53:14.740Z","obsTime":1776448200,"reportTime":"2026-04-17T18:00:00.000Z","temp":24,"dewp":19,"wdir":170,"wspd":16,"visib":"10+","altim":1010.6,"qcField":0,"metarType":"METAR","rawOb":"METAR KADM 171750Z 17016KT 10SM BKN030 OVC036 24/19 A2984","lat":34.3007,"lon":-97.0089,"elev":223,"name":"Ardmore Muni, OK, US","cover":"OVC","clouds":[{"cover":"BKN","base":3000},{"cover":"OVC","base":3600}],"fltCat":"MVFR"},{"icaoId":"KGEU","receiptTime":"2026-04-17T17:48:18.332Z","obsTime":1776448020,"reportTime":"2026-04-17T18:00:00.000Z","temp":25,"dewp":-1,"wdir":"VRB","wspd":3,"visib":"10+","altim":1013,"qcField":0,"metarType":"METAR","rawOb":"METAR KGEU 171747Z VRB03KT 10SM CLR 25/M01 A2991","lat":33.528,"lon":-112.293,"elev":319,"name":"Glendale Muni, AZ, US","cover":"CLR","clouds":[],"fltCat":"VFR"},{"icaoId":"KGYR","receiptTime":"2026-04-17T17:47:39.533Z","obsTime":1776448020,"reportTime":"2026-04-17T18:00:00.000Z","temp":24,"dewp":4,"wdir":220,"wspd":5,"visib":"10+","altim":1014,"qcField":0,"metarType":"METAR","rawOb":"METAR KGYR 171747Z 22005KT 10SM SKC 24/04 A2994","lat":33.428,"lon":-112.368,"elev":292,"name":"Phoenix/Goodyear Muni, AZ, US","cover":"SKC","clouds":[],"fltCat":"VFR"},{"icaoId":"KCHD","receiptTime":"2026-04-17T17:47:39.515Z","obsTime":1776448020,"reportTime":"2026-04-17T18:00:00.000Z","temp":25,"dewp":-1,"wdir":"VRB","wspd":5,"visib":"10+","altim":1014,"qcField":0,"metarType":"METAR","rawOb":"METAR KCHD 171747Z VRB05KT 10SM CLR 25/M01 A2994","lat":33.2669,"lon":-111.8086,"elev":378,"name":"Chandler Muni, AZ, US","cover":"CLR","clouds":[],"fltCat":"VFR"},{"icaoId":"KSUN","receiptTime":"2026-04-17T17:53:14.499Z","obsTime":1776448020,"reportTime":"2026-04-17T18:00:00.000Z","temp":3,"dewp":-13,"wdir":270,"wspd":6,"visib":"10+","altim":1022.8,"qcField":0,"metarType":"METAR","rawOb":"METAR KSUN 171747Z 27006KT 10SM CLR 03/M13 A3020","lat":43.4969,"lon":-114.2923,"elev":1619,"name":"Hailey/Friedman Mem, ID, US","cover":"CLR","clouds":[],"fltCat":"VFR"},{"icaoId":"KRYN","receiptTime":"2026-04-17T17:46:19.969Z","obsTime":1776447900,"reportTime":"2026-04-17T18:00:00.000Z","temp":25,"dewp":-2,"wdir":0,"wspd":0,"visib":"10+","altim":1014.3,"qcField":0,"metarType":"METAR","rawOb":"METAR KRYN 171745Z 00000KT 10SM CLR 25/M02 A2995","lat":32.1418,"lon":-111.1767,"elev":731,"name":"Tucson/Ryan Fld, AZ, US","cover":"CLR","clouds":[],"fltCat":"VFR"}]