[{"icaoId":"KSJN","receiptTime":"2026-04-07T04:40:15.700Z","obsTime":1775536560,"reportTime":"2026-04-07T04:36:00.000Z","temp":8.3,"dewp":7.2,"wdir":100,"wspd":4,"visib":7,"altim":1020.7,"qcField":6,"wxString":"RA","precip":0.08,"metarType":"SPECI","rawOb":"SPECI KSJN 070436Z AUTO 10004KT 7SM RA BKN025 BKN030 OVC036 08/07 A3014 RMK AO2 P0008 T00830072","lat":34.5184,"lon":-109.3801,"elev":1747,"name":"St Johns Ind Arpt, AZ, US","cover":"OVC","clouds":[{"cover":"BKN","base":2500},{"cover":"BKN","base":3000},{"cover":"OVC","base":3600}],"fltCat":"MVFR"},{"icaoId":"KSOW","receiptTime":"2026-04-07T04:38:14.107Z","obsTime":1775536500,"reportTime":"2026-04-07T04:35:00.000Z","temp":8,"dewp":6,"wdir":0,"wspd":0,"visib":9,"altim":1021.8,"qcField":6,"wxString":"-DZ","metarType":"METAR","rawOb":"METAR KSOW 070435Z AUTO 00000KT 9SM -DZ SCT036 OVC043 08/06 A3017 RMK AO2","lat":34.2686,"lon":-110.0019,"elev":1954,"name":"Show Low Muni, AZ, US","cover":"OVC","clouds":[{"cover":"SCT","base":3600},{"cover":"OVC","base":4300}],"fltCat":"VFR"},{"icaoId":"KIFP","receiptTime":"2026-04-07T04:40:14.215Z","obsTime":1775536500,"reportTime":"2026-04-07T04:35:00.000Z","temp":26,"dewp":-8,"wdir":120,"wspd":5,"visib":"10+","altim":1010.2,"qcField":6,"metarType":"METAR","rawOb":"METAR KIFP 070435Z AUTO 12005KT 10SM CLR 26/M08 A2983 RMK AO2","lat":35.1487,"lon":-114.5611,"elev":210,"name":"Bullhead City Intl, AZ, US","cover":"CLR","clouds":[],"fltCat":"VFR"},{"icaoId":"KHII","receiptTime":"2026-04-07T04:41:06.033Z","obsTime":1775536500,"reportTime":"2026-04-07T04:35:00.000Z","temp":27,"dewp":-6,"wdir":100,"wspd":8,"visib":"10+","altim":1010.6,"qcField":6,"metarType":"METAR","rawOb":"METAR KHII 070435Z AUTO 10008KT 10SM CLR 27/M06 A2984 RMK AO2","lat":34.5659,"lon":-114.3522,"elev":241,"name":"Lake Havasu City Arpt, AZ, US","cover":"CLR","clouds":[],"fltCat":"VFR"},{"icaoId":"KCHD","receiptTime":"2026-04-07T04:38:16.408Z","obsTime":1775536500,"reportTime":"2026-04-07T04:35:00.000Z","temp":24.2,"dewp":6.9,"wdir":40,"wspd":8,"visib":"10+","altim":1013.3,"qcField":6,"metarType":"METAR","rawOb":"METAR KCHD 070435Z AUTO 04008KT 10SM OVC140 24/07 A2992 RMK AO2 T02420069","lat":33.2669,"lon":-111.8086,"elev":378,"name":"Chandler Muni, AZ, US","cover":"OVC","clouds":[{"cover":"OVC","base":14000}],"fltCat":"VFR"},{"icaoId":"KSEZ","receiptTime":"2026-04-07T04:40:16.242Z","obsTime":1775536500,"reportTime":"2026-04-07T04:35:00.000Z","temp":14,"dewp":6,"wdir":0,"wspd":0,"visib":"10+","altim":1019,"qcField":6,"metarType":"METAR","rawOb":"METAR KSEZ 070435Z AUTO 00000KT 10SM BKN070 OVC075 14/06 A3009 RMK AO2","lat":34.8467,"lon":-111.7884,"elev":1455,"name":"Sedona Arpt, AZ, US","cover":"OVC","clouds":[{"cover":"BKN","base":7000},{"cover":"OVC","base":7500}],"fltCat":"VFR"},{"icaoId":"KFLG","receiptTime":"2026-04-07T04:00:24.096Z","obsTime":1775534220,"reportTime":"2026-04-07T04:00:00.000Z","temp":6.1,"dewp":3.9,"wdir":350,"wspd":3,"visib":"10+","altim":1021.4,"slp":1015.5,"qcField":6,"metarType":"METAR","rawOb":"METAR KFLG 070357Z AUTO 35003KT 10SM BKN065 BKN080 OVC100 06/04 A3016 RMK AO2 SLP155 T00610039","lat":35.1443,"lon":-111.6664,"elev":2134,"name":"Flagstaff/Pulliam Arpt, AZ, US","cover":"OVC","clouds":[{"cover":"BKN","base":6500},{"cover":"BKN","base":8000},{"cover":"OVC","base":10000}],"fltCat":"VFR"},{"icaoId":"KINW","receiptTime":"2026-04-07T04:00:19.640Z","obsTime":1775534160,"reportTime":"2026-04-07T04:00:00.000Z","temp":10.6,"dewp":9.4,"wdir":230,"wspd":5,"visib":"10+","altim":1020.1,"slp":1016.1,"qcField":6,"wxString":"-RA","precip":0.04,"metarType":"METAR","rawOb":"METAR KINW 070356Z AUTO 23005KT 10SM -RA OVC050 11/09 A3012 RMK AO2 SLP161 P0004 T01060094","lat":35.0279,"lon":-110.7221,"elev":1492,"name":"Winslow/Lindberg Rgnl, AZ, US","cover":"OVC","clouds":[{"cover":"OVC","base":5000}],"fltCat":"VFR"},{"icaoId":"KCGZ","receiptTime":"2026-04-07T03:58:31.231Z","obsTime":1775534160,"reportTime":"2026-04-07T04:00:00.000Z","temp":23.9,"dewp":6.1,"wdir":60,"wspd":9,"visib":"10+","altim":1013,"slp":1011.7,"qcField":14,"metarType":"METAR","rawOb":"METAR KCGZ 070356Z AUTO 06009KT 10SM CLR 24/06 A2991 RMK AO2 SLP117 T02390061 $","lat":32.9531,"lon":-111.7725,"elev":444,"name":"Casa Granda Muni, AZ, US","cover":"CLR","clouds":[],"fltCat":"VFR"},{"icaoId":"KDUG","receiptTime":"2026-04-07T04:02:10.478Z","obsTime":1775534160,"reportTime":"2026-04-07T04:00:00.000Z","temp":17.2,"dewp":5,"wdir":170,"wspd":6,"visib":"10+","altim":1016,"slp":1011.1,"qcField":38,"metarType":"METAR","rawOb":"METAR KDUG 070356Z AUTO 17006KT 10SM OVC110 17/05 A3000 RMK AO2 SLP111 T01720050 TSNO","lat":31.4725,"lon":-109.6022,"elev":1260,"name":"Douglas/Bisbee Intl, AZ, US","cover":"OVC","clouds":[{"cover":"OVC","base":11000}],"fltCat":"VFR"},{"icaoId":"KLUF","receiptTime":"2026-04-07T04:06:05.440Z","obsTime":1775534100,"reportTime":"2026-04-07T04:00:00.000Z","temp":25.2,"dewp":5.9,"wdir":70,"wspd":6,"visib":"10+","altim":1011.9,"slp":1010.6,"qcField":12,"metarType":"METAR","rawOb":"METAR KLUF 070355Z 07006KT 10SM SCT140 25/06 A2988 RMK AO2A SLP106 T02520059 $","lat":33.538,"lon":-112.38,"elev":333,"name":"Phoenix/Luke AFB, AZ, US","cover":"SCT","clouds":[{"cover":"SCT","base":14000}],"fltCat":"VFR"},{"icaoId":"KFFZ","receiptTime":"2026-04-07T03:58:27.373Z","obsTime":1775534040,"reportTime":"2026-04-07T04:00:00.000Z","temp":23.9,"dewp":6.1,"wdir":20,"wspd":12,"visib":"10+","altim":1012.6,"slp":1010.4,"qcField":38,"metarType":"METAR","rawOb":"METAR KFFZ 070354Z AUTO 02012KT 10SM CLR 24/06 A2990 RMK AO2 SLP104 T02390061 TSNO","lat":33.4659,"lon":-111.7212,"elev":420,"name":"Mesa/Falcon Fld, AZ, US","cover":"CLR","clouds":[],"fltCat":"VFR"},{"icaoId":"KGCN","receiptTime":"2026-04-07T03:58:18.569Z","obsTime":1775534040,"reportTime":"2026-04-07T04:00:00.000Z","temp":6.7,"dewp":5.6,"wdir":0,"wspd":0,"visib":"10+","altim":1020.7,"slp":1014.9,"qcField":6,"metarType":"METAR","rawOb":"METAR KGCN 070354Z AUTO 00000KT 10SM BKN085 OVC100 07/06 A3014 RMK AO2 SLP149 T00670056","lat":35.9458,"lon":-112.1554,"elev":1993,"name":"Grand Canyon Park Arpt, AZ, US","cover":"OVC","clouds":[{"cover":"BKN","base":8500},{"cover":"OVC","base":10000}],"fltCat":"VFR"},{"icaoId":"KOLS","receiptTime":"2026-04-07T03:58:04.764Z","obsTime":1775534040,"reportTime":"2026-04-07T04:00:00.000Z","temp":18.3,"dewp":0.6,"wdir":180,"wspd":3,"visib":"10+","altim":1016,"slp":1010.6,"qcField":6,"metarType":"METAR","rawOb":"METAR KOLS 070354Z AUTO 18003KT 10SM CLR 18/01 A3000 RMK AO2 SLP106 T01830006","lat":31.4208,"lon":-110.8465,"elev":1194,"name":"Nogales Intl, AZ, US","cover":"CLR","clouds":[],"fltCat":"VFR"},{"icaoId":"KTUS","receiptTime":"2026-04-07T03:56:29.261Z","obsTime":1775533980,"reportTime":"2026-04-07T04:00:00.000Z","temp":21.7,"dewp":4.4,"wdir":360,"wspd":5,"visib":"10+","altim":1013.6,"slp":1009.8,"qcField":4,"metarType":"METAR","rawOb":"METAR KTUS 070353Z 36005KT 10SM BKN120 22/04 A2993 RMK AO2 SLP098 T02170044","lat":32.1315,"lon":-110.9564,"elev":776,"name":"Tucson Intl Arpt, AZ, US","cover":"BKN","clouds":[{"cover":"BKN","base":12000}],"fltCat":"VFR"},{"icaoId":"KDVT","receiptTime":"2026-04-07T03:56:36.703Z","obsTime":1775533980,"reportTime":"2026-04-07T04:00:00.000Z","temp":22.8,"dewp":5.6,"wdir":60,"wspd":7,"visib":"10+","altim":1013.3,"slp":1011.2,"qcField":4,"metarType":"METAR","rawOb":"METAR KDVT 070353Z 06007KT 10SM CLR 23/06 A2992 RMK AO2 SLP112 T02280056","lat":33.6902,"lon":-112.0662,"elev":454,"name":"Phoenix/Deer Valley Arpt, AZ, US","cover":"CLR","clouds":[],"fltCat":"VFR"},{"icaoId":"KPGA","receiptTime":"2026-04-07T03:56:37.826Z","obsTime":1775533980,"reportTime":"2026-04-07T04:00:00.000Z","temp":18.3,"dewp":2.2,"wdir":200,"wspd":7,"visib":"10+","altim":1016,"slp":1011.6,"qcField":14,"metarType":"METAR","rawOb":"METAR KPGA 070353Z AUTO 20007KT 10SM CLR 18/02 A3000 RMK AO2 SLP116 T01830022 $","lat":36.9211,"lon":-111.4487,"elev":1310,"name":"Page Muni, AZ, US","cover":"CLR","clouds":[],"fltCat":"VFR"},{"icaoId":"KPRC","receiptTime":"2026-04-07T03:56:32.262Z","obsTime":1775533980,"reportTime":"2026-04-07T04:00:00.000Z","temp":13.3,"dewp":3.9,"wdir":130,"wspd":5,"visib":"10+","altim":1019,"slp":1013.3,"qcField":4,"metarType":"METAR","rawOb":"METAR KPRC 070353Z 13005KT 10SM SCT120 13/04 A3009 RMK AO2 SLP133 T01330039","lat":34.6491,"lon":-112.4223,"elev":1528,"name":"Prescott/Love Fld, AZ, US","cover":"SCT","clouds":[{"cover":"SCT","base":12000}],"fltCat":"VFR"},{"icaoId":"KSDL","receiptTime":"2026-04-07T03:56:31.370Z","obsTime":1775533980,"reportTime":"2026-04-07T04:00:00.000Z","temp":23.9,"dewp":5.6,"wdir":50,"wspd":15,"visib":"10+","altim":1013.3,"slp":1011.1,"qcField":6,"metarType":"METAR","rawOb":"METAR KSDL 070353Z AUTO 05015KT 10SM CLR 24/06 A2992 RMK AO2 SLP111 T02390056","lat":33.6123,"lon":-111.9232,"elev":438,"name":"Scottsdale Muni, AZ, US","cover":"CLR","clouds":[],"fltCat":"VFR"},{"icaoId":"KIWA","receiptTime":"2026-04-07T03:54:10.730Z","obsTime":1775533920,"reportTime":"2026-04-07T04:00:00.000Z","temp":24,"dewp":7,"wdir":30,"wspd":8,"visib":"10+","altim":1013.3,"qcField":0,"metarType":"METAR","rawOb":"METAR KIWA 070352Z 03008KT 10SM CLR 24/07 A2992","lat":33.3008,"lon":-111.6437,"elev":420,"name":"Phoenix/Mesa Gateway Arpt, AZ, US","cover":"CLR","clouds":[],"fltCat":"VFR"},{"icaoId":"KSAD","receiptTime":"2026-04-07T03:54:12.158Z","obsTime":1775533860,"reportTime":"2026-04-07T04:00:00.000Z","temp":17.8,"dewp":6.7,"wdir":70,"wspd":9,"visib":"10+","altim":1015.7,"slp":1012.4,"qcField":6,"metarType":"METAR","rawOb":"METAR KSAD 070351Z AUTO 07009KT 10SM CLR 18/07 A2999 RMK AO2 SLP124 T01780067","lat":32.8565,"lon":-109.636,"elev":937,"name":"Safford Rgnl, AZ, US","cover":"CLR","clouds":[],"fltCat":"VFR"},{"icaoId":"KPHX","receiptTime":"2026-04-07T03:54:12.065Z","obsTime":1775533860,"reportTime":"2026-04-07T04:00:00.000Z","temp":25.6,"dewp":6.1,"wdir":60,"wspd":14,"visib":"10+","altim":1011.9,"slp":1010.2,"qcField":4,"metarType":"METAR","rawOb":"METAR KPHX 070351Z 06014KT 10SM BKN150 BKN250 26/06 A2988 RMK AO2 SLP102 T02560061","lat":33.4278,"lon":-112.0037,"elev":338,"name":"Phoenix/Sky Harbor Intl, AZ, US","cover":"BKN","clouds":[{"cover":"BKN","base":15000},{"cover":"BKN","base":25000}],"fltCat":"VFR"},{"icaoId":"KIGM","receiptTime":"2026-04-07T03:54:13.470Z","obsTime":1775533860,"reportTime":"2026-04-07T04:00:00.000Z","temp":17.2,"dewp":-9.4,"wdir":200,"wspd":10,"visib":"10+","altim":1015.3,"slp":1009.5,"qcField":6,"metarType":"METAR","rawOb":"METAR KIGM 070351Z AUTO 20010KT 10SM CLR 17/M09 A2998 RMK AO2 SLP095 T01721094","lat":35.2575,"lon":-113.9341,"elev":1045,"name":"Kingman Arpt, AZ, US","cover":"CLR","clouds":[],"fltCat":"VFR"},{"icaoId":"KGYR","receiptTime":"2026-04-07T03:50:39.399Z","obsTime":1775533620,"reportTime":"2026-04-07T04:00:00.000Z","temp":26,"dewp":7,"wdir":50,"wspd":7,"visib":"10+","altim":1012.3,"qcField":0,"metarType":"METAR","rawOb":"METAR KGYR 070347Z 05007KT 10SM BKN140 BKN200 26/07 A2989 RMK LAST","lat":33.428,"lon":-112.368,"elev":292,"name":"Phoenix/Goodyear Muni, AZ, US","cover":"BKN","clouds":[{"cover":"BKN","base":14000},{"cover":"BKN","base":20000}],"fltCat":"VFR"}]