[{"icaoId":"KCGZ","receiptTime":"2026-04-10T04:57:07.813Z","obsTime":1775796960,"reportTime":"2026-04-10T05:00:00.000Z","temp":26.1,"dewp":-2.2,"wdir":280,"wspd":8,"visib":"10+","altim":1011.9,"slp":1010.2,"qcField":14,"metarType":"METAR","rawOb":"METAR KCGZ 100456Z AUTO 28008KT 10SM CLR 26/M02 A2988 RMK AO2 SLP102 T02611022 $","lat":32.9531,"lon":-111.7725,"elev":444,"name":"Casa Granda Muni, AZ, US","cover":"CLR","clouds":[],"fltCat":"VFR"},{"icaoId":"KSOW","receiptTime":"2026-04-10T04:57:15.886Z","obsTime":1775796900,"reportTime":"2026-04-10T05:00:00.000Z","temp":11,"dewp":-5,"wdir":150,"wspd":5,"visib":"10+","altim":1021.1,"qcField":6,"metarType":"METAR","rawOb":"METAR KSOW 100455Z AUTO 15005KT 10SM CLR 11/M05 A3015 RMK AO2","lat":34.2686,"lon":-110.0019,"elev":1954,"name":"Show Low Muni, AZ, US","cover":"CLR","clouds":[],"fltCat":"VFR"},{"icaoId":"KCHD","receiptTime":"2026-04-10T04:57:07.832Z","obsTime":1775796900,"reportTime":"2026-04-10T05:00:00.000Z","temp":27.3,"dewp":-1.4,"wdir":0,"wspd":0,"visib":"10+","altim":1011.3,"qcField":14,"metarType":"METAR","rawOb":"METAR KCHD 100455Z AUTO 00000KT 10SM CLR 27/M01 A2986 RMK AO2 T02731014 $","lat":33.2669,"lon":-111.8086,"elev":378,"name":"Chandler Muni, AZ, US","cover":"CLR","clouds":[],"fltCat":"VFR"},{"icaoId":"KFFZ","receiptTime":"2026-04-10T04:57:01.165Z","obsTime":1775796840,"reportTime":"2026-04-10T05:00:00.000Z","temp":27.2,"dewp":-1.1,"wdir":260,"wspd":4,"visib":"10+","altim":1010.9,"slp":1008.3,"qcField":38,"metarType":"METAR","rawOb":"METAR KFFZ 100454Z AUTO 26004KT 10SM CLR 27/M01 A2985 RMK AO2 SLP083 T02721011 TSNO ","lat":33.4659,"lon":-111.7212,"elev":420,"name":"Mesa/Falcon Fld, AZ, US","cover":"CLR","clouds":[],"fltCat":"VFR"},{"icaoId":"KOLS","receiptTime":"2026-04-10T04:57:16.375Z","obsTime":1775796840,"reportTime":"2026-04-10T05:00:00.000Z","temp":20,"dewp":-2.2,"wdir":0,"wspd":0,"visib":"10+","altim":1017,"slp":1010.7,"qcField":6,"metarType":"METAR","rawOb":"METAR KOLS 100454Z AUTO 00000KT 10SM CLR 20/M02 A3003 RMK AO2 SLP107 T02001022","lat":31.4208,"lon":-110.8465,"elev":1194,"name":"Nogales Intl, AZ, US","cover":"CLR","clouds":[],"fltCat":"VFR"},{"icaoId":"KGCN","receiptTime":"2026-04-10T04:57:18.075Z","obsTime":1775796840,"reportTime":"2026-04-10T05:00:00.000Z","temp":11.1,"dewp":-5.6,"wdir":210,"wspd":3,"visib":"10+","altim":1019.7,"slp":1011.8,"qcField":6,"metarType":"METAR","rawOb":"METAR KGCN 100454Z AUTO 21003KT 10SM CLR 11/M06 A3011 RMK AO2 SLP118 T01111056","lat":35.9458,"lon":-112.1554,"elev":1993,"name":"Grand Canyon Park Arpt, AZ, US","cover":"CLR","clouds":[],"fltCat":"VFR"},{"icaoId":"KSJN","receiptTime":"2026-04-10T04:57:15.832Z","obsTime":1775796840,"reportTime":"2026-04-10T05:00:00.000Z","temp":13.9,"dewp":-3.3,"wdir":160,"wspd":3,"visib":"10+","altim":1019,"slp":1011.4,"qcField":6,"metarType":"METAR","rawOb":"METAR KSJN 100454Z AUTO 16003KT 10SM CLR 14/M03 A3009 RMK AO2 SLP114 T01391033","lat":34.5184,"lon":-109.3801,"elev":1747,"name":"St Johns Ind Arpt, AZ, US","cover":"CLR","clouds":[],"fltCat":"VFR"},{"icaoId":"KDVT","receiptTime":"2026-04-10T04:56:23.350Z","obsTime":1775796780,"reportTime":"2026-04-10T05:00:00.000Z","temp":26.1,"dewp":-2.8,"wdir":300,"wspd":4,"visib":"10+","altim":1011.3,"slp":1008.8,"qcField":6,"metarType":"METAR","rawOb":"METAR KDVT 100453Z AUTO 30004KT 10SM FEW110 26/M03 A2986 RMK AO2 SLP088 T02611028","lat":33.6902,"lon":-112.0662,"elev":454,"name":"Phoenix/Deer Valley Arpt, AZ, US","cover":"FEW","clouds":[{"cover":"FEW","base":11000}],"fltCat":"VFR"},{"icaoId":"KPRC","receiptTime":"2026-04-10T04:56:33.870Z","obsTime":1775796780,"reportTime":"2026-04-10T05:00:00.000Z","temp":14.4,"dewp":-3.9,"wdir":210,"wspd":4,"visib":"10+","altim":1017.7,"slp":1010.6,"qcField":4,"metarType":"METAR","rawOb":"METAR KPRC 100453Z 21004KT 10SM CLR 14/M04 A3005 RMK AO2 SLP106 T01441039","lat":34.6491,"lon":-112.4223,"elev":1528,"name":"Prescott/Love Fld, AZ, US","cover":"CLR","clouds":[],"fltCat":"VFR"},{"icaoId":"KSDL","receiptTime":"2026-04-10T04:56:28.122Z","obsTime":1775796780,"reportTime":"2026-04-10T05:00:00.000Z","temp":27.2,"dewp":-1.1,"wdir":310,"wspd":3,"visib":"10+","altim":1011.6,"slp":1009,"qcField":4,"metarType":"METAR","rawOb":"METAR KSDL 100453Z 31003KT 10SM CLR 27/M01 A2987 RMK AO2 SLP090 T02721011","lat":33.6123,"lon":-111.9232,"elev":438,"name":"Scottsdale Muni, AZ, US","cover":"CLR","clouds":[],"fltCat":"VFR"},{"icaoId":"KPGA","receiptTime":"2026-04-10T04:56:33.542Z","obsTime":1775796780,"reportTime":"2026-04-10T05:00:00.000Z","temp":21.7,"dewp":-6.7,"wdir":210,"wspd":8,"visib":"10+","altim":1013.3,"slp":1007.9,"qcField":6,"metarType":"METAR","rawOb":"METAR KPGA 100453Z AUTO 21008KT 10SM CLR 22/M07 A2992 RMK AO2 SLP079 T02171067","lat":36.9211,"lon":-111.4487,"elev":1310,"name":"Page Muni, AZ, US","cover":"CLR","clouds":[],"fltCat":"VFR"},{"icaoId":"KTUS","receiptTime":"2026-04-10T04:56:31.824Z","obsTime":1775796780,"reportTime":"2026-04-10T05:00:00.000Z","temp":25,"dewp":-2.2,"wdir":0,"wspd":0,"visib":"10+","altim":1015,"slp":1010.4,"qcField":4,"metarType":"METAR","rawOb":"METAR KTUS 100453Z 00000KT 10SM CLR 25/M02 A2997 RMK AO2 SLP104 T02501022","lat":32.1315,"lon":-110.9564,"elev":776,"name":"Tucson Intl Arpt, AZ, US","cover":"CLR","clouds":[],"fltCat":"VFR"},{"icaoId":"KPHX","receiptTime":"2026-04-10T04:54:19.972Z","obsTime":1775796660,"reportTime":"2026-04-10T05:00:00.000Z","temp":29.4,"dewp":-1.7,"wdir":290,"wspd":8,"visib":"10+","altim":1010.2,"slp":1008.3,"qcField":4,"metarType":"METAR","rawOb":"METAR KPHX 100451Z 29008KT 10SM FEW200 BKN250 29/M02 A2983 RMK AO2 SLP083 T02941017","lat":33.4278,"lon":-112.0037,"elev":338,"name":"Phoenix/Sky Harbor Intl, AZ, US","cover":"BKN","clouds":[{"cover":"FEW","base":20000},{"cover":"BKN","base":25000}],"fltCat":"VFR"},{"icaoId":"KSAD","receiptTime":"2026-04-10T04:54:20.108Z","obsTime":1775796660,"reportTime":"2026-04-10T05:00:00.000Z","temp":22.2,"dewp":-4.4,"wdir":280,"wspd":8,"visib":"10+","altim":1013.3,"slp":1008.6,"qcField":6,"metarType":"METAR","rawOb":"METAR KSAD 100451Z AUTO 28008KT 10SM CLR 22/M04 A2992 RMK AO2 SLP086 T02221044","lat":32.8565,"lon":-109.636,"elev":937,"name":"Safford Rgnl, AZ, US","cover":"CLR","clouds":[],"fltCat":"VFR"},{"icaoId":"KIGM","receiptTime":"2026-04-10T04:54:19.608Z","obsTime":1775796660,"reportTime":"2026-04-10T05:00:00.000Z","temp":20.6,"dewp":-5.6,"wdir":190,"wspd":10,"visib":"10+","altim":1013.6,"slp":1007.1,"qcField":6,"metarType":"METAR","rawOb":"METAR KIGM 100451Z AUTO 19010KT 10SM CLR 21/M06 A2993 RMK AO2 SLP071 T02061056","lat":35.2575,"lon":-113.9341,"elev":1045,"name":"Kingman Arpt, AZ, US","cover":"CLR","clouds":[],"fltCat":"VFR"},{"icaoId":"KIWA","receiptTime":"2026-04-10T04:48:06.910Z","obsTime":1775796420,"reportTime":"2026-04-10T05:00:00.000Z","temp":27,"dewp":-2,"wdir":300,"wspd":6,"visib":"10+","altim":1011.6,"qcField":0,"metarType":"METAR","rawOb":"METAR KIWA 100447Z 30006KT 10SM CLR 27/M02 A2987","lat":33.3008,"lon":-111.6437,"elev":420,"name":"Phoenix/Mesa Gateway Arpt, AZ, US","cover":"CLR","clouds":[],"fltCat":"VFR"},{"icaoId":"KSEZ","receiptTime":"2026-04-10T04:40:18.347Z","obsTime":1775795700,"reportTime":"2026-04-10T04:35:00.000Z","temp":18,"dewp":-5,"wdir":210,"wspd":5,"visib":"10+","altim":1017.4,"qcField":6,"metarType":"METAR","rawOb":"METAR KSEZ 100435Z AUTO 21005KT 10SM CLR 18/M05 A3004 RMK AO2","lat":34.8467,"lon":-111.7884,"elev":1455,"name":"Sedona Arpt, AZ, US","cover":"CLR","clouds":[],"fltCat":"VFR"},{"icaoId":"KIFP","receiptTime":"2026-04-10T04:40:05.804Z","obsTime":1775795700,"reportTime":"2026-04-10T04:35:00.000Z","temp":28,"dewp":-1,"wdir":0,"wspd":0,"visib":"10+","altim":1007.9,"qcField":6,"metarType":"METAR","rawOb":"METAR KIFP 100435Z AUTO 00000KT 10SM CLR 28/M01 A2976 RMK AO2","lat":35.1487,"lon":-114.5611,"elev":210,"name":"Bullhead City Intl, AZ, US","cover":"CLR","clouds":[],"fltCat":"VFR"},{"icaoId":"KHII","receiptTime":"2026-04-10T04:40:24.610Z","obsTime":1775795700,"reportTime":"2026-04-10T04:35:00.000Z","temp":29,"dewp":-2,"wdir":110,"wspd":9,"visib":"10+","altim":1008.5,"qcField":6,"metarType":"METAR","rawOb":"METAR KHII 100435Z AUTO 11009KT 10SM CLR 29/M02 A2978 RMK AO2","lat":34.5659,"lon":-114.3522,"elev":241,"name":"Lake Havasu City Arpt, AZ, US","cover":"CLR","clouds":[],"fltCat":"VFR"},{"icaoId":"KNYL","receiptTime":"2026-04-10T04:00:26.531Z","obsTime":1775793420,"reportTime":"2026-04-10T04:00:00.000Z","temp":28.3,"dewp":5,"wdir":300,"wspd":8,"visib":"10+","altim":1009.6,"slp":1009.3,"qcField":4,"metarType":"METAR","rawOb":"METAR KNYL 100357Z 30008KT 10SM CLR 28/05 A2981 RMK AO2 SLP093 T02830050","lat":32.66,"lon":-114.6078,"elev":58,"name":"Yuma , AZ, US","cover":"CLR","clouds":[],"fltCat":"VFR"},{"icaoId":"KFLG","receiptTime":"2026-04-10T04:00:28.977Z","obsTime":1775793420,"reportTime":"2026-04-10T04:00:00.000Z","temp":7.8,"dewp":-7.8,"wdir":0,"wspd":0,"visib":"10+","altim":1021.1,"slp":1013.3,"qcField":12,"metarType":"METAR","rawOb":"METAR KFLG 100357Z 00000KT 10SM CLR 08/M08 A3015 RMK AO2 SLP133 T00781078 $","lat":35.1443,"lon":-111.6664,"elev":2134,"name":"Flagstaff/Pulliam Arpt, AZ, US","cover":"CLR","clouds":[],"fltCat":"VFR"},{"icaoId":"KDUG","receiptTime":"2026-04-10T04:02:37.757Z","obsTime":1775793360,"reportTime":"2026-04-10T04:00:00.000Z","temp":18.9,"dewp":-3.3,"wdir":360,"wspd":8,"visib":"10+","altim":1016.3,"slp":1010.3,"qcField":38,"metarType":"METAR","rawOb":"METAR KDUG 100356Z AUTO 36008KT 10SM CLR 19/M03 A3001 RMK AO2 SLP103 T01891033 TSNO","lat":31.4725,"lon":-109.6022,"elev":1260,"name":"Douglas/Bisbee Intl, AZ, US","cover":"CLR","clouds":[],"fltCat":"VFR"},{"icaoId":"KINW","receiptTime":"2026-04-10T04:00:18.432Z","obsTime":1775793360,"reportTime":"2026-04-10T04:00:00.000Z","temp":15,"dewp":-2.8,"wdir":220,"wspd":8,"visib":"10+","altim":1017.7,"slp":1012.5,"qcField":6,"metarType":"METAR","rawOb":"METAR KINW 100356Z AUTO 22008KT 10SM CLR 15/M03 A3005 RMK AO2 SLP125 T01501028","lat":35.0279,"lon":-110.7221,"elev":1492,"name":"Winslow/Lindberg Rgnl, AZ, US","cover":"CLR","clouds":[],"fltCat":"VFR"},{"icaoId":"KGYR","receiptTime":"2026-04-10T03:54:12.716Z","obsTime":1775792820,"reportTime":"2026-04-10T04:00:00.000Z","temp":27,"dewp":2,"wdir":230,"wspd":10,"visib":"10+","altim":1009.9,"qcField":0,"metarType":"METAR","rawOb":"METAR KGYR 100347Z 23010KT 10SM FEW110 FEW200 BKN250 27/02 A2982 RMK LAST","lat":33.428,"lon":-112.368,"elev":292,"name":"Phoenix/Goodyear Muni, AZ, US","cover":"BKN","clouds":[{"cover":"FEW","base":11000},{"cover":"FEW","base":20000},{"cover":"BKN","base":25000}],"fltCat":"VFR"}]