[{"icaoId":"KSAT","receiptTime":"2026-04-12T21:04:04.201Z","obsTime":1776027600,"reportTime":"2026-04-12T21:00:00.000Z","temp":25.6,"dewp":21.7,"wdir":120,"wspd":12,"visib":"10+","altim":1015.7,"qcField":12,"metarType":"SPECI","rawOb":"SPECI KSAT 122100Z 12012KT 10SM BKN024 OVC040 26/22 A2999 RMK AO2 LTG DSNT NE-SE T02560217 $","lat":29.5443,"lon":-98.4839,"elev":246,"name":"San Antonio Intl, TX, US","cover":"OVC","clouds":[{"cover":"BKN","base":2400},{"cover":"OVC","base":4000}],"fltCat":"MVFR"},{"icaoId":"KNYL","receiptTime":"2026-04-12T21:00:28.647Z","obsTime":1776027420,"reportTime":"2026-04-12T21:00:00.000Z","temp":25,"dewp":3.9,"wdir":280,"wspd":10,"wgst":15,"visib":"10+","altim":1013.3,"slp":1012.9,"qcField":6,"presTend":-1.3,"metarType":"METAR","rawOb":"METAR KNYL 122057Z AUTO 28010G15KT 10SM CLR 25/04 A2992 RMK AO2 SLP129 T02500039 58013","lat":32.66,"lon":-114.6078,"elev":58,"name":"Yuma , AZ, US","cover":"CLR","clouds":[],"fltCat":"VFR"},{"icaoId":"KNFL","receiptTime":"2026-04-12T21:00:28.604Z","obsTime":1776027420,"reportTime":"2026-04-12T21:00:00.000Z","temp":12.2,"dewp":-3.9,"wdir":230,"wspd":10,"wgst":18,"visib":"10+","altim":1008.9,"slp":1006.7,"qcField":14,"presTend":-0.4,"metarType":"METAR","rawOb":"METAR KNFL 122057Z AUTO 23010G18KT 10SM FEW100 BKN230 12/M04 A2979 RMK AO2 RAE07PLE07 SLP067 VIS LWR N-NE SH DSNT SE-S 6//// T01221039 58004 PNO $","lat":39.417,"lon":-118.705,"elev":1199,"name":"Fallon , NV, US","cover":"BKN","clouds":[{"cover":"FEW","base":10000},{"cover":"BKN","base":23000}],"fltCat":"VFR"},{"icaoId":"KFLG","receiptTime":"2026-04-12T21:00:28.369Z","obsTime":1776027420,"reportTime":"2026-04-12T21:00:00.000Z","temp":13.9,"dewp":-5,"wdir":220,"wspd":30,"wgst":43,"visib":"10+","altim":1017,"slp":1009.7,"qcField":12,"presTend":-0.8,"metarType":"METAR","rawOb":"METAR KFLG 122057Z 22030G43KT 10SM CLR 14/M05 A3003 RMK AO2 PK WND 22044/2037 SLP097 T01391050 55008 $","lat":35.1443,"lon":-111.6664,"elev":2134,"name":"Flagstaff/Pulliam Arpt, AZ, US","cover":"CLR","clouds":[],"fltCat":"VFR"},{"icaoId":"KJAC","receiptTime":"2026-04-12T20:58:32.250Z","obsTime":1776027360,"reportTime":"2026-04-12T21:00:00.000Z","temp":11.7,"dewp":-2.8,"wdir":180,"wspd":19,"wgst":24,"visib":"10+","altim":1006.5,"slp":1005.3,"qcField":4,"presTend":-1.3,"precip":0.005,"pcp3hr":0.005,"metarType":"METAR","rawOb":"METAR KJAC 122056Z 18019G24KT 10SM SCT060 BKN080 12/M03 A2972 RMK AO2 RAB27E39 SLP053 P0000 60000 T01171028 58013","lat":43.6129,"lon":-110.7366,"elev":1967,"name":"Jackson Hole Arpt, WY, US","cover":"BKN","clouds":[{"cover":"SCT","base":6000},{"cover":"BKN","base":8000}],"fltCat":"VFR"},{"icaoId":"KFNL","receiptTime":"2026-04-12T20:58:31.528Z","obsTime":1776027360,"reportTime":"2026-04-12T21:00:00.000Z","temp":23.9,"dewp":-7.2,"wdir":190,"wspd":8,"wgst":16,"visib":"10+","altim":1007.2,"slp":1001.3,"qcField":12,"presTend":-2.1,"metarType":"METAR","rawOb":"METAR KFNL 122056Z 19008G16KT 140V230 10SM CLR 24/M07 A2974 RMK AO2 SLP013 T02391072 56021 $","lat":40.4427,"lon":-105.0097,"elev":1529,"name":"Fort Collins/N Colorado Rgnl, CO, US","cover":"CLR","clouds":[],"fltCat":"VFR"},{"icaoId":"KCOD","receiptTime":"2026-04-12T20:58:30.709Z","obsTime":1776027360,"reportTime":"2026-04-12T21:00:00.000Z","temp":13.9,"dewp":-0.6,"wdir":50,"wspd":5,"visib":"10+","altim":1005.8,"slp":1002.8,"qcField":14,"presTend":-0.9,"precip":0.005,"pcp3hr":0.005,"metarType":"METAR","rawOb":"METAR KCOD 122056Z AUTO 05005KT 10SM FEW035 14/M01 A2970 RMK AO2 LTG DSNT SW RAE42 SLP028 P0000 60000 T01391006 56009 $","lat":44.52,"lon":-109.0268,"elev":1550,"name":"Cody/Yellowstone Rgnl, WY, US","cover":"FEW","clouds":[{"cover":"FEW","base":3500}],"fltCat":"VFR"},{"icaoId":"KTPH","receiptTime":"2026-04-12T21:00:13.101Z","obsTime":1776027360,"reportTime":"2026-04-12T21:00:00.000Z","temp":12.2,"dewp":-5.6,"wdir":240,"wspd":20,"wgst":31,"visib":"10+","altim":1008.9,"slp":1005.6,"qcField":6,"presTend":-1.6,"pcp3hr":0.01,"metarType":"METAR","rawOb":"METAR KTPH 122056Z AUTO 24020G31KT 10SM FEW070 12/M06 A2979 RMK AO2 PK WND 24031/2054 SLP056 60001 T01221056 58016","lat":38.0505,"lon":-117.0906,"elev":1647,"name":"Tonopah Arpt, NV, US","cover":"FEW","clouds":[{"cover":"FEW","base":7000}],"fltCat":"VFR"},{"icaoId":"KPVU","receiptTime":"2026-04-12T20:58:28.441Z","obsTime":1776027360,"reportTime":"2026-04-12T21:00:00.000Z","temp":20,"dewp":-1.7,"wdir":210,"wspd":18,"wgst":25,"visib":"10+","altim":1007.2,"slp":1003.9,"qcField":4,"presTend":-1.1,"metarType":"METAR","rawOb":"METAR KPVU 122056Z 21018G25KT 10SM CLR 20/M02 A2974 RMK AO2 PK WND 23031/1959 SLP039 T02001017 56011","lat":40.224,"lon":-111.7252,"elev":1370,"name":"Provo Muni, UT, US","cover":"CLR","clouds":[],"fltCat":"VFR"},{"icaoId":"KSBP","receiptTime":"2026-04-12T21:00:18.764Z","obsTime":1776027360,"reportTime":"2026-04-12T21:00:00.000Z","temp":15.6,"dewp":9.4,"wdir":210,"wspd":9,"wgst":17,"visib":"10+","altim":1015.7,"slp":1015.6,"qcField":4,"presTend":0.5,"precip":0.005,"pcp3hr":0.005,"metarType":"METAR","rawOb":"METAR KSBP 122056Z 21009G17KT 10SM FEW032 SCT050 BKN085 16/09 A2999 RMK AO2 RAB40E53 SLP156 P0000 60000 T01560094 52005","lat":35.2381,"lon":-120.644,"elev":52,"name":"San Luis Obispo/San Luis Cnty, CA, US","cover":"BKN","clouds":[{"cover":"FEW","base":3200},{"cover":"SCT","base":5000},{"cover":"BKN","base":8500}],"fltCat":"VFR"},{"icaoId":"KSFO","receiptTime":"2026-04-12T21:00:15.941Z","obsTime":1776027360,"reportTime":"2026-04-12T21:00:00.000Z","temp":13.9,"dewp":10.6,"wdir":210,"wspd":8,"visib":"10+","altim":1013.3,"slp":1013.3,"qcField":12,"presTend":1.3,"precip":0.07,"pcp3hr":0.08,"metarType":"METAR","rawOb":"METAR KSFO 122056Z 21008KT 10SM FEW031 BKN045 BKN060 14/11 A2992 RMK AO2 RAE52 SLP133 P0007 60008 T01390106 51013 $","lat":37.6196,"lon":-122.3656,"elev":2,"name":"San Francisco Intl, CA, US","cover":"BKN","clouds":[{"cover":"FEW","base":3100},{"cover":"BKN","base":4500},{"cover":"BKN","base":6000}],"fltCat":"VFR"},{"icaoId":"KLWS","receiptTime":"2026-04-12T21:00:15.709Z","obsTime":1776027360,"reportTime":"2026-04-12T21:00:00.000Z","temp":15.6,"dewp":8.3,"wdir":0,"wspd":0,"visib":"10+","altim":1002.5,"slp":1002.3,"qcField":4,"presTend":-0.4,"metarType":"METAR","rawOb":"METAR KLWS 122056Z 00000KT 10SM BKN090 16/08 A2960 RMK AO2 SLP023 T01560083 58004","lat":46.3746,"lon":-117.0153,"elev":435,"name":"Lewiston/Nez Perce Cnty, ID, US","cover":"BKN","clouds":[{"cover":"BKN","base":9000}],"fltCat":"VFR"},{"icaoId":"KJAX","receiptTime":"2026-04-12T21:00:15.691Z","obsTime":1776027360,"reportTime":"2026-04-12T21:00:00.000Z","temp":26.1,"dewp":12.8,"wdir":110,"wspd":14,"wgst":19,"visib":"10+","altim":1026.2,"slp":1025.9,"qcField":12,"presTend":-1.1,"metarType":"METAR","rawOb":"METAR KJAX 122056Z 11014G19KT 10SM FEW038 26/13 A3030 RMK AO2 SLP259 T02610128 58011 $","lat":30.4953,"lon":-81.6937,"elev":8,"name":"Jacksonville Intl, FL, US","cover":"FEW","clouds":[{"cover":"FEW","base":3800}],"fltCat":"VFR"},{"icaoId":"KINW","receiptTime":"2026-04-12T21:00:15.677Z","obsTime":1776027360,"reportTime":"2026-04-12T21:00:00.000Z","temp":20,"dewp":-6.7,"wdir":220,"wspd":21,"wgst":32,"visib":"10+","altim":1015.3,"slp":1010.8,"qcField":6,"presTend":-0.6,"metarType":"METAR","rawOb":"METAR KINW 122056Z AUTO 22021G32KT 10SM CLR 20/M07 A2998 RMK AO2 PK WND 22039/2030 SLP108 T02001067 55006","lat":35.0279,"lon":-110.7221,"elev":1492,"name":"Winslow/Lindberg Rgnl, AZ, US","cover":"CLR","clouds":[],"fltCat":"VFR"},{"icaoId":"KDUG","receiptTime":"2026-04-12T21:02:14.217Z","obsTime":1776027360,"reportTime":"2026-04-12T21:00:00.000Z","temp":24.4,"dewp":1.1,"wdir":230,"wspd":22,"wgst":33,"visib":"10+","altim":1018.4,"slp":1013.1,"qcField":38,"presTend":-0.6,"metarType":"METAR","rawOb":"METAR KDUG 122056Z AUTO 23022G33KT 10SM FEW090 SCT120 24/01 A3007 RMK AO2 PK WND 22033/2053 SLP131 T02440011 55006 TSNO","lat":31.4725,"lon":-109.6022,"elev":1260,"name":"Douglas/Bisbee Intl, AZ, US","cover":"SCT","clouds":[{"cover":"FEW","base":9000},{"cover":"SCT","base":12000}],"fltCat":"VFR"},{"icaoId":"KLAS","receiptTime":"2026-04-12T21:00:11.837Z","obsTime":1776027360,"reportTime":"2026-04-12T21:00:00.000Z","temp":21.7,"dewp":1.1,"wdir":230,"wspd":17,"wgst":29,"visib":"10+","altim":1010.9,"slp":1009.1,"qcField":4,"presTend":-0.6,"metarType":"METAR","rawOb":"METAR KLAS 122056Z 23017G29KT 10SM FEW090 SCT150 22/01 A2985 RMK AO2 PK WND 21034/2037 SLP091 T02170011 55006","lat":36.0719,"lon":-115.1634,"elev":662,"name":"Las Vegas/Reid Intl, NV, US","cover":"SCT","clouds":[{"cover":"FEW","base":9000},{"cover":"SCT","base":15000}],"fltCat":"VFR"},{"icaoId":"KVIS","receiptTime":"2026-04-12T20:58:29.870Z","obsTime":1776027360,"reportTime":"2026-04-12T21:00:00.000Z","temp":18.9,"dewp":5.6,"wdir":180,"wspd":12,"wgst":15,"visib":"10+","altim":1015,"slp":1014.8,"qcField":14,"presTend":-0.6,"metarType":"METAR","rawOb":"METAR KVIS 122056Z AUTO 18012G15KT 10SM FEW055 19/06 A2997 RMK AO2 SLP148 6//// T01890056 58006 PNO $","lat":36.3135,"lon":-119.3884,"elev":92,"name":"Visalia Muni, CA, US","cover":"FEW","clouds":[{"cover":"FEW","base":5500}],"fltCat":"VFR"},{"icaoId":"KCGZ","receiptTime":"2026-04-12T20:58:30.587Z","obsTime":1776027360,"reportTime":"2026-04-12T21:00:00.000Z","temp":28.3,"dewp":-1.7,"wdir":240,"wspd":12,"wgst":21,"visib":"10+","altim":1013.3,"slp":1012.1,"qcField":14,"presTend":-1.2,"metarType":"METAR","rawOb":"METAR KCGZ 122056Z AUTO 24012G21KT 10SM CLR 28/M02 A2992 RMK AO2 SLP121 6//// T02831017 55012 $","lat":32.9531,"lon":-111.7725,"elev":444,"name":"Casa Granda Muni, AZ, US","cover":"CLR","clouds":[],"fltCat":"VFR"},{"icaoId":"KCHS","receiptTime":"2026-04-12T21:00:15.497Z","obsTime":1776027360,"reportTime":"2026-04-12T21:00:00.000Z","temp":26.1,"dewp":15,"wdir":130,"wspd":12,"visib":"10+","altim":1027.2,"slp":1027,"qcField":4,"presTend":-1.3,"metarType":"METAR","rawOb":"METAR KCHS 122056Z 13012KT 10SM FEW050 FEW250 26/15 A3033 RMK AO2 SLP270 T02610150 57013","lat":32.8995,"lon":-80.0407,"elev":12,"name":"Charleston Intl, SC, US","cover":"FEW","clouds":[{"cover":"FEW","base":5000},{"cover":"FEW","base":25000}],"fltCat":"VFR"},{"icaoId":"KCOE","receiptTime":"2026-04-12T20:58:30.723Z","obsTime":1776027360,"reportTime":"2026-04-12T21:00:00.000Z","temp":16.1,"dewp":5.6,"wdir":360,"wspd":9,"visib":"10+","altim":1002.8,"slp":1003.9,"qcField":14,"presTend":-1.3,"metarType":"METAR","rawOb":"METAR KCOE 122056Z AUTO 36009KT 10SM CLR 16/06 A2961 RMK AO2 SLP039 6//// T01610056 56013 PNO $","lat":47.7719,"lon":-116.8332,"elev":693,"name":"Coeur DAlene Arpt, ID, US","cover":"CLR","clouds":[],"fltCat":"VFR"},{"icaoId":"KHND","receiptTime":"2026-04-12T20:58:31.940Z","obsTime":1776027360,"reportTime":"2026-04-12T21:00:00.000Z","temp":21.1,"dewp":1.1,"wdir":240,"wspd":11,"wgst":18,"visib":"10+","altim":1011.3,"slp":1011.3,"qcField":12,"presTend":-0.5,"metarType":"METAR","rawOb":"METAR KHND 122056Z 24011G18KT 200V270 10SM FEW075 21/01 A2986 RMK AO2 SLP113 T02110011 58005 $","lat":35.9657,"lon":-115.1343,"elev":740,"name":"Henderson Exec, NV, US","cover":"FEW","clouds":[{"cover":"FEW","base":7500}],"fltCat":"VFR"},{"icaoId":"KCEC","receiptTime":"2026-04-12T21:00:11.652Z","obsTime":1776027360,"reportTime":"2026-04-12T21:00:00.000Z","temp":13.3,"dewp":7.8,"wdir":310,"wspd":8,"visib":"10+","altim":1010.6,"slp":1010.7,"qcField":6,"presTend":1.8,"pcp3hr":0.005,"metarType":"METAR","rawOb":"METAR KCEC 122056Z AUTO 31008KT 10SM CLR 13/08 A2984 RMK AO2 SLP107 60000 T01330078 51018","lat":41.7836,"lon":-124.238,"elev":17,"name":"Crescent City/McNama, CA, US","cover":"CLR","clouds":[],"fltCat":"VFR"},{"icaoId":"KENV","receiptTime":"2026-04-12T20:58:31.263Z","obsTime":1776027360,"reportTime":"2026-04-12T21:00:00.000Z","temp":16.1,"dewp":-7.2,"wdir":270,"wspd":25,"wgst":32,"visib":"10+","altim":1007.5,"slp":1005.8,"qcField":6,"presTend":1.1,"metarType":"METAR","rawOb":"METAR KENV 122056Z AUTO 27025G32KT 10SM CLR 16/M07 A2975 RMK AO2 PK WND 27035/2039 SLP058 T01611072 50011","lat":40.7211,"lon":-114.0312,"elev":1291,"name":"Wendover Arpt, UT, US","cover":"CLR","clouds":[],"fltCat":"VFR"},{"icaoId":"KSDF","receiptTime":"2026-04-12T21:00:18.803Z","obsTime":1776027360,"reportTime":"2026-04-12T21:00:00.000Z","temp":27.8,"dewp":6.7,"wdir":200,"wspd":15,"wgst":24,"visib":"10+","altim":1019,"slp":1018.6,"qcField":4,"presTend":-1.6,"metarType":"METAR","rawOb":"METAR KSDF 122056Z 20015G24KT 10SM FEW085 BKN230 28/07 A3009 RMK AO2 PK WND 20028/2016 SLP186 T02780067 58016","lat":38.1774,"lon":-85.7308,"elev":146,"name":"Louisville Intl, KY, US","cover":"BKN","clouds":[{"cover":"FEW","base":8500},{"cover":"BKN","base":23000}],"fltCat":"VFR"},{"icaoId":"KEKO","receiptTime":"2026-04-12T21:00:14.608Z","obsTime":1776027360,"reportTime":"2026-04-12T21:00:00.000Z","temp":8.9,"dewp":-3.3,"wdir":270,"wspd":9,"wgst":17,"visib":"10+","altim":1009.6,"slp":1008.1,"qcField":6,"presTend":-1,"metarType":"METAR","rawOb":"METAR KEKO 122056Z AUTO 27009G17KT 10SM FEW120 09/M03 A2981 RMK AO2 SLP081 T00891033 58010","lat":40.824,"lon":-115.7863,"elev":1541,"name":"Elko Rgnl, NV, US","cover":"FEW","clouds":[{"cover":"FEW","base":12000}],"fltCat":"VFR"},{"icaoId":"KGUC","receiptTime":"2026-04-12T20:58:31.782Z","obsTime":1776027360,"reportTime":"2026-04-12T21:00:00.000Z","temp":16.7,"dewp":-11.7,"wdir":270,"wspd":16,"wgst":23,"visib":"10+","altim":1013.6,"slp":1009.1,"qcField":14,"presTend":-1.7,"metarType":"METAR","rawOb":"METAR KGUC 122056Z AUTO 27016G23KT 10SM CLR 17/M12 A2993 RMK AO2 SLP091 T01671117 56017 $","lat":38.5322,"lon":-106.9419,"elev":2337,"name":"Gunnison Arpt, CO, US","cover":"CLR","clouds":[],"fltCat":"VFR"},{"icaoId":"KEGE","receiptTime":"2026-04-12T20:58:31.139Z","obsTime":1776027360,"reportTime":"2026-04-12T21:00:00.000Z","temp":17.8,"dewp":-10.6,"wdir":240,"wspd":11,"wgst":17,"visib":"10+","altim":1011.9,"slp":1007.3,"qcField":4,"presTend":-1.4,"metarType":"METAR","rawOb":"METAR KEGE 122056Z 24011G17KT 10SM FEW120 18/M11 A2988 RMK AO2 PK WND 23028/2032 SLP073 T01781106 58014","lat":39.6448,"lon":-106.9176,"elev":1993,"name":"Eagle Cnty Rgnl, CO, US","cover":"FEW","clouds":[{"cover":"FEW","base":12000}],"fltCat":"VFR"},{"icaoId":"KHDN","receiptTime":"2026-04-12T20:58:31.886Z","obsTime":1776027360,"reportTime":"2026-04-12T21:00:00.000Z","temp":17.8,"dewp":-8.3,"wdir":250,"wspd":17,"wgst":25,"visib":"10+","altim":1010.6,"slp":1006.3,"qcField":6,"presTend":-1.6,"metarType":"METAR","rawOb":"METAR KHDN 122056Z AUTO 25017G25KT 10SM SCT120 18/M08 A2984 RMK AO2 PK WND 23033/1958 SLP063 T01781083 56016","lat":40.4842,"lon":-107.2296,"elev":2012,"name":"Hayden/Yampa Valley Arpt, CO, US","cover":"SCT","clouds":[{"cover":"SCT","base":12000}],"fltCat":"VFR"},{"icaoId":"KUKI","receiptTime":"2026-04-12T21:00:13.309Z","obsTime":1776027360,"reportTime":"2026-04-12T21:00:00.000Z","temp":12.2,"dewp":7.2,"wdir":230,"wspd":7,"wgst":16,"visib":"10+","altim":1010.9,"slp":1010.3,"qcField":6,"wxString":"-RA","presTend":1.6,"precip":0.01,"pcp3hr":0.01,"metarType":"METAR","rawOb":"METAR KUKI 122056Z AUTO 23007G16KT 10SM -RA BKN040 BKN050 OVC090 12/07 A2985 RMK AO2 RAB36 SLP103 P0001 60001 T01220072 53016","lat":39.1278,"lon":-123.2001,"elev":183,"name":"Ukiah Muni, CA, US","cover":"OVC","clouds":[{"cover":"BKN","base":4000},{"cover":"BKN","base":5000},{"cover":"OVC","base":9000}],"fltCat":"VFR"},{"icaoId":"KSGU","receiptTime":"2026-04-12T20:58:29.106Z","obsTime":1776027360,"reportTime":"2026-04-12T21:00:00.000Z","temp":23.9,"dewp":-8.9,"wdir":210,"wspd":23,"wgst":35,"visib":"10+","altim":1008.5,"slp":1006,"qcField":6,"presTend":-1.4,"metarType":"METAR","rawOb":"METAR KSGU 122056Z AUTO 21023G35KT 10SM CLR 24/M09 A2978 RMK AO2 PK WND 21038/2011 SLP060 T02391089 57014","lat":37.0444,"lon":-113.5034,"elev":877,"name":"Saint George Muni, UT, US","cover":"CLR","clouds":[],"fltCat":"VFR"},{"icaoId":"KBVU","receiptTime":"2026-04-12T20:56:20.028Z","obsTime":1776027300,"reportTime":"2026-04-12T21:00:00.000Z","temp":24,"dewp":-1,"wdir":210,"wspd":15,"wgst":24,"visib":"10+","altim":1009.6,"qcField":6,"metarType":"METAR","rawOb":"METAR KBVU 122055Z AUTO 21015G24KT 10SM FEW100 24/M01 A2981 RMK AO2","lat":35.9489,"lon":-114.8633,"elev":654,"name":"Boulder City Muni, NV, US","cover":"FEW","clouds":[{"cover":"FEW","base":10000}],"fltCat":"VFR"},{"icaoId":"KHTH","receiptTime":"2026-04-12T21:00:15.610Z","obsTime":1776027300,"reportTime":"2026-04-12T21:00:00.000Z","temp":12,"dewp":-10,"wdir":220,"wspd":15,"wgst":21,"visib":"10+","altim":1009.2,"qcField":6,"metarType":"METAR","rawOb":"METAR KHTH 122055Z AUTO 22015G21KT 10SM FEW100 12/M10 A2980 RMK A01","lat":38.5448,"lon":-118.6314,"elev":1281,"name":"Hawthorne Muni, NV, US","cover":"FEW","clouds":[{"cover":"FEW","base":10000}],"fltCat":"VFR"},{"icaoId":"KSEZ","receiptTime":"2026-04-12T21:00:12.896Z","obsTime":1776027300,"reportTime":"2026-04-12T21:00:00.000Z","temp":20,"dewp":-4,"wdir":180,"wspd":20,"wgst":31,"visib":"10+","altim":1016,"qcField":6,"metarType":"METAR","rawOb":"METAR KSEZ 122055Z AUTO 18020G31KT 10SM CLR 20/M04 A3000 RMK AO2","lat":34.8467,"lon":-111.7884,"elev":1455,"name":"Sedona Arpt, AZ, US","cover":"CLR","clouds":[],"fltCat":"VFR"},{"icaoId":"KMHR","receiptTime":"2026-04-12T21:00:12.657Z","obsTime":1776027300,"reportTime":"2026-04-12T21:00:00.000Z","temp":14,"dewp":12,"wdir":190,"wspd":9,"visib":"10+","altim":1012.6,"qcField":6,"metarType":"METAR","rawOb":"METAR KMHR 122055Z AUTO 19009KT 10SM FEW031 BKN050 BKN065 14/12 A2990 RMK AO2","lat":38.56,"lon":-121.284,"elev":30,"name":"Sacramento/Mather Fld, CA, US","cover":"BKN","clouds":[{"cover":"FEW","base":3100},{"cover":"BKN","base":5000},{"cover":"BKN","base":6500}],"fltCat":"VFR"},{"icaoId":"KMEV","receiptTime":"2026-04-12T21:00:11.903Z","obsTime":1776027300,"reportTime":"2026-04-12T21:00:00.000Z","temp":6,"dewp":-1,"wdir":210,"wspd":13,"wgst":23,"visib":"10+","altim":1010.9,"qcField":6,"metarType":"METAR","rawOb":"METAR KMEV 122055Z AUTO 21013G23KT 10SM SCT055 SCT065 BKN080 06/M01 A2985 RMK AO2","lat":38.9963,"lon":-119.75,"elev":1437,"name":"Minden-Tahoe Arpt, NV, US","cover":"BKN","clouds":[{"cover":"SCT","base":5500},{"cover":"SCT","base":6500},{"cover":"BKN","base":8000}],"fltCat":"VFR"},{"icaoId":"KCXP","receiptTime":"2026-04-12T21:00:11.718Z","obsTime":1776027300,"reportTime":"2026-04-12T21:00:00.000Z","temp":8,"dewp":-5,"wdir":210,"wspd":12,"wgst":27,"visib":"10+","altim":1010.9,"qcField":6,"metarType":"METAR","rawOb":"METAR KCXP 122055Z AUTO 21012G27KT 10SM FEW050 SCT055 SCT075 08/M05 A2985 RMK AO2","lat":39.1905,"lon":-119.7319,"elev":1431,"name":"Carson City Arpt, NV, US","cover":"SCT","clouds":[{"cover":"FEW","base":5000},{"cover":"SCT","base":5500},{"cover":"SCT","base":7500}],"fltCat":"VFR"},{"icaoId":"KHII","receiptTime":"2026-04-12T21:02:09.488Z","obsTime":1776027300,"reportTime":"2026-04-12T21:00:00.000Z","temp":26,"dewp":-2,"wdir":200,"wspd":12,"visib":"10+","altim":1010.9,"qcField":6,"metarType":"METAR","rawOb":"METAR KHII 122055Z AUTO 20012KT 10SM CLR 26/M02 A2985 RMK AO2","lat":34.5659,"lon":-114.3522,"elev":241,"name":"Lake Havasu City Arpt, AZ, US","cover":"CLR","clouds":[],"fltCat":"VFR"},{"icaoId":"KSOW","receiptTime":"2026-04-12T20:58:06.900Z","obsTime":1776027300,"reportTime":"2026-04-12T21:00:00.000Z","temp":18,"dewp":-7,"wdir":190,"wspd":26,"wgst":40,"visib":"10+","altim":1018,"qcField":6,"metarType":"METAR","rawOb":"METAR KSOW 122055Z AUTO 19026G40KT 10SM CLR 18/M07 A3006 RMK AO2","lat":34.2686,"lon":-110.0019,"elev":1954,"name":"Show Low Muni, AZ, US","cover":"CLR","clouds":[],"fltCat":"VFR"},{"icaoId":"KLRU","receiptTime":"2026-04-12T20:58:07.776Z","obsTime":1776027300,"reportTime":"2026-04-12T21:00:00.000Z","temp":25.8,"dewp":-6.3,"wdir":230,"wspd":17,"wgst":30,"visib":"10+","altim":1017.7,"qcField":6,"metarType":"METAR","rawOb":"METAR KLRU 122055Z AUTO 23017G30KT 10SM SCT110 26/M06 A3005 RMK AO2 T02581063","lat":32.2884,"lon":-106.9131,"elev":1355,"name":"Las Cruces Intl, NM, US","cover":"SCT","clouds":[{"cover":"SCT","base":11000}],"fltCat":"VFR"},{"icaoId":"KCMA","receiptTime":"2026-04-12T20:58:30.673Z","obsTime":1776027300,"reportTime":"2026-04-12T21:00:00.000Z","temp":19.4,"dewp":7.8,"wdir":250,"wspd":14,"wgst":21,"visib":"10+","altim":1015.3,"slp":1016.2,"qcField":4,"presTend":-0.3,"metarType":"METAR","rawOb":"METAR KCMA 122055Z 25014G21KT 10SM CLR 19/08 A2998 RMK AO2 SLP162 T01940078 58003","lat":34.2114,"lon":-119.0876,"elev":20,"name":"Camarillo Arpt, CA, US","cover":"CLR","clouds":[],"fltCat":"VFR"},{"icaoId":"KRTS","receiptTime":"2026-04-12T21:00:18.666Z","obsTime":1776027300,"reportTime":"2026-04-12T21:00:00.000Z","temp":4,"dewp":-3,"wdir":240,"wspd":6,"wgst":13,"visib":"10+","altim":1010.9,"qcField":6,"metarType":"METAR","rawOb":"METAR KRTS 122055Z AUTO 24006G13KT 10SM OVC036 04/M03 A2985 RMK AO2","lat":39.6658,"lon":-119.8731,"elev":1537,"name":"Reno/Stead Arpt, NV, US","cover":"OVC","clouds":[{"cover":"OVC","base":3600}],"fltCat":"VFR"},{"icaoId":"KRNO","receiptTime":"2026-04-12T20:58:28.599Z","obsTime":1776027300,"reportTime":"2026-04-12T21:00:00.000Z","temp":9.4,"dewp":-3.3,"wdir":180,"wspd":13,"visib":"10+","altim":1009.6,"slp":1008.5,"qcField":4,"presTend":0.1,"pcp3hr":0.005,"metarType":"METAR","rawOb":"METAR KRNO 122055Z 18013KT 10SM SCT045 BKN075 BKN170 09/M03 A2981 RMK AO2 SLP085 VC SH S THRU W 60000 T00941033 51001","lat":39.5077,"lon":-119.7683,"elev":1344,"name":"Reno/Tahoe Intl, NV, US","cover":"BKN","clouds":[{"cover":"SCT","base":4500},{"cover":"BKN","base":7500},{"cover":"BKN","base":17000}],"fltCat":"VFR"},{"icaoId":"KSUN","receiptTime":"2026-04-12T20:59:18.498Z","obsTime":1776027300,"reportTime":"2026-04-12T21:00:00.000Z","temp":4,"dewp":1,"wdir":200,"wspd":110,"visib":"10+","altim":1008.2,"qcField":0,"wxString":"RA","metarType":"METAR","rawOb":"METAR KSUN 122055Z 200110KT 10SM RA SCT015 BKN035 OVC085 04/01 A2977","lat":43.4969,"lon":-114.2923,"elev":1619,"name":"Hailey/Friedman Mem, ID, US","cover":"OVC","clouds":[{"cover":"SCT","base":1500},{"cover":"BKN","base":3500},{"cover":"OVC","base":8500}],"fltCat":"VFR"},{"icaoId":"KLUF","receiptTime":"2026-04-12T21:12:06.010Z","obsTime":1776027300,"reportTime":"2026-04-12T21:00:00.000Z","temp":26.3,"dewp":5.8,"wdir":190,"wspd":14,"visib":"10+","altim":1012.3,"slp":1011.2,"qcField":14,"presTend":-0.8,"metarType":"METAR","rawOb":"METAR KLUF 122055Z AUTO 19014KT 10SM FEW140 FEW190 SCT210 26/06 A2989 RMK AO2 SLP112 T02630058 56008 $","lat":33.538,"lon":-112.38,"elev":333,"name":"Phoenix/Luke AFB, AZ, US","cover":"SCT","clouds":[{"cover":"FEW","base":14000},{"cover":"FEW","base":19000},{"cover":"SCT","base":21000}],"fltCat":"VFR"},{"icaoId":"KHAF","receiptTime":"2026-04-12T20:58:31.844Z","obsTime":1776027300,"reportTime":"2026-04-12T21:00:00.000Z","temp":14,"dewp":12,"wdir":260,"wspd":15,"wgst":20,"visib":8,"altim":1014,"qcField":6,"precip":0.06,"metarType":"METAR","rawOb":"METAR KHAF 122055Z AUTO 26015G20KT 8SM SCT020 SCT039 SCT060 14/12 A2994 RMK AO2 P0006","lat":37.5136,"lon":-122.4996,"elev":11,"name":"Half Moon Bay Arpt, CA, US","cover":"SCT","clouds":[{"cover":"SCT","base":2000},{"cover":"SCT","base":3900},{"cover":"SCT","base":6000}],"fltCat":"VFR"},{"icaoId":"KHCR","receiptTime":"2026-04-12T20:58:15.173Z","obsTime":1776027300,"reportTime":"2026-04-12T21:00:00.000Z","temp":15.7,"dewp":-6.2,"wdir":230,"wspd":15,"wgst":25,"visib":"10+","altim":1007.2,"qcField":14,"presTend":-1.2,"metarType":"METAR","rawOb":"METAR KHCR 122055Z AUTO 23015G25KT 10SM SCT100 BKN180 16/M06 A2974 RMK AO2 PK WND 23032/2001 T01571062 56012 $","lat":40.4774,"lon":-111.4329,"elev":1708,"name":"Heber City Muni, UT, US","cover":"BKN","clouds":[{"cover":"SCT","base":10000},{"cover":"BKN","base":18000}],"fltCat":"VFR"},{"icaoId":"KFFZ","receiptTime":"2026-04-12T20:58:08.578Z","obsTime":1776027240,"reportTime":"2026-04-12T21:00:00.000Z","temp":26.7,"dewp":-0.6,"wdir":190,"wspd":7,"visib":"10+","altim":1012.6,"slp":1010.6,"qcField":4,"presTend":-1.2,"metarType":"METAR","rawOb":"METAR KFFZ 122054Z 19007KT 10SM CLR 27/M01 A2990 RMK AO2 SLP106 T02671006 58012","lat":33.4659,"lon":-111.7212,"elev":420,"name":"Mesa/Falcon Fld, AZ, US","cover":"CLR","clouds":[],"fltCat":"VFR"},{"icaoId":"KBWI","receiptTime":"2026-04-12T20:58:17.292Z","obsTime":1776027240,"reportTime":"2026-04-12T21:00:00.000Z","temp":18.3,"dewp":4.4,"wdir":130,"wspd":12,"wgst":18,"visib":"10+","altim":1026.5,"slp":1026.2,"qcField":4,"presTend":-3.1,"metarType":"METAR","rawOb":"METAR KBWI 122054Z 13012G18KT 10SM FEW180 BKN250 18/04 A3031 RMK AO2 SLP262 T01830044 56031","lat":39.1733,"lon":-76.684,"elev":42,"name":"Baltimore-Washington Intl, MD, US","cover":"BKN","clouds":[{"cover":"FEW","base":18000},{"cover":"BKN","base":25000}],"fltCat":"VFR"},{"icaoId":"KROC","receiptTime":"2026-04-12T20:58:06.807Z","obsTime":1776027240,"reportTime":"2026-04-12T21:00:00.000Z","temp":13.3,"dewp":4.4,"wdir":130,"wspd":6,"visib":"10+","altim":1019,"slp":1019.6,"qcField":4,"presTend":-4.7,"precip":0.005,"pcp3hr":0.005,"metarType":"METAR","rawOb":"METAR KROC 122054Z 13006KT 10SM BKN045 BKN060 OVC070 13/04 A3009 RMK AO2 RAB07E24 SLP196 P0000 60000 T01330044 56047","lat":43.1172,"lon":-77.6754,"elev":166,"name":"Rochester Intl Arpt, NY, US","cover":"OVC","clouds":[{"cover":"BKN","base":4500},{"cover":"BKN","base":6000},{"cover":"OVC","base":7000}],"fltCat":"VFR"},{"icaoId":"KMEM","receiptTime":"2026-04-12T20:58:07.933Z","obsTime":1776027240,"reportTime":"2026-04-12T21:00:00.000Z","temp":27.8,"dewp":11.1,"wdir":190,"wspd":15,"wgst":24,"visib":"10+","altim":1019,"slp":1018.6,"qcField":12,"presTend":-2.6,"metarType":"METAR","rawOb":"METAR KMEM 122054Z 19015G24KT 10SM FEW130 SCT200 28/11 A3009 RMK AO2 PK WND 19033/2032 SLP186 T02780111 56026 $","lat":35.0564,"lon":-89.9864,"elev":78,"name":"Memphis Intl, TN, US","cover":"SCT","clouds":[{"cover":"FEW","base":13000},{"cover":"SCT","base":20000}],"fltCat":"VFR"},{"icaoId":"KPHL","receiptTime":"2026-04-12T20:58:08.340Z","obsTime":1776027240,"reportTime":"2026-04-12T21:00:00.000Z","temp":18.3,"dewp":2.2,"wdir":180,"wspd":11,"wgst":19,"visib":"10+","altim":1027.9,"slp":1027.7,"qcField":12,"presTend":-3,"metarType":"METAR","rawOb":"METAR KPHL 122054Z 18011G19KT 10SM FEW110 SCT190 BKN310 18/02 A3035 RMK AO2 SLP277 T01830022 56030 $","lat":39.8733,"lon":-75.2268,"elev":2,"name":"Philadelphia Intl, PA, US","cover":"BKN","clouds":[{"cover":"FEW","base":11000},{"cover":"SCT","base":19000},{"cover":"BKN","base":31000}],"fltCat":"VFR"},{"icaoId":"KGCN","receiptTime":"2026-04-12T20:58:15.085Z","obsTime":1776027240,"reportTime":"2026-04-12T21:00:00.000Z","temp":15,"dewp":-6.1,"wdir":200,"wspd":18,"wgst":37,"visib":"10+","altim":1015.7,"slp":1011.1,"qcField":4,"presTend":-0.8,"metarType":"METAR","rawOb":"METAR KGCN 122054Z 20018G37KT 10SM SCT085 15/M06 A2999 RMK AO2 PK WND 20041/2015 SLP111 T01501061 58008","lat":35.9458,"lon":-112.1554,"elev":1993,"name":"Grand Canyon Park Arpt, AZ, US","cover":"SCT","clouds":[{"cover":"SCT","base":8500}],"fltCat":"VFR"},{"icaoId":"KCOS","receiptTime":"2026-04-12T20:58:17.520Z","obsTime":1776027240,"reportTime":"2026-04-12T21:00:00.000Z","temp":22.2,"dewp":-10.6,"wdir":"VRB","wspd":5,"visib":"10+","altim":1009.9,"slp":1003.7,"qcField":4,"presTend":-2.2,"metarType":"METAR","rawOb":"METAR KCOS 122054Z VRB05KT 10SM FEW100 BKN220 22/M11 A2982 RMK AO2 SLP037 VIRGA W CCSL SW T02221106 56022","lat":38.8095,"lon":-104.6887,"elev":1886,"name":"Colorado Spring Arpt, CO, US","cover":"BKN","clouds":[{"cover":"FEW","base":10000},{"cover":"BKN","base":22000}],"fltCat":"VFR"},{"icaoId":"KGSO","receiptTime":"2026-04-12T20:58:17.356Z","obsTime":1776027240,"reportTime":"2026-04-12T21:00:00.000Z","temp":27.2,"dewp":10,"wdir":180,"wspd":9,"wgst":19,"visib":"10+","altim":1025.5,"slp":1024.5,"qcField":12,"presTend":-2.4,"metarType":"METAR","rawOb":"METAR KGSO 122054Z 18009G19KT 10SM FEW060 BKN250 27/10 A3028 RMK AO2 SLP245 T02720100 56024 $","lat":36.0969,"lon":-79.9432,"elev":275,"name":"Greensboro Intl, NC, US","cover":"BKN","clouds":[{"cover":"FEW","base":6000},{"cover":"BKN","base":25000}],"fltCat":"VFR"},{"icaoId":"KBUF","receiptTime":"2026-04-12T20:58:17.276Z","obsTime":1776027240,"reportTime":"2026-04-12T21:00:00.000Z","temp":20,"dewp":5,"wdir":200,"wspd":7,"visib":"10+","altim":1017.7,"slp":1017.7,"qcField":12,"presTend":-4.2,"pcp3hr":0.005,"metarType":"METAR","rawOb":"METAR KBUF 122054Z 20007KT 10SM SCT095 BKN110 BKN270 20/05 A3005 RMK AO2 SLP177 60000 T02000050 56042 $","lat":42.94,"lon":-78.7361,"elev":217,"name":"Buffalo-Niagara Intl, NY, US","cover":"BKN","clouds":[{"cover":"SCT","base":9500},{"cover":"BKN","base":11000},{"cover":"BKN","base":27000}],"fltCat":"VFR"},{"icaoId":"KSJN","receiptTime":"2026-04-12T20:58:13.541Z","obsTime":1776027240,"reportTime":"2026-04-12T21:00:00.000Z","temp":18.9,"dewp":-7.8,"wdir":230,"wspd":18,"wgst":28,"visib":"10+","altim":1016.3,"slp":1010.1,"qcField":6,"presTend":-0.7,"metarType":"METAR","rawOb":"METAR KSJN 122054Z AUTO 23018G28KT 10SM CLR 19/M08 A3001 RMK AO2 PK WND 23040/1957 SLP101 T01891078 55007","lat":34.5184,"lon":-109.3801,"elev":1747,"name":"St Johns Ind Arpt, AZ, US","cover":"CLR","clouds":[],"fltCat":"VFR"},{"icaoId":"KRKS","receiptTime":"2026-04-12T20:58:14.948Z","obsTime":1776027240,"reportTime":"2026-04-12T21:00:00.000Z","temp":15.6,"dewp":-11.1,"wdir":210,"wspd":27,"wgst":42,"visib":"10+","altim":1008.2,"slp":1003.9,"qcField":6,"presTend":-1.4,"metarType":"METAR","rawOb":"METAR KRKS 122054Z AUTO 21027G42KT 10SM FEW100 16/M11 A2977 RMK AO2 PK WND 20042/2046 SLP039 T01561111 56014","lat":41.5947,"lon":-109.0529,"elev":2062,"name":"Rock Springs/SW Wyoming Rgnl, WY, US","cover":"FEW","clouds":[{"cover":"FEW","base":10000}],"fltCat":"VFR"},{"icaoId":"KOLS","receiptTime":"2026-04-12T20:58:15.152Z","obsTime":1776027240,"reportTime":"2026-04-12T21:00:00.000Z","temp":22.2,"dewp":0,"wdir":200,"wspd":17,"wgst":26,"visib":"10+","altim":1018.7,"slp":1013.5,"qcField":6,"presTend":-0.3,"precip":0.005,"pcp3hr":0.005,"metarType":"METAR","rawOb":"METAR KOLS 122054Z AUTO 20017G26KT 10SM FEW110 22/00 A3008 RMK AO2 PK WND 22031/2020 RAB40E51 SLP135 P0000 60000 T02220000 55003","lat":31.4208,"lon":-110.8465,"elev":1194,"name":"Nogales Intl, AZ, US","cover":"FEW","clouds":[{"cover":"FEW","base":11000}],"fltCat":"VFR"},{"icaoId":"KIND","receiptTime":"2026-04-12T20:58:17.652Z","obsTime":1776027240,"reportTime":"2026-04-12T21:00:00.000Z","temp":25.6,"dewp":11.7,"wdir":210,"wspd":16,"wgst":26,"visib":"10+","altim":1016.7,"slp":1016.3,"qcField":4,"presTend":-2.3,"metarType":"METAR","rawOb":"METAR KIND 122054Z 21016G26KT 10SM SCT070 BKN100 BKN250 26/12 A3002 RMK AO2 PK WND 19030/2026 SLP163 T02560117 56023","lat":39.7252,"lon":-86.2816,"elev":242,"name":"Indianapolis Intl, IN, US","cover":"BKN","clouds":[{"cover":"SCT","base":7000},{"cover":"BKN","base":10000},{"cover":"BKN","base":25000}],"fltCat":"VFR"},{"icaoId":"KSYR","receiptTime":"2026-04-12T20:58:11.301Z","obsTime":1776027240,"reportTime":"2026-04-12T21:00:00.000Z","temp":15,"dewp":2.2,"wdir":130,"wspd":8,"visib":"10+","altim":1021.8,"slp":1021.6,"qcField":12,"wxString":"-RA","presTend":-3,"precip":0.005,"pcp3hr":0.005,"metarType":"METAR","rawOb":"METAR KSYR 122054Z 13008KT 10SM -RA BKN075 OVC090 15/02 A3017 RMK AO2 RAB1957 SLP216 P0000 60000 T01500022 58030 $","lat":43.1111,"lon":-76.1038,"elev":125,"name":"Syracuse/Hancock Intl, NY, US","cover":"OVC","clouds":[{"cover":"BKN","base":7500},{"cover":"OVC","base":9000}],"fltCat":"VFR"},{"icaoId":"KRIC","receiptTime":"2026-04-12T20:58:06.776Z","obsTime":1776027240,"reportTime":"2026-04-12T21:00:00.000Z","temp":23.9,"dewp":6.7,"wdir":140,"wspd":10,"wgst":16,"visib":"10+","altim":1026.5,"slp":1026.9,"qcField":12,"presTend":-2.7,"metarType":"METAR","rawOb":"METAR KRIC 122054Z 14010G16KT 10SM BKN300 24/07 A3031 RMK AO2 SLP269 T02390067 56027 $","lat":37.5115,"lon":-77.3234,"elev":51,"name":"Richmond Intl, VA, US","cover":"BKN","clouds":[{"cover":"BKN","base":30000}],"fltCat":"VFR"},{"icaoId":"KBOS","receiptTime":"2026-04-12T20:58:17.239Z","obsTime":1776027240,"reportTime":"2026-04-12T21:00:00.000Z","temp":7.8,"dewp":-3.9,"wdir":110,"wspd":12,"visib":"10+","altim":1029.9,"slp":1029.5,"qcField":4,"presTend":-2.6,"metarType":"METAR","rawOb":"METAR KBOS 122054Z 11012KT 10SM FEW080 BKN110 BKN140 OVC200 08/M04 A3041 RMK AO2 SLP295 T00781039 56026","lat":42.3606,"lon":-71.0097,"elev":4,"name":"Boston/Logan Intl, MA, US","cover":"OVC","clouds":[{"cover":"FEW","base":8000},{"cover":"BKN","base":11000},{"cover":"BKN","base":14000},{"cover":"OVC","base":20000}],"fltCat":"VFR"},{"icaoId":"KDSM","receiptTime":"2026-04-12T20:58:17.567Z","obsTime":1776027240,"reportTime":"2026-04-12T21:00:00.000Z","temp":17.8,"dewp":16.7,"wdir":190,"wspd":13,"visib":9,"altim":1006.9,"slp":1006.4,"qcField":4,"wxString":"-RA","presTend":-1.5,"precip":0.03,"pcp3hr":0.1,"metarType":"METAR","rawOb":"METAR KDSM 122054Z 19013KT 9SM -RA BKN014 BKN023 OVC170 18/17 A2973 RMK AO2 SLP064 P0003 60010 T01780167 56015","lat":41.5339,"lon":-93.6531,"elev":286,"name":"Des Moines Intl, IA, US","cover":"OVC","clouds":[{"cover":"BKN","base":1400},{"cover":"BKN","base":2300},{"cover":"OVC","base":17000}],"fltCat":"MVFR"},{"icaoId":"KBTV","receiptTime":"2026-04-12T20:58:17.256Z","obsTime":1776027240,"reportTime":"2026-04-12T21:00:00.000Z","temp":7.8,"dewp":0.6,"wdir":180,"wspd":9,"visib":6,"altim":1026.8,"slp":1027,"qcField":4,"wxString":"-RA","presTend":-2.1,"precip":0.01,"pcp3hr":0.01,"metarType":"METAR","rawOb":"METAR KBTV 122054Z 18009KT 6SM -RA FEW016 BKN037 OVC043 08/01 A3032 RMK AO2 RAB20 SLP270 P0001 60001 T00780006 56021","lat":44.4682,"lon":-73.1499,"elev":101,"name":"Burlington Intl, VT, US","cover":"OVC","clouds":[{"cover":"FEW","base":1600},{"cover":"BKN","base":3700},{"cover":"OVC","base":4300}],"fltCat":"VFR"},{"icaoId":"KBFL","receiptTime":"2026-04-12T20:58:15.055Z","obsTime":1776027240,"reportTime":"2026-04-12T21:00:00.000Z","temp":17.8,"dewp":5.6,"wdir":320,"wspd":8,"visib":"10+","altim":1014.6,"slp":1014.3,"qcField":12,"presTend":-0.8,"metarType":"METAR","rawOb":"METAR KBFL 122054Z 32008KT 10SM BKN085 18/06 A2996 RMK AO2 SLP143 T01780056 58008 $","lat":35.4342,"lon":-119.0552,"elev":146,"name":"Bakersfield/Meadows Arpt, CA, US","cover":"BKN","clouds":[{"cover":"BKN","base":8500}],"fltCat":"VFR"},{"icaoId":"KAPC","receiptTime":"2026-04-12T20:58:23.046Z","obsTime":1776027240,"reportTime":"2026-04-12T21:00:00.000Z","temp":13.9,"dewp":10.6,"wdir":200,"wspd":11,"visib":"10+","altim":1012.3,"slp":1011.3,"qcField":5,"presTend":0.7,"precip":0.005,"pcp3hr":0.06,"metarType":"METAR","rawOb":"METAR KAPC 122054Z COR 20011KT 10SM BKN020 BKN045 14/11 A2989 RMK AO2 RAE45 SLP113 P0000 60006 T01390106 50007","lat":38.2075,"lon":-122.2804,"elev":5,"name":"Napa Cnty Arpt, CA, US","cover":"BKN","clouds":[{"cover":"BKN","base":2000},{"cover":"BKN","base":4500}],"fltCat":"MVFR"},{"icaoId":"KGJT","receiptTime":"2026-04-12T20:56:26.646Z","obsTime":1776027180,"reportTime":"2026-04-12T21:00:00.000Z","temp":21.1,"dewp":-8.3,"wdir":300,"wspd":6,"visib":"10+","altim":1009.2,"slp":1004.4,"qcField":4,"presTend":-1.6,"metarType":"METAR","rawOb":"METAR KGJT 122053Z 30006KT 10SM CLR 21/M08 A2980 RMK AO2 SLP044 T02111083 56016","lat":39.1344,"lon":-108.5408,"elev":1475,"name":"Grand Junction Rgnl, CO, US","cover":"CLR","clouds":[],"fltCat":"VFR"},{"icaoId":"KMOD","receiptTime":"2026-04-12T20:56:37.657Z","obsTime":1776027180,"reportTime":"2026-04-12T21:00:00.000Z","temp":17.2,"dewp":6.1,"wdir":220,"wspd":10,"wgst":20,"visib":"10+","altim":1013,"slp":1012.9,"qcField":6,"presTend":-0.3,"pcp3hr":0.01,"metarType":"METAR","rawOb":"METAR KMOD 122053Z AUTO 22010G20KT 10SM SCT044 BKN050 BKN070 17/06 A2991 RMK AO2 SLP129 60001 T01720061 58003","lat":37.6254,"lon":-120.9549,"elev":25,"name":"Modesto/Sham Fld, CA, US","cover":"BKN","clouds":[{"cover":"SCT","base":4400},{"cover":"BKN","base":5000},{"cover":"BKN","base":7000}],"fltCat":"VFR"},{"icaoId":"KOGD","receiptTime":"2026-04-12T20:56:37.724Z","obsTime":1776027180,"reportTime":"2026-04-12T21:00:00.000Z","temp":18.9,"dewp":-2.2,"wdir":170,"wspd":15,"wgst":25,"visib":"10+","altim":1005.5,"slp":1002,"qcField":4,"presTend":-1,"pcp3hr":0.005,"metarType":"METAR","rawOb":"METAR KOGD 122053Z 17015G25KT 10SM SCT100 19/M02 A2969 RMK AO2 PK WND 20029/2014 SLP020 60000 T01891022 56010","lat":41.1941,"lon":-112.0168,"elev":1356,"name":"Ogden/Hinckley Arpt, UT, US","cover":"SCT","clouds":[{"cover":"SCT","base":10000}],"fltCat":"VFR"},{"icaoId":"KVEL","receiptTime":"2026-04-12T20:56:38.122Z","obsTime":1776027180,"reportTime":"2026-04-12T21:00:00.000Z","temp":18.3,"dewp":-11.1,"wdir":220,"wspd":16,"wgst":22,"visib":"10+","altim":1007.5,"slp":1004,"qcField":6,"presTend":-2,"metarType":"METAR","rawOb":"METAR KVEL 122053Z AUTO 22016G22KT 10SM FEW120 18/M11 A2975 RMK AO2 PK WND 21032/2008 SLP040 T01831111 58020","lat":40.4429,"lon":-109.5128,"elev":1604,"name":"Vernal Rgnl, UT, US","cover":"FEW","clouds":[{"cover":"FEW","base":12000}],"fltCat":"VFR"},{"icaoId":"PANC","receiptTime":"2026-04-12T20:56:38.184Z","obsTime":1776027180,"reportTime":"2026-04-12T21:00:00.000Z","temp":0,"dewp":-0.6,"wdir":280,"wspd":4,"visib":4,"altim":1001.1,"slp":1001.2,"qcField":12,"wxString":"-SN BR","presTend":-0.4,"precip":0.005,"pcp3hr":0.03,"metarType":"METAR","rawOb":"METAR PANC 122053Z 28004KT 4SM -SN BR OVC004 00/M01 A2956 RMK AO2 VIS 1 1/4 N SLP012 P0000 60003 T00001006 58004 $","lat":61.1691,"lon":-150.0277,"elev":39,"name":"Anchorage Intl, AK, US","cover":"OVC","clouds":[{"cover":"OVC","base":400}],"fltCat":"LIFR"},{"icaoId":"KFAT","receiptTime":"2026-04-12T20:56:38.291Z","obsTime":1776027180,"reportTime":"2026-04-12T21:00:00.000Z","temp":19.4,"dewp":4.4,"wdir":150,"wspd":13,"wgst":23,"visib":"10+","altim":1014,"slp":1013.5,"qcField":12,"presTend":-0.8,"metarType":"METAR","rawOb":"METAR KFAT 122053Z 15013G23KT 10SM SCT048 BKN060 BKN110 19/04 A2994 RMK AO2 SLP135 CB DSNT SW-NW TCU DSNT E SE VCSH W T01940044 58008 $","lat":36.78,"lon":-119.7202,"elev":102,"name":"Fresno/Yosemite Intl, CA, US","cover":"BKN","clouds":[{"cover":"SCT","base":4800},{"cover":"BKN","base":6000},{"cover":"BKN","base":11000}],"fltCat":"VFR"},{"icaoId":"KGEG","receiptTime":"2026-04-12T20:56:38.331Z","obsTime":1776027180,"reportTime":"2026-04-12T21:00:00.000Z","temp":16.1,"dewp":4.4,"wdir":330,"wspd":5,"visib":"10+","altim":1002.8,"slp":1002.2,"qcField":4,"presTend":-1.2,"metarType":"METAR","rawOb":"METAR KGEG 122053Z 33005KT 10SM FEW040 FEW100 SCT180 BKN250 16/04 A2961 RMK AO2 SLP022 VCSH SE-SW T01610044 56012","lat":47.6217,"lon":-117.528,"elev":718,"name":"Spokane Intl, WA, US","cover":"BKN","clouds":[{"cover":"FEW","base":4000},{"cover":"FEW","base":10000},{"cover":"SCT","base":18000},{"cover":"BKN","base":25000}],"fltCat":"VFR"},{"icaoId":"KGSP","receiptTime":"2026-04-12T20:56:38.874Z","obsTime":1776027180,"reportTime":"2026-04-12T21:00:00.000Z","temp":26.7,"dewp":7.8,"wdir":190,"wspd":8,"wgst":16,"visib":"10+","altim":1025.5,"slp":1024.6,"qcField":4,"presTend":-1.6,"metarType":"METAR","rawOb":"METAR KGSP 122053Z 19008G16KT 10SM SCT085 27/08 A3028 RMK AO2 SLP246 T02670078 56016","lat":34.8842,"lon":-82.2209,"elev":285,"name":"Greenville-Spartanburg Intl, SC, US","cover":"SCT","clouds":[{"cover":"SCT","base":8500}],"fltCat":"VFR"},{"icaoId":"KIDA","receiptTime":"2026-04-12T20:56:39.163Z","obsTime":1776027180,"reportTime":"2026-04-12T21:00:00.000Z","temp":16.7,"dewp":-1.7,"wdir":180,"wspd":15,"wgst":23,"visib":"10+","altim":1004.5,"slp":1003,"qcField":4,"presTend":-1.4,"precip":0.005,"pcp3hr":0.005,"metarType":"METAR","rawOb":"METAR KIDA 122053Z 18015G23KT 10SM FEW110 17/M02 A2966 RMK AO2 PK WND 17053/1954 LTG DSNT SE RAB1956E09 SLP030 P0000 60000 T01671017 58014","lat":43.5204,"lon":-112.0675,"elev":1444,"name":"Idaho Falls Rgnl, ID, US","cover":"FEW","clouds":[{"cover":"FEW","base":11000}],"fltCat":"VFR"},{"icaoId":"KPRC","receiptTime":"2026-04-12T20:56:39.257Z","obsTime":1776027180,"reportTime":"2026-04-12T21:00:00.000Z","temp":17.8,"dewp":-2.8,"wdir":190,"wspd":12,"wgst":27,"visib":"10+","altim":1016,"slp":1011,"qcField":4,"presTend":-0.6,"metarType":"METAR","rawOb":"METAR KPRC 122053Z 19012G27KT 10SM CLR 18/M03 A3000 RMK AO2 PK WND 15033/1954 SLP110 T01781028 56006","lat":34.6491,"lon":-112.4223,"elev":1528,"name":"Prescott/Love Fld, AZ, US","cover":"CLR","clouds":[],"fltCat":"VFR"},{"icaoId":"KTPA","receiptTime":"2026-04-12T20:56:39.612Z","obsTime":1776027180,"reportTime":"2026-04-12T21:00:00.000Z","temp":29.4,"dewp":11.7,"wdir":100,"wspd":8,"visib":"10+","altim":1023.1,"slp":1022.9,"qcField":4,"presTend":-1.9,"metarType":"METAR","rawOb":"METAR KTPA 122053Z 10008KT 10SM FEW070 29/12 A3021 RMK AO2 SLP229 T02940117 56019","lat":27.9633,"lon":-82.54,"elev":2,"name":"Tampa Intl Arpt, FL, US","cover":"FEW","clouds":[{"cover":"FEW","base":7000}],"fltCat":"VFR"},{"icaoId":"KVGT","receiptTime":"2026-04-12T20:56:39.822Z","obsTime":1776027180,"reportTime":"2026-04-12T21:00:00.000Z","temp":21.7,"dewp":0.6,"wdir":220,"wspd":19,"wgst":29,"visib":"10+","altim":1010.2,"slp":1010.3,"qcField":4,"presTend":-0.7,"metarType":"METAR","rawOb":"METAR KVGT 122053Z 22019G29KT 10SM CLR 22/01 A2983 RMK AO2 PK WND 26031/1955 SLP103 T02170006 56007","lat":36.212,"lon":-115.194,"elev":664,"name":"Las Vegas/North Arpt, NV, US","cover":"CLR","clouds":[],"fltCat":"VFR"},{"icaoId":"KMAF","receiptTime":"2026-04-12T20:56:39.925Z","obsTime":1776027180,"reportTime":"2026-04-12T21:00:00.000Z","temp":29.4,"dewp":6.1,"wdir":220,"wspd":12,"wgst":20,"visib":"10+","altim":1014.6,"slp":1010.6,"qcField":4,"presTend":-2.1,"metarType":"METAR","rawOb":"METAR KMAF 122053Z 22012G20KT 10SM CLR 29/06 A2996 RMK AO2 SLP106 T02940061 58021","lat":31.9475,"lon":-102.2086,"elev":874,"name":"Midland Intl, TX, US","cover":"CLR","clouds":[],"fltCat":"VFR"},{"icaoId":"KMCI","receiptTime":"2026-04-12T20:56:39.981Z","obsTime":1776027180,"reportTime":"2026-04-12T21:00:00.000Z","temp":18.3,"dewp":17.2,"wdir":150,"wspd":13,"visib":"10+","altim":1007.2,"slp":1006.3,"qcField":4,"presTend":-2.6,"precip":0.005,"pcp3hr":0.2,"metarType":"METAR","rawOb":"METAR KMCI 122053Z 15013KT 10SM SCT018 BKN075 OVC090 18/17 A2974 RMK AO2 RAE43 PRESFR SLP063 P0000 60020 T01830172 58026","lat":39.2975,"lon":-94.7309,"elev":308,"name":"Kansas City Intl, MO, US","cover":"OVC","clouds":[{"cover":"SCT","base":1800},{"cover":"BKN","base":7500},{"cover":"OVC","base":9000}],"fltCat":"VFR"},{"icaoId":"KMDW","receiptTime":"2026-04-12T20:56:40.059Z","obsTime":1776027180,"reportTime":"2026-04-12T21:00:00.000Z","temp":26.7,"dewp":12.2,"wdir":220,"wspd":22,"wgst":33,"visib":"10+","altim":1010.6,"slp":1009.9,"qcField":4,"presTend":-2.2,"metarType":"METAR","rawOb":"METAR KMDW 122053Z 22022G33KT 10SM FEW060 BKN140 BKN250 27/12 A2984 RMK AO2 PK WND 23041/2012 SLP099 T02670122 58022","lat":41.7841,"lon":-87.7552,"elev":186,"name":"Chicago/Midway Intl, IL, US","cover":"BKN","clouds":[{"cover":"FEW","base":6000},{"cover":"BKN","base":14000},{"cover":"BKN","base":25000}],"fltCat":"VFR"},{"icaoId":"KLAR","receiptTime":"2026-04-12T20:56:40.396Z","obsTime":1776027180,"reportTime":"2026-04-12T21:00:00.000Z","temp":17.8,"dewp":-11.1,"wdir":230,"wspd":14,"wgst":30,"visib":"10+","altim":1009.9,"slp":1001.4,"qcField":14,"presTend":-1.4,"metarType":"METAR","rawOb":"METAR KLAR 122053Z AUTO 23014G30KT 10SM CLR 18/M11 A2982 RMK AO2 PK WND 22032/2042 SLP014 T01781111 56014 $","lat":41.3165,"lon":-105.6729,"elev":2217,"name":"Laramie Rgnl, WY, US","cover":"CLR","clouds":[],"fltCat":"VFR"},{"icaoId":"KMIA","receiptTime":"2026-04-12T20:58:08.022Z","obsTime":1776027180,"reportTime":"2026-04-12T21:00:00.000Z","temp":25.6,"dewp":15,"wdir":60,"wspd":11,"wgst":21,"visib":"10+","altim":1022.1,"slp":1022,"qcField":0,"presTend":-1.7,"metarType":"METAR","rawOb":"METAR KMIA 122053Z 06011G21KT 10SM BKN049 BKN250 26/15 A3018 RMK PK WND 08026/2036 SLP220 T02560150 56017","lat":25.7881,"lon":-80.3169,"elev":1,"name":"Miami Intl, FL, US","cover":"BKN","clouds":[{"cover":"BKN","base":4900},{"cover":"BKN","base":25000}],"fltCat":"VFR"},{"icaoId":"KSEA","receiptTime":"2026-04-12T20:56:38.490Z","obsTime":1776027180,"reportTime":"2026-04-12T21:00:00.000Z","temp":13.3,"dewp":8.3,"wdir":250,"wspd":4,"visib":"10+","altim":1006.9,"slp":1007.5,"qcField":4,"presTend":0.7,"metarType":"METAR","rawOb":"METAR KSEA 122053Z 25004KT 10SM BKN020 OVC025 13/08 A2973 RMK AO2 SLP075 T01330083 53007","lat":47.4447,"lon":-122.3144,"elev":115,"name":"Seattle-Tacoma Intl, WA, US","cover":"OVC","clouds":[{"cover":"BKN","base":2000},{"cover":"OVC","base":2500}],"fltCat":"MVFR"},{"icaoId":"KDMN","receiptTime":"2026-04-12T20:56:36.290Z","obsTime":1776027180,"reportTime":"2026-04-12T21:00:00.000Z","temp":26.7,"dewp":-2.8,"wdir":240,"wspd":17,"wgst":27,"visib":"10+","altim":1017.4,"slp":1010.9,"qcField":6,"presTend":-1.9,"metarType":"METAR","rawOb":"METAR KDMN 122053Z AUTO 24017G27KT 10SM CLR 27/M03 A3004 RMK AO2 PK WND 28030/1957 SLP109 T02671028 56019","lat":32.2592,"lon":-107.7206,"elev":1310,"name":"Deming Muni, NM, US","cover":"CLR","clouds":[],"fltCat":"VFR"},{"icaoId":"KDRO","receiptTime":"2026-04-12T20:56:34.519Z","obsTime":1776027180,"reportTime":"2026-04-12T21:00:00.000Z","temp":17.8,"dewp":-5,"wdir":250,"wspd":8,"wgst":16,"visib":"10+","altim":1016,"slp":1012.2,"qcField":6,"presTend":-1.7,"metarType":"METAR","rawOb":"METAR KDRO 122053Z AUTO 25008G16KT 10SM FEW095 SCT110 18/M05 A3000 RMK AO2 SLP122 T01781050 56017","lat":37.1431,"lon":-107.7602,"elev":2021,"name":"Durango/La Plata Cnty, CO, US","cover":"SCT","clouds":[{"cover":"FEW","base":9500},{"cover":"SCT","base":11000}],"fltCat":"VFR"},{"icaoId":"KSMF","receiptTime":"2026-04-12T20:56:37.872Z","obsTime":1776027180,"reportTime":"2026-04-12T21:00:00.000Z","temp":15.6,"dewp":8.9,"wdir":190,"wspd":19,"wgst":27,"visib":"10+","altim":1012.3,"slp":1012,"qcField":12,"presTend":0.5,"pcp3hr":0.03,"metarType":"METAR","rawOb":"METAR KSMF 122053Z 19019G27KT 10SM SCT032 SCT050 BKN190 16/09 A2989 RMK AO2 PK WND 20030/2022 SLP120 60003 T01560089 50005 $","lat":38.7007,"lon":-121.5948,"elev":7,"name":"Sacramento Intl, CA, US","cover":"BKN","clouds":[{"cover":"SCT","base":3200},{"cover":"SCT","base":5000},{"cover":"BKN","base":19000}],"fltCat":"VFR"},{"icaoId":"KTWF","receiptTime":"2026-04-12T20:56:38.076Z","obsTime":1776027180,"reportTime":"2026-04-12T21:00:00.000Z","temp":11.1,"dewp":0.6,"wdir":270,"wspd":20,"wgst":26,"visib":"10+","altim":1007.9,"slp":1005.3,"qcField":4,"presTend":2.8,"pcp3hr":0.02,"metarType":"METAR","rawOb":"METAR KTWF 122053Z 27020G26KT 10SM FEW060 11/01 A2976 RMK AO2 PK WND 26032/2009 SLP053 60002 T01110006 51028","lat":42.4785,"lon":-114.4775,"elev":1269,"name":"Twin Falls/Joslin Fld, ID, US","cover":"FEW","clouds":[{"cover":"FEW","base":6000}],"fltCat":"VFR"},{"icaoId":"KRTN","receiptTime":"2026-04-12T20:56:33.072Z","obsTime":1776027180,"reportTime":"2026-04-12T21:00:00.000Z","temp":20.6,"dewp":-8.9,"wdir":230,"wspd":22,"wgst":35,"visib":"10+","altim":1013.3,"slp":1007.1,"qcField":6,"presTend":-1.5,"metarType":"METAR","rawOb":"METAR KRTN 122053Z AUTO 23022G35KT 10SM CLR 21/M09 A2992 RMK AO2 PK WND 24035/2047 SLP071 T02061089 56015","lat":36.7418,"lon":-104.5076,"elev":1939,"name":"Raton/Crews Fld, NM, US","cover":"CLR","clouds":[],"fltCat":"VFR"},{"icaoId":"KMTJ","receiptTime":"2026-04-12T20:56:31.816Z","obsTime":1776027180,"reportTime":"2026-04-12T21:00:00.000Z","temp":19.4,"dewp":-10,"wdir":230,"wspd":12,"wgst":26,"visib":7,"altim":1013,"slp":1006.8,"qcField":6,"presTend":-1,"metarType":"METAR","rawOb":"METAR KMTJ 122053Z AUTO 23012G26KT 7SM CLR 19/M10 A2991 RMK AO2 PK WND 18030/2021 SLP068 T01941100 56010","lat":38.5054,"lon":-107.8981,"elev":1755,"name":"Montrose Rgnl, CO, US","cover":"CLR","clouds":[],"fltCat":"VFR"},{"icaoId":"KMYF","receiptTime":"2026-04-12T20:56:31.882Z","obsTime":1776027180,"reportTime":"2026-04-12T21:00:00.000Z","temp":19.4,"dewp":12.8,"wdir":270,"wspd":11,"visib":"10+","altim":1016.3,"slp":1016.1,"qcField":4,"presTend":-0.1,"metarType":"METAR","rawOb":"METAR KMYF 122053Z 27011KT 10SM SCT026 BKN033 OVC048 19/13 A3001 RMK AO2 WSHFT 2019 SLP161 T01940128 58001","lat":32.8145,"lon":-117.1375,"elev":128,"name":"San Diego/Montgomery Arpt, CA, US","cover":"OVC","clouds":[{"cover":"SCT","base":2600},{"cover":"BKN","base":3300},{"cover":"OVC","base":4800}],"fltCat":"VFR"},{"icaoId":"KFMN","receiptTime":"2026-04-12T20:56:36.359Z","obsTime":1776027180,"reportTime":"2026-04-12T21:00:00.000Z","temp":20.6,"dewp":-8.9,"wdir":260,"wspd":9,"wgst":16,"visib":"10+","altim":1014,"slp":1010.5,"qcField":4,"presTend":-2,"metarType":"METAR","rawOb":"METAR KFMN 122053Z 26009G16KT 10SM BKN110 21/M09 A2994 RMK AO2 SLP105 T02061089 56020","lat":36.7435,"lon":-108.2293,"elev":1677,"name":"Farmington/Four Corners Rgnl, NM, US","cover":"BKN","clouds":[{"cover":"BKN","base":11000}],"fltCat":"VFR"},{"icaoId":"KFUL","receiptTime":"2026-04-12T20:56:35.021Z","obsTime":1776027180,"reportTime":"2026-04-12T21:00:00.000Z","temp":21.1,"dewp":8.3,"wdir":230,"wspd":7,"wgst":15,"visib":"10+","altim":1015.3,"slp":1014.9,"qcField":4,"presTend":-0.5,"metarType":"METAR","rawOb":"METAR KFUL 122053Z 23007G15KT 10SM SCT055 BKN100 21/08 A2998 RMK AO2 SLP149 T02110083 58005","lat":33.8715,"lon":-117.9856,"elev":23,"name":"Fullerton Muni, CA, US","cover":"BKN","clouds":[{"cover":"SCT","base":5500},{"cover":"BKN","base":10000}],"fltCat":"VFR"},{"icaoId":"KLOL","receiptTime":"2026-04-12T20:56:39.220Z","obsTime":1776027180,"reportTime":"2026-04-12T21:00:00.000Z","temp":7.8,"dewp":-0.6,"wdir":270,"wspd":9,"wgst":20,"visib":"10+","altim":1010.2,"slp":1009.6,"qcField":14,"presTend":0.9,"precip":0.01,"pcp3hr":0.01,"metarType":"METAR","rawOb":"METAR KLOL 122053Z AUTO 27009G20KT 10SM SCT055 OVC070 08/M01 A2983 RMK AO2 PK WND 28036/2019 RAB19E33 SLP096 P0001 60001 T00781006 53009 $","lat":40.0684,"lon":-118.5702,"elev":1191,"name":"Lovelock/Derby Fld, NV, US","cover":"OVC","clouds":[{"cover":"SCT","base":5500},{"cover":"OVC","base":7000}],"fltCat":"VFR"},{"icaoId":"KPDX","receiptTime":"2026-04-12T20:56:38.461Z","obsTime":1776027180,"reportTime":"2026-04-12T21:00:00.000Z","temp":11.7,"dewp":8.9,"wdir":180,"wspd":4,"visib":5,"altim":1008.2,"slp":1008.1,"qcField":12,"wxString":"-RA","presTend":1.4,"precip":0.05,"pcp3hr":0.05,"metarType":"METAR","rawOb":"METAR KPDX 122053Z 18004KT 5SM -RA BKN014 OVC030 12/09 A2977 RMK AO2 SLP081 P0005 60005 T01170089 53014 $","lat":45.5958,"lon":-122.6092,"elev":7,"name":"Portland Intl, OR, US","cover":"OVC","clouds":[{"cover":"BKN","base":1400},{"cover":"OVC","base":3000}],"fltCat":"MVFR"},{"icaoId":"KELY","receiptTime":"2026-04-12T20:56:38.274Z","obsTime":1776027180,"reportTime":"2026-04-12T21:00:00.000Z","temp":7.2,"dewp":-1.1,"wdir":160,"wspd":26,"wgst":35,"visib":"10+","altim":1009.2,"slp":1004.4,"qcField":6,"wxString":"-RA","presTend":-0.4,"precip":0.005,"pcp3hr":0.005,"metarType":"METAR","rawOb":"METAR KELY 122053Z AUTO 16026G35KT 10SM -RA FEW048 FEW070 BKN095 07/M01 A2980 RMK AO2 PK WND 14035/2052 RAB07 SLP044 P0000 60000 T00721011 55004","lat":39.2954,"lon":-114.8466,"elev":1906,"name":"Ely/Yelland Fld, NV, US","cover":"BKN","clouds":[{"cover":"FEW","base":4800},{"cover":"FEW","base":7000},{"cover":"BKN","base":9500}],"fltCat":"VFR"},{"icaoId":"KBUR","receiptTime":"2026-04-12T20:56:31.169Z","obsTime":1776027180,"reportTime":"2026-04-12T21:00:00.000Z","temp":17.8,"dewp":8.9,"wdir":100,"wspd":4,"visib":"10+","altim":1015.3,"slp":1014.3,"qcField":4,"presTend":-0.5,"precip":0.01,"pcp3hr":0.01,"metarType":"METAR","rawOb":"METAR KBUR 122053Z 10004KT 10SM SCT034 BKN046 BKN070 18/09 A2998 RMK AO2 SLP143 P0001 60001 T01780089 58005","lat":34.1996,"lon":-118.3654,"elev":221,"name":"Burbank/Bob Hope Arpt, CA, US","cover":"BKN","clouds":[{"cover":"SCT","base":3400},{"cover":"BKN","base":4600},{"cover":"BKN","base":7000}],"fltCat":"VFR"},{"icaoId":"KASE","receiptTime":"2026-04-12T20:56:36.813Z","obsTime":1776027180,"reportTime":"2026-04-12T21:00:00.000Z","temp":15.6,"dewp":-11.7,"wdir":250,"wspd":10,"wgst":17,"visib":"10+","altim":1013.6,"slp":1004.3,"qcField":4,"presTend":-1.3,"metarType":"METAR","rawOb":"METAR KASE 122053Z 25010G17KT 10SM FEW110 16/M12 A2993 RMK AO2 SLP043 T01561117 56013","lat":39.2299,"lon":-106.8705,"elev":2384,"name":"Aspen/Pitkin Cnty, CO, US","cover":"FEW","clouds":[{"cover":"FEW","base":11000}],"fltCat":"VFR"},{"icaoId":"KBCE","receiptTime":"2026-04-12T20:56:36.916Z","obsTime":1776027180,"reportTime":"2026-04-12T21:00:00.000Z","temp":11.7,"dewp":-9.4,"wdir":200,"wspd":24,"wgst":38,"visib":"10+","altim":1013.6,"slp":1008.7,"qcField":6,"presTend":-1,"metarType":"METAR","rawOb":"METAR KBCE 122053Z AUTO 20024G38KT 10SM BKN095 12/M09 A2993 RMK AO2 PK WND 22040/2008 SLP087 T01171094 56010","lat":37.7013,"lon":-112.149,"elev":2311,"name":"Bryce Canyon Arpt, UT, US","cover":"BKN","clouds":[{"cover":"BKN","base":9500}],"fltCat":"VFR"},{"icaoId":"KHOU","receiptTime":"2026-04-12T20:56:29.919Z","obsTime":1776027180,"reportTime":"2026-04-12T21:00:00.000Z","temp":25,"dewp":20,"wdir":160,"wspd":12,"wgst":19,"visib":"10+","altim":1019,"slp":1019.3,"qcField":12,"presTend":-1,"metarType":"METAR","rawOb":"METAR KHOU 122053Z 16012G19KT 10SM SCT026 BKN034 OVC044 25/20 A3009 RMK AO2 SLP193 OCNL LTGICCC DSNT N AND NW CB DSNT N AND NW MOV NE T02500200 56010 $","lat":29.6458,"lon":-95.2821,"elev":13,"name":"Houston/Hobby Arpt, TX, US","cover":"OVC","clouds":[{"cover":"SCT","base":2600},{"cover":"BKN","base":3400},{"cover":"OVC","base":4400}],"fltCat":"VFR"},{"icaoId":"KIAH","receiptTime":"2026-04-12T20:56:29.936Z","obsTime":1776027180,"reportTime":"2026-04-12T21:00:00.000Z","temp":23.3,"dewp":20.6,"wdir":300,"wspd":5,"visib":7,"altim":1019.4,"slp":1019.1,"qcField":4,"wxString":"TS","presTend":-0.9,"precip":0.01,"pcp3hr":0.03,"metarType":"METAR","rawOb":"METAR KIAH 122053Z 30005KT 7SM TS FEW015 BKN025CB OVC045 23/21 A3010 RMK AO2 RAE43 TSB17 SLP191 SHRA W-NW-NE OCNL LTGICCG NW-NE TS NW-NE MOV NE P0001 60003 T02330206 56009","lat":29.9844,"lon":-95.3607,"elev":27,"name":"Houston/Bush Intl, TX, US","cover":"OVC","clouds":[{"cover":"FEW","base":1500},{"cover":"BKN","base":2500},{"cover":"OVC","base":4500}],"fltCat":"MVFR"},{"icaoId":"KDFW","receiptTime":"2026-04-12T20:56:30.247Z","obsTime":1776027180,"reportTime":"2026-04-12T21:00:00.000Z","temp":22.2,"dewp":19.4,"wdir":160,"wspd":14,"visib":"10+","altim":1015,"slp":1014.2,"qcField":4,"presTend":-2,"pcp3hr":0.02,"metarType":"METAR","rawOb":"METAR KDFW 122053Z 16014KT 10SM OVC011 22/19 A2997 RMK AO2 SLP142 60002 T02220194 58020","lat":32.8974,"lon":-97.022,"elev":168,"name":"Dallas-Ft Worth Intl, TX, US","cover":"OVC","clouds":[{"cover":"OVC","base":1100}],"fltCat":"MVFR"},{"icaoId":"KBRO","receiptTime":"2026-04-12T20:56:32.425Z","obsTime":1776027180,"reportTime":"2026-04-12T21:00:00.000Z","temp":30,"dewp":21.7,"wdir":150,"wspd":17,"wgst":27,"visib":"10+","altim":1015.7,"slp":1015.4,"qcField":4,"presTend":-2,"metarType":"METAR","rawOb":"METAR KBRO 122053Z 15017G27KT 10SM BKN023 30/22 A2999 RMK AO2 PK WND 16029/2003 SLP154 T03000217 58020","lat":25.9146,"lon":-97.4231,"elev":6,"name":"Brownsville Intl, TX, US","cover":"BKN","clouds":[{"cover":"BKN","base":2300}],"fltCat":"MVFR"},{"icaoId":"KMSP","receiptTime":"2026-04-12T20:56:37.693Z","obsTime":1776027180,"reportTime":"2026-04-12T21:00:00.000Z","temp":26.7,"dewp":12.2,"wdir":220,"wspd":20,"wgst":31,"visib":"10+","altim":998.1,"slp":997.6,"qcField":4,"presTend":-1,"metarType":"METAR","rawOb":"METAR KMSP 122053Z 22020G31KT 10SM SCT065 BKN250 27/12 A2947 RMK AO2 PK WND 20033/2030 SLP976 T02670122 56010","lat":44.8852,"lon":-93.2313,"elev":255,"name":"Minneapolis-St Paul Intl, MN, US","cover":"BKN","clouds":[{"cover":"SCT","base":6500},{"cover":"BKN","base":25000}],"fltCat":"VFR"},{"icaoId":"KPIH","receiptTime":"2026-04-12T20:56:33.830Z","obsTime":1776027180,"reportTime":"2026-04-12T21:00:00.000Z","temp":8.3,"dewp":2.8,"wdir":260,"wspd":33,"wgst":45,"visib":3,"altim":1006.2,"slp":1005.9,"qcField":4,"wxString":"-RA BLDU","presTend":1.6,"precip":0.005,"pcp3hr":0.005,"metarType":"METAR","rawOb":"METAR KPIH 122053Z 26033G45KT 3SM -RA BLDU BKN014 BKN095 BKN120 08/03 A2971 RMK AO2 PK WND 25053/2033 WSHFT 2026 RAB47 SLP059 P0000 60000 T00830028 53016","lat":42.9197,"lon":-112.5723,"elev":1357,"name":"Pocatello Rgnl, ID, US","cover":"BKN","clouds":[{"cover":"BKN","base":1400},{"cover":"BKN","base":9500},{"cover":"BKN","base":12000}],"fltCat":"MVFR"},{"icaoId":"KPNC","receiptTime":"2026-04-12T20:56:33.618Z","obsTime":1776027180,"reportTime":"2026-04-12T21:00:00.000Z","temp":26.1,"dewp":17.8,"wdir":200,"wspd":10,"wgst":24,"visib":"10+","altim":1009.2,"slp":1008.1,"qcField":6,"presTend":-1.8,"metarType":"METAR","rawOb":"METAR KPNC 122053Z AUTO 20010G24KT 10SM CLR 26/18 A2980 RMK AO2 PK WND 21027/2016 SLP081 T02610178 56018","lat":36.7369,"lon":-97.1024,"elev":304,"name":"Ponca City Rgnl, OK, US","cover":"CLR","clouds":[],"fltCat":"VFR"},{"icaoId":"KTUL","receiptTime":"2026-04-12T20:56:39.672Z","obsTime":1776027180,"reportTime":"2026-04-12T21:00:00.000Z","temp":26.1,"dewp":17.2,"wdir":190,"wspd":22,"wgst":32,"visib":"10+","altim":1011.6,"slp":1010.8,"qcField":4,"presTend":-1,"metarType":"METAR","rawOb":"METAR KTUL 122053Z 19022G32KT 10SM SCT034 SCT150 BKN250 26/17 A2987 RMK AO2 PK WND 19032/2051 SLP108 T02610172 58010","lat":36.1985,"lon":-95.8782,"elev":196,"name":"Tulsa Intl Arpt, OK, US","cover":"BKN","clouds":[{"cover":"SCT","base":3400},{"cover":"SCT","base":15000},{"cover":"BKN","base":25000}],"fltCat":"VFR"},{"icaoId":"KCPR","receiptTime":"2026-04-12T20:56:24.864Z","obsTime":1776027180,"reportTime":"2026-04-12T21:00:00.000Z","temp":20.6,"dewp":-6.7,"wdir":240,"wspd":22,"wgst":33,"visib":"10+","altim":1005.5,"slp":1000.9,"qcField":4,"presTend":-1.8,"pcp3hr":0.005,"metarType":"METAR","rawOb":"METAR KCPR 122053Z 24022G33KT 10SM CLR 21/M07 A2969 RMK AO2 PK WND 22036/2015 SLP009 60000 T02061067 56018","lat":42.8978,"lon":-106.4736,"elev":1623,"name":"Casper/Natrona Cnty, WY, US","cover":"CLR","clouds":[],"fltCat":"VFR"},{"icaoId":"KCYS","receiptTime":"2026-04-12T20:56:24.922Z","obsTime":1776027180,"reportTime":"2026-04-12T21:00:00.000Z","temp":20,"dewp":-10.6,"wdir":230,"wspd":16,"wgst":23,"visib":"10+","altim":1008.5,"slp":1002.3,"qcField":12,"presTend":-1.9,"metarType":"METAR","rawOb":"METAR KCYS 122053Z 23016G23KT 10SM FEW120 20/M11 A2978 RMK AO2 SLP023 T02001106 56019 $","lat":41.1579,"lon":-104.8081,"elev":1868,"name":"Cheyenne Rgnl, WY, US","cover":"FEW","clouds":[{"cover":"FEW","base":12000}],"fltCat":"VFR"},{"icaoId":"KBHM","receiptTime":"2026-04-12T20:56:25.814Z","obsTime":1776027180,"reportTime":"2026-04-12T21:00:00.000Z","temp":29.4,"dewp":8.9,"wdir":190,"wspd":10,"wgst":21,"visib":"10+","altim":1023.8,"slp":1023,"qcField":4,"presTend":-1.8,"metarType":"METAR","rawOb":"METAR KBHM 122053Z 19010G21KT 10SM FEW080 FEW250 29/09 A3023 RMK AO2 SLP230 T02940089 56018","lat":33.5655,"lon":-86.7449,"elev":191,"name":"Birmingham Intl, AL, US","cover":"FEW","clouds":[{"cover":"FEW","base":8000},{"cover":"FEW","base":25000}],"fltCat":"VFR"},{"icaoId":"KBNA","receiptTime":"2026-04-12T20:56:25.895Z","obsTime":1776027180,"reportTime":"2026-04-12T21:00:00.000Z","temp":28.9,"dewp":6.7,"wdir":190,"wspd":14,"wgst":20,"visib":"10+","altim":1021.4,"slp":1020.7,"qcField":12,"presTend":-2,"metarType":"METAR","rawOb":"METAR KBNA 122053Z 19014G20KT 10SM FEW050 BKN250 29/07 A3016 RMK AO2 PK WND 20032/1958 SLP207 T02890067 56020 $","lat":36.1105,"lon":-86.6881,"elev":168,"name":"Nashville Intl, TN, US","cover":"BKN","clouds":[{"cover":"FEW","base":5000},{"cover":"BKN","base":25000}],"fltCat":"VFR"},{"icaoId":"KCDC","receiptTime":"2026-04-12T20:56:30.890Z","obsTime":1776027180,"reportTime":"2026-04-12T21:00:00.000Z","temp":17.2,"dewp":-9.4,"wdir":220,"wspd":26,"wgst":41,"visib":"10+","altim":1010.9,"slp":1005.3,"qcField":6,"presTend":-0.9,"metarType":"METAR","rawOb":"METAR KCDC 122053Z AUTO 22026G41KT 10SM FEW100 17/M09 A2985 RMK AO2 PK WND 19043/2027 SLP053 T01721094 56009","lat":37.7067,"lon":-113.097,"elev":1703,"name":"Cedar City Muni, UT, US","cover":"FEW","clouds":[{"cover":"FEW","base":10000}],"fltCat":"VFR"},{"icaoId":"KDTW","receiptTime":"2026-04-12T20:56:32.763Z","obsTime":1776027180,"reportTime":"2026-04-12T21:00:00.000Z","temp":26.7,"dewp":10.6,"wdir":220,"wspd":22,"wgst":35,"visib":"10+","altim":1013.6,"slp":1013.4,"qcField":4,"presTend":-3.3,"metarType":"METAR","rawOb":"METAR KDTW 122053Z 22022G35KT 10SM FEW060 SCT180 BKN250 27/11 A2993 RMK AO2 PK WND 21038/2006 SLP134 T02670106 56033","lat":42.2311,"lon":-83.3312,"elev":192,"name":"Detroit/Metro Wayne Cnty, MI, US","cover":"BKN","clouds":[{"cover":"FEW","base":6000},{"cover":"SCT","base":18000},{"cover":"BKN","base":25000}],"fltCat":"VFR"},{"icaoId":"KDEN","receiptTime":"2026-04-12T20:56:26.530Z","obsTime":1776027180,"reportTime":"2026-04-12T21:00:00.000Z","temp":22.8,"dewp":-8.9,"wdir":"VRB","wspd":3,"visib":"10+","altim":1007.5,"slp":1001.8,"qcField":4,"presTend":-2.2,"metarType":"METAR","rawOb":"METAR KDEN 122053Z VRB03KT 10SM FEW110 SCT150 BKN220 23/M09 A2975 RMK AO2 SLP018 T02281089 56022","lat":39.8466,"lon":-104.6562,"elev":1656,"name":"Denver Intl, CO, US","cover":"BKN","clouds":[{"cover":"FEW","base":11000},{"cover":"SCT","base":15000},{"cover":"BKN","base":22000}],"fltCat":"VFR"},{"icaoId":"KAPA","receiptTime":"2026-04-12T20:56:36.755Z","obsTime":1776027180,"reportTime":"2026-04-12T21:00:00.000Z","temp":23.3,"dewp":-11.1,"wdir":230,"wspd":18,"wgst":27,"visib":"10+","altim":1007.5,"slp":1001.9,"qcField":4,"presTend":-2.7,"metarType":"METAR","rawOb":"METAR KAPA 122053Z 23018G27KT 10SM SCT120 SCT170 BKN220 23/M11 A2975 RMK AO2 PK WND 23027/2053 WSHFT 2013 SLP019 T02331111 56027","lat":39.5599,"lon":-104.8484,"elev":1791,"name":"Denver/Centennial Arpt, CO, US","cover":"BKN","clouds":[{"cover":"SCT","base":12000},{"cover":"SCT","base":17000},{"cover":"BKN","base":22000}],"fltCat":"VFR"},{"icaoId":"KACV","receiptTime":"2026-04-12T20:56:28.641Z","obsTime":1776027180,"reportTime":"2026-04-12T21:00:00.000Z","temp":12.8,"dewp":6.1,"wdir":300,"wspd":7,"visib":"10+","altim":1009.9,"slp":1010.6,"qcField":6,"presTend":1.8,"pcp3hr":0.005,"metarType":"METAR","rawOb":"METAR KACV 122053Z AUTO 30007KT 10SM FEW050 13/06 A2982 RMK AO2 SLP106 60000 T01280061 51018","lat":40.9784,"lon":-124.1048,"elev":63,"name":"Arcata Arpt, CA, US","cover":"FEW","clouds":[{"cover":"FEW","base":5000}],"fltCat":"VFR"},{"icaoId":"KMYR","receiptTime":"2026-04-12T20:56:29.308Z","obsTime":1776027180,"reportTime":"2026-04-12T21:00:00.000Z","temp":22.8,"dewp":16.7,"wdir":90,"wspd":8,"visib":"10+","altim":1028.2,"slp":1028.1,"qcField":12,"presTend":-1.1,"metarType":"METAR","rawOb":"METAR KMYR 122053Z 09008KT 10SM CLR 23/17 A3036 RMK AO2 SLP281 T02280167 58011 $","lat":33.6769,"lon":-78.9325,"elev":7,"name":"Myrtle Beach Intl, SC, US","cover":"CLR","clouds":[],"fltCat":"VFR"},{"icaoId":"KMFE","receiptTime":"2026-04-12T20:56:40.081Z","obsTime":1776027180,"reportTime":"2026-04-12T21:00:00.000Z","temp":29.4,"dewp":21.7,"wdir":140,"wspd":17,"wgst":24,"visib":"10+","altim":1015,"slp":1014.6,"qcField":12,"presTend":-1.3,"metarType":"METAR","rawOb":"METAR KMFE 122053Z 14017G24KT 10SM BKN029 BKN040 29/22 A2997 RMK AO2 PK WND 15027/2001 SLP146 T02940217 58013 $","lat":26.1791,"lon":-98.2445,"elev":29,"name":"McAllen/Miller Intl, TX, US","cover":"BKN","clouds":[{"cover":"BKN","base":2900},{"cover":"BKN","base":4000}],"fltCat":"MVFR"},{"icaoId":"KSJC","receiptTime":"2026-04-12T20:56:30.647Z","obsTime":1776027180,"reportTime":"2026-04-12T21:00:00.000Z","temp":13.9,"dewp":8.9,"wdir":240,"wspd":9,"wgst":19,"visib":"10+","altim":1014,"slp":1013.9,"qcField":4,"wxString":"-RA","presTend":0.7,"precip":0.02,"pcp3hr":0.02,"metarType":"METAR","rawOb":"METAR KSJC 122053Z 24009G19KT 10SM -RA FEW010 SCT035 BKN045 14/09 A2994 RMK AO2 RAE02B23 SLP139 P0002 60002 T01390089 53007","lat":37.3594,"lon":-121.9244,"elev":13,"name":"San Jose Intl Arpt, CA, US","cover":"BKN","clouds":[{"cover":"FEW","base":1000},{"cover":"SCT","base":3500},{"cover":"BKN","base":4500}],"fltCat":"VFR"},{"icaoId":"KOAK","receiptTime":"2026-04-12T20:56:37.707Z","obsTime":1776027180,"reportTime":"2026-04-12T21:00:00.000Z","temp":12.2,"dewp":10,"wdir":210,"wspd":15,"visib":5,"altim":1014,"slp":1013.8,"qcField":12,"wxString":"RA BR","presTend":1.3,"precip":0.07,"pcp3hr":0.15,"metarType":"METAR","rawOb":"METAR KOAK 122053Z 21015KT 5SM R30/5500VP6000FT RA BR BKN022 BKN050 OVC080 12/10 A2994 RMK AO2 RAE28B44 SLP138 P0007 60015 T01220100 51013 $","lat":37.7178,"lon":-122.233,"elev":3,"name":"Oakland Intl, CA, US","cover":"OVC","clouds":[{"cover":"BKN","base":2200},{"cover":"BKN","base":5000},{"cover":"OVC","base":8000}],"fltCat":"MVFR"},{"icaoId":"KEVW","receiptTime":"2026-04-12T20:56:30.958Z","obsTime":1776027180,"reportTime":"2026-04-12T21:00:00.000Z","temp":11.7,"dewp":-7.2,"wdir":220,"wspd":21,"wgst":41,"visib":"10+","altim":1008.9,"slp":1003.9,"qcField":14,"presTend":-0.7,"precip":0.005,"pcp3hr":0.005,"metarType":"METAR","rawOb":"METAR KEVW 122053Z AUTO 22021G41KT 10SM FEW060 FEW075 12/M07 A2979 RMK AO2 PK WND 21050/2008 RAE19 SLP039 P0000 60000 T01171072 55007 $","lat":41.2727,"lon":-111.0305,"elev":2178,"name":"Evanston/Uinta Cnty, WY, US","cover":"FEW","clouds":[{"cover":"FEW","base":6000},{"cover":"FEW","base":7500}],"fltCat":"VFR"},{"icaoId":"KDVT","receiptTime":"2026-04-12T20:56:34.587Z","obsTime":1776027180,"reportTime":"2026-04-12T21:00:00.000Z","temp":26.7,"dewp":1.1,"wdir":240,"wspd":14,"wgst":19,"visib":"10+","altim":1013.3,"slp":1011.3,"qcField":12,"presTend":-0.8,"metarType":"METAR","rawOb":"METAR KDVT 122053Z 24014G19KT 10SM 27/01 A2992 RMK AO2 SLP113 T02670011 56008 $","lat":33.6902,"lon":-112.0662,"elev":454,"name":"Phoenix/Deer Valley Arpt, AZ, US"},{"icaoId":"KLGB","receiptTime":"2026-04-12T20:56:31.540Z","obsTime":1776027180,"reportTime":"2026-04-12T21:00:00.000Z","temp":20,"dewp":8.3,"wdir":280,"wspd":6,"wgst":16,"visib":"10+","altim":1015.3,"slp":1015.3,"qcField":12,"presTend":-0.4,"metarType":"METAR","rawOb":"METAR KLGB 122053Z 28006G16KT 10SM FEW047 BKN060 20/08 A2998 RMK AO2 SLP153 T02000083 58004 $","lat":33.8118,"lon":-118.1472,"elev":10,"name":"Long Beach Arpt, CA, US","cover":"BKN","clouds":[{"cover":"FEW","base":4700},{"cover":"BKN","base":6000}],"fltCat":"VFR"},{"icaoId":"KONT","receiptTime":"2026-04-12T20:56:32.012Z","obsTime":1776027180,"reportTime":"2026-04-12T21:00:00.000Z","temp":17.2,"dewp":10,"wdir":260,"wspd":10,"wgst":16,"visib":"10+","altim":1015.3,"slp":1014.5,"qcField":12,"presTend":-0.8,"precip":0.005,"pcp3hr":0.03,"metarType":"METAR","rawOb":"METAR KONT 122053Z 26010G16KT 10SM BKN038 OVC055 17/10 A2998 RMK AO2 RAE1954 SLP145 P0000 60003 T01720100 58008 $","lat":34.0531,"lon":-117.5769,"elev":279,"name":"Ontario Intl, CA, US","cover":"OVC","clouds":[{"cover":"BKN","base":3800},{"cover":"OVC","base":5500}],"fltCat":"VFR"},{"icaoId":"KSDL","receiptTime":"2026-04-12T20:56:33.173Z","obsTime":1776027180,"reportTime":"2026-04-12T21:00:00.000Z","temp":26.7,"dewp":0.6,"wdir":200,"wspd":9,"wgst":15,"visib":"10+","altim":1013.3,"slp":1011.2,"qcField":4,"presTend":-1,"metarType":"METAR","rawOb":"METAR KSDL 122053Z 20009G15KT 10SM CLR 27/01 A2992 RMK AO2 SLP112 T02670006 58010","lat":33.6123,"lon":-111.9232,"elev":438,"name":"Scottsdale Muni, AZ, US","cover":"CLR","clouds":[],"fltCat":"VFR"},{"icaoId":"KSNA","receiptTime":"2026-04-12T20:56:33.280Z","obsTime":1776027180,"reportTime":"2026-04-12T21:00:00.000Z","temp":19.4,"dewp":9.4,"wdir":250,"wspd":9,"visib":"10+","altim":1015.7,"slp":1015.6,"qcField":12,"presTend":-0.3,"metarType":"METAR","rawOb":"METAR KSNA 122053Z 25009KT 10SM SCT038 SCT055 BKN070 19/09 A2999 RMK AO2 SLP156 T01940094 58003 $","lat":33.6798,"lon":-117.8675,"elev":14,"name":"Santa Ana/Wayne Arpt, CA, US","cover":"BKN","clouds":[{"cover":"SCT","base":3800},{"cover":"SCT","base":5500},{"cover":"BKN","base":7000}],"fltCat":"VFR"},{"icaoId":"KTUS","receiptTime":"2026-04-12T20:56:35.370Z","obsTime":1776027180,"reportTime":"2026-04-12T21:00:00.000Z","temp":26.7,"dewp":1.7,"wdir":220,"wspd":21,"wgst":28,"visib":"10+","altim":1015.7,"slp":1011.6,"qcField":4,"presTend":-0.8,"metarType":"METAR","rawOb":"METAR KTUS 122053Z 22021G28KT 10SM FEW095 27/02 A2999 RMK AO2 PK WND 24029/2028 SLP116 T02670017 55008","lat":32.1315,"lon":-110.9564,"elev":776,"name":"Tucson Intl Arpt, AZ, US","cover":"FEW","clouds":[{"cover":"FEW","base":9500}],"fltCat":"VFR"},{"icaoId":"KDAL","receiptTime":"2026-04-12T20:56:36.253Z","obsTime":1776027180,"reportTime":"2026-04-12T21:00:00.000Z","temp":21.7,"dewp":19.4,"wdir":160,"wspd":9,"visib":"10+","altim":1016,"slp":1015.2,"qcField":4,"presTend":-1.9,"pcp3hr":0.005,"metarType":"METAR","rawOb":"METAR KDAL 122053Z 16009KT 10SM OVC010 22/19 A3000 RMK AO2 SLP152 60000 T02170194 58019","lat":32.8384,"lon":-96.8358,"elev":148,"name":"Dallas/Love Fld, TX, US","cover":"OVC","clouds":[{"cover":"OVC","base":1000}],"fltCat":"MVFR"},{"icaoId":"KLAX","receiptTime":"2026-04-12T20:56:36.522Z","obsTime":1776027180,"reportTime":"2026-04-12T21:00:00.000Z","temp":20,"dewp":3.9,"wdir":240,"wspd":14,"visib":"10+","altim":1016,"slp":1015.6,"qcField":12,"presTend":-0.2,"pcp3hr":0.005,"metarType":"METAR","rawOb":"METAR KLAX 122053Z 24014KT 10SM SCT065 SCT075 BKN095 20/04 A3000 RMK AO2 SLP156 60000 T02000039 58002 $","lat":33.9382,"lon":-118.3866,"elev":30,"name":"Los Angeles Intl, CA, US","cover":"BKN","clouds":[{"cover":"SCT","base":6500},{"cover":"SCT","base":7500},{"cover":"BKN","base":9500}],"fltCat":"VFR"},{"icaoId":"KLBB","receiptTime":"2026-04-12T20:56:36.539Z","obsTime":1776027180,"reportTime":"2026-04-12T21:00:00.000Z","temp":29.4,"dewp":5,"wdir":210,"wspd":16,"wgst":27,"visib":"10+","altim":1013.6,"slp":1008.8,"qcField":12,"presTend":-2.3,"metarType":"METAR","rawOb":"METAR KLBB 122053Z 21016G27KT 10SM FEW085 SCT250 29/05 A2993 RMK AO2 PK WND 20027/2053 SLP088 CB DSNT NW MOV NE T02940050 56023 $","lat":33.6658,"lon":-101.8233,"elev":996,"name":"Lubbock Intl Arpt, TX, US","cover":"SCT","clouds":[{"cover":"FEW","base":8500},{"cover":"SCT","base":25000}],"fltCat":"VFR"},{"icaoId":"KAMA","receiptTime":"2026-04-12T20:56:36.696Z","obsTime":1776027180,"reportTime":"2026-04-12T21:00:00.000Z","temp":29.4,"dewp":-1.1,"wdir":260,"wspd":23,"wgst":32,"visib":"10+","altim":1012.6,"slp":1007.7,"qcField":4,"presTend":-1,"metarType":"METAR","rawOb":"METAR KAMA 122053Z 26023G32KT 10SM FEW120 29/M01 A2990 RMK AO2 PK WND 24035/2033 SLP077 T02941011 56010","lat":35.2203,"lon":-101.7173,"elev":1102,"name":"Amarillo Intl Arpt, TX, US","cover":"FEW","clouds":[{"cover":"FEW","base":12000}],"fltCat":"VFR"},{"icaoId":"KBOI","receiptTime":"2026-04-12T20:56:32.461Z","obsTime":1776027180,"reportTime":"2026-04-12T21:00:00.000Z","temp":6.7,"dewp":2.8,"wdir":200,"wspd":15,"wgst":23,"visib":"10+","altim":1008.5,"slp":1008.1,"qcField":4,"wxString":"-RA","presTend":2.9,"precip":0.1,"pcp3hr":0.17,"metarType":"METAR","rawOb":"METAR KBOI 122053Z 20015G23KT 10SM -RA BKN028 OVC032 07/03 A2978 RMK AO2 SLP081 P0010 60017 T00670028 53029","lat":43.567,"lon":-116.2406,"elev":860,"name":"Boise Arpt, ID, US","cover":"OVC","clouds":[{"cover":"BKN","base":2800},{"cover":"OVC","base":3200}],"fltCat":"MVFR"},{"icaoId":"KAUS","receiptTime":"2026-04-12T20:56:36.845Z","obsTime":1776027180,"reportTime":"2026-04-12T21:00:00.000Z","temp":23.3,"dewp":20,"wdir":150,"wspd":10,"wgst":19,"visib":"10+","altim":1017,"slp":1016.1,"qcField":4,"presTend":-0.3,"metarType":"METAR","rawOb":"METAR KAUS 122053Z 15010G19KT 10SM FEW013 OVC017 23/20 A3003 RMK AO2 LTG DSNT SW AND W SLP161 CB DSNT SW-W AND NW T02330200 55003","lat":30.1831,"lon":-97.6806,"elev":148,"name":"Austin/Bergstrom Intl, TX, US","cover":"OVC","clouds":[{"cover":"FEW","base":1300},{"cover":"OVC","base":1700}],"fltCat":"MVFR"},{"icaoId":"KSTS","receiptTime":"2026-04-12T21:00:21.550Z","obsTime":1776027180,"reportTime":"2026-04-12T21:00:00.000Z","temp":13,"dewp":9,"wdir":260,"wspd":11,"wgst":21,"visib":"10+","altim":1012.3,"qcField":0,"metarType":"METAR","rawOb":"METAR KSTS 122053Z 26011G21KT 10SM SCT020 BKN030 BKN065 13/09 A2989","lat":38.5037,"lon":-122.811,"elev":35,"name":"Santa Rosa/Schulz Arpt, CA, US","cover":"BKN","clouds":[{"cover":"SCT","base":2000},{"cover":"BKN","base":3000},{"cover":"BKN","base":6500}],"fltCat":"MVFR"},{"icaoId":"KSAF","receiptTime":"2026-04-12T20:56:33.112Z","obsTime":1776027180,"reportTime":"2026-04-12T21:00:00.000Z","temp":20,"dewp":-8.9,"wdir":220,"wspd":10,"wgst":30,"visib":"10+","altim":1016.7,"slp":1009.6,"qcField":12,"presTend":-2.1,"metarType":"METAR","rawOb":"METAR KSAF 122053Z 22010G30KT 10SM SCT065 20/M09 A3002 RMK AO2 PK WND 22031/2043 SLP096 T02001089 56021 $","lat":35.611,"lon":-106.0957,"elev":1918,"name":"Santa Fe Cnty Muni, NM, US","cover":"SCT","clouds":[{"cover":"SCT","base":6500}],"fltCat":"VFR"},{"icaoId":"KSBA","receiptTime":"2026-04-12T20:56:33.133Z","obsTime":1776027180,"reportTime":"2026-04-12T21:00:00.000Z","temp":18.3,"dewp":9.4,"wdir":260,"wspd":14,"wgst":20,"visib":"10+","altim":1015.7,"slp":1015.4,"qcField":12,"presTend":0.1,"metarType":"METAR","rawOb":"METAR KSBA 122053Z 26014G20KT 10SM SCT045 18/09 A2999 RMK AO2 SLP154 T01830094 51001 $","lat":34.4241,"lon":-119.8425,"elev":2,"name":"Santa Barbara Muni, CA, US","cover":"SCT","clouds":[{"cover":"SCT","base":4500}],"fltCat":"VFR"},{"icaoId":"KMSY","receiptTime":"2026-04-12T20:56:31.777Z","obsTime":1776027180,"reportTime":"2026-04-12T21:00:00.000Z","temp":26.7,"dewp":16.1,"wdir":170,"wspd":12,"visib":"10+","altim":1022.8,"slp":1023,"qcField":4,"presTend":-1.3,"metarType":"METAR","rawOb":"METAR KMSY 122053Z 17012KT 10SM FEW045 BKN250 27/16 A3020 RMK AO2 SLP230 T02670161 58013","lat":29.9974,"lon":-90.2777,"elev":0,"name":"New Orleans/Armstrong Intl, LA, US","cover":"BKN","clouds":[{"cover":"FEW","base":4500},{"cover":"BKN","base":25000}],"fltCat":"VFR"},{"icaoId":"KCLL","receiptTime":"2026-04-12T20:56:36.188Z","obsTime":1776027180,"reportTime":"2026-04-12T21:00:00.000Z","temp":22.2,"dewp":21.1,"wdir":140,"wspd":12,"wgst":19,"visib":"10+","altim":1017.7,"slp":1017.1,"qcField":4,"wxString":"-RA","presTend":-0.9,"precip":0.005,"pcp3hr":0.01,"metarType":"METAR","rawOb":"METAR KCLL 122053Z 14012G19KT 10SM -RA FEW017 FEW034 BKN048 22/21 A3005 RMK AO2 LTG DSNT S RAB37 SLP171 P0000 60001 T02220211 58009","lat":30.5912,"lon":-96.3631,"elev":96,"name":"College Station/Easterwood Arpt, TX, US","cover":"BKN","clouds":[{"cover":"FEW","base":1700},{"cover":"FEW","base":3400},{"cover":"BKN","base":4800}],"fltCat":"VFR"},{"icaoId":"KCNM","receiptTime":"2026-04-12T20:56:30.127Z","obsTime":1776027180,"reportTime":"2026-04-12T21:00:00.000Z","temp":29.4,"dewp":2.8,"wdir":200,"wspd":11,"wgst":19,"visib":"10+","altim":1014.6,"slp":1009.6,"qcField":6,"presTend":-1.9,"metarType":"METAR","rawOb":"METAR KCNM 122053Z AUTO 20011G19KT 10SM FEW110 29/03 A2996 RMK AO2 PK WND 24029/2000 SLP096 T02940028 56019","lat":32.3336,"lon":-104.2584,"elev":993,"name":"Carlsbad/Cavern City Air Term, NM, US","cover":"FEW","clouds":[{"cover":"FEW","base":11000}],"fltCat":"VFR"},{"icaoId":"KCRQ","receiptTime":"2026-04-12T20:56:36.204Z","obsTime":1776027180,"reportTime":"2026-04-12T21:00:00.000Z","temp":18.3,"dewp":11.7,"wdir":240,"wspd":6,"wgst":18,"visib":"10+","altim":1016.3,"slp":1015.9,"qcField":6,"presTend":0.1,"pcp3hr":0.01,"metarType":"METAR","rawOb":"METAR KCRQ 122053Z AUTO 24006G18KT 10SM SCT021 BKN044 OVC075 18/12 A3001 RMK AO2 SLP159 60001 T01830117 50001","lat":33.1299,"lon":-117.2765,"elev":96,"name":"Carlsbad/Palomar Arpt, CA, US","cover":"OVC","clouds":[{"cover":"SCT","base":2100},{"cover":"BKN","base":4400},{"cover":"OVC","base":7500}],"fltCat":"VFR"},{"icaoId":"KSWO","receiptTime":"2026-04-12T20:56:39.494Z","obsTime":1776027180,"reportTime":"2026-04-12T21:00:00.000Z","temp":27.2,"dewp":16.7,"wdir":220,"wspd":18,"wgst":30,"visib":"10+","altim":1010.2,"slp":1009,"qcField":4,"presTend":-1.9,"pcp3hr":0.005,"metarType":"METAR","rawOb":"METAR KSWO 122053Z 22018G30KT 10SM CLR 27/17 A2983 RMK AO2 PK WND 22030/2050 SLP090 60000 T02720167 56019","lat":36.1624,"lon":-97.0832,"elev":293,"name":"Stillwater Muni, OK, US","cover":"CLR","clouds":[],"fltCat":"VFR"},{"icaoId":"KPBI","receiptTime":"2026-04-12T20:56:33.485Z","obsTime":1776027180,"reportTime":"2026-04-12T21:00:00.000Z","temp":25.6,"dewp":15.6,"wdir":70,"wspd":15,"visib":"10+","altim":1023.5,"slp":1023.2,"qcField":12,"presTend":-1.6,"metarType":"METAR","rawOb":"METAR KPBI 122053Z 07015KT 10SM SCT039 BKN048 26/16 A3022 RMK AO2 SLP232 T02560156 56016 $","lat":26.6851,"lon":-80.0992,"elev":4,"name":"Palm Beach Intl, FL, US","cover":"BKN","clouds":[{"cover":"SCT","base":3900},{"cover":"BKN","base":4800}],"fltCat":"VFR"},{"icaoId":"KPGA","receiptTime":"2026-04-12T20:56:35.228Z","obsTime":1776027180,"reportTime":"2026-04-12T21:00:00.000Z","temp":22.8,"dewp":-8.3,"wdir":190,"wspd":18,"wgst":32,"visib":"10+","altim":1009.9,"slp":1004.8,"qcField":14,"presTend":-1.9,"metarType":"METAR","rawOb":"METAR KPGA 122053Z AUTO 19018G32KT 10SM CLR 23/M08 A2982 RMK AO2 PK WND 19034/2043 SLP048 T02281083 56019 $","lat":36.9211,"lon":-111.4487,"elev":1310,"name":"Page Muni, AZ, US","cover":"CLR","clouds":[],"fltCat":"VFR"},{"icaoId":"KPSP","receiptTime":"2026-04-12T20:56:39.285Z","obsTime":1776027180,"reportTime":"2026-04-12T21:00:00.000Z","temp":22.2,"dewp":7.2,"wdir":340,"wspd":7,"wgst":17,"visib":"10+","altim":1013,"slp":1012.7,"qcField":4,"presTend":-1.5,"metarType":"METAR","rawOb":"METAR KPSP 122053Z 34007G17KT 10SM BKN085 22/07 A2991 RMK AO2 SLP127 T02220072 58015","lat":33.8222,"lon":-116.5043,"elev":123,"name":"Palm Springs Intl, CA, US","cover":"BKN","clouds":[{"cover":"BKN","base":8500}],"fltCat":"VFR"},{"icaoId":"KLVS","receiptTime":"2026-04-12T20:56:29.957Z","obsTime":1776027180,"reportTime":"2026-04-12T21:00:00.000Z","temp":17.2,"dewp":-7.8,"wdir":210,"wspd":24,"wgst":32,"visib":"10+","altim":1017,"slp":1009.8,"qcField":14,"presTend":-1.1,"metarType":"METAR","rawOb":"METAR KLVS 122053Z AUTO 21024G32KT 10SM CLR 17/M08 A3003 RMK AO2 PK WND 21035/2001 SLP098 6//// T01721078 56011 PNO $","lat":35.6558,"lon":-105.1385,"elev":2095,"name":"Las Vegas Muni, NM, US","cover":"CLR","clouds":[],"fltCat":"VFR"},{"icaoId":"KMCO","receiptTime":"2026-04-12T20:56:40.019Z","obsTime":1776027180,"reportTime":"2026-04-12T21:00:00.000Z","temp":26.7,"dewp":12.2,"wdir":100,"wspd":15,"wgst":20,"visib":"10+","altim":1025.5,"slp":1025.1,"qcField":4,"presTend":-0.9,"metarType":"METAR","rawOb":"METAR KMCO 122053Z 10015G20KT 10SM FEW050 27/12 A3028 RMK AO2 SLP251 T02670122 56009","lat":28.4182,"lon":-81.3241,"elev":27,"name":"Orlando Intl, FL, US","cover":"FEW","clouds":[{"cover":"FEW","base":5000}],"fltCat":"VFR"},{"icaoId":"KCNY","receiptTime":"2026-04-12T20:56:38.256Z","obsTime":1776027180,"reportTime":"2026-04-12T21:00:00.000Z","temp":22.2,"dewp":-10.6,"wdir":210,"wspd":23,"wgst":39,"visib":"10+","altim":1009.6,"slp":1005.4,"qcField":14,"presTend":-1.2,"metarType":"METAR","rawOb":"METAR KCNY 122053Z AUTO 21023G39KT 10SM CLR 22/M11 A2981 RMK AO2 PK WND 22039/2044 SLP054 T02221106 56012 $","lat":38.7501,"lon":-109.7627,"elev":1392,"name":"Moab/Canyonland Fld, UT, US","cover":"CLR","clouds":[],"fltCat":"VFR"},{"icaoId":"KPUB","receiptTime":"2026-04-12T20:56:39.337Z","obsTime":1776027180,"reportTime":"2026-04-12T21:00:00.000Z","temp":25.6,"dewp":-8.3,"wdir":270,"wspd":11,"wgst":18,"visib":"10+","altim":1007.9,"slp":1003.4,"qcField":12,"presTend":-2.5,"metarType":"METAR","rawOb":"METAR KPUB 122053Z 27011G18KT 10SM CLR 26/M08 A2976 RMK AO2 SLP034 T02561083 56025 $","lat":38.2887,"lon":-104.5057,"elev":1441,"name":"Pueblo Mem Arpt, CO, US","cover":"CLR","clouds":[],"fltCat":"VFR"},{"icaoId":"KMLC","receiptTime":"2026-04-12T20:56:40.237Z","obsTime":1776027180,"reportTime":"2026-04-12T21:00:00.000Z","temp":22.2,"dewp":17.8,"wdir":190,"wspd":8,"wgst":20,"visib":"10+","altim":1015,"slp":1014.1,"qcField":6,"presTend":-0.6,"metarType":"METAR","rawOb":"METAR KMLC 122053Z AUTO 19008G20KT 150V230 10SM OVC020 22/18 A2997 RMK AO2 PK WND 18026/1958 SLP141 T02220178 55006","lat":34.8824,"lon":-95.7815,"elev":231,"name":"McAlester Rgnl, OK, US","cover":"OVC","clouds":[{"cover":"OVC","base":2000}],"fltCat":"MVFR"},{"icaoId":"KLAW","receiptTime":"2026-04-12T20:56:40.413Z","obsTime":1776027180,"reportTime":"2026-04-12T21:00:00.000Z","temp":27.8,"dewp":18.9,"wdir":190,"wspd":13,"wgst":21,"visib":"10+","altim":1011.6,"slp":1010.2,"qcField":12,"presTend":-2.3,"metarType":"METAR","rawOb":"METAR KLAW 122053Z 19013G21KT 10SM FEW043 28/19 A2987 RMK AO2 SLP102 T02780189 56023 $","lat":34.5577,"lon":-98.4172,"elev":328,"name":"Lawton-Fort Sill Rgnl, OK, US","cover":"FEW","clouds":[{"cover":"FEW","base":4300}],"fltCat":"VFR"},{"icaoId":"KRDD","receiptTime":"2026-04-12T20:56:30.571Z","obsTime":1776027180,"reportTime":"2026-04-12T21:00:00.000Z","temp":8.3,"dewp":6.7,"wdir":130,"wspd":7,"wgst":15,"visib":"10+","altim":1010.9,"slp":1010.8,"qcField":12,"presTend":2.3,"precip":0.04,"pcp3hr":0.11,"metarType":"METAR","rawOb":"METAR KRDD 122053Z 13007G15KT 10SM SCT011 BKN037 OVC060 08/07 A2985 RMK AO2 RAE30 SLP108 P0004 60011 T00830067 53023 $","lat":40.5146,"lon":-122.2977,"elev":152,"name":"Redding Muni, CA, US","cover":"OVC","clouds":[{"cover":"SCT","base":1100},{"cover":"BKN","base":3700},{"cover":"OVC","base":6000}],"fltCat":"VFR"},{"icaoId":"KCLT","receiptTime":"2026-04-12T20:56:34.162Z","obsTime":1776027120,"reportTime":"2026-04-12T21:00:00.000Z","temp":29.4,"dewp":7.8,"wdir":240,"wspd":11,"visib":"10+","altim":1025.5,"slp":1026,"qcField":4,"presTend":-1.9,"metarType":"METAR","rawOb":"METAR KCLT 122052Z 24011KT 10SM SCT085 SCT250 29/08 A3028 RMK AO2 SLP260 T02940078 56019","lat":35.2225,"lon":-80.9543,"elev":223,"name":"Charlotte/Douglas Intl, NC, US","cover":"SCT","clouds":[{"cover":"SCT","base":8500},{"cover":"SCT","base":25000}],"fltCat":"VFR"},{"icaoId":"KIAD","receiptTime":"2026-04-12T20:56:34.391Z","obsTime":1776027120,"reportTime":"2026-04-12T21:00:00.000Z","temp":21.1,"dewp":7.2,"wdir":150,"wspd":15,"wgst":23,"visib":"10+","altim":1025.1,"slp":1024.9,"qcField":12,"presTend":-3.2,"metarType":"METAR","rawOb":"METAR KIAD 122052Z 15015G23KT 10SM FEW160 SCT200 BKN250 21/07 A3027 RMK AO2 SLP249 T02110072 56032 $","lat":38.9348,"lon":-77.4473,"elev":90,"name":"Washington/Dulles Intl, VA, US","cover":"BKN","clouds":[{"cover":"FEW","base":16000},{"cover":"SCT","base":20000},{"cover":"BKN","base":25000}],"fltCat":"VFR"},{"icaoId":"KABI","receiptTime":"2026-04-12T20:56:20.706Z","obsTime":1776027120,"reportTime":"2026-04-12T21:00:00.000Z","temp":28.3,"dewp":18.3,"wdir":210,"wspd":12,"wgst":20,"visib":"10+","altim":1014.3,"slp":1012,"qcField":12,"presTend":-1.7,"metarType":"METAR","rawOb":"METAR KABI 122052Z 21012G20KT 10SM SCT047 SCT055 28/18 A2995 RMK AO2 SLP120 T02830183 57017 $","lat":32.4106,"lon":-99.6821,"elev":543,"name":"Abilene Rgnl, TX, US","cover":"SCT","clouds":[{"cover":"SCT","base":4700},{"cover":"SCT","base":5500}],"fltCat":"VFR"},{"icaoId":"KABQ","receiptTime":"2026-04-12T20:56:20.728Z","obsTime":1776027120,"reportTime":"2026-04-12T21:00:00.000Z","temp":22.8,"dewp":-8.3,"wdir":210,"wspd":9,"wgst":23,"visib":"10+","altim":1015,"slp":1008.5,"qcField":12,"presTend":-2.5,"metarType":"METAR","rawOb":"METAR KABQ 122052Z 21009G23KT 10SM SCT120 SCT200 BKN250 23/M08 A2997 RMK AO2 PK WND 22027/2039 WSHFT 2024 SLP085 T02281083 56025 $","lat":35.0419,"lon":-106.6154,"elev":1620,"name":"Albuquerque Intl, NM, US","cover":"BKN","clouds":[{"cover":"SCT","base":12000},{"cover":"SCT","base":20000},{"cover":"BKN","base":25000}],"fltCat":"VFR"},{"icaoId":"KMLF","receiptTime":"2026-04-12T20:56:20.964Z","obsTime":1776027120,"reportTime":"2026-04-12T21:00:00.000Z","temp":18.9,"dewp":-10.6,"wdir":220,"wspd":34,"wgst":50,"visib":"10+","altim":1008.5,"slp":1004.6,"qcField":6,"presTend":-1,"metarType":"METAR","rawOb":"METAR KMLF 122052Z AUTO 22034G50KT 10SM CLR 19/M11 A2978 RMK AO2 PK WND 23050/2049 SLP046 T01891106 56010","lat":38.4225,"lon":-113.0109,"elev":1537,"name":"Milford Muni, UT, US","cover":"CLR","clouds":[],"fltCat":"VFR"},{"icaoId":"KSPS","receiptTime":"2026-04-12T20:56:21.004Z","obsTime":1776027120,"reportTime":"2026-04-12T21:00:00.000Z","temp":28.9,"dewp":18.3,"wdir":200,"wspd":16,"visib":"10+","altim":1011.9,"slp":1010.4,"qcField":4,"presTend":-2.3,"metarType":"METAR","rawOb":"METAR KSPS 122052Z 20016KT 10SM SCT042 SCT050 29/18 A2988 RMK AO2 PK WND 20028/2032 SLP104 T02890183 56023","lat":33.9785,"lon":-98.493,"elev":310,"name":"Wichita Falls Rgnl, TX, US","cover":"SCT","clouds":[{"cover":"SCT","base":4200},{"cover":"SCT","base":5000}],"fltCat":"VFR"},{"icaoId":"KMKE","receiptTime":"2026-04-12T20:56:21.525Z","obsTime":1776027120,"reportTime":"2026-04-12T21:00:00.000Z","temp":24.4,"dewp":14.4,"wdir":230,"wspd":18,"wgst":27,"visib":"10+","altim":1008.2,"slp":1008,"qcField":12,"presTend":-1.8,"pcp3hr":0.005,"metarType":"METAR","rawOb":"METAR KMKE 122052Z 23018G27KT 10SM BKN048 BKN060 BKN110 OVC250 24/14 A2977 RMK AO2 PK WND 22031/1954 SLP080 60000 T02440144 58018 $","lat":42.9549,"lon":-87.9045,"elev":203,"name":"Milwaukee/Mitchell Intl, WI, US","cover":"OVC","clouds":[{"cover":"BKN","base":4800},{"cover":"BKN","base":6000},{"cover":"BKN","base":11000},{"cover":"OVC","base":25000}],"fltCat":"VFR"},{"icaoId":"KOKC","receiptTime":"2026-04-12T20:56:21.664Z","obsTime":1776027120,"reportTime":"2026-04-12T21:00:00.000Z","temp":26.7,"dewp":17.2,"wdir":200,"wspd":23,"wgst":30,"visib":"10+","altim":1011.3,"slp":1010,"qcField":4,"presTend":-1.8,"metarType":"METAR","rawOb":"METAR KOKC 122052Z 20023G30KT 10SM FEW039 SCT250 27/17 A2986 RMK AO2 PK WND 21034/2031 SLP100 T02670172 56018","lat":35.3843,"lon":-97.6003,"elev":391,"name":"Oklahoma City/Will Rogers Intl, OK, US","cover":"SCT","clouds":[{"cover":"FEW","base":3900},{"cover":"SCT","base":25000}],"fltCat":"VFR"},{"icaoId":"KCVG","receiptTime":"2026-04-12T20:56:34.200Z","obsTime":1776027120,"reportTime":"2026-04-12T21:00:00.000Z","temp":25.6,"dewp":7.8,"wdir":210,"wspd":13,"wgst":29,"visib":"10+","altim":1019.4,"slp":1018.5,"qcField":12,"presTend":-1.6,"metarType":"METAR","rawOb":"METAR KCVG 122052Z 21013G29KT 10SM FEW080 BKN200 26/08 A3010 RMK AO2 PK WND 21030/2021 SLP185 T02560078 56016 $","lat":39.0444,"lon":-84.6724,"elev":264,"name":"Cincinnati Intl, KY, US","cover":"BKN","clouds":[{"cover":"FEW","base":8000},{"cover":"BKN","base":20000}],"fltCat":"VFR"},{"icaoId":"KATL","receiptTime":"2026-04-12T20:56:33.990Z","obsTime":1776027120,"reportTime":"2026-04-12T21:00:00.000Z","temp":29.4,"dewp":5.6,"wdir":170,"wspd":12,"visib":"10+","altim":1024.8,"slp":1024,"qcField":12,"presTend":-1.6,"metarType":"METAR","rawOb":"METAR KATL 122052Z 17012KT 10SM FEW075 SCT250 29/06 A3026 RMK AO2 WSHFT 1948 SLP240 T02940056 56016 $","lat":33.6297,"lon":-84.4422,"elev":309,"name":"Atlanta/Hartsfield-Jackson Intl, GA, US","cover":"SCT","clouds":[{"cover":"FEW","base":7500},{"cover":"SCT","base":25000}],"fltCat":"VFR"},{"icaoId":"KHRL","receiptTime":"2026-04-12T20:56:34.358Z","obsTime":1776027120,"reportTime":"2026-04-12T21:00:00.000Z","temp":28.3,"dewp":21.7,"wdir":140,"wspd":18,"visib":"10+","altim":1015.3,"slp":1015.1,"qcField":4,"presTend":-1.8,"metarType":"METAR","rawOb":"METAR KHRL 122052Z 14018KT 10SM SCT029 BKN034 OVC047 28/22 A2998 RMK AO2 PK WND 16026/2015 SLP151 T02830217 58018","lat":26.2303,"lon":-97.6556,"elev":9,"name":"Harlingen/Valley Intl, TX, US","cover":"OVC","clouds":[{"cover":"SCT","base":2900},{"cover":"BKN","base":3400},{"cover":"OVC","base":4700}],"fltCat":"VFR"},{"icaoId":"KDCA","receiptTime":"2026-04-12T20:56:34.220Z","obsTime":1776027120,"reportTime":"2026-04-12T21:00:00.000Z","temp":21.1,"dewp":7.2,"wdir":180,"wspd":14,"wgst":20,"visib":"10+","altim":1025.8,"slp":1025.6,"qcField":4,"presTend":-3.3,"metarType":"METAR","rawOb":"METAR KDCA 122052Z 18014G20KT 10SM OVC250 21/07 A3029 RMK AO2 SLP256 T02110072 56033","lat":38.8472,"lon":-77.0345,"elev":4,"name":"Washington/Reagan-National Arpt, VA, US","cover":"OVC","clouds":[{"cover":"OVC","base":25000}],"fltCat":"VFR"},{"icaoId":"KVNY","receiptTime":"2026-04-12T20:54:08.015Z","obsTime":1776027060,"reportTime":"2026-04-12T21:00:00.000Z","temp":18.3,"dewp":5,"wdir":240,"wspd":10,"visib":"10+","altim":1014.6,"slp":1014.1,"qcField":12,"presTend":-0.7,"metarType":"METAR","rawOb":"METAR KVNY 122051Z 24010KT 10SM SCT060 BKN075 18/05 A2996 RMK AO2 SLP141 T01830050 58007 $","lat":34.2121,"lon":-118.4915,"elev":241,"name":"Van Nuys Arpt, CA, US","cover":"BKN","clouds":[{"cover":"SCT","base":6000},{"cover":"BKN","base":7500}],"fltCat":"VFR"},{"icaoId":"KBDL","receiptTime":"2026-04-12T20:54:08.212Z","obsTime":1776027060,"reportTime":"2026-04-12T21:00:00.000Z","temp":13.9,"dewp":-3.3,"wdir":190,"wspd":12,"visib":"10+","altim":1028.2,"slp":1028.3,"qcField":4,"presTend":-2.5,"metarType":"METAR","rawOb":"METAR KBDL 122051Z 19012KT 10SM FEW110 BKN170 BKN220 14/M03 A3036 RMK AO2 SLP283 T01391033 56025","lat":41.9374,"lon":-72.682,"elev":52,"name":"Hartford/Bradley Intl, CT, US","cover":"BKN","clouds":[{"cover":"FEW","base":11000},{"cover":"BKN","base":17000},{"cover":"BKN","base":22000}],"fltCat":"VFR"},{"icaoId":"KCLE","receiptTime":"2026-04-12T20:54:08.335Z","obsTime":1776027060,"reportTime":"2026-04-12T21:00:00.000Z","temp":25.6,"dewp":11.1,"wdir":200,"wspd":18,"wgst":28,"visib":"10+","altim":1016.7,"slp":1017.8,"qcField":12,"presTend":-3.3,"metarType":"METAR","rawOb":"METAR KCLE 122051Z 20018G28KT 10SM FEW065 FEW110 BKN240 26/11 A3002 RMK AO2 PK WND 21028/2049 SLP178 T02560111 56033 $","lat":41.4057,"lon":-81.8519,"elev":237,"name":"Cleveland/Hopkins Intl, OH, US","cover":"BKN","clouds":[{"cover":"FEW","base":6500},{"cover":"FEW","base":11000},{"cover":"BKN","base":24000}],"fltCat":"VFR"},{"icaoId":"KCMH","receiptTime":"2026-04-12T20:54:08.363Z","obsTime":1776027060,"reportTime":"2026-04-12T21:00:00.000Z","temp":26.7,"dewp":10,"wdir":210,"wspd":12,"wgst":22,"visib":"10+","altim":1018.7,"slp":1018.2,"qcField":4,"presTend":-2.6,"metarType":"METAR","rawOb":"METAR KCMH 122051Z 21012G22KT 10SM FEW070 BKN200 OVC250 27/10 A3008 RMK AO2 PK WND 23028/2033 SLP182 T02670100 56026","lat":39.9907,"lon":-82.877,"elev":257,"name":"Columbus/Glenn Intl, OH, US","cover":"OVC","clouds":[{"cover":"FEW","base":7000},{"cover":"BKN","base":20000},{"cover":"OVC","base":25000}],"fltCat":"VFR"},{"icaoId":"KLGU","receiptTime":"2026-04-12T20:54:07.056Z","obsTime":1776027060,"reportTime":"2026-04-12T21:00:00.000Z","temp":13.9,"dewp":-0.6,"wdir":70,"wspd":5,"visib":"10+","altim":1005.8,"slp":1003.8,"qcField":6,"presTend":-0.8,"precip":0.005,"pcp3hr":0.005,"metarType":"METAR","rawOb":"METAR KLGU 122051Z AUTO 07005KT 10SM BKN100 14/M01 A2970 RMK AO2 PK WND 18057/2003 WSHFT 2008 LTG DSNT W-N RAE21 SLP038 P0000 60000 T01391006 58008","lat":41.7865,"lon":-111.8519,"elev":1359,"name":"Logan/Cache Arpt, UT, US","cover":"BKN","clouds":[{"cover":"BKN","base":10000}],"fltCat":"VFR"},{"icaoId":"KLGA","receiptTime":"2026-04-12T20:54:07.041Z","obsTime":1776027060,"reportTime":"2026-04-12T21:00:00.000Z","temp":10.6,"dewp":-1.7,"wdir":180,"wspd":15,"visib":"10+","altim":1029.9,"slp":1029.7,"qcField":12,"presTend":-2.4,"metarType":"METAR","rawOb":"METAR KLGA 122051Z 18015KT 10SM FEW150 FEW190 SCT250 11/M02 A3041 RMK AO2 SLP297 T01061017 56024 $","lat":40.7794,"lon":-73.8803,"elev":9,"name":"New York/La Guardia Arpt, NY, US","cover":"SCT","clouds":[{"cover":"FEW","base":15000},{"cover":"FEW","base":19000},{"cover":"SCT","base":25000}],"fltCat":"VFR"},{"icaoId":"KJFK","receiptTime":"2026-04-12T20:54:07.019Z","obsTime":1776027060,"reportTime":"2026-04-12T21:00:00.000Z","temp":9.4,"dewp":1.7,"wdir":150,"wspd":14,"wgst":21,"visib":"10+","altim":1030.9,"slp":1030.6,"qcField":12,"presTend":-2.6,"metarType":"METAR","rawOb":"METAR KJFK 122051Z 15014G21KT 10SM FEW190 SCT250 09/02 A3044 RMK AO2 SLP306 T00940017 56026 $","lat":40.6392,"lon":-73.7639,"elev":3,"name":"New York/JF Kennedy Intl, NY, US","cover":"SCT","clouds":[{"cover":"FEW","base":19000},{"cover":"SCT","base":25000}],"fltCat":"VFR"},{"icaoId":"KIGM","receiptTime":"2026-04-12T20:54:06.950Z","obsTime":1776027060,"reportTime":"2026-04-12T21:00:00.000Z","temp":21.7,"dewp":-7.8,"wdir":210,"wspd":24,"wgst":34,"visib":"10+","altim":1013,"slp":1007.3,"qcField":6,"presTend":-1,"metarType":"METAR","rawOb":"METAR KIGM 122051Z AUTO 21024G34KT 10SM CLR 22/M08 A2991 RMK AO2 PK WND 21040/2023 SLP073 T02171078 58010","lat":35.2575,"lon":-113.9341,"elev":1045,"name":"Kingman Arpt, AZ, US","cover":"CLR","clouds":[],"fltCat":"VFR"},{"icaoId":"KEWR","receiptTime":"2026-04-12T20:54:06.866Z","obsTime":1776027060,"reportTime":"2026-04-12T21:00:00.000Z","temp":10,"dewp":1.7,"wdir":160,"wspd":13,"wgst":20,"visib":"10+","altim":1029.9,"slp":1029.6,"qcField":4,"presTend":-2.6,"metarType":"METAR","rawOb":"METAR KEWR 122051Z 16013G20KT 10SM FEW100 SCT170 BKN250 10/02 A3041 RMK AO2 SLP296 T01000017 56026","lat":40.6828,"lon":-74.1692,"elev":2,"name":"Newark Intl, NJ, US","cover":"BKN","clouds":[{"cover":"FEW","base":10000},{"cover":"SCT","base":17000},{"cover":"BKN","base":25000}],"fltCat":"VFR"},{"icaoId":"KELP","receiptTime":"2026-04-12T20:54:06.821Z","obsTime":1776027060,"reportTime":"2026-04-12T21:00:00.000Z","temp":28.3,"dewp":-3.3,"wdir":240,"wspd":13,"wgst":27,"visib":"10+","altim":1016.3,"slp":1010.1,"qcField":4,"presTend":-2.1,"metarType":"METAR","rawOb":"METAR KELP 122051Z 24013G27KT 10SM FEW110 BKN250 28/M03 A3001 RMK AO2 PK WND 24031/2006 SLP101 T02831033 58021","lat":31.8123,"lon":-106.3774,"elev":1205,"name":"El Paso Intl, TX, US","cover":"BKN","clouds":[{"cover":"FEW","base":11000},{"cover":"BKN","base":25000}],"fltCat":"VFR"},{"icaoId":"KSTL","receiptTime":"2026-04-12T20:54:06.558Z","obsTime":1776027060,"reportTime":"2026-04-12T21:00:00.000Z","temp":23.9,"dewp":10.6,"wdir":180,"wspd":9,"wgst":22,"visib":"10+","altim":1013.6,"slp":1012.8,"qcField":12,"presTend":-2.1,"precip":0.005,"pcp3hr":0.005,"metarType":"METAR","rawOb":"METAR KSTL 122051Z 18009G22KT 10SM FEW070 BKN095 OVC120 24/11 A2993 RMK AO2 PK WND 19028/2015 RAE1953 SLP128 P0000 60000 T02390106 58021 $","lat":38.7525,"lon":-90.3734,"elev":163,"name":"St Louis/Lambert Intl, MO, US","cover":"OVC","clouds":[{"cover":"FEW","base":7000},{"cover":"BKN","base":9500},{"cover":"OVC","base":12000}],"fltCat":"VFR"},{"icaoId":"KSAD","receiptTime":"2026-04-12T20:54:07.314Z","obsTime":1776027060,"reportTime":"2026-04-12T21:00:00.000Z","temp":27.8,"dewp":-6.7,"wdir":"VRB","wspd":5,"wgst":16,"visib":"10+","altim":1014,"slp":1009.3,"qcField":6,"presTend":-2,"metarType":"METAR","rawOb":"METAR KSAD 122051Z AUTO VRB05G16KT 10SM CLR 28/M07 A2994 RMK AO2 SLP093 T02781067 56020","lat":32.8565,"lon":-109.636,"elev":937,"name":"Safford Rgnl, AZ, US","cover":"CLR","clouds":[],"fltCat":"VFR"},{"icaoId":"KOXR","receiptTime":"2026-04-12T20:54:07.125Z","obsTime":1776027060,"reportTime":"2026-04-12T21:00:00.000Z","temp":17.8,"dewp":8.9,"wdir":270,"wspd":13,"visib":"10+","altim":1016,"slp":1015.7,"qcField":4,"presTend":0.1,"metarType":"METAR","rawOb":"METAR KOXR 122051Z 27013KT 10SM CLR 18/09 A3000 RMK AO2 SLP157 T01780089 51001","lat":34.2001,"lon":-119.2042,"elev":12,"name":"Oxnard Arpt, CA, US","cover":"CLR","clouds":[],"fltCat":"VFR"},{"icaoId":"KPVD","receiptTime":"2026-04-12T20:54:07.212Z","obsTime":1776027060,"reportTime":"2026-04-12T21:00:00.000Z","temp":9.4,"dewp":-1.1,"wdir":170,"wspd":12,"visib":"10+","altim":1030.2,"slp":1030.3,"qcField":12,"presTend":-2.3,"metarType":"METAR","rawOb":"METAR KPVD 122051Z 17012KT 10SM SCT130 BKN160 BKN240 09/M01 A3042 RMK AO2 SLP303 T00941011 56023 $","lat":41.7225,"lon":-71.4325,"elev":15,"name":"Providence/Green Mem, RI, US","cover":"BKN","clouds":[{"cover":"SCT","base":13000},{"cover":"BKN","base":16000},{"cover":"BKN","base":24000}],"fltCat":"VFR"},{"icaoId":"KORF","receiptTime":"2026-04-12T20:54:07.111Z","obsTime":1776027060,"reportTime":"2026-04-12T21:00:00.000Z","temp":18.9,"dewp":9.4,"wdir":120,"wspd":11,"wgst":18,"visib":"10+","altim":1028.5,"slp":1028.2,"qcField":4,"presTend":-2.2,"metarType":"METAR","rawOb":"METAR KORF 122051Z 12011G18KT 10SM CLR 19/09 A3037 RMK AO2 SLP282 T01890094 57022","lat":36.9037,"lon":-76.1927,"elev":5,"name":"Norfolk Intl, VA, US","cover":"CLR","clouds":[],"fltCat":"VFR"},{"icaoId":"KRDU","receiptTime":"2026-04-12T20:54:07.268Z","obsTime":1776027060,"reportTime":"2026-04-12T21:00:00.000Z","temp":28.9,"dewp":12.8,"wdir":"VRB","wspd":6,"visib":"10+","altim":1025.8,"slp":1025.4,"qcField":12,"presTend":-2.3,"metarType":"METAR","rawOb":"METAR KRDU 122051Z VRB06KT 10SM SCT060 SCT250 29/13 A3029 RMK AO2 SLP254 T02890128 56023 $","lat":35.8923,"lon":-78.782,"elev":121,"name":"Raleigh-Durham Intl, NC, US","cover":"SCT","clouds":[{"cover":"SCT","base":6000},{"cover":"SCT","base":25000}],"fltCat":"VFR"},{"icaoId":"KORD","receiptTime":"2026-04-12T20:54:07.094Z","obsTime":1776027060,"reportTime":"2026-04-12T21:00:00.000Z","temp":26.1,"dewp":11.7,"wdir":210,"wspd":14,"wgst":35,"visib":"10+","altim":1009.9,"slp":1009.4,"qcField":12,"presTend":-2.4,"metarType":"METAR","rawOb":"METAR KORD 122051Z 21014G35KT 10SM SCT065 SCT100 BKN150 BKN250 26/12 A2982 RMK AO2 PK WND 20039/2004 SLP094 T02610117 56024 $","lat":41.9602,"lon":-87.9316,"elev":202,"name":"Chicago/O'Hare Intl, IL, US","cover":"BKN","clouds":[{"cover":"SCT","base":6500},{"cover":"SCT","base":10000},{"cover":"BKN","base":15000},{"cover":"BKN","base":25000}],"fltCat":"VFR"},{"icaoId":"KROW","receiptTime":"2026-04-12T20:54:07.291Z","obsTime":1776027060,"reportTime":"2026-04-12T21:00:00.000Z","temp":28.9,"dewp":-2.8,"wdir":220,"wspd":18,"wgst":25,"visib":"10+","altim":1013,"slp":1007.3,"qcField":12,"presTend":-2,"metarType":"METAR","rawOb":"METAR KROW 122051Z 22018G25KT 10SM CLR 29/M03 A2991 RMK AO2 PK WND 21034/2012 SLP073 T02891028 56020 $","lat":33.3074,"lon":-104.5082,"elev":1105,"name":"Roswell/Ind Arpt, NM, US","cover":"CLR","clouds":[],"fltCat":"VFR"},{"icaoId":"KPHX","receiptTime":"2026-04-12T20:54:07.149Z","obsTime":1776027060,"reportTime":"2026-04-12T21:00:00.000Z","temp":28.3,"dewp":0.6,"wdir":260,"wspd":11,"wgst":15,"visib":"10+","altim":1012.6,"slp":1010.9,"qcField":12,"presTend":-0.8,"metarType":"METAR","rawOb":"METAR KPHX 122051Z 26011G15KT 10SM FEW100 FEW160 OVC230 28/01 A2990 RMK AO2 SLP109 T02830006 56008 $","lat":33.4278,"lon":-112.0037,"elev":338,"name":"Phoenix/Sky Harbor Intl, AZ, US","cover":"OVC","clouds":[{"cover":"FEW","base":10000},{"cover":"FEW","base":16000},{"cover":"OVC","base":23000}],"fltCat":"VFR"},{"icaoId":"KMYL","receiptTime":"2026-04-12T20:54:07.074Z","obsTime":1776027060,"reportTime":"2026-04-12T21:00:00.000Z","temp":6.1,"dewp":3.9,"wdir":190,"wspd":15,"visib":"10+","altim":1004.1,"slp":1004,"qcField":6,"presTend":-0.1,"precip":0.005,"pcp3hr":0.02,"metarType":"METAR","rawOb":"METAR KMYL 122051Z AUTO 19015KT 10SM FEW013 BKN019 OVC029 06/04 A2965 RMK AO2 RAE15 SLP040 P0000 60002 T00610039 55001","lat":44.8943,"lon":-116.0998,"elev":1532,"name":"McCall Muni, ID, US","cover":"OVC","clouds":[{"cover":"FEW","base":1300},{"cover":"BKN","base":1900},{"cover":"OVC","base":2900}],"fltCat":"MVFR"},{"icaoId":"KPIT","receiptTime":"2026-04-12T20:54:07.810Z","obsTime":1776027060,"reportTime":"2026-04-12T21:00:00.000Z","temp":25,"dewp":8.9,"wdir":190,"wspd":7,"visib":"10+","altim":1020.1,"slp":1020.3,"qcField":12,"presTend":-2.7,"metarType":"METAR","rawOb":"METAR KPIT 122051Z 19007KT 10SM FEW038 SCT120 BKN250 25/09 A3012 RMK AO2 SLP203 T02500089 56027 $","lat":40.4814,"lon":-80.2083,"elev":339,"name":"Pittsburgh Intl, PA, US","cover":"BKN","clouds":[{"cover":"FEW","base":3800},{"cover":"SCT","base":12000},{"cover":"BKN","base":25000}],"fltCat":"VFR"},{"icaoId":"KACT","receiptTime":"2026-04-12T20:54:08.081Z","obsTime":1776027060,"reportTime":"2026-04-12T21:00:00.000Z","temp":22.8,"dewp":20.6,"wdir":160,"wspd":13,"visib":"10+","altim":1016.3,"slp":1015.7,"qcField":4,"presTend":-1.8,"pcp3hr":0.005,"metarType":"METAR","rawOb":"METAR KACT 122051Z 16013KT 10SM BKN018 OVC023 23/21 A3001 RMK AO2 LTG DSNT SW-NW SLP157 60000 T02280206 56018","lat":31.618,"lon":-97.2283,"elev":150,"name":"Waco Rgnl, TX, US","cover":"OVC","clouds":[{"cover":"BKN","base":1800},{"cover":"OVC","base":2300}],"fltCat":"MVFR"},{"icaoId":"KCRP","receiptTime":"2026-04-12T20:54:08.406Z","obsTime":1776027060,"reportTime":"2026-04-12T21:00:00.000Z","temp":25,"dewp":22.2,"wdir":150,"wspd":17,"visib":"10+","altim":1016.3,"slp":1016.1,"qcField":4,"wxString":"-RA","presTend":-0.5,"precip":0.005,"pcp3hr":0.005,"metarType":"METAR","rawOb":"METAR KCRP 122051Z 15017KT 10SM -RA BKN019 BKN024 OVC070 25/22 A3001 RMK AO2 PK WND 16030/2006 RAB1954E02B47 SLP161 P0000 60000 T02500222 58005","lat":27.7734,"lon":-97.513,"elev":11,"name":"Corpus Christi Intl, TX, US","cover":"OVC","clouds":[{"cover":"BKN","base":1900},{"cover":"BKN","base":2400},{"cover":"OVC","base":7000}],"fltCat":"MVFR"},{"icaoId":"KSAN","receiptTime":"2026-04-12T20:54:07.340Z","obsTime":1776027060,"reportTime":"2026-04-12T21:00:00.000Z","temp":19.4,"dewp":13.9,"wdir":290,"wspd":11,"visib":"10+","altim":1017,"slp":1017,"qcField":12,"precip":0.005,"pcp3hr":0.005,"metarType":"METAR","rawOb":"METAR KSAN 122051Z 29011KT 10SM FEW017 BKN026 BKN250 19/14 A3003 RMK AO2 RAB37E47 SLP170 P0000 60000 T01940139 50000 $","lat":32.7364,"lon":-117.1973,"elev":3,"name":"San Diego Intl Arpt, CA, US","cover":"BKN","clouds":[{"cover":"FEW","base":1700},{"cover":"BKN","base":2600},{"cover":"BKN","base":25000}],"fltCat":"MVFR"},{"icaoId":"KIWA","receiptTime":"2026-04-12T20:52:06.517Z","obsTime":1776027000,"reportTime":"2026-04-12T21:00:00.000Z","temp":28,"dewp":0,"wdir":230,"wspd":10,"wgst":19,"visib":"10+","altim":1013.3,"qcField":0,"metarType":"METAR","rawOb":"METAR KIWA 122050Z 23010G19KT 170V260 10SM CLR 28/00 A2992","lat":33.3008,"lon":-111.6437,"elev":420,"name":"Phoenix/Mesa Gateway Arpt, AZ, US","cover":"CLR","clouds":[],"fltCat":"VFR"},{"icaoId":"KHOB","receiptTime":"2026-04-12T20:52:06.432Z","obsTime":1776027000,"reportTime":"2026-04-12T21:00:00.000Z","temp":27,"dewp":1,"wdir":240,"wspd":14,"wgst":25,"visib":"10+","altim":1015.3,"qcField":0,"metarType":"METAR","rawOb":"METAR KHOB 122050Z 24014G25KT 10SM SCT100 BKN120 27/01 A2998","lat":32.6797,"lon":-103.2222,"elev":1112,"name":"Hobbs Arpt, NM, US","cover":"BKN","clouds":[{"cover":"SCT","base":10000},{"cover":"BKN","base":12000}],"fltCat":"VFR"},{"icaoId":"KIFP","receiptTime":"2026-04-12T20:50:35.307Z","obsTime":1776026940,"reportTime":"2026-04-12T21:00:00.000Z","temp":26,"dewp":-6,"wdir":180,"wspd":16,"wgst":30,"visib":"10+","altim":1009.2,"qcField":0,"metarType":"METAR","rawOb":"METAR KIFP 122049Z 18016G30KT 10SM CLR 26/M06 A2980","lat":35.1487,"lon":-114.5611,"elev":210,"name":"Bullhead City Intl, AZ, US","cover":"CLR","clouds":[],"fltCat":"VFR"},{"icaoId":"KGYR","receiptTime":"2026-04-12T20:48:48.673Z","obsTime":1776026820,"reportTime":"2026-04-12T21:00:00.000Z","temp":26,"dewp":6,"wdir":210,"wspd":13,"wgst":18,"visib":"10+","altim":1013.3,"qcField":0,"metarType":"METAR","rawOb":"METAR KGYR 122047Z 21013G18KT 10SM FEW080 BKN180 OVC250 26/06 A2992","lat":33.428,"lon":-112.368,"elev":292,"name":"Phoenix/Goodyear Muni, AZ, US","cover":"OVC","clouds":[{"cover":"FEW","base":8000},{"cover":"BKN","base":18000},{"cover":"OVC","base":25000}],"fltCat":"VFR"},{"icaoId":"KCHD","receiptTime":"2026-04-12T20:48:48.085Z","obsTime":1776026820,"reportTime":"2026-04-12T21:00:00.000Z","temp":27,"dewp":-1,"wdir":210,"wspd":12,"visib":"10+","altim":1013,"qcField":0,"metarType":"METAR","rawOb":"METAR KCHD 122047Z 21012KT 10SM BKN200 27/M01 A2991","lat":33.2669,"lon":-111.8086,"elev":378,"name":"Chandler Muni, AZ, US","cover":"BKN","clouds":[{"cover":"BKN","base":20000}],"fltCat":"VFR"},{"icaoId":"KAEG","receiptTime":"2026-04-12T20:49:25.994Z","obsTime":1776026820,"reportTime":"2026-04-12T21:00:00.000Z","temp":22,"dewp":-11,"wdir":230,"wspd":7,"wgst":18,"visib":"10+","altim":1016,"qcField":0,"metarType":"METAR","rawOb":"METAR KAEG 122047Z 23007G18KT 10SM SCT080 22/M11 A3000","lat":35.15,"lon":-106.7929,"elev":1771,"name":"Albuquerque/Double Eagle Arpt, NM, US","cover":"SCT","clouds":[{"cover":"SCT","base":8000}],"fltCat":"VFR"},{"icaoId":"KGEU","receiptTime":"2026-04-12T20:51:05.994Z","obsTime":1776026820,"reportTime":"2026-04-12T21:00:00.000Z","temp":26,"dewp":4,"wdir":220,"wspd":10,"visib":"10+","altim":1012.3,"qcField":0,"metarType":"METAR","rawOb":"METAR KGEU 122047Z 22010KT 10SM FEW240 26/04 A2989","lat":33.528,"lon":-112.293,"elev":319,"name":"Glendale Muni, AZ, US","cover":"FEW","clouds":[{"cover":"FEW","base":24000}],"fltCat":"VFR"},{"icaoId":"KRYN","receiptTime":"2026-04-12T20:46:27.722Z","obsTime":1776026700,"reportTime":"2026-04-12T21:00:00.000Z","temp":27,"dewp":1,"wdir":200,"wspd":21,"wgst":24,"visib":"10+","altim":1014.3,"qcField":0,"metarType":"METAR","rawOb":"METAR KRYN 122045Z 20021G24KT 10SM CLR 27/01 A2995","lat":32.1418,"lon":-111.1767,"elev":731,"name":"Tucson/Ryan Fld, AZ, US","cover":"CLR","clouds":[],"fltCat":"VFR"},{"icaoId":"KBJC","receiptTime":"2026-04-12T20:51:05.811Z","obsTime":1776026700,"reportTime":"2026-04-12T21:00:00.000Z","temp":23,"dewp":-8,"wdir":140,"wspd":8,"wgst":16,"visib":"10+","altim":1008.2,"qcField":0,"metarType":"METAR","rawOb":"METAR KBJC 122045Z 14008G16KT 010V070 10SM CLR 23/M08 A2977","lat":39.9008,"lon":-105.1042,"elev":1694,"name":"Rocky Mtn Metro, CO, US","cover":"CLR","clouds":[],"fltCat":"VFR"},{"icaoId":"KEND","receiptTime":"2026-04-12T20:04:08.438Z","obsTime":1776023700,"reportTime":"2026-04-12T20:00:00.000Z","temp":26.7,"dewp":17.4,"wdir":210,"wspd":20,"wgst":30,"visib":"10+","altim":1008.5,"slp":1007.4,"qcField":12,"metarType":"METAR","rawOb":"METAR KEND 121955Z 21020G30KT 10SM FEW030 27/17 A2978 RMK AO2A PK WND 18031/51 SLP074 T02670174 $","lat":36.338,"lon":-97.919,"elev":392,"name":"Enid/Vance AFB, OK, US","cover":"FEW","clouds":[{"cover":"FEW","base":3000}],"fltCat":"VFR"},{"icaoId":"KSHR","receiptTime":"2026-04-12T19:56:40.747Z","obsTime":1776023580,"reportTime":"2026-04-12T20:00:00.000Z","temp":17.8,"dewp":1.1,"wdir":"VRB","wspd":3,"visib":"10+","altim":1004.5,"slp":1002.6,"qcField":6,"metarType":"METAR","rawOb":"METAR KSHR 121953Z AUTO VRB03KT 10SM CLR 18/01 A2966 RMK AO2 SLP026 T01780011","lat":44.7603,"lon":-106.9741,"elev":1212,"name":"Sheridan Cnty Arpt, WY, US","cover":"CLR","clouds":[],"fltCat":"VFR"},{"icaoId":"KADM","receiptTime":"2026-04-12T20:59:19.554Z","obsTime":1776023400,"reportTime":"2026-04-12T20:00:00.000Z","temp":25,"dewp":20,"wdir":170,"wspd":17,"wgst":24,"visib":"10+","altim":1014,"qcField":0,"metarType":"METAR","rawOb":"METAR KADM 121950Z 17017G24KT 10SM BKN024 25/20 A2994","lat":34.3007,"lon":-97.0089,"elev":223,"name":"Ardmore Muni, OK, US","cover":"BKN","clouds":[{"cover":"BKN","base":2400}],"fltCat":"MVFR"}]