[{"icaoId":"KSEZ","receiptTime":"2026-04-09T02:38:21.006Z","obsTime":1775702100,"reportTime":"2026-04-09T02:35:00.000Z","temp":22,"dewp":-6,"wdir":190,"wspd":9,"wgst":15,"visib":"10+","altim":1015.7,"qcField":6,"metarType":"METAR","rawOb":"METAR KSEZ 090235Z AUTO 19009G15KT 150V210 10SM FEW120 22/M06 A2999 RMK AO2","lat":34.8467,"lon":-111.7884,"elev":1455,"name":"Sedona Arpt, AZ, US","cover":"FEW","clouds":[{"cover":"FEW","base":12000}],"fltCat":"VFR"},{"icaoId":"KHII","receiptTime":"2026-04-09T02:40:20.716Z","obsTime":1775702100,"reportTime":"2026-04-09T02:35:00.000Z","temp":32,"dewp":-2,"wdir":160,"wspd":5,"visib":"10+","altim":1006.9,"qcField":6,"metarType":"METAR","rawOb":"METAR KHII 090235Z AUTO 16005KT 10SM CLR 32/M02 A2973 RMK AO2","lat":34.5659,"lon":-114.3522,"elev":241,"name":"Lake Havasu City Arpt, AZ, US","cover":"CLR","clouds":[],"fltCat":"VFR"},{"icaoId":"KIFP","receiptTime":"2026-04-09T02:40:21.149Z","obsTime":1775702100,"reportTime":"2026-04-09T02:35:00.000Z","temp":33,"dewp":-6,"wdir":180,"wspd":10,"visib":"10+","altim":1005.8,"qcField":6,"metarType":"METAR","rawOb":"METAR KIFP 090235Z AUTO 18010KT 10SM CLR 33/M06 A2970 RMK AO2","lat":35.1487,"lon":-114.5611,"elev":210,"name":"Bullhead City Intl, AZ, US","cover":"CLR","clouds":[],"fltCat":"VFR"},{"icaoId":"KSOW","receiptTime":"2026-04-09T02:38:21.170Z","obsTime":1775702100,"reportTime":"2026-04-09T02:35:00.000Z","temp":17,"dewp":-5,"wdir":220,"wspd":7,"visib":"10+","altim":1019.4,"qcField":6,"metarType":"METAR","rawOb":"METAR KSOW 090235Z AUTO 22007KT 10SM CLR 17/M05 A3010 RMK AO2","lat":34.2686,"lon":-110.0019,"elev":1954,"name":"Show Low Muni, AZ, US","cover":"CLR","clouds":[],"fltCat":"VFR"},{"icaoId":"KNYL","receiptTime":"2026-04-09T02:00:20.952Z","obsTime":1775699820,"reportTime":"2026-04-09T02:00:00.000Z","temp":32.8,"dewp":5,"wdir":260,"wspd":7,"visib":"10+","altim":1006.5,"slp":1006,"qcField":4,"metarType":"METAR","rawOb":"METAR KNYL 090157Z 26007KT 10SM CLR 33/05 A2972 RMK AO2 SLP060 T03280050","lat":32.66,"lon":-114.6078,"elev":58,"name":"Yuma , AZ, US","cover":"CLR","clouds":[],"fltCat":"VFR"},{"icaoId":"KFLG","receiptTime":"2026-04-09T02:00:25.243Z","obsTime":1775699820,"reportTime":"2026-04-09T02:00:00.000Z","temp":15,"dewp":-6.1,"wdir":220,"wspd":3,"visib":"10+","altim":1019.7,"slp":1013.4,"qcField":4,"metarType":"METAR","rawOb":"METAR KFLG 090157Z 22003KT 10SM CLR 15/M06 A3011 RMK AO2 SLP134 T01501061","lat":35.1443,"lon":-111.6664,"elev":2134,"name":"Flagstaff/Pulliam Arpt, AZ, US","cover":"CLR","clouds":[],"fltCat":"VFR"},{"icaoId":"KDUG","receiptTime":"2026-04-09T02:02:10.366Z","obsTime":1775699760,"reportTime":"2026-04-09T02:00:00.000Z","temp":24.4,"dewp":-2.2,"wdir":110,"wspd":4,"visib":"10+","altim":1014.3,"slp":1008.8,"qcField":38,"metarType":"METAR","rawOb":"METAR KDUG 090156Z AUTO 11004KT 10SM CLR 24/M02 A2995 RMK AO2 SLP088 T02441022 TSNO","lat":31.4725,"lon":-109.6022,"elev":1260,"name":"Douglas/Bisbee Intl, AZ, US","cover":"CLR","clouds":[],"fltCat":"VFR"},{"icaoId":"KCGZ","receiptTime":"2026-04-09T01:58:25.906Z","obsTime":1775699760,"reportTime":"2026-04-09T02:00:00.000Z","temp":31.1,"dewp":-3.3,"wdir":270,"wspd":5,"visib":"10+","altim":1008.5,"slp":1007.2,"qcField":14,"metarType":"METAR","rawOb":"METAR KCGZ 090156Z AUTO 27005KT 10SM CLR 31/M03 A2978 RMK AO2 SLP072 T03111033 $","lat":32.9531,"lon":-111.7725,"elev":444,"name":"Casa Granda Muni, AZ, US","cover":"CLR","clouds":[],"fltCat":"VFR"},{"icaoId":"KINW","receiptTime":"2026-04-09T02:00:16.844Z","obsTime":1775699760,"reportTime":"2026-04-09T02:00:00.000Z","temp":21.1,"dewp":-5,"wdir":250,"wspd":8,"visib":"10+","altim":1015,"slp":1010.4,"qcField":6,"metarType":"METAR","rawOb":"METAR KINW 090156Z AUTO 25008KT 10SM CLR 21/M05 A2997 RMK AO2 SLP104 T02111050","lat":35.0279,"lon":-110.7221,"elev":1492,"name":"Winslow/Lindberg Rgnl, AZ, US","cover":"CLR","clouds":[],"fltCat":"VFR"},{"icaoId":"KLUF","receiptTime":"2026-04-09T02:08:11.023Z","obsTime":1775699700,"reportTime":"2026-04-09T02:00:00.000Z","temp":33,"dewp":-5.7,"wdir":230,"wspd":5,"visib":"10+","altim":1007.2,"slp":1005.8,"qcField":44,"metarType":"METAR","rawOb":"METAR KLUF 090155Z 23005KT 10SM CLR 33/M06 A2974 RMK AO2A SLP058 T03301057 TSNO $","lat":33.538,"lon":-112.38,"elev":333,"name":"Phoenix/Luke AFB, AZ, US","cover":"CLR","clouds":[],"fltCat":"VFR"},{"icaoId":"KFFZ","receiptTime":"2026-04-09T01:58:17.292Z","obsTime":1775699640,"reportTime":"2026-04-09T02:00:00.000Z","temp":32.2,"dewp":-3.9,"wdir":0,"wspd":0,"visib":"10+","altim":1008.2,"slp":1005.7,"qcField":4,"metarType":"METAR","rawOb":"METAR KFFZ 090154Z 00000KT 10SM CLR 32/M04 A2977 RMK AO2 SLP057 T03221039","lat":33.4659,"lon":-111.7212,"elev":420,"name":"Mesa/Falcon Fld, AZ, US","cover":"CLR","clouds":[],"fltCat":"VFR"},{"icaoId":"KOLS","receiptTime":"2026-04-09T01:58:12.649Z","obsTime":1775699640,"reportTime":"2026-04-09T02:00:00.000Z","temp":25.6,"dewp":-3.3,"wdir":240,"wspd":7,"visib":"10+","altim":1014,"slp":1008.5,"qcField":6,"metarType":"METAR","rawOb":"METAR KOLS 090154Z AUTO 24007KT 10SM CLR 26/M03 A2994 RMK AO2 SLP085 T02561033","lat":31.4208,"lon":-110.8465,"elev":1194,"name":"Nogales Intl, AZ, US","cover":"CLR","clouds":[],"fltCat":"VFR"},{"icaoId":"KSJN","receiptTime":"2026-04-09T01:58:13.128Z","obsTime":1775699640,"reportTime":"2026-04-09T02:00:00.000Z","temp":19.4,"dewp":-6.7,"wdir":20,"wspd":5,"visib":"10+","altim":1016.3,"slp":1010.5,"qcField":6,"metarType":"METAR","rawOb":"METAR KSJN 090154Z AUTO 02005KT 10SM CLR 19/M07 A3001 RMK AO2 SLP105 T01941067","lat":34.5184,"lon":-109.3801,"elev":1747,"name":"St Johns Ind Arpt, AZ, US","cover":"CLR","clouds":[],"fltCat":"VFR"},{"icaoId":"KGCN","receiptTime":"2026-04-09T01:58:15.568Z","obsTime":1775699640,"reportTime":"2026-04-09T02:00:00.000Z","temp":17.8,"dewp":-5,"wdir":240,"wspd":4,"visib":"10+","altim":1018.4,"slp":1013.2,"qcField":4,"metarType":"METAR","rawOb":"METAR KGCN 090154Z 24004KT 10SM BKN110 18/M05 A3007 RMK AO2 SLP132 T01781050","lat":35.9458,"lon":-112.1554,"elev":1993,"name":"Grand Canyon Park Arpt, AZ, US","cover":"BKN","clouds":[{"cover":"BKN","base":11000}],"fltCat":"VFR"},{"icaoId":"KPGA","receiptTime":"2026-04-09T01:56:52.178Z","obsTime":1775699580,"reportTime":"2026-04-09T02:00:00.000Z","temp":25.6,"dewp":-9.4,"wdir":"VRB","wspd":3,"visib":"10+","altim":1011.9,"slp":1006.5,"qcField":14,"metarType":"METAR","rawOb":"METAR KPGA 090153Z AUTO VRB03KT 10SM CLR 26/M09 A2988 RMK AO2 SLP065 T02561094 $","lat":36.9211,"lon":-111.4487,"elev":1310,"name":"Page Muni, AZ, US","cover":"CLR","clouds":[],"fltCat":"VFR"},{"icaoId":"KPRC","receiptTime":"2026-04-09T01:56:53.916Z","obsTime":1775699580,"reportTime":"2026-04-09T02:00:00.000Z","temp":21.7,"dewp":-6.1,"wdir":220,"wspd":7,"visib":"10+","altim":1016,"slp":1009.9,"qcField":6,"metarType":"METAR","rawOb":"METAR KPRC 090153Z AUTO 22007KT 10SM CLR 22/M06 A3000 RMK AO2 SLP099 T02171061","lat":34.6491,"lon":-112.4223,"elev":1528,"name":"Prescott/Love Fld, AZ, US","cover":"CLR","clouds":[],"fltCat":"VFR"},{"icaoId":"KSDL","receiptTime":"2026-04-09T01:56:55.745Z","obsTime":1775699580,"reportTime":"2026-04-09T02:00:00.000Z","temp":32.2,"dewp":-3.3,"wdir":"VRB","wspd":3,"visib":"10+","altim":1008.9,"slp":1006.5,"qcField":4,"metarType":"METAR","rawOb":"METAR KSDL 090153Z VRB03KT 10SM CLR 32/M03 A2979 RMK AO2 SLP065 T03221033","lat":33.6123,"lon":-111.9232,"elev":438,"name":"Scottsdale Muni, AZ, US","cover":"CLR","clouds":[],"fltCat":"VFR"},{"icaoId":"KDVT","receiptTime":"2026-04-09T01:56:30.660Z","obsTime":1775699580,"reportTime":"2026-04-09T02:00:00.000Z","temp":31.7,"dewp":-5,"wdir":280,"wspd":8,"visib":"10+","altim":1008.9,"slp":1006.4,"qcField":4,"metarType":"METAR","rawOb":"METAR KDVT 090153Z 28008KT 10SM SCT110 32/M05 A2979 RMK AO2 SLP064 T03171050","lat":33.6902,"lon":-112.0662,"elev":454,"name":"Phoenix/Deer Valley Arpt, AZ, US","cover":"SCT","clouds":[{"cover":"SCT","base":11000}],"fltCat":"VFR"},{"icaoId":"KTUS","receiptTime":"2026-04-09T01:56:53.179Z","obsTime":1775699580,"reportTime":"2026-04-09T02:00:00.000Z","temp":30.6,"dewp":-2.8,"wdir":0,"wspd":0,"visib":"10+","altim":1010.9,"slp":1006.7,"qcField":4,"metarType":"METAR","rawOb":"METAR KTUS 090153Z 00000KT 10SM CLR 31/M03 A2985 RMK AO2 SLP067 T03061028","lat":32.1315,"lon":-110.9564,"elev":776,"name":"Tucson Intl Arpt, AZ, US","cover":"CLR","clouds":[],"fltCat":"VFR"},{"icaoId":"KSAD","receiptTime":"2026-04-09T01:54:09.919Z","obsTime":1775699460,"reportTime":"2026-04-09T02:00:00.000Z","temp":28.3,"dewp":-5,"wdir":0,"wspd":0,"visib":"10+","altim":1011.3,"slp":1007,"qcField":6,"metarType":"METAR","rawOb":"METAR KSAD 090151Z AUTO 00000KT 10SM CLR 28/M05 A2986 RMK AO2 SLP070 T02831050","lat":32.8565,"lon":-109.636,"elev":937,"name":"Safford Rgnl, AZ, US","cover":"CLR","clouds":[],"fltCat":"VFR"},{"icaoId":"KPHX","receiptTime":"2026-04-09T01:54:09.698Z","obsTime":1775699460,"reportTime":"2026-04-09T02:00:00.000Z","temp":33.9,"dewp":-2.8,"wdir":300,"wspd":9,"visib":"10+","altim":1007.5,"slp":1005.5,"qcField":4,"metarType":"METAR","rawOb":"METAR KPHX 090151Z 30009KT 10SM FEW110 FEW250 34/M03 A2975 RMK AO2 SLP055 T03391028","lat":33.4278,"lon":-112.0037,"elev":338,"name":"Phoenix/Sky Harbor Intl, AZ, US","cover":"FEW","clouds":[{"cover":"FEW","base":11000},{"cover":"FEW","base":25000}],"fltCat":"VFR"},{"icaoId":"KIGM","receiptTime":"2026-04-09T01:54:09.211Z","obsTime":1775699460,"reportTime":"2026-04-09T02:00:00.000Z","temp":25.6,"dewp":-8.3,"wdir":220,"wspd":13,"visib":"10+","altim":1012.6,"slp":1006.4,"qcField":6,"metarType":"METAR","rawOb":"METAR KIGM 090151Z AUTO 22013KT 10SM CLR 26/M08 A2990 RMK AO2 SLP064 T02561083","lat":35.2575,"lon":-113.9341,"elev":1045,"name":"Kingman Arpt, AZ, US","cover":"CLR","clouds":[],"fltCat":"VFR"},{"icaoId":"KIWA","receiptTime":"2026-04-09T01:49:43.797Z","obsTime":1775699220,"reportTime":"2026-04-09T02:00:00.000Z","temp":32,"dewp":-3,"wdir":340,"wspd":4,"visib":"10+","altim":1008.9,"qcField":0,"metarType":"METAR","rawOb":"METAR KIWA 090147Z 34004KT 10SM CLR 32/M03 A2979","lat":33.3008,"lon":-111.6437,"elev":420,"name":"Phoenix/Mesa Gateway Arpt, AZ, US","cover":"CLR","clouds":[],"fltCat":"VFR"},{"icaoId":"KGEU","receiptTime":"2026-04-09T01:47:33.799Z","obsTime":1775699220,"reportTime":"2026-04-09T02:00:00.000Z","temp":33,"dewp":-6,"wdir":210,"wspd":4,"visib":"10+","altim":1006.9,"qcField":0,"metarType":"METAR","rawOb":"METAR KGEU 090147Z 21004KT 10SM CLR 33/M06 A2973","lat":33.528,"lon":-112.293,"elev":319,"name":"Glendale Muni, AZ, US","cover":"CLR","clouds":[],"fltCat":"VFR"},{"icaoId":"KGYR","receiptTime":"2026-04-09T01:47:33.880Z","obsTime":1775699220,"reportTime":"2026-04-09T02:00:00.000Z","temp":33,"dewp":-2,"wdir":280,"wspd":5,"visib":"10+","altim":1007.9,"qcField":0,"metarType":"METAR","rawOb":"METAR KGYR 090147Z 28005KT 10SM FEW250 33/M02 A2976","lat":33.428,"lon":-112.368,"elev":292,"name":"Phoenix/Goodyear Muni, AZ, US","cover":"FEW","clouds":[{"cover":"FEW","base":25000}],"fltCat":"VFR"},{"icaoId":"KCHD","receiptTime":"2026-04-09T01:53:44.255Z","obsTime":1775699220,"reportTime":"2026-04-09T02:00:00.000Z","temp":32,"dewp":-2,"wdir":240,"wspd":6,"visib":"10+","altim":1008.2,"qcField":0,"metarType":"METAR","rawOb":"METAR KCHD 090147Z 24006KT 10SM CLR 32/M02 A2977","lat":33.2669,"lon":-111.8086,"elev":378,"name":"Chandler Muni, AZ, US","cover":"CLR","clouds":[],"fltCat":"VFR"},{"icaoId":"KRYN","receiptTime":"2026-04-09T01:45:52.398Z","obsTime":1775699100,"reportTime":"2026-04-09T02:00:00.000Z","temp":30,"dewp":-3,"wdir":300,"wspd":6,"visib":"10+","altim":1009.6,"qcField":0,"metarType":"METAR","rawOb":"METAR KRYN 090145Z 30006KT 10SM CLR 30/M03 A2981","lat":32.1418,"lon":-111.1767,"elev":731,"name":"Tucson/Ryan Fld, AZ, US","cover":"CLR","clouds":[],"fltCat":"VFR"}]