[{"icaoId":"KCRQ","receiptTime":"2026-04-12T09:31:06.964Z","obsTime":1775986080,"reportTime":"2026-04-12T09:28:00.000Z","temp":15.6,"dewp":12.2,"wdir":140,"wspd":4,"visib":"10+","altim":1014.6,"qcField":6,"metarType":"SPECI","rawOb":"SPECI KCRQ 120928Z AUTO 14004KT 10SM SCT024 16/12 A2996 RMK AO2 T01560122","lat":33.1299,"lon":-117.2765,"elev":96,"name":"Carlsbad/Palomar Arpt, CA, US","cover":"SCT","clouds":[{"cover":"SCT","base":2400}],"fltCat":"VFR"},{"icaoId":"KOKC","receiptTime":"2026-04-12T09:31:07.005Z","obsTime":1775986080,"reportTime":"2026-04-12T09:28:00.000Z","temp":18.3,"dewp":17.8,"wdir":180,"wspd":14,"visib":4,"altim":1013.6,"qcField":4,"wxString":"RA BR","precip":0.04,"metarType":"SPECI","rawOb":"SPECI KOKC 120928Z 18014KT 4SM RA BR SCT008 OVC015 18/18 A2993 RMK AO2 P0004 T01830178","lat":35.3843,"lon":-97.6003,"elev":391,"name":"Oklahoma City/Will Rogers Intl, OK, US","cover":"OVC","clouds":[{"cover":"SCT","base":800},{"cover":"OVC","base":1500}],"fltCat":"MVFR"},{"icaoId":"KCLL","receiptTime":"2026-04-12T09:30:08.729Z","obsTime":1775986020,"reportTime":"2026-04-12T09:27:00.000Z","temp":21.1,"dewp":19.4,"wdir":150,"wspd":8,"visib":"10+","altim":1018.4,"qcField":6,"metarType":"SPECI","rawOb":"SPECI KCLL 120927Z AUTO 15008KT 10SM BKN014 BKN060 OVC100 21/19 A3007 RMK AO2 T02110194","lat":30.5912,"lon":-96.3631,"elev":96,"name":"College Station/Easterwood Arpt, TX, US","cover":"OVC","clouds":[{"cover":"BKN","base":1400},{"cover":"BKN","base":6000},{"cover":"OVC","base":10000}],"fltCat":"MVFR"},{"icaoId":"KSBA","receiptTime":"2026-04-12T09:30:06.647Z","obsTime":1775985960,"reportTime":"2026-04-12T09:26:00.000Z","temp":14.4,"dewp":13.3,"wdir":200,"wspd":6,"visib":3,"altim":1013,"qcField":14,"wxString":"RA BR","precip":0.06,"metarType":"SPECI","rawOb":"SPECI KSBA 120926Z AUTO 20006KT 3SM RA BR FEW013 SCT024 OVC030 14/13 A2991 RMK AO2 RAB0854 P0006 T01440133 $","lat":34.4241,"lon":-119.8425,"elev":2,"name":"Santa Barbara Muni, CA, US","cover":"OVC","clouds":[{"cover":"FEW","base":1300},{"cover":"SCT","base":2400},{"cover":"OVC","base":3000}],"fltCat":"MVFR"},{"icaoId":"KLBB","receiptTime":"2026-04-12T09:28:07.895Z","obsTime":1775985900,"reportTime":"2026-04-12T09:25:00.000Z","temp":13.3,"dewp":13.3,"wdir":150,"wspd":6,"visib":"10+","altim":1015,"qcField":12,"metarType":"SPECI","rawOb":"SPECI KLBB 120925Z 15006KT 10SM SCT200 13/13 A2997 RMK AO2 T01330133 $","lat":33.6658,"lon":-101.8233,"elev":996,"name":"Lubbock Intl Arpt, TX, US","cover":"SCT","clouds":[{"cover":"SCT","base":20000}],"fltCat":"VFR"},{"icaoId":"KSPS","receiptTime":"2026-04-12T09:28:04.636Z","obsTime":1775985840,"reportTime":"2026-04-12T09:24:00.000Z","temp":19.4,"dewp":18.3,"wdir":170,"wspd":15,"visib":"10+","altim":1011.9,"qcField":6,"precip":0.01,"metarType":"SPECI","rawOb":"SPECI KSPS 120924Z AUTO 17015KT 10SM BKN009 BKN018 19/18 A2988 RMK AO2 PK WND 16030/0855 RAE14 P0001 T01940183","lat":33.9785,"lon":-98.493,"elev":310,"name":"Wichita Falls Rgnl, TX, US","cover":"BKN","clouds":[{"cover":"BKN","base":900},{"cover":"BKN","base":1800}],"fltCat":"IFR"},{"icaoId":"KABI","receiptTime":"2026-04-12T09:20:14.303Z","obsTime":1775985420,"reportTime":"2026-04-12T09:17:00.000Z","temp":17.2,"dewp":16.1,"wdir":210,"wspd":11,"wgst":20,"visib":"10+","altim":1015,"qcField":12,"metarType":"SPECI","rawOb":"SPECI KABI 120917Z 21011G20KT 10SM SCT011 BKN020 17/16 A2997 RMK AO2 T01720161 $","lat":32.4106,"lon":-99.6821,"elev":543,"name":"Abilene Rgnl, TX, US","cover":"BKN","clouds":[{"cover":"SCT","base":1100},{"cover":"BKN","base":2000}],"fltCat":"MVFR"},{"icaoId":"PANC","receiptTime":"2026-04-12T09:18:29.936Z","obsTime":1775985300,"reportTime":"2026-04-12T09:15:00.000Z","temp":0,"dewp":-0.6,"wdir":0,"wspd":0,"visib":2,"altim":1007.9,"qcField":12,"wxString":"-SN BR","precip":0.005,"metarType":"SPECI","rawOb":"SPECI PANC 120915Z 00000KT 2SM -SN BR FEW005 BKN017 OVC033 00/M01 A2976 RMK AO2 P0000 T00001006 $","lat":61.1691,"lon":-150.0277,"elev":39,"name":"Anchorage Intl, AK, US","cover":"OVC","clouds":[{"cover":"FEW","base":500},{"cover":"BKN","base":1700},{"cover":"OVC","base":3300}],"fltCat":"IFR"},{"icaoId":"KHOB","receiptTime":"2026-04-12T09:24:07.909Z","obsTime":1775985300,"reportTime":"2026-04-12T09:15:00.000Z","temp":12,"dewp":12,"wdir":190,"wspd":8,"visib":4,"altim":1016,"qcField":6,"wxString":"BR","metarType":"METAR","rawOb":"METAR KHOB 120915Z AUTO 19008KT 4SM BR BKN003 12/12 A3000 RMK AO2","lat":32.6797,"lon":-103.2222,"elev":1112,"name":"Hobbs Arpt, NM, US","cover":"BKN","clouds":[{"cover":"BKN","base":300}],"fltCat":"LIFR"},{"icaoId":"KRTS","receiptTime":"2026-04-12T09:18:30.833Z","obsTime":1775985300,"reportTime":"2026-04-12T09:15:00.000Z","temp":2,"dewp":-5,"wdir":200,"wspd":11,"visib":"10+","altim":1006.9,"qcField":6,"metarType":"METAR","rawOb":"METAR KRTS 120915Z AUTO 20011KT 10SM SCT110 02/M05 A2973 RMK AO2","lat":39.6658,"lon":-119.8731,"elev":1537,"name":"Reno/Stead Arpt, NV, US","cover":"SCT","clouds":[{"cover":"SCT","base":11000}],"fltCat":"VFR"},{"icaoId":"KMEV","receiptTime":"2026-04-12T09:18:35.834Z","obsTime":1775985300,"reportTime":"2026-04-12T09:15:00.000Z","temp":1,"dewp":-1,"wdir":160,"wspd":12,"wgst":18,"visib":"10+","altim":1008.2,"qcField":6,"metarType":"METAR","rawOb":"METAR KMEV 120915Z AUTO 16012G18KT 10SM SCT030 BKN039 OVC050 01/M01 A2977 RMK AO2","lat":38.9963,"lon":-119.75,"elev":1437,"name":"Minden-Tahoe Arpt, NV, US","cover":"OVC","clouds":[{"cover":"SCT","base":3000},{"cover":"BKN","base":3900},{"cover":"OVC","base":5000}],"fltCat":"VFR"},{"icaoId":"KLRU","receiptTime":"2026-04-12T09:18:24.110Z","obsTime":1775985300,"reportTime":"2026-04-12T09:15:00.000Z","temp":14,"dewp":7.8,"wdir":180,"wspd":5,"visib":"10+","altim":1018,"qcField":6,"metarType":"METAR","rawOb":"METAR KLRU 120915Z AUTO 18005KT 10SM SCT110 14/08 A3006 RMK AO2 T01400078","lat":32.2884,"lon":-106.9131,"elev":1355,"name":"Las Cruces Intl, NM, US","cover":"SCT","clouds":[{"cover":"SCT","base":11000}],"fltCat":"VFR"},{"icaoId":"KAEG","receiptTime":"2026-04-12T09:22:08.547Z","obsTime":1775985300,"reportTime":"2026-04-12T09:15:00.000Z","temp":6.8,"dewp":1.6,"wdir":240,"wspd":8,"visib":"10+","altim":1017,"qcField":6,"metarType":"METAR","rawOb":"METAR KAEG 120915Z AUTO 24008KT 10SM CLR 07/02 A3003 RMK AO2 T00680016","lat":35.15,"lon":-106.7929,"elev":1771,"name":"Albuquerque/Double Eagle Arpt, NM, US","cover":"CLR","clouds":[],"fltCat":"VFR"},{"icaoId":"KCXP","receiptTime":"2026-04-12T09:18:33.870Z","obsTime":1775985300,"reportTime":"2026-04-12T09:15:00.000Z","temp":2,"dewp":0,"wdir":200,"wspd":7,"visib":"10+","altim":1008.2,"qcField":6,"metarType":"METAR","rawOb":"METAR KCXP 120915Z AUTO 20007KT 10SM OVC070 02/00 A2977 RMK AO2","lat":39.1905,"lon":-119.7319,"elev":1431,"name":"Carson City Arpt, NV, US","cover":"OVC","clouds":[{"cover":"OVC","base":7000}],"fltCat":"VFR"},{"icaoId":"KHCR","receiptTime":"2026-04-12T09:18:43.251Z","obsTime":1775985300,"reportTime":"2026-04-12T09:15:00.000Z","temp":1.8,"dewp":-2.2,"wdir":0,"wspd":0,"visib":"10+","altim":1009.9,"qcField":14,"metarType":"METAR","rawOb":"METAR KHCR 120915Z AUTO 00000KT 10SM FEW250 02/M02 A2982 RMK AO2 T00181022 $","lat":40.4774,"lon":-111.4329,"elev":1708,"name":"Heber City Muni, UT, US","cover":"FEW","clouds":[{"cover":"FEW","base":25000}],"fltCat":"VFR"},{"icaoId":"KIFP","receiptTime":"2026-04-12T09:18:37.404Z","obsTime":1775985300,"reportTime":"2026-04-12T09:15:00.000Z","temp":22,"dewp":2,"wdir":200,"wspd":8,"visib":"10+","altim":1008.2,"qcField":6,"metarType":"METAR","rawOb":"METAR KIFP 120915Z AUTO 20008KT 10SM CLR 22/02 A2977 RMK AO2","lat":35.1487,"lon":-114.5611,"elev":210,"name":"Bullhead City Intl, AZ, US","cover":"CLR","clouds":[],"fltCat":"VFR"},{"icaoId":"KCHD","receiptTime":"2026-04-12T09:18:38.521Z","obsTime":1775985300,"reportTime":"2026-04-12T09:15:00.000Z","temp":18.9,"dewp":0.9,"wdir":150,"wspd":4,"visib":"10+","altim":1011.9,"qcField":14,"metarType":"METAR","rawOb":"METAR KCHD 120915Z AUTO 15004KT 10SM CLR 19/01 A2988 RMK AO2 T01890009 $","lat":33.2669,"lon":-111.8086,"elev":378,"name":"Chandler Muni, AZ, US","cover":"CLR","clouds":[],"fltCat":"VFR"},{"icaoId":"KHII","receiptTime":"2026-04-12T09:22:09.669Z","obsTime":1775985300,"reportTime":"2026-04-12T09:15:00.000Z","temp":22,"dewp":3,"wdir":130,"wspd":11,"wgst":16,"visib":"10+","altim":1008.9,"qcField":6,"metarType":"METAR","rawOb":"METAR KHII 120915Z AUTO 13011G16KT 10SM CLR 22/03 A2979 RMK AO2","lat":34.5659,"lon":-114.3522,"elev":241,"name":"Lake Havasu City Arpt, AZ, US","cover":"CLR","clouds":[],"fltCat":"VFR"},{"icaoId":"KMHR","receiptTime":"2026-04-12T09:18:35.886Z","obsTime":1775985300,"reportTime":"2026-04-12T09:15:00.000Z","temp":10,"dewp":10,"wdir":130,"wspd":9,"visib":6,"altim":1008.2,"qcField":6,"wxString":"-DZ","metarType":"METAR","rawOb":"METAR KMHR 120915Z AUTO 13009KT 6SM -DZ FEW012 BKN047 OVC055 10/10 A2977 RMK AO2","lat":38.56,"lon":-121.284,"elev":30,"name":"Sacramento/Mather Fld, CA, US","cover":"OVC","clouds":[{"cover":"FEW","base":1200},{"cover":"BKN","base":4700},{"cover":"OVC","base":5500}],"fltCat":"VFR"},{"icaoId":"KBVU","receiptTime":"2026-04-12T09:16:03.913Z","obsTime":1775985300,"reportTime":"2026-04-12T09:15:00.000Z","temp":16,"dewp":-1,"wdir":280,"wspd":5,"visib":"10+","altim":1008.5,"qcField":6,"metarType":"METAR","rawOb":"METAR KBVU 120915Z AUTO 28005KT 10SM CLR 16/M01 A2978 RMK AO2","lat":35.9489,"lon":-114.8633,"elev":654,"name":"Boulder City Muni, NV, US","cover":"CLR","clouds":[],"fltCat":"VFR"},{"icaoId":"KHAF","receiptTime":"2026-04-12T09:18:23.746Z","obsTime":1775985300,"reportTime":"2026-04-12T09:15:00.000Z","temp":12,"dewp":11,"wdir":270,"wspd":14,"wgst":22,"visib":7,"altim":1008.9,"qcField":6,"metarType":"METAR","rawOb":"METAR KHAF 120915Z AUTO 27014G22KT 7SM SCT023 BKN034 BKN042 12/11 A2979 RMK AO2","lat":37.5136,"lon":-122.4996,"elev":11,"name":"Half Moon Bay Arpt, CA, US","cover":"BKN","clouds":[{"cover":"SCT","base":2300},{"cover":"BKN","base":3400},{"cover":"BKN","base":4200}],"fltCat":"VFR"},{"icaoId":"KSOW","receiptTime":"2026-04-12T09:18:40.657Z","obsTime":1775985300,"reportTime":"2026-04-12T09:15:00.000Z","temp":8,"dewp":-1,"wdir":190,"wspd":7,"visib":"10+","altim":1019,"qcField":6,"metarType":"METAR","rawOb":"METAR KSOW 120915Z AUTO 19007KT 10SM CLR 08/M01 A3009 RMK AO2","lat":34.2686,"lon":-110.0019,"elev":1954,"name":"Show Low Muni, AZ, US","cover":"CLR","clouds":[],"fltCat":"VFR"},{"icaoId":"KIWA","receiptTime":"2026-04-12T09:18:37.517Z","obsTime":1775985300,"reportTime":"2026-04-12T09:15:00.000Z","temp":19.1,"dewp":-1.1,"wdir":110,"wspd":6,"visib":"10+","altim":1012.6,"qcField":6,"metarType":"METAR","rawOb":"METAR KIWA 120915Z AUTO 11006KT 10SM CLR 19/M01 A2990 RMK AO2 T01911011","lat":33.3008,"lon":-111.6437,"elev":420,"name":"Phoenix/Mesa Gateway Arpt, AZ, US","cover":"CLR","clouds":[],"fltCat":"VFR"},{"icaoId":"KBJC","receiptTime":"2026-04-12T09:20:15.585Z","obsTime":1775985300,"reportTime":"2026-04-12T09:15:00.000Z","temp":10,"dewp":-5,"wdir":270,"wspd":4,"visib":"10+","altim":1010.2,"qcField":6,"metarType":"METAR","rawOb":"METAR KBJC 120915Z AUTO 27004KT 10SM CLR 10/M05 A2983 RMK AO2","lat":39.9008,"lon":-105.1042,"elev":1694,"name":"Rocky Mtn Metro, CO, US","cover":"CLR","clouds":[],"fltCat":"VFR"},{"icaoId":"KSEZ","receiptTime":"2026-04-12T09:20:15.730Z","obsTime":1775985300,"reportTime":"2026-04-12T09:15:00.000Z","temp":12,"dewp":-7,"wdir":"VRB","wspd":4,"visib":"10+","altim":1016,"qcField":6,"metarType":"METAR","rawOb":"METAR KSEZ 120915Z AUTO VRB04KT 10SM CLR 12/M07 A3000 RMK AO2","lat":34.8467,"lon":-111.7884,"elev":1455,"name":"Sedona Arpt, AZ, US","cover":"CLR","clouds":[],"fltCat":"VFR"},{"icaoId":"KHTH","receiptTime":"2026-04-12T09:18:37.119Z","obsTime":1775985300,"reportTime":"2026-04-12T09:15:00.000Z","temp":11,"dewp":-2,"wdir":220,"wspd":18,"wgst":25,"visib":"10+","altim":1003.8,"qcField":6,"metarType":"METAR","rawOb":"METAR KHTH 120915Z AUTO 22018G25KT 10SM FEW080 SCT120 11/M02 A2964 RMK A01","lat":38.5448,"lon":-118.6314,"elev":1281,"name":"Hawthorne Muni, NV, US","cover":"SCT","clouds":[{"cover":"FEW","base":8000},{"cover":"SCT","base":12000}],"fltCat":"VFR"},{"icaoId":"KCRP","receiptTime":"2026-04-12T09:16:03.351Z","obsTime":1775985120,"reportTime":"2026-04-12T09:12:00.000Z","temp":23.3,"dewp":22.2,"wdir":150,"wspd":16,"wgst":23,"visib":"10+","altim":1016,"qcField":4,"wxString":"-RA","precip":0.005,"metarType":"SPECI","rawOb":"SPECI KCRP 120912Z 15016G23KT 10SM -RA BKN013 BKN020 OVC030 23/22 A3000 RMK AO2 RAB02 P0000 T02330222","lat":27.7734,"lon":-97.513,"elev":11,"name":"Corpus Christi Intl, TX, US","cover":"OVC","clouds":[{"cover":"BKN","base":1300},{"cover":"BKN","base":2000},{"cover":"OVC","base":3000}],"fltCat":"MVFR"},{"icaoId":"KACT","receiptTime":"2026-04-12T09:12:07.816Z","obsTime":1775984940,"reportTime":"2026-04-12T09:09:00.000Z","temp":18.9,"dewp":16.7,"wdir":220,"wspd":12,"wgst":24,"visib":9,"altim":1017.4,"qcField":6,"wxString":"-RA","precip":0.19,"metarType":"SPECI","rawOb":"SPECI KACT 120909Z AUTO 22012G24KT 9SM -RA SCT022 BKN037 OVC100 19/17 A3004 RMK AO2 PK WND 19036/0856 RAB0852 TSE06 P0019 T01890167","lat":31.618,"lon":-97.2283,"elev":150,"name":"Waco Rgnl, TX, US","cover":"OVC","clouds":[{"cover":"SCT","base":2200},{"cover":"BKN","base":3700},{"cover":"OVC","base":10000}],"fltCat":"VFR"},{"icaoId":"KPDX","receiptTime":"2026-04-12T09:10:07.439Z","obsTime":1775984820,"reportTime":"2026-04-12T09:07:00.000Z","temp":10.6,"dewp":8.3,"wdir":0,"wspd":0,"visib":"10+","altim":1004.1,"qcField":12,"metarType":"SPECI","rawOb":"SPECI KPDX 120907Z 00000KT 10SM SCT017 OVC075 11/08 A2965 RMK AO2 T01060083 $","lat":45.5958,"lon":-122.6092,"elev":7,"name":"Portland Intl, OR, US","cover":"OVC","clouds":[{"cover":"SCT","base":1700},{"cover":"OVC","base":7500}],"fltCat":"VFR"},{"icaoId":"KBRO","receiptTime":"2026-04-12T09:08:16.307Z","obsTime":1775984640,"reportTime":"2026-04-12T09:04:00.000Z","temp":25,"dewp":22.8,"wdir":150,"wspd":14,"wgst":20,"visib":"10+","altim":1015.7,"qcField":6,"metarType":"SPECI","rawOb":"SPECI KBRO 120904Z AUTO 15014G20KT 10SM SCT009 OVC027 25/23 A2999 RMK AO2 T02500228","lat":25.9146,"lon":-97.4231,"elev":6,"name":"Brownsville Intl, TX, US","cover":"OVC","clouds":[{"cover":"SCT","base":900},{"cover":"OVC","base":2700}],"fltCat":"MVFR"},{"icaoId":"KVNY","receiptTime":"2026-04-12T09:08:16.419Z","obsTime":1775984640,"reportTime":"2026-04-12T09:04:00.000Z","temp":13.9,"dewp":11.1,"wdir":130,"wspd":4,"visib":"10+","altim":1014,"qcField":14,"metarType":"SPECI","rawOb":"SPECI KVNY 120904Z AUTO 13004KT 10SM SCT018 BKN022 14/11 A2994 RMK AO2 T01390111 $","lat":34.2121,"lon":-118.4915,"elev":241,"name":"Van Nuys Arpt, CA, US","cover":"BKN","clouds":[{"cover":"SCT","base":1800},{"cover":"BKN","base":2200}],"fltCat":"MVFR"},{"icaoId":"KFLG","receiptTime":"2026-04-12T09:00:23.231Z","obsTime":1775984220,"reportTime":"2026-04-12T09:00:00.000Z","temp":6.7,"dewp":-9.4,"wdir":230,"wspd":13,"wgst":22,"visib":"10+","altim":1017.4,"slp":1009.9,"qcField":14,"presTend":-0.3,"metarType":"METAR","rawOb":"METAR KFLG 120857Z AUTO 23013G22KT 10SM CLR 07/M09 A3004 RMK AO2 SLP099 T00671094 58003 $","lat":35.1443,"lon":-111.6664,"elev":2134,"name":"Flagstaff/Pulliam Arpt, AZ, US","cover":"CLR","clouds":[],"fltCat":"VFR"},{"icaoId":"KNFL","receiptTime":"2026-04-12T09:00:23.115Z","obsTime":1775984220,"reportTime":"2026-04-12T09:00:00.000Z","temp":6.7,"dewp":0.6,"wdir":260,"wspd":19,"wgst":26,"visib":"10+","altim":1005.8,"slp":1003.9,"qcField":14,"presTend":0.9,"metarType":"METAR","rawOb":"METAR KNFL 120857Z AUTO 26019G26KT 10SM BKN080 OVC095 07/01 A2970 RMK AO2 PK WND 28033/0831 PRESRR SLP039 6//// T00670006 53009 PNO $","lat":39.417,"lon":-118.705,"elev":1199,"name":"Fallon , NV, US","cover":"OVC","clouds":[{"cover":"BKN","base":8000},{"cover":"OVC","base":9500}],"fltCat":"VFR"},{"icaoId":"KNYL","receiptTime":"2026-04-12T09:00:23.137Z","obsTime":1775984220,"reportTime":"2026-04-12T09:00:00.000Z","temp":20,"dewp":3.3,"wdir":310,"wspd":5,"visib":"10+","altim":1010.9,"slp":1010.7,"qcField":6,"presTend":0.4,"metarType":"METAR","rawOb":"METAR KNYL 120857Z AUTO 31005KT 10SM CLR 20/03 A2985 RMK AO2 SLP107 T02000033 50004","lat":32.66,"lon":-114.6078,"elev":58,"name":"Yuma , AZ, US","cover":"CLR","clouds":[],"fltCat":"VFR"},{"icaoId":"KEKO","receiptTime":"2026-04-12T09:00:16.965Z","obsTime":1775984160,"reportTime":"2026-04-12T09:00:00.000Z","temp":6.1,"dewp":0,"wdir":120,"wspd":4,"visib":"10+","altim":1004.5,"slp":1002.4,"qcField":6,"presTend":-1.7,"metarType":"METAR","rawOb":"METAR KEKO 120856Z AUTO 12004KT 10SM OVC080 06/00 A2966 RMK AO2 SLP024 T00610000 58017","lat":40.824,"lon":-115.7863,"elev":1541,"name":"Elko Rgnl, NV, US","cover":"OVC","clouds":[{"cover":"OVC","base":8000}],"fltCat":"VFR"},{"icaoId":"KGUC","receiptTime":"2026-04-12T08:58:20.425Z","obsTime":1775984160,"reportTime":"2026-04-12T09:00:00.000Z","temp":0,"dewp":-3.3,"wdir":0,"wspd":0,"visib":"10+","altim":1017.4,"slp":1013.8,"qcField":78,"presTend":-0.5,"metarType":"METAR","rawOb":"METAR KGUC 120856Z AUTO 00000KT 10SM SCT080 00/M03 A3004 RMK AO2 SLP138 T00001033 58005 FZRANO $","lat":38.5322,"lon":-106.9419,"elev":2337,"name":"Gunnison Arpt, CO, US","cover":"SCT","clouds":[{"cover":"SCT","base":8000}],"fltCat":"VFR"},{"icaoId":"KHND","receiptTime":"2026-04-12T08:58:20.506Z","obsTime":1775984160,"reportTime":"2026-04-12T09:00:00.000Z","temp":16.1,"dewp":1.1,"wdir":230,"wspd":10,"visib":"10+","altim":1009.9,"slp":1009.6,"qcField":14,"presTend":-1.1,"metarType":"METAR","rawOb":"METAR KHND 120856Z AUTO 23010KT 10SM CLR 16/01 A2982 RMK AO2 SLP096 T01610011 56011 $","lat":35.9657,"lon":-115.1343,"elev":740,"name":"Henderson Exec, NV, US","cover":"CLR","clouds":[],"fltCat":"VFR"},{"icaoId":"KPVU","receiptTime":"2026-04-12T08:58:19.646Z","obsTime":1775984160,"reportTime":"2026-04-12T09:00:00.000Z","temp":7.2,"dewp":1.1,"wdir":120,"wspd":7,"visib":"10+","altim":1009.2,"slp":1006.4,"qcField":6,"presTend":-0.7,"metarType":"METAR","rawOb":"METAR KPVU 120856Z AUTO 12007KT 10SM CLR 07/01 A2980 RMK AO2 SLP064 T00720011 58007","lat":40.224,"lon":-111.7252,"elev":1370,"name":"Provo Muni, UT, US","cover":"CLR","clouds":[],"fltCat":"VFR"},{"icaoId":"KSGU","receiptTime":"2026-04-12T08:58:19.826Z","obsTime":1775984160,"reportTime":"2026-04-12T09:00:00.000Z","temp":15.6,"dewp":-3.9,"wdir":130,"wspd":12,"visib":"10+","altim":1009.2,"slp":1006.6,"qcField":6,"presTend":-1,"metarType":"METAR","rawOb":"METAR KSGU 120856Z AUTO 13012KT 10SM CLR 16/M04 A2980 RMK AO2 SLP066 T01561039 58010","lat":37.0444,"lon":-113.5034,"elev":877,"name":"Saint George Muni, UT, US","cover":"CLR","clouds":[],"fltCat":"VFR"},{"icaoId":"KVIS","receiptTime":"2026-04-12T08:58:19.963Z","obsTime":1775984160,"reportTime":"2026-04-12T09:00:00.000Z","temp":12.8,"dewp":11.1,"wdir":210,"wspd":4,"visib":8,"altim":1011.9,"slp":1011.8,"qcField":14,"wxString":"RA","presTend":1,"metarType":"METAR","rawOb":"METAR KVIS 120856Z AUTO 21004KT 8SM RA BKN035 OVC045 13/11 A2988 RMK AO2 RAB0759 SLP118 6//// T01280111 53010 PNO $","lat":36.3135,"lon":-119.3884,"elev":92,"name":"Visalia Muni, CA, US","cover":"OVC","clouds":[{"cover":"BKN","base":3500},{"cover":"OVC","base":4500}],"fltCat":"VFR"},{"icaoId":"KEGE","receiptTime":"2026-04-12T08:58:20.137Z","obsTime":1775984160,"reportTime":"2026-04-12T09:00:00.000Z","temp":1.1,"dewp":-1.7,"wdir":0,"wspd":0,"visib":"10+","altim":1015.3,"slp":1012.8,"qcField":70,"presTend":-0.5,"metarType":"METAR","rawOb":"METAR KEGE 120856Z AUTO 00000KT 10SM CLR 01/M02 A2998 RMK AO2 SLP128 T00111017 58005 FZRANO","lat":39.6448,"lon":-106.9176,"elev":1993,"name":"Eagle Cnty Rgnl, CO, US","cover":"CLR","clouds":[],"fltCat":"VFR"},{"icaoId":"KENV","receiptTime":"2026-04-12T08:58:20.192Z","obsTime":1775984160,"reportTime":"2026-04-12T09:00:00.000Z","temp":9.4,"dewp":-1.1,"wdir":230,"wspd":5,"visib":"10+","altim":1006.9,"slp":1005.1,"qcField":6,"presTend":-1.9,"metarType":"METAR","rawOb":"METAR KENV 120856Z AUTO 23005KT 10SM CLR 09/M01 A2973 RMK AO2 SLP051 T00941011 58019","lat":40.7211,"lon":-114.0312,"elev":1291,"name":"Wendover Arpt, UT, US","cover":"CLR","clouds":[],"fltCat":"VFR"},{"icaoId":"KHDN","receiptTime":"2026-04-12T08:58:20.451Z","obsTime":1775984160,"reportTime":"2026-04-12T09:00:00.000Z","temp":0.6,"dewp":-0.6,"wdir":110,"wspd":3,"visib":"10+","altim":1013.6,"slp":1011.9,"qcField":70,"presTend":-0.1,"metarType":"METAR","rawOb":"METAR KHDN 120856Z AUTO 11003KT 10SM CLR 01/M01 A2993 RMK AO2 SLP119 T00061006 56001 FZRANO","lat":40.4842,"lon":-107.2296,"elev":2012,"name":"Hayden/Yampa Valley Arpt, CO, US","cover":"CLR","clouds":[],"fltCat":"VFR"},{"icaoId":"KCGZ","receiptTime":"2026-04-12T08:58:21.471Z","obsTime":1775984160,"reportTime":"2026-04-12T09:00:00.000Z","temp":17.8,"dewp":-0.6,"wdir":0,"wspd":0,"visib":"10+","altim":1013,"slp":1011.6,"qcField":14,"presTend":0.2,"metarType":"METAR","rawOb":"METAR KCGZ 120856Z AUTO 00000KT 10SM CLR 18/M01 A2991 RMK AO2 SLP116 6//// T01781006 51002 $","lat":32.9531,"lon":-111.7725,"elev":444,"name":"Casa Granda Muni, AZ, US","cover":"CLR","clouds":[],"fltCat":"VFR"},{"icaoId":"KTPH","receiptTime":"2026-04-12T09:00:19.790Z","obsTime":1775984160,"reportTime":"2026-04-12T09:00:00.000Z","temp":7.8,"dewp":-2.8,"wdir":170,"wspd":14,"visib":"10+","altim":1006.2,"slp":1002,"qcField":6,"presTend":-1.7,"metarType":"METAR","rawOb":"METAR KTPH 120856Z AUTO 17014KT 10SM CLR 08/M03 A2971 RMK AO2 SLP020 T00781028 58017","lat":38.0505,"lon":-117.0906,"elev":1647,"name":"Tonopah Arpt, NV, US","cover":"CLR","clouds":[],"fltCat":"VFR"},{"icaoId":"KSDF","receiptTime":"2026-04-12T09:00:17.472Z","obsTime":1775984160,"reportTime":"2026-04-12T09:00:00.000Z","temp":13.9,"dewp":11.1,"wdir":150,"wspd":5,"visib":"10+","altim":1022.8,"slp":1022.4,"qcField":4,"presTend":-1.8,"metarType":"METAR","rawOb":"METAR KSDF 120856Z 15005KT 10SM FEW300 14/11 A3020 RMK AO2 SLP224 T01390111 56018","lat":38.1774,"lon":-85.7308,"elev":146,"name":"Louisville Intl, KY, US","cover":"FEW","clouds":[{"cover":"FEW","base":30000}],"fltCat":"VFR"},{"icaoId":"KCEC","receiptTime":"2026-04-12T09:00:22.242Z","obsTime":1775984160,"reportTime":"2026-04-12T09:00:00.000Z","temp":7.8,"dewp":6.7,"wdir":80,"wspd":4,"visib":"10+","altim":1004.5,"slp":1004.3,"qcField":6,"presTend":-0.3,"metarType":"METAR","rawOb":"METAR KCEC 120856Z AUTO 08004KT 10SM BKN080 08/07 A2966 RMK AO2 SLP043 T00780067 58003","lat":41.7836,"lon":-124.238,"elev":17,"name":"Crescent City/McNama, CA, US","cover":"BKN","clouds":[{"cover":"BKN","base":8000}],"fltCat":"VFR"},{"icaoId":"KFNL","receiptTime":"2026-04-12T08:58:20.285Z","obsTime":1775984160,"reportTime":"2026-04-12T09:00:00.000Z","temp":12.2,"dewp":-2.2,"wdir":0,"wspd":0,"visib":"10+","altim":1009.2,"slp":1003.2,"qcField":14,"presTend":-0.5,"metarType":"METAR","rawOb":"METAR KFNL 120856Z AUTO 00000KT 10SM CLR 12/M02 A2980 RMK AO2 SLP032 T01221022 56005 $","lat":40.4427,"lon":-105.0097,"elev":1529,"name":"Fort Collins/N Colorado Rgnl, CO, US","cover":"CLR","clouds":[],"fltCat":"VFR"},{"icaoId":"KUKI","receiptTime":"2026-04-12T09:00:19.948Z","obsTime":1775984160,"reportTime":"2026-04-12T09:00:00.000Z","temp":8.3,"dewp":7.2,"wdir":160,"wspd":7,"visib":"10+","altim":1005.5,"slp":1004.9,"qcField":6,"wxString":"-RA","presTend":0.5,"precip":0.005,"pcp3hr":0.06,"metarType":"METAR","rawOb":"METAR KUKI 120856Z AUTO 16007KT 10SM -RA OVC017 08/07 A2969 RMK AO2 SLP049 P0000 60006 T00830072 53005","lat":39.1278,"lon":-123.2001,"elev":183,"name":"Ukiah Muni, CA, US","cover":"OVC","clouds":[{"cover":"OVC","base":1700}],"fltCat":"MVFR"},{"icaoId":"KCHS","receiptTime":"2026-04-12T09:00:07.018Z","obsTime":1775984160,"reportTime":"2026-04-12T09:00:00.000Z","temp":12.2,"dewp":11.7,"wdir":0,"wspd":0,"visib":"10+","altim":1025.5,"slp":1025.3,"qcField":4,"presTend":0.2,"metarType":"METAR","rawOb":"METAR KCHS 120856Z 00000KT 10SM CLR 12/12 A3028 RMK AO2 SLP253 T01220117 53002","lat":32.8995,"lon":-80.0407,"elev":12,"name":"Charleston Intl, SC, US","cover":"CLR","clouds":[],"fltCat":"VFR"},{"icaoId":"KINW","receiptTime":"2026-04-12T09:00:07.268Z","obsTime":1775984160,"reportTime":"2026-04-12T09:00:00.000Z","temp":7.8,"dewp":-1.1,"wdir":0,"wspd":0,"visib":"10+","altim":1016.3,"slp":1011.4,"qcField":6,"presTend":0.2,"metarType":"METAR","rawOb":"METAR KINW 120856Z AUTO 00000KT 10SM CLR 08/M01 A3001 RMK AO2 SLP114 T00781011 50002","lat":35.0279,"lon":-110.7221,"elev":1492,"name":"Winslow/Lindberg Rgnl, AZ, US","cover":"CLR","clouds":[],"fltCat":"VFR"},{"icaoId":"KJAX","receiptTime":"2026-04-12T09:00:09.553Z","obsTime":1775984160,"reportTime":"2026-04-12T09:00:00.000Z","temp":11.7,"dewp":10.6,"wdir":0,"wspd":0,"visib":"10+","altim":1024.5,"slp":1024.2,"qcField":12,"presTend":-0.5,"metarType":"METAR","rawOb":"METAR KJAX 120856Z 00000KT 10SM CLR 12/11 A3025 RMK AO2 SLP242 T01170106 55005 $","lat":30.4953,"lon":-81.6937,"elev":8,"name":"Jacksonville Intl, FL, US","cover":"CLR","clouds":[],"fltCat":"VFR"},{"icaoId":"KLAS","receiptTime":"2026-04-12T09:00:13.016Z","obsTime":1775984160,"reportTime":"2026-04-12T09:00:00.000Z","temp":17.8,"dewp":1.1,"wdir":220,"wspd":11,"visib":"10+","altim":1009.2,"slp":1007.2,"qcField":4,"presTend":-0.7,"metarType":"METAR","rawOb":"METAR KLAS 120856Z 22011KT 10SM SCT200 18/01 A2980 RMK AO2 SLP072 T01780011 58007","lat":36.0719,"lon":-115.1634,"elev":662,"name":"Las Vegas/Reid Intl, NV, US","cover":"SCT","clouds":[{"cover":"SCT","base":20000}],"fltCat":"VFR"},{"icaoId":"KSFO","receiptTime":"2026-04-12T09:00:17.163Z","obsTime":1775984160,"reportTime":"2026-04-12T09:00:00.000Z","temp":12.2,"dewp":8.9,"wdir":210,"wspd":11,"visib":"10+","altim":1008.2,"slp":1008.1,"qcField":12,"presTend":0.3,"precip":0.005,"pcp3hr":0.07,"metarType":"METAR","rawOb":"METAR KSFO 120856Z 21011KT 10SM SCT024 BKN033 BKN044 12/09 A2977 RMK AO2 RAB08E18B41E52 SLP081 P0000 60007 T01220089 53003 $","lat":37.6196,"lon":-122.3656,"elev":2,"name":"San Francisco Intl, CA, US","cover":"BKN","clouds":[{"cover":"SCT","base":2400},{"cover":"BKN","base":3300},{"cover":"BKN","base":4400}],"fltCat":"VFR"},{"icaoId":"KSBP","receiptTime":"2026-04-12T09:00:17.456Z","obsTime":1775984160,"reportTime":"2026-04-12T09:00:00.000Z","temp":12.8,"dewp":11.1,"wdir":90,"wspd":4,"visib":"10+","altim":1012.6,"slp":1012.3,"qcField":6,"presTend":0.2,"precip":0.005,"pcp3hr":0.52,"metarType":"METAR","rawOb":"METAR KSBP 120856Z AUTO 09004KT 10SM SCT026 BKN050 OVC060 13/11 A2990 RMK AO2 RAE14 SLP123 P0000 60052 T01280111 50002","lat":35.2381,"lon":-120.644,"elev":52,"name":"San Luis Obispo/San Luis Cnty, CA, US","cover":"OVC","clouds":[{"cover":"SCT","base":2600},{"cover":"BKN","base":5000},{"cover":"OVC","base":6000}],"fltCat":"VFR"},{"icaoId":"KDUG","receiptTime":"2026-04-12T09:02:26.136Z","obsTime":1775984160,"reportTime":"2026-04-12T09:00:00.000Z","temp":11.7,"dewp":-1.1,"wdir":120,"wspd":4,"visib":"10+","altim":1017.7,"slp":1012.1,"qcField":38,"presTend":0.1,"metarType":"METAR","rawOb":"METAR KDUG 120856Z AUTO 12004KT 10SM CLR 12/M01 A3005 RMK AO2 SLP121 T01171011 50001 TSNO","lat":31.4725,"lon":-109.6022,"elev":1260,"name":"Douglas/Bisbee Intl, AZ, US","cover":"CLR","clouds":[],"fltCat":"VFR"},{"icaoId":"KRNO","receiptTime":"2026-04-12T08:58:19.701Z","obsTime":1775984100,"reportTime":"2026-04-12T09:00:00.000Z","temp":2.8,"dewp":1.1,"wdir":140,"wspd":11,"visib":"10+","altim":1006.5,"slp":1004.3,"qcField":4,"presTend":-0.4,"precip":0.005,"pcp3hr":0.03,"metarType":"METAR","rawOb":"METAR KRNO 120855Z 14011KT 10SM SCT021 BKN043 OVC070 03/01 A2972 RMK AO2 RAE15B43E49 SLP043 P0000 60003 T00280011 58004","lat":39.5077,"lon":-119.7683,"elev":1344,"name":"Reno/Tahoe Intl, NV, US","cover":"OVC","clouds":[{"cover":"SCT","base":2100},{"cover":"BKN","base":4300},{"cover":"OVC","base":7000}],"fltCat":"VFR"},{"icaoId":"KCMA","receiptTime":"2026-04-12T08:58:21.500Z","obsTime":1775984100,"reportTime":"2026-04-12T09:00:00.000Z","temp":16.1,"dewp":12.2,"wdir":190,"wspd":3,"visib":"10+","altim":1014,"slp":1014.6,"qcField":6,"presTend":-0.9,"metarType":"METAR","rawOb":"METAR KCMA 120855Z AUTO 19003KT 10SM SCT050 BKN070 16/12 A2994 RMK AO2 SLP146 T01610122 58009","lat":34.2114,"lon":-119.0876,"elev":20,"name":"Camarillo Arpt, CA, US","cover":"BKN","clouds":[{"cover":"SCT","base":5000},{"cover":"BKN","base":7000}],"fltCat":"VFR"},{"icaoId":"KMEM","receiptTime":"2026-04-12T08:58:17.029Z","obsTime":1775984040,"reportTime":"2026-04-12T09:00:00.000Z","temp":17.2,"dewp":10.6,"wdir":190,"wspd":7,"visib":"10+","altim":1020.7,"slp":1020.4,"qcField":12,"presTend":-1.3,"metarType":"METAR","rawOb":"METAR KMEM 120854Z 19007KT 10SM SCT250 17/11 A3014 RMK AO2 SLP204 T01720106 56013 $","lat":35.0564,"lon":-89.9864,"elev":78,"name":"Memphis Intl, TN, US","cover":"SCT","clouds":[{"cover":"SCT","base":25000}],"fltCat":"VFR"},{"icaoId":"KOLS","receiptTime":"2026-04-12T08:58:17.222Z","obsTime":1775984040,"reportTime":"2026-04-12T09:00:00.000Z","temp":15,"dewp":-0.6,"wdir":180,"wspd":3,"visib":"10+","altim":1017,"slp":1011.2,"qcField":6,"presTend":-0.6,"metarType":"METAR","rawOb":"METAR KOLS 120854Z AUTO 18003KT 10SM CLR 15/M01 A3003 RMK AO2 SLP112 T01501006 58006","lat":31.4208,"lon":-110.8465,"elev":1194,"name":"Nogales Intl, AZ, US","cover":"CLR","clouds":[],"fltCat":"VFR"},{"icaoId":"KGCN","receiptTime":"2026-04-12T08:58:08.239Z","obsTime":1775984040,"reportTime":"2026-04-12T09:00:00.000Z","temp":-0.6,"dewp":-7.8,"wdir":0,"wspd":0,"visib":"10+","altim":1016.7,"slp":1011.8,"qcField":6,"presTend":-0.2,"metarType":"METAR","rawOb":"METAR KGCN 120854Z AUTO 00000KT 10SM CLR M01/M08 A3002 RMK AO2 SLP118 T10061078 58002","lat":35.9458,"lon":-112.1554,"elev":1993,"name":"Grand Canyon Park Arpt, AZ, US","cover":"CLR","clouds":[],"fltCat":"VFR"},{"icaoId":"KBFL","receiptTime":"2026-04-12T08:58:07.771Z","obsTime":1775984040,"reportTime":"2026-04-12T09:00:00.000Z","temp":16.7,"dewp":6.1,"wdir":120,"wspd":7,"visib":"10+","altim":1010.6,"slp":1010,"qcField":14,"presTend":0.1,"metarType":"METAR","rawOb":"METAR KBFL 120854Z AUTO 12007KT 10SM SCT090 BKN110 17/06 A2984 RMK AO2 SLP100 T01670061 53001 $","lat":35.4342,"lon":-119.0552,"elev":146,"name":"Bakersfield/Meadows Arpt, CA, US","cover":"BKN","clouds":[{"cover":"SCT","base":9000},{"cover":"BKN","base":11000}],"fltCat":"VFR"},{"icaoId":"KGSO","receiptTime":"2026-04-12T08:58:14.369Z","obsTime":1775984040,"reportTime":"2026-04-12T09:00:00.000Z","temp":13.9,"dewp":8.3,"wdir":20,"wspd":6,"visib":"10+","altim":1026.5,"slp":1025.5,"qcField":4,"presTend":0.7,"metarType":"METAR","rawOb":"METAR KGSO 120854Z 02006KT 10SM FEW250 14/08 A3031 RMK AO2 SLP255 T01390083 53007","lat":36.0969,"lon":-79.9432,"elev":275,"name":"Greensboro Intl, NC, US","cover":"FEW","clouds":[{"cover":"FEW","base":25000}],"fltCat":"VFR"},{"icaoId":"KSJN","receiptTime":"2026-04-12T08:58:17.479Z","obsTime":1775984040,"reportTime":"2026-04-12T09:00:00.000Z","temp":7.8,"dewp":-1.7,"wdir":190,"wspd":3,"visib":"10+","altim":1017.4,"slp":1010.6,"qcField":6,"presTend":0.2,"metarType":"METAR","rawOb":"METAR KSJN 120854Z AUTO 19003KT 10SM CLR 08/M02 A3004 RMK AO2 SLP106 T00781017 50002","lat":34.5184,"lon":-109.3801,"elev":1747,"name":"St Johns Ind Arpt, AZ, US","cover":"CLR","clouds":[],"fltCat":"VFR"},{"icaoId":"KIND","receiptTime":"2026-04-12T08:58:08.388Z","obsTime":1775984040,"reportTime":"2026-04-12T09:00:00.000Z","temp":11.7,"dewp":5.6,"wdir":130,"wspd":8,"visib":"10+","altim":1022.1,"slp":1021.8,"qcField":4,"presTend":-1.5,"metarType":"METAR","rawOb":"METAR KIND 120854Z 13008KT 10SM BKN250 12/06 A3018 RMK AO2 SLP218 T01170056 56015","lat":39.7252,"lon":-86.2816,"elev":242,"name":"Indianapolis Intl, IN, US","cover":"BKN","clouds":[{"cover":"BKN","base":25000}],"fltCat":"VFR"},{"icaoId":"KFFZ","receiptTime":"2026-04-12T08:58:13.164Z","obsTime":1775984040,"reportTime":"2026-04-12T09:00:00.000Z","temp":19.4,"dewp":-1.7,"wdir":120,"wspd":4,"visib":"10+","altim":1011.9,"slp":1009.8,"qcField":38,"presTend":0.4,"metarType":"METAR","rawOb":"METAR KFFZ 120854Z AUTO 12004KT 10SM CLR 19/M02 A2988 RMK AO2 SLP098 T01941017 51004 TSNO","lat":33.4659,"lon":-111.7212,"elev":420,"name":"Mesa/Falcon Fld, AZ, US","cover":"CLR","clouds":[],"fltCat":"VFR"},{"icaoId":"KDSM","receiptTime":"2026-04-12T08:58:14.340Z","obsTime":1775984040,"reportTime":"2026-04-12T09:00:00.000Z","temp":18.9,"dewp":15,"wdir":190,"wspd":17,"wgst":25,"visib":"10+","altim":1009.9,"slp":1009.6,"qcField":4,"presTend":-2.7,"metarType":"METAR","rawOb":"METAR KDSM 120854Z 19017G25KT 10SM BKN100 BKN250 19/15 A2982 RMK AO2 SLP096 T01890150 58027","lat":41.5339,"lon":-93.6531,"elev":286,"name":"Des Moines Intl, IA, US","cover":"BKN","clouds":[{"cover":"BKN","base":10000},{"cover":"BKN","base":25000}],"fltCat":"VFR"},{"icaoId":"KCOS","receiptTime":"2026-04-12T08:58:14.296Z","obsTime":1775984040,"reportTime":"2026-04-12T09:00:00.000Z","temp":6.7,"dewp":-6.1,"wdir":30,"wspd":5,"visib":"10+","altim":1012.3,"slp":1007.1,"qcField":4,"presTend":-0.6,"metarType":"METAR","rawOb":"METAR KCOS 120854Z 03005KT 10SM CLR 07/M06 A2989 RMK AO2 SLP071 T00671061 58006","lat":38.8095,"lon":-104.6887,"elev":1886,"name":"Colorado Spring Arpt, CO, US","cover":"CLR","clouds":[],"fltCat":"VFR"},{"icaoId":"KRIC","receiptTime":"2026-04-12T08:58:14.531Z","obsTime":1775984040,"reportTime":"2026-04-12T09:00:00.000Z","temp":11.7,"dewp":8.9,"wdir":0,"wspd":0,"visib":"10+","altim":1029.2,"slp":1029.5,"qcField":4,"presTend":0.3,"metarType":"METAR","rawOb":"METAR KRIC 120854Z 00000KT 10SM BKN060 12/09 A3039 RMK AO2 SLP295 T01170089 53003","lat":37.5115,"lon":-77.3234,"elev":51,"name":"Richmond Intl, VA, US","cover":"BKN","clouds":[{"cover":"BKN","base":6000}],"fltCat":"VFR"},{"icaoId":"KPHL","receiptTime":"2026-04-12T08:58:17.253Z","obsTime":1775984040,"reportTime":"2026-04-12T09:00:00.000Z","temp":8.3,"dewp":-2.2,"wdir":50,"wspd":6,"visib":"10+","altim":1031.6,"slp":1031.4,"qcField":12,"presTend":1.3,"metarType":"METAR","rawOb":"METAR KPHL 120854Z 05006KT 10SM CLR 08/M02 A3046 RMK AO2 SLP314 T00831022 53013 $","lat":39.8733,"lon":-75.2268,"elev":2,"name":"Philadelphia Intl, PA, US","cover":"CLR","clouds":[],"fltCat":"VFR"},{"icaoId":"KBTV","receiptTime":"2026-04-12T08:58:14.243Z","obsTime":1775984040,"reportTime":"2026-04-12T09:00:00.000Z","temp":-1.7,"dewp":-5,"wdir":0,"wspd":0,"visib":"10+","altim":1031.2,"slp":1031.5,"qcField":6,"presTend":0.8,"metarType":"METAR","rawOb":"METAR KBTV 120854Z AUTO 00000KT 10SM CLR M02/M05 A3045 RMK AO2 SLP315 T10171050 53008","lat":44.4682,"lon":-73.1499,"elev":101,"name":"Burlington Intl, VT, US","cover":"CLR","clouds":[],"fltCat":"VFR"},{"icaoId":"KBUF","receiptTime":"2026-04-12T08:58:14.264Z","obsTime":1775984040,"reportTime":"2026-04-12T09:00:00.000Z","temp":2.2,"dewp":-2.2,"wdir":130,"wspd":11,"visib":"10+","altim":1027.9,"slp":1028.4,"qcField":12,"presTend":-1.5,"metarType":"METAR","rawOb":"METAR KBUF 120854Z 13011KT 10SM OVC100 02/M02 A3035 RMK AO2 PRESFR SLP284 T00221022 58015 $","lat":42.94,"lon":-78.7361,"elev":217,"name":"Buffalo-Niagara Intl, NY, US","cover":"OVC","clouds":[{"cover":"OVC","base":10000}],"fltCat":"VFR"},{"icaoId":"KBWI","receiptTime":"2026-04-12T08:58:07.814Z","obsTime":1775984040,"reportTime":"2026-04-12T09:00:00.000Z","temp":8.9,"dewp":2.2,"wdir":50,"wspd":7,"visib":"10+","altim":1030.2,"slp":1030.1,"qcField":4,"presTend":1.4,"metarType":"METAR","rawOb":"METAR KBWI 120854Z 05007KT 10SM FEW075 FEW250 09/02 A3042 RMK AO2 SLP301 T00890022 51014","lat":39.1733,"lon":-76.684,"elev":42,"name":"Baltimore-Washington Intl, MD, US","cover":"FEW","clouds":[{"cover":"FEW","base":7500},{"cover":"FEW","base":25000}],"fltCat":"VFR"},{"icaoId":"KBOS","receiptTime":"2026-04-12T08:58:07.787Z","obsTime":1775984040,"reportTime":"2026-04-12T09:00:00.000Z","temp":5,"dewp":-5.6,"wdir":310,"wspd":10,"visib":"10+","altim":1031.2,"slp":1030.9,"qcField":4,"presTend":0.9,"metarType":"METAR","rawOb":"METAR KBOS 120854Z 31010KT 10SM CLR 05/M06 A3045 RMK AO2 SLP309 T00501056 53009","lat":42.3606,"lon":-71.0097,"elev":4,"name":"Boston/Logan Intl, MA, US","cover":"CLR","clouds":[],"fltCat":"VFR"},{"icaoId":"KAPC","receiptTime":"2026-04-12T08:58:07.690Z","obsTime":1775984040,"reportTime":"2026-04-12T09:00:00.000Z","temp":11.7,"dewp":8.3,"wdir":230,"wspd":11,"visib":"10+","altim":1007.9,"slp":1006.8,"qcField":6,"presTend":0.5,"precip":0.005,"pcp3hr":0.13,"metarType":"METAR","rawOb":"METAR KAPC 120854Z AUTO 23011KT 10SM FEW040 12/08 A2976 RMK AO2 RAB0756E31 SLP068 P0000 60013 T01170083 53005","lat":38.2075,"lon":-122.2804,"elev":5,"name":"Napa Cnty Arpt, CA, US","cover":"FEW","clouds":[{"cover":"FEW","base":4000}],"fltCat":"VFR"},{"icaoId":"KROC","receiptTime":"2026-04-12T08:58:14.567Z","obsTime":1775984040,"reportTime":"2026-04-12T09:00:00.000Z","temp":-0.6,"dewp":-1.7,"wdir":0,"wspd":0,"visib":"10+","altim":1029.9,"slp":1030.7,"qcField":4,"presTend":-0.2,"metarType":"METAR","rawOb":"METAR KROC 120854Z 00000KT 10SM CLR M01/M02 A3041 RMK AO2 SLP307 T10061017 57002","lat":43.1172,"lon":-77.6754,"elev":166,"name":"Rochester Intl Arpt, NY, US","cover":"CLR","clouds":[],"fltCat":"VFR"},{"icaoId":"KSYR","receiptTime":"2026-04-12T08:58:14.671Z","obsTime":1775984040,"reportTime":"2026-04-12T09:00:00.000Z","temp":-0.6,"dewp":-2.8,"wdir":100,"wspd":5,"visib":"10+","altim":1030.9,"slp":1030.8,"qcField":12,"presTend":-0.2,"metarType":"METAR","rawOb":"METAR KSYR 120854Z 10005KT 10SM SCT250 M01/M03 A3044 RMK AO2 SLP308 T10061028 56002 $","lat":43.1111,"lon":-76.1038,"elev":125,"name":"Syracuse/Hancock Intl, NY, US","cover":"SCT","clouds":[{"cover":"SCT","base":25000}],"fltCat":"VFR"},{"icaoId":"KSLC","receiptTime":"2026-04-12T08:58:17.492Z","obsTime":1775984040,"reportTime":"2026-04-12T09:00:00.000Z","temp":10.6,"dewp":0.6,"wdir":150,"wspd":9,"visib":"10+","altim":1007.9,"slp":1004.9,"qcField":12,"presTend":-1.3,"metarType":"METAR","rawOb":"METAR KSLC 120854Z 15009KT 10SM FEW130 SCT250 11/01 A2976 RMK AO2 SLP049 T01060006 58013 $","lat":40.7707,"lon":-111.965,"elev":1286,"name":"Salt Lake City Intl, UT, US","cover":"SCT","clouds":[{"cover":"FEW","base":13000},{"cover":"SCT","base":25000}],"fltCat":"VFR"},{"icaoId":"KPGA","receiptTime":"2026-04-12T08:56:41.165Z","obsTime":1775983980,"reportTime":"2026-04-12T09:00:00.000Z","temp":14.4,"dewp":-7.2,"wdir":210,"wspd":7,"visib":"10+","altim":1012.3,"slp":1007,"qcField":14,"metarType":"METAR","rawOb":"METAR KPGA 120853Z AUTO 21007KT 10SM CLR 14/M07 A2989 RMK AO2 SLP070 T01441072 50000 $","lat":36.9211,"lon":-111.4487,"elev":1310,"name":"Page Muni, AZ, US","cover":"CLR","clouds":[],"fltCat":"VFR"},{"icaoId":"KSAF","receiptTime":"2026-04-12T08:56:42.115Z","obsTime":1775983980,"reportTime":"2026-04-12T09:00:00.000Z","temp":5,"dewp":3.3,"wdir":0,"wspd":0,"visib":"","altim":1017.4,"slp":1010.4,"qcField":14,"presTend":-0.5,"metarType":"METAR","rawOb":"METAR KSAF 120853Z AUTO 00000KT CLR 05/03 A3004 RMK AO2 SLP104 T00500033 58005 $","lat":35.611,"lon":-106.0957,"elev":1918,"name":"Santa Fe Cnty Muni, NM, US","cover":"CLR","clouds":[]},{"icaoId":"KSNA","receiptTime":"2026-04-12T08:56:42.322Z","obsTime":1775983980,"reportTime":"2026-04-12T09:00:00.000Z","temp":16.1,"dewp":12.2,"wdir":150,"wspd":3,"visib":"10+","altim":1015,"slp":1014.8,"qcField":14,"presTend":-0.6,"metarType":"METAR","rawOb":"METAR KSNA 120853Z AUTO 15003KT 10SM FEW055 16/12 A2997 RMK AO2 SLP148 T01610122 58006 $","lat":33.6798,"lon":-117.8675,"elev":14,"name":"Santa Ana/Wayne Arpt, CA, US","cover":"FEW","clouds":[{"cover":"FEW","base":5500}],"fltCat":"VFR"},{"icaoId":"KMCI","receiptTime":"2026-04-12T08:56:39.944Z","obsTime":1775983980,"reportTime":"2026-04-12T09:00:00.000Z","temp":20,"dewp":15,"wdir":190,"wspd":16,"wgst":22,"visib":"10+","altim":1013,"slp":1012,"qcField":4,"presTend":-0.9,"metarType":"METAR","rawOb":"METAR KMCI 120853Z 19016G22KT 10SM SCT090 OVC210 20/15 A2991 RMK AO2 SLP120 T02000150 58009","lat":39.2975,"lon":-94.7309,"elev":308,"name":"Kansas City Intl, MO, US","cover":"OVC","clouds":[{"cover":"SCT","base":9000},{"cover":"OVC","base":21000}],"fltCat":"VFR"},{"icaoId":"KMYR","receiptTime":"2026-04-12T08:56:32.049Z","obsTime":1775983980,"reportTime":"2026-04-12T09:00:00.000Z","temp":13.9,"dewp":11.7,"wdir":0,"wspd":0,"visib":"10+","altim":1026.8,"slp":1026.5,"qcField":14,"presTend":0.6,"metarType":"METAR","rawOb":"METAR KMYR 120853Z AUTO 00000KT 10SM CLR 14/12 A3032 RMK AO2 SLP265 T01390117 53006 $","lat":33.6769,"lon":-78.9325,"elev":7,"name":"Myrtle Beach Intl, SC, US","cover":"CLR","clouds":[],"fltCat":"VFR"},{"icaoId":"KAMA","receiptTime":"2026-04-12T08:56:34.803Z","obsTime":1775983980,"reportTime":"2026-04-12T09:00:00.000Z","temp":14.4,"dewp":10.6,"wdir":200,"wspd":12,"visib":"10+","altim":1014,"slp":1009.7,"qcField":6,"presTend":-1.3,"metarType":"METAR","rawOb":"METAR KAMA 120853Z AUTO 20012KT 10SM CLR 14/11 A2994 RMK AO2 SLP097 T01440106 56013","lat":35.2203,"lon":-101.7173,"elev":1102,"name":"Amarillo Intl Arpt, TX, US","cover":"CLR","clouds":[],"fltCat":"VFR"},{"icaoId":"KAPA","receiptTime":"2026-04-12T08:56:34.910Z","obsTime":1775983980,"reportTime":"2026-04-12T09:00:00.000Z","temp":9.4,"dewp":-7.2,"wdir":180,"wspd":8,"visib":"10+","altim":1010.6,"slp":1005.1,"qcField":4,"presTend":-0.8,"metarType":"METAR","rawOb":"METAR KAPA 120853Z 18008KT 10SM CLR 09/M07 A2984 RMK AO2 SLP051 T00941072 58008","lat":39.5599,"lon":-104.8484,"elev":1791,"name":"Denver/Centennial Arpt, CO, US","cover":"CLR","clouds":[],"fltCat":"VFR"},{"icaoId":"KBCE","receiptTime":"2026-04-12T08:56:35.157Z","obsTime":1775983980,"reportTime":"2026-04-12T09:00:00.000Z","temp":-7.2,"dewp":-11.7,"wdir":0,"wspd":0,"visib":"10+","altim":1015.3,"slp":1009.5,"qcField":6,"presTend":-0.9,"metarType":"METAR","rawOb":"METAR KBCE 120853Z AUTO 00000KT 10SM CLR M07/M12 A2998 RMK AO2 SLP095 T10721117 58009","lat":37.7013,"lon":-112.149,"elev":2311,"name":"Bryce Canyon Arpt, UT, US","cover":"CLR","clouds":[],"fltCat":"VFR"},{"icaoId":"KCNY","receiptTime":"2026-04-12T08:56:39.338Z","obsTime":1775983980,"reportTime":"2026-04-12T09:00:00.000Z","temp":9.4,"dewp":-7.8,"wdir":0,"wspd":0,"visib":"10+","altim":1010.2,"slp":1007.6,"qcField":14,"presTend":0.3,"metarType":"METAR","rawOb":"METAR KCNY 120853Z AUTO 00000KT 10SM CLR 09/M08 A2983 RMK AO2 SLP076 T00941078 50003 $","lat":38.7501,"lon":-109.7627,"elev":1392,"name":"Moab/Canyonland Fld, UT, US","cover":"CLR","clouds":[],"fltCat":"VFR"},{"icaoId":"KDEN","receiptTime":"2026-04-12T08:56:39.432Z","obsTime":1775983980,"reportTime":"2026-04-12T09:00:00.000Z","temp":6.7,"dewp":-6.1,"wdir":200,"wspd":7,"visib":"10+","altim":1009.9,"slp":1003.8,"qcField":4,"presTend":-0.2,"metarType":"METAR","rawOb":"METAR KDEN 120853Z 20007KT 10SM CLR 07/M06 A2982 RMK AO2 SLP038 T00671061 58002","lat":39.8466,"lon":-104.6562,"elev":1656,"name":"Denver Intl, CO, US","cover":"CLR","clouds":[],"fltCat":"VFR"},{"icaoId":"KDMN","receiptTime":"2026-04-12T08:56:35.393Z","obsTime":1775983980,"reportTime":"2026-04-12T09:00:00.000Z","temp":13.3,"dewp":1.1,"wdir":0,"wspd":0,"visib":"10+","altim":1017.7,"slp":1011.6,"qcField":6,"metarType":"METAR","rawOb":"METAR KDMN 120853Z AUTO 00000KT 10SM BKN120 13/01 A3005 RMK AO2 SLP116 T01330011 58000","lat":32.2592,"lon":-107.7206,"elev":1310,"name":"Deming Muni, NM, US","cover":"BKN","clouds":[{"cover":"BKN","base":12000}],"fltCat":"VFR"},{"icaoId":"KDTW","receiptTime":"2026-04-12T08:56:39.489Z","obsTime":1775983980,"reportTime":"2026-04-12T09:00:00.000Z","temp":5.6,"dewp":-1.7,"wdir":110,"wspd":4,"visib":"10+","altim":1025.1,"slp":1025.2,"qcField":4,"wxString":"-RA","presTend":-2.3,"precip":0.005,"pcp3hr":0.005,"metarType":"METAR","rawOb":"METAR KDTW 120853Z 11004KT 10SM -RA FEW045 BKN065 OVC100 06/M02 A3027 RMK AO2 RAB35 SLP252 P0000 60000 T00561017 57023","lat":42.2311,"lon":-83.3312,"elev":192,"name":"Detroit/Metro Wayne Cnty, MI, US","cover":"OVC","clouds":[{"cover":"FEW","base":4500},{"cover":"BKN","base":6500},{"cover":"OVC","base":10000}],"fltCat":"VFR"},{"icaoId":"KHOU","receiptTime":"2026-04-12T08:56:41.798Z","obsTime":1775983980,"reportTime":"2026-04-12T09:00:00.000Z","temp":22.8,"dewp":20,"wdir":150,"wspd":15,"visib":9,"altim":1018.4,"slp":1018.6,"qcField":12,"presTend":-1.5,"metarType":"METAR","rawOb":"METAR KHOU 120853Z 15015KT 9SM FEW015 SCT025 BKN035 23/20 A3007 RMK AO2 SLP186 T02280200 58015 $","lat":29.6458,"lon":-95.2821,"elev":13,"name":"Houston/Hobby Arpt, TX, US","cover":"BKN","clouds":[{"cover":"FEW","base":1500},{"cover":"SCT","base":2500},{"cover":"BKN","base":3500}],"fltCat":"VFR"},{"icaoId":"KMFE","receiptTime":"2026-04-12T08:56:40.036Z","obsTime":1775983980,"reportTime":"2026-04-12T09:00:00.000Z","temp":24.4,"dewp":22.2,"wdir":160,"wspd":11,"visib":"10+","altim":1015.3,"slp":1015.1,"qcField":14,"presTend":-1.3,"metarType":"METAR","rawOb":"METAR KMFE 120853Z AUTO 16011KT 10SM OVC014 24/22 A2998 RMK AO2 SLP151 T02440222 56013 $","lat":26.1791,"lon":-98.2445,"elev":29,"name":"McAllen/Miller Intl, TX, US","cover":"OVC","clouds":[{"cover":"OVC","base":1400}],"fltCat":"MVFR"},{"icaoId":"KMYF","receiptTime":"2026-04-12T08:56:38.761Z","obsTime":1775983980,"reportTime":"2026-04-12T09:00:00.000Z","temp":14.4,"dewp":11.1,"wdir":0,"wspd":0,"visib":"10+","altim":1015.7,"slp":1015.3,"qcField":6,"presTend":-0.7,"metarType":"METAR","rawOb":"METAR KMYF 120853Z AUTO 00000KT 10SM CLR 14/11 A2999 RMK AO2 SLP153 T01440111 58007","lat":32.8145,"lon":-117.1375,"elev":128,"name":"San Diego/Montgomery Arpt, CA, US","cover":"CLR","clouds":[],"fltCat":"VFR"},{"icaoId":"KTPA","receiptTime":"2026-04-12T08:56:37.502Z","obsTime":1775983980,"reportTime":"2026-04-12T09:00:00.000Z","temp":18.3,"dewp":14.4,"wdir":0,"wspd":0,"visib":"10+","altim":1023.5,"slp":1023.3,"qcField":4,"presTend":-0.8,"metarType":"METAR","rawOb":"METAR KTPA 120853Z 00000KT 10SM CLR 18/14 A3022 RMK AO2 SLP233 T01830144 55008","lat":27.9633,"lon":-82.54,"elev":2,"name":"Tampa Intl Arpt, FL, US","cover":"CLR","clouds":[],"fltCat":"VFR"},{"icaoId":"KFMN","receiptTime":"2026-04-12T08:56:40.792Z","obsTime":1775983980,"reportTime":"2026-04-12T09:00:00.000Z","temp":5,"dewp":-4.4,"wdir":30,"wspd":4,"visib":"10+","altim":1016,"slp":1012.9,"qcField":6,"presTend":0.2,"metarType":"METAR","rawOb":"METAR KFMN 120853Z AUTO 03004KT 10SM CLR 05/M04 A3000 RMK AO2 SLP129 T00501044 50002","lat":36.7435,"lon":-108.2293,"elev":1677,"name":"Farmington/Four Corners Rgnl, NM, US","cover":"CLR","clouds":[],"fltCat":"VFR"},{"icaoId":"KTUL","receiptTime":"2026-04-12T08:56:37.567Z","obsTime":1775983980,"reportTime":"2026-04-12T09:00:00.000Z","temp":20.6,"dewp":15.6,"wdir":160,"wspd":10,"visib":"10+","altim":1015,"slp":1014.1,"qcField":4,"presTend":-1.9,"metarType":"METAR","rawOb":"METAR KTUL 120853Z 16010KT 10SM SCT090 SCT110 BKN200 21/16 A2997 RMK AO2 SLP141 T02060156 56019","lat":36.1985,"lon":-95.8782,"elev":196,"name":"Tulsa Intl Arpt, OK, US","cover":"BKN","clouds":[{"cover":"SCT","base":9000},{"cover":"SCT","base":11000},{"cover":"BKN","base":20000}],"fltCat":"VFR"},{"icaoId":"KTUS","receiptTime":"2026-04-12T08:56:39.653Z","obsTime":1775983980,"reportTime":"2026-04-12T09:00:00.000Z","temp":19.4,"dewp":-1.1,"wdir":160,"wspd":8,"visib":"10+","altim":1015.3,"slp":1010.9,"qcField":4,"presTend":-0.4,"metarType":"METAR","rawOb":"METAR KTUS 120853Z 16008KT 10SM CLR 19/M01 A2998 RMK AO2 SLP109 T01941011 58004","lat":32.1315,"lon":-110.9564,"elev":776,"name":"Tucson Intl Arpt, AZ, US","cover":"CLR","clouds":[],"fltCat":"VFR"},{"icaoId":"KPRC","receiptTime":"2026-04-12T08:56:39.545Z","obsTime":1775983980,"reportTime":"2026-04-12T09:00:00.000Z","temp":7.2,"dewp":-4.4,"wdir":170,"wspd":5,"visib":"10+","altim":1016,"slp":1010.7,"qcField":6,"presTend":-0.1,"metarType":"METAR","rawOb":"METAR KPRC 120853Z AUTO 17005KT 10SM CLR 07/M04 A3000 RMK AO2 SLP107 T00721044 58001","lat":34.6491,"lon":-112.4223,"elev":1528,"name":"Prescott/Love Fld, AZ, US","cover":"CLR","clouds":[],"fltCat":"VFR"},{"icaoId":"KPSP","receiptTime":"2026-04-12T08:56:39.570Z","obsTime":1775983980,"reportTime":"2026-04-12T09:00:00.000Z","temp":18.3,"dewp":5,"wdir":320,"wspd":7,"wgst":19,"visib":"10+","altim":1011.9,"slp":1011.7,"qcField":6,"presTend":0.6,"metarType":"METAR","rawOb":"METAR KPSP 120853Z AUTO 32007G19KT 10SM CLR 18/05 A2988 RMK AO2 SLP117 T01830050 50006","lat":33.8222,"lon":-116.5043,"elev":123,"name":"Palm Springs Intl, CA, US","cover":"CLR","clouds":[],"fltCat":"VFR"},{"icaoId":"KRDD","receiptTime":"2026-04-12T08:56:39.612Z","obsTime":1775983980,"reportTime":"2026-04-12T09:00:00.000Z","temp":8.9,"dewp":5.6,"wdir":0,"wspd":0,"visib":"10+","altim":1005.5,"slp":1005.4,"qcField":14,"wxString":"-RA","presTend":-0.7,"precip":0.005,"pcp3hr":0.005,"metarType":"METAR","rawOb":"METAR KRDD 120853Z AUTO 00000KT 10SM -RA BKN041 OVC050 09/06 A2969 RMK AO2 RAB47 SLP054 P0000 60000 T00890056 58007 $","lat":40.5146,"lon":-122.2977,"elev":152,"name":"Redding Muni, CA, US","cover":"OVC","clouds":[{"cover":"BKN","base":4100},{"cover":"OVC","base":5000}],"fltCat":"VFR"},{"icaoId":"KRTN","receiptTime":"2026-04-12T08:56:38.298Z","obsTime":1775983980,"reportTime":"2026-04-12T09:00:00.000Z","temp":3.3,"dewp":3.3,"wdir":60,"wspd":4,"visib":"10+","altim":1015.3,"slp":1011.3,"qcField":6,"presTend":-0.5,"metarType":"METAR","rawOb":"METAR KRTN 120853Z AUTO 06004KT 10SM CLR 03/03 A2998 RMK AO2 SLP113 T00330033 55005","lat":36.7418,"lon":-104.5076,"elev":1939,"name":"Raton/Crews Fld, NM, US","cover":"CLR","clouds":[],"fltCat":"VFR"},{"icaoId":"KOAK","receiptTime":"2026-04-12T08:56:38.796Z","obsTime":1775983980,"reportTime":"2026-04-12T09:00:00.000Z","temp":12.8,"dewp":8.9,"wdir":210,"wspd":9,"visib":"10+","altim":1008.5,"slp":1008.3,"qcField":12,"presTend":-0.1,"precip":0.005,"pcp3hr":0.08,"metarType":"METAR","rawOb":"METAR KOAK 120853Z 21009KT 10SM BKN026 BKN050 13/09 A2978 RMK AO2 RAB33E41 SLP083 P0000 60008 T01280089 58001 $","lat":37.7178,"lon":-122.233,"elev":3,"name":"Oakland Intl, CA, US","cover":"BKN","clouds":[{"cover":"BKN","base":2600},{"cover":"BKN","base":5000}],"fltCat":"MVFR"},{"icaoId":"KPBI","receiptTime":"2026-04-12T08:56:39.128Z","obsTime":1775983980,"reportTime":"2026-04-12T09:00:00.000Z","temp":22.8,"dewp":13.3,"wdir":70,"wspd":9,"visib":"10+","altim":1022.1,"slp":1022,"qcField":12,"presTend":-0.9,"metarType":"METAR","rawOb":"METAR KPBI 120853Z 07009KT 10SM BKN045 23/13 A3018 RMK AO2 SLP220 T02280133 55009 $","lat":26.6851,"lon":-80.0992,"elev":4,"name":"Palm Beach Intl, FL, US","cover":"BKN","clouds":[{"cover":"BKN","base":4500}],"fltCat":"VFR"},{"icaoId":"KBUR","receiptTime":"2026-04-12T08:56:27.347Z","obsTime":1775983980,"reportTime":"2026-04-12T09:00:00.000Z","temp":15,"dewp":11.7,"wdir":140,"wspd":7,"visib":"10+","altim":1014.3,"slp":1013.3,"qcField":4,"presTend":-1.2,"pcp3hr":0.005,"metarType":"METAR","rawOb":"METAR KBUR 120853Z 14007KT 10SM OVC060 15/12 A2995 RMK AO2 SLP133 60000 T01500117 58012","lat":34.1996,"lon":-118.3654,"elev":221,"name":"Burbank/Bob Hope Arpt, CA, US","cover":"OVC","clouds":[{"cover":"OVC","base":6000}],"fltCat":"VFR"},{"icaoId":"KCDC","receiptTime":"2026-04-12T08:56:27.522Z","obsTime":1775983980,"reportTime":"2026-04-12T09:00:00.000Z","temp":11.1,"dewp":-5.6,"wdir":200,"wspd":20,"wgst":28,"visib":"10+","altim":1010.9,"slp":1005.3,"qcField":6,"presTend":-1.5,"metarType":"METAR","rawOb":"METAR KCDC 120853Z AUTO 20020G28KT 10SM CLR 11/M06 A2985 RMK AO2 PK WND 20032/0834 SLP053 T01111056 58015","lat":37.7067,"lon":-113.097,"elev":1703,"name":"Cedar City Muni, UT, US","cover":"CLR","clouds":[],"fltCat":"VFR"},{"icaoId":"KCNM","receiptTime":"2026-04-12T08:56:27.902Z","obsTime":1775983980,"reportTime":"2026-04-12T09:00:00.000Z","temp":13.9,"dewp":12.2,"wdir":0,"wspd":0,"visib":"10+","altim":1015.3,"slp":1011.3,"qcField":6,"metarType":"METAR","rawOb":"METAR KCNM 120853Z AUTO 00000KT 10SM CLR 14/12 A2998 RMK AO2 SLP113 T01390122 50000","lat":32.3336,"lon":-104.2584,"elev":993,"name":"Carlsbad/Cavern City Air Term, NM, US","cover":"CLR","clouds":[],"fltCat":"VFR"},{"icaoId":"KPUB","receiptTime":"2026-04-12T08:56:38.071Z","obsTime":1775983980,"reportTime":"2026-04-12T09:00:00.000Z","temp":5,"dewp":0,"wdir":260,"wspd":4,"visib":"10+","altim":1010.2,"slp":1007.3,"qcField":12,"metarType":"METAR","rawOb":"METAR KPUB 120853Z 26004KT 10SM CLR 05/00 A2983 RMK AO2 SLP073 T00500000 58000 $","lat":38.2887,"lon":-104.5057,"elev":1441,"name":"Pueblo Mem Arpt, CO, US","cover":"CLR","clouds":[],"fltCat":"VFR"},{"icaoId":"KSDL","receiptTime":"2026-04-12T08:56:42.155Z","obsTime":1775983980,"reportTime":"2026-04-12T09:00:00.000Z","temp":20,"dewp":0,"wdir":0,"wspd":0,"visib":"10+","altim":1012.6,"slp":1010.2,"qcField":6,"presTend":0.2,"metarType":"METAR","rawOb":"METAR KSDL 120853Z AUTO 00000KT 10SM CLR 20/00 A2990 RMK AO2 SLP102 T02000000 50002","lat":33.6123,"lon":-111.9232,"elev":438,"name":"Scottsdale Muni, AZ, US","cover":"CLR","clouds":[],"fltCat":"VFR"},{"icaoId":"KSEA","receiptTime":"2026-04-12T08:56:41.210Z","obsTime":1775983980,"reportTime":"2026-04-12T09:00:00.000Z","temp":7.8,"dewp":7.2,"wdir":330,"wspd":5,"visib":0.5,"altim":1005.5,"slp":1006,"qcField":4,"wxString":"FG","presTend":-0.7,"vertVis":2,"metarType":"METAR","rawOb":"METAR KSEA 120853Z 33005KT 1/2SM R16L/2600V4500FT FG VV002 08/07 A2969 RMK AO2 SLP060 T00780072 58007","lat":47.4447,"lon":-122.3144,"elev":115,"name":"Seattle-Tacoma Intl, WA, US","cover":"OVX","clouds":[{"cover":"OVX","base":200}],"fltCat":"LIFR"},{"icaoId":"KMCO","receiptTime":"2026-04-12T08:56:39.979Z","obsTime":1775983980,"reportTime":"2026-04-12T09:00:00.000Z","temp":16.1,"dewp":13.9,"wdir":30,"wspd":5,"visib":"10+","altim":1023.8,"slp":1023.6,"qcField":4,"presTend":-1.3,"metarType":"METAR","rawOb":"METAR KMCO 120853Z 03005KT 10SM CLR 16/14 A3023 RMK AO2 SLP236 T01610139 55013","lat":28.4182,"lon":-81.3241,"elev":27,"name":"Orlando Intl, FL, US","cover":"CLR","clouds":[],"fltCat":"VFR"},{"icaoId":"KACV","receiptTime":"2026-04-12T08:56:33.278Z","obsTime":1775983980,"reportTime":"2026-04-12T09:00:00.000Z","temp":6.7,"dewp":5.6,"wdir":60,"wspd":3,"visib":"10+","altim":1002.8,"slp":1003.4,"qcField":6,"presTend":-0.8,"metarType":"METAR","rawOb":"METAR KACV 120853Z AUTO 06003KT 10SM FEW110 07/06 A2961 RMK AO2 SLP034 T00670056 55008","lat":40.9784,"lon":-124.1048,"elev":63,"name":"Arcata Arpt, CA, US","cover":"FEW","clouds":[{"cover":"FEW","base":11000}],"fltCat":"VFR"},{"icaoId":"KIAH","receiptTime":"2026-04-12T08:56:33.535Z","obsTime":1775983980,"reportTime":"2026-04-12T09:00:00.000Z","temp":22.8,"dewp":20,"wdir":140,"wspd":12,"visib":7,"altim":1018.7,"slp":1018.4,"qcField":4,"presTend":-1.1,"metarType":"METAR","rawOb":"METAR KIAH 120853Z 14012KT 7SM SCT019 BKN025 OVC033 23/20 A3008 RMK AO2 SLP184 T02280200 58011","lat":29.9844,"lon":-95.3607,"elev":27,"name":"Houston/Bush Intl, TX, US","cover":"OVC","clouds":[{"cover":"SCT","base":1900},{"cover":"BKN","base":2500},{"cover":"OVC","base":3300}],"fltCat":"MVFR"},{"icaoId":"KLGB","receiptTime":"2026-04-12T08:56:33.911Z","obsTime":1775983980,"reportTime":"2026-04-12T09:00:00.000Z","temp":16.7,"dewp":11.7,"wdir":180,"wspd":3,"visib":"10+","altim":1014.6,"slp":1014.4,"qcField":14,"presTend":-0.7,"metarType":"METAR","rawOb":"METAR KLGB 120853Z AUTO 18003KT 10SM OVC060 17/12 A2996 RMK AO2 SLP144 T01670117 58007 $","lat":33.8118,"lon":-118.1472,"elev":10,"name":"Long Beach Arpt, CA, US","cover":"OVC","clouds":[{"cover":"OVC","base":6000}],"fltCat":"VFR"},{"icaoId":"KLOL","receiptTime":"2026-04-12T08:56:34.003Z","obsTime":1775983980,"reportTime":"2026-04-12T09:00:00.000Z","temp":7.8,"dewp":-0.6,"wdir":270,"wspd":12,"wgst":19,"visib":"10+","altim":1005.8,"slp":1004.4,"qcField":6,"presTend":1.2,"metarType":"METAR","rawOb":"METAR KLOL 120853Z AUTO 27012G19KT 10SM BKN070 OVC090 08/M01 A2970 RMK AO2 SLP044 T00781006 53012","lat":40.0684,"lon":-118.5702,"elev":1191,"name":"Lovelock/Derby Fld, NV, US","cover":"OVC","clouds":[{"cover":"BKN","base":7000},{"cover":"OVC","base":9000}],"fltCat":"VFR"},{"icaoId":"KDAL","receiptTime":"2026-04-12T08:56:34.630Z","obsTime":1775983980,"reportTime":"2026-04-12T09:00:00.000Z","temp":21.1,"dewp":17.8,"wdir":160,"wspd":12,"wgst":25,"visib":"10+","altim":1016.7,"slp":1016,"qcField":4,"presTend":-0.5,"metarType":"METAR","rawOb":"METAR KDAL 120853Z 16012G25KT 10SM OVC018 21/18 A3002 RMK AO2 PK WND 16026/0759 SLP160 T02110178 58005","lat":32.8384,"lon":-96.8358,"elev":148,"name":"Dallas/Love Fld, TX, US","cover":"OVC","clouds":[{"cover":"OVC","base":1800}],"fltCat":"MVFR"},{"icaoId":"KAUS","receiptTime":"2026-04-12T08:56:35.052Z","obsTime":1775983980,"reportTime":"2026-04-12T09:00:00.000Z","temp":22.2,"dewp":19.4,"wdir":150,"wspd":8,"visib":"10+","altim":1017.4,"slp":1016.2,"qcField":4,"presTend":-0.4,"metarType":"METAR","rawOb":"METAR KAUS 120853Z 15008KT 10SM BKN015 OVC021 22/19 A3004 RMK AO2 SLP162 T02220194 58004","lat":30.1831,"lon":-97.6806,"elev":148,"name":"Austin/Bergstrom Intl, TX, US","cover":"OVC","clouds":[{"cover":"BKN","base":1500},{"cover":"OVC","base":2100}],"fltCat":"MVFR"},{"icaoId":"KBHM","receiptTime":"2026-04-12T08:56:35.305Z","obsTime":1775983980,"reportTime":"2026-04-12T09:00:00.000Z","temp":12.2,"dewp":9.4,"wdir":0,"wspd":0,"visib":"10+","altim":1024.5,"slp":1023.6,"qcField":4,"presTend":-0.7,"metarType":"METAR","rawOb":"METAR KBHM 120853Z 00000KT 10SM CLR 12/09 A3025 RMK AO2 SLP236 T01220094 56007","lat":33.5655,"lon":-86.7449,"elev":191,"name":"Birmingham Intl, AL, US","cover":"CLR","clouds":[],"fltCat":"VFR"},{"icaoId":"KGEG","receiptTime":"2026-04-12T08:56:40.862Z","obsTime":1775983980,"reportTime":"2026-04-12T09:00:00.000Z","temp":7.8,"dewp":5,"wdir":140,"wspd":6,"visib":"10+","altim":1004.8,"slp":1004.6,"qcField":12,"presTend":-0.2,"metarType":"METAR","rawOb":"METAR KGEG 120853Z 14006KT 10SM FEW055 SCT080 SCT180 08/05 A2967 RMK AO2 SLP046 T00780050 58002 $","lat":47.6217,"lon":-117.528,"elev":718,"name":"Spokane Intl, WA, US","cover":"SCT","clouds":[{"cover":"FEW","base":5500},{"cover":"SCT","base":8000},{"cover":"SCT","base":18000}],"fltCat":"VFR"},{"icaoId":"KVEL","receiptTime":"2026-04-12T08:56:37.735Z","obsTime":1775983980,"reportTime":"2026-04-12T09:00:00.000Z","temp":5,"dewp":0,"wdir":300,"wspd":6,"visib":"10+","altim":1010.9,"slp":1007.4,"qcField":6,"presTend":-0.4,"metarType":"METAR","rawOb":"METAR KVEL 120853Z AUTO 30006KT 10SM CLR 05/00 A2985 RMK AO2 SLP074 T00500000 58004","lat":40.4429,"lon":-109.5128,"elev":1604,"name":"Vernal Rgnl, UT, US","cover":"CLR","clouds":[],"fltCat":"VFR"},{"icaoId":"KMSP","receiptTime":"2026-04-12T08:56:38.620Z","obsTime":1775983980,"reportTime":"2026-04-12T09:00:00.000Z","temp":12.2,"dewp":11.1,"wdir":150,"wspd":9,"visib":8,"altim":1006.2,"slp":1006.5,"qcField":4,"presTend":-4,"metarType":"METAR","rawOb":"METAR KMSP 120853Z 15009KT 8SM OVC012 12/11 A2971 RMK AO2 SLP065 T01220111 58040","lat":44.8852,"lon":-93.2313,"elev":255,"name":"Minneapolis-St Paul Intl, MN, US","cover":"OVC","clouds":[{"cover":"OVC","base":1200}],"fltCat":"MVFR"},{"icaoId":"KMTJ","receiptTime":"2026-04-12T08:56:38.697Z","obsTime":1775983980,"reportTime":"2026-04-12T09:00:00.000Z","temp":9.4,"dewp":-3.3,"wdir":100,"wspd":3,"visib":"10+","altim":1014.3,"slp":1009.5,"qcField":6,"presTend":-0.2,"metarType":"METAR","rawOb":"METAR KMTJ 120853Z AUTO 10003KT 10SM FEW100 09/M03 A2995 RMK AO2 SLP095 T00941033 58002","lat":38.5054,"lon":-107.8981,"elev":1755,"name":"Montrose Rgnl, CO, US","cover":"FEW","clouds":[{"cover":"FEW","base":10000}],"fltCat":"VFR"},{"icaoId":"KONT","receiptTime":"2026-04-12T08:56:38.918Z","obsTime":1775983980,"reportTime":"2026-04-12T09:00:00.000Z","temp":14.4,"dewp":10.6,"wdir":220,"wspd":5,"visib":"10+","altim":1015,"slp":1014.1,"qcField":12,"presTend":-0.4,"metarType":"METAR","rawOb":"METAR KONT 120853Z 22005KT 10SM FEW032 BKN041 14/11 A2997 RMK AO2 SLP141 T01440106 58004 $","lat":34.0531,"lon":-117.5769,"elev":279,"name":"Ontario Intl, CA, US","cover":"BKN","clouds":[{"cover":"FEW","base":3200},{"cover":"BKN","base":4100}],"fltCat":"VFR"},{"icaoId":"KDRO","receiptTime":"2026-04-12T08:56:39.469Z","obsTime":1775983980,"reportTime":"2026-04-12T09:00:00.000Z","temp":0.6,"dewp":-2.2,"wdir":80,"wspd":3,"visib":"10+","altim":1017.7,"slp":1014.8,"qcField":6,"presTend":0.1,"metarType":"METAR","rawOb":"METAR KDRO 120853Z AUTO 08003KT 10SM CLR 01/M02 A3005 RMK AO2 SLP148 T00061022 50001","lat":37.1431,"lon":-107.7602,"elev":2021,"name":"Durango/La Plata Cnty, CO, US","cover":"CLR","clouds":[],"fltCat":"VFR"},{"icaoId":"KVGT","receiptTime":"2026-04-12T08:56:39.706Z","obsTime":1775983980,"reportTime":"2026-04-12T09:00:00.000Z","temp":17.8,"dewp":0,"wdir":220,"wspd":8,"visib":"10+","altim":1008.5,"slp":1008.5,"qcField":4,"presTend":-0.5,"metarType":"METAR","rawOb":"METAR KVGT 120853Z 22008KT 10SM CLR 18/00 A2978 RMK AO2 SLP085 T01780000 58005","lat":36.212,"lon":-115.194,"elev":664,"name":"Las Vegas/North Arpt, NV, US","cover":"CLR","clouds":[],"fltCat":"VFR"},{"icaoId":"KLVS","receiptTime":"2026-04-12T08:56:39.823Z","obsTime":1775983980,"reportTime":"2026-04-12T09:00:00.000Z","temp":5,"dewp":3.3,"wdir":160,"wspd":12,"visib":"10+","altim":1017.4,"slp":1011.9,"qcField":14,"presTend":-0.8,"metarType":"METAR","rawOb":"METAR KLVS 120853Z AUTO 16012KT 10SM CLR 05/03 A3004 RMK AO2 SLP119 6//// T00500033 56008 PNO $","lat":35.6558,"lon":-105.1385,"elev":2095,"name":"Las Vegas Muni, NM, US","cover":"CLR","clouds":[],"fltCat":"VFR"},{"icaoId":"KMAF","receiptTime":"2026-04-12T08:56:39.880Z","obsTime":1775983980,"reportTime":"2026-04-12T09:00:00.000Z","temp":14.4,"dewp":13.9,"wdir":170,"wspd":6,"visib":5,"altim":1016,"slp":1012.6,"qcField":6,"wxString":"BR","presTend":-0.4,"metarType":"METAR","rawOb":"METAR KMAF 120853Z AUTO 17006KT 5SM BR CLR 14/14 A3000 RMK AO2 SLP126 T01440139 58004","lat":31.9475,"lon":-102.2086,"elev":874,"name":"Midland Intl, TX, US","cover":"CLR","clouds":[],"fltCat":"MVFR"},{"icaoId":"KMDW","receiptTime":"2026-04-12T08:56:40.019Z","obsTime":1775983980,"reportTime":"2026-04-12T09:00:00.000Z","temp":15,"dewp":6.7,"wdir":180,"wspd":11,"wgst":18,"visib":"10+","altim":1018,"slp":1017.7,"qcField":4,"presTend":-2.4,"metarType":"METAR","rawOb":"METAR KMDW 120853Z 18011G18KT 10SM FEW085 BKN120 15/07 A3006 RMK AO2 SLP177 T01500067 57024","lat":41.7841,"lon":-87.7552,"elev":186,"name":"Chicago/Midway Intl, IL, US","cover":"BKN","clouds":[{"cover":"FEW","base":8500},{"cover":"BKN","base":12000}],"fltCat":"VFR"},{"icaoId":"KMOD","receiptTime":"2026-04-12T08:56:40.364Z","obsTime":1775983980,"reportTime":"2026-04-12T09:00:00.000Z","temp":11.1,"dewp":8.9,"wdir":140,"wspd":6,"visib":"10+","altim":1009.2,"slp":1009,"qcField":6,"presTend":-0.1,"metarType":"METAR","rawOb":"METAR KMOD 120853Z AUTO 14006KT 10SM BKN055 BKN075 OVC090 11/09 A2980 RMK AO2 SLP090 T01110089 58001","lat":37.6254,"lon":-120.9549,"elev":25,"name":"Modesto/Sham Fld, CA, US","cover":"OVC","clouds":[{"cover":"BKN","base":5500},{"cover":"BKN","base":7500},{"cover":"OVC","base":9000}],"fltCat":"VFR"},{"icaoId":"KFAT","receiptTime":"2026-04-12T08:56:40.779Z","obsTime":1775983980,"reportTime":"2026-04-12T09:00:00.000Z","temp":13.3,"dewp":11.1,"wdir":230,"wspd":9,"visib":8,"altim":1011.3,"slp":1010.7,"qcField":12,"wxString":"-RA","presTend":0.9,"precip":0.02,"pcp3hr":0.15,"metarType":"METAR","rawOb":"METAR KFAT 120853Z 23009KT 8SM -RA BKN029 OVC065 13/11 A2986 RMK AO2 SLP107 P0002 60015 T01330111 53009 $","lat":36.78,"lon":-119.7202,"elev":102,"name":"Fresno/Yosemite Intl, CA, US","cover":"OVC","clouds":[{"cover":"BKN","base":2900},{"cover":"OVC","base":6500}],"fltCat":"MVFR"},{"icaoId":"KLAX","receiptTime":"2026-04-12T08:56:40.991Z","obsTime":1775983980,"reportTime":"2026-04-12T09:00:00.000Z","temp":16.1,"dewp":12.2,"wdir":140,"wspd":7,"visib":"10+","altim":1014.6,"slp":1014.3,"qcField":12,"presTend":-0.9,"pcp3hr":0.005,"metarType":"METAR","rawOb":"METAR KLAX 120853Z 14007KT 10SM FEW018 SCT024 BKN030 16/12 A2996 RMK AO2 SLP143 60000 T01610122 58009 $","lat":33.9382,"lon":-118.3866,"elev":30,"name":"Los Angeles Intl, CA, US","cover":"BKN","clouds":[{"cover":"FEW","base":1800},{"cover":"SCT","base":2400},{"cover":"BKN","base":3000}],"fltCat":"MVFR"},{"icaoId":"KGSP","receiptTime":"2026-04-12T08:56:41.447Z","obsTime":1775983980,"reportTime":"2026-04-12T09:00:00.000Z","temp":10.6,"dewp":8.3,"wdir":350,"wspd":3,"visib":"10+","altim":1025.5,"slp":1024.4,"qcField":6,"presTend":0.3,"metarType":"METAR","rawOb":"METAR KGSP 120853Z AUTO 35003KT 10SM CLR 11/08 A3028 RMK AO2 SLP244 T01060083 53003","lat":34.8842,"lon":-82.2209,"elev":285,"name":"Greenville-Spartanburg Intl, SC, US","cover":"CLR","clouds":[],"fltCat":"VFR"},{"icaoId":"KSJC","receiptTime":"2026-04-12T08:56:42.269Z","obsTime":1775983980,"reportTime":"2026-04-12T09:00:00.000Z","temp":10.6,"dewp":7.8,"wdir":150,"wspd":6,"visib":"10+","altim":1009.2,"slp":1009.1,"qcField":6,"presTend":0.2,"precip":0.005,"pcp3hr":0.02,"metarType":"METAR","rawOb":"METAR KSJC 120853Z AUTO 15006KT 10SM CLR 11/08 A2980 RMK AO2 RAB0758E21 SLP091 P0000 60002 T01060078 50002","lat":37.3594,"lon":-121.9244,"elev":13,"name":"San Jose Intl Arpt, CA, US","cover":"CLR","clouds":[],"fltCat":"VFR"},{"icaoId":"KSMF","receiptTime":"2026-04-12T08:56:42.295Z","obsTime":1775983980,"reportTime":"2026-04-12T09:00:00.000Z","temp":10.6,"dewp":8.3,"wdir":140,"wspd":12,"visib":"10+","altim":1007.9,"slp":1007.6,"qcField":12,"presTend":-0.5,"precip":0.005,"pcp3hr":0.005,"metarType":"METAR","rawOb":"METAR KSMF 120853Z 14012KT 10SM BKN035 BKN048 OVC060 11/08 A2976 RMK AO2 RAB23E44 SLP076 P0000 60000 T01060083 57005 $","lat":38.7007,"lon":-121.5948,"elev":7,"name":"Sacramento Intl, CA, US","cover":"OVC","clouds":[{"cover":"BKN","base":3500},{"cover":"BKN","base":4800},{"cover":"OVC","base":6000}],"fltCat":"VFR"},{"icaoId":"KELY","receiptTime":"2026-04-12T08:56:40.728Z","obsTime":1775983980,"reportTime":"2026-04-12T09:00:00.000Z","temp":7.8,"dewp":-11.1,"wdir":160,"wspd":16,"wgst":26,"visib":"10+","altim":1008.2,"slp":1001.7,"qcField":6,"presTend":-1.4,"metarType":"METAR","rawOb":"METAR KELY 120853Z AUTO 16016G26KT 10SM CLR 08/M11 A2977 RMK AO2 PK WND 16026/0851 SLP017 T00781111 58014","lat":39.2954,"lon":-114.8466,"elev":1906,"name":"Ely/Yelland Fld, NV, US","cover":"CLR","clouds":[],"fltCat":"VFR"},{"icaoId":"KOGD","receiptTime":"2026-04-12T08:56:38.840Z","obsTime":1775983980,"reportTime":"2026-04-12T09:00:00.000Z","temp":7.8,"dewp":1.1,"wdir":160,"wspd":6,"visib":"10+","altim":1007.5,"slp":1005.3,"qcField":6,"presTend":-1.1,"metarType":"METAR","rawOb":"METAR KOGD 120853Z AUTO 16006KT 10SM CLR 08/01 A2975 RMK AO2 SLP053 T00780011 58011","lat":41.1941,"lon":-112.0168,"elev":1356,"name":"Ogden/Hinckley Arpt, UT, US","cover":"CLR","clouds":[],"fltCat":"VFR"},{"icaoId":"KASE","receiptTime":"2026-04-12T08:56:34.986Z","obsTime":1775983980,"reportTime":"2026-04-12T09:00:00.000Z","temp":4.4,"dewp":-2.8,"wdir":0,"wspd":0,"visib":"10+","altim":1015.3,"slp":1007.3,"qcField":6,"presTend":-0.7,"metarType":"METAR","rawOb":"METAR KASE 120853Z AUTO 00000KT 10SM OVC090 04/M03 A2998 RMK AO2 SLP073 T00441028 58007","lat":39.2299,"lon":-106.8705,"elev":2384,"name":"Aspen/Pitkin Cnty, CO, US","cover":"OVC","clouds":[{"cover":"OVC","base":9000}],"fltCat":"VFR"},{"icaoId":"KMIA","receiptTime":"2026-04-12T08:56:40.138Z","obsTime":1775983980,"reportTime":"2026-04-12T09:00:00.000Z","temp":22.2,"dewp":14.4,"wdir":60,"wspd":6,"visib":"10+","altim":1021.1,"slp":1021.1,"qcField":4,"metarType":"METAR","rawOb":"METAR KMIA 120853Z 06006KT 10SM FEW050 22/14 A3015 RMK AO2 SLP211 T02220144","lat":25.7881,"lon":-80.3169,"elev":1,"name":"Miami Intl, FL, US","cover":"FEW","clouds":[{"cover":"FEW","base":5000}],"fltCat":"VFR"},{"icaoId":"KMSY","receiptTime":"2026-04-12T08:56:38.661Z","obsTime":1775983980,"reportTime":"2026-04-12T09:00:00.000Z","temp":17.8,"dewp":16.7,"wdir":110,"wspd":5,"visib":"10+","altim":1022.1,"slp":1022.2,"qcField":4,"presTend":-1.2,"metarType":"METAR","rawOb":"METAR KMSY 120853Z 11005KT 10SM CLR 18/17 A3018 RMK AO2 SLP222 T01780167 55012","lat":29.9974,"lon":-90.2777,"elev":0,"name":"New Orleans/Armstrong Intl, LA, US","cover":"CLR","clouds":[],"fltCat":"VFR"},{"icaoId":"KFUL","receiptTime":"2026-04-12T08:56:25.325Z","obsTime":1775983980,"reportTime":"2026-04-12T09:00:00.000Z","temp":15.6,"dewp":11.7,"wdir":0,"wspd":0,"visib":"10+","altim":1014.6,"slp":1014.5,"qcField":6,"presTend":-0.5,"metarType":"METAR","rawOb":"METAR KFUL 120853Z AUTO 00000KT 10SM FEW060 16/12 A2996 RMK AO2 SLP145 T01560117 58005","lat":33.8715,"lon":-117.9856,"elev":23,"name":"Fullerton Muni, CA, US","cover":"FEW","clouds":[{"cover":"FEW","base":6000}],"fltCat":"VFR"},{"icaoId":"KGJT","receiptTime":"2026-04-12T08:56:29.725Z","obsTime":1775983980,"reportTime":"2026-04-12T09:00:00.000Z","temp":10,"dewp":-0.6,"wdir":90,"wspd":12,"visib":"10+","altim":1011.3,"slp":1006.6,"qcField":4,"presTend":0.1,"metarType":"METAR","rawOb":"METAR KGJT 120853Z 09012KT 10SM CLR 10/M01 A2986 RMK AO2 SLP066 T01001006 50001","lat":39.1344,"lon":-108.5408,"elev":1475,"name":"Grand Junction Rgnl, CO, US","cover":"CLR","clouds":[],"fltCat":"VFR"},{"icaoId":"KDFW","receiptTime":"2026-04-12T08:56:26.403Z","obsTime":1775983980,"reportTime":"2026-04-12T09:00:00.000Z","temp":21.1,"dewp":17.8,"wdir":170,"wspd":14,"wgst":25,"visib":"10+","altim":1016,"slp":1015.1,"qcField":4,"wxString":"-RA","presTend":-0.6,"precip":0.01,"pcp3hr":0.01,"metarType":"METAR","rawOb":"METAR KDFW 120853Z 17014G25KT 10SM -RA BKN019 OVC095 21/18 A3000 RMK AO2 PK WND 16030/0833 RAB40 SLP151 P0001 60001 T02110178 58006","lat":32.8974,"lon":-97.022,"elev":168,"name":"Dallas-Ft Worth Intl, TX, US","cover":"OVC","clouds":[{"cover":"BKN","base":1900},{"cover":"OVC","base":9500}],"fltCat":"MVFR"},{"icaoId":"KDVT","receiptTime":"2026-04-12T08:56:26.707Z","obsTime":1775983980,"reportTime":"2026-04-12T09:00:00.000Z","temp":17.8,"dewp":-4.4,"wdir":110,"wspd":6,"visib":"10+","altim":1012.3,"slp":1010.1,"qcField":4,"presTend":0.4,"metarType":"METAR","rawOb":"METAR KDVT 120853Z 11006KT 10SM CLR 18/M04 A2989 RMK AO2 SLP101 T01781044 50004","lat":33.6902,"lon":-112.0662,"elev":454,"name":"Phoenix/Deer Valley Arpt, AZ, US","cover":"CLR","clouds":[],"fltCat":"VFR"},{"icaoId":"KBNA","receiptTime":"2026-04-12T08:56:29.511Z","obsTime":1775983980,"reportTime":"2026-04-12T09:00:00.000Z","temp":13.9,"dewp":12.2,"wdir":170,"wspd":3,"visib":"10+","altim":1023.5,"slp":1023,"qcField":12,"presTend":-0.6,"metarType":"METAR","rawOb":"METAR KBNA 120853Z 17003KT 10SM SCT250 14/12 A3022 RMK AO2 SLP230 T01390122 56006 $","lat":36.1105,"lon":-86.6881,"elev":168,"name":"Nashville Intl, TN, US","cover":"SCT","clouds":[{"cover":"SCT","base":25000}],"fltCat":"VFR"},{"icaoId":"KABQ","receiptTime":"2026-04-12T08:56:35.766Z","obsTime":1775983920,"reportTime":"2026-04-12T09:00:00.000Z","temp":12.2,"dewp":5.6,"wdir":190,"wspd":11,"visib":"10+","altim":1016.7,"slp":1010.3,"qcField":12,"presTend":-0.2,"metarType":"METAR","rawOb":"METAR KABQ 120852Z 19011KT 10SM SCT110 12/06 A3002 RMK AO2 SLP103 T01220056 58002 $","lat":35.0419,"lon":-106.6154,"elev":1620,"name":"Albuquerque Intl, NM, US","cover":"SCT","clouds":[{"cover":"SCT","base":11000}],"fltCat":"VFR"},{"icaoId":"KIAD","receiptTime":"2026-04-12T08:56:24.520Z","obsTime":1775983920,"reportTime":"2026-04-12T09:00:00.000Z","temp":6.1,"dewp":3.9,"wdir":0,"wspd":0,"visib":"10+","altim":1029.5,"slp":1029.4,"qcField":12,"presTend":0.7,"metarType":"METAR","rawOb":"METAR KIAD 120852Z 00000KT 10SM BKN070 06/04 A3040 RMK AO2 SLP294 T00610039 53007 $","lat":38.9348,"lon":-77.4473,"elev":90,"name":"Washington/Dulles Intl, VA, US","cover":"BKN","clouds":[{"cover":"BKN","base":7000}],"fltCat":"VFR"},{"icaoId":"KMKE","receiptTime":"2026-04-12T08:56:31.999Z","obsTime":1775983920,"reportTime":"2026-04-12T09:00:00.000Z","temp":10,"dewp":5,"wdir":170,"wspd":13,"visib":"10+","altim":1015.7,"slp":1016,"qcField":4,"presTend":-4,"pcp3hr":0.01,"metarType":"METAR","rawOb":"METAR KMKE 120852Z 17013KT 10SM FEW090 BKN110 10/05 A2999 RMK AO2 SLP160 60001 T01000050 56040","lat":42.9549,"lon":-87.9045,"elev":203,"name":"Milwaukee/Mitchell Intl, WI, US","cover":"BKN","clouds":[{"cover":"FEW","base":9000},{"cover":"BKN","base":11000}],"fltCat":"VFR"},{"icaoId":"KCLT","receiptTime":"2026-04-12T08:56:24.353Z","obsTime":1775983920,"reportTime":"2026-04-12T09:00:00.000Z","temp":13.3,"dewp":10,"wdir":0,"wspd":0,"visib":"10+","altim":1025.5,"slp":1026.2,"qcField":4,"presTend":0.6,"metarType":"METAR","rawOb":"METAR KCLT 120852Z 00000KT 10SM FEW100 FEW250 13/10 A3028 RMK AO2 SLP262 T01330100 53006","lat":35.2225,"lon":-80.9543,"elev":223,"name":"Charlotte/Douglas Intl, NC, US","cover":"FEW","clouds":[{"cover":"FEW","base":10000},{"cover":"FEW","base":25000}],"fltCat":"VFR"},{"icaoId":"KMLF","receiptTime":"2026-04-12T08:56:35.961Z","obsTime":1775983920,"reportTime":"2026-04-12T09:00:00.000Z","temp":6.7,"dewp":-5,"wdir":220,"wspd":11,"visib":"10+","altim":1009.6,"slp":1005.5,"qcField":6,"presTend":-1.4,"metarType":"METAR","rawOb":"METAR KMLF 120852Z AUTO 22011KT 10SM CLR 07/M05 A2981 RMK AO2 SLP055 T00671050 58014","lat":38.4225,"lon":-113.0109,"elev":1537,"name":"Milford Muni, UT, US","cover":"CLR","clouds":[],"fltCat":"VFR"},{"icaoId":"KATL","receiptTime":"2026-04-12T08:56:25.752Z","obsTime":1775983920,"reportTime":"2026-04-12T09:00:00.000Z","temp":15.6,"dewp":7.2,"wdir":0,"wspd":0,"visib":"10+","altim":1024.8,"slp":1023.8,"qcField":12,"presTend":-0.4,"metarType":"METAR","rawOb":"METAR KATL 120852Z 00000KT 10SM FEW250 16/07 A3026 RMK AO2 SLP238 T01560072 56004 $","lat":33.6297,"lon":-84.4422,"elev":309,"name":"Atlanta/Hartsfield-Jackson Intl, GA, US","cover":"FEW","clouds":[{"cover":"FEW","base":25000}],"fltCat":"VFR"},{"icaoId":"KHRL","receiptTime":"2026-04-12T08:56:25.886Z","obsTime":1775983920,"reportTime":"2026-04-12T09:00:00.000Z","temp":23.9,"dewp":22.2,"wdir":150,"wspd":13,"visib":"10+","altim":1015.3,"slp":1015.1,"qcField":6,"presTend":-1.9,"metarType":"METAR","rawOb":"METAR KHRL 120852Z AUTO 15013KT 10SM BKN015 OVC024 24/22 A2998 RMK AO2 SLP151 T02390222 56019","lat":26.2303,"lon":-97.6556,"elev":9,"name":"Harlingen/Valley Intl, TX, US","cover":"OVC","clouds":[{"cover":"BKN","base":1500},{"cover":"OVC","base":2400}],"fltCat":"MVFR"},{"icaoId":"KCVG","receiptTime":"2026-04-12T08:56:24.380Z","obsTime":1775983920,"reportTime":"2026-04-12T09:00:00.000Z","temp":11.7,"dewp":3.9,"wdir":130,"wspd":7,"visib":"10+","altim":1023.5,"slp":1022.8,"qcField":12,"presTend":-2,"metarType":"METAR","rawOb":"METAR KCVG 120852Z 13007KT 10SM FEW110 BKN200 12/04 A3022 RMK AO2 SLP228 T01170039 56020 $","lat":39.0444,"lon":-84.6724,"elev":264,"name":"Cincinnati Intl, KY, US","cover":"BKN","clouds":[{"cover":"FEW","base":11000},{"cover":"BKN","base":20000}],"fltCat":"VFR"},{"icaoId":"KDCA","receiptTime":"2026-04-12T08:56:24.407Z","obsTime":1775983920,"reportTime":"2026-04-12T09:00:00.000Z","temp":11.1,"dewp":7.2,"wdir":0,"wspd":0,"visib":"10+","altim":1029.5,"slp":1029.5,"qcField":4,"presTend":0.9,"metarType":"METAR","rawOb":"METAR KDCA 120852Z 00000KT 10SM FEW075 11/07 A3040 RMK AO2 SLP295 T01110072 51009","lat":38.8472,"lon":-77.0345,"elev":4,"name":"Washington/Reagan-National Arpt, VA, US","cover":"FEW","clouds":[{"cover":"FEW","base":7500}],"fltCat":"VFR"},{"icaoId":"KBDL","receiptTime":"2026-04-12T08:54:10.837Z","obsTime":1775983860,"reportTime":"2026-04-12T09:00:00.000Z","temp":1.1,"dewp":-3.9,"wdir":310,"wspd":6,"visib":"10+","altim":1031.2,"slp":1031.1,"qcField":4,"presTend":0.2,"metarType":"METAR","rawOb":"METAR KBDL 120851Z 31006KT 10SM CLR 01/M04 A3045 RMK AO2 SLP311 T00111039 53002","lat":41.9374,"lon":-72.682,"elev":52,"name":"Hartford/Bradley Intl, CT, US","cover":"CLR","clouds":[],"fltCat":"VFR"},{"icaoId":"KCMH","receiptTime":"2026-04-12T08:54:10.998Z","obsTime":1775983860,"reportTime":"2026-04-12T09:00:00.000Z","temp":10.6,"dewp":1.1,"wdir":130,"wspd":5,"visib":"10+","altim":1024.5,"slp":1024.4,"qcField":4,"presTend":-1.6,"metarType":"METAR","rawOb":"METAR KCMH 120851Z 13005KT 10SM OVC220 11/01 A3025 RMK AO2 SLP244 T01060011 58016","lat":39.9907,"lon":-82.877,"elev":257,"name":"Columbus/Glenn Intl, OH, US","cover":"OVC","clouds":[{"cover":"OVC","base":22000}],"fltCat":"VFR"},{"icaoId":"KELP","receiptTime":"2026-04-12T08:54:11.143Z","obsTime":1775983860,"reportTime":"2026-04-12T09:00:00.000Z","temp":14.4,"dewp":10,"wdir":110,"wspd":5,"visib":"10+","altim":1016.7,"slp":1011.9,"qcField":4,"presTend":-0.7,"metarType":"METAR","rawOb":"METAR KELP 120851Z 11005KT 10SM FEW120 SCT170 SCT250 14/10 A3002 RMK AO2 SLP119 T01440100 58007","lat":31.8123,"lon":-106.3774,"elev":1205,"name":"El Paso Intl, TX, US","cover":"SCT","clouds":[{"cover":"FEW","base":12000},{"cover":"SCT","base":17000},{"cover":"SCT","base":25000}],"fltCat":"VFR"},{"icaoId":"KEWR","receiptTime":"2026-04-12T08:54:11.159Z","obsTime":1775983860,"reportTime":"2026-04-12T09:00:00.000Z","temp":5,"dewp":-3.3,"wdir":20,"wspd":7,"visib":"10+","altim":1032.3,"slp":1031.9,"qcField":4,"presTend":1.8,"metarType":"METAR","rawOb":"METAR KEWR 120851Z 02007KT 10SM CLR 05/M03 A3048 RMK AO2 SLP319 T00501033 53018","lat":40.6828,"lon":-74.1692,"elev":2,"name":"Newark Intl, NJ, US","cover":"CLR","clouds":[],"fltCat":"VFR"},{"icaoId":"KJFK","receiptTime":"2026-04-12T08:54:11.338Z","obsTime":1775983860,"reportTime":"2026-04-12T09:00:00.000Z","temp":5.6,"dewp":-2.2,"wdir":10,"wspd":4,"visib":"10+","altim":1032.3,"slp":1032.2,"qcField":4,"presTend":1.7,"metarType":"METAR","rawOb":"METAR KJFK 120851Z 01004KT 10SM CLR 06/M02 A3048 RMK AO2 SLP322 T00561022 53017","lat":40.6392,"lon":-73.7639,"elev":3,"name":"New York/JF Kennedy Intl, NY, US","cover":"CLR","clouds":[],"fltCat":"VFR"},{"icaoId":"KSAD","receiptTime":"2026-04-12T08:54:11.583Z","obsTime":1775983860,"reportTime":"2026-04-12T09:00:00.000Z","temp":18.3,"dewp":-2.2,"wdir":330,"wspd":9,"visib":"10+","altim":1015,"slp":1010.2,"qcField":6,"presTend":0.8,"metarType":"METAR","rawOb":"METAR KSAD 120851Z AUTO 33009KT 10SM CLR 18/M02 A2997 RMK AO2 SLP102 T01831022 51008","lat":32.8565,"lon":-109.636,"elev":937,"name":"Safford Rgnl, AZ, US","cover":"CLR","clouds":[],"fltCat":"VFR"},{"icaoId":"KSAT","receiptTime":"2026-04-12T08:54:11.613Z","obsTime":1775983860,"reportTime":"2026-04-12T09:00:00.000Z","temp":21.1,"dewp":20.6,"wdir":140,"wspd":8,"visib":7,"altim":1017,"slp":1015.2,"qcField":4,"presTend":-1,"precip":0.08,"pcp3hr":0.13,"metarType":"METAR","rawOb":"METAR KSAT 120851Z 14008KT 7SM BKN007 OVC013 21/21 A3003 RMK AO2 RAE43 SLP152 P0008 60013 T02110206 58010","lat":29.5443,"lon":-98.4839,"elev":246,"name":"San Antonio Intl, TX, US","cover":"OVC","clouds":[{"cover":"BKN","base":700},{"cover":"OVC","base":1300}],"fltCat":"IFR"},{"icaoId":"KPIT","receiptTime":"2026-04-12T08:54:11.882Z","obsTime":1775983860,"reportTime":"2026-04-12T09:00:00.000Z","temp":6.7,"dewp":-1.1,"wdir":80,"wspd":4,"visib":"10+","altim":1026.2,"slp":1027.1,"qcField":12,"presTend":-1.4,"metarType":"METAR","rawOb":"METAR KPIT 120851Z 08004KT 10SM BKN200 07/M01 A3030 RMK AO2 SLP271 T00671011 56014 $","lat":40.4814,"lon":-80.2083,"elev":339,"name":"Pittsburgh Intl, PA, US","cover":"BKN","clouds":[{"cover":"BKN","base":20000}],"fltCat":"VFR"},{"icaoId":"KCLE","receiptTime":"2026-04-12T08:54:11.829Z","obsTime":1775983860,"reportTime":"2026-04-12T09:00:00.000Z","temp":6.7,"dewp":-2.8,"wdir":150,"wspd":8,"visib":"10+","altim":1024.8,"slp":1026.7,"qcField":12,"presTend":-1.8,"metarType":"METAR","rawOb":"METAR KCLE 120851Z 15008KT 10SM OVC160 07/M03 A3026 RMK AO2 SLP267 T00671028 58018 $","lat":41.4057,"lon":-81.8519,"elev":237,"name":"Cleveland/Hopkins Intl, OH, US","cover":"OVC","clouds":[{"cover":"OVC","base":16000}],"fltCat":"VFR"},{"icaoId":"KORF","receiptTime":"2026-04-12T08:54:11.438Z","obsTime":1775983860,"reportTime":"2026-04-12T09:00:00.000Z","temp":12.2,"dewp":8.3,"wdir":110,"wspd":3,"visib":"10+","altim":1028.9,"slp":1028.8,"qcField":6,"presTend":0.4,"metarType":"METAR","rawOb":"METAR KORF 120851Z AUTO 11003KT 10SM OVC060 12/08 A3038 RMK AO2 SLP288 T01220083 53004","lat":36.9037,"lon":-76.1927,"elev":5,"name":"Norfolk Intl, VA, US","cover":"OVC","clouds":[{"cover":"OVC","base":6000}],"fltCat":"VFR"},{"icaoId":"KPVD","receiptTime":"2026-04-12T08:54:11.504Z","obsTime":1775983860,"reportTime":"2026-04-12T09:00:00.000Z","temp":3.3,"dewp":-4.4,"wdir":0,"wspd":0,"visib":"10+","altim":1030.9,"slp":1030.8,"qcField":14,"presTend":0.8,"metarType":"METAR","rawOb":"METAR KPVD 120851Z AUTO 00000KT 10SM CLR 03/M04 A3044 RMK AO2 SLP308 T00331044 53008 $","lat":41.7225,"lon":-71.4325,"elev":15,"name":"Providence/Green Mem, RI, US","cover":"CLR","clouds":[],"fltCat":"VFR"},{"icaoId":"KIGM","receiptTime":"2026-04-12T08:54:11.278Z","obsTime":1775983860,"reportTime":"2026-04-12T09:00:00.000Z","temp":13.9,"dewp":-1.1,"wdir":140,"wspd":8,"visib":"10+","altim":1012.3,"slp":1006.4,"qcField":6,"presTend":-0.7,"metarType":"METAR","rawOb":"METAR KIGM 120851Z AUTO 14008KT 10SM CLR 14/M01 A2989 RMK AO2 SLP064 T01391011 58007","lat":35.2575,"lon":-113.9341,"elev":1045,"name":"Kingman Arpt, AZ, US","cover":"CLR","clouds":[],"fltCat":"VFR"},{"icaoId":"KSAN","receiptTime":"2026-04-12T08:54:11.595Z","obsTime":1775983860,"reportTime":"2026-04-12T09:00:00.000Z","temp":16.1,"dewp":11.7,"wdir":0,"wspd":0,"visib":"10+","altim":1016,"slp":1016,"qcField":12,"presTend":-0.8,"metarType":"METAR","rawOb":"METAR KSAN 120851Z 00000KT 10SM FEW010 FEW040 SCT250 16/12 A3000 RMK AO2 SLP160 T01610117 58008 $","lat":32.7364,"lon":-117.1973,"elev":3,"name":"San Diego Intl Arpt, CA, US","cover":"SCT","clouds":[{"cover":"FEW","base":1000},{"cover":"FEW","base":4000},{"cover":"SCT","base":25000}],"fltCat":"VFR"},{"icaoId":"KSTL","receiptTime":"2026-04-12T08:54:11.713Z","obsTime":1775983860,"reportTime":"2026-04-12T09:00:00.000Z","temp":18.9,"dewp":12.8,"wdir":170,"wspd":10,"visib":"10+","altim":1018.4,"slp":1017.4,"qcField":12,"presTend":-1.8,"metarType":"METAR","rawOb":"METAR KSTL 120851Z 17010KT 10SM FEW220 19/13 A3007 RMK AO2 SLP174 T01890128 57018 $","lat":38.7525,"lon":-90.3734,"elev":163,"name":"St Louis/Lambert Intl, MO, US","cover":"FEW","clouds":[{"cover":"FEW","base":22000}],"fltCat":"VFR"},{"icaoId":"KLGA","receiptTime":"2026-04-12T08:54:11.354Z","obsTime":1775983860,"reportTime":"2026-04-12T09:00:00.000Z","temp":7.2,"dewp":-3.3,"wdir":20,"wspd":8,"visib":"10+","altim":1031.9,"slp":1031.9,"qcField":4,"presTend":1.8,"metarType":"METAR","rawOb":"METAR KLGA 120851Z 02008KT 10SM CLR 07/M03 A3047 RMK AO2 SLP319 T00721033 53018","lat":40.7794,"lon":-73.8803,"elev":9,"name":"New York/La Guardia Arpt, NY, US","cover":"CLR","clouds":[],"fltCat":"VFR"},{"icaoId":"KLGU","receiptTime":"2026-04-12T08:54:11.371Z","obsTime":1775983860,"reportTime":"2026-04-12T09:00:00.000Z","temp":3.3,"dewp":1.7,"wdir":0,"wspd":0,"visib":"10+","altim":1008.5,"slp":1007.6,"qcField":6,"presTend":-1.2,"metarType":"METAR","rawOb":"METAR KLGU 120851Z AUTO 00000KT 10SM CLR 03/02 A2978 RMK AO2 SLP076 T00330017 58012","lat":41.7865,"lon":-111.8519,"elev":1359,"name":"Logan/Cache Arpt, UT, US","cover":"CLR","clouds":[],"fltCat":"VFR"},{"icaoId":"KPHX","receiptTime":"2026-04-12T08:54:11.464Z","obsTime":1775983860,"reportTime":"2026-04-12T09:00:00.000Z","temp":22.8,"dewp":-3.3,"wdir":100,"wspd":4,"visib":"10+","altim":1011.3,"slp":1009.5,"qcField":4,"presTend":0.3,"metarType":"METAR","rawOb":"METAR KPHX 120851Z 10004KT 10SM CLR 23/M03 A2986 RMK AO2 SLP095 T02281033 51003","lat":33.4278,"lon":-112.0037,"elev":338,"name":"Phoenix/Sky Harbor Intl, AZ, US","cover":"CLR","clouds":[],"fltCat":"VFR"},{"icaoId":"KOXR","receiptTime":"2026-04-12T08:54:11.452Z","obsTime":1775983860,"reportTime":"2026-04-12T09:00:00.000Z","temp":16.7,"dewp":12.2,"wdir":160,"wspd":5,"visib":"10+","altim":1013.6,"slp":1013.6,"qcField":6,"presTend":-0.6,"metarType":"METAR","rawOb":"METAR KOXR 120851Z AUTO 16005KT 10SM FEW020 BKN029 OVC050 17/12 A2993 RMK AO2 SLP136 T01670122 56006","lat":34.2001,"lon":-119.2042,"elev":12,"name":"Oxnard Arpt, CA, US","cover":"OVC","clouds":[{"cover":"FEW","base":2000},{"cover":"BKN","base":2900},{"cover":"OVC","base":5000}],"fltCat":"MVFR"},{"icaoId":"KORD","receiptTime":"2026-04-12T08:54:11.422Z","obsTime":1775983860,"reportTime":"2026-04-12T09:00:00.000Z","temp":14.4,"dewp":6.1,"wdir":180,"wspd":10,"visib":"10+","altim":1017.4,"slp":1017.2,"qcField":12,"presTend":-2.6,"metarType":"METAR","rawOb":"METAR KORD 120851Z 18010KT 10SM SCT120 BKN140 OVC250 14/06 A3004 RMK AO2 SLP172 T01440061 58026 $","lat":41.9602,"lon":-87.9316,"elev":202,"name":"Chicago/O'Hare Intl, IL, US","cover":"OVC","clouds":[{"cover":"SCT","base":12000},{"cover":"BKN","base":14000},{"cover":"OVC","base":25000}],"fltCat":"VFR"},{"icaoId":"KRDU","receiptTime":"2026-04-12T08:54:11.560Z","obsTime":1775983860,"reportTime":"2026-04-12T09:00:00.000Z","temp":15,"dewp":11.7,"wdir":90,"wspd":7,"visib":"10+","altim":1026.8,"slp":1026.4,"qcField":4,"presTend":0.6,"metarType":"METAR","rawOb":"METAR KRDU 120851Z 09007KT 10SM FEW080 15/12 A3032 RMK AO2 SLP264 T01500117 50006","lat":35.8923,"lon":-78.782,"elev":121,"name":"Raleigh-Durham Intl, NC, US","cover":"FEW","clouds":[{"cover":"FEW","base":8000}],"fltCat":"VFR"},{"icaoId":"KROW","receiptTime":"2026-04-12T08:54:11.572Z","obsTime":1775983860,"reportTime":"2026-04-12T09:00:00.000Z","temp":13.3,"dewp":8.9,"wdir":200,"wspd":8,"visib":"10+","altim":1014.3,"slp":1009.8,"qcField":14,"presTend":-0.4,"metarType":"METAR","rawOb":"METAR KROW 120851Z AUTO 20008KT 10SM CLR 13/09 A2995 RMK AO2 SLP098 T01330089 55004 $","lat":33.3074,"lon":-104.5082,"elev":1105,"name":"Roswell/Ind Arpt, NM, US","cover":"CLR","clouds":[],"fltCat":"VFR"}]