[{"icaoId":"KFLG","receiptTime":"2026-04-08T09:00:29.730Z","obsTime":1775638620,"reportTime":"2026-04-08T09:00:00.000Z","temp":0.6,"dewp":-5.6,"wdir":0,"wspd":0,"visib":"10+","altim":1020.7,"slp":1014.2,"qcField":6,"presTend":-0.1,"metarType":"METAR","rawOb":"METAR KFLG 080857Z AUTO 00000KT 10SM CLR 01/M06 A3014 RMK AO2 SLP142 T00061056 58001","lat":35.1443,"lon":-111.6664,"elev":2134,"name":"Flagstaff/Pulliam Arpt, AZ, US","cover":"CLR","clouds":[],"fltCat":"VFR"},{"icaoId":"KCGZ","receiptTime":"2026-04-08T08:58:37.634Z","obsTime":1775638560,"reportTime":"2026-04-08T09:00:00.000Z","temp":20,"dewp":-1.7,"wdir":310,"wspd":3,"visib":"10+","altim":1011.3,"slp":1009.8,"qcField":14,"metarType":"METAR","rawOb":"METAR KCGZ 080856Z AUTO 31003KT 10SM CLR 20/M02 A2986 RMK AO2 SLP098 6//// T02001017 $","lat":32.9531,"lon":-111.7725,"elev":444,"name":"Casa Granda Muni, AZ, US","cover":"CLR","clouds":[],"fltCat":"VFR"},{"icaoId":"KINW","receiptTime":"2026-04-08T09:00:30.661Z","obsTime":1775638560,"reportTime":"2026-04-08T09:00:00.000Z","temp":11.7,"dewp":1.7,"wdir":"VRB","wspd":3,"visib":"10+","altim":1016.7,"slp":1011.8,"qcField":6,"presTend":-0.2,"metarType":"METAR","rawOb":"METAR KINW 080856Z AUTO VRB03KT 10SM CLR 12/02 A3002 RMK AO2 SLP118 T01170017 58002","lat":35.0279,"lon":-110.7221,"elev":1492,"name":"Winslow/Lindberg Rgnl, AZ, US","cover":"CLR","clouds":[],"fltCat":"VFR"},{"icaoId":"KDUG","receiptTime":"2026-04-08T09:04:07.407Z","obsTime":1775638560,"reportTime":"2026-04-08T09:00:00.000Z","temp":12.8,"dewp":1.7,"wdir":10,"wspd":9,"visib":"10+","altim":1016.3,"slp":1010.5,"qcField":38,"presTend":-0.5,"metarType":"METAR","rawOb":"METAR KDUG 080856Z AUTO 01009KT 10SM CLR 13/02 A3001 RMK AO2 SLP105 T01280017 58005 TSNO","lat":31.4725,"lon":-109.6022,"elev":1260,"name":"Douglas/Bisbee Intl, AZ, US","cover":"CLR","clouds":[],"fltCat":"VFR"},{"icaoId":"KIWA","receiptTime":"2026-04-08T09:00:30.679Z","obsTime":1775638500,"reportTime":"2026-04-08T09:00:00.000Z","temp":20.2,"dewp":-0.1,"wdir":100,"wspd":7,"visib":"10+","altim":1011.3,"qcField":6,"metarType":"METAR","rawOb":"METAR KIWA 080855Z AUTO 10007KT 10SM CLR 20/00 A2986 RMK AO2 T02021001","lat":33.3008,"lon":-111.6437,"elev":420,"name":"Phoenix/Mesa Gateway Arpt, AZ, US","cover":"CLR","clouds":[],"fltCat":"VFR"},{"icaoId":"KCHD","receiptTime":"2026-04-08T08:58:37.653Z","obsTime":1775638500,"reportTime":"2026-04-08T09:00:00.000Z","temp":19.8,"dewp":4.1,"wdir":90,"wspd":4,"visib":"10+","altim":1010.9,"qcField":14,"metarType":"METAR","rawOb":"METAR KCHD 080855Z AUTO 09004KT 10SM CLR 20/04 A2985 RMK AO2 T01980041 $","lat":33.2669,"lon":-111.8086,"elev":378,"name":"Chandler Muni, AZ, US","cover":"CLR","clouds":[],"fltCat":"VFR"},{"icaoId":"KSEZ","receiptTime":"2026-04-08T08:58:30.137Z","obsTime":1775638500,"reportTime":"2026-04-08T09:00:00.000Z","temp":14,"dewp":-4,"wdir":30,"wspd":6,"visib":"10+","altim":1017.4,"qcField":6,"metarType":"METAR","rawOb":"METAR KSEZ 080855Z AUTO 03006KT 10SM CLR 14/M04 A3004 RMK AO2","lat":34.8467,"lon":-111.7884,"elev":1455,"name":"Sedona Arpt, AZ, US","cover":"CLR","clouds":[],"fltCat":"VFR"},{"icaoId":"KSOW","receiptTime":"2026-04-08T08:58:35.784Z","obsTime":1775638500,"reportTime":"2026-04-08T09:00:00.000Z","temp":10,"dewp":-1,"wdir":180,"wspd":10,"visib":"10+","altim":1020.1,"qcField":6,"metarType":"METAR","rawOb":"METAR KSOW 080855Z AUTO 18010KT 10SM CLR 10/M01 A3012 RMK AO2","lat":34.2686,"lon":-110.0019,"elev":1954,"name":"Show Low Muni, AZ, US","cover":"CLR","clouds":[],"fltCat":"VFR"},{"icaoId":"KHII","receiptTime":"2026-04-08T09:00:19.707Z","obsTime":1775638500,"reportTime":"2026-04-08T09:00:00.000Z","temp":24,"dewp":-6,"wdir":340,"wspd":5,"visib":"10+","altim":1008.9,"qcField":6,"metarType":"METAR","rawOb":"METAR KHII 080855Z AUTO 34005KT 10SM CLR 24/M06 A2979 RMK AO2","lat":34.5659,"lon":-114.3522,"elev":241,"name":"Lake Havasu City Arpt, AZ, US","cover":"CLR","clouds":[],"fltCat":"VFR"},{"icaoId":"KIFP","receiptTime":"2026-04-08T09:00:29.771Z","obsTime":1775638500,"reportTime":"2026-04-08T09:00:00.000Z","temp":24,"dewp":-8,"wdir":170,"wspd":4,"visib":"10+","altim":1008.9,"qcField":6,"metarType":"METAR","rawOb":"METAR KIFP 080855Z AUTO 17004KT 10SM CLR 24/M08 A2979 RMK AO2","lat":35.1487,"lon":-114.5611,"elev":210,"name":"Bullhead City Intl, AZ, US","cover":"CLR","clouds":[],"fltCat":"VFR"},{"icaoId":"KLUF","receiptTime":"2026-04-08T09:04:04.324Z","obsTime":1775638500,"reportTime":"2026-04-08T09:00:00.000Z","temp":21.7,"dewp":-2.9,"wdir":30,"wspd":4,"visib":"10+","altim":1009.6,"slp":1008.1,"qcField":14,"presTend":-0.1,"metarType":"METAR","rawOb":"METAR KLUF 080855Z AUTO 03004KT 10SM CLR 22/M03 A2981 RMK AO2 SLP081 T02171029 58001 $","lat":33.538,"lon":-112.38,"elev":333,"name":"Phoenix/Luke AFB, AZ, US","cover":"CLR","clouds":[],"fltCat":"VFR"},{"icaoId":"KOLS","receiptTime":"2026-04-08T08:58:07.541Z","obsTime":1775638440,"reportTime":"2026-04-08T09:00:00.000Z","temp":12.2,"dewp":0,"wdir":0,"wspd":0,"visib":"10+","altim":1016,"slp":1010.3,"qcField":6,"presTend":-0.5,"metarType":"METAR","rawOb":"METAR KOLS 080854Z AUTO 00000KT 10SM CLR 12/00 A3000 RMK AO2 SLP103 T01220000 58005","lat":31.4208,"lon":-110.8465,"elev":1194,"name":"Nogales Intl, AZ, US","cover":"CLR","clouds":[],"fltCat":"VFR"},{"icaoId":"KFFZ","receiptTime":"2026-04-08T08:58:21.419Z","obsTime":1775638440,"reportTime":"2026-04-08T09:00:00.000Z","temp":21.1,"dewp":3.3,"wdir":40,"wspd":4,"visib":"10+","altim":1010.6,"slp":1008.3,"qcField":46,"presTend":-0.1,"metarType":"METAR","rawOb":"METAR KFFZ 080854Z AUTO 04004KT 10SM CLR 21/03 A2984 RMK AO2 SLP083 T02110033 58001 TSNO $","lat":33.4659,"lon":-111.7212,"elev":420,"name":"Mesa/Falcon Fld, AZ, US","cover":"CLR","clouds":[],"fltCat":"VFR"},{"icaoId":"KSJN","receiptTime":"2026-04-08T08:58:22.369Z","obsTime":1775638440,"reportTime":"2026-04-08T09:00:00.000Z","temp":6.7,"dewp":2.2,"wdir":40,"wspd":3,"visib":"10+","altim":1018.4,"slp":1012.8,"qcField":6,"presTend":-0.2,"metarType":"METAR","rawOb":"METAR KSJN 080854Z AUTO 04003KT 10SM CLR 07/02 A3007 RMK AO2 SLP128 T00670022 55002","lat":34.5184,"lon":-109.3801,"elev":1747,"name":"St Johns Ind Arpt, AZ, US","cover":"CLR","clouds":[],"fltCat":"VFR"},{"icaoId":"KGCN","receiptTime":"2026-04-08T08:58:23.618Z","obsTime":1775638440,"reportTime":"2026-04-08T09:00:00.000Z","temp":-1.1,"dewp":-3.9,"wdir":0,"wspd":0,"visib":"10+","altim":1020.1,"slp":1015.2,"qcField":6,"presTend":-0.1,"metarType":"METAR","rawOb":"METAR KGCN 080854Z AUTO 00000KT 10SM CLR M01/M04 A3012 RMK AO2 SLP152 T10111039 57001","lat":35.9458,"lon":-112.1554,"elev":1993,"name":"Grand Canyon Park Arpt, AZ, US","cover":"CLR","clouds":[],"fltCat":"VFR"},{"icaoId":"KTUS","receiptTime":"2026-04-08T08:56:27.096Z","obsTime":1775638380,"reportTime":"2026-04-08T09:00:00.000Z","temp":17.8,"dewp":0.6,"wdir":150,"wspd":5,"visib":"10+","altim":1014,"slp":1010.1,"qcField":4,"presTend":-0.5,"metarType":"METAR","rawOb":"METAR KTUS 080853Z 15005KT 10SM CLR 18/01 A2994 RMK AO2 SLP101 T01780006 58005","lat":32.1315,"lon":-110.9564,"elev":776,"name":"Tucson Intl Arpt, AZ, US","cover":"CLR","clouds":[],"fltCat":"VFR"},{"icaoId":"KDVT","receiptTime":"2026-04-08T08:56:22.379Z","obsTime":1775638380,"reportTime":"2026-04-08T09:00:00.000Z","temp":20,"dewp":-0.6,"wdir":30,"wspd":4,"visib":"10+","altim":1010.9,"slp":1008.4,"qcField":4,"presTend":-0.3,"metarType":"METAR","rawOb":"METAR KDVT 080853Z 03004KT 10SM CLR 20/M01 A2985 RMK AO2 SLP084 T02001006 58003","lat":33.6902,"lon":-112.0662,"elev":454,"name":"Phoenix/Deer Valley Arpt, AZ, US","cover":"CLR","clouds":[],"fltCat":"VFR"},{"icaoId":"KSDL","receiptTime":"2026-04-08T08:56:34.565Z","obsTime":1775638380,"reportTime":"2026-04-08T09:00:00.000Z","temp":21.1,"dewp":1.1,"wdir":0,"wspd":0,"visib":"10+","altim":1010.9,"slp":1008.6,"qcField":6,"presTend":-0.3,"metarType":"METAR","rawOb":"METAR KSDL 080853Z AUTO 00000KT 10SM CLR 21/01 A2985 RMK AO2 SLP086 T02110011 58003","lat":33.6123,"lon":-111.9232,"elev":438,"name":"Scottsdale Muni, AZ, US","cover":"CLR","clouds":[],"fltCat":"VFR"},{"icaoId":"KPGA","receiptTime":"2026-04-08T08:56:34.344Z","obsTime":1775638380,"reportTime":"2026-04-08T09:00:00.000Z","temp":15.6,"dewp":-11.1,"wdir":0,"wspd":0,"visib":"10+","altim":1014.6,"slp":1009.3,"qcField":14,"presTend":0.2,"metarType":"METAR","rawOb":"METAR KPGA 080853Z AUTO 00000KT 10SM CLR 16/M11 A2996 RMK AO2 SLP093 T01561111 53002 $","lat":36.9211,"lon":-111.4487,"elev":1310,"name":"Page Muni, AZ, US","cover":"CLR","clouds":[],"fltCat":"VFR"},{"icaoId":"KPRC","receiptTime":"2026-04-08T08:56:34.397Z","obsTime":1775638380,"reportTime":"2026-04-08T09:00:00.000Z","temp":12.8,"dewp":-6.1,"wdir":0,"wspd":0,"visib":"10+","altim":1017.7,"slp":1010.8,"qcField":6,"presTend":-0.1,"metarType":"METAR","rawOb":"METAR KPRC 080853Z AUTO 00000KT 10SM CLR 13/M06 A3005 RMK AO2 SLP108 T01281061 57001","lat":34.6491,"lon":-112.4223,"elev":1528,"name":"Prescott/Love Fld, AZ, US","cover":"CLR","clouds":[],"fltCat":"VFR"},{"icaoId":"KPHX","receiptTime":"2026-04-08T08:54:06.391Z","obsTime":1775638260,"reportTime":"2026-04-08T09:00:00.000Z","temp":23.3,"dewp":2.8,"wdir":100,"wspd":4,"visib":"10+","altim":1009.9,"slp":1008,"qcField":4,"presTend":-0.1,"metarType":"METAR","rawOb":"METAR KPHX 080851Z 10004KT 10SM CLR 23/03 A2982 RMK AO2 SLP080 T02330028 58001","lat":33.4278,"lon":-112.0037,"elev":338,"name":"Phoenix/Sky Harbor Intl, AZ, US","cover":"CLR","clouds":[],"fltCat":"VFR"},{"icaoId":"KSAD","receiptTime":"2026-04-08T08:54:06.507Z","obsTime":1775638260,"reportTime":"2026-04-08T09:00:00.000Z","temp":15,"dewp":2.2,"wdir":80,"wspd":5,"visib":"10+","altim":1014,"slp":1009.9,"qcField":6,"presTend":-0.3,"metarType":"METAR","rawOb":"METAR KSAD 080851Z AUTO 08005KT 10SM CLR 15/02 A2994 RMK AO2 SLP099 T01500022 58003","lat":32.8565,"lon":-109.636,"elev":937,"name":"Safford Rgnl, AZ, US","cover":"CLR","clouds":[],"fltCat":"VFR"},{"icaoId":"KIGM","receiptTime":"2026-04-08T08:54:06.181Z","obsTime":1775638260,"reportTime":"2026-04-08T09:00:00.000Z","temp":17.2,"dewp":-7.8,"wdir":0,"wspd":0,"visib":"10+","altim":1014.3,"slp":1007.6,"qcField":6,"presTend":-0.4,"metarType":"METAR","rawOb":"METAR KIGM 080851Z AUTO 00000KT 10SM CLR 17/M08 A2995 RMK AO2 SLP076 T01721078 58004","lat":35.2575,"lon":-113.9341,"elev":1045,"name":"Kingman Arpt, AZ, US","cover":"CLR","clouds":[],"fltCat":"VFR"},{"icaoId":"KNYL","receiptTime":"2026-04-08T08:01:06.872Z","obsTime":1775635020,"reportTime":"2026-04-08T08:00:00.000Z","temp":23.3,"dewp":5.6,"wdir":290,"wspd":4,"visib":"10+","altim":1009.2,"slp":1008.6,"qcField":6,"metarType":"METAR","rawOb":"METAR KNYL 080757Z AUTO 29004KT 10SM CLR 23/06 A2980 RMK AO2 SLP086 T02330056","lat":32.66,"lon":-114.6078,"elev":58,"name":"Yuma , AZ, US","cover":"CLR","clouds":[],"fltCat":"VFR"}]