[{"icaoId":"KSOW","receiptTime":"2026-04-08T23:16:06.801Z","obsTime":1775690100,"reportTime":"2026-04-08T23:15:00.000Z","temp":22,"dewp":-7,"wdir":0,"wspd":0,"wgst":16,"visib":"10+","altim":1019,"qcField":6,"metarType":"METAR","rawOb":"METAR KSOW 082315Z AUTO 00000G16KT 10SM CLR 22/M07 A3009 RMK AO2","lat":34.2686,"lon":-110.0019,"elev":1954,"name":"Show Low Muni, AZ, US","cover":"CLR","clouds":[],"fltCat":"VFR"},{"icaoId":"KNYL","receiptTime":"2026-04-08T23:00:22.066Z","obsTime":1775689020,"reportTime":"2026-04-08T23:00:00.000Z","temp":35.6,"dewp":-1.7,"wdir":160,"wspd":7,"wgst":17,"visib":"10+","altim":1007.2,"slp":1006.7,"qcField":4,"metarType":"METAR","rawOb":"METAR KNYL 082257Z 16007G17KT 10SM CLR 36/M02 A2974 RMK AO2 SLP067 T03561017","lat":32.66,"lon":-114.6078,"elev":58,"name":"Yuma , AZ, US","cover":"CLR","clouds":[],"fltCat":"VFR"},{"icaoId":"KFLG","receiptTime":"2026-04-08T23:00:24.742Z","obsTime":1775689020,"reportTime":"2026-04-08T23:00:00.000Z","temp":20,"dewp":-9.4,"wdir":210,"wspd":11,"wgst":18,"visib":"10+","altim":1019.7,"slp":1013.1,"qcField":4,"metarType":"METAR","rawOb":"METAR KFLG 082257Z 21011G18KT 10SM CLR 20/M09 A3011 RMK AO2 SLP131 T02001094","lat":35.1443,"lon":-111.6664,"elev":2134,"name":"Flagstaff/Pulliam Arpt, AZ, US","cover":"CLR","clouds":[],"fltCat":"VFR"},{"icaoId":"KDUG","receiptTime":"2026-04-08T23:02:11.553Z","obsTime":1775688960,"reportTime":"2026-04-08T23:00:00.000Z","temp":27.8,"dewp":-3.3,"wdir":330,"wspd":4,"visib":"10+","altim":1014.6,"slp":1008.7,"qcField":38,"metarType":"METAR","rawOb":"METAR KDUG 082256Z AUTO 33004KT 10SM CLR 28/M03 A2996 RMK AO2 SLP087 T02781033 TSNO","lat":31.4725,"lon":-109.6022,"elev":1260,"name":"Douglas/Bisbee Intl, AZ, US","cover":"CLR","clouds":[],"fltCat":"VFR"},{"icaoId":"KINW","receiptTime":"2026-04-08T23:00:20.908Z","obsTime":1775688960,"reportTime":"2026-04-08T23:00:00.000Z","temp":26.1,"dewp":-6.7,"wdir":"VRB","wspd":5,"visib":"10+","altim":1015,"slp":1009.6,"qcField":6,"metarType":"METAR","rawOb":"METAR KINW 082256Z AUTO VRB05KT 10SM CLR 26/M07 A2997 RMK AO2 SLP096 T02611067","lat":35.0279,"lon":-110.7221,"elev":1492,"name":"Winslow/Lindberg Rgnl, AZ, US","cover":"CLR","clouds":[],"fltCat":"VFR"},{"icaoId":"KCGZ","receiptTime":"2026-04-08T22:58:24.599Z","obsTime":1775688960,"reportTime":"2026-04-08T23:00:00.000Z","temp":33.9,"dewp":-2.2,"wdir":350,"wspd":8,"visib":"10+","altim":1009.6,"slp":1008.1,"qcField":14,"metarType":"METAR","rawOb":"METAR KCGZ 082256Z AUTO 35008KT 10SM CLR 34/M02 A2981 RMK AO2 SLP081 T03391022 $","lat":32.9531,"lon":-111.7725,"elev":444,"name":"Casa Granda Muni, AZ, US","cover":"CLR","clouds":[],"fltCat":"VFR"},{"icaoId":"KHII","receiptTime":"2026-04-08T23:02:08.560Z","obsTime":1775688900,"reportTime":"2026-04-08T23:00:00.000Z","temp":36,"dewp":-5,"wdir":180,"wspd":8,"visib":"10+","altim":1007.5,"qcField":6,"metarType":"METAR","rawOb":"METAR KHII 082255Z AUTO 18008KT 10SM CLR 36/M05 A2975 RMK AO2","lat":34.5659,"lon":-114.3522,"elev":241,"name":"Lake Havasu City Arpt, AZ, US","cover":"CLR","clouds":[],"fltCat":"VFR"},{"icaoId":"KLUF","receiptTime":"2026-04-08T23:06:04.219Z","obsTime":1775688900,"reportTime":"2026-04-08T23:00:00.000Z","temp":34.8,"dewp":-6.1,"wdir":0,"wspd":0,"visib":"10+","altim":1007.9,"slp":1006.4,"qcField":14,"metarType":"METAR","rawOb":"METAR KLUF 082255Z AUTO 00000KT 10SM CLR 35/M06 A2976 RMK AO2 SLP064 T03481061 $","lat":33.538,"lon":-112.38,"elev":333,"name":"Phoenix/Luke AFB, AZ, US","cover":"CLR","clouds":[],"fltCat":"VFR"},{"icaoId":"KSEZ","receiptTime":"2026-04-08T23:00:17.248Z","obsTime":1775688900,"reportTime":"2026-04-08T23:00:00.000Z","temp":27,"dewp":-8,"wdir":240,"wspd":9,"wgst":14,"visib":"10+","altim":1015.7,"qcField":6,"metarType":"METAR","rawOb":"METAR KSEZ 082255Z AUTO 24009G14KT 10SM CLR 27/M08 A2999 RMK AO2","lat":34.8467,"lon":-111.7884,"elev":1455,"name":"Sedona Arpt, AZ, US","cover":"CLR","clouds":[],"fltCat":"VFR"},{"icaoId":"KIWA","receiptTime":"2026-04-08T22:57:35.763Z","obsTime":1775688900,"reportTime":"2026-04-08T23:00:00.000Z","temp":34,"dewp":-2,"wdir":240,"wspd":12,"wgst":19,"visib":"10+","altim":1009.6,"qcField":0,"metarType":"METAR","rawOb":"METAR KIWA 082255Z 24012G19KT 10SM CLR 34/M02 A2981","lat":33.3008,"lon":-111.6437,"elev":420,"name":"Phoenix/Mesa Gateway Arpt, AZ, US","cover":"CLR","clouds":[],"fltCat":"VFR"},{"icaoId":"KFFZ","receiptTime":"2026-04-08T22:58:09.526Z","obsTime":1775688840,"reportTime":"2026-04-08T23:00:00.000Z","temp":33.9,"dewp":-3.3,"wdir":220,"wspd":8,"visib":"10+","altim":1008.9,"slp":1006.4,"qcField":4,"metarType":"METAR","rawOb":"METAR KFFZ 082254Z 22008KT 10SM CLR 34/M03 A2979 RMK AO2 SLP064 T03391033","lat":33.4659,"lon":-111.7212,"elev":420,"name":"Mesa/Falcon Fld, AZ, US","cover":"CLR","clouds":[],"fltCat":"VFR"},{"icaoId":"KSJN","receiptTime":"2026-04-08T22:58:12.621Z","obsTime":1775688840,"reportTime":"2026-04-08T23:00:00.000Z","temp":23.9,"dewp":-7.2,"wdir":310,"wspd":13,"wgst":18,"visib":"10+","altim":1016.7,"slp":1010.2,"qcField":6,"metarType":"METAR","rawOb":"METAR KSJN 082254Z AUTO 31013G18KT 10SM CLR 24/M07 A3002 RMK AO2 SLP102 T02391072","lat":34.5184,"lon":-109.3801,"elev":1747,"name":"St Johns Ind Arpt, AZ, US","cover":"CLR","clouds":[],"fltCat":"VFR"},{"icaoId":"KGCN","receiptTime":"2026-04-08T22:58:10.159Z","obsTime":1775688840,"reportTime":"2026-04-08T23:00:00.000Z","temp":20.6,"dewp":-9.4,"wdir":"VRB","wspd":4,"visib":"10+","altim":1018.7,"slp":1013.2,"qcField":4,"metarType":"METAR","rawOb":"METAR KGCN 082254Z VRB04KT 10SM FEW120 21/M09 A3008 RMK AO2 WSHFT 2227 SLP132 T02061094","lat":35.9458,"lon":-112.1554,"elev":1993,"name":"Grand Canyon Park Arpt, AZ, US","cover":"FEW","clouds":[{"cover":"FEW","base":12000}],"fltCat":"VFR"},{"icaoId":"KOLS","receiptTime":"2026-04-08T22:58:12.389Z","obsTime":1775688840,"reportTime":"2026-04-08T23:00:00.000Z","temp":30,"dewp":-0.6,"wdir":250,"wspd":7,"visib":"10+","altim":1013.6,"slp":1007.7,"qcField":6,"metarType":"METAR","rawOb":"METAR KOLS 082254Z AUTO 25007KT 10SM SCT120 30/M01 A2993 RMK AO2 SLP077 T03001006","lat":31.4208,"lon":-110.8465,"elev":1194,"name":"Nogales Intl, AZ, US","cover":"SCT","clouds":[{"cover":"SCT","base":12000}],"fltCat":"VFR"},{"icaoId":"KSDL","receiptTime":"2026-04-08T22:56:25.980Z","obsTime":1775688780,"reportTime":"2026-04-08T23:00:00.000Z","temp":33.9,"dewp":-3.3,"wdir":"VRB","wspd":3,"visib":"10+","altim":1009.6,"slp":1007.1,"qcField":4,"metarType":"METAR","rawOb":"METAR KSDL 082253Z VRB03KT 10SM CLR 34/M03 A2981 RMK AO2 SLP071 T03391033","lat":33.6123,"lon":-111.9232,"elev":438,"name":"Scottsdale Muni, AZ, US","cover":"CLR","clouds":[],"fltCat":"VFR"},{"icaoId":"KTUS","receiptTime":"2026-04-08T22:56:27.848Z","obsTime":1775688780,"reportTime":"2026-04-08T23:00:00.000Z","temp":31.7,"dewp":-2.8,"wdir":40,"wspd":6,"visib":"10+","altim":1011.3,"slp":1007,"qcField":4,"metarType":"METAR","rawOb":"METAR KTUS 082253Z 04006KT 10SM CLR 32/M03 A2986 RMK AO2 SLP070 T03171028","lat":32.1315,"lon":-110.9564,"elev":776,"name":"Tucson Intl Arpt, AZ, US","cover":"CLR","clouds":[],"fltCat":"VFR"},{"icaoId":"KDVT","receiptTime":"2026-04-08T22:56:32.350Z","obsTime":1775688780,"reportTime":"2026-04-08T23:00:00.000Z","temp":33.9,"dewp":-3.3,"wdir":210,"wspd":9,"wgst":15,"visib":"10+","altim":1009.2,"slp":1006.9,"qcField":4,"metarType":"METAR","rawOb":"METAR KDVT 082253Z 21009G15KT 10SM BKN110 34/M03 A2980 RMK AO2 SLP069 T03391033","lat":33.6902,"lon":-112.0662,"elev":454,"name":"Phoenix/Deer Valley Arpt, AZ, US","cover":"BKN","clouds":[{"cover":"BKN","base":11000}],"fltCat":"VFR"},{"icaoId":"KPGA","receiptTime":"2026-04-08T22:56:28.893Z","obsTime":1775688780,"reportTime":"2026-04-08T23:00:00.000Z","temp":28.3,"dewp":-10,"wdir":"VRB","wspd":3,"visib":"10+","altim":1012.6,"slp":1006.6,"qcField":14,"metarType":"METAR","rawOb":"METAR KPGA 082253Z AUTO VRB03KT 10SM CLR 28/M10 A2990 RMK AO2 SLP066 T02831100 $","lat":36.9211,"lon":-111.4487,"elev":1310,"name":"Page Muni, AZ, US","cover":"CLR","clouds":[],"fltCat":"VFR"},{"icaoId":"KPRC","receiptTime":"2026-04-08T22:56:29.950Z","obsTime":1775688780,"reportTime":"2026-04-08T23:00:00.000Z","temp":25.6,"dewp":-5.6,"wdir":200,"wspd":14,"wgst":19,"visib":"10+","altim":1016,"slp":1009.2,"qcField":4,"metarType":"METAR","rawOb":"METAR KPRC 082253Z 20014G19KT 10SM CLR 26/M06 A3000 RMK AO2 SLP092 T02561056","lat":34.6491,"lon":-112.4223,"elev":1528,"name":"Prescott/Love Fld, AZ, US","cover":"CLR","clouds":[],"fltCat":"VFR"},{"icaoId":"KPHX","receiptTime":"2026-04-08T22:54:11.258Z","obsTime":1775688660,"reportTime":"2026-04-08T23:00:00.000Z","temp":35.6,"dewp":-2.8,"wdir":210,"wspd":8,"visib":"10+","altim":1007.9,"slp":1006,"qcField":4,"metarType":"METAR","rawOb":"METAR KPHX 082251Z 21008KT 10SM FEW110 36/M03 A2976 RMK AO2 SLP060 T03561028","lat":33.4278,"lon":-112.0037,"elev":338,"name":"Phoenix/Sky Harbor Intl, AZ, US","cover":"FEW","clouds":[{"cover":"FEW","base":11000}],"fltCat":"VFR"},{"icaoId":"KSAD","receiptTime":"2026-04-08T22:54:09.556Z","obsTime":1775688660,"reportTime":"2026-04-08T23:00:00.000Z","temp":29.4,"dewp":-5,"wdir":"VRB","wspd":3,"visib":"10+","altim":1011.9,"slp":1007.5,"qcField":6,"metarType":"METAR","rawOb":"METAR KSAD 082251Z AUTO VRB03KT 10SM CLR 29/M05 A2988 RMK AO2 SLP075 T02941050","lat":32.8565,"lon":-109.636,"elev":937,"name":"Safford Rgnl, AZ, US","cover":"CLR","clouds":[],"fltCat":"VFR"},{"icaoId":"KIGM","receiptTime":"2026-04-08T22:54:10.972Z","obsTime":1775688660,"reportTime":"2026-04-08T23:00:00.000Z","temp":28.9,"dewp":-6.1,"wdir":220,"wspd":19,"wgst":29,"visib":"10+","altim":1013,"slp":1006.3,"qcField":6,"metarType":"METAR","rawOb":"METAR KIGM 082251Z AUTO 22019G29KT 10SM CLR 29/M06 A2991 RMK AO2 PK WND 24031/2239 SLP063 T02891061","lat":35.2575,"lon":-113.9341,"elev":1045,"name":"Kingman Arpt, AZ, US","cover":"CLR","clouds":[],"fltCat":"VFR"},{"icaoId":"KGEU","receiptTime":"2026-04-08T22:51:45.541Z","obsTime":1775688600,"reportTime":"2026-04-08T23:00:00.000Z","temp":34,"dewp":-5,"wdir":180,"wspd":4,"visib":"10+","altim":1007.5,"qcField":0,"metarType":"METAR","rawOb":"METAR KGEU 082250Z 18004KT 10SM CLR 34/M05 A2975","lat":33.528,"lon":-112.293,"elev":319,"name":"Glendale Muni, AZ, US","cover":"CLR","clouds":[],"fltCat":"VFR"},{"icaoId":"KGYR","receiptTime":"2026-04-08T22:47:34.751Z","obsTime":1775688420,"reportTime":"2026-04-08T23:00:00.000Z","temp":36,"dewp":-1,"wdir":290,"wspd":7,"visib":"10+","altim":1008.5,"qcField":0,"metarType":"METAR","rawOb":"METAR KGYR 082247Z 29007KT 10SM SKC 36/M01 A2978","lat":33.428,"lon":-112.368,"elev":292,"name":"Phoenix/Goodyear Muni, AZ, US","cover":"SKC","clouds":[],"fltCat":"VFR"},{"icaoId":"KCHD","receiptTime":"2026-04-08T22:48:05.849Z","obsTime":1775688420,"reportTime":"2026-04-08T23:00:00.000Z","temp":34,"dewp":-2,"wdir":180,"wspd":10,"visib":"10+","altim":1008.9,"qcField":0,"metarType":"METAR","rawOb":"METAR KCHD 082247Z 18010KT 10SM CLR 34/M02 A2979","lat":33.2669,"lon":-111.8086,"elev":378,"name":"Chandler Muni, AZ, US","cover":"CLR","clouds":[],"fltCat":"VFR"},{"icaoId":"KRYN","receiptTime":"2026-04-08T22:46:23.994Z","obsTime":1775688300,"reportTime":"2026-04-08T23:00:00.000Z","temp":33,"dewp":-3,"wdir":300,"wspd":5,"wgst":12,"visib":"10+","altim":1010.2,"qcField":0,"metarType":"METAR","rawOb":"METAR KRYN 082245Z 30005G12KT 10SM CLR 33/M03 A2983","lat":32.1418,"lon":-111.1767,"elev":731,"name":"Tucson/Ryan Fld, AZ, US","cover":"CLR","clouds":[],"fltCat":"VFR"},{"icaoId":"KIFP","receiptTime":"2026-04-08T21:50:06.742Z","obsTime":1775684940,"reportTime":"2026-04-08T22:00:00.000Z","temp":35,"dewp":-5,"wdir":210,"wspd":11,"wgst":18,"visib":"10+","altim":1007.5,"qcField":0,"metarType":"METAR","rawOb":"METAR KIFP 082149Z 21011G18KT 10SM CLR 35/M05 A2975","lat":35.1487,"lon":-114.5611,"elev":210,"name":"Bullhead City Intl, AZ, US","cover":"CLR","clouds":[],"fltCat":"VFR"}]