[{"icaoId":"KMKE","receiptTime":"2026-04-17T04:06:09.694Z","obsTime":1776398580,"reportTime":"2026-04-17T04:03:00.000Z","temp":7.2,"dewp":6.7,"wdir":170,"wspd":3,"visib":0.25,"altim":1014.3,"qcField":12,"wxString":"FG","vertVis":2,"metarType":"SPECI","rawOb":"SPECI KMKE 170403Z 17003KT 1/4SM R01L/1600V2200FT FG VV002 07/07 A2995 RMK AO2 SFC VIS 1/2 T00720067 $","lat":42.9549,"lon":-87.9045,"elev":203,"name":"Milwaukee/Mitchell Intl, WI, US","cover":"OVX","clouds":[{"cover":"OVX","base":200}],"fltCat":"LIFR"},{"icaoId":"KBUF","receiptTime":"2026-04-17T04:04:08.051Z","obsTime":1776398460,"reportTime":"2026-04-17T04:01:00.000Z","temp":14.4,"dewp":13.9,"wdir":240,"wspd":7,"visib":8,"altim":1010.6,"qcField":4,"metarType":"SPECI","rawOb":"SPECI KBUF 170401Z 24007KT 8SM OVC003 14/14 A2984 RMK AO2 T01440139","lat":42.94,"lon":-78.7361,"elev":217,"name":"Buffalo-Niagara Intl, NY, US","cover":"OVC","clouds":[{"cover":"OVC","base":300}],"fltCat":"LIFR"},{"icaoId":"KDCA","receiptTime":"2026-04-17T04:04:05.414Z","obsTime":1776398400,"reportTime":"2026-04-17T04:00:00.000Z","temp":27.2,"dewp":10.6,"wdir":320,"wspd":10,"wgst":21,"visib":"10+","altim":1009.6,"qcField":4,"metarType":"SPECI","rawOb":"SPECI KDCA 170400Z 32010G21KT 10SM FEW130 FEW250 27/11 A2981 RMK AO2 WSHFT 0340 T02720106","lat":38.8472,"lon":-77.0345,"elev":4,"name":"Washington/Reagan-National Arpt, VA, US","cover":"FEW","clouds":[{"cover":"FEW","base":13000},{"cover":"FEW","base":25000}],"fltCat":"VFR"},{"icaoId":"KFLG","receiptTime":"2026-04-17T04:00:48.658Z","obsTime":1776398220,"reportTime":"2026-04-17T04:00:00.000Z","temp":8.3,"dewp":-10,"wdir":230,"wspd":10,"visib":"10+","altim":1014.6,"slp":1008.2,"qcField":6,"metarType":"METAR","rawOb":"METAR KFLG 170357Z AUTO 23010KT 10SM CLR 08/M10 A2996 RMK AO2 SLP082 T00831100","lat":35.1443,"lon":-111.6664,"elev":2134,"name":"Flagstaff/Pulliam Arpt, AZ, US","cover":"CLR","clouds":[],"fltCat":"VFR"},{"icaoId":"KNFL","receiptTime":"2026-04-17T04:00:43.363Z","obsTime":1776398220,"reportTime":"2026-04-17T04:00:00.000Z","temp":3.9,"dewp":-11.7,"wdir":30,"wspd":16,"wgst":30,"visib":"10+","altim":1022.8,"slp":1018.9,"qcField":4,"metarType":"METAR","rawOb":"METAR KNFL 170357Z 03016G30KT 10SM CLR 04/M12 A3020 RMK AO2 PK WND 02030/0344 PRESRR SLP189 T00391117","lat":39.417,"lon":-118.705,"elev":1199,"name":"Fallon , NV, US","cover":"CLR","clouds":[],"fltCat":"VFR"},{"icaoId":"KNYL","receiptTime":"2026-04-17T04:00:43.420Z","obsTime":1776398220,"reportTime":"2026-04-17T04:00:00.000Z","temp":23.3,"dewp":1.1,"wdir":180,"wspd":5,"visib":"10+","altim":1007.2,"slp":1007,"qcField":4,"metarType":"METAR","rawOb":"METAR KNYL 170357Z 18005KT 10SM CLR 23/01 A2974 RMK AO2 SLP070 T02330011","lat":32.66,"lon":-114.6078,"elev":58,"name":"Yuma , AZ, US","cover":"CLR","clouds":[],"fltCat":"VFR"},{"icaoId":"KHDN","receiptTime":"2026-04-17T04:00:34.619Z","obsTime":1776398160,"reportTime":"2026-04-17T04:00:00.000Z","temp":-0.6,"dewp":-4.4,"wdir":260,"wspd":16,"wgst":27,"visib":"10+","altim":1013.6,"slp":1011,"qcField":70,"metarType":"METAR","rawOb":"METAR KHDN 170356Z AUTO 26016G27KT 10SM SCT040 OVC110 M01/M04 A2993 RMK AO2 PK WND 26031/0344 PRESRR SLP110 T10061044 FZRANO","lat":40.4842,"lon":-107.2296,"elev":2012,"name":"Hayden/Yampa Valley Arpt, CO, US","cover":"OVC","clouds":[{"cover":"SCT","base":4000},{"cover":"OVC","base":11000}],"fltCat":"VFR"},{"icaoId":"KCOE","receiptTime":"2026-04-17T04:00:33.933Z","obsTime":1776398160,"reportTime":"2026-04-17T04:00:00.000Z","temp":3.3,"dewp":-3.9,"wdir":0,"wspd":0,"visib":"10+","altim":1019.4,"slp":1022.7,"qcField":14,"metarType":"METAR","rawOb":"METAR KCOE 170356Z AUTO 00000KT 10SM FEW080 03/M04 A3010 RMK AO2 SLP227 T00331039 PNO $","lat":47.7719,"lon":-116.8332,"elev":693,"name":"Coeur DAlene Arpt, ID, US","cover":"FEW","clouds":[{"cover":"FEW","base":8000}],"fltCat":"VFR"},{"icaoId":"KHND","receiptTime":"2026-04-17T04:00:42.083Z","obsTime":1776398160,"reportTime":"2026-04-17T04:00:00.000Z","temp":20.6,"dewp":-1.7,"wdir":190,"wspd":9,"visib":"10+","altim":1008.2,"slp":1007.8,"qcField":14,"metarType":"METAR","rawOb":"METAR KHND 170356Z AUTO 19009KT 10SM CLR 21/M02 A2977 RMK AO2 SLP078 T02061017 $","lat":35.9657,"lon":-115.1343,"elev":740,"name":"Henderson Exec, NV, US","cover":"CLR","clouds":[],"fltCat":"VFR"},{"icaoId":"KFNL","receiptTime":"2026-04-17T04:00:34.137Z","obsTime":1776398160,"reportTime":"2026-04-17T04:00:00.000Z","temp":15,"dewp":-11.1,"wdir":320,"wspd":5,"visib":"10+","altim":1003.8,"slp":998.3,"qcField":14,"metarType":"METAR","rawOb":"METAR KFNL 170356Z AUTO 32005KT 10SM CLR 15/M11 A2964 RMK AO2 SLP983 T01501111 $","lat":40.4427,"lon":-105.0097,"elev":1529,"name":"Fort Collins/N Colorado Rgnl, CO, US","cover":"CLR","clouds":[],"fltCat":"VFR"},{"icaoId":"KPWT","receiptTime":"2026-04-17T04:00:50.916Z","obsTime":1776398160,"reportTime":"2026-04-17T04:00:00.000Z","temp":6.1,"dewp":2.2,"wdir":0,"wspd":0,"visib":"10+","altim":1025.1,"slp":1025.6,"qcField":6,"metarType":"METAR","rawOb":"METAR KPWT 170356Z AUTO 00000KT 10SM CLR 06/02 A3027 RMK AO2 SLP256 T00610022","lat":47.4942,"lon":-122.7594,"elev":143,"name":"Bremerton Arpt, WA, US","cover":"CLR","clouds":[],"fltCat":"VFR"},{"icaoId":"KSFO","receiptTime":"2026-04-17T04:00:48.119Z","obsTime":1776398160,"reportTime":"2026-04-17T04:00:00.000Z","temp":13.9,"dewp":7.2,"wdir":290,"wspd":15,"visib":"10+","altim":1017.4,"slp":1017.1,"qcField":12,"metarType":"METAR","rawOb":"METAR KSFO 170356Z 29015KT 10SM FEW200 14/07 A3004 RMK AO2 SLP171 T01390072 $","lat":37.6196,"lon":-122.3656,"elev":2,"name":"San Francisco Intl, CA, US","cover":"FEW","clouds":[{"cover":"FEW","base":20000}],"fltCat":"VFR"},{"icaoId":"KCPR","receiptTime":"2026-04-17T04:00:37.998Z","obsTime":1776398160,"reportTime":"2026-04-17T03:56:00.000Z","temp":-2.2,"dewp":-2.8,"wdir":360,"wspd":7,"visib":0.5,"altim":1012.6,"qcField":6,"wxString":"SN FZFG","precip":0.01,"vertVis":4,"metarType":"SPECI","rawOb":"SPECI KCPR 170356Z AUTO 36007KT 1/2SM R03/2600V3000FT SN FZFG VV004 M02/M03 A2990 RMK AO2 P0001 T10221028","lat":42.8978,"lon":-106.4736,"elev":1623,"name":"Casper/Natrona Cnty, WY, US","cover":"OVX","clouds":[{"cover":"OVX","base":400}],"fltCat":"LIFR"},{"icaoId":"KSDF","receiptTime":"2026-04-17T04:00:48.035Z","obsTime":1776398160,"reportTime":"2026-04-17T04:00:00.000Z","temp":21.7,"dewp":10,"wdir":230,"wspd":8,"visib":"10+","altim":1015,"slp":1014.5,"qcField":4,"metarType":"METAR","rawOb":"METAR KSDF 170356Z 23008KT 10SM FEW070 OVC180 22/10 A2997 RMK AO2 SLP145 T02170100","lat":38.1774,"lon":-85.7308,"elev":146,"name":"Louisville Intl, KY, US","cover":"OVC","clouds":[{"cover":"FEW","base":7000},{"cover":"OVC","base":18000}],"fltCat":"VFR"},{"icaoId":"KTPH","receiptTime":"2026-04-17T04:00:46.255Z","obsTime":1776398160,"reportTime":"2026-04-17T04:00:00.000Z","temp":6.1,"dewp":-21.1,"wdir":310,"wspd":18,"wgst":25,"visib":"10+","altim":1017,"slp":1014.6,"qcField":6,"metarType":"METAR","rawOb":"METAR KTPH 170356Z AUTO 31018G25KT 10SM CLR 06/M21 A3003 RMK AO2 SLP146 T00611211","lat":38.0505,"lon":-117.0906,"elev":1647,"name":"Tonopah Arpt, NV, US","cover":"CLR","clouds":[],"fltCat":"VFR"},{"icaoId":"KEKO","receiptTime":"2026-04-17T04:00:45.913Z","obsTime":1776398160,"reportTime":"2026-04-17T04:00:00.000Z","temp":-2.2,"dewp":-9.4,"wdir":0,"wspd":0,"visib":"10+","altim":1021.4,"slp":1023.7,"qcField":6,"metarType":"METAR","rawOb":"METAR KEKO 170356Z AUTO 00000KT 10SM CLR M02/M09 A3016 RMK AO2 SLP237 T10221094","lat":40.824,"lon":-115.7863,"elev":1541,"name":"Elko Rgnl, NV, US","cover":"CLR","clouds":[],"fltCat":"VFR"},{"icaoId":"KJAX","receiptTime":"2026-04-17T04:00:37.400Z","obsTime":1776398160,"reportTime":"2026-04-17T04:00:00.000Z","temp":20,"dewp":13.3,"wdir":200,"wspd":7,"visib":"10+","altim":1018,"slp":1017.9,"qcField":4,"metarType":"METAR","rawOb":"METAR KJAX 170356Z 20007KT 10SM CLR 20/13 A3006 RMK AO2 SLP179 T02000133","lat":30.4953,"lon":-81.6937,"elev":8,"name":"Jacksonville Intl, FL, US","cover":"CLR","clouds":[],"fltCat":"VFR"},{"icaoId":"KCEC","receiptTime":"2026-04-17T04:00:38.832Z","obsTime":1776398160,"reportTime":"2026-04-17T04:00:00.000Z","temp":10.6,"dewp":7.2,"wdir":350,"wspd":11,"wgst":21,"visib":"10+","altim":1023.8,"slp":1023.9,"qcField":6,"metarType":"METAR","rawOb":"METAR KCEC 170356Z AUTO 35011G21KT 10SM CLR 11/07 A3023 RMK AO2 PK WND 33027/0316 SLP239 T01060072","lat":41.7836,"lon":-124.238,"elev":17,"name":"Crescent City/McNama, CA, US","cover":"CLR","clouds":[],"fltCat":"VFR"},{"icaoId":"KSDY","receiptTime":"2026-04-17T04:00:44.930Z","obsTime":1776398160,"reportTime":"2026-04-17T04:00:00.000Z","temp":-1.7,"dewp":-7.2,"wdir":340,"wspd":12,"visib":"10+","altim":1014.3,"slp":1016.7,"qcField":78,"metarType":"METAR","rawOb":"METAR KSDY 170356Z AUTO 34012KT 10SM CLR M02/M07 A2995 RMK AO2 SLP167 T10171072 FZRANO $","lat":47.7029,"lon":-104.1951,"elev":600,"name":"Sidney/Richland Muni, MT, US","cover":"CLR","clouds":[],"fltCat":"VFR"},{"icaoId":"KEGE","receiptTime":"2026-04-17T04:00:52.474Z","obsTime":1776398160,"reportTime":"2026-04-17T04:00:00.000Z","temp":13.3,"dewp":-13.9,"wdir":220,"wspd":13,"wgst":16,"visib":"10+","altim":1008.9,"slp":1002.9,"qcField":6,"metarType":"METAR","rawOb":"METAR KEGE 170356Z AUTO 22013G16KT 10SM CLR 13/M14 A2979 RMK AO2 SLP029 T01331139","lat":39.6448,"lon":-106.9176,"elev":1993,"name":"Eagle Cnty Rgnl, CO, US","cover":"CLR","clouds":[],"fltCat":"VFR"},{"icaoId":"KBZN","receiptTime":"2026-04-17T04:00:38.689Z","obsTime":1776398160,"reportTime":"2026-04-17T04:00:00.000Z","temp":-5.6,"dewp":-7.2,"wdir":130,"wspd":7,"visib":"10+","altim":1015.7,"slp":1020.3,"qcField":4,"metarType":"METAR","rawOb":"METAR KBZN 170356Z 13007KT 10SM FEW090 M06/M07 A2999 RMK AO2 SLP203 T10561072","lat":45.7876,"lon":-111.1615,"elev":1349,"name":"Bozeman/Gallatin Fld, MT, US","cover":"FEW","clouds":[{"cover":"FEW","base":9000}],"fltCat":"VFR"},{"icaoId":"KCOD","receiptTime":"2026-04-17T04:00:33.918Z","obsTime":1776398160,"reportTime":"2026-04-17T04:00:00.000Z","temp":-1.1,"dewp":-6.7,"wdir":350,"wspd":6,"visib":"10+","altim":1014.3,"slp":1015.9,"qcField":78,"metarType":"METAR","rawOb":"METAR KCOD 170356Z AUTO 35006KT 10SM FEW065 SCT075 BKN100 M01/M07 A2995 RMK AO2 SLP159 T10111067 FZRANO $","lat":44.52,"lon":-109.0268,"elev":1550,"name":"Cody/Yellowstone Rgnl, WY, US","cover":"BKN","clouds":[{"cover":"FEW","base":6500},{"cover":"SCT","base":7500},{"cover":"BKN","base":10000}],"fltCat":"VFR"},{"icaoId":"KCGZ","receiptTime":"2026-04-17T04:00:33.766Z","obsTime":1776398160,"reportTime":"2026-04-17T04:00:00.000Z","temp":22.2,"dewp":-6.7,"wdir":290,"wspd":7,"visib":"10+","altim":1008.9,"slp":1008,"qcField":14,"metarType":"METAR","rawOb":"METAR KCGZ 170356Z AUTO 29007KT 10SM CLR 22/M07 A2979 RMK AO2 SLP080 T02221067 $","lat":32.9531,"lon":-111.7725,"elev":444,"name":"Casa Granda Muni, AZ, US","cover":"CLR","clouds":[],"fltCat":"VFR"},{"icaoId":"KINW","receiptTime":"2026-04-17T04:00:37.339Z","obsTime":1776398160,"reportTime":"2026-04-17T04:00:00.000Z","temp":15,"dewp":-9.4,"wdir":220,"wspd":8,"visib":"10+","altim":1012.6,"slp":1007.6,"qcField":6,"metarType":"METAR","rawOb":"METAR KINW 170356Z AUTO 22008KT 10SM CLR 15/M09 A2990 RMK AO2 SLP076 T01501094","lat":35.0279,"lon":-110.7221,"elev":1492,"name":"Winslow/Lindberg Rgnl, AZ, US","cover":"CLR","clouds":[],"fltCat":"VFR"},{"icaoId":"KGUC","receiptTime":"2026-04-17T04:00:34.516Z","obsTime":1776398160,"reportTime":"2026-04-17T04:00:00.000Z","temp":9.4,"dewp":-12.2,"wdir":220,"wspd":6,"visib":"10+","altim":1011.6,"slp":1007,"qcField":14,"metarType":"METAR","rawOb":"METAR KGUC 170356Z AUTO 22006KT 10SM CLR 09/M12 A2987 RMK AO2 SLP070 T00941122 $","lat":38.5322,"lon":-106.9419,"elev":2337,"name":"Gunnison Arpt, CO, US","cover":"CLR","clouds":[],"fltCat":"VFR"},{"icaoId":"KLAS","receiptTime":"2026-04-17T04:00:37.570Z","obsTime":1776398160,"reportTime":"2026-04-17T04:00:00.000Z","temp":22.8,"dewp":-2.8,"wdir":210,"wspd":12,"visib":"10+","altim":1006.9,"slp":1004.9,"qcField":12,"metarType":"METAR","rawOb":"METAR KLAS 170356Z 21012KT 10SM FEW250 23/M03 A2973 RMK AO2 SLP049 T02281028 $","lat":36.0719,"lon":-115.1634,"elev":662,"name":"Las Vegas/Reid Intl, NV, US","cover":"FEW","clouds":[{"cover":"FEW","base":25000}],"fltCat":"VFR"},{"icaoId":"KJAC","receiptTime":"2026-04-17T04:00:42.443Z","obsTime":1776398160,"reportTime":"2026-04-17T04:00:00.000Z","temp":-5,"dewp":-9.4,"wdir":260,"wspd":10,"visib":9,"altim":1014,"slp":1017.5,"qcField":70,"wxString":"-SN","precip":0.005,"metarType":"METAR","rawOb":"METAR KJAC 170356Z AUTO 26010KT 9SM -SN SCT025 SCT036 OVC055 M05/M09 A2994 RMK AO2 SLP175 P0000 T10501094 FZRANO","lat":43.6129,"lon":-110.7366,"elev":1967,"name":"Jackson Hole Arpt, WY, US","cover":"OVC","clouds":[{"cover":"SCT","base":2500},{"cover":"SCT","base":3600},{"cover":"OVC","base":5500}],"fltCat":"VFR"},{"icaoId":"KCHS","receiptTime":"2026-04-17T04:00:38.907Z","obsTime":1776398160,"reportTime":"2026-04-17T04:00:00.000Z","temp":19.4,"dewp":16.1,"wdir":200,"wspd":8,"visib":"10+","altim":1017,"slp":1016.8,"qcField":4,"metarType":"METAR","rawOb":"METAR KCHS 170356Z 20008KT 10SM FEW250 19/16 A3003 RMK AO2 SLP168 T01940161","lat":32.8995,"lon":-80.0407,"elev":12,"name":"Charleston Intl, SC, US","cover":"FEW","clouds":[{"cover":"FEW","base":25000}],"fltCat":"VFR"},{"icaoId":"KUKI","receiptTime":"2026-04-17T04:00:46.404Z","obsTime":1776398160,"reportTime":"2026-04-17T04:00:00.000Z","temp":12.2,"dewp":4.4,"wdir":0,"wspd":0,"visib":"10+","altim":1019,"slp":1018.8,"qcField":6,"metarType":"METAR","rawOb":"METAR KUKI 170356Z AUTO 00000KT 10SM CLR 12/04 A3009 RMK AO2 SLP188 T01220044","lat":39.1278,"lon":-123.2001,"elev":183,"name":"Ukiah Muni, CA, US","cover":"CLR","clouds":[],"fltCat":"VFR"},{"icaoId":"KLWS","receiptTime":"2026-04-17T04:00:39.747Z","obsTime":1776398160,"reportTime":"2026-04-17T04:00:00.000Z","temp":8.9,"dewp":-3.3,"wdir":250,"wspd":6,"visib":"10+","altim":1021.1,"slp":1021.5,"qcField":4,"metarType":"METAR","rawOb":"METAR KLWS 170356Z 25006KT 10SM OVC090 09/M03 A3015 RMK AO2 SLP215 T00891033","lat":46.3746,"lon":-117.0153,"elev":435,"name":"Lewiston/Nez Perce Cnty, ID, US","cover":"OVC","clouds":[{"cover":"OVC","base":9000}],"fltCat":"VFR"},{"icaoId":"KVIS","receiptTime":"2026-04-17T04:00:32.757Z","obsTime":1776398160,"reportTime":"2026-04-17T04:00:00.000Z","temp":16.7,"dewp":5.6,"wdir":310,"wspd":9,"visib":"10+","altim":1014.3,"slp":1014.3,"qcField":14,"metarType":"METAR","rawOb":"METAR KVIS 170356Z AUTO 31009KT 10SM CLR 17/06 A2995 RMK AO2 SLP143 T01670056 PNO $","lat":36.3135,"lon":-119.3884,"elev":92,"name":"Visalia Muni, CA, US","cover":"CLR","clouds":[],"fltCat":"VFR"},{"icaoId":"KDUG","receiptTime":"2026-04-17T04:02:20.229Z","obsTime":1776398160,"reportTime":"2026-04-17T04:00:00.000Z","temp":18.9,"dewp":-7.8,"wdir":200,"wspd":10,"visib":"10+","altim":1014.3,"slp":1008.9,"qcField":38,"metarType":"METAR","rawOb":"METAR KDUG 170356Z AUTO 20010KT 10SM CLR 19/M08 A2995 RMK AO2 SLP089 T01891078 TSNO","lat":31.4725,"lon":-109.6022,"elev":1260,"name":"Douglas/Bisbee Intl, AZ, US","cover":"CLR","clouds":[],"fltCat":"VFR"},{"icaoId":"KSBP","receiptTime":"2026-04-17T04:00:47.976Z","obsTime":1776398160,"reportTime":"2026-04-17T04:00:00.000Z","temp":13.9,"dewp":8.9,"wdir":290,"wspd":3,"visib":"10+","altim":1013.3,"slp":1013.1,"qcField":6,"metarType":"METAR","rawOb":"METAR KSBP 170356Z AUTO 29003KT 10SM CLR 14/09 A2992 RMK AO2 SLP131 T01390089","lat":35.2381,"lon":-120.644,"elev":52,"name":"San Luis Obispo/San Luis Cnty, CA, US","cover":"CLR","clouds":[],"fltCat":"VFR"},{"icaoId":"KPVU","receiptTime":"2026-04-17T04:00:50.872Z","obsTime":1776398160,"reportTime":"2026-04-17T04:00:00.000Z","temp":2.8,"dewp":-7.2,"wdir":320,"wspd":22,"wgst":27,"visib":"10+","altim":1018.7,"slp":1017.1,"qcField":4,"metarType":"METAR","rawOb":"METAR KPVU 170356Z 32022G27KT 10SM FEW080 BKN100 03/M07 A3008 RMK AO2 PK WND 32027/0352 PRESRR SLP171 T00281072","lat":40.224,"lon":-111.7252,"elev":1370,"name":"Provo Muni, UT, US","cover":"BKN","clouds":[{"cover":"FEW","base":8000},{"cover":"BKN","base":10000}],"fltCat":"VFR"},{"icaoId":"KSGU","receiptTime":"2026-04-17T04:00:45.126Z","obsTime":1776398160,"reportTime":"2026-04-17T04:00:00.000Z","temp":21.1,"dewp":-5,"wdir":240,"wspd":20,"wgst":26,"visib":"10+","altim":1006.5,"slp":1004.2,"qcField":6,"metarType":"METAR","rawOb":"METAR KSGU 170356Z AUTO 24020G26KT 10SM CLR 21/M05 A2972 RMK AO2 PK WND 24026/0354 SLP042 T02111050","lat":37.0444,"lon":-113.5034,"elev":877,"name":"Saint George Muni, UT, US","cover":"CLR","clouds":[],"fltCat":"VFR"},{"icaoId":"KENV","receiptTime":"2026-04-17T04:00:52.601Z","obsTime":1776398160,"reportTime":"2026-04-17T04:00:00.000Z","temp":1.7,"dewp":-12.8,"wdir":320,"wspd":13,"wgst":20,"visib":"10+","altim":1021.4,"slp":1022.7,"qcField":70,"metarType":"METAR","rawOb":"METAR KENV 170356Z AUTO 32013G20KT 10SM CLR 02/M13 A3016 RMK AO2 SLP227 T00171128 FZRANO","lat":40.7211,"lon":-114.0312,"elev":1291,"name":"Wendover Arpt, UT, US","cover":"CLR","clouds":[],"fltCat":"VFR"},{"icaoId":"KSLE","receiptTime":"2026-04-17T04:00:39.960Z","obsTime":1776398160,"reportTime":"2026-04-17T04:00:00.000Z","temp":8.3,"dewp":2.8,"wdir":290,"wspd":6,"visib":"10+","altim":1026.8,"slp":1026.8,"qcField":6,"metarType":"METAR","rawOb":"METAR KSLE 170356Z AUTO 29006KT 10SM CLR 08/03 A3032 RMK AO2 SLP268 T00830028","lat":44.9049,"lon":-123.001,"elev":63,"name":"Salem Muni, OR, US","cover":"CLR","clouds":[],"fltCat":"VFR"},{"icaoId":"KRDM","receiptTime":"2026-04-17T04:00:39.948Z","obsTime":1776398160,"reportTime":"2026-04-17T04:00:00.000Z","temp":2.8,"dewp":-5.6,"wdir":300,"wspd":8,"visib":"10+","altim":1024.1,"slp":1025.6,"qcField":4,"metarType":"METAR","rawOb":"METAR KRDM 170356Z 30008KT 10SM CLR 03/M06 A3024 RMK AO2 SLP256 T00281056","lat":44.2558,"lon":-121.1407,"elev":930,"name":"Redmond Muni, OR, US","cover":"CLR","clouds":[],"fltCat":"VFR"},{"icaoId":"KBVU","receiptTime":"2026-04-17T03:54:12.086Z","obsTime":1776398100,"reportTime":"2026-04-17T04:00:00.000Z","temp":22,"dewp":-5,"wdir":210,"wspd":10,"visib":"10+","altim":1006.9,"qcField":6,"metarType":"METAR","rawOb":"METAR KBVU 170355Z AUTO 21010KT 10SM CLR 22/M05 A2973 RMK AO2","lat":35.9489,"lon":-114.8633,"elev":654,"name":"Boulder City Muni, NV, US","cover":"CLR","clouds":[],"fltCat":"VFR"},{"icaoId":"KSOW","receiptTime":"2026-04-17T03:58:05.033Z","obsTime":1776398100,"reportTime":"2026-04-17T04:00:00.000Z","temp":12,"dewp":-14,"wdir":190,"wspd":12,"visib":"10+","altim":1015.7,"qcField":6,"metarType":"METAR","rawOb":"METAR KSOW 170355Z AUTO 19012KT 10SM CLR 12/M14 A2999 RMK AO2","lat":34.2686,"lon":-110.0019,"elev":1954,"name":"Show Low Muni, AZ, US","cover":"CLR","clouds":[],"fltCat":"VFR"},{"icaoId":"KHTH","receiptTime":"2026-04-17T04:00:50.313Z","obsTime":1776398100,"reportTime":"2026-04-17T04:00:00.000Z","temp":7,"dewp":-15,"wdir":340,"wspd":17,"wgst":23,"visib":9,"altim":1021.4,"qcField":6,"metarType":"METAR","rawOb":"METAR KHTH 170355Z AUTO 34017G23KT 9SM CLR 07/M15 A3016 RMK A01","lat":38.5448,"lon":-118.6314,"elev":1281,"name":"Hawthorne Muni, NV, US","cover":"CLR","clouds":[],"fltCat":"VFR"},{"icaoId":"KHOB","receiptTime":"2026-04-17T03:58:05.864Z","obsTime":1776398100,"reportTime":"2026-04-17T04:00:00.000Z","temp":22,"dewp":14,"wdir":170,"wspd":11,"visib":"10+","altim":1011.9,"qcField":6,"metarType":"METAR","rawOb":"METAR KHOB 170355Z AUTO 17011KT 10SM CLR 22/14 A2988 RMK AO2","lat":32.6797,"lon":-103.2222,"elev":1112,"name":"Hobbs Arpt, NM, US","cover":"CLR","clouds":[],"fltCat":"VFR"},{"icaoId":"KAST","receiptTime":"2026-04-17T04:00:51.835Z","obsTime":1776398100,"reportTime":"2026-04-17T04:00:00.000Z","temp":7.8,"dewp":4.4,"wdir":280,"wspd":4,"visib":"10+","altim":1027.5,"slp":1027.2,"qcField":6,"metarType":"METAR","rawOb":"METAR KAST 170355Z AUTO 28004KT 10SM SCT037 BKN049 OVC060 08/04 A3034 RMK AO2 SLP272 T00780044","lat":46.157,"lon":-123.8833,"elev":3,"name":"Astoria Rgnl, OR, US","cover":"OVC","clouds":[{"cover":"SCT","base":3700},{"cover":"BKN","base":4900},{"cover":"OVC","base":6000}],"fltCat":"VFR"},{"icaoId":"KBJC","receiptTime":"2026-04-17T04:00:38.499Z","obsTime":1776398100,"reportTime":"2026-04-17T04:00:00.000Z","temp":13,"dewp":-11,"wdir":240,"wspd":7,"visib":"10+","altim":1004.8,"qcField":6,"metarType":"METAR","rawOb":"METAR KBJC 170355Z AUTO 24007KT 10SM CLR 13/M11 A2967 RMK AO2","lat":39.9008,"lon":-105.1042,"elev":1694,"name":"Rocky Mtn Metro, CO, US","cover":"CLR","clouds":[],"fltCat":"VFR"},{"icaoId":"KCMA","receiptTime":"2026-04-17T04:00:33.868Z","obsTime":1776398100,"reportTime":"2026-04-17T04:00:00.000Z","temp":14.4,"dewp":11.7,"wdir":140,"wspd":3,"visib":"10+","altim":1012.3,"slp":1012.8,"qcField":6,"metarType":"METAR","rawOb":"METAR KCMA 170355Z AUTO 14003KT 10SM CLR 14/12 A2989 RMK AO2 SLP128 T01440117","lat":34.2114,"lon":-119.0876,"elev":20,"name":"Camarillo Arpt, CA, US","cover":"CLR","clouds":[],"fltCat":"VFR"},{"icaoId":"KCHD","receiptTime":"2026-04-17T04:00:33.779Z","obsTime":1776398100,"reportTime":"2026-04-17T04:00:00.000Z","temp":24.3,"dewp":-8.1,"wdir":240,"wspd":5,"visib":"10+","altim":1008.5,"qcField":14,"metarType":"METAR","rawOb":"METAR KCHD 170355Z AUTO 24005KT 10SM SCT200 SCT220 24/M08 A2978 RMK AO2 T02431081 $","lat":33.2669,"lon":-111.8086,"elev":378,"name":"Chandler Muni, AZ, US","cover":"SCT","clouds":[{"cover":"SCT","base":20000},{"cover":"SCT","base":22000}],"fltCat":"VFR"},{"icaoId":"KHII","receiptTime":"2026-04-17T04:00:48.847Z","obsTime":1776398100,"reportTime":"2026-04-17T04:00:00.000Z","temp":25,"dewp":-4,"wdir":190,"wspd":8,"visib":9,"altim":1006.5,"qcField":6,"metarType":"METAR","rawOb":"METAR KHII 170355Z AUTO 19008KT 9SM CLR 25/M04 A2972 RMK AO2","lat":34.5659,"lon":-114.3522,"elev":241,"name":"Lake Havasu City Arpt, AZ, US","cover":"CLR","clouds":[],"fltCat":"VFR"},{"icaoId":"KSEZ","receiptTime":"2026-04-17T04:00:48.105Z","obsTime":1776398100,"reportTime":"2026-04-17T04:00:00.000Z","temp":15,"dewp":-9,"wdir":130,"wspd":8,"visib":"10+","altim":1012.6,"qcField":6,"metarType":"METAR","rawOb":"METAR KSEZ 170355Z AUTO 13008KT 10SM CLR 15/M09 A2990 RMK AO2","lat":34.8467,"lon":-111.7884,"elev":1455,"name":"Sedona Arpt, AZ, US","cover":"CLR","clouds":[],"fltCat":"VFR"},{"icaoId":"KAEG","receiptTime":"2026-04-17T04:02:19.787Z","obsTime":1776398100,"reportTime":"2026-04-17T04:00:00.000Z","temp":11.5,"dewp":-18.6,"wdir":280,"wspd":8,"visib":"10+","altim":1013,"qcField":6,"metarType":"METAR","rawOb":"METAR KAEG 170355Z AUTO 28008KT 10SM CLR 12/M19 A2991 RMK AO2 T01151186","lat":35.15,"lon":-106.7929,"elev":1771,"name":"Albuquerque/Double Eagle Arpt, NM, US","cover":"CLR","clouds":[],"fltCat":"VFR"},{"icaoId":"KHCR","receiptTime":"2026-04-17T04:00:34.606Z","obsTime":1776398100,"reportTime":"2026-04-17T04:00:00.000Z","temp":-1.4,"dewp":-6.7,"wdir":20,"wspd":10,"visib":"10+","altim":1016.7,"qcField":14,"metarType":"METAR","rawOb":"METAR KHCR 170355Z AUTO 02010KT 10SM SCT048 BKN065 OVC090 M01/M07 A3002 RMK AO2 T10141067 $","lat":40.4774,"lon":-111.4329,"elev":1708,"name":"Heber City Muni, UT, US","cover":"OVC","clouds":[{"cover":"SCT","base":4800},{"cover":"BKN","base":6500},{"cover":"OVC","base":9000}],"fltCat":"VFR"},{"icaoId":"KLRU","receiptTime":"2026-04-17T03:58:05.881Z","obsTime":1776398100,"reportTime":"2026-04-17T04:00:00.000Z","temp":16.6,"dewp":-16.1,"wdir":270,"wspd":9,"visib":"10+","altim":1013.6,"qcField":6,"metarType":"METAR","rawOb":"METAR KLRU 170355Z AUTO 27009KT 10SM CLR 17/M16 A2993 RMK AO2 T01661161","lat":32.2884,"lon":-106.9131,"elev":1355,"name":"Las Cruces Intl, NM, US","cover":"CLR","clouds":[],"fltCat":"VFR"},{"icaoId":"KRTS","receiptTime":"2026-04-17T04:00:47.746Z","obsTime":1776398100,"reportTime":"2026-04-17T04:00:00.000Z","temp":2,"dewp":-15,"wdir":40,"wspd":8,"visib":"10+","altim":1022.4,"qcField":6,"metarType":"METAR","rawOb":"METAR KRTS 170355Z AUTO 04008KT 10SM CLR 02/M15 A3019 RMK AO2","lat":39.6658,"lon":-119.8731,"elev":1537,"name":"Reno/Stead Arpt, NV, US","cover":"CLR","clouds":[],"fltCat":"VFR"},{"icaoId":"KMHR","receiptTime":"2026-04-17T04:00:47.368Z","obsTime":1776398100,"reportTime":"2026-04-17T04:00:00.000Z","temp":17,"dewp":-3,"wdir":330,"wspd":14,"visib":"10+","altim":1015.3,"qcField":6,"metarType":"METAR","rawOb":"METAR KMHR 170355Z AUTO 33014KT 10SM CLR 17/M03 A2998 RMK AO2","lat":38.56,"lon":-121.284,"elev":30,"name":"Sacramento/Mather Fld, CA, US","cover":"CLR","clouds":[],"fltCat":"VFR"},{"icaoId":"KGPI","receiptTime":"2026-04-17T04:00:34.451Z","obsTime":1776398100,"reportTime":"2026-04-17T04:00:00.000Z","temp":0,"dewp":-1.7,"wdir":180,"wspd":6,"visib":"10+","altim":1017.4,"slp":1019.6,"qcField":4,"metarType":"METAR","rawOb":"METAR KGPI 170355Z 18006KT 10SM OVC060 00/M02 A3004 RMK AO2 SLP196 T00001017","lat":48.3041,"lon":-114.2643,"elev":903,"name":"Kalispell/Glacier Park Intl, MT, US","cover":"OVC","clouds":[{"cover":"OVC","base":6000}],"fltCat":"VFR"},{"icaoId":"KMEV","receiptTime":"2026-04-17T04:00:47.343Z","obsTime":1776398100,"reportTime":"2026-04-17T04:00:00.000Z","temp":4,"dewp":-14,"wdir":50,"wspd":7,"wgst":14,"visib":"10+","altim":1021.8,"qcField":6,"metarType":"METAR","rawOb":"METAR KMEV 170355Z AUTO 05007G14KT 10SM FEW039 04/M14 A3017 RMK AO2","lat":38.9963,"lon":-119.75,"elev":1437,"name":"Minden-Tahoe Arpt, NV, US","cover":"FEW","clouds":[{"cover":"FEW","base":3900}],"fltCat":"VFR"},{"icaoId":"KHAF","receiptTime":"2026-04-17T03:58:06.352Z","obsTime":1776398100,"reportTime":"2026-04-17T04:00:00.000Z","temp":12,"dewp":10,"wdir":340,"wspd":14,"wgst":19,"visib":7,"altim":1017.4,"qcField":6,"metarType":"METAR","rawOb":"METAR KHAF 170355Z AUTO 34014G19KT 7SM CLR 12/10 A3004 RMK AO2","lat":37.5136,"lon":-122.4996,"elev":11,"name":"Half Moon Bay Arpt, CA, US","cover":"CLR","clouds":[],"fltCat":"VFR"},{"icaoId":"KRNO","receiptTime":"2026-04-17T04:00:41.818Z","obsTime":1776398100,"reportTime":"2026-04-17T04:00:00.000Z","temp":5,"dewp":-13.3,"wdir":20,"wspd":11,"wgst":19,"visib":"10+","altim":1022.1,"slp":1021.7,"qcField":4,"metarType":"METAR","rawOb":"METAR KRNO 170355Z 02011G19KT 10SM CLR 05/M13 A3018 RMK AO2 SLP217 T00501133","lat":39.5077,"lon":-119.7683,"elev":1344,"name":"Reno/Tahoe Intl, NV, US","cover":"CLR","clouds":[],"fltCat":"VFR"},{"icaoId":"KCXP","receiptTime":"2026-04-17T04:00:45.386Z","obsTime":1776398100,"reportTime":"2026-04-17T04:00:00.000Z","temp":5,"dewp":-14,"wdir":40,"wspd":6,"wgst":11,"visib":"10+","altim":1022.4,"qcField":6,"metarType":"METAR","rawOb":"METAR KCXP 170355Z AUTO 04006G11KT 10SM CLR 05/M14 A3019 RMK AO2","lat":39.1905,"lon":-119.7319,"elev":1431,"name":"Carson City Arpt, NV, US","cover":"CLR","clouds":[],"fltCat":"VFR"},{"icaoId":"KADM","receiptTime":"2026-04-17T04:04:04.441Z","obsTime":1776398100,"reportTime":"2026-04-17T04:00:00.000Z","temp":22,"dewp":19,"wdir":0,"wspd":0,"visib":"10+","altim":1011.3,"qcField":6,"metarType":"METAR","rawOb":"METAR KADM 170355Z AUTO 00000KT 10SM CLR 22/19 A2986 RMK AO2","lat":34.3007,"lon":-97.0089,"elev":223,"name":"Ardmore Muni, OK, US","cover":"CLR","clouds":[],"fltCat":"VFR"},{"icaoId":"KIFP","receiptTime":"2026-04-17T04:00:37.229Z","obsTime":1776398100,"reportTime":"2026-04-17T04:00:00.000Z","temp":26,"dewp":-3,"wdir":160,"wspd":13,"visib":"10+","altim":1005.5,"qcField":6,"metarType":"METAR","rawOb":"METAR KIFP 170355Z AUTO 16013KT 10SM CLR 26/M03 A2969 RMK AO2","lat":35.1487,"lon":-114.5611,"elev":210,"name":"Bullhead City Intl, AZ, US","cover":"CLR","clouds":[],"fltCat":"VFR"},{"icaoId":"KCOS","receiptTime":"2026-04-17T03:58:06.496Z","obsTime":1776398040,"reportTime":"2026-04-17T04:00:00.000Z","temp":17.2,"dewp":-13.9,"wdir":250,"wspd":19,"wgst":40,"visib":"10+","altim":1007.2,"slp":1000,"qcField":4,"metarType":"METAR","rawOb":"METAR KCOS 170354Z 25019G40KT 10SM FEW120 BKN200 17/M14 A2974 RMK AO2 PK WND 23040/0349 SLP000 T01721139","lat":38.8095,"lon":-104.6887,"elev":1886,"name":"Colorado Spring Arpt, CO, US","cover":"BKN","clouds":[{"cover":"FEW","base":12000},{"cover":"BKN","base":20000}],"fltCat":"VFR"},{"icaoId":"KGCN","receiptTime":"2026-04-17T03:58:06.338Z","obsTime":1776398040,"reportTime":"2026-04-17T04:00:00.000Z","temp":9.4,"dewp":-8.9,"wdir":230,"wspd":8,"visib":"10+","altim":1014,"slp":1007.6,"qcField":6,"metarType":"METAR","rawOb":"METAR KGCN 170354Z AUTO 23008KT 10SM CLR 09/M09 A2994 RMK AO2 SLP076 T00941089","lat":35.9458,"lon":-112.1554,"elev":1993,"name":"Grand Canyon Park Arpt, AZ, US","cover":"CLR","clouds":[],"fltCat":"VFR"},{"icaoId":"KFFZ","receiptTime":"2026-04-17T03:57:10.994Z","obsTime":1776398040,"reportTime":"2026-04-17T04:00:00.000Z","temp":25,"dewp":-11.1,"wdir":260,"wspd":6,"visib":"10+","altim":1008.2,"slp":1006,"qcField":4,"metarType":"METAR","rawOb":"METAR KFFZ 170354Z 26006KT 10SM CLR 25/M11 A2977 RMK AO2 SLP060 T02501111","lat":33.4659,"lon":-111.7212,"elev":420,"name":"Mesa/Falcon Fld, AZ, US","cover":"CLR","clouds":[],"fltCat":"VFR"},{"icaoId":"KMEM","receiptTime":"2026-04-17T03:58:05.894Z","obsTime":1776398040,"reportTime":"2026-04-17T04:00:00.000Z","temp":25,"dewp":14.4,"wdir":170,"wspd":6,"visib":"10+","altim":1016,"slp":1015.5,"qcField":12,"metarType":"METAR","rawOb":"METAR KMEM 170354Z 17006KT 10SM BKN070 25/14 A3000 RMK AO2 TSB35E51 SLP155 FRQ LTGIC DSNT NE T02500144 $","lat":35.0564,"lon":-89.9864,"elev":78,"name":"Memphis Intl, TN, US","cover":"BKN","clouds":[{"cover":"BKN","base":7000}],"fltCat":"VFR"},{"icaoId":"KIND","receiptTime":"2026-04-17T03:58:06.572Z","obsTime":1776398040,"reportTime":"2026-04-17T04:00:00.000Z","temp":17.8,"dewp":11.1,"wdir":230,"wspd":4,"visib":"10+","altim":1014.3,"slp":1013.7,"qcField":4,"metarType":"METAR","rawOb":"METAR KIND 170354Z 23004KT 10SM FEW250 18/11 A2995 RMK AO2 SLP137 T01780111","lat":39.7252,"lon":-86.2816,"elev":242,"name":"Indianapolis Intl, IN, US","cover":"FEW","clouds":[{"cover":"FEW","base":25000}],"fltCat":"VFR"},{"icaoId":"KGSO","receiptTime":"2026-04-17T03:58:06.814Z","obsTime":1776398040,"reportTime":"2026-04-17T04:00:00.000Z","temp":22.8,"dewp":10,"wdir":240,"wspd":8,"visib":"10+","altim":1014.3,"slp":1013,"qcField":4,"metarType":"METAR","rawOb":"METAR KGSO 170354Z 24008KT 10SM OVC110 23/10 A2995 RMK AO2 SLP130 T02280100","lat":36.0969,"lon":-79.9432,"elev":275,"name":"Greensboro Intl, NC, US","cover":"OVC","clouds":[{"cover":"OVC","base":11000}],"fltCat":"VFR"},{"icaoId":"KPHL","receiptTime":"2026-04-17T03:58:06.161Z","obsTime":1776398040,"reportTime":"2026-04-17T04:00:00.000Z","temp":25.6,"dewp":13.9,"wdir":220,"wspd":10,"visib":"10+","altim":1007.2,"slp":1007,"qcField":12,"metarType":"METAR","rawOb":"METAR KPHL 170354Z 22010KT 10SM SCT100 BKN130 26/14 A2974 RMK AO2 SLP070 T02560139 $","lat":39.8733,"lon":-75.2268,"elev":2,"name":"Philadelphia Intl, PA, US","cover":"BKN","clouds":[{"cover":"SCT","base":10000},{"cover":"BKN","base":13000}],"fltCat":"VFR"},{"icaoId":"KROC","receiptTime":"2026-04-17T03:58:06.219Z","obsTime":1776398040,"reportTime":"2026-04-17T04:00:00.000Z","temp":16.1,"dewp":15.6,"wdir":260,"wspd":4,"visib":"10+","altim":1009.9,"slp":1010,"qcField":12,"metarType":"METAR","rawOb":"METAR KROC 170354Z 26004KT 10SM SCT016 BKN033 OVC085 16/16 A2982 RMK AO2 SLP100 T01610156 $","lat":43.1172,"lon":-77.6754,"elev":166,"name":"Rochester Intl Arpt, NY, US","cover":"OVC","clouds":[{"cover":"SCT","base":1600},{"cover":"BKN","base":3300},{"cover":"OVC","base":8500}],"fltCat":"VFR"},{"icaoId":"KAPC","receiptTime":"2026-04-17T03:58:06.304Z","obsTime":1776398040,"reportTime":"2026-04-17T04:00:00.000Z","temp":13.3,"dewp":-3.9,"wdir":340,"wspd":9,"visib":"10+","altim":1017,"slp":1016,"qcField":6,"metarType":"METAR","rawOb":"METAR KAPC 170354Z AUTO 34009KT 10SM CLR 13/M04 A3003 RMK AO2 SLP160 T01331039","lat":38.2075,"lon":-122.2804,"elev":5,"name":"Napa Cnty Arpt, CA, US","cover":"CLR","clouds":[],"fltCat":"VFR"},{"icaoId":"KEUG","receiptTime":"2026-04-17T03:58:06.326Z","obsTime":1776398040,"reportTime":"2026-04-17T04:00:00.000Z","temp":6.1,"dewp":2.8,"wdir":290,"wspd":5,"visib":"10+","altim":1026.8,"slp":1026.8,"qcField":4,"metarType":"METAR","rawOb":"METAR KEUG 170354Z 29005KT 10SM FEW060 06/03 A3032 RMK AO2 SLP268 T00610028","lat":44.1331,"lon":-123.2156,"elev":109,"name":"Eugene/Mahlon Sweet Fld, OR, US","cover":"FEW","clouds":[{"cover":"FEW","base":6000}],"fltCat":"VFR"},{"icaoId":"KOLM","receiptTime":"2026-04-17T03:58:06.393Z","obsTime":1776398040,"reportTime":"2026-04-17T04:00:00.000Z","temp":7.2,"dewp":1.1,"wdir":230,"wspd":7,"visib":"10+","altim":1026.2,"slp":1026,"qcField":4,"metarType":"METAR","rawOb":"METAR KOLM 170354Z 23007KT 10SM CLR 07/01 A3030 RMK AO2 SLP260 T00720011","lat":46.9737,"lon":-122.9049,"elev":58,"name":"Olympia Rgnl, WA, US","cover":"CLR","clouds":[],"fltCat":"VFR"},{"icaoId":"KOLS","receiptTime":"2026-04-17T03:58:06.403Z","obsTime":1776398040,"reportTime":"2026-04-17T04:00:00.000Z","temp":17.2,"dewp":-10,"wdir":210,"wspd":7,"visib":"10+","altim":1013.6,"slp":1008.8,"qcField":6,"metarType":"METAR","rawOb":"METAR KOLS 170354Z AUTO 21007KT 10SM CLR 17/M10 A2993 RMK AO2 SLP088 T01721100","lat":31.4208,"lon":-110.8465,"elev":1194,"name":"Nogales Intl, AZ, US","cover":"CLR","clouds":[],"fltCat":"VFR"},{"icaoId":"KSLC","receiptTime":"2026-04-17T03:58:06.413Z","obsTime":1776398040,"reportTime":"2026-04-17T04:00:00.000Z","temp":2.8,"dewp":-5.6,"wdir":220,"wspd":6,"visib":"10+","altim":1018.4,"slp":1017.8,"qcField":12,"precip":0.005,"metarType":"METAR","rawOb":"METAR KSLC 170354Z 22006KT 10SM FEW045 BKN065 OVC085 03/M06 A3007 RMK AO2 SNE0256 SLP178 P0000 T00281056 $","lat":40.7707,"lon":-111.965,"elev":1286,"name":"Salt Lake City Intl, UT, US","cover":"OVC","clouds":[{"cover":"FEW","base":4500},{"cover":"BKN","base":6500},{"cover":"OVC","base":8500}],"fltCat":"VFR"},{"icaoId":"KBFL","receiptTime":"2026-04-17T03:58:06.315Z","obsTime":1776398040,"reportTime":"2026-04-17T04:00:00.000Z","temp":16.1,"dewp":5.6,"wdir":340,"wspd":8,"visib":"10+","altim":1014,"slp":1013.5,"qcField":4,"metarType":"METAR","rawOb":"METAR KBFL 170354Z 34008KT 10SM CLR 16/06 A2994 RMK AO2 SLP135 T01610056","lat":35.4342,"lon":-119.0552,"elev":146,"name":"Bakersfield/Meadows Arpt, CA, US","cover":"CLR","clouds":[],"fltCat":"VFR"},{"icaoId":"KBOS","receiptTime":"2026-04-17T03:58:06.721Z","obsTime":1776398040,"reportTime":"2026-04-17T04:00:00.000Z","temp":7.2,"dewp":7.2,"wdir":0,"wspd":0,"visib":5,"altim":1006.2,"slp":1006.1,"qcField":4,"wxString":"BR","metarType":"METAR","rawOb":"METAR KBOS 170354Z 00000KT 5SM BR SCT003 07/07 A2971 RMK AO2 SLP061 T00720072","lat":42.3606,"lon":-71.0097,"elev":4,"name":"Boston/Logan Intl, MA, US","cover":"SCT","clouds":[{"cover":"SCT","base":300}],"fltCat":"MVFR"},{"icaoId":"KBWI","receiptTime":"2026-04-17T03:58:06.756Z","obsTime":1776398040,"reportTime":"2026-04-17T04:00:00.000Z","temp":25.6,"dewp":11.1,"wdir":300,"wspd":11,"visib":"10+","altim":1008.9,"slp":1008.8,"qcField":4,"metarType":"METAR","rawOb":"METAR KBWI 170354Z 30011KT 10SM FEW110 SCT250 26/11 A2979 RMK AO2 SLP088 T02560111","lat":39.1733,"lon":-76.684,"elev":42,"name":"Baltimore-Washington Intl, MD, US","cover":"SCT","clouds":[{"cover":"FEW","base":11000},{"cover":"SCT","base":25000}],"fltCat":"VFR"},{"icaoId":"KSYR","receiptTime":"2026-04-17T03:58:06.240Z","obsTime":1776398040,"reportTime":"2026-04-17T04:00:00.000Z","temp":15.6,"dewp":15,"wdir":270,"wspd":3,"visib":"10+","altim":1009.6,"slp":1008.9,"qcField":12,"wxString":"-RA","precip":0.005,"metarType":"METAR","rawOb":"METAR KSYR 170354Z 27003KT 10SM -RA BKN015 OVC049 16/15 A2981 RMK AO2 SLP089 P0000 T01560150 $","lat":43.1111,"lon":-76.1038,"elev":125,"name":"Syracuse/Hancock Intl, NY, US","cover":"OVC","clouds":[{"cover":"BKN","base":1500},{"cover":"OVC","base":4900}],"fltCat":"MVFR"},{"icaoId":"KSJN","receiptTime":"2026-04-17T03:58:03.764Z","obsTime":1776398040,"reportTime":"2026-04-17T04:00:00.000Z","temp":13.9,"dewp":-12.8,"wdir":260,"wspd":6,"visib":"10+","altim":1014,"slp":1007.9,"qcField":6,"metarType":"METAR","rawOb":"METAR KSJN 170354Z AUTO 26006KT 10SM CLR 14/M13 A2994 RMK AO2 SLP079 T01391128","lat":34.5184,"lon":-109.3801,"elev":1747,"name":"St Johns Ind Arpt, AZ, US","cover":"CLR","clouds":[],"fltCat":"VFR"},{"icaoId":"KRKS","receiptTime":"2026-04-17T03:58:05.966Z","obsTime":1776398040,"reportTime":"2026-04-17T04:00:00.000Z","temp":-4.4,"dewp":-11.1,"wdir":280,"wspd":18,"wgst":25,"visib":"10+","altim":1014.6,"slp":1013.4,"qcField":6,"metarType":"METAR","rawOb":"METAR KRKS 170354Z AUTO 28018G25KT 10SM OVC090 M04/M11 A2996 RMK AO2 SLP134 T10441111","lat":41.5947,"lon":-109.0529,"elev":2062,"name":"Rock Springs/SW Wyoming Rgnl, WY, US","cover":"OVC","clouds":[{"cover":"OVC","base":9000}],"fltCat":"VFR"},{"icaoId":"KDSM","receiptTime":"2026-04-17T03:58:06.529Z","obsTime":1776398040,"reportTime":"2026-04-17T04:00:00.000Z","temp":20,"dewp":8.9,"wdir":160,"wspd":8,"visib":"10+","altim":1009.2,"slp":1008.5,"qcField":4,"metarType":"METAR","rawOb":"METAR KDSM 170354Z 16008KT 10SM FEW250 20/09 A2980 RMK AO2 SLP085 T02000089","lat":41.5339,"lon":-93.6531,"elev":286,"name":"Des Moines Intl, IA, US","cover":"FEW","clouds":[{"cover":"FEW","base":25000}],"fltCat":"VFR"},{"icaoId":"KBTV","receiptTime":"2026-04-17T03:58:06.733Z","obsTime":1776398040,"reportTime":"2026-04-17T04:00:00.000Z","temp":17.2,"dewp":13.9,"wdir":350,"wspd":11,"wgst":20,"visib":2,"altim":1007.9,"slp":1007.6,"qcField":12,"wxString":"+RA BR","precip":0.02,"metarType":"METAR","rawOb":"METAR KBTV 170354Z 35011G20KT 2SM +RA BR SCT005 BKN013 OVC025 17/14 A2976 RMK AO2 RAB41 SLP076 LAST P0002 T01720139 $","lat":44.4682,"lon":-73.1499,"elev":101,"name":"Burlington Intl, VT, US","cover":"OVC","clouds":[{"cover":"SCT","base":500},{"cover":"BKN","base":1300},{"cover":"OVC","base":2500}],"fltCat":"IFR"},{"icaoId":"KRIC","receiptTime":"2026-04-17T03:58:06.194Z","obsTime":1776398040,"reportTime":"2026-04-17T04:00:00.000Z","temp":25.6,"dewp":9.4,"wdir":220,"wspd":11,"visib":"10+","altim":1010.6,"slp":1010.6,"qcField":4,"metarType":"METAR","rawOb":"METAR KRIC 170354Z 22011KT 10SM CLR 26/09 A2984 RMK AO2 SLP106 T02560094","lat":37.5115,"lon":-77.3234,"elev":51,"name":"Richmond Intl, VA, US","cover":"CLR","clouds":[],"fltCat":"VFR"},{"icaoId":"KMSY","receiptTime":"2026-04-17T03:56:32.645Z","obsTime":1776397980,"reportTime":"2026-04-17T04:00:00.000Z","temp":22.2,"dewp":17.2,"wdir":190,"wspd":4,"visib":"10+","altim":1018,"slp":1018.1,"qcField":4,"metarType":"METAR","rawOb":"METAR KMSY 170353Z 19004KT 10SM FEW070 22/17 A3006 RMK AO2 SLP181 T02220172","lat":29.9974,"lon":-90.2777,"elev":0,"name":"New Orleans/Armstrong Intl, LA, US","cover":"FEW","clouds":[{"cover":"FEW","base":7000}],"fltCat":"VFR"},{"icaoId":"KMIA","receiptTime":"2026-04-17T03:58:05.920Z","obsTime":1776397980,"reportTime":"2026-04-17T04:00:00.000Z","temp":23.9,"dewp":18.9,"wdir":0,"wspd":0,"visib":"10+","altim":1018.4,"slp":1018.2,"qcField":0,"metarType":"METAR","rawOb":"METAR KMIA 170353Z 00000KT 10SM BKN027 24/19 A3007 RMK SLP182 T02390189","lat":25.7881,"lon":-80.3169,"elev":1,"name":"Miami Intl, FL, US","cover":"BKN","clouds":[{"cover":"BKN","base":2700}],"fltCat":"MVFR"},{"icaoId":"KFAT","receiptTime":"2026-04-17T03:56:31.327Z","obsTime":1776397980,"reportTime":"2026-04-17T04:00:00.000Z","temp":17.8,"dewp":-1.1,"wdir":310,"wspd":14,"wgst":24,"visib":"10+","altim":1014,"slp":1013.8,"qcField":12,"metarType":"METAR","rawOb":"METAR KFAT 170353Z 31014G24KT 10SM CLR 18/M01 A2994 RMK AO2 SLP138 T01781011 $","lat":36.78,"lon":-119.7202,"elev":102,"name":"Fresno/Yosemite Intl, CA, US","cover":"CLR","clouds":[],"fltCat":"VFR"},{"icaoId":"KPNC","receiptTime":"2026-04-17T03:56:28.572Z","obsTime":1776397980,"reportTime":"2026-04-17T04:00:00.000Z","temp":24.4,"dewp":17.8,"wdir":170,"wspd":15,"wgst":25,"visib":"10+","altim":1008.2,"slp":1006.8,"qcField":6,"metarType":"METAR","rawOb":"METAR KPNC 170353Z AUTO 17015G25KT 10SM CLR 24/18 A2977 RMK AO2 PK WND 16029/0318 SLP068 T02440178","lat":36.7369,"lon":-97.1024,"elev":304,"name":"Ponca City Rgnl, OK, US","cover":"CLR","clouds":[],"fltCat":"VFR"},{"icaoId":"KVEL","receiptTime":"2026-04-17T03:56:22.976Z","obsTime":1776397980,"reportTime":"2026-04-17T04:00:00.000Z","temp":3.3,"dewp":-8.9,"wdir":70,"wspd":15,"visib":"10+","altim":1011.6,"slp":1009.2,"qcField":6,"metarType":"METAR","rawOb":"METAR KVEL 170353Z AUTO 07015KT 10SM OVC090 03/M09 A2987 RMK AO2 PK WND 07027/0255 SLP092 T00331089","lat":40.4429,"lon":-109.5128,"elev":1604,"name":"Vernal Rgnl, UT, US","cover":"OVC","clouds":[{"cover":"OVC","base":9000}],"fltCat":"VFR"},{"icaoId":"KTUL","receiptTime":"2026-04-17T03:56:32.221Z","obsTime":1776397980,"reportTime":"2026-04-17T04:00:00.000Z","temp":23.9,"dewp":20,"wdir":170,"wspd":12,"wgst":19,"visib":"10+","altim":1010.6,"slp":1009.6,"qcField":4,"metarType":"METAR","rawOb":"METAR KTUL 170353Z 17012G19KT 10SM BKN250 24/20 A2984 RMK AO2 SLP096 T02390200","lat":36.1985,"lon":-95.8782,"elev":196,"name":"Tulsa Intl Arpt, OK, US","cover":"BKN","clouds":[{"cover":"BKN","base":25000}],"fltCat":"VFR"},{"icaoId":"KRIW","receiptTime":"2026-04-17T03:56:31.676Z","obsTime":1776397980,"reportTime":"2026-04-17T04:00:00.000Z","temp":2.8,"dewp":-16.1,"wdir":310,"wspd":17,"wgst":28,"visib":"10+","altim":1011.6,"slp":1008.9,"qcField":6,"metarType":"METAR","rawOb":"METAR KRIW 170353Z AUTO 31017G28KT 10SM CLR 03/M16 A2987 RMK AO2 PK WND 30028/0346 SLP089 T00281161","lat":43.0622,"lon":-108.4471,"elev":1662,"name":"Riverton Rgnl, WY, US","cover":"CLR","clouds":[],"fltCat":"VFR"},{"icaoId":"KRTN","receiptTime":"2026-04-17T03:56:19.389Z","obsTime":1776397980,"reportTime":"2026-04-17T04:00:00.000Z","temp":7.2,"dewp":-11.1,"wdir":200,"wspd":6,"visib":"10+","altim":1010.9,"slp":1005.4,"qcField":6,"metarType":"METAR","rawOb":"METAR KRTN 170353Z AUTO 20006KT 10SM CLR 07/M11 A2985 RMK AO2 SLP054 T00721111","lat":36.7418,"lon":-104.5076,"elev":1939,"name":"Raton/Crews Fld, NM, US","cover":"CLR","clouds":[],"fltCat":"VFR"},{"icaoId":"KSHR","receiptTime":"2026-04-17T03:56:31.827Z","obsTime":1776397980,"reportTime":"2026-04-17T04:00:00.000Z","temp":-1.1,"dewp":-1.7,"wdir":280,"wspd":9,"visib":1.25,"altim":1014.3,"slp":1016.7,"qcField":6,"wxString":"-SN BR","precip":0.01,"metarType":"METAR","rawOb":"METAR KSHR 170353Z AUTO 28009KT 1 1/4SM -SN BR OVC019 M01/M02 A2995 RMK AO2 SLP167 P0001 T10111017","lat":44.7603,"lon":-106.9741,"elev":1212,"name":"Sheridan Cnty Arpt, WY, US","cover":"OVC","clouds":[{"cover":"OVC","base":1900}],"fltCat":"IFR"},{"icaoId":"KSNA","receiptTime":"2026-04-17T03:56:31.895Z","obsTime":1776397980,"reportTime":"2026-04-17T04:00:00.000Z","temp":17.2,"dewp":13.9,"wdir":190,"wspd":7,"visib":"10+","altim":1012.3,"slp":1012.2,"qcField":4,"metarType":"METAR","rawOb":"METAR KSNA 170353Z 19007KT 10SM SCT020 17/14 A2989 RMK AO2 SLP122 T01720139","lat":33.6798,"lon":-117.8675,"elev":14,"name":"Santa Ana/Wayne Arpt, CA, US","cover":"SCT","clouds":[{"cover":"SCT","base":2000}],"fltCat":"VFR"},{"icaoId":"KMDW","receiptTime":"2026-04-17T03:56:33.007Z","obsTime":1776397980,"reportTime":"2026-04-17T04:00:00.000Z","temp":10.6,"dewp":10,"wdir":90,"wspd":5,"visib":1.5,"altim":1014.3,"slp":1013.9,"qcField":4,"wxString":"BR","metarType":"METAR","rawOb":"METAR KMDW 170353Z 09005KT 1 1/2SM BR OVC003 11/10 A2995 RMK AO2 SLP139 T01060100","lat":41.7841,"lon":-87.7552,"elev":186,"name":"Chicago/Midway Intl, IL, US","cover":"OVC","clouds":[{"cover":"OVC","base":300}],"fltCat":"LIFR"},{"icaoId":"KGSP","receiptTime":"2026-04-17T03:56:33.509Z","obsTime":1776397980,"reportTime":"2026-04-17T04:00:00.000Z","temp":22.2,"dewp":9.4,"wdir":240,"wspd":9,"visib":"10+","altim":1016,"slp":1014.7,"qcField":6,"metarType":"METAR","rawOb":"METAR KGSP 170353Z AUTO 24009KT 10SM CLR 22/09 A3000 RMK AO2 SLP147 T02220094","lat":34.8842,"lon":-82.2209,"elev":285,"name":"Greenville-Spartanburg Intl, SC, US","cover":"CLR","clouds":[],"fltCat":"VFR"},{"icaoId":"KPBI","receiptTime":"2026-04-17T03:56:32.341Z","obsTime":1776397980,"reportTime":"2026-04-17T04:00:00.000Z","temp":24.4,"dewp":19.4,"wdir":60,"wspd":8,"visib":"10+","altim":1018.7,"slp":1018.6,"qcField":12,"metarType":"METAR","rawOb":"METAR KPBI 170353Z 06008KT 10SM FEW023 SCT030 BKN050 24/19 A3008 RMK AO2 SLP186 T02440194 $","lat":26.6851,"lon":-80.0992,"elev":4,"name":"Palm Beach Intl, FL, US","cover":"BKN","clouds":[{"cover":"FEW","base":2300},{"cover":"SCT","base":3000},{"cover":"BKN","base":5000}],"fltCat":"VFR"},{"icaoId":"KCNY","receiptTime":"2026-04-17T03:56:26.987Z","obsTime":1776397980,"reportTime":"2026-04-17T04:00:00.000Z","temp":12.2,"dewp":-2.2,"wdir":320,"wspd":16,"wgst":29,"visib":"10+","altim":1007.2,"slp":1003.3,"qcField":6,"metarType":"METAR","rawOb":"METAR KCNY 170353Z AUTO 32016G29KT 10SM CLR 12/M02 A2974 RMK AO2 PK WND 31029/0347 SLP033 T01221022","lat":38.7501,"lon":-109.7627,"elev":1392,"name":"Moab/Canyonland Fld, UT, US","cover":"CLR","clouds":[],"fltCat":"VFR"},{"icaoId":"KDFW","receiptTime":"2026-04-17T03:56:34.103Z","obsTime":1776397980,"reportTime":"2026-04-17T04:00:00.000Z","temp":25,"dewp":17.8,"wdir":160,"wspd":11,"visib":"10+","altim":1010.9,"slp":1010,"qcField":12,"metarType":"METAR","rawOb":"METAR KDFW 170353Z 16011KT 10SM SCT250 25/18 A2985 RMK AO2 SLP100 T02500178 $","lat":32.8974,"lon":-97.022,"elev":168,"name":"Dallas-Ft Worth Intl, TX, US","cover":"SCT","clouds":[{"cover":"SCT","base":25000}],"fltCat":"VFR"},{"icaoId":"KDMN","receiptTime":"2026-04-17T03:56:31.265Z","obsTime":1776397980,"reportTime":"2026-04-17T04:00:00.000Z","temp":20,"dewp":-12.2,"wdir":230,"wspd":10,"wgst":18,"visib":"10+","altim":1013.3,"slp":1007.1,"qcField":6,"metarType":"METAR","rawOb":"METAR KDMN 170353Z AUTO 23010G18KT 10SM CLR 20/M12 A2992 RMK AO2 SLP071 T02001122","lat":32.2592,"lon":-107.7206,"elev":1310,"name":"Deming Muni, NM, US","cover":"CLR","clouds":[],"fltCat":"VFR"},{"icaoId":"KDRO","receiptTime":"2026-04-17T03:56:27.071Z","obsTime":1776397980,"reportTime":"2026-04-17T04:00:00.000Z","temp":8.3,"dewp":-5.6,"wdir":20,"wspd":7,"visib":"10+","altim":1012.6,"slp":1008.8,"qcField":6,"metarType":"METAR","rawOb":"METAR KDRO 170353Z AUTO 02007KT 10SM CLR 08/M06 A2990 RMK AO2 SLP088 T00831056","lat":37.1431,"lon":-107.7602,"elev":2021,"name":"Durango/La Plata Cnty, CO, US","cover":"CLR","clouds":[],"fltCat":"VFR"},{"icaoId":"KHLN","receiptTime":"2026-04-17T03:56:26.202Z","obsTime":1776397980,"reportTime":"2026-04-17T04:00:00.000Z","temp":1.7,"dewp":-7.8,"wdir":270,"wspd":11,"visib":"10+","altim":1015.7,"slp":1019.2,"qcField":6,"metarType":"METAR","rawOb":"METAR KHLN 170353Z AUTO 27011KT 10SM FEW050 SCT100 02/M08 A2999 RMK AO2 SLP192 T00171078","lat":46.6045,"lon":-111.9892,"elev":1178,"name":"Helena Rgnl, MT, US","cover":"SCT","clouds":[{"cover":"FEW","base":5000},{"cover":"SCT","base":10000}],"fltCat":"VFR"},{"icaoId":"KBCE","receiptTime":"2026-04-17T03:56:26.597Z","obsTime":1776397980,"reportTime":"2026-04-17T04:00:00.000Z","temp":2.8,"dewp":-3.3,"wdir":320,"wspd":14,"wgst":23,"visib":"10+","altim":1013,"slp":1006.4,"qcField":6,"metarType":"METAR","rawOb":"METAR KBCE 170353Z AUTO 32014G23KT 10SM CLR 03/M03 A2991 RMK AO2 SLP064 T00281033","lat":37.7013,"lon":-112.149,"elev":2311,"name":"Bryce Canyon Arpt, UT, US","cover":"CLR","clouds":[],"fltCat":"VFR"},{"icaoId":"KTWF","receiptTime":"2026-04-17T03:56:21.955Z","obsTime":1776397980,"reportTime":"2026-04-17T04:00:00.000Z","temp":-1.7,"dewp":-4.4,"wdir":210,"wspd":10,"visib":"10+","altim":1020.4,"slp":1021.6,"qcField":6,"metarType":"METAR","rawOb":"METAR KTWF 170353Z AUTO 21010KT 10SM CLR M02/M04 A3013 RMK AO2 SLP216 T10171044","lat":42.4785,"lon":-114.4775,"elev":1269,"name":"Twin Falls/Joslin Fld, ID, US","cover":"CLR","clouds":[],"fltCat":"VFR"},{"icaoId":"KVGT","receiptTime":"2026-04-17T03:56:21.982Z","obsTime":1776397980,"reportTime":"2026-04-17T04:00:00.000Z","temp":23.3,"dewp":-2.8,"wdir":230,"wspd":14,"wgst":19,"visib":"10+","altim":1005.8,"slp":1005.7,"qcField":4,"metarType":"METAR","rawOb":"METAR KVGT 170353Z 23014G19KT 10SM CLR 23/M03 A2970 RMK AO2 SLP057 T02331028","lat":36.212,"lon":-115.194,"elev":664,"name":"Las Vegas/North Arpt, NV, US","cover":"CLR","clouds":[],"fltCat":"VFR"},{"icaoId":"KYKM","receiptTime":"2026-04-17T03:56:30.783Z","obsTime":1776397980,"reportTime":"2026-04-17T04:00:00.000Z","temp":7.2,"dewp":-5,"wdir":300,"wspd":4,"visib":"10+","altim":1022.1,"slp":1022.5,"qcField":4,"metarType":"METAR","rawOb":"METAR KYKM 170353Z 30004KT 10SM CLR 07/M05 A3018 RMK AO2 SLP225 T00721050","lat":46.564,"lon":-120.5349,"elev":319,"name":"Yakima/McAllister Fld, WA, US","cover":"CLR","clouds":[],"fltCat":"VFR"},{"icaoId":"KCLL","receiptTime":"2026-04-17T03:56:26.922Z","obsTime":1776397980,"reportTime":"2026-04-17T04:00:00.000Z","temp":22.8,"dewp":18.9,"wdir":160,"wspd":9,"visib":"10+","altim":1014.6,"slp":1014,"qcField":6,"metarType":"METAR","rawOb":"METAR KCLL 170353Z AUTO 16009KT 10SM CLR 23/19 A2996 RMK AO2 SLP140 T02280189","lat":30.5912,"lon":-96.3631,"elev":96,"name":"College Station/Easterwood Arpt, TX, US","cover":"CLR","clouds":[],"fltCat":"VFR"},{"icaoId":"KCNM","receiptTime":"2026-04-17T03:56:33.890Z","obsTime":1776397980,"reportTime":"2026-04-17T04:00:00.000Z","temp":23.9,"dewp":5.6,"wdir":170,"wspd":8,"visib":"10+","altim":1010.9,"slp":1005.7,"qcField":6,"metarType":"METAR","rawOb":"METAR KCNM 170353Z AUTO 17008KT 10SM CLR 24/06 A2985 RMK AO2 SLP057 T02390056","lat":32.3336,"lon":-104.2584,"elev":993,"name":"Carlsbad/Cavern City Air Term, NM, US","cover":"CLR","clouds":[],"fltCat":"VFR"},{"icaoId":"KCRQ","receiptTime":"2026-04-17T03:56:26.088Z","obsTime":1776397980,"reportTime":"2026-04-17T04:00:00.000Z","temp":16.7,"dewp":12.2,"wdir":190,"wspd":5,"visib":"10+","altim":1012.6,"slp":1012.3,"qcField":4,"metarType":"METAR","rawOb":"METAR KCRQ 170353Z 19005KT 10SM FEW016 17/12 A2990 RMK AO2 SLP123 T01670122","lat":33.1299,"lon":-117.2765,"elev":96,"name":"Carlsbad/Palomar Arpt, CA, US","cover":"FEW","clouds":[{"cover":"FEW","base":1600}],"fltCat":"VFR"},{"icaoId":"KCYS","receiptTime":"2026-04-17T03:56:34.025Z","obsTime":1776397980,"reportTime":"2026-04-17T04:00:00.000Z","temp":9.4,"dewp":-2.2,"wdir":320,"wspd":16,"wgst":30,"visib":"10+","altim":1006.2,"slp":1000.8,"qcField":6,"metarType":"METAR","rawOb":"METAR KCYS 170353Z AUTO 32016G30KT 10SM CLR 09/M02 A2971 RMK AO2 PK WND 34035/0329 WSHFT 0316 SLP008 T00941022","lat":41.1579,"lon":-104.8081,"elev":1868,"name":"Cheyenne Rgnl, WY, US","cover":"CLR","clouds":[],"fltCat":"VFR"},{"icaoId":"KDAL","receiptTime":"2026-04-17T03:56:31.238Z","obsTime":1776397980,"reportTime":"2026-04-17T04:00:00.000Z","temp":25.6,"dewp":17.8,"wdir":160,"wspd":11,"wgst":22,"visib":"10+","altim":1011.6,"slp":1010.6,"qcField":4,"metarType":"METAR","rawOb":"METAR KDAL 170353Z 16011G22KT 10SM SCT250 26/18 A2987 RMK AO2 SLP106 T02560178","lat":32.8384,"lon":-96.8358,"elev":148,"name":"Dallas/Love Fld, TX, US","cover":"SCT","clouds":[{"cover":"SCT","base":25000}],"fltCat":"VFR"},{"icaoId":"KDEN","receiptTime":"2026-04-17T03:56:34.057Z","obsTime":1776397980,"reportTime":"2026-04-17T04:00:00.000Z","temp":18.9,"dewp":-11.1,"wdir":220,"wspd":20,"wgst":29,"visib":"10+","altim":1003.8,"slp":996.5,"qcField":12,"metarType":"METAR","rawOb":"METAR KDEN 170353Z 22020G29KT 10SM FEW100 SCT130 BKN200 19/M11 A2964 RMK AO2 PK WND 23029/0333 SLP965 T01891111 $","lat":39.8466,"lon":-104.6562,"elev":1656,"name":"Denver Intl, CO, US","cover":"BKN","clouds":[{"cover":"FEW","base":10000},{"cover":"SCT","base":13000},{"cover":"BKN","base":20000}],"fltCat":"VFR"},{"icaoId":"KDLN","receiptTime":"2026-04-17T03:56:34.161Z","obsTime":1776397980,"reportTime":"2026-04-17T04:00:00.000Z","temp":-1.1,"dewp":-12.8,"wdir":0,"wspd":0,"visib":"10+","altim":1015.7,"slp":1018.2,"qcField":6,"metarType":"METAR","rawOb":"METAR KDLN 170353Z AUTO 00000KT 10SM CLR M01/M13 A2999 RMK AO2 SLP182 T10111128","lat":45.2584,"lon":-112.5546,"elev":1586,"name":"Dillon Arpt, MT, US","cover":"CLR","clouds":[],"fltCat":"VFR"},{"icaoId":"KMSP","receiptTime":"2026-04-17T03:56:32.621Z","obsTime":1776397980,"reportTime":"2026-04-17T04:00:00.000Z","temp":20,"dewp":7.8,"wdir":150,"wspd":15,"wgst":21,"visib":"10+","altim":1005.8,"slp":1005.5,"qcField":4,"metarType":"METAR","rawOb":"METAR KMSP 170353Z 15015G21KT 10SM CLR 20/08 A2970 RMK AO2 SLP055 T02000078","lat":44.8852,"lon":-93.2313,"elev":255,"name":"Minneapolis-St Paul Intl, MN, US","cover":"CLR","clouds":[],"fltCat":"VFR"},{"icaoId":"KMYF","receiptTime":"2026-04-17T03:56:32.720Z","obsTime":1776397980,"reportTime":"2026-04-17T04:00:00.000Z","temp":15.6,"dewp":12.2,"wdir":210,"wspd":4,"visib":"10+","altim":1013.3,"slp":1013,"qcField":4,"metarType":"METAR","rawOb":"METAR KMYF 170353Z 21004KT 10SM SCT015 16/12 A2992 RMK AO2 SLP130 T01560122","lat":32.8145,"lon":-117.1375,"elev":128,"name":"San Diego/Montgomery Arpt, CA, US","cover":"SCT","clouds":[{"cover":"SCT","base":1500}],"fltCat":"VFR"},{"icaoId":"KOAK","receiptTime":"2026-04-17T03:56:24.353Z","obsTime":1776397980,"reportTime":"2026-04-17T04:00:00.000Z","temp":15.6,"dewp":5,"wdir":300,"wspd":5,"visib":"10+","altim":1017.4,"slp":1017.1,"qcField":12,"metarType":"METAR","rawOb":"METAR KOAK 170353Z 30005KT 10SM FEW250 16/05 A3004 RMK AO2 SLP171 T01560050 $","lat":37.7178,"lon":-122.233,"elev":3,"name":"Oakland Intl, CA, US","cover":"FEW","clouds":[{"cover":"FEW","base":25000}],"fltCat":"VFR"},{"icaoId":"KOGD","receiptTime":"2026-04-17T03:56:23.299Z","obsTime":1776397980,"reportTime":"2026-04-17T04:00:00.000Z","temp":1.7,"dewp":-8.9,"wdir":320,"wspd":10,"visib":"10+","altim":1018.4,"slp":1018,"qcField":6,"metarType":"METAR","rawOb":"METAR KOGD 170353Z AUTO 32010KT 10SM FEW065 BKN110 02/M09 A3007 RMK AO2 SLP180 T00171089","lat":41.1941,"lon":-112.0168,"elev":1356,"name":"Ogden/Hinckley Arpt, UT, US","cover":"BKN","clouds":[{"cover":"FEW","base":6500},{"cover":"BKN","base":11000}],"fltCat":"VFR"},{"icaoId":"KONT","receiptTime":"2026-04-17T03:56:23.335Z","obsTime":1776397980,"reportTime":"2026-04-17T04:00:00.000Z","temp":17.2,"dewp":8.9,"wdir":240,"wspd":9,"visib":"10+","altim":1012.3,"slp":1011.3,"qcField":12,"metarType":"METAR","rawOb":"METAR KONT 170353Z 24009KT 10SM FEW060 SCT270 17/09 A2989 RMK AO2 SLP113 T01720089 $","lat":34.0531,"lon":-117.5769,"elev":279,"name":"Ontario Intl, CA, US","cover":"SCT","clouds":[{"cover":"FEW","base":6000},{"cover":"SCT","base":27000}],"fltCat":"VFR"},{"icaoId":"KSJC","receiptTime":"2026-04-17T03:56:31.849Z","obsTime":1776397980,"reportTime":"2026-04-17T04:00:00.000Z","temp":16.1,"dewp":6.1,"wdir":330,"wspd":10,"visib":"10+","altim":1016.7,"slp":1016.5,"qcField":4,"metarType":"METAR","rawOb":"METAR KSJC 170353Z 33010KT 10SM CLR 16/06 A3002 RMK AO2 SLP165 T01610061","lat":37.3594,"lon":-121.9244,"elev":13,"name":"San Jose Intl Arpt, CA, US","cover":"CLR","clouds":[],"fltCat":"VFR"},{"icaoId":"KSMF","receiptTime":"2026-04-17T03:56:31.871Z","obsTime":1776397980,"reportTime":"2026-04-17T04:00:00.000Z","temp":15,"dewp":-2.8,"wdir":340,"wspd":17,"wgst":24,"visib":"10+","altim":1016.3,"slp":1016.2,"qcField":4,"metarType":"METAR","rawOb":"METAR KSMF 170353Z 34017G24KT 10SM CLR 15/M03 A3001 RMK AO2 SLP162 T01501028","lat":38.7007,"lon":-121.5948,"elev":7,"name":"Sacramento Intl, CA, US","cover":"CLR","clouds":[],"fltCat":"VFR"},{"icaoId":"KSTS","receiptTime":"2026-04-17T03:56:32.022Z","obsTime":1776397980,"reportTime":"2026-04-17T04:00:00.000Z","temp":14.4,"dewp":-5,"wdir":350,"wspd":6,"visib":"10+","altim":1018,"slp":1017.2,"qcField":6,"metarType":"METAR","rawOb":"METAR KSTS 170353Z AUTO 35006KT 10SM CLR 14/M05 A3006 RMK AO2 SLP172 T01441050","lat":38.5037,"lon":-122.811,"elev":35,"name":"Santa Rosa/Schulz Arpt, CA, US","cover":"CLR","clouds":[],"fltCat":"VFR"},{"icaoId":"KTPA","receiptTime":"2026-04-17T03:56:32.172Z","obsTime":1776397980,"reportTime":"2026-04-17T04:00:00.000Z","temp":21.7,"dewp":17.2,"wdir":20,"wspd":4,"visib":"10+","altim":1019,"slp":1018.9,"qcField":4,"metarType":"METAR","rawOb":"METAR KTPA 170353Z 02004KT 10SM FEW250 22/17 A3009 RMK AO2 SLP189 T02170172","lat":27.9633,"lon":-82.54,"elev":2,"name":"Tampa Intl Arpt, FL, US","cover":"FEW","clouds":[{"cover":"FEW","base":25000}],"fltCat":"VFR"},{"icaoId":"KTUS","receiptTime":"2026-04-17T03:56:30.745Z","obsTime":1776397980,"reportTime":"2026-04-17T04:00:00.000Z","temp":21.7,"dewp":-13.9,"wdir":270,"wspd":4,"visib":"10+","altim":1011.6,"slp":1008,"qcField":12,"metarType":"METAR","rawOb":"METAR KTUS 170353Z 27004KT 10SM CLR 22/M14 A2987 RMK AO2 SLP080 T02171139 $","lat":32.1315,"lon":-110.9564,"elev":776,"name":"Tucson Intl Arpt, AZ, US","cover":"CLR","clouds":[],"fltCat":"VFR"},{"icaoId":"KMCO","receiptTime":"2026-04-17T03:56:32.983Z","obsTime":1776397980,"reportTime":"2026-04-17T04:00:00.000Z","temp":19.4,"dewp":15.6,"wdir":170,"wspd":3,"visib":"10+","altim":1019.7,"slp":1019.3,"qcField":4,"metarType":"METAR","rawOb":"METAR KMCO 170353Z 17003KT 10SM CLR 19/16 A3011 RMK AO2 SLP193 T01940156","lat":28.4182,"lon":-81.3241,"elev":27,"name":"Orlando Intl, FL, US","cover":"CLR","clouds":[],"fltCat":"VFR"},{"icaoId":"KMFE","receiptTime":"2026-04-17T03:56:33.018Z","obsTime":1776397980,"reportTime":"2026-04-17T04:00:00.000Z","temp":24.4,"dewp":21.1,"wdir":130,"wspd":12,"visib":"10+","altim":1013.6,"slp":1013.4,"qcField":4,"metarType":"METAR","rawOb":"METAR KMFE 170353Z 13012KT 10SM BKN015 24/21 A2993 RMK AO2 SLP134 T02440211","lat":26.1791,"lon":-98.2445,"elev":29,"name":"McAllen/Miller Intl, TX, US","cover":"BKN","clouds":[{"cover":"BKN","base":1500}],"fltCat":"MVFR"},{"icaoId":"KMFR","receiptTime":"2026-04-17T03:56:33.031Z","obsTime":1776397980,"reportTime":"2026-04-17T04:00:00.000Z","temp":6.7,"dewp":-1.7,"wdir":40,"wspd":6,"visib":"10+","altim":1024.8,"slp":1025.5,"qcField":4,"metarType":"METAR","rawOb":"METAR KMFR 170353Z 04006KT 10SM CLR 07/M02 A3026 RMK AO2 SLP255 T00671017","lat":42.375,"lon":-122.877,"elev":397,"name":"Medford/Rogue Valley Intl, OR, US","cover":"CLR","clouds":[],"fltCat":"VFR"},{"icaoId":"KMLC","receiptTime":"2026-04-17T03:56:33.158Z","obsTime":1776397980,"reportTime":"2026-04-17T04:00:00.000Z","temp":23.3,"dewp":18.9,"wdir":160,"wspd":5,"visib":"10+","altim":1011.9,"slp":1011.1,"qcField":6,"metarType":"METAR","rawOb":"METAR KMLC 170353Z AUTO 16005KT 10SM CLR 23/19 A2988 RMK AO2 SLP111 T02330189","lat":34.8824,"lon":-95.7815,"elev":231,"name":"McAlester Rgnl, OK, US","cover":"CLR","clouds":[],"fltCat":"VFR"},{"icaoId":"KPAE","receiptTime":"2026-04-17T03:56:32.295Z","obsTime":1776397980,"reportTime":"2026-04-17T04:00:00.000Z","temp":9.4,"dewp":-0.6,"wdir":100,"wspd":4,"visib":"10+","altim":1024.8,"slp":1025,"qcField":4,"metarType":"METAR","rawOb":"METAR KPAE 170353Z 10004KT 10SM SCT055 BKN070 OVC080 09/M01 A3026 RMK AO2 SLP250 T00941006","lat":47.9232,"lon":-122.2831,"elev":166,"name":"Everett/Paine Fld, WA, US","cover":"OVC","clouds":[{"cover":"SCT","base":5500},{"cover":"BKN","base":7000},{"cover":"OVC","base":8000}],"fltCat":"VFR"},{"icaoId":"KPDX","receiptTime":"2026-04-17T03:56:31.603Z","obsTime":1776397980,"reportTime":"2026-04-17T04:00:00.000Z","temp":10,"dewp":2.8,"wdir":320,"wspd":6,"visib":"10+","altim":1026.5,"slp":1026.2,"qcField":4,"metarType":"METAR","rawOb":"METAR KPDX 170353Z 32006KT 10SM FEW055 BKN065 10/03 A3031 RMK AO2 SLP262 T01000028","lat":45.5958,"lon":-122.6092,"elev":7,"name":"Portland Intl, OR, US","cover":"BKN","clouds":[{"cover":"FEW","base":5500},{"cover":"BKN","base":6500}],"fltCat":"VFR"},{"icaoId":"KPGA","receiptTime":"2026-04-17T03:56:31.615Z","obsTime":1776397980,"reportTime":"2026-04-17T04:00:00.000Z","temp":18.3,"dewp":-10,"wdir":200,"wspd":7,"visib":"10+","altim":1008.2,"slp":1003.7,"qcField":14,"metarType":"METAR","rawOb":"METAR KPGA 170353Z AUTO 20007KT 10SM CLR 18/M10 A2977 RMK AO2 SLP037 T01831100 $","lat":36.9211,"lon":-111.4487,"elev":1310,"name":"Page Muni, AZ, US","cover":"CLR","clouds":[],"fltCat":"VFR"},{"icaoId":"KPRC","receiptTime":"2026-04-17T03:56:23.345Z","obsTime":1776397980,"reportTime":"2026-04-17T04:00:00.000Z","temp":14.4,"dewp":-8.9,"wdir":170,"wspd":4,"visib":"10+","altim":1013.3,"slp":1007.4,"qcField":4,"metarType":"METAR","rawOb":"METAR KPRC 170353Z 17004KT 10SM CLR 14/M09 A2992 RMK AO2 SLP074 T01441089","lat":34.6491,"lon":-112.4223,"elev":1528,"name":"Prescott/Love Fld, AZ, US","cover":"CLR","clouds":[],"fltCat":"VFR"},{"icaoId":"KPSC","receiptTime":"2026-04-17T03:56:23.357Z","obsTime":1776397980,"reportTime":"2026-04-17T04:00:00.000Z","temp":6.1,"dewp":-3.3,"wdir":290,"wspd":6,"visib":"10+","altim":1022.4,"slp":1022.4,"qcField":4,"metarType":"METAR","rawOb":"METAR KPSC 170353Z 29006KT 10SM CLR 06/M03 A3019 RMK AO2 SLP224 T00611033","lat":46.2695,"lon":-119.1182,"elev":121,"name":"Pasco/Tri Cities Arpt, WA, US","cover":"CLR","clouds":[],"fltCat":"VFR"},{"icaoId":"KPUB","receiptTime":"2026-04-17T03:56:22.626Z","obsTime":1776397980,"reportTime":"2026-04-17T04:00:00.000Z","temp":19.4,"dewp":-14.4,"wdir":240,"wspd":8,"wgst":17,"visib":"10+","altim":1004.5,"slp":998.4,"qcField":14,"metarType":"METAR","rawOb":"METAR KPUB 170353Z AUTO 24008G17KT 10SM CLR 19/M14 A2966 RMK AO2 SLP984 T01941144 $","lat":38.2887,"lon":-104.5057,"elev":1441,"name":"Pueblo Mem Arpt, CO, US","cover":"CLR","clouds":[],"fltCat":"VFR"},{"icaoId":"KRDD","receiptTime":"2026-04-17T03:56:23.402Z","obsTime":1776397980,"reportTime":"2026-04-17T04:00:00.000Z","temp":14.4,"dewp":-7.2,"wdir":350,"wspd":8,"visib":"10+","altim":1020.7,"slp":1020.4,"qcField":4,"metarType":"METAR","rawOb":"METAR KRDD 170353Z 35008KT 10SM CLR 14/M07 A3014 RMK AO2 SLP204 T01441072","lat":40.5146,"lon":-122.2977,"elev":152,"name":"Redding Muni, CA, US","cover":"CLR","clouds":[],"fltCat":"VFR"},{"icaoId":"KSBA","receiptTime":"2026-04-17T03:56:31.726Z","obsTime":1776397980,"reportTime":"2026-04-17T04:00:00.000Z","temp":14.4,"dewp":12.8,"wdir":160,"wspd":5,"visib":8,"altim":1011.3,"slp":1011.1,"qcField":12,"metarType":"METAR","rawOb":"METAR KSBA 170353Z 16005KT 8SM CLR 14/13 A2986 RMK AO2 SLP111 T01440128 $","lat":34.4241,"lon":-119.8425,"elev":2,"name":"Santa Barbara Muni, CA, US","cover":"CLR","clouds":[],"fltCat":"VFR"},{"icaoId":"KIDA","receiptTime":"2026-04-17T03:56:26.241Z","obsTime":1776397980,"reportTime":"2026-04-17T04:00:00.000Z","temp":-1.7,"dewp":-3.3,"wdir":200,"wspd":10,"visib":"10+","altim":1017.7,"slp":1019.9,"qcField":6,"metarType":"METAR","rawOb":"METAR KIDA 170353Z AUTO 20010KT 10SM FEW060 BKN075 OVC110 M02/M03 A3005 RMK AO2 SLP199 T10171033","lat":43.5204,"lon":-112.0675,"elev":1444,"name":"Idaho Falls Rgnl, ID, US","cover":"OVC","clouds":[{"cover":"FEW","base":6000},{"cover":"BKN","base":7500},{"cover":"OVC","base":11000}],"fltCat":"VFR"},{"icaoId":"KBHM","receiptTime":"2026-04-17T03:56:26.788Z","obsTime":1776397980,"reportTime":"2026-04-17T04:00:00.000Z","temp":23.3,"dewp":15.6,"wdir":250,"wspd":4,"visib":"10+","altim":1018.7,"slp":1017.9,"qcField":4,"metarType":"METAR","rawOb":"METAR KBHM 170353Z 25004KT 10SM CLR 23/16 A3008 RMK AO2 SLP179 T02330156","lat":33.5655,"lon":-86.7449,"elev":191,"name":"Birmingham Intl, AL, US","cover":"CLR","clouds":[],"fltCat":"VFR"},{"icaoId":"KBRO","receiptTime":"2026-04-17T03:56:28.619Z","obsTime":1776397980,"reportTime":"2026-04-17T04:00:00.000Z","temp":25.6,"dewp":22.8,"wdir":130,"wspd":9,"visib":"10+","altim":1014.3,"slp":1014.1,"qcField":4,"metarType":"METAR","rawOb":"METAR KBRO 170353Z 13009KT 10SM BKN016 OVC021 26/23 A2995 RMK AO2 SLP141 T02560228","lat":25.9146,"lon":-97.4231,"elev":6,"name":"Brownsville Intl, TX, US","cover":"OVC","clouds":[{"cover":"BKN","base":1600},{"cover":"OVC","base":2100}],"fltCat":"MVFR"},{"icaoId":"KBTM","receiptTime":"2026-04-17T03:56:26.687Z","obsTime":1776397980,"reportTime":"2026-04-17T04:00:00.000Z","temp":-1.7,"dewp":-10,"wdir":310,"wspd":11,"visib":"10+","altim":1015.7,"slp":1018.9,"qcField":6,"metarType":"METAR","rawOb":"METAR KBTM 170353Z AUTO 31011KT 10SM OVC065 M02/M10 A2999 RMK AO2 SLP189 T10171100","lat":45.9644,"lon":-112.5015,"elev":1680,"name":"Butte/Mooney Arpt, MT, US","cover":"OVC","clouds":[{"cover":"OVC","base":6500}],"fltCat":"VFR"},{"icaoId":"KCDC","receiptTime":"2026-04-17T03:56:33.767Z","obsTime":1776397980,"reportTime":"2026-04-17T04:00:00.000Z","temp":4.4,"dewp":-7.8,"wdir":360,"wspd":12,"wgst":24,"visib":"10+","altim":1015.3,"slp":1011.7,"qcField":6,"metarType":"METAR","rawOb":"METAR KCDC 170353Z AUTO 36012G24KT 10SM OVC065 04/M08 A2998 RMK AO2 SLP117 T00441078","lat":37.7067,"lon":-113.097,"elev":1703,"name":"Cedar City Muni, UT, US","cover":"OVC","clouds":[{"cover":"OVC","base":6500}],"fltCat":"VFR"},{"icaoId":"KGTF","receiptTime":"2026-04-17T03:56:33.521Z","obsTime":1776397980,"reportTime":"2026-04-17T04:00:00.000Z","temp":-3.9,"dewp":-6.1,"wdir":330,"wspd":13,"visib":"10+","altim":1016.7,"slp":1022.1,"qcField":4,"metarType":"METAR","rawOb":"METAR KGTF 170353Z 33013KT 10SM OVC024 M04/M06 A3002 RMK AO2 SLP221 T10391061","lat":47.4733,"lon":-111.3828,"elev":1117,"name":"Great Falls Intl, MT, US","cover":"OVC","clouds":[{"cover":"OVC","base":2400}],"fltCat":"MVFR"},{"icaoId":"KELY","receiptTime":"2026-04-17T03:56:31.290Z","obsTime":1776397980,"reportTime":"2026-04-17T04:00:00.000Z","temp":-2.2,"dewp":-15,"wdir":360,"wspd":13,"wgst":22,"visib":"10+","altim":1019.4,"slp":1016.7,"qcField":6,"metarType":"METAR","rawOb":"METAR KELY 170353Z AUTO 36013G22KT 10SM CLR M02/M15 A3010 RMK AO2 SLP167 T10221150","lat":39.2954,"lon":-114.8466,"elev":1906,"name":"Ely/Yelland Fld, NV, US","cover":"CLR","clouds":[],"fltCat":"VFR"},{"icaoId":"KFUL","receiptTime":"2026-04-17T03:56:19.952Z","obsTime":1776397980,"reportTime":"2026-04-17T04:00:00.000Z","temp":17.2,"dewp":10.6,"wdir":160,"wspd":6,"visib":"10+","altim":1011.9,"slp":1011.7,"qcField":6,"metarType":"METAR","rawOb":"METAR KFUL 170353Z AUTO 16006KT 10SM CLR 17/11 A2988 RMK AO2 SLP117 T01720106","lat":33.8715,"lon":-117.9856,"elev":23,"name":"Fullerton Muni, CA, US","cover":"CLR","clouds":[],"fltCat":"VFR"},{"icaoId":"KPSP","receiptTime":"2026-04-17T03:56:23.368Z","obsTime":1776397980,"reportTime":"2026-04-17T04:00:00.000Z","temp":24.4,"dewp":5,"wdir":320,"wspd":15,"wgst":23,"visib":"10+","altim":1007.5,"slp":1007.1,"qcField":12,"metarType":"METAR","rawOb":"METAR KPSP 170353Z 32015G23KT 10SM CLR 24/05 A2975 RMK AO2 PK WND 33026/0319 SLP071 T02440050 $","lat":33.8222,"lon":-116.5043,"elev":123,"name":"Palm Springs Intl, CA, US","cover":"CLR","clouds":[],"fltCat":"VFR"},{"icaoId":"KPUW","receiptTime":"2026-04-17T03:56:23.379Z","obsTime":1776397980,"reportTime":"2026-04-17T04:00:00.000Z","temp":5.6,"dewp":-3.3,"wdir":240,"wspd":8,"visib":"10+","altim":1020.4,"slp":1022,"qcField":6,"metarType":"METAR","rawOb":"METAR KPUW 170353Z AUTO 24008KT 10SM OVC090 06/M03 A3013 RMK AO2 SLP220 T00561033","lat":46.7438,"lon":-117.1158,"elev":774,"name":"Pullman/Moscow Rgnl, WA, US","cover":"OVC","clouds":[{"cover":"OVC","base":9000}],"fltCat":"VFR"},{"icaoId":"KSDL","receiptTime":"2026-04-17T03:56:31.751Z","obsTime":1776397980,"reportTime":"2026-04-17T04:00:00.000Z","temp":25,"dewp":-11.7,"wdir":240,"wspd":4,"visib":"10+","altim":1008.5,"slp":1006.5,"qcField":6,"metarType":"METAR","rawOb":"METAR KSDL 170353Z AUTO 24004KT 10SM CLR 25/M12 A2978 RMK AO2 SLP065 T02501117","lat":33.6123,"lon":-111.9232,"elev":438,"name":"Scottsdale Muni, AZ, US","cover":"CLR","clouds":[],"fltCat":"VFR"},{"icaoId":"KSAF","receiptTime":"2026-04-17T03:56:23.555Z","obsTime":1776397980,"reportTime":"2026-04-17T04:00:00.000Z","temp":10,"dewp":-16.1,"wdir":70,"wspd":6,"visib":"10+","altim":1013.3,"slp":1006.5,"qcField":6,"metarType":"METAR","rawOb":"METAR KSAF 170353Z AUTO 07006KT 10SM CLR 10/M16 A2992 RMK AO2 SLP065 T01001161","lat":35.611,"lon":-106.0957,"elev":1918,"name":"Santa Fe Cnty Muni, NM, US","cover":"CLR","clouds":[],"fltCat":"VFR"},{"icaoId":"KLAR","receiptTime":"2026-04-17T03:56:23.900Z","obsTime":1776397980,"reportTime":"2026-04-17T04:00:00.000Z","temp":1.7,"dewp":-3.9,"wdir":10,"wspd":16,"wgst":32,"visib":"10+","altim":1008.9,"slp":1003.3,"qcField":6,"metarType":"METAR","rawOb":"METAR KLAR 170353Z AUTO 01016G32KT 10SM CLR 02/M04 A2979 RMK AO2 PK WND 03032/0345 SLP033 T00171039","lat":41.3165,"lon":-105.6729,"elev":2217,"name":"Laramie Rgnl, WY, US","cover":"CLR","clouds":[],"fltCat":"VFR"},{"icaoId":"KLAX","receiptTime":"2026-04-17T03:56:31.508Z","obsTime":1776397980,"reportTime":"2026-04-17T04:00:00.000Z","temp":16.1,"dewp":13.3,"wdir":260,"wspd":5,"visib":"10+","altim":1012.3,"slp":1012.1,"qcField":4,"metarType":"METAR","rawOb":"METAR KLAX 170353Z 26005KT 10SM CLR 16/13 A2989 RMK AO2 SLP121 T01610133","lat":33.9382,"lon":-118.3866,"elev":30,"name":"Los Angeles Intl, CA, US","cover":"CLR","clouds":[],"fltCat":"VFR"},{"icaoId":"KLGB","receiptTime":"2026-04-17T03:56:24.175Z","obsTime":1776397980,"reportTime":"2026-04-17T04:00:00.000Z","temp":17.2,"dewp":11.7,"wdir":320,"wspd":4,"visib":"10+","altim":1011.9,"slp":1011.8,"qcField":4,"metarType":"METAR","rawOb":"METAR KLGB 170353Z 32004KT 10SM CLR 17/12 A2988 RMK AO2 SLP118 T01720117","lat":33.8118,"lon":-118.1472,"elev":10,"name":"Long Beach Arpt, CA, US","cover":"CLR","clouds":[],"fltCat":"VFR"},{"icaoId":"KMOD","receiptTime":"2026-04-17T03:56:32.570Z","obsTime":1776397980,"reportTime":"2026-04-17T04:00:00.000Z","temp":16.1,"dewp":-3.3,"wdir":320,"wspd":12,"visib":"10+","altim":1015,"slp":1015,"qcField":4,"metarType":"METAR","rawOb":"METAR KMOD 170353Z 32012KT 10SM CLR 16/M03 A2997 RMK AO2 SLP150 T01611033","lat":37.6254,"lon":-120.9549,"elev":25,"name":"Modesto/Sham Fld, CA, US","cover":"CLR","clouds":[],"fltCat":"VFR"},{"icaoId":"KBFI","receiptTime":"2026-04-17T03:56:26.608Z","obsTime":1776397980,"reportTime":"2026-04-17T04:00:00.000Z","temp":10,"dewp":1.1,"wdir":220,"wspd":5,"visib":"10+","altim":1024.8,"slp":1024.7,"qcField":12,"metarType":"METAR","rawOb":"METAR KBFI 170353Z 22005KT 10SM BKN080 10/01 A3026 RMK AO2 SLP247 T01000011 $","lat":47.5455,"lon":-122.3148,"elev":7,"name":"Seattle/Boeing Fld, WA, US","cover":"BKN","clouds":[{"cover":"BKN","base":8000}],"fltCat":"VFR"},{"icaoId":"KBNA","receiptTime":"2026-04-17T03:56:26.800Z","obsTime":1776397980,"reportTime":"2026-04-17T04:00:00.000Z","temp":16.1,"dewp":13.3,"wdir":160,"wspd":10,"visib":"10+","altim":1017.7,"slp":1017.1,"qcField":4,"wxString":"-RA","precip":0.03,"metarType":"METAR","rawOb":"METAR KBNA 170353Z 16010KT 10SM -RA OVC100 16/13 A3005 RMK AO2 RAB0259 SLP171 P0003 T01610133","lat":36.1105,"lon":-86.6881,"elev":168,"name":"Nashville Intl, TN, US","cover":"OVC","clouds":[{"cover":"OVC","base":10000}],"fltCat":"VFR"},{"icaoId":"KMCI","receiptTime":"2026-04-17T03:56:32.961Z","obsTime":1776397980,"reportTime":"2026-04-17T04:00:00.000Z","temp":21.1,"dewp":16.7,"wdir":170,"wspd":12,"visib":"10+","altim":1009.6,"slp":1008.6,"qcField":4,"metarType":"METAR","rawOb":"METAR KMCI 170353Z 17012KT 10SM CLR 21/17 A2981 RMK AO2 SLP086 T02110167","lat":39.2975,"lon":-94.7309,"elev":308,"name":"Kansas City Intl, MO, US","cover":"CLR","clouds":[],"fltCat":"VFR"},{"icaoId":"KAPA","receiptTime":"2026-04-17T03:56:29.002Z","obsTime":1776397980,"reportTime":"2026-04-17T04:00:00.000Z","temp":16.1,"dewp":-11.1,"wdir":220,"wspd":9,"visib":"10+","altim":1005.2,"slp":999.5,"qcField":4,"metarType":"METAR","rawOb":"METAR KAPA 170353Z 22009KT 10SM SCT140 BKN220 16/M11 A2968 RMK AO2 SLP995 T01611111","lat":39.5599,"lon":-104.8484,"elev":1791,"name":"Denver/Centennial Arpt, CO, US","cover":"BKN","clouds":[{"cover":"SCT","base":14000},{"cover":"BKN","base":22000}],"fltCat":"VFR"},{"icaoId":"KHOU","receiptTime":"2026-04-17T03:56:25.451Z","obsTime":1776397980,"reportTime":"2026-04-17T04:00:00.000Z","temp":22.8,"dewp":20.6,"wdir":150,"wspd":7,"visib":"10+","altim":1015.7,"slp":1015.9,"qcField":12,"metarType":"METAR","rawOb":"METAR KHOU 170353Z 15007KT 10SM CLR 23/21 A2999 RMK AO2 SLP159 T02280206 $","lat":29.6458,"lon":-95.2821,"elev":13,"name":"Houston/Hobby Arpt, TX, US","cover":"CLR","clouds":[],"fltCat":"VFR"},{"icaoId":"KIAH","receiptTime":"2026-04-17T03:56:25.486Z","obsTime":1776397980,"reportTime":"2026-04-17T04:00:00.000Z","temp":22.8,"dewp":20,"wdir":170,"wspd":7,"visib":"10+","altim":1015.7,"slp":1015.5,"qcField":4,"metarType":"METAR","rawOb":"METAR KIAH 170353Z 17007KT 10SM CLR 23/20 A2999 RMK AO2 SLP155 T02280200","lat":29.9844,"lon":-95.3607,"elev":27,"name":"Houston/Bush Intl, TX, US","cover":"CLR","clouds":[],"fltCat":"VFR"},{"icaoId":"KLAW","receiptTime":"2026-04-17T03:56:25.507Z","obsTime":1776397980,"reportTime":"2026-04-17T04:00:00.000Z","temp":22.8,"dewp":18.9,"wdir":160,"wspd":9,"visib":"10+","altim":1009.9,"slp":1008.6,"qcField":6,"metarType":"METAR","rawOb":"METAR KLAW 170353Z AUTO 16009KT 10SM CLR 23/19 A2982 RMK AO2 SLP086 T02280189","lat":34.5577,"lon":-98.4172,"elev":328,"name":"Lawton-Fort Sill Rgnl, OK, US","cover":"CLR","clouds":[],"fltCat":"VFR"},{"icaoId":"KDVT","receiptTime":"2026-04-17T03:56:26.120Z","obsTime":1776397980,"reportTime":"2026-04-17T04:00:00.000Z","temp":25,"dewp":-11.1,"wdir":230,"wspd":7,"visib":"10+","altim":1008.2,"slp":1006.1,"qcField":12,"metarType":"METAR","rawOb":"METAR KDVT 170353Z 23007KT 10SM CLR 25/M11 A2977 RMK AO2 SLP061 T02501111 $","lat":33.6902,"lon":-112.0662,"elev":454,"name":"Phoenix/Deer Valley Arpt, AZ, US","cover":"CLR","clouds":[],"fltCat":"VFR"},{"icaoId":"KEVW","receiptTime":"2026-04-17T03:56:26.143Z","obsTime":1776397980,"reportTime":"2026-04-17T04:00:00.000Z","temp":-7.8,"dewp":-8.9,"wdir":220,"wspd":8,"visib":"10+","altim":1016,"slp":1015.7,"qcField":14,"metarType":"METAR","rawOb":"METAR KEVW 170353Z AUTO 22008KT 10SM CLR M08/M09 A3000 RMK AO2 SLP157 T10781089 $","lat":41.2727,"lon":-111.0305,"elev":2178,"name":"Evanston/Uinta Cnty, WY, US","cover":"CLR","clouds":[],"fltCat":"VFR"},{"icaoId":"KPIH","receiptTime":"2026-04-17T03:56:32.418Z","obsTime":1776397980,"reportTime":"2026-04-17T04:00:00.000Z","temp":-1.7,"dewp":-3.9,"wdir":120,"wspd":8,"visib":"10+","altim":1018,"slp":1020.1,"qcField":6,"precip":0.005,"metarType":"METAR","rawOb":"METAR KPIH 170353Z AUTO 12008KT 10SM BKN030 OVC050 M02/M04 A3006 RMK AO2 SNB10E26 SLP201 P0000 T10171039","lat":42.9197,"lon":-112.5723,"elev":1357,"name":"Pocatello Rgnl, ID, US","cover":"OVC","clouds":[{"cover":"BKN","base":3000},{"cover":"OVC","base":5000}],"fltCat":"MVFR"},{"icaoId":"KBOI","receiptTime":"2026-04-17T03:56:27.635Z","obsTime":1776397980,"reportTime":"2026-04-17T04:00:00.000Z","temp":3.3,"dewp":-3.3,"wdir":0,"wspd":0,"visib":"10+","altim":1022.1,"slp":1023.2,"qcField":4,"metarType":"METAR","rawOb":"METAR KBOI 170353Z 00000KT 10SM CLR 03/M03 A3018 RMK AO2 SLP232 T00331033","lat":43.567,"lon":-116.2406,"elev":860,"name":"Boise Arpt, ID, US","cover":"CLR","clouds":[],"fltCat":"VFR"},{"icaoId":"KACV","receiptTime":"2026-04-17T03:56:26.574Z","obsTime":1776397980,"reportTime":"2026-04-17T04:00:00.000Z","temp":9.4,"dewp":5.6,"wdir":10,"wspd":7,"visib":"10+","altim":1023.1,"slp":1023.8,"qcField":6,"metarType":"METAR","rawOb":"METAR KACV 170353Z AUTO 01007KT 10SM CLR 09/06 A3021 RMK AO2 SLP238 T00940056","lat":40.9784,"lon":-124.1048,"elev":63,"name":"Arcata Arpt, CA, US","cover":"CLR","clouds":[],"fltCat":"VFR"},{"icaoId":"KBIL","receiptTime":"2026-04-17T03:56:26.620Z","obsTime":1776397980,"reportTime":"2026-04-17T04:00:00.000Z","temp":1.1,"dewp":-1.7,"wdir":140,"wspd":4,"visib":"10+","altim":1014.3,"slp":1016.5,"qcField":4,"precip":0.005,"metarType":"METAR","rawOb":"METAR KBIL 170353Z 14004KT 10SM FEW025 SCT029 BKN035 01/M02 A2995 RMK AO2 SNE09 SLP165 P0000 T00111017","lat":45.8072,"lon":-108.5462,"elev":1089,"name":"Billings/Logan Intl, MT, US","cover":"BKN","clouds":[{"cover":"FEW","base":2500},{"cover":"SCT","base":2900},{"cover":"BKN","base":3500}],"fltCat":"VFR"},{"icaoId":"KBLI","receiptTime":"2026-04-17T03:56:26.648Z","obsTime":1776397980,"reportTime":"2026-04-17T04:00:00.000Z","temp":9.4,"dewp":1.7,"wdir":180,"wspd":6,"visib":"10+","altim":1024.5,"slp":1025.3,"qcField":6,"metarType":"METAR","rawOb":"METAR KBLI 170353Z AUTO 18006KT 10SM OVC085 09/02 A3025 RMK AO2 SLP253 T00940017","lat":48.7991,"lon":-122.5407,"elev":46,"name":"Bellingham Intl, WA, US","cover":"OVC","clouds":[{"cover":"OVC","base":8500}],"fltCat":"VFR"},{"icaoId":"KBUR","receiptTime":"2026-04-17T03:56:26.698Z","obsTime":1776397980,"reportTime":"2026-04-17T04:00:00.000Z","temp":16.7,"dewp":9.4,"wdir":180,"wspd":5,"visib":"10+","altim":1012.3,"slp":1011.3,"qcField":4,"metarType":"METAR","rawOb":"METAR KBUR 170353Z 18005KT 10SM CLR 17/09 A2989 RMK AO2 SLP113 T01670094","lat":34.1996,"lon":-118.3654,"elev":221,"name":"Burbank/Bob Hope Arpt, CA, US","cover":"CLR","clouds":[],"fltCat":"VFR"},{"icaoId":"KAUS","receiptTime":"2026-04-17T03:56:26.764Z","obsTime":1776397980,"reportTime":"2026-04-17T04:00:00.000Z","temp":23.9,"dewp":18.3,"wdir":160,"wspd":15,"wgst":26,"visib":"10+","altim":1013.6,"slp":1012.7,"qcField":4,"metarType":"METAR","rawOb":"METAR KAUS 170353Z 16015G26KT 10SM FEW250 24/18 A2993 RMK AO2 PK WND 16026/0353 SLP127 T02390183","lat":30.1831,"lon":-97.6806,"elev":148,"name":"Austin/Bergstrom Intl, TX, US","cover":"FEW","clouds":[{"cover":"FEW","base":25000}],"fltCat":"VFR"},{"icaoId":"KDTW","receiptTime":"2026-04-17T03:56:27.083Z","obsTime":1776397980,"reportTime":"2026-04-17T04:00:00.000Z","temp":13.9,"dewp":12.8,"wdir":300,"wspd":3,"visib":"10+","altim":1013,"slp":1012.7,"qcField":12,"metarType":"METAR","rawOb":"METAR KDTW 170353Z 30003KT 10SM CLR 14/13 A2991 RMK AO2 SLP127 T01390128 $","lat":42.2311,"lon":-83.3312,"elev":192,"name":"Detroit/Metro Wayne Cnty, MI, US","cover":"CLR","clouds":[],"fltCat":"VFR"},{"icaoId":"KAMA","receiptTime":"2026-04-17T03:56:28.710Z","obsTime":1776397980,"reportTime":"2026-04-17T04:00:00.000Z","temp":17.2,"dewp":-9.4,"wdir":200,"wspd":11,"wgst":21,"visib":"10+","altim":1010.2,"slp":1005.5,"qcField":4,"metarType":"METAR","rawOb":"METAR KAMA 170353Z 20011G21KT 10SM CLR 17/M09 A2983 RMK AO2 SLP055 T01721094","lat":35.2203,"lon":-101.7173,"elev":1102,"name":"Amarillo Intl Arpt, TX, US","cover":"CLR","clouds":[],"fltCat":"VFR"},{"icaoId":"KMYR","receiptTime":"2026-04-17T03:56:28.823Z","obsTime":1776397980,"reportTime":"2026-04-17T04:00:00.000Z","temp":20.6,"dewp":16.7,"wdir":220,"wspd":8,"visib":"10+","altim":1017,"slp":1016.7,"qcField":14,"maxT24":24.4,"minT24":18.3,"metarType":"METAR","rawOb":"METAR KMYR 170353Z AUTO 22008KT 10SM CLR 21/17 A3003 RMK AO2 SLP167 T02060167 402440183 $","lat":33.6769,"lon":-78.9325,"elev":7,"name":"Myrtle Beach Intl, SC, US","cover":"CLR","clouds":[],"fltCat":"VFR"},{"icaoId":"KSEA","receiptTime":"2026-04-17T03:56:30.674Z","obsTime":1776397980,"reportTime":"2026-04-17T04:00:00.000Z","temp":9.4,"dewp":1.1,"wdir":230,"wspd":10,"visib":"10+","altim":1024.8,"slp":1025.5,"qcField":4,"metarType":"METAR","rawOb":"METAR KSEA 170353Z 23010KT 10SM SCT080 SCT200 09/01 A3026 RMK AO2 SLP255 T00940011","lat":47.4447,"lon":-122.3144,"elev":115,"name":"Seattle-Tacoma Intl, WA, US","cover":"SCT","clouds":[{"cover":"SCT","base":8000},{"cover":"SCT","base":20000}],"fltCat":"VFR"},{"icaoId":"PANC","receiptTime":"2026-04-17T03:56:31.031Z","obsTime":1776397980,"reportTime":"2026-04-17T04:00:00.000Z","temp":3.3,"dewp":0,"wdir":140,"wspd":5,"visib":"10+","altim":1009.6,"slp":1009.8,"qcField":4,"wxString":"-RA","precip":0.02,"metarType":"METAR","rawOb":"METAR PANC 170353Z 14005KT 10SM -RA OVC029 03/00 A2981 RMK AO2 PK WND 16028/0330 SLP098 P0002 T00330000","lat":61.1691,"lon":-150.0277,"elev":39,"name":"Anchorage Intl, AK, US","cover":"OVC","clouds":[{"cover":"OVC","base":2900}],"fltCat":"MVFR"},{"icaoId":"KFMN","receiptTime":"2026-04-17T03:56:31.338Z","obsTime":1776397980,"reportTime":"2026-04-17T04:00:00.000Z","temp":15,"dewp":-12.8,"wdir":230,"wspd":8,"visib":"10+","altim":1011.3,"slp":1007.6,"qcField":6,"metarType":"METAR","rawOb":"METAR KFMN 170353Z AUTO 23008KT 10SM CLR 15/M13 A2986 RMK AO2 SLP076 T01501128","lat":36.7435,"lon":-108.2293,"elev":1677,"name":"Farmington/Four Corners Rgnl, NM, US","cover":"CLR","clouds":[],"fltCat":"VFR"},{"icaoId":"KGEG","receiptTime":"2026-04-17T03:56:31.391Z","obsTime":1776397980,"reportTime":"2026-04-17T04:00:00.000Z","temp":6.1,"dewp":-5.6,"wdir":190,"wspd":5,"visib":"10+","altim":1019,"slp":1020.2,"qcField":4,"metarType":"METAR","rawOb":"METAR KGEG 170353Z 19005KT 10SM BKN085 06/M06 A3009 RMK AO2 SLP202 T00611056","lat":47.6217,"lon":-117.528,"elev":718,"name":"Spokane Intl, WA, US","cover":"BKN","clouds":[{"cover":"BKN","base":8500}],"fltCat":"VFR"},{"icaoId":"KLBB","receiptTime":"2026-04-17T03:56:31.519Z","obsTime":1776397980,"reportTime":"2026-04-17T04:00:00.000Z","temp":24.4,"dewp":13.3,"wdir":190,"wspd":20,"wgst":32,"visib":"10+","altim":1011.3,"slp":1006.2,"qcField":4,"metarType":"METAR","rawOb":"METAR KLBB 170353Z 19020G32KT 10SM FEW120 24/13 A2986 RMK AO2 PK WND 18032/0350 SLP062 T02440133","lat":33.6658,"lon":-101.8233,"elev":996,"name":"Lubbock Intl Arpt, TX, US","cover":"FEW","clouds":[{"cover":"FEW","base":12000}],"fltCat":"VFR"},{"icaoId":"KMSO","receiptTime":"2026-04-17T03:56:31.652Z","obsTime":1776397980,"reportTime":"2026-04-17T04:00:00.000Z","temp":1.7,"dewp":-3.9,"wdir":280,"wspd":8,"visib":"10+","altim":1018.4,"slp":1020.5,"qcField":4,"metarType":"METAR","rawOb":"METAR KMSO 170353Z 28008KT 10SM OVC050 02/M04 A3007 RMK AO2 SLP205 T00171039","lat":46.9208,"lon":-114.0938,"elev":974,"name":"Missoula Intl, MT, US","cover":"OVC","clouds":[{"cover":"OVC","base":5000}],"fltCat":"VFR"},{"icaoId":"KSWO","receiptTime":"2026-04-17T03:56:32.033Z","obsTime":1776397980,"reportTime":"2026-04-17T04:00:00.000Z","temp":23.9,"dewp":18.3,"wdir":170,"wspd":15,"wgst":23,"visib":"10+","altim":1008.9,"slp":1007.4,"qcField":6,"metarType":"METAR","rawOb":"METAR KSWO 170353Z AUTO 17015G23KT 10SM CLR 24/18 A2979 RMK AO2 SLP074 T02390183","lat":36.1624,"lon":-97.0832,"elev":293,"name":"Stillwater Muni, OK, US","cover":"CLR","clouds":[],"fltCat":"VFR"},{"icaoId":"KMTJ","receiptTime":"2026-04-17T03:56:32.670Z","obsTime":1776397980,"reportTime":"2026-04-17T04:00:00.000Z","temp":16.1,"dewp":-14.4,"wdir":190,"wspd":6,"wgst":22,"visib":"10+","altim":1008.9,"slp":1002.4,"qcField":6,"metarType":"METAR","rawOb":"METAR KMTJ 170353Z AUTO 19006G22KT 10SM CLR 16/M14 A2979 RMK AO2 PK WND 21031/0324 SLP024 T01611144","lat":38.5054,"lon":-107.8981,"elev":1755,"name":"Montrose Rgnl, CO, US","cover":"CLR","clouds":[],"fltCat":"VFR"},{"icaoId":"KLOL","receiptTime":"2026-04-17T03:56:32.778Z","obsTime":1776397980,"reportTime":"2026-04-17T04:00:00.000Z","temp":2.8,"dewp":-10,"wdir":30,"wspd":8,"visib":"10+","altim":1023.5,"slp":1024.3,"qcField":6,"metarType":"METAR","rawOb":"METAR KLOL 170353Z AUTO 03008KT 10SM CLR 03/M10 A3022 RMK AO2 SLP243 T00281100","lat":40.0684,"lon":-118.5702,"elev":1191,"name":"Lovelock/Derby Fld, NV, US","cover":"CLR","clouds":[],"fltCat":"VFR"},{"icaoId":"KLVS","receiptTime":"2026-04-17T03:56:32.882Z","obsTime":1776397980,"reportTime":"2026-04-17T04:00:00.000Z","temp":12.2,"dewp":-12.2,"wdir":170,"wspd":14,"visib":"10+","altim":1013.6,"slp":1005,"qcField":6,"metarType":"METAR","rawOb":"METAR KLVS 170353Z AUTO 17014KT 10SM CLR 12/M12 A2993 RMK AO2 SLP050 T01221122","lat":35.6558,"lon":-105.1385,"elev":2095,"name":"Las Vegas Muni, NM, US","cover":"CLR","clouds":[],"fltCat":"VFR"},{"icaoId":"KMAF","receiptTime":"2026-04-17T03:56:32.914Z","obsTime":1776397980,"reportTime":"2026-04-17T04:00:00.000Z","temp":22.2,"dewp":16.7,"wdir":170,"wspd":13,"visib":9,"altim":1012.3,"slp":1007.8,"qcField":6,"metarType":"METAR","rawOb":"METAR KMAF 170353Z AUTO 17013KT 9SM CLR 22/17 A2989 RMK AO2 SLP078 T02220167","lat":31.9475,"lon":-102.2086,"elev":874,"name":"Midland Intl, TX, US","cover":"CLR","clouds":[],"fltCat":"VFR"},{"icaoId":"KMLS","receiptTime":"2026-04-17T03:56:33.186Z","obsTime":1776397980,"reportTime":"2026-04-17T04:00:00.000Z","temp":0.6,"dewp":-3.9,"wdir":30,"wspd":7,"visib":"10+","altim":1014,"slp":1015.2,"qcField":6,"metarType":"METAR","rawOb":"METAR KMLS 170353Z AUTO 03007KT 10SM FEW110 01/M04 A2994 RMK AO2 SLP152 T00061039","lat":46.4265,"lon":-105.8834,"elev":800,"name":"Miles City/Wiley Fld, MT, US","cover":"FEW","clouds":[{"cover":"FEW","base":11000}],"fltCat":"VFR"},{"icaoId":"KGJT","receiptTime":"2026-04-17T03:56:33.360Z","obsTime":1776397980,"reportTime":"2026-04-17T04:00:00.000Z","temp":16.7,"dewp":-11.1,"wdir":110,"wspd":11,"visib":"10+","altim":1005.8,"slp":1000.5,"qcField":4,"metarType":"METAR","rawOb":"METAR KGJT 170353Z 11011KT 10SM CLR 17/M11 A2970 RMK AO2 SLP005 T01671111","lat":39.1344,"lon":-108.5408,"elev":1475,"name":"Grand Junction Rgnl, CO, US","cover":"CLR","clouds":[],"fltCat":"VFR"},{"icaoId":"KHIO","receiptTime":"2026-04-17T03:56:33.694Z","obsTime":1776397980,"reportTime":"2026-04-17T04:00:00.000Z","temp":7.8,"dewp":3.3,"wdir":310,"wspd":5,"visib":"10+","altim":1026.5,"slp":1026.6,"qcField":4,"metarType":"METAR","rawOb":"METAR KHIO 170353Z 31005KT 10SM SCT060 08/03 A3031 RMK AO2 SLP266 T00780033","lat":45.5476,"lon":-122.9557,"elev":62,"name":"Portland/Hillsboro Arpt, OR, US","cover":"SCT","clouds":[{"cover":"SCT","base":6000}],"fltCat":"VFR"},{"icaoId":"KSPS","receiptTime":"2026-04-17T03:56:28.583Z","obsTime":1776397920,"reportTime":"2026-04-17T04:00:00.000Z","temp":22.8,"dewp":17.8,"wdir":170,"wspd":9,"visib":"10+","altim":1009.9,"slp":1008.4,"qcField":4,"metarType":"METAR","rawOb":"METAR KSPS 170352Z 17009KT 10SM CLR 23/18 A2982 RMK AO2 SLP084 T02280178","lat":33.9785,"lon":-98.493,"elev":310,"name":"Wichita Falls Rgnl, TX, US","cover":"CLR","clouds":[],"fltCat":"VFR"},{"icaoId":"KCVG","receiptTime":"2026-04-17T03:56:28.763Z","obsTime":1776397920,"reportTime":"2026-04-17T04:00:00.000Z","temp":18.3,"dewp":10,"wdir":240,"wspd":3,"visib":"10+","altim":1014.6,"slp":1013.5,"qcField":4,"metarType":"METAR","rawOb":"METAR KCVG 170352Z 24003KT 10SM SCT250 18/10 A2996 RMK AO2 SLP135 T01830100","lat":39.0444,"lon":-84.6724,"elev":264,"name":"Cincinnati Intl, KY, US","cover":"SCT","clouds":[{"cover":"SCT","base":25000}],"fltCat":"VFR"},{"icaoId":"KOKC","receiptTime":"2026-04-17T03:56:28.559Z","obsTime":1776397920,"reportTime":"2026-04-17T04:00:00.000Z","temp":22.8,"dewp":18.9,"wdir":170,"wspd":15,"wgst":24,"visib":"10+","altim":1009.6,"slp":1008.2,"qcField":4,"metarType":"METAR","rawOb":"METAR KOKC 170352Z 17015G24KT 10SM SCT250 23/19 A2981 RMK AO2 SLP082 T02280189","lat":35.3843,"lon":-97.6003,"elev":391,"name":"Oklahoma City/Will Rogers Intl, OK, US","cover":"SCT","clouds":[{"cover":"SCT","base":25000}],"fltCat":"VFR"},{"icaoId":"KMLF","receiptTime":"2026-04-17T03:56:21.506Z","obsTime":1776397920,"reportTime":"2026-04-17T04:00:00.000Z","temp":4.4,"dewp":-12.2,"wdir":20,"wspd":20,"wgst":28,"visib":"10+","altim":1016.3,"slp":1013.9,"qcField":6,"metarType":"METAR","rawOb":"METAR KMLF 170352Z AUTO 02020G28KT 10SM OVC080 04/M12 A3001 RMK AO2 PK WND 03031/0257 SLP139 T00441122","lat":38.4225,"lon":-113.0109,"elev":1537,"name":"Milford Muni, UT, US","cover":"OVC","clouds":[{"cover":"OVC","base":8000}],"fltCat":"VFR"},{"icaoId":"KHRL","receiptTime":"2026-04-17T03:56:28.548Z","obsTime":1776397920,"reportTime":"2026-04-17T04:00:00.000Z","temp":23.3,"dewp":22.2,"wdir":130,"wspd":12,"visib":"10+","altim":1014,"slp":1013.7,"qcField":4,"metarType":"METAR","rawOb":"METAR KHRL 170352Z 13012KT 10SM FEW018 23/22 A2994 RMK AO2 SLP137 T02330222","lat":26.2303,"lon":-97.6556,"elev":9,"name":"Harlingen/Valley Intl, TX, US","cover":"FEW","clouds":[{"cover":"FEW","base":1800}],"fltCat":"VFR"},{"icaoId":"KCLT","receiptTime":"2026-04-17T03:56:28.750Z","obsTime":1776397920,"reportTime":"2026-04-17T04:00:00.000Z","temp":22.8,"dewp":9.4,"wdir":210,"wspd":6,"visib":"10+","altim":1015.3,"slp":1015.7,"qcField":4,"metarType":"METAR","rawOb":"METAR KCLT 170352Z 21006KT 10SM FEW100 FEW250 23/09 A2998 RMK AO2 SLP157 T02280094","lat":35.2225,"lon":-80.9543,"elev":223,"name":"Charlotte/Douglas Intl, NC, US","cover":"FEW","clouds":[{"cover":"FEW","base":10000},{"cover":"FEW","base":25000}],"fltCat":"VFR"},{"icaoId":"KABQ","receiptTime":"2026-04-17T03:56:28.499Z","obsTime":1776397920,"reportTime":"2026-04-17T04:00:00.000Z","temp":20,"dewp":-16.1,"wdir":230,"wspd":3,"visib":"10+","altim":1011.9,"slp":1005.8,"qcField":4,"metarType":"METAR","rawOb":"METAR KABQ 170352Z 23003KT 10SM SCT150 BKN250 20/M16 A2988 RMK AO2 SLP058 T02001161","lat":35.0419,"lon":-106.6154,"elev":1620,"name":"Albuquerque Intl, NM, US","cover":"BKN","clouds":[{"cover":"SCT","base":15000},{"cover":"BKN","base":25000}],"fltCat":"VFR"},{"icaoId":"KPHX","receiptTime":"2026-04-17T03:56:23.288Z","obsTime":1776397920,"reportTime":"2026-04-17T03:52:00.000Z","temp":26.7,"dewp":-10.6,"wdir":250,"wspd":11,"visib":"10+","altim":1007.5,"qcField":12,"metarType":"SPECI","rawOb":"SPECI KPHX 170352Z 25011KT 10SM FEW140 SCT200 BKN250 27/M11 A2975 RMK AO2 T02671106 $","lat":33.4278,"lon":-112.0037,"elev":338,"name":"Phoenix/Sky Harbor Intl, AZ, US","cover":"BKN","clouds":[{"cover":"FEW","base":14000},{"cover":"SCT","base":20000},{"cover":"BKN","base":25000}],"fltCat":"VFR"},{"icaoId":"KABI","receiptTime":"2026-04-17T03:56:28.487Z","obsTime":1776397920,"reportTime":"2026-04-17T04:00:00.000Z","temp":22.8,"dewp":17.8,"visib":"10+","altim":1011.9,"slp":1009.2,"qcField":4,"metarType":"METAR","rawOb":"METAR KABI 170352Z 10SM CLR 23/18 A2988 RMK AO2 SLP092 T02280178","lat":32.4106,"lon":-99.6821,"elev":543,"name":"Abilene Rgnl, TX, US","cover":"CLR","clouds":[],"fltCat":"VFR"},{"icaoId":"KATL","receiptTime":"2026-04-17T03:56:28.511Z","obsTime":1776397920,"reportTime":"2026-04-17T04:00:00.000Z","temp":22.2,"dewp":10,"wdir":240,"wspd":6,"visib":"10+","altim":1018,"slp":1017,"qcField":12,"metarType":"METAR","rawOb":"METAR KATL 170352Z 24006KT 10SM FEW080 22/10 A3006 RMK AO2 SLP170 T02220100 $","lat":33.6297,"lon":-84.4422,"elev":309,"name":"Atlanta/Hartsfield-Jackson Intl, GA, US","cover":"FEW","clouds":[{"cover":"FEW","base":8000}],"fltCat":"VFR"},{"icaoId":"KIAD","receiptTime":"2026-04-17T03:56:28.787Z","obsTime":1776397920,"reportTime":"2026-04-17T04:00:00.000Z","temp":25.6,"dewp":12.8,"wdir":320,"wspd":10,"wgst":17,"visib":"10+","altim":1010.2,"slp":1009.9,"qcField":4,"metarType":"METAR","rawOb":"METAR KIAD 170352Z 32010G17KT 10SM BKN140 26/13 A2983 RMK AO2 SLP099 T02560128","lat":38.9348,"lon":-77.4473,"elev":90,"name":"Washington/Dulles Intl, VA, US","cover":"BKN","clouds":[{"cover":"BKN","base":14000}],"fltCat":"VFR"},{"icaoId":"KSTL","receiptTime":"2026-04-17T03:54:10.004Z","obsTime":1776397860,"reportTime":"2026-04-17T04:00:00.000Z","temp":21.7,"dewp":16.1,"wdir":180,"wspd":7,"visib":"10+","altim":1013.6,"slp":1012.7,"qcField":12,"metarType":"METAR","rawOb":"METAR KSTL 170351Z 18007KT 10SM CLR 22/16 A2993 RMK AO2 SLP127 T02170161 $","lat":38.7525,"lon":-90.3734,"elev":163,"name":"St Louis/Lambert Intl, MO, US","cover":"CLR","clouds":[],"fltCat":"VFR"},{"icaoId":"KSAD","receiptTime":"2026-04-17T03:54:09.900Z","obsTime":1776397860,"reportTime":"2026-04-17T04:00:00.000Z","temp":22.8,"dewp":-11.1,"wdir":310,"wspd":11,"visib":"10+","altim":1010.2,"slp":1006,"qcField":6,"metarType":"METAR","rawOb":"METAR KSAD 170351Z AUTO 31011KT 10SM CLR 23/M11 A2983 RMK AO2 SLP060 T02281111","lat":32.8565,"lon":-109.636,"elev":937,"name":"Safford Rgnl, AZ, US","cover":"CLR","clouds":[],"fltCat":"VFR"},{"icaoId":"KORF","receiptTime":"2026-04-17T03:54:09.799Z","obsTime":1776397860,"reportTime":"2026-04-17T04:00:00.000Z","temp":22.8,"dewp":16.1,"wdir":210,"wspd":14,"visib":"10+","altim":1011.3,"slp":1011,"qcField":4,"metarType":"METAR","rawOb":"METAR KORF 170351Z 21014KT 10SM CLR 23/16 A2986 RMK AO2 SLP110 T02280161","lat":36.9037,"lon":-76.1927,"elev":5,"name":"Norfolk Intl, VA, US","cover":"CLR","clouds":[],"fltCat":"VFR"},{"icaoId":"KSAN","receiptTime":"2026-04-17T03:54:09.912Z","obsTime":1776397860,"reportTime":"2026-04-17T04:00:00.000Z","temp":17.2,"dewp":12.2,"wdir":190,"wspd":5,"visib":"10+","altim":1014,"slp":1013.6,"qcField":12,"metarType":"METAR","rawOb":"METAR KSAN 170351Z 19005KT 10SM BKN018 17/12 A2994 RMK AO2 SLP136 T01720122 $","lat":32.7364,"lon":-117.1973,"elev":3,"name":"San Diego Intl Arpt, CA, US","cover":"BKN","clouds":[{"cover":"BKN","base":1800}],"fltCat":"MVFR"},{"icaoId":"KRDU","receiptTime":"2026-04-17T03:54:09.877Z","obsTime":1776397860,"reportTime":"2026-04-17T04:00:00.000Z","temp":23.3,"dewp":10,"wdir":230,"wspd":9,"visib":"10+","altim":1014,"slp":1013.2,"qcField":4,"metarType":"METAR","rawOb":"METAR KRDU 170351Z 23009KT 10SM FEW250 23/10 A2994 RMK AO2 SLP132 T02330100","lat":35.8923,"lon":-78.782,"elev":121,"name":"Raleigh-Durham Intl, NC, US","cover":"FEW","clouds":[{"cover":"FEW","base":25000}],"fltCat":"VFR"},{"icaoId":"KLGA","receiptTime":"2026-04-17T03:56:28.799Z","obsTime":1776397860,"reportTime":"2026-04-17T04:00:00.000Z","temp":22.8,"dewp":12.8,"wdir":210,"wspd":8,"visib":"10+","altim":1006.2,"slp":1006,"qcField":4,"metarType":"METAR","rawOb":"METAR KLGA 170351Z 21008KT 10SM SCT250 23/13 A2971 RMK AO2 SLP060 T02280128","lat":40.7794,"lon":-73.8803,"elev":9,"name":"New York/La Guardia Arpt, NY, US","cover":"SCT","clouds":[{"cover":"SCT","base":25000}],"fltCat":"VFR"},{"icaoId":"KLGU","receiptTime":"2026-04-17T03:54:09.718Z","obsTime":1776397860,"reportTime":"2026-04-17T04:00:00.000Z","temp":-1.1,"dewp":-4.4,"wdir":10,"wspd":5,"visib":"10+","altim":1018.4,"slp":1019.8,"qcField":6,"metarType":"METAR","rawOb":"METAR KLGU 170351Z AUTO 01005KT 10SM SCT055 M01/M04 A3007 RMK AO2 SLP198 T10111044","lat":41.7865,"lon":-111.8519,"elev":1359,"name":"Logan/Cache Arpt, UT, US","cover":"SCT","clouds":[{"cover":"SCT","base":5500}],"fltCat":"VFR"},{"icaoId":"KEWR","receiptTime":"2026-04-17T03:54:11.686Z","obsTime":1776397860,"reportTime":"2026-04-17T04:00:00.000Z","temp":25.6,"dewp":13.3,"wdir":220,"wspd":9,"visib":"10+","altim":1006.2,"slp":1006.1,"qcField":4,"metarType":"METAR","rawOb":"METAR KEWR 170351Z 22009KT 10SM FEW055 SCT100 BKN250 26/13 A2971 RMK AO2 SLP061 OCNL LTGIC DSNT NW CB DSNT NW MOV NE T02560133","lat":40.6828,"lon":-74.1692,"elev":2,"name":"Newark Intl, NJ, US","cover":"BKN","clouds":[{"cover":"FEW","base":5500},{"cover":"SCT","base":10000},{"cover":"BKN","base":25000}],"fltCat":"VFR"},{"icaoId":"KELP","receiptTime":"2026-04-17T03:54:11.675Z","obsTime":1776397860,"reportTime":"2026-04-17T04:00:00.000Z","temp":24.4,"dewp":-8.3,"wdir":270,"wspd":14,"visib":"10+","altim":1011.9,"slp":1005.6,"qcField":12,"metarType":"METAR","rawOb":"METAR KELP 170351Z 27014KT 10SM FEW250 24/M08 A2988 RMK AO2 SLP056 T02441083 $","lat":31.8123,"lon":-106.3774,"elev":1205,"name":"El Paso Intl, TX, US","cover":"FEW","clouds":[{"cover":"FEW","base":25000}],"fltCat":"VFR"},{"icaoId":"KROW","receiptTime":"2026-04-17T03:54:09.890Z","obsTime":1776397860,"reportTime":"2026-04-17T04:00:00.000Z","temp":19.4,"dewp":-8.3,"wdir":260,"wspd":11,"visib":"10+","altim":1010.6,"slp":1005.4,"qcField":14,"metarType":"METAR","rawOb":"METAR KROW 170351Z AUTO 26011KT 10SM CLR 19/M08 A2984 RMK AO2 SLP054 T01941083 $","lat":33.3074,"lon":-104.5082,"elev":1105,"name":"Roswell/Ind Arpt, NM, US","cover":"CLR","clouds":[],"fltCat":"VFR"},{"icaoId":"KACT","receiptTime":"2026-04-17T03:54:10.101Z","obsTime":1776397860,"reportTime":"2026-04-17T04:00:00.000Z","temp":25,"dewp":17.8,"wdir":160,"wspd":15,"visib":"10+","altim":1012.3,"slp":1011.6,"qcField":4,"metarType":"METAR","rawOb":"METAR KACT 170351Z 16015KT 10SM CLR 25/18 A2989 RMK AO2 SLP116 T02500178","lat":31.618,"lon":-97.2283,"elev":150,"name":"Waco Rgnl, TX, US","cover":"CLR","clouds":[],"fltCat":"VFR"},{"icaoId":"KPIT","receiptTime":"2026-04-17T03:54:11.989Z","obsTime":1776397860,"reportTime":"2026-04-17T04:00:00.000Z","temp":17.2,"dewp":15.6,"wdir":230,"wspd":3,"visib":"10+","altim":1012.3,"slp":1012,"qcField":4,"metarType":"METAR","rawOb":"METAR KPIT 170351Z 23003KT 10SM SCT075 17/16 A2989 RMK AO2 SLP120 OCNL LTG DSNT N T01720156","lat":40.4814,"lon":-80.2083,"elev":339,"name":"Pittsburgh Intl, PA, US","cover":"SCT","clouds":[{"cover":"SCT","base":7500}],"fltCat":"VFR"},{"icaoId":"KIGM","receiptTime":"2026-04-17T03:54:11.757Z","obsTime":1776397860,"reportTime":"2026-04-17T04:00:00.000Z","temp":16.1,"dewp":-8.3,"wdir":180,"wspd":10,"visib":"10+","altim":1010.2,"slp":1004.7,"qcField":6,"metarType":"METAR","rawOb":"METAR KIGM 170351Z AUTO 18010KT 10SM CLR 16/M08 A2983 RMK AO2 SLP047 T01611083","lat":35.2575,"lon":-113.9341,"elev":1045,"name":"Kingman Arpt, AZ, US","cover":"CLR","clouds":[],"fltCat":"VFR"},{"icaoId":"KCRP","receiptTime":"2026-04-17T03:54:11.618Z","obsTime":1776397860,"reportTime":"2026-04-17T04:00:00.000Z","temp":23.9,"dewp":21.7,"wdir":150,"wspd":15,"visib":"10+","altim":1014.3,"slp":1014,"qcField":12,"metarType":"METAR","rawOb":"METAR KCRP 170351Z 15015KT 10SM FEW013 SCT019 24/22 A2995 RMK AO2 SLP140 T02390217 $","lat":27.7734,"lon":-97.513,"elev":11,"name":"Corpus Christi Intl, TX, US","cover":"SCT","clouds":[{"cover":"FEW","base":1300},{"cover":"SCT","base":1900}],"fltCat":"VFR"},{"icaoId":"KBDL","receiptTime":"2026-04-17T03:54:10.163Z","obsTime":1776397860,"reportTime":"2026-04-17T04:00:00.000Z","temp":20.6,"dewp":12.8,"wdir":"VRB","wspd":6,"visib":"10+","altim":1006.5,"slp":1006.3,"qcField":4,"metarType":"METAR","rawOb":"METAR KBDL 170351Z VRB06KT 10SM FEW110 BKN250 21/13 A2972 RMK AO2 PRESRR SLP063 T02060128","lat":41.9374,"lon":-72.682,"elev":52,"name":"Hartford/Bradley Intl, CT, US","cover":"BKN","clouds":[{"cover":"FEW","base":11000},{"cover":"BKN","base":25000}],"fltCat":"VFR"},{"icaoId":"KORD","receiptTime":"2026-04-17T03:54:09.789Z","obsTime":1776397860,"reportTime":"2026-04-17T04:00:00.000Z","temp":10.6,"dewp":9.4,"wdir":100,"wspd":4,"visib":9,"altim":1014,"slp":1013.9,"qcField":12,"metarType":"METAR","rawOb":"METAR KORD 170351Z 10004KT 9SM SCT005 11/09 A2994 RMK AO2 SLP139 T01060094 $","lat":41.9602,"lon":-87.9316,"elev":202,"name":"Chicago/O'Hare Intl, IL, US","cover":"SCT","clouds":[{"cover":"SCT","base":500}],"fltCat":"VFR"},{"icaoId":"KPVD","receiptTime":"2026-04-17T03:54:09.855Z","obsTime":1776397860,"reportTime":"2026-04-17T04:00:00.000Z","temp":12.2,"dewp":10.6,"wdir":160,"wspd":4,"visib":8,"altim":1006.5,"slp":1006.6,"qcField":12,"metarType":"METAR","rawOb":"METAR KPVD 170351Z 16004KT 8SM SCT250 12/11 A2972 RMK AO2 SLP066 LAST T01220106 $","lat":41.7225,"lon":-71.4325,"elev":15,"name":"Providence/Green Mem, RI, US","cover":"SCT","clouds":[{"cover":"SCT","base":25000}],"fltCat":"VFR"},{"icaoId":"KCMH","receiptTime":"2026-04-17T03:54:11.977Z","obsTime":1776397860,"reportTime":"2026-04-17T04:00:00.000Z","temp":18.3,"dewp":11.7,"wdir":0,"wspd":0,"visib":"10+","altim":1013.6,"slp":1013,"qcField":4,"metarType":"METAR","rawOb":"METAR KCMH 170351Z 00000KT 10SM SCT065 BKN250 18/12 A2993 RMK AO2 SLP130 T01830117","lat":39.9907,"lon":-82.877,"elev":257,"name":"Columbus/Glenn Intl, OH, US","cover":"BKN","clouds":[{"cover":"SCT","base":6500},{"cover":"BKN","base":25000}],"fltCat":"VFR"},{"icaoId":"KJFK","receiptTime":"2026-04-17T03:54:09.705Z","obsTime":1776397860,"reportTime":"2026-04-17T04:00:00.000Z","temp":13.9,"dewp":12.2,"wdir":210,"wspd":5,"visib":"10+","altim":1007.2,"slp":1006.9,"qcField":4,"metarType":"METAR","rawOb":"METAR KJFK 170351Z 21005KT 10SM SCT250 14/12 A2974 RMK AO2 SLP069 T01390122","lat":40.6392,"lon":-73.7639,"elev":3,"name":"New York/JF Kennedy Intl, NY, US","cover":"SCT","clouds":[{"cover":"SCT","base":25000}],"fltCat":"VFR"},{"icaoId":"KVNY","receiptTime":"2026-04-17T03:54:10.051Z","obsTime":1776397860,"reportTime":"2026-04-17T04:00:00.000Z","temp":16.1,"dewp":9.4,"wdir":100,"wspd":5,"visib":"10+","altim":1011.9,"slp":1011.2,"qcField":12,"metarType":"METAR","rawOb":"METAR KVNY 170351Z 10005KT 10SM CLR 16/09 A2988 RMK AO2 SLP112 T01610094 $","lat":34.2121,"lon":-118.4915,"elev":241,"name":"Van Nuys Arpt, CA, US","cover":"CLR","clouds":[],"fltCat":"VFR"},{"icaoId":"KMYL","receiptTime":"2026-04-17T03:54:09.778Z","obsTime":1776397860,"reportTime":"2026-04-17T04:00:00.000Z","temp":-2.8,"dewp":-5.6,"wdir":340,"wspd":3,"visib":"10+","altim":1020.4,"slp":1023.8,"qcField":6,"metarType":"METAR","rawOb":"METAR KMYL 170351Z AUTO 34003KT 10SM CLR M03/M06 A3013 RMK AO2 SLP238 T10281056","lat":44.8943,"lon":-116.0998,"elev":1532,"name":"McCall Muni, ID, US","cover":"CLR","clouds":[],"fltCat":"VFR"},{"icaoId":"KSAT","receiptTime":"2026-04-17T03:54:11.890Z","obsTime":1776397860,"reportTime":"2026-04-17T04:00:00.000Z","temp":23.9,"dewp":17.2,"wdir":150,"wspd":14,"wgst":24,"visib":"10+","altim":1014,"slp":1012.2,"qcField":4,"metarType":"METAR","rawOb":"METAR KSAT 170351Z 15014G24KT 10SM SCT028 BKN250 24/17 A2994 RMK AO2 SLP122 T02390172","lat":29.5443,"lon":-98.4839,"elev":246,"name":"San Antonio Intl, TX, US","cover":"BKN","clouds":[{"cover":"SCT","base":2800},{"cover":"BKN","base":25000}],"fltCat":"VFR"},{"icaoId":"KOXR","receiptTime":"2026-04-17T03:54:09.812Z","obsTime":1776397860,"reportTime":"2026-04-17T04:00:00.000Z","temp":15,"dewp":12.2,"wdir":0,"wspd":0,"visib":9,"altim":1011.9,"slp":1011.7,"qcField":12,"metarType":"METAR","rawOb":"METAR KOXR 170351Z 00000KT 9SM BKN010 15/12 A2988 RMK AO2 SLP117 T01500122 $","lat":34.2001,"lon":-119.2042,"elev":12,"name":"Oxnard Arpt, CA, US","cover":"BKN","clouds":[{"cover":"BKN","base":1000}],"fltCat":"MVFR"},{"icaoId":"KCLE","receiptTime":"2026-04-17T03:54:12.111Z","obsTime":1776397860,"reportTime":"2026-04-17T04:00:00.000Z","temp":13.3,"dewp":11.1,"wdir":250,"wspd":4,"visib":"10+","altim":1012.3,"slp":1013.3,"qcField":12,"metarType":"METAR","rawOb":"METAR KCLE 170351Z 25004KT 10SM FEW050 13/11 A2989 RMK AO2 SLP133 T01330111 $","lat":41.4057,"lon":-81.8519,"elev":237,"name":"Cleveland/Hopkins Intl, OH, US","cover":"FEW","clouds":[{"cover":"FEW","base":5000}],"fltCat":"VFR"},{"icaoId":"KGYR","receiptTime":"2026-04-17T03:54:11.286Z","obsTime":1776397620,"reportTime":"2026-04-17T04:00:00.000Z","temp":26,"dewp":-9,"wdir":220,"wspd":7,"visib":"10+","altim":1007.2,"qcField":0,"metarType":"METAR","rawOb":"METAR KGYR 170347Z 22007KT 10SM BKN250 26/M09 A2974 RMK LAST","lat":33.428,"lon":-112.368,"elev":292,"name":"Phoenix/Goodyear Muni, AZ, US","cover":"BKN","clouds":[{"cover":"BKN","base":25000}],"fltCat":"VFR"},{"icaoId":"KIWA","receiptTime":"2026-04-17T03:48:46.744Z","obsTime":1776397620,"reportTime":"2026-04-17T04:00:00.000Z","temp":25,"dewp":-9,"wdir":270,"wspd":7,"visib":"10+","altim":1008.9,"qcField":0,"metarType":"METAR","rawOb":"METAR KIWA 170347Z 27007KT 10SM CLR 25/M09 A2979","lat":33.3008,"lon":-111.6437,"elev":420,"name":"Phoenix/Mesa Gateway Arpt, AZ, US","cover":"CLR","clouds":[],"fltCat":"VFR"},{"icaoId":"KSUN","receiptTime":"2026-04-17T03:47:33.249Z","obsTime":1776397620,"reportTime":"2026-04-17T04:00:00.000Z","temp":-1,"dewp":-12,"wdir":320,"wspd":7,"visib":"10+","altim":1018.4,"qcField":0,"metarType":"METAR","rawOb":"METAR KSUN 170347Z 32007KT 10SM CLR M01/M12 A3007","lat":43.4969,"lon":-114.2923,"elev":1619,"name":"Hailey/Friedman Mem, ID, US","cover":"CLR","clouds":[],"fltCat":"VFR"},{"icaoId":"KLUF","receiptTime":"2026-04-17T03:08:07.707Z","obsTime":1776394500,"reportTime":"2026-04-17T03:00:00.000Z","temp":26.6,"dewp":-14,"wdir":210,"wspd":8,"visib":9,"altim":1006.9,"slp":1005.8,"qcField":14,"presTend":-0.3,"metarType":"METAR","rawOb":"METAR KLUF 170255Z AUTO 21008KT 9SM CLR 27/M14 A2973 RMK AO2 SLP058 T02661140 55003 $","lat":33.538,"lon":-112.38,"elev":333,"name":"Phoenix/Luke AFB, AZ, US","cover":"CLR","clouds":[],"fltCat":"VFR"},{"icaoId":"KEND","receiptTime":"2026-04-17T03:16:06.302Z","obsTime":1776394500,"reportTime":"2026-04-17T03:00:00.000Z","temp":23.9,"dewp":14.6,"wdir":140,"wspd":12,"visib":"10+","altim":1006.5,"slp":1005.4,"qcField":14,"presTend":0.1,"metarType":"METAR","rawOb":"METAR KEND 170255Z AUTO 14012KT 10SM CLR 24/15 A2972 RMK AO2 SLP054 T02390146 53001 $","lat":36.338,"lon":-97.919,"elev":392,"name":"Enid/Vance AFB, OK, US","cover":"CLR","clouds":[],"fltCat":"VFR"},{"icaoId":"KGEU","receiptTime":"2026-04-17T02:53:15.187Z","obsTime":1776394260,"reportTime":"2026-04-17T03:00:00.000Z","temp":27,"dewp":-13,"wdir":210,"wspd":10,"visib":"10+","altim":1006.2,"qcField":0,"metarType":"METAR","rawOb":"METAR KGEU 170251Z 21010KT 10SM OVC230 27/M13 A2971","lat":33.528,"lon":-112.293,"elev":319,"name":"Glendale Muni, AZ, US","cover":"OVC","clouds":[{"cover":"OVC","base":23000}],"fltCat":"VFR"},{"icaoId":"KRYN","receiptTime":"2026-04-17T02:45:50.689Z","obsTime":1776393900,"reportTime":"2026-04-17T03:00:00.000Z","temp":22,"dewp":-18,"wdir":240,"wspd":6,"visib":"10+","altim":1009.6,"qcField":0,"metarType":"METAR","rawOb":"METAR KRYN 170245Z 24006KT 10SM CLR 22/M18 A2981","lat":32.1418,"lon":-111.1767,"elev":731,"name":"Tucson/Ryan Fld, AZ, US","cover":"CLR","clouds":[],"fltCat":"VFR"}]