[{"icaoId":"KBVU","receiptTime":"2026-04-16T03:16:10.296Z","obsTime":1776309300,"reportTime":"2026-04-16T03:15:00.000Z","temp":23,"dewp":-11,"wdir":210,"wspd":6,"visib":9,"altim":1010.9,"qcField":6,"metarType":"METAR","rawOb":"METAR KBVU 160315Z AUTO 21006KT 9SM CLR 23/M11 A2985 RMK AO2","lat":35.9489,"lon":-114.8633,"elev":654,"name":"Boulder City Muni, NV, US","cover":"CLR","clouds":[],"fltCat":"VFR"},{"icaoId":"KBTV","receiptTime":"2026-04-16T03:16:06.480Z","obsTime":1776309180,"reportTime":"2026-04-16T03:13:00.000Z","temp":9.4,"dewp":8.3,"wdir":320,"wspd":6,"visib":0.75,"altim":1011.6,"qcField":4,"wxString":"-RA BR","precip":0.005,"metarType":"SPECI","rawOb":"SPECI KBTV 160313Z 32006KT 3/4SM R15/2200V2800FT -RA BR OVC003 09/08 A2987 RMK AO2 TWR VIS 3 RAB02 P0000 T00940083","lat":44.4682,"lon":-73.1499,"elev":101,"name":"Burlington Intl, VT, US","cover":"OVC","clouds":[{"cover":"OVC","base":300}],"fltCat":"LIFR"},{"icaoId":"KBOS","receiptTime":"2026-04-16T03:14:11.998Z","obsTime":1776309060,"reportTime":"2026-04-16T03:11:00.000Z","temp":8.3,"dewp":7.8,"wdir":70,"wspd":3,"visib":3,"altim":1013.6,"qcField":12,"wxString":"BR","metarType":"SPECI","rawOb":"SPECI KBOS 160311Z 07003KT 3SM BR BKN004 OVC011 08/08 A2993 RMK AO2 VIS E-SE 1 1/2 T00830078 $","lat":42.3606,"lon":-71.0097,"elev":4,"name":"Boston/Logan Intl, MA, US","cover":"OVC","clouds":[{"cover":"BKN","base":400},{"cover":"OVC","base":1100}],"fltCat":"LIFR"},{"icaoId":"KSTL","receiptTime":"2026-04-16T03:14:11.822Z","obsTime":1776309060,"reportTime":"2026-04-16T03:11:00.000Z","temp":17.8,"dewp":17.2,"wdir":230,"wspd":11,"visib":1.5,"altim":1012.6,"qcField":4,"wxString":"+TSRA BR","precip":0.49,"metarType":"SPECI","rawOb":"SPECI KSTL 160311Z 23011KT 1 1/2SM R30R/4500VP6000FT +TSRA BR FEW006 BKN026 OVC043CB 18/17 A2990 RMK AO2 OCNL LTGICCCCG ALQDS TS ALQDS MOV NE P0049 T01780172","lat":38.7525,"lon":-90.3734,"elev":163,"name":"St Louis/Lambert Intl, MO, US","cover":"OVC","clouds":[{"cover":"FEW","base":600},{"cover":"BKN","base":2600},{"cover":"OVC","base":4300}],"fltCat":"IFR"},{"icaoId":"KGTF","receiptTime":"2026-04-16T03:14:11.663Z","obsTime":1776309060,"reportTime":"2026-04-16T03:11:00.000Z","temp":6.1,"dewp":3.9,"wdir":300,"wspd":14,"wgst":23,"visib":"10+","altim":1000.8,"qcField":4,"wxString":"-RA","precip":0.02,"metarType":"SPECI","rawOb":"SPECI KGTF 160311Z 30014G23KT 10SM -RA FEW015 OVC034 06/04 A2955 RMK AO2 LTG DSNT S P0002 T00610039","lat":47.4733,"lon":-111.3828,"elev":1117,"name":"Great Falls Intl, MT, US","cover":"OVC","clouds":[{"cover":"FEW","base":1500},{"cover":"OVC","base":3400}],"fltCat":"VFR"},{"icaoId":"KORD","receiptTime":"2026-04-16T03:14:11.700Z","obsTime":1776309000,"reportTime":"2026-04-16T03:10:00.000Z","temp":21.1,"dewp":16.7,"wdir":240,"wspd":13,"wgst":24,"visib":"10+","altim":1007.5,"qcField":4,"wxString":"TS","metarType":"SPECI","rawOb":"SPECI KORD 160310Z 24013G24KT 10SM TS BKN025CB BKN070 OVC095 21/17 A2975 RMK AO2 TSB08 OCNL LTGICCG W-NW TS W-NW MOV SE T02110167","lat":41.9602,"lon":-87.9316,"elev":202,"name":"Chicago/O'Hare Intl, IL, US","cover":"OVC","clouds":[{"cover":"BKN","base":2500},{"cover":"BKN","base":7000},{"cover":"OVC","base":9500}],"fltCat":"MVFR"},{"icaoId":"KSFO","receiptTime":"2026-04-16T03:12:12.454Z","obsTime":1776308940,"reportTime":"2026-04-16T03:09:00.000Z","temp":13.9,"dewp":10,"wdir":280,"wspd":15,"visib":"10+","altim":1018.4,"qcField":12,"metarType":"SPECI","rawOb":"SPECI KSFO 160309Z 28015KT 10SM SCT019 14/10 A3007 RMK AO2 T01390100 $","lat":37.6196,"lon":-122.3656,"elev":2,"name":"San Francisco Intl, CA, US","cover":"SCT","clouds":[{"cover":"SCT","base":1900}],"fltCat":"VFR"},{"icaoId":"KBTM","receiptTime":"2026-04-16T03:12:12.433Z","obsTime":1776308940,"reportTime":"2026-04-16T03:09:00.000Z","temp":0.6,"dewp":-1.1,"wdir":320,"wspd":18,"wgst":43,"visib":1.25,"altim":1003.8,"qcField":6,"wxString":"-SN BR","precip":0.005,"metarType":"SPECI","rawOb":"SPECI KBTM 160309Z AUTO 32018G43KT 1 1/4SM -SN BR BKN020 OVC031 01/M01 A2964 RMK AO2 PK WND 31043/0301 P0000 T00061011","lat":45.9644,"lon":-112.5015,"elev":1680,"name":"Butte/Mooney Arpt, MT, US","cover":"OVC","clouds":[{"cover":"BKN","base":2000},{"cover":"OVC","base":3100}],"fltCat":"IFR"},{"icaoId":"KMLC","receiptTime":"2026-04-16T03:11:40.469Z","obsTime":1776308820,"reportTime":"2026-04-16T03:07:00.000Z","temp":16.1,"dewp":15,"wdir":160,"wspd":8,"wgst":22,"visib":"10+","altim":1012.6,"qcField":6,"wxString":"-TSRA","precip":0.01,"metarType":"SPECI","rawOb":"SPECI KMLC 160307Z AUTO 16008G22KT 120V190 10SM -TSRA FEW048 BKN100 BKN110 16/15 A2990 RMK AO2 LTG DSNT SE AND S TSB01 P0001 T01610150","lat":34.8824,"lon":-95.7815,"elev":231,"name":"McAlester Rgnl, OK, US","cover":"BKN","clouds":[{"cover":"FEW","base":4800},{"cover":"BKN","base":10000},{"cover":"BKN","base":11000}],"fltCat":"VFR"},{"icaoId":"KPNC","receiptTime":"2026-04-16T03:06:08.647Z","obsTime":1776308460,"reportTime":"2026-04-16T03:01:00.000Z","temp":20,"dewp":14.4,"wdir":240,"wspd":7,"visib":"10+","altim":1008.9,"qcField":6,"wxString":"VCTS","metarType":"SPECI","rawOb":"SPECI KPNC 160301Z AUTO 24007KT 10SM VCTS FEW070 BKN090 BKN110 20/14 A2979 RMK AO2 LTG DSNT E TSE0255 T02000144","lat":36.7369,"lon":-97.1024,"elev":304,"name":"Ponca City Rgnl, OK, US","cover":"BKN","clouds":[{"cover":"FEW","base":7000},{"cover":"BKN","base":9000},{"cover":"BKN","base":11000}],"fltCat":"VFR"},{"icaoId":"KBUF","receiptTime":"2026-04-16T03:06:07.305Z","obsTime":1776308460,"reportTime":"2026-04-16T03:01:00.000Z","temp":17.8,"dewp":15.6,"wdir":230,"wspd":14,"visib":"10+","altim":1010.9,"qcField":12,"metarType":"SPECI","rawOb":"SPECI KBUF 160301Z 23014KT 10SM SCT019 BKN034 BKN120 OVC140 18/16 A2985 RMK AO2 T01780156 $","lat":42.94,"lon":-78.7361,"elev":217,"name":"Buffalo-Niagara Intl, NY, US","cover":"OVC","clouds":[{"cover":"SCT","base":1900},{"cover":"BKN","base":3400},{"cover":"BKN","base":12000},{"cover":"OVC","base":14000}],"fltCat":"VFR"},{"icaoId":"KPDX","receiptTime":"2026-04-16T03:06:07.320Z","obsTime":1776308460,"reportTime":"2026-04-16T03:01:00.000Z","temp":4.4,"dewp":2.2,"wdir":310,"wspd":9,"wgst":26,"visib":3,"altim":1017.4,"qcField":12,"wxString":"+RA BR","precip":0.02,"metarType":"SPECI","rawOb":"SPECI KPDX 160301Z 31009G26KT 3SM +RA BR BKN021 BKN033 OVC060 04/02 A3004 RMK AO2 PK WND 32026/0254 P0002 T00440022 $","lat":45.5958,"lon":-122.6092,"elev":7,"name":"Portland Intl, OR, US","cover":"OVC","clouds":[{"cover":"BKN","base":2100},{"cover":"BKN","base":3300},{"cover":"OVC","base":6000}],"fltCat":"MVFR"},{"icaoId":"KFLG","receiptTime":"2026-04-16T03:00:54.173Z","obsTime":1776308220,"reportTime":"2026-04-16T03:00:00.000Z","temp":7.8,"dewp":-5,"wdir":210,"wspd":3,"visib":"10+","altim":1019.7,"slp":1014.6,"qcField":6,"presTend":0.2,"metarType":"METAR","rawOb":"METAR KFLG 160257Z AUTO 21003KT 10SM CLR 08/M05 A3011 RMK AO2 SLP146 T00781050 53002","lat":35.1443,"lon":-111.6664,"elev":2134,"name":"Flagstaff/Pulliam Arpt, AZ, US","cover":"CLR","clouds":[],"fltCat":"VFR"},{"icaoId":"KNFL","receiptTime":"2026-04-16T03:01:13.176Z","obsTime":1776308220,"reportTime":"2026-04-16T03:00:00.000Z","temp":15,"dewp":-2.8,"wdir":250,"wspd":11,"wgst":27,"visib":"10+","altim":1012.6,"slp":1010,"qcField":4,"presTend":-0.1,"metarType":"METAR","rawOb":"METAR KNFL 160257Z 25011G27KT 10SM SCT070 SCT100 BKN220 15/M03 A2990 RMK AO2 PK WND 25027/0254 SLP100 T01501028 55001","lat":39.417,"lon":-118.705,"elev":1199,"name":"Fallon , NV, US","cover":"BKN","clouds":[{"cover":"SCT","base":7000},{"cover":"SCT","base":10000},{"cover":"BKN","base":22000}],"fltCat":"VFR"},{"icaoId":"KNYL","receiptTime":"2026-04-16T03:02:09.344Z","obsTime":1776308220,"reportTime":"2026-04-16T03:00:00.000Z","temp":26.7,"dewp":1.1,"wdir":280,"wspd":3,"visib":"10+","altim":1010.9,"slp":1010.4,"qcField":4,"presTend":-0.2,"metarType":"METAR","rawOb":"METAR KNYL 160257Z 28003KT 10SM CLR 27/01 A2985 RMK AO2 SLP104 T02670011 55002","lat":32.66,"lon":-114.6078,"elev":58,"name":"Yuma , AZ, US","cover":"CLR","clouds":[],"fltCat":"VFR"},{"icaoId":"KHDN","receiptTime":"2026-04-16T02:58:36.418Z","obsTime":1776308160,"reportTime":"2026-04-16T03:00:00.000Z","temp":8.3,"dewp":-3.3,"wdir":230,"wspd":6,"visib":"10+","altim":1015,"slp":1012.8,"qcField":6,"presTend":0.2,"metarType":"METAR","rawOb":"METAR KHDN 160256Z AUTO 23006KT 10SM OVC075 08/M03 A2997 RMK AO2 SLP128 T00831033 53002","lat":40.4842,"lon":-107.2296,"elev":2012,"name":"Hayden/Yampa Valley Arpt, CO, US","cover":"OVC","clouds":[{"cover":"OVC","base":7500}],"fltCat":"VFR"},{"icaoId":"KBZN","receiptTime":"2026-04-16T03:00:06.776Z","obsTime":1776308160,"reportTime":"2026-04-16T03:00:00.000Z","temp":8.3,"dewp":2.8,"wdir":300,"wspd":17,"wgst":26,"visib":"10+","altim":1001.4,"slp":1000.2,"qcField":4,"presTend":-0.4,"metarType":"METAR","rawOb":"METAR KBZN 160256Z 30017G26KT 10SM OVC060 08/03 A2957 RMK AO2 PK WND 30026/0256 SLP002 T00830028 55004","lat":45.7876,"lon":-111.1615,"elev":1349,"name":"Bozeman/Gallatin Fld, MT, US","cover":"OVC","clouds":[{"cover":"OVC","base":6000}],"fltCat":"VFR"},{"icaoId":"KSDF","receiptTime":"2026-04-16T03:00:43.780Z","obsTime":1776308160,"reportTime":"2026-04-16T03:00:00.000Z","temp":24.4,"dewp":13.9,"wdir":200,"wspd":6,"visib":"10+","altim":1014,"slp":1013.2,"qcField":4,"presTend":-0.4,"metarType":"METAR","rawOb":"METAR KSDF 160256Z 20006KT 10SM BKN250 24/14 A2994 RMK AO2 SLP132 T02440139 58004","lat":38.1774,"lon":-85.7308,"elev":146,"name":"Louisville Intl, KY, US","cover":"BKN","clouds":[{"cover":"BKN","base":25000}],"fltCat":"VFR"},{"icaoId":"KPVU","receiptTime":"2026-04-16T02:58:28.912Z","obsTime":1776308160,"reportTime":"2026-04-16T03:00:00.000Z","temp":17.8,"dewp":1.7,"wdir":200,"wspd":14,"visib":"10+","altim":1009.9,"slp":1006.8,"qcField":4,"presTend":-0.2,"metarType":"METAR","rawOb":"METAR KPVU 160256Z 20014KT 10SM OVC110 18/02 A2982 RMK AO2 SLP068 T01780017 55002","lat":40.224,"lon":-111.7252,"elev":1370,"name":"Provo Muni, UT, US","cover":"OVC","clouds":[{"cover":"OVC","base":11000}],"fltCat":"VFR"},{"icaoId":"KCGZ","receiptTime":"2026-04-16T02:58:30.001Z","obsTime":1776308160,"reportTime":"2026-04-16T03:00:00.000Z","temp":23.3,"dewp":-7.8,"wdir":10,"wspd":5,"visib":"10+","altim":1012.6,"slp":1011.7,"qcField":14,"presTend":-0.2,"metarType":"METAR","rawOb":"METAR KCGZ 160256Z AUTO 01005KT 10SM CLR 23/M08 A2990 RMK AO2 SLP117 6//// T02331078 55002 $","lat":32.9531,"lon":-111.7725,"elev":444,"name":"Casa Granda Muni, AZ, US","cover":"CLR","clouds":[],"fltCat":"VFR"},{"icaoId":"KLAS","receiptTime":"2026-04-16T03:00:39.819Z","obsTime":1776308160,"reportTime":"2026-04-16T03:00:00.000Z","temp":24.4,"dewp":-8.3,"wdir":220,"wspd":12,"visib":"10+","altim":1011.3,"slp":1009.4,"qcField":4,"presTend":-0.1,"metarType":"METAR","rawOb":"METAR KLAS 160256Z 22012KT 10SM SCT200 SCT250 24/M08 A2986 RMK AO2 SLP094 T02441083 55001","lat":36.0719,"lon":-115.1634,"elev":662,"name":"Las Vegas/Reid Intl, NV, US","cover":"SCT","clouds":[{"cover":"SCT","base":20000},{"cover":"SCT","base":25000}],"fltCat":"VFR"},{"icaoId":"KSGU","receiptTime":"2026-04-16T02:58:33.438Z","obsTime":1776308160,"reportTime":"2026-04-16T03:00:00.000Z","temp":21.7,"dewp":-6.7,"wdir":280,"wspd":5,"visib":"10+","altim":1012.3,"slp":1010.4,"qcField":6,"presTend":0.1,"metarType":"METAR","rawOb":"METAR KSGU 160256Z AUTO 28005KT 10SM CLR 22/M07 A2989 RMK AO2 SLP104 T02171067 53001","lat":37.0444,"lon":-113.5034,"elev":877,"name":"Saint George Muni, UT, US","cover":"CLR","clouds":[],"fltCat":"VFR"},{"icaoId":"KCHS","receiptTime":"2026-04-16T03:00:06.882Z","obsTime":1776308160,"reportTime":"2026-04-16T03:00:00.000Z","temp":18.3,"dewp":15,"wdir":190,"wspd":7,"visib":"10+","altim":1020.1,"slp":1019.9,"qcField":4,"presTend":0.7,"metarType":"METAR","rawOb":"METAR KCHS 160256Z 19007KT 10SM FEW250 18/15 A3012 RMK AO2 SLP199 T01830150 51007","lat":32.8995,"lon":-80.0407,"elev":12,"name":"Charleston Intl, SC, US","cover":"FEW","clouds":[{"cover":"FEW","base":25000}],"fltCat":"VFR"},{"icaoId":"KINW","receiptTime":"2026-04-16T03:00:06.995Z","obsTime":1776308160,"reportTime":"2026-04-16T03:00:00.000Z","temp":16.1,"dewp":-7.8,"wdir":260,"wspd":4,"visib":"10+","altim":1016.7,"slp":1012.8,"qcField":6,"presTend":0.4,"metarType":"METAR","rawOb":"METAR KINW 160256Z AUTO 26004KT 10SM CLR 16/M08 A3002 RMK AO2 SLP128 T01611078 53004","lat":35.0279,"lon":-110.7221,"elev":1492,"name":"Winslow/Lindberg Rgnl, AZ, US","cover":"CLR","clouds":[],"fltCat":"VFR"},{"icaoId":"KJAX","receiptTime":"2026-04-16T03:00:07.024Z","obsTime":1776308160,"reportTime":"2026-04-16T03:00:00.000Z","temp":19.4,"dewp":15,"wdir":160,"wspd":4,"visib":"10+","altim":1020.4,"slp":1020.4,"qcField":12,"presTend":1.3,"metarType":"METAR","rawOb":"METAR KJAX 160256Z 16004KT 10SM CLR 19/15 A3013 RMK AO2 SLP204 T01940150 53013 $","lat":30.4953,"lon":-81.6937,"elev":8,"name":"Jacksonville Intl, FL, US","cover":"CLR","clouds":[],"fltCat":"VFR"},{"icaoId":"KLWS","receiptTime":"2026-04-16T03:00:07.332Z","obsTime":1776308160,"reportTime":"2026-04-16T03:00:00.000Z","temp":5.6,"dewp":-0.6,"wdir":210,"wspd":9,"visib":"10+","altim":1009.2,"slp":1009.6,"qcField":6,"presTend":2.7,"pcp3hr":0.005,"metarType":"METAR","rawOb":"METAR KLWS 160256Z AUTO 21009KT 10SM CLR 06/M01 A2980 RMK AO2 SLP096 60000 T00561006 51027","lat":46.3746,"lon":-117.0153,"elev":435,"name":"Lewiston/Nez Perce Cnty, ID, US","cover":"CLR","clouds":[],"fltCat":"VFR"},{"icaoId":"KRDM","receiptTime":"2026-04-16T03:00:13.693Z","obsTime":1776308160,"reportTime":"2026-04-16T03:00:00.000Z","temp":0.6,"dewp":-3.9,"wdir":290,"wspd":14,"wgst":25,"visib":"10+","altim":1014.3,"slp":1015.2,"qcField":4,"presTend":1.9,"metarType":"METAR","rawOb":"METAR KRDM 160256Z 29014G25KT 10SM FEW041 SCT060 OVC110 01/M04 A2995 RMK AO2 SLP152 T00061039 52019","lat":44.2558,"lon":-121.1407,"elev":930,"name":"Redmond Muni, OR, US","cover":"OVC","clouds":[{"cover":"FEW","base":4100},{"cover":"SCT","base":6000},{"cover":"OVC","base":11000}],"fltCat":"VFR"},{"icaoId":"KGUC","receiptTime":"2026-04-16T02:58:36.225Z","obsTime":1776308160,"reportTime":"2026-04-16T03:00:00.000Z","temp":5,"dewp":-5,"wdir":340,"wspd":8,"visib":"10+","altim":1018.7,"slp":1017.1,"qcField":14,"presTend":0.7,"metarType":"METAR","rawOb":"METAR KGUC 160256Z AUTO 34008KT 10SM CLR 05/M05 A3008 RMK AO2 SLP171 T00501050 53007 $","lat":38.5322,"lon":-106.9419,"elev":2337,"name":"Gunnison Arpt, CO, US","cover":"CLR","clouds":[],"fltCat":"VFR"},{"icaoId":"KCEC","receiptTime":"2026-04-16T03:00:13.637Z","obsTime":1776308160,"reportTime":"2026-04-16T03:00:00.000Z","temp":8.9,"dewp":2.8,"wdir":340,"wspd":12,"wgst":22,"visib":"10+","altim":1022.1,"slp":1021.9,"qcField":6,"presTend":0.8,"metarType":"METAR","rawOb":"METAR KCEC 160256Z AUTO 34012G22KT 10SM CLR 09/03 A3018 RMK AO2 SLP219 T00890028 53008","lat":41.7836,"lon":-124.238,"elev":17,"name":"Crescent City/McNama, CA, US","cover":"CLR","clouds":[],"fltCat":"VFR"},{"icaoId":"KEKO","receiptTime":"2026-04-16T03:00:13.652Z","obsTime":1776308160,"reportTime":"2026-04-16T03:00:00.000Z","temp":12.2,"dewp":-6.7,"wdir":250,"wspd":17,"wgst":28,"visib":"10+","altim":1009.6,"slp":1007.9,"qcField":6,"presTend":-0.6,"metarType":"METAR","rawOb":"METAR KEKO 160256Z AUTO 25017G28KT 10SM CLR 12/M07 A2981 RMK AO2 PK WND 24028/0249 SLP079 T01221067 55006","lat":40.824,"lon":-115.7863,"elev":1541,"name":"Elko Rgnl, NV, US","cover":"CLR","clouds":[],"fltCat":"VFR"},{"icaoId":"KSLE","receiptTime":"2026-04-16T03:00:13.711Z","obsTime":1776308160,"reportTime":"2026-04-16T03:00:00.000Z","temp":6.1,"dewp":0.6,"wdir":310,"wspd":5,"visib":"10+","altim":1017.7,"slp":1017.7,"qcField":4,"presTend":1.4,"precip":0.005,"pcp3hr":0.005,"metarType":"METAR","rawOb":"METAR KSLE 160256Z 31005KT 10SM BKN046 BKN060 06/01 A3005 RMK AO2 RAB13E22 SLP177 P0000 60000 T00610006 51014","lat":44.9049,"lon":-123.001,"elev":63,"name":"Salem Muni, OR, US","cover":"BKN","clouds":[{"cover":"BKN","base":4600},{"cover":"BKN","base":6000}],"fltCat":"VFR"},{"icaoId":"KTPH","receiptTime":"2026-04-16T03:00:13.727Z","obsTime":1776308160,"reportTime":"2026-04-16T03:00:00.000Z","temp":13.9,"dewp":-7.2,"wdir":190,"wspd":11,"visib":"10+","altim":1014,"slp":1010.9,"qcField":6,"presTend":-0.1,"metarType":"METAR","rawOb":"METAR KTPH 160256Z AUTO 19011KT 10SM CLR 14/M07 A2994 RMK AO2 SLP109 T01391072 55001","lat":38.0505,"lon":-117.0906,"elev":1647,"name":"Tonopah Arpt, NV, US","cover":"CLR","clouds":[],"fltCat":"VFR"},{"icaoId":"KUKI","receiptTime":"2026-04-16T03:00:13.744Z","obsTime":1776308160,"reportTime":"2026-04-16T03:00:00.000Z","temp":13.3,"dewp":8.9,"wdir":10,"wspd":5,"visib":"10+","altim":1017.7,"slp":1017.4,"qcField":6,"presTend":-0.5,"metarType":"METAR","rawOb":"METAR KUKI 160256Z AUTO 01005KT 10SM FEW043 OVC055 13/09 A3005 RMK AO2 SLP174 T01330089 55005","lat":39.1278,"lon":-123.2001,"elev":183,"name":"Ukiah Muni, CA, US","cover":"OVC","clouds":[{"cover":"FEW","base":4300},{"cover":"OVC","base":5500}],"fltCat":"VFR"},{"icaoId":"KCOE","receiptTime":"2026-04-16T02:58:39.886Z","obsTime":1776308160,"reportTime":"2026-04-16T03:00:00.000Z","temp":5,"dewp":-2.8,"wdir":250,"wspd":9,"visib":"10+","altim":1005.8,"slp":1008.4,"qcField":14,"presTend":2.9,"metarType":"METAR","rawOb":"METAR KCOE 160256Z AUTO 25009KT 10SM FEW065 SCT080 BKN100 05/M03 A2970 RMK AO2 SLP084 6//// T00501028 53029 PNO $","lat":47.7719,"lon":-116.8332,"elev":693,"name":"Coeur DAlene Arpt, ID, US","cover":"BKN","clouds":[{"cover":"FEW","base":6500},{"cover":"SCT","base":8000},{"cover":"BKN","base":10000}],"fltCat":"VFR"},{"icaoId":"KSDY","receiptTime":"2026-04-16T02:58:37.783Z","obsTime":1776308160,"reportTime":"2026-04-16T03:00:00.000Z","temp":13.3,"dewp":1.1,"wdir":0,"wspd":0,"visib":"10+","altim":1000.8,"slp":1001.2,"qcField":14,"presTend":-1.4,"metarType":"METAR","rawOb":"METAR KSDY 160256Z AUTO 00000KT 10SM BKN120 13/01 A2955 RMK AO2 SLP012 T01330011 56014 $","lat":47.7029,"lon":-104.1951,"elev":600,"name":"Sidney/Richland Muni, MT, US","cover":"BKN","clouds":[{"cover":"BKN","base":12000}],"fltCat":"VFR"},{"icaoId":"KJAC","receiptTime":"2026-04-16T02:58:37.571Z","obsTime":1776308160,"reportTime":"2026-04-16T03:00:00.000Z","temp":3.3,"dewp":1.1,"wdir":200,"wspd":10,"visib":"10+","altim":1009.2,"slp":1010.1,"qcField":4,"wxString":"-RA","presTend":-0.5,"precip":0.005,"pcp3hr":0.005,"metarType":"METAR","rawOb":"METAR KJAC 160256Z 20010KT 10SM -RA OVC036 03/01 A2980 RMK AO2 SLP101 P0000 60000 T00330011 56005","lat":43.6129,"lon":-110.7366,"elev":1967,"name":"Jackson Hole Arpt, WY, US","cover":"OVC","clouds":[{"cover":"OVC","base":3600}],"fltCat":"VFR"},{"icaoId":"KHND","receiptTime":"2026-04-16T02:58:36.982Z","obsTime":1776308160,"reportTime":"2026-04-16T03:00:00.000Z","temp":23.3,"dewp":-7.8,"wdir":240,"wspd":11,"visib":"10+","altim":1012.3,"slp":1012.2,"qcField":12,"metarType":"METAR","rawOb":"METAR KHND 160256Z 24011KT 10SM CLR 23/M08 A2989 RMK AO2 SLP122 T02331078 53000 $","lat":35.9657,"lon":-115.1343,"elev":740,"name":"Henderson Exec, NV, US","cover":"CLR","clouds":[],"fltCat":"VFR"},{"icaoId":"KEGE","receiptTime":"2026-04-16T02:58:36.446Z","obsTime":1776308160,"reportTime":"2026-04-16T03:00:00.000Z","temp":8.9,"dewp":-2.8,"wdir":240,"wspd":4,"visib":"10+","altim":1017,"slp":1014.1,"qcField":6,"presTend":0.6,"metarType":"METAR","rawOb":"METAR KEGE 160256Z AUTO 24004KT 10SM CLR 09/M03 A3003 RMK AO2 SLP141 T00891028 53006","lat":39.6448,"lon":-106.9176,"elev":1993,"name":"Eagle Cnty Rgnl, CO, US","cover":"CLR","clouds":[],"fltCat":"VFR"},{"icaoId":"KDUG","receiptTime":"2026-04-16T03:02:11.475Z","obsTime":1776308160,"reportTime":"2026-04-16T03:00:00.000Z","temp":20.6,"dewp":-12.8,"wdir":250,"wspd":3,"visib":"10+","altim":1016,"slp":1010.9,"qcField":38,"presTend":0.2,"metarType":"METAR","rawOb":"METAR KDUG 160256Z AUTO 25003KT 10SM CLR 21/M13 A3000 RMK AO2 SLP109 T02061128 53002 TSNO","lat":31.4725,"lon":-109.6022,"elev":1260,"name":"Douglas/Bisbee Intl, AZ, US","cover":"CLR","clouds":[],"fltCat":"VFR"},{"icaoId":"KVIS","receiptTime":"2026-04-16T02:58:28.182Z","obsTime":1776308160,"reportTime":"2026-04-16T03:00:00.000Z","temp":20.6,"dewp":6.7,"wdir":310,"wspd":8,"visib":"10+","altim":1015,"slp":1014.9,"qcField":14,"presTend":-0.1,"metarType":"METAR","rawOb":"METAR KVIS 160256Z AUTO 31008KT 10SM CLR 21/07 A2997 RMK AO2 SLP149 6//// T02060067 55001 PNO $","lat":36.3135,"lon":-119.3884,"elev":92,"name":"Visalia Muni, CA, US","cover":"CLR","clouds":[],"fltCat":"VFR"},{"icaoId":"KPWT","receiptTime":"2026-04-16T02:58:27.581Z","obsTime":1776308160,"reportTime":"2026-04-16T03:00:00.000Z","temp":3.9,"dewp":3.3,"wdir":100,"wspd":6,"visib":6,"altim":1014.3,"slp":1014.7,"qcField":6,"wxString":"-RA BR","presTend":2.7,"precip":0.005,"pcp3hr":0.005,"metarType":"METAR","rawOb":"METAR KPWT 160256Z AUTO 10006KT 6SM -RA BR SCT015 OVC022 04/03 A2995 RMK AO2 RAB14 SLP147 P0000 60000 T00390033 51027","lat":47.4942,"lon":-122.7594,"elev":143,"name":"Bremerton Arpt, WA, US","cover":"OVC","clouds":[{"cover":"SCT","base":1500},{"cover":"OVC","base":2200}],"fltCat":"MVFR"},{"icaoId":"KCOD","receiptTime":"2026-04-16T02:58:33.117Z","obsTime":1776308160,"reportTime":"2026-04-16T03:00:00.000Z","temp":7.8,"dewp":-2.8,"wdir":160,"wspd":6,"visib":"10+","altim":1005.2,"slp":1003.3,"qcField":14,"metarType":"METAR","rawOb":"METAR KCOD 160256Z AUTO 16006KT 10SM CLR 08/M03 A2968 RMK AO2 SLP033 T00781028 53000 $","lat":44.52,"lon":-109.0268,"elev":1550,"name":"Cody/Yellowstone Rgnl, WY, US","cover":"CLR","clouds":[],"fltCat":"VFR"},{"icaoId":"KSBP","receiptTime":"2026-04-16T03:00:43.761Z","obsTime":1776308160,"reportTime":"2026-04-16T03:00:00.000Z","temp":12.8,"dewp":10,"wdir":320,"wspd":9,"visib":"10+","altim":1016.3,"slp":1016.1,"qcField":4,"presTend":0.1,"metarType":"METAR","rawOb":"METAR KSBP 160256Z 32009KT 10SM CLR 13/10 A3001 RMK AO2 SLP161 T01280100 53001","lat":35.2381,"lon":-120.644,"elev":52,"name":"San Luis Obispo/San Luis Cnty, CA, US","cover":"CLR","clouds":[],"fltCat":"VFR"},{"icaoId":"KENV","receiptTime":"2026-04-16T02:58:36.661Z","obsTime":1776308160,"reportTime":"2026-04-16T03:00:00.000Z","temp":17.8,"dewp":-2.8,"wdir":260,"wspd":15,"visib":"10+","altim":1008.2,"slp":1006.4,"qcField":6,"presTend":-0.8,"metarType":"METAR","rawOb":"METAR KENV 160256Z AUTO 26015KT 10SM CLR 18/M03 A2977 RMK AO2 PK WND 27026/0201 SLP064 T01781028 56008","lat":40.7211,"lon":-114.0312,"elev":1291,"name":"Wendover Arpt, UT, US","cover":"CLR","clouds":[],"fltCat":"VFR"},{"icaoId":"KFNL","receiptTime":"2026-04-16T02:58:15.160Z","obsTime":1776308160,"reportTime":"2026-04-16T03:00:00.000Z","temp":15,"dewp":-5,"wdir":260,"wspd":9,"visib":"10+","altim":1010.9,"slp":1007,"qcField":14,"presTend":0.8,"metarType":"METAR","rawOb":"METAR KFNL 160256Z AUTO 26009KT 10SM CLR 15/M05 A2985 RMK AO2 SLP070 T01501050 53008 $","lat":40.4427,"lon":-105.0097,"elev":1529,"name":"Fort Collins/N Colorado Rgnl, CO, US","cover":"CLR","clouds":[],"fltCat":"VFR"},{"icaoId":"KIFP","receiptTime":"2026-04-16T03:00:49.119Z","obsTime":1776308100,"reportTime":"2026-04-16T03:00:00.000Z","temp":28,"dewp":-6,"wdir":180,"wspd":9,"visib":"10+","altim":1009.9,"qcField":6,"metarType":"METAR","rawOb":"METAR KIFP 160255Z AUTO 18009KT 10SM CLR 28/M06 A2982 RMK AO2","lat":35.1487,"lon":-114.5611,"elev":210,"name":"Bullhead City Intl, AZ, US","cover":"CLR","clouds":[],"fltCat":"VFR"},{"icaoId":"KBJC","receiptTime":"2026-04-16T02:58:39.752Z","obsTime":1776308100,"reportTime":"2026-04-16T03:00:00.000Z","temp":13,"dewp":-7,"wdir":250,"wspd":11,"visib":"10+","altim":1012.3,"qcField":6,"metarType":"METAR","rawOb":"METAR KBJC 160255Z AUTO 25011KT 10SM CLR 13/M07 A2989 RMK AO2","lat":39.9008,"lon":-105.1042,"elev":1694,"name":"Rocky Mtn Metro, CO, US","cover":"CLR","clouds":[],"fltCat":"VFR"},{"icaoId":"KHAF","receiptTime":"2026-04-16T02:58:36.350Z","obsTime":1776308100,"reportTime":"2026-04-16T03:00:00.000Z","temp":13,"dewp":12,"wdir":320,"wspd":12,"visib":9,"altim":1019,"qcField":6,"metarType":"METAR","rawOb":"METAR KHAF 160255Z AUTO 32012KT 9SM BKN018 OVC022 13/12 A3009 RMK AO2","lat":37.5136,"lon":-122.4996,"elev":11,"name":"Half Moon Bay Arpt, CA, US","cover":"OVC","clouds":[{"cover":"BKN","base":1800},{"cover":"OVC","base":2200}],"fltCat":"MVFR"},{"icaoId":"KAST","receiptTime":"2026-04-16T02:58:39.623Z","obsTime":1776308100,"reportTime":"2026-04-16T03:00:00.000Z","temp":5.6,"dewp":2.2,"wdir":270,"wspd":8,"visib":"10+","altim":1016.3,"slp":1016.1,"qcField":6,"wxString":"-RA","presTend":0.4,"precip":0.005,"pcp3hr":0.08,"metarType":"METAR","rawOb":"METAR KAST 160255Z AUTO 27008KT 10SM -RA SCT028 BKN045 BKN060 06/02 A3001 RMK AO2 RAB08E23B43 SLP161 P0000 60008 T00560022 53004","lat":46.157,"lon":-123.8833,"elev":3,"name":"Astoria Rgnl, OR, US","cover":"BKN","clouds":[{"cover":"SCT","base":2800},{"cover":"BKN","base":4500},{"cover":"BKN","base":6000}],"fltCat":"VFR"},{"icaoId":"KGPI","receiptTime":"2026-04-16T02:58:36.141Z","obsTime":1776308100,"reportTime":"2026-04-16T03:00:00.000Z","temp":2.8,"dewp":1.1,"wdir":160,"wspd":13,"visib":"10+","altim":1004.1,"slp":1005.6,"qcField":4,"presTend":2.2,"metarType":"METAR","rawOb":"METAR KGPI 160255Z 16013KT 10SM CLR 03/01 A2965 RMK AO2 SLP056 T00280011 51022","lat":48.3041,"lon":-114.2643,"elev":903,"name":"Kalispell/Glacier Park Intl, MT, US","cover":"CLR","clouds":[],"fltCat":"VFR"},{"icaoId":"KHII","receiptTime":"2026-04-16T03:00:56.528Z","obsTime":1776308100,"reportTime":"2026-04-16T03:00:00.000Z","temp":27,"dewp":-4,"wdir":170,"wspd":6,"visib":"10+","altim":1010.6,"qcField":6,"metarType":"METAR","rawOb":"METAR KHII 160255Z AUTO 17006KT 10SM CLR 27/M04 A2984 RMK AO2","lat":34.5659,"lon":-114.3522,"elev":241,"name":"Lake Havasu City Arpt, AZ, US","cover":"CLR","clouds":[],"fltCat":"VFR"},{"icaoId":"KMEV","receiptTime":"2026-04-16T03:01:15.645Z","obsTime":1776308100,"reportTime":"2026-04-16T03:00:00.000Z","temp":12,"dewp":-2,"wdir":210,"wspd":11,"wgst":28,"visib":"10+","altim":1015.3,"qcField":6,"metarType":"METAR","rawOb":"METAR KMEV 160255Z AUTO 21011G28KT 10SM OVC060 12/M02 A2998 RMK AO2","lat":38.9963,"lon":-119.75,"elev":1437,"name":"Minden-Tahoe Arpt, NV, US","cover":"OVC","clouds":[{"cover":"OVC","base":6000}],"fltCat":"VFR"},{"icaoId":"KHTH","receiptTime":"2026-04-16T03:00:57.025Z","obsTime":1776308100,"reportTime":"2026-04-16T03:00:00.000Z","temp":17,"dewp":-4,"wdir":260,"wspd":16,"wgst":21,"visib":"10+","altim":1013.3,"qcField":6,"metarType":"METAR","rawOb":"METAR KHTH 160255Z AUTO 26016G21KT 10SM CLR 17/M04 A2992 RMK A01","lat":38.5448,"lon":-118.6314,"elev":1281,"name":"Hawthorne Muni, NV, US","cover":"CLR","clouds":[],"fltCat":"VFR"},{"icaoId":"KSOW","receiptTime":"2026-04-16T02:58:33.605Z","obsTime":1776308100,"reportTime":"2026-04-16T03:00:00.000Z","temp":12,"dewp":-7,"wdir":200,"wspd":6,"visib":"10+","altim":1019.4,"qcField":6,"metarType":"METAR","rawOb":"METAR KSOW 160255Z AUTO 20006KT 10SM CLR 12/M07 A3010 RMK AO2","lat":34.2686,"lon":-110.0019,"elev":1954,"name":"Show Low Muni, AZ, US","cover":"CLR","clouds":[],"fltCat":"VFR"},{"icaoId":"KCMA","receiptTime":"2026-04-16T02:58:33.053Z","obsTime":1776308100,"reportTime":"2026-04-16T03:00:00.000Z","temp":15,"dewp":11.7,"wdir":210,"wspd":3,"visib":"10+","altim":1015,"slp":1015.6,"qcField":6,"presTend":-0.4,"metarType":"METAR","rawOb":"METAR KCMA 160255Z AUTO 21003KT 10SM CLR 15/12 A2997 RMK AO2 SLP156 T01500117 56004","lat":34.2114,"lon":-119.0876,"elev":20,"name":"Camarillo Arpt, CA, US","cover":"CLR","clouds":[],"fltCat":"VFR"},{"icaoId":"KSEZ","receiptTime":"2026-04-16T03:01:01.555Z","obsTime":1776308100,"reportTime":"2026-04-16T03:00:00.000Z","temp":17,"dewp":-5,"wdir":210,"wspd":5,"wgst":11,"visib":"10+","altim":1016.7,"qcField":6,"metarType":"METAR","rawOb":"METAR KSEZ 160255Z AUTO 21005G11KT 10SM CLR 17/M05 A3002 RMK AO2","lat":34.8467,"lon":-111.7884,"elev":1455,"name":"Sedona Arpt, AZ, US","cover":"CLR","clouds":[],"fltCat":"VFR"},{"icaoId":"KMHR","receiptTime":"2026-04-16T03:01:15.734Z","obsTime":1776308100,"reportTime":"2026-04-16T03:00:00.000Z","temp":16,"dewp":12,"wdir":190,"wspd":6,"wgst":11,"visib":"10+","altim":1015.7,"qcField":6,"metarType":"METAR","rawOb":"METAR KMHR 160255Z AUTO 19006G11KT 10SM BKN090 16/12 A2999 RMK AO2","lat":38.56,"lon":-121.284,"elev":30,"name":"Sacramento/Mather Fld, CA, US","cover":"BKN","clouds":[{"cover":"BKN","base":9000}],"fltCat":"VFR"},{"icaoId":"KRNO","receiptTime":"2026-04-16T02:58:29.176Z","obsTime":1776308100,"reportTime":"2026-04-16T03:00:00.000Z","temp":12.8,"dewp":-0.6,"wdir":290,"wspd":12,"visib":"10+","altim":1013.6,"slp":1011.6,"qcField":4,"presTend":-0.1,"metarType":"METAR","rawOb":"METAR KRNO 160255Z 29012KT 10SM BKN070 BKN180 13/M01 A2993 RMK AO2 SLP116 ACSL ALQDS T01281006 56001","lat":39.5077,"lon":-119.7683,"elev":1344,"name":"Reno/Tahoe Intl, NV, US","cover":"BKN","clouds":[{"cover":"BKN","base":7000},{"cover":"BKN","base":18000}],"fltCat":"VFR"},{"icaoId":"KHCR","receiptTime":"2026-04-16T02:58:36.405Z","obsTime":1776308100,"reportTime":"2026-04-16T03:00:00.000Z","temp":15.6,"dewp":-6.1,"wdir":200,"wspd":10,"wgst":20,"visib":"10+","altim":1010.2,"qcField":14,"presTend":-1,"metarType":"METAR","rawOb":"METAR KHCR 160255Z AUTO 20010G20KT 10SM BKN095 OVC120 16/M06 A2983 RMK AO2 T01561061 55010 $","lat":40.4774,"lon":-111.4329,"elev":1708,"name":"Heber City Muni, UT, US","cover":"OVC","clouds":[{"cover":"BKN","base":9500},{"cover":"OVC","base":12000}],"fltCat":"VFR"},{"icaoId":"KEND","receiptTime":"2026-04-16T03:16:06.301Z","obsTime":1776308100,"reportTime":"2026-04-16T03:00:00.000Z","temp":22.6,"dewp":7.6,"wdir":220,"wspd":9,"visib":"10+","altim":1008.5,"slp":1007.4,"qcField":14,"wxString":"VCTS","presTend":2,"metarType":"METAR","rawOb":"METAR KEND 160255Z AUTO 22009KT 10SM VCTS CLR 23/08 A2978 RMK AO2 SLP074 T02260076 53020 $","lat":36.338,"lon":-97.919,"elev":392,"name":"Enid/Vance AFB, OK, US","cover":"CLR","clouds":[],"fltCat":"VFR"},{"icaoId":"KRTS","receiptTime":"2026-04-16T03:00:59.693Z","obsTime":1776308100,"reportTime":"2026-04-16T03:00:00.000Z","temp":9,"dewp":-2,"wdir":230,"wspd":20,"wgst":26,"visib":"10+","altim":1014,"qcField":6,"metarType":"METAR","rawOb":"METAR KRTS 160255Z AUTO 23020G26KT 10SM CLR 09/M02 A2994 RMK AO2","lat":39.6658,"lon":-119.8731,"elev":1537,"name":"Reno/Stead Arpt, NV, US","cover":"CLR","clouds":[],"fltCat":"VFR"},{"icaoId":"KCXP","receiptTime":"2026-04-16T03:01:05.022Z","obsTime":1776308100,"reportTime":"2026-04-16T03:00:00.000Z","temp":12,"dewp":-2,"wdir":230,"wspd":11,"wgst":23,"visib":"10+","altim":1015,"qcField":6,"metarType":"METAR","rawOb":"METAR KCXP 160255Z AUTO 23011G23KT 10SM FEW060 12/M02 A2997 RMK AO2","lat":39.1905,"lon":-119.7319,"elev":1431,"name":"Carson City Arpt, NV, US","cover":"FEW","clouds":[{"cover":"FEW","base":6000}],"fltCat":"VFR"},{"icaoId":"KLUF","receiptTime":"2026-04-16T03:10:50.619Z","obsTime":1776308100,"reportTime":"2026-04-16T03:00:00.000Z","temp":27,"dewp":-7.2,"wdir":0,"wspd":0,"visib":"10+","altim":1010.9,"slp":1009.8,"qcField":12,"presTend":-0.4,"metarType":"METAR","rawOb":"METAR KLUF 160255Z 00000KT 10SM CLR 27/M07 A2985 RMK AO2A SLP098 T02701072 55004 $","lat":33.538,"lon":-112.38,"elev":333,"name":"Phoenix/Luke AFB, AZ, US","cover":"CLR","clouds":[],"fltCat":"VFR"},{"icaoId":"KLRU","receiptTime":"2026-04-16T02:58:25.918Z","obsTime":1776308100,"reportTime":"2026-04-16T03:00:00.000Z","temp":14,"dewp":-24,"wdir":270,"wspd":10,"visib":"10+","altim":1017,"qcField":6,"metarType":"METAR","rawOb":"METAR KLRU 160255Z AUTO 27010KT 10SM CLR 14/M24 A3003 RMK AO2 T01401240","lat":32.2884,"lon":-106.9131,"elev":1355,"name":"Las Cruces Intl, NM, US","cover":"CLR","clouds":[],"fltCat":"VFR"},{"icaoId":"KSJN","receiptTime":"2026-04-16T02:58:18.862Z","obsTime":1776308040,"reportTime":"2026-04-16T03:00:00.000Z","temp":12.2,"dewp":-8.9,"wdir":0,"wspd":0,"visib":"10+","altim":1017.7,"slp":1012.9,"qcField":6,"presTend":0.3,"metarType":"METAR","rawOb":"METAR KSJN 160254Z AUTO 00000KT 10SM CLR 12/M09 A3005 RMK AO2 SLP129 T01221089 53003","lat":34.5184,"lon":-109.3801,"elev":1747,"name":"St Johns Ind Arpt, AZ, US","cover":"CLR","clouds":[],"fltCat":"VFR"},{"icaoId":"KSLC","receiptTime":"2026-04-16T02:58:18.878Z","obsTime":1776308040,"reportTime":"2026-04-16T03:00:00.000Z","temp":16.1,"dewp":0,"wdir":0,"wspd":0,"visib":"10+","altim":1008.5,"slp":1005.4,"qcField":4,"presTend":-0.2,"metarType":"METAR","rawOb":"METAR KSLC 160254Z 00000KT 10SM FEW095 BKN110 16/00 A2978 RMK AO2 SLP054 VIRGA T01610000 55002","lat":40.7707,"lon":-111.965,"elev":1286,"name":"Salt Lake City Intl, UT, US","cover":"BKN","clouds":[{"cover":"FEW","base":9500},{"cover":"BKN","base":11000}],"fltCat":"VFR"},{"icaoId":"KIND","receiptTime":"2026-04-16T02:58:16.787Z","obsTime":1776308040,"reportTime":"2026-04-16T03:00:00.000Z","temp":18.9,"dewp":16.1,"wdir":0,"wspd":0,"visib":"10+","altim":1011.3,"slp":1010.7,"qcField":4,"presTend":-1.8,"pcp3hr":0.005,"metarType":"METAR","rawOb":"METAR KIND 160254Z 00000KT 10SM FEW160 SCT250 19/16 A2986 RMK AO2 SLP107 60000 T01890161 55018","lat":39.7252,"lon":-86.2816,"elev":242,"name":"Indianapolis Intl, IN, US","cover":"SCT","clouds":[{"cover":"FEW","base":16000},{"cover":"SCT","base":25000}],"fltCat":"VFR"},{"icaoId":"KOLM","receiptTime":"2026-04-16T02:58:14.779Z","obsTime":1776308040,"reportTime":"2026-04-16T03:00:00.000Z","temp":5.6,"dewp":1.1,"wdir":220,"wspd":6,"visib":"10+","altim":1015,"slp":1014.8,"qcField":4,"presTend":2.2,"pcp3hr":0.005,"metarType":"METAR","rawOb":"METAR KOLM 160254Z 22006KT 10SM FEW029 BKN036 BKN043 06/01 A2997 RMK AO2 SLP148 60000 T00560011 53022","lat":46.9737,"lon":-122.9049,"elev":58,"name":"Olympia Rgnl, WA, US","cover":"BKN","clouds":[{"cover":"FEW","base":2900},{"cover":"BKN","base":3600},{"cover":"BKN","base":4300}],"fltCat":"VFR"},{"icaoId":"KOLS","receiptTime":"2026-04-16T02:58:19.277Z","obsTime":1776308040,"reportTime":"2026-04-16T03:00:00.000Z","temp":18.9,"dewp":-13.3,"wdir":190,"wspd":3,"visib":"10+","altim":1015.7,"slp":1011.3,"qcField":6,"presTend":0.4,"metarType":"METAR","rawOb":"METAR KOLS 160254Z AUTO 19003KT 10SM CLR 19/M13 A2999 RMK AO2 SLP113 T01891133 53004","lat":31.4208,"lon":-110.8465,"elev":1194,"name":"Nogales Intl, AZ, US","cover":"CLR","clouds":[],"fltCat":"VFR"},{"icaoId":"KMEM","receiptTime":"2026-04-16T02:58:26.050Z","obsTime":1776308040,"reportTime":"2026-04-16T03:00:00.000Z","temp":23.3,"dewp":12.2,"wdir":180,"wspd":10,"visib":"10+","altim":1015,"slp":1014.5,"qcField":4,"presTend":0.7,"metarType":"METAR","rawOb":"METAR KMEM 160254Z 18010KT 10SM FEW065 SCT250 23/12 A2997 RMK AO2 SLP145 T02330122 51007","lat":35.0564,"lon":-89.9864,"elev":78,"name":"Memphis Intl, TN, US","cover":"SCT","clouds":[{"cover":"FEW","base":6500},{"cover":"SCT","base":25000}],"fltCat":"VFR"},{"icaoId":"KEUG","receiptTime":"2026-04-16T02:58:14.618Z","obsTime":1776308040,"reportTime":"2026-04-16T03:00:00.000Z","temp":5,"dewp":2.2,"wdir":210,"wspd":6,"visib":"10+","altim":1019.7,"slp":1019.6,"qcField":12,"presTend":1.2,"precip":0.005,"pcp3hr":0.005,"metarType":"METAR","rawOb":"METAR KEUG 160254Z 21006KT 10SM SCT040 BKN080 BKN140 05/02 A3011 RMK AO2 PK WND 24028/0159 LTG DSNT E AND SE RAE22 SLP196 VCSH CB DSNT E P0000 60000 T00500022 51012 $","lat":44.1331,"lon":-123.2156,"elev":109,"name":"Eugene/Mahlon Sweet Fld, OR, US","cover":"BKN","clouds":[{"cover":"SCT","base":4000},{"cover":"BKN","base":8000},{"cover":"BKN","base":14000}],"fltCat":"VFR"},{"icaoId":"KGSO","receiptTime":"2026-04-16T02:58:09.039Z","obsTime":1776308040,"reportTime":"2026-04-16T03:00:00.000Z","temp":22.2,"dewp":9.4,"wdir":220,"wspd":6,"visib":"10+","altim":1017.7,"slp":1016.3,"qcField":4,"presTend":0.9,"metarType":"METAR","rawOb":"METAR KGSO 160254Z 22006KT 10SM OVC250 22/09 A3005 RMK AO2 SLP163 T02220094 51009","lat":36.0969,"lon":-79.9432,"elev":275,"name":"Greensboro Intl, NC, US","cover":"OVC","clouds":[{"cover":"OVC","base":25000}],"fltCat":"VFR"},{"icaoId":"KDSM","receiptTime":"2026-04-16T02:58:08.990Z","obsTime":1776308040,"reportTime":"2026-04-16T03:00:00.000Z","temp":16.7,"dewp":13.9,"wdir":320,"wspd":3,"visib":"10+","altim":1005.2,"slp":1004.6,"qcField":4,"presTend":0.7,"pcp3hr":0.005,"metarType":"METAR","rawOb":"METAR KDSM 160254Z 32003KT 10SM FEW040 SCT070 17/14 A2968 RMK AO2 SLP046 OCNL LTGICCG DSNT SE-S CB DSNT SE-S MOV NE 60000 T01670139 53007","lat":41.5339,"lon":-93.6531,"elev":286,"name":"Des Moines Intl, IA, US","cover":"SCT","clouds":[{"cover":"FEW","base":4000},{"cover":"SCT","base":7000}],"fltCat":"VFR"},{"icaoId":"KROC","receiptTime":"2026-04-16T02:58:25.533Z","obsTime":1776308040,"reportTime":"2026-04-16T03:00:00.000Z","temp":15.6,"dewp":14.4,"wdir":"VRB","wspd":5,"visib":"10+","altim":1011.3,"slp":1011.4,"qcField":12,"presTend":0.6,"precip":0.01,"pcp3hr":0.73,"metarType":"METAR","rawOb":"METAR KROC 160254Z VRB05KT 10SM FEW005 BKN030 OVC040 16/14 A2986 RMK AO2 RAE29 SLP114 P0001 60073 T01560144 50006 $","lat":43.1172,"lon":-77.6754,"elev":166,"name":"Rochester Intl Arpt, NY, US","cover":"OVC","clouds":[{"cover":"FEW","base":500},{"cover":"BKN","base":3000},{"cover":"OVC","base":4000}],"fltCat":"MVFR"},{"icaoId":"KRIC","receiptTime":"2026-04-16T02:58:25.675Z","obsTime":1776308040,"reportTime":"2026-04-16T03:00:00.000Z","temp":23.9,"dewp":14.4,"wdir":210,"wspd":8,"visib":"10+","altim":1015.3,"slp":1015.5,"qcField":4,"presTend":1.4,"metarType":"METAR","rawOb":"METAR KRIC 160254Z 21008KT 10SM BKN250 24/14 A2998 RMK AO2 SLP155 T02390144 51014","lat":37.5115,"lon":-77.3234,"elev":51,"name":"Richmond Intl, VA, US","cover":"BKN","clouds":[{"cover":"BKN","base":25000}],"fltCat":"VFR"},{"icaoId":"KBWI","receiptTime":"2026-04-16T02:58:16.512Z","obsTime":1776308040,"reportTime":"2026-04-16T03:00:00.000Z","temp":22.2,"dewp":15.6,"wdir":0,"wspd":0,"visib":"10+","altim":1012.6,"slp":1012.4,"qcField":4,"presTend":0.8,"metarType":"METAR","rawOb":"METAR KBWI 160254Z 00000KT 10SM SCT250 22/16 A2990 RMK AO2 SLP124 T02220156 51008","lat":39.1733,"lon":-76.684,"elev":42,"name":"Baltimore-Washington Intl, MD, US","cover":"SCT","clouds":[{"cover":"SCT","base":25000}],"fltCat":"VFR"},{"icaoId":"KAPC","receiptTime":"2026-04-16T02:58:14.401Z","obsTime":1776308040,"reportTime":"2026-04-16T03:00:00.000Z","temp":12.8,"dewp":10,"wdir":210,"wspd":6,"visib":"10+","altim":1017.4,"slp":1016.4,"qcField":4,"presTend":0.2,"metarType":"METAR","rawOb":"METAR KAPC 160254Z 21006KT 10SM CLR 13/10 A3004 RMK AO2 SLP164 T01280100 53002","lat":38.2075,"lon":-122.2804,"elev":5,"name":"Napa Cnty Arpt, CA, US","cover":"CLR","clouds":[],"fltCat":"VFR"},{"icaoId":"KFFZ","receiptTime":"2026-04-16T02:58:26.316Z","obsTime":1776308040,"reportTime":"2026-04-16T03:00:00.000Z","temp":25.6,"dewp":-2.8,"wdir":0,"wspd":0,"visib":"10+","altim":1011.9,"slp":1009.9,"qcField":6,"presTend":-0.2,"metarType":"METAR","rawOb":"METAR KFFZ 160254Z AUTO 00000KT 10SM CLR 26/M03 A2988 RMK AO2 SLP099 T02561028 55002","lat":33.4659,"lon":-111.7212,"elev":420,"name":"Mesa/Falcon Fld, AZ, US","cover":"CLR","clouds":[],"fltCat":"VFR"},{"icaoId":"KPHL","receiptTime":"2026-04-16T02:58:25.630Z","obsTime":1776308040,"reportTime":"2026-04-16T03:00:00.000Z","temp":25,"dewp":15,"wdir":220,"wspd":6,"visib":"10+","altim":1012.6,"slp":1012.5,"qcField":12,"presTend":1.1,"metarType":"METAR","rawOb":"METAR KPHL 160254Z 22006KT 10SM FEW190 BKN250 25/15 A2990 RMK AO2 SLP125 T02500150 50011 $","lat":39.8733,"lon":-75.2268,"elev":2,"name":"Philadelphia Intl, PA, US","cover":"BKN","clouds":[{"cover":"FEW","base":19000},{"cover":"BKN","base":25000}],"fltCat":"VFR"},{"icaoId":"KCOS","receiptTime":"2026-04-16T02:58:08.846Z","obsTime":1776308040,"reportTime":"2026-04-16T03:00:00.000Z","temp":13.9,"dewp":-10.6,"wdir":330,"wspd":9,"visib":"10+","altim":1013.6,"slp":1008.8,"qcField":4,"presTend":1.5,"metarType":"METAR","rawOb":"METAR KCOS 160254Z 33009KT 10SM CLR 14/M11 A2993 RMK AO2 SLP088 T01391106 53015","lat":38.8095,"lon":-104.6887,"elev":1886,"name":"Colorado Spring Arpt, CO, US","cover":"CLR","clouds":[],"fltCat":"VFR"},{"icaoId":"KBFL","receiptTime":"2026-04-16T02:58:16.430Z","obsTime":1776308040,"reportTime":"2026-04-16T03:00:00.000Z","temp":20.6,"dewp":7.2,"wdir":360,"wspd":6,"visib":"10+","altim":1014.6,"slp":1014.1,"qcField":4,"metarType":"METAR","rawOb":"METAR KBFL 160254Z 36006KT 10SM CLR 21/07 A2996 RMK AO2 SLP141 T02060072 55000","lat":35.4342,"lon":-119.0552,"elev":146,"name":"Bakersfield/Meadows Arpt, CA, US","cover":"CLR","clouds":[],"fltCat":"VFR"},{"icaoId":"KRKS","receiptTime":"2026-04-16T02:58:26.646Z","obsTime":1776308040,"reportTime":"2026-04-16T03:00:00.000Z","temp":10,"dewp":-3.9,"wdir":220,"wspd":11,"visib":"10+","altim":1011.3,"slp":1007.1,"qcField":6,"presTend":-0.3,"metarType":"METAR","rawOb":"METAR KRKS 160254Z AUTO 22011KT 10SM BKN080 OVC090 10/M04 A2986 RMK AO2 SLP071 T01001039 58003","lat":41.5947,"lon":-109.0529,"elev":2062,"name":"Rock Springs/SW Wyoming Rgnl, WY, US","cover":"OVC","clouds":[{"cover":"BKN","base":8000},{"cover":"OVC","base":9000}],"fltCat":"VFR"},{"icaoId":"KGCN","receiptTime":"2026-04-16T02:58:26.446Z","obsTime":1776308040,"reportTime":"2026-04-16T03:00:00.000Z","temp":10,"dewp":-7.2,"wdir":220,"wspd":5,"visib":"10+","altim":1018.7,"slp":1014.2,"qcField":6,"presTend":0.2,"metarType":"METAR","rawOb":"METAR KGCN 160254Z AUTO 22005KT 10SM CLR 10/M07 A3008 RMK AO2 SLP142 T01001072 53002","lat":35.9458,"lon":-112.1554,"elev":1993,"name":"Grand Canyon Park Arpt, AZ, US","cover":"CLR","clouds":[],"fltCat":"VFR"},{"icaoId":"KSYR","receiptTime":"2026-04-16T02:58:25.568Z","obsTime":1776308040,"reportTime":"2026-04-16T03:00:00.000Z","temp":15.6,"dewp":15,"wdir":160,"wspd":3,"visib":4,"altim":1012.6,"slp":1012.1,"qcField":4,"wxString":"+RA BR","presTend":1.3,"precip":0.21,"pcp3hr":0.21,"metarType":"METAR","rawOb":"METAR KSYR 160254Z 16003KT 4SM +RA BR FEW025 BKN050 OVC090 16/15 A2990 RMK AO2 SLP121 P0021 60021 T01560150 51013","lat":43.1111,"lon":-76.1038,"elev":125,"name":"Syracuse/Hancock Intl, NY, US","cover":"OVC","clouds":[{"cover":"FEW","base":2500},{"cover":"BKN","base":5000},{"cover":"OVC","base":9000}],"fltCat":"MVFR"},{"icaoId":"KBRO","receiptTime":"2026-04-16T02:56:33.754Z","obsTime":1776307980,"reportTime":"2026-04-16T03:00:00.000Z","temp":25,"dewp":22.2,"wdir":140,"wspd":8,"visib":"10+","altim":1014,"slp":1013.6,"qcField":4,"presTend":1.3,"metarType":"METAR","rawOb":"METAR KBRO 160253Z 14008KT 10SM CLR 25/22 A2994 RMK AO2 SLP136 T02500222 53013","lat":25.9146,"lon":-97.4231,"elev":6,"name":"Brownsville Intl, TX, US","cover":"CLR","clouds":[],"fltCat":"VFR"},{"icaoId":"KSEA","receiptTime":"2026-04-16T02:56:26.031Z","obsTime":1776307980,"reportTime":"2026-04-16T03:00:00.000Z","temp":3.9,"dewp":2.2,"wdir":150,"wspd":5,"visib":6,"altim":1014.3,"slp":1015,"qcField":12,"wxString":"-RA BR","presTend":2.4,"precip":0.04,"pcp3hr":0.14,"metarType":"METAR","rawOb":"METAR KSEA 160253Z 15005KT 6SM -RA BR BKN020 OVC028 04/02 A2995 RMK AO2 SLP150 P0004 60014 T00390022 53024 $","lat":47.4447,"lon":-122.3144,"elev":115,"name":"Seattle-Tacoma Intl, WA, US","cover":"OVC","clouds":[{"cover":"BKN","base":2000},{"cover":"OVC","base":2800}],"fltCat":"MVFR"},{"icaoId":"KMSY","receiptTime":"2026-04-16T02:56:26.220Z","obsTime":1776307980,"reportTime":"2026-04-16T03:00:00.000Z","temp":22.2,"dewp":18.9,"wdir":160,"wspd":5,"visib":"10+","altim":1018.7,"slp":1019,"qcField":4,"presTend":0.9,"metarType":"METAR","rawOb":"METAR KMSY 160253Z 16005KT 10SM FEW030 FEW065 22/19 A3008 RMK AO2 SLP190 T02220189 53009","lat":29.9974,"lon":-90.2777,"elev":0,"name":"New Orleans/Armstrong Intl, LA, US","cover":"FEW","clouds":[{"cover":"FEW","base":3000},{"cover":"FEW","base":6500}],"fltCat":"VFR"},{"icaoId":"KMOD","receiptTime":"2026-04-16T02:56:26.442Z","obsTime":1776307980,"reportTime":"2026-04-16T03:00:00.000Z","temp":17.2,"dewp":5.6,"wdir":320,"wspd":10,"visib":"10+","altim":1016,"slp":1015.9,"qcField":4,"presTend":0.3,"metarType":"METAR","rawOb":"METAR KMOD 160253Z 32010KT 10SM CLR 17/06 A3000 RMK AO2 SLP159 T01720056 53003","lat":37.6254,"lon":-120.9549,"elev":25,"name":"Modesto/Sham Fld, CA, US","cover":"CLR","clouds":[],"fltCat":"VFR"},{"icaoId":"KMSO","receiptTime":"2026-04-16T02:56:26.458Z","obsTime":1776307980,"reportTime":"2026-04-16T03:00:00.000Z","temp":2.8,"dewp":0,"wdir":180,"wspd":4,"visib":"10+","altim":1006.5,"slp":1007.7,"qcField":4,"presTend":2.8,"pcp3hr":0.02,"metarType":"METAR","rawOb":"METAR KMSO 160253Z 18004KT 10SM SCT050 BKN060 03/00 A2972 RMK AO2 SLP077 60002 T00280000 50028","lat":46.9208,"lon":-114.0938,"elev":974,"name":"Missoula Intl, MT, US","cover":"BKN","clouds":[{"cover":"SCT","base":5000},{"cover":"BKN","base":6000}],"fltCat":"VFR"},{"icaoId":"KOAK","receiptTime":"2026-04-16T02:56:26.487Z","obsTime":1776307980,"reportTime":"2026-04-16T03:00:00.000Z","temp":14.4,"dewp":10.6,"wdir":260,"wspd":14,"visib":"10+","altim":1018.7,"slp":1018.6,"qcField":12,"metarType":"METAR","rawOb":"METAR KOAK 160253Z 26014KT 10SM FEW015 SCT030 BKN250 14/11 A3008 RMK AO2 SLP186 SCSL N-NE AND NW T01440106 55000 $","lat":37.7178,"lon":-122.233,"elev":3,"name":"Oakland Intl, CA, US","cover":"BKN","clouds":[{"cover":"FEW","base":1500},{"cover":"SCT","base":3000},{"cover":"BKN","base":25000}],"fltCat":"VFR"},{"icaoId":"KMFR","receiptTime":"2026-04-16T02:56:26.808Z","obsTime":1776307980,"reportTime":"2026-04-16T03:00:00.000Z","temp":6.7,"dewp":-0.6,"wdir":340,"wspd":10,"visib":"10+","altim":1018.7,"slp":1018.9,"qcField":4,"presTend":2,"metarType":"METAR","rawOb":"METAR KMFR 160253Z 34010KT 10SM FEW070 07/M01 A3008 RMK AO2 SLP189 T00671006 53020","lat":42.375,"lon":-122.877,"elev":397,"name":"Medford/Rogue Valley Intl, OR, US","cover":"FEW","clouds":[{"cover":"FEW","base":7000}],"fltCat":"VFR"},{"icaoId":"PANC","receiptTime":"2026-04-16T02:56:27.644Z","obsTime":1776307980,"reportTime":"2026-04-16T03:00:00.000Z","temp":1.7,"dewp":-1.1,"wdir":30,"wspd":3,"visib":"10+","altim":1012.6,"slp":1012.8,"qcField":4,"presTend":0.1,"metarType":"METAR","rawOb":"METAR PANC 160253Z 03003KT 10SM OVC034 02/M01 A2990 RMK AO2 SLP128 T00171011 50001","lat":61.1691,"lon":-150.0277,"elev":39,"name":"Anchorage Intl, AK, US","cover":"OVC","clouds":[{"cover":"OVC","base":3400}],"fltCat":"VFR"},{"icaoId":"KPIH","receiptTime":"2026-04-16T02:56:27.845Z","obsTime":1776307980,"reportTime":"2026-04-16T03:00:00.000Z","temp":10.6,"dewp":2.2,"wdir":180,"wspd":17,"wgst":24,"visib":"10+","altim":1005.5,"slp":1003.6,"qcField":4,"presTend":-3.8,"pcp3hr":0.01,"metarType":"METAR","rawOb":"METAR KPIH 160253Z 18017G24KT 10SM SCT080 BKN100 11/02 A2969 RMK AO2 SLP036 60001 T01060022 58038","lat":42.9197,"lon":-112.5723,"elev":1357,"name":"Pocatello Rgnl, ID, US","cover":"BKN","clouds":[{"cover":"SCT","base":8000},{"cover":"BKN","base":10000}],"fltCat":"VFR"},{"icaoId":"KMDW","receiptTime":"2026-04-16T02:56:28.438Z","obsTime":1776307980,"reportTime":"2026-04-16T03:00:00.000Z","temp":21.1,"dewp":16.7,"wdir":210,"wspd":13,"wgst":23,"visib":"10+","altim":1007.5,"slp":1006.9,"qcField":4,"presTend":0.1,"metarType":"METAR","rawOb":"METAR KMDW 160253Z 21013G23KT 10SM FEW030 BKN035 OVC065 21/17 A2975 RMK AO2 PK WND 19032/0220 SLP069 T02110167 53001","lat":41.7841,"lon":-87.7552,"elev":186,"name":"Chicago/Midway Intl, IL, US","cover":"OVC","clouds":[{"cover":"FEW","base":3000},{"cover":"BKN","base":3500},{"cover":"OVC","base":6500}],"fltCat":"VFR"},{"icaoId":"KTPA","receiptTime":"2026-04-16T02:56:28.976Z","obsTime":1776307980,"reportTime":"2026-04-16T03:00:00.000Z","temp":21.7,"dewp":15.6,"wdir":360,"wspd":4,"visib":"10+","altim":1020.7,"slp":1020.6,"qcField":4,"presTend":1.8,"metarType":"METAR","rawOb":"METAR KTPA 160253Z 36004KT 10SM CLR 22/16 A3014 RMK AO2 SLP206 T02170156 53018","lat":27.9633,"lon":-82.54,"elev":2,"name":"Tampa Intl Arpt, FL, US","cover":"CLR","clouds":[],"fltCat":"VFR"},{"icaoId":"KSAF","receiptTime":"2026-04-16T02:56:29.220Z","obsTime":1776307980,"reportTime":"2026-04-16T03:00:00.000Z","temp":8.9,"dewp":-11.1,"wdir":320,"wspd":5,"visib":"10+","altim":1017.7,"slp":1012.8,"qcField":4,"presTend":1.3,"metarType":"METAR","rawOb":"METAR KSAF 160253Z 32005KT 10SM CLR 09/M11 A3005 RMK AO2 SLP128 T00891111 53013","lat":35.611,"lon":-106.0957,"elev":1918,"name":"Santa Fe Cnty Muni, NM, US","cover":"CLR","clouds":[],"fltCat":"VFR"},{"icaoId":"KSBA","receiptTime":"2026-04-16T02:56:29.240Z","obsTime":1776307980,"reportTime":"2026-04-16T03:00:00.000Z","temp":15.6,"dewp":8.9,"wdir":180,"wspd":4,"visib":"10+","altim":1014.3,"slp":1014.2,"qcField":12,"presTend":-0.9,"metarType":"METAR","rawOb":"METAR KSBA 160253Z 18004KT 10SM CLR 16/09 A2995 RMK AO2 SLP142 T01560089 58009 $","lat":34.4241,"lon":-119.8425,"elev":2,"name":"Santa Barbara Muni, CA, US","cover":"CLR","clouds":[],"fltCat":"VFR"},{"icaoId":"KSDL","receiptTime":"2026-04-16T02:56:29.278Z","obsTime":1776307980,"reportTime":"2026-04-16T03:00:00.000Z","temp":25.6,"dewp":-5.6,"wdir":0,"wspd":0,"visib":"10+","altim":1012.6,"slp":1010.5,"qcField":4,"presTend":-0.1,"metarType":"METAR","rawOb":"METAR KSDL 160253Z 00000KT 10SM CLR 26/M06 A2990 RMK AO2 SLP105 T02561056 55001","lat":33.6123,"lon":-111.9232,"elev":438,"name":"Scottsdale Muni, AZ, US","cover":"CLR","clouds":[],"fltCat":"VFR"},{"icaoId":"KSHR","receiptTime":"2026-04-16T02:56:29.387Z","obsTime":1776307980,"reportTime":"2026-04-16T03:00:00.000Z","temp":12.2,"dewp":-1.1,"wdir":0,"wspd":0,"visib":"10+","altim":1001.4,"slp":1000.1,"qcField":6,"presTend":-0.6,"metarType":"METAR","rawOb":"METAR KSHR 160253Z AUTO 00000KT 10SM CLR 12/M01 A2957 RMK AO2 SLP001 T01221011 55006","lat":44.7603,"lon":-106.9741,"elev":1212,"name":"Sheridan Cnty Arpt, WY, US","cover":"CLR","clouds":[],"fltCat":"VFR"},{"icaoId":"KSMF","receiptTime":"2026-04-16T02:56:29.454Z","obsTime":1776307980,"reportTime":"2026-04-16T03:00:00.000Z","temp":17.2,"dewp":10.6,"wdir":190,"wspd":10,"visib":"10+","altim":1015,"slp":1014.8,"qcField":4,"presTend":-0.2,"metarType":"METAR","rawOb":"METAR KSMF 160253Z 19010KT 10SM FEW080 BKN250 17/11 A2997 RMK AO2 SLP148 T01720106 55002","lat":38.7007,"lon":-121.5948,"elev":7,"name":"Sacramento Intl, CA, US","cover":"BKN","clouds":[{"cover":"FEW","base":8000},{"cover":"BKN","base":25000}],"fltCat":"VFR"},{"icaoId":"KDFW","receiptTime":"2026-04-16T02:56:29.908Z","obsTime":1776307980,"reportTime":"2026-04-16T03:00:00.000Z","temp":22.8,"dewp":20,"wdir":190,"wspd":7,"visib":"10+","altim":1011.9,"slp":1011.1,"qcField":4,"presTend":0.6,"pcp3hr":0.01,"metarType":"METAR","rawOb":"METAR KDFW 160253Z 19007KT 10SM FEW045 BKN060 BKN150 BKN250 23/20 A2988 RMK AO2 SLP111 60001 T02280200 53006","lat":32.8974,"lon":-97.022,"elev":168,"name":"Dallas-Ft Worth Intl, TX, US","cover":"BKN","clouds":[{"cover":"FEW","base":4500},{"cover":"BKN","base":6000},{"cover":"BKN","base":15000},{"cover":"BKN","base":25000}],"fltCat":"VFR"},{"icaoId":"KDMN","receiptTime":"2026-04-16T02:56:29.966Z","obsTime":1776307980,"reportTime":"2026-04-16T03:00:00.000Z","temp":18.3,"dewp":-16.7,"wdir":300,"wspd":7,"visib":"10+","altim":1016.7,"slp":1011.5,"qcField":6,"presTend":0.4,"metarType":"METAR","rawOb":"METAR KDMN 160253Z AUTO 30007KT 10SM CLR 18/M17 A3002 RMK AO2 SLP115 T01831167 53004","lat":32.2592,"lon":-107.7206,"elev":1310,"name":"Deming Muni, NM, US","cover":"CLR","clouds":[],"fltCat":"VFR"},{"icaoId":"KCNY","receiptTime":"2026-04-16T02:56:30.188Z","obsTime":1776307980,"reportTime":"2026-04-16T03:00:00.000Z","temp":15.6,"dewp":-2.2,"wdir":220,"wspd":7,"visib":"10+","altim":1012.6,"slp":1009.7,"qcField":6,"presTend":-0.3,"metarType":"METAR","rawOb":"METAR KCNY 160253Z AUTO 22007KT 10SM CLR 16/M02 A2990 RMK AO2 SLP097 T01561022 55003","lat":38.7501,"lon":-109.7627,"elev":1392,"name":"Moab/Canyonland Fld, UT, US","cover":"CLR","clouds":[],"fltCat":"VFR"},{"icaoId":"KCYS","receiptTime":"2026-04-16T02:56:30.219Z","obsTime":1776307980,"reportTime":"2026-04-16T03:00:00.000Z","temp":10.6,"dewp":-5.6,"wdir":250,"wspd":8,"visib":"10+","altim":1011.9,"slp":1007.8,"qcField":4,"presTend":0.9,"metarType":"METAR","rawOb":"METAR KCYS 160253Z 25008KT 10SM CLR 11/M06 A2988 RMK AO2 SLP078 T01061056 53009","lat":41.1579,"lon":-104.8081,"elev":1868,"name":"Cheyenne Rgnl, WY, US","cover":"CLR","clouds":[],"fltCat":"VFR"},{"icaoId":"KDEN","receiptTime":"2026-04-16T02:56:30.247Z","obsTime":1776307980,"reportTime":"2026-04-16T03:00:00.000Z","temp":14.4,"dewp":-6.7,"wdir":280,"wspd":10,"visib":"10+","altim":1011.6,"slp":1006.6,"qcField":4,"presTend":0.9,"metarType":"METAR","rawOb":"METAR KDEN 160253Z 28010KT 10SM FEW120 FEW220 14/M07 A2987 RMK AO2 SLP066 T01441067 53009","lat":39.8466,"lon":-104.6562,"elev":1656,"name":"Denver Intl, CO, US","cover":"FEW","clouds":[{"cover":"FEW","base":12000},{"cover":"FEW","base":22000}],"fltCat":"VFR"},{"icaoId":"KDTW","receiptTime":"2026-04-16T02:56:30.301Z","obsTime":1776307980,"reportTime":"2026-04-16T03:00:00.000Z","temp":19.4,"dewp":15.6,"wdir":170,"wspd":5,"visib":"10+","altim":1010.2,"slp":1010,"qcField":12,"presTend":-0.1,"metarType":"METAR","rawOb":"METAR KDTW 160253Z 17005KT 10SM FEW050 FEW090 OVC210 19/16 A2983 RMK AO2 SLP100 T01940156 58001 $","lat":42.2311,"lon":-83.3312,"elev":192,"name":"Detroit/Metro Wayne Cnty, MI, US","cover":"OVC","clouds":[{"cover":"FEW","base":5000},{"cover":"FEW","base":9000},{"cover":"OVC","base":21000}],"fltCat":"VFR"},{"icaoId":"KGEG","receiptTime":"2026-04-16T02:56:31.004Z","obsTime":1776307980,"reportTime":"2026-04-16T03:00:00.000Z","temp":3.9,"dewp":-4.4,"wdir":240,"wspd":6,"visib":"10+","altim":1006.2,"slp":1007.1,"qcField":4,"presTend":2.7,"metarType":"METAR","rawOb":"METAR KGEG 160253Z 24006KT 10SM FEW015 SCT045 BKN110 04/M04 A2971 RMK AO2 SLP071 SHRA DSNT N-E T00391044 53027","lat":47.6217,"lon":-117.528,"elev":718,"name":"Spokane Intl, WA, US","cover":"BKN","clouds":[{"cover":"FEW","base":1500},{"cover":"SCT","base":4500},{"cover":"BKN","base":11000}],"fltCat":"VFR"},{"icaoId":"KFAT","receiptTime":"2026-04-16T02:56:31.077Z","obsTime":1776307980,"reportTime":"2026-04-16T03:00:00.000Z","temp":21.1,"dewp":3.3,"wdir":320,"wspd":10,"visib":"10+","altim":1015.3,"slp":1015,"qcField":12,"presTend":0.1,"metarType":"METAR","rawOb":"METAR KFAT 160253Z 32010KT 10SM SCT050 BKN130 BKN200 21/03 A2998 RMK AO2 SLP150 T02110033 53001 $","lat":36.78,"lon":-119.7202,"elev":102,"name":"Fresno/Yosemite Intl, CA, US","cover":"BKN","clouds":[{"cover":"SCT","base":5000},{"cover":"BKN","base":13000},{"cover":"BKN","base":20000}],"fltCat":"VFR"},{"icaoId":"KELY","receiptTime":"2026-04-16T02:56:31.184Z","obsTime":1776307980,"reportTime":"2026-04-16T03:00:00.000Z","temp":12.8,"dewp":-6.1,"wdir":240,"wspd":13,"wgst":21,"visib":"10+","altim":1012.6,"slp":1007.3,"qcField":6,"presTend":-0.5,"metarType":"METAR","rawOb":"METAR KELY 160253Z AUTO 24013G21KT 10SM BKN090 13/M06 A2990 RMK AO2 PK WND 21026/0242 SLP073 T01281061 58005","lat":39.2954,"lon":-114.8466,"elev":1906,"name":"Ely/Yelland Fld, NV, US","cover":"BKN","clouds":[{"cover":"BKN","base":9000}],"fltCat":"VFR"},{"icaoId":"KAUS","receiptTime":"2026-04-16T02:56:31.956Z","obsTime":1776307980,"reportTime":"2026-04-16T03:00:00.000Z","temp":25,"dewp":18.3,"wdir":160,"wspd":12,"visib":"10+","altim":1014,"slp":1012.8,"qcField":4,"presTend":1.9,"metarType":"METAR","rawOb":"METAR KAUS 160253Z 16012KT 10SM FEW060 SCT100 25/18 A2994 RMK AO2 SLP128 T02500183 53019","lat":30.1831,"lon":-97.6806,"elev":148,"name":"Austin/Bergstrom Intl, TX, US","cover":"SCT","clouds":[{"cover":"FEW","base":6000},{"cover":"SCT","base":10000}],"fltCat":"VFR"},{"icaoId":"KBHM","receiptTime":"2026-04-16T02:56:32.238Z","obsTime":1776307980,"reportTime":"2026-04-16T03:00:00.000Z","temp":21.1,"dewp":11.7,"wdir":0,"wspd":0,"visib":"10+","altim":1019.7,"slp":1019,"qcField":4,"presTend":1.1,"metarType":"METAR","rawOb":"METAR KBHM 160253Z 00000KT 10SM FEW250 21/12 A3011 RMK AO2 SLP190 T02110117 53011","lat":33.5655,"lon":-86.7449,"elev":191,"name":"Birmingham Intl, AL, US","cover":"FEW","clouds":[{"cover":"FEW","base":25000}],"fltCat":"VFR"},{"icaoId":"KOGD","receiptTime":"2026-04-16T02:56:32.313Z","obsTime":1776307980,"reportTime":"2026-04-16T03:00:00.000Z","temp":13.9,"dewp":1.1,"wdir":300,"wspd":5,"visib":"10+","altim":1008.9,"slp":1005.9,"qcField":6,"presTend":-0.4,"metarType":"METAR","rawOb":"METAR KOGD 160253Z AUTO 30005KT 10SM OVC090 14/01 A2979 RMK AO2 SLP059 T01390011 55004","lat":41.1941,"lon":-112.0168,"elev":1356,"name":"Ogden/Hinckley Arpt, UT, US","cover":"OVC","clouds":[{"cover":"OVC","base":9000}],"fltCat":"VFR"},{"icaoId":"KONT","receiptTime":"2026-04-16T02:56:32.403Z","obsTime":1776307980,"reportTime":"2026-04-16T03:00:00.000Z","temp":19.4,"dewp":10,"wdir":240,"wspd":7,"visib":"10+","altim":1014.3,"slp":1013.5,"qcField":12,"metarType":"METAR","rawOb":"METAR KONT 160253Z 24007KT 10SM FEW250 19/10 A2995 RMK AO2 SLP135 T01940100 53000 $","lat":34.0531,"lon":-117.5769,"elev":279,"name":"Ontario Intl, CA, US","cover":"FEW","clouds":[{"cover":"FEW","base":25000}],"fltCat":"VFR"},{"icaoId":"KRTN","receiptTime":"2026-04-16T02:56:32.812Z","obsTime":1776307980,"reportTime":"2026-04-16T03:00:00.000Z","temp":12.2,"dewp":-12.2,"wdir":300,"wspd":10,"visib":"10+","altim":1014.6,"slp":1009.8,"qcField":6,"presTend":1.2,"metarType":"METAR","rawOb":"METAR KRTN 160253Z AUTO 30010KT 10SM CLR 12/M12 A2996 RMK AO2 SLP098 T01221122 53012","lat":36.7418,"lon":-104.5076,"elev":1939,"name":"Raton/Crews Fld, NM, US","cover":"CLR","clouds":[],"fltCat":"VFR"},{"icaoId":"KSWO","receiptTime":"2026-04-16T02:56:32.910Z","obsTime":1776307980,"reportTime":"2026-04-16T03:00:00.000Z","temp":20.6,"dewp":18.9,"wdir":200,"wspd":8,"visib":"10+","altim":1008.9,"slp":1007.7,"qcField":4,"presTend":0.8,"metarType":"METAR","rawOb":"METAR KSWO 160253Z 20008KT 10SM CLR 21/19 A2979 RMK AO2 TSB23E30E33 SLP077 T02060189 53008","lat":36.1624,"lon":-97.0832,"elev":293,"name":"Stillwater Muni, OK, US","cover":"CLR","clouds":[],"fltCat":"VFR"},{"icaoId":"KGSP","receiptTime":"2026-04-16T02:56:33.500Z","obsTime":1776307980,"reportTime":"2026-04-16T03:00:00.000Z","temp":21.1,"dewp":12.2,"wdir":220,"wspd":8,"visib":"10+","altim":1019,"slp":1017.8,"qcField":4,"presTend":1,"metarType":"METAR","rawOb":"METAR KGSP 160253Z 22008KT 10SM CLR 21/12 A3009 RMK AO2 SLP178 T02110122 51010","lat":34.8842,"lon":-82.2209,"elev":285,"name":"Greenville-Spartanburg Intl, SC, US","cover":"CLR","clouds":[],"fltCat":"VFR"},{"icaoId":"KBLI","receiptTime":"2026-04-16T02:56:33.598Z","obsTime":1776307980,"reportTime":"2026-04-16T03:00:00.000Z","temp":6.1,"dewp":1.7,"wdir":290,"wspd":4,"visib":"10+","altim":1013,"slp":1013.7,"qcField":4,"presTend":2,"metarType":"METAR","rawOb":"METAR KBLI 160253Z 29004KT 10SM CLR 06/02 A2991 RMK AO2 SLP137 T00610017 51020","lat":48.7991,"lon":-122.5407,"elev":46,"name":"Bellingham Intl, WA, US","cover":"CLR","clouds":[],"fltCat":"VFR"},{"icaoId":"KBUR","receiptTime":"2026-04-16T02:56:33.801Z","obsTime":1776307980,"reportTime":"2026-04-16T03:00:00.000Z","temp":18.9,"dewp":6.1,"wdir":150,"wspd":5,"visib":"10+","altim":1014.6,"slp":1013.6,"qcField":6,"presTend":-0.4,"metarType":"METAR","rawOb":"METAR KBUR 160253Z AUTO 15005KT 10SM CLR 19/06 A2996 RMK AO2 SLP136 T01890061 55004","lat":34.1996,"lon":-118.3654,"elev":221,"name":"Burbank/Bob Hope Arpt, CA, US","cover":"CLR","clouds":[],"fltCat":"VFR"},{"icaoId":"KCDC","receiptTime":"2026-04-16T02:56:33.912Z","obsTime":1776307980,"reportTime":"2026-04-16T03:00:00.000Z","temp":11.1,"dewp":-2.8,"wdir":180,"wspd":5,"visib":"10+","altim":1015.7,"slp":1012.2,"qcField":6,"presTend":0.2,"metarType":"METAR","rawOb":"METAR KCDC 160253Z AUTO 18005KT 10SM CLR 11/M03 A2999 RMK AO2 SLP122 T01111028 53002","lat":37.7067,"lon":-113.097,"elev":1703,"name":"Cedar City Muni, UT, US","cover":"CLR","clouds":[],"fltCat":"VFR"},{"icaoId":"KCNM","receiptTime":"2026-04-16T02:56:34.095Z","obsTime":1776307980,"reportTime":"2026-04-16T03:00:00.000Z","temp":19.4,"dewp":-10.6,"wdir":260,"wspd":10,"visib":"10+","altim":1014.3,"slp":1009.9,"qcField":6,"presTend":1.2,"metarType":"METAR","rawOb":"METAR KCNM 160253Z AUTO 26010KT 10SM CLR 19/M11 A2995 RMK AO2 SLP099 T01941106 53012","lat":32.3336,"lon":-104.2584,"elev":993,"name":"Carlsbad/Cavern City Air Term, NM, US","cover":"CLR","clouds":[],"fltCat":"VFR"},{"icaoId":"KLGB","receiptTime":"2026-04-16T02:56:34.274Z","obsTime":1776307980,"reportTime":"2026-04-16T03:00:00.000Z","temp":17.2,"dewp":12.8,"wdir":300,"wspd":9,"visib":"10+","altim":1014.3,"slp":1014.2,"qcField":4,"presTend":-0.1,"metarType":"METAR","rawOb":"METAR KLGB 160253Z 30009KT 10SM CLR 17/13 A2995 RMK AO2 SLP142 T01720128 55001","lat":33.8118,"lon":-118.1472,"elev":10,"name":"Long Beach Arpt, CA, US","cover":"CLR","clouds":[],"fltCat":"VFR"},{"icaoId":"KLOL","receiptTime":"2026-04-16T02:56:34.387Z","obsTime":1776307980,"reportTime":"2026-04-16T03:00:00.000Z","temp":15,"dewp":-2.2,"wdir":270,"wspd":19,"wgst":29,"visib":"10+","altim":1011.3,"slp":1009.9,"qcField":6,"presTend":0.1,"metarType":"METAR","rawOb":"METAR KLOL 160253Z AUTO 27019G29KT 10SM CLR 15/M02 A2986 RMK AO2 PK WND 27030/0239 SLP099 T01501022 53001","lat":40.0684,"lon":-118.5702,"elev":1191,"name":"Lovelock/Derby Fld, NV, US","cover":"CLR","clouds":[],"fltCat":"VFR"},{"icaoId":"KLVS","receiptTime":"2026-04-16T02:56:34.542Z","obsTime":1776307980,"reportTime":"2026-04-16T03:00:00.000Z","temp":10,"dewp":-10.6,"wdir":200,"wspd":11,"visib":"10+","altim":1017.4,"slp":1011.2,"qcField":14,"presTend":1.2,"metarType":"METAR","rawOb":"METAR KLVS 160253Z AUTO 20011KT 10SM CLR 10/M11 A3004 RMK AO2 SLP112 6//// T01001106 53012 PNO $","lat":35.6558,"lon":-105.1385,"elev":2095,"name":"Las Vegas Muni, NM, US","cover":"CLR","clouds":[],"fltCat":"VFR"},{"icaoId":"KMAF","receiptTime":"2026-04-16T02:56:34.605Z","obsTime":1776307980,"reportTime":"2026-04-16T03:00:00.000Z","temp":22.8,"dewp":2.2,"wdir":150,"wspd":3,"visib":"10+","altim":1013.3,"slp":1009,"qcField":6,"presTend":0.8,"metarType":"METAR","rawOb":"METAR KMAF 160253Z AUTO 15003KT 10SM CLR 23/02 A2992 RMK AO2 SLP090 T02280022 53008","lat":31.9475,"lon":-102.2086,"elev":874,"name":"Midland Intl, TX, US","cover":"CLR","clouds":[],"fltCat":"VFR"},{"icaoId":"KIAH","receiptTime":"2026-04-16T02:56:34.719Z","obsTime":1776307980,"reportTime":"2026-04-16T03:00:00.000Z","temp":23.3,"dewp":20,"wdir":150,"wspd":10,"visib":"10+","altim":1015.7,"slp":1015.4,"qcField":4,"presTend":0.7,"metarType":"METAR","rawOb":"METAR KIAH 160253Z 15010KT 10SM FEW024 FEW250 23/20 A2999 RMK AO2 SLP154 T02330200 53007","lat":29.9844,"lon":-95.3607,"elev":27,"name":"Houston/Bush Intl, TX, US","cover":"FEW","clouds":[{"cover":"FEW","base":2400},{"cover":"FEW","base":25000}],"fltCat":"VFR"},{"icaoId":"KMSP","receiptTime":"2026-04-16T02:56:34.951Z","obsTime":1776307980,"reportTime":"2026-04-16T03:00:00.000Z","temp":16.7,"dewp":4.4,"wdir":100,"wspd":6,"visib":"10+","altim":1006.2,"slp":1006.1,"qcField":4,"presTend":0.6,"metarType":"METAR","rawOb":"METAR KMSP 160253Z 10006KT 10SM FEW120 17/04 A2971 RMK AO2 SLP061 T01670044 53006","lat":44.8852,"lon":-93.2313,"elev":255,"name":"Minneapolis-St Paul Intl, MN, US","cover":"FEW","clouds":[{"cover":"FEW","base":12000}],"fltCat":"VFR"},{"icaoId":"KSNA","receiptTime":"2026-04-16T02:56:35.899Z","obsTime":1776307980,"reportTime":"2026-04-16T03:00:00.000Z","temp":17.8,"dewp":13.3,"wdir":220,"wspd":6,"visib":"10+","altim":1015,"slp":1014.7,"qcField":12,"presTend":-0.2,"metarType":"METAR","rawOb":"METAR KSNA 160253Z 22006KT 10SM FEW020 FEW200 18/13 A2997 RMK AO2 SLP147 T01780133 55002 $","lat":33.6798,"lon":-117.8675,"elev":14,"name":"Santa Ana/Wayne Arpt, CA, US","cover":"FEW","clouds":[{"cover":"FEW","base":2000},{"cover":"FEW","base":20000}],"fltCat":"VFR"},{"icaoId":"KVEL","receiptTime":"2026-04-16T02:56:36.073Z","obsTime":1776307980,"reportTime":"2026-04-16T03:00:00.000Z","temp":14.4,"dewp":-3.9,"wdir":210,"wspd":19,"wgst":30,"visib":"10+","altim":1011.6,"slp":1008.3,"qcField":6,"presTend":-0.1,"metarType":"METAR","rawOb":"METAR KVEL 160253Z AUTO 21019G30KT 10SM OVC110 14/M04 A2987 RMK AO2 PK WND 21030/0250 SLP083 T01441039 58001","lat":40.4429,"lon":-109.5128,"elev":1604,"name":"Vernal Rgnl, UT, US","cover":"OVC","clouds":[{"cover":"OVC","base":11000}],"fltCat":"VFR"},{"icaoId":"KVGT","receiptTime":"2026-04-16T02:56:36.087Z","obsTime":1776307980,"reportTime":"2026-04-16T03:00:00.000Z","temp":24.4,"dewp":-8.9,"wdir":230,"wspd":12,"visib":"10+","altim":1010.6,"slp":1010.7,"qcField":4,"presTend":-0.1,"metarType":"METAR","rawOb":"METAR KVGT 160253Z 23012KT 10SM CLR 24/M09 A2984 RMK AO2 SLP107 T02441089 55001","lat":36.212,"lon":-115.194,"elev":664,"name":"Las Vegas/North Arpt, NV, US","cover":"CLR","clouds":[],"fltCat":"VFR"},{"icaoId":"KPAE","receiptTime":"2026-04-16T02:56:26.841Z","obsTime":1776307980,"reportTime":"2026-04-16T03:00:00.000Z","temp":5,"dewp":2.2,"wdir":240,"wspd":6,"visib":"10+","altim":1013.3,"slp":1013.6,"qcField":4,"presTend":1.3,"precip":0.005,"pcp3hr":0.005,"metarType":"METAR","rawOb":"METAR KPAE 160253Z 24006KT 10SM FEW020 BKN037 OVC110 05/02 A2992 RMK AO2 RAE08 SLP136 P0000 60000 T00500022 51013","lat":47.9232,"lon":-122.2831,"elev":166,"name":"Everett/Paine Fld, WA, US","cover":"OVC","clouds":[{"cover":"FEW","base":2000},{"cover":"BKN","base":3700},{"cover":"OVC","base":11000}],"fltCat":"VFR"},{"icaoId":"KPBI","receiptTime":"2026-04-16T02:56:26.125Z","obsTime":1776307980,"reportTime":"2026-04-16T03:00:00.000Z","temp":23.9,"dewp":14.4,"wdir":70,"wspd":8,"visib":"10+","altim":1020.7,"slp":1020.7,"qcField":12,"presTend":1.1,"metarType":"METAR","rawOb":"METAR KPBI 160253Z 07008KT 10SM BKN042 24/14 A3014 RMK AO2 SLP207 T02390144 51011 $","lat":26.6851,"lon":-80.0992,"elev":4,"name":"Palm Beach Intl, FL, US","cover":"BKN","clouds":[{"cover":"BKN","base":4200}],"fltCat":"VFR"},{"icaoId":"KPGA","receiptTime":"2026-04-16T02:56:26.398Z","obsTime":1776307980,"reportTime":"2026-04-16T03:00:00.000Z","temp":18.3,"dewp":-4.4,"wdir":0,"wspd":0,"visib":"10+","altim":1013.3,"slp":1009.5,"qcField":14,"presTend":-0.2,"metarType":"METAR","rawOb":"METAR KPGA 160253Z AUTO 00000KT 10SM CLR 18/M04 A2992 RMK AO2 SLP095 T01831044 55002 $","lat":36.9211,"lon":-111.4487,"elev":1310,"name":"Page Muni, AZ, US","cover":"CLR","clouds":[],"fltCat":"VFR"},{"icaoId":"KSJC","receiptTime":"2026-04-16T02:56:29.421Z","obsTime":1776307980,"reportTime":"2026-04-16T03:00:00.000Z","temp":14.4,"dewp":8.3,"wdir":320,"wspd":10,"visib":"10+","altim":1018.7,"slp":1018.4,"qcField":12,"presTend":0.5,"metarType":"METAR","rawOb":"METAR KSJC 160253Z 32010KT 10SM SCT035 SCT070 BKN100 14/08 A3008 RMK AO2 SLP184 T01440083 53005 $","lat":37.3594,"lon":-121.9244,"elev":13,"name":"San Jose Intl Arpt, CA, US","cover":"BKN","clouds":[{"cover":"SCT","base":3500},{"cover":"SCT","base":7000},{"cover":"BKN","base":10000}],"fltCat":"VFR"},{"icaoId":"KMTJ","receiptTime":"2026-04-16T02:56:21.814Z","obsTime":1776307980,"reportTime":"2026-04-16T03:00:00.000Z","temp":10.6,"dewp":-5,"wdir":150,"wspd":5,"visib":"10+","altim":1016.3,"slp":1012.8,"qcField":6,"metarType":"METAR","rawOb":"METAR KMTJ 160253Z AUTO 15005KT 10SM CLR 11/M05 A3001 RMK AO2 SLP128 T01061050 53000","lat":38.5054,"lon":-107.8981,"elev":1755,"name":"Montrose Rgnl, CO, US","cover":"CLR","clouds":[],"fltCat":"VFR"},{"icaoId":"KAMA","receiptTime":"2026-04-16T02:56:31.703Z","obsTime":1776307980,"reportTime":"2026-04-16T03:00:00.000Z","temp":17.2,"dewp":-9.4,"wdir":"VRB","wspd":3,"visib":"10+","altim":1013,"slp":1009.1,"qcField":4,"presTend":1.3,"metarType":"METAR","rawOb":"METAR KAMA 160253Z VRB03KT 10SM CLR 17/M09 A2991 RMK AO2 SLP091 T01721094 53013","lat":35.2203,"lon":-101.7173,"elev":1102,"name":"Amarillo Intl Arpt, TX, US","cover":"CLR","clouds":[],"fltCat":"VFR"},{"icaoId":"KAPA","receiptTime":"2026-04-16T02:56:31.811Z","obsTime":1776307980,"reportTime":"2026-04-16T03:00:00.000Z","temp":11.7,"dewp":-6.1,"wdir":0,"wspd":0,"visib":"10+","altim":1012.6,"slp":1009.4,"qcField":4,"presTend":0.9,"metarType":"METAR","rawOb":"METAR KAPA 160253Z 00000KT 10SM FEW220 12/M06 A2990 RMK AO2 SLP094 T01171061 53009","lat":39.5599,"lon":-104.8484,"elev":1791,"name":"Denver/Centennial Arpt, CO, US","cover":"FEW","clouds":[{"cover":"FEW","base":22000}],"fltCat":"VFR"},{"icaoId":"KASE","receiptTime":"2026-04-16T02:56:31.893Z","obsTime":1776307980,"reportTime":"2026-04-16T03:00:00.000Z","temp":2.8,"dewp":-5,"wdir":200,"wspd":6,"visib":"10+","altim":1017.4,"slp":1013,"qcField":6,"presTend":0.6,"metarType":"METAR","rawOb":"METAR KASE 160253Z AUTO 20006KT 10SM CLR 03/M05 A3004 RMK AO2 SLP130 T00281050 52006","lat":39.2299,"lon":-106.8705,"elev":2384,"name":"Aspen/Pitkin Cnty, CO, US","cover":"CLR","clouds":[],"fltCat":"VFR"},{"icaoId":"KPRC","receiptTime":"2026-04-16T02:56:32.490Z","obsTime":1776307980,"reportTime":"2026-04-16T03:00:00.000Z","temp":14.4,"dewp":-6.1,"wdir":210,"wspd":4,"visib":"10+","altim":1017,"slp":1012.3,"qcField":4,"presTend":0.3,"metarType":"METAR","rawOb":"METAR KPRC 160253Z 21004KT 10SM CLR 14/M06 A3003 RMK AO2 SLP123 T01441061 53003","lat":34.6491,"lon":-112.4223,"elev":1528,"name":"Prescott/Love Fld, AZ, US","cover":"CLR","clouds":[],"fltCat":"VFR"},{"icaoId":"KPSC","receiptTime":"2026-04-16T02:56:32.504Z","obsTime":1776307980,"reportTime":"2026-04-16T03:00:00.000Z","temp":8.3,"dewp":-0.6,"wdir":230,"wspd":13,"visib":"10+","altim":1010.6,"slp":1010.4,"qcField":4,"presTend":1.7,"metarType":"METAR","rawOb":"METAR KPSC 160253Z 23013KT 10SM CLR 08/M01 A2984 RMK AO2 PK WND 24029/0211 SLP104 T00831006 53017","lat":46.2695,"lon":-119.1182,"elev":121,"name":"Pasco/Tri Cities Arpt, WA, US","cover":"CLR","clouds":[],"fltCat":"VFR"},{"icaoId":"KPSP","receiptTime":"2026-04-16T02:56:32.517Z","obsTime":1776307980,"reportTime":"2026-04-16T03:00:00.000Z","temp":26.7,"dewp":6.1,"wdir":330,"wspd":12,"wgst":20,"visib":"10+","altim":1011.3,"slp":1010.8,"qcField":12,"presTend":-0.1,"metarType":"METAR","rawOb":"METAR KPSP 160253Z 33012G20KT 10SM CLR 27/06 A2986 RMK AO2 WSHFT 0156 SLP108 T02670061 55001 $","lat":33.8222,"lon":-116.5043,"elev":123,"name":"Palm Springs Intl, CA, US","cover":"CLR","clouds":[],"fltCat":"VFR"},{"icaoId":"KPUB","receiptTime":"2026-04-16T02:56:32.548Z","obsTime":1776307980,"reportTime":"2026-04-16T03:00:00.000Z","temp":15.6,"dewp":-11.7,"wdir":0,"wspd":0,"visib":"10+","altim":1010.6,"slp":1007.2,"qcField":12,"presTend":1.1,"metarType":"METAR","rawOb":"METAR KPUB 160253Z 00000KT 10SM CLR 16/M12 A2984 RMK AO2 SLP072 T01561117 53011 $","lat":38.2887,"lon":-104.5057,"elev":1441,"name":"Pueblo Mem Arpt, CO, US","cover":"CLR","clouds":[],"fltCat":"VFR"},{"icaoId":"KPUW","receiptTime":"2026-04-16T02:56:32.579Z","obsTime":1776307980,"reportTime":"2026-04-16T03:00:00.000Z","temp":3.3,"dewp":-4.4,"wdir":250,"wspd":14,"wgst":23,"visib":"10+","altim":1008.5,"slp":1009.6,"qcField":6,"presTend":1.8,"pcp3hr":0.01,"metarType":"METAR","rawOb":"METAR KPUW 160253Z AUTO 25014G23KT 10SM BKN110 03/M04 A2978 RMK AO2 SLP096 60001 T00331044 51018","lat":46.7438,"lon":-117.1158,"elev":774,"name":"Pullman/Moscow Rgnl, WA, US","cover":"BKN","clouds":[{"cover":"BKN","base":11000}],"fltCat":"VFR"},{"icaoId":"KRDD","receiptTime":"2026-04-16T02:56:32.683Z","obsTime":1776307980,"reportTime":"2026-04-16T03:00:00.000Z","temp":15.6,"dewp":7.2,"wdir":310,"wspd":7,"visib":"10+","altim":1014.3,"slp":1013.9,"qcField":4,"presTend":0.6,"metarType":"METAR","rawOb":"METAR KRDD 160253Z 31007KT 10SM FEW075 16/07 A2995 RMK AO2 SLP139 T01560072 53006","lat":40.5146,"lon":-122.2977,"elev":152,"name":"Redding Muni, CA, US","cover":"FEW","clouds":[{"cover":"FEW","base":7500}],"fltCat":"VFR"},{"icaoId":"KRIW","receiptTime":"2026-04-16T02:56:21.037Z","obsTime":1776307980,"reportTime":"2026-04-16T03:00:00.000Z","temp":10.6,"dewp":-2.2,"wdir":190,"wspd":11,"visib":"10+","altim":1006.9,"slp":1004.7,"qcField":6,"presTend":0.1,"metarType":"METAR","rawOb":"METAR KRIW 160253Z AUTO 19011KT 10SM CLR 11/M02 A2973 RMK AO2 SLP047 T01061022 53001","lat":43.0622,"lon":-108.4471,"elev":1662,"name":"Riverton Rgnl, WY, US","cover":"CLR","clouds":[],"fltCat":"VFR"},{"icaoId":"KIDA","receiptTime":"2026-04-16T02:56:34.771Z","obsTime":1776307980,"reportTime":"2026-04-16T03:00:00.000Z","temp":7.2,"dewp":3.3,"wdir":190,"wspd":8,"visib":"10+","altim":1006.2,"slp":1005.3,"qcField":6,"presTend":-2.9,"pcp3hr":0.01,"metarType":"METAR","rawOb":"METAR KIDA 160253Z AUTO 19008KT 10SM SCT085 07/03 A2971 RMK AO2 SLP053 60001 T00720033 58029","lat":43.5204,"lon":-112.0675,"elev":1444,"name":"Idaho Falls Rgnl, ID, US","cover":"SCT","clouds":[{"cover":"SCT","base":8500}],"fltCat":"VFR"},{"icaoId":"KLAR","receiptTime":"2026-04-16T02:56:28.267Z","obsTime":1776307980,"reportTime":"2026-04-16T03:00:00.000Z","temp":7.2,"dewp":-4.4,"wdir":210,"wspd":8,"visib":"10+","altim":1013,"slp":1009.4,"qcField":14,"presTend":0.5,"metarType":"METAR","rawOb":"METAR KLAR 160253Z AUTO 21008KT 10SM CLR 07/M04 A2991 RMK AO2 SLP094 T00721044 53005 $","lat":41.3165,"lon":-105.6729,"elev":2217,"name":"Laramie Rgnl, WY, US","cover":"CLR","clouds":[],"fltCat":"VFR"},{"icaoId":"KLAX","receiptTime":"2026-04-16T02:56:26.711Z","obsTime":1776307980,"reportTime":"2026-04-16T03:00:00.000Z","temp":16.1,"dewp":12.2,"wdir":270,"wspd":14,"visib":"10+","altim":1014.6,"slp":1014.5,"qcField":4,"presTend":-0.6,"metarType":"METAR","rawOb":"METAR KLAX 160253Z 27014KT 10SM FEW015 FEW250 16/12 A2996 RMK AO2 SLP145 T01610122 56006","lat":33.9382,"lon":-118.3866,"elev":30,"name":"Los Angeles Intl, CA, US","cover":"FEW","clouds":[{"cover":"FEW","base":1500},{"cover":"FEW","base":25000}],"fltCat":"VFR"},{"icaoId":"KHLN","receiptTime":"2026-04-16T02:56:32.978Z","obsTime":1776307980,"reportTime":"2026-04-16T03:00:00.000Z","temp":6.1,"dewp":-1.1,"wdir":260,"wspd":25,"wgst":37,"visib":"10+","altim":1002.1,"slp":1003.8,"qcField":4,"presTend":2.7,"metarType":"METAR","rawOb":"METAR KHLN 160253Z 26025G37KT 10SM SCT075 BKN095 06/M01 A2959 RMK AO2 PK WND 27037/0253 SLP038 T00611011 53027","lat":46.6045,"lon":-111.9892,"elev":1178,"name":"Helena Rgnl, MT, US","cover":"BKN","clouds":[{"cover":"SCT","base":7500},{"cover":"BKN","base":9500}],"fltCat":"VFR"},{"icaoId":"KGJT","receiptTime":"2026-04-16T02:56:33.280Z","obsTime":1776307980,"reportTime":"2026-04-16T03:00:00.000Z","temp":12.2,"dewp":3.9,"wdir":40,"wspd":6,"visib":"10+","altim":1013.6,"slp":1010.8,"qcField":4,"presTend":-0.4,"metarType":"METAR","rawOb":"METAR KGJT 160253Z 04006KT 10SM CLR 12/04 A2993 RMK AO2 SLP108 T01220039 55004","lat":39.1344,"lon":-108.5408,"elev":1475,"name":"Grand Junction Rgnl, CO, US","cover":"CLR","clouds":[],"fltCat":"VFR"},{"icaoId":"KFUL","receiptTime":"2026-04-16T02:56:22.455Z","obsTime":1776307980,"reportTime":"2026-04-16T03:00:00.000Z","temp":19.4,"dewp":8.9,"wdir":270,"wspd":5,"visib":"10+","altim":1014.3,"slp":1013.9,"qcField":4,"presTend":-0.1,"metarType":"METAR","rawOb":"METAR KFUL 160253Z 27005KT 10SM CLR 19/09 A2995 RMK AO2 SLP139 T01940089 55001","lat":33.8715,"lon":-117.9856,"elev":23,"name":"Fullerton Muni, CA, US","cover":"CLR","clouds":[],"fltCat":"VFR"},{"icaoId":"KBNA","receiptTime":"2026-04-16T02:56:33.646Z","obsTime":1776307980,"reportTime":"2026-04-16T03:00:00.000Z","temp":20.6,"dewp":10.6,"wdir":190,"wspd":5,"visib":"10+","altim":1016.7,"slp":1016,"qcField":4,"presTend":0.7,"metarType":"METAR","rawOb":"METAR KBNA 160253Z 19005KT 10SM SCT250 21/11 A3002 RMK AO2 SLP160 T02060106 51007","lat":36.1105,"lon":-86.6881,"elev":168,"name":"Nashville Intl, TN, US","cover":"SCT","clouds":[{"cover":"SCT","base":25000}],"fltCat":"VFR"},{"icaoId":"KDRO","receiptTime":"2026-04-16T02:56:30.281Z","obsTime":1776307980,"reportTime":"2026-04-16T03:00:00.000Z","temp":8.9,"dewp":-5.6,"wdir":240,"wspd":7,"visib":"10+","altim":1018,"slp":1015.9,"qcField":6,"presTend":0.5,"metarType":"METAR","rawOb":"METAR KDRO 160253Z AUTO 24007KT 10SM CLR 09/M06 A3006 RMK AO2 SLP159 T00891056 53005","lat":37.1431,"lon":-107.7602,"elev":2021,"name":"Durango/La Plata Cnty, CO, US","cover":"CLR","clouds":[],"fltCat":"VFR"},{"icaoId":"KCPR","receiptTime":"2026-04-16T02:56:34.146Z","obsTime":1776307980,"reportTime":"2026-04-16T03:00:00.000Z","temp":13.9,"dewp":-5,"wdir":240,"wspd":18,"wgst":23,"visib":"10+","altim":1006.9,"slp":1003.2,"qcField":4,"presTend":0.4,"metarType":"METAR","rawOb":"METAR KCPR 160253Z 24018G23KT 10SM CLR 14/M05 A2973 RMK AO2 PK WND 24031/0158 SLP032 T01391050 53004","lat":42.8978,"lon":-106.4736,"elev":1623,"name":"Casper/Natrona Cnty, WY, US","cover":"CLR","clouds":[],"fltCat":"VFR"},{"icaoId":"KDAL","receiptTime":"2026-04-16T02:56:29.894Z","obsTime":1776307980,"reportTime":"2026-04-16T03:00:00.000Z","temp":23.9,"dewp":20,"wdir":180,"wspd":7,"visib":"10+","altim":1012.3,"slp":1011.7,"qcField":4,"presTend":0.4,"pcp3hr":0.005,"metarType":"METAR","rawOb":"METAR KDAL 160253Z 18007KT 10SM SCT085 BKN250 24/20 A2989 RMK AO2 SLP117 OCNL LTGIC CB DSNT N-NE MOV NE 60000 T02390200 53004","lat":32.8384,"lon":-96.8358,"elev":148,"name":"Dallas/Love Fld, TX, US","cover":"BKN","clouds":[{"cover":"SCT","base":8500},{"cover":"BKN","base":25000}],"fltCat":"VFR"},{"icaoId":"KTUL","receiptTime":"2026-04-16T02:56:29.043Z","obsTime":1776307980,"reportTime":"2026-04-16T03:00:00.000Z","temp":22.2,"dewp":18.9,"wdir":180,"wspd":10,"visib":"10+","altim":1009.6,"slp":1008.7,"qcField":4,"presTend":0.4,"metarType":"METAR","rawOb":"METAR KTUL 160253Z 18010KT 10SM FEW030 BKN150 OVC200 22/19 A2981 RMK AO2 SLP087 OCNL LTGICCG DSNT NW CB NW MOV E T02220189 53004","lat":36.1985,"lon":-95.8782,"elev":196,"name":"Tulsa Intl Arpt, OK, US","cover":"OVC","clouds":[{"cover":"FEW","base":3000},{"cover":"BKN","base":15000},{"cover":"OVC","base":20000}],"fltCat":"VFR"},{"icaoId":"KMYR","receiptTime":"2026-04-16T02:56:17.885Z","obsTime":1776307980,"reportTime":"2026-04-16T03:00:00.000Z","temp":18.9,"dewp":17.2,"wdir":170,"wspd":6,"visib":"10+","altim":1020.1,"slp":1019.9,"qcField":14,"presTend":0.7,"metarType":"METAR","rawOb":"METAR KMYR 160253Z AUTO 17006KT 10SM CLR 19/17 A3012 RMK AO2 SLP199 T01890172 51007 $","lat":33.6769,"lon":-78.9325,"elev":7,"name":"Myrtle Beach Intl, SC, US","cover":"CLR","clouds":[],"fltCat":"VFR"},{"icaoId":"KMIA","receiptTime":"2026-04-16T02:56:20.398Z","obsTime":1776307980,"reportTime":"2026-04-16T03:00:00.000Z","temp":23.9,"dewp":14.4,"wdir":80,"wspd":11,"visib":"10+","altim":1020.1,"slp":1020,"qcField":0,"metarType":"METAR","rawOb":"METAR KMIA 160253Z 08011KT 10SM BKN043 24/14 A3012 RMK SLP200 T02390144","lat":25.7881,"lon":-80.3169,"elev":1,"name":"Miami Intl, FL, US","cover":"BKN","clouds":[{"cover":"BKN","base":4300}],"fltCat":"VFR"},{"icaoId":"KACV","receiptTime":"2026-04-16T02:56:35.392Z","obsTime":1776307980,"reportTime":"2026-04-16T03:00:00.000Z","temp":8.3,"dewp":3.3,"wdir":350,"wspd":6,"visib":"10+","altim":1021.4,"slp":1021.9,"qcField":6,"presTend":1,"metarType":"METAR","rawOb":"METAR KACV 160253Z AUTO 35006KT 10SM CLR 08/03 A3016 RMK AO2 SLP219 T00830033 53010","lat":40.9784,"lon":-124.1048,"elev":63,"name":"Arcata Arpt, CA, US","cover":"CLR","clouds":[],"fltCat":"VFR"},{"icaoId":"KBCE","receiptTime":"2026-04-16T02:56:32.049Z","obsTime":1776307980,"reportTime":"2026-04-16T03:00:00.000Z","temp":4.4,"dewp":-5,"wdir":240,"wspd":4,"visib":"10+","altim":1018.4,"slp":1013.1,"qcField":6,"presTend":0.2,"metarType":"METAR","rawOb":"METAR KBCE 160253Z AUTO 24004KT 10SM CLR 04/M05 A3007 RMK AO2 SLP131 T00441050 53002","lat":37.7013,"lon":-112.149,"elev":2311,"name":"Bryce Canyon Arpt, UT, US","cover":"CLR","clouds":[],"fltCat":"VFR"},{"icaoId":"KBFI","receiptTime":"2026-04-16T02:56:32.155Z","obsTime":1776307980,"reportTime":"2026-04-16T03:00:00.000Z","temp":4.4,"dewp":2.8,"wdir":0,"wspd":0,"visib":9,"altim":1014.6,"slp":1014.5,"qcField":4,"wxString":"-RA","presTend":2.3,"precip":0.005,"pcp3hr":0.04,"metarType":"METAR","rawOb":"METAR KBFI 160253Z 00000KT 9SM -RA SCT019 BKN024 OVC038 04/03 A2996 RMK AO2 LTG DSNT SE RAB30 SLP145 P0000 60004 T00440028 53023","lat":47.5455,"lon":-122.3148,"elev":7,"name":"Seattle/Boeing Fld, WA, US","cover":"OVC","clouds":[{"cover":"SCT","base":1900},{"cover":"BKN","base":2400},{"cover":"OVC","base":3800}],"fltCat":"MVFR"},{"icaoId":"KHOU","receiptTime":"2026-04-16T02:56:33.008Z","obsTime":1776307980,"reportTime":"2026-04-16T03:00:00.000Z","temp":23.3,"dewp":20.6,"wdir":160,"wspd":9,"visib":"10+","altim":1015.7,"slp":1015.9,"qcField":4,"presTend":0.4,"metarType":"METAR","rawOb":"METAR KHOU 160253Z 16009KT 10SM FEW020 FEW070 FEW250 23/21 A2999 RMK AO2 SLP159 T02330206 53004","lat":29.6458,"lon":-95.2821,"elev":13,"name":"Houston/Hobby Arpt, TX, US","cover":"FEW","clouds":[{"cover":"FEW","base":2000},{"cover":"FEW","base":7000},{"cover":"FEW","base":25000}],"fltCat":"VFR"},{"icaoId":"KLAW","receiptTime":"2026-04-16T02:56:20.136Z","obsTime":1776307980,"reportTime":"2026-04-16T03:00:00.000Z","temp":17.8,"dewp":15.6,"wdir":200,"wspd":3,"visib":"10+","altim":1010.6,"slp":1009.8,"qcField":6,"presTend":1,"metarType":"METAR","rawOb":"METAR KLAW 160253Z AUTO 20003KT 10SM CLR 18/16 A2984 RMK AO2 SLP098 T01780156 53010","lat":34.5577,"lon":-98.4172,"elev":328,"name":"Lawton-Fort Sill Rgnl, OK, US","cover":"CLR","clouds":[],"fltCat":"VFR"},{"icaoId":"KMCI","receiptTime":"2026-04-16T02:56:30.347Z","obsTime":1776307980,"reportTime":"2026-04-16T03:00:00.000Z","temp":19.4,"dewp":10,"wdir":320,"wspd":8,"visib":"10+","altim":1008.5,"slp":1007.7,"qcField":4,"presTend":2.4,"metarType":"METAR","rawOb":"METAR KMCI 160253Z 32008KT 10SM CLR 19/10 A2978 RMK AO2 SLP077 T01940100 53024","lat":39.2975,"lon":-94.7309,"elev":308,"name":"Kansas City Intl, MO, US","cover":"CLR","clouds":[],"fltCat":"VFR"},{"icaoId":"KMCO","receiptTime":"2026-04-16T02:56:20.252Z","obsTime":1776307980,"reportTime":"2026-04-16T03:00:00.000Z","temp":20,"dewp":14.4,"wdir":120,"wspd":6,"visib":"10+","altim":1022.1,"slp":1021.7,"qcField":4,"presTend":1.4,"metarType":"METAR","rawOb":"METAR KMCO 160253Z 12006KT 10SM CLR 20/14 A3018 RMK AO2 SLP217 T02000144 53014","lat":28.4182,"lon":-81.3241,"elev":27,"name":"Orlando Intl, FL, US","cover":"CLR","clouds":[],"fltCat":"VFR"},{"icaoId":"KMFE","receiptTime":"2026-04-16T02:56:20.299Z","obsTime":1776307980,"reportTime":"2026-04-16T03:00:00.000Z","temp":25,"dewp":20,"wdir":130,"wspd":12,"visib":"10+","altim":1013.6,"slp":1013.2,"qcField":4,"presTend":2.2,"metarType":"METAR","rawOb":"METAR KMFE 160253Z 13012KT 10SM CLR 25/20 A2993 RMK AO2 SLP132 T02500200 53022","lat":26.1791,"lon":-98.2445,"elev":29,"name":"McAllen/Miller Intl, TX, US","cover":"CLR","clouds":[],"fltCat":"VFR"},{"icaoId":"KMLS","receiptTime":"2026-04-16T02:56:26.823Z","obsTime":1776307980,"reportTime":"2026-04-16T03:00:00.000Z","temp":14.4,"dewp":3.3,"wdir":130,"wspd":5,"visib":"10+","altim":999.4,"slp":998.9,"qcField":6,"presTend":-1.1,"metarType":"METAR","rawOb":"METAR KMLS 160253Z AUTO 13005KT 10SM OVC110 14/03 A2951 RMK AO2 SLP989 T01440033 56011","lat":46.4265,"lon":-105.8834,"elev":800,"name":"Miles City/Wiley Fld, MT, US","cover":"OVC","clouds":[{"cover":"OVC","base":11000}],"fltCat":"VFR"},{"icaoId":"KLBB","receiptTime":"2026-04-16T02:56:20.902Z","obsTime":1776307980,"reportTime":"2026-04-16T03:00:00.000Z","temp":20.6,"dewp":-8.3,"wdir":190,"wspd":6,"visib":"10+","altim":1013,"slp":1008.7,"qcField":4,"presTend":0.6,"metarType":"METAR","rawOb":"METAR KLBB 160253Z 19006KT 10SM CLR 21/M08 A2991 RMK AO2 SLP087 T02061083 53006","lat":33.6658,"lon":-101.8233,"elev":996,"name":"Lubbock Intl Arpt, TX, US","cover":"CLR","clouds":[],"fltCat":"VFR"},{"icaoId":"KMYF","receiptTime":"2026-04-16T02:56:21.885Z","obsTime":1776307980,"reportTime":"2026-04-16T03:00:00.000Z","temp":16.1,"dewp":12.8,"wdir":290,"wspd":6,"visib":"10+","altim":1015.3,"slp":1015.1,"qcField":4,"presTend":0.2,"metarType":"METAR","rawOb":"METAR KMYF 160253Z 29006KT 10SM CLR 16/13 A2998 RMK AO2 SLP151 T01610128 53002","lat":32.8145,"lon":-117.1375,"elev":128,"name":"San Diego/Montgomery Arpt, CA, US","cover":"CLR","clouds":[],"fltCat":"VFR"},{"icaoId":"KYKM","receiptTime":"2026-04-16T02:56:22.023Z","obsTime":1776307980,"reportTime":"2026-04-16T03:00:00.000Z","temp":7.2,"dewp":-6.7,"wdir":290,"wspd":15,"wgst":22,"visib":"10+","altim":1009.9,"slp":1010.4,"qcField":4,"presTend":1.7,"metarType":"METAR","rawOb":"METAR KYKM 160253Z 29015G22KT 10SM CLR 07/M07 A2982 RMK AO2 SLP104 T00721067 53017","lat":46.564,"lon":-120.5349,"elev":319,"name":"Yakima/McAllister Fld, WA, US","cover":"CLR","clouds":[],"fltCat":"VFR"},{"icaoId":"KDLN","receiptTime":"2026-04-16T02:56:23.039Z","obsTime":1776307980,"reportTime":"2026-04-16T03:00:00.000Z","temp":8.9,"dewp":-0.6,"wdir":210,"wspd":33,"wgst":46,"visib":"10+","altim":1000.8,"slp":998.5,"qcField":6,"presTend":-0.1,"pcp3hr":0.005,"metarType":"METAR","rawOb":"METAR KDLN 160253Z AUTO 21033G46KT 10SM SCT060 OVC075 09/M01 A2955 RMK AO2 PK WND 20046/0253 SLP985 60000 T00891006 56001","lat":45.2584,"lon":-112.5546,"elev":1586,"name":"Dillon Arpt, MT, US","cover":"OVC","clouds":[{"cover":"SCT","base":6000},{"cover":"OVC","base":7500}],"fltCat":"VFR"},{"icaoId":"KBOI","receiptTime":"2026-04-16T02:56:34.934Z","obsTime":1776307980,"reportTime":"2026-04-16T03:00:00.000Z","temp":6.1,"dewp":2.8,"wdir":360,"wspd":8,"visib":"10+","altim":1009.2,"slp":1009.2,"qcField":4,"presTend":3.7,"precip":0.01,"pcp3hr":0.25,"metarType":"METAR","rawOb":"METAR KBOI 160253Z 36008KT 10SM OVC048 06/03 A2980 RMK AO2 RAE26 SLP092 P0001 60025 T00610028 51037","lat":43.567,"lon":-116.2406,"elev":860,"name":"Boise Arpt, ID, US","cover":"OVC","clouds":[{"cover":"OVC","base":4800}],"fltCat":"VFR"},{"icaoId":"KDVT","receiptTime":"2026-04-16T02:56:23.548Z","obsTime":1776307980,"reportTime":"2026-04-16T03:00:00.000Z","temp":25,"dewp":-6.1,"wdir":250,"wspd":5,"visib":"10+","altim":1012.3,"slp":1010.2,"qcField":4,"presTend":-0.1,"metarType":"METAR","rawOb":"METAR KDVT 160253Z 25005KT 10SM CLR 25/M06 A2989 RMK AO2 SLP102 T02501061 55001","lat":33.6902,"lon":-112.0662,"elev":454,"name":"Phoenix/Deer Valley Arpt, AZ, US","cover":"CLR","clouds":[],"fltCat":"VFR"},{"icaoId":"KEVW","receiptTime":"2026-04-16T02:56:23.579Z","obsTime":1776307980,"reportTime":"2026-04-16T03:00:00.000Z","temp":5.6,"dewp":-4.4,"wdir":230,"wspd":8,"visib":"10+","altim":1011.6,"slp":1008.2,"qcField":14,"presTend":-0.9,"metarType":"METAR","rawOb":"METAR KEVW 160253Z AUTO 23008KT 10SM SCT070 06/M04 A2987 RMK AO2 SLP082 T00561044 55009 $","lat":41.2727,"lon":-111.0305,"elev":2178,"name":"Evanston/Uinta Cnty, WY, US","cover":"SCT","clouds":[{"cover":"SCT","base":7000}],"fltCat":"VFR"},{"icaoId":"KBIL","receiptTime":"2026-04-16T02:56:24.185Z","obsTime":1776307980,"reportTime":"2026-04-16T03:00:00.000Z","temp":13.3,"dewp":-1.7,"wdir":260,"wspd":8,"visib":"10+","altim":1000.4,"slp":999.4,"qcField":4,"presTend":-0.2,"metarType":"METAR","rawOb":"METAR KBIL 160253Z 26008KT 10SM SCT120 13/M02 A2954 RMK AO2 SLP994 T01331017 55002","lat":45.8072,"lon":-108.5462,"elev":1089,"name":"Billings/Logan Intl, MT, US","cover":"SCT","clouds":[{"cover":"SCT","base":12000}],"fltCat":"VFR"},{"icaoId":"KCLL","receiptTime":"2026-04-16T02:56:29.754Z","obsTime":1776307980,"reportTime":"2026-04-16T03:00:00.000Z","temp":23.3,"dewp":17.8,"wdir":170,"wspd":10,"visib":"10+","altim":1014.6,"slp":1014,"qcField":6,"presTend":1.4,"metarType":"METAR","rawOb":"METAR KCLL 160253Z AUTO 17010KT 10SM CLR 23/18 A2996 RMK AO2 SLP140 T02330178 53014","lat":30.5912,"lon":-96.3631,"elev":96,"name":"College Station/Easterwood Arpt, TX, US","cover":"CLR","clouds":[],"fltCat":"VFR"},{"icaoId":"KCRQ","receiptTime":"2026-04-16T02:56:24.299Z","obsTime":1776307980,"reportTime":"2026-04-16T03:00:00.000Z","temp":17.2,"dewp":13.3,"wdir":250,"wspd":3,"visib":"10+","altim":1015,"slp":1014.7,"qcField":6,"presTend":-0.1,"metarType":"METAR","rawOb":"METAR KCRQ 160253Z AUTO 25003KT 10SM CLR 17/13 A2997 RMK AO2 SLP147 T01720133 55001","lat":33.1299,"lon":-117.2765,"elev":96,"name":"Carlsbad/Palomar Arpt, CA, US","cover":"CLR","clouds":[],"fltCat":"VFR"},{"icaoId":"KFMN","receiptTime":"2026-04-16T02:56:24.504Z","obsTime":1776307980,"reportTime":"2026-04-16T03:00:00.000Z","temp":13.3,"dewp":-8.3,"wdir":200,"wspd":3,"visib":"10+","altim":1016.7,"slp":1014.8,"qcField":4,"metarType":"METAR","rawOb":"METAR KFMN 160253Z 20003KT 10SM CLR 13/M08 A3002 RMK AO2 SLP148 T01331083 55000","lat":36.7435,"lon":-108.2293,"elev":1677,"name":"Farmington/Four Corners Rgnl, NM, US","cover":"CLR","clouds":[],"fltCat":"VFR"},{"icaoId":"KSTS","receiptTime":"2026-04-16T02:56:32.896Z","obsTime":1776307980,"reportTime":"2026-04-16T03:00:00.000Z","temp":14.4,"dewp":8.9,"wdir":280,"wspd":5,"visib":"10+","altim":1017.4,"slp":1016.7,"qcField":6,"presTend":0.7,"metarType":"METAR","rawOb":"METAR KSTS 160253Z AUTO 28005KT 10SM CLR 14/09 A3004 RMK AO2 SLP167 T01440089 53007","lat":38.5037,"lon":-122.811,"elev":35,"name":"Santa Rosa/Schulz Arpt, CA, US","cover":"CLR","clouds":[],"fltCat":"VFR"},{"icaoId":"KTUS","receiptTime":"2026-04-16T02:56:25.923Z","obsTime":1776307980,"reportTime":"2026-04-16T03:00:00.000Z","temp":22.8,"dewp":-11.1,"wdir":330,"wspd":6,"visib":"10+","altim":1014.3,"slp":1010.9,"qcField":12,"presTend":-0.1,"metarType":"METAR","rawOb":"METAR KTUS 160253Z 33006KT 10SM CLR 23/M11 A2995 RMK AO2 SLP109 T02281111 55001 $","lat":32.1315,"lon":-110.9564,"elev":776,"name":"Tucson Intl Arpt, AZ, US","cover":"CLR","clouds":[],"fltCat":"VFR"},{"icaoId":"KTWF","receiptTime":"2026-04-16T02:56:29.111Z","obsTime":1776307980,"reportTime":"2026-04-16T03:00:00.000Z","temp":9.4,"dewp":5,"wdir":290,"wspd":11,"visib":"10+","altim":1006.5,"slp":1003.7,"qcField":12,"presTend":-0.9,"metarType":"METAR","rawOb":"METAR KTWF 160253Z 29011KT 10SM OVC090 09/05 A2972 RMK AO2 SLP037 6//// T00940050 55009 $","lat":42.4785,"lon":-114.4775,"elev":1269,"name":"Twin Falls/Joslin Fld, ID, US","cover":"OVC","clouds":[{"cover":"OVC","base":9000}],"fltCat":"VFR"},{"icaoId":"KIAD","receiptTime":"2026-04-16T02:56:17.650Z","obsTime":1776307920,"reportTime":"2026-04-16T03:00:00.000Z","temp":26.1,"dewp":11.1,"wdir":200,"wspd":8,"visib":"10+","altim":1013,"slp":1012.6,"qcField":4,"presTend":1,"metarType":"METAR","rawOb":"METAR KIAD 160252Z 20008KT 10SM BKN240 26/11 A2991 RMK AO2 SLP126 T02610111 51010","lat":38.9348,"lon":-77.4473,"elev":90,"name":"Washington/Dulles Intl, VA, US","cover":"BKN","clouds":[{"cover":"BKN","base":24000}],"fltCat":"VFR"},{"icaoId":"KATL","receiptTime":"2026-04-16T02:56:26.901Z","obsTime":1776307920,"reportTime":"2026-04-16T03:00:00.000Z","temp":22.8,"dewp":11.7,"wdir":230,"wspd":5,"visib":"10+","altim":1019.7,"slp":1018.7,"qcField":12,"presTend":1,"metarType":"METAR","rawOb":"METAR KATL 160252Z 23005KT 10SM SCT250 23/12 A3011 RMK AO2 SLP187 T02280117 53010 $","lat":33.6297,"lon":-84.4422,"elev":309,"name":"Atlanta/Hartsfield-Jackson Intl, GA, US","cover":"SCT","clouds":[{"cover":"SCT","base":25000}],"fltCat":"VFR"},{"icaoId":"KCLT","receiptTime":"2026-04-16T02:56:25.092Z","obsTime":1776307920,"reportTime":"2026-04-16T03:00:00.000Z","temp":23.3,"dewp":11.1,"wdir":200,"wspd":4,"visib":"10+","altim":1018.4,"slp":1018.8,"qcField":4,"presTend":0.8,"metarType":"METAR","rawOb":"METAR KCLT 160252Z 20004KT 10SM BKN250 23/11 A3007 RMK AO2 SLP188 T02330111 51008","lat":35.2225,"lon":-80.9543,"elev":223,"name":"Charlotte/Douglas Intl, NC, US","cover":"BKN","clouds":[{"cover":"BKN","base":25000}],"fltCat":"VFR"},{"icaoId":"KDCA","receiptTime":"2026-04-16T02:56:25.170Z","obsTime":1776307920,"reportTime":"2026-04-16T03:00:00.000Z","temp":26.7,"dewp":12.8,"wdir":200,"wspd":11,"visib":"10+","altim":1012.6,"slp":1012.6,"qcField":4,"presTend":0.8,"metarType":"METAR","rawOb":"METAR KDCA 160252Z 20011KT 10SM FEW150 SCT250 27/13 A2990 RMK AO2 SLP126 T02670128 51008","lat":38.8472,"lon":-77.0345,"elev":4,"name":"Washington/Reagan-National Arpt, VA, US","cover":"SCT","clouds":[{"cover":"FEW","base":15000},{"cover":"SCT","base":25000}],"fltCat":"VFR"},{"icaoId":"KMLF","receiptTime":"2026-04-16T02:56:30.898Z","obsTime":1776307920,"reportTime":"2026-04-16T03:00:00.000Z","temp":14.4,"dewp":-4.4,"wdir":190,"wspd":17,"visib":"10+","altim":1013.3,"slp":1010,"qcField":6,"presTend":0.1,"metarType":"METAR","rawOb":"METAR KMLF 160252Z AUTO 19017KT 10SM CLR 14/M04 A2992 RMK AO2 SLP100 T01441044 53001","lat":38.4225,"lon":-113.0109,"elev":1537,"name":"Milford Muni, UT, US","cover":"CLR","clouds":[],"fltCat":"VFR"},{"icaoId":"KCVG","receiptTime":"2026-04-16T02:56:25.149Z","obsTime":1776307920,"reportTime":"2026-04-16T03:00:00.000Z","temp":22.8,"dewp":15,"wdir":190,"wspd":8,"visib":"10+","altim":1013.6,"slp":1012.5,"qcField":4,"presTend":-0.5,"metarType":"METAR","rawOb":"METAR KCVG 160252Z 19008KT 10SM FEW060 BKN180 BKN250 23/15 A2993 RMK AO2 SLP125 T02280150 58005","lat":39.0444,"lon":-84.6724,"elev":264,"name":"Cincinnati Intl, KY, US","cover":"BKN","clouds":[{"cover":"FEW","base":6000},{"cover":"BKN","base":18000},{"cover":"BKN","base":25000}],"fltCat":"VFR"},{"icaoId":"KHRL","receiptTime":"2026-04-16T02:56:27.005Z","obsTime":1776307920,"reportTime":"2026-04-16T03:00:00.000Z","temp":23.3,"dewp":21.7,"wdir":130,"wspd":9,"visib":"10+","altim":1013.6,"slp":1013.3,"qcField":4,"presTend":1.8,"metarType":"METAR","rawOb":"METAR KHRL 160252Z 13009KT 10SM CLR 23/22 A2993 RMK AO2 SLP133 T02330217 53018","lat":26.2303,"lon":-97.6556,"elev":9,"name":"Harlingen/Valley Intl, TX, US","cover":"CLR","clouds":[],"fltCat":"VFR"},{"icaoId":"KSPS","receiptTime":"2026-04-16T02:56:30.791Z","obsTime":1776307920,"reportTime":"2026-04-16T03:00:00.000Z","temp":17.8,"dewp":16.1,"wdir":190,"wspd":9,"visib":"10+","altim":1010.9,"slp":1009.9,"qcField":4,"presTend":1.4,"metarType":"METAR","rawOb":"METAR KSPS 160252Z 19009KT 10SM CLR 18/16 A2985 RMK AO2 SLP099 T01780161 53014","lat":33.9785,"lon":-98.493,"elev":310,"name":"Wichita Falls Rgnl, TX, US","cover":"CLR","clouds":[],"fltCat":"VFR"},{"icaoId":"KMKE","receiptTime":"2026-04-16T02:56:29.705Z","obsTime":1776307920,"reportTime":"2026-04-16T03:00:00.000Z","temp":14.4,"dewp":13.9,"wdir":330,"wspd":7,"visib":7,"altim":1008.2,"slp":1008,"qcField":12,"wxString":"TSRA","presTend":1.9,"precip":0.18,"pcp3hr":0.73,"metarType":"METAR","rawOb":"METAR KMKE 160252Z 33007KT 7SM TSRA SCT004 SCT060CB OVC090 14/14 A2977 RMK AO2 SLP080 OCNL LTGCGICCC NE-SE-SW TS NE-SE-SW MOV NE OCNL LTG DSNT NE-SE-SW P0018 60073 T01440139 53019 $","lat":42.9549,"lon":-87.9045,"elev":203,"name":"Milwaukee/Mitchell Intl, WI, US","cover":"OVC","clouds":[{"cover":"SCT","base":400},{"cover":"SCT","base":6000},{"cover":"OVC","base":9000}],"fltCat":"VFR"},{"icaoId":"KABQ","receiptTime":"2026-04-16T02:56:30.711Z","obsTime":1776307920,"reportTime":"2026-04-16T03:00:00.000Z","temp":16.1,"dewp":-9.4,"wdir":10,"wspd":7,"visib":"10+","altim":1016.7,"slp":1012.1,"qcField":4,"presTend":0.5,"metarType":"METAR","rawOb":"METAR KABQ 160252Z 01007KT 10SM CLR 16/M09 A3002 RMK AO2 SLP121 T01611094 53005","lat":35.0419,"lon":-106.6154,"elev":1620,"name":"Albuquerque Intl, NM, US","cover":"CLR","clouds":[],"fltCat":"VFR"},{"icaoId":"KOKC","receiptTime":"2026-04-16T02:56:27.021Z","obsTime":1776307920,"reportTime":"2026-04-16T03:00:00.000Z","temp":18.3,"dewp":16.7,"wdir":190,"wspd":8,"visib":"10+","altim":1010.2,"slp":1008.9,"qcField":4,"presTend":0.7,"metarType":"METAR","rawOb":"METAR KOKC 160252Z 19008KT 10SM FEW065 FEW250 18/17 A2983 RMK AO2 SLP089 CONS LTGIC DSNT N CB DSNT N MOV E T01830167 53007","lat":35.3843,"lon":-97.6003,"elev":391,"name":"Oklahoma City/Will Rogers Intl, OK, US","cover":"FEW","clouds":[{"cover":"FEW","base":6500},{"cover":"FEW","base":25000}],"fltCat":"VFR"},{"icaoId":"KABI","receiptTime":"2026-04-16T02:56:30.695Z","obsTime":1776307920,"reportTime":"2026-04-16T03:00:00.000Z","temp":22.2,"dewp":15,"wdir":180,"wspd":10,"visib":"10+","altim":1012.6,"slp":1010.1,"qcField":12,"presTend":2,"metarType":"METAR","rawOb":"METAR KABI 160252Z 18010KT 10SM CLR 22/15 A2990 RMK AO2 SLP101 T02220150 51020 $","lat":32.4106,"lon":-99.6821,"elev":543,"name":"Abilene Rgnl, TX, US","cover":"CLR","clouds":[],"fltCat":"VFR"},{"icaoId":"KCRP","receiptTime":"2026-04-16T02:54:08.498Z","obsTime":1776307860,"reportTime":"2026-04-16T03:00:00.000Z","temp":23.9,"dewp":21.7,"wdir":150,"wspd":10,"visib":"10+","altim":1014.3,"slp":1013.9,"qcField":4,"presTend":1.6,"metarType":"METAR","rawOb":"METAR KCRP 160251Z 15010KT 10SM FEW015 FEW020 FEW250 24/22 A2995 RMK AO2 SLP139 T02390217 53016","lat":27.7734,"lon":-97.513,"elev":11,"name":"Corpus Christi Intl, TX, US","cover":"FEW","clouds":[{"cover":"FEW","base":1500},{"cover":"FEW","base":2000},{"cover":"FEW","base":25000}],"fltCat":"VFR"},{"icaoId":"KMYL","receiptTime":"2026-04-16T02:54:08.849Z","obsTime":1776307860,"reportTime":"2026-04-16T03:00:00.000Z","temp":0.6,"dewp":-1.1,"wdir":0,"wspd":0,"visib":9,"altim":1007.2,"slp":1008.7,"qcField":6,"presTend":1.2,"precip":0.01,"pcp3hr":0.06,"metarType":"METAR","rawOb":"METAR KMYL 160251Z AUTO 00000KT 9SM FEW022 BKN055 OVC110 01/M01 A2974 RMK AO2 SNE08B30E51 SLP087 P0001 60006 T00061011 51012","lat":44.8943,"lon":-116.0998,"elev":1532,"name":"McCall Muni, ID, US","cover":"OVC","clouds":[{"cover":"FEW","base":2200},{"cover":"BKN","base":5500},{"cover":"OVC","base":11000}],"fltCat":"VFR"},{"icaoId":"KLGU","receiptTime":"2026-04-16T02:54:08.798Z","obsTime":1776307860,"reportTime":"2026-04-16T03:00:00.000Z","temp":11.7,"dewp":3.9,"wdir":150,"wspd":10,"visib":"10+","altim":1009.2,"slp":1006.8,"qcField":6,"wxString":"-RA","presTend":-0.2,"precip":0.01,"pcp3hr":0.01,"metarType":"METAR","rawOb":"METAR KLGU 160251Z AUTO 15010KT 10SM -RA FEW043 BKN070 OVC085 12/04 A2980 RMK AO2 RAE02B35 SLP068 P0001 60001 T01170039 58002","lat":41.7865,"lon":-111.8519,"elev":1359,"name":"Logan/Cache Arpt, UT, US","cover":"OVC","clouds":[{"cover":"FEW","base":4300},{"cover":"BKN","base":7000},{"cover":"OVC","base":8500}],"fltCat":"VFR"},{"icaoId":"KIGM","receiptTime":"2026-04-16T02:54:08.704Z","obsTime":1776307860,"reportTime":"2026-04-16T03:00:00.000Z","temp":17.2,"dewp":-8.3,"wdir":200,"wspd":9,"visib":"10+","altim":1014.6,"slp":1009.9,"qcField":6,"metarType":"METAR","rawOb":"METAR KIGM 160251Z AUTO 20009KT 10SM CLR 17/M08 A2996 RMK AO2 SLP099 T01721083 53000","lat":35.2575,"lon":-113.9341,"elev":1045,"name":"Kingman Arpt, AZ, US","cover":"CLR","clouds":[],"fltCat":"VFR"},{"icaoId":"KELP","receiptTime":"2026-04-16T02:54:08.582Z","obsTime":1776307860,"reportTime":"2026-04-16T03:00:00.000Z","temp":21.1,"dewp":-14.4,"wdir":330,"wspd":6,"visib":"10+","altim":1015.3,"slp":1009.5,"qcField":4,"presTend":0.5,"metarType":"METAR","rawOb":"METAR KELP 160251Z 33006KT 10SM CLR 21/M14 A2998 RMK AO2 SLP095 T02111144 53005","lat":31.8123,"lon":-106.3774,"elev":1205,"name":"El Paso Intl, TX, US","cover":"CLR","clouds":[],"fltCat":"VFR"},{"icaoId":"KCMH","receiptTime":"2026-04-16T02:54:08.454Z","obsTime":1776307860,"reportTime":"2026-04-16T03:00:00.000Z","temp":23.3,"dewp":15.6,"wdir":180,"wspd":6,"visib":"10+","altim":1013,"slp":1012.1,"qcField":4,"presTend":0.1,"metarType":"METAR","rawOb":"METAR KCMH 160251Z 18006KT 10SM FEW090 BKN250 23/16 A2991 RMK AO2 SLP121 T02330156 50001","lat":39.9907,"lon":-82.877,"elev":257,"name":"Columbus/Glenn Intl, OH, US","cover":"BKN","clouds":[{"cover":"FEW","base":9000},{"cover":"BKN","base":25000}],"fltCat":"VFR"},{"icaoId":"KACT","receiptTime":"2026-04-16T02:54:08.240Z","obsTime":1776307860,"reportTime":"2026-04-16T03:00:00.000Z","temp":23.3,"dewp":20,"wdir":150,"wspd":4,"visib":"10+","altim":1013.3,"slp":1012.6,"qcField":4,"presTend":1.8,"metarType":"METAR","rawOb":"METAR KACT 160251Z 15004KT 10SM CLR 23/20 A2992 RMK AO2 SLP126 T02330200 53018","lat":31.618,"lon":-97.2283,"elev":150,"name":"Waco Rgnl, TX, US","cover":"CLR","clouds":[],"fltCat":"VFR"},{"icaoId":"KBDL","receiptTime":"2026-04-16T02:54:08.330Z","obsTime":1776307860,"reportTime":"2026-04-16T03:00:00.000Z","temp":21.1,"dewp":15,"wdir":170,"wspd":4,"visib":"10+","altim":1010.9,"slp":1010.6,"qcField":4,"presTend":0.7,"metarType":"METAR","rawOb":"METAR KBDL 160251Z 17004KT 10SM FEW060 SCT100 SCT210 OVC250 21/15 A2985 RMK AO2 SLP106 OCNL LTGICCC DSNT S CB DSNT S MOV E T02110150 50007","lat":41.9374,"lon":-72.682,"elev":52,"name":"Hartford/Bradley Intl, CT, US","cover":"OVC","clouds":[{"cover":"FEW","base":6000},{"cover":"SCT","base":10000},{"cover":"SCT","base":21000},{"cover":"OVC","base":25000}],"fltCat":"VFR"},{"icaoId":"KRDU","receiptTime":"2026-04-16T02:54:09.022Z","obsTime":1776307860,"reportTime":"2026-04-16T03:00:00.000Z","temp":25.6,"dewp":11.7,"wdir":220,"wspd":11,"visib":"10+","altim":1017.7,"slp":1016.9,"qcField":4,"presTend":1.3,"metarType":"METAR","rawOb":"METAR KRDU 160251Z 22011KT 10SM BKN250 26/12 A3005 RMK AO2 SLP169 T02560117 51013","lat":35.8923,"lon":-78.782,"elev":121,"name":"Raleigh-Durham Intl, NC, US","cover":"BKN","clouds":[{"cover":"BKN","base":25000}],"fltCat":"VFR"},{"icaoId":"KCLE","receiptTime":"2026-04-16T02:54:08.419Z","obsTime":1776307860,"reportTime":"2026-04-16T03:00:00.000Z","temp":18.3,"dewp":17.2,"wdir":170,"wspd":4,"visib":"10+","altim":1011.9,"slp":1012.8,"qcField":12,"presTend":0.5,"metarType":"METAR","rawOb":"METAR KCLE 160251Z 17004KT 10SM BKN090 OVC110 18/17 A2988 RMK AO2 SLP128 T01830172 50005 $","lat":41.4057,"lon":-81.8519,"elev":237,"name":"Cleveland/Hopkins Intl, OH, US","cover":"OVC","clouds":[{"cover":"BKN","base":9000},{"cover":"OVC","base":11000}],"fltCat":"VFR"},{"icaoId":"KEWR","receiptTime":"2026-04-16T02:54:08.616Z","obsTime":1776307860,"reportTime":"2026-04-16T03:00:00.000Z","temp":26.7,"dewp":14.4,"wdir":200,"wspd":10,"visib":"10+","altim":1011.6,"slp":1011.6,"qcField":4,"presTend":1.3,"metarType":"METAR","rawOb":"METAR KEWR 160251Z 20010KT 10SM FEW060 FEW100 BKN250 27/14 A2987 RMK AO2 SLP116 T02670144 51013","lat":40.6828,"lon":-74.1692,"elev":2,"name":"Newark Intl, NJ, US","cover":"BKN","clouds":[{"cover":"FEW","base":6000},{"cover":"FEW","base":10000},{"cover":"BKN","base":25000}],"fltCat":"VFR"},{"icaoId":"KSAN","receiptTime":"2026-04-16T02:54:09.070Z","obsTime":1776307860,"reportTime":"2026-04-16T03:00:00.000Z","temp":16.7,"dewp":13.3,"wdir":310,"wspd":4,"visib":"10+","altim":1016,"slp":1015.8,"qcField":12,"presTend":0.1,"metarType":"METAR","rawOb":"METAR KSAN 160251Z 31004KT 10SM FEW020 SCT200 17/13 A3000 RMK AO2 SLP158 T01670133 53001 $","lat":32.7364,"lon":-117.1973,"elev":3,"name":"San Diego Intl Arpt, CA, US","cover":"SCT","clouds":[{"cover":"FEW","base":2000},{"cover":"SCT","base":20000}],"fltCat":"VFR"},{"icaoId":"KOXR","receiptTime":"2026-04-16T02:54:08.917Z","obsTime":1776307860,"reportTime":"2026-04-16T03:00:00.000Z","temp":15,"dewp":12.8,"wdir":260,"wspd":8,"visib":"10+","altim":1015,"slp":1014.7,"qcField":14,"presTend":-0.8,"metarType":"METAR","rawOb":"METAR KOXR 160251Z AUTO 26008KT 10SM CLR 15/13 A2997 RMK AO2 SLP147 T01500128 56008 $","lat":34.2001,"lon":-119.2042,"elev":12,"name":"Oxnard Arpt, CA, US","cover":"CLR","clouds":[],"fltCat":"VFR"},{"icaoId":"KORF","receiptTime":"2026-04-16T02:54:08.903Z","obsTime":1776307860,"reportTime":"2026-04-16T03:00:00.000Z","temp":24.4,"dewp":16.1,"wdir":200,"wspd":9,"visib":"10+","altim":1015.7,"slp":1015.3,"qcField":4,"presTend":0.9,"metarType":"METAR","rawOb":"METAR KORF 160251Z 20009KT 10SM CLR 24/16 A2999 RMK AO2 SLP153 T02440161 50009","lat":36.9037,"lon":-76.1927,"elev":5,"name":"Norfolk Intl, VA, US","cover":"CLR","clouds":[],"fltCat":"VFR"},{"icaoId":"KVNY","receiptTime":"2026-04-16T02:54:09.257Z","obsTime":1776307860,"reportTime":"2026-04-16T03:00:00.000Z","temp":19.4,"dewp":7.2,"wdir":290,"wspd":5,"visib":"10+","altim":1014.3,"slp":1013.6,"qcField":12,"presTend":-0.1,"metarType":"METAR","rawOb":"METAR KVNY 160251Z 29005KT 10SM CLR 19/07 A2995 RMK AO2 SLP136 T01940072 55001 $","lat":34.2121,"lon":-118.4915,"elev":241,"name":"Van Nuys Arpt, CA, US","cover":"CLR","clouds":[],"fltCat":"VFR"},{"icaoId":"KSAT","receiptTime":"2026-04-16T02:54:09.097Z","obsTime":1776307860,"reportTime":"2026-04-16T03:00:00.000Z","temp":25.6,"dewp":18.9,"wdir":150,"wspd":18,"wgst":25,"visib":"10+","altim":1014,"slp":1012.1,"qcField":4,"presTend":1.7,"metarType":"METAR","rawOb":"METAR KSAT 160251Z 15018G25KT 10SM BKN038 OVC060 26/19 A2994 RMK AO2 SLP121 T02560189 53017","lat":29.5443,"lon":-98.4839,"elev":246,"name":"San Antonio Intl, TX, US","cover":"OVC","clouds":[{"cover":"BKN","base":3800},{"cover":"OVC","base":6000}],"fltCat":"VFR"},{"icaoId":"KSAD","receiptTime":"2026-04-16T02:54:09.054Z","obsTime":1776307860,"reportTime":"2026-04-16T03:00:00.000Z","temp":20,"dewp":-10,"wdir":310,"wspd":7,"visib":"10+","altim":1013.6,"slp":1010.6,"qcField":6,"presTend":0.2,"metarType":"METAR","rawOb":"METAR KSAD 160251Z AUTO 31007KT 10SM CLR 20/M10 A2993 RMK AO2 SLP106 T02001100 53002","lat":32.8565,"lon":-109.636,"elev":937,"name":"Safford Rgnl, AZ, US","cover":"CLR","clouds":[],"fltCat":"VFR"},{"icaoId":"KLGA","receiptTime":"2026-04-16T02:56:17.734Z","obsTime":1776307860,"reportTime":"2026-04-16T03:00:00.000Z","temp":27.8,"dewp":14.4,"wdir":220,"wspd":11,"wgst":17,"visib":"10+","altim":1011.3,"slp":1011.2,"qcField":4,"presTend":1.1,"metarType":"METAR","rawOb":"METAR KLGA 160251Z 22011G17KT 10SM FEW080 BKN200 BKN250 28/14 A2986 RMK AO2 SLP112 OCNL LTGIC DSNT NE CB DSNT NE MOV E T02780144 51011","lat":40.7794,"lon":-73.8803,"elev":9,"name":"New York/La Guardia Arpt, NY, US","cover":"BKN","clouds":[{"cover":"FEW","base":8000},{"cover":"BKN","base":20000},{"cover":"BKN","base":25000}],"fltCat":"VFR"},{"icaoId":"KROW","receiptTime":"2026-04-16T02:54:09.038Z","obsTime":1776307860,"reportTime":"2026-04-16T03:00:00.000Z","temp":18.9,"dewp":-13.3,"wdir":280,"wspd":10,"visib":"10+","altim":1014,"slp":1008.8,"qcField":6,"presTend":1.4,"metarType":"METAR","rawOb":"METAR KROW 160251Z AUTO 28010KT 10SM CLR 19/M13 A2994 RMK AO2 SLP088 T01891133 53014","lat":33.3074,"lon":-104.5082,"elev":1105,"name":"Roswell/Ind Arpt, NM, US","cover":"CLR","clouds":[],"fltCat":"VFR"},{"icaoId":"KPVD","receiptTime":"2026-04-16T02:54:08.973Z","obsTime":1776307860,"reportTime":"2026-04-16T03:00:00.000Z","temp":13.3,"dewp":10,"wdir":0,"wspd":0,"visib":"10+","altim":1012.6,"slp":1012.4,"qcField":12,"presTend":1.1,"metarType":"METAR","rawOb":"METAR KPVD 160251Z 00000KT 10SM FEW045 FEW070 BKN250 13/10 A2990 RMK AO2 SLP124 T01330100 50011 $","lat":41.7225,"lon":-71.4325,"elev":15,"name":"Providence/Green Mem, RI, US","cover":"BKN","clouds":[{"cover":"FEW","base":4500},{"cover":"FEW","base":7000},{"cover":"BKN","base":25000}],"fltCat":"VFR"},{"icaoId":"KPIT","receiptTime":"2026-04-16T02:54:08.957Z","obsTime":1776307860,"reportTime":"2026-04-16T03:00:00.000Z","temp":23.3,"dewp":15,"wdir":210,"wspd":4,"visib":"10+","altim":1014,"slp":1013.6,"qcField":12,"presTend":1.3,"pcp3hr":0.005,"metarType":"METAR","rawOb":"METAR KPIT 160251Z 21004KT 10SM FEW080 SCT100 23/15 A2994 RMK AO2 SLP136 60000 T02330150 50013 $","lat":40.4814,"lon":-80.2083,"elev":339,"name":"Pittsburgh Intl, PA, US","cover":"SCT","clouds":[{"cover":"FEW","base":8000},{"cover":"SCT","base":10000}],"fltCat":"VFR"},{"icaoId":"KJFK","receiptTime":"2026-04-16T02:54:08.776Z","obsTime":1776307860,"reportTime":"2026-04-16T03:00:00.000Z","temp":17.2,"dewp":12.2,"wdir":200,"wspd":4,"visib":"10+","altim":1012.3,"slp":1012.1,"qcField":4,"presTend":1,"metarType":"METAR","rawOb":"METAR KJFK 160251Z 20004KT 10SM SCT210 BKN250 17/12 A2989 RMK AO2 SLP121 T01720122 51010","lat":40.6392,"lon":-73.7639,"elev":3,"name":"New York/JF Kennedy Intl, NY, US","cover":"BKN","clouds":[{"cover":"SCT","base":21000},{"cover":"BKN","base":25000}],"fltCat":"VFR"},{"icaoId":"KPHX","receiptTime":"2026-04-16T02:54:08.936Z","obsTime":1776307860,"reportTime":"2026-04-16T03:00:00.000Z","temp":27.8,"dewp":-5.6,"wdir":320,"wspd":9,"visib":"10+","altim":1011.3,"slp":1009.6,"qcField":4,"presTend":-0.2,"metarType":"METAR","rawOb":"METAR KPHX 160251Z 32009KT 10SM FEW100 28/M06 A2986 RMK AO2 SLP096 T02781056 55002","lat":33.4278,"lon":-112.0037,"elev":338,"name":"Phoenix/Sky Harbor Intl, AZ, US","cover":"FEW","clouds":[{"cover":"FEW","base":10000}],"fltCat":"VFR"},{"icaoId":"KGEU","receiptTime":"2026-04-16T02:54:08.122Z","obsTime":1776307800,"reportTime":"2026-04-16T03:00:00.000Z","temp":26,"dewp":-7,"wdir":0,"wspd":0,"visib":"10+","altim":1010.6,"qcField":0,"metarType":"METAR","rawOb":"METAR KGEU 160250Z 00000KT 10SM CLR 26/M07 A2984 RMK LAST","lat":33.528,"lon":-112.293,"elev":319,"name":"Glendale Muni, AZ, US","cover":"CLR","clouds":[],"fltCat":"VFR"},{"icaoId":"KADM","receiptTime":"2026-04-16T03:04:22.988Z","obsTime":1776307800,"reportTime":"2026-04-16T03:00:00.000Z","temp":16,"dewp":16,"wdir":150,"wspd":5,"visib":"10+","altim":1011.9,"qcField":0,"metarType":"METAR","rawOb":"METAR KADM 160250Z 15005KT 10SM CLR 16/16 A2988","lat":34.3007,"lon":-97.0089,"elev":223,"name":"Ardmore Muni, OK, US","cover":"CLR","clouds":[],"fltCat":"VFR"},{"icaoId":"KAEG","receiptTime":"2026-04-16T02:59:08.796Z","obsTime":1776307800,"reportTime":"2026-04-16T03:00:00.000Z","temp":11,"dewp":-11,"wdir":320,"wspd":5,"visib":"10+","altim":1017.7,"qcField":0,"metarType":"METAR","rawOb":"METAR KAEG 160250Z 32005KT 10SM CLR 11/M11 A3005","lat":35.15,"lon":-106.7929,"elev":1771,"name":"Albuquerque/Double Eagle Arpt, NM, US","cover":"CLR","clouds":[],"fltCat":"VFR"},{"icaoId":"KIWA","receiptTime":"2026-04-16T02:50:33.386Z","obsTime":1776307680,"reportTime":"2026-04-16T03:00:00.000Z","temp":26,"dewp":-5,"wdir":0,"wspd":0,"visib":"10+","altim":1012.6,"qcField":0,"metarType":"METAR","rawOb":"METAR KIWA 160248Z 00000KT 10SM CLR 26/M05 A2990","lat":33.3008,"lon":-111.6437,"elev":420,"name":"Phoenix/Mesa Gateway Arpt, AZ, US","cover":"CLR","clouds":[],"fltCat":"VFR"},{"icaoId":"KCHD","receiptTime":"2026-04-16T02:52:08.212Z","obsTime":1776307620,"reportTime":"2026-04-16T03:00:00.000Z","temp":26,"dewp":-5,"wdir":"VRB","wspd":3,"visib":"10+","altim":1011.9,"qcField":0,"metarType":"METAR","rawOb":"METAR KCHD 160247Z VRB03KT 10SM CLR 26/M05 A2988","lat":33.2669,"lon":-111.8086,"elev":378,"name":"Chandler Muni, AZ, US","cover":"CLR","clouds":[],"fltCat":"VFR"},{"icaoId":"KSUN","receiptTime":"2026-04-16T02:49:49.950Z","obsTime":1776307620,"reportTime":"2026-04-16T03:00:00.000Z","temp":4,"dewp":2,"wdir":190,"wspd":6,"visib":"10+","altim":1007.2,"qcField":0,"metarType":"METAR","rawOb":"METAR KSUN 160247Z 19006KT 10SM SCT023 BKN035 OVC050 04/02 A2974","lat":43.4969,"lon":-114.2923,"elev":1619,"name":"Hailey/Friedman Mem, ID, US","cover":"OVC","clouds":[{"cover":"SCT","base":2300},{"cover":"BKN","base":3500},{"cover":"OVC","base":5000}],"fltCat":"VFR"},{"icaoId":"KGYR","receiptTime":"2026-04-16T02:49:07.705Z","obsTime":1776307620,"reportTime":"2026-04-16T03:00:00.000Z","temp":27,"dewp":-3,"wdir":"VRB","wspd":4,"visib":"10+","altim":1011.6,"qcField":0,"metarType":"METAR","rawOb":"METAR KGYR 160247Z VRB04KT 10SM FEW250 27/M03 A2987","lat":33.428,"lon":-112.368,"elev":292,"name":"Phoenix/Goodyear Muni, AZ, US","cover":"FEW","clouds":[{"cover":"FEW","base":25000}],"fltCat":"VFR"},{"icaoId":"KRYN","receiptTime":"2026-04-16T02:46:07.803Z","obsTime":1776307500,"reportTime":"2026-04-16T03:00:00.000Z","temp":22,"dewp":-11,"wdir":310,"wspd":5,"visib":"10+","altim":1013,"qcField":0,"metarType":"METAR","rawOb":"METAR KRYN 160245Z 31005KT 10SM CLR 22/M11 A2991","lat":32.1418,"lon":-111.1767,"elev":731,"name":"Tucson/Ryan Fld, AZ, US","cover":"CLR","clouds":[],"fltCat":"VFR"},{"icaoId":"KHOB","receiptTime":"2026-04-16T02:38:26.490Z","obsTime":1776306900,"reportTime":"2026-04-16T02:35:00.000Z","temp":18,"dewp":-14,"wdir":270,"wspd":8,"visib":"10+","altim":1014.3,"qcField":6,"metarType":"METAR","rawOb":"METAR KHOB 160235Z AUTO 27008KT 10SM CLR 18/M14 A2995 RMK AO2","lat":32.6797,"lon":-103.2222,"elev":1112,"name":"Hobbs Arpt, NM, US","cover":"CLR","clouds":[],"fltCat":"VFR"}]