[{"icaoId":"KHIO","receiptTime":"2026-04-13T06:52:04.166Z","obsTime":1776062880,"reportTime":"2026-04-13T06:48:00.000Z","temp":10,"dewp":7,"wdir":250,"wspd":4,"visib":"10+","altim":1013.6,"qcField":4,"metarType":"SPECI","rawOb":"SPECI KHIO 130648Z 25004KT 10SM BKN026 OVC034 10/07 A2993 RMK AO2","lat":45.5476,"lon":-122.9557,"elev":62,"name":"Portland/Hillsboro Arpt, OR, US","cover":"OVC","clouds":[{"cover":"BKN","base":2600},{"cover":"OVC","base":3400}],"fltCat":"MVFR"},{"icaoId":"KIWA","receiptTime":"2026-04-13T06:49:07.088Z","obsTime":1776062880,"reportTime":"2026-04-13T07:00:00.000Z","temp":19,"dewp":6,"wdir":200,"wspd":9,"visib":"10+","altim":1016,"qcField":0,"metarType":"METAR","rawOb":"METAR KIWA 130648Z 20009KT 10SM CLR 19/06 A3000","lat":33.3008,"lon":-111.6437,"elev":420,"name":"Phoenix/Mesa Gateway Arpt, AZ, US","cover":"CLR","clouds":[],"fltCat":"VFR"},{"icaoId":"KEVW","receiptTime":"2026-04-13T06:50:25.178Z","obsTime":1776062760,"reportTime":"2026-04-13T06:46:00.000Z","temp":-0.6,"dewp":-0.6,"wdir":270,"wspd":14,"wgst":21,"visib":1,"altim":1012.3,"qcField":14,"wxString":"-SN BR","precip":0.005,"metarType":"SPECI","rawOb":"SPECI KEVW 130646Z AUTO 27014G21KT 1SM -SN BR SCT004 OVC008 M01/M01 A2989 RMK AO2 WSHFT 0628 P0000 T10061006 $","lat":41.2727,"lon":-111.0305,"elev":2178,"name":"Evanston/Uinta Cnty, WY, US","cover":"OVC","clouds":[{"cover":"SCT","base":400},{"cover":"OVC","base":800}],"fltCat":"IFR"},{"icaoId":"KCRP","receiptTime":"2026-04-13T06:50:24.987Z","obsTime":1776062760,"reportTime":"2026-04-13T06:46:00.000Z","temp":24,"dewp":22,"wdir":140,"wspd":15,"wgst":22,"visib":"10+","altim":1018,"qcField":4,"metarType":"SPECI","rawOb":"SPECI KCRP 130646Z 14015G22KT 10SM BKN014 OVC021 24/22 A3006 RMK AO2","lat":27.7734,"lon":-97.513,"elev":11,"name":"Corpus Christi Intl, TX, US","cover":"OVC","clouds":[{"cover":"BKN","base":1400},{"cover":"OVC","base":2100}],"fltCat":"MVFR"},{"icaoId":"KEUG","receiptTime":"2026-04-13T06:48:08.035Z","obsTime":1776062640,"reportTime":"2026-04-13T06:44:00.000Z","temp":10,"dewp":7.2,"wdir":240,"wspd":4,"visib":"10+","altim":1015.3,"qcField":6,"metarType":"SPECI","rawOb":"SPECI KEUG 130644Z AUTO 24004KT 10SM SCT026 BKN050 OVC075 10/07 A2998 RMK AO2 T01000072","lat":44.1331,"lon":-123.2156,"elev":109,"name":"Eugene/Mahlon Sweet Fld, OR, US","cover":"OVC","clouds":[{"cover":"SCT","base":2600},{"cover":"BKN","base":5000},{"cover":"OVC","base":7500}],"fltCat":"VFR"},{"icaoId":"KPAE","receiptTime":"2026-04-13T06:48:08.150Z","obsTime":1776062640,"reportTime":"2026-04-13T06:44:00.000Z","temp":8.3,"dewp":8.3,"wdir":330,"wspd":6,"visib":2,"altim":1010.9,"qcField":6,"wxString":"-RA BR","precip":0.01,"metarType":"SPECI","rawOb":"SPECI KPAE 130644Z AUTO 33006KT 2SM -RA BR OVC002 08/08 A2985 RMK AO2 RAB21E31B43 P0001 T00830083","lat":47.9232,"lon":-122.2831,"elev":166,"name":"Everett/Paine Fld, WA, US","cover":"OVC","clouds":[{"cover":"OVC","base":200}],"fltCat":"LIFR"},{"icaoId":"KMDW","receiptTime":"2026-04-13T06:48:08.097Z","obsTime":1776062640,"reportTime":"2026-04-13T06:44:00.000Z","temp":17.8,"dewp":15.6,"wdir":250,"wspd":14,"wgst":23,"visib":"10+","altim":1009.9,"qcField":4,"precip":0.005,"metarType":"SPECI","rawOb":"SPECI KMDW 130644Z 25014G23KT 10SM OVC014 18/16 A2982 RMK AO2 PK WND 24027/0630 RAE26 P0000 T01780156","lat":41.7841,"lon":-87.7552,"elev":186,"name":"Chicago/Midway Intl, IL, US","cover":"OVC","clouds":[{"cover":"OVC","base":1400}],"fltCat":"MVFR"},{"icaoId":"KPDX","receiptTime":"2026-04-13T06:46:07.306Z","obsTime":1776062580,"reportTime":"2026-04-13T06:43:00.000Z","temp":11.1,"dewp":7.8,"wdir":0,"wspd":0,"visib":"10+","altim":1013.6,"qcField":12,"metarType":"SPECI","rawOb":"SPECI KPDX 130643Z 00000KT 10SM FEW009 BKN029 OVC040 11/08 A2993 RMK AO2 T01110078 $","lat":45.5958,"lon":-122.6092,"elev":7,"name":"Portland Intl, OR, US","cover":"OVC","clouds":[{"cover":"FEW","base":900},{"cover":"BKN","base":2900},{"cover":"OVC","base":4000}],"fltCat":"MVFR"},{"icaoId":"KPVD","receiptTime":"2026-04-13T06:44:22.642Z","obsTime":1776062460,"reportTime":"2026-04-13T06:41:00.000Z","temp":7.8,"dewp":6.1,"wdir":170,"wspd":7,"visib":"10+","altim":1025.8,"qcField":12,"metarType":"SPECI","rawOb":"SPECI KPVD 130641Z 17007KT 10SM FEW010 BKN040 OVC110 08/06 A3029 RMK AO2 T00780061 $","lat":41.7225,"lon":-71.4325,"elev":15,"name":"Providence/Green Mem, RI, US","cover":"OVC","clouds":[{"cover":"FEW","base":1000},{"cover":"BKN","base":4000},{"cover":"OVC","base":11000}],"fltCat":"VFR"},{"icaoId":"KPUW","receiptTime":"2026-04-13T06:44:22.551Z","obsTime":1776062400,"reportTime":"2026-04-13T06:40:00.000Z","temp":7.8,"dewp":7.2,"wdir":210,"wspd":4,"visib":"10+","altim":1006.2,"qcField":6,"wxString":"-RA","precip":0.02,"metarType":"SPECI","rawOb":"SPECI KPUW 130640Z AUTO 21004KT 10SM -RA SCT007 OVC041 08/07 A2971 RMK AO2 P0002 T00780072","lat":46.7438,"lon":-117.1158,"elev":774,"name":"Pullman/Moscow Rgnl, WA, US","cover":"OVC","clouds":[{"cover":"SCT","base":700},{"cover":"OVC","base":4100}],"fltCat":"VFR"},{"icaoId":"KJAC","receiptTime":"2026-04-13T06:40:31.942Z","obsTime":1776062280,"reportTime":"2026-04-13T06:38:00.000Z","temp":0,"dewp":-1,"wdir":280,"wspd":3,"visib":6,"altim":1011.3,"qcField":70,"wxString":"-SN BR","precip":0.005,"metarType":"SPECI","rawOb":"SPECI KJAC 130638Z AUTO 28003KT 6SM -SN BR SCT003 OVC007 00/M01 A2986 RMK AO2 SNB25 P0000 FZRANO","lat":43.6129,"lon":-110.7366,"elev":1967,"name":"Jackson Hole Arpt, WY, US","cover":"OVC","clouds":[{"cover":"SCT","base":300},{"cover":"OVC","base":700}],"fltCat":"IFR"},{"icaoId":"KSLC","receiptTime":"2026-04-13T06:40:19.672Z","obsTime":1776062160,"reportTime":"2026-04-13T06:36:00.000Z","temp":3.9,"dewp":3.3,"wdir":350,"wspd":7,"visib":5,"altim":1014,"qcField":12,"wxString":"RA BR","precip":0.06,"metarType":"SPECI","rawOb":"SPECI KSLC 130636Z 35007KT 5SM RA BR FEW006 BKN011 OVC018 04/03 A2994 RMK AO2 P0006 T00390033 $","lat":40.7707,"lon":-111.965,"elev":1286,"name":"Salt Lake City Intl, UT, US","cover":"OVC","clouds":[{"cover":"FEW","base":600},{"cover":"BKN","base":1100},{"cover":"OVC","base":1800}],"fltCat":"MVFR"},{"icaoId":"KCEC","receiptTime":"2026-04-13T06:40:19.593Z","obsTime":1776062160,"reportTime":"2026-04-13T06:36:00.000Z","temp":8.3,"dewp":7.2,"wdir":100,"wspd":3,"visib":"10+","altim":1017.7,"qcField":6,"metarType":"SPECI","rawOb":"SPECI KCEC 130636Z AUTO 10003KT 10SM BKN027 08/07 A3005 RMK AO2 T00830072","lat":41.7836,"lon":-124.238,"elev":17,"name":"Crescent City/McNama, CA, US","cover":"BKN","clouds":[{"cover":"BKN","base":2700}],"fltCat":"MVFR"},{"icaoId":"KSLE","receiptTime":"2026-04-13T06:40:19.699Z","obsTime":1776062160,"reportTime":"2026-04-13T06:36:00.000Z","temp":10,"dewp":7.2,"wdir":210,"wspd":3,"visib":"10+","altim":1014,"qcField":6,"metarType":"SPECI","rawOb":"SPECI KSLE 130636Z AUTO 21003KT 10SM OVC030 10/07 A2994 RMK AO2 T01000072","lat":44.9049,"lon":-123.001,"elev":63,"name":"Salem Muni, OR, US","cover":"OVC","clouds":[{"cover":"OVC","base":3000}],"fltCat":"MVFR"},{"icaoId":"KHTH","receiptTime":"2026-04-13T06:40:18.984Z","obsTime":1776062100,"reportTime":"2026-04-13T06:35:00.000Z","temp":7,"dewp":-6,"wdir":240,"wspd":5,"wgst":12,"visib":"10+","altim":1014.6,"qcField":6,"metarType":"METAR","rawOb":"METAR KHTH 130635Z AUTO 24005G12KT 10SM CLR 07/M06 A2996 RMK A01","lat":38.5448,"lon":-118.6314,"elev":1281,"name":"Hawthorne Muni, NV, US","cover":"CLR","clouds":[],"fltCat":"VFR"},{"icaoId":"KCHD","receiptTime":"2026-04-13T06:38:15.042Z","obsTime":1776062100,"reportTime":"2026-04-13T06:35:00.000Z","temp":19.9,"dewp":5.6,"wdir":210,"wspd":7,"visib":"10+","altim":1015.3,"qcField":14,"metarType":"METAR","rawOb":"METAR KCHD 130635Z AUTO 21007KT 10SM CLR 20/06 A2998 RMK AO2 T01990056 $","lat":33.2669,"lon":-111.8086,"elev":378,"name":"Chandler Muni, AZ, US","cover":"CLR","clouds":[],"fltCat":"VFR"},{"icaoId":"KSOW","receiptTime":"2026-04-13T06:38:16.036Z","obsTime":1776062100,"reportTime":"2026-04-13T06:35:00.000Z","temp":10,"dewp":2,"wdir":200,"wspd":19,"wgst":32,"visib":"10+","altim":1019.7,"qcField":6,"metarType":"METAR","rawOb":"METAR KSOW 130635Z AUTO 20019G32KT 10SM FEW036 FEW046 10/02 A3011 RMK AO2","lat":34.2686,"lon":-110.0019,"elev":1954,"name":"Show Low Muni, AZ, US","cover":"FEW","clouds":[{"cover":"FEW","base":3600},{"cover":"FEW","base":4600}],"fltCat":"VFR"},{"icaoId":"KIFP","receiptTime":"2026-04-13T06:40:15.431Z","obsTime":1776062100,"reportTime":"2026-04-13T06:35:00.000Z","temp":21,"dewp":3,"wdir":220,"wspd":7,"visib":"10+","altim":1011.9,"qcField":6,"metarType":"METAR","rawOb":"METAR KIFP 130635Z AUTO 22007KT 10SM OVC090 21/03 A2988 RMK AO2","lat":35.1487,"lon":-114.5611,"elev":210,"name":"Bullhead City Intl, AZ, US","cover":"OVC","clouds":[{"cover":"OVC","base":9000}],"fltCat":"VFR"},{"icaoId":"KADM","receiptTime":"2026-04-13T06:42:07.715Z","obsTime":1776062100,"reportTime":"2026-04-13T06:35:00.000Z","temp":22,"dewp":20,"wdir":190,"wspd":12,"wgst":18,"visib":"10+","altim":1016,"qcField":6,"metarType":"METAR","rawOb":"METAR KADM 130635Z AUTO 19012G18KT 10SM OVC018 22/20 A3000 RMK AO2","lat":34.3007,"lon":-97.0089,"elev":223,"name":"Ardmore Muni, OK, US","cover":"OVC","clouds":[{"cover":"OVC","base":1800}],"fltCat":"MVFR"},{"icaoId":"KAEG","receiptTime":"2026-04-13T06:42:07.778Z","obsTime":1776062100,"reportTime":"2026-04-13T06:35:00.000Z","temp":13.1,"dewp":-6.7,"wdir":250,"wspd":10,"visib":"10+","altim":1018,"qcField":6,"metarType":"METAR","rawOb":"METAR KAEG 130635Z AUTO 25010KT 10SM CLR 13/M07 A3006 RMK AO2 T01311067","lat":35.15,"lon":-106.7929,"elev":1771,"name":"Albuquerque/Double Eagle Arpt, NM, US","cover":"CLR","clouds":[],"fltCat":"VFR"},{"icaoId":"KBJC","receiptTime":"2026-04-13T06:40:31.406Z","obsTime":1776062100,"reportTime":"2026-04-13T06:35:00.000Z","temp":12,"dewp":-11,"wdir":240,"wspd":3,"visib":"10+","altim":1010.2,"qcField":6,"metarType":"METAR","rawOb":"METAR KBJC 130635Z AUTO 24003KT 10SM CLR 12/M11 A2983 RMK AO2","lat":39.9008,"lon":-105.1042,"elev":1694,"name":"Rocky Mtn Metro, CO, US","cover":"CLR","clouds":[],"fltCat":"VFR"},{"icaoId":"KBVU","receiptTime":"2026-04-13T06:36:06.386Z","obsTime":1776062100,"reportTime":"2026-04-13T06:35:00.000Z","temp":16,"dewp":-1,"wdir":240,"wspd":17,"visib":"10+","altim":1011.9,"qcField":6,"metarType":"METAR","rawOb":"METAR KBVU 130635Z AUTO 24017KT 10SM CLR 16/M01 A2988 RMK AO2","lat":35.9489,"lon":-114.8633,"elev":654,"name":"Boulder City Muni, NV, US","cover":"CLR","clouds":[],"fltCat":"VFR"},{"icaoId":"KLRU","receiptTime":"2026-04-13T06:38:19.677Z","obsTime":1776062100,"reportTime":"2026-04-13T06:35:00.000Z","temp":16.8,"dewp":0,"wdir":270,"wspd":9,"visib":"10+","altim":1020.1,"qcField":6,"metarType":"METAR","rawOb":"METAR KLRU 130635Z AUTO 27009KT 10SM CLR 17/00 A3012 RMK AO2 T01680000","lat":32.2884,"lon":-106.9131,"elev":1355,"name":"Las Cruces Intl, NM, US","cover":"CLR","clouds":[],"fltCat":"VFR"},{"icaoId":"KHAF","receiptTime":"2026-04-13T06:38:20.140Z","obsTime":1776062100,"reportTime":"2026-04-13T06:35:00.000Z","wdir":0,"wspd":0,"visib":8,"altim":1017.7,"qcField":6,"metarType":"METAR","rawOb":"METAR KHAF 130635Z AUTO 00000KT 8SM SCT018 BKN045 OVC060 A3005 RMK AO2","lat":37.5136,"lon":-122.4996,"elev":11,"name":"Half Moon Bay Arpt, CA, US","cover":"OVC","clouds":[{"cover":"SCT","base":1800},{"cover":"BKN","base":4500},{"cover":"OVC","base":6000}],"fltCat":"VFR"},{"icaoId":"KMHR","receiptTime":"2026-04-13T06:40:15.544Z","obsTime":1776062100,"reportTime":"2026-04-13T06:35:00.000Z","temp":11,"dewp":11,"wdir":140,"wspd":6,"visib":"10+","altim":1017,"qcField":6,"metarType":"METAR","rawOb":"METAR KMHR 130635Z AUTO 14006KT 10SM BKN045 OVC090 11/11 A3003 RMK AO2","lat":38.56,"lon":-121.284,"elev":30,"name":"Sacramento/Mather Fld, CA, US","cover":"OVC","clouds":[{"cover":"BKN","base":4500},{"cover":"OVC","base":9000}],"fltCat":"VFR"},{"icaoId":"KRTS","receiptTime":"2026-04-13T06:40:06.620Z","obsTime":1776062100,"reportTime":"2026-04-13T06:35:00.000Z","temp":2,"dewp":-4,"wdir":270,"wspd":8,"visib":"10+","altim":1015.7,"qcField":6,"metarType":"METAR","rawOb":"METAR KRTS 130635Z AUTO 27008KT 10SM BKN065 BKN080 OVC110 02/M04 A2999 RMK AO2","lat":39.6658,"lon":-119.8731,"elev":1537,"name":"Reno/Stead Arpt, NV, US","cover":"OVC","clouds":[{"cover":"BKN","base":6500},{"cover":"BKN","base":8000},{"cover":"OVC","base":11000}],"fltCat":"VFR"},{"icaoId":"KHCR","receiptTime":"2026-04-13T06:38:20.164Z","obsTime":1776062100,"reportTime":"2026-04-13T06:35:00.000Z","temp":4.2,"dewp":2.1,"wdir":240,"wspd":10,"visib":5,"altim":1013,"qcField":14,"wxString":"-RA BR","precip":0.05,"metarType":"METAR","rawOb":"METAR KHCR 130635Z AUTO 24010KT 5SM -RA BR SCT014 BKN021 BKN031 OVC049 04/02 A2991 RMK AO2 P0005 T00420021 $","lat":40.4774,"lon":-111.4329,"elev":1708,"name":"Heber City Muni, UT, US","cover":"OVC","clouds":[{"cover":"SCT","base":1400},{"cover":"BKN","base":2100},{"cover":"BKN","base":3100},{"cover":"OVC","base":4900}],"fltCat":"MVFR"},{"icaoId":"KCXP","receiptTime":"2026-04-13T06:40:15.320Z","obsTime":1776062100,"reportTime":"2026-04-13T06:35:00.000Z","temp":1,"dewp":0,"wdir":0,"wspd":0,"visib":2,"altim":1016.3,"qcField":6,"wxString":"-SN BR","metarType":"METAR","rawOb":"METAR KCXP 130635Z AUTO 00000KT 2SM -SN BR OVC003 01/00 A3001 RMK AO2","lat":39.1905,"lon":-119.7319,"elev":1431,"name":"Carson City Arpt, NV, US","cover":"OVC","clouds":[{"cover":"OVC","base":300}],"fltCat":"LIFR"},{"icaoId":"KSUN","receiptTime":"2026-04-13T06:40:15.637Z","obsTime":1776062100,"reportTime":"2026-04-13T06:35:00.000Z","wdir":0,"wspd":0,"visib":"10+","altim":1012.3,"qcField":6,"metarType":"METAR","rawOb":"METAR KSUN 130635Z AUTO 00000KT 10SM SCT050 A2989 RMK AO2","lat":43.4969,"lon":-114.2923,"elev":1619,"name":"Hailey/Friedman Mem, ID, US","cover":"SCT","clouds":[{"cover":"SCT","base":5000}],"fltCat":"VFR"},{"icaoId":"KSEZ","receiptTime":"2026-04-13T06:40:34.799Z","obsTime":1776062100,"reportTime":"2026-04-13T06:35:00.000Z","temp":12,"dewp":-2,"wdir":210,"wspd":11,"visib":"10+","altim":1017.7,"qcField":6,"metarType":"METAR","rawOb":"METAR KSEZ 130635Z AUTO 21011KT 10SM CLR 12/M02 A3005 RMK AO2","lat":34.8467,"lon":-111.7884,"elev":1455,"name":"Sedona Arpt, AZ, US","cover":"CLR","clouds":[],"fltCat":"VFR"},{"icaoId":"KHII","receiptTime":"2026-04-13T06:42:06.803Z","obsTime":1776062100,"reportTime":"2026-04-13T06:35:00.000Z","temp":21,"dewp":7,"wdir":"VRB","wspd":6,"visib":"10+","altim":1013,"qcField":6,"metarType":"METAR","rawOb":"METAR KHII 130635Z AUTO VRB06KT 10SM FEW075 SCT095 21/07 A2991 RMK AO2","lat":34.5659,"lon":-114.3522,"elev":241,"name":"Lake Havasu City Arpt, AZ, US","cover":"SCT","clouds":[{"cover":"FEW","base":7500},{"cover":"SCT","base":9500}],"fltCat":"VFR"},{"icaoId":"KOGD","receiptTime":"2026-04-13T06:38:20.048Z","obsTime":1776062040,"reportTime":"2026-04-13T06:34:00.000Z","temp":0.6,"dewp":0,"wdir":40,"wspd":7,"visib":3,"altim":1013.6,"qcField":6,"wxString":"-SN BR","precip":0.1,"metarType":"SPECI","rawOb":"SPECI KOGD 130634Z AUTO 04007KT 3SM -SN BR FEW002 OVC016 01/00 A2993 RMK AO2 P0010 T00060000","lat":41.1941,"lon":-112.0168,"elev":1356,"name":"Ogden/Hinckley Arpt, UT, US","cover":"OVC","clouds":[{"cover":"FEW","base":200},{"cover":"OVC","base":1600}],"fltCat":"MVFR"},{"icaoId":"KIAH","receiptTime":"2026-04-13T06:36:06.165Z","obsTime":1776061980,"reportTime":"2026-04-13T06:33:00.000Z","temp":22.2,"dewp":21.1,"wdir":150,"wspd":6,"visib":"10+","altim":1020.1,"qcField":4,"metarType":"SPECI","rawOb":"SPECI KIAH 130633Z 15006KT 10SM BKN017 BKN130 OVC200 22/21 A3012 RMK AO2 T02220211","lat":29.9844,"lon":-95.3607,"elev":27,"name":"Houston/Bush Intl, TX, US","cover":"OVC","clouds":[{"cover":"BKN","base":1700},{"cover":"BKN","base":13000},{"cover":"OVC","base":20000}],"fltCat":"MVFR"},{"icaoId":"KSAN","receiptTime":"2026-04-13T06:34:08.187Z","obsTime":1776061860,"reportTime":"2026-04-13T06:31:00.000Z","temp":16.7,"dewp":13.3,"wdir":280,"wspd":6,"visib":"10+","altim":1018,"qcField":12,"metarType":"SPECI","rawOb":"SPECI KSAN 130631Z 28006KT 10SM SCT017 SCT026 BKN044 17/13 A3006 RMK AO2 T01670133 $","lat":32.7364,"lon":-117.1973,"elev":3,"name":"San Diego Intl Arpt, CA, US","cover":"BKN","clouds":[{"cover":"SCT","base":1700},{"cover":"SCT","base":2600},{"cover":"BKN","base":4400}],"fltCat":"VFR"},{"icaoId":"KBOS","receiptTime":"2026-04-13T06:34:08.120Z","obsTime":1776061860,"reportTime":"2026-04-13T06:31:00.000Z","temp":7.2,"dewp":5,"wdir":180,"wspd":10,"visib":"10+","altim":1025.1,"qcField":4,"wxString":"-RA","precip":0.005,"metarType":"SPECI","rawOb":"SPECI KBOS 130631Z 18010KT 10SM -RA SCT015 SCT080 OVC100 07/05 A3027 RMK AO2 CIG 015 E P0000 T00720050","lat":42.3606,"lon":-71.0097,"elev":4,"name":"Boston/Logan Intl, MA, US","cover":"OVC","clouds":[{"cover":"SCT","base":1500},{"cover":"SCT","base":8000},{"cover":"OVC","base":10000}],"fltCat":"VFR"},{"icaoId":"KDAL","receiptTime":"2026-04-13T06:34:08.157Z","obsTime":1776061860,"reportTime":"2026-04-13T06:31:00.000Z","temp":20.6,"dewp":17.2,"wdir":190,"wspd":9,"wgst":18,"visib":"10+","altim":1017.7,"qcField":4,"metarType":"SPECI","rawOb":"SPECI KDAL 130631Z 19009G18KT 10SM BKN020 BKN250 21/17 A3005 RMK AO2 T02060172","lat":32.8384,"lon":-96.8358,"elev":148,"name":"Dallas/Love Fld, TX, US","cover":"BKN","clouds":[{"cover":"BKN","base":2000},{"cover":"BKN","base":25000}],"fltCat":"MVFR"},{"icaoId":"KHOU","receiptTime":"2026-04-13T06:34:03.493Z","obsTime":1776061800,"reportTime":"2026-04-13T06:30:00.000Z","temp":22.8,"dewp":21.1,"wdir":160,"wspd":11,"visib":9,"altim":1020.1,"qcField":12,"metarType":"SPECI","rawOb":"SPECI KHOU 130630Z 16011KT 9SM BKN014 OVC110 23/21 A3012 RMK AO2 T02280211 $","lat":29.6458,"lon":-95.2821,"elev":13,"name":"Houston/Hobby Arpt, TX, US","cover":"OVC","clouds":[{"cover":"BKN","base":1400},{"cover":"OVC","base":11000}],"fltCat":"MVFR"},{"icaoId":"KMLC","receiptTime":"2026-04-13T06:32:09.880Z","obsTime":1776061680,"reportTime":"2026-04-13T06:28:00.000Z","temp":21.1,"dewp":18.9,"wdir":"VRB","wspd":6,"wgst":16,"visib":"10+","altim":1016.3,"qcField":6,"metarType":"SPECI","rawOb":"SPECI KMLC 130628Z AUTO VRB06G16KT 10SM FEW018 FEW025 21/19 A3001 RMK AO2 T02110189","lat":34.8824,"lon":-95.7815,"elev":231,"name":"McAlester Rgnl, OK, US","cover":"FEW","clouds":[{"cover":"FEW","base":1800},{"cover":"FEW","base":2500}],"fltCat":"VFR"},{"icaoId":"KLGB","receiptTime":"2026-04-13T06:28:06.989Z","obsTime":1776061440,"reportTime":"2026-04-13T06:24:00.000Z","temp":15,"dewp":10,"wdir":0,"wspd":0,"visib":"10+","altim":1017.4,"qcField":14,"metarType":"SPECI","rawOb":"SPECI KLGB 130624Z AUTO 00000KT 10SM SCT028 15/10 A3004 RMK AO2 T01500100 $","lat":33.8118,"lon":-118.1472,"elev":10,"name":"Long Beach Arpt, CA, US","cover":"SCT","clouds":[{"cover":"SCT","base":2800}],"fltCat":"VFR"},{"icaoId":"KPVU","receiptTime":"2026-04-13T06:26:29.427Z","obsTime":1776061440,"reportTime":"2026-04-13T06:24:00.000Z","temp":7,"dewp":3,"wdir":80,"wspd":4,"visib":7,"altim":1013.6,"qcField":6,"wxString":"-RA","precip":0.04,"metarType":"SPECI","rawOb":"SPECI KPVU 130624Z AUTO 08004KT 7SM -RA FEW019 BKN028 OVC036 07/03 A2993 RMK AO2 P0004","lat":40.224,"lon":-111.7252,"elev":1370,"name":"Provo Muni, UT, US","cover":"OVC","clouds":[{"cover":"FEW","base":1900},{"cover":"BKN","base":2800},{"cover":"OVC","base":3600}],"fltCat":"MVFR"},{"icaoId":"KAST","receiptTime":"2026-04-13T06:24:07.606Z","obsTime":1776061200,"reportTime":"2026-04-13T06:20:00.000Z","temp":8.9,"dewp":7.8,"wdir":280,"wspd":3,"visib":"10+","altim":1013.6,"qcField":6,"metarType":"SPECI","rawOb":"SPECI KAST 130620Z AUTO 28003KT 10SM SCT029 OVC036 09/08 A2993 RMK AO2 T00890078","lat":46.157,"lon":-123.8833,"elev":3,"name":"Astoria Rgnl, OR, US","cover":"OVC","clouds":[{"cover":"SCT","base":2900},{"cover":"OVC","base":3600}],"fltCat":"VFR"},{"icaoId":"KLAW","receiptTime":"2026-04-13T06:20:25.698Z","obsTime":1776060960,"reportTime":"2026-04-13T06:16:00.000Z","temp":20.6,"dewp":19.4,"wdir":170,"wspd":12,"visib":"10+","altim":1014.3,"qcField":14,"metarType":"SPECI","rawOb":"SPECI KLAW 130616Z AUTO 17012KT 10SM BKN013 21/19 A2995 RMK AO2 T02060194 $","lat":34.5577,"lon":-98.4172,"elev":328,"name":"Lawton-Fort Sill Rgnl, OK, US","cover":"BKN","clouds":[{"cover":"BKN","base":1300}],"fltCat":"MVFR"},{"icaoId":"KPNC","receiptTime":"2026-04-13T06:20:25.729Z","obsTime":1776060900,"reportTime":"2026-04-13T06:15:00.000Z","temp":20.6,"dewp":18.3,"wdir":180,"wspd":10,"wgst":18,"visib":"10+","altim":1011.6,"qcField":6,"metarType":"SPECI","rawOb":"SPECI KPNC 130615Z AUTO 18010G18KT 10SM BKN017 21/18 A2987 RMK AO2 T02060183","lat":36.7369,"lon":-97.1024,"elev":304,"name":"Ponca City Rgnl, OK, US","cover":"BKN","clouds":[{"cover":"BKN","base":1700}],"fltCat":"MVFR"},{"icaoId":"KMCI","receiptTime":"2026-04-13T06:16:04.124Z","obsTime":1776060780,"reportTime":"2026-04-13T06:13:00.000Z","temp":20,"dewp":17.8,"wdir":200,"wspd":13,"wgst":22,"visib":"10+","altim":1010.9,"qcField":4,"metarType":"SPECI","rawOb":"SPECI KMCI 130613Z 20013G22KT 10SM BKN017 20/18 A2985 RMK AO2 T02000178","lat":39.2975,"lon":-94.7309,"elev":308,"name":"Kansas City Intl, MO, US","cover":"BKN","clouds":[{"cover":"BKN","base":1700}],"fltCat":"MVFR"},{"icaoId":"KDFW","receiptTime":"2026-04-13T06:14:11.970Z","obsTime":1776060660,"reportTime":"2026-04-13T06:11:00.000Z","temp":21.1,"dewp":17.8,"wdir":180,"wspd":18,"wgst":26,"visib":"10+","altim":1017,"qcField":4,"metarType":"SPECI","rawOb":"SPECI KDFW 130611Z 18018G26KT 10SM BKN018 BKN025 21/18 A3003 RMK AO2 PK WND 18026/0605 T02110178","lat":32.8974,"lon":-97.022,"elev":168,"name":"Dallas-Ft Worth Intl, TX, US","cover":"BKN","clouds":[{"cover":"BKN","base":1800},{"cover":"BKN","base":2500}],"fltCat":"MVFR"},{"icaoId":"KACT","receiptTime":"2026-04-13T06:12:03.658Z","obsTime":1776060480,"reportTime":"2026-04-13T06:08:00.000Z","temp":21.1,"dewp":18.3,"wdir":160,"wspd":26,"wgst":38,"visib":"10+","altim":1017,"qcField":6,"wxString":"VCTS -RA","precip":0.01,"metarType":"SPECI","rawOb":"SPECI KACT 130608Z AUTO 16026G38KT 10SM VCTS -RA FEW065 FEW095 OVC120 21/18 A3003 RMK AO2 PK WND 16038/0600 LTG DSNT E-SW TSE02 P0001 T02110183","lat":31.618,"lon":-97.2283,"elev":150,"name":"Waco Rgnl, TX, US","cover":"OVC","clouds":[{"cover":"FEW","base":6500},{"cover":"FEW","base":9500},{"cover":"OVC","base":12000}],"fltCat":"VFR"},{"icaoId":"KMEV","receiptTime":"2026-04-13T06:40:15.511Z","obsTime":1776060300,"reportTime":"2026-04-13T06:05:00.000Z","temp":1,"dewp":1,"wdir":0,"wspd":0,"visib":9,"altim":1015.7,"qcField":6,"wxString":"-SN","metarType":"METAR","rawOb":"METAR KMEV 130605Z AUTO 00000KT 9SM -SN FEW003 OVC007 01/01 A2999 RMK AO2","lat":38.9963,"lon":-119.75,"elev":1437,"name":"Minden-Tahoe Arpt, NV, US","cover":"OVC","clouds":[{"cover":"FEW","base":300},{"cover":"OVC","base":700}],"fltCat":"IFR"},{"icaoId":"KLGU","receiptTime":"2026-04-13T06:06:02.909Z","obsTime":1776060120,"reportTime":"2026-04-13T06:02:00.000Z","temp":2.2,"dewp":1.1,"wdir":340,"wspd":4,"visib":8,"altim":1013.6,"qcField":6,"wxString":"-RA","precip":0.02,"metarType":"SPECI","rawOb":"SPECI KLGU 130602Z AUTO 34004KT 8SM -RA FEW010 OVC019 02/01 A2993 RMK AO2 P0002 T00220011","lat":41.7865,"lon":-111.8519,"elev":1359,"name":"Logan/Cache Arpt, UT, US","cover":"OVC","clouds":[{"cover":"FEW","base":1000},{"cover":"OVC","base":1900}],"fltCat":"MVFR"},{"icaoId":"KNYL","receiptTime":"2026-04-13T06:00:26.368Z","obsTime":1776059820,"reportTime":"2026-04-13T06:00:00.000Z","temp":20,"dewp":8.3,"wdir":310,"wspd":6,"visib":"10+","altim":1014.6,"slp":1014.3,"qcField":6,"presTend":1.5,"maxT":25,"minT":19.4,"metarType":"METAR","rawOb":"METAR KNYL 130557Z AUTO 31006KT 10SM CLR 20/08 A2996 RMK AO2 SLP143 T02000083 10250 20194 51015","lat":32.66,"lon":-114.6078,"elev":58,"name":"Yuma , AZ, US","cover":"CLR","clouds":[],"fltCat":"VFR"},{"icaoId":"KFLG","receiptTime":"2026-04-13T06:00:26.422Z","obsTime":1776059820,"reportTime":"2026-04-13T06:00:00.000Z","temp":6.1,"dewp":-6.1,"wdir":220,"wspd":17,"wgst":28,"visib":"10+","altim":1018,"slp":1011.6,"qcField":14,"presTend":0.8,"maxT":12.8,"minT":6.1,"metarType":"METAR","rawOb":"METAR KFLG 130557Z AUTO 22017G28KT 10SM CLR 06/M06 A3006 RMK AO2 PK WND 21034/0503 SLP116 T00611061 10128 20061 51008 $","lat":35.1443,"lon":-111.6664,"elev":2134,"name":"Flagstaff/Pulliam Arpt, AZ, US","cover":"CLR","clouds":[],"fltCat":"VFR"},{"icaoId":"KNFL","receiptTime":"2026-04-13T06:00:26.319Z","obsTime":1776059820,"reportTime":"2026-04-13T06:00:00.000Z","temp":6.7,"dewp":-1.7,"wdir":0,"wspd":0,"visib":"10+","altim":1014.3,"slp":1011.4,"qcField":14,"presTend":2.5,"maxT":12.2,"minT":6.1,"metarType":"METAR","rawOb":"METAR KNFL 130557Z AUTO 00000KT 10SM SCT060 OVC080 07/M02 A2995 RMK AO2 SLP114 6//// T00671017 10122 20061 51025 PNO $","lat":39.417,"lon":-118.705,"elev":1199,"name":"Fallon , NV, US","cover":"OVC","clouds":[{"cover":"SCT","base":6000},{"cover":"OVC","base":8000}],"fltCat":"VFR"},{"icaoId":"KCHS","receiptTime":"2026-04-13T06:00:22.565Z","obsTime":1776059760,"reportTime":"2026-04-13T06:00:00.000Z","temp":17.2,"dewp":16.7,"wdir":130,"wspd":3,"visib":"10+","altim":1027.5,"slp":1027.4,"qcField":12,"presTend":-0.6,"maxT":21.1,"minT":16.7,"metarType":"METAR","rawOb":"METAR KCHS 130556Z 13003KT 10SM CLR 17/17 A3034 RMK AO2 SLP274 T01720167 10211 20167 58006 $","lat":32.8995,"lon":-80.0407,"elev":12,"name":"Charleston Intl, SC, US","cover":"CLR","clouds":[],"fltCat":"VFR"},{"icaoId":"KLAS","receiptTime":"2026-04-13T06:00:16.277Z","obsTime":1776059760,"reportTime":"2026-04-13T06:00:00.000Z","temp":16.7,"dewp":-3.9,"wdir":210,"wspd":8,"wgst":19,"visib":"10+","altim":1012.6,"slp":1011.1,"qcField":4,"presTend":1.8,"maxT":20.6,"minT":16.7,"metarType":"METAR","rawOb":"METAR KLAS 130556Z 21008G19KT 10SM CLR 17/M04 A2990 RMK AO2 PK WND 21029/0503 SLP111 T01671039 10206 20167 51018","lat":36.0719,"lon":-115.1634,"elev":662,"name":"Las Vegas/Reid Intl, NV, US","cover":"CLR","clouds":[],"fltCat":"VFR"},{"icaoId":"KCOD","receiptTime":"2026-04-13T05:58:23.446Z","obsTime":1776059760,"reportTime":"2026-04-13T06:00:00.000Z","temp":8.9,"dewp":-2.8,"wdir":"VRB","wspd":3,"visib":"10+","altim":1008.5,"slp":1005.8,"qcField":14,"maxT":13.9,"minT":7.2,"pcp6hr":0.005,"metarType":"METAR","rawOb":"METAR KCOD 130556Z AUTO VRB03KT 10SM CLR 09/M03 A2978 RMK AO2 SLP058 60000 T00891028 10139 20072 50000 $","lat":44.52,"lon":-109.0268,"elev":1550,"name":"Cody/Yellowstone Rgnl, WY, US","cover":"CLR","clouds":[],"fltCat":"VFR"},{"icaoId":"KJAX","receiptTime":"2026-04-13T06:00:22.704Z","obsTime":1776059760,"reportTime":"2026-04-13T06:00:00.000Z","temp":14.4,"dewp":13.3,"wdir":0,"wspd":0,"visib":"10+","altim":1026.5,"slp":1026.4,"qcField":12,"presTend":-0.8,"maxT":22.8,"minT":14.4,"metarType":"METAR","rawOb":"METAR KJAX 130556Z 00000KT 10SM CLR 14/13 A3031 RMK AO2 SLP264 T01440133 10228 20144 58008 $","lat":30.4953,"lon":-81.6937,"elev":8,"name":"Jacksonville Intl, FL, US","cover":"CLR","clouds":[],"fltCat":"VFR"},{"icaoId":"KSBP","receiptTime":"2026-04-13T06:00:16.292Z","obsTime":1776059760,"reportTime":"2026-04-13T06:00:00.000Z","temp":10,"dewp":8.3,"wdir":200,"wspd":3,"visib":"10+","altim":1018.4,"slp":1018.1,"qcField":6,"presTend":1.8,"maxT":16.7,"minT":10,"metarType":"METAR","rawOb":"METAR KSBP 130556Z AUTO 20003KT 10SM CLR 10/08 A3007 RMK AO2 SLP181 T01000083 10167 20100 51018","lat":35.2381,"lon":-120.644,"elev":52,"name":"San Luis Obispo/San Luis Cnty, CA, US","cover":"CLR","clouds":[],"fltCat":"VFR"},{"icaoId":"KEKO","receiptTime":"2026-04-13T06:00:16.385Z","obsTime":1776059760,"reportTime":"2026-04-13T06:00:00.000Z","temp":2.8,"dewp":-0.6,"wdir":310,"wspd":7,"visib":"10+","altim":1013.3,"slp":1013.7,"qcField":6,"presTend":2.1,"maxT":10,"minT":1.7,"metarType":"METAR","rawOb":"METAR KEKO 130556Z AUTO 31007KT 10SM BKN110 03/M01 A2992 RMK AO2 SLP137 T00281006 10100 20017 51021","lat":40.824,"lon":-115.7863,"elev":1541,"name":"Elko Rgnl, NV, US","cover":"BKN","clouds":[{"cover":"BKN","base":11000}],"fltCat":"VFR"},{"icaoId":"KEGE","receiptTime":"2026-04-13T05:58:22.345Z","obsTime":1776059760,"reportTime":"2026-04-13T06:00:00.000Z","temp":10,"dewp":-6.1,"wdir":10,"wspd":4,"visib":"10+","altim":1013.6,"slp":1007.6,"qcField":6,"presTend":0.5,"maxT":17.2,"minT":8.9,"maxT24":19.4,"minT24":-1.7,"metarType":"METAR","rawOb":"METAR KEGE 130556Z AUTO 01004KT 10SM BKN100 10/M06 A2993 RMK AO2 SLP076 T01001061 10172 20089 401941017 51005","lat":39.6448,"lon":-106.9176,"elev":1993,"name":"Eagle Cnty Rgnl, CO, US","cover":"BKN","clouds":[{"cover":"BKN","base":10000}],"fltCat":"VFR"},{"icaoId":"KSGU","receiptTime":"2026-04-13T05:58:21.689Z","obsTime":1776059760,"reportTime":"2026-04-13T06:00:00.000Z","temp":17.2,"dewp":1.1,"wdir":270,"wspd":4,"visib":"10+","altim":1012.6,"slp":1010,"qcField":6,"presTend":2.3,"maxT":22.8,"minT":17.2,"metarType":"METAR","rawOb":"METAR KSGU 130556Z AUTO 27004KT 10SM BKN085 OVC110 17/01 A2990 RMK AO2 SLP100 T01720011 10228 20172 51023","lat":37.0444,"lon":-113.5034,"elev":877,"name":"Saint George Muni, UT, US","cover":"OVC","clouds":[{"cover":"BKN","base":8500},{"cover":"OVC","base":11000}],"fltCat":"VFR"},{"icaoId":"KRDM","receiptTime":"2026-04-13T06:00:16.428Z","obsTime":1776059760,"reportTime":"2026-04-13T06:00:00.000Z","temp":5.6,"dewp":2.2,"wdir":0,"wspd":0,"visib":"10+","altim":1010.6,"slp":1010.4,"qcField":6,"presTend":1.8,"maxT":10,"minT":5.6,"metarType":"METAR","rawOb":"METAR KRDM 130556Z AUTO 00000KT 10SM OVC065 06/02 A2984 RMK AO2 SLP104 T00560022 10100 20056 51018","lat":44.2558,"lon":-121.1407,"elev":930,"name":"Redmond Muni, OR, US","cover":"OVC","clouds":[{"cover":"OVC","base":6500}],"fltCat":"VFR"},{"icaoId":"KSFO","receiptTime":"2026-04-13T06:00:22.969Z","obsTime":1776059760,"reportTime":"2026-04-13T06:00:00.000Z","temp":12.2,"dewp":10,"wdir":240,"wspd":6,"visib":"10+","altim":1017.4,"slp":1017.1,"qcField":12,"presTend":2,"maxT":15,"minT":12.2,"precip":0.01,"pcp6hr":0.03,"metarType":"METAR","rawOb":"METAR KSFO 130556Z 24006KT 10SM FEW009 SCT039 BKN060 12/10 A3004 RMK AO2 RAE28 SLP171 P0001 60003 T01220100 10150 20122 51020 $","lat":37.6196,"lon":-122.3656,"elev":2,"name":"San Francisco Intl, CA, US","cover":"BKN","clouds":[{"cover":"FEW","base":900},{"cover":"SCT","base":3900},{"cover":"BKN","base":6000}],"fltCat":"VFR"},{"icaoId":"KINW","receiptTime":"2026-04-13T06:00:22.685Z","obsTime":1776059760,"reportTime":"2026-04-13T06:00:00.000Z","temp":12.8,"dewp":0.6,"wdir":220,"wspd":10,"visib":"10+","altim":1016.7,"slp":1011.6,"qcField":6,"presTend":1.5,"maxT":19.4,"minT":12.8,"metarType":"METAR","rawOb":"METAR KINW 130556Z AUTO 22010KT 10SM CLR 13/01 A3002 RMK AO2 SLP116 T01280006 10194 20128 51015","lat":35.0279,"lon":-110.7221,"elev":1492,"name":"Winslow/Lindberg Rgnl, AZ, US","cover":"CLR","clouds":[],"fltCat":"VFR"},{"icaoId":"KVIS","receiptTime":"2026-04-13T05:58:21.859Z","obsTime":1776059760,"reportTime":"2026-04-13T06:00:00.000Z","temp":12.8,"dewp":9.4,"wdir":0,"wspd":0,"visib":"10+","altim":1016.7,"slp":1016.5,"qcField":14,"presTend":1.2,"maxT":15.6,"minT":12.8,"metarType":"METAR","rawOb":"METAR KVIS 130556Z AUTO 00000KT 10SM CLR 13/09 A3002 RMK AO2 SLP165 6//// T01280094 10156 20128 50012 PNO $","lat":36.3135,"lon":-119.3884,"elev":92,"name":"Visalia Muni, CA, US","cover":"CLR","clouds":[],"fltCat":"VFR"},{"icaoId":"KLWS","receiptTime":"2026-04-13T06:00:22.947Z","obsTime":1776059760,"reportTime":"2026-04-13T06:00:00.000Z","temp":9.4,"dewp":9.4,"wdir":170,"wspd":5,"visib":9,"altim":1005.8,"slp":1005.8,"qcField":6,"wxString":"-RA","presTend":1.3,"maxT":13.3,"minT":9.4,"precip":0.12,"pcp6hr":0.81,"metarType":"METAR","rawOb":"METAR KLWS 130556Z AUTO 17005KT 9SM -RA FEW042 OVC050 09/09 A2970 RMK AO2 SLP058 P0012 60081 T00940094 10133 20094 51013","lat":46.3746,"lon":-117.0153,"elev":435,"name":"Lewiston/Nez Perce Cnty, ID, US","cover":"OVC","clouds":[{"cover":"FEW","base":4200},{"cover":"OVC","base":5000}],"fltCat":"VFR"},{"icaoId":"KCOE","receiptTime":"2026-04-13T05:58:22.163Z","obsTime":1776059760,"reportTime":"2026-04-13T06:00:00.000Z","temp":9.4,"dewp":7.2,"wdir":250,"wspd":8,"visib":"10+","altim":1004.8,"slp":1006.6,"qcField":14,"presTend":1.8,"maxT":16.1,"minT":9.4,"metarType":"METAR","rawOb":"METAR KCOE 130556Z AUTO 25008KT 10SM SCT032 OVC055 09/07 A2967 RMK AO2 SLP066 6//// T00940072 10161 20094 51018 PNO $","lat":47.7719,"lon":-116.8332,"elev":693,"name":"Coeur DAlene Arpt, ID, US","cover":"OVC","clouds":[{"cover":"SCT","base":3200},{"cover":"OVC","base":5500}],"fltCat":"VFR"},{"icaoId":"KENV","receiptTime":"2026-04-13T05:58:22.404Z","obsTime":1776059760,"reportTime":"2026-04-13T06:00:00.000Z","temp":7.2,"dewp":1.1,"wdir":110,"wspd":9,"visib":"10+","altim":1014,"slp":1012.7,"qcField":6,"presTend":2.6,"maxT":12.2,"minT":7.2,"maxT24":18.3,"minT24":7.2,"metarType":"METAR","rawOb":"METAR KENV 130556Z AUTO 11009KT 10SM OVC080 07/01 A2994 RMK AO2 SLP127 T00720011 10122 20072 401830072 51026","lat":40.7211,"lon":-114.0312,"elev":1291,"name":"Wendover Arpt, UT, US","cover":"OVC","clouds":[{"cover":"OVC","base":8000}],"fltCat":"VFR"},{"icaoId":"KGUC","receiptTime":"2026-04-13T05:58:20.881Z","obsTime":1776059760,"reportTime":"2026-04-13T06:00:00.000Z","temp":6.1,"dewp":-5.6,"wdir":0,"wspd":0,"visib":"10+","altim":1016.3,"slp":1010.8,"qcField":14,"presTend":0.7,"maxT":13.3,"minT":6.1,"maxT24":17.2,"minT24":-3.9,"metarType":"METAR","rawOb":"METAR KGUC 130556Z AUTO 00000KT 10SM BKN100 06/M06 A3001 RMK AO2 SLP108 T00611056 10133 20061 401721039 51007 $","lat":38.5322,"lon":-106.9419,"elev":2337,"name":"Gunnison Arpt, CO, US","cover":"BKN","clouds":[{"cover":"BKN","base":10000}],"fltCat":"VFR"},{"icaoId":"KSDF","receiptTime":"2026-04-13T06:00:15.662Z","obsTime":1776059760,"reportTime":"2026-04-13T06:00:00.000Z","temp":25,"dewp":8.3,"wdir":210,"wspd":13,"wgst":26,"visib":"10+","altim":1018,"slp":1017.2,"qcField":4,"presTend":0.3,"maxT":26.1,"minT":24.4,"metarType":"METAR","rawOb":"METAR KSDF 130556Z 21013G26KT 10SM BKN080 OVC100 25/08 A3006 RMK AO2 PK WND 20027/0520 SLP172 T02500083 10261 20244 53003","lat":38.1774,"lon":-85.7308,"elev":146,"name":"Louisville Intl, KY, US","cover":"OVC","clouds":[{"cover":"BKN","base":8000},{"cover":"OVC","base":10000}],"fltCat":"VFR"},{"icaoId":"KTPH","receiptTime":"2026-04-13T06:00:12.306Z","obsTime":1776059760,"reportTime":"2026-04-13T06:00:00.000Z","temp":5.6,"dewp":-8.3,"wdir":310,"wspd":5,"visib":"10+","altim":1013.6,"slp":1011.7,"qcField":6,"presTend":2.5,"maxT":12.2,"minT":3.9,"metarType":"METAR","rawOb":"METAR KTPH 130556Z AUTO 31005KT 10SM FEW120 06/M08 A2993 RMK AO2 SLP117 T00561083 10122 20039 51025","lat":38.0505,"lon":-117.0906,"elev":1647,"name":"Tonopah Arpt, NV, US","cover":"FEW","clouds":[{"cover":"FEW","base":12000}],"fltCat":"VFR"},{"icaoId":"KUKI","receiptTime":"2026-04-13T06:00:12.331Z","obsTime":1776059760,"reportTime":"2026-04-13T06:00:00.000Z","temp":7.8,"dewp":6.1,"wdir":0,"wspd":0,"visib":"10+","altim":1017,"slp":1016.6,"qcField":6,"presTend":2.7,"maxT":14.4,"minT":7.8,"metarType":"METAR","rawOb":"METAR KUKI 130556Z AUTO 00000KT 10SM OVC049 08/06 A3003 RMK AO2 SLP166 T00780061 10144 20078 52027","lat":39.1278,"lon":-123.2001,"elev":183,"name":"Ukiah Muni, CA, US","cover":"OVC","clouds":[{"cover":"OVC","base":4900}],"fltCat":"VFR"},{"icaoId":"KDUG","receiptTime":"2026-04-13T06:02:06.902Z","obsTime":1776059760,"reportTime":"2026-04-13T06:00:00.000Z","temp":18.9,"dewp":1.1,"wdir":220,"wspd":15,"visib":"10+","altim":1020.1,"slp":1013.7,"qcField":38,"presTend":1,"maxT":21.7,"minT":18.3,"metarType":"METAR","rawOb":"METAR KDUG 130556Z AUTO 22015KT 10SM CLR 19/01 A3012 RMK AO2 SLP137 T01890011 10217 20183 51010 TSNO","lat":31.4725,"lon":-109.6022,"elev":1260,"name":"Douglas/Bisbee Intl, AZ, US","cover":"CLR","clouds":[],"fltCat":"VFR"},{"icaoId":"KFNL","receiptTime":"2026-04-13T05:58:22.519Z","obsTime":1776059760,"reportTime":"2026-04-13T06:00:00.000Z","temp":16.7,"dewp":-8.3,"wdir":300,"wspd":3,"visib":"10+","altim":1008.2,"slp":1001.9,"qcField":14,"presTend":0.3,"maxT":25,"minT":15.6,"metarType":"METAR","rawOb":"METAR KFNL 130556Z AUTO 30003KT 10SM CLR 17/M08 A2977 RMK AO2 SLP019 T01671083 10250 20156 50003 $","lat":40.4427,"lon":-105.0097,"elev":1529,"name":"Fort Collins/N Colorado Rgnl, CO, US","cover":"CLR","clouds":[],"fltCat":"VFR"},{"icaoId":"KHND","receiptTime":"2026-04-13T05:58:21.498Z","obsTime":1776059760,"reportTime":"2026-04-13T06:00:00.000Z","temp":15.6,"dewp":-1.7,"wdir":210,"wspd":14,"wgst":20,"visib":"10+","altim":1013.3,"slp":1013.4,"qcField":12,"presTend":1.7,"maxT":19.4,"minT":15.6,"metarType":"METAR","rawOb":"METAR KHND 130556Z 21014G20KT 10SM CLR 16/M02 A2992 RMK AO2 SLP134 T01561017 10194 20156 51017 $","lat":35.9657,"lon":-115.1343,"elev":740,"name":"Henderson Exec, NV, US","cover":"CLR","clouds":[],"fltCat":"VFR"},{"icaoId":"KPWT","receiptTime":"2026-04-13T05:58:21.265Z","obsTime":1776059760,"reportTime":"2026-04-13T06:00:00.000Z","temp":8.3,"dewp":7.8,"wdir":200,"wspd":7,"visib":"10+","altim":1010.6,"slp":1011.1,"qcField":6,"presTend":1.6,"maxT":12.2,"minT":8.3,"pcp6hr":0.01,"metarType":"METAR","rawOb":"METAR KPWT 130556Z AUTO 20007KT 10SM BKN012 08/08 A2984 RMK AO2 SLP111 60001 T00830078 10122 20083 51016","lat":47.4942,"lon":-122.7594,"elev":143,"name":"Bremerton Arpt, WA, US","cover":"BKN","clouds":[{"cover":"BKN","base":1200}],"fltCat":"MVFR"},{"icaoId":"KHDN","receiptTime":"2026-04-13T05:58:20.926Z","obsTime":1776059760,"reportTime":"2026-04-13T06:00:00.000Z","temp":8.3,"dewp":-3.3,"wdir":0,"wspd":0,"visib":"10+","altim":1013,"slp":1007.4,"qcField":6,"presTend":0.5,"maxT":17.2,"minT":6.7,"maxT24":18.9,"minT24":-1.1,"metarType":"METAR","rawOb":"METAR KHDN 130556Z AUTO 00000KT 10SM FEW038 BKN090 OVC110 08/M03 A2991 RMK AO2 SLP074 T00831033 10172 20067 401891011 53005","lat":40.4842,"lon":-107.2296,"elev":2012,"name":"Hayden/Yampa Valley Arpt, CO, US","cover":"OVC","clouds":[{"cover":"FEW","base":3800},{"cover":"BKN","base":9000},{"cover":"OVC","base":11000}],"fltCat":"VFR"},{"icaoId":"KCGZ","receiptTime":"2026-04-13T05:58:23.382Z","obsTime":1776059760,"reportTime":"2026-04-13T06:00:00.000Z","temp":20,"dewp":5,"wdir":210,"wspd":7,"visib":"10+","altim":1016,"slp":1014.8,"qcField":14,"presTend":1.6,"maxT":26.1,"minT":20,"metarType":"METAR","rawOb":"METAR KCGZ 130556Z AUTO 21007KT 10SM CLR 20/05 A3000 RMK AO2 SLP148 6//// T02000050 10261 20200 51016 $","lat":32.9531,"lon":-111.7725,"elev":444,"name":"Casa Granda Muni, AZ, US","cover":"CLR","clouds":[],"fltCat":"VFR"},{"icaoId":"KCMA","receiptTime":"2026-04-13T05:58:23.417Z","obsTime":1776059700,"reportTime":"2026-04-13T06:00:00.000Z","temp":13.3,"dewp":9.4,"wdir":0,"wspd":0,"visib":"10+","altim":1017.4,"slp":1018,"qcField":6,"presTend":1.2,"maxT":18.3,"minT":13.3,"metarType":"METAR","rawOb":"METAR KCMA 130555Z AUTO 00000KT 10SM CLR 13/09 A3004 RMK AO2 SLP180 T01330094 10183 20133 51012","lat":34.2114,"lon":-119.0876,"elev":20,"name":"Camarillo Arpt, CA, US","cover":"CLR","clouds":[],"fltCat":"VFR"},{"icaoId":"KLUF","receiptTime":"2026-04-13T06:14:04.173Z","obsTime":1776059700,"reportTime":"2026-04-13T06:00:00.000Z","temp":20.9,"dewp":1.7,"wdir":170,"wspd":5,"visib":"10+","altim":1014.3,"slp":1013.2,"qcField":14,"presTend":1.7,"maxT":26.8,"minT":20.9,"metarType":"METAR","rawOb":"METAR KLUF 130555Z AUTO 17005KT 10SM CLR 21/02 A2995 RMK AO2 SLP132 T02090017 10268 20209 51017 $","lat":33.538,"lon":-112.38,"elev":333,"name":"Phoenix/Luke AFB, AZ, US","cover":"CLR","clouds":[],"fltCat":"VFR"},{"icaoId":"KRNO","receiptTime":"2026-04-13T05:58:21.298Z","obsTime":1776059700,"reportTime":"2026-04-13T06:00:00.000Z","temp":3.3,"dewp":0,"wdir":180,"wspd":9,"visib":"10+","altim":1015,"slp":1014.7,"qcField":4,"presTend":2.1,"maxT":7.2,"minT":3.3,"metarType":"METAR","rawOb":"METAR KRNO 130555Z 18009KT 10SM FEW055 BKN100 03/00 A2997 RMK AO2 SLP147 T00330000 10072 20033 51021","lat":39.5077,"lon":-119.7683,"elev":1344,"name":"Reno/Tahoe Intl, NV, US","cover":"BKN","clouds":[{"cover":"FEW","base":5500},{"cover":"BKN","base":10000}],"fltCat":"VFR"},{"icaoId":"KIND","receiptTime":"2026-04-13T05:58:16.742Z","obsTime":1776059640,"reportTime":"2026-04-13T06:00:00.000Z","temp":22.8,"dewp":10,"wdir":220,"wspd":26,"wgst":40,"visib":"10+","altim":1014.6,"slp":1013.9,"qcField":4,"presTend":-0.2,"maxT":23.9,"minT":20,"pcp6hr":0.005,"metarType":"METAR","rawOb":"METAR KIND 130554Z 22026G40KT 10SM BKN060 OVC070 23/10 A2996 RMK AO2 PK WND 24056/0531 SLP139 60000 T02280100 10239 20200 55002","lat":39.7252,"lon":-86.2816,"elev":242,"name":"Indianapolis Intl, IN, US","cover":"OVC","clouds":[{"cover":"BKN","base":6000},{"cover":"OVC","base":7000}],"fltCat":"VFR"},{"icaoId":"KBFL","receiptTime":"2026-04-13T05:58:17.521Z","obsTime":1776059640,"reportTime":"2026-04-13T06:00:00.000Z","temp":12.2,"dewp":5,"wdir":330,"wspd":8,"visib":"10+","altim":1016.7,"slp":1016.4,"qcField":12,"presTend":2.2,"maxT":20,"minT":12.2,"metarType":"METAR","rawOb":"METAR KBFL 130554Z 33008KT 10SM SCT075 BKN090 12/05 A3002 RMK AO2 SLP164 T01220050 10200 20122 51022 $","lat":35.4342,"lon":-119.0552,"elev":146,"name":"Bakersfield/Meadows Arpt, CA, US","cover":"BKN","clouds":[{"cover":"SCT","base":7500},{"cover":"BKN","base":9000}],"fltCat":"VFR"},{"icaoId":"KFFZ","receiptTime":"2026-04-13T05:58:16.581Z","obsTime":1776059640,"reportTime":"2026-04-13T06:00:00.000Z","temp":20.6,"dewp":3.9,"wdir":260,"wspd":4,"visib":"10+","altim":1015,"slp":1012.8,"qcField":6,"presTend":1.9,"maxT":26.7,"minT":20.6,"metarType":"METAR","rawOb":"METAR KFFZ 130554Z AUTO 26004KT 10SM CLR 21/04 A2997 RMK AO2 SLP128 T02060039 10267 20206 50019","lat":33.4659,"lon":-111.7212,"elev":420,"name":"Mesa/Falcon Fld, AZ, US","cover":"CLR","clouds":[],"fltCat":"VFR"},{"icaoId":"KGCN","receiptTime":"2026-04-13T05:58:17.585Z","obsTime":1776059640,"reportTime":"2026-04-13T06:00:00.000Z","temp":5,"dewp":-6.1,"wdir":240,"wspd":7,"visib":"10+","altim":1017.7,"slp":1012.6,"qcField":6,"presTend":1.6,"maxT":13.9,"minT":5,"metarType":"METAR","rawOb":"METAR KGCN 130554Z AUTO 24007KT 10SM CLR 05/M06 A3005 RMK AO2 SLP126 T00501061 10139 20050 51016","lat":35.9458,"lon":-112.1554,"elev":1993,"name":"Grand Canyon Park Arpt, AZ, US","cover":"CLR","clouds":[],"fltCat":"VFR"},{"icaoId":"KSYR","receiptTime":"2026-04-13T05:58:17.790Z","obsTime":1776059640,"reportTime":"2026-04-13T06:00:00.000Z","temp":16.7,"dewp":6.1,"wdir":180,"wspd":20,"wgst":27,"visib":"10+","altim":1015,"slp":1014.4,"qcField":12,"presTend":-1.7,"maxT":17.8,"minT":16.1,"metarType":"METAR","rawOb":"METAR KSYR 130554Z 18020G27KT 10SM SCT220 17/06 A2997 RMK AO2 PK WND 19033/0542 SLP144 T01670061 10178 20161 56017 $","lat":43.1111,"lon":-76.1038,"elev":125,"name":"Syracuse/Hancock Intl, NY, US","cover":"SCT","clouds":[{"cover":"SCT","base":22000}],"fltCat":"VFR"},{"icaoId":"KMEM","receiptTime":"2026-04-13T05:58:14.730Z","obsTime":1776059640,"reportTime":"2026-04-13T06:00:00.000Z","temp":23.9,"dewp":12.2,"wdir":210,"wspd":12,"wgst":23,"visib":"10+","altim":1020.4,"slp":1019.8,"qcField":12,"presTend":0.8,"maxT":25.6,"minT":23.3,"maxT24":28.3,"minT24":16.7,"metarType":"METAR","rawOb":"METAR KMEM 130554Z 21012G23KT 10SM FEW095 BKN140 OVC160 24/12 A3013 RMK AO2 SLP198 T02390122 10256 20233 402830167 53008 $","lat":35.0564,"lon":-89.9864,"elev":78,"name":"Memphis Intl, TN, US","cover":"OVC","clouds":[{"cover":"FEW","base":9500},{"cover":"BKN","base":14000},{"cover":"OVC","base":16000}],"fltCat":"VFR"},{"icaoId":"KAPC","receiptTime":"2026-04-13T05:58:17.506Z","obsTime":1776059640,"reportTime":"2026-04-13T06:00:00.000Z","temp":11.1,"dewp":9.4,"wdir":240,"wspd":4,"visib":"10+","altim":1017,"slp":1016,"qcField":6,"presTend":2.4,"maxT":15,"minT":10.6,"pcp6hr":0.03,"metarType":"METAR","rawOb":"METAR KAPC 130554Z AUTO 24004KT 10SM SCT045 BKN050 BKN085 11/09 A3003 RMK AO2 SLP160 60003 T01110094 10150 20106 51024","lat":38.2075,"lon":-122.2804,"elev":5,"name":"Napa Cnty Arpt, CA, US","cover":"BKN","clouds":[{"cover":"SCT","base":4500},{"cover":"BKN","base":5000},{"cover":"BKN","base":8500}],"fltCat":"VFR"},{"icaoId":"KBWI","receiptTime":"2026-04-13T05:58:13.866Z","obsTime":1776059640,"reportTime":"2026-04-13T06:00:00.000Z","temp":12.2,"dewp":10,"wdir":0,"wspd":0,"visib":"10+","altim":1023.1,"slp":1023.1,"qcField":12,"presTend":-2.2,"maxT":15,"minT":11.7,"metarType":"METAR","rawOb":"METAR KBWI 130554Z 00000KT 10SM OVC230 12/10 A3021 RMK AO2 SLP231 T01220100 10150 20117 58022 $","lat":39.1733,"lon":-76.684,"elev":42,"name":"Baltimore-Washington Intl, MD, US","cover":"OVC","clouds":[{"cover":"OVC","base":23000}],"fltCat":"VFR"},{"icaoId":"KRIC","receiptTime":"2026-04-13T05:58:17.959Z","obsTime":1776059640,"reportTime":"2026-04-13T06:00:00.000Z","temp":17.8,"dewp":13.9,"wdir":190,"wspd":14,"visib":"10+","altim":1024.5,"slp":1024.7,"qcField":12,"presTend":-0.8,"maxT":17.8,"minT":16.7,"metarType":"METAR","rawOb":"METAR KRIC 130554Z 19014KT 10SM BKN300 18/14 A3025 RMK AO2 SLP247 T01780139 10178 20167 58008 $","lat":37.5115,"lon":-77.3234,"elev":51,"name":"Richmond Intl, VA, US","cover":"BKN","clouds":[{"cover":"BKN","base":30000}],"fltCat":"VFR"},{"icaoId":"KRKS","receiptTime":"2026-04-13T05:58:07.590Z","obsTime":1776059640,"reportTime":"2026-04-13T06:00:00.000Z","temp":6.7,"dewp":-2.8,"wdir":190,"wspd":5,"visib":"10+","altim":1011.6,"slp":1006.4,"qcField":6,"presTend":1,"maxT":13.3,"minT":5.6,"metarType":"METAR","rawOb":"METAR KRKS 130554Z AUTO 19005KT 10SM BKN055 OVC075 07/M03 A2987 RMK AO2 SLP064 T00671028 10133 20056 53010","lat":41.5947,"lon":-109.0529,"elev":2062,"name":"Rock Springs/SW Wyoming Rgnl, WY, US","cover":"OVC","clouds":[{"cover":"BKN","base":5500},{"cover":"OVC","base":7500}],"fltCat":"VFR"},{"icaoId":"KSJN","receiptTime":"2026-04-13T05:58:07.714Z","obsTime":1776059640,"reportTime":"2026-04-13T06:00:00.000Z","temp":12.8,"dewp":2.2,"wdir":220,"wspd":9,"wgst":17,"visib":"10+","altim":1018.4,"slp":1011,"qcField":6,"presTend":0.9,"maxT":18.9,"minT":12.8,"metarType":"METAR","rawOb":"METAR KSJN 130554Z AUTO 22009G17KT 10SM CLR 13/02 A3007 RMK AO2 SLP110 T01280022 10189 20128 51009","lat":34.5184,"lon":-109.3801,"elev":1747,"name":"St Johns Ind Arpt, AZ, US","cover":"CLR","clouds":[],"fltCat":"VFR"},{"icaoId":"KCOS","receiptTime":"2026-04-13T05:58:12.248Z","obsTime":1776059640,"reportTime":"2026-04-13T06:00:00.000Z","temp":15,"dewp":-8.9,"wdir":240,"wspd":16,"visib":"10+","altim":1011.9,"slp":1004.4,"qcField":4,"presTend":0.6,"maxT":21.1,"minT":13.9,"metarType":"METAR","rawOb":"METAR KCOS 130554Z 24016KT 10SM SCT250 15/M09 A2988 RMK AO2 PK WND 24027/0524 SLP044 T01501089 10211 20139 50006","lat":38.8095,"lon":-104.6887,"elev":1886,"name":"Colorado Spring Arpt, CO, US","cover":"SCT","clouds":[{"cover":"SCT","base":25000}],"fltCat":"VFR"},{"icaoId":"KPHL","receiptTime":"2026-04-13T05:58:17.910Z","obsTime":1776059640,"reportTime":"2026-04-13T06:00:00.000Z","temp":10.6,"dewp":5,"wdir":100,"wspd":3,"visib":"10+","altim":1024.8,"slp":1024.6,"qcField":12,"presTend":-2.3,"maxT":14.4,"minT":10,"metarType":"METAR","rawOb":"METAR KPHL 130554Z 10003KT 10SM BKN280 11/05 A3026 RMK AO2 SLP246 T01060050 10144 20100 58023 $","lat":39.8733,"lon":-75.2268,"elev":2,"name":"Philadelphia Intl, PA, US","cover":"BKN","clouds":[{"cover":"BKN","base":28000}],"fltCat":"VFR"},{"icaoId":"KBUF","receiptTime":"2026-04-13T05:58:12.218Z","obsTime":1776059640,"reportTime":"2026-04-13T06:00:00.000Z","temp":19.4,"dewp":9.4,"wdir":200,"wspd":12,"visib":"10+","altim":1012.6,"slp":1012.3,"qcField":12,"presTend":-0.7,"maxT":20.6,"minT":18.3,"metarType":"METAR","rawOb":"METAR KBUF 130554Z 20012KT 10SM FEW080 BKN250 19/09 A2990 RMK AO2 SLP123 T01940094 10206 20183 56007 $","lat":42.94,"lon":-78.7361,"elev":217,"name":"Buffalo-Niagara Intl, NY, US","cover":"BKN","clouds":[{"cover":"FEW","base":8000},{"cover":"BKN","base":25000}],"fltCat":"VFR"},{"icaoId":"KGSO","receiptTime":"2026-04-13T05:58:17.839Z","obsTime":1776059640,"reportTime":"2026-04-13T06:00:00.000Z","temp":19.4,"dewp":12.8,"wdir":200,"wspd":13,"visib":"10+","altim":1025.5,"slp":1024.7,"qcField":12,"presTend":0.1,"maxT":23.3,"minT":19.4,"metarType":"METAR","rawOb":"METAR KGSO 130554Z 20013KT 10SM OVC250 19/13 A3028 RMK AO2 SLP247 T01940128 10233 20194 50001 $","lat":36.0969,"lon":-79.9432,"elev":275,"name":"Greensboro Intl, NC, US","cover":"OVC","clouds":[{"cover":"OVC","base":25000}],"fltCat":"VFR"},{"icaoId":"KROC","receiptTime":"2026-04-13T05:58:17.990Z","obsTime":1776059640,"reportTime":"2026-04-13T06:00:00.000Z","temp":17.8,"dewp":8.3,"wdir":200,"wspd":16,"wgst":26,"visib":"10+","altim":1013,"slp":1013.2,"qcField":4,"presTend":-0.9,"maxT":18.9,"minT":16.7,"pcp6hr":0.005,"metarType":"METAR","rawOb":"METAR KROC 130554Z 20016G26KT 10SM SCT180 BKN250 18/08 A2991 RMK AO2 PK WND 22026/0552 SLP132 60000 T01780083 10189 20167 56009","lat":43.1172,"lon":-77.6754,"elev":166,"name":"Rochester Intl Arpt, NY, US","cover":"BKN","clouds":[{"cover":"SCT","base":18000},{"cover":"BKN","base":25000}],"fltCat":"VFR"},{"icaoId":"KOLM","receiptTime":"2026-04-13T05:58:17.603Z","obsTime":1776059640,"reportTime":"2026-04-13T06:00:00.000Z","temp":9.4,"dewp":6.1,"wdir":210,"wspd":7,"visib":"10+","altim":1011.6,"slp":1011.5,"qcField":14,"presTend":1.9,"maxT":12.8,"minT":9.4,"metarType":"METAR","rawOb":"METAR KOLM 130554Z AUTO 21007KT 10SM OVC025 09/06 A2987 RMK AO2 SLP115 T00940061 10128 20094 51019 $","lat":46.9737,"lon":-122.9049,"elev":58,"name":"Olympia Rgnl, WA, US","cover":"OVC","clouds":[{"cover":"OVC","base":2500}],"fltCat":"MVFR"},{"icaoId":"KOLS","receiptTime":"2026-04-13T05:58:17.617Z","obsTime":1776059640,"reportTime":"2026-04-13T06:00:00.000Z","temp":17.8,"dewp":2.2,"wdir":200,"wspd":10,"visib":"10+","altim":1020.1,"slp":1014.2,"qcField":6,"presTend":1,"maxT":20.6,"minT":17.8,"metarType":"METAR","rawOb":"METAR KOLS 130554Z AUTO 20010KT 10SM FEW070 18/02 A3012 RMK AO2 SLP142 T01780022 10206 20178 50010","lat":31.4208,"lon":-110.8465,"elev":1194,"name":"Nogales Intl, AZ, US","cover":"FEW","clouds":[{"cover":"FEW","base":7000}],"fltCat":"VFR"},{"icaoId":"KDSM","receiptTime":"2026-04-13T05:58:12.442Z","obsTime":1776059640,"reportTime":"2026-04-13T06:00:00.000Z","temp":17.2,"dewp":16.1,"wdir":200,"wspd":9,"visib":"10+","altim":1007.9,"slp":1007.5,"qcField":4,"presTend":0.5,"maxT":18.3,"minT":16.7,"maxT24":21.1,"minT24":15.6,"metarType":"METAR","rawOb":"METAR KDSM 130554Z 20009KT 10SM CLR 17/16 A2976 RMK AO2 SLP075 T01720161 10183 20167 402110156 53005","lat":41.5339,"lon":-93.6531,"elev":286,"name":"Des Moines Intl, IA, US","cover":"CLR","clouds":[],"fltCat":"VFR"},{"icaoId":"KBTV","receiptTime":"2026-04-13T05:58:12.200Z","obsTime":1776059640,"reportTime":"2026-04-13T06:00:00.000Z","temp":8.3,"dewp":3.9,"wdir":170,"wspd":10,"wgst":16,"visib":"10+","altim":1017,"slp":1017.2,"qcField":14,"presTend":-3.9,"maxT":8.3,"minT":5.6,"precip":0.01,"pcp6hr":0.21,"metarType":"METAR","rawOb":"METAR KBTV 130554Z AUTO 17010G16KT 10SM OVC070 08/04 A3003 RMK AO2 RAE37 SLP172 P0001 60021 T00830039 10083 20056 58039 $","lat":44.4682,"lon":-73.1499,"elev":101,"name":"Burlington Intl, VT, US","cover":"OVC","clouds":[{"cover":"OVC","base":7000}],"fltCat":"VFR"},{"icaoId":"KSNA","receiptTime":"2026-04-13T05:57:04.404Z","obsTime":1776059580,"reportTime":"2026-04-13T06:00:00.000Z","temp":16.1,"dewp":8.9,"wdir":0,"wspd":0,"visib":"10+","altim":1017.4,"slp":1017.3,"qcField":12,"presTend":1.1,"maxT":18.3,"minT":15.6,"pcp6hr":0.005,"metarType":"METAR","rawOb":"METAR KSNA 130553Z 00000KT 10SM FEW039 16/09 A3004 RMK AO2 SLP173 LAST 60000 T01610089 10183 20156 51011 $","lat":33.6798,"lon":-117.8675,"elev":14,"name":"Santa Ana/Wayne Arpt, CA, US","cover":"FEW","clouds":[{"cover":"FEW","base":3900}],"fltCat":"VFR"},{"icaoId":"KGEG","receiptTime":"2026-04-13T05:57:01.446Z","obsTime":1776059580,"reportTime":"2026-04-13T06:00:00.000Z","temp":9.4,"dewp":7.2,"wdir":210,"wspd":11,"visib":"10+","altim":1004.8,"slp":1004.8,"qcField":12,"presTend":1.4,"maxT":16.1,"minT":9.4,"metarType":"METAR","rawOb":"METAR KGEG 130553Z 21011KT 10SM SCT009 SCT055 BKN075 OVC170 09/07 A2967 RMK AO2 SLP048 T00940072 10161 20094 51014 $","lat":47.6217,"lon":-117.528,"elev":718,"name":"Spokane Intl, WA, US","cover":"OVC","clouds":[{"cover":"SCT","base":900},{"cover":"SCT","base":5500},{"cover":"BKN","base":7500},{"cover":"OVC","base":17000}],"fltCat":"VFR"},{"icaoId":"KBUR","receiptTime":"2026-04-13T05:57:04.701Z","obsTime":1776059580,"reportTime":"2026-04-13T06:00:00.000Z","temp":13.9,"dewp":6.1,"wdir":300,"wspd":4,"visib":"10+","altim":1017.7,"slp":1016.5,"qcField":4,"presTend":1.2,"maxT":18.3,"minT":13.9,"metarType":"METAR","rawOb":"METAR KBUR 130553Z 30004KT 10SM CLR 14/06 A3005 RMK AO2 SLP165 T01390061 10183 20139 51012","lat":34.1996,"lon":-118.3654,"elev":221,"name":"Burbank/Bob Hope Arpt, CA, US","cover":"CLR","clouds":[],"fltCat":"VFR"},{"icaoId":"KCYS","receiptTime":"2026-04-13T05:57:04.895Z","obsTime":1776059580,"reportTime":"2026-04-13T06:00:00.000Z","temp":10,"dewp":-10.6,"wdir":260,"wspd":3,"visib":"10+","altim":1010.2,"slp":1003.6,"qcField":14,"presTend":0.5,"maxT":18.9,"minT":9.4,"metarType":"METAR","rawOb":"METAR KCYS 130553Z AUTO 26003KT 10SM CLR 10/M11 A2983 RMK AO2 SLP036 T01001106 10189 20094 51005 $","lat":41.1579,"lon":-104.8081,"elev":1868,"name":"Cheyenne Rgnl, WY, US","cover":"CLR","clouds":[],"fltCat":"VFR"},{"icaoId":"KPSC","receiptTime":"2026-04-13T05:56:43.170Z","obsTime":1776059580,"reportTime":"2026-04-13T06:00:00.000Z","temp":13.9,"dewp":7.8,"wdir":210,"wspd":7,"visib":"10+","altim":1005.5,"slp":1005.3,"qcField":6,"presTend":1.4,"maxT":17.2,"minT":13.9,"metarType":"METAR","rawOb":"METAR KPSC 130553Z AUTO 21007KT 10SM BKN070 OVC100 14/08 A2969 RMK AO2 SLP053 T01390078 10172 20139 51014","lat":46.2695,"lon":-119.1182,"elev":121,"name":"Pasco/Tri Cities Arpt, WA, US","cover":"OVC","clouds":[{"cover":"BKN","base":7000},{"cover":"OVC","base":10000}],"fltCat":"VFR"},{"icaoId":"KYKM","receiptTime":"2026-04-13T05:56:50.183Z","obsTime":1776059580,"reportTime":"2026-04-13T06:00:00.000Z","temp":9.4,"dewp":3.9,"wdir":340,"wspd":5,"visib":"10+","altim":1006.5,"slp":1006.3,"qcField":14,"presTend":1.7,"maxT":17.2,"minT":8.9,"pcp6hr":0.005,"metarType":"METAR","rawOb":"METAR KYKM 130553Z AUTO 34005KT 10SM CLR 09/04 A2972 RMK AO2 SLP063 60000 T00940039 10172 20089 51017 $","lat":46.564,"lon":-120.5349,"elev":319,"name":"Yakima/McAllister Fld, WA, US","cover":"CLR","clouds":[],"fltCat":"VFR"},{"icaoId":"KSEA","receiptTime":"2026-04-13T05:57:04.230Z","obsTime":1776059580,"reportTime":"2026-04-13T06:00:00.000Z","temp":9.4,"dewp":6.7,"wdir":210,"wspd":8,"visib":"10+","altim":1010.9,"slp":1011.4,"qcField":4,"presTend":1.8,"maxT":12.8,"minT":9.4,"pcp6hr":0.01,"metarType":"METAR","rawOb":"METAR KSEA 130553Z 21008KT 10SM BKN016 OVC023 09/07 A2985 RMK AO2 SLP114 60001 T00940067 10128 20094 51018","lat":47.4447,"lon":-122.3144,"elev":115,"name":"Seattle-Tacoma Intl, WA, US","cover":"OVC","clouds":[{"cover":"BKN","base":1600},{"cover":"OVC","base":2300}],"fltCat":"MVFR"},{"icaoId":"KCDC","receiptTime":"2026-04-13T05:56:48.028Z","obsTime":1776059580,"reportTime":"2026-04-13T06:00:00.000Z","temp":7.2,"dewp":2.2,"wdir":250,"wspd":6,"visib":"10+","altim":1014.3,"slp":1010.2,"qcField":6,"presTend":2.6,"maxT":15,"minT":7.2,"precip":0.005,"pcp6hr":0.005,"metarType":"METAR","rawOb":"METAR KCDC 130553Z AUTO 25006KT 10SM FEW030 BKN065 OVC110 07/02 A2995 RMK AO2 RAE0455B15E30 SLP102 P0000 60000 T00720022 10150 20072 51026","lat":37.7067,"lon":-113.097,"elev":1703,"name":"Cedar City Muni, UT, US","cover":"OVC","clouds":[{"cover":"FEW","base":3000},{"cover":"BKN","base":6500},{"cover":"OVC","base":11000}],"fltCat":"VFR"},{"icaoId":"KTUL","receiptTime":"2026-04-13T05:57:05.218Z","obsTime":1776059580,"reportTime":"2026-04-13T06:00:00.000Z","temp":22.2,"dewp":18.3,"wdir":170,"wspd":10,"visib":"10+","altim":1014,"slp":1013.3,"qcField":4,"presTend":1.1,"maxT":24.4,"minT":21.7,"maxT24":27.2,"minT24":17.8,"metarType":"METAR","rawOb":"METAR KTUL 130553Z 17010KT 10SM BKN017 OVC022 22/18 A2994 RMK AO2 SLP133 T02220183 10244 20217 402720178 50011","lat":36.1985,"lon":-95.8782,"elev":196,"name":"Tulsa Intl Arpt, OK, US","cover":"OVC","clouds":[{"cover":"BKN","base":1700},{"cover":"OVC","base":2200}],"fltCat":"MVFR"},{"icaoId":"KLBB","receiptTime":"2026-04-13T05:56:50.554Z","obsTime":1776059580,"reportTime":"2026-04-13T06:00:00.000Z","temp":20.6,"dewp":-1.7,"wdir":220,"wspd":12,"visib":"10+","altim":1015,"slp":1010.5,"qcField":12,"presTend":1.2,"maxT":27.8,"minT":20.6,"maxT24":30,"minT24":12.8,"metarType":"METAR","rawOb":"METAR KLBB 130553Z 22012KT 10SM FEW200 FEW250 21/M02 A2997 RMK AO2 SLP105 T02061017 10278 20206 403000128 51012 $","lat":33.6658,"lon":-101.8233,"elev":996,"name":"Lubbock Intl Arpt, TX, US","cover":"FEW","clouds":[{"cover":"FEW","base":20000},{"cover":"FEW","base":25000}],"fltCat":"VFR"},{"icaoId":"KMSP","receiptTime":"2026-04-13T05:56:56.621Z","obsTime":1776059580,"reportTime":"2026-04-13T06:00:00.000Z","temp":17.2,"dewp":9.4,"wdir":240,"wspd":5,"visib":"10+","altim":1004.1,"slp":1003.8,"qcField":4,"presTend":2.6,"maxT":23.9,"minT":16.1,"maxT24":27.2,"minT24":10.6,"metarType":"METAR","rawOb":"METAR KMSP 130553Z 24005KT 10SM CLR 17/09 A2965 RMK AO2 SLP038 T01720094 10239 20161 402720106 53026","lat":44.8852,"lon":-93.2313,"elev":255,"name":"Minneapolis-St Paul Intl, MN, US","cover":"CLR","clouds":[],"fltCat":"VFR"},{"icaoId":"KSWO","receiptTime":"2026-04-13T05:56:56.219Z","obsTime":1776059580,"reportTime":"2026-04-13T06:00:00.000Z","temp":21.1,"dewp":18.3,"wdir":190,"wspd":11,"visib":"10+","altim":1012.6,"slp":1011.5,"qcField":6,"presTend":1.2,"maxT":26.7,"minT":21.1,"maxT24":28.3,"minT24":18.3,"metarType":"METAR","rawOb":"METAR KSWO 130553Z AUTO 19011KT 10SM OVC017 21/18 A2990 RMK AO2 SLP115 T02110183 10267 20211 402830183 51012","lat":36.1624,"lon":-97.0832,"elev":293,"name":"Stillwater Muni, OK, US","cover":"OVC","clouds":[{"cover":"OVC","base":1700}],"fltCat":"MVFR"},{"icaoId":"KMOD","receiptTime":"2026-04-13T05:56:56.556Z","obsTime":1776059580,"reportTime":"2026-04-13T06:00:00.000Z","temp":11.1,"dewp":9.4,"wdir":110,"wspd":3,"visib":"10+","altim":1017.7,"slp":1017.4,"qcField":6,"presTend":2.5,"maxT":16.1,"minT":11.1,"pcp6hr":0.01,"metarType":"METAR","rawOb":"METAR KMOD 130553Z AUTO 11003KT 10SM CLR 11/09 A3005 RMK AO2 SLP174 60001 T01110094 10161 20111 51025","lat":37.6254,"lon":-120.9549,"elev":25,"name":"Modesto/Sham Fld, CA, US","cover":"CLR","clouds":[],"fltCat":"VFR"},{"icaoId":"KLOL","receiptTime":"2026-04-13T05:56:57.794Z","obsTime":1776059580,"reportTime":"2026-04-13T06:00:00.000Z","temp":5,"dewp":0,"wdir":0,"wspd":0,"visib":"10+","altim":1014,"slp":1013.5,"qcField":14,"presTend":2.2,"maxT":9.4,"minT":4.4,"pcp6hr":0.005,"metarType":"METAR","rawOb":"METAR KLOL 130553Z AUTO 00000KT 10SM BKN080 05/00 A2994 RMK AO2 SLP135 60000 T00500000 10094 20044 51022 $","lat":40.0684,"lon":-118.5702,"elev":1191,"name":"Lovelock/Derby Fld, NV, US","cover":"BKN","clouds":[{"cover":"BKN","base":8000}],"fltCat":"VFR"},{"icaoId":"KLVS","receiptTime":"2026-04-13T05:56:57.916Z","obsTime":1776059580,"reportTime":"2026-04-13T06:00:00.000Z","temp":11.7,"dewp":-7.2,"wdir":210,"wspd":14,"visib":"10+","altim":1017.7,"slp":1009.1,"qcField":14,"presTend":1,"maxT":18.3,"minT":10.6,"metarType":"METAR","rawOb":"METAR KLVS 130553Z AUTO 21014KT 10SM CLR 12/M07 A3005 RMK AO2 PK WND 21026/0503 SLP091 6//// T01171072 10183 20106 51010 PNO $","lat":35.6558,"lon":-105.1385,"elev":2095,"name":"Las Vegas Muni, NM, US","cover":"CLR","clouds":[],"fltCat":"VFR"},{"icaoId":"KMCO","receiptTime":"2026-04-13T05:56:58.380Z","obsTime":1776059580,"reportTime":"2026-04-13T06:00:00.000Z","temp":17.8,"dewp":13.9,"wdir":60,"wspd":4,"visib":"10+","altim":1026.5,"slp":1026.2,"qcField":4,"presTend":-0.7,"maxT":22.2,"minT":17.8,"metarType":"METAR","rawOb":"METAR KMCO 130553Z 06004KT 10SM SCT038 18/14 A3031 RMK AO2 SLP262 T01780139 10222 20178 58007","lat":28.4182,"lon":-81.3241,"elev":27,"name":"Orlando Intl, FL, US","cover":"SCT","clouds":[{"cover":"SCT","base":3800}],"fltCat":"VFR"},{"icaoId":"KMFE","receiptTime":"2026-04-13T05:56:58.429Z","obsTime":1776059580,"reportTime":"2026-04-13T06:00:00.000Z","temp":24.4,"dewp":21.1,"wdir":160,"wspd":5,"visib":"10+","altim":1016,"slp":1015.7,"qcField":14,"presTend":1.6,"maxT":27.2,"minT":24.4,"maxT24":30,"minT24":23.9,"pcp6hr":0.03,"metarType":"METAR","rawOb":"METAR KMFE 130553Z AUTO 16005KT 10SM CLR 24/21 A3000 RMK AO2 SLP157 60003 T02440211 10272 20244 403000239 51016 $","lat":26.1791,"lon":-98.2445,"elev":29,"name":"McAllen/Miller Intl, TX, US","cover":"CLR","clouds":[],"fltCat":"VFR"},{"icaoId":"KDVT","receiptTime":"2026-04-13T05:56:59.853Z","obsTime":1776059580,"reportTime":"2026-04-13T06:00:00.000Z","temp":20.6,"dewp":5,"wdir":250,"wspd":8,"visib":"10+","altim":1015.3,"slp":1013.1,"qcField":14,"presTend":1.8,"maxT":25.6,"minT":20.6,"metarType":"METAR","rawOb":"METAR KDVT 130553Z AUTO 25008KT 10SM CLR 21/05 A2998 RMK AO2 SLP131 T02060050 10256 20206 51018 $","lat":33.6902,"lon":-112.0662,"elev":454,"name":"Phoenix/Deer Valley Arpt, AZ, US","cover":"CLR","clouds":[],"fltCat":"VFR"},{"icaoId":"KACV","receiptTime":"2026-04-13T05:57:03.778Z","obsTime":1776059580,"reportTime":"2026-04-13T06:00:00.000Z","temp":8.3,"dewp":7.2,"wdir":0,"wspd":0,"visib":"10+","altim":1017,"slp":1017.5,"qcField":6,"presTend":2.8,"maxT":13.3,"minT":8.3,"metarType":"METAR","rawOb":"METAR KACV 130553Z AUTO 00000KT 10SM FEW041 OVC050 08/07 A3003 RMK AO2 SLP175 T00830072 10133 20083 51028","lat":40.9784,"lon":-124.1048,"elev":63,"name":"Arcata Arpt, CA, US","cover":"OVC","clouds":[{"cover":"FEW","base":4100},{"cover":"OVC","base":5000}],"fltCat":"VFR"},{"icaoId":"KAPA","receiptTime":"2026-04-13T05:57:04.000Z","obsTime":1776059580,"reportTime":"2026-04-13T06:00:00.000Z","temp":14.4,"dewp":-9.4,"wdir":210,"wspd":10,"visib":"10+","altim":1010.2,"slp":1004.3,"qcField":4,"presTend":1.1,"maxT":21.7,"minT":12.8,"metarType":"METAR","rawOb":"METAR KAPA 130553Z 21010KT 10SM FEW120 BKN220 14/M09 A2983 RMK AO2 SLP043 T01441094 10217 20128 51011","lat":39.5599,"lon":-104.8484,"elev":1791,"name":"Denver/Centennial Arpt, CO, US","cover":"BKN","clouds":[{"cover":"FEW","base":12000},{"cover":"BKN","base":22000}],"fltCat":"VFR"},{"icaoId":"KRTN","receiptTime":"2026-04-13T05:57:04.026Z","obsTime":1776059580,"reportTime":"2026-04-13T06:00:00.000Z","temp":7.2,"dewp":-6.1,"wdir":220,"wspd":5,"visib":"10+","altim":1015,"slp":1008.5,"qcField":6,"presTend":0.8,"maxT":20,"minT":6.1,"metarType":"METAR","rawOb":"METAR KRTN 130553Z AUTO 22005KT 10SM CLR 07/M06 A2997 RMK AO2 SLP085 T00721061 10200 20061 51008","lat":36.7418,"lon":-104.5076,"elev":1939,"name":"Raton/Crews Fld, NM, US","cover":"CLR","clouds":[],"fltCat":"VFR"},{"icaoId":"KBRO","receiptTime":"2026-04-13T05:57:04.640Z","obsTime":1776059580,"reportTime":"2026-04-13T06:00:00.000Z","temp":25.6,"dewp":22.8,"wdir":150,"wspd":17,"wgst":26,"visib":"10+","altim":1016.7,"slp":1016.5,"qcField":6,"presTend":-0.7,"maxT":26.7,"minT":25,"maxT24":30.6,"minT24":24.4,"pcp6hr":0.005,"metarType":"METAR","rawOb":"METAR KBRO 130553Z AUTO 15017G26KT 10SM OVC009 26/23 A3002 RMK AO2 PK WND 16027/0502 SLP165 60000 T02560228 10267 20250 403060244 58007","lat":25.9146,"lon":-97.4231,"elev":6,"name":"Brownsville Intl, TX, US","cover":"OVC","clouds":[{"cover":"OVC","base":900}],"fltCat":"IFR"},{"icaoId":"KDEN","receiptTime":"2026-04-13T05:57:04.996Z","obsTime":1776059580,"reportTime":"2026-04-13T06:00:00.000Z","temp":12.2,"dewp":-8.9,"wdir":190,"wspd":5,"visib":"10+","altim":1009.2,"slp":1002.9,"qcField":4,"presTend":1.1,"maxT":23.3,"minT":12.2,"metarType":"METAR","rawOb":"METAR KDEN 130553Z 19005KT 10SM SCT220 12/M09 A2980 RMK AO2 SLP029 T01221089 10233 20122 50011","lat":39.8466,"lon":-104.6562,"elev":1656,"name":"Denver Intl, CO, US","cover":"SCT","clouds":[{"cover":"SCT","base":22000}],"fltCat":"VFR"},{"icaoId":"KTUS","receiptTime":"2026-04-13T05:57:05.245Z","obsTime":1776059580,"reportTime":"2026-04-13T06:00:00.000Z","temp":21.7,"dewp":1.7,"wdir":"VRB","wspd":3,"visib":"10+","altim":1017.7,"slp":1013.6,"qcField":4,"presTend":1,"maxT":24.4,"minT":21.1,"metarType":"METAR","rawOb":"METAR KTUS 130553Z VRB03KT 10SM CLR 22/02 A3005 RMK AO2 SLP136 T02170017 10244 20211 51010","lat":32.1315,"lon":-110.9564,"elev":776,"name":"Tucson Intl Arpt, AZ, US","cover":"CLR","clouds":[],"fltCat":"VFR"},{"icaoId":"KLAX","receiptTime":"2026-04-13T05:56:51.595Z","obsTime":1776059580,"reportTime":"2026-04-13T06:00:00.000Z","temp":15.6,"dewp":9.4,"wdir":310,"wspd":6,"wgst":18,"visib":"10+","altim":1017.4,"slp":1017.2,"qcField":12,"presTend":0.9,"maxT":18.3,"minT":15.6,"metarType":"METAR","rawOb":"METAR KLAX 130553Z 31006G18KT 10SM FEW014 FEW030 SCT080 16/09 A3004 RMK AO2 SLP172 T01560094 10183 20156 52009 $","lat":33.9382,"lon":-118.3866,"elev":30,"name":"Los Angeles Intl, CA, US","cover":"SCT","clouds":[{"cover":"FEW","base":1400},{"cover":"FEW","base":3000},{"cover":"SCT","base":8000}],"fltCat":"VFR"},{"icaoId":"KMYF","receiptTime":"2026-04-13T05:56:56.740Z","obsTime":1776059580,"reportTime":"2026-04-13T06:00:00.000Z","temp":16.1,"dewp":12.2,"wdir":230,"wspd":5,"visib":"10+","altim":1017.4,"slp":1017,"qcField":6,"presTend":0.9,"maxT":19.4,"minT":15.6,"pcp6hr":0.005,"metarType":"METAR","rawOb":"METAR KMYF 130553Z AUTO 23005KT 10SM OVC044 16/12 A3004 RMK AO2 SLP170 60000 T01610122 10194 20156 50009","lat":32.8145,"lon":-117.1375,"elev":128,"name":"San Diego/Montgomery Arpt, CA, US","cover":"OVC","clouds":[{"cover":"OVC","base":4400}],"fltCat":"VFR"},{"icaoId":"KCLL","receiptTime":"2026-04-13T05:56:33.446Z","obsTime":1776059580,"reportTime":"2026-04-13T06:00:00.000Z","temp":21.1,"dewp":20.6,"wdir":150,"wspd":10,"visib":7,"altim":1019.7,"slp":1019.3,"qcField":6,"wxString":"-RA","presTend":0.3,"maxT":21.1,"minT":18.3,"maxT24":23.3,"minT24":18.3,"precip":0.005,"pcp6hr":0.03,"metarType":"METAR","rawOb":"METAR KCLL 130553Z AUTO 15010KT 7SM -RA BKN013 BKN070 OVC080 21/21 A3011 RMK AO2 LTG DSNT N AND NE RAB43 TSE0457 SLP193 P0000 60003 T02110206 10211 20183 402330183 50003","lat":30.5912,"lon":-96.3631,"elev":96,"name":"College Station/Easterwood Arpt, TX, US","cover":"OVC","clouds":[{"cover":"BKN","base":1300},{"cover":"BKN","base":7000},{"cover":"OVC","base":8000}],"fltCat":"MVFR"},{"icaoId":"KAUS","receiptTime":"2026-04-13T05:56:37.407Z","obsTime":1776059580,"reportTime":"2026-04-13T06:00:00.000Z","temp":22.2,"dewp":21.1,"wdir":160,"wspd":11,"visib":"10+","altim":1019,"slp":1018.2,"qcField":4,"presTend":0.7,"maxT":22.8,"minT":21.1,"maxT24":26.7,"minT24":21.1,"pcp6hr":0.03,"metarType":"METAR","rawOb":"METAR KAUS 130553Z 16011KT 10SM OVC011 22/21 A3009 RMK AO2 SLP182 60003 T02220211 10228 20211 402670211 51007","lat":30.1831,"lon":-97.6806,"elev":148,"name":"Austin/Bergstrom Intl, TX, US","cover":"OVC","clouds":[{"cover":"OVC","base":1100}],"fltCat":"MVFR"},{"icaoId":"KGJT","receiptTime":"2026-04-13T05:56:54.085Z","obsTime":1776059580,"reportTime":"2026-04-13T06:00:00.000Z","temp":17.2,"dewp":-7.8,"wdir":200,"wspd":13,"wgst":25,"visib":"10+","altim":1009.9,"slp":1003.9,"qcField":6,"presTend":1.2,"maxT":21.7,"minT":16.7,"metarType":"METAR","rawOb":"METAR KGJT 130553Z AUTO 20013G25KT 10SM CLR 17/M08 A2982 RMK AO2 SLP039 T01721078 10217 20167 51012","lat":39.1344,"lon":-108.5408,"elev":1475,"name":"Grand Junction Rgnl, CO, US","cover":"CLR","clouds":[],"fltCat":"VFR"},{"icaoId":"KRDD","receiptTime":"2026-04-13T05:56:46.109Z","obsTime":1776059580,"reportTime":"2026-04-13T06:00:00.000Z","temp":5.6,"dewp":5,"wdir":0,"wspd":0,"visib":"10+","altim":1016.3,"slp":1016.1,"qcField":12,"presTend":2.8,"maxT":9.4,"minT":5.6,"pcp6hr":0.11,"metarType":"METAR","rawOb":"METAR KRDD 130553Z 00000KT 10SM CLR 06/05 A3001 RMK AO2 SLP161 60011 T00560050 10094 20056 51028 $","lat":40.5146,"lon":-122.2977,"elev":152,"name":"Redding Muni, CA, US","cover":"CLR","clouds":[],"fltCat":"VFR"},{"icaoId":"KBOI","receiptTime":"2026-04-13T05:57:04.539Z","obsTime":1776059580,"reportTime":"2026-04-13T06:00:00.000Z","temp":6.7,"dewp":2.8,"wdir":120,"wspd":5,"visib":"10+","altim":1010.6,"slp":1010.6,"qcField":4,"presTend":0.8,"maxT":6.7,"minT":5.6,"pcp6hr":0.03,"metarType":"METAR","rawOb":"METAR KBOI 130553Z 12005KT 10SM BKN070 OVC090 07/03 A2984 RMK AO2 SLP106 60003 T00670028 10067 20056 51008","lat":43.567,"lon":-116.2406,"elev":860,"name":"Boise Arpt, ID, US","cover":"OVC","clouds":[{"cover":"BKN","base":7000},{"cover":"OVC","base":9000}],"fltCat":"VFR"},{"icaoId":"KGSP","receiptTime":"2026-04-13T05:56:54.402Z","obsTime":1776059580,"reportTime":"2026-04-13T06:00:00.000Z","temp":18.3,"dewp":10,"wdir":190,"wspd":9,"visib":"10+","altim":1026.5,"slp":1025.3,"qcField":6,"presTend":0.5,"maxT":23.3,"minT":18.3,"metarType":"METAR","rawOb":"METAR KGSP 130553Z AUTO 19009KT 10SM CLR 18/10 A3031 RMK AO2 SLP253 T01830100 10233 20183 53005","lat":34.8842,"lon":-82.2209,"elev":285,"name":"Greenville-Spartanburg Intl, SC, US","cover":"CLR","clouds":[],"fltCat":"VFR"},{"icaoId":"KCPR","receiptTime":"2026-04-13T05:56:59.545Z","obsTime":1776059580,"reportTime":"2026-04-13T06:00:00.000Z","temp":6.7,"dewp":-7.2,"wdir":240,"wspd":6,"visib":"10+","altim":1009.2,"slp":1004.7,"qcField":6,"presTend":1.5,"maxT":19.4,"minT":3.3,"metarType":"METAR","rawOb":"METAR KCPR 130553Z AUTO 24006KT 10SM SCT110 07/M07 A2980 RMK AO2 SLP047 T00671072 10194 20033 51015","lat":42.8978,"lon":-106.4736,"elev":1623,"name":"Casper/Natrona Cnty, WY, US","cover":"SCT","clouds":[{"cover":"SCT","base":11000}],"fltCat":"VFR"},{"icaoId":"KPIH","receiptTime":"2026-04-13T05:56:53.481Z","obsTime":1776059580,"reportTime":"2026-04-13T06:00:00.000Z","temp":5.6,"dewp":0,"wdir":220,"wspd":9,"visib":"10+","altim":1010.9,"slp":1008.7,"qcField":6,"presTend":0.2,"maxT":10.6,"minT":5.6,"metarType":"METAR","rawOb":"METAR KPIH 130553Z AUTO 22009KT 10SM FEW110 06/00 A2985 RMK AO2 SLP087 T00560000 10106 20056 50002","lat":42.9197,"lon":-112.5723,"elev":1357,"name":"Pocatello Rgnl, ID, US","cover":"FEW","clouds":[{"cover":"FEW","base":11000}],"fltCat":"VFR"},{"icaoId":"PANC","receiptTime":"2026-04-13T05:57:02.809Z","obsTime":1776059580,"reportTime":"2026-04-13T06:00:00.000Z","temp":1.1,"dewp":-1.1,"wdir":180,"wspd":7,"visib":"10+","altim":1000.1,"slp":1000.1,"qcField":12,"presTend":-0.1,"maxT":1.7,"minT":1.1,"pcp6hr":0.01,"metarType":"METAR","rawOb":"METAR PANC 130553Z 18007KT 10SM OVC055 01/M01 A2953 RMK AO2 SLP001 60001 T00111011 10017 20011 56001 $","lat":61.1691,"lon":-150.0277,"elev":39,"name":"Anchorage Intl, AK, US","cover":"OVC","clouds":[{"cover":"OVC","base":5500}],"fltCat":"VFR"},{"icaoId":"KBFI","receiptTime":"2026-04-13T05:57:03.553Z","obsTime":1776059580,"reportTime":"2026-04-13T06:00:00.000Z","temp":10.6,"dewp":7.2,"wdir":180,"wspd":6,"visib":"10+","altim":1010.9,"slp":1010.7,"qcField":12,"presTend":1.9,"maxT":13.3,"minT":10.6,"pcp6hr":0.06,"metarType":"METAR","rawOb":"METAR KBFI 130553Z 18006KT 10SM BKN020 11/07 A2985 RMK AO2 SLP107 60006 T01060072 10133 20106 51019 $","lat":47.5455,"lon":-122.3148,"elev":7,"name":"Seattle/Boeing Fld, WA, US","cover":"BKN","clouds":[{"cover":"BKN","base":2000}],"fltCat":"MVFR"},{"icaoId":"KBHM","receiptTime":"2026-04-13T05:57:03.618Z","obsTime":1776059580,"reportTime":"2026-04-13T06:00:00.000Z","temp":21.7,"dewp":10,"wdir":220,"wspd":9,"visib":"10+","altim":1025.1,"slp":1024.2,"qcField":4,"presTend":1.2,"maxT":26.7,"minT":19.4,"maxT24":30,"minT24":11.7,"metarType":"METAR","rawOb":"METAR KBHM 130553Z 22009KT 10SM CLR 22/10 A3027 RMK AO2 SLP242 T02170100 10267 20194 403000117 53012","lat":33.5655,"lon":-86.7449,"elev":191,"name":"Birmingham Intl, AL, US","cover":"CLR","clouds":[],"fltCat":"VFR"},{"icaoId":"KAMA","receiptTime":"2026-04-13T05:57:03.912Z","obsTime":1776059580,"reportTime":"2026-04-13T06:00:00.000Z","temp":13.3,"dewp":-2.2,"wdir":220,"wspd":8,"visib":"10+","altim":1013.6,"slp":1008.9,"qcField":6,"presTend":1,"maxT":27.8,"minT":13.3,"maxT24":30,"minT24":11.7,"metarType":"METAR","rawOb":"METAR KAMA 130553Z AUTO 22008KT 10SM CLR 13/M02 A2993 RMK AO2 SLP089 T01331022 10278 20133 403000117 51010","lat":35.2203,"lon":-101.7173,"elev":1102,"name":"Amarillo Intl Arpt, TX, US","cover":"CLR","clouds":[],"fltCat":"VFR"},{"icaoId":"KSDL","receiptTime":"2026-04-13T05:57:04.198Z","obsTime":1776059580,"reportTime":"2026-04-13T06:00:00.000Z","temp":20.6,"dewp":4.4,"wdir":260,"wspd":4,"visib":"10+","altim":1015.7,"slp":1013.4,"qcField":6,"presTend":1.8,"maxT":25.6,"minT":20.6,"metarType":"METAR","rawOb":"METAR KSDL 130553Z AUTO 26004KT 10SM CLR 21/04 A2999 RMK AO2 SLP134 T02060044 10256 20206 51018","lat":33.6123,"lon":-111.9232,"elev":438,"name":"Scottsdale Muni, AZ, US","cover":"CLR","clouds":[],"fltCat":"VFR"},{"icaoId":"KSHR","receiptTime":"2026-04-13T05:57:04.321Z","obsTime":1776059580,"reportTime":"2026-04-13T06:00:00.000Z","temp":7.8,"dewp":4.4,"wdir":0,"wspd":0,"visib":"10+","altim":1007.9,"slp":1006.6,"qcField":6,"presTend":1,"maxT":16.7,"minT":6.1,"pcp6hr":0.005,"metarType":"METAR","rawOb":"METAR KSHR 130553Z AUTO 00000KT 10SM CLR 08/04 A2976 RMK AO2 SLP066 60000 T00780044 10167 20061 50010","lat":44.7603,"lon":-106.9741,"elev":1212,"name":"Sheridan Cnty Arpt, WY, US","cover":"CLR","clouds":[],"fltCat":"VFR"},{"icaoId":"KSJC","receiptTime":"2026-04-13T05:57:04.349Z","obsTime":1776059580,"reportTime":"2026-04-13T06:00:00.000Z","temp":11.1,"dewp":8.3,"wdir":0,"wspd":0,"visib":"10+","altim":1017.7,"slp":1017.4,"qcField":12,"presTend":2,"maxT":16.1,"minT":11.1,"precip":0.005,"pcp6hr":0.005,"metarType":"METAR","rawOb":"METAR KSJC 130553Z 00000KT 10SM FEW026 SCT050 BKN065 11/08 A3005 RMK AO2 RAB09E42 SLP174 P0000 60000 T01110083 10161 20111 51020 $","lat":37.3594,"lon":-121.9244,"elev":13,"name":"San Jose Intl Arpt, CA, US","cover":"BKN","clouds":[{"cover":"FEW","base":2600},{"cover":"SCT","base":5000},{"cover":"BKN","base":6500}],"fltCat":"VFR"},{"icaoId":"KSMF","receiptTime":"2026-04-13T05:57:04.376Z","obsTime":1776059580,"reportTime":"2026-04-13T06:00:00.000Z","temp":11.7,"dewp":8.9,"wdir":160,"wspd":7,"visib":"10+","altim":1016.7,"slp":1016.5,"qcField":12,"presTend":2.9,"maxT":15,"minT":11.7,"pcp6hr":0.005,"metarType":"METAR","rawOb":"METAR KSMF 130553Z 16007KT 10SM OVC060 12/09 A3002 RMK AO2 SLP165 60000 T01170089 10150 20117 51029 $","lat":38.7007,"lon":-121.5948,"elev":7,"name":"Sacramento Intl, CA, US","cover":"OVC","clouds":[{"cover":"OVC","base":6000}],"fltCat":"VFR"},{"icaoId":"KTWF","receiptTime":"2026-04-13T05:57:05.318Z","obsTime":1776059580,"reportTime":"2026-04-13T06:00:00.000Z","temp":2.2,"dewp":1.1,"wdir":180,"wspd":5,"visib":"10+","altim":1012.3,"slp":1010.5,"qcField":6,"presTend":1.8,"maxT":9.4,"minT":2.2,"metarType":"METAR","rawOb":"METAR KTWF 130553Z AUTO 18005KT 10SM CLR 02/01 A2989 RMK AO2 SLP105 T00220011 10094 20022 51018","lat":42.4785,"lon":-114.4775,"elev":1269,"name":"Twin Falls/Joslin Fld, ID, US","cover":"CLR","clouds":[],"fltCat":"VFR"},{"icaoId":"KMIA","receiptTime":"2026-04-13T06:00:26.272Z","obsTime":1776059580,"reportTime":"2026-04-13T06:00:00.000Z","temp":22.8,"dewp":13.9,"wdir":70,"wspd":8,"visib":"10+","altim":1023.5,"slp":1023.2,"qcField":0,"presTend":-0.7,"maxT":24.4,"minT":22.2,"metarType":"METAR","rawOb":"METAR KMIA 130553Z 07008KT 10SM SCT042 22/14 A3022 RMK SLP232 T02280139 10244 20222 58007","lat":25.7881,"lon":-80.3169,"elev":1,"name":"Miami Intl, FL, US","cover":"SCT","clouds":[{"cover":"SCT","base":4200}],"fltCat":"VFR"},{"icaoId":"KCRQ","receiptTime":"2026-04-13T05:56:48.082Z","obsTime":1776059580,"reportTime":"2026-04-13T06:00:00.000Z","temp":16.1,"dewp":12.8,"wdir":210,"wspd":3,"visib":"10+","altim":1017,"slp":1016.7,"qcField":6,"presTend":0.9,"maxT":17.2,"minT":15.6,"pcp6hr":0.01,"metarType":"METAR","rawOb":"METAR KCRQ 130553Z AUTO 21003KT 10SM BKN065 BKN080 16/13 A3003 RMK AO2 SLP167 60001 T01610128 10172 20156 50009","lat":33.1299,"lon":-117.2765,"elev":96,"name":"Carlsbad/Palomar Arpt, CA, US","cover":"BKN","clouds":[{"cover":"BKN","base":6500},{"cover":"BKN","base":8000}],"fltCat":"VFR"},{"icaoId":"KELY","receiptTime":"2026-04-13T05:57:01.491Z","obsTime":1776059580,"reportTime":"2026-04-13T06:00:00.000Z","temp":-1.7,"dewp":-2.8,"wdir":180,"wspd":7,"visib":"10+","altim":1014.6,"slp":1012.1,"qcField":14,"presTend":0.8,"maxT":0,"minT":-2.8,"pcp6hr":0.53,"metarType":"METAR","rawOb":"METAR KELY 130553Z AUTO 18007KT 10SM FEW075 OVC095 M02/M03 A2996 RMK AO2 SLP121 60053 T10171028 10000 21028 53008 $","lat":39.2954,"lon":-114.8466,"elev":1906,"name":"Ely/Yelland Fld, NV, US","cover":"OVC","clouds":[{"cover":"FEW","base":7500},{"cover":"OVC","base":9500}],"fltCat":"VFR"},{"icaoId":"KTPA","receiptTime":"2026-04-13T05:57:05.133Z","obsTime":1776059580,"reportTime":"2026-04-13T06:00:00.000Z","temp":20,"dewp":15,"wdir":"VRB","wspd":3,"visib":"10+","altim":1025.8,"slp":1025.6,"qcField":4,"presTend":-0.2,"maxT":26.1,"minT":20,"metarType":"METAR","rawOb":"METAR KTPA 130553Z VRB03KT 10SM CLR 20/15 A3029 RMK AO2 SLP256 T02000150 10261 20200 58002","lat":27.9633,"lon":-82.54,"elev":2,"name":"Tampa Intl Arpt, FL, US","cover":"CLR","clouds":[],"fltCat":"VFR"},{"icaoId":"KSAF","receiptTime":"2026-04-13T05:57:04.132Z","obsTime":1776059580,"reportTime":"2026-04-13T06:00:00.000Z","temp":12.2,"dewp":-9.4,"wdir":110,"wspd":3,"visib":"","altim":1018,"slp":1010,"qcField":14,"presTend":1.3,"maxT":21.1,"minT":12.2,"metarType":"METAR","rawOb":"METAR KSAF 130553Z AUTO 11003KT CLR 12/M09 A3006 RMK AO2 SLP100 T01221094 10211 20122 51013 $","lat":35.611,"lon":-106.0957,"elev":1918,"name":"Santa Fe Cnty Muni, NM, US","cover":"CLR","clouds":[]},{"icaoId":"KOAK","receiptTime":"2026-04-13T05:56:56.767Z","obsTime":1776059580,"reportTime":"2026-04-13T06:00:00.000Z","temp":12.2,"dewp":10,"wdir":190,"wspd":8,"wgst":22,"visib":"10+","altim":1017.7,"slp":1017.5,"qcField":12,"presTend":2.1,"maxT":14.4,"minT":11.7,"precip":0.005,"pcp6hr":0.05,"metarType":"METAR","rawOb":"METAR KOAK 130553Z 19008G22KT 10SM FEW015 BKN030 OVC050 12/10 A3005 RMK AO2 RAE00B30E52 SLP175 P0000 60005 T01220100 10144 20117 51021 $","lat":37.7178,"lon":-122.233,"elev":3,"name":"Oakland Intl, CA, US","cover":"OVC","clouds":[{"cover":"FEW","base":1500},{"cover":"BKN","base":3000},{"cover":"OVC","base":5000}],"fltCat":"MVFR"},{"icaoId":"KASE","receiptTime":"2026-04-13T05:56:37.246Z","obsTime":1776059580,"reportTime":"2026-04-13T06:00:00.000Z","temp":8.3,"dewp":-6.1,"wdir":"VRB","wspd":3,"visib":"10+","altim":1014.3,"slp":1004.8,"qcField":6,"presTend":-0.4,"maxT":13.3,"minT":5,"metarType":"METAR","rawOb":"METAR KASE 130553Z AUTO VRB03KT 10SM BKN100 08/M06 A2995 RMK AO2 SLP048 T00831061 10133 20050 58004","lat":39.2299,"lon":-106.8705,"elev":2384,"name":"Aspen/Pitkin Cnty, CO, US","cover":"BKN","clouds":[{"cover":"BKN","base":10000}],"fltCat":"VFR"},{"icaoId":"KBCE","receiptTime":"2026-04-13T05:56:37.669Z","obsTime":1776059580,"reportTime":"2026-04-13T06:00:00.000Z","temp":3.3,"dewp":-8.9,"wdir":220,"wspd":11,"wgst":18,"visib":"10+","altim":1015.7,"slp":1007.6,"qcField":6,"presTend":1.3,"maxT":12.8,"minT":2.8,"metarType":"METAR","rawOb":"METAR KBCE 130553Z AUTO 22011G18KT 10SM CLR 03/M09 A2999 RMK AO2 SLP076 T00331089 10128 20028 51013","lat":37.7013,"lon":-112.149,"elev":2311,"name":"Bryce Canyon Arpt, UT, US","cover":"CLR","clouds":[],"fltCat":"VFR"},{"icaoId":"KPBI","receiptTime":"2026-04-13T05:56:38.766Z","obsTime":1776059580,"reportTime":"2026-04-13T06:00:00.000Z","temp":22.8,"dewp":13.3,"wdir":70,"wspd":13,"wgst":20,"visib":"10+","altim":1024.5,"slp":1024.4,"qcField":12,"presTend":-0.8,"maxT":24.4,"minT":22.8,"metarType":"METAR","rawOb":"METAR KPBI 130553Z 07013G20KT 10SM SCT038 23/13 A3025 RMK AO2 SLP244 T02280133 10244 20228 58008 $","lat":26.6851,"lon":-80.0992,"elev":4,"name":"Palm Beach Intl, FL, US","cover":"SCT","clouds":[{"cover":"SCT","base":3800}],"fltCat":"VFR"},{"icaoId":"KMYR","receiptTime":"2026-04-13T05:56:40.882Z","obsTime":1776059580,"reportTime":"2026-04-13T06:00:00.000Z","temp":19.4,"dewp":17.8,"wdir":160,"wspd":6,"visib":"10+","altim":1027.9,"slp":1027.8,"qcField":14,"presTend":-0.8,"maxT":21.1,"minT":18.9,"metarType":"METAR","rawOb":"METAR KMYR 130553Z AUTO 16006KT 10SM CLR 19/18 A3035 RMK AO2 SLP278 T01940178 10211 20189 58008 $","lat":33.6769,"lon":-78.9325,"elev":7,"name":"Myrtle Beach Intl, SC, US","cover":"CLR","clouds":[],"fltCat":"VFR"},{"icaoId":"KPRC","receiptTime":"2026-04-13T05:56:43.155Z","obsTime":1776059580,"reportTime":"2026-04-13T06:00:00.000Z","temp":10.6,"dewp":-2.2,"wdir":190,"wspd":9,"wgst":17,"visib":"10+","altim":1017.4,"slp":1011.7,"qcField":6,"presTend":0.6,"maxT":16.7,"minT":10.6,"metarType":"METAR","rawOb":"METAR KPRC 130553Z AUTO 19009G17KT 10SM CLR 11/M02 A3004 RMK AO2 SLP117 T01061022 10167 20106 50006","lat":34.6491,"lon":-112.4223,"elev":1528,"name":"Prescott/Love Fld, AZ, US","cover":"CLR","clouds":[],"fltCat":"VFR"},{"icaoId":"KPSP","receiptTime":"2026-04-13T05:56:43.183Z","obsTime":1776059580,"reportTime":"2026-04-13T06:00:00.000Z","temp":17.8,"dewp":6.1,"wdir":"VRB","wspd":3,"visib":"10+","altim":1014.6,"slp":1014.4,"qcField":6,"presTend":1.3,"maxT":20.6,"minT":17.2,"pcp6hr":0.005,"metarType":"METAR","rawOb":"METAR KPSP 130553Z AUTO VRB03KT 10SM CLR 18/06 A2996 RMK AO2 SLP144 60000 T01780061 10206 20172 51013","lat":33.8222,"lon":-116.5043,"elev":123,"name":"Palm Springs Intl, CA, US","cover":"CLR","clouds":[],"fltCat":"VFR"},{"icaoId":"KSBA","receiptTime":"2026-04-13T05:57:04.166Z","obsTime":1776059580,"reportTime":"2026-04-13T06:00:00.000Z","temp":12.8,"dewp":8.9,"wdir":40,"wspd":3,"visib":"10+","altim":1017.4,"slp":1017.1,"qcField":14,"presTend":1.5,"maxT":17.8,"minT":12.2,"metarType":"METAR","rawOb":"METAR KSBA 130553Z AUTO 04003KT 10SM SCT075 13/09 A3004 RMK AO2 SLP171 T01280089 10178 20122 51015 $","lat":34.4241,"lon":-119.8425,"elev":2,"name":"Santa Barbara Muni, CA, US","cover":"SCT","clouds":[{"cover":"SCT","base":7500}],"fltCat":"VFR"},{"icaoId":"KFAT","receiptTime":"2026-04-13T05:57:01.332Z","obsTime":1776059580,"reportTime":"2026-04-13T06:00:00.000Z","temp":13.3,"dewp":6.1,"wdir":340,"wspd":9,"visib":"10+","altim":1017.4,"slp":1017,"qcField":12,"presTend":1.7,"maxT":15,"minT":13.3,"metarType":"METAR","rawOb":"METAR KFAT 130553Z 34009KT 10SM BKN080 BKN120 BKN200 13/06 A3004 RMK AO2 SLP170 T01330061 10150 20133 51017 $","lat":36.78,"lon":-119.7202,"elev":102,"name":"Fresno/Yosemite Intl, CA, US","cover":"BKN","clouds":[{"cover":"BKN","base":8000},{"cover":"BKN","base":12000},{"cover":"BKN","base":20000}],"fltCat":"VFR"},{"icaoId":"KDMN","receiptTime":"2026-04-13T05:56:48.524Z","obsTime":1776059580,"reportTime":"2026-04-13T06:00:00.000Z","temp":17.8,"dewp":2.2,"wdir":220,"wspd":5,"visib":"10+","altim":1019.4,"slp":1012.9,"qcField":6,"presTend":1,"maxT":24.4,"minT":17.8,"metarType":"METAR","rawOb":"METAR KDMN 130553Z AUTO 22005KT 10SM CLR 18/02 A3010 RMK AO2 SLP129 T01780022 10244 20178 50010","lat":32.2592,"lon":-107.7206,"elev":1310,"name":"Deming Muni, NM, US","cover":"CLR","clouds":[],"fltCat":"VFR"},{"icaoId":"KDRO","receiptTime":"2026-04-13T05:57:00.973Z","obsTime":1776059580,"reportTime":"2026-04-13T06:00:00.000Z","temp":9.4,"dewp":-9.4,"wdir":210,"wspd":7,"visib":"10+","altim":1017.4,"slp":1011.9,"qcField":6,"presTend":1,"maxT":16.1,"minT":9.4,"metarType":"METAR","rawOb":"METAR KDRO 130553Z AUTO 21007KT 10SM CLR 09/M09 A3004 RMK AO2 SLP119 T00941094 10161 20094 51010","lat":37.1431,"lon":-107.7602,"elev":2021,"name":"Durango/La Plata Cnty, CO, US","cover":"CLR","clouds":[],"fltCat":"VFR"},{"icaoId":"KVGT","receiptTime":"2026-04-13T05:56:56.331Z","obsTime":1776059580,"reportTime":"2026-04-13T06:00:00.000Z","temp":16.7,"dewp":-3.3,"wdir":200,"wspd":8,"visib":"10+","altim":1011.9,"slp":1012.1,"qcField":6,"presTend":2,"maxT":20,"minT":16.1,"pcp6hr":0.005,"metarType":"METAR","rawOb":"METAR KVGT 130553Z AUTO 20008KT 10SM CLR 17/M03 A2988 RMK AO2 SLP121 60000 T01671033 10200 20161 51020","lat":36.212,"lon":-115.194,"elev":664,"name":"Las Vegas/North Arpt, NV, US","cover":"CLR","clouds":[],"fltCat":"VFR"},{"icaoId":"KIDA","receiptTime":"2026-04-13T05:56:59.270Z","obsTime":1776059580,"reportTime":"2026-04-13T06:00:00.000Z","temp":6.1,"dewp":-1.7,"wdir":200,"wspd":13,"visib":"10+","altim":1010.9,"slp":1009.2,"qcField":6,"presTend":1,"maxT":12.2,"minT":6.1,"metarType":"METAR","rawOb":"METAR KIDA 130553Z AUTO 20013KT 10SM SCT065 BKN090 OVC110 06/M02 A2985 RMK AO2 SLP092 T00611017 10122 20061 51010","lat":43.5204,"lon":-112.0675,"elev":1444,"name":"Idaho Falls Rgnl, ID, US","cover":"OVC","clouds":[{"cover":"SCT","base":6500},{"cover":"BKN","base":9000},{"cover":"OVC","base":11000}],"fltCat":"VFR"},{"icaoId":"KFMN","receiptTime":"2026-04-13T05:56:52.553Z","obsTime":1776059580,"reportTime":"2026-04-13T06:00:00.000Z","temp":13.9,"dewp":-7.8,"wdir":230,"wspd":8,"visib":"10+","altim":1016,"slp":1011.7,"qcField":6,"presTend":1.6,"maxT":20.6,"minT":13.9,"metarType":"METAR","rawOb":"METAR KFMN 130553Z AUTO 23008KT 10SM CLR 14/M08 A3000 RMK AO2 SLP117 T01391078 10206 20139 53016","lat":36.7435,"lon":-108.2293,"elev":1677,"name":"Farmington/Four Corners Rgnl, NM, US","cover":"CLR","clouds":[],"fltCat":"VFR"},{"icaoId":"KPUB","receiptTime":"2026-04-13T05:56:53.121Z","obsTime":1776059580,"reportTime":"2026-04-13T06:00:00.000Z","temp":14.4,"dewp":-8.3,"wdir":350,"wspd":8,"visib":"10+","altim":1009.9,"slp":1004.6,"qcField":14,"presTend":0.8,"maxT":25.6,"minT":12.2,"metarType":"METAR","rawOb":"METAR KPUB 130553Z AUTO 35008KT 10SM CLR 14/M08 A2982 RMK AO2 SLP046 T01441083 10256 20122 50008 $","lat":38.2887,"lon":-104.5057,"elev":1441,"name":"Pueblo Mem Arpt, CO, US","cover":"CLR","clouds":[],"fltCat":"VFR"},{"icaoId":"KPGA","receiptTime":"2026-04-13T05:56:53.463Z","obsTime":1776059580,"reportTime":"2026-04-13T06:00:00.000Z","temp":16.1,"dewp":-10,"wdir":220,"wspd":8,"wgst":22,"visib":"","altim":1013,"slp":1008.1,"qcField":14,"presTend":2.3,"maxT":22.8,"minT":16.1,"metarType":"METAR","rawOb":"METAR KPGA 130553Z AUTO 22008G22KT CLR 16/M10 A2991 RMK AO2 SLP081 T01611100 10228 20161 51023 $","lat":36.9211,"lon":-111.4487,"elev":1310,"name":"Page Muni, AZ, US","cover":"CLR","clouds":[]},{"icaoId":"KFUL","receiptTime":"2026-04-13T05:56:53.829Z","obsTime":1776059580,"reportTime":"2026-04-13T06:00:00.000Z","temp":15,"dewp":10,"wdir":260,"wspd":4,"visib":"10+","altim":1017.4,"slp":1017,"qcField":6,"presTend":1.1,"maxT":19.4,"minT":15,"metarType":"METAR","rawOb":"METAR KFUL 130553Z AUTO 26004KT 10SM CLR 15/10 A3004 RMK AO2 SLP170 T01500100 10194 20150 51011","lat":33.8715,"lon":-117.9856,"elev":23,"name":"Fullerton Muni, CA, US","cover":"CLR","clouds":[],"fltCat":"VFR"},{"icaoId":"KCNY","receiptTime":"2026-04-13T05:56:54.744Z","obsTime":1776059580,"reportTime":"2026-04-13T06:00:00.000Z","temp":16.7,"dewp":-12.8,"wdir":260,"wspd":17,"wgst":26,"visib":"10+","altim":1009.6,"slp":1004.8,"qcField":14,"presTend":2.2,"maxT":21.7,"minT":16.7,"metarType":"METAR","rawOb":"METAR KCNY 130553Z AUTO 26017G26KT 10SM OVC110 17/M13 A2981 RMK AO2 PK WND 25028/0534 SLP048 T01671128 10217 20167 51022 $","lat":38.7501,"lon":-109.7627,"elev":1392,"name":"Moab/Canyonland Fld, UT, US","cover":"OVC","clouds":[{"cover":"OVC","base":11000}],"fltCat":"VFR"},{"icaoId":"KVEL","receiptTime":"2026-04-13T05:56:56.319Z","obsTime":1776059580,"reportTime":"2026-04-13T06:00:00.000Z","temp":12.8,"dewp":-6.7,"wdir":260,"wspd":8,"visib":"10+","altim":1008.9,"slp":1004,"qcField":6,"presTend":1,"maxT":17.2,"minT":10.6,"metarType":"METAR","rawOb":"METAR KVEL 130553Z AUTO 26008KT 10SM BKN110 13/M07 A2979 RMK AO2 SLP040 T01281067 10172 20106 51010","lat":40.4429,"lon":-109.5128,"elev":1604,"name":"Vernal Rgnl, UT, US","cover":"BKN","clouds":[{"cover":"BKN","base":11000}],"fltCat":"VFR"},{"icaoId":"KMSY","receiptTime":"2026-04-13T05:56:56.650Z","obsTime":1776059580,"reportTime":"2026-04-13T06:00:00.000Z","temp":21.1,"dewp":17.2,"wdir":130,"wspd":7,"visib":"10+","altim":1023.1,"slp":1023.4,"qcField":4,"presTend":0.2,"maxT":24.4,"minT":21.1,"maxT24":27.2,"minT24":17.2,"metarType":"METAR","rawOb":"METAR KMSY 130553Z 13007KT 10SM FEW020 SCT250 21/17 A3021 RMK AO2 SLP234 T02110172 10244 20211 402720172 50002","lat":29.9974,"lon":-90.2777,"elev":0,"name":"New Orleans/Armstrong Intl, LA, US","cover":"SCT","clouds":[{"cover":"FEW","base":2000},{"cover":"SCT","base":25000}],"fltCat":"VFR"},{"icaoId":"KMTJ","receiptTime":"2026-04-13T05:56:56.676Z","obsTime":1776059580,"reportTime":"2026-04-13T06:00:00.000Z","temp":12.8,"dewp":-11.1,"wdir":140,"wspd":5,"visib":"10+","altim":1014,"slp":1007.4,"qcField":6,"presTend":1.4,"maxT":19.4,"minT":12.8,"metarType":"METAR","rawOb":"METAR KMTJ 130553Z AUTO 14005KT 10SM CLR 13/M11 A2994 RMK AO2 SLP074 T01281111 10194 20128 51014","lat":38.5054,"lon":-107.8981,"elev":1755,"name":"Montrose Rgnl, CO, US","cover":"CLR","clouds":[],"fltCat":"VFR"},{"icaoId":"KONT","receiptTime":"2026-04-13T05:56:56.913Z","obsTime":1776059580,"reportTime":"2026-04-13T06:00:00.000Z","temp":12.8,"dewp":8.3,"wdir":230,"wspd":4,"visib":"10+","altim":1017.4,"slp":1016.9,"qcField":12,"presTend":1.2,"maxT":16.1,"minT":12.8,"pcp6hr":0.005,"metarType":"METAR","rawOb":"METAR KONT 130553Z 23004KT 10SM FEW040 FEW075 13/08 A3004 RMK AO2 SLP169 60000 T01280083 10161 20128 51012 $","lat":34.0531,"lon":-117.5769,"elev":279,"name":"Ontario Intl, CA, US","cover":"FEW","clouds":[{"cover":"FEW","base":4000},{"cover":"FEW","base":7500}],"fltCat":"VFR"},{"icaoId":"KMAF","receiptTime":"2026-04-13T05:56:57.971Z","obsTime":1776059580,"reportTime":"2026-04-13T06:00:00.000Z","temp":21.7,"dewp":15,"wdir":180,"wspd":13,"visib":"10+","altim":1016.7,"slp":1012.4,"qcField":6,"presTend":1.3,"maxT":28.3,"minT":21.7,"maxT24":30,"minT24":13.9,"metarType":"METAR","rawOb":"METAR KMAF 130553Z AUTO 18013KT 10SM CLR 22/15 A3002 RMK AO2 SLP124 T02170150 10283 20217 403000139 51013","lat":31.9475,"lon":-102.2086,"elev":874,"name":"Midland Intl, TX, US","cover":"CLR","clouds":[],"fltCat":"VFR"},{"icaoId":"KLAR","receiptTime":"2026-04-13T05:56:58.150Z","obsTime":1776059580,"reportTime":"2026-04-13T06:00:00.000Z","temp":6.1,"dewp":-7.8,"wdir":240,"wspd":14,"visib":"10+","altim":1011.6,"slp":1003.8,"qcField":14,"presTend":0.2,"maxT":16.1,"minT":3.3,"metarType":"METAR","rawOb":"METAR KLAR 130553Z AUTO 24014KT 10SM CLR 06/M08 A2987 RMK AO2 SLP038 T00611078 10161 20033 50002 $","lat":41.3165,"lon":-105.6729,"elev":2217,"name":"Laramie Rgnl, WY, US","cover":"CLR","clouds":[],"fltCat":"VFR"},{"icaoId":"KMFR","receiptTime":"2026-04-13T05:56:58.447Z","obsTime":1776059580,"reportTime":"2026-04-13T06:00:00.000Z","temp":10.6,"dewp":5.6,"wdir":280,"wspd":6,"visib":"10+","altim":1014.6,"slp":1014.7,"qcField":14,"presTend":3.9,"maxT":15.6,"minT":10.6,"pcp6hr":0.02,"metarType":"METAR","rawOb":"METAR KMFR 130553Z AUTO 28006KT 10SM OVC036 11/06 A2996 RMK AO2 SLP147 60002 T01060056 10156 20106 51039 $","lat":42.375,"lon":-122.877,"elev":397,"name":"Medford/Rogue Valley Intl, OR, US","cover":"OVC","clouds":[{"cover":"OVC","base":3600}],"fltCat":"VFR"},{"icaoId":"KCNM","receiptTime":"2026-04-13T05:56:59.490Z","obsTime":1776059580,"reportTime":"2026-04-13T06:00:00.000Z","temp":20.6,"dewp":-1.1,"wdir":270,"wspd":9,"visib":"10+","altim":1016.7,"slp":1011,"qcField":6,"presTend":1.5,"maxT":28.9,"minT":18.3,"metarType":"METAR","rawOb":"METAR KCNM 130553Z AUTO 27009KT 10SM CLR 21/M01 A3002 RMK AO2 SLP110 T02061011 10289 20183 51015","lat":32.3336,"lon":-104.2584,"elev":993,"name":"Carlsbad/Cavern City Air Term, NM, US","cover":"CLR","clouds":[],"fltCat":"VFR"},{"icaoId":"KBLI","receiptTime":"2026-04-13T05:56:59.646Z","obsTime":1776059580,"reportTime":"2026-04-13T06:00:00.000Z","temp":11.1,"dewp":7.2,"wdir":170,"wspd":10,"visib":"10+","altim":1009.2,"slp":1009.7,"qcField":6,"presTend":1.4,"maxT":12.2,"minT":11.1,"metarType":"METAR","rawOb":"METAR KBLI 130553Z AUTO 17010KT 10SM OVC075 11/07 A2980 RMK AO2 SLP097 T01110072 10122 20111 51014","lat":48.7991,"lon":-122.5407,"elev":46,"name":"Bellingham Intl, WA, US","cover":"OVC","clouds":[{"cover":"OVC","base":7500}],"fltCat":"VFR"},{"icaoId":"KBNA","receiptTime":"2026-04-13T05:56:59.698Z","obsTime":1776059580,"reportTime":"2026-04-13T06:00:00.000Z","temp":22.8,"dewp":9.4,"wdir":190,"wspd":7,"visib":"10+","altim":1021.4,"slp":1020.7,"qcField":12,"presTend":0.8,"maxT":26.7,"minT":21.7,"maxT24":29.4,"minT24":11.7,"metarType":"METAR","rawOb":"METAR KBNA 130553Z 19007KT 10SM BKN110 23/09 A3016 RMK AO2 SLP207 T02280094 10267 20217 402940117 51008 $","lat":36.1105,"lon":-86.6881,"elev":168,"name":"Nashville Intl, TN, US","cover":"BKN","clouds":[{"cover":"BKN","base":11000}],"fltCat":"VFR"},{"icaoId":"KDTW","receiptTime":"2026-04-13T05:57:01.018Z","obsTime":1776059580,"reportTime":"2026-04-13T06:00:00.000Z","temp":22.2,"dewp":8.3,"wdir":210,"wspd":27,"wgst":39,"visib":9,"altim":1011.3,"slp":1010.8,"qcField":4,"presTend":-1,"maxT":23.9,"minT":21.1,"pcp6hr":0.005,"metarType":"METAR","rawOb":"METAR KDTW 130553Z 21027G39KT 9SM SCT065 BKN090 OVC130 22/08 A2986 RMK AO2 PK WND 21039/0552 SLP108 60000 T02220083 10239 20211 56010","lat":42.2311,"lon":-83.3312,"elev":192,"name":"Detroit/Metro Wayne Cnty, MI, US","cover":"OVC","clouds":[{"cover":"SCT","base":6500},{"cover":"BKN","base":9000},{"cover":"OVC","base":13000}],"fltCat":"VFR"},{"icaoId":"KCLT","receiptTime":"2026-04-13T05:56:42.252Z","obsTime":1776059520,"reportTime":"2026-04-13T06:00:00.000Z","temp":19.4,"dewp":11.1,"wdir":190,"wspd":7,"visib":"10+","altim":1026.2,"slp":1026.8,"qcField":4,"presTend":0.4,"maxT":25,"minT":19.4,"metarType":"METAR","rawOb":"METAR KCLT 130552Z 19007KT 10SM BKN250 19/11 A3030 RMK AO2 SLP268 T01940111 10250 20194 51004","lat":35.2225,"lon":-80.9543,"elev":223,"name":"Charlotte/Douglas Intl, NC, US","cover":"BKN","clouds":[{"cover":"BKN","base":25000}],"fltCat":"VFR"},{"icaoId":"KSPS","receiptTime":"2026-04-13T05:57:01.250Z","obsTime":1776059520,"reportTime":"2026-04-13T06:00:00.000Z","temp":21.7,"dewp":18.9,"wdir":180,"wspd":21,"wgst":29,"visib":"10+","altim":1013.6,"slp":1012.3,"qcField":4,"presTend":1,"maxT":27.8,"minT":21.1,"maxT24":29.4,"minT24":17.8,"metarType":"METAR","rawOb":"METAR KSPS 130552Z 18021G29KT 10SM CLR 22/19 A2993 RMK AO2 PK WND 18029/0550 SLP123 T02170189 10278 20211 402940178 50010","lat":33.9785,"lon":-98.493,"elev":310,"name":"Wichita Falls Rgnl, TX, US","cover":"CLR","clouds":[],"fltCat":"VFR"},{"icaoId":"KMKE","receiptTime":"2026-04-13T05:56:40.831Z","obsTime":1776059520,"reportTime":"2026-04-13T06:00:00.000Z","temp":16.1,"dewp":14.4,"wdir":230,"wspd":11,"visib":"10+","altim":1007.2,"slp":1006.7,"qcField":12,"wxString":"-RA","presTend":-1.4,"maxT":18.9,"minT":15.6,"maxT24":24.4,"minT24":8.9,"precip":0.01,"pcp6hr":0.23,"metarType":"METAR","rawOb":"METAR KMKE 130552Z 23011KT 10SM -RA OVC012 16/14 A2974 RMK AO2 RAE11B30 SLP067 P0001 60023 T01610144 10189 20156 402440089 56014 $","lat":42.9549,"lon":-87.9045,"elev":203,"name":"Milwaukee/Mitchell Intl, WI, US","cover":"OVC","clouds":[{"cover":"OVC","base":1200}],"fltCat":"MVFR"},{"icaoId":"KTRM","receiptTime":"2026-04-13T05:58:17.729Z","obsTime":1776059520,"reportTime":"2026-04-13T06:00:00.000Z","temp":18.3,"dewp":6.7,"wdir":340,"wspd":4,"visib":"10+","altim":1014,"slp":1013.9,"qcField":38,"presTend":0.8,"maxT":25,"minT":18.3,"metarType":"METAR","rawOb":"METAR KTRM 130552Z AUTO 34004KT 10SM CLR 18/07 A2994 RMK AO2 SLP139 T01830067 10250 20183 50008 TSNO","lat":33.6317,"lon":-116.1641,"elev":-39,"name":"Thermal Arpt, CA, US","cover":"CLR","clouds":[],"fltCat":"VFR"},{"icaoId":"KDCA","receiptTime":"2026-04-13T05:56:42.353Z","obsTime":1776059520,"reportTime":"2026-04-13T06:00:00.000Z","temp":15,"dewp":11.7,"wdir":200,"wspd":5,"visib":"10+","altim":1023.1,"slp":1023,"qcField":4,"presTend":-2,"maxT":17.2,"minT":14.4,"metarType":"METAR","rawOb":"METAR KDCA 130552Z 20005KT 10SM OVC250 15/12 A3021 RMK AO2 SLP230 T01500117 10172 20144 58020","lat":38.8472,"lon":-77.0345,"elev":4,"name":"Washington/Reagan-National Arpt, VA, US","cover":"OVC","clouds":[{"cover":"OVC","base":25000}],"fltCat":"VFR"},{"icaoId":"KMLF","receiptTime":"2026-04-13T05:57:01.233Z","obsTime":1776059520,"reportTime":"2026-04-13T06:00:00.000Z","temp":7.2,"dewp":0,"wdir":280,"wspd":9,"visib":"10+","altim":1014,"slp":1010.4,"qcField":6,"wxString":"-RA","presTend":3.8,"maxT":16.7,"minT":7.2,"precip":0.005,"pcp6hr":0.005,"metarType":"METAR","rawOb":"METAR KMLF 130552Z AUTO 28009KT 10SM -RA FEW044 BKN055 OVC075 07/00 A2994 RMK AO2 WSHFT 0515 LTG DSNT E RAB14E34B51 SLP104 P0000 60000 T00720000 10167 20072 53038","lat":38.4225,"lon":-113.0109,"elev":1537,"name":"Milford Muni, UT, US","cover":"OVC","clouds":[{"cover":"FEW","base":4400},{"cover":"BKN","base":5500},{"cover":"OVC","base":7500}],"fltCat":"VFR"},{"icaoId":"KOKC","receiptTime":"2026-04-13T05:56:40.944Z","obsTime":1776059520,"reportTime":"2026-04-13T06:00:00.000Z","temp":20.6,"dewp":18.3,"wdir":180,"wspd":16,"wgst":23,"visib":"10+","altim":1014,"slp":1012.6,"qcField":4,"presTend":1.3,"maxT":22.8,"minT":20,"maxT24":27.8,"minT24":18.3,"metarType":"METAR","rawOb":"METAR KOKC 130552Z 18016G23KT 10SM OVC013 21/18 A2994 RMK AO2 PK WND 18027/0504 SLP126 T02060183 10228 20200 402780183 51013","lat":35.3843,"lon":-97.6003,"elev":391,"name":"Oklahoma City/Will Rogers Intl, OK, US","cover":"OVC","clouds":[{"cover":"OVC","base":1300}],"fltCat":"MVFR"},{"icaoId":"KATL","receiptTime":"2026-04-13T05:56:42.060Z","obsTime":1776059520,"reportTime":"2026-04-13T06:00:00.000Z","temp":18.3,"dewp":5.6,"wdir":140,"wspd":7,"visib":"10+","altim":1025.8,"slp":1024.8,"qcField":12,"presTend":0.3,"maxT":26.1,"minT":18.3,"metarType":"METAR","rawOb":"METAR KATL 130552Z 14007KT 10SM SCT250 18/06 A3029 RMK AO2 SLP248 T01830056 10261 20183 53003 $","lat":33.6297,"lon":-84.4422,"elev":309,"name":"Atlanta/Hartsfield-Jackson Intl, GA, US","cover":"SCT","clouds":[{"cover":"SCT","base":25000}],"fltCat":"VFR"},{"icaoId":"KCVG","receiptTime":"2026-04-13T05:56:42.336Z","obsTime":1776059520,"reportTime":"2026-04-13T06:00:00.000Z","temp":23.3,"dewp":7.2,"wdir":200,"wspd":15,"wgst":26,"visib":"10+","altim":1016.7,"slp":1015.6,"qcField":12,"presTend":-0.6,"maxT":23.9,"minT":21.7,"metarType":"METAR","rawOb":"METAR KCVG 130552Z 20015G26KT 10SM BKN090 OVC110 23/07 A3002 RMK AO2 PK WND 20028/0542 SLP156 T02330072 10239 20217 56006 $","lat":39.0444,"lon":-84.6724,"elev":264,"name":"Cincinnati Intl, KY, US","cover":"OVC","clouds":[{"cover":"BKN","base":9000},{"cover":"OVC","base":11000}],"fltCat":"VFR"},{"icaoId":"KIAD","receiptTime":"2026-04-13T05:56:42.670Z","obsTime":1776059520,"reportTime":"2026-04-13T06:00:00.000Z","temp":15,"dewp":10.6,"wdir":170,"wspd":8,"visib":"10+","altim":1022.4,"slp":1022.3,"qcField":12,"presTend":-1.9,"maxT":17.8,"minT":15,"metarType":"METAR","rawOb":"METAR KIAD 130552Z 17008KT 10SM OVC250 15/11 A3019 RMK AO2 SLP223 T01500106 10178 20150 58019 $","lat":38.9348,"lon":-77.4473,"elev":90,"name":"Washington/Dulles Intl, VA, US","cover":"OVC","clouds":[{"cover":"OVC","base":25000}],"fltCat":"VFR"},{"icaoId":"KHRL","receiptTime":"2026-04-13T05:56:42.633Z","obsTime":1776059520,"reportTime":"2026-04-13T06:00:00.000Z","temp":23.9,"dewp":22.8,"wdir":150,"wspd":22,"wgst":34,"visib":"10+","altim":1015,"slp":1014.6,"qcField":6,"presTend":-1.5,"maxT":25.6,"minT":23.9,"maxT24":29.4,"minT24":23.3,"precip":0.02,"pcp6hr":0.02,"metarType":"METAR","rawOb":"METAR KHRL 130552Z AUTO 15022G34KT 10SM FEW015 24/23 A2997 RMK AO2 PK WND 16035/0511 RAB0456E26 SLP146 P0002 60002 T02390228 10256 20239 402940233 58015","lat":26.2303,"lon":-97.6556,"elev":9,"name":"Harlingen/Valley Intl, TX, US","cover":"FEW","clouds":[{"cover":"FEW","base":1500}],"fltCat":"VFR"},{"icaoId":"KABQ","receiptTime":"2026-04-13T05:57:01.063Z","obsTime":1776059520,"reportTime":"2026-04-13T06:00:00.000Z","temp":16.7,"dewp":-7.8,"wdir":220,"wspd":8,"visib":"10+","altim":1017,"slp":1010.4,"qcField":12,"presTend":1,"maxT":24.4,"minT":16.1,"metarType":"METAR","rawOb":"METAR KABQ 130552Z 22008KT 10SM SCT150 BKN250 17/M08 A3003 RMK AO2 SLP104 T01671078 10244 20161 51010 $","lat":35.0419,"lon":-106.6154,"elev":1620,"name":"Albuquerque Intl, NM, US","cover":"BKN","clouds":[{"cover":"SCT","base":15000},{"cover":"BKN","base":25000}],"fltCat":"VFR"},{"icaoId":"KABI","receiptTime":"2026-04-13T05:57:01.049Z","obsTime":1776059520,"reportTime":"2026-04-13T06:00:00.000Z","temp":21.1,"dewp":18.9,"wdir":160,"wspd":13,"wgst":22,"visib":"10+","altim":1016.3,"slp":1013.8,"qcField":12,"presTend":1.5,"maxT":27.8,"minT":21.1,"maxT24":28.9,"minT24":16.7,"metarType":"METAR","rawOb":"METAR KABI 130552Z 16013G22KT 10SM CLR 21/19 A3001 RMK AO2 PK WND 16027/0458 SLP138 T02110189 10278 20211 402890167 51015 $","lat":32.4106,"lon":-99.6821,"elev":543,"name":"Abilene Rgnl, TX, US","cover":"CLR","clouds":[],"fltCat":"VFR"},{"icaoId":"KELP","receiptTime":"2026-04-13T05:54:09.919Z","obsTime":1776059460,"reportTime":"2026-04-13T06:00:00.000Z","temp":21.7,"dewp":1.1,"wdir":260,"wspd":9,"visib":"10+","altim":1018.7,"slp":1011.7,"qcField":4,"presTend":1.4,"maxT":26.7,"minT":21.7,"metarType":"METAR","rawOb":"METAR KELP 130551Z 26009KT 10SM BKN250 22/01 A3008 RMK AO2 SLP117 T02170011 10267 20217 51014","lat":31.8123,"lon":-106.3774,"elev":1205,"name":"El Paso Intl, TX, US","cover":"BKN","clouds":[{"cover":"BKN","base":25000}],"fltCat":"VFR"},{"icaoId":"KCMH","receiptTime":"2026-04-13T05:54:09.697Z","obsTime":1776059460,"reportTime":"2026-04-13T06:00:00.000Z","temp":20.6,"dewp":7.8,"wdir":180,"wspd":7,"visib":"10+","altim":1016.3,"slp":1015.7,"qcField":4,"presTend":-0.8,"maxT":25,"minT":20,"metarType":"METAR","rawOb":"METAR KCMH 130551Z 18007KT 10SM BKN140 21/08 A3001 RMK AO2 SLP157 T02060078 10250 20200 56008","lat":39.9907,"lon":-82.877,"elev":257,"name":"Columbus/Glenn Intl, OH, US","cover":"BKN","clouds":[{"cover":"BKN","base":14000}],"fltCat":"VFR"},{"icaoId":"KBDL","receiptTime":"2026-04-13T05:54:09.305Z","obsTime":1776059460,"reportTime":"2026-04-13T06:00:00.000Z","temp":7.8,"dewp":3.9,"wdir":180,"wspd":10,"visib":"10+","altim":1024.8,"slp":1024.7,"qcField":4,"presTend":-2.2,"maxT":9.4,"minT":7.2,"pcp6hr":0.005,"metarType":"METAR","rawOb":"METAR KBDL 130551Z 18010KT 10SM BKN100 OVC150 08/04 A3026 RMK AO2 SLP247 60000 T00780039 10094 20072 58022","lat":41.9374,"lon":-72.682,"elev":52,"name":"Hartford/Bradley Intl, CT, US","cover":"OVC","clouds":[{"cover":"BKN","base":10000},{"cover":"OVC","base":15000}],"fltCat":"VFR"},{"icaoId":"KORD","receiptTime":"2026-04-13T05:54:08.287Z","obsTime":1776059460,"reportTime":"2026-04-13T06:00:00.000Z","temp":16.7,"dewp":15,"wdir":240,"wspd":13,"wgst":27,"visib":"10+","altim":1009.2,"slp":1008.6,"qcField":12,"presTend":-0.5,"maxT":23.9,"minT":16.1,"maxT24":27.2,"minT24":13.3,"precip":0.02,"pcp6hr":0.13,"metarType":"METAR","rawOb":"METAR KORD 130551Z 24013G27KT 10SM BKN009 BKN014 OVC030 17/15 A2980 RMK AO2 PK WND 21027/0549 RAE24 SLP086 P0002 60013 T01670150 10239 20161 402720133 55005 $","lat":41.9602,"lon":-87.9316,"elev":202,"name":"Chicago/O'Hare Intl, IL, US","cover":"OVC","clouds":[{"cover":"BKN","base":900},{"cover":"BKN","base":1400},{"cover":"OVC","base":3000}],"fltCat":"IFR"},{"icaoId":"KMYL","receiptTime":"2026-04-13T05:54:08.262Z","obsTime":1776059460,"reportTime":"2026-04-13T06:00:00.000Z","temp":1.1,"dewp":0,"wdir":170,"wspd":8,"visib":"10+","altim":1008.5,"slp":1009.1,"qcField":6,"presTend":-0.1,"maxT":2.8,"minT":1.1,"pcp6hr":0.005,"metarType":"METAR","rawOb":"METAR KMYL 130551Z AUTO 17008KT 10SM BKN018 BKN025 OVC050 01/00 A2978 RMK AO2 SLP091 60000 T00110000 10028 20011 55001","lat":44.8943,"lon":-116.0998,"elev":1532,"name":"McCall Muni, ID, US","cover":"OVC","clouds":[{"cover":"BKN","base":1800},{"cover":"BKN","base":2500},{"cover":"OVC","base":5000}],"fltCat":"MVFR"},{"icaoId":"KOXR","receiptTime":"2026-04-13T05:54:08.328Z","obsTime":1776059460,"reportTime":"2026-04-13T06:00:00.000Z","temp":13.9,"dewp":9.4,"wdir":260,"wspd":8,"visib":"10+","altim":1017.4,"slp":1017.1,"qcField":6,"presTend":1.1,"maxT":17.8,"minT":13.9,"metarType":"METAR","rawOb":"METAR KOXR 130551Z AUTO 26008KT 10SM CLR 14/09 A3004 RMK AO2 SLP171 T01390094 10178 20139 51011","lat":34.2001,"lon":-119.2042,"elev":12,"name":"Oxnard Arpt, CA, US","cover":"CLR","clouds":[],"fltCat":"VFR"},{"icaoId":"KRDU","receiptTime":"2026-04-13T05:54:08.517Z","obsTime":1776059460,"reportTime":"2026-04-13T06:00:00.000Z","temp":18.9,"dewp":15,"wdir":190,"wspd":8,"visib":"10+","altim":1026.8,"slp":1026.2,"qcField":12,"presTend":0.1,"maxT":24.4,"minT":18.9,"metarType":"METAR","rawOb":"METAR KRDU 130551Z 19008KT 10SM SCT080 OVC250 19/15 A3032 RMK AO2 SLP262 T01890150 10244 20189 50001 $","lat":35.8923,"lon":-78.782,"elev":121,"name":"Raleigh-Durham Intl, NC, US","cover":"OVC","clouds":[{"cover":"SCT","base":8000},{"cover":"OVC","base":25000}],"fltCat":"VFR"},{"icaoId":"KSTL","receiptTime":"2026-04-13T05:54:10.078Z","obsTime":1776059460,"reportTime":"2026-04-13T06:00:00.000Z","temp":21.7,"dewp":15.6,"wdir":210,"wspd":10,"visib":"10+","altim":1014.6,"slp":1013.5,"qcField":12,"presTend":1.1,"maxT":23.9,"minT":21.1,"maxT24":26.7,"minT24":17.8,"pcp6hr":0.005,"metarType":"METAR","rawOb":"METAR KSTL 130551Z 21010KT 10SM BKN049 22/16 A2996 RMK AO2 SLP135 60000 T02170156 10239 20211 402670178 53011 $","lat":38.7525,"lon":-90.3734,"elev":163,"name":"St Louis/Lambert Intl, MO, US","cover":"BKN","clouds":[{"cover":"BKN","base":4900}],"fltCat":"VFR"},{"icaoId":"KVNY","receiptTime":"2026-04-13T05:54:10.208Z","obsTime":1776059460,"reportTime":"2026-04-13T06:00:00.000Z","temp":13.3,"dewp":7.2,"wdir":260,"wspd":3,"visib":"10+","altim":1017.4,"slp":1016.6,"qcField":14,"presTend":1.4,"maxT":18.3,"minT":13.3,"metarType":"METAR","rawOb":"METAR KVNY 130551Z AUTO 26003KT 10SM SCT060 13/07 A3004 RMK AO2 SLP166 T01330072 10183 20133 51014 $","lat":34.2121,"lon":-118.4915,"elev":241,"name":"Van Nuys Arpt, CA, US","cover":"SCT","clouds":[{"cover":"SCT","base":6000}],"fltCat":"VFR"},{"icaoId":"KPIT","receiptTime":"2026-04-13T05:54:09.000Z","obsTime":1776059460,"reportTime":"2026-04-13T06:00:00.000Z","temp":20,"dewp":7.2,"wdir":180,"wspd":4,"visib":"10+","altim":1017,"slp":1016.8,"qcField":12,"presTend":-0.9,"maxT":24.4,"minT":20,"metarType":"METAR","rawOb":"METAR KPIT 130551Z 18004KT 10SM FEW070 BKN150 20/07 A3003 RMK AO2 SLP168 T02000072 10244 20200 56009 $","lat":40.4814,"lon":-80.2083,"elev":339,"name":"Pittsburgh Intl, PA, US","cover":"BKN","clouds":[{"cover":"FEW","base":7000},{"cover":"BKN","base":15000}],"fltCat":"VFR"},{"icaoId":"KEWR","receiptTime":"2026-04-13T05:54:09.944Z","obsTime":1776059460,"reportTime":"2026-04-13T06:00:00.000Z","temp":9.4,"dewp":3.9,"wdir":170,"wspd":5,"visib":"10+","altim":1025.1,"slp":1025,"qcField":4,"presTend":-2.3,"maxT":10,"minT":8.9,"metarType":"METAR","rawOb":"METAR KEWR 130551Z 17005KT 10SM FEW120 SCT150 BKN250 09/04 A3027 RMK AO2 SLP250 T00940039 10100 20089 58023","lat":40.6828,"lon":-74.1692,"elev":2,"name":"Newark Intl, NJ, US","cover":"BKN","clouds":[{"cover":"FEW","base":12000},{"cover":"SCT","base":15000},{"cover":"BKN","base":25000}],"fltCat":"VFR"},{"icaoId":"KPHX","receiptTime":"2026-04-13T05:54:08.352Z","obsTime":1776059460,"reportTime":"2026-04-13T06:00:00.000Z","temp":22.2,"dewp":4.4,"wdir":280,"wspd":10,"visib":"10+","altim":1014.3,"slp":1012.7,"qcField":12,"presTend":1.8,"maxT":27.2,"minT":22.2,"metarType":"METAR","rawOb":"METAR KPHX 130551Z 28010KT 10SM FEW160 SCT210 22/04 A2995 RMK AO2 SLP127 T02220044 10272 20222 51018 $","lat":33.4278,"lon":-112.0037,"elev":338,"name":"Phoenix/Sky Harbor Intl, AZ, US","cover":"SCT","clouds":[{"cover":"FEW","base":16000},{"cover":"SCT","base":21000}],"fltCat":"VFR"},{"icaoId":"KORF","receiptTime":"2026-04-13T05:54:08.313Z","obsTime":1776059460,"reportTime":"2026-04-13T06:00:00.000Z","temp":16.7,"dewp":13.3,"wdir":190,"wspd":13,"wgst":20,"visib":"10+","altim":1026.2,"slp":1026,"qcField":4,"presTend":-1.2,"maxT":16.7,"minT":15.6,"metarType":"METAR","rawOb":"METAR KORF 130551Z 19013G20KT 10SM CLR 17/13 A3030 RMK AO2 SLP260 T01670133 10167 20156 58012","lat":36.9037,"lon":-76.1927,"elev":5,"name":"Norfolk Intl, VA, US","cover":"CLR","clouds":[],"fltCat":"VFR"},{"icaoId":"KIGM","receiptTime":"2026-04-13T05:54:07.970Z","obsTime":1776059460,"reportTime":"2026-04-13T06:00:00.000Z","temp":15,"dewp":2.2,"wdir":200,"wspd":18,"wgst":25,"visib":"10+","altim":1014.6,"slp":1009.2,"qcField":6,"presTend":1.5,"maxT":20,"minT":15,"metarType":"METAR","rawOb":"METAR KIGM 130551Z AUTO 20018G25KT 10SM BKN060 BKN070 15/02 A2996 RMK AO2 PK WND 21028/0533 SLP092 T01500022 10200 20150 51015","lat":35.2575,"lon":-113.9341,"elev":1045,"name":"Kingman Arpt, AZ, US","cover":"BKN","clouds":[{"cover":"BKN","base":6000},{"cover":"BKN","base":7000}],"fltCat":"VFR"},{"icaoId":"KJFK","receiptTime":"2026-04-13T05:54:08.056Z","obsTime":1776059460,"reportTime":"2026-04-13T06:00:00.000Z","temp":8.3,"dewp":5,"wdir":180,"wspd":7,"visib":"10+","altim":1025.8,"slp":1025.5,"qcField":12,"presTend":-2.3,"maxT":8.3,"minT":7.2,"metarType":"METAR","rawOb":"METAR KJFK 130551Z 18007KT 10SM FEW140 SCT200 08/05 A3029 RMK AO2 SLP255 T00830050 10083 20072 58023 $","lat":40.6392,"lon":-73.7639,"elev":3,"name":"New York/JF Kennedy Intl, NY, US","cover":"SCT","clouds":[{"cover":"FEW","base":14000},{"cover":"SCT","base":20000}],"fltCat":"VFR"},{"icaoId":"KROW","receiptTime":"2026-04-13T05:54:08.536Z","obsTime":1776059460,"reportTime":"2026-04-13T06:00:00.000Z","temp":17.2,"dewp":-1.1,"wdir":240,"wspd":9,"visib":"10+","altim":1015.7,"slp":1009.6,"qcField":14,"presTend":1.2,"maxT":27.8,"minT":16.7,"metarType":"METAR","rawOb":"METAR KROW 130551Z AUTO 24009KT 10SM CLR 17/M01 A2999 RMK AO2 SLP096 T01721011 10278 20167 51012 $","lat":33.3074,"lon":-104.5082,"elev":1105,"name":"Roswell/Ind Arpt, NM, US","cover":"CLR","clouds":[],"fltCat":"VFR"},{"icaoId":"KCLE","receiptTime":"2026-04-13T05:54:08.874Z","obsTime":1776059460,"reportTime":"2026-04-13T06:00:00.000Z","temp":21.7,"dewp":7.8,"wdir":210,"wspd":8,"wgst":17,"visib":"10+","altim":1013.3,"slp":1014.3,"qcField":12,"presTend":-1.3,"maxT":23.3,"minT":21.7,"precip":0.005,"pcp6hr":0.005,"metarType":"METAR","rawOb":"METAR KCLE 130551Z 21008G17KT 10SM SCT160 OVC180 22/08 A2992 RMK AO2 RAE07 SLP143 P0000 60000 T02170078 10233 20217 58013 $","lat":41.4057,"lon":-81.8519,"elev":237,"name":"Cleveland/Hopkins Intl, OH, US","cover":"OVC","clouds":[{"cover":"SCT","base":16000},{"cover":"OVC","base":18000}],"fltCat":"VFR"},{"icaoId":"KSAT","receiptTime":"2026-04-13T05:54:08.602Z","obsTime":1776059460,"reportTime":"2026-04-13T06:00:00.000Z","temp":22.8,"dewp":20.6,"wdir":140,"wspd":12,"visib":"10+","altim":1019,"slp":1017.1,"qcField":12,"presTend":1.2,"maxT":23.9,"minT":22.8,"maxT24":26.7,"minT24":21.1,"precip":0.01,"pcp6hr":0.01,"metarType":"METAR","rawOb":"METAR KSAT 130551Z 14012KT 10SM OVC010 23/21 A3009 RMK AO2 RAB10E22 CIG 009V013 SLP171 P0001 60001 T02280206 10239 20228 402670211 51012 $","lat":29.5443,"lon":-98.4839,"elev":246,"name":"San Antonio Intl, TX, US","cover":"OVC","clouds":[{"cover":"OVC","base":1000}],"fltCat":"MVFR"},{"icaoId":"KSAD","receiptTime":"2026-04-13T05:54:08.550Z","obsTime":1776059460,"reportTime":"2026-04-13T06:00:00.000Z","temp":18.9,"dewp":2.2,"wdir":350,"wspd":4,"visib":"10+","altim":1016.3,"slp":1012,"qcField":6,"presTend":0.7,"maxT":26.1,"minT":18.3,"pcp6hr":0.005,"metarType":"METAR","rawOb":"METAR KSAD 130551Z AUTO 35004KT 10SM CLR 19/02 A3001 RMK AO2 SLP120 60000 T01890022 10261 20183 50007","lat":32.8565,"lon":-109.636,"elev":937,"name":"Safford Rgnl, AZ, US","cover":"CLR","clouds":[],"fltCat":"VFR"},{"icaoId":"KLGA","receiptTime":"2026-04-13T05:54:08.100Z","obsTime":1776059460,"reportTime":"2026-04-13T06:00:00.000Z","temp":9.4,"dewp":5,"wdir":170,"wspd":7,"visib":"10+","altim":1025.1,"slp":1024.8,"qcField":12,"presTend":-2.2,"maxT":9.4,"minT":8.9,"metarType":"METAR","rawOb":"METAR KLGA 130551Z 17007KT 10SM FEW150 SCT250 09/05 A3027 RMK AO2 SLP248 T00940050 10094 20089 58022 $","lat":40.7794,"lon":-73.8803,"elev":9,"name":"New York/La Guardia Arpt, NY, US","cover":"SCT","clouds":[{"cover":"FEW","base":15000},{"cover":"SCT","base":25000}],"fltCat":"VFR"}]