[{"icaoId":"KLAW","receiptTime":"2026-04-17T15:07:06.002Z","obsTime":1776438240,"reportTime":"2026-04-17T15:04:00.000Z","temp":21.7,"dewp":18.9,"wdir":170,"wspd":10,"visib":"10+","altim":1009.6,"qcField":4,"metarType":"SPECI","rawOb":"SPECI KLAW 171504Z 17010KT 10SM BKN027 OVC033 22/19 A2981 RMK AO2 T02170189","lat":34.5577,"lon":-98.4172,"elev":328,"name":"Lawton-Fort Sill Rgnl, OK, US","cover":"OVC","clouds":[{"cover":"BKN","base":2700},{"cover":"OVC","base":3300}],"fltCat":"MVFR"},{"icaoId":"KMSP","receiptTime":"2026-04-17T15:06:05.943Z","obsTime":1776438180,"reportTime":"2026-04-17T15:03:00.000Z","temp":17.8,"dewp":15.6,"wdir":160,"wspd":10,"visib":"10+","altim":1001.1,"qcField":4,"precip":0.005,"metarType":"SPECI","rawOb":"SPECI KMSP 171503Z 16010KT 10SM FEW038 SCT090 BKN170 OVC250 18/16 A2956 RMK AO2 LTG DSNT E-S RAE02 CB DSNT NE-S MOV NE TCU DSNT NW P0000 T01780156","lat":44.8852,"lon":-93.2313,"elev":255,"name":"Minneapolis-St Paul Intl, MN, US","cover":"OVC","clouds":[{"cover":"FEW","base":3800},{"cover":"SCT","base":9000},{"cover":"BKN","base":17000},{"cover":"OVC","base":25000}],"fltCat":"VFR"},{"icaoId":"KDAL","receiptTime":"2026-04-17T15:06:05.911Z","obsTime":1776438180,"reportTime":"2026-04-17T15:03:00.000Z","temp":23.3,"dewp":18.3,"wdir":180,"wspd":13,"wgst":21,"visib":"10+","altim":1012.3,"qcField":4,"metarType":"SPECI","rawOb":"SPECI KDAL 171503Z 18013G21KT 10SM BKN026 BKN032 BKN180 BKN250 23/18 A2989 RMK AO2 T02330183","lat":32.8384,"lon":-96.8358,"elev":148,"name":"Dallas/Love Fld, TX, US","cover":"BKN","clouds":[{"cover":"BKN","base":2600},{"cover":"BKN","base":3200},{"cover":"BKN","base":18000},{"cover":"BKN","base":25000}],"fltCat":"MVFR"},{"icaoId":"KMSY","receiptTime":"2026-04-17T15:06:04.763Z","obsTime":1776438120,"reportTime":"2026-04-17T15:02:00.000Z","temp":25,"dewp":19.4,"wdir":160,"wspd":6,"visib":"10+","altim":1019,"qcField":4,"metarType":"SPECI","rawOb":"SPECI KMSY 171502Z 16006KT 10SM BKN024 25/19 A3009 RMK AO2 T02500194","lat":29.9974,"lon":-90.2777,"elev":0,"name":"New Orleans/Armstrong Intl, LA, US","cover":"BKN","clouds":[{"cover":"BKN","base":2400}],"fltCat":"MVFR"},{"icaoId":"KMCI","receiptTime":"2026-04-17T15:06:04.698Z","obsTime":1776438120,"reportTime":"2026-04-17T15:02:00.000Z","temp":24.4,"dewp":18.9,"wdir":200,"wspd":19,"wgst":28,"visib":"10+","altim":1005.5,"qcField":4,"metarType":"SPECI","rawOb":"SPECI KMCI 171502Z 20019G28KT 10SM BKN027 BKN250 24/19 A2969 RMK AO2 PK WND 20028/1501 T02440189","lat":39.2975,"lon":-94.7309,"elev":308,"name":"Kansas City Intl, MO, US","cover":"BKN","clouds":[{"cover":"BKN","base":2700},{"cover":"BKN","base":25000}],"fltCat":"MVFR"},{"icaoId":"KLAR","receiptTime":"2026-04-17T15:06:04.688Z","obsTime":1776438120,"reportTime":"2026-04-17T15:02:00.000Z","temp":-5,"dewp":-8.3,"wdir":280,"wspd":10,"visib":2.5,"altim":1013,"qcField":6,"wxString":"-SN","precip":0.005,"metarType":"SPECI","rawOb":"SPECI KLAR 171502Z AUTO 28010KT 2 1/2SM -SN BKN028 OVC037 M05/M08 A2991 RMK AO2 SNB1456 P0000 T10501083","lat":41.3165,"lon":-105.6729,"elev":2217,"name":"Laramie Rgnl, WY, US","cover":"OVC","clouds":[{"cover":"BKN","base":2800},{"cover":"OVC","base":3700}],"fltCat":"IFR"},{"icaoId":"KBTM","receiptTime":"2026-04-17T15:04:14.695Z","obsTime":1776438060,"reportTime":"2026-04-17T15:01:00.000Z","temp":-3.3,"dewp":-6.1,"wdir":10,"wspd":4,"visib":1.5,"altim":1019,"qcField":6,"wxString":"-SN","precip":0.005,"metarType":"SPECI","rawOb":"SPECI KBTM 171501Z AUTO 01004KT 1 1/2SM -SN BKN024 BKN031 OVC040 M03/M06 A3009 RMK AO2 P0000 T10331061","lat":45.9644,"lon":-112.5015,"elev":1680,"name":"Butte/Mooney Arpt, MT, US","cover":"OVC","clouds":[{"cover":"BKN","base":2400},{"cover":"BKN","base":3100},{"cover":"OVC","base":4000}],"fltCat":"IFR"},{"icaoId":"KBUR","receiptTime":"2026-04-17T15:04:05.908Z","obsTime":1776438000,"reportTime":"2026-04-17T15:00:00.000Z","temp":14.4,"dewp":10.6,"wdir":0,"wspd":0,"visib":"10+","altim":1015.7,"qcField":4,"metarType":"SPECI","rawOb":"SPECI KBUR 171500Z 00000KT 10SM BKN018 14/11 A2999 RMK AO2 T01440106","lat":34.1996,"lon":-118.3654,"elev":221,"name":"Burbank/Bob Hope Arpt, CA, US","cover":"BKN","clouds":[{"cover":"BKN","base":1800}],"fltCat":"MVFR"},{"icaoId":"KNFL","receiptTime":"2026-04-17T15:00:31.379Z","obsTime":1776437820,"reportTime":"2026-04-17T15:00:00.000Z","temp":0.6,"dewp":-12.2,"wdir":"VRB","wspd":3,"visib":"10+","altim":1025.1,"slp":1021.2,"qcField":4,"presTend":0.8,"metarType":"METAR","rawOb":"METAR KNFL 171457Z VRB03KT 10SM CLR 01/M12 A3027 RMK AO2 SLP212 T00061122 53008","lat":39.417,"lon":-118.705,"elev":1199,"name":"Fallon , NV, US","cover":"CLR","clouds":[],"fltCat":"VFR"},{"icaoId":"KFLG","receiptTime":"2026-04-17T15:00:22.713Z","obsTime":1776437820,"reportTime":"2026-04-17T15:00:00.000Z","temp":5.6,"dewp":-9.4,"wdir":270,"wspd":5,"visib":"10+","altim":1018,"slp":1012.8,"qcField":4,"presTend":3,"metarType":"METAR","rawOb":"METAR KFLG 171457Z 27005KT 10SM CLR 06/M09 A3006 RMK AO2 SLP128 T00561094 53030","lat":35.1443,"lon":-111.6664,"elev":2134,"name":"Flagstaff/Pulliam Arpt, AZ, US","cover":"CLR","clouds":[],"fltCat":"VFR"},{"icaoId":"KNYL","receiptTime":"2026-04-17T15:02:06.351Z","obsTime":1776437820,"reportTime":"2026-04-17T15:00:00.000Z","temp":19.4,"dewp":4.4,"wdir":350,"wspd":4,"visib":"10+","altim":1012.6,"slp":1012.2,"qcField":4,"presTend":3.2,"metarType":"METAR","rawOb":"METAR KNYL 171457Z 35004KT 10SM CLR 19/04 A2990 RMK AO2 SLP122 T01940044 53032","lat":32.66,"lon":-114.6078,"elev":58,"name":"Yuma , AZ, US","cover":"CLR","clouds":[],"fltCat":"VFR"},{"icaoId":"KTPH","receiptTime":"2026-04-17T15:00:10.091Z","obsTime":1776437760,"reportTime":"2026-04-17T15:00:00.000Z","temp":-1.1,"dewp":-16.1,"wdir":350,"wspd":16,"wgst":21,"visib":"10+","altim":1024.5,"slp":1024.2,"qcField":6,"presTend":1.5,"metarType":"METAR","rawOb":"METAR KTPH 171456Z AUTO 35016G21KT 10SM CLR M01/M16 A3025 RMK AO2 SLP242 T10111161 53015","lat":38.0505,"lon":-117.0906,"elev":1647,"name":"Tonopah Arpt, NV, US","cover":"CLR","clouds":[],"fltCat":"VFR"},{"icaoId":"KSLE","receiptTime":"2026-04-17T15:00:11.858Z","obsTime":1776437760,"reportTime":"2026-04-17T15:00:00.000Z","temp":5,"dewp":3.3,"wdir":0,"wspd":0,"visib":"10+","altim":1026.5,"slp":1026.5,"qcField":4,"presTend":-0.3,"metarType":"METAR","rawOb":"METAR KSLE 171456Z 00000KT 10SM FEW006 05/03 A3031 RMK AO2 SLP265 T00500033 55003","lat":44.9049,"lon":-123.001,"elev":63,"name":"Salem Muni, OR, US","cover":"FEW","clouds":[{"cover":"FEW","base":600}],"fltCat":"VFR"},{"icaoId":"KENV","receiptTime":"2026-04-17T14:58:59.188Z","obsTime":1776437760,"reportTime":"2026-04-17T15:00:00.000Z","temp":2.8,"dewp":-12.8,"wdir":310,"wspd":12,"visib":"10+","altim":1025.1,"slp":1027,"qcField":6,"presTend":1.8,"metarType":"METAR","rawOb":"METAR KENV 171456Z AUTO 31012KT 10SM CLR 03/M13 A3027 RMK AO2 SLP270 T00281128 53018","lat":40.7211,"lon":-114.0312,"elev":1291,"name":"Wendover Arpt, UT, US","cover":"CLR","clouds":[],"fltCat":"VFR"},{"icaoId":"KOTH","receiptTime":"2026-04-17T15:02:24.529Z","obsTime":1776437760,"reportTime":"2026-04-17T15:00:00.000Z","temp":6,"dewp":6,"wdir":0,"wspd":0,"visib":"10+","altim":1025.8,"qcField":0,"metarType":"METAR","rawOb":"METAR KOTH 171456Z 00000KT 10SM CLR 06/06 A3029","lat":43.4194,"lon":-124.2438,"elev":3,"name":"North Bend/SW Oregon Rgnl, OR, US","cover":"CLR","clouds":[],"fltCat":"VFR"},{"icaoId":"KSFO","receiptTime":"2026-04-17T15:00:15.052Z","obsTime":1776437760,"reportTime":"2026-04-17T15:00:00.000Z","temp":15,"dewp":2.2,"wdir":40,"wspd":7,"visib":"10+","altim":1018,"slp":1017.8,"qcField":12,"presTend":0.6,"metarType":"METAR","rawOb":"METAR KSFO 171456Z 04007KT 10SM FEW200 15/02 A3006 RMK AO2 SLP178 T01500022 53006 $","lat":37.6196,"lon":-122.3656,"elev":2,"name":"San Francisco Intl, CA, US","cover":"FEW","clouds":[{"cover":"FEW","base":20000}],"fltCat":"VFR"},{"icaoId":"KFNL","receiptTime":"2026-04-17T14:58:57.932Z","obsTime":1776437760,"reportTime":"2026-04-17T15:00:00.000Z","temp":2.2,"dewp":-5.6,"wdir":20,"wspd":16,"wgst":23,"visib":8,"altim":1014,"slp":1010.8,"qcField":12,"wxString":"-RA","presTend":2.8,"precip":0.005,"pcp3hr":0.005,"metarType":"METAR","rawOb":"METAR KFNL 171456Z 02016G23KT 8SM -RA SCT030 OVC039 02/M06 A2994 RMK AO2 RAB50 SLP108 P0000 60000 T00221056 51028 $","lat":40.4427,"lon":-105.0097,"elev":1529,"name":"Fort Collins/N Colorado Rgnl, CO, US","cover":"OVC","clouds":[{"cover":"SCT","base":3000},{"cover":"OVC","base":3900}],"fltCat":"VFR"},{"icaoId":"KHND","receiptTime":"2026-04-17T14:58:58.512Z","obsTime":1776437760,"reportTime":"2026-04-17T15:00:00.000Z","temp":10.6,"dewp":-18.3,"wdir":10,"wspd":19,"wgst":23,"visib":"10+","altim":1022.1,"slp":1022.7,"qcField":12,"presTend":3.4,"metarType":"METAR","rawOb":"METAR KHND 171456Z 01019G23KT 10SM CLR 11/M18 A3018 RMK AO2 SLP227 T01061183 51034 $","lat":35.9657,"lon":-115.1343,"elev":740,"name":"Henderson Exec, NV, US","cover":"CLR","clouds":[],"fltCat":"VFR"},{"icaoId":"KLWS","receiptTime":"2026-04-17T15:00:15.026Z","obsTime":1776437760,"reportTime":"2026-04-17T15:00:00.000Z","temp":5,"dewp":-0.6,"wdir":360,"wspd":4,"visib":"10+","altim":1024.1,"slp":1024.6,"qcField":4,"presTend":0.7,"metarType":"METAR","rawOb":"METAR KLWS 171456Z 36004KT 10SM OVC090 05/M01 A3024 RMK AO2 SLP246 T00501006 53007","lat":46.3746,"lon":-117.0153,"elev":435,"name":"Lewiston/Nez Perce Cnty, ID, US","cover":"OVC","clouds":[{"cover":"OVC","base":9000}],"fltCat":"VFR"},{"icaoId":"KCGZ","receiptTime":"2026-04-17T14:58:56.811Z","obsTime":1776437760,"reportTime":"2026-04-17T15:00:00.000Z","temp":19.4,"dewp":-0.6,"wdir":190,"wspd":5,"visib":"10+","altim":1013.6,"slp":1012.3,"qcField":14,"presTend":2.3,"metarType":"METAR","rawOb":"METAR KCGZ 171456Z AUTO 19005KT 10SM CLR 19/M01 A2993 RMK AO2 SLP123 6//// T01941006 53023 $","lat":32.9531,"lon":-111.7725,"elev":444,"name":"Casa Granda Muni, AZ, US","cover":"CLR","clouds":[],"fltCat":"VFR"},{"icaoId":"KEGE","receiptTime":"2026-04-17T14:58:59.045Z","obsTime":1776437760,"reportTime":"2026-04-17T15:00:00.000Z","temp":-2.8,"dewp":-3.9,"wdir":0,"wspd":0,"visib":0.25,"altim":1016.3,"slp":1014.2,"qcField":4,"wxString":"SN FZFG","presTend":3.7,"precip":0.005,"pcp3hr":0.005,"metarType":"METAR","rawOb":"METAR KEGE 171456Z 00000KT 1/4SM SN FZFG OVC005 M03/M04 A3001 RMK AO2 SLP142 P0000 60000 T10281039 51037 RVRNO","lat":39.6448,"lon":-106.9176,"elev":1993,"name":"Eagle Cnty Rgnl, CO, US","cover":"OVC","clouds":[{"cover":"OVC","base":500}],"fltCat":"LIFR"},{"icaoId":"KJAC","receiptTime":"2026-04-17T14:58:55.586Z","obsTime":1776437760,"reportTime":"2026-04-17T15:00:00.000Z","temp":-3.9,"dewp":-7.8,"wdir":170,"wspd":5,"visib":"10+","altim":1019.4,"slp":1024.4,"qcField":4,"presTend":1.7,"precip":0.005,"pcp3hr":0.005,"metarType":"METAR","rawOb":"METAR KJAC 171456Z 17005KT 10SM FEW038 OVC060 M04/M08 A3010 RMK AO2 SNE27 SLP244 P0000 60000 T10391078 51017","lat":43.6129,"lon":-110.7366,"elev":1967,"name":"Jackson Hole Arpt, WY, US","cover":"OVC","clouds":[{"cover":"FEW","base":3800},{"cover":"OVC","base":6000}],"fltCat":"VFR"},{"icaoId":"KPWT","receiptTime":"2026-04-17T14:58:50.115Z","obsTime":1776437760,"reportTime":"2026-04-17T15:00:00.000Z","temp":6.1,"dewp":5,"wdir":0,"wspd":0,"visib":"10+","altim":1027.2,"slp":1027.6,"qcField":6,"presTend":0.2,"metarType":"METAR","rawOb":"METAR KPWT 171456Z AUTO 00000KT 10SM CLR 06/05 A3033 RMK AO2 SLP276 T00610050 53002","lat":47.4942,"lon":-122.7594,"elev":143,"name":"Bremerton Arpt, WA, US","cover":"CLR","clouds":[],"fltCat":"VFR"},{"icaoId":"KJAX","receiptTime":"2026-04-17T15:00:14.786Z","obsTime":1776437760,"reportTime":"2026-04-17T15:00:00.000Z","temp":27.2,"dewp":15,"wdir":310,"wspd":7,"visib":"10+","altim":1019,"slp":1018.9,"qcField":12,"presTend":0.4,"metarType":"METAR","rawOb":"METAR KJAX 171456Z 31007KT 10SM CLR 27/15 A3009 RMK AO2 SLP189 T02720150 52004 $","lat":30.4953,"lon":-81.6937,"elev":8,"name":"Jacksonville Intl, FL, US","cover":"CLR","clouds":[],"fltCat":"VFR"},{"icaoId":"KINW","receiptTime":"2026-04-17T15:00:14.735Z","obsTime":1776437760,"reportTime":"2026-04-17T15:00:00.000Z","temp":10.6,"dewp":-6.1,"wdir":330,"wspd":20,"wgst":27,"visib":"10+","altim":1017,"slp":1012.9,"qcField":6,"presTend":3.2,"metarType":"METAR","rawOb":"METAR KINW 171456Z AUTO 33020G27KT 10SM CLR 11/M06 A3003 RMK AO2 PK WND 33027/1456 WSHFT 1346 SLP129 T01061061 53032","lat":35.0279,"lon":-110.7221,"elev":1492,"name":"Winslow/Lindberg Rgnl, AZ, US","cover":"CLR","clouds":[],"fltCat":"VFR"},{"icaoId":"KCHS","receiptTime":"2026-04-17T15:00:14.721Z","obsTime":1776437760,"reportTime":"2026-04-17T15:00:00.000Z","temp":27.2,"dewp":14.4,"wdir":270,"wspd":7,"visib":"10+","altim":1017.4,"slp":1017,"qcField":12,"presTend":0.2,"metarType":"METAR","rawOb":"METAR KCHS 171456Z 27007KT 10SM CLR 27/14 A3004 RMK AO2 SLP170 T02720144 51002 $","lat":32.8995,"lon":-80.0407,"elev":12,"name":"Charleston Intl, SC, US","cover":"CLR","clouds":[],"fltCat":"VFR"},{"icaoId":"KBZN","receiptTime":"2026-04-17T15:00:14.687Z","obsTime":1776437760,"reportTime":"2026-04-17T15:00:00.000Z","temp":-1.7,"dewp":-8.9,"wdir":70,"wspd":4,"visib":"10+","altim":1019.4,"slp":1023.3,"qcField":4,"presTend":1.2,"metarType":"METAR","rawOb":"METAR KBZN 171456Z 07004KT 10SM BKN050 OVC065 M02/M09 A3010 RMK AO2 SLP233 T10171089 53012","lat":45.7876,"lon":-111.1615,"elev":1349,"name":"Bozeman/Gallatin Fld, MT, US","cover":"OVC","clouds":[{"cover":"BKN","base":5000},{"cover":"OVC","base":6500}],"fltCat":"VFR"},{"icaoId":"KCEC","receiptTime":"2026-04-17T15:00:13.916Z","obsTime":1776437760,"reportTime":"2026-04-17T15:00:00.000Z","temp":9.4,"dewp":-1.1,"wdir":60,"wspd":7,"visib":"10+","altim":1022.4,"slp":1022.5,"qcField":6,"presTend":-0.3,"metarType":"METAR","rawOb":"METAR KCEC 171456Z AUTO 06007KT 10SM CLR 09/M01 A3019 RMK AO2 SLP225 T00941011 56003","lat":41.7836,"lon":-124.238,"elev":17,"name":"Crescent City/McNama, CA, US","cover":"CLR","clouds":[],"fltCat":"VFR"},{"icaoId":"KRDM","receiptTime":"2026-04-17T15:00:11.831Z","obsTime":1776437760,"reportTime":"2026-04-17T15:00:00.000Z","temp":-0.6,"dewp":-6.7,"wdir":110,"wspd":4,"visib":"10+","altim":1024.5,"slp":1026,"qcField":4,"presTend":0.1,"metarType":"METAR","rawOb":"METAR KRDM 171456Z 11004KT 10SM CLR M01/M07 A3025 RMK AO2 SLP260 T10061067 53001","lat":44.2558,"lon":-121.1407,"elev":930,"name":"Redmond Muni, OR, US","cover":"CLR","clouds":[],"fltCat":"VFR"},{"icaoId":"KVIS","receiptTime":"2026-04-17T14:58:52.360Z","obsTime":1776437760,"reportTime":"2026-04-17T15:00:00.000Z","temp":8.9,"dewp":3.3,"wdir":150,"wspd":4,"visib":"10+","altim":1018.4,"slp":1018.3,"qcField":14,"presTend":1.9,"metarType":"METAR","rawOb":"METAR KVIS 171456Z AUTO 15004KT 10SM CLR 09/03 A3007 RMK AO2 SLP183 6//// T00890033 53019 PNO $","lat":36.3135,"lon":-119.3884,"elev":92,"name":"Visalia Muni, CA, US","cover":"CLR","clouds":[],"fltCat":"VFR"},{"icaoId":"KEKO","receiptTime":"2026-04-17T15:00:11.799Z","obsTime":1776437760,"reportTime":"2026-04-17T15:00:00.000Z","temp":-6.1,"dewp":-9.4,"wdir":270,"wspd":4,"visib":"10+","altim":1024.8,"slp":1028.7,"qcField":14,"presTend":1.1,"metarType":"METAR","rawOb":"METAR KEKO 171456Z AUTO 27004KT 10SM CLR M06/M09 A3026 RMK AO2 SLP287 T10611094 53011 $","lat":40.824,"lon":-115.7863,"elev":1541,"name":"Elko Rgnl, NV, US","cover":"CLR","clouds":[],"fltCat":"VFR"},{"icaoId":"KSBP","receiptTime":"2026-04-17T15:00:11.765Z","obsTime":1776437760,"reportTime":"2026-04-17T15:00:00.000Z","temp":13.3,"dewp":-1.7,"wdir":0,"wspd":0,"visib":"10+","altim":1016,"slp":1015.9,"qcField":4,"presTend":1.7,"metarType":"METAR","rawOb":"METAR KSBP 171456Z 00000KT 10SM CLR 13/M02 A3000 RMK AO2 SLP159 T01331017 53017","lat":35.2381,"lon":-120.644,"elev":52,"name":"San Luis Obispo/San Luis Cnty, CA, US","cover":"CLR","clouds":[],"fltCat":"VFR"},{"icaoId":"KSDY","receiptTime":"2026-04-17T14:58:52.921Z","obsTime":1776437760,"reportTime":"2026-04-17T15:00:00.000Z","temp":-5,"dewp":-9.4,"wdir":290,"wspd":19,"wgst":25,"visib":9,"altim":1015,"slp":1018.1,"qcField":78,"wxString":"-SN","presTend":0.7,"precip":0.005,"pcp3hr":0.005,"metarType":"METAR","rawOb":"METAR KSDY 171456Z AUTO 29019G25KT 9SM -SN SCT022 BKN027 OVC032 M05/M09 A2997 RMK AO2 SLP181 P0000 60000 T10501094 53007 FZRANO $","lat":47.7029,"lon":-104.1951,"elev":600,"name":"Sidney/Richland Muni, MT, US","cover":"OVC","clouds":[{"cover":"SCT","base":2200},{"cover":"BKN","base":2700},{"cover":"OVC","base":3200}],"fltCat":"MVFR"},{"icaoId":"KSGU","receiptTime":"2026-04-17T14:58:53.108Z","obsTime":1776437760,"reportTime":"2026-04-17T15:00:00.000Z","temp":8.3,"dewp":-13.3,"wdir":50,"wspd":21,"wgst":30,"visib":"10+","altim":1021.1,"slp":1019.5,"qcField":6,"presTend":2.9,"metarType":"METAR","rawOb":"METAR KSGU 171456Z AUTO 05021G30KT 10SM CLR 08/M13 A3015 RMK AO2 PK WND 05032/1433 SLP195 T00831133 53029","lat":37.0444,"lon":-113.5034,"elev":877,"name":"Saint George Muni, UT, US","cover":"CLR","clouds":[],"fltCat":"VFR"},{"icaoId":"KLAS","receiptTime":"2026-04-17T15:00:11.750Z","obsTime":1776437760,"reportTime":"2026-04-17T15:00:00.000Z","temp":11.1,"dewp":-19.4,"wdir":340,"wspd":17,"wgst":24,"visib":"10+","altim":1022.1,"slp":1020.7,"qcField":12,"presTend":3.8,"metarType":"METAR","rawOb":"METAR KLAS 171456Z 34017G24KT 10SM FEW120 11/M19 A3018 RMK AO2 SLP207 T01111194 51038 $","lat":36.0719,"lon":-115.1634,"elev":662,"name":"Las Vegas/Reid Intl, NV, US","cover":"FEW","clouds":[{"cover":"FEW","base":12000}],"fltCat":"VFR"},{"icaoId":"KPVU","receiptTime":"2026-04-17T14:58:53.587Z","obsTime":1776437760,"reportTime":"2026-04-17T15:00:00.000Z","temp":1.1,"dewp":-6.1,"wdir":"VRB","wspd":3,"visib":"10+","altim":1024.1,"slp":1025.4,"qcField":4,"presTend":2.2,"metarType":"METAR","rawOb":"METAR KPVU 171456Z VRB03KT 10SM BKN029 BKN035 01/M06 A3024 RMK AO2 SLP254 T00111061 53022","lat":40.224,"lon":-111.7252,"elev":1370,"name":"Provo Muni, UT, US","cover":"BKN","clouds":[{"cover":"BKN","base":2900},{"cover":"BKN","base":3500}],"fltCat":"MVFR"},{"icaoId":"KUKI","receiptTime":"2026-04-17T15:00:11.663Z","obsTime":1776437760,"reportTime":"2026-04-17T15:00:00.000Z","temp":5,"dewp":0.6,"wdir":0,"wspd":0,"visib":"10+","altim":1019.4,"slp":1018.8,"qcField":6,"presTend":-0.2,"metarType":"METAR","rawOb":"METAR KUKI 171456Z AUTO 00000KT 10SM CLR 05/01 A3010 RMK AO2 SLP188 T00500006 55002","lat":39.1278,"lon":-123.2001,"elev":183,"name":"Ukiah Muni, CA, US","cover":"CLR","clouds":[],"fltCat":"VFR"},{"icaoId":"KSDF","receiptTime":"2026-04-17T15:00:06.608Z","obsTime":1776437760,"reportTime":"2026-04-17T15:00:00.000Z","temp":21.1,"dewp":13.3,"wdir":210,"wspd":4,"visib":"10+","altim":1018,"slp":1017.4,"qcField":4,"presTend":0.9,"metarType":"METAR","rawOb":"METAR KSDF 171456Z 21004KT 10SM FEW050 SCT250 OVC300 21/13 A3006 RMK AO2 SLP174 T02110133 51009","lat":38.1774,"lon":-85.7308,"elev":146,"name":"Louisville Intl, KY, US","cover":"OVC","clouds":[{"cover":"FEW","base":5000},{"cover":"SCT","base":25000},{"cover":"OVC","base":30000}],"fltCat":"VFR"},{"icaoId":"KCOE","receiptTime":"2026-04-17T14:58:54.875Z","obsTime":1776437760,"reportTime":"2026-04-17T15:00:00.000Z","temp":2.8,"dewp":-3.3,"wdir":190,"wspd":10,"visib":"10+","altim":1022.4,"slp":1025.6,"qcField":14,"presTend":1.4,"metarType":"METAR","rawOb":"METAR KCOE 171456Z AUTO 19010KT 10SM CLR 03/M03 A3019 RMK AO2 SLP256 6//// T00281033 51014 PNO $","lat":47.7719,"lon":-116.8332,"elev":693,"name":"Coeur DAlene Arpt, ID, US","cover":"CLR","clouds":[],"fltCat":"VFR"},{"icaoId":"KGUC","receiptTime":"2026-04-17T14:58:58.301Z","obsTime":1776437760,"reportTime":"2026-04-17T15:00:00.000Z","temp":2.2,"dewp":-6.1,"wdir":230,"wspd":19,"wgst":23,"visib":"10+","altim":1011.6,"slp":1008,"qcField":78,"presTend":1,"metarType":"METAR","rawOb":"METAR KGUC 171456Z AUTO 23019G23KT 10SM BKN075 02/M06 A2987 RMK AO2 PK WND 21026/1433 SLP080 T00221061 51010 FZRANO $","lat":38.5322,"lon":-106.9419,"elev":2337,"name":"Gunnison Arpt, CO, US","cover":"BKN","clouds":[{"cover":"BKN","base":7500}],"fltCat":"VFR"},{"icaoId":"KHDN","receiptTime":"2026-04-17T14:58:58.403Z","obsTime":1776437760,"reportTime":"2026-04-17T15:00:00.000Z","temp":-6.1,"dewp":-7.2,"wdir":280,"wspd":11,"visib":0.75,"altim":1018,"slp":1019,"qcField":70,"wxString":"-SN BR","presTend":2,"precip":0.005,"pcp3hr":0.005,"metarType":"METAR","rawOb":"METAR KHDN 171456Z AUTO 28011KT 3/4SM -SN BR FEW007 BKN021 OVC030 M06/M07 A3006 RMK AO2 SLP190 P0000 60000 T10611072 53020 FZRANO","lat":40.4842,"lon":-107.2296,"elev":2012,"name":"Hayden/Yampa Valley Arpt, CO, US","cover":"OVC","clouds":[{"cover":"FEW","base":700},{"cover":"BKN","base":2100},{"cover":"OVC","base":3000}],"fltCat":"LIFR"},{"icaoId":"KCOD","receiptTime":"2026-04-17T14:58:58.572Z","obsTime":1776437760,"reportTime":"2026-04-17T15:00:00.000Z","temp":2.2,"dewp":-14.4,"wdir":270,"wspd":12,"wgst":17,"visib":"10+","altim":1017.4,"slp":1019,"qcField":78,"presTend":1.3,"metarType":"METAR","rawOb":"METAR KCOD 171456Z AUTO 27012G17KT 10SM SCT110 02/M14 A3004 RMK AO2 SLP190 T00221144 51013 FZRANO $","lat":44.52,"lon":-109.0268,"elev":1550,"name":"Cody/Yellowstone Rgnl, WY, US","cover":"SCT","clouds":[{"cover":"SCT","base":11000}],"fltCat":"VFR"},{"icaoId":"KDUG","receiptTime":"2026-04-17T15:02:11.104Z","obsTime":1776437760,"reportTime":"2026-04-17T15:00:00.000Z","temp":17.8,"dewp":-2.2,"wdir":0,"wspd":0,"visib":"10+","altim":1016.3,"slp":1010.5,"qcField":38,"presTend":2,"metarType":"METAR","rawOb":"METAR KDUG 171456Z AUTO 00000KT 10SM CLR 18/M02 A3001 RMK AO2 SLP105 T01781022 53020 TSNO","lat":31.4725,"lon":-109.6022,"elev":1260,"name":"Douglas/Bisbee Intl, AZ, US","cover":"CLR","clouds":[],"fltCat":"VFR"},{"icaoId":"KRNO","receiptTime":"2026-04-17T14:58:53.917Z","obsTime":1776437700,"reportTime":"2026-04-17T15:00:00.000Z","temp":1.7,"dewp":-13.3,"wdir":100,"wspd":7,"visib":"10+","altim":1023.8,"slp":1023.6,"qcField":4,"presTend":0.5,"metarType":"METAR","rawOb":"METAR KRNO 171455Z 10007KT 10SM CLR 02/M13 A3023 RMK AO2 SLP236 T00171133 53005","lat":39.5077,"lon":-119.7683,"elev":1344,"name":"Reno/Tahoe Intl, NV, US","cover":"CLR","clouds":[],"fltCat":"VFR"},{"icaoId":"KMHR","receiptTime":"2026-04-17T15:00:26.991Z","obsTime":1776437700,"reportTime":"2026-04-17T15:00:00.000Z","temp":11,"dewp":-2,"wdir":340,"wspd":11,"wgst":16,"visib":"10+","altim":1017,"qcField":6,"metarType":"METAR","rawOb":"METAR KMHR 171455Z AUTO 34011G16KT 10SM CLR 11/M02 A3003 RMK AO2","lat":38.56,"lon":-121.284,"elev":30,"name":"Sacramento/Mather Fld, CA, US","cover":"CLR","clouds":[],"fltCat":"VFR"},{"icaoId":"KCMA","receiptTime":"2026-04-17T14:58:56.888Z","obsTime":1776437700,"reportTime":"2026-04-17T15:00:00.000Z","temp":13.3,"dewp":8.3,"wdir":0,"wspd":0,"visib":"10+","altim":1015,"slp":1015.7,"qcField":4,"presTend":1.7,"metarType":"METAR","rawOb":"METAR KCMA 171455Z 00000KT 10SM CLR 13/08 A2997 RMK AO2 SLP157 T01330083 53017","lat":34.2114,"lon":-119.0876,"elev":20,"name":"Camarillo Arpt, CA, US","cover":"CLR","clouds":[],"fltCat":"VFR"},{"icaoId":"KCXP","receiptTime":"2026-04-17T15:00:20.832Z","obsTime":1776437700,"reportTime":"2026-04-17T15:00:00.000Z","temp":0,"dewp":-12,"wdir":0,"wspd":0,"visib":"10+","altim":1024.5,"qcField":6,"metarType":"METAR","rawOb":"METAR KCXP 171455Z AUTO 00000KT 10SM CLR M00/M12 A3025 RMK AO2","lat":39.1905,"lon":-119.7319,"elev":1431,"name":"Carson City Arpt, NV, US","cover":"CLR","clouds":[],"fltCat":"VFR"},{"icaoId":"KAST","receiptTime":"2026-04-17T14:58:50.546Z","obsTime":1776437700,"reportTime":"2026-04-17T15:00:00.000Z","temp":5.6,"dewp":5,"wdir":130,"wspd":3,"visib":5,"altim":1026.8,"slp":1026.5,"qcField":6,"wxString":"BR","presTend":-0.3,"metarType":"METAR","rawOb":"METAR KAST 171455Z AUTO 13003KT 5SM BR OVC047 06/05 A3032 RMK AO2 SLP265 T00560050 55003","lat":46.157,"lon":-123.8833,"elev":3,"name":"Astoria Rgnl, OR, US","cover":"OVC","clouds":[{"cover":"OVC","base":4700}],"fltCat":"MVFR"},{"icaoId":"KLRU","receiptTime":"2026-04-17T14:56:27.473Z","obsTime":1776437700,"reportTime":"2026-04-17T15:00:00.000Z","temp":18.5,"dewp":-5.8,"wdir":260,"wspd":14,"visib":"10+","altim":1015.3,"qcField":6,"metarType":"METAR","rawOb":"METAR KLRU 171455Z AUTO 26014KT 10SM CLR 19/M06 A2998 RMK AO2 T01851058","lat":32.2884,"lon":-106.9131,"elev":1355,"name":"Las Cruces Intl, NM, US","cover":"CLR","clouds":[],"fltCat":"VFR"},{"icaoId":"KLUF","receiptTime":"2026-04-17T15:07:05.580Z","obsTime":1776437700,"reportTime":"2026-04-17T15:00:00.000Z","temp":20.4,"dewp":-0.9,"wdir":0,"wspd":0,"visib":"10+","altim":1011.9,"slp":1010.9,"qcField":14,"presTend":2.6,"metarType":"METAR","rawOb":"METAR KLUF 171455Z AUTO 00000KT 10SM CLR 20/M01 A2988 RMK AO2 SLP109 T02041009 52026 $","lat":33.538,"lon":-112.38,"elev":333,"name":"Phoenix/Luke AFB, AZ, US","cover":"CLR","clouds":[],"fltCat":"VFR"},{"icaoId":"KMEV","receiptTime":"2026-04-17T15:00:26.928Z","obsTime":1776437700,"reportTime":"2026-04-17T15:00:00.000Z","temp":-2,"dewp":-11,"wdir":0,"wspd":0,"visib":"10+","altim":1024.1,"qcField":6,"metarType":"METAR","rawOb":"METAR KMEV 171455Z AUTO 00000KT 10SM CLR M02/M11 A3024 RMK AO2","lat":38.9963,"lon":-119.75,"elev":1437,"name":"Minden-Tahoe Arpt, NV, US","cover":"CLR","clouds":[],"fltCat":"VFR"},{"icaoId":"KBVU","receiptTime":"2026-04-17T14:56:20.069Z","obsTime":1776437700,"reportTime":"2026-04-17T15:00:00.000Z","temp":11,"dewp":-20,"wdir":10,"wspd":23,"wgst":32,"visib":"10+","altim":1020.4,"qcField":6,"metarType":"METAR","rawOb":"METAR KBVU 171455Z AUTO 01023G32KT 10SM CLR 11/M20 A3013 RMK AO2","lat":35.9489,"lon":-114.8633,"elev":654,"name":"Boulder City Muni, NV, US","cover":"CLR","clouds":[],"fltCat":"VFR"},{"icaoId":"KHAF","receiptTime":"2026-04-17T15:00:14.320Z","obsTime":1776437700,"reportTime":"2026-04-17T15:00:00.000Z","temp":14,"dewp":-3,"wdir":360,"wspd":7,"visib":"10+","altim":1017.7,"qcField":6,"metarType":"METAR","rawOb":"METAR KHAF 171455Z AUTO 36007KT 10SM CLR 14/M03 A3005 RMK AO2","lat":37.5136,"lon":-122.4996,"elev":11,"name":"Half Moon Bay Arpt, CA, US","cover":"CLR","clouds":[],"fltCat":"VFR"},{"icaoId":"KGPI","receiptTime":"2026-04-17T14:58:58.232Z","obsTime":1776437700,"reportTime":"2026-04-17T15:00:00.000Z","temp":-0.6,"dewp":-1.7,"wdir":0,"wspd":0,"visib":"10+","altim":1020.1,"slp":1022.7,"qcField":4,"presTend":1.2,"pcp3hr":0.005,"metarType":"METAR","rawOb":"METAR KGPI 171455Z 00000KT 10SM OVC006 M01/M02 A3012 RMK AO2 SLP227 60000 T10061017 53012","lat":48.3041,"lon":-114.2643,"elev":903,"name":"Kalispell/Glacier Park Intl, MT, US","cover":"OVC","clouds":[{"cover":"OVC","base":600}],"fltCat":"IFR"},{"icaoId":"KRTS","receiptTime":"2026-04-17T15:00:22.054Z","obsTime":1776437700,"reportTime":"2026-04-17T15:00:00.000Z","temp":0,"dewp":-14,"wdir":110,"wspd":14,"visib":"10+","altim":1023.5,"qcField":6,"metarType":"METAR","rawOb":"METAR KRTS 171455Z AUTO 11014KT 10SM CLR M00/M14 A3022 RMK AO2","lat":39.6658,"lon":-119.8731,"elev":1537,"name":"Reno/Stead Arpt, NV, US","cover":"CLR","clouds":[],"fltCat":"VFR"},{"icaoId":"KHCR","receiptTime":"2026-04-17T14:58:58.392Z","obsTime":1776437700,"reportTime":"2026-04-17T15:00:00.000Z","temp":-3.5,"dewp":-8.8,"wdir":0,"wspd":0,"visib":"10+","altim":1022.1,"qcField":14,"presTend":2.4,"metarType":"METAR","rawOb":"METAR KHCR 171455Z AUTO 00000KT 10SM FEW060 M04/M09 A3018 RMK AO2 T10351088 52024 $","lat":40.4774,"lon":-111.4329,"elev":1708,"name":"Heber City Muni, UT, US","cover":"FEW","clouds":[{"cover":"FEW","base":6000}],"fltCat":"VFR"},{"icaoId":"KSEZ","receiptTime":"2026-04-17T15:00:22.565Z","obsTime":1776437700,"reportTime":"2026-04-17T15:00:00.000Z","temp":13,"dewp":-6,"wdir":80,"wspd":9,"wgst":17,"visib":"10+","altim":1016.7,"qcField":6,"metarType":"METAR","rawOb":"METAR KSEZ 171455Z AUTO 08009G17KT 10SM CLR 13/M06 A3002 RMK AO2","lat":34.8467,"lon":-111.7884,"elev":1455,"name":"Sedona Arpt, AZ, US","cover":"CLR","clouds":[],"fltCat":"VFR"},{"icaoId":"KHTH","receiptTime":"2026-04-17T15:00:23.447Z","obsTime":1776437700,"reportTime":"2026-04-17T15:00:00.000Z","temp":2,"dewp":-14,"wdir":0,"wspd":0,"visib":"10+","altim":1025.5,"qcField":6,"metarType":"METAR","rawOb":"METAR KHTH 171455Z AUTO 00000KT 10SM CLR 02/M14 A3028 RMK A01","lat":38.5448,"lon":-118.6314,"elev":1281,"name":"Hawthorne Muni, NV, US","cover":"CLR","clouds":[],"fltCat":"VFR"},{"icaoId":"KHII","receiptTime":"2026-04-17T15:00:23.191Z","obsTime":1776437700,"reportTime":"2026-04-17T15:00:00.000Z","temp":17,"dewp":-12,"wdir":330,"wspd":24,"wgst":31,"visib":"10+","altim":1015.7,"qcField":6,"metarType":"METAR","rawOb":"METAR KHII 171455Z AUTO 33024G31KT 10SM CLR 17/M12 A2999 RMK AO2","lat":34.5659,"lon":-114.3522,"elev":241,"name":"Lake Havasu City Arpt, AZ, US","cover":"CLR","clouds":[],"fltCat":"VFR"},{"icaoId":"KEND","receiptTime":"2026-04-17T15:06:04.535Z","obsTime":1776437700,"reportTime":"2026-04-17T15:00:00.000Z","temp":23.1,"dewp":19,"wdir":170,"wspd":17,"wgst":25,"visib":"10+","altim":1005.8,"slp":1004.7,"qcField":12,"presTend":0.5,"metarType":"METAR","rawOb":"METAR KEND 171455Z 17017G25KT 10SM SCT018 BKN200 23/19 A2970 RMK AO2A PK WND 18027/09 SLP047 T02310190 50005 $","lat":36.338,"lon":-97.919,"elev":392,"name":"Enid/Vance AFB, OK, US","cover":"BKN","clouds":[{"cover":"SCT","base":1800},{"cover":"BKN","base":20000}],"fltCat":"VFR"},{"icaoId":"KSOW","receiptTime":"2026-04-17T14:58:18.177Z","obsTime":1776437700,"reportTime":"2026-04-17T15:00:00.000Z","temp":11,"dewp":-7,"wdir":230,"wspd":15,"visib":"10+","altim":1017.7,"qcField":6,"metarType":"METAR","rawOb":"METAR KSOW 171455Z AUTO 23015KT 10SM CLR 11/M07 A3005 RMK AO2","lat":34.2686,"lon":-110.0019,"elev":1954,"name":"Show Low Muni, AZ, US","cover":"CLR","clouds":[],"fltCat":"VFR"},{"icaoId":"KROC","receiptTime":"2026-04-17T14:58:17.806Z","obsTime":1776437640,"reportTime":"2026-04-17T15:00:00.000Z","temp":12.2,"dewp":11.1,"wdir":30,"wspd":4,"visib":"10+","altim":1016.7,"slp":1017,"qcField":12,"presTend":2.4,"pcp3hr":0.01,"metarType":"METAR","rawOb":"METAR KROC 171454Z 03004KT 10SM OVC005 12/11 A3002 RMK AO2 CIG 004V008 SLP170 60001 T01220111 51024 $","lat":43.1172,"lon":-77.6754,"elev":166,"name":"Rochester Intl Arpt, NY, US","cover":"OVC","clouds":[{"cover":"OVC","base":500}],"fltCat":"IFR"},{"icaoId":"KEUG","receiptTime":"2026-04-17T14:58:42.979Z","obsTime":1776437640,"reportTime":"2026-04-17T15:00:00.000Z","temp":2.8,"dewp":1.7,"wdir":0,"wspd":0,"visib":"10+","altim":1026.5,"slp":1026.7,"qcField":4,"presTend":-0.3,"metarType":"METAR","rawOb":"METAR KEUG 171454Z 00000KT 10SM FEW050 SCT250 03/02 A3031 RMK AO2 SLP267 T00280017 55003","lat":44.1331,"lon":-123.2156,"elev":109,"name":"Eugene/Mahlon Sweet Fld, OR, US","cover":"SCT","clouds":[{"cover":"FEW","base":5000},{"cover":"SCT","base":25000}],"fltCat":"VFR"},{"icaoId":"KAPC","receiptTime":"2026-04-17T15:00:30.121Z","obsTime":1776437640,"reportTime":"2026-04-17T15:00:00.000Z","temp":10.6,"dewp":0.6,"wdir":0,"wspd":0,"visib":"10+","altim":1018.4,"slp":1017.2,"qcField":5,"presTend":0.9,"metarType":"METAR","rawOb":"METAR KAPC 171454Z COR 00000KT 10SM CLR 11/01 A3007 RMK AO2 SLP172 T01060006 53009","lat":38.2075,"lon":-122.2804,"elev":5,"name":"Napa Cnty Arpt, CA, US","cover":"CLR","clouds":[],"fltCat":"VFR"},{"icaoId":"KBFL","receiptTime":"2026-04-17T14:58:28.707Z","obsTime":1776437640,"reportTime":"2026-04-17T15:00:00.000Z","temp":12.2,"dewp":1.1,"wdir":140,"wspd":5,"visib":"10+","altim":1018,"slp":1017.7,"qcField":4,"presTend":1.5,"metarType":"METAR","rawOb":"METAR KBFL 171454Z 14005KT 10SM CLR 12/01 A3006 RMK AO2 SLP177 T01220011 53015","lat":35.4342,"lon":-119.0552,"elev":146,"name":"Bakersfield/Meadows Arpt, CA, US","cover":"CLR","clouds":[],"fltCat":"VFR"},{"icaoId":"KBWI","receiptTime":"2026-04-17T14:58:28.846Z","obsTime":1776437640,"reportTime":"2026-04-17T15:00:00.000Z","temp":25,"dewp":12.2,"wdir":320,"wspd":10,"wgst":23,"visib":"10+","altim":1013,"slp":1012.8,"qcField":4,"presTend":1.3,"metarType":"METAR","rawOb":"METAR KBWI 171454Z 32010G23KT 10SM SCT047 BKN250 25/12 A2991 RMK AO2 SLP128 T02500122 51013","lat":39.1733,"lon":-76.684,"elev":42,"name":"Baltimore-Washington Intl, MD, US","cover":"BKN","clouds":[{"cover":"SCT","base":4700},{"cover":"BKN","base":25000}],"fltCat":"VFR"},{"icaoId":"KFFZ","receiptTime":"2026-04-17T14:58:29.686Z","obsTime":1776437640,"reportTime":"2026-04-17T15:00:00.000Z","temp":20.6,"dewp":-1.7,"wdir":120,"wspd":7,"visib":"10+","altim":1012.6,"slp":1010.5,"qcField":4,"presTend":2.5,"metarType":"METAR","rawOb":"METAR KFFZ 171454Z 12007KT 10SM CLR 21/M02 A2990 RMK AO2 SLP105 T02061017 53025","lat":33.4659,"lon":-111.7212,"elev":420,"name":"Mesa/Falcon Fld, AZ, US","cover":"CLR","clouds":[],"fltCat":"VFR"},{"icaoId":"KPHL","receiptTime":"2026-04-17T14:58:40.441Z","obsTime":1776437640,"reportTime":"2026-04-17T15:00:00.000Z","temp":24.4,"dewp":13.9,"wdir":340,"wspd":8,"visib":"10+","altim":1012.3,"slp":1012.2,"qcField":12,"presTend":0.7,"metarType":"METAR","rawOb":"METAR KPHL 171454Z 34008KT 10SM BKN042 BKN070 BKN220 BKN320 24/14 A2989 RMK AO2 SLP122 T02440139 53007 $","lat":39.8733,"lon":-75.2268,"elev":2,"name":"Philadelphia Intl, PA, US","cover":"BKN","clouds":[{"cover":"BKN","base":4200},{"cover":"BKN","base":7000},{"cover":"BKN","base":22000},{"cover":"BKN","base":32000}],"fltCat":"VFR"},{"icaoId":"KRKS","receiptTime":"2026-04-17T14:58:40.719Z","obsTime":1776437640,"reportTime":"2026-04-17T15:00:00.000Z","temp":-6.1,"dewp":-10.6,"wdir":260,"wspd":14,"visib":"10+","altim":1018.4,"slp":1022.9,"qcField":6,"presTend":2.3,"metarType":"METAR","rawOb":"METAR KRKS 171454Z AUTO 26014KT 10SM CLR M06/M11 A3007 RMK AO2 SLP229 T10611106 53023","lat":41.5947,"lon":-109.0529,"elev":2062,"name":"Rock Springs/SW Wyoming Rgnl, WY, US","cover":"CLR","clouds":[],"fltCat":"VFR"},{"icaoId":"KMEM","receiptTime":"2026-04-17T14:58:43.911Z","obsTime":1776437640,"reportTime":"2026-04-17T15:00:00.000Z","temp":24.4,"dewp":17.8,"wdir":210,"wspd":8,"visib":"10+","altim":1016.7,"slp":1016.3,"qcField":4,"presTend":1,"metarType":"METAR","rawOb":"METAR KMEM 171454Z 21008KT 10SM CLR 24/18 A3002 RMK AO2 SLP163 T02440178 51010","lat":35.0564,"lon":-89.9864,"elev":78,"name":"Memphis Intl, TN, US","cover":"CLR","clouds":[],"fltCat":"VFR"},{"icaoId":"KSJN","receiptTime":"2026-04-17T14:58:44.287Z","obsTime":1776437640,"reportTime":"2026-04-17T15:00:00.000Z","temp":12.8,"dewp":-7.8,"wdir":270,"wspd":15,"visib":"10+","altim":1015.7,"slp":1009.6,"qcField":6,"presTend":1.7,"metarType":"METAR","rawOb":"METAR KSJN 171454Z AUTO 27015KT 10SM CLR 13/M08 A2999 RMK AO2 SLP096 T01281078 53017","lat":34.5184,"lon":-109.3801,"elev":1747,"name":"St Johns Ind Arpt, AZ, US","cover":"CLR","clouds":[],"fltCat":"VFR"},{"icaoId":"KOLM","receiptTime":"2026-04-17T14:58:41.507Z","obsTime":1776437640,"reportTime":"2026-04-17T15:00:00.000Z","temp":4.4,"dewp":2.8,"wdir":0,"wspd":0,"visib":"10+","altim":1027.2,"slp":1027,"qcField":4,"presTend":0.5,"metarType":"METAR","rawOb":"METAR KOLM 171454Z 00000KT 10SM OVC026 04/03 A3033 RMK AO2 SLP270 T00440028 51005","lat":46.9737,"lon":-122.9049,"elev":58,"name":"Olympia Rgnl, WA, US","cover":"OVC","clouds":[{"cover":"OVC","base":2600}],"fltCat":"MVFR"},{"icaoId":"KBOS","receiptTime":"2026-04-17T14:58:28.718Z","obsTime":1776437640,"reportTime":"2026-04-17T15:00:00.000Z","temp":13.3,"dewp":11.7,"wdir":80,"wspd":4,"visib":6,"altim":1010.9,"slp":1010.8,"qcField":4,"wxString":"BR","presTend":2,"pcp3hr":0.005,"metarType":"METAR","rawOb":"METAR KBOS 171454Z 08004KT 6SM BR BKN021 OVC026 13/12 A2985 RMK AO2 SLP108 60000 T01330117 51020","lat":42.3606,"lon":-71.0097,"elev":4,"name":"Boston/Logan Intl, MA, US","cover":"OVC","clouds":[{"cover":"BKN","base":2100},{"cover":"OVC","base":2600}],"fltCat":"MVFR"},{"icaoId":"KIND","receiptTime":"2026-04-17T14:58:43.311Z","obsTime":1776437640,"reportTime":"2026-04-17T15:00:00.000Z","temp":21.1,"dewp":13.9,"wdir":140,"wspd":4,"visib":"10+","altim":1016.3,"slp":1015.8,"qcField":4,"presTend":0.8,"metarType":"METAR","rawOb":"METAR KIND 171454Z 14004KT 10SM BKN250 21/14 A3001 RMK AO2 SLP158 T02110139 51008","lat":39.7252,"lon":-86.2816,"elev":242,"name":"Indianapolis Intl, IN, US","cover":"BKN","clouds":[{"cover":"BKN","base":25000}],"fltCat":"VFR"},{"icaoId":"KBTV","receiptTime":"2026-04-17T14:58:17.180Z","obsTime":1776437640,"reportTime":"2026-04-17T15:00:00.000Z","temp":10.6,"dewp":7.2,"wdir":330,"wspd":9,"visib":"10+","altim":1016.3,"slp":1016.4,"qcField":4,"presTend":3.1,"metarType":"METAR","rawOb":"METAR KBTV 171454Z 33009KT 10SM OVC010 11/07 A3001 RMK AO2 SLP164 T01060072 53031","lat":44.4682,"lon":-73.1499,"elev":101,"name":"Burlington Intl, VT, US","cover":"OVC","clouds":[{"cover":"OVC","base":1000}],"fltCat":"MVFR"},{"icaoId":"KRIC","receiptTime":"2026-04-17T14:58:17.780Z","obsTime":1776437640,"reportTime":"2026-04-17T15:00:00.000Z","temp":27.8,"dewp":10,"wdir":300,"wspd":6,"visib":"10+","altim":1014,"slp":1014.1,"qcField":4,"presTend":0.3,"metarType":"METAR","rawOb":"METAR KRIC 171454Z 30006KT 10SM FEW045 SCT110 BKN250 28/10 A2994 RMK AO2 SLP141 T02780100 50003","lat":37.5115,"lon":-77.3234,"elev":51,"name":"Richmond Intl, VA, US","cover":"BKN","clouds":[{"cover":"FEW","base":4500},{"cover":"SCT","base":11000},{"cover":"BKN","base":25000}],"fltCat":"VFR"},{"icaoId":"KDSM","receiptTime":"2026-04-17T14:58:17.257Z","obsTime":1776437640,"reportTime":"2026-04-17T15:00:00.000Z","temp":22.8,"dewp":18.3,"wdir":200,"wspd":19,"wgst":29,"visib":"10+","altim":1003.5,"slp":1002.8,"qcField":4,"presTend":-0.6,"metarType":"METAR","rawOb":"METAR KDSM 171454Z 20019G29KT 10SM OVC023 23/18 A2963 RMK AO2 PK WND 20029/1445 SLP028 T02280183 55006","lat":41.5339,"lon":-93.6531,"elev":286,"name":"Des Moines Intl, IA, US","cover":"OVC","clouds":[{"cover":"OVC","base":2300}],"fltCat":"MVFR"},{"icaoId":"KGCN","receiptTime":"2026-04-17T14:58:29.865Z","obsTime":1776437640,"reportTime":"2026-04-17T15:00:00.000Z","temp":5.6,"dewp":-11.1,"wdir":350,"wspd":8,"visib":"10+","altim":1018.4,"slp":1013.3,"qcField":4,"presTend":2.8,"metarType":"METAR","rawOb":"METAR KGCN 171454Z 35008KT 10SM CLR 06/M11 A3007 RMK AO2 SLP133 T00561111 51028","lat":35.9458,"lon":-112.1554,"elev":1993,"name":"Grand Canyon Park Arpt, AZ, US","cover":"CLR","clouds":[],"fltCat":"VFR"},{"icaoId":"KOLS","receiptTime":"2026-04-17T14:58:40.317Z","obsTime":1776437640,"reportTime":"2026-04-17T15:00:00.000Z","temp":15,"dewp":-3.9,"wdir":0,"wspd":0,"visib":"10+","altim":1015.7,"slp":1010.9,"qcField":6,"presTend":1.5,"metarType":"METAR","rawOb":"METAR KOLS 171454Z AUTO 00000KT 10SM CLR 15/M04 A2999 RMK AO2 SLP109 T01501039 53015","lat":31.4208,"lon":-110.8465,"elev":1194,"name":"Nogales Intl, AZ, US","cover":"CLR","clouds":[],"fltCat":"VFR"},{"icaoId":"KSYR","receiptTime":"2026-04-17T14:58:17.464Z","obsTime":1776437640,"reportTime":"2026-04-17T15:00:00.000Z","temp":13.9,"dewp":12.2,"wdir":250,"wspd":7,"visib":"10+","altim":1015.3,"slp":1014.8,"qcField":4,"presTend":1.8,"pcp3hr":0.005,"metarType":"METAR","rawOb":"METAR KSYR 171454Z 25007KT 10SM OVC006 14/12 A2998 RMK AO2 SLP148 60000 T01390122 53018","lat":43.1111,"lon":-76.1038,"elev":125,"name":"Syracuse/Hancock Intl, NY, US","cover":"OVC","clouds":[{"cover":"OVC","base":600}],"fltCat":"IFR"},{"icaoId":"KSLC","receiptTime":"2026-04-17T14:58:44.299Z","obsTime":1776437640,"reportTime":"2026-04-17T15:00:00.000Z","temp":1.7,"dewp":-6.7,"visib":"10+","altim":1024.1,"slp":1023.8,"qcField":4,"presTend":1.9,"metarType":"METAR","rawOb":"METAR KSLC 171454Z 10SM FEW045 FEW065 02/M07 A3024 RMK AO2 SLP238 SH DSNT SW T00171067 53019","lat":40.7707,"lon":-111.965,"elev":1286,"name":"Salt Lake City Intl, UT, US","cover":"FEW","clouds":[{"cover":"FEW","base":4500},{"cover":"FEW","base":6500}],"fltCat":"VFR"},{"icaoId":"KBUF","receiptTime":"2026-04-17T14:58:17.193Z","obsTime":1776437640,"reportTime":"2026-04-17T15:00:00.000Z","temp":12.8,"dewp":11.1,"wdir":270,"wspd":3,"visib":"10+","altim":1017,"slp":1016.9,"qcField":12,"presTend":2,"pcp3hr":0.005,"metarType":"METAR","rawOb":"METAR KBUF 171454Z 27003KT 10SM OVC007 13/11 A3003 RMK AO2 SLP169 60000 T01280111 51020 $","lat":42.94,"lon":-78.7361,"elev":217,"name":"Buffalo-Niagara Intl, NY, US","cover":"OVC","clouds":[{"cover":"OVC","base":700}],"fltCat":"IFR"},{"icaoId":"KCOS","receiptTime":"2026-04-17T14:58:17.217Z","obsTime":1776437640,"reportTime":"2026-04-17T15:00:00.000Z","temp":5,"dewp":-3.3,"wdir":340,"wspd":15,"visib":"10+","altim":1011.3,"slp":1007.4,"qcField":4,"presTend":1.8,"metarType":"METAR","rawOb":"METAR KCOS 171454Z 34015KT 10SM FEW020 FEW120 SCT200 05/M03 A2986 RMK AO2 PK WND 36028/1415 SLP074 T00501033 51018","lat":38.8095,"lon":-104.6887,"elev":1886,"name":"Colorado Spring Arpt, CO, US","cover":"SCT","clouds":[{"cover":"FEW","base":2000},{"cover":"FEW","base":12000},{"cover":"SCT","base":20000}],"fltCat":"VFR"},{"icaoId":"KGSO","receiptTime":"2026-04-17T14:58:17.281Z","obsTime":1776437640,"reportTime":"2026-04-17T15:00:00.000Z","temp":25.6,"dewp":12.8,"wdir":"VRB","wspd":6,"visib":"10+","altim":1017,"slp":1015.9,"qcField":4,"presTend":1.4,"metarType":"METAR","rawOb":"METAR KGSO 171454Z VRB06KT 10SM FEW045 FEW160 FEW210 FEW250 26/13 A3003 RMK AO2 SLP159 VIRGA T02560128 51014","lat":36.0969,"lon":-79.9432,"elev":275,"name":"Greensboro Intl, NC, US","cover":"FEW","clouds":[{"cover":"FEW","base":4500},{"cover":"FEW","base":16000},{"cover":"FEW","base":21000},{"cover":"FEW","base":25000}],"fltCat":"VFR"},{"icaoId":"KLAX","receiptTime":"2026-04-17T14:56:27.294Z","obsTime":1776437580,"reportTime":"2026-04-17T15:00:00.000Z","temp":15.6,"dewp":11.7,"wdir":110,"wspd":7,"visib":"10+","altim":1015.3,"slp":1015.1,"qcField":4,"presTend":1.9,"metarType":"METAR","rawOb":"METAR KLAX 171453Z 11007KT 10SM FEW014 SCT025 BKN140 BKN180 16/12 A2998 RMK AO2 SLP151 T01560117 53019","lat":33.9382,"lon":-118.3866,"elev":30,"name":"Los Angeles Intl, CA, US","cover":"BKN","clouds":[{"cover":"FEW","base":1400},{"cover":"SCT","base":2500},{"cover":"BKN","base":14000},{"cover":"BKN","base":18000}],"fltCat":"VFR"},{"icaoId":"KMYF","receiptTime":"2026-04-17T14:56:26.782Z","obsTime":1776437580,"reportTime":"2026-04-17T15:00:00.000Z","temp":15,"dewp":8.3,"wdir":110,"wspd":5,"visib":"10+","altim":1015.7,"slp":1015.1,"qcField":4,"presTend":1.7,"metarType":"METAR","rawOb":"METAR KMYF 171453Z 11005KT 10SM SCT025 15/08 A2999 RMK AO2 SLP151 T01500083 53017","lat":32.8145,"lon":-117.1375,"elev":128,"name":"San Diego/Montgomery Arpt, CA, US","cover":"SCT","clouds":[{"cover":"SCT","base":2500}],"fltCat":"VFR"},{"icaoId":"KSWO","receiptTime":"2026-04-17T14:56:22.070Z","obsTime":1776437580,"reportTime":"2026-04-17T15:00:00.000Z","temp":23.3,"dewp":18.9,"wdir":200,"wspd":16,"wgst":24,"visib":"10+","altim":1008.5,"slp":1007.2,"qcField":4,"presTend":0.6,"metarType":"METAR","rawOb":"METAR KSWO 171453Z 20016G24KT 10SM OVC021 23/19 A2978 RMK AO2 PK WND 19027/1438 SLP072 T02330189 50006","lat":36.1624,"lon":-97.0832,"elev":293,"name":"Stillwater Muni, OK, US","cover":"OVC","clouds":[{"cover":"OVC","base":2100}],"fltCat":"MVFR"},{"icaoId":"KTPA","receiptTime":"2026-04-17T14:56:22.188Z","obsTime":1776437580,"reportTime":"2026-04-17T15:00:00.000Z","temp":24.4,"dewp":17.8,"wdir":230,"wspd":4,"visib":"10+","altim":1019.7,"slp":1019.6,"qcField":4,"presTend":0.3,"metarType":"METAR","rawOb":"METAR KTPA 171453Z 23004KT 10SM FEW040 24/18 A3011 RMK AO2 SLP196 T02440178 53003","lat":27.9633,"lon":-82.54,"elev":2,"name":"Tampa Intl Arpt, FL, US","cover":"FEW","clouds":[{"cover":"FEW","base":4000}],"fltCat":"VFR"},{"icaoId":"KVEL","receiptTime":"2026-04-17T14:56:22.420Z","obsTime":1776437580,"reportTime":"2026-04-17T15:00:00.000Z","temp":-3.9,"dewp":-6.7,"wdir":240,"wspd":8,"visib":"10+","altim":1019.7,"slp":1021.5,"qcField":6,"presTend":2.4,"pcp3hr":0.005,"metarType":"METAR","rawOb":"METAR KVEL 171453Z AUTO 24008KT 10SM SCT110 M04/M07 A3011 RMK AO2 SLP215 60000 T10391067 53024","lat":40.4429,"lon":-109.5128,"elev":1604,"name":"Vernal Rgnl, UT, US","cover":"SCT","clouds":[{"cover":"SCT","base":11000}],"fltCat":"VFR"},{"icaoId":"KVGT","receiptTime":"2026-04-17T14:56:22.436Z","obsTime":1776437580,"reportTime":"2026-04-17T15:00:00.000Z","temp":10.6,"dewp":-18.9,"wdir":330,"wspd":15,"wgst":25,"visib":"10+","altim":1021.4,"slp":1022.2,"qcField":4,"presTend":4.6,"metarType":"METAR","rawOb":"METAR KVGT 171453Z 33015G25KT 10SM CLR 11/M19 A3016 RMK AO2 PK WND 34030/1440 SLP222 T01061189 51046","lat":36.212,"lon":-115.194,"elev":664,"name":"Las Vegas/North Arpt, NV, US","cover":"CLR","clouds":[],"fltCat":"VFR"},{"icaoId":"KSBA","receiptTime":"2026-04-17T14:56:22.610Z","obsTime":1776437580,"reportTime":"2026-04-17T15:00:00.000Z","temp":13.9,"dewp":10.6,"wdir":0,"wspd":0,"visib":"10+","altim":1015.3,"slp":1015.1,"qcField":12,"presTend":1.8,"metarType":"METAR","rawOb":"METAR KSBA 171453Z 00000KT 10SM FEW013 14/11 A2998 RMK AO2 SLP151 T01390106 53018 $","lat":34.4241,"lon":-119.8425,"elev":2,"name":"Santa Barbara Muni, CA, US","cover":"FEW","clouds":[{"cover":"FEW","base":1300}],"fltCat":"VFR"},{"icaoId":"KSEA","receiptTime":"2026-04-17T14:56:22.640Z","obsTime":1776437580,"reportTime":"2026-04-17T15:00:00.000Z","temp":6.1,"dewp":2.2,"wdir":120,"wspd":6,"visib":"10+","altim":1026.8,"slp":1027.4,"qcField":4,"presTend":0.2,"metarType":"METAR","rawOb":"METAR KSEA 171453Z 12006KT 10SM FEW040 FEW065 SCT230 06/02 A3032 RMK AO2 SLP274 T00610022 53002","lat":47.4447,"lon":-122.3144,"elev":115,"name":"Seattle-Tacoma Intl, WA, US","cover":"SCT","clouds":[{"cover":"FEW","base":4000},{"cover":"FEW","base":6500},{"cover":"SCT","base":23000}],"fltCat":"VFR"},{"icaoId":"KSHR","receiptTime":"2026-04-17T14:56:22.710Z","obsTime":1776437580,"reportTime":"2026-04-17T15:00:00.000Z","temp":-3.3,"dewp":-5,"wdir":310,"wspd":7,"visib":"10+","altim":1016.3,"slp":1020.2,"qcField":6,"presTend":1.5,"metarType":"METAR","rawOb":"METAR KSHR 171453Z AUTO 31007KT 10SM CLR M03/M05 A3001 RMK AO2 SLP202 T10331050 51015","lat":44.7603,"lon":-106.9741,"elev":1212,"name":"Sheridan Cnty Arpt, WY, US","cover":"CLR","clouds":[],"fltCat":"VFR"},{"icaoId":"KSMF","receiptTime":"2026-04-17T14:56:22.747Z","obsTime":1776437580,"reportTime":"2026-04-17T15:00:00.000Z","temp":10,"dewp":-2.2,"wdir":330,"wspd":15,"wgst":22,"visib":"10+","altim":1017.7,"slp":1017.6,"qcField":4,"presTend":0.7,"metarType":"METAR","rawOb":"METAR KSMF 171453Z 33015G22KT 10SM CLR 10/M02 A3005 RMK AO2 SLP176 T01001022 53007","lat":38.7007,"lon":-121.5948,"elev":7,"name":"Sacramento Intl, CA, US","cover":"CLR","clouds":[],"fltCat":"VFR"},{"icaoId":"KSNA","receiptTime":"2026-04-17T14:56:22.777Z","obsTime":1776437580,"reportTime":"2026-04-17T15:00:00.000Z","temp":15.6,"dewp":9.4,"wdir":"VRB","wspd":5,"visib":"10+","altim":1015.3,"slp":1015.2,"qcField":4,"presTend":2,"metarType":"METAR","rawOb":"METAR KSNA 171453Z VRB05KT 10SM FEW015 16/09 A2998 RMK AO2 SLP152 T01560094 53020","lat":33.6798,"lon":-117.8675,"elev":14,"name":"Santa Ana/Wayne Arpt, CA, US","cover":"FEW","clouds":[{"cover":"FEW","base":1500}],"fltCat":"VFR"},{"icaoId":"KDFW","receiptTime":"2026-04-17T14:56:22.831Z","obsTime":1776437580,"reportTime":"2026-04-17T15:00:00.000Z","temp":22.8,"dewp":17.8,"wdir":170,"wspd":14,"wgst":22,"visib":"10+","altim":1011.6,"slp":1010.8,"qcField":4,"presTend":0.6,"metarType":"METAR","rawOb":"METAR KDFW 171453Z 17014G22KT 10SM BKN022 BKN250 23/18 A2987 RMK AO2 PK WND 18026/1442 SLP108 T02280178 50006","lat":32.8974,"lon":-97.022,"elev":168,"name":"Dallas-Ft Worth Intl, TX, US","cover":"BKN","clouds":[{"cover":"BKN","base":2200},{"cover":"BKN","base":25000}],"fltCat":"MVFR"},{"icaoId":"KDVT","receiptTime":"2026-04-17T14:56:22.907Z","obsTime":1776437580,"reportTime":"2026-04-17T15:00:00.000Z","temp":20.6,"dewp":-0.6,"wdir":0,"wspd":0,"visib":"10+","altim":1013,"slp":1011,"qcField":12,"presTend":2.6,"metarType":"METAR","rawOb":"METAR KDVT 171453Z 00000KT 10SM CLR 21/M01 A2991 RMK AO2 SLP110 T02061006 53026 $","lat":33.6902,"lon":-112.0662,"elev":454,"name":"Phoenix/Deer Valley Arpt, AZ, US","cover":"CLR","clouds":[],"fltCat":"VFR"},{"icaoId":"KIDA","receiptTime":"2026-04-17T14:56:23.050Z","obsTime":1776437580,"reportTime":"2026-04-17T15:00:00.000Z","temp":-3.9,"dewp":-5.6,"wdir":210,"wspd":11,"visib":"10+","altim":1022.8,"slp":1026,"qcField":4,"presTend":1.1,"metarType":"METAR","rawOb":"METAR KIDA 171453Z 21011KT 10SM SCT008 SCT060 OVC090 M04/M06 A3020 RMK AO2 SLP260 T10391056 51011","lat":43.5204,"lon":-112.0675,"elev":1444,"name":"Idaho Falls Rgnl, ID, US","cover":"OVC","clouds":[{"cover":"SCT","base":800},{"cover":"SCT","base":6000},{"cover":"OVC","base":9000}],"fltCat":"VFR"},{"icaoId":"KLBB","receiptTime":"2026-04-17T14:56:23.133Z","obsTime":1776437580,"reportTime":"2026-04-17T15:00:00.000Z","temp":22.2,"dewp":15.6,"wdir":220,"wspd":14,"visib":"10+","altim":1010.2,"slp":1005.3,"qcField":4,"presTend":0.6,"metarType":"METAR","rawOb":"METAR KLBB 171453Z 22014KT 10SM SCT150 BKN250 22/16 A2983 RMK AO2 SLP053 T02220156 51006","lat":33.6658,"lon":-101.8233,"elev":996,"name":"Lubbock Intl Arpt, TX, US","cover":"BKN","clouds":[{"cover":"SCT","base":15000},{"cover":"BKN","base":25000}],"fltCat":"VFR"},{"icaoId":"KLOL","receiptTime":"2026-04-17T14:56:23.224Z","obsTime":1776437580,"reportTime":"2026-04-17T15:00:00.000Z","temp":-3.9,"dewp":-12.2,"wdir":0,"wspd":0,"visib":"10+","altim":1025.5,"slp":1027.6,"qcField":6,"presTend":1,"metarType":"METAR","rawOb":"METAR KLOL 171453Z AUTO 00000KT 10SM CLR M04/M12 A3028 RMK AO2 SLP276 T10391122 53010","lat":40.0684,"lon":-118.5702,"elev":1191,"name":"Lovelock/Derby Fld, NV, US","cover":"CLR","clouds":[],"fltCat":"VFR"},{"icaoId":"KMAF","receiptTime":"2026-04-17T14:56:23.300Z","obsTime":1776437580,"reportTime":"2026-04-17T15:00:00.000Z","temp":22.8,"dewp":16.7,"wdir":200,"wspd":14,"visib":9,"altim":1011.3,"slp":1007,"qcField":4,"presTend":1.4,"metarType":"METAR","rawOb":"METAR KMAF 171453Z 20014KT 9SM CLR 23/17 A2986 RMK AO2 SLP070 T02280167 52014","lat":31.9475,"lon":-102.2086,"elev":874,"name":"Midland Intl, TX, US","cover":"CLR","clouds":[],"fltCat":"VFR"},{"icaoId":"KMCO","receiptTime":"2026-04-17T14:56:23.352Z","obsTime":1776437580,"reportTime":"2026-04-17T15:00:00.000Z","temp":25.6,"dewp":16.1,"wdir":10,"wspd":3,"visib":"10+","altim":1020.4,"slp":1020,"qcField":4,"presTend":0.4,"metarType":"METAR","rawOb":"METAR KMCO 171453Z 01003KT 10SM FEW040 26/16 A3013 RMK AO2 SLP200 T02560161 51004","lat":28.4182,"lon":-81.3241,"elev":27,"name":"Orlando Intl, FL, US","cover":"FEW","clouds":[{"cover":"FEW","base":4000}],"fltCat":"VFR"},{"icaoId":"KMFR","receiptTime":"2026-04-17T14:56:23.364Z","obsTime":1776437580,"reportTime":"2026-04-17T15:00:00.000Z","temp":0.6,"dewp":-1.1,"wdir":230,"wspd":3,"visib":"10+","altim":1025.1,"slp":1025.7,"qcField":4,"presTend":-0.2,"metarType":"METAR","rawOb":"METAR KMFR 171453Z 23003KT 10SM CLR 01/M01 A3027 RMK AO2 SLP257 T00061011 56002","lat":42.375,"lon":-122.877,"elev":397,"name":"Medford/Rogue Valley Intl, OR, US","cover":"CLR","clouds":[],"fltCat":"VFR"},{"icaoId":"KPAE","receiptTime":"2026-04-17T14:56:23.586Z","obsTime":1776437580,"reportTime":"2026-04-17T15:00:00.000Z","temp":6.1,"dewp":3.3,"wdir":150,"wspd":5,"visib":"10+","altim":1027.2,"slp":1027.3,"qcField":4,"presTend":0.4,"metarType":"METAR","rawOb":"METAR KPAE 171453Z 15005KT 10SM SCT023 06/03 A3033 RMK AO2 SLP273 T00610033 53004","lat":47.9232,"lon":-122.2831,"elev":166,"name":"Everett/Paine Fld, WA, US","cover":"SCT","clouds":[{"cover":"SCT","base":2300}],"fltCat":"VFR"},{"icaoId":"KPDX","receiptTime":"2026-04-17T14:56:23.670Z","obsTime":1776437580,"reportTime":"2026-04-17T15:00:00.000Z","temp":7.2,"dewp":3.9,"wdir":80,"wspd":3,"visib":"10+","altim":1027.2,"slp":1026.8,"qcField":12,"presTend":-0.3,"metarType":"METAR","rawOb":"METAR KPDX 171453Z 08003KT 10SM FEW043 BKN250 07/04 A3033 RMK AO2 SLP268 T00720039 58003 $","lat":45.5958,"lon":-122.6092,"elev":7,"name":"Portland Intl, OR, US","cover":"BKN","clouds":[{"cover":"FEW","base":4300},{"cover":"BKN","base":25000}],"fltCat":"VFR"},{"icaoId":"KPGA","receiptTime":"2026-04-17T14:56:23.683Z","obsTime":1776437580,"reportTime":"2026-04-17T15:00:00.000Z","temp":6.1,"dewp":-16.7,"wdir":300,"wspd":12,"wgst":21,"visib":"10+","altim":1020.1,"slp":1016.6,"qcField":14,"presTend":3.8,"metarType":"METAR","rawOb":"METAR KPGA 171453Z AUTO 30012G21KT 10SM SCT100 06/M17 A3012 RMK AO2 PK WND 32029/1411 SLP166 T00611167 53038 $","lat":36.9211,"lon":-111.4487,"elev":1310,"name":"Page Muni, AZ, US","cover":"SCT","clouds":[{"cover":"SCT","base":10000}],"fltCat":"VFR"},{"icaoId":"KPSC","receiptTime":"2026-04-17T14:56:23.838Z","obsTime":1776437580,"reportTime":"2026-04-17T15:00:00.000Z","temp":6.7,"dewp":0.6,"wdir":190,"wspd":6,"visib":"10+","altim":1025.5,"slp":1025.5,"qcField":4,"presTend":0.9,"metarType":"METAR","rawOb":"METAR KPSC 171453Z 19006KT 10SM CLR 07/01 A3028 RMK AO2 SLP255 T00670006 53009","lat":46.2695,"lon":-119.1182,"elev":121,"name":"Pasco/Tri Cities Arpt, WA, US","cover":"CLR","clouds":[],"fltCat":"VFR"},{"icaoId":"KPSP","receiptTime":"2026-04-17T14:56:23.849Z","obsTime":1776437580,"reportTime":"2026-04-17T15:00:00.000Z","temp":20.6,"dewp":-8.3,"wdir":320,"wspd":12,"wgst":22,"visib":"10+","altim":1015.7,"slp":1015.4,"qcField":12,"presTend":4.5,"metarType":"METAR","rawOb":"METAR KPSP 171453Z 32012G22KT 10SM CLR 21/M08 A2999 RMK AO2 SLP154 T02061083 53045 $","lat":33.8222,"lon":-116.5043,"elev":123,"name":"Palm Springs Intl, CA, US","cover":"CLR","clouds":[],"fltCat":"VFR"},{"icaoId":"KPUW","receiptTime":"2026-04-17T14:56:23.877Z","obsTime":1776437580,"reportTime":"2026-04-17T15:00:00.000Z","temp":3.3,"dewp":-1.7,"wdir":220,"wspd":6,"visib":"10+","altim":1023.8,"slp":1025.1,"qcField":6,"presTend":1,"metarType":"METAR","rawOb":"METAR KPUW 171453Z AUTO 22006KT 10SM CLR 03/M02 A3023 RMK AO2 SLP251 T00331017 53010","lat":46.7438,"lon":-117.1158,"elev":774,"name":"Pullman/Moscow Rgnl, WA, US","cover":"CLR","clouds":[],"fltCat":"VFR"},{"icaoId":"KRDD","receiptTime":"2026-04-17T14:56:23.940Z","obsTime":1776437580,"reportTime":"2026-04-17T15:00:00.000Z","temp":11.1,"dewp":-6.7,"wdir":340,"wspd":8,"wgst":15,"visib":"10+","altim":1021.1,"slp":1020.7,"qcField":4,"presTend":-0.1,"metarType":"METAR","rawOb":"METAR KRDD 171453Z 34008G15KT 10SM CLR 11/M07 A3015 RMK AO2 SLP207 T01111067 56001","lat":40.5146,"lon":-122.2977,"elev":152,"name":"Redding Muni, CA, US","cover":"CLR","clouds":[],"fltCat":"VFR"},{"icaoId":"KRIW","receiptTime":"2026-04-17T14:56:23.968Z","obsTime":1776437580,"reportTime":"2026-04-17T15:00:00.000Z","temp":0,"dewp":-12.2,"wdir":310,"wspd":15,"visib":"10+","altim":1016.7,"slp":1017.8,"qcField":6,"presTend":1.6,"pcp3hr":0.005,"metarType":"METAR","rawOb":"METAR KRIW 171453Z AUTO 31015KT 10SM CLR 00/M12 A3002 RMK AO2 SLP178 60000 T00001122 51016","lat":43.0622,"lon":-108.4471,"elev":1662,"name":"Riverton Rgnl, WY, US","cover":"CLR","clouds":[],"fltCat":"VFR"},{"icaoId":"KMIA","receiptTime":"2026-04-17T14:56:23.998Z","obsTime":1776437580,"reportTime":"2026-04-17T15:00:00.000Z","temp":27.8,"dewp":22.2,"wdir":120,"wspd":8,"visib":"10+","altim":1018.4,"slp":1018.1,"qcField":0,"presTend":0.8,"metarType":"METAR","rawOb":"METAR KMIA 171453Z 12008KT 10SM BKN023 BKN040 BKN060 28/22 A3007 RMK SLP181 T02780222 52008","lat":25.7881,"lon":-80.3169,"elev":1,"name":"Miami Intl, FL, US","cover":"BKN","clouds":[{"cover":"BKN","base":2300},{"cover":"BKN","base":4000},{"cover":"BKN","base":6000}],"fltCat":"MVFR"},{"icaoId":"KMLC","receiptTime":"2026-04-17T14:56:24.077Z","obsTime":1776437580,"reportTime":"2026-04-17T15:00:00.000Z","temp":22.8,"dewp":17.8,"wdir":200,"wspd":9,"wgst":19,"visib":"10+","altim":1012.6,"slp":1011.4,"qcField":6,"presTend":1.2,"metarType":"METAR","rawOb":"METAR KMLC 171453Z AUTO 20009G19KT 150V220 10SM BKN021 23/18 A2990 RMK AO2 SLP114 T02280178 53012","lat":34.8824,"lon":-95.7815,"elev":231,"name":"McAlester Rgnl, OK, US","cover":"BKN","clouds":[{"cover":"BKN","base":2100}],"fltCat":"MVFR"},{"icaoId":"KMLS","receiptTime":"2026-04-17T14:56:24.120Z","obsTime":1776437580,"reportTime":"2026-04-17T15:00:00.000Z","temp":-3.3,"dewp":-10.6,"wdir":310,"wspd":10,"visib":9,"altim":1017.4,"slp":1019.8,"qcField":6,"wxString":"-SN","presTend":1.6,"precip":0.005,"pcp3hr":0.005,"metarType":"METAR","rawOb":"METAR KMLS 171453Z AUTO 31010KT 9SM -SN CLR M03/M11 A3004 RMK AO2 SNB00 SLP198 P0000 60000 T10331106 53016","lat":46.4265,"lon":-105.8834,"elev":800,"name":"Miles City/Wiley Fld, MT, US","cover":"CLR","clouds":[],"fltCat":"VFR"},{"icaoId":"KELY","receiptTime":"2026-04-17T14:56:24.169Z","obsTime":1776437580,"reportTime":"2026-04-17T15:00:00.000Z","temp":-5,"dewp":-14.4,"wdir":0,"wspd":0,"visib":"10+","altim":1023.5,"slp":1025.1,"qcField":14,"presTend":1.2,"precip":0.005,"pcp3hr":0.005,"metarType":"METAR","rawOb":"METAR KELY 171453Z AUTO 00000KT 10SM CLR M05/M14 A3022 RMK AO2 SNE14 SLP251 P0000 60000 T10501144 53012 $","lat":39.2954,"lon":-114.8466,"elev":1906,"name":"Ely/Yelland Fld, NV, US","cover":"CLR","clouds":[],"fltCat":"VFR"},{"icaoId":"KEVW","receiptTime":"2026-04-17T14:56:24.216Z","obsTime":1776437580,"reportTime":"2026-04-17T15:00:00.000Z","temp":-8.3,"dewp":-10.6,"wdir":240,"wspd":7,"visib":"10+","altim":1020.1,"slp":1024.7,"qcField":14,"presTend":2.1,"metarType":"METAR","rawOb":"METAR KEVW 171453Z AUTO 24007KT 10SM CLR M08/M11 A3012 RMK AO2 SLP247 T10831106 51021 $","lat":41.2727,"lon":-111.0305,"elev":2178,"name":"Evanston/Uinta Cnty, WY, US","cover":"CLR","clouds":[],"fltCat":"VFR"},{"icaoId":"KFAT","receiptTime":"2026-04-17T14:56:24.265Z","obsTime":1776437580,"reportTime":"2026-04-17T15:00:00.000Z","temp":10.6,"dewp":0,"wdir":0,"wspd":0,"visib":"10+","altim":1018,"slp":1017.7,"qcField":12,"presTend":1.8,"metarType":"METAR","rawOb":"METAR KFAT 171453Z 00000KT 10SM FEW070 FEW120 FEW200 11/00 A3006 RMK AO2 SLP177 T01060000 53018 $","lat":36.78,"lon":-119.7202,"elev":102,"name":"Fresno/Yosemite Intl, CA, US","cover":"FEW","clouds":[{"cover":"FEW","base":7000},{"cover":"FEW","base":12000},{"cover":"FEW","base":20000}],"fltCat":"VFR"},{"icaoId":"KFUL","receiptTime":"2026-04-17T14:56:24.431Z","obsTime":1776437580,"reportTime":"2026-04-17T15:00:00.000Z","temp":15.6,"dewp":10,"wdir":100,"wspd":4,"visib":"10+","altim":1015.3,"slp":1015,"qcField":4,"presTend":1.4,"metarType":"METAR","rawOb":"METAR KFUL 171453Z 10004KT 10SM OVC030 16/10 A2998 RMK AO2 SLP150 T01560100 51014","lat":33.8715,"lon":-117.9856,"elev":23,"name":"Fullerton Muni, CA, US","cover":"OVC","clouds":[{"cover":"OVC","base":3000}],"fltCat":"MVFR"},{"icaoId":"KGEG","receiptTime":"2026-04-17T14:56:24.498Z","obsTime":1776437580,"reportTime":"2026-04-17T15:00:00.000Z","temp":0.6,"dewp":-3.9,"wdir":180,"wspd":7,"visib":"10+","altim":1022.1,"slp":1023.5,"qcField":4,"presTend":1.4,"metarType":"METAR","rawOb":"METAR KGEG 171453Z 18007KT 10SM FEW035 FEW080 FEW140 01/M04 A3018 RMK AO2 SLP235 T00061039 53014","lat":47.6217,"lon":-117.528,"elev":718,"name":"Spokane Intl, WA, US","cover":"FEW","clouds":[{"cover":"FEW","base":3500},{"cover":"FEW","base":8000},{"cover":"FEW","base":14000}],"fltCat":"VFR"},{"icaoId":"KACV","receiptTime":"2026-04-17T14:56:24.592Z","obsTime":1776437580,"reportTime":"2026-04-17T15:00:00.000Z","temp":3.9,"dewp":2.8,"wdir":80,"wspd":3,"visib":"10+","altim":1021.4,"slp":1022,"qcField":6,"presTend":-0.5,"metarType":"METAR","rawOb":"METAR KACV 171453Z AUTO 08003KT 10SM CLR 04/03 A3016 RMK AO2 SLP220 T00390028 55005","lat":40.9784,"lon":-124.1048,"elev":63,"name":"Arcata Arpt, CA, US","cover":"CLR","clouds":[],"fltCat":"VFR"},{"icaoId":"PANC","receiptTime":"2026-04-17T14:56:25.027Z","obsTime":1776437580,"reportTime":"2026-04-17T15:00:00.000Z","temp":0,"dewp":0,"wdir":0,"wspd":0,"visib":"10+","altim":1008.2,"slp":1008.4,"qcField":4,"presTend":-0.6,"precip":0.005,"pcp3hr":0.01,"metarType":"METAR","rawOb":"METAR PANC 171453Z 00000KT 10SM FEW001 OVC055 00/00 A2977 RMK AO2 SLP084 P0000 60001 T00000000 58006","lat":61.1691,"lon":-150.0277,"elev":39,"name":"Anchorage Intl, AK, US","cover":"OVC","clouds":[{"cover":"FEW","base":100},{"cover":"OVC","base":5500}],"fltCat":"VFR"},{"icaoId":"KHIO","receiptTime":"2026-04-17T14:56:25.676Z","obsTime":1776437580,"reportTime":"2026-04-17T15:00:00.000Z","temp":3.3,"dewp":2.2,"wdir":320,"wspd":3,"visib":"10+","altim":1026.8,"slp":1027,"qcField":4,"presTend":-0.3,"metarType":"METAR","rawOb":"METAR KHIO 171453Z 32003KT 10SM BKN041 03/02 A3032 RMK AO2 SLP270 T00330022 56003","lat":45.5476,"lon":-122.9557,"elev":62,"name":"Portland/Hillsboro Arpt, OR, US","cover":"BKN","clouds":[{"cover":"BKN","base":4100}],"fltCat":"VFR"},{"icaoId":"KPBI","receiptTime":"2026-04-17T14:56:25.864Z","obsTime":1776437580,"reportTime":"2026-04-17T15:00:00.000Z","temp":23.9,"dewp":22.8,"wdir":100,"wspd":10,"visib":2,"altim":1019.4,"slp":1019,"qcField":12,"wxString":"-RA BR","presTend":1.5,"precip":0.06,"pcp3hr":0.27,"metarType":"METAR","rawOb":"METAR KPBI 171453Z 10010KT 2SM -RA BR SCT007 BKN029 OVC045 24/23 A3010 RMK AO2 RAB11 SLP190 P0006 60027 T02390228 53015 $","lat":26.6851,"lon":-80.0992,"elev":4,"name":"Palm Beach Intl, FL, US","cover":"OVC","clouds":[{"cover":"SCT","base":700},{"cover":"BKN","base":2900},{"cover":"OVC","base":4500}],"fltCat":"IFR"},{"icaoId":"KSAF","receiptTime":"2026-04-17T14:56:26.129Z","obsTime":1776437580,"reportTime":"2026-04-17T15:00:00.000Z","temp":13.3,"dewp":-11.1,"wdir":250,"wspd":12,"wgst":22,"visib":"10+","altim":1014.3,"slp":1007.2,"qcField":4,"presTend":0.8,"metarType":"METAR","rawOb":"METAR KSAF 171453Z 25012G22KT 10SM CLR 13/M11 A2995 RMK AO2 SLP072 T01331111 51008","lat":35.611,"lon":-106.0957,"elev":1918,"name":"Santa Fe Cnty Muni, NM, US","cover":"CLR","clouds":[],"fltCat":"VFR"},{"icaoId":"KTUL","receiptTime":"2026-04-17T14:56:26.359Z","obsTime":1776437580,"reportTime":"2026-04-17T15:00:00.000Z","temp":24.4,"dewp":18.3,"wdir":180,"wspd":19,"wgst":27,"visib":"10+","altim":1009.6,"slp":1008.7,"qcField":4,"presTend":0.2,"metarType":"METAR","rawOb":"METAR KTUL 171453Z 18019G27KT 10SM BKN065 BKN200 24/18 A2981 RMK AO2 PK WND 18027/1452 SLP087 ACC N T02440183 50002","lat":36.1985,"lon":-95.8782,"elev":196,"name":"Tulsa Intl Arpt, OK, US","cover":"BKN","clouds":[{"cover":"BKN","base":6500},{"cover":"BKN","base":20000}],"fltCat":"VFR"},{"icaoId":"KLVS","receiptTime":"2026-04-17T14:56:26.372Z","obsTime":1776437580,"reportTime":"2026-04-17T15:00:00.000Z","temp":13.9,"dewp":-11.7,"wdir":220,"wspd":17,"wgst":29,"visib":"10+","altim":1013.3,"slp":1005.2,"qcField":6,"presTend":0.9,"metarType":"METAR","rawOb":"METAR KLVS 171453Z AUTO 22017G29KT 10SM CLR 14/M12 A2992 RMK AO2 PK WND 23029/1451 SLP052 T01391117 51009","lat":35.6558,"lon":-105.1385,"elev":2095,"name":"Las Vegas Muni, NM, US","cover":"CLR","clouds":[],"fltCat":"VFR"},{"icaoId":"KMDW","receiptTime":"2026-04-17T14:56:26.541Z","obsTime":1776437580,"reportTime":"2026-04-17T15:00:00.000Z","temp":21.1,"dewp":13.9,"wdir":160,"wspd":10,"wgst":17,"visib":"10+","altim":1012.6,"slp":1012.4,"qcField":4,"presTend":-0.6,"metarType":"METAR","rawOb":"METAR KMDW 171453Z 16010G17KT 10SM FEW200 BKN250 21/14 A2990 RMK AO2 SLP124 T02110139 58006","lat":41.7841,"lon":-87.7552,"elev":186,"name":"Chicago/Midway Intl, IL, US","cover":"BKN","clouds":[{"cover":"FEW","base":20000},{"cover":"BKN","base":25000}],"fltCat":"VFR"},{"icaoId":"KHOU","receiptTime":"2026-04-17T14:56:26.988Z","obsTime":1776437580,"reportTime":"2026-04-17T15:00:00.000Z","temp":25,"dewp":21.1,"wdir":160,"wspd":9,"visib":7,"altim":1014.6,"slp":1015.1,"qcField":4,"presTend":1.2,"metarType":"METAR","rawOb":"METAR KHOU 171453Z 16009KT 7SM SCT017 BKN050 BKN250 25/21 A2996 RMK AO2 SLP151 T02500211 51012","lat":29.6458,"lon":-95.2821,"elev":13,"name":"Houston/Hobby Arpt, TX, US","cover":"BKN","clouds":[{"cover":"SCT","base":1700},{"cover":"BKN","base":5000},{"cover":"BKN","base":25000}],"fltCat":"VFR"},{"icaoId":"KIAH","receiptTime":"2026-04-17T14:56:27.087Z","obsTime":1776437580,"reportTime":"2026-04-17T15:00:00.000Z","temp":26.1,"dewp":21.1,"wdir":150,"wspd":7,"visib":"10+","altim":1015,"slp":1014.7,"qcField":4,"presTend":1,"metarType":"METAR","rawOb":"METAR KIAH 171453Z 15007KT 10SM SCT014 BKN025 BKN250 26/21 A2997 RMK AO2 SLP147 T02610211 51010","lat":29.9844,"lon":-95.3607,"elev":27,"name":"Houston/Bush Intl, TX, US","cover":"BKN","clouds":[{"cover":"SCT","base":1400},{"cover":"BKN","base":2500},{"cover":"BKN","base":25000}],"fltCat":"MVFR"},{"icaoId":"KDTW","receiptTime":"2026-04-17T14:56:27.513Z","obsTime":1776437580,"reportTime":"2026-04-17T15:00:00.000Z","temp":12.8,"dewp":12.2,"wdir":130,"wspd":5,"visib":0.25,"altim":1017.4,"slp":1017.2,"qcField":4,"wxString":"BR","presTend":1.4,"metarType":"METAR","rawOb":"METAR KDTW 171453Z 13005KT 1/4SM R03R/5000VP6000FT BR OVC002 13/12 A3004 RMK AO2 SFC VIS 3/4 SLP172 T01280122 53014","lat":42.2311,"lon":-83.3312,"elev":192,"name":"Detroit/Metro Wayne Cnty, MI, US","cover":"OVC","clouds":[{"cover":"OVC","base":200}],"fltCat":"LIFR"},{"icaoId":"KFMN","receiptTime":"2026-04-17T14:56:27.726Z","obsTime":1776437580,"reportTime":"2026-04-17T15:00:00.000Z","temp":9.4,"dewp":-7.8,"wdir":270,"wspd":15,"wgst":25,"visib":"10+","altim":1014.3,"slp":1010.9,"qcField":4,"presTend":3,"metarType":"METAR","rawOb":"METAR KFMN 171453Z 27015G25KT 10SM CLR 09/M08 A2995 RMK AO2 PK WND 27029/1400 SLP109 T00941078 53030","lat":36.7435,"lon":-108.2293,"elev":1677,"name":"Farmington/Four Corners Rgnl, NM, US","cover":"CLR","clouds":[],"fltCat":"VFR"},{"icaoId":"KGJT","receiptTime":"2026-04-17T14:56:27.888Z","obsTime":1776437580,"reportTime":"2026-04-17T15:00:00.000Z","temp":-1.1,"dewp":-3.3,"wdir":320,"wspd":10,"visib":7,"altim":1019.7,"slp":1017.7,"qcField":4,"wxString":"-SN","presTend":3.4,"precip":0.005,"pcp3hr":0.01,"metarType":"METAR","rawOb":"METAR KGJT 171453Z 32010KT 7SM -SN OVC019 M01/M03 A3011 RMK AO2 SLP177 P0000 60001 T10111033 53034","lat":39.1344,"lon":-108.5408,"elev":1475,"name":"Grand Junction Rgnl, CO, US","cover":"OVC","clouds":[{"cover":"OVC","base":1900}],"fltCat":"MVFR"},{"icaoId":"KAMA","receiptTime":"2026-04-17T14:56:28.239Z","obsTime":1776437580,"reportTime":"2026-04-17T15:00:00.000Z","temp":21.7,"dewp":12.8,"wdir":240,"wspd":18,"visib":"10+","altim":1009.6,"slp":1004.8,"qcField":4,"presTend":0.4,"metarType":"METAR","rawOb":"METAR KAMA 171453Z 24018KT 10SM CLR 22/13 A2981 RMK AO2 PK WND 24026/1410 SLP048 T02170128 52004","lat":35.2203,"lon":-101.7173,"elev":1102,"name":"Amarillo Intl Arpt, TX, US","cover":"CLR","clouds":[],"fltCat":"VFR"},{"icaoId":"KBRO","receiptTime":"2026-04-17T14:56:28.573Z","obsTime":1776437580,"reportTime":"2026-04-17T15:00:00.000Z","temp":28.9,"dewp":21.1,"wdir":150,"wspd":20,"wgst":28,"visib":"10+","altim":1013,"slp":1012.8,"qcField":4,"presTend":1.8,"metarType":"METAR","rawOb":"METAR KBRO 171453Z 15020G28KT 10SM FEW015 BKN026 29/21 A2991 RMK AO2 PK WND 14028/1449 SLP128 T02890211 51018","lat":25.9146,"lon":-97.4231,"elev":6,"name":"Brownsville Intl, TX, US","cover":"BKN","clouds":[{"cover":"FEW","base":1500},{"cover":"BKN","base":2600}],"fltCat":"MVFR"},{"icaoId":"KPNC","receiptTime":"2026-04-17T14:56:25.930Z","obsTime":1776437580,"reportTime":"2026-04-17T15:00:00.000Z","temp":23.9,"dewp":18.9,"wdir":180,"wspd":15,"wgst":27,"visib":"10+","altim":1007.2,"slp":1005.7,"qcField":6,"presTend":0.1,"metarType":"METAR","rawOb":"METAR KPNC 171453Z AUTO 18015G27KT 10SM SCT024 24/19 A2974 RMK AO2 PK WND 21027/1451 SLP057 T02390189 50001","lat":36.7369,"lon":-97.1024,"elev":304,"name":"Ponca City Rgnl, OK, US","cover":"SCT","clouds":[{"cover":"SCT","base":2400}],"fltCat":"VFR"},{"icaoId":"KBOI","receiptTime":"2026-04-17T14:56:21.419Z","obsTime":1776437580,"reportTime":"2026-04-17T15:00:00.000Z","temp":2.2,"dewp":-3.3,"wdir":120,"wspd":7,"visib":"10+","altim":1025.5,"slp":1026.4,"qcField":4,"presTend":1.1,"metarType":"METAR","rawOb":"METAR KBOI 171453Z 12007KT 10SM CLR 02/M03 A3028 RMK AO2 SLP264 T00221033 53011","lat":43.567,"lon":-116.2406,"elev":860,"name":"Boise Arpt, ID, US","cover":"CLR","clouds":[],"fltCat":"VFR"},{"icaoId":"KRTN","receiptTime":"2026-04-17T14:56:26.093Z","obsTime":1776437580,"reportTime":"2026-04-17T15:00:00.000Z","temp":15.6,"dewp":-12.2,"wdir":270,"wspd":6,"visib":"10+","altim":1009.9,"slp":1003.4,"qcField":6,"presTend":0.3,"metarType":"METAR","rawOb":"METAR KRTN 171453Z AUTO 27006KT 10SM CLR 16/M12 A2982 RMK AO2 SLP034 T01561122 50003","lat":36.7418,"lon":-104.5076,"elev":1939,"name":"Raton/Crews Fld, NM, US","cover":"CLR","clouds":[],"fltCat":"VFR"},{"icaoId":"KPRC","receiptTime":"2026-04-17T14:56:23.826Z","obsTime":1776437580,"reportTime":"2026-04-17T15:00:00.000Z","temp":8.9,"dewp":-7.8,"wdir":330,"wspd":16,"wgst":22,"visib":"10+","altim":1017.7,"slp":1012.7,"qcField":4,"presTend":3.7,"metarType":"METAR","rawOb":"METAR KPRC 171453Z 33016G22KT 10SM CLR 09/M08 A3005 RMK AO2 SLP127 T00891078 53037","lat":34.6491,"lon":-112.4223,"elev":1528,"name":"Prescott/Love Fld, AZ, US","cover":"CLR","clouds":[],"fltCat":"VFR"},{"icaoId":"KSJC","receiptTime":"2026-04-17T14:56:22.735Z","obsTime":1776437580,"reportTime":"2026-04-17T15:00:00.000Z","temp":13.9,"dewp":-5,"wdir":320,"wspd":5,"visib":"10+","altim":1018,"slp":1017.8,"qcField":4,"presTend":1,"metarType":"METAR","rawOb":"METAR KSJC 171453Z 32005KT 10SM FEW080 FEW110 14/M05 A3006 RMK AO2 SLP178 T01391050 53010","lat":37.3594,"lon":-121.9244,"elev":13,"name":"San Jose Intl Arpt, CA, US","cover":"FEW","clouds":[{"cover":"FEW","base":8000},{"cover":"FEW","base":11000}],"fltCat":"VFR"},{"icaoId":"KGSP","receiptTime":"2026-04-17T14:56:25.548Z","obsTime":1776437580,"reportTime":"2026-04-17T15:00:00.000Z","temp":25,"dewp":10,"wdir":10,"wspd":7,"visib":"10+","altim":1018.4,"slp":1017.3,"qcField":12,"presTend":1.5,"metarType":"METAR","rawOb":"METAR KGSP 171453Z 01007KT 10SM CLR 25/10 A3007 RMK AO2 SLP173 T02500100 51015 $","lat":34.8842,"lon":-82.2209,"elev":285,"name":"Greenville-Spartanburg Intl, SC, US","cover":"CLR","clouds":[],"fltCat":"VFR"},{"icaoId":"KMYR","receiptTime":"2026-04-17T14:56:14.560Z","obsTime":1776437580,"reportTime":"2026-04-17T15:00:00.000Z","temp":26.1,"dewp":16.1,"wdir":290,"wspd":7,"visib":"10+","altim":1017,"slp":1016.8,"qcField":12,"presTend":0.4,"metarType":"METAR","rawOb":"METAR KMYR 171453Z 29007KT 10SM CLR 26/16 A3003 RMK AO2 SLP168 T02610161 51004 $","lat":33.6769,"lon":-78.9325,"elev":7,"name":"Myrtle Beach Intl, SC, US","cover":"CLR","clouds":[],"fltCat":"VFR"},{"icaoId":"KMFE","receiptTime":"2026-04-17T14:56:26.555Z","obsTime":1776437580,"reportTime":"2026-04-17T15:00:00.000Z","temp":27.8,"dewp":22.2,"wdir":150,"wspd":16,"wgst":25,"visib":"10+","altim":1011.9,"slp":1011.8,"qcField":4,"presTend":1,"metarType":"METAR","rawOb":"METAR KMFE 171453Z 15016G25KT 10SM BKN020 BKN026 28/22 A2988 RMK AO2 SLP118 T02780222 53010","lat":26.1791,"lon":-98.2445,"elev":29,"name":"McAllen/Miller Intl, TX, US","cover":"BKN","clouds":[{"cover":"BKN","base":2000},{"cover":"BKN","base":2600}],"fltCat":"MVFR"},{"icaoId":"KPUB","receiptTime":"2026-04-17T14:56:26.001Z","obsTime":1776437580,"reportTime":"2026-04-17T15:00:00.000Z","temp":7.8,"dewp":-2.2,"wdir":50,"wspd":8,"wgst":16,"visib":"10+","altim":1011.9,"slp":1008.4,"qcField":12,"presTend":3.2,"metarType":"METAR","rawOb":"METAR KPUB 171453Z 05008G16KT 10SM CLR 08/M02 A2988 RMK AO2 SLP084 T00781022 51032 $","lat":38.2887,"lon":-104.5057,"elev":1441,"name":"Pueblo Mem Arpt, CO, US","cover":"CLR","clouds":[],"fltCat":"VFR"},{"icaoId":"KAPA","receiptTime":"2026-04-17T14:56:28.266Z","obsTime":1776437580,"reportTime":"2026-04-17T15:00:00.000Z","temp":2.2,"dewp":-7.2,"wdir":50,"wspd":9,"wgst":16,"visib":"10+","altim":1012.3,"slp":1010.1,"qcField":4,"presTend":1,"metarType":"METAR","rawOb":"METAR KAPA 171453Z 05009G16KT 10SM SCT028 SCT220 02/M07 A2989 RMK AO2 SLP101 T00221072 50010","lat":39.5599,"lon":-104.8484,"elev":1791,"name":"Denver/Centennial Arpt, CO, US","cover":"SCT","clouds":[{"cover":"SCT","base":2800},{"cover":"SCT","base":22000}],"fltCat":"VFR"},{"icaoId":"KDMN","receiptTime":"2026-04-17T14:56:20.525Z","obsTime":1776437580,"reportTime":"2026-04-17T15:00:00.000Z","temp":18.9,"dewp":-2.2,"wdir":250,"wspd":9,"visib":"10+","altim":1015,"slp":1008.3,"qcField":6,"presTend":1.2,"metarType":"METAR","rawOb":"METAR KDMN 171453Z AUTO 25009KT 10SM CLR 19/M02 A2997 RMK AO2 SLP083 T01891022 53012","lat":32.2592,"lon":-107.7206,"elev":1310,"name":"Deming Muni, NM, US","cover":"CLR","clouds":[],"fltCat":"VFR"},{"icaoId":"KBCE","receiptTime":"2026-04-17T14:56:21.277Z","obsTime":1776437580,"reportTime":"2026-04-17T15:00:00.000Z","temp":-5,"dewp":-16.7,"wdir":350,"wspd":10,"wgst":21,"visib":"10+","altim":1019.7,"slp":1015.6,"qcField":6,"presTend":2.3,"metarType":"METAR","rawOb":"METAR KBCE 171453Z AUTO 35010G21KT 10SM CLR M05/M17 A3011 RMK AO2 SLP156 T10501167 51023","lat":37.7013,"lon":-112.149,"elev":2311,"name":"Bryce Canyon Arpt, UT, US","cover":"CLR","clouds":[],"fltCat":"VFR"},{"icaoId":"KDLN","receiptTime":"2026-04-17T14:56:22.843Z","obsTime":1776437580,"reportTime":"2026-04-17T15:00:00.000Z","temp":-1.1,"dewp":-7.2,"wdir":220,"wspd":8,"visib":"10+","altim":1019,"slp":1021.9,"qcField":6,"presTend":1,"metarType":"METAR","rawOb":"METAR KDLN 171453Z AUTO 22008KT 10SM SCT070 M01/M07 A3009 RMK AO2 SLP219 T10111072 53010","lat":45.2584,"lon":-112.5546,"elev":1586,"name":"Dillon Arpt, MT, US","cover":"SCT","clouds":[{"cover":"SCT","base":7000}],"fltCat":"VFR"},{"icaoId":"KCPR","receiptTime":"2026-04-17T14:56:20.313Z","obsTime":1776437580,"reportTime":"2026-04-17T15:00:00.000Z","temp":-3.9,"dewp":-3.9,"wdir":230,"wspd":5,"visib":3,"altim":1016.3,"slp":1019,"qcField":4,"wxString":"-SN BR","presTend":2.1,"precip":0.005,"pcp3hr":0.01,"metarType":"METAR","rawOb":"METAR KCPR 171453Z 23005KT 3SM -SN BR BKN043 OVC049 M04/M04 A3001 RMK AO2 SNB10 SLP190 P0000 60001 T10391039 53021","lat":42.8978,"lon":-106.4736,"elev":1623,"name":"Casper/Natrona Cnty, WY, US","cover":"OVC","clouds":[{"cover":"BKN","base":4300},{"cover":"OVC","base":4900}],"fltCat":"MVFR"},{"icaoId":"KDEN","receiptTime":"2026-04-17T14:56:20.448Z","obsTime":1776437580,"reportTime":"2026-04-17T15:00:00.000Z","temp":2.8,"dewp":-6.7,"wdir":60,"wspd":13,"wgst":21,"visib":"10+","altim":1012.6,"slp":1008.6,"qcField":12,"presTend":1.5,"metarType":"METAR","rawOb":"METAR KDEN 171453Z 06013G21KT 10SM FEW030 SCT150 SCT220 03/M07 A2990 RMK AO2 SLP086 T00281067 51015 $","lat":39.8466,"lon":-104.6562,"elev":1656,"name":"Denver Intl, CO, US","cover":"SCT","clouds":[{"cover":"FEW","base":3000},{"cover":"SCT","base":15000},{"cover":"SCT","base":22000}],"fltCat":"VFR"},{"icaoId":"KLGB","receiptTime":"2026-04-17T14:56:27.386Z","obsTime":1776437580,"reportTime":"2026-04-17T15:00:00.000Z","temp":15.6,"dewp":11.1,"wdir":110,"wspd":5,"visib":"10+","altim":1015,"slp":1014.9,"qcField":12,"metarType":"METAR","rawOb":"METAR KLGB 171453Z 11005KT 10SM SCT033 16/11 A2997 RMK AO2 SLP149 T01560111 $","lat":33.8118,"lon":-118.1472,"elev":10,"name":"Long Beach Arpt, CA, US","cover":"SCT","clouds":[{"cover":"SCT","base":3300}],"fltCat":"VFR"},{"icaoId":"KSDL","receiptTime":"2026-04-17T14:56:26.156Z","obsTime":1776437580,"reportTime":"2026-04-17T15:00:00.000Z","temp":20,"dewp":-1.7,"wdir":0,"wspd":0,"visib":"10+","altim":1013.3,"slp":1011.1,"qcField":4,"presTend":2.5,"metarType":"METAR","rawOb":"METAR KSDL 171453Z 00000KT 10SM CLR 20/M02 A2992 RMK AO2 SLP111 T02001017 53025","lat":33.6123,"lon":-111.9232,"elev":438,"name":"Scottsdale Muni, AZ, US","cover":"CLR","clouds":[],"fltCat":"VFR"},{"icaoId":"KPIH","receiptTime":"2026-04-17T14:56:23.731Z","obsTime":1776437580,"reportTime":"2026-04-17T15:00:00.000Z","temp":-0.6,"dewp":-6.1,"wdir":220,"wspd":16,"visib":"10+","altim":1023.1,"slp":1025.2,"qcField":4,"presTend":1.6,"metarType":"METAR","rawOb":"METAR KPIH 171453Z 22016KT 10SM FEW040 M01/M06 A3021 RMK AO2 SLP252 T10061061 52016","lat":42.9197,"lon":-112.5723,"elev":1357,"name":"Pocatello Rgnl, ID, US","cover":"FEW","clouds":[{"cover":"FEW","base":4000}],"fltCat":"VFR"},{"icaoId":"KTWF","receiptTime":"2026-04-17T14:56:22.308Z","obsTime":1776437580,"reportTime":"2026-04-17T15:00:00.000Z","temp":1.1,"dewp":-7.2,"wdir":260,"wspd":16,"wgst":22,"visib":"10+","altim":1023.8,"slp":1024.4,"qcField":4,"presTend":1.5,"metarType":"METAR","rawOb":"METAR KTWF 171453Z 26016G22KT 10SM CLR 01/M07 A3023 RMK AO2 SLP244 T00111072 53015","lat":42.4785,"lon":-114.4775,"elev":1269,"name":"Twin Falls/Joslin Fld, ID, US","cover":"CLR","clouds":[],"fltCat":"VFR"},{"icaoId":"KTUS","receiptTime":"2026-04-17T14:56:20.590Z","obsTime":1776437580,"reportTime":"2026-04-17T15:00:00.000Z","temp":17.8,"dewp":-3.3,"wdir":130,"wspd":3,"visib":"10+","altim":1015,"slp":1011.3,"qcField":12,"presTend":1.9,"metarType":"METAR","rawOb":"METAR KTUS 171453Z 13003KT 10SM CLR 18/M03 A2997 RMK AO2 SLP113 T01781033 53019 $","lat":32.1315,"lon":-110.9564,"elev":776,"name":"Tucson Intl Arpt, AZ, US","cover":"CLR","clouds":[],"fltCat":"VFR"},{"icaoId":"KONT","receiptTime":"2026-04-17T14:56:26.864Z","obsTime":1776437580,"reportTime":"2026-04-17T15:00:00.000Z","temp":13.9,"dewp":11.1,"wdir":200,"wspd":4,"visib":"10+","altim":1015.7,"slp":1014.9,"qcField":12,"presTend":2.3,"metarType":"METAR","rawOb":"METAR KONT 171453Z 20004KT 10SM FEW013 BKN021 14/11 A2999 RMK AO2 SLP149 T01390111 53023 $","lat":34.0531,"lon":-117.5769,"elev":279,"name":"Ontario Intl, CA, US","cover":"BKN","clouds":[{"cover":"FEW","base":1300},{"cover":"BKN","base":2100}],"fltCat":"MVFR"},{"icaoId":"KMTJ","receiptTime":"2026-04-17T14:56:26.742Z","obsTime":1776437580,"reportTime":"2026-04-17T15:00:00.000Z","temp":-2.2,"dewp":-3.3,"wdir":320,"wspd":13,"wgst":21,"visib":0.5,"altim":1018,"slp":1014.9,"qcField":6,"wxString":"SN FZFG","presTend":3.1,"precip":0.01,"pcp3hr":0.02,"metarType":"METAR","rawOb":"METAR KMTJ 171453Z AUTO 32013G21KT 1/2SM SN FZFG FEW006 OVC010 M02/M03 A3006 RMK AO2 SLP149 P0001 60002 T10221033 51031","lat":38.5054,"lon":-107.8981,"elev":1755,"name":"Montrose Rgnl, CO, US","cover":"OVC","clouds":[{"cover":"FEW","base":600},{"cover":"OVC","base":1000}],"fltCat":"LIFR"},{"icaoId":"KASE","receiptTime":"2026-04-17T14:56:28.327Z","obsTime":1776437580,"reportTime":"2026-04-17T15:00:00.000Z","temp":-5.6,"dewp":-6.7,"wdir":10,"wspd":4,"visib":0.5,"altim":1014,"slp":1009.1,"qcField":4,"wxString":"SN FZFG","presTend":2.1,"precip":0.02,"pcp3hr":0.02,"vertVis":6,"metarType":"METAR","rawOb":"METAR KASE 171453Z 01004KT 1/2SM SN FZFG VV006 M06/M07 A2994 RMK AO2 SLP091 P0002 60002 T10561067 51021","lat":39.2299,"lon":-106.8705,"elev":2384,"name":"Aspen/Pitkin Cnty, CO, US","cover":"OVX","clouds":[{"cover":"OVX","base":600}],"fltCat":"LIFR"},{"icaoId":"KAUS","receiptTime":"2026-04-17T14:56:28.351Z","obsTime":1776437580,"reportTime":"2026-04-17T15:00:00.000Z","temp":24.4,"dewp":20,"wdir":170,"wspd":12,"wgst":21,"visib":9,"altim":1012.6,"slp":1011.7,"qcField":4,"presTend":0.4,"metarType":"METAR","rawOb":"METAR KAUS 171453Z 17012G21KT 9SM BKN018 BKN028 24/20 A2990 RMK AO2 SLP117 T02440200 51004","lat":30.1831,"lon":-97.6806,"elev":148,"name":"Austin/Bergstrom Intl, TX, US","cover":"BKN","clouds":[{"cover":"BKN","base":1800},{"cover":"BKN","base":2800}],"fltCat":"MVFR"},{"icaoId":"KGTF","receiptTime":"2026-04-17T14:56:25.562Z","obsTime":1776437580,"reportTime":"2026-04-17T15:00:00.000Z","temp":-1.7,"dewp":-4.4,"wdir":0,"wspd":0,"visib":"10+","altim":1017.7,"slp":1022.7,"qcField":4,"presTend":1.9,"metarType":"METAR","rawOb":"METAR KGTF 171453Z 00000KT 10SM BKN070 OVC085 M02/M04 A3005 RMK AO2 SLP227 T10171044 51019","lat":47.4733,"lon":-111.3828,"elev":1117,"name":"Great Falls Intl, MT, US","cover":"OVC","clouds":[{"cover":"BKN","base":7000},{"cover":"OVC","base":8500}],"fltCat":"VFR"},{"icaoId":"KHLN","receiptTime":"2026-04-17T14:56:25.742Z","obsTime":1776437580,"reportTime":"2026-04-17T15:00:00.000Z","temp":2.2,"dewp":-6.7,"wdir":260,"wspd":15,"wgst":21,"visib":"10+","altim":1018.4,"slp":1022.1,"qcField":4,"presTend":1.1,"metarType":"METAR","rawOb":"METAR KHLN 171453Z 26015G21KT 10SM CLR 02/M07 A3007 RMK AO2 PK WND 27026/1427 SLP221 T00221067 53011","lat":46.6045,"lon":-111.9892,"elev":1178,"name":"Helena Rgnl, MT, US","cover":"CLR","clouds":[],"fltCat":"VFR"},{"icaoId":"KCLL","receiptTime":"2026-04-17T14:56:20.215Z","obsTime":1776437580,"reportTime":"2026-04-17T15:00:00.000Z","temp":23.3,"dewp":20,"wdir":160,"wspd":11,"wgst":20,"visib":"10+","altim":1014,"slp":1013.3,"qcField":4,"presTend":0.7,"metarType":"METAR","rawOb":"METAR KCLL 171453Z 16011G20KT 10SM SCT016 BKN022 OVC029 23/20 A2994 RMK AO2 SLP133 T02330200 50007","lat":30.5912,"lon":-96.3631,"elev":96,"name":"College Station/Easterwood Arpt, TX, US","cover":"OVC","clouds":[{"cover":"SCT","base":1600},{"cover":"BKN","base":2200},{"cover":"OVC","base":2900}],"fltCat":"MVFR"},{"icaoId":"KCNM","receiptTime":"2026-04-17T14:56:20.256Z","obsTime":1776437580,"reportTime":"2026-04-17T15:00:00.000Z","temp":25,"dewp":-2.8,"wdir":0,"wspd":0,"visib":"10+","altim":1011.6,"slp":1005.7,"qcField":6,"presTend":1,"metarType":"METAR","rawOb":"METAR KCNM 171453Z AUTO 00000KT 10SM CLR 25/M03 A2987 RMK AO2 SLP057 T02501028 53010","lat":32.3336,"lon":-104.2584,"elev":993,"name":"Carlsbad/Cavern City Air Term, NM, US","cover":"CLR","clouds":[],"fltCat":"VFR"},{"icaoId":"KCRQ","receiptTime":"2026-04-17T14:56:20.341Z","obsTime":1776437580,"reportTime":"2026-04-17T15:00:00.000Z","temp":15.6,"dewp":9.4,"wdir":80,"wspd":5,"visib":"10+","altim":1015.3,"slp":1014.9,"qcField":6,"presTend":1.5,"metarType":"METAR","rawOb":"METAR KCRQ 171453Z AUTO 08005KT 10SM BKN026 16/09 A2998 RMK AO2 SLP149 T01560094 53015","lat":33.1299,"lon":-117.2765,"elev":96,"name":"Carlsbad/Palomar Arpt, CA, US","cover":"BKN","clouds":[{"cover":"BKN","base":2600}],"fltCat":"MVFR"},{"icaoId":"KCYS","receiptTime":"2026-04-17T14:56:20.393Z","obsTime":1776437580,"reportTime":"2026-04-17T15:00:00.000Z","temp":-3.9,"dewp":-6.1,"wdir":320,"wspd":14,"wgst":24,"visib":0.75,"altim":1013.6,"slp":1011.3,"qcField":4,"wxString":"-SN BR","presTend":1.9,"precip":0.005,"pcp3hr":0.005,"vertVis":15,"metarType":"METAR","rawOb":"METAR KCYS 171453Z 32014G24KT 3/4SM -SN BR VV015 M04/M06 A2993 RMK AO2 PK WND 33034/1417 SNB11 SLP113 P0000 60000 T10391061 50019 RVRNO","lat":41.1579,"lon":-104.8081,"elev":1868,"name":"Cheyenne Rgnl, WY, US","cover":"OVX","clouds":[{"cover":"OVX","base":1500}],"fltCat":"LIFR"},{"icaoId":"KDRO","receiptTime":"2026-04-17T14:56:20.550Z","obsTime":1776437580,"reportTime":"2026-04-17T15:00:00.000Z","temp":10,"dewp":-8.3,"wdir":250,"wspd":10,"wgst":19,"visib":"10+","altim":1013,"slp":1008.7,"qcField":6,"presTend":1.2,"metarType":"METAR","rawOb":"METAR KDRO 171453Z AUTO 25010G19KT 10SM FEW075 10/M08 A2991 RMK AO2 SLP087 T01001083 51012","lat":37.1431,"lon":-107.7602,"elev":2021,"name":"Durango/La Plata Cnty, CO, US","cover":"FEW","clouds":[{"cover":"FEW","base":7500}],"fltCat":"VFR"},{"icaoId":"KBFI","receiptTime":"2026-04-17T14:56:21.313Z","obsTime":1776437580,"reportTime":"2026-04-17T15:00:00.000Z","temp":6.7,"dewp":3.3,"wdir":0,"wspd":0,"visib":"10+","altim":1027.2,"slp":1027.1,"qcField":4,"presTend":0.3,"metarType":"METAR","rawOb":"METAR KBFI 171453Z 00000KT 10SM BKN034 07/03 A3033 RMK AO2 SLP271 T00670033 53003","lat":47.5455,"lon":-122.3148,"elev":7,"name":"Seattle/Boeing Fld, WA, US","cover":"BKN","clouds":[{"cover":"BKN","base":3400}],"fltCat":"VFR"},{"icaoId":"KBHM","receiptTime":"2026-04-17T14:56:21.341Z","obsTime":1776437580,"reportTime":"2026-04-17T15:00:00.000Z","temp":26.1,"dewp":13.3,"wdir":140,"wspd":5,"visib":"10+","altim":1019.7,"slp":1018.9,"qcField":4,"presTend":1.2,"metarType":"METAR","rawOb":"METAR KBHM 171453Z 14005KT 10SM CLR 26/13 A3011 RMK AO2 SLP189 T02610133 51012","lat":33.5655,"lon":-86.7449,"elev":191,"name":"Birmingham Intl, AL, US","cover":"CLR","clouds":[],"fltCat":"VFR"},{"icaoId":"KBIL","receiptTime":"2026-04-17T14:56:21.356Z","obsTime":1776437580,"reportTime":"2026-04-17T15:00:00.000Z","temp":3.9,"dewp":-6.1,"wdir":290,"wspd":15,"wgst":24,"visib":"10+","altim":1016.3,"slp":1018.3,"qcField":4,"presTend":0.9,"metarType":"METAR","rawOb":"METAR KBIL 171453Z 29015G24KT 10SM FEW065 FEW100 04/M06 A3001 RMK AO2 SLP183 T00391061 53009","lat":45.8072,"lon":-108.5462,"elev":1089,"name":"Billings/Logan Intl, MT, US","cover":"FEW","clouds":[{"cover":"FEW","base":6500},{"cover":"FEW","base":10000}],"fltCat":"VFR"},{"icaoId":"KBLI","receiptTime":"2026-04-17T14:56:21.381Z","obsTime":1776437580,"reportTime":"2026-04-17T15:00:00.000Z","temp":5.6,"dewp":3.9,"wdir":360,"wspd":3,"visib":"10+","altim":1026.8,"slp":1027.4,"qcField":4,"presTend":0.6,"precip":0.005,"pcp3hr":0.005,"metarType":"METAR","rawOb":"METAR KBLI 171453Z 36003KT 10SM SCT055 OVC080 06/04 A3032 RMK AO2 RAB00E37 SLP274 P0000 60000 T00560039 53006","lat":48.7991,"lon":-122.5407,"elev":46,"name":"Bellingham Intl, WA, US","cover":"OVC","clouds":[{"cover":"SCT","base":5500},{"cover":"OVC","base":8000}],"fltCat":"VFR"},{"icaoId":"KBNA","receiptTime":"2026-04-17T14:56:21.394Z","obsTime":1776437580,"reportTime":"2026-04-17T15:00:00.000Z","temp":21.1,"dewp":15,"wdir":210,"wspd":3,"visib":"10+","altim":1019,"slp":1018.3,"qcField":4,"presTend":0.9,"metarType":"METAR","rawOb":"METAR KBNA 171453Z 21003KT 10SM SCT047 BKN250 21/15 A3009 RMK AO2 SLP183 T02110150 53009","lat":36.1105,"lon":-86.6881,"elev":168,"name":"Nashville Intl, TN, US","cover":"BKN","clouds":[{"cover":"SCT","base":4700},{"cover":"BKN","base":25000}],"fltCat":"VFR"},{"icaoId":"KOAK","receiptTime":"2026-04-17T14:56:21.882Z","obsTime":1776437580,"reportTime":"2026-04-17T15:00:00.000Z","temp":12.8,"dewp":-1.1,"wdir":10,"wspd":8,"visib":"10+","altim":1018.4,"slp":1018.3,"qcField":12,"presTend":0.7,"metarType":"METAR","rawOb":"METAR KOAK 171453Z 01008KT 10SM FEW200 13/M01 A3007 RMK AO2 SLP183 T01281011 53007 $","lat":37.7178,"lon":-122.233,"elev":3,"name":"Oakland Intl, CA, US","cover":"FEW","clouds":[{"cover":"FEW","base":20000}],"fltCat":"VFR"},{"icaoId":"KCDC","receiptTime":"2026-04-17T14:56:21.537Z","obsTime":1776437580,"reportTime":"2026-04-17T15:00:00.000Z","temp":-2.8,"dewp":-10.6,"wdir":40,"wspd":16,"wgst":25,"visib":"10+","altim":1022.1,"slp":1022.3,"qcField":6,"presTend":1.6,"metarType":"METAR","rawOb":"METAR KCDC 171453Z AUTO 04016G25KT 10SM CLR M03/M11 A3018 RMK AO2 SLP223 T10281106 53016","lat":37.7067,"lon":-113.097,"elev":1703,"name":"Cedar City Muni, UT, US","cover":"CLR","clouds":[],"fltCat":"VFR"},{"icaoId":"KCNY","receiptTime":"2026-04-17T14:56:21.625Z","obsTime":1776437580,"reportTime":"2026-04-17T15:00:00.000Z","temp":3.3,"dewp":-12.8,"wdir":290,"wspd":22,"wgst":28,"visib":"10+","altim":1019.4,"slp":1017.7,"qcField":14,"presTend":2.5,"metarType":"METAR","rawOb":"METAR KCNY 171453Z AUTO 29022G28KT 10SM CLR 03/M13 A3010 RMK AO2 PK WND 30034/1358 SLP177 T00331128 53025 $","lat":38.7501,"lon":-109.7627,"elev":1392,"name":"Moab/Canyonland Fld, UT, US","cover":"CLR","clouds":[],"fltCat":"VFR"},{"icaoId":"KMOD","receiptTime":"2026-04-17T14:56:21.774Z","obsTime":1776437580,"reportTime":"2026-04-17T15:00:00.000Z","temp":11.1,"dewp":-2.2,"wdir":300,"wspd":12,"visib":"10+","altim":1017.7,"slp":1017.6,"qcField":12,"presTend":1.4,"metarType":"METAR","rawOb":"METAR KMOD 171453Z 30012KT 10SM CLR 11/M02 A3005 RMK AO2 SLP176 T01111022 53014 $","lat":37.6254,"lon":-120.9549,"elev":25,"name":"Modesto/Sham Fld, CA, US","cover":"CLR","clouds":[],"fltCat":"VFR"},{"icaoId":"KMSO","receiptTime":"2026-04-17T14:56:21.817Z","obsTime":1776437580,"reportTime":"2026-04-17T15:00:00.000Z","temp":2.2,"dewp":-2.8,"wdir":140,"wspd":6,"visib":"10+","altim":1020.7,"slp":1023.1,"qcField":4,"presTend":0.9,"metarType":"METAR","rawOb":"METAR KMSO 171453Z 14006KT 10SM OVC049 02/M03 A3014 RMK AO2 SLP231 T00221028 53009","lat":46.9208,"lon":-114.0938,"elev":974,"name":"Missoula Intl, MT, US","cover":"OVC","clouds":[{"cover":"OVC","base":4900}],"fltCat":"VFR"},{"icaoId":"KOGD","receiptTime":"2026-04-17T14:56:21.933Z","obsTime":1776437580,"reportTime":"2026-04-17T15:00:00.000Z","temp":0,"dewp":-6.1,"wdir":140,"wspd":3,"visib":"10+","altim":1023.8,"slp":1024.2,"qcField":4,"presTend":1.9,"metarType":"METAR","rawOb":"METAR KOGD 171453Z 14003KT 10SM CLR 00/M06 A3023 RMK AO2 SLP242 T00001061 53019","lat":41.1941,"lon":-112.0168,"elev":1356,"name":"Ogden/Hinckley Arpt, UT, US","cover":"CLR","clouds":[],"fltCat":"VFR"},{"icaoId":"KYKM","receiptTime":"2026-04-17T14:56:22.039Z","obsTime":1776437580,"reportTime":"2026-04-17T15:00:00.000Z","temp":5,"dewp":-3.3,"wdir":150,"wspd":3,"visib":"10+","altim":1024.8,"slp":1025.4,"qcField":4,"presTend":1,"metarType":"METAR","rawOb":"METAR KYKM 171453Z 15003KT 10SM CLR 05/M03 A3026 RMK AO2 SLP254 T00501033 53010","lat":46.564,"lon":-120.5349,"elev":319,"name":"Yakima/McAllister Fld, WA, US","cover":"CLR","clouds":[],"fltCat":"VFR"},{"icaoId":"KSTS","receiptTime":"2026-04-17T14:56:22.055Z","obsTime":1776437580,"reportTime":"2026-04-17T15:00:00.000Z","temp":7.8,"dewp":1.7,"wdir":0,"wspd":0,"visib":"10+","altim":1018,"slp":1017.1,"qcField":4,"presTend":0.3,"metarType":"METAR","rawOb":"METAR KSTS 171453Z 00000KT 10SM CLR 08/02 A3006 RMK AO2 SLP171 T00780017 53003","lat":38.5037,"lon":-122.811,"elev":35,"name":"Santa Rosa/Schulz Arpt, CA, US","cover":"CLR","clouds":[],"fltCat":"VFR"},{"icaoId":"KCLT","receiptTime":"2026-04-17T14:56:15.015Z","obsTime":1776437520,"reportTime":"2026-04-17T15:00:00.000Z","temp":26.1,"dewp":10.6,"wdir":"VRB","wspd":4,"visib":"10+","altim":1018,"slp":1018.5,"qcField":4,"presTend":1.5,"metarType":"METAR","rawOb":"METAR KCLT 171452Z VRB04KT 10SM FEW050 FEW120 SCT180 SCT250 26/11 A3006 RMK AO2 SLP185 T02610106 51015","lat":35.2225,"lon":-80.9543,"elev":223,"name":"Charlotte/Douglas Intl, NC, US","cover":"SCT","clouds":[{"cover":"FEW","base":5000},{"cover":"FEW","base":12000},{"cover":"SCT","base":18000},{"cover":"SCT","base":25000}],"fltCat":"VFR"},{"icaoId":"KHRL","receiptTime":"2026-04-17T14:56:13.059Z","obsTime":1776437520,"reportTime":"2026-04-17T15:00:00.000Z","temp":27.2,"dewp":21.1,"wdir":150,"wspd":22,"wgst":28,"visib":"10+","altim":1012.3,"slp":1012.1,"qcField":4,"presTend":0.4,"metarType":"METAR","rawOb":"METAR KHRL 171452Z 15022G28KT 10SM SCT023 SCT030 27/21 A2989 RMK AO2 PK WND 15028/1448 SLP121 T02720211 51004","lat":26.2303,"lon":-97.6556,"elev":9,"name":"Harlingen/Valley Intl, TX, US","cover":"SCT","clouds":[{"cover":"SCT","base":2300},{"cover":"SCT","base":3000}],"fltCat":"VFR"},{"icaoId":"KATL","receiptTime":"2026-04-17T14:56:15.005Z","obsTime":1776437520,"reportTime":"2026-04-17T15:00:00.000Z","temp":25,"dewp":10.6,"wdir":320,"wspd":5,"visib":"10+","altim":1019.4,"slp":1018.5,"qcField":12,"presTend":1.4,"metarType":"METAR","rawOb":"METAR KATL 171452Z 32005KT 10SM FEW250 25/11 A3010 RMK AO2 SLP185 T02500106 51014 $","lat":33.6297,"lon":-84.4422,"elev":309,"name":"Atlanta/Hartsfield-Jackson Intl, GA, US","cover":"FEW","clouds":[{"cover":"FEW","base":25000}],"fltCat":"VFR"},{"icaoId":"KABI","receiptTime":"2026-04-17T14:56:05.520Z","obsTime":1776437520,"reportTime":"2026-04-17T15:00:00.000Z","temp":22.8,"dewp":17.2,"wdir":180,"wspd":17,"wgst":25,"visib":"10+","altim":1010.2,"slp":1007.8,"qcField":4,"presTend":0.6,"metarType":"METAR","rawOb":"METAR KABI 171452Z 18017G25KT 10SM FEW027 23/17 A2983 RMK AO2 PK WND 18026/1409 SLP078 T02280172 53006","lat":32.4106,"lon":-99.6821,"elev":543,"name":"Abilene Rgnl, TX, US","cover":"FEW","clouds":[{"cover":"FEW","base":2700}],"fltCat":"VFR"},{"icaoId":"KMKE","receiptTime":"2026-04-17T14:56:14.511Z","obsTime":1776437520,"reportTime":"2026-04-17T15:00:00.000Z","temp":10,"dewp":8.9,"wdir":130,"wspd":7,"visib":"10+","altim":1012.6,"slp":1012.8,"qcField":4,"presTend":-0.7,"metarType":"METAR","rawOb":"METAR KMKE 171452Z 13007KT 10SM FEW003 BKN250 10/09 A2990 RMK AO2 SLP128 T01000089 58007","lat":42.9549,"lon":-87.9045,"elev":203,"name":"Milwaukee/Mitchell Intl, WI, US","cover":"BKN","clouds":[{"cover":"FEW","base":300},{"cover":"BKN","base":25000}],"fltCat":"VFR"},{"icaoId":"KOKC","receiptTime":"2026-04-17T14:56:14.589Z","obsTime":1776437520,"reportTime":"2026-04-17T15:00:00.000Z","temp":21.7,"dewp":18.3,"wdir":180,"wspd":14,"wgst":25,"visib":"10+","altim":1009.6,"slp":1008.1,"qcField":4,"presTend":0.7,"metarType":"METAR","rawOb":"METAR KOKC 171452Z 18014G25KT 10SM BKN020 OVC025 22/18 A2981 RMK AO2 PK WND 18026/1411 SLP081 T02170183 50007","lat":35.3843,"lon":-97.6003,"elev":391,"name":"Oklahoma City/Will Rogers Intl, OK, US","cover":"OVC","clouds":[{"cover":"BKN","base":2000},{"cover":"OVC","base":2500}],"fltCat":"MVFR"},{"icaoId":"KIAD","receiptTime":"2026-04-17T14:56:13.086Z","obsTime":1776437520,"reportTime":"2026-04-17T15:00:00.000Z","temp":25,"dewp":11.7,"wdir":320,"wspd":12,"wgst":23,"visib":"10+","altim":1014,"slp":1013.7,"qcField":4,"presTend":1.3,"metarType":"METAR","rawOb":"METAR KIAD 171452Z 32012G23KT 10SM FEW050 SCT250 25/12 A2994 RMK AO2 SLP137 T02500117 51013","lat":38.9348,"lon":-77.4473,"elev":90,"name":"Washington/Dulles Intl, VA, US","cover":"SCT","clouds":[{"cover":"FEW","base":5000},{"cover":"SCT","base":25000}],"fltCat":"VFR"},{"icaoId":"KABQ","receiptTime":"2026-04-17T14:56:05.533Z","obsTime":1776437520,"reportTime":"2026-04-17T15:00:00.000Z","temp":12.2,"dewp":-11.1,"wdir":140,"wspd":5,"visib":"10+","altim":1014.6,"slp":1008.6,"qcField":4,"presTend":1.6,"metarType":"METAR","rawOb":"METAR KABQ 171452Z 14005KT 10SM FEW120 BKN160 12/M11 A2996 RMK AO2 SLP086 T01221111 52016","lat":35.0419,"lon":-106.6154,"elev":1620,"name":"Albuquerque Intl, NM, US","cover":"BKN","clouds":[{"cover":"FEW","base":12000},{"cover":"BKN","base":16000}],"fltCat":"VFR"},{"icaoId":"KMLF","receiptTime":"2026-04-17T14:56:05.619Z","obsTime":1776437520,"reportTime":"2026-04-17T15:00:00.000Z","temp":0.6,"dewp":-13.3,"wdir":10,"wspd":13,"wgst":17,"visib":"10+","altim":1023.5,"slp":1023.8,"qcField":6,"presTend":1.8,"metarType":"METAR","rawOb":"METAR KMLF 171452Z AUTO 01013G17KT 10SM CLR 01/M13 A3022 RMK AO2 SLP238 T00061133 53018","lat":38.4225,"lon":-113.0109,"elev":1537,"name":"Milford Muni, UT, US","cover":"CLR","clouds":[],"fltCat":"VFR"},{"icaoId":"KDCA","receiptTime":"2026-04-17T14:56:12.899Z","obsTime":1776437520,"reportTime":"2026-04-17T15:00:00.000Z","temp":25,"dewp":12.2,"wdir":330,"wspd":16,"wgst":22,"visib":"10+","altim":1013.6,"slp":1013.6,"qcField":4,"presTend":1.3,"metarType":"METAR","rawOb":"METAR KDCA 171452Z 33016G22KT 10SM FEW050 SCT250 25/12 A2993 RMK AO2 SLP136 T02500122 52013","lat":38.8472,"lon":-77.0345,"elev":4,"name":"Washington/Reagan-National Arpt, VA, US","cover":"SCT","clouds":[{"cover":"FEW","base":5000},{"cover":"SCT","base":25000}],"fltCat":"VFR"},{"icaoId":"KSPS","receiptTime":"2026-04-17T14:56:05.632Z","obsTime":1776437520,"reportTime":"2026-04-17T15:00:00.000Z","temp":23.9,"dewp":17.8,"wdir":180,"wspd":19,"wgst":26,"visib":"10+","altim":1009.2,"slp":1007.9,"qcField":4,"presTend":0.8,"metarType":"METAR","rawOb":"METAR KSPS 171452Z 18019G26KT 10SM FEW023 24/18 A2980 RMK AO2 PK WND 17026/1418 SLP079 T02390178 51008","lat":33.9785,"lon":-98.493,"elev":310,"name":"Wichita Falls Rgnl, TX, US","cover":"FEW","clouds":[{"cover":"FEW","base":2300}],"fltCat":"VFR"},{"icaoId":"KCVG","receiptTime":"2026-04-17T14:56:12.857Z","obsTime":1776437520,"reportTime":"2026-04-17T15:00:00.000Z","temp":21.7,"dewp":12.8,"wdir":140,"wspd":4,"visib":"10+","altim":1017.7,"slp":1016.9,"qcField":4,"presTend":1.4,"metarType":"METAR","rawOb":"METAR KCVG 171452Z 14004KT 10SM BKN300 22/13 A3005 RMK AO2 SLP169 T02170128 51014","lat":39.0444,"lon":-84.6724,"elev":264,"name":"Cincinnati Intl, KY, US","cover":"BKN","clouds":[{"cover":"BKN","base":30000}],"fltCat":"VFR"},{"icaoId":"KCMH","receiptTime":"2026-04-17T14:56:20.231Z","obsTime":1776437460,"reportTime":"2026-04-17T15:00:00.000Z","temp":20,"dewp":13.3,"wdir":"VRB","wspd":6,"visib":"10+","altim":1017.4,"slp":1016.7,"qcField":13,"presTend":1.1,"metarType":"METAR","rawOb":"METAR KCMH 171451Z COR VRB06KT 10SM CLR 20/13 A3004 RMK AO2 SLP167 T02000133 53011 $","lat":39.9907,"lon":-82.877,"elev":257,"name":"Columbus/Glenn Intl, OH, US","cover":"CLR","clouds":[],"fltCat":"VFR"},{"icaoId":"KPVD","receiptTime":"2026-04-17T14:54:23.647Z","obsTime":1776437460,"reportTime":"2026-04-17T15:00:00.000Z","temp":19.4,"dewp":13.9,"wdir":0,"wspd":0,"visib":"10+","altim":1010.9,"slp":1010.6,"qcField":12,"presTend":1.9,"pcp3hr":0.01,"metarType":"METAR","rawOb":"METAR KPVD 171451Z 00000KT 10SM FEW028 BKN036 BKN150 BKN190 19/14 A2985 RMK AO2 SLP106 60001 T01940139 51019 $","lat":41.7225,"lon":-71.4325,"elev":15,"name":"Providence/Green Mem, RI, US","cover":"BKN","clouds":[{"cover":"FEW","base":2800},{"cover":"BKN","base":3600},{"cover":"BKN","base":15000},{"cover":"BKN","base":19000}],"fltCat":"VFR"},{"icaoId":"KRDU","receiptTime":"2026-04-17T14:54:23.675Z","obsTime":1776437460,"reportTime":"2026-04-17T15:00:00.000Z","temp":26.1,"dewp":12.2,"wdir":"VRB","wspd":5,"visib":"10+","altim":1016.7,"slp":1016,"qcField":4,"presTend":1.1,"metarType":"METAR","rawOb":"METAR KRDU 171451Z VRB05KT 10SM FEW044 SCT110 BKN250 26/12 A3002 RMK AO2 SLP160 T02610122 53011","lat":35.8923,"lon":-78.782,"elev":121,"name":"Raleigh-Durham Intl, NC, US","cover":"BKN","clouds":[{"cover":"FEW","base":4400},{"cover":"SCT","base":11000},{"cover":"BKN","base":25000}],"fltCat":"VFR"},{"icaoId":"KSAD","receiptTime":"2026-04-17T14:54:23.698Z","obsTime":1776437460,"reportTime":"2026-04-17T15:00:00.000Z","temp":18.3,"dewp":-8.3,"wdir":0,"wspd":0,"visib":"10+","altim":1014,"slp":1009.6,"qcField":6,"presTend":2.4,"metarType":"METAR","rawOb":"METAR KSAD 171451Z AUTO 00000KT 10SM CLR 18/M08 A2994 RMK AO2 SLP096 T01831083 53024","lat":32.8565,"lon":-109.636,"elev":937,"name":"Safford Rgnl, AZ, US","cover":"CLR","clouds":[],"fltCat":"VFR"},{"icaoId":"KMYL","receiptTime":"2026-04-17T14:54:23.548Z","obsTime":1776437460,"reportTime":"2026-04-17T15:00:00.000Z","temp":-3.3,"dewp":-6.1,"wdir":0,"wspd":0,"visib":"10+","altim":1022.8,"slp":1026.1,"qcField":6,"presTend":0.8,"metarType":"METAR","rawOb":"METAR KMYL 171451Z AUTO 00000KT 10SM CLR M03/M06 A3020 RMK AO2 SLP261 T10331061 53008","lat":44.8943,"lon":-116.0998,"elev":1532,"name":"McCall Muni, ID, US","cover":"CLR","clouds":[],"fltCat":"VFR"},{"icaoId":"KOXR","receiptTime":"2026-04-17T14:54:23.593Z","obsTime":1776437460,"reportTime":"2026-04-17T15:00:00.000Z","temp":13.9,"dewp":5,"wdir":40,"wspd":6,"visib":"10+","altim":1015,"slp":1014.9,"qcField":12,"presTend":1.8,"metarType":"METAR","rawOb":"METAR KOXR 171451Z 04006KT 10SM CLR 14/05 A2997 RMK AO2 SLP149 T01390050 53018 $","lat":34.2001,"lon":-119.2042,"elev":12,"name":"Oxnard Arpt, CA, US","cover":"CLR","clouds":[],"fltCat":"VFR"},{"icaoId":"KORF","receiptTime":"2026-04-17T14:54:23.575Z","obsTime":1776437460,"reportTime":"2026-04-17T15:00:00.000Z","temp":25.6,"dewp":13.9,"wdir":350,"wspd":6,"visib":"10+","altim":1014.3,"slp":1014.1,"qcField":4,"presTend":1.4,"metarType":"METAR","rawOb":"METAR KORF 171451Z 35006KT 10SM CLR 26/14 A2995 RMK AO2 SLP141 T02560139 51014","lat":36.9037,"lon":-76.1927,"elev":5,"name":"Norfolk Intl, VA, US","cover":"CLR","clouds":[],"fltCat":"VFR"},{"icaoId":"KCRP","receiptTime":"2026-04-17T14:54:23.272Z","obsTime":1776437460,"reportTime":"2026-04-17T15:00:00.000Z","temp":26.1,"dewp":21.7,"wdir":160,"wspd":18,"visib":"10+","altim":1013,"slp":1012.6,"qcField":12,"presTend":1.2,"metarType":"METAR","rawOb":"METAR KCRP 171451Z 16018KT 10SM SCT015 BKN025 OVC032 26/22 A2991 RMK AO2 SLP126 T02610217 51012 $","lat":27.7734,"lon":-97.513,"elev":11,"name":"Corpus Christi Intl, TX, US","cover":"OVC","clouds":[{"cover":"SCT","base":1500},{"cover":"BKN","base":2500},{"cover":"OVC","base":3200}],"fltCat":"MVFR"},{"icaoId":"KBDL","receiptTime":"2026-04-17T14:54:23.148Z","obsTime":1776437460,"reportTime":"2026-04-17T15:00:00.000Z","temp":21.1,"dewp":15,"wdir":10,"wspd":6,"visib":"10+","altim":1010.9,"slp":1010.5,"qcField":4,"presTend":1.5,"metarType":"METAR","rawOb":"METAR KBDL 171451Z 01006KT 10SM FEW023 BKN031TCU BKN060 21/15 A2985 RMK AO2 SLP105 TCU S-W T02110150 51015","lat":41.9374,"lon":-72.682,"elev":52,"name":"Hartford/Bradley Intl, CT, US","cover":"BKN","clouds":[{"cover":"FEW","base":2300},{"cover":"BKN","base":3100},{"cover":"BKN","base":6000}],"fltCat":"VFR"},{"icaoId":"KLGU","receiptTime":"2026-04-17T14:54:23.507Z","obsTime":1776437460,"reportTime":"2026-04-17T15:00:00.000Z","temp":-2.2,"dewp":-5,"wdir":0,"wspd":0,"visib":"10+","altim":1023.8,"slp":1025.7,"qcField":6,"presTend":2,"metarType":"METAR","rawOb":"METAR KLGU 171451Z AUTO 00000KT 10SM CLR M02/M05 A3023 RMK AO2 SLP257 I3001 T10221050 53020","lat":41.7865,"lon":-111.8519,"elev":1359,"name":"Logan/Cache Arpt, UT, US","cover":"CLR","clouds":[],"fltCat":"VFR"},{"icaoId":"KPHX","receiptTime":"2026-04-17T14:54:23.607Z","obsTime":1776437460,"reportTime":"2026-04-17T15:00:00.000Z","temp":20.6,"dewp":0,"wdir":70,"wspd":6,"visib":"10+","altim":1012.3,"slp":1010.7,"qcField":12,"presTend":2.5,"metarType":"METAR","rawOb":"METAR KPHX 171451Z 07006KT 10SM FEW200 21/00 A2989 RMK AO2 SLP107 T02060000 53025 $","lat":33.4278,"lon":-112.0037,"elev":338,"name":"Phoenix/Sky Harbor Intl, AZ, US","cover":"FEW","clouds":[{"cover":"FEW","base":20000}],"fltCat":"VFR"},{"icaoId":"KROW","receiptTime":"2026-04-17T14:54:23.687Z","obsTime":1776437460,"reportTime":"2026-04-17T15:00:00.000Z","temp":18.3,"dewp":-5.6,"wdir":360,"wspd":4,"visib":"10+","altim":1010.9,"slp":1005.5,"qcField":12,"presTend":1.1,"metarType":"METAR","rawOb":"METAR KROW 171451Z 36004KT 10SM CLR 18/M06 A2985 RMK AO2 SLP055 T01831056 51011 $","lat":33.3074,"lon":-104.5082,"elev":1105,"name":"Roswell/Ind Arpt, NM, US","cover":"CLR","clouds":[],"fltCat":"VFR"},{"icaoId":"KSAN","receiptTime":"2026-04-17T14:54:23.710Z","obsTime":1776437460,"reportTime":"2026-04-17T15:00:00.000Z","temp":16.1,"dewp":8.9,"wdir":130,"wspd":8,"visib":"10+","altim":1016,"slp":1015.7,"qcField":12,"presTend":1.7,"metarType":"METAR","rawOb":"METAR KSAN 171451Z 13008KT 10SM BKN029 16/09 A3000 RMK AO2 SLP157 T01610089 53017 $","lat":32.7364,"lon":-117.1973,"elev":3,"name":"San Diego Intl Arpt, CA, US","cover":"BKN","clouds":[{"cover":"BKN","base":2900}],"fltCat":"MVFR"},{"icaoId":"KSAT","receiptTime":"2026-04-17T14:54:23.733Z","obsTime":1776437460,"reportTime":"2026-04-17T15:00:00.000Z","temp":23.9,"dewp":19.4,"wdir":170,"wspd":13,"visib":"10+","altim":1013,"slp":1011.1,"qcField":4,"presTend":0.7,"metarType":"METAR","rawOb":"METAR KSAT 171451Z 17013KT 10SM BKN020 BKN250 24/19 A2991 RMK AO2 SLP111 T02390194 53007","lat":29.5443,"lon":-98.4839,"elev":246,"name":"San Antonio Intl, TX, US","cover":"BKN","clouds":[{"cover":"BKN","base":2000},{"cover":"BKN","base":25000}],"fltCat":"MVFR"},{"icaoId":"KPIT","receiptTime":"2026-04-17T14:54:23.630Z","obsTime":1776437460,"reportTime":"2026-04-17T15:00:00.000Z","temp":15.6,"dewp":12.2,"wdir":20,"wspd":6,"visib":"10+","altim":1017.4,"slp":1017.7,"qcField":4,"presTend":1.7,"metarType":"METAR","rawOb":"METAR KPIT 171451Z 02006KT 10SM OVC012 16/12 A3004 RMK AO2 SLP177 T01560122 51017","lat":40.4814,"lon":-80.2083,"elev":339,"name":"Pittsburgh Intl, PA, US","cover":"OVC","clouds":[{"cover":"OVC","base":1200}],"fltCat":"MVFR"},{"icaoId":"KIGM","receiptTime":"2026-04-17T14:54:23.429Z","obsTime":1776437460,"reportTime":"2026-04-17T15:00:00.000Z","temp":10,"dewp":-12.2,"wdir":350,"wspd":18,"wgst":29,"visib":"10+","altim":1019,"slp":1014.4,"qcField":14,"presTend":3.5,"metarType":"METAR","rawOb":"METAR KIGM 171451Z AUTO 35018G29KT 10SM CLR 10/M12 A3009 RMK AO2 PK WND 35029/1434 SLP144 T01001122 53035 $","lat":35.2575,"lon":-113.9341,"elev":1045,"name":"Kingman Arpt, AZ, US","cover":"CLR","clouds":[],"fltCat":"VFR"},{"icaoId":"KSTL","receiptTime":"2026-04-17T14:54:23.795Z","obsTime":1776437460,"reportTime":"2026-04-17T15:00:00.000Z","temp":22.8,"dewp":17.2,"wdir":190,"wspd":12,"visib":"10+","altim":1013,"slp":1011.7,"qcField":12,"metarType":"METAR","rawOb":"METAR KSTL 171451Z 19012KT 10SM SCT055 BKN250 23/17 A2991 RMK AO2 SLP117 T02280172 58000 $","lat":38.7525,"lon":-90.3734,"elev":163,"name":"St Louis/Lambert Intl, MO, US","cover":"BKN","clouds":[{"cover":"SCT","base":5500},{"cover":"BKN","base":25000}],"fltCat":"VFR"},{"icaoId":"KORD","receiptTime":"2026-04-17T14:54:23.562Z","obsTime":1776437460,"reportTime":"2026-04-17T15:00:00.000Z","temp":20,"dewp":13.3,"wdir":150,"wspd":9,"visib":"10+","altim":1012.6,"slp":1012.3,"qcField":12,"presTend":-0.6,"metarType":"METAR","rawOb":"METAR KORD 171451Z 15009KT 10SM BKN250 20/13 A2990 RMK AO2 SLP123 T02000133 58006 $","lat":41.9602,"lon":-87.9316,"elev":202,"name":"Chicago/O'Hare Intl, IL, US","cover":"BKN","clouds":[{"cover":"BKN","base":25000}],"fltCat":"VFR"},{"icaoId":"KCLE","receiptTime":"2026-04-17T14:54:23.222Z","obsTime":1776437460,"reportTime":"2026-04-17T15:00:00.000Z","temp":17.8,"dewp":8.3,"wdir":"VRB","wspd":3,"visib":"10+","altim":1016.7,"slp":1017.8,"qcField":12,"presTend":0.9,"metarType":"METAR","rawOb":"METAR KCLE 171451Z VRB03KT 10SM CLR 18/08 A3002 RMK AO2 SLP178 T01780083 51009 $","lat":41.4057,"lon":-81.8519,"elev":237,"name":"Cleveland/Hopkins Intl, OH, US","cover":"CLR","clouds":[],"fltCat":"VFR"},{"icaoId":"KEWR","receiptTime":"2026-04-17T14:54:23.363Z","obsTime":1776437460,"reportTime":"2026-04-17T15:00:00.000Z","temp":24.4,"dewp":13.3,"wdir":320,"wspd":4,"visib":"10+","altim":1010.9,"slp":1010.8,"qcField":4,"presTend":0.7,"metarType":"METAR","rawOb":"METAR KEWR 171451Z 32004KT 10SM BKN050 BKN120 BKN250 24/13 A2985 RMK AO2 SLP108 T02440133 51007","lat":40.6828,"lon":-74.1692,"elev":2,"name":"Newark Intl, NJ, US","cover":"BKN","clouds":[{"cover":"BKN","base":5000},{"cover":"BKN","base":12000},{"cover":"BKN","base":25000}],"fltCat":"VFR"},{"icaoId":"KELP","receiptTime":"2026-04-17T14:54:23.337Z","obsTime":1776437460,"reportTime":"2026-04-17T15:00:00.000Z","temp":21.7,"dewp":-3.3,"wdir":220,"wspd":8,"visib":"10+","altim":1014,"slp":1007.1,"qcField":4,"presTend":1.4,"metarType":"METAR","rawOb":"METAR KELP 171451Z 22008KT 10SM FEW140 FEW250 22/M03 A2994 RMK AO2 SLP071 T02171033 53014","lat":31.8123,"lon":-106.3774,"elev":1205,"name":"El Paso Intl, TX, US","cover":"FEW","clouds":[{"cover":"FEW","base":14000},{"cover":"FEW","base":25000}],"fltCat":"VFR"},{"icaoId":"KVNY","receiptTime":"2026-04-17T14:54:23.865Z","obsTime":1776437460,"reportTime":"2026-04-17T15:00:00.000Z","temp":13.9,"dewp":8.3,"wdir":20,"wspd":3,"visib":"10+","altim":1015.3,"slp":1014.7,"qcField":12,"presTend":1.9,"metarType":"METAR","rawOb":"METAR KVNY 171451Z 02003KT 10SM CLR 14/08 A2998 RMK AO2 SLP147 T01390083 53019 $","lat":34.2121,"lon":-118.4915,"elev":241,"name":"Van Nuys Arpt, CA, US","cover":"CLR","clouds":[],"fltCat":"VFR"},{"icaoId":"KLGA","receiptTime":"2026-04-17T14:54:23.491Z","obsTime":1776437460,"reportTime":"2026-04-17T15:00:00.000Z","temp":23.3,"dewp":15,"wdir":50,"wspd":4,"visib":"10+","altim":1010.6,"slp":1010.5,"qcField":4,"presTend":0.8,"metarType":"METAR","rawOb":"METAR KLGA 171451Z 05004KT 10SM SCT050 SCT060 BKN250 23/15 A2984 RMK AO2 SLP105 T02330150 51008","lat":40.7794,"lon":-73.8803,"elev":9,"name":"New York/La Guardia Arpt, NY, US","cover":"BKN","clouds":[{"cover":"SCT","base":5000},{"cover":"SCT","base":6000},{"cover":"BKN","base":25000}],"fltCat":"VFR"},{"icaoId":"KJFK","receiptTime":"2026-04-17T14:54:23.478Z","obsTime":1776437460,"reportTime":"2026-04-17T15:00:00.000Z","temp":22.8,"dewp":14.4,"wdir":310,"wspd":3,"visib":"10+","altim":1011.3,"slp":1011,"qcField":4,"presTend":0.8,"metarType":"METAR","rawOb":"METAR KJFK 171451Z 31003KT 10SM SCT039 BKN050 BKN110 BKN250 23/14 A2986 RMK AO2 SLP110 T02280144 53008","lat":40.6392,"lon":-73.7639,"elev":3,"name":"New York/JF Kennedy Intl, NY, US","cover":"BKN","clouds":[{"cover":"SCT","base":3900},{"cover":"BKN","base":5000},{"cover":"BKN","base":11000},{"cover":"BKN","base":25000}],"fltCat":"VFR"},{"icaoId":"KACT","receiptTime":"2026-04-17T14:54:23.056Z","obsTime":1776437460,"reportTime":"2026-04-17T15:00:00.000Z","temp":23.9,"dewp":19.4,"wdir":180,"wspd":17,"wgst":24,"visib":"10+","altim":1012.6,"slp":1011.8,"qcField":4,"presTend":0.3,"metarType":"METAR","rawOb":"METAR KACT 171451Z 18017G24KT 10SM SCT019 BKN027 BKN033 24/19 A2990 RMK AO2 SLP118 T02390194 51003","lat":31.618,"lon":-97.2283,"elev":150,"name":"Waco Rgnl, TX, US","cover":"BKN","clouds":[{"cover":"SCT","base":1900},{"cover":"BKN","base":2700},{"cover":"BKN","base":3300}],"fltCat":"MVFR"},{"icaoId":"KHOB","receiptTime":"2026-04-17T14:53:36.205Z","obsTime":1776437400,"reportTime":"2026-04-17T15:00:00.000Z","temp":17,"dewp":17,"wdir":180,"wspd":8,"visib":"10+","altim":1011.9,"qcField":0,"metarType":"METAR","rawOb":"METAR KHOB 171450Z 18008KT 10SM CLR 17/17 A2988","lat":32.6797,"lon":-103.2222,"elev":1112,"name":"Hobbs Arpt, NM, US","cover":"CLR","clouds":[],"fltCat":"VFR"},{"icaoId":"KAEG","receiptTime":"2026-04-17T14:50:27.081Z","obsTime":1776437400,"reportTime":"2026-04-17T15:00:00.000Z","temp":11,"dewp":-13,"wdir":190,"wspd":5,"visib":"10+","altim":1015,"qcField":0,"metarType":"METAR","rawOb":"METAR KAEG 171450Z 19005KT 10SM CLR 11/M13 A2997","lat":35.15,"lon":-106.7929,"elev":1771,"name":"Albuquerque/Double Eagle Arpt, NM, US","cover":"CLR","clouds":[],"fltCat":"VFR"},{"icaoId":"KGEU","receiptTime":"2026-04-17T14:51:01.327Z","obsTime":1776437400,"reportTime":"2026-04-17T15:00:00.000Z","temp":21,"dewp":1,"wdir":200,"wspd":6,"visib":"10+","altim":1011.6,"qcField":0,"metarType":"METAR","rawOb":"METAR KGEU 171450Z 20006KT 10SM CLR 21/01 A2987","lat":33.528,"lon":-112.293,"elev":319,"name":"Glendale Muni, AZ, US","cover":"CLR","clouds":[],"fltCat":"VFR"},{"icaoId":"KIWA","receiptTime":"2026-04-17T14:51:33.024Z","obsTime":1776437400,"reportTime":"2026-04-17T15:00:00.000Z","temp":19,"dewp":-1,"wdir":120,"wspd":11,"visib":"10+","altim":1013.3,"qcField":0,"metarType":"METAR","rawOb":"METAR KIWA 171450Z 12011KT 10SM CLR 19/M01 A2992","lat":33.3008,"lon":-111.6437,"elev":420,"name":"Phoenix/Mesa Gateway Arpt, AZ, US","cover":"CLR","clouds":[],"fltCat":"VFR"},{"icaoId":"KADM","receiptTime":"2026-04-17T14:55:48.012Z","obsTime":1776437400,"reportTime":"2026-04-17T15:00:00.000Z","temp":22,"dewp":19,"wdir":180,"wspd":12,"wgst":18,"visib":"10+","altim":1011.3,"qcField":0,"metarType":"METAR","rawOb":"METAR KADM 171450Z 18012G18KT 10SM BKN020 OVC060 22/19 A2986","lat":34.3007,"lon":-97.0089,"elev":223,"name":"Ardmore Muni, OK, US","cover":"OVC","clouds":[{"cover":"BKN","base":2000},{"cover":"OVC","base":6000}],"fltCat":"MVFR"},{"icaoId":"KGYR","receiptTime":"2026-04-17T14:48:20.758Z","obsTime":1776437220,"reportTime":"2026-04-17T15:00:00.000Z","temp":18,"dewp":0,"wdir":250,"wspd":7,"visib":"10+","altim":1011.3,"qcField":0,"metarType":"METAR","rawOb":"METAR KGYR 171447Z 25007KT 10SM SKC 18/00 A2986","lat":33.428,"lon":-112.368,"elev":292,"name":"Phoenix/Goodyear Muni, AZ, US","cover":"SKC","clouds":[],"fltCat":"VFR"},{"icaoId":"KSUN","receiptTime":"2026-04-17T14:53:34.521Z","obsTime":1776437220,"reportTime":"2026-04-17T15:00:00.000Z","temp":-3,"dewp":-12,"wdir":310,"wspd":8,"visib":"10+","altim":1022.8,"qcField":0,"metarType":"METAR","rawOb":"METAR KSUN 171447Z 31008KT 10SM CLR M03/M12 A3020","lat":43.4969,"lon":-114.2923,"elev":1619,"name":"Hailey/Friedman Mem, ID, US","cover":"CLR","clouds":[],"fltCat":"VFR"},{"icaoId":"KIFP","receiptTime":"2026-04-17T14:48:20.894Z","obsTime":1776437220,"reportTime":"2026-04-17T15:00:00.000Z","temp":16,"dewp":-10,"wdir":350,"wspd":34,"wgst":45,"visib":"10+","altim":1016.3,"qcField":0,"metarType":"METAR","rawOb":"METAR KIFP 171447Z 35034G45KT 10SM CLR 16/M10 A3001","lat":35.1487,"lon":-114.5611,"elev":210,"name":"Bullhead City Intl, AZ, US","cover":"CLR","clouds":[],"fltCat":"VFR"},{"icaoId":"KCHD","receiptTime":"2026-04-17T14:45:40.558Z","obsTime":1776437220,"reportTime":"2026-04-17T15:00:00.000Z","temp":20,"dewp":1,"wdir":0,"wspd":0,"visib":"10+","altim":1012.6,"qcField":0,"metarType":"METAR","rawOb":"METAR KCHD 171447Z 00000KT 10SM CLR 20/01 A2990","lat":33.2669,"lon":-111.8086,"elev":378,"name":"Chandler Muni, AZ, US","cover":"CLR","clouds":[],"fltCat":"VFR"},{"icaoId":"KBJC","receiptTime":"2026-04-17T14:46:11.535Z","obsTime":1776437100,"reportTime":"2026-04-17T15:00:00.000Z","temp":4,"dewp":-7,"wdir":110,"wspd":16,"visib":"10+","altim":1012.6,"qcField":0,"metarType":"METAR","rawOb":"METAR KBJC 171445Z 11016KT 10SM BKN038 BKN048 04/M07 A2990","lat":39.9008,"lon":-105.1042,"elev":1694,"name":"Rocky Mtn Metro, CO, US","cover":"BKN","clouds":[{"cover":"BKN","base":3800},{"cover":"BKN","base":4800}],"fltCat":"VFR"},{"icaoId":"KRYN","receiptTime":"2026-04-17T14:46:11.581Z","obsTime":1776437100,"reportTime":"2026-04-17T15:00:00.000Z","temp":18,"dewp":-4,"wdir":0,"wspd":0,"visib":"10+","altim":1014,"qcField":0,"metarType":"METAR","rawOb":"METAR KRYN 171445Z 00000KT 10SM CLR 18/M04 A2994","lat":32.1418,"lon":-111.1767,"elev":731,"name":"Tucson/Ryan Fld, AZ, US","cover":"CLR","clouds":[],"fltCat":"VFR"}]