[{"icaoId":"KACV","receiptTime":"2026-04-15T15:08:19.020Z","obsTime":1776265500,"reportTime":"2026-04-15T15:05:00.000Z","temp":8.9,"dewp":7.8,"wdir":120,"wspd":7,"visib":2.5,"altim":1019,"qcField":6,"wxString":"-RA BR","precip":0.01,"metarType":"SPECI","rawOb":"SPECI KACV 151505Z AUTO 12007KT 2 1/2SM -RA BR FEW024 BKN032 OVC045 09/08 A3009 RMK AO2 P0001 T00890078","lat":40.9784,"lon":-124.1048,"elev":63,"name":"Arcata Arpt, CA, US","cover":"OVC","clouds":[{"cover":"FEW","base":2400},{"cover":"BKN","base":3200},{"cover":"OVC","base":4500}],"fltCat":"IFR"},{"icaoId":"KMYL","receiptTime":"2026-04-15T15:08:19.320Z","obsTime":1776265440,"reportTime":"2026-04-15T15:04:00.000Z","temp":0.6,"dewp":0,"wdir":150,"wspd":7,"visib":1.25,"altim":1009.2,"qcField":6,"wxString":"-SN BR","precip":0.01,"metarType":"SPECI","rawOb":"SPECI KMYL 151504Z AUTO 15007KT 1 1/4SM -SN BR OVC014 01/00 A2980 RMK AO2 P0001 T00060000","lat":44.8943,"lon":-116.0998,"elev":1532,"name":"McCall Muni, ID, US","cover":"OVC","clouds":[{"cover":"OVC","base":1400}],"fltCat":"IFR"},{"icaoId":"KMOD","receiptTime":"2026-04-15T15:06:04.914Z","obsTime":1776265320,"reportTime":"2026-04-15T15:02:00.000Z","temp":11.1,"dewp":7.2,"wdir":310,"wspd":3,"visib":"10+","altim":1018.7,"qcField":4,"metarType":"SPECI","rawOb":"SPECI KMOD 151502Z 31003KT 10SM FEW003 11/07 A3008 RMK AO2 T01110072","lat":37.6254,"lon":-120.9549,"elev":25,"name":"Modesto/Sham Fld, CA, US","cover":"FEW","clouds":[{"cover":"FEW","base":300}],"fltCat":"VFR"},{"icaoId":"KMFE","receiptTime":"2026-04-15T15:04:07.353Z","obsTime":1776265200,"reportTime":"2026-04-15T15:00:00.000Z","temp":27.8,"dewp":21.7,"wdir":140,"wspd":16,"visib":"10+","altim":1014,"qcField":4,"metarType":"SPECI","rawOb":"SPECI KMFE 151500Z 14016KT 10SM SCT019 BKN024 BKN037 28/22 A2994 RMK AO2 T02780217","lat":26.1791,"lon":-98.2445,"elev":29,"name":"McAllen/Miller Intl, TX, US","cover":"BKN","clouds":[{"cover":"SCT","base":1900},{"cover":"BKN","base":2400},{"cover":"BKN","base":3700}],"fltCat":"MVFR"},{"icaoId":"KNFL","receiptTime":"2026-04-15T15:01:00.897Z","obsTime":1776265020,"reportTime":"2026-04-15T15:00:00.000Z","temp":8.9,"dewp":-1.7,"wdir":150,"wspd":7,"visib":"10+","altim":1016,"slp":1013,"qcField":4,"metarType":"METAR","rawOb":"METAR KNFL 151457Z 15007KT 10SM FEW070 SCT100 SCT150 BKN200 BKN250 09/M02 A3000 RMK AO2 SLP130 ACSL DSNT ALQDS T00891017 53000","lat":39.417,"lon":-118.705,"elev":1199,"name":"Fallon , NV, US","cover":"BKN","clouds":[{"cover":"FEW","base":7000},{"cover":"SCT","base":10000},{"cover":"SCT","base":15000},{"cover":"BKN","base":20000}],"fltCat":"VFR"},{"icaoId":"KFLG","receiptTime":"2026-04-15T15:00:59.364Z","obsTime":1776265020,"reportTime":"2026-04-15T15:00:00.000Z","temp":5,"dewp":-2.8,"wdir":0,"wspd":0,"visib":"10+","altim":1021.4,"slp":1017.4,"qcField":4,"presTend":1.3,"metarType":"METAR","rawOb":"METAR KFLG 151457Z 00000KT 10SM CLR 05/M03 A3016 RMK AO2 SLP174 T00501028 51013","lat":35.1443,"lon":-111.6664,"elev":2134,"name":"Flagstaff/Pulliam Arpt, AZ, US","cover":"CLR","clouds":[],"fltCat":"VFR"},{"icaoId":"KSFO","receiptTime":"2026-04-15T15:10:04.902Z","obsTime":1776264960,"reportTime":"2026-04-15T15:00:00.000Z","temp":12.2,"dewp":7.8,"wdir":280,"wspd":10,"visib":"10+","altim":1019.4,"slp":1019.4,"qcField":13,"presTend":0.8,"metarType":"METAR","rawOb":"METAR KSFO 151456Z COR 28010KT 10SM FEW017 BKN200 12/08 A3010 RMK AO2 SLP194 T01220078 53008 $","lat":37.6196,"lon":-122.3656,"elev":2,"name":"San Francisco Intl, CA, US","cover":"BKN","clouds":[{"cover":"FEW","base":1700},{"cover":"BKN","base":20000}],"fltCat":"VFR"},{"icaoId":"KJAC","receiptTime":"2026-04-15T14:58:32.484Z","obsTime":1776264960,"reportTime":"2026-04-15T15:00:00.000Z","temp":1.7,"dewp":0,"wdir":240,"wspd":7,"visib":"10+","altim":1013,"slp":1014.3,"qcField":4,"precip":0.005,"pcp3hr":0.005,"metarType":"METAR","rawOb":"METAR KJAC 151456Z 24007KT 10SM OVC045 02/00 A2991 RMK AO2 RAE49 SLP143 P0000 60000 T00170000 50000","lat":43.6129,"lon":-110.7366,"elev":1967,"name":"Jackson Hole Arpt, WY, US","cover":"OVC","clouds":[{"cover":"OVC","base":4500}],"fltCat":"VFR"},{"icaoId":"KSDY","receiptTime":"2026-04-15T14:58:41.132Z","obsTime":1776264960,"reportTime":"2026-04-15T15:00:00.000Z","temp":12.8,"dewp":-2.2,"wdir":310,"wspd":11,"visib":"10+","altim":1005.2,"slp":1005.6,"qcField":14,"presTend":1.1,"metarType":"METAR","rawOb":"METAR KSDY 151456Z AUTO 31011KT 10SM BKN100 13/M02 A2968 RMK AO2 SLP056 T01281022 51011 $","lat":47.7029,"lon":-104.1951,"elev":600,"name":"Sidney/Richland Muni, MT, US","cover":"BKN","clouds":[{"cover":"BKN","base":10000}],"fltCat":"VFR"},{"icaoId":"KHND","receiptTime":"2026-04-15T14:58:31.779Z","obsTime":1776264960,"reportTime":"2026-04-15T15:00:00.000Z","temp":15.6,"dewp":-5,"wdir":230,"wspd":11,"visib":"10+","altim":1017.4,"slp":1017.4,"qcField":12,"presTend":1.1,"metarType":"METAR","rawOb":"METAR KHND 151456Z 23011KT 10SM CLR 16/M05 A3004 RMK AO2 SLP174 T01561050 53011 $","lat":35.9657,"lon":-115.1343,"elev":740,"name":"Henderson Exec, NV, US","cover":"CLR","clouds":[],"fltCat":"VFR"},{"icaoId":"KFNL","receiptTime":"2026-04-15T14:58:33.209Z","obsTime":1776264960,"reportTime":"2026-04-15T15:00:00.000Z","temp":10.6,"dewp":-2.2,"wdir":110,"wspd":9,"visib":"10+","altim":1012.3,"slp":1009.2,"qcField":12,"presTend":0.4,"metarType":"METAR","rawOb":"METAR KFNL 151456Z 11009KT 10SM CLR 11/M02 A2989 RMK AO2 SLP092 T01061022 50004 $","lat":40.4427,"lon":-105.0097,"elev":1529,"name":"Fort Collins/N Colorado Rgnl, CO, US","cover":"CLR","clouds":[],"fltCat":"VFR"},{"icaoId":"KCGZ","receiptTime":"2026-04-15T14:58:31.326Z","obsTime":1776264960,"reportTime":"2026-04-15T15:00:00.000Z","temp":15.6,"dewp":-3.9,"wdir":170,"wspd":4,"visib":"10+","qcField":14,"metarType":"METAR","rawOb":"METAR KCGZ 151456Z AUTO 17004KT 10SM CLR 16/M04 RMK AO2 SLPNO 6//// T01561039 $","lat":32.9531,"lon":-111.7725,"elev":444,"name":"Casa Granda Muni, AZ, US","cover":"CLR","clouds":[],"fltCat":"VFR"},{"icaoId":"KJAX","receiptTime":"2026-04-15T15:00:15.285Z","obsTime":1776264960,"reportTime":"2026-04-15T15:00:00.000Z","temp":25,"dewp":14.4,"wdir":"VRB","wspd":5,"visib":"10+","altim":1022.8,"slp":1022.7,"qcField":12,"presTend":0.8,"metarType":"METAR","rawOb":"METAR KJAX 151456Z VRB05KT 10SM FEW040 FEW250 25/14 A3020 RMK AO2 SLP227 T02500144 53008 $","lat":30.4953,"lon":-81.6937,"elev":8,"name":"Jacksonville Intl, FL, US","cover":"FEW","clouds":[{"cover":"FEW","base":4000},{"cover":"FEW","base":25000}],"fltCat":"VFR"},{"icaoId":"KENV","receiptTime":"2026-04-15T14:58:35.662Z","obsTime":1776264960,"reportTime":"2026-04-15T15:00:00.000Z","temp":10,"dewp":-4.4,"wdir":60,"wspd":5,"visib":"10+","altim":1014.6,"slp":1013.5,"qcField":6,"presTend":0.4,"metarType":"METAR","rawOb":"METAR KENV 151456Z AUTO 06005KT 10SM CLR 10/M04 A2996 RMK AO2 SLP135 T01001044 53004","lat":40.7211,"lon":-114.0312,"elev":1291,"name":"Wendover Arpt, UT, US","cover":"CLR","clouds":[],"fltCat":"VFR"},{"icaoId":"KPWT","receiptTime":"2026-04-15T14:58:27.287Z","obsTime":1776264960,"reportTime":"2026-04-15T15:00:00.000Z","temp":3.9,"dewp":2.8,"wdir":40,"wspd":6,"visib":"10+","altim":1009.9,"slp":1010.4,"qcField":14,"wxString":"-RA","presTend":1,"metarType":"METAR","rawOb":"METAR KPWT 151456Z AUTO 04006KT 10SM -RA SCT016 BKN023 BKN029 04/03 A2982 RMK AO2 RAB33 SLP104 6//// T00390028 53010 PNO $","lat":47.4942,"lon":-122.7594,"elev":143,"name":"Bremerton Arpt, WA, US","cover":"BKN","clouds":[{"cover":"SCT","base":1600},{"cover":"BKN","base":2300},{"cover":"BKN","base":2900}],"fltCat":"MVFR"},{"icaoId":"KRDM","receiptTime":"2026-04-15T15:00:09.307Z","obsTime":1776264960,"reportTime":"2026-04-15T15:00:00.000Z","temp":7.2,"dewp":1.1,"wdir":200,"wspd":19,"wgst":31,"visib":"10+","altim":1006.5,"slp":1006.4,"qcField":4,"presTend":-1.6,"metarType":"METAR","rawOb":"METAR KRDM 151456Z 20019G31KT 10SM SCT055 OVC075 07/01 A2972 RMK AO2 PK WND 19031/1410 SLP064 T00720011 56016","lat":44.2558,"lon":-121.1407,"elev":930,"name":"Redmond Muni, OR, US","cover":"OVC","clouds":[{"cover":"SCT","base":5500},{"cover":"OVC","base":7500}],"fltCat":"VFR"},{"icaoId":"KCOD","receiptTime":"2026-04-15T14:58:31.493Z","obsTime":1776264960,"reportTime":"2026-04-15T15:00:00.000Z","temp":9.4,"dewp":-5,"wdir":250,"wspd":4,"visib":"10+","altim":1009.9,"slp":1008,"qcField":14,"presTend":0.3,"metarType":"METAR","rawOb":"METAR KCOD 151456Z AUTO 25004KT 10SM BKN075 09/M05 A2982 RMK AO2 SLP080 T00941050 50003 $","lat":44.52,"lon":-109.0268,"elev":1550,"name":"Cody/Yellowstone Rgnl, WY, US","cover":"BKN","clouds":[{"cover":"BKN","base":7500}],"fltCat":"VFR"},{"icaoId":"KPVU","receiptTime":"2026-04-15T14:58:40.680Z","obsTime":1776264960,"reportTime":"2026-04-15T15:00:00.000Z","temp":9.4,"dewp":-1.1,"wdir":150,"wspd":10,"visib":"10+","altim":1017,"slp":1015.2,"qcField":4,"presTend":0.4,"metarType":"METAR","rawOb":"METAR KPVU 151456Z 15010KT 10SM CLR 09/M01 A3003 RMK AO2 SLP152 T00941011 53004","lat":40.224,"lon":-111.7252,"elev":1370,"name":"Provo Muni, UT, US","cover":"CLR","clouds":[],"fltCat":"VFR"},{"icaoId":"KHDN","receiptTime":"2026-04-15T14:58:33.856Z","obsTime":1776264960,"reportTime":"2026-04-15T15:00:00.000Z","temp":3.9,"dewp":1.1,"wdir":90,"wspd":6,"visib":"10+","altim":1018.4,"slp":1017.8,"qcField":6,"presTend":0.8,"metarType":"METAR","rawOb":"METAR KHDN 151456Z AUTO 09006KT 10SM OVC065 04/01 A3007 RMK AO2 SLP178 T00390011 51008","lat":40.4842,"lon":-107.2296,"elev":2012,"name":"Hayden/Yampa Valley Arpt, CO, US","cover":"OVC","clouds":[{"cover":"OVC","base":6500}],"fltCat":"VFR"},{"icaoId":"KGUC","receiptTime":"2026-04-15T14:58:33.732Z","obsTime":1776264960,"reportTime":"2026-04-15T15:00:00.000Z","temp":1.7,"dewp":-1.7,"wdir":"VRB","wspd":3,"visib":"10+","altim":1020.1,"slp":1019.4,"qcField":78,"presTend":0.6,"precip":0.005,"pcp3hr":0.005,"metarType":"METAR","rawOb":"METAR KGUC 151456Z AUTO VRB03KT 10SM BKN011 OVC070 02/M02 A3012 RMK AO2 UPE07 SLP194 P0000 60000 T00171017 51006 FZRANO $","lat":38.5322,"lon":-106.9419,"elev":2337,"name":"Gunnison Arpt, CO, US","cover":"OVC","clouds":[{"cover":"BKN","base":1100},{"cover":"OVC","base":7000}],"fltCat":"MVFR"},{"icaoId":"KVIS","receiptTime":"2026-04-15T14:58:29.570Z","obsTime":1776264960,"reportTime":"2026-04-15T15:00:00.000Z","temp":11.1,"dewp":8.9,"wdir":40,"wspd":3,"visib":"10+","altim":1019,"slp":1018.8,"qcField":14,"presTend":0.9,"metarType":"METAR","rawOb":"METAR KVIS 151456Z AUTO 04003KT 10SM CLR 11/09 A3009 RMK AO2 SLP188 6//// T01110089 53009 PNO $","lat":36.3135,"lon":-119.3884,"elev":92,"name":"Visalia Muni, CA, US","cover":"CLR","clouds":[],"fltCat":"VFR"},{"icaoId":"KLAS","receiptTime":"2026-04-15T15:00:09.813Z","obsTime":1776264960,"reportTime":"2026-04-15T15:00:00.000Z","temp":17.2,"dewp":-6.7,"wdir":0,"wspd":0,"visib":"10+","altim":1016.7,"slp":1015.1,"qcField":4,"presTend":1.2,"metarType":"METAR","rawOb":"METAR KLAS 151456Z 00000KT 10SM CLR 17/M07 A3002 RMK AO2 SLP151 T01721067 53012","lat":36.0719,"lon":-115.1634,"elev":662,"name":"Las Vegas/Reid Intl, NV, US","cover":"CLR","clouds":[],"fltCat":"VFR"},{"icaoId":"KSBP","receiptTime":"2026-04-15T15:00:10.864Z","obsTime":1776264960,"reportTime":"2026-04-15T15:00:00.000Z","temp":10.6,"dewp":8.9,"wdir":0,"wspd":0,"visib":"10+","altim":1018,"slp":1017.9,"qcField":4,"presTend":0.6,"metarType":"METAR","rawOb":"METAR KSBP 151456Z 00000KT 10SM CLR 11/09 A3006 RMK AO2 SLP179 T01060089 53006","lat":35.2381,"lon":-120.644,"elev":52,"name":"San Luis Obispo/San Luis Cnty, CA, US","cover":"CLR","clouds":[],"fltCat":"VFR"},{"icaoId":"KSDF","receiptTime":"2026-04-15T15:00:10.911Z","obsTime":1776264960,"reportTime":"2026-04-15T15:00:00.000Z","temp":25,"dewp":15,"wdir":190,"wspd":14,"visib":"10+","altim":1015.7,"slp":1014.9,"qcField":4,"presTend":-0.3,"metarType":"METAR","rawOb":"METAR KSDF 151456Z 19014KT 10SM FEW050 FEW150 BKN200 OVC300 25/15 A2999 RMK AO2 SLP149 T02500150 58003","lat":38.1774,"lon":-85.7308,"elev":146,"name":"Louisville Intl, KY, US","cover":"OVC","clouds":[{"cover":"FEW","base":5000},{"cover":"FEW","base":15000},{"cover":"BKN","base":20000},{"cover":"OVC","base":30000}],"fltCat":"VFR"},{"icaoId":"KLWS","receiptTime":"2026-04-15T15:00:05.850Z","obsTime":1776264960,"reportTime":"2026-04-15T15:00:00.000Z","temp":10,"dewp":3.9,"wdir":190,"wspd":11,"visib":"10+","altim":1005.5,"slp":1005.6,"qcField":4,"presTend":-1.5,"metarType":"METAR","rawOb":"METAR KLWS 151456Z 19011KT 10SM OVC065 10/04 A2969 RMK AO2 SLP056 T01000039 56015","lat":46.3746,"lon":-117.0153,"elev":435,"name":"Lewiston/Nez Perce Cnty, ID, US","cover":"OVC","clouds":[{"cover":"OVC","base":6500}],"fltCat":"VFR"},{"icaoId":"KTPH","receiptTime":"2026-04-15T15:00:09.338Z","obsTime":1776264960,"reportTime":"2026-04-15T15:00:00.000Z","temp":6.1,"dewp":-7.2,"wdir":360,"wspd":5,"visib":"10+","altim":1018.4,"slp":1016,"qcField":6,"presTend":0.5,"metarType":"METAR","rawOb":"METAR KTPH 151456Z AUTO 36005KT 10SM CLR 06/M07 A3007 RMK AO2 SLP160 T00611072 53005","lat":38.0505,"lon":-117.0906,"elev":1647,"name":"Tonopah Arpt, NV, US","cover":"CLR","clouds":[],"fltCat":"VFR"},{"icaoId":"KEGE","receiptTime":"2026-04-15T14:58:35.401Z","obsTime":1776264960,"reportTime":"2026-04-15T15:00:00.000Z","temp":3.9,"dewp":0.6,"wdir":0,"wspd":0,"visib":"10+","altim":1019.7,"slp":1018.1,"qcField":4,"presTend":0.8,"pcp3hr":0.005,"metarType":"METAR","rawOb":"METAR KEGE 151456Z 00000KT 10SM CLR 04/01 A3011 RMK AO2 SLP181 60000 T00390006 51008","lat":39.6448,"lon":-106.9176,"elev":1993,"name":"Eagle Cnty Rgnl, CO, US","cover":"CLR","clouds":[],"fltCat":"VFR"},{"icaoId":"KUKI","receiptTime":"2026-04-15T15:00:09.352Z","obsTime":1776264960,"reportTime":"2026-04-15T15:00:00.000Z","temp":8.3,"dewp":5.6,"wdir":0,"wspd":0,"visib":"10+","altim":1019.7,"slp":1019.4,"qcField":6,"presTend":0.3,"metarType":"METAR","rawOb":"METAR KUKI 151456Z AUTO 00000KT 10SM CLR 08/06 A3011 RMK AO2 SLP194 T00830056 53003","lat":39.1278,"lon":-123.2001,"elev":183,"name":"Ukiah Muni, CA, US","cover":"CLR","clouds":[],"fltCat":"VFR"},{"icaoId":"KDUG","receiptTime":"2026-04-15T15:02:24.491Z","obsTime":1776264960,"reportTime":"2026-04-15T15:00:00.000Z","temp":12.8,"dewp":-5,"wdir":"VRB","wspd":3,"visib":"10+","altim":1019,"slp":1014.6,"qcField":38,"presTend":1,"metarType":"METAR","rawOb":"METAR KDUG 151456Z AUTO VRB03KT 10SM CLR 13/M05 A3009 RMK AO2 SLP146 T01281050 51010 TSNO","lat":31.4725,"lon":-109.6022,"elev":1260,"name":"Douglas/Bisbee Intl, AZ, US","cover":"CLR","clouds":[],"fltCat":"VFR"},{"icaoId":"KSLE","receiptTime":"2026-04-15T15:00:09.325Z","obsTime":1776264960,"reportTime":"2026-04-15T15:00:00.000Z","temp":6.7,"dewp":3.9,"wdir":320,"wspd":8,"visib":"10+","altim":1011.6,"slp":1011.6,"qcField":4,"presTend":2,"precip":0.005,"pcp3hr":0.35,"metarType":"METAR","rawOb":"METAR KSLE 151456Z 32008KT 10SM FEW045 BKN095 07/04 A2987 RMK AO2 RAE01 SLP116 P0000 60035 T00670039 53020","lat":44.9049,"lon":-123.001,"elev":63,"name":"Salem Muni, OR, US","cover":"BKN","clouds":[{"cover":"FEW","base":4500},{"cover":"BKN","base":9500}],"fltCat":"VFR"},{"icaoId":"KCHS","receiptTime":"2026-04-15T15:00:15.565Z","obsTime":1776264960,"reportTime":"2026-04-15T15:00:00.000Z","temp":25.6,"dewp":16.7,"wdir":220,"wspd":9,"visib":"10+","altim":1022.1,"slp":1022,"qcField":4,"presTend":0.3,"metarType":"METAR","rawOb":"METAR KCHS 151456Z 22009KT 10SM FEW250 26/17 A3018 RMK AO2 SLP220 T02560167 51003","lat":32.8995,"lon":-80.0407,"elev":12,"name":"Charleston Intl, SC, US","cover":"FEW","clouds":[{"cover":"FEW","base":25000}],"fltCat":"VFR"},{"icaoId":"KCEC","receiptTime":"2026-04-15T15:00:09.201Z","obsTime":1776264960,"reportTime":"2026-04-15T15:00:00.000Z","temp":9.4,"dewp":8.3,"wdir":160,"wspd":16,"wgst":27,"visib":7,"altim":1017.4,"slp":1017.2,"qcField":6,"wxString":"-RA","presTend":-1.3,"precip":0.05,"pcp3hr":0.12,"metarType":"METAR","rawOb":"METAR KCEC 151456Z AUTO 16016G27KT 7SM -RA FEW010 BKN032 OVC050 09/08 A3004 RMK AO2 PK WND 16028/1441 SLP172 P0005 60012 T00940083 56013","lat":41.7836,"lon":-124.238,"elev":17,"name":"Crescent City/McNama, CA, US","cover":"OVC","clouds":[{"cover":"FEW","base":1000},{"cover":"BKN","base":3200},{"cover":"OVC","base":5000}],"fltCat":"VFR"},{"icaoId":"KBZN","receiptTime":"2026-04-15T15:00:05.196Z","obsTime":1776264960,"reportTime":"2026-04-15T15:00:00.000Z","temp":10,"dewp":-2.2,"wdir":140,"wspd":4,"visib":"10+","altim":1006.2,"slp":1004.6,"qcField":4,"presTend":-0.9,"metarType":"METAR","rawOb":"METAR KBZN 151456Z 14004KT 10SM OVC080 10/M02 A2971 RMK AO2 SLP046 T01001022 57009","lat":45.7876,"lon":-111.1615,"elev":1349,"name":"Bozeman/Gallatin Fld, MT, US","cover":"OVC","clouds":[{"cover":"OVC","base":8000}],"fltCat":"VFR"},{"icaoId":"KSGU","receiptTime":"2026-04-15T14:58:41.342Z","obsTime":1776264960,"reportTime":"2026-04-15T15:00:00.000Z","temp":10.6,"dewp":2.2,"wdir":170,"wspd":4,"visib":"10+","altim":1018.4,"slp":1017.3,"qcField":6,"presTend":1.3,"metarType":"METAR","rawOb":"METAR KSGU 151456Z AUTO 17004KT 10SM CLR 11/02 A3007 RMK AO2 SLP173 T01060022 51013","lat":37.0444,"lon":-113.5034,"elev":877,"name":"Saint George Muni, UT, US","cover":"CLR","clouds":[],"fltCat":"VFR"},{"icaoId":"KCOE","receiptTime":"2026-04-15T14:58:40.463Z","obsTime":1776264960,"reportTime":"2026-04-15T15:00:00.000Z","temp":4.4,"dewp":3.9,"wdir":180,"wspd":6,"visib":6,"altim":1004.5,"slp":1007,"qcField":14,"wxString":"RA BR","presTend":-1.3,"metarType":"METAR","rawOb":"METAR KCOE 151456Z AUTO 18006KT 6SM RA BR BKN015 BKN019 OVC023 04/04 A2966 RMK AO2 SLP070 6//// T00440039 56013 PNO $","lat":47.7719,"lon":-116.8332,"elev":693,"name":"Coeur DAlene Arpt, ID, US","cover":"OVC","clouds":[{"cover":"BKN","base":1500},{"cover":"BKN","base":1900},{"cover":"OVC","base":2300}],"fltCat":"MVFR"},{"icaoId":"KINW","receiptTime":"2026-04-15T15:00:05.448Z","obsTime":1776264960,"reportTime":"2026-04-15T15:00:00.000Z","temp":7.8,"dewp":-2.2,"wdir":0,"wspd":0,"visib":"10+","altim":1020.4,"slp":1017.6,"qcField":6,"presTend":1.4,"metarType":"METAR","rawOb":"METAR KINW 151456Z AUTO 00000KT 10SM CLR 08/M02 A3013 RMK AO2 SLP176 T00781022 51014","lat":35.0279,"lon":-110.7221,"elev":1492,"name":"Winslow/Lindberg Rgnl, AZ, US","cover":"CLR","clouds":[],"fltCat":"VFR"},{"icaoId":"KEKO","receiptTime":"2026-04-15T15:00:09.213Z","obsTime":1776264960,"reportTime":"2026-04-15T15:00:00.000Z","temp":3.9,"dewp":-3.9,"wdir":0,"wspd":0,"visib":"10+","altim":1014.6,"slp":1013.8,"qcField":6,"metarType":"METAR","rawOb":"METAR KEKO 151456Z AUTO 00000KT 10SM OVC070 04/M04 A2996 RMK AO2 SLP138 T00391039 57000","lat":40.824,"lon":-115.7863,"elev":1541,"name":"Elko Rgnl, NV, US","cover":"OVC","clouds":[{"cover":"OVC","base":7000}],"fltCat":"VFR"},{"icaoId":"KAST","receiptTime":"2026-04-15T14:58:40.390Z","obsTime":1776264900,"reportTime":"2026-04-15T15:00:00.000Z","temp":6.1,"dewp":2.8,"wdir":270,"wspd":5,"visib":"10+","altim":1011.6,"slp":1011.3,"qcField":6,"presTend":0.8,"pcp3hr":0.01,"metarType":"METAR","rawOb":"METAR KAST 151455Z AUTO 27005KT 10SM SCT070 06/03 A2987 RMK AO2 SLP113 60001 T00610028 53008","lat":46.157,"lon":-123.8833,"elev":3,"name":"Astoria Rgnl, OR, US","cover":"SCT","clouds":[{"cover":"SCT","base":7000}],"fltCat":"VFR"},{"icaoId":"KCXP","receiptTime":"2026-04-15T15:00:14.480Z","obsTime":1776264900,"reportTime":"2026-04-15T15:00:00.000Z","temp":7,"dewp":-2,"wdir":0,"wspd":0,"visib":"10+","altim":1017.4,"qcField":6,"metarType":"METAR","rawOb":"METAR KCXP 151455Z AUTO 00000KT 10SM CLR 07/M02 A3004 RMK AO2","lat":39.1905,"lon":-119.7319,"elev":1431,"name":"Carson City Arpt, NV, US","cover":"CLR","clouds":[],"fltCat":"VFR"},{"icaoId":"KMHR","receiptTime":"2026-04-15T15:00:07.928Z","obsTime":1776264900,"reportTime":"2026-04-15T15:00:00.000Z","temp":13,"dewp":13,"wdir":130,"wspd":5,"visib":"10+","altim":1018,"qcField":6,"metarType":"METAR","rawOb":"METAR KMHR 151455Z AUTO 13005KT 10SM CLR 13/13 A3006 RMK AO2","lat":38.56,"lon":-121.284,"elev":30,"name":"Sacramento/Mather Fld, CA, US","cover":"CLR","clouds":[],"fltCat":"VFR"},{"icaoId":"KMEV","receiptTime":"2026-04-15T15:00:43.087Z","obsTime":1776264900,"reportTime":"2026-04-15T15:00:00.000Z","temp":3,"dewp":0,"wdir":0,"wspd":0,"visib":"10+","altim":1017.4,"qcField":6,"metarType":"METAR","rawOb":"METAR KMEV 151455Z AUTO 00000KT 10SM CLR 03/00 A3004 RMK AO2","lat":38.9963,"lon":-119.75,"elev":1437,"name":"Minden-Tahoe Arpt, NV, US","cover":"CLR","clouds":[],"fltCat":"VFR"},{"icaoId":"KIWA","receiptTime":"2026-04-15T14:57:28.629Z","obsTime":1776264900,"reportTime":"2026-04-15T15:00:00.000Z","temp":17,"dewp":-3,"wdir":130,"wspd":4,"visib":"10+","altim":1017,"qcField":0,"metarType":"METAR","rawOb":"METAR KIWA 151455Z 13004KT 10SM CLR 17/M03 A3003","lat":33.3008,"lon":-111.6437,"elev":420,"name":"Phoenix/Mesa Gateway Arpt, AZ, US","cover":"CLR","clouds":[],"fltCat":"VFR"},{"icaoId":"KSOW","receiptTime":"2026-04-15T14:58:12.340Z","obsTime":1776264900,"reportTime":"2026-04-15T15:00:00.000Z","temp":8,"dewp":-4,"wdir":0,"wspd":0,"visib":"10+","altim":1021.8,"qcField":6,"metarType":"METAR","rawOb":"METAR KSOW 151455Z AUTO 00000KT 10SM CLR 08/M04 A3017 RMK AO2","lat":34.2686,"lon":-110.0019,"elev":1954,"name":"Show Low Muni, AZ, US","cover":"CLR","clouds":[],"fltCat":"VFR"},{"icaoId":"KHAF","receiptTime":"2026-04-15T14:58:19.374Z","obsTime":1776264900,"reportTime":"2026-04-15T15:00:00.000Z","temp":12,"dewp":10,"wdir":340,"wspd":9,"visib":"10+","altim":1019.7,"qcField":6,"metarType":"METAR","rawOb":"METAR KHAF 151455Z AUTO 34009KT 10SM BKN021 OVC026 12/10 A3011 RMK AO2","lat":37.5136,"lon":-122.4996,"elev":11,"name":"Half Moon Bay Arpt, CA, US","cover":"OVC","clouds":[{"cover":"BKN","base":2100},{"cover":"OVC","base":2600}],"fltCat":"MVFR"},{"icaoId":"KCMA","receiptTime":"2026-04-15T14:58:31.429Z","obsTime":1776264900,"reportTime":"2026-04-15T15:00:00.000Z","temp":13.3,"dewp":7.8,"wdir":0,"wspd":0,"visib":"10+","altim":1017.4,"slp":1018,"qcField":6,"presTend":1.2,"metarType":"METAR","rawOb":"METAR KCMA 151455Z AUTO 00000KT 10SM CLR 13/08 A3004 RMK AO2 SLP180 T01330078 53012","lat":34.2114,"lon":-119.0876,"elev":20,"name":"Camarillo Arpt, CA, US","cover":"CLR","clouds":[],"fltCat":"VFR"},{"icaoId":"KGPI","receiptTime":"2026-04-15T14:58:33.661Z","obsTime":1776264900,"reportTime":"2026-04-15T15:00:00.000Z","temp":4.4,"dewp":1.7,"wdir":160,"wspd":13,"wgst":22,"visib":"10+","altim":1004.1,"slp":1005.2,"qcField":4,"wxString":"-RA","presTend":-1.4,"precip":0.005,"pcp3hr":0.005,"metarType":"METAR","rawOb":"METAR KGPI 151455Z 16013G22KT 10SM -RA OVC034 04/02 A2965 RMK AO2 RAB1358 SLP052 P0000 60000 T00440017 56014","lat":48.3041,"lon":-114.2643,"elev":903,"name":"Kalispell/Glacier Park Intl, MT, US","cover":"OVC","clouds":[{"cover":"OVC","base":3400}],"fltCat":"VFR"},{"icaoId":"KLRU","receiptTime":"2026-04-15T14:58:23.586Z","obsTime":1776264900,"reportTime":"2026-04-15T15:00:00.000Z","temp":14,"dewp":-7.2,"wdir":0,"wspd":0,"visib":"10+","altim":1019,"qcField":6,"metarType":"METAR","rawOb":"METAR KLRU 151455Z AUTO 00000KT 10SM CLR 14/M07 A3009 RMK AO2 T01401072","lat":32.2884,"lon":-106.9131,"elev":1355,"name":"Las Cruces Intl, NM, US","cover":"CLR","clouds":[],"fltCat":"VFR"},{"icaoId":"KHTH","receiptTime":"2026-04-15T15:00:05.399Z","obsTime":1776264900,"reportTime":"2026-04-15T15:00:00.000Z","temp":8,"dewp":-4,"wdir":0,"wspd":0,"visib":"10+","altim":1017,"qcField":6,"metarType":"METAR","rawOb":"METAR KHTH 151455Z AUTO 00000KT 10SM CLR 08/M04 A3003 RMK A01","lat":38.5448,"lon":-118.6314,"elev":1281,"name":"Hawthorne Muni, NV, US","cover":"CLR","clouds":[],"fltCat":"VFR"},{"icaoId":"KHII","receiptTime":"2026-04-15T15:00:52.363Z","obsTime":1776264900,"reportTime":"2026-04-15T15:00:00.000Z","temp":18,"dewp":-1,"wdir":0,"wspd":0,"visib":"10+","altim":1016,"qcField":6,"metarType":"METAR","rawOb":"METAR KHII 151455Z AUTO 00000KT 10SM CLR 18/M01 A3000 RMK AO2","lat":34.5659,"lon":-114.3522,"elev":241,"name":"Lake Havasu City Arpt, AZ, US","cover":"CLR","clouds":[],"fltCat":"VFR"},{"icaoId":"KSEZ","receiptTime":"2026-04-15T14:58:27.524Z","obsTime":1776264900,"reportTime":"2026-04-15T15:00:00.000Z","temp":11,"dewp":-1,"wdir":"VRB","wspd":5,"visib":"10+","altim":1020.1,"qcField":6,"metarType":"METAR","rawOb":"METAR KSEZ 151455Z AUTO VRB05KT 10SM CLR 11/M01 A3012 RMK AO2","lat":34.8467,"lon":-111.7884,"elev":1455,"name":"Sedona Arpt, AZ, US","cover":"CLR","clouds":[],"fltCat":"VFR"},{"icaoId":"KBVU","receiptTime":"2026-04-15T14:56:29.072Z","obsTime":1776264900,"reportTime":"2026-04-15T15:00:00.000Z","temp":16,"dewp":-7,"wdir":0,"wspd":0,"visib":"10+","altim":1016.3,"qcField":6,"metarType":"METAR","rawOb":"METAR KBVU 151455Z AUTO 00000KT 10SM CLR 16/M07 A3001 RMK AO2","lat":35.9489,"lon":-114.8633,"elev":654,"name":"Boulder City Muni, NV, US","cover":"CLR","clouds":[],"fltCat":"VFR"},{"icaoId":"KHCR","receiptTime":"2026-04-15T14:58:33.843Z","obsTime":1776264900,"reportTime":"2026-04-15T15:00:00.000Z","temp":1.8,"dewp":-2.3,"wdir":0,"wspd":0,"visib":"10+","altim":1016.7,"qcField":14,"presTend":0.3,"metarType":"METAR","rawOb":"METAR KHCR 151455Z AUTO 00000KT 10SM CLR 02/M02 A3002 RMK AO2 T00181023 52003 $","lat":40.4774,"lon":-111.4329,"elev":1708,"name":"Heber City Muni, UT, US","cover":"CLR","clouds":[],"fltCat":"VFR"},{"icaoId":"KRNO","receiptTime":"2026-04-15T14:58:27.349Z","obsTime":1776264900,"reportTime":"2026-04-15T15:00:00.000Z","temp":5.6,"dewp":-0.6,"wdir":120,"wspd":3,"visib":"10+","altim":1017,"slp":1015.3,"qcField":4,"presTend":0.1,"metarType":"METAR","rawOb":"METAR KRNO 151455Z 12003KT 10SM SCT095 BKN160 06/M01 A3003 RMK AO2 SLP153 ACSL ALQDS T00561006 53001","lat":39.5077,"lon":-119.7683,"elev":1344,"name":"Reno/Tahoe Intl, NV, US","cover":"BKN","clouds":[{"cover":"SCT","base":9500},{"cover":"BKN","base":16000}],"fltCat":"VFR"},{"icaoId":"KAPC","receiptTime":"2026-04-15T14:58:19.506Z","obsTime":1776264840,"reportTime":"2026-04-15T15:00:00.000Z","temp":7.2,"dewp":7.2,"wdir":0,"wspd":0,"visib":"10+","altim":1019.4,"slp":1018.3,"qcField":4,"presTend":0.8,"metarType":"METAR","rawOb":"METAR KAPC 151454Z 00000KT 10SM CLR 07/07 A3010 RMK AO2 SLP183 T00720072 53008","lat":38.2075,"lon":-122.2804,"elev":5,"name":"Napa Cnty Arpt, CA, US","cover":"CLR","clouds":[],"fltCat":"VFR"},{"icaoId":"KSJN","receiptTime":"2026-04-15T14:58:03.623Z","obsTime":1776264840,"reportTime":"2026-04-15T15:00:00.000Z","temp":7.2,"dewp":-3.3,"wdir":360,"wspd":3,"visib":"10+","altim":1020.4,"slp":1016.1,"qcField":6,"presTend":1.5,"metarType":"METAR","rawOb":"METAR KSJN 151454Z AUTO 36003KT 10SM CLR 07/M03 A3013 RMK AO2 SLP161 T00721033 53015","lat":34.5184,"lon":-109.3801,"elev":1747,"name":"St Johns Ind Arpt, AZ, US","cover":"CLR","clouds":[],"fltCat":"VFR"},{"icaoId":"KSYR","receiptTime":"2026-04-15T14:58:12.384Z","obsTime":1776264840,"reportTime":"2026-04-15T15:00:00.000Z","temp":16.7,"dewp":15,"wdir":0,"wspd":0,"visib":"10+","altim":1010.6,"slp":1010.2,"qcField":4,"presTend":-0.7,"precip":0.005,"pcp3hr":0.11,"metarType":"METAR","rawOb":"METAR KSYR 151454Z 00000KT 10SM SCT050 BKN100 17/15 A2984 RMK AO2 RAE1355 SLP102 P0000 60011 T01670150 58007","lat":43.1111,"lon":-76.1038,"elev":125,"name":"Syracuse/Hancock Intl, NY, US","cover":"BKN","clouds":[{"cover":"SCT","base":5000},{"cover":"BKN","base":10000}],"fltCat":"VFR"},{"icaoId":"KPHL","receiptTime":"2026-04-15T14:58:16.776Z","obsTime":1776264840,"reportTime":"2026-04-15T15:00:00.000Z","temp":26.1,"dewp":16.7,"wdir":230,"wspd":12,"visib":"10+","altim":1015,"slp":1014.9,"qcField":12,"presTend":0.2,"metarType":"METAR","rawOb":"METAR KPHL 151454Z 23012KT 10SM FEW095 BKN230 BKN300 26/17 A2997 RMK AO2 SLP149 T02610167 50002 $","lat":39.8733,"lon":-75.2268,"elev":2,"name":"Philadelphia Intl, PA, US","cover":"BKN","clouds":[{"cover":"FEW","base":9500},{"cover":"BKN","base":23000},{"cover":"BKN","base":30000}],"fltCat":"VFR"},{"icaoId":"KRKS","receiptTime":"2026-04-15T14:58:24.052Z","obsTime":1776264840,"reportTime":"2026-04-15T15:00:00.000Z","temp":6.1,"dewp":-6.7,"wdir":250,"wspd":13,"visib":"10+","altim":1015.3,"slp":1012.6,"qcField":6,"presTend":0.3,"metarType":"METAR","rawOb":"METAR KRKS 151454Z AUTO 25013KT 10SM CLR 06/M07 A2998 RMK AO2 SLP126 T00611067 50003","lat":41.5947,"lon":-109.0529,"elev":2062,"name":"Rock Springs/SW Wyoming Rgnl, WY, US","cover":"CLR","clouds":[],"fltCat":"VFR"},{"icaoId":"KGCN","receiptTime":"2026-04-15T14:58:19.323Z","obsTime":1776264840,"reportTime":"2026-04-15T15:00:00.000Z","temp":3.9,"dewp":-1.7,"wdir":0,"wspd":0,"visib":"10+","altim":1021.4,"slp":1019.2,"qcField":4,"presTend":1.1,"metarType":"METAR","rawOb":"METAR KGCN 151454Z 00000KT 10SM CLR 04/M02 A3016 RMK AO2 SLP192 T00391017 51011","lat":35.9458,"lon":-112.1554,"elev":1993,"name":"Grand Canyon Park Arpt, AZ, US","cover":"CLR","clouds":[],"fltCat":"VFR"},{"icaoId":"KOLS","receiptTime":"2026-04-15T14:58:19.447Z","obsTime":1776264840,"reportTime":"2026-04-15T15:00:00.000Z","temp":10.6,"dewp":-3.3,"wdir":0,"wspd":0,"visib":"10+","altim":1018.4,"slp":1014.4,"qcField":6,"presTend":1,"metarType":"METAR","rawOb":"METAR KOLS 151454Z AUTO 00000KT 10SM CLR 11/M03 A3007 RMK AO2 SLP144 T01061033 53010","lat":31.4208,"lon":-110.8465,"elev":1194,"name":"Nogales Intl, AZ, US","cover":"CLR","clouds":[],"fltCat":"VFR"},{"icaoId":"KOLM","receiptTime":"2026-04-15T14:58:19.595Z","obsTime":1776264840,"reportTime":"2026-04-15T15:00:00.000Z","temp":3.3,"dewp":2.2,"wdir":0,"wspd":0,"visib":"10+","altim":1009.9,"slp":1009.9,"qcField":4,"presTend":0.7,"metarType":"METAR","rawOb":"METAR KOLM 151454Z 00000KT 10SM SCT029 SCT034 OVC048 03/02 A2982 RMK AO2 SLP099 T00330022 53007","lat":46.9737,"lon":-122.9049,"elev":58,"name":"Olympia Rgnl, WA, US","cover":"OVC","clouds":[{"cover":"SCT","base":2900},{"cover":"SCT","base":3400},{"cover":"OVC","base":4800}],"fltCat":"VFR"},{"icaoId":"KMEM","receiptTime":"2026-04-15T14:58:23.608Z","obsTime":1776264840,"reportTime":"2026-04-15T15:00:00.000Z","temp":23.9,"dewp":17.2,"wdir":210,"wspd":14,"wgst":21,"visib":"10+","altim":1017.7,"slp":1017,"qcField":12,"presTend":1.1,"metarType":"METAR","rawOb":"METAR KMEM 151454Z 21014G21KT 10SM FEW050 SCT150 SCT250 24/17 A3005 RMK AO2 SLP170 T02390172 51011 $","lat":35.0564,"lon":-89.9864,"elev":78,"name":"Memphis Intl, TN, US","cover":"SCT","clouds":[{"cover":"FEW","base":5000},{"cover":"SCT","base":15000},{"cover":"SCT","base":25000}],"fltCat":"VFR"},{"icaoId":"KBWI","receiptTime":"2026-04-15T14:58:20.110Z","obsTime":1776264840,"reportTime":"2026-04-15T15:00:00.000Z","temp":28.9,"dewp":15.6,"wdir":250,"wspd":10,"wgst":19,"visib":"10+","altim":1015.3,"slp":1015,"qcField":4,"presTend":-0.2,"metarType":"METAR","rawOb":"METAR KBWI 151454Z 25010G19KT 10SM FEW090 FEW250 29/16 A2998 RMK AO2 SLP150 T02890156 58002","lat":39.1733,"lon":-76.684,"elev":42,"name":"Baltimore-Washington Intl, MD, US","cover":"FEW","clouds":[{"cover":"FEW","base":9000},{"cover":"FEW","base":25000}],"fltCat":"VFR"},{"icaoId":"KCMH","receiptTime":"2026-04-15T15:02:24.790Z","obsTime":1776264840,"reportTime":"2026-04-15T15:00:00.000Z","temp":25,"dewp":11.7,"wdir":260,"wspd":7,"visib":"10+","altim":1018.4,"slp":1017.3,"qcField":0,"presTend":-0.2,"metarType":"METAR","rawOb":"METAR KCMH 151454Z 26007KT 10SM FEW070 SCT140 25/12 A3007 RMK SLP173 T02500117 58002","lat":39.9907,"lon":-82.877,"elev":257,"name":"Columbus/Glenn Intl, OH, US","cover":"SCT","clouds":[{"cover":"FEW","base":7000},{"cover":"SCT","base":14000}],"fltCat":"VFR"},{"icaoId":"KFFZ","receiptTime":"2026-04-15T14:58:20.927Z","obsTime":1776264840,"reportTime":"2026-04-15T15:00:00.000Z","temp":17.8,"dewp":-1.1,"wdir":"VRB","wspd":5,"visib":"10+","altim":1016.3,"slp":1014.4,"qcField":4,"presTend":1.6,"metarType":"METAR","rawOb":"METAR KFFZ 151454Z VRB05KT 10SM CLR 18/M01 A3001 RMK AO2 SLP144 T01781011 53016","lat":33.4659,"lon":-111.7212,"elev":420,"name":"Mesa/Falcon Fld, AZ, US","cover":"CLR","clouds":[],"fltCat":"VFR"},{"icaoId":"KSLC","receiptTime":"2026-04-15T14:58:19.474Z","obsTime":1776264840,"reportTime":"2026-04-15T15:00:00.000Z","temp":11.7,"dewp":-1.1,"wdir":140,"wspd":10,"visib":"10+","altim":1015,"slp":1012.4,"qcField":12,"presTend":0.2,"metarType":"METAR","rawOb":"METAR KSLC 151454Z 14010KT 10SM FEW150 BKN250 12/M01 A2997 RMK AO2 SLP124 ACSL DSNT NE AND NW T01171011 53002 $","lat":40.7707,"lon":-111.965,"elev":1286,"name":"Salt Lake City Intl, UT, US","cover":"BKN","clouds":[{"cover":"FEW","base":15000},{"cover":"BKN","base":25000}],"fltCat":"VFR"},{"icaoId":"KEUG","receiptTime":"2026-04-15T14:58:19.533Z","obsTime":1776264840,"reportTime":"2026-04-15T15:00:00.000Z","temp":7.8,"dewp":6.7,"wdir":270,"wspd":8,"visib":3,"altim":1012.3,"slp":1012.2,"qcField":12,"wxString":"-RA BR","presTend":1.6,"precip":0.12,"pcp3hr":0.34,"metarType":"METAR","rawOb":"METAR KEUG 151454Z 27008KT 3SM -RA BR FEW012 BKN018 OVC038 08/07 A2989 RMK AO2 SLP122 P0012 60034 T00780067 53016 $","lat":44.1331,"lon":-123.2156,"elev":109,"name":"Eugene/Mahlon Sweet Fld, OR, US","cover":"OVC","clouds":[{"cover":"FEW","base":1200},{"cover":"BKN","base":1800},{"cover":"OVC","base":3800}],"fltCat":"MVFR"},{"icaoId":"KDSM","receiptTime":"2026-04-15T14:58:12.055Z","obsTime":1776264840,"reportTime":"2026-04-15T15:00:00.000Z","temp":15.6,"dewp":15,"wdir":80,"wspd":6,"visib":8,"altim":1007.2,"slp":1006.7,"qcField":4,"presTend":1.4,"precip":0.05,"pcp3hr":0.29,"metarType":"METAR","rawOb":"METAR KDSM 151454Z 08006KT 8SM FEW003 OVC017 16/15 A2974 RMK AO2 LTG DSNT NE RAE10 TSE18 SLP067 TS MOV NE CB DSNT NW-NE MOV NE P0005 60029 T01560150 50014","lat":41.5339,"lon":-93.6531,"elev":286,"name":"Des Moines Intl, IA, US","cover":"OVC","clouds":[{"cover":"FEW","base":300},{"cover":"OVC","base":1700}],"fltCat":"MVFR"},{"icaoId":"KROC","receiptTime":"2026-04-15T14:58:12.513Z","obsTime":1776264840,"reportTime":"2026-04-15T15:00:00.000Z","temp":22.2,"dewp":13.3,"wdir":270,"wspd":15,"wgst":26,"visib":"10+","altim":1009.9,"slp":1009.9,"qcField":12,"presTend":0.4,"pcp3hr":0.005,"metarType":"METAR","rawOb":"METAR KROC 151454Z 27015G26KT 10SM FEW016 SCT038 SCT100 BKN160 22/13 A2982 RMK AO2 PK WND 28027/1443 SLP099 60000 T02220133 51004 $","lat":43.1172,"lon":-77.6754,"elev":166,"name":"Rochester Intl Arpt, NY, US","cover":"BKN","clouds":[{"cover":"FEW","base":1600},{"cover":"SCT","base":3800},{"cover":"SCT","base":10000},{"cover":"BKN","base":16000}],"fltCat":"VFR"},{"icaoId":"KBTV","receiptTime":"2026-04-15T14:58:11.984Z","obsTime":1776264840,"reportTime":"2026-04-15T15:00:00.000Z","temp":9.4,"dewp":6.7,"wdir":240,"wspd":6,"visib":"10+","altim":1013.6,"slp":1013.5,"qcField":4,"presTend":-0.7,"metarType":"METAR","rawOb":"METAR KBTV 151454Z 24006KT 10SM OVC007 09/07 A2993 RMK AO2 SLP135 T00940067 58007","lat":44.4682,"lon":-73.1499,"elev":101,"name":"Burlington Intl, VT, US","cover":"OVC","clouds":[{"cover":"OVC","base":700}],"fltCat":"IFR"},{"icaoId":"KBFL","receiptTime":"2026-04-15T14:58:19.951Z","obsTime":1776264840,"reportTime":"2026-04-15T15:00:00.000Z","temp":12.2,"dewp":6.7,"wdir":110,"wspd":4,"visib":"10+","altim":1018.7,"slp":1018.5,"qcField":4,"presTend":0.8,"metarType":"METAR","rawOb":"METAR KBFL 151454Z 11004KT 10SM CLR 12/07 A3008 RMK AO2 SLP185 T01220067 53008","lat":35.4342,"lon":-119.0552,"elev":146,"name":"Bakersfield/Meadows Arpt, CA, US","cover":"CLR","clouds":[],"fltCat":"VFR"},{"icaoId":"KBOS","receiptTime":"2026-04-15T14:58:20.018Z","obsTime":1776264840,"reportTime":"2026-04-15T15:00:00.000Z","temp":19.4,"dewp":12.8,"wdir":110,"wspd":4,"visib":"10+","altim":1013.3,"slp":1013.2,"qcField":4,"presTend":0.9,"metarType":"METAR","rawOb":"METAR KBOS 151454Z 11004KT 10SM FEW050 BKN250 19/13 A2992 RMK AO2 SLP132 T01940128 53009","lat":42.3606,"lon":-71.0097,"elev":4,"name":"Boston/Logan Intl, MA, US","cover":"BKN","clouds":[{"cover":"FEW","base":5000},{"cover":"BKN","base":25000}],"fltCat":"VFR"},{"icaoId":"KGSO","receiptTime":"2026-04-15T14:58:11.834Z","obsTime":1776264840,"reportTime":"2026-04-15T15:00:00.000Z","temp":25.6,"dewp":12.2,"wdir":"VRB","wspd":4,"visib":"10+","altim":1019.4,"slp":1018.3,"qcField":4,"metarType":"METAR","rawOb":"METAR KGSO 151454Z VRB04KT 10SM BKN250 26/12 A3010 RMK AO2 SLP183 T02560122 58000","lat":36.0969,"lon":-79.9432,"elev":275,"name":"Greensboro Intl, NC, US","cover":"BKN","clouds":[{"cover":"BKN","base":25000}],"fltCat":"VFR"},{"icaoId":"KBUF","receiptTime":"2026-04-15T14:58:12.476Z","obsTime":1776264840,"reportTime":"2026-04-15T15:00:00.000Z","temp":20,"dewp":13.3,"wdir":260,"wspd":19,"wgst":33,"visib":"10+","altim":1010.6,"slp":1010.5,"qcField":4,"presTend":1.4,"metarType":"METAR","rawOb":"METAR KBUF 151454Z 26019G33KT 10SM FEW034 FEW100 BKN200 BKN270 20/13 A2984 RMK AO2 PK WND 24033/1447 SLP105 VIRGA DSNT W-N T02000133 51014","lat":42.94,"lon":-78.7361,"elev":217,"name":"Buffalo-Niagara Intl, NY, US","cover":"BKN","clouds":[{"cover":"FEW","base":3400},{"cover":"FEW","base":10000},{"cover":"BKN","base":20000},{"cover":"BKN","base":27000}],"fltCat":"VFR"},{"icaoId":"KIND","receiptTime":"2026-04-15T14:58:17.959Z","obsTime":1776264840,"reportTime":"2026-04-15T15:00:00.000Z","temp":25,"dewp":17.2,"wdir":210,"wspd":16,"wgst":22,"visib":"10+","altim":1012.6,"slp":1011.7,"qcField":4,"presTend":0.5,"metarType":"METAR","rawOb":"METAR KIND 151454Z 21016G22KT 10SM FEW043 SCT140 SCT250 25/17 A2990 RMK AO2 SLP117 ACC E T02500172 50005","lat":39.7252,"lon":-86.2816,"elev":242,"name":"Indianapolis Intl, IN, US","cover":"SCT","clouds":[{"cover":"FEW","base":4300},{"cover":"SCT","base":14000},{"cover":"SCT","base":25000}],"fltCat":"VFR"},{"icaoId":"KRIC","receiptTime":"2026-04-15T14:58:12.230Z","obsTime":1776264840,"reportTime":"2026-04-15T15:00:00.000Z","temp":27.2,"dewp":14.4,"wdir":"VRB","wspd":3,"visib":"10+","altim":1017,"slp":1017,"qcField":4,"presTend":-0.4,"metarType":"METAR","rawOb":"METAR KRIC 151454Z VRB03KT 10SM FEW300 27/14 A3003 RMK AO2 SLP170 T02720144 58004","lat":37.5115,"lon":-77.3234,"elev":51,"name":"Richmond Intl, VA, US","cover":"FEW","clouds":[{"cover":"FEW","base":30000}],"fltCat":"VFR"},{"icaoId":"KCOS","receiptTime":"2026-04-15T14:58:12.021Z","obsTime":1776264840,"reportTime":"2026-04-15T15:00:00.000Z","temp":10.6,"dewp":-9.4,"wdir":300,"wspd":15,"visib":"10+","altim":1014.3,"slp":1011.2,"qcField":4,"presTend":1,"metarType":"METAR","rawOb":"METAR KCOS 151454Z 30015KT 10SM FEW200 11/M09 A2995 RMK AO2 SLP112 T01061094 51010","lat":38.8095,"lon":-104.6887,"elev":1886,"name":"Colorado Spring Arpt, CO, US","cover":"FEW","clouds":[{"cover":"FEW","base":20000}],"fltCat":"VFR"},{"icaoId":"KBCE","receiptTime":"2026-04-15T14:56:32.006Z","obsTime":1776264780,"reportTime":"2026-04-15T15:00:00.000Z","temp":1.7,"dewp":-2.2,"wdir":0,"wspd":0,"visib":"10+","altim":1020.7,"slp":1016.6,"qcField":6,"presTend":0.8,"metarType":"METAR","rawOb":"METAR KBCE 151453Z AUTO 00000KT 10SM CLR 02/M02 A3014 RMK AO2 SLP166 T00171022 53008","lat":37.7013,"lon":-112.149,"elev":2311,"name":"Bryce Canyon Arpt, UT, US","cover":"CLR","clouds":[],"fltCat":"VFR"},{"icaoId":"KPRC","receiptTime":"2026-04-15T14:56:31.868Z","obsTime":1776264780,"reportTime":"2026-04-15T15:00:00.000Z","temp":8.3,"dewp":-1.1,"visib":"10+","altim":1020.4,"slp":1016.2,"qcField":4,"presTend":1.2,"metarType":"METAR","rawOb":"METAR KPRC 151453Z 10SM CLR 08/M01 A3013 RMK AO2 SLP162 T00831011 53012","lat":34.6491,"lon":-112.4223,"elev":1528,"name":"Prescott/Love Fld, AZ, US","cover":"CLR","clouds":[],"fltCat":"VFR"},{"icaoId":"KPUB","receiptTime":"2026-04-15T14:56:29.665Z","obsTime":1776264780,"reportTime":"2026-04-15T15:00:00.000Z","temp":10,"dewp":-3.9,"wdir":0,"wspd":0,"visib":"10+","altim":1014,"slp":1010.8,"qcField":12,"presTend":1.3,"metarType":"METAR","rawOb":"METAR KPUB 151453Z 00000KT 10SM CLR 10/M04 A2994 RMK AO2 SLP108 T01001039 51013 $","lat":38.2887,"lon":-104.5057,"elev":1441,"name":"Pueblo Mem Arpt, CO, US","cover":"CLR","clouds":[],"fltCat":"VFR"},{"icaoId":"KRTN","receiptTime":"2026-04-15T14:56:29.822Z","obsTime":1776264780,"reportTime":"2026-04-15T15:00:00.000Z","temp":7.2,"dewp":-6.1,"wdir":90,"wspd":7,"visib":"10+","altim":1015.7,"slp":1011.7,"qcField":14,"presTend":1,"metarType":"METAR","rawOb":"METAR KRTN 151453Z AUTO 09007KT 10SM 07/M06 A2999 RMK AO2 SLP117 T00721061 51010 $","lat":36.7418,"lon":-104.5076,"elev":1939,"name":"Raton/Crews Fld, NM, US"},{"icaoId":"KSBA","receiptTime":"2026-04-15T14:56:31.896Z","obsTime":1776264780,"reportTime":"2026-04-15T15:00:00.000Z","temp":13.3,"dewp":8.9,"wdir":0,"wspd":0,"visib":"10+","altim":1016.7,"slp":1016.7,"qcField":12,"presTend":0.7,"metarType":"METAR","rawOb":"METAR KSBA 151453Z 00000KT 10SM CLR 13/09 A3002 RMK AO2 SLP167 T01330089 51007 $","lat":34.4241,"lon":-119.8425,"elev":2,"name":"Santa Barbara Muni, CA, US","cover":"CLR","clouds":[],"fltCat":"VFR"},{"icaoId":"KMSY","receiptTime":"2026-04-15T14:56:21.563Z","obsTime":1776264780,"reportTime":"2026-04-15T15:00:00.000Z","temp":24.4,"dewp":18.3,"wdir":150,"wspd":10,"visib":"10+","altim":1019.4,"slp":1019.7,"qcField":4,"presTend":0.8,"metarType":"METAR","rawOb":"METAR KMSY 151453Z 15010KT 10SM FEW025 BKN055 OVC065 24/18 A3010 RMK AO2 SLP197 T02440183 53008","lat":29.9974,"lon":-90.2777,"elev":0,"name":"New Orleans/Armstrong Intl, LA, US","cover":"OVC","clouds":[{"cover":"FEW","base":2500},{"cover":"BKN","base":5500},{"cover":"OVC","base":6500}],"fltCat":"VFR"},{"icaoId":"KBHM","receiptTime":"2026-04-15T14:56:30.902Z","obsTime":1776264780,"reportTime":"2026-04-15T15:00:00.000Z","temp":23.9,"dewp":13.3,"wdir":210,"wspd":6,"visib":"10+","altim":1022.4,"slp":1021.7,"qcField":4,"presTend":0.6,"metarType":"METAR","rawOb":"METAR KBHM 151453Z 21006KT 10SM SCT250 24/13 A3019 RMK AO2 SLP217 T02390133 53006","lat":33.5655,"lon":-86.7449,"elev":191,"name":"Birmingham Intl, AL, US","cover":"SCT","clouds":[{"cover":"SCT","base":25000}],"fltCat":"VFR"},{"icaoId":"KMFR","receiptTime":"2026-04-15T14:56:23.328Z","obsTime":1776264780,"reportTime":"2026-04-15T15:00:00.000Z","temp":7.8,"dewp":6.7,"wdir":340,"wspd":3,"visib":"10+","altim":1014.3,"slp":1014.4,"qcField":4,"presTend":-0.8,"pcp3hr":0.005,"metarType":"METAR","rawOb":"METAR KMFR 151453Z 34003KT 10SM FEW009 BKN060 OVC075 08/07 A2995 RMK AO2 SLP144 60000 T00780067 55008","lat":42.375,"lon":-122.877,"elev":397,"name":"Medford/Rogue Valley Intl, OR, US","cover":"OVC","clouds":[{"cover":"FEW","base":900},{"cover":"BKN","base":6000},{"cover":"OVC","base":7500}],"fltCat":"VFR"},{"icaoId":"KMLS","receiptTime":"2026-04-15T14:56:23.415Z","obsTime":1776264780,"reportTime":"2026-04-15T15:00:00.000Z","temp":10,"dewp":3.3,"wdir":190,"wspd":3,"visib":"10+","altim":1006.2,"slp":1006.2,"qcField":6,"presTend":0.7,"metarType":"METAR","rawOb":"METAR KMLS 151453Z AUTO 19003KT 10SM OVC100 10/03 A2971 RMK AO2 SLP062 T01000033 53007","lat":46.4265,"lon":-105.8834,"elev":800,"name":"Miles City/Wiley Fld, MT, US","cover":"OVC","clouds":[{"cover":"OVC","base":10000}],"fltCat":"VFR"},{"icaoId":"KRDD","receiptTime":"2026-04-15T14:56:25.805Z","obsTime":1776264780,"reportTime":"2026-04-15T15:00:00.000Z","temp":11.1,"dewp":7.8,"wdir":130,"wspd":4,"visib":"10+","altim":1017,"slp":1016.7,"qcField":4,"presTend":0.8,"metarType":"METAR","rawOb":"METAR KRDD 151453Z 13004KT 10SM FEW055 OVC080 11/08 A3003 RMK AO2 SLP167 T01110078 53008","lat":40.5146,"lon":-122.2977,"elev":152,"name":"Redding Muni, CA, US","cover":"OVC","clouds":[{"cover":"FEW","base":5500},{"cover":"OVC","base":8000}],"fltCat":"VFR"},{"icaoId":"KAMA","receiptTime":"2026-04-15T14:56:21.061Z","obsTime":1776264780,"reportTime":"2026-04-15T15:00:00.000Z","temp":18.3,"dewp":-6.7,"wdir":270,"wspd":8,"visib":"10+","altim":1014.3,"slp":1009.8,"qcField":4,"presTend":1,"metarType":"METAR","rawOb":"METAR KAMA 151453Z 27008KT 10SM CLR 18/M07 A2995 RMK AO2 SLP098 T01831067 51010","lat":35.2203,"lon":-101.7173,"elev":1102,"name":"Amarillo Intl Arpt, TX, US","cover":"CLR","clouds":[],"fltCat":"VFR"},{"icaoId":"KBRO","receiptTime":"2026-04-15T14:56:31.016Z","obsTime":1776264780,"reportTime":"2026-04-15T15:00:00.000Z","temp":27.2,"dewp":21.1,"wdir":140,"wspd":13,"wgst":24,"visib":"10+","altim":1014.6,"slp":1014.3,"qcField":4,"presTend":2.3,"metarType":"METAR","rawOb":"METAR KBRO 151453Z 14013G24KT 10SM SCT020 BKN026 BKN033 27/21 A2996 RMK AO2 SLP143 T02720211 51023","lat":25.9146,"lon":-97.4231,"elev":6,"name":"Brownsville Intl, TX, US","cover":"BKN","clouds":[{"cover":"SCT","base":2000},{"cover":"BKN","base":2600},{"cover":"BKN","base":3300}],"fltCat":"MVFR"},{"icaoId":"KGTF","receiptTime":"2026-04-15T14:56:26.564Z","obsTime":1776264780,"reportTime":"2026-04-15T15:00:00.000Z","temp":8.3,"dewp":-2.2,"wdir":220,"wspd":15,"wgst":24,"visib":"10+","altim":1004.1,"slp":1004.4,"qcField":4,"presTend":-0.5,"metarType":"METAR","rawOb":"METAR KGTF 151453Z 22015G24KT 10SM CLR 08/M02 A2965 RMK AO2 PK WND 22027/1423 SLP044 T00831022 58005","lat":47.4733,"lon":-111.3828,"elev":1117,"name":"Great Falls Intl, MT, US","cover":"CLR","clouds":[],"fltCat":"VFR"},{"icaoId":"KMCO","receiptTime":"2026-04-15T14:56:25.560Z","obsTime":1776264780,"reportTime":"2026-04-15T15:00:00.000Z","temp":23.3,"dewp":13.3,"wdir":"VRB","wspd":6,"visib":"10+","altim":1023.8,"slp":1023.3,"qcField":4,"presTend":1,"metarType":"METAR","rawOb":"METAR KMCO 151453Z VRB06KT 10SM BKN040 23/13 A3023 RMK AO2 SLP233 T02330133 52010","lat":28.4182,"lon":-81.3241,"elev":27,"name":"Orlando Intl, FL, US","cover":"BKN","clouds":[{"cover":"BKN","base":4000}],"fltCat":"VFR"},{"icaoId":"KCYS","receiptTime":"2026-04-15T14:56:32.139Z","obsTime":1776264780,"reportTime":"2026-04-15T15:00:00.000Z","temp":8.3,"dewp":-6.7,"wdir":280,"wspd":25,"wgst":38,"visib":"10+","altim":1011.6,"slp":1008.6,"qcField":4,"presTend":0.5,"metarType":"METAR","rawOb":"METAR KCYS 151453Z 28025G38KT 10SM CLR 08/M07 A2987 RMK AO2 PK WND 28040/1411 SLP086 T00831067 51005","lat":41.1579,"lon":-104.8081,"elev":1868,"name":"Cheyenne Rgnl, WY, US","cover":"CLR","clouds":[],"fltCat":"VFR"},{"icaoId":"KMSP","receiptTime":"2026-04-15T14:56:23.471Z","obsTime":1776264780,"reportTime":"2026-04-15T15:00:00.000Z","temp":12.8,"dewp":6.7,"wdir":0,"wspd":0,"visib":"10+","altim":1008.2,"slp":1008.1,"qcField":4,"presTend":0.2,"metarType":"METAR","rawOb":"METAR KMSP 151453Z 00000KT 10SM FEW250 13/07 A2977 RMK AO2 SLP081 T01280067 53002","lat":44.8852,"lon":-93.2313,"elev":255,"name":"Minneapolis-St Paul Intl, MN, US","cover":"FEW","clouds":[{"cover":"FEW","base":25000}],"fltCat":"VFR"},{"icaoId":"KOAK","receiptTime":"2026-04-15T14:56:23.513Z","obsTime":1776264780,"reportTime":"2026-04-15T15:00:00.000Z","temp":12.2,"dewp":7.2,"wdir":210,"wspd":4,"visib":"10+","altim":1019.7,"slp":1019.6,"qcField":12,"presTend":0.8,"metarType":"METAR","rawOb":"METAR KOAK 151453Z 21004KT 10SM FEW018 SCT160 BKN250 12/07 A3011 RMK AO2 SLP196 T01220072 53008 $","lat":37.7178,"lon":-122.233,"elev":3,"name":"Oakland Intl, CA, US","cover":"BKN","clouds":[{"cover":"FEW","base":1800},{"cover":"SCT","base":16000},{"cover":"BKN","base":25000}],"fltCat":"VFR"},{"icaoId":"KIAH","receiptTime":"2026-04-15T14:56:25.400Z","obsTime":1776264780,"reportTime":"2026-04-15T15:00:00.000Z","temp":24.4,"dewp":20,"wdir":160,"wspd":16,"visib":"10+","altim":1016.3,"slp":1016.2,"qcField":4,"presTend":0.4,"pcp3hr":0.07,"metarType":"METAR","rawOb":"METAR KIAH 151453Z 16016KT 10SM SCT020 BKN250 24/20 A3001 RMK AO2 SLP162 60007 T02440200 50004","lat":29.9844,"lon":-95.3607,"elev":27,"name":"Houston/Bush Intl, TX, US","cover":"BKN","clouds":[{"cover":"SCT","base":2000},{"cover":"BKN","base":25000}],"fltCat":"VFR"},{"icaoId":"KPSC","receiptTime":"2026-04-15T14:56:25.714Z","obsTime":1776264780,"reportTime":"2026-04-15T15:00:00.000Z","temp":11.1,"dewp":4.4,"wdir":260,"wspd":6,"visib":"10+","altim":1005.8,"slp":1005.8,"qcField":4,"wxString":"-RA","presTend":-0.3,"precip":0.005,"pcp3hr":0.005,"metarType":"METAR","rawOb":"METAR KPSC 151453Z 26006KT 10SM -RA OVC065 11/04 A2970 RMK AO2 RAB09E18B39 SLP058 P0000 60000 T01110044 55003","lat":46.2695,"lon":-119.1182,"elev":121,"name":"Pasco/Tri Cities Arpt, WA, US","cover":"OVC","clouds":[{"cover":"OVC","base":6500}],"fltCat":"VFR"},{"icaoId":"KIDA","receiptTime":"2026-04-15T14:56:26.828Z","obsTime":1776264780,"reportTime":"2026-04-15T15:00:00.000Z","temp":7.8,"dewp":-0.6,"wdir":210,"wspd":19,"wgst":27,"visib":"10+","altim":1011.9,"slp":1011,"qcField":4,"presTend":0.4,"metarType":"METAR","rawOb":"METAR KIDA 151453Z 21019G27KT 10SM OVC080 08/M01 A2988 RMK AO2 PK WND 21027/1451 SLP110 T00781006 53004","lat":43.5204,"lon":-112.0675,"elev":1444,"name":"Idaho Falls Rgnl, ID, US","cover":"OVC","clouds":[{"cover":"OVC","base":8000}],"fltCat":"VFR"},{"icaoId":"KSDL","receiptTime":"2026-04-15T14:56:31.908Z","obsTime":1776264780,"reportTime":"2026-04-15T15:00:00.000Z","temp":17.8,"dewp":1.7,"wdir":200,"wspd":3,"visib":"10+","altim":1016.3,"slp":1014.7,"qcField":4,"presTend":1.4,"metarType":"METAR","rawOb":"METAR KSDL 151453Z 20003KT 10SM CLR 18/02 A3001 RMK AO2 SLP147 T01780017 51014","lat":33.6123,"lon":-111.9232,"elev":438,"name":"Scottsdale Muni, AZ, US","cover":"CLR","clouds":[],"fltCat":"VFR"},{"icaoId":"KSNA","receiptTime":"2026-04-15T14:56:31.938Z","obsTime":1776264780,"reportTime":"2026-04-15T15:00:00.000Z","temp":15.6,"dewp":12.8,"wdir":190,"wspd":3,"visib":"10+","altim":1017.4,"slp":1017.1,"qcField":12,"presTend":1.2,"metarType":"METAR","rawOb":"METAR KSNA 151453Z 19003KT 10SM FEW015 16/13 A3004 RMK AO2 SLP171 T01560128 53012 $","lat":33.6798,"lon":-117.8675,"elev":14,"name":"Santa Ana/Wayne Arpt, CA, US","cover":"FEW","clouds":[{"cover":"FEW","base":1500}],"fltCat":"VFR"},{"icaoId":"KDAL","receiptTime":"2026-04-15T14:56:33.241Z","obsTime":1776264780,"reportTime":"2026-04-15T15:00:00.000Z","temp":21.7,"dewp":18.9,"wdir":160,"wspd":5,"visib":9,"altim":1014.3,"slp":1013.5,"qcField":4,"presTend":1.3,"precip":0.005,"pcp3hr":0.005,"metarType":"METAR","rawOb":"METAR KDAL 151453Z 16005KT 9SM SCT028 BKN043 OVC050 22/19 A2995 RMK AO2 RAB04E30 SLP135 P0000 60000 T02170189 53013","lat":32.8384,"lon":-96.8358,"elev":148,"name":"Dallas/Love Fld, TX, US","cover":"OVC","clouds":[{"cover":"SCT","base":2800},{"cover":"BKN","base":4300},{"cover":"OVC","base":5000}],"fltCat":"VFR"},{"icaoId":"KCDC","receiptTime":"2026-04-15T14:56:27.821Z","obsTime":1776264780,"reportTime":"2026-04-15T15:00:00.000Z","temp":8.3,"dewp":-0.6,"wdir":220,"wspd":5,"visib":"10+","altim":1018.7,"slp":1015.9,"qcField":6,"presTend":0.9,"metarType":"METAR","rawOb":"METAR KCDC 151453Z AUTO 22005KT 10SM CLR 08/M01 A3008 RMK AO2 SLP159 T00831006 51009","lat":37.7067,"lon":-113.097,"elev":1703,"name":"Cedar City Muni, UT, US","cover":"CLR","clouds":[],"fltCat":"VFR"},{"icaoId":"KDFW","receiptTime":"2026-04-15T14:56:28.097Z","obsTime":1776264780,"reportTime":"2026-04-15T15:00:00.000Z","temp":21.7,"dewp":18.9,"wdir":160,"wspd":12,"wgst":18,"visib":"10+","altim":1013.3,"slp":1012.4,"qcField":4,"presTend":0.9,"pcp3hr":0.005,"metarType":"METAR","rawOb":"METAR KDFW 151453Z 16012G18KT 10SM FEW014 SCT033 BKN048 OVC250 22/19 A2992 RMK AO2 SLP124 60000 T02170189 51009","lat":32.8974,"lon":-97.022,"elev":168,"name":"Dallas-Ft Worth Intl, TX, US","cover":"OVC","clouds":[{"cover":"FEW","base":1400},{"cover":"SCT","base":3300},{"cover":"BKN","base":4800},{"cover":"OVC","base":25000}],"fltCat":"VFR"},{"icaoId":"KASE","receiptTime":"2026-04-15T14:56:28.704Z","obsTime":1776264780,"reportTime":"2026-04-15T15:00:00.000Z","temp":2.2,"dewp":-0.6,"wdir":130,"wspd":5,"visib":"10+","altim":1019,"slp":1015.4,"qcField":4,"presTend":1.1,"pcp3hr":0.005,"metarType":"METAR","rawOb":"METAR KASE 151453Z 13005KT 10SM OVC070 02/M01 A3009 RMK AO2 SLP154 60000 T00221006 51011","lat":39.2299,"lon":-106.8705,"elev":2384,"name":"Aspen/Pitkin Cnty, CO, US","cover":"OVC","clouds":[{"cover":"OVC","base":7000}],"fltCat":"VFR"},{"icaoId":"KAUS","receiptTime":"2026-04-15T14:56:28.733Z","obsTime":1776264780,"reportTime":"2026-04-15T15:00:00.000Z","temp":24.4,"dewp":20,"wdir":180,"wspd":16,"wgst":23,"visib":"10+","altim":1014,"slp":1013,"qcField":4,"presTend":-0.5,"metarType":"METAR","rawOb":"METAR KAUS 151453Z 18016G23KT 10SM BKN015 BKN060 BKN120 24/20 A2994 RMK AO2 SLP130 T02440200 55005","lat":30.1831,"lon":-97.6806,"elev":148,"name":"Austin/Bergstrom Intl, TX, US","cover":"BKN","clouds":[{"cover":"BKN","base":1500},{"cover":"BKN","base":6000},{"cover":"BKN","base":12000}],"fltCat":"MVFR"},{"icaoId":"KYKM","receiptTime":"2026-04-15T14:56:29.276Z","obsTime":1776264780,"reportTime":"2026-04-15T15:00:00.000Z","temp":6.7,"dewp":3.9,"wdir":0,"wspd":0,"visib":"10+","altim":1004.8,"slp":1005.2,"qcField":4,"presTend":0.3,"pcp3hr":0.01,"metarType":"METAR","rawOb":"METAR KYKM 151453Z 00000KT 10SM OVC110 07/04 A2967 RMK AO2 SLP052 60001 T00670039 51003","lat":46.564,"lon":-120.5349,"elev":319,"name":"Yakima/McAllister Fld, WA, US","cover":"OVC","clouds":[{"cover":"OVC","base":11000}],"fltCat":"VFR"},{"icaoId":"KPBI","receiptTime":"2026-04-15T14:56:29.486Z","obsTime":1776264780,"reportTime":"2026-04-15T15:00:00.000Z","temp":24.4,"dewp":13.9,"wdir":80,"wspd":11,"visib":"10+","altim":1022.4,"slp":1022.2,"qcField":12,"presTend":1.2,"metarType":"METAR","rawOb":"METAR KPBI 151453Z 08011KT 10SM BKN042 24/14 A3019 RMK AO2 SLP222 T02440139 53012 $","lat":26.6851,"lon":-80.0992,"elev":4,"name":"Palm Beach Intl, FL, US","cover":"BKN","clouds":[{"cover":"BKN","base":4200}],"fltCat":"VFR"},{"icaoId":"KSWO","receiptTime":"2026-04-15T14:56:31.521Z","obsTime":1776264780,"reportTime":"2026-04-15T15:00:00.000Z","temp":21.7,"dewp":18.9,"wdir":210,"wspd":11,"visib":9,"altim":1009.6,"slp":1008.5,"qcField":4,"presTend":1.5,"metarType":"METAR","rawOb":"METAR KSWO 151453Z 21011KT 9SM OVC016 22/19 A2981 RMK AO2 SLP085 T02170189 51015","lat":36.1624,"lon":-97.0832,"elev":293,"name":"Stillwater Muni, OK, US","cover":"OVC","clouds":[{"cover":"OVC","base":1600}],"fltCat":"MVFR"},{"icaoId":"KGSP","receiptTime":"2026-04-15T14:56:31.683Z","obsTime":1776264780,"reportTime":"2026-04-15T15:00:00.000Z","temp":25.6,"dewp":9.4,"wdir":210,"wspd":6,"visib":"10+","altim":1020.4,"slp":1019.2,"qcField":4,"presTend":0.1,"metarType":"METAR","rawOb":"METAR KGSP 151453Z 21006KT 10SM CLR 26/09 A3013 RMK AO2 SLP192 T02560094 51001","lat":34.8842,"lon":-82.2209,"elev":285,"name":"Greenville-Spartanburg Intl, SC, US","cover":"CLR","clouds":[],"fltCat":"VFR"},{"icaoId":"KBFI","receiptTime":"2026-04-15T14:56:32.020Z","obsTime":1776264780,"reportTime":"2026-04-15T15:00:00.000Z","temp":5,"dewp":3.3,"wdir":130,"wspd":3,"visib":"10+","altim":1009.9,"slp":1009.6,"qcField":4,"wxString":"-RA","presTend":0.5,"precip":0.005,"pcp3hr":0.005,"metarType":"METAR","rawOb":"METAR KBFI 151453Z 13003KT 10SM -RA SCT022 OVC042 05/03 A2982 RMK AO2 RAB52 SLP096 P0000 60000 T00500033 53005","lat":47.5455,"lon":-122.3148,"elev":7,"name":"Seattle/Boeing Fld, WA, US","cover":"OVC","clouds":[{"cover":"SCT","base":2200},{"cover":"OVC","base":4200}],"fltCat":"VFR"},{"icaoId":"KBIL","receiptTime":"2026-04-15T14:56:33.164Z","obsTime":1776264780,"reportTime":"2026-04-15T15:00:00.000Z","temp":9.4,"dewp":-2.8,"wdir":230,"wspd":5,"visib":"10+","altim":1006.9,"slp":1005.9,"qcField":4,"presTend":0.6,"metarType":"METAR","rawOb":"METAR KBIL 151453Z 23005KT 10SM BKN110 09/M03 A2973 RMK AO2 SLP059 ACSL DSNT W T00941028 50006","lat":45.8072,"lon":-108.5462,"elev":1089,"name":"Billings/Logan Intl, MT, US","cover":"BKN","clouds":[{"cover":"BKN","base":11000}],"fltCat":"VFR"},{"icaoId":"KCNY","receiptTime":"2026-04-15T14:56:33.206Z","obsTime":1776264780,"reportTime":"2026-04-15T15:00:00.000Z","temp":8.3,"dewp":3.9,"wdir":110,"wspd":6,"visib":"10+","altim":1018,"slp":1016.6,"qcField":14,"presTend":1.1,"metarType":"METAR","rawOb":"METAR KCNY 151453Z AUTO 11006KT 10SM CLR 08/04 A3006 RMK AO2 SLP166 T00830039 51011 $","lat":38.7501,"lon":-109.7627,"elev":1392,"name":"Moab/Canyonland Fld, UT, US","cover":"CLR","clouds":[],"fltCat":"VFR"},{"icaoId":"KLAX","receiptTime":"2026-04-15T14:56:33.679Z","obsTime":1776264780,"reportTime":"2026-04-15T15:00:00.000Z","temp":15.6,"dewp":10.6,"wdir":80,"wspd":3,"visib":"10+","altim":1017.4,"slp":1017,"qcField":4,"presTend":1,"metarType":"METAR","rawOb":"METAR KLAX 151453Z 08003KT 10SM FEW009 FEW250 16/11 A3004 RMK AO2 SLP170 T01560106 53010","lat":33.9382,"lon":-118.3866,"elev":30,"name":"Los Angeles Intl, CA, US","cover":"FEW","clouds":[{"cover":"FEW","base":900},{"cover":"FEW","base":25000}],"fltCat":"VFR"},{"icaoId":"KTPA","receiptTime":"2026-04-15T14:56:27.064Z","obsTime":1776264780,"reportTime":"2026-04-15T15:00:00.000Z","temp":25.6,"dewp":13.3,"wdir":130,"wspd":8,"visib":"10+","altim":1022.4,"slp":1022.3,"qcField":12,"presTend":0.6,"metarType":"METAR","rawOb":"METAR KTPA 151453Z 13008KT 10SM FEW041 26/13 A3019 RMK AO2 SLP223 T02560133 50006 $","lat":27.9633,"lon":-82.54,"elev":2,"name":"Tampa Intl Arpt, FL, US","cover":"FEW","clouds":[{"cover":"FEW","base":4100}],"fltCat":"VFR"},{"icaoId":"KTUL","receiptTime":"2026-04-15T14:56:27.079Z","obsTime":1776264780,"reportTime":"2026-04-15T15:00:00.000Z","temp":22.8,"dewp":19.4,"wdir":180,"wspd":19,"wgst":29,"visib":"10+","altim":1010.2,"slp":1009.2,"qcField":4,"presTend":0.2,"metarType":"METAR","rawOb":"METAR KTUL 151453Z 18019G29KT 10SM BKN019 BKN080 BKN200 23/19 A2983 RMK AO2 PK WND 18029/1448 SLP092 T02280194 50002","lat":36.1985,"lon":-95.8782,"elev":196,"name":"Tulsa Intl Arpt, OK, US","cover":"BKN","clouds":[{"cover":"BKN","base":1900},{"cover":"BKN","base":8000},{"cover":"BKN","base":20000}],"fltCat":"MVFR"},{"icaoId":"KTUS","receiptTime":"2026-04-15T14:56:33.835Z","obsTime":1776264780,"reportTime":"2026-04-15T15:00:00.000Z","temp":13.3,"dewp":-4.4,"wdir":160,"wspd":4,"visib":"10+","altim":1018.4,"slp":1015.4,"qcField":12,"presTend":1.3,"metarType":"METAR","rawOb":"METAR KTUS 151453Z 16004KT 10SM CLR 13/M04 A3007 RMK AO2 SLP154 T01331044 53013 $","lat":32.1315,"lon":-110.9564,"elev":776,"name":"Tucson Intl Arpt, AZ, US","cover":"CLR","clouds":[],"fltCat":"VFR"},{"icaoId":"KDRO","receiptTime":"2026-04-15T14:56:32.274Z","obsTime":1776264780,"reportTime":"2026-04-15T15:00:00.000Z","temp":3.9,"dewp":-0.6,"wdir":70,"wspd":3,"visib":"10+","altim":1020.1,"slp":1018.7,"qcField":6,"presTend":1.3,"metarType":"METAR","rawOb":"METAR KDRO 151453Z AUTO 07003KT 10SM CLR 04/M01 A3012 RMK AO2 SLP187 T00391006 51013","lat":37.1431,"lon":-107.7602,"elev":2021,"name":"Durango/La Plata Cnty, CO, US","cover":"CLR","clouds":[],"fltCat":"VFR"},{"icaoId":"KMLC","receiptTime":"2026-04-15T14:56:31.459Z","obsTime":1776264780,"reportTime":"2026-04-15T15:00:00.000Z","temp":21.1,"dewp":18.9,"visib":"10+","altim":1012.6,"slp":1011.8,"qcField":6,"presTend":0.4,"pcp3hr":0.01,"metarType":"METAR","rawOb":"METAR KMLC 151453Z AUTO 10SM OVC013 21/19 A2990 RMK AO2 SLP118 60001 T02110189 50004","lat":34.8824,"lon":-95.7815,"elev":231,"name":"McAlester Rgnl, OK, US","cover":"OVC","clouds":[{"cover":"OVC","base":1300}],"fltCat":"MVFR"},{"icaoId":"KBOI","receiptTime":"2026-04-15T14:56:30.966Z","obsTime":1776264780,"reportTime":"2026-04-15T15:00:00.000Z","temp":7.2,"dewp":5,"wdir":70,"wspd":7,"visib":"10+","altim":1012.3,"slp":1011.8,"qcField":4,"wxString":"-RA","presTend":0.2,"precip":0.02,"pcp3hr":0.03,"metarType":"METAR","rawOb":"METAR KBOI 151453Z 07007KT 10SM -RA BKN033 OVC041 07/05 A2989 RMK AO2 SLP118 P0002 60003 T00720050 53002","lat":43.567,"lon":-116.2406,"elev":860,"name":"Boise Arpt, ID, US","cover":"OVC","clouds":[{"cover":"BKN","base":3300},{"cover":"OVC","base":4100}],"fltCat":"VFR"},{"icaoId":"KDTW","receiptTime":"2026-04-15T14:56:30.269Z","obsTime":1776264780,"reportTime":"2026-04-15T15:00:00.000Z","temp":18.3,"dewp":16.1,"wdir":190,"wspd":7,"visib":"10+","altim":1011.3,"slp":1010.7,"qcField":4,"presTend":1.1,"precip":0.01,"pcp3hr":0.06,"metarType":"METAR","rawOb":"METAR KDTW 151453Z 19007KT 10SM SCT040 BKN050 OVC075 18/16 A2986 RMK AO2 RAE32 TSE32 PRESFR SLP107 TS MOV E P0001 60006 T01830161 50011","lat":42.2311,"lon":-83.3312,"elev":192,"name":"Detroit/Metro Wayne Cnty, MI, US","cover":"OVC","clouds":[{"cover":"SCT","base":4000},{"cover":"BKN","base":5000},{"cover":"OVC","base":7500}],"fltCat":"VFR"},{"icaoId":"KEVW","receiptTime":"2026-04-15T14:56:26.197Z","obsTime":1776264780,"reportTime":"2026-04-15T15:00:00.000Z","temp":3.3,"dewp":-5,"wdir":220,"wspd":9,"visib":"10+","altim":1016,"slp":1014.4,"qcField":14,"presTend":0.5,"metarType":"METAR","rawOb":"METAR KEVW 151453Z AUTO 22009KT 10SM CLR 03/M05 A3000 RMK AO2 SLP144 T00331050 53005 $","lat":41.2727,"lon":-111.0305,"elev":2178,"name":"Evanston/Uinta Cnty, WY, US","cover":"CLR","clouds":[],"fltCat":"VFR"},{"icaoId":"KCLL","receiptTime":"2026-04-15T14:56:33.463Z","obsTime":1776264780,"reportTime":"2026-04-15T15:00:00.000Z","temp":23.9,"dewp":20,"wdir":150,"wspd":18,"wgst":29,"visib":"10+","altim":1014,"slp":1013.5,"qcField":4,"presTend":-1.3,"metarType":"METAR","rawOb":"METAR KCLL 151453Z 15018G29KT 10SM FEW013 24/20 A2994 RMK AO2 PK WND 15029/1449 SLP135 T02390200 58013","lat":30.5912,"lon":-96.3631,"elev":96,"name":"College Station/Easterwood Arpt, TX, US","cover":"FEW","clouds":[{"cover":"FEW","base":1300}],"fltCat":"VFR"},{"icaoId":"KSTS","receiptTime":"2026-04-15T14:56:26.114Z","obsTime":1776264780,"reportTime":"2026-04-15T15:00:00.000Z","temp":6.7,"dewp":6.7,"wdir":0,"wspd":0,"visib":"10+","altim":1019.4,"slp":1018.5,"qcField":4,"wxString":"BCFG","presTend":0.7,"metarType":"METAR","rawOb":"METAR KSTS 151453Z 00000KT 10SM BCFG BKN200 07/07 A3010 RMK AO2 SLP185 T00670067 53007","lat":38.5037,"lon":-122.811,"elev":35,"name":"Santa Rosa/Schulz Arpt, CA, US","cover":"BKN","clouds":[{"cover":"BKN","base":20000}],"fltCat":"VFR"},{"icaoId":"KPDX","receiptTime":"2026-04-15T14:56:23.765Z","obsTime":1776264780,"reportTime":"2026-04-15T15:00:00.000Z","temp":6.1,"dewp":3.9,"wdir":330,"wspd":4,"visib":"10+","altim":1011.6,"slp":1011.3,"qcField":12,"presTend":1.5,"pcp3hr":0.1,"metarType":"METAR","rawOb":"METAR KPDX 151453Z 33004KT 10SM FEW020 FEW055 SCT130 OVC190 06/04 A2987 RMK AO2 SLP113 60010 T00610039 53015 $","lat":45.5958,"lon":-122.6092,"elev":7,"name":"Portland Intl, OR, US","cover":"OVC","clouds":[{"cover":"FEW","base":2000},{"cover":"FEW","base":5500},{"cover":"SCT","base":13000},{"cover":"OVC","base":19000}],"fltCat":"VFR"},{"icaoId":"KFUL","receiptTime":"2026-04-15T14:56:32.596Z","obsTime":1776264780,"reportTime":"2026-04-15T15:00:00.000Z","temp":15,"dewp":8.9,"wdir":90,"wspd":3,"visib":"10+","altim":1017.4,"slp":1016.9,"qcField":4,"presTend":1.1,"metarType":"METAR","rawOb":"METAR KFUL 151453Z 09003KT 10SM CLR 15/09 A3004 RMK AO2 SLP169 T01500089 53011","lat":33.8715,"lon":-117.9856,"elev":23,"name":"Fullerton Muni, CA, US","cover":"CLR","clouds":[],"fltCat":"VFR"},{"icaoId":"KAPA","receiptTime":"2026-04-15T14:56:28.644Z","obsTime":1776264780,"reportTime":"2026-04-15T15:00:00.000Z","temp":10.6,"dewp":-8.3,"wdir":270,"wspd":9,"visib":"10+","altim":1013.3,"slp":1010.8,"qcField":4,"presTend":0.7,"metarType":"METAR","rawOb":"METAR KAPA 151453Z 27009KT 10SM FEW090 FEW220 11/M08 A2992 RMK AO2 SLP108 T01061083 50007","lat":39.5599,"lon":-104.8484,"elev":1791,"name":"Denver/Centennial Arpt, CO, US","cover":"FEW","clouds":[{"cover":"FEW","base":9000},{"cover":"FEW","base":22000}],"fltCat":"VFR"},{"icaoId":"KLBB","receiptTime":"2026-04-15T14:56:31.381Z","obsTime":1776264780,"reportTime":"2026-04-15T15:00:00.000Z","temp":18.9,"dewp":0,"wdir":310,"wspd":8,"visib":"10+","altim":1015,"slp":1010.3,"qcField":4,"presTend":2,"metarType":"METAR","rawOb":"METAR KLBB 151453Z 31008KT 10SM FEW120 FEW150 BKN250 19/00 A2997 RMK AO2 SLP103 ACC DSNT NE T01890000 51020","lat":33.6658,"lon":-101.8233,"elev":996,"name":"Lubbock Intl Arpt, TX, US","cover":"BKN","clouds":[{"cover":"FEW","base":12000},{"cover":"FEW","base":15000},{"cover":"BKN","base":25000}],"fltCat":"VFR"},{"icaoId":"KVEL","receiptTime":"2026-04-15T14:56:22.833Z","obsTime":1776264780,"reportTime":"2026-04-15T15:00:00.000Z","temp":6.1,"dewp":1.1,"wdir":100,"wspd":4,"visib":"10+","altim":1017.7,"slp":1016.7,"qcField":6,"presTend":0.6,"metarType":"METAR","rawOb":"METAR KVEL 151453Z AUTO 10004KT 10SM FEW024 06/01 A3005 RMK AO2 SLP167 T00610011 51006","lat":40.4429,"lon":-109.5128,"elev":1604,"name":"Vernal Rgnl, UT, US","cover":"FEW","clouds":[{"cover":"FEW","base":2400}],"fltCat":"VFR"},{"icaoId":"KSHR","receiptTime":"2026-04-15T14:56:25.982Z","obsTime":1776264780,"reportTime":"2026-04-15T15:00:00.000Z","temp":11.1,"dewp":-1.1,"wdir":0,"wspd":0,"visib":"10+","altim":1007.2,"slp":1007.2,"qcField":6,"presTend":0.5,"metarType":"METAR","rawOb":"METAR KSHR 151453Z AUTO 00000KT 10SM CLR 11/M01 A2974 RMK AO2 SLP072 T01111011 50005","lat":44.7603,"lon":-106.9741,"elev":1212,"name":"Sheridan Cnty Arpt, WY, US","cover":"CLR","clouds":[],"fltCat":"VFR"},{"icaoId":"PANC","receiptTime":"2026-04-15T14:56:33.003Z","obsTime":1776264780,"reportTime":"2026-04-15T15:00:00.000Z","temp":-1.7,"dewp":-5.6,"wdir":150,"wspd":3,"visib":"10+","altim":1010.6,"slp":1010.7,"qcField":4,"presTend":-0.2,"metarType":"METAR","rawOb":"METAR PANC 151453Z 15003KT 10SM BKN090 OVC120 M02/M06 A2984 RMK AO2 SLP107 T10171056 55002","lat":61.1691,"lon":-150.0277,"elev":39,"name":"Anchorage Intl, AK, US","cover":"OVC","clouds":[{"cover":"BKN","base":9000},{"cover":"OVC","base":12000}],"fltCat":"VFR"},{"icaoId":"KPNC","receiptTime":"2026-04-15T14:56:29.591Z","obsTime":1776264780,"reportTime":"2026-04-15T15:00:00.000Z","temp":23.3,"dewp":19.4,"wdir":210,"wspd":12,"wgst":26,"visib":"10+","altim":1008.5,"slp":1007.4,"qcField":6,"presTend":0.5,"metarType":"METAR","rawOb":"METAR KPNC 151453Z AUTO 21012G26KT 170V230 10SM BKN018 OVC024 23/19 A2978 RMK AO2 PK WND 20026/1450 SLP074 T02330194 53005","lat":36.7369,"lon":-97.1024,"elev":304,"name":"Ponca City Rgnl, OK, US","cover":"OVC","clouds":[{"cover":"BKN","base":1800},{"cover":"OVC","base":2400}],"fltCat":"MVFR"},{"icaoId":"KHLN","receiptTime":"2026-04-15T14:56:26.695Z","obsTime":1776264780,"reportTime":"2026-04-15T15:00:00.000Z","temp":7.2,"dewp":0,"wdir":130,"wspd":4,"visib":"10+","altim":1005.5,"slp":1006.5,"qcField":4,"presTend":-0.8,"metarType":"METAR","rawOb":"METAR KHLN 151453Z 13004KT 10SM BKN075 07/00 A2969 RMK AO2 SLP065 T00720000 58008","lat":46.6045,"lon":-111.9892,"elev":1178,"name":"Helena Rgnl, MT, US","cover":"BKN","clouds":[{"cover":"BKN","base":7500}],"fltCat":"VFR"},{"icaoId":"KLOL","receiptTime":"2026-04-15T14:56:23.174Z","obsTime":1776264780,"reportTime":"2026-04-15T15:00:00.000Z","temp":7.8,"dewp":-1.1,"wdir":0,"wspd":0,"visib":"10+","altim":1015.7,"slp":1014.3,"qcField":6,"metarType":"METAR","rawOb":"METAR KLOL 151453Z AUTO 00000KT 10SM OVC085 08/M01 A2999 RMK AO2 SLP143 T00781011 55000","lat":40.0684,"lon":-118.5702,"elev":1191,"name":"Lovelock/Derby Fld, NV, US","cover":"OVC","clouds":[{"cover":"OVC","base":8500}],"fltCat":"VFR"},{"icaoId":"KMAF","receiptTime":"2026-04-15T14:56:31.396Z","obsTime":1776264780,"reportTime":"2026-04-15T15:00:00.000Z","temp":21.1,"dewp":16.1,"wdir":240,"wspd":8,"visib":9,"altim":1015,"slp":1011.6,"qcField":4,"presTend":1.7,"metarType":"METAR","rawOb":"METAR KMAF 151453Z 24008KT 9SM CLR 21/16 A2997 RMK AO2 SLP116 T02110161 51017","lat":31.9475,"lon":-102.2086,"elev":874,"name":"Midland Intl, TX, US","cover":"CLR","clouds":[],"fltCat":"VFR"},{"icaoId":"KOGD","receiptTime":"2026-04-15T14:56:23.556Z","obsTime":1776264780,"reportTime":"2026-04-15T15:00:00.000Z","temp":9.4,"dewp":-2.2,"wdir":170,"wspd":10,"visib":"10+","altim":1014.6,"slp":1012.2,"qcField":4,"presTend":0.5,"metarType":"METAR","rawOb":"METAR KOGD 151453Z 17010KT 10SM FEW110 09/M02 A2996 RMK AO2 SLP122 T00941022 53005","lat":41.1941,"lon":-112.0168,"elev":1356,"name":"Ogden/Hinckley Arpt, UT, US","cover":"FEW","clouds":[{"cover":"FEW","base":11000}],"fltCat":"VFR"},{"icaoId":"KMSO","receiptTime":"2026-04-15T14:56:23.740Z","obsTime":1776264780,"reportTime":"2026-04-15T15:00:00.000Z","temp":6.1,"dewp":1.7,"wdir":160,"wspd":5,"visib":"10+","altim":1005.5,"slp":1006.1,"qcField":4,"presTend":-1.6,"metarType":"METAR","rawOb":"METAR KMSO 151453Z 16005KT 10SM OVC050 06/02 A2969 RMK AO2 SLP061 T00610017 56016","lat":46.9208,"lon":-114.0938,"elev":974,"name":"Missoula Intl, MT, US","cover":"OVC","clouds":[{"cover":"OVC","base":5000}],"fltCat":"VFR"},{"icaoId":"KRIW","receiptTime":"2026-04-15T14:56:23.778Z","obsTime":1776264780,"reportTime":"2026-04-15T15:00:00.000Z","temp":5,"dewp":-8.3,"wdir":220,"wspd":10,"visib":"10+","altim":1010.9,"slp":1009.5,"qcField":6,"presTend":0.7,"metarType":"METAR","rawOb":"METAR KRIW 151453Z AUTO 22010KT 10SM CLR 05/M08 A2985 RMK AO2 SLP095 T00501083 51007","lat":43.0622,"lon":-108.4471,"elev":1662,"name":"Riverton Rgnl, WY, US","cover":"CLR","clouds":[],"fltCat":"VFR"},{"icaoId":"KLAR","receiptTime":"2026-04-15T14:56:25.248Z","obsTime":1776264780,"reportTime":"2026-04-15T15:00:00.000Z","temp":4.4,"dewp":-5,"wdir":260,"wspd":19,"visib":"10+","altim":1013.6,"slp":1010.9,"qcField":14,"metarType":"METAR","rawOb":"METAR KLAR 151453Z AUTO 26019KT 10SM CLR 04/M05 A2993 RMK AO2 SLP109 T00441050 $","lat":41.3165,"lon":-105.6729,"elev":2217,"name":"Laramie Rgnl, WY, US","cover":"CLR","clouds":[],"fltCat":"VFR"},{"icaoId":"KHOU","receiptTime":"2026-04-15T14:56:25.358Z","obsTime":1776264780,"reportTime":"2026-04-15T15:00:00.000Z","temp":25.6,"dewp":20.6,"wdir":170,"wspd":11,"visib":"10+","altim":1016.7,"slp":1016.9,"qcField":4,"presTend":0.6,"metarType":"METAR","rawOb":"METAR KHOU 151453Z 17011KT 10SM SCT020 SCT070 SCT250 26/21 A3002 RMK AO2 SLP169 T02560206 50006","lat":29.6458,"lon":-95.2821,"elev":13,"name":"Houston/Hobby Arpt, TX, US","cover":"SCT","clouds":[{"cover":"SCT","base":2000},{"cover":"SCT","base":7000},{"cover":"SCT","base":25000}],"fltCat":"VFR"},{"icaoId":"KPUW","receiptTime":"2026-04-15T14:56:25.743Z","obsTime":1776264780,"reportTime":"2026-04-15T15:00:00.000Z","temp":5.6,"dewp":4.4,"wdir":190,"wspd":3,"visib":3,"altim":1005.8,"slp":1006.8,"qcField":6,"wxString":"-RA BR","presTend":-0.7,"precip":0.09,"pcp3hr":0.19,"metarType":"METAR","rawOb":"METAR KPUW 151453Z AUTO 19003KT 3SM -RA BR OVC026 06/04 A2970 RMK AO2 SLP068 P0009 60019 T00560044 56007","lat":46.7438,"lon":-117.1158,"elev":774,"name":"Pullman/Moscow Rgnl, WA, US","cover":"OVC","clouds":[{"cover":"OVC","base":2600}],"fltCat":"MVFR"},{"icaoId":"KSJC","receiptTime":"2026-04-15T14:56:26.009Z","obsTime":1776264780,"reportTime":"2026-04-15T15:00:00.000Z","temp":10,"dewp":6.7,"wdir":150,"wspd":3,"visib":"10+","altim":1019.7,"slp":1019.6,"qcField":12,"presTend":0.7,"metarType":"METAR","rawOb":"METAR KSJC 151453Z 15003KT 10SM FEW015 SCT065 BKN100 10/07 A3011 RMK AO2 SLP196 T01000067 53007 $","lat":37.3594,"lon":-121.9244,"elev":13,"name":"San Jose Intl Arpt, CA, US","cover":"BKN","clouds":[{"cover":"FEW","base":1500},{"cover":"SCT","base":6500},{"cover":"BKN","base":10000}],"fltCat":"VFR"},{"icaoId":"KDLN","receiptTime":"2026-04-15T14:56:28.143Z","obsTime":1776264780,"reportTime":"2026-04-15T15:00:00.000Z","temp":6.7,"dewp":-3.9,"wdir":230,"wspd":8,"visib":"10+","altim":1006.2,"slp":1004.2,"qcField":6,"presTend":-1.2,"metarType":"METAR","rawOb":"METAR KDLN 151453Z AUTO 23008KT 10SM OVC070 07/M04 A2971 RMK AO2 SLP042 T00671039 56012","lat":45.2584,"lon":-112.5546,"elev":1586,"name":"Dillon Arpt, MT, US","cover":"OVC","clouds":[{"cover":"OVC","base":7000}],"fltCat":"VFR"},{"icaoId":"KBNA","receiptTime":"2026-04-15T14:56:28.953Z","obsTime":1776264780,"reportTime":"2026-04-15T15:00:00.000Z","temp":24.4,"dewp":12.8,"wdir":210,"wspd":9,"visib":"10+","altim":1019,"slp":1018.3,"qcField":4,"presTend":0.8,"metarType":"METAR","rawOb":"METAR KBNA 151453Z 21009KT 10SM FEW050 BKN250 24/13 A3009 RMK AO2 SLP183 T02440128 51008","lat":36.1105,"lon":-86.6881,"elev":168,"name":"Nashville Intl, TN, US","cover":"BKN","clouds":[{"cover":"FEW","base":5000},{"cover":"BKN","base":25000}],"fltCat":"VFR"},{"icaoId":"KCNM","receiptTime":"2026-04-15T14:56:29.218Z","obsTime":1776264780,"reportTime":"2026-04-15T15:00:00.000Z","temp":18.9,"dewp":-3.9,"wdir":360,"wspd":7,"visib":"10+","altim":1017,"slp":1012.4,"qcField":6,"presTend":2.3,"metarType":"METAR","rawOb":"METAR KCNM 151453Z AUTO 36007KT 10SM CLR 19/M04 A3003 RMK AO2 SLP124 T01891039 51023","lat":32.3336,"lon":-104.2584,"elev":993,"name":"Carlsbad/Cavern City Air Term, NM, US","cover":"CLR","clouds":[],"fltCat":"VFR"},{"icaoId":"KLAW","receiptTime":"2026-04-15T14:56:31.366Z","obsTime":1776264780,"reportTime":"2026-04-15T15:00:00.000Z","temp":21.7,"dewp":19.4,"wdir":180,"wspd":9,"visib":"10+","altim":1010.9,"slp":1010.1,"qcField":4,"presTend":1.4,"metarType":"METAR","rawOb":"METAR KLAW 151453Z 18009KT 10SM BKN033 OVC044 22/19 A2985 RMK AO2 SLP101 T02170194 50014","lat":34.5577,"lon":-98.4172,"elev":328,"name":"Lawton-Fort Sill Rgnl, OK, US","cover":"OVC","clouds":[{"cover":"BKN","base":3300},{"cover":"OVC","base":4400}],"fltCat":"VFR"},{"icaoId":"KVGT","receiptTime":"2026-04-15T14:56:31.962Z","obsTime":1776264780,"reportTime":"2026-04-15T15:00:00.000Z","temp":15.6,"dewp":-4.4,"wdir":330,"wspd":3,"visib":"10+","altim":1016.3,"slp":1016.8,"qcField":4,"presTend":1.2,"metarType":"METAR","rawOb":"METAR KVGT 151453Z 33003KT 10SM CLR 16/M04 A3001 RMK AO2 SLP168 T01561044 53012","lat":36.212,"lon":-115.194,"elev":664,"name":"Las Vegas/North Arpt, NV, US","cover":"CLR","clouds":[],"fltCat":"VFR"},{"icaoId":"KBLI","receiptTime":"2026-04-15T14:56:32.071Z","obsTime":1776264780,"reportTime":"2026-04-15T15:00:00.000Z","temp":5.6,"dewp":1.1,"wdir":200,"wspd":3,"visib":"10+","altim":1008.9,"slp":1009.5,"qcField":4,"presTend":0.3,"metarType":"METAR","rawOb":"METAR KBLI 151453Z 20003KT 10SM CLR 06/01 A2979 RMK AO2 SLP095 T00560011 53003","lat":48.7991,"lon":-122.5407,"elev":46,"name":"Bellingham Intl, WA, US","cover":"CLR","clouds":[],"fltCat":"VFR"},{"icaoId":"KDVT","receiptTime":"2026-04-15T14:56:32.305Z","obsTime":1776264780,"reportTime":"2026-04-15T15:00:00.000Z","temp":18.3,"dewp":-1.1,"wdir":0,"wspd":0,"visib":"10+","altim":1016.3,"slp":1014.6,"qcField":4,"presTend":1.4,"metarType":"METAR","rawOb":"METAR KDVT 151453Z 00000KT 10SM CLR 18/M01 A3001 RMK AO2 SLP146 T01831011 53014","lat":33.6902,"lon":-112.0662,"elev":454,"name":"Phoenix/Deer Valley Arpt, AZ, US","cover":"CLR","clouds":[],"fltCat":"VFR"},{"icaoId":"KGJT","receiptTime":"2026-04-15T14:56:32.764Z","obsTime":1776264780,"reportTime":"2026-04-15T15:00:00.000Z","temp":7.2,"dewp":3.9,"wdir":110,"wspd":9,"visib":"10+","altim":1019,"slp":1017.3,"qcField":4,"presTend":1.6,"metarType":"METAR","rawOb":"METAR KGJT 151453Z 11009KT 10SM OVC043 07/04 A3009 RMK AO2 SLP173 T00720039 51016","lat":39.1344,"lon":-108.5408,"elev":1475,"name":"Grand Junction Rgnl, CO, US","cover":"OVC","clouds":[{"cover":"OVC","base":4300}],"fltCat":"VFR"},{"icaoId":"KELY","receiptTime":"2026-04-15T14:56:33.259Z","obsTime":1776264780,"reportTime":"2026-04-15T15:00:00.000Z","temp":5.6,"dewp":-3.3,"wdir":190,"wspd":8,"visib":"10+","altim":1017.7,"slp":1014.8,"qcField":14,"presTend":0.3,"metarType":"METAR","rawOb":"METAR KELY 151453Z AUTO 19008KT 10SM CLR 06/M03 A3005 RMK AO2 SLP148 T00561033 53003 $","lat":39.2954,"lon":-114.8466,"elev":1906,"name":"Ely/Yelland Fld, NV, US","cover":"CLR","clouds":[],"fltCat":"VFR"},{"icaoId":"KMIA","receiptTime":"2026-04-15T15:00:15.382Z","obsTime":1776264780,"reportTime":"2026-04-15T15:00:00.000Z","temp":25.6,"dewp":14.4,"wdir":90,"wspd":15,"wgst":19,"visib":"10+","altim":1021.1,"slp":1021,"qcField":1,"presTend":0.8,"metarType":"METAR","rawOb":"METAR KMIA 151453Z COR 09015G19KT 10SM BKN044 26/14 A3015 RMK SLP210 T02560144 52008","lat":25.7881,"lon":-80.3169,"elev":1,"name":"Miami Intl, FL, US","cover":"BKN","clouds":[{"cover":"BKN","base":4400}],"fltCat":"VFR"},{"icaoId":"KPSP","receiptTime":"2026-04-15T14:56:31.881Z","obsTime":1776264780,"reportTime":"2026-04-15T15:00:00.000Z","temp":20,"dewp":6.1,"wdir":330,"wspd":6,"visib":"10+","altim":1015.7,"slp":1015.5,"qcField":12,"presTend":0.8,"metarType":"METAR","rawOb":"METAR KPSP 151453Z 33006KT 10SM CLR 20/06 A2999 RMK AO2 SLP155 T02000061 53008 $","lat":33.8222,"lon":-116.5043,"elev":123,"name":"Palm Springs Intl, CA, US","cover":"CLR","clouds":[],"fltCat":"VFR"},{"icaoId":"KSAF","receiptTime":"2026-04-15T14:56:29.894Z","obsTime":1776264780,"reportTime":"2026-04-15T15:00:00.000Z","temp":8.9,"dewp":-4.4,"wdir":"VRB","wspd":3,"visib":"10+","altim":1018.7,"slp":1014,"qcField":12,"presTend":1.2,"metarType":"METAR","rawOb":"METAR KSAF 151453Z VRB03KT 10SM CLR 09/M04 A3008 RMK AO2 SLP140 T00891044 51012 $","lat":35.611,"lon":-106.0957,"elev":1918,"name":"Santa Fe Cnty Muni, NM, US","cover":"CLR","clouds":[],"fltCat":"VFR"},{"icaoId":"KLGB","receiptTime":"2026-04-15T14:56:21.107Z","obsTime":1776264780,"reportTime":"2026-04-15T15:00:00.000Z","temp":15,"dewp":10,"wdir":0,"wspd":0,"visib":"10+","altim":1017,"slp":1017,"qcField":4,"presTend":1.1,"metarType":"METAR","rawOb":"METAR KLGB 151453Z 00000KT 10SM CLR 15/10 A3003 RMK AO2 SLP170 T01500100 53011","lat":33.8118,"lon":-118.1472,"elev":10,"name":"Long Beach Arpt, CA, US","cover":"CLR","clouds":[],"fltCat":"VFR"},{"icaoId":"KMCI","receiptTime":"2026-04-15T14:56:21.298Z","obsTime":1776264780,"reportTime":"2026-04-15T15:00:00.000Z","temp":20,"dewp":16.7,"wdir":190,"wspd":15,"visib":"10+","altim":1007.5,"slp":1006.4,"qcField":4,"presTend":-0.2,"precip":0.005,"pcp3hr":0.005,"metarType":"METAR","rawOb":"METAR KMCI 151453Z 19015KT 10SM OVC017 20/17 A2975 RMK AO2 RAE1357 SLP064 P0000 60000 T02000167 58002","lat":39.2975,"lon":-94.7309,"elev":308,"name":"Kansas City Intl, MO, US","cover":"OVC","clouds":[{"cover":"OVC","base":1700}],"fltCat":"MVFR"},{"icaoId":"KMDW","receiptTime":"2026-04-15T14:56:21.351Z","obsTime":1776264780,"reportTime":"2026-04-15T15:00:00.000Z","temp":18.3,"dewp":15,"wdir":180,"wspd":7,"visib":"10+","altim":1008.5,"slp":1007.5,"qcField":4,"presTend":-0.9,"precip":0.01,"pcp3hr":0.01,"metarType":"METAR","rawOb":"METAR KMDW 151453Z 18007KT 10SM SCT060 OVC100 18/15 A2978 RMK AO2 RAB19E45 SLP075 P0001 60001 T01830150 56009","lat":41.7841,"lon":-87.7552,"elev":186,"name":"Chicago/Midway Intl, IL, US","cover":"OVC","clouds":[{"cover":"SCT","base":6000},{"cover":"OVC","base":10000}],"fltCat":"VFR"},{"icaoId":"KMTJ","receiptTime":"2026-04-15T14:56:21.589Z","obsTime":1776264780,"reportTime":"2026-04-15T15:00:00.000Z","temp":5.6,"dewp":1.1,"wdir":350,"wspd":5,"visib":"10+","altim":1019.7,"slp":1017.2,"qcField":6,"presTend":1,"metarType":"METAR","rawOb":"METAR KMTJ 151453Z AUTO 35005KT 10SM CLR 06/01 A3011 RMK AO2 SLP172 T00560011 51010","lat":38.5054,"lon":-107.8981,"elev":1755,"name":"Montrose Rgnl, CO, US","cover":"CLR","clouds":[],"fltCat":"VFR"},{"icaoId":"KMYF","receiptTime":"2026-04-15T14:56:21.633Z","obsTime":1776264780,"reportTime":"2026-04-15T15:00:00.000Z","temp":14.4,"dewp":11.1,"wdir":120,"wspd":3,"visib":"10+","altim":1017.7,"slp":1017.3,"qcField":4,"presTend":1.3,"metarType":"METAR","rawOb":"METAR KMYF 151453Z 12003KT 10SM BKN014 14/11 A3005 RMK AO2 SLP173 T01440111 53013","lat":32.8145,"lon":-117.1375,"elev":128,"name":"San Diego/Montgomery Arpt, CA, US","cover":"BKN","clouds":[{"cover":"BKN","base":1400}],"fltCat":"MVFR"},{"icaoId":"KONT","receiptTime":"2026-04-15T14:56:29.290Z","obsTime":1776264780,"reportTime":"2026-04-15T15:00:00.000Z","temp":14.4,"dewp":8.9,"wdir":0,"wspd":0,"visib":"10+","altim":1017.4,"slp":1016.7,"qcField":12,"presTend":0.9,"metarType":"METAR","rawOb":"METAR KONT 151453Z 00000KT 10SM FEW250 14/09 A3004 RMK AO2 SLP167 T01440089 53009 $","lat":34.0531,"lon":-117.5769,"elev":279,"name":"Ontario Intl, CA, US","cover":"FEW","clouds":[{"cover":"FEW","base":25000}],"fltCat":"VFR"},{"icaoId":"KMYR","receiptTime":"2026-04-15T14:56:23.046Z","obsTime":1776264780,"reportTime":"2026-04-15T15:00:00.000Z","temp":25.6,"dewp":16.7,"wdir":220,"wspd":8,"visib":"10+","altim":1022.1,"slp":1021.8,"qcField":12,"presTend":-0.2,"metarType":"METAR","rawOb":"METAR KMYR 151453Z 22008KT 10SM CLR 26/17 A3018 RMK AO2 SLP218 T02560167 58002 $","lat":33.6769,"lon":-78.9325,"elev":7,"name":"Myrtle Beach Intl, SC, US","cover":"CLR","clouds":[],"fltCat":"VFR"},{"icaoId":"KDMN","receiptTime":"2026-04-15T14:56:33.522Z","obsTime":1776264780,"reportTime":"2026-04-15T15:00:00.000Z","temp":12.8,"dewp":-5,"visib":"10+","altim":1019,"slp":1014,"qcField":6,"presTend":1.3,"metarType":"METAR","rawOb":"METAR KDMN 151453Z AUTO 10SM CLR 13/M05 A3009 RMK AO2 SLP140 T01281050 51013","lat":32.2592,"lon":-107.7206,"elev":1310,"name":"Deming Muni, NM, US","cover":"CLR","clouds":[],"fltCat":"VFR"},{"icaoId":"KFAT","receiptTime":"2026-04-15T14:56:33.303Z","obsTime":1776264780,"reportTime":"2026-04-15T15:00:00.000Z","temp":11.1,"dewp":7.8,"wdir":0,"wspd":0,"visib":"10+","altim":1018.7,"slp":1018.4,"qcField":4,"presTend":0.7,"metarType":"METAR","rawOb":"METAR KFAT 151453Z 00000KT 10SM FEW050 FEW190 SCT250 11/08 A3008 RMK AO2 SLP184 T01110078 53007","lat":36.78,"lon":-119.7202,"elev":102,"name":"Fresno/Yosemite Intl, CA, US","cover":"SCT","clouds":[{"cover":"FEW","base":5000},{"cover":"FEW","base":19000},{"cover":"SCT","base":25000}],"fltCat":"VFR"},{"icaoId":"KSMF","receiptTime":"2026-04-15T14:56:26.023Z","obsTime":1776264780,"reportTime":"2026-04-15T15:00:00.000Z","temp":11.1,"dewp":8.3,"wdir":160,"wspd":9,"visib":"10+","altim":1017.7,"slp":1017.6,"qcField":4,"presTend":0.2,"metarType":"METAR","rawOb":"METAR KSMF 151453Z 16009KT 10SM BKN210 11/08 A3005 RMK AO2 SLP176 T01110083 53002","lat":38.7007,"lon":-121.5948,"elev":7,"name":"Sacramento Intl, CA, US","cover":"BKN","clouds":[{"cover":"BKN","base":21000}],"fltCat":"VFR"},{"icaoId":"KPAE","receiptTime":"2026-04-15T14:56:23.626Z","obsTime":1776264780,"reportTime":"2026-04-15T15:00:00.000Z","temp":5,"dewp":0,"wdir":330,"wspd":7,"visib":"10+","altim":1009.2,"slp":1009.2,"qcField":4,"presTend":0.2,"pcp3hr":0.005,"metarType":"METAR","rawOb":"METAR KPAE 151453Z 33007KT 10SM BKN070 BKN085 05/00 A2980 RMK AO2 SLP092 60000 T00500000 53002","lat":47.9232,"lon":-122.2831,"elev":166,"name":"Everett/Paine Fld, WA, US","cover":"BKN","clouds":[{"cover":"BKN","base":7000},{"cover":"BKN","base":8500}],"fltCat":"VFR"},{"icaoId":"KPGA","receiptTime":"2026-04-15T14:56:33.750Z","obsTime":1776264780,"reportTime":"2026-04-15T15:00:00.000Z","temp":10,"dewp":0,"wdir":0,"wspd":0,"visib":"10+","altim":1019,"slp":1016,"qcField":14,"presTend":1.4,"metarType":"METAR","rawOb":"METAR KPGA 151453Z AUTO 00000KT 10SM CLR 10/00 A3009 RMK AO2 SLP160 T01000000 53014 $","lat":36.9211,"lon":-111.4487,"elev":1310,"name":"Page Muni, AZ, US","cover":"CLR","clouds":[],"fltCat":"VFR"},{"icaoId":"KCPR","receiptTime":"2026-04-15T14:56:32.105Z","obsTime":1776264780,"reportTime":"2026-04-15T15:00:00.000Z","temp":8.3,"dewp":-5,"wdir":210,"wspd":21,"wgst":29,"visib":"10+","altim":1010.6,"slp":1009.2,"qcField":4,"presTend":0.5,"metarType":"METAR","rawOb":"METAR KCPR 151453Z 21021G29KT 10SM CLR 08/M05 A2984 RMK AO2 PK WND 22029/1444 SLP092 T00831050 51005","lat":42.8978,"lon":-106.4736,"elev":1623,"name":"Casper/Natrona Cnty, WY, US","cover":"CLR","clouds":[],"fltCat":"VFR"},{"icaoId":"KPIH","receiptTime":"2026-04-15T14:56:25.635Z","obsTime":1776264780,"reportTime":"2026-04-15T15:00:00.000Z","temp":8.9,"dewp":-0.6,"wdir":220,"wspd":9,"visib":"10+","altim":1012.6,"slp":1011.5,"qcField":4,"presTend":0.5,"metarType":"METAR","rawOb":"METAR KPIH 151453Z 22009KT 10SM BKN080 09/M01 A2990 RMK AO2 SLP115 T00891006 51005","lat":42.9197,"lon":-112.5723,"elev":1357,"name":"Pocatello Rgnl, ID, US","cover":"BKN","clouds":[{"cover":"BKN","base":8000}],"fltCat":"VFR"},{"icaoId":"KLVS","receiptTime":"2026-04-15T14:56:25.533Z","obsTime":1776264780,"reportTime":"2026-04-15T15:00:00.000Z","temp":7.8,"dewp":-5.6,"wdir":340,"wspd":3,"visib":"10+","altim":1017,"slp":1011.6,"qcField":14,"presTend":1.6,"metarType":"METAR","rawOb":"METAR KLVS 151453Z AUTO 34003KT 10SM CLR 08/M06 A3003 RMK AO2 SLP116 6//// T00781056 51016 PNO $","lat":35.6558,"lon":-105.1385,"elev":2095,"name":"Las Vegas Muni, NM, US","cover":"CLR","clouds":[],"fltCat":"VFR"},{"icaoId":"KDEN","receiptTime":"2026-04-15T14:56:32.215Z","obsTime":1776264780,"reportTime":"2026-04-15T15:00:00.000Z","temp":11.7,"dewp":-6.7,"wdir":240,"wspd":9,"visib":"10+","altim":1012.6,"slp":1008.9,"qcField":4,"presTend":0.7,"metarType":"METAR","rawOb":"METAR KDEN 151453Z 24009KT 10SM FEW100 FEW220 12/M07 A2990 RMK AO2 SLP089 T01171067 50007","lat":39.8466,"lon":-104.6562,"elev":1656,"name":"Denver Intl, CO, US","cover":"FEW","clouds":[{"cover":"FEW","base":10000},{"cover":"FEW","base":22000}],"fltCat":"VFR"},{"icaoId":"KFMN","receiptTime":"2026-04-15T14:56:33.562Z","obsTime":1776264780,"reportTime":"2026-04-15T15:00:00.000Z","temp":5.6,"dewp":-1.7,"wdir":0,"wspd":0,"visib":"10+","altim":1019.7,"slp":1018.5,"qcField":4,"presTend":1.5,"metarType":"METAR","rawOb":"METAR KFMN 151453Z 00000KT 10SM CLR 06/M02 A3011 RMK AO2 SLP185 T00561017 51015","lat":36.7435,"lon":-108.2293,"elev":1677,"name":"Farmington/Four Corners Rgnl, NM, US","cover":"CLR","clouds":[],"fltCat":"VFR"},{"icaoId":"KSEA","receiptTime":"2026-04-15T14:56:23.822Z","obsTime":1776264780,"reportTime":"2026-04-15T15:00:00.000Z","temp":4.4,"dewp":2.2,"wdir":120,"wspd":7,"visib":"10+","altim":1009.6,"slp":1010.1,"qcField":4,"presTend":0.4,"metarType":"METAR","rawOb":"METAR KSEA 151453Z 12007KT 10SM FEW012 BKN032 BKN060 04/02 A2981 RMK AO2 SLP101 T00440022 53004","lat":47.4447,"lon":-122.3144,"elev":115,"name":"Seattle-Tacoma Intl, WA, US","cover":"BKN","clouds":[{"cover":"FEW","base":1200},{"cover":"BKN","base":3200},{"cover":"BKN","base":6000}],"fltCat":"VFR"},{"icaoId":"KTWF","receiptTime":"2026-04-15T14:56:22.243Z","obsTime":1776264780,"reportTime":"2026-04-15T15:00:00.000Z","temp":9.4,"dewp":1.1,"wdir":180,"wspd":9,"visib":"10+","altim":1012.3,"slp":1010.5,"qcField":4,"presTend":-0.7,"metarType":"METAR","rawOb":"METAR KTWF 151453Z 18009KT 10SM OVC080 09/01 A2989 RMK AO2 SLP105 T00940011 55007","lat":42.4785,"lon":-114.4775,"elev":1269,"name":"Twin Falls/Joslin Fld, ID, US","cover":"OVC","clouds":[{"cover":"OVC","base":8000}],"fltCat":"VFR"},{"icaoId":"KGEG","receiptTime":"2026-04-15T14:56:33.336Z","obsTime":1776264780,"reportTime":"2026-04-15T15:00:00.000Z","temp":5,"dewp":2.8,"wdir":220,"wspd":19,"wgst":33,"visib":5,"altim":1003.5,"slp":1004.2,"qcField":4,"wxString":"-RA BR","presTend":-1.3,"precip":0.04,"pcp3hr":0.12,"metarType":"METAR","rawOb":"METAR KGEG 151453Z 22019G33KT 5SM -RA BR BKN016 OVC023 05/03 A2963 RMK AO2 PK WND 21033/1447 SLP042 P0004 60012 T00500028 56013","lat":47.6217,"lon":-117.528,"elev":718,"name":"Spokane Intl, WA, US","cover":"OVC","clouds":[{"cover":"BKN","base":1600},{"cover":"OVC","base":2300}],"fltCat":"MVFR"},{"icaoId":"KBUR","receiptTime":"2026-04-15T14:56:29.030Z","obsTime":1776264780,"reportTime":"2026-04-15T15:00:00.000Z","temp":13.3,"dewp":6.1,"wdir":0,"wspd":0,"visib":"10+","altim":1017.4,"slp":1016.5,"qcField":4,"presTend":1,"metarType":"METAR","rawOb":"METAR KBUR 151453Z 00000KT 10SM CLR 13/06 A3004 RMK AO2 SLP165 T01330061 53010","lat":34.1996,"lon":-118.3654,"elev":221,"name":"Burbank/Bob Hope Arpt, CA, US","cover":"CLR","clouds":[],"fltCat":"VFR"},{"icaoId":"KCRQ","receiptTime":"2026-04-15T14:56:33.478Z","obsTime":1776264780,"reportTime":"2026-04-15T15:00:00.000Z","temp":15,"dewp":11.7,"wdir":0,"wspd":0,"visib":"10+","altim":1017.4,"slp":1016.9,"qcField":6,"presTend":1.3,"metarType":"METAR","rawOb":"METAR KCRQ 151453Z AUTO 00000KT 10SM OVC011 15/12 A3004 RMK AO2 SLP169 T01500117 53013","lat":33.1299,"lon":-117.2765,"elev":96,"name":"Carlsbad/Palomar Arpt, CA, US","cover":"OVC","clouds":[{"cover":"OVC","base":1100}],"fltCat":"MVFR"},{"icaoId":"KBTM","receiptTime":"2026-04-15T14:56:27.773Z","obsTime":1776264780,"reportTime":"2026-04-15T15:00:00.000Z","temp":5,"dewp":-2.8,"wdir":20,"wspd":3,"visib":"10+","altim":1006.5,"slp":1004.7,"qcField":6,"presTend":-1,"metarType":"METAR","rawOb":"METAR KBTM 151453Z AUTO 02003KT 10SM OVC055 05/M03 A2972 RMK AO2 SLP047 T00501028 56010","lat":45.9644,"lon":-112.5015,"elev":1680,"name":"Butte/Mooney Arpt, MT, US","cover":"OVC","clouds":[{"cover":"OVC","base":5500}],"fltCat":"VFR"},{"icaoId":"KSPS","receiptTime":"2026-04-15T14:56:24.564Z","obsTime":1776264720,"reportTime":"2026-04-15T15:00:00.000Z","temp":23.3,"dewp":19.4,"wdir":180,"wspd":10,"wgst":20,"visib":"10+","altim":1011.3,"slp":1010,"qcField":4,"presTend":1.5,"metarType":"METAR","rawOb":"METAR KSPS 151452Z 18010G20KT 10SM SCT041 OVC060 23/19 A2986 RMK AO2 SLP100 T02330194 51015","lat":33.9785,"lon":-98.493,"elev":310,"name":"Wichita Falls Rgnl, TX, US","cover":"OVC","clouds":[{"cover":"SCT","base":4100},{"cover":"OVC","base":6000}],"fltCat":"VFR"},{"icaoId":"KCLT","receiptTime":"2026-04-15T14:56:22.958Z","obsTime":1776264720,"reportTime":"2026-04-15T15:00:00.000Z","temp":23.9,"dewp":11.7,"wdir":220,"wspd":4,"visib":"10+","altim":1020.4,"slp":1020.9,"qcField":4,"presTend":0.4,"metarType":"METAR","rawOb":"METAR KCLT 151452Z 22004KT 10SM FEW250 24/12 A3013 RMK AO2 SLP209 T02390117 51004","lat":35.2225,"lon":-80.9543,"elev":223,"name":"Charlotte/Douglas Intl, NC, US","cover":"FEW","clouds":[{"cover":"FEW","base":25000}],"fltCat":"VFR"},{"icaoId":"KABQ","receiptTime":"2026-04-15T14:56:24.135Z","obsTime":1776264720,"reportTime":"2026-04-15T15:00:00.000Z","temp":9.4,"dewp":-2.8,"wdir":330,"wspd":6,"visib":"10+","altim":1019.4,"slp":1015.1,"qcField":4,"presTend":1,"metarType":"METAR","rawOb":"METAR KABQ 151452Z 33006KT 10SM CLR 09/M03 A3010 RMK AO2 SLP151 T00941028 51010","lat":35.0419,"lon":-106.6154,"elev":1620,"name":"Albuquerque Intl, NM, US","cover":"CLR","clouds":[],"fltCat":"VFR"},{"icaoId":"KMLF","receiptTime":"2026-04-15T14:56:24.536Z","obsTime":1776264720,"reportTime":"2026-04-15T15:00:00.000Z","temp":8.3,"dewp":0,"wdir":210,"wspd":17,"wgst":21,"visib":"10+","altim":1017,"slp":1014.6,"qcField":6,"presTend":0.6,"metarType":"METAR","rawOb":"METAR KMLF 151452Z AUTO 21017G21KT 10SM CLR 08/00 A3003 RMK AO2 SLP146 T00830000 53006","lat":38.4225,"lon":-113.0109,"elev":1537,"name":"Milford Muni, UT, US","cover":"CLR","clouds":[],"fltCat":"VFR"},{"icaoId":"KHRL","receiptTime":"2026-04-15T14:56:21.003Z","obsTime":1776264720,"reportTime":"2026-04-15T15:00:00.000Z","temp":26.7,"dewp":21.7,"wdir":140,"wspd":15,"wgst":24,"visib":"10+","altim":1014.3,"slp":1014,"qcField":4,"presTend":2,"metarType":"METAR","rawOb":"METAR KHRL 151452Z 14015G24KT 10SM SCT019 BKN027 BKN031 27/22 A2995 RMK AO2 SLP140 T02670217 51020","lat":26.2303,"lon":-97.6556,"elev":9,"name":"Harlingen/Valley Intl, TX, US","cover":"BKN","clouds":[{"cover":"SCT","base":1900},{"cover":"BKN","base":2700},{"cover":"BKN","base":3100}],"fltCat":"MVFR"},{"icaoId":"KOKC","receiptTime":"2026-04-15T14:56:21.017Z","obsTime":1776264720,"reportTime":"2026-04-15T15:00:00.000Z","temp":21.1,"dewp":18.9,"wdir":190,"wspd":11,"visib":"10+","altim":1010.6,"slp":1009.5,"qcField":4,"presTend":1,"metarType":"METAR","rawOb":"METAR KOKC 151452Z 19011KT 10SM OVC015 21/19 A2984 RMK AO2 SLP095 T02110189 50010","lat":35.3843,"lon":-97.6003,"elev":391,"name":"Oklahoma City/Will Rogers Intl, OK, US","cover":"OVC","clouds":[{"cover":"OVC","base":1500}],"fltCat":"MVFR"},{"icaoId":"KCVG","receiptTime":"2026-04-15T14:56:22.974Z","obsTime":1776264720,"reportTime":"2026-04-15T15:00:00.000Z","temp":23.9,"dewp":16.1,"wdir":200,"wspd":11,"wgst":18,"visib":9,"altim":1015,"slp":1013.9,"qcField":4,"presTend":-0.2,"metarType":"METAR","rawOb":"METAR KCVG 151452Z 20011G18KT 9SM BKN300 24/16 A2997 RMK AO2 PK WND 22026/1436 SLP139 T02390161 55002","lat":39.0444,"lon":-84.6724,"elev":264,"name":"Cincinnati Intl, KY, US","cover":"BKN","clouds":[{"cover":"BKN","base":30000}],"fltCat":"VFR"},{"icaoId":"KIAD","receiptTime":"2026-04-15T14:56:23.003Z","obsTime":1776264720,"reportTime":"2026-04-15T15:00:00.000Z","temp":28.9,"dewp":12.8,"wdir":290,"wspd":8,"visib":"10+","altim":1016.3,"slp":1015.8,"qcField":4,"presTend":0.1,"metarType":"METAR","rawOb":"METAR KIAD 151452Z 29008KT 10SM SCT120 BKN160 BKN250 29/13 A3001 RMK AO2 SLP158 T02890128 50001","lat":38.9348,"lon":-77.4473,"elev":90,"name":"Washington/Dulles Intl, VA, US","cover":"BKN","clouds":[{"cover":"SCT","base":12000},{"cover":"BKN","base":16000},{"cover":"BKN","base":25000}],"fltCat":"VFR"},{"icaoId":"KABI","receiptTime":"2026-04-15T14:56:24.377Z","obsTime":1776264720,"reportTime":"2026-04-15T15:00:00.000Z","temp":22.2,"dewp":17.8,"wdir":210,"wspd":13,"wgst":23,"visib":"10+","altim":1013,"slp":1010.7,"qcField":12,"presTend":0.9,"metarType":"METAR","rawOb":"METAR KABI 151452Z 21013G23KT 10SM FEW017 22/18 A2991 RMK AO2 SLP107 T02220178 50009 $","lat":32.4106,"lon":-99.6821,"elev":543,"name":"Abilene Rgnl, TX, US","cover":"FEW","clouds":[{"cover":"FEW","base":1700}],"fltCat":"VFR"},{"icaoId":"KMKE","receiptTime":"2026-04-15T14:56:20.787Z","obsTime":1776264720,"reportTime":"2026-04-15T15:00:00.000Z","temp":17.8,"dewp":15,"wdir":0,"wspd":0,"visib":"10+","altim":1006.2,"slp":1005.9,"qcField":4,"presTend":-1.1,"pcp3hr":0.01,"metarType":"METAR","rawOb":"METAR KMKE 151452Z 00000KT 10SM BKN100 OVC130 18/15 A2971 RMK AO2 SLP059 60001 T01780150 56011","lat":42.9549,"lon":-87.9045,"elev":203,"name":"Milwaukee/Mitchell Intl, WI, US","cover":"OVC","clouds":[{"cover":"BKN","base":10000},{"cover":"OVC","base":13000}],"fltCat":"VFR"},{"icaoId":"KATL","receiptTime":"2026-04-15T14:56:20.931Z","obsTime":1776264720,"reportTime":"2026-04-15T15:00:00.000Z","temp":23.9,"dewp":12.2,"wdir":320,"wspd":8,"visib":"10+","altim":1022.4,"slp":1021.5,"qcField":12,"presTend":0.9,"metarType":"METAR","rawOb":"METAR KATL 151452Z 32008KT 10SM FEW200 SCT250 24/12 A3019 RMK AO2 SLP215 T02390122 51009 $","lat":33.6297,"lon":-84.4422,"elev":309,"name":"Atlanta/Hartsfield-Jackson Intl, GA, US","cover":"SCT","clouds":[{"cover":"FEW","base":20000},{"cover":"SCT","base":25000}],"fltCat":"VFR"},{"icaoId":"KDCA","receiptTime":"2026-04-15T14:56:22.988Z","obsTime":1776264720,"reportTime":"2026-04-15T15:00:00.000Z","temp":27.2,"dewp":16.7,"wdir":160,"wspd":5,"visib":"10+","altim":1015.7,"slp":1015.7,"qcField":4,"metarType":"METAR","rawOb":"METAR KDCA 151452Z 16005KT 10SM FEW110 SCT250 27/17 A2999 RMK AO2 SLP157 T02720167 50000","lat":38.8472,"lon":-77.0345,"elev":4,"name":"Washington/Reagan-National Arpt, VA, US","cover":"SCT","clouds":[{"cover":"FEW","base":11000},{"cover":"SCT","base":25000}],"fltCat":"VFR"},{"icaoId":"KPVD","receiptTime":"2026-04-15T14:54:16.859Z","obsTime":1776264660,"reportTime":"2026-04-15T15:00:00.000Z","temp":25,"dewp":12.8,"wdir":300,"wspd":7,"visib":"10+","altim":1013.6,"slp":1013.3,"qcField":4,"presTend":0.7,"metarType":"METAR","rawOb":"METAR KPVD 151451Z 30007KT 10SM FEW080 FEW130 BKN250 25/13 A2993 RMK AO2 SLP133 T02500128 53007","lat":41.7225,"lon":-71.4325,"elev":15,"name":"Providence/Green Mem, RI, US","cover":"BKN","clouds":[{"cover":"FEW","base":8000},{"cover":"FEW","base":13000},{"cover":"BKN","base":25000}],"fltCat":"VFR"},{"icaoId":"KOXR","receiptTime":"2026-04-15T14:54:18.885Z","obsTime":1776264660,"reportTime":"2026-04-15T15:00:00.000Z","temp":13.9,"dewp":6.7,"wdir":30,"wspd":6,"visib":"10+","altim":1017.4,"slp":1017.2,"qcField":12,"presTend":1.2,"metarType":"METAR","rawOb":"METAR KOXR 151451Z 03006KT 10SM CLR 14/07 A3004 RMK AO2 SLP172 T01390067 53012 $","lat":34.2001,"lon":-119.2042,"elev":12,"name":"Oxnard Arpt, CA, US","cover":"CLR","clouds":[],"fltCat":"VFR"},{"icaoId":"KSAD","receiptTime":"2026-04-15T14:54:16.964Z","obsTime":1776264660,"reportTime":"2026-04-15T15:00:00.000Z","temp":12.2,"dewp":-6.1,"wdir":0,"wspd":0,"visib":"10+","altim":1018,"slp":1015.1,"qcField":6,"presTend":1.7,"metarType":"METAR","rawOb":"METAR KSAD 151451Z AUTO 00000KT 10SM CLR 12/M06 A3006 RMK AO2 SLP151 T01221061 51017","lat":32.8565,"lon":-109.636,"elev":937,"name":"Safford Rgnl, AZ, US","cover":"CLR","clouds":[],"fltCat":"VFR"},{"icaoId":"KJFK","receiptTime":"2026-04-15T14:54:18.709Z","obsTime":1776264660,"reportTime":"2026-04-15T15:00:00.000Z","temp":23.9,"dewp":15.6,"wdir":210,"wspd":9,"visib":"10+","altim":1014.6,"slp":1014.4,"qcField":4,"presTend":0.4,"metarType":"METAR","rawOb":"METAR KJFK 151451Z 21009KT 10SM FEW110 BKN250 24/16 A2996 RMK AO2 SLP144 T02390156 51004","lat":40.6392,"lon":-73.7639,"elev":3,"name":"New York/JF Kennedy Intl, NY, US","cover":"BKN","clouds":[{"cover":"FEW","base":11000},{"cover":"BKN","base":25000}],"fltCat":"VFR"},{"icaoId":"KORF","receiptTime":"2026-04-15T14:54:18.862Z","obsTime":1776264660,"reportTime":"2026-04-15T15:00:00.000Z","temp":26.1,"dewp":14.4,"wdir":230,"wspd":8,"visib":"10+","altim":1017.7,"slp":1017.4,"qcField":4,"presTend":0.8,"metarType":"METAR","rawOb":"METAR KORF 151451Z 23008KT 10SM CLR 26/14 A3005 RMK AO2 SLP174 T02610144 50008","lat":36.9037,"lon":-76.1927,"elev":5,"name":"Norfolk Intl, VA, US","cover":"CLR","clouds":[],"fltCat":"VFR"},{"icaoId":"KORD","receiptTime":"2026-04-15T14:54:18.832Z","obsTime":1776264660,"reportTime":"2026-04-15T15:00:00.000Z","temp":17.2,"dewp":15,"wdir":200,"wspd":3,"visib":"10+","altim":1007.9,"slp":1007.4,"qcField":4,"wxString":"-RA","presTend":-1.4,"precip":0.005,"pcp3hr":0.06,"metarType":"METAR","rawOb":"METAR KORD 151451Z 20003KT 10SM -RA OVC100 17/15 A2976 RMK AO2 RAB00E19B44 SLP074 P0000 60006 T01720150 56014","lat":41.9602,"lon":-87.9316,"elev":202,"name":"Chicago/O'Hare Intl, IL, US","cover":"OVC","clouds":[{"cover":"OVC","base":10000}],"fltCat":"VFR"},{"icaoId":"KIGM","receiptTime":"2026-04-15T14:54:18.596Z","obsTime":1776264660,"reportTime":"2026-04-15T15:00:00.000Z","temp":12.8,"dewp":-3.3,"wdir":0,"wspd":0,"visib":"10+","altim":1018.4,"slp":1013.7,"qcField":6,"presTend":1.3,"metarType":"METAR","rawOb":"METAR KIGM 151451Z AUTO 00000KT 10SM CLR 13/M03 A3007 RMK AO2 SLP137 T01281033 51013","lat":35.2575,"lon":-113.9341,"elev":1045,"name":"Kingman Arpt, AZ, US","cover":"CLR","clouds":[],"fltCat":"VFR"},{"icaoId":"KCLE","receiptTime":"2026-04-15T14:54:18.095Z","obsTime":1776264660,"reportTime":"2026-04-15T15:00:00.000Z","temp":22.2,"dewp":16.1,"wdir":200,"wspd":12,"wgst":20,"visib":"10+","altim":1012.6,"slp":1013.4,"qcField":12,"presTend":0.1,"metarType":"METAR","rawOb":"METAR KCLE 151451Z 20012G20KT 10SM SCT047 BKN250 22/16 A2990 RMK AO2 SLP134 T02220161 53001 $","lat":41.4057,"lon":-81.8519,"elev":237,"name":"Cleveland/Hopkins Intl, OH, US","cover":"BKN","clouds":[{"cover":"SCT","base":4700},{"cover":"BKN","base":25000}],"fltCat":"VFR"},{"icaoId":"KBDL","receiptTime":"2026-04-15T14:54:17.873Z","obsTime":1776264660,"reportTime":"2026-04-15T15:00:00.000Z","temp":23.3,"dewp":13.9,"wdir":160,"wspd":5,"visib":"10+","altim":1013.3,"slp":1013,"qcField":12,"presTend":0.8,"metarType":"METAR","rawOb":"METAR KBDL 151451Z 16005KT 10SM SCT130 BKN250 23/14 A2992 RMK AO2 SLP130 T02330139 50008 $","lat":41.9374,"lon":-72.682,"elev":52,"name":"Hartford/Bradley Intl, CT, US","cover":"BKN","clouds":[{"cover":"SCT","base":13000},{"cover":"BKN","base":25000}],"fltCat":"VFR"},{"icaoId":"KLGA","receiptTime":"2026-04-15T14:56:23.016Z","obsTime":1776264660,"reportTime":"2026-04-15T15:00:00.000Z","temp":26.1,"dewp":15,"wdir":220,"wspd":7,"visib":"10+","altim":1013.6,"slp":1013.5,"qcField":4,"presTend":0.2,"metarType":"METAR","rawOb":"METAR KLGA 151451Z 22007KT 10SM SCT060 SCT110 BKN250 26/15 A2993 RMK AO2 SLP135 T02610150 50002","lat":40.7794,"lon":-73.8803,"elev":9,"name":"New York/La Guardia Arpt, NY, US","cover":"BKN","clouds":[{"cover":"SCT","base":6000},{"cover":"SCT","base":11000},{"cover":"BKN","base":25000}],"fltCat":"VFR"},{"icaoId":"KSTL","receiptTime":"2026-04-15T14:54:17.214Z","obsTime":1776264660,"reportTime":"2026-04-15T15:00:00.000Z","temp":22.2,"dewp":15.6,"wdir":230,"wspd":15,"wgst":20,"visib":"10+","altim":1013,"slp":1012,"qcField":4,"presTend":3.1,"metarType":"METAR","rawOb":"METAR KSTL 151451Z 23015G20KT 10SM BKN038 OVC110 22/16 A2991 RMK AO2 SLP120 T02220156 50031","lat":38.7525,"lon":-90.3734,"elev":163,"name":"St Louis/Lambert Intl, MO, US","cover":"OVC","clouds":[{"cover":"BKN","base":3800},{"cover":"OVC","base":11000}],"fltCat":"VFR"},{"icaoId":"KSAT","receiptTime":"2026-04-15T14:54:17.023Z","obsTime":1776264660,"reportTime":"2026-04-15T15:00:00.000Z","temp":23.3,"dewp":19.4,"wdir":150,"wspd":16,"wgst":21,"visib":"10+","altim":1014.3,"slp":1012.6,"qcField":4,"presTend":-0.7,"metarType":"METAR","rawOb":"METAR KSAT 151451Z 15016G21KT 10SM BKN014 OVC019 23/19 A2995 RMK AO2 SLP126 T02330194 55007","lat":29.5443,"lon":-98.4839,"elev":246,"name":"San Antonio Intl, TX, US","cover":"OVC","clouds":[{"cover":"BKN","base":1400},{"cover":"OVC","base":1900}],"fltCat":"MVFR"},{"icaoId":"KACT","receiptTime":"2026-04-15T14:54:17.664Z","obsTime":1776264660,"reportTime":"2026-04-15T15:00:00.000Z","temp":22.8,"dewp":18.9,"wdir":180,"wspd":10,"visib":"10+","altim":1014,"slp":1013.3,"qcField":4,"presTend":0.9,"metarType":"METAR","rawOb":"METAR KACT 151451Z 18010KT 10SM OVC019 23/19 A2994 RMK AO2 SLP133 T02280189 53009","lat":31.618,"lon":-97.2283,"elev":150,"name":"Waco Rgnl, TX, US","cover":"OVC","clouds":[{"cover":"OVC","base":1900}],"fltCat":"MVFR"},{"icaoId":"KPIT","receiptTime":"2026-04-15T14:54:16.819Z","obsTime":1776264660,"reportTime":"2026-04-15T15:00:00.000Z","temp":23.3,"dewp":14.4,"wdir":210,"wspd":16,"wgst":26,"visib":"10+","altim":1015,"slp":1015.1,"qcField":12,"presTend":-0.3,"metarType":"METAR","rawOb":"METAR KPIT 151451Z 21016G26KT 10SM SCT037 BKN250 23/14 A2997 RMK AO2 PK WND 22026/1443 SLP151 T02330144 58003 $","lat":40.4814,"lon":-80.2083,"elev":339,"name":"Pittsburgh Intl, PA, US","cover":"BKN","clouds":[{"cover":"SCT","base":3700},{"cover":"BKN","base":25000}],"fltCat":"VFR"},{"icaoId":"KPHX","receiptTime":"2026-04-15T14:54:16.781Z","obsTime":1776264660,"reportTime":"2026-04-15T15:00:00.000Z","temp":18.9,"dewp":0,"wdir":140,"wspd":6,"visib":"10+","altim":1015.7,"slp":1014.5,"qcField":4,"presTend":1.5,"metarType":"METAR","rawOb":"METAR KPHX 151451Z 14006KT 10SM CLR 19/00 A2999 RMK AO2 SLP145 T01890000 53015","lat":33.4278,"lon":-112.0037,"elev":338,"name":"Phoenix/Sky Harbor Intl, AZ, US","cover":"CLR","clouds":[],"fltCat":"VFR"},{"icaoId":"KROW","receiptTime":"2026-04-15T14:54:16.944Z","obsTime":1776264660,"reportTime":"2026-04-15T15:00:00.000Z","temp":18.3,"dewp":-4.4,"wdir":300,"wspd":5,"visib":"10+","altim":1016,"slp":1010.8,"qcField":4,"presTend":1.4,"metarType":"METAR","rawOb":"METAR KROW 151451Z 30005KT 10SM CLR 18/M04 A3000 RMK AO2 SLP108 T01831044 51014","lat":33.3074,"lon":-104.5082,"elev":1105,"name":"Roswell/Ind Arpt, NM, US","cover":"CLR","clouds":[],"fltCat":"VFR"},{"icaoId":"KRDU","receiptTime":"2026-04-15T14:54:16.925Z","obsTime":1776264660,"reportTime":"2026-04-15T15:00:00.000Z","temp":25,"dewp":13.9,"wdir":200,"wspd":4,"visib":"10+","altim":1019.4,"slp":1018.9,"qcField":4,"presTend":-0.2,"metarType":"METAR","rawOb":"METAR KRDU 151451Z 20004KT 10SM FEW250 25/14 A3010 RMK AO2 SLP189 T02500139 58002","lat":35.8923,"lon":-78.782,"elev":121,"name":"Raleigh-Durham Intl, NC, US","cover":"FEW","clouds":[{"cover":"FEW","base":25000}],"fltCat":"VFR"},{"icaoId":"KELP","receiptTime":"2026-04-15T14:54:18.354Z","obsTime":1776264660,"reportTime":"2026-04-15T15:00:00.000Z","temp":17.2,"dewp":-4.4,"wdir":0,"wspd":0,"visib":"10+","altim":1017.4,"slp":1012.1,"qcField":4,"presTend":1.7,"metarType":"METAR","rawOb":"METAR KELP 151451Z 00000KT 10SM FEW250 17/M04 A3004 RMK AO2 SLP121 T01721044 51017","lat":31.8123,"lon":-106.3774,"elev":1205,"name":"El Paso Intl, TX, US","cover":"FEW","clouds":[{"cover":"FEW","base":25000}],"fltCat":"VFR"},{"icaoId":"KCRP","receiptTime":"2026-04-15T14:54:18.207Z","obsTime":1776264660,"reportTime":"2026-04-15T15:00:00.000Z","temp":26.1,"dewp":21.7,"wdir":150,"wspd":18,"visib":"10+","altim":1015,"slp":1014.6,"qcField":4,"presTend":1.2,"metarType":"METAR","rawOb":"METAR KCRP 151451Z 15018KT 10SM SCT015 BKN024TCU BKN033 OVC250 26/22 A2997 RMK AO2 SLP146 TCU E T02610217 51012","lat":27.7734,"lon":-97.513,"elev":11,"name":"Corpus Christi Intl, TX, US","cover":"OVC","clouds":[{"cover":"SCT","base":1500},{"cover":"BKN","base":2400},{"cover":"BKN","base":3300},{"cover":"OVC","base":25000}],"fltCat":"MVFR"},{"icaoId":"KSAN","receiptTime":"2026-04-15T14:54:16.986Z","obsTime":1776264660,"reportTime":"2026-04-15T15:00:00.000Z","temp":15.6,"dewp":11.1,"wdir":0,"wspd":0,"visib":"10+","altim":1018,"slp":1017.9,"qcField":12,"presTend":1.3,"metarType":"METAR","rawOb":"METAR KSAN 151451Z 00000KT 10SM BKN019 16/11 A3006 RMK AO2 SLP179 T01560111 53013 $","lat":32.7364,"lon":-117.1973,"elev":3,"name":"San Diego Intl Arpt, CA, US","cover":"BKN","clouds":[{"cover":"BKN","base":1900}],"fltCat":"MVFR"},{"icaoId":"KVNY","receiptTime":"2026-04-15T14:54:17.333Z","obsTime":1776264660,"reportTime":"2026-04-15T15:00:00.000Z","temp":12.8,"dewp":7.8,"wdir":0,"wspd":0,"visib":"10+","altim":1017,"slp":1016.4,"qcField":12,"presTend":0.9,"metarType":"METAR","rawOb":"METAR KVNY 151451Z 00000KT 10SM CLR 13/08 A3003 RMK AO2 SLP164 T01280078 53009 $","lat":34.2121,"lon":-118.4915,"elev":241,"name":"Van Nuys Arpt, CA, US","cover":"CLR","clouds":[],"fltCat":"VFR"},{"icaoId":"KLGU","receiptTime":"2026-04-15T14:54:18.740Z","obsTime":1776264660,"reportTime":"2026-04-15T15:00:00.000Z","temp":8.9,"dewp":2.2,"wdir":310,"wspd":3,"visib":"10+","altim":1014,"slp":1011.9,"qcField":6,"presTend":0.1,"metarType":"METAR","rawOb":"METAR KLGU 151451Z AUTO 31003KT 10SM OVC100 09/02 A2994 RMK AO2 SLP119 T00890022 53001","lat":41.7865,"lon":-111.8519,"elev":1359,"name":"Logan/Cache Arpt, UT, US","cover":"OVC","clouds":[{"cover":"OVC","base":10000}],"fltCat":"VFR"},{"icaoId":"KEWR","receiptTime":"2026-04-15T14:54:18.456Z","obsTime":1776264660,"reportTime":"2026-04-15T15:00:00.000Z","temp":26.7,"dewp":15.6,"wdir":230,"wspd":13,"wgst":20,"visib":"10+","altim":1014,"slp":1013.6,"qcField":4,"presTend":-0.2,"metarType":"METAR","rawOb":"METAR KEWR 151451Z 23013G20KT 10SM FEW070 FEW110 SCT200 BKN250 27/16 A2994 RMK AO2 SLP136 T02670156 58002","lat":40.6828,"lon":-74.1692,"elev":2,"name":"Newark Intl, NJ, US","cover":"BKN","clouds":[{"cover":"FEW","base":7000},{"cover":"FEW","base":11000},{"cover":"SCT","base":20000},{"cover":"BKN","base":25000}],"fltCat":"VFR"},{"icaoId":"KSUN","receiptTime":"2026-04-15T15:08:19.298Z","obsTime":1776264600,"reportTime":"2026-04-15T15:00:00.000Z","temp":4,"dewp":1,"wdir":120,"wspd":8,"visib":"10+","altim":1012.6,"qcField":1,"wxString":"-RA","metarType":"METAR","rawOb":"METAR KSUN 151450Z COR 12008KT 10SM -RA SCT005 BKN020 OVC035 04/01 A2990","lat":43.4969,"lon":-114.2923,"elev":1619,"name":"Hailey/Friedman Mem, ID, US","cover":"OVC","clouds":[{"cover":"SCT","base":500},{"cover":"BKN","base":2000},{"cover":"OVC","base":3500}],"fltCat":"MVFR"},{"icaoId":"KHOB","receiptTime":"2026-04-15T14:53:39.361Z","obsTime":1776264600,"reportTime":"2026-04-15T15:00:00.000Z","temp":18,"dewp":-5,"wdir":340,"wspd":15,"visib":"10+","altim":1016.3,"qcField":0,"metarType":"METAR","rawOb":"METAR KHOB 151450Z 34015KT 10SM CLR 18/M05 A3001","lat":32.6797,"lon":-103.2222,"elev":1112,"name":"Hobbs Arpt, NM, US","cover":"CLR","clouds":[],"fltCat":"VFR"},{"icaoId":"KADM","receiptTime":"2026-04-15T14:58:19.115Z","obsTime":1776264600,"reportTime":"2026-04-15T15:00:00.000Z","temp":21,"dewp":21,"wdir":180,"wspd":7,"visib":8,"altim":1012.3,"qcField":0,"wxString":"-RA","metarType":"METAR","rawOb":"METAR KADM 151450Z 18007KT 8SM -RA BKN014 BKN055 BKN095 21/21 A2989 RMK LTG DSNT N AND E","lat":34.3007,"lon":-97.0089,"elev":223,"name":"Ardmore Muni, OK, US","cover":"BKN","clouds":[{"cover":"BKN","base":1400},{"cover":"BKN","base":5500},{"cover":"BKN","base":9500}],"fltCat":"MVFR"},{"icaoId":"KGEU","receiptTime":"2026-04-15T14:49:37.351Z","obsTime":1776264420,"reportTime":"2026-04-15T15:00:00.000Z","temp":18,"dewp":0,"wdir":360,"wspd":6,"visib":"10+","altim":1015.3,"qcField":0,"metarType":"METAR","rawOb":"METAR KGEU 151447Z 36006KT 10SM CLR 18/M00 A2998","lat":33.528,"lon":-112.293,"elev":319,"name":"Glendale Muni, AZ, US","cover":"CLR","clouds":[],"fltCat":"VFR"},{"icaoId":"KIFP","receiptTime":"2026-04-15T14:48:05.954Z","obsTime":1776264420,"reportTime":"2026-04-15T15:00:00.000Z","temp":16,"dewp":-2,"visib":"10+","altim":1015.7,"qcField":0,"metarType":"METAR","rawOb":"METAR KIFP 151447Z CALMKT 10SM CLR 16/M02 A2999","lat":35.1487,"lon":-114.5611,"elev":210,"name":"Bullhead City Intl, AZ, US","cover":"CLR","clouds":[],"fltCat":"VFR"},{"icaoId":"KCHD","receiptTime":"2026-04-15T14:47:57.610Z","obsTime":1776264420,"reportTime":"2026-04-15T15:00:00.000Z","temp":16,"dewp":3,"wdir":70,"wspd":3,"visib":"10+","altim":1016.7,"qcField":0,"metarType":"METAR","rawOb":"METAR KCHD 151447Z 07003KT 10SM CLR 16/03 A3002","lat":33.2669,"lon":-111.8086,"elev":378,"name":"Chandler Muni, AZ, US","cover":"CLR","clouds":[],"fltCat":"VFR"},{"icaoId":"KGYR","receiptTime":"2026-04-15T14:48:36.846Z","obsTime":1776264420,"reportTime":"2026-04-15T15:00:00.000Z","temp":18,"dewp":1,"wdir":"VRB","wspd":5,"visib":"10+","altim":1016.3,"qcField":0,"metarType":"METAR","rawOb":"METAR KGYR 151447Z VRB05KT 10SM SKC 18/01 A3001","lat":33.428,"lon":-112.368,"elev":292,"name":"Phoenix/Goodyear Muni, AZ, US","cover":"SKC","clouds":[],"fltCat":"VFR"},{"icaoId":"KAEG","receiptTime":"2026-04-15T14:48:36.784Z","obsTime":1776264420,"reportTime":"2026-04-15T15:00:00.000Z","temp":9,"dewp":-4,"wdir":280,"wspd":6,"visib":"10+","altim":1019.7,"qcField":0,"metarType":"METAR","rawOb":"METAR KAEG 151447Z 28006KT 10SM CLR 09/M04 A3011","lat":35.15,"lon":-106.7929,"elev":1771,"name":"Albuquerque/Double Eagle Arpt, NM, US","cover":"CLR","clouds":[],"fltCat":"VFR"},{"icaoId":"KRTS","receiptTime":"2026-04-15T15:00:10.782Z","obsTime":1776264300,"reportTime":"2026-04-15T15:00:00.000Z","temp":7,"dewp":-6,"wdir":"VRB","wspd":4,"visib":"10+","altim":1017.4,"qcField":6,"metarType":"METAR","rawOb":"METAR KRTS 151445Z AUTO VRB04KT 10SM SCT070 OVC090 07/M06 A3004 RMK AO2","lat":39.6658,"lon":-119.8731,"elev":1537,"name":"Reno/Stead Arpt, NV, US","cover":"OVC","clouds":[{"cover":"SCT","base":7000},{"cover":"OVC","base":9000}],"fltCat":"VFR"},{"icaoId":"KRYN","receiptTime":"2026-04-15T14:46:08.058Z","obsTime":1776264300,"reportTime":"2026-04-15T15:00:00.000Z","temp":14,"dewp":-6,"wdir":0,"wspd":0,"visib":"10+","altim":1017.4,"qcField":0,"metarType":"METAR","rawOb":"METAR KRYN 151445Z 00000KT 10SM CLR 14/M06 A3004","lat":32.1418,"lon":-111.1767,"elev":731,"name":"Tucson/Ryan Fld, AZ, US","cover":"CLR","clouds":[],"fltCat":"VFR"},{"icaoId":"KBJC","receiptTime":"2026-04-15T14:50:14.930Z","obsTime":1776264300,"reportTime":"2026-04-15T15:00:00.000Z","temp":13,"dewp":-10,"wdir":290,"wspd":22,"wgst":30,"visib":"10+","altim":1012.6,"qcField":0,"metarType":"METAR","rawOb":"METAR KBJC 151445Z 29022G30KT 10SM CLR 13/M10 A2990","lat":39.9008,"lon":-105.1042,"elev":1694,"name":"Rocky Mtn Metro, CO, US","cover":"CLR","clouds":[],"fltCat":"VFR"},{"icaoId":"KNYL","receiptTime":"2026-04-15T14:01:06.400Z","obsTime":1776261420,"reportTime":"2026-04-15T14:00:00.000Z","temp":14.4,"dewp":1.7,"wdir":0,"wspd":0,"visib":"10+","altim":1014.6,"slp":1014.3,"qcField":4,"metarType":"METAR","rawOb":"METAR KNYL 151357Z 00000KT 10SM CLR 14/02 A2996 RMK AO2 SLP143 T01440017","lat":32.66,"lon":-114.6078,"elev":58,"name":"Yuma , AZ, US","cover":"CLR","clouds":[],"fltCat":"VFR"},{"icaoId":"KEND","receiptTime":"2026-04-15T14:10:06.951Z","obsTime":1776261300,"reportTime":"2026-04-15T14:00:00.000Z","temp":20.8,"dewp":19.3,"wdir":200,"wspd":15,"visib":"10+","altim":1007.5,"slp":1006.6,"qcField":12,"metarType":"METAR","rawOb":"METAR KEND 151355Z 20015KT 10SM FEW013 SCT021 SCT200 21/19 A2975 RMK AO2A SLP066 T02080193 $","lat":36.338,"lon":-97.919,"elev":392,"name":"Enid/Vance AFB, OK, US","cover":"SCT","clouds":[{"cover":"FEW","base":1300},{"cover":"SCT","base":2100},{"cover":"SCT","base":20000}],"fltCat":"VFR"},{"icaoId":"KLUF","receiptTime":"2026-04-15T14:14:29.019Z","obsTime":1776261300,"reportTime":"2026-04-15T14:00:00.000Z","temp":15.6,"dewp":-1.5,"wdir":350,"wspd":3,"visib":"10+","altim":1015,"slp":1014.2,"qcField":12,"metarType":"METAR","rawOb":"METAR KLUF 151355Z 35003KT 10SM CLR 16/M01 A2997 RMK AO2A SLP142 T01561015 $","lat":33.538,"lon":-112.38,"elev":333,"name":"Phoenix/Luke AFB, AZ, US","cover":"CLR","clouds":[],"fltCat":"VFR"},{"icaoId":"KHIO","receiptTime":"2026-04-15T13:56:32.965Z","obsTime":1776261180,"reportTime":"2026-04-15T14:00:00.000Z","temp":5.6,"dewp":3.3,"wdir":340,"wspd":3,"visib":"10+","altim":1010.6,"slp":1010.6,"qcField":4,"metarType":"METAR","rawOb":"METAR KHIO 151353Z 34003KT 10SM FEW047 06/03 A2984 RMK AO2 SLP106 T00560033","lat":45.5476,"lon":-122.9557,"elev":62,"name":"Portland/Hillsboro Arpt, OR, US","cover":"FEW","clouds":[{"cover":"FEW","base":4700}],"fltCat":"VFR"}]