[{"icaoId":"KFLG","receiptTime":"2026-04-08T22:00:30.199Z","obsTime":1775685420,"reportTime":"2026-04-08T22:00:00.000Z","temp":20.6,"dewp":-8.9,"wdir":190,"wspd":8,"wgst":16,"visib":"10+","altim":1020.1,"slp":1013.2,"qcField":4,"metarType":"METAR","rawOb":"METAR KFLG 082157Z 19008G16KT 160V230 10SM CLR 21/M09 A3012 RMK AO2 PK WND 20032/2101 SLP132 T02061089","lat":35.1443,"lon":-111.6664,"elev":2134,"name":"Flagstaff/Pulliam Arpt, AZ, US","cover":"CLR","clouds":[],"fltCat":"VFR"},{"icaoId":"KCGZ","receiptTime":"2026-04-08T21:58:22.729Z","obsTime":1775685360,"reportTime":"2026-04-08T22:00:00.000Z","temp":33.9,"dewp":-1.7,"visib":"10+","qcField":14,"metarType":"METAR","rawOb":"METAR KCGZ 082156Z AUTO 10SM CLR 34/M02 RMK AO2 SLPNO T03391017 $","lat":32.9531,"lon":-111.7725,"elev":444,"name":"Casa Granda Muni, AZ, US","cover":"CLR","clouds":[],"fltCat":"VFR"},{"icaoId":"KINW","receiptTime":"2026-04-08T22:00:23.476Z","obsTime":1775685360,"reportTime":"2026-04-08T22:00:00.000Z","temp":25,"dewp":-7.8,"wdir":140,"wspd":4,"visib":"10+","altim":1015.7,"slp":1009.7,"qcField":6,"metarType":"METAR","rawOb":"METAR KINW 082156Z AUTO 14004KT 10SM CLR 25/M08 A2999 RMK AO2 SLP097 T02501078","lat":35.0279,"lon":-110.7221,"elev":1492,"name":"Winslow/Lindberg Rgnl, AZ, US","cover":"CLR","clouds":[],"fltCat":"VFR"},{"icaoId":"KDUG","receiptTime":"2026-04-08T22:02:06.830Z","obsTime":1775685360,"reportTime":"2026-04-08T22:00:00.000Z","temp":27.8,"dewp":-3.3,"wdir":200,"wspd":3,"visib":"10+","altim":1015.3,"slp":1009.3,"qcField":38,"metarType":"METAR","rawOb":"METAR KDUG 082156Z AUTO 20003KT 10SM CLR 28/M03 A2998 RMK AO2 SLP093 T02781033 TSNO","lat":31.4725,"lon":-109.6022,"elev":1260,"name":"Douglas/Bisbee Intl, AZ, US","cover":"CLR","clouds":[],"fltCat":"VFR"},{"icaoId":"KHII","receiptTime":"2026-04-08T22:00:36.717Z","obsTime":1775685300,"reportTime":"2026-04-08T22:00:00.000Z","temp":36,"dewp":-5,"wdir":230,"wspd":8,"wgst":17,"visib":"10+","altim":1008.2,"qcField":6,"metarType":"METAR","rawOb":"METAR KHII 082155Z AUTO 23008G17KT 10SM CLR 36/M05 A2977 RMK AO2","lat":34.5659,"lon":-114.3522,"elev":241,"name":"Lake Havasu City Arpt, AZ, US","cover":"CLR","clouds":[],"fltCat":"VFR"},{"icaoId":"KLUF","receiptTime":"2026-04-08T22:06:03.380Z","obsTime":1775685300,"reportTime":"2026-04-08T22:00:00.000Z","temp":35.4,"dewp":-5.7,"wdir":220,"wspd":9,"visib":"10+","altim":1008.5,"slp":1007,"qcField":14,"metarType":"METAR","rawOb":"METAR KLUF 082155Z AUTO 22009KT 10SM FEW220 35/M06 A2978 RMK AO2 SLP070 T03541057 $","lat":33.538,"lon":-112.38,"elev":333,"name":"Phoenix/Luke AFB, AZ, US","cover":"FEW","clouds":[{"cover":"FEW","base":22000}],"fltCat":"VFR"},{"icaoId":"KSOW","receiptTime":"2026-04-08T21:58:17.617Z","obsTime":1775685300,"reportTime":"2026-04-08T22:00:00.000Z","temp":23,"dewp":-7,"wdir":220,"wspd":12,"wgst":19,"visib":"10+","altim":1019.4,"qcField":6,"metarType":"METAR","rawOb":"METAR KSOW 082155Z AUTO 22012G19KT 10SM CLR 23/M07 A3010 RMK AO2","lat":34.2686,"lon":-110.0019,"elev":1954,"name":"Show Low Muni, AZ, US","cover":"CLR","clouds":[],"fltCat":"VFR"},{"icaoId":"KSEZ","receiptTime":"2026-04-08T22:00:13.795Z","obsTime":1775685300,"reportTime":"2026-04-08T22:00:00.000Z","temp":27,"dewp":-7,"wdir":280,"wspd":7,"visib":"10+","altim":1016.3,"qcField":6,"metarType":"METAR","rawOb":"METAR KSEZ 082155Z AUTO 28007KT 240V300 10SM CLR 27/M07 A3001 RMK AO2","lat":34.8467,"lon":-111.7884,"elev":1455,"name":"Sedona Arpt, AZ, US","cover":"CLR","clouds":[],"fltCat":"VFR"},{"icaoId":"KOLS","receiptTime":"2026-04-08T21:58:08.486Z","obsTime":1775685240,"reportTime":"2026-04-08T22:00:00.000Z","temp":30,"dewp":-1.1,"wdir":230,"wspd":8,"visib":"10+","altim":1014.3,"slp":1008.2,"qcField":6,"metarType":"METAR","rawOb":"METAR KOLS 082154Z AUTO 23008KT 10SM BKN120 30/M01 A2995 RMK AO2 SLP082 T03001011","lat":31.4208,"lon":-110.8465,"elev":1194,"name":"Nogales Intl, AZ, US","cover":"BKN","clouds":[{"cover":"BKN","base":12000}],"fltCat":"VFR"},{"icaoId":"KFFZ","receiptTime":"2026-04-08T21:58:15.464Z","obsTime":1775685240,"reportTime":"2026-04-08T22:00:00.000Z","temp":33.9,"dewp":-2.2,"wdir":220,"wspd":7,"visib":"10+","altim":1009.2,"slp":1006.9,"qcField":4,"metarType":"METAR","rawOb":"METAR KFFZ 082154Z 22007KT 10SM CLR 34/M02 A2980 RMK AO2 SLP069 T03391022","lat":33.4659,"lon":-111.7212,"elev":420,"name":"Mesa/Falcon Fld, AZ, US","cover":"CLR","clouds":[],"fltCat":"VFR"},{"icaoId":"KGCN","receiptTime":"2026-04-08T21:58:15.494Z","obsTime":1775685240,"reportTime":"2026-04-08T22:00:00.000Z","temp":21.7,"dewp":-7.2,"wdir":210,"wspd":12,"wgst":17,"visib":"10+","altim":1019,"slp":1013.4,"qcField":4,"metarType":"METAR","rawOb":"METAR KGCN 082154Z 21012G17KT 10SM SCT120 22/M07 A3009 RMK AO2 SLP134 T02171072","lat":35.9458,"lon":-112.1554,"elev":1993,"name":"Grand Canyon Park Arpt, AZ, US","cover":"SCT","clouds":[{"cover":"SCT","base":12000}],"fltCat":"VFR"},{"icaoId":"KSJN","receiptTime":"2026-04-08T21:58:08.683Z","obsTime":1775685240,"reportTime":"2026-04-08T22:00:00.000Z","temp":24.4,"dewp":-6.7,"wdir":330,"wspd":14,"wgst":18,"visib":"10+","altim":1017,"slp":1010.2,"qcField":6,"metarType":"METAR","rawOb":"METAR KSJN 082154Z AUTO 33014G18KT 10SM CLR 24/M07 A3003 RMK AO2 SLP102 T02441067","lat":34.5184,"lon":-109.3801,"elev":1747,"name":"St Johns Ind Arpt, AZ, US","cover":"CLR","clouds":[],"fltCat":"VFR"},{"icaoId":"KPGA","receiptTime":"2026-04-08T21:56:24.089Z","obsTime":1775685180,"reportTime":"2026-04-08T22:00:00.000Z","temp":27.8,"dewp":-9.4,"wdir":0,"wspd":0,"visib":"10+","altim":1013.3,"slp":1007.3,"qcField":14,"metarType":"METAR","rawOb":"METAR KPGA 082153Z AUTO 00000KT 10SM CLR 28/M09 A2992 RMK AO2 SLP073 T02781094 $","lat":36.9211,"lon":-111.4487,"elev":1310,"name":"Page Muni, AZ, US","cover":"CLR","clouds":[],"fltCat":"VFR"},{"icaoId":"KPRC","receiptTime":"2026-04-08T21:56:24.529Z","obsTime":1775685180,"reportTime":"2026-04-08T22:00:00.000Z","temp":26.1,"dewp":-5.6,"wdir":210,"wspd":9,"wgst":20,"visib":"10+","altim":1016.3,"slp":1009.4,"qcField":4,"metarType":"METAR","rawOb":"METAR KPRC 082153Z 21009G20KT 140V310 10SM SCT120 26/M06 A3001 RMK AO2 SLP094 T02611056","lat":34.6491,"lon":-112.4223,"elev":1528,"name":"Prescott/Love Fld, AZ, US","cover":"SCT","clouds":[{"cover":"SCT","base":12000}],"fltCat":"VFR"},{"icaoId":"KDVT","receiptTime":"2026-04-08T21:56:39.861Z","obsTime":1775685180,"reportTime":"2026-04-08T22:00:00.000Z","temp":34.4,"dewp":-1.7,"wdir":260,"wspd":10,"visib":"10+","altim":1009.9,"slp":1007.4,"qcField":4,"metarType":"METAR","rawOb":"METAR KDVT 082153Z 26010KT 10SM BKN100 34/M02 A2982 RMK AO2 SLP074 T03441017","lat":33.6902,"lon":-112.0662,"elev":454,"name":"Phoenix/Deer Valley Arpt, AZ, US","cover":"BKN","clouds":[{"cover":"BKN","base":10000}],"fltCat":"VFR"},{"icaoId":"KTUS","receiptTime":"2026-04-08T21:56:26.156Z","obsTime":1775685180,"reportTime":"2026-04-08T22:00:00.000Z","temp":31.7,"dewp":-4.4,"wdir":340,"wspd":6,"visib":"10+","altim":1012.3,"slp":1007.8,"qcField":4,"metarType":"METAR","rawOb":"METAR KTUS 082153Z 34006KT 10SM CLR 32/M04 A2989 RMK AO2 SLP078 T03171044","lat":32.1315,"lon":-110.9564,"elev":776,"name":"Tucson Intl Arpt, AZ, US","cover":"CLR","clouds":[],"fltCat":"VFR"},{"icaoId":"KSDL","receiptTime":"2026-04-08T21:56:24.986Z","obsTime":1775685180,"reportTime":"2026-04-08T22:00:00.000Z","temp":34.4,"dewp":-2.8,"wdir":210,"wspd":9,"visib":"10+","altim":1009.9,"slp":1007.5,"qcField":4,"metarType":"METAR","rawOb":"METAR KSDL 082153Z 21009KT 10SM CLR 34/M03 A2982 RMK AO2 SLP075 T03441028","lat":33.6123,"lon":-111.9232,"elev":438,"name":"Scottsdale Muni, AZ, US","cover":"CLR","clouds":[],"fltCat":"VFR"},{"icaoId":"KSAD","receiptTime":"2026-04-08T21:54:07.241Z","obsTime":1775685060,"reportTime":"2026-04-08T22:00:00.000Z","temp":30,"dewp":-5.6,"wdir":"VRB","wspd":3,"visib":"10+","altim":1012.3,"slp":1007.9,"qcField":6,"metarType":"METAR","rawOb":"METAR KSAD 082151Z AUTO VRB03KT 10SM CLR 30/M06 A2989 RMK AO2 SLP079 T03001056","lat":32.8565,"lon":-109.636,"elev":937,"name":"Safford Rgnl, AZ, US","cover":"CLR","clouds":[],"fltCat":"VFR"},{"icaoId":"KPHX","receiptTime":"2026-04-08T21:54:09.729Z","obsTime":1775685060,"reportTime":"2026-04-08T22:00:00.000Z","temp":35,"dewp":-1.1,"wdir":260,"wspd":7,"visib":"10+","altim":1008.5,"slp":1006.7,"qcField":4,"metarType":"METAR","rawOb":"METAR KPHX 082151Z 26007KT 10SM FEW110 35/M01 A2978 RMK AO2 SLP067 T03501011","lat":33.4278,"lon":-112.0037,"elev":338,"name":"Phoenix/Sky Harbor Intl, AZ, US","cover":"FEW","clouds":[{"cover":"FEW","base":11000}],"fltCat":"VFR"},{"icaoId":"KIGM","receiptTime":"2026-04-08T21:54:07.105Z","obsTime":1775685060,"reportTime":"2026-04-08T22:00:00.000Z","temp":29.4,"dewp":-5.6,"wdir":230,"wspd":15,"wgst":24,"visib":"10+","altim":1013.3,"slp":1006.8,"qcField":6,"metarType":"METAR","rawOb":"METAR KIGM 082151Z AUTO 23015G24KT 10SM CLR 29/M06 A2992 RMK AO2 PK WND 24032/2137 SLP068 T02941056","lat":35.2575,"lon":-113.9341,"elev":1045,"name":"Kingman Arpt, AZ, US","cover":"CLR","clouds":[],"fltCat":"VFR"},{"icaoId":"KIWA","receiptTime":"2026-04-08T21:54:42.777Z","obsTime":1775685000,"reportTime":"2026-04-08T22:00:00.000Z","temp":34,"dewp":-1,"wdir":250,"wspd":9,"wgst":15,"visib":"10+","altim":1010.2,"qcField":0,"metarType":"METAR","rawOb":"METAR KIWA 082150Z 25009G15KT 200V270 10SM CLR 34/M01 A2983","lat":33.3008,"lon":-111.6437,"elev":420,"name":"Phoenix/Mesa Gateway Arpt, AZ, US","cover":"CLR","clouds":[],"fltCat":"VFR"},{"icaoId":"KIFP","receiptTime":"2026-04-08T21:50:06.742Z","obsTime":1775684940,"reportTime":"2026-04-08T22:00:00.000Z","temp":35,"dewp":-5,"wdir":210,"wspd":11,"wgst":18,"visib":"10+","altim":1007.5,"qcField":0,"metarType":"METAR","rawOb":"METAR KIFP 082149Z 21011G18KT 10SM CLR 35/M05 A2975","lat":35.1487,"lon":-114.5611,"elev":210,"name":"Bullhead City Intl, AZ, US","cover":"CLR","clouds":[],"fltCat":"VFR"},{"icaoId":"KCHD","receiptTime":"2026-04-08T21:47:53.976Z","obsTime":1775684820,"reportTime":"2026-04-08T22:00:00.000Z","temp":34,"dewp":-1,"wdir":"VRB","wspd":3,"visib":"10+","altim":1009.6,"qcField":0,"metarType":"METAR","rawOb":"METAR KCHD 082147Z VRB03KT 10SM CLR 34/M01 A2981","lat":33.2669,"lon":-111.8086,"elev":378,"name":"Chandler Muni, AZ, US","cover":"CLR","clouds":[],"fltCat":"VFR"},{"icaoId":"KGEU","receiptTime":"2026-04-08T21:50:01.041Z","obsTime":1775684820,"reportTime":"2026-04-08T22:00:00.000Z","temp":35,"dewp":-5,"wdir":210,"wspd":7,"visib":"10+","altim":1008.2,"qcField":0,"metarType":"METAR","rawOb":"METAR KGEU 082147Z 21007KT 10SM CLR 35/M05 A2977","lat":33.528,"lon":-112.293,"elev":319,"name":"Glendale Muni, AZ, US","cover":"CLR","clouds":[],"fltCat":"VFR"},{"icaoId":"KGYR","receiptTime":"2026-04-08T21:48:52.606Z","obsTime":1775684820,"reportTime":"2026-04-08T22:00:00.000Z","temp":35,"dewp":-1,"wdir":300,"wspd":7,"visib":"10+","altim":1009.2,"qcField":0,"metarType":"METAR","rawOb":"METAR KGYR 082147Z 30007KT 10SM FEW150 35/M01 A2980","lat":33.428,"lon":-112.368,"elev":292,"name":"Phoenix/Goodyear Muni, AZ, US","cover":"FEW","clouds":[{"cover":"FEW","base":15000}],"fltCat":"VFR"},{"icaoId":"KRYN","receiptTime":"2026-04-08T21:46:35.391Z","obsTime":1775684700,"reportTime":"2026-04-08T22:00:00.000Z","temp":33,"dewp":-3,"wdir":"VRB","wspd":5,"visib":"10+","altim":1010.9,"qcField":0,"metarType":"METAR","rawOb":"METAR KRYN 082145Z VRB05KT 10SM CLR 33/M03 A2985","lat":32.1418,"lon":-111.1767,"elev":731,"name":"Tucson/Ryan Fld, AZ, US","cover":"CLR","clouds":[],"fltCat":"VFR"},{"icaoId":"KNYL","receiptTime":"2026-04-08T21:00:27.043Z","obsTime":1775681820,"reportTime":"2026-04-08T21:00:00.000Z","temp":35,"dewp":0,"wdir":200,"wspd":7,"visib":"10+","altim":1008.5,"slp":1008.1,"qcField":4,"presTend":-2.2,"metarType":"METAR","rawOb":"METAR KNYL 082057Z 20007KT 140V220 10SM CLR 35/00 A2978 RMK AO2 SLP081 T03500000 56022","lat":32.66,"lon":-114.6078,"elev":58,"name":"Yuma , AZ, US","cover":"CLR","clouds":[],"fltCat":"VFR"}]