[{"icaoId":"KBVU","receiptTime":"2026-04-13T02:16:07.567Z","obsTime":1776046500,"reportTime":"2026-04-13T02:15:00.000Z","temp":19,"dewp":1,"wdir":230,"wspd":18,"visib":"10+","altim":1009.6,"qcField":6,"metarType":"METAR","rawOb":"METAR KBVU 130215Z AUTO 23018KT 10SM FEW100 FEW120 19/01 A2981 RMK AO2","lat":35.9489,"lon":-114.8633,"elev":654,"name":"Boulder City Muni, NV, US","cover":"FEW","clouds":[{"cover":"FEW","base":10000},{"cover":"FEW","base":12000}],"fltCat":"VFR"},{"icaoId":"KHAF","receiptTime":"2026-04-13T02:16:13.700Z","obsTime":1776046500,"reportTime":"2026-04-13T02:15:00.000Z","temp":13,"dewp":10,"wdir":280,"wspd":8,"visib":9,"altim":1015.3,"qcField":6,"metarType":"METAR","rawOb":"METAR KHAF 130215Z AUTO 28008KT 9SM BKN065 BKN075 13/10 A2998 RMK AO2","lat":37.5136,"lon":-122.4996,"elev":11,"name":"Half Moon Bay Arpt, CA, US","cover":"BKN","clouds":[{"cover":"BKN","base":6500},{"cover":"BKN","base":7500}],"fltCat":"VFR"},{"icaoId":"KPUW","receiptTime":"2026-04-13T02:16:07.341Z","obsTime":1776046380,"reportTime":"2026-04-13T02:13:00.000Z","temp":8.9,"dewp":7.8,"wdir":270,"wspd":5,"visib":"10+","altim":1004.8,"qcField":6,"metarType":"SPECI","rawOb":"SPECI KPUW 130213Z AUTO 27005KT 10SM BKN009 BKN055 OVC080 09/08 A2967 RMK AO2 CIG 007V013 T00890078","lat":46.7438,"lon":-117.1158,"elev":774,"name":"Pullman/Moscow Rgnl, WA, US","cover":"OVC","clouds":[{"cover":"BKN","base":900},{"cover":"BKN","base":5500},{"cover":"OVC","base":8000}],"fltCat":"IFR"},{"icaoId":"KBRO","receiptTime":"2026-04-13T02:16:04.081Z","obsTime":1776046320,"reportTime":"2026-04-13T02:12:00.000Z","temp":25.6,"dewp":22.8,"wdir":150,"wspd":14,"visib":"10+","altim":1017.4,"qcField":4,"wxString":"-RA","precip":0.005,"metarType":"SPECI","rawOb":"SPECI KBRO 130212Z 15014KT 10SM -RA SCT014 BKN029 BKN090 26/23 A3004 RMK AO2 RAB00 P0000 T02560228","lat":25.9146,"lon":-97.4231,"elev":6,"name":"Brownsville Intl, TX, US","cover":"BKN","clouds":[{"cover":"SCT","base":1400},{"cover":"BKN","base":2900},{"cover":"BKN","base":9000}],"fltCat":"MVFR"},{"icaoId":"KLWS","receiptTime":"2026-04-13T02:16:03.951Z","obsTime":1776046320,"reportTime":"2026-04-13T02:12:00.000Z","temp":10.6,"dewp":9.4,"wdir":150,"wspd":4,"visib":2.5,"altim":1004.1,"qcField":4,"wxString":"+RA BR","precip":0.03,"metarType":"SPECI","rawOb":"SPECI KLWS 130212Z 15004KT 2 1/2SM +RA BR BKN023 OVC030 11/09 A2965 RMK AO2 P0003 T01060094","lat":46.3746,"lon":-117.0153,"elev":435,"name":"Lewiston/Nez Perce Cnty, ID, US","cover":"OVC","clouds":[{"cover":"BKN","base":2300},{"cover":"OVC","base":3000}],"fltCat":"IFR"},{"icaoId":"KIAH","receiptTime":"2026-04-13T02:14:17.807Z","obsTime":1776046260,"reportTime":"2026-04-13T02:11:00.000Z","temp":21.7,"dewp":21.1,"wdir":130,"wspd":8,"visib":2,"altim":1020.4,"qcField":4,"wxString":"+TSRA BR","precip":0.4,"metarType":"SPECI","rawOb":"SPECI KIAH 130211Z 13008KT 2SM +TSRA BR FEW008 BKN021CB OVC060 22/21 A3013 RMK AO2 OCNL LTGICCG ALQDS TS ALQDS MOV NE P0040 T02170211","lat":29.9844,"lon":-95.3607,"elev":27,"name":"Houston/Bush Intl, TX, US","cover":"OVC","clouds":[{"cover":"FEW","base":800},{"cover":"BKN","base":2100},{"cover":"OVC","base":6000}],"fltCat":"IFR"},{"icaoId":"KHIO","receiptTime":"2026-04-13T02:14:17.750Z","obsTime":1776046200,"reportTime":"2026-04-13T02:10:00.000Z","temp":11.7,"dewp":10.6,"wdir":230,"wspd":5,"visib":6,"altim":1009.9,"qcField":4,"wxString":"-RA BR","precip":0.04,"metarType":"SPECI","rawOb":"SPECI KHIO 130210Z 23005KT 6SM -RA BR FEW014 BKN027 OVC033 12/11 A2982 RMK AO2 P0004 T01170106","lat":45.5476,"lon":-122.9557,"elev":62,"name":"Portland/Hillsboro Arpt, OR, US","cover":"OVC","clouds":[{"cover":"FEW","base":1400},{"cover":"BKN","base":2700},{"cover":"OVC","base":3300}],"fltCat":"MVFR"},{"icaoId":"PANC","receiptTime":"2026-04-13T02:12:16.570Z","obsTime":1776046140,"reportTime":"2026-04-13T02:09:00.000Z","temp":1.7,"dewp":0,"wdir":0,"wspd":0,"visib":"10+","altim":1000.1,"qcField":12,"wxString":"-RA","precip":0.005,"metarType":"SPECI","rawOb":"SPECI PANC 130209Z 00000KT 10SM -RA BKN028 BKN033 OVC044 02/00 A2953 RMK AO2 P0000 T00170000 $","lat":61.1691,"lon":-150.0277,"elev":39,"name":"Anchorage Intl, AK, US","cover":"OVC","clouds":[{"cover":"BKN","base":2800},{"cover":"BKN","base":3300},{"cover":"OVC","base":4400}],"fltCat":"MVFR"},{"icaoId":"KCRQ","receiptTime":"2026-04-13T02:04:15.521Z","obsTime":1776045660,"reportTime":"2026-04-13T02:01:00.000Z","temp":16.1,"dewp":12.8,"wdir":290,"wspd":3,"visib":"10+","altim":1016,"qcField":4,"metarType":"SPECI","rawOb":"SPECI KCRQ 130201Z 29003KT 10SM SCT015 BKN019 OVC050 16/13 A3000 RMK AO2 T01610128","lat":33.1299,"lon":-117.2765,"elev":96,"name":"Carlsbad/Palomar Arpt, CA, US","cover":"OVC","clouds":[{"cover":"SCT","base":1500},{"cover":"BKN","base":1900},{"cover":"OVC","base":5000}],"fltCat":"MVFR"},{"icaoId":"KNYL","receiptTime":"2026-04-13T02:01:03.084Z","obsTime":1776045420,"reportTime":"2026-04-13T02:00:00.000Z","temp":24.4,"dewp":2.8,"wdir":210,"wspd":4,"visib":"10+","altim":1012.6,"slp":1012.2,"qcField":6,"metarType":"METAR","rawOb":"METAR KNYL 130157Z AUTO 21004KT 10SM CLR 24/03 A2990 RMK AO2 SLP122 T02440028","lat":32.66,"lon":-114.6078,"elev":58,"name":"Yuma , AZ, US","cover":"CLR","clouds":[],"fltCat":"VFR"},{"icaoId":"KFLG","receiptTime":"2026-04-13T02:01:00.536Z","obsTime":1776045420,"reportTime":"2026-04-13T02:00:00.000Z","temp":8.9,"dewp":-3.3,"wdir":220,"wspd":18,"wgst":31,"visib":"10+","altim":1016.7,"slp":1013,"qcField":12,"metarType":"METAR","rawOb":"METAR KFLG 130157Z 22018G31KT 10SM CLR 09/M03 A3002 RMK AO2 PK WND 21036/0108 SLP130 T00891033 $","lat":35.1443,"lon":-111.6664,"elev":2134,"name":"Flagstaff/Pulliam Arpt, AZ, US","cover":"CLR","clouds":[],"fltCat":"VFR"},{"icaoId":"KEGE","receiptTime":"2026-04-13T02:00:16.321Z","obsTime":1776045360,"reportTime":"2026-04-13T02:00:00.000Z","temp":13.9,"dewp":-5,"wdir":210,"wspd":16,"wgst":27,"visib":"10+","altim":1013.3,"slp":1009.8,"qcField":6,"metarType":"METAR","rawOb":"METAR KEGE 130156Z AUTO 21016G27KT 10SM FEW110 14/M05 A2992 RMK AO2 PK WND 21029/0144 SLP098 T01391050","lat":39.6448,"lon":-106.9176,"elev":1993,"name":"Eagle Cnty Rgnl, CO, US","cover":"FEW","clouds":[{"cover":"FEW","base":11000}],"fltCat":"VFR"},{"icaoId":"KHND","receiptTime":"2026-04-13T02:00:17.860Z","obsTime":1776045360,"reportTime":"2026-04-13T02:00:00.000Z","temp":17.8,"dewp":3.9,"wdir":220,"wspd":15,"wgst":23,"visib":"10+","altim":1011.3,"slp":1011.6,"qcField":12,"metarType":"METAR","rawOb":"METAR KHND 130156Z 22015G23KT 10SM CLR 18/04 A2986 RMK AO2 PK WND 24026/0109 SLP116 T01780039 $","lat":35.9657,"lon":-115.1343,"elev":740,"name":"Henderson Exec, NV, US","cover":"CLR","clouds":[],"fltCat":"VFR"},{"icaoId":"KPVU","receiptTime":"2026-04-13T02:00:17.723Z","obsTime":1776045360,"reportTime":"2026-04-13T02:00:00.000Z","temp":13.9,"dewp":0.6,"wdir":320,"wspd":18,"wgst":26,"visib":"10+","altim":1007.5,"slp":1004.7,"qcField":4,"metarType":"METAR","rawOb":"METAR KPVU 130156Z 32018G26KT 10SM SCT120 14/01 A2975 RMK AO2 PK WND 23029/0126 WSHFT 0127 SLP047 T01390006","lat":40.224,"lon":-111.7252,"elev":1370,"name":"Provo Muni, UT, US","cover":"SCT","clouds":[{"cover":"SCT","base":12000}],"fltCat":"VFR"},{"icaoId":"KTPH","receiptTime":"2026-04-13T02:00:51.025Z","obsTime":1776045360,"reportTime":"2026-04-13T02:00:00.000Z","temp":10,"dewp":-8.9,"wdir":320,"wspd":14,"wgst":22,"visib":"10+","altim":1009.9,"slp":1007.6,"qcField":6,"metarType":"METAR","rawOb":"METAR KTPH 130156Z AUTO 32014G22KT 10SM CLR 10/M09 A2982 RMK AO2 PK WND 26030/0102 SLP076 T01001089","lat":38.0505,"lon":-117.0906,"elev":1647,"name":"Tonopah Arpt, NV, US","cover":"CLR","clouds":[],"fltCat":"VFR"},{"icaoId":"KSLE","receiptTime":"2026-04-13T02:00:50.728Z","obsTime":1776045360,"reportTime":"2026-04-13T02:00:00.000Z","temp":11.7,"dewp":8.9,"wdir":"VRB","wspd":3,"visib":"10+","altim":1010.6,"slp":1010.4,"qcField":4,"precip":0.02,"metarType":"METAR","rawOb":"METAR KSLE 130156Z VRB03KT 10SM OVC045 12/09 A2984 RMK AO2 RAE51 SLP104 P0002 T01170089","lat":44.9049,"lon":-123.001,"elev":63,"name":"Salem Muni, OR, US","cover":"OVC","clouds":[{"cover":"OVC","base":4500}],"fltCat":"VFR"},{"icaoId":"KRDM","receiptTime":"2026-04-13T02:00:50.461Z","obsTime":1776045360,"reportTime":"2026-04-13T02:00:00.000Z","temp":9.4,"dewp":0.6,"wdir":290,"wspd":8,"visib":"10+","altim":1007.9,"slp":1007.8,"qcField":4,"metarType":"METAR","rawOb":"METAR KRDM 130156Z 29008KT 10SM OVC070 09/01 A2976 RMK AO2 SLP078 T00940006","lat":44.2558,"lon":-121.1407,"elev":930,"name":"Redmond Muni, OR, US","cover":"OVC","clouds":[{"cover":"OVC","base":7000}],"fltCat":"VFR"},{"icaoId":"KVIS","receiptTime":"2026-04-13T02:00:14.886Z","obsTime":1776045360,"reportTime":"2026-04-13T02:00:00.000Z","temp":15,"dewp":10.6,"wdir":360,"wspd":11,"visib":"10+","altim":1015,"slp":1014.8,"qcField":14,"metarType":"METAR","rawOb":"METAR KVIS 130156Z AUTO 36011KT 10SM OVC060 15/11 A2997 RMK AO2 RAB24E40 SLP148 T01500106 PNO $","lat":36.3135,"lon":-119.3884,"elev":92,"name":"Visalia Muni, CA, US","cover":"OVC","clouds":[{"cover":"OVC","base":6000}],"fltCat":"VFR"},{"icaoId":"KJAC","receiptTime":"2026-04-13T02:00:12.124Z","obsTime":1776045360,"reportTime":"2026-04-13T02:00:00.000Z","temp":5,"dewp":0,"wdir":230,"wspd":5,"visib":"10+","altim":1009.6,"slp":1010.8,"qcField":4,"precip":0.005,"metarType":"METAR","rawOb":"METAR KJAC 130156Z 23005KT 10SM FEW046 OVC095 05/00 A2981 RMK AO2 RAB31E49 SLP108 P0000 T00500000","lat":43.6129,"lon":-110.7366,"elev":1967,"name":"Jackson Hole Arpt, WY, US","cover":"OVC","clouds":[{"cover":"FEW","base":4600},{"cover":"OVC","base":9500}],"fltCat":"VFR"},{"icaoId":"KLAS","receiptTime":"2026-04-13T02:00:48.206Z","obsTime":1776045360,"reportTime":"2026-04-13T02:00:00.000Z","temp":18.3,"dewp":3.9,"wdir":210,"wspd":16,"wgst":23,"visib":"10+","altim":1010.2,"slp":1009,"qcField":4,"metarType":"METAR","rawOb":"METAR KLAS 130156Z 21016G23KT 10SM FEW060 BKN100 18/04 A2983 RMK AO2 PK WND 23037/0106 SLP090 T01830039","lat":36.0719,"lon":-115.1634,"elev":662,"name":"Las Vegas/Reid Intl, NV, US","cover":"BKN","clouds":[{"cover":"FEW","base":6000},{"cover":"BKN","base":10000}],"fltCat":"VFR"},{"icaoId":"KHDN","receiptTime":"2026-04-13T02:00:18.920Z","obsTime":1776045360,"reportTime":"2026-04-13T02:00:00.000Z","temp":11.7,"dewp":-8.3,"wdir":240,"wspd":11,"visib":"10+","altim":1011.3,"slp":1008.1,"qcField":6,"metarType":"METAR","rawOb":"METAR KHDN 130156Z AUTO 24011KT 10SM CLR 12/M08 A2986 RMK AO2 PK WND 22026/0059 SLP081 T01171083","lat":40.4842,"lon":-107.2296,"elev":2012,"name":"Hayden/Yampa Valley Arpt, CO, US","cover":"CLR","clouds":[],"fltCat":"VFR"},{"icaoId":"KCOE","receiptTime":"2026-04-13T02:00:13.237Z","obsTime":1776045360,"reportTime":"2026-04-13T02:00:00.000Z","temp":14.4,"dewp":6.1,"wdir":190,"wspd":6,"visib":"10+","altim":1002.5,"slp":1004.3,"qcField":14,"metarType":"METAR","rawOb":"METAR KCOE 130156Z AUTO 19006KT 10SM BKN110 14/06 A2960 RMK AO2 SLP043 T01440061 PNO $","lat":47.7719,"lon":-116.8332,"elev":693,"name":"Coeur DAlene Arpt, ID, US","cover":"BKN","clouds":[{"cover":"BKN","base":11000}],"fltCat":"VFR"},{"icaoId":"KINW","receiptTime":"2026-04-13T02:00:39.715Z","obsTime":1776045360,"reportTime":"2026-04-13T02:00:00.000Z","temp":16.7,"dewp":-6.7,"wdir":220,"wspd":20,"wgst":28,"visib":"10+","altim":1014.6,"slp":1010.5,"qcField":6,"metarType":"METAR","rawOb":"METAR KINW 130156Z AUTO 22020G28KT 10SM CLR 17/M07 A2996 RMK AO2 PK WND 22033/0059 SLP105 T01671067","lat":35.0279,"lon":-110.7221,"elev":1492,"name":"Winslow/Lindberg Rgnl, AZ, US","cover":"CLR","clouds":[],"fltCat":"VFR"},{"icaoId":"KCEC","receiptTime":"2026-04-13T02:00:36.143Z","obsTime":1776045360,"reportTime":"2026-04-13T02:00:00.000Z","temp":11.1,"dewp":7.8,"wdir":330,"wspd":6,"visib":"10+","altim":1014,"slp":1013.9,"qcField":6,"metarType":"METAR","rawOb":"METAR KCEC 130156Z AUTO 33006KT 10SM SCT020 11/08 A2994 RMK AO2 SLP139 T01110078","lat":41.7836,"lon":-124.238,"elev":17,"name":"Crescent City/McNama, CA, US","cover":"SCT","clouds":[{"cover":"SCT","base":2000}],"fltCat":"VFR"},{"icaoId":"KGUC","receiptTime":"2026-04-13T02:00:16.980Z","obsTime":1776045360,"reportTime":"2026-04-13T02:00:00.000Z","temp":12.2,"dewp":-7.8,"wdir":230,"wspd":7,"visib":"10+","altim":1015,"slp":1011.6,"qcField":14,"metarType":"METAR","rawOb":"METAR KGUC 130156Z AUTO 23007KT 10SM OVC110 12/M08 A2997 RMK AO2 SLP116 T01221078 $","lat":38.5322,"lon":-106.9419,"elev":2337,"name":"Gunnison Arpt, CO, US","cover":"OVC","clouds":[{"cover":"OVC","base":11000}],"fltCat":"VFR"},{"icaoId":"KSFO","receiptTime":"2026-04-13T02:00:33.575Z","obsTime":1776045360,"reportTime":"2026-04-13T02:00:00.000Z","temp":13.3,"dewp":8.9,"wdir":260,"wspd":13,"visib":"10+","altim":1014.6,"slp":1014.4,"qcField":12,"precip":0.005,"metarType":"METAR","rawOb":"METAR KSFO 130156Z 26013KT 10SM FEW017 SCT026 BKN034 BKN180 13/09 A2996 RMK AO2 RAB14E49 SLP144 P0000 T01330089 $","lat":37.6196,"lon":-122.3656,"elev":2,"name":"San Francisco Intl, CA, US","cover":"BKN","clouds":[{"cover":"FEW","base":1700},{"cover":"SCT","base":2600},{"cover":"BKN","base":3400},{"cover":"BKN","base":18000}],"fltCat":"VFR"},{"icaoId":"KCOD","receiptTime":"2026-04-13T02:00:08.246Z","obsTime":1776045360,"reportTime":"2026-04-13T02:00:00.000Z","temp":7.8,"dewp":1.7,"wdir":230,"wspd":11,"wgst":20,"visib":"10+","altim":1007.5,"slp":1006,"qcField":14,"precip":0.005,"metarType":"METAR","rawOb":"METAR KCOD 130156Z AUTO 23011G20KT 10SM FEW080 OVC110 08/02 A2975 RMK AO2 PK WND 26032/0057 TSE20RAB21E36 SLP060 P0000 T00780017 $","lat":44.52,"lon":-109.0268,"elev":1550,"name":"Cody/Yellowstone Rgnl, WY, US","cover":"OVC","clouds":[{"cover":"FEW","base":8000},{"cover":"OVC","base":11000}],"fltCat":"VFR"},{"icaoId":"KCGZ","receiptTime":"2026-04-13T02:00:08.159Z","obsTime":1776045360,"reportTime":"2026-04-13T02:00:00.000Z","temp":23.9,"dewp":4.4,"wdir":210,"wspd":21,"wgst":24,"visib":"10+","altim":1013.6,"slp":1012.5,"qcField":14,"metarType":"METAR","rawOb":"METAR KCGZ 130156Z AUTO 21021G24KT 10SM CLR 24/04 A2993 RMK AO2 SLP125 T02390044 $","lat":32.9531,"lon":-111.7725,"elev":444,"name":"Casa Granda Muni, AZ, US","cover":"CLR","clouds":[],"fltCat":"VFR"},{"icaoId":"KFNL","receiptTime":"2026-04-13T02:00:16.693Z","obsTime":1776045360,"reportTime":"2026-04-13T02:00:00.000Z","temp":19.4,"dewp":-10,"wdir":270,"wspd":7,"visib":"10+","altim":1007.2,"slp":1002.4,"qcField":14,"metarType":"METAR","rawOb":"METAR KFNL 130156Z AUTO 27007KT 10SM CLR 19/M10 A2974 RMK AO2 SLP024 T01941100 $","lat":40.4427,"lon":-105.0097,"elev":1529,"name":"Fort Collins/N Colorado Rgnl, CO, US","cover":"CLR","clouds":[],"fltCat":"VFR"},{"icaoId":"KEKO","receiptTime":"2026-04-13T02:00:34.732Z","obsTime":1776045360,"reportTime":"2026-04-13T02:00:00.000Z","temp":7.2,"dewp":-3.3,"wdir":310,"wspd":8,"visib":"10+","altim":1009.9,"slp":1008.7,"qcField":6,"metarType":"METAR","rawOb":"METAR KEKO 130156Z AUTO 31008KT 10SM FEW048 07/M03 A2982 RMK AO2 SLP087 T00721033","lat":40.824,"lon":-115.7863,"elev":1541,"name":"Elko Rgnl, NV, US","cover":"FEW","clouds":[{"cover":"FEW","base":4800}],"fltCat":"VFR"},{"icaoId":"KSGU","receiptTime":"2026-04-13T02:00:11.544Z","obsTime":1776045360,"reportTime":"2026-04-13T02:00:00.000Z","temp":20,"dewp":-1.1,"wdir":260,"wspd":12,"wgst":18,"visib":"10+","altim":1008.9,"slp":1006.7,"qcField":6,"metarType":"METAR","rawOb":"METAR KSGU 130156Z AUTO 26012G18KT 10SM CLR 20/M01 A2979 RMK AO2 PK WND 21034/0100 SLP067 T02001011","lat":37.0444,"lon":-113.5034,"elev":877,"name":"Saint George Muni, UT, US","cover":"CLR","clouds":[],"fltCat":"VFR"},{"icaoId":"KSDF","receiptTime":"2026-04-13T02:00:50.027Z","obsTime":1776045360,"reportTime":"2026-04-13T02:00:00.000Z","temp":25,"dewp":7.8,"wdir":170,"wspd":10,"visib":"10+","altim":1017.7,"slp":1017.3,"qcField":4,"metarType":"METAR","rawOb":"METAR KSDF 130156Z 17010KT 10SM BKN170 OVC250 25/08 A3005 RMK AO2 SLP173 T02500078","lat":38.1774,"lon":-85.7308,"elev":146,"name":"Louisville Intl, KY, US","cover":"OVC","clouds":[{"cover":"BKN","base":17000},{"cover":"OVC","base":25000}],"fltCat":"VFR"},{"icaoId":"KJAX","receiptTime":"2026-04-13T02:00:39.816Z","obsTime":1776045360,"reportTime":"2026-04-13T02:00:00.000Z","temp":20,"dewp":15.6,"wdir":100,"wspd":6,"visib":"10+","altim":1027.2,"slp":1027.1,"qcField":12,"metarType":"METAR","rawOb":"METAR KJAX 130156Z 10006KT 10SM FEW034 20/16 A3033 RMK AO2 SLP271 T02000156 $","lat":30.4953,"lon":-81.6937,"elev":8,"name":"Jacksonville Intl, FL, US","cover":"FEW","clouds":[{"cover":"FEW","base":3400}],"fltCat":"VFR"},{"icaoId":"KSBP","receiptTime":"2026-04-13T02:12:16.473Z","obsTime":1776045360,"reportTime":"2026-04-13T02:00:00.000Z","temp":14.4,"dewp":7.8,"wdir":320,"wspd":9,"visib":"10+","altim":1016,"slp":1015.7,"qcField":5,"metarType":"METAR","rawOb":"METAR KSBP 130156Z COR 32009KT 10SM FEW015 14/08 A3000 RMK AO2 SLP157 T01440078","lat":35.2381,"lon":-120.644,"elev":52,"name":"San Luis Obispo/San Luis Cnty, CA, US","cover":"FEW","clouds":[{"cover":"FEW","base":1500}],"fltCat":"VFR"},{"icaoId":"KUKI","receiptTime":"2026-04-13T02:00:38.444Z","obsTime":1776045360,"reportTime":"2026-04-13T02:00:00.000Z","temp":11.7,"dewp":5,"wdir":0,"wspd":0,"visib":"10+","altim":1013.3,"slp":1012.8,"qcField":6,"metarType":"METAR","rawOb":"METAR KUKI 130156Z AUTO 00000KT 10SM CLR 12/05 A2992 RMK AO2 SLP128 T01170050","lat":39.1278,"lon":-123.2001,"elev":183,"name":"Ukiah Muni, CA, US","cover":"CLR","clouds":[],"fltCat":"VFR"},{"icaoId":"KCHS","receiptTime":"2026-04-13T02:00:41.327Z","obsTime":1776045360,"reportTime":"2026-04-13T02:00:00.000Z","temp":18.9,"dewp":16.1,"wdir":140,"wspd":4,"visib":"10+","altim":1028.5,"slp":1028.2,"qcField":12,"metarType":"METAR","rawOb":"METAR KCHS 130156Z 14004KT 10SM CLR 19/16 A3037 RMK AO2 SLP282 T01890161 $","lat":32.8995,"lon":-80.0407,"elev":12,"name":"Charleston Intl, SC, US","cover":"CLR","clouds":[],"fltCat":"VFR"},{"icaoId":"KDUG","receiptTime":"2026-04-13T02:02:14.956Z","obsTime":1776045360,"reportTime":"2026-04-13T02:00:00.000Z","temp":21.1,"dewp":0,"wdir":240,"wspd":13,"wgst":20,"visib":"10+","altim":1018.7,"slp":1013.3,"qcField":38,"metarType":"METAR","rawOb":"METAR KDUG 130156Z AUTO 24013G20KT 10SM CLR 21/00 A3008 RMK AO2 SLP133 T02110000 TSNO","lat":31.4725,"lon":-109.6022,"elev":1260,"name":"Douglas/Bisbee Intl, AZ, US","cover":"CLR","clouds":[],"fltCat":"VFR"},{"icaoId":"KPWT","receiptTime":"2026-04-13T02:00:21.133Z","obsTime":1776045360,"reportTime":"2026-04-13T02:00:00.000Z","temp":11.7,"dewp":9.4,"wdir":200,"wspd":8,"visib":"10+","altim":1008.5,"slp":1008.9,"qcField":6,"metarType":"METAR","rawOb":"METAR KPWT 130156Z AUTO 20008KT 10SM OVC019 12/09 A2978 RMK AO2 SLP089 T01170094","lat":47.4942,"lon":-122.7594,"elev":143,"name":"Bremerton Arpt, WA, US","cover":"OVC","clouds":[{"cover":"OVC","base":1900}],"fltCat":"MVFR"},{"icaoId":"KENV","receiptTime":"2026-04-13T02:00:16.424Z","obsTime":1776045360,"reportTime":"2026-04-13T02:00:00.000Z","temp":11.7,"dewp":-6.1,"wdir":270,"wspd":9,"visib":"10+","altim":1009.2,"slp":1008.5,"qcField":6,"metarType":"METAR","rawOb":"METAR KENV 130156Z AUTO 27009KT 10SM BKN095 BKN120 12/M06 A2980 RMK AO2 SLP085 T01171061","lat":40.7211,"lon":-114.0312,"elev":1291,"name":"Wendover Arpt, UT, US","cover":"BKN","clouds":[{"cover":"BKN","base":9500},{"cover":"BKN","base":12000}],"fltCat":"VFR"},{"icaoId":"KMHR","receiptTime":"2026-04-13T02:00:47.608Z","obsTime":1776045300,"reportTime":"2026-04-13T02:00:00.000Z","temp":12,"dewp":12,"wdir":180,"wspd":7,"visib":9,"altim":1013.6,"qcField":6,"wxString":"-DZ","precip":0.01,"metarType":"METAR","rawOb":"METAR KMHR 130155Z AUTO 18007KT 9SM -DZ FEW023 SCT029 BKN042 12/12 A2993 RMK AO2 P0001","lat":38.56,"lon":-121.284,"elev":30,"name":"Sacramento/Mather Fld, CA, US","cover":"BKN","clouds":[{"cover":"FEW","base":2300},{"cover":"SCT","base":2900},{"cover":"BKN","base":4200}],"fltCat":"VFR"},{"icaoId":"KHII","receiptTime":"2026-04-13T02:02:11.930Z","obsTime":1776045300,"reportTime":"2026-04-13T02:00:00.000Z","temp":25,"dewp":3,"wdir":200,"wspd":17,"visib":"10+","altim":1009.9,"qcField":6,"metarType":"METAR","rawOb":"METAR KHII 130155Z AUTO 20017KT 10SM CLR 25/03 A2982 RMK AO2","lat":34.5659,"lon":-114.3522,"elev":241,"name":"Lake Havasu City Arpt, AZ, US","cover":"CLR","clouds":[],"fltCat":"VFR"},{"icaoId":"KCMA","receiptTime":"2026-04-13T02:00:08.217Z","obsTime":1776045300,"reportTime":"2026-04-13T02:00:00.000Z","temp":16.1,"dewp":8.3,"wdir":250,"wspd":8,"visib":"10+","altim":1015.7,"slp":1016.5,"qcField":4,"metarType":"METAR","rawOb":"METAR KCMA 130155Z 25008KT 10SM CLR 16/08 A2999 RMK AO2 SLP165 T01610083","lat":34.2114,"lon":-119.0876,"elev":20,"name":"Camarillo Arpt, CA, US","cover":"CLR","clouds":[],"fltCat":"VFR"},{"icaoId":"KLRU","receiptTime":"2026-04-13T02:00:04.058Z","obsTime":1776045300,"reportTime":"2026-04-13T02:00:00.000Z","temp":21.8,"dewp":-0.5,"wdir":260,"wspd":24,"wgst":31,"visib":"10+","altim":1017.7,"qcField":6,"metarType":"METAR","rawOb":"METAR KLRU 130155Z AUTO 26024G31KT 10SM SCT110 22/00 A3005 RMK AO2 T02181005","lat":32.2884,"lon":-106.9131,"elev":1355,"name":"Las Cruces Intl, NM, US","cover":"SCT","clouds":[{"cover":"SCT","base":11000}],"fltCat":"VFR"},{"icaoId":"KHOB","receiptTime":"2026-04-13T02:00:03.299Z","obsTime":1776045300,"reportTime":"2026-04-13T02:00:00.000Z","temp":23,"dewp":-7,"wdir":250,"wspd":13,"visib":"10+","altim":1015.3,"qcField":6,"metarType":"METAR","rawOb":"METAR KHOB 130155Z AUTO 25013KT 10SM CLR 23/M07 A2998 RMK AO2","lat":32.6797,"lon":-103.2222,"elev":1112,"name":"Hobbs Arpt, NM, US","cover":"CLR","clouds":[],"fltCat":"VFR"},{"icaoId":"KAST","receiptTime":"2026-04-13T02:00:07.535Z","obsTime":1776045300,"reportTime":"2026-04-13T02:00:00.000Z","temp":11.1,"dewp":6.1,"wdir":280,"wspd":9,"visib":"10+","altim":1010.9,"slp":1010.7,"qcField":6,"metarType":"METAR","rawOb":"METAR KAST 130155Z AUTO 28009KT 10SM OVC025 11/06 A2985 RMK AO2 SLP107 T01110061","lat":46.157,"lon":-123.8833,"elev":3,"name":"Astoria Rgnl, OR, US","cover":"OVC","clouds":[{"cover":"OVC","base":2500}],"fltCat":"MVFR"},{"icaoId":"KHTH","receiptTime":"2026-04-13T02:00:43.632Z","obsTime":1776045300,"reportTime":"2026-04-13T02:00:00.000Z","temp":11,"dewp":-7,"wdir":180,"wspd":11,"visib":"10+","altim":1010.6,"qcField":6,"metarType":"METAR","rawOb":"METAR KHTH 130155Z AUTO 18011KT 10SM SCT080 SCT090 11/M07 A2984 RMK A01","lat":38.5448,"lon":-118.6314,"elev":1281,"name":"Hawthorne Muni, NV, US","cover":"SCT","clouds":[{"cover":"SCT","base":8000},{"cover":"SCT","base":9000}],"fltCat":"VFR"},{"icaoId":"KHCR","receiptTime":"2026-04-13T02:00:17.063Z","obsTime":1776045300,"reportTime":"2026-04-13T02:00:00.000Z","temp":14,"dewp":-12.5,"wdir":230,"wspd":17,"wgst":27,"visib":"10+","altim":1006.2,"qcField":14,"metarType":"METAR","rawOb":"METAR KHCR 130155Z AUTO 23017G27KT 200V260 10SM FEW100 14/M12 A2971 RMK AO2 PK WND 24035/0105 T01401125 $","lat":40.4774,"lon":-111.4329,"elev":1708,"name":"Heber City Muni, UT, US","cover":"FEW","clouds":[{"cover":"FEW","base":10000}],"fltCat":"VFR"},{"icaoId":"KRNO","receiptTime":"2026-04-13T02:00:17.816Z","obsTime":1776045300,"reportTime":"2026-04-13T02:00:00.000Z","temp":5,"dewp":-1.7,"wdir":290,"wspd":10,"visib":"10+","altim":1012.3,"slp":1011.5,"qcField":4,"metarType":"METAR","rawOb":"METAR KRNO 130155Z 29010KT 10SM FEW025 OVC060 05/M02 A2989 RMK AO2 SLP115 MTNS OBSCD DSNT SW THRU NW T00501017","lat":39.5077,"lon":-119.7683,"elev":1344,"name":"Reno/Tahoe Intl, NV, US","cover":"OVC","clouds":[{"cover":"FEW","base":2500},{"cover":"OVC","base":6000}],"fltCat":"VFR"},{"icaoId":"KRTS","receiptTime":"2026-04-13T02:00:49.840Z","obsTime":1776045300,"reportTime":"2026-04-13T02:00:00.000Z","temp":4,"dewp":-3,"wdir":200,"wspd":16,"visib":"10+","altim":1011.9,"qcField":6,"metarType":"METAR","rawOb":"METAR KRTS 130155Z AUTO 20016KT 10SM FEW022 SCT032 BKN050 04/M03 A2988 RMK AO2","lat":39.6658,"lon":-119.8731,"elev":1537,"name":"Reno/Stead Arpt, NV, US","cover":"BKN","clouds":[{"cover":"FEW","base":2200},{"cover":"SCT","base":3200},{"cover":"BKN","base":5000}],"fltCat":"VFR"},{"icaoId":"KSEZ","receiptTime":"2026-04-13T02:00:50.666Z","obsTime":1776045300,"reportTime":"2026-04-13T02:00:00.000Z","temp":15,"dewp":-2,"wdir":190,"wspd":13,"wgst":20,"visib":"10+","altim":1015.7,"qcField":6,"metarType":"METAR","rawOb":"METAR KSEZ 130155Z AUTO 19013G20KT 10SM CLR 15/M02 A2999 RMK AO2","lat":34.8467,"lon":-111.7884,"elev":1455,"name":"Sedona Arpt, AZ, US","cover":"CLR","clouds":[],"fltCat":"VFR"},{"icaoId":"KLUF","receiptTime":"2026-04-13T02:14:10.885Z","obsTime":1776045300,"reportTime":"2026-04-13T02:00:00.000Z","temp":25,"dewp":1.1,"wdir":230,"wspd":10,"visib":"10+","altim":1011.6,"slp":1010.7,"qcField":14,"metarType":"METAR","rawOb":"METAR KLUF 130155Z AUTO 23010KT 10SM CLR 25/01 A2987 RMK AO2 SLP107 T02500011 $","lat":33.538,"lon":-112.38,"elev":333,"name":"Phoenix/Luke AFB, AZ, US","cover":"CLR","clouds":[],"fltCat":"VFR"},{"icaoId":"KADM","receiptTime":"2026-04-13T02:01:03.686Z","obsTime":1776045300,"reportTime":"2026-04-13T02:00:00.000Z","temp":22,"dewp":21,"wdir":150,"wspd":9,"visib":"10+","altim":1014.3,"qcField":6,"metarType":"METAR","rawOb":"METAR KADM 130155Z AUTO 15009KT 10SM BKN016 OVC021 22/21 A2995 RMK AO2","lat":34.3007,"lon":-97.0089,"elev":223,"name":"Ardmore Muni, OK, US","cover":"OVC","clouds":[{"cover":"BKN","base":1600},{"cover":"OVC","base":2100}],"fltCat":"MVFR"},{"icaoId":"KSOW","receiptTime":"2026-04-13T02:00:18.884Z","obsTime":1776045300,"reportTime":"2026-04-13T02:00:00.000Z","temp":13,"dewp":-1,"wdir":200,"wspd":21,"wgst":29,"visib":"10+","altim":1017.7,"qcField":6,"metarType":"METAR","rawOb":"METAR KSOW 130155Z AUTO 20021G29KT 10SM CLR 13/M01 A3005 RMK AO2","lat":34.2686,"lon":-110.0019,"elev":1954,"name":"Show Low Muni, AZ, US","cover":"CLR","clouds":[],"fltCat":"VFR"},{"icaoId":"KCXP","receiptTime":"2026-04-13T02:00:41.601Z","obsTime":1776045300,"reportTime":"2026-04-13T02:00:00.000Z","temp":4,"dewp":-1,"wdir":160,"wspd":6,"wgst":11,"visib":9,"altim":1013,"qcField":6,"wxString":"-RA","metarType":"METAR","rawOb":"METAR KCXP 130155Z AUTO 16006G11KT 9SM -RA FEW004 FEW017 SCT028 04/M01 A2991 RMK AO2","lat":39.1905,"lon":-119.7319,"elev":1431,"name":"Carson City Arpt, NV, US","cover":"SCT","clouds":[{"cover":"FEW","base":400},{"cover":"FEW","base":1700},{"cover":"SCT","base":2800}],"fltCat":"VFR"},{"icaoId":"KIFP","receiptTime":"2026-04-13T02:00:39.646Z","obsTime":1776045300,"reportTime":"2026-04-13T02:00:00.000Z","temp":26,"dewp":0,"wdir":210,"wspd":16,"visib":"10+","altim":1008.2,"qcField":6,"metarType":"METAR","rawOb":"METAR KIFP 130155Z AUTO 21016KT 10SM CLR 26/M00 A2977 RMK AO2","lat":35.1487,"lon":-114.5611,"elev":210,"name":"Bullhead City Intl, AZ, US","cover":"CLR","clouds":[],"fltCat":"VFR"},{"icaoId":"KSJN","receiptTime":"2026-04-13T02:00:05.544Z","obsTime":1776045240,"reportTime":"2026-04-13T02:00:00.000Z","temp":16.1,"dewp":-5,"wdir":220,"wspd":15,"wgst":25,"visib":"10+","altim":1016.7,"slp":1011.1,"qcField":6,"metarType":"METAR","rawOb":"METAR KSJN 130154Z AUTO 22015G25KT 10SM FEW110 16/M05 A3002 RMK AO2 PK WND 22030/0136 SLP111 T01611050","lat":34.5184,"lon":-109.3801,"elev":1747,"name":"St Johns Ind Arpt, AZ, US","cover":"FEW","clouds":[{"cover":"FEW","base":11000}],"fltCat":"VFR"},{"icaoId":"KFFZ","receiptTime":"2026-04-13T02:00:22.321Z","obsTime":1776045240,"reportTime":"2026-04-13T02:00:00.000Z","temp":24.4,"dewp":5.6,"wdir":260,"wspd":6,"visib":"10+","altim":1012.3,"slp":1010.3,"qcField":4,"metarType":"METAR","rawOb":"METAR KFFZ 130154Z 26006KT 10SM CLR 24/06 A2989 RMK AO2 SLP103 T02440056","lat":33.4659,"lon":-111.7212,"elev":420,"name":"Mesa/Falcon Fld, AZ, US","cover":"CLR","clouds":[],"fltCat":"VFR"},{"icaoId":"KGCN","receiptTime":"2026-04-13T02:00:03.032Z","obsTime":1776045240,"reportTime":"2026-04-13T02:00:00.000Z","temp":11.1,"dewp":-7.8,"wdir":200,"wspd":16,"wgst":30,"visib":"10+","altim":1015.3,"slp":1010.2,"qcField":4,"metarType":"METAR","rawOb":"METAR KGCN 130154Z 20016G30KT 10SM CLR 11/M08 A2998 RMK AO2 PK WND 22035/0055 SLP102 T01111078","lat":35.9458,"lon":-112.1554,"elev":1993,"name":"Grand Canyon Park Arpt, AZ, US","cover":"CLR","clouds":[],"fltCat":"VFR"},{"icaoId":"KSYR","receiptTime":"2026-04-13T02:00:05.683Z","obsTime":1776045240,"reportTime":"2026-04-13T02:00:00.000Z","temp":17.2,"dewp":5,"wdir":170,"wspd":15,"wgst":25,"visib":"10+","altim":1017.4,"slp":1017.1,"qcField":12,"metarType":"METAR","rawOb":"METAR KSYR 130154Z 17015G25KT 10SM FEW060 SCT120 OVC140 17/05 A3004 RMK AO2 PK WND 17028/0128 SLP171 T01720050 $","lat":43.1111,"lon":-76.1038,"elev":125,"name":"Syracuse/Hancock Intl, NY, US","cover":"OVC","clouds":[{"cover":"FEW","base":6000},{"cover":"SCT","base":12000},{"cover":"OVC","base":14000}],"fltCat":"VFR"},{"icaoId":"KRKS","receiptTime":"2026-04-13T02:00:05.013Z","obsTime":1776045240,"reportTime":"2026-04-13T02:00:00.000Z","temp":10,"dewp":-6.7,"wdir":240,"wspd":13,"visib":"10+","altim":1009.9,"slp":1006.8,"qcField":6,"metarType":"METAR","rawOb":"METAR KRKS 130154Z AUTO 24013KT 10SM OVC110 10/M07 A2982 RMK AO2 PK WND 24029/0120 SLP068 T01001067","lat":41.5947,"lon":-109.0529,"elev":2062,"name":"Rock Springs/SW Wyoming Rgnl, WY, US","cover":"OVC","clouds":[{"cover":"OVC","base":11000}],"fltCat":"VFR"},{"icaoId":"KOLS","receiptTime":"2026-04-13T02:00:20.184Z","obsTime":1776045240,"reportTime":"2026-04-13T02:00:00.000Z","temp":20,"dewp":0.6,"wdir":220,"wspd":9,"visib":"10+","altim":1018.4,"slp":1013.7,"qcField":6,"metarType":"METAR","rawOb":"METAR KOLS 130154Z AUTO 22009KT 10SM SCT070 20/01 A3007 RMK AO2 SLP137 T02000006","lat":31.4208,"lon":-110.8465,"elev":1194,"name":"Nogales Intl, AZ, US","cover":"SCT","clouds":[{"cover":"SCT","base":7000}],"fltCat":"VFR"},{"icaoId":"KCOS","receiptTime":"2026-04-13T02:00:21.891Z","obsTime":1776045240,"reportTime":"2026-04-13T02:00:00.000Z","temp":16.7,"dewp":-9.4,"wdir":240,"wspd":12,"visib":"10+","altim":1010.2,"slp":1004.6,"qcField":4,"metarType":"METAR","rawOb":"METAR KCOS 130154Z 24012KT 10SM FEW080 SCT130 SCT250 17/M09 A2983 RMK AO2 SLP046 T01671094","lat":38.8095,"lon":-104.6887,"elev":1886,"name":"Colorado Spring Arpt, CO, US","cover":"SCT","clouds":[{"cover":"FEW","base":8000},{"cover":"SCT","base":13000},{"cover":"SCT","base":25000}],"fltCat":"VFR"},{"icaoId":"KGSO","receiptTime":"2026-04-13T02:00:03.133Z","obsTime":1776045240,"reportTime":"2026-04-13T02:00:00.000Z","temp":22.2,"dewp":8.9,"wdir":190,"wspd":9,"visib":"10+","altim":1025.1,"slp":1024.5,"qcField":12,"metarType":"METAR","rawOb":"METAR KGSO 130154Z 19009KT 10SM OVC250 22/09 A3027 RMK AO2 SLP245 T02220089 $","lat":36.0969,"lon":-79.9432,"elev":275,"name":"Greensboro Intl, NC, US","cover":"OVC","clouds":[{"cover":"OVC","base":25000}],"fltCat":"VFR"},{"icaoId":"KBUF","receiptTime":"2026-04-13T02:00:18.357Z","obsTime":1776045240,"reportTime":"2026-04-13T02:00:00.000Z","temp":18.9,"dewp":8.3,"wdir":200,"wspd":9,"visib":"10+","altim":1014.3,"slp":1014.2,"qcField":12,"metarType":"METAR","rawOb":"METAR KBUF 130154Z 20009KT 10SM FEW140 BKN270 19/08 A2995 RMK AO2 SLP142 T01890083 $","lat":42.94,"lon":-78.7361,"elev":217,"name":"Buffalo-Niagara Intl, NY, US","cover":"BKN","clouds":[{"cover":"FEW","base":14000},{"cover":"BKN","base":27000}],"fltCat":"VFR"},{"icaoId":"KEUG","receiptTime":"2026-04-13T02:00:18.492Z","obsTime":1776045240,"reportTime":"2026-04-13T02:00:00.000Z","temp":12.2,"dewp":8.3,"wdir":260,"wspd":7,"visib":"10+","altim":1011.3,"slp":1011.3,"qcField":4,"metarType":"METAR","rawOb":"METAR KEUG 130154Z 26007KT 10SM SCT025 BKN041 OVC070 12/08 A2986 RMK AO2 SLP113 T01220083","lat":44.1331,"lon":-123.2156,"elev":109,"name":"Eugene/Mahlon Sweet Fld, OR, US","cover":"OVC","clouds":[{"cover":"SCT","base":2500},{"cover":"BKN","base":4100},{"cover":"OVC","base":7000}],"fltCat":"VFR"},{"icaoId":"KOLM","receiptTime":"2026-04-13T02:00:18.773Z","obsTime":1776045240,"reportTime":"2026-04-13T02:00:00.000Z","temp":11.1,"dewp":6.7,"wdir":220,"wspd":7,"visib":"10+","altim":1009.2,"slp":1009.2,"qcField":12,"metarType":"METAR","rawOb":"METAR KOLM 130154Z 22007KT 10SM OVC075 11/07 A2980 RMK AO2 SLP092 T01110067 $","lat":46.9737,"lon":-122.9049,"elev":58,"name":"Olympia Rgnl, WA, US","cover":"OVC","clouds":[{"cover":"OVC","base":7500}],"fltCat":"VFR"},{"icaoId":"KSLC","receiptTime":"2026-04-13T02:00:05.566Z","obsTime":1776045240,"reportTime":"2026-04-13T02:00:00.000Z","temp":11.7,"dewp":-0.6,"wdir":330,"wspd":14,"visib":"10+","altim":1009.2,"slp":1006.2,"qcField":12,"metarType":"METAR","rawOb":"METAR KSLC 130154Z 33014KT 10SM FEW065 BKN080 BKN100 12/M01 A2980 RMK AO2 PK WND 33026/0056 SLP062 VCSH SH DSNT N-NE AND SW-W T01171006 $","lat":40.7707,"lon":-111.965,"elev":1286,"name":"Salt Lake City Intl, UT, US","cover":"BKN","clouds":[{"cover":"FEW","base":6500},{"cover":"BKN","base":8000},{"cover":"BKN","base":10000}],"fltCat":"VFR"},{"icaoId":"KBTV","receiptTime":"2026-04-13T02:00:21.579Z","obsTime":1776045240,"reportTime":"2026-04-13T02:00:00.000Z","temp":6.1,"dewp":2.8,"wdir":150,"wspd":7,"visib":"10+","altim":1022.1,"slp":1022.2,"qcField":4,"wxString":"-RA","precip":0.04,"metarType":"METAR","rawOb":"METAR KBTV 130154Z 15007KT 10SM -RA OVC055 06/03 A3018 RMK AO2 PRESFR SLP222 P0004 T00610028","lat":44.4682,"lon":-73.1499,"elev":101,"name":"Burlington Intl, VT, US","cover":"OVC","clouds":[{"cover":"OVC","base":5500}],"fltCat":"VFR"},{"icaoId":"KROC","receiptTime":"2026-04-13T02:00:18.793Z","obsTime":1776045240,"reportTime":"2026-04-13T02:00:00.000Z","temp":18.3,"dewp":5,"wdir":200,"wspd":12,"visib":"10+","altim":1015,"slp":1015.1,"qcField":4,"metarType":"METAR","rawOb":"METAR KROC 130154Z 20012KT 10SM FEW120 BKN250 18/05 A2997 RMK AO2 SLP151 T01830050","lat":43.1172,"lon":-77.6754,"elev":166,"name":"Rochester Intl Arpt, NY, US","cover":"BKN","clouds":[{"cover":"FEW","base":12000},{"cover":"BKN","base":25000}],"fltCat":"VFR"},{"icaoId":"KAPC","receiptTime":"2026-04-13T02:00:18.313Z","obsTime":1776045240,"reportTime":"2026-04-13T02:00:00.000Z","temp":12.8,"dewp":10.6,"wdir":230,"wspd":10,"visib":"10+","altim":1013.6,"slp":1012.6,"qcField":4,"precip":0.02,"metarType":"METAR","rawOb":"METAR KAPC 130154Z 23010KT 10SM FEW036 SCT043 OVC110 13/11 A2993 RMK AO2 RAE25 SLP126 P0002 T01280106","lat":38.2075,"lon":-122.2804,"elev":5,"name":"Napa Cnty Arpt, CA, US","cover":"OVC","clouds":[{"cover":"FEW","base":3600},{"cover":"SCT","base":4300},{"cover":"OVC","base":11000}],"fltCat":"VFR"},{"icaoId":"KPHL","receiptTime":"2026-04-13T02:00:20.326Z","obsTime":1776045240,"reportTime":"2026-04-13T02:00:00.000Z","temp":12.2,"dewp":1.7,"wdir":170,"wspd":7,"visib":"10+","altim":1027.5,"slp":1027.3,"qcField":12,"metarType":"METAR","rawOb":"METAR KPHL 130154Z 17007KT 10SM FEW190 BKN280 12/02 A3034 RMK AO2 SLP273 T01220017 $","lat":39.8733,"lon":-75.2268,"elev":2,"name":"Philadelphia Intl, PA, US","cover":"BKN","clouds":[{"cover":"FEW","base":19000},{"cover":"BKN","base":28000}],"fltCat":"VFR"},{"icaoId":"KMEM","receiptTime":"2026-04-13T02:00:19.865Z","obsTime":1776045240,"reportTime":"2026-04-13T02:00:00.000Z","temp":24.4,"dewp":10.6,"wdir":180,"wspd":8,"visib":"10+","altim":1018.7,"slp":1018.2,"qcField":12,"metarType":"METAR","rawOb":"METAR KMEM 130154Z 18008KT 10SM FEW110 OVC200 24/11 A3008 RMK AO2 SLP182 T02440106 $","lat":35.0564,"lon":-89.9864,"elev":78,"name":"Memphis Intl, TN, US","cover":"OVC","clouds":[{"cover":"FEW","base":11000},{"cover":"OVC","base":20000}],"fltCat":"VFR"},{"icaoId":"KBFL","receiptTime":"2026-04-13T02:00:21.500Z","obsTime":1776045240,"reportTime":"2026-04-13T02:00:00.000Z","temp":17.2,"dewp":6.1,"wdir":320,"wspd":10,"visib":"10+","altim":1014,"slp":1013.6,"qcField":12,"metarType":"METAR","rawOb":"METAR KBFL 130154Z 32010KT 10SM CLR 17/06 A2994 RMK AO2 SLP136 T01720061 $","lat":35.4342,"lon":-119.0552,"elev":146,"name":"Bakersfield/Meadows Arpt, CA, US","cover":"CLR","clouds":[],"fltCat":"VFR"},{"icaoId":"KRIC","receiptTime":"2026-04-13T02:00:20.572Z","obsTime":1776045240,"reportTime":"2026-04-13T02:00:00.000Z","temp":17.2,"dewp":11.7,"wdir":150,"wspd":10,"visib":"10+","altim":1025.8,"slp":1026,"qcField":12,"metarType":"METAR","rawOb":"METAR KRIC 130154Z 15010KT 10SM BKN300 17/12 A3029 RMK AO2 SLP260 T01720117 $","lat":37.5115,"lon":-77.3234,"elev":51,"name":"Richmond Intl, VA, US","cover":"BKN","clouds":[{"cover":"BKN","base":30000}],"fltCat":"VFR"},{"icaoId":"KBOS","receiptTime":"2026-04-13T02:00:21.540Z","obsTime":1776045240,"reportTime":"2026-04-13T02:00:00.000Z","temp":7.2,"dewp":1.7,"wdir":210,"wspd":13,"wgst":20,"visib":"10+","altim":1028.9,"slp":1028.6,"qcField":4,"wxString":"-RA","precip":0.005,"metarType":"METAR","rawOb":"METAR KBOS 130154Z 21013G20KT 10SM -RA OVC085 07/02 A3038 RMK AO2 RAB27 SLP286 P0000 T00720017","lat":42.3606,"lon":-71.0097,"elev":4,"name":"Boston/Logan Intl, MA, US","cover":"OVC","clouds":[{"cover":"OVC","base":8500}],"fltCat":"VFR"},{"icaoId":"KBWI","receiptTime":"2026-04-13T02:00:21.611Z","obsTime":1776045240,"reportTime":"2026-04-13T02:00:00.000Z","temp":13.3,"dewp":7.8,"wdir":150,"wspd":6,"visib":"10+","altim":1025.8,"slp":1025.6,"qcField":12,"metarType":"METAR","rawOb":"METAR KBWI 130154Z 15006KT 10SM SCT250 13/08 A3029 RMK AO2 SLP256 T01330078 $","lat":39.1733,"lon":-76.684,"elev":42,"name":"Baltimore-Washington Intl, MD, US","cover":"SCT","clouds":[{"cover":"SCT","base":25000}],"fltCat":"VFR"},{"icaoId":"KIND","receiptTime":"2026-04-13T02:00:03.469Z","obsTime":1776045240,"reportTime":"2026-04-13T02:00:00.000Z","temp":23.3,"dewp":8.3,"wdir":190,"wspd":14,"wgst":24,"visib":"10+","altim":1015,"slp":1014.3,"qcField":4,"metarType":"METAR","rawOb":"METAR KIND 130154Z 19014G24KT 10SM BKN110 23/08 A2997 RMK AO2 SLP143 T02330083","lat":39.7252,"lon":-86.2816,"elev":242,"name":"Indianapolis Intl, IN, US","cover":"BKN","clouds":[{"cover":"BKN","base":11000}],"fltCat":"VFR"},{"icaoId":"KDSM","receiptTime":"2026-04-13T02:00:22.129Z","obsTime":1776045240,"reportTime":"2026-04-13T02:00:00.000Z","temp":17.2,"dewp":15.6,"wdir":200,"wspd":9,"wgst":18,"visib":"10+","altim":1006.9,"slp":1006.3,"qcField":4,"metarType":"METAR","rawOb":"METAR KDSM 130154Z 20009G18KT 10SM OVC013 17/16 A2973 RMK AO2 SLP063 T01720156","lat":41.5339,"lon":-93.6531,"elev":286,"name":"Des Moines Intl, IA, US","cover":"OVC","clouds":[{"cover":"OVC","base":1300}],"fltCat":"MVFR"},{"icaoId":"KVGT","receiptTime":"2026-04-13T02:00:04.263Z","obsTime":1776045180,"reportTime":"2026-04-13T02:00:00.000Z","temp":16.7,"dewp":4.4,"wdir":300,"wspd":8,"visib":"10+","altim":1010.2,"slp":1010.7,"qcField":4,"metarType":"METAR","rawOb":"METAR KVGT 130153Z 30008KT 10SM CLR 17/04 A2983 RMK AO2 PK WND 22029/0103 WSHFT 0105 SLP107 T01670044","lat":36.212,"lon":-115.194,"elev":664,"name":"Las Vegas/North Arpt, NV, US","cover":"CLR","clouds":[],"fltCat":"VFR"},{"icaoId":"KPGA","receiptTime":"2026-04-13T02:00:00.747Z","obsTime":1776045180,"reportTime":"2026-04-13T02:00:00.000Z","temp":19.4,"dewp":-12.2,"wdir":230,"wspd":14,"wgst":29,"visib":"10+","altim":1009.2,"slp":1004.8,"qcField":14,"metarType":"METAR","rawOb":"METAR KPGA 130153Z AUTO 23014G29KT 10SM CLR 19/M12 A2980 RMK AO2 PK WND 23035/0118 SLP048 T01941122 $","lat":36.9211,"lon":-111.4487,"elev":1310,"name":"Page Muni, AZ, US","cover":"CLR","clouds":[],"fltCat":"VFR"},{"icaoId":"KPRC","receiptTime":"2026-04-13T02:00:00.941Z","obsTime":1776045180,"reportTime":"2026-04-13T02:00:00.000Z","temp":13.9,"dewp":-4.4,"wdir":200,"wspd":11,"wgst":20,"visib":"10+","altim":1016,"slp":1011.1,"qcField":4,"metarType":"METAR","rawOb":"METAR KPRC 130153Z 20011G20KT 10SM CLR 14/M04 A3000 RMK AO2 SLP111 T01391044","lat":34.6491,"lon":-112.4223,"elev":1528,"name":"Prescott/Love Fld, AZ, US","cover":"CLR","clouds":[],"fltCat":"VFR"},{"icaoId":"KPUB","receiptTime":"2026-04-13T02:00:01.025Z","obsTime":1776045180,"reportTime":"2026-04-13T02:00:00.000Z","temp":21.7,"dewp":-10.6,"wdir":230,"wspd":17,"wgst":25,"visib":"10+","altim":1008.2,"slp":1003.8,"qcField":12,"metarType":"METAR","rawOb":"METAR KPUB 130153Z 23017G25KT 10SM CLR 22/M11 A2977 RMK AO2 PK WND 22026/0118 SLP038 T02171106 $","lat":38.2887,"lon":-104.5057,"elev":1441,"name":"Pueblo Mem Arpt, CO, US","cover":"CLR","clouds":[],"fltCat":"VFR"},{"icaoId":"KCNY","receiptTime":"2026-04-13T02:00:01.503Z","obsTime":1776045180,"reportTime":"2026-04-13T02:00:00.000Z","temp":19.4,"dewp":-10,"wdir":230,"wspd":18,"wgst":32,"visib":"10+","altim":1006.5,"slp":1003,"qcField":14,"metarType":"METAR","rawOb":"METAR KCNY 130153Z AUTO 23018G32KT 10SM FEW120 19/M10 A2972 RMK AO2 PK WND 23037/0135 SLP030 T01941100 $","lat":38.7501,"lon":-109.7627,"elev":1392,"name":"Moab/Canyonland Fld, UT, US","cover":"FEW","clouds":[{"cover":"FEW","base":12000}],"fltCat":"VFR"},{"icaoId":"KBFI","receiptTime":"2026-04-13T02:00:09.803Z","obsTime":1776045180,"reportTime":"2026-04-13T02:00:00.000Z","temp":11.7,"dewp":10,"wdir":160,"wspd":3,"visib":5,"altim":1008.5,"slp":1008.5,"qcField":12,"wxString":"BR","metarType":"METAR","rawOb":"METAR KBFI 130153Z 16003KT 5SM BR SCT012 BKN023 OVC027 12/10 A2978 RMK AO2 SLP085 T01170100 $","lat":47.5455,"lon":-122.3148,"elev":7,"name":"Seattle/Boeing Fld, WA, US","cover":"OVC","clouds":[{"cover":"SCT","base":1200},{"cover":"BKN","base":2300},{"cover":"OVC","base":2700}],"fltCat":"MVFR"},{"icaoId":"KCNM","receiptTime":"2026-04-13T02:00:01.473Z","obsTime":1776045180,"reportTime":"2026-04-13T02:00:00.000Z","temp":24.4,"dewp":-2.8,"wdir":230,"wspd":10,"visib":"10+","altim":1014.6,"slp":1010,"qcField":6,"metarType":"METAR","rawOb":"METAR KCNM 130153Z AUTO 23010KT 10SM CLR 24/M03 A2996 RMK AO2 PK WND 25026/0058 SLP100 T02441028","lat":32.3336,"lon":-104.2584,"elev":993,"name":"Carlsbad/Cavern City Air Term, NM, US","cover":"CLR","clouds":[],"fltCat":"VFR"},{"icaoId":"KBNA","receiptTime":"2026-04-13T01:56:59.216Z","obsTime":1776045180,"reportTime":"2026-04-13T02:00:00.000Z","temp":23.9,"dewp":7.8,"wdir":170,"wspd":9,"visib":"10+","altim":1020.4,"slp":1019.8,"qcField":12,"metarType":"METAR","rawOb":"METAR KBNA 130153Z 17009KT 10SM FEW200 24/08 A3013 RMK AO2 SLP198 T02390078 $","lat":36.1105,"lon":-86.6881,"elev":168,"name":"Nashville Intl, TN, US","cover":"FEW","clouds":[{"cover":"FEW","base":20000}],"fltCat":"VFR"},{"icaoId":"KBHM","receiptTime":"2026-04-13T02:00:09.818Z","obsTime":1776045180,"reportTime":"2026-04-13T02:00:00.000Z","temp":22.2,"dewp":10.6,"wdir":140,"wspd":3,"visib":"10+","altim":1023.8,"slp":1022.9,"qcField":4,"metarType":"METAR","rawOb":"METAR KBHM 130153Z 14003KT 10SM FEW180 FEW250 22/11 A3023 RMK AO2 SLP229 T02220106","lat":33.5655,"lon":-86.7449,"elev":191,"name":"Birmingham Intl, AL, US","cover":"FEW","clouds":[{"cover":"FEW","base":18000},{"cover":"FEW","base":25000}],"fltCat":"VFR"},{"icaoId":"KSTS","receiptTime":"2026-04-13T02:04:15.347Z","obsTime":1776045180,"reportTime":"2026-04-13T02:00:00.000Z","temp":13,"dewp":7,"visib":"10+","altim":1014,"qcField":0,"metarType":"METAR","rawOb":"METAR KSTS 130153Z 2405KT 10SM SCT035 SCT075 BKN100 13/07 A2994","lat":38.5037,"lon":-122.811,"elev":35,"name":"Santa Rosa/Schulz Arpt, CA, US","cover":"BKN","clouds":[{"cover":"SCT","base":3500},{"cover":"SCT","base":7500},{"cover":"BKN","base":10000}],"fltCat":"VFR"},{"icaoId":"KYKM","receiptTime":"2026-04-13T02:00:06.666Z","obsTime":1776045180,"reportTime":"2026-04-13T02:00:00.000Z","temp":13.3,"dewp":9.4,"wdir":280,"wspd":6,"visib":"10+","altim":1004.1,"slp":1004.2,"qcField":12,"precip":0.005,"metarType":"METAR","rawOb":"METAR KYKM 130153Z 28006KT 10SM SCT060 OVC085 13/09 A2965 RMK AO2 RAB12E49 SLP042 P0000 T01330094 $","lat":46.564,"lon":-120.5349,"elev":319,"name":"Yakima/McAllister Fld, WA, US","cover":"OVC","clouds":[{"cover":"SCT","base":6000},{"cover":"OVC","base":8500}],"fltCat":"VFR"},{"icaoId":"KPIH","receiptTime":"2026-04-13T02:00:00.762Z","obsTime":1776045180,"reportTime":"2026-04-13T02:00:00.000Z","temp":7.8,"dewp":-1.1,"wdir":260,"wspd":14,"visib":"10+","altim":1009.9,"slp":1009.5,"qcField":4,"metarType":"METAR","rawOb":"METAR KPIH 130153Z 26014KT 10SM BKN065 OVC075 08/M01 A2982 RMK AO2 SLP095 T00781011","lat":42.9197,"lon":-112.5723,"elev":1357,"name":"Pocatello Rgnl, ID, US","cover":"OVC","clouds":[{"cover":"BKN","base":6500},{"cover":"OVC","base":7500}],"fltCat":"VFR"},{"icaoId":"KLAR","receiptTime":"2026-04-13T02:00:01.423Z","obsTime":1776045180,"reportTime":"2026-04-13T02:00:00.000Z","temp":11.1,"dewp":-9.4,"wdir":220,"wspd":16,"visib":"10+","altim":1010.6,"slp":1003.7,"qcField":14,"metarType":"METAR","rawOb":"METAR KLAR 130153Z AUTO 22016KT 10SM FEW110 11/M09 A2984 RMK AO2 SLP037 T01111094 $","lat":41.3165,"lon":-105.6729,"elev":2217,"name":"Laramie Rgnl, WY, US","cover":"FEW","clouds":[{"cover":"FEW","base":11000}],"fltCat":"VFR"},{"icaoId":"KSEA","receiptTime":"2026-04-13T02:00:11.013Z","obsTime":1776045180,"reportTime":"2026-04-13T02:00:00.000Z","temp":11.1,"dewp":9.4,"wdir":200,"wspd":7,"visib":5,"altim":1008.5,"slp":1009.3,"qcField":4,"wxString":"-RA BR","precip":0.005,"metarType":"METAR","rawOb":"METAR KSEA 130153Z 20007KT 5SM -RA BR SCT022 OVC046 11/09 A2978 RMK AO2 RAB22 SLP093 P0000 T01110094","lat":47.4447,"lon":-122.3144,"elev":115,"name":"Seattle-Tacoma Intl, WA, US","cover":"OVC","clouds":[{"cover":"SCT","base":2200},{"cover":"OVC","base":4600}],"fltCat":"MVFR"},{"icaoId":"KELY","receiptTime":"2026-04-13T02:00:00.506Z","obsTime":1776045180,"reportTime":"2026-04-13T02:00:00.000Z","temp":0,"dewp":-0.6,"wdir":360,"wspd":10,"visib":0.25,"altim":1012.6,"slp":1010.6,"qcField":6,"wxString":"+SN FG","precip":0.17,"vertVis":4,"metarType":"METAR","rawOb":"METAR KELY 130153Z AUTO 36010KT 1/4SM +SN FG VV004 00/M01 A2990 RMK AO2 SLP106 P0017 T00001006","lat":39.2954,"lon":-114.8466,"elev":1906,"name":"Ely/Yelland Fld, NV, US","cover":"OVX","clouds":[{"cover":"OVX","base":400}],"fltCat":"LIFR"},{"icaoId":"KMFE","receiptTime":"2026-04-13T01:59:59.882Z","obsTime":1776045180,"reportTime":"2026-04-13T02:00:00.000Z","temp":24.4,"dewp":22.2,"wdir":150,"wspd":14,"visib":"10+","altim":1015.7,"slp":1015.4,"qcField":12,"wxString":"-RA","precip":0.02,"metarType":"METAR","rawOb":"METAR KMFE 130153Z 15014KT 10SM -RA FEW110 24/22 A2999 RMK AO2 RAB00 SLP154 P0002 T02440222 $","lat":26.1791,"lon":-98.2445,"elev":29,"name":"McAllen/Miller Intl, TX, US","cover":"FEW","clouds":[{"cover":"FEW","base":11000}],"fltCat":"VFR"},{"icaoId":"KGEG","receiptTime":"2026-04-13T02:00:04.846Z","obsTime":1776045180,"reportTime":"2026-04-13T02:00:00.000Z","temp":13.9,"dewp":6.1,"wdir":190,"wspd":8,"visib":"10+","altim":1002.8,"slp":1002.6,"qcField":12,"metarType":"METAR","rawOb":"METAR KGEG 130153Z 19008KT 10SM FEW055 BKN080 BKN110 BKN180 14/06 A2961 RMK AO2 SLP026 CB DSNT S VCSH T01390061 $","lat":47.6217,"lon":-117.528,"elev":718,"name":"Spokane Intl, WA, US","cover":"BKN","clouds":[{"cover":"FEW","base":5500},{"cover":"BKN","base":8000},{"cover":"BKN","base":11000},{"cover":"BKN","base":18000}],"fltCat":"VFR"},{"icaoId":"KFMN","receiptTime":"2026-04-13T02:00:01.972Z","obsTime":1776045180,"reportTime":"2026-04-13T02:00:00.000Z","temp":17.2,"dewp":-10.6,"wdir":220,"wspd":13,"visib":"10+","altim":1013.6,"slp":1010.6,"qcField":4,"metarType":"METAR","rawOb":"METAR KFMN 130153Z 22013KT 10SM CLR 17/M11 A2993 RMK AO2 PK WND 23026/0056 SLP106 T01721106","lat":36.7435,"lon":-108.2293,"elev":1677,"name":"Farmington/Four Corners Rgnl, NM, US","cover":"CLR","clouds":[],"fltCat":"VFR"},{"icaoId":"KBUR","receiptTime":"2026-04-13T01:56:59.366Z","obsTime":1776045180,"reportTime":"2026-04-13T02:00:00.000Z","temp":15.6,"dewp":8.3,"wdir":180,"wspd":9,"visib":"10+","altim":1015.7,"slp":1014.7,"qcField":4,"metarType":"METAR","rawOb":"METAR KBUR 130153Z 18009KT 10SM FEW050 16/08 A2999 RMK AO2 SLP147 T01560083","lat":34.1996,"lon":-118.3654,"elev":221,"name":"Burbank/Bob Hope Arpt, CA, US","cover":"FEW","clouds":[{"cover":"FEW","base":5000}],"fltCat":"VFR"},{"icaoId":"KLGB","receiptTime":"2026-04-13T01:59:59.488Z","obsTime":1776045180,"reportTime":"2026-04-13T02:00:00.000Z","temp":17.8,"dewp":8.3,"wdir":230,"wspd":8,"visib":"10+","altim":1015.7,"slp":1015.4,"qcField":12,"metarType":"METAR","rawOb":"METAR KLGB 130153Z 23008KT 10SM CLR 18/08 A2999 RMK AO2 SLP154 T01780083 $","lat":33.8118,"lon":-118.1472,"elev":10,"name":"Long Beach Arpt, CA, US","cover":"CLR","clouds":[],"fltCat":"VFR"},{"icaoId":"KSAF","receiptTime":"2026-04-13T02:00:13.920Z","obsTime":1776045180,"reportTime":"2026-04-13T02:00:00.000Z","temp":16.1,"dewp":-11.1,"wdir":240,"wspd":5,"visib":"10+","altim":1015.3,"slp":1008.9,"qcField":12,"metarType":"METAR","rawOb":"METAR KSAF 130153Z 24005KT 10SM CLR 16/M11 A2998 RMK AO2 SLP089 T01611111 $","lat":35.611,"lon":-106.0957,"elev":1918,"name":"Santa Fe Cnty Muni, NM, US","cover":"CLR","clouds":[],"fltCat":"VFR"},{"icaoId":"KGJT","receiptTime":"2026-04-13T01:59:58.869Z","obsTime":1776045180,"reportTime":"2026-04-13T02:00:00.000Z","temp":18.3,"dewp":-7.2,"wdir":240,"wspd":10,"wgst":23,"visib":"10+","altim":1008.2,"slp":1003.5,"qcField":4,"metarType":"METAR","rawOb":"METAR KGJT 130153Z 24010G23KT 10SM CLR 18/M07 A2977 RMK AO2 PK WND 20032/0101 SLP035 T01831072","lat":39.1344,"lon":-108.5408,"elev":1475,"name":"Grand Junction Rgnl, CO, US","cover":"CLR","clouds":[],"fltCat":"VFR"},{"icaoId":"KCLL","receiptTime":"2026-04-13T02:00:01.442Z","obsTime":1776045180,"reportTime":"2026-04-13T02:00:00.000Z","temp":18.3,"dewp":17.8,"wdir":160,"wspd":10,"visib":"10+","altim":1018,"slp":1017.5,"qcField":4,"metarType":"METAR","rawOb":"METAR KCLL 130153Z 16010KT 10SM FEW006 18/18 A3006 RMK AO2 LTG DSNT SE AND S SLP175 T01830178","lat":30.5912,"lon":-96.3631,"elev":96,"name":"College Station/Easterwood Arpt, TX, US","cover":"FEW","clouds":[{"cover":"FEW","base":600}],"fltCat":"VFR"},{"icaoId":"KSDL","receiptTime":"2026-04-13T02:00:13.995Z","obsTime":1776045180,"reportTime":"2026-04-13T02:00:00.000Z","temp":23.9,"dewp":5,"wdir":250,"wspd":7,"visib":"10+","altim":1013,"slp":1011.2,"qcField":4,"metarType":"METAR","rawOb":"METAR KSDL 130153Z 25007KT 10SM CLR 24/05 A2991 RMK AO2 SLP112 T02390050","lat":33.6123,"lon":-111.9232,"elev":438,"name":"Scottsdale Muni, AZ, US","cover":"CLR","clouds":[],"fltCat":"VFR"},{"icaoId":"KSNA","receiptTime":"2026-04-13T02:00:14.148Z","obsTime":1776045180,"reportTime":"2026-04-13T02:00:00.000Z","temp":17.8,"dewp":8.9,"wdir":220,"wspd":6,"visib":"10+","altim":1016,"slp":1015.9,"qcField":12,"metarType":"METAR","rawOb":"METAR KSNA 130153Z 22006KT 10SM BKN035 BKN080 18/09 A3000 RMK AO2 SLP159 T01780089 $","lat":33.6798,"lon":-117.8675,"elev":14,"name":"Santa Ana/Wayne Arpt, CA, US","cover":"BKN","clouds":[{"cover":"BKN","base":3500},{"cover":"BKN","base":8000}],"fltCat":"VFR"},{"icaoId":"KCYS","receiptTime":"2026-04-13T02:00:01.720Z","obsTime":1776045180,"reportTime":"2026-04-13T02:00:00.000Z","temp":15,"dewp":-10.6,"wdir":270,"wspd":7,"visib":"10+","altim":1008.5,"slp":1002.6,"qcField":12,"metarType":"METAR","rawOb":"METAR KCYS 130153Z 27007KT 10SM CLR 15/M11 A2978 RMK AO2 SLP026 T01501106 $","lat":41.1579,"lon":-104.8081,"elev":1868,"name":"Cheyenne Rgnl, WY, US","cover":"CLR","clouds":[],"fltCat":"VFR"},{"icaoId":"KDFW","receiptTime":"2026-04-13T02:02:15.110Z","obsTime":1776045180,"reportTime":"2026-04-13T02:00:00.000Z","temp":22.2,"dewp":17.8,"wdir":180,"wspd":19,"wgst":30,"visib":"10+","altim":1014.6,"slp":1013.7,"qcField":5,"metarType":"METAR","rawOb":"METAR KDFW 130153Z COR 18019G30KT 10SM FEW016 BKN210 BKN250 22/18 A2996 RMK AO2 PK WND 18030/0148 SLP137 FRQ LTGIC DSNT SE-S CB DSNT SE-S MOV NE T02220178","lat":32.8974,"lon":-97.022,"elev":168,"name":"Dallas-Ft Worth Intl, TX, US","cover":"BKN","clouds":[{"cover":"FEW","base":1600},{"cover":"BKN","base":21000},{"cover":"BKN","base":25000}],"fltCat":"VFR"},{"icaoId":"KSBA","receiptTime":"2026-04-13T02:00:13.960Z","obsTime":1776045180,"reportTime":"2026-04-13T02:00:00.000Z","temp":15.6,"dewp":8.9,"wdir":270,"wspd":10,"wgst":18,"visib":"10+","altim":1015.3,"slp":1015.3,"qcField":12,"metarType":"METAR","rawOb":"METAR KSBA 130153Z 27010G18KT 10SM BKN075 16/09 A2998 RMK AO2 SLP153 T01560089 $","lat":34.4241,"lon":-119.8425,"elev":2,"name":"Santa Barbara Muni, CA, US","cover":"BKN","clouds":[{"cover":"BKN","base":7500}],"fltCat":"VFR"},{"icaoId":"KSHR","receiptTime":"2026-04-13T02:00:14.093Z","obsTime":1776045180,"reportTime":"2026-04-13T02:00:00.000Z","temp":10.6,"dewp":5,"wdir":20,"wspd":11,"visib":"10+","altim":1005.2,"slp":1004.5,"qcField":6,"metarType":"METAR","rawOb":"METAR KSHR 130153Z AUTO 02011KT 10SM CLR 11/05 A2968 RMK AO2 SLP045 T01060050","lat":44.7603,"lon":-106.9741,"elev":1212,"name":"Sheridan Cnty Arpt, WY, US","cover":"CLR","clouds":[],"fltCat":"VFR"},{"icaoId":"KSWO","receiptTime":"2026-04-13T02:00:14.264Z","obsTime":1776045180,"reportTime":"2026-04-13T02:00:00.000Z","temp":22.8,"dewp":18.3,"wdir":190,"wspd":17,"wgst":27,"visib":"10+","altim":1010.6,"slp":1009.6,"qcField":4,"metarType":"METAR","rawOb":"METAR KSWO 130153Z 19017G27KT 10SM CLR 23/18 A2984 RMK AO2 PK WND 21028/0115 SLP096 T02280183","lat":36.1624,"lon":-97.0832,"elev":293,"name":"Stillwater Muni, OK, US","cover":"CLR","clouds":[],"fltCat":"VFR"},{"icaoId":"KPDX","receiptTime":"2026-04-13T02:00:10.699Z","obsTime":1776045180,"reportTime":"2026-04-13T02:00:00.000Z","temp":12.2,"dewp":10.6,"wdir":210,"wspd":6,"visib":3,"altim":1009.6,"slp":1009.6,"qcField":12,"wxString":"-RA BR","precip":0.01,"metarType":"METAR","rawOb":"METAR KPDX 130153Z 21006KT 3SM -RA BR FEW004 BKN015 OVC060 12/11 A2981 RMK AO2 RAE16B42 SLP096 P0001 T01220106 $","lat":45.5958,"lon":-122.6092,"elev":7,"name":"Portland Intl, OR, US","cover":"OVC","clouds":[{"cover":"FEW","base":400},{"cover":"BKN","base":1500},{"cover":"OVC","base":6000}],"fltCat":"MVFR"},{"icaoId":"KPSC","receiptTime":"2026-04-13T02:00:10.840Z","obsTime":1776045180,"reportTime":"2026-04-13T02:00:00.000Z","temp":16.1,"dewp":8.9,"wdir":230,"wspd":8,"visib":"10+","altim":1003.8,"slp":1003.7,"qcField":4,"metarType":"METAR","rawOb":"METAR KPSC 130153Z 23008KT 10SM OVC095 16/09 A2964 RMK AO2 SLP037 T01610089","lat":46.2695,"lon":-119.1182,"elev":121,"name":"Pasco/Tri Cities Arpt, WA, US","cover":"OVC","clouds":[{"cover":"OVC","base":9500}],"fltCat":"VFR"},{"icaoId":"KLOL","receiptTime":"2026-04-13T02:00:08.898Z","obsTime":1776045180,"reportTime":"2026-04-13T02:00:00.000Z","temp":8.9,"dewp":-2.2,"wdir":170,"wspd":3,"visib":"10+","altim":1010.9,"slp":1010.7,"qcField":14,"precip":0.005,"metarType":"METAR","rawOb":"METAR KLOL 130153Z AUTO 17003KT 10SM BKN055 BKN070 OVC085 09/M02 A2985 RMK AO2 RAB0058E09 SLP107 P0000 T00891022 $","lat":40.0684,"lon":-118.5702,"elev":1191,"name":"Lovelock/Derby Fld, NV, US","cover":"OVC","clouds":[{"cover":"BKN","base":5500},{"cover":"BKN","base":7000},{"cover":"OVC","base":8500}],"fltCat":"VFR"},{"icaoId":"KMCO","receiptTime":"2026-04-13T02:00:09.033Z","obsTime":1776045180,"reportTime":"2026-04-13T02:00:00.000Z","temp":20,"dewp":14.4,"wdir":80,"wspd":7,"visib":"10+","altim":1026.8,"slp":1026.7,"qcField":4,"metarType":"METAR","rawOb":"METAR KMCO 130153Z 08007KT 10SM CLR 20/14 A3032 RMK AO2 SLP267 T02000144","lat":28.4182,"lon":-81.3241,"elev":27,"name":"Orlando Intl, FL, US","cover":"CLR","clouds":[],"fltCat":"VFR"},{"icaoId":"KMFR","receiptTime":"2026-04-13T02:00:09.048Z","obsTime":1776045180,"reportTime":"2026-04-13T02:00:00.000Z","temp":14.4,"dewp":6.1,"wdir":220,"wspd":6,"visib":"10+","altim":1009.6,"slp":1009.5,"qcField":12,"metarType":"METAR","rawOb":"METAR KMFR 130153Z 22006KT 10SM CLR 14/06 A2981 RMK AO2 SLP095 T01440061 $","lat":42.375,"lon":-122.877,"elev":397,"name":"Medford/Rogue Valley Intl, OR, US","cover":"CLR","clouds":[],"fltCat":"VFR"},{"icaoId":"KBLI","receiptTime":"2026-04-13T02:00:08.466Z","obsTime":1776045180,"reportTime":"2026-04-13T02:00:00.000Z","temp":11.7,"dewp":7.8,"wdir":180,"wspd":7,"visib":"10+","altim":1007.5,"slp":1008,"qcField":6,"metarType":"METAR","rawOb":"METAR KBLI 130153Z AUTO 18007KT 10SM OVC050 12/08 A2975 RMK AO2 SLP080 T01170078","lat":48.7991,"lon":-122.5407,"elev":46,"name":"Bellingham Intl, WA, US","cover":"OVC","clouds":[{"cover":"OVC","base":5000}],"fltCat":"VFR"},{"icaoId":"KFAT","receiptTime":"2026-04-13T02:00:04.624Z","obsTime":1776045180,"reportTime":"2026-04-13T02:00:00.000Z","temp":13.9,"dewp":7.8,"wdir":50,"wspd":5,"visib":"10+","altim":1015,"slp":1014.7,"qcField":12,"metarType":"METAR","rawOb":"METAR KFAT 130153Z 05005KT 10SM BKN110 BKN150 BKN200 14/08 A2997 RMK AO2 SLP147 TCU DSNT ALQDS VCSH NE E-SE T01390078 $","lat":36.78,"lon":-119.7202,"elev":102,"name":"Fresno/Yosemite Intl, CA, US","cover":"BKN","clouds":[{"cover":"BKN","base":11000},{"cover":"BKN","base":15000},{"cover":"BKN","base":20000}],"fltCat":"VFR"},{"icaoId":"KGSP","receiptTime":"2026-04-13T02:00:09.166Z","obsTime":1776045180,"reportTime":"2026-04-13T02:00:00.000Z","temp":18.9,"dewp":8.3,"wdir":180,"wspd":4,"visib":"10+","altim":1025.8,"slp":1025,"qcField":4,"metarType":"METAR","rawOb":"METAR KGSP 130153Z 18004KT 10SM CLR 19/08 A3029 RMK AO2 SLP250 T01890083","lat":34.8842,"lon":-82.2209,"elev":285,"name":"Greenville-Spartanburg Intl, SC, US","cover":"CLR","clouds":[],"fltCat":"VFR"},{"icaoId":"KBOI","receiptTime":"2026-04-13T01:56:59.232Z","obsTime":1776045180,"reportTime":"2026-04-13T02:00:00.000Z","temp":6.1,"dewp":3.3,"wdir":50,"wspd":8,"visib":"10+","altim":1010.2,"slp":1010.4,"qcField":4,"precip":0.005,"metarType":"METAR","rawOb":"METAR KBOI 130153Z 05008KT 10SM SCT027 SCT035 OVC080 06/03 A2983 RMK AO2 RAB38E51 SLP104 P0000 T00610033","lat":43.567,"lon":-116.2406,"elev":860,"name":"Boise Arpt, ID, US","cover":"OVC","clouds":[{"cover":"SCT","base":2700},{"cover":"SCT","base":3500},{"cover":"OVC","base":8000}],"fltCat":"VFR"},{"icaoId":"KTWF","receiptTime":"2026-04-13T02:00:14.531Z","obsTime":1776045180,"reportTime":"2026-04-13T02:00:00.000Z","temp":7.8,"dewp":0,"wdir":"VRB","wspd":3,"visib":"10+","altim":1009.9,"slp":1008.3,"qcField":4,"metarType":"METAR","rawOb":"METAR KTWF 130153Z VRB03KT 10SM SCT075 BKN110 08/00 A2982 RMK AO2 SLP083 T00780000","lat":42.4785,"lon":-114.4775,"elev":1269,"name":"Twin Falls/Joslin Fld, ID, US","cover":"BKN","clouds":[{"cover":"SCT","base":7500},{"cover":"BKN","base":11000}],"fltCat":"VFR"},{"icaoId":"KVEL","receiptTime":"2026-04-13T02:00:04.245Z","obsTime":1776045180,"reportTime":"2026-04-13T02:00:00.000Z","temp":13.9,"dewp":-5,"wdir":210,"wspd":6,"visib":"10+","altim":1007.9,"slp":1004.6,"qcField":6,"metarType":"METAR","rawOb":"METAR KVEL 130153Z AUTO 21006KT 10SM BKN110 14/M05 A2976 RMK AO2 SLP046 T01391050","lat":40.4429,"lon":-109.5128,"elev":1604,"name":"Vernal Rgnl, UT, US","cover":"BKN","clouds":[{"cover":"BKN","base":11000}],"fltCat":"VFR"},{"icaoId":"KMCI","receiptTime":"2026-04-13T01:59:59.795Z","obsTime":1776045180,"reportTime":"2026-04-13T02:00:00.000Z","temp":20.6,"dewp":17.8,"wdir":190,"wspd":12,"visib":"10+","altim":1008.9,"slp":1007.9,"qcField":4,"metarType":"METAR","rawOb":"METAR KMCI 130153Z 19012KT 10SM CLR 21/18 A2979 RMK AO2 SLP079 T02060178","lat":39.2975,"lon":-94.7309,"elev":308,"name":"Kansas City Intl, MO, US","cover":"CLR","clouds":[],"fltCat":"VFR"},{"icaoId":"KMDW","receiptTime":"2026-04-13T01:59:59.865Z","obsTime":1776045180,"reportTime":"2026-04-13T02:00:00.000Z","temp":18.9,"dewp":13.9,"wdir":200,"wspd":14,"wgst":28,"visib":"10+","altim":1009.9,"slp":1009.2,"qcField":4,"wxString":"-RA","precip":0.01,"metarType":"METAR","rawOb":"METAR KMDW 130153Z 20014G28KT 10SM -RA FEW047 OVC060 19/14 A2982 RMK AO2 PK WND 22037/0109 SLP092 P0001 T01890139","lat":41.7841,"lon":-87.7552,"elev":186,"name":"Chicago/Midway Intl, IL, US","cover":"OVC","clouds":[{"cover":"FEW","base":4700},{"cover":"OVC","base":6000}],"fltCat":"VFR"},{"icaoId":"KTPA","receiptTime":"2026-04-13T02:00:06.382Z","obsTime":1776045180,"reportTime":"2026-04-13T02:00:00.000Z","temp":23.3,"dewp":14.4,"wdir":70,"wspd":5,"visib":"10+","altim":1025.5,"slp":1025.4,"qcField":4,"metarType":"METAR","rawOb":"METAR KTPA 130153Z 07005KT 10SM CLR 23/14 A3028 RMK AO2 SLP254 T02330144","lat":27.9633,"lon":-82.54,"elev":2,"name":"Tampa Intl Arpt, FL, US","cover":"CLR","clouds":[],"fltCat":"VFR"},{"icaoId":"KACV","receiptTime":"2026-04-13T02:00:09.601Z","obsTime":1776045180,"reportTime":"2026-04-13T02:00:00.000Z","temp":11.1,"dewp":7.8,"wdir":330,"wspd":7,"visib":"10+","altim":1013.6,"slp":1014,"qcField":6,"metarType":"METAR","rawOb":"METAR KACV 130153Z AUTO 33007KT 10SM OVC040 11/08 A2993 RMK AO2 SLP140 T01110078","lat":40.9784,"lon":-124.1048,"elev":63,"name":"Arcata Arpt, CA, US","cover":"OVC","clouds":[{"cover":"OVC","base":4000}],"fltCat":"VFR"},{"icaoId":"KCPR","receiptTime":"2026-04-13T02:00:01.536Z","obsTime":1776045180,"reportTime":"2026-04-13T02:00:00.000Z","temp":14.4,"dewp":-8.3,"wdir":250,"wspd":14,"visib":"10+","altim":1006.5,"slp":1003,"qcField":4,"metarType":"METAR","rawOb":"METAR KCPR 130153Z 25014KT 10SM CLR 14/M08 A2972 RMK AO2 PK WND 25030/0055 SLP030 T01441083","lat":42.8978,"lon":-106.4736,"elev":1623,"name":"Casper/Natrona Cnty, WY, US","cover":"CLR","clouds":[],"fltCat":"VFR"},{"icaoId":"KMYF","receiptTime":"2026-04-13T02:00:02.478Z","obsTime":1776045180,"reportTime":"2026-04-13T02:00:00.000Z","temp":15.6,"dewp":12.8,"wdir":190,"wspd":7,"visib":8,"altim":1016.3,"slp":1016.1,"qcField":4,"wxString":"-RA","precip":0.005,"metarType":"METAR","rawOb":"METAR KMYF 130153Z 19007KT 8SM -RA BKN019 BKN025 OVC031 16/13 A3001 RMK AO2 RAB52 SLP161 P0000 T01560128","lat":32.8145,"lon":-117.1375,"elev":128,"name":"San Diego/Montgomery Arpt, CA, US","cover":"OVC","clouds":[{"cover":"BKN","base":1900},{"cover":"BKN","base":2500},{"cover":"OVC","base":3100}],"fltCat":"MVFR"},{"icaoId":"KMAF","receiptTime":"2026-04-13T01:59:59.744Z","obsTime":1776045180,"reportTime":"2026-04-13T02:00:00.000Z","temp":25,"dewp":12.2,"wdir":180,"wspd":11,"visib":"10+","altim":1014.6,"slp":1010.5,"qcField":4,"metarType":"METAR","rawOb":"METAR KMAF 130153Z 18011KT 10SM CLR 25/12 A2996 RMK AO2 SLP105 T02500122","lat":31.9475,"lon":-102.2086,"elev":874,"name":"Midland Intl, TX, US","cover":"CLR","clouds":[],"fltCat":"VFR"},{"icaoId":"KFUL","receiptTime":"2026-04-13T02:00:02.129Z","obsTime":1776045180,"reportTime":"2026-04-13T02:00:00.000Z","temp":17.8,"dewp":8.3,"wdir":"VRB","wspd":6,"wgst":15,"visib":"10+","altim":1015.7,"slp":1015.3,"qcField":6,"metarType":"METAR","rawOb":"METAR KFUL 130153Z AUTO VRB06G15KT 10SM OVC080 18/08 A2999 RMK AO2 SLP153 T01780083","lat":33.8715,"lon":-117.9856,"elev":23,"name":"Fullerton Muni, CA, US","cover":"OVC","clouds":[{"cover":"OVC","base":8000}],"fltCat":"VFR"},{"icaoId":"KDMN","receiptTime":"2026-04-13T02:00:00.258Z","obsTime":1776045180,"reportTime":"2026-04-13T02:00:00.000Z","temp":22.2,"dewp":1.7,"wdir":260,"wspd":20,"wgst":31,"visib":"10+","altim":1017.7,"slp":1011.9,"qcField":6,"metarType":"METAR","rawOb":"METAR KDMN 130153Z AUTO 26020G31KT 10SM CLR 22/02 A3005 RMK AO2 PK WND 24037/0105 SLP119 T02220017","lat":32.2592,"lon":-107.7206,"elev":1310,"name":"Deming Muni, NM, US","cover":"CLR","clouds":[],"fltCat":"VFR"},{"icaoId":"KTUS","receiptTime":"2026-04-13T02:00:14.499Z","obsTime":1776045180,"reportTime":"2026-04-13T02:00:00.000Z","temp":23.3,"dewp":0,"wdir":190,"wspd":8,"visib":"10+","altim":1016.3,"slp":1012.8,"qcField":4,"metarType":"METAR","rawOb":"METAR KTUS 130153Z 19008KT 10SM CLR 23/00 A3001 RMK AO2 SLP128 T02330000","lat":32.1315,"lon":-110.9564,"elev":776,"name":"Tucson Intl Arpt, AZ, US","cover":"CLR","clouds":[],"fltCat":"VFR"},{"icaoId":"KEVW","receiptTime":"2026-04-13T02:00:00.593Z","obsTime":1776045180,"reportTime":"2026-04-13T02:00:00.000Z","temp":5.6,"dewp":-3.9,"wdir":0,"wspd":0,"visib":"10+","altim":1009.9,"slp":1006.1,"qcField":14,"metarType":"METAR","rawOb":"METAR KEVW 130153Z AUTO 00000KT 10SM BKN090 BKN110 06/M04 A2982 RMK AO2 SLP061 T00561039 $","lat":41.2727,"lon":-111.0305,"elev":2178,"name":"Evanston/Uinta Cnty, WY, US","cover":"BKN","clouds":[{"cover":"BKN","base":9000},{"cover":"BKN","base":11000}],"fltCat":"VFR"},{"icaoId":"KTUL","receiptTime":"2026-04-13T02:00:14.471Z","obsTime":1776045180,"reportTime":"2026-04-13T02:00:00.000Z","temp":22.2,"dewp":17.8,"wdir":170,"wspd":19,"wgst":28,"visib":"10+","altim":1013,"slp":1012.2,"qcField":4,"metarType":"METAR","rawOb":"METAR KTUL 130153Z 17019G28KT 10SM BKN026 22/18 A2991 RMK AO2 PK WND 18030/0126 SLP122 T02220178","lat":36.1985,"lon":-95.8782,"elev":196,"name":"Tulsa Intl Arpt, OK, US","cover":"BKN","clouds":[{"cover":"BKN","base":2600}],"fltCat":"MVFR"},{"icaoId":"KRDD","receiptTime":"2026-04-13T02:00:10.887Z","obsTime":1776045180,"reportTime":"2026-04-13T02:00:00.000Z","temp":9.4,"dewp":7.2,"wdir":300,"wspd":3,"visib":5,"altim":1012.6,"slp":1012.5,"qcField":12,"wxString":"-RA BR","precip":0.05,"metarType":"METAR","rawOb":"METAR KRDD 130153Z 30003KT 5SM -RA BR BKN033 OVC042 09/07 A2990 RMK AO2 RAB15 SLP125 P0005 T00940072 $","lat":40.5146,"lon":-122.2977,"elev":152,"name":"Redding Muni, CA, US","cover":"OVC","clouds":[{"cover":"BKN","base":3300},{"cover":"OVC","base":4200}],"fltCat":"MVFR"},{"icaoId":"KONT","receiptTime":"2026-04-13T02:00:02.690Z","obsTime":1776045180,"reportTime":"2026-04-13T02:00:00.000Z","temp":15,"dewp":8.3,"wdir":220,"wspd":7,"visib":"10+","altim":1016,"slp":1015.5,"qcField":12,"metarType":"METAR","rawOb":"METAR KONT 130153Z 22007KT 10SM SCT047 BKN070 15/08 A3000 RMK AO2 SLP155 T01500083 $","lat":34.0531,"lon":-117.5769,"elev":279,"name":"Ontario Intl, CA, US","cover":"BKN","clouds":[{"cover":"SCT","base":4700},{"cover":"BKN","base":7000}],"fltCat":"VFR"},{"icaoId":"KPBI","receiptTime":"2026-04-13T02:00:02.910Z","obsTime":1776045180,"reportTime":"2026-04-13T02:00:00.000Z","temp":23.9,"dewp":13.9,"wdir":70,"wspd":12,"wgst":20,"visib":"10+","altim":1024.8,"slp":1024.7,"qcField":12,"metarType":"METAR","rawOb":"METAR KPBI 130153Z 07012G20KT 10SM SCT044 24/14 A3026 RMK AO2 SLP247 T02390139 $","lat":26.6851,"lon":-80.0992,"elev":4,"name":"Palm Beach Intl, FL, US","cover":"SCT","clouds":[{"cover":"SCT","base":4400}],"fltCat":"VFR"},{"icaoId":"KPNC","receiptTime":"2026-04-13T02:00:00.846Z","obsTime":1776045180,"reportTime":"2026-04-13T02:00:00.000Z","temp":24.4,"dewp":18.3,"wdir":170,"wspd":16,"wgst":26,"visib":"10+","altim":1009.2,"slp":1008.2,"qcField":6,"metarType":"METAR","rawOb":"METAR KPNC 130153Z AUTO 17016G26KT 10SM CLR 24/18 A2980 RMK AO2 PK WND 18026/0152 SLP082 T02440183","lat":36.7369,"lon":-97.1024,"elev":304,"name":"Ponca City Rgnl, OK, US","cover":"CLR","clouds":[],"fltCat":"VFR"},{"icaoId":"KPSP","receiptTime":"2026-04-13T02:00:00.958Z","obsTime":1776045180,"reportTime":"2026-04-13T02:00:00.000Z","temp":20,"dewp":8.3,"wdir":320,"wspd":7,"visib":"10+","altim":1013,"slp":1012.9,"qcField":4,"metarType":"METAR","rawOb":"METAR KPSP 130153Z 32007KT 10SM FEW055 SCT070 SCT100 20/08 A2991 RMK AO2 SLP129 T02000083","lat":33.8222,"lon":-116.5043,"elev":123,"name":"Palm Springs Intl, CA, US","cover":"SCT","clouds":[{"cover":"FEW","base":5500},{"cover":"SCT","base":7000},{"cover":"SCT","base":10000}],"fltCat":"VFR"},{"icaoId":"KIDA","receiptTime":"2026-04-13T02:00:01.202Z","obsTime":1776045180,"reportTime":"2026-04-13T02:00:00.000Z","temp":8.3,"dewp":-3.3,"wdir":240,"wspd":13,"wgst":19,"visib":"10+","altim":1009.2,"slp":1009.1,"qcField":4,"metarType":"METAR","rawOb":"METAR KIDA 130153Z 24013G19KT 10SM CLR 08/M03 A2980 RMK AO2 SLP091 T00831033","lat":43.5204,"lon":-112.0675,"elev":1444,"name":"Idaho Falls Rgnl, ID, US","cover":"CLR","clouds":[],"fltCat":"VFR"},{"icaoId":"KLAW","receiptTime":"2026-04-13T01:59:59.326Z","obsTime":1776045180,"reportTime":"2026-04-13T02:00:00.000Z","temp":23.3,"dewp":20,"wdir":150,"wspd":14,"visib":"10+","altim":1011.6,"slp":1010.5,"qcField":14,"metarType":"METAR","rawOb":"METAR KLAW 130153Z AUTO 15014KT 10SM CLR 23/20 A2987 RMK AO2 SLP105 T02330200 $","lat":34.5577,"lon":-98.4172,"elev":328,"name":"Lawton-Fort Sill Rgnl, OK, US","cover":"CLR","clouds":[],"fltCat":"VFR"},{"icaoId":"KDVT","receiptTime":"2026-04-13T02:00:00.398Z","obsTime":1776045180,"reportTime":"2026-04-13T02:00:00.000Z","temp":23.9,"dewp":3.9,"wdir":240,"wspd":8,"visib":"10+","altim":1012.6,"slp":1010.7,"qcField":12,"metarType":"METAR","rawOb":"METAR KDVT 130153Z 24008KT 10SM 24/04 A2990 RMK AO2 SLP107 T02390039 $","lat":33.6902,"lon":-112.0662,"elev":454,"name":"Phoenix/Deer Valley Arpt, AZ, US"},{"icaoId":"KDRO","receiptTime":"2026-04-13T02:00:00.291Z","obsTime":1776045180,"reportTime":"2026-04-13T02:00:00.000Z","temp":15,"dewp":-10.6,"wdir":240,"wspd":17,"wgst":28,"visib":"10+","altim":1015.3,"slp":1011.4,"qcField":6,"metarType":"METAR","rawOb":"METAR KDRO 130153Z AUTO 24017G28KT 10SM CLR 15/M11 A2998 RMK AO2 PK WND 23028/0147 SLP114 T01501106","lat":37.1431,"lon":-107.7602,"elev":2021,"name":"Durango/La Plata Cnty, CO, US","cover":"CLR","clouds":[],"fltCat":"VFR"},{"icaoId":"KMIA","receiptTime":"2026-04-13T01:56:06.288Z","obsTime":1776045180,"reportTime":"2026-04-13T02:00:00.000Z","temp":23.9,"dewp":16.7,"wdir":70,"wspd":13,"wgst":22,"visib":"10+","altim":1023.8,"slp":1023.5,"qcField":0,"metarType":"METAR","rawOb":"METAR KMIA 130153Z 07013G22KT 10SM FEW030 24/17 A3023 RMK SLP235 T02390167","lat":25.7881,"lon":-80.3169,"elev":1,"name":"Miami Intl, FL, US","cover":"FEW","clouds":[{"cover":"FEW","base":3000}],"fltCat":"VFR"},{"icaoId":"KHOU","receiptTime":"2026-04-13T01:59:59.266Z","obsTime":1776045180,"reportTime":"2026-04-13T02:00:00.000Z","temp":23.9,"dewp":21.1,"wdir":120,"wspd":7,"visib":9,"altim":1019.7,"slp":1020.1,"qcField":12,"metarType":"METAR","rawOb":"METAR KHOU 130153Z 12007KT 9SM SCT015 BKN035 OVC065 24/21 A3011 RMK AO2 SLP201 OCNL LTGICCC DSNT N AND NW CB DSNT N AND NW MOV NE T02390211 $","lat":29.6458,"lon":-95.2821,"elev":13,"name":"Houston/Hobby Arpt, TX, US","cover":"OVC","clouds":[{"cover":"SCT","base":1500},{"cover":"BKN","base":3500},{"cover":"OVC","base":6500}],"fltCat":"VFR"},{"icaoId":"KDTW","receiptTime":"2026-04-13T02:00:04.495Z","obsTime":1776045180,"reportTime":"2026-04-13T02:00:00.000Z","temp":21.1,"dewp":8.3,"wdir":190,"wspd":11,"visib":"10+","altim":1013,"slp":1012.9,"qcField":4,"metarType":"METAR","rawOb":"METAR KDTW 130153Z 19011KT 10SM BKN150 OVC200 21/08 A2991 RMK AO2 SLP129 T02110083","lat":42.2311,"lon":-83.3312,"elev":192,"name":"Detroit/Metro Wayne Cnty, MI, US","cover":"OVC","clouds":[{"cover":"BKN","base":15000},{"cover":"OVC","base":20000}],"fltCat":"VFR"},{"icaoId":"KOGD","receiptTime":"2026-04-13T02:00:02.584Z","obsTime":1776045180,"reportTime":"2026-04-13T02:00:00.000Z","temp":11.1,"dewp":-1.1,"wdir":240,"wspd":5,"visib":"10+","altim":1008.9,"slp":1005.8,"qcField":4,"precip":0.005,"metarType":"METAR","rawOb":"METAR KOGD 130153Z 24005KT 10SM SCT070 OVC085 11/M01 A2979 RMK AO2 RAB11E35 SLP058 P0000 T01111011","lat":41.1941,"lon":-112.0168,"elev":1356,"name":"Ogden/Hinckley Arpt, UT, US","cover":"OVC","clouds":[{"cover":"SCT","base":7000},{"cover":"OVC","base":8500}],"fltCat":"VFR"},{"icaoId":"KMYR","receiptTime":"2026-04-13T01:56:26.844Z","obsTime":1776045180,"reportTime":"2026-04-13T02:00:00.000Z","temp":20.6,"dewp":17.8,"wdir":120,"wspd":6,"visib":"10+","altim":1028.9,"slp":1028.6,"qcField":12,"metarType":"METAR","rawOb":"METAR KMYR 130153Z 12006KT 10SM CLR 21/18 A3038 RMK AO2 SLP286 T02060178 $","lat":33.6769,"lon":-78.9325,"elev":7,"name":"Myrtle Beach Intl, SC, US","cover":"CLR","clouds":[],"fltCat":"VFR"},{"icaoId":"KMTJ","receiptTime":"2026-04-13T02:00:02.378Z","obsTime":1776045180,"reportTime":"2026-04-13T02:00:00.000Z","temp":16.1,"dewp":-6.1,"wdir":190,"wspd":17,"wgst":24,"visib":"10+","altim":1012.3,"slp":1006.2,"qcField":6,"metarType":"METAR","rawOb":"METAR KMTJ 130153Z AUTO 19017G24KT 10SM CLR 16/M06 A2989 RMK AO2 PK WND 20031/0132 SLP062 T01611061","lat":38.5054,"lon":-107.8981,"elev":1755,"name":"Montrose Rgnl, CO, US","cover":"CLR","clouds":[],"fltCat":"VFR"},{"icaoId":"KLVS","receiptTime":"2026-04-13T01:59:59.668Z","obsTime":1776045180,"reportTime":"2026-04-13T02:00:00.000Z","temp":12.8,"dewp":-7.2,"wdir":180,"wspd":11,"visib":"10+","altim":1016,"slp":1009.2,"qcField":14,"metarType":"METAR","rawOb":"METAR KLVS 130153Z AUTO 18011KT 10SM CLR 13/M07 A3000 RMK AO2 SLP092 T01281072 PNO $","lat":35.6558,"lon":-105.1385,"elev":2095,"name":"Las Vegas Muni, NM, US","cover":"CLR","clouds":[],"fltCat":"VFR"},{"icaoId":"KLBB","receiptTime":"2026-04-13T01:59:59.354Z","obsTime":1776045180,"reportTime":"2026-04-13T02:00:00.000Z","temp":25,"dewp":3.3,"wdir":210,"wspd":11,"visib":"10+","altim":1013,"slp":1008.7,"qcField":12,"metarType":"METAR","rawOb":"METAR KLBB 130153Z 21011KT 10SM SCT140 BKN250 25/03 A2991 RMK AO2 SLP087 T02500033 $","lat":33.6658,"lon":-101.8233,"elev":996,"name":"Lubbock Intl Arpt, TX, US","cover":"BKN","clouds":[{"cover":"SCT","base":14000},{"cover":"BKN","base":25000}],"fltCat":"VFR"},{"icaoId":"KMLC","receiptTime":"2026-04-13T02:00:09.877Z","obsTime":1776045180,"reportTime":"2026-04-13T02:00:00.000Z","temp":20.6,"dewp":18.9,"wdir":180,"wspd":7,"visib":9,"altim":1015.7,"slp":1014.7,"qcField":6,"precip":0.005,"metarType":"METAR","rawOb":"METAR KMLC 130153Z AUTO 18007KT 9SM OVC008 21/19 A2999 RMK AO2 RAB28E33 CIG 007V011 SLP147 P0000 T02060189","lat":34.8824,"lon":-95.7815,"elev":231,"name":"McAlester Rgnl, OK, US","cover":"OVC","clouds":[{"cover":"OVC","base":800}],"fltCat":"IFR"},{"icaoId":"KRTN","receiptTime":"2026-04-13T02:00:13.839Z","obsTime":1776045180,"reportTime":"2026-04-13T02:00:00.000Z","temp":14.4,"dewp":-7.2,"wdir":250,"wspd":12,"visib":"10+","altim":1013.3,"slp":1008.6,"qcField":6,"metarType":"METAR","rawOb":"METAR KRTN 130153Z AUTO 25012KT 10SM CLR 14/M07 A2992 RMK AO2 SLP086 T01441072","lat":36.7418,"lon":-104.5076,"elev":1939,"name":"Raton/Crews Fld, NM, US","cover":"CLR","clouds":[],"fltCat":"VFR"},{"icaoId":"KMSY","receiptTime":"2026-04-13T02:00:02.359Z","obsTime":1776045180,"reportTime":"2026-04-13T02:00:00.000Z","temp":22.8,"dewp":17.2,"wdir":130,"wspd":8,"visib":"10+","altim":1022.8,"slp":1022.8,"qcField":4,"metarType":"METAR","rawOb":"METAR KMSY 130153Z 13008KT 10SM FEW030 SCT250 23/17 A3020 RMK AO2 SLP228 T02280172","lat":29.9974,"lon":-90.2777,"elev":0,"name":"New Orleans/Armstrong Intl, LA, US","cover":"SCT","clouds":[{"cover":"FEW","base":3000},{"cover":"SCT","base":25000}],"fltCat":"VFR"},{"icaoId":"KDEN","receiptTime":"2026-04-13T02:00:01.859Z","obsTime":1776045180,"reportTime":"2026-04-13T02:00:00.000Z","temp":16.1,"dewp":-7.8,"wdir":70,"wspd":7,"visib":"10+","altim":1006.9,"slp":1001.1,"qcField":4,"metarType":"METAR","rawOb":"METAR KDEN 130153Z 07007KT 10SM FEW110 SCT150 BKN180 16/M08 A2973 RMK AO2 SLP011 VIRGA T01611078","lat":39.8466,"lon":-104.6562,"elev":1656,"name":"Denver Intl, CO, US","cover":"BKN","clouds":[{"cover":"FEW","base":11000},{"cover":"SCT","base":15000},{"cover":"BKN","base":18000}],"fltCat":"VFR"},{"icaoId":"KDAL","receiptTime":"2026-04-13T02:00:01.783Z","obsTime":1776045180,"reportTime":"2026-04-13T02:00:00.000Z","temp":22.2,"dewp":19.4,"wdir":180,"wspd":13,"wgst":21,"visib":"10+","altim":1015.3,"slp":1014.6,"qcField":4,"metarType":"METAR","rawOb":"METAR KDAL 130153Z 18013G21KT 10SM FEW018 SCT045 BKN210 BKN250 22/19 A2998 RMK AO2 PK WND 17027/0114 SLP146 FRQ LTGICCC CB DSNT SE-S MOV NE T02220194","lat":32.8384,"lon":-96.8358,"elev":148,"name":"Dallas/Love Fld, TX, US","cover":"BKN","clouds":[{"cover":"FEW","base":1800},{"cover":"SCT","base":4500},{"cover":"BKN","base":21000},{"cover":"BKN","base":25000}],"fltCat":"VFR"},{"icaoId":"KCDC","receiptTime":"2026-04-13T01:56:59.501Z","obsTime":1776045180,"reportTime":"2026-04-13T02:00:00.000Z","temp":12.2,"dewp":-6.7,"wdir":210,"wspd":18,"wgst":28,"visib":"10+","altim":1010.6,"slp":1006.2,"qcField":6,"metarType":"METAR","rawOb":"METAR KCDC 130153Z AUTO 21018G28KT 10SM FEW120 12/M07 A2984 RMK AO2 PK WND 20037/0057 SLP062 T01221067","lat":37.7067,"lon":-113.097,"elev":1703,"name":"Cedar City Muni, UT, US","cover":"FEW","clouds":[{"cover":"FEW","base":12000}],"fltCat":"VFR"},{"icaoId":"KMOD","receiptTime":"2026-04-13T02:00:10.513Z","obsTime":1776045180,"reportTime":"2026-04-13T02:00:00.000Z","temp":14.4,"dewp":7.8,"wdir":0,"wspd":0,"visib":"10+","altim":1014.3,"slp":1014,"qcField":6,"precip":0.005,"metarType":"METAR","rawOb":"METAR KMOD 130153Z AUTO 00000KT 10SM BKN055 BKN070 OVC110 14/08 A2995 RMK AO2 RAB26E38 SLP140 P0000 T01440078","lat":37.6254,"lon":-120.9549,"elev":25,"name":"Modesto/Sham Fld, CA, US","cover":"OVC","clouds":[{"cover":"BKN","base":5500},{"cover":"BKN","base":7000},{"cover":"OVC","base":11000}],"fltCat":"VFR"},{"icaoId":"KMSP","receiptTime":"2026-04-13T02:00:10.530Z","obsTime":1776045180,"reportTime":"2026-04-13T02:00:00.000Z","temp":21.7,"dewp":15,"wdir":220,"wspd":12,"wgst":20,"visib":"10+","altim":1000.1,"slp":999.6,"qcField":4,"metarType":"METAR","rawOb":"METAR KMSP 130153Z 22012G20KT 10SM FEW100 SCT250 22/15 A2953 RMK AO2 PK WND 20027/0109 SLP996 T02170150","lat":44.8852,"lon":-93.2313,"elev":255,"name":"Minneapolis-St Paul Intl, MN, US","cover":"SCT","clouds":[{"cover":"FEW","base":10000},{"cover":"SCT","base":25000}],"fltCat":"VFR"},{"icaoId":"KOAK","receiptTime":"2026-04-13T02:00:10.563Z","obsTime":1776045180,"reportTime":"2026-04-13T02:00:00.000Z","temp":13.3,"dewp":8.9,"wdir":230,"wspd":15,"visib":"10+","altim":1015,"slp":1014.7,"qcField":12,"precip":0.005,"metarType":"METAR","rawOb":"METAR KOAK 130153Z 23015KT 10SM FEW012 SCT025 BKN055 13/09 A2997 RMK AO2 PK WND 22026/0117 RAE0058B19E28 SLP147 P0000 T01330089 $","lat":37.7178,"lon":-122.233,"elev":3,"name":"Oakland Intl, CA, US","cover":"BKN","clouds":[{"cover":"FEW","base":1200},{"cover":"SCT","base":2500},{"cover":"BKN","base":5500}],"fltCat":"VFR"},{"icaoId":"KPAE","receiptTime":"2026-04-13T02:00:10.649Z","obsTime":1776045180,"reportTime":"2026-04-13T02:00:00.000Z","temp":11.1,"dewp":7.8,"wdir":240,"wspd":7,"visib":"10+","altim":1008.5,"slp":1008.7,"qcField":4,"metarType":"METAR","rawOb":"METAR KPAE 130153Z 24007KT 10SM OVC029 11/08 A2978 RMK AO2 SLP087 T01110078","lat":47.9232,"lon":-122.2831,"elev":166,"name":"Everett/Paine Fld, WA, US","cover":"OVC","clouds":[{"cover":"OVC","base":2900}],"fltCat":"MVFR"},{"icaoId":"KAMA","receiptTime":"2026-04-13T01:57:01.076Z","obsTime":1776045180,"reportTime":"2026-04-13T02:00:00.000Z","temp":21.1,"dewp":0,"wdir":220,"wspd":7,"visib":"10+","altim":1011.9,"slp":1007.5,"qcField":4,"metarType":"METAR","rawOb":"METAR KAMA 130153Z 22007KT 10SM FEW120 21/00 A2988 RMK AO2 SLP075 T02110000","lat":35.2203,"lon":-101.7173,"elev":1102,"name":"Amarillo Intl Arpt, TX, US","cover":"FEW","clouds":[{"cover":"FEW","base":12000}],"fltCat":"VFR"},{"icaoId":"KSJC","receiptTime":"2026-04-13T02:00:11.077Z","obsTime":1776045180,"reportTime":"2026-04-13T02:00:00.000Z","temp":14.4,"dewp":6.1,"wdir":260,"wspd":10,"visib":"10+","altim":1015,"slp":1014.8,"qcField":12,"metarType":"METAR","rawOb":"METAR KSJC 130153Z 26010KT 10SM FEW024 SCT050 BKN060 14/06 A2997 RMK AO2 SLP148 T01440061 $","lat":37.3594,"lon":-121.9244,"elev":13,"name":"San Jose Intl Arpt, CA, US","cover":"BKN","clouds":[{"cover":"FEW","base":2400},{"cover":"SCT","base":5000},{"cover":"BKN","base":6000}],"fltCat":"VFR"},{"icaoId":"KSMF","receiptTime":"2026-04-13T02:00:11.091Z","obsTime":1776045180,"reportTime":"2026-04-13T02:00:00.000Z","temp":13.3,"dewp":8.3,"wdir":170,"wspd":8,"wgst":17,"visib":"10+","altim":1013.3,"slp":1013,"qcField":12,"metarType":"METAR","rawOb":"METAR KSMF 130153Z 17008G17KT 10SM BKN028 BKN200 13/08 A2992 RMK AO2 TSE00 SLP130 OCNL LTG DSNT N AND NE T01330083 $","lat":38.7007,"lon":-121.5948,"elev":7,"name":"Sacramento Intl, CA, US","cover":"BKN","clouds":[{"cover":"BKN","base":2800},{"cover":"BKN","base":20000}],"fltCat":"MVFR"},{"icaoId":"KAPA","receiptTime":"2026-04-13T01:57:01.144Z","obsTime":1776045180,"reportTime":"2026-04-13T02:00:00.000Z","temp":18.3,"dewp":-9.4,"wdir":190,"wspd":7,"visib":"10+","altim":1008.2,"slp":1002.9,"qcField":4,"metarType":"METAR","rawOb":"METAR KAPA 130153Z 19007KT 10SM BKN100 BKN220 18/M09 A2977 RMK AO2 SLP029 VIRGA ALQDS T01831094","lat":39.5599,"lon":-104.8484,"elev":1791,"name":"Denver/Centennial Arpt, CO, US","cover":"BKN","clouds":[{"cover":"BKN","base":10000},{"cover":"BKN","base":22000}],"fltCat":"VFR"},{"icaoId":"KASE","receiptTime":"2026-04-13T01:57:01.215Z","obsTime":1776045180,"reportTime":"2026-04-13T02:00:00.000Z","temp":7.8,"dewp":-3.3,"wdir":10,"wspd":11,"wgst":19,"visib":"10+","altim":1014.3,"slp":1007.3,"qcField":6,"metarType":"METAR","rawOb":"METAR KASE 130153Z AUTO 01011G19KT 10SM CLR 08/M03 A2995 RMK AO2 SLP073 T00781033","lat":39.2299,"lon":-106.8705,"elev":2384,"name":"Aspen/Pitkin Cnty, CO, US","cover":"CLR","clouds":[],"fltCat":"VFR"},{"icaoId":"KAUS","receiptTime":"2026-04-13T01:57:01.248Z","obsTime":1776045180,"reportTime":"2026-04-13T02:00:00.000Z","temp":22.2,"dewp":20.6,"wdir":140,"wspd":15,"wgst":25,"visib":"10+","altim":1017,"slp":1016.2,"qcField":4,"metarType":"METAR","rawOb":"METAR KAUS 130153Z 14015G25KT 10SM OVC009 22/21 A3003 RMK AO2 SLP162 T02220206","lat":30.1831,"lon":-97.6806,"elev":148,"name":"Austin/Bergstrom Intl, TX, US","cover":"OVC","clouds":[{"cover":"OVC","base":900}],"fltCat":"IFR"},{"icaoId":"KBCE","receiptTime":"2026-04-13T01:57:01.324Z","obsTime":1776045180,"reportTime":"2026-04-13T02:00:00.000Z","temp":7.2,"dewp":-13.9,"wdir":220,"wspd":11,"visib":"10+","altim":1013.3,"slp":1008.2,"qcField":6,"metarType":"METAR","rawOb":"METAR KBCE 130153Z AUTO 22011KT 10SM CLR 07/M14 A2992 RMK AO2 PK WND 24037/0121 SLP082 T00721139","lat":37.7013,"lon":-112.149,"elev":2311,"name":"Bryce Canyon Arpt, UT, US","cover":"CLR","clouds":[],"fltCat":"VFR"},{"icaoId":"KLAX","receiptTime":"2026-04-13T01:59:59.341Z","obsTime":1776045180,"reportTime":"2026-04-13T02:00:00.000Z","temp":16.7,"dewp":8.9,"wdir":260,"wspd":13,"visib":"10+","altim":1016,"slp":1015.7,"qcField":12,"metarType":"METAR","rawOb":"METAR KLAX 130153Z 26013KT 10SM FEW060 FEW085 SCT250 17/09 A3000 RMK AO2 SLP157 T01670089 $","lat":33.9382,"lon":-118.3866,"elev":30,"name":"Los Angeles Intl, CA, US","cover":"SCT","clouds":[{"cover":"FEW","base":6000},{"cover":"FEW","base":8500},{"cover":"SCT","base":25000}],"fltCat":"VFR"},{"icaoId":"KBJC","receiptTime":"2026-04-13T01:54:40.119Z","obsTime":1776045120,"reportTime":"2026-04-13T02:00:00.000Z","temp":19,"dewp":-10,"wdir":300,"wspd":4,"visib":"10+","altim":1007.9,"qcField":0,"metarType":"METAR","rawOb":"METAR KBJC 130152Z 30004KT 10SM SCT100 19/M10 A2976","lat":39.9008,"lon":-105.1042,"elev":1694,"name":"Rocky Mtn Metro, CO, US","cover":"SCT","clouds":[{"cover":"SCT","base":10000}],"fltCat":"VFR"},{"icaoId":"KDCA","receiptTime":"2026-04-13T01:56:05.963Z","obsTime":1776045120,"reportTime":"2026-04-13T02:00:00.000Z","temp":15.6,"dewp":8.9,"wdir":170,"wspd":9,"visib":"10+","altim":1025.5,"slp":1025.2,"qcField":4,"metarType":"METAR","rawOb":"METAR KDCA 130152Z 17009KT 10SM BKN250 16/09 A3028 RMK AO2 SLP252 T01560089","lat":38.8472,"lon":-77.0345,"elev":4,"name":"Washington/Reagan-National Arpt, VA, US","cover":"BKN","clouds":[{"cover":"BKN","base":25000}],"fltCat":"VFR"},{"icaoId":"KABQ","receiptTime":"2026-04-13T01:56:26.228Z","obsTime":1776045120,"reportTime":"2026-04-13T02:00:00.000Z","temp":20.6,"dewp":-10.6,"wdir":220,"wspd":16,"wgst":22,"visib":"10+","altim":1015,"slp":1009,"qcField":12,"metarType":"METAR","rawOb":"METAR KABQ 130152Z 22016G22KT 10SM SCT170 BKN200 21/M11 A2997 RMK AO2 PK WND 22030/0118 SLP090 T02061106 $","lat":35.0419,"lon":-106.6154,"elev":1620,"name":"Albuquerque Intl, NM, US","cover":"BKN","clouds":[{"cover":"SCT","base":17000},{"cover":"BKN","base":20000}],"fltCat":"VFR"},{"icaoId":"KSPS","receiptTime":"2026-04-13T01:56:26.419Z","obsTime":1776045120,"reportTime":"2026-04-13T02:00:00.000Z","temp":22.8,"dewp":18.9,"wdir":160,"wspd":20,"wgst":27,"visib":"10+","altim":1011.9,"slp":1010.7,"qcField":6,"metarType":"METAR","rawOb":"METAR KSPS 130152Z AUTO 16020G27KT 10SM CLR 23/19 A2988 RMK AO2 PK WND 17029/0142 SLP107 T02280189","lat":33.9785,"lon":-98.493,"elev":310,"name":"Wichita Falls Rgnl, TX, US","cover":"CLR","clouds":[],"fltCat":"VFR"},{"icaoId":"KOKC","receiptTime":"2026-04-13T01:56:26.870Z","obsTime":1776045120,"reportTime":"2026-04-13T02:00:00.000Z","temp":21.1,"dewp":18.9,"wdir":160,"wspd":19,"wgst":28,"visib":"10+","altim":1011.6,"slp":1010.3,"qcField":4,"metarType":"METAR","rawOb":"METAR KOKC 130152Z 16019G28KT 10SM BKN015 BKN250 21/19 A2987 RMK AO2 PK WND 18033/0101 SLP103 T02110189","lat":35.3843,"lon":-97.6003,"elev":391,"name":"Oklahoma City/Will Rogers Intl, OK, US","cover":"BKN","clouds":[{"cover":"BKN","base":1500},{"cover":"BKN","base":25000}],"fltCat":"MVFR"},{"icaoId":"KIAD","receiptTime":"2026-04-13T01:56:06.159Z","obsTime":1776045120,"reportTime":"2026-04-13T02:00:00.000Z","temp":16.1,"dewp":7.8,"wdir":150,"wspd":7,"visib":"10+","altim":1024.5,"slp":1024.4,"qcField":12,"metarType":"METAR","rawOb":"METAR KIAD 130152Z 15007KT 10SM BKN250 16/08 A3025 RMK AO2 SLP244 T01610078 $","lat":38.9348,"lon":-77.4473,"elev":90,"name":"Washington/Dulles Intl, VA, US","cover":"BKN","clouds":[{"cover":"BKN","base":25000}],"fltCat":"VFR"},{"icaoId":"KTRM","receiptTime":"2026-04-13T02:00:38.091Z","obsTime":1776045120,"reportTime":"2026-04-13T02:00:00.000Z","temp":22.2,"dewp":7.8,"wdir":300,"wspd":10,"wgst":18,"visib":"10+","altim":1012.6,"slp":1012.5,"qcField":38,"metarType":"METAR","rawOb":"METAR KTRM 130152Z AUTO 30010G18KT 10SM FEW095 22/08 A2990 RMK AO2 SLP125 T02220078 TSNO","lat":33.6317,"lon":-116.1641,"elev":-39,"name":"Thermal Arpt, CA, US","cover":"FEW","clouds":[{"cover":"FEW","base":9500}],"fltCat":"VFR"},{"icaoId":"KHRL","receiptTime":"2026-04-13T01:56:06.126Z","obsTime":1776045120,"reportTime":"2026-04-13T02:00:00.000Z","temp":23.9,"dewp":22.2,"wdir":140,"wspd":15,"visib":"10+","altim":1015.7,"slp":1015.5,"qcField":4,"wxString":"-RA","precip":0.005,"metarType":"METAR","rawOb":"METAR KHRL 130152Z 14015KT 10SM -RA FEW055 FEW070 SCT090 24/22 A2999 RMK AO2 RAB03 SLP155 P0000 T02390222","lat":26.2303,"lon":-97.6556,"elev":9,"name":"Harlingen/Valley Intl, TX, US","cover":"SCT","clouds":[{"cover":"FEW","base":5500},{"cover":"FEW","base":7000},{"cover":"SCT","base":9000}],"fltCat":"VFR"},{"icaoId":"KCVG","receiptTime":"2026-04-13T01:56:05.946Z","obsTime":1776045120,"reportTime":"2026-04-13T02:00:00.000Z","temp":22.8,"dewp":7.2,"wdir":190,"wspd":10,"wgst":19,"visib":"10+","altim":1017.7,"slp":1016.9,"qcField":12,"metarType":"METAR","rawOb":"METAR KCVG 130152Z 19010G19KT 10SM SCT150 BKN250 23/07 A3005 RMK AO2 SLP169 T02280072 $","lat":39.0444,"lon":-84.6724,"elev":264,"name":"Cincinnati Intl, KY, US","cover":"BKN","clouds":[{"cover":"SCT","base":15000},{"cover":"BKN","base":25000}],"fltCat":"VFR"},{"icaoId":"KCLT","receiptTime":"2026-04-13T01:56:05.911Z","obsTime":1776045120,"reportTime":"2026-04-13T02:00:00.000Z","temp":23.3,"dewp":8.9,"wdir":170,"wspd":9,"visib":"10+","altim":1025.8,"slp":1026.6,"qcField":4,"metarType":"METAR","rawOb":"METAR KCLT 130152Z 17009KT 10SM BKN250 23/09 A3029 RMK AO2 SLP266 T02330089","lat":35.2225,"lon":-80.9543,"elev":223,"name":"Charlotte/Douglas Intl, NC, US","cover":"BKN","clouds":[{"cover":"BKN","base":25000}],"fltCat":"VFR"},{"icaoId":"KMKE","receiptTime":"2026-04-13T01:56:06.304Z","obsTime":1776045120,"reportTime":"2026-04-13T02:00:00.000Z","temp":17.8,"dewp":15.6,"wdir":220,"wspd":14,"wgst":20,"visib":"10+","altim":1008.2,"slp":1007.9,"qcField":12,"wxString":"-RA","precip":0.07,"metarType":"METAR","rawOb":"METAR KMKE 130152Z 22014G20KT 10SM -RA SCT042 BKN049 OVC100 18/16 A2977 RMK AO2 SLP079 P0007 T01780156 $","lat":42.9549,"lon":-87.9045,"elev":203,"name":"Milwaukee/Mitchell Intl, WI, US","cover":"OVC","clouds":[{"cover":"SCT","base":4200},{"cover":"BKN","base":4900},{"cover":"OVC","base":10000}],"fltCat":"VFR"},{"icaoId":"KMLF","receiptTime":"2026-04-13T01:56:26.377Z","obsTime":1776045120,"reportTime":"2026-04-13T02:00:00.000Z","temp":13.3,"dewp":-6.1,"wdir":210,"wspd":20,"wgst":31,"visib":"10+","altim":1008.5,"slp":1005.3,"qcField":6,"metarType":"METAR","rawOb":"METAR KMLF 130152Z AUTO 21020G31KT 10SM CLR 13/M06 A2978 RMK AO2 PK WND 23034/0123 SLP053 T01331061","lat":38.4225,"lon":-113.0109,"elev":1537,"name":"Milford Muni, UT, US","cover":"CLR","clouds":[],"fltCat":"VFR"},{"icaoId":"KABI","receiptTime":"2026-04-13T01:56:26.213Z","obsTime":1776045120,"reportTime":"2026-04-13T02:00:00.000Z","temp":23.9,"dewp":19.4,"wdir":160,"wspd":9,"visib":"10+","altim":1013.6,"slp":1011.5,"qcField":4,"metarType":"METAR","rawOb":"METAR KABI 130152Z 16009KT 10SM CLR 24/19 A2993 RMK AO2 SLP115 T02390194","lat":32.4106,"lon":-99.6821,"elev":543,"name":"Abilene Rgnl, TX, US","cover":"CLR","clouds":[],"fltCat":"VFR"},{"icaoId":"KATL","receiptTime":"2026-04-13T01:56:05.717Z","obsTime":1776045120,"reportTime":"2026-04-13T02:00:00.000Z","temp":22.8,"dewp":4.4,"wdir":160,"wspd":6,"visib":"10+","altim":1025.5,"slp":1024.5,"qcField":12,"metarType":"METAR","rawOb":"METAR KATL 130152Z 16006KT 10SM BKN250 23/04 A3028 RMK AO2 SLP245 T02280044 $","lat":33.6297,"lon":-84.4422,"elev":309,"name":"Atlanta/Hartsfield-Jackson Intl, GA, US","cover":"BKN","clouds":[{"cover":"BKN","base":25000}],"fltCat":"VFR"},{"icaoId":"KIGM","receiptTime":"2026-04-13T01:54:08.525Z","obsTime":1776045060,"reportTime":"2026-04-13T02:00:00.000Z","temp":17.8,"dewp":-3.9,"wdir":200,"wspd":18,"wgst":23,"visib":"10+","altim":1012.6,"slp":1007.5,"qcField":6,"metarType":"METAR","rawOb":"METAR KIGM 130151Z AUTO 20018G23KT 10SM CLR 18/M04 A2990 RMK AO2 PK WND 21035/0057 SLP075 T01781039","lat":35.2575,"lon":-113.9341,"elev":1045,"name":"Kingman Arpt, AZ, US","cover":"CLR","clouds":[],"fltCat":"VFR"},{"icaoId":"KLGU","receiptTime":"2026-04-13T01:54:08.624Z","obsTime":1776045060,"reportTime":"2026-04-13T02:00:00.000Z","temp":11.1,"dewp":0.6,"wdir":180,"wspd":5,"visib":"10+","altim":1008.9,"slp":1007.6,"qcField":6,"metarType":"METAR","rawOb":"METAR KLGU 130151Z AUTO 18005KT 10SM FEW060 OVC075 11/01 A2979 RMK AO2 SLP076 T01110006","lat":41.7865,"lon":-111.8519,"elev":1359,"name":"Logan/Cache Arpt, UT, US","cover":"OVC","clouds":[{"cover":"FEW","base":6000},{"cover":"OVC","base":7500}],"fltCat":"VFR"},{"icaoId":"KMYL","receiptTime":"2026-04-13T01:54:07.688Z","obsTime":1776045060,"reportTime":"2026-04-13T02:00:00.000Z","temp":2.2,"dewp":0,"wdir":150,"wspd":8,"visib":"10+","altim":1007.9,"slp":1008.6,"qcField":6,"precip":0.005,"metarType":"METAR","rawOb":"METAR KMYL 130151Z AUTO 15008KT 10SM SCT019 BKN027 OVC037 02/00 A2976 RMK AO2 RAB0059E24UPB06E23 SLP086 P0000 T00220000","lat":44.8943,"lon":-116.0998,"elev":1532,"name":"McCall Muni, ID, US","cover":"OVC","clouds":[{"cover":"SCT","base":1900},{"cover":"BKN","base":2700},{"cover":"OVC","base":3700}],"fltCat":"MVFR"},{"icaoId":"KORD","receiptTime":"2026-04-13T01:54:07.704Z","obsTime":1776045060,"reportTime":"2026-04-13T02:00:00.000Z","temp":17.8,"dewp":14.4,"wdir":210,"wspd":10,"wgst":22,"visib":7,"altim":1009.6,"slp":1009.2,"qcField":12,"wxString":"-RA","precip":0.02,"metarType":"METAR","rawOb":"METAR KORD 130151Z 21010G22KT 7SM -RA BKN043 OVC055 18/14 A2981 RMK AO2 PK WND 20029/0113 SLP092 P0002 T01780144 $","lat":41.9602,"lon":-87.9316,"elev":202,"name":"Chicago/O'Hare Intl, IL, US","cover":"OVC","clouds":[{"cover":"BKN","base":4300},{"cover":"OVC","base":5500}],"fltCat":"VFR"},{"icaoId":"KORF","receiptTime":"2026-04-13T01:54:07.719Z","obsTime":1776045060,"reportTime":"2026-04-13T02:00:00.000Z","temp":16.1,"dewp":12.2,"wdir":170,"wspd":10,"visib":"10+","altim":1027.9,"slp":1027.6,"qcField":4,"metarType":"METAR","rawOb":"METAR KORF 130151Z 17010KT 10SM CLR 16/12 A3035 RMK AO2 SLP276 T01610122","lat":36.9037,"lon":-76.1927,"elev":5,"name":"Norfolk Intl, VA, US","cover":"CLR","clouds":[],"fltCat":"VFR"},{"icaoId":"KPHX","receiptTime":"2026-04-13T01:54:07.749Z","obsTime":1776045060,"reportTime":"2026-04-13T02:00:00.000Z","temp":25.6,"dewp":6.1,"wdir":270,"wspd":10,"visib":"10+","altim":1011.6,"slp":1010.2,"qcField":12,"metarType":"METAR","rawOb":"METAR KPHX 130151Z 27010KT 10SM FEW100 FEW160 BKN200 BKN250 26/06 A2987 RMK AO2 SLP102 T02560061 $","lat":33.4278,"lon":-112.0037,"elev":338,"name":"Phoenix/Sky Harbor Intl, AZ, US","cover":"BKN","clouds":[{"cover":"FEW","base":10000},{"cover":"FEW","base":16000},{"cover":"BKN","base":20000},{"cover":"BKN","base":25000}],"fltCat":"VFR"},{"icaoId":"KPIT","receiptTime":"2026-04-13T01:54:07.769Z","obsTime":1776045060,"reportTime":"2026-04-13T02:00:00.000Z","temp":21.7,"dewp":7.8,"wdir":170,"wspd":4,"visib":"10+","altim":1018.4,"slp":1018.5,"qcField":12,"metarType":"METAR","rawOb":"METAR KPIT 130151Z 17004KT 10SM SCT120 OVC230 22/08 A3007 RMK AO2 SLP185 T02170078 $","lat":40.4814,"lon":-80.2083,"elev":339,"name":"Pittsburgh Intl, PA, US","cover":"OVC","clouds":[{"cover":"SCT","base":12000},{"cover":"OVC","base":23000}],"fltCat":"VFR"},{"icaoId":"KPVD","receiptTime":"2026-04-13T01:54:07.785Z","obsTime":1776045060,"reportTime":"2026-04-13T02:00:00.000Z","temp":6.7,"dewp":1.1,"wdir":190,"wspd":10,"visib":"10+","altim":1029.2,"slp":1029.2,"qcField":12,"metarType":"METAR","rawOb":"METAR KPVD 130151Z 19010KT 10SM OVC100 07/01 A3039 RMK AO2 SLP292 T00670011 $","lat":41.7225,"lon":-71.4325,"elev":15,"name":"Providence/Green Mem, RI, US","cover":"OVC","clouds":[{"cover":"OVC","base":10000}],"fltCat":"VFR"},{"icaoId":"KRDU","receiptTime":"2026-04-13T01:54:07.813Z","obsTime":1776045060,"reportTime":"2026-04-13T02:00:00.000Z","temp":22.2,"dewp":14.4,"wdir":160,"wspd":11,"wgst":19,"visib":"10+","altim":1026.5,"slp":1025.9,"qcField":12,"metarType":"METAR","rawOb":"METAR KRDU 130151Z 16011G19KT 10SM SCT250 22/14 A3031 RMK AO2 SLP259 T02220144 $","lat":35.8923,"lon":-78.782,"elev":121,"name":"Raleigh-Durham Intl, NC, US","cover":"SCT","clouds":[{"cover":"SCT","base":25000}],"fltCat":"VFR"},{"icaoId":"KROW","receiptTime":"2026-04-13T01:54:07.826Z","obsTime":1776045060,"reportTime":"2026-04-13T02:00:00.000Z","temp":20.6,"dewp":-3.3,"wdir":220,"wspd":6,"visib":"10+","altim":1013.6,"slp":1008.7,"qcField":12,"metarType":"METAR","rawOb":"METAR KROW 130151Z 22006KT 10SM CLR 21/M03 A2993 RMK AO2 SLP087 T02061033 $","lat":33.3074,"lon":-104.5082,"elev":1105,"name":"Roswell/Ind Arpt, NM, US","cover":"CLR","clouds":[],"fltCat":"VFR"},{"icaoId":"KSAD","receiptTime":"2026-04-13T01:54:07.841Z","obsTime":1776045060,"reportTime":"2026-04-13T02:00:00.000Z","temp":21.7,"dewp":4.4,"wdir":210,"wspd":13,"wgst":21,"visib":"10+","altim":1015,"slp":1011.5,"qcField":6,"precip":0.005,"metarType":"METAR","rawOb":"METAR KSAD 130151Z AUTO 21013G21KT 10SM CLR 22/04 A2997 RMK AO2 PK WND 22036/0107 WSHFT 0100 RAB15E24 SLP115 P0000 T02170044","lat":32.8565,"lon":-109.636,"elev":937,"name":"Safford Rgnl, AZ, US","cover":"CLR","clouds":[],"fltCat":"VFR"},{"icaoId":"KSTL","receiptTime":"2026-04-13T01:54:07.958Z","obsTime":1776045060,"reportTime":"2026-04-13T02:00:00.000Z","temp":23.3,"dewp":12.8,"wdir":210,"wspd":13,"wgst":24,"visib":"10+","altim":1012.6,"slp":1011.5,"qcField":12,"precip":0.005,"metarType":"METAR","rawOb":"METAR KSTL 130151Z 21013G24KT 10SM OVC048 23/13 A2990 RMK AO2 PK WND 21031/0057 RAB08E23 SLP115 P0000 T02330128 $","lat":38.7525,"lon":-90.3734,"elev":163,"name":"St Louis/Lambert Intl, MO, US","cover":"OVC","clouds":[{"cover":"OVC","base":4800}],"fltCat":"VFR"},{"icaoId":"KVNY","receiptTime":"2026-04-13T01:54:08.018Z","obsTime":1776045060,"reportTime":"2026-04-13T02:00:00.000Z","temp":16.7,"dewp":5.6,"wdir":260,"wspd":7,"visib":"10+","altim":1015,"slp":1014.4,"qcField":12,"metarType":"METAR","rawOb":"METAR KVNY 130151Z 26007KT 10SM FEW046 17/06 A2997 RMK AO2 SLP144 T01670056 $","lat":34.2121,"lon":-118.4915,"elev":241,"name":"Van Nuys Arpt, CA, US","cover":"FEW","clouds":[{"cover":"FEW","base":4600}],"fltCat":"VFR"},{"icaoId":"KACT","receiptTime":"2026-04-13T01:54:08.065Z","obsTime":1776045060,"reportTime":"2026-04-13T02:00:00.000Z","temp":21.7,"dewp":18.9,"wdir":170,"wspd":12,"visib":"10+","altim":1017.7,"slp":1017.1,"qcField":4,"metarType":"METAR","rawOb":"METAR KACT 130151Z 17012KT 10SM OVC019 22/19 A3005 RMK AO2 SLP171 T02170189","lat":31.618,"lon":-97.2283,"elev":150,"name":"Waco Rgnl, TX, US","cover":"OVC","clouds":[{"cover":"OVC","base":1900}],"fltCat":"MVFR"},{"icaoId":"KCLE","receiptTime":"2026-04-13T01:54:08.240Z","obsTime":1776045060,"reportTime":"2026-04-13T02:00:00.000Z","temp":22.2,"dewp":9.4,"wdir":200,"wspd":9,"visib":"10+","altim":1015,"slp":1016.2,"qcField":12,"metarType":"METAR","rawOb":"METAR KCLE 130151Z 20009KT 10SM OVC220 22/09 A2997 RMK AO2 SLP162 T02220094 $","lat":41.4057,"lon":-81.8519,"elev":237,"name":"Cleveland/Hopkins Intl, OH, US","cover":"OVC","clouds":[{"cover":"OVC","base":22000}],"fltCat":"VFR"},{"icaoId":"KCRP","receiptTime":"2026-04-13T01:54:08.317Z","obsTime":1776045060,"reportTime":"2026-04-13T02:00:00.000Z","temp":24.4,"dewp":22.2,"wdir":150,"wspd":16,"visib":"10+","altim":1017.4,"slp":1016.9,"qcField":4,"metarType":"METAR","rawOb":"METAR KCRP 130151Z 15016KT 10SM BKN013 BKN016 OVC055 24/22 A3004 RMK AO2 PK WND 16026/0101 SLP169 T02440222","lat":27.7734,"lon":-97.513,"elev":11,"name":"Corpus Christi Intl, TX, US","cover":"OVC","clouds":[{"cover":"BKN","base":1300},{"cover":"BKN","base":1600},{"cover":"OVC","base":5500}],"fltCat":"MVFR"},{"icaoId":"KOXR","receiptTime":"2026-04-13T01:54:07.736Z","obsTime":1776045060,"reportTime":"2026-04-13T02:00:00.000Z","temp":16.1,"dewp":8.9,"wdir":260,"wspd":15,"visib":"10+","altim":1015.7,"slp":1015.4,"qcField":4,"metarType":"METAR","rawOb":"METAR KOXR 130151Z 26015KT 10SM CLR 16/09 A2999 RMK AO2 SLP154 T01610089","lat":34.2001,"lon":-119.2042,"elev":12,"name":"Oxnard Arpt, CA, US","cover":"CLR","clouds":[],"fltCat":"VFR"},{"icaoId":"KBDL","receiptTime":"2026-04-13T01:54:08.145Z","obsTime":1776045060,"reportTime":"2026-04-13T02:00:00.000Z","temp":7.8,"dewp":0.6,"wdir":180,"wspd":15,"wgst":20,"visib":"10+","altim":1027.9,"slp":1027.7,"qcField":4,"precip":0.005,"metarType":"METAR","rawOb":"METAR KBDL 130151Z 18015G20KT 10SM BKN110 OVC170 08/01 A3035 RMK AO2 RAE0054 SLP277 P0000 T00780006","lat":41.9374,"lon":-72.682,"elev":52,"name":"Hartford/Bradley Intl, CT, US","cover":"OVC","clouds":[{"cover":"BKN","base":11000},{"cover":"OVC","base":17000}],"fltCat":"VFR"},{"icaoId":"KELP","receiptTime":"2026-04-13T01:54:08.391Z","obsTime":1776045060,"reportTime":"2026-04-13T02:00:00.000Z","temp":24.4,"dewp":0,"wdir":260,"wspd":28,"wgst":39,"visib":"10+","altim":1016,"slp":1010.3,"qcField":4,"metarType":"METAR","rawOb":"METAR KELP 130151Z 26028G39KT 10SM FEW120 BKN250 24/00 A3000 RMK AO2 PK WND 25039/0151 SLP103 BLDU ALQDS MTNS OBSCD SW T02440000","lat":31.8123,"lon":-106.3774,"elev":1205,"name":"El Paso Intl, TX, US","cover":"BKN","clouds":[{"cover":"FEW","base":12000},{"cover":"BKN","base":25000}],"fltCat":"VFR"},{"icaoId":"KCMH","receiptTime":"2026-04-13T01:54:08.271Z","obsTime":1776045060,"reportTime":"2026-04-13T02:00:00.000Z","temp":22.8,"dewp":7.2,"wdir":190,"wspd":8,"visib":"10+","altim":1017.4,"slp":1016.9,"qcField":4,"metarType":"METAR","rawOb":"METAR KCMH 130151Z 19008KT 10SM BKN150 OVC200 23/07 A3004 RMK AO2 SLP169 T02280072","lat":39.9907,"lon":-82.877,"elev":257,"name":"Columbus/Glenn Intl, OH, US","cover":"OVC","clouds":[{"cover":"BKN","base":15000},{"cover":"OVC","base":20000}],"fltCat":"VFR"},{"icaoId":"KEWR","receiptTime":"2026-04-13T01:54:08.446Z","obsTime":1776045060,"reportTime":"2026-04-13T02:00:00.000Z","temp":9.4,"dewp":3.3,"wdir":160,"wspd":5,"visib":"10+","altim":1027.9,"slp":1027.7,"qcField":4,"metarType":"METAR","rawOb":"METAR KEWR 130151Z 16005KT 10SM SCT120 BKN160 BKN250 09/03 A3035 RMK AO2 SLP277 T00940033","lat":40.6828,"lon":-74.1692,"elev":2,"name":"Newark Intl, NJ, US","cover":"BKN","clouds":[{"cover":"SCT","base":12000},{"cover":"BKN","base":16000},{"cover":"BKN","base":25000}],"fltCat":"VFR"},{"icaoId":"KJFK","receiptTime":"2026-04-13T01:54:08.591Z","obsTime":1776045060,"reportTime":"2026-04-13T02:00:00.000Z","temp":7.8,"dewp":5.6,"wdir":170,"wspd":11,"visib":"10+","altim":1028.5,"slp":1028.5,"qcField":12,"metarType":"METAR","rawOb":"METAR KJFK 130151Z 17011KT 10SM FEW120 SCT170 SCT250 08/06 A3037 RMK AO2 SLP285 T00780056 $","lat":40.6392,"lon":-73.7639,"elev":3,"name":"New York/JF Kennedy Intl, NY, US","cover":"SCT","clouds":[{"cover":"FEW","base":12000},{"cover":"SCT","base":17000},{"cover":"SCT","base":25000}],"fltCat":"VFR"},{"icaoId":"KSAT","receiptTime":"2026-04-13T01:54:07.876Z","obsTime":1776045060,"reportTime":"2026-04-13T02:00:00.000Z","temp":23.3,"dewp":21.1,"wdir":130,"wspd":14,"wgst":21,"visib":"10+","altim":1016.7,"slp":1014.8,"qcField":12,"metarType":"METAR","rawOb":"METAR KSAT 130151Z 13014G21KT 10SM OVC011 23/21 A3002 RMK AO2 SLP148 T02330211 $","lat":29.5443,"lon":-98.4839,"elev":246,"name":"San Antonio Intl, TX, US","cover":"OVC","clouds":[{"cover":"OVC","base":1100}],"fltCat":"MVFR"},{"icaoId":"KSAN","receiptTime":"2026-04-13T01:54:07.857Z","obsTime":1776045060,"reportTime":"2026-04-13T02:00:00.000Z","temp":16.1,"dewp":14.4,"wdir":320,"wspd":4,"visib":"10+","altim":1016.7,"slp":1016.7,"qcField":12,"precip":0.08,"metarType":"METAR","rawOb":"METAR KSAN 130151Z 32004KT 10SM SCT022 BKN041 BKN250 16/14 A3002 RMK AO2 RAB0055E43 SLP167 P0008 T01610144 $","lat":32.7364,"lon":-117.1973,"elev":3,"name":"San Diego Intl Arpt, CA, US","cover":"BKN","clouds":[{"cover":"SCT","base":2200},{"cover":"BKN","base":4100},{"cover":"BKN","base":25000}],"fltCat":"VFR"},{"icaoId":"KLGA","receiptTime":"2026-04-13T01:54:08.608Z","obsTime":1776045060,"reportTime":"2026-04-13T02:00:00.000Z","temp":8.9,"dewp":5,"wdir":180,"wspd":8,"visib":"10+","altim":1027.9,"slp":1027.7,"qcField":12,"metarType":"METAR","rawOb":"METAR KLGA 130151Z 18008KT 10SM FEW100 SCT160 BKN250 09/05 A3035 RMK AO2 SLP277 T00890050 $","lat":40.7794,"lon":-73.8803,"elev":9,"name":"New York/La Guardia Arpt, NY, US","cover":"BKN","clouds":[{"cover":"FEW","base":10000},{"cover":"SCT","base":16000},{"cover":"BKN","base":25000}],"fltCat":"VFR"},{"icaoId":"KIWA","receiptTime":"2026-04-13T01:50:01.880Z","obsTime":1776044940,"reportTime":"2026-04-13T02:00:00.000Z","temp":25,"dewp":6,"wdir":230,"wspd":9,"visib":"10+","altim":1013.3,"qcField":0,"metarType":"METAR","rawOb":"METAR KIWA 130149Z 23009KT 10SM CLR 25/06 A2992","lat":33.3008,"lon":-111.6437,"elev":420,"name":"Phoenix/Mesa Gateway Arpt, AZ, US","cover":"CLR","clouds":[],"fltCat":"VFR"},{"icaoId":"KAEG","receiptTime":"2026-04-13T01:50:01.138Z","obsTime":1776044820,"reportTime":"2026-04-13T02:00:00.000Z","temp":20,"dewp":-10,"wdir":230,"wspd":14,"visib":"10+","altim":1016,"qcField":0,"metarType":"METAR","rawOb":"METAR KAEG 130147Z 23014KT 10SM SCT080 20/M10 A3000","lat":35.15,"lon":-106.7929,"elev":1771,"name":"Albuquerque/Double Eagle Arpt, NM, US","cover":"SCT","clouds":[{"cover":"SCT","base":8000}],"fltCat":"VFR"},{"icaoId":"KGYR","receiptTime":"2026-04-13T01:50:01.781Z","obsTime":1776044820,"reportTime":"2026-04-13T02:00:00.000Z","temp":24,"dewp":4,"wdir":250,"wspd":11,"visib":"10+","altim":1012.6,"qcField":0,"metarType":"METAR","rawOb":"METAR KGYR 130147Z 25011KT 10SM FEW090 BKN180 OVC250 24/04 A2990","lat":33.428,"lon":-112.368,"elev":292,"name":"Phoenix/Goodyear Muni, AZ, US","cover":"OVC","clouds":[{"cover":"FEW","base":9000},{"cover":"BKN","base":18000},{"cover":"OVC","base":25000}],"fltCat":"VFR"},{"icaoId":"KSUN","receiptTime":"2026-04-13T02:00:53.673Z","obsTime":1776044820,"reportTime":"2026-04-13T02:00:00.000Z","temp":6,"dewp":-4,"wdir":210,"wspd":10,"visib":"10+","altim":1009.6,"qcField":0,"metarType":"METAR","rawOb":"METAR KSUN 130147Z 21010KT 10SM CLR 06/M04 A2981","lat":43.4969,"lon":-114.2923,"elev":1619,"name":"Hailey/Friedman Mem, ID, US","cover":"CLR","clouds":[],"fltCat":"VFR"},{"icaoId":"KCHD","receiptTime":"2026-04-13T01:50:40.521Z","obsTime":1776044820,"reportTime":"2026-04-13T02:00:00.000Z","temp":25,"dewp":6,"wdir":240,"wspd":10,"visib":"10+","altim":1012.6,"qcField":0,"metarType":"METAR","rawOb":"METAR KCHD 130147Z 24010KT 10SM BKN200 25/06 A2990","lat":33.2669,"lon":-111.8086,"elev":378,"name":"Chandler Muni, AZ, US","cover":"BKN","clouds":[{"cover":"BKN","base":20000}],"fltCat":"VFR"},{"icaoId":"KGEU","receiptTime":"2026-04-13T01:48:07.588Z","obsTime":1776044820,"reportTime":"2026-04-13T02:00:00.000Z","temp":25,"dewp":2,"wdir":210,"wspd":9,"visib":"10+","altim":1011.6,"qcField":0,"metarType":"METAR","rawOb":"METAR KGEU 130147Z 21009KT 10SM 25/02 A2987 RMK LAST","lat":33.528,"lon":-112.293,"elev":319,"name":"Glendale Muni, AZ, US"},{"icaoId":"KRYN","receiptTime":"2026-04-13T01:45:51.750Z","obsTime":1776044700,"reportTime":"2026-04-13T02:00:00.000Z","temp":23,"dewp":0,"wdir":190,"wspd":12,"wgst":17,"visib":"10+","altim":1015,"qcField":0,"metarType":"METAR","rawOb":"METAR KRYN 130145Z 19012G17KT 10SM CLR 23/00 A2997","lat":32.1418,"lon":-111.1767,"elev":731,"name":"Tucson/Ryan Fld, AZ, US","cover":"CLR","clouds":[],"fltCat":"VFR"},{"icaoId":"KMEV","receiptTime":"2026-04-13T02:00:38.820Z","obsTime":1776042900,"reportTime":"2026-04-13T01:15:00.000Z","temp":3,"dewp":-1,"wdir":320,"wspd":3,"visib":9,"altim":1012.6,"qcField":6,"wxString":"-RA","metarType":"METAR","rawOb":"METAR KMEV 130115Z AUTO 32003KT 9SM -RA FEW016 BKN026 BKN035 03/M01 A2990 RMK AO2","lat":38.9963,"lon":-119.75,"elev":1437,"name":"Minden-Tahoe Arpt, NV, US","cover":"BKN","clouds":[{"cover":"FEW","base":1600},{"cover":"BKN","base":2600},{"cover":"BKN","base":3500}],"fltCat":"MVFR"}]