[{"icaoId":"KGEU","receiptTime":"2026-04-09T14:56:48.743Z","obsTime":1775746500,"reportTime":"2026-04-09T15:00:00.000Z","temp":23,"dewp":0,"wdir":0,"wspd":0,"visib":"10+","altim":1011.6,"qcField":0,"metarType":"METAR","rawOb":"METAR KGEU 091455Z 00000KT 10SM CLR 23/00 A2987","lat":33.528,"lon":-112.293,"elev":319,"name":"Glendale Muni, AZ, US","cover":"CLR","clouds":[],"fltCat":"VFR"},{"icaoId":"KSOW","receiptTime":"2026-04-09T14:57:07.718Z","obsTime":1775746500,"reportTime":"2026-04-09T15:00:00.000Z","temp":17,"dewp":-2,"wdir":0,"wspd":0,"visib":9,"altim":1021.8,"qcField":6,"metarType":"METAR","rawOb":"METAR KSOW 091455Z AUTO 00000KT 9SM CLR 17/M02 A3017 RMK AO2","lat":34.2686,"lon":-110.0019,"elev":1954,"name":"Show Low Muni, AZ, US","cover":"CLR","clouds":[],"fltCat":"VFR"},{"icaoId":"KFFZ","receiptTime":"2026-04-09T14:57:15.442Z","obsTime":1775746440,"reportTime":"2026-04-09T15:00:00.000Z","temp":23.3,"dewp":-1.7,"wdir":30,"wspd":6,"visib":"10+","altim":1012.6,"slp":1010.2,"qcField":4,"presTend":1.8,"metarType":"METAR","rawOb":"METAR KFFZ 091454Z 03006KT 10SM CLR 23/M02 A2990 RMK AO2 SLP102 T02331017 53018","lat":33.4659,"lon":-111.7212,"elev":420,"name":"Mesa/Falcon Fld, AZ, US","cover":"CLR","clouds":[],"fltCat":"VFR"},{"icaoId":"KGCN","receiptTime":"2026-04-09T14:56:33.077Z","obsTime":1775746440,"reportTime":"2026-04-09T15:00:00.000Z","temp":10,"dewp":-1.1,"wdir":0,"wspd":0,"visib":"10+","altim":1020.7,"slp":1014,"qcField":4,"presTend":0.9,"metarType":"METAR","rawOb":"METAR KGCN 091454Z 00000KT 10SM CLR 10/M01 A3014 RMK AO2 SLP140 T01001011 53009","lat":35.9458,"lon":-112.1554,"elev":1993,"name":"Grand Canyon Park Arpt, AZ, US","cover":"CLR","clouds":[],"fltCat":"VFR"},{"icaoId":"KSJN","receiptTime":"2026-04-09T14:57:14.730Z","obsTime":1775746440,"reportTime":"2026-04-09T15:00:00.000Z","temp":13.3,"dewp":-1.1,"wdir":110,"wspd":3,"visib":"10+","altim":1020.4,"slp":1013.7,"qcField":6,"presTend":1.2,"metarType":"METAR","rawOb":"METAR KSJN 091454Z AUTO 11003KT 10SM CLR 13/M01 A3013 RMK AO2 SLP137 T01331011 51012","lat":34.5184,"lon":-109.3801,"elev":1747,"name":"St Johns Ind Arpt, AZ, US","cover":"CLR","clouds":[],"fltCat":"VFR"},{"icaoId":"KOLS","receiptTime":"2026-04-09T14:57:15.401Z","obsTime":1775746440,"reportTime":"2026-04-09T15:00:00.000Z","temp":16.1,"dewp":-1.1,"wdir":0,"wspd":0,"visib":"10+","altim":1018,"slp":1012.5,"qcField":6,"presTend":1.4,"metarType":"METAR","rawOb":"METAR KOLS 091454Z AUTO 00000KT 10SM CLR 16/M01 A3006 RMK AO2 SLP125 T01611011 53014","lat":31.4208,"lon":-110.8465,"elev":1194,"name":"Nogales Intl, AZ, US","cover":"CLR","clouds":[],"fltCat":"VFR"},{"icaoId":"KPRC","receiptTime":"2026-04-09T14:56:25.964Z","obsTime":1775746380,"reportTime":"2026-04-09T15:00:00.000Z","temp":15,"dewp":-0.6,"wdir":160,"wspd":4,"visib":"10+","altim":1018.4,"slp":1011.9,"qcField":4,"presTend":1.2,"metarType":"METAR","rawOb":"METAR KPRC 091453Z 16004KT 10SM CLR 15/M01 A3007 RMK AO2 SLP119 T01501006 53012","lat":34.6491,"lon":-112.4223,"elev":1528,"name":"Prescott/Love Fld, AZ, US","cover":"CLR","clouds":[],"fltCat":"VFR"},{"icaoId":"KPGA","receiptTime":"2026-04-09T14:56:25.853Z","obsTime":1775746380,"reportTime":"2026-04-09T15:00:00.000Z","temp":18.3,"dewp":-8.9,"wdir":0,"wspd":0,"visib":"10+","altim":1016.3,"slp":1010.7,"qcField":14,"presTend":1.5,"metarType":"METAR","rawOb":"METAR KPGA 091453Z AUTO 00000KT 10SM CLR 18/M09 A3001 RMK AO2 SLP107 T01831089 53015 $","lat":36.9211,"lon":-111.4487,"elev":1310,"name":"Page Muni, AZ, US","cover":"CLR","clouds":[],"fltCat":"VFR"},{"icaoId":"KSDL","receiptTime":"2026-04-09T14:56:26.133Z","obsTime":1775746380,"reportTime":"2026-04-09T15:00:00.000Z","temp":22.2,"dewp":0.6,"wdir":0,"wspd":0,"visib":"10+","altim":1013,"slp":1010.6,"qcField":4,"presTend":1.7,"metarType":"METAR","rawOb":"METAR KSDL 091453Z 00000KT 10SM CLR 22/01 A2991 RMK AO2 SLP106 T02220006 53017","lat":33.6123,"lon":-111.9232,"elev":438,"name":"Scottsdale Muni, AZ, US","cover":"CLR","clouds":[],"fltCat":"VFR"},{"icaoId":"KDVT","receiptTime":"2026-04-09T14:56:27.254Z","obsTime":1775746380,"reportTime":"2026-04-09T15:00:00.000Z","temp":23.3,"dewp":-0.6,"wdir":90,"wspd":5,"visib":"10+","altim":1012.6,"slp":1010.3,"qcField":6,"presTend":1.7,"metarType":"METAR","rawOb":"METAR KDVT 091453Z AUTO 09005KT 10SM CLR 23/M01 A2990 RMK AO2 SLP103 T02331006 53017","lat":33.6902,"lon":-112.0662,"elev":454,"name":"Phoenix/Deer Valley Arpt, AZ, US","cover":"CLR","clouds":[],"fltCat":"VFR"},{"icaoId":"KTUS","receiptTime":"2026-04-09T14:56:26.394Z","obsTime":1775746380,"reportTime":"2026-04-09T15:00:00.000Z","temp":20.6,"dewp":-3.3,"wdir":160,"wspd":5,"visib":"10+","altim":1016,"slp":1011.9,"qcField":4,"presTend":1.7,"metarType":"METAR","rawOb":"METAR KTUS 091453Z 16005KT 10SM CLR 21/M03 A3000 RMK AO2 SLP119 T02061033 53017","lat":32.1315,"lon":-110.9564,"elev":776,"name":"Tucson Intl Arpt, AZ, US","cover":"CLR","clouds":[],"fltCat":"VFR"},{"icaoId":"KIGM","receiptTime":"2026-04-09T14:54:08.534Z","obsTime":1775746260,"reportTime":"2026-04-09T15:00:00.000Z","temp":19.4,"dewp":-2.2,"wdir":0,"wspd":0,"visib":"10+","altim":1014.6,"slp":1008.2,"qcField":6,"presTend":1.4,"metarType":"METAR","rawOb":"METAR KIGM 091451Z AUTO 00000KT 10SM CLR 19/M02 A2996 RMK AO2 SLP082 T01941022 53014","lat":35.2575,"lon":-113.9341,"elev":1045,"name":"Kingman Arpt, AZ, US","cover":"CLR","clouds":[],"fltCat":"VFR"},{"icaoId":"KIWA","receiptTime":"2026-04-09T14:52:38.461Z","obsTime":1775746260,"reportTime":"2026-04-09T15:00:00.000Z","temp":24,"dewp":-1,"wdir":120,"wspd":7,"visib":"10+","altim":1013.3,"qcField":0,"metarType":"METAR","rawOb":"METAR KIWA 091451Z 12007KT 10SM CLR 24/M01 A2992","lat":33.3008,"lon":-111.6437,"elev":420,"name":"Phoenix/Mesa Gateway Arpt, AZ, US","cover":"CLR","clouds":[],"fltCat":"VFR"},{"icaoId":"KPHX","receiptTime":"2026-04-09T14:54:06.563Z","obsTime":1775746260,"reportTime":"2026-04-09T15:00:00.000Z","temp":23.3,"dewp":0,"wdir":100,"wspd":7,"visib":"10+","altim":1011.9,"slp":1009.9,"qcField":4,"presTend":1.8,"metarType":"METAR","rawOb":"METAR KPHX 091451Z 10007KT 10SM SCT270 23/00 A2988 RMK AO2 SLP099 T02330000 53018","lat":33.4278,"lon":-112.0037,"elev":338,"name":"Phoenix/Sky Harbor Intl, AZ, US","cover":"SCT","clouds":[{"cover":"SCT","base":27000}],"fltCat":"VFR"},{"icaoId":"KSAD","receiptTime":"2026-04-09T14:54:06.665Z","obsTime":1775746260,"reportTime":"2026-04-09T15:00:00.000Z","temp":18.9,"dewp":-4.4,"wdir":170,"wspd":3,"visib":"10+","altim":1016,"slp":1011.7,"qcField":6,"presTend":2.1,"metarType":"METAR","rawOb":"METAR KSAD 091451Z AUTO 17003KT 10SM CLR 19/M04 A3000 RMK AO2 SLP117 T01891044 51021","lat":32.8565,"lon":-109.636,"elev":937,"name":"Safford Rgnl, AZ, US","cover":"CLR","clouds":[],"fltCat":"VFR"},{"icaoId":"KIFP","receiptTime":"2026-04-09T14:50:29.963Z","obsTime":1775746020,"reportTime":"2026-04-09T15:00:00.000Z","temp":22,"dewp":-3,"visib":"10+","altim":1009.9,"qcField":0,"metarType":"METAR","rawOb":"METAR KIFP 091447Z CALMKT 10SM CLR 22/M03 A2982","lat":35.1487,"lon":-114.5611,"elev":210,"name":"Bullhead City Intl, AZ, US","cover":"CLR","clouds":[],"fltCat":"VFR"},{"icaoId":"KGYR","receiptTime":"2026-04-09T14:47:52.000Z","obsTime":1775746020,"reportTime":"2026-04-09T15:00:00.000Z","temp":23,"dewp":2,"wdir":"VRB","wspd":5,"visib":"10+","altim":1012.3,"qcField":0,"metarType":"METAR","rawOb":"METAR KGYR 091447Z VRB05KT 10SM SCT250 23/02 A2989","lat":33.428,"lon":-112.368,"elev":292,"name":"Phoenix/Goodyear Muni, AZ, US","cover":"SCT","clouds":[{"cover":"SCT","base":25000}],"fltCat":"VFR"},{"icaoId":"KCHD","receiptTime":"2026-04-09T14:48:17.490Z","obsTime":1775746020,"reportTime":"2026-04-09T15:00:00.000Z","temp":21,"dewp":3,"wdir":50,"wspd":8,"visib":"10+","altim":1012.6,"qcField":0,"metarType":"METAR","rawOb":"METAR KCHD 091447Z 05008KT 10SM CLR 21/03 A2990","lat":33.2669,"lon":-111.8086,"elev":378,"name":"Chandler Muni, AZ, US","cover":"CLR","clouds":[],"fltCat":"VFR"},{"icaoId":"KRYN","receiptTime":"2026-04-09T14:45:47.406Z","obsTime":1775745900,"reportTime":"2026-04-09T15:00:00.000Z","temp":20,"dewp":-3,"wdir":90,"wspd":6,"visib":"10+","altim":1014.6,"qcField":0,"metarType":"METAR","rawOb":"METAR KRYN 091445Z 09006KT 10SM CLR 20/M03 A2996","lat":32.1418,"lon":-111.1767,"elev":731,"name":"Tucson/Ryan Fld, AZ, US","cover":"CLR","clouds":[],"fltCat":"VFR"},{"icaoId":"KHII","receiptTime":"2026-04-09T14:40:27.875Z","obsTime":1775745300,"reportTime":"2026-04-09T14:35:00.000Z","temp":23,"dewp":-2,"wdir":70,"wspd":3,"visib":"10+","altim":1010.2,"qcField":6,"metarType":"METAR","rawOb":"METAR KHII 091435Z AUTO 07003KT 10SM CLR 23/M02 A2983 RMK AO2","lat":34.5659,"lon":-114.3522,"elev":241,"name":"Lake Havasu City Arpt, AZ, US","cover":"CLR","clouds":[],"fltCat":"VFR"},{"icaoId":"KSEZ","receiptTime":"2026-04-09T14:38:23.735Z","obsTime":1775745300,"reportTime":"2026-04-09T14:35:00.000Z","temp":15,"dewp":-4,"wdir":"VRB","wspd":4,"visib":"10+","altim":1018,"qcField":6,"metarType":"METAR","rawOb":"METAR KSEZ 091435Z AUTO VRB04KT 10SM CLR 15/M04 A3006 RMK AO2","lat":34.8467,"lon":-111.7884,"elev":1455,"name":"Sedona Arpt, AZ, US","cover":"CLR","clouds":[],"fltCat":"VFR"},{"icaoId":"KFLG","receiptTime":"2026-04-09T14:00:28.081Z","obsTime":1775743020,"reportTime":"2026-04-09T14:00:00.000Z","temp":5,"dewp":-3.3,"wdir":0,"wspd":0,"visib":"10+","altim":1021.1,"slp":1014.2,"qcField":4,"metarType":"METAR","rawOb":"METAR KFLG 091357Z 00000KT 10SM CLR 05/M03 A3015 RMK AO2 SLP142 T00501033","lat":35.1443,"lon":-111.6664,"elev":2134,"name":"Flagstaff/Pulliam Arpt, AZ, US","cover":"CLR","clouds":[],"fltCat":"VFR"},{"icaoId":"KNYL","receiptTime":"2026-04-09T14:00:26.085Z","obsTime":1775743020,"reportTime":"2026-04-09T14:00:00.000Z","temp":22.2,"dewp":1.1,"wdir":310,"wspd":3,"visib":"10+","altim":1009.9,"slp":1009.6,"qcField":6,"metarType":"METAR","rawOb":"METAR KNYL 091357Z AUTO 31003KT 10SM CLR 22/01 A2982 RMK AO2 SLP096 T02220011","lat":32.66,"lon":-114.6078,"elev":58,"name":"Yuma , AZ, US","cover":"CLR","clouds":[],"fltCat":"VFR"},{"icaoId":"KCGZ","receiptTime":"2026-04-09T13:58:19.922Z","obsTime":1775742960,"reportTime":"2026-04-09T14:00:00.000Z","temp":17.8,"dewp":-2.8,"wdir":50,"wspd":4,"visib":"10+","altim":1012.6,"slp":1011.3,"qcField":14,"metarType":"METAR","rawOb":"METAR KCGZ 091356Z AUTO 05004KT 10SM CLR 18/M03 A2990 RMK AO2 SLP113 T01781028 $","lat":32.9531,"lon":-111.7725,"elev":444,"name":"Casa Granda Muni, AZ, US","cover":"CLR","clouds":[],"fltCat":"VFR"},{"icaoId":"KDUG","receiptTime":"2026-04-09T14:02:08.890Z","obsTime":1775742960,"reportTime":"2026-04-09T14:00:00.000Z","temp":15.6,"dewp":-1.1,"wdir":90,"wspd":5,"visib":"10+","altim":1018,"slp":1012.1,"qcField":38,"metarType":"METAR","rawOb":"METAR KDUG 091356Z AUTO 09005KT 10SM CLR 16/M01 A3006 RMK AO2 SLP121 T01561011 TSNO","lat":31.4725,"lon":-109.6022,"elev":1260,"name":"Douglas/Bisbee Intl, AZ, US","cover":"CLR","clouds":[],"fltCat":"VFR"},{"icaoId":"KINW","receiptTime":"2026-04-09T14:00:12.959Z","obsTime":1775742960,"reportTime":"2026-04-09T14:00:00.000Z","temp":8.9,"dewp":1.1,"wdir":140,"wspd":6,"visib":"10+","altim":1018.7,"slp":1014,"qcField":6,"metarType":"METAR","rawOb":"METAR KINW 091356Z AUTO 14006KT 10SM CLR 09/01 A3008 RMK AO2 SLP140 T00890011","lat":35.0279,"lon":-110.7221,"elev":1492,"name":"Winslow/Lindberg Rgnl, AZ, US","cover":"CLR","clouds":[],"fltCat":"VFR"}]