[{"icaoId":"KRTN","receiptTime":"2026-04-12T11:07:05.285Z","obsTime":1775991840,"reportTime":"2026-04-12T11:04:00.000Z","temp":1.1,"dewp":1.1,"wdir":60,"wspd":6,"visib":0.75,"altim":1015.7,"qcField":6,"wxString":"BR","vertVis":1,"metarType":"SPECI","rawOb":"SPECI KRTN 121104Z AUTO 06006KT 3/4SM BR VV001 01/01 A2999 RMK AO2 T00110011","lat":36.7418,"lon":-104.5076,"elev":1939,"name":"Raton/Crews Fld, NM, US","cover":"OVX","clouds":[{"cover":"OVX","base":100}],"fltCat":"LIFR"},{"icaoId":"KBUR","receiptTime":"2026-04-12T11:07:05.245Z","obsTime":1775991840,"reportTime":"2026-04-12T11:04:00.000Z","temp":14.4,"dewp":12.2,"wdir":130,"wspd":8,"visib":8,"altim":1013.3,"qcField":4,"wxString":"-RA","precip":0.005,"metarType":"SPECI","rawOb":"SPECI KBUR 121104Z 13008KT 8SM -RA SCT019 BKN028 OVC035 14/12 A2992 RMK AO2 P0000 T01440122","lat":34.1996,"lon":-118.3654,"elev":221,"name":"Burbank/Bob Hope Arpt, CA, US","cover":"OVC","clouds":[{"cover":"SCT","base":1900},{"cover":"BKN","base":2800},{"cover":"OVC","base":3500}],"fltCat":"MVFR"},{"icaoId":"KRDD","receiptTime":"2026-04-12T11:04:06.190Z","obsTime":1775991600,"reportTime":"2026-04-12T11:00:00.000Z","temp":7.8,"dewp":7.2,"wdir":0,"wspd":0,"visib":7,"altim":1005.5,"qcField":14,"wxString":"-RA","precip":0.01,"metarType":"SPECI","rawOb":"SPECI KRDD 121100Z AUTO 00000KT 7SM -RA FEW006 SCT017 OVC037 08/07 A2969 RMK AO2 P0001 T00780072 $","lat":40.5146,"lon":-122.2977,"elev":152,"name":"Redding Muni, CA, US","cover":"OVC","clouds":[{"cover":"FEW","base":600},{"cover":"SCT","base":1700},{"cover":"OVC","base":3700}],"fltCat":"VFR"},{"icaoId":"KFLG","receiptTime":"2026-04-12T11:00:26.578Z","obsTime":1775991420,"reportTime":"2026-04-12T11:00:00.000Z","temp":2.8,"dewp":-7.8,"wdir":0,"wspd":0,"visib":"10+","altim":1017.4,"slp":1010.9,"qcField":14,"metarType":"METAR","rawOb":"METAR KFLG 121057Z AUTO 00000KT 10SM CLR 03/M08 A3004 RMK AO2 SLP109 T00281078 $","lat":35.1443,"lon":-111.6664,"elev":2134,"name":"Flagstaff/Pulliam Arpt, AZ, US","cover":"CLR","clouds":[],"fltCat":"VFR"},{"icaoId":"KNFL","receiptTime":"2026-04-12T11:00:26.726Z","obsTime":1775991420,"reportTime":"2026-04-12T11:00:00.000Z","temp":3.3,"dewp":1.7,"wdir":150,"wspd":12,"visib":"10+","altim":1007.2,"slp":1005.1,"qcField":14,"metarType":"METAR","rawOb":"METAR KNFL 121057Z AUTO 15012KT 10SM OVC035 03/02 A2974 RMK AO2 PK WND 26028/0958 WSHFT 1035 RAE13B39E49 SLP051 T00330017 PNO $","lat":39.417,"lon":-118.705,"elev":1199,"name":"Fallon , NV, US","cover":"OVC","clouds":[{"cover":"OVC","base":3500}],"fltCat":"VFR"},{"icaoId":"KNYL","receiptTime":"2026-04-12T11:00:26.658Z","obsTime":1775991420,"reportTime":"2026-04-12T11:00:00.000Z","temp":18.9,"dewp":4.4,"wdir":330,"wspd":6,"visib":"10+","altim":1010.9,"slp":1010.5,"qcField":6,"metarType":"METAR","rawOb":"METAR KNYL 121057Z AUTO 33006KT 10SM CLR 19/04 A2985 RMK AO2 SLP105 T01890044","lat":32.66,"lon":-114.6078,"elev":58,"name":"Yuma , AZ, US","cover":"CLR","clouds":[],"fltCat":"VFR"},{"icaoId":"KVIS","receiptTime":"2026-04-12T10:58:35.050Z","obsTime":1775991360,"reportTime":"2026-04-12T11:00:00.000Z","temp":12.2,"dewp":11.1,"wdir":110,"wspd":4,"visib":"10+","altim":1012.3,"slp":1012,"qcField":14,"metarType":"METAR","rawOb":"METAR KVIS 121056Z AUTO 11004KT 10SM OVC065 12/11 A2989 RMK AO2 RAE29 SLP120 T01220111 PNO $","lat":36.3135,"lon":-119.3884,"elev":92,"name":"Visalia Muni, CA, US","cover":"OVC","clouds":[{"cover":"OVC","base":6500}],"fltCat":"VFR"},{"icaoId":"KHND","receiptTime":"2026-04-12T10:58:30.754Z","obsTime":1775991360,"reportTime":"2026-04-12T11:00:00.000Z","temp":15.6,"dewp":1.1,"wdir":200,"wspd":14,"visib":"10+","altim":1009.2,"slp":1009,"qcField":14,"metarType":"METAR","rawOb":"METAR KHND 121056Z AUTO 20014KT 10SM CLR 16/01 A2980 RMK AO2 SLP090 T01560011 $","lat":35.9657,"lon":-115.1343,"elev":740,"name":"Henderson Exec, NV, US","cover":"CLR","clouds":[],"fltCat":"VFR"},{"icaoId":"KCGZ","receiptTime":"2026-04-12T10:58:33.311Z","obsTime":1775991360,"reportTime":"2026-04-12T11:00:00.000Z","temp":16.1,"dewp":-1.1,"wdir":70,"wspd":4,"visib":"10+","altim":1012.6,"slp":1011.4,"qcField":14,"metarType":"METAR","rawOb":"METAR KCGZ 121056Z AUTO 07004KT 10SM CLR 16/M01 A2990 RMK AO2 SLP114 T01611011 $","lat":32.9531,"lon":-111.7725,"elev":444,"name":"Casa Granda Muni, AZ, US","cover":"CLR","clouds":[],"fltCat":"VFR"},{"icaoId":"KEGE","receiptTime":"2026-04-12T10:58:31.433Z","obsTime":1775991360,"reportTime":"2026-04-12T11:00:00.000Z","temp":-0.6,"dewp":-2.2,"wdir":0,"wspd":0,"visib":"10+","altim":1015.7,"slp":1012.7,"qcField":70,"metarType":"METAR","rawOb":"METAR KEGE 121056Z AUTO 00000KT 10SM CLR M01/M02 A2999 RMK AO2 SLP127 T10061022 FZRANO","lat":39.6448,"lon":-106.9176,"elev":1993,"name":"Eagle Cnty Rgnl, CO, US","cover":"CLR","clouds":[],"fltCat":"VFR"},{"icaoId":"KSGU","receiptTime":"2026-04-12T10:58:24.610Z","obsTime":1775991360,"reportTime":"2026-04-12T11:00:00.000Z","temp":15,"dewp":-3.3,"wdir":150,"wspd":11,"visib":"10+","altim":1008.9,"slp":1006.3,"qcField":6,"metarType":"METAR","rawOb":"METAR KSGU 121056Z AUTO 15011KT 10SM CLR 15/M03 A2979 RMK AO2 SLP063 T01501033","lat":37.0444,"lon":-113.5034,"elev":877,"name":"Saint George Muni, UT, US","cover":"CLR","clouds":[],"fltCat":"VFR"},{"icaoId":"KHDN","receiptTime":"2026-04-12T10:58:30.665Z","obsTime":1775991360,"reportTime":"2026-04-12T11:00:00.000Z","temp":-0.6,"dewp":-1.1,"wdir":100,"wspd":8,"visib":"10+","altim":1013.6,"slp":1011.1,"qcField":70,"metarType":"METAR","rawOb":"METAR KHDN 121056Z AUTO 10008KT 10SM CLR M01/M01 A2993 RMK AO2 SLP111 T10061011 FZRANO","lat":40.4842,"lon":-107.2296,"elev":2012,"name":"Hayden/Yampa Valley Arpt, CO, US","cover":"CLR","clouds":[],"fltCat":"VFR"},{"icaoId":"KENV","receiptTime":"2026-04-12T10:58:31.568Z","obsTime":1775991360,"reportTime":"2026-04-12T11:00:00.000Z","temp":8.9,"dewp":0.6,"wdir":"VRB","wspd":3,"visib":"10+","altim":1005.8,"slp":1003.9,"qcField":6,"metarType":"METAR","rawOb":"METAR KENV 121056Z AUTO VRB03KT 10SM CLR 09/01 A2970 RMK AO2 SLP039 T00890006","lat":40.7211,"lon":-114.0312,"elev":1291,"name":"Wendover Arpt, UT, US","cover":"CLR","clouds":[],"fltCat":"VFR"},{"icaoId":"KSBP","receiptTime":"2026-04-12T11:00:12.551Z","obsTime":1775991360,"reportTime":"2026-04-12T11:00:00.000Z","temp":12.2,"dewp":11.7,"wdir":0,"wspd":0,"visib":"10+","altim":1012.6,"slp":1012.3,"qcField":6,"metarType":"METAR","rawOb":"METAR KSBP 121056Z AUTO 00000KT 10SM SCT048 12/12 A2990 RMK AO2 SLP123 T01220117","lat":35.2381,"lon":-120.644,"elev":52,"name":"San Luis Obispo/San Luis Cnty, CA, US","cover":"SCT","clouds":[{"cover":"SCT","base":4800}],"fltCat":"VFR"},{"icaoId":"KGUC","receiptTime":"2026-04-12T10:58:32.715Z","obsTime":1775991360,"reportTime":"2026-04-12T11:00:00.000Z","temp":-2.8,"dewp":-5,"wdir":70,"wspd":3,"visib":"10+","altim":1017.4,"slp":1014.4,"qcField":78,"metarType":"METAR","rawOb":"METAR KGUC 121056Z AUTO 07003KT 10SM CLR M03/M05 A3004 RMK AO2 SLP144 T10281050 FZRANO $","lat":38.5322,"lon":-106.9419,"elev":2337,"name":"Gunnison Arpt, CO, US","cover":"CLR","clouds":[],"fltCat":"VFR"},{"icaoId":"KSFO","receiptTime":"2026-04-12T11:00:16.236Z","obsTime":1775991360,"reportTime":"2026-04-12T11:00:00.000Z","temp":12.2,"dewp":8.3,"wdir":0,"wspd":0,"visib":"10+","altim":1008.9,"slp":1008.8,"qcField":12,"precip":0.005,"metarType":"METAR","rawOb":"METAR KSFO 121056Z 00000KT 10SM FEW024 BKN037 12/08 A2979 RMK AO2 RAE0958 SLP088 P0000 T01220083 $","lat":37.6196,"lon":-122.3656,"elev":2,"name":"San Francisco Intl, CA, US","cover":"BKN","clouds":[{"cover":"FEW","base":2400},{"cover":"BKN","base":3700}],"fltCat":"VFR"},{"icaoId":"KJAX","receiptTime":"2026-04-12T11:00:16.076Z","obsTime":1775991360,"reportTime":"2026-04-12T11:00:00.000Z","temp":11.1,"dewp":10,"wdir":0,"wspd":0,"visib":8,"altim":1025.8,"slp":1025.6,"qcField":12,"metarType":"METAR","rawOb":"METAR KJAX 121056Z 00000KT 8SM FEW001 FEW250 11/10 A3029 RMK AO2 SLP256 T01110100 $","lat":30.4953,"lon":-81.6937,"elev":8,"name":"Jacksonville Intl, FL, US","cover":"FEW","clouds":[{"cover":"FEW","base":100},{"cover":"FEW","base":25000}],"fltCat":"VFR"},{"icaoId":"KSDF","receiptTime":"2026-04-12T11:00:12.594Z","obsTime":1775991360,"reportTime":"2026-04-12T11:00:00.000Z","temp":13.9,"dewp":11.1,"wdir":130,"wspd":4,"visib":"10+","altim":1022.8,"slp":1022.4,"qcField":4,"metarType":"METAR","rawOb":"METAR KSDF 121056Z 13004KT 10SM BKN300 14/11 A3020 RMK AO2 SLP224 T01390111","lat":38.1774,"lon":-85.7308,"elev":146,"name":"Louisville Intl, KY, US","cover":"BKN","clouds":[{"cover":"BKN","base":30000}],"fltCat":"VFR"},{"icaoId":"KCEC","receiptTime":"2026-04-12T11:00:06.535Z","obsTime":1775991360,"reportTime":"2026-04-12T11:00:00.000Z","temp":7.8,"dewp":6.7,"wdir":40,"wspd":6,"visib":"10+","altim":1004.5,"slp":1004.5,"qcField":6,"metarType":"METAR","rawOb":"METAR KCEC 121056Z AUTO 04006KT 10SM BKN080 OVC095 08/07 A2966 RMK AO2 SLP045 T00780067","lat":41.7836,"lon":-124.238,"elev":17,"name":"Crescent City/McNama, CA, US","cover":"OVC","clouds":[{"cover":"BKN","base":8000},{"cover":"OVC","base":9500}],"fltCat":"VFR"},{"icaoId":"KUKI","receiptTime":"2026-04-12T11:00:08.808Z","obsTime":1775991360,"reportTime":"2026-04-12T11:00:00.000Z","temp":8.3,"dewp":7.2,"wdir":170,"wspd":6,"visib":"10+","altim":1005.5,"slp":1005.1,"qcField":6,"wxString":"-RA","precip":0.01,"metarType":"METAR","rawOb":"METAR KUKI 121056Z AUTO 17006KT 10SM -RA BKN020 OVC025 08/07 A2969 RMK AO2 RAB06 SLP051 P0001 T00830072","lat":39.1278,"lon":-123.2001,"elev":183,"name":"Ukiah Muni, CA, US","cover":"OVC","clouds":[{"cover":"BKN","base":2000},{"cover":"OVC","base":2500}],"fltCat":"MVFR"},{"icaoId":"KINW","receiptTime":"2026-04-12T11:00:16.061Z","obsTime":1775991360,"reportTime":"2026-04-12T11:00:00.000Z","temp":9.4,"dewp":-4.4,"wdir":190,"wspd":12,"visib":"10+","altim":1015.3,"slp":1010.4,"qcField":6,"metarType":"METAR","rawOb":"METAR KINW 121056Z AUTO 19012KT 10SM CLR 09/M04 A2998 RMK AO2 SLP104 T00941044","lat":35.0279,"lon":-110.7221,"elev":1492,"name":"Winslow/Lindberg Rgnl, AZ, US","cover":"CLR","clouds":[],"fltCat":"VFR"},{"icaoId":"KLAS","receiptTime":"2026-04-12T11:00:13.312Z","obsTime":1775991360,"reportTime":"2026-04-12T11:00:00.000Z","temp":16.7,"dewp":0,"wdir":200,"wspd":5,"visib":"10+","altim":1008.5,"slp":1006.8,"qcField":4,"metarType":"METAR","rawOb":"METAR KLAS 121056Z 20005KT 10SM CLR 17/00 A2978 RMK AO2 PK WND 22026/1024 SLP068 T01670000","lat":36.0719,"lon":-115.1634,"elev":662,"name":"Las Vegas/Reid Intl, NV, US","cover":"CLR","clouds":[],"fltCat":"VFR"},{"icaoId":"KTPH","receiptTime":"2026-04-12T11:00:08.645Z","obsTime":1775991360,"reportTime":"2026-04-12T11:00:00.000Z","temp":6.7,"dewp":-0.6,"wdir":180,"wspd":18,"wgst":32,"visib":"10+","altim":1005.8,"slp":1001.6,"qcField":6,"metarType":"METAR","rawOb":"METAR KTPH 121056Z AUTO 18018G32KT 10SM CLR 07/M01 A2970 RMK AO2 PK WND 18032/1049 SLP016 T00671006","lat":38.0505,"lon":-117.0906,"elev":1647,"name":"Tonopah Arpt, NV, US","cover":"CLR","clouds":[],"fltCat":"VFR"},{"icaoId":"KPVU","receiptTime":"2026-04-12T10:58:25.271Z","obsTime":1775991360,"reportTime":"2026-04-12T11:00:00.000Z","temp":7.2,"dewp":0,"wdir":100,"wspd":7,"visib":"10+","altim":1008.5,"slp":1005.6,"qcField":6,"metarType":"METAR","rawOb":"METAR KPVU 121056Z AUTO 10007KT 10SM CLR 07/00 A2978 RMK AO2 SLP056 T00720000","lat":40.224,"lon":-111.7252,"elev":1370,"name":"Provo Muni, UT, US","cover":"CLR","clouds":[],"fltCat":"VFR"},{"icaoId":"KFNL","receiptTime":"2026-04-12T10:58:36.691Z","obsTime":1775991360,"reportTime":"2026-04-12T11:00:00.000Z","temp":8.9,"dewp":-2.8,"wdir":"VRB","wspd":5,"visib":"10+","altim":1009.6,"slp":1004.5,"qcField":14,"metarType":"METAR","rawOb":"METAR KFNL 121056Z AUTO VRB05KT 10SM CLR 09/M03 A2981 RMK AO2 SLP045 T00891028 $","lat":40.4427,"lon":-105.0097,"elev":1529,"name":"Fort Collins/N Colorado Rgnl, CO, US","cover":"CLR","clouds":[],"fltCat":"VFR"},{"icaoId":"KDUG","receiptTime":"2026-04-12T11:02:19.893Z","obsTime":1775991360,"reportTime":"2026-04-12T11:00:00.000Z","temp":11.7,"dewp":-0.6,"wdir":80,"wspd":4,"visib":"10+","altim":1017.7,"slp":1012.2,"qcField":38,"metarType":"METAR","rawOb":"METAR KDUG 121056Z AUTO 08004KT 10SM CLR 12/M01 A3005 RMK AO2 SLP122 T01171006 TSNO","lat":31.4725,"lon":-109.6022,"elev":1260,"name":"Douglas/Bisbee Intl, AZ, US","cover":"CLR","clouds":[],"fltCat":"VFR"},{"icaoId":"KEKO","receiptTime":"2026-04-12T11:00:09.604Z","obsTime":1775991360,"reportTime":"2026-04-12T11:00:00.000Z","temp":3.9,"dewp":0,"wdir":160,"wspd":3,"visib":"10+","altim":1003.5,"slp":1001.7,"qcField":6,"metarType":"METAR","rawOb":"METAR KEKO 121056Z AUTO 16003KT 10SM FEW120 04/00 A2963 RMK AO2 SLP017 T00390000","lat":40.824,"lon":-115.7863,"elev":1541,"name":"Elko Rgnl, NV, US","cover":"FEW","clouds":[{"cover":"FEW","base":12000}],"fltCat":"VFR"},{"icaoId":"KCHS","receiptTime":"2026-04-12T11:00:15.887Z","obsTime":1775991360,"reportTime":"2026-04-12T11:00:00.000Z","temp":12.2,"dewp":11.1,"wdir":0,"wspd":0,"visib":"10+","altim":1027.2,"slp":1027.1,"qcField":4,"metarType":"METAR","rawOb":"METAR KCHS 121056Z 00000KT 10SM CLR 12/11 A3033 RMK AO2 SLP271 T01220111","lat":32.8995,"lon":-80.0407,"elev":12,"name":"Charleston Intl, SC, US","cover":"CLR","clouds":[],"fltCat":"VFR"},{"icaoId":"KLRU","receiptTime":"2026-04-12T10:58:30.428Z","obsTime":1775991300,"reportTime":"2026-04-12T11:00:00.000Z","temp":10.5,"dewp":6.2,"wdir":0,"wspd":0,"visib":"10+","altim":1018,"qcField":6,"metarType":"METAR","rawOb":"METAR KLRU 121055Z AUTO 00000KT 10SM BKN110 11/06 A3006 RMK AO2 T01050062","lat":32.2884,"lon":-106.9131,"elev":1355,"name":"Las Cruces Intl, NM, US","cover":"BKN","clouds":[{"cover":"BKN","base":11000}],"fltCat":"VFR"},{"icaoId":"KIWA","receiptTime":"2026-04-12T10:58:22.456Z","obsTime":1775991300,"reportTime":"2026-04-12T11:00:00.000Z","temp":17.4,"dewp":0.9,"wdir":140,"wspd":9,"visib":"10+","altim":1012.6,"qcField":6,"metarType":"METAR","rawOb":"METAR KIWA 121055Z AUTO 14009KT 10SM CLR 17/01 A2990 RMK AO2 T01740009","lat":33.3008,"lon":-111.6437,"elev":420,"name":"Phoenix/Mesa Gateway Arpt, AZ, US","cover":"CLR","clouds":[],"fltCat":"VFR"},{"icaoId":"KRTS","receiptTime":"2026-04-12T11:00:12.454Z","obsTime":1775991300,"reportTime":"2026-04-12T11:00:00.000Z","temp":1,"dewp":-4,"wdir":0,"wspd":0,"wgst":10,"visib":"10+","altim":1005.5,"qcField":6,"metarType":"METAR","rawOb":"METAR KRTS 121055Z AUTO 00000G10KT 10SM CLR 01/M04 A2969 RMK AO2","lat":39.6658,"lon":-119.8731,"elev":1537,"name":"Reno/Stead Arpt, NV, US","cover":"CLR","clouds":[],"fltCat":"VFR"},{"icaoId":"KCHD","receiptTime":"2026-04-12T10:58:33.329Z","obsTime":1775991300,"reportTime":"2026-04-12T11:00:00.000Z","temp":17,"dewp":1.9,"wdir":130,"wspd":3,"visib":"10+","altim":1011.9,"qcField":14,"metarType":"METAR","rawOb":"METAR KCHD 121055Z AUTO 13003KT 10SM CLR 17/02 A2988 RMK AO2 T01700019 $","lat":33.2669,"lon":-111.8086,"elev":378,"name":"Chandler Muni, AZ, US","cover":"CLR","clouds":[],"fltCat":"VFR"},{"icaoId":"KMHR","receiptTime":"2026-04-12T11:00:14.106Z","obsTime":1775991300,"reportTime":"2026-04-12T11:00:00.000Z","temp":11,"dewp":11,"wdir":160,"wspd":11,"visib":3,"altim":1008.5,"qcField":6,"wxString":"RA","precip":0.02,"metarType":"METAR","rawOb":"METAR KMHR 121055Z AUTO 16011KT 3SM RA BKN035 BKN044 OVC050 11/11 A2978 RMK AO2 P0002","lat":38.56,"lon":-121.284,"elev":30,"name":"Sacramento/Mather Fld, CA, US","cover":"OVC","clouds":[{"cover":"BKN","base":3500},{"cover":"BKN","base":4400},{"cover":"OVC","base":5000}],"fltCat":"MVFR"},{"icaoId":"KAEG","receiptTime":"2026-04-12T11:02:20.821Z","obsTime":1775991300,"reportTime":"2026-04-12T11:00:00.000Z","temp":5.3,"dewp":-0.5,"wdir":250,"wspd":8,"visib":"10+","altim":1017.7,"qcField":6,"metarType":"METAR","rawOb":"METAR KAEG 121055Z AUTO 25008KT 10SM CLR 05/00 A3005 RMK AO2 T00531005","lat":35.15,"lon":-106.7929,"elev":1771,"name":"Albuquerque/Double Eagle Arpt, NM, US","cover":"CLR","clouds":[],"fltCat":"VFR"},{"icaoId":"KSEZ","receiptTime":"2026-04-12T11:02:22.014Z","obsTime":1775991300,"reportTime":"2026-04-12T11:00:00.000Z","temp":11,"dewp":-6,"wdir":160,"wspd":7,"visib":"10+","altim":1015.3,"qcField":6,"metarType":"METAR","rawOb":"METAR KSEZ 121055Z AUTO 16007KT 10SM CLR 11/M06 A2998 RMK AO2","lat":34.8467,"lon":-111.7884,"elev":1455,"name":"Sedona Arpt, AZ, US","cover":"CLR","clouds":[],"fltCat":"VFR"},{"icaoId":"KHOB","receiptTime":"2026-04-12T10:58:30.770Z","obsTime":1775991300,"reportTime":"2026-04-12T11:00:00.000Z","temp":12,"dewp":12,"wdir":200,"wspd":7,"visib":0.25,"altim":1016,"qcField":6,"wxString":"FG","metarType":"METAR","rawOb":"METAR KHOB 121055Z AUTO 20007KT 1/4SM FG OVC002 12/12 A3000 RMK AO2","lat":32.6797,"lon":-103.2222,"elev":1112,"name":"Hobbs Arpt, NM, US","cover":"OVC","clouds":[{"cover":"OVC","base":200}],"fltCat":"LIFR"},{"icaoId":"KRNO","receiptTime":"2026-04-12T10:58:31.948Z","obsTime":1775991300,"reportTime":"2026-04-12T11:00:00.000Z","temp":3.3,"dewp":-3.3,"wdir":140,"wspd":7,"visib":"10+","altim":1005.5,"slp":1003.5,"qcField":4,"metarType":"METAR","rawOb":"METAR KRNO 121055Z 14007KT 10SM FEW035 FEW065 OVC140 03/M03 A2969 RMK AO2 SLP035 T00331033","lat":39.5077,"lon":-119.7683,"elev":1344,"name":"Reno/Tahoe Intl, NV, US","cover":"OVC","clouds":[{"cover":"FEW","base":3500},{"cover":"FEW","base":6500},{"cover":"OVC","base":14000}],"fltCat":"VFR"},{"icaoId":"KCMA","receiptTime":"2026-04-12T10:58:30.827Z","obsTime":1775991300,"reportTime":"2026-04-12T11:00:00.000Z","temp":15.6,"dewp":12.8,"wdir":190,"wspd":10,"visib":"10+","altim":1012.6,"slp":1013.2,"qcField":6,"metarType":"METAR","rawOb":"METAR KCMA 121055Z AUTO 19010KT 10SM SCT018 16/13 A2990 RMK AO2 SLP132 T01560128","lat":34.2114,"lon":-119.0876,"elev":20,"name":"Camarillo Arpt, CA, US","cover":"SCT","clouds":[{"cover":"SCT","base":1800}],"fltCat":"VFR"},{"icaoId":"KSOW","receiptTime":"2026-04-12T10:58:24.843Z","obsTime":1775991300,"reportTime":"2026-04-12T11:00:00.000Z","temp":8,"dewp":-2,"wdir":170,"wspd":9,"visib":"10+","altim":1018.7,"qcField":6,"metarType":"METAR","rawOb":"METAR KSOW 121055Z AUTO 17009KT 10SM CLR 08/M02 A3008 RMK AO2","lat":34.2686,"lon":-110.0019,"elev":1954,"name":"Show Low Muni, AZ, US","cover":"CLR","clouds":[],"fltCat":"VFR"},{"icaoId":"KMEV","receiptTime":"2026-04-12T11:00:12.048Z","obsTime":1775991300,"reportTime":"2026-04-12T11:00:00.000Z","temp":1,"dewp":-2,"wdir":220,"wspd":6,"wgst":12,"visib":"10+","altim":1007.2,"qcField":6,"metarType":"METAR","rawOb":"METAR KMEV 121055Z AUTO 22006G12KT 10SM FEW032 SCT040 BKN046 01/M02 A2974 RMK AO2","lat":38.9963,"lon":-119.75,"elev":1437,"name":"Minden-Tahoe Arpt, NV, US","cover":"BKN","clouds":[{"cover":"FEW","base":3200},{"cover":"SCT","base":4000},{"cover":"BKN","base":4600}],"fltCat":"VFR"},{"icaoId":"KIFP","receiptTime":"2026-04-12T11:00:12.973Z","obsTime":1775991300,"reportTime":"2026-04-12T11:00:00.000Z","temp":20,"dewp":3,"wdir":220,"wspd":6,"visib":"10+","altim":1008.2,"qcField":6,"metarType":"METAR","rawOb":"METAR KIFP 121055Z AUTO 22006KT 10SM CLR 20/03 A2977 RMK AO2","lat":35.1487,"lon":-114.5611,"elev":210,"name":"Bullhead City Intl, AZ, US","cover":"CLR","clouds":[],"fltCat":"VFR"},{"icaoId":"KCXP","receiptTime":"2026-04-12T11:00:06.580Z","obsTime":1775991300,"reportTime":"2026-04-12T11:00:00.000Z","temp":1,"dewp":-1,"wdir":210,"wspd":10,"wgst":17,"visib":"10+","altim":1007.2,"qcField":6,"metarType":"METAR","rawOb":"METAR KCXP 121055Z AUTO 21010G17KT 10SM CLR 01/M01 A2974 RMK AO2","lat":39.1905,"lon":-119.7319,"elev":1431,"name":"Carson City Arpt, NV, US","cover":"CLR","clouds":[],"fltCat":"VFR"},{"icaoId":"KHII","receiptTime":"2026-04-12T11:02:15.761Z","obsTime":1775991300,"reportTime":"2026-04-12T11:00:00.000Z","temp":20,"dewp":4,"wdir":120,"wspd":12,"wgst":19,"visib":"10+","altim":1008.9,"qcField":6,"metarType":"METAR","rawOb":"METAR KHII 121055Z AUTO 12012G19KT 10SM CLR 20/04 A2979 RMK AO2","lat":34.5659,"lon":-114.3522,"elev":241,"name":"Lake Havasu City Arpt, AZ, US","cover":"CLR","clouds":[],"fltCat":"VFR"},{"icaoId":"KBJC","receiptTime":"2026-04-12T11:00:07.388Z","obsTime":1775991300,"reportTime":"2026-04-12T11:00:00.000Z","temp":8,"dewp":-6,"wdir":250,"wspd":3,"visib":"10+","altim":1010.6,"qcField":6,"metarType":"METAR","rawOb":"METAR KBJC 121055Z AUTO 25003KT 10SM CLR 08/M06 A2984 RMK AO2","lat":39.9008,"lon":-105.1042,"elev":1694,"name":"Rocky Mtn Metro, CO, US","cover":"CLR","clouds":[],"fltCat":"VFR"},{"icaoId":"KHAF","receiptTime":"2026-04-12T10:58:08.667Z","obsTime":1775991300,"reportTime":"2026-04-12T11:00:00.000Z","temp":12,"dewp":10,"wdir":260,"wspd":11,"wgst":17,"visib":8,"altim":1009.6,"qcField":6,"precip":0.01,"metarType":"METAR","rawOb":"METAR KHAF 121055Z AUTO 26011G17KT 8SM BKN026 BKN032 BKN038 12/10 A2981 RMK AO2 P0001","lat":37.5136,"lon":-122.4996,"elev":11,"name":"Half Moon Bay Arpt, CA, US","cover":"BKN","clouds":[{"cover":"BKN","base":2600},{"cover":"BKN","base":3200},{"cover":"BKN","base":3800}],"fltCat":"MVFR"},{"icaoId":"KHCR","receiptTime":"2026-04-12T10:58:32.820Z","obsTime":1775991300,"reportTime":"2026-04-12T11:00:00.000Z","temp":-0.8,"dewp":-3.3,"wdir":100,"wspd":4,"visib":"10+","altim":1008.9,"qcField":14,"metarType":"METAR","rawOb":"METAR KHCR 121055Z AUTO 10004KT 10SM CLR M01/M03 A2979 RMK AO2 T10081033 $","lat":40.4774,"lon":-111.4329,"elev":1708,"name":"Heber City Muni, UT, US","cover":"CLR","clouds":[],"fltCat":"VFR"},{"icaoId":"KBVU","receiptTime":"2026-04-12T10:58:07.124Z","obsTime":1775991300,"reportTime":"2026-04-12T11:00:00.000Z","temp":15,"dewp":0,"wdir":250,"wspd":3,"visib":"10+","altim":1008.2,"qcField":6,"metarType":"METAR","rawOb":"METAR KBVU 121055Z AUTO 25003KT 10SM CLR 15/M00 A2977 RMK AO2","lat":35.9489,"lon":-114.8633,"elev":654,"name":"Boulder City Muni, NV, US","cover":"CLR","clouds":[],"fltCat":"VFR"},{"icaoId":"KHTH","receiptTime":"2026-04-12T11:00:15.998Z","obsTime":1775991300,"reportTime":"2026-04-12T11:00:00.000Z","temp":5,"dewp":0,"wdir":"VRB","wspd":6,"wgst":12,"visib":"10+","altim":1006.9,"qcField":6,"metarType":"METAR","rawOb":"METAR KHTH 121055Z AUTO VRB06G12KT 10SM BKN023 BKN028 OVC037 05/00 A2973 RMK A01","lat":38.5448,"lon":-118.6314,"elev":1281,"name":"Hawthorne Muni, NV, US","cover":"OVC","clouds":[{"cover":"BKN","base":2300},{"cover":"BKN","base":2800},{"cover":"OVC","base":3700}],"fltCat":"MVFR"},{"icaoId":"KSYR","receiptTime":"2026-04-12T10:58:16.498Z","obsTime":1775991240,"reportTime":"2026-04-12T11:00:00.000Z","temp":-1.1,"dewp":-2.2,"wdir":90,"wspd":4,"visib":"10+","altim":1031.6,"slp":1031.7,"qcField":12,"metarType":"METAR","rawOb":"METAR KSYR 121054Z 09004KT 10SM BKN160 BKN250 M01/M02 A3046 RMK AO2 SLP317 T10111022 $","lat":43.1111,"lon":-76.1038,"elev":125,"name":"Syracuse/Hancock Intl, NY, US","cover":"BKN","clouds":[{"cover":"BKN","base":16000},{"cover":"BKN","base":25000}],"fltCat":"VFR"},{"icaoId":"KSJN","receiptTime":"2026-04-12T10:58:15.964Z","obsTime":1775991240,"reportTime":"2026-04-12T11:00:00.000Z","temp":6.7,"dewp":-1.1,"wdir":200,"wspd":7,"visib":"10+","altim":1017.7,"slp":1011.3,"qcField":6,"metarType":"METAR","rawOb":"METAR KSJN 121054Z AUTO 20007KT 10SM CLR 07/M01 A3005 RMK AO2 SLP113 T00671011","lat":34.5184,"lon":-109.3801,"elev":1747,"name":"St Johns Ind Arpt, AZ, US","cover":"CLR","clouds":[],"fltCat":"VFR"},{"icaoId":"KBTV","receiptTime":"2026-04-12T10:58:08.025Z","obsTime":1775991240,"reportTime":"2026-04-12T11:00:00.000Z","temp":-1.7,"dewp":-3.9,"wdir":0,"wspd":0,"visib":"10+","altim":1032.3,"slp":1032.4,"qcField":4,"metarType":"METAR","rawOb":"METAR KBTV 121054Z 00000KT 10SM SCT150 M02/M04 A3048 RMK AO2 SLP324 T10171039","lat":44.4682,"lon":-73.1499,"elev":101,"name":"Burlington Intl, VT, US","cover":"SCT","clouds":[{"cover":"SCT","base":15000}],"fltCat":"VFR"},{"icaoId":"KGSO","receiptTime":"2026-04-12T10:58:08.119Z","obsTime":1775991240,"reportTime":"2026-04-12T11:00:00.000Z","temp":11.1,"dewp":8.3,"wdir":50,"wspd":5,"visib":"10+","altim":1027.5,"slp":1026.9,"qcField":4,"metarType":"METAR","rawOb":"METAR KGSO 121054Z 05005KT 10SM SCT250 11/08 A3034 RMK AO2 SLP269 T01110083","lat":36.0969,"lon":-79.9432,"elev":275,"name":"Greensboro Intl, NC, US","cover":"SCT","clouds":[{"cover":"SCT","base":25000}],"fltCat":"VFR"},{"icaoId":"KCOS","receiptTime":"2026-04-12T10:58:06.441Z","obsTime":1775991240,"reportTime":"2026-04-12T11:00:00.000Z","temp":8.9,"dewp":-6.7,"wdir":60,"wspd":4,"visib":"10+","altim":1012.6,"slp":1007,"qcField":4,"metarType":"METAR","rawOb":"METAR KCOS 121054Z 06004KT 10SM CLR 09/M07 A2990 RMK AO2 SLP070 T00891067","lat":38.8095,"lon":-104.6887,"elev":1886,"name":"Colorado Spring Arpt, CO, US","cover":"CLR","clouds":[],"fltCat":"VFR"},{"icaoId":"KOLS","receiptTime":"2026-04-12T10:58:15.614Z","obsTime":1775991240,"reportTime":"2026-04-12T11:00:00.000Z","temp":14.4,"dewp":0,"wdir":160,"wspd":5,"visib":"10+","altim":1017.4,"slp":1011.5,"qcField":6,"metarType":"METAR","rawOb":"METAR KOLS 121054Z AUTO 16005KT 10SM CLR 14/00 A3004 RMK AO2 SLP115 T01440000","lat":31.4208,"lon":-110.8465,"elev":1194,"name":"Nogales Intl, AZ, US","cover":"CLR","clouds":[],"fltCat":"VFR"},{"icaoId":"KGCN","receiptTime":"2026-04-12T10:58:08.644Z","obsTime":1775991240,"reportTime":"2026-04-12T11:00:00.000Z","temp":-2.8,"dewp":-7.8,"wdir":0,"wspd":0,"visib":"10+","altim":1016,"slp":1011.4,"qcField":6,"metarType":"METAR","rawOb":"METAR KGCN 121054Z AUTO 00000KT 10SM CLR M03/M08 A3000 RMK AO2 SLP114 T10281078","lat":35.9458,"lon":-112.1554,"elev":1993,"name":"Grand Canyon Park Arpt, AZ, US","cover":"CLR","clouds":[],"fltCat":"VFR"},{"icaoId":"KBOS","receiptTime":"2026-04-12T10:58:08.002Z","obsTime":1775991240,"reportTime":"2026-04-12T11:00:00.000Z","temp":4.4,"dewp":-5.6,"wdir":340,"wspd":8,"visib":"10+","altim":1032.6,"slp":1032.4,"qcField":4,"metarType":"METAR","rawOb":"METAR KBOS 121054Z 34008KT 10SM FEW250 04/M06 A3049 RMK AO2 SLP324 T00441056","lat":42.3606,"lon":-71.0097,"elev":4,"name":"Boston/Logan Intl, MA, US","cover":"FEW","clouds":[{"cover":"FEW","base":25000}],"fltCat":"VFR"},{"icaoId":"KROC","receiptTime":"2026-04-12T10:58:16.587Z","obsTime":1775991240,"reportTime":"2026-04-12T11:00:00.000Z","temp":1.1,"dewp":-2.2,"wdir":140,"wspd":3,"visib":"10+","altim":1029.5,"slp":1030.3,"qcField":4,"metarType":"METAR","rawOb":"METAR KROC 121054Z 14003KT 10SM SCT120 BKN170 BKN250 01/M02 A3040 RMK AO2 SLP303 T00111022","lat":43.1172,"lon":-77.6754,"elev":166,"name":"Rochester Intl Arpt, NY, US","cover":"BKN","clouds":[{"cover":"SCT","base":12000},{"cover":"BKN","base":17000},{"cover":"BKN","base":25000}],"fltCat":"VFR"},{"icaoId":"KIND","receiptTime":"2026-04-12T10:58:07.843Z","obsTime":1775991240,"reportTime":"2026-04-12T11:00:00.000Z","temp":11.1,"dewp":6.7,"wdir":140,"wspd":6,"visib":"10+","altim":1021.4,"slp":1021.2,"qcField":4,"metarType":"METAR","rawOb":"METAR KIND 121054Z 14006KT 10SM SCT250 11/07 A3016 RMK AO2 SLP212 T01110067","lat":39.7252,"lon":-86.2816,"elev":242,"name":"Indianapolis Intl, IN, US","cover":"SCT","clouds":[{"cover":"SCT","base":25000}],"fltCat":"VFR"},{"icaoId":"KBUF","receiptTime":"2026-04-12T10:58:16.531Z","obsTime":1775991240,"reportTime":"2026-04-12T11:00:00.000Z","temp":3.3,"dewp":-2.8,"wdir":100,"wspd":8,"visib":"10+","altim":1027.5,"slp":1028.1,"qcField":12,"metarType":"METAR","rawOb":"METAR KBUF 121054Z 10008KT 10SM BKN100 BKN150 03/M03 A3034 RMK AO2 SLP281 T00331028 $","lat":42.94,"lon":-78.7361,"elev":217,"name":"Buffalo-Niagara Intl, NY, US","cover":"BKN","clouds":[{"cover":"BKN","base":10000},{"cover":"BKN","base":15000}],"fltCat":"VFR"},{"icaoId":"KSLC","receiptTime":"2026-04-12T10:58:15.986Z","obsTime":1775991240,"reportTime":"2026-04-12T11:00:00.000Z","temp":10.6,"dewp":0,"wdir":180,"wspd":7,"visib":"10+","altim":1006.9,"slp":1003.6,"qcField":12,"metarType":"METAR","rawOb":"METAR KSLC 121054Z 18007KT 10SM BKN180 11/00 A2973 RMK AO2 SLP036 T01060000 $","lat":40.7707,"lon":-111.965,"elev":1286,"name":"Salt Lake City Intl, UT, US","cover":"BKN","clouds":[{"cover":"BKN","base":18000}],"fltCat":"VFR"},{"icaoId":"KPHL","receiptTime":"2026-04-12T10:58:15.699Z","obsTime":1775991240,"reportTime":"2026-04-12T11:00:00.000Z","temp":7.2,"dewp":-0.6,"wdir":110,"wspd":4,"visib":"10+","altim":1032.9,"slp":1032.9,"qcField":12,"metarType":"METAR","rawOb":"METAR KPHL 121054Z 11004KT 10SM FEW030 07/M01 A3050 RMK AO2 SLP329 T00721006 $","lat":39.8733,"lon":-75.2268,"elev":2,"name":"Philadelphia Intl, PA, US","cover":"FEW","clouds":[{"cover":"FEW","base":3000}],"fltCat":"VFR"},{"icaoId":"KRIC","receiptTime":"2026-04-12T10:58:16.451Z","obsTime":1775991240,"reportTime":"2026-04-12T11:00:00.000Z","temp":12.2,"dewp":8.9,"wdir":0,"wspd":0,"visib":"10+","altim":1030.6,"slp":1030.8,"qcField":4,"metarType":"METAR","rawOb":"METAR KRIC 121054Z 00000KT 10SM BKN065 12/09 A3043 RMK AO2 SLP308 T01220089","lat":37.5115,"lon":-77.3234,"elev":51,"name":"Richmond Intl, VA, US","cover":"BKN","clouds":[{"cover":"BKN","base":6500}],"fltCat":"VFR"},{"icaoId":"KAPC","receiptTime":"2026-04-12T10:58:08.735Z","obsTime":1775991240,"reportTime":"2026-04-12T11:00:00.000Z","temp":9.4,"dewp":7.8,"wdir":230,"wspd":4,"visib":"10+","altim":1008.2,"slp":1007.3,"qcField":6,"metarType":"METAR","rawOb":"METAR KAPC 121054Z AUTO 23004KT 10SM CLR 09/08 A2977 RMK AO2 SLP073 T00940078","lat":38.2075,"lon":-122.2804,"elev":5,"name":"Napa Cnty Arpt, CA, US","cover":"CLR","clouds":[],"fltCat":"VFR"},{"icaoId":"KFFZ","receiptTime":"2026-04-12T10:58:07.525Z","obsTime":1775991240,"reportTime":"2026-04-12T11:00:00.000Z","temp":20,"dewp":-1.1,"wdir":130,"wspd":7,"visib":"10+","altim":1011.6,"slp":1009.4,"qcField":38,"metarType":"METAR","rawOb":"METAR KFFZ 121054Z AUTO 13007KT 10SM CLR 20/M01 A2987 RMK AO2 SLP094 T02001011 TSNO","lat":33.4659,"lon":-111.7212,"elev":420,"name":"Mesa/Falcon Fld, AZ, US","cover":"CLR","clouds":[],"fltCat":"VFR"},{"icaoId":"KMEM","receiptTime":"2026-04-12T10:58:16.043Z","obsTime":1775991240,"reportTime":"2026-04-12T11:00:00.000Z","temp":17.8,"dewp":10.6,"wdir":190,"wspd":7,"visib":"10+","altim":1021.4,"slp":1021,"qcField":12,"metarType":"METAR","rawOb":"METAR KMEM 121054Z 19007KT 10SM SCT250 18/11 A3016 RMK AO2 SLP210 T01780106 $","lat":35.0564,"lon":-89.9864,"elev":78,"name":"Memphis Intl, TN, US","cover":"SCT","clouds":[{"cover":"SCT","base":25000}],"fltCat":"VFR"},{"icaoId":"KBFL","receiptTime":"2026-04-12T10:58:08.614Z","obsTime":1775991240,"reportTime":"2026-04-12T11:00:00.000Z","temp":11.7,"dewp":10,"wdir":350,"wspd":13,"visib":8,"altim":1011.6,"slp":1011.1,"qcField":14,"wxString":"-RA","precip":0.03,"metarType":"METAR","rawOb":"METAR KBFL 121054Z AUTO 35013KT 8SM -RA OVC060 12/10 A2987 RMK AO2 SLP111 P0003 T01170100 $","lat":35.4342,"lon":-119.0552,"elev":146,"name":"Bakersfield/Meadows Arpt, CA, US","cover":"OVC","clouds":[{"cover":"OVC","base":6000}],"fltCat":"VFR"},{"icaoId":"KDSM","receiptTime":"2026-04-12T10:58:06.496Z","obsTime":1775991240,"reportTime":"2026-04-12T11:00:00.000Z","temp":18.3,"dewp":15,"wdir":200,"wspd":16,"wgst":24,"visib":"10+","altim":1009.6,"slp":1009.2,"qcField":4,"metarType":"METAR","rawOb":"METAR KDSM 121054Z 20016G24KT 10SM SCT110 BKN250 18/15 A2981 RMK AO2 PK WND 19028/1008 SLP092 T01830150","lat":41.5339,"lon":-93.6531,"elev":286,"name":"Des Moines Intl, IA, US","cover":"BKN","clouds":[{"cover":"SCT","base":11000},{"cover":"BKN","base":25000}],"fltCat":"VFR"},{"icaoId":"KBWI","receiptTime":"2026-04-12T10:58:08.040Z","obsTime":1775991240,"reportTime":"2026-04-12T11:00:00.000Z","temp":10,"dewp":0.6,"wdir":60,"wspd":12,"visib":"10+","altim":1031.2,"slp":1031.2,"qcField":4,"metarType":"METAR","rawOb":"METAR KBWI 121054Z 06012KT 10SM FEW075 FEW250 10/01 A3045 RMK AO2 SLP312 T01000006","lat":39.1733,"lon":-76.684,"elev":42,"name":"Baltimore-Washington Intl, MD, US","cover":"FEW","clouds":[{"cover":"FEW","base":7500},{"cover":"FEW","base":25000}],"fltCat":"VFR"},{"icaoId":"KBCE","receiptTime":"2026-04-12T10:56:23.315Z","obsTime":1775991180,"reportTime":"2026-04-12T11:00:00.000Z","temp":-2.8,"dewp":-10,"wdir":0,"wspd":0,"visib":"10+","altim":1014.6,"slp":1007.7,"qcField":6,"metarType":"METAR","rawOb":"METAR KBCE 121053Z AUTO 00000KT 10SM CLR M03/M10 A2996 RMK AO2 SLP077 T10281100","lat":37.7013,"lon":-112.149,"elev":2311,"name":"Bryce Canyon Arpt, UT, US","cover":"CLR","clouds":[],"fltCat":"VFR"},{"icaoId":"KELY","receiptTime":"2026-04-12T10:56:28.132Z","obsTime":1775991180,"reportTime":"2026-04-12T11:00:00.000Z","temp":7.2,"dewp":-10.6,"wdir":150,"wspd":19,"wgst":32,"visib":"10+","altim":1006.9,"slp":1000.2,"qcField":6,"metarType":"METAR","rawOb":"METAR KELY 121053Z AUTO 15019G32KT 10SM CLR 07/M11 A2973 RMK AO2 PK WND 14032/1049 SLP002 T00721106","lat":39.2954,"lon":-114.8466,"elev":1906,"name":"Ely/Yelland Fld, NV, US","cover":"CLR","clouds":[],"fltCat":"VFR"},{"icaoId":"KMYR","receiptTime":"2026-04-12T10:56:18.741Z","obsTime":1775991180,"reportTime":"2026-04-12T11:00:00.000Z","temp":13.9,"dewp":13.3,"wdir":0,"wspd":0,"visib":"10+","altim":1027.9,"slp":1027.8,"qcField":12,"metarType":"METAR","rawOb":"METAR KMYR 121053Z 00000KT 10SM FEW100 14/13 A3035 RMK AO2 SLP278 T01390133 $","lat":33.6769,"lon":-78.9325,"elev":7,"name":"Myrtle Beach Intl, SC, US","cover":"FEW","clouds":[{"cover":"FEW","base":10000}],"fltCat":"VFR"},{"icaoId":"KCDC","receiptTime":"2026-04-12T10:56:30.281Z","obsTime":1775991180,"reportTime":"2026-04-12T11:00:00.000Z","temp":10,"dewp":-5,"wdir":200,"wspd":16,"wgst":23,"visib":"10+","altim":1010.9,"slp":1005.5,"qcField":6,"metarType":"METAR","rawOb":"METAR KCDC 121053Z AUTO 20016G23KT 10SM CLR 10/M05 A2985 RMK AO2 PK WND 19028/1012 SLP055 T01001050","lat":37.7067,"lon":-113.097,"elev":1703,"name":"Cedar City Muni, UT, US","cover":"CLR","clouds":[],"fltCat":"VFR"},{"icaoId":"KFMN","receiptTime":"2026-04-12T10:56:28.054Z","obsTime":1775991180,"reportTime":"2026-04-12T11:00:00.000Z","temp":2.2,"dewp":-3.9,"wdir":40,"wspd":4,"visib":"10+","altim":1016.3,"slp":1013.9,"qcField":6,"metarType":"METAR","rawOb":"METAR KFMN 121053Z AUTO 04004KT 10SM CLR 02/M04 A3001 RMK AO2 SLP139 T00221039","lat":36.7435,"lon":-108.2293,"elev":1677,"name":"Farmington/Four Corners Rgnl, NM, US","cover":"CLR","clouds":[],"fltCat":"VFR"},{"icaoId":"KACV","receiptTime":"2026-04-12T10:56:30.934Z","obsTime":1775991180,"reportTime":"2026-04-12T11:00:00.000Z","temp":7.2,"dewp":6.1,"wdir":10,"wspd":4,"visib":"10+","altim":1002.8,"slp":1003.3,"qcField":6,"wxString":"-RA","precip":0.07,"metarType":"METAR","rawOb":"METAR KACV 121053Z AUTO 01004KT 10SM -RA OVC042 07/06 A2961 RMK AO2 SLP033 P0007 T00720061","lat":40.9784,"lon":-124.1048,"elev":63,"name":"Arcata Arpt, CA, US","cover":"OVC","clouds":[{"cover":"OVC","base":4200}],"fltCat":"VFR"},{"icaoId":"KPRC","receiptTime":"2026-04-12T10:56:25.466Z","obsTime":1775991180,"reportTime":"2026-04-12T11:00:00.000Z","temp":7.2,"dewp":-1.7,"wdir":190,"wspd":3,"visib":"10+","altim":1015.3,"slp":1009.8,"qcField":6,"metarType":"METAR","rawOb":"METAR KPRC 121053Z AUTO 19003KT 10SM CLR 07/M02 A2998 RMK AO2 SLP098 T00721017","lat":34.6491,"lon":-112.4223,"elev":1528,"name":"Prescott/Love Fld, AZ, US","cover":"CLR","clouds":[],"fltCat":"VFR"},{"icaoId":"KVEL","receiptTime":"2026-04-12T10:56:29.204Z","obsTime":1775991180,"reportTime":"2026-04-12T11:00:00.000Z","temp":2.2,"dewp":-0.6,"wdir":260,"wspd":3,"visib":"10+","altim":1010.9,"slp":1008.5,"qcField":6,"metarType":"METAR","rawOb":"METAR KVEL 121053Z AUTO 26003KT 10SM CLR 02/M01 A2985 RMK AO2 SLP085 T00221006","lat":40.4429,"lon":-109.5128,"elev":1604,"name":"Vernal Rgnl, UT, US","cover":"CLR","clouds":[],"fltCat":"VFR"},{"icaoId":"KSDL","receiptTime":"2026-04-12T10:56:25.610Z","obsTime":1775991180,"reportTime":"2026-04-12T11:00:00.000Z","temp":18.3,"dewp":-1.1,"wdir":0,"wspd":0,"visib":"10+","altim":1012.3,"slp":1009.9,"qcField":6,"metarType":"METAR","rawOb":"METAR KSDL 121053Z AUTO 00000KT 10SM CLR 18/M01 A2989 RMK AO2 SLP099 T01831011","lat":33.6123,"lon":-111.9232,"elev":438,"name":"Scottsdale Muni, AZ, US","cover":"CLR","clouds":[],"fltCat":"VFR"},{"icaoId":"KGSP","receiptTime":"2026-04-12T10:56:21.668Z","obsTime":1775991180,"reportTime":"2026-04-12T11:00:00.000Z","temp":11.1,"dewp":8.9,"wdir":0,"wspd":0,"visib":"10+","altim":1026.5,"slp":1025.5,"qcField":4,"metarType":"METAR","rawOb":"METAR KGSP 121053Z 00000KT 10SM CLR 11/09 A3031 RMK AO2 SLP255 T01110089","lat":34.8842,"lon":-82.2209,"elev":285,"name":"Greenville-Spartanburg Intl, SC, US","cover":"CLR","clouds":[],"fltCat":"VFR"},{"icaoId":"KTPA","receiptTime":"2026-04-12T10:56:28.986Z","obsTime":1775991180,"reportTime":"2026-04-12T11:00:00.000Z","temp":17.8,"dewp":14.4,"wdir":"VRB","wspd":4,"visib":"10+","altim":1024.5,"slp":1024.3,"qcField":4,"metarType":"METAR","rawOb":"METAR KTPA 121053Z VRB04KT 10SM SCT043 18/14 A3025 RMK AO2 SLP243 T01780144","lat":27.9633,"lon":-82.54,"elev":2,"name":"Tampa Intl Arpt, FL, US","cover":"SCT","clouds":[{"cover":"SCT","base":4300}],"fltCat":"VFR"},{"icaoId":"KLOL","receiptTime":"2026-04-12T10:56:20.604Z","obsTime":1775991180,"reportTime":"2026-04-12T11:00:00.000Z","temp":5.6,"dewp":-1.1,"wdir":140,"wspd":9,"visib":"10+","altim":1006.9,"slp":1005.5,"qcField":6,"precip":0.005,"metarType":"METAR","rawOb":"METAR KLOL 121053Z AUTO 14009KT 10SM OVC041 06/M01 A2973 RMK AO2 PK WND 24027/0954 RAB0958E43 SLP055 P0000 T00561011","lat":40.0684,"lon":-118.5702,"elev":1191,"name":"Lovelock/Derby Fld, NV, US","cover":"OVC","clouds":[{"cover":"OVC","base":4100}],"fltCat":"VFR"},{"icaoId":"KBHM","receiptTime":"2026-04-12T10:56:23.957Z","obsTime":1775991180,"reportTime":"2026-04-12T11:00:00.000Z","temp":11.7,"dewp":9.4,"wdir":0,"wspd":0,"visib":"10+","altim":1024.8,"slp":1024.2,"qcField":4,"metarType":"METAR","rawOb":"METAR KBHM 121053Z 00000KT 10SM CLR 12/09 A3026 RMK AO2 SLP242 T01170094","lat":33.5655,"lon":-86.7449,"elev":191,"name":"Birmingham Intl, AL, US","cover":"CLR","clouds":[],"fltCat":"VFR"},{"icaoId":"KBNA","receiptTime":"2026-04-12T10:56:23.970Z","obsTime":1775991180,"reportTime":"2026-04-12T11:00:00.000Z","temp":12.8,"dewp":11.1,"wdir":150,"wspd":3,"visib":8,"altim":1023.5,"slp":1022.9,"qcField":12,"metarType":"METAR","rawOb":"METAR KBNA 121053Z 15003KT 8SM BKN250 13/11 A3022 RMK AO2 SLP229 T01280111 $","lat":36.1105,"lon":-86.6881,"elev":168,"name":"Nashville Intl, TN, US","cover":"BKN","clouds":[{"cover":"BKN","base":25000}],"fltCat":"VFR"},{"icaoId":"KMSP","receiptTime":"2026-04-12T10:56:22.917Z","obsTime":1775991180,"reportTime":"2026-04-12T11:00:00.000Z","temp":13.3,"dewp":12.2,"wdir":140,"wspd":10,"visib":9,"altim":1004.1,"slp":1004.2,"qcField":4,"metarType":"METAR","rawOb":"METAR KMSP 121053Z 14010KT 9SM FEW031 FEW035 13/12 A2965 RMK AO2 LTG DSNT NE-SE SLP042 T01330122","lat":44.8852,"lon":-93.2313,"elev":255,"name":"Minneapolis-St Paul Intl, MN, US","cover":"FEW","clouds":[{"cover":"FEW","base":3100},{"cover":"FEW","base":3500}],"fltCat":"VFR"},{"icaoId":"KOGD","receiptTime":"2026-04-12T10:56:19.733Z","obsTime":1775991180,"reportTime":"2026-04-12T11:00:00.000Z","temp":7.2,"dewp":0.6,"wdir":170,"wspd":7,"visib":"10+","altim":1006.5,"slp":1003.6,"qcField":6,"metarType":"METAR","rawOb":"METAR KOGD 121053Z AUTO 17007KT 10SM CLR 07/01 A2972 RMK AO2 SLP036 T00720006","lat":41.1941,"lon":-112.0168,"elev":1356,"name":"Ogden/Hinckley Arpt, UT, US","cover":"CLR","clouds":[],"fltCat":"VFR"},{"icaoId":"KPUB","receiptTime":"2026-04-12T10:56:19.113Z","obsTime":1775991180,"reportTime":"2026-04-12T11:00:00.000Z","temp":5.6,"dewp":1.1,"wdir":250,"wspd":7,"visib":"10+","altim":1010.9,"slp":1007.8,"qcField":12,"metarType":"METAR","rawOb":"METAR KPUB 121053Z 25007KT 10SM CLR 06/01 A2985 RMK AO2 SLP078 T00560011 $","lat":38.2887,"lon":-104.5057,"elev":1441,"name":"Pueblo Mem Arpt, CO, US","cover":"CLR","clouds":[],"fltCat":"VFR"},{"icaoId":"KPDX","receiptTime":"2026-04-12T10:56:28.454Z","obsTime":1775991180,"reportTime":"2026-04-12T11:00:00.000Z","temp":10.6,"dewp":8.9,"wdir":0,"wspd":0,"visib":"10+","altim":1003.5,"slp":1003.2,"qcField":12,"metarType":"METAR","rawOb":"METAR KPDX 121053Z 00000KT 10SM FEW016 BKN075 11/09 A2963 RMK AO2 SLP032 T01060089 $","lat":45.5958,"lon":-122.6092,"elev":7,"name":"Portland Intl, OR, US","cover":"BKN","clouds":[{"cover":"FEW","base":1600},{"cover":"BKN","base":7500}],"fltCat":"VFR"},{"icaoId":"KPSP","receiptTime":"2026-04-12T10:56:25.494Z","obsTime":1775991180,"reportTime":"2026-04-12T11:00:00.000Z","temp":17.2,"dewp":6.1,"wdir":350,"wspd":13,"visib":"10+","altim":1011.9,"slp":1011.7,"qcField":6,"metarType":"METAR","rawOb":"METAR KPSP 121053Z AUTO 35013KT 10SM CLR 17/06 A2988 RMK AO2 SLP117 T01720061","lat":33.8222,"lon":-116.5043,"elev":123,"name":"Palm Springs Intl, CA, US","cover":"CLR","clouds":[],"fltCat":"VFR"},{"icaoId":"KDEN","receiptTime":"2026-04-12T10:56:18.265Z","obsTime":1775991180,"reportTime":"2026-04-12T11:00:00.000Z","temp":5.6,"dewp":-6.7,"wdir":200,"wspd":10,"visib":"10+","altim":1009.9,"slp":1004.2,"qcField":4,"metarType":"METAR","rawOb":"METAR KDEN 121053Z 20010KT 10SM CLR 06/M07 A2982 RMK AO2 SLP042 T00561067","lat":39.8466,"lon":-104.6562,"elev":1656,"name":"Denver Intl, CO, US","cover":"CLR","clouds":[],"fltCat":"VFR"},{"icaoId":"KMOD","receiptTime":"2026-04-12T10:56:20.780Z","obsTime":1775991180,"reportTime":"2026-04-12T11:00:00.000Z","temp":10,"dewp":8.9,"wdir":130,"wspd":6,"visib":"10+","altim":1010.2,"slp":1010.1,"qcField":6,"metarType":"METAR","rawOb":"METAR KMOD 121053Z AUTO 13006KT 10SM BKN065 BKN110 10/09 A2983 RMK AO2 SLP101 T01000089","lat":37.6254,"lon":-120.9549,"elev":25,"name":"Modesto/Sham Fld, CA, US","cover":"BKN","clouds":[{"cover":"BKN","base":6500},{"cover":"BKN","base":11000}],"fltCat":"VFR"},{"icaoId":"KTUL","receiptTime":"2026-04-12T10:56:29.044Z","obsTime":1775991180,"reportTime":"2026-04-12T11:00:00.000Z","temp":21.1,"dewp":15.6,"wdir":170,"wspd":16,"wgst":22,"visib":"10+","altim":1014.6,"slp":1013.8,"qcField":4,"metarType":"METAR","rawOb":"METAR KTUL 121053Z 17016G22KT 10SM BKN080 BKN120 21/16 A2996 RMK AO2 SLP138 T02110156","lat":36.1985,"lon":-95.8782,"elev":196,"name":"Tulsa Intl Arpt, OK, US","cover":"BKN","clouds":[{"cover":"BKN","base":8000},{"cover":"BKN","base":12000}],"fltCat":"VFR"},{"icaoId":"KTUS","receiptTime":"2026-04-12T10:56:18.477Z","obsTime":1775991180,"reportTime":"2026-04-12T11:00:00.000Z","temp":17.8,"dewp":-1.1,"wdir":130,"wspd":8,"visib":"10+","altim":1015.7,"slp":1011.4,"qcField":4,"metarType":"METAR","rawOb":"METAR KTUS 121053Z 13008KT 10SM CLR 18/M01 A2999 RMK AO2 SLP114 T01781011","lat":32.1315,"lon":-110.9564,"elev":776,"name":"Tucson Intl Arpt, AZ, US","cover":"CLR","clouds":[],"fltCat":"VFR"},{"icaoId":"KLBB","receiptTime":"2026-04-12T10:56:28.345Z","obsTime":1775991180,"reportTime":"2026-04-12T11:00:00.000Z","temp":13.3,"dewp":12.8,"wdir":180,"wspd":7,"visib":"10+","altim":1014.6,"slp":1011.4,"qcField":12,"metarType":"METAR","rawOb":"METAR KLBB 121053Z 18007KT 10SM SCT180 13/13 A2996 RMK AO2 SLP114 T01330128 $","lat":33.6658,"lon":-101.8233,"elev":996,"name":"Lubbock Intl Arpt, TX, US","cover":"SCT","clouds":[{"cover":"SCT","base":18000}],"fltCat":"VFR"},{"icaoId":"KMCI","receiptTime":"2026-04-12T10:58:21.118Z","obsTime":1775991180,"reportTime":"2026-04-12T11:00:00.000Z","temp":20,"dewp":15,"wdir":200,"wspd":15,"wgst":25,"visib":"10+","altim":1012.6,"slp":1011.3,"qcField":4,"metarType":"METAR","rawOb":"METAR KMCI 121053Z 20015G25KT 10SM FEW080 OVC160 20/15 A2990 RMK AO2 SLP113 T02000150","lat":39.2975,"lon":-94.7309,"elev":308,"name":"Kansas City Intl, MO, US","cover":"OVC","clouds":[{"cover":"FEW","base":8000},{"cover":"OVC","base":16000}],"fltCat":"VFR"},{"icaoId":"KONT","receiptTime":"2026-04-12T10:56:19.810Z","obsTime":1775991180,"reportTime":"2026-04-12T11:00:00.000Z","temp":13.9,"dewp":11.1,"wdir":230,"wspd":4,"visib":"10+","altim":1014,"slp":1013.2,"qcField":12,"metarType":"METAR","rawOb":"METAR KONT 121053Z 23004KT 10SM FEW020 FEW046 BKN060 14/11 A2994 RMK AO2 SLP132 T01390111 $","lat":34.0531,"lon":-117.5769,"elev":279,"name":"Ontario Intl, CA, US","cover":"BKN","clouds":[{"cover":"FEW","base":2000},{"cover":"FEW","base":4600},{"cover":"BKN","base":6000}],"fltCat":"VFR"},{"icaoId":"KMTJ","receiptTime":"2026-04-12T10:56:20.903Z","obsTime":1775991180,"reportTime":"2026-04-12T11:00:00.000Z","temp":11.1,"dewp":-3.9,"wdir":"VRB","wspd":4,"visib":"10+","altim":1014.3,"slp":1008.4,"qcField":6,"metarType":"METAR","rawOb":"METAR KMTJ 121053Z AUTO VRB04KT 10SM CLR 11/M04 A2995 RMK AO2 SLP084 T01111039","lat":38.5054,"lon":-107.8981,"elev":1755,"name":"Montrose Rgnl, CO, US","cover":"CLR","clouds":[],"fltCat":"VFR"},{"icaoId":"KCNY","receiptTime":"2026-04-12T10:56:28.024Z","obsTime":1775991180,"reportTime":"2026-04-12T11:00:00.000Z","temp":9.4,"dewp":-8.3,"wdir":"VRB","wspd":3,"visib":"10+","altim":1010.2,"slp":1006.4,"qcField":14,"metarType":"METAR","rawOb":"METAR KCNY 121053Z AUTO VRB03KT 10SM CLR 09/M08 A2983 RMK AO2 SLP064 T00941083 $","lat":38.7501,"lon":-109.7627,"elev":1392,"name":"Moab/Canyonland Fld, UT, US","cover":"CLR","clouds":[],"fltCat":"VFR"},{"icaoId":"KSAF","receiptTime":"2026-04-12T10:56:26.018Z","obsTime":1775991180,"reportTime":"2026-04-12T11:00:00.000Z","temp":5,"dewp":2.2,"wdir":80,"wspd":3,"visib":"","altim":1018,"slp":1012.5,"qcField":14,"metarType":"METAR","rawOb":"METAR KSAF 121053Z AUTO 08003KT FEW100 05/02 A3006 RMK AO2 SLP125 T00500022 $","lat":35.611,"lon":-106.0957,"elev":1918,"name":"Santa Fe Cnty Muni, NM, US","cover":"FEW","clouds":[{"cover":"FEW","base":10000}]},{"icaoId":"KSBA","receiptTime":"2026-04-12T10:56:25.593Z","obsTime":1775991180,"reportTime":"2026-04-12T11:00:00.000Z","temp":13.9,"dewp":13.3,"wdir":0,"wspd":0,"visib":"10+","altim":1012.6,"slp":1012.4,"qcField":14,"precip":0.005,"metarType":"METAR","rawOb":"METAR KSBA 121053Z AUTO 00000KT 10SM FEW014 BKN060 OVC075 14/13 A2990 RMK AO2 RAE11B38E50 SLP124 P0000 T01390133 $","lat":34.4241,"lon":-119.8425,"elev":2,"name":"Santa Barbara Muni, CA, US","cover":"OVC","clouds":[{"cover":"FEW","base":1400},{"cover":"BKN","base":6000},{"cover":"OVC","base":7500}],"fltCat":"VFR"},{"icaoId":"KMYF","receiptTime":"2026-04-12T10:56:19.664Z","obsTime":1775991180,"reportTime":"2026-04-12T11:00:00.000Z","temp":13.3,"dewp":11.1,"wdir":120,"wspd":3,"visib":"10+","altim":1014.6,"slp":1014.3,"qcField":6,"metarType":"METAR","rawOb":"METAR KMYF 121053Z AUTO 12003KT 10SM FEW050 13/11 A2996 RMK AO2 SLP143 T01330111","lat":32.8145,"lon":-117.1375,"elev":128,"name":"San Diego/Montgomery Arpt, CA, US","cover":"FEW","clouds":[{"cover":"FEW","base":5000}],"fltCat":"VFR"},{"icaoId":"KOAK","receiptTime":"2026-04-12T10:56:19.692Z","obsTime":1775991180,"reportTime":"2026-04-12T11:00:00.000Z","temp":12.2,"dewp":8.3,"wdir":210,"wspd":14,"visib":"10+","altim":1009.2,"slp":1009.1,"qcField":12,"precip":0.005,"metarType":"METAR","rawOb":"METAR KOAK 121053Z 21014KT 10SM SCT020 BKN029 BKN040 12/08 A2980 RMK AO2 RAB09E18 SLP091 P0000 T01220083 $","lat":37.7178,"lon":-122.233,"elev":3,"name":"Oakland Intl, CA, US","cover":"BKN","clouds":[{"cover":"SCT","base":2000},{"cover":"BKN","base":2900},{"cover":"BKN","base":4000}],"fltCat":"MVFR"},{"icaoId":"KGJT","receiptTime":"2026-04-12T10:56:26.237Z","obsTime":1775991180,"reportTime":"2026-04-12T11:00:00.000Z","temp":10,"dewp":-2.8,"wdir":90,"wspd":11,"visib":"10+","altim":1010.9,"slp":1007.2,"qcField":4,"metarType":"METAR","rawOb":"METAR KGJT 121053Z 09011KT 10SM CLR 10/M03 A2985 RMK AO2 SLP072 T01001028","lat":39.1344,"lon":-108.5408,"elev":1475,"name":"Grand Junction Rgnl, CO, US","cover":"CLR","clouds":[],"fltCat":"VFR"},{"icaoId":"KHOU","receiptTime":"2026-04-12T10:56:21.506Z","obsTime":1775991180,"reportTime":"2026-04-12T11:00:00.000Z","temp":22.2,"dewp":20.6,"wdir":150,"wspd":8,"visib":7,"altim":1018.4,"slp":1018.9,"qcField":12,"precip":0.005,"metarType":"METAR","rawOb":"METAR KHOU 121053Z 15008KT 7SM SCT015 SCT040 BKN055 22/21 A3007 RMK AO2 RAB0959E17 SLP189 P0000 T02220206 $","lat":29.6458,"lon":-95.2821,"elev":13,"name":"Houston/Hobby Arpt, TX, US","cover":"BKN","clouds":[{"cover":"SCT","base":1500},{"cover":"SCT","base":4000},{"cover":"BKN","base":5500}],"fltCat":"VFR"},{"icaoId":"KFUL","receiptTime":"2026-04-12T10:56:22.190Z","obsTime":1775991180,"reportTime":"2026-04-12T11:00:00.000Z","temp":16.1,"dewp":12.2,"wdir":140,"wspd":4,"visib":"10+","altim":1013.6,"slp":1013.3,"qcField":6,"metarType":"METAR","rawOb":"METAR KFUL 121053Z AUTO 14004KT 10SM OVC070 16/12 A2993 RMK AO2 SLP133 T01610122","lat":33.8715,"lon":-117.9856,"elev":23,"name":"Fullerton Muni, CA, US","cover":"OVC","clouds":[{"cover":"OVC","base":7000}],"fltCat":"VFR"},{"icaoId":"KASE","receiptTime":"2026-04-12T10:56:31.248Z","obsTime":1775991180,"reportTime":"2026-04-12T11:00:00.000Z","temp":3.9,"dewp":-4.4,"wdir":180,"wspd":4,"visib":"10+","altim":1015,"slp":1007,"qcField":6,"metarType":"METAR","rawOb":"METAR KASE 121053Z AUTO 18004KT 10SM BKN085 04/M04 A2997 RMK AO2 SLP070 T00391044","lat":39.2299,"lon":-106.8705,"elev":2384,"name":"Aspen/Pitkin Cnty, CO, US","cover":"BKN","clouds":[{"cover":"BKN","base":8500}],"fltCat":"VFR"},{"icaoId":"KMIA","receiptTime":"2026-04-12T11:02:16.859Z","obsTime":1775991180,"reportTime":"2026-04-12T11:00:00.000Z","temp":22.2,"dewp":15,"wdir":70,"wspd":9,"wgst":17,"visib":"10+","altim":1022.4,"slp":1022.1,"qcField":4,"metarType":"METAR","rawOb":"METAR KMIA 121053Z 07009G17KT 10SM SCT046 22/15 A3019 RMK AO2 SLP221 T02220150","lat":25.7881,"lon":-80.3169,"elev":1,"name":"Miami Intl, FL, US","cover":"SCT","clouds":[{"cover":"SCT","base":4600}],"fltCat":"VFR"},{"icaoId":"KAUS","receiptTime":"2026-04-12T10:56:23.925Z","obsTime":1775991180,"reportTime":"2026-04-12T11:00:00.000Z","temp":21.7,"dewp":20,"wdir":130,"wspd":6,"visib":8,"altim":1017.4,"slp":1016.3,"qcField":4,"wxString":"-RA","precip":0.005,"metarType":"METAR","rawOb":"METAR KAUS 121053Z 13006KT 8SM -RA OVC012 22/20 A3004 RMK AO2 RAB27 SLP163 P0000 T02170200","lat":30.1831,"lon":-97.6806,"elev":148,"name":"Austin/Bergstrom Intl, TX, US","cover":"OVC","clouds":[{"cover":"OVC","base":1200}],"fltCat":"MVFR"},{"icaoId":"KBRO","receiptTime":"2026-04-12T10:56:24.019Z","obsTime":1775991180,"reportTime":"2026-04-12T11:00:00.000Z","temp":25,"dewp":22.8,"wdir":140,"wspd":12,"visib":"10+","altim":1015.7,"slp":1015.5,"qcField":4,"metarType":"METAR","rawOb":"METAR KBRO 121053Z 14012KT 10SM BKN012 OVC019 25/23 A2999 RMK AO2 SLP155 T02500228","lat":25.9146,"lon":-97.4231,"elev":6,"name":"Brownsville Intl, TX, US","cover":"OVC","clouds":[{"cover":"BKN","base":1200},{"cover":"OVC","base":1900}],"fltCat":"MVFR"},{"icaoId":"KDVT","receiptTime":"2026-04-12T10:56:24.235Z","obsTime":1775991180,"reportTime":"2026-04-12T11:00:00.000Z","temp":16.7,"dewp":-3.9,"wdir":110,"wspd":5,"visib":"10+","altim":1011.6,"slp":1009.4,"qcField":4,"metarType":"METAR","rawOb":"METAR KDVT 121053Z 11005KT 10SM CLR 17/M04 A2987 RMK AO2 SLP094 T01671039","lat":33.6902,"lon":-112.0662,"elev":454,"name":"Phoenix/Deer Valley Arpt, AZ, US","cover":"CLR","clouds":[],"fltCat":"VFR"},{"icaoId":"KLVS","receiptTime":"2026-04-12T10:56:25.793Z","obsTime":1775991180,"reportTime":"2026-04-12T11:00:00.000Z","temp":5,"dewp":2.2,"wdir":160,"wspd":10,"visib":"10+","altim":1017.4,"slp":1011.4,"qcField":14,"metarType":"METAR","rawOb":"METAR KLVS 121053Z AUTO 16010KT 10SM CLR 05/02 A3004 RMK AO2 SLP114 T00500022 PNO $","lat":35.6558,"lon":-105.1385,"elev":2095,"name":"Las Vegas Muni, NM, US","cover":"CLR","clouds":[],"fltCat":"VFR"},{"icaoId":"KMSY","receiptTime":"2026-04-12T10:56:25.818Z","obsTime":1775991180,"reportTime":"2026-04-12T11:00:00.000Z","temp":17.8,"dewp":16.1,"wdir":100,"wspd":8,"visib":"10+","altim":1022.1,"slp":1022.1,"qcField":4,"metarType":"METAR","rawOb":"METAR KMSY 121053Z 10008KT 10SM CLR 18/16 A3018 RMK AO2 SLP221 T01780161","lat":29.9974,"lon":-90.2777,"elev":0,"name":"New Orleans/Armstrong Intl, LA, US","cover":"CLR","clouds":[],"fltCat":"VFR"},{"icaoId":"KIAH","receiptTime":"2026-04-12T10:56:27.441Z","obsTime":1775991180,"reportTime":"2026-04-12T11:00:00.000Z","temp":21.7,"dewp":20.6,"wdir":160,"wspd":6,"visib":7,"altim":1019,"slp":1019,"qcField":4,"precip":0.005,"metarType":"METAR","rawOb":"METAR KIAH 121053Z 16006KT 7SM SCT019 BKN030 OVC060 22/21 A3009 RMK AO2 RAB11E23 SLP190 P0000 T02170206","lat":29.9844,"lon":-95.3607,"elev":27,"name":"Houston/Bush Intl, TX, US","cover":"OVC","clouds":[{"cover":"SCT","base":1900},{"cover":"BKN","base":3000},{"cover":"OVC","base":6000}],"fltCat":"MVFR"},{"icaoId":"KMAF","receiptTime":"2026-04-12T10:56:27.698Z","obsTime":1775991180,"reportTime":"2026-04-12T11:00:00.000Z","temp":14.4,"dewp":13.9,"wdir":170,"wspd":11,"visib":8,"altim":1016,"slp":1013,"qcField":4,"metarType":"METAR","rawOb":"METAR KMAF 121053Z 17011KT 8SM BKN005 14/14 A3000 RMK AO2 SLP130 T01440139","lat":31.9475,"lon":-102.2086,"elev":874,"name":"Midland Intl, TX, US","cover":"BKN","clouds":[{"cover":"BKN","base":500}],"fltCat":"IFR"},{"icaoId":"KMCO","receiptTime":"2026-04-12T10:56:27.772Z","obsTime":1775991180,"reportTime":"2026-04-12T11:00:00.000Z","temp":15.6,"dewp":13.3,"wdir":10,"wspd":5,"visib":"10+","altim":1025.1,"slp":1024.9,"qcField":4,"metarType":"METAR","rawOb":"METAR KMCO 121053Z 01005KT 10SM FEW044 16/13 A3027 RMK AO2 SLP249 T01560133","lat":28.4182,"lon":-81.3241,"elev":27,"name":"Orlando Intl, FL, US","cover":"FEW","clouds":[{"cover":"FEW","base":4400}],"fltCat":"VFR"},{"icaoId":"KMDW","receiptTime":"2026-04-12T10:56:27.802Z","obsTime":1775991180,"reportTime":"2026-04-12T11:00:00.000Z","temp":15,"dewp":9.4,"wdir":190,"wspd":12,"wgst":25,"visib":"10+","altim":1016.7,"slp":1016.5,"qcField":4,"metarType":"METAR","rawOb":"METAR KMDW 121053Z 19012G25KT 10SM FEW090 SCT250 15/09 A3002 RMK AO2 SLP165 T01500094","lat":41.7841,"lon":-87.7552,"elev":186,"name":"Chicago/Midway Intl, IL, US","cover":"SCT","clouds":[{"cover":"FEW","base":9000},{"cover":"SCT","base":25000}],"fltCat":"VFR"},{"icaoId":"KMFE","receiptTime":"2026-04-12T10:56:27.815Z","obsTime":1775991180,"reportTime":"2026-04-12T11:00:00.000Z","temp":24.4,"dewp":22.2,"wdir":150,"wspd":13,"visib":"10+","altim":1014.6,"slp":1014.4,"qcField":12,"metarType":"METAR","rawOb":"METAR KMFE 121053Z 15013KT 10SM OVC011 24/22 A2996 RMK AO2 SLP144 T02440222 $","lat":26.1791,"lon":-98.2445,"elev":29,"name":"McAllen/Miller Intl, TX, US","cover":"OVC","clouds":[{"cover":"OVC","base":1100}],"fltCat":"MVFR"},{"icaoId":"KPGA","receiptTime":"2026-04-12T10:56:28.467Z","obsTime":1775991180,"reportTime":"2026-04-12T11:00:00.000Z","temp":13.3,"dewp":-9.4,"wdir":170,"wspd":7,"visib":"10+","altim":1011.9,"slp":1006.8,"qcField":14,"metarType":"METAR","rawOb":"METAR KPGA 121053Z AUTO 17007KT 10SM CLR 13/M09 A2988 RMK AO2 SLP068 T01331094 $","lat":36.9211,"lon":-111.4487,"elev":1310,"name":"Page Muni, AZ, US","cover":"CLR","clouds":[],"fltCat":"VFR"},{"icaoId":"KSNA","receiptTime":"2026-04-12T10:56:28.722Z","obsTime":1775991180,"reportTime":"2026-04-12T11:00:00.000Z","temp":16.1,"dewp":12.2,"wdir":130,"wspd":4,"visib":"10+","altim":1014,"slp":1013.6,"qcField":14,"metarType":"METAR","rawOb":"METAR KSNA 121053Z AUTO 13004KT 10SM OVC065 16/12 A2994 RMK AO2 SLP136 T01610122 $","lat":33.6798,"lon":-117.8675,"elev":14,"name":"Santa Ana/Wayne Arpt, CA, US","cover":"OVC","clouds":[{"cover":"OVC","base":6500}],"fltCat":"VFR"},{"icaoId":"PANC","receiptTime":"2026-04-12T10:56:29.589Z","obsTime":1775991180,"reportTime":"2026-04-12T11:00:00.000Z","temp":0,"dewp":-0.6,"wdir":190,"wspd":4,"visib":2,"altim":1006.9,"slp":1006.8,"qcField":12,"wxString":"-SN BR","precip":0.02,"metarType":"METAR","rawOb":"METAR PANC 121053Z 19004KT 2SM -SN BR FEW005 BKN016 OVC027 00/M01 A2973 RMK AO2 SLP068 P0002 T00001006 $","lat":61.1691,"lon":-150.0277,"elev":39,"name":"Anchorage Intl, AK, US","cover":"OVC","clouds":[{"cover":"FEW","base":500},{"cover":"BKN","base":1600},{"cover":"OVC","base":2700}],"fltCat":"IFR"},{"icaoId":"KDFW","receiptTime":"2026-04-12T10:56:29.986Z","obsTime":1775991180,"reportTime":"2026-04-12T11:00:00.000Z","temp":20,"dewp":17.8,"wdir":170,"wspd":14,"wgst":23,"visib":"10+","altim":1014,"slp":1013,"qcField":4,"wxString":"-RA","precip":0.04,"metarType":"METAR","rawOb":"METAR KDFW 121053Z 17014G23KT 10SM -RA FEW013 FEW050 BKN110 OVC150 20/18 A2994 RMK AO2 PK WND 17032/1020 SLP130 P0004 T02000178","lat":32.8974,"lon":-97.022,"elev":168,"name":"Dallas-Ft Worth Intl, TX, US","cover":"OVC","clouds":[{"cover":"FEW","base":1300},{"cover":"FEW","base":5000},{"cover":"BKN","base":11000},{"cover":"OVC","base":15000}],"fltCat":"VFR"},{"icaoId":"KDRO","receiptTime":"2026-04-12T10:56:30.115Z","obsTime":1775991180,"reportTime":"2026-04-12T11:00:00.000Z","temp":-0.6,"dewp":-3.3,"wdir":80,"wspd":5,"visib":"10+","altim":1017.4,"slp":1014.2,"qcField":6,"metarType":"METAR","rawOb":"METAR KDRO 121053Z AUTO 08005KT 10SM CLR M01/M03 A3004 RMK AO2 SLP142 T10061033","lat":37.1431,"lon":-107.7602,"elev":2021,"name":"Durango/La Plata Cnty, CO, US","cover":"CLR","clouds":[],"fltCat":"VFR"},{"icaoId":"KAMA","receiptTime":"2026-04-12T10:56:31.078Z","obsTime":1775991180,"reportTime":"2026-04-12T11:00:00.000Z","temp":12.8,"dewp":11.7,"wdir":180,"wspd":9,"visib":"10+","altim":1013.3,"slp":1009.4,"qcField":4,"metarType":"METAR","rawOb":"METAR KAMA 121053Z 18009KT 10SM CLR 13/12 A2992 RMK AO2 SLP094 T01280117","lat":35.2203,"lon":-101.7173,"elev":1102,"name":"Amarillo Intl Arpt, TX, US","cover":"CLR","clouds":[],"fltCat":"VFR"},{"icaoId":"KAPA","receiptTime":"2026-04-12T10:56:31.174Z","obsTime":1775991180,"reportTime":"2026-04-12T11:00:00.000Z","temp":8.3,"dewp":-6.1,"wdir":190,"wspd":7,"visib":"10+","altim":1010.9,"slp":1006,"qcField":4,"metarType":"METAR","rawOb":"METAR KAPA 121053Z 19007KT 10SM CLR 08/M06 A2985 RMK AO2 SLP060 T00831061","lat":39.5599,"lon":-104.8484,"elev":1791,"name":"Denver/Centennial Arpt, CO, US","cover":"CLR","clouds":[],"fltCat":"VFR"},{"icaoId":"KCLL","receiptTime":"2026-04-12T10:56:28.012Z","obsTime":1775991180,"reportTime":"2026-04-12T11:00:00.000Z","temp":21.1,"dewp":19.4,"wdir":130,"wspd":4,"visib":"10+","altim":1018.7,"slp":1018.1,"qcField":6,"metarType":"METAR","rawOb":"METAR KCLL 121053Z AUTO 13004KT 10SM OVC014 21/19 A3008 RMK AO2 SLP181 T02110194","lat":30.5912,"lon":-96.3631,"elev":96,"name":"College Station/Easterwood Arpt, TX, US","cover":"OVC","clouds":[{"cover":"OVC","base":1400}],"fltCat":"MVFR"},{"icaoId":"KCNM","receiptTime":"2026-04-12T10:56:30.463Z","obsTime":1775991180,"reportTime":"2026-04-12T11:00:00.000Z","temp":13.9,"dewp":12.2,"wdir":0,"wspd":0,"visib":"10+","altim":1015.3,"slp":1011.5,"qcField":6,"metarType":"METAR","rawOb":"METAR KCNM 121053Z AUTO 00000KT 10SM CLR 14/12 A2998 RMK AO2 SLP115 T01390122","lat":32.3336,"lon":-104.2584,"elev":993,"name":"Carlsbad/Cavern City Air Term, NM, US","cover":"CLR","clouds":[],"fltCat":"VFR"},{"icaoId":"KDTW","receiptTime":"2026-04-12T10:56:26.324Z","obsTime":1775991180,"reportTime":"2026-04-12T11:00:00.000Z","temp":6.7,"dewp":-2.2,"wdir":130,"wspd":6,"visib":"10+","altim":1023.5,"slp":1023.6,"qcField":4,"metarType":"METAR","rawOb":"METAR KDTW 121053Z 13006KT 10SM FEW050 BKN070 OVC090 07/M02 A3022 RMK AO2 SLP236 T00671022","lat":42.2311,"lon":-83.3312,"elev":192,"name":"Detroit/Metro Wayne Cnty, MI, US","cover":"OVC","clouds":[{"cover":"FEW","base":5000},{"cover":"BKN","base":7000},{"cover":"OVC","base":9000}],"fltCat":"VFR"},{"icaoId":"KFAT","receiptTime":"2026-04-12T10:56:28.176Z","obsTime":1775991180,"reportTime":"2026-04-12T11:00:00.000Z","temp":11.1,"dewp":9.4,"wdir":50,"wspd":7,"visib":"10+","altim":1011.9,"slp":1011.7,"qcField":12,"precip":0.005,"metarType":"METAR","rawOb":"METAR KFAT 121053Z 05007KT 10SM FEW038 SCT049 BKN110 11/09 A2988 RMK AO2 RAE20 SLP117 P0000 T01110094 $","lat":36.78,"lon":-119.7202,"elev":102,"name":"Fresno/Yosemite Intl, CA, US","cover":"BKN","clouds":[{"cover":"FEW","base":3800},{"cover":"SCT","base":4900},{"cover":"BKN","base":11000}],"fltCat":"VFR"},{"icaoId":"KGEG","receiptTime":"2026-04-12T10:56:28.119Z","obsTime":1775991180,"reportTime":"2026-04-12T11:00:00.000Z","temp":7.8,"dewp":5.6,"wdir":150,"wspd":6,"visib":"10+","altim":1003.8,"slp":1003.7,"qcField":12,"metarType":"METAR","rawOb":"METAR KGEG 121053Z 15006KT 10SM FEW080 FEW200 08/06 A2964 RMK AO2 SLP037 T00780056 $","lat":47.6217,"lon":-117.528,"elev":718,"name":"Spokane Intl, WA, US","cover":"FEW","clouds":[{"cover":"FEW","base":8000},{"cover":"FEW","base":20000}],"fltCat":"VFR"},{"icaoId":"KLAX","receiptTime":"2026-04-12T10:56:28.332Z","obsTime":1775991180,"reportTime":"2026-04-12T11:00:00.000Z","temp":16.1,"dewp":11.7,"wdir":150,"wspd":6,"visib":"10+","altim":1013.6,"slp":1013.3,"qcField":12,"metarType":"METAR","rawOb":"METAR KLAX 121053Z 15006KT 10SM FEW018 BKN030 BKN065 16/12 A2993 RMK AO2 SLP133 T01610117 $","lat":33.9382,"lon":-118.3866,"elev":30,"name":"Los Angeles Intl, CA, US","cover":"BKN","clouds":[{"cover":"FEW","base":1800},{"cover":"BKN","base":3000},{"cover":"BKN","base":6500}],"fltCat":"MVFR"},{"icaoId":"KLGB","receiptTime":"2026-04-12T10:56:20.519Z","obsTime":1775991180,"reportTime":"2026-04-12T11:00:00.000Z","temp":16.7,"dewp":11.7,"wdir":160,"wspd":6,"visib":"10+","altim":1013.3,"slp":1013.2,"qcField":14,"metarType":"METAR","rawOb":"METAR KLGB 121053Z AUTO 16006KT 10SM OVC065 17/12 A2992 RMK AO2 SLP132 T01670117 $","lat":33.8118,"lon":-118.1472,"elev":10,"name":"Long Beach Arpt, CA, US","cover":"OVC","clouds":[{"cover":"OVC","base":6500}],"fltCat":"VFR"},{"icaoId":"KCRQ","receiptTime":"2026-04-12T10:56:29.828Z","obsTime":1775991180,"reportTime":"2026-04-12T11:00:00.000Z","temp":15,"dewp":12.2,"wdir":170,"wspd":3,"visib":"10+","altim":1014.3,"slp":1013.8,"qcField":6,"metarType":"METAR","rawOb":"METAR KCRQ 121053Z AUTO 17003KT 10SM FEW050 15/12 A2995 RMK AO2 SLP138 T01500122","lat":33.1299,"lon":-117.2765,"elev":96,"name":"Carlsbad/Palomar Arpt, CA, US","cover":"FEW","clouds":[{"cover":"FEW","base":5000}],"fltCat":"VFR"},{"icaoId":"KDAL","receiptTime":"2026-04-12T10:56:29.869Z","obsTime":1775991180,"reportTime":"2026-04-12T11:00:00.000Z","temp":20,"dewp":18.3,"wdir":150,"wspd":15,"wgst":24,"visib":"10+","altim":1014.3,"slp":1013.6,"qcField":4,"wxString":"-RA","precip":0.05,"metarType":"METAR","rawOb":"METAR KDAL 121053Z 15015G24KT 10SM -RA FEW012 BKN110 20/18 A2995 RMK AO2 PK WND 15031/1013 SLP136 P0005 T02000183","lat":32.8384,"lon":-96.8358,"elev":148,"name":"Dallas/Love Fld, TX, US","cover":"BKN","clouds":[{"cover":"FEW","base":1200},{"cover":"BKN","base":11000}],"fltCat":"VFR"},{"icaoId":"KDMN","receiptTime":"2026-04-12T10:56:29.896Z","obsTime":1775991180,"reportTime":"2026-04-12T11:00:00.000Z","temp":10.6,"dewp":1.7,"wdir":0,"wspd":0,"visib":"10+","altim":1018,"slp":1012,"qcField":6,"metarType":"METAR","rawOb":"METAR KDMN 121053Z AUTO 00000KT 10SM FEW095 SCT110 11/02 A3006 RMK AO2 SLP120 T01060017","lat":32.2592,"lon":-107.7206,"elev":1310,"name":"Deming Muni, NM, US","cover":"SCT","clouds":[{"cover":"FEW","base":9500},{"cover":"SCT","base":11000}],"fltCat":"VFR"},{"icaoId":"KVGT","receiptTime":"2026-04-12T10:56:29.217Z","obsTime":1775991180,"reportTime":"2026-04-12T11:00:00.000Z","temp":16.7,"dewp":0.6,"wdir":170,"wspd":8,"visib":"10+","altim":1007.9,"slp":1008,"qcField":4,"metarType":"METAR","rawOb":"METAR KVGT 121053Z 17008KT 10SM CLR 17/01 A2976 RMK AO2 SLP080 T01670006","lat":36.212,"lon":-115.194,"elev":664,"name":"Las Vegas/North Arpt, NV, US","cover":"CLR","clouds":[],"fltCat":"VFR"},{"icaoId":"KSJC","receiptTime":"2026-04-12T10:56:19.592Z","obsTime":1775991180,"reportTime":"2026-04-12T11:00:00.000Z","temp":10.6,"dewp":9.4,"wdir":130,"wspd":7,"visib":"10+","altim":1009.9,"slp":1009.7,"qcField":6,"wxString":"-RA","precip":0.005,"metarType":"METAR","rawOb":"METAR KSJC 121053Z AUTO 13007KT 10SM -RA FEW034 BKN045 OVC080 11/09 A2982 RMK AO2 RAE20B48 SLP097 P0000 T01060094","lat":37.3594,"lon":-121.9244,"elev":13,"name":"San Jose Intl Arpt, CA, US","cover":"OVC","clouds":[{"cover":"FEW","base":3400},{"cover":"BKN","base":4500},{"cover":"OVC","base":8000}],"fltCat":"VFR"},{"icaoId":"KSEA","receiptTime":"2026-04-12T10:56:28.563Z","obsTime":1775991180,"reportTime":"2026-04-12T11:00:00.000Z","temp":8.3,"dewp":7.8,"wdir":10,"wspd":6,"visib":0.25,"altim":1004.8,"slp":1005.4,"qcField":4,"wxString":"FG","vertVis":1,"metarType":"METAR","rawOb":"METAR KSEA 121053Z 01006KT 1/4SM R16L/1800V2600FT FG VV001 08/08 A2967 RMK AO2 SLP054 T00830078","lat":47.4447,"lon":-122.3144,"elev":115,"name":"Seattle-Tacoma Intl, WA, US","cover":"OVX","clouds":[{"cover":"OVX","base":100}],"fltCat":"LIFR"},{"icaoId":"KSMF","receiptTime":"2026-04-12T10:56:28.696Z","obsTime":1775991180,"reportTime":"2026-04-12T11:00:00.000Z","temp":10.6,"dewp":8.3,"wdir":160,"wspd":12,"visib":"10+","altim":1008.5,"slp":1008.2,"qcField":12,"metarType":"METAR","rawOb":"METAR KSMF 121053Z 16012KT 10SM BKN037 BKN210 11/08 A2978 RMK AO2 SLP082 T01060083 $","lat":38.7007,"lon":-121.5948,"elev":7,"name":"Sacramento Intl, CA, US","cover":"BKN","clouds":[{"cover":"BKN","base":3700},{"cover":"BKN","base":21000}],"fltCat":"VFR"},{"icaoId":"KPBI","receiptTime":"2026-04-12T10:56:25.922Z","obsTime":1775991180,"reportTime":"2026-04-12T11:00:00.000Z","temp":22.2,"dewp":12.8,"wdir":70,"wspd":10,"visib":"10+","altim":1023.5,"slp":1023.1,"qcField":12,"metarType":"METAR","rawOb":"METAR KPBI 121053Z 07010KT 10SM BKN043 22/13 A3022 RMK AO2 SLP231 T02220128 $","lat":26.6851,"lon":-80.0992,"elev":4,"name":"Palm Beach Intl, FL, US","cover":"BKN","clouds":[{"cover":"BKN","base":4300}],"fltCat":"VFR"},{"icaoId":"KMLF","receiptTime":"2026-04-12T10:56:15.552Z","obsTime":1775991120,"reportTime":"2026-04-12T11:00:00.000Z","temp":6.7,"dewp":-5,"wdir":200,"wspd":11,"visib":"10+","altim":1009.2,"slp":1005.2,"qcField":6,"metarType":"METAR","rawOb":"METAR KMLF 121052Z AUTO 20011KT 10SM CLR 07/M05 A2980 RMK AO2 SLP052 T00671050","lat":38.4225,"lon":-113.0109,"elev":1537,"name":"Milford Muni, UT, US","cover":"CLR","clouds":[],"fltCat":"VFR"},{"icaoId":"KMKE","receiptTime":"2026-04-12T10:56:25.326Z","obsTime":1775991120,"reportTime":"2026-04-12T11:00:00.000Z","temp":10.6,"dewp":6.1,"wdir":190,"wspd":9,"visib":"10+","altim":1014,"slp":1014.2,"qcField":4,"metarType":"METAR","rawOb":"METAR KMKE 121052Z 19009KT 10SM BKN130 11/06 A2994 RMK AO2 SLP142 T01060061","lat":42.9549,"lon":-87.9045,"elev":203,"name":"Milwaukee/Mitchell Intl, WI, US","cover":"BKN","clouds":[{"cover":"BKN","base":13000}],"fltCat":"VFR"},{"icaoId":"KCVG","receiptTime":"2026-04-12T10:56:24.900Z","obsTime":1775991120,"reportTime":"2026-04-12T11:00:00.000Z","temp":10.6,"dewp":5,"wdir":160,"wspd":5,"visib":"10+","altim":1023.1,"slp":1022.5,"qcField":12,"metarType":"METAR","rawOb":"METAR KCVG 121052Z 16005KT 10SM BKN250 11/05 A3021 RMK AO2 SLP225 T01060050 $","lat":39.0444,"lon":-84.6724,"elev":264,"name":"Cincinnati Intl, KY, US","cover":"BKN","clouds":[{"cover":"BKN","base":25000}],"fltCat":"VFR"},{"icaoId":"KABI","receiptTime":"2026-04-12T10:56:16.000Z","obsTime":1775991120,"reportTime":"2026-04-12T11:00:00.000Z","temp":17.2,"dewp":16.1,"wdir":210,"wspd":11,"visib":"10+","altim":1015.3,"slp":1013.5,"qcField":12,"metarType":"METAR","rawOb":"METAR KABI 121052Z 21011KT 10SM SCT011 17/16 A2998 RMK AO2 SLP135 T01720161 $","lat":32.4106,"lon":-99.6821,"elev":543,"name":"Abilene Rgnl, TX, US","cover":"SCT","clouds":[{"cover":"SCT","base":1100}],"fltCat":"VFR"},{"icaoId":"KCLT","receiptTime":"2026-04-12T10:56:18.786Z","obsTime":1775991120,"reportTime":"2026-04-12T11:00:00.000Z","temp":11.7,"dewp":10,"wdir":350,"wspd":5,"visib":9,"altim":1026.5,"slp":1027.2,"qcField":4,"metarType":"METAR","rawOb":"METAR KCLT 121052Z 35005KT 9SM FEW090 FEW250 12/10 A3031 RMK AO2 SLP272 T01170100","lat":35.2225,"lon":-80.9543,"elev":223,"name":"Charlotte/Douglas Intl, NC, US","cover":"FEW","clouds":[{"cover":"FEW","base":9000},{"cover":"FEW","base":25000}],"fltCat":"VFR"},{"icaoId":"KDCA","receiptTime":"2026-04-12T10:56:24.944Z","obsTime":1775991120,"reportTime":"2026-04-12T11:00:00.000Z","temp":10,"dewp":5.6,"wdir":50,"wspd":7,"visib":"10+","altim":1030.9,"slp":1030.8,"qcField":4,"metarType":"METAR","rawOb":"METAR KDCA 121052Z 05007KT 10SM SCT075 SCT250 10/06 A3044 RMK AO2 SLP308 T01000056","lat":38.8472,"lon":-77.0345,"elev":4,"name":"Washington/Reagan-National Arpt, VA, US","cover":"SCT","clouds":[{"cover":"SCT","base":7500},{"cover":"SCT","base":25000}],"fltCat":"VFR"},{"icaoId":"KABQ","receiptTime":"2026-04-12T10:56:16.012Z","obsTime":1775991120,"reportTime":"2026-04-12T11:00:00.000Z","temp":10,"dewp":4.4,"wdir":170,"wspd":7,"visib":"10+","altim":1017.4,"slp":1011.6,"qcField":12,"metarType":"METAR","rawOb":"METAR KABQ 121052Z 17007KT 10SM FEW120 10/04 A3004 RMK AO2 SLP116 T01000044 $","lat":35.0419,"lon":-106.6154,"elev":1620,"name":"Albuquerque Intl, NM, US","cover":"FEW","clouds":[{"cover":"FEW","base":12000}],"fltCat":"VFR"},{"icaoId":"KOKC","receiptTime":"2026-04-12T10:56:16.072Z","obsTime":1775991120,"reportTime":"2026-04-12T11:00:00.000Z","temp":18.3,"dewp":17.8,"wdir":150,"wspd":14,"visib":5,"altim":1012.6,"slp":1011.2,"qcField":4,"wxString":"RA BR","precip":0.13,"metarType":"METAR","rawOb":"METAR KOKC 121052Z 15014KT 5SM RA BR SCT007 BKN012 OVC044 18/18 A2990 RMK AO2 SLP112 P0013 T01830178","lat":35.3843,"lon":-97.6003,"elev":391,"name":"Oklahoma City/Will Rogers Intl, OK, US","cover":"OVC","clouds":[{"cover":"SCT","base":700},{"cover":"BKN","base":1200},{"cover":"OVC","base":4400}],"fltCat":"MVFR"},{"icaoId":"KSPS","receiptTime":"2026-04-12T10:56:16.098Z","obsTime":1775991120,"reportTime":"2026-04-12T11:00:00.000Z","temp":18.3,"dewp":17.2,"wdir":210,"wspd":18,"wgst":26,"visib":"10+","altim":1013,"slp":1011.8,"qcField":6,"wxString":"-RA","precip":0.01,"metarType":"METAR","rawOb":"METAR KSPS 121052Z AUTO 21018G26KT 10SM -RA BKN009 OVC013 18/17 A2991 RMK AO2 PK WND 20028/1026 RAB0957 SLP118 P0001 T01830172","lat":33.9785,"lon":-98.493,"elev":310,"name":"Wichita Falls Rgnl, TX, US","cover":"OVC","clouds":[{"cover":"BKN","base":900},{"cover":"OVC","base":1300}],"fltCat":"IFR"},{"icaoId":"KATL","receiptTime":"2026-04-12T10:56:16.114Z","obsTime":1775991120,"reportTime":"2026-04-12T11:00:00.000Z","temp":13.9,"dewp":8.3,"wdir":140,"wspd":8,"wgst":15,"visib":"10+","altim":1025.1,"slp":1024.3,"qcField":12,"metarType":"METAR","rawOb":"METAR KATL 121052Z 14008G15KT 10SM FEW250 14/08 A3027 RMK AO2 SLP243 T01390083 $","lat":33.6297,"lon":-84.4422,"elev":309,"name":"Atlanta/Hartsfield-Jackson Intl, GA, US","cover":"FEW","clouds":[{"cover":"FEW","base":25000}],"fltCat":"VFR"},{"icaoId":"KHRL","receiptTime":"2026-04-12T10:56:25.151Z","obsTime":1775991120,"reportTime":"2026-04-12T11:00:00.000Z","temp":23.9,"dewp":22.2,"wdir":140,"wspd":14,"visib":"10+","altim":1015,"slp":1014.8,"qcField":4,"metarType":"METAR","rawOb":"METAR KHRL 121052Z 14014KT 10SM FEW031 24/22 A2997 RMK AO2 SLP148 T02390222","lat":26.2303,"lon":-97.6556,"elev":9,"name":"Harlingen/Valley Intl, TX, US","cover":"FEW","clouds":[{"cover":"FEW","base":3100}],"fltCat":"VFR"},{"icaoId":"KIAD","receiptTime":"2026-04-12T10:56:25.182Z","obsTime":1775991120,"reportTime":"2026-04-12T11:00:00.000Z","temp":7.8,"dewp":5.6,"wdir":90,"wspd":5,"visib":"10+","altim":1030.2,"slp":1030.2,"qcField":12,"metarType":"METAR","rawOb":"METAR KIAD 121052Z 09005KT 10SM FEW065 FEW150 SCT250 08/06 A3042 RMK AO2 SLP302 T00780056 $","lat":38.9348,"lon":-77.4473,"elev":90,"name":"Washington/Dulles Intl, VA, US","cover":"SCT","clouds":[{"cover":"FEW","base":6500},{"cover":"FEW","base":15000},{"cover":"SCT","base":25000}],"fltCat":"VFR"},{"icaoId":"KJFK","receiptTime":"2026-04-12T10:54:08.165Z","obsTime":1775991060,"reportTime":"2026-04-12T11:00:00.000Z","temp":5,"dewp":-2.2,"wdir":360,"wspd":6,"visib":"10+","altim":1033.3,"slp":1033.2,"qcField":4,"metarType":"METAR","rawOb":"METAR KJFK 121051Z 36006KT 10SM FEW250 05/M02 A3051 RMK AO2 SLP332 T00501022","lat":40.6392,"lon":-73.7639,"elev":3,"name":"New York/JF Kennedy Intl, NY, US","cover":"FEW","clouds":[{"cover":"FEW","base":25000}],"fltCat":"VFR"},{"icaoId":"KLGU","receiptTime":"2026-04-12T10:54:08.201Z","obsTime":1775991060,"reportTime":"2026-04-12T11:00:00.000Z","temp":2.2,"dewp":1.7,"wdir":0,"wspd":0,"visib":"10+","altim":1007.5,"slp":1006.2,"qcField":6,"metarType":"METAR","rawOb":"METAR KLGU 121051Z AUTO 00000KT 10SM CLR 02/02 A2975 RMK AO2 SLP062 T00220017","lat":41.7865,"lon":-111.8519,"elev":1359,"name":"Logan/Cache Arpt, UT, US","cover":"CLR","clouds":[],"fltCat":"VFR"},{"icaoId":"KORF","receiptTime":"2026-04-12T10:54:08.314Z","obsTime":1775991060,"reportTime":"2026-04-12T11:00:00.000Z","temp":11.7,"dewp":7.8,"wdir":120,"wspd":3,"visib":"10+","altim":1030.6,"slp":1030.4,"qcField":4,"metarType":"METAR","rawOb":"METAR KORF 121051Z 12003KT 10SM BKN065 12/08 A3043 RMK AO2 SLP304 T01170078","lat":36.9037,"lon":-76.1927,"elev":5,"name":"Norfolk Intl, VA, US","cover":"BKN","clouds":[{"cover":"BKN","base":6500}],"fltCat":"VFR"},{"icaoId":"KROW","receiptTime":"2026-04-12T10:54:08.469Z","obsTime":1775991060,"reportTime":"2026-04-12T11:00:00.000Z","temp":12.2,"dewp":10,"wdir":190,"wspd":8,"visib":"10+","altim":1014.6,"slp":1009.9,"qcField":14,"metarType":"METAR","rawOb":"METAR KROW 121051Z AUTO 19008KT 10SM CLR 12/10 A2996 RMK AO2 SLP099 T01220100 $","lat":33.3074,"lon":-104.5082,"elev":1105,"name":"Roswell/Ind Arpt, NM, US","cover":"CLR","clouds":[],"fltCat":"VFR"},{"icaoId":"KSAT","receiptTime":"2026-04-12T10:54:09.409Z","obsTime":1775991060,"reportTime":"2026-04-12T11:00:00.000Z","temp":21.7,"dewp":20.6,"wdir":160,"wspd":9,"visib":5,"altim":1017,"slp":1015,"qcField":4,"wxString":"-RA BR","precip":0.04,"metarType":"METAR","rawOb":"METAR KSAT 121051Z 16009KT 5SM -RA BR OVC007 22/21 A3003 RMK AO2 LTG DSNT SE SLP150 P0004 T02170206","lat":29.5443,"lon":-98.4839,"elev":246,"name":"San Antonio Intl, TX, US","cover":"OVC","clouds":[{"cover":"OVC","base":700}],"fltCat":"IFR"},{"icaoId":"KCMH","receiptTime":"2026-04-12T10:54:09.721Z","obsTime":1775991060,"reportTime":"2026-04-12T11:00:00.000Z","temp":10,"dewp":1.7,"wdir":140,"wspd":4,"visib":"10+","altim":1024.1,"slp":1024,"qcField":4,"metarType":"METAR","rawOb":"METAR KCMH 121051Z 14004KT 10SM SCT140 BKN230 10/02 A3024 RMK AO2 SLP240 T01000017","lat":39.9907,"lon":-82.877,"elev":257,"name":"Columbus/Glenn Intl, OH, US","cover":"BKN","clouds":[{"cover":"SCT","base":14000},{"cover":"BKN","base":23000}],"fltCat":"VFR"},{"icaoId":"KEWR","receiptTime":"2026-04-12T10:54:09.880Z","obsTime":1775991060,"reportTime":"2026-04-12T11:00:00.000Z","temp":5,"dewp":-2.8,"wdir":20,"wspd":7,"visib":"10+","altim":1033.3,"slp":1033,"qcField":4,"metarType":"METAR","rawOb":"METAR KEWR 121051Z 02007KT 10SM FEW250 05/M03 A3051 RMK AO2 SLP330 T00501028","lat":40.6828,"lon":-74.1692,"elev":2,"name":"Newark Intl, NJ, US","cover":"FEW","clouds":[{"cover":"FEW","base":25000}],"fltCat":"VFR"},{"icaoId":"KIGM","receiptTime":"2026-04-12T10:54:09.963Z","obsTime":1775991060,"reportTime":"2026-04-12T11:00:00.000Z","temp":12.2,"dewp":-1.7,"wdir":120,"wspd":8,"visib":"10+","altim":1011.6,"slp":1005.9,"qcField":6,"metarType":"METAR","rawOb":"METAR KIGM 121051Z AUTO 12008KT 10SM CLR 12/M02 A2987 RMK AO2 SLP059 T01221017","lat":35.2575,"lon":-113.9341,"elev":1045,"name":"Kingman Arpt, AZ, US","cover":"CLR","clouds":[],"fltCat":"VFR"},{"icaoId":"KLGA","receiptTime":"2026-04-12T10:54:08.182Z","obsTime":1775991060,"reportTime":"2026-04-12T11:00:00.000Z","temp":6.7,"dewp":-3.3,"wdir":30,"wspd":6,"visib":"10+","altim":1033.3,"slp":1033,"qcField":12,"metarType":"METAR","rawOb":"METAR KLGA 121051Z 03006KT 10SM FEW200 FEW250 07/M03 A3051 RMK AO2 SLP330 T00671033 $","lat":40.7794,"lon":-73.8803,"elev":9,"name":"New York/La Guardia Arpt, NY, US","cover":"FEW","clouds":[{"cover":"FEW","base":20000},{"cover":"FEW","base":25000}],"fltCat":"VFR"},{"icaoId":"KCLE","receiptTime":"2026-04-12T10:54:09.704Z","obsTime":1775991060,"reportTime":"2026-04-12T11:00:00.000Z","temp":7.2,"dewp":-1.7,"wdir":160,"wspd":8,"visib":"10+","altim":1024.1,"slp":1026,"qcField":12,"metarType":"METAR","rawOb":"METAR KCLE 121051Z 16008KT 10SM SCT120 07/M02 A3024 RMK AO2 SLP260 T00721017 $","lat":41.4057,"lon":-81.8519,"elev":237,"name":"Cleveland/Hopkins Intl, OH, US","cover":"SCT","clouds":[{"cover":"SCT","base":12000}],"fltCat":"VFR"},{"icaoId":"KPVD","receiptTime":"2026-04-12T10:54:08.418Z","obsTime":1775991060,"reportTime":"2026-04-12T11:00:00.000Z","temp":3.3,"dewp":-3.9,"wdir":270,"wspd":4,"visib":"10+","altim":1032.9,"slp":1032.7,"qcField":12,"metarType":"METAR","rawOb":"METAR KPVD 121051Z 27004KT 10SM CLR 03/M04 A3050 RMK AO2 SLP327 T00331039 $","lat":41.7225,"lon":-71.4325,"elev":15,"name":"Providence/Green Mem, RI, US","cover":"CLR","clouds":[],"fltCat":"VFR"},{"icaoId":"KORD","receiptTime":"2026-04-12T10:54:08.272Z","obsTime":1775991060,"reportTime":"2026-04-12T11:00:00.000Z","temp":15,"dewp":9.4,"wdir":180,"wspd":11,"wgst":21,"visib":"10+","altim":1015.7,"slp":1015.7,"qcField":12,"metarType":"METAR","rawOb":"METAR KORD 121051Z 18011G21KT 10SM FEW120 BKN250 15/09 A2999 RMK AO2 SLP157 T01500094 $","lat":41.9602,"lon":-87.9316,"elev":202,"name":"Chicago/O'Hare Intl, IL, US","cover":"BKN","clouds":[{"cover":"FEW","base":12000},{"cover":"BKN","base":25000}],"fltCat":"VFR"},{"icaoId":"KELP","receiptTime":"2026-04-12T10:54:09.841Z","obsTime":1775991060,"reportTime":"2026-04-12T11:00:00.000Z","temp":12.2,"dewp":9.4,"wdir":150,"wspd":6,"visib":"10+","altim":1016.7,"slp":1012.1,"qcField":4,"metarType":"METAR","rawOb":"METAR KELP 121051Z 15006KT 10SM FEW100 FEW170 FEW250 12/09 A3002 RMK AO2 SLP121 T01220094","lat":31.8123,"lon":-106.3774,"elev":1205,"name":"El Paso Intl, TX, US","cover":"FEW","clouds":[{"cover":"FEW","base":10000},{"cover":"FEW","base":17000},{"cover":"FEW","base":25000}],"fltCat":"VFR"},{"icaoId":"KCRP","receiptTime":"2026-04-12T10:54:09.756Z","obsTime":1775991060,"reportTime":"2026-04-12T11:00:00.000Z","temp":23.3,"dewp":22.2,"wdir":160,"wspd":16,"visib":"10+","altim":1016.3,"slp":1016,"qcField":4,"precip":0.01,"metarType":"METAR","rawOb":"METAR KCRP 121051Z 16016KT 10SM SCT013 BKN037 OVC080 23/22 A3001 RMK AO2 RAB11E29 SLP160 P0001 T02330222","lat":27.7734,"lon":-97.513,"elev":11,"name":"Corpus Christi Intl, TX, US","cover":"OVC","clouds":[{"cover":"SCT","base":1300},{"cover":"BKN","base":3700},{"cover":"OVC","base":8000}],"fltCat":"VFR"},{"icaoId":"KBDL","receiptTime":"2026-04-12T10:54:09.618Z","obsTime":1775991060,"reportTime":"2026-04-12T11:00:00.000Z","temp":1.7,"dewp":-4.4,"wdir":150,"wspd":3,"visib":"10+","altim":1032.9,"slp":1032.8,"qcField":4,"metarType":"METAR","rawOb":"METAR KBDL 121051Z 15003KT 10SM FEW250 02/M04 A3050 RMK AO2 SLP328 T00171044","lat":41.9374,"lon":-72.682,"elev":52,"name":"Hartford/Bradley Intl, CT, US","cover":"FEW","clouds":[{"cover":"FEW","base":25000}],"fltCat":"VFR"},{"icaoId":"KOXR","receiptTime":"2026-04-12T10:54:08.350Z","obsTime":1775991060,"reportTime":"2026-04-12T11:00:00.000Z","temp":16.1,"dewp":12.8,"wdir":200,"wspd":7,"wgst":16,"visib":"10+","altim":1012.6,"slp":1012.3,"qcField":6,"metarType":"METAR","rawOb":"METAR KOXR 121051Z AUTO 20007G16KT 10SM BKN065 16/13 A2990 RMK AO2 SLP123 T01610128","lat":34.2001,"lon":-119.2042,"elev":12,"name":"Oxnard Arpt, CA, US","cover":"BKN","clouds":[{"cover":"BKN","base":6500}],"fltCat":"VFR"},{"icaoId":"KPHX","receiptTime":"2026-04-12T10:54:08.362Z","obsTime":1775991060,"reportTime":"2026-04-12T11:00:00.000Z","temp":20.6,"dewp":-1.1,"wdir":130,"wspd":6,"visib":"10+","altim":1010.9,"slp":1009.2,"qcField":4,"metarType":"METAR","rawOb":"METAR KPHX 121051Z 13006KT 10SM CLR 21/M01 A2985 RMK AO2 SLP092 T02061011","lat":33.4278,"lon":-112.0037,"elev":338,"name":"Phoenix/Sky Harbor Intl, AZ, US","cover":"CLR","clouds":[],"fltCat":"VFR"},{"icaoId":"KSAD","receiptTime":"2026-04-12T10:54:08.489Z","obsTime":1775991060,"reportTime":"2026-04-12T11:00:00.000Z","temp":16.1,"dewp":-3.3,"wdir":220,"wspd":3,"visib":"10+","altim":1015,"slp":1010.6,"qcField":6,"metarType":"METAR","rawOb":"METAR KSAD 121051Z AUTO 22003KT 10SM CLR 16/M03 A2997 RMK AO2 SLP106 T01611033","lat":32.8565,"lon":-109.636,"elev":937,"name":"Safford Rgnl, AZ, US","cover":"CLR","clouds":[],"fltCat":"VFR"},{"icaoId":"KVNY","receiptTime":"2026-04-12T10:54:08.697Z","obsTime":1775991060,"reportTime":"2026-04-12T11:00:00.000Z","temp":13.3,"dewp":12.2,"wdir":140,"wspd":9,"visib":6,"altim":1013,"slp":1012.1,"qcField":14,"wxString":"-RA BR","precip":0.04,"metarType":"METAR","rawOb":"METAR KVNY 121051Z AUTO 14009KT 6SM -RA BR SCT016 BKN030 OVC041 13/12 A2991 RMK AO2 RAB05 SLP121 P0004 T01330122 $","lat":34.2121,"lon":-118.4915,"elev":241,"name":"Van Nuys Arpt, CA, US","cover":"OVC","clouds":[{"cover":"SCT","base":1600},{"cover":"BKN","base":3000},{"cover":"OVC","base":4100}],"fltCat":"MVFR"},{"icaoId":"KPIT","receiptTime":"2026-04-12T10:54:09.351Z","obsTime":1775991060,"reportTime":"2026-04-12T11:00:00.000Z","temp":6.1,"dewp":-0.6,"wdir":90,"wspd":5,"visib":"10+","altim":1025.8,"slp":1026.8,"qcField":12,"metarType":"METAR","rawOb":"METAR KPIT 121051Z 09005KT 10SM SCT150 BKN200 06/M01 A3029 RMK AO2 SLP268 T00611006 $","lat":40.4814,"lon":-80.2083,"elev":339,"name":"Pittsburgh Intl, PA, US","cover":"BKN","clouds":[{"cover":"SCT","base":15000},{"cover":"BKN","base":20000}],"fltCat":"VFR"},{"icaoId":"KRDU","receiptTime":"2026-04-12T10:54:08.446Z","obsTime":1775991060,"reportTime":"2026-04-12T11:00:00.000Z","temp":15,"dewp":11.7,"wdir":90,"wspd":9,"visib":"10+","altim":1028.5,"slp":1028,"qcField":4,"metarType":"METAR","rawOb":"METAR KRDU 121051Z 09009KT 10SM BKN016 15/12 A3037 RMK AO2 SLP280 CIG 014V018 T01500117","lat":35.8923,"lon":-78.782,"elev":121,"name":"Raleigh-Durham Intl, NC, US","cover":"BKN","clouds":[{"cover":"BKN","base":1600}],"fltCat":"MVFR"},{"icaoId":"KACT","receiptTime":"2026-04-12T10:54:09.545Z","obsTime":1775991060,"reportTime":"2026-04-12T11:00:00.000Z","temp":18.3,"dewp":16.7,"wdir":180,"wspd":13,"wgst":23,"visib":9,"altim":1017.4,"slp":1016.7,"qcField":6,"wxString":"RA","precip":0.06,"metarType":"METAR","rawOb":"METAR KACT 121051Z AUTO 18013G23KT 9SM RA OVC110 18/17 A3004 RMK AO2 SLP167 P0006 T01830167","lat":31.618,"lon":-97.2283,"elev":150,"name":"Waco Rgnl, TX, US","cover":"OVC","clouds":[{"cover":"OVC","base":11000}],"fltCat":"VFR"},{"icaoId":"KSTL","receiptTime":"2026-04-12T10:54:08.630Z","obsTime":1775991060,"reportTime":"2026-04-12T11:00:00.000Z","temp":17.8,"dewp":12.2,"wdir":170,"wspd":5,"visib":"10+","altim":1018.4,"slp":1017.5,"qcField":12,"metarType":"METAR","rawOb":"METAR KSTL 121051Z 17005KT 10SM CLR 18/12 A3007 RMK AO2 SLP175 T01780122 $","lat":38.7525,"lon":-90.3734,"elev":163,"name":"St Louis/Lambert Intl, MO, US","cover":"CLR","clouds":[],"fltCat":"VFR"},{"icaoId":"KSAN","receiptTime":"2026-04-12T10:54:08.508Z","obsTime":1775991060,"reportTime":"2026-04-12T11:00:00.000Z","temp":15,"dewp":11.7,"wdir":70,"wspd":3,"visib":"10+","altim":1015,"slp":1014.9,"qcField":12,"metarType":"METAR","rawOb":"METAR KSAN 121051Z 07003KT 10SM FEW010 BKN050 15/12 A2997 RMK AO2 SLP149 T01500117 $","lat":32.7364,"lon":-117.1973,"elev":3,"name":"San Diego Intl Arpt, CA, US","cover":"BKN","clouds":[{"cover":"FEW","base":1000},{"cover":"BKN","base":5000}],"fltCat":"VFR"},{"icaoId":"KLUF","receiptTime":"2026-04-12T10:16:04.149Z","obsTime":1775987700,"reportTime":"2026-04-12T10:00:00.000Z","temp":19.8,"dewp":-3.2,"wdir":0,"wspd":0,"visib":"10+","altim":1010.6,"slp":1009.2,"qcField":14,"metarType":"METAR","rawOb":"METAR KLUF 120955Z AUTO 00000KT 10SM CLR 20/M03 A2984 RMK AO2 SLP092 T01981032 $","lat":33.538,"lon":-112.38,"elev":333,"name":"Phoenix/Luke AFB, AZ, US","cover":"CLR","clouds":[],"fltCat":"VFR"}]