[{"icaoId":"KSOW","receiptTime":"2026-04-09T22:38:20.602Z","obsTime":1775774100,"reportTime":"2026-04-09T22:35:00.000Z","temp":23,"dewp":-6,"wdir":240,"wspd":13,"wgst":18,"visib":"10+","altim":1020.1,"qcField":6,"metarType":"METAR","rawOb":"METAR KSOW 092235Z AUTO 24013G18KT 10SM FEW110 23/M06 A3012 RMK AO2","lat":34.2686,"lon":-110.0019,"elev":1954,"name":"Show Low Muni, AZ, US","cover":"FEW","clouds":[{"cover":"FEW","base":11000}],"fltCat":"VFR"},{"icaoId":"KHII","receiptTime":"2026-04-09T22:40:23.518Z","obsTime":1775774100,"reportTime":"2026-04-09T22:35:00.000Z","temp":34,"dewp":-4,"wdir":220,"wspd":11,"wgst":20,"visib":"10+","altim":1008.5,"qcField":6,"metarType":"METAR","rawOb":"METAR KHII 092235Z AUTO 22011G20KT 10SM CLR 34/M04 A2978 RMK AO2","lat":34.5659,"lon":-114.3522,"elev":241,"name":"Lake Havasu City Arpt, AZ, US","cover":"CLR","clouds":[],"fltCat":"VFR"},{"icaoId":"KSEZ","receiptTime":"2026-04-09T22:40:19.546Z","obsTime":1775774100,"reportTime":"2026-04-09T22:35:00.000Z","temp":25,"dewp":-7,"wdir":190,"wspd":15,"wgst":23,"visib":"10+","altim":1016.7,"qcField":6,"metarType":"METAR","rawOb":"METAR KSEZ 092235Z AUTO 19015G23KT 160V220 10SM CLR 25/M07 A3002 RMK AO2","lat":34.8467,"lon":-111.7884,"elev":1455,"name":"Sedona Arpt, AZ, US","cover":"CLR","clouds":[],"fltCat":"VFR"},{"icaoId":"KFLG","receiptTime":"2026-04-09T22:00:56.027Z","obsTime":1775771820,"reportTime":"2026-04-09T22:00:00.000Z","temp":19.4,"dewp":-8.3,"wdir":210,"wspd":17,"wgst":27,"visib":"10+","altim":1020.7,"slp":1013.5,"qcField":4,"metarType":"METAR","rawOb":"METAR KFLG 092157Z 21017G27KT 10SM CLR 19/M08 A3014 RMK AO2 PK WND 21029/2107 SLP135 T01941083","lat":35.1443,"lon":-111.6664,"elev":2134,"name":"Flagstaff/Pulliam Arpt, AZ, US","cover":"CLR","clouds":[],"fltCat":"VFR"},{"icaoId":"KDUG","receiptTime":"2026-04-09T22:02:15.182Z","obsTime":1775771760,"reportTime":"2026-04-09T22:00:00.000Z","temp":28.9,"dewp":-3.3,"wdir":"VRB","wspd":3,"wgst":16,"visib":"10+","altim":1015.7,"slp":1009.2,"qcField":38,"metarType":"METAR","rawOb":"METAR KDUG 092156Z AUTO VRB03G16KT 10SM CLR 29/M03 A2999 RMK AO2 SLP092 T02891033 TSNO","lat":31.4725,"lon":-109.6022,"elev":1260,"name":"Douglas/Bisbee Intl, AZ, US","cover":"CLR","clouds":[],"fltCat":"VFR"},{"icaoId":"KINW","receiptTime":"2026-04-09T22:00:55.203Z","obsTime":1775771760,"reportTime":"2026-04-09T22:00:00.000Z","temp":27.2,"dewp":-4.4,"wdir":250,"wspd":9,"visib":"10+","altim":1016.3,"slp":1010.5,"qcField":6,"metarType":"METAR","rawOb":"METAR KINW 092156Z AUTO 25009KT 10SM CLR 27/M04 A3001 RMK AO2 SLP105 T02721044","lat":35.0279,"lon":-110.7221,"elev":1492,"name":"Winslow/Lindberg Rgnl, AZ, US","cover":"CLR","clouds":[],"fltCat":"VFR"},{"icaoId":"KCGZ","receiptTime":"2026-04-09T22:00:40.055Z","obsTime":1775771760,"reportTime":"2026-04-09T22:00:00.000Z","temp":34.4,"dewp":-2.2,"wdir":240,"wspd":13,"wgst":25,"visib":7,"altim":1010.9,"slp":1009.3,"qcField":14,"metarType":"METAR","rawOb":"METAR KCGZ 092156Z AUTO 24013G25KT 7SM CLR 34/M02 A2985 RMK AO2 SLP093 T03441022 $","lat":32.9531,"lon":-111.7725,"elev":444,"name":"Casa Granda Muni, AZ, US","cover":"CLR","clouds":[],"fltCat":"VFR"},{"icaoId":"KLUF","receiptTime":"2026-04-09T22:12:10.313Z","obsTime":1775771700,"reportTime":"2026-04-09T22:00:00.000Z","temp":34.2,"dewp":-4.8,"wdir":210,"wspd":8,"wgst":17,"visib":"10+","altim":1009.9,"slp":1008.4,"qcField":15,"metarType":"METAR","rawOb":"METAR KLUF 092155Z COR AUTO 21008G17KT 10SM BKN200 34/M05 A2982 RMK AO2 SLP084 T03421048 $ COR 2202","lat":33.538,"lon":-112.38,"elev":333,"name":"Phoenix/Luke AFB, AZ, US","cover":"BKN","clouds":[{"cover":"BKN","base":20000}],"fltCat":"VFR"},{"icaoId":"KRYN","receiptTime":"2026-04-09T21:56:42.908Z","obsTime":1775771700,"reportTime":"2026-04-09T22:00:00.000Z","temp":33,"dewp":-5,"wdir":270,"wspd":10,"visib":"10+","altim":1011.9,"qcField":0,"metarType":"METAR","rawOb":"METAR KRYN 092155Z 27010KT 10SM CLR 33/M05 A2988","lat":32.1418,"lon":-111.1767,"elev":731,"name":"Tucson/Ryan Fld, AZ, US","cover":"CLR","clouds":[],"fltCat":"VFR"},{"icaoId":"KGCN","receiptTime":"2026-04-09T21:58:05.713Z","obsTime":1775771640,"reportTime":"2026-04-09T22:00:00.000Z","temp":21.1,"dewp":-6.1,"wdir":230,"wspd":10,"visib":"10+","altim":1019,"slp":1012.9,"qcField":4,"metarType":"METAR","rawOb":"METAR KGCN 092154Z 23010KT 200V270 10SM CLR 21/M06 A3009 RMK AO2 PK WND 24027/2057 SLP129 T02111061","lat":35.9458,"lon":-112.1554,"elev":1993,"name":"Grand Canyon Park Arpt, AZ, US","cover":"CLR","clouds":[],"fltCat":"VFR"},{"icaoId":"KSJN","receiptTime":"2026-04-09T21:58:07.814Z","obsTime":1775771640,"reportTime":"2026-04-09T22:00:00.000Z","temp":25,"dewp":-6.1,"wdir":280,"wspd":17,"wgst":29,"visib":"10+","altim":1017,"slp":1009.2,"qcField":6,"metarType":"METAR","rawOb":"METAR KSJN 092154Z AUTO 28017G29KT 10SM SCT120 25/M06 A3003 RMK AO2 PK WND 26029/2151 SLP092 T02501061","lat":34.5184,"lon":-109.3801,"elev":1747,"name":"St Johns Ind Arpt, AZ, US","cover":"SCT","clouds":[{"cover":"SCT","base":12000}],"fltCat":"VFR"},{"icaoId":"KFFZ","receiptTime":"2026-04-09T21:58:07.287Z","obsTime":1775771640,"reportTime":"2026-04-09T22:00:00.000Z","temp":32.8,"dewp":-3.3,"wdir":200,"wspd":8,"visib":"10+","altim":1010.9,"slp":1008.4,"qcField":4,"metarType":"METAR","rawOb":"METAR KFFZ 092154Z 20008KT 10SM CLR 33/M03 A2985 RMK AO2 SLP084 T03281033","lat":33.4659,"lon":-111.7212,"elev":420,"name":"Mesa/Falcon Fld, AZ, US","cover":"CLR","clouds":[],"fltCat":"VFR"},{"icaoId":"KOLS","receiptTime":"2026-04-09T21:58:07.312Z","obsTime":1775771640,"reportTime":"2026-04-09T22:00:00.000Z","temp":28.9,"dewp":-1.7,"wdir":210,"wspd":8,"wgst":23,"visib":"10+","altim":1016,"slp":1009.5,"qcField":6,"metarType":"METAR","rawOb":"METAR KOLS 092154Z AUTO 21008G23KT 10SM CLR 29/M02 A3000 RMK AO2 SLP095 T02891017","lat":31.4208,"lon":-110.8465,"elev":1194,"name":"Nogales Intl, AZ, US","cover":"CLR","clouds":[],"fltCat":"VFR"},{"icaoId":"KSDL","receiptTime":"2026-04-09T21:56:38.777Z","obsTime":1775771580,"reportTime":"2026-04-09T22:00:00.000Z","temp":32.8,"dewp":-2.8,"wdir":230,"wspd":5,"visib":"10+","altim":1011.6,"slp":1009,"qcField":4,"metarType":"METAR","rawOb":"METAR KSDL 092153Z 23005KT 10SM CLR 33/M03 A2987 RMK AO2 SLP090 T03281028","lat":33.6123,"lon":-111.9232,"elev":438,"name":"Scottsdale Muni, AZ, US","cover":"CLR","clouds":[],"fltCat":"VFR"},{"icaoId":"KPRC","receiptTime":"2026-04-09T21:56:22.482Z","obsTime":1775771580,"reportTime":"2026-04-09T22:00:00.000Z","temp":23.3,"dewp":-8.3,"wdir":220,"wspd":13,"wgst":21,"visib":"10+","altim":1017.7,"slp":1011,"qcField":6,"metarType":"METAR","rawOb":"METAR KPRC 092153Z AUTO 22013G21KT 10SM CLR 23/M08 A3005 RMK AO2 PK WND 22028/2123 SLP110 T02331083","lat":34.6491,"lon":-112.4223,"elev":1528,"name":"Prescott/Love Fld, AZ, US","cover":"CLR","clouds":[],"fltCat":"VFR"},{"icaoId":"KPGA","receiptTime":"2026-04-09T21:56:24.184Z","obsTime":1775771580,"reportTime":"2026-04-09T22:00:00.000Z","temp":27.2,"dewp":-7.8,"wdir":"VRB","wspd":6,"wgst":20,"visib":"10+","altim":1013.3,"slp":1007.3,"qcField":6,"metarType":"METAR","rawOb":"METAR KPGA 092153Z AUTO VRB06G20KT 10SM CLR 27/M08 A2992 RMK AO2 SLP073 T02721078","lat":36.9211,"lon":-111.4487,"elev":1310,"name":"Page Muni, AZ, US","cover":"CLR","clouds":[],"fltCat":"VFR"},{"icaoId":"KDVT","receiptTime":"2026-04-09T21:56:32.273Z","obsTime":1775771580,"reportTime":"2026-04-09T22:00:00.000Z","temp":33.9,"dewp":-3.3,"wdir":270,"wspd":10,"wgst":18,"visib":"10+","altim":1011.3,"slp":1008.9,"qcField":4,"metarType":"METAR","rawOb":"METAR KDVT 092153Z 27010G18KT 10SM CLR 34/M03 A2986 RMK AO2 SLP089 T03391033","lat":33.6902,"lon":-112.0662,"elev":454,"name":"Phoenix/Deer Valley Arpt, AZ, US","cover":"CLR","clouds":[],"fltCat":"VFR"},{"icaoId":"KTUS","receiptTime":"2026-04-09T21:56:34.146Z","obsTime":1775771580,"reportTime":"2026-04-09T22:00:00.000Z","temp":31.7,"dewp":-3.3,"wdir":250,"wspd":5,"visib":"10+","altim":1013,"slp":1008.5,"qcField":4,"metarType":"METAR","rawOb":"METAR KTUS 092153Z 25005KT 10SM CLR 32/M03 A2991 RMK AO2 SLP085 T03171033","lat":32.1315,"lon":-110.9564,"elev":776,"name":"Tucson Intl Arpt, AZ, US","cover":"CLR","clouds":[],"fltCat":"VFR"},{"icaoId":"KSAD","receiptTime":"2026-04-09T21:54:09.399Z","obsTime":1775771460,"reportTime":"2026-04-09T22:00:00.000Z","temp":32.8,"dewp":-3.9,"wdir":300,"wspd":13,"wgst":23,"visib":"10+","altim":1012.6,"slp":1007.9,"qcField":6,"metarType":"METAR","rawOb":"METAR KSAD 092151Z AUTO 30013G23KT 10SM CLR 33/M04 A2990 RMK AO2 SLP079 T03281039","lat":32.8565,"lon":-109.636,"elev":937,"name":"Safford Rgnl, AZ, US","cover":"CLR","clouds":[],"fltCat":"VFR"},{"icaoId":"KIGM","receiptTime":"2026-04-09T21:54:11.036Z","obsTime":1775771460,"reportTime":"2026-04-09T22:00:00.000Z","temp":26.7,"dewp":-3.9,"wdir":210,"wspd":20,"wgst":33,"visib":"10+","altim":1013.6,"slp":1007,"qcField":6,"metarType":"METAR","rawOb":"METAR KIGM 092151Z AUTO 21020G33KT 10SM CLR 27/M04 A2993 RMK AO2 PK WND 22040/2121 SLP070 T02671039","lat":35.2575,"lon":-113.9341,"elev":1045,"name":"Kingman Arpt, AZ, US","cover":"CLR","clouds":[],"fltCat":"VFR"},{"icaoId":"KPHX","receiptTime":"2026-04-09T21:54:09.275Z","obsTime":1775771460,"reportTime":"2026-04-09T22:00:00.000Z","temp":34.4,"dewp":-1.7,"wdir":230,"wspd":5,"visib":"10+","altim":1009.9,"slp":1008.1,"qcField":4,"metarType":"METAR","rawOb":"METAR KPHX 092151Z 23005KT 10SM FEW110 FEW200 BKN250 34/M02 A2982 RMK AO2 PK WND 26026/2116 SLP081 T03441017","lat":33.4278,"lon":-112.0037,"elev":338,"name":"Phoenix/Sky Harbor Intl, AZ, US","cover":"BKN","clouds":[{"cover":"FEW","base":11000},{"cover":"FEW","base":20000},{"cover":"BKN","base":25000}],"fltCat":"VFR"},{"icaoId":"KGEU","receiptTime":"2026-04-09T21:51:09.448Z","obsTime":1775771400,"reportTime":"2026-04-09T22:00:00.000Z","temp":33,"dewp":-2,"wdir":230,"wspd":13,"visib":"10+","altim":1009.6,"qcField":0,"metarType":"METAR","rawOb":"METAR KGEU 092150Z 23013KT 10SM CLR 33/M02 A2981","lat":33.528,"lon":-112.293,"elev":319,"name":"Glendale Muni, AZ, US","cover":"CLR","clouds":[],"fltCat":"VFR"},{"icaoId":"KIWA","receiptTime":"2026-04-09T21:52:14.355Z","obsTime":1775771400,"reportTime":"2026-04-09T22:00:00.000Z","temp":33,"dewp":-3,"wdir":350,"wspd":4,"visib":"10+","altim":1011.3,"qcField":0,"metarType":"METAR","rawOb":"METAR KIWA 092150Z 35004KT 10SM CLR 33/M03 A2986","lat":33.3008,"lon":-111.6437,"elev":420,"name":"Phoenix/Mesa Gateway Arpt, AZ, US","cover":"CLR","clouds":[],"fltCat":"VFR"},{"icaoId":"KIFP","receiptTime":"2026-04-09T21:51:05.505Z","obsTime":1775771340,"reportTime":"2026-04-09T22:00:00.000Z","temp":34,"dewp":-3,"wdir":170,"wspd":10,"wgst":21,"visib":"10+","altim":1007.9,"qcField":0,"metarType":"METAR","rawOb":"METAR KIFP 092149Z 17010G21KT 10SM CLR 34/M03 A2976","lat":35.1487,"lon":-114.5611,"elev":210,"name":"Bullhead City Intl, AZ, US","cover":"CLR","clouds":[],"fltCat":"VFR"},{"icaoId":"KGYR","receiptTime":"2026-04-09T21:47:47.352Z","obsTime":1775771220,"reportTime":"2026-04-09T22:00:00.000Z","temp":34,"dewp":-1,"wdir":220,"wspd":8,"visib":"10+","altim":1010.6,"qcField":0,"metarType":"METAR","rawOb":"METAR KGYR 092147Z 22008KT 10SM SCT200 BKN250 34/M01 A2984","lat":33.428,"lon":-112.368,"elev":292,"name":"Phoenix/Goodyear Muni, AZ, US","cover":"BKN","clouds":[{"cover":"SCT","base":20000},{"cover":"BKN","base":25000}],"fltCat":"VFR"},{"icaoId":"KCHD","receiptTime":"2026-04-09T21:48:36.905Z","obsTime":1775771220,"reportTime":"2026-04-09T22:00:00.000Z","temp":33,"dewp":-3,"wdir":"VRB","wspd":3,"visib":"10+","altim":1010.9,"qcField":0,"metarType":"METAR","rawOb":"METAR KCHD 092147Z VRB03KT 10SM BKN250 33/M03 A2985","lat":33.2669,"lon":-111.8086,"elev":378,"name":"Chandler Muni, AZ, US","cover":"BKN","clouds":[{"cover":"BKN","base":25000}],"fltCat":"VFR"}]