[{"icaoId":"KHAF","receiptTime":"2026-04-11T22:36:09.297Z","obsTime":1775946900,"reportTime":"2026-04-11T22:35:00.000Z","temp":13,"dewp":13,"wdir":180,"wspd":21,"wgst":28,"visib":1.5,"altim":1009.2,"qcField":6,"wxString":"BR","metarType":"METAR","rawOb":"METAR KHAF 112235Z AUTO 18021G28KT 1 1/2SM BR SCT027 BKN036 OVC046 13/13 A2980 RMK AO2","lat":37.5136,"lon":-122.4996,"elev":11,"name":"Half Moon Bay Arpt, CA, US","cover":"OVC","clouds":[{"cover":"SCT","base":2700},{"cover":"BKN","base":3600},{"cover":"OVC","base":4600}],"fltCat":"IFR"},{"icaoId":"KBVU","receiptTime":"2026-04-11T22:36:08.951Z","obsTime":1775946900,"reportTime":"2026-04-11T22:35:00.000Z","temp":27,"dewp":-9,"wdir":230,"wspd":19,"wgst":27,"visib":"10+","altim":1008.5,"qcField":6,"metarType":"METAR","rawOb":"METAR KBVU 112235Z AUTO 23019G27KT 10SM CLR 27/M09 A2978 RMK AO2","lat":35.9489,"lon":-114.8633,"elev":654,"name":"Boulder City Muni, NV, US","cover":"CLR","clouds":[],"fltCat":"VFR"},{"icaoId":"KSTS","receiptTime":"2026-04-11T22:36:14.007Z","obsTime":1775946780,"reportTime":"2026-04-11T22:33:00.000Z","temp":13.3,"dewp":10,"wdir":190,"wspd":16,"wgst":28,"visib":2,"altim":1007.5,"qcField":12,"wxString":"RA","precip":0.02,"metarType":"SPECI","rawOb":"SPECI KSTS 112233Z 19016G28KT 2SM RA BKN030 OVC060 13/10 A2975 RMK AO2 PK WND 18028/2227 P0002 T01330100 $","lat":38.5037,"lon":-122.811,"elev":35,"name":"Santa Rosa/Schulz Arpt, CA, US","cover":"OVC","clouds":[{"cover":"BKN","base":3000},{"cover":"OVC","base":6000}],"fltCat":"IFR"},{"icaoId":"KCEC","receiptTime":"2026-04-11T22:34:08.019Z","obsTime":1775946660,"reportTime":"2026-04-11T22:31:00.000Z","temp":12.2,"dewp":11.1,"wdir":50,"wspd":4,"visib":9,"altim":1004.5,"qcField":6,"wxString":"-RA","precip":0.03,"metarType":"SPECI","rawOb":"SPECI KCEC 112231Z AUTO 05004KT 9SM -RA SCT012 SCT046 OVC055 12/11 A2966 RMK AO2 RAB06 P0003 T01220111","lat":41.7836,"lon":-124.238,"elev":17,"name":"Crescent City/McNama, CA, US","cover":"OVC","clouds":[{"cover":"SCT","base":1200},{"cover":"SCT","base":4600},{"cover":"OVC","base":5500}],"fltCat":"VFR"},{"icaoId":"KRDD","receiptTime":"2026-04-11T22:34:08.083Z","obsTime":1775946660,"reportTime":"2026-04-11T22:31:00.000Z","temp":15.6,"dewp":10.6,"wdir":150,"wspd":14,"wgst":28,"visib":"10+","altim":1005.2,"qcField":4,"metarType":"SPECI","rawOb":"SPECI KRDD 112231Z 15014G28KT 10SM SCT024 BKN075 OVC090 16/11 A2968 RMK AO2 PK WND 14030/2212 T01560106","lat":40.5146,"lon":-122.2977,"elev":152,"name":"Redding Muni, CA, US","cover":"OVC","clouds":[{"cover":"SCT","base":2400},{"cover":"BKN","base":7500},{"cover":"OVC","base":9000}],"fltCat":"VFR"},{"icaoId":"KSOW","receiptTime":"2026-04-11T22:18:18.333Z","obsTime":1775945700,"reportTime":"2026-04-11T22:15:00.000Z","temp":19,"dewp":-2,"wdir":220,"wspd":16,"wgst":23,"visib":"10+","altim":1018.4,"qcField":6,"metarType":"METAR","rawOb":"METAR KSOW 112215Z AUTO 22016G23KT 10SM SCT090 SCT110 19/M02 A3007 RMK AO2","lat":34.2686,"lon":-110.0019,"elev":1954,"name":"Show Low Muni, AZ, US","cover":"SCT","clouds":[{"cover":"SCT","base":9000},{"cover":"SCT","base":11000}],"fltCat":"VFR"},{"icaoId":"KCXP","receiptTime":"2026-04-11T22:20:33.636Z","obsTime":1775945700,"reportTime":"2026-04-11T22:15:00.000Z","temp":14,"dewp":-1,"wdir":190,"wspd":15,"wgst":21,"visib":"10+","altim":1009.6,"qcField":6,"metarType":"METAR","rawOb":"METAR KCXP 112215Z AUTO 19015G21KT 10SM FEW060 SCT070 14/M01 A2981 RMK AO2","lat":39.1905,"lon":-119.7319,"elev":1431,"name":"Carson City Arpt, NV, US","cover":"SCT","clouds":[{"cover":"FEW","base":6000},{"cover":"SCT","base":7000}],"fltCat":"VFR"},{"icaoId":"KHII","receiptTime":"2026-04-11T22:22:33.885Z","obsTime":1775945700,"reportTime":"2026-04-11T22:15:00.000Z","temp":29,"dewp":-1,"wdir":190,"wspd":8,"wgst":16,"visib":"10+","altim":1009.6,"qcField":6,"metarType":"METAR","rawOb":"METAR KHII 112215Z AUTO 19008G16KT 150V210 10SM CLR 29/M01 A2981 RMK AO2","lat":34.5659,"lon":-114.3522,"elev":241,"name":"Lake Havasu City Arpt, AZ, US","cover":"CLR","clouds":[],"fltCat":"VFR"},{"icaoId":"KHTH","receiptTime":"2026-04-11T22:20:22.223Z","obsTime":1775945700,"reportTime":"2026-04-11T22:15:00.000Z","temp":20,"dewp":-9,"wdir":210,"wspd":17,"visib":"10+","altim":1007.2,"qcField":6,"metarType":"METAR","rawOb":"METAR KHTH 112215Z AUTO 21017KT 10SM CLR 20/M09 A2974 RMK A01","lat":38.5448,"lon":-118.6314,"elev":1281,"name":"Hawthorne Muni, NV, US","cover":"CLR","clouds":[],"fltCat":"VFR"},{"icaoId":"KMHR","receiptTime":"2026-04-11T22:20:33.745Z","obsTime":1775945700,"reportTime":"2026-04-11T22:15:00.000Z","temp":17,"dewp":17,"wdir":160,"wspd":9,"visib":"10+","altim":1008.9,"qcField":6,"metarType":"METAR","rawOb":"METAR KMHR 112215Z AUTO 16009KT 10SM FEW038 SCT055 BKN100 17/17 A2979 RMK AO2","lat":38.56,"lon":-121.284,"elev":30,"name":"Sacramento/Mather Fld, CA, US","cover":"BKN","clouds":[{"cover":"FEW","base":3800},{"cover":"SCT","base":5500},{"cover":"BKN","base":10000}],"fltCat":"VFR"},{"icaoId":"KRTS","receiptTime":"2026-04-11T22:20:29.695Z","obsTime":1775945700,"reportTime":"2026-04-11T22:15:00.000Z","temp":13,"dewp":-3,"wdir":220,"wspd":17,"wgst":28,"visib":"10+","altim":1008.9,"qcField":6,"metarType":"METAR","rawOb":"METAR KRTS 112215Z AUTO 22017G28KT 10SM FEW055 FEW065 BKN075 13/M03 A2979 RMK AO2","lat":39.6658,"lon":-119.8731,"elev":1537,"name":"Reno/Stead Arpt, NV, US","cover":"BKN","clouds":[{"cover":"FEW","base":5500},{"cover":"FEW","base":6500},{"cover":"BKN","base":7500}],"fltCat":"VFR"},{"icaoId":"KSEZ","receiptTime":"2026-04-11T22:20:34.013Z","obsTime":1775945700,"reportTime":"2026-04-11T22:15:00.000Z","temp":21,"dewp":0,"wdir":170,"wspd":13,"wgst":24,"visib":"10+","altim":1015.3,"qcField":6,"metarType":"METAR","rawOb":"METAR KSEZ 112215Z AUTO 17013G24KT 10SM SCT080 BKN090 21/M00 A2998 RMK AO2","lat":34.8467,"lon":-111.7884,"elev":1455,"name":"Sedona Arpt, AZ, US","cover":"BKN","clouds":[{"cover":"SCT","base":8000},{"cover":"BKN","base":9000}],"fltCat":"VFR"},{"icaoId":"KMEV","receiptTime":"2026-04-11T22:20:33.723Z","obsTime":1775945700,"reportTime":"2026-04-11T22:15:00.000Z","temp":11,"dewp":1,"wdir":180,"wspd":23,"visib":"10+","altim":1009.2,"qcField":6,"metarType":"METAR","rawOb":"METAR KMEV 112215Z AUTO 18023KT 10SM CLR 11/01 A2980 RMK AO2","lat":38.9963,"lon":-119.75,"elev":1437,"name":"Minden-Tahoe Arpt, NV, US","cover":"CLR","clouds":[],"fltCat":"VFR"},{"icaoId":"KLUF","receiptTime":"2026-04-11T22:20:15.119Z","obsTime":1775944980,"reportTime":"2026-04-11T22:03:00.000Z","temp":32,"dewp":1,"wdir":220,"wspd":18,"wgst":23,"visib":"10+","altim":1009.9,"slp":1008.3,"qcField":14,"metarType":"SPECI","rawOb":"SPECI KLUF 112203Z AUTO 22018G23KT 10SM CLR 32/01 A2982 RMK AO2 WSHFT 01 SLP083 $","lat":33.538,"lon":-112.38,"elev":333,"name":"Phoenix/Luke AFB, AZ, US","cover":"CLR","clouds":[],"fltCat":"VFR"},{"icaoId":"KIWA","receiptTime":"2026-04-11T22:00:49.014Z","obsTime":1775944740,"reportTime":"2026-04-11T22:00:00.000Z","temp":32,"dewp":3,"wdir":250,"wspd":6,"wgst":15,"visib":"10+","altim":1010.9,"qcField":0,"metarType":"METAR","rawOb":"METAR KIWA 112159Z 25006G15KT 090V360 10SM SCT090 32/03 A2985","lat":33.3008,"lon":-111.6437,"elev":420,"name":"Phoenix/Mesa Gateway Arpt, AZ, US","cover":"SCT","clouds":[{"cover":"SCT","base":9000}],"fltCat":"VFR"},{"icaoId":"KFLG","receiptTime":"2026-04-11T22:00:27.258Z","obsTime":1775944620,"reportTime":"2026-04-11T22:00:00.000Z","temp":14.4,"dewp":-1.7,"wdir":230,"wspd":22,"wgst":34,"visib":"10+","altim":1017.7,"slp":1011.9,"qcField":12,"metarType":"METAR","rawOb":"METAR KFLG 112157Z 23022G34KT 10SM BKN070 14/M02 A3005 RMK AO2 PK WND 23035/2101 SLP119 T01441017 $","lat":35.1443,"lon":-111.6664,"elev":2134,"name":"Flagstaff/Pulliam Arpt, AZ, US","cover":"BKN","clouds":[{"cover":"BKN","base":7000}],"fltCat":"VFR"},{"icaoId":"KNFL","receiptTime":"2026-04-11T22:00:27.048Z","obsTime":1775944620,"reportTime":"2026-04-11T22:00:00.000Z","temp":16.7,"dewp":-3.9,"wdir":230,"wspd":7,"visib":"10+","altim":1007.9,"slp":1005.6,"qcField":12,"metarType":"METAR","rawOb":"METAR KNFL 112157Z 23007KT 10SM FEW070 FEW080 SCT180 BKN220 17/M04 A2976 RMK AO2 SLP056 T01671039 PNO $","lat":39.417,"lon":-118.705,"elev":1199,"name":"Fallon , NV, US","cover":"BKN","clouds":[{"cover":"FEW","base":7000},{"cover":"FEW","base":8000},{"cover":"SCT","base":18000},{"cover":"BKN","base":22000}],"fltCat":"VFR"},{"icaoId":"KNYL","receiptTime":"2026-04-11T22:00:27.069Z","obsTime":1775944620,"reportTime":"2026-04-11T22:00:00.000Z","temp":28.9,"dewp":2.8,"wdir":230,"wspd":10,"visib":"10+","altim":1010.9,"slp":1010.5,"qcField":4,"metarType":"METAR","rawOb":"METAR KNYL 112157Z 23010KT 10SM CLR 29/03 A2985 RMK AO2 SLP105 T02890028","lat":32.66,"lon":-114.6078,"elev":58,"name":"Yuma , AZ, US","cover":"CLR","clouds":[],"fltCat":"VFR"},{"icaoId":"KCGZ","receiptTime":"2026-04-11T21:58:23.454Z","obsTime":1775944560,"reportTime":"2026-04-11T22:00:00.000Z","temp":32.2,"dewp":1.7,"wdir":230,"wspd":14,"wgst":20,"visib":"10+","altim":1010.6,"slp":1009.3,"qcField":14,"metarType":"METAR","rawOb":"METAR KCGZ 112156Z AUTO 23014G20KT 10SM CLR 32/02 A2984 RMK AO2 SLP093 T03220017 $","lat":32.9531,"lon":-111.7725,"elev":444,"name":"Casa Granda Muni, AZ, US","cover":"CLR","clouds":[],"fltCat":"VFR"},{"icaoId":"KDUG","receiptTime":"2026-04-11T22:02:43.597Z","obsTime":1775944560,"reportTime":"2026-04-11T22:00:00.000Z","temp":27.2,"dewp":0.6,"wdir":240,"wspd":13,"wgst":25,"visib":"10+","altim":1016,"slp":1010,"qcField":38,"metarType":"METAR","rawOb":"METAR KDUG 112156Z AUTO 24013G25KT 10SM FEW100 27/01 A3000 RMK AO2 PK WND 23028/2115 SLP100 T02720006 TSNO","lat":31.4725,"lon":-109.6022,"elev":1260,"name":"Douglas/Bisbee Intl, AZ, US","cover":"FEW","clouds":[{"cover":"FEW","base":10000}],"fltCat":"VFR"},{"icaoId":"KEKO","receiptTime":"2026-04-11T22:00:15.620Z","obsTime":1775944560,"reportTime":"2026-04-11T22:00:00.000Z","temp":13.3,"dewp":0,"wdir":220,"wspd":11,"wgst":18,"visib":"10+","altim":1010.2,"slp":1007.9,"qcField":6,"metarType":"METAR","rawOb":"METAR KEKO 112156Z AUTO 22011G18KT 10SM FEW047 13/00 A2983 RMK AO2 SLP079 T01330000","lat":40.824,"lon":-115.7863,"elev":1541,"name":"Elko Rgnl, NV, US","cover":"FEW","clouds":[{"cover":"FEW","base":4700}],"fltCat":"VFR"},{"icaoId":"KSFO","receiptTime":"2026-04-11T22:00:18.726Z","obsTime":1775944560,"reportTime":"2026-04-11T22:00:00.000Z","temp":16.1,"dewp":10,"wdir":160,"wspd":16,"wgst":28,"visib":"10+","altim":1008.9,"slp":1008.8,"qcField":12,"metarType":"METAR","rawOb":"METAR KSFO 112156Z 16016G28KT 10SM FEW016 SCT035 BKN046 OVC150 16/10 A2979 RMK AO2 PK WND 18028/2148 SLP088 T01610100 $","lat":37.6196,"lon":-122.3656,"elev":2,"name":"San Francisco Intl, CA, US","cover":"OVC","clouds":[{"cover":"FEW","base":1600},{"cover":"SCT","base":3500},{"cover":"BKN","base":4600},{"cover":"OVC","base":15000}],"fltCat":"VFR"},{"icaoId":"KENV","receiptTime":"2026-04-11T21:58:23.736Z","obsTime":1775944560,"reportTime":"2026-04-11T22:00:00.000Z","temp":18.9,"dewp":-2.8,"wdir":260,"wspd":11,"wgst":19,"visib":"10+","altim":1009.2,"slp":1006.8,"qcField":6,"metarType":"METAR","rawOb":"METAR KENV 112156Z AUTO 26011G19KT 10SM CLR 19/M03 A2980 RMK AO2 PK WND 28026/2059 WSHFT 2122 SLP068 T01891028","lat":40.7211,"lon":-114.0312,"elev":1291,"name":"Wendover Arpt, UT, US","cover":"CLR","clouds":[],"fltCat":"VFR"},{"icaoId":"KSBP","receiptTime":"2026-04-11T22:00:17.023Z","obsTime":1775944560,"reportTime":"2026-04-11T22:00:00.000Z","temp":17.8,"dewp":11.1,"wdir":190,"wspd":14,"wgst":21,"visib":"10+","altim":1014.3,"slp":1014,"qcField":4,"metarType":"METAR","rawOb":"METAR KSBP 112156Z 19014G21KT 10SM FEW021 SCT026 OVC044 18/11 A2995 RMK AO2 SLP140 T01780111","lat":35.2381,"lon":-120.644,"elev":52,"name":"San Luis Obispo/San Luis Cnty, CA, US","cover":"OVC","clouds":[{"cover":"FEW","base":2100},{"cover":"SCT","base":2600},{"cover":"OVC","base":4400}],"fltCat":"VFR"},{"icaoId":"KUKI","receiptTime":"2026-04-11T22:00:15.677Z","obsTime":1775944560,"reportTime":"2026-04-11T22:00:00.000Z","temp":12.8,"dewp":9.4,"wdir":150,"wspd":10,"wgst":24,"visib":"10+","altim":1005.8,"slp":1005.3,"qcField":6,"wxString":"-RA","precip":0.005,"metarType":"METAR","rawOb":"METAR KUKI 112156Z AUTO 15010G24KT 10SM -RA FEW022 BKN038 OVC060 13/09 A2970 RMK AO2 RAB43 SLP053 P0000 T01280094","lat":39.1278,"lon":-123.2001,"elev":183,"name":"Ukiah Muni, CA, US","cover":"OVC","clouds":[{"cover":"FEW","base":2200},{"cover":"BKN","base":3800},{"cover":"OVC","base":6000}],"fltCat":"VFR"},{"icaoId":"KTPH","receiptTime":"2026-04-11T22:00:15.664Z","obsTime":1775944560,"reportTime":"2026-04-11T22:00:00.000Z","temp":15.6,"dewp":-3.3,"wdir":190,"wspd":19,"wgst":29,"visib":"10+","altim":1011.3,"slp":1007,"qcField":6,"metarType":"METAR","rawOb":"METAR KTPH 112156Z AUTO 19019G29KT 10SM SCT070 16/M03 A2986 RMK AO2 PK WND 18029/2148 SLP070 T01561033","lat":38.0505,"lon":-117.0906,"elev":1647,"name":"Tonopah Arpt, NV, US","cover":"SCT","clouds":[{"cover":"SCT","base":7000}],"fltCat":"VFR"},{"icaoId":"KHND","receiptTime":"2026-04-11T21:58:24.063Z","obsTime":1775944560,"reportTime":"2026-04-11T22:00:00.000Z","temp":24.4,"dewp":-2.8,"wdir":230,"wspd":16,"wgst":25,"visib":"10+","altim":1010.9,"slp":1010.6,"qcField":12,"metarType":"METAR","rawOb":"METAR KHND 112156Z 23016G25KT 10SM CLR 24/M03 A2985 RMK AO2 PK WND 21027/2117 SLP106 T02441028 $","lat":35.9657,"lon":-115.1343,"elev":740,"name":"Henderson Exec, NV, US","cover":"CLR","clouds":[],"fltCat":"VFR"},{"icaoId":"KINW","receiptTime":"2026-04-11T22:00:18.457Z","obsTime":1775944560,"reportTime":"2026-04-11T22:00:00.000Z","temp":23.3,"dewp":-0.6,"wdir":220,"wspd":21,"wgst":29,"visib":"10+","altim":1015.7,"slp":1010.2,"qcField":6,"metarType":"METAR","rawOb":"METAR KINW 112156Z AUTO 22021G29KT 10SM FEW090 23/M01 A2999 RMK AO2 PK WND 23033/2133 SLP102 T02331006","lat":35.0279,"lon":-110.7221,"elev":1492,"name":"Winslow/Lindberg Rgnl, AZ, US","cover":"FEW","clouds":[{"cover":"FEW","base":9000}],"fltCat":"VFR"},{"icaoId":"KLAS","receiptTime":"2026-04-11T22:00:13.943Z","obsTime":1775944560,"reportTime":"2026-04-11T22:00:00.000Z","temp":25,"dewp":-4.4,"wdir":210,"wspd":19,"wgst":32,"visib":"10+","altim":1009.6,"slp":1007.8,"qcField":4,"metarType":"METAR","rawOb":"METAR KLAS 112156Z 21019G32KT 10SM FEW150 SCT250 25/M04 A2981 RMK AO2 PK WND 23033/2106 SLP078 T02501044","lat":36.0719,"lon":-115.1634,"elev":662,"name":"Las Vegas/Reid Intl, NV, US","cover":"SCT","clouds":[{"cover":"FEW","base":15000},{"cover":"SCT","base":25000}],"fltCat":"VFR"},{"icaoId":"KVIS","receiptTime":"2026-04-11T21:58:22.816Z","obsTime":1775944560,"reportTime":"2026-04-11T22:00:00.000Z","temp":23.3,"dewp":6.7,"wdir":210,"wspd":8,"visib":"10+","altim":1013,"slp":1012.6,"qcField":14,"metarType":"METAR","rawOb":"METAR KVIS 112156Z AUTO 21008KT 10SM FEW090 23/07 A2991 RMK AO2 SLP126 T02330067 $","lat":36.3135,"lon":-119.3884,"elev":92,"name":"Visalia Muni, CA, US","cover":"FEW","clouds":[{"cover":"FEW","base":9000}],"fltCat":"VFR"},{"icaoId":"KCMA","receiptTime":"2026-04-11T21:58:23.485Z","obsTime":1775944500,"reportTime":"2026-04-11T22:00:00.000Z","temp":20,"dewp":11.7,"wdir":230,"wspd":7,"visib":"10+","altim":1015.3,"slp":1015.9,"qcField":4,"metarType":"METAR","rawOb":"METAR KCMA 112155Z 23007KT 10SM CLR 20/12 A2998 RMK AO2 SLP159 T02000117","lat":34.2114,"lon":-119.0876,"elev":20,"name":"Camarillo Arpt, CA, US","cover":"CLR","clouds":[],"fltCat":"VFR"},{"icaoId":"KRNO","receiptTime":"2026-04-11T21:58:22.551Z","obsTime":1775944500,"reportTime":"2026-04-11T22:00:00.000Z","temp":15,"dewp":-1.7,"wdir":180,"wspd":21,"wgst":32,"visib":"10+","altim":1008.5,"slp":1005.8,"qcField":4,"metarType":"METAR","rawOb":"METAR KRNO 112155Z 18021G32KT 10SM SCT070 BKN110 BKN170 BKN220 15/M02 A2978 RMK AO2 PK WND 19035/2136 SLP058 ACSL OHD T01501017","lat":39.5077,"lon":-119.7683,"elev":1344,"name":"Reno/Tahoe Intl, NV, US","cover":"BKN","clouds":[{"cover":"SCT","base":7000},{"cover":"BKN","base":11000},{"cover":"BKN","base":17000},{"cover":"BKN","base":22000}],"fltCat":"VFR"},{"icaoId":"KBFL","receiptTime":"2026-04-11T21:58:06.568Z","obsTime":1775944440,"reportTime":"2026-04-11T22:00:00.000Z","temp":23.3,"dewp":5.6,"wdir":290,"wspd":4,"visib":"10+","altim":1011.9,"slp":1011.3,"qcField":12,"metarType":"METAR","rawOb":"METAR KBFL 112154Z 29004KT 10SM CLR 23/06 A2988 RMK AO2 SLP113 T02330056 $","lat":35.4342,"lon":-119.0552,"elev":146,"name":"Bakersfield/Meadows Arpt, CA, US","cover":"CLR","clouds":[],"fltCat":"VFR"},{"icaoId":"KSJN","receiptTime":"2026-04-11T21:58:06.225Z","obsTime":1775944440,"reportTime":"2026-04-11T22:00:00.000Z","temp":21.1,"dewp":-2.8,"wdir":260,"wspd":20,"wgst":26,"visib":"10+","altim":1016,"slp":1008.9,"qcField":6,"metarType":"METAR","rawOb":"METAR KSJN 112154Z AUTO 26020G26KT 10SM SCT100 SCT110 21/M03 A3000 RMK AO2 PK WND 24027/2058 SLP089 T02111028","lat":34.5184,"lon":-109.3801,"elev":1747,"name":"St Johns Ind Arpt, AZ, US","cover":"SCT","clouds":[{"cover":"SCT","base":10000},{"cover":"SCT","base":11000}],"fltCat":"VFR"},{"icaoId":"KGCN","receiptTime":"2026-04-11T21:58:07.077Z","obsTime":1775944440,"reportTime":"2026-04-11T22:00:00.000Z","temp":17.8,"dewp":-8.3,"wdir":210,"wspd":22,"wgst":34,"visib":"10+","altim":1016.3,"slp":1010.5,"qcField":4,"metarType":"METAR","rawOb":"METAR KGCN 112154Z 21022G34KT 10SM CLR 18/M08 A3001 RMK AO2 PK WND 23036/2105 SLP105 T01781083","lat":35.9458,"lon":-112.1554,"elev":1993,"name":"Grand Canyon Park Arpt, AZ, US","cover":"CLR","clouds":[],"fltCat":"VFR"},{"icaoId":"KFFZ","receiptTime":"2026-04-11T21:58:18.817Z","obsTime":1775944440,"reportTime":"2026-04-11T22:00:00.000Z","temp":30.6,"dewp":2.2,"wdir":250,"wspd":10,"wgst":14,"visib":"10+","altim":1010.6,"slp":1008.1,"qcField":38,"metarType":"METAR","rawOb":"METAR KFFZ 112154Z AUTO 25010G14KT 10SM SCT100 31/02 A2984 RMK AO2 SLP081 T03060022 TSNO","lat":33.4659,"lon":-111.7212,"elev":420,"name":"Mesa/Falcon Fld, AZ, US","cover":"SCT","clouds":[{"cover":"SCT","base":10000}],"fltCat":"VFR"},{"icaoId":"KAPC","receiptTime":"2026-04-11T21:58:06.498Z","obsTime":1775944440,"reportTime":"2026-04-11T22:00:00.000Z","temp":15.6,"dewp":11.1,"wdir":180,"wspd":11,"wgst":23,"visib":"10+","altim":1008.9,"slp":1008,"qcField":4,"metarType":"METAR","rawOb":"METAR KAPC 112154Z 18011G23KT 10SM SCT070 BKN085 16/11 A2979 RMK AO2 PK WND 17026/2143 SLP080 T01560111","lat":38.2075,"lon":-122.2804,"elev":5,"name":"Napa Cnty Arpt, CA, US","cover":"BKN","clouds":[{"cover":"SCT","base":7000},{"cover":"BKN","base":8500}],"fltCat":"VFR"},{"icaoId":"KOLS","receiptTime":"2026-04-11T21:58:05.910Z","obsTime":1775944440,"reportTime":"2026-04-11T22:00:00.000Z","temp":25.6,"dewp":1.1,"wdir":250,"wspd":13,"wgst":25,"visib":"10+","altim":1016.3,"slp":1010.7,"qcField":6,"metarType":"METAR","rawOb":"METAR KOLS 112154Z AUTO 25013G25KT 10SM BKN100 BKN120 26/01 A3001 RMK AO2 PK WND 22031/2104 SLP107 T02560011","lat":31.4208,"lon":-110.8465,"elev":1194,"name":"Nogales Intl, AZ, US","cover":"BKN","clouds":[{"cover":"BKN","base":10000},{"cover":"BKN","base":12000}],"fltCat":"VFR"},{"icaoId":"KSBA","receiptTime":"2026-04-11T21:56:31.198Z","obsTime":1775944380,"reportTime":"2026-04-11T22:00:00.000Z","temp":18.9,"dewp":12.2,"wdir":140,"wspd":7,"visib":"10+","altim":1015.3,"slp":1015.3,"qcField":12,"metarType":"METAR","rawOb":"METAR KSBA 112153Z 14007KT 10SM SCT055 19/12 A2998 RMK AO2 SLP153 T01890122 $","lat":34.4241,"lon":-119.8425,"elev":2,"name":"Santa Barbara Muni, CA, US","cover":"SCT","clouds":[{"cover":"SCT","base":5500}],"fltCat":"VFR"},{"icaoId":"KBUR","receiptTime":"2026-04-11T21:56:32.972Z","obsTime":1775944380,"reportTime":"2026-04-11T22:00:00.000Z","temp":20.6,"dewp":7.8,"wdir":200,"wspd":11,"visib":"10+","altim":1015,"slp":1013.9,"qcField":4,"metarType":"METAR","rawOb":"METAR KBUR 112153Z 20011KT 10SM CLR 21/08 A2997 RMK AO2 SLP139 T02060078","lat":34.1996,"lon":-118.3654,"elev":221,"name":"Burbank/Bob Hope Arpt, CA, US","cover":"CLR","clouds":[],"fltCat":"VFR"},{"icaoId":"KCRQ","receiptTime":"2026-04-11T21:56:34.072Z","obsTime":1775944380,"reportTime":"2026-04-11T22:00:00.000Z","temp":19.4,"dewp":11.1,"wdir":240,"wspd":11,"visib":"10+","altim":1015.3,"slp":1014.9,"qcField":4,"metarType":"METAR","rawOb":"METAR KCRQ 112153Z 24011KT 10SM CLR 19/11 A2998 RMK AO2 SLP149 T01940111","lat":33.1299,"lon":-117.2765,"elev":96,"name":"Carlsbad/Palomar Arpt, CA, US","cover":"CLR","clouds":[],"fltCat":"VFR"},{"icaoId":"KDVT","receiptTime":"2026-04-11T21:56:34.386Z","obsTime":1775944380,"reportTime":"2026-04-11T22:00:00.000Z","temp":30.6,"dewp":3.9,"wdir":280,"wspd":7,"wgst":17,"visib":"10+","altim":1010.9,"slp":1008.6,"qcField":14,"metarType":"METAR","rawOb":"METAR KDVT 112153Z AUTO 28007G17KT 250V310 10SM FEW110 31/04 A2985 RMK AO2 SLP086 T03060039 $","lat":33.6902,"lon":-112.0662,"elev":454,"name":"Phoenix/Deer Valley Arpt, AZ, US","cover":"FEW","clouds":[{"cover":"FEW","base":11000}],"fltCat":"VFR"},{"icaoId":"KELY","receiptTime":"2026-04-11T21:56:33.980Z","obsTime":1775944380,"reportTime":"2026-04-11T22:00:00.000Z","temp":13.9,"dewp":-8.3,"wdir":190,"wspd":12,"wgst":20,"visib":"10+","altim":1011.3,"slp":1005,"qcField":6,"metarType":"METAR","rawOb":"METAR KELY 112153Z AUTO 19012G20KT 10SM BKN085 14/M08 A2986 RMK AO2 PK WND 24028/2126 WSHFT 2106 SLP050 T01391083","lat":39.2954,"lon":-114.8466,"elev":1906,"name":"Ely/Yelland Fld, NV, US","cover":"BKN","clouds":[{"cover":"BKN","base":8500}],"fltCat":"VFR"},{"icaoId":"KFAT","receiptTime":"2026-04-11T21:56:38.355Z","obsTime":1775944380,"reportTime":"2026-04-11T22:00:00.000Z","temp":22.2,"dewp":6.1,"wdir":180,"wspd":12,"wgst":20,"visib":"10+","altim":1012.3,"slp":1011.9,"qcField":12,"metarType":"METAR","rawOb":"METAR KFAT 112153Z 18012G20KT 10SM SCT060 BKN095 OVC200 22/06 A2989 RMK AO2 SLP119 T02220061 $","lat":36.78,"lon":-119.7202,"elev":102,"name":"Fresno/Yosemite Intl, CA, US","cover":"OVC","clouds":[{"cover":"SCT","base":6000},{"cover":"BKN","base":9500},{"cover":"OVC","base":20000}],"fltCat":"VFR"},{"icaoId":"KFUL","receiptTime":"2026-04-11T21:56:34.640Z","obsTime":1775944380,"reportTime":"2026-04-11T22:00:00.000Z","temp":22.8,"dewp":8.3,"wdir":"VRB","wspd":6,"visib":"10+","altim":1014.6,"slp":1014.3,"qcField":4,"metarType":"METAR","rawOb":"METAR KFUL 112153Z VRB06KT 10SM CLR 23/08 A2996 RMK AO2 SLP143 T02280083","lat":33.8715,"lon":-117.9856,"elev":23,"name":"Fullerton Muni, CA, US","cover":"CLR","clouds":[],"fltCat":"VFR"},{"icaoId":"KLGB","receiptTime":"2026-04-11T21:56:34.888Z","obsTime":1775944380,"reportTime":"2026-04-11T22:00:00.000Z","temp":22.2,"dewp":9.4,"wdir":180,"wspd":10,"visib":"10+","altim":1015,"slp":1014.6,"qcField":12,"metarType":"METAR","rawOb":"METAR KLGB 112153Z 18010KT 10SM CLR 22/09 A2997 RMK AO2 SLP146 T02220094 $","lat":33.8118,"lon":-118.1472,"elev":10,"name":"Long Beach Arpt, CA, US","cover":"CLR","clouds":[],"fltCat":"VFR"},{"icaoId":"KLOL","receiptTime":"2026-04-11T21:56:30.780Z","obsTime":1775944380,"reportTime":"2026-04-11T22:00:00.000Z","temp":16.1,"dewp":-2.8,"wdir":230,"wspd":13,"wgst":21,"visib":"10+","altim":1008.5,"slp":1006.9,"qcField":6,"metarType":"METAR","rawOb":"METAR KLOL 112153Z AUTO 23013G21KT 10SM CLR 16/M03 A2978 RMK AO2 SLP069 T01611028","lat":40.0684,"lon":-118.5702,"elev":1191,"name":"Lovelock/Derby Fld, NV, US","cover":"CLR","clouds":[],"fltCat":"VFR"},{"icaoId":"KMOD","receiptTime":"2026-04-11T21:56:36.752Z","obsTime":1775944380,"reportTime":"2026-04-11T22:00:00.000Z","temp":20,"dewp":10,"wdir":220,"wspd":10,"wgst":17,"visib":"10+","altim":1010.2,"slp":1010,"qcField":4,"precip":0.005,"metarType":"METAR","rawOb":"METAR KMOD 112153Z 22010G17KT 190V260 10SM FEW038 FEW070 20/10 A2983 RMK AO2 PK WND 16027/2101 RAB2056E16 SLP100 P0000 T02000100","lat":37.6254,"lon":-120.9549,"elev":25,"name":"Modesto/Sham Fld, CA, US","cover":"FEW","clouds":[{"cover":"FEW","base":3800},{"cover":"FEW","base":7000}],"fltCat":"VFR"},{"icaoId":"KMYF","receiptTime":"2026-04-11T21:56:32.077Z","obsTime":1775944380,"reportTime":"2026-04-11T22:00:00.000Z","temp":21.1,"dewp":10.6,"wdir":240,"wspd":8,"wgst":15,"visib":"10+","altim":1015.3,"slp":1014.8,"qcField":4,"metarType":"METAR","rawOb":"METAR KMYF 112153Z 24008G15KT 10SM CLR 21/11 A2998 RMK AO2 SLP148 T02110106","lat":32.8145,"lon":-117.1375,"elev":128,"name":"San Diego/Montgomery Arpt, CA, US","cover":"CLR","clouds":[],"fltCat":"VFR"},{"icaoId":"KOAK","receiptTime":"2026-04-11T21:56:36.893Z","obsTime":1775944380,"reportTime":"2026-04-11T22:00:00.000Z","temp":16.7,"dewp":11.1,"wdir":150,"wspd":22,"wgst":30,"visib":"10+","altim":1009.6,"slp":1009.5,"qcField":12,"metarType":"METAR","rawOb":"METAR KOAK 112153Z 15022G30KT 10SM SCT024 SCT034 BKN065 17/11 A2981 RMK AO2 PK WND 13031/2128 SLP095 T01670111 $","lat":37.7178,"lon":-122.233,"elev":3,"name":"Oakland Intl, CA, US","cover":"BKN","clouds":[{"cover":"SCT","base":2400},{"cover":"SCT","base":3400},{"cover":"BKN","base":6500}],"fltCat":"VFR"},{"icaoId":"KONT","receiptTime":"2026-04-11T21:56:32.214Z","obsTime":1775944380,"reportTime":"2026-04-11T22:00:00.000Z","temp":22.2,"dewp":6.7,"wdir":210,"wspd":11,"wgst":18,"visib":"10+","altim":1014.6,"slp":1013.4,"qcField":12,"metarType":"METAR","rawOb":"METAR KONT 112153Z 21011G18KT 180V250 10SM BKN055 22/07 A2996 RMK AO2 SLP134 T02220067 $","lat":34.0531,"lon":-117.5769,"elev":279,"name":"Ontario Intl, CA, US","cover":"BKN","clouds":[{"cover":"BKN","base":5500}],"fltCat":"VFR"},{"icaoId":"KPGA","receiptTime":"2026-04-11T21:56:23.930Z","obsTime":1775944380,"reportTime":"2026-04-11T22:00:00.000Z","temp":23.9,"dewp":-9.4,"wdir":190,"wspd":12,"wgst":28,"visib":"10+","altim":1010.9,"slp":1005.3,"qcField":14,"metarType":"METAR","rawOb":"METAR KPGA 112153Z AUTO 19012G28KT 10SM CLR 24/M09 A2985 RMK AO2 PK WND 18029/2141 SLP053 T02391094 $","lat":36.9211,"lon":-111.4487,"elev":1310,"name":"Page Muni, AZ, US","cover":"CLR","clouds":[],"fltCat":"VFR"},{"icaoId":"KPRC","receiptTime":"2026-04-11T21:56:32.417Z","obsTime":1775944380,"reportTime":"2026-04-11T22:00:00.000Z","temp":20,"dewp":-0.6,"wdir":200,"wspd":19,"wgst":28,"visib":"10+","altim":1016,"slp":1009.7,"qcField":4,"metarType":"METAR","rawOb":"METAR KPRC 112153Z 20019G28KT 10SM SCT075 20/M01 A3000 RMK AO2 PK WND 19033/2129 SLP097 T02001006","lat":34.6491,"lon":-112.4223,"elev":1528,"name":"Prescott/Love Fld, AZ, US","cover":"SCT","clouds":[{"cover":"SCT","base":7500}],"fltCat":"VFR"},{"icaoId":"KPSP","receiptTime":"2026-04-11T21:56:32.430Z","obsTime":1775944380,"reportTime":"2026-04-11T22:00:00.000Z","temp":28.3,"dewp":3.9,"wdir":330,"wspd":15,"visib":"10+","altim":1010.9,"slp":1010.4,"qcField":4,"metarType":"METAR","rawOb":"METAR KPSP 112153Z 33015KT 10SM CLR 28/04 A2985 RMK AO2 WSHFT 2128 SLP104 T02830039","lat":33.8222,"lon":-116.5043,"elev":123,"name":"Palm Springs Intl, CA, US","cover":"CLR","clouds":[],"fltCat":"VFR"},{"icaoId":"KACV","receiptTime":"2026-04-11T21:56:37.898Z","obsTime":1775944380,"reportTime":"2026-04-11T22:00:00.000Z","temp":15.6,"dewp":9.4,"wdir":150,"wspd":11,"wgst":18,"visib":"10+","altim":1003.5,"slp":1003.9,"qcField":6,"precip":0.005,"metarType":"METAR","rawOb":"METAR KACV 112153Z AUTO 15011G18KT 10SM FEW047 SCT060 BKN075 16/09 A2963 RMK AO2 PK WND 17028/2138 LTG DSNT N RAE2057B31E47 SLP039 P0000 T01560094","lat":40.9784,"lon":-124.1048,"elev":63,"name":"Arcata Arpt, CA, US","cover":"BKN","clouds":[{"cover":"FEW","base":4700},{"cover":"SCT","base":6000},{"cover":"BKN","base":7500}],"fltCat":"VFR"},{"icaoId":"KSDL","receiptTime":"2026-04-11T21:56:31.239Z","obsTime":1775944380,"reportTime":"2026-04-11T22:00:00.000Z","temp":31.1,"dewp":2.8,"wdir":200,"wspd":9,"visib":"10+","altim":1011.3,"slp":1008.7,"qcField":4,"metarType":"METAR","rawOb":"METAR KSDL 112153Z 20009KT 10SM CLR 31/03 A2986 RMK AO2 SLP087 T03110028","lat":33.6123,"lon":-111.9232,"elev":438,"name":"Scottsdale Muni, AZ, US","cover":"CLR","clouds":[],"fltCat":"VFR"},{"icaoId":"KSJC","receiptTime":"2026-04-11T21:56:39.196Z","obsTime":1775944380,"reportTime":"2026-04-11T22:00:00.000Z","temp":15.6,"dewp":11.7,"wdir":190,"wspd":14,"wgst":24,"visib":8,"altim":1010.6,"slp":1010.3,"qcField":12,"wxString":"-RA","precip":0.005,"metarType":"METAR","rawOb":"METAR KSJC 112153Z 19014G24KT 8SM -RA SCT018 BKN025 OVC045 16/12 A2984 RMK AO2 RAE03B20 SLP103 P0000 T01560117 $","lat":37.3594,"lon":-121.9244,"elev":13,"name":"San Jose Intl Arpt, CA, US","cover":"OVC","clouds":[{"cover":"SCT","base":1800},{"cover":"BKN","base":2500},{"cover":"OVC","base":4500}],"fltCat":"MVFR"},{"icaoId":"KSMF","receiptTime":"2026-04-11T21:56:35.052Z","obsTime":1775944380,"reportTime":"2026-04-11T22:00:00.000Z","temp":16.1,"dewp":11.1,"wdir":200,"wspd":18,"wgst":25,"visib":"10+","altim":1009.2,"slp":1009.1,"qcField":12,"metarType":"METAR","rawOb":"METAR KSMF 112153Z 20018G25KT 10SM BKN050 OVC075 16/11 A2980 RMK AO2 PK WND 21026/2110 LTG DSNT NE-SE SLP091 T01610111 $","lat":38.7007,"lon":-121.5948,"elev":7,"name":"Sacramento Intl, CA, US","cover":"OVC","clouds":[{"cover":"BKN","base":5000},{"cover":"OVC","base":7500}],"fltCat":"VFR"},{"icaoId":"KSNA","receiptTime":"2026-04-11T22:00:17.158Z","obsTime":1775944380,"reportTime":"2026-04-11T22:00:00.000Z","temp":20.6,"dewp":10,"wdir":240,"wspd":7,"wgst":16,"visib":"10+","altim":1015,"slp":1014.9,"qcField":13,"metarType":"METAR","rawOb":"METAR KSNA 112153Z COR 24007G16KT 10SM FEW050 21/10 A2997 RMK AO2 SLP149 T02060100 $","lat":33.6798,"lon":-117.8675,"elev":14,"name":"Santa Ana/Wayne Arpt, CA, US","cover":"FEW","clouds":[{"cover":"FEW","base":5000}],"fltCat":"VFR"},{"icaoId":"KTUS","receiptTime":"2026-04-11T21:56:24.117Z","obsTime":1775944380,"reportTime":"2026-04-11T22:00:00.000Z","temp":28.9,"dewp":0.6,"wdir":230,"wspd":14,"wgst":21,"visib":"10+","altim":1014,"slp":1009.6,"qcField":4,"metarType":"METAR","rawOb":"METAR KTUS 112153Z 23014G21KT 10SM SCT110 29/01 A2994 RMK AO2 SLP096 T02890006","lat":32.1315,"lon":-110.9564,"elev":776,"name":"Tucson Intl Arpt, AZ, US","cover":"SCT","clouds":[{"cover":"SCT","base":11000}],"fltCat":"VFR"},{"icaoId":"KVGT","receiptTime":"2026-04-11T21:56:31.529Z","obsTime":1775944380,"reportTime":"2026-04-11T22:00:00.000Z","temp":25.6,"dewp":-3.9,"wdir":210,"wspd":15,"wgst":24,"visib":"10+","altim":1009.2,"slp":1008.9,"qcField":4,"metarType":"METAR","rawOb":"METAR KVGT 112153Z 21015G24KT 10SM CLR 26/M04 A2980 RMK AO2 PK WND 20026/2115 SLP089 T02561039","lat":36.212,"lon":-115.194,"elev":664,"name":"Las Vegas/North Arpt, NV, US","cover":"CLR","clouds":[],"fltCat":"VFR"},{"icaoId":"KSAD","receiptTime":"2026-04-11T21:54:04.636Z","obsTime":1775944260,"reportTime":"2026-04-11T22:00:00.000Z","temp":28.9,"dewp":-1.1,"wdir":"VRB","wspd":5,"visib":"10+","altim":1012.3,"slp":1007.9,"qcField":6,"metarType":"METAR","rawOb":"METAR KSAD 112151Z AUTO VRB05KT 10SM FEW110 29/M01 A2989 RMK AO2 SLP079 T02891011","lat":32.8565,"lon":-109.636,"elev":937,"name":"Safford Rgnl, AZ, US","cover":"FEW","clouds":[{"cover":"FEW","base":11000}],"fltCat":"VFR"},{"icaoId":"KIGM","receiptTime":"2026-04-11T21:54:08.444Z","obsTime":1775944260,"reportTime":"2026-04-11T22:00:00.000Z","temp":23.3,"dewp":-3.3,"wdir":210,"wspd":20,"wgst":32,"visib":"10+","altim":1013,"slp":1006.7,"qcField":6,"metarType":"METAR","rawOb":"METAR KIGM 112151Z AUTO 21020G32KT 10SM CLR 23/M03 A2991 RMK AO2 PK WND 22034/2117 SLP067 T02331033","lat":35.2575,"lon":-113.9341,"elev":1045,"name":"Kingman Arpt, AZ, US","cover":"CLR","clouds":[],"fltCat":"VFR"},{"icaoId":"KOXR","receiptTime":"2026-04-11T21:54:08.681Z","obsTime":1775944260,"reportTime":"2026-04-11T22:00:00.000Z","temp":18.9,"dewp":11.7,"wdir":220,"wspd":9,"visib":"10+","altim":1015.3,"slp":1015.3,"qcField":4,"metarType":"METAR","rawOb":"METAR KOXR 112151Z 22009KT 10SM CLR 19/12 A2998 RMK AO2 SLP153 T01890117","lat":34.2001,"lon":-119.2042,"elev":12,"name":"Oxnard Arpt, CA, US","cover":"CLR","clouds":[],"fltCat":"VFR"},{"icaoId":"KPHX","receiptTime":"2026-04-11T21:54:06.048Z","obsTime":1775944260,"reportTime":"2026-04-11T22:00:00.000Z","temp":32.2,"dewp":3.9,"wdir":270,"wspd":9,"wgst":15,"visib":"10+","altim":1009.9,"slp":1008,"qcField":4,"metarType":"METAR","rawOb":"METAR KPHX 112151Z 27009G15KT 10SM SCT110 SCT250 32/04 A2982 RMK AO2 SLP080 T03220039","lat":33.4278,"lon":-112.0037,"elev":338,"name":"Phoenix/Sky Harbor Intl, AZ, US","cover":"SCT","clouds":[{"cover":"SCT","base":11000},{"cover":"SCT","base":25000}],"fltCat":"VFR"},{"icaoId":"KSAN","receiptTime":"2026-04-11T21:54:09.029Z","obsTime":1775944260,"reportTime":"2026-04-11T22:00:00.000Z","temp":20.6,"dewp":11.7,"wdir":310,"wspd":7,"visib":"10+","altim":1015.7,"slp":1015.6,"qcField":12,"metarType":"METAR","rawOb":"METAR KSAN 112151Z 31007KT 10SM FEW020 21/12 A2999 RMK AO2 SLP156 T02060117 $","lat":32.7364,"lon":-117.1973,"elev":3,"name":"San Diego Intl Arpt, CA, US","cover":"FEW","clouds":[{"cover":"FEW","base":2000}],"fltCat":"VFR"},{"icaoId":"KVNY","receiptTime":"2026-04-11T21:54:09.340Z","obsTime":1775944260,"reportTime":"2026-04-11T22:00:00.000Z","temp":21.1,"dewp":3.9,"wdir":"VRB","wspd":6,"wgst":15,"visib":"10+","altim":1014.6,"slp":1013.8,"qcField":12,"metarType":"METAR","rawOb":"METAR KVNY 112151Z VRB06G15KT 10SM CLR 21/04 A2996 RMK AO2 SLP138 T02110039 $","lat":34.2121,"lon":-118.4915,"elev":241,"name":"Van Nuys Arpt, CA, US","cover":"CLR","clouds":[],"fltCat":"VFR"},{"icaoId":"KIFP","receiptTime":"2026-04-11T21:49:31.114Z","obsTime":1775944080,"reportTime":"2026-04-11T22:00:00.000Z","temp":29,"dewp":-1,"wdir":190,"wspd":23,"wgst":30,"visib":"10+","altim":1008.5,"qcField":0,"metarType":"METAR","rawOb":"METAR KIFP 112148Z 19023G30KT 10SM CLR 29/M01 A2978","lat":35.1487,"lon":-114.5611,"elev":210,"name":"Bullhead City Intl, AZ, US","cover":"CLR","clouds":[],"fltCat":"VFR"},{"icaoId":"KGYR","receiptTime":"2026-04-11T21:50:06.019Z","obsTime":1775944020,"reportTime":"2026-04-11T22:00:00.000Z","temp":31,"dewp":4,"wdir":230,"wspd":15,"wgst":18,"visib":"10+","altim":1010.9,"qcField":0,"metarType":"METAR","rawOb":"METAR KGYR 112147Z 23015G18KT 10SM SCT120 31/04 A2985","lat":33.428,"lon":-112.368,"elev":292,"name":"Phoenix/Goodyear Muni, AZ, US","cover":"SCT","clouds":[{"cover":"SCT","base":12000}],"fltCat":"VFR"},{"icaoId":"KGEU","receiptTime":"2026-04-11T21:50:57.242Z","obsTime":1775944020,"reportTime":"2026-04-11T22:00:00.000Z","temp":30,"dewp":3,"wdir":180,"wspd":7,"visib":"10+","altim":1009.6,"qcField":0,"metarType":"METAR","rawOb":"METAR KGEU 112147Z 18007KT 10SM CLR 30/03 A2981","lat":33.528,"lon":-112.293,"elev":319,"name":"Glendale Muni, AZ, US","cover":"CLR","clouds":[],"fltCat":"VFR"},{"icaoId":"KCHD","receiptTime":"2026-04-11T21:51:03.895Z","obsTime":1775944020,"reportTime":"2026-04-11T22:00:00.000Z","temp":32,"dewp":3,"wdir":"VRB","wspd":3,"visib":"10+","altim":1010.2,"qcField":0,"metarType":"METAR","rawOb":"METAR KCHD 112147Z VRB03KT 10SM SCT110 32/03 A2983","lat":33.2669,"lon":-111.8086,"elev":378,"name":"Chandler Muni, AZ, US","cover":"SCT","clouds":[{"cover":"SCT","base":11000}],"fltCat":"VFR"}]